{"pageProps":{"stateName":"Wisconsin","cityName":"allenton","nearbyCities":[{"city":"Theresa","state_name":"Wisconsin","lat":43.49667,"lng":-88.43674,"zip":"53091","miles_from_dt":4.55},{"city":"West Bend","state_name":"Wisconsin","lat":43.45685,"lng":-88.17985,"zip":"53090","miles_from_dt":8.82},{"city":"Kewaskum","state_name":"Wisconsin","lat":43.52126,"lng":-88.19198,"zip":"53040","miles_from_dt":8.93},{"city":"Lomira","state_name":"Wisconsin","lat":43.57935,"lng":-88.45554,"zip":"53048","miles_from_dt":9.16},{"city":"Mayville","state_name":"Wisconsin","lat":43.50992,"lng":-88.54734,"zip":"53050","miles_from_dt":10.09},{"city":"Campbellsport","state_name":"Wisconsin","lat":43.61121,"lng":-88.27901,"zip":"53010","miles_from_dt":10.53},{"city":"Hartford","state_name":"Wisconsin","lat":43.31697,"lng":-88.37356,"zip":"53027","miles_from_dt":10.54},{"city":"Woodland","state_name":"Wisconsin","lat":43.38035,"lng":-88.52525,"zip":"53099","miles_from_dt":10.55},{"city":"Slinger","state_name":"Wisconsin","lat":43.32508,"lng":-88.27124,"zip":"53086","miles_from_dt":10.78},{"city":"Iron Ridge","state_name":"Wisconsin","lat":43.39135,"lng":-88.54355,"zip":"53035","miles_from_dt":10.92},{"city":"West Bend","state_name":"Wisconsin","lat":43.38838,"lng":-88.15895,"zip":"53095","miles_from_dt":11.3},{"city":"Rubicon","state_name":"Wisconsin","lat":43.31386,"lng":-88.45924,"zip":"53078","miles_from_dt":11.93},{"city":"Horicon","state_name":"Wisconsin","lat":43.44708,"lng":-88.6234,"zip":"53032","miles_from_dt":13.6},{"city":"Brownsville","state_name":"Wisconsin","lat":43.62103,"lng":-88.53534,"zip":"53006","miles_from_dt":13.88},{"city":"Jackson","state_name":"Wisconsin","lat":43.31255,"lng":-88.16108,"zip":"53037","miles_from_dt":14.54},{"city":"Neosho","state_name":"Wisconsin","lat":43.28954,"lng":-88.53012,"zip":"53059","miles_from_dt":15.22},{"city":"Hustisford","state_name":"Wisconsin","lat":43.34014,"lng":-88.60746,"zip":"53034","miles_from_dt":15.53},{"city":"Richfield","state_name":"Wisconsin","lat":43.26966,"lng":-88.20905,"zip":"53076","miles_from_dt":15.59},{"city":"Newburg","state_name":"Wisconsin","lat":43.43091,"lng":-88.04571,"zip":"53060","miles_from_dt":15.75},{"city":"Eden","state_name":"Wisconsin","lat":43.69667,"lng":-88.30752,"zip":"53019","miles_from_dt":15.9},{"city":"Hubertus","state_name":"Wisconsin","lat":43.23716,"lng":-88.25634,"zip":"53033","miles_from_dt":16.75},{"city":"Fredonia","state_name":"Wisconsin","lat":43.49425,"lng":-88.00111,"zip":"53021","miles_from_dt":17.85},{"city":"Adell","state_name":"Wisconsin","lat":43.60562,"lng":-88.05217,"zip":"53001","miles_from_dt":17.88},{"city":"Burnett","state_name":"Wisconsin","lat":43.51558,"lng":-88.70916,"zip":"53922","miles_from_dt":18.11},{"city":"Oakfield","state_name":"Wisconsin","lat":43.68227,"lng":-88.56866,"zip":"53065","miles_from_dt":18.23},{"city":"Cascade","state_name":"Wisconsin","lat":43.65755,"lng":-88.08123,"zip":"53011","miles_from_dt":18.91},{"city":"Saukville","state_name":"Wisconsin","lat":43.40733,"lng":-87.98789,"zip":"53080","miles_from_dt":18.93},{"city":"Colgate","state_name":"Wisconsin","lat":43.2044,"lng":-88.2526,"zip":"53017","miles_from_dt":18.97},{"city":"Random Lake","state_name":"Wisconsin","lat":43.56318,"lng":-87.99559,"zip":"53075","miles_from_dt":19.17},{"city":"Juneau","state_name":"Wisconsin","lat":43.36931,"lng":-88.71148,"zip":"53039","miles_from_dt":19.23},{"city":"Cedarburg","state_name":"Wisconsin","lat":43.31369,"lng":-88.03704,"zip":"53012","miles_from_dt":19.25},{"city":"Ashippun","state_name":"Wisconsin","lat":43.21226,"lng":-88.51957,"zip":"53003","miles_from_dt":19.57},{"city":"Lebanon","state_name":"Wisconsin","lat":43.25904,"lng":-88.63002,"zip":"53047","miles_from_dt":20.06},{"city":"Fond Du Lac","state_name":"Wisconsin","lat":43.75959,"lng":-88.43335,"zip":"54937","miles_from_dt":20.45},{"city":"Germantown","state_name":"Wisconsin","lat":43.23062,"lng":-88.11286,"zip":"53022","miles_from_dt":20.47},{"city":"Clyman","state_name":"Wisconsin","lat":43.31104,"lng":-88.71794,"zip":"53016","miles_from_dt":21.3},{"city":"North Lake","state_name":"Wisconsin","lat":43.1605,"lng":-88.37165,"zip":"53064","miles_from_dt":21.31},{"city":"Fond Du Lac","state_name":"Wisconsin","lat":43.77542,"lng":-88.43396,"zip":"54935","miles_from_dt":21.53},{"city":"Fond Du Lac","state_name":"Wisconsin","lat":43.77351,"lng":-88.4478,"zip":"54936","miles_from_dt":21.54},{"city":"Merton","state_name":"Wisconsin","lat":43.14776,"lng":-88.30709,"zip":"53056","miles_from_dt":22.3},{"city":"Waupun","state_name":"Wisconsin","lat":43.63492,"lng":-88.73828,"zip":"53963","miles_from_dt":22.42},{"city":"Hartland","state_name":"Wisconsin","lat":43.14381,"lng":-88.34624,"zip":"53029","miles_from_dt":22.45},{"city":"Mount Calvary","state_name":"Wisconsin","lat":43.79099,"lng":-88.24671,"zip":"53057","miles_from_dt":22.88},{"city":"Sussex","state_name":"Wisconsin","lat":43.14646,"lng":-88.23594,"zip":"53089","miles_from_dt":23.05},{"city":"Grafton","state_name":"Wisconsin","lat":43.33233,"lng":-87.93299,"zip":"53024","miles_from_dt":23.22},{"city":"Menomonee Falls","state_name":"Wisconsin","lat":43.178,"lng":-88.11944,"zip":"53052","miles_from_dt":23.32},{"city":"Mequon","state_name":"Wisconsin","lat":43.24574,"lng":-88.0069,"zip":"53097","miles_from_dt":23.33},{"city":"Ixonia","state_name":"Wisconsin","lat":43.17141,"lng":-88.57693,"zip":"53036","miles_from_dt":23.4},{"city":"Watertown","state_name":"Wisconsin","lat":43.24955,"lng":-88.71461,"zip":"53098","miles_from_dt":23.63},{"city":"Lowell","state_name":"Wisconsin","lat":43.33996,"lng":-88.79449,"zip":"53557","miles_from_dt":23.87},{"city":"Port Washington","state_name":"Wisconsin","lat":43.42716,"lng":-87.88265,"zip":"53074","miles_from_dt":23.91},{"city":"Belgium","state_name":"Wisconsin","lat":43.4995,"lng":-87.8805,"zip":"53004","miles_from_dt":23.92},{"city":"Lannon","state_name":"Wisconsin","lat":43.15215,"lng":-88.16045,"zip":"53046","miles_from_dt":23.96},{"city":"Waldo","state_name":"Wisconsin","lat":43.65348,"lng":-87.93894,"zip":"53093","miles_from_dt":24.45},{"city":"Okauchee","state_name":"Wisconsin","lat":43.1131,"lng":-88.43094,"zip":"53069","miles_from_dt":24.87},{"city":"Nashotah","state_name":"Wisconsin","lat":43.11003,"lng":-88.40624,"zip":"53058","miles_from_dt":24.91},{"city":"Glenbeulah","state_name":"Wisconsin","lat":43.78198,"lng":-88.10745,"zip":"53023","miles_from_dt":24.91},{"city":"Hingham","state_name":"Wisconsin","lat":43.64036,"lng":-87.91778,"zip":"53031","miles_from_dt":24.92},{"city":"Menomonee Falls","state_name":"Wisconsin","lat":43.14905,"lng":-88.12348,"zip":"53051","miles_from_dt":24.97},{"city":"Saint Cloud","state_name":"Wisconsin","lat":43.81132,"lng":-88.1888,"zip":"53079","miles_from_dt":25.05},{"city":"Beaver Dam","state_name":"Wisconsin","lat":43.45538,"lng":-88.85813,"zip":"53916","miles_from_dt":25.34},{"city":"Oconomowoc","state_name":"Wisconsin","lat":43.11451,"lng":-88.49068,"zip":"53066","miles_from_dt":25.41},{"city":"Greenbush","state_name":"Wisconsin","lat":43.77869,"lng":-88.08022,"zip":"53026","miles_from_dt":25.43},{"city":"Cedar Grove","state_name":"Wisconsin","lat":43.56585,"lng":-87.85172,"zip":"53013","miles_from_dt":26.13},{"city":"Rosendale","state_name":"Wisconsin","lat":43.7801,"lng":-88.65997,"zip":"54974","miles_from_dt":26.38},{"city":"Milwaukee","state_name":"Wisconsin","lat":43.16357,"lng":-88.03894,"zip":"53224","miles_from_dt":26.41},{"city":"Mequon","state_name":"Wisconsin","lat":43.22139,"lng":-87.95351,"zip":"53092","miles_from_dt":26.46},{"city":"Plymouth","state_name":"Wisconsin","lat":43.75011,"lng":-87.99191,"zip":"53073","miles_from_dt":26.6},{"city":"Pewaukee","state_name":"Wisconsin","lat":43.07989,"lng":-88.26638,"zip":"53072","miles_from_dt":27.22},{"city":"Fox Lake","state_name":"Wisconsin","lat":43.57235,"lng":-88.88338,"zip":"53933","miles_from_dt":27.51},{"city":"Brandon","state_name":"Wisconsin","lat":43.73462,"lng":-88.77564,"zip":"53919","miles_from_dt":27.98},{"city":"Milwaukee","state_name":"Wisconsin","lat":43.16304,"lng":-87.98996,"zip":"53223","miles_from_dt":28},{"city":"Eldorado","state_name":"Wisconsin","lat":43.83143,"lng":-88.61861,"zip":"54932","miles_from_dt":28.31},{"city":"Butler","state_name":"Wisconsin","lat":43.10825,"lng":-88.07116,"zip":"53007","miles_from_dt":28.71},{"city":"Malone","state_name":"Wisconsin","lat":43.8853,"lng":-88.28917,"zip":"53049","miles_from_dt":28.93},{"city":"Reeseville","state_name":"Wisconsin","lat":43.2894,"lng":-88.87545,"zip":"53579","miles_from_dt":29.01},{"city":"Milwaukee","state_name":"Wisconsin","lat":43.11443,"lng":-88.042,"zip":"53225","miles_from_dt":29.11},{"city":"Van Dyne","state_name":"Wisconsin","lat":43.8688,"lng":-88.53875,"zip":"54979","miles_from_dt":29.11},{"city":"Delafield","state_name":"Wisconsin","lat":43.04809,"lng":-88.39278,"zip":"53018","miles_from_dt":29.12},{"city":"Watertown","state_name":"Wisconsin","lat":43.1462,"lng":-88.73365,"zip":"53094","miles_from_dt":29.36},{"city":"Oostburg","state_name":"Wisconsin","lat":43.62429,"lng":-87.80872,"zip":"53070","miles_from_dt":29.43},{"city":"Brookfield","state_name":"Wisconsin","lat":43.061,"lng":-88.15145,"zip":"53045","miles_from_dt":29.97}],"targetCityZipCode":"53002","targetCityState":"Wisconsin"},"__N_SSG":true}