{"pageProps":{"stateName":"Wisconsin","cityName":"alma","nearbyCities":[{"city":"Cochrane","state_name":"Wisconsin","lat":44.26953,"lng":-91.76629,"zip":"54622","miles_from_dt":7.58},{"city":"Nelson","state_name":"Wisconsin","lat":44.46153,"lng":-91.94552,"zip":"54756","miles_from_dt":8.63},{"city":"Gilmanton","state_name":"Wisconsin","lat":44.46831,"lng":-91.67512,"zip":"54743","miles_from_dt":10.04},{"city":"Wabasha","state_name":"Minnesota","lat":44.35375,"lng":-92.06518,"zip":"55981","miles_from_dt":11.93},{"city":"Reads Landing","state_name":"Minnesota","lat":44.39793,"lng":-92.0898,"zip":"55968","miles_from_dt":13.22},{"city":"Kellogg","state_name":"Minnesota","lat":44.26788,"lng":-92.05591,"zip":"55945","miles_from_dt":13.45},{"city":"Mondovi","state_name":"Wisconsin","lat":44.57513,"lng":-91.67971,"zip":"54755","miles_from_dt":15.84},{"city":"Independence","state_name":"Wisconsin","lat":44.39438,"lng":-91.5035,"zip":"54747","miles_from_dt":16.03},{"city":"Durand","state_name":"Wisconsin","lat":44.60345,"lng":-91.90455,"zip":"54736","miles_from_dt":16.53},{"city":"Fountain City","state_name":"Wisconsin","lat":44.15928,"lng":-91.66661,"zip":"54629","miles_from_dt":16.59},{"city":"Pepin","state_name":"Wisconsin","lat":44.48936,"lng":-92.1232,"zip":"54759","miles_from_dt":16.85},{"city":"Minnesota City","state_name":"Minnesota","lat":44.11287,"lng":-91.78365,"zip":"55959","miles_from_dt":17.93},{"city":"Altura","state_name":"Minnesota","lat":44.13285,"lng":-91.97285,"zip":"55910","miles_from_dt":17.98},{"city":"Arcadia","state_name":"Wisconsin","lat":44.24882,"lng":-91.50066,"zip":"54612","miles_from_dt":18.17},{"city":"Rollingstone","state_name":"Minnesota","lat":44.08263,"lng":-91.87658,"zip":"55969","miles_from_dt":20.06},{"city":"Arkansaw","state_name":"Wisconsin","lat":44.6304,"lng":-92.07098,"zip":"54721","miles_from_dt":21.65},{"city":"Plainview","state_name":"Minnesota","lat":44.16448,"lng":-92.15483,"zip":"55964","miles_from_dt":21.68},{"city":"Dodge","state_name":"Wisconsin","lat":44.13287,"lng":-91.52507,"zip":"54625","miles_from_dt":22.18},{"city":"Stockholm","state_name":"Wisconsin","lat":44.50897,"lng":-92.23304,"zip":"54769","miles_from_dt":22.3},{"city":"Eleva","state_name":"Wisconsin","lat":44.59478,"lng":-91.47892,"zip":"54738","miles_from_dt":23.08},{"city":"Stockton","state_name":"Minnesota","lat":44.02766,"lng":-91.76029,"zip":"55988","miles_from_dt":23.91},{"city":"Millville","state_name":"Minnesota","lat":44.25494,"lng":-92.28373,"zip":"55957","miles_from_dt":24.08},{"city":"Lake City","state_name":"Minnesota","lat":44.39544,"lng":-92.31923,"zip":"55041","miles_from_dt":24.51},{"city":"Plum City","state_name":"Wisconsin","lat":44.62667,"lng":-92.17908,"zip":"54761","miles_from_dt":24.85},{"city":"Rock Falls","state_name":"Wisconsin","lat":44.71896,"lng":-91.69187,"zip":"54764","miles_from_dt":24.93},{"city":"Eau Galle","state_name":"Wisconsin","lat":44.71593,"lng":-91.98298,"zip":"54737","miles_from_dt":25.07},{"city":"Strum","state_name":"Wisconsin","lat":44.55121,"lng":-91.37259,"zip":"54770","miles_from_dt":25.63},{"city":"Whitehall","state_name":"Wisconsin","lat":44.39301,"lng":-91.3002,"zip":"54773","miles_from_dt":26.06},{"city":"Frontenac","state_name":"Minnesota","lat":44.52179,"lng":-92.3369,"zip":"55026","miles_from_dt":27.36},{"city":"Trempealeau","state_name":"Wisconsin","lat":44.05943,"lng":-91.47133,"zip":"54661","miles_from_dt":27.77},{"city":"Saint Charles","state_name":"Minnesota","lat":43.99396,"lng":-92.05092,"zip":"55972","miles_from_dt":28.33},{"city":"Winona","state_name":"Minnesota","lat":43.98469,"lng":-91.63143,"zip":"55987","miles_from_dt":28.35},{"city":"Homer","state_name":"Minnesota","lat":43.9821,"lng":-91.63782,"zip":"55942","miles_from_dt":28.41},{"city":"Downsville","state_name":"Wisconsin","lat":44.77598,"lng":-91.93058,"zip":"54735","miles_from_dt":28.46},{"city":"Elgin","state_name":"Minnesota","lat":44.13804,"lng":-92.30081,"zip":"55932","miles_from_dt":28.54},{"city":"Maiden Rock","state_name":"Wisconsin","lat":44.62052,"lng":-92.29513,"zip":"54750","miles_from_dt":28.92},{"city":"Lewiston","state_name":"Minnesota","lat":43.94399,"lng":-91.84337,"zip":"55952","miles_from_dt":29.48},{"city":"Galesville","state_name":"Wisconsin","lat":44.10339,"lng":-91.35881,"zip":"54630","miles_from_dt":29.62},{"city":"Blair","state_name":"Wisconsin","lat":44.30402,"lng":-91.2283,"zip":"54616","miles_from_dt":29.95}],"targetCityZipCode":"54610","targetCityState":"Wisconsin"},"__N_SSG":true}