{"pageProps":{"stateName":"Wisconsin","cityName":"appleton","nearbyCities":[{"city":"Appleton","state_name":"Wisconsin","lat":44.2683,"lng":-88.39632,"zip":"54919","miles_from_dt":1.2},{"city":"Kimberly","state_name":"Wisconsin","lat":44.26834,"lng":-88.33852,"zip":"54136","miles_from_dt":2.3},{"city":"Appleton","state_name":"Wisconsin","lat":44.26662,"lng":-88.43467,"zip":"54912","miles_from_dt":2.87},{"city":"Appleton","state_name":"Wisconsin","lat":44.24279,"lng":-88.35928,"zip":"54915","miles_from_dt":2.89},{"city":"Little Chute","state_name":"Wisconsin","lat":44.28689,"lng":-88.31045,"zip":"54140","miles_from_dt":3.51},{"city":"Combined Locks","state_name":"Wisconsin","lat":44.26404,"lng":-88.30705,"zip":"54113","miles_from_dt":3.86},{"city":"Appleton","state_name":"Wisconsin","lat":44.34145,"lng":-88.40136,"zip":"54913","miles_from_dt":4.25},{"city":"Appleton","state_name":"Wisconsin","lat":44.26353,"lng":-88.48239,"zip":"54914","miles_from_dt":5.19},{"city":"Menasha","state_name":"Wisconsin","lat":44.20086,"lng":-88.33719,"zip":"54952","miles_from_dt":5.99},{"city":"Kaukauna","state_name":"Wisconsin","lat":44.31194,"lng":-88.24301,"zip":"54130","miles_from_dt":7.15},{"city":"Neenah","state_name":"Wisconsin","lat":44.18333,"lng":-88.4634,"zip":"54957","miles_from_dt":7.93},{"city":"Greenville","state_name":"Wisconsin","lat":44.29904,"lng":-88.54265,"zip":"54942","miles_from_dt":8.11},{"city":"Freedom","state_name":"Wisconsin","lat":44.38639,"lng":-88.28861,"zip":"54131","miles_from_dt":8.55},{"city":"Sherwood","state_name":"Wisconsin","lat":44.17799,"lng":-88.2772,"zip":"54169","miles_from_dt":8.82},{"city":"Neenah","state_name":"Wisconsin","lat":44.18444,"lng":-88.52778,"zip":"54956","miles_from_dt":9.92},{"city":"Wrightstown","state_name":"Wisconsin","lat":44.33139,"lng":-88.17462,"zip":"54180","miles_from_dt":10.78},{"city":"Forest Junction","state_name":"Wisconsin","lat":44.20642,"lng":-88.15201,"zip":"54123","miles_from_dt":12.49},{"city":"Hortonville","state_name":"Wisconsin","lat":44.32409,"lng":-88.6274,"zip":"54944","miles_from_dt":12.57},{"city":"Hilbert","state_name":"Wisconsin","lat":44.12902,"lng":-88.20146,"zip":"54129","miles_from_dt":13.8},{"city":"Dale","state_name":"Wisconsin","lat":44.2703,"lng":-88.66835,"zip":"54931","miles_from_dt":14.28},{"city":"Black Creek","state_name":"Wisconsin","lat":44.48172,"lng":-88.45551,"zip":"54106","miles_from_dt":14.29},{"city":"Stockbridge","state_name":"Wisconsin","lat":44.07178,"lng":-88.29966,"zip":"53088","miles_from_dt":15.05},{"city":"Winnebago","state_name":"Wisconsin","lat":44.07562,"lng":-88.51953,"zip":"54985","miles_from_dt":15.81},{"city":"Brillion","state_name":"Wisconsin","lat":44.18533,"lng":-88.08105,"zip":"54110","miles_from_dt":16.3},{"city":"Larsen","state_name":"Wisconsin","lat":44.20003,"lng":-88.68995,"zip":"54947","miles_from_dt":16.35},{"city":"Green Bay","state_name":"Wisconsin","lat":44.41919,"lng":-88.10474,"zip":"54344","miles_from_dt":16.65},{"city":"De Pere","state_name":"Wisconsin","lat":44.40552,"lng":-88.09195,"zip":"54115","miles_from_dt":16.67},{"city":"Seymour","state_name":"Wisconsin","lat":44.52063,"lng":-88.31683,"zip":"54165","miles_from_dt":16.8},{"city":"Oshkosh","state_name":"Wisconsin","lat":44.06265,"lng":-88.53335,"zip":"54901","miles_from_dt":16.92},{"city":"Greenleaf","state_name":"Wisconsin","lat":44.28925,"lng":-88.03218,"zip":"54126","miles_from_dt":17.3},{"city":"Potter","state_name":"Wisconsin","lat":44.12029,"lng":-88.09895,"zip":"54160","miles_from_dt":17.9},{"city":"Butte Des Morts","state_name":"Wisconsin","lat":44.10192,"lng":-88.6548,"zip":"54927","miles_from_dt":18.42},{"city":"Shiocton","state_name":"Wisconsin","lat":44.51783,"lng":-88.57241,"zip":"54170","miles_from_dt":18.86},{"city":"Oneida","state_name":"Wisconsin","lat":44.51979,"lng":-88.19038,"zip":"54155","miles_from_dt":18.95},{"city":"Readfield","state_name":"Wisconsin","lat":44.27353,"lng":-88.76787,"zip":"54969","miles_from_dt":19.21},{"city":"Oshkosh","state_name":"Wisconsin","lat":44.019,"lng":-88.55343,"zip":"54906","miles_from_dt":20.07},{"city":"Nichols","state_name":"Wisconsin","lat":44.56645,"lng":-88.47049,"zip":"54152","miles_from_dt":20.15},{"city":"Chilton","state_name":"Wisconsin","lat":44.02298,"lng":-88.17549,"zip":"53014","miles_from_dt":20.58},{"city":"New London","state_name":"Wisconsin","lat":44.41173,"lng":-88.7628,"zip":"54961","miles_from_dt":20.94},{"city":"Green Bay","state_name":"Wisconsin","lat":44.49419,"lng":-88.06758,"zip":"54304","miles_from_dt":21.35},{"city":"Green Bay","state_name":"Wisconsin","lat":44.47049,"lng":-88.0366,"zip":"54307","miles_from_dt":21.46},{"city":"Winneconne","state_name":"Wisconsin","lat":44.11981,"lng":-88.75127,"zip":"54986","miles_from_dt":21.53},{"city":"Oshkosh","state_name":"Wisconsin","lat":43.9977,"lng":-88.56034,"zip":"54903","miles_from_dt":21.55},{"city":"Oshkosh","state_name":"Wisconsin","lat":44.02346,"lng":-88.62592,"zip":"54904","miles_from_dt":21.6},{"city":"Green Bay","state_name":"Wisconsin","lat":44.53315,"lng":-88.09624,"zip":"54305","miles_from_dt":22.36},{"city":"Green Bay","state_name":"Wisconsin","lat":44.47948,"lng":-88.02135,"zip":"54324","miles_from_dt":22.44},{"city":"Green Bay","state_name":"Wisconsin","lat":44.48193,"lng":-88.02029,"zip":"54301","miles_from_dt":22.58},{"city":"Fremont","state_name":"Wisconsin","lat":44.22696,"lng":-88.84446,"zip":"54940","miles_from_dt":23.31},{"city":"Collins","state_name":"Wisconsin","lat":44.08425,"lng":-87.98093,"zip":"54207","miles_from_dt":24.1},{"city":"Green Bay","state_name":"Wisconsin","lat":44.53931,"lng":-88.05115,"zip":"54303","miles_from_dt":24.14},{"city":"Oshkosh","state_name":"Wisconsin","lat":43.94934,"lng":-88.53969,"zip":"54902","miles_from_dt":24.27},{"city":"Green Bay","state_name":"Wisconsin","lat":44.51951,"lng":-88.01767,"zip":"54306","miles_from_dt":24.35},{"city":"Reedsville","state_name":"Wisconsin","lat":44.15749,"lng":-87.91202,"zip":"54230","miles_from_dt":24.81},{"city":"Green Bay","state_name":"Wisconsin","lat":44.58923,"lng":-88.11088,"zip":"54313","miles_from_dt":25.08},{"city":"Omro","state_name":"Wisconsin","lat":44.04524,"lng":-88.76661,"zip":"54963","miles_from_dt":25.18},{"city":"Green Bay","state_name":"Wisconsin","lat":44.50663,"lng":-87.97668,"zip":"54302","miles_from_dt":25.33},{"city":"Bear Creek","state_name":"Wisconsin","lat":44.54281,"lng":-88.74529,"zip":"54922","miles_from_dt":25.5},{"city":"New Holstein","state_name":"Wisconsin","lat":43.94588,"lng":-88.11803,"zip":"53061","miles_from_dt":26.62},{"city":"Pulaski","state_name":"Wisconsin","lat":44.66417,"lng":-88.27689,"zip":"54162","miles_from_dt":26.9},{"city":"New Holstein","state_name":"Wisconsin","lat":43.9475,"lng":-88.10198,"zip":"53062","miles_from_dt":26.93},{"city":"Green Bay","state_name":"Wisconsin","lat":44.50922,"lng":-87.93409,"zip":"54308","miles_from_dt":27.13},{"city":"Weyauwega","state_name":"Wisconsin","lat":44.31651,"lng":-88.93614,"zip":"54983","miles_from_dt":27.64},{"city":"Malone","state_name":"Wisconsin","lat":43.8853,"lng":-88.28917,"zip":"53049","miles_from_dt":27.75},{"city":"Green Bay","state_name":"Wisconsin","lat":44.48377,"lng":-87.89483,"zip":"54311","miles_from_dt":27.82},{"city":"Waukau","state_name":"Wisconsin","lat":43.98625,"lng":-88.76906,"zip":"54980","miles_from_dt":28.09},{"city":"Maribel","state_name":"Wisconsin","lat":44.28096,"lng":-87.80656,"zip":"54227","miles_from_dt":28.49},{"city":"Kellnersville","state_name":"Wisconsin","lat":44.22608,"lng":-87.80357,"zip":"54215","miles_from_dt":28.9},{"city":"Bonduel","state_name":"Wisconsin","lat":44.70068,"lng":-88.44436,"zip":"54107","miles_from_dt":29.1},{"city":"Denmark","state_name":"Wisconsin","lat":44.36239,"lng":-87.79619,"zip":"54208","miles_from_dt":29.51},{"city":"Van Dyne","state_name":"Wisconsin","lat":43.8688,"lng":-88.53875,"zip":"54979","miles_from_dt":29.57},{"city":"Saint Nazianz","state_name":"Wisconsin","lat":44.00668,"lng":-87.92462,"zip":"54232","miles_from_dt":29.58},{"city":"Valders","state_name":"Wisconsin","lat":44.02728,"lng":-87.8977,"zip":"54245","miles_from_dt":29.76},{"city":"Manawa","state_name":"Wisconsin","lat":44.48561,"lng":-88.91416,"zip":"54949","miles_from_dt":29.92}],"targetCityZipCode":"54911","targetCityState":"Wisconsin"},"__N_SSG":true}