{"pageProps":{"stateName":"Wisconsin","cityName":"arcadia","nearbyCities":[{"city":"Dodge","state_name":"Wisconsin","lat":44.13287,"lng":-91.52507,"zip":"54625","miles_from_dt":8.1},{"city":"Independence","state_name":"Wisconsin","lat":44.39438,"lng":-91.5035,"zip":"54747","miles_from_dt":10.05},{"city":"Fountain City","state_name":"Wisconsin","lat":44.15928,"lng":-91.66661,"zip":"54629","miles_from_dt":10.3},{"city":"Galesville","state_name":"Wisconsin","lat":44.10339,"lng":-91.35881,"zip":"54630","miles_from_dt":12.27},{"city":"Trempealeau","state_name":"Wisconsin","lat":44.05943,"lng":-91.47133,"zip":"54661","miles_from_dt":13.16},{"city":"Cochrane","state_name":"Wisconsin","lat":44.26953,"lng":-91.76629,"zip":"54622","miles_from_dt":13.26},{"city":"Blair","state_name":"Wisconsin","lat":44.30402,"lng":-91.2283,"zip":"54616","miles_from_dt":14.04},{"city":"Whitehall","state_name":"Wisconsin","lat":44.39301,"lng":-91.3002,"zip":"54773","miles_from_dt":14.07},{"city":"Ettrick","state_name":"Wisconsin","lat":44.16873,"lng":-91.23634,"zip":"54627","miles_from_dt":14.24},{"city":"Minnesota City","state_name":"Minnesota","lat":44.11287,"lng":-91.78365,"zip":"55959","miles_from_dt":16.91},{"city":"Gilmanton","state_name":"Wisconsin","lat":44.46831,"lng":-91.67512,"zip":"54743","miles_from_dt":17.45},{"city":"Alma","state_name":"Wisconsin","lat":44.37077,"lng":-91.82549,"zip":"54610","miles_from_dt":18.17},{"city":"Pigeon Falls","state_name":"Wisconsin","lat":44.42412,"lng":-91.20626,"zip":"54760","miles_from_dt":18.96},{"city":"Winona","state_name":"Minnesota","lat":43.98469,"lng":-91.63143,"zip":"55987","miles_from_dt":19.36},{"city":"Homer","state_name":"Minnesota","lat":43.9821,"lng":-91.63782,"zip":"55942","miles_from_dt":19.64},{"city":"Stockton","state_name":"Minnesota","lat":44.02766,"lng":-91.76029,"zip":"55988","miles_from_dt":20},{"city":"Taylor","state_name":"Wisconsin","lat":44.29704,"lng":-91.10065,"zip":"54659","miles_from_dt":20.12},{"city":"Holmen","state_name":"Wisconsin","lat":44.00732,"lng":-91.22682,"zip":"54636","miles_from_dt":21.53},{"city":"Strum","state_name":"Wisconsin","lat":44.55121,"lng":-91.37259,"zip":"54770","miles_from_dt":21.82},{"city":"Rollingstone","state_name":"Minnesota","lat":44.08263,"lng":-91.87658,"zip":"55969","miles_from_dt":21.93},{"city":"Melrose","state_name":"Wisconsin","lat":44.14978,"lng":-91.05303,"zip":"54642","miles_from_dt":23.26},{"city":"Dakota","state_name":"Minnesota","lat":43.90962,"lng":-91.46503,"zip":"55925","miles_from_dt":23.49},{"city":"Eleva","state_name":"Wisconsin","lat":44.59478,"lng":-91.47892,"zip":"54738","miles_from_dt":23.91},{"city":"Mondovi","state_name":"Wisconsin","lat":44.57513,"lng":-91.67971,"zip":"54755","miles_from_dt":24.21},{"city":"Altura","state_name":"Minnesota","lat":44.13285,"lng":-91.97285,"zip":"55910","miles_from_dt":24.79},{"city":"Osseo","state_name":"Wisconsin","lat":44.54546,"lng":-91.2173,"zip":"54758","miles_from_dt":24.83},{"city":"Hixton","state_name":"Wisconsin","lat":44.40871,"lng":-91.04455,"zip":"54635","miles_from_dt":25.16},{"city":"Nelson","state_name":"Wisconsin","lat":44.46153,"lng":-91.94552,"zip":"54756","miles_from_dt":26.48},{"city":"Lewiston","state_name":"Minnesota","lat":43.94399,"lng":-91.84337,"zip":"55952","miles_from_dt":27.09},{"city":"Onalaska","state_name":"Wisconsin","lat":43.9099,"lng":-91.22424,"zip":"54650","miles_from_dt":27.14},{"city":"Mindoro","state_name":"Wisconsin","lat":44.03089,"lng":-91.04326,"zip":"54644","miles_from_dt":27.27},{"city":"Kellogg","state_name":"Minnesota","lat":44.26788,"lng":-92.05591,"zip":"55945","miles_from_dt":27.58},{"city":"Wabasha","state_name":"Minnesota","lat":44.35375,"lng":-92.06518,"zip":"55981","miles_from_dt":28.91},{"city":"La Crosse","state_name":"Wisconsin","lat":43.85729,"lng":-91.24791,"zip":"54603","miles_from_dt":29.82}],"targetCityZipCode":"54612","targetCityState":"Wisconsin"},"__N_SSG":true}