{"pageProps":{"stateName":"Wisconsin","cityName":"arena","nearbyCities":[{"city":"Spring Green","state_name":"Wisconsin","lat":43.18949,"lng":-90.08201,"zip":"53588","miles_from_dt":7.24},{"city":"Ridgeway","state_name":"Wisconsin","lat":43.01791,"lng":-89.99106,"zip":"53582","miles_from_dt":8.57},{"city":"Blue Mounds","state_name":"Wisconsin","lat":43.03686,"lng":-89.82967,"zip":"53517","miles_from_dt":9.54},{"city":"Barneveld","state_name":"Wisconsin","lat":43.00153,"lng":-89.90173,"zip":"53507","miles_from_dt":9.91},{"city":"Black Earth","state_name":"Wisconsin","lat":43.11708,"lng":-89.74915,"zip":"53515","miles_from_dt":10.58},{"city":"Mazomanie","state_name":"Wisconsin","lat":43.19418,"lng":-89.75413,"zip":"53560","miles_from_dt":10.89},{"city":"Sauk City","state_name":"Wisconsin","lat":43.25671,"lng":-89.81178,"zip":"53583","miles_from_dt":10.9},{"city":"Plain","state_name":"Wisconsin","lat":43.31428,"lng":-90.07117,"zip":"53577","miles_from_dt":13.4},{"city":"Dodgeville","state_name":"Wisconsin","lat":42.99285,"lng":-90.14915,"zip":"53533","miles_from_dt":14.06},{"city":"Dodgeville","state_name":"Wisconsin","lat":42.96748,"lng":-90.13204,"zip":"53595","miles_from_dt":14.83},{"city":"Prairie Du Sac","state_name":"Wisconsin","lat":43.31356,"lng":-89.77408,"zip":"53578","miles_from_dt":15.14},{"city":"Lone Rock","state_name":"Wisconsin","lat":43.24014,"lng":-90.24525,"zip":"53556","miles_from_dt":16.17},{"city":"Cross Plains","state_name":"Wisconsin","lat":43.11854,"lng":-89.63739,"zip":"53528","miles_from_dt":16.18},{"city":"Mount Horeb","state_name":"Wisconsin","lat":42.96016,"lng":-89.73754,"zip":"53572","miles_from_dt":16.6},{"city":"Avoca","state_name":"Wisconsin","lat":43.15017,"lng":-90.28422,"zip":"53506","miles_from_dt":16.6},{"city":"Loganville","state_name":"Wisconsin","lat":43.38999,"lng":-90.03018,"zip":"53943","miles_from_dt":17.7},{"city":"Hollandale","state_name":"Wisconsin","lat":42.88199,"lng":-89.9153,"zip":"53544","miles_from_dt":17.89},{"city":"North Freedom","state_name":"Wisconsin","lat":43.39087,"lng":-89.86633,"zip":"53951","miles_from_dt":17.95},{"city":"Gotham","state_name":"Wisconsin","lat":43.22173,"lng":-90.29356,"zip":"53540","miles_from_dt":17.97},{"city":"Edmund","state_name":"Wisconsin","lat":42.96987,"lng":-90.26285,"zip":"53535","miles_from_dt":19.44},{"city":"Sextonville","state_name":"Wisconsin","lat":43.27937,"lng":-90.29477,"zip":"53584","miles_from_dt":19.64},{"city":"Hillpoint","state_name":"Wisconsin","lat":43.38841,"lng":-90.15753,"zip":"53937","miles_from_dt":19.97},{"city":"Middleton","state_name":"Wisconsin","lat":43.11592,"lng":-89.54188,"zip":"53562","miles_from_dt":21.01},{"city":"Highland","state_name":"Wisconsin","lat":43.0556,"lng":-90.36233,"zip":"53543","miles_from_dt":21.34},{"city":"Verona","state_name":"Wisconsin","lat":42.98533,"lng":-89.57992,"zip":"53593","miles_from_dt":21.81},{"city":"Rock Springs","state_name":"Wisconsin","lat":43.46055,"lng":-89.93858,"zip":"53961","miles_from_dt":22.19},{"city":"Madison","state_name":"Wisconsin","lat":43.07372,"lng":-89.51945,"zip":"53717","miles_from_dt":22.55},{"city":"Cobb","state_name":"Wisconsin","lat":42.97433,"lng":-90.34438,"zip":"53526","miles_from_dt":22.71},{"city":"Dane","state_name":"Wisconsin","lat":43.24075,"lng":-89.52496,"zip":"53529","miles_from_dt":22.88},{"city":"Linden","state_name":"Wisconsin","lat":42.91235,"lng":-90.29693,"zip":"53553","miles_from_dt":23.31},{"city":"Mineral Point","state_name":"Wisconsin","lat":42.84025,"lng":-90.16982,"zip":"53565","miles_from_dt":23.31},{"city":"Merrimac","state_name":"Wisconsin","lat":43.39594,"lng":-89.64414,"zip":"53561","miles_from_dt":23.7},{"city":"Lodi","state_name":"Wisconsin","lat":43.32163,"lng":-89.55625,"zip":"53555","miles_from_dt":23.79},{"city":"Blanchardville","state_name":"Wisconsin","lat":42.80073,"lng":-89.8676,"zip":"53516","miles_from_dt":23.8},{"city":"Madison","state_name":"Wisconsin","lat":43.0281,"lng":-89.50003,"zip":"53719","miles_from_dt":24.33},{"city":"Lime Ridge","state_name":"Wisconsin","lat":43.46393,"lng":-90.16536,"zip":"53942","miles_from_dt":24.76},{"city":"Madison","state_name":"Wisconsin","lat":43.07427,"lng":-89.46246,"zip":"53705","miles_from_dt":25.38},{"city":"Waunakee","state_name":"Wisconsin","lat":43.18258,"lng":-89.45726,"zip":"53597","miles_from_dt":25.39},{"city":"Madison","state_name":"Wisconsin","lat":43.07724,"lng":-89.45436,"zip":"53791","miles_from_dt":25.74},{"city":"Muscoda","state_name":"Wisconsin","lat":43.18196,"lng":-90.46326,"zip":"53573","miles_from_dt":25.79},{"city":"Montfort","state_name":"Wisconsin","lat":42.98105,"lng":-90.42966,"zip":"53569","miles_from_dt":26.34},{"city":"Baraboo","state_name":"Wisconsin","lat":43.49213,"lng":-89.72858,"zip":"53913","miles_from_dt":26.92},{"city":"Madison","state_name":"Wisconsin","lat":43.07711,"lng":-89.43044,"zip":"53792","miles_from_dt":26.94},{"city":"New Glarus","state_name":"Wisconsin","lat":42.81851,"lng":-89.65181,"zip":"53574","miles_from_dt":26.99},{"city":"Reedsburg","state_name":"Wisconsin","lat":43.53407,"lng":-89.99702,"zip":"53959","miles_from_dt":27.33},{"city":"Belleville","state_name":"Wisconsin","lat":42.86783,"lng":-89.5618,"zip":"53508","miles_from_dt":27.4},{"city":"Madison","state_name":"Wisconsin","lat":43.07036,"lng":-89.4223,"zip":"53726","miles_from_dt":27.42},{"city":"Cazenovia","state_name":"Wisconsin","lat":43.47971,"lng":-90.25455,"zip":"53924","miles_from_dt":27.9},{"city":"Reedsburg","state_name":"Wisconsin","lat":43.54327,"lng":-89.98668,"zip":"53958","miles_from_dt":27.93},{"city":"Madison","state_name":"Wisconsin","lat":43.07505,"lng":-89.40987,"zip":"53706","miles_from_dt":27.99},{"city":"Richland Center","state_name":"Wisconsin","lat":43.37504,"lng":-90.41637,"zip":"53581","miles_from_dt":28.35},{"city":"Madison","state_name":"Wisconsin","lat":43.07,"lng":-89.40219,"zip":"53774","miles_from_dt":28.43},{"city":"Madison","state_name":"Wisconsin","lat":43.01563,"lng":-89.41452,"zip":"53744","miles_from_dt":28.71},{"city":"Madison","state_name":"Wisconsin","lat":43.06038,"lng":-89.39861,"zip":"53715","miles_from_dt":28.73},{"city":"Madison","state_name":"Wisconsin","lat":43.05037,"lng":-89.3975,"zip":"53725","miles_from_dt":28.93},{"city":"Rewey","state_name":"Wisconsin","lat":42.85943,"lng":-90.38131,"zip":"53580","miles_from_dt":28.94},{"city":"Madison","state_name":"Wisconsin","lat":43.01521,"lng":-89.40641,"zip":"53711","miles_from_dt":29.11},{"city":"Madison","state_name":"Wisconsin","lat":43.04096,"lng":-89.39459,"zip":"53784","miles_from_dt":29.22},{"city":"Madison","state_name":"Wisconsin","lat":43.0754,"lng":-89.38308,"zip":"53785","miles_from_dt":29.32},{"city":"Madison","state_name":"Wisconsin","lat":43.07353,"lng":-89.38295,"zip":"53790","miles_from_dt":29.35},{"city":"Madison","state_name":"Wisconsin","lat":43.03743,"lng":-89.39254,"zip":"53713","miles_from_dt":29.37},{"city":"Madison","state_name":"Wisconsin","lat":43.07713,"lng":-89.38045,"zip":"53786","miles_from_dt":29.44},{"city":"Madison","state_name":"Wisconsin","lat":43.07486,"lng":-89.3808,"zip":"53702","miles_from_dt":29.44},{"city":"Madison","state_name":"Wisconsin","lat":43.07284,"lng":-89.37928,"zip":"53701","miles_from_dt":29.54},{"city":"Madison","state_name":"Wisconsin","lat":43.07518,"lng":-89.3784,"zip":"53788","miles_from_dt":29.56},{"city":"Madison","state_name":"Wisconsin","lat":43.07981,"lng":-89.37734,"zip":"53703","miles_from_dt":29.57},{"city":"Livingston","state_name":"Wisconsin","lat":42.90205,"lng":-90.44919,"zip":"53554","miles_from_dt":29.86}],"targetCityZipCode":"53503","targetCityState":"Wisconsin"},"__N_SSG":true}