{"pageProps":{"stateName":"Wisconsin","cityName":"arpin","nearbyCities":[{"city":"Vesper","state_name":"Wisconsin","lat":44.45445,"lng":-90.0075,"zip":"54489","miles_from_dt":6.11},{"city":"Blenker","state_name":"Wisconsin","lat":44.61838,"lng":-89.91807,"zip":"54415","miles_from_dt":7.61},{"city":"Hewitt","state_name":"Wisconsin","lat":44.64202,"lng":-90.10604,"zip":"54441","miles_from_dt":7.91},{"city":"Milladore","state_name":"Wisconsin","lat":44.60259,"lng":-89.8846,"zip":"54454","miles_from_dt":8.27},{"city":"Auburndale","state_name":"Wisconsin","lat":44.66859,"lng":-89.98238,"zip":"54412","miles_from_dt":9.06},{"city":"Marshfield","state_name":"Wisconsin","lat":44.63914,"lng":-90.19755,"zip":"54449","miles_from_dt":10.71},{"city":"Wisconsin Rapids","state_name":"Wisconsin","lat":44.39081,"lng":-89.95351,"zip":"54495","miles_from_dt":11.06},{"city":"Marshfield","state_name":"Wisconsin","lat":44.66796,"lng":-90.16845,"zip":"54404","miles_from_dt":11.12},{"city":"Rudolph","state_name":"Wisconsin","lat":44.48204,"lng":-89.78825,"zip":"54475","miles_from_dt":12.57},{"city":"Junction City","state_name":"Wisconsin","lat":44.61243,"lng":-89.75264,"zip":"54443","miles_from_dt":14.48},{"city":"Port Edwards","state_name":"Wisconsin","lat":44.34642,"lng":-89.87028,"zip":"54469","miles_from_dt":15.59},{"city":"Chili","state_name":"Wisconsin","lat":44.61043,"lng":-90.35036,"zip":"54420","miles_from_dt":16.57},{"city":"Pittsville","state_name":"Wisconsin","lat":44.3855,"lng":-90.31687,"zip":"54466","miles_from_dt":17.86},{"city":"Stratford","state_name":"Wisconsin","lat":44.79988,"lng":-90.07962,"zip":"54484","miles_from_dt":18.01},{"city":"Babcock","state_name":"Wisconsin","lat":44.28363,"lng":-90.15185,"zip":"54413","miles_from_dt":18.82},{"city":"Stevens Point","state_name":"Wisconsin","lat":44.51935,"lng":-89.63678,"zip":"54481","miles_from_dt":19.42},{"city":"Wisconsin Rapids","state_name":"Wisconsin","lat":44.34414,"lng":-89.74054,"zip":"54494","miles_from_dt":19.73},{"city":"Granton","state_name":"Wisconsin","lat":44.54149,"lng":-90.43101,"zip":"54436","miles_from_dt":19.86},{"city":"Spencer","state_name":"Wisconsin","lat":44.75688,"lng":-90.32525,"zip":"54479","miles_from_dt":20.85},{"city":"Nekoosa","state_name":"Wisconsin","lat":44.22965,"lng":-89.89502,"zip":"54457","miles_from_dt":22.53},{"city":"Mosinee","state_name":"Wisconsin","lat":44.7625,"lng":-89.68559,"zip":"54455","miles_from_dt":22.78},{"city":"Stevens Point","state_name":"Wisconsin","lat":44.4916,"lng":-89.52973,"zip":"54492","miles_from_dt":24.89},{"city":"Edgar","state_name":"Wisconsin","lat":44.90804,"lng":-89.98832,"zip":"54426","miles_from_dt":25.38},{"city":"Plover","state_name":"Wisconsin","lat":44.41575,"lng":-89.54062,"zip":"54467","miles_from_dt":25.65},{"city":"Stevens Point","state_name":"Wisconsin","lat":44.55174,"lng":-89.5092,"zip":"54482","miles_from_dt":25.66},{"city":"Unity","state_name":"Wisconsin","lat":44.84335,"lng":-90.33778,"zip":"54488","miles_from_dt":25.8},{"city":"Loyal","state_name":"Wisconsin","lat":44.7533,"lng":-90.47149,"zip":"54446","miles_from_dt":26.27},{"city":"Colby","state_name":"Wisconsin","lat":44.89866,"lng":-90.29532,"zip":"54421","miles_from_dt":27.93},{"city":"Bancroft","state_name":"Wisconsin","lat":44.30155,"lng":-89.57341,"zip":"54921","miles_from_dt":27.97},{"city":"Marathon","state_name":"Wisconsin","lat":44.93094,"lng":-89.83422,"zip":"54448","miles_from_dt":28.54}],"targetCityZipCode":"54410","targetCityState":"Wisconsin"},"__N_SSG":true}