{"pageProps":{"stateName":"Wisconsin","cityName":"avalon","nearbyCities":[{"city":"Darien","state_name":"Wisconsin","lat":42.60721,"lng":-88.75089,"zip":"53114","miles_from_dt":5.02},{"city":"Janesville","state_name":"Wisconsin","lat":42.65126,"lng":-88.94854,"zip":"53546","miles_from_dt":6.7},{"city":"Delavan","state_name":"Wisconsin","lat":42.65443,"lng":-88.6713,"zip":"53115","miles_from_dt":7.47},{"city":"Clinton","state_name":"Wisconsin","lat":42.54579,"lng":-88.84907,"zip":"53525","miles_from_dt":8.09},{"city":"Janesville","state_name":"Wisconsin","lat":42.70503,"lng":-89.00642,"zip":"53547","miles_from_dt":10.09},{"city":"Milton","state_name":"Wisconsin","lat":42.78276,"lng":-88.93127,"zip":"53563","miles_from_dt":10.22},{"city":"Sharon","state_name":"Wisconsin","lat":42.53049,"lng":-88.72056,"zip":"53585","miles_from_dt":10.26},{"city":"Whitewater","state_name":"Wisconsin","lat":42.80775,"lng":-88.73129,"zip":"53190","miles_from_dt":11.06},{"city":"Janesville","state_name":"Wisconsin","lat":42.73113,"lng":-89.03613,"zip":"53545","miles_from_dt":12.14},{"city":"Afton","state_name":"Wisconsin","lat":42.60484,"lng":-89.07165,"zip":"53501","miles_from_dt":13.51},{"city":"Walworth","state_name":"Wisconsin","lat":42.53075,"lng":-88.60945,"zip":"53184","miles_from_dt":13.89},{"city":"Williams Bay","state_name":"Wisconsin","lat":42.5776,"lng":-88.54574,"zip":"53191","miles_from_dt":15},{"city":"Elkhorn","state_name":"Wisconsin","lat":42.70989,"lng":-88.53028,"zip":"53121","miles_from_dt":15.02},{"city":"Beloit","state_name":"Wisconsin","lat":42.50764,"lng":-89.0322,"zip":"53512","miles_from_dt":15.21},{"city":"Fontana","state_name":"Wisconsin","lat":42.54532,"lng":-88.56216,"zip":"53125","miles_from_dt":15.26},{"city":"South Beloit","state_name":"Illinois","lat":42.47992,"lng":-88.98989,"zip":"61080","miles_from_dt":15.26},{"city":"Janesville","state_name":"Wisconsin","lat":42.68907,"lng":-89.13095,"zip":"53548","miles_from_dt":16.08},{"city":"Beloit","state_name":"Wisconsin","lat":42.54627,"lng":-89.09792,"zip":"53511","miles_from_dt":16.33},{"city":"Poplar Grove","state_name":"Illinois","lat":42.40786,"lng":-88.82747,"zip":"61065","miles_from_dt":17.45},{"city":"Capron","state_name":"Illinois","lat":42.40749,"lng":-88.75446,"zip":"61012","miles_from_dt":17.77},{"city":"Hanover","state_name":"Wisconsin","lat":42.63262,"lng":-89.16567,"zip":"53542","miles_from_dt":17.84},{"city":"Fort Atkinson","state_name":"Wisconsin","lat":42.91697,"lng":-88.87194,"zip":"53538","miles_from_dt":17.91},{"city":"Roscoe","state_name":"Illinois","lat":42.42434,"lng":-88.99346,"zip":"61073","miles_from_dt":18.62},{"city":"Edgerton","state_name":"Wisconsin","lat":42.84763,"lng":-89.09032,"zip":"53534","miles_from_dt":18.95},{"city":"Caledonia","state_name":"Illinois","lat":42.38926,"lng":-88.91266,"zip":"61011","miles_from_dt":19.35},{"city":"Harvard","state_name":"Illinois","lat":42.42333,"lng":-88.61104,"zip":"60033","miles_from_dt":19.48},{"city":"Zenda","state_name":"Wisconsin","lat":42.51397,"lng":-88.49016,"zip":"53195","miles_from_dt":19.53},{"city":"Palmyra","state_name":"Wisconsin","lat":42.89069,"lng":-88.59012,"zip":"53156","miles_from_dt":19.65},{"city":"Lake Geneva","state_name":"Wisconsin","lat":42.57075,"lng":-88.45024,"zip":"53147","miles_from_dt":19.73},{"city":"Footville","state_name":"Wisconsin","lat":42.67267,"lng":-89.21056,"zip":"53537","miles_from_dt":20.03},{"city":"Springfield","state_name":"Wisconsin","lat":42.64307,"lng":-88.41444,"zip":"53176","miles_from_dt":20.58},{"city":"Orfordville","state_name":"Wisconsin","lat":42.62543,"lng":-89.23949,"zip":"53576","miles_from_dt":21.64},{"city":"Rockton","state_name":"Illinois","lat":42.44661,"lng":-89.14109,"zip":"61072","miles_from_dt":22.15},{"city":"East Troy","state_name":"Wisconsin","lat":42.80066,"lng":-88.41783,"zip":"53120","miles_from_dt":22.52},{"city":"Eagle","state_name":"Wisconsin","lat":42.88356,"lng":-88.4862,"zip":"53119","miles_from_dt":22.82},{"city":"Jefferson","state_name":"Wisconsin","lat":42.99056,"lng":-88.77675,"zip":"53549","miles_from_dt":22.87},{"city":"Loves Park","state_name":"Illinois","lat":42.35218,"lng":-88.9962,"zip":"61132","miles_from_dt":23.16},{"city":"Machesney Park","state_name":"Illinois","lat":42.36365,"lng":-89.02869,"zip":"61115","miles_from_dt":23.16},{"city":"Loves Park","state_name":"Illinois","lat":42.35191,"lng":-88.99591,"zip":"61131","miles_from_dt":23.17},{"city":"Lyons","state_name":"Wisconsin","lat":42.64919,"lng":-88.35589,"zip":"53148","miles_from_dt":23.54},{"city":"Evansville","state_name":"Wisconsin","lat":42.76366,"lng":-89.26983,"zip":"53536","miles_from_dt":24.09},{"city":"Hebron","state_name":"Illinois","lat":42.45869,"lng":-88.42665,"zip":"60034","miles_from_dt":24.34},{"city":"Loves Park","state_name":"Illinois","lat":42.33538,"lng":-89.00369,"zip":"61111","miles_from_dt":24.38},{"city":"Pell Lake","state_name":"Wisconsin","lat":42.5377,"lng":-88.36855,"zip":"53157","miles_from_dt":24.42},{"city":"Cambridge","state_name":"Wisconsin","lat":42.98338,"lng":-89.03172,"zip":"53523","miles_from_dt":24.79},{"city":"Shirland","state_name":"Illinois","lat":42.44681,"lng":-89.20955,"zip":"61079","miles_from_dt":24.86},{"city":"Helenville","state_name":"Wisconsin","lat":43.00472,"lng":-88.66975,"zip":"53137","miles_from_dt":24.91},{"city":"Loves Park","state_name":"Illinois","lat":42.32593,"lng":-89.00394,"zip":"61130","miles_from_dt":24.99},{"city":"Rockford","state_name":"Illinois","lat":42.3453,"lng":-89.08271,"zip":"61103","miles_from_dt":25.63},{"city":"Rockford","state_name":"Illinois","lat":42.30854,"lng":-88.9892,"zip":"61114","miles_from_dt":25.84},{"city":"Genoa City","state_name":"Wisconsin","lat":42.52979,"lng":-88.33857,"zip":"53128","miles_from_dt":26.05},{"city":"Honey Creek","state_name":"Wisconsin","lat":42.74557,"lng":-88.30545,"zip":"53138","miles_from_dt":26.72},{"city":"Stoughton","state_name":"Wisconsin","lat":42.92684,"lng":-89.21182,"zip":"53589","miles_from_dt":27.19},{"city":"Dousman","state_name":"Wisconsin","lat":42.9725,"lng":-88.48859,"zip":"53118","miles_from_dt":27.26},{"city":"Burlington","state_name":"Wisconsin","lat":42.66412,"lng":-88.28045,"zip":"53105","miles_from_dt":27.37},{"city":"Sullivan","state_name":"Wisconsin","lat":43.02335,"lng":-88.59894,"zip":"53178","miles_from_dt":27.39},{"city":"Powers Lake","state_name":"Wisconsin","lat":42.55316,"lng":-88.29399,"zip":"53159","miles_from_dt":27.71},{"city":"Rockford","state_name":"Illinois","lat":42.28344,"lng":-89.00348,"zip":"61107","miles_from_dt":27.71},{"city":"Garden Prairie","state_name":"Illinois","lat":42.26344,"lng":-88.73586,"zip":"61038","miles_from_dt":27.73},{"city":"Rockford","state_name":"Illinois","lat":42.33727,"lng":-89.14725,"zip":"61101","miles_from_dt":27.96},{"city":"Brodhead","state_name":"Wisconsin","lat":42.60133,"lng":-89.36123,"zip":"53520","miles_from_dt":28.01},{"city":"Mukwonago","state_name":"Wisconsin","lat":42.87436,"lng":-88.34077,"zip":"53149","miles_from_dt":28.39},{"city":"North Prairie","state_name":"Wisconsin","lat":42.94056,"lng":-88.40237,"zip":"53153","miles_from_dt":28.62},{"city":"Belvidere","state_name":"Illinois","lat":42.24579,"lng":-88.83949,"zip":"61008","miles_from_dt":28.66},{"city":"Durand","state_name":"Illinois","lat":42.43629,"lng":-89.29183,"zip":"61024","miles_from_dt":28.73},{"city":"Richmond","state_name":"Illinois","lat":42.46403,"lng":-88.30975,"zip":"60071","miles_from_dt":29.25},{"city":"Lake Mills","state_name":"Wisconsin","lat":43.07831,"lng":-88.91508,"zip":"53551","miles_from_dt":29.25},{"city":"Johnson Creek","state_name":"Wisconsin","lat":43.08592,"lng":-88.79031,"zip":"53038","miles_from_dt":29.39},{"city":"Rockford","state_name":"Illinois","lat":42.25515,"lng":-89.00236,"zip":"61108","miles_from_dt":29.54},{"city":"Woodstock","state_name":"Illinois","lat":42.32468,"lng":-88.45672,"zip":"60098","miles_from_dt":29.62},{"city":"Rockford","state_name":"Illinois","lat":42.27183,"lng":-89.06462,"zip":"61106","miles_from_dt":29.66},{"city":"Wonder Lake","state_name":"Illinois","lat":42.39343,"lng":-88.36164,"zip":"60097","miles_from_dt":29.7},{"city":"Rockford","state_name":"Illinois","lat":42.25363,"lng":-89.01795,"zip":"61126","miles_from_dt":29.9}],"targetCityZipCode":"53505","targetCityState":"Wisconsin"},"__N_SSG":true}