{"pageProps":{"stateName":"Wisconsin","cityName":"baileys-harbor","nearbyCities":[{"city":"Fish Creek","state_name":"Wisconsin","lat":45.12169,"lng":-87.23024,"zip":"54212","miles_from_dt":5.42},{"city":"Ephraim","state_name":"Wisconsin","lat":45.15942,"lng":-87.16783,"zip":"54211","miles_from_dt":5.81},{"city":"Sister Bay","state_name":"Wisconsin","lat":45.18377,"lng":-87.09239,"zip":"54234","miles_from_dt":7.65},{"city":"Egg Harbor","state_name":"Wisconsin","lat":45.01126,"lng":-87.27278,"zip":"54209","miles_from_dt":8.03},{"city":"Ellison Bay","state_name":"Wisconsin","lat":45.2535,"lng":-87.0352,"zip":"54210","miles_from_dt":13.13},{"city":"Sturgeon Bay","state_name":"Wisconsin","lat":44.84218,"lng":-87.37677,"zip":"54235","miles_from_dt":20.04},{"city":"Washington Island","state_name":"Wisconsin","lat":45.37538,"lng":-86.89721,"zip":"54246","miles_from_dt":23.68},{"city":"Menominee","state_name":"Michigan","lat":45.21989,"lng":-87.58325,"zip":"49858","miles_from_dt":23.85},{"city":"Wallace","state_name":"Michigan","lat":45.29767,"lng":-87.59927,"zip":"49893","miles_from_dt":27.15},{"city":"Marinette","state_name":"Wisconsin","lat":45.08708,"lng":-87.70045,"zip":"54143","miles_from_dt":27.51},{"city":"Maplewood","state_name":"Wisconsin","lat":44.72423,"lng":-87.48353,"zip":"54226","miles_from_dt":29.72}],"targetCityZipCode":"54202","targetCityState":"Wisconsin"},"__N_SSG":true}