{"pageProps":{"stateName":"Wisconsin","cityName":"beldenville","nearbyCities":[{"city":"Ellsworth","state_name":"Wisconsin","lat":44.71648,"lng":-92.46279,"zip":"54011","miles_from_dt":5.19},{"city":"River Falls","state_name":"Wisconsin","lat":44.84796,"lng":-92.6096,"zip":"54022","miles_from_dt":9.14},{"city":"Spring Valley","state_name":"Wisconsin","lat":44.82645,"lng":-92.25513,"zip":"54767","miles_from_dt":9.53},{"city":"Hager City","state_name":"Wisconsin","lat":44.64578,"lng":-92.57048,"zip":"54014","miles_from_dt":11.8},{"city":"Baldwin","state_name":"Wisconsin","lat":44.95871,"lng":-92.37121,"zip":"54002","miles_from_dt":12.15},{"city":"Hammond","state_name":"Wisconsin","lat":44.96899,"lng":-92.45419,"zip":"54015","miles_from_dt":12.36},{"city":"Bay City","state_name":"Wisconsin","lat":44.61063,"lng":-92.42893,"zip":"54723","miles_from_dt":12.42},{"city":"Prescott","state_name":"Wisconsin","lat":44.74048,"lng":-92.71144,"zip":"54021","miles_from_dt":13.68},{"city":"Maiden Rock","state_name":"Wisconsin","lat":44.62052,"lng":-92.29513,"zip":"54750","miles_from_dt":13.77},{"city":"Woodville","state_name":"Wisconsin","lat":44.95532,"lng":-92.28279,"zip":"54028","miles_from_dt":13.83},{"city":"Roberts","state_name":"Wisconsin","lat":44.97708,"lng":-92.55218,"zip":"54023","miles_from_dt":13.99},{"city":"Elmwood","state_name":"Wisconsin","lat":44.74427,"lng":-92.15853,"zip":"54740","miles_from_dt":14.31},{"city":"Wilson","state_name":"Wisconsin","lat":44.92403,"lng":-92.19985,"zip":"54027","miles_from_dt":15.07},{"city":"Plum City","state_name":"Wisconsin","lat":44.62667,"lng":-92.17908,"zip":"54761","miles_from_dt":17.19},{"city":"Hudson","state_name":"Wisconsin","lat":44.97949,"lng":-92.69305,"zip":"54016","miles_from_dt":17.96},{"city":"Welch","state_name":"Minnesota","lat":44.59296,"lng":-92.70223,"zip":"55089","miles_from_dt":18.7},{"city":"Lakeland","state_name":"Minnesota","lat":44.94064,"lng":-92.76902,"zip":"55043","miles_from_dt":19.12},{"city":"Frontenac","state_name":"Minnesota","lat":44.52179,"lng":-92.3369,"zip":"55026","miles_from_dt":19.25},{"city":"Red Wing","state_name":"Minnesota","lat":44.51581,"lng":-92.5441,"zip":"55066","miles_from_dt":19.6},{"city":"Afton","state_name":"Minnesota","lat":44.90138,"lng":-92.81969,"zip":"55001","miles_from_dt":20.07},{"city":"Knapp","state_name":"Wisconsin","lat":44.94862,"lng":-92.09785,"zip":"54749","miles_from_dt":20.14},{"city":"Hastings","state_name":"Minnesota","lat":44.71139,"lng":-92.8585,"zip":"55033","miles_from_dt":21.2},{"city":"Arkansaw","state_name":"Wisconsin","lat":44.6304,"lng":-92.07098,"zip":"54721","miles_from_dt":21.35},{"city":"Stockholm","state_name":"Wisconsin","lat":44.50897,"lng":-92.23304,"zip":"54769","miles_from_dt":21.98},{"city":"Bayport","state_name":"Minnesota","lat":45.01183,"lng":-92.77883,"zip":"55003","miles_from_dt":22.52},{"city":"Glenwood City","state_name":"Wisconsin","lat":45.08134,"lng":-92.22929,"zip":"54013","miles_from_dt":22.65},{"city":"New Richmond","state_name":"Wisconsin","lat":45.11907,"lng":-92.52091,"zip":"54017","miles_from_dt":23.04},{"city":"Eau Galle","state_name":"Wisconsin","lat":44.71593,"lng":-91.98298,"zip":"54737","miles_from_dt":23.17},{"city":"Saint Paul","state_name":"Minnesota","lat":44.89422,"lng":-92.90638,"zip":"55129","miles_from_dt":23.91},{"city":"Cottage Grove","state_name":"Minnesota","lat":44.8172,"lng":-92.93373,"zip":"55016","miles_from_dt":24.24},{"city":"Houlton","state_name":"Wisconsin","lat":45.0696,"lng":-92.75403,"zip":"54082","miles_from_dt":24.62},{"city":"Downsville","state_name":"Wisconsin","lat":44.77598,"lng":-91.93058,"zip":"54735","miles_from_dt":25.18},{"city":"Menomonie","state_name":"Wisconsin","lat":44.84971,"lng":-91.92994,"zip":"54751","miles_from_dt":25.51},{"city":"Pepin","state_name":"Wisconsin","lat":44.48936,"lng":-92.1232,"zip":"54759","miles_from_dt":26.05},{"city":"Saint Paul","state_name":"Minnesota","lat":44.91998,"lng":-92.94388,"zip":"55125","miles_from_dt":26.22},{"city":"Downing","state_name":"Wisconsin","lat":45.09045,"lng":-92.11358,"zip":"54734","miles_from_dt":26.26},{"city":"Lake Elmo","state_name":"Minnesota","lat":44.99253,"lng":-92.898,"zip":"55042","miles_from_dt":26.38},{"city":"Stillwater","state_name":"Minnesota","lat":45.0584,"lng":-92.82583,"zip":"55083","miles_from_dt":26.41},{"city":"Vermillion","state_name":"Minnesota","lat":44.6731,"lng":-92.96432,"zip":"55085","miles_from_dt":26.94},{"city":"Somerset","state_name":"Wisconsin","lat":45.14184,"lng":-92.68997,"zip":"54025","miles_from_dt":27.15},{"city":"Saint Paul Park","state_name":"Minnesota","lat":44.82257,"lng":-92.99677,"zip":"55071","miles_from_dt":27.35},{"city":"Stillwater","state_name":"Minnesota","lat":45.07446,"lng":-92.84006,"zip":"55082","miles_from_dt":27.68},{"city":"Deer Park","state_name":"Wisconsin","lat":45.18781,"lng":-92.35734,"zip":"54007","miles_from_dt":27.77},{"city":"Goodhue","state_name":"Minnesota","lat":44.40868,"lng":-92.62058,"zip":"55027","miles_from_dt":27.77},{"city":"Newport","state_name":"Minnesota","lat":44.87437,"lng":-92.99746,"zip":"55055","miles_from_dt":27.9},{"city":"Lake City","state_name":"Minnesota","lat":44.39544,"lng":-92.31923,"zip":"55041","miles_from_dt":27.92},{"city":"Boyceville","state_name":"Wisconsin","lat":45.07103,"lng":-92.01062,"zip":"54725","miles_from_dt":28.71},{"city":"Hampton","state_name":"Minnesota","lat":44.60772,"lng":-92.96647,"zip":"55031","miles_from_dt":28.73},{"city":"Saint Paul","state_name":"Minnesota","lat":44.98812,"lng":-92.96405,"zip":"55128","miles_from_dt":29.04},{"city":"Inver Grove Heights","state_name":"Minnesota","lat":44.83318,"lng":-93.0334,"zip":"55076","miles_from_dt":29.21},{"city":"Durand","state_name":"Wisconsin","lat":44.60345,"lng":-91.90455,"zip":"54736","miles_from_dt":29.45},{"city":"Saint Paul","state_name":"Minnesota","lat":44.93972,"lng":-93.0066,"zip":"55119","miles_from_dt":29.58},{"city":"Saint Paul","state_name":"Minnesota","lat":44.94452,"lng":-93.0058,"zip":"55133","miles_from_dt":29.66},{"city":"Cannon Falls","state_name":"Minnesota","lat":44.48378,"lng":-92.86686,"zip":"55009","miles_from_dt":29.77}],"targetCityZipCode":"54003","targetCityState":"Wisconsin"},"__N_SSG":true}