{"pageProps":{"stateName":"Wisconsin","cityName":"blair","nearbyCities":[{"city":"Taylor","state_name":"Wisconsin","lat":44.29704,"lng":-91.10065,"zip":"54659","miles_from_dt":6.35},{"city":"Whitehall","state_name":"Wisconsin","lat":44.39301,"lng":-91.3002,"zip":"54773","miles_from_dt":7.1},{"city":"Pigeon Falls","state_name":"Wisconsin","lat":44.42412,"lng":-91.20626,"zip":"54760","miles_from_dt":8.36},{"city":"Ettrick","state_name":"Wisconsin","lat":44.16873,"lng":-91.23634,"zip":"54627","miles_from_dt":9.35},{"city":"Hixton","state_name":"Wisconsin","lat":44.40871,"lng":-91.04455,"zip":"54635","miles_from_dt":11.62},{"city":"Melrose","state_name":"Wisconsin","lat":44.14978,"lng":-91.05303,"zip":"54642","miles_from_dt":13.75},{"city":"Arcadia","state_name":"Wisconsin","lat":44.24882,"lng":-91.50066,"zip":"54612","miles_from_dt":14.04},{"city":"Independence","state_name":"Wisconsin","lat":44.39438,"lng":-91.5035,"zip":"54747","miles_from_dt":14.99},{"city":"Galesville","state_name":"Wisconsin","lat":44.10339,"lng":-91.35881,"zip":"54630","miles_from_dt":15.29},{"city":"Osseo","state_name":"Wisconsin","lat":44.54546,"lng":-91.2173,"zip":"54758","miles_from_dt":16.68},{"city":"Alma Center","state_name":"Wisconsin","lat":44.44624,"lng":-90.95164,"zip":"54611","miles_from_dt":16.86},{"city":"Strum","state_name":"Wisconsin","lat":44.55121,"lng":-91.37259,"zip":"54770","miles_from_dt":18.5},{"city":"Dodge","state_name":"Wisconsin","lat":44.13287,"lng":-91.52507,"zip":"54625","miles_from_dt":18.89},{"city":"Holmen","state_name":"Wisconsin","lat":44.00732,"lng":-91.22682,"zip":"54636","miles_from_dt":20.49},{"city":"Trempealeau","state_name":"Wisconsin","lat":44.05943,"lng":-91.47133,"zip":"54661","miles_from_dt":20.76},{"city":"Mindoro","state_name":"Wisconsin","lat":44.03089,"lng":-91.04326,"zip":"54644","miles_from_dt":20.98},{"city":"Black River Falls","state_name":"Wisconsin","lat":44.26158,"lng":-90.78049,"zip":"54615","miles_from_dt":22.4},{"city":"Eleva","state_name":"Wisconsin","lat":44.59478,"lng":-91.47892,"zip":"54738","miles_from_dt":23.59},{"city":"Fountain City","state_name":"Wisconsin","lat":44.15928,"lng":-91.66661,"zip":"54629","miles_from_dt":23.94},{"city":"Merrillan","state_name":"Wisconsin","lat":44.42913,"lng":-90.77527,"zip":"54754","miles_from_dt":24.04},{"city":"Cataract","state_name":"Wisconsin","lat":44.09118,"lng":-90.84255,"zip":"54620","miles_from_dt":24.15},{"city":"Humbird","state_name":"Wisconsin","lat":44.54543,"lng":-90.87217,"zip":"54746","miles_from_dt":24.26},{"city":"Fairchild","state_name":"Wisconsin","lat":44.61237,"lng":-90.98121,"zip":"54741","miles_from_dt":24.55},{"city":"Gilmanton","state_name":"Wisconsin","lat":44.46831,"lng":-91.67512,"zip":"54743","miles_from_dt":24.86},{"city":"Cochrane","state_name":"Wisconsin","lat":44.26953,"lng":-91.76629,"zip":"54622","miles_from_dt":26.79},{"city":"Onalaska","state_name":"Wisconsin","lat":43.9099,"lng":-91.22424,"zip":"54650","miles_from_dt":27.21},{"city":"West Salem","state_name":"Wisconsin","lat":43.91171,"lng":-91.09046,"zip":"54669","miles_from_dt":27.94},{"city":"Mondovi","state_name":"Wisconsin","lat":44.57513,"lng":-91.67971,"zip":"54755","miles_from_dt":29.14},{"city":"Augusta","state_name":"Wisconsin","lat":44.71702,"lng":-91.09874,"zip":"54722","miles_from_dt":29.23},{"city":"Dakota","state_name":"Minnesota","lat":43.90962,"lng":-91.46503,"zip":"55925","miles_from_dt":29.67},{"city":"Winona","state_name":"Minnesota","lat":43.98469,"lng":-91.63143,"zip":"55987","miles_from_dt":29.8},{"city":"Sparta","state_name":"Wisconsin","lat":44.00291,"lng":-90.79601,"zip":"54656","miles_from_dt":29.9},{"city":"Alma","state_name":"Wisconsin","lat":44.37077,"lng":-91.82549,"zip":"54610","miles_from_dt":29.95}],"targetCityZipCode":"54616","targetCityState":"Wisconsin"},"__N_SSG":true}