{"pageProps":{"stateName":"Wisconsin","cityName":"briggsville","nearbyCities":[{"city":"Endeavor","state_name":"Wisconsin","lat":43.683,"lng":-89.49506,"zip":"53930","miles_from_dt":5.57},{"city":"Wisconsin Dells","state_name":"Wisconsin","lat":43.67651,"lng":-89.75681,"zip":"53965","miles_from_dt":7.71},{"city":"Oxford","state_name":"Wisconsin","lat":43.78718,"lng":-89.5963,"zip":"53952","miles_from_dt":8.39},{"city":"Portage","state_name":"Wisconsin","lat":43.55606,"lng":-89.48606,"zip":"53901","miles_from_dt":9.6},{"city":"Packwaukee","state_name":"Wisconsin","lat":43.76606,"lng":-89.458,"zip":"53953","miles_from_dt":10.06},{"city":"Lake Delton","state_name":"Wisconsin","lat":43.59126,"lng":-89.7944,"zip":"53940","miles_from_dt":10.86},{"city":"Baraboo","state_name":"Wisconsin","lat":43.49213,"lng":-89.72858,"zip":"53913","miles_from_dt":13.53},{"city":"Grand Marsh","state_name":"Wisconsin","lat":43.87477,"lng":-89.71071,"zip":"53936","miles_from_dt":15.39},{"city":"Montello","state_name":"Wisconsin","lat":43.78323,"lng":-89.33978,"zip":"53949","miles_from_dt":15.5},{"city":"Lyndon Station","state_name":"Wisconsin","lat":43.68759,"lng":-89.92791,"zip":"53944","miles_from_dt":16.32},{"city":"Pardeeville","state_name":"Wisconsin","lat":43.55518,"lng":-89.31325,"zip":"53954","miles_from_dt":16.45},{"city":"Westfield","state_name":"Wisconsin","lat":43.91253,"lng":-89.5025,"zip":"53964","miles_from_dt":17.77},{"city":"Adams","state_name":"Wisconsin","lat":43.89073,"lng":-89.80708,"zip":"53910","miles_from_dt":18.57},{"city":"Merrimac","state_name":"Wisconsin","lat":43.39594,"lng":-89.64414,"zip":"53561","miles_from_dt":18.74},{"city":"Wyocena","state_name":"Wisconsin","lat":43.49567,"lng":-89.30176,"zip":"53969","miles_from_dt":19.17},{"city":"Dalton","state_name":"Wisconsin","lat":43.67164,"lng":-89.21497,"zip":"53926","miles_from_dt":19.48},{"city":"Poynette","state_name":"Wisconsin","lat":43.40025,"lng":-89.40051,"zip":"53955","miles_from_dt":20.98},{"city":"Reedsburg","state_name":"Wisconsin","lat":43.54327,"lng":-89.98668,"zip":"53958","miles_from_dt":21},{"city":"Reedsburg","state_name":"Wisconsin","lat":43.53407,"lng":-89.99702,"zip":"53959","miles_from_dt":21.73},{"city":"Rock Springs","state_name":"Wisconsin","lat":43.46055,"lng":-89.93858,"zip":"53961","miles_from_dt":21.99},{"city":"North Freedom","state_name":"Wisconsin","lat":43.39087,"lng":-89.86633,"zip":"53951","miles_from_dt":23.12},{"city":"Kingston","state_name":"Wisconsin","lat":43.69185,"lng":-89.13199,"zip":"53939","miles_from_dt":23.7},{"city":"Mauston","state_name":"Wisconsin","lat":43.77846,"lng":-90.05161,"zip":"53948","miles_from_dt":23.74},{"city":"Lodi","state_name":"Wisconsin","lat":43.32163,"lng":-89.55625,"zip":"53555","miles_from_dt":23.88},{"city":"Marquette","state_name":"Wisconsin","lat":43.74676,"lng":-89.13769,"zip":"53947","miles_from_dt":24},{"city":"Cambria","state_name":"Wisconsin","lat":43.57326,"lng":-89.13753,"zip":"53923","miles_from_dt":24.23},{"city":"Friendship","state_name":"Wisconsin","lat":43.98044,"lng":-89.82184,"zip":"53934","miles_from_dt":24.31},{"city":"Rio","state_name":"Wisconsin","lat":43.4224,"lng":-89.23212,"zip":"53960","miles_from_dt":25.11},{"city":"Coloma","state_name":"Wisconsin","lat":44.02884,"lng":-89.56383,"zip":"54930","miles_from_dt":25.14},{"city":"Prairie Du Sac","state_name":"Wisconsin","lat":43.31356,"lng":-89.77408,"zip":"53578","miles_from_dt":25.78},{"city":"Arlington","state_name":"Wisconsin","lat":43.3258,"lng":-89.36478,"zip":"53911","miles_from_dt":26.36},{"city":"Princeton","state_name":"Wisconsin","lat":43.84872,"lng":-89.13255,"zip":"54968","miles_from_dt":26.74},{"city":"Neshkoro","state_name":"Wisconsin","lat":43.94569,"lng":-89.22386,"zip":"54960","miles_from_dt":27.09},{"city":"La Valle","state_name":"Wisconsin","lat":43.57947,"lng":-90.13694,"zip":"53941","miles_from_dt":27.4},{"city":"Friesland","state_name":"Wisconsin","lat":43.58864,"lng":-89.06697,"zip":"53935","miles_from_dt":27.44},{"city":"Doylestown","state_name":"Wisconsin","lat":43.42051,"lng":-89.1547,"zip":"53928","miles_from_dt":28.2},{"city":"Loganville","state_name":"Wisconsin","lat":43.38999,"lng":-90.03018,"zip":"53943","miles_from_dt":28.66},{"city":"Markesan","state_name":"Wisconsin","lat":43.71822,"lng":-89.02189,"zip":"53946","miles_from_dt":29.37},{"city":"Morrisonville","state_name":"Wisconsin","lat":43.27793,"lng":-89.35358,"zip":"53571","miles_from_dt":29.58},{"city":"Dane","state_name":"Wisconsin","lat":43.24075,"lng":-89.52496,"zip":"53529","miles_from_dt":29.61}],"targetCityZipCode":"53920","targetCityState":"Wisconsin"},"__N_SSG":true}