{"pageProps":{"stateName":"Wisconsin","cityName":"bruce","nearbyCities":[{"city":"Weyerhaeuser","state_name":"Wisconsin","lat":45.44233,"lng":-91.44605,"zip":"54895","miles_from_dt":7.34},{"city":"Ladysmith","state_name":"Wisconsin","lat":45.51546,"lng":-91.10284,"zip":"54848","miles_from_dt":10.09},{"city":"Conrath","state_name":"Wisconsin","lat":45.34656,"lng":-91.08304,"zip":"54731","miles_from_dt":13.96},{"city":"Exeland","state_name":"Wisconsin","lat":45.67974,"lng":-91.2522,"zip":"54835","miles_from_dt":14.26},{"city":"Tony","state_name":"Wisconsin","lat":45.46448,"lng":-90.97428,"zip":"54563","miles_from_dt":16},{"city":"Mikana","state_name":"Wisconsin","lat":45.59347,"lng":-91.59927,"zip":"54857","miles_from_dt":16.49},{"city":"Birchwood","state_name":"Wisconsin","lat":45.67056,"lng":-91.53942,"zip":"54817","miles_from_dt":17.64},{"city":"Holcombe","state_name":"Wisconsin","lat":45.24875,"lng":-91.13494,"zip":"54745","miles_from_dt":17.72},{"city":"Rice Lake","state_name":"Wisconsin","lat":45.52723,"lng":-91.70977,"zip":"54868","miles_from_dt":20.06},{"city":"New Auburn","state_name":"Wisconsin","lat":45.23085,"lng":-91.52498,"zip":"54757","miles_from_dt":20.1},{"city":"Cameron","state_name":"Wisconsin","lat":45.3944,"lng":-91.69995,"zip":"54822","miles_from_dt":20.11},{"city":"Chetek","state_name":"Wisconsin","lat":45.30778,"lng":-91.6417,"zip":"54728","miles_from_dt":20.17},{"city":"Radisson","state_name":"Wisconsin","lat":45.78195,"lng":-91.21521,"zip":"54867","miles_from_dt":21.53},{"city":"Glen Flora","state_name":"Wisconsin","lat":45.50969,"lng":-90.85872,"zip":"54526","miles_from_dt":21.7},{"city":"Sheldon","state_name":"Wisconsin","lat":45.33667,"lng":-90.86566,"zip":"54766","miles_from_dt":23.36},{"city":"Cornell","state_name":"Wisconsin","lat":45.14571,"lng":-91.16543,"zip":"54732","miles_from_dt":23.8},{"city":"Ojibwa","state_name":"Wisconsin","lat":45.80385,"lng":-91.12132,"zip":"54862","miles_from_dt":24.27},{"city":"Haugen","state_name":"Wisconsin","lat":45.60776,"lng":-91.77887,"zip":"54841","miles_from_dt":24.81},{"city":"Couderay","state_name":"Wisconsin","lat":45.84201,"lng":-91.2934,"zip":"54828","miles_from_dt":25.26},{"city":"Stone Lake","state_name":"Wisconsin","lat":45.82811,"lng":-91.51439,"zip":"54876","miles_from_dt":26.36},{"city":"Bloomer","state_name":"Wisconsin","lat":45.10793,"lng":-91.48458,"zip":"54724","miles_from_dt":26.94},{"city":"Jim Falls","state_name":"Wisconsin","lat":45.07919,"lng":-91.26586,"zip":"54748","miles_from_dt":27.49},{"city":"Sarona","state_name":"Wisconsin","lat":45.71205,"lng":-91.76967,"zip":"54870","miles_from_dt":27.87},{"city":"Barron","state_name":"Wisconsin","lat":45.39911,"lng":-91.88103,"zip":"54812","miles_from_dt":28.6},{"city":"Sand Creek","state_name":"Wisconsin","lat":45.17092,"lng":-91.7028,"zip":"54765","miles_from_dt":28.71},{"city":"Hawkins","state_name":"Wisconsin","lat":45.53202,"lng":-90.71537,"zip":"54530","miles_from_dt":28.8}],"targetCityZipCode":"54819","targetCityState":"Wisconsin"},"__N_SSG":true}