{"pageProps":{"stateName":"Wisconsin","cityName":"cambridge","nearbyCities":[{"city":"Deerfield","state_name":"Wisconsin","lat":43.05696,"lng":-89.10114,"zip":"53531","miles_from_dt":6.18},{"city":"Lake Mills","state_name":"Wisconsin","lat":43.07831,"lng":-88.91508,"zip":"53551","miles_from_dt":8.82},{"city":"Fort Atkinson","state_name":"Wisconsin","lat":42.91697,"lng":-88.87194,"zip":"53538","miles_from_dt":9.31},{"city":"Cottage Grove","state_name":"Wisconsin","lat":43.06346,"lng":-89.19141,"zip":"53527","miles_from_dt":9.8},{"city":"Edgerton","state_name":"Wisconsin","lat":42.84763,"lng":-89.09032,"zip":"53534","miles_from_dt":9.83},{"city":"Stoughton","state_name":"Wisconsin","lat":42.92684,"lng":-89.21182,"zip":"53589","miles_from_dt":9.93},{"city":"Marshall","state_name":"Wisconsin","lat":43.16557,"lng":-89.08066,"zip":"53559","miles_from_dt":12.82},{"city":"Mcfarland","state_name":"Wisconsin","lat":43.00286,"lng":-89.28409,"zip":"53558","miles_from_dt":12.86},{"city":"Jefferson","state_name":"Wisconsin","lat":42.99056,"lng":-88.77675,"zip":"53549","miles_from_dt":12.93},{"city":"Waterloo","state_name":"Wisconsin","lat":43.18291,"lng":-88.97168,"zip":"53594","miles_from_dt":14.1},{"city":"Johnson Creek","state_name":"Wisconsin","lat":43.08592,"lng":-88.79031,"zip":"53038","miles_from_dt":14.13},{"city":"Madison","state_name":"Wisconsin","lat":43.0977,"lng":-89.27332,"zip":"53718","miles_from_dt":14.56},{"city":"Milton","state_name":"Wisconsin","lat":42.78276,"lng":-88.93127,"zip":"53563","miles_from_dt":14.76},{"city":"Madison","state_name":"Wisconsin","lat":43.06321,"lng":-89.31519,"zip":"53782","miles_from_dt":15.38},{"city":"Madison","state_name":"Wisconsin","lat":43.06506,"lng":-89.31454,"zip":"53716","miles_from_dt":15.39},{"city":"Madison","state_name":"Wisconsin","lat":43.09856,"lng":-89.31113,"zip":"53707","miles_from_dt":16.23},{"city":"Madison","state_name":"Wisconsin","lat":43.09884,"lng":-89.31287,"zip":"53714","miles_from_dt":16.31},{"city":"Madison","state_name":"Wisconsin","lat":43.10095,"lng":-89.31233,"zip":"53708","miles_from_dt":16.36},{"city":"Madison","state_name":"Wisconsin","lat":43.09837,"lng":-89.32492,"zip":"53794","miles_from_dt":16.83},{"city":"Madison","state_name":"Wisconsin","lat":43.09836,"lng":-89.3256,"zip":"53793","miles_from_dt":16.86},{"city":"Sun Prairie","state_name":"Wisconsin","lat":43.19936,"lng":-89.20804,"zip":"53590","miles_from_dt":17.37},{"city":"Janesville","state_name":"Wisconsin","lat":42.73113,"lng":-89.03613,"zip":"53545","miles_from_dt":17.41},{"city":"Madison","state_name":"Wisconsin","lat":43.15929,"lng":-89.28371,"zip":"53783","miles_from_dt":17.61},{"city":"Madison","state_name":"Wisconsin","lat":43.10765,"lng":-89.33942,"zip":"53777","miles_from_dt":17.78},{"city":"Oregon","state_name":"Wisconsin","lat":42.93148,"lng":-89.38627,"zip":"53575","miles_from_dt":18.33},{"city":"Helenville","state_name":"Wisconsin","lat":43.00472,"lng":-88.66975,"zip":"53137","miles_from_dt":18.4},{"city":"Madison","state_name":"Wisconsin","lat":43.07284,"lng":-89.37928,"zip":"53701","miles_from_dt":18.65},{"city":"Madison","state_name":"Wisconsin","lat":43.03743,"lng":-89.39254,"zip":"53713","miles_from_dt":18.66},{"city":"Madison","state_name":"Wisconsin","lat":43.07518,"lng":-89.3784,"zip":"53788","miles_from_dt":18.67},{"city":"Madison","state_name":"Wisconsin","lat":43.07981,"lng":-89.37734,"zip":"53703","miles_from_dt":18.73},{"city":"Madison","state_name":"Wisconsin","lat":43.07486,"lng":-89.3808,"zip":"53702","miles_from_dt":18.77},{"city":"Sun Prairie","state_name":"Wisconsin","lat":43.19559,"lng":-89.26401,"zip":"53596","miles_from_dt":18.78},{"city":"Watertown","state_name":"Wisconsin","lat":43.1462,"lng":-88.73365,"zip":"53094","miles_from_dt":18.81},{"city":"Madison","state_name":"Wisconsin","lat":43.04096,"lng":-89.39459,"zip":"53784","miles_from_dt":18.81},{"city":"Madison","state_name":"Wisconsin","lat":43.07713,"lng":-89.38045,"zip":"53786","miles_from_dt":18.81},{"city":"Madison","state_name":"Wisconsin","lat":43.07353,"lng":-89.38295,"zip":"53790","miles_from_dt":18.84},{"city":"Madison","state_name":"Wisconsin","lat":43.0754,"lng":-89.38308,"zip":"53785","miles_from_dt":18.89},{"city":"Madison","state_name":"Wisconsin","lat":43.05037,"lng":-89.3975,"zip":"53725","miles_from_dt":19.1},{"city":"Madison","state_name":"Wisconsin","lat":43.01521,"lng":-89.40641,"zip":"53711","miles_from_dt":19.11},{"city":"Madison","state_name":"Wisconsin","lat":43.13633,"lng":-89.34684,"zip":"53704","miles_from_dt":19.13},{"city":"Janesville","state_name":"Wisconsin","lat":42.70503,"lng":-89.00642,"zip":"53547","miles_from_dt":19.26},{"city":"Madison","state_name":"Wisconsin","lat":43.06038,"lng":-89.39861,"zip":"53715","miles_from_dt":19.33},{"city":"Evansville","state_name":"Wisconsin","lat":42.76366,"lng":-89.26983,"zip":"53536","miles_from_dt":19.4},{"city":"Whitewater","state_name":"Wisconsin","lat":42.80775,"lng":-88.73129,"zip":"53190","miles_from_dt":19.48},{"city":"Madison","state_name":"Wisconsin","lat":43.01563,"lng":-89.41452,"zip":"53744","miles_from_dt":19.52},{"city":"Madison","state_name":"Wisconsin","lat":43.07,"lng":-89.40219,"zip":"53774","miles_from_dt":19.69},{"city":"Madison","state_name":"Wisconsin","lat":43.07505,"lng":-89.40987,"zip":"53706","miles_from_dt":20.17},{"city":"Madison","state_name":"Wisconsin","lat":43.07036,"lng":-89.4223,"zip":"53726","miles_from_dt":20.67},{"city":"Janesville","state_name":"Wisconsin","lat":42.68907,"lng":-89.13095,"zip":"53548","miles_from_dt":20.93},{"city":"Madison","state_name":"Wisconsin","lat":43.07711,"lng":-89.43044,"zip":"53792","miles_from_dt":21.2},{"city":"Brooklyn","state_name":"Wisconsin","lat":42.84217,"lng":-89.40814,"zip":"53521","miles_from_dt":21.44},{"city":"Windsor","state_name":"Wisconsin","lat":43.20641,"lng":-89.3387,"zip":"53598","miles_from_dt":21.87},{"city":"Sullivan","state_name":"Wisconsin","lat":43.02335,"lng":-88.59894,"zip":"53178","miles_from_dt":22.1},{"city":"Madison","state_name":"Wisconsin","lat":43.07724,"lng":-89.45436,"zip":"53791","miles_from_dt":22.36},{"city":"Reeseville","state_name":"Wisconsin","lat":43.2894,"lng":-88.87545,"zip":"53579","miles_from_dt":22.55},{"city":"Madison","state_name":"Wisconsin","lat":43.07427,"lng":-89.46246,"zip":"53705","miles_from_dt":22.7},{"city":"Footville","state_name":"Wisconsin","lat":42.67267,"lng":-89.21056,"zip":"53537","miles_from_dt":23.29},{"city":"Palmyra","state_name":"Wisconsin","lat":42.89069,"lng":-88.59012,"zip":"53156","miles_from_dt":23.29},{"city":"Janesville","state_name":"Wisconsin","lat":42.65126,"lng":-88.94854,"zip":"53546","miles_from_dt":23.31},{"city":"Deforest","state_name":"Wisconsin","lat":43.24881,"lng":-89.32547,"zip":"53532","miles_from_dt":23.59},{"city":"Madison","state_name":"Wisconsin","lat":43.0281,"lng":-89.50003,"zip":"53719","miles_from_dt":23.93},{"city":"Columbus","state_name":"Wisconsin","lat":43.3325,"lng":-89.05075,"zip":"53925","miles_from_dt":24.12},{"city":"Watertown","state_name":"Wisconsin","lat":43.24955,"lng":-88.71461,"zip":"53098","miles_from_dt":24.39},{"city":"Avalon","state_name":"Wisconsin","lat":42.66063,"lng":-88.8176,"zip":"53505","miles_from_dt":24.79},{"city":"Hanover","state_name":"Wisconsin","lat":42.63262,"lng":-89.16567,"zip":"53542","miles_from_dt":25.15},{"city":"Madison","state_name":"Wisconsin","lat":43.07372,"lng":-89.51945,"zip":"53717","miles_from_dt":25.48},{"city":"Waunakee","state_name":"Wisconsin","lat":43.18258,"lng":-89.45726,"zip":"53597","miles_from_dt":25.55},{"city":"Morrisonville","state_name":"Wisconsin","lat":43.27793,"lng":-89.35358,"zip":"53571","miles_from_dt":26.04},{"city":"Afton","state_name":"Wisconsin","lat":42.60484,"lng":-89.07165,"zip":"53501","miles_from_dt":26.21},{"city":"Ixonia","state_name":"Wisconsin","lat":43.17141,"lng":-88.57693,"zip":"53036","miles_from_dt":26.42},{"city":"Orfordville","state_name":"Wisconsin","lat":42.62543,"lng":-89.23949,"zip":"53576","miles_from_dt":26.87},{"city":"Albany","state_name":"Wisconsin","lat":42.73219,"lng":-89.44071,"zip":"53502","miles_from_dt":27.06},{"city":"Lowell","state_name":"Wisconsin","lat":43.33996,"lng":-88.79449,"zip":"53557","miles_from_dt":27.38},{"city":"Middleton","state_name":"Wisconsin","lat":43.11592,"lng":-89.54188,"zip":"53562","miles_from_dt":27.4},{"city":"Dousman","state_name":"Wisconsin","lat":42.9725,"lng":-88.48859,"zip":"53118","miles_from_dt":27.54},{"city":"Clyman","state_name":"Wisconsin","lat":43.31104,"lng":-88.71794,"zip":"53016","miles_from_dt":27.63},{"city":"Verona","state_name":"Wisconsin","lat":42.98533,"lng":-89.57992,"zip":"53593","miles_from_dt":27.78},{"city":"Lebanon","state_name":"Wisconsin","lat":43.25904,"lng":-88.63002,"zip":"53047","miles_from_dt":27.83},{"city":"Belleville","state_name":"Wisconsin","lat":42.86783,"lng":-89.5618,"zip":"53508","miles_from_dt":28.05},{"city":"Eagle","state_name":"Wisconsin","lat":42.88356,"lng":-88.4862,"zip":"53119","miles_from_dt":28.51},{"city":"Oconomowoc","state_name":"Wisconsin","lat":43.11451,"lng":-88.49068,"zip":"53066","miles_from_dt":28.85},{"city":"Arlington","state_name":"Wisconsin","lat":43.3258,"lng":-89.36478,"zip":"53911","miles_from_dt":29.02},{"city":"Delavan","state_name":"Wisconsin","lat":42.65443,"lng":-88.6713,"zip":"53115","miles_from_dt":29.17},{"city":"Darien","state_name":"Wisconsin","lat":42.60721,"lng":-88.75089,"zip":"53114","miles_from_dt":29.63}],"targetCityZipCode":"53523","targetCityState":"Wisconsin"},"__N_SSG":true}