{"pageProps":{"stateName":"Wisconsin","cityName":"comstock","nearbyCities":[{"city":"Turtle Lake","state_name":"Wisconsin","lat":45.41374,"lng":-92.17112,"zip":"54889","miles_from_dt":5.95},{"city":"Cumberland","state_name":"Wisconsin","lat":45.5592,"lng":-92.06603,"zip":"54829","miles_from_dt":6.29},{"city":"Almena","state_name":"Wisconsin","lat":45.41465,"lng":-92.02311,"zip":"54805","miles_from_dt":9.03},{"city":"Balsam Lake","state_name":"Wisconsin","lat":45.46126,"lng":-92.38403,"zip":"54810","miles_from_dt":11},{"city":"Barronett","state_name":"Wisconsin","lat":45.65477,"lng":-92.03071,"zip":"54813","miles_from_dt":12.51},{"city":"Clayton","state_name":"Wisconsin","lat":45.30699,"lng":-92.12414,"zip":"54004","miles_from_dt":13.45},{"city":"Milltown","state_name":"Wisconsin","lat":45.51824,"lng":-92.46031,"zip":"54858","miles_from_dt":14.43},{"city":"Luck","state_name":"Wisconsin","lat":45.57106,"lng":-92.45211,"zip":"54853","miles_from_dt":14.82},{"city":"Frederic","state_name":"Wisconsin","lat":45.6746,"lng":-92.35754,"zip":"54837","miles_from_dt":15.29},{"city":"Barron","state_name":"Wisconsin","lat":45.39911,"lng":-91.88103,"zip":"54812","miles_from_dt":15.42},{"city":"Amery","state_name":"Wisconsin","lat":45.33417,"lng":-92.38703,"zip":"54001","miles_from_dt":15.75},{"city":"Shell Lake","state_name":"Wisconsin","lat":45.7412,"lng":-92.01503,"zip":"54871","miles_from_dt":18.18},{"city":"Centuria","state_name":"Wisconsin","lat":45.4753,"lng":-92.54017,"zip":"54824","miles_from_dt":18.34},{"city":"Clear Lake","state_name":"Wisconsin","lat":45.23447,"lng":-92.23051,"zip":"54005","miles_from_dt":18.6},{"city":"Prairie Farm","state_name":"Wisconsin","lat":45.25107,"lng":-91.98967,"zip":"54762","miles_from_dt":19.16},{"city":"Haugen","state_name":"Wisconsin","lat":45.60776,"lng":-91.77887,"zip":"54841","miles_from_dt":20.13},{"city":"Dallas","state_name":"Wisconsin","lat":45.28331,"lng":-91.85641,"zip":"54733","miles_from_dt":21.16},{"city":"Hertel","state_name":"Wisconsin","lat":45.80724,"lng":-92.13786,"zip":"54845","miles_from_dt":21.28},{"city":"Siren","state_name":"Wisconsin","lat":45.76965,"lng":-92.39622,"zip":"54872","miles_from_dt":21.77},{"city":"Rice Lake","state_name":"Wisconsin","lat":45.52723,"lng":-91.70977,"zip":"54868","miles_from_dt":22.15},{"city":"Dresser","state_name":"Wisconsin","lat":45.35358,"lng":-92.57693,"zip":"54009","miles_from_dt":22.46},{"city":"Saint Croix Falls","state_name":"Wisconsin","lat":45.49873,"lng":-92.64781,"zip":"54024","miles_from_dt":23.49},{"city":"Deer Park","state_name":"Wisconsin","lat":45.18781,"lng":-92.35734,"zip":"54007","miles_from_dt":23.5},{"city":"Cameron","state_name":"Wisconsin","lat":45.3944,"lng":-91.69995,"zip":"54822","miles_from_dt":23.71},{"city":"Sarona","state_name":"Wisconsin","lat":45.71205,"lng":-91.76967,"zip":"54870","miles_from_dt":24.1},{"city":"Cushing","state_name":"Wisconsin","lat":45.58958,"lng":-92.64824,"zip":"54006","miles_from_dt":24.29},{"city":"Star Prairie","state_name":"Wisconsin","lat":45.22688,"lng":-92.53459,"zip":"54026","miles_from_dt":26.08},{"city":"Ridgeland","state_name":"Wisconsin","lat":45.179,"lng":-91.87683,"zip":"54763","miles_from_dt":26.2},{"city":"Taylors Falls","state_name":"Minnesota","lat":45.46029,"lng":-92.70747,"zip":"55084","miles_from_dt":26.53},{"city":"Webster","state_name":"Wisconsin","lat":45.87094,"lng":-92.30837,"zip":"54893","miles_from_dt":26.57},{"city":"Spooner","state_name":"Wisconsin","lat":45.86711,"lng":-91.92266,"zip":"54801","miles_from_dt":27.94},{"city":"Mikana","state_name":"Wisconsin","lat":45.59347,"lng":-91.59927,"zip":"54857","miles_from_dt":28.17},{"city":"Osceola","state_name":"Wisconsin","lat":45.27937,"lng":-92.65235,"zip":"54020","miles_from_dt":28.21},{"city":"Downing","state_name":"Wisconsin","lat":45.09045,"lng":-92.11358,"zip":"54734","miles_from_dt":28.37},{"city":"Chetek","state_name":"Wisconsin","lat":45.30778,"lng":-91.6417,"zip":"54728","miles_from_dt":28.67},{"city":"Shafer","state_name":"Minnesota","lat":45.38351,"lng":-92.73292,"zip":"55074","miles_from_dt":28.79},{"city":"Glenwood City","state_name":"Wisconsin","lat":45.08134,"lng":-92.22929,"zip":"54013","miles_from_dt":29.07}],"targetCityZipCode":"54826","targetCityState":"Wisconsin"},"__N_SSG":true}