{"pageProps":{"stateName":"Wisconsin","cityName":"couderay","nearbyCities":[{"city":"Radisson","state_name":"Wisconsin","lat":45.78195,"lng":-91.21521,"zip":"54867","miles_from_dt":5.61},{"city":"Ojibwa","state_name":"Wisconsin","lat":45.80385,"lng":-91.12132,"zip":"54862","miles_from_dt":8.72},{"city":"Stone Lake","state_name":"Wisconsin","lat":45.82811,"lng":-91.51439,"zip":"54876","miles_from_dt":10.71},{"city":"Exeland","state_name":"Wisconsin","lat":45.67974,"lng":-91.2522,"zip":"54835","miles_from_dt":11.38},{"city":"Hayward","state_name":"Wisconsin","lat":46.0251,"lng":-91.29494,"zip":"54843","miles_from_dt":12.65},{"city":"Birchwood","state_name":"Wisconsin","lat":45.67056,"lng":-91.53942,"zip":"54817","miles_from_dt":16.78},{"city":"Winter","state_name":"Wisconsin","lat":45.81178,"lng":-90.87888,"zip":"54896","miles_from_dt":20.12},{"city":"Springbrook","state_name":"Wisconsin","lat":45.97405,"lng":-91.6948,"zip":"54875","miles_from_dt":21.39},{"city":"Mikana","state_name":"Wisconsin","lat":45.59347,"lng":-91.59927,"zip":"54857","miles_from_dt":22.66},{"city":"Ladysmith","state_name":"Wisconsin","lat":45.51546,"lng":-91.10284,"zip":"54848","miles_from_dt":24.37},{"city":"Sarona","state_name":"Wisconsin","lat":45.71205,"lng":-91.76967,"zip":"54870","miles_from_dt":24.7},{"city":"Bruce","state_name":"Wisconsin","lat":45.47636,"lng":-91.30307,"zip":"54819","miles_from_dt":25.26},{"city":"Clam Lake","state_name":"Wisconsin","lat":46.11899,"lng":-90.93035,"zip":"54517","miles_from_dt":25.91},{"city":"Cable","state_name":"Wisconsin","lat":46.22428,"lng":-91.16508,"zip":"54821","miles_from_dt":27.11},{"city":"Haugen","state_name":"Wisconsin","lat":45.60776,"lng":-91.77887,"zip":"54841","miles_from_dt":28.52},{"city":"Weyerhaeuser","state_name":"Wisconsin","lat":45.44233,"lng":-91.44605,"zip":"54895","miles_from_dt":28.58},{"city":"Rice Lake","state_name":"Wisconsin","lat":45.52723,"lng":-91.70977,"zip":"54868","miles_from_dt":29.64}],"targetCityZipCode":"54828","targetCityState":"Wisconsin"},"__N_SSG":true}