{"pageProps":{"stateName":"Wisconsin","cityName":"dallas","nearbyCities":[{"city":"Prairie Farm","state_name":"Wisconsin","lat":45.25107,"lng":-91.98967,"zip":"54762","miles_from_dt":6.87},{"city":"Ridgeland","state_name":"Wisconsin","lat":45.179,"lng":-91.87683,"zip":"54763","miles_from_dt":7.27},{"city":"Barron","state_name":"Wisconsin","lat":45.39911,"lng":-91.88103,"zip":"54812","miles_from_dt":8.09},{"city":"Chetek","state_name":"Wisconsin","lat":45.30778,"lng":-91.6417,"zip":"54728","miles_from_dt":10.6},{"city":"Sand Creek","state_name":"Wisconsin","lat":45.17092,"lng":-91.7028,"zip":"54765","miles_from_dt":10.79},{"city":"Cameron","state_name":"Wisconsin","lat":45.3944,"lng":-91.69995,"zip":"54822","miles_from_dt":10.81},{"city":"Almena","state_name":"Wisconsin","lat":45.41465,"lng":-92.02311,"zip":"54805","miles_from_dt":12.17},{"city":"Wheeler","state_name":"Wisconsin","lat":45.09668,"lng":-91.87303,"zip":"54772","miles_from_dt":12.91},{"city":"Clayton","state_name":"Wisconsin","lat":45.30699,"lng":-92.12414,"zip":"54004","miles_from_dt":13.15},{"city":"Boyceville","state_name":"Wisconsin","lat":45.07103,"lng":-92.01062,"zip":"54725","miles_from_dt":16.48},{"city":"New Auburn","state_name":"Wisconsin","lat":45.23085,"lng":-91.52498,"zip":"54757","miles_from_dt":16.57},{"city":"Turtle Lake","state_name":"Wisconsin","lat":45.41374,"lng":-92.17112,"zip":"54889","miles_from_dt":17.78},{"city":"Rice Lake","state_name":"Wisconsin","lat":45.52723,"lng":-91.70977,"zip":"54868","miles_from_dt":18.29},{"city":"Downing","state_name":"Wisconsin","lat":45.09045,"lng":-92.11358,"zip":"54734","miles_from_dt":18.31},{"city":"Clear Lake","state_name":"Wisconsin","lat":45.23447,"lng":-92.23051,"zip":"54005","miles_from_dt":18.55},{"city":"Colfax","state_name":"Wisconsin","lat":45.01836,"lng":-91.72143,"zip":"54730","miles_from_dt":19.45},{"city":"Comstock","state_name":"Wisconsin","lat":45.49971,"lng":-92.16422,"zip":"54826","miles_from_dt":21.16},{"city":"Cumberland","state_name":"Wisconsin","lat":45.5592,"lng":-92.06603,"zip":"54829","miles_from_dt":21.61},{"city":"Bloomer","state_name":"Wisconsin","lat":45.10793,"lng":-91.48458,"zip":"54724","miles_from_dt":21.82},{"city":"Haugen","state_name":"Wisconsin","lat":45.60776,"lng":-91.77887,"zip":"54841","miles_from_dt":22.72},{"city":"Weyerhaeuser","state_name":"Wisconsin","lat":45.44233,"lng":-91.44605,"zip":"54895","miles_from_dt":22.8},{"city":"Glenwood City","state_name":"Wisconsin","lat":45.08134,"lng":-92.22929,"zip":"54013","miles_from_dt":22.94},{"city":"Mikana","state_name":"Wisconsin","lat":45.59347,"lng":-91.59927,"zip":"54857","miles_from_dt":24.8},{"city":"Deer Park","state_name":"Wisconsin","lat":45.18781,"lng":-92.35734,"zip":"54007","miles_from_dt":25.32},{"city":"Knapp","state_name":"Wisconsin","lat":44.94862,"lng":-92.09785,"zip":"54749","miles_from_dt":25.95},{"city":"Amery","state_name":"Wisconsin","lat":45.33417,"lng":-92.38703,"zip":"54001","miles_from_dt":26.09},{"city":"Barronett","state_name":"Wisconsin","lat":45.65477,"lng":-92.03071,"zip":"54813","miles_from_dt":27.01},{"city":"Balsam Lake","state_name":"Wisconsin","lat":45.46126,"lng":-92.38403,"zip":"54810","miles_from_dt":28.47},{"city":"Sarona","state_name":"Wisconsin","lat":45.71205,"lng":-91.76967,"zip":"54870","miles_from_dt":29.91},{"city":"Wilson","state_name":"Wisconsin","lat":44.92403,"lng":-92.19985,"zip":"54027","miles_from_dt":29.96}],"targetCityZipCode":"54733","targetCityState":"Wisconsin"},"__N_SSG":true}