{"pageProps":{"stateName":"Wisconsin","cityName":"eagle-river","nearbyCities":[{"city":"Conover","state_name":"Wisconsin","lat":46.05355,"lng":-89.26877,"zip":"54519","miles_from_dt":9.51},{"city":"Three Lakes","state_name":"Wisconsin","lat":45.81081,"lng":-89.0813,"zip":"54562","miles_from_dt":11.08},{"city":"Saint Germain","state_name":"Wisconsin","lat":45.92417,"lng":-89.49746,"zip":"54558","miles_from_dt":11.72},{"city":"Phelps","state_name":"Wisconsin","lat":46.05481,"lng":-89.06138,"zip":"54554","miles_from_dt":13.35},{"city":"Star Lake","state_name":"Wisconsin","lat":46.07102,"lng":-89.46451,"zip":"54561","miles_from_dt":14.72},{"city":"Sayner","state_name":"Wisconsin","lat":46.00997,"lng":-89.54365,"zip":"54560","miles_from_dt":15.36},{"city":"McNaughton","state_name":"Wisconsin","lat":45.76708,"lng":-89.51497,"zip":"54543","miles_from_dt":16.25},{"city":"Lake Tomahawk","state_name":"Wisconsin","lat":45.80705,"lng":-89.5762,"zip":"54539","miles_from_dt":17.26},{"city":"Land O'Lakes","state_name":"Wisconsin","lat":46.15505,"lng":-89.38216,"zip":"54540","miles_from_dt":17.6},{"city":"Rhinelander","state_name":"Wisconsin","lat":45.65973,"lng":-89.34303,"zip":"54501","miles_from_dt":18.22},{"city":"Woodruff","state_name":"Wisconsin","lat":45.94876,"lng":-89.67546,"zip":"54568","miles_from_dt":20.41},{"city":"Watersmeet","state_name":"Michigan","lat":46.24608,"lng":-89.21431,"zip":"49969","miles_from_dt":22.87},{"city":"Boulder Junction","state_name":"Wisconsin","lat":46.0957,"lng":-89.66748,"zip":"54512","miles_from_dt":23.42},{"city":"Argonne","state_name":"Wisconsin","lat":45.72365,"lng":-88.83177,"zip":"54511","miles_from_dt":24.36},{"city":"Long Lake","state_name":"Wisconsin","lat":45.92127,"lng":-88.72536,"zip":"54542","miles_from_dt":25.51},{"city":"Harshaw","state_name":"Wisconsin","lat":45.67821,"lng":-89.66006,"zip":"54529","miles_from_dt":25.57},{"city":"Minocqua","state_name":"Wisconsin","lat":45.86218,"lng":-89.82663,"zip":"54548","miles_from_dt":27.84},{"city":"Pelican Lake","state_name":"Wisconsin","lat":45.50876,"lng":-89.22536,"zip":"54463","miles_from_dt":28.17},{"city":"Hazelhurst","state_name":"Wisconsin","lat":45.74968,"lng":-89.78822,"zip":"54531","miles_from_dt":28.22}],"targetCityZipCode":"54521","targetCityState":"Wisconsin"},"__N_SSG":true}