{"pageProps":{"stateName":"Wisconsin","cityName":"fennimore","nearbyCities":[{"city":"Stitzer","state_name":"Wisconsin","lat":42.91833,"lng":-90.58851,"zip":"53825","miles_from_dt":5.67},{"city":"Montfort","state_name":"Wisconsin","lat":42.98105,"lng":-90.42966,"zip":"53569","miles_from_dt":10.35},{"city":"Boscobel","state_name":"Wisconsin","lat":43.14236,"lng":-90.68445,"zip":"53805","miles_from_dt":10.59},{"city":"Woodman","state_name":"Wisconsin","lat":43.05049,"lng":-90.83702,"zip":"53827","miles_from_dt":11.04},{"city":"Lancaster","state_name":"Wisconsin","lat":42.84402,"lng":-90.71641,"zip":"53813","miles_from_dt":11.16},{"city":"Livingston","state_name":"Wisconsin","lat":42.90205,"lng":-90.44919,"zip":"53554","miles_from_dt":11.27},{"city":"Mount Hope","state_name":"Wisconsin","lat":42.97794,"lng":-90.85773,"zip":"53816","miles_from_dt":11.43},{"city":"Highland","state_name":"Wisconsin","lat":43.0556,"lng":-90.36233,"zip":"53543","miles_from_dt":14.37},{"city":"Cobb","state_name":"Wisconsin","lat":42.97433,"lng":-90.34438,"zip":"53526","miles_from_dt":14.7},{"city":"Muscoda","state_name":"Wisconsin","lat":43.18196,"lng":-90.46326,"zip":"53573","miles_from_dt":15.59},{"city":"Rewey","state_name":"Wisconsin","lat":42.85943,"lng":-90.38131,"zip":"53580","miles_from_dt":15.78},{"city":"Bloomington","state_name":"Wisconsin","lat":42.87645,"lng":-90.90798,"zip":"53804","miles_from_dt":16.11},{"city":"Wauzeka","state_name":"Wisconsin","lat":43.12225,"lng":-90.91039,"zip":"53826","miles_from_dt":16.6},{"city":"Blue River","state_name":"Wisconsin","lat":43.2458,"lng":-90.59108,"zip":"53518","miles_from_dt":17.54},{"city":"Patch Grove","state_name":"Wisconsin","lat":42.94028,"lng":-90.97234,"zip":"53817","miles_from_dt":17.58},{"city":"Linden","state_name":"Wisconsin","lat":42.91235,"lng":-90.29693,"zip":"53553","miles_from_dt":17.95},{"city":"Platteville","state_name":"Wisconsin","lat":42.74725,"lng":-90.49177,"zip":"53818","miles_from_dt":18.46},{"city":"Beetown","state_name":"Wisconsin","lat":42.80538,"lng":-90.89358,"zip":"53802","miles_from_dt":18.53},{"city":"Edmund","state_name":"Wisconsin","lat":42.96987,"lng":-90.26285,"zip":"53535","miles_from_dt":18.84},{"city":"Steuben","state_name":"Wisconsin","lat":43.19447,"lng":-90.90678,"zip":"54657","miles_from_dt":19.59},{"city":"Avoca","state_name":"Wisconsin","lat":43.15017,"lng":-90.28422,"zip":"53506","miles_from_dt":20.71},{"city":"Potosi","state_name":"Wisconsin","lat":42.69649,"lng":-90.70984,"zip":"53820","miles_from_dt":20.88},{"city":"Glen Haven","state_name":"Wisconsin","lat":42.82144,"lng":-90.9984,"zip":"53810","miles_from_dt":22.01},{"city":"Prairie Du Chien","state_name":"Wisconsin","lat":43.04769,"lng":-91.06569,"zip":"53821","miles_from_dt":22.22},{"city":"Bagley","state_name":"Wisconsin","lat":42.92505,"lng":-91.06959,"zip":"53801","miles_from_dt":22.62},{"city":"Gays Mills","state_name":"Wisconsin","lat":43.28795,"lng":-90.8327,"zip":"54631","miles_from_dt":22.68},{"city":"Cassville","state_name":"Wisconsin","lat":42.73554,"lng":-90.92544,"zip":"53806","miles_from_dt":23.18},{"city":"Gotham","state_name":"Wisconsin","lat":43.22173,"lng":-90.29356,"zip":"53540","miles_from_dt":23.3},{"city":"Belmont","state_name":"Wisconsin","lat":42.74065,"lng":-90.32147,"zip":"53510","miles_from_dt":23.57},{"city":"Dodgeville","state_name":"Wisconsin","lat":42.99285,"lng":-90.14915,"zip":"53533","miles_from_dt":24.53},{"city":"Dickeyville","state_name":"Wisconsin","lat":42.63745,"lng":-90.59204,"zip":"53808","miles_from_dt":24.67},{"city":"Seneca","state_name":"Wisconsin","lat":43.26853,"lng":-90.95419,"zip":"54654","miles_from_dt":24.97},{"city":"Dodgeville","state_name":"Wisconsin","lat":42.96748,"lng":-90.13204,"zip":"53595","miles_from_dt":25.47},{"city":"Eastman","state_name":"Wisconsin","lat":43.2162,"lng":-91.03608,"zip":"54626","miles_from_dt":25.52},{"city":"Mineral Point","state_name":"Wisconsin","lat":42.84025,"lng":-90.16982,"zip":"53565","miles_from_dt":25.78},{"city":"Lone Rock","state_name":"Wisconsin","lat":43.24014,"lng":-90.24525,"zip":"53556","miles_from_dt":25.97},{"city":"Sextonville","state_name":"Wisconsin","lat":43.27937,"lng":-90.29477,"zip":"53584","miles_from_dt":26.11},{"city":"North Buena Vista","state_name":"Iowa","lat":42.693,"lng":-90.96925,"zip":"52066","miles_from_dt":26.87},{"city":"Mount Sterling","state_name":"Wisconsin","lat":43.32084,"lng":-90.92901,"zip":"54645","miles_from_dt":27.09},{"city":"Sherrill","state_name":"Iowa","lat":42.62331,"lng":-90.82069,"zip":"52073","miles_from_dt":27.28},{"city":"Soldiers Grove","state_name":"Wisconsin","lat":43.37877,"lng":-90.76423,"zip":"54655","miles_from_dt":27.4},{"city":"Cuba City","state_name":"Wisconsin","lat":42.61123,"lng":-90.46668,"zip":"53807","miles_from_dt":27.72},{"city":"Marquette","state_name":"Iowa","lat":43.04388,"lng":-91.18647,"zip":"52158","miles_from_dt":28.24},{"city":"Richland Center","state_name":"Wisconsin","lat":43.37504,"lng":-90.41637,"zip":"53581","miles_from_dt":28.52},{"city":"Kieler","state_name":"Wisconsin","lat":42.5808,"lng":-90.60239,"zip":"53812","miles_from_dt":28.54}],"targetCityZipCode":"53809","targetCityState":"Wisconsin"},"__N_SSG":true}