{"pageProps":{"stateName":"Wisconsin","cityName":"hillpoint","nearbyCities":[{"city":"Lime Ridge","state_name":"Wisconsin","lat":43.46393,"lng":-90.16536,"zip":"53942","miles_from_dt":5.23},{"city":"Loganville","state_name":"Wisconsin","lat":43.38999,"lng":-90.03018,"zip":"53943","miles_from_dt":6.41},{"city":"Plain","state_name":"Wisconsin","lat":43.31428,"lng":-90.07117,"zip":"53577","miles_from_dt":6.72},{"city":"Cazenovia","state_name":"Wisconsin","lat":43.47971,"lng":-90.25455,"zip":"53924","miles_from_dt":7.97},{"city":"Sextonville","state_name":"Wisconsin","lat":43.27937,"lng":-90.29477,"zip":"53584","miles_from_dt":10.22},{"city":"Lone Rock","state_name":"Wisconsin","lat":43.24014,"lng":-90.24525,"zip":"53556","miles_from_dt":11.15},{"city":"Rock Springs","state_name":"Wisconsin","lat":43.46055,"lng":-89.93858,"zip":"53961","miles_from_dt":12.09},{"city":"Reedsburg","state_name":"Wisconsin","lat":43.53407,"lng":-89.99702,"zip":"53959","miles_from_dt":12.89},{"city":"Richland Center","state_name":"Wisconsin","lat":43.37504,"lng":-90.41637,"zip":"53581","miles_from_dt":13.07},{"city":"La Valle","state_name":"Wisconsin","lat":43.57947,"lng":-90.13694,"zip":"53941","miles_from_dt":13.23},{"city":"Gotham","state_name":"Wisconsin","lat":43.22173,"lng":-90.29356,"zip":"53540","miles_from_dt":13.4},{"city":"Reedsburg","state_name":"Wisconsin","lat":43.54327,"lng":-89.98668,"zip":"53958","miles_from_dt":13.71},{"city":"Spring Green","state_name":"Wisconsin","lat":43.18949,"lng":-90.08201,"zip":"53588","miles_from_dt":14.25},{"city":"North Freedom","state_name":"Wisconsin","lat":43.39087,"lng":-89.86633,"zip":"53951","miles_from_dt":14.66},{"city":"Avoca","state_name":"Wisconsin","lat":43.15017,"lng":-90.28422,"zip":"53506","miles_from_dt":17.64},{"city":"Wonewoc","state_name":"Wisconsin","lat":43.64072,"lng":-90.2326,"zip":"53968","miles_from_dt":17.82},{"city":"Sauk City","state_name":"Wisconsin","lat":43.25671,"lng":-89.81178,"zip":"53583","miles_from_dt":19.66},{"city":"Hillsboro","state_name":"Wisconsin","lat":43.59753,"lng":-90.42553,"zip":"54634","miles_from_dt":19.74},{"city":"Arena","state_name":"Wisconsin","lat":43.13935,"lng":-89.95623,"zip":"53503","miles_from_dt":19.97},{"city":"Prairie Du Sac","state_name":"Wisconsin","lat":43.31356,"lng":-89.77408,"zip":"53578","miles_from_dt":20},{"city":"Muscoda","state_name":"Wisconsin","lat":43.18196,"lng":-90.46326,"zip":"53573","miles_from_dt":21},{"city":"Union Center","state_name":"Wisconsin","lat":43.68352,"lng":-90.2652,"zip":"53962","miles_from_dt":21.08},{"city":"Baraboo","state_name":"Wisconsin","lat":43.49213,"lng":-89.72858,"zip":"53913","miles_from_dt":22.73},{"city":"Lake Delton","state_name":"Wisconsin","lat":43.59126,"lng":-89.7944,"zip":"53940","miles_from_dt":23.01},{"city":"Lyndon Station","state_name":"Wisconsin","lat":43.68759,"lng":-89.92791,"zip":"53944","miles_from_dt":23.66},{"city":"Blue River","state_name":"Wisconsin","lat":43.2458,"lng":-90.59108,"zip":"53518","miles_from_dt":23.97},{"city":"Mazomanie","state_name":"Wisconsin","lat":43.19418,"lng":-89.75413,"zip":"53560","miles_from_dt":24.36},{"city":"Highland","state_name":"Wisconsin","lat":43.0556,"lng":-90.36233,"zip":"53543","miles_from_dt":25.19},{"city":"Viola","state_name":"Wisconsin","lat":43.49912,"lng":-90.64076,"zip":"54664","miles_from_dt":25.48},{"city":"Merrimac","state_name":"Wisconsin","lat":43.39594,"lng":-89.64414,"zip":"53561","miles_from_dt":25.85},{"city":"Elroy","state_name":"Wisconsin","lat":43.75415,"lng":-90.28376,"zip":"53929","miles_from_dt":26.03},{"city":"Ridgeway","state_name":"Wisconsin","lat":43.01791,"lng":-89.99106,"zip":"53582","miles_from_dt":26.92},{"city":"Dodgeville","state_name":"Wisconsin","lat":42.99285,"lng":-90.14915,"zip":"53533","miles_from_dt":27.31},{"city":"Mauston","state_name":"Wisconsin","lat":43.77846,"lng":-90.05161,"zip":"53948","miles_from_dt":27.45},{"city":"La Farge","state_name":"Wisconsin","lat":43.60566,"lng":-90.62021,"zip":"54639","miles_from_dt":27.67},{"city":"Black Earth","state_name":"Wisconsin","lat":43.11708,"lng":-89.74915,"zip":"53515","miles_from_dt":27.85},{"city":"Wisconsin Dells","state_name":"Wisconsin","lat":43.67651,"lng":-89.75681,"zip":"53965","miles_from_dt":28.3},{"city":"Dodgeville","state_name":"Wisconsin","lat":42.96748,"lng":-90.13204,"zip":"53595","miles_from_dt":29.09},{"city":"Blue Mounds","state_name":"Wisconsin","lat":43.03686,"lng":-89.82967,"zip":"53517","miles_from_dt":29.38},{"city":"Edmund","state_name":"Wisconsin","lat":42.96987,"lng":-90.26285,"zip":"53535","miles_from_dt":29.38},{"city":"Barneveld","state_name":"Wisconsin","lat":43.00153,"lng":-89.90173,"zip":"53507","miles_from_dt":29.67}],"targetCityZipCode":"53937","targetCityState":"Wisconsin"},"__N_SSG":true}