{"pageProps":{"stateName":"Wisconsin","cityName":"independence","nearbyCities":[{"city":"Gilmanton","state_name":"Wisconsin","lat":44.46831,"lng":-91.67512,"zip":"54743","miles_from_dt":9.91},{"city":"Arcadia","state_name":"Wisconsin","lat":44.24882,"lng":-91.50066,"zip":"54612","miles_from_dt":10.05},{"city":"Whitehall","state_name":"Wisconsin","lat":44.39301,"lng":-91.3002,"zip":"54773","miles_from_dt":10.07},{"city":"Strum","state_name":"Wisconsin","lat":44.55121,"lng":-91.37259,"zip":"54770","miles_from_dt":12.62},{"city":"Eleva","state_name":"Wisconsin","lat":44.59478,"lng":-91.47892,"zip":"54738","miles_from_dt":13.89},{"city":"Pigeon Falls","state_name":"Wisconsin","lat":44.42412,"lng":-91.20626,"zip":"54760","miles_from_dt":14.85},{"city":"Blair","state_name":"Wisconsin","lat":44.30402,"lng":-91.2283,"zip":"54616","miles_from_dt":14.99},{"city":"Mondovi","state_name":"Wisconsin","lat":44.57513,"lng":-91.67971,"zip":"54755","miles_from_dt":15.22},{"city":"Cochrane","state_name":"Wisconsin","lat":44.26953,"lng":-91.76629,"zip":"54622","miles_from_dt":15.62},{"city":"Alma","state_name":"Wisconsin","lat":44.37077,"lng":-91.82549,"zip":"54610","miles_from_dt":16.03},{"city":"Osseo","state_name":"Wisconsin","lat":44.54546,"lng":-91.2173,"zip":"54758","miles_from_dt":17.58},{"city":"Dodge","state_name":"Wisconsin","lat":44.13287,"lng":-91.52507,"zip":"54625","miles_from_dt":18.09},{"city":"Fountain City","state_name":"Wisconsin","lat":44.15928,"lng":-91.66661,"zip":"54629","miles_from_dt":18.14},{"city":"Ettrick","state_name":"Wisconsin","lat":44.16873,"lng":-91.23634,"zip":"54627","miles_from_dt":20.45},{"city":"Taylor","state_name":"Wisconsin","lat":44.29704,"lng":-91.10065,"zip":"54659","miles_from_dt":21.06},{"city":"Galesville","state_name":"Wisconsin","lat":44.10339,"lng":-91.35881,"zip":"54630","miles_from_dt":21.34},{"city":"Nelson","state_name":"Wisconsin","lat":44.46153,"lng":-91.94552,"zip":"54756","miles_from_dt":22.36},{"city":"Hixton","state_name":"Wisconsin","lat":44.40871,"lng":-91.04455,"zip":"54635","miles_from_dt":22.74},{"city":"Trempealeau","state_name":"Wisconsin","lat":44.05943,"lng":-91.47133,"zip":"54661","miles_from_dt":23.18},{"city":"Minnesota City","state_name":"Minnesota","lat":44.11287,"lng":-91.78365,"zip":"55959","miles_from_dt":23.9},{"city":"Eau Claire","state_name":"Wisconsin","lat":44.7432,"lng":-91.50899,"zip":"54701","miles_from_dt":24.09},{"city":"Rock Falls","state_name":"Wisconsin","lat":44.71896,"lng":-91.69187,"zip":"54764","miles_from_dt":24.26},{"city":"Durand","state_name":"Wisconsin","lat":44.60345,"lng":-91.90455,"zip":"54736","miles_from_dt":24.52},{"city":"Alma Center","state_name":"Wisconsin","lat":44.44624,"lng":-90.95164,"zip":"54611","miles_from_dt":27.54},{"city":"Fall Creek","state_name":"Wisconsin","lat":44.76319,"lng":-91.2722,"zip":"54742","miles_from_dt":27.91},{"city":"Wabasha","state_name":"Minnesota","lat":44.35375,"lng":-92.06518,"zip":"55981","miles_from_dt":27.96},{"city":"Melrose","state_name":"Wisconsin","lat":44.14978,"lng":-91.05303,"zip":"54642","miles_from_dt":28.01},{"city":"Stockton","state_name":"Minnesota","lat":44.02766,"lng":-91.76029,"zip":"55988","miles_from_dt":28.35},{"city":"Rollingstone","state_name":"Minnesota","lat":44.08263,"lng":-91.87658,"zip":"55969","miles_from_dt":28.39},{"city":"Altoona","state_name":"Wisconsin","lat":44.80511,"lng":-91.43646,"zip":"54720","miles_from_dt":28.55},{"city":"Kellogg","state_name":"Minnesota","lat":44.26788,"lng":-92.05591,"zip":"55945","miles_from_dt":28.74},{"city":"Eau Claire","state_name":"Wisconsin","lat":44.81426,"lng":-91.50198,"zip":"54702","miles_from_dt":28.99},{"city":"Winona","state_name":"Minnesota","lat":43.98469,"lng":-91.63143,"zip":"55987","miles_from_dt":28.99},{"city":"Reads Landing","state_name":"Minnesota","lat":44.39793,"lng":-92.0898,"zip":"55968","miles_from_dt":29.03},{"city":"Homer","state_name":"Minnesota","lat":43.9821,"lng":-91.63782,"zip":"55942","miles_from_dt":29.24},{"city":"Altura","state_name":"Minnesota","lat":44.13285,"lng":-91.97285,"zip":"55910","miles_from_dt":29.47},{"city":"Fairchild","state_name":"Wisconsin","lat":44.61237,"lng":-90.98121,"zip":"54741","miles_from_dt":29.88},{"city":"Augusta","state_name":"Wisconsin","lat":44.71702,"lng":-91.09874,"zip":"54722","miles_from_dt":29.93}],"targetCityZipCode":"54747","targetCityState":"Wisconsin"},"__N_SSG":true}