{"pageProps":{"stateName":"Wisconsin","cityName":"iron-belt","nearbyCities":[{"city":"Montreal","state_name":"Wisconsin","lat":46.35775,"lng":-90.26409,"zip":"54550","miles_from_dt":4.15},{"city":"Hurley","state_name":"Wisconsin","lat":46.3545,"lng":-90.23769,"zip":"54534","miles_from_dt":5.28},{"city":"Upson","state_name":"Wisconsin","lat":46.30474,"lng":-90.45182,"zip":"54565","miles_from_dt":5.56},{"city":"Gile","state_name":"Wisconsin","lat":46.4335,"lng":-90.22603,"zip":"54525","miles_from_dt":8.81},{"city":"Saxon","state_name":"Wisconsin","lat":46.49382,"lng":-90.47083,"zip":"54559","miles_from_dt":12.45},{"city":"Mercer","state_name":"Wisconsin","lat":46.18951,"lng":-90.0994,"zip":"54547","miles_from_dt":15.51},{"city":"Ironwood","state_name":"Michigan","lat":46.51493,"lng":-90.13264,"zip":"49938","miles_from_dt":15.98},{"city":"Bessemer","state_name":"Michigan","lat":46.49247,"lng":-90.05235,"zip":"49911","miles_from_dt":17.67},{"city":"Mellen","state_name":"Wisconsin","lat":46.28685,"lng":-90.70977,"zip":"54546","miles_from_dt":17.79},{"city":"High Bridge","state_name":"Wisconsin","lat":46.37737,"lng":-90.72481,"zip":"54846","miles_from_dt":18.39},{"city":"Ramsay","state_name":"Michigan","lat":46.46987,"lng":-89.99803,"zip":"49959","miles_from_dt":18.98},{"city":"Glidden","state_name":"Wisconsin","lat":46.13543,"lng":-90.6366,"zip":"54527","miles_from_dt":19.68},{"city":"Butternut","state_name":"Wisconsin","lat":46.03761,"lng":-90.49378,"zip":"54514","miles_from_dt":21.81},{"city":"Odanah","state_name":"Wisconsin","lat":46.59896,"lng":-90.64345,"zip":"54861","miles_from_dt":23.08},{"city":"Marengo","state_name":"Wisconsin","lat":46.37492,"lng":-90.84397,"zip":"54855","miles_from_dt":24.02},{"city":"Wakefield","state_name":"Michigan","lat":46.50199,"lng":-89.88314,"zip":"49968","miles_from_dt":24.86},{"city":"Manitowish Waters","state_name":"Wisconsin","lat":46.1326,"lng":-89.85208,"zip":"54545","miles_from_dt":27.48},{"city":"Park Falls","state_name":"Wisconsin","lat":45.93615,"lng":-90.29081,"zip":"54552","miles_from_dt":27.74},{"city":"Ashland","state_name":"Wisconsin","lat":46.54784,"lng":-90.85061,"zip":"54806","miles_from_dt":28.23},{"city":"Presque Isle","state_name":"Wisconsin","lat":46.22178,"lng":-89.75453,"zip":"54557","miles_from_dt":29.35}],"targetCityZipCode":"54536","targetCityState":"Wisconsin"},"__N_SSG":true}