{"pageProps":{"stateName":"Wisconsin","cityName":"king","nearbyCities":[{"city":"Waupaca","state_name":"Wisconsin","lat":44.32733,"lng":-89.12558,"zip":"54981","miles_from_dt":1.17},{"city":"Scandinavia","state_name":"Wisconsin","lat":44.45696,"lng":-89.16471,"zip":"54977","miles_from_dt":8.34},{"city":"Amherst","state_name":"Wisconsin","lat":44.41122,"lng":-89.31211,"zip":"54406","miles_from_dt":9.73},{"city":"Weyauwega","state_name":"Wisconsin","lat":44.31651,"lng":-88.93614,"zip":"54983","miles_from_dt":10.45},{"city":"Almond","state_name":"Wisconsin","lat":44.28575,"lng":-89.35343,"zip":"54909","miles_from_dt":10.92},{"city":"Wild Rose","state_name":"Wisconsin","lat":44.18728,"lng":-89.21967,"zip":"54984","miles_from_dt":10.98},{"city":"Saxeville","state_name":"Wisconsin","lat":44.1753,"lng":-89.1141,"zip":"54976","miles_from_dt":11.27},{"city":"Ogdensburg","state_name":"Wisconsin","lat":44.48059,"lng":-89.02486,"zip":"54962","miles_from_dt":11.56},{"city":"Pine River","state_name":"Wisconsin","lat":44.16429,"lng":-89.0324,"zip":"54965","miles_from_dt":13.17},{"city":"Nelsonville","state_name":"Wisconsin","lat":44.49867,"lng":-89.31027,"zip":"54458","miles_from_dt":13.84},{"city":"Amherst Junction","state_name":"Wisconsin","lat":44.52712,"lng":-89.29418,"zip":"54407","miles_from_dt":15.06},{"city":"Manawa","state_name":"Wisconsin","lat":44.48561,"lng":-88.91416,"zip":"54949","miles_from_dt":15.36},{"city":"Poy Sippi","state_name":"Wisconsin","lat":44.12954,"lng":-88.98487,"zip":"54967","miles_from_dt":16.39},{"city":"Iola","state_name":"Wisconsin","lat":44.57604,"lng":-89.13739,"zip":"54945","miles_from_dt":16.51},{"city":"Fremont","state_name":"Wisconsin","lat":44.22696,"lng":-88.84446,"zip":"54940","miles_from_dt":16.73},{"city":"Redgranite","state_name":"Wisconsin","lat":44.07091,"lng":-89.09352,"zip":"54970","miles_from_dt":18.55},{"city":"Readfield","state_name":"Wisconsin","lat":44.27353,"lng":-88.76787,"zip":"54969","miles_from_dt":19.21},{"city":"New London","state_name":"Wisconsin","lat":44.41173,"lng":-88.7628,"zip":"54961","miles_from_dt":19.62},{"city":"Wautoma","state_name":"Wisconsin","lat":44.07007,"lng":-89.29223,"zip":"54982","miles_from_dt":19.83},{"city":"Plainfield","state_name":"Wisconsin","lat":44.21276,"lng":-89.50579,"zip":"54966","miles_from_dt":19.85},{"city":"Big Falls","state_name":"Wisconsin","lat":44.61553,"lng":-89.01823,"zip":"54926","miles_from_dt":20.23},{"city":"Plover","state_name":"Wisconsin","lat":44.41575,"lng":-89.54062,"zip":"54467","miles_from_dt":20.33},{"city":"Bancroft","state_name":"Wisconsin","lat":44.30155,"lng":-89.57341,"zip":"54921","miles_from_dt":21.38},{"city":"Custer","state_name":"Wisconsin","lat":44.58049,"lng":-89.41642,"zip":"54423","miles_from_dt":21.51},{"city":"Stevens Point","state_name":"Wisconsin","lat":44.4916,"lng":-89.52973,"zip":"54492","miles_from_dt":21.83},{"city":"Stevens Point","state_name":"Wisconsin","lat":44.55174,"lng":-89.5092,"zip":"54482","miles_from_dt":23.33},{"city":"Rosholt","state_name":"Wisconsin","lat":44.64984,"lng":-89.35634,"zip":"54473","miles_from_dt":23.99},{"city":"Dale","state_name":"Wisconsin","lat":44.2703,"lng":-88.66835,"zip":"54931","miles_from_dt":24.08},{"city":"Bear Creek","state_name":"Wisconsin","lat":44.54281,"lng":-88.74529,"zip":"54922","miles_from_dt":24.35},{"city":"Larsen","state_name":"Wisconsin","lat":44.20003,"lng":-88.68995,"zip":"54947","miles_from_dt":24.48},{"city":"Winneconne","state_name":"Wisconsin","lat":44.11981,"lng":-88.75127,"zip":"54986","miles_from_dt":24.64},{"city":"Marion","state_name":"Wisconsin","lat":44.65408,"lng":-88.90614,"zip":"54950","miles_from_dt":24.87},{"city":"Berlin","state_name":"Wisconsin","lat":43.99456,"lng":-88.96883,"zip":"54923","miles_from_dt":25.22},{"city":"Hortonville","state_name":"Wisconsin","lat":44.32409,"lng":-88.6274,"zip":"54944","miles_from_dt":25.67},{"city":"Hancock","state_name":"Wisconsin","lat":44.12377,"lng":-89.58199,"zip":"54943","miles_from_dt":26.22},{"city":"Tigerton","state_name":"Wisconsin","lat":44.72595,"lng":-89.05124,"zip":"54486","miles_from_dt":27.25},{"city":"Neshkoro","state_name":"Wisconsin","lat":43.94569,"lng":-89.22386,"zip":"54960","miles_from_dt":27.3},{"city":"Stevens Point","state_name":"Wisconsin","lat":44.51935,"lng":-89.63678,"zip":"54481","miles_from_dt":27.39},{"city":"Omro","state_name":"Wisconsin","lat":44.04524,"lng":-88.76661,"zip":"54963","miles_from_dt":27.56},{"city":"Clintonville","state_name":"Wisconsin","lat":44.63704,"lng":-88.7372,"zip":"54929","miles_from_dt":28.9},{"city":"Butte Des Morts","state_name":"Wisconsin","lat":44.10192,"lng":-88.6548,"zip":"54927","miles_from_dt":29.26},{"city":"Wisconsin Rapids","state_name":"Wisconsin","lat":44.34414,"lng":-89.74054,"zip":"54494","miles_from_dt":29.51},{"city":"Coloma","state_name":"Wisconsin","lat":44.02884,"lng":-89.56383,"zip":"54930","miles_from_dt":29.76},{"city":"Greenville","state_name":"Wisconsin","lat":44.29904,"lng":-88.54265,"zip":"54942","miles_from_dt":29.98}],"targetCityZipCode":"54946","targetCityState":"Wisconsin"},"__N_SSG":true}