{"pageProps":{"stateName":"Wisconsin","cityName":"knapp","nearbyCities":[{"city":"Wilson","state_name":"Wisconsin","lat":44.92403,"lng":-92.19985,"zip":"54027","miles_from_dt":5.28},{"city":"Woodville","state_name":"Wisconsin","lat":44.95532,"lng":-92.28279,"zip":"54028","miles_from_dt":9.08},{"city":"Boyceville","state_name":"Wisconsin","lat":45.07103,"lng":-92.01062,"zip":"54725","miles_from_dt":9.47},{"city":"Downing","state_name":"Wisconsin","lat":45.09045,"lng":-92.11358,"zip":"54734","miles_from_dt":9.82},{"city":"Menomonie","state_name":"Wisconsin","lat":44.84971,"lng":-91.92994,"zip":"54751","miles_from_dt":10.7},{"city":"Glenwood City","state_name":"Wisconsin","lat":45.08134,"lng":-92.22929,"zip":"54013","miles_from_dt":11.2},{"city":"Spring Valley","state_name":"Wisconsin","lat":44.82645,"lng":-92.25513,"zip":"54767","miles_from_dt":11.44},{"city":"Baldwin","state_name":"Wisconsin","lat":44.95871,"lng":-92.37121,"zip":"54002","miles_from_dt":13.42},{"city":"Elmwood","state_name":"Wisconsin","lat":44.74427,"lng":-92.15853,"zip":"54740","miles_from_dt":14.42},{"city":"Downsville","state_name":"Wisconsin","lat":44.77598,"lng":-91.93058,"zip":"54735","miles_from_dt":14.48},{"city":"Wheeler","state_name":"Wisconsin","lat":45.09668,"lng":-91.87303,"zip":"54772","miles_from_dt":15.03},{"city":"Eau Galle","state_name":"Wisconsin","lat":44.71593,"lng":-91.98298,"zip":"54737","miles_from_dt":17.03},{"city":"Hammond","state_name":"Wisconsin","lat":44.96899,"lng":-92.45419,"zip":"54015","miles_from_dt":17.53},{"city":"Colfax","state_name":"Wisconsin","lat":45.01836,"lng":-91.72143,"zip":"54730","miles_from_dt":19.07},{"city":"Ridgeland","state_name":"Wisconsin","lat":45.179,"lng":-91.87683,"zip":"54763","miles_from_dt":19.24},{"city":"Beldenville","state_name":"Wisconsin","lat":44.79019,"lng":-92.44218,"zip":"54003","miles_from_dt":20.14},{"city":"Elk Mound","state_name":"Wisconsin","lat":44.86177,"lng":-91.70097,"zip":"54739","miles_from_dt":20.38},{"city":"Clear Lake","state_name":"Wisconsin","lat":45.23447,"lng":-92.23051,"zip":"54005","miles_from_dt":20.78},{"city":"Deer Park","state_name":"Wisconsin","lat":45.18781,"lng":-92.35734,"zip":"54007","miles_from_dt":20.83},{"city":"Prairie Farm","state_name":"Wisconsin","lat":45.25107,"lng":-91.98967,"zip":"54762","miles_from_dt":21.55},{"city":"Arkansaw","state_name":"Wisconsin","lat":44.6304,"lng":-92.07098,"zip":"54721","miles_from_dt":22.01},{"city":"Roberts","state_name":"Wisconsin","lat":44.97708,"lng":-92.55218,"zip":"54023","miles_from_dt":22.36},{"city":"Plum City","state_name":"Wisconsin","lat":44.62667,"lng":-92.17908,"zip":"54761","miles_from_dt":22.59},{"city":"New Richmond","state_name":"Wisconsin","lat":45.11907,"lng":-92.52091,"zip":"54017","miles_from_dt":23.83},{"city":"Ellsworth","state_name":"Wisconsin","lat":44.71648,"lng":-92.46279,"zip":"54011","miles_from_dt":24.05},{"city":"Maiden Rock","state_name":"Wisconsin","lat":44.62052,"lng":-92.29513,"zip":"54750","miles_from_dt":24.65},{"city":"Sand Creek","state_name":"Wisconsin","lat":45.17092,"lng":-91.7028,"zip":"54765","miles_from_dt":24.69},{"city":"Clayton","state_name":"Wisconsin","lat":45.30699,"lng":-92.12414,"zip":"54004","miles_from_dt":24.78},{"city":"Rock Falls","state_name":"Wisconsin","lat":44.71896,"lng":-91.69187,"zip":"54764","miles_from_dt":25.48},{"city":"Durand","state_name":"Wisconsin","lat":44.60345,"lng":-91.90455,"zip":"54736","miles_from_dt":25.66},{"city":"Dallas","state_name":"Wisconsin","lat":45.28331,"lng":-91.85641,"zip":"54733","miles_from_dt":25.95},{"city":"River Falls","state_name":"Wisconsin","lat":44.84796,"lng":-92.6096,"zip":"54022","miles_from_dt":26.06},{"city":"Bay City","state_name":"Wisconsin","lat":44.61063,"lng":-92.42893,"zip":"54723","miles_from_dt":28.46},{"city":"Star Prairie","state_name":"Wisconsin","lat":45.22688,"lng":-92.53459,"zip":"54026","miles_from_dt":28.73},{"city":"Hudson","state_name":"Wisconsin","lat":44.97949,"lng":-92.69305,"zip":"54016","miles_from_dt":29.26},{"city":"Eau Claire","state_name":"Wisconsin","lat":44.83311,"lng":-91.5185,"zip":"54703","miles_from_dt":29.54}],"targetCityZipCode":"54749","targetCityState":"Wisconsin"},"__N_SSG":true}