{"pageProps":{"stateName":"Wisconsin","cityName":"lake-nebagamon","nearbyCities":[{"city":"Hawthorne","state_name":"Wisconsin","lat":46.49891,"lng":-91.86234,"zip":"54842","miles_from_dt":7.1},{"city":"Solon Springs","state_name":"Wisconsin","lat":46.3448,"lng":-91.69292,"zip":"54873","miles_from_dt":9.32},{"city":"Poplar","state_name":"Wisconsin","lat":46.60431,"lng":-91.79443,"zip":"54864","miles_from_dt":9.43},{"city":"Brule","state_name":"Wisconsin","lat":46.56024,"lng":-91.55475,"zip":"54820","miles_from_dt":9.54},{"city":"Maple","state_name":"Wisconsin","lat":46.64127,"lng":-91.66864,"zip":"54854","miles_from_dt":11.45},{"city":"South Range","state_name":"Wisconsin","lat":46.56911,"lng":-91.94304,"zip":"54874","miles_from_dt":12.48},{"city":"Gordon","state_name":"Wisconsin","lat":46.24836,"lng":-91.79179,"zip":"54838","miles_from_dt":16.32},{"city":"Iron River","state_name":"Wisconsin","lat":46.57047,"lng":-91.40055,"zip":"54847","miles_from_dt":16.34},{"city":"Superior","state_name":"Wisconsin","lat":46.59342,"lng":-92.12701,"zip":"54880","miles_from_dt":21.11},{"city":"Drummond","state_name":"Wisconsin","lat":46.32661,"lng":-91.33073,"zip":"54832","miles_from_dt":21.22},{"city":"Wascott","state_name":"Wisconsin","lat":46.1759,"lng":-91.79852,"zip":"54890","miles_from_dt":21.29},{"city":"Foxboro","state_name":"Wisconsin","lat":46.43238,"lng":-92.19225,"zip":"54836","miles_from_dt":22.94},{"city":"Port Wing","state_name":"Wisconsin","lat":46.74787,"lng":-91.37517,"zip":"54865","miles_from_dt":24.68},{"city":"Minong","state_name":"Wisconsin","lat":46.12121,"lng":-91.82337,"zip":"54859","miles_from_dt":25.22},{"city":"Duluth","state_name":"Minnesota","lat":46.75267,"lng":-92.08197,"zip":"55802","miles_from_dt":25.7},{"city":"Duluth","state_name":"Minnesota","lat":46.76106,"lng":-92.12983,"zip":"55815","miles_from_dt":27.7},{"city":"Duluth","state_name":"Minnesota","lat":46.73508,"lng":-92.1686,"zip":"55807","miles_from_dt":27.87},{"city":"Duluth","state_name":"Minnesota","lat":46.76826,"lng":-92.12835,"zip":"55806","miles_from_dt":28},{"city":"Duluth","state_name":"Minnesota","lat":46.76816,"lng":-92.13313,"zip":"55816","miles_from_dt":28.16},{"city":"Duluth","state_name":"Minnesota","lat":46.6792,"lng":-92.23686,"zip":"55808","miles_from_dt":28.39},{"city":"Grand View","state_name":"Wisconsin","lat":46.35683,"lng":-91.14689,"zip":"54839","miles_from_dt":28.48},{"city":"Duluth","state_name":"Minnesota","lat":46.80065,"lng":-92.09552,"zip":"55805","miles_from_dt":28.63},{"city":"Duluth","state_name":"Minnesota","lat":46.81236,"lng":-92.07564,"zip":"55812","miles_from_dt":28.69},{"city":"Mason","state_name":"Wisconsin","lat":46.43401,"lng":-91.10279,"zip":"54856","miles_from_dt":29.46}],"targetCityZipCode":"54849","targetCityState":"Wisconsin"},"__N_SSG":true}