{"pageProps":{"stateName":"Wisconsin","cityName":"millston","nearbyCities":[{"city":"Black River Falls","state_name":"Wisconsin","lat":44.26158,"lng":-90.78049,"zip":"54615","miles_from_dt":8.88},{"city":"Warrens","state_name":"Wisconsin","lat":44.16201,"lng":-90.4399,"zip":"54666","miles_from_dt":9.82},{"city":"Cataract","state_name":"Wisconsin","lat":44.09118,"lng":-90.84255,"zip":"54620","miles_from_dt":12.31},{"city":"Tunnel City","state_name":"Wisconsin","lat":43.99955,"lng":-90.56014,"zip":"54662","miles_from_dt":13.5},{"city":"Sparta","state_name":"Wisconsin","lat":44.00291,"lng":-90.79601,"zip":"54656","miles_from_dt":15.08},{"city":"Tomah","state_name":"Wisconsin","lat":43.98525,"lng":-90.50496,"zip":"54660","miles_from_dt":15.38},{"city":"Mather","state_name":"Wisconsin","lat":44.14442,"lng":-90.30851,"zip":"54641","miles_from_dt":16.46},{"city":"Merrillan","state_name":"Wisconsin","lat":44.42913,"lng":-90.77527,"zip":"54754","miles_from_dt":18.08},{"city":"Oakdale","state_name":"Wisconsin","lat":43.96062,"lng":-90.38127,"zip":"54649","miles_from_dt":20.1},{"city":"Pittsville","state_name":"Wisconsin","lat":44.3855,"lng":-90.31687,"zip":"54466","miles_from_dt":20.85},{"city":"Melrose","state_name":"Wisconsin","lat":44.14978,"lng":-91.05303,"zip":"54642","miles_from_dt":20.97},{"city":"Mindoro","state_name":"Wisconsin","lat":44.03089,"lng":-91.04326,"zip":"54644","miles_from_dt":23.04},{"city":"Camp Douglas","state_name":"Wisconsin","lat":43.95921,"lng":-90.28967,"zip":"54618","miles_from_dt":23.3},{"city":"Alma Center","state_name":"Wisconsin","lat":44.44624,"lng":-90.95164,"zip":"54611","miles_from_dt":23.8},{"city":"Norwalk","state_name":"Wisconsin","lat":43.83544,"lng":-90.63553,"zip":"54648","miles_from_dt":24.31},{"city":"Taylor","state_name":"Wisconsin","lat":44.29704,"lng":-91.10065,"zip":"54659","miles_from_dt":24.35},{"city":"Neillsville","state_name":"Wisconsin","lat":44.54511,"lng":-90.63824,"zip":"54456","miles_from_dt":24.69},{"city":"Babcock","state_name":"Wisconsin","lat":44.28363,"lng":-90.15185,"zip":"54413","miles_from_dt":24.85},{"city":"Wilton","state_name":"Wisconsin","lat":43.83802,"lng":-90.48273,"zip":"54670","miles_from_dt":25.29},{"city":"Hixton","state_name":"Wisconsin","lat":44.40871,"lng":-91.04455,"zip":"54635","miles_from_dt":25.43},{"city":"Bangor","state_name":"Wisconsin","lat":43.90242,"lng":-90.9729,"zip":"54614","miles_from_dt":25.92},{"city":"Granton","state_name":"Wisconsin","lat":44.54149,"lng":-90.43101,"zip":"54436","miles_from_dt":26.43},{"city":"Humbird","state_name":"Wisconsin","lat":44.54543,"lng":-90.87217,"zip":"54746","miles_from_dt":27.37},{"city":"Necedah","state_name":"Wisconsin","lat":44.08807,"lng":-90.0912,"zip":"54646","miles_from_dt":27.87},{"city":"Hustler","state_name":"Wisconsin","lat":43.87874,"lng":-90.27076,"zip":"54637","miles_from_dt":27.98},{"city":"Rockland","state_name":"Wisconsin","lat":43.82586,"lng":-90.9129,"zip":"54653","miles_from_dt":28.57},{"city":"West Salem","state_name":"Wisconsin","lat":43.91171,"lng":-91.09046,"zip":"54669","miles_from_dt":29.64},{"city":"Ettrick","state_name":"Wisconsin","lat":44.16873,"lng":-91.23634,"zip":"54627","miles_from_dt":29.94}],"targetCityZipCode":"54643","targetCityState":"Wisconsin"},"__N_SSG":true}