{"pageProps":{"stateName":"Wisconsin","cityName":"milltown","nearbyCities":[{"city":"Luck","state_name":"Wisconsin","lat":45.57106,"lng":-92.45211,"zip":"54853","miles_from_dt":3.67},{"city":"Centuria","state_name":"Wisconsin","lat":45.4753,"lng":-92.54017,"zip":"54824","miles_from_dt":4.88},{"city":"Balsam Lake","state_name":"Wisconsin","lat":45.46126,"lng":-92.38403,"zip":"54810","miles_from_dt":5.4},{"city":"Saint Croix Falls","state_name":"Wisconsin","lat":45.49873,"lng":-92.64781,"zip":"54024","miles_from_dt":9.2},{"city":"Cushing","state_name":"Wisconsin","lat":45.58958,"lng":-92.64824,"zip":"54006","miles_from_dt":10.36},{"city":"Frederic","state_name":"Wisconsin","lat":45.6746,"lng":-92.35754,"zip":"54837","miles_from_dt":11.89},{"city":"Taylors Falls","state_name":"Minnesota","lat":45.46029,"lng":-92.70747,"zip":"55084","miles_from_dt":12.66},{"city":"Dresser","state_name":"Wisconsin","lat":45.35358,"lng":-92.57693,"zip":"54009","miles_from_dt":12.71},{"city":"Amery","state_name":"Wisconsin","lat":45.33417,"lng":-92.38703,"zip":"54001","miles_from_dt":13.2},{"city":"Comstock","state_name":"Wisconsin","lat":45.49971,"lng":-92.16422,"zip":"54826","miles_from_dt":14.43},{"city":"Turtle Lake","state_name":"Wisconsin","lat":45.41374,"lng":-92.17112,"zip":"54889","miles_from_dt":15.8},{"city":"Shafer","state_name":"Minnesota","lat":45.38351,"lng":-92.73292,"zip":"55074","miles_from_dt":16.19},{"city":"Center City","state_name":"Minnesota","lat":45.44166,"lng":-92.78952,"zip":"55012","miles_from_dt":16.85},{"city":"Siren","state_name":"Wisconsin","lat":45.76965,"lng":-92.39622,"zip":"54872","miles_from_dt":17.64},{"city":"Osceola","state_name":"Wisconsin","lat":45.27937,"lng":-92.65235,"zip":"54020","miles_from_dt":18.96},{"city":"Cumberland","state_name":"Wisconsin","lat":45.5592,"lng":-92.06603,"zip":"54829","miles_from_dt":19.34},{"city":"Grantsburg","state_name":"Wisconsin","lat":45.7556,"lng":-92.68928,"zip":"54840","miles_from_dt":19.79},{"city":"Lindstrom","state_name":"Minnesota","lat":45.39777,"lng":-92.83074,"zip":"55045","miles_from_dt":19.83},{"city":"Star Prairie","state_name":"Wisconsin","lat":45.22688,"lng":-92.53459,"zip":"54026","miles_from_dt":20.44},{"city":"Clayton","state_name":"Wisconsin","lat":45.30699,"lng":-92.12414,"zip":"54004","miles_from_dt":21.91},{"city":"Almena","state_name":"Wisconsin","lat":45.41465,"lng":-92.02311,"zip":"54805","miles_from_dt":22.42},{"city":"Clear Lake","state_name":"Wisconsin","lat":45.23447,"lng":-92.23051,"zip":"54005","miles_from_dt":22.56},{"city":"Barronett","state_name":"Wisconsin","lat":45.65477,"lng":-92.03071,"zip":"54813","miles_from_dt":22.87},{"city":"Deer Park","state_name":"Wisconsin","lat":45.18781,"lng":-92.35734,"zip":"54007","miles_from_dt":23.36},{"city":"Chisago City","state_name":"Minnesota","lat":45.35558,"lng":-92.89469,"zip":"55013","miles_from_dt":23.92},{"city":"North Branch","state_name":"Minnesota","lat":45.50915,"lng":-92.9543,"zip":"55056","miles_from_dt":23.99},{"city":"Scandia","state_name":"Minnesota","lat":45.27363,"lng":-92.82783,"zip":"55073","miles_from_dt":24.6},{"city":"Hertel","state_name":"Wisconsin","lat":45.80724,"lng":-92.13786,"zip":"54845","miles_from_dt":25.34},{"city":"Webster","state_name":"Wisconsin","lat":45.87094,"lng":-92.30837,"zip":"54893","miles_from_dt":25.44},{"city":"Harris","state_name":"Minnesota","lat":45.58851,"lng":-92.99279,"zip":"55032","miles_from_dt":26.29},{"city":"Shell Lake","state_name":"Wisconsin","lat":45.7412,"lng":-92.01503,"zip":"54871","miles_from_dt":26.51},{"city":"Stacy","state_name":"Minnesota","lat":45.39751,"lng":-92.98934,"zip":"55078","miles_from_dt":27.03},{"city":"Rush City","state_name":"Minnesota","lat":45.6928,"lng":-92.96768,"zip":"55069","miles_from_dt":27.39},{"city":"New Richmond","state_name":"Wisconsin","lat":45.11907,"lng":-92.52091,"zip":"54017","miles_from_dt":27.72},{"city":"Marine On Saint Croix","state_name":"Minnesota","lat":45.20553,"lng":-92.82137,"zip":"55047","miles_from_dt":27.84},{"city":"Rock Creek","state_name":"Minnesota","lat":45.7623,"lng":-92.9262,"zip":"55067","miles_from_dt":28.17},{"city":"Somerset","state_name":"Wisconsin","lat":45.14184,"lng":-92.68997,"zip":"54025","miles_from_dt":28.3},{"city":"Stacy","state_name":"Minnesota","lat":45.41385,"lng":-93.03117,"zip":"55079","miles_from_dt":28.66},{"city":"Barron","state_name":"Wisconsin","lat":45.39911,"lng":-91.88103,"zip":"54812","miles_from_dt":29.33},{"city":"Prairie Farm","state_name":"Wisconsin","lat":45.25107,"lng":-91.98967,"zip":"54762","miles_from_dt":29.41}],"targetCityZipCode":"54858","targetCityState":"Wisconsin"},"__N_SSG":true}