{"pageProps":{"stateName":"Wisconsin","cityName":"nashotah","nearbyCities":[{"city":"Okauchee","state_name":"Wisconsin","lat":43.1131,"lng":-88.43094,"zip":"53069","miles_from_dt":1.27},{"city":"Hartland","state_name":"Wisconsin","lat":43.14381,"lng":-88.34624,"zip":"53029","miles_from_dt":3.83},{"city":"North Lake","state_name":"Wisconsin","lat":43.1605,"lng":-88.37165,"zip":"53064","miles_from_dt":3.9},{"city":"Oconomowoc","state_name":"Wisconsin","lat":43.11451,"lng":-88.49068,"zip":"53066","miles_from_dt":4.28},{"city":"Delafield","state_name":"Wisconsin","lat":43.04809,"lng":-88.39278,"zip":"53018","miles_from_dt":4.33},{"city":"Merton","state_name":"Wisconsin","lat":43.14776,"lng":-88.30709,"zip":"53056","miles_from_dt":5.65},{"city":"Pewaukee","state_name":"Wisconsin","lat":43.07989,"lng":-88.26638,"zip":"53072","miles_from_dt":7.37},{"city":"Wales","state_name":"Wisconsin","lat":43.00441,"lng":-88.3739,"zip":"53183","miles_from_dt":7.47},{"city":"Waukesha","state_name":"Wisconsin","lat":43.02106,"lng":-88.29265,"zip":"53188","miles_from_dt":8.41},{"city":"Sussex","state_name":"Wisconsin","lat":43.14646,"lng":-88.23594,"zip":"53089","miles_from_dt":8.97},{"city":"Ashippun","state_name":"Wisconsin","lat":43.21226,"lng":-88.51957,"zip":"53003","miles_from_dt":9.09},{"city":"Ixonia","state_name":"Wisconsin","lat":43.17141,"lng":-88.57693,"zip":"53036","miles_from_dt":9.61},{"city":"Colgate","state_name":"Wisconsin","lat":43.2044,"lng":-88.2526,"zip":"53017","miles_from_dt":10.14},{"city":"Dousman","state_name":"Wisconsin","lat":42.9725,"lng":-88.48859,"zip":"53118","miles_from_dt":10.37},{"city":"Genesee Depot","state_name":"Wisconsin","lat":42.95991,"lng":-88.3777,"zip":"53127","miles_from_dt":10.46},{"city":"Sullivan","state_name":"Wisconsin","lat":43.02335,"lng":-88.59894,"zip":"53178","miles_from_dt":11.44},{"city":"Hubertus","state_name":"Wisconsin","lat":43.23716,"lng":-88.25634,"zip":"53033","miles_from_dt":11.59},{"city":"Waukesha","state_name":"Wisconsin","lat":43.00888,"lng":-88.2214,"zip":"53187","miles_from_dt":11.67},{"city":"North Prairie","state_name":"Wisconsin","lat":42.94056,"lng":-88.40237,"zip":"53153","miles_from_dt":11.7},{"city":"Waukesha","state_name":"Wisconsin","lat":43.02305,"lng":-88.20319,"zip":"53186","miles_from_dt":11.9},{"city":"Waukesha","state_name":"Wisconsin","lat":42.95216,"lng":-88.28068,"zip":"53189","miles_from_dt":12.62},{"city":"Lannon","state_name":"Wisconsin","lat":43.15215,"lng":-88.16045,"zip":"53046","miles_from_dt":12.76},{"city":"Brookfield","state_name":"Wisconsin","lat":43.061,"lng":-88.15145,"zip":"53045","miles_from_dt":13.33},{"city":"Neosho","state_name":"Wisconsin","lat":43.28954,"lng":-88.53012,"zip":"53059","miles_from_dt":13.88},{"city":"Rubicon","state_name":"Wisconsin","lat":43.31386,"lng":-88.45924,"zip":"53078","miles_from_dt":14.32},{"city":"Hartford","state_name":"Wisconsin","lat":43.31697,"lng":-88.37356,"zip":"53027","miles_from_dt":14.38},{"city":"Menomonee Falls","state_name":"Wisconsin","lat":43.14905,"lng":-88.12348,"zip":"53051","miles_from_dt":14.55},{"city":"Richfield","state_name":"Wisconsin","lat":43.26966,"lng":-88.20905,"zip":"53076","miles_from_dt":14.85},{"city":"Helenville","state_name":"Wisconsin","lat":43.00472,"lng":-88.66975,"zip":"53137","miles_from_dt":15.19},{"city":"Menomonee Falls","state_name":"Wisconsin","lat":43.178,"lng":-88.11944,"zip":"53052","miles_from_dt":15.24},{"city":"Lebanon","state_name":"Wisconsin","lat":43.25904,"lng":-88.63002,"zip":"53047","miles_from_dt":15.28},{"city":"Brookfield","state_name":"Wisconsin","lat":43.06199,"lng":-88.10964,"zip":"53008","miles_from_dt":15.37},{"city":"New Berlin","state_name":"Wisconsin","lat":42.9718,"lng":-88.15885,"zip":"53146","miles_from_dt":15.75},{"city":"Brookfield","state_name":"Wisconsin","lat":43.0625,"lng":-88.0992,"zip":"53005","miles_from_dt":15.88},{"city":"Eagle","state_name":"Wisconsin","lat":42.88356,"lng":-88.4862,"zip":"53119","miles_from_dt":16.15},{"city":"Slinger","state_name":"Wisconsin","lat":43.32508,"lng":-88.27124,"zip":"53086","miles_from_dt":16.34},{"city":"Mukwonago","state_name":"Wisconsin","lat":42.87436,"lng":-88.34077,"zip":"53149","miles_from_dt":16.6},{"city":"Elm Grove","state_name":"Wisconsin","lat":43.04811,"lng":-88.08674,"zip":"53122","miles_from_dt":16.72},{"city":"Watertown","state_name":"Wisconsin","lat":43.1462,"lng":-88.73365,"zip":"53094","miles_from_dt":16.74},{"city":"Butler","state_name":"Wisconsin","lat":43.10825,"lng":-88.07116,"zip":"53007","miles_from_dt":16.95},{"city":"Germantown","state_name":"Wisconsin","lat":43.23062,"lng":-88.11286,"zip":"53022","miles_from_dt":17},{"city":"Palmyra","state_name":"Wisconsin","lat":42.89069,"lng":-88.59012,"zip":"53156","miles_from_dt":17.78},{"city":"New Berlin","state_name":"Wisconsin","lat":42.97467,"lng":-88.09845,"zip":"53151","miles_from_dt":18.17},{"city":"Watertown","state_name":"Wisconsin","lat":43.24955,"lng":-88.71461,"zip":"53098","miles_from_dt":18.32},{"city":"Milwaukee","state_name":"Wisconsin","lat":43.11443,"lng":-88.042,"zip":"53225","miles_from_dt":18.42},{"city":"Big Bend","state_name":"Wisconsin","lat":42.88175,"lng":-88.21542,"zip":"53103","miles_from_dt":18.49},{"city":"Jackson","state_name":"Wisconsin","lat":43.31255,"lng":-88.16108,"zip":"53037","miles_from_dt":18.67},{"city":"Milwaukee","state_name":"Wisconsin","lat":43.08412,"lng":-88.03594,"zip":"53263","miles_from_dt":18.82},{"city":"Hustisford","state_name":"Wisconsin","lat":43.34014,"lng":-88.60746,"zip":"53034","miles_from_dt":18.86},{"city":"Milwaukee","state_name":"Wisconsin","lat":43.08205,"lng":-88.03496,"zip":"53222","miles_from_dt":18.88},{"city":"Milwaukee","state_name":"Wisconsin","lat":43.04975,"lng":-88.04209,"zip":"53226","miles_from_dt":18.89},{"city":"Milwaukee","state_name":"Wisconsin","lat":43.16357,"lng":-88.03894,"zip":"53224","miles_from_dt":18.93},{"city":"Johnson Creek","state_name":"Wisconsin","lat":43.08592,"lng":-88.79031,"zip":"53038","miles_from_dt":19.5},{"city":"Woodland","state_name":"Wisconsin","lat":43.38035,"lng":-88.52525,"zip":"53099","miles_from_dt":19.6},{"city":"Milwaukee","state_name":"Wisconsin","lat":42.99562,"lng":-88.04264,"zip":"53227","miles_from_dt":20.03},{"city":"Jefferson","state_name":"Wisconsin","lat":42.99056,"lng":-88.77675,"zip":"53549","miles_from_dt":20.49},{"city":"Iron Ridge","state_name":"Wisconsin","lat":43.39135,"lng":-88.54355,"zip":"53035","miles_from_dt":20.62},{"city":"Milwaukee","state_name":"Wisconsin","lat":43.02061,"lng":-88.01634,"zip":"53214","miles_from_dt":20.68},{"city":"Milwaukee","state_name":"Wisconsin","lat":42.96678,"lng":-88.04333,"zip":"53228","miles_from_dt":20.87},{"city":"Milwaukee","state_name":"Wisconsin","lat":43.11469,"lng":-87.99301,"zip":"53218","miles_from_dt":20.9},{"city":"Milwaukee","state_name":"Wisconsin","lat":43.04889,"lng":-88.00176,"zip":"53213","miles_from_dt":20.9},{"city":"Clyman","state_name":"Wisconsin","lat":43.31104,"lng":-88.71794,"zip":"53016","miles_from_dt":20.98},{"city":"Muskego","state_name":"Wisconsin","lat":42.8845,"lng":-88.12824,"zip":"53150","miles_from_dt":20.99},{"city":"East Troy","state_name":"Wisconsin","lat":42.80066,"lng":-88.41783,"zip":"53120","miles_from_dt":21.36},{"city":"Milwaukee","state_name":"Wisconsin","lat":43.16304,"lng":-87.98996,"zip":"53223","miles_from_dt":21.36},{"city":"Hales Corners","state_name":"Wisconsin","lat":42.94092,"lng":-88.04909,"zip":"53130","miles_from_dt":21.53},{"city":"Milwaukee","state_name":"Wisconsin","lat":43.08634,"lng":-87.97636,"zip":"53216","miles_from_dt":21.81},{"city":"Milwaukee","state_name":"Wisconsin","lat":43.06889,"lng":-87.97381,"zip":"53210","miles_from_dt":22.06},{"city":"Mequon","state_name":"Wisconsin","lat":43.24574,"lng":-88.0069,"zip":"53097","miles_from_dt":22.24},{"city":"Milwaukee","state_name":"Wisconsin","lat":42.99537,"lng":-87.99171,"zip":"53219","miles_from_dt":22.43},{"city":"Milwaukee","state_name":"Wisconsin","lat":43.02222,"lng":-87.97665,"zip":"53295","miles_from_dt":22.57},{"city":"Milwaukee","state_name":"Wisconsin","lat":43.04556,"lng":-87.96556,"zip":"53208","miles_from_dt":22.74},{"city":"West Bend","state_name":"Wisconsin","lat":43.38838,"lng":-88.15895,"zip":"53095","miles_from_dt":22.91},{"city":"Milwaukee","state_name":"Wisconsin","lat":43.12871,"lng":-87.94717,"zip":"53209","miles_from_dt":23.25},{"city":"Milwaukee","state_name":"Wisconsin","lat":42.96515,"lng":-87.99142,"zip":"53220","miles_from_dt":23.26},{"city":"Milwaukee","state_name":"Wisconsin","lat":43.00174,"lng":-87.97075,"zip":"53234","miles_from_dt":23.28},{"city":"Cedarburg","state_name":"Wisconsin","lat":43.31369,"lng":-88.03704,"zip":"53012","miles_from_dt":23.35},{"city":"Juneau","state_name":"Wisconsin","lat":43.36931,"lng":-88.71148,"zip":"53039","miles_from_dt":23.62},{"city":"Greendale","state_name":"Wisconsin","lat":42.93795,"lng":-88.00003,"zip":"53129","miles_from_dt":23.76},{"city":"Milwaukee","state_name":"Wisconsin","lat":43.07524,"lng":-87.93349,"zip":"53206","miles_from_dt":24.04},{"city":"Mequon","state_name":"Wisconsin","lat":43.22139,"lng":-87.95351,"zip":"53092","miles_from_dt":24.13},{"city":"Milwaukee","state_name":"Wisconsin","lat":43.05359,"lng":-87.93363,"zip":"53205","miles_from_dt":24.23},{"city":"Waterford","state_name":"Wisconsin","lat":42.79519,"lng":-88.19313,"zip":"53185","miles_from_dt":24.27},{"city":"Milwaukee","state_name":"Wisconsin","lat":43.03694,"lng":-87.93364,"zip":"53233","miles_from_dt":24.44},{"city":"Milwaukee","state_name":"Wisconsin","lat":42.99931,"lng":-87.94625,"zip":"53215","miles_from_dt":24.51},{"city":"Allenton","state_name":"Wisconsin","lat":43.46896,"lng":-88.35454,"zip":"53002","miles_from_dt":24.91},{"city":"Milwaukee","state_name":"Wisconsin","lat":43.15767,"lng":-87.91633,"zip":"53217","miles_from_dt":24.99},{"city":"Milwaukee","state_name":"Wisconsin","lat":43.04219,"lng":-87.92019,"zip":"53293","miles_from_dt":25.04},{"city":"Milwaukee","state_name":"Wisconsin","lat":43.01806,"lng":-87.92552,"zip":"53204","miles_from_dt":25.15},{"city":"Lowell","state_name":"Wisconsin","lat":43.33996,"lng":-88.79449,"zip":"53557","miles_from_dt":25.22},{"city":"Milwaukee","state_name":"Wisconsin","lat":43.03618,"lng":-87.91696,"zip":"53201","miles_from_dt":25.28},{"city":"Milwaukee","state_name":"Wisconsin","lat":43.03828,"lng":-87.91603,"zip":"53203","miles_from_dt":25.3},{"city":"Milwaukee","state_name":"Wisconsin","lat":43.07464,"lng":-87.90845,"zip":"53212","miles_from_dt":25.3},{"city":"Franklin","state_name":"Wisconsin","lat":42.88589,"lng":-88.01063,"zip":"53132","miles_from_dt":25.32},{"city":"Milwaukee","state_name":"Wisconsin","lat":43.04345,"lng":-87.91241,"zip":"53288","miles_from_dt":25.41},{"city":"Milwaukee","state_name":"Wisconsin","lat":43.03629,"lng":-87.91285,"zip":"53259","miles_from_dt":25.48},{"city":"Milwaukee","state_name":"Wisconsin","lat":43.03661,"lng":-87.91206,"zip":"53290","miles_from_dt":25.52},{"city":"Honey Creek","state_name":"Wisconsin","lat":42.74557,"lng":-88.30545,"zip":"53138","miles_from_dt":25.67},{"city":"Milwaukee","state_name":"Wisconsin","lat":43.04027,"lng":-87.90747,"zip":"53274","miles_from_dt":25.7},{"city":"Milwaukee","state_name":"Wisconsin","lat":43.04181,"lng":-87.90684,"zip":"53237","miles_from_dt":25.71},{"city":"Horicon","state_name":"Wisconsin","lat":43.44708,"lng":-88.6234,"zip":"53032","miles_from_dt":25.72},{"city":"Milwaukee","state_name":"Wisconsin","lat":42.95445,"lng":-87.94374,"zip":"53221","miles_from_dt":25.77},{"city":"Lake Mills","state_name":"Wisconsin","lat":43.07831,"lng":-88.91508,"zip":"53551","miles_from_dt":25.84},{"city":"Milwaukee","state_name":"Wisconsin","lat":43.04561,"lng":-87.89893,"zip":"53202","miles_from_dt":26.05},{"city":"Milwaukee","state_name":"Wisconsin","lat":43.03945,"lng":-87.90029,"zip":"53278","miles_from_dt":26.06},{"city":"Milwaukee","state_name":"Wisconsin","lat":43.08308,"lng":-87.88485,"zip":"53211","miles_from_dt":26.44},{"city":"West Bend","state_name":"Wisconsin","lat":43.45685,"lng":-88.17985,"zip":"53090","miles_from_dt":26.53},{"city":"Whitewater","state_name":"Wisconsin","lat":42.80775,"lng":-88.73129,"zip":"53190","miles_from_dt":26.59},{"city":"Theresa","state_name":"Wisconsin","lat":43.49667,"lng":-88.43674,"zip":"53091","miles_from_dt":26.74},{"city":"Reeseville","state_name":"Wisconsin","lat":43.2894,"lng":-88.87545,"zip":"53579","miles_from_dt":26.74},{"city":"Fort Atkinson","state_name":"Wisconsin","lat":42.91697,"lng":-88.87194,"zip":"53538","miles_from_dt":27.09},{"city":"Milwaukee","state_name":"Wisconsin","lat":42.97148,"lng":-87.90152,"zip":"53207","miles_from_dt":27.29},{"city":"Rochester","state_name":"Wisconsin","lat":42.73526,"lng":-88.22552,"zip":"53167","miles_from_dt":27.45},{"city":"Elkhorn","state_name":"Wisconsin","lat":42.70989,"lng":-88.53028,"zip":"53121","miles_from_dt":28.33},{"city":"Grafton","state_name":"Wisconsin","lat":43.33233,"lng":-87.93299,"zip":"53024","miles_from_dt":28.4},{"city":"Mayville","state_name":"Wisconsin","lat":43.50992,"lng":-88.54734,"zip":"53050","miles_from_dt":28.51},{"city":"Saint Francis","state_name":"Wisconsin","lat":42.97161,"lng":-87.87298,"zip":"53235","miles_from_dt":28.64},{"city":"Newburg","state_name":"Wisconsin","lat":43.43091,"lng":-88.04571,"zip":"53060","miles_from_dt":28.66},{"city":"Waterloo","state_name":"Wisconsin","lat":43.18291,"lng":-88.97168,"zip":"53594","miles_from_dt":29.02},{"city":"Saukville","state_name":"Wisconsin","lat":43.40733,"lng":-87.98789,"zip":"53080","miles_from_dt":29.44},{"city":"Cudahy","state_name":"Wisconsin","lat":42.94671,"lng":-87.86403,"zip":"53110","miles_from_dt":29.68}],"targetCityZipCode":"53058","targetCityState":"Wisconsin"},"__N_SSG":true}