{"pageProps":{"stateName":"Wisconsin","cityName":"neshkoro","nearbyCities":[{"city":"Princeton","state_name":"Wisconsin","lat":43.84872,"lng":-89.13255,"zip":"54968","miles_from_dt":8.1},{"city":"Wautoma","state_name":"Wisconsin","lat":44.07007,"lng":-89.29223,"zip":"54982","miles_from_dt":9.24},{"city":"Redgranite","state_name":"Wisconsin","lat":44.07091,"lng":-89.09352,"zip":"54970","miles_from_dt":10.81},{"city":"Montello","state_name":"Wisconsin","lat":43.78323,"lng":-89.33978,"zip":"53949","miles_from_dt":12.62},{"city":"Berlin","state_name":"Wisconsin","lat":43.99456,"lng":-88.96883,"zip":"54923","miles_from_dt":13.16},{"city":"Green Lake","state_name":"Wisconsin","lat":43.85067,"lng":-88.99103,"zip":"54941","miles_from_dt":13.35},{"city":"Westfield","state_name":"Wisconsin","lat":43.91253,"lng":-89.5025,"zip":"53964","miles_from_dt":14.09},{"city":"Marquette","state_name":"Wisconsin","lat":43.74676,"lng":-89.13769,"zip":"53947","miles_from_dt":14.39},{"city":"Wild Rose","state_name":"Wisconsin","lat":44.18728,"lng":-89.21967,"zip":"54984","miles_from_dt":16.68},{"city":"Saxeville","state_name":"Wisconsin","lat":44.1753,"lng":-89.1141,"zip":"54976","miles_from_dt":16.77},{"city":"Packwaukee","state_name":"Wisconsin","lat":43.76606,"lng":-89.458,"zip":"53953","miles_from_dt":17.05},{"city":"Poy Sippi","state_name":"Wisconsin","lat":44.12954,"lng":-88.98487,"zip":"54967","miles_from_dt":17.4},{"city":"Pine River","state_name":"Wisconsin","lat":44.16429,"lng":-89.0324,"zip":"54965","miles_from_dt":17.85},{"city":"Coloma","state_name":"Wisconsin","lat":44.02884,"lng":-89.56383,"zip":"54930","miles_from_dt":17.89},{"city":"Kingston","state_name":"Wisconsin","lat":43.69185,"lng":-89.13199,"zip":"53939","miles_from_dt":18.12},{"city":"Markesan","state_name":"Wisconsin","lat":43.71822,"lng":-89.02189,"zip":"53946","miles_from_dt":18.67},{"city":"Dalton","state_name":"Wisconsin","lat":43.67164,"lng":-89.21497,"zip":"53926","miles_from_dt":18.93},{"city":"Ripon","state_name":"Wisconsin","lat":43.85546,"lng":-88.83109,"zip":"54971","miles_from_dt":20.57},{"city":"Oxford","state_name":"Wisconsin","lat":43.78718,"lng":-89.5963,"zip":"53952","miles_from_dt":21.58},{"city":"Hancock","state_name":"Wisconsin","lat":44.12377,"lng":-89.58199,"zip":"54943","miles_from_dt":21.66},{"city":"Endeavor","state_name":"Wisconsin","lat":43.683,"lng":-89.49506,"zip":"53930","miles_from_dt":22.64},{"city":"Fairwater","state_name":"Wisconsin","lat":43.74236,"lng":-88.86798,"zip":"53931","miles_from_dt":22.66},{"city":"Waukau","state_name":"Wisconsin","lat":43.98625,"lng":-88.76906,"zip":"54980","miles_from_dt":22.85},{"city":"Plainfield","state_name":"Wisconsin","lat":44.21276,"lng":-89.50579,"zip":"54966","miles_from_dt":23.17},{"city":"Omro","state_name":"Wisconsin","lat":44.04524,"lng":-88.76661,"zip":"54963","miles_from_dt":23.8},{"city":"Almond","state_name":"Wisconsin","lat":44.28575,"lng":-89.35343,"zip":"54909","miles_from_dt":24.35},{"city":"Grand Marsh","state_name":"Wisconsin","lat":43.87477,"lng":-89.71071,"zip":"53936","miles_from_dt":24.79},{"city":"Pickett","state_name":"Wisconsin","lat":43.9178,"lng":-88.71836,"zip":"54964","miles_from_dt":25.3},{"city":"Friesland","state_name":"Wisconsin","lat":43.58864,"lng":-89.06697,"zip":"53935","miles_from_dt":25.87},{"city":"Cambria","state_name":"Wisconsin","lat":43.57326,"lng":-89.13753,"zip":"53923","miles_from_dt":26.07},{"city":"Winneconne","state_name":"Wisconsin","lat":44.11981,"lng":-88.75127,"zip":"54986","miles_from_dt":26.43},{"city":"Brandon","state_name":"Wisconsin","lat":43.73462,"lng":-88.77564,"zip":"53919","miles_from_dt":26.72},{"city":"Waupaca","state_name":"Wisconsin","lat":44.32733,"lng":-89.12558,"zip":"54981","miles_from_dt":26.8},{"city":"Fremont","state_name":"Wisconsin","lat":44.22696,"lng":-88.84446,"zip":"54940","miles_from_dt":27.09},{"city":"Briggsville","state_name":"Wisconsin","lat":43.66579,"lng":-89.60364,"zip":"53920","miles_from_dt":27.09},{"city":"King","state_name":"Wisconsin","lat":44.33704,"lng":-89.14503,"zip":"54946","miles_from_dt":27.3},{"city":"Pardeeville","state_name":"Wisconsin","lat":43.55518,"lng":-89.31325,"zip":"53954","miles_from_dt":27.33},{"city":"Weyauwega","state_name":"Wisconsin","lat":44.31651,"lng":-88.93614,"zip":"54983","miles_from_dt":29.33},{"city":"Adams","state_name":"Wisconsin","lat":43.89073,"lng":-89.80708,"zip":"53910","miles_from_dt":29.35},{"city":"Randolph","state_name":"Wisconsin","lat":43.54166,"lng":-89.01849,"zip":"53956","miles_from_dt":29.73},{"city":"Friendship","state_name":"Wisconsin","lat":43.98044,"lng":-89.82184,"zip":"53934","miles_from_dt":29.92},{"city":"Portage","state_name":"Wisconsin","lat":43.55606,"lng":-89.48606,"zip":"53901","miles_from_dt":29.93}],"targetCityZipCode":"54960","targetCityState":"Wisconsin"},"__N_SSG":true}