{"pageProps":{"stateName":"Wisconsin","cityName":"new-holstein","nearbyCities":[{"city":"New Holstein","state_name":"Wisconsin","lat":43.9475,"lng":-88.10198,"zip":"53062","miles_from_dt":0.81},{"city":"Chilton","state_name":"Wisconsin","lat":44.02298,"lng":-88.17549,"zip":"53014","miles_from_dt":6.04},{"city":"Kiel","state_name":"Wisconsin","lat":43.95144,"lng":-87.98216,"zip":"53042","miles_from_dt":6.79},{"city":"Elkhart Lake","state_name":"Wisconsin","lat":43.86231,"lng":-88.01364,"zip":"53020","miles_from_dt":7.77},{"city":"Malone","state_name":"Wisconsin","lat":43.8853,"lng":-88.28917,"zip":"53049","miles_from_dt":9.51},{"city":"Saint Cloud","state_name":"Wisconsin","lat":43.81132,"lng":-88.1888,"zip":"53079","miles_from_dt":9.94},{"city":"Saint Nazianz","state_name":"Wisconsin","lat":44.00668,"lng":-87.92462,"zip":"54232","miles_from_dt":10.52},{"city":"Glenbeulah","state_name":"Wisconsin","lat":43.78198,"lng":-88.10745,"zip":"53023","miles_from_dt":11.33},{"city":"Greenbush","state_name":"Wisconsin","lat":43.77869,"lng":-88.08022,"zip":"53026","miles_from_dt":11.7},{"city":"Collins","state_name":"Wisconsin","lat":44.08425,"lng":-87.98093,"zip":"54207","miles_from_dt":11.74},{"city":"Potter","state_name":"Wisconsin","lat":44.12029,"lng":-88.09895,"zip":"54160","miles_from_dt":12.08},{"city":"Valders","state_name":"Wisconsin","lat":44.02728,"lng":-87.8977,"zip":"54245","miles_from_dt":12.34},{"city":"Mount Calvary","state_name":"Wisconsin","lat":43.79099,"lng":-88.24671,"zip":"53057","miles_from_dt":12.48},{"city":"Stockbridge","state_name":"Wisconsin","lat":44.07178,"lng":-88.29966,"zip":"53088","miles_from_dt":12.55},{"city":"Hilbert","state_name":"Wisconsin","lat":44.12902,"lng":-88.20146,"zip":"54129","miles_from_dt":13.31},{"city":"Plymouth","state_name":"Wisconsin","lat":43.75011,"lng":-87.99191,"zip":"53073","miles_from_dt":14.91},{"city":"Newton","state_name":"Wisconsin","lat":43.96297,"lng":-87.80232,"zip":"53063","miles_from_dt":15.79},{"city":"Cleveland","state_name":"Wisconsin","lat":43.90534,"lng":-87.79296,"zip":"53015","miles_from_dt":16.46},{"city":"Brillion","state_name":"Wisconsin","lat":44.18533,"lng":-88.08105,"zip":"54110","miles_from_dt":16.63},{"city":"Reedsville","state_name":"Wisconsin","lat":44.15749,"lng":-87.91202,"zip":"54230","miles_from_dt":17.85},{"city":"Sherwood","state_name":"Wisconsin","lat":44.17799,"lng":-88.2772,"zip":"54169","miles_from_dt":17.88},{"city":"Forest Junction","state_name":"Wisconsin","lat":44.20642,"lng":-88.15201,"zip":"54123","miles_from_dt":18.07},{"city":"Sheboygan","state_name":"Wisconsin","lat":43.81511,"lng":-87.77108,"zip":"53083","miles_from_dt":19.54},{"city":"Eden","state_name":"Wisconsin","lat":43.69667,"lng":-88.30752,"zip":"53019","miles_from_dt":19.64},{"city":"Fond Du Lac","state_name":"Wisconsin","lat":43.77542,"lng":-88.43396,"zip":"54935","miles_from_dt":19.69},{"city":"Sheboygan Falls","state_name":"Wisconsin","lat":43.73562,"lng":-87.85137,"zip":"53085","miles_from_dt":19.7},{"city":"Cascade","state_name":"Wisconsin","lat":43.65755,"lng":-88.08123,"zip":"53011","miles_from_dt":19.99},{"city":"Fond Du Lac","state_name":"Wisconsin","lat":43.77351,"lng":-88.4478,"zip":"54936","miles_from_dt":20.32},{"city":"Fond Du Lac","state_name":"Wisconsin","lat":43.75959,"lng":-88.43335,"zip":"54937","miles_from_dt":20.34},{"city":"Menasha","state_name":"Wisconsin","lat":44.20086,"lng":-88.33719,"zip":"54952","miles_from_dt":20.71},{"city":"Oshkosh","state_name":"Wisconsin","lat":43.94934,"lng":-88.53969,"zip":"54902","miles_from_dt":21.03},{"city":"Sheboygan","state_name":"Wisconsin","lat":43.76575,"lng":-87.76871,"zip":"53082","miles_from_dt":21.43},{"city":"Van Dyne","state_name":"Wisconsin","lat":43.8688,"lng":-88.53875,"zip":"54979","miles_from_dt":21.66},{"city":"Manitowoc","state_name":"Wisconsin","lat":44.09644,"lng":-87.73131,"zip":"54220","miles_from_dt":21.89},{"city":"Winnebago","state_name":"Wisconsin","lat":44.07562,"lng":-88.51953,"zip":"54985","miles_from_dt":21.92},{"city":"Kohler","state_name":"Wisconsin","lat":43.73793,"lng":-87.78327,"zip":"53044","miles_from_dt":22.04},{"city":"Waldo","state_name":"Wisconsin","lat":43.65348,"lng":-87.93894,"zip":"53093","miles_from_dt":22.08},{"city":"Oshkosh","state_name":"Wisconsin","lat":44.06265,"lng":-88.53335,"zip":"54901","miles_from_dt":22.21},{"city":"Oshkosh","state_name":"Wisconsin","lat":44.019,"lng":-88.55343,"zip":"54906","miles_from_dt":22.29},{"city":"Oshkosh","state_name":"Wisconsin","lat":43.9977,"lng":-88.56034,"zip":"54903","miles_from_dt":22.34},{"city":"Hingham","state_name":"Wisconsin","lat":43.64036,"lng":-87.91778,"zip":"53031","miles_from_dt":23.35},{"city":"Adell","state_name":"Wisconsin","lat":43.60562,"lng":-88.05217,"zip":"53001","miles_from_dt":23.72},{"city":"Appleton","state_name":"Wisconsin","lat":44.24279,"lng":-88.35928,"zip":"54915","miles_from_dt":23.76},{"city":"Neenah","state_name":"Wisconsin","lat":44.18333,"lng":-88.4634,"zip":"54957","miles_from_dt":23.76},{"city":"Combined Locks","state_name":"Wisconsin","lat":44.26404,"lng":-88.30705,"zip":"54113","miles_from_dt":23.89},{"city":"Whitelaw","state_name":"Wisconsin","lat":44.19686,"lng":-87.78564,"zip":"54247","miles_from_dt":23.96},{"city":"Greenleaf","state_name":"Wisconsin","lat":44.28925,"lng":-88.03218,"zip":"54126","miles_from_dt":24.09},{"city":"Campbellsport","state_name":"Wisconsin","lat":43.61121,"lng":-88.27901,"zip":"53010","miles_from_dt":24.47},{"city":"Kimberly","state_name":"Wisconsin","lat":44.26834,"lng":-88.33852,"zip":"54136","miles_from_dt":24.82},{"city":"Kellnersville","state_name":"Wisconsin","lat":44.22608,"lng":-87.80357,"zip":"54215","miles_from_dt":24.88},{"city":"Sheboygan","state_name":"Wisconsin","lat":43.71343,"lng":-87.73725,"zip":"53081","miles_from_dt":24.89},{"city":"Little Chute","state_name":"Wisconsin","lat":44.28689,"lng":-88.31045,"zip":"54140","miles_from_dt":25.42},{"city":"Oshkosh","state_name":"Wisconsin","lat":44.02346,"lng":-88.62592,"zip":"54904","miles_from_dt":25.88},{"city":"Kaukauna","state_name":"Wisconsin","lat":44.31194,"lng":-88.24301,"zip":"54130","miles_from_dt":26.03},{"city":"Appleton","state_name":"Wisconsin","lat":44.2683,"lng":-88.39632,"zip":"54919","miles_from_dt":26.21},{"city":"Eldorado","state_name":"Wisconsin","lat":43.83143,"lng":-88.61861,"zip":"54932","miles_from_dt":26.21},{"city":"Neenah","state_name":"Wisconsin","lat":44.18444,"lng":-88.52778,"zip":"54956","miles_from_dt":26.22},{"city":"Appleton","state_name":"Wisconsin","lat":44.28174,"lng":-88.38086,"zip":"54911","miles_from_dt":26.62},{"city":"Francis Creek","state_name":"Wisconsin","lat":44.19893,"lng":-87.71441,"zip":"54214","miles_from_dt":26.63},{"city":"Wrightstown","state_name":"Wisconsin","lat":44.33139,"lng":-88.17462,"zip":"54180","miles_from_dt":26.77},{"city":"Oostburg","state_name":"Wisconsin","lat":43.62429,"lng":-87.80872,"zip":"53070","miles_from_dt":27.06},{"city":"Random Lake","state_name":"Wisconsin","lat":43.56318,"lng":-87.99559,"zip":"53075","miles_from_dt":27.12},{"city":"Appleton","state_name":"Wisconsin","lat":44.26662,"lng":-88.43467,"zip":"54912","miles_from_dt":27.18},{"city":"Maribel","state_name":"Wisconsin","lat":44.28096,"lng":-87.80656,"zip":"54227","miles_from_dt":27.84},{"city":"Appleton","state_name":"Wisconsin","lat":44.26353,"lng":-88.48239,"zip":"54914","miles_from_dt":28.45},{"city":"Manitowoc","state_name":"Wisconsin","lat":44.12891,"lng":-87.6059,"zip":"54221","miles_from_dt":28.47},{"city":"Butte Des Morts","state_name":"Wisconsin","lat":44.10192,"lng":-88.6548,"zip":"54927","miles_from_dt":28.83},{"city":"Oakfield","state_name":"Wisconsin","lat":43.68227,"lng":-88.56866,"zip":"53065","miles_from_dt":28.96},{"city":"Rosendale","state_name":"Wisconsin","lat":43.7801,"lng":-88.65997,"zip":"54974","miles_from_dt":29.39},{"city":"Cedar Grove","state_name":"Wisconsin","lat":43.56585,"lng":-87.85172,"zip":"53013","miles_from_dt":29.43},{"city":"Kewaskum","state_name":"Wisconsin","lat":43.52126,"lng":-88.19198,"zip":"53040","miles_from_dt":29.55}],"targetCityZipCode":"53061","targetCityState":"Wisconsin"},"__N_SSG":true}