{"pageProps":{"stateName":"Wisconsin","cityName":"presque-isle","nearbyCities":[{"city":"Manitowish Waters","state_name":"Wisconsin","lat":46.1326,"lng":-89.85208,"zip":"54545","miles_from_dt":7.74},{"city":"Boulder Junction","state_name":"Wisconsin","lat":46.0957,"lng":-89.66748,"zip":"54512","miles_from_dt":9.66},{"city":"Marenisco","state_name":"Michigan","lat":46.42589,"lng":-89.60536,"zip":"49947","miles_from_dt":15.8},{"city":"Mercer","state_name":"Wisconsin","lat":46.18951,"lng":-90.0994,"zip":"54547","miles_from_dt":16.69},{"city":"Star Lake","state_name":"Wisconsin","lat":46.07102,"lng":-89.46451,"zip":"54561","miles_from_dt":17.39},{"city":"Sayner","state_name":"Wisconsin","lat":46.00997,"lng":-89.54365,"zip":"54560","miles_from_dt":17.79},{"city":"Land O'Lakes","state_name":"Wisconsin","lat":46.15505,"lng":-89.38216,"zip":"54540","miles_from_dt":18.45},{"city":"Lac Du Flambeau","state_name":"Wisconsin","lat":45.97244,"lng":-89.91484,"zip":"54538","miles_from_dt":18.87},{"city":"Woodruff","state_name":"Wisconsin","lat":45.94876,"lng":-89.67546,"zip":"54568","miles_from_dt":19.24},{"city":"Wakefield","state_name":"Michigan","lat":46.50199,"lng":-89.88314,"zip":"49968","miles_from_dt":20.31},{"city":"Ramsay","state_name":"Michigan","lat":46.46987,"lng":-89.99803,"zip":"49959","miles_from_dt":20.72},{"city":"Bessemer","state_name":"Michigan","lat":46.49247,"lng":-90.05235,"zip":"49911","miles_from_dt":23.5},{"city":"Saint Germain","state_name":"Wisconsin","lat":45.92417,"lng":-89.49746,"zip":"54558","miles_from_dt":23.98},{"city":"Hurley","state_name":"Wisconsin","lat":46.3545,"lng":-90.23769,"zip":"54534","miles_from_dt":24.89},{"city":"Minocqua","state_name":"Wisconsin","lat":45.86218,"lng":-89.82663,"zip":"54548","miles_from_dt":25.08},{"city":"Watersmeet","state_name":"Michigan","lat":46.24608,"lng":-89.21431,"zip":"49969","miles_from_dt":25.95},{"city":"Conover","state_name":"Wisconsin","lat":46.05355,"lng":-89.26877,"zip":"54519","miles_from_dt":26.06},{"city":"Montreal","state_name":"Wisconsin","lat":46.35775,"lng":-90.26409,"zip":"54550","miles_from_dt":26.14},{"city":"Gile","state_name":"Wisconsin","lat":46.4335,"lng":-90.22603,"zip":"54525","miles_from_dt":26.89},{"city":"Ironwood","state_name":"Michigan","lat":46.51493,"lng":-90.13264,"zip":"49938","miles_from_dt":27.14},{"city":"Ewen","state_name":"Michigan","lat":46.55088,"lng":-89.37681,"zip":"49925","miles_from_dt":29.03},{"city":"Bergland","state_name":"Michigan","lat":46.61815,"lng":-89.54308,"zip":"49910","miles_from_dt":29.18},{"city":"Iron Belt","state_name":"Wisconsin","lat":46.33603,"lng":-90.34488,"zip":"54536","miles_from_dt":29.35},{"city":"Lake Tomahawk","state_name":"Wisconsin","lat":45.80705,"lng":-89.5762,"zip":"54539","miles_from_dt":29.9}],"targetCityZipCode":"54557","targetCityState":"Wisconsin"},"__N_SSG":true}