{"pageProps":{"stateName":"Wisconsin","cityName":"rubicon","nearbyCities":[{"city":"Neosho","state_name":"Wisconsin","lat":43.28954,"lng":-88.53012,"zip":"53059","miles_from_dt":3.95},{"city":"Hartford","state_name":"Wisconsin","lat":43.31697,"lng":-88.37356,"zip":"53027","miles_from_dt":4.32},{"city":"Woodland","state_name":"Wisconsin","lat":43.38035,"lng":-88.52525,"zip":"53099","miles_from_dt":5.67},{"city":"Iron Ridge","state_name":"Wisconsin","lat":43.39135,"lng":-88.54355,"zip":"53035","miles_from_dt":6.83},{"city":"Ashippun","state_name":"Wisconsin","lat":43.21226,"lng":-88.51957,"zip":"53003","miles_from_dt":7.65},{"city":"Hustisford","state_name":"Wisconsin","lat":43.34014,"lng":-88.60746,"zip":"53034","miles_from_dt":7.69},{"city":"Lebanon","state_name":"Wisconsin","lat":43.25904,"lng":-88.63002,"zip":"53047","miles_from_dt":9.41},{"city":"Slinger","state_name":"Wisconsin","lat":43.32508,"lng":-88.27124,"zip":"53086","miles_from_dt":9.51},{"city":"North Lake","state_name":"Wisconsin","lat":43.1605,"lng":-88.37165,"zip":"53064","miles_from_dt":11.47},{"city":"Ixonia","state_name":"Wisconsin","lat":43.17141,"lng":-88.57693,"zip":"53036","miles_from_dt":11.49},{"city":"Hubertus","state_name":"Wisconsin","lat":43.23716,"lng":-88.25634,"zip":"53033","miles_from_dt":11.52},{"city":"Allenton","state_name":"Wisconsin","lat":43.46896,"lng":-88.35454,"zip":"53002","miles_from_dt":11.93},{"city":"Horicon","state_name":"Wisconsin","lat":43.44708,"lng":-88.6234,"zip":"53032","miles_from_dt":12.37},{"city":"Theresa","state_name":"Wisconsin","lat":43.49667,"lng":-88.43674,"zip":"53091","miles_from_dt":12.67},{"city":"Colgate","state_name":"Wisconsin","lat":43.2044,"lng":-88.2526,"zip":"53017","miles_from_dt":12.88},{"city":"Richfield","state_name":"Wisconsin","lat":43.26966,"lng":-88.20905,"zip":"53076","miles_from_dt":12.98},{"city":"Clyman","state_name":"Wisconsin","lat":43.31104,"lng":-88.71794,"zip":"53016","miles_from_dt":13.04},{"city":"Hartland","state_name":"Wisconsin","lat":43.14381,"lng":-88.34624,"zip":"53029","miles_from_dt":13.05},{"city":"Juneau","state_name":"Wisconsin","lat":43.36931,"lng":-88.71148,"zip":"53039","miles_from_dt":13.27},{"city":"Watertown","state_name":"Wisconsin","lat":43.24955,"lng":-88.71461,"zip":"53098","miles_from_dt":13.62},{"city":"Merton","state_name":"Wisconsin","lat":43.14776,"lng":-88.30709,"zip":"53056","miles_from_dt":13.8},{"city":"Oconomowoc","state_name":"Wisconsin","lat":43.11451,"lng":-88.49068,"zip":"53066","miles_from_dt":13.85},{"city":"Okauchee","state_name":"Wisconsin","lat":43.1131,"lng":-88.43094,"zip":"53069","miles_from_dt":13.93},{"city":"Mayville","state_name":"Wisconsin","lat":43.50992,"lng":-88.54734,"zip":"53050","miles_from_dt":14.24},{"city":"Nashotah","state_name":"Wisconsin","lat":43.11003,"lng":-88.40624,"zip":"53058","miles_from_dt":14.32},{"city":"Jackson","state_name":"Wisconsin","lat":43.31255,"lng":-88.16108,"zip":"53037","miles_from_dt":15.03},{"city":"West Bend","state_name":"Wisconsin","lat":43.38838,"lng":-88.15895,"zip":"53095","miles_from_dt":15.98},{"city":"Sussex","state_name":"Wisconsin","lat":43.14646,"lng":-88.23594,"zip":"53089","miles_from_dt":16.14},{"city":"Lowell","state_name":"Wisconsin","lat":43.33996,"lng":-88.79449,"zip":"53557","miles_from_dt":16.99},{"city":"West Bend","state_name":"Wisconsin","lat":43.45685,"lng":-88.17985,"zip":"53090","miles_from_dt":17.19},{"city":"Watertown","state_name":"Wisconsin","lat":43.1462,"lng":-88.73365,"zip":"53094","miles_from_dt":18.05},{"city":"Lomira","state_name":"Wisconsin","lat":43.57935,"lng":-88.45554,"zip":"53048","miles_from_dt":18.33},{"city":"Germantown","state_name":"Wisconsin","lat":43.23062,"lng":-88.11286,"zip":"53022","miles_from_dt":18.39},{"city":"Delafield","state_name":"Wisconsin","lat":43.04809,"lng":-88.39278,"zip":"53018","miles_from_dt":18.65},{"city":"Lannon","state_name":"Wisconsin","lat":43.15215,"lng":-88.16045,"zip":"53046","miles_from_dt":18.76},{"city":"Burnett","state_name":"Wisconsin","lat":43.51558,"lng":-88.70916,"zip":"53922","miles_from_dt":18.76},{"city":"Pewaukee","state_name":"Wisconsin","lat":43.07989,"lng":-88.26638,"zip":"53072","miles_from_dt":18.86},{"city":"Menomonee Falls","state_name":"Wisconsin","lat":43.178,"lng":-88.11944,"zip":"53052","miles_from_dt":19.55},{"city":"Kewaskum","state_name":"Wisconsin","lat":43.52126,"lng":-88.19198,"zip":"53040","miles_from_dt":19.64},{"city":"Menomonee Falls","state_name":"Wisconsin","lat":43.14905,"lng":-88.12348,"zip":"53051","miles_from_dt":20.41},{"city":"Reeseville","state_name":"Wisconsin","lat":43.2894,"lng":-88.87545,"zip":"53579","miles_from_dt":21.05},{"city":"Sullivan","state_name":"Wisconsin","lat":43.02335,"lng":-88.59894,"zip":"53178","miles_from_dt":21.26},{"city":"Cedarburg","state_name":"Wisconsin","lat":43.31369,"lng":-88.03704,"zip":"53012","miles_from_dt":21.28},{"city":"Brownsville","state_name":"Wisconsin","lat":43.62103,"lng":-88.53534,"zip":"53006","miles_from_dt":21.55},{"city":"Wales","state_name":"Wisconsin","lat":43.00441,"lng":-88.3739,"zip":"53183","miles_from_dt":21.79},{"city":"Waukesha","state_name":"Wisconsin","lat":43.02106,"lng":-88.29265,"zip":"53188","miles_from_dt":21.9},{"city":"Beaver Dam","state_name":"Wisconsin","lat":43.45538,"lng":-88.85813,"zip":"53916","miles_from_dt":22.33},{"city":"Newburg","state_name":"Wisconsin","lat":43.43091,"lng":-88.04571,"zip":"53060","miles_from_dt":22.34},{"city":"Campbellsport","state_name":"Wisconsin","lat":43.61121,"lng":-88.27901,"zip":"53010","miles_from_dt":22.44},{"city":"Johnson Creek","state_name":"Wisconsin","lat":43.08592,"lng":-88.79031,"zip":"53038","miles_from_dt":22.96},{"city":"Mequon","state_name":"Wisconsin","lat":43.24574,"lng":-88.0069,"zip":"53097","miles_from_dt":23.29},{"city":"Brookfield","state_name":"Wisconsin","lat":43.061,"lng":-88.15145,"zip":"53045","miles_from_dt":23.38},{"city":"Milwaukee","state_name":"Wisconsin","lat":43.16357,"lng":-88.03894,"zip":"53224","miles_from_dt":23.61},{"city":"Dousman","state_name":"Wisconsin","lat":42.9725,"lng":-88.48859,"zip":"53118","miles_from_dt":23.61},{"city":"Helenville","state_name":"Wisconsin","lat":43.00472,"lng":-88.66975,"zip":"53137","miles_from_dt":23.85},{"city":"Waukesha","state_name":"Wisconsin","lat":43.02305,"lng":-88.20319,"zip":"53186","miles_from_dt":23.88},{"city":"Butler","state_name":"Wisconsin","lat":43.10825,"lng":-88.07116,"zip":"53007","miles_from_dt":24.2},{"city":"Waukesha","state_name":"Wisconsin","lat":43.00888,"lng":-88.2214,"zip":"53187","miles_from_dt":24.24},{"city":"Saukville","state_name":"Wisconsin","lat":43.40733,"lng":-87.98789,"zip":"53080","miles_from_dt":24.6},{"city":"Genesee Depot","state_name":"Wisconsin","lat":42.95991,"lng":-88.3777,"zip":"53127","miles_from_dt":24.78},{"city":"Brookfield","state_name":"Wisconsin","lat":43.06199,"lng":-88.10964,"zip":"53008","miles_from_dt":24.78},{"city":"Brookfield","state_name":"Wisconsin","lat":43.0625,"lng":-88.0992,"zip":"53005","miles_from_dt":25.14},{"city":"Milwaukee","state_name":"Wisconsin","lat":43.11443,"lng":-88.042,"zip":"53225","miles_from_dt":25.17},{"city":"Milwaukee","state_name":"Wisconsin","lat":43.16304,"lng":-87.98996,"zip":"53223","miles_from_dt":25.87},{"city":"North Prairie","state_name":"Wisconsin","lat":42.94056,"lng":-88.40237,"zip":"53153","miles_from_dt":25.93},{"city":"Oakfield","state_name":"Wisconsin","lat":43.68227,"lng":-88.56866,"zip":"53065","miles_from_dt":26.02},{"city":"Fredonia","state_name":"Wisconsin","lat":43.49425,"lng":-88.00111,"zip":"53021","miles_from_dt":26.21},{"city":"Waupun","state_name":"Wisconsin","lat":43.63492,"lng":-88.73828,"zip":"53963","miles_from_dt":26.23},{"city":"Elm Grove","state_name":"Wisconsin","lat":43.04811,"lng":-88.08674,"zip":"53122","miles_from_dt":26.28},{"city":"Mequon","state_name":"Wisconsin","lat":43.22139,"lng":-87.95351,"zip":"53092","miles_from_dt":26.3},{"city":"Waukesha","state_name":"Wisconsin","lat":42.95216,"lng":-88.28068,"zip":"53189","miles_from_dt":26.55},{"city":"Grafton","state_name":"Wisconsin","lat":43.33233,"lng":-87.93299,"zip":"53024","miles_from_dt":26.55},{"city":"Milwaukee","state_name":"Wisconsin","lat":43.08412,"lng":-88.03594,"zip":"53263","miles_from_dt":26.62},{"city":"Milwaukee","state_name":"Wisconsin","lat":43.08205,"lng":-88.03496,"zip":"53222","miles_from_dt":26.74},{"city":"Milwaukee","state_name":"Wisconsin","lat":43.11469,"lng":-87.99301,"zip":"53218","miles_from_dt":27.26},{"city":"Waterloo","state_name":"Wisconsin","lat":43.18291,"lng":-88.97168,"zip":"53594","miles_from_dt":27.39},{"city":"Jefferson","state_name":"Wisconsin","lat":42.99056,"lng":-88.77675,"zip":"53549","miles_from_dt":27.49},{"city":"Eden","state_name":"Wisconsin","lat":43.69667,"lng":-88.30752,"zip":"53019","miles_from_dt":27.51},{"city":"Fox Lake","state_name":"Wisconsin","lat":43.57235,"lng":-88.88338,"zip":"53933","miles_from_dt":27.81},{"city":"Milwaukee","state_name":"Wisconsin","lat":43.04975,"lng":-88.04209,"zip":"53226","miles_from_dt":27.87},{"city":"New Berlin","state_name":"Wisconsin","lat":42.9718,"lng":-88.15885,"zip":"53146","miles_from_dt":28.07},{"city":"Lake Mills","state_name":"Wisconsin","lat":43.07831,"lng":-88.91508,"zip":"53551","miles_from_dt":28.19},{"city":"Adell","state_name":"Wisconsin","lat":43.60562,"lng":-88.05217,"zip":"53001","miles_from_dt":28.72},{"city":"Milwaukee","state_name":"Wisconsin","lat":43.12871,"lng":-87.94717,"zip":"53209","miles_from_dt":28.84},{"city":"Random Lake","state_name":"Wisconsin","lat":43.56318,"lng":-87.99559,"zip":"53075","miles_from_dt":28.99},{"city":"Milwaukee","state_name":"Wisconsin","lat":43.08634,"lng":-87.97636,"zip":"53216","miles_from_dt":29.01},{"city":"Milwaukee","state_name":"Wisconsin","lat":43.15767,"lng":-87.91633,"zip":"53217","miles_from_dt":29.45},{"city":"Milwaukee","state_name":"Wisconsin","lat":43.04889,"lng":-88.00176,"zip":"53213","miles_from_dt":29.47},{"city":"New Berlin","state_name":"Wisconsin","lat":42.97467,"lng":-88.09845,"zip":"53151","miles_from_dt":29.68},{"city":"Eagle","state_name":"Wisconsin","lat":42.88356,"lng":-88.4862,"zip":"53119","miles_from_dt":29.74},{"city":"Milwaukee","state_name":"Wisconsin","lat":43.06889,"lng":-87.97381,"zip":"53210","miles_from_dt":29.79},{"city":"Columbus","state_name":"Wisconsin","lat":43.3325,"lng":-89.05075,"zip":"53925","miles_from_dt":29.84},{"city":"Palmyra","state_name":"Wisconsin","lat":42.89069,"lng":-88.59012,"zip":"53156","miles_from_dt":29.95}],"targetCityZipCode":"53078","targetCityState":"Wisconsin"},"__N_SSG":true}