{"pageProps":{"stateName":"Wisconsin","cityName":"siren","nearbyCities":[{"city":"Frederic","state_name":"Wisconsin","lat":45.6746,"lng":-92.35754,"zip":"54837","miles_from_dt":6.83},{"city":"Webster","state_name":"Wisconsin","lat":45.87094,"lng":-92.30837,"zip":"54893","miles_from_dt":8.18},{"city":"Hertel","state_name":"Wisconsin","lat":45.80724,"lng":-92.13786,"zip":"54845","miles_from_dt":12.75},{"city":"Luck","state_name":"Wisconsin","lat":45.57106,"lng":-92.45211,"zip":"54853","miles_from_dt":13.98},{"city":"Grantsburg","state_name":"Wisconsin","lat":45.7556,"lng":-92.68928,"zip":"54840","miles_from_dt":14.2},{"city":"Cushing","state_name":"Wisconsin","lat":45.58958,"lng":-92.64824,"zip":"54006","miles_from_dt":17.42},{"city":"Milltown","state_name":"Wisconsin","lat":45.51824,"lng":-92.46031,"zip":"54858","miles_from_dt":17.64},{"city":"Shell Lake","state_name":"Wisconsin","lat":45.7412,"lng":-92.01503,"zip":"54871","miles_from_dt":18.53},{"city":"Barronett","state_name":"Wisconsin","lat":45.65477,"lng":-92.03071,"zip":"54813","miles_from_dt":19.38},{"city":"Balsam Lake","state_name":"Wisconsin","lat":45.46126,"lng":-92.38403,"zip":"54810","miles_from_dt":21.31},{"city":"Centuria","state_name":"Wisconsin","lat":45.4753,"lng":-92.54017,"zip":"54824","miles_from_dt":21.49},{"city":"Cumberland","state_name":"Wisconsin","lat":45.5592,"lng":-92.06603,"zip":"54829","miles_from_dt":21.61},{"city":"Comstock","state_name":"Wisconsin","lat":45.49971,"lng":-92.16422,"zip":"54826","miles_from_dt":21.77},{"city":"Saint Croix Falls","state_name":"Wisconsin","lat":45.49873,"lng":-92.64781,"zip":"54024","miles_from_dt":22.33},{"city":"Spooner","state_name":"Wisconsin","lat":45.86711,"lng":-91.92266,"zip":"54801","miles_from_dt":23.84},{"city":"Danbury","state_name":"Wisconsin","lat":46.10571,"lng":-92.22305,"zip":"54830","miles_from_dt":24.66},{"city":"Pine City","state_name":"Minnesota","lat":45.83263,"lng":-92.90584,"zip":"55063","miles_from_dt":25},{"city":"Hinckley","state_name":"Minnesota","lat":46.01071,"lng":-92.78934,"zip":"55037","miles_from_dt":25.23},{"city":"Rock Creek","state_name":"Minnesota","lat":45.7623,"lng":-92.9262,"zip":"55067","miles_from_dt":25.62},{"city":"Taylors Falls","state_name":"Minnesota","lat":45.46029,"lng":-92.70747,"zip":"55084","miles_from_dt":26.15},{"city":"Turtle Lake","state_name":"Wisconsin","lat":45.41374,"lng":-92.17112,"zip":"54889","miles_from_dt":26.89},{"city":"Sandstone","state_name":"Minnesota","lat":46.15118,"lng":-92.59274,"zip":"55072","miles_from_dt":28},{"city":"Rush City","state_name":"Minnesota","lat":45.6928,"lng":-92.96768,"zip":"55069","miles_from_dt":28.14},{"city":"Trego","state_name":"Wisconsin","lat":45.98046,"lng":-91.88803,"zip":"54888","miles_from_dt":28.51},{"city":"Center City","state_name":"Minnesota","lat":45.44166,"lng":-92.78952,"zip":"55012","miles_from_dt":29.61}],"targetCityZipCode":"54872","targetCityState":"Wisconsin"},"__N_SSG":true}