{"pageProps":{"stateName":"Wisconsin","cityName":"whitewater","nearbyCities":[{"city":"Palmyra","state_name":"Wisconsin","lat":42.89069,"lng":-88.59012,"zip":"53156","miles_from_dt":9.18},{"city":"Milton","state_name":"Wisconsin","lat":42.78276,"lng":-88.93127,"zip":"53563","miles_from_dt":10.31},{"city":"Fort Atkinson","state_name":"Wisconsin","lat":42.91697,"lng":-88.87194,"zip":"53538","miles_from_dt":10.39},{"city":"Delavan","state_name":"Wisconsin","lat":42.65443,"lng":-88.6713,"zip":"53115","miles_from_dt":11.01},{"city":"Avalon","state_name":"Wisconsin","lat":42.66063,"lng":-88.8176,"zip":"53505","miles_from_dt":11.06},{"city":"Elkhorn","state_name":"Wisconsin","lat":42.70989,"lng":-88.53028,"zip":"53121","miles_from_dt":12.25},{"city":"Jefferson","state_name":"Wisconsin","lat":42.99056,"lng":-88.77675,"zip":"53549","miles_from_dt":12.83},{"city":"Eagle","state_name":"Wisconsin","lat":42.88356,"lng":-88.4862,"zip":"53119","miles_from_dt":13.5},{"city":"Darien","state_name":"Wisconsin","lat":42.60721,"lng":-88.75089,"zip":"53114","miles_from_dt":13.88},{"city":"Helenville","state_name":"Wisconsin","lat":43.00472,"lng":-88.66975,"zip":"53137","miles_from_dt":13.95},{"city":"Janesville","state_name":"Wisconsin","lat":42.65126,"lng":-88.94854,"zip":"53546","miles_from_dt":15.46},{"city":"Janesville","state_name":"Wisconsin","lat":42.70503,"lng":-89.00642,"zip":"53547","miles_from_dt":15.69},{"city":"East Troy","state_name":"Wisconsin","lat":42.80066,"lng":-88.41783,"zip":"53120","miles_from_dt":15.94},{"city":"Sullivan","state_name":"Wisconsin","lat":43.02335,"lng":-88.59894,"zip":"53178","miles_from_dt":16.33},{"city":"Janesville","state_name":"Wisconsin","lat":42.73113,"lng":-89.03613,"zip":"53545","miles_from_dt":16.38},{"city":"Dousman","state_name":"Wisconsin","lat":42.9725,"lng":-88.48859,"zip":"53118","miles_from_dt":16.77},{"city":"Edgerton","state_name":"Wisconsin","lat":42.84763,"lng":-89.09032,"zip":"53534","miles_from_dt":18.45},{"city":"Williams Bay","state_name":"Wisconsin","lat":42.5776,"lng":-88.54574,"zip":"53191","miles_from_dt":18.48},{"city":"North Prairie","state_name":"Wisconsin","lat":42.94056,"lng":-88.40237,"zip":"53153","miles_from_dt":19.05},{"city":"Clinton","state_name":"Wisconsin","lat":42.54579,"lng":-88.84907,"zip":"53525","miles_from_dt":19.05},{"city":"Sharon","state_name":"Wisconsin","lat":42.53049,"lng":-88.72056,"zip":"53585","miles_from_dt":19.15},{"city":"Johnson Creek","state_name":"Wisconsin","lat":43.08592,"lng":-88.79031,"zip":"53038","miles_from_dt":19.43},{"city":"Cambridge","state_name":"Wisconsin","lat":42.98338,"lng":-89.03172,"zip":"53523","miles_from_dt":19.48},{"city":"Springfield","state_name":"Wisconsin","lat":42.64307,"lng":-88.41444,"zip":"53176","miles_from_dt":19.73},{"city":"Fontana","state_name":"Wisconsin","lat":42.54532,"lng":-88.56216,"zip":"53125","miles_from_dt":20.06},{"city":"Walworth","state_name":"Wisconsin","lat":42.53075,"lng":-88.60945,"zip":"53184","miles_from_dt":20.1},{"city":"Mukwonago","state_name":"Wisconsin","lat":42.87436,"lng":-88.34077,"zip":"53149","miles_from_dt":20.36},{"city":"Genesee Depot","state_name":"Wisconsin","lat":42.95991,"lng":-88.3777,"zip":"53127","miles_from_dt":20.8},{"city":"Lake Mills","state_name":"Wisconsin","lat":43.07831,"lng":-88.91508,"zip":"53551","miles_from_dt":20.87},{"city":"Lake Geneva","state_name":"Wisconsin","lat":42.57075,"lng":-88.45024,"zip":"53147","miles_from_dt":21.74},{"city":"Janesville","state_name":"Wisconsin","lat":42.68907,"lng":-89.13095,"zip":"53548","miles_from_dt":21.92},{"city":"Lyons","state_name":"Wisconsin","lat":42.64919,"lng":-88.35589,"zip":"53148","miles_from_dt":22.02},{"city":"Honey Creek","state_name":"Wisconsin","lat":42.74557,"lng":-88.30545,"zip":"53138","miles_from_dt":22.08},{"city":"Afton","state_name":"Wisconsin","lat":42.60484,"lng":-89.07165,"zip":"53501","miles_from_dt":22.28},{"city":"Wales","state_name":"Wisconsin","lat":43.00441,"lng":-88.3739,"zip":"53183","miles_from_dt":22.65},{"city":"Watertown","state_name":"Wisconsin","lat":43.1462,"lng":-88.73365,"zip":"53094","miles_from_dt":23.36},{"city":"Zenda","state_name":"Wisconsin","lat":42.51397,"lng":-88.49016,"zip":"53195","miles_from_dt":23.71},{"city":"Delafield","state_name":"Wisconsin","lat":43.04809,"lng":-88.39278,"zip":"53018","miles_from_dt":23.88},{"city":"Oconomowoc","state_name":"Wisconsin","lat":43.11451,"lng":-88.49068,"zip":"53066","miles_from_dt":24.44},{"city":"Waukesha","state_name":"Wisconsin","lat":42.95216,"lng":-88.28068,"zip":"53189","miles_from_dt":24.95},{"city":"Burlington","state_name":"Wisconsin","lat":42.66412,"lng":-88.28045,"zip":"53105","miles_from_dt":24.99},{"city":"Hanover","state_name":"Wisconsin","lat":42.63262,"lng":-89.16567,"zip":"53542","miles_from_dt":25.2},{"city":"Deerfield","state_name":"Wisconsin","lat":43.05696,"lng":-89.10114,"zip":"53531","miles_from_dt":25.45},{"city":"Stoughton","state_name":"Wisconsin","lat":42.92684,"lng":-89.21182,"zip":"53589","miles_from_dt":25.75},{"city":"Beloit","state_name":"Wisconsin","lat":42.50764,"lng":-89.0322,"zip":"53512","miles_from_dt":25.77},{"city":"Beloit","state_name":"Wisconsin","lat":42.54627,"lng":-89.09792,"zip":"53511","miles_from_dt":25.97},{"city":"Okauchee","state_name":"Wisconsin","lat":43.1131,"lng":-88.43094,"zip":"53069","miles_from_dt":26},{"city":"Footville","state_name":"Wisconsin","lat":42.67267,"lng":-89.21056,"zip":"53537","miles_from_dt":26.11},{"city":"South Beloit","state_name":"Illinois","lat":42.47992,"lng":-88.98989,"zip":"61080","miles_from_dt":26.19},{"city":"Rochester","state_name":"Wisconsin","lat":42.73526,"lng":-88.22552,"zip":"53167","miles_from_dt":26.2},{"city":"Pell Lake","state_name":"Wisconsin","lat":42.5377,"lng":-88.36855,"zip":"53157","miles_from_dt":26.25},{"city":"Ixonia","state_name":"Wisconsin","lat":43.17141,"lng":-88.57693,"zip":"53036","miles_from_dt":26.29},{"city":"Nashotah","state_name":"Wisconsin","lat":43.11003,"lng":-88.40624,"zip":"53058","miles_from_dt":26.59},{"city":"Waukesha","state_name":"Wisconsin","lat":43.02106,"lng":-88.29265,"zip":"53188","miles_from_dt":26.69},{"city":"Big Bend","state_name":"Wisconsin","lat":42.88175,"lng":-88.21542,"zip":"53103","miles_from_dt":26.7},{"city":"Harvard","state_name":"Illinois","lat":42.42333,"lng":-88.61104,"zip":"60033","miles_from_dt":27.23},{"city":"Waterford","state_name":"Wisconsin","lat":42.79519,"lng":-88.19313,"zip":"53185","miles_from_dt":27.37},{"city":"Evansville","state_name":"Wisconsin","lat":42.76366,"lng":-89.26983,"zip":"53536","miles_from_dt":27.55},{"city":"Capron","state_name":"Illinois","lat":42.40749,"lng":-88.75446,"zip":"61012","miles_from_dt":27.65},{"city":"Genoa City","state_name":"Wisconsin","lat":42.52979,"lng":-88.33857,"zip":"53128","miles_from_dt":27.72},{"city":"Poplar Grove","state_name":"Illinois","lat":42.40786,"lng":-88.82747,"zip":"61065","miles_from_dt":28.03},{"city":"Powers Lake","state_name":"Wisconsin","lat":42.55316,"lng":-88.29399,"zip":"53159","miles_from_dt":28.37},{"city":"Waterloo","state_name":"Wisconsin","lat":43.18291,"lng":-88.97168,"zip":"53594","miles_from_dt":28.62},{"city":"Hebron","state_name":"Illinois","lat":42.45869,"lng":-88.42665,"zip":"60034","miles_from_dt":28.66},{"city":"Orfordville","state_name":"Wisconsin","lat":42.62543,"lng":-89.23949,"zip":"53576","miles_from_dt":28.77},{"city":"Cottage Grove","state_name":"Wisconsin","lat":43.06346,"lng":-89.19141,"zip":"53527","miles_from_dt":29.26},{"city":"Waukesha","state_name":"Wisconsin","lat":43.00888,"lng":-88.2214,"zip":"53187","miles_from_dt":29.36},{"city":"Roscoe","state_name":"Illinois","lat":42.42434,"lng":-88.99346,"zip":"61073","miles_from_dt":29.65},{"city":"Ashippun","state_name":"Wisconsin","lat":43.21226,"lng":-88.51957,"zip":"53003","miles_from_dt":29.91}],"targetCityZipCode":"53190","targetCityState":"Wisconsin"},"__N_SSG":true}