{"pageProps":{"stateName":"Delaware","cityName":"magnolia","nearbyCities":[{"city":"Frederica","state_name":"Delaware","lat":39.03224,"lng":-75.45297,"zip":"19946","miles_from_dt":3.54},{"city":"Woodside","state_name":"Delaware","lat":39.07349,"lng":-75.57008,"zip":"19980","miles_from_dt":3.91},{"city":"Dover Afb","state_name":"Delaware","lat":39.12765,"lng":-75.46694,"zip":"19902","miles_from_dt":4.3},{"city":"Viola","state_name":"Delaware","lat":39.05041,"lng":-75.57642,"zip":"19979","miles_from_dt":4.45},{"city":"Dover","state_name":"Delaware","lat":39.15,"lng":-75.54219,"zip":"19906","miles_from_dt":6.01},{"city":"Dover","state_name":"Delaware","lat":39.15899,"lng":-75.52043,"zip":"19905","miles_from_dt":6.26},{"city":"Little Creek","state_name":"Delaware","lat":39.16489,"lng":-75.45205,"zip":"19961","miles_from_dt":6.98},{"city":"Dover","state_name":"Delaware","lat":39.17335,"lng":-75.47758,"zip":"19901","miles_from_dt":7.21},{"city":"Camden Wyoming","state_name":"Delaware","lat":39.08135,"lng":-75.63113,"zip":"19934","miles_from_dt":7.23},{"city":"Felton","state_name":"Delaware","lat":39.00562,"lng":-75.60756,"zip":"19943","miles_from_dt":7.4},{"city":"Dover","state_name":"Delaware","lat":39.17289,"lng":-75.59517,"zip":"19904","miles_from_dt":8.82},{"city":"Dover","state_name":"Delaware","lat":39.20946,"lng":-75.57012,"zip":"19903","miles_from_dt":10.38},{"city":"Cheswold","state_name":"Delaware","lat":39.21846,"lng":-75.58498,"zip":"19936","miles_from_dt":11.26},{"city":"Milford","state_name":"Delaware","lat":38.93347,"lng":-75.37799,"zip":"19963","miles_from_dt":11.41},{"city":"Houston","state_name":"Delaware","lat":38.89891,"lng":-75.52092,"zip":"19954","miles_from_dt":11.87},{"city":"Hartly","state_name":"Delaware","lat":39.15145,"lng":-75.69695,"zip":"19953","miles_from_dt":12.1},{"city":"Marydel","state_name":"Delaware","lat":39.09436,"lng":-75.72439,"zip":"19964","miles_from_dt":12.31},{"city":"Harrington","state_name":"Delaware","lat":38.91654,"lng":-75.62531,"zip":"19952","miles_from_dt":12.63},{"city":"Kenton","state_name":"Delaware","lat":39.22652,"lng":-75.6654,"zip":"19955","miles_from_dt":14.06},{"city":"Templeville","state_name":"Maryland","lat":39.13545,"lng":-75.76789,"zip":"21670","miles_from_dt":15.22},{"city":"Marydel","state_name":"Maryland","lat":39.1366,"lng":-75.77453,"zip":"21649","miles_from_dt":15.58},{"city":"Lincoln","state_name":"Delaware","lat":38.85082,"lng":-75.41363,"zip":"19960","miles_from_dt":15.78},{"city":"Smyrna","state_name":"Delaware","lat":39.29653,"lng":-75.55132,"zip":"19977","miles_from_dt":15.89},{"city":"Goldsboro","state_name":"Maryland","lat":39.0261,"lng":-75.79839,"zip":"21636","miles_from_dt":16.46},{"city":"Clayton","state_name":"Delaware","lat":39.25646,"lng":-75.69884,"zip":"19938","miles_from_dt":16.8},{"city":"Greensboro","state_name":"Maryland","lat":38.96533,"lng":-75.7928,"zip":"21639","miles_from_dt":17.45},{"city":"Henderson","state_name":"Maryland","lat":39.07036,"lng":-75.82533,"zip":"21640","miles_from_dt":17.63},{"city":"Greenwood","state_name":"Delaware","lat":38.82007,"lng":-75.59691,"zip":"19950","miles_from_dt":18.06},{"city":"Ellendale","state_name":"Delaware","lat":38.7949,"lng":-75.42476,"zip":"19941","miles_from_dt":19.38},{"city":"Barclay","state_name":"Maryland","lat":39.13398,"lng":-75.85644,"zip":"21607","miles_from_dt":19.79},{"city":"Ingleside","state_name":"Maryland","lat":39.11728,"lng":-75.87441,"zip":"21644","miles_from_dt":20.52},{"city":"Sudlersville","state_name":"Maryland","lat":39.18967,"lng":-75.85139,"zip":"21668","miles_from_dt":20.73},{"city":"Fortescue","state_name":"New Jersey","lat":39.21961,"lng":-75.14107,"zip":"08321","miles_from_dt":21.75},{"city":"Ridgely","state_name":"Maryland","lat":38.95534,"lng":-75.88839,"zip":"21660","miles_from_dt":22.47},{"city":"Denton","state_name":"Maryland","lat":38.86111,"lng":-75.82753,"zip":"21629","miles_from_dt":22.88},{"city":"Townsend","state_name":"Delaware","lat":39.38377,"lng":-75.65026,"zip":"19734","miles_from_dt":23.14},{"city":"Millington","state_name":"Maryland","lat":39.25821,"lng":-75.85802,"zip":"21651","miles_from_dt":23.31},{"city":"Milton","state_name":"Delaware","lat":38.77553,"lng":-75.28466,"zip":"19968","miles_from_dt":23.33},{"city":"Greenwich","state_name":"New Jersey","lat":39.39557,"lng":-75.36605,"zip":"08323","miles_from_dt":23.54},{"city":"Cedarville","state_name":"New Jersey","lat":39.32685,"lng":-75.20804,"zip":"08311","miles_from_dt":23.56},{"city":"Massey","state_name":"Maryland","lat":39.31286,"lng":-75.80795,"zip":"21650","miles_from_dt":23.63},{"city":"Bridgeville","state_name":"Delaware","lat":38.73699,"lng":-75.60586,"zip":"19933","miles_from_dt":23.71},{"city":"Newport","state_name":"New Jersey","lat":39.28816,"lng":-75.14668,"zip":"08345","miles_from_dt":24.11},{"city":"Price","state_name":"Maryland","lat":39.0975,"lng":-75.95917,"zip":"21656","miles_from_dt":24.89},{"city":"Dividing Creek","state_name":"New Jersey","lat":39.26969,"lng":-75.10486,"zip":"08315","miles_from_dt":25.18},{"city":"Church Hill","state_name":"Maryland","lat":39.11915,"lng":-75.96268,"zip":"21623","miles_from_dt":25.23},{"city":"Crumpton","state_name":"Maryland","lat":39.23577,"lng":-75.92238,"zip":"21628","miles_from_dt":25.52},{"city":"Galena","state_name":"Maryland","lat":39.34006,"lng":-75.83826,"zip":"21635","miles_from_dt":26.1},{"city":"Hillsboro","state_name":"Maryland","lat":38.91696,"lng":-75.94161,"zip":"21641","miles_from_dt":26.13},{"city":"Port Norris","state_name":"New Jersey","lat":39.266,"lng":-75.06337,"zip":"08349","miles_from_dt":26.95},{"city":"Nassau","state_name":"Delaware","lat":38.75443,"lng":-75.18785,"zip":"19969","miles_from_dt":27.43},{"city":"Queen Anne","state_name":"Maryland","lat":38.9534,"lng":-75.99042,"zip":"21657","miles_from_dt":27.72},{"city":"Georgetown","state_name":"Delaware","lat":38.67421,"lng":-75.39864,"zip":"19947","miles_from_dt":27.82},{"city":"Hancocks Bridge","state_name":"New Jersey","lat":39.47391,"lng":-75.48852,"zip":"08038","miles_from_dt":27.86},{"city":"Odessa","state_name":"Delaware","lat":39.45443,"lng":-75.66077,"zip":"19730","miles_from_dt":27.92},{"city":"Federalsburg","state_name":"Maryland","lat":38.72287,"lng":-75.77478,"zip":"21632","miles_from_dt":28.23},{"city":"Fairton","state_name":"New Jersey","lat":39.3851,"lng":-75.16059,"zip":"08320","miles_from_dt":28.27},{"city":"Bridgeton","state_name":"New Jersey","lat":39.4397,"lng":-75.2616,"zip":"08302","miles_from_dt":28.47},{"city":"Heislerville","state_name":"New Jersey","lat":39.21859,"lng":-74.99999,"zip":"08324","miles_from_dt":28.62},{"city":"Shiloh","state_name":"New Jersey","lat":39.45954,"lng":-75.29695,"zip":"08353","miles_from_dt":28.94},{"city":"Centreville","state_name":"Maryland","lat":39.04985,"lng":-76.03819,"zip":"21617","miles_from_dt":29.11},{"city":"Harbeson","state_name":"Delaware","lat":38.68763,"lng":-75.25124,"zip":"19951","miles_from_dt":29.53},{"city":"Lewes","state_name":"Delaware","lat":38.72737,"lng":-75.16632,"zip":"19958","miles_from_dt":29.62},{"city":"Georgetown","state_name":"Maryland","lat":39.37198,"lng":-75.89115,"zip":"21930","miles_from_dt":29.66},{"city":"Warwick","state_name":"Maryland","lat":39.42486,"lng":-75.81607,"zip":"21912","miles_from_dt":29.85}],"targetCityZipCode":"19962","targetCityState":"Delaware"},"__N_SSG":true}