{"pageProps":{"stateName":"Tennessee","cityName":"alcoa","nearbyCities":[{"city":"Maryville","state_name":"Tennessee","lat":35.75681,"lng":-83.97034,"zip":"37802","miles_from_dt":2.68},{"city":"Louisville","state_name":"Tennessee","lat":35.82742,"lng":-84.05186,"zip":"37777","miles_from_dt":4.43},{"city":"Maryville","state_name":"Tennessee","lat":35.79228,"lng":-83.89311,"zip":"37804","miles_from_dt":5.14},{"city":"Rockford","state_name":"Tennessee","lat":35.83723,"lng":-83.90854,"zip":"37853","miles_from_dt":5.21},{"city":"Friendsville","state_name":"Tennessee","lat":35.75778,"lng":-84.11913,"zip":"37737","miles_from_dt":7.96},{"city":"Knoxville","state_name":"Tennessee","lat":35.86124,"lng":-84.10127,"zip":"37922","miles_from_dt":8.03},{"city":"Knoxville","state_name":"Tennessee","lat":35.91429,"lng":-84.00106,"zip":"37919","miles_from_dt":8.35},{"city":"Maryville","state_name":"Tennessee","lat":35.67115,"lng":-83.97761,"zip":"37803","miles_from_dt":8.47},{"city":"Knoxville","state_name":"Tennessee","lat":35.91586,"lng":-84.00428,"zip":"37939","miles_from_dt":8.48},{"city":"Knoxville","state_name":"Tennessee","lat":35.86607,"lng":-84.1241,"zip":"37933","miles_from_dt":9.28},{"city":"Maryville","state_name":"Tennessee","lat":35.67134,"lng":-84.08453,"zip":"37801","miles_from_dt":10.15},{"city":"Knoxville","state_name":"Tennessee","lat":35.89962,"lng":-83.85519,"zip":"37940","miles_from_dt":10.29},{"city":"Walland","state_name":"Tennessee","lat":35.74142,"lng":-83.80747,"zip":"37886","miles_from_dt":10.59},{"city":"Knoxville","state_name":"Tennessee","lat":35.94469,"lng":-84.02266,"zip":"37950","miles_from_dt":10.61},{"city":"Knoxville","state_name":"Tennessee","lat":35.92697,"lng":-84.08076,"zip":"37923","miles_from_dt":10.64},{"city":"Knoxville","state_name":"Tennessee","lat":35.91084,"lng":-83.85909,"zip":"37920","miles_from_dt":10.71},{"city":"Knoxville","state_name":"Tennessee","lat":35.93017,"lng":-84.07751,"zip":"37930","miles_from_dt":10.74},{"city":"Knoxville","state_name":"Tennessee","lat":35.94716,"lng":-84.02275,"zip":"37909","miles_from_dt":10.78},{"city":"Knoxville","state_name":"Tennessee","lat":35.95309,"lng":-83.9335,"zip":"37916","miles_from_dt":11.34},{"city":"Knoxville","state_name":"Tennessee","lat":35.95603,"lng":-83.93704,"zip":"37996","miles_from_dt":11.49},{"city":"Knoxville","state_name":"Tennessee","lat":35.96203,"lng":-83.92039,"zip":"37902","miles_from_dt":12.14},{"city":"Farragut","state_name":"Tennessee","lat":35.87338,"lng":-84.17882,"zip":"37934","miles_from_dt":12.2},{"city":"Knoxville","state_name":"Tennessee","lat":35.96241,"lng":-83.91597,"zip":"37929","miles_from_dt":12.24},{"city":"Knoxville","state_name":"Tennessee","lat":35.96347,"lng":-83.91558,"zip":"37995","miles_from_dt":12.31},{"city":"Knoxville","state_name":"Tennessee","lat":35.96541,"lng":-83.90951,"zip":"37997","miles_from_dt":12.55},{"city":"Knoxville","state_name":"Tennessee","lat":35.97877,"lng":-84.00028,"zip":"37921","miles_from_dt":12.77},{"city":"Knoxville","state_name":"Tennessee","lat":35.97057,"lng":-83.90002,"zip":"37915","miles_from_dt":13.07},{"city":"Lenoir City","state_name":"Tennessee","lat":35.78775,"lng":-84.21876,"zip":"37772","miles_from_dt":13.16},{"city":"Greenback","state_name":"Tennessee","lat":35.67548,"lng":-84.18049,"zip":"37742","miles_from_dt":13.71},{"city":"Tallassee","state_name":"Tennessee","lat":35.59406,"lng":-83.98358,"zip":"37878","miles_from_dt":13.78},{"city":"Seymour","state_name":"Tennessee","lat":35.84609,"lng":-83.73974,"zip":"37865","miles_from_dt":14.21},{"city":"Knoxville","state_name":"Tennessee","lat":35.99924,"lng":-83.91077,"zip":"37927","miles_from_dt":14.75},{"city":"Knoxville","state_name":"Tennessee","lat":36.00849,"lng":-83.98465,"zip":"37912","miles_from_dt":14.79},{"city":"Knoxville","state_name":"Tennessee","lat":35.92273,"lng":-84.19562,"zip":"37932","miles_from_dt":14.8},{"city":"Knoxville","state_name":"Tennessee","lat":35.97611,"lng":-84.12496,"zip":"37931","miles_from_dt":14.82},{"city":"Knoxville","state_name":"Tennessee","lat":36.00156,"lng":-83.91265,"zip":"37917","miles_from_dt":14.87},{"city":"Townsend","state_name":"Tennessee","lat":35.60335,"lng":-83.82118,"zip":"37882","miles_from_dt":16.03},{"city":"Knoxville","state_name":"Tennessee","lat":35.93758,"lng":-83.75048,"zip":"37998","miles_from_dt":16.45},{"city":"Knoxville","state_name":"Tennessee","lat":35.97988,"lng":-83.79937,"zip":"37914","miles_from_dt":16.5},{"city":"Knoxville","state_name":"Tennessee","lat":36.02928,"lng":-83.88633,"zip":"37901","miles_from_dt":17.14},{"city":"Powell","state_name":"Tennessee","lat":36.0578,"lng":-84.04476,"zip":"37849","miles_from_dt":18.5},{"city":"Knoxville","state_name":"Tennessee","lat":36.06009,"lng":-83.91134,"zip":"37928","miles_from_dt":18.8},{"city":"Knoxville","state_name":"Tennessee","lat":36.0599,"lng":-83.91082,"zip":"37918","miles_from_dt":18.8},{"city":"Lenoir City","state_name":"Tennessee","lat":35.8382,"lng":-84.31748,"zip":"37771","miles_from_dt":18.94},{"city":"Knoxville","state_name":"Tennessee","lat":36.03554,"lng":-83.80211,"zip":"37924","miles_from_dt":19.55},{"city":"Oak Ridge","state_name":"Tennessee","lat":35.96431,"lng":-84.29221,"zip":"37830","miles_from_dt":20.88},{"city":"Sevierville","state_name":"Tennessee","lat":35.78314,"lng":-83.61232,"zip":"37862","miles_from_dt":20.93},{"city":"Oak Ridge","state_name":"Tennessee","lat":35.96328,"lng":-84.2981,"zip":"37831","miles_from_dt":21.11},{"city":"Loudon","state_name":"Tennessee","lat":35.7317,"lng":-84.35526,"zip":"37774","miles_from_dt":21.27},{"city":"Vonore","state_name":"Tennessee","lat":35.50392,"lng":-84.12539,"zip":"37885","miles_from_dt":21.51},{"city":"Clinton","state_name":"Tennessee","lat":36.09103,"lng":-84.13209,"zip":"37717","miles_from_dt":22.09},{"city":"Knoxville","state_name":"Tennessee","lat":36.12499,"lng":-83.93815,"zip":"37938","miles_from_dt":22.97},{"city":"Sevierville","state_name":"Tennessee","lat":35.85686,"lng":-83.57732,"zip":"37864","miles_from_dt":23.28},{"city":"Heiskell","state_name":"Tennessee","lat":36.13059,"lng":-84.03305,"zip":"37754","miles_from_dt":23.37},{"city":"Clinton","state_name":"Tennessee","lat":36.09919,"lng":-84.16822,"zip":"37716","miles_from_dt":23.43},{"city":"Pigeon Forge","state_name":"Tennessee","lat":35.7864,"lng":-83.56367,"zip":"37863","miles_from_dt":23.65},{"city":"Kodak","state_name":"Tennessee","lat":35.97074,"lng":-83.61585,"zip":"37764","miles_from_dt":24.01},{"city":"Strawberry Plains","state_name":"Tennessee","lat":36.04693,"lng":-83.67932,"zip":"37871","miles_from_dt":24.44},{"city":"Mascot","state_name":"Tennessee","lat":36.08645,"lng":-83.72368,"zip":"37806","miles_from_dt":24.92},{"city":"Pigeon Forge","state_name":"Tennessee","lat":35.77561,"lng":-83.53784,"zip":"37868","miles_from_dt":25.13},{"city":"Corryton","state_name":"Tennessee","lat":36.13155,"lng":-83.80829,"zip":"37721","miles_from_dt":25.29},{"city":"Fontana Dam","state_name":"North Carolina","lat":35.43536,"lng":-83.78403,"zip":"28733","miles_from_dt":27.18},{"city":"Norris","state_name":"Tennessee","lat":36.19788,"lng":-84.06889,"zip":"37828","miles_from_dt":28.25},{"city":"Oliver Springs","state_name":"Tennessee","lat":36.05849,"lng":-84.37047,"zip":"37840","miles_from_dt":28.3},{"city":"Madisonville","state_name":"Tennessee","lat":35.50195,"lng":-84.34387,"zip":"37354","miles_from_dt":28.53},{"city":"Kingston","state_name":"Tennessee","lat":35.82344,"lng":-84.49356,"zip":"37763","miles_from_dt":28.65},{"city":"Sevierville","state_name":"Tennessee","lat":35.8645,"lng":-83.47876,"zip":"37876","miles_from_dt":28.81},{"city":"Philadelphia","state_name":"Tennessee","lat":35.68008,"lng":-84.48505,"zip":"37846","miles_from_dt":29.2},{"city":"Coalfield","state_name":"Tennessee","lat":36.02196,"lng":-84.42815,"zip":"37719","miles_from_dt":29.43},{"city":"Gatlinburg","state_name":"Tennessee","lat":35.67125,"lng":-83.47641,"zip":"37738","miles_from_dt":29.79},{"city":"Sweetwater","state_name":"Tennessee","lat":35.59749,"lng":-84.45823,"zip":"37874","miles_from_dt":29.88}],"targetCityZipCode":"37701","targetCityState":"Tennessee"},"__N_SSG":true}