{"pageProps":{"stateName":"Tennessee","cityName":"brentwood","nearbyCities":[{"city":"Brentwood","state_name":"Tennessee","lat":35.99978,"lng":-86.78439,"zip":"37027","miles_from_dt":0.16},{"city":"Nashville","state_name":"Tennessee","lat":36.06759,"lng":-86.78127,"zip":"37220","miles_from_dt":4.82},{"city":"Franklin","state_name":"Tennessee","lat":35.9278,"lng":-86.84365,"zip":"37068","miles_from_dt":5.81},{"city":"Franklin","state_name":"Tennessee","lat":35.91314,"lng":-86.77461,"zip":"37067","miles_from_dt":5.87},{"city":"Nashville","state_name":"Tennessee","lat":36.06704,"lng":-86.72345,"zip":"37211","miles_from_dt":5.92},{"city":"Nashville","state_name":"Tennessee","lat":36.06888,"lng":-86.72625,"zip":"37222","miles_from_dt":5.93},{"city":"Nashville","state_name":"Tennessee","lat":36.08197,"lng":-86.83492,"zip":"37215","miles_from_dt":6.42},{"city":"Franklin","state_name":"Tennessee","lat":35.98753,"lng":-86.90664,"zip":"37069","miles_from_dt":6.81},{"city":"Franklin","state_name":"Tennessee","lat":35.92314,"lng":-86.8698,"zip":"37065","miles_from_dt":6.97},{"city":"Nashville","state_name":"Tennessee","lat":36.10669,"lng":-86.77463,"zip":"37204","miles_from_dt":7.54},{"city":"Nolensville","state_name":"Tennessee","lat":35.93562,"lng":-86.6625,"zip":"37135","miles_from_dt":8.13},{"city":"Antioch","state_name":"Tennessee","lat":36.04658,"lng":-86.63445,"zip":"37013","miles_from_dt":9.12},{"city":"Nashville","state_name":"Tennessee","lat":36.11075,"lng":-86.87274,"zip":"37205","miles_from_dt":9.19},{"city":"Nashville","state_name":"Tennessee","lat":36.13376,"lng":-86.80167,"zip":"37212","miles_from_dt":9.42},{"city":"Nashville","state_name":"Tennessee","lat":36.10812,"lng":-86.67472,"zip":"37241","miles_from_dt":9.83},{"city":"Nashville","state_name":"Tennessee","lat":36.1411,"lng":-86.8029,"zip":"37232","miles_from_dt":9.93},{"city":"Nashville","state_name":"Tennessee","lat":36.14338,"lng":-86.80336,"zip":"37240","miles_from_dt":10.09},{"city":"Nashville","state_name":"Tennessee","lat":36.10836,"lng":-86.66178,"zip":"37217","miles_from_dt":10.31},{"city":"Nashville","state_name":"Tennessee","lat":36.14871,"lng":-86.7853,"zip":"37230","miles_from_dt":10.41},{"city":"Nashville","state_name":"Tennessee","lat":36.1481,"lng":-86.80545,"zip":"37235","miles_from_dt":10.42},{"city":"Nashville","state_name":"Tennessee","lat":36.14925,"lng":-86.79283,"zip":"37202","miles_from_dt":10.45},{"city":"Nashville","state_name":"Tennessee","lat":36.14937,"lng":-86.78986,"zip":"37203","miles_from_dt":10.46},{"city":"Nashville","state_name":"Tennessee","lat":36.1442,"lng":-86.73374,"zip":"37210","miles_from_dt":10.51},{"city":"Nashville","state_name":"Tennessee","lat":36.15033,"lng":-86.79093,"zip":"37234","miles_from_dt":10.52},{"city":"Nashville","state_name":"Tennessee","lat":36.15028,"lng":-86.80247,"zip":"37236","miles_from_dt":10.56},{"city":"Nashville","state_name":"Tennessee","lat":36.15111,"lng":-86.79558,"zip":"37224","miles_from_dt":10.59},{"city":"Nashville","state_name":"Tennessee","lat":36.16127,"lng":-86.78368,"zip":"37250","miles_from_dt":11.27},{"city":"Nashville","state_name":"Tennessee","lat":36.05991,"lng":-86.97189,"zip":"37221","miles_from_dt":11.27},{"city":"Nashville","state_name":"Tennessee","lat":36.13254,"lng":-86.66944,"zip":"37227","miles_from_dt":11.35},{"city":"Nashville","state_name":"Tennessee","lat":36.16289,"lng":-86.78573,"zip":"37243","miles_from_dt":11.39},{"city":"Arrington","state_name":"Tennessee","lat":35.8725,"lng":-86.6532,"zip":"37014","miles_from_dt":11.4},{"city":"Nashville","state_name":"Tennessee","lat":36.16312,"lng":-86.78334,"zip":"37242","miles_from_dt":11.4},{"city":"Nashville","state_name":"Tennessee","lat":36.1657,"lng":-86.77946,"zip":"37238","miles_from_dt":11.58},{"city":"Nashville","state_name":"Tennessee","lat":36.16622,"lng":-86.78588,"zip":"37244","miles_from_dt":11.61},{"city":"Nashville","state_name":"Tennessee","lat":36.1663,"lng":-86.78299,"zip":"37219","miles_from_dt":11.62},{"city":"Nashville","state_name":"Tennessee","lat":36.16628,"lng":-86.78373,"zip":"37246","miles_from_dt":11.62},{"city":"Nashville","state_name":"Tennessee","lat":36.16662,"lng":-86.77799,"zip":"37201","miles_from_dt":11.65},{"city":"Nashville","state_name":"Tennessee","lat":36.16654,"lng":-86.76731,"zip":"37213","miles_from_dt":11.68},{"city":"La Vergne","state_name":"Tennessee","lat":35.99804,"lng":-86.57456,"zip":"37089","miles_from_dt":11.84},{"city":"Franklin","state_name":"Tennessee","lat":35.88966,"lng":-86.96112,"zip":"37064","miles_from_dt":12.33},{"city":"Nashville","state_name":"Tennessee","lat":36.17691,"lng":-86.80901,"zip":"37208","miles_from_dt":12.42},{"city":"La Vergne","state_name":"Tennessee","lat":36.02177,"lng":-86.55971,"zip":"37086","miles_from_dt":12.77},{"city":"Nashville","state_name":"Tennessee","lat":36.18085,"lng":-86.73117,"zip":"37206","miles_from_dt":12.99},{"city":"Nashville","state_name":"Tennessee","lat":36.15591,"lng":-86.91638,"zip":"37209","miles_from_dt":13.13},{"city":"Antioch","state_name":"Tennessee","lat":36.17252,"lng":-86.88084,"zip":"37011","miles_from_dt":13.17},{"city":"Nashville","state_name":"Tennessee","lat":36.16253,"lng":-86.6637,"zip":"37229","miles_from_dt":13.26},{"city":"Nashville","state_name":"Tennessee","lat":36.16789,"lng":-86.66296,"zip":"37214","miles_from_dt":13.6},{"city":"Nashville","state_name":"Tennessee","lat":36.19513,"lng":-86.80418,"zip":"37228","miles_from_dt":13.65},{"city":"Madison","state_name":"Tennessee","lat":36.19351,"lng":-86.74341,"zip":"37116","miles_from_dt":13.7},{"city":"Smyrna","state_name":"Tennessee","lat":35.96325,"lng":-86.52922,"zip":"37167","miles_from_dt":14.58},{"city":"Thompsons Station","state_name":"Tennessee","lat":35.8073,"lng":-86.91517,"zip":"37179","miles_from_dt":15},{"city":"Hermitage","state_name":"Tennessee","lat":36.14512,"lng":-86.57977,"zip":"37076","miles_from_dt":15.37},{"city":"Nashville","state_name":"Tennessee","lat":36.21589,"lng":-86.72676,"zip":"37216","miles_from_dt":15.4},{"city":"College Grove","state_name":"Tennessee","lat":35.77995,"lng":-86.71582,"zip":"37046","miles_from_dt":15.52},{"city":"Nashville","state_name":"Tennessee","lat":36.20814,"lng":-86.89158,"zip":"37218","miles_from_dt":15.67},{"city":"Nashville","state_name":"Tennessee","lat":36.23278,"lng":-86.77765,"zip":"37207","miles_from_dt":16.21},{"city":"Pegram","state_name":"Tennessee","lat":36.13137,"lng":-87.03038,"zip":"37143","miles_from_dt":16.5},{"city":"Madison","state_name":"Tennessee","lat":36.25444,"lng":-86.69636,"zip":"37115","miles_from_dt":18.39},{"city":"Eagleville","state_name":"Tennessee","lat":35.74924,"lng":-86.63428,"zip":"37060","miles_from_dt":19.13},{"city":"Old Hickory","state_name":"Tennessee","lat":36.24652,"lng":-86.61938,"zip":"37138","miles_from_dt":19.52},{"city":"Whites Creek","state_name":"Tennessee","lat":36.27875,"lng":-86.82983,"zip":"37189","miles_from_dt":19.53},{"city":"Fairview","state_name":"Tennessee","lat":35.98833,"lng":-87.13483,"zip":"37062","miles_from_dt":19.57},{"city":"Kingston Springs","state_name":"Tennessee","lat":36.09717,"lng":-87.11484,"zip":"37082","miles_from_dt":19.66},{"city":"Murfreesboro","state_name":"Tennessee","lat":35.92556,"lng":-86.44098,"zip":"37129","miles_from_dt":19.96},{"city":"Spring Hill","state_name":"Tennessee","lat":35.72197,"lng":-86.8995,"zip":"37174","miles_from_dt":20.06},{"city":"Mount Juliet","state_name":"Tennessee","lat":36.20506,"lng":-86.52066,"zip":"37121","miles_from_dt":20.6},{"city":"Rockvale","state_name":"Tennessee","lat":35.7645,"lng":-86.55531,"zip":"37153","miles_from_dt":20.64},{"city":"Mount Juliet","state_name":"Tennessee","lat":36.17791,"lng":-86.48872,"zip":"37122","miles_from_dt":20.75},{"city":"Murfreesboro","state_name":"Tennessee","lat":35.80343,"lng":-86.47483,"zip":"37128","miles_from_dt":22},{"city":"Goodlettsville","state_name":"Tennessee","lat":36.32371,"lng":-86.71582,"zip":"37070","miles_from_dt":22.81},{"city":"Hendersonville","state_name":"Tennessee","lat":36.304,"lng":-86.61916,"zip":"37077","miles_from_dt":23.08},{"city":"Joelton","state_name":"Tennessee","lat":36.32901,"lng":-86.91633,"zip":"37080","miles_from_dt":23.98},{"city":"Murfreesboro","state_name":"Tennessee","lat":35.85324,"lng":-86.39602,"zip":"37131","miles_from_dt":24.02},{"city":"Murfreesboro","state_name":"Tennessee","lat":35.84027,"lng":-86.39405,"zip":"37133","miles_from_dt":24.51},{"city":"Goodlettsville","state_name":"Tennessee","lat":36.35686,"lng":-86.74494,"zip":"37072","miles_from_dt":24.86},{"city":"Chapel Hill","state_name":"Tennessee","lat":35.63977,"lng":-86.69158,"zip":"37034","miles_from_dt":25.24},{"city":"White Bluff","state_name":"Tennessee","lat":36.1471,"lng":-87.19885,"zip":"37187","miles_from_dt":25.31},{"city":"Hendersonville","state_name":"Tennessee","lat":36.34085,"lng":-86.60845,"zip":"37075","miles_from_dt":25.65},{"city":"Santa Fe","state_name":"Tennessee","lat":35.76792,"lng":-87.14574,"zip":"38482","miles_from_dt":25.67},{"city":"Murfreesboro","state_name":"Tennessee","lat":35.84873,"lng":-86.36284,"zip":"37132","miles_from_dt":25.85},{"city":"Ashland City","state_name":"Tennessee","lat":36.28798,"lng":-87.08113,"zip":"37015","miles_from_dt":25.94},{"city":"Primm Springs","state_name":"Tennessee","lat":35.84341,"lng":-87.20984,"zip":"38476","miles_from_dt":26.05},{"city":"Murfreesboro","state_name":"Tennessee","lat":35.8809,"lng":-86.33003,"zip":"37130","miles_from_dt":26.8},{"city":"Burns","state_name":"Tennessee","lat":36.04253,"lng":-87.2678,"zip":"37029","miles_from_dt":27.17},{"city":"Ridgetop","state_name":"Tennessee","lat":36.40182,"lng":-86.77129,"zip":"37152","miles_from_dt":27.87},{"city":"Fosterville","state_name":"Tennessee","lat":35.74544,"lng":-86.38811,"zip":"37063","miles_from_dt":28.3},{"city":"Lascassas","state_name":"Tennessee","lat":35.95308,"lng":-86.27912,"zip":"37085","miles_from_dt":28.56},{"city":"Columbia","state_name":"Tennessee","lat":35.62955,"lng":-87.02097,"zip":"38401","miles_from_dt":28.61},{"city":"Unionville","state_name":"Tennessee","lat":35.6189,"lng":-86.57679,"zip":"37180","miles_from_dt":28.64},{"city":"Lebanon","state_name":"Tennessee","lat":36.12439,"lng":-86.29707,"zip":"37090","miles_from_dt":28.72},{"city":"Bon Aqua","state_name":"Tennessee","lat":35.95263,"lng":-87.30855,"zip":"37025","miles_from_dt":29.46},{"city":"Greenbrier","state_name":"Tennessee","lat":36.42834,"lng":-86.81414,"zip":"37073","miles_from_dt":29.73},{"city":"Columbia","state_name":"Tennessee","lat":35.61521,"lng":-87.03179,"zip":"38402","miles_from_dt":29.77},{"city":"Murfreesboro","state_name":"Tennessee","lat":35.77947,"lng":-86.32723,"zip":"37127","miles_from_dt":29.81}],"targetCityZipCode":"37024","targetCityState":"Tennessee"},"__N_SSG":true}