{"pageProps":{"stateName":"Tennessee","cityName":"cornersville","nearbyCities":[{"city":"Frankewing","state_name":"Tennessee","lat":35.19135,"lng":-86.80219,"zip":"38459","miles_from_dt":8.55},{"city":"Belfast","state_name":"Tennessee","lat":35.39094,"lng":-86.70943,"zip":"37019","miles_from_dt":8.76},{"city":"Petersburg","state_name":"Tennessee","lat":35.30516,"lng":-86.65585,"zip":"37144","miles_from_dt":9.96},{"city":"Pulaski","state_name":"Tennessee","lat":35.21565,"lng":-87.01329,"zip":"38478","miles_from_dt":12.25},{"city":"Lynnville","state_name":"Tennessee","lat":35.3773,"lng":-87.03873,"zip":"38472","miles_from_dt":12.5},{"city":"Lewisburg","state_name":"Tennessee","lat":35.48546,"lng":-86.76405,"zip":"37091","miles_from_dt":12.5},{"city":"Dellrose","state_name":"Tennessee","lat":35.11923,"lng":-86.81472,"zip":"38453","miles_from_dt":13.39},{"city":"Culleoka","state_name":"Tennessee","lat":35.46706,"lng":-86.99573,"zip":"38451","miles_from_dt":14.09},{"city":"Fayetteville","state_name":"Tennessee","lat":35.16532,"lng":-86.57966,"zip":"37334","miles_from_dt":17.52},{"city":"Elkton","state_name":"Tennessee","lat":35.06199,"lng":-86.89366,"zip":"38455","miles_from_dt":17.65},{"city":"Ardmore","state_name":"Tennessee","lat":35.05231,"lng":-86.82954,"zip":"38449","miles_from_dt":17.97},{"city":"Taft","state_name":"Tennessee","lat":35.03906,"lng":-86.68569,"zip":"38488","miles_from_dt":20.61},{"city":"Prospect","state_name":"Tennessee","lat":35.05075,"lng":-87.00932,"zip":"38477","miles_from_dt":20.67},{"city":"Shelbyville","state_name":"Tennessee","lat":35.46562,"lng":-86.48268,"zip":"37160","miles_from_dt":22.35},{"city":"Goodspring","state_name":"Tennessee","lat":35.10116,"lng":-87.15937,"zip":"38460","miles_from_dt":23.59},{"city":"Columbia","state_name":"Tennessee","lat":35.61521,"lng":-87.03179,"zip":"38402","miles_from_dt":23.69},{"city":"Ardmore","state_name":"Alabama","lat":34.96914,"lng":-86.79501,"zip":"35739","miles_from_dt":23.79},{"city":"Chapel Hill","state_name":"Tennessee","lat":35.63977,"lng":-86.69158,"zip":"37034","miles_from_dt":23.88},{"city":"Shelbyville","state_name":"Tennessee","lat":35.48444,"lng":-86.46117,"zip":"37161","miles_from_dt":24.04},{"city":"Columbia","state_name":"Tennessee","lat":35.62955,"lng":-87.02097,"zip":"38401","miles_from_dt":24.29},{"city":"Ethridge","state_name":"Tennessee","lat":35.33464,"lng":-87.26559,"zip":"38456","miles_from_dt":24.55},{"city":"Shelbyville","state_name":"Tennessee","lat":35.49154,"lng":-86.44599,"zip":"37162","miles_from_dt":25.02},{"city":"Mulberry","state_name":"Tennessee","lat":35.19776,"lng":-86.4119,"zip":"37359","miles_from_dt":25.04},{"city":"Unionville","state_name":"Tennessee","lat":35.6189,"lng":-86.57679,"zip":"37180","miles_from_dt":25.54},{"city":"Kelso","state_name":"Tennessee","lat":35.11935,"lng":-86.44222,"zip":"37348","miles_from_dt":25.77},{"city":"Mount Pleasant","state_name":"Tennessee","lat":35.51848,"lng":-87.22966,"zip":"38474","miles_from_dt":26.55},{"city":"Lynchburg","state_name":"Tennessee","lat":35.27981,"lng":-86.35417,"zip":"37352","miles_from_dt":27.1},{"city":"Minor Hill","state_name":"Tennessee","lat":35.02775,"lng":-87.17057,"zip":"38473","miles_from_dt":27.46},{"city":"Elkmont","state_name":"Alabama","lat":34.93141,"lng":-86.99086,"zip":"35620","miles_from_dt":27.8},{"city":"Hazel Green","state_name":"Alabama","lat":34.95407,"lng":-86.5951,"zip":"35750","miles_from_dt":28.14},{"city":"Spring Hill","state_name":"Tennessee","lat":35.72197,"lng":-86.8995,"zip":"37174","miles_from_dt":28.46},{"city":"Leoma","state_name":"Tennessee","lat":35.13083,"lng":-87.29072,"zip":"38468","miles_from_dt":28.83},{"city":"Lester","state_name":"Alabama","lat":34.96539,"lng":-87.11933,"zip":"35647","miles_from_dt":28.96},{"city":"Flintville","state_name":"Tennessee","lat":35.06584,"lng":-86.40548,"zip":"37335","miles_from_dt":29.54},{"city":"Summertown","state_name":"Tennessee","lat":35.43411,"lng":-87.33476,"zip":"38483","miles_from_dt":29.6},{"city":"Toney","state_name":"Alabama","lat":34.89431,"lng":-86.71282,"zip":"35773","miles_from_dt":29.63}],"targetCityZipCode":"37047","targetCityState":"Tennessee"},"__N_SSG":true}