{"pageProps":{"stateName":"Tennessee","cityName":"duff","nearbyCities":[{"city":"Clairfield","state_name":"Tennessee","lat":36.55323,"lng":-83.95894,"zip":"37715","miles_from_dt":4.91},{"city":"Eagan","state_name":"Tennessee","lat":36.56837,"lng":-83.97357,"zip":"37730","miles_from_dt":4.98},{"city":"Jellico","state_name":"Tennessee","lat":36.57657,"lng":-84.12323,"zip":"37762","miles_from_dt":6.62},{"city":"La Follette","state_name":"Tennessee","lat":36.39958,"lng":-84.07275,"zip":"37766","miles_from_dt":8.21},{"city":"Frakes","state_name":"Kentucky","lat":36.60991,"lng":-83.92988,"zip":"40940","miles_from_dt":8.74},{"city":"Newcomb","state_name":"Tennessee","lat":36.55649,"lng":-84.21169,"zip":"37819","miles_from_dt":10.38},{"city":"Speedwell","state_name":"Tennessee","lat":36.46319,"lng":-83.83562,"zip":"37870","miles_from_dt":11.52},{"city":"Siler","state_name":"Kentucky","lat":36.68848,"lng":-83.94403,"zip":"40763","miles_from_dt":13},{"city":"Pruden","state_name":"Tennessee","lat":36.56558,"lng":-83.79244,"zip":"37851","miles_from_dt":13.83},{"city":"Pioneer","state_name":"Tennessee","lat":36.43156,"lng":-84.27346,"zip":"37847","miles_from_dt":14.56},{"city":"Emlyn","state_name":"Kentucky","lat":36.70642,"lng":-84.14605,"zip":"40730","miles_from_dt":14.68},{"city":"Sharps Chapel","state_name":"Tennessee","lat":36.35017,"lng":-83.8517,"zip":"37866","miles_from_dt":15.15},{"city":"Williamsburg","state_name":"Kentucky","lat":36.7116,"lng":-84.17284,"zip":"40769","miles_from_dt":15.69},{"city":"Jacksboro","state_name":"Tennessee","lat":36.30182,"lng":-84.14371,"zip":"37757","miles_from_dt":15.89},{"city":"Middlesboro","state_name":"Kentucky","lat":36.62469,"lng":-83.73461,"zip":"40965","miles_from_dt":18.25},{"city":"Cumberland Gap","state_name":"Tennessee","lat":36.54457,"lng":-83.69328,"zip":"37724","miles_from_dt":19.01},{"city":"Winfield","state_name":"Tennessee","lat":36.55666,"lng":-84.37132,"zip":"37892","miles_from_dt":19.07},{"city":"Ingram","state_name":"Kentucky","lat":36.72855,"lng":-83.80052,"zip":"40955","miles_from_dt":19.63},{"city":"Andersonville","state_name":"Tennessee","lat":36.22862,"lng":-84.00947,"zip":"37705","miles_from_dt":19.73},{"city":"Bryants Store","state_name":"Kentucky","lat":36.78195,"lng":-83.90185,"zip":"40921","miles_from_dt":19.85},{"city":"Trosper","state_name":"Kentucky","lat":36.75268,"lng":-83.82322,"zip":"40995","miles_from_dt":20.15},{"city":"New Tazewell","state_name":"Tennessee","lat":36.41221,"lng":-83.68196,"zip":"37825","miles_from_dt":20.76},{"city":"Maynardville","state_name":"Tennessee","lat":36.25955,"lng":-83.82702,"zip":"37807","miles_from_dt":20.97},{"city":"Caryville","state_name":"Tennessee","lat":36.26656,"lng":-84.25277,"zip":"37714","miles_from_dt":21.02},{"city":"Rockholds","state_name":"Kentucky","lat":36.82034,"lng":-84.0571,"zip":"40759","miles_from_dt":21.16},{"city":"Rocky Top","state_name":"Tennessee","lat":36.21799,"lng":-84.15532,"zip":"37769","miles_from_dt":21.53},{"city":"Norris","state_name":"Tennessee","lat":36.19788,"lng":-84.06889,"zip":"37828","miles_from_dt":21.9},{"city":"Pineville","state_name":"Kentucky","lat":36.72332,"lng":-83.72867,"zip":"40977","miles_from_dt":22.22},{"city":"Shawanee","state_name":"Tennessee","lat":36.57992,"lng":-83.63951,"zip":"37867","miles_from_dt":22.34},{"city":"Strunk","state_name":"Kentucky","lat":36.6253,"lng":-84.41798,"zip":"42649","miles_from_dt":22.76},{"city":"Artemus","state_name":"Kentucky","lat":36.80973,"lng":-83.83163,"zip":"40903","miles_from_dt":23.25},{"city":"Pine Knot","state_name":"Kentucky","lat":36.67601,"lng":-84.40033,"zip":"42635","miles_from_dt":23.29},{"city":"Woodbine","state_name":"Kentucky","lat":36.85942,"lng":-84.03459,"zip":"40771","miles_from_dt":23.81},{"city":"New Tazewell","state_name":"Tennessee","lat":36.43414,"lng":-83.60662,"zip":"37824","miles_from_dt":24.36},{"city":"Huntsville","state_name":"Tennessee","lat":36.30165,"lng":-84.40704,"zip":"37756","miles_from_dt":25.49},{"city":"Luttrell","state_name":"Tennessee","lat":36.21093,"lng":-83.75793,"zip":"37779","miles_from_dt":25.92},{"city":"Lone Mountain","state_name":"Tennessee","lat":36.39204,"lng":-83.58463,"zip":"37773","miles_from_dt":26.34},{"city":"Heiskell","state_name":"Tennessee","lat":36.13059,"lng":-84.03305,"zip":"37754","miles_from_dt":26.44},{"city":"Revelo","state_name":"Kentucky","lat":36.67487,"lng":-84.4689,"zip":"42638","miles_from_dt":26.66},{"city":"Harrogate","state_name":"Tennessee","lat":36.56735,"lng":-83.55422,"zip":"37752","miles_from_dt":26.88},{"city":"Arthur","state_name":"Tennessee","lat":36.42538,"lng":-83.55804,"zip":"37707","miles_from_dt":27.14},{"city":"Fourmile","state_name":"Kentucky","lat":36.81217,"lng":-83.71152,"zip":"40939","miles_from_dt":27.22},{"city":"Barbourville","state_name":"Kentucky","lat":36.88828,"lng":-83.87546,"zip":"40906","miles_from_dt":27.24},{"city":"Washburn","state_name":"Tennessee","lat":36.31063,"lng":-83.61266,"zip":"37888","miles_from_dt":27.3},{"city":"Powder Springs","state_name":"Tennessee","lat":36.23701,"lng":-83.68179,"zip":"37848","miles_from_dt":27.35},{"city":"Knoxville","state_name":"Tennessee","lat":36.12499,"lng":-83.93815,"zip":"37938","miles_from_dt":27.35},{"city":"Calvin","state_name":"Kentucky","lat":36.71526,"lng":-83.59838,"zip":"40813","miles_from_dt":27.85},{"city":"Heidrick","state_name":"Kentucky","lat":36.90253,"lng":-83.86717,"zip":"40949","miles_from_dt":28.32},{"city":"Helenwood","state_name":"Tennessee","lat":36.42249,"lng":-84.53166,"zip":"37755","miles_from_dt":28.49},{"city":"Oneida","state_name":"Tennessee","lat":36.5088,"lng":-84.54665,"zip":"37841","miles_from_dt":28.61},{"city":"Bimble","state_name":"Kentucky","lat":36.89235,"lng":-83.82025,"zip":"40915","miles_from_dt":28.63},{"city":"Gray","state_name":"Kentucky","lat":36.92642,"lng":-83.96609,"zip":"40734","miles_from_dt":28.67},{"city":"Corbin","state_name":"Kentucky","lat":36.91759,"lng":-84.16651,"zip":"40701","miles_from_dt":28.8},{"city":"Corryton","state_name":"Tennessee","lat":36.13155,"lng":-83.80829,"zip":"37721","miles_from_dt":29.2},{"city":"Briceville","state_name":"Tennessee","lat":36.15802,"lng":-84.3177,"zip":"37710","miles_from_dt":29.25},{"city":"Marshes Siding","state_name":"Kentucky","lat":36.74039,"lng":-84.48098,"zip":"42631","miles_from_dt":29.39},{"city":"Clinton","state_name":"Tennessee","lat":36.09919,"lng":-84.16822,"zip":"37716","miles_from_dt":29.59},{"city":"Clinton","state_name":"Tennessee","lat":36.09103,"lng":-84.13209,"zip":"37717","miles_from_dt":29.69},{"city":"Cannon","state_name":"Kentucky","lat":36.92059,"lng":-83.84923,"zip":"40923","miles_from_dt":29.82},{"city":"Dewitt","state_name":"Kentucky","lat":36.87096,"lng":-83.72905,"zip":"40930","miles_from_dt":29.83}],"targetCityZipCode":"37729","targetCityState":"Tennessee"},"__N_SSG":true}