{"pageProps":{"stateName":"Tennessee","cityName":"erin","nearbyCities":[{"city":"Cumberland City","state_name":"Tennessee","lat":36.3713,"lng":-87.63586,"zip":"37050","miles_from_dt":5.9},{"city":"Tennessee Ridge","state_name":"Tennessee","lat":36.3195,"lng":-87.78694,"zip":"37178","miles_from_dt":7.1},{"city":"Vanleer","state_name":"Tennessee","lat":36.241,"lng":-87.49706,"zip":"37181","miles_from_dt":9.96},{"city":"Slayden","state_name":"Tennessee","lat":36.29005,"lng":-87.46943,"zip":"37165","miles_from_dt":10.93},{"city":"Palmyra","state_name":"Tennessee","lat":36.41164,"lng":-87.50112,"zip":"37142","miles_from_dt":12.46},{"city":"Stewart","state_name":"Tennessee","lat":36.32349,"lng":-87.89678,"zip":"37175","miles_from_dt":13.13},{"city":"Indian Mound","state_name":"Tennessee","lat":36.4826,"lng":-87.65939,"zip":"37079","miles_from_dt":13.34},{"city":"Cumberland Furnace","state_name":"Tennessee","lat":36.30426,"lng":-87.41405,"zip":"37051","miles_from_dt":14.06},{"city":"McEwen","state_name":"Tennessee","lat":36.06625,"lng":-87.63741,"zip":"37101","miles_from_dt":15.45},{"city":"Cunningham","state_name":"Tennessee","lat":36.37534,"lng":-87.40095,"zip":"37052","miles_from_dt":15.9},{"city":"Woodlawn","state_name":"Tennessee","lat":36.50726,"lng":-87.52392,"zip":"37191","miles_from_dt":16.98},{"city":"Dover","state_name":"Tennessee","lat":36.47872,"lng":-87.8807,"zip":"37058","miles_from_dt":17.75},{"city":"Waverly","state_name":"Tennessee","lat":36.07118,"lng":-87.8392,"zip":"37185","miles_from_dt":17.9},{"city":"Dickson","state_name":"Tennessee","lat":36.07921,"lng":-87.44238,"zip":"37055","miles_from_dt":19.1},{"city":"Eva","state_name":"Tennessee","lat":36.12236,"lng":-87.9709,"zip":"38333","miles_from_dt":20.59},{"city":"Southside","state_name":"Tennessee","lat":36.36442,"lng":-87.30365,"zip":"37171","miles_from_dt":20.83},{"city":"Big Sandy","state_name":"Tennessee","lat":36.24552,"lng":-88.03685,"zip":"38221","miles_from_dt":20.96},{"city":"Big Rock","state_name":"Tennessee","lat":36.58409,"lng":-87.78302,"zip":"37023","miles_from_dt":21.37},{"city":"Dickson","state_name":"Tennessee","lat":36.0768,"lng":-87.37717,"zip":"37056","miles_from_dt":21.77},{"city":"Charlotte","state_name":"Tennessee","lat":36.23979,"lng":-87.27182,"zip":"37036","miles_from_dt":22.23},{"city":"Clarksville","state_name":"Tennessee","lat":36.56894,"lng":-87.41225,"zip":"37042","miles_from_dt":23.89},{"city":"Clarksville","state_name":"Tennessee","lat":36.52408,"lng":-87.33287,"zip":"37040","miles_from_dt":24.61},{"city":"Clarksville","state_name":"Tennessee","lat":36.52938,"lng":-87.33763,"zip":"37044","miles_from_dt":24.65},{"city":"New Johnsonville","state_name":"Tennessee","lat":36.0014,"lng":-87.95063,"zip":"37134","miles_from_dt":25.46},{"city":"Bumpus Mills","state_name":"Tennessee","lat":36.62793,"lng":-87.85723,"zip":"37028","miles_from_dt":25.69},{"city":"Springville","state_name":"Tennessee","lat":36.31388,"lng":-88.12539,"zip":"38256","miles_from_dt":25.74},{"city":"Clarksville","state_name":"Tennessee","lat":36.5612,"lng":-87.34874,"zip":"37041","miles_from_dt":25.75},{"city":"Hurricane Mills","state_name":"Tennessee","lat":35.92366,"lng":-87.77138,"zip":"37078","miles_from_dt":25.89},{"city":"La Fayette","state_name":"Kentucky","lat":36.66435,"lng":-87.63852,"zip":"42254","miles_from_dt":25.91},{"city":"Fort Campbell","state_name":"Kentucky","lat":36.6381,"lng":-87.47258,"zip":"42223","miles_from_dt":26.34},{"city":"White Bluff","state_name":"Tennessee","lat":36.1471,"lng":-87.19885,"zip":"37187","miles_from_dt":27.84},{"city":"Burns","state_name":"Tennessee","lat":36.04253,"lng":-87.2678,"zip":"37029","miles_from_dt":27.98},{"city":"Clarksville","state_name":"Tennessee","lat":36.49842,"lng":-87.23197,"zip":"37043","miles_from_dt":28.14},{"city":"Only","state_name":"Tennessee","lat":35.86345,"lng":-87.65245,"zip":"37140","miles_from_dt":29.36},{"city":"Nunnelly","state_name":"Tennessee","lat":35.87912,"lng":-87.50276,"zip":"37137","miles_from_dt":29.7},{"city":"Buchanan","state_name":"Tennessee","lat":36.44512,"lng":-88.16288,"zip":"38222","miles_from_dt":29.76},{"city":"Oak Grove","state_name":"Kentucky","lat":36.68386,"lng":-87.44714,"zip":"42262","miles_from_dt":29.8},{"city":"Herndon","state_name":"Kentucky","lat":36.7196,"lng":-87.61225,"zip":"42236","miles_from_dt":29.83},{"city":"Camden","state_name":"Tennessee","lat":36.04764,"lng":-88.1095,"zip":"38320","miles_from_dt":29.9}],"targetCityZipCode":"37061","targetCityState":"Tennessee"},"__N_SSG":true}