{"pageProps":{"stateName":"Tennessee","cityName":"jellico","nearbyCities":[{"city":"Newcomb","state_name":"Tennessee","lat":36.55649,"lng":-84.21169,"zip":"37819","miles_from_dt":5.11},{"city":"Duff","state_name":"Tennessee","lat":36.51412,"lng":-84.03276,"zip":"37729","miles_from_dt":6.62},{"city":"Eagan","state_name":"Tennessee","lat":36.56837,"lng":-83.97357,"zip":"37730","miles_from_dt":8.34},{"city":"Emlyn","state_name":"Kentucky","lat":36.70642,"lng":-84.14605,"zip":"40730","miles_from_dt":9.04},{"city":"Clairfield","state_name":"Tennessee","lat":36.55323,"lng":-83.95894,"zip":"37715","miles_from_dt":9.28},{"city":"Williamsburg","state_name":"Kentucky","lat":36.7116,"lng":-84.17284,"zip":"40769","miles_from_dt":9.71},{"city":"Frakes","state_name":"Kentucky","lat":36.60991,"lng":-83.92988,"zip":"40940","miles_from_dt":10.99},{"city":"La Follette","state_name":"Tennessee","lat":36.39958,"lng":-84.07275,"zip":"37766","miles_from_dt":12.52},{"city":"Siler","state_name":"Kentucky","lat":36.68848,"lng":-83.94403,"zip":"40763","miles_from_dt":12.6},{"city":"Pioneer","state_name":"Tennessee","lat":36.43156,"lng":-84.27346,"zip":"37847","miles_from_dt":13.04},{"city":"Winfield","state_name":"Tennessee","lat":36.55666,"lng":-84.37132,"zip":"37892","miles_from_dt":13.87},{"city":"Strunk","state_name":"Kentucky","lat":36.6253,"lng":-84.41798,"zip":"42649","miles_from_dt":16.73},{"city":"Pine Knot","state_name":"Kentucky","lat":36.67601,"lng":-84.40033,"zip":"42635","miles_from_dt":16.86},{"city":"Rockholds","state_name":"Kentucky","lat":36.82034,"lng":-84.0571,"zip":"40759","miles_from_dt":17.21},{"city":"Speedwell","state_name":"Tennessee","lat":36.46319,"lng":-83.83562,"zip":"37870","miles_from_dt":17.81},{"city":"Pruden","state_name":"Tennessee","lat":36.56558,"lng":-83.79244,"zip":"37851","miles_from_dt":18.41},{"city":"Bryants Store","state_name":"Kentucky","lat":36.78195,"lng":-83.90185,"zip":"40921","miles_from_dt":18.75},{"city":"Jacksboro","state_name":"Tennessee","lat":36.30182,"lng":-84.14371,"zip":"37757","miles_from_dt":18.98},{"city":"Woodbine","state_name":"Kentucky","lat":36.85942,"lng":-84.03459,"zip":"40771","miles_from_dt":20.12},{"city":"Revelo","state_name":"Kentucky","lat":36.67487,"lng":-84.4689,"zip":"42638","miles_from_dt":20.37},{"city":"Trosper","state_name":"Kentucky","lat":36.75268,"lng":-83.82322,"zip":"40995","miles_from_dt":20.62},{"city":"Ingram","state_name":"Kentucky","lat":36.72855,"lng":-83.80052,"zip":"40955","miles_from_dt":20.77},{"city":"Sharps Chapel","state_name":"Tennessee","lat":36.35017,"lng":-83.8517,"zip":"37866","miles_from_dt":21.73},{"city":"Middlesboro","state_name":"Kentucky","lat":36.62469,"lng":-83.73461,"zip":"40965","miles_from_dt":21.86},{"city":"Caryville","state_name":"Tennessee","lat":36.26656,"lng":-84.25277,"zip":"37714","miles_from_dt":22.56},{"city":"Artemus","state_name":"Kentucky","lat":36.80973,"lng":-83.83163,"zip":"40903","miles_from_dt":22.82},{"city":"Marshes Siding","state_name":"Kentucky","lat":36.74039,"lng":-84.48098,"zip":"42631","miles_from_dt":22.86},{"city":"Whitley City","state_name":"Kentucky","lat":36.78117,"lng":-84.4618,"zip":"42653","miles_from_dt":23.51},{"city":"Corbin","state_name":"Kentucky","lat":36.91759,"lng":-84.16651,"zip":"40701","miles_from_dt":23.64},{"city":"Oneida","state_name":"Tennessee","lat":36.5088,"lng":-84.54665,"zip":"37841","miles_from_dt":24.02},{"city":"Cumberland Gap","state_name":"Tennessee","lat":36.54457,"lng":-83.69328,"zip":"37724","miles_from_dt":24.02},{"city":"Pineville","state_name":"Kentucky","lat":36.72332,"lng":-83.72867,"zip":"40977","miles_from_dt":24.15},{"city":"Huntsville","state_name":"Tennessee","lat":36.30165,"lng":-84.40704,"zip":"37756","miles_from_dt":24.69},{"city":"Rocky Top","state_name":"Tennessee","lat":36.21799,"lng":-84.15532,"zip":"37769","miles_from_dt":24.79},{"city":"Andersonville","state_name":"Tennessee","lat":36.22862,"lng":-84.00947,"zip":"37705","miles_from_dt":24.82},{"city":"Helenwood","state_name":"Tennessee","lat":36.42249,"lng":-84.53166,"zip":"37755","miles_from_dt":25.1},{"city":"Barbourville","state_name":"Kentucky","lat":36.88828,"lng":-83.87546,"zip":"40906","miles_from_dt":25.52},{"city":"Gray","state_name":"Kentucky","lat":36.92642,"lng":-83.96609,"zip":"40734","miles_from_dt":25.65},{"city":"Corbin","state_name":"Kentucky","lat":36.95072,"lng":-84.08678,"zip":"40702","miles_from_dt":25.88},{"city":"Norris","state_name":"Tennessee","lat":36.19788,"lng":-84.06889,"zip":"37828","miles_from_dt":26.29},{"city":"Parkers Lake","state_name":"Kentucky","lat":36.88043,"lng":-84.41601,"zip":"42634","miles_from_dt":26.52},{"city":"Heidrick","state_name":"Kentucky","lat":36.90253,"lng":-83.86717,"zip":"40949","miles_from_dt":26.59},{"city":"Shawanee","state_name":"Tennessee","lat":36.57992,"lng":-83.63951,"zip":"37867","miles_from_dt":26.9},{"city":"New Tazewell","state_name":"Tennessee","lat":36.41221,"lng":-83.68196,"zip":"37825","miles_from_dt":27.05},{"city":"Maynardville","state_name":"Tennessee","lat":36.25955,"lng":-83.82702,"zip":"37807","miles_from_dt":27.39},{"city":"Bimble","state_name":"Kentucky","lat":36.89235,"lng":-83.82025,"zip":"40915","miles_from_dt":27.51},{"city":"Fourmile","state_name":"Kentucky","lat":36.81217,"lng":-83.71152,"zip":"40939","miles_from_dt":28.05},{"city":"Cannon","state_name":"Kentucky","lat":36.92059,"lng":-83.84923,"zip":"40923","miles_from_dt":28.18},{"city":"Stearns","state_name":"Kentucky","lat":36.6922,"lng":-84.61144,"zip":"42647","miles_from_dt":28.28},{"city":"Keavy","state_name":"Kentucky","lat":37.00838,"lng":-84.13902,"zip":"40737","miles_from_dt":29.79},{"city":"Dewitt","state_name":"Kentucky","lat":36.87096,"lng":-83.72905,"zip":"40930","miles_from_dt":29.85}],"targetCityZipCode":"37762","targetCityState":"Tennessee"},"__N_SSG":true}