{"pageProps":{"stateName":"Tennessee","cityName":"lynnville","nearbyCities":[{"city":"Culleoka","state_name":"Tennessee","lat":35.46706,"lng":-86.99573,"zip":"38451","miles_from_dt":6.65},{"city":"Pulaski","state_name":"Tennessee","lat":35.21565,"lng":-87.01329,"zip":"38478","miles_from_dt":11.24},{"city":"Cornersville","state_name":"Tennessee","lat":35.31291,"lng":-86.83191,"zip":"37047","miles_from_dt":12.5},{"city":"Ethridge","state_name":"Tennessee","lat":35.33464,"lng":-87.26559,"zip":"38456","miles_from_dt":13.15},{"city":"Mount Pleasant","state_name":"Tennessee","lat":35.51848,"lng":-87.22966,"zip":"38474","miles_from_dt":14.52},{"city":"Columbia","state_name":"Tennessee","lat":35.61521,"lng":-87.03179,"zip":"38402","miles_from_dt":16.41},{"city":"Summertown","state_name":"Tennessee","lat":35.43411,"lng":-87.33476,"zip":"38483","miles_from_dt":17.16},{"city":"Lewisburg","state_name":"Tennessee","lat":35.48546,"lng":-86.76405,"zip":"37091","miles_from_dt":17.2},{"city":"Columbia","state_name":"Tennessee","lat":35.62955,"lng":-87.02097,"zip":"38401","miles_from_dt":17.42},{"city":"Frankewing","state_name":"Tennessee","lat":35.19135,"lng":-86.80219,"zip":"38459","miles_from_dt":18.52},{"city":"Belfast","state_name":"Tennessee","lat":35.39094,"lng":-86.70943,"zip":"37019","miles_from_dt":18.62},{"city":"Goodspring","state_name":"Tennessee","lat":35.10116,"lng":-87.15937,"zip":"38460","miles_from_dt":20.22},{"city":"Dellrose","state_name":"Tennessee","lat":35.11923,"lng":-86.81472,"zip":"38453","miles_from_dt":21.84},{"city":"Leoma","state_name":"Tennessee","lat":35.13083,"lng":-87.29072,"zip":"38468","miles_from_dt":22.18},{"city":"Petersburg","state_name":"Tennessee","lat":35.30516,"lng":-86.65585,"zip":"37144","miles_from_dt":22.19},{"city":"Prospect","state_name":"Tennessee","lat":35.05075,"lng":-87.00932,"zip":"38477","miles_from_dt":22.57},{"city":"Hampshire","state_name":"Tennessee","lat":35.59514,"lng":-87.33987,"zip":"38461","miles_from_dt":22.67},{"city":"Lawrenceburg","state_name":"Tennessee","lat":35.29035,"lng":-87.42845,"zip":"38464","miles_from_dt":22.82},{"city":"Elkton","state_name":"Tennessee","lat":35.06199,"lng":-86.89366,"zip":"38455","miles_from_dt":23.23},{"city":"Spring Hill","state_name":"Tennessee","lat":35.72197,"lng":-86.8995,"zip":"37174","miles_from_dt":25.02},{"city":"Minor Hill","state_name":"Tennessee","lat":35.02775,"lng":-87.17057,"zip":"38473","miles_from_dt":25.23},{"city":"Ardmore","state_name":"Tennessee","lat":35.05231,"lng":-86.82954,"zip":"38449","miles_from_dt":25.34},{"city":"Williamsport","state_name":"Tennessee","lat":35.72163,"lng":-87.23589,"zip":"38487","miles_from_dt":26.21},{"city":"Chapel Hill","state_name":"Tennessee","lat":35.63977,"lng":-86.69158,"zip":"37034","miles_from_dt":26.65},{"city":"Santa Fe","state_name":"Tennessee","lat":35.76792,"lng":-87.14574,"zip":"38482","miles_from_dt":27.6},{"city":"Five Points","state_name":"Tennessee","lat":35.0297,"lng":-87.28482,"zip":"38457","miles_from_dt":27.71},{"city":"Lester","state_name":"Alabama","lat":34.96539,"lng":-87.11933,"zip":"35647","miles_from_dt":28.76},{"city":"Duck River","state_name":"Tennessee","lat":35.72334,"lng":-87.35538,"zip":"38454","miles_from_dt":29.79},{"city":"Fayetteville","state_name":"Tennessee","lat":35.16532,"lng":-86.57966,"zip":"37334","miles_from_dt":29.79}],"targetCityZipCode":"38472","targetCityState":"Tennessee"},"__N_SSG":true}