{"pageProps":{"stateName":"Tennessee","cityName":"newport","nearbyCities":[{"city":"Newport","state_name":"Tennessee","lat":35.95712,"lng":-83.19098,"zip":"37822","miles_from_dt":1.38},{"city":"Parrottsville","state_name":"Tennessee","lat":36.01137,"lng":-83.04979,"zip":"37843","miles_from_dt":8.48},{"city":"Bybee","state_name":"Tennessee","lat":36.09073,"lng":-83.13373,"zip":"37713","miles_from_dt":8.57},{"city":"White Pine","state_name":"Tennessee","lat":36.08144,"lng":-83.29299,"zip":"37890","miles_from_dt":9.06},{"city":"Dandridge","state_name":"Tennessee","lat":35.99778,"lng":-83.39678,"zip":"37725","miles_from_dt":11.39},{"city":"Hartford","state_name":"Tennessee","lat":35.82276,"lng":-83.098,"zip":"37753","miles_from_dt":11.94},{"city":"Cosby","state_name":"Tennessee","lat":35.80611,"lng":-83.23339,"zip":"37722","miles_from_dt":11.97},{"city":"Del Rio","state_name":"Tennessee","lat":35.88885,"lng":-83.00651,"zip":"37727","miles_from_dt":12.19},{"city":"Lowland","state_name":"Tennessee","lat":36.16205,"lng":-83.24906,"zip":"37778","miles_from_dt":13.12},{"city":"Morristown","state_name":"Tennessee","lat":36.17644,"lng":-83.26542,"zip":"37813","miles_from_dt":14.31},{"city":"Mohawk","state_name":"Tennessee","lat":36.17984,"lng":-83.10296,"zip":"37810","miles_from_dt":14.91},{"city":"Midway","state_name":"Tennessee","lat":36.15431,"lng":-83.03611,"zip":"37809","miles_from_dt":15.13},{"city":"Talbott","state_name":"Tennessee","lat":36.15176,"lng":-83.40503,"zip":"37877","miles_from_dt":16.84},{"city":"Morristown","state_name":"Tennessee","lat":36.21365,"lng":-83.29375,"zip":"37815","miles_from_dt":17.23},{"city":"Jefferson City","state_name":"Tennessee","lat":36.10773,"lng":-83.46443,"zip":"37760","miles_from_dt":17.58},{"city":"Sevierville","state_name":"Tennessee","lat":35.8645,"lng":-83.47876,"zip":"37876","miles_from_dt":17.7},{"city":"Morristown","state_name":"Tennessee","lat":36.19212,"lng":-83.37253,"zip":"37816","miles_from_dt":17.86},{"city":"Russellville","state_name":"Tennessee","lat":36.24492,"lng":-83.18441,"zip":"37860","miles_from_dt":18.49},{"city":"Mosheim","state_name":"Tennessee","lat":36.18581,"lng":-82.97233,"zip":"37818","miles_from_dt":19.05},{"city":"Morristown","state_name":"Tennessee","lat":36.23604,"lng":-83.3317,"zip":"37814","miles_from_dt":19.44},{"city":"Greeneville","state_name":"Tennessee","lat":36.06663,"lng":-82.85659,"zip":"37743","miles_from_dt":19.94},{"city":"Hot Springs","state_name":"North Carolina","lat":35.80869,"lng":-82.90114,"zip":"28743","miles_from_dt":20.16},{"city":"Whitesburg","state_name":"Tennessee","lat":36.29172,"lng":-83.13992,"zip":"37891","miles_from_dt":21.93},{"city":"New Market","state_name":"Tennessee","lat":36.08364,"lng":-83.56715,"zip":"37820","miles_from_dt":22.1},{"city":"Bulls Gap","state_name":"Tennessee","lat":36.28102,"lng":-83.03885,"zip":"37711","miles_from_dt":22.72},{"city":"Sevierville","state_name":"Tennessee","lat":35.85686,"lng":-83.57732,"zip":"37864","miles_from_dt":22.98},{"city":"Waynesville","state_name":"North Carolina","lat":35.64632,"lng":-83.08952,"zip":"28785","miles_from_dt":23.55},{"city":"Kodak","state_name":"Tennessee","lat":35.97074,"lng":-83.61585,"zip":"37764","miles_from_dt":23.59},{"city":"Pigeon Forge","state_name":"Tennessee","lat":35.77561,"lng":-83.53784,"zip":"37868","miles_from_dt":23.72},{"city":"Pigeon Forge","state_name":"Tennessee","lat":35.7864,"lng":-83.56367,"zip":"37863","miles_from_dt":24.5},{"city":"Greeneville","state_name":"Tennessee","lat":36.16334,"lng":-82.81243,"zip":"37744","miles_from_dt":24.98},{"city":"Bean Station","state_name":"Tennessee","lat":36.32312,"lng":-83.33588,"zip":"37708","miles_from_dt":25.14},{"city":"Rutledge","state_name":"Tennessee","lat":36.24516,"lng":-83.51421,"zip":"37861","miles_from_dt":25.71},{"city":"Mooresburg","state_name":"Tennessee","lat":36.35558,"lng":-83.2144,"zip":"37811","miles_from_dt":26.13},{"city":"Gatlinburg","state_name":"Tennessee","lat":35.67125,"lng":-83.47641,"zip":"37738","miles_from_dt":26.34},{"city":"Sevierville","state_name":"Tennessee","lat":35.78314,"lng":-83.61232,"zip":"37862","miles_from_dt":26.95},{"city":"Strawberry Plains","state_name":"Tennessee","lat":36.04693,"lng":-83.67932,"zip":"37871","miles_from_dt":27.55},{"city":"Clyde","state_name":"North Carolina","lat":35.63378,"lng":-82.93081,"zip":"28721","miles_from_dt":27.92},{"city":"Marshall","state_name":"North Carolina","lat":35.87181,"lng":-82.7002,"zip":"28753","miles_from_dt":28.68},{"city":"Greeneville","state_name":"Tennessee","lat":36.2784,"lng":-82.82631,"zip":"37745","miles_from_dt":29.29},{"city":"Blaine","state_name":"Tennessee","lat":36.16798,"lng":-83.66479,"zip":"37709","miles_from_dt":29.41}],"targetCityZipCode":"37821","targetCityState":"Tennessee"},"__N_SSG":true}