{"pageProps":{"stateName":"Tennessee","cityName":"only","nearbyCities":[{"city":"Hurricane Mills","state_name":"Tennessee","lat":35.92366,"lng":-87.77138,"zip":"37078","miles_from_dt":7.86},{"city":"Nunnelly","state_name":"Tennessee","lat":35.87912,"lng":-87.50276,"zip":"37137","miles_from_dt":8.47},{"city":"Centerville","state_name":"Tennessee","lat":35.73493,"lng":-87.55365,"zip":"37033","miles_from_dt":10.46},{"city":"Lobelville","state_name":"Tennessee","lat":35.7785,"lng":-87.8303,"zip":"37097","miles_from_dt":11.58},{"city":"McEwen","state_name":"Tennessee","lat":36.06625,"lng":-87.63741,"zip":"37101","miles_from_dt":14.01},{"city":"Waverly","state_name":"Tennessee","lat":36.07118,"lng":-87.8392,"zip":"37185","miles_from_dt":17.74},{"city":"Dickson","state_name":"Tennessee","lat":36.07921,"lng":-87.44238,"zip":"37055","miles_from_dt":18.97},{"city":"Lyles","state_name":"Tennessee","lat":35.87142,"lng":-87.31075,"zip":"37098","miles_from_dt":19.18},{"city":"New Johnsonville","state_name":"Tennessee","lat":36.0014,"lng":-87.95063,"zip":"37134","miles_from_dt":19.24},{"city":"Duck River","state_name":"Tennessee","lat":35.72334,"lng":-87.35538,"zip":"38454","miles_from_dt":19.28},{"city":"Bon Aqua","state_name":"Tennessee","lat":35.95263,"lng":-87.30855,"zip":"37025","miles_from_dt":20.25},{"city":"Linden","state_name":"Tennessee","lat":35.60487,"lng":-87.86054,"zip":"37096","miles_from_dt":21.32},{"city":"Dickson","state_name":"Tennessee","lat":36.0768,"lng":-87.37717,"zip":"37056","miles_from_dt":21.32},{"city":"Sugar Tree","state_name":"Tennessee","lat":35.79114,"lng":-88.03263,"zip":"38380","miles_from_dt":21.92},{"city":"Hohenwald","state_name":"Tennessee","lat":35.53142,"lng":-87.54869,"zip":"38462","miles_from_dt":23.62},{"city":"Holladay","state_name":"Tennessee","lat":35.87677,"lng":-88.08888,"zip":"38341","miles_from_dt":24.51},{"city":"Burns","state_name":"Tennessee","lat":36.04253,"lng":-87.2678,"zip":"37029","miles_from_dt":24.85},{"city":"Primm Springs","state_name":"Tennessee","lat":35.84341,"lng":-87.20984,"zip":"38476","miles_from_dt":24.88},{"city":"Eva","state_name":"Tennessee","lat":36.12236,"lng":-87.9709,"zip":"38333","miles_from_dt":25.24},{"city":"Williamsport","state_name":"Tennessee","lat":35.72163,"lng":-87.23589,"zip":"38487","miles_from_dt":25.36},{"city":"Hampshire","state_name":"Tennessee","lat":35.59514,"lng":-87.33987,"zip":"38461","miles_from_dt":25.51},{"city":"Vanleer","state_name":"Tennessee","lat":36.241,"lng":-87.49706,"zip":"37181","miles_from_dt":27.45},{"city":"Parsons","state_name":"Tennessee","lat":35.68625,"lng":-88.11051,"zip":"38363","miles_from_dt":28.49},{"city":"Camden","state_name":"Tennessee","lat":36.04764,"lng":-88.1095,"zip":"38320","miles_from_dt":28.6},{"city":"Santa Fe","state_name":"Tennessee","lat":35.76792,"lng":-87.14574,"zip":"38482","miles_from_dt":29.21},{"city":"Erin","state_name":"Tennessee","lat":36.28918,"lng":-87.66528,"zip":"37061","miles_from_dt":29.36}],"targetCityZipCode":"37140","targetCityState":"Tennessee"},"__N_SSG":true}