{"pageProps":{"stateName":"Tennessee","cityName":"petersburg","nearbyCities":[{"city":"Belfast","state_name":"Tennessee","lat":35.39094,"lng":-86.70943,"zip":"37019","miles_from_dt":6.64},{"city":"Cornersville","state_name":"Tennessee","lat":35.31291,"lng":-86.83191,"zip":"37047","miles_from_dt":9.96},{"city":"Fayetteville","state_name":"Tennessee","lat":35.16532,"lng":-86.57966,"zip":"37334","miles_from_dt":10.56},{"city":"Frankewing","state_name":"Tennessee","lat":35.19135,"lng":-86.80219,"zip":"38459","miles_from_dt":11.4},{"city":"Lewisburg","state_name":"Tennessee","lat":35.48546,"lng":-86.76405,"zip":"37091","miles_from_dt":13.85},{"city":"Shelbyville","state_name":"Tennessee","lat":35.46562,"lng":-86.48268,"zip":"37160","miles_from_dt":14.76},{"city":"Mulberry","state_name":"Tennessee","lat":35.19776,"lng":-86.4119,"zip":"37359","miles_from_dt":15.66},{"city":"Dellrose","state_name":"Tennessee","lat":35.11923,"lng":-86.81472,"zip":"38453","miles_from_dt":15.66},{"city":"Shelbyville","state_name":"Tennessee","lat":35.48444,"lng":-86.46117,"zip":"37161","miles_from_dt":16.54},{"city":"Lynchburg","state_name":"Tennessee","lat":35.27981,"lng":-86.35417,"zip":"37352","miles_from_dt":17.14},{"city":"Shelbyville","state_name":"Tennessee","lat":35.49154,"lng":-86.44599,"zip":"37162","miles_from_dt":17.48},{"city":"Kelso","state_name":"Tennessee","lat":35.11935,"lng":-86.44222,"zip":"37348","miles_from_dt":17.61},{"city":"Taft","state_name":"Tennessee","lat":35.03906,"lng":-86.68569,"zip":"38488","miles_from_dt":18.42},{"city":"Ardmore","state_name":"Tennessee","lat":35.05231,"lng":-86.82954,"zip":"38449","miles_from_dt":20.01},{"city":"Pulaski","state_name":"Tennessee","lat":35.21565,"lng":-87.01329,"zip":"38478","miles_from_dt":21.13},{"city":"Elkton","state_name":"Tennessee","lat":35.06199,"lng":-86.89366,"zip":"38455","miles_from_dt":21.5},{"city":"Flintville","state_name":"Tennessee","lat":35.06584,"lng":-86.40548,"zip":"37335","miles_from_dt":21.75},{"city":"Unionville","state_name":"Tennessee","lat":35.6189,"lng":-86.57679,"zip":"37180","miles_from_dt":22.08},{"city":"Lynnville","state_name":"Tennessee","lat":35.3773,"lng":-87.03873,"zip":"38472","miles_from_dt":22.19},{"city":"Culleoka","state_name":"Tennessee","lat":35.46706,"lng":-86.99573,"zip":"38451","miles_from_dt":22.2},{"city":"Chapel Hill","state_name":"Tennessee","lat":35.63977,"lng":-86.69158,"zip":"37034","miles_from_dt":23.16},{"city":"Hazel Green","state_name":"Alabama","lat":34.95407,"lng":-86.5951,"zip":"35750","miles_from_dt":24.45},{"city":"Ardmore","state_name":"Alabama","lat":34.96914,"lng":-86.79501,"zip":"35739","miles_from_dt":24.47},{"city":"Wartrace","state_name":"Tennessee","lat":35.5104,"lng":-86.30162,"zip":"37183","miles_from_dt":24.49},{"city":"Normandy","state_name":"Tennessee","lat":35.44702,"lng":-86.25586,"zip":"37360","miles_from_dt":24.61},{"city":"Elora","state_name":"Tennessee","lat":35.02825,"lng":-86.36876,"zip":"37328","miles_from_dt":25.07},{"city":"Tullahoma","state_name":"Tennessee","lat":35.35141,"lng":-86.19747,"zip":"37388","miles_from_dt":26.09},{"city":"Bell Buckle","state_name":"Tennessee","lat":35.62563,"lng":-86.39927,"zip":"37020","miles_from_dt":26.41},{"city":"Prospect","state_name":"Tennessee","lat":35.05075,"lng":-87.00932,"zip":"38477","miles_from_dt":26.61},{"city":"Toney","state_name":"Alabama","lat":34.89431,"lng":-86.71282,"zip":"35773","miles_from_dt":28.51},{"city":"Estill Springs","state_name":"Tennessee","lat":35.28411,"lng":-86.12967,"zip":"37330","miles_from_dt":29.77},{"city":"Huntland","state_name":"Tennessee","lat":35.0366,"lng":-86.24299,"zip":"37345","miles_from_dt":29.81}],"targetCityZipCode":"37144","targetCityState":"Tennessee"},"__N_SSG":true}