{"pageProps":{"stateName":"Tennessee","cityName":"rock-island","nearbyCities":[{"city":"Campaign","state_name":"Tennessee","lat":35.76982,"lng":-85.63268,"zip":"38550","miles_from_dt":2.26},{"city":"Quebeck","state_name":"Tennessee","lat":35.83218,"lng":-85.54919,"zip":"38579","miles_from_dt":7.64},{"city":"Doyle","state_name":"Tennessee","lat":35.80692,"lng":-85.51334,"zip":"38559","miles_from_dt":7.7},{"city":"Walling","state_name":"Tennessee","lat":35.8677,"lng":-85.61723,"zip":"38587","miles_from_dt":8.92},{"city":"Mcminnville","state_name":"Tennessee","lat":35.68775,"lng":-85.77551,"zip":"37111","miles_from_dt":9.34},{"city":"Mcminnville","state_name":"Tennessee","lat":35.6436,"lng":-85.74314,"zip":"37110","miles_from_dt":9.46},{"city":"Spencer","state_name":"Tennessee","lat":35.68995,"lng":-85.42274,"zip":"38585","miles_from_dt":11.66},{"city":"Smartt","state_name":"Tennessee","lat":35.64737,"lng":-85.83397,"zip":"37378","miles_from_dt":13.5},{"city":"Smithville","state_name":"Tennessee","lat":35.92444,"lng":-85.78978,"zip":"37166","miles_from_dt":15.94},{"city":"Sparta","state_name":"Tennessee","lat":35.94649,"lng":-85.43781,"zip":"38583","miles_from_dt":17.67},{"city":"Viola","state_name":"Tennessee","lat":35.53918,"lng":-85.86047,"zip":"37394","miles_from_dt":19.22},{"city":"Morrison","state_name":"Tennessee","lat":35.59454,"lng":-85.92003,"zip":"37357","miles_from_dt":19.51},{"city":"Beersheba Springs","state_name":"Tennessee","lat":35.45795,"lng":-85.70195,"zip":"37305","miles_from_dt":19.86},{"city":"Dowelltown","state_name":"Tennessee","lat":35.98611,"lng":-85.90798,"zip":"37059","miles_from_dt":23.46},{"city":"Altamont","state_name":"Tennessee","lat":35.42765,"lng":-85.80295,"zip":"37301","miles_from_dt":23.73},{"city":"Pikeville","state_name":"Tennessee","lat":35.62959,"lng":-85.21832,"zip":"37367","miles_from_dt":23.88},{"city":"Summitville","state_name":"Tennessee","lat":35.55777,"lng":-85.99317,"zip":"37382","miles_from_dt":24.34},{"city":"Woodbury","state_name":"Tennessee","lat":35.82599,"lng":-86.0424,"zip":"37190","miles_from_dt":24.41},{"city":"Dunlap","state_name":"Tennessee","lat":35.42251,"lng":-85.39993,"zip":"37327","miles_from_dt":25.09},{"city":"Gruetli Laager","state_name":"Tennessee","lat":35.37386,"lng":-85.63222,"zip":"37339","miles_from_dt":25.14},{"city":"Coalmont","state_name":"Tennessee","lat":35.37703,"lng":-85.70245,"zip":"37313","miles_from_dt":25.32},{"city":"Liberty","state_name":"Tennessee","lat":35.98295,"lng":-85.95919,"zip":"37095","miles_from_dt":25.37},{"city":"Palmer","state_name":"Tennessee","lat":35.37287,"lng":-85.54013,"zip":"37365","miles_from_dt":25.61},{"city":"Silver Point","state_name":"Tennessee","lat":36.09431,"lng":-85.75382,"zip":"38582","miles_from_dt":25.64},{"city":"Baxter","state_name":"Tennessee","lat":36.11605,"lng":-85.66238,"zip":"38544","miles_from_dt":26.14},{"city":"Bradyville","state_name":"Tennessee","lat":35.69578,"lng":-86.10746,"zip":"37026","miles_from_dt":27.48},{"city":"Crossville","state_name":"Tennessee","lat":35.84764,"lng":-85.12778,"zip":"38572","miles_from_dt":28.73},{"city":"Lancaster","state_name":"Tennessee","lat":36.10887,"lng":-85.85647,"zip":"38569","miles_from_dt":28.75},{"city":"Pleasant Hill","state_name":"Tennessee","lat":35.98031,"lng":-85.19886,"zip":"38578","miles_from_dt":29},{"city":"Cookeville","state_name":"Tennessee","lat":36.16105,"lng":-85.49944,"zip":"38502","miles_from_dt":29.94}],"targetCityZipCode":"38581","targetCityState":"Tennessee"},"__N_SSG":true}