{"pageProps":{"stateName":"Tennessee","cityName":"sequatchie","nearbyCities":[{"city":"Jasper","state_name":"Tennessee","lat":35.06088,"lng":-85.61894,"zip":"37347","miles_from_dt":7.45},{"city":"Tracy City","state_name":"Tennessee","lat":35.27745,"lng":-85.71427,"zip":"37387","miles_from_dt":8.44},{"city":"South Pittsburg","state_name":"Tennessee","lat":35.07265,"lng":-85.75754,"zip":"37380","miles_from_dt":8.45},{"city":"Whitwell","state_name":"Tennessee","lat":35.21046,"lng":-85.51819,"zip":"37397","miles_from_dt":8.54},{"city":"Monteagle","state_name":"Tennessee","lat":35.22952,"lng":-85.82393,"zip":"37356","miles_from_dt":10.41},{"city":"Guild","state_name":"Tennessee","lat":35.02085,"lng":-85.53179,"zip":"37340","miles_from_dt":12.2},{"city":"Sewanee","state_name":"Tennessee","lat":35.15355,"lng":-85.88173,"zip":"37375","miles_from_dt":12.68},{"city":"Whiteside","state_name":"Tennessee","lat":35.00198,"lng":-85.50353,"zip":"37396","miles_from_dt":14.2},{"city":"Gruetli Laager","state_name":"Tennessee","lat":35.37386,"lng":-85.63222,"zip":"37339","miles_from_dt":14.54},{"city":"Chattanooga","state_name":"Tennessee","lat":35.11757,"lng":-85.40429,"zip":"37405","miles_from_dt":14.73},{"city":"Sewanee","state_name":"Tennessee","lat":35.20984,"lng":-85.91373,"zip":"37383","miles_from_dt":14.8},{"city":"Coalmont","state_name":"Tennessee","lat":35.37703,"lng":-85.70245,"zip":"37313","miles_from_dt":14.89},{"city":"Pelham","state_name":"Tennessee","lat":35.32054,"lng":-85.84224,"zip":"37366","miles_from_dt":14.99},{"city":"Bridgeport","state_name":"Alabama","lat":34.95009,"lng":-85.75855,"zip":"35740","miles_from_dt":15.81},{"city":"Palmer","state_name":"Tennessee","lat":35.37287,"lng":-85.54013,"zip":"37365","miles_from_dt":15.87},{"city":"Chattanooga","state_name":"Tennessee","lat":35.04052,"lng":-85.41734,"zip":"37419","miles_from_dt":16.08},{"city":"Bryant","state_name":"Alabama","lat":34.91796,"lng":-85.64731,"zip":"35958","miles_from_dt":16.97},{"city":"Chattanooga","state_name":"Tennessee","lat":35.14105,"lng":-85.34866,"zip":"37422","miles_from_dt":17.6},{"city":"Cowan","state_name":"Tennessee","lat":35.17879,"lng":-85.97994,"zip":"37318","miles_from_dt":18.24},{"city":"Signal Mountain","state_name":"Tennessee","lat":35.21243,"lng":-85.3389,"zip":"37377","miles_from_dt":18.37},{"city":"Sherwood","state_name":"Tennessee","lat":35.04748,"lng":-85.95834,"zip":"37376","miles_from_dt":18.81},{"city":"Trenton","state_name":"Georgia","lat":34.91136,"lng":-85.53079,"zip":"30752","miles_from_dt":18.86},{"city":"Altamont","state_name":"Tennessee","lat":35.42765,"lng":-85.80295,"zip":"37301","miles_from_dt":19.93},{"city":"Wildwood","state_name":"Georgia","lat":34.94164,"lng":-85.4324,"zip":"30757","miles_from_dt":19.97},{"city":"Decherd","state_name":"Tennessee","lat":35.25251,"lng":-86.00044,"zip":"37324","miles_from_dt":20.3},{"city":"Beersheba Springs","state_name":"Tennessee","lat":35.45795,"lng":-85.70195,"zip":"37305","miles_from_dt":20.41},{"city":"Lookout Mountain","state_name":"Tennessee","lat":34.99445,"lng":-85.3516,"zip":"37350","miles_from_dt":20.94},{"city":"Chattanooga","state_name":"Tennessee","lat":35.0012,"lng":-85.34466,"zip":"37409","miles_from_dt":21.02},{"city":"Chattanooga","state_name":"Tennessee","lat":35.04672,"lng":-85.31553,"zip":"37402","miles_from_dt":21.03},{"city":"Chattanooga","state_name":"Tennessee","lat":35.04897,"lng":-85.31217,"zip":"37450","miles_from_dt":21.15},{"city":"Chattanooga","state_name":"Tennessee","lat":35.12735,"lng":-85.27932,"zip":"37415","miles_from_dt":21.6},{"city":"Chattanooga","state_name":"Tennessee","lat":35.03852,"lng":-85.30885,"zip":"37401","miles_from_dt":21.6},{"city":"Chattanooga","state_name":"Tennessee","lat":35.03048,"lng":-85.31237,"zip":"37408","miles_from_dt":21.65},{"city":"Lookout Mountain","state_name":"Georgia","lat":34.93681,"lng":-85.3882,"zip":"30750","miles_from_dt":21.9},{"city":"Chattanooga","state_name":"Tennessee","lat":35.0476,"lng":-85.29448,"zip":"37403","miles_from_dt":22.11},{"city":"Hillsboro","state_name":"Tennessee","lat":35.38175,"lng":-85.94937,"zip":"37342","miles_from_dt":22.28},{"city":"Chattanooga","state_name":"Tennessee","lat":35.002,"lng":-85.31366,"zip":"37410","miles_from_dt":22.49},{"city":"Stevenson","state_name":"Alabama","lat":34.89152,"lng":-85.88614,"zip":"35772","miles_from_dt":22.8},{"city":"Lupton City","state_name":"Tennessee","lat":35.10073,"lng":-85.26135,"zip":"37351","miles_from_dt":22.89},{"city":"Dunlap","state_name":"Tennessee","lat":35.42251,"lng":-85.39993,"zip":"37327","miles_from_dt":23.03},{"city":"Higdon","state_name":"Alabama","lat":34.82994,"lng":-85.6125,"zip":"35979","miles_from_dt":23.18},{"city":"Chattanooga","state_name":"Tennessee","lat":35.002,"lng":-85.28941,"zip":"37407","miles_from_dt":23.7},{"city":"Chattanooga","state_name":"Tennessee","lat":35.02827,"lng":-85.27331,"zip":"37404","miles_from_dt":23.73},{"city":"Flintstone","state_name":"Georgia","lat":34.92443,"lng":-85.35359,"zip":"30725","miles_from_dt":23.9},{"city":"Chattanooga","state_name":"Tennessee","lat":35.07246,"lng":-85.24541,"zip":"37406","miles_from_dt":24.22},{"city":"Flat Rock","state_name":"Alabama","lat":34.79696,"lng":-85.68833,"zip":"35966","miles_from_dt":25.36},{"city":"Hixson","state_name":"Tennessee","lat":35.16904,"lng":-85.20899,"zip":"37343","miles_from_dt":25.43},{"city":"Arnold Afb","state_name":"Tennessee","lat":35.32018,"lng":-86.06745,"zip":"37389","miles_from_dt":25.53},{"city":"Rossville","state_name":"Georgia","lat":34.95168,"lng":-85.28213,"zip":"30741","miles_from_dt":25.86},{"city":"Chattanooga","state_name":"Tennessee","lat":35.02655,"lng":-85.23026,"zip":"37411","miles_from_dt":26.03},{"city":"Chattanooga","state_name":"Tennessee","lat":35.0262,"lng":-85.23041,"zip":"37414","miles_from_dt":26.03},{"city":"Chattanooga","state_name":"Tennessee","lat":34.9974,"lng":-85.22726,"zip":"37412","miles_from_dt":26.99},{"city":"Winchester","state_name":"Tennessee","lat":35.18182,"lng":-86.13808,"zip":"37398","miles_from_dt":27.19},{"city":"Rising Fawn","state_name":"Georgia","lat":34.79534,"lng":-85.47846,"zip":"30738","miles_from_dt":27.39},{"city":"Estill Springs","state_name":"Tennessee","lat":35.28411,"lng":-86.12967,"zip":"37330","miles_from_dt":27.93},{"city":"Fort Oglethorpe","state_name":"Georgia","lat":34.93566,"lng":-85.24482,"zip":"30742","miles_from_dt":28.23},{"city":"Viola","state_name":"Tennessee","lat":35.53918,"lng":-85.86047,"zip":"37394","miles_from_dt":28.27},{"city":"Chattanooga","state_name":"Tennessee","lat":35.09856,"lng":-85.15751,"zip":"37416","miles_from_dt":28.71},{"city":"Soddy Daisy","state_name":"Tennessee","lat":35.27505,"lng":-85.16771,"zip":"37384","miles_from_dt":28.78},{"city":"Soddy Daisy","state_name":"Tennessee","lat":35.29407,"lng":-85.17429,"zip":"37379","miles_from_dt":28.8}],"targetCityZipCode":"37374","targetCityState":"Tennessee"},"__N_SSG":true}