{"pageProps":{"stateName":"Tennessee","cityName":"stanton","nearbyCities":[{"city":"Mason","state_name":"Tennessee","lat":35.38689,"lng":-89.544,"zip":"38049","miles_from_dt":11.03},{"city":"Brownsville","state_name":"Tennessee","lat":35.60959,"lng":-89.27085,"zip":"38012","miles_from_dt":11.64},{"city":"Laconia","state_name":"Tennessee","lat":35.29216,"lng":-89.3688,"zip":"38045","miles_from_dt":11.72},{"city":"Whiteville","state_name":"Tennessee","lat":35.37197,"lng":-89.15569,"zip":"38075","miles_from_dt":13.67},{"city":"Somerville","state_name":"Tennessee","lat":35.25972,"lng":-89.3349,"zip":"38068","miles_from_dt":14.1},{"city":"Covington","state_name":"Tennessee","lat":35.56114,"lng":-89.6304,"zip":"38019","miles_from_dt":16.11},{"city":"Gallaway","state_name":"Tennessee","lat":35.32715,"lng":-89.61941,"zip":"38036","miles_from_dt":16.8},{"city":"Braden","state_name":"Tennessee","lat":35.20171,"lng":-89.39514,"zip":"38010","miles_from_dt":18},{"city":"Oakland","state_name":"Tennessee","lat":35.21214,"lng":-89.50468,"zip":"38060","miles_from_dt":18.8},{"city":"Mercer","state_name":"Tennessee","lat":35.45908,"lng":-89.03709,"zip":"38392","miles_from_dt":18.86},{"city":"Brighton","state_name":"Tennessee","lat":35.47266,"lng":-89.71415,"zip":"38011","miles_from_dt":19.34},{"city":"Bells","state_name":"Tennessee","lat":35.69507,"lng":-89.09761,"zip":"38006","miles_from_dt":22.27},{"city":"Denmark","state_name":"Tennessee","lat":35.55026,"lng":-88.99033,"zip":"38391","miles_from_dt":22.33},{"city":"Macon","state_name":"Tennessee","lat":35.15183,"lng":-89.48949,"zip":"38048","miles_from_dt":22.4},{"city":"Henning","state_name":"Tennessee","lat":35.64397,"lng":-89.70204,"zip":"38041","miles_from_dt":22.45},{"city":"Atoka","state_name":"Tennessee","lat":35.41909,"lng":-89.76687,"zip":"38004","miles_from_dt":22.5},{"city":"Arlington","state_name":"Tennessee","lat":35.28854,"lng":-89.70926,"zip":"38002","miles_from_dt":22.51},{"city":"Gates","state_name":"Tennessee","lat":35.79433,"lng":-89.39232,"zip":"38037","miles_from_dt":22.94},{"city":"Williston","state_name":"Tennessee","lat":35.12301,"lng":-89.45633,"zip":"38076","miles_from_dt":23.86},{"city":"Eads","state_name":"Tennessee","lat":35.18486,"lng":-89.63474,"zip":"38028","miles_from_dt":24.22},{"city":"Toone","state_name":"Tennessee","lat":35.35144,"lng":-88.96205,"zip":"38381","miles_from_dt":24.34},{"city":"Ripley","state_name":"Tennessee","lat":35.74598,"lng":-89.63412,"zip":"38063","miles_from_dt":24.53},{"city":"Fruitvale","state_name":"Tennessee","lat":35.71881,"lng":-89.06498,"zip":"38336","miles_from_dt":24.72},{"city":"Tipton","state_name":"Tennessee","lat":35.42353,"lng":-89.80798,"zip":"38071","miles_from_dt":24.77},{"city":"Hickory Valley","state_name":"Tennessee","lat":35.15059,"lng":-89.13848,"zip":"38042","miles_from_dt":25.19},{"city":"Munford","state_name":"Tennessee","lat":35.45861,"lng":-89.81933,"zip":"38058","miles_from_dt":25.26},{"city":"Maury City","state_name":"Tennessee","lat":35.81635,"lng":-89.22712,"zip":"38050","miles_from_dt":25.74},{"city":"Bolivar","state_name":"Tennessee","lat":35.24455,"lng":-88.99879,"zip":"38008","miles_from_dt":25.85},{"city":"Brunswick","state_name":"Tennessee","lat":35.26606,"lng":-89.77273,"zip":"38014","miles_from_dt":26.38},{"city":"Burlison","state_name":"Tennessee","lat":35.55948,"lng":-89.82436,"zip":"38015","miles_from_dt":26.39},{"city":"Alamo","state_name":"Tennessee","lat":35.81323,"lng":-89.15505,"zip":"38001","miles_from_dt":27.1},{"city":"Medon","state_name":"Tennessee","lat":35.43877,"lng":-88.89029,"zip":"38356","miles_from_dt":27.19},{"city":"Moscow","state_name":"Tennessee","lat":35.05381,"lng":-89.36772,"zip":"38057","miles_from_dt":28.15},{"city":"Rossville","state_name":"Tennessee","lat":35.07421,"lng":-89.53944,"zip":"38066","miles_from_dt":28.38},{"city":"Cordova","state_name":"Tennessee","lat":35.17956,"lng":-89.76046,"zip":"38016","miles_from_dt":29.37},{"city":"Memphis","state_name":"Tennessee","lat":35.21292,"lng":-89.79474,"zip":"38133","miles_from_dt":29.44},{"city":"Halls","state_name":"Tennessee","lat":35.88185,"lng":-89.48065,"zip":"38040","miles_from_dt":29.58},{"city":"La Grange","state_name":"Tennessee","lat":35.04598,"lng":-89.24408,"zip":"38046","miles_from_dt":29.58},{"city":"Millington","state_name":"Tennessee","lat":35.3358,"lng":-89.8744,"zip":"38054","miles_from_dt":29.69},{"city":"Ellendale","state_name":"Tennessee","lat":35.24205,"lng":-89.82351,"zip":"38029","miles_from_dt":29.7},{"city":"Grand Junction","state_name":"Tennessee","lat":35.0571,"lng":-89.18545,"zip":"38039","miles_from_dt":29.84}],"targetCityZipCode":"38069","targetCityState":"Tennessee"},"__N_SSG":true}