{"pageProps":{"stateName":"Tennessee","cityName":"toone","nearbyCities":[{"city":"Medon","state_name":"Tennessee","lat":35.43877,"lng":-88.89029,"zip":"38356","miles_from_dt":7.26},{"city":"Silerton","state_name":"Tennessee","lat":35.36219,"lng":-88.8292,"zip":"38377","miles_from_dt":7.54},{"city":"Bolivar","state_name":"Tennessee","lat":35.24455,"lng":-88.99879,"zip":"38008","miles_from_dt":7.66},{"city":"Mercer","state_name":"Tennessee","lat":35.45908,"lng":-89.03709,"zip":"38392","miles_from_dt":8.54},{"city":"Whiteville","state_name":"Tennessee","lat":35.37197,"lng":-89.15569,"zip":"38075","miles_from_dt":11.03},{"city":"Hornsby","state_name":"Tennessee","lat":35.20736,"lng":-88.80244,"zip":"38044","miles_from_dt":13.42},{"city":"Denmark","state_name":"Tennessee","lat":35.55026,"lng":-88.99033,"zip":"38391","miles_from_dt":13.8},{"city":"Pinson","state_name":"Tennessee","lat":35.47797,"lng":-88.74461,"zip":"38366","miles_from_dt":15.06},{"city":"Henderson","state_name":"Tennessee","lat":35.40021,"lng":-88.68226,"zip":"38340","miles_from_dt":16.15},{"city":"Hickory Valley","state_name":"Tennessee","lat":35.15059,"lng":-89.13848,"zip":"38042","miles_from_dt":17.07},{"city":"Jackson","state_name":"Tennessee","lat":35.57268,"lng":-88.8213,"zip":"38314","miles_from_dt":17.19},{"city":"Jackson","state_name":"Tennessee","lat":35.59022,"lng":-88.86077,"zip":"38302","miles_from_dt":17.42},{"city":"Jackson","state_name":"Tennessee","lat":35.5908,"lng":-88.8531,"zip":"38301","miles_from_dt":17.61},{"city":"Jackson","state_name":"Tennessee","lat":35.59363,"lng":-88.82053,"zip":"38308","miles_from_dt":18.51},{"city":"Middleton","state_name":"Tennessee","lat":35.08574,"lng":-88.91308,"zip":"38052","miles_from_dt":18.53},{"city":"Saulsbury","state_name":"Tennessee","lat":35.08561,"lng":-89.04804,"zip":"38067","miles_from_dt":18.96},{"city":"Bethel Springs","state_name":"Tennessee","lat":35.26918,"lng":-88.6241,"zip":"38315","miles_from_dt":19.92},{"city":"Finger","state_name":"Tennessee","lat":35.35342,"lng":-88.58977,"zip":"38334","miles_from_dt":21.03},{"city":"Jackson","state_name":"Tennessee","lat":35.63927,"lng":-88.82373,"zip":"38303","miles_from_dt":21.32},{"city":"Somerville","state_name":"Tennessee","lat":35.25972,"lng":-89.3349,"zip":"38068","miles_from_dt":22},{"city":"Pocahontas","state_name":"Tennessee","lat":35.06704,"lng":-88.7647,"zip":"38061","miles_from_dt":22.56},{"city":"Laconia","state_name":"Tennessee","lat":35.29216,"lng":-89.3688,"zip":"38045","miles_from_dt":23.34},{"city":"Grand Junction","state_name":"Tennessee","lat":35.0571,"lng":-89.18545,"zip":"38039","miles_from_dt":23.91},{"city":"Stanton","state_name":"Tennessee","lat":35.46209,"lng":-89.37151,"zip":"38069","miles_from_dt":24.34},{"city":"Selmer","state_name":"Tennessee","lat":35.16142,"lng":-88.58811,"zip":"38375","miles_from_dt":24.87},{"city":"Bells","state_name":"Tennessee","lat":35.69507,"lng":-89.09761,"zip":"38006","miles_from_dt":24.89},{"city":"Brownsville","state_name":"Tennessee","lat":35.60959,"lng":-89.27085,"zip":"38012","miles_from_dt":24.9},{"city":"Beech Bluff","state_name":"Tennessee","lat":35.60107,"lng":-88.62541,"zip":"38313","miles_from_dt":25.62},{"city":"Fruitvale","state_name":"Tennessee","lat":35.71881,"lng":-89.06498,"zip":"38336","miles_from_dt":25.98},{"city":"La Grange","state_name":"Tennessee","lat":35.04598,"lng":-89.24408,"zip":"38046","miles_from_dt":26.42},{"city":"Jackson","state_name":"Tennessee","lat":35.70108,"lng":-88.76779,"zip":"38305","miles_from_dt":26.47},{"city":"Braden","state_name":"Tennessee","lat":35.20171,"lng":-89.39514,"zip":"38010","miles_from_dt":26.57},{"city":"Luray","state_name":"Tennessee","lat":35.53037,"lng":-88.53308,"zip":"38352","miles_from_dt":27.16},{"city":"Jacks Creek","state_name":"Tennessee","lat":35.47632,"lng":-88.49846,"zip":"38347","miles_from_dt":27.54},{"city":"Chewalla","state_name":"Tennessee","lat":35.05464,"lng":-88.63584,"zip":"38393","miles_from_dt":27.56},{"city":"Oakfield","state_name":"Tennessee","lat":35.72696,"lng":-88.78508,"zip":"38362","miles_from_dt":27.74},{"city":"Ramer","state_name":"Tennessee","lat":35.05266,"lng":-88.62728,"zip":"38367","miles_from_dt":27.98},{"city":"Walnut","state_name":"Mississippi","lat":34.93504,"lng":-88.85997,"zip":"38683","miles_from_dt":29.28}],"targetCityZipCode":"38381","targetCityState":"Tennessee"},"__N_SSG":true}