{"pageProps":{"stateName":"Tennessee","cityName":"wartrace","nearbyCities":[{"city":"Normandy","state_name":"Tennessee","lat":35.44702,"lng":-86.25586,"zip":"37360","miles_from_dt":5.07},{"city":"Shelbyville","state_name":"Tennessee","lat":35.49154,"lng":-86.44599,"zip":"37162","miles_from_dt":8.24},{"city":"Shelbyville","state_name":"Tennessee","lat":35.48444,"lng":-86.46117,"zip":"37161","miles_from_dt":9.17},{"city":"Bell Buckle","state_name":"Tennessee","lat":35.62563,"lng":-86.39927,"zip":"37020","miles_from_dt":9.66},{"city":"Shelbyville","state_name":"Tennessee","lat":35.46562,"lng":-86.48268,"zip":"37160","miles_from_dt":10.67},{"city":"Beechgrove","state_name":"Tennessee","lat":35.64255,"lng":-86.19876,"zip":"37018","miles_from_dt":10.8},{"city":"Tullahoma","state_name":"Tennessee","lat":35.35141,"lng":-86.19747,"zip":"37388","miles_from_dt":12.44},{"city":"Manchester","state_name":"Tennessee","lat":35.50843,"lng":-86.07866,"zip":"37355","miles_from_dt":12.57},{"city":"Manchester","state_name":"Tennessee","lat":35.4676,"lng":-86.08333,"zip":"37349","miles_from_dt":12.66},{"city":"Christiana","state_name":"Tennessee","lat":35.70272,"lng":-86.35318,"zip":"37037","miles_from_dt":13.57},{"city":"Lynchburg","state_name":"Tennessee","lat":35.27981,"lng":-86.35417,"zip":"37352","miles_from_dt":16.17},{"city":"Bradyville","state_name":"Tennessee","lat":35.69578,"lng":-86.10746,"zip":"37026","miles_from_dt":16.82},{"city":"Fosterville","state_name":"Tennessee","lat":35.74544,"lng":-86.38811,"zip":"37063","miles_from_dt":16.92},{"city":"Unionville","state_name":"Tennessee","lat":35.6189,"lng":-86.57679,"zip":"37180","miles_from_dt":17.21},{"city":"Summitville","state_name":"Tennessee","lat":35.55777,"lng":-85.99317,"zip":"37382","miles_from_dt":17.69},{"city":"Estill Springs","state_name":"Tennessee","lat":35.28411,"lng":-86.12967,"zip":"37330","miles_from_dt":18.37},{"city":"Murfreesboro","state_name":"Tennessee","lat":35.77947,"lng":-86.32723,"zip":"37127","miles_from_dt":18.61},{"city":"Arnold Afb","state_name":"Tennessee","lat":35.32018,"lng":-86.06745,"zip":"37389","miles_from_dt":18.62},{"city":"Readyville","state_name":"Tennessee","lat":35.80876,"lng":-86.19311,"zip":"37149","miles_from_dt":21.46},{"city":"Hillsboro","state_name":"Tennessee","lat":35.38175,"lng":-85.94937,"zip":"37342","miles_from_dt":21.76},{"city":"Morrison","state_name":"Tennessee","lat":35.59454,"lng":-85.92003,"zip":"37357","miles_from_dt":22.27},{"city":"Murfreesboro","state_name":"Tennessee","lat":35.80343,"lng":-86.47483,"zip":"37128","miles_from_dt":22.43},{"city":"Mulberry","state_name":"Tennessee","lat":35.19776,"lng":-86.4119,"zip":"37359","miles_from_dt":22.44},{"city":"Rockvale","state_name":"Tennessee","lat":35.7645,"lng":-86.55531,"zip":"37153","miles_from_dt":22.6},{"city":"Murfreesboro","state_name":"Tennessee","lat":35.84027,"lng":-86.39405,"zip":"37133","miles_from_dt":23.33},{"city":"Murfreesboro","state_name":"Tennessee","lat":35.84873,"lng":-86.36284,"zip":"37132","miles_from_dt":23.58},{"city":"Chapel Hill","state_name":"Tennessee","lat":35.63977,"lng":-86.69158,"zip":"37034","miles_from_dt":23.71},{"city":"Murfreesboro","state_name":"Tennessee","lat":35.85324,"lng":-86.39602,"zip":"37131","miles_from_dt":24.23},{"city":"Belfast","state_name":"Tennessee","lat":35.39094,"lng":-86.70943,"zip":"37019","miles_from_dt":24.43},{"city":"Winchester","state_name":"Tennessee","lat":35.18182,"lng":-86.13808,"zip":"37398","miles_from_dt":24.46},{"city":"Petersburg","state_name":"Tennessee","lat":35.30516,"lng":-86.65585,"zip":"37144","miles_from_dt":24.49},{"city":"Decherd","state_name":"Tennessee","lat":35.25251,"lng":-86.00044,"zip":"37324","miles_from_dt":24.6},{"city":"Eagleville","state_name":"Tennessee","lat":35.74924,"lng":-86.63428,"zip":"37060","miles_from_dt":24.93},{"city":"Viola","state_name":"Tennessee","lat":35.53918,"lng":-85.86047,"zip":"37394","miles_from_dt":24.94},{"city":"Murfreesboro","state_name":"Tennessee","lat":35.8809,"lng":-86.33003,"zip":"37130","miles_from_dt":25.59},{"city":"Lewisburg","state_name":"Tennessee","lat":35.48546,"lng":-86.76405,"zip":"37091","miles_from_dt":26.13},{"city":"Woodbury","state_name":"Tennessee","lat":35.82599,"lng":-86.0424,"zip":"37190","miles_from_dt":26.19},{"city":"Smartt","state_name":"Tennessee","lat":35.64737,"lng":-85.83397,"zip":"37378","miles_from_dt":27.98},{"city":"Kelso","state_name":"Tennessee","lat":35.11935,"lng":-86.44222,"zip":"37348","miles_from_dt":28.1},{"city":"Fayetteville","state_name":"Tennessee","lat":35.16532,"lng":-86.57966,"zip":"37334","miles_from_dt":28.51},{"city":"Altamont","state_name":"Tennessee","lat":35.42765,"lng":-85.80295,"zip":"37301","miles_from_dt":28.7},{"city":"Pelham","state_name":"Tennessee","lat":35.32054,"lng":-85.84224,"zip":"37366","miles_from_dt":29.04},{"city":"Belvidere","state_name":"Tennessee","lat":35.09776,"lng":-86.18928,"zip":"37306","miles_from_dt":29.15},{"city":"Cowan","state_name":"Tennessee","lat":35.17879,"lng":-85.97994,"zip":"37318","miles_from_dt":29.2},{"city":"Milton","state_name":"Tennessee","lat":35.92569,"lng":-86.18903,"zip":"37118","miles_from_dt":29.32},{"city":"Murfreesboro","state_name":"Tennessee","lat":35.92556,"lng":-86.44098,"zip":"37129","miles_from_dt":29.68},{"city":"College Grove","state_name":"Tennessee","lat":35.77995,"lng":-86.71582,"zip":"37046","miles_from_dt":29.81}],"targetCityZipCode":"37183","targetCityState":"Tennessee"},"__N_SSG":true}