{"pageProps":{"stateName":"Tennessee","cityName":"wynnburg","nearbyCities":[{"city":"Tiptonville","state_name":"Tennessee","lat":36.41378,"lng":-89.47032,"zip":"38079","miles_from_dt":5.88},{"city":"Samburg","state_name":"Tennessee","lat":36.37444,"lng":-89.34662,"zip":"38254","miles_from_dt":7.8},{"city":"Hornbeak","state_name":"Tennessee","lat":36.34828,"lng":-89.32295,"zip":"38232","miles_from_dt":8.56},{"city":"Ridgely","state_name":"Tennessee","lat":36.20295,"lng":-89.52142,"zip":"38080","miles_from_dt":9.05},{"city":"Obion","state_name":"Tennessee","lat":36.25091,"lng":-89.32045,"zip":"38240","miles_from_dt":10.12},{"city":"Bogota","state_name":"Tennessee","lat":36.16422,"lng":-89.43925,"zip":"38007","miles_from_dt":11.5},{"city":"Portageville","state_name":"Missouri","lat":36.42791,"lng":-89.65965,"zip":"63873","miles_from_dt":12.4},{"city":"Hayti","state_name":"Missouri","lat":36.25762,"lng":-89.72352,"zip":"63851","miles_from_dt":14.74},{"city":"Troy","state_name":"Tennessee","lat":36.36961,"lng":-89.21128,"zip":"38260","miles_from_dt":14.95},{"city":"Marston","state_name":"Missouri","lat":36.52606,"lng":-89.60654,"zip":"63866","miles_from_dt":15.48},{"city":"Caruthersville","state_name":"Missouri","lat":36.14065,"lng":-89.6871,"zip":"63830","miles_from_dt":17.58},{"city":"Trimble","state_name":"Tennessee","lat":36.20204,"lng":-89.18439,"zip":"38259","miles_from_dt":18.39},{"city":"Lenox","state_name":"Tennessee","lat":36.06499,"lng":-89.55569,"zip":"38047","miles_from_dt":18.73},{"city":"Wardell","state_name":"Missouri","lat":36.35752,"lng":-89.80945,"zip":"63879","miles_from_dt":18.8},{"city":"New Madrid","state_name":"Missouri","lat":36.60768,"lng":-89.48111,"zip":"63869","miles_from_dt":19.25},{"city":"Newbern","state_name":"Tennessee","lat":36.11132,"lng":-89.24113,"zip":"38059","miles_from_dt":19.85},{"city":"Dyersburg","state_name":"Tennessee","lat":36.03743,"lng":-89.38511,"zip":"38024","miles_from_dt":20.68},{"city":"Dyersburg","state_name":"Tennessee","lat":36.03608,"lng":-89.38331,"zip":"38025","miles_from_dt":20.8},{"city":"Woodland Mills","state_name":"Tennessee","lat":36.43031,"lng":-89.123,"zip":"38271","miles_from_dt":20.81},{"city":"Lilbourn","state_name":"Missouri","lat":36.58974,"lng":-89.67345,"zip":"63862","miles_from_dt":21.15},{"city":"Union City","state_name":"Tennessee","lat":36.43214,"lng":-89.11583,"zip":"38261","miles_from_dt":21.23},{"city":"Hickman","state_name":"Kentucky","lat":36.54675,"lng":-89.20347,"zip":"42050","miles_from_dt":21.31},{"city":"Tallapoosa","state_name":"Missouri","lat":36.50302,"lng":-89.82234,"zip":"63878","miles_from_dt":22.82},{"city":"Braggadocio","state_name":"Missouri","lat":36.18361,"lng":-89.84486,"zip":"63826","miles_from_dt":22.97},{"city":"Rives","state_name":"Tennessee","lat":36.29821,"lng":-89.05822,"zip":"38253","miles_from_dt":23.32},{"city":"Finley","state_name":"Tennessee","lat":35.99942,"lng":-89.59981,"zip":"38030","miles_from_dt":23.75},{"city":"Bragg City","state_name":"Missouri","lat":36.26133,"lng":-89.89226,"zip":"63827","miles_from_dt":23.78},{"city":"Gideon","state_name":"Missouri","lat":36.44053,"lng":-89.88219,"zip":"63848","miles_from_dt":24.01},{"city":"Union City","state_name":"Tennessee","lat":36.42585,"lng":-89.04984,"zip":"38281","miles_from_dt":24.61},{"city":"Risco","state_name":"Missouri","lat":36.55566,"lng":-89.81645,"zip":"63874","miles_from_dt":24.67},{"city":"Deering","state_name":"Missouri","lat":36.19113,"lng":-89.88426,"zip":"63840","miles_from_dt":24.77},{"city":"Kewanee","state_name":"Missouri","lat":36.67462,"lng":-89.59449,"zip":"63860","miles_from_dt":24.78},{"city":"Yorkville","state_name":"Tennessee","lat":36.10315,"lng":-89.12134,"zip":"38389","miles_from_dt":25.11},{"city":"Kenton","state_name":"Tennessee","lat":36.20411,"lng":-89.04622,"zip":"38233","miles_from_dt":25.4},{"city":"Catron","state_name":"Missouri","lat":36.64779,"lng":-89.73023,"zip":"63833","miles_from_dt":26.22},{"city":"Cooter","state_name":"Missouri","lat":36.04748,"lng":-89.8097,"zip":"63839","miles_from_dt":26.96},{"city":"Steele","state_name":"Missouri","lat":36.07377,"lng":-89.85118,"zip":"63877","miles_from_dt":27.42},{"city":"East Prairie","state_name":"Missouri","lat":36.70944,"lng":-89.31505,"zip":"63845","miles_from_dt":27.72},{"city":"Parma","state_name":"Missouri","lat":36.61942,"lng":-89.84471,"zip":"63870","miles_from_dt":28.77},{"city":"Holland","state_name":"Missouri","lat":36.05834,"lng":-89.86738,"zip":"63853","miles_from_dt":28.8},{"city":"Matthews","state_name":"Missouri","lat":36.74475,"lng":-89.5465,"zip":"63867","miles_from_dt":28.98},{"city":"Clarkton","state_name":"Missouri","lat":36.44907,"lng":-89.98023,"zip":"63837","miles_from_dt":29.4},{"city":"Tigrett","state_name":"Tennessee","lat":35.94045,"lng":-89.24915,"zip":"38070","miles_from_dt":29.57}],"targetCityZipCode":"38077","targetCityState":"Tennessee"},"__N_SSG":true}