{"pageProps":{"stateName":"Idaho","cityName":"arbon","nearbyCities":[{"city":"Arimo","state_name":"Idaho","lat":42.54495,"lng":-112.29362,"zip":"83214","miles_from_dt":13.24},{"city":"Rockland","state_name":"Idaho","lat":42.4574,"lng":-112.84551,"zip":"83271","miles_from_dt":15.59},{"city":"Holbrook","state_name":"Idaho","lat":42.24444,"lng":-112.67292,"zip":"83243","miles_from_dt":19.31},{"city":"Pocatello","state_name":"Idaho","lat":42.79219,"lng":-112.51877,"zip":"83204","miles_from_dt":19.64},{"city":"Mccammon","state_name":"Idaho","lat":42.67228,"lng":-112.20865,"zip":"83250","miles_from_dt":20.69},{"city":"Pocatello","state_name":"Idaho","lat":42.84349,"lng":-112.46617,"zip":"83205","miles_from_dt":23.5},{"city":"Malad City","state_name":"Idaho","lat":42.18979,"lng":-112.38411,"zip":"83252","miles_from_dt":23.55},{"city":"Downey","state_name":"Idaho","lat":42.41661,"lng":-112.09482,"zip":"83234","miles_from_dt":24.03},{"city":"Pocatello","state_name":"Idaho","lat":42.85782,"lng":-112.42619,"zip":"83209","miles_from_dt":24.9},{"city":"Pocatello","state_name":"Idaho","lat":42.86382,"lng":-112.45309,"zip":"83206","miles_from_dt":25},{"city":"Lava Hot Springs","state_name":"Idaho","lat":42.60616,"lng":-112.03051,"zip":"83246","miles_from_dt":27.27},{"city":"Inkom","state_name":"Idaho","lat":42.82286,"lng":-112.21713,"zip":"83245","miles_from_dt":27.49},{"city":"Pocatello","state_name":"Idaho","lat":42.88949,"lng":-112.38324,"zip":"83201","miles_from_dt":27.61},{"city":"American Falls","state_name":"Idaho","lat":42.66257,"lng":-113.06186,"zip":"83211","miles_from_dt":28.27}],"targetCityZipCode":"83212","targetCityState":"Idaho"},"__N_SSG":true}