{"pageProps":{"stateName":"Florida","cityName":"clewiston","nearbyCities":[{"city":"Lake Harbor","state_name":"Florida","lat":26.69346,"lng":-80.81772,"zip":"33459","miles_from_dt":17.48},{"city":"South Bay","state_name":"Florida","lat":26.47559,"lng":-80.72306,"zip":"33493","miles_from_dt":20.33},{"city":"Immokalee","state_name":"Florida","lat":26.31392,"lng":-81.28601,"zip":"34142","miles_from_dt":21.68},{"city":"Felda","state_name":"Florida","lat":26.55916,"lng":-81.40069,"zip":"33930","miles_from_dt":22.17},{"city":"Immokalee","state_name":"Florida","lat":26.42948,"lng":-81.43348,"zip":"34143","miles_from_dt":25.36},{"city":"Moore Haven","state_name":"Florida","lat":26.9105,"lng":-81.19754,"zip":"33471","miles_from_dt":27.19},{"city":"Labelle","state_name":"Florida","lat":26.75692,"lng":-81.41966,"zip":"33935","miles_from_dt":27.64},{"city":"Labelle","state_name":"Florida","lat":26.75882,"lng":-81.44101,"zip":"33975","miles_from_dt":28.83},{"city":"Belle Glade","state_name":"Florida","lat":26.61415,"lng":-80.57952,"zip":"33430","miles_from_dt":29.15}],"targetCityZipCode":"33440","targetCityState":"Florida"},"__N_SSG":true}