{"pageProps":{"stateName":"Florida","cityName":"deltona","nearbyCities":[{"city":"Deltona","state_name":"Florida","lat":28.87149,"lng":-81.23827,"zip":"32728","miles_from_dt":1.12},{"city":"Deltona","state_name":"Florida","lat":28.91003,"lng":-81.20728,"zip":"32739","miles_from_dt":3.19},{"city":"Debary","state_name":"Florida","lat":28.88,"lng":-81.31219,"zip":"32753","miles_from_dt":3.74},{"city":"Deltona","state_name":"Florida","lat":28.90755,"lng":-81.18862,"zip":"32738","miles_from_dt":4.1},{"city":"Debary","state_name":"Florida","lat":28.8816,"lng":-81.3238,"zip":"32713","miles_from_dt":4.44},{"city":"Orange City","state_name":"Florida","lat":28.94291,"lng":-81.30593,"zip":"32763","miles_from_dt":5.28},{"city":"Orange City","state_name":"Florida","lat":28.95128,"lng":-81.29927,"zip":"32774","miles_from_dt":5.51},{"city":"Cassadaga","state_name":"Florida","lat":28.9672,"lng":-81.23631,"zip":"32706","miles_from_dt":5.82},{"city":"Lake Monroe","state_name":"Florida","lat":28.82221,"lng":-81.31974,"zip":"32747","miles_from_dt":5.96},{"city":"Sanford","state_name":"Florida","lat":28.81496,"lng":-81.31751,"zip":"32771","miles_from_dt":6.23},{"city":"Lake Helen","state_name":"Florida","lat":28.98497,"lng":-81.21899,"zip":"32744","miles_from_dt":7.23},{"city":"Sanford","state_name":"Florida","lat":28.76754,"lng":-81.24685,"zip":"32772","miles_from_dt":8},{"city":"Sanford","state_name":"Florida","lat":28.75264,"lng":-81.24659,"zip":"32773","miles_from_dt":9.03},{"city":"Lake Mary","state_name":"Florida","lat":28.75885,"lng":-81.3319,"zip":"32795","miles_from_dt":9.91},{"city":"Deland","state_name":"Florida","lat":29.02719,"lng":-81.29561,"zip":"32721","miles_from_dt":10.25},{"city":"Lake Mary","state_name":"Florida","lat":28.76297,"lng":-81.35499,"zip":"32746","miles_from_dt":10.45},{"city":"Deland","state_name":"Florida","lat":29.03454,"lng":-81.30452,"zip":"32723","miles_from_dt":10.89},{"city":"Osteen","state_name":"Florida","lat":28.83883,"lng":-81.07239,"zip":"32764","miles_from_dt":11.24},{"city":"Deland","state_name":"Florida","lat":29.0506,"lng":-81.23284,"zip":"32724","miles_from_dt":11.55},{"city":"Deland","state_name":"Florida","lat":29.01775,"lng":-81.37802,"zip":"32720","miles_from_dt":12.03},{"city":"Geneva","state_name":"Florida","lat":28.74565,"lng":-81.10563,"zip":"32732","miles_from_dt":12.95},{"city":"Longwood","state_name":"Florida","lat":28.7074,"lng":-81.34955,"zip":"32750","miles_from_dt":13.54},{"city":"Winter Springs","state_name":"Florida","lat":28.68751,"lng":-81.27086,"zip":"32708","miles_from_dt":13.57},{"city":"Winter Springs","state_name":"Florida","lat":28.68368,"lng":-81.2764,"zip":"32719","miles_from_dt":13.86},{"city":"Longwood","state_name":"Florida","lat":28.71215,"lng":-81.39151,"zip":"32752","miles_from_dt":14.58},{"city":"New Smyrna Beach","state_name":"Florida","lat":28.98214,"lng":-81.03721,"zip":"32168","miles_from_dt":14.6},{"city":"Eustis","state_name":"Florida","lat":28.89831,"lng":-81.49317,"zip":"32736","miles_from_dt":14.74},{"city":"Glenwood","state_name":"Florida","lat":29.07924,"lng":-81.35296,"zip":"32722","miles_from_dt":14.83},{"city":"Longwood","state_name":"Florida","lat":28.71632,"lng":-81.41343,"zip":"32779","miles_from_dt":15.18},{"city":"Sorrento","state_name":"Florida","lat":28.81033,"lng":-81.4872,"zip":"32776","miles_from_dt":15.21},{"city":"Oviedo","state_name":"Florida","lat":28.66732,"lng":-81.20033,"zip":"32765","miles_from_dt":15.21},{"city":"Casselberry","state_name":"Florida","lat":28.66255,"lng":-81.31403,"zip":"32707","miles_from_dt":15.71},{"city":"Casselberry","state_name":"Florida","lat":28.66326,"lng":-81.32477,"zip":"32718","miles_from_dt":15.83},{"city":"Oviedo","state_name":"Florida","lat":28.65829,"lng":-81.1813,"zip":"32762","miles_from_dt":16.08},{"city":"Longwood","state_name":"Florida","lat":28.70331,"lng":-81.41995,"zip":"32791","miles_from_dt":16.12},{"city":"Altamonte Springs","state_name":"Florida","lat":28.66674,"lng":-81.35961,"zip":"32715","miles_from_dt":16.34},{"city":"Altamonte Springs","state_name":"Florida","lat":28.66509,"lng":-81.36916,"zip":"32701","miles_from_dt":16.68},{"city":"Casselberry","state_name":"Florida","lat":28.65242,"lng":-81.34301,"zip":"32730","miles_from_dt":16.88},{"city":"Altamonte Springs","state_name":"Florida","lat":28.66381,"lng":-81.40321,"zip":"32716","miles_from_dt":17.75},{"city":"Goldenrod","state_name":"Florida","lat":28.62365,"lng":-81.26414,"zip":"32733","miles_from_dt":17.93},{"city":"Altamonte Springs","state_name":"Florida","lat":28.66237,"lng":-81.4115,"zip":"32714","miles_from_dt":18.1},{"city":"Port Orange","state_name":"Florida","lat":29.09773,"lng":-81.07467,"zip":"32128","miles_from_dt":18.19},{"city":"Mid Florida","state_name":"Florida","lat":28.63023,"lng":-81.35494,"zip":"32799","miles_from_dt":18.57},{"city":"Maitland","state_name":"Florida","lat":28.631,"lng":-81.36457,"zip":"32751","miles_from_dt":18.73},{"city":"Paisley","state_name":"Florida","lat":29.01957,"lng":-81.52065,"zip":"32767","miles_from_dt":18.85},{"city":"Maitland","state_name":"Florida","lat":28.62762,"lng":-81.36562,"zip":"32794","miles_from_dt":18.97},{"city":"Winter Park","state_name":"Florida","lat":28.61066,"lng":-81.29923,"zip":"32792","miles_from_dt":19.03},{"city":"Oviedo","state_name":"Florida","lat":28.64761,"lng":-81.08124,"zip":"32766","miles_from_dt":19.23},{"city":"De Leon Springs","state_name":"Florida","lat":29.15704,"lng":-81.34501,"zip":"32130","miles_from_dt":19.67},{"city":"Daytona Beach","state_name":"Florida","lat":29.15802,"lng":-81.15732,"zip":"32124","miles_from_dt":19.72},{"city":"Orlando","state_name":"Florida","lat":28.60075,"lng":-81.19511,"zip":"32816","miles_from_dt":19.77},{"city":"Orlando","state_name":"Florida","lat":28.59002,"lng":-81.2445,"zip":"32817","miles_from_dt":20.23},{"city":"Winter Park","state_name":"Florida","lat":28.59977,"lng":-81.35235,"zip":"32789","miles_from_dt":20.5},{"city":"Apopka","state_name":"Florida","lat":28.72917,"lng":-81.54103,"zip":"32712","miles_from_dt":20.58},{"city":"Winter Park","state_name":"Florida","lat":28.662,"lng":-81.48316,"zip":"32793","miles_from_dt":20.79},{"city":"Edgewater","state_name":"Florida","lat":28.97731,"lng":-80.92345,"zip":"32132","miles_from_dt":20.84},{"city":"Winter Park","state_name":"Florida","lat":28.5894,"lng":-81.33044,"zip":"32790","miles_from_dt":20.84},{"city":"Orlando","state_name":"Florida","lat":28.6248,"lng":-81.42959,"zip":"32860","miles_from_dt":20.88},{"city":"Orlando","state_name":"Florida","lat":28.58543,"lng":-81.18263,"zip":"32826","miles_from_dt":20.95},{"city":"Orlando","state_name":"Florida","lat":28.62113,"lng":-81.42863,"zip":"32810","miles_from_dt":21.06},{"city":"Oak Hill","state_name":"Florida","lat":28.84004,"lng":-80.9034,"zip":"32759","miles_from_dt":21.26},{"city":"Edgewater","state_name":"Florida","lat":28.92322,"lng":-80.90196,"zip":"32141","miles_from_dt":21.3},{"city":"Orlando","state_name":"Florida","lat":28.56731,"lng":-81.2555,"zip":"32867","miles_from_dt":21.79},{"city":"Orlando","state_name":"Florida","lat":28.58493,"lng":-81.12127,"zip":"32820","miles_from_dt":22.02},{"city":"Orlando","state_name":"Florida","lat":28.57002,"lng":-81.32663,"zip":"32814","miles_from_dt":22.09},{"city":"Orlando","state_name":"Florida","lat":28.56358,"lng":-81.20696,"zip":"32834","miles_from_dt":22.2},{"city":"Port Orange","state_name":"Florida","lat":29.13721,"lng":-81.02381,"zip":"32129","miles_from_dt":22.21},{"city":"Orlando","state_name":"Florida","lat":28.56054,"lng":-81.29671,"zip":"32857","miles_from_dt":22.43},{"city":"Daytona Beach","state_name":"Florida","lat":29.14535,"lng":-81.02937,"zip":"32122","miles_from_dt":22.45},{"city":"Port Orange","state_name":"Florida","lat":29.10866,"lng":-80.97907,"zip":"32127","miles_from_dt":22.59},{"city":"Port Orange","state_name":"Florida","lat":29.14953,"lng":-81.03118,"zip":"32123","miles_from_dt":22.62},{"city":"New Smyrna Beach","state_name":"Florida","lat":29.03483,"lng":-80.91854,"zip":"32170","miles_from_dt":22.65},{"city":"Plymouth","state_name":"Florida","lat":28.69577,"lng":-81.55795,"zip":"32768","miles_from_dt":22.7},{"city":"Apopka","state_name":"Florida","lat":28.65579,"lng":-81.52139,"zip":"32703","miles_from_dt":22.72},{"city":"Orlando","state_name":"Florida","lat":28.57688,"lng":-81.39748,"zip":"32804","miles_from_dt":22.93},{"city":"Orlando","state_name":"Florida","lat":28.55245,"lng":-81.30165,"zip":"32807","miles_from_dt":23.02},{"city":"Zellwood","state_name":"Florida","lat":28.72647,"lng":-81.58648,"zip":"32798","miles_from_dt":23.07},{"city":"Orlando","state_name":"Florida","lat":28.56832,"lng":-81.38626,"zip":"32854","miles_from_dt":23.23},{"city":"Orlando","state_name":"Florida","lat":28.55725,"lng":-81.34913,"zip":"32853","miles_from_dt":23.26},{"city":"Orlando","state_name":"Florida","lat":28.5566,"lng":-81.34959,"zip":"32891","miles_from_dt":23.31},{"city":"Orlando","state_name":"Florida","lat":28.55592,"lng":-81.34895,"zip":"32803","miles_from_dt":23.35},{"city":"Daytona Beach","state_name":"Florida","lat":29.16001,"lng":-81.02707,"zip":"32119","miles_from_dt":23.35},{"city":"Barberville","state_name":"Florida","lat":29.18895,"lng":-81.41884,"zip":"32105","miles_from_dt":23.36},{"city":"New Smyrna Beach","state_name":"Florida","lat":28.97934,"lng":-80.87386,"zip":"32169","miles_from_dt":23.76},{"city":"Orlando","state_name":"Florida","lat":28.53681,"lng":-81.24243,"zip":"32825","miles_from_dt":23.89},{"city":"Clarcona","state_name":"Florida","lat":28.61094,"lng":-81.49633,"zip":"32710","miles_from_dt":23.98},{"city":"Orlando","state_name":"Florida","lat":28.57932,"lng":-81.44342,"zip":"32808","miles_from_dt":24.01},{"city":"Apopka","state_name":"Florida","lat":28.61159,"lng":-81.49858,"zip":"32704","miles_from_dt":24.03},{"city":"Astor","state_name":"Florida","lat":29.1359,"lng":-81.52544,"zip":"32102","miles_from_dt":24.05},{"city":"Scottsmoor","state_name":"Florida","lat":28.76704,"lng":-80.8767,"zip":"32775","miles_from_dt":24.06},{"city":"Mims","state_name":"Florida","lat":28.68565,"lng":-80.9208,"zip":"32754","miles_from_dt":24.22},{"city":"Tangerine","state_name":"Florida","lat":28.76081,"lng":-81.62564,"zip":"32777","miles_from_dt":24.27},{"city":"Daytona Beach","state_name":"Florida","lat":29.19377,"lng":-81.05392,"zip":"32121","miles_from_dt":24.45},{"city":"Mount Dora","state_name":"Florida","lat":28.80471,"lng":-81.64415,"zip":"32756","miles_from_dt":24.47},{"city":"Mount Dora","state_name":"Florida","lat":28.77954,"lng":-81.637,"zip":"32757","miles_from_dt":24.51},{"city":"Daytona Beach","state_name":"Florida","lat":29.19312,"lng":-81.04915,"zip":"32114","miles_from_dt":24.55},{"city":"Orlando","state_name":"Florida","lat":28.54464,"lng":-81.3761,"zip":"32877","miles_from_dt":24.56},{"city":"Daytona Beach","state_name":"Florida","lat":29.19551,"lng":-81.05224,"zip":"32198","miles_from_dt":24.6},{"city":"Orlando","state_name":"Florida","lat":28.54381,"lng":-81.37715,"zip":"32802","miles_from_dt":24.63},{"city":"Orlando","state_name":"Florida","lat":28.542,"lng":-81.37343,"zip":"32801","miles_from_dt":24.68},{"city":"Daytona Beach","state_name":"Florida","lat":29.19593,"lng":-81.04901,"zip":"32120","miles_from_dt":24.73},{"city":"Orlando","state_name":"Florida","lat":28.53994,"lng":-81.3726,"zip":"32872","miles_from_dt":24.8},{"city":"Orlando","state_name":"Florida","lat":28.53052,"lng":-81.17022,"zip":"32828","miles_from_dt":24.81},{"city":"Orlando","state_name":"Florida","lat":28.54124,"lng":-81.38082,"zip":"32886","miles_from_dt":24.87},{"city":"Eustis","state_name":"Florida","lat":28.83138,"lng":-81.65691,"zip":"32727","miles_from_dt":24.9},{"city":"Orlando","state_name":"Florida","lat":28.59124,"lng":-81.49269,"zip":"32869","miles_from_dt":24.93},{"city":"Orlando","state_name":"Florida","lat":28.53874,"lng":-81.37714,"zip":"32862","miles_from_dt":24.97},{"city":"Orlando","state_name":"Florida","lat":28.54,"lng":-81.38219,"zip":"32885","miles_from_dt":24.98},{"city":"Orlando","state_name":"Florida","lat":28.53896,"lng":-81.37906,"zip":"32897","miles_from_dt":24.99},{"city":"Orlando","state_name":"Florida","lat":28.59018,"lng":-81.49363,"zip":"32868","miles_from_dt":25.02},{"city":"Orlando","state_name":"Florida","lat":28.58518,"lng":-81.48716,"zip":"32818","miles_from_dt":25.07},{"city":"Orlando","state_name":"Florida","lat":28.52629,"lng":-81.17088,"zip":"32878","miles_from_dt":25.08},{"city":"Altoona","state_name":"Florida","lat":29.04642,"lng":-81.6259,"zip":"32702","miles_from_dt":25.34},{"city":"Orlando","state_name":"Florida","lat":28.5542,"lng":-81.44979,"zip":"32858","miles_from_dt":25.71},{"city":"Eustis","state_name":"Florida","lat":28.8541,"lng":-81.68,"zip":"32726","miles_from_dt":26.11},{"city":"Orlando","state_name":"Florida","lat":28.52981,"lng":-81.40614,"zip":"32805","miles_from_dt":26.14},{"city":"Orlando","state_name":"Florida","lat":28.5123,"lng":-81.36031,"zip":"32806","miles_from_dt":26.43},{"city":"Daytona Beach","state_name":"Florida","lat":29.23351,"lng":-81.06727,"zip":"32117","miles_from_dt":26.52},{"city":"Daytona Beach","state_name":"Florida","lat":29.21321,"lng":-81.02377,"zip":"32115","miles_from_dt":26.52},{"city":"Orlando","state_name":"Florida","lat":28.51315,"lng":-81.37171,"zip":"32856","miles_from_dt":26.56},{"city":"Pierson","state_name":"Florida","lat":29.23437,"lng":-81.44521,"zip":"32180","miles_from_dt":26.87},{"city":"Daytona Beach","state_name":"Florida","lat":29.23498,"lng":-81.0554,"zip":"32125","miles_from_dt":26.92},{"city":"Daytona Beach","state_name":"Florida","lat":29.21251,"lng":-81.00874,"zip":"32116","miles_from_dt":26.97},{"city":"Daytona Beach","state_name":"Florida","lat":29.21035,"lng":-81.00425,"zip":"32118","miles_from_dt":26.99},{"city":"Ocoee","state_name":"Florida","lat":28.57975,"lng":-81.53386,"zip":"34761","miles_from_dt":27.09},{"city":"Orlando","state_name":"Florida","lat":28.50935,"lng":-81.39011,"zip":"32855","miles_from_dt":27.14},{"city":"Mid Florida","state_name":"Florida","lat":28.75,"lng":-81.67219,"zip":"32745","miles_from_dt":27.18},{"city":"Orlando","state_name":"Florida","lat":28.49001,"lng":-81.29056,"zip":"32822","miles_from_dt":27.22},{"city":"Daytona Beach","state_name":"Florida","lat":29.22594,"lng":-81.00648,"zip":"32126","miles_from_dt":27.82},{"city":"Orlando","state_name":"Florida","lat":28.4848,"lng":-81.32767,"zip":"32812","miles_from_dt":27.87},{"city":"Orlando","state_name":"Florida","lat":28.51616,"lng":-81.44405,"zip":"32861","miles_from_dt":27.9},{"city":"Orlando","state_name":"Florida","lat":28.51624,"lng":-81.44516,"zip":"32811","miles_from_dt":27.93},{"city":"Orlando","state_name":"Florida","lat":28.47639,"lng":-81.22478,"zip":"32829","miles_from_dt":28.09},{"city":"Ormond Beach","state_name":"Florida","lat":29.28928,"lng":-81.16446,"zip":"32174","miles_from_dt":28.42},{"city":"Orlando","state_name":"Florida","lat":28.52182,"lng":-81.48473,"zip":"32835","miles_from_dt":28.69},{"city":"Orlando","state_name":"Florida","lat":28.4948,"lng":-81.081,"zip":"32833","miles_from_dt":28.69},{"city":"Orlando","state_name":"Florida","lat":28.48833,"lng":-81.40689,"zip":"32839","miles_from_dt":28.83},{"city":"Orlando","state_name":"Florida","lat":28.47439,"lng":-81.14729,"zip":"32831","miles_from_dt":28.88},{"city":"Gotha","state_name":"Florida","lat":28.5376,"lng":-81.52204,"zip":"34734","miles_from_dt":28.98},{"city":"Umatilla","state_name":"Florida","lat":28.97626,"lng":-81.7232,"zip":"32784","miles_from_dt":29.33},{"city":"Grand Island","state_name":"Florida","lat":28.89099,"lng":-81.73718,"zip":"32735","miles_from_dt":29.5},{"city":"Ormond Beach","state_name":"Florida","lat":29.29057,"lng":-81.09457,"zip":"32173","miles_from_dt":29.57},{"city":"Tavares","state_name":"Florida","lat":28.77554,"lng":-81.72884,"zip":"32778","miles_from_dt":29.94}],"targetCityZipCode":"32725","targetCityState":"Florida"},"__N_SSG":true}