{"pageProps":{"stateName":"Florida","cityName":"high-springs","nearbyCities":[{"city":"High Springs","state_name":"Florida","lat":29.82253,"lng":-82.59081,"zip":"32655","miles_from_dt":3.06},{"city":"Fort White","state_name":"Florida","lat":29.93617,"lng":-82.69924,"zip":"32038","miles_from_dt":8.82},{"city":"Alachua","state_name":"Florida","lat":29.78205,"lng":-82.49933,"zip":"32616","miles_from_dt":8.9},{"city":"Alachua","state_name":"Florida","lat":29.81706,"lng":-82.49065,"zip":"32615","miles_from_dt":9.06},{"city":"Newberry","state_name":"Florida","lat":29.63666,"lng":-82.60015,"zip":"32669","miles_from_dt":12.77},{"city":"La Crosse","state_name":"Florida","lat":29.84817,"lng":-82.41214,"zip":"32658","miles_from_dt":13.93},{"city":"Bell","state_name":"Florida","lat":29.75661,"lng":-82.86668,"zip":"32619","miles_from_dt":14.18},{"city":"Worthington Springs","state_name":"Florida","lat":29.92831,"lng":-82.42538,"zip":"32697","miles_from_dt":15.02},{"city":"Gainesville","state_name":"Florida","lat":29.74506,"lng":-82.40546,"zip":"32653","miles_from_dt":15.06},{"city":"Gainesville","state_name":"Florida","lat":29.68169,"lng":-82.44391,"zip":"32606","miles_from_dt":15.16},{"city":"Gainesville","state_name":"Florida","lat":29.66333,"lng":-82.4501,"zip":"32602","miles_from_dt":15.7},{"city":"Trenton","state_name":"Florida","lat":29.62814,"lng":-82.79446,"zip":"32693","miles_from_dt":16.01},{"city":"Branford","state_name":"Florida","lat":29.90351,"lng":-82.90311,"zip":"32008","miles_from_dt":16.76},{"city":"Gainesville","state_name":"Florida","lat":29.64524,"lng":-82.41923,"zip":"32607","miles_from_dt":17.91},{"city":"Lake City","state_name":"Florida","lat":30.0793,"lng":-82.72597,"zip":"32024","miles_from_dt":18.67},{"city":"Gainesville","state_name":"Florida","lat":29.67659,"lng":-82.37351,"zip":"32605","miles_from_dt":18.84},{"city":"Lulu","state_name":"Florida","lat":30.08311,"lng":-82.51666,"zip":"32061","miles_from_dt":19.71},{"city":"Brooker","state_name":"Florida","lat":29.89914,"lng":-82.31216,"zip":"32622","miles_from_dt":20.54},{"city":"Archer","state_name":"Florida","lat":29.53789,"lng":-82.52295,"zip":"32618","miles_from_dt":20.6},{"city":"Lake City","state_name":"Florida","lat":30.11266,"lng":-82.57072,"zip":"32025","miles_from_dt":20.71},{"city":"Lake Butler","state_name":"Florida","lat":30.0281,"lng":-82.39143,"zip":"32054","miles_from_dt":20.83},{"city":"Gainesville","state_name":"Florida","lat":29.65305,"lng":-82.35054,"zip":"32603","miles_from_dt":20.88},{"city":"Gainesville","state_name":"Florida","lat":29.64469,"lng":-82.35307,"zip":"32612","miles_from_dt":21.07},{"city":"Gainesville","state_name":"Florida","lat":29.64983,"lng":-82.34589,"zip":"32604","miles_from_dt":21.23},{"city":"Gainesville","state_name":"Florida","lat":29.64344,"lng":-82.34964,"zip":"32611","miles_from_dt":21.29},{"city":"Gainesville","state_name":"Florida","lat":29.61071,"lng":-82.37519,"zip":"32614","miles_from_dt":21.48},{"city":"Gainesville","state_name":"Florida","lat":29.59271,"lng":-82.3935,"zip":"32608","miles_from_dt":21.55},{"city":"Gainesville","state_name":"Florida","lat":29.64077,"lng":-82.34326,"zip":"32610","miles_from_dt":21.71},{"city":"Gainesville","state_name":"Florida","lat":29.76296,"lng":-82.27978,"zip":"32609","miles_from_dt":22.07},{"city":"Gainesville","state_name":"Florida","lat":29.64635,"lng":-82.3282,"zip":"32627","miles_from_dt":22.26},{"city":"Gainesville","state_name":"Florida","lat":29.6504,"lng":-82.32525,"zip":"32635","miles_from_dt":22.26},{"city":"Gainesville","state_name":"Florida","lat":29.64886,"lng":-82.32506,"zip":"32601","miles_from_dt":22.32},{"city":"O'Brien","state_name":"Florida","lat":30.04097,"lng":-82.945,"zip":"32071","miles_from_dt":23.8},{"city":"Lake City","state_name":"Florida","lat":30.19068,"lng":-82.6398,"zip":"32056","miles_from_dt":25.64},{"city":"Chiefland","state_name":"Florida","lat":29.47838,"lng":-82.85834,"zip":"32644","miles_from_dt":26.81},{"city":"Bronson","state_name":"Florida","lat":29.426,"lng":-82.62936,"zip":"32621","miles_from_dt":27.04},{"city":"Gainesville","state_name":"Florida","lat":29.62956,"lng":-82.22557,"zip":"32641","miles_from_dt":28.19},{"city":"Wellborn","state_name":"Florida","lat":30.19797,"lng":-82.82767,"zip":"32094","miles_from_dt":28.42},{"city":"Hampton","state_name":"Florida","lat":29.85344,"lng":-82.16425,"zip":"32044","miles_from_dt":28.76},{"city":"Waldo","state_name":"Florida","lat":29.79086,"lng":-82.15367,"zip":"32694","miles_from_dt":29.37},{"city":"McAlpin","state_name":"Florida","lat":30.13276,"lng":-82.9754,"zip":"32062","miles_from_dt":29.49},{"city":"Micanopy","state_name":"Florida","lat":29.49484,"lng":-82.31084,"zip":"32667","miles_from_dt":29.88}],"targetCityZipCode":"32643","targetCityState":"Florida"},"__N_SSG":true}