{"pageProps":{"stateName":"Florida","cityName":"hobe-sound","nearbyCities":[{"city":"Hobe Sound","state_name":"Florida","lat":27.04073,"lng":-80.12046,"zip":"33475","miles_from_dt":3.28},{"city":"Stuart","state_name":"Florida","lat":27.05085,"lng":-80.27268,"zip":"34997","miles_from_dt":6.33},{"city":"Port Salerno","state_name":"Florida","lat":27.14281,"lng":-80.20917,"zip":"34992","miles_from_dt":6.34},{"city":"Jupiter","state_name":"Florida","lat":26.98275,"lng":-80.1092,"zip":"33469","miles_from_dt":6.38},{"city":"Stuart","state_name":"Florida","lat":27.15996,"lng":-80.2351,"zip":"34995","miles_from_dt":8.11},{"city":"Alexander City","state_name":"Alabama","lat":27.15996,"lng":-80.2351,"zip":"35011","miles_from_dt":8.11},{"city":"Jupiter","state_name":"Florida","lat":26.93477,"lng":-80.12906,"zip":"33458","miles_from_dt":8.82},{"city":"Jupiter","state_name":"Florida","lat":26.93764,"lng":-80.1113,"zip":"33468","miles_from_dt":9.02},{"city":"Palm City","state_name":"Florida","lat":27.16131,"lng":-80.26845,"zip":"34991","miles_from_dt":9.36},{"city":"Jensen Beach","state_name":"Florida","lat":27.19407,"lng":-80.1932,"zip":"34958","miles_from_dt":9.51},{"city":"Stuart","state_name":"Florida","lat":27.20071,"lng":-80.19644,"zip":"34996","miles_from_dt":9.99},{"city":"Jupiter","state_name":"Florida","lat":26.93788,"lng":-80.26298,"zip":"33478","miles_from_dt":10.02},{"city":"Stuart","state_name":"Florida","lat":27.19954,"lng":-80.2557,"zip":"34994","miles_from_dt":11.11},{"city":"Jupiter","state_name":"Florida","lat":26.91401,"lng":-80.0799,"zip":"33477","miles_from_dt":11.34},{"city":"Palm City","state_name":"Florida","lat":27.13623,"lng":-80.35655,"zip":"34990","miles_from_dt":12.69},{"city":"Palm Beach Gardens","state_name":"Florida","lat":26.86077,"lng":-80.16641,"zip":"33418","miles_from_dt":13.55},{"city":"West Palm Beach","state_name":"Florida","lat":26.85533,"lng":-80.08305,"zip":"33420","miles_from_dt":14.92},{"city":"Palm Beach Gardens","state_name":"Florida","lat":26.84629,"lng":-80.08823,"zip":"33410","miles_from_dt":15.4},{"city":"Jensen Beach","state_name":"Florida","lat":27.28399,"lng":-80.24252,"zip":"34957","miles_from_dt":16.22},{"city":"North Palm Beach","state_name":"Florida","lat":26.84115,"lng":-80.05677,"zip":"33408","miles_from_dt":16.46},{"city":"Port Saint Lucie","state_name":"Florida","lat":27.24784,"lng":-80.33456,"zip":"34984","miles_from_dt":16.56},{"city":"West Palm Beach","state_name":"Florida","lat":26.80561,"lng":-80.21557,"zip":"33412","miles_from_dt":17.56},{"city":"Port Saint Lucie","state_name":"Florida","lat":27.2969,"lng":-80.29748,"zip":"34952","miles_from_dt":18.25},{"city":"West Palm Beach","state_name":"Florida","lat":26.8032,"lng":-80.07562,"zip":"33403","miles_from_dt":18.46},{"city":"Port Saint Lucie","state_name":"Florida","lat":27.24938,"lng":-80.38137,"zip":"34953","miles_from_dt":18.54},{"city":"West Palm Beach","state_name":"Florida","lat":26.78148,"lng":-80.09213,"zip":"33419","miles_from_dt":19.61},{"city":"Port Saint Lucie","state_name":"Florida","lat":27.29509,"lng":-80.34957,"zip":"34985","miles_from_dt":19.74},{"city":"West Palm Beach","state_name":"Florida","lat":26.78248,"lng":-80.06567,"zip":"33404","miles_from_dt":20},{"city":"Indiantown","state_name":"Florida","lat":27.07969,"lng":-80.50074,"zip":"34956","miles_from_dt":20.42},{"city":"West Palm Beach","state_name":"Florida","lat":26.75841,"lng":-80.09195,"zip":"33407","miles_from_dt":21.15},{"city":"West Palm Beach","state_name":"Florida","lat":26.75033,"lng":-80.12852,"zip":"33422","miles_from_dt":21.3},{"city":"Port Saint Lucie","state_name":"Florida","lat":27.32295,"lng":-80.35052,"zip":"34983","miles_from_dt":21.38},{"city":"Loxahatchee","state_name":"Florida","lat":26.7832,"lng":-80.38063,"zip":"33470","miles_from_dt":22.92},{"city":"West Palm Beach","state_name":"Florida","lat":26.71994,"lng":-80.12495,"zip":"33417","miles_from_dt":23.41},{"city":"Port Saint Lucie","state_name":"Florida","lat":27.32804,"lng":-80.40524,"zip":"34986","miles_from_dt":23.59},{"city":"Fort Pierce","state_name":"Florida","lat":27.37669,"lng":-80.31082,"zip":"34982","miles_from_dt":23.62},{"city":"West Palm Beach","state_name":"Florida","lat":26.71517,"lng":-80.20305,"zip":"33411","miles_from_dt":23.65},{"city":"West Palm Beach","state_name":"Florida","lat":26.7161,"lng":-80.0965,"zip":"33409","miles_from_dt":23.94},{"city":"West Palm Beach","state_name":"Florida","lat":26.71805,"lng":-80.0685,"zip":"33401","miles_from_dt":24.2},{"city":"West Palm Beach","state_name":"Florida","lat":26.71723,"lng":-80.05156,"zip":"33402","miles_from_dt":24.55},{"city":"Canal Point","state_name":"Florida","lat":26.95443,"lng":-80.56524,"zip":"33438","miles_from_dt":25.37},{"city":"Palm Beach","state_name":"Florida","lat":26.69796,"lng":-80.04075,"zip":"33480","miles_from_dt":26.01},{"city":"Royal Palm Beach","state_name":"Florida","lat":26.6802,"lng":-80.20498,"zip":"33421","miles_from_dt":26.06},{"city":"Port Saint Lucie","state_name":"Florida","lat":27.28637,"lng":-80.50953,"zip":"34987","miles_from_dt":26.17},{"city":"Fort Pierce","state_name":"Florida","lat":27.39329,"lng":-80.37163,"zip":"34981","miles_from_dt":26.23},{"city":"West Palm Beach","state_name":"Florida","lat":26.66397,"lng":-80.1553,"zip":"33413","miles_from_dt":27.11},{"city":"West Palm Beach","state_name":"Florida","lat":26.66503,"lng":-80.09093,"zip":"33406","miles_from_dt":27.46},{"city":"West Palm Beach","state_name":"Florida","lat":26.66002,"lng":-80.12742,"zip":"33415","miles_from_dt":27.49},{"city":"West Palm Beach","state_name":"Florida","lat":26.66419,"lng":-80.09067,"zip":"33416","miles_from_dt":27.52},{"city":"West Palm Beach","state_name":"Florida","lat":26.66774,"lng":-80.0584,"zip":"33405","miles_from_dt":27.71},{"city":"Fort Pierce","state_name":"Florida","lat":27.44341,"lng":-80.32969,"zip":"34950","miles_from_dt":28.32},{"city":"Wellington","state_name":"Florida","lat":26.64829,"lng":-80.24943,"zip":"33414","miles_from_dt":28.59},{"city":"Fort Pierce","state_name":"Florida","lat":27.44503,"lng":-80.33981,"zip":"34979","miles_from_dt":28.65},{"city":"Fort Pierce","state_name":"Florida","lat":27.4472,"lng":-80.34407,"zip":"34948","miles_from_dt":28.89},{"city":"Fort Pierce","state_name":"Florida","lat":27.45108,"lng":-80.33889,"zip":"34954","miles_from_dt":29.02},{"city":"Port Saint Lucie","state_name":"Florida","lat":27.341,"lng":-80.51977,"zip":"34988","miles_from_dt":29.05},{"city":"Fort Pierce","state_name":"Florida","lat":27.4668,"lng":-80.30417,"zip":"34949","miles_from_dt":29.36},{"city":"Fort Pierce","state_name":"Florida","lat":27.44903,"lng":-80.37633,"zip":"34947","miles_from_dt":29.79}],"targetCityZipCode":"33455","targetCityState":"Florida"},"__N_SSG":true}