{"pageProps":{"stateName":"Florida","cityName":"jay","nearbyCities":[{"city":"Milton","state_name":"Florida","lat":30.80022,"lng":-86.98158,"zip":"32570","miles_from_dt":11.39},{"city":"Flomaton","state_name":"Alabama","lat":31.04064,"lng":-87.25885,"zip":"36441","miles_from_dt":12.39},{"city":"Century","state_name":"Florida","lat":30.96515,"lng":-87.34673,"zip":"32535","miles_from_dt":13.22},{"city":"Brewton","state_name":"Alabama","lat":31.10793,"lng":-87.07115,"zip":"36427","miles_from_dt":15.41},{"city":"Milton","state_name":"Florida","lat":30.67162,"lng":-87.20004,"zip":"32571","miles_from_dt":15.61},{"city":"Molino","state_name":"Florida","lat":30.73453,"lng":-87.37471,"zip":"32577","miles_from_dt":17.66},{"city":"Brewton","state_name":"Alabama","lat":31.14386,"lng":-87.076,"zip":"36426","miles_from_dt":17.74},{"city":"Milton","state_name":"Florida","lat":30.6278,"lng":-87.04861,"zip":"32572","miles_from_dt":19.03},{"city":"McDavid","state_name":"Florida","lat":30.87085,"lng":-87.46792,"zip":"32568","miles_from_dt":19.5},{"city":"Bagdad","state_name":"Florida","lat":30.5926,"lng":-87.02344,"zip":"32530","miles_from_dt":21.8},{"city":"Atmore","state_name":"Alabama","lat":31.01945,"lng":-87.47955,"zip":"36504","miles_from_dt":21.94},{"city":"Cantonment","state_name":"Florida","lat":30.61329,"lng":-87.32561,"zip":"32533","miles_from_dt":22.15},{"city":"Milton","state_name":"Florida","lat":30.60084,"lng":-86.97513,"zip":"32583","miles_from_dt":22.37},{"city":"Gonzalez","state_name":"Florida","lat":30.5822,"lng":-87.29162,"zip":"32560","miles_from_dt":23.18},{"city":"Holt","state_name":"Florida","lat":30.72755,"lng":-86.7875,"zip":"32564","miles_from_dt":23.88},{"city":"Pensacola","state_name":"Florida","lat":30.53209,"lng":-87.22235,"zip":"32514","miles_from_dt":25.29},{"city":"Pensacola","state_name":"Florida","lat":30.53276,"lng":-87.28374,"zip":"32534","miles_from_dt":26.2},{"city":"Pensacola","state_name":"Florida","lat":30.51664,"lng":-87.21885,"zip":"32523","miles_from_dt":26.3},{"city":"Baker","state_name":"Florida","lat":30.88513,"lng":-86.696,"zip":"32531","miles_from_dt":26.43},{"city":"Atmore","state_name":"Alabama","lat":31.15674,"lng":-87.4654,"zip":"36503","miles_from_dt":26.51},{"city":"Atmore","state_name":"Alabama","lat":31.14498,"lng":-87.49303,"zip":"36502","miles_from_dt":27.2},{"city":"Pensacola","state_name":"Florida","lat":30.48541,"lng":-87.19025,"zip":"32524","miles_from_dt":28.19},{"city":"Pensacola","state_name":"Florida","lat":30.48495,"lng":-87.19093,"zip":"32504","miles_from_dt":28.23},{"city":"Castleberry","state_name":"Alabama","lat":31.30055,"lng":-87.03888,"zip":"36432","miles_from_dt":28.76},{"city":"Wing","state_name":"Alabama","lat":31.04273,"lng":-86.68494,"zip":"36483","miles_from_dt":28.97},{"city":"Huxford","state_name":"Alabama","lat":31.22129,"lng":-87.46592,"zip":"36543","miles_from_dt":29.75},{"city":"Range","state_name":"Alabama","lat":31.32009,"lng":-87.21967,"zip":"36473","miles_from_dt":29.83}],"targetCityZipCode":"32565","targetCityState":"Florida"},"__N_SSG":true}