{"pageProps":{"stateName":"Florida","cityName":"lake-panasoffkee","nearbyCities":[{"city":"Inverness","state_name":"Florida","lat":28.82699,"lng":-82.25767,"zip":"34450","miles_from_dt":4.78},{"city":"Coleman","state_name":"Florida","lat":28.79788,"lng":-82.0752,"zip":"33521","miles_from_dt":7.31},{"city":"Wildwood","state_name":"Florida","lat":28.84516,"lng":-82.06065,"zip":"34785","miles_from_dt":7.37},{"city":"Oxford","state_name":"Florida","lat":28.93417,"lng":-82.08867,"zip":"34484","miles_from_dt":8.27},{"city":"Inverness","state_name":"Florida","lat":28.83848,"lng":-82.33157,"zip":"34451","miles_from_dt":9.08},{"city":"Inverness","state_name":"Florida","lat":28.89276,"lng":-82.33663,"zip":"34453","miles_from_dt":9.88},{"city":"Floral City","state_name":"Florida","lat":28.72672,"lng":-82.29134,"zip":"34436","miles_from_dt":10.59},{"city":"Ocala","state_name":"Florida","lat":29.00506,"lng":-82.18833,"zip":"34473","miles_from_dt":10.91},{"city":"Sumterville","state_name":"Florida","lat":28.74089,"lng":-82.03347,"zip":"33585","miles_from_dt":11.6},{"city":"The Villages","state_name":"Florida","lat":28.81878,"lng":-81.98663,"zip":"32163","miles_from_dt":12.01},{"city":"Hernando","state_name":"Florida","lat":28.89864,"lng":-82.37562,"zip":"34441","miles_from_dt":12.26},{"city":"Bushnell","state_name":"Florida","lat":28.66849,"lng":-82.17143,"zip":"33513","miles_from_dt":12.3},{"city":"The Villages","state_name":"Florida","lat":28.91629,"lng":-81.99374,"zip":"32162","miles_from_dt":12.38},{"city":"Summerfield","state_name":"Florida","lat":28.99634,"lng":-82.04665,"zip":"34491","miles_from_dt":13.17},{"city":"Inverness","state_name":"Florida","lat":28.76231,"lng":-82.37986,"zip":"34452","miles_from_dt":13.33},{"city":"Hernando","state_name":"Florida","lat":28.93084,"lng":-82.39122,"zip":"34442","miles_from_dt":13.93},{"city":"Istachatta","state_name":"Florida","lat":28.65891,"lng":-82.27302,"zip":"34636","miles_from_dt":14.06},{"city":"Nobleton","state_name":"Florida","lat":28.62108,"lng":-82.26507,"zip":"34661","miles_from_dt":16.34},{"city":"Lady Lake","state_name":"Florida","lat":28.92727,"lng":-81.92696,"zip":"32158","miles_from_dt":16.43},{"city":"Ocala","state_name":"Florida","lat":29.08579,"lng":-82.19279,"zip":"34476","miles_from_dt":16.47},{"city":"Belleview","state_name":"Florida","lat":29.04924,"lng":-82.03642,"zip":"34421","miles_from_dt":16.5},{"city":"Belleview","state_name":"Florida","lat":29.05359,"lng":-82.04008,"zip":"34420","miles_from_dt":16.64},{"city":"Holder","state_name":"Florida","lat":28.97143,"lng":-82.42414,"zip":"34445","miles_from_dt":16.99},{"city":"Center Hill","state_name":"Florida","lat":28.65771,"lng":-81.99886,"zip":"33514","miles_from_dt":17.13},{"city":"Okahumpka","state_name":"Florida","lat":28.75772,"lng":-81.9152,"zip":"34762","miles_from_dt":17.32},{"city":"Fruitland Park","state_name":"Florida","lat":28.86788,"lng":-81.89638,"zip":"34731","miles_from_dt":17.39},{"city":"Lady Lake","state_name":"Florida","lat":28.92456,"lng":-81.90528,"zip":"32159","miles_from_dt":17.62},{"city":"Beverly Hills","state_name":"Florida","lat":28.91299,"lng":-82.46318,"zip":"34464","miles_from_dt":17.63},{"city":"Lecanto","state_name":"Florida","lat":28.81544,"lng":-82.48029,"zip":"34461","miles_from_dt":18.21},{"city":"Ocala","state_name":"Florida","lat":29.10178,"lng":-82.09975,"zip":"34480","miles_from_dt":18.26},{"city":"Leesburg","state_name":"Florida","lat":28.80956,"lng":-81.88247,"zip":"34789","miles_from_dt":18.36},{"city":"Dunnellon","state_name":"Florida","lat":29.05306,"lng":-82.37846,"zip":"34430","miles_from_dt":18.52},{"city":"Dunnellon","state_name":"Florida","lat":28.99535,"lng":-82.43775,"zip":"34434","miles_from_dt":18.56},{"city":"Dunnellon","state_name":"Florida","lat":29.06588,"lng":-82.36353,"zip":"34432","miles_from_dt":18.66},{"city":"Leesburg","state_name":"Florida","lat":28.77366,"lng":-81.88552,"zip":"34748","miles_from_dt":18.69},{"city":"Leesburg","state_name":"Florida","lat":28.80786,"lng":-81.87595,"zip":"34749","miles_from_dt":18.76},{"city":"Eastlake Weir","state_name":"Florida","lat":29.01061,"lng":-81.92036,"zip":"32133","miles_from_dt":19.47},{"city":"Beverly Hills","state_name":"Florida","lat":28.92869,"lng":-82.49092,"zip":"34465","miles_from_dt":19.54},{"city":"Lecanto","state_name":"Florida","lat":28.93117,"lng":-82.49137,"zip":"34460","miles_from_dt":19.62},{"city":"Weirsdale","state_name":"Florida","lat":28.9854,"lng":-81.89814,"zip":"32195","miles_from_dt":19.68},{"city":"Ocala","state_name":"Florida","lat":29.11902,"lng":-82.30769,"zip":"34481","miles_from_dt":20.23},{"city":"Ocklawaha","state_name":"Florida","lat":29.04323,"lng":-81.92937,"zip":"32183","miles_from_dt":20.43},{"city":"Brooksville","state_name":"Florida","lat":28.5892,"lng":-82.36857,"zip":"34601","miles_from_dt":21.04},{"city":"Ocala","state_name":"Florida","lat":29.15515,"lng":-82.21106,"zip":"34474","miles_from_dt":21.31},{"city":"Ocala","state_name":"Florida","lat":29.11187,"lng":-81.99625,"zip":"34472","miles_from_dt":21.45},{"city":"Homosassa","state_name":"Florida","lat":28.74904,"lng":-82.52344,"zip":"34446","miles_from_dt":21.77},{"city":"Ocala","state_name":"Florida","lat":29.16054,"lng":-82.12786,"zip":"34471","miles_from_dt":21.86},{"city":"Candler","state_name":"Florida","lat":29.16484,"lng":-82.21748,"zip":"32111","miles_from_dt":22.01},{"city":"Homosassa Springs","state_name":"Florida","lat":28.79655,"lng":-82.55023,"zip":"34447","miles_from_dt":22.59},{"city":"Webster","state_name":"Florida","lat":28.52675,"lng":-82.08613,"zip":"33597","miles_from_dt":22.8},{"city":"Dunnellon","state_name":"Florida","lat":28.996,"lng":-82.52383,"zip":"34433","miles_from_dt":23.11},{"city":"Yalaha","state_name":"Florida","lat":28.73517,"lng":-81.81813,"zip":"34797","miles_from_dt":23.39},{"city":"Ocala","state_name":"Florida","lat":29.18547,"lng":-82.1418,"zip":"34478","miles_from_dt":23.45},{"city":"Leesburg","state_name":"Florida","lat":28.88542,"lng":-81.79678,"zip":"34788","miles_from_dt":23.52},{"city":"Ocala","state_name":"Florida","lat":29.18624,"lng":-82.13865,"zip":"34483","miles_from_dt":23.53},{"city":"Crystal River","state_name":"Florida","lat":28.86279,"lng":-82.57233,"zip":"34423","miles_from_dt":23.68},{"city":"Ocala","state_name":"Florida","lat":29.18771,"lng":-82.12902,"zip":"34477","miles_from_dt":23.7},{"city":"Brooksville","state_name":"Florida","lat":28.55221,"lng":-82.39106,"zip":"34603","miles_from_dt":23.93},{"city":"Ocklawaha","state_name":"Florida","lat":29.09631,"lng":-81.89686,"zip":"32179","miles_from_dt":24.37},{"city":"Brooksville","state_name":"Florida","lat":28.64627,"lng":-82.51324,"zip":"34614","miles_from_dt":24.38},{"city":"Brooksville","state_name":"Florida","lat":28.50252,"lng":-82.28007,"zip":"34602","miles_from_dt":24.44},{"city":"Mascotte","state_name":"Florida","lat":28.58684,"lng":-81.89624,"zip":"34753","miles_from_dt":24.94},{"city":"Ocala","state_name":"Florida","lat":29.20098,"lng":-82.08262,"zip":"34470","miles_from_dt":25.13},{"city":"Howey In The Hills","state_name":"Florida","lat":28.69638,"lng":-81.80243,"zip":"34737","miles_from_dt":25.26},{"city":"Groveland","state_name":"Florida","lat":28.57883,"lng":-81.88844,"zip":"34736","miles_from_dt":25.66},{"city":"Lacoochee","state_name":"Florida","lat":28.46664,"lng":-82.17676,"zip":"33537","miles_from_dt":26.18},{"city":"Homosassa","state_name":"Florida","lat":28.78148,"lng":-82.61272,"zip":"34487","miles_from_dt":26.5},{"city":"Homosassa","state_name":"Florida","lat":28.77009,"lng":-82.61201,"zip":"34448","miles_from_dt":26.6},{"city":"Trilby","state_name":"Florida","lat":28.45861,"lng":-82.19591,"zip":"33593","miles_from_dt":26.75},{"city":"Grand Island","state_name":"Florida","lat":28.89099,"lng":-81.73718,"zip":"32735","miles_from_dt":27.15},{"city":"Tavares","state_name":"Florida","lat":28.77554,"lng":-81.72884,"zip":"32778","miles_from_dt":27.93},{"city":"Ocala","state_name":"Florida","lat":29.25282,"lng":-82.16065,"zip":"34475","miles_from_dt":27.99},{"city":"Ocala","state_name":"Florida","lat":29.25285,"lng":-82.10945,"zip":"34479","miles_from_dt":28.31},{"city":"Ocala","state_name":"Florida","lat":29.24984,"lng":-82.27702,"zip":"34482","miles_from_dt":28.35},{"city":"Crystal River","state_name":"Florida","lat":28.85737,"lng":-82.65152,"zip":"34429","miles_from_dt":28.47},{"city":"Crystal River","state_name":"Florida","lat":28.9608,"lng":-82.63421,"zip":"34428","miles_from_dt":28.5},{"city":"Dunnellon","state_name":"Florida","lat":29.1339,"lng":-82.52963,"zip":"34431","miles_from_dt":28.87},{"city":"Brooksville","state_name":"Florida","lat":28.49696,"lng":-82.45256,"zip":"34605","miles_from_dt":29.16},{"city":"Brooksville","state_name":"Florida","lat":28.56183,"lng":-82.53803,"zip":"34613","miles_from_dt":29.19},{"city":"Umatilla","state_name":"Florida","lat":28.97626,"lng":-81.7232,"zip":"32784","miles_from_dt":29.21},{"city":"Brooksville","state_name":"Florida","lat":28.4781,"lng":-82.43322,"zip":"34604","miles_from_dt":29.62},{"city":"Summerfield","state_name":"Florida","lat":29.22688,"lng":-81.94807,"zip":"34492","miles_from_dt":29.77},{"city":"Silver Springs","state_name":"Florida","lat":29.22688,"lng":-81.94807,"zip":"34489","miles_from_dt":29.77},{"city":"Dade City","state_name":"Florida","lat":28.41787,"lng":-82.26476,"zip":"33523","miles_from_dt":29.96}],"targetCityZipCode":"33538","targetCityState":"Florida"},"__N_SSG":true}