{"pageProps":{"stateName":"Florida","cityName":"lake-wales","nearbyCities":[{"city":"Lake Wales","state_name":"Florida","lat":27.88428,"lng":-81.63106,"zip":"33859","miles_from_dt":2.99},{"city":"Waverly","state_name":"Florida","lat":27.98766,"lng":-81.61985,"zip":"33877","miles_from_dt":6.38},{"city":"Babson Park","state_name":"Florida","lat":27.81445,"lng":-81.51484,"zip":"33827","miles_from_dt":7.32},{"city":"Winter Haven","state_name":"Florida","lat":27.97669,"lng":-81.67653,"zip":"33884","miles_from_dt":7.66},{"city":"Alturas","state_name":"Florida","lat":27.86233,"lng":-81.71058,"zip":"33820","miles_from_dt":8.08},{"city":"Dundee","state_name":"Florida","lat":28.01851,"lng":-81.60956,"zip":"33838","miles_from_dt":8.28},{"city":"Winter Haven","state_name":"Florida","lat":28.00339,"lng":-81.67198,"zip":"33882","miles_from_dt":8.85},{"city":"Nalcrest","state_name":"Florida","lat":27.85648,"lng":-81.42828,"zip":"33856","miles_from_dt":10.08},{"city":"Lake Hamilton","state_name":"Florida","lat":28.04439,"lng":-81.62677,"zip":"33851","miles_from_dt":10.24},{"city":"Lakeshore","state_name":"Florida","lat":27.85608,"lng":-81.41033,"zip":"33854","miles_from_dt":11.14},{"city":"Eagle Lake","state_name":"Florida","lat":27.97481,"lng":-81.75365,"zip":"33839","miles_from_dt":11.49},{"city":"Winter Haven","state_name":"Florida","lat":28.02316,"lng":-81.72697,"zip":"33883","miles_from_dt":12.1},{"city":"Frostproof","state_name":"Florida","lat":27.73131,"lng":-81.5108,"zip":"33843","miles_from_dt":12.5},{"city":"Winter Haven","state_name":"Florida","lat":28.05439,"lng":-81.70081,"zip":"33881","miles_from_dt":12.74},{"city":"Haines City","state_name":"Florida","lat":28.08616,"lng":-81.58717,"zip":"33844","miles_from_dt":12.8},{"city":"Winter Haven","state_name":"Florida","lat":28.04424,"lng":-81.7222,"zip":"33888","miles_from_dt":12.97},{"city":"Winter Haven","state_name":"Florida","lat":28.05337,"lng":-81.71206,"zip":"33885","miles_from_dt":13.08},{"city":"Winter Haven","state_name":"Florida","lat":27.9914,"lng":-81.77448,"zip":"33880","miles_from_dt":13.15},{"city":"Bartow","state_name":"Florida","lat":27.88234,"lng":-81.80565,"zip":"33830","miles_from_dt":13.52},{"city":"Nichols","state_name":"Florida","lat":27.86612,"lng":-81.80585,"zip":"33863","miles_from_dt":13.68},{"city":"Haines City","state_name":"Florida","lat":28.11021,"lng":-81.62942,"zip":"33845","miles_from_dt":14.71},{"city":"Lake Wales","state_name":"Florida","lat":27.83946,"lng":-81.34943,"zip":"33898","miles_from_dt":15.04},{"city":"Bartow","state_name":"Florida","lat":27.89537,"lng":-81.8422,"zip":"33831","miles_from_dt":15.7},{"city":"Indian Lake Estates","state_name":"Florida","lat":27.79104,"lng":-81.35971,"zip":"33855","miles_from_dt":15.74},{"city":"Fort Meade","state_name":"Florida","lat":27.7381,"lng":-81.7674,"zip":"33841","miles_from_dt":15.77},{"city":"Homeland","state_name":"Florida","lat":27.80864,"lng":-81.82381,"zip":"33847","miles_from_dt":15.89},{"city":"Kissimmee","state_name":"Florida","lat":28.09113,"lng":-81.43774,"zip":"34759","miles_from_dt":15.95},{"city":"Lake Alfred","state_name":"Florida","lat":28.11886,"lng":-81.73191,"zip":"33850","miles_from_dt":17.51},{"city":"Davenport","state_name":"Florida","lat":28.16047,"lng":-81.60595,"zip":"33836","miles_from_dt":17.96},{"city":"Highland City","state_name":"Florida","lat":27.96506,"lng":-81.87889,"zip":"33846","miles_from_dt":18.49},{"city":"Auburndale","state_name":"Florida","lat":28.09041,"lng":-81.81267,"zip":"33823","miles_from_dt":19.08},{"city":"Lakeland","state_name":"Florida","lat":27.97262,"lng":-81.89304,"zip":"33812","miles_from_dt":19.45},{"city":"Davenport","state_name":"Florida","lat":28.19012,"lng":-81.59163,"zip":"33837","miles_from_dt":19.97},{"city":"Avon Park","state_name":"Florida","lat":27.62704,"lng":-81.44343,"zip":"33825","miles_from_dt":20.73},{"city":"Kissimmee","state_name":"Florida","lat":28.19142,"lng":-81.4871,"zip":"34758","miles_from_dt":20.93},{"city":"Eaton Park","state_name":"Florida","lat":28.00915,"lng":-81.90506,"zip":"33840","miles_from_dt":20.93},{"city":"Lakeland","state_name":"Florida","lat":27.94789,"lng":-81.92701,"zip":"33813","miles_from_dt":21.14},{"city":"Lakeland","state_name":"Florida","lat":28.0401,"lng":-81.8947,"zip":"33801","miles_from_dt":21.21},{"city":"Avon Park","state_name":"Florida","lat":27.59363,"lng":-81.50298,"zip":"33826","miles_from_dt":21.71},{"city":"Lakeland","state_name":"Florida","lat":28.00887,"lng":-81.93604,"zip":"33803","miles_from_dt":22.7},{"city":"Loughman","state_name":"Florida","lat":28.24506,"lng":-81.55832,"zip":"33858","miles_from_dt":23.8},{"city":"Davenport","state_name":"Florida","lat":28.24663,"lng":-81.57526,"zip":"33896","miles_from_dt":23.86},{"city":"Lakeland","state_name":"Florida","lat":28.09829,"lng":-81.91279,"zip":"33805","miles_from_dt":24.21},{"city":"Lakeland","state_name":"Florida","lat":28.02891,"lng":-81.95524,"zip":"33806","miles_from_dt":24.28},{"city":"Lakeland","state_name":"Florida","lat":28.06465,"lng":-81.94351,"zip":"33802","miles_from_dt":24.64},{"city":"River Ranch","state_name":"Florida","lat":27.78249,"lng":-81.20136,"zip":"33867","miles_from_dt":24.87},{"city":"Bradley","state_name":"Florida","lat":27.78829,"lng":-81.97256,"zip":"33835","miles_from_dt":24.91},{"city":"Lakeland","state_name":"Florida","lat":27.95314,"lng":-81.99199,"zip":"33807","miles_from_dt":25.12},{"city":"Kissimmee","state_name":"Florida","lat":28.24233,"lng":-81.4423,"zip":"34746","miles_from_dt":25.13},{"city":"Lakeland","state_name":"Florida","lat":28.0791,"lng":-81.95451,"zip":"33804","miles_from_dt":25.7},{"city":"Saint Cloud","state_name":"Florida","lat":28.1649,"lng":-81.28522,"zip":"34770","miles_from_dt":25.86},{"city":"Mulberry","state_name":"Florida","lat":27.8056,"lng":-81.99511,"zip":"33860","miles_from_dt":25.9},{"city":"Wauchula","state_name":"Florida","lat":27.56181,"lng":-81.77855,"zip":"33873","miles_from_dt":26.13},{"city":"Intercession City","state_name":"Florida","lat":28.27594,"lng":-81.50824,"zip":"33848","miles_from_dt":26.3},{"city":"Saint Cloud","state_name":"Florida","lat":28.16534,"lng":-81.27273,"zip":"34772","miles_from_dt":26.43},{"city":"Lakeland","state_name":"Florida","lat":28.04067,"lng":-81.99634,"zip":"33815","miles_from_dt":26.91},{"city":"Lakeland","state_name":"Florida","lat":27.97933,"lng":-82.01866,"zip":"33811","miles_from_dt":27.04},{"city":"Davenport","state_name":"Florida","lat":28.28088,"lng":-81.69533,"zip":"33897","miles_from_dt":27.06},{"city":"Sebring","state_name":"Florida","lat":27.50911,"lng":-81.53147,"zip":"33872","miles_from_dt":27.13},{"city":"Bowling Green","state_name":"Florida","lat":27.62778,"lng":-81.92115,"zip":"33834","miles_from_dt":27.83},{"city":"Kissimmee","state_name":"Florida","lat":28.31111,"lng":-81.59107,"zip":"34747","miles_from_dt":28.3},{"city":"Sebring","state_name":"Florida","lat":27.50333,"lng":-81.45385,"zip":"33871","miles_from_dt":28.5},{"city":"Kenansville","state_name":"Florida","lat":27.92236,"lng":-81.10762,"zip":"34739","miles_from_dt":29.27},{"city":"Polk City","state_name":"Florida","lat":28.25882,"lng":-81.84769,"zip":"33868","miles_from_dt":29.43},{"city":"Kissimmee","state_name":"Florida","lat":28.30544,"lng":-81.42567,"zip":"34741","miles_from_dt":29.56},{"city":"Saint Cloud","state_name":"Florida","lat":28.24366,"lng":-81.29412,"zip":"34769","miles_from_dt":29.6},{"city":"Kissimmee","state_name":"Florida","lat":28.30273,"lng":-81.40989,"zip":"34745","miles_from_dt":29.72}],"targetCityZipCode":"33853","targetCityState":"Florida"},"__N_SSG":true}