{"pageProps":{"stateName":"Florida","cityName":"lithia","nearbyCities":[{"city":"Balm","state_name":"Florida","lat":27.76375,"lng":-82.27425,"zip":"33503","miles_from_dt":8.45},{"city":"Mulberry","state_name":"Florida","lat":27.8056,"lng":-81.99511,"zip":"33860","miles_from_dt":8.96},{"city":"Riverview","state_name":"Florida","lat":27.79585,"lng":-82.28376,"zip":"33579","miles_from_dt":9.15},{"city":"Durant","state_name":"Florida","lat":27.90773,"lng":-82.17236,"zip":"33530","miles_from_dt":9.57},{"city":"Valrico","state_name":"Florida","lat":27.88765,"lng":-82.23591,"zip":"33596","miles_from_dt":10},{"city":"Bradley","state_name":"Florida","lat":27.78829,"lng":-81.97256,"zip":"33835","miles_from_dt":10.11},{"city":"Plant City","state_name":"Florida","lat":27.92159,"lng":-82.1217,"zip":"33567","miles_from_dt":10.31},{"city":"Riverview","state_name":"Florida","lat":27.84429,"lng":-82.29069,"zip":"33569","miles_from_dt":10.65},{"city":"Wimauma","state_name":"Florida","lat":27.69531,"lng":-82.29025,"zip":"33598","miles_from_dt":10.8},{"city":"Riverview","state_name":"Florida","lat":27.86872,"lng":-82.31959,"zip":"33568","miles_from_dt":13.02},{"city":"Valrico","state_name":"Florida","lat":27.94081,"lng":-82.24207,"zip":"33594","miles_from_dt":13.27},{"city":"Brandon","state_name":"Florida","lat":27.9099,"lng":-82.29405,"zip":"33511","miles_from_dt":13.51},{"city":"Sun City Center","state_name":"Florida","lat":27.72179,"lng":-82.36,"zip":"33573","miles_from_dt":14.12},{"city":"Valrico","state_name":"Florida","lat":27.94707,"lng":-82.25894,"zip":"33595","miles_from_dt":14.17},{"city":"Riverview","state_name":"Florida","lat":27.86187,"lng":-82.34775,"zip":"33578","miles_from_dt":14.32},{"city":"Brandon","state_name":"Florida","lat":27.89486,"lng":-82.33095,"zip":"33509","miles_from_dt":14.58},{"city":"Sydney","state_name":"Florida","lat":27.9785,"lng":-82.20045,"zip":"33587","miles_from_dt":14.72},{"city":"Dover","state_name":"Florida","lat":27.97571,"lng":-82.2138,"zip":"33527","miles_from_dt":14.77},{"city":"Brandon","state_name":"Florida","lat":27.94,"lng":-82.29219,"zip":"33508","miles_from_dt":14.96},{"city":"Gibsonton","state_name":"Florida","lat":27.82273,"lng":-82.37505,"zip":"33534","miles_from_dt":15},{"city":"Plant City","state_name":"Florida","lat":27.99241,"lng":-82.1172,"zip":"33566","miles_from_dt":15.2},{"city":"Parrish","state_name":"Florida","lat":27.58041,"lng":-82.26094,"zip":"34219","miles_from_dt":15.26},{"city":"Lakeland","state_name":"Florida","lat":27.95314,"lng":-81.99199,"zip":"33807","miles_from_dt":15.27},{"city":"Lakeland","state_name":"Florida","lat":27.97933,"lng":-82.01866,"zip":"33811","miles_from_dt":15.97},{"city":"Brandon","state_name":"Florida","lat":27.95564,"lng":-82.29986,"zip":"33510","miles_from_dt":16.09},{"city":"Apollo Beach","state_name":"Florida","lat":27.7659,"lng":-82.39999,"zip":"33572","miles_from_dt":16.14},{"city":"Bowling Green","state_name":"Florida","lat":27.62778,"lng":-81.92115,"zip":"33834","miles_from_dt":16.54},{"city":"Plant City","state_name":"Florida","lat":28.01694,"lng":-82.12544,"zip":"33563","miles_from_dt":16.85},{"city":"Plant City","state_name":"Florida","lat":28.01923,"lng":-82.09795,"zip":"33564","miles_from_dt":17.16},{"city":"Lakeland","state_name":"Florida","lat":27.94789,"lng":-81.92701,"zip":"33813","miles_from_dt":17.62},{"city":"Mango","state_name":"Florida","lat":27.97956,"lng":-82.30698,"zip":"33550","miles_from_dt":17.67},{"city":"Seffner","state_name":"Florida","lat":27.99987,"lng":-82.27766,"zip":"33583","miles_from_dt":17.88},{"city":"Tampa","state_name":"Florida","lat":27.93115,"lng":-82.3759,"zip":"33660","miles_from_dt":18.27},{"city":"Sun City Center","state_name":"Florida","lat":27.72056,"lng":-82.43333,"zip":"33571","miles_from_dt":18.52},{"city":"Tampa","state_name":"Florida","lat":27.93536,"lng":-82.37841,"zip":"33619","miles_from_dt":18.57},{"city":"Seffner","state_name":"Florida","lat":28.00637,"lng":-82.28959,"zip":"33584","miles_from_dt":18.63},{"city":"Ruskin","state_name":"Florida","lat":27.72202,"lng":-82.43599,"zip":"33575","miles_from_dt":18.66},{"city":"Tampa","state_name":"Florida","lat":27.98115,"lng":-82.343,"zip":"33601","miles_from_dt":19.13},{"city":"Homeland","state_name":"Florida","lat":27.80864,"lng":-81.82381,"zip":"33847","miles_from_dt":19.32},{"city":"Bartow","state_name":"Florida","lat":27.89537,"lng":-81.8422,"zip":"33831","miles_from_dt":19.91},{"city":"Lakeland","state_name":"Florida","lat":27.97262,"lng":-81.89304,"zip":"33812","miles_from_dt":20.31},{"city":"Lakeland","state_name":"Florida","lat":28.04067,"lng":-81.99634,"zip":"33815","miles_from_dt":20.37},{"city":"Lakeland","state_name":"Florida","lat":28.00887,"lng":-81.93604,"zip":"33803","miles_from_dt":20.39},{"city":"Ruskin","state_name":"Florida","lat":27.69354,"lng":-82.45861,"zip":"33570","miles_from_dt":20.46},{"city":"Highland City","state_name":"Florida","lat":27.96506,"lng":-81.87889,"zip":"33846","miles_from_dt":20.61},{"city":"Lakeland","state_name":"Florida","lat":28.02891,"lng":-81.95524,"zip":"33806","miles_from_dt":20.86},{"city":"Nichols","state_name":"Florida","lat":27.86612,"lng":-81.80585,"zip":"33863","miles_from_dt":21.26},{"city":"Tampa","state_name":"Florida","lat":27.9972,"lng":-82.38015,"zip":"33610","miles_from_dt":21.48},{"city":"Eaton Park","state_name":"Florida","lat":28.00915,"lng":-81.90506,"zip":"33840","miles_from_dt":21.6},{"city":"Bartow","state_name":"Florida","lat":27.88234,"lng":-81.80565,"zip":"33830","miles_from_dt":21.63},{"city":"Tampa","state_name":"Florida","lat":27.95121,"lng":-82.42924,"zip":"33605","miles_from_dt":21.73},{"city":"Plant City","state_name":"Florida","lat":28.08858,"lng":-82.15595,"zip":"33565","miles_from_dt":21.8},{"city":"Sun City","state_name":"Florida","lat":27.67566,"lng":-82.4791,"zip":"33586","miles_from_dt":22.02},{"city":"Tampa","state_name":"Florida","lat":28.00275,"lng":-82.40093,"zip":"33680","miles_from_dt":22.65},{"city":"Fort Meade","state_name":"Florida","lat":27.7381,"lng":-81.7674,"zip":"33841","miles_from_dt":22.74},{"city":"Tampa","state_name":"Florida","lat":27.8436,"lng":-82.50089,"zip":"33621","miles_from_dt":22.83},{"city":"Tampa","state_name":"Florida","lat":27.93209,"lng":-82.46493,"zip":"33606","miles_from_dt":22.9},{"city":"Tampa","state_name":"Florida","lat":27.94881,"lng":-82.45558,"zip":"33655","miles_from_dt":22.99},{"city":"Tampa","state_name":"Florida","lat":27.95587,"lng":-82.45499,"zip":"33672","miles_from_dt":23.22},{"city":"Tampa","state_name":"Florida","lat":27.95371,"lng":-82.45675,"zip":"33602","miles_from_dt":23.23},{"city":"Tampa","state_name":"Florida","lat":27.95039,"lng":-82.45966,"zip":"33689","miles_from_dt":23.26},{"city":"Tampa","state_name":"Florida","lat":27.95452,"lng":-82.4571,"zip":"33622","miles_from_dt":23.28},{"city":"Lakeland","state_name":"Florida","lat":28.06465,"lng":-81.94351,"zip":"33802","miles_from_dt":23.34},{"city":"Tampa","state_name":"Florida","lat":27.95413,"lng":-82.45872,"zip":"33623","miles_from_dt":23.35},{"city":"Tampa","state_name":"Florida","lat":27.95,"lng":-82.46219,"zip":"33646","miles_from_dt":23.38},{"city":"Tampa","state_name":"Florida","lat":28.04715,"lng":-82.36118,"zip":"33637","miles_from_dt":23.38},{"city":"Tampa","state_name":"Florida","lat":27.84162,"lng":-82.51311,"zip":"33608","miles_from_dt":23.54},{"city":"Lakeland","state_name":"Florida","lat":28.0401,"lng":-81.8947,"zip":"33801","miles_from_dt":23.64},{"city":"Lakeland","state_name":"Florida","lat":28.0791,"lng":-81.95451,"zip":"33804","miles_from_dt":23.88},{"city":"Tampa","state_name":"Florida","lat":28.03597,"lng":-82.39098,"zip":"33687","miles_from_dt":23.91},{"city":"Tampa","state_name":"Florida","lat":27.89059,"lng":-82.50632,"zip":"33611","miles_from_dt":24.05},{"city":"Tampa","state_name":"Florida","lat":28.03893,"lng":-82.39327,"zip":"33617","miles_from_dt":24.15},{"city":"Thonotosassa","state_name":"Florida","lat":28.10087,"lng":-82.28698,"zip":"33592","miles_from_dt":24.42},{"city":"Tampa","state_name":"Florida","lat":27.86851,"lng":-82.52647,"zip":"33686","miles_from_dt":24.77},{"city":"Tampa","state_name":"Florida","lat":27.98526,"lng":-82.46458,"zip":"33603","miles_from_dt":24.85},{"city":"Tampa","state_name":"Florida","lat":27.86712,"lng":-82.5287,"zip":"33616","miles_from_dt":24.87},{"city":"Tampa","state_name":"Florida","lat":27.92181,"lng":-82.51007,"zip":"33629","miles_from_dt":25.06},{"city":"Tampa","state_name":"Florida","lat":27.9971,"lng":-82.45998,"zip":"33673","miles_from_dt":25.12},{"city":"Bradenton","state_name":"Florida","lat":27.49559,"lng":-82.40528,"zip":"34212","miles_from_dt":25.19},{"city":"Tampa","state_name":"Florida","lat":27.89387,"lng":-82.52568,"zip":"33681","miles_from_dt":25.24},{"city":"Lakeland","state_name":"Florida","lat":28.13027,"lng":-82.03989,"zip":"33810","miles_from_dt":25.34},{"city":"Tampa","state_name":"Florida","lat":27.97788,"lng":-82.48708,"zip":"33633","miles_from_dt":25.69},{"city":"Tampa","state_name":"Florida","lat":28.01686,"lng":-82.45519,"zip":"33604","miles_from_dt":25.75},{"city":"Tampa","state_name":"Florida","lat":27.94307,"lng":-82.51108,"zip":"33609","miles_from_dt":25.75},{"city":"Tampa","state_name":"Florida","lat":27.95279,"lng":-82.50822,"zip":"33679","miles_from_dt":25.91},{"city":"Ona","state_name":"Florida","lat":27.42944,"lng":-81.96262,"zip":"33865","miles_from_dt":25.92},{"city":"Tampa","state_name":"Florida","lat":28.01875,"lng":-82.45789,"zip":"33674","miles_from_dt":25.96},{"city":"Tampa","state_name":"Florida","lat":28.06112,"lng":-82.41172,"zip":"33620","miles_from_dt":26.05},{"city":"Lakeland","state_name":"Florida","lat":28.09829,"lng":-81.91279,"zip":"33805","miles_from_dt":26.29},{"city":"Wauchula","state_name":"Florida","lat":27.56181,"lng":-81.77855,"zip":"33873","miles_from_dt":26.31},{"city":"Bradenton","state_name":"Florida","lat":27.44944,"lng":-82.37738,"zip":"34211","miles_from_dt":26.69},{"city":"Tampa","state_name":"Florida","lat":27.96677,"lng":-82.51408,"zip":"33607","miles_from_dt":26.69},{"city":"Winter Haven","state_name":"Florida","lat":27.9914,"lng":-81.77448,"zip":"33880","miles_from_dt":26.8},{"city":"Alturas","state_name":"Florida","lat":27.86233,"lng":-81.71058,"zip":"33820","miles_from_dt":26.81},{"city":"Tampa","state_name":"Florida","lat":27.99551,"lng":-82.49671,"zip":"33684","miles_from_dt":26.86},{"city":"Tampa","state_name":"Florida","lat":27.96776,"lng":-82.51825,"zip":"33664","miles_from_dt":26.95},{"city":"Tampa","state_name":"Florida","lat":27.96881,"lng":-82.51842,"zip":"33650","miles_from_dt":26.99},{"city":"Tampa","state_name":"Florida","lat":27.96624,"lng":-82.52019,"zip":"33677","miles_from_dt":27},{"city":"Tampa","state_name":"Florida","lat":27.96837,"lng":-82.51983,"zip":"33630","miles_from_dt":27.05},{"city":"Tampa","state_name":"Florida","lat":28.05071,"lng":-82.451,"zip":"33612","miles_from_dt":27.15},{"city":"Myakka City","state_name":"Florida","lat":27.37819,"lng":-82.17152,"zip":"34251","miles_from_dt":27.23},{"city":"Eagle Lake","state_name":"Florida","lat":27.97481,"lng":-81.75365,"zip":"33839","miles_from_dt":27.27},{"city":"Tampa","state_name":"Florida","lat":27.96269,"lng":-82.53349,"zip":"33631","miles_from_dt":27.59},{"city":"Tampa","state_name":"Florida","lat":28.00619,"lng":-82.50598,"zip":"33614","miles_from_dt":27.74},{"city":"Tampa","state_name":"Florida","lat":28.05591,"lng":-82.45906,"zip":"33682","miles_from_dt":27.75},{"city":"Ellenton","state_name":"Florida","lat":27.53474,"lng":-82.50699,"zip":"34222","miles_from_dt":27.99},{"city":"Crystal Springs","state_name":"Florida","lat":28.18259,"lng":-82.15872,"zip":"33524","miles_from_dt":28.28},{"city":"Palmetto","state_name":"Florida","lat":27.57777,"lng":-82.54285,"zip":"34221","miles_from_dt":28.28},{"city":"Tampa","state_name":"Florida","lat":28.13401,"lng":-82.36017,"zip":"33647","miles_from_dt":28.41},{"city":"Tampa","state_name":"Florida","lat":28.08344,"lng":-82.44873,"zip":"33613","miles_from_dt":28.69},{"city":"Auburndale","state_name":"Florida","lat":28.09041,"lng":-81.81267,"zip":"33823","miles_from_dt":29.53},{"city":"Bradenton","state_name":"Florida","lat":27.40722,"lng":-82.39254,"zip":"34202","miles_from_dt":29.64},{"city":"Tampa","state_name":"Florida","lat":28.00769,"lng":-82.54614,"zip":"33634","miles_from_dt":29.84}],"targetCityZipCode":"33547","targetCityState":"Florida"},"__N_SSG":true}