{"pageProps":{"stateName":"Florida","cityName":"live-oak","nearbyCities":[{"city":"Live Oak","state_name":"Florida","lat":30.28907,"lng":-83.02375,"zip":"32064","miles_from_dt":1.79},{"city":"McAlpin","state_name":"Florida","lat":30.13276,"lng":-82.9754,"zip":"32062","miles_from_dt":10.78},{"city":"Wellborn","state_name":"Florida","lat":30.19797,"lng":-82.82767,"zip":"32094","miles_from_dt":14.3},{"city":"Lee","state_name":"Florida","lat":30.38672,"lng":-83.27066,"zip":"32059","miles_from_dt":15.28},{"city":"Day","state_name":"Florida","lat":30.19366,"lng":-83.29116,"zip":"32013","miles_from_dt":15.52},{"city":"Jasper","state_name":"Florida","lat":30.48683,"lng":-82.94499,"zip":"32052","miles_from_dt":15.83},{"city":"O'Brien","state_name":"Florida","lat":30.04097,"lng":-82.945,"zip":"32071","miles_from_dt":17.32},{"city":"Mayo","state_name":"Florida","lat":30.04423,"lng":-83.22495,"zip":"32066","miles_from_dt":19.09},{"city":"Jennings","state_name":"Florida","lat":30.56417,"lng":-83.1519,"zip":"32053","miles_from_dt":20.8},{"city":"White Springs","state_name":"Florida","lat":30.43678,"lng":-82.7011,"zip":"32096","miles_from_dt":23.58},{"city":"Lake City","state_name":"Florida","lat":30.0793,"lng":-82.72597,"zip":"32024","miles_from_dt":23.61},{"city":"Lake City","state_name":"Florida","lat":30.19068,"lng":-82.6398,"zip":"32056","miles_from_dt":25.18},{"city":"Lake City","state_name":"Florida","lat":30.27031,"lng":-82.62507,"zip":"32055","miles_from_dt":25.37},{"city":"Madison","state_name":"Florida","lat":30.46973,"lng":-83.41748,"zip":"32341","miles_from_dt":25.74},{"city":"Madison","state_name":"Florida","lat":30.45651,"lng":-83.42667,"zip":"32340","miles_from_dt":25.76},{"city":"Pinetta","state_name":"Florida","lat":30.58662,"lng":-83.32242,"zip":"32350","miles_from_dt":26.92},{"city":"Branford","state_name":"Florida","lat":29.90351,"lng":-82.90311,"zip":"32008","miles_from_dt":27.08},{"city":"Statenville","state_name":"Georgia","lat":30.70834,"lng":-83.00838,"zip":"31648","miles_from_dt":29.91}],"targetCityZipCode":"32060","targetCityState":"Florida"},"__N_SSG":true}