{"pageProps":{"stateName":"Florida","cityName":"milton","nearbyCities":[{"city":"Jay","state_name":"Florida","lat":30.89241,"lng":-87.14071,"zip":"32565","miles_from_dt":11.39},{"city":"Milton","state_name":"Florida","lat":30.6278,"lng":-87.04861,"zip":"32572","miles_from_dt":12.53},{"city":"Holt","state_name":"Florida","lat":30.72755,"lng":-86.7875,"zip":"32564","miles_from_dt":12.58},{"city":"Milton","state_name":"Florida","lat":30.60084,"lng":-86.97513,"zip":"32583","miles_from_dt":13.74},{"city":"Bagdad","state_name":"Florida","lat":30.5926,"lng":-87.02344,"zip":"32530","miles_from_dt":14.52},{"city":"Milton","state_name":"Florida","lat":30.67162,"lng":-87.20004,"zip":"32571","miles_from_dt":15.73},{"city":"Baker","state_name":"Florida","lat":30.88513,"lng":-86.696,"zip":"32531","miles_from_dt":17.95},{"city":"Brewton","state_name":"Alabama","lat":31.10793,"lng":-87.07115,"zip":"36427","miles_from_dt":21.86},{"city":"Milligan","state_name":"Florida","lat":30.76092,"lng":-86.60592,"zip":"32537","miles_from_dt":22.51},{"city":"Crestview","state_name":"Florida","lat":30.75399,"lng":-86.59491,"zip":"32536","miles_from_dt":23.22},{"city":"Flomaton","state_name":"Alabama","lat":31.04064,"lng":-87.25885,"zip":"36441","miles_from_dt":23.36},{"city":"Pensacola","state_name":"Florida","lat":30.53209,"lng":-87.22235,"zip":"32514","miles_from_dt":23.38},{"city":"Gonzalez","state_name":"Florida","lat":30.5822,"lng":-87.29162,"zip":"32560","miles_from_dt":23.8},{"city":"Molino","state_name":"Florida","lat":30.73453,"lng":-87.37471,"zip":"32577","miles_from_dt":23.82},{"city":"Pensacola","state_name":"Florida","lat":30.51664,"lng":-87.21885,"zip":"32523","miles_from_dt":24.11},{"city":"Cantonment","state_name":"Florida","lat":30.61329,"lng":-87.32561,"zip":"32533","miles_from_dt":24.19},{"city":"Wing","state_name":"Alabama","lat":31.04273,"lng":-86.68494,"zip":"36483","miles_from_dt":24.28},{"city":"Brewton","state_name":"Alabama","lat":31.14386,"lng":-87.076,"zip":"36426","miles_from_dt":24.33},{"city":"Century","state_name":"Florida","lat":30.96515,"lng":-87.34673,"zip":"32535","miles_from_dt":24.49},{"city":"Pensacola","state_name":"Florida","lat":30.48541,"lng":-87.19025,"zip":"32524","miles_from_dt":25},{"city":"Pensacola","state_name":"Florida","lat":30.48495,"lng":-87.19093,"zip":"32504","miles_from_dt":25.04},{"city":"Pensacola","state_name":"Florida","lat":30.53276,"lng":-87.28374,"zip":"32534","miles_from_dt":25.75},{"city":"Navarre","state_name":"Florida","lat":30.4253,"lng":-86.8843,"zip":"32566","miles_from_dt":26.47},{"city":"Pensacola","state_name":"Florida","lat":30.46022,"lng":-87.21372,"zip":"32503","miles_from_dt":27.2},{"city":"Pensacola","state_name":"Florida","lat":30.46023,"lng":-87.21506,"zip":"32513","miles_from_dt":27.24},{"city":"Eglin Afb","state_name":"Florida","lat":30.58743,"lng":-86.59296,"zip":"32542","miles_from_dt":27.39},{"city":"Gulf Breeze","state_name":"Florida","lat":30.38782,"lng":-87.0331,"zip":"32563","miles_from_dt":28.57},{"city":"Pensacola","state_name":"Florida","lat":30.45559,"lng":-87.25815,"zip":"32520","miles_from_dt":28.9},{"city":"Pensacola","state_name":"Florida","lat":30.45575,"lng":-87.26082,"zip":"32505","miles_from_dt":28.98},{"city":"McDavid","state_name":"Florida","lat":30.87085,"lng":-87.46792,"zip":"32568","miles_from_dt":29.32},{"city":"Pensacola","state_name":"Florida","lat":30.42826,"lng":-87.22277,"zip":"32501","miles_from_dt":29.38},{"city":"Pensacola","state_name":"Florida","lat":30.42279,"lng":-87.22324,"zip":"32522","miles_from_dt":29.72}],"targetCityZipCode":"32570","targetCityState":"Florida"},"__N_SSG":true}