{"pageProps":{"stateName":"Florida","cityName":"pahokee","nearbyCities":[{"city":"Canal Point","state_name":"Florida","lat":26.95443,"lng":-80.56524,"zip":"33438","miles_from_dt":11.87},{"city":"Lake Harbor","state_name":"Florida","lat":26.69346,"lng":-80.81772,"zip":"33459","miles_from_dt":12.59},{"city":"Belle Glade","state_name":"Florida","lat":26.61415,"lng":-80.57952,"zip":"33430","miles_from_dt":13.65},{"city":"Loxahatchee","state_name":"Florida","lat":26.7832,"lng":-80.38063,"zip":"33470","miles_from_dt":16.88},{"city":"Indiantown","state_name":"Florida","lat":27.07969,"lng":-80.50074,"zip":"34956","miles_from_dt":21.36},{"city":"South Bay","state_name":"Florida","lat":26.47559,"lng":-80.72306,"zip":"33493","miles_from_dt":22.82},{"city":"Jupiter","state_name":"Florida","lat":26.93788,"lng":-80.26298,"zip":"33478","miles_from_dt":25.86},{"city":"West Palm Beach","state_name":"Florida","lat":26.80561,"lng":-80.21557,"zip":"33412","miles_from_dt":27.03},{"city":"Wellington","state_name":"Florida","lat":26.64829,"lng":-80.24943,"zip":"33414","miles_from_dt":27.08},{"city":"West Palm Beach","state_name":"Florida","lat":26.71517,"lng":-80.20305,"zip":"33411","miles_from_dt":28.43},{"city":"Royal Palm Beach","state_name":"Florida","lat":26.6802,"lng":-80.20498,"zip":"33421","miles_from_dt":28.92},{"city":"Okeechobee","state_name":"Florida","lat":27.15062,"lng":-80.91371,"zip":"34974","miles_from_dt":28.94},{"city":"Stuart","state_name":"Florida","lat":27.05085,"lng":-80.27268,"zip":"34997","miles_from_dt":29.1},{"city":"Palm City","state_name":"Florida","lat":27.13623,"lng":-80.35655,"zip":"34990","miles_from_dt":29.44},{"city":"Lake Worth","state_name":"Florida","lat":26.59272,"lng":-80.2339,"zip":"33449","miles_from_dt":29.62}],"targetCityZipCode":"33476","targetCityState":"Florida"},"__N_SSG":true}