{"pageProps":{"stateName":"Florida","cityName":"ponce-de-leon","nearbyCities":[{"city":"Defuniak Springs","state_name":"Florida","lat":30.65367,"lng":-86.11597,"zip":"32435","miles_from_dt":9.12},{"city":"Vernon","state_name":"Florida","lat":30.55753,"lng":-85.83241,"zip":"32462","miles_from_dt":9.61},{"city":"Argyle","state_name":"Florida","lat":30.74956,"lng":-86.07287,"zip":"32422","miles_from_dt":10.04},{"city":"Caryville","state_name":"Florida","lat":30.71587,"lng":-85.79311,"zip":"32427","miles_from_dt":11.49},{"city":"Freeport","state_name":"Florida","lat":30.49082,"lng":-86.12933,"zip":"32439","miles_from_dt":14.16},{"city":"Ebro","state_name":"Florida","lat":30.43315,"lng":-85.90694,"zip":"32437","miles_from_dt":14.54},{"city":"Westville","state_name":"Florida","lat":30.89687,"lng":-85.95592,"zip":"32464","miles_from_dt":17.82},{"city":"Defuniak Springs","state_name":"Florida","lat":30.84848,"lng":-86.19822,"zip":"32433","miles_from_dt":20.1},{"city":"Bonifay","state_name":"Florida","lat":30.85538,"lng":-85.72225,"zip":"32425","miles_from_dt":20.75},{"city":"Mossy Head","state_name":"Florida","lat":30.74234,"lng":-86.31461,"zip":"32434","miles_from_dt":22.07},{"city":"Wausau","state_name":"Florida","lat":30.6279,"lng":-85.58728,"zip":"32463","miles_from_dt":22.45},{"city":"Santa Rosa Beach","state_name":"Florida","lat":30.36527,"lng":-86.18429,"zip":"32459","miles_from_dt":22.95},{"city":"Inlet Beach","state_name":"Florida","lat":30.30905,"lng":-86.03508,"zip":"32461","miles_from_dt":23.07},{"city":"Panama City Beach","state_name":"Florida","lat":30.30975,"lng":-85.88745,"zip":"32413","miles_from_dt":23.09},{"city":"Chipley","state_name":"Florida","lat":30.61797,"lng":-85.57154,"zip":"32428","miles_from_dt":23.42},{"city":"Panama City","state_name":"Florida","lat":30.33447,"lng":-85.70516,"zip":"32409","miles_from_dt":26.01},{"city":"Miramar Beach","state_name":"Florida","lat":30.38541,"lng":-86.34438,"zip":"32550","miles_from_dt":28.61},{"city":"Black","state_name":"Alabama","lat":31.02141,"lng":-85.77645,"zip":"36314","miles_from_dt":28.65},{"city":"Geneva","state_name":"Alabama","lat":31.05391,"lng":-85.89155,"zip":"36340","miles_from_dt":28.95}],"targetCityZipCode":"32455","targetCityState":"Florida"},"__N_SSG":true}