{"pageProps":{"stateName":"Florida","cityName":"satsuma","nearbyCities":[{"city":"Pomona Park","state_name":"Florida","lat":29.50658,"lng":-81.60126,"zip":"32181","miles_from_dt":4.11},{"city":"Welaka","state_name":"Florida","lat":29.47605,"lng":-81.6647,"zip":"32193","miles_from_dt":5.18},{"city":"San Mateo","state_name":"Florida","lat":29.57827,"lng":-81.55392,"zip":"32187","miles_from_dt":6},{"city":"Palatka","state_name":"Florida","lat":29.64632,"lng":-81.6395,"zip":"32178","miles_from_dt":6.66},{"city":"Lake Como","state_name":"Florida","lat":29.46296,"lng":-81.58165,"zip":"32157","miles_from_dt":7.21},{"city":"East Palatka","state_name":"Florida","lat":29.67803,"lng":-81.56785,"zip":"32131","miles_from_dt":10.06},{"city":"Crescent City","state_name":"Florida","lat":29.42664,"lng":-81.55649,"zip":"32112","miles_from_dt":10.13},{"city":"Palatka","state_name":"Florida","lat":29.69011,"lng":-81.70565,"zip":"32177","miles_from_dt":10.26},{"city":"Hollister","state_name":"Florida","lat":29.63157,"lng":-81.79577,"zip":"32147","miles_from_dt":10.51},{"city":"Georgetown","state_name":"Florida","lat":29.37693,"lng":-81.61431,"zip":"32139","miles_from_dt":12.09},{"city":"Interlachen","state_name":"Florida","lat":29.60088,"lng":-81.88191,"zip":"32148","miles_from_dt":14.5},{"city":"Bostwick","state_name":"Florida","lat":29.7744,"lng":-81.64022,"zip":"32007","miles_from_dt":15.47},{"city":"Interlachen","state_name":"Florida","lat":29.61934,"lng":-81.89793,"zip":"32149","miles_from_dt":15.78},{"city":"Fort McCoy","state_name":"Florida","lat":29.37177,"lng":-81.82562,"zip":"32134","miles_from_dt":16.28},{"city":"Hastings","state_name":"Florida","lat":29.67899,"lng":-81.41973,"zip":"32145","miles_from_dt":16.37},{"city":"Seville","state_name":"Florida","lat":29.33289,"lng":-81.49056,"zip":"32190","miles_from_dt":17.71},{"city":"Orange Springs","state_name":"Florida","lat":29.50926,"lng":-81.94113,"zip":"32182","miles_from_dt":17.87},{"city":"Bunnell","state_name":"Florida","lat":29.44456,"lng":-81.36131,"zip":"32110","miles_from_dt":18.75},{"city":"Florahome","state_name":"Florida","lat":29.76274,"lng":-81.86306,"zip":"32140","miles_from_dt":19.54},{"city":"Grandin","state_name":"Florida","lat":29.72432,"lng":-81.91968,"zip":"32138","miles_from_dt":20.28},{"city":"Elkton","state_name":"Florida","lat":29.78851,"lng":-81.44263,"zip":"32033","miles_from_dt":20.57},{"city":"Putnam Hall","state_name":"Florida","lat":29.73095,"lng":-81.95736,"zip":"32185","miles_from_dt":22.39},{"city":"Melrose","state_name":"Florida","lat":29.72301,"lng":-81.99145,"zip":"32666","miles_from_dt":23.85},{"city":"Pierson","state_name":"Florida","lat":29.23437,"lng":-81.44521,"zip":"32180","miles_from_dt":24.94},{"city":"Saint Augustine","state_name":"Florida","lat":29.75656,"lng":-81.30282,"zip":"32086","miles_from_dt":25.19},{"city":"Palm Coast","state_name":"Florida","lat":29.54576,"lng":-81.22595,"zip":"32135","miles_from_dt":25.43},{"city":"Palm Coast","state_name":"Florida","lat":29.58057,"lng":-81.22455,"zip":"32137","miles_from_dt":25.6},{"city":"Hawthorne","state_name":"Florida","lat":29.56889,"lng":-82.08021,"zip":"32640","miles_from_dt":26.05},{"city":"Palm Coast","state_name":"Florida","lat":29.48316,"lng":-81.2174,"zip":"32164","miles_from_dt":26.36},{"city":"Keystone Heights","state_name":"Florida","lat":29.82533,"lng":-81.95287,"zip":"32656","miles_from_dt":26.37},{"city":"Palm Coast","state_name":"Florida","lat":29.48014,"lng":-81.21635,"zip":"32142","miles_from_dt":26.46},{"city":"Palm Coast","state_name":"Florida","lat":29.58446,"lng":-81.21006,"zip":"32143","miles_from_dt":26.49},{"city":"Lake Geneva","state_name":"Florida","lat":29.77303,"lng":-82.01018,"zip":"32160","miles_from_dt":26.65},{"city":"Green Cove Springs","state_name":"Florida","lat":29.92991,"lng":-81.74304,"zip":"32043","miles_from_dt":26.79},{"city":"Saint Augustine","state_name":"Florida","lat":29.92849,"lng":-81.52209,"zip":"32092","miles_from_dt":27.16},{"city":"Lochloosa","state_name":"Florida","lat":29.51144,"lng":-82.099,"zip":"32662","miles_from_dt":27.28},{"city":"Citra","state_name":"Florida","lat":29.39836,"lng":-82.08127,"zip":"32113","miles_from_dt":28.11},{"city":"Silver Springs","state_name":"Florida","lat":29.22584,"lng":-81.93226,"zip":"34488","miles_from_dt":28.14},{"city":"Barberville","state_name":"Florida","lat":29.18895,"lng":-81.41884,"zip":"32105","miles_from_dt":28.45},{"city":"Summerfield","state_name":"Florida","lat":29.22688,"lng":-81.94807,"zip":"34492","miles_from_dt":28.67},{"city":"Silver Springs","state_name":"Florida","lat":29.22688,"lng":-81.94807,"zip":"34489","miles_from_dt":28.67},{"city":"Island Grove","state_name":"Florida","lat":29.59009,"lng":-82.12737,"zip":"32654","miles_from_dt":28.98},{"city":"Saint Augustine","state_name":"Florida","lat":29.82453,"lng":-81.27412,"zip":"32080","miles_from_dt":29.39},{"city":"Astor","state_name":"Florida","lat":29.1359,"lng":-81.52544,"zip":"32102","miles_from_dt":29.46},{"city":"Saint Augustine","state_name":"Florida","lat":29.88685,"lng":-81.34372,"zip":"32085","miles_from_dt":29.56},{"city":"Earleton","state_name":"Florida","lat":29.71719,"lng":-82.10225,"zip":"32631","miles_from_dt":29.65}],"targetCityZipCode":"32189","targetCityState":"Florida"},"__N_SSG":true}