{"pageProps":{"stateName":"Florida","cityName":"spring-hill","nearbyCities":[{"city":"Spring Hill","state_name":"Florida","lat":28.48206,"lng":-82.56109,"zip":"34611","miles_from_dt":2.38},{"city":"Spring Hill","state_name":"Florida","lat":28.48258,"lng":-82.5532,"zip":"34608","miles_from_dt":2.84},{"city":"Spring Hill","state_name":"Florida","lat":28.4792,"lng":-82.50818,"zip":"34609","miles_from_dt":5.48},{"city":"Aripeka","state_name":"Florida","lat":28.42226,"lng":-82.67716,"zip":"34679","miles_from_dt":5.84},{"city":"Hudson","state_name":"Florida","lat":28.38926,"lng":-82.65654,"zip":"34667","miles_from_dt":6.6},{"city":"Brooksville","state_name":"Florida","lat":28.56183,"lng":-82.53803,"zip":"34613","miles_from_dt":7.31},{"city":"Spring Hill","state_name":"Florida","lat":28.57528,"lng":-82.62715,"zip":"34607","miles_from_dt":7.5},{"city":"Hudson","state_name":"Florida","lat":28.3577,"lng":-82.61476,"zip":"34669","miles_from_dt":7.78},{"city":"Spring Hill","state_name":"Florida","lat":28.38339,"lng":-82.50058,"zip":"34610","miles_from_dt":8.37},{"city":"Brooksville","state_name":"Florida","lat":28.49696,"lng":-82.45256,"zip":"34605","miles_from_dt":9.02},{"city":"Hudson","state_name":"Florida","lat":28.35772,"lng":-82.69869,"zip":"34674","miles_from_dt":9.86},{"city":"Brooksville","state_name":"Florida","lat":28.4781,"lng":-82.43322,"zip":"34604","miles_from_dt":10.02},{"city":"New Port Richey","state_name":"Florida","lat":28.29757,"lng":-82.62904,"zip":"34654","miles_from_dt":12},{"city":"Brooksville","state_name":"Florida","lat":28.64627,"lng":-82.51324,"zip":"34614","miles_from_dt":13.2},{"city":"Port Richey","state_name":"Florida","lat":28.30176,"lng":-82.70516,"zip":"34668","miles_from_dt":13.29},{"city":"Brooksville","state_name":"Florida","lat":28.55221,"lng":-82.39106,"zip":"34603","miles_from_dt":13.79},{"city":"Land O'Lakes","state_name":"Florida","lat":28.29589,"lng":-82.46368,"zip":"34637","miles_from_dt":14.48},{"city":"Land O'Lakes","state_name":"Florida","lat":28.26035,"lng":-82.52036,"zip":"34638","miles_from_dt":15.16},{"city":"Port Richey","state_name":"Florida","lat":28.27516,"lng":-82.72017,"zip":"34673","miles_from_dt":15.33},{"city":"Brooksville","state_name":"Florida","lat":28.5892,"lng":-82.36857,"zip":"34601","miles_from_dt":16.18},{"city":"New Port Richey","state_name":"Florida","lat":28.24266,"lng":-82.69308,"zip":"34653","miles_from_dt":16.68},{"city":"New Port Richey","state_name":"Florida","lat":28.24361,"lng":-82.70907,"zip":"34656","miles_from_dt":16.98},{"city":"New Port Richey","state_name":"Florida","lat":28.21201,"lng":-82.65516,"zip":"34655","miles_from_dt":18.08},{"city":"New Port Richey","state_name":"Florida","lat":28.2368,"lng":-82.73661,"zip":"34652","miles_from_dt":18.13},{"city":"Land O'Lakes","state_name":"Florida","lat":28.24456,"lng":-82.42475,"zip":"34639","miles_from_dt":18.74},{"city":"Elfers","state_name":"Florida","lat":28.2103,"lng":-82.71165,"zip":"34680","miles_from_dt":19.16},{"city":"Brooksville","state_name":"Florida","lat":28.50252,"lng":-82.28007,"zip":"34602","miles_from_dt":19.45},{"city":"Homosassa","state_name":"Florida","lat":28.74904,"lng":-82.52344,"zip":"34446","miles_from_dt":19.76},{"city":"San Antonio","state_name":"Florida","lat":28.32472,"lng":-82.31682,"zip":"33576","miles_from_dt":19.8},{"city":"Wesley Chapel","state_name":"Florida","lat":28.25132,"lng":-82.37039,"zip":"33544","miles_from_dt":20.43},{"city":"Dade City","state_name":"Florida","lat":28.41787,"lng":-82.26476,"zip":"33523","miles_from_dt":20.57},{"city":"Odessa","state_name":"Florida","lat":28.17029,"lng":-82.59264,"zip":"33556","miles_from_dt":20.61},{"city":"Holiday","state_name":"Florida","lat":28.19228,"lng":-82.72726,"zip":"34690","miles_from_dt":20.67},{"city":"Homosassa","state_name":"Florida","lat":28.77009,"lng":-82.61201,"zip":"34448","miles_from_dt":20.71},{"city":"Holiday","state_name":"Florida","lat":28.19,"lng":-82.74219,"zip":"34692","miles_from_dt":21.17},{"city":"Homosassa","state_name":"Florida","lat":28.78148,"lng":-82.61272,"zip":"34487","miles_from_dt":21.5},{"city":"Holiday","state_name":"Florida","lat":28.19042,"lng":-82.76603,"zip":"34691","miles_from_dt":21.79},{"city":"Lutz","state_name":"Florida","lat":28.15871,"lng":-82.51597,"zip":"33558","miles_from_dt":21.98},{"city":"Saint Leo","state_name":"Florida","lat":28.33811,"lng":-82.257,"zip":"33574","miles_from_dt":22.63},{"city":"Homosassa Springs","state_name":"Florida","lat":28.79655,"lng":-82.55023,"zip":"34447","miles_from_dt":22.7},{"city":"Nobleton","state_name":"Florida","lat":28.62108,"lng":-82.26507,"zip":"34661","miles_from_dt":22.75},{"city":"Tarpon Springs","state_name":"Florida","lat":28.14445,"lng":-82.68543,"zip":"34688","miles_from_dt":23.02},{"city":"Wesley Chapel","state_name":"Florida","lat":28.26578,"lng":-82.28832,"zip":"33545","miles_from_dt":23.49},{"city":"Zephyrhills","state_name":"Florida","lat":28.24985,"lng":-82.30023,"zip":"33539","miles_from_dt":23.6},{"city":"Istachatta","state_name":"Florida","lat":28.65891,"lng":-82.27302,"zip":"34636","miles_from_dt":23.65},{"city":"Lutz","state_name":"Florida","lat":28.13788,"lng":-82.48184,"zip":"33548","miles_from_dt":23.91},{"city":"Inverness","state_name":"Florida","lat":28.76231,"lng":-82.37986,"zip":"34452","miles_from_dt":24.11},{"city":"Tarpon Springs","state_name":"Florida","lat":28.14971,"lng":-82.75956,"zip":"34689","miles_from_dt":24.14},{"city":"Lutz","state_name":"Florida","lat":28.15788,"lng":-82.41007,"zip":"33559","miles_from_dt":24.32},{"city":"Trilby","state_name":"Florida","lat":28.45861,"lng":-82.19591,"zip":"33593","miles_from_dt":24.46},{"city":"Lutz","state_name":"Florida","lat":28.1392,"lng":-82.44624,"zip":"33549","miles_from_dt":24.55},{"city":"Lecanto","state_name":"Florida","lat":28.81544,"lng":-82.48029,"zip":"34461","miles_from_dt":24.86},{"city":"Dade City","state_name":"Florida","lat":28.40695,"lng":-82.19033,"zip":"33526","miles_from_dt":25.16},{"city":"Tampa","state_name":"Florida","lat":28.11902,"lng":-82.4715,"zip":"33675","miles_from_dt":25.34},{"city":"Wesley Chapel","state_name":"Florida","lat":28.20279,"lng":-82.30503,"zip":"33543","miles_from_dt":25.6},{"city":"Lacoochee","state_name":"Florida","lat":28.46664,"lng":-82.17676,"zip":"33537","miles_from_dt":25.61},{"city":"Floral City","state_name":"Florida","lat":28.72672,"lng":-82.29134,"zip":"34436","miles_from_dt":25.69},{"city":"Palm Harbor","state_name":"Florida","lat":28.09995,"lng":-82.68851,"zip":"34685","miles_from_dt":26.05},{"city":"Dade City","state_name":"Florida","lat":28.33503,"lng":-82.18383,"zip":"33525","miles_from_dt":26.84},{"city":"Crystal River","state_name":"Florida","lat":28.85737,"lng":-82.65152,"zip":"34429","miles_from_dt":26.9},{"city":"Crystal River","state_name":"Florida","lat":28.86279,"lng":-82.57233,"zip":"34423","miles_from_dt":27.12},{"city":"Tampa","state_name":"Florida","lat":28.07903,"lng":-82.52608,"zip":"33624","miles_from_dt":27.25},{"city":"Tampa","state_name":"Florida","lat":28.13401,"lng":-82.36017,"zip":"33647","miles_from_dt":27.27},{"city":"Tampa","state_name":"Florida","lat":28.06807,"lng":-82.56016,"zip":"33625","miles_from_dt":27.75},{"city":"Palm Harbor","state_name":"Florida","lat":28.08122,"lng":-82.72779,"zip":"34684","miles_from_dt":27.9},{"city":"Tampa","state_name":"Florida","lat":28.07313,"lng":-82.49781,"zip":"33618","miles_from_dt":27.97},{"city":"Tampa","state_name":"Florida","lat":28.06256,"lng":-82.61526,"zip":"33626","miles_from_dt":28.05},{"city":"Tampa","state_name":"Florida","lat":28.08344,"lng":-82.44873,"zip":"33613","miles_from_dt":28.1},{"city":"Palm Harbor","state_name":"Florida","lat":28.08626,"lng":-82.76025,"zip":"34683","miles_from_dt":28.2},{"city":"Tampa","state_name":"Florida","lat":28.06931,"lng":-82.4972,"zip":"33694","miles_from_dt":28.24},{"city":"Zephyrhills","state_name":"Florida","lat":28.23029,"lng":-82.22073,"zip":"33541","miles_from_dt":28.26},{"city":"Crystal Beach","state_name":"Florida","lat":28.0903,"lng":-82.77801,"zip":"34681","miles_from_dt":28.34},{"city":"Tampa","state_name":"Florida","lat":28.06161,"lng":-82.50555,"zip":"33688","miles_from_dt":28.65},{"city":"Palm Harbor","state_name":"Florida","lat":28.07705,"lng":-82.76142,"zip":"34682","miles_from_dt":28.82},{"city":"Oldsmar","state_name":"Florida","lat":28.05293,"lng":-82.67549,"zip":"34677","miles_from_dt":29.08},{"city":"Bushnell","state_name":"Florida","lat":28.66849,"lng":-82.17143,"zip":"33513","miles_from_dt":29.31},{"city":"Tampa","state_name":"Florida","lat":28.05591,"lng":-82.45906,"zip":"33682","miles_from_dt":29.71},{"city":"Ozona","state_name":"Florida","lat":28.06657,"lng":-82.77773,"zip":"34660","miles_from_dt":29.85}],"targetCityZipCode":"34606","targetCityState":"Florida"},"__N_SSG":true}