{"pageProps":{"stateName":"Florida","cityName":"vero-beach","nearbyCities":[{"city":"Vero Beach","state_name":"Florida","lat":27.63786,"lng":-80.39992,"zip":"32964","miles_from_dt":0.3},{"city":"Vero Beach","state_name":"Florida","lat":27.63895,"lng":-80.39767,"zip":"32969","miles_from_dt":0.39},{"city":"Vero Beach","state_name":"Florida","lat":27.64553,"lng":-80.39415,"zip":"32965","miles_from_dt":0.67},{"city":"Vero Beach","state_name":"Florida","lat":27.6309,"lng":-80.37979,"zip":"32961","miles_from_dt":1.61},{"city":"Vero Beach","state_name":"Florida","lat":27.5865,"lng":-80.38414,"zip":"32962","miles_from_dt":3.92},{"city":"Winter Beach","state_name":"Florida","lat":27.71462,"lng":-80.42241,"zip":"32971","miles_from_dt":5.22},{"city":"Vero Beach","state_name":"Florida","lat":27.71951,"lng":-80.39646,"zip":"32963","miles_from_dt":5.45},{"city":"Vero Beach","state_name":"Florida","lat":27.71359,"lng":-80.46015,"zip":"32967","miles_from_dt":6.1},{"city":"Vero Beach","state_name":"Florida","lat":27.58808,"lng":-80.50993,"zip":"32968","miles_from_dt":7.46},{"city":"Fort Pierce","state_name":"Florida","lat":27.52268,"lng":-80.41783,"zip":"34951","miles_from_dt":8.17},{"city":"Wabasso","state_name":"Florida","lat":27.75402,"lng":-80.45136,"zip":"32970","miles_from_dt":8.33},{"city":"Fort Pierce","state_name":"Florida","lat":27.50456,"lng":-80.36106,"zip":"34946","miles_from_dt":9.73},{"city":"Sebastian","state_name":"Florida","lat":27.79264,"lng":-80.48682,"zip":"32978","miles_from_dt":11.64},{"city":"Sebastian","state_name":"Florida","lat":27.79364,"lng":-80.49135,"zip":"32958","miles_from_dt":11.82},{"city":"Fort Pierce","state_name":"Florida","lat":27.44903,"lng":-80.37633,"zip":"34947","miles_from_dt":13.3},{"city":"Fort Pierce","state_name":"Florida","lat":27.4668,"lng":-80.30417,"zip":"34949","miles_from_dt":13.44},{"city":"Fort Pierce","state_name":"Florida","lat":27.45108,"lng":-80.33889,"zip":"34954","miles_from_dt":13.65},{"city":"Fort Pierce","state_name":"Florida","lat":27.4472,"lng":-80.34407,"zip":"34948","miles_from_dt":13.82},{"city":"Fort Pierce","state_name":"Florida","lat":27.44503,"lng":-80.33981,"zip":"34979","miles_from_dt":14.03},{"city":"Roseland","state_name":"Florida","lat":27.83196,"lng":-80.49235,"zip":"32957","miles_from_dt":14.25},{"city":"Fort Pierce","state_name":"Florida","lat":27.44341,"lng":-80.32969,"zip":"34950","miles_from_dt":14.32},{"city":"Fellsmere","state_name":"Florida","lat":27.75901,"lng":-80.61826,"zip":"32948","miles_from_dt":15.47},{"city":"Fort Pierce","state_name":"Florida","lat":27.45219,"lng":-80.55213,"zip":"34945","miles_from_dt":15.86},{"city":"Fort Pierce","state_name":"Florida","lat":27.39329,"lng":-80.37163,"zip":"34981","miles_from_dt":17.15},{"city":"Sebastian","state_name":"Florida","lat":27.86198,"lng":-80.53721,"zip":"32976","miles_from_dt":17.29},{"city":"Vero Beach","state_name":"Florida","lat":27.68716,"lng":-80.70693,"zip":"32966","miles_from_dt":18.87},{"city":"Fort Pierce","state_name":"Florida","lat":27.37669,"lng":-80.31082,"zip":"34982","miles_from_dt":19.05},{"city":"Grant","state_name":"Florida","lat":27.92005,"lng":-80.55203,"zip":"32949","miles_from_dt":21.27},{"city":"Port Saint Lucie","state_name":"Florida","lat":27.32804,"lng":-80.40524,"zip":"34986","miles_from_dt":21.53},{"city":"Port Saint Lucie","state_name":"Florida","lat":27.341,"lng":-80.51977,"zip":"34988","miles_from_dt":21.83},{"city":"Port Saint Lucie","state_name":"Florida","lat":27.32295,"lng":-80.35052,"zip":"34983","miles_from_dt":22.12},{"city":"Melbourne Beach","state_name":"Florida","lat":27.9595,"lng":-80.51498,"zip":"32951","miles_from_dt":22.99},{"city":"Palm Bay","state_name":"Florida","lat":27.90435,"lng":-80.65515,"zip":"32909","miles_from_dt":23.81},{"city":"Port Saint Lucie","state_name":"Florida","lat":27.29509,"lng":-80.34957,"zip":"34985","miles_from_dt":24.03},{"city":"Port Saint Lucie","state_name":"Florida","lat":27.2969,"lng":-80.29748,"zip":"34952","miles_from_dt":24.55},{"city":"Port Saint Lucie","state_name":"Florida","lat":27.28637,"lng":-80.50953,"zip":"34987","miles_from_dt":25.25},{"city":"Malabar","state_name":"Florida","lat":27.9757,"lng":-80.57839,"zip":"32950","miles_from_dt":25.43},{"city":"Jensen Beach","state_name":"Florida","lat":27.28399,"lng":-80.24252,"zip":"34957","miles_from_dt":26.48},{"city":"Port Saint Lucie","state_name":"Florida","lat":27.24938,"lng":-80.38137,"zip":"34953","miles_from_dt":26.98},{"city":"Port Saint Lucie","state_name":"Florida","lat":27.24784,"lng":-80.33456,"zip":"34984","miles_from_dt":27.38},{"city":"Palm Bay","state_name":"Florida","lat":27.95622,"lng":-80.69827,"zip":"32908","miles_from_dt":28.24},{"city":"Melbourne","state_name":"Florida","lat":27.99438,"lng":-80.64693,"zip":"32902","miles_from_dt":28.55},{"city":"Palm Bay","state_name":"Florida","lat":28.01247,"lng":-80.62758,"zip":"32906","miles_from_dt":29.04},{"city":"Palm Bay","state_name":"Florida","lat":28.03136,"lng":-80.59997,"zip":"32905","miles_from_dt":29.46}],"targetCityZipCode":"32960","targetCityState":"Florida"},"__N_SSG":true}