{"pageProps":{"stateName":"Missouri","cityName":"aldrich","nearbyCities":[{"city":"Morrisville","state_name":"Missouri","lat":37.48124,"lng":-93.53712,"zip":"65645","miles_from_dt":4.42},{"city":"Fair Play","state_name":"Missouri","lat":37.621,"lng":-93.61839,"zip":"65649","miles_from_dt":6.41},{"city":"Dadeville","state_name":"Missouri","lat":37.53487,"lng":-93.71812,"zip":"65635","miles_from_dt":7.21},{"city":"Walnut Grove","state_name":"Missouri","lat":37.42165,"lng":-93.5456,"zip":"65770","miles_from_dt":7.91},{"city":"Morrisville","state_name":"Missouri","lat":37.48707,"lng":-93.42099,"zip":"65710","miles_from_dt":9.62},{"city":"Dunnegan","state_name":"Missouri","lat":37.69956,"lng":-93.57165,"zip":"65640","miles_from_dt":11.62},{"city":"Bolivar","state_name":"Missouri","lat":37.63557,"lng":-93.39205,"zip":"65613","miles_from_dt":12.88},{"city":"Greenfield","state_name":"Missouri","lat":37.46095,"lng":-93.82722,"zip":"65661","miles_from_dt":14.07},{"city":"Everton","state_name":"Missouri","lat":37.33511,"lng":-93.7039,"zip":"65646","miles_from_dt":15},{"city":"Brighton","state_name":"Missouri","lat":37.4376,"lng":-93.34063,"zip":"65617","miles_from_dt":15.01},{"city":"Arcola","state_name":"Missouri","lat":37.54574,"lng":-93.86072,"zip":"65603","miles_from_dt":15.07},{"city":"Willard","state_name":"Missouri","lat":37.35035,"lng":-93.41778,"zip":"65781","miles_from_dt":15.58},{"city":"Stockton","state_name":"Missouri","lat":37.70296,"lng":-93.82338,"zip":"65785","miles_from_dt":17.55},{"city":"Humansville","state_name":"Missouri","lat":37.78872,"lng":-93.61018,"zip":"65674","miles_from_dt":17.78},{"city":"Ash Grove","state_name":"Missouri","lat":37.27348,"lng":-93.60367,"zip":"65604","miles_from_dt":17.82},{"city":"Pleasant Hope","state_name":"Missouri","lat":37.42986,"lng":-93.27424,"zip":"65725","miles_from_dt":18.56},{"city":"South Greenfield","state_name":"Missouri","lat":37.32742,"lng":-93.83842,"zip":"65752","miles_from_dt":19.74},{"city":"Half Way","state_name":"Missouri","lat":37.62732,"lng":-93.24486,"zip":"65663","miles_from_dt":19.9},{"city":"Flemington","state_name":"Missouri","lat":37.81388,"lng":-93.44749,"zip":"65650","miles_from_dt":20.92},{"city":"Bois D Arc","state_name":"Missouri","lat":37.21897,"lng":-93.54694,"zip":"65612","miles_from_dt":21.67},{"city":"Caplinger Mills","state_name":"Missouri","lat":37.79496,"lng":-93.80452,"zip":"65607","miles_from_dt":21.73},{"city":"Lockwood","state_name":"Missouri","lat":37.41722,"lng":-93.97293,"zip":"65682","miles_from_dt":22.64},{"city":"Polk","state_name":"Missouri","lat":37.76266,"lng":-93.28889,"zip":"65727","miles_from_dt":22.83},{"city":"Halltown","state_name":"Missouri","lat":37.19728,"lng":-93.61732,"zip":"65664","miles_from_dt":23.11},{"city":"Springfield","state_name":"Missouri","lat":37.28464,"lng":-93.29036,"zip":"65803","miles_from_dt":23.58},{"city":"Springfield","state_name":"Missouri","lat":37.25481,"lng":-93.31533,"zip":"65805","miles_from_dt":24.24},{"city":"Jerico Springs","state_name":"Missouri","lat":37.61931,"lng":-94.01462,"zip":"64756","miles_from_dt":24.24},{"city":"Miller","state_name":"Missouri","lat":37.22862,"lng":-93.84574,"zip":"65707","miles_from_dt":25.29},{"city":"Fair Grove","state_name":"Missouri","lat":37.40297,"lng":-93.15402,"zip":"65648","miles_from_dt":25.39},{"city":"Springfield","state_name":"Missouri","lat":37.21048,"lng":-93.35167,"zip":"65802","miles_from_dt":25.65},{"city":"Collins","state_name":"Missouri","lat":37.90098,"lng":-93.65987,"zip":"64738","miles_from_dt":25.79},{"city":"Springfield","state_name":"Missouri","lat":37.20586,"lng":-93.3548,"zip":"65890","miles_from_dt":25.84},{"city":"Pittsburg","state_name":"Missouri","lat":37.83924,"lng":-93.31488,"zip":"65724","miles_from_dt":25.93},{"city":"Springfield","state_name":"Missouri","lat":37.21684,"lng":-93.30002,"zip":"65814","miles_from_dt":26.84},{"city":"Springfield","state_name":"Missouri","lat":37.21421,"lng":-93.29521,"zip":"65801","miles_from_dt":27.14},{"city":"Buffalo","state_name":"Missouri","lat":37.6337,"lng":-93.10775,"zip":"65622","miles_from_dt":27.23},{"city":"Springfield","state_name":"Missouri","lat":37.21338,"lng":-93.2922,"zip":"65898","miles_from_dt":27.29},{"city":"Springfield","state_name":"Missouri","lat":37.20567,"lng":-93.29847,"zip":"65806","miles_from_dt":27.52},{"city":"Weaubleau","state_name":"Missouri","lat":37.92806,"lng":-93.49529,"zip":"65774","miles_from_dt":27.8},{"city":"Republic","state_name":"Missouri","lat":37.13503,"lng":-93.49424,"zip":"65738","miles_from_dt":27.82},{"city":"Springfield","state_name":"Missouri","lat":37.19985,"lng":-93.28055,"zip":"65897","miles_from_dt":28.42},{"city":"Louisburg","state_name":"Missouri","lat":37.75642,"lng":-93.1511,"zip":"65685","miles_from_dt":28.49},{"city":"Springfield","state_name":"Missouri","lat":37.16907,"lng":-93.32652,"zip":"65817","miles_from_dt":28.82},{"city":"Springfield","state_name":"Missouri","lat":37.166,"lng":-93.32483,"zip":"65807","miles_from_dt":29.05},{"city":"Springfield","state_name":"Missouri","lat":37.18979,"lng":-93.26234,"zip":"65808","miles_from_dt":29.57}],"targetCityZipCode":"65601","targetCityState":"Missouri"},"__N_SSG":true}