{"pageProps":{"stateName":"Missouri","cityName":"allendale","nearbyCities":[{"city":"Grant City","state_name":"Missouri","lat":40.49433,"lng":-94.38733,"zip":"64456","miles_from_dt":5.2},{"city":"Denver","state_name":"Missouri","lat":40.39883,"lng":-94.2642,"zip":"64441","miles_from_dt":6.19},{"city":"Hatfield","state_name":"Missouri","lat":40.52246,"lng":-94.14491,"zip":"64458","miles_from_dt":8},{"city":"Worth","state_name":"Missouri","lat":40.39707,"lng":-94.41521,"zip":"64499","miles_from_dt":9.06},{"city":"Martinsville","state_name":"Missouri","lat":40.39772,"lng":-94.16236,"zip":"64467","miles_from_dt":9.07},{"city":"Redding","state_name":"Iowa","lat":40.62253,"lng":-94.34949,"zip":"50860","miles_from_dt":9.91},{"city":"Gentry","state_name":"Missouri","lat":40.34471,"lng":-94.46947,"zip":"64453","miles_from_dt":13.64},{"city":"Mount Ayr","state_name":"Iowa","lat":40.69089,"lng":-94.21977,"zip":"50854","miles_from_dt":14.57},{"city":"Blockton","state_name":"Iowa","lat":40.63116,"lng":-94.49689,"zip":"50836","miles_from_dt":14.8},{"city":"Eagleville","state_name":"Missouri","lat":40.49935,"lng":-94.00645,"zip":"64442","miles_from_dt":14.92},{"city":"Benton","state_name":"Iowa","lat":40.70769,"lng":-94.3675,"zip":"50835","miles_from_dt":15.81},{"city":"New Hampton","state_name":"Missouri","lat":40.26548,"lng":-94.1936,"zip":"64471","miles_from_dt":16.06},{"city":"Albany","state_name":"Missouri","lat":40.25201,"lng":-94.32276,"zip":"64402","miles_from_dt":16.27},{"city":"Sheridan","state_name":"Missouri","lat":40.52951,"lng":-94.61471,"zip":"64486","miles_from_dt":17.4},{"city":"Parnell","state_name":"Missouri","lat":40.43561,"lng":-94.63049,"zip":"64475","miles_from_dt":18.33},{"city":"Lamoni","state_name":"Iowa","lat":40.63753,"lng":-93.99198,"zip":"50140","miles_from_dt":18.8},{"city":"Kellerton","state_name":"Iowa","lat":40.71592,"lng":-94.07576,"zip":"50133","miles_from_dt":19.41},{"city":"Bethany","state_name":"Missouri","lat":40.26453,"lng":-94.03242,"zip":"64424","miles_from_dt":20.45},{"city":"Ravenwood","state_name":"Missouri","lat":40.34853,"lng":-94.66636,"zip":"64479","miles_from_dt":22.05},{"city":"Stanberry","state_name":"Missouri","lat":40.23543,"lng":-94.54969,"zip":"64489","miles_from_dt":22.11},{"city":"Ridgeway","state_name":"Missouri","lat":40.35622,"lng":-93.8957,"zip":"64481","miles_from_dt":22.61},{"city":"Blythedale","state_name":"Missouri","lat":40.51747,"lng":-93.86158,"zip":"64426","miles_from_dt":22.62},{"city":"Diagonal","state_name":"Iowa","lat":40.81683,"lng":-94.3523,"zip":"50845","miles_from_dt":23.04},{"city":"Darlington","state_name":"Missouri","lat":40.16106,"lng":-94.41091,"zip":"64438","miles_from_dt":23.35},{"city":"Clearfield","state_name":"Iowa","lat":40.79378,"lng":-94.48413,"zip":"50840","miles_from_dt":23.55},{"city":"McFall","state_name":"Missouri","lat":40.13269,"lng":-94.21292,"zip":"64657","miles_from_dt":24.74},{"city":"Clyde","state_name":"Missouri","lat":40.26399,"lng":-94.66119,"zip":"64432","miles_from_dt":24.92},{"city":"Bedford","state_name":"Iowa","lat":40.66956,"lng":-94.70309,"zip":"50833","miles_from_dt":25.18},{"city":"Tingley","state_name":"Iowa","lat":40.84701,"lng":-94.17318,"zip":"50863","miles_from_dt":25.62},{"city":"Conception","state_name":"Missouri","lat":40.24107,"lng":-94.68053,"zip":"64433","miles_from_dt":26.71},{"city":"Decatur","state_name":"Iowa","lat":40.70452,"lng":-93.85914,"zip":"50067","miles_from_dt":27.17},{"city":"Cainsville","state_name":"Missouri","lat":40.46915,"lng":-93.76862,"zip":"64632","miles_from_dt":27.46},{"city":"Hopkins","state_name":"Missouri","lat":40.52459,"lng":-94.81063,"zip":"64461","miles_from_dt":27.59},{"city":"Ellston","state_name":"Iowa","lat":40.85685,"lng":-94.07524,"zip":"50074","miles_from_dt":27.92},{"city":"Davis City","state_name":"Iowa","lat":40.60859,"lng":-93.78089,"zip":"50065","miles_from_dt":28.05},{"city":"Conception Junction","state_name":"Missouri","lat":40.2584,"lng":-94.73615,"zip":"64434","miles_from_dt":28.35},{"city":"Pickering","state_name":"Missouri","lat":40.45115,"lng":-94.83034,"zip":"64476","miles_from_dt":28.62},{"city":"Grand River","state_name":"Iowa","lat":40.82479,"lng":-93.9577,"zip":"50108","miles_from_dt":29.13},{"city":"Shannon City","state_name":"Iowa","lat":40.91163,"lng":-94.25685,"zip":"50861","miles_from_dt":29.39},{"city":"Sharpsburg","state_name":"Iowa","lat":40.81304,"lng":-94.65136,"zip":"50862","miles_from_dt":29.5},{"city":"Coffey","state_name":"Missouri","lat":40.11989,"lng":-93.98769,"zip":"64636","miles_from_dt":29.89}],"targetCityZipCode":"64420","targetCityState":"Missouri"},"__N_SSG":true}