{"pageProps":{"stateName":"Missouri","cityName":"archie","nearbyCities":[{"city":"Adrian","state_name":"Missouri","lat":38.40533,"lng":-94.33742,"zip":"64720","miles_from_dt":6.37},{"city":"Harrisonville","state_name":"Missouri","lat":38.62053,"lng":-94.3378,"zip":"64701","miles_from_dt":8.81},{"city":"Drexel","state_name":"Missouri","lat":38.50034,"lng":-94.54329,"zip":"64742","miles_from_dt":9.61},{"city":"Freeman","state_name":"Missouri","lat":38.61054,"lng":-94.49304,"zip":"64746","miles_from_dt":10.54},{"city":"Garden City","state_name":"Missouri","lat":38.57353,"lng":-94.17399,"zip":"64747","miles_from_dt":11.74},{"city":"Amsterdam","state_name":"Missouri","lat":38.3615,"lng":-94.55298,"zip":"64723","miles_from_dt":13.69},{"city":"East Lynne","state_name":"Missouri","lat":38.66596,"lng":-94.21827,"zip":"64743","miles_from_dt":14.26},{"city":"Creighton","state_name":"Missouri","lat":38.51139,"lng":-94.09389,"zip":"64739","miles_from_dt":14.8},{"city":"Cleveland","state_name":"Missouri","lat":38.64888,"lng":-94.57405,"zip":"64734","miles_from_dt":15.48},{"city":"Peculiar","state_name":"Missouri","lat":38.70711,"lng":-94.46375,"zip":"64078","miles_from_dt":15.57},{"city":"Butler","state_name":"Missouri","lat":38.25789,"lng":-94.29236,"zip":"64730","miles_from_dt":16.83},{"city":"Louisburg","state_name":"Kansas","lat":38.57753,"lng":-94.67029,"zip":"66053","miles_from_dt":17.44},{"city":"Amoret","state_name":"Missouri","lat":38.27388,"lng":-94.55188,"zip":"64722","miles_from_dt":18.27},{"city":"Urich","state_name":"Missouri","lat":38.42868,"lng":-94.02045,"zip":"64788","miles_from_dt":19.29},{"city":"Pleasant Hill","state_name":"Missouri","lat":38.7691,"lng":-94.25639,"zip":"64080","miles_from_dt":19.83},{"city":"Strasburg","state_name":"Missouri","lat":38.75991,"lng":-94.16387,"zip":"64090","miles_from_dt":21.31},{"city":"Raymore","state_name":"Missouri","lat":38.80082,"lng":-94.4483,"zip":"64083","miles_from_dt":21.57},{"city":"La Cygne","state_name":"Kansas","lat":38.35396,"lng":-94.73949,"zip":"66040","miles_from_dt":22.47},{"city":"Belton","state_name":"Missouri","lat":38.78906,"lng":-94.55204,"zip":"64012","miles_from_dt":22.65},{"city":"Blairstown","state_name":"Missouri","lat":38.52921,"lng":-93.92492,"zip":"64726","miles_from_dt":24.03},{"city":"Bucyrus","state_name":"Kansas","lat":38.73428,"lng":-94.68948,"zip":"66013","miles_from_dt":24.06},{"city":"Foster","state_name":"Missouri","lat":38.15662,"lng":-94.50384,"zip":"64745","miles_from_dt":24.5},{"city":"Kingsville","state_name":"Missouri","lat":38.77981,"lng":-94.0885,"zip":"64061","miles_from_dt":24.74},{"city":"Greenwood","state_name":"Missouri","lat":38.85052,"lng":-94.30203,"zip":"64034","miles_from_dt":24.78},{"city":"Montrose","state_name":"Missouri","lat":38.27528,"lng":-93.98662,"zip":"64770","miles_from_dt":25.57},{"city":"Lees Summit","state_name":"Missouri","lat":38.86601,"lng":-94.4039,"zip":"64082","miles_from_dt":25.69},{"city":"Holden","state_name":"Missouri","lat":38.71928,"lng":-93.98725,"zip":"64040","miles_from_dt":25.69},{"city":"Stilwell","state_name":"Kansas","lat":38.80069,"lng":-94.64729,"zip":"66085","miles_from_dt":26.01},{"city":"Kansas City","state_name":"Missouri","lat":38.86524,"lng":-94.46666,"zip":"64149","miles_from_dt":26.12},{"city":"Kansas City","state_name":"Missouri","lat":38.85387,"lng":-94.54688,"zip":"64147","miles_from_dt":26.63},{"city":"Pleasanton","state_name":"Kansas","lat":38.20362,"lng":-94.69272,"zip":"66075","miles_from_dt":26.8},{"city":"Paola","state_name":"Kansas","lat":38.57367,"lng":-94.86575,"zip":"66071","miles_from_dt":27.61},{"city":"Fontana","state_name":"Kansas","lat":38.39047,"lng":-94.86056,"zip":"66026","miles_from_dt":27.77},{"city":"Rich Hill","state_name":"Missouri","lat":38.09214,"lng":-94.40152,"zip":"64779","miles_from_dt":27.84},{"city":"Grandview","state_name":"Missouri","lat":38.87996,"lng":-94.52312,"zip":"64030","miles_from_dt":27.89},{"city":"Lees Summit","state_name":"Missouri","lat":38.90971,"lng":-94.40953,"zip":"64081","miles_from_dt":28.71},{"city":"Hillsdale","state_name":"Kansas","lat":38.6623,"lng":-94.852,"zip":"66036","miles_from_dt":28.73},{"city":"Kansas City","state_name":"Missouri","lat":38.87888,"lng":-94.57436,"zip":"64146","miles_from_dt":28.79},{"city":"Lees Summit","state_name":"Missouri","lat":38.9121,"lng":-94.3795,"zip":"64002","miles_from_dt":28.79},{"city":"Lees Summit","state_name":"Missouri","lat":38.91224,"lng":-94.35341,"zip":"64063","miles_from_dt":28.8},{"city":"Lees Summit","state_name":"Missouri","lat":38.91181,"lng":-94.29293,"zip":"64086","miles_from_dt":29.03},{"city":"Overland Park","state_name":"Kansas","lat":38.86213,"lng":-94.62866,"zip":"66224","miles_from_dt":29.04},{"city":"Kansas City","state_name":"Missouri","lat":38.88046,"lng":-94.59652,"zip":"64145","miles_from_dt":29.37},{"city":"Lone Jack","state_name":"Missouri","lat":38.8897,"lng":-94.14863,"zip":"64070","miles_from_dt":29.67},{"city":"Chilhowee","state_name":"Missouri","lat":38.58016,"lng":-93.8283,"zip":"64733","miles_from_dt":29.72}],"targetCityZipCode":"64725","targetCityState":"Missouri"},"__N_SSG":true}