{"pageProps":{"stateName":"Missouri","cityName":"arrow-rock","nearbyCities":[{"city":"Franklin","state_name":"Missouri","lat":39.03524,"lng":-92.83991,"zip":"65250","miles_from_dt":6},{"city":"Blackwater","state_name":"Missouri","lat":38.9729,"lng":-92.95535,"zip":"65322","miles_from_dt":6.45},{"city":"Nelson","state_name":"Missouri","lat":38.98453,"lng":-93.0495,"zip":"65347","miles_from_dt":7.99},{"city":"Gilliam","state_name":"Missouri","lat":39.22096,"lng":-92.94945,"zip":"65330","miles_from_dt":10.69},{"city":"Glasgow","state_name":"Missouri","lat":39.21228,"lng":-92.85351,"zip":"65254","miles_from_dt":11.2},{"city":"Slater","state_name":"Missouri","lat":39.22863,"lng":-93.05581,"zip":"65349","miles_from_dt":12.72},{"city":"Marshall","state_name":"Missouri","lat":39.09149,"lng":-93.18041,"zip":"65340","miles_from_dt":12.82},{"city":"New Franklin","state_name":"Missouri","lat":39.01342,"lng":-92.68321,"zip":"65274","miles_from_dt":14.5},{"city":"Pilot Grove","state_name":"Missouri","lat":38.84581,"lng":-92.95498,"zip":"65276","miles_from_dt":15.2},{"city":"Boonville","state_name":"Missouri","lat":38.91528,"lng":-92.72035,"zip":"65233","miles_from_dt":15.92},{"city":"Fayette","state_name":"Missouri","lat":39.13952,"lng":-92.65894,"zip":"65248","miles_from_dt":16.15},{"city":"Armstrong","state_name":"Missouri","lat":39.28715,"lng":-92.69218,"zip":"65230","miles_from_dt":20.39},{"city":"Bunceton","state_name":"Missouri","lat":38.78078,"lng":-92.78438,"zip":"65237","miles_from_dt":21.48},{"city":"Dalton","state_name":"Missouri","lat":39.37725,"lng":-93.00059,"zip":"65246","miles_from_dt":21.68},{"city":"Miami","state_name":"Missouri","lat":39.31174,"lng":-93.1976,"zip":"65344","miles_from_dt":21.73},{"city":"Houstonia","state_name":"Missouri","lat":38.90687,"lng":-93.30724,"zip":"65333","miles_from_dt":22.42},{"city":"Hughesville","state_name":"Missouri","lat":38.8348,"lng":-93.24558,"zip":"65334","miles_from_dt":22.76},{"city":"Rocheport","state_name":"Missouri","lat":39.01284,"lng":-92.52062,"zip":"65279","miles_from_dt":23.08},{"city":"Sweet Springs","state_name":"Missouri","lat":38.98445,"lng":-93.38628,"zip":"65351","miles_from_dt":24.45},{"city":"Otterville","state_name":"Missouri","lat":38.70963,"lng":-92.98344,"zip":"65348","miles_from_dt":24.68},{"city":"Prairie Home","state_name":"Missouri","lat":38.82757,"lng":-92.59909,"zip":"65068","miles_from_dt":24.82},{"city":"Malta Bend","state_name":"Missouri","lat":39.19407,"lng":-93.37671,"zip":"65339","miles_from_dt":24.86},{"city":"Wooldridge","state_name":"Missouri","lat":38.88443,"lng":-92.51953,"zip":"65287","miles_from_dt":26.07},{"city":"Harrisburg","state_name":"Missouri","lat":39.12713,"lng":-92.45568,"zip":"65256","miles_from_dt":26.59},{"city":"Higbee","state_name":"Missouri","lat":39.28404,"lng":-92.53112,"zip":"65257","miles_from_dt":26.79},{"city":"De Witt","state_name":"Missouri","lat":39.3962,"lng":-93.22276,"zip":"64639","miles_from_dt":27.24},{"city":"Brunswick","state_name":"Missouri","lat":39.44596,"lng":-93.08305,"zip":"65236","miles_from_dt":27.25},{"city":"Blackburn","state_name":"Missouri","lat":39.08604,"lng":-93.4526,"zip":"65321","miles_from_dt":27.37},{"city":"Keytesville","state_name":"Missouri","lat":39.47542,"lng":-92.92388,"zip":"65261","miles_from_dt":28.26},{"city":"Salisbury","state_name":"Missouri","lat":39.46431,"lng":-92.79099,"zip":"65281","miles_from_dt":28.67},{"city":"Sedalia","state_name":"Missouri","lat":38.70819,"lng":-93.22234,"zip":"65302","miles_from_dt":28.88},{"city":"Syracuse","state_name":"Missouri","lat":38.64841,"lng":-92.88786,"zip":"65354","miles_from_dt":28.97},{"city":"Sedalia","state_name":"Missouri","lat":38.69922,"lng":-93.22104,"zip":"65301","miles_from_dt":29.38},{"city":"Smithton","state_name":"Missouri","lat":38.65557,"lng":-93.10038,"zip":"65350","miles_from_dt":29.54},{"city":"Emma","state_name":"Missouri","lat":38.97525,"lng":-93.48909,"zip":"65327","miles_from_dt":29.99}],"targetCityZipCode":"65320","targetCityState":"Missouri"},"__N_SSG":true}