{"pageProps":{"stateName":"Missouri","cityName":"barnett","nearbyCities":[{"city":"High Point","state_name":"Missouri","lat":38.47859,"lng":-92.6061,"zip":"65042","miles_from_dt":8},{"city":"Versailles","state_name":"Missouri","lat":38.43574,"lng":-92.85119,"zip":"65084","miles_from_dt":8.26},{"city":"Rocky Mount","state_name":"Missouri","lat":38.26635,"lng":-92.72178,"zip":"65072","miles_from_dt":8.9},{"city":"Eldon","state_name":"Missouri","lat":38.32105,"lng":-92.57099,"zip":"65026","miles_from_dt":9.03},{"city":"Latham","state_name":"Missouri","lat":38.5305,"lng":-92.68867,"zip":"65050","miles_from_dt":9.41},{"city":"Olean","state_name":"Missouri","lat":38.40634,"lng":-92.47664,"zip":"65064","miles_from_dt":12.59},{"city":"Fortuna","state_name":"Missouri","lat":38.55637,"lng":-92.82183,"zip":"65034","miles_from_dt":12.73},{"city":"Gravois Mills","state_name":"Missouri","lat":38.23845,"lng":-92.85749,"zip":"65037","miles_from_dt":13.5},{"city":"Lake Ozark","state_name":"Missouri","lat":38.20127,"lng":-92.67067,"zip":"65049","miles_from_dt":13.51},{"city":"Russellville","state_name":"Missouri","lat":38.47967,"lng":-92.47306,"zip":"65074","miles_from_dt":14.03},{"city":"Laurie","state_name":"Missouri","lat":38.19973,"lng":-92.83335,"zip":"65038","miles_from_dt":15.09},{"city":"Stover","state_name":"Missouri","lat":38.38473,"lng":-93.01085,"zip":"65078","miles_from_dt":16.45},{"city":"Sunrise Beach","state_name":"Missouri","lat":38.15283,"lng":-92.75225,"zip":"65079","miles_from_dt":16.87},{"city":"California","state_name":"Missouri","lat":38.62038,"lng":-92.56314,"zip":"65018","miles_from_dt":17.42},{"city":"Tipton","state_name":"Missouri","lat":38.64086,"lng":-92.78424,"zip":"65081","miles_from_dt":17.46},{"city":"McGirk","state_name":"Missouri","lat":38.62766,"lng":-92.5661,"zip":"65055","miles_from_dt":17.8},{"city":"Kaiser","state_name":"Missouri","lat":38.15483,"lng":-92.57774,"zip":"65047","miles_from_dt":18.01},{"city":"Osage Beach","state_name":"Missouri","lat":38.13462,"lng":-92.66593,"zip":"65065","miles_from_dt":18.1},{"city":"Eugene","state_name":"Missouri","lat":38.34024,"lng":-92.37942,"zip":"65032","miles_from_dt":18.25},{"city":"Clarksburg","state_name":"Missouri","lat":38.66618,"lng":-92.68119,"zip":"65025","miles_from_dt":18.77},{"city":"Tuscumbia","state_name":"Missouri","lat":38.22243,"lng":-92.42632,"zip":"65082","miles_from_dt":19.39},{"city":"Syracuse","state_name":"Missouri","lat":38.64841,"lng":-92.88786,"zip":"65354","miles_from_dt":20.01},{"city":"Florence","state_name":"Missouri","lat":38.60937,"lng":-92.96132,"zip":"65329","miles_from_dt":20.18},{"city":"Lohman","state_name":"Missouri","lat":38.54132,"lng":-92.36966,"zip":"65053","miles_from_dt":20.95},{"city":"Henley","state_name":"Missouri","lat":38.36367,"lng":-92.31252,"zip":"65040","miles_from_dt":21.59},{"city":"Ulman","state_name":"Missouri","lat":38.14318,"lng":-92.44089,"zip":"65083","miles_from_dt":22.64},{"city":"Brumley","state_name":"Missouri","lat":38.09185,"lng":-92.49548,"zip":"65017","miles_from_dt":23.89},{"city":"Linn Creek","state_name":"Missouri","lat":38.05068,"lng":-92.65568,"zip":"65052","miles_from_dt":23.91},{"city":"Roach","state_name":"Missouri","lat":38.07306,"lng":-92.89213,"zip":"65787","miles_from_dt":24.35},{"city":"Centertown","state_name":"Missouri","lat":38.65274,"lng":-92.39915,"zip":"65023","miles_from_dt":24.42},{"city":"Mora","state_name":"Missouri","lat":38.54111,"lng":-93.1254,"zip":"65345","miles_from_dt":24.77},{"city":"Climax Springs","state_name":"Missouri","lat":38.11104,"lng":-92.99997,"zip":"65324","miles_from_dt":25.21},{"city":"Cole Camp","state_name":"Missouri","lat":38.43239,"lng":-93.18535,"zip":"65325","miles_from_dt":26.03},{"city":"Saint Elizabeth","state_name":"Missouri","lat":38.24849,"lng":-92.26388,"zip":"65075","miles_from_dt":26.17},{"city":"Otterville","state_name":"Missouri","lat":38.70963,"lng":-92.98344,"zip":"65348","miles_from_dt":26.33},{"city":"Jefferson City","state_name":"Missouri","lat":38.57365,"lng":-92.27791,"zip":"65109","miles_from_dt":26.38},{"city":"Bunceton","state_name":"Missouri","lat":38.78078,"lng":-92.78438,"zip":"65237","miles_from_dt":26.93},{"city":"Camdenton","state_name":"Missouri","lat":38.00517,"lng":-92.78193,"zip":"65020","miles_from_dt":27.18},{"city":"Saint Thomas","state_name":"Missouri","lat":38.37064,"lng":-92.20376,"zip":"65076","miles_from_dt":27.44},{"city":"Smithton","state_name":"Missouri","lat":38.65557,"lng":-93.10038,"zip":"65350","miles_from_dt":27.84},{"city":"Edwards","state_name":"Missouri","lat":38.16271,"lng":-93.1458,"zip":"65326","miles_from_dt":28.68},{"city":"Jamestown","state_name":"Missouri","lat":38.77658,"lng":-92.47889,"zip":"65046","miles_from_dt":29.1},{"city":"Montreal","state_name":"Missouri","lat":37.97941,"lng":-92.59076,"zip":"65591","miles_from_dt":29.36},{"city":"Iberia","state_name":"Missouri","lat":38.10007,"lng":-92.3107,"zip":"65486","miles_from_dt":29.68}],"targetCityZipCode":"65011","targetCityState":"Missouri"},"__N_SSG":true}