{"pageProps":{"stateName":"Missouri","cityName":"bethany","nearbyCities":[{"city":"New Hampton","state_name":"Missouri","lat":40.26548,"lng":-94.1936,"zip":"64471","miles_from_dt":8.52},{"city":"Ridgeway","state_name":"Missouri","lat":40.35622,"lng":-93.8957,"zip":"64481","miles_from_dt":9.6},{"city":"Coffey","state_name":"Missouri","lat":40.11989,"lng":-93.98769,"zip":"64636","miles_from_dt":10.26},{"city":"Martinsville","state_name":"Missouri","lat":40.39772,"lng":-94.16236,"zip":"64467","miles_from_dt":11.47},{"city":"Gilman City","state_name":"Missouri","lat":40.16979,"lng":-93.83574,"zip":"64642","miles_from_dt":12.29},{"city":"McFall","state_name":"Missouri","lat":40.13269,"lng":-94.21292,"zip":"64657","miles_from_dt":13.19},{"city":"Denver","state_name":"Missouri","lat":40.39883,"lng":-94.2642,"zip":"64441","miles_from_dt":15.35},{"city":"Albany","state_name":"Missouri","lat":40.25201,"lng":-94.32276,"zip":"64402","miles_from_dt":15.37},{"city":"Pattonsburg","state_name":"Missouri","lat":40.04986,"lng":-94.13833,"zip":"64670","miles_from_dt":15.84},{"city":"Eagleville","state_name":"Missouri","lat":40.49935,"lng":-94.00645,"zip":"64442","miles_from_dt":16.26},{"city":"Jameson","state_name":"Missouri","lat":40.03016,"lng":-93.96862,"zip":"64647","miles_from_dt":16.52},{"city":"Hatfield","state_name":"Missouri","lat":40.52246,"lng":-94.14491,"zip":"64458","miles_from_dt":18.76},{"city":"Blythedale","state_name":"Missouri","lat":40.51747,"lng":-93.86158,"zip":"64426","miles_from_dt":19.64},{"city":"Cainsville","state_name":"Missouri","lat":40.46915,"lng":-93.76862,"zip":"64632","miles_from_dt":19.83},{"city":"Allendale","state_name":"Missouri","lat":40.48645,"lng":-94.2892,"zip":"64420","miles_from_dt":20.45},{"city":"Darlington","state_name":"Missouri","lat":40.16106,"lng":-94.41091,"zip":"64438","miles_from_dt":21.26},{"city":"Worth","state_name":"Missouri","lat":40.39707,"lng":-94.41521,"zip":"64499","miles_from_dt":22.19},{"city":"Jamesport","state_name":"Missouri","lat":39.98517,"lng":-93.79922,"zip":"64648","miles_from_dt":22.89},{"city":"Gentry","state_name":"Missouri","lat":40.34471,"lng":-94.46947,"zip":"64453","miles_from_dt":23.74},{"city":"Spickard","state_name":"Missouri","lat":40.23246,"lng":-93.58181,"zip":"64679","miles_from_dt":23.93},{"city":"Grant City","state_name":"Missouri","lat":40.49433,"lng":-94.38733,"zip":"64456","miles_from_dt":24.54},{"city":"Princeton","state_name":"Missouri","lat":40.38001,"lng":-93.59094,"zip":"64673","miles_from_dt":24.64},{"city":"Weatherby","state_name":"Missouri","lat":39.92929,"lng":-94.22275,"zip":"64497","miles_from_dt":25.23},{"city":"Gallatin","state_name":"Missouri","lat":39.90172,"lng":-93.94542,"zip":"64640","miles_from_dt":25.45},{"city":"Altamont","state_name":"Missouri","lat":39.89617,"lng":-94.09094,"zip":"64620","miles_from_dt":25.6},{"city":"Lamoni","state_name":"Iowa","lat":40.63753,"lng":-93.99198,"zip":"50140","miles_from_dt":25.82},{"city":"Trenton","state_name":"Missouri","lat":40.07395,"lng":-93.60346,"zip":"64683","miles_from_dt":26.24},{"city":"Davis City","state_name":"Iowa","lat":40.60859,"lng":-93.78089,"zip":"50065","miles_from_dt":27.19},{"city":"Stanberry","state_name":"Missouri","lat":40.23543,"lng":-94.54969,"zip":"64489","miles_from_dt":27.42},{"city":"Winston","state_name":"Missouri","lat":39.87461,"lng":-94.152,"zip":"64689","miles_from_dt":27.64},{"city":"King City","state_name":"Missouri","lat":40.06526,"lng":-94.4869,"zip":"64463","miles_from_dt":27.71},{"city":"Maysville","state_name":"Missouri","lat":39.93085,"lng":-94.35762,"zip":"64469","miles_from_dt":28.76},{"city":"Redding","state_name":"Iowa","lat":40.62253,"lng":-94.34949,"zip":"50860","miles_from_dt":29.83}],"targetCityZipCode":"64424","targetCityState":"Missouri"},"__N_SSG":true}