{"pageProps":{"stateName":"Missouri","cityName":"birch-tree","nearbyCities":[{"city":"Montier","state_name":"Missouri","lat":36.98788,"lng":-91.575,"zip":"65546","miles_from_dt":5.11},{"city":"Winona","state_name":"Missouri","lat":36.96196,"lng":-91.29987,"zip":"65588","miles_from_dt":11.61},{"city":"Mountain View","state_name":"Missouri","lat":37.00545,"lng":-91.71131,"zip":"65548","miles_from_dt":12.22},{"city":"Peace Valley","state_name":"Missouri","lat":36.81442,"lng":-91.69626,"zip":"65788","miles_from_dt":13.47},{"city":"Alton","state_name":"Missouri","lat":36.69634,"lng":-91.3586,"zip":"65606","miles_from_dt":18.56},{"city":"Summersville","state_name":"Missouri","lat":37.18501,"lng":-91.64546,"zip":"65571","miles_from_dt":18.7},{"city":"Fremont","state_name":"Missouri","lat":36.8711,"lng":-91.16607,"zip":"63941","miles_from_dt":19.45},{"city":"Eminence","state_name":"Missouri","lat":37.2113,"lng":-91.38645,"zip":"65466","miles_from_dt":20.03},{"city":"Pomona","state_name":"Missouri","lat":36.85719,"lng":-91.88968,"zip":"65789","miles_from_dt":21.88},{"city":"Brandsville","state_name":"Missouri","lat":36.64928,"lng":-91.69328,"zip":"65688","miles_from_dt":22.39},{"city":"Koshkonong","state_name":"Missouri","lat":36.61801,"lng":-91.65592,"zip":"65692","miles_from_dt":23.52},{"city":"West Plains","state_name":"Missouri","lat":36.6995,"lng":-91.85999,"zip":"65775","miles_from_dt":25.52},{"city":"Thayer","state_name":"Missouri","lat":36.56651,"lng":-91.49583,"zip":"65791","miles_from_dt":25.59},{"city":"Willow Springs","state_name":"Missouri","lat":36.98975,"lng":-91.9787,"zip":"65793","miles_from_dt":26.33},{"city":"Van Buren","state_name":"Missouri","lat":36.97391,"lng":-91.02294,"zip":"63965","miles_from_dt":26.93},{"city":"Eunice","state_name":"Missouri","lat":37.25434,"lng":-91.79824,"zip":"65468","miles_from_dt":27.12},{"city":"Yukon","state_name":"Missouri","lat":37.23729,"lng":-91.82747,"zip":"65589","miles_from_dt":27.2},{"city":"Elk Creek","state_name":"Missouri","lat":37.18353,"lng":-91.89236,"zip":"65464","miles_from_dt":27.21},{"city":"Couch","state_name":"Missouri","lat":36.5856,"lng":-91.26657,"zip":"65690","miles_from_dt":27.7},{"city":"Hartshorn","state_name":"Missouri","lat":37.3368,"lng":-91.63382,"zip":"65479","miles_from_dt":28.41}],"targetCityZipCode":"65438","targetCityState":"Missouri"},"__N_SSG":true}