{"pageProps":{"stateName":"Missouri","cityName":"blairstown","nearbyCities":[{"city":"Chilhowee","state_name":"Missouri","lat":38.58016,"lng":-93.8283,"zip":"64733","miles_from_dt":6.3},{"city":"Urich","state_name":"Missouri","lat":38.42868,"lng":-94.02045,"zip":"64788","miles_from_dt":8.66},{"city":"Creighton","state_name":"Missouri","lat":38.51139,"lng":-94.09389,"zip":"64739","miles_from_dt":9.24},{"city":"Holden","state_name":"Missouri","lat":38.71928,"lng":-93.98725,"zip":"64040","miles_from_dt":13.54},{"city":"Leeton","state_name":"Missouri","lat":38.59463,"lng":-93.68657,"zip":"64761","miles_from_dt":13.67},{"city":"Garden City","state_name":"Missouri","lat":38.57353,"lng":-94.17399,"zip":"64747","miles_from_dt":13.83},{"city":"Clinton","state_name":"Missouri","lat":38.36612,"lng":-93.73644,"zip":"64735","miles_from_dt":15.2},{"city":"Centerview","state_name":"Missouri","lat":38.77543,"lng":-93.86665,"zip":"64019","miles_from_dt":17.27},{"city":"Calhoun","state_name":"Missouri","lat":38.45289,"lng":-93.6212,"zip":"65323","miles_from_dt":17.29},{"city":"Montrose","state_name":"Missouri","lat":38.27528,"lng":-93.98662,"zip":"64770","miles_from_dt":17.83},{"city":"East Lynne","state_name":"Missouri","lat":38.66596,"lng":-94.21827,"zip":"64743","miles_from_dt":18.47},{"city":"Kingsville","state_name":"Missouri","lat":38.77981,"lng":-94.0885,"zip":"64061","miles_from_dt":19.42},{"city":"Strasburg","state_name":"Missouri","lat":38.75991,"lng":-94.16387,"zip":"64090","miles_from_dt":20.5},{"city":"Warrensburg","state_name":"Missouri","lat":38.79057,"lng":-93.73206,"zip":"64093","miles_from_dt":20.83},{"city":"Windsor","state_name":"Missouri","lat":38.51989,"lng":-93.51334,"zip":"65360","miles_from_dt":22.31},{"city":"Harrisonville","state_name":"Missouri","lat":38.62053,"lng":-94.3378,"zip":"64701","miles_from_dt":23.23},{"city":"Adrian","state_name":"Missouri","lat":38.40533,"lng":-94.33742,"zip":"64720","miles_from_dt":23.95},{"city":"Archie","state_name":"Missouri","lat":38.49482,"lng":-94.36609,"zip":"64725","miles_from_dt":24.03},{"city":"Deepwater","state_name":"Missouri","lat":38.22349,"lng":-93.71204,"zip":"64740","miles_from_dt":24.05},{"city":"Whiteman Air Force Base","state_name":"Missouri","lat":38.72944,"lng":-93.55446,"zip":"65305","miles_from_dt":24.34},{"city":"Pleasant Hill","state_name":"Missouri","lat":38.7691,"lng":-94.25639,"zip":"64080","miles_from_dt":24.4},{"city":"Knob Noster","state_name":"Missouri","lat":38.78169,"lng":-93.56241,"zip":"65336","miles_from_dt":26.22},{"city":"Appleton City","state_name":"Missouri","lat":38.15188,"lng":-94.01025,"zip":"64724","miles_from_dt":26.44},{"city":"Butler","state_name":"Missouri","lat":38.25789,"lng":-94.29236,"zip":"64730","miles_from_dt":27.35},{"city":"Lone Jack","state_name":"Missouri","lat":38.8897,"lng":-94.14863,"zip":"64070","miles_from_dt":27.65},{"city":"Green Ridge","state_name":"Missouri","lat":38.61973,"lng":-93.41324,"zip":"65332","miles_from_dt":28.4},{"city":"Lowry City","state_name":"Missouri","lat":38.14354,"lng":-93.71573,"zip":"64763","miles_from_dt":28.93}],"targetCityZipCode":"64726","targetCityState":"Missouri"},"__N_SSG":true}