{"pageProps":{"stateName":"Missouri","cityName":"boss","nearbyCities":[{"city":"Bixby","state_name":"Missouri","lat":37.65718,"lng":-91.09535,"zip":"65439","miles_from_dt":6.16},{"city":"Black","state_name":"Missouri","lat":37.56374,"lng":-90.98734,"zip":"63625","miles_from_dt":11.22},{"city":"Viburnum","state_name":"Missouri","lat":37.76618,"lng":-91.14689,"zip":"65566","miles_from_dt":11.39},{"city":"Davisville","state_name":"Missouri","lat":37.78048,"lng":-91.20267,"zip":"65456","miles_from_dt":12.22},{"city":"Bunker","state_name":"Missouri","lat":37.39847,"lng":-91.23861,"zip":"63629","miles_from_dt":14.46},{"city":"Cherryville","state_name":"Missouri","lat":37.80902,"lng":-91.26999,"zip":"65446","miles_from_dt":14.89},{"city":"Centerville","state_name":"Missouri","lat":37.41993,"lng":-91.01082,"zip":"63633","miles_from_dt":15.9},{"city":"Belleview","state_name":"Missouri","lat":37.67532,"lng":-90.8941,"zip":"63623","miles_from_dt":16.72},{"city":"Salem","state_name":"Missouri","lat":37.59609,"lng":-91.49943,"zip":"65560","miles_from_dt":17.24},{"city":"Belgrade","state_name":"Missouri","lat":37.78901,"lng":-90.90584,"zip":"63622","miles_from_dt":19.94},{"city":"Lesterville","state_name":"Missouri","lat":37.45941,"lng":-90.85156,"zip":"63654","miles_from_dt":20.87},{"city":"Steelville","state_name":"Missouri","lat":37.90573,"lng":-91.23841,"zip":"65565","miles_from_dt":21.02},{"city":"Middle Brook","state_name":"Missouri","lat":37.59664,"lng":-90.79483,"zip":"63656","miles_from_dt":21.44},{"city":"Jadwin","state_name":"Missouri","lat":37.47319,"lng":-91.5549,"zip":"65501","miles_from_dt":22.2},{"city":"Wesco","state_name":"Missouri","lat":37.86483,"lng":-91.43294,"zip":"65586","miles_from_dt":22.53},{"city":"Cook Sta","state_name":"Missouri","lat":37.84745,"lng":-91.48722,"zip":"65449","miles_from_dt":23.57},{"city":"Caledonia","state_name":"Missouri","lat":37.74912,"lng":-90.78873,"zip":"63631","miles_from_dt":23.94},{"city":"Potosi","state_name":"Missouri","lat":37.92161,"lng":-90.91661,"zip":"63664","miles_from_dt":26.4},{"city":"Reynolds","state_name":"Missouri","lat":37.2433,"lng":-90.95205,"zip":"63666","miles_from_dt":27.98},{"city":"Ellington","state_name":"Missouri","lat":37.21727,"lng":-91.01135,"zip":"63638","miles_from_dt":28.33},{"city":"Redford","state_name":"Missouri","lat":37.29055,"lng":-90.84087,"zip":"63665","miles_from_dt":28.74},{"city":"Eminence","state_name":"Missouri","lat":37.2113,"lng":-91.38645,"zip":"65466","miles_from_dt":29.25},{"city":"Pilot Knob","state_name":"Missouri","lat":37.62446,"lng":-90.64638,"zip":"63663","miles_from_dt":29.6},{"city":"Lake Spring","state_name":"Missouri","lat":37.78195,"lng":-91.67938,"zip":"65532","miles_from_dt":29.73}],"targetCityZipCode":"65440","targetCityState":"Missouri"},"__N_SSG":true}