{"pageProps":{"stateName":"Missouri","cityName":"bowling-green","nearbyCities":[{"city":"Curryville","state_name":"Missouri","lat":39.33673,"lng":-91.36384,"zip":"63339","miles_from_dt":9.62},{"city":"Louisiana","state_name":"Missouri","lat":39.44375,"lng":-91.12,"zip":"63353","miles_from_dt":10.09},{"city":"Eolia","state_name":"Missouri","lat":39.23078,"lng":-91.01115,"zip":"63344","miles_from_dt":10.88},{"city":"Whiteside","state_name":"Missouri","lat":39.18415,"lng":-91.01677,"zip":"63387","miles_from_dt":12.53},{"city":"Middletown","state_name":"Missouri","lat":39.1564,"lng":-91.34652,"zip":"63359","miles_from_dt":13.44},{"city":"Clarksville","state_name":"Missouri","lat":39.33335,"lng":-90.9388,"zip":"63336","miles_from_dt":13.49},{"city":"Frankford","state_name":"Missouri","lat":39.4766,"lng":-91.31575,"zip":"63441","miles_from_dt":13.51},{"city":"Silex","state_name":"Missouri","lat":39.11016,"lng":-91.10053,"zip":"63377","miles_from_dt":14.4},{"city":"Olney","state_name":"Missouri","lat":39.09786,"lng":-91.21228,"zip":"63370","miles_from_dt":14.52},{"city":"Ashburn","state_name":"Missouri","lat":39.51838,"lng":-91.11816,"zip":"63433","miles_from_dt":15.03},{"city":"Vandalia","state_name":"Missouri","lat":39.31104,"lng":-91.49042,"zip":"63382","miles_from_dt":16.19},{"city":"Rockport","state_name":"Illinois","lat":39.51818,"lng":-90.99881,"zip":"62370","miles_from_dt":17.73},{"city":"Pleasant Hill","state_name":"Illinois","lat":39.46253,"lng":-90.89402,"zip":"62366","miles_from_dt":19.05},{"city":"Bellflower","state_name":"Missouri","lat":39.0351,"lng":-91.32014,"zip":"63333","miles_from_dt":20.08},{"city":"Farber","state_name":"Missouri","lat":39.27599,"lng":-91.57311,"zip":"63345","miles_from_dt":20.74},{"city":"New Canton","state_name":"Illinois","lat":39.60092,"lng":-91.08508,"zip":"62356","miles_from_dt":20.98},{"city":"Annada","state_name":"Missouri","lat":39.26151,"lng":-90.79214,"zip":"63330","miles_from_dt":21.48},{"city":"New London","state_name":"Missouri","lat":39.58392,"lng":-91.3795,"zip":"63459","miles_from_dt":21.64},{"city":"Elsberry","state_name":"Missouri","lat":39.15775,"lng":-90.82815,"zip":"63343","miles_from_dt":21.91},{"city":"Hawk Point","state_name":"Missouri","lat":38.97979,"lng":-91.15083,"zip":"63349","miles_from_dt":22.69},{"city":"Truxton","state_name":"Missouri","lat":38.98237,"lng":-91.25429,"zip":"63381","miles_from_dt":22.7},{"city":"Nebo","state_name":"Illinois","lat":39.40963,"lng":-90.77936,"zip":"62355","miles_from_dt":23.01},{"city":"Center","state_name":"Missouri","lat":39.50093,"lng":-91.54524,"zip":"63436","miles_from_dt":23.3},{"city":"Troy","state_name":"Missouri","lat":38.99817,"lng":-90.99037,"zip":"63379","miles_from_dt":23.84},{"city":"Saverton","state_name":"Missouri","lat":39.64849,"lng":-91.26655,"zip":"63467","miles_from_dt":23.89},{"city":"Mozier","state_name":"Illinois","lat":39.29101,"lng":-90.72278,"zip":"62070","miles_from_dt":24.98},{"city":"Wellsville","state_name":"Missouri","lat":39.08678,"lng":-91.56349,"zip":"63384","miles_from_dt":25.24},{"city":"Laddonia","state_name":"Missouri","lat":39.25097,"lng":-91.65526,"zip":"63352","miles_from_dt":25.33},{"city":"Hamburg","state_name":"Illinois","lat":39.26297,"lng":-90.70921,"zip":"62045","miles_from_dt":25.87},{"city":"Hull","state_name":"Illinois","lat":39.70275,"lng":-91.2418,"zip":"62343","miles_from_dt":27.42},{"city":"Kinderhook","state_name":"Illinois","lat":39.70655,"lng":-91.12758,"zip":"62345","miles_from_dt":27.72},{"city":"Foley","state_name":"Missouri","lat":39.0708,"lng":-90.76352,"zip":"63347","miles_from_dt":28.05},{"city":"Kampsville","state_name":"Illinois","lat":39.31572,"lng":-90.65763,"zip":"62053","miles_from_dt":28.45},{"city":"Perry","state_name":"Missouri","lat":39.42279,"lng":-91.69977,"zip":"63462","miles_from_dt":28.52},{"city":"Barry","state_name":"Illinois","lat":39.71035,"lng":-91.02518,"zip":"62312","miles_from_dt":29.13},{"city":"High Hill","state_name":"Missouri","lat":38.90243,"lng":-91.35686,"zip":"63350","miles_from_dt":29.37},{"city":"Pittsfield","state_name":"Illinois","lat":39.59163,"lng":-90.7784,"zip":"62363","miles_from_dt":29.41}],"targetCityZipCode":"63334","targetCityState":"Missouri"},"__N_SSG":true}