{"pageProps":{"stateName":"Missouri","cityName":"breckenridge","nearbyCities":[{"city":"Lock Springs","state_name":"Missouri","lat":39.84864,"lng":-93.77552,"zip":"64654","miles_from_dt":7.41},{"city":"Ludlow","state_name":"Missouri","lat":39.67803,"lng":-93.69375,"zip":"64656","miles_from_dt":7.48},{"city":"Mooresville","state_name":"Missouri","lat":39.74601,"lng":-93.66027,"zip":"64664","miles_from_dt":7.72},{"city":"Hamilton","state_name":"Missouri","lat":39.7418,"lng":-93.97384,"zip":"64644","miles_from_dt":8.98},{"city":"Utica","state_name":"Missouri","lat":39.75005,"lng":-93.62449,"zip":"64686","miles_from_dt":9.64},{"city":"Braymer","state_name":"Missouri","lat":39.57189,"lng":-93.7848,"zip":"64624","miles_from_dt":11.91},{"city":"Chillicothe","state_name":"Missouri","lat":39.8044,"lng":-93.57334,"zip":"64601","miles_from_dt":13.04},{"city":"Cowgill","state_name":"Missouri","lat":39.57439,"lng":-93.91573,"zip":"64637","miles_from_dt":13.09},{"city":"Gallatin","state_name":"Missouri","lat":39.90172,"lng":-93.94542,"zip":"64640","miles_from_dt":13.2},{"city":"Dawn","state_name":"Missouri","lat":39.61894,"lng":-93.61498,"zip":"64638","miles_from_dt":13.31},{"city":"Kingston","state_name":"Missouri","lat":39.63716,"lng":-94.0548,"zip":"64650","miles_from_dt":15.2},{"city":"Kidder","state_name":"Missouri","lat":39.77428,"lng":-94.09183,"zip":"64649","miles_from_dt":15.4},{"city":"Jamesport","state_name":"Missouri","lat":39.98517,"lng":-93.79922,"zip":"64648","miles_from_dt":16.66},{"city":"Altamont","state_name":"Missouri","lat":39.89617,"lng":-94.09094,"zip":"64620","miles_from_dt":18.48},{"city":"Polo","state_name":"Missouri","lat":39.53655,"lng":-94.0518,"zip":"64671","miles_from_dt":19.42},{"city":"Winston","state_name":"Missouri","lat":39.87461,"lng":-94.152,"zip":"64689","miles_from_dt":20.54},{"city":"Tina","state_name":"Missouri","lat":39.55251,"lng":-93.49132,"zip":"64682","miles_from_dt":21.32},{"city":"Jameson","state_name":"Missouri","lat":40.03016,"lng":-93.96862,"zip":"64647","miles_from_dt":21.58},{"city":"Bogard","state_name":"Missouri","lat":39.49535,"lng":-93.54569,"zip":"64622","miles_from_dt":22.04},{"city":"Stet","state_name":"Missouri","lat":39.42433,"lng":-93.75754,"zip":"64680","miles_from_dt":22.19},{"city":"Cameron","state_name":"Missouri","lat":39.73895,"lng":-94.2285,"zip":"64429","miles_from_dt":22.54},{"city":"Wheeling","state_name":"Missouri","lat":39.8139,"lng":-93.37664,"zip":"64688","miles_from_dt":23.32},{"city":"Chula","state_name":"Missouri","lat":39.93943,"lng":-93.43632,"zip":"64635","miles_from_dt":23.82},{"city":"Hale","state_name":"Missouri","lat":39.61366,"lng":-93.36883,"zip":"64643","miles_from_dt":24.94},{"city":"Trenton","state_name":"Missouri","lat":40.07395,"lng":-93.60346,"zip":"64683","miles_from_dt":25.18},{"city":"Weatherby","state_name":"Missouri","lat":39.92929,"lng":-94.22275,"zip":"64497","miles_from_dt":25.63},{"city":"Meadville","state_name":"Missouri","lat":39.78138,"lng":-93.29224,"zip":"64659","miles_from_dt":27.44},{"city":"Norborne","state_name":"Missouri","lat":39.35226,"lng":-93.70704,"zip":"64668","miles_from_dt":27.52},{"city":"Pattonsburg","state_name":"Missouri","lat":40.04986,"lng":-94.13833,"zip":"64670","miles_from_dt":27.55},{"city":"Coffey","state_name":"Missouri","lat":40.11989,"lng":-93.98769,"zip":"64636","miles_from_dt":27.7},{"city":"Turney","state_name":"Missouri","lat":39.63058,"lng":-94.30454,"zip":"64493","miles_from_dt":27.73},{"city":"Laredo","state_name":"Missouri","lat":40.01979,"lng":-93.42103,"zip":"64652","miles_from_dt":27.92},{"city":"Lawson","state_name":"Missouri","lat":39.45533,"lng":-94.17244,"zip":"64062","miles_from_dt":27.93},{"city":"Rayville","state_name":"Missouri","lat":39.38697,"lng":-94.0653,"zip":"64084","miles_from_dt":28.26},{"city":"Richmond","state_name":"Missouri","lat":39.33838,"lng":-93.95158,"zip":"64085","miles_from_dt":29.04},{"city":"Lathrop","state_name":"Missouri","lat":39.54853,"lng":-94.29525,"zip":"64465","miles_from_dt":29.4},{"city":"Gilman City","state_name":"Missouri","lat":40.16979,"lng":-93.83574,"zip":"64642","miles_from_dt":29.44}],"targetCityZipCode":"64625","targetCityState":"Missouri"},"__N_SSG":true}