{"pageProps":{"stateName":"Missouri","cityName":"cardwell","nearbyCities":[{"city":"Arbyrd","state_name":"Missouri","lat":36.04878,"lng":-90.23963,"zip":"63821","miles_from_dt":4.12},{"city":"Leachville","state_name":"Arkansas","lat":35.94375,"lng":-90.22787,"zip":"72438","miles_from_dt":7.94},{"city":"Monette","state_name":"Arkansas","lat":35.9102,"lng":-90.33428,"zip":"72447","miles_from_dt":8.8},{"city":"Senath","state_name":"Missouri","lat":36.13206,"lng":-90.16487,"zip":"63876","miles_from_dt":10.53},{"city":"Paragould","state_name":"Arkansas","lat":36.05879,"lng":-90.49971,"zip":"72451","miles_from_dt":10.64},{"city":"Marmaduke","state_name":"Arkansas","lat":36.1812,"lng":-90.41037,"zip":"72443","miles_from_dt":11.4},{"city":"Paragould","state_name":"Arkansas","lat":36.0784,"lng":-90.51695,"zip":"72450","miles_from_dt":11.85},{"city":"Hornersville","state_name":"Missouri","lat":36.05332,"lng":-90.07123,"zip":"63855","miles_from_dt":13.52},{"city":"Black Oak","state_name":"Arkansas","lat":35.82288,"lng":-90.368,"zip":"72414","miles_from_dt":15.06},{"city":"Brookland","state_name":"Arkansas","lat":35.91994,"lng":-90.54791,"zip":"72417","miles_from_dt":15.49},{"city":"Rector","state_name":"Arkansas","lat":36.26679,"lng":-90.28254,"zip":"72461","miles_from_dt":15.96},{"city":"Lake City","state_name":"Arkansas","lat":35.8343,"lng":-90.45401,"zip":"72437","miles_from_dt":16.06},{"city":"Manila","state_name":"Arkansas","lat":35.82458,"lng":-90.17948,"zip":"72442","miles_from_dt":16.39},{"city":"Lafe","state_name":"Arkansas","lat":36.23574,"lng":-90.48281,"zip":"72436","miles_from_dt":16.74},{"city":"Rives","state_name":"Missouri","lat":36.09599,"lng":-90.0148,"zip":"63875","miles_from_dt":17.12},{"city":"Gobler","state_name":"Missouri","lat":36.13287,"lng":-89.99109,"zip":"63849","miles_from_dt":19.13},{"city":"Gosnell","state_name":"Arkansas","lat":35.96158,"lng":-89.97474,"zip":"72319","miles_from_dt":19.57},{"city":"Dell","state_name":"Arkansas","lat":35.85608,"lng":-90.04159,"zip":"72426","miles_from_dt":19.6},{"city":"Kennett","state_name":"Missouri","lat":36.22402,"lng":-90.04612,"zip":"63857","miles_from_dt":19.69},{"city":"Walcott","state_name":"Arkansas","lat":36.04462,"lng":-90.67259,"zip":"72474","miles_from_dt":20.21},{"city":"Caraway","state_name":"Arkansas","lat":35.74158,"lng":-90.35544,"zip":"72419","miles_from_dt":20.48},{"city":"Jonesboro","state_name":"Arkansas","lat":35.90446,"lng":-90.64869,"zip":"72405","miles_from_dt":20.97},{"city":"Etowah","state_name":"Arkansas","lat":35.7414,"lng":-90.21672,"zip":"72428","miles_from_dt":21.03},{"city":"Jonesboro","state_name":"Arkansas","lat":35.86977,"lng":-90.64049,"zip":"72403","miles_from_dt":21.72},{"city":"Greenway","state_name":"Arkansas","lat":36.336,"lng":-90.17366,"zip":"72430","miles_from_dt":22.04},{"city":"Beech Grove","state_name":"Arkansas","lat":36.12572,"lng":-90.69172,"zip":"72412","miles_from_dt":22.14},{"city":"Jonesboro","state_name":"Arkansas","lat":35.86835,"lng":-90.66193,"zip":"72401","miles_from_dt":22.8},{"city":"Knobel","state_name":"Arkansas","lat":36.31177,"lng":-90.54593,"zip":"72435","miles_from_dt":23.06},{"city":"Blytheville","state_name":"Arkansas","lat":35.92993,"lng":-89.9169,"zip":"72316","miles_from_dt":23.31},{"city":"State University","state_name":"Arkansas","lat":35.84223,"lng":-90.6776,"zip":"72467","miles_from_dt":24.5},{"city":"Blytheville","state_name":"Arkansas","lat":35.90093,"lng":-89.9029,"zip":"72315","miles_from_dt":24.75},{"city":"Holland","state_name":"Missouri","lat":36.05834,"lng":-89.86738,"zip":"63853","miles_from_dt":24.93},{"city":"West Ridge","state_name":"Arkansas","lat":35.6765,"lng":-90.26953,"zip":"72391","miles_from_dt":24.93},{"city":"Rivervale","state_name":"Arkansas","lat":35.67392,"lng":-90.34158,"zip":"72377","miles_from_dt":25.06},{"city":"Bay","state_name":"Arkansas","lat":35.74165,"lng":-90.58019,"zip":"72411","miles_from_dt":25.3},{"city":"Whiteoak","state_name":"Missouri","lat":36.32986,"lng":-90.02585,"zip":"63880","miles_from_dt":25.78},{"city":"Burdette","state_name":"Arkansas","lat":35.8166,"lng":-89.93977,"zip":"72321","miles_from_dt":25.79},{"city":"Piggott","state_name":"Arkansas","lat":36.40083,"lng":-90.20623,"zip":"72454","miles_from_dt":25.8},{"city":"Steele","state_name":"Missouri","lat":36.07377,"lng":-89.85118,"zip":"63877","miles_from_dt":25.91},{"city":"Deering","state_name":"Missouri","lat":36.19113,"lng":-89.88426,"zip":"63840","miles_from_dt":26.18},{"city":"Delaplaine","state_name":"Arkansas","lat":36.22138,"lng":-90.74308,"zip":"72425","miles_from_dt":27.29},{"city":"Keiser","state_name":"Arkansas","lat":35.67595,"lng":-90.09771,"zip":"72351","miles_from_dt":27.61},{"city":"Osceola","state_name":"Arkansas","lat":35.68443,"lng":-90.07734,"zip":"72370","miles_from_dt":27.61},{"city":"Bono","state_name":"Arkansas","lat":35.95731,"lng":-90.79699,"zip":"72416","miles_from_dt":27.73},{"city":"Peach Orchard","state_name":"Arkansas","lat":36.30909,"lng":-90.67887,"zip":"72453","miles_from_dt":27.83},{"city":"McDougal","state_name":"Arkansas","lat":36.4355,"lng":-90.38944,"zip":"72441","miles_from_dt":27.85},{"city":"Lepanto","state_name":"Arkansas","lat":35.63118,"lng":-90.31797,"zip":"72354","miles_from_dt":27.95},{"city":"Braggadocio","state_name":"Missouri","lat":36.18361,"lng":-89.84486,"zip":"63826","miles_from_dt":28.02},{"city":"Bragg City","state_name":"Missouri","lat":36.26133,"lng":-89.89226,"zip":"63827","miles_from_dt":28.12},{"city":"Cooter","state_name":"Missouri","lat":36.04748,"lng":-89.8097,"zip":"63839","miles_from_dt":28.12},{"city":"Holcomb","state_name":"Missouri","lat":36.36748,"lng":-90.01435,"zip":"63852","miles_from_dt":28.23},{"city":"Pollard","state_name":"Arkansas","lat":36.45362,"lng":-90.32217,"zip":"72456","miles_from_dt":28.76},{"city":"Corning","state_name":"Arkansas","lat":36.41893,"lng":-90.54385,"zip":"72422","miles_from_dt":29.38},{"city":"Luxora","state_name":"Arkansas","lat":35.79446,"lng":-89.87723,"zip":"72358","miles_from_dt":29.54},{"city":"O'Kean","state_name":"Arkansas","lat":36.16662,"lng":-90.81719,"zip":"72449","miles_from_dt":29.67},{"city":"Armorel","state_name":"Arkansas","lat":35.91768,"lng":-89.79886,"zip":"72310","miles_from_dt":29.89}],"targetCityZipCode":"63829","targetCityState":"Missouri"},"__N_SSG":true}