{"pageProps":{"stateName":"Missouri","cityName":"carl-junction","nearbyCities":[{"city":"Webb City","state_name":"Missouri","lat":37.18474,"lng":-94.48136,"zip":"64870","miles_from_dt":4.82},{"city":"Crestline","state_name":"Kansas","lat":37.15841,"lng":-94.66997,"zip":"66728","miles_from_dt":5.93},{"city":"Joplin","state_name":"Missouri","lat":37.11056,"lng":-94.4974,"zip":"64801","miles_from_dt":6.58},{"city":"Galena","state_name":"Kansas","lat":37.12084,"lng":-94.66595,"zip":"66739","miles_from_dt":7.05},{"city":"Carterville","state_name":"Missouri","lat":37.14749,"lng":-94.43824,"zip":"64835","miles_from_dt":7.7},{"city":"Neck City","state_name":"Missouri","lat":37.2544,"lng":-94.44529,"zip":"64849","miles_from_dt":8.23},{"city":"Purcell","state_name":"Missouri","lat":37.24587,"lng":-94.43861,"zip":"64857","miles_from_dt":8.24},{"city":"Oronogo","state_name":"Missouri","lat":37.29548,"lng":-94.48637,"zip":"64855","miles_from_dt":8.74},{"city":"Joplin","state_name":"Missouri","lat":37.05558,"lng":-94.54304,"zip":"64802","miles_from_dt":9.18},{"city":"Alba","state_name":"Missouri","lat":37.2308,"lng":-94.41053,"zip":"64830","miles_from_dt":9.23},{"city":"Asbury","state_name":"Missouri","lat":37.33951,"lng":-94.57264,"zip":"64832","miles_from_dt":10.51},{"city":"Riverton","state_name":"Kansas","lat":37.08014,"lng":-94.71601,"zip":"66770","miles_from_dt":10.98},{"city":"Joplin","state_name":"Missouri","lat":37.03442,"lng":-94.50932,"zip":"64803","miles_from_dt":11.03},{"city":"Opolis","state_name":"Kansas","lat":37.34487,"lng":-94.6245,"zip":"66760","miles_from_dt":11.3},{"city":"Weir","state_name":"Kansas","lat":37.29114,"lng":-94.72806,"zip":"66781","miles_from_dt":11.34},{"city":"Duenweg","state_name":"Missouri","lat":37.07873,"lng":-94.41101,"zip":"64841","miles_from_dt":11.47},{"city":"Joplin","state_name":"Missouri","lat":37.01955,"lng":-94.51137,"zip":"64804","miles_from_dt":11.98},{"city":"Saginaw","state_name":"Missouri","lat":37.02574,"lng":-94.47003,"zip":"64864","miles_from_dt":12.39},{"city":"Scammon","state_name":"Kansas","lat":37.26599,"lng":-94.81262,"zip":"66773","miles_from_dt":14.51},{"city":"Carthage","state_name":"Missouri","lat":37.18886,"lng":-94.28898,"zip":"64836","miles_from_dt":15.43},{"city":"Baxter Springs","state_name":"Kansas","lat":37.03323,"lng":-94.78637,"zip":"66713","miles_from_dt":16.04},{"city":"Pittsburg","state_name":"Kansas","lat":37.39443,"lng":-94.71092,"zip":"66762","miles_from_dt":16.3},{"city":"Diamond","state_name":"Missouri","lat":37.01826,"lng":-94.33536,"zip":"64840","miles_from_dt":17.37},{"city":"Jasper","state_name":"Missouri","lat":37.33685,"lng":-94.31112,"zip":"64755","miles_from_dt":17.55},{"city":"Columbus","state_name":"Kansas","lat":37.15906,"lng":-94.88892,"zip":"66725","miles_from_dt":17.78},{"city":"Quapaw","state_name":"Oklahoma","lat":36.95341,"lng":-94.70965,"zip":"74363","miles_from_dt":17.9},{"city":"Cherokee","state_name":"Kansas","lat":37.34891,"lng":-94.86333,"zip":"66724","miles_from_dt":19.7},{"city":"Treece","state_name":"Kansas","lat":37.00048,"lng":-94.839,"zip":"66778","miles_from_dt":19.72},{"city":"Racine","state_name":"Missouri","lat":36.89981,"lng":-94.52888,"zip":"64858","miles_from_dt":19.94},{"city":"Frontenac","state_name":"Kansas","lat":37.46063,"lng":-94.6965,"zip":"66763","miles_from_dt":20.13},{"city":"Mindenmines","state_name":"Missouri","lat":37.48028,"lng":-94.56688,"zip":"64769","miles_from_dt":20.22},{"city":"Picher","state_name":"Oklahoma","lat":36.9801,"lng":-94.83636,"zip":"74360","miles_from_dt":20.56},{"city":"West Mineral","state_name":"Kansas","lat":37.28493,"lng":-94.92609,"zip":"66782","miles_from_dt":20.83},{"city":"Cardin","state_name":"Oklahoma","lat":36.97164,"lng":-94.85237,"zip":"74335","miles_from_dt":21.6},{"city":"Reeds","state_name":"Missouri","lat":37.15822,"lng":-94.14703,"zip":"64859","miles_from_dt":23.35},{"city":"Seneca","state_name":"Missouri","lat":36.84253,"lng":-94.57797,"zip":"64865","miles_from_dt":23.77},{"city":"Avilla","state_name":"Missouri","lat":37.1938,"lng":-94.12982,"zip":"64833","miles_from_dt":24.22},{"city":"Franklin","state_name":"Kansas","lat":37.52091,"lng":-94.71313,"zip":"66735","miles_from_dt":24.35},{"city":"Neosho","state_name":"Missouri","lat":36.86008,"lng":-94.3975,"zip":"64850","miles_from_dt":24.46},{"city":"Commerce","state_name":"Oklahoma","lat":36.934,"lng":-94.87975,"zip":"74339","miles_from_dt":24.5},{"city":"Mulberry","state_name":"Kansas","lat":37.53928,"lng":-94.64869,"zip":"66756","miles_from_dt":24.68},{"city":"Liberal","state_name":"Missouri","lat":37.54628,"lng":-94.50176,"zip":"64762","miles_from_dt":25.04},{"city":"North Miami","state_name":"Oklahoma","lat":36.91798,"lng":-94.88052,"zip":"74358","miles_from_dt":25.33},{"city":"Sarcoxie","state_name":"Missouri","lat":37.10128,"lng":-94.11469,"zip":"64862","miles_from_dt":25.75},{"city":"Granby","state_name":"Missouri","lat":36.91388,"lng":-94.24038,"zip":"64844","miles_from_dt":26.16},{"city":"Miami","state_name":"Oklahoma","lat":36.89071,"lng":-94.87649,"zip":"74355","miles_from_dt":26.6},{"city":"Miami","state_name":"Oklahoma","lat":36.88962,"lng":-94.88096,"zip":"74354","miles_from_dt":26.81},{"city":"Arma","state_name":"Kansas","lat":37.5636,"lng":-94.71657,"zip":"66712","miles_from_dt":27.21},{"city":"McCune","state_name":"Kansas","lat":37.36529,"lng":-95.01444,"zip":"66753","miles_from_dt":27.47},{"city":"Girard","state_name":"Kansas","lat":37.50551,"lng":-94.88786,"zip":"66743","miles_from_dt":28.12},{"city":"Golden City","state_name":"Missouri","lat":37.36497,"lng":-94.10017,"zip":"64748","miles_from_dt":28.58},{"city":"Lamar","state_name":"Missouri","lat":37.52655,"lng":-94.26775,"zip":"64759","miles_from_dt":28.67},{"city":"Chetopa","state_name":"Kansas","lat":37.05385,"lng":-95.07489,"zip":"67336","miles_from_dt":29.43},{"city":"Wyandotte","state_name":"Oklahoma","lat":36.76429,"lng":-94.68017,"zip":"74370","miles_from_dt":29.8}],"targetCityZipCode":"64834","targetCityState":"Missouri"},"__N_SSG":true}