{"pageProps":{"stateName":"Missouri","cityName":"chaffee","nearbyCities":[{"city":"Delta","state_name":"Missouri","lat":37.19331,"lng":-89.71831,"zip":"63744","miles_from_dt":2.18},{"city":"Dutchtown","state_name":"Missouri","lat":37.25596,"lng":-89.65946,"zip":"63745","miles_from_dt":5.72},{"city":"Oran","state_name":"Missouri","lat":37.07431,"lng":-89.71299,"zip":"63771","miles_from_dt":7.15},{"city":"Perkins","state_name":"Missouri","lat":37.09424,"lng":-89.77469,"zip":"63774","miles_from_dt":7.46},{"city":"Kelso","state_name":"Missouri","lat":37.19212,"lng":-89.55064,"zip":"63758","miles_from_dt":7.53},{"city":"Whitewater","state_name":"Missouri","lat":37.26336,"lng":-89.81554,"zip":"63785","miles_from_dt":9.38},{"city":"Gordonville","state_name":"Missouri","lat":37.31394,"lng":-89.67871,"zip":"63752","miles_from_dt":9.54},{"city":"Cape Girardeau","state_name":"Missouri","lat":37.31095,"lng":-89.62594,"zip":"63702","miles_from_dt":9.89},{"city":"Morley","state_name":"Missouri","lat":37.04356,"lng":-89.61038,"zip":"63767","miles_from_dt":10.01},{"city":"Scott City","state_name":"Missouri","lat":37.17797,"lng":-89.50138,"zip":"63780","miles_from_dt":10.17},{"city":"Cape Girardeau","state_name":"Missouri","lat":37.27373,"lng":-89.53981,"zip":"63703","miles_from_dt":10.51},{"city":"Benton","state_name":"Missouri","lat":37.08033,"lng":-89.52072,"zip":"63736","miles_from_dt":11.23},{"city":"Cape Girardeau","state_name":"Missouri","lat":37.33522,"lng":-89.58043,"zip":"63701","miles_from_dt":12.44},{"city":"Vanduser","state_name":"Missouri","lat":36.99497,"lng":-89.69601,"zip":"63784","miles_from_dt":12.47},{"city":"Leopold","state_name":"Missouri","lat":37.25084,"lng":-89.90374,"zip":"63760","miles_from_dt":13.1},{"city":"Commerce","state_name":"Missouri","lat":37.1583,"lng":-89.44672,"zip":"63742","miles_from_dt":13.24},{"city":"Advance","state_name":"Missouri","lat":37.09496,"lng":-89.91841,"zip":"63730","miles_from_dt":14.01},{"city":"Burfordville","state_name":"Missouri","lat":37.35686,"lng":-89.80216,"zip":"63739","miles_from_dt":14.05},{"city":"Bell City","state_name":"Missouri","lat":36.98015,"lng":-89.78139,"zip":"63735","miles_from_dt":14.48},{"city":"Blodgett","state_name":"Missouri","lat":37.00513,"lng":-89.52638,"zip":"63824","miles_from_dt":14.68},{"city":"Thebes","state_name":"Illinois","lat":37.22924,"lng":-89.40493,"zip":"62990","miles_from_dt":15.92},{"city":"Brownwood","state_name":"Missouri","lat":37.08936,"lng":-89.95729,"zip":"63738","miles_from_dt":16.14},{"city":"McClure","state_name":"Illinois","lat":37.31355,"lng":-89.42669,"zip":"62957","miles_from_dt":17.15},{"city":"Jackson","state_name":"Missouri","lat":37.44351,"lng":-89.64193,"zip":"63755","miles_from_dt":18.63},{"city":"Olive Branch","state_name":"Illinois","lat":37.15181,"lng":-89.34674,"zip":"62969","miles_from_dt":18.77},{"city":"Sturdivant","state_name":"Missouri","lat":37.11369,"lng":-90.02788,"zip":"63782","miles_from_dt":19.37},{"city":"Marble Hill","state_name":"Missouri","lat":37.32944,"lng":-89.9837,"zip":"63764","miles_from_dt":19.56},{"city":"Sikeston","state_name":"Missouri","lat":36.89698,"lng":-89.60672,"zip":"63801","miles_from_dt":19.7},{"city":"Millersville","state_name":"Missouri","lat":37.43558,"lng":-89.84424,"zip":"63766","miles_from_dt":19.94},{"city":"Miller City","state_name":"Illinois","lat":37.07431,"lng":-89.33537,"zip":"62962","miles_from_dt":20.56},{"city":"Tamms","state_name":"Illinois","lat":37.23184,"lng":-89.29629,"zip":"62988","miles_from_dt":21.82},{"city":"Bloomfield","state_name":"Missouri","lat":36.93033,"lng":-89.94432,"zip":"63825","miles_from_dt":22.15},{"city":"Pocahontas","state_name":"Missouri","lat":37.49944,"lng":-89.64216,"zip":"63779","miles_from_dt":22.46},{"city":"Morehouse","state_name":"Missouri","lat":36.84579,"lng":-89.68971,"zip":"63868","miles_from_dt":22.75},{"city":"Bertrand","state_name":"Missouri","lat":36.89628,"lng":-89.45367,"zip":"63823","miles_from_dt":23.14},{"city":"Unity","state_name":"Illinois","lat":37.23641,"lng":-89.2696,"zip":"62993","miles_from_dt":23.32},{"city":"Oak Ridge","state_name":"Missouri","lat":37.52312,"lng":-89.74203,"zip":"63769","miles_from_dt":24.16},{"city":"Zalma","state_name":"Missouri","lat":37.12284,"lng":-90.12263,"zip":"63787","miles_from_dt":24.4},{"city":"Grayridge","state_name":"Missouri","lat":36.82227,"lng":-89.78214,"zip":"63850","miles_from_dt":24.95},{"city":"Daisy","state_name":"Missouri","lat":37.51886,"lng":-89.83261,"zip":"63743","miles_from_dt":25.02},{"city":"Glenallen","state_name":"Missouri","lat":37.2742,"lng":-90.12404,"zip":"63751","miles_from_dt":25.12},{"city":"Essex","state_name":"Missouri","lat":36.82229,"lng":-89.80199,"zip":"63846","miles_from_dt":25.2},{"city":"Jonesboro","state_name":"Illinois","lat":37.42065,"lng":-89.33187,"zip":"62952","miles_from_dt":25.79},{"city":"Mounds","state_name":"Illinois","lat":37.12705,"lng":-89.21526,"zip":"62964","miles_from_dt":26.18},{"city":"Millcreek","state_name":"Illinois","lat":37.34063,"lng":-89.25378,"zip":"62961","miles_from_dt":26.38},{"city":"Pulaski","state_name":"Illinois","lat":37.21954,"lng":-89.2095,"zip":"62976","miles_from_dt":26.44},{"city":"Gipsy","state_name":"Missouri","lat":37.1508,"lng":-90.16917,"zip":"63750","miles_from_dt":26.75},{"city":"Wolf Lake","state_name":"Illinois","lat":37.51649,"lng":-89.44698,"zip":"62998","miles_from_dt":26.93},{"city":"Friedheim","state_name":"Missouri","lat":37.55993,"lng":-89.81121,"zip":"63747","miles_from_dt":27.39},{"city":"Sedgewickville","state_name":"Missouri","lat":37.5329,"lng":-89.93078,"zip":"63781","miles_from_dt":28.09},{"city":"Cairo","state_name":"Illinois","lat":37.04076,"lng":-89.20329,"zip":"62914","miles_from_dt":28.21},{"city":"Puxico","state_name":"Missouri","lat":36.96074,"lng":-90.12434,"zip":"63960","miles_from_dt":28.42},{"city":"McGee","state_name":"Missouri","lat":37.05885,"lng":-90.18058,"zip":"63763","miles_from_dt":28.5},{"city":"Charleston","state_name":"Missouri","lat":36.91989,"lng":-89.27885,"zip":"63834","miles_from_dt":28.57},{"city":"Old Appleton","state_name":"Missouri","lat":37.59456,"lng":-89.70049,"zip":"63770","miles_from_dt":28.9},{"city":"Villa Ridge","state_name":"Illinois","lat":37.16624,"lng":-89.15984,"zip":"62996","miles_from_dt":29.02},{"city":"Canalou","state_name":"Missouri","lat":36.75038,"lng":-89.69182,"zip":"63828","miles_from_dt":29.33},{"city":"Altenburg","state_name":"Missouri","lat":37.59428,"lng":-89.59123,"zip":"63732","miles_from_dt":29.33},{"city":"Mound City","state_name":"Illinois","lat":37.0933,"lng":-89.16263,"zip":"62963","miles_from_dt":29.43},{"city":"Uniontown","state_name":"Missouri","lat":37.60958,"lng":-89.6823,"zip":"63783","miles_from_dt":29.93}],"targetCityZipCode":"63740","targetCityState":"Missouri"},"__N_SSG":true}