{"pageProps":{"stateName":"Missouri","cityName":"darlington","nearbyCities":[{"city":"King City","state_name":"Missouri","lat":40.06526,"lng":-94.4869,"zip":"64463","miles_from_dt":7.74},{"city":"Albany","state_name":"Missouri","lat":40.25201,"lng":-94.32276,"zip":"64402","miles_from_dt":7.82},{"city":"Stanberry","state_name":"Missouri","lat":40.23543,"lng":-94.54969,"zip":"64489","miles_from_dt":8.96},{"city":"McFall","state_name":"Missouri","lat":40.13269,"lng":-94.21292,"zip":"64657","miles_from_dt":10.66},{"city":"Gentry","state_name":"Missouri","lat":40.34471,"lng":-94.46947,"zip":"64453","miles_from_dt":13.04},{"city":"New Hampton","state_name":"Missouri","lat":40.26548,"lng":-94.1936,"zip":"64471","miles_from_dt":13.57},{"city":"Guilford","state_name":"Missouri","lat":40.15886,"lng":-94.68368,"zip":"64457","miles_from_dt":14.44},{"city":"Clyde","state_name":"Missouri","lat":40.26399,"lng":-94.66119,"zip":"64432","miles_from_dt":15.02},{"city":"Conception","state_name":"Missouri","lat":40.24107,"lng":-94.68053,"zip":"64433","miles_from_dt":15.3},{"city":"Union Star","state_name":"Missouri","lat":39.99234,"lng":-94.61465,"zip":"64494","miles_from_dt":15.88},{"city":"Maysville","state_name":"Missouri","lat":39.93085,"lng":-94.35762,"zip":"64469","miles_from_dt":16.13},{"city":"Worth","state_name":"Missouri","lat":40.39707,"lng":-94.41521,"zip":"64499","miles_from_dt":16.29},{"city":"Pattonsburg","state_name":"Missouri","lat":40.04986,"lng":-94.13833,"zip":"64670","miles_from_dt":16.35},{"city":"Rea","state_name":"Missouri","lat":40.06102,"lng":-94.70826,"zip":"64480","miles_from_dt":17.2},{"city":"Denver","state_name":"Missouri","lat":40.39883,"lng":-94.2642,"zip":"64441","miles_from_dt":18.15},{"city":"Conception Junction","state_name":"Missouri","lat":40.2584,"lng":-94.73615,"zip":"64434","miles_from_dt":18.47},{"city":"Amity","state_name":"Missouri","lat":39.90022,"lng":-94.4941,"zip":"64422","miles_from_dt":18.53},{"city":"Ravenwood","state_name":"Missouri","lat":40.34853,"lng":-94.66636,"zip":"64479","miles_from_dt":18.7},{"city":"Weatherby","state_name":"Missouri","lat":39.92929,"lng":-94.22275,"zip":"64497","miles_from_dt":18.85},{"city":"Helena","state_name":"Missouri","lat":39.93129,"lng":-94.65017,"zip":"64459","miles_from_dt":20.3},{"city":"Martinsville","state_name":"Missouri","lat":40.39772,"lng":-94.16236,"zip":"64467","miles_from_dt":20.96},{"city":"Bethany","state_name":"Missouri","lat":40.26453,"lng":-94.03242,"zip":"64424","miles_from_dt":21.26},{"city":"Parnell","state_name":"Missouri","lat":40.43561,"lng":-94.63049,"zip":"64475","miles_from_dt":22.21},{"city":"Coffey","state_name":"Missouri","lat":40.11989,"lng":-93.98769,"zip":"64636","miles_from_dt":22.59},{"city":"Grant City","state_name":"Missouri","lat":40.49433,"lng":-94.38733,"zip":"64456","miles_from_dt":23.03},{"city":"Bolckow","state_name":"Missouri","lat":40.10828,"lng":-94.84136,"zip":"64427","miles_from_dt":23.08},{"city":"Allendale","state_name":"Missouri","lat":40.48645,"lng":-94.2892,"zip":"64420","miles_from_dt":23.35},{"city":"Barnard","state_name":"Missouri","lat":40.18695,"lng":-94.8552,"zip":"64423","miles_from_dt":23.58},{"city":"Clarksdale","state_name":"Missouri","lat":39.83771,"lng":-94.56924,"zip":"64430","miles_from_dt":23.84},{"city":"Rosendale","state_name":"Missouri","lat":40.04335,"lng":-94.83471,"zip":"64483","miles_from_dt":23.88},{"city":"Winston","state_name":"Missouri","lat":39.87461,"lng":-94.152,"zip":"64689","miles_from_dt":24.07},{"city":"Altamont","state_name":"Missouri","lat":39.89617,"lng":-94.09094,"zip":"64620","miles_from_dt":24.94},{"city":"Jameson","state_name":"Missouri","lat":40.03016,"lng":-93.96862,"zip":"64647","miles_from_dt":25.12},{"city":"Cosby","state_name":"Missouri","lat":39.85362,"lng":-94.69034,"zip":"64436","miles_from_dt":25.88},{"city":"Savannah","state_name":"Missouri","lat":39.95325,"lng":-94.8184,"zip":"64485","miles_from_dt":25.93},{"city":"Sheridan","state_name":"Missouri","lat":40.52951,"lng":-94.61471,"zip":"64486","miles_from_dt":27.61},{"city":"Maryville","state_name":"Missouri","lat":40.34241,"lng":-94.8811,"zip":"64468","miles_from_dt":27.83},{"city":"Osborn","state_name":"Missouri","lat":39.75829,"lng":-94.38103,"zip":"64474","miles_from_dt":27.83},{"city":"Hatfield","state_name":"Missouri","lat":40.52246,"lng":-94.14491,"zip":"64458","miles_from_dt":28.62},{"city":"Stewartsville","state_name":"Missouri","lat":39.73837,"lng":-94.50984,"zip":"64490","miles_from_dt":29.63},{"city":"Pickering","state_name":"Missouri","lat":40.45115,"lng":-94.83034,"zip":"64476","miles_from_dt":29.86}],"targetCityZipCode":"64438","targetCityState":"Missouri"},"__N_SSG":true}