{"pageProps":{"stateName":"Missouri","cityName":"easton","nearbyCities":[{"city":"Saint Joseph","state_name":"Missouri","lat":39.73324,"lng":-94.75735,"zip":"64507","miles_from_dt":5.69},{"city":"Stewartsville","state_name":"Missouri","lat":39.73837,"lng":-94.50984,"zip":"64490","miles_from_dt":7.6},{"city":"Cosby","state_name":"Missouri","lat":39.85362,"lng":-94.69034,"zip":"64436","miles_from_dt":7.62},{"city":"Clarksdale","state_name":"Missouri","lat":39.83771,"lng":-94.56924,"zip":"64430","miles_from_dt":7.64},{"city":"Saint Joseph","state_name":"Missouri","lat":39.77677,"lng":-94.80103,"zip":"64508","miles_from_dt":8.19},{"city":"Agency","state_name":"Missouri","lat":39.63452,"lng":-94.71522,"zip":"64401","miles_from_dt":8.47},{"city":"Saint Joseph","state_name":"Missouri","lat":39.79048,"lng":-94.80277,"zip":"64506","miles_from_dt":8.56},{"city":"Gower","state_name":"Missouri","lat":39.60771,"lng":-94.59423,"zip":"64454","miles_from_dt":10.11},{"city":"Saint Joseph","state_name":"Missouri","lat":39.74973,"lng":-94.84545,"zip":"64503","miles_from_dt":10.3},{"city":"Saint Joseph","state_name":"Missouri","lat":39.76584,"lng":-94.84448,"zip":"64501","miles_from_dt":10.33},{"city":"Saint Joseph","state_name":"Missouri","lat":39.76361,"lng":-94.84998,"zip":"64502","miles_from_dt":10.6},{"city":"Saint Joseph","state_name":"Missouri","lat":39.84431,"lng":-94.83354,"zip":"64505","miles_from_dt":11.75},{"city":"Elwood","state_name":"Kansas","lat":39.76211,"lng":-94.87719,"zip":"66024","miles_from_dt":12.03},{"city":"Helena","state_name":"Missouri","lat":39.93129,"lng":-94.65017,"zip":"64459","miles_from_dt":12.7},{"city":"Faucett","state_name":"Missouri","lat":39.60258,"lng":-94.81856,"zip":"64448","miles_from_dt":13.36},{"city":"Amity","state_name":"Missouri","lat":39.90022,"lng":-94.4941,"zip":"64422","miles_from_dt":13.49},{"city":"Osborn","state_name":"Missouri","lat":39.75829,"lng":-94.38103,"zip":"64474","miles_from_dt":14.45},{"city":"Saint Joseph","state_name":"Missouri","lat":39.68605,"lng":-94.91264,"zip":"64504","miles_from_dt":14.51},{"city":"Plattsburg","state_name":"Missouri","lat":39.57872,"lng":-94.45289,"zip":"64477","miles_from_dt":15.75},{"city":"Dearborn","state_name":"Missouri","lat":39.52371,"lng":-94.74986,"zip":"64439","miles_from_dt":16.28},{"city":"Savannah","state_name":"Missouri","lat":39.95325,"lng":-94.8184,"zip":"64485","miles_from_dt":16.74},{"city":"Union Star","state_name":"Missouri","lat":39.99234,"lng":-94.61465,"zip":"64494","miles_from_dt":17.03},{"city":"Wathena","state_name":"Kansas","lat":39.78391,"lng":-94.97041,"zip":"66090","miles_from_dt":17.14},{"city":"Edgerton","state_name":"Missouri","lat":39.48334,"lng":-94.63856,"zip":"64444","miles_from_dt":18.22},{"city":"De Kalb","state_name":"Missouri","lat":39.57849,"lng":-94.91841,"zip":"64440","miles_from_dt":18.36},{"city":"Amazonia","state_name":"Missouri","lat":39.9082,"lng":-94.92779,"zip":"64421","miles_from_dt":18.4},{"city":"Trimble","state_name":"Missouri","lat":39.48067,"lng":-94.53363,"zip":"64492","miles_from_dt":19.45},{"city":"Maysville","state_name":"Missouri","lat":39.93085,"lng":-94.35762,"zip":"64469","miles_from_dt":20.14},{"city":"Turney","state_name":"Missouri","lat":39.63058,"lng":-94.30454,"zip":"64493","miles_from_dt":20.2},{"city":"Camden Point","state_name":"Missouri","lat":39.45052,"lng":-94.73329,"zip":"64018","miles_from_dt":20.92},{"city":"Rea","state_name":"Missouri","lat":40.06102,"lng":-94.70826,"zip":"64480","miles_from_dt":21.85},{"city":"Cameron","state_name":"Missouri","lat":39.73895,"lng":-94.2285,"zip":"64429","miles_from_dt":22.57},{"city":"Rosendale","state_name":"Missouri","lat":40.04335,"lng":-94.83471,"zip":"64483","miles_from_dt":22.62},{"city":"Lathrop","state_name":"Missouri","lat":39.54853,"lng":-94.29525,"zip":"64465","miles_from_dt":23.45},{"city":"Rushville","state_name":"Missouri","lat":39.55638,"lng":-95.01974,"zip":"64484","miles_from_dt":23.62},{"city":"King City","state_name":"Missouri","lat":40.06526,"lng":-94.4869,"zip":"64463","miles_from_dt":23.63},{"city":"Weston","state_name":"Missouri","lat":39.45661,"lng":-94.89456,"zip":"64098","miles_from_dt":23.86},{"city":"Smithville","state_name":"Missouri","lat":39.39007,"lng":-94.56483,"zip":"64089","miles_from_dt":25.08},{"city":"Holt","state_name":"Missouri","lat":39.44439,"lng":-94.3634,"zip":"64048","miles_from_dt":25.96},{"city":"Weatherby","state_name":"Missouri","lat":39.92929,"lng":-94.22275,"zip":"64497","miles_from_dt":26.06},{"city":"Troy","state_name":"Kansas","lat":39.80641,"lng":-95.1378,"zip":"66087","miles_from_dt":26.18},{"city":"Fillmore","state_name":"Missouri","lat":40.04135,"lng":-94.97754,"zip":"64449","miles_from_dt":26.66},{"city":"Bolckow","state_name":"Missouri","lat":40.10828,"lng":-94.84136,"zip":"64427","miles_from_dt":26.86},{"city":"Platte City","state_name":"Missouri","lat":39.36267,"lng":-94.79351,"zip":"64079","miles_from_dt":27.59},{"city":"Oregon","state_name":"Missouri","lat":39.97606,"lng":-95.08446,"zip":"64473","miles_from_dt":27.89},{"city":"Bendena","state_name":"Kansas","lat":39.71283,"lng":-95.17564,"zip":"66008","miles_from_dt":27.99},{"city":"Winston","state_name":"Missouri","lat":39.87461,"lng":-94.152,"zip":"64689","miles_from_dt":28.02},{"city":"Kansas City","state_name":"Missouri","lat":39.33674,"lng":-94.68922,"zip":"64163","miles_from_dt":28.39},{"city":"Guilford","state_name":"Missouri","lat":40.15886,"lng":-94.68368,"zip":"64457","miles_from_dt":28.45},{"city":"Kansas City","state_name":"Missouri","lat":39.32988,"lng":-94.63113,"zip":"64164","miles_from_dt":28.81},{"city":"Atchison","state_name":"Kansas","lat":39.5488,"lng":-95.13881,"zip":"66002","miles_from_dt":29.35},{"city":"Kansas City","state_name":"Missouri","lat":39.32081,"lng":-94.57749,"zip":"64165","miles_from_dt":29.69},{"city":"Kidder","state_name":"Missouri","lat":39.77428,"lng":-94.09183,"zip":"64649","miles_from_dt":29.89},{"city":"Fort Leavenworth","state_name":"Kansas","lat":39.36454,"lng":-94.91708,"zip":"66027","miles_from_dt":29.96}],"targetCityZipCode":"64443","targetCityState":"Missouri"},"__N_SSG":true}