{"pageProps":{"stateName":"Missouri","cityName":"eolia","nearbyCities":[{"city":"Whiteside","state_name":"Missouri","lat":39.18415,"lng":-91.01677,"zip":"63387","miles_from_dt":3.23},{"city":"Clarksville","state_name":"Missouri","lat":39.33335,"lng":-90.9388,"zip":"63336","miles_from_dt":8.07},{"city":"Silex","state_name":"Missouri","lat":39.11016,"lng":-91.10053,"zip":"63377","miles_from_dt":9.61},{"city":"Bowling Green","state_name":"Missouri","lat":39.30747,"lng":-91.18838,"zip":"63334","miles_from_dt":10.88},{"city":"Elsberry","state_name":"Missouri","lat":39.15775,"lng":-90.82815,"zip":"63343","miles_from_dt":11.04},{"city":"Annada","state_name":"Missouri","lat":39.26151,"lng":-90.79214,"zip":"63330","miles_from_dt":11.94},{"city":"Olney","state_name":"Missouri","lat":39.09786,"lng":-91.21228,"zip":"63370","miles_from_dt":14.17},{"city":"Louisiana","state_name":"Missouri","lat":39.44375,"lng":-91.12,"zip":"63353","miles_from_dt":15.81},{"city":"Mozier","state_name":"Illinois","lat":39.29101,"lng":-90.72278,"zip":"62070","miles_from_dt":16.01},{"city":"Troy","state_name":"Missouri","lat":38.99817,"lng":-90.99037,"zip":"63379","miles_from_dt":16.08},{"city":"Hamburg","state_name":"Illinois","lat":39.26297,"lng":-90.70921,"zip":"62045","miles_from_dt":16.35},{"city":"Pleasant Hill","state_name":"Illinois","lat":39.46253,"lng":-90.89402,"zip":"62366","miles_from_dt":17.17},{"city":"Foley","state_name":"Missouri","lat":39.0708,"lng":-90.76352,"zip":"63347","miles_from_dt":17.28},{"city":"Nebo","state_name":"Illinois","lat":39.40963,"lng":-90.77936,"zip":"62355","miles_from_dt":17.51},{"city":"Middletown","state_name":"Missouri","lat":39.1564,"lng":-91.34652,"zip":"63359","miles_from_dt":18.72},{"city":"Hawk Point","state_name":"Missouri","lat":38.97979,"lng":-91.15083,"zip":"63349","miles_from_dt":18.87},{"city":"Kampsville","state_name":"Illinois","lat":39.31572,"lng":-90.65763,"zip":"62053","miles_from_dt":19.84},{"city":"Rockport","state_name":"Illinois","lat":39.51818,"lng":-90.99881,"zip":"62370","miles_from_dt":19.84},{"city":"Curryville","state_name":"Missouri","lat":39.33673,"lng":-91.36384,"zip":"63339","miles_from_dt":20.27},{"city":"Michael","state_name":"Illinois","lat":39.22889,"lng":-90.63046,"zip":"62065","miles_from_dt":20.43},{"city":"Winfield","state_name":"Missouri","lat":38.99969,"lng":-90.76875,"zip":"63389","miles_from_dt":20.59},{"city":"Ashburn","state_name":"Missouri","lat":39.51838,"lng":-91.11816,"zip":"63433","miles_from_dt":20.65},{"city":"Bellflower","state_name":"Missouri","lat":39.0351,"lng":-91.32014,"zip":"63333","miles_from_dt":21.4},{"city":"Truxton","state_name":"Missouri","lat":38.98237,"lng":-91.25429,"zip":"63381","miles_from_dt":21.55},{"city":"Moscow Mills","state_name":"Missouri","lat":38.93276,"lng":-90.88227,"zip":"63362","miles_from_dt":21.69},{"city":"Batchtown","state_name":"Illinois","lat":39.06433,"lng":-90.66714,"zip":"62006","miles_from_dt":21.76},{"city":"Hardin","state_name":"Illinois","lat":39.13314,"lng":-90.62273,"zip":"62047","miles_from_dt":21.91},{"city":"Frankford","state_name":"Missouri","lat":39.4766,"lng":-91.31575,"zip":"63441","miles_from_dt":23.53},{"city":"Old Monroe","state_name":"Missouri","lat":38.93758,"lng":-90.77766,"zip":"63369","miles_from_dt":23.8},{"city":"Eldred","state_name":"Illinois","lat":39.24686,"lng":-90.55725,"zip":"62027","miles_from_dt":24.38},{"city":"New Canton","state_name":"Illinois","lat":39.60092,"lng":-91.08508,"zip":"62356","miles_from_dt":25.84},{"city":"Vandalia","state_name":"Missouri","lat":39.31104,"lng":-91.49042,"zip":"63382","miles_from_dt":26.29},{"city":"Pearl","state_name":"Illinois","lat":39.48734,"lng":-90.64191,"zip":"62361","miles_from_dt":26.54},{"city":"Fieldon","state_name":"Illinois","lat":39.1123,"lng":-90.53355,"zip":"62031","miles_from_dt":26.92},{"city":"Flinthill","state_name":"Missouri","lat":38.85588,"lng":-90.86577,"zip":"63346","miles_from_dt":27.02},{"city":"Pittsfield","state_name":"Illinois","lat":39.59163,"lng":-90.7784,"zip":"62363","miles_from_dt":27.84},{"city":"Hillview","state_name":"Illinois","lat":39.43734,"lng":-90.55544,"zip":"62050","miles_from_dt":28.27},{"city":"High Hill","state_name":"Missouri","lat":38.90243,"lng":-91.35686,"zip":"63350","miles_from_dt":29.3},{"city":"Wright City","state_name":"Missouri","lat":38.80499,"lng":-91.0413,"zip":"63390","miles_from_dt":29.42},{"city":"Truesdale","state_name":"Missouri","lat":38.81262,"lng":-91.12205,"zip":"63380","miles_from_dt":29.46}],"targetCityZipCode":"63344","targetCityState":"Missouri"},"__N_SSG":true}