{"pageProps":{"stateName":"Missouri","cityName":"ethel","nearbyCities":[{"city":"Elmer","state_name":"Missouri","lat":39.9526,"lng":-92.67327,"zip":"63538","miles_from_dt":5.3},{"city":"New Boston","state_name":"Missouri","lat":39.98297,"lng":-92.88045,"zip":"63557","miles_from_dt":7.09},{"city":"Bucklin","state_name":"Missouri","lat":39.82018,"lng":-92.88213,"zip":"64631","miles_from_dt":9.6},{"city":"Winigan","state_name":"Missouri","lat":40.03139,"lng":-92.94793,"zip":"63566","miles_from_dt":11.93},{"city":"New Cambria","state_name":"Missouri","lat":39.74168,"lng":-92.75244,"zip":"63558","miles_from_dt":12.87},{"city":"Callao","state_name":"Missouri","lat":39.74061,"lng":-92.64838,"zip":"63534","miles_from_dt":14.4},{"city":"Bevier","state_name":"Missouri","lat":39.7677,"lng":-92.57434,"zip":"63532","miles_from_dt":15.1},{"city":"La Plata","state_name":"Missouri","lat":40.0167,"lng":-92.49172,"zip":"63549","miles_from_dt":15.88},{"city":"Atlanta","state_name":"Missouri","lat":39.90732,"lng":-92.45037,"zip":"63530","miles_from_dt":16.92},{"city":"Brookfield","state_name":"Missouri","lat":39.79711,"lng":-93.05002,"zip":"64628","miles_from_dt":17.51},{"city":"Kirksville","state_name":"Missouri","lat":40.16745,"lng":-92.59078,"zip":"63501","miles_from_dt":19.01},{"city":"Marceline","state_name":"Missouri","lat":39.66124,"lng":-92.92181,"zip":"64658","miles_from_dt":20.14},{"city":"Novinger","state_name":"Missouri","lat":40.22674,"lng":-92.74528,"zip":"63559","miles_from_dt":20.65},{"city":"Macon","state_name":"Missouri","lat":39.75349,"lng":-92.45075,"zip":"63552","miles_from_dt":20.72},{"city":"Purdin","state_name":"Missouri","lat":39.96491,"lng":-93.15884,"zip":"64674","miles_from_dt":20.92},{"city":"Browning","state_name":"Missouri","lat":40.03726,"lng":-93.15435,"zip":"64630","miles_from_dt":21.86},{"city":"Green Castle","state_name":"Missouri","lat":40.24603,"lng":-92.84943,"zip":"63544","miles_from_dt":22.37},{"city":"Gibbs","state_name":"Missouri","lat":40.09782,"lng":-92.40792,"zip":"63540","miles_from_dt":22.4},{"city":"Linneus","state_name":"Missouri","lat":39.89403,"lng":-93.20403,"zip":"64653","miles_from_dt":23.29},{"city":"Rothville","state_name":"Missouri","lat":39.6471,"lng":-93.03729,"zip":"64676","miles_from_dt":24.1},{"city":"Laclede","state_name":"Missouri","lat":39.7759,"lng":-93.1797,"zip":"64651","miles_from_dt":24.28},{"city":"Milan","state_name":"Missouri","lat":40.18251,"lng":-93.11723,"zip":"63556","miles_from_dt":25.53},{"city":"Excello","state_name":"Missouri","lat":39.63502,"lng":-92.47296,"zip":"65247","miles_from_dt":25.59},{"city":"Green City","state_name":"Missouri","lat":40.26721,"lng":-92.9677,"zip":"63545","miles_from_dt":25.7},{"city":"Anabel","state_name":"Missouri","lat":39.74887,"lng":-92.32893,"zip":"63431","miles_from_dt":26.41},{"city":"Brashear","state_name":"Missouri","lat":40.20471,"lng":-92.39608,"zip":"63533","miles_from_dt":27.44},{"city":"Hurdland","state_name":"Missouri","lat":40.13492,"lng":-92.30651,"zip":"63547","miles_from_dt":28.33},{"city":"Meadville","state_name":"Missouri","lat":39.78138,"lng":-93.29224,"zip":"64659","miles_from_dt":29.66},{"city":"Mendon","state_name":"Missouri","lat":39.57226,"lng":-93.08923,"zip":"64660","miles_from_dt":29.92}],"targetCityZipCode":"63539","targetCityState":"Missouri"},"__N_SSG":true}