{"pageProps":{"stateName":"Missouri","cityName":"fairdealing","nearbyCities":[{"city":"Oxly","state_name":"Missouri","lat":36.60211,"lng":-90.67864,"zip":"63955","miles_from_dt":5.69},{"city":"Naylor","state_name":"Missouri","lat":36.59134,"lng":-90.62995,"zip":"63953","miles_from_dt":7.06},{"city":"Harviell","state_name":"Missouri","lat":36.6381,"lng":-90.5524,"zip":"63945","miles_from_dt":7.91},{"city":"Grandin","state_name":"Missouri","lat":36.84046,"lng":-90.79995,"zip":"63943","miles_from_dt":12.57},{"city":"Doniphan","state_name":"Missouri","lat":36.67053,"lng":-90.92055,"zip":"63935","miles_from_dt":13.26},{"city":"Poplar Bluff","state_name":"Missouri","lat":36.77168,"lng":-90.45012,"zip":"63901","miles_from_dt":14.23},{"city":"Neelyville","state_name":"Missouri","lat":36.56365,"lng":-90.47337,"zip":"63954","miles_from_dt":14.31},{"city":"Success","state_name":"Arkansas","lat":36.4668,"lng":-90.70309,"zip":"72470","miles_from_dt":15.06},{"city":"Briar","state_name":"Missouri","lat":36.64159,"lng":-90.95927,"zip":"63931","miles_from_dt":15.66},{"city":"Poplar Bluff","state_name":"Missouri","lat":36.7556,"lng":-90.3952,"zip":"63902","miles_from_dt":16.69},{"city":"Ellsinore","state_name":"Missouri","lat":36.94403,"lng":-90.74907,"zip":"63937","miles_from_dt":18.27},{"city":"Corning","state_name":"Arkansas","lat":36.41893,"lng":-90.54385,"zip":"72422","miles_from_dt":19.87},{"city":"Datto","state_name":"Arkansas","lat":36.39185,"lng":-90.72874,"zip":"72424","miles_from_dt":20.35},{"city":"Maynard","state_name":"Arkansas","lat":36.4266,"lng":-90.86106,"zip":"72444","miles_from_dt":20.37},{"city":"Reyno","state_name":"Arkansas","lat":36.38243,"lng":-90.75916,"zip":"72462","miles_from_dt":21.26},{"city":"Williamsville","state_name":"Missouri","lat":36.94867,"lng":-90.47721,"zip":"63967","miles_from_dt":21.48},{"city":"Mill Spring","state_name":"Missouri","lat":37.00828,"lng":-90.64916,"zip":"63952","miles_from_dt":22.4},{"city":"McDougal","state_name":"Arkansas","lat":36.4355,"lng":-90.38944,"zip":"72441","miles_from_dt":23.68},{"city":"Gatewood","state_name":"Missouri","lat":36.55434,"lng":-91.07821,"zip":"63942","miles_from_dt":23.76},{"city":"Qulin","state_name":"Missouri","lat":36.56848,"lng":-90.2749,"zip":"63961","miles_from_dt":24.03},{"city":"Broseley","state_name":"Missouri","lat":36.6879,"lng":-90.24533,"zip":"63932","miles_from_dt":24.28},{"city":"Rombauer","state_name":"Missouri","lat":36.84406,"lng":-90.28149,"zip":"63962","miles_from_dt":24.82},{"city":"Pollard","state_name":"Arkansas","lat":36.45362,"lng":-90.32217,"zip":"72456","miles_from_dt":25.6},{"city":"Warm Springs","state_name":"Arkansas","lat":36.46249,"lng":-91.05373,"zip":"72478","miles_from_dt":25.7},{"city":"Peach Orchard","state_name":"Arkansas","lat":36.30909,"lng":-90.67887,"zip":"72453","miles_from_dt":25.89},{"city":"Fisk","state_name":"Missouri","lat":36.77218,"lng":-90.22892,"zip":"63940","miles_from_dt":25.89},{"city":"Knobel","state_name":"Arkansas","lat":36.31177,"lng":-90.54593,"zip":"72435","miles_from_dt":26.81},{"city":"Biggers","state_name":"Arkansas","lat":36.30564,"lng":-90.81251,"zip":"72413","miles_from_dt":27.11},{"city":"Van Buren","state_name":"Missouri","lat":36.97391,"lng":-91.02294,"zip":"63965","miles_from_dt":27.46},{"city":"Fremont","state_name":"Missouri","lat":36.8711,"lng":-91.16607,"zip":"63941","miles_from_dt":29.75}],"targetCityZipCode":"63939","targetCityState":"Missouri"},"__N_SSG":true}