{"pageProps":{"stateName":"Missouri","cityName":"festus","nearbyCities":[{"city":"Crystal City","state_name":"Missouri","lat":38.229,"lng":-90.37684,"zip":"63019","miles_from_dt":5.84},{"city":"Hematite","state_name":"Missouri","lat":38.1954,"lng":-90.48763,"zip":"63047","miles_from_dt":6.14},{"city":"Herculaneum","state_name":"Missouri","lat":38.25924,"lng":-90.39194,"zip":"63048","miles_from_dt":7.85},{"city":"Mapaville","state_name":"Missouri","lat":38.2514,"lng":-90.4858,"zip":"63065","miles_from_dt":8.85},{"city":"Pevely","state_name":"Missouri","lat":38.28625,"lng":-90.41822,"zip":"63070","miles_from_dt":9.8},{"city":"Valmeyer","state_name":"Illinois","lat":38.27126,"lng":-90.30895,"zip":"62295","miles_from_dt":9.84},{"city":"De Soto","state_name":"Missouri","lat":38.10706,"lng":-90.5718,"zip":"63020","miles_from_dt":10.03},{"city":"Valles Mines","state_name":"Missouri","lat":38.00888,"lng":-90.45835,"zip":"63087","miles_from_dt":10.05},{"city":"Maeystown","state_name":"Illinois","lat":38.22623,"lng":-90.23152,"zip":"62256","miles_from_dt":10.46},{"city":"Bloomsdale","state_name":"Missouri","lat":38.03625,"lng":-90.25317,"zip":"63627","miles_from_dt":10.76},{"city":"Fults","state_name":"Illinois","lat":38.19142,"lng":-90.1965,"zip":"62244","miles_from_dt":11.22},{"city":"French Village","state_name":"Missouri","lat":37.9817,"lng":-90.372,"zip":"63036","miles_from_dt":11.36},{"city":"Hillsboro","state_name":"Missouri","lat":38.25977,"lng":-90.57628,"zip":"63050","miles_from_dt":12.66},{"city":"Liguori","state_name":"Missouri","lat":38.33832,"lng":-90.39882,"zip":"63057","miles_from_dt":13.31},{"city":"Barnhart","state_name":"Missouri","lat":38.33532,"lng":-90.44832,"zip":"63012","miles_from_dt":13.42},{"city":"Renault","state_name":"Illinois","lat":38.13796,"lng":-90.13695,"zip":"62279","miles_from_dt":14.02},{"city":"Kimmswick","state_name":"Missouri","lat":38.36651,"lng":-90.36402,"zip":"63053","miles_from_dt":15.34},{"city":"Prairie Du Rocher","state_name":"Illinois","lat":38.09844,"lng":-90.11081,"zip":"62277","miles_from_dt":15.78},{"city":"Bonne Terre","state_name":"Missouri","lat":37.9392,"lng":-90.52466,"zip":"63628","miles_from_dt":15.9},{"city":"Tiff","state_name":"Missouri","lat":38.03126,"lng":-90.65933,"zip":"63674","miles_from_dt":16.46},{"city":"Morse Mill","state_name":"Missouri","lat":38.27805,"lng":-90.65307,"zip":"63066","miles_from_dt":16.79},{"city":"Imperial","state_name":"Missouri","lat":38.38983,"lng":-90.4358,"zip":"63052","miles_from_dt":17.01},{"city":"Waterloo","state_name":"Illinois","lat":38.30906,"lng":-90.15132,"zip":"62298","miles_from_dt":17.38},{"city":"Blackwell","state_name":"Missouri","lat":38.07721,"lng":-90.71471,"zip":"63626","miles_from_dt":18.09},{"city":"Dittmer","state_name":"Missouri","lat":38.2659,"lng":-90.71292,"zip":"63023","miles_from_dt":19.23},{"city":"Fletcher","state_name":"Missouri","lat":38.14321,"lng":-90.7522,"zip":"63030","miles_from_dt":19.5},{"city":"Arnold","state_name":"Missouri","lat":38.42964,"lng":-90.3932,"zip":"63010","miles_from_dt":19.6},{"city":"House Springs","state_name":"Missouri","lat":38.39886,"lng":-90.57303,"zip":"63051","miles_from_dt":20},{"city":"Cadet","state_name":"Missouri","lat":38.01874,"lng":-90.72727,"zip":"63630","miles_from_dt":20.15},{"city":"Cedar Hill","state_name":"Missouri","lat":38.35692,"lng":-90.65014,"zip":"63016","miles_from_dt":20.16},{"city":"Sainte Genevieve","state_name":"Missouri","lat":37.89667,"lng":-90.16245,"zip":"63670","miles_from_dt":21.32},{"city":"Saint Louis","state_name":"Missouri","lat":38.45654,"lng":-90.32202,"zip":"63129","miles_from_dt":21.81},{"city":"Columbia","state_name":"Illinois","lat":38.43391,"lng":-90.21141,"zip":"62236","miles_from_dt":22.24},{"city":"Leadwood","state_name":"Missouri","lat":37.86139,"lng":-90.58789,"zip":"63653","miles_from_dt":22.26},{"city":"Red Bud","state_name":"Illinois","lat":38.20528,"lng":-89.99116,"zip":"62278","miles_from_dt":22.33},{"city":"Grubville","state_name":"Missouri","lat":38.2522,"lng":-90.79059,"zip":"63041","miles_from_dt":22.8},{"city":"Saint Louis","state_name":"Missouri","lat":38.4686,"lng":-90.30511,"zip":"63151","miles_from_dt":22.81},{"city":"Mineral Point","state_name":"Missouri","lat":37.91241,"lng":-90.70241,"zip":"63660","miles_from_dt":23.26},{"city":"Modoc","state_name":"Illinois","lat":38.01218,"lng":-89.99774,"zip":"62261","miles_from_dt":23.49},{"city":"Richwoods","state_name":"Missouri","lat":38.15635,"lng":-90.82558,"zip":"63071","miles_from_dt":23.51},{"city":"Park Hills","state_name":"Missouri","lat":37.8212,"lng":-90.5439,"zip":"63601","miles_from_dt":23.81},{"city":"Saint Louis","state_name":"Missouri","lat":38.49369,"lng":-90.38306,"zip":"63128","miles_from_dt":24.03},{"city":"High Ridge","state_name":"Missouri","lat":38.47795,"lng":-90.52867,"zip":"63049","miles_from_dt":24.07},{"city":"Luebbering","state_name":"Missouri","lat":38.2679,"lng":-90.81053,"zip":"63061","miles_from_dt":24.18},{"city":"Hecker","state_name":"Illinois","lat":38.30543,"lng":-89.99341,"zip":"62248","miles_from_dt":24.44},{"city":"Evansville","state_name":"Illinois","lat":38.09257,"lng":-89.94339,"zip":"62242","miles_from_dt":24.83},{"city":"Fenton","state_name":"Missouri","lat":38.50195,"lng":-90.45995,"zip":"63026","miles_from_dt":24.85},{"city":"Catawissa","state_name":"Missouri","lat":38.39633,"lng":-90.75274,"zip":"63015","miles_from_dt":26.07},{"city":"Saint Louis","state_name":"Missouri","lat":38.51867,"lng":-90.29269,"zip":"63125","miles_from_dt":26.33},{"city":"Eureka","state_name":"Missouri","lat":38.4896,"lng":-90.61666,"zip":"63025","miles_from_dt":26.64},{"city":"Smithton","state_name":"Illinois","lat":38.38845,"lng":-90.00773,"zip":"62285","miles_from_dt":26.88},{"city":"Lonedell","state_name":"Missouri","lat":38.25656,"lng":-90.86815,"zip":"63060","miles_from_dt":26.91},{"city":"Saint Louis","state_name":"Missouri","lat":38.53544,"lng":-90.41297,"zip":"63127","miles_from_dt":26.92},{"city":"Farmington","state_name":"Missouri","lat":37.75446,"lng":-90.36525,"zip":"63640","miles_from_dt":27.01},{"city":"Millstadt","state_name":"Illinois","lat":38.46097,"lng":-90.09891,"zip":"62260","miles_from_dt":27.04},{"city":"Fenton","state_name":"Missouri","lat":38.53652,"lng":-90.44805,"zip":"63099","miles_from_dt":27.13},{"city":"Robertsville","state_name":"Missouri","lat":38.36635,"lng":-90.81354,"zip":"63072","miles_from_dt":27.43},{"city":"East Carondelet","state_name":"Illinois","lat":38.52084,"lng":-90.21011,"zip":"62240","miles_from_dt":27.76},{"city":"Saint Louis","state_name":"Missouri","lat":38.5496,"lng":-90.37868,"zip":"63126","miles_from_dt":27.89},{"city":"Irondale","state_name":"Missouri","lat":37.8187,"lng":-90.69878,"zip":"63648","miles_from_dt":28},{"city":"Saint Louis","state_name":"Missouri","lat":38.54949,"lng":-90.32739,"zip":"63123","miles_from_dt":28.1},{"city":"Valley Park","state_name":"Missouri","lat":38.54862,"lng":-90.50111,"zip":"63088","miles_from_dt":28.41},{"city":"Dupo","state_name":"Illinois","lat":38.528,"lng":-90.1803,"zip":"62239","miles_from_dt":28.83},{"city":"New Athens","state_name":"Illinois","lat":38.31612,"lng":-89.90721,"zip":"62264","miles_from_dt":28.99},{"city":"Ellis Grove","state_name":"Illinois","lat":38.01474,"lng":-89.88845,"zip":"62241","miles_from_dt":29.01},{"city":"Saint Louis","state_name":"Missouri","lat":38.55845,"lng":-90.24993,"zip":"63111","miles_from_dt":29.54},{"city":"Pacific","state_name":"Missouri","lat":38.48286,"lng":-90.7292,"zip":"63069","miles_from_dt":29.55},{"city":"Saint Louis","state_name":"Missouri","lat":38.57853,"lng":-90.42133,"zip":"63122","miles_from_dt":29.91}],"targetCityZipCode":"63028","targetCityState":"Missouri"},"__N_SSG":true}