{"pageProps":{"stateName":"Missouri","cityName":"gerald","nearbyCities":[{"city":"Rosebud","state_name":"Missouri","lat":38.36581,"lng":-91.39013,"zip":"63091","miles_from_dt":5.71},{"city":"Leslie","state_name":"Missouri","lat":38.38964,"lng":-91.22072,"zip":"63056","miles_from_dt":5.74},{"city":"Beaufort","state_name":"Missouri","lat":38.41776,"lng":-91.15182,"zip":"63013","miles_from_dt":8.95},{"city":"New Haven","state_name":"Missouri","lat":38.55747,"lng":-91.24761,"zip":"63068","miles_from_dt":9.87},{"city":"Owensville","state_name":"Missouri","lat":38.3454,"lng":-91.48898,"zip":"65066","miles_from_dt":10.85},{"city":"Berger","state_name":"Missouri","lat":38.64892,"lng":-91.31566,"zip":"63014","miles_from_dt":15.45},{"city":"Stanton","state_name":"Missouri","lat":38.26632,"lng":-91.1001,"zip":"63079","miles_from_dt":16.06},{"city":"Washington","state_name":"Missouri","lat":38.53176,"lng":-91.05047,"zip":"63090","miles_from_dt":16.2},{"city":"Union","state_name":"Missouri","lat":38.41749,"lng":-91.01438,"zip":"63084","miles_from_dt":16.4},{"city":"Treloar","state_name":"Missouri","lat":38.64145,"lng":-91.18713,"zip":"63378","miles_from_dt":16.5},{"city":"Hermann","state_name":"Missouri","lat":38.64088,"lng":-91.47712,"zip":"65041","miles_from_dt":17.25},{"city":"Bland","state_name":"Missouri","lat":38.32184,"lng":-91.6247,"zip":"65014","miles_from_dt":18.18},{"city":"Mount Sterling","state_name":"Missouri","lat":38.49486,"lng":-91.65059,"zip":"65062","miles_from_dt":18.75},{"city":"Saint Clair","state_name":"Missouri","lat":38.32648,"lng":-90.98537,"zip":"63077","miles_from_dt":19.22},{"city":"Sullivan","state_name":"Missouri","lat":38.20828,"lng":-91.08802,"zip":"63080","miles_from_dt":19.43},{"city":"Marthasville","state_name":"Missouri","lat":38.65518,"lng":-91.0947,"zip":"63357","miles_from_dt":19.91},{"city":"Dutzow","state_name":"Missouri","lat":38.59481,"lng":-91.00131,"zip":"63342","miles_from_dt":20.71},{"city":"Morrison","state_name":"Missouri","lat":38.59773,"lng":-91.638,"zip":"65061","miles_from_dt":21.11},{"city":"Cuba","state_name":"Missouri","lat":38.10706,"lng":-91.42509,"zip":"65453","miles_from_dt":22.71},{"city":"Villa Ridge","state_name":"Missouri","lat":38.45846,"lng":-90.88286,"zip":"63089","miles_from_dt":23.64},{"city":"Gasconade","state_name":"Missouri","lat":38.67278,"lng":-91.63611,"zip":"65036","miles_from_dt":24.33},{"city":"Bourbon","state_name":"Missouri","lat":38.09394,"lng":-91.15842,"zip":"65441","miles_from_dt":24.4},{"city":"Leasburg","state_name":"Missouri","lat":38.07194,"lng":-91.2752,"zip":"65535","miles_from_dt":24.45},{"city":"Augusta","state_name":"Missouri","lat":38.60137,"lng":-90.89195,"zip":"63332","miles_from_dt":26.03},{"city":"Belle","state_name":"Missouri","lat":38.26868,"lng":-91.75493,"zip":"65013","miles_from_dt":26.14},{"city":"Linn","state_name":"Missouri","lat":38.46519,"lng":-91.79758,"zip":"65051","miles_from_dt":26.24},{"city":"Gray Summit","state_name":"Missouri","lat":38.49532,"lng":-90.83527,"zip":"63039","miles_from_dt":26.55},{"city":"Labadie","state_name":"Missouri","lat":38.53254,"lng":-90.8382,"zip":"63055","miles_from_dt":26.97},{"city":"Lonedell","state_name":"Missouri","lat":38.25656,"lng":-90.86815,"zip":"63060","miles_from_dt":26.98},{"city":"Warrenton","state_name":"Missouri","lat":38.80726,"lng":-91.19319,"zip":"63383","miles_from_dt":27.2},{"city":"Rhineland","state_name":"Missouri","lat":38.75573,"lng":-91.5966,"zip":"65069","miles_from_dt":27.39},{"city":"Chamois","state_name":"Missouri","lat":38.62444,"lng":-91.75712,"zip":"65024","miles_from_dt":27.56},{"city":"Robertsville","state_name":"Missouri","lat":38.36635,"lng":-90.81354,"zip":"63072","miles_from_dt":27.6},{"city":"Truesdale","state_name":"Missouri","lat":38.81262,"lng":-91.12205,"zip":"63380","miles_from_dt":28.74},{"city":"Luebbering","state_name":"Missouri","lat":38.2679,"lng":-90.81053,"zip":"63061","miles_from_dt":29.54}],"targetCityZipCode":"63037","targetCityState":"Missouri"},"__N_SSG":true}