{"pageProps":{"stateName":"Missouri","cityName":"gibbs","nearbyCities":[{"city":"Hurdland","state_name":"Missouri","lat":40.13492,"lng":-92.30651,"zip":"63547","miles_from_dt":5.95},{"city":"La Plata","state_name":"Missouri","lat":40.0167,"lng":-92.49172,"zip":"63549","miles_from_dt":7.15},{"city":"Brashear","state_name":"Missouri","lat":40.20471,"lng":-92.39608,"zip":"63533","miles_from_dt":7.4},{"city":"Kirksville","state_name":"Missouri","lat":40.16745,"lng":-92.59078,"zip":"63501","miles_from_dt":10.81},{"city":"Novelty","state_name":"Missouri","lat":40.00237,"lng":-92.21002,"zip":"63460","miles_from_dt":12.39},{"city":"Atlanta","state_name":"Missouri","lat":39.90732,"lng":-92.45037,"zip":"63530","miles_from_dt":13.33},{"city":"Edina","state_name":"Missouri","lat":40.14776,"lng":-92.16172,"zip":"63537","miles_from_dt":13.49},{"city":"Baring","state_name":"Missouri","lat":40.30002,"lng":-92.25248,"zip":"63531","miles_from_dt":16.19},{"city":"Greentop","state_name":"Missouri","lat":40.33129,"lng":-92.50882,"zip":"63546","miles_from_dt":16.97},{"city":"Leonard","state_name":"Missouri","lat":39.91135,"lng":-92.19728,"zip":"63451","miles_from_dt":17.04},{"city":"Elmer","state_name":"Missouri","lat":39.9526,"lng":-92.67327,"zip":"63538","miles_from_dt":17.28},{"city":"Novinger","state_name":"Missouri","lat":40.22674,"lng":-92.74528,"zip":"63559","miles_from_dt":19.95},{"city":"Knox City","state_name":"Missouri","lat":40.13972,"lng":-92.0055,"zip":"63446","miles_from_dt":21.51},{"city":"Newark","state_name":"Missouri","lat":39.98751,"lng":-92.01745,"zip":"63458","miles_from_dt":22.06},{"city":"Ethel","state_name":"Missouri","lat":39.9279,"lng":-92.76781,"zip":"63539","miles_from_dt":22.4},{"city":"Rutledge","state_name":"Missouri","lat":40.30387,"lng":-92.07439,"zip":"63563","miles_from_dt":22.66},{"city":"Queen City","state_name":"Missouri","lat":40.41408,"lng":-92.54317,"zip":"63561","miles_from_dt":22.96},{"city":"Macon","state_name":"Missouri","lat":39.75349,"lng":-92.45075,"zip":"63552","miles_from_dt":23.86},{"city":"Bevier","state_name":"Missouri","lat":39.7677,"lng":-92.57434,"zip":"63532","miles_from_dt":24.43},{"city":"Anabel","state_name":"Missouri","lat":39.74887,"lng":-92.32893,"zip":"63431","miles_from_dt":24.44},{"city":"Green Castle","state_name":"Missouri","lat":40.24603,"lng":-92.84943,"zip":"63544","miles_from_dt":25.51},{"city":"New Boston","state_name":"Missouri","lat":39.98297,"lng":-92.88045,"zip":"63557","miles_from_dt":26.28},{"city":"Shelbyville","state_name":"Missouri","lat":39.8323,"lng":-92.04401,"zip":"63469","miles_from_dt":26.62},{"city":"La Belle","state_name":"Missouri","lat":40.09251,"lng":-91.90494,"zip":"63447","miles_from_dt":26.65},{"city":"Downing","state_name":"Missouri","lat":40.48423,"lng":-92.3574,"zip":"63536","miles_from_dt":26.79},{"city":"Worthington","state_name":"Missouri","lat":40.41332,"lng":-92.70461,"zip":"63567","miles_from_dt":26.83},{"city":"Clarence","state_name":"Missouri","lat":39.72576,"lng":-92.23679,"zip":"63437","miles_from_dt":27.23},{"city":"Bethel","state_name":"Missouri","lat":39.90591,"lng":-91.9507,"zip":"63434","miles_from_dt":27.64},{"city":"Gorin","state_name":"Missouri","lat":40.35765,"lng":-92.00976,"zip":"63543","miles_from_dt":27.65},{"city":"Callao","state_name":"Missouri","lat":39.74061,"lng":-92.64838,"zip":"63534","miles_from_dt":27.76},{"city":"Winigan","state_name":"Missouri","lat":40.03139,"lng":-92.94793,"zip":"63566","miles_from_dt":28.99},{"city":"Memphis","state_name":"Missouri","lat":40.48458,"lng":-92.18698,"zip":"63555","miles_from_dt":29.13}],"targetCityZipCode":"63540","targetCityState":"Missouri"},"__N_SSG":true}