{"pageProps":{"stateName":"Missouri","cityName":"glasgow","nearbyCities":[{"city":"Gilliam","state_name":"Missouri","lat":39.22096,"lng":-92.94945,"zip":"65330","miles_from_dt":5.18},{"city":"Armstrong","state_name":"Missouri","lat":39.28715,"lng":-92.69218,"zip":"65230","miles_from_dt":10.08},{"city":"Slater","state_name":"Missouri","lat":39.22863,"lng":-93.05581,"zip":"65349","miles_from_dt":10.91},{"city":"Arrow Rock","state_name":"Missouri","lat":39.06606,"lng":-92.94415,"zip":"65320","miles_from_dt":11.2},{"city":"Fayette","state_name":"Missouri","lat":39.13952,"lng":-92.65894,"zip":"65248","miles_from_dt":11.59},{"city":"Franklin","state_name":"Missouri","lat":39.03524,"lng":-92.83991,"zip":"65250","miles_from_dt":12.23},{"city":"Dalton","state_name":"Missouri","lat":39.37725,"lng":-93.00059,"zip":"65246","miles_from_dt":13.84},{"city":"New Franklin","state_name":"Missouri","lat":39.01342,"lng":-92.68321,"zip":"65274","miles_from_dt":16.49},{"city":"Blackwater","state_name":"Missouri","lat":38.9729,"lng":-92.95535,"zip":"65322","miles_from_dt":17.4},{"city":"Salisbury","state_name":"Missouri","lat":39.46431,"lng":-92.79099,"zip":"65281","miles_from_dt":17.71},{"city":"Higbee","state_name":"Missouri","lat":39.28404,"lng":-92.53112,"zip":"65257","miles_from_dt":17.99},{"city":"Keytesville","state_name":"Missouri","lat":39.47542,"lng":-92.92388,"zip":"65261","miles_from_dt":18.54},{"city":"Nelson","state_name":"Missouri","lat":38.98453,"lng":-93.0495,"zip":"65347","miles_from_dt":18.92},{"city":"Marshall","state_name":"Missouri","lat":39.09149,"lng":-93.18041,"zip":"65340","miles_from_dt":19.44},{"city":"Miami","state_name":"Missouri","lat":39.31174,"lng":-93.1976,"zip":"65344","miles_from_dt":19.69},{"city":"Brunswick","state_name":"Missouri","lat":39.44596,"lng":-93.08305,"zip":"65236","miles_from_dt":20.28},{"city":"Clifton Hill","state_name":"Missouri","lat":39.4807,"lng":-92.65982,"zip":"65244","miles_from_dt":21.23},{"city":"Boonville","state_name":"Missouri","lat":38.91528,"lng":-92.72035,"zip":"65233","miles_from_dt":21.7},{"city":"Harrisburg","state_name":"Missouri","lat":39.12713,"lng":-92.45568,"zip":"65256","miles_from_dt":22.16},{"city":"Rocheport","state_name":"Missouri","lat":39.01284,"lng":-92.52062,"zip":"65279","miles_from_dt":22.57},{"city":"De Witt","state_name":"Missouri","lat":39.3962,"lng":-93.22276,"zip":"64639","miles_from_dt":23.51},{"city":"Huntsville","state_name":"Missouri","lat":39.47122,"lng":-92.56536,"zip":"65259","miles_from_dt":23.61},{"city":"Renick","state_name":"Missouri","lat":39.34217,"lng":-92.41251,"zip":"65278","miles_from_dt":25.29},{"city":"Pilot Grove","state_name":"Missouri","lat":38.84581,"lng":-92.95498,"zip":"65276","miles_from_dt":25.86},{"city":"Clark","state_name":"Missouri","lat":39.27654,"lng":-92.35207,"zip":"65243","miles_from_dt":27.26},{"city":"Mendon","state_name":"Missouri","lat":39.57226,"lng":-93.08923,"zip":"64660","miles_from_dt":27.86},{"city":"Moberly","state_name":"Missouri","lat":39.41552,"lng":-92.39917,"zip":"65270","miles_from_dt":28.1},{"city":"Malta Bend","state_name":"Missouri","lat":39.19407,"lng":-93.37671,"zip":"65339","miles_from_dt":28.11},{"city":"Triplett","state_name":"Missouri","lat":39.50616,"lng":-93.22059,"zip":"65286","miles_from_dt":28.24},{"city":"Wooldridge","state_name":"Missouri","lat":38.88443,"lng":-92.51953,"zip":"65287","miles_from_dt":28.88},{"city":"Sturgeon","state_name":"Missouri","lat":39.19658,"lng":-92.30361,"zip":"65284","miles_from_dt":29.53},{"city":"Prairie Home","state_name":"Missouri","lat":38.82757,"lng":-92.59909,"zip":"65068","miles_from_dt":29.86},{"city":"Bunceton","state_name":"Missouri","lat":38.78078,"lng":-92.78438,"zip":"65237","miles_from_dt":30}],"targetCityZipCode":"65254","targetCityState":"Missouri"},"__N_SSG":true}