{"pageProps":{"stateName":"Missouri","cityName":"higbee","nearbyCities":[{"city":"Renick","state_name":"Missouri","lat":39.34217,"lng":-92.41251,"zip":"65278","miles_from_dt":7.52},{"city":"Armstrong","state_name":"Missouri","lat":39.28715,"lng":-92.69218,"zip":"65230","miles_from_dt":8.64},{"city":"Clark","state_name":"Missouri","lat":39.27654,"lng":-92.35207,"zip":"65243","miles_from_dt":9.61},{"city":"Moberly","state_name":"Missouri","lat":39.41552,"lng":-92.39917,"zip":"65270","miles_from_dt":11.5},{"city":"Harrisburg","state_name":"Missouri","lat":39.12713,"lng":-92.45568,"zip":"65256","miles_from_dt":11.56},{"city":"Fayette","state_name":"Missouri","lat":39.13952,"lng":-92.65894,"zip":"65248","miles_from_dt":12.1},{"city":"Huntsville","state_name":"Missouri","lat":39.47122,"lng":-92.56536,"zip":"65259","miles_from_dt":13.04},{"city":"Sturgeon","state_name":"Missouri","lat":39.19658,"lng":-92.30361,"zip":"65284","miles_from_dt":13.61},{"city":"Clifton Hill","state_name":"Missouri","lat":39.4807,"lng":-92.65982,"zip":"65244","miles_from_dt":15.22},{"city":"Glasgow","state_name":"Missouri","lat":39.21228,"lng":-92.85351,"zip":"65254","miles_from_dt":17.99},{"city":"Cairo","state_name":"Missouri","lat":39.53312,"lng":-92.42334,"zip":"65239","miles_from_dt":18.13},{"city":"Salisbury","state_name":"Missouri","lat":39.46431,"lng":-92.79099,"zip":"65281","miles_from_dt":18.66},{"city":"Rocheport","state_name":"Missouri","lat":39.01284,"lng":-92.52062,"zip":"65279","miles_from_dt":18.72},{"city":"Madison","state_name":"Missouri","lat":39.45244,"lng":-92.22062,"zip":"65263","miles_from_dt":20.28},{"city":"New Franklin","state_name":"Missouri","lat":39.01342,"lng":-92.68321,"zip":"65274","miles_from_dt":20.38},{"city":"Hallsville","state_name":"Missouri","lat":39.09632,"lng":-92.23463,"zip":"65255","miles_from_dt":20.52},{"city":"Centralia","state_name":"Missouri","lat":39.22085,"lng":-92.13026,"zip":"65240","miles_from_dt":21.94},{"city":"Jacksonville","state_name":"Missouri","lat":39.58806,"lng":-92.40227,"zip":"65260","miles_from_dt":22.08},{"city":"Columbia","state_name":"Missouri","lat":39.01721,"lng":-92.29822,"zip":"65202","miles_from_dt":22.26},{"city":"Columbia","state_name":"Missouri","lat":39.04927,"lng":-92.24047,"zip":"65205","miles_from_dt":22.49},{"city":"Gilliam","state_name":"Missouri","lat":39.22096,"lng":-92.94945,"zip":"65330","miles_from_dt":22.86},{"city":"Columbia","state_name":"Missouri","lat":39.02356,"lng":-92.24822,"zip":"65299","miles_from_dt":23.53},{"city":"Franklin","state_name":"Missouri","lat":39.03524,"lng":-92.83991,"zip":"65250","miles_from_dt":23.87},{"city":"Excello","state_name":"Missouri","lat":39.63502,"lng":-92.47296,"zip":"65247","miles_from_dt":24.41},{"city":"Columbia","state_name":"Missouri","lat":38.9526,"lng":-92.3665,"zip":"65218","miles_from_dt":24.52},{"city":"Keytesville","state_name":"Missouri","lat":39.47542,"lng":-92.92388,"zip":"65261","miles_from_dt":24.83},{"city":"Columbia","state_name":"Missouri","lat":38.95818,"lng":-92.32629,"zip":"65216","miles_from_dt":25.03},{"city":"Columbia","state_name":"Missouri","lat":38.95171,"lng":-92.32043,"zip":"65215","miles_from_dt":25.57},{"city":"Columbia","state_name":"Missouri","lat":38.94823,"lng":-92.32734,"zip":"65211","miles_from_dt":25.62},{"city":"Dalton","state_name":"Missouri","lat":39.37725,"lng":-93.00059,"zip":"65246","miles_from_dt":25.96},{"city":"Holliday","state_name":"Missouri","lat":39.52339,"lng":-92.13706,"zip":"65258","miles_from_dt":26.78},{"city":"Arrow Rock","state_name":"Missouri","lat":39.06606,"lng":-92.94415,"zip":"65320","miles_from_dt":26.79},{"city":"Boonville","state_name":"Missouri","lat":38.91528,"lng":-92.72035,"zip":"65233","miles_from_dt":27.4},{"city":"Wooldridge","state_name":"Missouri","lat":38.88443,"lng":-92.51953,"zip":"65287","miles_from_dt":27.57},{"city":"Columbia","state_name":"Missouri","lat":38.89497,"lng":-92.39928,"zip":"65203","miles_from_dt":27.76},{"city":"Thompson","state_name":"Missouri","lat":39.2067,"lng":-92.02056,"zip":"65285","miles_from_dt":27.9},{"city":"Slater","state_name":"Missouri","lat":39.22863,"lng":-93.05581,"zip":"65349","miles_from_dt":28.4},{"city":"Columbia","state_name":"Missouri","lat":38.89798,"lng":-92.33364,"zip":"65217","miles_from_dt":28.67}],"targetCityZipCode":"65257","targetCityState":"Missouri"},"__N_SSG":true}