{"pageProps":{"stateName":"Missouri","cityName":"lake-spring","nearbyCities":[{"city":"Rolla","state_name":"Missouri","lat":37.90691,"lng":-91.76374,"zip":"65401","miles_from_dt":9.78},{"city":"Lenox","state_name":"Missouri","lat":37.64401,"lng":-91.75624,"zip":"65541","miles_from_dt":10.4},{"city":"Cook Sta","state_name":"Missouri","lat":37.84745,"lng":-91.48722,"zip":"65449","miles_from_dt":11.44},{"city":"Edgar Springs","state_name":"Missouri","lat":37.68654,"lng":-91.86417,"zip":"65462","miles_from_dt":12.07},{"city":"Rolla","state_name":"Missouri","lat":37.94176,"lng":-91.77215,"zip":"65402","miles_from_dt":12.13},{"city":"Rolla","state_name":"Missouri","lat":37.95103,"lng":-91.77948,"zip":"65409","miles_from_dt":12.88},{"city":"Wesco","state_name":"Missouri","lat":37.86483,"lng":-91.43294,"zip":"65586","miles_from_dt":14.64},{"city":"Newburg","state_name":"Missouri","lat":37.84425,"lng":-91.9433,"zip":"65550","miles_from_dt":15.07},{"city":"Salem","state_name":"Missouri","lat":37.59609,"lng":-91.49943,"zip":"65560","miles_from_dt":16.17},{"city":"Saint James","state_name":"Missouri","lat":38.0181,"lng":-91.60664,"zip":"65559","miles_from_dt":16.77},{"city":"Beulah","state_name":"Missouri","lat":37.62239,"lng":-91.9726,"zip":"65436","miles_from_dt":19.47},{"city":"Jerome","state_name":"Missouri","lat":37.92912,"lng":-91.98926,"zip":"65529","miles_from_dt":19.75},{"city":"Duke","state_name":"Missouri","lat":37.68406,"lng":-92.02379,"zip":"65461","miles_from_dt":20.04},{"city":"Devils Elbow","state_name":"Missouri","lat":37.82647,"lng":-92.05047,"zip":"65457","miles_from_dt":20.54},{"city":"Licking","state_name":"Missouri","lat":37.50497,"lng":-91.88432,"zip":"65542","miles_from_dt":22.16},{"city":"Jadwin","state_name":"Missouri","lat":37.47319,"lng":-91.5549,"zip":"65501","miles_from_dt":22.36},{"city":"Cherryville","state_name":"Missouri","lat":37.80902,"lng":-91.26999,"zip":"65446","miles_from_dt":22.48},{"city":"Vichy","state_name":"Missouri","lat":38.11656,"lng":-91.78617,"zip":"65580","miles_from_dt":23.8},{"city":"Saint Robert","state_name":"Missouri","lat":37.82901,"lng":-92.13086,"zip":"65584","miles_from_dt":24.92},{"city":"Steelville","state_name":"Missouri","lat":37.90573,"lng":-91.23841,"zip":"65565","miles_from_dt":25.58},{"city":"Davisville","state_name":"Missouri","lat":37.78048,"lng":-91.20267,"zip":"65456","miles_from_dt":26.09},{"city":"Fort Leonard Wood","state_name":"Missouri","lat":37.71215,"lng":-92.14811,"zip":"65473","miles_from_dt":26.12},{"city":"Cuba","state_name":"Missouri","lat":38.10706,"lng":-91.42509,"zip":"65453","miles_from_dt":26.38},{"city":"Dixon","state_name":"Missouri","lat":38.02919,"lng":-92.08337,"zip":"65459","miles_from_dt":27.9},{"city":"Viburnum","state_name":"Missouri","lat":37.76618,"lng":-91.14689,"zip":"65566","miles_from_dt":29.17},{"city":"Raymondville","state_name":"Missouri","lat":37.35906,"lng":-91.77723,"zip":"65555","miles_from_dt":29.66},{"city":"Boss","state_name":"Missouri","lat":37.60388,"lng":-91.18539,"zip":"65440","miles_from_dt":29.73},{"city":"Leasburg","state_name":"Missouri","lat":38.07194,"lng":-91.2752,"zip":"65535","miles_from_dt":29.79}],"targetCityZipCode":"65532","targetCityState":"Missouri"},"__N_SSG":true}