{"pageProps":{"stateName":"Missouri","cityName":"lanagan","nearbyCities":[{"city":"Noel","state_name":"Missouri","lat":36.54369,"lng":-94.44144,"zip":"64854","miles_from_dt":3.35},{"city":"Anderson","state_name":"Missouri","lat":36.65598,"lng":-94.4541,"zip":"64831","miles_from_dt":4.48},{"city":"Sulphur Springs","state_name":"Arkansas","lat":36.47884,"lng":-94.4938,"zip":"72768","miles_from_dt":8.4},{"city":"South West City","state_name":"Missouri","lat":36.55511,"lng":-94.58444,"zip":"64863","miles_from_dt":8.5},{"city":"Goodman","state_name":"Missouri","lat":36.73345,"lng":-94.45319,"zip":"64843","miles_from_dt":9.78},{"city":"Pineville","state_name":"Missouri","lat":36.5652,"lng":-94.26346,"zip":"64856","miles_from_dt":9.92},{"city":"Bella Vista","state_name":"Arkansas","lat":36.46505,"lng":-94.30545,"zip":"72715","miles_from_dt":11.48},{"city":"Tiff City","state_name":"Missouri","lat":36.68742,"lng":-94.61285,"zip":"64868","miles_from_dt":11.7},{"city":"Gravette","state_name":"Arkansas","lat":36.41402,"lng":-94.46548,"zip":"72736","miles_from_dt":12.37},{"city":"Hiwasse","state_name":"Arkansas","lat":36.42715,"lng":-94.32801,"zip":"72739","miles_from_dt":12.94},{"city":"Stella","state_name":"Missouri","lat":36.73023,"lng":-94.23316,"zip":"64867","miles_from_dt":14.86},{"city":"Powell","state_name":"Missouri","lat":36.61549,"lng":-94.17001,"zip":"65730","miles_from_dt":15.02},{"city":"Bella Vista","state_name":"Arkansas","lat":36.46841,"lng":-94.21649,"zip":"72714","miles_from_dt":15.02},{"city":"Grove","state_name":"Oklahoma","lat":36.59604,"lng":-94.73845,"zip":"74344","miles_from_dt":16.67},{"city":"Maysville","state_name":"Arkansas","lat":36.37023,"lng":-94.5807,"zip":"72747","miles_from_dt":17.23},{"city":"Centerton","state_name":"Arkansas","lat":36.36837,"lng":-94.29551,"zip":"72719","miles_from_dt":17.37},{"city":"Decatur","state_name":"Arkansas","lat":36.34042,"lng":-94.46397,"zip":"72722","miles_from_dt":17.42},{"city":"Rocky Comfort","state_name":"Missouri","lat":36.6953,"lng":-94.14864,"zip":"64861","miles_from_dt":17.61},{"city":"Wyandotte","state_name":"Oklahoma","lat":36.76429,"lng":-94.68017,"zip":"74370","miles_from_dt":17.91},{"city":"Bentonville","state_name":"Arkansas","lat":36.39837,"lng":-94.22196,"zip":"72712","miles_from_dt":18},{"city":"Neosho","state_name":"Missouri","lat":36.86008,"lng":-94.3975,"zip":"64850","miles_from_dt":18.61},{"city":"Seneca","state_name":"Missouri","lat":36.84253,"lng":-94.57797,"zip":"64865","miles_from_dt":18.92},{"city":"Grove","state_name":"Oklahoma","lat":36.59523,"lng":-94.78745,"zip":"74345","miles_from_dt":19.4},{"city":"Pea Ridge","state_name":"Arkansas","lat":36.46255,"lng":-94.11825,"zip":"72751","miles_from_dt":19.94},{"city":"Jay","state_name":"Oklahoma","lat":36.43427,"lng":-94.75066,"zip":"74346","miles_from_dt":20.5},{"city":"Racine","state_name":"Missouri","lat":36.89981,"lng":-94.52888,"zip":"64858","miles_from_dt":21.8},{"city":"Bentonville","state_name":"Arkansas","lat":36.30036,"lng":-94.28372,"zip":"72713","miles_from_dt":21.89},{"city":"Gentry","state_name":"Arkansas","lat":36.27217,"lng":-94.45355,"zip":"72734","miles_from_dt":22.08},{"city":"Washburn","state_name":"Missouri","lat":36.59624,"lng":-94.03479,"zip":"65772","miles_from_dt":22.46},{"city":"Fairview","state_name":"Missouri","lat":36.7914,"lng":-94.10427,"zip":"64842","miles_from_dt":23.1},{"city":"Bentonville","state_name":"Arkansas","lat":36.32258,"lng":-94.18085,"zip":"72716","miles_from_dt":23.49},{"city":"Fairland","state_name":"Oklahoma","lat":36.74287,"lng":-94.825,"zip":"74343","miles_from_dt":23.85},{"city":"Newtonia","state_name":"Missouri","lat":36.87716,"lng":-94.18727,"zip":"64853","miles_from_dt":24.1},{"city":"Wheaton","state_name":"Missouri","lat":36.75617,"lng":-94.05444,"zip":"64874","miles_from_dt":24.15},{"city":"Granby","state_name":"Missouri","lat":36.91388,"lng":-94.24038,"zip":"64844","miles_from_dt":24.76},{"city":"Rogers","state_name":"Arkansas","lat":36.33365,"lng":-94.12731,"zip":"72757","miles_from_dt":24.87},{"city":"Exeter","state_name":"Missouri","lat":36.68968,"lng":-94.00624,"zip":"65647","miles_from_dt":24.95},{"city":"Stark City","state_name":"Missouri","lat":36.8677,"lng":-94.14317,"zip":"64866","miles_from_dt":25.1},{"city":"Cave Springs","state_name":"Arkansas","lat":36.26347,"lng":-94.22147,"zip":"72718","miles_from_dt":25.69},{"city":"Seligman","state_name":"Missouri","lat":36.52928,"lng":-93.97917,"zip":"65745","miles_from_dt":25.92},{"city":"Rogers","state_name":"Arkansas","lat":36.29898,"lng":-94.14099,"zip":"72758","miles_from_dt":26.15},{"city":"Avoca","state_name":"Arkansas","lat":36.3554,"lng":-94.04495,"zip":"72711","miles_from_dt":27.33},{"city":"Colcord","state_name":"Oklahoma","lat":36.26234,"lng":-94.71572,"zip":"74338","miles_from_dt":27.49},{"city":"Afton","state_name":"Oklahoma","lat":36.64683,"lng":-94.9459,"zip":"74331","miles_from_dt":28.45},{"city":"Garfield","state_name":"Arkansas","lat":36.43187,"lng":-93.95968,"zip":"72732","miles_from_dt":28.86},{"city":"Elm Springs","state_name":"Arkansas","lat":36.20539,"lng":-94.23169,"zip":"72728","miles_from_dt":29.06},{"city":"Siloam Springs","state_name":"Arkansas","lat":36.17074,"lng":-94.45778,"zip":"72761","miles_from_dt":29.08},{"city":"Quapaw","state_name":"Oklahoma","lat":36.95341,"lng":-94.70965,"zip":"74363","miles_from_dt":29.09},{"city":"Joplin","state_name":"Missouri","lat":37.01955,"lng":-94.51137,"zip":"64804","miles_from_dt":29.75},{"city":"Gateway","state_name":"Arkansas","lat":36.47989,"lng":-93.91902,"zip":"72733","miles_from_dt":29.93},{"city":"Diamond","state_name":"Missouri","lat":37.01826,"lng":-94.33536,"zip":"64840","miles_from_dt":29.93},{"city":"Saginaw","state_name":"Missouri","lat":37.02574,"lng":-94.47003,"zip":"64864","miles_from_dt":29.95}],"targetCityZipCode":"64847","targetCityState":"Missouri"},"__N_SSG":true}