{"pageProps":{"stateName":"Missouri","cityName":"laredo","nearbyCities":[{"city":"Chula","state_name":"Missouri","lat":39.93943,"lng":-93.43632,"zip":"64635","miles_from_dt":5.6},{"city":"Humphreys","state_name":"Missouri","lat":40.10456,"lng":-93.30819,"zip":"64646","miles_from_dt":8.37},{"city":"Galt","state_name":"Missouri","lat":40.16221,"lng":-93.3992,"zip":"64641","miles_from_dt":9.89},{"city":"Trenton","state_name":"Missouri","lat":40.07395,"lng":-93.60346,"zip":"64683","miles_from_dt":10.37},{"city":"Browning","state_name":"Missouri","lat":40.03726,"lng":-93.15435,"zip":"64630","miles_from_dt":14.2},{"city":"Wheeling","state_name":"Missouri","lat":39.8139,"lng":-93.37664,"zip":"64688","miles_from_dt":14.4},{"city":"Linneus","state_name":"Missouri","lat":39.89403,"lng":-93.20403,"zip":"64653","miles_from_dt":14.42},{"city":"Purdin","state_name":"Missouri","lat":39.96491,"lng":-93.15884,"zip":"64674","miles_from_dt":14.42},{"city":"Chillicothe","state_name":"Missouri","lat":39.8044,"lng":-93.57334,"zip":"64601","miles_from_dt":16.92},{"city":"Spickard","state_name":"Missouri","lat":40.23246,"lng":-93.58181,"zip":"64679","miles_from_dt":16.97},{"city":"Meadville","state_name":"Missouri","lat":39.78138,"lng":-93.29224,"zip":"64659","miles_from_dt":17.82},{"city":"Milan","state_name":"Missouri","lat":40.18251,"lng":-93.11723,"zip":"63556","miles_from_dt":19.62},{"city":"Harris","state_name":"Missouri","lat":40.29834,"lng":-93.32575,"zip":"64645","miles_from_dt":19.87},{"city":"Jamesport","state_name":"Missouri","lat":39.98517,"lng":-93.79922,"zip":"64648","miles_from_dt":20.21},{"city":"Laclede","state_name":"Missouri","lat":39.7759,"lng":-93.1797,"zip":"64651","miles_from_dt":21.16},{"city":"Utica","state_name":"Missouri","lat":39.75005,"lng":-93.62449,"zip":"64686","miles_from_dt":21.52},{"city":"Lock Springs","state_name":"Missouri","lat":39.84864,"lng":-93.77552,"zip":"64654","miles_from_dt":22.22},{"city":"Mooresville","state_name":"Missouri","lat":39.74601,"lng":-93.66027,"zip":"64664","miles_from_dt":22.77},{"city":"Gilman City","state_name":"Missouri","lat":40.16979,"lng":-93.83574,"zip":"64642","miles_from_dt":24.29},{"city":"Brookfield","state_name":"Missouri","lat":39.79711,"lng":-93.05002,"zip":"64628","miles_from_dt":24.99},{"city":"Winigan","state_name":"Missouri","lat":40.03139,"lng":-92.94793,"zip":"63566","miles_from_dt":25.11},{"city":"Newtown","state_name":"Missouri","lat":40.39434,"lng":-93.33618,"zip":"64667","miles_from_dt":26.23},{"city":"Princeton","state_name":"Missouri","lat":40.38001,"lng":-93.59094,"zip":"64673","miles_from_dt":26.43},{"city":"Ludlow","state_name":"Missouri","lat":39.67803,"lng":-93.69375,"zip":"64656","miles_from_dt":27.68},{"city":"Breckenridge","state_name":"Missouri","lat":39.74378,"lng":-93.80527,"zip":"64625","miles_from_dt":27.92},{"city":"Sumner","state_name":"Missouri","lat":39.64706,"lng":-93.21375,"zip":"64681","miles_from_dt":27.98},{"city":"Pollock","state_name":"Missouri","lat":40.3574,"lng":-93.12291,"zip":"63560","miles_from_dt":28.13},{"city":"Hale","state_name":"Missouri","lat":39.61366,"lng":-93.36883,"zip":"64643","miles_from_dt":28.16},{"city":"New Boston","state_name":"Missouri","lat":39.98297,"lng":-92.88045,"zip":"63557","miles_from_dt":28.8},{"city":"Gallatin","state_name":"Missouri","lat":39.90172,"lng":-93.94542,"zip":"64640","miles_from_dt":29.01},{"city":"Jameson","state_name":"Missouri","lat":40.03016,"lng":-93.96862,"zip":"64647","miles_from_dt":29.05},{"city":"Green City","state_name":"Missouri","lat":40.26721,"lng":-92.9677,"zip":"63545","miles_from_dt":29.45},{"city":"Dawn","state_name":"Missouri","lat":39.61894,"lng":-93.61498,"zip":"64638","miles_from_dt":29.52}],"targetCityZipCode":"64652","targetCityState":"Missouri"},"__N_SSG":true}