{"pageProps":{"stateName":"Missouri","cityName":"lincoln","nearbyCities":[{"city":"Cole Camp","state_name":"Missouri","lat":38.43239,"lng":-93.18535,"zip":"65325","miles_from_dt":7.68},{"city":"Ionia","state_name":"Missouri","lat":38.51338,"lng":-93.32667,"zip":"65335","miles_from_dt":10.56},{"city":"Warsaw","state_name":"Missouri","lat":38.22137,"lng":-93.37144,"zip":"65355","miles_from_dt":10.56},{"city":"Mora","state_name":"Missouri","lat":38.54111,"lng":-93.1254,"zip":"65345","miles_from_dt":15.4},{"city":"Stover","state_name":"Missouri","lat":38.38473,"lng":-93.01085,"zip":"65078","miles_from_dt":15.52},{"city":"Edwards","state_name":"Missouri","lat":38.16271,"lng":-93.1458,"zip":"65326","miles_from_dt":15.98},{"city":"Windsor","state_name":"Missouri","lat":38.51989,"lng":-93.51334,"zip":"65360","miles_from_dt":16.07},{"city":"Calhoun","state_name":"Missouri","lat":38.45289,"lng":-93.6212,"zip":"65323","miles_from_dt":18.76},{"city":"Green Ridge","state_name":"Missouri","lat":38.61973,"lng":-93.41324,"zip":"65332","miles_from_dt":18.88},{"city":"Smithton","state_name":"Missouri","lat":38.65557,"lng":-93.10038,"zip":"65350","miles_from_dt":22.82},{"city":"Sedalia","state_name":"Missouri","lat":38.69922,"lng":-93.22104,"zip":"65301","miles_from_dt":23.59},{"city":"Climax Springs","state_name":"Missouri","lat":38.11104,"lng":-92.99997,"zip":"65324","miles_from_dt":23.63},{"city":"Clinton","state_name":"Missouri","lat":38.36612,"lng":-93.73644,"zip":"64735","miles_from_dt":23.96},{"city":"Cross Timbers","state_name":"Missouri","lat":38.02355,"lng":-93.18827,"zip":"65634","miles_from_dt":24.08},{"city":"Sedalia","state_name":"Missouri","lat":38.70819,"lng":-93.22234,"zip":"65302","miles_from_dt":24.18},{"city":"Deepwater","state_name":"Missouri","lat":38.22349,"lng":-93.71204,"zip":"64740","miles_from_dt":24.6},{"city":"Versailles","state_name":"Missouri","lat":38.43574,"lng":-92.85119,"zip":"65084","miles_from_dt":24.63},{"city":"Quincy","state_name":"Missouri","lat":38.03728,"lng":-93.48391,"zip":"65735","miles_from_dt":24.66},{"city":"Florence","state_name":"Missouri","lat":38.60937,"lng":-92.96132,"zip":"65329","miles_from_dt":24.86},{"city":"Gravois Mills","state_name":"Missouri","lat":38.23845,"lng":-92.85749,"zip":"65037","miles_from_dt":25.28},{"city":"Leeton","state_name":"Missouri","lat":38.59463,"lng":-93.68657,"zip":"64761","miles_from_dt":26.59},{"city":"Wheatland","state_name":"Missouri","lat":37.9789,"lng":-93.38561,"zip":"65779","miles_from_dt":26.9},{"city":"Lowry City","state_name":"Missouri","lat":38.14354,"lng":-93.71573,"zip":"64763","miles_from_dt":27.4},{"city":"Laurie","state_name":"Missouri","lat":38.19973,"lng":-92.83335,"zip":"65038","miles_from_dt":27.5},{"city":"Whiteman Air Force Base","state_name":"Missouri","lat":38.72944,"lng":-93.55446,"zip":"65305","miles_from_dt":28.96},{"city":"Fortuna","state_name":"Missouri","lat":38.55637,"lng":-92.82183,"zip":"65034","miles_from_dt":28.96},{"city":"Otterville","state_name":"Missouri","lat":38.70963,"lng":-92.98344,"zip":"65348","miles_from_dt":29.32},{"city":"Hermitage","state_name":"Missouri","lat":37.9364,"lng":-93.29177,"zip":"65668","miles_from_dt":29.37},{"city":"Syracuse","state_name":"Missouri","lat":38.64841,"lng":-92.88786,"zip":"65354","miles_from_dt":29.61},{"city":"Roach","state_name":"Missouri","lat":38.07306,"lng":-92.89213,"zip":"65787","miles_from_dt":29.65},{"city":"Preston","state_name":"Missouri","lat":37.93938,"lng":-93.16763,"zip":"65732","miles_from_dt":29.98}],"targetCityZipCode":"65338","targetCityState":"Missouri"},"__N_SSG":true}