{"pageProps":{"stateName":"Missouri","cityName":"linneus","nearbyCities":[{"city":"Purdin","state_name":"Missouri","lat":39.96491,"lng":-93.15884,"zip":"64674","miles_from_dt":5.45},{"city":"Laclede","state_name":"Missouri","lat":39.7759,"lng":-93.1797,"zip":"64651","miles_from_dt":8.25},{"city":"Meadville","state_name":"Missouri","lat":39.78138,"lng":-93.29224,"zip":"64659","miles_from_dt":9.08},{"city":"Browning","state_name":"Missouri","lat":40.03726,"lng":-93.15435,"zip":"64630","miles_from_dt":10.23},{"city":"Brookfield","state_name":"Missouri","lat":39.79711,"lng":-93.05002,"zip":"64628","miles_from_dt":10.57},{"city":"Wheeling","state_name":"Missouri","lat":39.8139,"lng":-93.37664,"zip":"64688","miles_from_dt":10.71},{"city":"Chula","state_name":"Missouri","lat":39.93943,"lng":-93.43632,"zip":"64635","miles_from_dt":12.73},{"city":"Laredo","state_name":"Missouri","lat":40.01979,"lng":-93.42103,"zip":"64652","miles_from_dt":14.42},{"city":"Humphreys","state_name":"Missouri","lat":40.10456,"lng":-93.30819,"zip":"64646","miles_from_dt":15.54},{"city":"Winigan","state_name":"Missouri","lat":40.03139,"lng":-92.94793,"zip":"63566","miles_from_dt":16.57},{"city":"Sumner","state_name":"Missouri","lat":39.64706,"lng":-93.21375,"zip":"64681","miles_from_dt":17.05},{"city":"Bucklin","state_name":"Missouri","lat":39.82018,"lng":-92.88213,"zip":"64631","miles_from_dt":17.86},{"city":"New Boston","state_name":"Missouri","lat":39.98297,"lng":-92.88045,"zip":"63557","miles_from_dt":18.25},{"city":"Rothville","state_name":"Missouri","lat":39.6471,"lng":-93.03729,"zip":"64676","miles_from_dt":19.21},{"city":"Milan","state_name":"Missouri","lat":40.18251,"lng":-93.11723,"zip":"63556","miles_from_dt":20.43},{"city":"Chillicothe","state_name":"Missouri","lat":39.8044,"lng":-93.57334,"zip":"64601","miles_from_dt":20.59},{"city":"Galt","state_name":"Missouri","lat":40.16221,"lng":-93.3992,"zip":"64641","miles_from_dt":21.2},{"city":"Hale","state_name":"Missouri","lat":39.61366,"lng":-93.36883,"zip":"64643","miles_from_dt":21.24},{"city":"Marceline","state_name":"Missouri","lat":39.66124,"lng":-92.92181,"zip":"64658","miles_from_dt":21.99},{"city":"Mendon","state_name":"Missouri","lat":39.57226,"lng":-93.08923,"zip":"64660","miles_from_dt":23.03},{"city":"Ethel","state_name":"Missouri","lat":39.9279,"lng":-92.76781,"zip":"63539","miles_from_dt":23.29},{"city":"Utica","state_name":"Missouri","lat":39.75005,"lng":-93.62449,"zip":"64686","miles_from_dt":24.47},{"city":"Trenton","state_name":"Missouri","lat":40.07395,"lng":-93.60346,"zip":"64683","miles_from_dt":24.57},{"city":"New Cambria","state_name":"Missouri","lat":39.74168,"lng":-92.75244,"zip":"63558","miles_from_dt":26.22},{"city":"Mooresville","state_name":"Missouri","lat":39.74601,"lng":-93.66027,"zip":"64664","miles_from_dt":26.33},{"city":"Triplett","state_name":"Missouri","lat":39.50616,"lng":-93.22059,"zip":"65286","miles_from_dt":26.77},{"city":"Tina","state_name":"Missouri","lat":39.55251,"lng":-93.49132,"zip":"64682","miles_from_dt":28.1},{"city":"Elmer","state_name":"Missouri","lat":39.9526,"lng":-92.67327,"zip":"63538","miles_from_dt":28.48},{"city":"Harris","state_name":"Missouri","lat":40.29834,"lng":-93.32575,"zip":"64645","miles_from_dt":28.63},{"city":"Green City","state_name":"Missouri","lat":40.26721,"lng":-92.9677,"zip":"63545","miles_from_dt":28.63},{"city":"Dawn","state_name":"Missouri","lat":39.61894,"lng":-93.61498,"zip":"64638","miles_from_dt":28.97}],"targetCityZipCode":"64653","targetCityState":"Missouri"},"__N_SSG":true}