{"pageProps":{"stateName":"Missouri","cityName":"middletown","nearbyCities":[{"city":"Olney","state_name":"Missouri","lat":39.09786,"lng":-91.21228,"zip":"63370","miles_from_dt":8.27},{"city":"Bellflower","state_name":"Missouri","lat":39.0351,"lng":-91.32014,"zip":"63333","miles_from_dt":8.49},{"city":"Curryville","state_name":"Missouri","lat":39.33673,"lng":-91.36384,"zip":"63339","miles_from_dt":12.47},{"city":"Wellsville","state_name":"Missouri","lat":39.08678,"lng":-91.56349,"zip":"63384","miles_from_dt":12.61},{"city":"Truxton","state_name":"Missouri","lat":38.98237,"lng":-91.25429,"zip":"63381","miles_from_dt":12.99},{"city":"Vandalia","state_name":"Missouri","lat":39.31104,"lng":-91.49042,"zip":"63382","miles_from_dt":13.17},{"city":"Bowling Green","state_name":"Missouri","lat":39.30747,"lng":-91.18838,"zip":"63334","miles_from_dt":13.44},{"city":"Silex","state_name":"Missouri","lat":39.11016,"lng":-91.10053,"zip":"63377","miles_from_dt":13.6},{"city":"Farber","state_name":"Missouri","lat":39.27599,"lng":-91.57311,"zip":"63345","miles_from_dt":14.69},{"city":"Hawk Point","state_name":"Missouri","lat":38.97979,"lng":-91.15083,"zip":"63349","miles_from_dt":16.1},{"city":"High Hill","state_name":"Missouri","lat":38.90243,"lng":-91.35686,"zip":"63350","miles_from_dt":17.53},{"city":"Laddonia","state_name":"Missouri","lat":39.25097,"lng":-91.65526,"zip":"63352","miles_from_dt":17.81},{"city":"Whiteside","state_name":"Missouri","lat":39.18415,"lng":-91.01677,"zip":"63387","miles_from_dt":17.81},{"city":"Montgomery City","state_name":"Missouri","lat":38.95802,"lng":-91.56056,"zip":"63361","miles_from_dt":17.88},{"city":"Eolia","state_name":"Missouri","lat":39.23078,"lng":-91.01115,"zip":"63344","miles_from_dt":18.72},{"city":"Martinsburg","state_name":"Missouri","lat":39.08852,"lng":-91.69544,"zip":"65264","miles_from_dt":19.32},{"city":"New Florence","state_name":"Missouri","lat":38.88187,"lng":-91.45755,"zip":"63363","miles_from_dt":19.86},{"city":"Jonesburg","state_name":"Missouri","lat":38.86041,"lng":-91.31186,"zip":"63351","miles_from_dt":20.5},{"city":"Benton City","state_name":"Missouri","lat":39.15901,"lng":-91.75516,"zip":"65232","miles_from_dt":21.95},{"city":"Troy","state_name":"Missouri","lat":38.99817,"lng":-90.99037,"zip":"63379","miles_from_dt":22.04},{"city":"Frankford","state_name":"Missouri","lat":39.4766,"lng":-91.31575,"zip":"63441","miles_from_dt":22.15},{"city":"Rush Hill","state_name":"Missouri","lat":39.23487,"lng":-91.75048,"zip":"65280","miles_from_dt":22.35},{"city":"Louisiana","state_name":"Missouri","lat":39.44375,"lng":-91.12,"zip":"63353","miles_from_dt":23.25},{"city":"Clarksville","state_name":"Missouri","lat":39.33335,"lng":-90.9388,"zip":"63336","miles_from_dt":25.05},{"city":"Warrenton","state_name":"Missouri","lat":38.80726,"lng":-91.19319,"zip":"63383","miles_from_dt":25.46},{"city":"Center","state_name":"Missouri","lat":39.50093,"lng":-91.54524,"zip":"63436","miles_from_dt":26.04},{"city":"Perry","state_name":"Missouri","lat":39.42279,"lng":-91.69977,"zip":"63462","miles_from_dt":26.39},{"city":"Truesdale","state_name":"Missouri","lat":38.81262,"lng":-91.12205,"zip":"63380","miles_from_dt":26.62},{"city":"Ashburn","state_name":"Missouri","lat":39.51838,"lng":-91.11816,"zip":"63433","miles_from_dt":27.81},{"city":"Elsberry","state_name":"Missouri","lat":39.15775,"lng":-90.82815,"zip":"63343","miles_from_dt":27.84},{"city":"Williamsburg","state_name":"Missouri","lat":38.88816,"lng":-91.74995,"zip":"63388","miles_from_dt":28.52},{"city":"Mexico","state_name":"Missouri","lat":39.20531,"lng":-91.88728,"zip":"65265","miles_from_dt":29.23},{"city":"Wright City","state_name":"Missouri","lat":38.80499,"lng":-91.0413,"zip":"63390","miles_from_dt":29.29},{"city":"Moscow Mills","state_name":"Missouri","lat":38.93276,"lng":-90.88227,"zip":"63362","miles_from_dt":29.35},{"city":"New London","state_name":"Missouri","lat":39.58392,"lng":-91.3795,"zip":"63459","miles_from_dt":29.55}],"targetCityZipCode":"63359","targetCityState":"Missouri"},"__N_SSG":true}