{"pageProps":{"stateName":"Missouri","cityName":"newtown","nearbyCities":[{"city":"Lucerne","state_name":"Missouri","lat":40.44017,"lng":-93.23684,"zip":"64655","miles_from_dt":6.12},{"city":"Harris","state_name":"Missouri","lat":40.29834,"lng":-93.32575,"zip":"64645","miles_from_dt":6.65},{"city":"Powersville","state_name":"Missouri","lat":40.53869,"lng":-93.26015,"zip":"64672","miles_from_dt":10.74},{"city":"Pollock","state_name":"Missouri","lat":40.3574,"lng":-93.12291,"zip":"63560","miles_from_dt":11.54},{"city":"Mercer","state_name":"Missouri","lat":40.53031,"lng":-93.51901,"zip":"64661","miles_from_dt":13.45},{"city":"Princeton","state_name":"Missouri","lat":40.38001,"lng":-93.59094,"zip":"64673","miles_from_dt":13.48},{"city":"Galt","state_name":"Missouri","lat":40.16221,"lng":-93.3992,"zip":"64641","miles_from_dt":16.36},{"city":"Spickard","state_name":"Missouri","lat":40.23246,"lng":-93.58181,"zip":"64679","miles_from_dt":17.12},{"city":"Clio","state_name":"Iowa","lat":40.64417,"lng":-93.44538,"zip":"50052","miles_from_dt":18.17},{"city":"Milan","state_name":"Missouri","lat":40.18251,"lng":-93.11723,"zip":"63556","miles_from_dt":18.64},{"city":"Lineville","state_name":"Iowa","lat":40.62381,"lng":-93.54597,"zip":"50147","miles_from_dt":19.31},{"city":"Allerton","state_name":"Iowa","lat":40.67847,"lng":-93.38549,"zip":"50008","miles_from_dt":19.78},{"city":"Humphreys","state_name":"Missouri","lat":40.10456,"lng":-93.30819,"zip":"64646","miles_from_dt":20.05},{"city":"Unionville","state_name":"Missouri","lat":40.48263,"lng":-92.95447,"zip":"63565","miles_from_dt":21.03},{"city":"Green City","state_name":"Missouri","lat":40.26721,"lng":-92.9677,"zip":"63545","miles_from_dt":21.34},{"city":"Seymour","state_name":"Iowa","lat":40.6654,"lng":-93.13594,"zip":"52590","miles_from_dt":21.47},{"city":"Cainsville","state_name":"Missouri","lat":40.46915,"lng":-93.76862,"zip":"64632","miles_from_dt":23.38},{"city":"Corydon","state_name":"Iowa","lat":40.75508,"lng":-93.31922,"zip":"50060","miles_from_dt":24.91},{"city":"Cincinnati","state_name":"Iowa","lat":40.61392,"lng":-92.94602,"zip":"52549","miles_from_dt":25.53},{"city":"Laredo","state_name":"Missouri","lat":40.01979,"lng":-93.42103,"zip":"64652","miles_from_dt":26.23},{"city":"Trenton","state_name":"Missouri","lat":40.07395,"lng":-93.60346,"zip":"64683","miles_from_dt":26.24},{"city":"Browning","state_name":"Missouri","lat":40.03726,"lng":-93.15435,"zip":"64630","miles_from_dt":26.45},{"city":"Green Castle","state_name":"Missouri","lat":40.24603,"lng":-92.84943,"zip":"63544","miles_from_dt":27.67},{"city":"Davis City","state_name":"Iowa","lat":40.60859,"lng":-93.78089,"zip":"50065","miles_from_dt":27.7},{"city":"Blythedale","state_name":"Missouri","lat":40.51747,"lng":-93.86158,"zip":"64426","miles_from_dt":28.97},{"city":"Ridgeway","state_name":"Missouri","lat":40.35622,"lng":-93.8957,"zip":"64481","miles_from_dt":29.64},{"city":"Promise City","state_name":"Iowa","lat":40.80284,"lng":-93.1555,"zip":"52583","miles_from_dt":29.75}],"targetCityZipCode":"64667","targetCityState":"Missouri"},"__N_SSG":true}