{"pageProps":{"stateName":"Missouri","cityName":"oak-ridge","nearbyCities":[{"city":"Friedheim","state_name":"Missouri","lat":37.55993,"lng":-89.81121,"zip":"63747","miles_from_dt":4.57},{"city":"Daisy","state_name":"Missouri","lat":37.51886,"lng":-89.83261,"zip":"63743","miles_from_dt":4.98},{"city":"Old Appleton","state_name":"Missouri","lat":37.59456,"lng":-89.70049,"zip":"63770","miles_from_dt":5.43},{"city":"Pocahontas","state_name":"Missouri","lat":37.49944,"lng":-89.64216,"zip":"63779","miles_from_dt":5.72},{"city":"Uniontown","state_name":"Missouri","lat":37.60958,"lng":-89.6823,"zip":"63783","miles_from_dt":6.8},{"city":"Jackson","state_name":"Missouri","lat":37.44351,"lng":-89.64193,"zip":"63755","miles_from_dt":7.77},{"city":"Millersville","state_name":"Missouri","lat":37.43558,"lng":-89.84424,"zip":"63766","miles_from_dt":8.25},{"city":"Altenburg","state_name":"Missouri","lat":37.59428,"lng":-89.59123,"zip":"63732","miles_from_dt":9.62},{"city":"Sedgewickville","state_name":"Missouri","lat":37.5329,"lng":-89.93078,"zip":"63781","miles_from_dt":10.39},{"city":"Brazeau","state_name":"Missouri","lat":37.6593,"lng":-89.65455,"zip":"63737","miles_from_dt":10.55},{"city":"Burfordville","state_name":"Missouri","lat":37.35686,"lng":-89.80216,"zip":"63739","miles_from_dt":11.93},{"city":"Frohna","state_name":"Missouri","lat":37.66912,"lng":-89.61282,"zip":"63748","miles_from_dt":12.31},{"city":"Farrar","state_name":"Missouri","lat":37.70783,"lng":-89.69484,"zip":"63746","miles_from_dt":13},{"city":"Gordonville","state_name":"Missouri","lat":37.31394,"lng":-89.67871,"zip":"63752","miles_from_dt":14.84},{"city":"Perryville","state_name":"Missouri","lat":37.71051,"lng":-89.87919,"zip":"63775","miles_from_dt":14.95},{"city":"McBride","state_name":"Missouri","lat":37.71445,"lng":-89.89065,"zip":"63776","miles_from_dt":15.51},{"city":"Cape Girardeau","state_name":"Missouri","lat":37.33522,"lng":-89.58043,"zip":"63701","miles_from_dt":15.71},{"city":"Cape Girardeau","state_name":"Missouri","lat":37.31095,"lng":-89.62594,"zip":"63702","miles_from_dt":15.96},{"city":"Wolf Lake","state_name":"Illinois","lat":37.51649,"lng":-89.44698,"zip":"62998","miles_from_dt":16.21},{"city":"Grand Tower","state_name":"Illinois","lat":37.6348,"lng":-89.47681,"zip":"62942","miles_from_dt":16.47},{"city":"Patton","state_name":"Missouri","lat":37.53782,"lng":-90.05321,"zip":"63662","miles_from_dt":17.12},{"city":"Whitewater","state_name":"Missouri","lat":37.26336,"lng":-89.81554,"zip":"63785","miles_from_dt":18.36},{"city":"Jacob","state_name":"Illinois","lat":37.75184,"lng":-89.55573,"zip":"62950","miles_from_dt":18.79},{"city":"Marble Hill","state_name":"Missouri","lat":37.32944,"lng":-89.9837,"zip":"63764","miles_from_dt":18.84},{"city":"Dutchtown","state_name":"Missouri","lat":37.25596,"lng":-89.65946,"zip":"63745","miles_from_dt":18.98},{"city":"Cape Girardeau","state_name":"Missouri","lat":37.27373,"lng":-89.53981,"zip":"63703","miles_from_dt":20.48},{"city":"Leopold","state_name":"Missouri","lat":37.25084,"lng":-89.90374,"zip":"63760","miles_from_dt":20.78},{"city":"Gorham","state_name":"Illinois","lat":37.7292,"lng":-89.46279,"zip":"62940","miles_from_dt":20.9},{"city":"Alto Pass","state_name":"Illinois","lat":37.57381,"lng":-89.35867,"zip":"62905","miles_from_dt":21.34},{"city":"Rockwood","state_name":"Illinois","lat":37.83179,"lng":-89.65952,"zip":"62280","miles_from_dt":21.76},{"city":"Pomona","state_name":"Illinois","lat":37.64307,"lng":-89.37274,"zip":"62975","miles_from_dt":21.89},{"city":"McClure","state_name":"Illinois","lat":37.31355,"lng":-89.42669,"zip":"62957","miles_from_dt":22.58},{"city":"Delta","state_name":"Missouri","lat":37.19331,"lng":-89.71831,"zip":"63744","miles_from_dt":22.78},{"city":"Jonesboro","state_name":"Illinois","lat":37.42065,"lng":-89.33187,"zip":"62952","miles_from_dt":23.63},{"city":"Chaffee","state_name":"Missouri","lat":37.17564,"lng":-89.68557,"zip":"63740","miles_from_dt":24.16},{"city":"Kelso","state_name":"Missouri","lat":37.19212,"lng":-89.55064,"zip":"63758","miles_from_dt":25.14},{"city":"Saint Mary","state_name":"Missouri","lat":37.83641,"lng":-89.98861,"zip":"63673","miles_from_dt":25.49},{"city":"Marquand","state_name":"Missouri","lat":37.39312,"lng":-90.20552,"zip":"63655","miles_from_dt":27.01},{"city":"Ava","state_name":"Illinois","lat":37.86503,"lng":-89.50009,"zip":"62907","miles_from_dt":27.05},{"city":"Glenallen","state_name":"Missouri","lat":37.2742,"lng":-90.12404,"zip":"63751","miles_from_dt":27.14},{"city":"Menard","state_name":"Illinois","lat":37.91019,"lng":-89.8398,"zip":"62259","miles_from_dt":27.23},{"city":"Scott City","state_name":"Missouri","lat":37.17797,"lng":-89.50138,"zip":"63780","miles_from_dt":27.24},{"city":"Murphysboro","state_name":"Illinois","lat":37.7693,"lng":-89.35198,"zip":"62966","miles_from_dt":27.31},{"city":"Thebes","state_name":"Illinois","lat":37.22924,"lng":-89.40493,"zip":"62990","miles_from_dt":27.48},{"city":"Carbondale","state_name":"Illinois","lat":37.67162,"lng":-89.27568,"zip":"62903","miles_from_dt":27.56},{"city":"Cobden","state_name":"Illinois","lat":37.55095,"lng":-89.23208,"zip":"62920","miles_from_dt":28.07},{"city":"Chester","state_name":"Illinois","lat":37.93719,"lng":-89.78842,"zip":"62233","miles_from_dt":28.67},{"city":"Perkins","state_name":"Missouri","lat":37.09424,"lng":-89.77469,"zip":"63774","miles_from_dt":29.63},{"city":"Millcreek","state_name":"Illinois","lat":37.34063,"lng":-89.25378,"zip":"62961","miles_from_dt":29.65},{"city":"Commerce","state_name":"Missouri","lat":37.1583,"lng":-89.44672,"zip":"63742","miles_from_dt":29.96}],"targetCityZipCode":"63769","targetCityState":"Missouri"},"__N_SSG":true}