{"pageProps":{"stateName":"Missouri","cityName":"peace-valley","nearbyCities":[{"city":"Pomona","state_name":"Missouri","lat":36.85719,"lng":-91.88968,"zip":"65789","miles_from_dt":11.12},{"city":"Brandsville","state_name":"Missouri","lat":36.64928,"lng":-91.69328,"zip":"65688","miles_from_dt":11.39},{"city":"West Plains","state_name":"Missouri","lat":36.6995,"lng":-91.85999,"zip":"65775","miles_from_dt":12.06},{"city":"Mountain View","state_name":"Missouri","lat":37.00545,"lng":-91.71131,"zip":"65548","miles_from_dt":13.2},{"city":"Birch Tree","state_name":"Missouri","lat":36.9375,"lng":-91.50739,"zip":"65438","miles_from_dt":13.47},{"city":"Montier","state_name":"Missouri","lat":36.98788,"lng":-91.575,"zip":"65546","miles_from_dt":13.72},{"city":"Koshkonong","state_name":"Missouri","lat":36.61801,"lng":-91.65592,"zip":"65692","miles_from_dt":13.73},{"city":"Willow Springs","state_name":"Missouri","lat":36.98975,"lng":-91.9787,"zip":"65793","miles_from_dt":19.77},{"city":"Thayer","state_name":"Missouri","lat":36.56651,"lng":-91.49583,"zip":"65791","miles_from_dt":20.4},{"city":"Alton","state_name":"Missouri","lat":36.69634,"lng":-91.3586,"zip":"65606","miles_from_dt":20.43},{"city":"Winona","state_name":"Missouri","lat":36.96196,"lng":-91.29987,"zip":"65588","miles_from_dt":24.2},{"city":"Pottersville","state_name":"Missouri","lat":36.69784,"lng":-92.11326,"zip":"65790","miles_from_dt":24.49},{"city":"Summersville","state_name":"Missouri","lat":37.18501,"lng":-91.64546,"zip":"65571","miles_from_dt":25.71},{"city":"Moody","state_name":"Missouri","lat":36.51768,"lng":-91.98356,"zip":"65777","miles_from_dt":25.95},{"city":"Sturkie","state_name":"Arkansas","lat":36.45734,"lng":-91.87894,"zip":"72578","miles_from_dt":26.63},{"city":"Mammoth Spring","state_name":"Arkansas","lat":36.43902,"lng":-91.55668,"zip":"72554","miles_from_dt":27.02},{"city":"Elk Creek","state_name":"Missouri","lat":37.18353,"lng":-91.89236,"zip":"65464","miles_from_dt":27.67},{"city":"Caulfield","state_name":"Missouri","lat":36.59088,"lng":-92.11697,"zip":"65626","miles_from_dt":27.99},{"city":"Dora","state_name":"Missouri","lat":36.76964,"lng":-92.20371,"zip":"65637","miles_from_dt":28.31},{"city":"Couch","state_name":"Missouri","lat":36.5856,"lng":-91.26657,"zip":"65690","miles_from_dt":28.6},{"city":"Camp","state_name":"Arkansas","lat":36.39816,"lng":-91.72476,"zip":"72520","miles_from_dt":28.75},{"city":"Fremont","state_name":"Missouri","lat":36.8711,"lng":-91.16607,"zip":"63941","miles_from_dt":29.64}],"targetCityZipCode":"65788","targetCityState":"Missouri"},"__N_SSG":true}