{"pageProps":{"stateName":"Missouri","cityName":"pollock","nearbyCities":[{"city":"Lucerne","state_name":"Missouri","lat":40.44017,"lng":-93.23684,"zip":"64655","miles_from_dt":8.29},{"city":"Green City","state_name":"Missouri","lat":40.26721,"lng":-92.9677,"zip":"63545","miles_from_dt":10.29},{"city":"Harris","state_name":"Missouri","lat":40.29834,"lng":-93.32575,"zip":"64645","miles_from_dt":11.46},{"city":"Newtown","state_name":"Missouri","lat":40.39434,"lng":-93.33618,"zip":"64667","miles_from_dt":11.54},{"city":"Milan","state_name":"Missouri","lat":40.18251,"lng":-93.11723,"zip":"63556","miles_from_dt":12.07},{"city":"Unionville","state_name":"Missouri","lat":40.48263,"lng":-92.95447,"zip":"63565","miles_from_dt":12.39},{"city":"Powersville","state_name":"Missouri","lat":40.53869,"lng":-93.26015,"zip":"64672","miles_from_dt":14.45},{"city":"Green Castle","state_name":"Missouri","lat":40.24603,"lng":-92.84943,"zip":"63544","miles_from_dt":16.36},{"city":"Galt","state_name":"Missouri","lat":40.16221,"lng":-93.3992,"zip":"64641","miles_from_dt":19.87},{"city":"Cincinnati","state_name":"Iowa","lat":40.61392,"lng":-92.94602,"zip":"52549","miles_from_dt":20},{"city":"Humphreys","state_name":"Missouri","lat":40.10456,"lng":-93.30819,"zip":"64646","miles_from_dt":20.01},{"city":"Seymour","state_name":"Iowa","lat":40.6654,"lng":-93.13594,"zip":"52590","miles_from_dt":21.26},{"city":"Novinger","state_name":"Missouri","lat":40.22674,"lng":-92.74528,"zip":"63559","miles_from_dt":21.89},{"city":"Browning","state_name":"Missouri","lat":40.03726,"lng":-93.15435,"zip":"64630","miles_from_dt":22.15},{"city":"Livonia","state_name":"Missouri","lat":40.49921,"lng":-92.74252,"zip":"63551","miles_from_dt":22.32},{"city":"Worthington","state_name":"Missouri","lat":40.41332,"lng":-92.70461,"zip":"63567","miles_from_dt":22.4},{"city":"Mercer","state_name":"Missouri","lat":40.53031,"lng":-93.51901,"zip":"64661","miles_from_dt":24.05},{"city":"Winigan","state_name":"Missouri","lat":40.03139,"lng":-92.94793,"zip":"63566","miles_from_dt":24.32},{"city":"Princeton","state_name":"Missouri","lat":40.38001,"lng":-93.59094,"zip":"64673","miles_from_dt":24.75},{"city":"Exline","state_name":"Iowa","lat":40.63905,"lng":-92.81046,"zip":"52555","miles_from_dt":25.47},{"city":"Spickard","state_name":"Missouri","lat":40.23246,"lng":-93.58181,"zip":"64679","miles_from_dt":25.73},{"city":"Clio","state_name":"Iowa","lat":40.64417,"lng":-93.44538,"zip":"50052","miles_from_dt":26.08},{"city":"Allerton","state_name":"Iowa","lat":40.67847,"lng":-93.38549,"zip":"50008","miles_from_dt":26.11},{"city":"Purdin","state_name":"Missouri","lat":39.96491,"lng":-93.15884,"zip":"64674","miles_from_dt":27.15},{"city":"Centerville","state_name":"Iowa","lat":40.71774,"lng":-92.90831,"zip":"52544","miles_from_dt":27.31},{"city":"Coatsville","state_name":"Missouri","lat":40.57244,"lng":-92.67946,"zip":"63535","miles_from_dt":27.68},{"city":"Glenwood","state_name":"Missouri","lat":40.50355,"lng":-92.63331,"zip":"63541","miles_from_dt":27.71},{"city":"Laredo","state_name":"Missouri","lat":40.01979,"lng":-93.42103,"zip":"64652","miles_from_dt":28.13},{"city":"New Boston","state_name":"Missouri","lat":39.98297,"lng":-92.88045,"zip":"63557","miles_from_dt":28.85},{"city":"Lineville","state_name":"Iowa","lat":40.62381,"lng":-93.54597,"zip":"50147","miles_from_dt":28.89},{"city":"Corydon","state_name":"Iowa","lat":40.75508,"lng":-93.31922,"zip":"50060","miles_from_dt":29.32}],"targetCityZipCode":"63560","targetCityState":"Missouri"},"__N_SSG":true}