{"pageProps":{"stateName":"Missouri","cityName":"pontiac","nearbyCities":[{"city":"Isabella","state_name":"Missouri","lat":36.58187,"lng":-92.60531,"zip":"65676","miles_from_dt":4.04},{"city":"Oakland","state_name":"Arkansas","lat":36.45195,"lng":-92.58963,"zip":"72661","miles_from_dt":6.24},{"city":"Gainesville","state_name":"Missouri","lat":36.60262,"lng":-92.42379,"zip":"65655","miles_from_dt":8.61},{"city":"Theodosia","state_name":"Missouri","lat":36.56974,"lng":-92.72561,"zip":"65761","miles_from_dt":9.65},{"city":"Bull Shoals","state_name":"Arkansas","lat":36.3781,"lng":-92.58517,"zip":"72619","miles_from_dt":11.17},{"city":"Hardenville","state_name":"Missouri","lat":36.57829,"lng":-92.36065,"zip":"65666","miles_from_dt":11.24},{"city":"Midway","state_name":"Arkansas","lat":36.388,"lng":-92.47661,"zip":"72651","miles_from_dt":11.29},{"city":"Thornfield","state_name":"Missouri","lat":36.68613,"lng":-92.65634,"zip":"65762","miles_from_dt":11.6},{"city":"Lakeview","state_name":"Arkansas","lat":36.37013,"lng":-92.54347,"zip":"72642","miles_from_dt":11.63},{"city":"Noble","state_name":"Missouri","lat":36.73192,"lng":-92.57631,"zip":"65715","miles_from_dt":13.39},{"city":"Clarkridge","state_name":"Arkansas","lat":36.46386,"lng":-92.3172,"zip":"72623","miles_from_dt":14.28},{"city":"Peel","state_name":"Arkansas","lat":36.41914,"lng":-92.77163,"zip":"72668","miles_from_dt":14.53},{"city":"Wasola","state_name":"Missouri","lat":36.75551,"lng":-92.51332,"zip":"65773","miles_from_dt":15.16},{"city":"Gassville","state_name":"Arkansas","lat":36.31637,"lng":-92.48484,"zip":"72635","miles_from_dt":15.82},{"city":"Cotter","state_name":"Arkansas","lat":36.30451,"lng":-92.53994,"zip":"72626","miles_from_dt":16.16},{"city":"Protem","state_name":"Missouri","lat":36.53157,"lng":-92.85077,"zip":"65733","miles_from_dt":16.38},{"city":"Tecumseh","state_name":"Missouri","lat":36.62236,"lng":-92.27943,"zip":"65760","miles_from_dt":16.47},{"city":"Mountain Home","state_name":"Arkansas","lat":36.34292,"lng":-92.38603,"zip":"72653","miles_from_dt":16.49},{"city":"Udall","state_name":"Missouri","lat":36.53933,"lng":-92.25948,"zip":"65766","miles_from_dt":16.53},{"city":"Mountain Home","state_name":"Arkansas","lat":36.33653,"lng":-92.38453,"zip":"72654","miles_from_dt":16.9},{"city":"Brixey","state_name":"Missouri","lat":36.75157,"lng":-92.38641,"zip":"65618","miles_from_dt":17.48},{"city":"Squires","state_name":"Missouri","lat":36.7996,"lng":-92.62858,"zip":"65755","miles_from_dt":18.45},{"city":"Zanoni","state_name":"Missouri","lat":36.72588,"lng":-92.31538,"zip":"65784","miles_from_dt":18.62},{"city":"Gamaliel","state_name":"Arkansas","lat":36.45018,"lng":-92.23371,"zip":"72537","miles_from_dt":18.98},{"city":"Rueter","state_name":"Missouri","lat":36.62449,"lng":-92.89337,"zip":"65744","miles_from_dt":19.65},{"city":"Rockbridge","state_name":"Missouri","lat":36.79545,"lng":-92.40127,"zip":"65741","miles_from_dt":19.71},{"city":"Summit","state_name":"Arkansas","lat":36.26442,"lng":-92.70074,"zip":"72677","miles_from_dt":20.53},{"city":"Yellville","state_name":"Arkansas","lat":36.25628,"lng":-92.68679,"zip":"72687","miles_from_dt":20.76},{"city":"Flippin","state_name":"Arkansas","lat":36.23693,"lng":-92.54891,"zip":"72634","miles_from_dt":20.79},{"city":"Diamond City","state_name":"Arkansas","lat":36.45856,"lng":-92.92032,"zip":"72630","miles_from_dt":20.98},{"city":"Bakersfield","state_name":"Missouri","lat":36.52593,"lng":-92.1609,"zip":"65609","miles_from_dt":22.04},{"city":"Henderson","state_name":"Arkansas","lat":36.40395,"lng":-92.19022,"zip":"72544","miles_from_dt":22.41},{"city":"Bradleyville","state_name":"Missouri","lat":36.73739,"lng":-92.88684,"zip":"65614","miles_from_dt":22.91},{"city":"Pyatt","state_name":"Arkansas","lat":36.27725,"lng":-92.83685,"zip":"72672","miles_from_dt":23.84},{"city":"Lead Hill","state_name":"Arkansas","lat":36.42477,"lng":-92.96673,"zip":"72644","miles_from_dt":24.14},{"city":"Drury","state_name":"Missouri","lat":36.84319,"lng":-92.32418,"zip":"65638","miles_from_dt":24.66},{"city":"Caulfield","state_name":"Missouri","lat":36.59088,"lng":-92.11697,"zip":"65626","miles_from_dt":24.72},{"city":"Kissee Mills","state_name":"Missouri","lat":36.64518,"lng":-92.98551,"zip":"65680","miles_from_dt":24.96},{"city":"Cedarcreek","state_name":"Missouri","lat":36.56247,"lng":-93.00613,"zip":"65627","miles_from_dt":25.06},{"city":"Dora","state_name":"Missouri","lat":36.76964,"lng":-92.20371,"zip":"65637","miles_from_dt":25.27},{"city":"Ava","state_name":"Missouri","lat":36.90456,"lng":-92.66662,"zip":"65608","miles_from_dt":25.98},{"city":"Gepp","state_name":"Arkansas","lat":36.43622,"lng":-92.10612,"zip":"72538","miles_from_dt":26.05},{"city":"Pottersville","state_name":"Missouri","lat":36.69784,"lng":-92.11326,"zip":"65790","miles_from_dt":26.98},{"city":"Elizabeth","state_name":"Arkansas","lat":36.32052,"lng":-92.15121,"zip":"72531","miles_from_dt":27.13},{"city":"Norfork","state_name":"Arkansas","lat":36.20703,"lng":-92.28293,"zip":"72659","miles_from_dt":27.48},{"city":"Norfork","state_name":"Arkansas","lat":36.15468,"lng":-92.32301,"zip":"72658","miles_from_dt":29.49},{"city":"Valley Springs","state_name":"Arkansas","lat":36.13405,"lng":-92.72911,"zip":"72682","miles_from_dt":29.5},{"city":"Bergman","state_name":"Arkansas","lat":36.31532,"lng":-93.01207,"zip":"72615","miles_from_dt":29.68}],"targetCityZipCode":"65729","targetCityState":"Missouri"},"__N_SSG":true}