{"pageProps":{"stateName":"Missouri","cityName":"powersite","nearbyCities":[{"city":"Rockaway Beach","state_name":"Missouri","lat":36.71288,"lng":-93.16169,"zip":"65740","miles_from_dt":4.58},{"city":"Branson","state_name":"Missouri","lat":36.64214,"lng":-93.21688,"zip":"65615","miles_from_dt":5.33},{"city":"Kirbyville","state_name":"Missouri","lat":36.57738,"lng":-93.10407,"zip":"65679","miles_from_dt":5.42},{"city":"Hollister","state_name":"Missouri","lat":36.6192,"lng":-93.2177,"zip":"65673","miles_from_dt":5.84},{"city":"Point Lookout","state_name":"Missouri","lat":36.61947,"lng":-93.2427,"zip":"65726","miles_from_dt":7.12},{"city":"Branson","state_name":"Missouri","lat":36.67133,"lng":-93.24887,"zip":"65616","miles_from_dt":7.13},{"city":"Kissee Mills","state_name":"Missouri","lat":36.64518,"lng":-92.98551,"zip":"65680","miles_from_dt":7.62},{"city":"Hollister","state_name":"Missouri","lat":36.56446,"lng":-93.21351,"zip":"65672","miles_from_dt":8.02},{"city":"Taneyville","state_name":"Missouri","lat":36.75762,"lng":-93.03167,"zip":"65759","miles_from_dt":8.7},{"city":"Forsyth","state_name":"Missouri","lat":36.78118,"lng":-93.11631,"zip":"65653","miles_from_dt":8.74},{"city":"Cedarcreek","state_name":"Missouri","lat":36.56247,"lng":-93.00613,"zip":"65627","miles_from_dt":9.05},{"city":"Walnut Shade","state_name":"Missouri","lat":36.77484,"lng":-93.2042,"zip":"65771","miles_from_dt":9.46},{"city":"Ridgedale","state_name":"Missouri","lat":36.51925,"lng":-93.26864,"zip":"65739","miles_from_dt":12.38},{"city":"Rueter","state_name":"Missouri","lat":36.62449,"lng":-92.89337,"zip":"65744","miles_from_dt":12.89},{"city":"Chestnutridge","state_name":"Missouri","lat":36.83463,"lng":-93.2204,"zip":"65630","miles_from_dt":13.56},{"city":"Reeds Spring","state_name":"Missouri","lat":36.7146,"lng":-93.35796,"zip":"65737","miles_from_dt":13.73},{"city":"Garrison","state_name":"Missouri","lat":36.83934,"lng":-93.01952,"zip":"65657","miles_from_dt":13.96},{"city":"Bradleyville","state_name":"Missouri","lat":36.73739,"lng":-92.88684,"zip":"65614","miles_from_dt":14.26},{"city":"Blue Eye","state_name":"Missouri","lat":36.54339,"lng":-93.36127,"zip":"65611","miles_from_dt":15.34},{"city":"Omaha","state_name":"Arkansas","lat":36.43184,"lng":-93.18297,"zip":"72662","miles_from_dt":15.73},{"city":"Spokane","state_name":"Missouri","lat":36.85032,"lng":-93.29595,"zip":"65754","miles_from_dt":16.59},{"city":"Protem","state_name":"Missouri","lat":36.53157,"lng":-92.85077,"zip":"65733","miles_from_dt":17.31},{"city":"Diamond City","state_name":"Arkansas","lat":36.45856,"lng":-92.92032,"zip":"72630","miles_from_dt":17.57},{"city":"Kimberling City","state_name":"Missouri","lat":36.62275,"lng":-93.43625,"zip":"65686","miles_from_dt":17.59},{"city":"Chadwick","state_name":"Missouri","lat":36.89371,"lng":-93.00294,"zip":"65629","miles_from_dt":17.77},{"city":"Lead Hill","state_name":"Arkansas","lat":36.42477,"lng":-92.96673,"zip":"72644","miles_from_dt":18.05},{"city":"Oak Grove","state_name":"Arkansas","lat":36.48115,"lng":-93.37454,"zip":"72660","miles_from_dt":18.44},{"city":"Ponce De Leon","state_name":"Missouri","lat":36.87712,"lng":-93.33533,"zip":"65728","miles_from_dt":19.37},{"city":"Lampe","state_name":"Missouri","lat":36.55211,"lng":-93.46658,"zip":"65681","miles_from_dt":20.41},{"city":"Highlandville","state_name":"Missouri","lat":36.91339,"lng":-93.30137,"zip":"65669","miles_from_dt":20.43},{"city":"Galena","state_name":"Missouri","lat":36.79552,"lng":-93.46626,"zip":"65656","miles_from_dt":21.43},{"city":"Lead Hill","state_name":"Missouri","lat":36.93429,"lng":-92.94468,"zip":"72643","miles_from_dt":21.66},{"city":"Oldfield","state_name":"Missouri","lat":36.95513,"lng":-92.95998,"zip":"65720","miles_from_dt":22.59},{"city":"Theodosia","state_name":"Missouri","lat":36.56974,"lng":-92.72561,"zip":"65761","miles_from_dt":22.81},{"city":"Ozark","state_name":"Missouri","lat":36.9805,"lng":-93.21045,"zip":"65721","miles_from_dt":23},{"city":"Sparta","state_name":"Missouri","lat":36.9955,"lng":-93.05386,"zip":"65753","miles_from_dt":23.81},{"city":"Bergman","state_name":"Arkansas","lat":36.31532,"lng":-93.01207,"zip":"72615","miles_from_dt":24.18},{"city":"Cape Fair","state_name":"Missouri","lat":36.73276,"lng":-93.56241,"zip":"65624","miles_from_dt":25.03},{"city":"Peel","state_name":"Arkansas","lat":36.41914,"lng":-92.77163,"zip":"72668","miles_from_dt":25.38},{"city":"Shell Knob","state_name":"Missouri","lat":36.60248,"lng":-93.57971,"zip":"65747","miles_from_dt":25.68},{"city":"Thornfield","state_name":"Missouri","lat":36.68613,"lng":-92.65634,"zip":"65762","miles_from_dt":25.97},{"city":"Bruner","state_name":"Missouri","lat":37.02045,"lng":-92.95594,"zip":"65620","miles_from_dt":26.86},{"city":"Green Forest","state_name":"Arkansas","lat":36.3245,"lng":-93.40496,"zip":"72638","miles_from_dt":27.67},{"city":"Hurley","state_name":"Missouri","lat":36.93101,"lng":-93.49245,"zip":"65675","miles_from_dt":28.02},{"city":"Crane","state_name":"Missouri","lat":36.89841,"lng":-93.5346,"zip":"65633","miles_from_dt":28.39},{"city":"Nixa","state_name":"Missouri","lat":37.03801,"lng":-93.31976,"zip":"65714","miles_from_dt":28.62},{"city":"Harrison","state_name":"Arkansas","lat":36.23669,"lng":-93.09181,"zip":"72601","miles_from_dt":28.86},{"city":"Squires","state_name":"Missouri","lat":36.7996,"lng":-92.62858,"zip":"65755","miles_from_dt":29.17},{"city":"Isabella","state_name":"Missouri","lat":36.58187,"lng":-92.60531,"zip":"65676","miles_from_dt":29.17},{"city":"Clever","state_name":"Missouri","lat":37.00594,"lng":-93.4232,"zip":"65631","miles_from_dt":29.42},{"city":"Harrison","state_name":"Arkansas","lat":36.22696,"lng":-93.11509,"zip":"72602","miles_from_dt":29.49},{"city":"Golden","state_name":"Missouri","lat":36.5426,"lng":-93.63984,"zip":"65658","miles_from_dt":29.8}],"targetCityZipCode":"65731","targetCityState":"Missouri"},"__N_SSG":true}