{"pageProps":{"stateName":"Missouri","cityName":"rockbridge","nearbyCities":[{"city":"Brixey","state_name":"Missouri","lat":36.75157,"lng":-92.38641,"zip":"65618","miles_from_dt":3.14},{"city":"Drury","state_name":"Missouri","lat":36.84319,"lng":-92.32418,"zip":"65638","miles_from_dt":5.39},{"city":"Zanoni","state_name":"Missouri","lat":36.72588,"lng":-92.31538,"zip":"65784","miles_from_dt":6.76},{"city":"Wasola","state_name":"Missouri","lat":36.75551,"lng":-92.51332,"zip":"65773","miles_from_dt":6.8},{"city":"Noble","state_name":"Missouri","lat":36.73192,"lng":-92.57631,"zip":"65715","miles_from_dt":10.65},{"city":"Dora","state_name":"Missouri","lat":36.76964,"lng":-92.20371,"zip":"65637","miles_from_dt":11.1},{"city":"Vanzant","state_name":"Missouri","lat":36.92072,"lng":-92.26456,"zip":"65768","miles_from_dt":11.49},{"city":"Squires","state_name":"Missouri","lat":36.7996,"lng":-92.62858,"zip":"65755","miles_from_dt":12.61},{"city":"Gainesville","state_name":"Missouri","lat":36.60262,"lng":-92.42379,"zip":"65655","miles_from_dt":13.36},{"city":"Tecumseh","state_name":"Missouri","lat":36.62236,"lng":-92.27943,"zip":"65760","miles_from_dt":13.72},{"city":"Hardenville","state_name":"Missouri","lat":36.57829,"lng":-92.36065,"zip":"65666","miles_from_dt":15.14},{"city":"Thornfield","state_name":"Missouri","lat":36.68613,"lng":-92.65634,"zip":"65762","miles_from_dt":16.04},{"city":"Ava","state_name":"Missouri","lat":36.90456,"lng":-92.66662,"zip":"65608","miles_from_dt":16.52},{"city":"Pottersville","state_name":"Missouri","lat":36.69784,"lng":-92.11326,"zip":"65790","miles_from_dt":17.34},{"city":"Norwood","state_name":"Missouri","lat":37.06017,"lng":-92.41472,"zip":"65717","miles_from_dt":18.27},{"city":"Isabella","state_name":"Missouri","lat":36.58187,"lng":-92.60531,"zip":"65676","miles_from_dt":18.58},{"city":"Macomb","state_name":"Missouri","lat":37.05726,"lng":-92.488,"zip":"65702","miles_from_dt":18.68},{"city":"Udall","state_name":"Missouri","lat":36.53933,"lng":-92.25948,"zip":"65766","miles_from_dt":19.34},{"city":"Pontiac","state_name":"Missouri","lat":36.53842,"lng":-92.55661,"zip":"65729","miles_from_dt":19.71},{"city":"Caulfield","state_name":"Missouri","lat":36.59088,"lng":-92.11697,"zip":"65626","miles_from_dt":21.17},{"city":"Bakersfield","state_name":"Missouri","lat":36.52593,"lng":-92.1609,"zip":"65609","miles_from_dt":22.88},{"city":"Clarkridge","state_name":"Arkansas","lat":36.46386,"lng":-92.3172,"zip":"72623","miles_from_dt":23.34},{"city":"Theodosia","state_name":"Missouri","lat":36.56974,"lng":-92.72561,"zip":"65761","miles_from_dt":23.81},{"city":"Mansfield","state_name":"Missouri","lat":37.12657,"lng":-92.58323,"zip":"65704","miles_from_dt":24.95},{"city":"Gamaliel","state_name":"Arkansas","lat":36.45018,"lng":-92.23371,"zip":"72537","miles_from_dt":25.56},{"city":"Oakland","state_name":"Arkansas","lat":36.45195,"lng":-92.58963,"zip":"72661","miles_from_dt":25.9},{"city":"Mountain Grove","state_name":"Missouri","lat":37.17355,"lng":-92.27747,"zip":"65711","miles_from_dt":26.96},{"city":"Willow Springs","state_name":"Missouri","lat":36.98975,"lng":-91.9787,"zip":"65793","miles_from_dt":26.97},{"city":"Bradleyville","state_name":"Missouri","lat":36.73739,"lng":-92.88684,"zip":"65614","miles_from_dt":27.23},{"city":"Midway","state_name":"Arkansas","lat":36.388,"lng":-92.47661,"zip":"72651","miles_from_dt":28.41},{"city":"Pomona","state_name":"Missouri","lat":36.85719,"lng":-91.88968,"zip":"65789","miles_from_dt":28.68},{"city":"Cabool","state_name":"Missouri","lat":37.13665,"lng":-92.09794,"zip":"65689","miles_from_dt":28.9},{"city":"Henderson","state_name":"Arkansas","lat":36.40395,"lng":-92.19022,"zip":"72544","miles_from_dt":29.44},{"city":"Gepp","state_name":"Arkansas","lat":36.43622,"lng":-92.10612,"zip":"72538","miles_from_dt":29.71},{"city":"Rueter","state_name":"Missouri","lat":36.62449,"lng":-92.89337,"zip":"65744","miles_from_dt":29.76}],"targetCityZipCode":"65741","targetCityState":"Missouri"},"__N_SSG":true}