{"pageProps":{"stateName":"Missouri","cityName":"schell-city","nearbyCities":[{"city":"Harwood","state_name":"Missouri","lat":37.93033,"lng":-94.11427,"zip":"64750","miles_from_dt":4.8},{"city":"Rockville","state_name":"Missouri","lat":38.06246,"lng":-94.04276,"zip":"64780","miles_from_dt":5.56},{"city":"Walker","state_name":"Missouri","lat":37.92924,"lng":-94.22969,"zip":"64790","miles_from_dt":8.28},{"city":"Appleton City","state_name":"Missouri","lat":38.15188,"lng":-94.01025,"zip":"64724","miles_from_dt":11.74},{"city":"El Dorado Springs","state_name":"Missouri","lat":37.84963,"lng":-93.97755,"zip":"64744","miles_from_dt":12.53},{"city":"Roscoe","state_name":"Missouri","lat":37.97837,"lng":-93.81242,"zip":"64781","miles_from_dt":16.14},{"city":"Nevada","state_name":"Missouri","lat":37.82712,"lng":-94.33355,"zip":"64772","miles_from_dt":17.18},{"city":"Rich Hill","state_name":"Missouri","lat":38.09214,"lng":-94.40152,"zip":"64779","miles_from_dt":17.29},{"city":"Milo","state_name":"Missouri","lat":37.7499,"lng":-94.1997,"zip":"64767","miles_from_dt":17.96},{"city":"Metz","state_name":"Missouri","lat":37.9965,"lng":-94.44297,"zip":"64765","miles_from_dt":18.34},{"city":"Montrose","state_name":"Missouri","lat":38.27528,"lng":-93.98662,"zip":"64770","miles_from_dt":20.1},{"city":"Butler","state_name":"Missouri","lat":38.25789,"lng":-94.29236,"zip":"64730","miles_from_dt":20.47},{"city":"Richards","state_name":"Missouri","lat":37.92283,"lng":-94.4841,"zip":"64778","miles_from_dt":21.27},{"city":"Caplinger Mills","state_name":"Missouri","lat":37.79496,"lng":-93.80452,"zip":"65607","miles_from_dt":21.74},{"city":"Lowry City","state_name":"Missouri","lat":38.14354,"lng":-93.71573,"zip":"64763","miles_from_dt":23.52},{"city":"Osceola","state_name":"Missouri","lat":38.04242,"lng":-93.67469,"zip":"64776","miles_from_dt":23.76},{"city":"Sheldon","state_name":"Missouri","lat":37.66624,"lng":-94.23131,"zip":"64784","miles_from_dt":23.99},{"city":"Foster","state_name":"Missouri","lat":38.15662,"lng":-94.50384,"zip":"64745","miles_from_dt":24.2},{"city":"Moundville","state_name":"Missouri","lat":37.77091,"lng":-94.45967,"zip":"64771","miles_from_dt":24.92},{"city":"Collins","state_name":"Missouri","lat":37.90098,"lng":-93.65987,"zip":"64738","miles_from_dt":25.34},{"city":"Hume","state_name":"Missouri","lat":38.0689,"lng":-94.56862,"zip":"64752","miles_from_dt":25.64},{"city":"Stockton","state_name":"Missouri","lat":37.70296,"lng":-93.82338,"zip":"65785","miles_from_dt":25.68},{"city":"Deepwater","state_name":"Missouri","lat":38.22349,"lng":-93.71204,"zip":"64740","miles_from_dt":26.48},{"city":"Jerico Springs","state_name":"Missouri","lat":37.61931,"lng":-94.01462,"zip":"64756","miles_from_dt":26.72},{"city":"Deerfield","state_name":"Missouri","lat":37.81671,"lng":-94.5629,"zip":"64741","miles_from_dt":27.93},{"city":"Milford","state_name":"Missouri","lat":37.58617,"lng":-94.15551,"zip":"64766","miles_from_dt":28.65},{"city":"Urich","state_name":"Missouri","lat":38.42868,"lng":-94.02045,"zip":"64788","miles_from_dt":29.96}],"targetCityZipCode":"64783","targetCityState":"Missouri"},"__N_SSG":true}