{"pageProps":{"stateName":"Missouri","cityName":"sibley","nearbyCities":[{"city":"Levasy","state_name":"Missouri","lat":39.13961,"lng":-94.13857,"zip":"64066","miles_from_dt":2.91},{"city":"Buckner","state_name":"Missouri","lat":39.11642,"lng":-94.21385,"zip":"64016","miles_from_dt":3.49},{"city":"Orrick","state_name":"Missouri","lat":39.2224,"lng":-94.13887,"zip":"64077","miles_from_dt":4.86},{"city":"Independence","state_name":"Missouri","lat":39.17805,"lng":-94.31408,"zip":"64058","miles_from_dt":7.03},{"city":"Missouri City","state_name":"Missouri","lat":39.23286,"lng":-94.30021,"zip":"64072","miles_from_dt":7.9},{"city":"Napoleon","state_name":"Missouri","lat":39.08106,"lng":-94.07658,"zip":"64074","miles_from_dt":8.05},{"city":"Independence","state_name":"Missouri","lat":39.11114,"lng":-94.32008,"zip":"64056","miles_from_dt":8.06},{"city":"Camden","state_name":"Missouri","lat":39.199,"lng":-94.02951,"zip":"64017","miles_from_dt":8.72},{"city":"Independence","state_name":"Missouri","lat":39.0692,"lng":-94.32203,"zip":"64057","miles_from_dt":9.75},{"city":"Grain Valley","state_name":"Missouri","lat":39.00634,"lng":-94.21473,"zip":"64029","miles_from_dt":10.84},{"city":"Wellington","state_name":"Missouri","lat":39.11237,"lng":-93.99146,"zip":"64097","miles_from_dt":10.93},{"city":"Blue Springs","state_name":"Missouri","lat":39.01936,"lng":-94.28247,"zip":"64013","miles_from_dt":11.14},{"city":"Blue Springs","state_name":"Missouri","lat":39.00893,"lng":-94.25533,"zip":"64014","miles_from_dt":11.2},{"city":"Excelsior Springs","state_name":"Missouri","lat":39.32523,"lng":-94.22707,"zip":"64024","miles_from_dt":11.5},{"city":"Oak Grove","state_name":"Missouri","lat":38.99751,"lng":-94.14544,"zip":"64075","miles_from_dt":11.52},{"city":"Blue Springs","state_name":"Missouri","lat":39.02099,"lng":-94.3006,"zip":"64015","miles_from_dt":11.53},{"city":"Mosby","state_name":"Missouri","lat":39.31391,"lng":-94.29154,"zip":"64073","miles_from_dt":11.96},{"city":"Independence","state_name":"Missouri","lat":39.11424,"lng":-94.40641,"zip":"64050","miles_from_dt":12.35},{"city":"Liberty","state_name":"Missouri","lat":39.25924,"lng":-94.39042,"zip":"64068","miles_from_dt":12.92},{"city":"Independence","state_name":"Missouri","lat":39.09371,"lng":-94.41768,"zip":"64051","miles_from_dt":13.36},{"city":"Henrietta","state_name":"Missouri","lat":39.20047,"lng":-93.937,"zip":"64036","miles_from_dt":13.57},{"city":"Liberty","state_name":"Missouri","lat":39.24178,"lng":-94.41722,"zip":"64069","miles_from_dt":13.64},{"city":"Independence","state_name":"Missouri","lat":39.05061,"lng":-94.39848,"zip":"64055","miles_from_dt":13.81},{"city":"Independence","state_name":"Missouri","lat":39.11627,"lng":-94.44003,"zip":"64054","miles_from_dt":14.07},{"city":"Kansas City","state_name":"Missouri","lat":39.16184,"lng":-94.44943,"zip":"64161","miles_from_dt":14.21},{"city":"Lees Summit","state_name":"Missouri","lat":38.98222,"lng":-94.34284,"zip":"64064","miles_from_dt":15.02},{"city":"Bates City","state_name":"Missouri","lat":38.95963,"lng":-94.06688,"zip":"64011","miles_from_dt":15.32},{"city":"Kansas City","state_name":"Missouri","lat":39.01361,"lng":-94.40181,"zip":"64136","miles_from_dt":15.51},{"city":"Independence","state_name":"Missouri","lat":39.07355,"lng":-94.45082,"zip":"64052","miles_from_dt":15.54},{"city":"Independence","state_name":"Missouri","lat":39.10791,"lng":-94.46735,"zip":"64053","miles_from_dt":15.63},{"city":"Kansas City","state_name":"Missouri","lat":39.15597,"lng":-94.48187,"zip":"64162","miles_from_dt":15.96},{"city":"Kansas City","state_name":"Missouri","lat":39.23493,"lng":-94.47839,"zip":"64158","miles_from_dt":16.55},{"city":"Rayville","state_name":"Missouri","lat":39.38697,"lng":-94.0653,"zip":"64084","miles_from_dt":16.81},{"city":"Kansas City","state_name":"Missouri","lat":39.1065,"lng":-94.49388,"zip":"64125","miles_from_dt":17.04},{"city":"Kansas City","state_name":"Missouri","lat":39.27657,"lng":-94.47103,"zip":"64157","miles_from_dt":17.28},{"city":"Kansas City","state_name":"Missouri","lat":39.09095,"lng":-94.49581,"zip":"64126","miles_from_dt":17.41},{"city":"Richmond","state_name":"Missouri","lat":39.33838,"lng":-93.95158,"zip":"64085","miles_from_dt":17.46},{"city":"Kearney","state_name":"Missouri","lat":39.37134,"lng":-94.36821,"zip":"64060","miles_from_dt":17.49},{"city":"Kansas City","state_name":"Missouri","lat":39.01406,"lng":-94.45689,"zip":"64133","miles_from_dt":17.83},{"city":"Kansas City","state_name":"Missouri","lat":39.13142,"lng":-94.51489,"zip":"64120","miles_from_dt":17.85},{"city":"Odessa","state_name":"Missouri","lat":38.98145,"lng":-93.94536,"zip":"64076","miles_from_dt":17.9},{"city":"Kansas City","state_name":"Missouri","lat":38.96832,"lng":-94.40677,"zip":"64139","miles_from_dt":17.9},{"city":"Kansas City","state_name":"Missouri","lat":39.16522,"lng":-94.52251,"zip":"64117","miles_from_dt":18.14},{"city":"Lees Summit","state_name":"Missouri","lat":38.91181,"lng":-94.29293,"zip":"64086","miles_from_dt":18.2},{"city":"Kansas City","state_name":"Missouri","lat":39.21137,"lng":-94.5186,"zip":"64119","miles_from_dt":18.24},{"city":"Kansas City","state_name":"Missouri","lat":39.11436,"lng":-94.52167,"zip":"64123","miles_from_dt":18.39},{"city":"Kansas City","state_name":"Missouri","lat":39.04935,"lng":-94.49682,"zip":"64129","miles_from_dt":18.48},{"city":"Lexington","state_name":"Missouri","lat":39.15594,"lng":-93.83747,"zip":"64067","miles_from_dt":18.66},{"city":"Lees Summit","state_name":"Missouri","lat":38.95146,"lng":-94.40467,"zip":"64065","miles_from_dt":18.71},{"city":"Lone Jack","state_name":"Missouri","lat":38.8897,"lng":-94.14863,"zip":"64070","miles_from_dt":18.87},{"city":"Kansas City","state_name":"Missouri","lat":39.31939,"lng":-94.48187,"zip":"64167","miles_from_dt":19.29},{"city":"Kansas City","state_name":"Missouri","lat":39.10718,"lng":-94.5391,"zip":"64124","miles_from_dt":19.4},{"city":"Lees Summit","state_name":"Missouri","lat":38.91224,"lng":-94.35341,"zip":"64063","miles_from_dt":19.45},{"city":"Kansas City","state_name":"Missouri","lat":39.2762,"lng":-94.5195,"zip":"64156","miles_from_dt":19.62},{"city":"Kansas City","state_name":"Missouri","lat":39.08912,"lng":-94.53837,"zip":"64127","miles_from_dt":19.65},{"city":"Kansas City","state_name":"Missouri","lat":39.06555,"lng":-94.53484,"zip":"64128","miles_from_dt":19.95},{"city":"Kansas City","state_name":"Missouri","lat":39.12322,"lng":-94.55505,"zip":"64179","miles_from_dt":20.07},{"city":"Lees Summit","state_name":"Missouri","lat":38.9121,"lng":-94.3795,"zip":"64002","miles_from_dt":20.16},{"city":"Lawson","state_name":"Missouri","lat":39.45533,"lng":-94.17244,"zip":"64062","miles_from_dt":20.26},{"city":"Kansas City","state_name":"Missouri","lat":38.96852,"lng":-94.47088,"zip":"64138","miles_from_dt":20.36},{"city":"Kansas City","state_name":"Missouri","lat":39.14348,"lng":-94.57159,"zip":"64144","miles_from_dt":20.81},{"city":"Mayview","state_name":"Missouri","lat":39.02961,"lng":-93.83379,"zip":"64071","miles_from_dt":20.95},{"city":"Kansas City","state_name":"Missouri","lat":39.14875,"lng":-94.57444,"zip":"64116","miles_from_dt":20.95},{"city":"Kansas City","state_name":"Missouri","lat":39.10526,"lng":-94.57013,"zip":"64106","miles_from_dt":21.07},{"city":"Kansas City","state_name":"Missouri","lat":39.03345,"lng":-94.54119,"zip":"64130","miles_from_dt":21.1},{"city":"Lees Summit","state_name":"Missouri","lat":38.90971,"lng":-94.40953,"zip":"64081","miles_from_dt":21.18},{"city":"Kansas City","state_name":"Missouri","lat":39.21301,"lng":-94.57497,"zip":"64118","miles_from_dt":21.24},{"city":"Kansas City","state_name":"Missouri","lat":39.32215,"lng":-94.52301,"zip":"64166","miles_from_dt":21.25},{"city":"Hardin","state_name":"Missouri","lat":39.28796,"lng":-93.81972,"zip":"64035","miles_from_dt":21.44},{"city":"Kansas City","state_name":"Missouri","lat":39.09948,"lng":-94.57794,"zip":"64187","miles_from_dt":21.55},{"city":"Kansas City","state_name":"Missouri","lat":39.06646,"lng":-94.56709,"zip":"64109","miles_from_dt":21.57},{"city":"Kansas City","state_name":"Missouri","lat":39.09972,"lng":-94.57833,"zip":"64188","miles_from_dt":21.57},{"city":"Kansas City","state_name":"Missouri","lat":39.10077,"lng":-94.57899,"zip":"64121","miles_from_dt":21.59},{"city":"Holt","state_name":"Missouri","lat":39.44439,"lng":-94.3634,"zip":"64048","miles_from_dt":21.72},{"city":"Kansas City","state_name":"Missouri","lat":39.10183,"lng":-94.58228,"zip":"64198","miles_from_dt":21.75},{"city":"Kansas City","state_name":"Missouri","lat":39.10127,"lng":-94.58236,"zip":"64180","miles_from_dt":21.76},{"city":"Kansas City","state_name":"Missouri","lat":39.1041,"lng":-94.58383,"zip":"64199","miles_from_dt":21.8},{"city":"Kansas City","state_name":"Missouri","lat":39.09892,"lng":-94.58337,"zip":"64196","miles_from_dt":21.85},{"city":"Kansas City","state_name":"Missouri","lat":39.08865,"lng":-94.58129,"zip":"64148","miles_from_dt":21.89},{"city":"Kansas City","state_name":"Missouri","lat":39.08763,"lng":-94.58471,"zip":"64191","miles_from_dt":22.09},{"city":"Kansas City","state_name":"Missouri","lat":39.10599,"lng":-94.58985,"zip":"64105","miles_from_dt":22.1},{"city":"Kansas City","state_name":"Missouri","lat":39.08413,"lng":-94.58449,"zip":"64108","miles_from_dt":22.13},{"city":"Kansas City","state_name":"Missouri","lat":39.28031,"lng":-94.56801,"zip":"64155","miles_from_dt":22.13},{"city":"Kansas City","state_name":"Missouri","lat":39.08559,"lng":-94.58524,"zip":"64141","miles_from_dt":22.15},{"city":"Kansas City","state_name":"Missouri","lat":39.1073,"lng":-94.59246,"zip":"64184","miles_from_dt":22.22},{"city":"Greenwood","state_name":"Missouri","lat":38.85052,"lng":-94.30203,"zip":"64034","miles_from_dt":22.38},{"city":"Kansas City","state_name":"Missouri","lat":38.98551,"lng":-94.5396,"zip":"64132","miles_from_dt":22.62},{"city":"Kansas City","state_name":"Missouri","lat":39.03445,"lng":-94.57265,"zip":"64110","miles_from_dt":22.62},{"city":"Kansas City","state_name":"Missouri","lat":39.10355,"lng":-94.60051,"zip":"64101","miles_from_dt":22.69},{"city":"Kansas City","state_name":"Missouri","lat":38.9308,"lng":-94.48667,"zip":"64134","miles_from_dt":22.75},{"city":"Kansas City","state_name":"Kansas","lat":39.14402,"lng":-94.61104,"zip":"66115","miles_from_dt":22.93},{"city":"Kansas City","state_name":"Missouri","lat":39.09433,"lng":-94.60329,"zip":"64102","miles_from_dt":22.96},{"city":"Kansas City","state_name":"Missouri","lat":39.05094,"lng":-94.5881,"zip":"64171","miles_from_dt":22.98},{"city":"Kansas City","state_name":"Missouri","lat":39.05707,"lng":-94.59393,"zip":"64111","miles_from_dt":23.14},{"city":"Kansas City","state_name":"Kansas","lat":39.09946,"lng":-94.61348,"zip":"66118","miles_from_dt":23.43},{"city":"Lees Summit","state_name":"Missouri","lat":38.86601,"lng":-94.4039,"zip":"64082","miles_from_dt":23.56},{"city":"Kansas City","state_name":"Missouri","lat":39.03599,"lng":-94.59529,"zip":"64112","miles_from_dt":23.71},{"city":"Kansas City","state_name":"Missouri","lat":39.32081,"lng":-94.57749,"zip":"64165","miles_from_dt":23.75},{"city":"Kansas City","state_name":"Kansas","lat":39.1164,"lng":-94.6243,"zip":"66117","miles_from_dt":23.82},{"city":"Kansas City","state_name":"Kansas","lat":39.11871,"lng":-94.62592,"zip":"66101","miles_from_dt":23.88},{"city":"Riverside","state_name":"Missouri","lat":39.17052,"lng":-94.6303,"zip":"64150","miles_from_dt":23.93},{"city":"Kansas City","state_name":"Kansas","lat":39.05576,"lng":-94.60963,"zip":"66160","miles_from_dt":23.97},{"city":"Kansas City","state_name":"Missouri","lat":39.1686,"lng":-94.63192,"zip":"64168","miles_from_dt":24.02},{"city":"Kansas City","state_name":"Missouri","lat":39.21494,"lng":-94.63115,"zip":"64151","miles_from_dt":24.24},{"city":"Kansas City","state_name":"Missouri","lat":38.95188,"lng":-94.54683,"zip":"64170","miles_from_dt":24.26},{"city":"Kansas City","state_name":"Missouri","lat":39.01414,"lng":-94.5956,"zip":"64113","miles_from_dt":24.32},{"city":"Kansas City","state_name":"Missouri","lat":38.95348,"lng":-94.54967,"zip":"64999","miles_from_dt":24.32},{"city":"Kansas City","state_name":"Kansas","lat":39.06045,"lng":-94.62707,"zip":"66103","miles_from_dt":24.77},{"city":"Kansas City","state_name":"Kansas","lat":39.08593,"lng":-94.63646,"zip":"66105","miles_from_dt":24.83},{"city":"Kansas City","state_name":"Missouri","lat":38.93196,"lng":-94.54287,"zip":"64137","miles_from_dt":24.94},{"city":"Kansas City","state_name":"Kansas","lat":39.08372,"lng":-94.63903,"zip":"66119","miles_from_dt":24.99},{"city":"Kansas City","state_name":"Missouri","lat":38.95687,"lng":-94.57114,"zip":"64197","miles_from_dt":25.13},{"city":"Kansas City","state_name":"Missouri","lat":39.27653,"lng":-94.62967,"zip":"64154","miles_from_dt":25.15},{"city":"Kansas City","state_name":"Missouri","lat":38.95723,"lng":-94.57449,"zip":"64131","miles_from_dt":25.26},{"city":"Higginsville","state_name":"Missouri","lat":39.05116,"lng":-93.73386,"zip":"64037","miles_from_dt":25.41},{"city":"Kansas City","state_name":"Missouri","lat":38.86524,"lng":-94.46666,"zip":"64149","miles_from_dt":25.46},{"city":"Mission","state_name":"Kansas","lat":39.03122,"lng":-94.6307,"zip":"66205","miles_from_dt":25.6},{"city":"Smithville","state_name":"Missouri","lat":39.39007,"lng":-94.56483,"zip":"64089","miles_from_dt":25.75},{"city":"Kansas City","state_name":"Missouri","lat":38.9581,"lng":-94.59715,"zip":"64114","miles_from_dt":26.25},{"city":"Prairie Village","state_name":"Kansas","lat":38.99936,"lng":-94.62998,"zip":"66208","miles_from_dt":26.43},{"city":"Kansas City","state_name":"Missouri","lat":39.32988,"lng":-94.63113,"zip":"64164","miles_from_dt":26.6},{"city":"Grandview","state_name":"Missouri","lat":38.87996,"lng":-94.52312,"zip":"64030","miles_from_dt":26.63},{"city":"Mission","state_name":"Kansas","lat":39.02348,"lng":-94.64885,"zip":"66222","miles_from_dt":26.71},{"city":"Kansas City","state_name":"Missouri","lat":39.18858,"lng":-94.68211,"zip":"64190","miles_from_dt":26.77},{"city":"Polo","state_name":"Missouri","lat":39.53655,"lng":-94.0518,"zip":"64671","miles_from_dt":26.82},{"city":"Kingsville","state_name":"Missouri","lat":38.77981,"lng":-94.0885,"zip":"64061","miles_from_dt":26.85},{"city":"Kansas City","state_name":"Kansas","lat":39.15043,"lng":-94.68861,"zip":"66104","miles_from_dt":27.07},{"city":"Leawood","state_name":"Kansas","lat":38.95851,"lng":-94.61923,"zip":"66206","miles_from_dt":27.25},{"city":"Kansas City","state_name":"Kansas","lat":39.11246,"lng":-94.68842,"zip":"66102","miles_from_dt":27.27},{"city":"Lathrop","state_name":"Missouri","lat":39.54853,"lng":-94.29525,"zip":"64465","miles_from_dt":27.33},{"city":"Dover","state_name":"Missouri","lat":39.20191,"lng":-93.67836,"zip":"64022","miles_from_dt":27.33},{"city":"Pleasant Hill","state_name":"Missouri","lat":38.7691,"lng":-94.25639,"zip":"64080","miles_from_dt":27.36},{"city":"Lenexa","state_name":"Kansas","lat":39.01685,"lng":-94.66328,"zip":"66285","miles_from_dt":27.6},{"city":"Kansas City","state_name":"Kansas","lat":39.11323,"lng":-94.69498,"zip":"66110","miles_from_dt":27.61},{"city":"Mission","state_name":"Kansas","lat":39.02392,"lng":-94.66909,"zip":"66202","miles_from_dt":27.72},{"city":"Strasburg","state_name":"Missouri","lat":38.75991,"lng":-94.16387,"zip":"64090","miles_from_dt":27.74},{"city":"Lenexa","state_name":"Kansas","lat":39.00266,"lng":-94.67,"zip":"66276","miles_from_dt":28.3},{"city":"Overland Park","state_name":"Kansas","lat":38.95625,"lng":-94.64439,"zip":"66207","miles_from_dt":28.49},{"city":"Kansas City","state_name":"Missouri","lat":38.87888,"lng":-94.57436,"zip":"64146","miles_from_dt":28.64},{"city":"Raymore","state_name":"Missouri","lat":38.80082,"lng":-94.4483,"zip":"64083","miles_from_dt":28.65},{"city":"Kansas City","state_name":"Kansas","lat":39.06631,"lng":-94.70384,"zip":"66106","miles_from_dt":28.66},{"city":"Norborne","state_name":"Missouri","lat":39.35226,"lng":-93.70704,"zip":"64668","miles_from_dt":28.8},{"city":"Kansas City","state_name":"Missouri","lat":38.85387,"lng":-94.54688,"zip":"64147","miles_from_dt":28.82},{"city":"Trimble","state_name":"Missouri","lat":39.48067,"lng":-94.53363,"zip":"64492","miles_from_dt":28.87},{"city":"Overland Park","state_name":"Kansas","lat":38.99282,"lng":-94.67741,"zip":"66204","miles_from_dt":28.94},{"city":"Kansas City","state_name":"Missouri","lat":39.21278,"lng":-94.72271,"zip":"64152","miles_from_dt":29.09},{"city":"Stet","state_name":"Missouri","lat":39.42433,"lng":-93.75754,"zip":"64680","miles_from_dt":29.2},{"city":"Leawood","state_name":"Kansas","lat":38.92422,"lng":-94.6363,"zip":"66211","miles_from_dt":29.3},{"city":"Kansas City","state_name":"Missouri","lat":38.88046,"lng":-94.59652,"zip":"64145","miles_from_dt":29.45},{"city":"Mission","state_name":"Kansas","lat":38.96903,"lng":-94.67614,"zip":"66201","miles_from_dt":29.58},{"city":"Shawnee","state_name":"Kansas","lat":39.0216,"lng":-94.70558,"zip":"66203","miles_from_dt":29.62},{"city":"Kansas City","state_name":"Missouri","lat":39.33674,"lng":-94.68922,"zip":"64163","miles_from_dt":29.63}],"targetCityZipCode":"64088","targetCityState":"Missouri"},"__N_SSG":true}