{"pageProps":{"stateName":"Missouri","cityName":"south-greenfield","nearbyCities":[{"city":"Miller","state_name":"Missouri","lat":37.22862,"lng":-93.84574,"zip":"65707","miles_from_dt":6.83},{"city":"Everton","state_name":"Missouri","lat":37.33511,"lng":-93.7039,"zip":"65646","miles_from_dt":7.43},{"city":"Greenfield","state_name":"Missouri","lat":37.46095,"lng":-93.82722,"zip":"65661","miles_from_dt":9.23},{"city":"Lockwood","state_name":"Missouri","lat":37.41722,"lng":-93.97293,"zip":"65682","miles_from_dt":9.65},{"city":"La Russell","state_name":"Missouri","lat":37.18061,"lng":-93.99523,"zip":"64848","miles_from_dt":13.31},{"city":"Ash Grove","state_name":"Missouri","lat":37.27348,"lng":-93.60367,"zip":"65604","miles_from_dt":13.46},{"city":"Golden City","state_name":"Missouri","lat":37.36497,"lng":-94.10017,"zip":"64748","miles_from_dt":14.64},{"city":"Arcola","state_name":"Missouri","lat":37.54574,"lng":-93.86072,"zip":"65603","miles_from_dt":15.11},{"city":"Mount Vernon","state_name":"Missouri","lat":37.10964,"lng":-93.80645,"zip":"65712","miles_from_dt":15.12},{"city":"Halltown","state_name":"Missouri","lat":37.19728,"lng":-93.61732,"zip":"65664","miles_from_dt":15.13},{"city":"Dadeville","state_name":"Missouri","lat":37.53487,"lng":-93.71812,"zip":"65635","miles_from_dt":15.76},{"city":"Stotts City","state_name":"Missouri","lat":37.0981,"lng":-93.96315,"zip":"65756","miles_from_dt":17.25},{"city":"Walnut Grove","state_name":"Missouri","lat":37.42165,"lng":-93.5456,"zip":"65770","miles_from_dt":17.38},{"city":"Bois D Arc","state_name":"Missouri","lat":37.21897,"lng":-93.54694,"zip":"65612","miles_from_dt":17.72},{"city":"Avilla","state_name":"Missouri","lat":37.1938,"lng":-94.12982,"zip":"64833","miles_from_dt":18.52},{"city":"Morrisville","state_name":"Missouri","lat":37.48124,"lng":-93.53712,"zip":"65645","miles_from_dt":19.68},{"city":"Aldrich","state_name":"Missouri","lat":37.53155,"lng":-93.5869,"zip":"65601","miles_from_dt":19.74},{"city":"Reeds","state_name":"Missouri","lat":37.15822,"lng":-94.14703,"zip":"64859","miles_from_dt":20.63},{"city":"Freistatt","state_name":"Missouri","lat":37.02164,"lng":-93.8975,"zip":"65654","miles_from_dt":21.34},{"city":"Sarcoxie","state_name":"Missouri","lat":37.10128,"lng":-94.11469,"zip":"64862","miles_from_dt":21.8},{"city":"Jerico Springs","state_name":"Missouri","lat":37.61931,"lng":-94.01462,"zip":"64756","miles_from_dt":22.34},{"city":"Republic","state_name":"Missouri","lat":37.13503,"lng":-93.49424,"zip":"65738","miles_from_dt":23.16},{"city":"Willard","state_name":"Missouri","lat":37.35035,"lng":-93.41778,"zip":"65781","miles_from_dt":23.22},{"city":"Fair Play","state_name":"Missouri","lat":37.621,"lng":-93.61839,"zip":"65649","miles_from_dt":23.58},{"city":"Marionville","state_name":"Missouri","lat":37.02607,"lng":-93.60835,"zip":"65705","miles_from_dt":24.35},{"city":"Wentworth","state_name":"Missouri","lat":37.01565,"lng":-94.05358,"zip":"64873","miles_from_dt":24.56},{"city":"Milford","state_name":"Missouri","lat":37.58617,"lng":-94.15551,"zip":"64766","miles_from_dt":24.95},{"city":"Morrisville","state_name":"Missouri","lat":37.48707,"lng":-93.42099,"zip":"65710","miles_from_dt":25.47},{"city":"Stockton","state_name":"Missouri","lat":37.70296,"lng":-93.82338,"zip":"65785","miles_from_dt":25.91},{"city":"Jasper","state_name":"Missouri","lat":37.33685,"lng":-94.31112,"zip":"64755","miles_from_dt":26.04},{"city":"Billings","state_name":"Missouri","lat":37.03897,"lng":-93.52986,"zip":"65610","miles_from_dt":26.18},{"city":"Carthage","state_name":"Missouri","lat":37.18886,"lng":-94.28898,"zip":"64836","miles_from_dt":26.61},{"city":"Lamar","state_name":"Missouri","lat":37.52655,"lng":-94.26775,"zip":"64759","miles_from_dt":27.32},{"city":"Springfield","state_name":"Missouri","lat":37.20586,"lng":-93.3548,"zip":"65890","miles_from_dt":27.94},{"city":"Springfield","state_name":"Missouri","lat":37.21048,"lng":-93.35167,"zip":"65802","miles_from_dt":28.01},{"city":"Pierce City","state_name":"Missouri","lat":36.95635,"lng":-94.04648,"zip":"65723","miles_from_dt":28.05},{"city":"Verona","state_name":"Missouri","lat":36.91676,"lng":-93.79511,"zip":"65769","miles_from_dt":28.42},{"city":"Brighton","state_name":"Missouri","lat":37.4376,"lng":-93.34063,"zip":"65617","miles_from_dt":28.43},{"city":"Brookline","state_name":"Missouri","lat":37.12312,"lng":-93.38864,"zip":"65619","miles_from_dt":28.53},{"city":"Monett","state_name":"Missouri","lat":36.91048,"lng":-93.90899,"zip":"65708","miles_from_dt":29.01},{"city":"Springfield","state_name":"Missouri","lat":37.25481,"lng":-93.31533,"zip":"65805","miles_from_dt":29.25},{"city":"Dunnegan","state_name":"Missouri","lat":37.69956,"lng":-93.57165,"zip":"65640","miles_from_dt":29.55}],"targetCityZipCode":"65752","targetCityState":"Missouri"},"__N_SSG":true}