{"pageProps":{"stateName":"Missouri","cityName":"steele","nearbyCities":[{"city":"Holland","state_name":"Missouri","lat":36.05834,"lng":-89.86738,"zip":"63853","miles_from_dt":1.4},{"city":"Cooter","state_name":"Missouri","lat":36.04748,"lng":-89.8097,"zip":"63839","miles_from_dt":2.95},{"city":"Braggadocio","state_name":"Missouri","lat":36.18361,"lng":-89.84486,"zip":"63826","miles_from_dt":7.58},{"city":"Deering","state_name":"Missouri","lat":36.19113,"lng":-89.88426,"zip":"63840","miles_from_dt":8.3},{"city":"Gobler","state_name":"Missouri","lat":36.13287,"lng":-89.99109,"zip":"63849","miles_from_dt":8.83},{"city":"Rives","state_name":"Missouri","lat":36.09599,"lng":-90.0148,"zip":"63875","miles_from_dt":9.28},{"city":"Caruthersville","state_name":"Missouri","lat":36.14065,"lng":-89.6871,"zip":"63830","miles_from_dt":10.27},{"city":"Gosnell","state_name":"Arkansas","lat":35.96158,"lng":-89.97474,"zip":"72319","miles_from_dt":10.38},{"city":"Blytheville","state_name":"Arkansas","lat":35.92993,"lng":-89.9169,"zip":"72316","miles_from_dt":10.58},{"city":"Armorel","state_name":"Arkansas","lat":35.91768,"lng":-89.79886,"zip":"72310","miles_from_dt":11.15},{"city":"Blytheville","state_name":"Arkansas","lat":35.90093,"lng":-89.9029,"zip":"72315","miles_from_dt":12.26},{"city":"Hornersville","state_name":"Missouri","lat":36.05332,"lng":-90.07123,"zip":"63855","miles_from_dt":12.4},{"city":"Bragg City","state_name":"Missouri","lat":36.26133,"lng":-89.89226,"zip":"63827","miles_from_dt":13.13},{"city":"Hayti","state_name":"Missouri","lat":36.25762,"lng":-89.72352,"zip":"63851","miles_from_dt":14.55},{"city":"Finley","state_name":"Tennessee","lat":35.99942,"lng":-89.59981,"zip":"38030","miles_from_dt":14.98},{"city":"Kennett","state_name":"Missouri","lat":36.22402,"lng":-90.04612,"zip":"63857","miles_from_dt":15.04},{"city":"Lenox","state_name":"Tennessee","lat":36.06499,"lng":-89.55569,"zip":"38047","miles_from_dt":16.55},{"city":"Senath","state_name":"Missouri","lat":36.13206,"lng":-90.16487,"zip":"63876","miles_from_dt":18.01},{"city":"Burdette","state_name":"Arkansas","lat":35.8166,"lng":-89.93977,"zip":"72321","miles_from_dt":18.41},{"city":"Dell","state_name":"Arkansas","lat":35.85608,"lng":-90.04159,"zip":"72426","miles_from_dt":18.42},{"city":"Luxora","state_name":"Arkansas","lat":35.79446,"lng":-89.87723,"zip":"72358","miles_from_dt":19.31},{"city":"Wardell","state_name":"Missouri","lat":36.35752,"lng":-89.80945,"zip":"63879","miles_from_dt":19.7},{"city":"Whiteoak","state_name":"Missouri","lat":36.32986,"lng":-90.02585,"zip":"63880","miles_from_dt":20.18},{"city":"Ridgely","state_name":"Tennessee","lat":36.20295,"lng":-89.52142,"zip":"38080","miles_from_dt":20.48},{"city":"Arbyrd","state_name":"Missouri","lat":36.04878,"lng":-90.23963,"zip":"63821","miles_from_dt":21.81},{"city":"Holcomb","state_name":"Missouri","lat":36.36748,"lng":-90.01435,"zip":"63852","miles_from_dt":22.21},{"city":"Leachville","state_name":"Arkansas","lat":35.94375,"lng":-90.22787,"zip":"72438","miles_from_dt":22.93},{"city":"Bogota","state_name":"Tennessee","lat":36.16422,"lng":-89.43925,"zip":"38007","miles_from_dt":23.87},{"city":"Halls","state_name":"Tennessee","lat":35.88185,"lng":-89.48065,"zip":"38040","miles_from_dt":24.62},{"city":"Manila","state_name":"Arkansas","lat":35.82458,"lng":-90.17948,"zip":"72442","miles_from_dt":25.18},{"city":"Gideon","state_name":"Missouri","lat":36.44053,"lng":-89.88219,"zip":"63848","miles_from_dt":25.35},{"city":"Greenway","state_name":"Arkansas","lat":36.336,"lng":-90.17366,"zip":"72430","miles_from_dt":25.53},{"city":"Ripley","state_name":"Tennessee","lat":35.74598,"lng":-89.63412,"zip":"38063","miles_from_dt":25.67},{"city":"Cardwell","state_name":"Missouri","lat":36.03652,"lng":-90.31173,"zip":"63829","miles_from_dt":25.91},{"city":"Dyersburg","state_name":"Tennessee","lat":36.03743,"lng":-89.38511,"zip":"38024","miles_from_dt":26.21},{"city":"Dyersburg","state_name":"Tennessee","lat":36.03608,"lng":-89.38331,"zip":"38025","miles_from_dt":26.32},{"city":"Portageville","state_name":"Missouri","lat":36.42791,"lng":-89.65965,"zip":"63873","miles_from_dt":26.66},{"city":"Clarkton","state_name":"Missouri","lat":36.44907,"lng":-89.98023,"zip":"63837","miles_from_dt":26.86},{"city":"Wynnburg","state_name":"Tennessee","lat":36.32852,"lng":-89.4744,"zip":"38077","miles_from_dt":27.42},{"city":"Gibson","state_name":"Missouri","lat":36.44271,"lng":-90.03474,"zip":"63847","miles_from_dt":27.43},{"city":"Rector","state_name":"Arkansas","lat":36.26679,"lng":-90.28254,"zip":"72461","miles_from_dt":27.54},{"city":"Monette","state_name":"Arkansas","lat":35.9102,"lng":-90.33428,"zip":"72447","miles_from_dt":29.32},{"city":"Tallapoosa","state_name":"Missouri","lat":36.50302,"lng":-89.82234,"zip":"63878","miles_from_dt":29.64},{"city":"Osceola","state_name":"Arkansas","lat":35.68443,"lng":-90.07734,"zip":"72370","miles_from_dt":29.69}],"targetCityZipCode":"63877","targetCityState":"Missouri"},"__N_SSG":true}