{"pageProps":{"stateName":"Missouri","cityName":"stover","nearbyCities":[{"city":"Versailles","state_name":"Missouri","lat":38.43574,"lng":-92.85119,"zip":"65084","miles_from_dt":9.35},{"city":"Cole Camp","state_name":"Missouri","lat":38.43239,"lng":-93.18535,"zip":"65325","miles_from_dt":10.02},{"city":"Mora","state_name":"Missouri","lat":38.54111,"lng":-93.1254,"zip":"65345","miles_from_dt":12.45},{"city":"Gravois Mills","state_name":"Missouri","lat":38.23845,"lng":-92.85749,"zip":"65037","miles_from_dt":13.09},{"city":"Lincoln","state_name":"Missouri","lat":38.36227,"lng":-93.29523,"zip":"65338","miles_from_dt":15.52},{"city":"Fortuna","state_name":"Missouri","lat":38.55637,"lng":-92.82183,"zip":"65034","miles_from_dt":15.66},{"city":"Florence","state_name":"Missouri","lat":38.60937,"lng":-92.96132,"zip":"65329","miles_from_dt":15.73},{"city":"Laurie","state_name":"Missouri","lat":38.19973,"lng":-92.83335,"zip":"65038","miles_from_dt":16},{"city":"Barnett","state_name":"Missouri","lat":38.39493,"lng":-92.70815,"zip":"65011","miles_from_dt":16.45},{"city":"Edwards","state_name":"Missouri","lat":38.16271,"lng":-93.1458,"zip":"65326","miles_from_dt":16.98},{"city":"Rocky Mount","state_name":"Missouri","lat":38.26635,"lng":-92.72178,"zip":"65072","miles_from_dt":17.7},{"city":"Climax Springs","state_name":"Missouri","lat":38.11104,"lng":-92.99997,"zip":"65324","miles_from_dt":18.89},{"city":"Ionia","state_name":"Missouri","lat":38.51338,"lng":-93.32667,"zip":"65335","miles_from_dt":19.29},{"city":"Smithton","state_name":"Missouri","lat":38.65557,"lng":-93.10038,"zip":"65350","miles_from_dt":19.3},{"city":"Syracuse","state_name":"Missouri","lat":38.64841,"lng":-92.88786,"zip":"65354","miles_from_dt":19.37},{"city":"Latham","state_name":"Missouri","lat":38.5305,"lng":-92.68867,"zip":"65050","miles_from_dt":20.16},{"city":"Sunrise Beach","state_name":"Missouri","lat":38.15283,"lng":-92.75225,"zip":"65079","miles_from_dt":21.3},{"city":"Tipton","state_name":"Missouri","lat":38.64086,"lng":-92.78424,"zip":"65081","miles_from_dt":21.52},{"city":"Lake Ozark","state_name":"Missouri","lat":38.20127,"lng":-92.67067,"zip":"65049","miles_from_dt":22.41},{"city":"Roach","state_name":"Missouri","lat":38.07306,"lng":-92.89213,"zip":"65787","miles_from_dt":22.45},{"city":"Otterville","state_name":"Missouri","lat":38.70963,"lng":-92.98344,"zip":"65348","miles_from_dt":22.46},{"city":"Warsaw","state_name":"Missouri","lat":38.22137,"lng":-93.37144,"zip":"65355","miles_from_dt":22.61},{"city":"High Point","state_name":"Missouri","lat":38.47859,"lng":-92.6061,"zip":"65042","miles_from_dt":22.89},{"city":"Eldon","state_name":"Missouri","lat":38.32105,"lng":-92.57099,"zip":"65026","miles_from_dt":24.29},{"city":"Sedalia","state_name":"Missouri","lat":38.69922,"lng":-93.22104,"zip":"65301","miles_from_dt":24.5},{"city":"Sedalia","state_name":"Missouri","lat":38.70819,"lng":-93.22234,"zip":"65302","miles_from_dt":25.08},{"city":"Osage Beach","state_name":"Missouri","lat":38.13462,"lng":-92.66593,"zip":"65065","miles_from_dt":25.48},{"city":"Clarksburg","state_name":"Missouri","lat":38.66618,"lng":-92.68119,"zip":"65025","miles_from_dt":26.38},{"city":"Cross Timbers","state_name":"Missouri","lat":38.02355,"lng":-93.18827,"zip":"65634","miles_from_dt":26.72},{"city":"Green Ridge","state_name":"Missouri","lat":38.61973,"lng":-93.41324,"zip":"65332","miles_from_dt":27.17},{"city":"Kaiser","state_name":"Missouri","lat":38.15483,"lng":-92.57774,"zip":"65047","miles_from_dt":28.39},{"city":"Windsor","state_name":"Missouri","lat":38.51989,"lng":-93.51334,"zip":"65360","miles_from_dt":28.81},{"city":"Macks Creek","state_name":"Missouri","lat":37.96715,"lng":-92.96516,"zip":"65786","miles_from_dt":28.91},{"city":"Camdenton","state_name":"Missouri","lat":38.00517,"lng":-92.78193,"zip":"65020","miles_from_dt":28.99},{"city":"Olean","state_name":"Missouri","lat":38.40634,"lng":-92.47664,"zip":"65064","miles_from_dt":29.04},{"city":"California","state_name":"Missouri","lat":38.62038,"lng":-92.56314,"zip":"65018","miles_from_dt":29.21},{"city":"McGirk","state_name":"Missouri","lat":38.62766,"lng":-92.5661,"zip":"65055","miles_from_dt":29.36},{"city":"Russellville","state_name":"Missouri","lat":38.47967,"lng":-92.47306,"zip":"65074","miles_from_dt":29.9},{"city":"Bunceton","state_name":"Missouri","lat":38.78078,"lng":-92.78438,"zip":"65237","miles_from_dt":29.94}],"targetCityZipCode":"65078","targetCityState":"Missouri"},"__N_SSG":true}