{"pageProps":{"stateName":"Missouri","cityName":"syracuse","nearbyCities":[{"city":"Florence","state_name":"Missouri","lat":38.60937,"lng":-92.96132,"zip":"65329","miles_from_dt":4.8},{"city":"Tipton","state_name":"Missouri","lat":38.64086,"lng":-92.78424,"zip":"65081","miles_from_dt":5.63},{"city":"Otterville","state_name":"Missouri","lat":38.70963,"lng":-92.98344,"zip":"65348","miles_from_dt":6.67},{"city":"Fortuna","state_name":"Missouri","lat":38.55637,"lng":-92.82183,"zip":"65034","miles_from_dt":7.29},{"city":"Bunceton","state_name":"Missouri","lat":38.78078,"lng":-92.78438,"zip":"65237","miles_from_dt":10.71},{"city":"Clarksburg","state_name":"Missouri","lat":38.66618,"lng":-92.68119,"zip":"65025","miles_from_dt":11.24},{"city":"Smithton","state_name":"Missouri","lat":38.65557,"lng":-93.10038,"zip":"65350","miles_from_dt":11.51},{"city":"Latham","state_name":"Missouri","lat":38.5305,"lng":-92.68867,"zip":"65050","miles_from_dt":13.51},{"city":"Pilot Grove","state_name":"Missouri","lat":38.84581,"lng":-92.95498,"zip":"65276","miles_from_dt":14.09},{"city":"Versailles","state_name":"Missouri","lat":38.43574,"lng":-92.85119,"zip":"65084","miles_from_dt":14.8},{"city":"Mora","state_name":"Missouri","lat":38.54111,"lng":-93.1254,"zip":"65345","miles_from_dt":14.84},{"city":"McGirk","state_name":"Missouri","lat":38.62766,"lng":-92.5661,"zip":"65055","miles_from_dt":17.47},{"city":"California","state_name":"Missouri","lat":38.62038,"lng":-92.56314,"zip":"65018","miles_from_dt":17.67},{"city":"Sedalia","state_name":"Missouri","lat":38.69922,"lng":-93.22104,"zip":"65301","miles_from_dt":18.35},{"city":"Sedalia","state_name":"Missouri","lat":38.70819,"lng":-93.22234,"zip":"65302","miles_from_dt":18.55},{"city":"High Point","state_name":"Missouri","lat":38.47859,"lng":-92.6061,"zip":"65042","miles_from_dt":19.24},{"city":"Stover","state_name":"Missouri","lat":38.38473,"lng":-93.01085,"zip":"65078","miles_from_dt":19.37},{"city":"Prairie Home","state_name":"Missouri","lat":38.82757,"lng":-92.59909,"zip":"65068","miles_from_dt":19.9},{"city":"Barnett","state_name":"Missouri","lat":38.39493,"lng":-92.70815,"zip":"65011","miles_from_dt":20.01},{"city":"Boonville","state_name":"Missouri","lat":38.91528,"lng":-92.72035,"zip":"65233","miles_from_dt":20.51},{"city":"Cole Camp","state_name":"Missouri","lat":38.43239,"lng":-93.18535,"zip":"65325","miles_from_dt":21.95},{"city":"Blackwater","state_name":"Missouri","lat":38.9729,"lng":-92.95535,"zip":"65322","miles_from_dt":22.68},{"city":"Hughesville","state_name":"Missouri","lat":38.8348,"lng":-93.24558,"zip":"65334","miles_from_dt":23.21},{"city":"Jamestown","state_name":"Missouri","lat":38.77658,"lng":-92.47889,"zip":"65046","miles_from_dt":23.81},{"city":"Nelson","state_name":"Missouri","lat":38.98453,"lng":-93.0495,"zip":"65347","miles_from_dt":24.77},{"city":"Russellville","state_name":"Missouri","lat":38.47967,"lng":-92.47306,"zip":"65074","miles_from_dt":25.3},{"city":"Ionia","state_name":"Missouri","lat":38.51338,"lng":-93.32667,"zip":"65335","miles_from_dt":25.52},{"city":"Wooldridge","state_name":"Missouri","lat":38.88443,"lng":-92.51953,"zip":"65287","miles_from_dt":25.7},{"city":"Centertown","state_name":"Missouri","lat":38.65274,"lng":-92.39915,"zip":"65023","miles_from_dt":26.44},{"city":"Franklin","state_name":"Missouri","lat":39.03524,"lng":-92.83991,"zip":"65250","miles_from_dt":26.81},{"city":"New Franklin","state_name":"Missouri","lat":39.01342,"lng":-92.68321,"zip":"65274","miles_from_dt":27.49},{"city":"Olean","state_name":"Missouri","lat":38.40634,"lng":-92.47664,"zip":"65064","miles_from_dt":27.84},{"city":"Rocky Mount","state_name":"Missouri","lat":38.26635,"lng":-92.72178,"zip":"65072","miles_from_dt":27.85},{"city":"Gravois Mills","state_name":"Missouri","lat":38.23845,"lng":-92.85749,"zip":"65037","miles_from_dt":28.33},{"city":"Eldon","state_name":"Missouri","lat":38.32105,"lng":-92.57099,"zip":"65026","miles_from_dt":28.37},{"city":"Green Ridge","state_name":"Missouri","lat":38.61973,"lng":-93.41324,"zip":"65332","miles_from_dt":28.49},{"city":"Houstonia","state_name":"Missouri","lat":38.90687,"lng":-93.30724,"zip":"65333","miles_from_dt":28.82},{"city":"Arrow Rock","state_name":"Missouri","lat":39.06606,"lng":-92.94415,"zip":"65320","miles_from_dt":28.97},{"city":"Lohman","state_name":"Missouri","lat":38.54132,"lng":-92.36966,"zip":"65053","miles_from_dt":29.01},{"city":"Lincoln","state_name":"Missouri","lat":38.36227,"lng":-93.29523,"zip":"65338","miles_from_dt":29.61}],"targetCityZipCode":"65354","targetCityState":"Missouri"},"__N_SSG":true}