{"pageProps":{"stateName":"Missouri","cityName":"versailles","nearbyCities":[{"city":"Barnett","state_name":"Missouri","lat":38.39493,"lng":-92.70815,"zip":"65011","miles_from_dt":8.26},{"city":"Fortuna","state_name":"Missouri","lat":38.55637,"lng":-92.82183,"zip":"65034","miles_from_dt":8.47},{"city":"Stover","state_name":"Missouri","lat":38.38473,"lng":-93.01085,"zip":"65078","miles_from_dt":9.35},{"city":"Latham","state_name":"Missouri","lat":38.5305,"lng":-92.68867,"zip":"65050","miles_from_dt":10.97},{"city":"Florence","state_name":"Missouri","lat":38.60937,"lng":-92.96132,"zip":"65329","miles_from_dt":13.38},{"city":"Gravois Mills","state_name":"Missouri","lat":38.23845,"lng":-92.85749,"zip":"65037","miles_from_dt":13.61},{"city":"High Point","state_name":"Missouri","lat":38.47859,"lng":-92.6061,"zip":"65042","miles_from_dt":13.62},{"city":"Rocky Mount","state_name":"Missouri","lat":38.26635,"lng":-92.72178,"zip":"65072","miles_from_dt":13.63},{"city":"Tipton","state_name":"Missouri","lat":38.64086,"lng":-92.78424,"zip":"65081","miles_from_dt":14.61},{"city":"Syracuse","state_name":"Missouri","lat":38.64841,"lng":-92.88786,"zip":"65354","miles_from_dt":14.8},{"city":"Laurie","state_name":"Missouri","lat":38.19973,"lng":-92.83335,"zip":"65038","miles_from_dt":16.31},{"city":"Mora","state_name":"Missouri","lat":38.54111,"lng":-93.1254,"zip":"65345","miles_from_dt":16.55},{"city":"Eldon","state_name":"Missouri","lat":38.32105,"lng":-92.57099,"zip":"65026","miles_from_dt":17.15},{"city":"Cole Camp","state_name":"Missouri","lat":38.43239,"lng":-93.18535,"zip":"65325","miles_from_dt":18.13},{"city":"Clarksburg","state_name":"Missouri","lat":38.66618,"lng":-92.68119,"zip":"65025","miles_from_dt":18.37},{"city":"Lake Ozark","state_name":"Missouri","lat":38.20127,"lng":-92.67067,"zip":"65049","miles_from_dt":18.91},{"city":"California","state_name":"Missouri","lat":38.62038,"lng":-92.56314,"zip":"65018","miles_from_dt":20.14},{"city":"Otterville","state_name":"Missouri","lat":38.70963,"lng":-92.98344,"zip":"65348","miles_from_dt":20.2},{"city":"Sunrise Beach","state_name":"Missouri","lat":38.15283,"lng":-92.75225,"zip":"65079","miles_from_dt":20.24},{"city":"Smithton","state_name":"Missouri","lat":38.65557,"lng":-93.10038,"zip":"65350","miles_from_dt":20.3},{"city":"McGirk","state_name":"Missouri","lat":38.62766,"lng":-92.5661,"zip":"65055","miles_from_dt":20.34},{"city":"Olean","state_name":"Missouri","lat":38.40634,"lng":-92.47664,"zip":"65064","miles_from_dt":20.43},{"city":"Russellville","state_name":"Missouri","lat":38.47967,"lng":-92.47306,"zip":"65074","miles_from_dt":20.73},{"city":"Osage Beach","state_name":"Missouri","lat":38.13462,"lng":-92.66593,"zip":"65065","miles_from_dt":23.08},{"city":"Climax Springs","state_name":"Missouri","lat":38.11104,"lng":-92.99997,"zip":"65324","miles_from_dt":23.81},{"city":"Bunceton","state_name":"Missouri","lat":38.78078,"lng":-92.78438,"zip":"65237","miles_from_dt":24.07},{"city":"Kaiser","state_name":"Missouri","lat":38.15483,"lng":-92.57774,"zip":"65047","miles_from_dt":24.42},{"city":"Lincoln","state_name":"Missouri","lat":38.36227,"lng":-93.29523,"zip":"65338","miles_from_dt":24.63},{"city":"Edwards","state_name":"Missouri","lat":38.16271,"lng":-93.1458,"zip":"65326","miles_from_dt":24.72},{"city":"Roach","state_name":"Missouri","lat":38.07306,"lng":-92.89213,"zip":"65787","miles_from_dt":25.11},{"city":"Ionia","state_name":"Missouri","lat":38.51338,"lng":-93.32667,"zip":"65335","miles_from_dt":26.33},{"city":"Eugene","state_name":"Missouri","lat":38.34024,"lng":-92.37942,"zip":"65032","miles_from_dt":26.44},{"city":"Sedalia","state_name":"Missouri","lat":38.69922,"lng":-93.22104,"zip":"65301","miles_from_dt":27.05},{"city":"Lohman","state_name":"Missouri","lat":38.54132,"lng":-92.36966,"zip":"65053","miles_from_dt":27.1},{"city":"Tuscumbia","state_name":"Missouri","lat":38.22243,"lng":-92.42632,"zip":"65082","miles_from_dt":27.37},{"city":"Sedalia","state_name":"Missouri","lat":38.70819,"lng":-93.22234,"zip":"65302","miles_from_dt":27.52},{"city":"Linn Creek","state_name":"Missouri","lat":38.05068,"lng":-92.65568,"zip":"65052","miles_from_dt":28.61},{"city":"Centertown","state_name":"Missouri","lat":38.65274,"lng":-92.39915,"zip":"65023","miles_from_dt":28.7},{"city":"Pilot Grove","state_name":"Missouri","lat":38.84581,"lng":-92.95498,"zip":"65276","miles_from_dt":28.84},{"city":"Henley","state_name":"Missouri","lat":38.36367,"lng":-92.31252,"zip":"65040","miles_from_dt":29.66},{"city":"Camdenton","state_name":"Missouri","lat":38.00517,"lng":-92.78193,"zip":"65020","miles_from_dt":29.94}],"targetCityZipCode":"65084","targetCityState":"Missouri"},"__N_SSG":true}