{"pageProps":{"stateName":"Missouri","cityName":"warrenton","nearbyCities":[{"city":"Truesdale","state_name":"Missouri","lat":38.81262,"lng":-91.12205,"zip":"63380","miles_from_dt":3.86},{"city":"Jonesburg","state_name":"Missouri","lat":38.86041,"lng":-91.31186,"zip":"63351","miles_from_dt":7.38},{"city":"Wright City","state_name":"Missouri","lat":38.80499,"lng":-91.0413,"zip":"63390","miles_from_dt":8.2},{"city":"High Hill","state_name":"Missouri","lat":38.90243,"lng":-91.35686,"zip":"63350","miles_from_dt":11},{"city":"Treloar","state_name":"Missouri","lat":38.64145,"lng":-91.18713,"zip":"63378","miles_from_dt":11.44},{"city":"Marthasville","state_name":"Missouri","lat":38.65518,"lng":-91.0947,"zip":"63357","miles_from_dt":11.76},{"city":"Hawk Point","state_name":"Missouri","lat":38.97979,"lng":-91.15083,"zip":"63349","miles_from_dt":12.12},{"city":"Truxton","state_name":"Missouri","lat":38.98237,"lng":-91.25429,"zip":"63381","miles_from_dt":12.52},{"city":"Berger","state_name":"Missouri","lat":38.64892,"lng":-91.31566,"zip":"63014","miles_from_dt":12.77},{"city":"Foristell","state_name":"Missouri","lat":38.78969,"lng":-90.94131,"zip":"63348","miles_from_dt":13.65},{"city":"New Florence","state_name":"Missouri","lat":38.88187,"lng":-91.45755,"zip":"63363","miles_from_dt":15.16},{"city":"Troy","state_name":"Missouri","lat":38.99817,"lng":-90.99037,"zip":"63379","miles_from_dt":17.12},{"city":"Bellflower","state_name":"Missouri","lat":39.0351,"lng":-91.32014,"zip":"63333","miles_from_dt":17.14},{"city":"New Haven","state_name":"Missouri","lat":38.55747,"lng":-91.24761,"zip":"63068","miles_from_dt":17.48},{"city":"Dutzow","state_name":"Missouri","lat":38.59481,"lng":-91.00131,"zip":"63342","miles_from_dt":17.95},{"city":"Flinthill","state_name":"Missouri","lat":38.85588,"lng":-90.86577,"zip":"63346","miles_from_dt":17.98},{"city":"Wentzville","state_name":"Missouri","lat":38.79732,"lng":-90.85649,"zip":"63385","miles_from_dt":18.19},{"city":"New Melle","state_name":"Missouri","lat":38.70961,"lng":-90.87334,"zip":"63365","miles_from_dt":18.54},{"city":"Moscow Mills","state_name":"Missouri","lat":38.93276,"lng":-90.88227,"zip":"63362","miles_from_dt":18.87},{"city":"Hermann","state_name":"Missouri","lat":38.64088,"lng":-91.47712,"zip":"65041","miles_from_dt":19.16},{"city":"Olney","state_name":"Missouri","lat":39.09786,"lng":-91.21228,"zip":"63370","miles_from_dt":20.07},{"city":"Washington","state_name":"Missouri","lat":38.53176,"lng":-91.05047,"zip":"63090","miles_from_dt":20.51},{"city":"Silex","state_name":"Missouri","lat":39.11016,"lng":-91.10053,"zip":"63377","miles_from_dt":21.48},{"city":"Lake Saint Louis","state_name":"Missouri","lat":38.77805,"lng":-90.79536,"zip":"63367","miles_from_dt":21.57},{"city":"Augusta","state_name":"Missouri","lat":38.60137,"lng":-90.89195,"zip":"63332","miles_from_dt":21.61},{"city":"Rhineland","state_name":"Missouri","lat":38.75573,"lng":-91.5966,"zip":"65069","miles_from_dt":22.07},{"city":"Montgomery City","state_name":"Missouri","lat":38.95802,"lng":-91.56056,"zip":"63361","miles_from_dt":22.37},{"city":"Defiance","state_name":"Missouri","lat":38.66493,"lng":-90.81783,"zip":"63341","miles_from_dt":22.53},{"city":"Old Monroe","state_name":"Missouri","lat":38.93758,"lng":-90.77766,"zip":"63369","miles_from_dt":24.14},{"city":"O'Fallon","state_name":"Missouri","lat":38.7516,"lng":-90.72895,"zip":"63368","miles_from_dt":25.36},{"city":"Middletown","state_name":"Missouri","lat":39.1564,"lng":-91.34652,"zip":"63359","miles_from_dt":25.46},{"city":"Gasconade","state_name":"Missouri","lat":38.67278,"lng":-91.63611,"zip":"65036","miles_from_dt":25.66},{"city":"O'Fallon","state_name":"Missouri","lat":38.85918,"lng":-90.71964,"zip":"63366","miles_from_dt":25.8},{"city":"Winfield","state_name":"Missouri","lat":38.99969,"lng":-90.76875,"zip":"63389","miles_from_dt":26.45},{"city":"Beaufort","state_name":"Missouri","lat":38.41776,"lng":-91.15182,"zip":"63013","miles_from_dt":26.96},{"city":"Labadie","state_name":"Missouri","lat":38.53254,"lng":-90.8382,"zip":"63055","miles_from_dt":26.97},{"city":"Gerald","state_name":"Missouri","lat":38.42497,"lng":-91.3165,"zip":"63037","miles_from_dt":27.2},{"city":"Saint Albans","state_name":"Missouri","lat":38.58367,"lng":-90.76933,"zip":"63073","miles_from_dt":27.62},{"city":"Whiteside","state_name":"Missouri","lat":39.18415,"lng":-91.01677,"zip":"63387","miles_from_dt":27.68},{"city":"Wellsville","state_name":"Missouri","lat":39.08678,"lng":-91.56349,"zip":"63384","miles_from_dt":27.74},{"city":"Morrison","state_name":"Missouri","lat":38.59773,"lng":-91.638,"zip":"65061","miles_from_dt":28.05},{"city":"Saint Charles","state_name":"Missouri","lat":38.70583,"lng":-90.68666,"zip":"63304","miles_from_dt":28.24},{"city":"Union","state_name":"Missouri","lat":38.41749,"lng":-91.01438,"zip":"63084","miles_from_dt":28.57},{"city":"Leslie","state_name":"Missouri","lat":38.38964,"lng":-91.22072,"zip":"63056","miles_from_dt":28.84},{"city":"Portland","state_name":"Missouri","lat":38.75365,"lng":-91.72369,"zip":"65067","miles_from_dt":28.88},{"city":"Gray Summit","state_name":"Missouri","lat":38.49532,"lng":-90.83527,"zip":"63039","miles_from_dt":28.94},{"city":"Villa Ridge","state_name":"Missouri","lat":38.45846,"lng":-90.88286,"zip":"63089","miles_from_dt":29.34},{"city":"Cottleville","state_name":"Missouri","lat":38.74696,"lng":-90.65396,"zip":"63338","miles_from_dt":29.41},{"city":"Foley","state_name":"Missouri","lat":39.0708,"lng":-90.76352,"zip":"63347","miles_from_dt":29.43}],"targetCityZipCode":"63383","targetCityState":"Missouri"},"__N_SSG":true}