{"pageProps":{"stateName":"Missouri","cityName":"wasola","nearbyCities":[{"city":"Noble","state_name":"Missouri","lat":36.73192,"lng":-92.57631,"zip":"65715","miles_from_dt":3.86},{"city":"Rockbridge","state_name":"Missouri","lat":36.79545,"lng":-92.40127,"zip":"65741","miles_from_dt":6.8},{"city":"Brixey","state_name":"Missouri","lat":36.75157,"lng":-92.38641,"zip":"65618","miles_from_dt":7.05},{"city":"Squires","state_name":"Missouri","lat":36.7996,"lng":-92.62858,"zip":"65755","miles_from_dt":7.08},{"city":"Thornfield","state_name":"Missouri","lat":36.68613,"lng":-92.65634,"zip":"65762","miles_from_dt":9.27},{"city":"Zanoni","state_name":"Missouri","lat":36.72588,"lng":-92.31538,"zip":"65784","miles_from_dt":11.17},{"city":"Gainesville","state_name":"Missouri","lat":36.60262,"lng":-92.42379,"zip":"65655","miles_from_dt":11.66},{"city":"Drury","state_name":"Missouri","lat":36.84319,"lng":-92.32418,"zip":"65638","miles_from_dt":12.11},{"city":"Isabella","state_name":"Missouri","lat":36.58187,"lng":-92.60531,"zip":"65676","miles_from_dt":13.02},{"city":"Ava","state_name":"Missouri","lat":36.90456,"lng":-92.66662,"zip":"65608","miles_from_dt":13.34},{"city":"Hardenville","state_name":"Missouri","lat":36.57829,"lng":-92.36065,"zip":"65666","miles_from_dt":14.87},{"city":"Pontiac","state_name":"Missouri","lat":36.53842,"lng":-92.55661,"zip":"65729","miles_from_dt":15.16},{"city":"Tecumseh","state_name":"Missouri","lat":36.62236,"lng":-92.27943,"zip":"65760","miles_from_dt":15.91},{"city":"Dora","state_name":"Missouri","lat":36.76964,"lng":-92.20371,"zip":"65637","miles_from_dt":17.21},{"city":"Theodosia","state_name":"Missouri","lat":36.56974,"lng":-92.72561,"zip":"65761","miles_from_dt":17.41},{"city":"Vanzant","state_name":"Missouri","lat":36.92072,"lng":-92.26456,"zip":"65768","miles_from_dt":17.89},{"city":"Udall","state_name":"Missouri","lat":36.53933,"lng":-92.25948,"zip":"65766","miles_from_dt":20.52},{"city":"Bradleyville","state_name":"Missouri","lat":36.73739,"lng":-92.88684,"zip":"65614","miles_from_dt":20.77},{"city":"Macomb","state_name":"Missouri","lat":37.05726,"lng":-92.488,"zip":"65702","miles_from_dt":20.86},{"city":"Oakland","state_name":"Arkansas","lat":36.45195,"lng":-92.58963,"zip":"72661","miles_from_dt":21.36},{"city":"Norwood","state_name":"Missouri","lat":37.06017,"lng":-92.41472,"zip":"65717","miles_from_dt":21.71},{"city":"Pottersville","state_name":"Missouri","lat":36.69784,"lng":-92.11326,"zip":"65790","miles_from_dt":22.56},{"city":"Clarkridge","state_name":"Arkansas","lat":36.46386,"lng":-92.3172,"zip":"72623","miles_from_dt":22.88},{"city":"Rueter","state_name":"Missouri","lat":36.62449,"lng":-92.89337,"zip":"65744","miles_from_dt":22.96},{"city":"Protem","state_name":"Missouri","lat":36.53157,"lng":-92.85077,"zip":"65733","miles_from_dt":24.29},{"city":"Caulfield","state_name":"Missouri","lat":36.59088,"lng":-92.11697,"zip":"65626","miles_from_dt":24.77},{"city":"Bakersfield","state_name":"Missouri","lat":36.52593,"lng":-92.1609,"zip":"65609","miles_from_dt":25.18},{"city":"Midway","state_name":"Arkansas","lat":36.388,"lng":-92.47661,"zip":"72651","miles_from_dt":25.42},{"city":"Mansfield","state_name":"Missouri","lat":37.12657,"lng":-92.58323,"zip":"65704","miles_from_dt":25.88},{"city":"Gamaliel","state_name":"Arkansas","lat":36.45018,"lng":-92.23371,"zip":"72537","miles_from_dt":26.17},{"city":"Bull Shoals","state_name":"Arkansas","lat":36.3781,"lng":-92.58517,"zip":"72619","miles_from_dt":26.33},{"city":"Lakeview","state_name":"Arkansas","lat":36.37013,"lng":-92.54347,"zip":"72642","miles_from_dt":26.63},{"city":"Lead Hill","state_name":"Missouri","lat":36.93429,"lng":-92.94468,"zip":"72643","miles_from_dt":26.9},{"city":"Peel","state_name":"Arkansas","lat":36.41914,"lng":-92.77163,"zip":"72668","miles_from_dt":27.28},{"city":"Kissee Mills","state_name":"Missouri","lat":36.64518,"lng":-92.98551,"zip":"65680","miles_from_dt":27.3},{"city":"Oldfield","state_name":"Missouri","lat":36.95513,"lng":-92.95998,"zip":"65720","miles_from_dt":28.32},{"city":"Garrison","state_name":"Missouri","lat":36.83934,"lng":-93.01952,"zip":"65657","miles_from_dt":28.66},{"city":"Taneyville","state_name":"Missouri","lat":36.75762,"lng":-93.03167,"zip":"65759","miles_from_dt":28.76},{"city":"Chadwick","state_name":"Missouri","lat":36.89371,"lng":-93.00294,"zip":"65629","miles_from_dt":28.77},{"city":"Mountain Home","state_name":"Arkansas","lat":36.34292,"lng":-92.38603,"zip":"72653","miles_from_dt":29.32},{"city":"Mountain Home","state_name":"Arkansas","lat":36.33653,"lng":-92.38453,"zip":"72654","miles_from_dt":29.77}],"targetCityZipCode":"65773","targetCityState":"Missouri"},"__N_SSG":true}