{"pageProps":{"stateName":"Missouri","cityName":"wellsville","nearbyCities":[{"city":"Martinsburg","state_name":"Missouri","lat":39.08852,"lng":-91.69544,"zip":"65264","miles_from_dt":7.09},{"city":"Montgomery City","state_name":"Missouri","lat":38.95802,"lng":-91.56056,"zip":"63361","miles_from_dt":8.88},{"city":"Benton City","state_name":"Missouri","lat":39.15901,"lng":-91.75516,"zip":"65232","miles_from_dt":11.44},{"city":"Laddonia","state_name":"Missouri","lat":39.25097,"lng":-91.65526,"zip":"63352","miles_from_dt":12.35},{"city":"Middletown","state_name":"Missouri","lat":39.1564,"lng":-91.34652,"zip":"63359","miles_from_dt":12.61},{"city":"Farber","state_name":"Missouri","lat":39.27599,"lng":-91.57311,"zip":"63345","miles_from_dt":13.06},{"city":"Bellflower","state_name":"Missouri","lat":39.0351,"lng":-91.32014,"zip":"63333","miles_from_dt":13.56},{"city":"Rush Hill","state_name":"Missouri","lat":39.23487,"lng":-91.75048,"zip":"65280","miles_from_dt":14.33},{"city":"New Florence","state_name":"Missouri","lat":38.88187,"lng":-91.45755,"zip":"63363","miles_from_dt":15.24},{"city":"Vandalia","state_name":"Missouri","lat":39.31104,"lng":-91.49042,"zip":"63382","miles_from_dt":15.96},{"city":"High Hill","state_name":"Missouri","lat":38.90243,"lng":-91.35686,"zip":"63350","miles_from_dt":16.89},{"city":"Williamsburg","state_name":"Missouri","lat":38.88816,"lng":-91.74995,"zip":"63388","miles_from_dt":16.98},{"city":"Truxton","state_name":"Missouri","lat":38.98237,"lng":-91.25429,"zip":"63381","miles_from_dt":18.13},{"city":"Olney","state_name":"Missouri","lat":39.09786,"lng":-91.21228,"zip":"63370","miles_from_dt":18.9},{"city":"Auxvasse","state_name":"Missouri","lat":39.01773,"lng":-91.90803,"zip":"65231","miles_from_dt":19.13},{"city":"Mexico","state_name":"Missouri","lat":39.20531,"lng":-91.88728,"zip":"65265","miles_from_dt":19.22},{"city":"Curryville","state_name":"Missouri","lat":39.33673,"lng":-91.36384,"zip":"63339","miles_from_dt":20.3},{"city":"Jonesburg","state_name":"Missouri","lat":38.86041,"lng":-91.31186,"zip":"63351","miles_from_dt":20.67},{"city":"Kingdom City","state_name":"Missouri","lat":38.9548,"lng":-91.95285,"zip":"65262","miles_from_dt":22.84},{"city":"Rhineland","state_name":"Missouri","lat":38.75573,"lng":-91.5966,"zip":"65069","miles_from_dt":22.91},{"city":"Hawk Point","state_name":"Missouri","lat":38.97979,"lng":-91.15083,"zip":"63349","miles_from_dt":23.4},{"city":"Perry","state_name":"Missouri","lat":39.42279,"lng":-91.69977,"zip":"63462","miles_from_dt":24.3},{"city":"Portland","state_name":"Missouri","lat":38.75365,"lng":-91.72369,"zip":"65067","miles_from_dt":24.55},{"city":"Silex","state_name":"Missouri","lat":39.11016,"lng":-91.10053,"zip":"63377","miles_from_dt":24.94},{"city":"Bowling Green","state_name":"Missouri","lat":39.30747,"lng":-91.18838,"zip":"63334","miles_from_dt":25.24},{"city":"Santa Fe","state_name":"Missouri","lat":39.38975,"lng":-91.83302,"zip":"65282","miles_from_dt":25.41},{"city":"Steedman","state_name":"Missouri","lat":38.7691,"lng":-91.80305,"zip":"65077","miles_from_dt":25.43},{"city":"Thompson","state_name":"Missouri","lat":39.2067,"lng":-92.02056,"zip":"65285","miles_from_dt":25.91},{"city":"Warrenton","state_name":"Missouri","lat":38.80726,"lng":-91.19319,"zip":"63383","miles_from_dt":27.74},{"city":"Fulton","state_name":"Missouri","lat":38.84902,"lng":-91.97911,"zip":"65251","miles_from_dt":27.75},{"city":"Center","state_name":"Missouri","lat":39.50093,"lng":-91.54524,"zip":"63436","miles_from_dt":28.59},{"city":"Gasconade","state_name":"Missouri","lat":38.67278,"lng":-91.63611,"zip":"65036","miles_from_dt":28.83},{"city":"Frankford","state_name":"Missouri","lat":39.4766,"lng":-91.31575,"zip":"63441","miles_from_dt":29.99}],"targetCityZipCode":"63384","targetCityState":"Missouri"},"__N_SSG":true}