{"pageProps":{"stateName":"Missouri","cityName":"williamsville","nearbyCities":[{"city":"Mill Spring","state_name":"Missouri","lat":37.00828,"lng":-90.64916,"zip":"63952","miles_from_dt":10.36},{"city":"Wappapello","state_name":"Missouri","lat":36.96956,"lng":-90.26216,"zip":"63966","miles_from_dt":11.99},{"city":"Poplar Bluff","state_name":"Missouri","lat":36.77168,"lng":-90.45012,"zip":"63901","miles_from_dt":12.3},{"city":"Greenville","state_name":"Missouri","lat":37.10876,"lng":-90.36286,"zip":"63944","miles_from_dt":12.72},{"city":"Rombauer","state_name":"Missouri","lat":36.84406,"lng":-90.28149,"zip":"63962","miles_from_dt":13.02},{"city":"Poplar Bluff","state_name":"Missouri","lat":36.7556,"lng":-90.3952,"zip":"63902","miles_from_dt":14.07},{"city":"Ellsinore","state_name":"Missouri","lat":36.94403,"lng":-90.74907,"zip":"63937","miles_from_dt":15.05},{"city":"Lowndes","state_name":"Missouri","lat":37.10875,"lng":-90.26055,"zip":"63951","miles_from_dt":16.29},{"city":"Piedmont","state_name":"Missouri","lat":37.14218,"lng":-90.68903,"zip":"63957","miles_from_dt":17.75},{"city":"McGee","state_name":"Missouri","lat":37.05885,"lng":-90.18058,"zip":"63763","miles_from_dt":18.08},{"city":"Clubb","state_name":"Missouri","lat":37.20014,"lng":-90.37254,"zip":"63934","miles_from_dt":18.28},{"city":"Fisk","state_name":"Missouri","lat":36.77218,"lng":-90.22892,"zip":"63940","miles_from_dt":18.37},{"city":"Patterson","state_name":"Missouri","lat":37.21741,"lng":-90.51665,"zip":"63956","miles_from_dt":18.66},{"city":"Grandin","state_name":"Missouri","lat":36.84046,"lng":-90.79995,"zip":"63943","miles_from_dt":19.37},{"city":"Puxico","state_name":"Missouri","lat":36.96074,"lng":-90.12434,"zip":"63960","miles_from_dt":19.55},{"city":"Silva","state_name":"Missouri","lat":37.23954,"lng":-90.39662,"zip":"63964","miles_from_dt":20.55},{"city":"Fairdealing","state_name":"Missouri","lat":36.68456,"lng":-90.68253,"zip":"63939","miles_from_dt":21.48},{"city":"Dudley","state_name":"Missouri","lat":36.80731,"lng":-90.12979,"zip":"63936","miles_from_dt":21.57},{"city":"Harviell","state_name":"Missouri","lat":36.6381,"lng":-90.5524,"zip":"63945","miles_from_dt":21.82},{"city":"Gipsy","state_name":"Missouri","lat":37.1508,"lng":-90.16917,"zip":"63750","miles_from_dt":22},{"city":"Broseley","state_name":"Missouri","lat":36.6879,"lng":-90.24533,"zip":"63932","miles_from_dt":22.1},{"city":"Lodi","state_name":"Missouri","lat":37.26924,"lng":-90.43474,"zip":"63950","miles_from_dt":22.23},{"city":"Zalma","state_name":"Missouri","lat":37.12284,"lng":-90.12263,"zip":"63787","miles_from_dt":22.99},{"city":"Des Arc","state_name":"Missouri","lat":37.29542,"lng":-90.57549,"zip":"63636","miles_from_dt":24.52},{"city":"Naylor","state_name":"Missouri","lat":36.59134,"lng":-90.62995,"zip":"63953","miles_from_dt":26.06},{"city":"Oxly","state_name":"Missouri","lat":36.60211,"lng":-90.67864,"zip":"63955","miles_from_dt":26.38},{"city":"Neelyville","state_name":"Missouri","lat":36.56365,"lng":-90.47337,"zip":"63954","miles_from_dt":26.55},{"city":"Cascade","state_name":"Missouri","lat":37.3,"lng":-90.26832,"zip":"63632","miles_from_dt":26.83},{"city":"Vulcan","state_name":"Missouri","lat":37.30112,"lng":-90.697,"zip":"63675","miles_from_dt":27.17},{"city":"Sturdivant","state_name":"Missouri","lat":37.11369,"lng":-90.02788,"zip":"63782","miles_from_dt":27.32},{"city":"Qulin","state_name":"Missouri","lat":36.56848,"lng":-90.2749,"zip":"63961","miles_from_dt":28.52},{"city":"Bloomfield","state_name":"Missouri","lat":36.93033,"lng":-89.94432,"zip":"63825","miles_from_dt":29.52},{"city":"Glenallen","state_name":"Missouri","lat":37.2742,"lng":-90.12404,"zip":"63751","miles_from_dt":29.74}],"targetCityZipCode":"63967","targetCityState":"Missouri"},"__N_SSG":true}