{"pageProps":{"stateName":"Missouri","cityName":"williamstown","nearbyCities":[{"city":"Monticello","state_name":"Missouri","lat":40.17272,"lng":-91.70115,"zip":"63457","miles_from_dt":6.85},{"city":"Saint Patrick","state_name":"Missouri","lat":40.26627,"lng":-91.61751,"zip":"63466","miles_from_dt":8.54},{"city":"Wyaconda","state_name":"Missouri","lat":40.3473,"lng":-91.89674,"zip":"63474","miles_from_dt":9.06},{"city":"Kahoka","state_name":"Missouri","lat":40.39681,"lng":-91.72044,"zip":"63445","miles_from_dt":10.4},{"city":"Canton","state_name":"Missouri","lat":40.20299,"lng":-91.58267,"zip":"63435","miles_from_dt":10.88},{"city":"Lewistown","state_name":"Missouri","lat":40.09316,"lng":-91.78551,"zip":"63452","miles_from_dt":11.01},{"city":"La Belle","state_name":"Missouri","lat":40.09251,"lng":-91.90494,"zip":"63447","miles_from_dt":12.93},{"city":"Gorin","state_name":"Missouri","lat":40.35765,"lng":-92.00976,"zip":"63543","miles_from_dt":14.22},{"city":"Knox City","state_name":"Missouri","lat":40.13972,"lng":-92.0055,"zip":"63446","miles_from_dt":14.34},{"city":"Wayland","state_name":"Missouri","lat":40.4053,"lng":-91.57734,"zip":"63472","miles_from_dt":14.94},{"city":"Alexandria","state_name":"Missouri","lat":40.38972,"lng":-91.53958,"zip":"63430","miles_from_dt":15.75},{"city":"Rutledge","state_name":"Missouri","lat":40.30387,"lng":-92.07439,"zip":"63563","miles_from_dt":16.06},{"city":"Luray","state_name":"Missouri","lat":40.49511,"lng":-91.86495,"zip":"63453","miles_from_dt":17.35},{"city":"Ewing","state_name":"Missouri","lat":39.97551,"lng":-91.75376,"zip":"63440","miles_from_dt":19.16},{"city":"Revere","state_name":"Missouri","lat":40.52307,"lng":-91.6898,"zip":"63465","miles_from_dt":19.23},{"city":"Warsaw","state_name":"Illinois","lat":40.26867,"lng":-91.4061,"zip":"62379","miles_from_dt":19.69},{"city":"La Grange","state_name":"Missouri","lat":40.02168,"lng":-91.55416,"zip":"63448","miles_from_dt":19.86},{"city":"Arbela","state_name":"Missouri","lat":40.50058,"lng":-91.99551,"zip":"63432","miles_from_dt":20.6},{"city":"Durham","state_name":"Missouri","lat":39.96084,"lng":-91.68828,"zip":"63438","miles_from_dt":20.69},{"city":"Granger","state_name":"Missouri","lat":40.5036,"lng":-92.00379,"zip":"63442","miles_from_dt":21.02},{"city":"Edina","state_name":"Missouri","lat":40.14776,"lng":-92.16172,"zip":"63537","miles_from_dt":21.55},{"city":"Ursa","state_name":"Illinois","lat":40.1148,"lng":-91.40662,"zip":"62376","miles_from_dt":21.83},{"city":"Argyle","state_name":"Iowa","lat":40.5246,"lng":-91.56566,"zip":"52619","miles_from_dt":21.86},{"city":"Lima","state_name":"Illinois","lat":40.18836,"lng":-91.37126,"zip":"62348","miles_from_dt":21.97},{"city":"Keokuk","state_name":"Iowa","lat":40.44072,"lng":-91.43973,"zip":"52632","miles_from_dt":22.08},{"city":"Sutter","state_name":"Illinois","lat":40.23643,"lng":-91.35863,"zip":"62373","miles_from_dt":22.2},{"city":"Newark","state_name":"Missouri","lat":39.98751,"lng":-92.01745,"zip":"63458","miles_from_dt":22.26},{"city":"Maywood","state_name":"Missouri","lat":39.92389,"lng":-91.64897,"zip":"63454","miles_from_dt":23.69},{"city":"Montrose","state_name":"Iowa","lat":40.52763,"lng":-91.46409,"zip":"52639","miles_from_dt":25.19},{"city":"Baring","state_name":"Missouri","lat":40.30002,"lng":-92.25248,"zip":"63531","miles_from_dt":25.29},{"city":"Bethel","state_name":"Missouri","lat":39.90591,"lng":-91.9507,"zip":"63434","miles_from_dt":25.61},{"city":"Farmington","state_name":"Iowa","lat":40.63201,"lng":-91.72119,"zip":"52626","miles_from_dt":26.35},{"city":"Taylor","state_name":"Missouri","lat":39.92511,"lng":-91.50652,"zip":"63471","miles_from_dt":26.79},{"city":"Mount Sterling","state_name":"Iowa","lat":40.62378,"lng":-91.92979,"zip":"52573","miles_from_dt":26.83},{"city":"Memphis","state_name":"Missouri","lat":40.48458,"lng":-92.18698,"zip":"63555","miles_from_dt":26.87},{"city":"Hamilton","state_name":"Illinois","lat":40.42566,"lng":-91.30555,"zip":"62341","miles_from_dt":27.66},{"city":"Philadelphia","state_name":"Missouri","lat":39.84533,"lng":-91.75976,"zip":"63463","miles_from_dt":28.12},{"city":"Novelty","state_name":"Missouri","lat":40.00237,"lng":-92.21002,"zip":"63460","miles_from_dt":28.66},{"city":"Mendon","state_name":"Illinois","lat":40.11374,"lng":-91.26751,"zip":"62351","miles_from_dt":28.67},{"city":"Hurdland","state_name":"Missouri","lat":40.13492,"lng":-92.30651,"zip":"63547","miles_from_dt":29.12},{"city":"Basco","state_name":"Illinois","lat":40.31782,"lng":-91.2251,"zip":"62313","miles_from_dt":29.56},{"city":"Cantril","state_name":"Iowa","lat":40.62712,"lng":-92.05164,"zip":"52542","miles_from_dt":29.59},{"city":"Elvaston","state_name":"Illinois","lat":40.39598,"lng":-91.24912,"zip":"62334","miles_from_dt":29.63},{"city":"Nauvoo","state_name":"Illinois","lat":40.52087,"lng":-91.33305,"zip":"62354","miles_from_dt":29.9}],"targetCityZipCode":"63473","targetCityState":"Missouri"},"__N_SSG":true}