{"pageProps":{"stateName":"Minnesota","cityName":"alexandria","nearbyCities":[{"city":"Nelson","state_name":"Minnesota","lat":45.94007,"lng":-95.24031,"zip":"56355","miles_from_dt":8.67},{"city":"Garfield","state_name":"Minnesota","lat":45.96993,"lng":-95.50554,"zip":"56332","miles_from_dt":8.85},{"city":"Holmes City","state_name":"Minnesota","lat":45.80743,"lng":-95.57312,"zip":"56341","miles_from_dt":9.86},{"city":"Lowry","state_name":"Minnesota","lat":45.72373,"lng":-95.52456,"zip":"56349","miles_from_dt":12.04},{"city":"Carlos","state_name":"Minnesota","lat":46.00488,"lng":-95.22322,"zip":"56319","miles_from_dt":12.27},{"city":"Brandon","state_name":"Minnesota","lat":45.97996,"lng":-95.59211,"zip":"56315","miles_from_dt":12.34},{"city":"Osakis","state_name":"Minnesota","lat":45.87482,"lng":-95.12686,"zip":"56360","miles_from_dt":12.69},{"city":"Farwell","state_name":"Minnesota","lat":45.75893,"lng":-95.61336,"zip":"56327","miles_from_dt":13.26},{"city":"Miltona","state_name":"Minnesota","lat":46.06034,"lng":-95.27496,"zip":"56354","miles_from_dt":14.23},{"city":"Villard","state_name":"Minnesota","lat":45.70349,"lng":-95.20681,"zip":"56385","miles_from_dt":14.53},{"city":"West Union","state_name":"Minnesota","lat":45.79961,"lng":-95.08832,"zip":"56389","miles_from_dt":15.36},{"city":"Kensington","state_name":"Minnesota","lat":45.79088,"lng":-95.69765,"zip":"56343","miles_from_dt":15.84},{"city":"Evansville","state_name":"Minnesota","lat":46.02506,"lng":-95.68596,"zip":"56326","miles_from_dt":17.82},{"city":"Glenwood","state_name":"Minnesota","lat":45.58402,"lng":-95.34765,"zip":"56334","miles_from_dt":19.89},{"city":"Parkers Prairie","state_name":"Minnesota","lat":46.16146,"lng":-95.3351,"zip":"56361","miles_from_dt":20.27},{"city":"Hoffman","state_name":"Minnesota","lat":45.8258,"lng":-95.82129,"zip":"56339","miles_from_dt":21.05},{"city":"Sauk Centre","state_name":"Minnesota","lat":45.72308,"lng":-94.97982,"zip":"56378","miles_from_dt":22.27},{"city":"Eagle Bend","state_name":"Minnesota","lat":46.12448,"lng":-95.08966,"zip":"56446","miles_from_dt":22.73},{"city":"Starbuck","state_name":"Minnesota","lat":45.55523,"lng":-95.54669,"zip":"56381","miles_from_dt":23.06},{"city":"Cyrus","state_name":"Minnesota","lat":45.63321,"lng":-95.72586,"zip":"56323","miles_from_dt":23.07},{"city":"Ashby","state_name":"Minnesota","lat":46.08035,"lng":-95.80202,"zip":"56309","miles_from_dt":24.58},{"city":"Barrett","state_name":"Minnesota","lat":45.89756,"lng":-95.89852,"zip":"56311","miles_from_dt":24.61},{"city":"Vining","state_name":"Minnesota","lat":46.22028,"lng":-95.5006,"zip":"56588","miles_from_dt":24.74},{"city":"Clitherall","state_name":"Minnesota","lat":46.21115,"lng":-95.606,"zip":"56524","miles_from_dt":25.72},{"city":"Long Prairie","state_name":"Minnesota","lat":45.96978,"lng":-94.86155,"zip":"56347","miles_from_dt":26.37},{"city":"Brooten","state_name":"Minnesota","lat":45.49959,"lng":-95.14992,"zip":"56316","miles_from_dt":28.12},{"city":"Clarissa","state_name":"Minnesota","lat":46.14658,"lng":-94.9573,"zip":"56440","miles_from_dt":28.23},{"city":"Elbow Lake","state_name":"Minnesota","lat":45.98967,"lng":-95.98376,"zip":"56531","miles_from_dt":29.78}],"targetCityZipCode":"56308","targetCityState":"Minnesota"},"__N_SSG":true}