{"pageProps":{"stateName":"Minnesota","cityName":"amboy","nearbyCities":[{"city":"Vernon Center","state_name":"Minnesota","lat":43.9584,"lng":-94.23303,"zip":"56090","miles_from_dt":5.38},{"city":"Winnebago","state_name":"Minnesota","lat":43.77565,"lng":-94.18528,"zip":"56098","miles_from_dt":7.98},{"city":"Garden City","state_name":"Minnesota","lat":44.03036,"lng":-94.18285,"zip":"56034","miles_from_dt":9.62},{"city":"Good Thunder","state_name":"Minnesota","lat":44.0172,"lng":-94.0465,"zip":"56037","miles_from_dt":10.92},{"city":"Delavan","state_name":"Minnesota","lat":43.77224,"lng":-94.01402,"zip":"56023","miles_from_dt":11.62},{"city":"Huntley","state_name":"Minnesota","lat":43.72276,"lng":-94.19203,"zip":"56047","miles_from_dt":11.64},{"city":"Lewisville","state_name":"Minnesota","lat":43.93221,"lng":-94.43691,"zip":"56060","miles_from_dt":13.2},{"city":"Mapleton","state_name":"Minnesota","lat":43.93376,"lng":-93.91799,"zip":"56065","miles_from_dt":13.34},{"city":"Truman","state_name":"Minnesota","lat":43.82647,"lng":-94.45031,"zip":"56088","miles_from_dt":14.28},{"city":"Madelia","state_name":"Minnesota","lat":44.0483,"lng":-94.41469,"zip":"56062","miles_from_dt":16.01},{"city":"Easton","state_name":"Minnesota","lat":43.7516,"lng":-93.90877,"zip":"56025","miles_from_dt":16.58},{"city":"Lake Crystal","state_name":"Minnesota","lat":44.12693,"lng":-94.24531,"zip":"56055","miles_from_dt":16.62},{"city":"Northrop","state_name":"Minnesota","lat":43.73516,"lng":-94.43663,"zip":"56075","miles_from_dt":16.8},{"city":"Granada","state_name":"Minnesota","lat":43.66246,"lng":-94.32287,"zip":"56039","miles_from_dt":17.36},{"city":"Minnesota Lake","state_name":"Minnesota","lat":43.86303,"lng":-93.80601,"zip":"56068","miles_from_dt":18.71},{"city":"Blue Earth","state_name":"Minnesota","lat":43.62142,"lng":-94.10734,"zip":"56013","miles_from_dt":18.96},{"city":"Mankato","state_name":"Minnesota","lat":44.13193,"lng":-93.97789,"zip":"56001","miles_from_dt":19.4},{"city":"Mankato","state_name":"Minnesota","lat":44.16146,"lng":-94.00553,"zip":"56002","miles_from_dt":20.56},{"city":"Saint Clair","state_name":"Minnesota","lat":44.08166,"lng":-93.85781,"zip":"56080","miles_from_dt":20.71},{"city":"Pemberton","state_name":"Minnesota","lat":44.00525,"lng":-93.76757,"zip":"56078","miles_from_dt":21.97},{"city":"Mankato","state_name":"Minnesota","lat":44.21273,"lng":-94.08877,"zip":"56003","miles_from_dt":22.65},{"city":"Fairmont","state_name":"Minnesota","lat":43.62246,"lng":-94.46757,"zip":"56031","miles_from_dt":23.52},{"city":"La Salle","state_name":"Minnesota","lat":44.07278,"lng":-94.57945,"zip":"56056","miles_from_dt":23.59},{"city":"Saint James","state_name":"Minnesota","lat":43.99345,"lng":-94.63062,"zip":"56081","miles_from_dt":23.63},{"city":"Eagle Lake","state_name":"Minnesota","lat":44.14768,"lng":-93.84419,"zip":"56024","miles_from_dt":24.32},{"city":"Waldorf","state_name":"Minnesota","lat":43.91813,"lng":-93.68831,"zip":"56091","miles_from_dt":24.55},{"city":"Ormsby","state_name":"Minnesota","lat":43.84034,"lng":-94.66736,"zip":"56162","miles_from_dt":24.66},{"city":"Hanska","state_name":"Minnesota","lat":44.15514,"lng":-94.52238,"zip":"56041","miles_from_dt":25.01},{"city":"Elmore","state_name":"Minnesota","lat":43.51935,"lng":-94.12432,"zip":"56027","miles_from_dt":25.81},{"city":"Wells","state_name":"Minnesota","lat":43.72261,"lng":-93.71593,"zip":"56097","miles_from_dt":25.9},{"city":"Frost","state_name":"Minnesota","lat":43.55926,"lng":-93.93118,"zip":"56033","miles_from_dt":26.05},{"city":"Welcome","state_name":"Minnesota","lat":43.67951,"lng":-94.61549,"zip":"56181","miles_from_dt":26.28},{"city":"Searles","state_name":"Minnesota","lat":44.22729,"lng":-94.43337,"zip":"56084","miles_from_dt":26.45},{"city":"Janesville","state_name":"Minnesota","lat":44.09478,"lng":-93.71589,"zip":"56048","miles_from_dt":27.02},{"city":"Bricelyn","state_name":"Minnesota","lat":43.58363,"lng":-93.82568,"zip":"56014","miles_from_dt":27.62},{"city":"Courtland","state_name":"Minnesota","lat":44.28339,"lng":-94.31391,"zip":"56021","miles_from_dt":27.91},{"city":"Kasota","state_name":"Minnesota","lat":44.26006,"lng":-93.94706,"zip":"56050","miles_from_dt":27.96},{"city":"Trimont","state_name":"Minnesota","lat":43.78319,"lng":-94.72835,"zip":"56176","miles_from_dt":28.46},{"city":"Madison Lake","state_name":"Minnesota","lat":44.218,"lng":-93.81791,"zip":"56063","miles_from_dt":28.85},{"city":"Nicollet","state_name":"Minnesota","lat":44.32344,"lng":-94.20181,"zip":"56074","miles_from_dt":29.87}],"targetCityZipCode":"56010","targetCityState":"Minnesota"},"__N_SSG":true}