{"pageProps":{"stateName":"Minnesota","cityName":"appleton","nearbyCities":[{"city":"Holloway","state_name":"Minnesota","lat":45.31795,"lng":-95.89899,"zip":"56249","miles_from_dt":7.42},{"city":"Correll","state_name":"Minnesota","lat":45.29436,"lng":-96.16938,"zip":"56227","miles_from_dt":8.53},{"city":"Milan","state_name":"Minnesota","lat":45.12276,"lng":-95.86843,"zip":"56262","miles_from_dt":10.86},{"city":"Danvers","state_name":"Minnesota","lat":45.2788,"lng":-95.76381,"zip":"56231","miles_from_dt":12.22},{"city":"Odessa","state_name":"Minnesota","lat":45.24134,"lng":-96.31249,"zip":"56276","miles_from_dt":14.78},{"city":"Watson","state_name":"Minnesota","lat":45.0437,"lng":-95.84292,"zip":"56295","miles_from_dt":16.07},{"city":"Bellingham","state_name":"Minnesota","lat":45.13499,"lng":-96.32459,"zip":"56212","miles_from_dt":17.13},{"city":"Madison","state_name":"Minnesota","lat":45.02306,"lng":-96.19986,"zip":"56256","miles_from_dt":17.88},{"city":"Alberta","state_name":"Minnesota","lat":45.50266,"lng":-96.0708,"zip":"56207","miles_from_dt":18.09},{"city":"Ortonville","state_name":"Minnesota","lat":45.345,"lng":-96.37718,"zip":"56278","miles_from_dt":19.22},{"city":"Clontarf","state_name":"Minnesota","lat":45.41065,"lng":-95.67705,"zip":"56226","miles_from_dt":19.86},{"city":"Hancock","state_name":"Minnesota","lat":45.48372,"lng":-95.77963,"zip":"56244","miles_from_dt":19.97},{"city":"Benson","state_name":"Minnesota","lat":45.31077,"lng":-95.57233,"zip":"56215","miles_from_dt":21.81},{"city":"Dawson","state_name":"Minnesota","lat":44.92836,"lng":-96.03968,"zip":"56232","miles_from_dt":21.86},{"city":"Montevideo","state_name":"Minnesota","lat":45.0064,"lng":-95.70098,"zip":"56265","miles_from_dt":22.3},{"city":"Chokio","state_name":"Minnesota","lat":45.55583,"lng":-96.1938,"zip":"56221","miles_from_dt":23.31},{"city":"Morris","state_name":"Minnesota","lat":45.58512,"lng":-95.9322,"zip":"56267","miles_from_dt":23.84},{"city":"Big Stone City","state_name":"South Dakota","lat":45.30041,"lng":-96.52471,"zip":"57216","miles_from_dt":25.41},{"city":"Clinton","state_name":"Minnesota","lat":45.45325,"lng":-96.4482,"zip":"56225","miles_from_dt":25.78},{"city":"Marietta","state_name":"Minnesota","lat":44.9684,"lng":-96.40275,"zip":"56257","miles_from_dt":27.06},{"city":"Boyd","state_name":"Minnesota","lat":44.82642,"lng":-95.94363,"zip":"56218","miles_from_dt":29.03},{"city":"Murdock","state_name":"Minnesota","lat":45.24125,"lng":-95.41288,"zip":"56271","miles_from_dt":29.11},{"city":"Milbank","state_name":"South Dakota","lat":45.20507,"lng":-96.61053,"zip":"57252","miles_from_dt":29.45}],"targetCityZipCode":"56208","targetCityState":"Minnesota"},"__N_SSG":true}