{"pageProps":{"stateName":"Minnesota","cityName":"arlington","nearbyCities":[{"city":"Gaylord","state_name":"Minnesota","lat":44.53578,"lng":-94.20772,"zip":"55334","miles_from_dt":6.69},{"city":"Green Isle","state_name":"Minnesota","lat":44.66996,"lng":-93.99688,"zip":"55338","miles_from_dt":7.24},{"city":"New Auburn","state_name":"Minnesota","lat":44.67233,"lng":-94.2346,"zip":"55366","miles_from_dt":8.17},{"city":"Henderson","state_name":"Minnesota","lat":44.56173,"lng":-93.93539,"zip":"56044","miles_from_dt":8.74},{"city":"Hamburg","state_name":"Minnesota","lat":44.7289,"lng":-93.95905,"zip":"55339","miles_from_dt":11.5},{"city":"Glencoe","state_name":"Minnesota","lat":44.76627,"lng":-94.17803,"zip":"55336","miles_from_dt":12.12},{"city":"Plato","state_name":"Minnesota","lat":44.78077,"lng":-94.03892,"zip":"55370","miles_from_dt":12.98},{"city":"Winthrop","state_name":"Minnesota","lat":44.54473,"lng":-94.36755,"zip":"55396","miles_from_dt":13.5},{"city":"Brownton","state_name":"Minnesota","lat":44.70853,"lng":-94.34489,"zip":"55312","miles_from_dt":14.06},{"city":"Le Sueur","state_name":"Minnesota","lat":44.44424,"lng":-93.91441,"zip":"56058","miles_from_dt":14.22},{"city":"Norwood Young America","state_name":"Minnesota","lat":44.7458,"lng":-93.89679,"zip":"55368","miles_from_dt":14.43},{"city":"Norwood","state_name":"Minnesota","lat":44.77109,"lng":-93.92778,"zip":"55554","miles_from_dt":14.75},{"city":"Belle Plaine","state_name":"Minnesota","lat":44.60344,"lng":-93.777,"zip":"56011","miles_from_dt":16.17},{"city":"Young America","state_name":"Minnesota","lat":44.81712,"lng":-93.93452,"zip":"55397","miles_from_dt":17.25},{"city":"Lafayette","state_name":"Minnesota","lat":44.4357,"lng":-94.37043,"zip":"56054","miles_from_dt":17.29},{"city":"Saint Peter","state_name":"Minnesota","lat":44.35217,"lng":-94.03329,"zip":"56082","miles_from_dt":17.39},{"city":"Young America","state_name":"Minnesota","lat":44.81415,"lng":-93.91857,"zip":"55573","miles_from_dt":17.47},{"city":"Nicollet","state_name":"Minnesota","lat":44.32344,"lng":-94.20181,"zip":"56074","miles_from_dt":19.6},{"city":"Cologne","state_name":"Minnesota","lat":44.77006,"lng":-93.7861,"zip":"55322","miles_from_dt":19.66},{"city":"Lester Prairie","state_name":"Minnesota","lat":44.88466,"lng":-94.0701,"zip":"55354","miles_from_dt":19.82},{"city":"New Germany","state_name":"Minnesota","lat":44.89142,"lng":-93.97499,"zip":"55367","miles_from_dt":21.2},{"city":"Stewart","state_name":"Minnesota","lat":44.73732,"lng":-94.49281,"zip":"55385","miles_from_dt":21.38},{"city":"Gibbon","state_name":"Minnesota","lat":44.52969,"lng":-94.54621,"zip":"55335","miles_from_dt":22.31},{"city":"Carver","state_name":"Minnesota","lat":44.71731,"lng":-93.68347,"zip":"55315","miles_from_dt":22.32},{"city":"Silver Lake","state_name":"Minnesota","lat":44.92763,"lng":-94.18623,"zip":"55381","miles_from_dt":23.06},{"city":"Mayer","state_name":"Minnesota","lat":44.91331,"lng":-93.92065,"zip":"55360","miles_from_dt":23.54},{"city":"Le Center","state_name":"Minnesota","lat":44.3954,"lng":-93.72045,"zip":"56057","miles_from_dt":23.62},{"city":"Waconia","state_name":"Minnesota","lat":44.85643,"lng":-93.77903,"zip":"55387","miles_from_dt":23.95},{"city":"Courtland","state_name":"Minnesota","lat":44.28339,"lng":-94.31391,"zip":"56021","miles_from_dt":24.11},{"city":"Kasota","state_name":"Minnesota","lat":44.26006,"lng":-93.94706,"zip":"56050","miles_from_dt":24.65},{"city":"Cleveland","state_name":"Minnesota","lat":44.30535,"lng":-93.81915,"zip":"56017","miles_from_dt":24.69},{"city":"Winsted","state_name":"Minnesota","lat":44.9572,"lng":-94.06085,"zip":"55395","miles_from_dt":24.85},{"city":"Hutchinson","state_name":"Minnesota","lat":44.89743,"lng":-94.39195,"zip":"55350","miles_from_dt":25},{"city":"Jordan","state_name":"Minnesota","lat":44.65505,"lng":-93.5862,"zip":"55352","miles_from_dt":25.86},{"city":"New Prague","state_name":"Minnesota","lat":44.53459,"lng":-93.58209,"zip":"56071","miles_from_dt":26.18},{"city":"Mankato","state_name":"Minnesota","lat":44.21273,"lng":-94.08877,"zip":"56003","miles_from_dt":26.66},{"city":"New Ulm","state_name":"Minnesota","lat":44.30757,"lng":-94.46878,"zip":"56073","miles_from_dt":26.99},{"city":"Buffalo Lake","state_name":"Minnesota","lat":44.77214,"lng":-94.6,"zip":"55314","miles_from_dt":27.18},{"city":"Chaska","state_name":"Minnesota","lat":44.81169,"lng":-93.63703,"zip":"55318","miles_from_dt":27.33},{"city":"Watertown","state_name":"Minnesota","lat":44.95,"lng":-93.84729,"zip":"55388","miles_from_dt":27.36},{"city":"Saint Bonifacius","state_name":"Minnesota","lat":44.89475,"lng":-93.73129,"zip":"55375","miles_from_dt":27.49},{"city":"Victoria","state_name":"Minnesota","lat":44.85686,"lng":-93.66435,"zip":"55386","miles_from_dt":28.07},{"city":"Madison Lake","state_name":"Minnesota","lat":44.218,"lng":-93.81791,"zip":"56063","miles_from_dt":29.88}],"targetCityZipCode":"55307","targetCityState":"Minnesota"},"__N_SSG":true}