{"pageProps":{"stateName":"Minnesota","cityName":"burtrum","nearbyCities":[{"city":"Grey Eagle","state_name":"Minnesota","lat":45.82349,"lng":-94.76175,"zip":"56336","miles_from_dt":4.85},{"city":"Swanville","state_name":"Minnesota","lat":45.9146,"lng":-94.611,"zip":"56382","miles_from_dt":5.12},{"city":"Upsala","state_name":"Minnesota","lat":45.8099,"lng":-94.56759,"zip":"56384","miles_from_dt":5.82},{"city":"Flensburg","state_name":"Minnesota","lat":45.9519,"lng":-94.52147,"zip":"56328","miles_from_dt":9.91},{"city":"Bowlus","state_name":"Minnesota","lat":45.81139,"lng":-94.43189,"zip":"56314","miles_from_dt":11.89},{"city":"Freeport","state_name":"Minnesota","lat":45.67926,"lng":-94.6742,"zip":"56331","miles_from_dt":12.02},{"city":"Long Prairie","state_name":"Minnesota","lat":45.96978,"lng":-94.86155,"zip":"56347","miles_from_dt":12.22},{"city":"Holdingford","state_name":"Minnesota","lat":45.75534,"lng":-94.44871,"zip":"56340","miles_from_dt":12.69},{"city":"Melrose","state_name":"Minnesota","lat":45.65078,"lng":-94.80076,"zip":"56352","miles_from_dt":15.33},{"city":"New Munich","state_name":"Minnesota","lat":45.63334,"lng":-94.73332,"zip":"56356","miles_from_dt":15.49},{"city":"Albany","state_name":"Minnesota","lat":45.62666,"lng":-94.58769,"zip":"56307","miles_from_dt":16.16},{"city":"Randall","state_name":"Minnesota","lat":46.08361,"lng":-94.53985,"zip":"56475","miles_from_dt":17.11},{"city":"Sauk Centre","state_name":"Minnesota","lat":45.72308,"lng":-94.97982,"zip":"56378","miles_from_dt":17.43},{"city":"Little Falls","state_name":"Minnesota","lat":46.00748,"lng":-94.38032,"zip":"56345","miles_from_dt":17.59},{"city":"Avon","state_name":"Minnesota","lat":45.63399,"lng":-94.44352,"zip":"56310","miles_from_dt":18.72},{"city":"Greenwald","state_name":"Minnesota","lat":45.60137,"lng":-94.85941,"zip":"56335","miles_from_dt":19.65},{"city":"West Union","state_name":"Minnesota","lat":45.79961,"lng":-95.08832,"zip":"56389","miles_from_dt":20.5},{"city":"Browerville","state_name":"Minnesota","lat":46.13873,"lng":-94.80874,"zip":"56438","miles_from_dt":20.8},{"city":"Royalton","state_name":"Minnesota","lat":45.85456,"lng":-94.23789,"zip":"56373","miles_from_dt":20.89},{"city":"Saint Stephen","state_name":"Minnesota","lat":45.70122,"lng":-94.27458,"zip":"56375","miles_from_dt":21.84},{"city":"Osakis","state_name":"Minnesota","lat":45.87482,"lng":-95.12686,"zip":"56360","miles_from_dt":22.05},{"city":"Collegeville","state_name":"Minnesota","lat":45.57969,"lng":-94.39288,"zip":"56321","miles_from_dt":23.19},{"city":"Saint Joseph","state_name":"Minnesota","lat":45.60381,"lng":-94.33816,"zip":"56374","miles_from_dt":23.58},{"city":"Cushing","state_name":"Minnesota","lat":46.1916,"lng":-94.57565,"zip":"56443","miles_from_dt":23.81},{"city":"Elrosa","state_name":"Minnesota","lat":45.56303,"lng":-94.94732,"zip":"56325","miles_from_dt":24.1},{"city":"Saint Martin","state_name":"Minnesota","lat":45.50241,"lng":-94.66731,"zip":"56376","miles_from_dt":24.24},{"city":"Clarissa","state_name":"Minnesota","lat":46.14658,"lng":-94.9573,"zip":"56440","miles_from_dt":24.5},{"city":"Rice","state_name":"Minnesota","lat":45.76107,"lng":-94.17026,"zip":"56367","miles_from_dt":25},{"city":"Sartell","state_name":"Minnesota","lat":45.6405,"lng":-94.23033,"zip":"56377","miles_from_dt":25.88},{"city":"Eagle Bend","state_name":"Minnesota","lat":46.12448,"lng":-95.08966,"zip":"56446","miles_from_dt":27.52},{"city":"Villard","state_name":"Minnesota","lat":45.70349,"lng":-95.20681,"zip":"56385","miles_from_dt":27.89},{"city":"Buckman","state_name":"Minnesota","lat":45.89768,"lng":-94.0927,"zip":"56317","miles_from_dt":28.06},{"city":"Nelson","state_name":"Minnesota","lat":45.94007,"lng":-95.24031,"zip":"56355","miles_from_dt":28.11},{"city":"Richmond","state_name":"Minnesota","lat":45.45158,"lng":-94.5392,"zip":"56368","miles_from_dt":28.47},{"city":"Carlos","state_name":"Minnesota","lat":46.00488,"lng":-95.22322,"zip":"56319","miles_from_dt":28.61},{"city":"Roscoe","state_name":"Minnesota","lat":45.43333,"lng":-94.63707,"zip":"56371","miles_from_dt":29.05},{"city":"Fort Ripley","state_name":"Minnesota","lat":46.17436,"lng":-94.27214,"zip":"56449","miles_from_dt":29.32},{"city":"Saint Cloud","state_name":"Minnesota","lat":45.57422,"lng":-94.21117,"zip":"56303","miles_from_dt":29.43},{"city":"Saint Cloud","state_name":"Minnesota","lat":45.56755,"lng":-94.21711,"zip":"56393","miles_from_dt":29.52},{"city":"Saint Cloud","state_name":"Minnesota","lat":45.56813,"lng":-94.21428,"zip":"56396","miles_from_dt":29.6},{"city":"Cold Spring","state_name":"Minnesota","lat":45.4629,"lng":-94.4171,"zip":"56320","miles_from_dt":29.63},{"city":"Saint Cloud","state_name":"Minnesota","lat":45.56299,"lng":-94.21872,"zip":"56372","miles_from_dt":29.68},{"city":"Saint Cloud","state_name":"Minnesota","lat":45.56,"lng":-94.22219,"zip":"56388","miles_from_dt":29.69}],"targetCityZipCode":"56318","targetCityState":"Minnesota"},"__N_SSG":true}