{"pageProps":{"stateName":"Minnesota","cityName":"canyon","nearbyCities":[{"city":"Cotton","state_name":"Minnesota","lat":47.17874,"lng":-92.37277,"zip":"55724","miles_from_dt":8.9},{"city":"Saginaw","state_name":"Minnesota","lat":46.90915,"lng":-92.4548,"zip":"55779","miles_from_dt":10.27},{"city":"Twig","state_name":"Minnesota","lat":46.89584,"lng":-92.35632,"zip":"55791","miles_from_dt":10.76},{"city":"Melrude","state_name":"Minnesota","lat":47.2362,"lng":-92.41218,"zip":"55766","miles_from_dt":12.9},{"city":"Alborn","state_name":"Minnesota","lat":46.97121,"lng":-92.6448,"zip":"55702","miles_from_dt":13.37},{"city":"Duluth","state_name":"Minnesota","lat":47.03398,"lng":-92.07104,"zip":"55803","miles_from_dt":14.94},{"city":"Duluth","state_name":"Minnesota","lat":46.83767,"lng":-92.21993,"zip":"55811","miles_from_dt":16.66},{"city":"Meadowlands","state_name":"Minnesota","lat":47.10057,"lng":-92.74545,"zip":"55765","miles_from_dt":17.3},{"city":"Duluth","state_name":"Minnesota","lat":46.83519,"lng":-92.19716,"zip":"55814","miles_from_dt":17.35},{"city":"Forbes","state_name":"Minnesota","lat":47.27342,"lng":-92.65826,"zip":"55738","miles_from_dt":20.04},{"city":"Brookston","state_name":"Minnesota","lat":46.84066,"lng":-92.69498,"zip":"55711","miles_from_dt":20.56},{"city":"Duluth","state_name":"Minnesota","lat":46.75894,"lng":-92.27445,"zip":"55810","miles_from_dt":20.81},{"city":"Makinen","state_name":"Minnesota","lat":47.33127,"lng":-92.22262,"zip":"55763","miles_from_dt":20.89},{"city":"Cloquet","state_name":"Minnesota","lat":46.75138,"lng":-92.5399,"zip":"55720","miles_from_dt":21.89},{"city":"Duluth","state_name":"Minnesota","lat":46.81236,"lng":-92.07564,"zip":"55812","miles_from_dt":22.05},{"city":"Duluth","state_name":"Minnesota","lat":46.80065,"lng":-92.09552,"zip":"55805","miles_from_dt":22.06},{"city":"Duluth","state_name":"Minnesota","lat":46.76816,"lng":-92.13313,"zip":"55816","miles_from_dt":22.88},{"city":"Duluth","state_name":"Minnesota","lat":46.9381,"lng":-91.93089,"zip":"55804","miles_from_dt":22.88},{"city":"Duluth","state_name":"Minnesota","lat":46.76826,"lng":-92.12835,"zip":"55806","miles_from_dt":22.99},{"city":"Duluth","state_name":"Minnesota","lat":46.76106,"lng":-92.12983,"zip":"55815","miles_from_dt":23.38},{"city":"Esko","state_name":"Minnesota","lat":46.71141,"lng":-92.36297,"zip":"55733","miles_from_dt":23.43},{"city":"Eveleth","state_name":"Minnesota","lat":47.38274,"lng":-92.4938,"zip":"55734","miles_from_dt":23.52},{"city":"Duluth","state_name":"Minnesota","lat":46.73508,"lng":-92.1686,"zip":"55807","miles_from_dt":24.09},{"city":"Duluth","state_name":"Minnesota","lat":46.75267,"lng":-92.08197,"zip":"55802","miles_from_dt":25.11},{"city":"Duluth","state_name":"Minnesota","lat":47.09906,"lng":-91.85264,"zip":"55801","miles_from_dt":25.42},{"city":"Floodwood","state_name":"Minnesota","lat":46.97542,"lng":-92.92136,"zip":"55736","miles_from_dt":25.8},{"city":"Duluth","state_name":"Minnesota","lat":46.6792,"lng":-92.23686,"zip":"55808","miles_from_dt":26.59},{"city":"Iron","state_name":"Minnesota","lat":47.39283,"lng":-92.66815,"zip":"55751","miles_from_dt":27.13},{"city":"Gilbert","state_name":"Minnesota","lat":47.4582,"lng":-92.38683,"zip":"55741","miles_from_dt":28.18},{"city":"Knife River","state_name":"Minnesota","lat":46.9636,"lng":-91.78554,"zip":"55609","miles_from_dt":29.02},{"city":"Sawyer","state_name":"Minnesota","lat":46.67505,"lng":-92.68321,"zip":"55780","miles_from_dt":29.49},{"city":"Aurora","state_name":"Minnesota","lat":47.46789,"lng":-92.24446,"zip":"55705","miles_from_dt":29.61},{"city":"Brimson","state_name":"Minnesota","lat":47.33207,"lng":-91.91047,"zip":"55602","miles_from_dt":29.69},{"city":"Carlton","state_name":"Minnesota","lat":46.6249,"lng":-92.48505,"zip":"55718","miles_from_dt":29.75}],"targetCityZipCode":"55717","targetCityState":"Minnesota"},"__N_SSG":true}