{"pageProps":{"stateName":"Minnesota","cityName":"dumont","nearbyCities":[{"city":"Graceville","state_name":"Minnesota","lat":45.56327,"lng":-96.47475,"zip":"56240","miles_from_dt":7.74},{"city":"Barry","state_name":"Minnesota","lat":45.55739,"lng":-96.55958,"zip":"56210","miles_from_dt":10.54},{"city":"Wheaton","state_name":"Minnesota","lat":45.82981,"lng":-96.46953,"zip":"56296","miles_from_dt":11.93},{"city":"Chokio","state_name":"Minnesota","lat":45.55583,"lng":-96.1938,"zip":"56221","miles_from_dt":12.58},{"city":"Beardsley","state_name":"Minnesota","lat":45.58641,"lng":-96.6828,"zip":"56211","miles_from_dt":14.56},{"city":"Clinton","state_name":"Minnesota","lat":45.45325,"lng":-96.4482,"zip":"56225","miles_from_dt":14.68},{"city":"Herman","state_name":"Minnesota","lat":45.79317,"lng":-96.13677,"zip":"56248","miles_from_dt":15.69},{"city":"Norcross","state_name":"Minnesota","lat":45.90145,"lng":-96.2383,"zip":"56274","miles_from_dt":18.27},{"city":"Donnelly","state_name":"Minnesota","lat":45.70588,"lng":-96.01079,"zip":"56235","miles_from_dt":19.22},{"city":"Rosholt","state_name":"South Dakota","lat":45.83641,"lng":-96.7172,"zip":"57260","miles_from_dt":19.32},{"city":"Alberta","state_name":"Minnesota","lat":45.50266,"lng":-96.0708,"zip":"56207","miles_from_dt":19.57},{"city":"Browns Valley","state_name":"Minnesota","lat":45.5977,"lng":-96.81913,"zip":"56219","miles_from_dt":20.66},{"city":"Ortonville","state_name":"Minnesota","lat":45.345,"lng":-96.37718,"zip":"56278","miles_from_dt":22.03},{"city":"Morris","state_name":"Minnesota","lat":45.58512,"lng":-95.9322,"zip":"56267","miles_from_dt":23.45},{"city":"Tintah","state_name":"Minnesota","lat":46.00332,"lng":-96.40667,"zip":"56583","miles_from_dt":23.48},{"city":"Big Stone City","state_name":"South Dakota","lat":45.30041,"lng":-96.52471,"zip":"57216","miles_from_dt":25.76},{"city":"Corona","state_name":"South Dakota","lat":45.36184,"lng":-96.72105,"zip":"57227","miles_from_dt":25.92},{"city":"Nashua","state_name":"Minnesota","lat":46.04861,"lng":-96.31511,"zip":"56565","miles_from_dt":26.94},{"city":"Correll","state_name":"Minnesota","lat":45.29436,"lng":-96.16938,"zip":"56227","miles_from_dt":27.9},{"city":"Wendell","state_name":"Minnesota","lat":46.03514,"lng":-96.16093,"zip":"56590","miles_from_dt":28.21},{"city":"Fairmount","state_name":"North Dakota","lat":46.03035,"lng":-96.66818,"zip":"58030","miles_from_dt":28.39},{"city":"Wilmot","state_name":"South Dakota","lat":45.41816,"lng":-96.87274,"zip":"57279","miles_from_dt":28.4},{"city":"Barrett","state_name":"Minnesota","lat":45.89756,"lng":-95.89852,"zip":"56311","miles_from_dt":29.26},{"city":"Odessa","state_name":"Minnesota","lat":45.24134,"lng":-96.31249,"zip":"56276","miles_from_dt":29.48},{"city":"New Effington","state_name":"South Dakota","lat":45.86702,"lng":-96.94985,"zip":"57255","miles_from_dt":29.94}],"targetCityZipCode":"56236","targetCityState":"Minnesota"},"__N_SSG":true}