{"pageProps":{"stateName":"Minnesota","cityName":"emmons","nearbyCities":[{"city":"Twin Lakes","state_name":"Minnesota","lat":43.55631,"lng":-93.4508,"zip":"56089","miles_from_dt":4.52},{"city":"Conger","state_name":"Minnesota","lat":43.6146,"lng":-93.53019,"zip":"56020","miles_from_dt":6.17},{"city":"Lake Mills","state_name":"Iowa","lat":43.42045,"lng":-93.51998,"zip":"50450","miles_from_dt":7.25},{"city":"Scarville","state_name":"Iowa","lat":43.46402,"lng":-93.67429,"zip":"50473","miles_from_dt":8.39},{"city":"Kiester","state_name":"Minnesota","lat":43.53649,"lng":-93.70868,"zip":"56051","miles_from_dt":9.01},{"city":"Alden","state_name":"Minnesota","lat":43.66125,"lng":-93.55904,"zip":"56009","miles_from_dt":9.51},{"city":"Leland","state_name":"Iowa","lat":43.3664,"lng":-93.65258,"zip":"50453","miles_from_dt":12.58},{"city":"Joice","state_name":"Iowa","lat":43.33821,"lng":-93.45394,"zip":"50446","miles_from_dt":13.46},{"city":"Albert Lea","state_name":"Minnesota","lat":43.66085,"lng":-93.3238,"zip":"56007","miles_from_dt":13.96},{"city":"Northwood","state_name":"Iowa","lat":43.4458,"lng":-93.25445,"zip":"50459","miles_from_dt":14.9},{"city":"Thompson","state_name":"Iowa","lat":43.40377,"lng":-93.78448,"zip":"50478","miles_from_dt":15.3},{"city":"Bricelyn","state_name":"Minnesota","lat":43.58363,"lng":-93.82568,"zip":"56014","miles_from_dt":15.38},{"city":"Glenville","state_name":"Minnesota","lat":43.5513,"lng":-93.22152,"zip":"56036","miles_from_dt":15.6},{"city":"Wells","state_name":"Minnesota","lat":43.72261,"lng":-93.71593,"zip":"56097","miles_from_dt":16.51},{"city":"Freeborn","state_name":"Minnesota","lat":43.77583,"lng":-93.56078,"zip":"56032","miles_from_dt":17.37},{"city":"Hayward","state_name":"Minnesota","lat":43.65236,"lng":-93.22809,"zip":"56043","miles_from_dt":17.51},{"city":"Hanlontown","state_name":"Iowa","lat":43.29258,"lng":-93.38601,"zip":"50444","miles_from_dt":17.62},{"city":"Kensett","state_name":"Iowa","lat":43.35053,"lng":-93.24753,"zip":"50448","miles_from_dt":18.64},{"city":"Fertile","state_name":"Iowa","lat":43.25857,"lng":-93.45758,"zip":"50434","miles_from_dt":18.76},{"city":"Clarks Grove","state_name":"Minnesota","lat":43.76378,"lng":-93.34855,"zip":"56016","miles_from_dt":18.82},{"city":"Rake","state_name":"Iowa","lat":43.48703,"lng":-93.91056,"zip":"50465","miles_from_dt":19.3},{"city":"Forest City","state_name":"Iowa","lat":43.26256,"lng":-93.66242,"zip":"50436","miles_from_dt":19.32},{"city":"Hartland","state_name":"Minnesota","lat":43.80408,"lng":-93.48387,"zip":"56042","miles_from_dt":19.39},{"city":"Frost","state_name":"Minnesota","lat":43.55926,"lng":-93.93118,"zip":"56033","miles_from_dt":20.28},{"city":"Buffalo Center","state_name":"Iowa","lat":43.40366,"lng":-93.94939,"zip":"50424","miles_from_dt":22.69},{"city":"Manly","state_name":"Iowa","lat":43.28812,"lng":-93.21579,"zip":"50456","miles_from_dt":22.76},{"city":"Hollandale","state_name":"Minnesota","lat":43.75977,"lng":-93.20948,"zip":"56045","miles_from_dt":22.82},{"city":"Geneva","state_name":"Minnesota","lat":43.82187,"lng":-93.26875,"zip":"56035","miles_from_dt":24.31},{"city":"Easton","state_name":"Minnesota","lat":43.7516,"lng":-93.90877,"zip":"56025","miles_from_dt":24.6},{"city":"Crystal Lake","state_name":"Iowa","lat":43.22394,"lng":-93.79794,"zip":"50432","miles_from_dt":24.79},{"city":"New Richland","state_name":"Minnesota","lat":43.89677,"lng":-93.5125,"zip":"56072","miles_from_dt":25.67},{"city":"Grafton","state_name":"Iowa","lat":43.33213,"lng":-93.06891,"zip":"50440","miles_from_dt":26.76},{"city":"Carpenter","state_name":"Iowa","lat":43.41507,"lng":-93.01718,"zip":"50426","miles_from_dt":26.88},{"city":"Ellendale","state_name":"Minnesota","lat":43.87485,"lng":-93.29124,"zip":"56026","miles_from_dt":26.94},{"city":"Minnesota Lake","state_name":"Minnesota","lat":43.86303,"lng":-93.80601,"zip":"56068","miles_from_dt":27.11},{"city":"Woden","state_name":"Iowa","lat":43.23609,"lng":-93.91084,"zip":"50484","miles_from_dt":27.68},{"city":"Clear Lake","state_name":"Iowa","lat":43.13573,"lng":-93.38815,"zip":"50428","miles_from_dt":27.82},{"city":"Ventura","state_name":"Iowa","lat":43.12356,"lng":-93.48167,"zip":"50482","miles_from_dt":27.83},{"city":"Waldorf","state_name":"Minnesota","lat":43.91813,"lng":-93.68831,"zip":"56091","miles_from_dt":28.26},{"city":"Lyle","state_name":"Minnesota","lat":43.52772,"lng":-92.96521,"zip":"55953","miles_from_dt":28.37},{"city":"Garner","state_name":"Iowa","lat":43.11018,"lng":-93.61841,"zip":"50438","miles_from_dt":28.99},{"city":"Austin","state_name":"Minnesota","lat":43.6827,"lng":-92.99148,"zip":"55912","miles_from_dt":29.12},{"city":"Plymouth","state_name":"Iowa","lat":43.25146,"lng":-93.0765,"zip":"50464","miles_from_dt":29.64},{"city":"Delavan","state_name":"Minnesota","lat":43.77224,"lng":-94.01402,"zip":"56023","miles_from_dt":29.66},{"city":"Blue Earth","state_name":"Minnesota","lat":43.62142,"lng":-94.10734,"zip":"56013","miles_from_dt":29.73},{"city":"Elmore","state_name":"Minnesota","lat":43.51935,"lng":-94.12432,"zip":"56027","miles_from_dt":29.86}],"targetCityZipCode":"56029","targetCityState":"Minnesota"},"__N_SSG":true}