{"pageProps":{"stateName":"Minnesota","cityName":"fergus-falls","nearbyCities":[{"city":"Fergus Falls","state_name":"Minnesota","lat":46.2828,"lng":-96.07481,"zip":"56538","miles_from_dt":0.82},{"city":"Elizabeth","state_name":"Minnesota","lat":46.40393,"lng":-96.15144,"zip":"56533","miles_from_dt":9.25},{"city":"Dalton","state_name":"Minnesota","lat":46.16385,"lng":-95.90766,"zip":"56324","miles_from_dt":11.72},{"city":"Foxhome","state_name":"Minnesota","lat":46.28541,"lng":-96.33654,"zip":"56543","miles_from_dt":11.83},{"city":"Underwood","state_name":"Minnesota","lat":46.32324,"lng":-95.84,"zip":"56586","miles_from_dt":12.38},{"city":"Erhard","state_name":"Minnesota","lat":46.46325,"lng":-96.01431,"zip":"56534","miles_from_dt":13.36},{"city":"Wendell","state_name":"Minnesota","lat":46.03514,"lng":-96.16093,"zip":"56590","miles_from_dt":17.05},{"city":"Campbell","state_name":"Minnesota","lat":46.1352,"lng":-96.3887,"zip":"56522","miles_from_dt":17.36},{"city":"Rothsay","state_name":"Minnesota","lat":46.4688,"lng":-96.34229,"zip":"56579","miles_from_dt":17.93},{"city":"Battle Lake","state_name":"Minnesota","lat":46.29444,"lng":-95.708,"zip":"56515","miles_from_dt":18.32},{"city":"Nashua","state_name":"Minnesota","lat":46.04861,"lng":-96.31511,"zip":"56565","miles_from_dt":19.12},{"city":"Ashby","state_name":"Minnesota","lat":46.08035,"lng":-95.80202,"zip":"56309","miles_from_dt":19.37},{"city":"Breckenridge","state_name":"Minnesota","lat":46.28645,"lng":-96.50361,"zip":"56520","miles_from_dt":19.83},{"city":"Elbow Lake","state_name":"Minnesota","lat":45.98967,"lng":-95.98376,"zip":"56531","miles_from_dt":20.49},{"city":"Dent","state_name":"Minnesota","lat":46.53066,"lng":-95.80983,"zip":"56528","miles_from_dt":22.04},{"city":"Pelican Rapids","state_name":"Minnesota","lat":46.60485,"lng":-96.08682,"zip":"56572","miles_from_dt":22.65},{"city":"Richville","state_name":"Minnesota","lat":46.47164,"lng":-95.70537,"zip":"56576","miles_from_dt":22.77},{"city":"Clitherall","state_name":"Minnesota","lat":46.21115,"lng":-95.606,"zip":"56524","miles_from_dt":23.62},{"city":"Tintah","state_name":"Minnesota","lat":46.00332,"lng":-96.40667,"zip":"56583","miles_from_dt":24.26},{"city":"Wahpeton","state_name":"North Dakota","lat":46.27416,"lng":-96.60746,"zip":"58076","miles_from_dt":24.79},{"city":"Evansville","state_name":"Minnesota","lat":46.02506,"lng":-95.68596,"zip":"56326","miles_from_dt":26.05},{"city":"Norcross","state_name":"Minnesota","lat":45.90145,"lng":-96.2383,"zip":"56274","miles_from_dt":26.9},{"city":"Vergas","state_name":"Minnesota","lat":46.63721,"lng":-95.8628,"zip":"56587","miles_from_dt":27.14},{"city":"Kent","state_name":"Minnesota","lat":46.42946,"lng":-96.61757,"zip":"56553","miles_from_dt":27.35},{"city":"Barrett","state_name":"Minnesota","lat":45.89756,"lng":-95.89852,"zip":"56311","miles_from_dt":27.77},{"city":"Vining","state_name":"Minnesota","lat":46.22028,"lng":-95.5006,"zip":"56588","miles_from_dt":28.5},{"city":"Ottertail","state_name":"Minnesota","lat":46.43856,"lng":-95.53939,"zip":"56571","miles_from_dt":28.59}],"targetCityZipCode":"56537","targetCityState":"Minnesota"},"__N_SSG":true}