{"pageProps":{"stateName":"Minnesota","cityName":"frazee","nearbyCities":[{"city":"Perham","state_name":"Minnesota","lat":46.61443,"lng":-95.55216,"zip":"56573","miles_from_dt":10.21},{"city":"Rochert","state_name":"Minnesota","lat":46.9264,"lng":-95.65563,"zip":"56578","miles_from_dt":11.9},{"city":"Detroit Lakes","state_name":"Minnesota","lat":46.83665,"lng":-95.82233,"zip":"56501","miles_from_dt":11.96},{"city":"Wolf Lake","state_name":"Minnesota","lat":46.83783,"lng":-95.36987,"zip":"56593","miles_from_dt":12.07},{"city":"Detroit Lakes","state_name":"Minnesota","lat":46.82039,"lng":-95.84394,"zip":"56502","miles_from_dt":12.46},{"city":"Vergas","state_name":"Minnesota","lat":46.63721,"lng":-95.8628,"zip":"56587","miles_from_dt":15.18},{"city":"Osage","state_name":"Minnesota","lat":46.91051,"lng":-95.35552,"zip":"56570","miles_from_dt":15.51},{"city":"Richwood","state_name":"Minnesota","lat":46.93832,"lng":-95.86232,"zip":"56577","miles_from_dt":17.66},{"city":"New York Mills","state_name":"Minnesota","lat":46.54896,"lng":-95.36707,"zip":"56567","miles_from_dt":18.16},{"city":"Dent","state_name":"Minnesota","lat":46.53066,"lng":-95.80983,"zip":"56528","miles_from_dt":18.74},{"city":"Richville","state_name":"Minnesota","lat":46.47164,"lng":-95.70537,"zip":"56576","miles_from_dt":20.51},{"city":"Audubon","state_name":"Minnesota","lat":46.8532,"lng":-96.00763,"zip":"56511","miles_from_dt":20.54},{"city":"Ponsford","state_name":"Minnesota","lat":47.03827,"lng":-95.43146,"zip":"56575","miles_from_dt":20.83},{"city":"Callaway","state_name":"Minnesota","lat":46.99691,"lng":-95.89783,"zip":"56521","miles_from_dt":21.76},{"city":"Ottertail","state_name":"Minnesota","lat":46.43856,"lng":-95.53939,"zip":"56571","miles_from_dt":22.3},{"city":"Menahga","state_name":"Minnesota","lat":46.76538,"lng":-95.10382,"zip":"56464","miles_from_dt":23.41},{"city":"Ogema","state_name":"Minnesota","lat":47.07482,"lng":-95.81956,"zip":"56569","miles_from_dt":24.23},{"city":"Bluffton","state_name":"Minnesota","lat":46.48926,"lng":-95.24506,"zip":"56518","miles_from_dt":25.05},{"city":"Pelican Rapids","state_name":"Minnesota","lat":46.60485,"lng":-96.08682,"zip":"56572","miles_from_dt":25.61},{"city":"Lake Park","state_name":"Minnesota","lat":46.88408,"lng":-96.11483,"zip":"56554","miles_from_dt":26.03},{"city":"White Earth","state_name":"Minnesota","lat":47.09968,"lng":-95.84357,"zip":"56591","miles_from_dt":26.27},{"city":"Erhard","state_name":"Minnesota","lat":46.46325,"lng":-96.01431,"zip":"56534","miles_from_dt":28.49},{"city":"Wadena","state_name":"Minnesota","lat":46.46555,"lng":-95.14307,"zip":"56482","miles_from_dt":29.62},{"city":"Sebeka","state_name":"Minnesota","lat":46.64363,"lng":-94.99653,"zip":"56477","miles_from_dt":29.62},{"city":"Waubun","state_name":"Minnesota","lat":47.17959,"lng":-95.71984,"zip":"56589","miles_from_dt":29.63},{"city":"Deer Creek","state_name":"Minnesota","lat":46.37383,"lng":-95.31806,"zip":"56527","miles_from_dt":29.73}],"targetCityZipCode":"56544","targetCityState":"Minnesota"},"__N_SSG":true}