{"pageProps":{"stateName":"Minnesota","cityName":"gonvick","nearbyCities":[{"city":"Gully","state_name":"Minnesota","lat":47.78925,"lng":-95.62865,"zip":"56646","miles_from_dt":5.43},{"city":"Clearbrook","state_name":"Minnesota","lat":47.68577,"lng":-95.40169,"zip":"56634","miles_from_dt":8.37},{"city":"Trail","state_name":"Minnesota","lat":47.87109,"lng":-95.70401,"zip":"56684","miles_from_dt":10.87},{"city":"Leonard","state_name":"Minnesota","lat":47.71104,"lng":-95.23721,"zip":"56652","miles_from_dt":13.71},{"city":"Redlake","state_name":"Minnesota","lat":47.94006,"lng":-95.31791,"zip":"56671","miles_from_dt":14.24},{"city":"Oklee","state_name":"Minnesota","lat":47.92728,"lng":-95.82076,"zip":"56742","miles_from_dt":17.54},{"city":"Fosston","state_name":"Minnesota","lat":47.56679,"lng":-95.72331,"zip":"56542","miles_from_dt":17.76},{"city":"Mcintosh","state_name":"Minnesota","lat":47.66403,"lng":-95.88349,"zip":"56556","miles_from_dt":19.08},{"city":"Brooks","state_name":"Minnesota","lat":47.80636,"lng":-95.94904,"zip":"56715","miles_from_dt":20.39},{"city":"Shevlin","state_name":"Minnesota","lat":47.52188,"lng":-95.19877,"zip":"56676","miles_from_dt":23.13},{"city":"Lengby","state_name":"Minnesota","lat":47.43883,"lng":-95.6172,"zip":"56651","miles_from_dt":24.14},{"city":"Plummer","state_name":"Minnesota","lat":47.92066,"lng":-96.00743,"zip":"56748","miles_from_dt":24.95},{"city":"Erskine","state_name":"Minnesota","lat":47.67541,"lng":-96.04611,"zip":"56535","miles_from_dt":25.91},{"city":"Bagley","state_name":"Minnesota","lat":47.40975,"lng":-95.41597,"zip":"56621","miles_from_dt":26.04},{"city":"Puposky","state_name":"Minnesota","lat":47.73569,"lng":-94.94199,"zip":"56667","miles_from_dt":26.77},{"city":"Goodridge","state_name":"Minnesota","lat":48.1477,"lng":-95.70485,"zip":"56725","miles_from_dt":26.86},{"city":"Winger","state_name":"Minnesota","lat":47.53542,"lng":-96.00769,"zip":"56592","miles_from_dt":28.66},{"city":"Wilton","state_name":"Minnesota","lat":47.52245,"lng":-94.99635,"zip":"56687","miles_from_dt":30}],"targetCityZipCode":"56644","targetCityState":"Minnesota"},"__N_SSG":true}