{"pageProps":{"stateName":"Minnesota","cityName":"hendrum","nearbyCities":[{"city":"Perley","state_name":"Minnesota","lat":47.20085,"lng":-96.70242,"zip":"56574","miles_from_dt":5.23},{"city":"Halstad","state_name":"Minnesota","lat":47.37025,"lng":-96.75392,"zip":"56548","miles_from_dt":6.95},{"city":"Georgetown","state_name":"Minnesota","lat":47.10107,"lng":-96.73038,"zip":"56546","miles_from_dt":11.68},{"city":"Grandin","state_name":"North Dakota","lat":47.24505,"lng":-96.99484,"zip":"58038","miles_from_dt":11.7},{"city":"Ada","state_name":"Minnesota","lat":47.35811,"lng":-96.52316,"zip":"56510","miles_from_dt":12.23},{"city":"Gardner","state_name":"North Dakota","lat":47.15463,"lng":-96.96318,"zip":"58036","miles_from_dt":12.85},{"city":"Shelly","state_name":"Minnesota","lat":47.45725,"lng":-96.76141,"zip":"56581","miles_from_dt":12.97},{"city":"Borup","state_name":"Minnesota","lat":47.15914,"lng":-96.4877,"zip":"56519","miles_from_dt":14.46},{"city":"Hillsboro","state_name":"North Dakota","lat":47.38241,"lng":-97.02686,"zip":"58045","miles_from_dt":15.21},{"city":"Caledonia","state_name":"North Dakota","lat":47.47606,"lng":-96.87831,"zip":"58219","miles_from_dt":15.5},{"city":"Argusville","state_name":"North Dakota","lat":47.05261,"lng":-96.951,"zip":"58005","miles_from_dt":17.77},{"city":"Nielsville","state_name":"Minnesota","lat":47.5292,"lng":-96.77925,"zip":"56568","miles_from_dt":17.98},{"city":"Felton","state_name":"Minnesota","lat":47.04596,"lng":-96.53173,"zip":"56536","miles_from_dt":18.53},{"city":"Cummings","state_name":"North Dakota","lat":47.51384,"lng":-97.02573,"zip":"58223","miles_from_dt":21.29},{"city":"Beltrami","state_name":"Minnesota","lat":47.55474,"lng":-96.53825,"zip":"56517","miles_from_dt":22.03},{"city":"Harwood","state_name":"North Dakota","lat":46.96952,"lng":-96.95719,"zip":"58042","miles_from_dt":22.95},{"city":"Hunter","state_name":"North Dakota","lat":47.19882,"lng":-97.22742,"zip":"58048","miles_from_dt":23.05},{"city":"Blanchard","state_name":"North Dakota","lat":47.32658,"lng":-97.24435,"zip":"58009","miles_from_dt":23.62},{"city":"Moorhead","state_name":"Minnesota","lat":46.92675,"lng":-96.71527,"zip":"56561","miles_from_dt":23.74},{"city":"Twin Valley","state_name":"Minnesota","lat":47.23087,"lng":-96.23496,"zip":"56584","miles_from_dt":24.31},{"city":"Fargo","state_name":"North Dakota","lat":46.9207,"lng":-96.83175,"zip":"58102","miles_from_dt":24.43},{"city":"Arthur","state_name":"North Dakota","lat":47.09682,"lng":-97.20359,"zip":"58006","miles_from_dt":24.53},{"city":"Gary","state_name":"Minnesota","lat":47.38527,"lng":-96.2399,"zip":"56545","miles_from_dt":25.2},{"city":"Climax","state_name":"Minnesota","lat":47.63838,"lng":-96.80871,"zip":"56523","miles_from_dt":25.62},{"city":"Fargo","state_name":"North Dakota","lat":46.89586,"lng":-96.80363,"zip":"58105","miles_from_dt":25.95},{"city":"Buxton","state_name":"North Dakota","lat":47.59689,"lng":-97.05412,"zip":"58218","miles_from_dt":26.76},{"city":"Ulen","state_name":"Minnesota","lat":47.08896,"lng":-96.24492,"zip":"56585","miles_from_dt":26.81},{"city":"Fargo","state_name":"North Dakota","lat":46.88156,"lng":-96.78471,"zip":"58122","miles_from_dt":26.87},{"city":"Dilworth","state_name":"Minnesota","lat":46.88027,"lng":-96.69754,"zip":"56529","miles_from_dt":27.01},{"city":"Fargo","state_name":"North Dakota","lat":46.87977,"lng":-96.8149,"zip":"58125","miles_from_dt":27.12},{"city":"Fargo","state_name":"North Dakota","lat":46.87489,"lng":-96.78449,"zip":"58126","miles_from_dt":27.33},{"city":"Fargo","state_name":"North Dakota","lat":46.8739,"lng":-96.78661,"zip":"58124","miles_from_dt":27.4},{"city":"Glyndon","state_name":"Minnesota","lat":46.89068,"lng":-96.55043,"zip":"56547","miles_from_dt":27.8},{"city":"Moorhead","state_name":"Minnesota","lat":46.8668,"lng":-96.75522,"zip":"56563","miles_from_dt":27.83},{"city":"Moorhead","state_name":"Minnesota","lat":46.86458,"lng":-96.77021,"zip":"56562","miles_from_dt":28},{"city":"Fargo","state_name":"North Dakota","lat":46.86511,"lng":-96.86189,"zip":"58121","miles_from_dt":28.46},{"city":"Fargo","state_name":"North Dakota","lat":46.85639,"lng":-96.82234,"zip":"58103","miles_from_dt":28.76},{"city":"Fargo","state_name":"North Dakota","lat":46.85177,"lng":-96.80081,"zip":"58108","miles_from_dt":28.97},{"city":"Fargo","state_name":"North Dakota","lat":46.85283,"lng":-96.82335,"zip":"58106","miles_from_dt":29.01},{"city":"Fertile","state_name":"Minnesota","lat":47.54255,"lng":-96.27671,"zip":"56540","miles_from_dt":29.07},{"city":"West Fargo","state_name":"North Dakota","lat":46.86276,"lng":-96.93125,"zip":"58078","miles_from_dt":29.4},{"city":"Mayville","state_name":"North Dakota","lat":47.49033,"lng":-97.28505,"zip":"58257","miles_from_dt":29.42},{"city":"Amenia","state_name":"North Dakota","lat":47.02713,"lng":-97.26212,"zip":"58004","miles_from_dt":29.43},{"city":"Moorhead","state_name":"Minnesota","lat":46.83637,"lng":-96.73467,"zip":"56560","miles_from_dt":29.94},{"city":"Flom","state_name":"Minnesota","lat":47.16606,"lng":-96.13081,"zip":"56541","miles_from_dt":29.95}],"targetCityZipCode":"56550","targetCityState":"Minnesota"},"__N_SSG":true}