{"pageProps":{"stateName":"Minnesota","cityName":"karlstad","nearbyCities":[{"city":"Halma","state_name":"Minnesota","lat":48.66558,"lng":-96.59438,"zip":"56729","miles_from_dt":7.19},{"city":"Strandquist","state_name":"Minnesota","lat":48.46201,"lng":-96.51891,"zip":"56758","miles_from_dt":8.67},{"city":"Lake Bronson","state_name":"Minnesota","lat":48.76776,"lng":-96.58134,"zip":"56734","miles_from_dt":13.18},{"city":"Greenbush","state_name":"Minnesota","lat":48.7258,"lng":-96.22712,"zip":"56726","miles_from_dt":15.52},{"city":"Newfolden","state_name":"Minnesota","lat":48.34448,"lng":-96.33456,"zip":"56738","miles_from_dt":18.22},{"city":"Kennedy","state_name":"Minnesota","lat":48.63342,"lng":-96.89149,"zip":"56733","miles_from_dt":18.56},{"city":"Donaldson","state_name":"Minnesota","lat":48.56788,"lng":-96.90632,"zip":"56720","miles_from_dt":19},{"city":"Strathcona","state_name":"Minnesota","lat":48.55188,"lng":-96.08011,"zip":"56759","miles_from_dt":19.07},{"city":"Stephen","state_name":"Minnesota","lat":48.47641,"lng":-96.90596,"zip":"56757","miles_from_dt":20.43},{"city":"Argyle","state_name":"Minnesota","lat":48.3487,"lng":-96.81717,"zip":"56713","miles_from_dt":22.17},{"city":"Lancaster","state_name":"Minnesota","lat":48.91328,"lng":-96.63659,"zip":"56735","miles_from_dt":23.53},{"city":"Viking","state_name":"Minnesota","lat":48.24037,"lng":-96.44586,"zip":"56760","miles_from_dt":24},{"city":"Middle River","state_name":"Minnesota","lat":48.41144,"lng":-96.01081,"zip":"56737","miles_from_dt":25.21},{"city":"Badger","state_name":"Minnesota","lat":48.78845,"lng":-96.00529,"zip":"56714","miles_from_dt":26.32},{"city":"Hallock","state_name":"Minnesota","lat":48.78736,"lng":-96.99149,"zip":"56728","miles_from_dt":26.71}],"targetCityZipCode":"56732","targetCityState":"Minnesota"},"__N_SSG":true}