{"pageProps":{"stateName":"Minnesota","cityName":"mentor","nearbyCities":[{"city":"Erskine","state_name":"Minnesota","lat":47.67541,"lng":-96.04611,"zip":"56535","miles_from_dt":7.86},{"city":"Fertile","state_name":"Minnesota","lat":47.54255,"lng":-96.27671,"zip":"56540","miles_from_dt":12.18},{"city":"Red Lake Falls","state_name":"Minnesota","lat":47.89027,"lng":-96.30172,"zip":"56750","miles_from_dt":13.09},{"city":"Brooks","state_name":"Minnesota","lat":47.80636,"lng":-95.94904,"zip":"56715","miles_from_dt":13.61},{"city":"Winger","state_name":"Minnesota","lat":47.53542,"lng":-96.00769,"zip":"56592","miles_from_dt":15.31},{"city":"Mcintosh","state_name":"Minnesota","lat":47.66403,"lng":-95.88349,"zip":"56556","miles_from_dt":15.39},{"city":"Crookston","state_name":"Minnesota","lat":47.74189,"lng":-96.55522,"zip":"56716","miles_from_dt":16.42},{"city":"Plummer","state_name":"Minnesota","lat":47.92066,"lng":-96.00743,"zip":"56748","miles_from_dt":17.11},{"city":"Beltrami","state_name":"Minnesota","lat":47.55474,"lng":-96.53825,"zip":"56517","miles_from_dt":18.96},{"city":"Saint Hilaire","state_name":"Minnesota","lat":47.99065,"lng":-96.18199,"zip":"56754","miles_from_dt":19.27},{"city":"Bejou","state_name":"Minnesota","lat":47.44368,"lng":-95.96663,"zip":"56516","miles_from_dt":21.65},{"city":"Gary","state_name":"Minnesota","lat":47.38527,"lng":-96.2399,"zip":"56545","miles_from_dt":22.64},{"city":"Oklee","state_name":"Minnesota","lat":47.92728,"lng":-95.82076,"zip":"56742","miles_from_dt":23.28},{"city":"Fosston","state_name":"Minnesota","lat":47.56679,"lng":-95.72331,"zip":"56542","miles_from_dt":24.66},{"city":"Trail","state_name":"Minnesota","lat":47.87109,"lng":-95.70401,"zip":"56684","miles_from_dt":25.81},{"city":"Gully","state_name":"Minnesota","lat":47.78925,"lng":-95.62865,"zip":"56646","miles_from_dt":27.41},{"city":"Euclid","state_name":"Minnesota","lat":47.9825,"lng":-96.64644,"zip":"56722","miles_from_dt":27.73},{"city":"Thief River Falls","state_name":"Minnesota","lat":48.12021,"lng":-96.1994,"zip":"56701","miles_from_dt":28.2},{"city":"Climax","state_name":"Minnesota","lat":47.63838,"lng":-96.80871,"zip":"56523","miles_from_dt":28.6},{"city":"Ada","state_name":"Minnesota","lat":47.35811,"lng":-96.52316,"zip":"56510","miles_from_dt":28.61},{"city":"Fisher","state_name":"Minnesota","lat":47.80493,"lng":-96.8059,"zip":"56723","miles_from_dt":28.69},{"city":"Nielsville","state_name":"Minnesota","lat":47.5292,"lng":-96.77925,"zip":"56568","miles_from_dt":29.62}],"targetCityZipCode":"56736","targetCityState":"Minnesota"},"__N_SSG":true}