{"pageProps":{"stateName":"Minnesota","cityName":"norcross","nearbyCities":[{"city":"Herman","state_name":"Minnesota","lat":45.79317,"lng":-96.13677,"zip":"56248","miles_from_dt":8.94},{"city":"Wendell","state_name":"Minnesota","lat":46.03514,"lng":-96.16093,"zip":"56590","miles_from_dt":9.96},{"city":"Tintah","state_name":"Minnesota","lat":46.00332,"lng":-96.40667,"zip":"56583","miles_from_dt":10.74},{"city":"Nashua","state_name":"Minnesota","lat":46.04861,"lng":-96.31511,"zip":"56565","miles_from_dt":10.82},{"city":"Wheaton","state_name":"Minnesota","lat":45.82981,"lng":-96.46953,"zip":"56296","miles_from_dt":12.2},{"city":"Elbow Lake","state_name":"Minnesota","lat":45.98967,"lng":-95.98376,"zip":"56531","miles_from_dt":13.69},{"city":"Barrett","state_name":"Minnesota","lat":45.89756,"lng":-95.89852,"zip":"56311","miles_from_dt":16.39},{"city":"Donnelly","state_name":"Minnesota","lat":45.70588,"lng":-96.01079,"zip":"56235","miles_from_dt":17.41},{"city":"Campbell","state_name":"Minnesota","lat":46.1352,"lng":-96.3887,"zip":"56522","miles_from_dt":17.69},{"city":"Dumont","state_name":"Minnesota","lat":45.66341,"lng":-96.40312,"zip":"56236","miles_from_dt":18.27},{"city":"Hoffman","state_name":"Minnesota","lat":45.8258,"lng":-95.82129,"zip":"56339","miles_from_dt":20.79},{"city":"Fairmount","state_name":"North Dakota","lat":46.03035,"lng":-96.66818,"zip":"58030","miles_from_dt":22.54},{"city":"Rosholt","state_name":"South Dakota","lat":45.83641,"lng":-96.7172,"zip":"57260","miles_from_dt":23.54},{"city":"Chokio","state_name":"Minnesota","lat":45.55583,"lng":-96.1938,"zip":"56221","miles_from_dt":23.97},{"city":"Dalton","state_name":"Minnesota","lat":46.16385,"lng":-95.90766,"zip":"56324","miles_from_dt":24.11},{"city":"Ashby","state_name":"Minnesota","lat":46.08035,"lng":-95.80202,"zip":"56309","miles_from_dt":24.37},{"city":"Graceville","state_name":"Minnesota","lat":45.56327,"lng":-96.47475,"zip":"56240","miles_from_dt":26.01},{"city":"Morris","state_name":"Minnesota","lat":45.58512,"lng":-95.9322,"zip":"56267","miles_from_dt":26.39},{"city":"Fergus Falls","state_name":"Minnesota","lat":46.27697,"lng":-96.08977,"zip":"56537","miles_from_dt":26.9},{"city":"Foxhome","state_name":"Minnesota","lat":46.28541,"lng":-96.33654,"zip":"56543","miles_from_dt":26.94},{"city":"Kensington","state_name":"Minnesota","lat":45.79088,"lng":-95.69765,"zip":"56343","miles_from_dt":27.19},{"city":"Fergus Falls","state_name":"Minnesota","lat":46.2828,"lng":-96.07481,"zip":"56538","miles_from_dt":27.49},{"city":"Evansville","state_name":"Minnesota","lat":46.02506,"lng":-95.68596,"zip":"56326","miles_from_dt":27.94},{"city":"Barry","state_name":"Minnesota","lat":45.55739,"lng":-96.55958,"zip":"56210","miles_from_dt":28.39},{"city":"Alberta","state_name":"Minnesota","lat":45.50266,"lng":-96.0708,"zip":"56207","miles_from_dt":28.71},{"city":"Breckenridge","state_name":"Minnesota","lat":46.28645,"lng":-96.50361,"zip":"56520","miles_from_dt":29.49}],"targetCityZipCode":"56274","targetCityState":"Minnesota"},"__N_SSG":true}