{"pageProps":{"stateName":"Minnesota","cityName":"pennock","nearbyCities":[{"city":"Kerkhoven","state_name":"Minnesota","lat":45.17785,"lng":-95.30397,"zip":"56252","miles_from_dt":6.8},{"city":"Sunburg","state_name":"Minnesota","lat":45.33334,"lng":-95.2236,"zip":"56289","miles_from_dt":8.4},{"city":"Willmar","state_name":"Minnesota","lat":45.10181,"lng":-95.04226,"zip":"56201","miles_from_dt":10.26},{"city":"Spicer","state_name":"Minnesota","lat":45.24218,"lng":-94.94847,"zip":"56288","miles_from_dt":11.24},{"city":"Murdock","state_name":"Minnesota","lat":45.24125,"lng":-95.41288,"zip":"56271","miles_from_dt":11.69},{"city":"New London","state_name":"Minnesota","lat":45.32163,"lng":-94.96777,"zip":"56273","miles_from_dt":12.48},{"city":"Raymond","state_name":"Minnesota","lat":45.03089,"lng":-95.21862,"zip":"56282","miles_from_dt":12.99},{"city":"Kandiyohi","state_name":"Minnesota","lat":45.14046,"lng":-94.9198,"zip":"56251","miles_from_dt":13.56},{"city":"Clara City","state_name":"Minnesota","lat":44.98586,"lng":-95.36229,"zip":"56222","miles_from_dt":18.35},{"city":"Prinsburg","state_name":"Minnesota","lat":44.94833,"lng":-95.16479,"zip":"56281","miles_from_dt":18.53},{"city":"Atwater","state_name":"Minnesota","lat":45.124,"lng":-94.79931,"zip":"56209","miles_from_dt":19.47},{"city":"Brooten","state_name":"Minnesota","lat":45.49959,"lng":-95.14992,"zip":"56316","miles_from_dt":19.59},{"city":"Blomkest","state_name":"Minnesota","lat":44.93886,"lng":-95.05532,"zip":"56216","miles_from_dt":20.06},{"city":"Belgrade","state_name":"Minnesota","lat":45.46285,"lng":-94.95323,"zip":"56312","miles_from_dt":20.17},{"city":"Benson","state_name":"Minnesota","lat":45.31077,"lng":-95.57233,"zip":"56215","miles_from_dt":20.4},{"city":"Lake Lillian","state_name":"Minnesota","lat":44.9628,"lng":-94.87889,"zip":"56253","miles_from_dt":22.76},{"city":"Maynard","state_name":"Minnesota","lat":44.96338,"lng":-95.48571,"zip":"56260","miles_from_dt":23.14},{"city":"Grove City","state_name":"Minnesota","lat":45.16868,"lng":-94.6799,"zip":"56243","miles_from_dt":24.44},{"city":"Paynesville","state_name":"Minnesota","lat":45.40524,"lng":-94.71525,"zip":"56362","miles_from_dt":25.95},{"city":"Elrosa","state_name":"Minnesota","lat":45.56303,"lng":-94.94732,"zip":"56325","miles_from_dt":26.39},{"city":"Glenwood","state_name":"Minnesota","lat":45.58402,"lng":-95.34765,"zip":"56334","miles_from_dt":26.72},{"city":"Clontarf","state_name":"Minnesota","lat":45.41065,"lng":-95.67705,"zip":"56226","miles_from_dt":27.86},{"city":"Danvers","state_name":"Minnesota","lat":45.2788,"lng":-95.76381,"zip":"56231","miles_from_dt":29},{"city":"Montevideo","state_name":"Minnesota","lat":45.0064,"lng":-95.70098,"zip":"56265","miles_from_dt":29.49},{"city":"Danube","state_name":"Minnesota","lat":44.79284,"lng":-95.09288,"zip":"56230","miles_from_dt":29.54},{"city":"Starbuck","state_name":"Minnesota","lat":45.55523,"lng":-95.54669,"zip":"56381","miles_from_dt":29.54}],"targetCityZipCode":"56279","targetCityState":"Minnesota"},"__N_SSG":true}