{"pageProps":{"stateName":"Minnesota","cityName":"richmond","nearbyCities":[{"city":"Roscoe","state_name":"Minnesota","lat":45.43333,"lng":-94.63707,"zip":"56371","miles_from_dt":4.92},{"city":"Cold Spring","state_name":"Minnesota","lat":45.4629,"lng":-94.4171,"zip":"56320","miles_from_dt":5.99},{"city":"Saint Martin","state_name":"Minnesota","lat":45.50241,"lng":-94.66731,"zip":"56376","miles_from_dt":7.15},{"city":"Paynesville","state_name":"Minnesota","lat":45.40524,"lng":-94.71525,"zip":"56362","miles_from_dt":9.14},{"city":"Rockville","state_name":"Minnesota","lat":45.46904,"lng":-94.3359,"zip":"56369","miles_from_dt":9.95},{"city":"Eden Valley","state_name":"Minnesota","lat":45.30798,"lng":-94.57039,"zip":"55329","miles_from_dt":10.03},{"city":"Collegeville","state_name":"Minnesota","lat":45.57969,"lng":-94.39288,"zip":"56321","miles_from_dt":11.35},{"city":"Watkins","state_name":"Minnesota","lat":45.2998,"lng":-94.43748,"zip":"55389","miles_from_dt":11.59},{"city":"Albany","state_name":"Minnesota","lat":45.62666,"lng":-94.58769,"zip":"56307","miles_from_dt":12.32},{"city":"Avon","state_name":"Minnesota","lat":45.63399,"lng":-94.44352,"zip":"56310","miles_from_dt":13.43},{"city":"Kimball","state_name":"Minnesota","lat":45.32034,"lng":-94.31607,"zip":"55353","miles_from_dt":14.14},{"city":"Saint Cloud","state_name":"Minnesota","lat":45.48275,"lng":-94.25029,"zip":"56397","miles_from_dt":14.2},{"city":"Saint Cloud","state_name":"Minnesota","lat":45.48271,"lng":-94.24842,"zip":"56398","miles_from_dt":14.29},{"city":"Saint Joseph","state_name":"Minnesota","lat":45.60381,"lng":-94.33816,"zip":"56374","miles_from_dt":14.34},{"city":"Saint Cloud","state_name":"Minnesota","lat":45.48718,"lng":-94.24307,"zip":"56301","miles_from_dt":14.6},{"city":"Waite Park","state_name":"Minnesota","lat":45.53215,"lng":-94.24141,"zip":"56387","miles_from_dt":15.5},{"city":"New Munich","state_name":"Minnesota","lat":45.63334,"lng":-94.73332,"zip":"56356","miles_from_dt":15.69},{"city":"Saint Cloud","state_name":"Minnesota","lat":45.54976,"lng":-94.22735,"zip":"56399","miles_from_dt":16.59},{"city":"Freeport","state_name":"Minnesota","lat":45.67926,"lng":-94.6742,"zip":"56331","miles_from_dt":17.03},{"city":"Saint Cloud","state_name":"Minnesota","lat":45.56,"lng":-94.22219,"zip":"56388","miles_from_dt":17.12},{"city":"Saint Cloud","state_name":"Minnesota","lat":45.56299,"lng":-94.21872,"zip":"56372","miles_from_dt":17.36},{"city":"Saint Cloud","state_name":"Minnesota","lat":45.56755,"lng":-94.21711,"zip":"56393","miles_from_dt":17.57},{"city":"Saint Cloud","state_name":"Minnesota","lat":45.56813,"lng":-94.21428,"zip":"56396","miles_from_dt":17.71},{"city":"Saint Cloud","state_name":"Minnesota","lat":45.57422,"lng":-94.21117,"zip":"56303","miles_from_dt":18.04},{"city":"Greenwald","state_name":"Minnesota","lat":45.60137,"lng":-94.85941,"zip":"56335","miles_from_dt":18.67},{"city":"Melrose","state_name":"Minnesota","lat":45.65078,"lng":-94.80076,"zip":"56352","miles_from_dt":18.72},{"city":"South Haven","state_name":"Minnesota","lat":45.30521,"lng":-94.20438,"zip":"55382","miles_from_dt":19.18},{"city":"Saint Cloud","state_name":"Minnesota","lat":45.56095,"lng":-94.16445,"zip":"56302","miles_from_dt":19.7},{"city":"Saint Cloud","state_name":"Minnesota","lat":45.56103,"lng":-94.16167,"zip":"56395","miles_from_dt":19.83},{"city":"Sartell","state_name":"Minnesota","lat":45.6405,"lng":-94.23033,"zip":"56377","miles_from_dt":19.87},{"city":"Belgrade","state_name":"Minnesota","lat":45.46285,"lng":-94.95323,"zip":"56312","miles_from_dt":20.14},{"city":"Grove City","state_name":"Minnesota","lat":45.16868,"lng":-94.6799,"zip":"56243","miles_from_dt":20.7},{"city":"Elrosa","state_name":"Minnesota","lat":45.56303,"lng":-94.94732,"zip":"56325","miles_from_dt":21.26},{"city":"Holdingford","state_name":"Minnesota","lat":45.75534,"lng":-94.44871,"zip":"56340","miles_from_dt":21.43},{"city":"Saint Stephen","state_name":"Minnesota","lat":45.70122,"lng":-94.27458,"zip":"56375","miles_from_dt":21.49},{"city":"Clearwater","state_name":"Minnesota","lat":45.39613,"lng":-94.08366,"zip":"55320","miles_from_dt":22.48},{"city":"New London","state_name":"Minnesota","lat":45.32163,"lng":-94.96777,"zip":"56273","miles_from_dt":22.7},{"city":"Saint Cloud","state_name":"Minnesota","lat":45.52512,"lng":-94.05199,"zip":"56304","miles_from_dt":24.21},{"city":"Litchfield","state_name":"Minnesota","lat":45.09709,"lng":-94.54017,"zip":"55355","miles_from_dt":24.48},{"city":"Spicer","state_name":"Minnesota","lat":45.24218,"lng":-94.94847,"zip":"56288","miles_from_dt":24.62},{"city":"Upsala","state_name":"Minnesota","lat":45.8099,"lng":-94.56759,"zip":"56384","miles_from_dt":24.78},{"city":"Annandale","state_name":"Minnesota","lat":45.24464,"lng":-94.11638,"zip":"55302","miles_from_dt":25.06},{"city":"Bowlus","state_name":"Minnesota","lat":45.81139,"lng":-94.43189,"zip":"56314","miles_from_dt":25.39},{"city":"Sauk Rapids","state_name":"Minnesota","lat":45.63966,"lng":-94.08394,"zip":"56379","miles_from_dt":25.63},{"city":"Atwater","state_name":"Minnesota","lat":45.124,"lng":-94.79931,"zip":"56209","miles_from_dt":25.93},{"city":"Dassel","state_name":"Minnesota","lat":45.08432,"lng":-94.32031,"zip":"55325","miles_from_dt":27.52},{"city":"Darwin","state_name":"Minnesota","lat":45.05676,"lng":-94.42554,"zip":"55324","miles_from_dt":27.82},{"city":"Grey Eagle","state_name":"Minnesota","lat":45.82349,"lng":-94.76175,"zip":"56336","miles_from_dt":27.86},{"city":"Rice","state_name":"Minnesota","lat":45.76107,"lng":-94.17026,"zip":"56367","miles_from_dt":27.87},{"city":"Kandiyohi","state_name":"Minnesota","lat":45.14046,"lng":-94.9198,"zip":"56251","miles_from_dt":28.39},{"city":"Sauk Centre","state_name":"Minnesota","lat":45.72308,"lng":-94.97982,"zip":"56378","miles_from_dt":28.43},{"city":"Burtrum","state_name":"Minnesota","lat":45.85332,"lng":-94.67085,"zip":"56318","miles_from_dt":28.47},{"city":"Clear Lake","state_name":"Minnesota","lat":45.47181,"lng":-93.94359,"zip":"55319","miles_from_dt":28.98},{"city":"Maple Lake","state_name":"Minnesota","lat":45.24637,"lng":-94.00049,"zip":"55358","miles_from_dt":29.82},{"city":"Brooten","state_name":"Minnesota","lat":45.49959,"lng":-95.14992,"zip":"56316","miles_from_dt":29.86}],"targetCityZipCode":"56368","targetCityState":"Minnesota"},"__N_SSG":true}