{"pageProps":{"stateName":"Minnesota","cityName":"walker","nearbyCities":[{"city":"Hackensack","state_name":"Minnesota","lat":46.94808,"lng":-94.46123,"zip":"56452","miles_from_dt":10.34},{"city":"Benedict","state_name":"Minnesota","lat":47.15765,"lng":-94.69043,"zip":"56436","miles_from_dt":11.01},{"city":"Federal Dam","state_name":"Minnesota","lat":47.19848,"lng":-94.25804,"zip":"56641","miles_from_dt":12.35},{"city":"Akeley","state_name":"Minnesota","lat":46.9598,"lng":-94.68519,"zip":"56433","miles_from_dt":13.78},{"city":"Longville","state_name":"Minnesota","lat":46.98292,"lng":-94.23014,"zip":"56655","miles_from_dt":13.98},{"city":"Cass Lake","state_name":"Minnesota","lat":47.31957,"lng":-94.50911,"zip":"56633","miles_from_dt":15.43},{"city":"Nevis","state_name":"Minnesota","lat":46.97714,"lng":-94.83753,"zip":"56467","miles_from_dt":19.07},{"city":"Backus","state_name":"Minnesota","lat":46.80872,"lng":-94.53089,"zip":"56435","miles_from_dt":20.12},{"city":"Laporte","state_name":"Minnesota","lat":47.22817,"lng":-94.85877,"zip":"56461","miles_from_dt":20.25},{"city":"Remer","state_name":"Minnesota","lat":47.0734,"lng":-94.02267,"zip":"56672","miles_from_dt":21.37},{"city":"Bena","state_name":"Minnesota","lat":47.36404,"lng":-94.18421,"zip":"56626","miles_from_dt":22.92},{"city":"Lake George","state_name":"Minnesota","lat":47.19924,"lng":-94.99341,"zip":"56458","miles_from_dt":25.46},{"city":"Pine River","state_name":"Minnesota","lat":46.72238,"lng":-94.39597,"zip":"56474","miles_from_dt":26.17},{"city":"Pennington","state_name":"Minnesota","lat":47.49997,"lng":-94.45431,"zip":"56663","miles_from_dt":27.82},{"city":"Fifty Lakes","state_name":"Minnesota","lat":46.78604,"lng":-94.09014,"zip":"56448","miles_from_dt":28.16},{"city":"Park Rapids","state_name":"Minnesota","lat":47.02368,"lng":-95.09433,"zip":"56470","miles_from_dt":29.72}],"targetCityZipCode":"56484","targetCityState":"Minnesota"},"__N_SSG":true}