{"pageProps":{"stateName":"Minnesota","cityName":"watson","nearbyCities":[{"city":"Milan","state_name":"Minnesota","lat":45.12276,"lng":-95.86843,"zip":"56262","miles_from_dt":5.6},{"city":"Montevideo","state_name":"Minnesota","lat":45.0064,"lng":-95.70098,"zip":"56265","miles_from_dt":7.41},{"city":"Dawson","state_name":"Minnesota","lat":44.92836,"lng":-96.03968,"zip":"56232","miles_from_dt":12.51},{"city":"Boyd","state_name":"Minnesota","lat":44.82642,"lng":-95.94363,"zip":"56218","miles_from_dt":15.8},{"city":"Appleton","state_name":"Minnesota","lat":45.24422,"lng":-96.00961,"zip":"56208","miles_from_dt":16.07},{"city":"Danvers","state_name":"Minnesota","lat":45.2788,"lng":-95.76381,"zip":"56231","miles_from_dt":16.69},{"city":"Madison","state_name":"Minnesota","lat":45.02306,"lng":-96.19986,"zip":"56256","miles_from_dt":17.54},{"city":"Maynard","state_name":"Minnesota","lat":44.96338,"lng":-95.48571,"zip":"56260","miles_from_dt":18.36},{"city":"Holloway","state_name":"Minnesota","lat":45.31795,"lng":-95.89899,"zip":"56249","miles_from_dt":19.14},{"city":"Clarkfield","state_name":"Minnesota","lat":44.76259,"lng":-95.81691,"zip":"56223","miles_from_dt":19.45},{"city":"Granite Falls","state_name":"Minnesota","lat":44.79654,"lng":-95.57944,"zip":"56241","miles_from_dt":21.41},{"city":"Benson","state_name":"Minnesota","lat":45.31077,"lng":-95.57233,"zip":"56215","miles_from_dt":22.69},{"city":"Correll","state_name":"Minnesota","lat":45.29436,"lng":-96.16938,"zip":"56227","miles_from_dt":23.54},{"city":"Clara City","state_name":"Minnesota","lat":44.98586,"lng":-95.36229,"zip":"56222","miles_from_dt":23.88},{"city":"Bellingham","state_name":"Minnesota","lat":45.13499,"lng":-96.32459,"zip":"56212","miles_from_dt":24.39},{"city":"Murdock","state_name":"Minnesota","lat":45.24125,"lng":-95.41288,"zip":"56271","miles_from_dt":25.06},{"city":"Hanley Falls","state_name":"Minnesota","lat":44.68508,"lng":-95.67574,"zip":"56245","miles_from_dt":26.09},{"city":"Clontarf","state_name":"Minnesota","lat":45.41065,"lng":-95.67705,"zip":"56226","miles_from_dt":26.6},{"city":"Odessa","state_name":"Minnesota","lat":45.24134,"lng":-96.31249,"zip":"56276","miles_from_dt":26.7},{"city":"Marietta","state_name":"Minnesota","lat":44.9684,"lng":-96.40275,"zip":"56257","miles_from_dt":27.91},{"city":"Kerkhoven","state_name":"Minnesota","lat":45.17785,"lng":-95.30397,"zip":"56252","miles_from_dt":27.93}],"targetCityZipCode":"56295","targetCityState":"Minnesota"},"__N_SSG":true}