{"pageProps":{"stateName":"Oklahoma","cityName":"arnett","nearbyCities":[{"city":"Crawford","state_name":"Oklahoma","lat":35.86532,"lng":-99.79059,"zip":"73638","miles_from_dt":14.95},{"city":"Shattuck","state_name":"Oklahoma","lat":36.17037,"lng":-99.92442,"zip":"73858","miles_from_dt":17.02},{"city":"Leedey","state_name":"Oklahoma","lat":35.85908,"lng":-99.37483,"zip":"73654","miles_from_dt":20.7},{"city":"Durham","state_name":"Oklahoma","lat":35.81909,"lng":-99.90887,"zip":"73642","miles_from_dt":21.44},{"city":"Vici","state_name":"Oklahoma","lat":36.13309,"lng":-99.2797,"zip":"73859","miles_from_dt":21.82},{"city":"Fargo","state_name":"Oklahoma","lat":36.39436,"lng":-99.64581,"zip":"73840","miles_from_dt":23.55},{"city":"Sharon","state_name":"Oklahoma","lat":36.27223,"lng":-99.33235,"zip":"73857","miles_from_dt":23.62},{"city":"Camargo","state_name":"Oklahoma","lat":35.97327,"lng":-99.21279,"zip":"73835","miles_from_dt":25.48},{"city":"Gage","state_name":"Oklahoma","lat":36.39805,"lng":-99.83566,"zip":"73843","miles_from_dt":25.8},{"city":"Higgins","state_name":"Texas","lat":36.14237,"lng":-100.10709,"zip":"79046","miles_from_dt":25.94},{"city":"Cheyenne","state_name":"Oklahoma","lat":35.62668,"lng":-99.68783,"zip":"73628","miles_from_dt":29.44},{"city":"Woodward","state_name":"Oklahoma","lat":36.42207,"lng":-99.38836,"zip":"73802","miles_from_dt":29.54}],"targetCityZipCode":"73832","targetCityState":"Oklahoma"},"__N_SSG":true}