{"pageProps":{"stateName":"Oklahoma","cityName":"atoka","nearbyCities":[{"city":"Lane","state_name":"Oklahoma","lat":34.2459,"lng":-95.96944,"zip":"74555","miles_from_dt":7.84},{"city":"Caney","state_name":"Oklahoma","lat":34.20521,"lng":-96.18893,"zip":"74533","miles_from_dt":11.73},{"city":"Lehigh","state_name":"Oklahoma","lat":34.46102,"lng":-96.19878,"zip":"74556","miles_from_dt":11.96},{"city":"Stringtown","state_name":"Oklahoma","lat":34.47921,"lng":-95.90315,"zip":"74569","miles_from_dt":13.25},{"city":"Caddo","state_name":"Oklahoma","lat":34.14674,"lng":-96.25289,"zip":"74729","miles_from_dt":17.17},{"city":"Coalgate","state_name":"Oklahoma","lat":34.57453,"lng":-96.25575,"zip":"74538","miles_from_dt":20.11},{"city":"Moyers","state_name":"Oklahoma","lat":34.40355,"lng":-95.69344,"zip":"74557","miles_from_dt":21.24},{"city":"Coleman","state_name":"Oklahoma","lat":34.25605,"lng":-96.42311,"zip":"73432","miles_from_dt":21.7},{"city":"Wapanucka","state_name":"Oklahoma","lat":34.35726,"lng":-96.43418,"zip":"73461","miles_from_dt":21.7},{"city":"Wardville","state_name":"Oklahoma","lat":34.67046,"lng":-96.04259,"zip":"74576","miles_from_dt":23.18},{"city":"Bennington","state_name":"Oklahoma","lat":33.98958,"lng":-96.0233,"zip":"74723","miles_from_dt":23.84},{"city":"Clarita","state_name":"Oklahoma","lat":34.48384,"lng":-96.44202,"zip":"74535","miles_from_dt":24.36},{"city":"Boswell","state_name":"Oklahoma","lat":34.01907,"lng":-95.86018,"zip":"74727","miles_from_dt":24.45},{"city":"Daisy","state_name":"Oklahoma","lat":34.55776,"lng":-95.70167,"zip":"74540","miles_from_dt":25.41},{"city":"Kenefic","state_name":"Oklahoma","lat":34.16082,"lng":-96.44879,"zip":"74748","miles_from_dt":25.49},{"city":"Centrahoma","state_name":"Oklahoma","lat":34.61965,"lng":-96.36634,"zip":"74534","miles_from_dt":26.48},{"city":"Antlers","state_name":"Oklahoma","lat":34.25171,"lng":-95.60018,"zip":"74523","miles_from_dt":26.67},{"city":"Kiowa","state_name":"Oklahoma","lat":34.70808,"lng":-95.91859,"zip":"74553","miles_from_dt":26.92},{"city":"Bromide","state_name":"Oklahoma","lat":34.42677,"lng":-96.5152,"zip":"74530","miles_from_dt":27.02},{"city":"Soper","state_name":"Oklahoma","lat":34.06088,"lng":-95.71278,"zip":"74759","miles_from_dt":27.22},{"city":"Bokchito","state_name":"Oklahoma","lat":33.94966,"lng":-96.18135,"zip":"74726","miles_from_dt":27.48},{"city":"Pittsburg","state_name":"Oklahoma","lat":34.64717,"lng":-95.74679,"zip":"74560","miles_from_dt":27.85},{"city":"Milburn","state_name":"Oklahoma","lat":34.26689,"lng":-96.53801,"zip":"73450","miles_from_dt":27.98},{"city":"Durant","state_name":"Oklahoma","lat":34.00974,"lng":-96.3769,"zip":"74701","miles_from_dt":28.97},{"city":"Tupelo","state_name":"Oklahoma","lat":34.63831,"lng":-96.42594,"zip":"74572","miles_from_dt":29.76}],"targetCityZipCode":"74525","targetCityState":"Oklahoma"},"__N_SSG":true}