{"pageProps":{"stateName":"Oklahoma","cityName":"beaver","nearbyCities":[{"city":"Forgan","state_name":"Oklahoma","lat":36.92585,"lng":-100.58497,"zip":"73938","miles_from_dt":16},{"city":"Balko","state_name":"Oklahoma","lat":36.60097,"lng":-100.80329,"zip":"73931","miles_from_dt":17.2},{"city":"Darrouzett","state_name":"Texas","lat":36.43877,"lng":-100.35188,"zip":"79024","miles_from_dt":20.27},{"city":"Booker","state_name":"Texas","lat":36.3874,"lng":-100.50627,"zip":"79005","miles_from_dt":21.57},{"city":"Turpin","state_name":"Oklahoma","lat":36.85193,"lng":-100.88621,"zip":"73950","miles_from_dt":22.9},{"city":"Gate","state_name":"Oklahoma","lat":36.89715,"lng":-100.16763,"zip":"73844","miles_from_dt":23.77},{"city":"Laverne","state_name":"Oklahoma","lat":36.64843,"lng":-100.023,"zip":"73848","miles_from_dt":27.79},{"city":"Follett","state_name":"Texas","lat":36.37524,"lng":-100.16581,"zip":"79034","miles_from_dt":29.8}],"targetCityZipCode":"73932","targetCityState":"Oklahoma"},"__N_SSG":true}