{"pageProps":{"stateName":"Oklahoma","cityName":"burlington","nearbyCities":[{"city":"Amorita","state_name":"Oklahoma","lat":36.96026,"lng":-98.26746,"zip":"73719","miles_from_dt":6.71},{"city":"Cherokee","state_name":"Oklahoma","lat":36.73508,"lng":-98.39376,"zip":"73728","miles_from_dt":11.62},{"city":"Hazelton","state_name":"Kansas","lat":37.08593,"lng":-98.37673,"zip":"67061","miles_from_dt":12.7},{"city":"Waldron","state_name":"Kansas","lat":37.03207,"lng":-98.20187,"zip":"67150","miles_from_dt":12.71},{"city":"Kiowa","state_name":"Kansas","lat":37.0696,"lng":-98.53204,"zip":"67070","miles_from_dt":14.82},{"city":"Manchester","state_name":"Oklahoma","lat":36.93239,"lng":-98.0875,"zip":"73758","miles_from_dt":15.48},{"city":"Jet","state_name":"Oklahoma","lat":36.70566,"lng":-98.16283,"zip":"73749","miles_from_dt":17.56},{"city":"Anthony","state_name":"Kansas","lat":37.1109,"lng":-98.06319,"zip":"67003","miles_from_dt":22.03},{"city":"Dacoma","state_name":"Oklahoma","lat":36.64397,"lng":-98.59915,"zip":"73731","miles_from_dt":22.05},{"city":"Hopeton","state_name":"Oklahoma","lat":36.6882,"lng":-98.66202,"zip":"73746","miles_from_dt":22.13},{"city":"Wakita","state_name":"Oklahoma","lat":36.87533,"lng":-97.95653,"zip":"73771","miles_from_dt":22.67},{"city":"Attica","state_name":"Kansas","lat":37.22153,"lng":-98.26369,"zip":"67009","miles_from_dt":22.73},{"city":"Alva","state_name":"Oklahoma","lat":36.84161,"lng":-98.77807,"zip":"73717","miles_from_dt":23.29},{"city":"Carmen","state_name":"Oklahoma","lat":36.58022,"lng":-98.50405,"zip":"73726","miles_from_dt":23.5},{"city":"Nash","state_name":"Oklahoma","lat":36.68452,"lng":-98.03647,"zip":"73761","miles_from_dt":23.57},{"city":"Helena","state_name":"Oklahoma","lat":36.55071,"lng":-98.26619,"zip":"73741","miles_from_dt":24.83},{"city":"Sharon","state_name":"Kansas","lat":37.25996,"lng":-98.41858,"zip":"67138","miles_from_dt":24.87},{"city":"Hardtner","state_name":"Kansas","lat":37.05954,"lng":-98.77864,"zip":"67057","miles_from_dt":25.36},{"city":"Goltry","state_name":"Oklahoma","lat":36.51999,"lng":-98.13697,"zip":"73739","miles_from_dt":29.21}],"targetCityZipCode":"73722","targetCityState":"Oklahoma"},"__N_SSG":true}