{"pageProps":{"stateName":"Oklahoma","cityName":"camargo","nearbyCities":[{"city":"Taloga","state_name":"Oklahoma","lat":36.00523,"lng":-99.03062,"zip":"73667","miles_from_dt":10.44},{"city":"Vici","state_name":"Oklahoma","lat":36.13309,"lng":-99.2797,"zip":"73859","miles_from_dt":11.64},{"city":"Leedey","state_name":"Oklahoma","lat":35.85908,"lng":-99.37483,"zip":"73654","miles_from_dt":12.02},{"city":"Putnam","state_name":"Oklahoma","lat":35.87337,"lng":-98.94582,"zip":"73659","miles_from_dt":16.48},{"city":"Mutual","state_name":"Oklahoma","lat":36.24333,"lng":-99.15664,"zip":"73853","miles_from_dt":18.88},{"city":"Butler","state_name":"Oklahoma","lat":35.6964,"lng":-99.19698,"zip":"73625","miles_from_dt":19.11},{"city":"Seiling","state_name":"Oklahoma","lat":36.10622,"lng":-98.90291,"zip":"73663","miles_from_dt":19.62},{"city":"Sharon","state_name":"Oklahoma","lat":36.27223,"lng":-99.33235,"zip":"73857","miles_from_dt":21.67},{"city":"Custer City","state_name":"Oklahoma","lat":35.72666,"lng":-98.95578,"zip":"73639","miles_from_dt":22.3},{"city":"Arnett","state_name":"Oklahoma","lat":36.05298,"lng":-99.65687,"zip":"73832","miles_from_dt":25.48},{"city":"Hammon","state_name":"Oklahoma","lat":35.64173,"lng":-99.41729,"zip":"73650","miles_from_dt":25.58},{"city":"Chester","state_name":"Oklahoma","lat":36.24575,"lng":-98.87579,"zip":"73838","miles_from_dt":26.62},{"city":"Arapaho","state_name":"Oklahoma","lat":35.61387,"lng":-99.02278,"zip":"73620","miles_from_dt":26.98},{"city":"Oakwood","state_name":"Oklahoma","lat":35.94776,"lng":-98.71784,"zip":"73658","miles_from_dt":27.8}],"targetCityZipCode":"73835","targetCityState":"Oklahoma"},"__N_SSG":true}