{"pageProps":{"stateName":"Oklahoma","cityName":"cameron","nearbyCities":[{"city":"Panama","state_name":"Oklahoma","lat":35.17099,"lng":-94.66482,"zip":"74951","miles_from_dt":7.53},{"city":"Pocola","state_name":"Oklahoma","lat":35.24568,"lng":-94.47715,"zip":"74902","miles_from_dt":7.55},{"city":"Poteau","state_name":"Oklahoma","lat":35.03931,"lng":-94.57156,"zip":"74953","miles_from_dt":7.71},{"city":"Hackett","state_name":"Arkansas","lat":35.13764,"lng":-94.39545,"zip":"72937","miles_from_dt":7.93},{"city":"Spiro","state_name":"Oklahoma","lat":35.26288,"lng":-94.63326,"zip":"74959","miles_from_dt":9.73},{"city":"Midland","state_name":"Arkansas","lat":35.09559,"lng":-94.36297,"zip":"72945","miles_from_dt":10.37},{"city":"Monroe","state_name":"Oklahoma","lat":34.99149,"lng":-94.51589,"zip":"74947","miles_from_dt":10.78},{"city":"Fort Smith","state_name":"Arkansas","lat":35.27236,"lng":-94.37256,"zip":"72916","miles_from_dt":12.62},{"city":"Fort Smith","state_name":"Arkansas","lat":35.30173,"lng":-94.40802,"zip":"72918","miles_from_dt":12.86},{"city":"Arkoma","state_name":"Oklahoma","lat":35.32798,"lng":-94.47166,"zip":"74901","miles_from_dt":12.98},{"city":"Hartford","state_name":"Arkansas","lat":35.00665,"lng":-94.38097,"zip":"72938","miles_from_dt":13.03},{"city":"Fort Smith","state_name":"Arkansas","lat":35.30595,"lng":-94.4099,"zip":"72908","miles_from_dt":13.04},{"city":"Bokoshe","state_name":"Oklahoma","lat":35.18409,"lng":-94.77573,"zip":"74930","miles_from_dt":13.86},{"city":"Shady Point","state_name":"Oklahoma","lat":35.09487,"lng":-94.77334,"zip":"74956","miles_from_dt":13.97},{"city":"Howe","state_name":"Oklahoma","lat":34.94979,"lng":-94.63167,"zip":"74940","miles_from_dt":14.66},{"city":"Fort Smith","state_name":"Arkansas","lat":35.33063,"lng":-94.3966,"zip":"72906","miles_from_dt":14.88},{"city":"Huntington","state_name":"Arkansas","lat":35.11488,"lng":-94.26427,"zip":"72940","miles_from_dt":15.49},{"city":"Fort Smith","state_name":"Arkansas","lat":35.33123,"lng":-94.37681,"zip":"72917","miles_from_dt":15.54},{"city":"Fort Smith","state_name":"Arkansas","lat":35.3197,"lng":-94.35318,"zip":"72902","miles_from_dt":15.73},{"city":"Fort Smith","state_name":"Arkansas","lat":35.3652,"lng":-94.4155,"zip":"72901","miles_from_dt":16.49},{"city":"Fort Smith","state_name":"Arkansas","lat":35.35241,"lng":-94.36042,"zip":"72903","miles_from_dt":17.26},{"city":"Greenwood","state_name":"Arkansas","lat":35.1896,"lng":-94.23069,"zip":"72936","miles_from_dt":17.48},{"city":"Fort Smith","state_name":"Arkansas","lat":35.35224,"lng":-94.35302,"zip":"72919","miles_from_dt":17.5},{"city":"Barling","state_name":"Arkansas","lat":35.30904,"lng":-94.28954,"zip":"72923","miles_from_dt":17.82},{"city":"Moffett","state_name":"Oklahoma","lat":35.39613,"lng":-94.45093,"zip":"74946","miles_from_dt":17.82},{"city":"Fort Smith","state_name":"Arkansas","lat":35.38587,"lng":-94.39973,"zip":"72914","miles_from_dt":18.16},{"city":"Fort Smith","state_name":"Arkansas","lat":35.26004,"lng":-94.24265,"zip":"72905","miles_from_dt":18.29},{"city":"Mansfield","state_name":"Arkansas","lat":35.03366,"lng":-94.24173,"zip":"72944","miles_from_dt":18.36},{"city":"Fort Smith","state_name":"Arkansas","lat":35.38415,"lng":-94.37617,"zip":"72913","miles_from_dt":18.65},{"city":"Roland","state_name":"Oklahoma","lat":35.41596,"lng":-94.49043,"zip":"74954","miles_from_dt":18.71},{"city":"Gans","state_name":"Oklahoma","lat":35.39042,"lng":-94.72772,"zip":"74936","miles_from_dt":20.01},{"city":"Fort Smith","state_name":"Arkansas","lat":35.4151,"lng":-94.38338,"zip":"72904","miles_from_dt":20.37},{"city":"Keota","state_name":"Oklahoma","lat":35.26453,"lng":-94.87854,"zip":"74941","miles_from_dt":21.06},{"city":"Muldrow","state_name":"Oklahoma","lat":35.46207,"lng":-94.56284,"zip":"74948","miles_from_dt":21.78},{"city":"Heavener","state_name":"Oklahoma","lat":34.83303,"lng":-94.58321,"zip":"74937","miles_from_dt":21.82},{"city":"Van Buren","state_name":"Arkansas","lat":35.43861,"lng":-94.35259,"zip":"72957","miles_from_dt":22.59},{"city":"Fanshawe","state_name":"Oklahoma","lat":34.95433,"lng":-94.89687,"zip":"74935","miles_from_dt":24.44},{"city":"Van Buren","state_name":"Arkansas","lat":35.46895,"lng":-94.3489,"zip":"72956","miles_from_dt":24.56},{"city":"Lavaca","state_name":"Arkansas","lat":35.35018,"lng":-94.16214,"zip":"72941","miles_from_dt":25.31},{"city":"Wister","state_name":"Oklahoma","lat":34.89556,"lng":-94.86894,"zip":"74966","miles_from_dt":25.67},{"city":"Mccurtain","state_name":"Oklahoma","lat":35.12421,"lng":-95.00779,"zip":"74944","miles_from_dt":26.82},{"city":"Sallisaw","state_name":"Oklahoma","lat":35.50213,"lng":-94.75547,"zip":"74955","miles_from_dt":27.47},{"city":"Waldron","state_name":"Arkansas","lat":34.90173,"lng":-94.14659,"zip":"72958","miles_from_dt":27.77},{"city":"Alma","state_name":"Arkansas","lat":35.46953,"lng":-94.19686,"zip":"72921","miles_from_dt":29.32}],"targetCityZipCode":"74932","targetCityState":"Oklahoma"},"__N_SSG":true}