{"pageProps":{"stateName":"Oklahoma","cityName":"cherokee","nearbyCities":[{"city":"Burlington","state_name":"Oklahoma","lat":36.90196,"lng":-98.36445,"zip":"73722","miles_from_dt":11.62},{"city":"Carmen","state_name":"Oklahoma","lat":36.58022,"lng":-98.50405,"zip":"73726","miles_from_dt":12.31},{"city":"Jet","state_name":"Oklahoma","lat":36.70566,"lng":-98.16283,"zip":"73749","miles_from_dt":12.98},{"city":"Dacoma","state_name":"Oklahoma","lat":36.64397,"lng":-98.59915,"zip":"73731","miles_from_dt":13.02},{"city":"Helena","state_name":"Oklahoma","lat":36.55071,"lng":-98.26619,"zip":"73741","miles_from_dt":14.56},{"city":"Hopeton","state_name":"Oklahoma","lat":36.6882,"lng":-98.66202,"zip":"73746","miles_from_dt":15.24},{"city":"Amorita","state_name":"Oklahoma","lat":36.96026,"lng":-98.26746,"zip":"73719","miles_from_dt":17.03},{"city":"Aline","state_name":"Oklahoma","lat":36.48417,"lng":-98.55316,"zip":"73716","miles_from_dt":19.44},{"city":"Nash","state_name":"Oklahoma","lat":36.68452,"lng":-98.03647,"zip":"73761","miles_from_dt":20.14},{"city":"Goltry","state_name":"Oklahoma","lat":36.51999,"lng":-98.13697,"zip":"73739","miles_from_dt":20.58},{"city":"Manchester","state_name":"Oklahoma","lat":36.93239,"lng":-98.0875,"zip":"73758","miles_from_dt":21.76},{"city":"Alva","state_name":"Oklahoma","lat":36.84161,"lng":-98.77807,"zip":"73717","miles_from_dt":22.54},{"city":"Waldron","state_name":"Kansas","lat":37.03207,"lng":-98.20187,"zip":"67150","miles_from_dt":23.07},{"city":"Cleo Springs","state_name":"Oklahoma","lat":36.39723,"lng":-98.45256,"zip":"73729","miles_from_dt":23.52},{"city":"Hazelton","state_name":"Kansas","lat":37.08593,"lng":-98.37673,"zip":"67061","miles_from_dt":24.21},{"city":"Kiowa","state_name":"Kansas","lat":37.0696,"lng":-98.53204,"zip":"67070","miles_from_dt":24.31},{"city":"Hillsdale","state_name":"Oklahoma","lat":36.56324,"lng":-97.9927,"zip":"73743","miles_from_dt":25.24},{"city":"Wakita","state_name":"Oklahoma","lat":36.87533,"lng":-97.95653,"zip":"73771","miles_from_dt":26.1},{"city":"Carrier","state_name":"Oklahoma","lat":36.48309,"lng":-98.03839,"zip":"73727","miles_from_dt":26.31},{"city":"Ringwood","state_name":"Oklahoma","lat":36.36265,"lng":-98.27907,"zip":"73768","miles_from_dt":26.46},{"city":"Meno","state_name":"Oklahoma","lat":36.38658,"lng":-98.1693,"zip":"73760","miles_from_dt":27.08},{"city":"Lahoma","state_name":"Oklahoma","lat":36.39016,"lng":-98.09455,"zip":"73754","miles_from_dt":29.03},{"city":"Waynoka","state_name":"Oklahoma","lat":36.53573,"lng":-98.86265,"zip":"73860","miles_from_dt":29.46}],"targetCityZipCode":"73728","targetCityState":"Oklahoma"},"__N_SSG":true}