{"pageProps":{"stateName":"Oklahoma","cityName":"coleman","nearbyCities":[{"city":"Milburn","state_name":"Oklahoma","lat":34.26689,"lng":-96.53801,"zip":"73450","miles_from_dt":6.62},{"city":"Kenefic","state_name":"Oklahoma","lat":34.16082,"lng":-96.44879,"zip":"74748","miles_from_dt":6.73},{"city":"Wapanucka","state_name":"Oklahoma","lat":34.35726,"lng":-96.43418,"zip":"73461","miles_from_dt":7},{"city":"Caddo","state_name":"Oklahoma","lat":34.14674,"lng":-96.25289,"zip":"74729","miles_from_dt":12.32},{"city":"Bromide","state_name":"Oklahoma","lat":34.42677,"lng":-96.5152,"zip":"74530","miles_from_dt":12.89},{"city":"Caney","state_name":"Oklahoma","lat":34.20521,"lng":-96.18893,"zip":"74533","miles_from_dt":13.86},{"city":"Tishomingo","state_name":"Oklahoma","lat":34.28789,"lng":-96.66689,"zip":"73460","miles_from_dt":14.12},{"city":"Clarita","state_name":"Oklahoma","lat":34.48384,"lng":-96.44202,"zip":"74535","miles_from_dt":15.74},{"city":"Durant","state_name":"Oklahoma","lat":34.00974,"lng":-96.3769,"zip":"74701","miles_from_dt":17.18},{"city":"Connerville","state_name":"Oklahoma","lat":34.44436,"lng":-96.62581,"zip":"74836","miles_from_dt":17.4},{"city":"Lehigh","state_name":"Oklahoma","lat":34.46102,"lng":-96.19878,"zip":"74556","miles_from_dt":19.08},{"city":"Mead","state_name":"Oklahoma","lat":33.99471,"lng":-96.54114,"zip":"73449","miles_from_dt":19.24},{"city":"Ravia","state_name":"Oklahoma","lat":34.22651,"lng":-96.75997,"zip":"73455","miles_from_dt":19.39},{"city":"Atoka","state_name":"Oklahoma","lat":34.33441,"lng":-96.05563,"zip":"74525","miles_from_dt":21.7},{"city":"Durant","state_name":"Oklahoma","lat":33.9322,"lng":-96.43523,"zip":"74702","miles_from_dt":22.33},{"city":"Madill","state_name":"Oklahoma","lat":34.0891,"lng":-96.77806,"zip":"73446","miles_from_dt":23.36},{"city":"Coalgate","state_name":"Oklahoma","lat":34.57453,"lng":-96.25575,"zip":"74538","miles_from_dt":23.94},{"city":"Calera","state_name":"Oklahoma","lat":33.90466,"lng":-96.43361,"zip":"74730","miles_from_dt":24.23},{"city":"Mannsville","state_name":"Oklahoma","lat":34.22463,"lng":-96.84616,"zip":"73447","miles_from_dt":24.31},{"city":"Mill Creek","state_name":"Oklahoma","lat":34.39853,"lng":-96.81829,"zip":"74856","miles_from_dt":24.64},{"city":"Stonewall","state_name":"Oklahoma","lat":34.59942,"lng":-96.5528,"zip":"74871","miles_from_dt":24.8},{"city":"Platter","state_name":"Oklahoma","lat":33.90777,"lng":-96.53496,"zip":"74753","miles_from_dt":24.85},{"city":"Bokchito","state_name":"Oklahoma","lat":33.94966,"lng":-96.18135,"zip":"74726","miles_from_dt":25.26},{"city":"Centrahoma","state_name":"Oklahoma","lat":34.61965,"lng":-96.36634,"zip":"74534","miles_from_dt":25.27},{"city":"Lane","state_name":"Oklahoma","lat":34.2459,"lng":-95.96944,"zip":"74555","miles_from_dt":25.98},{"city":"Tupelo","state_name":"Oklahoma","lat":34.63831,"lng":-96.42594,"zip":"74572","miles_from_dt":26.35},{"city":"Fittstown","state_name":"Oklahoma","lat":34.6166,"lng":-96.61456,"zip":"74842","miles_from_dt":27.15},{"city":"Cartwright","state_name":"Oklahoma","lat":33.8753,"lng":-96.57313,"zip":"74731","miles_from_dt":27.62},{"city":"Kingston","state_name":"Oklahoma","lat":33.93643,"lng":-96.74708,"zip":"73439","miles_from_dt":28.82},{"city":"Bennington","state_name":"Oklahoma","lat":33.98958,"lng":-96.0233,"zip":"74723","miles_from_dt":29.37},{"city":"Achille","state_name":"Oklahoma","lat":33.83141,"lng":-96.37768,"zip":"74720","miles_from_dt":29.38},{"city":"Colbert","state_name":"Oklahoma","lat":33.83053,"lng":-96.47546,"zip":"74733","miles_from_dt":29.48},{"city":"Albany","state_name":"Oklahoma","lat":33.87977,"lng":-96.16266,"zip":"74721","miles_from_dt":29.93}],"targetCityZipCode":"73432","targetCityState":"Oklahoma"},"__N_SSG":true}