{"pageProps":{"stateName":"Oklahoma","cityName":"cookson","nearbyCities":[{"city":"Park Hill","state_name":"Oklahoma","lat":35.72886,"lng":-95.00166,"zip":"74451","miles_from_dt":5.9},{"city":"Bunch","state_name":"Oklahoma","lat":35.69226,"lng":-94.76459,"zip":"74931","miles_from_dt":8.22},{"city":"Marble City","state_name":"Oklahoma","lat":35.58232,"lng":-94.81864,"zip":"74945","miles_from_dt":8.84},{"city":"Welling","state_name":"Oklahoma","lat":35.82749,"lng":-94.86454,"zip":"74471","miles_from_dt":10.07},{"city":"Vian","state_name":"Oklahoma","lat":35.53703,"lng":-94.94717,"zip":"74962","miles_from_dt":10.5},{"city":"Gore","state_name":"Oklahoma","lat":35.57862,"lng":-95.09405,"zip":"74435","miles_from_dt":12.72},{"city":"Sallisaw","state_name":"Oklahoma","lat":35.50213,"lng":-94.75547,"zip":"74955","miles_from_dt":15.42},{"city":"Tahlequah","state_name":"Oklahoma","lat":35.90613,"lng":-94.98553,"zip":"74465","miles_from_dt":15.72},{"city":"Braggs","state_name":"Oklahoma","lat":35.662,"lng":-95.197,"zip":"74439","miles_from_dt":16.2},{"city":"Stilwell","state_name":"Oklahoma","lat":35.80995,"lng":-94.65027,"zip":"74960","miles_from_dt":16.93},{"city":"Fort Gibson","state_name":"Oklahoma","lat":35.78174,"lng":-95.20027,"zip":"74434","miles_from_dt":17.56},{"city":"Braggs","state_name":"Oklahoma","lat":35.64251,"lng":-95.22339,"zip":"74423","miles_from_dt":17.86},{"city":"Tahlequah","state_name":"Oklahoma","lat":35.94419,"lng":-94.97365,"zip":"74464","miles_from_dt":18.12},{"city":"Webbers Falls","state_name":"Oklahoma","lat":35.47906,"lng":-95.16879,"zip":"74470","miles_from_dt":20.39},{"city":"Muskogee","state_name":"Oklahoma","lat":35.67427,"lng":-95.305,"zip":"74403","miles_from_dt":22.2},{"city":"Gans","state_name":"Oklahoma","lat":35.39042,"lng":-94.72772,"zip":"74936","miles_from_dt":22.86},{"city":"Moodys","state_name":"Oklahoma","lat":36.02852,"lng":-94.95576,"zip":"74444","miles_from_dt":23.72},{"city":"Hulbert","state_name":"Oklahoma","lat":35.97458,"lng":-95.14613,"zip":"74441","miles_from_dt":23.87},{"city":"Proctor","state_name":"Oklahoma","lat":36.03063,"lng":-94.82065,"zip":"74457","miles_from_dt":24.26},{"city":"Muldrow","state_name":"Oklahoma","lat":35.46207,"lng":-94.56284,"zip":"74948","miles_from_dt":24.95},{"city":"Okay","state_name":"Oklahoma","lat":35.85117,"lng":-95.32264,"zip":"74446","miles_from_dt":25.79},{"city":"Warner","state_name":"Oklahoma","lat":35.5083,"lng":-95.31545,"zip":"74469","miles_from_dt":25.89},{"city":"Evansville","state_name":"Arkansas","lat":35.78992,"lng":-94.46338,"zip":"72729","miles_from_dt":26.13},{"city":"Muskogee","state_name":"Oklahoma","lat":35.76112,"lng":-95.37547,"zip":"74402","miles_from_dt":26.64},{"city":"Westville","state_name":"Oklahoma","lat":35.99605,"lng":-94.62553,"zip":"74965","miles_from_dt":26.68},{"city":"Uniontown","state_name":"Arkansas","lat":35.6081,"lng":-94.44445,"zip":"72955","miles_from_dt":26.78},{"city":"Natural Dam","state_name":"Arkansas","lat":35.70692,"lng":-94.4154,"zip":"72948","miles_from_dt":27.88},{"city":"Keota","state_name":"Oklahoma","lat":35.26453,"lng":-94.87854,"zip":"74941","miles_from_dt":29.14},{"city":"Morrow","state_name":"Arkansas","lat":35.86712,"lng":-94.43932,"zip":"72749","miles_from_dt":29.26},{"city":"Canehill","state_name":"Arkansas","lat":35.84054,"lng":-94.42503,"zip":"72717","miles_from_dt":29.28},{"city":"Wagoner","state_name":"Oklahoma","lat":36.00394,"lng":-95.26644,"zip":"74477","miles_from_dt":29.64}],"targetCityZipCode":"74427","targetCityState":"Oklahoma"},"__N_SSG":true}