{"pageProps":{"stateName":"Oklahoma","cityName":"durham","nearbyCities":[{"city":"Crawford","state_name":"Oklahoma","lat":35.86532,"lng":-99.79059,"zip":"73638","miles_from_dt":7.37},{"city":"Reydon","state_name":"Oklahoma","lat":35.62561,"lng":-99.91688,"zip":"73660","miles_from_dt":13.35},{"city":"Allison","state_name":"Texas","lat":35.63873,"lng":-100.0881,"zip":"79003","miles_from_dt":16},{"city":"Cheyenne","state_name":"Oklahoma","lat":35.62668,"lng":-99.68783,"zip":"73628","miles_from_dt":18.18},{"city":"Briscoe","state_name":"Texas","lat":35.63111,"lng":-100.20866,"zip":"79011","miles_from_dt":21.26},{"city":"Arnett","state_name":"Oklahoma","lat":36.05298,"lng":-99.65687,"zip":"73832","miles_from_dt":21.44},{"city":"Canadian","state_name":"Texas","lat":35.91912,"lng":-100.32123,"zip":"79014","miles_from_dt":24.15},{"city":"Shattuck","state_name":"Oklahoma","lat":36.17037,"lng":-99.92442,"zip":"73858","miles_from_dt":24.24},{"city":"Higgins","state_name":"Texas","lat":36.14237,"lng":-100.10709,"zip":"79046","miles_from_dt":24.9},{"city":"Sweetwater","state_name":"Oklahoma","lat":35.42036,"lng":-99.92412,"zip":"73666","miles_from_dt":27.5}],"targetCityZipCode":"73642","targetCityState":"Oklahoma"},"__N_SSG":true}