{"pageProps":{"stateName":"Oklahoma","cityName":"elgin","nearbyCities":[{"city":"Sterling","state_name":"Oklahoma","lat":34.7474,"lng":-98.17093,"zip":"73567","miles_from_dt":7.78},{"city":"Fletcher","state_name":"Oklahoma","lat":34.78716,"lng":-98.1788,"zip":"73541","miles_from_dt":7.99},{"city":"Lawton","state_name":"Oklahoma","lat":34.60079,"lng":-98.39374,"zip":"73502","miles_from_dt":10.82},{"city":"Medicine Park","state_name":"Oklahoma","lat":34.73072,"lng":-98.50022,"zip":"73557","miles_from_dt":10.99},{"city":"Lawton","state_name":"Oklahoma","lat":34.74802,"lng":-98.50201,"zip":"73507","miles_from_dt":11.08},{"city":"Fort Sill","state_name":"Oklahoma","lat":34.67348,"lng":-98.49649,"zip":"73503","miles_from_dt":11.71},{"city":"Lawton","state_name":"Oklahoma","lat":34.62122,"lng":-98.45959,"zip":"73506","miles_from_dt":11.95},{"city":"Cyril","state_name":"Oklahoma","lat":34.89999,"lng":-98.21016,"zip":"73029","miles_from_dt":12.3},{"city":"Lawton","state_name":"Oklahoma","lat":34.56211,"lng":-98.2864,"zip":"73501","miles_from_dt":12.36},{"city":"Apache","state_name":"Oklahoma","lat":34.90587,"lng":-98.40583,"zip":"73006","miles_from_dt":12.69},{"city":"Lawton","state_name":"Oklahoma","lat":34.5718,"lng":-98.4834,"zip":"73505","miles_from_dt":15.36},{"city":"Meers","state_name":"Oklahoma","lat":34.78294,"lng":-98.57782,"zip":"73558","miles_from_dt":15.66},{"city":"Cement","state_name":"Oklahoma","lat":34.92651,"lng":-98.09546,"zip":"73017","miles_from_dt":17.59},{"city":"Geronimo","state_name":"Oklahoma","lat":34.46389,"lng":-98.38385,"zip":"73543","miles_from_dt":19.56},{"city":"Cache","state_name":"Oklahoma","lat":34.5724,"lng":-98.62704,"zip":"73527","miles_from_dt":21.58},{"city":"Anadarko","state_name":"Oklahoma","lat":35.05439,"lng":-98.23762,"zip":"73005","miles_from_dt":21.99},{"city":"Rush Springs","state_name":"Oklahoma","lat":34.77266,"lng":-97.90385,"zip":"73082","miles_from_dt":23.07},{"city":"Marlow","state_name":"Oklahoma","lat":34.64301,"lng":-97.91624,"zip":"73055","miles_from_dt":23.27},{"city":"Faxon","state_name":"Oklahoma","lat":34.47099,"lng":-98.55756,"zip":"73540","miles_from_dt":23.42},{"city":"Duncan","state_name":"Oklahoma","lat":34.50853,"lng":-97.96589,"zip":"73534","miles_from_dt":25.19},{"city":"Walters","state_name":"Oklahoma","lat":34.37318,"lng":-98.32638,"zip":"73572","miles_from_dt":25.35},{"city":"Ninnekah","state_name":"Oklahoma","lat":34.90315,"lng":-97.90612,"zip":"73067","miles_from_dt":25.42},{"city":"Indiahoma","state_name":"Oklahoma","lat":34.62709,"lng":-98.75631,"zip":"73552","miles_from_dt":26.73},{"city":"Fort Cobb","state_name":"Oklahoma","lat":35.1214,"lng":-98.44306,"zip":"73038","miles_from_dt":27.36},{"city":"Carnegie","state_name":"Oklahoma","lat":35.07648,"lng":-98.59016,"zip":"73015","miles_from_dt":28.18},{"city":"Verden","state_name":"Oklahoma","lat":35.1238,"lng":-98.08735,"zip":"73092","miles_from_dt":29.22},{"city":"Chickasha","state_name":"Oklahoma","lat":35.0422,"lng":-97.93452,"zip":"73023","miles_from_dt":29.68},{"city":"Chickasha","state_name":"Oklahoma","lat":35.0484,"lng":-97.93839,"zip":"73018","miles_from_dt":29.83}],"targetCityZipCode":"73538","targetCityState":"Oklahoma"},"__N_SSG":true}