{"pageProps":{"stateName":"Oklahoma","cityName":"elmore-city","nearbyCities":[{"city":"Davis","state_name":"Oklahoma","lat":34.6149,"lng":-97.4911,"zip":"73039","miles_from_dt":4.73},{"city":"Hennepin","state_name":"Oklahoma","lat":34.4875,"lng":-97.38256,"zip":"73444","miles_from_dt":9.49},{"city":"Foster","state_name":"Oklahoma","lat":34.62083,"lng":-97.58286,"zip":"73434","miles_from_dt":9.93},{"city":"Tatums","state_name":"Oklahoma","lat":34.47327,"lng":-97.4428,"zip":"73487","miles_from_dt":10.54},{"city":"Tussy","state_name":"Oklahoma","lat":34.49502,"lng":-97.54724,"zip":"73488","miles_from_dt":11.87},{"city":"Pauls Valley","state_name":"Oklahoma","lat":34.75187,"lng":-97.23428,"zip":"73075","miles_from_dt":13.3},{"city":"Wynnewood","state_name":"Oklahoma","lat":34.62753,"lng":-97.16537,"zip":"73098","miles_from_dt":13.87},{"city":"Maysville","state_name":"Oklahoma","lat":34.82998,"lng":-97.43176,"zip":"73057","miles_from_dt":14.29},{"city":"Countyline","state_name":"Oklahoma","lat":34.45838,"lng":-97.56239,"zip":"73425","miles_from_dt":14.37},{"city":"Ratliff City","state_name":"Oklahoma","lat":34.42229,"lng":-97.51955,"zip":"73481","miles_from_dt":15.24},{"city":"Paoli","state_name":"Oklahoma","lat":34.83269,"lng":-97.27917,"zip":"73074","miles_from_dt":16.19},{"city":"Davis","state_name":"Oklahoma","lat":34.47142,"lng":-97.18584,"zip":"73030","miles_from_dt":16.48},{"city":"Lindsay","state_name":"Oklahoma","lat":34.83359,"lng":-97.59526,"zip":"73052","miles_from_dt":17.96},{"city":"Velma","state_name":"Oklahoma","lat":34.4637,"lng":-97.65845,"zip":"73491","miles_from_dt":18.01},{"city":"Graham","state_name":"Oklahoma","lat":34.36193,"lng":-97.41558,"zip":"73437","miles_from_dt":18.04},{"city":"Fox","state_name":"Oklahoma","lat":34.36008,"lng":-97.49281,"zip":"73435","miles_from_dt":18.78},{"city":"Springer","state_name":"Oklahoma","lat":34.35818,"lng":-97.29782,"zip":"73458","miles_from_dt":19.35},{"city":"Wayne","state_name":"Oklahoma","lat":34.90677,"lng":-97.28423,"zip":"73095","miles_from_dt":20.77},{"city":"Healdton","state_name":"Oklahoma","lat":34.27967,"lng":-97.49808,"zip":"73438","miles_from_dt":24.24},{"city":"Bradley","state_name":"Oklahoma","lat":34.84378,"lng":-97.74498,"zip":"73011","miles_from_dt":24.43},{"city":"Dougherty","state_name":"Oklahoma","lat":34.40051,"lng":-97.05137,"zip":"73032","miles_from_dt":25.53},{"city":"Sulphur","state_name":"Oklahoma","lat":34.48915,"lng":-96.97251,"zip":"73086","miles_from_dt":26.54},{"city":"Duncan","state_name":"Oklahoma","lat":34.49484,"lng":-97.84774,"zip":"73533","miles_from_dt":26.56},{"city":"Purcell","state_name":"Oklahoma","lat":35.00725,"lng":-97.452,"zip":"73080","miles_from_dt":26.57},{"city":"Loco","state_name":"Oklahoma","lat":34.31982,"lng":-97.69569,"zip":"73442","miles_from_dt":26.58},{"city":"Stratford","state_name":"Oklahoma","lat":34.77989,"lng":-96.97913,"zip":"74872","miles_from_dt":26.72},{"city":"Duncan","state_name":"Oklahoma","lat":34.4497,"lng":-97.83221,"zip":"73536","miles_from_dt":26.97},{"city":"Byars","state_name":"Oklahoma","lat":34.89841,"lng":-97.04298,"zip":"74831","miles_from_dt":28.14},{"city":"Marlow","state_name":"Oklahoma","lat":34.64301,"lng":-97.91624,"zip":"73055","miles_from_dt":28.95},{"city":"Lexington","state_name":"Oklahoma","lat":35.03175,"lng":-97.24629,"zip":"73051","miles_from_dt":29.62},{"city":"Alex","state_name":"Oklahoma","lat":34.96402,"lng":-97.73237,"zip":"73002","miles_from_dt":29.83}],"targetCityZipCode":"73433","targetCityState":"Oklahoma"},"__N_SSG":true}