{"pageProps":{"stateName":"Oklahoma","cityName":"eufaula","nearbyCities":[{"city":"Canadian","state_name":"Oklahoma","lat":35.17184,"lng":-95.62299,"zip":"74425","miles_from_dt":7.85},{"city":"Stidham","state_name":"Oklahoma","lat":35.38673,"lng":-95.70851,"zip":"74461","miles_from_dt":7.85},{"city":"Crowder","state_name":"Oklahoma","lat":35.13175,"lng":-95.64826,"zip":"74430","miles_from_dt":10.48},{"city":"Checotah","state_name":"Oklahoma","lat":35.44553,"lng":-95.52759,"zip":"74426","miles_from_dt":13.1},{"city":"Hanna","state_name":"Oklahoma","lat":35.25856,"lng":-95.88302,"zip":"74845","miles_from_dt":13.34},{"city":"Indianola","state_name":"Oklahoma","lat":35.12983,"lng":-95.8151,"zip":"74442","miles_from_dt":14.17},{"city":"Blocker","state_name":"Oklahoma","lat":35.06501,"lng":-95.56909,"zip":"74529","miles_from_dt":15.74},{"city":"Quinton","state_name":"Oklahoma","lat":35.12489,"lng":-95.42929,"zip":"74561","miles_from_dt":16.57},{"city":"Hitchita","state_name":"Oklahoma","lat":35.51382,"lng":-95.75935,"zip":"74438","miles_from_dt":17.04},{"city":"Council Hill","state_name":"Oklahoma","lat":35.54835,"lng":-95.64683,"zip":"74428","miles_from_dt":18.24},{"city":"Rentiesville","state_name":"Oklahoma","lat":35.51878,"lng":-95.49217,"zip":"74459","miles_from_dt":18.47},{"city":"Hoyt","state_name":"Oklahoma","lat":35.27168,"lng":-95.30308,"zip":"74440","miles_from_dt":19.58},{"city":"Henryetta","state_name":"Oklahoma","lat":35.44825,"lng":-95.94417,"zip":"74437","miles_from_dt":20.16},{"city":"Dewar","state_name":"Oklahoma","lat":35.45743,"lng":-95.93934,"zip":"74431","miles_from_dt":20.3},{"city":"Whitefield","state_name":"Oklahoma","lat":35.25028,"lng":-95.263,"zip":"74472","miles_from_dt":21.95},{"city":"Mcalester","state_name":"Oklahoma","lat":34.98501,"lng":-95.78597,"zip":"74501","miles_from_dt":22},{"city":"Porum","state_name":"Oklahoma","lat":35.36238,"lng":-95.26867,"zip":"74455","miles_from_dt":22.17},{"city":"Dustin","state_name":"Oklahoma","lat":35.2413,"lng":-96.04642,"zip":"74839","miles_from_dt":22.65},{"city":"Schulter","state_name":"Oklahoma","lat":35.50473,"lng":-95.96452,"zip":"74460","miles_from_dt":23.43},{"city":"Wainwright","state_name":"Oklahoma","lat":35.62121,"lng":-95.59025,"zip":"74468","miles_from_dt":23.5},{"city":"Oktaha","state_name":"Oklahoma","lat":35.59714,"lng":-95.47541,"zip":"74450","miles_from_dt":23.73},{"city":"Warner","state_name":"Oklahoma","lat":35.5083,"lng":-95.31545,"zip":"74469","miles_from_dt":24.38},{"city":"Boynton","state_name":"Oklahoma","lat":35.64156,"lng":-95.69143,"zip":"74422","miles_from_dt":24.79},{"city":"Krebs","state_name":"Oklahoma","lat":34.92552,"lng":-95.7203,"zip":"74554","miles_from_dt":25.02},{"city":"Mcalester","state_name":"Oklahoma","lat":34.93022,"lng":-95.76661,"zip":"74502","miles_from_dt":25.26},{"city":"Kinta","state_name":"Oklahoma","lat":35.11282,"lng":-95.24734,"zip":"74552","miles_from_dt":25.61},{"city":"Morris","state_name":"Oklahoma","lat":35.62729,"lng":-95.82605,"zip":"74445","miles_from_dt":25.7},{"city":"Weleetka","state_name":"Oklahoma","lat":35.38039,"lng":-96.1212,"zip":"74880","miles_from_dt":27.49},{"city":"Lamar","state_name":"Oklahoma","lat":35.11169,"lng":-96.09045,"zip":"74850","miles_from_dt":27.65},{"city":"Alderson","state_name":"Oklahoma","lat":34.88253,"lng":-95.6767,"zip":"74522","miles_from_dt":27.7},{"city":"Stigler","state_name":"Oklahoma","lat":35.28328,"lng":-95.15041,"zip":"74462","miles_from_dt":28.19},{"city":"Gowen","state_name":"Oklahoma","lat":34.88182,"lng":-95.47904,"zip":"74545","miles_from_dt":29.33}],"targetCityZipCode":"74432","targetCityState":"Oklahoma"},"__N_SSG":true}