{"pageProps":{"stateName":"Oklahoma","cityName":"foyil","nearbyCities":[{"city":"Claremore","state_name":"Oklahoma","lat":36.39359,"lng":-95.57986,"zip":"74017","miles_from_dt":4.52},{"city":"Chelsea","state_name":"Oklahoma","lat":36.54093,"lng":-95.45283,"zip":"74016","miles_from_dt":8.09},{"city":"Claremore","state_name":"Oklahoma","lat":36.319,"lng":-95.5868,"zip":"74018","miles_from_dt":8.94},{"city":"Claremore","state_name":"Oklahoma","lat":36.28326,"lng":-95.60684,"zip":"74019","miles_from_dt":11.65},{"city":"Oologah","state_name":"Oklahoma","lat":36.43419,"lng":-95.73282,"zip":"74053","miles_from_dt":11.95},{"city":"Adair","state_name":"Oklahoma","lat":36.4404,"lng":-95.26851,"zip":"74330","miles_from_dt":13.92},{"city":"Talala","state_name":"Oklahoma","lat":36.52849,"lng":-95.74192,"zip":"74080","miles_from_dt":13.98},{"city":"Pryor","state_name":"Oklahoma","lat":36.30914,"lng":-95.30732,"zip":"74361","miles_from_dt":14.67},{"city":"Pryor","state_name":"Oklahoma","lat":36.28869,"lng":-95.31927,"zip":"74362","miles_from_dt":15.06},{"city":"Big Cabin","state_name":"Oklahoma","lat":36.52111,"lng":-95.23864,"zip":"74332","miles_from_dt":16.64},{"city":"Collinsville","state_name":"Oklahoma","lat":36.37915,"lng":-95.84758,"zip":"74021","miles_from_dt":18.77},{"city":"Nowata","state_name":"Oklahoma","lat":36.69265,"lng":-95.65192,"zip":"74048","miles_from_dt":19.18},{"city":"Inola","state_name":"Oklahoma","lat":36.15713,"lng":-95.50497,"zip":"74036","miles_from_dt":19.26},{"city":"Owasso","state_name":"Oklahoma","lat":36.27735,"lng":-95.81998,"zip":"74055","miles_from_dt":20.08},{"city":"Vera","state_name":"Oklahoma","lat":36.44889,"lng":-95.88091,"zip":"74082","miles_from_dt":20.22},{"city":"Catoosa","state_name":"Oklahoma","lat":36.18012,"lng":-95.70952,"zip":"74015","miles_from_dt":20.63},{"city":"Tulsa","state_name":"Oklahoma","lat":36.24411,"lng":-95.82807,"zip":"74102","miles_from_dt":21.77},{"city":"Ramona","state_name":"Oklahoma","lat":36.53814,"lng":-95.89974,"zip":"74061","miles_from_dt":22.37},{"city":"Chouteau","state_name":"Oklahoma","lat":36.14122,"lng":-95.33505,"zip":"74337","miles_from_dt":22.77},{"city":"Strang","state_name":"Oklahoma","lat":36.4222,"lng":-95.10674,"zip":"74367","miles_from_dt":22.96},{"city":"Vinita","state_name":"Oklahoma","lat":36.68157,"lng":-95.23687,"zip":"74301","miles_from_dt":23.05},{"city":"Tulsa","state_name":"Oklahoma","lat":36.18814,"lng":-95.83621,"zip":"74116","miles_from_dt":24.64},{"city":"Tulsa","state_name":"Oklahoma","lat":36.14723,"lng":-95.79154,"zip":"74108","miles_from_dt":25.09},{"city":"Tulsa","state_name":"Oklahoma","lat":36.24146,"lng":-95.89854,"zip":"74117","miles_from_dt":25.1},{"city":"Delaware","state_name":"Oklahoma","lat":36.80285,"lng":-95.58628,"zip":"74027","miles_from_dt":25.56},{"city":"Langley","state_name":"Oklahoma","lat":36.46643,"lng":-95.04776,"zip":"74350","miles_from_dt":26.3},{"city":"Spavinaw","state_name":"Oklahoma","lat":36.37887,"lng":-95.04449,"zip":"74366","miles_from_dt":26.71},{"city":"Tulsa","state_name":"Oklahoma","lat":36.1472,"lng":-95.85089,"zip":"74128","miles_from_dt":27.23},{"city":"Tulsa","state_name":"Oklahoma","lat":36.1106,"lng":-95.80156,"zip":"74134","miles_from_dt":27.46},{"city":"Tulsa","state_name":"Oklahoma","lat":36.1923,"lng":-95.90903,"zip":"74115","miles_from_dt":27.53},{"city":"Broken Arrow","state_name":"Oklahoma","lat":36.05538,"lng":-95.66819,"zip":"74014","miles_from_dt":27.56},{"city":"Locust Grove","state_name":"Oklahoma","lat":36.13693,"lng":-95.18783,"zip":"74352","miles_from_dt":27.68},{"city":"Ochelata","state_name":"Oklahoma","lat":36.61412,"lng":-95.96532,"zip":"74051","miles_from_dt":27.73},{"city":"Salina","state_name":"Oklahoma","lat":36.29072,"lng":-95.05461,"zip":"74365","miles_from_dt":27.74},{"city":"Tulsa","state_name":"Oklahoma","lat":36.24172,"lng":-95.95536,"zip":"74130","miles_from_dt":27.82},{"city":"Disney","state_name":"Oklahoma","lat":36.4777,"lng":-95.01944,"zip":"74340","miles_from_dt":27.94},{"city":"Ketchum","state_name":"Oklahoma","lat":36.51234,"lng":-95.02557,"zip":"74349","miles_from_dt":27.94},{"city":"Bartlesville","state_name":"Oklahoma","lat":36.71507,"lng":-95.89391,"zip":"74006","miles_from_dt":28.39},{"city":"Tulsa","state_name":"Oklahoma","lat":36.12787,"lng":-95.86887,"zip":"74169","miles_from_dt":28.9},{"city":"Tulsa","state_name":"Oklahoma","lat":36.13384,"lng":-95.87696,"zip":"74141","miles_from_dt":28.9},{"city":"Tulsa","state_name":"Oklahoma","lat":36.12669,"lng":-95.8701,"zip":"74129","miles_from_dt":29},{"city":"Tulsa","state_name":"Oklahoma","lat":36.16781,"lng":-95.91838,"zip":"74158","miles_from_dt":29},{"city":"Sperry","state_name":"Oklahoma","lat":36.29818,"lng":-96.01326,"zip":"74073","miles_from_dt":29.19},{"city":"Tulsa","state_name":"Oklahoma","lat":36.14696,"lng":-95.90437,"zip":"74112","miles_from_dt":29.36},{"city":"Tulsa","state_name":"Oklahoma","lat":36.18856,"lng":-95.95377,"zip":"74110","miles_from_dt":29.7},{"city":"Tulsa","state_name":"Oklahoma","lat":36.2461,"lng":-95.99701,"zip":"74156","miles_from_dt":29.75},{"city":"Tulsa","state_name":"Oklahoma","lat":36.09784,"lng":-95.85344,"zip":"74146","miles_from_dt":29.91}],"targetCityZipCode":"74031","targetCityState":"Oklahoma"},"__N_SSG":true}