{"pageProps":{"stateName":"Oklahoma","cityName":"hardesty","nearbyCities":[{"city":"Adams","state_name":"Oklahoma","lat":36.75458,"lng":-101.07517,"zip":"73901","miles_from_dt":11.79},{"city":"Balko","state_name":"Oklahoma","lat":36.60097,"lng":-100.80329,"zip":"73931","miles_from_dt":16.72},{"city":"Hooker","state_name":"Oklahoma","lat":36.8321,"lng":-101.22474,"zip":"73945","miles_from_dt":18.32},{"city":"Farnsworth","state_name":"Texas","lat":36.30684,"lng":-100.97661,"zip":"79033","miles_from_dt":20.45},{"city":"Turpin","state_name":"Oklahoma","lat":36.85193,"lng":-100.88621,"zip":"73950","miles_from_dt":22},{"city":"Waka","state_name":"Texas","lat":36.26637,"lng":-101.02997,"zip":"79093","miles_from_dt":22.36},{"city":"Guymon","state_name":"Oklahoma","lat":36.74452,"lng":-101.49555,"zip":"73942","miles_from_dt":24.4},{"city":"Tyrone","state_name":"Oklahoma","lat":36.95004,"lng":-101.05463,"zip":"73951","miles_from_dt":25.31},{"city":"Spearman","state_name":"Texas","lat":36.21559,"lng":-101.21054,"zip":"79081","miles_from_dt":26.17},{"city":"Perryton","state_name":"Texas","lat":36.25346,"lng":-100.80731,"zip":"79070","miles_from_dt":28.2}],"targetCityZipCode":"73944","targetCityState":"Oklahoma"},"__N_SSG":true}