{"pageProps":{"stateName":"Oklahoma","cityName":"heavener","nearbyCities":[{"city":"Howe","state_name":"Oklahoma","lat":34.94979,"lng":-94.63167,"zip":"74940","miles_from_dt":8.51},{"city":"Hodgen","state_name":"Oklahoma","lat":34.70875,"lng":-94.63843,"zip":"74939","miles_from_dt":9.12},{"city":"Monroe","state_name":"Oklahoma","lat":34.99149,"lng":-94.51589,"zip":"74947","miles_from_dt":11.57},{"city":"Poteau","state_name":"Oklahoma","lat":35.03931,"lng":-94.57156,"zip":"74953","miles_from_dt":14.24},{"city":"Muse","state_name":"Oklahoma","lat":34.68324,"lng":-94.7739,"zip":"74949","miles_from_dt":14.98},{"city":"Hartford","state_name":"Arkansas","lat":35.00665,"lng":-94.38097,"zip":"72938","miles_from_dt":16.59},{"city":"Wister","state_name":"Oklahoma","lat":34.89556,"lng":-94.86894,"zip":"74966","miles_from_dt":16.8},{"city":"Whitesboro","state_name":"Oklahoma","lat":34.71967,"lng":-94.85689,"zip":"74577","miles_from_dt":17.42},{"city":"Fanshawe","state_name":"Oklahoma","lat":34.95433,"lng":-94.89687,"zip":"74935","miles_from_dt":19.68},{"city":"Shady Point","state_name":"Oklahoma","lat":35.09487,"lng":-94.77334,"zip":"74956","miles_from_dt":21.03},{"city":"Smithville","state_name":"Oklahoma","lat":34.52522,"lng":-94.65558,"zip":"74957","miles_from_dt":21.61},{"city":"Cameron","state_name":"Oklahoma","lat":35.14701,"lng":-94.53501,"zip":"74932","miles_from_dt":21.82},{"city":"Midland","state_name":"Arkansas","lat":35.09559,"lng":-94.36297,"zip":"72945","miles_from_dt":22},{"city":"Leflore","state_name":"Oklahoma","lat":34.89799,"lng":-94.97661,"zip":"74942","miles_from_dt":22.8},{"city":"Hackett","state_name":"Arkansas","lat":35.13764,"lng":-94.39545,"zip":"72937","miles_from_dt":23.55},{"city":"Panama","state_name":"Oklahoma","lat":35.17099,"lng":-94.66482,"zip":"74951","miles_from_dt":23.75},{"city":"Mansfield","state_name":"Arkansas","lat":35.03366,"lng":-94.24173,"zip":"72944","miles_from_dt":23.81},{"city":"Waldron","state_name":"Arkansas","lat":34.90173,"lng":-94.14659,"zip":"72958","miles_from_dt":25.25},{"city":"Hatfield","state_name":"Arkansas","lat":34.49826,"lng":-94.38492,"zip":"71945","miles_from_dt":25.69},{"city":"Honobia","state_name":"Oklahoma","lat":34.57483,"lng":-94.90993,"zip":"74549","miles_from_dt":25.74},{"city":"Mena","state_name":"Arkansas","lat":34.61291,"lng":-94.2118,"zip":"71953","miles_from_dt":26.02},{"city":"Bokoshe","state_name":"Oklahoma","lat":35.18409,"lng":-94.77573,"zip":"74930","miles_from_dt":26.55},{"city":"Huntington","state_name":"Arkansas","lat":35.11488,"lng":-94.26427,"zip":"72940","miles_from_dt":26.55},{"city":"Talihina","state_name":"Oklahoma","lat":34.71915,"lng":-95.04948,"zip":"74571","miles_from_dt":27.66},{"city":"Watson","state_name":"Oklahoma","lat":34.41424,"lng":-94.56322,"zip":"74963","miles_from_dt":28.89},{"city":"Board Camp","state_name":"Arkansas","lat":34.55293,"lng":-94.2044,"zip":"71932","miles_from_dt":28.95},{"city":"Pocola","state_name":"Oklahoma","lat":35.24568,"lng":-94.47715,"zip":"74902","miles_from_dt":29.07},{"city":"Red Oak","state_name":"Oklahoma","lat":34.97903,"lng":-95.07556,"zip":"74563","miles_from_dt":29.72},{"city":"Spiro","state_name":"Oklahoma","lat":35.26288,"lng":-94.63326,"zip":"74959","miles_from_dt":29.77}],"targetCityZipCode":"74937","targetCityState":"Oklahoma"},"__N_SSG":true}