{"pageProps":{"stateName":"Oklahoma","cityName":"hobart","nearbyCities":[{"city":"Rocky","state_name":"Oklahoma","lat":35.17033,"lng":-99.0176,"zip":"73661","miles_from_dt":10.46},{"city":"Gotebo","state_name":"Oklahoma","lat":35.03594,"lng":-98.88064,"zip":"73041","miles_from_dt":10.74},{"city":"Lone Wolf","state_name":"Oklahoma","lat":34.98189,"lng":-99.25267,"zip":"73655","miles_from_dt":10.8},{"city":"Roosevelt","state_name":"Oklahoma","lat":34.84444,"lng":-99.00729,"zip":"73564","miles_from_dt":12.93},{"city":"Sentinel","state_name":"Oklahoma","lat":35.17475,"lng":-99.2369,"zip":"73664","miles_from_dt":14.03},{"city":"Dill City","state_name":"Oklahoma","lat":35.26875,"lng":-99.20252,"zip":"73641","miles_from_dt":18.43},{"city":"Mountain View","state_name":"Oklahoma","lat":35.02929,"lng":-98.73478,"zip":"73062","miles_from_dt":18.99},{"city":"Granite","state_name":"Oklahoma","lat":34.98651,"lng":-99.40507,"zip":"73547","miles_from_dt":19.21},{"city":"Cordell","state_name":"Oklahoma","lat":35.27036,"lng":-98.90853,"zip":"73632","miles_from_dt":19.23},{"city":"Blair","state_name":"Oklahoma","lat":34.79244,"lng":-99.26704,"zip":"73526","miles_from_dt":19.55},{"city":"Mountain Park","state_name":"Oklahoma","lat":34.73473,"lng":-98.94317,"zip":"73559","miles_from_dt":21.25},{"city":"Burns Flat","state_name":"Oklahoma","lat":35.35969,"lng":-99.1719,"zip":"73624","miles_from_dt":23.8},{"city":"Carter","state_name":"Oklahoma","lat":35.20169,"lng":-99.45218,"zip":"73627","miles_from_dt":24.87},{"city":"Bessie","state_name":"Oklahoma","lat":35.39518,"lng":-98.99791,"zip":"73622","miles_from_dt":25.85},{"city":"Headrick","state_name":"Oklahoma","lat":34.65222,"lng":-99.15607,"zip":"73549","miles_from_dt":26.15},{"city":"Martha","state_name":"Oklahoma","lat":34.72617,"lng":-99.38673,"zip":"73556","miles_from_dt":27.36},{"city":"Carnegie","state_name":"Oklahoma","lat":35.07648,"lng":-98.59016,"zip":"73015","miles_from_dt":27.41},{"city":"Corn","state_name":"Oklahoma","lat":35.36608,"lng":-98.81508,"zip":"73024","miles_from_dt":27.59},{"city":"Altus Afb","state_name":"Oklahoma","lat":34.65526,"lng":-99.28527,"zip":"73523","miles_from_dt":28.27},{"city":"Snyder","state_name":"Oklahoma","lat":34.61647,"lng":-98.94258,"zip":"73566","miles_from_dt":29.06},{"city":"Foss","state_name":"Oklahoma","lat":35.44786,"lng":-99.16124,"zip":"73647","miles_from_dt":29.62}],"targetCityZipCode":"73651","targetCityState":"Oklahoma"},"__N_SSG":true}