{"pageProps":{"stateName":"Oklahoma","cityName":"hulbert","nearbyCities":[{"city":"Wagoner","state_name":"Oklahoma","lat":36.00394,"lng":-95.26644,"zip":"74477","miles_from_dt":7.04},{"city":"Tahlequah","state_name":"Oklahoma","lat":35.94419,"lng":-94.97365,"zip":"74464","miles_from_dt":9.89},{"city":"Tahlequah","state_name":"Oklahoma","lat":35.90613,"lng":-94.98553,"zip":"74465","miles_from_dt":10.17},{"city":"Peggs","state_name":"Oklahoma","lat":36.12137,"lng":-95.06829,"zip":"74452","miles_from_dt":11.02},{"city":"Moodys","state_name":"Oklahoma","lat":36.02852,"lng":-94.95576,"zip":"74444","miles_from_dt":11.3},{"city":"Locust Grove","state_name":"Oklahoma","lat":36.13693,"lng":-95.18783,"zip":"74352","miles_from_dt":11.43},{"city":"Okay","state_name":"Oklahoma","lat":35.85117,"lng":-95.32264,"zip":"74446","miles_from_dt":13.05},{"city":"Fort Gibson","state_name":"Oklahoma","lat":35.78174,"lng":-95.20027,"zip":"74434","miles_from_dt":13.64},{"city":"Wagoner","state_name":"Oklahoma","lat":35.96681,"lng":-95.39181,"zip":"74467","miles_from_dt":13.78},{"city":"Chouteau","state_name":"Oklahoma","lat":36.14122,"lng":-95.33505,"zip":"74337","miles_from_dt":15.62},{"city":"Proctor","state_name":"Oklahoma","lat":36.03063,"lng":-94.82065,"zip":"74457","miles_from_dt":18.64},{"city":"Rose","state_name":"Oklahoma","lat":36.19915,"lng":-94.95683,"zip":"74364","miles_from_dt":18.76},{"city":"Welling","state_name":"Oklahoma","lat":35.82749,"lng":-94.86454,"zip":"74471","miles_from_dt":18.77},{"city":"Park Hill","state_name":"Oklahoma","lat":35.72886,"lng":-95.00166,"zip":"74451","miles_from_dt":18.78},{"city":"Muskogee","state_name":"Oklahoma","lat":35.76112,"lng":-95.37547,"zip":"74402","miles_from_dt":19.55},{"city":"Oaks","state_name":"Oklahoma","lat":36.16846,"lng":-94.85218,"zip":"74359","miles_from_dt":21.2},{"city":"Braggs","state_name":"Oklahoma","lat":35.662,"lng":-95.197,"zip":"74439","miles_from_dt":21.74},{"city":"Porter","state_name":"Oklahoma","lat":35.85464,"lng":-95.51253,"zip":"74454","miles_from_dt":22.15},{"city":"Salina","state_name":"Oklahoma","lat":36.29072,"lng":-95.05461,"zip":"74365","miles_from_dt":22.39},{"city":"Muskogee","state_name":"Oklahoma","lat":35.67427,"lng":-95.305,"zip":"74403","miles_from_dt":22.54},{"city":"Twin Oaks","state_name":"Oklahoma","lat":36.20725,"lng":-94.84822,"zip":"74368","miles_from_dt":23.14},{"city":"Braggs","state_name":"Oklahoma","lat":35.64251,"lng":-95.22339,"zip":"74423","miles_from_dt":23.3},{"city":"Inola","state_name":"Oklahoma","lat":36.15713,"lng":-95.50497,"zip":"74036","miles_from_dt":23.7},{"city":"Pryor","state_name":"Oklahoma","lat":36.28869,"lng":-95.31927,"zip":"74362","miles_from_dt":23.72},{"city":"Cookson","state_name":"Oklahoma","lat":35.68638,"lng":-94.91056,"zip":"74427","miles_from_dt":23.87},{"city":"Muskogee","state_name":"Oklahoma","lat":35.72304,"lng":-95.45431,"zip":"74401","miles_from_dt":24.49},{"city":"Pryor","state_name":"Oklahoma","lat":36.30914,"lng":-95.30732,"zip":"74361","miles_from_dt":24.77},{"city":"Kansas","state_name":"Oklahoma","lat":36.19573,"lng":-94.78525,"zip":"74347","miles_from_dt":25.31},{"city":"Redbird","state_name":"Oklahoma","lat":35.88231,"lng":-95.58786,"zip":"74458","miles_from_dt":25.57},{"city":"Taft","state_name":"Oklahoma","lat":35.76943,"lng":-95.54843,"zip":"74463","miles_from_dt":26.64},{"city":"Coweta","state_name":"Oklahoma","lat":35.94872,"lng":-95.63065,"zip":"74429","miles_from_dt":27.22},{"city":"Gore","state_name":"Oklahoma","lat":35.57862,"lng":-95.09405,"zip":"74435","miles_from_dt":27.46},{"city":"Spavinaw","state_name":"Oklahoma","lat":36.37887,"lng":-95.04449,"zip":"74366","miles_from_dt":28.45},{"city":"Watts","state_name":"Oklahoma","lat":36.11493,"lng":-94.6665,"zip":"74964","miles_from_dt":28.55},{"city":"Bunch","state_name":"Oklahoma","lat":35.69226,"lng":-94.76459,"zip":"74931","miles_from_dt":28.94},{"city":"Westville","state_name":"Oklahoma","lat":35.99605,"lng":-94.62553,"zip":"74965","miles_from_dt":29.21},{"city":"Broken Arrow","state_name":"Oklahoma","lat":36.05538,"lng":-95.66819,"zip":"74014","miles_from_dt":29.77}],"targetCityZipCode":"74441","targetCityState":"Oklahoma"},"__N_SSG":true}