{"pageProps":{"stateName":"Oklahoma","cityName":"idabel","nearbyCities":[{"city":"Garvin","state_name":"Oklahoma","lat":33.92436,"lng":-94.98772,"zip":"74736","miles_from_dt":10.96},{"city":"Golden","state_name":"Oklahoma","lat":34.0311,"lng":-94.8995,"zip":"74737","miles_from_dt":12.78},{"city":"Haworth","state_name":"Oklahoma","lat":33.7938,"lng":-94.59614,"zip":"74740","miles_from_dt":13.3},{"city":"Millerton","state_name":"Oklahoma","lat":33.98514,"lng":-95.01175,"zip":"74750","miles_from_dt":14.3},{"city":"Wright City","state_name":"Oklahoma","lat":34.08597,"lng":-94.97271,"zip":"74766","miles_from_dt":18.06},{"city":"Clarksville","state_name":"Texas","lat":33.65608,"lng":-95.01093,"zip":"75426","miles_from_dt":18.1},{"city":"Avery","state_name":"Texas","lat":33.58534,"lng":-94.78563,"zip":"75554","miles_from_dt":19.01},{"city":"Bagwell","state_name":"Texas","lat":33.80295,"lng":-95.14232,"zip":"75412","miles_from_dt":19.34},{"city":"Broken Bow","state_name":"Oklahoma","lat":34.15411,"lng":-94.81959,"zip":"74728","miles_from_dt":20.26},{"city":"Valliant","state_name":"Oklahoma","lat":34.09405,"lng":-95.05512,"zip":"74764","miles_from_dt":21.28},{"city":"Eagletown","state_name":"Oklahoma","lat":34.0888,"lng":-94.54786,"zip":"74734","miles_from_dt":21.92},{"city":"Swink","state_name":"Oklahoma","lat":34.00938,"lng":-95.20134,"zip":"74761","miles_from_dt":24.56},{"city":"Winthrop","state_name":"Arkansas","lat":33.86738,"lng":-94.38042,"zip":"71866","miles_from_dt":24.89},{"city":"Annona","state_name":"Texas","lat":33.49966,"lng":-94.88454,"zip":"75550","miles_from_dt":25.18},{"city":"Rufe","state_name":"Oklahoma","lat":34.11799,"lng":-95.14196,"zip":"74755","miles_from_dt":25.92},{"city":"Foreman","state_name":"Arkansas","lat":33.71297,"lng":-94.39584,"zip":"71836","miles_from_dt":26.07},{"city":"Detroit","state_name":"Texas","lat":33.73507,"lng":-95.24904,"zip":"75436","miles_from_dt":26.52},{"city":"De Kalb","state_name":"Texas","lat":33.49929,"lng":-94.63931,"zip":"75559","miles_from_dt":26.81},{"city":"Ringold","state_name":"Oklahoma","lat":34.19367,"lng":-95.12231,"zip":"74754","miles_from_dt":29.04},{"city":"De Queen","state_name":"Arkansas","lat":34.0397,"lng":-94.34791,"zip":"71832","miles_from_dt":29.45}],"targetCityZipCode":"74745","targetCityState":"Oklahoma"},"__N_SSG":true}