{"pageProps":{"stateName":"Oklahoma","cityName":"marshall","nearbyCities":[{"city":"Douglas","state_name":"Oklahoma","lat":36.2497,"lng":-97.69104,"zip":"73733","miles_from_dt":6.73},{"city":"Covington","state_name":"Oklahoma","lat":36.31754,"lng":-97.54765,"zip":"73730","miles_from_dt":10.94},{"city":"Lucien","state_name":"Oklahoma","lat":36.27601,"lng":-97.44935,"zip":"73757","miles_from_dt":12.04},{"city":"Orlando","state_name":"Oklahoma","lat":36.16302,"lng":-97.39614,"zip":"73073","miles_from_dt":12.58},{"city":"Fairmont","state_name":"Oklahoma","lat":36.34607,"lng":-97.68751,"zip":"73736","miles_from_dt":12.67},{"city":"Crescent","state_name":"Oklahoma","lat":35.9771,"lng":-97.62418,"zip":"73028","miles_from_dt":13.33},{"city":"Mulhall","state_name":"Oklahoma","lat":36.06195,"lng":-97.41832,"zip":"73063","miles_from_dt":13.58},{"city":"Bison","state_name":"Oklahoma","lat":36.1973,"lng":-97.87038,"zip":"73720","miles_from_dt":14.06},{"city":"Hennessey","state_name":"Oklahoma","lat":36.09632,"lng":-97.91907,"zip":"73742","miles_from_dt":17.44},{"city":"Waukomis","state_name":"Oklahoma","lat":36.25804,"lng":-97.91922,"zip":"73773","miles_from_dt":17.73},{"city":"Dover","state_name":"Oklahoma","lat":35.98453,"lng":-97.8534,"zip":"73734","miles_from_dt":18.26},{"city":"Garber","state_name":"Oklahoma","lat":36.44463,"lng":-97.55315,"zip":"73738","miles_from_dt":19.29},{"city":"Enid","state_name":"Oklahoma","lat":36.33918,"lng":-97.90208,"zip":"73705","miles_from_dt":19.54},{"city":"Enid","state_name":"Oklahoma","lat":36.42323,"lng":-97.78833,"zip":"73701","miles_from_dt":19.78},{"city":"Enid","state_name":"Oklahoma","lat":36.39532,"lng":-97.87363,"zip":"73702","miles_from_dt":20.96},{"city":"Perry","state_name":"Oklahoma","lat":36.30428,"lng":-97.26981,"zip":"73077","miles_from_dt":21.68},{"city":"Guthrie","state_name":"Oklahoma","lat":35.86664,"lng":-97.43476,"zip":"73044","miles_from_dt":23.39},{"city":"Enid","state_name":"Oklahoma","lat":36.39853,"lng":-97.93139,"zip":"73706","miles_from_dt":23.4},{"city":"Billings","state_name":"Oklahoma","lat":36.49736,"lng":-97.4296,"zip":"74630","miles_from_dt":24.95},{"city":"Drummond","state_name":"Oklahoma","lat":36.27594,"lng":-98.05132,"zip":"73735","miles_from_dt":25.12},{"city":"Coyle","state_name":"Oklahoma","lat":35.97102,"lng":-97.24455,"zip":"73027","miles_from_dt":25.16},{"city":"Cashion","state_name":"Oklahoma","lat":35.79778,"lng":-97.68831,"zip":"73016","miles_from_dt":25.96},{"city":"Langston","state_name":"Oklahoma","lat":35.93825,"lng":-97.25595,"zip":"73050","miles_from_dt":25.96},{"city":"Enid","state_name":"Oklahoma","lat":36.44022,"lng":-97.9634,"zip":"73703","miles_from_dt":26.67},{"city":"Hunter","state_name":"Oklahoma","lat":36.56589,"lng":-97.65032,"zip":"74640","miles_from_dt":27.32},{"city":"Kingfisher","state_name":"Oklahoma","lat":35.8534,"lng":-97.94435,"zip":"73750","miles_from_dt":28.39},{"city":"Kremlin","state_name":"Oklahoma","lat":36.55277,"lng":-97.86976,"zip":"73753","miles_from_dt":29.8}],"targetCityZipCode":"73056","targetCityState":"Oklahoma"},"__N_SSG":true}