{"pageProps":{"stateName":"Oklahoma","cityName":"okay","nearbyCities":[{"city":"Muskogee","state_name":"Oklahoma","lat":35.76112,"lng":-95.37547,"zip":"74402","miles_from_dt":6.88},{"city":"Fort Gibson","state_name":"Oklahoma","lat":35.78174,"lng":-95.20027,"zip":"74434","miles_from_dt":8.37},{"city":"Wagoner","state_name":"Oklahoma","lat":35.96681,"lng":-95.39181,"zip":"74467","miles_from_dt":8.87},{"city":"Porter","state_name":"Oklahoma","lat":35.85464,"lng":-95.51253,"zip":"74454","miles_from_dt":10.66},{"city":"Wagoner","state_name":"Oklahoma","lat":36.00394,"lng":-95.26644,"zip":"74477","miles_from_dt":10.99},{"city":"Muskogee","state_name":"Oklahoma","lat":35.72304,"lng":-95.45431,"zip":"74401","miles_from_dt":11.52},{"city":"Muskogee","state_name":"Oklahoma","lat":35.67427,"lng":-95.305,"zip":"74403","miles_from_dt":12.24},{"city":"Hulbert","state_name":"Oklahoma","lat":35.97458,"lng":-95.14613,"zip":"74441","miles_from_dt":13.05},{"city":"Taft","state_name":"Oklahoma","lat":35.76943,"lng":-95.54843,"zip":"74463","miles_from_dt":13.88},{"city":"Braggs","state_name":"Oklahoma","lat":35.662,"lng":-95.197,"zip":"74439","miles_from_dt":14.83},{"city":"Redbird","state_name":"Oklahoma","lat":35.88231,"lng":-95.58786,"zip":"74458","miles_from_dt":15.04},{"city":"Braggs","state_name":"Oklahoma","lat":35.64251,"lng":-95.22339,"zip":"74423","miles_from_dt":15.43},{"city":"Coweta","state_name":"Oklahoma","lat":35.94872,"lng":-95.63065,"zip":"74429","miles_from_dt":18.54},{"city":"Tahlequah","state_name":"Oklahoma","lat":35.90613,"lng":-94.98553,"zip":"74465","miles_from_dt":19.29},{"city":"Oktaha","state_name":"Oklahoma","lat":35.59714,"lng":-95.47541,"zip":"74450","miles_from_dt":19.51},{"city":"Park Hill","state_name":"Oklahoma","lat":35.72886,"lng":-95.00166,"zip":"74451","miles_from_dt":19.9},{"city":"Chouteau","state_name":"Oklahoma","lat":36.14122,"lng":-95.33505,"zip":"74337","miles_from_dt":20.01},{"city":"Tahlequah","state_name":"Oklahoma","lat":35.94419,"lng":-94.97365,"zip":"74464","miles_from_dt":20.6},{"city":"Locust Grove","state_name":"Oklahoma","lat":36.13693,"lng":-95.18783,"zip":"74352","miles_from_dt":21.1},{"city":"Haskell","state_name":"Oklahoma","lat":35.80034,"lng":-95.70175,"zip":"74436","miles_from_dt":21.57},{"city":"Wainwright","state_name":"Oklahoma","lat":35.62121,"lng":-95.59025,"zip":"74468","miles_from_dt":21.85},{"city":"Gore","state_name":"Oklahoma","lat":35.57862,"lng":-95.09405,"zip":"74435","miles_from_dt":22.77},{"city":"Inola","state_name":"Oklahoma","lat":36.15713,"lng":-95.50497,"zip":"74036","miles_from_dt":23.44},{"city":"Peggs","state_name":"Oklahoma","lat":36.12137,"lng":-95.06829,"zip":"74452","miles_from_dt":23.46},{"city":"Warner","state_name":"Oklahoma","lat":35.5083,"lng":-95.31545,"zip":"74469","miles_from_dt":23.64},{"city":"Moodys","state_name":"Oklahoma","lat":36.02852,"lng":-94.95576,"zip":"74444","miles_from_dt":23.93},{"city":"Broken Arrow","state_name":"Oklahoma","lat":36.05538,"lng":-95.66819,"zip":"74014","miles_from_dt":23.95},{"city":"Rentiesville","state_name":"Oklahoma","lat":35.51878,"lng":-95.49217,"zip":"74459","miles_from_dt":24.82},{"city":"Boynton","state_name":"Oklahoma","lat":35.64156,"lng":-95.69143,"zip":"74422","miles_from_dt":25.27},{"city":"Welling","state_name":"Oklahoma","lat":35.82749,"lng":-94.86454,"zip":"74471","miles_from_dt":25.77},{"city":"Cookson","state_name":"Oklahoma","lat":35.68638,"lng":-94.91056,"zip":"74427","miles_from_dt":25.79},{"city":"Leonard","state_name":"Oklahoma","lat":35.94667,"lng":-95.78502,"zip":"74043","miles_from_dt":26.76},{"city":"Webbers Falls","state_name":"Oklahoma","lat":35.47906,"lng":-95.16879,"zip":"74470","miles_from_dt":27.08},{"city":"Council Hill","state_name":"Oklahoma","lat":35.54835,"lng":-95.64683,"zip":"74428","miles_from_dt":27.72},{"city":"Broken Arrow","state_name":"Oklahoma","lat":35.98154,"lng":-95.81007,"zip":"74011","miles_from_dt":28.78},{"city":"Broken Arrow","state_name":"Oklahoma","lat":36.04595,"lng":-95.7896,"zip":"74013","miles_from_dt":29.42}],"targetCityZipCode":"74446","targetCityState":"Oklahoma"},"__N_SSG":true}