{"pageProps":{"stateName":"Oklahoma","cityName":"redbird","nearbyCities":[{"city":"Porter","state_name":"Oklahoma","lat":35.85464,"lng":-95.51253,"zip":"74454","miles_from_dt":4.64},{"city":"Coweta","state_name":"Oklahoma","lat":35.94872,"lng":-95.63065,"zip":"74429","miles_from_dt":5.17},{"city":"Taft","state_name":"Oklahoma","lat":35.76943,"lng":-95.54843,"zip":"74463","miles_from_dt":8.09},{"city":"Haskell","state_name":"Oklahoma","lat":35.80034,"lng":-95.70175,"zip":"74436","miles_from_dt":8.53},{"city":"Leonard","state_name":"Oklahoma","lat":35.94667,"lng":-95.78502,"zip":"74043","miles_from_dt":11.91},{"city":"Wagoner","state_name":"Oklahoma","lat":35.96681,"lng":-95.39181,"zip":"74467","miles_from_dt":12.44},{"city":"Broken Arrow","state_name":"Oklahoma","lat":36.05538,"lng":-95.66819,"zip":"74014","miles_from_dt":12.75},{"city":"Muskogee","state_name":"Oklahoma","lat":35.72304,"lng":-95.45431,"zip":"74401","miles_from_dt":13.3},{"city":"Broken Arrow","state_name":"Oklahoma","lat":35.98154,"lng":-95.81007,"zip":"74011","miles_from_dt":14.21},{"city":"Muskogee","state_name":"Oklahoma","lat":35.76112,"lng":-95.37547,"zip":"74402","miles_from_dt":14.56},{"city":"Okay","state_name":"Oklahoma","lat":35.85117,"lng":-95.32264,"zip":"74446","miles_from_dt":15.04},{"city":"Broken Arrow","state_name":"Oklahoma","lat":36.04595,"lng":-95.7896,"zip":"74013","miles_from_dt":15.97},{"city":"Bixby","state_name":"Oklahoma","lat":35.92614,"lng":-95.87575,"zip":"74008","miles_from_dt":16.43},{"city":"Broken Arrow","state_name":"Oklahoma","lat":36.05381,"lng":-95.80509,"zip":"74012","miles_from_dt":16.97},{"city":"Boynton","state_name":"Oklahoma","lat":35.64156,"lng":-95.69143,"zip":"74422","miles_from_dt":17.59},{"city":"Wainwright","state_name":"Oklahoma","lat":35.62121,"lng":-95.59025,"zip":"74468","miles_from_dt":18},{"city":"Inola","state_name":"Oklahoma","lat":36.15713,"lng":-95.50497,"zip":"74036","miles_from_dt":19.51},{"city":"Tulsa","state_name":"Oklahoma","lat":36.04113,"lng":-95.87955,"zip":"74133","miles_from_dt":19.68},{"city":"Tulsa","state_name":"Oklahoma","lat":36.1106,"lng":-95.80156,"zip":"74134","miles_from_dt":19.78},{"city":"Wagoner","state_name":"Oklahoma","lat":36.00394,"lng":-95.26644,"zip":"74477","miles_from_dt":19.88},{"city":"Oktaha","state_name":"Oklahoma","lat":35.59714,"lng":-95.47541,"zip":"74450","miles_from_dt":20.65},{"city":"Tulsa","state_name":"Oklahoma","lat":36.09784,"lng":-95.85344,"zip":"74146","miles_from_dt":21.03},{"city":"Tulsa","state_name":"Oklahoma","lat":36.02038,"lng":-95.92932,"zip":"74137","miles_from_dt":21.38},{"city":"Muskogee","state_name":"Oklahoma","lat":35.67427,"lng":-95.305,"zip":"74403","miles_from_dt":21.41},{"city":"Tulsa","state_name":"Oklahoma","lat":36.14723,"lng":-95.79154,"zip":"74108","miles_from_dt":21.54},{"city":"Catoosa","state_name":"Oklahoma","lat":36.18012,"lng":-95.70952,"zip":"74015","miles_from_dt":21.63},{"city":"Tulsa","state_name":"Oklahoma","lat":36.07229,"lng":-95.902,"zip":"74101","miles_from_dt":21.94},{"city":"Tulsa","state_name":"Oklahoma","lat":36.09879,"lng":-95.87666,"zip":"74155","miles_from_dt":22.01},{"city":"Morris","state_name":"Oklahoma","lat":35.62729,"lng":-95.82605,"zip":"74445","miles_from_dt":22.1},{"city":"Tulsa","state_name":"Oklahoma","lat":36.09728,"lng":-95.88731,"zip":"74145","miles_from_dt":22.39},{"city":"Tulsa","state_name":"Oklahoma","lat":36.09739,"lng":-95.88718,"zip":"74147","miles_from_dt":22.39},{"city":"Tulsa","state_name":"Oklahoma","lat":36.06165,"lng":-95.9233,"zip":"74193","miles_from_dt":22.5},{"city":"Chouteau","state_name":"Oklahoma","lat":36.14122,"lng":-95.33505,"zip":"74337","miles_from_dt":22.79},{"city":"Fort Gibson","state_name":"Oklahoma","lat":35.78174,"lng":-95.20027,"zip":"74434","miles_from_dt":22.84},{"city":"Tulsa","state_name":"Oklahoma","lat":36.04218,"lng":-95.94747,"zip":"74170","miles_from_dt":22.97},{"city":"Tulsa","state_name":"Oklahoma","lat":36.12669,"lng":-95.8701,"zip":"74129","miles_from_dt":23.11},{"city":"Tulsa","state_name":"Oklahoma","lat":36.12787,"lng":-95.86887,"zip":"74169","miles_from_dt":23.12},{"city":"Council Hill","state_name":"Oklahoma","lat":35.54835,"lng":-95.64683,"zip":"74428","miles_from_dt":23.26},{"city":"Tulsa","state_name":"Oklahoma","lat":36.06188,"lng":-95.9419,"zip":"74136","miles_from_dt":23.39},{"city":"Tulsa","state_name":"Oklahoma","lat":36.1472,"lng":-95.85089,"zip":"74128","miles_from_dt":23.47},{"city":"Tulsa","state_name":"Oklahoma","lat":36.05064,"lng":-95.95253,"zip":"74171","miles_from_dt":23.5},{"city":"Jenks","state_name":"Oklahoma","lat":36.00149,"lng":-95.98171,"zip":"74037","miles_from_dt":23.56},{"city":"Tulsa","state_name":"Oklahoma","lat":36.13384,"lng":-95.87696,"zip":"74141","miles_from_dt":23.73},{"city":"Tulsa","state_name":"Oklahoma","lat":36.0969,"lng":-95.92193,"zip":"74153","miles_from_dt":23.86},{"city":"Glenpool","state_name":"Oklahoma","lat":35.94711,"lng":-96.00636,"zip":"74033","miles_from_dt":23.89},{"city":"Tulsa","state_name":"Oklahoma","lat":36.09725,"lng":-95.92315,"zip":"74135","miles_from_dt":23.93},{"city":"Mounds","state_name":"Oklahoma","lat":35.85522,"lng":-96.02583,"zip":"74047","miles_from_dt":24.65},{"city":"Tulsa","state_name":"Oklahoma","lat":36.18814,"lng":-95.83621,"zip":"74116","miles_from_dt":25.26},{"city":"Tulsa","state_name":"Oklahoma","lat":36.14696,"lng":-95.90437,"zip":"74112","miles_from_dt":25.44},{"city":"Hulbert","state_name":"Oklahoma","lat":35.97458,"lng":-95.14613,"zip":"74441","miles_from_dt":25.57},{"city":"Preston","state_name":"Oklahoma","lat":35.71083,"lng":-95.99262,"zip":"74456","miles_from_dt":25.63},{"city":"Rentiesville","state_name":"Oklahoma","lat":35.51878,"lng":-95.49217,"zip":"74459","miles_from_dt":25.63},{"city":"Tulsa","state_name":"Oklahoma","lat":36.0975,"lng":-95.9641,"zip":"74105","miles_from_dt":25.78},{"city":"Tulsa","state_name":"Oklahoma","lat":36.12679,"lng":-95.94493,"zip":"74152","miles_from_dt":26.16},{"city":"Tulsa","state_name":"Oklahoma","lat":36.12696,"lng":-95.94661,"zip":"74114","miles_from_dt":26.24},{"city":"Braggs","state_name":"Oklahoma","lat":35.64251,"lng":-95.22339,"zip":"74423","miles_from_dt":26.32},{"city":"Tulsa","state_name":"Oklahoma","lat":36.04869,"lng":-96.01315,"zip":"74132","miles_from_dt":26.45},{"city":"Kiefer","state_name":"Oklahoma","lat":35.93808,"lng":-96.05545,"zip":"74041","miles_from_dt":26.51},{"city":"Beggs","state_name":"Oklahoma","lat":35.75928,"lng":-96.03615,"zip":"74421","miles_from_dt":26.56},{"city":"Braggs","state_name":"Oklahoma","lat":35.662,"lng":-95.197,"zip":"74439","miles_from_dt":26.7},{"city":"Tulsa","state_name":"Oklahoma","lat":36.16781,"lng":-95.91838,"zip":"74158","miles_from_dt":27.02},{"city":"Hitchita","state_name":"Oklahoma","lat":35.51382,"lng":-95.75935,"zip":"74438","miles_from_dt":27.17},{"city":"Tulsa","state_name":"Oklahoma","lat":36.14627,"lng":-95.9542,"zip":"74104","miles_from_dt":27.43},{"city":"Tulsa","state_name":"Oklahoma","lat":36.1476,"lng":-95.9547,"zip":"74159","miles_from_dt":27.51},{"city":"Claremore","state_name":"Oklahoma","lat":36.28326,"lng":-95.60684,"zip":"74019","miles_from_dt":27.66},{"city":"Tulsa","state_name":"Oklahoma","lat":36.1923,"lng":-95.90903,"zip":"74115","miles_from_dt":27.93},{"city":"Tulsa","state_name":"Oklahoma","lat":36.16085,"lng":-95.95618,"zip":"74150","miles_from_dt":28.18},{"city":"Tulsa","state_name":"Oklahoma","lat":36.24411,"lng":-95.82807,"zip":"74102","miles_from_dt":28.34},{"city":"Tulsa","state_name":"Oklahoma","lat":36.15046,"lng":-95.97272,"zip":"74172","miles_from_dt":28.4},{"city":"Okmulgee","state_name":"Oklahoma","lat":35.64975,"lng":-96.00628,"zip":"74447","miles_from_dt":28.46},{"city":"Locust Grove","state_name":"Oklahoma","lat":36.13693,"lng":-95.18783,"zip":"74352","miles_from_dt":28.47},{"city":"Tulsa","state_name":"Oklahoma","lat":36.1504,"lng":-95.97689,"zip":"74120","miles_from_dt":28.57},{"city":"Tulsa","state_name":"Oklahoma","lat":36.14869,"lng":-95.98033,"zip":"74121","miles_from_dt":28.65},{"city":"Tulsa","state_name":"Oklahoma","lat":36.14205,"lng":-95.9894,"zip":"74119","miles_from_dt":28.75},{"city":"Tulsa","state_name":"Oklahoma","lat":36.14792,"lng":-95.99433,"zip":"74187","miles_from_dt":29.22},{"city":"Tulsa","state_name":"Oklahoma","lat":36.0774,"lng":-96.05485,"zip":"74157","miles_from_dt":29.42},{"city":"Tulsa","state_name":"Oklahoma","lat":36.18856,"lng":-95.95377,"zip":"74110","miles_from_dt":29.42},{"city":"Tulsa","state_name":"Oklahoma","lat":36.15216,"lng":-95.995,"zip":"74186","miles_from_dt":29.43},{"city":"Tulsa","state_name":"Oklahoma","lat":36.1541,"lng":-95.9949,"zip":"74182","miles_from_dt":29.51},{"city":"Tulsa","state_name":"Oklahoma","lat":36.15359,"lng":-95.99561,"zip":"74192","miles_from_dt":29.52},{"city":"Tulsa","state_name":"Oklahoma","lat":36.05172,"lng":-96.07291,"zip":"74131","miles_from_dt":29.59},{"city":"Tulsa","state_name":"Oklahoma","lat":36.15617,"lng":-95.9957,"zip":"74103","miles_from_dt":29.64},{"city":"Tulsa","state_name":"Oklahoma","lat":36.10737,"lng":-96.04095,"zip":"74107","miles_from_dt":29.75},{"city":"Oakhurst","state_name":"Oklahoma","lat":36.07221,"lng":-96.06546,"zip":"74050","miles_from_dt":29.8},{"city":"Warner","state_name":"Oklahoma","lat":35.5083,"lng":-95.31545,"zip":"74469","miles_from_dt":29.99}],"targetCityZipCode":"74458","targetCityState":"Oklahoma"},"__N_SSG":true}