{"pageProps":{"stateName":"Oklahoma","cityName":"rush-springs","nearbyCities":[{"city":"Marlow","state_name":"Oklahoma","lat":34.64301,"lng":-97.91624,"zip":"73055","miles_from_dt":8.96},{"city":"Ninnekah","state_name":"Oklahoma","lat":34.90315,"lng":-97.90612,"zip":"73067","miles_from_dt":9},{"city":"Bradley","state_name":"Oklahoma","lat":34.84378,"lng":-97.74498,"zip":"73011","miles_from_dt":10.28},{"city":"Cement","state_name":"Oklahoma","lat":34.92651,"lng":-98.09546,"zip":"73017","miles_from_dt":15.2},{"city":"Sterling","state_name":"Oklahoma","lat":34.7474,"lng":-98.17093,"zip":"73567","miles_from_dt":15.29},{"city":"Fletcher","state_name":"Oklahoma","lat":34.78716,"lng":-98.1788,"zip":"73541","miles_from_dt":15.67},{"city":"Alex","state_name":"Oklahoma","lat":34.96402,"lng":-97.73237,"zip":"73002","miles_from_dt":16.4},{"city":"Lindsay","state_name":"Oklahoma","lat":34.83359,"lng":-97.59526,"zip":"73052","miles_from_dt":18.04},{"city":"Duncan","state_name":"Oklahoma","lat":34.50853,"lng":-97.96589,"zip":"73534","miles_from_dt":18.55},{"city":"Chickasha","state_name":"Oklahoma","lat":35.0422,"lng":-97.93452,"zip":"73023","miles_from_dt":18.66},{"city":"Chickasha","state_name":"Oklahoma","lat":35.0484,"lng":-97.93839,"zip":"73018","miles_from_dt":19.11},{"city":"Duncan","state_name":"Oklahoma","lat":34.49484,"lng":-97.84774,"zip":"73533","miles_from_dt":19.42},{"city":"Cyril","state_name":"Oklahoma","lat":34.89999,"lng":-98.21016,"zip":"73029","miles_from_dt":19.5},{"city":"Foster","state_name":"Oklahoma","lat":34.62083,"lng":-97.58286,"zip":"73434","miles_from_dt":21.06},{"city":"Duncan","state_name":"Oklahoma","lat":34.4497,"lng":-97.83221,"zip":"73536","miles_from_dt":22.63},{"city":"Elgin","state_name":"Oklahoma","lat":34.74056,"lng":-98.30743,"zip":"73538","miles_from_dt":23.07},{"city":"Dibble","state_name":"Oklahoma","lat":35.03376,"lng":-97.63139,"zip":"73031","miles_from_dt":23.74},{"city":"Velma","state_name":"Oklahoma","lat":34.4637,"lng":-97.65845,"zip":"73491","miles_from_dt":25.48},{"city":"Amber","state_name":"Oklahoma","lat":35.14362,"lng":-97.83875,"zip":"73004","miles_from_dt":25.84},{"city":"Davis","state_name":"Oklahoma","lat":34.6149,"lng":-97.4911,"zip":"73039","miles_from_dt":25.89},{"city":"Blanchard","state_name":"Oklahoma","lat":35.09989,"lng":-97.67197,"zip":"73010","miles_from_dt":26.12},{"city":"Lawton","state_name":"Oklahoma","lat":34.56211,"lng":-98.2864,"zip":"73501","miles_from_dt":26.18},{"city":"Verden","state_name":"Oklahoma","lat":35.1238,"lng":-98.08735,"zip":"73092","miles_from_dt":26.35},{"city":"Maysville","state_name":"Oklahoma","lat":34.82998,"lng":-97.43176,"zip":"73057","miles_from_dt":27.13},{"city":"Anadarko","state_name":"Oklahoma","lat":35.05439,"lng":-98.23762,"zip":"73005","miles_from_dt":27.14},{"city":"Tussy","state_name":"Oklahoma","lat":34.49502,"lng":-97.54724,"zip":"73488","miles_from_dt":27.91},{"city":"Countyline","state_name":"Oklahoma","lat":34.45838,"lng":-97.56239,"zip":"73425","miles_from_dt":29.12},{"city":"Comanche","state_name":"Oklahoma","lat":34.34146,"lng":-97.94619,"zip":"73529","miles_from_dt":29.82},{"city":"Apache","state_name":"Oklahoma","lat":34.90587,"lng":-98.40583,"zip":"73006","miles_from_dt":29.97}],"targetCityZipCode":"73082","targetCityState":"Oklahoma"},"__N_SSG":true}