{"pageProps":{"stateName":"Oklahoma","cityName":"sallisaw","nearbyCities":[{"city":"Marble City","state_name":"Oklahoma","lat":35.58232,"lng":-94.81864,"zip":"74945","miles_from_dt":6.58},{"city":"Gans","state_name":"Oklahoma","lat":35.39042,"lng":-94.72772,"zip":"74936","miles_from_dt":7.86},{"city":"Vian","state_name":"Oklahoma","lat":35.53703,"lng":-94.94717,"zip":"74962","miles_from_dt":11.07},{"city":"Muldrow","state_name":"Oklahoma","lat":35.46207,"lng":-94.56284,"zip":"74948","miles_from_dt":11.21},{"city":"Bunch","state_name":"Oklahoma","lat":35.69226,"lng":-94.76459,"zip":"74931","miles_from_dt":13.12},{"city":"Cookson","state_name":"Oklahoma","lat":35.68638,"lng":-94.91056,"zip":"74427","miles_from_dt":15.42},{"city":"Roland","state_name":"Oklahoma","lat":35.41596,"lng":-94.49043,"zip":"74954","miles_from_dt":16.09},{"city":"Keota","state_name":"Oklahoma","lat":35.26453,"lng":-94.87854,"zip":"74941","miles_from_dt":17.79},{"city":"Spiro","state_name":"Oklahoma","lat":35.26288,"lng":-94.63326,"zip":"74959","miles_from_dt":17.88},{"city":"Moffett","state_name":"Oklahoma","lat":35.39613,"lng":-94.45093,"zip":"74946","miles_from_dt":18.67},{"city":"Uniontown","state_name":"Arkansas","lat":35.6081,"lng":-94.44445,"zip":"72955","miles_from_dt":18.98},{"city":"Gore","state_name":"Oklahoma","lat":35.57862,"lng":-95.09405,"zip":"74435","miles_from_dt":19.79},{"city":"Arkoma","state_name":"Oklahoma","lat":35.32798,"lng":-94.47166,"zip":"74901","miles_from_dt":20.02},{"city":"Park Hill","state_name":"Oklahoma","lat":35.72886,"lng":-95.00166,"zip":"74451","miles_from_dt":20.89},{"city":"Fort Smith","state_name":"Arkansas","lat":35.3652,"lng":-94.4155,"zip":"72901","miles_from_dt":21.38},{"city":"Fort Smith","state_name":"Arkansas","lat":35.38587,"lng":-94.39973,"zip":"72914","miles_from_dt":21.61},{"city":"Fort Smith","state_name":"Arkansas","lat":35.4151,"lng":-94.38338,"zip":"72904","miles_from_dt":21.83},{"city":"Bokoshe","state_name":"Oklahoma","lat":35.18409,"lng":-94.77573,"zip":"74930","miles_from_dt":21.96},{"city":"Stilwell","state_name":"Oklahoma","lat":35.80995,"lng":-94.65027,"zip":"74960","miles_from_dt":22.03},{"city":"Cedarville","state_name":"Arkansas","lat":35.60479,"lng":-94.37682,"zip":"72932","miles_from_dt":22.48},{"city":"Fort Smith","state_name":"Arkansas","lat":35.38415,"lng":-94.37617,"zip":"72913","miles_from_dt":22.89},{"city":"Van Buren","state_name":"Arkansas","lat":35.46895,"lng":-94.3489,"zip":"72956","miles_from_dt":23.04},{"city":"Van Buren","state_name":"Arkansas","lat":35.43861,"lng":-94.35259,"zip":"72957","miles_from_dt":23.14},{"city":"Welling","state_name":"Oklahoma","lat":35.82749,"lng":-94.86454,"zip":"74471","miles_from_dt":23.26},{"city":"Webbers Falls","state_name":"Oklahoma","lat":35.47906,"lng":-95.16879,"zip":"74470","miles_from_dt":23.36},{"city":"Panama","state_name":"Oklahoma","lat":35.17099,"lng":-94.66482,"zip":"74951","miles_from_dt":23.4},{"city":"Fort Smith","state_name":"Arkansas","lat":35.33063,"lng":-94.3966,"zip":"72906","miles_from_dt":23.45},{"city":"Pocola","state_name":"Oklahoma","lat":35.24568,"lng":-94.47715,"zip":"74902","miles_from_dt":23.65},{"city":"Fort Smith","state_name":"Arkansas","lat":35.30595,"lng":-94.4099,"zip":"72908","miles_from_dt":23.74},{"city":"Natural Dam","state_name":"Arkansas","lat":35.70692,"lng":-94.4154,"zip":"72948","miles_from_dt":23.79},{"city":"Fort Smith","state_name":"Arkansas","lat":35.30173,"lng":-94.40802,"zip":"72918","miles_from_dt":23.99},{"city":"Fort Smith","state_name":"Arkansas","lat":35.33123,"lng":-94.37681,"zip":"72917","miles_from_dt":24.4},{"city":"Fort Smith","state_name":"Arkansas","lat":35.35241,"lng":-94.36042,"zip":"72903","miles_from_dt":24.57},{"city":"Fort Smith","state_name":"Arkansas","lat":35.35224,"lng":-94.35302,"zip":"72919","miles_from_dt":24.95},{"city":"Evansville","state_name":"Arkansas","lat":35.78992,"lng":-94.46338,"zip":"72729","miles_from_dt":25.77},{"city":"Fort Smith","state_name":"Arkansas","lat":35.3197,"lng":-94.35318,"zip":"72902","miles_from_dt":25.96},{"city":"Rudy","state_name":"Arkansas","lat":35.56861,"lng":-94.30139,"zip":"72952","miles_from_dt":26},{"city":"Fort Smith","state_name":"Arkansas","lat":35.27236,"lng":-94.37256,"zip":"72916","miles_from_dt":26.8},{"city":"Stigler","state_name":"Oklahoma","lat":35.28328,"lng":-95.15041,"zip":"74462","miles_from_dt":26.92},{"city":"Braggs","state_name":"Oklahoma","lat":35.662,"lng":-95.197,"zip":"74439","miles_from_dt":27.2},{"city":"Cameron","state_name":"Oklahoma","lat":35.14701,"lng":-94.53501,"zip":"74932","miles_from_dt":27.47},{"city":"Braggs","state_name":"Oklahoma","lat":35.64251,"lng":-95.22339,"zip":"74423","miles_from_dt":28.08},{"city":"Shady Point","state_name":"Oklahoma","lat":35.09487,"lng":-94.77334,"zip":"74956","miles_from_dt":28.09},{"city":"Barling","state_name":"Arkansas","lat":35.30904,"lng":-94.28954,"zip":"72923","miles_from_dt":29.48},{"city":"Mccurtain","state_name":"Oklahoma","lat":35.12421,"lng":-95.00779,"zip":"74944","miles_from_dt":29.7},{"city":"Canehill","state_name":"Arkansas","lat":35.84054,"lng":-94.42503,"zip":"72717","miles_from_dt":29.83}],"targetCityZipCode":"74955","targetCityState":"Oklahoma"},"__N_SSG":true}