{"pageProps":{"stateName":"Oklahoma","cityName":"stroud","nearbyCities":[{"city":"Milfay","state_name":"Oklahoma","lat":35.75455,"lng":-96.56969,"zip":"74046","miles_from_dt":4.9},{"city":"Davenport","state_name":"Oklahoma","lat":35.72266,"lng":-96.78282,"zip":"74026","miles_from_dt":7.28},{"city":"Depew","state_name":"Oklahoma","lat":35.79554,"lng":-96.52259,"zip":"74028","miles_from_dt":8.3},{"city":"Sparks","state_name":"Oklahoma","lat":35.59117,"lng":-96.75763,"zip":"74869","miles_from_dt":11.97},{"city":"Shamrock","state_name":"Oklahoma","lat":35.90829,"lng":-96.57498,"zip":"74068","miles_from_dt":12.23},{"city":"Chandler","state_name":"Oklahoma","lat":35.6961,"lng":-96.87902,"zip":"74834","miles_from_dt":12.97},{"city":"Cushing","state_name":"Oklahoma","lat":35.95708,"lng":-96.74963,"zip":"74023","miles_from_dt":15.62},{"city":"Paden","state_name":"Oklahoma","lat":35.52788,"lng":-96.56913,"zip":"74860","miles_from_dt":15.66},{"city":"Agra","state_name":"Oklahoma","lat":35.8873,"lng":-96.87358,"zip":"74824","miles_from_dt":15.73},{"city":"Bristow","state_name":"Oklahoma","lat":35.80945,"lng":-96.36101,"zip":"74010","miles_from_dt":17.18},{"city":"Drumright","state_name":"Oklahoma","lat":35.98508,"lng":-96.5673,"zip":"74030","miles_from_dt":17.37},{"city":"Prague","state_name":"Oklahoma","lat":35.4921,"lng":-96.70269,"zip":"74864","miles_from_dt":17.54},{"city":"Castle","state_name":"Oklahoma","lat":35.58262,"lng":-96.41193,"zip":"74833","miles_from_dt":17.66},{"city":"Boley","state_name":"Oklahoma","lat":35.51332,"lng":-96.47392,"zip":"74829","miles_from_dt":18.9},{"city":"Tryon","state_name":"Oklahoma","lat":35.8751,"lng":-96.95877,"zip":"74875","miles_from_dt":19.27},{"city":"Carney","state_name":"Oklahoma","lat":35.82534,"lng":-97.01077,"zip":"74832","miles_from_dt":20.71},{"city":"Meeker","state_name":"Oklahoma","lat":35.51911,"lng":-96.90376,"zip":"74855","miles_from_dt":20.84},{"city":"Slick","state_name":"Oklahoma","lat":35.77835,"lng":-96.26467,"zip":"74071","miles_from_dt":22.12},{"city":"Oilton","state_name":"Oklahoma","lat":36.07076,"lng":-96.5738,"zip":"74052","miles_from_dt":23.02},{"city":"Wellston","state_name":"Oklahoma","lat":35.72136,"lng":-97.08264,"zip":"74881","miles_from_dt":24.04},{"city":"Ripley","state_name":"Oklahoma","lat":36.03481,"lng":-96.89727,"zip":"74062","miles_from_dt":24.21},{"city":"Yale","state_name":"Oklahoma","lat":36.10795,"lng":-96.715,"zip":"74085","miles_from_dt":25.33},{"city":"Kellyville","state_name":"Oklahoma","lat":35.89822,"lng":-96.22842,"zip":"74039","miles_from_dt":26.26},{"city":"Okemah","state_name":"Oklahoma","lat":35.46237,"lng":-96.31792,"zip":"74859","miles_from_dt":27.17},{"city":"Perkins","state_name":"Oklahoma","lat":35.95736,"lng":-97.06255,"zip":"74059","miles_from_dt":27.17},{"city":"Mannford","state_name":"Oklahoma","lat":36.08964,"lng":-96.38117,"zip":"74044","miles_from_dt":28.4},{"city":"Shawnee","state_name":"Oklahoma","lat":35.39358,"lng":-96.92399,"zip":"74804","miles_from_dt":28.47},{"city":"Jennings","state_name":"Oklahoma","lat":36.1552,"lng":-96.56151,"zip":"74038","miles_from_dt":28.86},{"city":"Cromwell","state_name":"Oklahoma","lat":35.34321,"lng":-96.4561,"zip":"74837","miles_from_dt":29.82}],"targetCityZipCode":"74079","targetCityState":"Oklahoma"},"__N_SSG":true}