{"pageProps":{"stateName":"Oklahoma","cityName":"texola","nearbyCities":[{"city":"Erick","state_name":"Oklahoma","lat":35.16954,"lng":-99.87038,"zip":"73645","miles_from_dt":7.24},{"city":"Sweetwater","state_name":"Oklahoma","lat":35.42036,"lng":-99.92412,"zip":"73666","miles_from_dt":13.95},{"city":"Shamrock","state_name":"Texas","lat":35.20719,"lng":-100.24884,"zip":"79079","miles_from_dt":15.24},{"city":"Sayre","state_name":"Oklahoma","lat":35.31533,"lng":-99.66273,"zip":"73662","miles_from_dt":19.04},{"city":"Wheeler","state_name":"Texas","lat":35.45133,"lng":-100.1984,"zip":"79096","miles_from_dt":19.98},{"city":"Vinson","state_name":"Oklahoma","lat":34.9325,"lng":-99.92476,"zip":"73571","miles_from_dt":20.29},{"city":"Willow","state_name":"Oklahoma","lat":35.04649,"lng":-99.63762,"zip":"73673","miles_from_dt":22.91},{"city":"Wellington","state_name":"Texas","lat":34.88485,"lng":-100.19561,"zip":"79095","miles_from_dt":26.33},{"city":"Reydon","state_name":"Oklahoma","lat":35.62561,"lng":-99.91688,"zip":"73660","miles_from_dt":27.97},{"city":"Samnorwood","state_name":"Texas","lat":34.84146,"lng":-100.20378,"zip":"79077","miles_from_dt":29.22},{"city":"Allison","state_name":"Texas","lat":35.63873,"lng":-100.0881,"zip":"79003","miles_from_dt":29.28},{"city":"Carter","state_name":"Oklahoma","lat":35.20169,"lng":-99.45218,"zip":"73627","miles_from_dt":29.91}],"targetCityZipCode":"73668","targetCityState":"Oklahoma"},"__N_SSG":true}