{"pageProps":{"stateName":"Oklahoma","cityName":"union-city","nearbyCities":[{"city":"Minco","state_name":"Oklahoma","lat":35.3251,"lng":-98.05431,"zip":"73059","miles_from_dt":7.23},{"city":"El Reno","state_name":"Oklahoma","lat":35.50752,"lng":-97.95771,"zip":"73036","miles_from_dt":7.62},{"city":"Mustang","state_name":"Oklahoma","lat":35.37377,"lng":-97.75275,"zip":"73064","miles_from_dt":11.88},{"city":"Tuttle","state_name":"Oklahoma","lat":35.2661,"lng":-97.79638,"zip":"73089","miles_from_dt":12.97},{"city":"Pocasset","state_name":"Oklahoma","lat":35.20941,"lng":-98.01397,"zip":"73079","miles_from_dt":13.28},{"city":"Yukon","state_name":"Oklahoma","lat":35.48815,"lng":-97.73637,"zip":"73085","miles_from_dt":14.15},{"city":"Yukon","state_name":"Oklahoma","lat":35.52583,"lng":-97.76343,"zip":"73099","miles_from_dt":14.25},{"city":"Concho","state_name":"Oklahoma","lat":35.61692,"lng":-97.99224,"zip":"73022","miles_from_dt":15.26},{"city":"Calumet","state_name":"Oklahoma","lat":35.58152,"lng":-98.1409,"zip":"73014","miles_from_dt":16.26},{"city":"Wheatland","state_name":"Oklahoma","lat":35.39893,"lng":-97.64501,"zip":"73097","miles_from_dt":17.85},{"city":"Oklahoma City","state_name":"Oklahoma","lat":35.3815,"lng":-97.64538,"zip":"73169","miles_from_dt":17.86},{"city":"Oklahoma City","state_name":"Oklahoma","lat":35.4231,"lng":-97.64521,"zip":"73179","miles_from_dt":17.92},{"city":"Oklahoma City","state_name":"Oklahoma","lat":35.44899,"lng":-97.64595,"zip":"73128","miles_from_dt":18.14},{"city":"Oklahoma City","state_name":"Oklahoma","lat":35.47785,"lng":-97.64836,"zip":"73127","miles_from_dt":18.51},{"city":"Amber","state_name":"Oklahoma","lat":35.14362,"lng":-97.83875,"zip":"73004","miles_from_dt":18.79},{"city":"Oklahoma City","state_name":"Oklahoma","lat":35.48101,"lng":-97.63361,"zip":"73137","miles_from_dt":19.37},{"city":"Oklahoma City","state_name":"Oklahoma","lat":35.34033,"lng":-97.62463,"zip":"73173","miles_from_dt":19.4},{"city":"Bethany","state_name":"Oklahoma","lat":35.51383,"lng":-97.64536,"zip":"73008","miles_from_dt":19.55},{"city":"Gracemont","state_name":"Oklahoma","lat":35.23019,"lng":-98.25151,"zip":"73042","miles_from_dt":20.04},{"city":"Verden","state_name":"Oklahoma","lat":35.1238,"lng":-98.08735,"zip":"73092","miles_from_dt":20.14},{"city":"Hinton","state_name":"Oklahoma","lat":35.45658,"lng":-98.31553,"zip":"73047","miles_from_dt":20.41},{"city":"Oklahoma City","state_name":"Oklahoma","lat":35.40197,"lng":-97.59695,"zip":"73195","miles_from_dt":20.56},{"city":"Oklahoma City","state_name":"Oklahoma","lat":35.54984,"lng":-97.64074,"zip":"73132","miles_from_dt":20.92},{"city":"Oklahoma City","state_name":"Oklahoma","lat":35.5202,"lng":-97.61391,"zip":"73122","miles_from_dt":21.35},{"city":"Oklahoma City","state_name":"Oklahoma","lat":35.5376,"lng":-97.62104,"zip":"73123","miles_from_dt":21.49},{"city":"Oklahoma City","state_name":"Oklahoma","lat":35.38563,"lng":-97.5794,"zip":"73159","miles_from_dt":21.57},{"city":"Oklahoma City","state_name":"Oklahoma","lat":35.39581,"lng":-97.57875,"zip":"73189","miles_from_dt":21.59},{"city":"Okarche","state_name":"Oklahoma","lat":35.71197,"lng":-97.97442,"zip":"73762","miles_from_dt":21.72},{"city":"Oklahoma City","state_name":"Oklahoma","lat":35.58095,"lng":-97.6415,"zip":"73162","miles_from_dt":22.04},{"city":"Piedmont","state_name":"Oklahoma","lat":35.66867,"lng":-97.75304,"zip":"73078","miles_from_dt":22.09},{"city":"Oklahoma City","state_name":"Oklahoma","lat":35.41942,"lng":-97.56945,"zip":"73172","miles_from_dt":22.16},{"city":"Newcastle","state_name":"Oklahoma","lat":35.25008,"lng":-97.61209,"zip":"73065","miles_from_dt":22.17},{"city":"Oklahoma City","state_name":"Oklahoma","lat":35.42329,"lng":-97.56961,"zip":"73157","miles_from_dt":22.17},{"city":"Oklahoma City","state_name":"Oklahoma","lat":35.4215,"lng":-97.56896,"zip":"73119","miles_from_dt":22.2},{"city":"Oklahoma City","state_name":"Oklahoma","lat":35.48357,"lng":-97.58201,"zip":"73147","miles_from_dt":22.21},{"city":"Oklahoma City","state_name":"Oklahoma","lat":35.45034,"lng":-97.56774,"zip":"73108","miles_from_dt":22.5},{"city":"Oklahoma City","state_name":"Oklahoma","lat":35.48201,"lng":-97.5744,"zip":"73107","miles_from_dt":22.59},{"city":"Oklahoma City","state_name":"Oklahoma","lat":35.41117,"lng":-97.55698,"zip":"73144","miles_from_dt":22.83},{"city":"Oklahoma City","state_name":"Oklahoma","lat":35.60937,"lng":-97.63895,"zip":"73142","miles_from_dt":23.33},{"city":"Oklahoma City","state_name":"Oklahoma","lat":35.51823,"lng":-97.5745,"zip":"73112","miles_from_dt":23.36},{"city":"Oklahoma City","state_name":"Oklahoma","lat":35.45294,"lng":-97.55196,"zip":"73148","miles_from_dt":23.41},{"city":"Oklahoma City","state_name":"Oklahoma","lat":35.49044,"lng":-97.56015,"zip":"73101","miles_from_dt":23.52},{"city":"Oklahoma City","state_name":"Oklahoma","lat":35.32743,"lng":-97.55068,"zip":"73170","miles_from_dt":23.67},{"city":"Chickasha","state_name":"Oklahoma","lat":35.0484,"lng":-97.93839,"zip":"73018","miles_from_dt":24.07},{"city":"Oklahoma City","state_name":"Oklahoma","lat":35.53549,"lng":-97.56757,"zip":"73178","miles_from_dt":24.16},{"city":"Binger","state_name":"Oklahoma","lat":35.28544,"lng":-98.37016,"zip":"73009","miles_from_dt":24.35},{"city":"Chickasha","state_name":"Oklahoma","lat":35.0422,"lng":-97.93452,"zip":"73023","miles_from_dt":24.51},{"city":"Oklahoma City","state_name":"Oklahoma","lat":35.54684,"lng":-97.56519,"zip":"73116","miles_from_dt":24.6},{"city":"Oklahoma City","state_name":"Oklahoma","lat":35.38457,"lng":-97.52572,"zip":"73139","miles_from_dt":24.6},{"city":"Oklahoma City","state_name":"Oklahoma","lat":35.43507,"lng":-97.5267,"zip":"73143","miles_from_dt":24.66},{"city":"Oklahoma City","state_name":"Oklahoma","lat":35.4823,"lng":-97.53662,"zip":"73106","miles_from_dt":24.66},{"city":"Oklahoma City","state_name":"Oklahoma","lat":35.43192,"lng":-97.52531,"zip":"73124","miles_from_dt":24.71},{"city":"Oklahoma City","state_name":"Oklahoma","lat":35.45622,"lng":-97.52869,"zip":"73125","miles_from_dt":24.74},{"city":"Oklahoma City","state_name":"Oklahoma","lat":35.43279,"lng":-97.52452,"zip":"73109","miles_from_dt":24.77},{"city":"Oklahoma City","state_name":"Oklahoma","lat":35.49427,"lng":-97.53068,"zip":"73146","miles_from_dt":25.19},{"city":"Oklahoma City","state_name":"Oklahoma","lat":35.46095,"lng":-97.52064,"zip":"73167","miles_from_dt":25.24},{"city":"Oklahoma City","state_name":"Oklahoma","lat":35.58049,"lng":-97.57248,"zip":"73120","miles_from_dt":25.3},{"city":"Oklahoma City","state_name":"Oklahoma","lat":35.472,"lng":-97.52035,"zip":"73163","miles_from_dt":25.4},{"city":"Oklahoma City","state_name":"Oklahoma","lat":35.472,"lng":-97.52035,"zip":"73164","miles_from_dt":25.4},{"city":"Oklahoma City","state_name":"Oklahoma","lat":35.45846,"lng":-97.51659,"zip":"73190","miles_from_dt":25.44},{"city":"Oklahoma City","state_name":"Oklahoma","lat":35.47065,"lng":-97.5191,"zip":"73102","miles_from_dt":25.45},{"city":"Oklahoma City","state_name":"Oklahoma","lat":35.51788,"lng":-97.53007,"zip":"73118","miles_from_dt":25.7},{"city":"Oklahoma City","state_name":"Oklahoma","lat":35.48906,"lng":-97.51897,"zip":"73103","miles_from_dt":25.74},{"city":"Oklahoma City","state_name":"Oklahoma","lat":35.52199,"lng":-97.52756,"zip":"73154","miles_from_dt":25.93},{"city":"Lookeba","state_name":"Oklahoma","lat":35.36248,"lng":-98.41841,"zip":"73053","miles_from_dt":25.93},{"city":"Oklahoma City","state_name":"Oklahoma","lat":35.56699,"lng":-97.5504,"zip":"73156","miles_from_dt":25.96},{"city":"Blanchard","state_name":"Oklahoma","lat":35.09989,"lng":-97.67197,"zip":"73010","miles_from_dt":26.21},{"city":"Oklahoma City","state_name":"Oklahoma","lat":35.47508,"lng":-97.5038,"zip":"73104","miles_from_dt":26.36},{"city":"Oklahoma City","state_name":"Oklahoma","lat":35.3892,"lng":-97.48908,"zip":"73149","miles_from_dt":26.65},{"city":"Oklahoma City","state_name":"Oklahoma","lat":35.6151,"lng":-97.56935,"zip":"73134","miles_from_dt":26.72},{"city":"Oklahoma City","state_name":"Oklahoma","lat":35.33501,"lng":-97.49275,"zip":"73153","miles_from_dt":26.79},{"city":"Oklahoma City","state_name":"Oklahoma","lat":35.62083,"lng":-97.57144,"zip":"73184","miles_from_dt":26.84},{"city":"Oklahoma City","state_name":"Oklahoma","lat":35.45718,"lng":-97.49078,"zip":"73126","miles_from_dt":26.86},{"city":"Oklahoma City","state_name":"Oklahoma","lat":35.43165,"lng":-97.48433,"zip":"73129","miles_from_dt":27.02},{"city":"Oklahoma City","state_name":"Oklahoma","lat":35.51868,"lng":-97.50508,"zip":"73152","miles_from_dt":27.06},{"city":"Oklahoma City","state_name":"Oklahoma","lat":35.51741,"lng":-97.5038,"zip":"73194","miles_from_dt":27.1},{"city":"Oklahoma City","state_name":"Oklahoma","lat":35.51919,"lng":-97.50331,"zip":"73105","miles_from_dt":27.16},{"city":"Oklahoma City","state_name":"Oklahoma","lat":35.33574,"lng":-97.47651,"zip":"73160","miles_from_dt":27.69},{"city":"Edmond","state_name":"Oklahoma","lat":35.66815,"lng":-97.59315,"zip":"73012","miles_from_dt":27.92},{"city":"Oklahoma City","state_name":"Oklahoma","lat":35.57916,"lng":-97.51784,"zip":"73114","miles_from_dt":27.97},{"city":"Albert","state_name":"Oklahoma","lat":35.2262,"lng":-98.41654,"zip":"73001","miles_from_dt":28.3},{"city":"Anadarko","state_name":"Oklahoma","lat":35.05439,"lng":-98.23762,"zip":"73005","miles_from_dt":28.33},{"city":"Oklahoma City","state_name":"Oklahoma","lat":35.56408,"lng":-97.50149,"zip":"73113","miles_from_dt":28.36},{"city":"Oklahoma City","state_name":"Oklahoma","lat":35.51889,"lng":-97.47722,"zip":"73111","miles_from_dt":28.56},{"city":"Norman","state_name":"Oklahoma","lat":35.21106,"lng":-97.50518,"zip":"73072","miles_from_dt":28.78},{"city":"Oklahoma City","state_name":"Oklahoma","lat":35.47474,"lng":-97.45961,"zip":"73117","miles_from_dt":28.8},{"city":"Geary","state_name":"Oklahoma","lat":35.64442,"lng":-98.37861,"zip":"73040","miles_from_dt":29.06},{"city":"Oklahoma City","state_name":"Oklahoma","lat":35.44232,"lng":-97.44153,"zip":"73115","miles_from_dt":29.49},{"city":"Oklahoma City","state_name":"Oklahoma","lat":35.41856,"lng":-97.43522,"zip":"73155","miles_from_dt":29.72},{"city":"Norman","state_name":"Oklahoma","lat":35.25028,"lng":-97.4633,"zip":"73069","miles_from_dt":29.89}],"targetCityZipCode":"73090","targetCityState":"Oklahoma"},"__N_SSG":true}