{"pageProps":{"stateName":"Oklahoma","cityName":"wakita","nearbyCities":[{"city":"Manchester","state_name":"Oklahoma","lat":36.93239,"lng":-98.0875,"zip":"73758","miles_from_dt":8.25},{"city":"Medford","state_name":"Oklahoma","lat":36.85815,"lng":-97.71362,"zip":"73759","miles_from_dt":13.51},{"city":"Nash","state_name":"Oklahoma","lat":36.68452,"lng":-98.03647,"zip":"73761","miles_from_dt":13.88},{"city":"Bluff City","state_name":"Kansas","lat":37.07108,"lng":-97.85872,"zip":"67018","miles_from_dt":14.54},{"city":"Jet","state_name":"Oklahoma","lat":36.70566,"lng":-98.16283,"zip":"73749","miles_from_dt":16.36},{"city":"Pond Creek","state_name":"Oklahoma","lat":36.65004,"lng":-97.83846,"zip":"73766","miles_from_dt":16.86},{"city":"Anthony","state_name":"Kansas","lat":37.1109,"lng":-98.06319,"zip":"67003","miles_from_dt":17.28},{"city":"Waldron","state_name":"Kansas","lat":37.03207,"lng":-98.20187,"zip":"67150","miles_from_dt":17.35},{"city":"Amorita","state_name":"Oklahoma","lat":36.96026,"lng":-98.26746,"zip":"73719","miles_from_dt":18.18},{"city":"Freeport","state_name":"Kansas","lat":37.17059,"lng":-97.84646,"zip":"67049","miles_from_dt":21.25},{"city":"Hillsdale","state_name":"Oklahoma","lat":36.56324,"lng":-97.9927,"zip":"73743","miles_from_dt":21.61},{"city":"Caldwell","state_name":"Kansas","lat":37.07352,"lng":-97.63347,"zip":"67022","miles_from_dt":22.5},{"city":"Burlington","state_name":"Oklahoma","lat":36.90196,"lng":-98.36445,"zip":"73722","miles_from_dt":22.67},{"city":"Kremlin","state_name":"Oklahoma","lat":36.55277,"lng":-97.86976,"zip":"73753","miles_from_dt":22.76},{"city":"Deer Creek","state_name":"Oklahoma","lat":36.82257,"lng":-97.52222,"zip":"74636","miles_from_dt":24.34},{"city":"Lamont","state_name":"Oklahoma","lat":36.68457,"lng":-97.55379,"zip":"74643","miles_from_dt":25.92},{"city":"Cherokee","state_name":"Oklahoma","lat":36.73508,"lng":-98.39376,"zip":"73728","miles_from_dt":26.1},{"city":"Goltry","state_name":"Oklahoma","lat":36.51999,"lng":-98.13697,"zip":"73739","miles_from_dt":26.47},{"city":"Hunter","state_name":"Oklahoma","lat":36.56589,"lng":-97.65032,"zip":"74640","miles_from_dt":27.28},{"city":"Hazelton","state_name":"Kansas","lat":37.08593,"lng":-98.37673,"zip":"67061","miles_from_dt":27.41},{"city":"Carrier","state_name":"Oklahoma","lat":36.48309,"lng":-98.03839,"zip":"73727","miles_from_dt":27.43},{"city":"Helena","state_name":"Oklahoma","lat":36.55071,"lng":-98.26619,"zip":"73741","miles_from_dt":28.22},{"city":"Milan","state_name":"Kansas","lat":37.22001,"lng":-97.67825,"zip":"67105","miles_from_dt":28.31},{"city":"Nardin","state_name":"Oklahoma","lat":36.82498,"lng":-97.43993,"zip":"74646","miles_from_dt":28.84},{"city":"Danville","state_name":"Kansas","lat":37.28987,"lng":-97.88262,"zip":"67036","miles_from_dt":28.88},{"city":"Attica","state_name":"Kansas","lat":37.22153,"lng":-98.26369,"zip":"67009","miles_from_dt":29.3}],"targetCityZipCode":"73771","targetCityState":"Oklahoma"},"__N_SSG":true}