{"pageProps":{"stateName":"Oklahoma","cityName":"wilson","nearbyCities":[{"city":"Lone Grove","state_name":"Oklahoma","lat":34.16258,"lng":-97.29081,"zip":"73443","miles_from_dt":8.55},{"city":"Overbrook","state_name":"Oklahoma","lat":34.03473,"lng":-97.27046,"zip":"73453","miles_from_dt":10.68},{"city":"Ringling","state_name":"Oklahoma","lat":34.12211,"lng":-97.62412,"zip":"73456","miles_from_dt":11.19},{"city":"Healdton","state_name":"Oklahoma","lat":34.27967,"lng":-97.49808,"zip":"73438","miles_from_dt":11.96},{"city":"Burneyville","state_name":"Oklahoma","lat":33.91,"lng":-97.36106,"zip":"73430","miles_from_dt":14.71},{"city":"Ardmore","state_name":"Oklahoma","lat":34.17286,"lng":-97.14441,"zip":"73403","miles_from_dt":16.78},{"city":"Graham","state_name":"Oklahoma","lat":34.36193,"lng":-97.41558,"zip":"73437","miles_from_dt":16.98},{"city":"Leon","state_name":"Oklahoma","lat":33.8674,"lng":-97.44021,"zip":"73441","miles_from_dt":17.14},{"city":"Fox","state_name":"Oklahoma","lat":34.36008,"lng":-97.49281,"zip":"73435","miles_from_dt":17.23},{"city":"Springer","state_name":"Oklahoma","lat":34.35818,"lng":-97.29782,"zip":"73458","miles_from_dt":18.32},{"city":"Ardmore","state_name":"Oklahoma","lat":34.16695,"lng":-97.10557,"zip":"73402","miles_from_dt":18.87},{"city":"Ardmore","state_name":"Oklahoma","lat":34.21045,"lng":-97.11434,"zip":"73401","miles_from_dt":19.17},{"city":"Loco","state_name":"Oklahoma","lat":34.31982,"lng":-97.69569,"zip":"73442","miles_from_dt":20.75},{"city":"Ratliff City","state_name":"Oklahoma","lat":34.42229,"lng":-97.51955,"zip":"73481","miles_from_dt":21.75},{"city":"Marietta","state_name":"Oklahoma","lat":33.94813,"lng":-97.10581,"zip":"73448","miles_from_dt":21.86},{"city":"Oscar","state_name":"Oklahoma","lat":33.95997,"lng":-97.76134,"zip":"73561","miles_from_dt":21.89},{"city":"Tatums","state_name":"Oklahoma","lat":34.47327,"lng":-97.4428,"zip":"73487","miles_from_dt":24.65},{"city":"Terral","state_name":"Oklahoma","lat":33.93772,"lng":-97.80363,"zip":"73569","miles_from_dt":24.75},{"city":"Countyline","state_name":"Oklahoma","lat":34.45838,"lng":-97.56239,"zip":"73425","miles_from_dt":24.81},{"city":"Gene Autry","state_name":"Oklahoma","lat":34.28406,"lng":-97.03856,"zip":"73436","miles_from_dt":25.19},{"city":"Hennepin","state_name":"Oklahoma","lat":34.4875,"lng":-97.38256,"zip":"73444","miles_from_dt":25.76},{"city":"Nocona","state_name":"Texas","lat":33.8179,"lng":-97.71625,"zip":"76255","miles_from_dt":26.34},{"city":"Ryan","state_name":"Oklahoma","lat":34.02326,"lng":-97.8751,"zip":"73565","miles_from_dt":26.37},{"city":"Saint Jo","state_name":"Texas","lat":33.74079,"lng":-97.53922,"zip":"76265","miles_from_dt":26.61},{"city":"Tussy","state_name":"Oklahoma","lat":34.49502,"lng":-97.54724,"zip":"73488","miles_from_dt":27},{"city":"Velma","state_name":"Oklahoma","lat":34.4637,"lng":-97.65845,"zip":"73491","miles_from_dt":27.33},{"city":"Davis","state_name":"Oklahoma","lat":34.47142,"lng":-97.18584,"zip":"73030","miles_from_dt":28.18},{"city":"Thackerville","state_name":"Oklahoma","lat":33.77534,"lng":-97.14213,"zip":"73459","miles_from_dt":28.68},{"city":"Dougherty","state_name":"Oklahoma","lat":34.40051,"lng":-97.05137,"zip":"73032","miles_from_dt":29.19}],"targetCityZipCode":"73463","targetCityState":"Oklahoma"},"__N_SSG":true}