{"pageProps":{"stateName":"Wyoming","cityName":"freedom","nearbyCities":[{"city":"Etna","state_name":"Wyoming","lat":43.06638,"lng":-110.9246,"zip":"83118","miles_from_dt":10.66},{"city":"Wayan","state_name":"Idaho","lat":43.061,"lng":-111.37199,"zip":"83285","miles_from_dt":11.99},{"city":"Thayne","state_name":"Wyoming","lat":42.91815,"lng":-110.99756,"zip":"83127","miles_from_dt":12.36},{"city":"Bedford","state_name":"Wyoming","lat":42.88191,"lng":-110.8833,"zip":"83112","miles_from_dt":18.02},{"city":"Auburn","state_name":"Wyoming","lat":42.819,"lng":-111.01143,"zip":"83111","miles_from_dt":18.17},{"city":"Alpine","state_name":"Wyoming","lat":43.14762,"lng":-110.7918,"zip":"83128","miles_from_dt":18.27},{"city":"Grover","state_name":"Wyoming","lat":42.82175,"lng":-110.95843,"zip":"83122","miles_from_dt":19.09},{"city":"Irwin","state_name":"Idaho","lat":43.3833,"lng":-111.16093,"zip":"83428","miles_from_dt":21.95},{"city":"Soda Springs","state_name":"Idaho","lat":42.75942,"lng":-111.44451,"zip":"83276","miles_from_dt":26.34},{"city":"Afton","state_name":"Wyoming","lat":42.72421,"lng":-110.90108,"zip":"83110","miles_from_dt":26.42},{"city":"Swan Valley","state_name":"Idaho","lat":43.42487,"lng":-111.35966,"zip":"83449","miles_from_dt":27.24},{"city":"Wilson","state_name":"Wyoming","lat":43.458,"lng":-110.93746,"zip":"83014","miles_from_dt":28.85}],"targetCityZipCode":"83120","targetCityState":"Wyoming"},"__N_SSG":true}