{"pageProps":{"stateName":"Wyoming","cityName":"ranchester","nearbyCities":[{"city":"Wolf","state_name":"Wyoming","lat":44.80405,"lng":-107.19965,"zip":"82844","miles_from_dt":8.86},{"city":"Sheridan","state_name":"Wyoming","lat":44.83618,"lng":-106.89258,"zip":"82801","miles_from_dt":14.5},{"city":"Wyola","state_name":"Montana","lat":45.09259,"lng":-107.34476,"zip":"59089","miles_from_dt":14.55},{"city":"Parkman","state_name":"Wyoming","lat":44.93793,"lng":-107.4839,"zip":"82838","miles_from_dt":16.02},{"city":"Dayton","state_name":"Wyoming","lat":44.83701,"lng":-107.57589,"zip":"82836","miles_from_dt":21.49},{"city":"Big Horn","state_name":"Wyoming","lat":44.61601,"lng":-107.12966,"zip":"82833","miles_from_dt":21.65},{"city":"Decker","state_name":"Montana","lat":45.09503,"lng":-106.7178,"zip":"59025","miles_from_dt":24.41},{"city":"Wyarno","state_name":"Wyoming","lat":44.76416,"lng":-106.70382,"zip":"82845","miles_from_dt":25.03},{"city":"Story","state_name":"Wyoming","lat":44.57143,"lng":-106.93956,"zip":"82842","miles_from_dt":26.91},{"city":"Lodge Grass","state_name":"Montana","lat":45.25013,"lng":-107.47849,"zip":"59050","miles_from_dt":27.18}],"targetCityZipCode":"82839","targetCityState":"Wyoming"},"__N_SSG":true}