{"pageProps":{"stateName":"Wyoming","cityName":"torrington","nearbyCities":[{"city":"Lingle","state_name":"Wyoming","lat":42.12035,"lng":-104.38503,"zip":"82223","miles_from_dt":13.06},{"city":"Morrill","state_name":"Nebraska","lat":42.07503,"lng":-103.96617,"zip":"69358","miles_from_dt":15.3},{"city":"Fort Laramie","state_name":"Wyoming","lat":42.26126,"lng":-104.51995,"zip":"82212","miles_from_dt":17.65},{"city":"Veteran","state_name":"Wyoming","lat":41.99442,"lng":-104.41451,"zip":"82243","miles_from_dt":20.33},{"city":"Huntley","state_name":"Wyoming","lat":41.93623,"lng":-104.14004,"zip":"82218","miles_from_dt":20.41},{"city":"Mitchell","state_name":"Nebraska","lat":42.0776,"lng":-103.79553,"zip":"69357","miles_from_dt":22.31},{"city":"Jay Em","state_name":"Wyoming","lat":42.4973,"lng":-104.50627,"zip":"82219","miles_from_dt":24.91},{"city":"Yoder","state_name":"Wyoming","lat":41.87602,"lng":-104.44228,"zip":"82244","miles_from_dt":27.99},{"city":"Guernsey","state_name":"Wyoming","lat":42.26421,"lng":-104.75104,"zip":"82214","miles_from_dt":29.47},{"city":"Hartville","state_name":"Wyoming","lat":42.39738,"lng":-104.71507,"zip":"82215","miles_from_dt":29.81}],"targetCityZipCode":"82240","targetCityState":"Wyoming"},"__N_SSG":true}