{"pageProps":{"stateName":"Pennsylvania","cityName":"chatham","nearbyCities":[{"city":"West Grove","state_name":"Pennsylvania","lat":39.83683,"lng":-75.83962,"zip":"19390","miles_from_dt":1.59},{"city":"Avondale","state_name":"Pennsylvania","lat":39.82163,"lng":-75.76887,"zip":"19311","miles_from_dt":3.73},{"city":"Toughkenamon","state_name":"Pennsylvania","lat":39.83333,"lng":-75.75267,"zip":"19374","miles_from_dt":4.05},{"city":"Kelton","state_name":"Pennsylvania","lat":39.80935,"lng":-75.87654,"zip":"19346","miles_from_dt":4.3},{"city":"Cochranville","state_name":"Pennsylvania","lat":39.87359,"lng":-75.91695,"zip":"19330","miles_from_dt":5.14},{"city":"Unionville","state_name":"Pennsylvania","lat":39.8996,"lng":-75.73993,"zip":"19375","miles_from_dt":5.34},{"city":"Kennett Square","state_name":"Pennsylvania","lat":39.86706,"lng":-75.71763,"zip":"19348","miles_from_dt":5.65},{"city":"New London","state_name":"Pennsylvania","lat":39.78001,"lng":-75.88005,"zip":"19360","miles_from_dt":6.06},{"city":"Lincoln University","state_name":"Pennsylvania","lat":39.78036,"lng":-75.89054,"zip":"19352","miles_from_dt":6.34},{"city":"Landenberg","state_name":"Pennsylvania","lat":39.76244,"lng":-75.79528,"zip":"19350","miles_from_dt":6.62},{"city":"Modena","state_name":"Pennsylvania","lat":39.96362,"lng":-75.80659,"zip":"19358","miles_from_dt":7.48},{"city":"Kemblesville","state_name":"Pennsylvania","lat":39.74633,"lng":-75.82436,"zip":"19347","miles_from_dt":7.56},{"city":"Coatesville","state_name":"Pennsylvania","lat":39.97046,"lng":-75.83069,"zip":"19320","miles_from_dt":7.91},{"city":"Pomeroy","state_name":"Pennsylvania","lat":39.96285,"lng":-75.88395,"zip":"19367","miles_from_dt":8.06},{"city":"Hockessin","state_name":"Delaware","lat":39.78512,"lng":-75.68147,"zip":"19707","miles_from_dt":8.97},{"city":"Oxford","state_name":"Pennsylvania","lat":39.7864,"lng":-75.97279,"zip":"19363","miles_from_dt":9.31},{"city":"Parkesburg","state_name":"Pennsylvania","lat":39.9655,"lng":-75.92766,"zip":"19365","miles_from_dt":9.38},{"city":"Sadsburyville","state_name":"Pennsylvania","lat":39.98082,"lng":-75.89496,"zip":"19369","miles_from_dt":9.43},{"city":"Atglen","state_name":"Pennsylvania","lat":39.93478,"lng":-75.97038,"zip":"19310","miles_from_dt":9.54},{"city":"Lewisville","state_name":"Pennsylvania","lat":39.72265,"lng":-75.8748,"zip":"19351","miles_from_dt":9.6},{"city":"Mendenhall","state_name":"Pennsylvania","lat":39.85343,"lng":-75.64103,"zip":"19357","miles_from_dt":9.67},{"city":"Thorndale","state_name":"Pennsylvania","lat":39.99941,"lng":-75.75972,"zip":"19372","miles_from_dt":10.45},{"city":"Wagontown","state_name":"Pennsylvania","lat":40.00958,"lng":-75.84113,"zip":"19376","miles_from_dt":10.64},{"city":"Newark","state_name":"Delaware","lat":39.71416,"lng":-75.74145,"zip":"19714","miles_from_dt":10.7},{"city":"Newark","state_name":"Delaware","lat":39.71379,"lng":-75.74033,"zip":"19711","miles_from_dt":10.75},{"city":"Newark","state_name":"Delaware","lat":39.71404,"lng":-75.73776,"zip":"19715","miles_from_dt":10.79},{"city":"Pocopson","state_name":"Pennsylvania","lat":39.90149,"lng":-75.6267,"zip":"19366","miles_from_dt":10.89},{"city":"Yorklyn","state_name":"Delaware","lat":39.78031,"lng":-75.64274,"zip":"19736","miles_from_dt":10.91},{"city":"Christiana","state_name":"Pennsylvania","lat":39.90923,"lng":-76.03073,"zip":"17509","miles_from_dt":11.64},{"city":"Wilmington","state_name":"Delaware","lat":39.73777,"lng":-75.66596,"zip":"19808","miles_from_dt":11.67},{"city":"Chadds Ford","state_name":"Pennsylvania","lat":39.85722,"lng":-75.60244,"zip":"19317","miles_from_dt":11.72},{"city":"Wilmington","state_name":"Delaware","lat":39.79767,"lng":-75.61284,"zip":"19807","miles_from_dt":11.88},{"city":"West Chester","state_name":"Pennsylvania","lat":39.92766,"lng":-75.61475,"zip":"19382","miles_from_dt":12.12},{"city":"Winterthur","state_name":"Delaware","lat":39.80666,"lng":-75.5973,"zip":"19735","miles_from_dt":12.47},{"city":"Newark","state_name":"Delaware","lat":39.68567,"lng":-75.73728,"zip":"19725","miles_from_dt":12.6},{"city":"Newark","state_name":"Delaware","lat":39.68121,"lng":-75.75343,"zip":"19717","miles_from_dt":12.61},{"city":"New Castle","state_name":"Delaware","lat":39.68458,"lng":-75.73524,"zip":"19726","miles_from_dt":12.71},{"city":"Downingtown","state_name":"Pennsylvania","lat":40.02271,"lng":-75.72045,"zip":"19335","miles_from_dt":12.73},{"city":"Newark","state_name":"Delaware","lat":39.68293,"lng":-75.71918,"zip":"19712","miles_from_dt":13.15},{"city":"West Chester","state_name":"Pennsylvania","lat":39.94303,"lng":-75.60155,"zip":"19383","miles_from_dt":13.21},{"city":"Kirkwood","state_name":"Pennsylvania","lat":39.84345,"lng":-76.07316,"zip":"17536","miles_from_dt":13.34},{"city":"Montchanin","state_name":"Delaware","lat":39.78964,"lng":-75.58458,"zip":"19710","miles_from_dt":13.48},{"city":"Newark","state_name":"Delaware","lat":39.66779,"lng":-75.74595,"zip":"19716","miles_from_dt":13.61},{"city":"Rockland","state_name":"Delaware","lat":39.80033,"lng":-75.57455,"zip":"19732","miles_from_dt":13.76},{"city":"Elk Mills","state_name":"Maryland","lat":39.65675,"lng":-75.83449,"zip":"21920","miles_from_dt":13.76},{"city":"Brandamore","state_name":"Pennsylvania","lat":40.05597,"lng":-75.83804,"zip":"19316","miles_from_dt":13.82},{"city":"Wilmington","state_name":"Delaware","lat":39.68227,"lng":-75.69312,"zip":"19891","miles_from_dt":13.83},{"city":"Newark","state_name":"Delaware","lat":39.67097,"lng":-75.70972,"zip":"19713","miles_from_dt":14.11},{"city":"Gap","state_name":"Pennsylvania","lat":40.01495,"lng":-75.99333,"zip":"17527","miles_from_dt":14.22},{"city":"Wilmington","state_name":"Delaware","lat":39.74523,"lng":-75.59373,"zip":"19805","miles_from_dt":14.39},{"city":"Wilmington","state_name":"Delaware","lat":39.7166,"lng":-75.62094,"zip":"19804","miles_from_dt":14.42},{"city":"Newark","state_name":"Delaware","lat":39.6665,"lng":-75.70752,"zip":"19718","miles_from_dt":14.44},{"city":"Childs","state_name":"Maryland","lat":39.64921,"lng":-75.87095,"zip":"21916","miles_from_dt":14.49},{"city":"Lyndell","state_name":"Pennsylvania","lat":40.05937,"lng":-75.74483,"zip":"19354","miles_from_dt":14.63},{"city":"West Chester","state_name":"Pennsylvania","lat":39.98594,"lng":-75.60358,"zip":"19380","miles_from_dt":14.7},{"city":"Nottingham","state_name":"Pennsylvania","lat":39.75175,"lng":-76.06576,"zip":"19362","miles_from_dt":14.79},{"city":"Bart","state_name":"Pennsylvania","lat":39.93825,"lng":-76.08325,"zip":"17503","miles_from_dt":14.95},{"city":"Wilmington","state_name":"Delaware","lat":39.762,"lng":-75.56336,"zip":"19806","miles_from_dt":15.26},{"city":"Wilmington","state_name":"Delaware","lat":39.79805,"lng":-75.54565,"zip":"19897","miles_from_dt":15.28},{"city":"Wilmington","state_name":"Delaware","lat":39.79912,"lng":-75.5422,"zip":"19803","miles_from_dt":15.44},{"city":"Westtown","state_name":"Pennsylvania","lat":39.93217,"lng":-75.54945,"zip":"19395","miles_from_dt":15.45},{"city":"Kinzers","state_name":"Pennsylvania","lat":40.01224,"lng":-76.03813,"zip":"17535","miles_from_dt":15.71},{"city":"Thornton","state_name":"Pennsylvania","lat":39.90674,"lng":-75.53255,"zip":"19373","miles_from_dt":15.83},{"city":"Wilmington","state_name":"Delaware","lat":39.74769,"lng":-75.55791,"zip":"19893","miles_from_dt":15.96},{"city":"Honey Brook","state_name":"Pennsylvania","lat":40.08279,"lng":-75.88338,"zip":"19344","miles_from_dt":15.97},{"city":"Elkton","state_name":"Maryland","lat":39.62568,"lng":-75.85904,"zip":"21921","miles_from_dt":16},{"city":"West Chester","state_name":"Pennsylvania","lat":39.99742,"lng":-75.58076,"zip":"19381","miles_from_dt":16.15},{"city":"Exton","state_name":"Pennsylvania","lat":40.04213,"lng":-75.63814,"zip":"19341","miles_from_dt":16.16},{"city":"Lionville","state_name":"Pennsylvania","lat":40.03277,"lng":-75.62202,"zip":"19353","miles_from_dt":16.21},{"city":"Rising Sun","state_name":"Maryland","lat":39.68931,"lng":-76.03886,"zip":"21911","miles_from_dt":16.26},{"city":"Concordville","state_name":"Pennsylvania","lat":39.89003,"lng":-75.52008,"zip":"19331","miles_from_dt":16.27},{"city":"Concordville","state_name":"Pennsylvania","lat":39.88672,"lng":-75.51889,"zip":"19340","miles_from_dt":16.3},{"city":"Wilmington","state_name":"Delaware","lat":39.6836,"lng":-75.61307,"zip":"19892","miles_from_dt":16.32},{"city":"Wilmington","state_name":"Delaware","lat":39.74384,"lng":-75.54947,"zip":"19895","miles_from_dt":16.48},{"city":"Wilmington","state_name":"Delaware","lat":39.74827,"lng":-75.54565,"zip":"19886","miles_from_dt":16.52},{"city":"Wilmington","state_name":"Delaware","lat":39.74245,"lng":-75.54941,"zip":"19898","miles_from_dt":16.53},{"city":"Paradise","state_name":"Pennsylvania","lat":39.97636,"lng":-76.09264,"zip":"17562","miles_from_dt":16.56},{"city":"Wilmington","state_name":"Delaware","lat":39.74852,"lng":-75.54409,"zip":"19894","miles_from_dt":16.59},{"city":"Wilmington","state_name":"Delaware","lat":39.74328,"lng":-75.54713,"zip":"19885","miles_from_dt":16.61},{"city":"Wilmington","state_name":"Delaware","lat":39.73822,"lng":-75.55029,"zip":"19890","miles_from_dt":16.63},{"city":"Cheyney","state_name":"Pennsylvania","lat":39.92723,"lng":-75.52319,"zip":"19319","miles_from_dt":16.67},{"city":"Wilmington","state_name":"Delaware","lat":39.74325,"lng":-75.54538,"zip":"19884","miles_from_dt":16.69},{"city":"Wilmington","state_name":"Delaware","lat":39.73563,"lng":-75.54766,"zip":"19899","miles_from_dt":16.84},{"city":"Newark","state_name":"Delaware","lat":39.62199,"lng":-75.72803,"zip":"19702","miles_from_dt":16.92},{"city":"Wilmington","state_name":"Delaware","lat":39.81855,"lng":-75.50628,"zip":"19810","miles_from_dt":17.04},{"city":"Wilmington","state_name":"Delaware","lat":39.75715,"lng":-75.52873,"zip":"19802","miles_from_dt":17.07},{"city":"Wilmington","state_name":"Delaware","lat":39.75842,"lng":-75.52771,"zip":"19896","miles_from_dt":17.09},{"city":"Elkton","state_name":"Maryland","lat":39.60804,"lng":-75.83567,"zip":"21922","miles_from_dt":17.12},{"city":"Wilmington","state_name":"Delaware","lat":39.72782,"lng":-75.54615,"zip":"19801","miles_from_dt":17.18},{"city":"Concordville","state_name":"Pennsylvania","lat":39.89912,"lng":-75.5042,"zip":"19339","miles_from_dt":17.2},{"city":"Quarryville","state_name":"Pennsylvania","lat":39.86924,"lng":-76.1476,"zip":"17566","miles_from_dt":17.29},{"city":"Glen Mills","state_name":"Pennsylvania","lat":39.90458,"lng":-75.50243,"zip":"19342","miles_from_dt":17.36},{"city":"Glenmoore","state_name":"Pennsylvania","lat":40.10203,"lng":-75.75461,"zip":"19343","miles_from_dt":17.36},{"city":"Wilmington","state_name":"Delaware","lat":39.73018,"lng":-75.53862,"zip":"19880","miles_from_dt":17.44},{"city":"Wilmington","state_name":"Delaware","lat":39.72894,"lng":-75.53734,"zip":"19850","miles_from_dt":17.54},{"city":"Garnet Valley","state_name":"Pennsylvania","lat":39.85048,"lng":-75.4921,"zip":"19060","miles_from_dt":17.6},{"city":"Uwchland","state_name":"Pennsylvania","lat":40.09186,"lng":-75.6913,"zip":"19480","miles_from_dt":17.71},{"city":"Immaculata","state_name":"Pennsylvania","lat":40.02967,"lng":-75.56955,"zip":"19345","miles_from_dt":18.02},{"city":"Wilmington","state_name":"Delaware","lat":39.75801,"lng":-75.50218,"zip":"19809","miles_from_dt":18.36},{"city":"New Castle","state_name":"Delaware","lat":39.645,"lng":-75.60678,"zip":"19720","miles_from_dt":18.56},{"city":"Southeastern","state_name":"Pennsylvania","lat":39.98224,"lng":-75.50887,"zip":"19397","miles_from_dt":18.82},{"city":"New Castle","state_name":"Delaware","lat":39.66366,"lng":-75.5682,"zip":"19721","miles_from_dt":18.97},{"city":"Chester Heights","state_name":"Pennsylvania","lat":39.89078,"lng":-75.46295,"zip":"19017","miles_from_dt":19.29},{"city":"Colora","state_name":"Maryland","lat":39.67106,"lng":-76.09823,"zip":"21917","miles_from_dt":19.43},{"city":"Gordonville","state_name":"Pennsylvania","lat":40.04036,"lng":-76.10008,"zip":"17529","miles_from_dt":19.45},{"city":"Chester Springs","state_name":"Pennsylvania","lat":40.10383,"lng":-75.64476,"zip":"19425","miles_from_dt":19.54},{"city":"Valley Forge","state_name":"Pennsylvania","lat":40.054,"lng":-75.55746,"zip":"19495","miles_from_dt":19.63},{"city":"Valley Forge","state_name":"Pennsylvania","lat":40.05394,"lng":-75.55694,"zip":"19493","miles_from_dt":19.65},{"city":"Valley Forge","state_name":"Pennsylvania","lat":40.05458,"lng":-75.55688,"zip":"19494","miles_from_dt":19.68},{"city":"Claymont","state_name":"Delaware","lat":39.8043,"lng":-75.45794,"zip":"19703","miles_from_dt":19.74},{"city":"Narvon","state_name":"Pennsylvania","lat":40.12075,"lng":-75.96514,"zip":"17555","miles_from_dt":19.77},{"city":"Intercourse","state_name":"Pennsylvania","lat":40.03665,"lng":-76.11214,"zip":"17534","miles_from_dt":19.78},{"city":"Gradyville","state_name":"Pennsylvania","lat":39.94291,"lng":-75.4676,"zip":"19039","miles_from_dt":19.81},{"city":"Bear","state_name":"Delaware","lat":39.58427,"lng":-75.69914,"zip":"19701","miles_from_dt":19.87},{"city":"North East","state_name":"Maryland","lat":39.58593,"lng":-75.95821,"zip":"21901","miles_from_dt":19.98},{"city":"Lenni","state_name":"Pennsylvania","lat":39.89721,"lng":-75.44532,"zip":"19052","miles_from_dt":20.27},{"city":"Strasburg","state_name":"Pennsylvania","lat":39.95938,"lng":-76.18032,"zip":"17579","miles_from_dt":20.29},{"city":"Malvern","state_name":"Pennsylvania","lat":40.0466,"lng":-75.5302,"zip":"19355","miles_from_dt":20.36},{"city":"Peach Bottom","state_name":"Pennsylvania","lat":39.76404,"lng":-76.18649,"zip":"17563","miles_from_dt":20.36},{"city":"Ronks","state_name":"Pennsylvania","lat":40.00937,"lng":-76.15105,"zip":"17572","miles_from_dt":20.39},{"city":"Aston","state_name":"Pennsylvania","lat":39.8637,"lng":-75.4338,"zip":"19014","miles_from_dt":20.7},{"city":"Deepwater","state_name":"New Jersey","lat":39.68825,"lng":-75.49761,"zip":"08023","miles_from_dt":20.83},{"city":"Marcus Hook","state_name":"Pennsylvania","lat":39.82741,"lng":-75.432,"zip":"19061","miles_from_dt":20.88},{"city":"Goodville","state_name":"Pennsylvania","lat":40.12811,"lng":-75.99895,"zip":"17528","miles_from_dt":20.97},{"city":"Elverson","state_name":"Pennsylvania","lat":40.15968,"lng":-75.79959,"zip":"19520","miles_from_dt":20.99},{"city":"Port Deposit","state_name":"Maryland","lat":39.62303,"lng":-76.07812,"zip":"21904","miles_from_dt":21.05},{"city":"Birchrunville","state_name":"Pennsylvania","lat":40.13093,"lng":-75.64029,"zip":"19421","miles_from_dt":21.3},{"city":"Edgemont","state_name":"Pennsylvania","lat":39.97442,"lng":-75.45261,"zip":"19028","miles_from_dt":21.3},{"city":"Charlestown","state_name":"Maryland","lat":39.57256,"lng":-75.98158,"zip":"21914","miles_from_dt":21.3},{"city":"Devault","state_name":"Pennsylvania","lat":40.07829,"lng":-75.53511,"zip":"19432","miles_from_dt":21.65},{"city":"New Holland","state_name":"Pennsylvania","lat":40.10328,"lng":-76.07543,"zip":"17557","miles_from_dt":21.7},{"city":"Blue Ball","state_name":"Pennsylvania","lat":40.11718,"lng":-76.0527,"zip":"17506","miles_from_dt":21.76},{"city":"New Providence","state_name":"Pennsylvania","lat":39.91117,"lng":-76.22712,"zip":"17560","miles_from_dt":21.82},{"city":"Conowingo","state_name":"Maryland","lat":39.68327,"lng":-76.16662,"zip":"21918","miles_from_dt":21.84},{"city":"Lancaster","state_name":"Pennsylvania","lat":40.02885,"lng":-76.16733,"zip":"17573","miles_from_dt":21.84},{"city":"Morgantown","state_name":"Pennsylvania","lat":40.1697,"lng":-75.89635,"zip":"19543","miles_from_dt":21.99},{"city":"Media","state_name":"Pennsylvania","lat":39.92248,"lng":-75.41419,"zip":"19063","miles_from_dt":22.2},{"city":"Paoli","state_name":"Pennsylvania","lat":40.0414,"lng":-75.4809,"zip":"19301","miles_from_dt":22.22},{"city":"Newtown Square","state_name":"Pennsylvania","lat":39.98093,"lng":-75.4346,"zip":"19073","miles_from_dt":22.36},{"city":"East Earl","state_name":"Pennsylvania","lat":40.14278,"lng":-76.02145,"zip":"17519","miles_from_dt":22.42},{"city":"Saint Georges","state_name":"Delaware","lat":39.55928,"lng":-75.65143,"zip":"19733","miles_from_dt":22.42},{"city":"Penns Grove","state_name":"New Jersey","lat":39.70209,"lng":-75.4501,"zip":"08069","miles_from_dt":22.51},{"city":"Refton","state_name":"Pennsylvania","lat":39.94806,"lng":-76.23416,"zip":"17568","miles_from_dt":22.76},{"city":"Perryville","state_name":"Maryland","lat":39.57274,"lng":-76.04378,"zip":"21903","miles_from_dt":22.81},{"city":"Saint Peters","state_name":"Pennsylvania","lat":40.17967,"lng":-75.73164,"zip":"19470","miles_from_dt":22.85},{"city":"Brookhaven","state_name":"Pennsylvania","lat":39.86811,"lng":-75.39164,"zip":"19015","miles_from_dt":22.95},{"city":"Kimberton","state_name":"Pennsylvania","lat":40.13233,"lng":-75.57863,"zip":"19442","miles_from_dt":23.06},{"city":"Pennsville","state_name":"New Jersey","lat":39.62494,"lng":-75.50902,"zip":"08070","miles_from_dt":23.1},{"city":"Berwyn","state_name":"Pennsylvania","lat":40.0309,"lng":-75.45083,"zip":"19312","miles_from_dt":23.15},{"city":"Delaware City","state_name":"Delaware","lat":39.5715,"lng":-75.5905,"zip":"19706","miles_from_dt":23.21},{"city":"Pedricktown","state_name":"New Jersey","lat":39.7388,"lng":-75.41281,"zip":"08067","miles_from_dt":23.27},{"city":"Glen Riddle Lima","state_name":"Pennsylvania","lat":39.90513,"lng":-75.38884,"zip":"19037","miles_from_dt":23.32},{"city":"Media","state_name":"Pennsylvania","lat":39.90495,"lng":-75.38863,"zip":"19065","miles_from_dt":23.33},{"city":"Smoketown","state_name":"Pennsylvania","lat":40.03561,"lng":-76.19782,"zip":"17576","miles_from_dt":23.45},{"city":"Drumore","state_name":"Pennsylvania","lat":39.80519,"lng":-76.25932,"zip":"17518","miles_from_dt":23.48},{"city":"Media","state_name":"Pennsylvania","lat":39.91905,"lng":-75.38738,"zip":"19091","miles_from_dt":23.55},{"city":"Chester","state_name":"Pennsylvania","lat":39.84529,"lng":-75.37474,"zip":"19013","miles_from_dt":23.84},{"city":"Geigertown","state_name":"Pennsylvania","lat":40.20116,"lng":-75.84974,"zip":"19523","miles_from_dt":23.86},{"city":"Lampeter","state_name":"Pennsylvania","lat":39.98673,"lng":-76.23869,"zip":"17537","miles_from_dt":23.86},{"city":"Bird In Hand","state_name":"Pennsylvania","lat":40.05915,"lng":-76.18999,"zip":"17505","miles_from_dt":24.01},{"city":"Terre Hill","state_name":"Pennsylvania","lat":40.15617,"lng":-76.05535,"zip":"17581","miles_from_dt":24.11},{"city":"Wallingford","state_name":"Pennsylvania","lat":39.89094,"lng":-75.37014,"zip":"19086","miles_from_dt":24.19},{"city":"Phoenixville","state_name":"Pennsylvania","lat":40.12674,"lng":-75.5294,"zip":"19460","miles_from_dt":24.32},{"city":"Witmer","state_name":"Pennsylvania","lat":40.04718,"lng":-76.21116,"zip":"17585","miles_from_dt":24.47},{"city":"Perry Point","state_name":"Maryland","lat":39.55229,"lng":-76.06157,"zip":"21902","miles_from_dt":24.51},{"city":"Chesapeake City","state_name":"Maryland","lat":39.50095,"lng":-75.84764,"zip":"21915","miles_from_dt":24.53},{"city":"Willow Street","state_name":"Pennsylvania","lat":39.95981,"lng":-76.26463,"zip":"17584","miles_from_dt":24.54},{"city":"Chester","state_name":"Pennsylvania","lat":39.84699,"lng":-75.36099,"zip":"19016","miles_from_dt":24.57},{"city":"Bridgeport","state_name":"New Jersey","lat":39.81186,"lng":-75.36286,"zip":"08014","miles_from_dt":24.66},{"city":"Spring City","state_name":"Pennsylvania","lat":40.17028,"lng":-75.60042,"zip":"19475","miles_from_dt":24.69},{"city":"Martindale","state_name":"Pennsylvania","lat":40.15,"lng":-76.09001,"zip":"17549","miles_from_dt":24.75},{"city":"Devon","state_name":"Pennsylvania","lat":40.04208,"lng":-75.42331,"zip":"19333","miles_from_dt":24.8},{"city":"Southeastern","state_name":"Pennsylvania","lat":40.04122,"lng":-75.42075,"zip":"19398","miles_from_dt":24.89},{"city":"Holtwood","state_name":"Pennsylvania","lat":39.85731,"lng":-76.2923,"zip":"17532","miles_from_dt":24.96},{"city":"Lancaster","state_name":"Pennsylvania","lat":40.01486,"lng":-76.24632,"zip":"17602","miles_from_dt":25.02},{"city":"Pottstown","state_name":"Pennsylvania","lat":40.19981,"lng":-75.6727,"zip":"19465","miles_from_dt":25.03},{"city":"Valley Forge","state_name":"Pennsylvania","lat":40.12053,"lng":-75.4995,"zip":"19481","miles_from_dt":25.06},{"city":"Valley Forge","state_name":"Pennsylvania","lat":40.09729,"lng":-75.46849,"zip":"19496","miles_from_dt":25.12},{"city":"Valley Forge","state_name":"Pennsylvania","lat":40.10004,"lng":-75.47003,"zip":"19482","miles_from_dt":25.19},{"city":"Woodlyn","state_name":"Pennsylvania","lat":39.87499,"lng":-75.3467,"zip":"19094","miles_from_dt":25.35},{"city":"Swarthmore","state_name":"Pennsylvania","lat":39.89864,"lng":-75.34751,"zip":"19081","miles_from_dt":25.44},{"city":"Darlington","state_name":"Maryland","lat":39.64905,"lng":-76.22261,"zip":"21034","miles_from_dt":25.63},{"city":"Leola","state_name":"Pennsylvania","lat":40.09877,"lng":-76.1888,"zip":"17540","miles_from_dt":25.65},{"city":"Southeastern","state_name":"Pennsylvania","lat":40.0716,"lng":-75.42816,"zip":"19399","miles_from_dt":25.7},{"city":"Bowmansville","state_name":"Pennsylvania","lat":40.19806,"lng":-76.01624,"zip":"17507","miles_from_dt":25.73},{"city":"Kirkwood","state_name":"Delaware","lat":39.49842,"lng":-75.68489,"zip":"19708","miles_from_dt":25.74},{"city":"Broomall","state_name":"Pennsylvania","lat":39.97425,"lng":-75.36107,"zip":"19008","miles_from_dt":25.86},{"city":"Mont Clare","state_name":"Pennsylvania","lat":40.13886,"lng":-75.50141,"zip":"19453","miles_from_dt":25.92},{"city":"Crum Lynne","state_name":"Pennsylvania","lat":39.85862,"lng":-75.33507,"zip":"19022","miles_from_dt":25.94},{"city":"Springfield","state_name":"Pennsylvania","lat":39.93214,"lng":-75.33873,"zip":"19064","miles_from_dt":26.26},{"city":"Havre De Grace","state_name":"Maryland","lat":39.56911,"lng":-76.14776,"zip":"21078","miles_from_dt":26.29},{"city":"Lancaster","state_name":"Pennsylvania","lat":40.05,"lng":-76.25005,"zip":"17605","miles_from_dt":26.34},{"city":"Folsom","state_name":"Pennsylvania","lat":39.89077,"lng":-75.32892,"zip":"19033","miles_from_dt":26.37},{"city":"Middletown","state_name":"Delaware","lat":39.48923,"lng":-75.68314,"zip":"19709","miles_from_dt":26.38},{"city":"Wayne","state_name":"Pennsylvania","lat":40.06172,"lng":-75.40004,"zip":"19087","miles_from_dt":26.56},{"city":"Ridley Park","state_name":"Pennsylvania","lat":39.87328,"lng":-75.32159,"zip":"19078","miles_from_dt":26.68},{"city":"Morton","state_name":"Pennsylvania","lat":39.90628,"lng":-75.32452,"zip":"19070","miles_from_dt":26.72},{"city":"Port Penn","state_name":"Delaware","lat":39.5102,"lng":-75.59616,"zip":"19731","miles_from_dt":26.74},{"city":"Pequea","state_name":"Pennsylvania","lat":39.89191,"lng":-76.32994,"zip":"17565","miles_from_dt":27.07},{"city":"Swedesboro","state_name":"New Jersey","lat":39.75579,"lng":-75.33017,"zip":"08085","miles_from_dt":27.12},{"city":"Parker Ford","state_name":"Pennsylvania","lat":40.20512,"lng":-75.58758,"zip":"19457","miles_from_dt":27.13},{"city":"Oaks","state_name":"Pennsylvania","lat":40.1367,"lng":-75.45962,"zip":"19456","miles_from_dt":27.33},{"city":"Mohnton","state_name":"Pennsylvania","lat":40.23714,"lng":-75.9658,"zip":"19540","miles_from_dt":27.37},{"city":"Talmage","state_name":"Pennsylvania","lat":40.11651,"lng":-76.21281,"zip":"17580","miles_from_dt":27.41},{"city":"Prospect Park","state_name":"Pennsylvania","lat":39.88586,"lng":-75.30763,"zip":"19076","miles_from_dt":27.47},{"city":"Holmes","state_name":"Pennsylvania","lat":39.90042,"lng":-75.30891,"zip":"19043","miles_from_dt":27.49},{"city":"Holmes","state_name":"Pennsylvania","lat":39.90438,"lng":-75.30854,"zip":"19098","miles_from_dt":27.54},{"city":"Whiteford","state_name":"Maryland","lat":39.70728,"lng":-76.30754,"zip":"21160","miles_from_dt":27.76},{"city":"Audubon","state_name":"Pennsylvania","lat":40.12856,"lng":-75.43766,"zip":"19407","miles_from_dt":27.78},{"city":"Delta","state_name":"Pennsylvania","lat":39.75469,"lng":-76.32852,"zip":"17314","miles_from_dt":27.8},{"city":"Brownstown","state_name":"Pennsylvania","lat":40.12455,"lng":-76.21394,"zip":"17508","miles_from_dt":27.82},{"city":"Birdsboro","state_name":"Pennsylvania","lat":40.25913,"lng":-75.83984,"zip":"19508","miles_from_dt":27.83},{"city":"Valley Forge","state_name":"Pennsylvania","lat":40.10016,"lng":-75.40009,"zip":"19484","miles_from_dt":28.06},{"city":"Norwood","state_name":"Pennsylvania","lat":39.88642,"lng":-75.29643,"zip":"19074","miles_from_dt":28.07},{"city":"Villanova","state_name":"Pennsylvania","lat":40.03759,"lng":-75.34969,"zip":"19085","miles_from_dt":28.08},{"city":"Essington","state_name":"Pennsylvania","lat":39.86345,"lng":-75.29271,"zip":"19029","miles_from_dt":28.2},{"city":"Gibbstown","state_name":"New Jersey","lat":39.82883,"lng":-75.29345,"zip":"08027","miles_from_dt":28.22},{"city":"Clifton Heights","state_name":"Pennsylvania","lat":39.92312,"lng":-75.29834,"zip":"19018","miles_from_dt":28.26},{"city":"Drexel Hill","state_name":"Pennsylvania","lat":39.95035,"lng":-75.304,"zip":"19026","miles_from_dt":28.33},{"city":"Glenolden","state_name":"Pennsylvania","lat":39.90368,"lng":-75.29323,"zip":"19036","miles_from_dt":28.35},{"city":"Lancaster","state_name":"Pennsylvania","lat":40.04187,"lng":-76.30012,"zip":"17699","miles_from_dt":28.4},{"city":"Havertown","state_name":"Pennsylvania","lat":39.97715,"lng":-75.31192,"zip":"19083","miles_from_dt":28.41},{"city":"King Of Prussia","state_name":"Pennsylvania","lat":40.09467,"lng":-75.38402,"zip":"19406","miles_from_dt":28.53},{"city":"Bryn Mawr","state_name":"Pennsylvania","lat":40.02362,"lng":-75.3298,"zip":"19010","miles_from_dt":28.63},{"city":"Ephrata","state_name":"Pennsylvania","lat":40.17499,"lng":-76.17009,"zip":"17522","miles_from_dt":28.7},{"city":"Royersford","state_name":"Pennsylvania","lat":40.20776,"lng":-75.53137,"zip":"19468","miles_from_dt":28.78},{"city":"Haverford","state_name":"Pennsylvania","lat":40.00663,"lng":-75.31747,"zip":"19041","miles_from_dt":28.79},{"city":"Lancaster","state_name":"Pennsylvania","lat":40.04002,"lng":-76.31005,"zip":"17608","miles_from_dt":28.82},{"city":"Philadelphia","state_name":"Pennsylvania","lat":39.86679,"lng":-75.27911,"zip":"19113","miles_from_dt":28.92},{"city":"Lancaster","state_name":"Pennsylvania","lat":40.04,"lng":-76.31219,"zip":"17622","miles_from_dt":28.92},{"city":"Douglassville","state_name":"Pennsylvania","lat":40.27187,"lng":-75.74981,"zip":"19518","miles_from_dt":28.96},{"city":"Odessa","state_name":"Delaware","lat":39.45443,"lng":-75.66077,"zip":"19730","miles_from_dt":29.02},{"city":"Akron","state_name":"Pennsylvania","lat":40.15697,"lng":-76.20532,"zip":"17501","miles_from_dt":29.03},{"city":"Folcroft","state_name":"Pennsylvania","lat":39.88907,"lng":-75.277,"zip":"19032","miles_from_dt":29.11},{"city":"Bausman","state_name":"Pennsylvania","lat":40.02448,"lng":-76.32855,"zip":"17504","miles_from_dt":29.26},{"city":"Reamstown","state_name":"Pennsylvania","lat":40.21244,"lng":-76.12343,"zip":"17567","miles_from_dt":29.31},{"city":"Adamstown","state_name":"Pennsylvania","lat":40.24314,"lng":-76.05822,"zip":"19501","miles_from_dt":29.48},{"city":"Ardmore","state_name":"Pennsylvania","lat":40.00217,"lng":-75.29841,"zip":"19003","miles_from_dt":29.63},{"city":"Warwick","state_name":"Maryland","lat":39.42486,"lng":-75.81607,"zip":"21912","miles_from_dt":29.74},{"city":"Sharon Hill","state_name":"Pennsylvania","lat":39.90238,"lng":-75.26591,"zip":"19079","miles_from_dt":29.78},{"city":"Darby","state_name":"Pennsylvania","lat":39.91724,"lng":-75.26708,"zip":"19023","miles_from_dt":29.84},{"city":"Churchville","state_name":"Maryland","lat":39.56832,"lng":-76.24162,"zip":"21028","miles_from_dt":29.86},{"city":"Pottstown","state_name":"Pennsylvania","lat":40.25882,"lng":-75.616,"zip":"19464","miles_from_dt":29.88}],"targetCityZipCode":"19318","targetCityState":"Pennsylvania"},"__N_SSG":true}