{"pageProps":{"stateName":"Pennsylvania","cityName":"lilly","nearbyCities":[{"city":"Cassandra","state_name":"Pennsylvania","lat":40.40851,"lng":-78.6407,"zip":"15925","miles_from_dt":2.07},{"city":"Cresson","state_name":"Pennsylvania","lat":40.44736,"lng":-78.56054,"zip":"16699","miles_from_dt":2.95},{"city":"Cresson","state_name":"Pennsylvania","lat":40.46231,"lng":-78.58003,"zip":"16630","miles_from_dt":3.08},{"city":"Portage","state_name":"Pennsylvania","lat":40.37248,"lng":-78.63573,"zip":"15946","miles_from_dt":3.78},{"city":"Gallitzin","state_name":"Pennsylvania","lat":40.50774,"lng":-78.57146,"zip":"16641","miles_from_dt":6.18},{"city":"Duncansville","state_name":"Pennsylvania","lat":40.41621,"lng":-78.48743,"zip":"16635","miles_from_dt":6.25},{"city":"Wilmore","state_name":"Pennsylvania","lat":40.38942,"lng":-78.71644,"zip":"15962","miles_from_dt":6.26},{"city":"Loretto","state_name":"Pennsylvania","lat":40.52128,"lng":-78.63218,"zip":"15940","miles_from_dt":6.98},{"city":"Summerhill","state_name":"Pennsylvania","lat":40.3891,"lng":-78.73284,"zip":"15958","miles_from_dt":7.08},{"city":"Beaverdale","state_name":"Pennsylvania","lat":40.31642,"lng":-78.69786,"zip":"15921","miles_from_dt":8.77},{"city":"Ashville","state_name":"Pennsylvania","lat":40.53723,"lng":-78.53214,"zip":"16613","miles_from_dt":8.84},{"city":"East Freedom","state_name":"Pennsylvania","lat":40.34214,"lng":-78.47079,"zip":"16637","miles_from_dt":9.01},{"city":"Sidman","state_name":"Pennsylvania","lat":40.30878,"lng":-78.69285,"zip":"15955","miles_from_dt":9.07},{"city":"Newry","state_name":"Pennsylvania","lat":40.38898,"lng":-78.43491,"zip":"16665","miles_from_dt":9.29},{"city":"Coupon","state_name":"Pennsylvania","lat":40.53759,"lng":-78.51316,"zip":"16629","miles_from_dt":9.34},{"city":"Revloc","state_name":"Pennsylvania","lat":40.48986,"lng":-78.76699,"zip":"15948","miles_from_dt":9.7},{"city":"Chest Springs","state_name":"Pennsylvania","lat":40.5651,"lng":-78.60664,"zip":"16624","miles_from_dt":9.86},{"city":"Ebensburg","state_name":"Pennsylvania","lat":40.51612,"lng":-78.76225,"zip":"15931","miles_from_dt":10.49},{"city":"Dunlo","state_name":"Pennsylvania","lat":40.29468,"lng":-78.71732,"zip":"15930","miles_from_dt":10.59},{"city":"Claysburg","state_name":"Pennsylvania","lat":40.28482,"lng":-78.50855,"zip":"16625","miles_from_dt":10.77},{"city":"Saint Michael","state_name":"Pennsylvania","lat":40.3307,"lng":-78.77209,"zip":"15951","miles_from_dt":10.81},{"city":"South Fork","state_name":"Pennsylvania","lat":40.35022,"lng":-78.78819,"zip":"15956","miles_from_dt":10.83},{"city":"Mineral Point","state_name":"Pennsylvania","lat":40.40584,"lng":-78.81215,"zip":"15942","miles_from_dt":10.95},{"city":"Salix","state_name":"Pennsylvania","lat":40.30348,"lng":-78.77614,"zip":"15952","miles_from_dt":12.16},{"city":"Imler","state_name":"Pennsylvania","lat":40.24898,"lng":-78.55092,"zip":"16655","miles_from_dt":12.29},{"city":"Colver","state_name":"Pennsylvania","lat":40.54148,"lng":-78.78019,"zip":"15927","miles_from_dt":12.34},{"city":"Queen","state_name":"Pennsylvania","lat":40.25828,"lng":-78.50556,"zip":"16670","miles_from_dt":12.48},{"city":"Nanty Glo","state_name":"Pennsylvania","lat":40.47437,"lng":-78.83513,"zip":"15943","miles_from_dt":12.62},{"city":"Altoona","state_name":"Pennsylvania","lat":40.52003,"lng":-78.40017,"zip":"16603","miles_from_dt":12.76},{"city":"Sproul","state_name":"Pennsylvania","lat":40.27206,"lng":-78.4565,"zip":"16682","miles_from_dt":13.01},{"city":"Dysart","state_name":"Pennsylvania","lat":40.60214,"lng":-78.50161,"zip":"16636","miles_from_dt":13.58},{"city":"Carrolltown","state_name":"Pennsylvania","lat":40.59833,"lng":-78.72532,"zip":"15722","miles_from_dt":13.69},{"city":"Roaring Spring","state_name":"Pennsylvania","lat":40.30671,"lng":-78.39026,"zip":"16673","miles_from_dt":13.88},{"city":"Altoona","state_name":"Pennsylvania","lat":40.51491,"lng":-78.37052,"zip":"16602","miles_from_dt":13.95},{"city":"Elton","state_name":"Pennsylvania","lat":40.28107,"lng":-78.79589,"zip":"15934","miles_from_dt":13.98},{"city":"Twin Rocks","state_name":"Pennsylvania","lat":40.49848,"lng":-78.85184,"zip":"15960","miles_from_dt":14},{"city":"Johnstown","state_name":"Pennsylvania","lat":40.40783,"lng":-78.87047,"zip":"15909","miles_from_dt":14},{"city":"Elmora","state_name":"Pennsylvania","lat":40.59871,"lng":-78.75356,"zip":"15737","miles_from_dt":14.46},{"city":"Hollidaysburg","state_name":"Pennsylvania","lat":40.44231,"lng":-78.33242,"zip":"16648","miles_from_dt":14.48},{"city":"Parkhill","state_name":"Pennsylvania","lat":40.35909,"lng":-78.86867,"zip":"15945","miles_from_dt":14.54},{"city":"Johnstown","state_name":"Pennsylvania","lat":40.3056,"lng":-78.84382,"zip":"15904","miles_from_dt":14.92},{"city":"Altoona","state_name":"Pennsylvania","lat":40.55338,"lng":-78.37283,"zip":"16601","miles_from_dt":15.25},{"city":"Alum Bank","state_name":"Pennsylvania","lat":40.19972,"lng":-78.63176,"zip":"15521","miles_from_dt":15.41},{"city":"Johnstown","state_name":"Pennsylvania","lat":40.30833,"lng":-78.85929,"zip":"15915","miles_from_dt":15.52},{"city":"Patton","state_name":"Pennsylvania","lat":40.65072,"lng":-78.61974,"zip":"16668","miles_from_dt":15.79},{"city":"Belsano","state_name":"Pennsylvania","lat":40.51853,"lng":-78.87794,"zip":"15922","miles_from_dt":15.81},{"city":"Saint Benedict","state_name":"Pennsylvania","lat":40.63075,"lng":-78.73041,"zip":"15773","miles_from_dt":15.82},{"city":"Johnstown","state_name":"Pennsylvania","lat":40.32,"lng":-78.87911,"zip":"15902","miles_from_dt":16.06},{"city":"Windber","state_name":"Pennsylvania","lat":40.21676,"lng":-78.77234,"zip":"15963","miles_from_dt":16.68},{"city":"Osterburg","state_name":"Pennsylvania","lat":40.18213,"lng":-78.52546,"zip":"16667","miles_from_dt":17.09},{"city":"Curryville","state_name":"Pennsylvania","lat":40.27141,"lng":-78.34754,"zip":"16631","miles_from_dt":17.14},{"city":"Nicktown","state_name":"Pennsylvania","lat":40.6001,"lng":-78.83309,"zip":"15762","miles_from_dt":17.15},{"city":"Strongstown","state_name":"Pennsylvania","lat":40.53953,"lng":-78.89744,"zip":"15957","miles_from_dt":17.37},{"city":"Spangler","state_name":"Pennsylvania","lat":40.63488,"lng":-78.78405,"zip":"15775","miles_from_dt":17.42},{"city":"Johnstown","state_name":"Pennsylvania","lat":40.32845,"lng":-78.9146,"zip":"15901","miles_from_dt":17.54},{"city":"Johnstown","state_name":"Pennsylvania","lat":40.37806,"lng":-78.93356,"zip":"15906","miles_from_dt":17.56},{"city":"Vintondale","state_name":"Pennsylvania","lat":40.46187,"lng":-78.9382,"zip":"15961","miles_from_dt":17.74},{"city":"Johnstown","state_name":"Pennsylvania","lat":40.33,"lng":-78.92001,"zip":"15907","miles_from_dt":17.76},{"city":"Martinsburg","state_name":"Pennsylvania","lat":40.30635,"lng":-78.29961,"zip":"16662","miles_from_dt":18.02},{"city":"Marsteller","state_name":"Pennsylvania","lat":40.64583,"lng":-78.80509,"zip":"15760","miles_from_dt":18.67},{"city":"Saint Boniface","state_name":"Pennsylvania","lat":40.68796,"lng":-78.67905,"zip":"16675","miles_from_dt":18.74},{"city":"Hastings","state_name":"Pennsylvania","lat":40.68291,"lng":-78.71579,"zip":"16646","miles_from_dt":18.9},{"city":"Northern Cambria","state_name":"Pennsylvania","lat":40.63962,"lng":-78.82978,"zip":"15714","miles_from_dt":19.09},{"city":"Bellwood","state_name":"Pennsylvania","lat":40.6036,"lng":-78.32995,"zip":"16617","miles_from_dt":19.17},{"city":"New Enterprise","state_name":"Pennsylvania","lat":40.17822,"lng":-78.42437,"zip":"16664","miles_from_dt":19.37},{"city":"Tire Hill","state_name":"Pennsylvania","lat":40.26919,"lng":-78.91523,"zip":"15959","miles_from_dt":19.45},{"city":"Flinton","state_name":"Pennsylvania","lat":40.70657,"lng":-78.5702,"zip":"16640","miles_from_dt":19.71},{"city":"Woodbury","state_name":"Pennsylvania","lat":40.20327,"lng":-78.35943,"zip":"16695","miles_from_dt":19.93},{"city":"Fallentimber","state_name":"Pennsylvania","lat":40.68566,"lng":-78.44912,"zip":"16639","miles_from_dt":19.96},{"city":"Fishertown","state_name":"Pennsylvania","lat":40.12835,"lng":-78.59341,"zip":"15539","miles_from_dt":20.28},{"city":"New Paris","state_name":"Pennsylvania","lat":40.12525,"lng":-78.61575,"zip":"15554","miles_from_dt":20.49},{"city":"Alverda","state_name":"Pennsylvania","lat":40.64019,"lng":-78.87193,"zip":"15710","miles_from_dt":20.56},{"city":"Blandburg","state_name":"Pennsylvania","lat":40.68367,"lng":-78.41591,"zip":"16619","miles_from_dt":20.63},{"city":"Davidsville","state_name":"Pennsylvania","lat":40.23943,"lng":-78.91591,"zip":"15928","miles_from_dt":20.67},{"city":"Emeigh","state_name":"Pennsylvania","lat":40.69039,"lng":-78.78174,"zip":"15738","miles_from_dt":20.7},{"city":"Williamsburg","state_name":"Pennsylvania","lat":40.46519,"lng":-78.21593,"zip":"16693","miles_from_dt":20.76},{"city":"Seward","state_name":"Pennsylvania","lat":40.41837,"lng":-79.00051,"zip":"15954","miles_from_dt":20.82},{"city":"Seanor","state_name":"Pennsylvania","lat":40.21113,"lng":-78.89049,"zip":"15953","miles_from_dt":20.93},{"city":"Mentcle","state_name":"Pennsylvania","lat":40.63399,"lng":-78.89019,"zip":"15761","miles_from_dt":20.93},{"city":"Loysburg","state_name":"Pennsylvania","lat":40.16063,"lng":-78.39138,"zip":"16659","miles_from_dt":21.3},{"city":"Heilwood","state_name":"Pennsylvania","lat":40.62264,"lng":-78.91347,"zip":"15745","miles_from_dt":21.31},{"city":"Dilltown","state_name":"Pennsylvania","lat":40.47683,"lng":-79.0042,"zip":"15929","miles_from_dt":21.34},{"city":"Glasgow","state_name":"Pennsylvania","lat":40.7094,"lng":-78.4485,"zip":"16644","miles_from_dt":21.48},{"city":"Johnstown","state_name":"Pennsylvania","lat":40.29423,"lng":-78.98035,"zip":"15905","miles_from_dt":21.66},{"city":"Tipton","state_name":"Pennsylvania","lat":40.63541,"lng":-78.29685,"zip":"16684","miles_from_dt":21.93},{"city":"Entriken","state_name":"Pennsylvania","lat":40.33809,"lng":-78.2012,"zip":"16638","miles_from_dt":22.12},{"city":"Coalport","state_name":"Pennsylvania","lat":40.75272,"lng":-78.50036,"zip":"16627","miles_from_dt":23.47},{"city":"Cairnbrook","state_name":"Pennsylvania","lat":40.10684,"lng":-78.77527,"zip":"15924","miles_from_dt":23.53},{"city":"James Creek","state_name":"Pennsylvania","lat":40.32486,"lng":-78.17757,"zip":"16657","miles_from_dt":23.57},{"city":"Hooversville","state_name":"Pennsylvania","lat":40.16221,"lng":-78.89584,"zip":"15936","miles_from_dt":23.59},{"city":"Armagh","state_name":"Pennsylvania","lat":40.46705,"lng":-79.05006,"zip":"15920","miles_from_dt":23.63},{"city":"Penn Run","state_name":"Pennsylvania","lat":40.59661,"lng":-78.99574,"zip":"15765","miles_from_dt":23.81},{"city":"Saxton","state_name":"Pennsylvania","lat":40.2252,"lng":-78.23421,"zip":"16678","miles_from_dt":23.87},{"city":"Westover","state_name":"Pennsylvania","lat":40.75935,"lng":-78.72053,"zip":"16692","miles_from_dt":24.04},{"city":"Cherry Tree","state_name":"Pennsylvania","lat":40.73545,"lng":-78.81746,"zip":"15724","miles_from_dt":24.32},{"city":"Hollsopple","state_name":"Pennsylvania","lat":40.20112,"lng":-78.96755,"zip":"15935","miles_from_dt":24.45},{"city":"Jerome","state_name":"Pennsylvania","lat":40.21463,"lng":-78.98105,"zip":"15937","miles_from_dt":24.45},{"city":"Smithmill","state_name":"Pennsylvania","lat":40.75149,"lng":-78.40254,"zip":"16680","miles_from_dt":25.11},{"city":"Beccaria","state_name":"Pennsylvania","lat":40.76832,"lng":-78.45128,"zip":"16616","miles_from_dt":25.23},{"city":"La Jose","state_name":"Pennsylvania","lat":40.78681,"lng":-78.64728,"zip":"15753","miles_from_dt":25.26},{"city":"Schellsburg","state_name":"Pennsylvania","lat":40.05914,"lng":-78.68241,"zip":"15559","miles_from_dt":25.37},{"city":"New Florence","state_name":"Pennsylvania","lat":40.36295,"lng":-79.0816,"zip":"15944","miles_from_dt":25.44},{"city":"Brush Valley","state_name":"Pennsylvania","lat":40.53896,"lng":-79.06625,"zip":"15720","miles_from_dt":25.57},{"city":"Commodore","state_name":"Pennsylvania","lat":40.70583,"lng":-78.92049,"zip":"15729","miles_from_dt":25.64},{"city":"Tyrone","state_name":"Pennsylvania","lat":40.67056,"lng":-78.24102,"zip":"16686","miles_from_dt":25.73},{"city":"Clymer","state_name":"Pennsylvania","lat":40.6757,"lng":-78.96644,"zip":"15728","miles_from_dt":25.82},{"city":"Riddlesburg","state_name":"Pennsylvania","lat":40.16935,"lng":-78.24324,"zip":"16672","miles_from_dt":25.9},{"city":"Homer City","state_name":"Pennsylvania","lat":40.52489,"lng":-79.087,"zip":"15748","miles_from_dt":26.33},{"city":"Irvona","state_name":"Pennsylvania","lat":40.8066,"lng":-78.56353,"zip":"16656","miles_from_dt":26.62},{"city":"Starford","state_name":"Pennsylvania","lat":40.69749,"lng":-78.96255,"zip":"15777","miles_from_dt":26.71},{"city":"Defiance","state_name":"Pennsylvania","lat":40.15969,"lng":-78.23259,"zip":"16633","miles_from_dt":26.77},{"city":"Glen Hope","state_name":"Pennsylvania","lat":40.80204,"lng":-78.49932,"zip":"16645","miles_from_dt":26.8},{"city":"Hesston","state_name":"Pennsylvania","lat":40.39514,"lng":-78.09798,"zip":"16647","miles_from_dt":26.84},{"city":"Hillsdale","state_name":"Pennsylvania","lat":40.75285,"lng":-78.87455,"zip":"15746","miles_from_dt":26.85},{"city":"Hopewell","state_name":"Pennsylvania","lat":40.11592,"lng":-78.29237,"zip":"16650","miles_from_dt":26.85},{"city":"Dudley","state_name":"Pennsylvania","lat":40.2105,"lng":-78.17308,"zip":"16634","miles_from_dt":27.12},{"city":"Smokerun","state_name":"Pennsylvania","lat":40.80032,"lng":-78.42766,"zip":"16681","miles_from_dt":27.72},{"city":"Ramey","state_name":"Pennsylvania","lat":40.79414,"lng":-78.40203,"zip":"16671","miles_from_dt":27.81},{"city":"Robinson","state_name":"Pennsylvania","lat":40.4055,"lng":-79.13442,"zip":"15949","miles_from_dt":27.91},{"city":"Morann","state_name":"Pennsylvania","lat":40.7868,"lng":-78.36707,"zip":"16663","miles_from_dt":28.12},{"city":"Kantner","state_name":"Pennsylvania","lat":40.10445,"lng":-78.93981,"zip":"15548","miles_from_dt":28.15},{"city":"Central City","state_name":"Pennsylvania","lat":40.04783,"lng":-78.81934,"zip":"15926","miles_from_dt":28.19},{"city":"Alexandria","state_name":"Pennsylvania","lat":40.56719,"lng":-78.10214,"zip":"16611","miles_from_dt":28.35},{"city":"McConnellstown","state_name":"Pennsylvania","lat":40.46214,"lng":-78.07009,"zip":"16660","miles_from_dt":28.37},{"city":"Six Mile Run","state_name":"Pennsylvania","lat":40.15659,"lng":-78.195,"zip":"16679","miles_from_dt":28.4},{"city":"Stoystown","state_name":"Pennsylvania","lat":40.0962,"lng":-78.93618,"zip":"15563","miles_from_dt":28.48},{"city":"Arcadia","state_name":"Pennsylvania","lat":40.79323,"lng":-78.84692,"zip":"15712","miles_from_dt":28.57},{"city":"Broad Top","state_name":"Pennsylvania","lat":40.22888,"lng":-78.12298,"zip":"16621","miles_from_dt":28.77},{"city":"Calvin","state_name":"Pennsylvania","lat":40.32853,"lng":-78.0692,"zip":"16622","miles_from_dt":29.04},{"city":"Burnside","state_name":"Pennsylvania","lat":40.82029,"lng":-78.78739,"zip":"15721","miles_from_dt":29.09},{"city":"Madera","state_name":"Pennsylvania","lat":40.83058,"lng":-78.45026,"zip":"16661","miles_from_dt":29.34},{"city":"Todd","state_name":"Pennsylvania","lat":40.28019,"lng":-78.08063,"zip":"16685","miles_from_dt":29.4},{"city":"Dixonville","state_name":"Pennsylvania","lat":40.72046,"lng":-79.00836,"zip":"15734","miles_from_dt":29.54},{"city":"Bolivar","state_name":"Pennsylvania","lat":40.35518,"lng":-79.16447,"zip":"15923","miles_from_dt":29.84},{"city":"Manns Choice","state_name":"Pennsylvania","lat":39.99025,"lng":-78.64493,"zip":"15550","miles_from_dt":29.87},{"city":"Boswell","state_name":"Pennsylvania","lat":40.18537,"lng":-79.0794,"zip":"15531","miles_from_dt":29.88}],"targetCityZipCode":"15938","targetCityState":"Pennsylvania"},"__N_SSG":true}