{"pageProps":{"stateName":"Pennsylvania","cityName":"mcveytown","nearbyCities":[{"city":"Mattawana","state_name":"Pennsylvania","lat":40.49746,"lng":-77.72764,"zip":"17054","miles_from_dt":3.58},{"city":"Allensville","state_name":"Pennsylvania","lat":40.46463,"lng":-77.86761,"zip":"17002","miles_from_dt":5},{"city":"Newton Hamilton","state_name":"Pennsylvania","lat":40.39372,"lng":-77.83429,"zip":"17075","miles_from_dt":5.53},{"city":"Mill Creek","state_name":"Pennsylvania","lat":40.49144,"lng":-77.88158,"zip":"17060","miles_from_dt":6.15},{"city":"Mount Union","state_name":"Pennsylvania","lat":40.35885,"lng":-77.85892,"zip":"17066","miles_from_dt":8.25},{"city":"Belleville","state_name":"Pennsylvania","lat":40.59966,"lng":-77.73278,"zip":"17004","miles_from_dt":9.95},{"city":"East Waterford","state_name":"Pennsylvania","lat":40.33758,"lng":-77.66093,"zip":"17021","miles_from_dt":10.24},{"city":"Huntingdon","state_name":"Pennsylvania","lat":40.51692,"lng":-77.95302,"zip":"16652","miles_from_dt":10.29},{"city":"Granville","state_name":"Pennsylvania","lat":40.55416,"lng":-77.62196,"zip":"17029","miles_from_dt":10.33},{"city":"Honey Grove","state_name":"Pennsylvania","lat":40.41638,"lng":-77.57443,"zip":"17035","miles_from_dt":10.87},{"city":"Mifflin","state_name":"Pennsylvania","lat":40.50111,"lng":-77.54792,"zip":"17058","miles_from_dt":12.22},{"city":"Orbisonia","state_name":"Pennsylvania","lat":40.28368,"lng":-77.81484,"zip":"17243","miles_from_dt":12.28},{"city":"Shirleysburg","state_name":"Pennsylvania","lat":40.2977,"lng":-77.89489,"zip":"17260","miles_from_dt":12.84},{"city":"Lewistown","state_name":"Pennsylvania","lat":40.58236,"lng":-77.59013,"zip":"17044","miles_from_dt":12.86},{"city":"Huntingdon","state_name":"Pennsylvania","lat":40.49189,"lng":-78.02854,"zip":"16654","miles_from_dt":13.65},{"city":"Blairs Mills","state_name":"Pennsylvania","lat":40.25381,"lng":-77.77249,"zip":"17213","miles_from_dt":14.14},{"city":"New Germantown","state_name":"Pennsylvania","lat":40.30061,"lng":-77.58928,"zip":"17071","miles_from_dt":14.6},{"city":"Mapleton Depot","state_name":"Pennsylvania","lat":40.31577,"lng":-77.98195,"zip":"17052","miles_from_dt":14.79},{"city":"Petersburg","state_name":"Pennsylvania","lat":40.65737,"lng":-77.90675,"zip":"16669","miles_from_dt":15.4},{"city":"Concord","state_name":"Pennsylvania","lat":40.23822,"lng":-77.72235,"zip":"17217","miles_from_dt":15.45},{"city":"McConnellstown","state_name":"Pennsylvania","lat":40.46214,"lng":-78.07009,"zip":"16660","miles_from_dt":15.66},{"city":"Burnham","state_name":"Pennsylvania","lat":40.6359,"lng":-77.56609,"zip":"17009","miles_from_dt":16.37},{"city":"Rockhill Furnace","state_name":"Pennsylvania","lat":40.24186,"lng":-77.9002,"zip":"17249","miles_from_dt":16.4},{"city":"Yeagertown","state_name":"Pennsylvania","lat":40.64535,"lng":-77.57639,"zip":"17099","miles_from_dt":16.52},{"city":"Doylesburg","state_name":"Pennsylvania","lat":40.22367,"lng":-77.69318,"zip":"17219","miles_from_dt":16.76},{"city":"Blain","state_name":"Pennsylvania","lat":40.28495,"lng":-77.54364,"zip":"17006","miles_from_dt":17.04},{"city":"Reedsville","state_name":"Pennsylvania","lat":40.68705,"lng":-77.62692,"zip":"17084","miles_from_dt":17.53},{"city":"Hesston","state_name":"Pennsylvania","lat":40.39514,"lng":-78.09798,"zip":"16647","miles_from_dt":17.69},{"city":"Calvin","state_name":"Pennsylvania","lat":40.32853,"lng":-78.0692,"zip":"16622","miles_from_dt":18.02},{"city":"Ickesburg","state_name":"Pennsylvania","lat":40.43329,"lng":-77.42872,"zip":"17037","miles_from_dt":18.24},{"city":"Port Royal","state_name":"Pennsylvania","lat":40.49762,"lng":-77.42579,"zip":"17082","miles_from_dt":18.49},{"city":"Alexandria","state_name":"Pennsylvania","lat":40.56719,"lng":-78.10214,"zip":"16611","miles_from_dt":18.87},{"city":"Cassville","state_name":"Pennsylvania","lat":40.27618,"lng":-78.04556,"zip":"16623","miles_from_dt":19.12},{"city":"Dry Run","state_name":"Pennsylvania","lat":40.17807,"lng":-77.74108,"zip":"17220","miles_from_dt":19.44},{"city":"Amberson","state_name":"Pennsylvania","lat":40.18989,"lng":-77.661,"zip":"17210","miles_from_dt":19.48},{"city":"Pine Grove Mills","state_name":"Pennsylvania","lat":40.72725,"lng":-77.89066,"zip":"16868","miles_from_dt":19.53},{"city":"Loysville","state_name":"Pennsylvania","lat":40.37098,"lng":-77.41426,"zip":"17047","miles_from_dt":19.87},{"city":"Todd","state_name":"Pennsylvania","lat":40.28019,"lng":-78.08063,"zip":"16685","miles_from_dt":20.38},{"city":"Pennsylvania Furnace","state_name":"Pennsylvania","lat":40.72086,"lng":-77.96396,"zip":"16865","miles_from_dt":20.68},{"city":"Spruce Creek","state_name":"Pennsylvania","lat":40.65595,"lng":-78.07313,"zip":"16683","miles_from_dt":20.84},{"city":"Saltillo","state_name":"Pennsylvania","lat":40.21241,"lng":-78.00628,"zip":"17253","miles_from_dt":20.99},{"city":"Boalsburg","state_name":"Pennsylvania","lat":40.76607,"lng":-77.77739,"zip":"16827","miles_from_dt":21.2},{"city":"Shade Gap","state_name":"Pennsylvania","lat":40.15426,"lng":-77.86756,"zip":"17255","miles_from_dt":21.6},{"city":"Spring Run","state_name":"Pennsylvania","lat":40.14489,"lng":-77.74174,"zip":"17262","miles_from_dt":21.72},{"city":"Neelyton","state_name":"Pennsylvania","lat":40.13973,"lng":-77.83009,"zip":"17239","miles_from_dt":22.22},{"city":"Three Springs","state_name":"Pennsylvania","lat":40.17993,"lng":-77.99331,"zip":"17264","miles_from_dt":22.48},{"city":"Mexico","state_name":"Pennsylvania","lat":40.53349,"lng":-77.35585,"zip":"17056","miles_from_dt":22.57},{"city":"Mifflintown","state_name":"Pennsylvania","lat":40.59241,"lng":-77.38165,"zip":"17059","miles_from_dt":22.58},{"city":"State College","state_name":"Pennsylvania","lat":40.78538,"lng":-77.84214,"zip":"16801","miles_from_dt":22.82},{"city":"James Creek","state_name":"Pennsylvania","lat":40.32486,"lng":-78.17757,"zip":"16657","miles_from_dt":23.26},{"city":"Newburg","state_name":"Pennsylvania","lat":40.15411,"lng":-77.58227,"zip":"17240","miles_from_dt":23.31},{"city":"Williamsburg","state_name":"Pennsylvania","lat":40.46519,"lng":-78.21593,"zip":"16693","miles_from_dt":23.34},{"city":"State College","state_name":"Pennsylvania","lat":40.79192,"lng":-77.86099,"zip":"16805","miles_from_dt":23.45},{"city":"State College","state_name":"Pennsylvania","lat":40.79203,"lng":-77.86109,"zip":"16804","miles_from_dt":23.45},{"city":"Roxbury","state_name":"Pennsylvania","lat":40.12159,"lng":-77.66695,"zip":"17251","miles_from_dt":23.93},{"city":"University Park","state_name":"Pennsylvania","lat":40.79867,"lng":-77.86481,"zip":"16802","miles_from_dt":23.94},{"city":"Entriken","state_name":"Pennsylvania","lat":40.33809,"lng":-78.2012,"zip":"16638","miles_from_dt":24.07},{"city":"Broad Top","state_name":"Pennsylvania","lat":40.22888,"lng":-78.12298,"zip":"16621","miles_from_dt":24.35},{"city":"Centre Hall","state_name":"Pennsylvania","lat":40.80704,"lng":-77.69097,"zip":"16828","miles_from_dt":24.41},{"city":"Lemont","state_name":"Pennsylvania","lat":40.81229,"lng":-77.80132,"zip":"16851","miles_from_dt":24.44},{"city":"Warriors Mark","state_name":"Pennsylvania","lat":40.73291,"lng":-78.06846,"zip":"16877","miles_from_dt":24.48},{"city":"Willow Hill","state_name":"Pennsylvania","lat":40.10183,"lng":-77.80367,"zip":"17271","miles_from_dt":24.68},{"city":"Elliottsburg","state_name":"Pennsylvania","lat":40.40992,"lng":-77.30854,"zip":"17024","miles_from_dt":24.72},{"city":"Robertsdale","state_name":"Pennsylvania","lat":40.1865,"lng":-78.07926,"zip":"16674","miles_from_dt":24.79},{"city":"State College","state_name":"Pennsylvania","lat":40.80849,"lng":-77.89449,"zip":"16803","miles_from_dt":24.96},{"city":"Landisburg","state_name":"Pennsylvania","lat":40.31558,"lng":-77.32571,"zip":"17040","miles_from_dt":25.59},{"city":"Burnt Cabins","state_name":"Pennsylvania","lat":40.09234,"lng":-77.89008,"zip":"17215","miles_from_dt":26.03},{"city":"Lurgan","state_name":"Pennsylvania","lat":40.09462,"lng":-77.63341,"zip":"17232","miles_from_dt":26.19},{"city":"Milroy","state_name":"Pennsylvania","lat":40.76274,"lng":-77.47343,"zip":"17063","miles_from_dt":26.23},{"city":"Orrstown","state_name":"Pennsylvania","lat":40.08595,"lng":-77.66562,"zip":"17244","miles_from_dt":26.35},{"city":"Oakland Mills","state_name":"Pennsylvania","lat":40.62084,"lng":-77.30758,"zip":"17076","miles_from_dt":26.93},{"city":"Dudley","state_name":"Pennsylvania","lat":40.2105,"lng":-78.17308,"zip":"16634","miles_from_dt":27.2},{"city":"Wood","state_name":"Pennsylvania","lat":40.17259,"lng":-78.12852,"zip":"16694","miles_from_dt":27.25},{"city":"Newville","state_name":"Pennsylvania","lat":40.17793,"lng":-77.40326,"zip":"17241","miles_from_dt":27.51},{"city":"Pleasant Hall","state_name":"Pennsylvania","lat":40.0629,"lng":-77.68255,"zip":"17246","miles_from_dt":27.73},{"city":"Port Matilda","state_name":"Pennsylvania","lat":40.80149,"lng":-78.04969,"zip":"16870","miles_from_dt":27.76},{"city":"Fannettsburg","state_name":"Pennsylvania","lat":40.05796,"lng":-77.82019,"zip":"17221","miles_from_dt":27.77},{"city":"McClure","state_name":"Pennsylvania","lat":40.72455,"lng":-77.35888,"zip":"17841","miles_from_dt":28.48},{"city":"Fort Littleton","state_name":"Pennsylvania","lat":40.06521,"lng":-77.9389,"zip":"17223","miles_from_dt":28.54},{"city":"Tyrone","state_name":"Pennsylvania","lat":40.67056,"lng":-78.24102,"zip":"16686","miles_from_dt":28.63},{"city":"Spring Mills","state_name":"Pennsylvania","lat":40.84536,"lng":-77.56882,"zip":"16875","miles_from_dt":28.75},{"city":"Upperstrasburg","state_name":"Pennsylvania","lat":40.03846,"lng":-77.77297,"zip":"17265","miles_from_dt":29},{"city":"Hustontown","state_name":"Pennsylvania","lat":40.07853,"lng":-78.01144,"zip":"17229","miles_from_dt":29.11},{"city":"Saxton","state_name":"Pennsylvania","lat":40.2252,"lng":-78.23421,"zip":"16678","miles_from_dt":29.2},{"city":"Hollidaysburg","state_name":"Pennsylvania","lat":40.44231,"lng":-78.33242,"zip":"16648","miles_from_dt":29.51},{"city":"Martinsburg","state_name":"Pennsylvania","lat":40.30635,"lng":-78.29961,"zip":"16662","miles_from_dt":29.71},{"city":"Waterfall","state_name":"Pennsylvania","lat":40.10737,"lng":-78.10028,"zip":"16689","miles_from_dt":29.78}],"targetCityZipCode":"17051","targetCityState":"Pennsylvania"},"__N_SSG":true}