{"pageProps":{"stateName":"Pennsylvania","cityName":"scotrun","nearbyCities":[{"city":"Swiftwater","state_name":"Pennsylvania","lat":41.08926,"lng":-75.33771,"zip":"18370","miles_from_dt":1.46},{"city":"Pocono Manor","state_name":"Pennsylvania","lat":41.0995,"lng":-75.3682,"zip":"18349","miles_from_dt":1.94},{"city":"Tannersville","state_name":"Pennsylvania","lat":41.04777,"lng":-75.32512,"zip":"18372","miles_from_dt":2.36},{"city":"Mount Pocono","state_name":"Pennsylvania","lat":41.11735,"lng":-75.34442,"zip":"18344","miles_from_dt":3.11},{"city":"Long Pond","state_name":"Pennsylvania","lat":41.07208,"lng":-75.44298,"zip":"18334","miles_from_dt":4.57},{"city":"Henryville","state_name":"Pennsylvania","lat":41.0922,"lng":-75.25968,"zip":"18332","miles_from_dt":5.18},{"city":"Bartonsville","state_name":"Pennsylvania","lat":41.01734,"lng":-75.28754,"zip":"18321","miles_from_dt":5.23},{"city":"Pocono Pines","state_name":"Pennsylvania","lat":41.11339,"lng":-75.45633,"zip":"18350","miles_from_dt":5.95},{"city":"Pocono Summit","state_name":"Pennsylvania","lat":41.14643,"lng":-75.42752,"zip":"18346","miles_from_dt":6.31},{"city":"Pocono Lake Preserve","state_name":"Pennsylvania","lat":41.10688,"lng":-75.47923,"zip":"18348","miles_from_dt":6.87},{"city":"Reeders","state_name":"Pennsylvania","lat":40.9897,"lng":-75.27501,"zip":"18352","miles_from_dt":7.12},{"city":"Mountainhome","state_name":"Pennsylvania","lat":41.17045,"lng":-75.30485,"zip":"18342","miles_from_dt":7.23},{"city":"Analomink","state_name":"Pennsylvania","lat":41.05183,"lng":-75.21989,"zip":"18320","miles_from_dt":7.23},{"city":"Stroudsburg","state_name":"Pennsylvania","lat":40.97254,"lng":-75.28562,"zip":"18360","miles_from_dt":7.84},{"city":"Cresco","state_name":"Pennsylvania","lat":41.15617,"lng":-75.25186,"zip":"18326","miles_from_dt":7.89},{"city":"Tobyhanna","state_name":"Pennsylvania","lat":41.19709,"lng":-75.37796,"zip":"18466","miles_from_dt":8.64},{"city":"Effort","state_name":"Pennsylvania","lat":40.96505,"lng":-75.45285,"zip":"18330","miles_from_dt":9.02},{"city":"Blakeslee","state_name":"Pennsylvania","lat":41.05959,"lng":-75.53226,"zip":"18610","miles_from_dt":9.28},{"city":"East Stroudsburg","state_name":"Pennsylvania","lat":41.03141,"lng":-75.18316,"zip":"18301","miles_from_dt":9.45},{"city":"Buck Hill Falls","state_name":"Pennsylvania","lat":41.19558,"lng":-75.27264,"zip":"18323","miles_from_dt":9.5},{"city":"Sciota","state_name":"Pennsylvania","lat":40.92561,"lng":-75.32831,"zip":"18354","miles_from_dt":10.27},{"city":"Brodheadsville","state_name":"Pennsylvania","lat":40.9221,"lng":-75.39714,"zip":"18322","miles_from_dt":10.64},{"city":"Pocono Lake","state_name":"Pennsylvania","lat":41.15116,"lng":-75.53664,"zip":"18347","miles_from_dt":10.88},{"city":"Saylorsburg","state_name":"Pennsylvania","lat":40.89848,"lng":-75.36953,"zip":"18353","miles_from_dt":12.07},{"city":"Gilbert","state_name":"Pennsylvania","lat":40.90878,"lng":-75.44076,"zip":"18331","miles_from_dt":12.18},{"city":"East Stroudsburg","state_name":"Pennsylvania","lat":41.09243,"lng":-75.11783,"zip":"18302","miles_from_dt":12.48},{"city":"Minisink Hills","state_name":"Pennsylvania","lat":41,"lng":-75.13618,"zip":"18341","miles_from_dt":12.52},{"city":"Delaware Water Gap","state_name":"Pennsylvania","lat":40.98341,"lng":-75.14665,"zip":"18327","miles_from_dt":12.54},{"city":"Canadensis","state_name":"Pennsylvania","lat":41.22545,"lng":-75.22268,"zip":"18325","miles_from_dt":12.6},{"city":"Skytop","state_name":"Pennsylvania","lat":41.22956,"lng":-75.2191,"zip":"18357","miles_from_dt":12.94},{"city":"Marshalls Creek","state_name":"Pennsylvania","lat":41.06413,"lng":-75.10455,"zip":"18335","miles_from_dt":13.12},{"city":"Albrightsville","state_name":"Pennsylvania","lat":41.00057,"lng":-75.59146,"zip":"18210","miles_from_dt":13.3},{"city":"Shawnee On Delaware","state_name":"Pennsylvania","lat":41.01574,"lng":-75.11192,"zip":"18356","miles_from_dt":13.33},{"city":"South Sterling","state_name":"Pennsylvania","lat":41.26719,"lng":-75.34744,"zip":"18460","miles_from_dt":13.41},{"city":"Lake Harmony","state_name":"Pennsylvania","lat":41.05529,"lng":-75.62088,"zip":"18624","miles_from_dt":13.91},{"city":"Kresgeville","state_name":"Pennsylvania","lat":40.89833,"lng":-75.49104,"zip":"18333","miles_from_dt":13.98},{"city":"Kunkletown","state_name":"Pennsylvania","lat":40.8922,"lng":-75.49094,"zip":"18058","miles_from_dt":14.35},{"city":"Gouldsboro","state_name":"Pennsylvania","lat":41.24267,"lng":-75.52234,"zip":"18424","miles_from_dt":14.59},{"city":"Newfoundland","state_name":"Pennsylvania","lat":41.2948,"lng":-75.34751,"zip":"18445","miles_from_dt":15.31},{"city":"Pen Argyl","state_name":"Pennsylvania","lat":40.84548,"lng":-75.25842,"zip":"18072","miles_from_dt":16.5},{"city":"Portland","state_name":"Pennsylvania","lat":40.92321,"lng":-75.10063,"zip":"18351","miles_from_dt":16.87},{"city":"Wind Gap","state_name":"Pennsylvania","lat":40.82656,"lng":-75.32068,"zip":"18091","miles_from_dt":17.1},{"city":"Columbia","state_name":"New Jersey","lat":40.94755,"lng":-75.06385,"zip":"07832","miles_from_dt":17.53},{"city":"Tamiment","state_name":"Pennsylvania","lat":41.15837,"lng":-75.03658,"zip":"18371","miles_from_dt":17.66},{"city":"Bangor","state_name":"Pennsylvania","lat":40.85511,"lng":-75.17114,"zip":"18013","miles_from_dt":17.86},{"city":"Mount Bethel","state_name":"Pennsylvania","lat":40.89043,"lng":-75.1058,"zip":"18343","miles_from_dt":18.15},{"city":"Greentown","state_name":"Pennsylvania","lat":41.32774,"lng":-75.23577,"zip":"18426","miles_from_dt":18.65},{"city":"Sterling","state_name":"Pennsylvania","lat":41.34825,"lng":-75.37964,"zip":"18463","miles_from_dt":19.04},{"city":"Bushkill","state_name":"Pennsylvania","lat":41.14712,"lng":-75.0001,"zip":"18324","miles_from_dt":19.24},{"city":"Delaware","state_name":"New Jersey","lat":40.89422,"lng":-75.06979,"zip":"07833","miles_from_dt":19.38},{"city":"Jim Thorpe","state_name":"Pennsylvania","lat":40.93245,"lng":-75.68247,"zip":"18229","miles_from_dt":19.65},{"city":"Danielsville","state_name":"Pennsylvania","lat":40.79574,"lng":-75.48246,"zip":"18038","miles_from_dt":20.25},{"city":"Palmerton","state_name":"Pennsylvania","lat":40.83098,"lng":-75.57843,"zip":"18071","miles_from_dt":20.37},{"city":"Moscow","state_name":"Pennsylvania","lat":41.33912,"lng":-75.54667,"zip":"18444","miles_from_dt":20.89},{"city":"White Haven","state_name":"Pennsylvania","lat":41.08435,"lng":-75.75666,"zip":"18661","miles_from_dt":20.96},{"city":"Dingmans Ferry","state_name":"Pennsylvania","lat":41.22531,"lng":-75.00633,"zip":"18328","miles_from_dt":21.03},{"city":"Bath","state_name":"Pennsylvania","lat":40.7654,"lng":-75.40923,"zip":"18014","miles_from_dt":21.41},{"city":"Blairstown","state_name":"New Jersey","lat":40.98308,"lng":-74.9623,"zip":"07825","miles_from_dt":21.47},{"city":"Nazareth","state_name":"Pennsylvania","lat":40.75755,"lng":-75.31927,"zip":"18064","miles_from_dt":21.85},{"city":"Aquashicola","state_name":"Pennsylvania","lat":40.81135,"lng":-75.59158,"zip":"18012","miles_from_dt":21.88},{"city":"Martins Creek","state_name":"Pennsylvania","lat":40.78229,"lng":-75.18164,"zip":"18063","miles_from_dt":22.03},{"city":"Bear Creek","state_name":"Pennsylvania","lat":41.18749,"lng":-75.75526,"zip":"18602","miles_from_dt":22.3},{"city":"Wallpack Center","state_name":"New Jersey","lat":41.12213,"lng":-74.93249,"zip":"07881","miles_from_dt":22.34},{"city":"Hamlin","state_name":"Pennsylvania","lat":41.39751,"lng":-75.35019,"zip":"18427","miles_from_dt":22.39},{"city":"Stockertown","state_name":"Pennsylvania","lat":40.75494,"lng":-75.2637,"zip":"18083","miles_from_dt":22.47},{"city":"Elmhurst","state_name":"Pennsylvania","lat":41.37341,"lng":-75.54863,"zip":"18416","miles_from_dt":23.04},{"city":"Hope","state_name":"New Jersey","lat":40.90861,"lng":-74.96961,"zip":"07844","miles_from_dt":23.15},{"city":"Tatamy","state_name":"Pennsylvania","lat":40.74174,"lng":-75.25434,"zip":"18085","miles_from_dt":23.46},{"city":"Paupack","state_name":"Pennsylvania","lat":41.39849,"lng":-75.22023,"zip":"18451","miles_from_dt":23.54},{"city":"Easton","state_name":"Pennsylvania","lat":40.7459,"lng":-75.22172,"zip":"18040","miles_from_dt":23.63},{"city":"Wilkes Barre","state_name":"Pennsylvania","lat":41.21406,"lng":-75.76925,"zip":"18702","miles_from_dt":23.68},{"city":"Walnutport","state_name":"Pennsylvania","lat":40.76578,"lng":-75.5576,"zip":"18088","miles_from_dt":23.69},{"city":"Parryville","state_name":"Pennsylvania","lat":40.82361,"lng":-75.66879,"zip":"18244","miles_from_dt":23.77},{"city":"Belvidere","state_name":"New Jersey","lat":40.82589,"lng":-75.03781,"zip":"07823","miles_from_dt":23.81},{"city":"Lehighton","state_name":"Pennsylvania","lat":40.83603,"lng":-75.692,"zip":"18235","miles_from_dt":24.03},{"city":"Cherryville","state_name":"Pennsylvania","lat":40.75053,"lng":-75.54148,"zip":"18035","miles_from_dt":24.29},{"city":"Tafton","state_name":"Pennsylvania","lat":41.40181,"lng":-75.17824,"zip":"18464","miles_from_dt":24.5},{"city":"Bowmanstown","state_name":"Pennsylvania","lat":40.80408,"lng":-75.66336,"zip":"18030","miles_from_dt":24.57},{"city":"Stillwater","state_name":"New Jersey","lat":41.03594,"lng":-74.87994,"zip":"07875","miles_from_dt":24.97},{"city":"Wilkes Barre","state_name":"Pennsylvania","lat":41.21828,"lng":-75.7946,"zip":"18764","miles_from_dt":25},{"city":"Treichlers","state_name":"Pennsylvania","lat":40.73867,"lng":-75.54757,"zip":"18086","miles_from_dt":25.17},{"city":"Lake Ariel","state_name":"Pennsylvania","lat":41.43867,"lng":-75.3959,"zip":"18436","miles_from_dt":25.32},{"city":"Pittston","state_name":"Pennsylvania","lat":41.29724,"lng":-75.74024,"zip":"18640","miles_from_dt":25.33},{"city":"Northampton","state_name":"Pennsylvania","lat":40.71792,"lng":-75.47937,"zip":"18067","miles_from_dt":25.35},{"city":"Lakeville","state_name":"Pennsylvania","lat":41.43591,"lng":-75.24499,"zip":"18438","miles_from_dt":25.7},{"city":"Middleville","state_name":"New Jersey","lat":41.05443,"lng":-74.86272,"zip":"07855","miles_from_dt":25.77},{"city":"Moosic","state_name":"Pennsylvania","lat":41.35541,"lng":-75.68016,"zip":"18507","miles_from_dt":25.81},{"city":"Laurys Station","state_name":"Pennsylvania","lat":40.7233,"lng":-75.53644,"zip":"18059","miles_from_dt":25.92},{"city":"Scranton","state_name":"Pennsylvania","lat":41.37228,"lng":-75.6578,"zip":"18540","miles_from_dt":25.97},{"city":"Johnsonburg","state_name":"New Jersey","lat":40.96694,"lng":-74.87671,"zip":"07846","miles_from_dt":26.07},{"city":"Great Meadows","state_name":"New Jersey","lat":40.88925,"lng":-74.91042,"zip":"07838","miles_from_dt":26.51},{"city":"Scranton","state_name":"Pennsylvania","lat":41.36996,"lng":-75.68022,"zip":"18502","miles_from_dt":26.57},{"city":"Scranton","state_name":"Pennsylvania","lat":41.37,"lng":-75.68003,"zip":"18501","miles_from_dt":26.57},{"city":"Weatherly","state_name":"Pennsylvania","lat":40.93308,"lng":-75.82996,"zip":"18255","miles_from_dt":26.61},{"city":"Easton","state_name":"Pennsylvania","lat":40.6919,"lng":-75.27494,"zip":"18045","miles_from_dt":26.63},{"city":"Pittston","state_name":"Pennsylvania","lat":41.33644,"lng":-75.73007,"zip":"18641","miles_from_dt":26.67},{"city":"Scranton","state_name":"Pennsylvania","lat":41.38874,"lng":-75.65109,"zip":"18505","miles_from_dt":26.68},{"city":"Oxford","state_name":"New Jersey","lat":40.81515,"lng":-74.96562,"zip":"07863","miles_from_dt":27.07},{"city":"Scranton","state_name":"Pennsylvania","lat":41.42109,"lng":-75.60282,"zip":"18577","miles_from_dt":27.26},{"city":"Phillipsburg","state_name":"New Jersey","lat":40.7094,"lng":-75.15109,"zip":"08865","miles_from_dt":27.28},{"city":"Layton","state_name":"New Jersey","lat":41.19883,"lng":-74.85923,"zip":"07851","miles_from_dt":27.31},{"city":"Scranton","state_name":"Pennsylvania","lat":41.42648,"lng":-75.5912,"zip":"18512","miles_from_dt":27.31},{"city":"Easton","state_name":"Pennsylvania","lat":40.69004,"lng":-75.22003,"zip":"18044","miles_from_dt":27.36},{"city":"Hawley","state_name":"Pennsylvania","lat":41.42946,"lng":-75.1253,"zip":"18428","miles_from_dt":27.36},{"city":"Easton","state_name":"Pennsylvania","lat":40.69,"lng":-75.22001,"zip":"18043","miles_from_dt":27.37},{"city":"Slatington","state_name":"Pennsylvania","lat":40.73618,"lng":-75.63227,"zip":"18080","miles_from_dt":27.39},{"city":"Swartswood","state_name":"New Jersey","lat":41.08723,"lng":-74.829,"zip":"07877","miles_from_dt":27.51},{"city":"Scranton","state_name":"Pennsylvania","lat":41.40735,"lng":-75.64376,"zip":"18510","miles_from_dt":27.53},{"city":"Slatedale","state_name":"Pennsylvania","lat":40.74415,"lng":-75.65754,"zip":"18079","miles_from_dt":27.66},{"city":"Bethlehem","state_name":"Pennsylvania","lat":40.67267,"lng":-75.32692,"zip":"18020","miles_from_dt":27.67},{"city":"Lehigh Valley","state_name":"Pennsylvania","lat":40.66966,"lng":-75.38022,"zip":"18002","miles_from_dt":27.86},{"city":"Freeland","state_name":"Pennsylvania","lat":41.02499,"lng":-75.88728,"zip":"18224","miles_from_dt":27.98},{"city":"Ashfield","state_name":"Pennsylvania","lat":40.77292,"lng":-75.71883,"zip":"18212","miles_from_dt":28.11},{"city":"Vienna","state_name":"New Jersey","lat":40.874,"lng":-74.88503,"zip":"07880","miles_from_dt":28.18},{"city":"Scranton","state_name":"Pennsylvania","lat":41.41007,"lng":-75.66767,"zip":"18503","miles_from_dt":28.38},{"city":"Newton","state_name":"New Jersey","lat":41.0595,"lng":-74.81159,"zip":"07860","miles_from_dt":28.42},{"city":"Bethlehem","state_name":"Pennsylvania","lat":40.66069,"lng":-75.38739,"zip":"18017","miles_from_dt":28.5},{"city":"Jessup","state_name":"Pennsylvania","lat":41.46014,"lng":-75.54823,"zip":"18434","miles_from_dt":28.54},{"city":"Washington","state_name":"New Jersey","lat":40.75327,"lng":-75.00748,"zip":"07882","miles_from_dt":28.61},{"city":"Olyphant","state_name":"Pennsylvania","lat":41.45199,"lng":-75.58021,"zip":"18448","miles_from_dt":28.65},{"city":"Greendell","state_name":"New Jersey","lat":40.97469,"lng":-74.82071,"zip":"07839","miles_from_dt":28.76},{"city":"Coplay","state_name":"Pennsylvania","lat":40.68203,"lng":-75.54638,"zip":"18037","miles_from_dt":28.77},{"city":"Wilkes Barre","state_name":"Pennsylvania","lat":41.27156,"lng":-75.84241,"zip":"18705","miles_from_dt":28.85},{"city":"Broadway","state_name":"New Jersey","lat":40.72559,"lng":-75.04837,"zip":"08808","miles_from_dt":28.87},{"city":"Scranton","state_name":"Pennsylvania","lat":41.43062,"lng":-75.64321,"zip":"18509","miles_from_dt":28.87},{"city":"Old Forge","state_name":"Pennsylvania","lat":41.37495,"lng":-75.73963,"zip":"18518","miles_from_dt":28.89},{"city":"Taylor","state_name":"Pennsylvania","lat":41.39524,"lng":-75.71461,"zip":"18517","miles_from_dt":29.06},{"city":"Neffs","state_name":"Pennsylvania","lat":40.69814,"lng":-75.61086,"zip":"18065","miles_from_dt":29.12},{"city":"Duryea","state_name":"Pennsylvania","lat":41.35359,"lng":-75.77681,"zip":"18642","miles_from_dt":29.27},{"city":"Stewartsville","state_name":"New Jersey","lat":40.69302,"lng":-75.10565,"zip":"08886","miles_from_dt":29.31},{"city":"Catasauqua","state_name":"Pennsylvania","lat":40.65694,"lng":-75.46776,"zip":"18032","miles_from_dt":29.31},{"city":"Nesquehoning","state_name":"Pennsylvania","lat":40.86279,"lng":-75.84727,"zip":"18240","miles_from_dt":29.53},{"city":"Wilkes Barre","state_name":"Pennsylvania","lat":41.25387,"lng":-75.87117,"zip":"18769","miles_from_dt":29.65},{"city":"Greeley","state_name":"Pennsylvania","lat":41.42263,"lng":-75.02206,"zip":"18425","miles_from_dt":29.73},{"city":"Tranquility","state_name":"New Jersey","lat":40.95713,"lng":-74.8072,"zip":"07879","miles_from_dt":29.75},{"city":"Wilkes Barre","state_name":"Pennsylvania","lat":41.24995,"lng":-75.87598,"zip":"18767","miles_from_dt":29.76},{"city":"Whitehall","state_name":"Pennsylvania","lat":40.65668,"lng":-75.50443,"zip":"18052","miles_from_dt":29.77},{"city":"Lehigh Valley","state_name":"Pennsylvania","lat":40.64472,"lng":-75.43468,"zip":"18003","miles_from_dt":29.84},{"city":"Drifton","state_name":"Pennsylvania","lat":41.00152,"lng":-75.919,"zip":"18221","miles_from_dt":29.85},{"city":"Mountain Top","state_name":"Pennsylvania","lat":41.13325,"lng":-75.9228,"zip":"18707","miles_from_dt":29.9},{"city":"South Canaan","state_name":"Pennsylvania","lat":41.50476,"lng":-75.41241,"zip":"18459","miles_from_dt":29.94},{"city":"Wilkes Barre","state_name":"Pennsylvania","lat":41.25003,"lng":-75.88002,"zip":"18710","miles_from_dt":29.96}],"targetCityZipCode":"18355","targetCityState":"Pennsylvania"},"__N_SSG":true}