{"pageProps":{"stateName":"West-virginia","cityName":"amherstdale","nearbyCities":[{"city":"Davin","state_name":"West Virginia","lat":37.74549,"lng":-81.80275,"zip":"25617","miles_from_dt":3.02},{"city":"Accoville","state_name":"West Virginia","lat":37.76641,"lng":-81.82878,"zip":"25606","miles_from_dt":3.33},{"city":"Blair","state_name":"West Virginia","lat":37.84157,"lng":-81.79241,"zip":"25022","miles_from_dt":4.32},{"city":"Mallory","state_name":"West Virginia","lat":37.73017,"lng":-81.82461,"zip":"25634","miles_from_dt":4.59},{"city":"Lorado","state_name":"West Virginia","lat":37.79821,"lng":-81.6816,"zip":"25630","miles_from_dt":5.02},{"city":"Kistler","state_name":"West Virginia","lat":37.7657,"lng":-81.86237,"zip":"25628","miles_from_dt":5.13},{"city":"Yolyn","state_name":"West Virginia","lat":37.80302,"lng":-81.87401,"zip":"25654","miles_from_dt":5.84},{"city":"Cyclone","state_name":"West Virginia","lat":37.75186,"lng":-81.65997,"zip":"24827","miles_from_dt":6.4},{"city":"Verner","state_name":"West Virginia","lat":37.68358,"lng":-81.78773,"zip":"25650","miles_from_dt":6.8},{"city":"Man","state_name":"West Virginia","lat":37.71937,"lng":-81.87261,"zip":"25635","miles_from_dt":7.02},{"city":"Stollings","state_name":"West Virginia","lat":37.83187,"lng":-81.89349,"zip":"25646","miles_from_dt":7.57},{"city":"Lynco","state_name":"West Virginia","lat":37.69591,"lng":-81.67557,"zip":"24857","miles_from_dt":7.86},{"city":"Coal Mountain","state_name":"West Virginia","lat":37.66761,"lng":-81.74105,"zip":"24823","miles_from_dt":8.01},{"city":"Wharton","state_name":"West Virginia","lat":37.84579,"lng":-81.64282,"zip":"25208","miles_from_dt":8.3},{"city":"Bruno","state_name":"West Virginia","lat":37.6832,"lng":-81.87068,"zip":"25611","miles_from_dt":8.7},{"city":"Sharples","state_name":"West Virginia","lat":37.9074,"lng":-81.79745,"zip":"25183","miles_from_dt":8.82},{"city":"Lyburn","state_name":"West Virginia","lat":37.76292,"lng":-81.9368,"zip":"25632","miles_from_dt":9.17},{"city":"Clothier","state_name":"West Virginia","lat":37.9219,"lng":-81.76027,"zip":"25047","miles_from_dt":9.72},{"city":"Bim","state_name":"West Virginia","lat":37.91587,"lng":-81.68482,"zip":"25021","miles_from_dt":10.41},{"city":"Simon","state_name":"West Virginia","lat":37.62771,"lng":-81.76623,"zip":"24882","miles_from_dt":10.59},{"city":"Lake","state_name":"West Virginia","lat":37.91167,"lng":-81.87787,"zip":"25121","miles_from_dt":10.73},{"city":"Kopperston","state_name":"West Virginia","lat":37.73997,"lng":-81.5789,"zip":"24854","miles_from_dt":10.89},{"city":"Ethel","state_name":"West Virginia","lat":37.86889,"lng":-81.937,"zip":"25076","miles_from_dt":10.92},{"city":"Clear Fork","state_name":"West Virginia","lat":37.62908,"lng":-81.68755,"zip":"24822","miles_from_dt":11.44},{"city":"Chauncey","state_name":"West Virginia","lat":37.76396,"lng":-81.98064,"zip":"25612","miles_from_dt":11.55},{"city":"Switzer","state_name":"West Virginia","lat":37.786,"lng":-81.98738,"zip":"25647","miles_from_dt":11.86},{"city":"Ottawa","state_name":"West Virginia","lat":37.9558,"lng":-81.7745,"zip":"25149","miles_from_dt":12.04},{"city":"Bob White","state_name":"West Virginia","lat":37.95598,"lng":-81.72535,"zip":"25028","miles_from_dt":12.3},{"city":"Gilbert","state_name":"West Virginia","lat":37.63149,"lng":-81.89643,"zip":"25621","miles_from_dt":12.41},{"city":"Peach Creek","state_name":"West Virginia","lat":37.88674,"lng":-81.95905,"zip":"25639","miles_from_dt":12.61},{"city":"Wilkinson","state_name":"West Virginia","lat":37.8287,"lng":-81.9944,"zip":"25653","miles_from_dt":12.67},{"city":"Twilight","state_name":"West Virginia","lat":37.91546,"lng":-81.60914,"zip":"25204","miles_from_dt":12.8},{"city":"Cora","state_name":"West Virginia","lat":37.85103,"lng":-81.98783,"zip":"25614","miles_from_dt":12.81},{"city":"Matheny","state_name":"West Virginia","lat":37.65919,"lng":-81.59075,"zip":"24860","miles_from_dt":12.97},{"city":"Van","state_name":"West Virginia","lat":37.9596,"lng":-81.69296,"zip":"25206","miles_from_dt":13.02},{"city":"Justice","state_name":"West Virginia","lat":37.59922,"lng":-81.83805,"zip":"24851","miles_from_dt":13.08},{"city":"Oceana","state_name":"West Virginia","lat":37.73784,"lng":-81.53203,"zip":"24870","miles_from_dt":13.41},{"city":"Hanover","state_name":"West Virginia","lat":37.58216,"lng":-81.76504,"zip":"24839","miles_from_dt":13.73},{"city":"Sarah Ann","state_name":"West Virginia","lat":37.70191,"lng":-82.00107,"zip":"25644","miles_from_dt":13.75},{"city":"Jesse","state_name":"West Virginia","lat":37.67435,"lng":-81.55848,"zip":"24849","miles_from_dt":13.77},{"city":"Henlawson","state_name":"West Virginia","lat":37.90393,"lng":-81.97162,"zip":"25624","miles_from_dt":13.86},{"city":"Logan","state_name":"West Virginia","lat":37.86255,"lng":-82.0026,"zip":"25601","miles_from_dt":13.87},{"city":"Hewett","state_name":"West Virginia","lat":37.9655,"lng":-81.87289,"zip":"25108","miles_from_dt":13.88},{"city":"Jeffrey","state_name":"West Virginia","lat":37.98199,"lng":-81.7986,"zip":"25114","miles_from_dt":13.93},{"city":"Pecks Mill","state_name":"West Virginia","lat":37.92627,"lng":-81.9537,"zip":"25547","miles_from_dt":14.14},{"city":"Brenton","state_name":"West Virginia","lat":37.60809,"lng":-81.62275,"zip":"24818","miles_from_dt":14.44},{"city":"Gordon","state_name":"West Virginia","lat":37.9653,"lng":-81.64137,"zip":"25093","miles_from_dt":14.53},{"city":"Mount Gay","state_name":"West Virginia","lat":37.85086,"lng":-82.02805,"zip":"25637","miles_from_dt":14.87},{"city":"Whitman","state_name":"West Virginia","lat":37.78702,"lng":-82.04865,"zip":"25652","miles_from_dt":15.21},{"city":"Glen Fork","state_name":"West Virginia","lat":37.70291,"lng":-81.51107,"zip":"25845","miles_from_dt":15.22},{"city":"North Spring","state_name":"West Virginia","lat":37.56133,"lng":-81.82315,"zip":"24869","miles_from_dt":15.44},{"city":"Marianna","state_name":"West Virginia","lat":37.61732,"lng":-81.57824,"zip":"24859","miles_from_dt":15.47},{"city":"Omar","state_name":"West Virginia","lat":37.74423,"lng":-82.05133,"zip":"25638","miles_from_dt":15.57},{"city":"Baisden","state_name":"West Virginia","lat":37.57512,"lng":-81.89165,"zip":"25608","miles_from_dt":15.68},{"city":"Rock View","state_name":"West Virginia","lat":37.64679,"lng":-81.53187,"zip":"24880","miles_from_dt":16.04},{"city":"Naoma","state_name":"West Virginia","lat":37.86738,"lng":-81.49733,"zip":"25140","miles_from_dt":16.1},{"city":"Uneeda","state_name":"West Virginia","lat":38.01841,"lng":-81.78926,"zip":"25205","miles_from_dt":16.39},{"city":"Sabine","state_name":"West Virginia","lat":37.67818,"lng":-81.49019,"zip":"25916","miles_from_dt":16.94},{"city":"Madison","state_name":"West Virginia","lat":38.02776,"lng":-81.7455,"zip":"25130","miles_from_dt":17.06},{"city":"Ravencliff","state_name":"West Virginia","lat":37.70781,"lng":-81.47301,"zip":"25913","miles_from_dt":17.08},{"city":"Wyoming","state_name":"West Virginia","lat":37.58752,"lng":-81.57504,"zip":"24898","miles_from_dt":17.14},{"city":"Fanrock","state_name":"West Virginia","lat":37.54313,"lng":-81.66093,"zip":"24834","miles_from_dt":17.49},{"city":"Turtle Creek","state_name":"West Virginia","lat":38.02125,"lng":-81.88162,"zip":"25203","miles_from_dt":17.63},{"city":"Ikes Fork","state_name":"West Virginia","lat":37.52643,"lng":-81.80041,"zip":"24845","miles_from_dt":17.65},{"city":"Holden","state_name":"West Virginia","lat":37.82237,"lng":-82.09206,"zip":"25625","miles_from_dt":17.81},{"city":"Wharncliffe","state_name":"West Virginia","lat":37.57142,"lng":-81.9662,"zip":"25651","miles_from_dt":18},{"city":"Pineville","state_name":"West Virginia","lat":37.60201,"lng":-81.53072,"zip":"24874","miles_from_dt":18.05},{"city":"Whitesville","state_name":"West Virginia","lat":37.96271,"lng":-81.52861,"zip":"25209","miles_from_dt":18.22},{"city":"Verdunville","state_name":"West Virginia","lat":37.87166,"lng":-82.08489,"zip":"25649","miles_from_dt":18.28},{"city":"Chapmanville","state_name":"West Virginia","lat":37.96388,"lng":-82.01394,"zip":"25508","miles_from_dt":18.31},{"city":"Varney","state_name":"West Virginia","lat":37.66116,"lng":-82.07154,"zip":"25696","miles_from_dt":18.44},{"city":"Saxon","state_name":"West Virginia","lat":37.78961,"lng":-81.43316,"zip":"25180","miles_from_dt":18.49},{"city":"McGraws","state_name":"West Virginia","lat":37.66907,"lng":-81.45956,"zip":"25875","miles_from_dt":18.72},{"city":"Isaban","state_name":"West Virginia","lat":37.52611,"lng":-81.89175,"zip":"24846","miles_from_dt":18.8},{"city":"Arnett","state_name":"West Virginia","lat":37.8252,"lng":-81.42766,"zip":"25007","miles_from_dt":19.02},{"city":"Dry Creek","state_name":"West Virginia","lat":37.87549,"lng":-81.44411,"zip":"25062","miles_from_dt":19.02},{"city":"Bolt","state_name":"West Virginia","lat":37.76393,"lng":-81.42191,"zip":"25817","miles_from_dt":19.14},{"city":"Glen Rogers","state_name":"West Virginia","lat":37.71427,"lng":-81.43117,"zip":"25848","miles_from_dt":19.16},{"city":"Danville","state_name":"West Virginia","lat":38.04725,"lng":-81.87633,"zip":"25053","miles_from_dt":19.23},{"city":"Seth","state_name":"West Virginia","lat":38.04962,"lng":-81.63476,"zip":"25181","miles_from_dt":19.95},{"city":"Red Jacket","state_name":"West Virginia","lat":37.61804,"lng":-82.07375,"zip":"25692","miles_from_dt":20.06},{"city":"Sylvester","state_name":"West Virginia","lat":38.01672,"lng":-81.55089,"zip":"25193","miles_from_dt":20.2},{"city":"Rock Creek","state_name":"West Virginia","lat":37.86115,"lng":-81.41376,"zip":"25174","miles_from_dt":20.3},{"city":"Saulsville","state_name":"West Virginia","lat":37.63677,"lng":-81.44731,"zip":"25876","miles_from_dt":20.33},{"city":"Iaeger","state_name":"West Virginia","lat":37.48554,"lng":-81.78703,"zip":"24844","miles_from_dt":20.41},{"city":"Davy","state_name":"West Virginia","lat":37.49975,"lng":-81.6553,"zip":"24828","miles_from_dt":20.42},{"city":"Foster","state_name":"West Virginia","lat":38.08235,"lng":-81.76875,"zip":"25081","miles_from_dt":20.77},{"city":"Hensley","state_name":"West Virginia","lat":37.48378,"lng":-81.70923,"zip":"24843","miles_from_dt":20.79},{"city":"Dorothy","state_name":"West Virginia","lat":37.97058,"lng":-81.47286,"zip":"25060","miles_from_dt":20.88},{"city":"Fairdale","state_name":"West Virginia","lat":37.78091,"lng":-81.38228,"zip":"25839","miles_from_dt":21.27},{"city":"New Richmond","state_name":"West Virginia","lat":37.60432,"lng":-81.45261,"zip":"24867","miles_from_dt":21.28},{"city":"Delbarton","state_name":"West Virginia","lat":37.7385,"lng":-82.15588,"zip":"25670","miles_from_dt":21.29},{"city":"Matewan","state_name":"West Virginia","lat":37.59564,"lng":-82.08187,"zip":"25678","miles_from_dt":21.32},{"city":"Colcord","state_name":"West Virginia","lat":37.95442,"lng":-81.44656,"zip":"25048","miles_from_dt":21.38},{"city":"Newtown","state_name":"West Virginia","lat":37.64902,"lng":-82.12839,"zip":"25686","miles_from_dt":21.61},{"city":"Orgas","state_name":"West Virginia","lat":38.03511,"lng":-81.53695,"zip":"25148","miles_from_dt":21.68},{"city":"Big Creek","state_name":"West Virginia","lat":38.01967,"lng":-82.03075,"zip":"25505","miles_from_dt":21.73},{"city":"Ragland","state_name":"West Virginia","lat":37.69124,"lng":-82.15505,"zip":"25690","miles_from_dt":21.94},{"city":"Glen Daniel","state_name":"West Virginia","lat":37.81056,"lng":-81.37022,"zip":"25844","miles_from_dt":22.02},{"city":"Big Sandy","state_name":"West Virginia","lat":37.46139,"lng":-81.70516,"zip":"24816","miles_from_dt":22.35},{"city":"Mohawk","state_name":"West Virginia","lat":37.47905,"lng":-81.9489,"zip":"24862","miles_from_dt":23.02},{"city":"Lester","state_name":"West Virginia","lat":37.73076,"lng":-81.35212,"zip":"25865","miles_from_dt":23.19},{"city":"Edgarton","state_name":"West Virginia","lat":37.57017,"lng":-82.10044,"zip":"25672","miles_from_dt":23.2},{"city":"North Matewan","state_name":"West Virginia","lat":37.63952,"lng":-82.15832,"zip":"25688","miles_from_dt":23.37},{"city":"Peytona","state_name":"West Virginia","lat":38.11572,"lng":-81.70249,"zip":"25154","miles_from_dt":23.37},{"city":"Maben","state_name":"West Virginia","lat":37.63931,"lng":-81.3813,"zip":"25870","miles_from_dt":23.48},{"city":"Roderfield","state_name":"West Virginia","lat":37.44435,"lng":-81.68785,"zip":"24881","miles_from_dt":23.68},{"city":"Mullens","state_name":"West Virginia","lat":37.60359,"lng":-81.39892,"zip":"25882","miles_from_dt":23.78},{"city":"Panther","state_name":"West Virginia","lat":37.44986,"lng":-81.8932,"zip":"24872","miles_from_dt":23.82},{"city":"Ridgeview","state_name":"West Virginia","lat":38.12788,"lng":-81.76288,"zip":"25169","miles_from_dt":23.91},{"city":"Itmann","state_name":"West Virginia","lat":37.57339,"lng":-81.41455,"zip":"24847","miles_from_dt":24.23},{"city":"Majestic","state_name":"Kentucky","lat":37.53821,"lng":-82.09437,"zip":"41547","miles_from_dt":24.41},{"city":"Welch","state_name":"West Virginia","lat":37.46841,"lng":-81.55544,"zip":"24801","miles_from_dt":24.6},{"city":"Slab Fork","state_name":"West Virginia","lat":37.68646,"lng":-81.33661,"zip":"25920","miles_from_dt":24.66},{"city":"Harts","state_name":"West Virginia","lat":38.01309,"lng":-82.11712,"zip":"25524","miles_from_dt":24.78},{"city":"Stopover","state_name":"Kentucky","lat":37.50369,"lng":-82.05896,"zip":"41568","miles_from_dt":24.82},{"city":"Spurlockville","state_name":"West Virginia","lat":38.10998,"lng":-81.96631,"zip":"25565","miles_from_dt":25.06},{"city":"Dingess","state_name":"West Virginia","lat":37.90411,"lng":-82.20283,"zip":"25671","miles_from_dt":25.1},{"city":"Eckman","state_name":"West Virginia","lat":37.44285,"lng":-81.59544,"zip":"24829","miles_from_dt":25.24},{"city":"Premier","state_name":"West Virginia","lat":37.4321,"lng":-81.63086,"zip":"24878","miles_from_dt":25.27},{"city":"Lenore","state_name":"West Virginia","lat":37.82509,"lng":-82.22972,"zip":"25676","miles_from_dt":25.29},{"city":"Artie","state_name":"West Virginia","lat":37.95044,"lng":-81.35766,"zip":"25008","miles_from_dt":25.43},{"city":"McCarr","state_name":"Kentucky","lat":37.59602,"lng":-82.17368,"zip":"41544","miles_from_dt":25.51},{"city":"Nellis","state_name":"West Virginia","lat":38.15001,"lng":-81.73066,"zip":"25142","miles_from_dt":25.53},{"city":"Freeburn","state_name":"Kentucky","lat":37.55458,"lng":-82.13984,"zip":"41528","miles_from_dt":25.57},{"city":"Surveyor","state_name":"West Virginia","lat":37.75623,"lng":-81.30282,"zip":"25932","miles_from_dt":25.68},{"city":"Avondale","state_name":"West Virginia","lat":37.40881,"lng":-81.75381,"zip":"24811","miles_from_dt":25.7},{"city":"Comfort","state_name":"West Virginia","lat":38.11954,"lng":-81.57315,"zip":"25049","miles_from_dt":25.71},{"city":"Julian","state_name":"West Virginia","lat":38.15573,"lng":-81.8245,"zip":"25529","miles_from_dt":25.99},{"city":"Racine","state_name":"West Virginia","lat":38.14907,"lng":-81.65308,"zip":"25165","miles_from_dt":26.17},{"city":"Clear Creek","state_name":"West Virginia","lat":37.91139,"lng":-81.32118,"zip":"25044","miles_from_dt":26.18},{"city":"Rawl","state_name":"West Virginia","lat":37.64753,"lng":-82.21831,"zip":"25691","miles_from_dt":26.19},{"city":"Costa","state_name":"West Virginia","lat":38.15885,"lng":-81.70929,"zip":"25051","miles_from_dt":26.26},{"city":"Wyco","state_name":"West Virginia","lat":37.59657,"lng":-81.34914,"zip":"25943","miles_from_dt":26.39},{"city":"Eskdale","state_name":"West Virginia","lat":38.0526,"lng":-81.42915,"zip":"25075","miles_from_dt":26.43},{"city":"Corinne","state_name":"West Virginia","lat":37.57291,"lng":-81.36565,"zip":"25826","miles_from_dt":26.45},{"city":"Allen Junction","state_name":"West Virginia","lat":37.58355,"lng":-81.34953,"zip":"25810","miles_from_dt":26.82},{"city":"Williamson","state_name":"West Virginia","lat":37.71062,"lng":-82.25377,"zip":"25661","miles_from_dt":26.89},{"city":"Eccles","state_name":"West Virginia","lat":37.78693,"lng":-81.27804,"zip":"25836","miles_from_dt":26.98},{"city":"Woodville","state_name":"West Virginia","lat":38.16074,"lng":-81.89338,"zip":"25572","miles_from_dt":27.02},{"city":"Bloomingrose","state_name":"West Virginia","lat":38.15744,"lng":-81.6266,"zip":"25024","miles_from_dt":27.11},{"city":"Glen White","state_name":"West Virginia","lat":37.73175,"lng":-81.27799,"zip":"25849","miles_from_dt":27.2},{"city":"Hurley","state_name":"Virginia","lat":37.43335,"lng":-82.01932,"zip":"24620","miles_from_dt":27.6},{"city":"Beckley","state_name":"West Virginia","lat":37.83805,"lng":-81.27017,"zip":"25801","miles_from_dt":27.67},{"city":"Bud","state_name":"West Virginia","lat":37.53331,"lng":-81.37337,"zip":"24716","miles_from_dt":27.7},{"city":"Harper","state_name":"West Virginia","lat":37.80177,"lng":-81.26154,"zip":"25851","miles_from_dt":27.91},{"city":"Kimball","state_name":"West Virginia","lat":37.42924,"lng":-81.51686,"zip":"24853","miles_from_dt":27.99},{"city":"Chattaroy","state_name":"West Virginia","lat":37.70619,"lng":-82.2738,"zip":"25667","miles_from_dt":28.03},{"city":"Alkol","state_name":"West Virginia","lat":38.16035,"lng":-81.95582,"zip":"25501","miles_from_dt":28.03},{"city":"Amigo","state_name":"West Virginia","lat":37.60835,"lng":-81.3065,"zip":"25811","miles_from_dt":28.1},{"city":"Stephenson","state_name":"West Virginia","lat":37.55481,"lng":-81.34126,"zip":"25928","miles_from_dt":28.26},{"city":"Herndon","state_name":"West Virginia","lat":37.52084,"lng":-81.37229,"zip":"24726","miles_from_dt":28.29},{"city":"Hardy","state_name":"Kentucky","lat":37.59509,"lng":-82.23131,"zip":"41531","miles_from_dt":28.32},{"city":"Crab Orchard","state_name":"West Virginia","lat":37.73869,"lng":-81.25368,"zip":"25827","miles_from_dt":28.47},{"city":"Jolo","state_name":"West Virginia","lat":37.37807,"lng":-81.88516,"zip":"24850","miles_from_dt":28.5},{"city":"Ashford","state_name":"West Virginia","lat":38.19237,"lng":-81.71301,"zip":"25009","miles_from_dt":28.53},{"city":"Helen","state_name":"West Virginia","lat":37.64616,"lng":-81.27827,"zip":"25853","miles_from_dt":28.55},{"city":"Sophia","state_name":"West Virginia","lat":37.69181,"lng":-81.25882,"zip":"25921","miles_from_dt":28.71},{"city":"Rhodell","state_name":"West Virginia","lat":37.61575,"lng":-81.28691,"zip":"25915","miles_from_dt":28.87},{"city":"Miami","state_name":"West Virginia","lat":38.13596,"lng":-81.48553,"zip":"25134","miles_from_dt":29},{"city":"Bartley","state_name":"West Virginia","lat":37.35954,"lng":-81.72489,"zip":"24813","miles_from_dt":29.19},{"city":"Ransom","state_name":"Kentucky","lat":37.53953,"lng":-82.20819,"zip":"41558","miles_from_dt":29.21},{"city":"Dawes","state_name":"West Virginia","lat":38.12226,"lng":-81.45044,"zip":"25054","miles_from_dt":29.31},{"city":"South Williamson","state_name":"Kentucky","lat":37.66079,"lng":-82.28446,"zip":"41503","miles_from_dt":29.34},{"city":"Cabin Creek","state_name":"West Virginia","lat":38.16339,"lng":-81.52399,"zip":"25035","miles_from_dt":29.6},{"city":"Borderland","state_name":"West Virginia","lat":37.71382,"lng":-82.30604,"zip":"25665","miles_from_dt":29.68},{"city":"Wilcoe","state_name":"West Virginia","lat":37.37718,"lng":-81.58208,"zip":"24895","miles_from_dt":29.73},{"city":"Naugatuck","state_name":"West Virginia","lat":37.79592,"lng":-82.31426,"zip":"25685","miles_from_dt":29.76},{"city":"Phelps","state_name":"Kentucky","lat":37.48057,"lng":-82.16025,"zip":"41553","miles_from_dt":29.77},{"city":"Pax","state_name":"West Virginia","lat":37.9128,"lng":-81.25213,"zip":"25904","miles_from_dt":29.78},{"city":"Paynesville","state_name":"West Virginia","lat":37.35734,"lng":-81.87415,"zip":"24873","miles_from_dt":29.78},{"city":"Gallagher","state_name":"West Virginia","lat":38.06809,"lng":-81.36118,"zip":"25083","miles_from_dt":29.87},{"city":"Princewick","state_name":"West Virginia","lat":37.66782,"lng":-81.24434,"zip":"25908","miles_from_dt":29.88}],"targetCityZipCode":"25607","targetCityState":"West Virginia"},"__N_SSG":true}