{"pageProps":{"stateName":"West-virginia","cityName":"arbovale","nearbyCities":[{"city":"Green Bank","state_name":"West Virginia","lat":38.39926,"lng":-79.77108,"zip":"24944","miles_from_dt":4.9},{"city":"Durbin","state_name":"West Virginia","lat":38.58923,"lng":-79.82277,"zip":"26264","miles_from_dt":8.5},{"city":"Bartow","state_name":"West Virginia","lat":38.58918,"lng":-79.71723,"zip":"24920","miles_from_dt":9.08},{"city":"Monterey","state_name":"Virginia","lat":38.39611,"lng":-79.64636,"zip":"24465","miles_from_dt":9.13},{"city":"Cass","state_name":"West Virginia","lat":38.38999,"lng":-79.965,"zip":"24927","miles_from_dt":11.11},{"city":"Dunmore","state_name":"West Virginia","lat":38.32836,"lng":-79.89267,"zip":"24934","miles_from_dt":11.3},{"city":"Blue Grass","state_name":"Virginia","lat":38.50753,"lng":-79.55925,"zip":"24413","miles_from_dt":12.61},{"city":"Valley Head","state_name":"West Virginia","lat":38.53443,"lng":-80.02309,"zip":"26294","miles_from_dt":13.58},{"city":"Huttonsville","state_name":"West Virginia","lat":38.62993,"lng":-79.963,"zip":"26273","miles_from_dt":14.63},{"city":"Snowshoe","state_name":"West Virginia","lat":38.39401,"lng":-80.04434,"zip":"26209","miles_from_dt":14.91},{"city":"Slatyfork","state_name":"West Virginia","lat":38.44109,"lng":-80.08637,"zip":"26291","miles_from_dt":16.37},{"city":"Glady","state_name":"West Virginia","lat":38.71457,"lng":-79.82276,"zip":"26268","miles_from_dt":17.03},{"city":"Circleville","state_name":"West Virginia","lat":38.63306,"lng":-79.54526,"zip":"26804","miles_from_dt":17.28},{"city":"McDowell","state_name":"Virginia","lat":38.33066,"lng":-79.51201,"zip":"24458","miles_from_dt":17.71},{"city":"Doe Hill","state_name":"Virginia","lat":38.41817,"lng":-79.46461,"zip":"24433","miles_from_dt":17.82},{"city":"Monterville","state_name":"West Virginia","lat":38.52022,"lng":-80.14619,"zip":"26282","miles_from_dt":19.8},{"city":"Williamsville","state_name":"Virginia","lat":38.20099,"lng":-79.58105,"zip":"24487","miles_from_dt":21.62},{"city":"Mill Creek","state_name":"West Virginia","lat":38.71738,"lng":-80.03775,"zip":"26280","miles_from_dt":21.85},{"city":"Warm Springs","state_name":"Virginia","lat":38.1448,"lng":-79.82013,"zip":"24484","miles_from_dt":22.46},{"city":"Marlinton","state_name":"West Virginia","lat":38.22932,"lng":-80.07436,"zip":"24954","miles_from_dt":22.76},{"city":"Head Waters","state_name":"Virginia","lat":38.35971,"lng":-79.39028,"zip":"24442","miles_from_dt":22.8},{"city":"Whitmer","state_name":"West Virginia","lat":38.75425,"lng":-79.56369,"zip":"26296","miles_from_dt":23.06},{"city":"Valley Bend","state_name":"West Virginia","lat":38.7824,"lng":-79.9365,"zip":"26293","miles_from_dt":23.07},{"city":"Sugar Grove","state_name":"West Virginia","lat":38.48923,"lng":-79.35884,"zip":"26815","miles_from_dt":23.24},{"city":"Beverly","state_name":"West Virginia","lat":38.80772,"lng":-79.85654,"zip":"26253","miles_from_dt":23.65},{"city":"Pickens","state_name":"West Virginia","lat":38.6437,"lng":-80.18881,"zip":"26230","miles_from_dt":24.88},{"city":"Franklin","state_name":"West Virginia","lat":38.62895,"lng":-79.36157,"zip":"26807","miles_from_dt":25.52},{"city":"Dailey","state_name":"West Virginia","lat":38.82536,"lng":-79.91528,"zip":"26259","miles_from_dt":25.53},{"city":"Harman","state_name":"West Virginia","lat":38.81229,"lng":-79.60034,"zip":"26270","miles_from_dt":25.72},{"city":"Bergoo","state_name":"West Virginia","lat":38.45054,"lng":-80.26552,"zip":"26298","miles_from_dt":26},{"city":"Riverton","state_name":"West Virginia","lat":38.75176,"lng":-79.46648,"zip":"26814","miles_from_dt":26.08},{"city":"Buckeye","state_name":"West Virginia","lat":38.19294,"lng":-80.15174,"zip":"24924","miles_from_dt":27.51},{"city":"Deerfield","state_name":"Virginia","lat":38.17639,"lng":-79.43845,"zip":"24432","miles_from_dt":27.68},{"city":"Mabie","state_name":"West Virginia","lat":38.82572,"lng":-80.02547,"zip":"26278","miles_from_dt":27.77},{"city":"West Augusta","state_name":"Virginia","lat":38.27521,"lng":-79.33165,"zip":"24485","miles_from_dt":28.1},{"city":"Helvetia","state_name":"West Virginia","lat":38.74485,"lng":-80.17474,"zip":"26224","miles_from_dt":28.33},{"city":"Bacova","state_name":"Virginia","lat":38.05774,"lng":-79.83096,"zip":"24412","miles_from_dt":28.49},{"city":"Selbyville","state_name":"West Virginia","lat":38.71755,"lng":-80.23088,"zip":"26236","miles_from_dt":29.52}],"targetCityZipCode":"24915","targetCityState":"West Virginia"},"__N_SSG":true}