{"pageProps":{"stateName":"West-virginia","cityName":"clear-creek","nearbyCities":[{"city":"Artie","state_name":"West Virginia","lat":37.95044,"lng":-81.35766,"zip":"25008","miles_from_dt":3.35},{"city":"Pax","state_name":"West Virginia","lat":37.9128,"lng":-81.25213,"zip":"25904","miles_from_dt":3.77},{"city":"Beckley","state_name":"West Virginia","lat":37.83805,"lng":-81.27017,"zip":"25801","miles_from_dt":5.78},{"city":"Scarbro","state_name":"West Virginia","lat":37.97944,"lng":-81.25021,"zip":"25917","miles_from_dt":6.09},{"city":"Rock Creek","state_name":"West Virginia","lat":37.86115,"lng":-81.41376,"zip":"25174","miles_from_dt":6.13},{"city":"Mount Hope","state_name":"West Virginia","lat":37.87672,"lng":-81.20095,"zip":"25880","miles_from_dt":6.99},{"city":"Dry Creek","state_name":"West Virginia","lat":37.87549,"lng":-81.44411,"zip":"25062","miles_from_dt":7.16},{"city":"Mount Hope","state_name":"West Virginia","lat":37.90059,"lng":-81.18946,"zip":"25888","miles_from_dt":7.24},{"city":"Glen Daniel","state_name":"West Virginia","lat":37.81056,"lng":-81.37022,"zip":"25844","miles_from_dt":7.45},{"city":"Colcord","state_name":"West Virginia","lat":37.95442,"lng":-81.44656,"zip":"25048","miles_from_dt":7.46},{"city":"Bradley","state_name":"West Virginia","lat":37.8608,"lng":-81.19252,"zip":"25818","miles_from_dt":7.85},{"city":"Dothan","state_name":"West Virginia","lat":37.98955,"lng":-81.21248,"zip":"25833","miles_from_dt":8.02},{"city":"Harper","state_name":"West Virginia","lat":37.80177,"lng":-81.26154,"zip":"25851","miles_from_dt":8.23},{"city":"Prosperity","state_name":"West Virginia","lat":37.83687,"lng":-81.20192,"zip":"25909","miles_from_dt":8.3},{"city":"Arnett","state_name":"West Virginia","lat":37.8252,"lng":-81.42766,"zip":"25007","miles_from_dt":8.32},{"city":"Glen Jean","state_name":"West Virginia","lat":37.92476,"lng":-81.16628,"zip":"25846","miles_from_dt":8.51},{"city":"Kincaid","state_name":"West Virginia","lat":38.03362,"lng":-81.27494,"zip":"25119","miles_from_dt":8.8},{"city":"Eccles","state_name":"West Virginia","lat":37.78693,"lng":-81.27804,"zip":"25836","miles_from_dt":8.9},{"city":"Dorothy","state_name":"West Virginia","lat":37.97058,"lng":-81.47286,"zip":"25060","miles_from_dt":9.24},{"city":"Hilltop","state_name":"West Virginia","lat":37.94052,"lng":-81.15296,"zip":"25855","miles_from_dt":9.41},{"city":"Fairdale","state_name":"West Virginia","lat":37.78091,"lng":-81.38228,"zip":"25839","miles_from_dt":9.6},{"city":"Beckley","state_name":"West Virginia","lat":37.79333,"lng":-81.21961,"zip":"25802","miles_from_dt":9.86},{"city":"Page","state_name":"West Virginia","lat":38.0411,"lng":-81.24004,"zip":"25152","miles_from_dt":9.98},{"city":"Naoma","state_name":"West Virginia","lat":37.86738,"lng":-81.49733,"zip":"25140","miles_from_dt":10.1},{"city":"Powellton","state_name":"West Virginia","lat":38.06123,"lng":-81.3189,"zip":"25161","miles_from_dt":10.34},{"city":"Saxon","state_name":"West Virginia","lat":37.78961,"lng":-81.43316,"zip":"25180","miles_from_dt":10.39},{"city":"Surveyor","state_name":"West Virginia","lat":37.75623,"lng":-81.30282,"zip":"25932","miles_from_dt":10.75},{"city":"Stanaford","state_name":"West Virginia","lat":37.81734,"lng":-81.16138,"zip":"25927","miles_from_dt":10.88},{"city":"Skelton","state_name":"West Virginia","lat":37.79607,"lng":-81.18216,"zip":"25919","miles_from_dt":11},{"city":"Gallagher","state_name":"West Virginia","lat":38.06809,"lng":-81.36118,"zip":"25083","miles_from_dt":11.03},{"city":"Lanark","state_name":"West Virginia","lat":37.82703,"lng":-81.14653,"zip":"25860","miles_from_dt":11.18},{"city":"Lochgelly","state_name":"West Virginia","lat":38.00883,"lng":-81.15738,"zip":"25866","miles_from_dt":11.19},{"city":"Eskdale","state_name":"West Virginia","lat":38.0526,"lng":-81.42915,"zip":"25075","miles_from_dt":11.38},{"city":"Mabscott","state_name":"West Virginia","lat":37.76917,"lng":-81.21165,"zip":"25871","miles_from_dt":11.49},{"city":"Oak Hill","state_name":"West Virginia","lat":37.93575,"lng":-81.11242,"zip":"25901","miles_from_dt":11.53},{"city":"Bolt","state_name":"West Virginia","lat":37.76393,"lng":-81.42191,"zip":"25817","miles_from_dt":11.57},{"city":"Whitesville","state_name":"West Virginia","lat":37.96271,"lng":-81.52861,"zip":"25209","miles_from_dt":11.87},{"city":"Piney View","state_name":"West Virginia","lat":37.83176,"lng":-81.12194,"zip":"25906","miles_from_dt":12.2},{"city":"MacArthur","state_name":"West Virginia","lat":37.75136,"lng":-81.21515,"zip":"25873","miles_from_dt":12.47},{"city":"Crab Orchard","state_name":"West Virginia","lat":37.73869,"lng":-81.25368,"zip":"25827","miles_from_dt":12.47},{"city":"Lester","state_name":"West Virginia","lat":37.73076,"lng":-81.35212,"zip":"25865","miles_from_dt":12.57},{"city":"Robson","state_name":"West Virginia","lat":38.07519,"lng":-81.21898,"zip":"25173","miles_from_dt":12.6},{"city":"Glen White","state_name":"West Virginia","lat":37.73175,"lng":-81.27799,"zip":"25849","miles_from_dt":12.61},{"city":"Minden","state_name":"West Virginia","lat":37.98048,"lng":-81.10453,"zip":"25879","miles_from_dt":12.76},{"city":"Raleigh","state_name":"West Virginia","lat":37.75232,"lng":-81.17848,"zip":"25911","miles_from_dt":13.46},{"city":"Mount Carbon","state_name":"West Virginia","lat":38.11038,"lng":-81.2874,"zip":"25139","miles_from_dt":13.85},{"city":"Prince","state_name":"West Virginia","lat":37.8593,"lng":-81.07196,"zip":"25907","miles_from_dt":14.09},{"city":"Deep Water","state_name":"West Virginia","lat":38.1078,"lng":-81.23783,"zip":"25057","miles_from_dt":14.29},{"city":"Kimberly","state_name":"West Virginia","lat":38.11882,"lng":-81.32294,"zip":"25118","miles_from_dt":14.31},{"city":"Fayetteville","state_name":"West Virginia","lat":38.04001,"lng":-81.11442,"zip":"25840","miles_from_dt":14.36},{"city":"Sylvester","state_name":"West Virginia","lat":38.01672,"lng":-81.55089,"zip":"25193","miles_from_dt":14.49},{"city":"Orgas","state_name":"West Virginia","lat":38.03511,"lng":-81.53695,"zip":"25148","miles_from_dt":14.55},{"city":"Midway","state_name":"West Virginia","lat":37.71303,"lng":-81.22464,"zip":"25878","miles_from_dt":14.66},{"city":"Glen Rogers","state_name":"West Virginia","lat":37.71427,"lng":-81.43117,"zip":"25848","miles_from_dt":14.87},{"city":"Beaver","state_name":"West Virginia","lat":37.78309,"lng":-81.10001,"zip":"25813","miles_from_dt":14.99},{"city":"Sophia","state_name":"West Virginia","lat":37.69181,"lng":-81.25882,"zip":"25921","miles_from_dt":15.52},{"city":"Slab Fork","state_name":"West Virginia","lat":37.68646,"lng":-81.33661,"zip":"25920","miles_from_dt":15.54},{"city":"Alloy","state_name":"West Virginia","lat":38.13087,"lng":-81.25466,"zip":"25002","miles_from_dt":15.57},{"city":"Twilight","state_name":"West Virginia","lat":37.91546,"lng":-81.60914,"zip":"25204","miles_from_dt":15.74},{"city":"Thurmond","state_name":"West Virginia","lat":37.92917,"lng":-81.03105,"zip":"25936","miles_from_dt":15.9},{"city":"Charlton Heights","state_name":"West Virginia","lat":38.13673,"lng":-81.24385,"zip":"25040","miles_from_dt":16.1},{"city":"Dawes","state_name":"West Virginia","lat":38.12226,"lng":-81.45044,"zip":"25054","miles_from_dt":16.16},{"city":"Ravencliff","state_name":"West Virginia","lat":37.70781,"lng":-81.47301,"zip":"25913","miles_from_dt":16.31},{"city":"Boomer","state_name":"West Virginia","lat":38.14615,"lng":-81.2801,"zip":"25031","miles_from_dt":16.35},{"city":"Oceana","state_name":"West Virginia","lat":37.73784,"lng":-81.53203,"zip":"24870","miles_from_dt":16.62},{"city":"Layland","state_name":"West Virginia","lat":37.87948,"lng":-81.01781,"zip":"25864","miles_from_dt":16.73},{"city":"Kanawha Falls","state_name":"West Virginia","lat":38.13065,"lng":-81.18997,"zip":"25115","miles_from_dt":16.73},{"city":"Montgomery","state_name":"West Virginia","lat":38.15864,"lng":-81.31977,"zip":"25136","miles_from_dt":17.05},{"city":"Princewick","state_name":"West Virginia","lat":37.66782,"lng":-81.24434,"zip":"25908","miles_from_dt":17.32},{"city":"Daniels","state_name":"West Virginia","lat":37.72637,"lng":-81.10494,"zip":"25832","miles_from_dt":17.4},{"city":"Handley","state_name":"West Virginia","lat":38.16735,"lng":-81.35192,"zip":"25102","miles_from_dt":17.73},{"city":"Glen Fork","state_name":"West Virginia","lat":37.70291,"lng":-81.51107,"zip":"25845","miles_from_dt":17.74},{"city":"Glen Ferris","state_name":"West Virginia","lat":38.15544,"lng":-81.21655,"zip":"25090","miles_from_dt":17.77},{"city":"Gordon","state_name":"West Virginia","lat":37.9653,"lng":-81.64137,"zip":"25093","miles_from_dt":17.88},{"city":"Miami","state_name":"West Virginia","lat":38.13596,"lng":-81.48553,"zip":"25134","miles_from_dt":17.9},{"city":"Smithers","state_name":"West Virginia","lat":38.17113,"lng":-81.29811,"zip":"25186","miles_from_dt":17.96},{"city":"Wharton","state_name":"West Virginia","lat":37.84579,"lng":-81.64282,"zip":"25208","miles_from_dt":18.16},{"city":"McGraws","state_name":"West Virginia","lat":37.66907,"lng":-81.45956,"zip":"25875","miles_from_dt":18.35},{"city":"Kopperston","state_name":"West Virginia","lat":37.73997,"lng":-81.5789,"zip":"24854","miles_from_dt":18.4},{"city":"Helen","state_name":"West Virginia","lat":37.64616,"lng":-81.27827,"zip":"25853","miles_from_dt":18.44},{"city":"Coal City","state_name":"West Virginia","lat":37.66626,"lng":-81.18231,"zip":"25823","miles_from_dt":18.54},{"city":"Sabine","state_name":"West Virginia","lat":37.67818,"lng":-81.49019,"zip":"25916","miles_from_dt":18.55},{"city":"Edmond","state_name":"West Virginia","lat":38.06041,"lng":-81.0383,"zip":"25837","miles_from_dt":18.55},{"city":"Lansing","state_name":"West Virginia","lat":38.08448,"lng":-81.05192,"zip":"25862","miles_from_dt":18.93},{"city":"Hansford","state_name":"West Virginia","lat":38.18207,"lng":-81.38225,"zip":"25103","miles_from_dt":18.96},{"city":"Maben","state_name":"West Virginia","lat":37.63931,"lng":-81.3813,"zip":"25870","miles_from_dt":19.05},{"city":"Gauley Bridge","state_name":"West Virginia","lat":38.16762,"lng":-81.18867,"zip":"25085","miles_from_dt":19.09},{"city":"Drybranch","state_name":"West Virginia","lat":38.1751,"lng":-81.43342,"zip":"25061","miles_from_dt":19.19},{"city":"London","state_name":"West Virginia","lat":38.19058,"lng":-81.35382,"zip":"25126","miles_from_dt":19.34},{"city":"Ansted","state_name":"West Virginia","lat":38.14048,"lng":-81.11512,"zip":"25812","miles_from_dt":19.39},{"city":"Cannelton","state_name":"West Virginia","lat":38.19168,"lng":-81.26438,"zip":"25036","miles_from_dt":19.58},{"city":"Seth","state_name":"West Virginia","lat":38.04962,"lng":-81.63476,"zip":"25181","miles_from_dt":19.59},{"city":"Winona","state_name":"West Virginia","lat":38.02691,"lng":-80.98836,"zip":"25942","miles_from_dt":19.84},{"city":"Bim","state_name":"West Virginia","lat":37.91587,"lng":-81.68482,"zip":"25021","miles_from_dt":19.87},{"city":"Comfort","state_name":"West Virginia","lat":38.11954,"lng":-81.57315,"zip":"25049","miles_from_dt":19.88},{"city":"Saulsville","state_name":"West Virginia","lat":37.63677,"lng":-81.44731,"zip":"25876","miles_from_dt":20.16},{"city":"Rhodell","state_name":"West Virginia","lat":37.61575,"lng":-81.28691,"zip":"25915","miles_from_dt":20.48},{"city":"Shady Spring","state_name":"West Virginia","lat":37.74575,"lng":-81.00993,"zip":"25918","miles_from_dt":20.5},{"city":"Van","state_name":"West Virginia","lat":37.9596,"lng":-81.69296,"zip":"25206","miles_from_dt":20.58},{"city":"Cabin Creek","state_name":"West Virginia","lat":38.16339,"lng":-81.52399,"zip":"25035","miles_from_dt":20.6},{"city":"Pratt","state_name":"West Virginia","lat":38.20712,"lng":-81.38435,"zip":"25162","miles_from_dt":20.69},{"city":"Hugheston","state_name":"West Virginia","lat":38.21324,"lng":-81.3264,"zip":"25110","miles_from_dt":20.82},{"city":"Jesse","state_name":"West Virginia","lat":37.67435,"lng":-81.55848,"zip":"24849","miles_from_dt":20.88},{"city":"Amigo","state_name":"West Virginia","lat":37.60835,"lng":-81.3065,"zip":"25811","miles_from_dt":20.92},{"city":"Danese","state_name":"West Virginia","lat":37.95645,"lng":-80.94037,"zip":"25831","miles_from_dt":21.03},{"city":"Josephine","state_name":"West Virginia","lat":37.61443,"lng":-81.23288,"zip":"25857","miles_from_dt":21.04},{"city":"Lorado","state_name":"West Virginia","lat":37.79821,"lng":-81.6816,"zip":"25630","miles_from_dt":21.2},{"city":"Glasgow","state_name":"West Virginia","lat":38.21326,"lng":-81.41238,"zip":"25086","miles_from_dt":21.41},{"city":"Cyclone","state_name":"West Virginia","lat":37.75186,"lng":-81.65997,"zip":"24827","miles_from_dt":21.55},{"city":"East Bank","state_name":"West Virginia","lat":38.20963,"lng":-81.44018,"zip":"25067","miles_from_dt":21.57},{"city":"Rock View","state_name":"West Virginia","lat":37.64679,"lng":-81.53187,"zip":"24880","miles_from_dt":21.59},{"city":"Mullens","state_name":"West Virginia","lat":37.60359,"lng":-81.39892,"zip":"25882","miles_from_dt":21.65},{"city":"Wyco","state_name":"West Virginia","lat":37.59657,"lng":-81.34914,"zip":"25943","miles_from_dt":21.77},{"city":"Mount Olive","state_name":"West Virginia","lat":38.22149,"lng":-81.23587,"zip":"25185","miles_from_dt":21.89},{"city":"White Oak","state_name":"West Virginia","lat":37.67864,"lng":-81.04594,"zip":"25989","miles_from_dt":22.01},{"city":"Cool Ridge","state_name":"West Virginia","lat":37.64736,"lng":-81.08862,"zip":"25825","miles_from_dt":22.22},{"city":"Bob White","state_name":"West Virginia","lat":37.95598,"lng":-81.72535,"zip":"25028","miles_from_dt":22.29},{"city":"Ghent","state_name":"West Virginia","lat":37.62129,"lng":-81.14129,"zip":"25843","miles_from_dt":22.3},{"city":"New Richmond","state_name":"West Virginia","lat":37.60432,"lng":-81.45261,"zip":"24867","miles_from_dt":22.37},{"city":"Lookout","state_name":"West Virginia","lat":38.07172,"lng":-80.96461,"zip":"25868","miles_from_dt":22.38},{"city":"Allen Junction","state_name":"West Virginia","lat":37.58355,"lng":-81.34953,"zip":"25810","miles_from_dt":22.66},{"city":"Matheny","state_name":"West Virginia","lat":37.65919,"lng":-81.59075,"zip":"24860","miles_from_dt":22.81},{"city":"Winifrede","state_name":"West Virginia","lat":38.18947,"lng":-81.55127,"zip":"25214","miles_from_dt":22.92},{"city":"Victor","state_name":"West Virginia","lat":38.15993,"lng":-81.03447,"zip":"25938","miles_from_dt":23.2},{"city":"Cedar Grove","state_name":"West Virginia","lat":38.24642,"lng":-81.36524,"zip":"25039","miles_from_dt":23.23},{"city":"Corinne","state_name":"West Virginia","lat":37.57291,"lng":-81.36565,"zip":"25826","miles_from_dt":23.47},{"city":"Bloomingrose","state_name":"West Virginia","lat":38.15744,"lng":-81.6266,"zip":"25024","miles_from_dt":23.78},{"city":"Swiss","state_name":"West Virginia","lat":38.21757,"lng":-81.12069,"zip":"26690","miles_from_dt":23.78},{"city":"Meadow Creek","state_name":"West Virginia","lat":37.80819,"lng":-80.90571,"zip":"25977","miles_from_dt":23.81},{"city":"Itmann","state_name":"West Virginia","lat":37.57339,"lng":-81.41455,"zip":"24847","miles_from_dt":23.87},{"city":"Hico","state_name":"West Virginia","lat":38.12629,"lng":-80.97537,"zip":"25854","miles_from_dt":23.99},{"city":"Clothier","state_name":"West Virginia","lat":37.9219,"lng":-81.76027,"zip":"25047","miles_from_dt":24},{"city":"Belva","state_name":"West Virginia","lat":38.24358,"lng":-81.18082,"zip":"26656","miles_from_dt":24.16},{"city":"Pineville","state_name":"West Virginia","lat":37.60201,"lng":-81.53072,"zip":"24874","miles_from_dt":24.23},{"city":"Dixie","state_name":"West Virginia","lat":38.25422,"lng":-81.2153,"zip":"25059","miles_from_dt":24.34},{"city":"Racine","state_name":"West Virginia","lat":38.14907,"lng":-81.65308,"zip":"25165","miles_from_dt":24.42},{"city":"Lynco","state_name":"West Virginia","lat":37.69591,"lng":-81.67557,"zip":"24857","miles_from_dt":24.43},{"city":"Madison","state_name":"West Virginia","lat":38.02776,"lng":-81.7455,"zip":"25130","miles_from_dt":24.52},{"city":"Stephenson","state_name":"West Virginia","lat":37.55481,"lng":-81.34126,"zip":"25928","miles_from_dt":24.62},{"city":"Marianna","state_name":"West Virginia","lat":37.61732,"lng":-81.57824,"zip":"24859","miles_from_dt":24.69},{"city":"Belle","state_name":"West Virginia","lat":38.24293,"lng":-81.49226,"zip":"25015","miles_from_dt":24.7},{"city":"Odd","state_name":"West Virginia","lat":37.56301,"lng":-81.21115,"zip":"25902","miles_from_dt":24.77},{"city":"Ottawa","state_name":"West Virginia","lat":37.9558,"lng":-81.7745,"zip":"25149","miles_from_dt":24.95},{"city":"Charleston","state_name":"West Virginia","lat":38.21032,"lng":-81.57992,"zip":"25315","miles_from_dt":24.98},{"city":"Peytona","state_name":"West Virginia","lat":38.11572,"lng":-81.70249,"zip":"25154","miles_from_dt":25.13},{"city":"Meadow Bridge","state_name":"West Virginia","lat":37.84372,"lng":-80.86221,"zip":"25976","miles_from_dt":25.52},{"city":"Sharples","state_name":"West Virginia","lat":37.9074,"lng":-81.79745,"zip":"25183","miles_from_dt":26.03},{"city":"Amherstdale","state_name":"West Virginia","lat":37.78125,"lng":-81.77081,"zip":"25607","miles_from_dt":26.18},{"city":"Charleston","state_name":"West Virginia","lat":38.23427,"lng":-81.57375,"zip":"25365","miles_from_dt":26.18},{"city":"Blair","state_name":"West Virginia","lat":37.84157,"lng":-81.79241,"zip":"25022","miles_from_dt":26.21},{"city":"Bud","state_name":"West Virginia","lat":37.53331,"lng":-81.37337,"zip":"24716","miles_from_dt":26.23},{"city":"Wyoming","state_name":"West Virginia","lat":37.58752,"lng":-81.57504,"zip":"24898","miles_from_dt":26.31},{"city":"Mammoth","state_name":"West Virginia","lat":38.29328,"lng":-81.33441,"zip":"25132","miles_from_dt":26.35},{"city":"Jeffrey","state_name":"West Virginia","lat":37.98199,"lng":-81.7986,"zip":"25114","miles_from_dt":26.53},{"city":"Jumping Branch","state_name":"West Virginia","lat":37.61657,"lng":-81.00903,"zip":"25969","miles_from_dt":26.56},{"city":"Uneeda","state_name":"West Virginia","lat":38.01841,"lng":-81.78926,"zip":"25205","miles_from_dt":26.6},{"city":"Brenton","state_name":"West Virginia","lat":37.60809,"lng":-81.62275,"zip":"24818","miles_from_dt":26.65},{"city":"Blount","state_name":"West Virginia","lat":38.29378,"lng":-81.4018,"zip":"25025","miles_from_dt":26.74},{"city":"Pond Gap","state_name":"West Virginia","lat":38.29884,"lng":-81.27314,"zip":"25160","miles_from_dt":26.85},{"city":"Herndon","state_name":"West Virginia","lat":37.52084,"lng":-81.37229,"zip":"24726","miles_from_dt":27.08},{"city":"Foster","state_name":"West Virginia","lat":38.08235,"lng":-81.76875,"zip":"25081","miles_from_dt":27.12},{"city":"Costa","state_name":"West Virginia","lat":38.15885,"lng":-81.70929,"zip":"25051","miles_from_dt":27.19},{"city":"Nallen","state_name":"West Virginia","lat":38.08991,"lng":-80.87423,"zip":"26680","miles_from_dt":27.32},{"city":"Spring Dale","state_name":"West Virginia","lat":37.89395,"lng":-80.81741,"zip":"25986","miles_from_dt":27.56},{"city":"Flat Top","state_name":"West Virginia","lat":37.55325,"lng":-81.09061,"zip":"25841","miles_from_dt":27.74},{"city":"Nellis","state_name":"West Virginia","lat":38.15001,"lng":-81.73066,"zip":"25142","miles_from_dt":27.75},{"city":"Hernshaw","state_name":"West Virginia","lat":38.22427,"lng":-81.64493,"zip":"25107","miles_from_dt":27.88},{"city":"Clear Fork","state_name":"West Virginia","lat":37.62908,"lng":-81.68755,"zip":"24822","miles_from_dt":27.95},{"city":"Rainelle","state_name":"West Virginia","lat":37.97044,"lng":-80.8098,"zip":"25962","miles_from_dt":28.23},{"city":"Ridgeview","state_name":"West Virginia","lat":38.12788,"lng":-81.76288,"zip":"25169","miles_from_dt":28.35},{"city":"Coal Mountain","state_name":"West Virginia","lat":37.66761,"lng":-81.74105,"zip":"24823","miles_from_dt":28.47},{"city":"Nimitz","state_name":"West Virginia","lat":37.62861,"lng":-80.94138,"zip":"25978","miles_from_dt":28.51},{"city":"Mount Lookout","state_name":"West Virginia","lat":38.16883,"lng":-80.91085,"zip":"26678","miles_from_dt":28.57},{"city":"Drennen","state_name":"West Virginia","lat":38.2384,"lng":-80.99908,"zip":"26667","miles_from_dt":28.58},{"city":"Davin","state_name":"West Virginia","lat":37.74549,"lng":-81.80275,"zip":"25617","miles_from_dt":28.72},{"city":"Lizemores","state_name":"West Virginia","lat":38.31554,"lng":-81.19074,"zip":"25125","miles_from_dt":28.77},{"city":"Ashford","state_name":"West Virginia","lat":38.19237,"lng":-81.71301,"zip":"25009","miles_from_dt":28.85},{"city":"Sandstone","state_name":"West Virginia","lat":37.75752,"lng":-80.83044,"zip":"25985","miles_from_dt":28.86},{"city":"Charleston","state_name":"West Virginia","lat":38.31071,"lng":-81.49087,"zip":"25306","miles_from_dt":29.05},{"city":"Covel","state_name":"West Virginia","lat":37.48722,"lng":-81.32652,"zip":"24719","miles_from_dt":29.25},{"city":"Accoville","state_name":"West Virginia","lat":37.76641,"lng":-81.82878,"zip":"25606","miles_from_dt":29.51},{"city":"Camp Creek","state_name":"West Virginia","lat":37.50812,"lng":-81.13549,"zip":"25820","miles_from_dt":29.61},{"city":"Verner","state_name":"West Virginia","lat":37.68358,"lng":-81.78773,"zip":"25650","miles_from_dt":29.98}],"targetCityZipCode":"25044","targetCityState":"West Virginia"},"__N_SSG":true}