{"pageProps":{"stateName":"West-virginia","cityName":"fort-gay","nearbyCities":[{"city":"Genoa","state_name":"West Virginia","lat":38.10989,"lng":-82.45368,"zip":"25517","miles_from_dt":3.96},{"city":"Louisa","state_name":"Kentucky","lat":38.0656,"lng":-82.66196,"zip":"41230","miles_from_dt":7.99},{"city":"Dunlow","state_name":"West Virginia","lat":38.03194,"lng":-82.35637,"zip":"25511","miles_from_dt":9.39},{"city":"Prichard","state_name":"West Virginia","lat":38.23525,"lng":-82.55913,"zip":"25555","miles_from_dt":10.86},{"city":"Crum","state_name":"West Virginia","lat":37.93186,"lng":-82.4519,"zip":"25669","miles_from_dt":10.9},{"city":"Wayne","state_name":"West Virginia","lat":38.23508,"lng":-82.41927,"zip":"25570","miles_from_dt":11.86},{"city":"East Lynn","state_name":"West Virginia","lat":38.17784,"lng":-82.32056,"zip":"25512","miles_from_dt":12.59},{"city":"Kiahsville","state_name":"West Virginia","lat":38.08065,"lng":-82.27781,"zip":"25534","miles_from_dt":13.03},{"city":"Ulysses","state_name":"Kentucky","lat":37.94021,"lng":-82.677,"zip":"41264","miles_from_dt":13.08},{"city":"Adams","state_name":"Kentucky","lat":38.06201,"lng":-82.7576,"zip":"41201","miles_from_dt":13.2},{"city":"Wilsondale","state_name":"West Virginia","lat":37.96297,"lng":-82.31493,"zip":"25699","miles_from_dt":13.71},{"city":"Warfield","state_name":"Kentucky","lat":37.87514,"lng":-82.43591,"zip":"41267","miles_from_dt":14.89},{"city":"Lowmansville","state_name":"Kentucky","lat":37.93602,"lng":-82.74007,"zip":"41232","miles_from_dt":15.78},{"city":"Beauty","state_name":"Kentucky","lat":37.85241,"lng":-82.46112,"zip":"41203","miles_from_dt":16.08},{"city":"Lavalette","state_name":"West Virginia","lat":38.30772,"lng":-82.43405,"zip":"25535","miles_from_dt":16.25},{"city":"Breeden","state_name":"West Virginia","lat":37.9203,"lng":-82.29432,"zip":"25666","miles_from_dt":16.46},{"city":"Tomahawk","state_name":"Kentucky","lat":37.85112,"lng":-82.61377,"zip":"41262","miles_from_dt":16.74},{"city":"Shoals","state_name":"West Virginia","lat":38.32627,"lng":-82.47241,"zip":"25562","miles_from_dt":17.06},{"city":"Kermit","state_name":"West Virginia","lat":37.87114,"lng":-82.34672,"zip":"25674","miles_from_dt":17.22},{"city":"Catlettsburg","state_name":"Kentucky","lat":38.31755,"lng":-82.64073,"zip":"41129","miles_from_dt":17.63},{"city":"Huntington","state_name":"West Virginia","lat":38.33898,"lng":-82.51843,"zip":"25770","miles_from_dt":17.77},{"city":"River","state_name":"Kentucky","lat":37.8845,"lng":-82.72711,"zip":"41254","miles_from_dt":17.78},{"city":"Huntington","state_name":"West Virginia","lat":38.3406,"lng":-82.51815,"zip":"25779","miles_from_dt":17.88},{"city":"Huntington","state_name":"West Virginia","lat":38.34177,"lng":-82.51748,"zip":"25771","miles_from_dt":17.96},{"city":"Inez","state_name":"Kentucky","lat":37.82089,"lng":-82.53936,"zip":"41224","miles_from_dt":18.01},{"city":"Huntington","state_name":"West Virginia","lat":38.34969,"lng":-82.50693,"zip":"25704","miles_from_dt":18.52},{"city":"Blaine","state_name":"Kentucky","lat":38.02148,"lng":-82.85118,"zip":"41124","miles_from_dt":18.7},{"city":"Mazie","state_name":"Kentucky","lat":38.03389,"lng":-82.85851,"zip":"41160","miles_from_dt":18.92},{"city":"Webbville","state_name":"Kentucky","lat":38.13358,"lng":-82.85999,"zip":"41180","miles_from_dt":19.05},{"city":"Kenova","state_name":"West Virginia","lat":38.35629,"lng":-82.56337,"zip":"25530","miles_from_dt":19.13},{"city":"Ranger","state_name":"West Virginia","lat":38.09923,"lng":-82.16262,"zip":"25557","miles_from_dt":19.34},{"city":"Stambaugh","state_name":"Kentucky","lat":37.91372,"lng":-82.8044,"zip":"41257","miles_from_dt":19.5},{"city":"Branchland","state_name":"West Virginia","lat":38.20826,"lng":-82.18665,"zip":"25506","miles_from_dt":20},{"city":"Debord","state_name":"Kentucky","lat":37.79448,"lng":-82.59839,"zip":"41214","miles_from_dt":20.28},{"city":"Boons Camp","state_name":"Kentucky","lat":37.81784,"lng":-82.6843,"zip":"41204","miles_from_dt":20.35},{"city":"Tutor Key","state_name":"Kentucky","lat":37.85717,"lng":-82.76256,"zip":"41263","miles_from_dt":20.47},{"city":"Huntington","state_name":"West Virginia","lat":38.36809,"lng":-82.41127,"zip":"25701","miles_from_dt":20.59},{"city":"Rush","state_name":"Kentucky","lat":38.30732,"lng":-82.76992,"zip":"41168","miles_from_dt":20.8},{"city":"Williamsport","state_name":"Kentucky","lat":37.82773,"lng":-82.72453,"zip":"41271","miles_from_dt":20.85},{"city":"Denton","state_name":"Kentucky","lat":38.25667,"lng":-82.8314,"zip":"41132","miles_from_dt":20.97},{"city":"Lovely","state_name":"Kentucky","lat":37.79447,"lng":-82.38903,"zip":"41231","miles_from_dt":20.98},{"city":"Dingess","state_name":"West Virginia","lat":37.90411,"lng":-82.20283,"zip":"25671","miles_from_dt":21.05},{"city":"Sitka","state_name":"Kentucky","lat":37.91014,"lng":-82.83765,"zip":"41255","miles_from_dt":21.12},{"city":"Midkiff","state_name":"West Virginia","lat":38.15709,"lng":-82.13914,"zip":"25540","miles_from_dt":21.23},{"city":"Willard","state_name":"Kentucky","lat":38.20758,"lng":-82.87425,"zip":"41181","miles_from_dt":21.33},{"city":"Huntington","state_name":"West Virginia","lat":38.39511,"lng":-82.45178,"zip":"25715","miles_from_dt":21.93},{"city":"Thelma","state_name":"Kentucky","lat":37.82253,"lng":-82.75126,"zip":"41260","miles_from_dt":21.97},{"city":"Huntington","state_name":"West Virginia","lat":38.39594,"lng":-82.44895,"zip":"25707","miles_from_dt":22.01},{"city":"Ceredo","state_name":"West Virginia","lat":38.39945,"lng":-82.55193,"zip":"25507","miles_from_dt":22.02},{"city":"Huntington","state_name":"West Virginia","lat":38.39566,"lng":-82.44617,"zip":"25713","miles_from_dt":22.02},{"city":"Wittensville","state_name":"Kentucky","lat":37.86174,"lng":-82.81164,"zip":"41274","miles_from_dt":22.1},{"city":"Huntington","state_name":"West Virginia","lat":38.39738,"lng":-82.44872,"zip":"25706","miles_from_dt":22.11},{"city":"Huntington","state_name":"West Virginia","lat":38.39751,"lng":-82.44855,"zip":"25712","miles_from_dt":22.12},{"city":"Huntington","state_name":"West Virginia","lat":38.39812,"lng":-82.45004,"zip":"25714","miles_from_dt":22.15},{"city":"Huntington","state_name":"West Virginia","lat":38.39867,"lng":-82.45188,"zip":"25728","miles_from_dt":22.17},{"city":"Huntington","state_name":"West Virginia","lat":38.39829,"lng":-82.44834,"zip":"25716","miles_from_dt":22.17},{"city":"Huntington","state_name":"West Virginia","lat":38.39813,"lng":-82.4468,"zip":"25725","miles_from_dt":22.18},{"city":"Huntington","state_name":"West Virginia","lat":38.39866,"lng":-82.44826,"zip":"25720","miles_from_dt":22.2},{"city":"Huntington","state_name":"West Virginia","lat":38.39917,"lng":-82.44869,"zip":"25729","miles_from_dt":22.23},{"city":"Huntington","state_name":"West Virginia","lat":38.39933,"lng":-82.4495,"zip":"25711","miles_from_dt":22.23},{"city":"Harts","state_name":"West Virginia","lat":38.01309,"lng":-82.11712,"zip":"25524","miles_from_dt":22.3},{"city":"Naugatuck","state_name":"West Virginia","lat":37.79592,"lng":-82.31426,"zip":"25685","miles_from_dt":22.58},{"city":"Salt Rock","state_name":"West Virginia","lat":38.32753,"lng":-82.23181,"zip":"25559","miles_from_dt":23},{"city":"Huntington","state_name":"West Virginia","lat":38.41313,"lng":-82.4732,"zip":"25775","miles_from_dt":23.01},{"city":"Huntington","state_name":"West Virginia","lat":38.414,"lng":-82.4752,"zip":"25727","miles_from_dt":23.05},{"city":"Meally","state_name":"Kentucky","lat":37.79654,"lng":-82.74161,"zip":"41234","miles_from_dt":23.17},{"city":"Huntington","state_name":"West Virginia","lat":38.41615,"lng":-82.47755,"zip":"25777","miles_from_dt":23.19},{"city":"Huntington","state_name":"West Virginia","lat":38.41602,"lng":-82.47443,"zip":"25772","miles_from_dt":23.2},{"city":"Paintsville","state_name":"Kentucky","lat":37.82103,"lng":-82.78927,"zip":"41240","miles_from_dt":23.32},{"city":"Huntington","state_name":"West Virginia","lat":38.41834,"lng":-82.47426,"zip":"25778","miles_from_dt":23.36},{"city":"Huntington","state_name":"West Virginia","lat":38.41872,"lng":-82.47462,"zip":"25726","miles_from_dt":23.38},{"city":"Huntington","state_name":"West Virginia","lat":38.41918,"lng":-82.47466,"zip":"25776","miles_from_dt":23.41},{"city":"Huntington","state_name":"West Virginia","lat":38.41953,"lng":-82.47831,"zip":"25773","miles_from_dt":23.42},{"city":"Huntington","state_name":"West Virginia","lat":38.41954,"lng":-82.47534,"zip":"25774","miles_from_dt":23.43},{"city":"Lenore","state_name":"West Virginia","lat":37.82509,"lng":-82.22972,"zip":"25676","miles_from_dt":23.63},{"city":"Huntington","state_name":"West Virginia","lat":38.42154,"lng":-82.44226,"zip":"25710","miles_from_dt":23.81},{"city":"Huntington","state_name":"West Virginia","lat":38.42188,"lng":-82.44184,"zip":"25708","miles_from_dt":23.84},{"city":"Huntington","state_name":"West Virginia","lat":38.42299,"lng":-82.44163,"zip":"25721","miles_from_dt":23.92},{"city":"Huntington","state_name":"West Virginia","lat":38.42302,"lng":-82.44075,"zip":"25719","miles_from_dt":23.93},{"city":"Huntington","state_name":"West Virginia","lat":38.40636,"lng":-82.36276,"zip":"25705","miles_from_dt":23.93},{"city":"Huntington","state_name":"West Virginia","lat":38.42312,"lng":-82.44048,"zip":"25723","miles_from_dt":23.93},{"city":"Flatgap","state_name":"Kentucky","lat":37.92586,"lng":-82.90882,"zip":"41219","miles_from_dt":23.93},{"city":"Huntington","state_name":"West Virginia","lat":38.424,"lng":-82.43961,"zip":"25709","miles_from_dt":24},{"city":"Huntington","state_name":"West Virginia","lat":38.42556,"lng":-82.44258,"zip":"25722","miles_from_dt":24.08},{"city":"Pilgrim","state_name":"Kentucky","lat":37.73511,"lng":-82.46079,"zip":"41250","miles_from_dt":24.08},{"city":"Huntington","state_name":"West Virginia","lat":38.42359,"lng":-82.42796,"zip":"25755","miles_from_dt":24.09},{"city":"Huntington","state_name":"West Virginia","lat":38.42201,"lng":-82.41827,"zip":"25703","miles_from_dt":24.1},{"city":"Huntington","state_name":"West Virginia","lat":38.42636,"lng":-82.44099,"zip":"25724","miles_from_dt":24.15},{"city":"Huntington","state_name":"West Virginia","lat":38.42599,"lng":-82.43727,"zip":"25717","miles_from_dt":24.16},{"city":"Huntington","state_name":"West Virginia","lat":38.4267,"lng":-82.43856,"zip":"25718","miles_from_dt":24.2},{"city":"Barboursville","state_name":"West Virginia","lat":38.37297,"lng":-82.26674,"zip":"25504","miles_from_dt":24.28},{"city":"Hitchins","state_name":"Kentucky","lat":38.27701,"lng":-82.88969,"zip":"41146","miles_from_dt":24.38},{"city":"Myra","state_name":"West Virginia","lat":38.23078,"lng":-82.11017,"zip":"25544","miles_from_dt":24.42},{"city":"West Hamlin","state_name":"West Virginia","lat":38.2947,"lng":-82.15632,"zip":"25571","miles_from_dt":24.53},{"city":"Van Lear","state_name":"Kentucky","lat":37.75424,"lng":-82.70446,"zip":"41265","miles_from_dt":24.78},{"city":"West Van Lear","state_name":"Kentucky","lat":37.78797,"lng":-82.78433,"zip":"41268","miles_from_dt":24.96},{"city":"Keaton","state_name":"Kentucky","lat":37.97853,"lng":-82.9562,"zip":"41226","miles_from_dt":25},{"city":"Martha","state_name":"Kentucky","lat":38.01305,"lng":-82.96993,"zip":"41159","miles_from_dt":25.16},{"city":"Ashland","state_name":"Kentucky","lat":38.43069,"lng":-82.66744,"zip":"41105","miles_from_dt":25.45},{"city":"South Point","state_name":"Ohio","lat":38.45526,"lng":-82.54489,"zip":"45680","miles_from_dt":25.83},{"city":"Ashland","state_name":"Kentucky","lat":38.42045,"lng":-82.72425,"zip":"41102","miles_from_dt":25.97},{"city":"Huntington","state_name":"West Virginia","lat":38.43825,"lng":-82.33344,"zip":"25702","miles_from_dt":26.56},{"city":"Staffordsville","state_name":"Kentucky","lat":37.82446,"lng":-82.88135,"zip":"41256","miles_from_dt":26.65},{"city":"Big Creek","state_name":"West Virginia","lat":38.01967,"lng":-82.03075,"zip":"25505","miles_from_dt":26.85},{"city":"Auxier","state_name":"Kentucky","lat":37.7387,"lng":-82.75249,"zip":"41602","miles_from_dt":26.91},{"city":"Ashland","state_name":"Kentucky","lat":38.46142,"lng":-82.64765,"zip":"41114","miles_from_dt":27.16},{"city":"Chesapeake","state_name":"Ohio","lat":38.47257,"lng":-82.45157,"zip":"45619","miles_from_dt":27.21},{"city":"Verdunville","state_name":"West Virginia","lat":37.87166,"lng":-82.08489,"zip":"25649","miles_from_dt":27.66},{"city":"Borderland","state_name":"West Virginia","lat":37.71382,"lng":-82.30604,"zip":"25665","miles_from_dt":27.84},{"city":"Hamlin","state_name":"West Virginia","lat":38.27934,"lng":-82.06754,"zip":"25523","miles_from_dt":28.01},{"city":"Ashland","state_name":"Kentucky","lat":38.47392,"lng":-82.65045,"zip":"41101","miles_from_dt":28.03},{"city":"Hagerhill","state_name":"Kentucky","lat":37.77036,"lng":-82.85032,"zip":"41222","miles_from_dt":28.14},{"city":"Chapmanville","state_name":"West Virginia","lat":37.96388,"lng":-82.01394,"zip":"25508","miles_from_dt":28.61},{"city":"Oil Springs","state_name":"Kentucky","lat":37.83943,"lng":-82.95072,"zip":"41238","miles_from_dt":28.98},{"city":"Chattaroy","state_name":"West Virginia","lat":37.70619,"lng":-82.2738,"zip":"25667","miles_from_dt":29.08},{"city":"East Point","state_name":"Kentucky","lat":37.73016,"lng":-82.81308,"zip":"41216","miles_from_dt":29.14},{"city":"Holden","state_name":"West Virginia","lat":37.82237,"lng":-82.09206,"zip":"25625","miles_from_dt":29.28},{"city":"Williamson","state_name":"West Virginia","lat":37.71062,"lng":-82.25377,"zip":"25661","miles_from_dt":29.33},{"city":"Isonville","state_name":"Kentucky","lat":38.06008,"lng":-83.05438,"zip":"41149","miles_from_dt":29.35},{"city":"Proctorville","state_name":"Ohio","lat":38.4935,"lng":-82.35857,"zip":"45669","miles_from_dt":29.7}],"targetCityZipCode":"25514","targetCityState":"West Virginia"},"__N_SSG":true}