{"pageProps":{"stateName":"West-virginia","cityName":"kiahsville","nearbyCities":[{"city":"Dunlow","state_name":"West Virginia","lat":38.03194,"lng":-82.35637,"zip":"25511","miles_from_dt":5.44},{"city":"Ranger","state_name":"West Virginia","lat":38.09923,"lng":-82.16262,"zip":"25557","miles_from_dt":6.41},{"city":"East Lynn","state_name":"West Virginia","lat":38.17784,"lng":-82.32056,"zip":"25512","miles_from_dt":7.1},{"city":"Wilsondale","state_name":"West Virginia","lat":37.96297,"lng":-82.31493,"zip":"25699","miles_from_dt":8.37},{"city":"Midkiff","state_name":"West Virginia","lat":38.15709,"lng":-82.13914,"zip":"25540","miles_from_dt":9.21},{"city":"Genoa","state_name":"West Virginia","lat":38.10989,"lng":-82.45368,"zip":"25517","miles_from_dt":9.8},{"city":"Harts","state_name":"West Virginia","lat":38.01309,"lng":-82.11712,"zip":"25524","miles_from_dt":9.93},{"city":"Branchland","state_name":"West Virginia","lat":38.20826,"lng":-82.18665,"zip":"25506","miles_from_dt":10.11},{"city":"Breeden","state_name":"West Virginia","lat":37.9203,"lng":-82.29432,"zip":"25666","miles_from_dt":11.1},{"city":"Dingess","state_name":"West Virginia","lat":37.90411,"lng":-82.20283,"zip":"25671","miles_from_dt":12.85},{"city":"Fort Gay","state_name":"West Virginia","lat":38.08136,"lng":-82.51678,"zip":"25514","miles_from_dt":13.03},{"city":"Wayne","state_name":"West Virginia","lat":38.23508,"lng":-82.41927,"zip":"25570","miles_from_dt":13.15},{"city":"Myra","state_name":"West Virginia","lat":38.23078,"lng":-82.11017,"zip":"25544","miles_from_dt":13.8},{"city":"Crum","state_name":"West Virginia","lat":37.93186,"lng":-82.4519,"zip":"25669","miles_from_dt":13.98},{"city":"Big Creek","state_name":"West Virginia","lat":38.01967,"lng":-82.03075,"zip":"25505","miles_from_dt":14.12},{"city":"Kermit","state_name":"West Virginia","lat":37.87114,"lng":-82.34672,"zip":"25674","miles_from_dt":14.93},{"city":"West Hamlin","state_name":"West Virginia","lat":38.2947,"lng":-82.15632,"zip":"25571","miles_from_dt":16.18},{"city":"Chapmanville","state_name":"West Virginia","lat":37.96388,"lng":-82.01394,"zip":"25508","miles_from_dt":16.5},{"city":"Warfield","state_name":"Kentucky","lat":37.87514,"lng":-82.43591,"zip":"41267","miles_from_dt":16.6},{"city":"Spurlockville","state_name":"West Virginia","lat":38.10998,"lng":-81.96631,"zip":"25565","miles_from_dt":17.1},{"city":"Salt Rock","state_name":"West Virginia","lat":38.32753,"lng":-82.23181,"zip":"25559","miles_from_dt":17.21},{"city":"Lenore","state_name":"West Virginia","lat":37.82509,"lng":-82.22972,"zip":"25676","miles_from_dt":17.82},{"city":"Lavalette","state_name":"West Virginia","lat":38.30772,"lng":-82.43405,"zip":"25535","miles_from_dt":17.82},{"city":"Verdunville","state_name":"West Virginia","lat":37.87166,"lng":-82.08489,"zip":"25649","miles_from_dt":17.85},{"city":"Hamlin","state_name":"West Virginia","lat":38.27934,"lng":-82.06754,"zip":"25523","miles_from_dt":17.86},{"city":"Alkol","state_name":"West Virginia","lat":38.16035,"lng":-81.95582,"zip":"25501","miles_from_dt":18.39},{"city":"Beauty","state_name":"Kentucky","lat":37.85241,"lng":-82.46112,"zip":"41203","miles_from_dt":18.65},{"city":"Prichard","state_name":"West Virginia","lat":38.23525,"lng":-82.55913,"zip":"25555","miles_from_dt":18.67},{"city":"Griffithsville","state_name":"West Virginia","lat":38.22915,"lng":-81.98641,"zip":"25521","miles_from_dt":18.89},{"city":"Naugatuck","state_name":"West Virginia","lat":37.79592,"lng":-82.31426,"zip":"25685","miles_from_dt":19.74},{"city":"Shoals","state_name":"West Virginia","lat":38.32627,"lng":-82.47241,"zip":"25562","miles_from_dt":19.98},{"city":"Barboursville","state_name":"West Virginia","lat":38.37297,"lng":-82.26674,"zip":"25504","miles_from_dt":20.17},{"city":"Holden","state_name":"West Virginia","lat":37.82237,"lng":-82.09206,"zip":"25625","miles_from_dt":20.5},{"city":"Lovely","state_name":"Kentucky","lat":37.79447,"lng":-82.38903,"zip":"41231","miles_from_dt":20.65},{"city":"Pecks Mill","state_name":"West Virginia","lat":37.92627,"lng":-81.9537,"zip":"25547","miles_from_dt":20.65},{"city":"Henlawson","state_name":"West Virginia","lat":37.90393,"lng":-81.97162,"zip":"25624","miles_from_dt":20.68},{"city":"Yawkey","state_name":"West Virginia","lat":38.22725,"lng":-81.94549,"zip":"25573","miles_from_dt":20.73},{"city":"Mount Gay","state_name":"West Virginia","lat":37.85086,"lng":-82.02805,"zip":"25637","miles_from_dt":20.91},{"city":"Louisa","state_name":"Kentucky","lat":38.0656,"lng":-82.66196,"zip":"41230","miles_from_dt":20.97},{"city":"Huntington","state_name":"West Virginia","lat":38.36809,"lng":-82.41127,"zip":"25701","miles_from_dt":21.11},{"city":"Logan","state_name":"West Virginia","lat":37.86255,"lng":-82.0026,"zip":"25601","miles_from_dt":21.26},{"city":"Woodville","state_name":"West Virginia","lat":38.16074,"lng":-81.89338,"zip":"25572","miles_from_dt":21.66},{"city":"Peach Creek","state_name":"West Virginia","lat":37.88674,"lng":-81.95905,"zip":"25639","miles_from_dt":21.95},{"city":"Turtle Creek","state_name":"West Virginia","lat":38.02125,"lng":-81.88162,"zip":"25203","miles_from_dt":21.99},{"city":"Danville","state_name":"West Virginia","lat":38.04725,"lng":-81.87633,"zip":"25053","miles_from_dt":22.01},{"city":"Huntington","state_name":"West Virginia","lat":38.33898,"lng":-82.51843,"zip":"25770","miles_from_dt":22.11},{"city":"Huntington","state_name":"West Virginia","lat":38.3406,"lng":-82.51815,"zip":"25779","miles_from_dt":22.19},{"city":"Huntington","state_name":"West Virginia","lat":38.34177,"lng":-82.51748,"zip":"25771","miles_from_dt":22.24},{"city":"Huntington","state_name":"West Virginia","lat":38.34969,"lng":-82.50693,"zip":"25704","miles_from_dt":22.36},{"city":"Cora","state_name":"West Virginia","lat":37.85103,"lng":-81.98783,"zip":"25614","miles_from_dt":22.39},{"city":"Inez","state_name":"Kentucky","lat":37.82089,"lng":-82.53936,"zip":"41224","miles_from_dt":22.91},{"city":"Huntington","state_name":"West Virginia","lat":38.40636,"lng":-82.36276,"zip":"25705","miles_from_dt":22.94},{"city":"Wilkinson","state_name":"West Virginia","lat":37.8287,"lng":-81.9944,"zip":"25653","miles_from_dt":23.27},{"city":"Hewett","state_name":"West Virginia","lat":37.9655,"lng":-81.87289,"zip":"25108","miles_from_dt":23.48},{"city":"Huntington","state_name":"West Virginia","lat":38.39566,"lng":-82.44617,"zip":"25713","miles_from_dt":23.58},{"city":"Ethel","state_name":"West Virginia","lat":37.86889,"lng":-81.937,"zip":"25076","miles_from_dt":23.65},{"city":"Huntington","state_name":"West Virginia","lat":38.39594,"lng":-82.44895,"zip":"25707","miles_from_dt":23.66},{"city":"Huntington","state_name":"West Virginia","lat":38.39511,"lng":-82.45178,"zip":"25715","miles_from_dt":23.66},{"city":"Huntington","state_name":"West Virginia","lat":38.39738,"lng":-82.44872,"zip":"25706","miles_from_dt":23.74},{"city":"Huntington","state_name":"West Virginia","lat":38.39813,"lng":-82.4468,"zip":"25725","miles_from_dt":23.75},{"city":"Huntington","state_name":"West Virginia","lat":38.39751,"lng":-82.44855,"zip":"25712","miles_from_dt":23.75},{"city":"Huntington","state_name":"West Virginia","lat":38.39829,"lng":-82.44834,"zip":"25716","miles_from_dt":23.79},{"city":"Huntington","state_name":"West Virginia","lat":38.39866,"lng":-82.44826,"zip":"25720","miles_from_dt":23.81},{"city":"Whitman","state_name":"West Virginia","lat":37.78702,"lng":-82.04865,"zip":"25652","miles_from_dt":23.81},{"city":"Huntington","state_name":"West Virginia","lat":38.39812,"lng":-82.45004,"zip":"25714","miles_from_dt":23.82},{"city":"Ulysses","state_name":"Kentucky","lat":37.94021,"lng":-82.677,"zip":"41264","miles_from_dt":23.84},{"city":"Huntington","state_name":"West Virginia","lat":38.39917,"lng":-82.44869,"zip":"25729","miles_from_dt":23.85},{"city":"Huntington","state_name":"West Virginia","lat":38.39933,"lng":-82.4495,"zip":"25711","miles_from_dt":23.88},{"city":"Huntington","state_name":"West Virginia","lat":38.39867,"lng":-82.45188,"zip":"25728","miles_from_dt":23.89},{"city":"Sumerco","state_name":"West Virginia","lat":38.21971,"lng":-81.87294,"zip":"25567","miles_from_dt":24.05},{"city":"Culloden","state_name":"West Virginia","lat":38.38832,"lng":-82.06599,"zip":"25510","miles_from_dt":24.15},{"city":"Tomahawk","state_name":"Kentucky","lat":37.85112,"lng":-82.61377,"zip":"41262","miles_from_dt":24.23},{"city":"Delbarton","state_name":"West Virginia","lat":37.7385,"lng":-82.15588,"zip":"25670","miles_from_dt":24.52},{"city":"Kenova","state_name":"West Virginia","lat":38.35629,"lng":-82.56337,"zip":"25530","miles_from_dt":24.55},{"city":"Sod","state_name":"West Virginia","lat":38.26302,"lng":-81.88835,"zip":"25564","miles_from_dt":24.66},{"city":"Lake","state_name":"West Virginia","lat":37.91167,"lng":-81.87787,"zip":"25121","miles_from_dt":24.74},{"city":"Huntington","state_name":"West Virginia","lat":38.42201,"lng":-82.41827,"zip":"25703","miles_from_dt":24.75},{"city":"Huntington","state_name":"West Virginia","lat":38.43825,"lng":-82.33344,"zip":"25702","miles_from_dt":24.85},{"city":"Huntington","state_name":"West Virginia","lat":38.42359,"lng":-82.42796,"zip":"25755","miles_from_dt":25.02},{"city":"Huntington","state_name":"West Virginia","lat":38.42154,"lng":-82.44226,"zip":"25710","miles_from_dt":25.16},{"city":"Huntington","state_name":"West Virginia","lat":38.42188,"lng":-82.44184,"zip":"25708","miles_from_dt":25.17},{"city":"Huntington","state_name":"West Virginia","lat":38.42312,"lng":-82.44048,"zip":"25723","miles_from_dt":25.22},{"city":"Huntington","state_name":"West Virginia","lat":38.42302,"lng":-82.44075,"zip":"25719","miles_from_dt":25.22},{"city":"Julian","state_name":"West Virginia","lat":38.15573,"lng":-81.8245,"zip":"25529","miles_from_dt":25.24},{"city":"Huntington","state_name":"West Virginia","lat":38.42299,"lng":-82.44163,"zip":"25721","miles_from_dt":25.24},{"city":"Huntington","state_name":"West Virginia","lat":38.424,"lng":-82.43961,"zip":"25709","miles_from_dt":25.26},{"city":"Huntington","state_name":"West Virginia","lat":38.41313,"lng":-82.4732,"zip":"25775","miles_from_dt":25.28},{"city":"Huntington","state_name":"West Virginia","lat":38.42599,"lng":-82.43727,"zip":"25717","miles_from_dt":25.35},{"city":"Borderland","state_name":"West Virginia","lat":37.71382,"lng":-82.30604,"zip":"25665","miles_from_dt":25.35},{"city":"Huntington","state_name":"West Virginia","lat":38.414,"lng":-82.4752,"zip":"25727","miles_from_dt":25.38},{"city":"Huntington","state_name":"West Virginia","lat":38.42556,"lng":-82.44258,"zip":"25722","miles_from_dt":25.42},{"city":"Huntington","state_name":"West Virginia","lat":38.4267,"lng":-82.43856,"zip":"25718","miles_from_dt":25.42},{"city":"Huntington","state_name":"West Virginia","lat":38.42636,"lng":-82.44099,"zip":"25724","miles_from_dt":25.44},{"city":"Huntington","state_name":"West Virginia","lat":38.41602,"lng":-82.47443,"zip":"25772","miles_from_dt":25.48},{"city":"Williamson","state_name":"West Virginia","lat":37.71062,"lng":-82.25377,"zip":"25661","miles_from_dt":25.55},{"city":"Huntington","state_name":"West Virginia","lat":38.41615,"lng":-82.47755,"zip":"25777","miles_from_dt":25.56},{"city":"Huntington","state_name":"West Virginia","lat":38.41834,"lng":-82.47426,"zip":"25778","miles_from_dt":25.63},{"city":"Catlettsburg","state_name":"Kentucky","lat":38.31755,"lng":-82.64073,"zip":"41129","miles_from_dt":25.64},{"city":"Huntington","state_name":"West Virginia","lat":38.41872,"lng":-82.47462,"zip":"25726","miles_from_dt":25.66},{"city":"Huntington","state_name":"West Virginia","lat":38.41918,"lng":-82.47466,"zip":"25776","miles_from_dt":25.69},{"city":"Huntington","state_name":"West Virginia","lat":38.41954,"lng":-82.47534,"zip":"25774","miles_from_dt":25.73},{"city":"Switzer","state_name":"West Virginia","lat":37.786,"lng":-81.98738,"zip":"25647","miles_from_dt":25.78},{"city":"Huntington","state_name":"West Virginia","lat":38.41953,"lng":-82.47831,"zip":"25773","miles_from_dt":25.79},{"city":"Chattaroy","state_name":"West Virginia","lat":37.70619,"lng":-82.2738,"zip":"25667","miles_from_dt":25.83},{"city":"Pilgrim","state_name":"Kentucky","lat":37.73511,"lng":-82.46079,"zip":"41250","miles_from_dt":25.84},{"city":"Adams","state_name":"Kentucky","lat":38.06201,"lng":-82.7576,"zip":"41201","miles_from_dt":26.19},{"city":"Ona","state_name":"West Virginia","lat":38.45847,"lng":-82.22456,"zip":"25545","miles_from_dt":26.22},{"city":"Omar","state_name":"West Virginia","lat":37.74423,"lng":-82.05133,"zip":"25638","miles_from_dt":26.3},{"city":"Debord","state_name":"Kentucky","lat":37.79448,"lng":-82.59839,"zip":"41214","miles_from_dt":26.39},{"city":"Ceredo","state_name":"West Virginia","lat":38.39945,"lng":-82.55193,"zip":"25507","miles_from_dt":26.57},{"city":"Uneeda","state_name":"West Virginia","lat":38.01841,"lng":-81.78926,"zip":"25205","miles_from_dt":26.99},{"city":"Jeffrey","state_name":"West Virginia","lat":37.98199,"lng":-81.7986,"zip":"25114","miles_from_dt":27.01},{"city":"Stollings","state_name":"West Virginia","lat":37.83187,"lng":-81.89349,"zip":"25646","miles_from_dt":27.11},{"city":"Lowmansville","state_name":"Kentucky","lat":37.93602,"lng":-82.74007,"zip":"41232","miles_from_dt":27.13},{"city":"Hurricane","state_name":"West Virginia","lat":38.3984,"lng":-81.98279,"zip":"25526","miles_from_dt":27.16},{"city":"Chauncey","state_name":"West Virginia","lat":37.76396,"lng":-81.98064,"zip":"25612","miles_from_dt":27.22},{"city":"Milton","state_name":"West Virginia","lat":38.45884,"lng":-82.12707,"zip":"25541","miles_from_dt":27.34},{"city":"Ragland","state_name":"West Virginia","lat":37.69124,"lng":-82.15505,"zip":"25690","miles_from_dt":27.68},{"city":"Foster","state_name":"West Virginia","lat":38.08235,"lng":-81.76875,"zip":"25081","miles_from_dt":27.75},{"city":"River","state_name":"Kentucky","lat":37.8845,"lng":-82.72711,"zip":"41254","miles_from_dt":28.01},{"city":"Tornado","state_name":"West Virginia","lat":38.31593,"lng":-81.85372,"zip":"25202","miles_from_dt":28.22},{"city":"Ridgeview","state_name":"West Virginia","lat":38.12788,"lng":-81.76288,"zip":"25169","miles_from_dt":28.25},{"city":"Belfry","state_name":"Kentucky","lat":37.67135,"lng":-82.33169,"zip":"41514","miles_from_dt":28.38},{"city":"Chesapeake","state_name":"Ohio","lat":38.47257,"lng":-82.45157,"zip":"45619","miles_from_dt":28.64},{"city":"Boons Camp","state_name":"Kentucky","lat":37.81784,"lng":-82.6843,"zip":"41204","miles_from_dt":28.66},{"city":"Lyburn","state_name":"West Virginia","lat":37.76292,"lng":-81.9368,"zip":"25632","miles_from_dt":28.76},{"city":"Ottawa","state_name":"West Virginia","lat":37.9558,"lng":-81.7745,"zip":"25149","miles_from_dt":28.78},{"city":"Sharples","state_name":"West Virginia","lat":37.9074,"lng":-81.79745,"zip":"25183","miles_from_dt":28.81},{"city":"Proctorville","state_name":"Ohio","lat":38.4935,"lng":-82.35857,"zip":"45669","miles_from_dt":28.81},{"city":"South Williamson","state_name":"Kentucky","lat":37.66079,"lng":-82.28446,"zip":"41503","miles_from_dt":28.96},{"city":"Yolyn","state_name":"West Virginia","lat":37.80302,"lng":-81.87401,"zip":"25654","miles_from_dt":29.21},{"city":"Madison","state_name":"West Virginia","lat":38.02776,"lng":-81.7455,"zip":"25130","miles_from_dt":29.26},{"city":"Alum Creek","state_name":"West Virginia","lat":38.25101,"lng":-81.77925,"zip":"25003","miles_from_dt":29.58},{"city":"South Point","state_name":"Ohio","lat":38.45526,"lng":-82.54489,"zip":"45680","miles_from_dt":29.64},{"city":"Williamsport","state_name":"Kentucky","lat":37.82773,"lng":-82.72453,"zip":"41271","miles_from_dt":29.99}],"targetCityZipCode":"25534","targetCityState":"West Virginia"},"__N_SSG":true}