{"pageProps":{"stateName":"West-virginia","cityName":"lesage","nearbyCities":[{"city":"Glenwood","state_name":"West Virginia","lat":38.55773,"lng":-82.17899,"zip":"25520","miles_from_dt":5.16},{"city":"Proctorville","state_name":"Ohio","lat":38.4935,"lng":-82.35857,"zip":"45669","miles_from_dt":5.59},{"city":"Ona","state_name":"West Virginia","lat":38.45847,"lng":-82.22456,"zip":"25545","miles_from_dt":5.75},{"city":"Crown City","state_name":"Ohio","lat":38.64125,"lng":-82.26748,"zip":"45623","miles_from_dt":7.4},{"city":"Huntington","state_name":"West Virginia","lat":38.43825,"lng":-82.33344,"zip":"25702","miles_from_dt":7.46},{"city":"Scottown","state_name":"Ohio","lat":38.60595,"lng":-82.37883,"zip":"45678","miles_from_dt":7.74},{"city":"Milton","state_name":"West Virginia","lat":38.45884,"lng":-82.12707,"zip":"25541","miles_from_dt":9.29},{"city":"Ashton","state_name":"West Virginia","lat":38.60835,"lng":-82.11666,"zip":"25503","miles_from_dt":9.73},{"city":"Huntington","state_name":"West Virginia","lat":38.40636,"lng":-82.36276,"zip":"25705","miles_from_dt":10.16},{"city":"Chesapeake","state_name":"Ohio","lat":38.47257,"lng":-82.45157,"zip":"45619","miles_from_dt":10.75},{"city":"Willow Wood","state_name":"Ohio","lat":38.60356,"lng":-82.45201,"zip":"45696","miles_from_dt":11},{"city":"Barboursville","state_name":"West Virginia","lat":38.37297,"lng":-82.26674,"zip":"25504","miles_from_dt":11.11},{"city":"Huntington","state_name":"West Virginia","lat":38.42201,"lng":-82.41827,"zip":"25703","miles_from_dt":11.18},{"city":"Huntington","state_name":"West Virginia","lat":38.42359,"lng":-82.42796,"zip":"25755","miles_from_dt":11.49},{"city":"Huntington","state_name":"West Virginia","lat":38.42599,"lng":-82.43727,"zip":"25717","miles_from_dt":11.77},{"city":"Huntington","state_name":"West Virginia","lat":38.4267,"lng":-82.43856,"zip":"25718","miles_from_dt":11.79},{"city":"Huntington","state_name":"West Virginia","lat":38.42636,"lng":-82.44099,"zip":"25724","miles_from_dt":11.91},{"city":"Huntington","state_name":"West Virginia","lat":38.424,"lng":-82.43961,"zip":"25709","miles_from_dt":11.95},{"city":"Huntington","state_name":"West Virginia","lat":38.42556,"lng":-82.44258,"zip":"25722","miles_from_dt":12.01},{"city":"Huntington","state_name":"West Virginia","lat":38.42312,"lng":-82.44048,"zip":"25723","miles_from_dt":12.03},{"city":"Huntington","state_name":"West Virginia","lat":38.42302,"lng":-82.44075,"zip":"25719","miles_from_dt":12.04},{"city":"Huntington","state_name":"West Virginia","lat":38.42299,"lng":-82.44163,"zip":"25721","miles_from_dt":12.08},{"city":"Huntington","state_name":"West Virginia","lat":38.42188,"lng":-82.44184,"zip":"25708","miles_from_dt":12.14},{"city":"Huntington","state_name":"West Virginia","lat":38.42154,"lng":-82.44226,"zip":"25710","miles_from_dt":12.17},{"city":"Apple Grove","state_name":"West Virginia","lat":38.66501,"lng":-82.11024,"zip":"25502","miles_from_dt":12.48},{"city":"Huntington","state_name":"West Virginia","lat":38.39813,"lng":-82.4468,"zip":"25725","miles_from_dt":13.44},{"city":"Huntington","state_name":"West Virginia","lat":38.39917,"lng":-82.44869,"zip":"25729","miles_from_dt":13.46},{"city":"Huntington","state_name":"West Virginia","lat":38.39866,"lng":-82.44826,"zip":"25720","miles_from_dt":13.47},{"city":"Huntington","state_name":"West Virginia","lat":38.39933,"lng":-82.4495,"zip":"25711","miles_from_dt":13.48},{"city":"Huntington","state_name":"West Virginia","lat":38.39829,"lng":-82.44834,"zip":"25716","miles_from_dt":13.49},{"city":"Huntington","state_name":"West Virginia","lat":38.39751,"lng":-82.44855,"zip":"25712","miles_from_dt":13.53},{"city":"Huntington","state_name":"West Virginia","lat":38.39566,"lng":-82.44617,"zip":"25713","miles_from_dt":13.53},{"city":"Huntington","state_name":"West Virginia","lat":38.39738,"lng":-82.44872,"zip":"25706","miles_from_dt":13.55},{"city":"Huntington","state_name":"West Virginia","lat":38.39812,"lng":-82.45004,"zip":"25714","miles_from_dt":13.56},{"city":"Huntington","state_name":"West Virginia","lat":38.39867,"lng":-82.45188,"zip":"25728","miles_from_dt":13.61},{"city":"Huntington","state_name":"West Virginia","lat":38.39594,"lng":-82.44895,"zip":"25707","miles_from_dt":13.62},{"city":"Huntington","state_name":"West Virginia","lat":38.41918,"lng":-82.47466,"zip":"25776","miles_from_dt":13.67},{"city":"Huntington","state_name":"West Virginia","lat":38.41834,"lng":-82.47426,"zip":"25778","miles_from_dt":13.68},{"city":"Huntington","state_name":"West Virginia","lat":38.41954,"lng":-82.47534,"zip":"25774","miles_from_dt":13.68},{"city":"Huntington","state_name":"West Virginia","lat":38.41872,"lng":-82.47462,"zip":"25726","miles_from_dt":13.68},{"city":"Huntington","state_name":"West Virginia","lat":38.39511,"lng":-82.45178,"zip":"25715","miles_from_dt":13.77},{"city":"Huntington","state_name":"West Virginia","lat":38.41602,"lng":-82.47443,"zip":"25772","miles_from_dt":13.78},{"city":"Huntington","state_name":"West Virginia","lat":38.36809,"lng":-82.41127,"zip":"25701","miles_from_dt":13.79},{"city":"Huntington","state_name":"West Virginia","lat":38.41953,"lng":-82.47831,"zip":"25773","miles_from_dt":13.81},{"city":"Huntington","state_name":"West Virginia","lat":38.41313,"lng":-82.4732,"zip":"25775","miles_from_dt":13.85},{"city":"Huntington","state_name":"West Virginia","lat":38.414,"lng":-82.4752,"zip":"25727","miles_from_dt":13.9},{"city":"Huntington","state_name":"West Virginia","lat":38.41615,"lng":-82.47755,"zip":"25777","miles_from_dt":13.91},{"city":"Fraziers Bottom","state_name":"West Virginia","lat":38.60861,"lng":-82.02879,"zip":"25082","miles_from_dt":14},{"city":"Salt Rock","state_name":"West Virginia","lat":38.32753,"lng":-82.23181,"zip":"25559","miles_from_dt":14.38},{"city":"Kitts Hill","state_name":"Ohio","lat":38.57082,"lng":-82.53159,"zip":"45645","miles_from_dt":14.43},{"city":"Culloden","state_name":"West Virginia","lat":38.38832,"lng":-82.06599,"zip":"25510","miles_from_dt":14.92},{"city":"South Point","state_name":"Ohio","lat":38.45526,"lng":-82.54489,"zip":"45680","miles_from_dt":15.9},{"city":"Rock Camp","state_name":"Ohio","lat":38.52186,"lng":-82.56326,"zip":"45675","miles_from_dt":15.95},{"city":"Gallipolis Ferry","state_name":"West Virginia","lat":38.75731,"lng":-82.15262,"zip":"25515","miles_from_dt":16.65},{"city":"West Hamlin","state_name":"West Virginia","lat":38.2947,"lng":-82.15632,"zip":"25571","miles_from_dt":17.61},{"city":"Patriot","state_name":"Ohio","lat":38.76324,"lng":-82.41411,"zip":"45658","miles_from_dt":17.65},{"city":"Ceredo","state_name":"West Virginia","lat":38.39945,"lng":-82.55193,"zip":"25507","miles_from_dt":17.92},{"city":"Lavalette","state_name":"West Virginia","lat":38.30772,"lng":-82.43405,"zip":"25535","miles_from_dt":17.99},{"city":"Shoals","state_name":"West Virginia","lat":38.32627,"lng":-82.47241,"zip":"25562","miles_from_dt":18.08},{"city":"Huntington","state_name":"West Virginia","lat":38.34969,"lng":-82.50693,"zip":"25704","miles_from_dt":18.11},{"city":"Hurricane","state_name":"West Virginia","lat":38.3984,"lng":-81.98279,"zip":"25526","miles_from_dt":18.13},{"city":"Eleanor","state_name":"West Virginia","lat":38.54667,"lng":-81.93179,"zip":"25070","miles_from_dt":18.3},{"city":"Teays","state_name":"West Virginia","lat":38.44254,"lng":-81.95203,"zip":"25569","miles_from_dt":18.32},{"city":"Huntington","state_name":"West Virginia","lat":38.34177,"lng":-82.51748,"zip":"25771","miles_from_dt":18.9},{"city":"Southside","state_name":"West Virginia","lat":38.72617,"lng":-82.01878,"zip":"25187","miles_from_dt":18.96},{"city":"Huntington","state_name":"West Virginia","lat":38.3406,"lng":-82.51815,"zip":"25779","miles_from_dt":18.98},{"city":"Huntington","state_name":"West Virginia","lat":38.33898,"lng":-82.51843,"zip":"25770","miles_from_dt":19.07},{"city":"Winfield","state_name":"West Virginia","lat":38.50776,"lng":-81.91796,"zip":"25213","miles_from_dt":19.12},{"city":"Buffalo","state_name":"West Virginia","lat":38.61095,"lng":-81.92511,"zip":"25033","miles_from_dt":19.38},{"city":"Henderson","state_name":"West Virginia","lat":38.77598,"lng":-82.08237,"zip":"25106","miles_from_dt":19.51},{"city":"Gallipolis","state_name":"Ohio","lat":38.81672,"lng":-82.25486,"zip":"45631","miles_from_dt":19.52},{"city":"Waterloo","state_name":"Ohio","lat":38.73013,"lng":-82.53155,"zip":"45688","miles_from_dt":19.61},{"city":"Kenova","state_name":"West Virginia","lat":38.35629,"lng":-82.56337,"zip":"25530","miles_from_dt":20.12},{"city":"Hamlin","state_name":"West Virginia","lat":38.27934,"lng":-82.06754,"zip":"25523","miles_from_dt":20.7},{"city":"Scott Depot","state_name":"West Virginia","lat":38.44736,"lng":-81.89908,"zip":"25560","miles_from_dt":20.94},{"city":"Ashland","state_name":"Kentucky","lat":38.47392,"lng":-82.65045,"zip":"41101","miles_from_dt":21.07},{"city":"Ashland","state_name":"Kentucky","lat":38.46142,"lng":-82.64765,"zip":"41114","miles_from_dt":21.11},{"city":"Red House","state_name":"West Virginia","lat":38.56394,"lng":-81.87733,"zip":"25168","miles_from_dt":21.33},{"city":"Pedro","state_name":"Ohio","lat":38.67117,"lng":-82.62331,"zip":"45659","miles_from_dt":21.37},{"city":"Ironton","state_name":"Ohio","lat":38.56217,"lng":-82.67607,"zip":"45638","miles_from_dt":22.12},{"city":"Hometown","state_name":"West Virginia","lat":38.53097,"lng":-81.86062,"zip":"25109","miles_from_dt":22.14},{"city":"Wayne","state_name":"West Virginia","lat":38.23508,"lng":-82.41927,"zip":"25570","miles_from_dt":22.17},{"city":"Myra","state_name":"West Virginia","lat":38.23078,"lng":-82.11017,"zip":"25544","miles_from_dt":22.63},{"city":"Ashland","state_name":"Kentucky","lat":38.43069,"lng":-82.66744,"zip":"41105","miles_from_dt":22.73},{"city":"Branchland","state_name":"West Virginia","lat":38.20826,"lng":-82.18665,"zip":"25506","miles_from_dt":22.91},{"city":"Kerr","state_name":"Ohio","lat":38.87112,"lng":-82.26283,"zip":"45643","miles_from_dt":23.26},{"city":"Bancroft","state_name":"West Virginia","lat":38.51169,"lng":-81.8363,"zip":"25011","miles_from_dt":23.51},{"city":"Russell","state_name":"Kentucky","lat":38.52232,"lng":-82.71316,"zip":"41169","miles_from_dt":24.07},{"city":"Leon","state_name":"West Virginia","lat":38.73172,"lng":-81.90214,"zip":"25123","miles_from_dt":24.09},{"city":"Rio Grande","state_name":"Ohio","lat":38.87798,"lng":-82.38017,"zip":"45674","miles_from_dt":24.47},{"city":"East Lynn","state_name":"West Virginia","lat":38.17784,"lng":-82.32056,"zip":"25512","miles_from_dt":24.72},{"city":"Catlettsburg","state_name":"Kentucky","lat":38.31755,"lng":-82.64073,"zip":"41129","miles_from_dt":25.08},{"city":"Flatwoods","state_name":"Kentucky","lat":38.50927,"lng":-82.73288,"zip":"41139","miles_from_dt":25.18},{"city":"Point Pleasant","state_name":"West Virginia","lat":38.86655,"lng":-82.0749,"zip":"25550","miles_from_dt":25.23},{"city":"Worthington","state_name":"Kentucky","lat":38.55,"lng":-82.73707,"zip":"41183","miles_from_dt":25.37},{"city":"Nitro","state_name":"West Virginia","lat":38.42001,"lng":-81.82414,"zip":"25143","miles_from_dt":25.38},{"city":"Saint Albans","state_name":"West Virginia","lat":38.36928,"lng":-81.85021,"zip":"25177","miles_from_dt":25.41},{"city":"Ashland","state_name":"Kentucky","lat":38.42045,"lng":-82.72425,"zip":"41102","miles_from_dt":25.88},{"city":"Prichard","state_name":"West Virginia","lat":38.23525,"lng":-82.55913,"zip":"25555","miles_from_dt":25.93},{"city":"Griffithsville","state_name":"West Virginia","lat":38.22915,"lng":-81.98641,"zip":"25521","miles_from_dt":26.04},{"city":"Poca","state_name":"West Virginia","lat":38.50186,"lng":-81.7806,"zip":"25159","miles_from_dt":26.57},{"city":"Midkiff","state_name":"West Virginia","lat":38.15709,"lng":-82.13914,"zip":"25540","miles_from_dt":26.94},{"city":"Tornado","state_name":"West Virginia","lat":38.31593,"lng":-81.85372,"zip":"25202","miles_from_dt":27.1},{"city":"Bidwell","state_name":"Ohio","lat":38.92858,"lng":-82.27819,"zip":"45614","miles_from_dt":27.22},{"city":"Yawkey","state_name":"West Virginia","lat":38.22725,"lng":-81.94549,"zip":"25573","miles_from_dt":27.51},{"city":"Sod","state_name":"West Virginia","lat":38.26302,"lng":-81.88835,"zip":"25564","miles_from_dt":27.87},{"city":"Liberty","state_name":"West Virginia","lat":38.62006,"lng":-81.76536,"zip":"25124","miles_from_dt":27.92},{"city":"Charleston","state_name":"West Virginia","lat":38.44681,"lng":-81.75401,"zip":"25356","miles_from_dt":28.57},{"city":"Charleston","state_name":"West Virginia","lat":38.41547,"lng":-81.75704,"zip":"25313","miles_from_dt":28.95},{"city":"Institute","state_name":"West Virginia","lat":38.38103,"lng":-81.76633,"zip":"25112","miles_from_dt":29.25},{"city":"Thurman","state_name":"Ohio","lat":38.9333,"lng":-82.4527,"zip":"45685","miles_from_dt":29.27},{"city":"Oak Hill","state_name":"Ohio","lat":38.87565,"lng":-82.59143,"zip":"45656","miles_from_dt":29.3},{"city":"Haverhill","state_name":"Ohio","lat":38.58416,"lng":-82.81401,"zip":"45636","miles_from_dt":29.71},{"city":"South Webster","state_name":"Ohio","lat":38.80839,"lng":-82.69658,"zip":"45682","miles_from_dt":29.87},{"city":"Cheshire","state_name":"Ohio","lat":38.95564,"lng":-82.14052,"zip":"45620","miles_from_dt":29.9}],"targetCityZipCode":"25537","targetCityState":"West Virginia"},"__N_SSG":true}