{"pageProps":{"stateName":"Pennsylvania","cityName":"allentown","nearbyCities":[{"city":"Allentown","state_name":"Pennsylvania","lat":40.59981,"lng":-75.47029,"zip":"18105","miles_from_dt":0.22},{"city":"Allentown","state_name":"Pennsylvania","lat":40.60792,"lng":-75.47613,"zip":"18102","miles_from_dt":0.47},{"city":"Lehigh Valley","state_name":"Pennsylvania","lat":40.58033,"lng":-75.47498,"zip":"18001","miles_from_dt":1.59},{"city":"Allentown","state_name":"Pennsylvania","lat":40.57223,"lng":-75.48138,"zip":"18103","miles_from_dt":2.21},{"city":"Allentown","state_name":"Pennsylvania","lat":40.63673,"lng":-75.44043,"zip":"18109","miles_from_dt":2.79},{"city":"Lehigh Valley","state_name":"Pennsylvania","lat":40.64472,"lng":-75.43468,"zip":"18003","miles_from_dt":3.42},{"city":"Catasauqua","state_name":"Pennsylvania","lat":40.65694,"lng":-75.46776,"zip":"18032","miles_from_dt":3.72},{"city":"Allentown","state_name":"Pennsylvania","lat":40.61122,"lng":-75.54699,"zip":"18104","miles_from_dt":4.1},{"city":"Whitehall","state_name":"Pennsylvania","lat":40.65668,"lng":-75.50443,"zip":"18052","miles_from_dt":4.13},{"city":"Bethlehem","state_name":"Pennsylvania","lat":40.62766,"lng":-75.39538,"zip":"18018","miles_from_dt":4.27},{"city":"Emmaus","state_name":"Pennsylvania","lat":40.53845,"lng":-75.48389,"zip":"18098","miles_from_dt":4.52},{"city":"Emmaus","state_name":"Pennsylvania","lat":40.53396,"lng":-75.49794,"zip":"18099","miles_from_dt":4.99},{"city":"Center Valley","state_name":"Pennsylvania","lat":40.54182,"lng":-75.41654,"zip":"18034","miles_from_dt":5.07},{"city":"Bethlehem","state_name":"Pennsylvania","lat":40.62236,"lng":-75.37516,"zip":"18016","miles_from_dt":5.15},{"city":"Bethlehem","state_name":"Pennsylvania","lat":40.62507,"lng":-75.3712,"zip":"18025","miles_from_dt":5.4},{"city":"Bethlehem","state_name":"Pennsylvania","lat":40.5887,"lng":-75.36786,"zip":"18015","miles_from_dt":5.45},{"city":"Bethlehem","state_name":"Pennsylvania","lat":40.66069,"lng":-75.38739,"zip":"18017","miles_from_dt":5.88},{"city":"Emmaus","state_name":"Pennsylvania","lat":40.51912,"lng":-75.50018,"zip":"18049","miles_from_dt":6.01},{"city":"East Texas","state_name":"Pennsylvania","lat":40.54803,"lng":-75.56029,"zip":"18046","miles_from_dt":6.09},{"city":"Lehigh Valley","state_name":"Pennsylvania","lat":40.66966,"lng":-75.38022,"zip":"18002","miles_from_dt":6.58},{"city":"Limeport","state_name":"Pennsylvania","lat":40.50754,"lng":-75.44338,"zip":"18060","miles_from_dt":6.73},{"city":"Coplay","state_name":"Pennsylvania","lat":40.68203,"lng":-75.54638,"zip":"18037","miles_from_dt":6.78},{"city":"Allentown","state_name":"Pennsylvania","lat":40.57472,"lng":-75.59542,"zip":"18106","miles_from_dt":6.89},{"city":"Trexlertown","state_name":"Pennsylvania","lat":40.55398,"lng":-75.59588,"zip":"18087","miles_from_dt":7.45},{"city":"Coopersburg","state_name":"Pennsylvania","lat":40.50925,"lng":-75.38891,"zip":"18036","miles_from_dt":7.74},{"city":"Orefield","state_name":"Pennsylvania","lat":40.626,"lng":-75.616,"zip":"18069","miles_from_dt":7.85},{"city":"Northampton","state_name":"Pennsylvania","lat":40.71792,"lng":-75.47937,"zip":"18067","miles_from_dt":7.94},{"city":"Allentown","state_name":"Pennsylvania","lat":40.58427,"lng":-75.62479,"zip":"18195","miles_from_dt":8.25},{"city":"Old Zionsville","state_name":"Pennsylvania","lat":40.48776,"lng":-75.52217,"zip":"18068","miles_from_dt":8.42},{"city":"Bethlehem","state_name":"Pennsylvania","lat":40.67267,"lng":-75.32692,"zip":"18020","miles_from_dt":8.92},{"city":"Macungie","state_name":"Pennsylvania","lat":40.5035,"lng":-75.57886,"zip":"18062","miles_from_dt":8.95},{"city":"Laurys Station","state_name":"Pennsylvania","lat":40.7233,"lng":-75.53644,"zip":"18059","miles_from_dt":9.01},{"city":"Hellertown","state_name":"Pennsylvania","lat":40.58794,"lng":-75.29929,"zip":"18055","miles_from_dt":9.03},{"city":"Zionhill","state_name":"Pennsylvania","lat":40.48373,"lng":-75.39386,"zip":"18981","miles_from_dt":9.15},{"city":"Schnecksville","state_name":"Pennsylvania","lat":40.67181,"lng":-75.62096,"zip":"18078","miles_from_dt":9.26},{"city":"Zionsville","state_name":"Pennsylvania","lat":40.46844,"lng":-75.51372,"zip":"18092","miles_from_dt":9.57},{"city":"Neffs","state_name":"Pennsylvania","lat":40.69814,"lng":-75.61086,"zip":"18065","miles_from_dt":9.9},{"city":"Springtown","state_name":"Pennsylvania","lat":40.56236,"lng":-75.28396,"zip":"18081","miles_from_dt":10.17},{"city":"Treichlers","state_name":"Pennsylvania","lat":40.73867,"lng":-75.54757,"zip":"18086","miles_from_dt":10.21},{"city":"Breinigsville","state_name":"Pennsylvania","lat":40.554,"lng":-75.65361,"zip":"18031","miles_from_dt":10.24},{"city":"Fogelsville","state_name":"Pennsylvania","lat":40.59409,"lng":-75.66415,"zip":"18051","miles_from_dt":10.24},{"city":"Cherryville","state_name":"Pennsylvania","lat":40.75053,"lng":-75.54148,"zip":"18035","miles_from_dt":10.85},{"city":"Spinnerstown","state_name":"Pennsylvania","lat":40.43875,"lng":-75.4362,"zip":"18968","miles_from_dt":11.47},{"city":"Hereford","state_name":"Pennsylvania","lat":40.44798,"lng":-75.54911,"zip":"18056","miles_from_dt":11.48},{"city":"Richlandtown","state_name":"Pennsylvania","lat":40.48469,"lng":-75.3141,"zip":"18955","miles_from_dt":11.57},{"city":"Bath","state_name":"Pennsylvania","lat":40.7654,"lng":-75.40923,"zip":"18014","miles_from_dt":11.65},{"city":"Easton","state_name":"Pennsylvania","lat":40.6919,"lng":-75.27494,"zip":"18045","miles_from_dt":11.94},{"city":"Walnutport","state_name":"Pennsylvania","lat":40.76578,"lng":-75.5576,"zip":"18088","miles_from_dt":12.14},{"city":"Milford Square","state_name":"Pennsylvania","lat":40.43444,"lng":-75.39714,"zip":"18935","miles_from_dt":12.24},{"city":"Riegelsville","state_name":"Pennsylvania","lat":40.56603,"lng":-75.24115,"zip":"18077","miles_from_dt":12.3},{"city":"Palm","state_name":"Pennsylvania","lat":40.4317,"lng":-75.53884,"zip":"18070","miles_from_dt":12.37},{"city":"Quakertown","state_name":"Pennsylvania","lat":40.45294,"lng":-75.33833,"zip":"18951","miles_from_dt":12.46},{"city":"Slatington","state_name":"Pennsylvania","lat":40.73618,"lng":-75.63227,"zip":"18080","miles_from_dt":12.54},{"city":"Maxatawny","state_name":"Pennsylvania","lat":40.54655,"lng":-75.70023,"zip":"19538","miles_from_dt":12.73},{"city":"Alburtis","state_name":"Pennsylvania","lat":40.47288,"lng":-75.64395,"zip":"18011","miles_from_dt":12.83},{"city":"East Greenville","state_name":"Pennsylvania","lat":40.41742,"lng":-75.51306,"zip":"18041","miles_from_dt":13.01},{"city":"Durham","state_name":"Pennsylvania","lat":40.57631,"lng":-75.22419,"zip":"18039","miles_from_dt":13.05},{"city":"Nazareth","state_name":"Pennsylvania","lat":40.75755,"lng":-75.31927,"zip":"18064","miles_from_dt":13.28},{"city":"Danielsville","state_name":"Pennsylvania","lat":40.79574,"lng":-75.48246,"zip":"18038","miles_from_dt":13.32},{"city":"Easton","state_name":"Pennsylvania","lat":40.6497,"lng":-75.22376,"zip":"18042","miles_from_dt":13.33},{"city":"Mertztown","state_name":"Pennsylvania","lat":40.49071,"lng":-75.68823,"zip":"19539","miles_from_dt":13.86},{"city":"Slatedale","state_name":"Pennsylvania","lat":40.74415,"lng":-75.65754,"zip":"18079","miles_from_dt":13.86},{"city":"Trumbauersville","state_name":"Pennsylvania","lat":40.41212,"lng":-75.38129,"zip":"18970","miles_from_dt":13.97},{"city":"Topton","state_name":"Pennsylvania","lat":40.50316,"lng":-75.70135,"zip":"19562","miles_from_dt":14},{"city":"Kintnersville","state_name":"Pennsylvania","lat":40.52926,"lng":-75.2142,"zip":"18930","miles_from_dt":14.38},{"city":"Easton","state_name":"Pennsylvania","lat":40.69004,"lng":-75.22003,"zip":"18044","miles_from_dt":14.44},{"city":"Easton","state_name":"Pennsylvania","lat":40.69,"lng":-75.22001,"zip":"18043","miles_from_dt":14.44},{"city":"Bally","state_name":"Pennsylvania","lat":40.40808,"lng":-75.5755,"zip":"19503","miles_from_dt":14.56},{"city":"Tatamy","state_name":"Pennsylvania","lat":40.74174,"lng":-75.25434,"zip":"18085","miles_from_dt":14.82},{"city":"Germansville","state_name":"Pennsylvania","lat":40.71802,"lng":-75.70999,"zip":"18053","miles_from_dt":14.91},{"city":"Barto","state_name":"Pennsylvania","lat":40.40699,"lng":-75.58965,"zip":"19504","miles_from_dt":14.93},{"city":"New Tripoli","state_name":"Pennsylvania","lat":40.6635,"lng":-75.74492,"zip":"18066","miles_from_dt":15.05},{"city":"Stockertown","state_name":"Pennsylvania","lat":40.75494,"lng":-75.2637,"zip":"18083","miles_from_dt":15.07},{"city":"Pennsburg","state_name":"Pennsylvania","lat":40.38378,"lng":-75.47702,"zip":"18073","miles_from_dt":15.13},{"city":"Aquashicola","state_name":"Pennsylvania","lat":40.81135,"lng":-75.59158,"zip":"18012","miles_from_dt":15.73},{"city":"Red Hill","state_name":"Pennsylvania","lat":40.37382,"lng":-75.48154,"zip":"18076","miles_from_dt":15.83},{"city":"Easton","state_name":"Pennsylvania","lat":40.7459,"lng":-75.22172,"zip":"18040","miles_from_dt":16.34},{"city":"Ferndale","state_name":"Pennsylvania","lat":40.52946,"lng":-75.1738,"zip":"18921","miles_from_dt":16.38},{"city":"Bowers","state_name":"Pennsylvania","lat":40.48473,"lng":-75.74381,"zip":"19511","miles_from_dt":16.57},{"city":"Kutztown","state_name":"Pennsylvania","lat":40.54012,"lng":-75.77675,"zip":"19530","miles_from_dt":16.72},{"city":"Palmerton","state_name":"Pennsylvania","lat":40.83098,"lng":-75.57843,"zip":"18071","miles_from_dt":16.73},{"city":"Revere","state_name":"Pennsylvania","lat":40.52487,"lng":-75.16262,"zip":"18953","miles_from_dt":17.04},{"city":"Bowmanstown","state_name":"Pennsylvania","lat":40.80408,"lng":-75.66336,"zip":"18030","miles_from_dt":17.2},{"city":"Wind Gap","state_name":"Pennsylvania","lat":40.82656,"lng":-75.32068,"zip":"18091","miles_from_dt":17.3},{"city":"Green Lane","state_name":"Pennsylvania","lat":40.35321,"lng":-75.43824,"zip":"18054","miles_from_dt":17.32},{"city":"Lyon Station","state_name":"Pennsylvania","lat":40.48069,"lng":-75.75891,"zip":"19536","miles_from_dt":17.4},{"city":"Bechtelsville","state_name":"Pennsylvania","lat":40.3795,"lng":-75.62331,"zip":"19505","miles_from_dt":17.41},{"city":"Ashfield","state_name":"Pennsylvania","lat":40.77292,"lng":-75.71883,"zip":"18212","miles_from_dt":17.57},{"city":"Tylersport","state_name":"Pennsylvania","lat":40.35009,"lng":-75.38443,"zip":"18971","miles_from_dt":18.02},{"city":"Sellersville","state_name":"Pennsylvania","lat":40.36376,"lng":-75.32366,"zip":"18960","miles_from_dt":18.22},{"city":"Phillipsburg","state_name":"New Jersey","lat":40.7094,"lng":-75.15109,"zip":"08865","miles_from_dt":18.29},{"city":"Parryville","state_name":"Pennsylvania","lat":40.82361,"lng":-75.66879,"zip":"18244","miles_from_dt":18.46},{"city":"Ottsville","state_name":"Pennsylvania","lat":40.47167,"lng":-75.16261,"zip":"18942","miles_from_dt":18.54},{"city":"Sumneytown","state_name":"Pennsylvania","lat":40.33258,"lng":-75.45839,"zip":"18084","miles_from_dt":18.67},{"city":"Upper Black Eddy","state_name":"Pennsylvania","lat":40.53395,"lng":-75.11997,"zip":"18972","miles_from_dt":19.01},{"city":"Sassamansville","state_name":"Pennsylvania","lat":40.34036,"lng":-75.58189,"zip":"19472","miles_from_dt":19.06},{"city":"Perkasie","state_name":"Pennsylvania","lat":40.39252,"lng":-75.23381,"zip":"18944","miles_from_dt":19.12},{"city":"Martins Creek","state_name":"Pennsylvania","lat":40.78229,"lng":-75.18164,"zip":"18063","miles_from_dt":19.55},{"city":"Bedminster","state_name":"Pennsylvania","lat":40.42639,"lng":-75.17937,"zip":"18910","miles_from_dt":19.56},{"city":"Frederick","state_name":"Pennsylvania","lat":40.32788,"lng":-75.56518,"zip":"19435","miles_from_dt":19.64},{"city":"Bloomsbury","state_name":"New Jersey","lat":40.64412,"lng":-75.09936,"zip":"08804","miles_from_dt":19.68},{"city":"Milford","state_name":"New Jersey","lat":40.59386,"lng":-75.09569,"zip":"08848","miles_from_dt":19.69},{"city":"Perkiomenville","state_name":"Pennsylvania","lat":40.31971,"lng":-75.51424,"zip":"18074","miles_from_dt":19.69},{"city":"Telford","state_name":"Pennsylvania","lat":40.32644,"lng":-75.37239,"zip":"18969","miles_from_dt":19.76},{"city":"Lehighton","state_name":"Pennsylvania","lat":40.83603,"lng":-75.692,"zip":"18235","miles_from_dt":19.86},{"city":"Earlington","state_name":"Pennsylvania","lat":40.32391,"lng":-75.37711,"zip":"18918","miles_from_dt":19.87},{"city":"New Berlinville","state_name":"Pennsylvania","lat":40.3411,"lng":-75.62977,"zip":"19545","miles_from_dt":19.94},{"city":"Kunkletown","state_name":"Pennsylvania","lat":40.8922,"lng":-75.49094,"zip":"18058","miles_from_dt":19.99},{"city":"Pen Argyl","state_name":"Pennsylvania","lat":40.84548,"lng":-75.25842,"zip":"18072","miles_from_dt":20.08},{"city":"Stewartsville","state_name":"New Jersey","lat":40.69302,"lng":-75.10565,"zip":"08886","miles_from_dt":20.12},{"city":"Woxall","state_name":"Pennsylvania","lat":40.31151,"lng":-75.44922,"zip":"18979","miles_from_dt":20.14},{"city":"Kresgeville","state_name":"Pennsylvania","lat":40.89833,"lng":-75.49104,"zip":"18333","miles_from_dt":20.41},{"city":"Boyertown","state_name":"Pennsylvania","lat":40.35,"lng":-75.67937,"zip":"19512","miles_from_dt":20.66},{"city":"Silverdale","state_name":"Pennsylvania","lat":40.34462,"lng":-75.27033,"zip":"18962","miles_from_dt":20.7},{"city":"Kempton","state_name":"Pennsylvania","lat":40.63387,"lng":-75.86158,"zip":"19529","miles_from_dt":20.71},{"city":"Blooming Glen","state_name":"Pennsylvania","lat":40.35987,"lng":-75.23369,"zip":"18911","miles_from_dt":20.89},{"city":"Andreas","state_name":"Pennsylvania","lat":40.74315,"lng":-75.82314,"zip":"18211","miles_from_dt":20.93},{"city":"Saylorsburg","state_name":"Pennsylvania","lat":40.89848,"lng":-75.36953,"zip":"18353","miles_from_dt":21.06},{"city":"Fleetwood","state_name":"Pennsylvania","lat":40.44948,"lng":-75.81676,"zip":"19522","miles_from_dt":21.12},{"city":"Gilbert","state_name":"Pennsylvania","lat":40.90878,"lng":-75.44076,"zip":"18331","miles_from_dt":21.15},{"city":"Salford","state_name":"Pennsylvania","lat":40.29607,"lng":-75.45339,"zip":"18957","miles_from_dt":21.2},{"city":"Gilbertsville","state_name":"Pennsylvania","lat":40.30784,"lng":-75.58591,"zip":"19525","miles_from_dt":21.27},{"city":"Dublin","state_name":"Pennsylvania","lat":40.37088,"lng":-75.202,"zip":"18917","miles_from_dt":21.34},{"city":"Erwinna","state_name":"Pennsylvania","lat":40.49264,"lng":-75.09067,"zip":"18920","miles_from_dt":21.36},{"city":"Salfordville","state_name":"Pennsylvania","lat":40.29393,"lng":-75.43295,"zip":"18958","miles_from_dt":21.41},{"city":"Little York","state_name":"New Jersey","lat":40.60764,"lng":-75.05804,"zip":"08834","miles_from_dt":21.66},{"city":"Lenhartsville","state_name":"Pennsylvania","lat":40.57813,"lng":-75.88111,"zip":"19534","miles_from_dt":21.7},{"city":"Oley","state_name":"Pennsylvania","lat":40.38315,"lng":-75.76644,"zip":"19547","miles_from_dt":21.78},{"city":"Zieglerville","state_name":"Pennsylvania","lat":40.28817,"lng":-75.50623,"zip":"19492","miles_from_dt":21.81},{"city":"Virginville","state_name":"Pennsylvania","lat":40.51926,"lng":-75.87403,"zip":"19564","miles_from_dt":22.04},{"city":"Souderton","state_name":"Pennsylvania","lat":40.29759,"lng":-75.33327,"zip":"18964","miles_from_dt":22.27},{"city":"Spring Mount","state_name":"Pennsylvania","lat":40.28011,"lng":-75.46001,"zip":"19478","miles_from_dt":22.29},{"city":"Pipersville","state_name":"Pennsylvania","lat":40.42677,"lng":-75.1138,"zip":"18947","miles_from_dt":22.35},{"city":"Brodheadsville","state_name":"Pennsylvania","lat":40.9221,"lng":-75.39714,"zip":"18322","miles_from_dt":22.35},{"city":"Plumsteadville","state_name":"Pennsylvania","lat":40.38488,"lng":-75.14631,"zip":"18949","miles_from_dt":22.74},{"city":"Harleysville","state_name":"Pennsylvania","lat":40.2783,"lng":-75.39044,"zip":"19441","miles_from_dt":22.79},{"city":"Hilltown","state_name":"Pennsylvania","lat":40.31952,"lng":-75.24514,"zip":"18927","miles_from_dt":22.86},{"city":"Harleysville","state_name":"Pennsylvania","lat":40.27018,"lng":-75.39554,"zip":"19438","miles_from_dt":23.3},{"city":"Bangor","state_name":"Pennsylvania","lat":40.85511,"lng":-75.17114,"zip":"18013","miles_from_dt":23.42},{"city":"Fountainville","state_name":"Pennsylvania","lat":40.3532,"lng":-75.16798,"zip":"18923","miles_from_dt":23.45},{"city":"Sciota","state_name":"Pennsylvania","lat":40.92561,"lng":-75.32831,"zip":"18354","miles_from_dt":23.47},{"city":"Broadway","state_name":"New Jersey","lat":40.72559,"lng":-75.04837,"zip":"08808","miles_from_dt":23.7},{"city":"Lederach","state_name":"Pennsylvania","lat":40.26193,"lng":-75.40575,"zip":"19450","miles_from_dt":23.78},{"city":"Schwenksville","state_name":"Pennsylvania","lat":40.25842,"lng":-75.47363,"zip":"19473","miles_from_dt":23.78},{"city":"Point Pleasant","state_name":"Pennsylvania","lat":40.44709,"lng":-75.06544,"zip":"18950","miles_from_dt":23.85},{"city":"Hatfield","state_name":"Pennsylvania","lat":40.285,"lng":-75.29102,"zip":"19440","miles_from_dt":23.88},{"city":"Asbury","state_name":"New Jersey","lat":40.6783,"lng":-75.02515,"zip":"08802","miles_from_dt":23.94},{"city":"Line Lexington","state_name":"Pennsylvania","lat":40.29457,"lng":-75.25581,"zip":"18932","miles_from_dt":24.09},{"city":"Blandon","state_name":"Pennsylvania","lat":40.44551,"lng":-75.88179,"zip":"19510","miles_from_dt":24.26},{"city":"Frenchtown","state_name":"New Jersey","lat":40.51353,"lng":-75.02341,"zip":"08825","miles_from_dt":24.29},{"city":"Mainland","state_name":"Pennsylvania","lat":40.26003,"lng":-75.36002,"zip":"19451","miles_from_dt":24.36},{"city":"Earlville","state_name":"Pennsylvania","lat":40.315,"lng":-75.73839,"zip":"19519","miles_from_dt":24.4},{"city":"Danboro","state_name":"Pennsylvania","lat":40.355,"lng":-75.13268,"zip":"18916","miles_from_dt":24.66},{"city":"Pottstown","state_name":"Pennsylvania","lat":40.25882,"lng":-75.616,"zip":"19464","miles_from_dt":24.97},{"city":"Limekiln","state_name":"Pennsylvania","lat":40.3394,"lng":-75.79537,"zip":"19535","miles_from_dt":25},{"city":"Effort","state_name":"Pennsylvania","lat":40.96505,"lng":-75.45285,"zip":"18330","miles_from_dt":25},{"city":"Pine Forge","state_name":"Pennsylvania","lat":40.28274,"lng":-75.69204,"zip":"19548","miles_from_dt":25.01},{"city":"Jim Thorpe","state_name":"Pennsylvania","lat":40.93245,"lng":-75.68247,"zip":"18229","miles_from_dt":25.32},{"city":"Summit Hill","state_name":"Pennsylvania","lat":40.81744,"lng":-75.86145,"zip":"18250","miles_from_dt":25.33},{"city":"Colmar","state_name":"Pennsylvania","lat":40.27255,"lng":-75.25628,"zip":"18915","miles_from_dt":25.43},{"city":"Chalfont","state_name":"Pennsylvania","lat":40.28908,"lng":-75.21046,"zip":"18914","miles_from_dt":25.61},{"city":"Kulpsville","state_name":"Pennsylvania","lat":40.24412,"lng":-75.33915,"zip":"19443","miles_from_dt":25.7},{"city":"New Ringgold","state_name":"Pennsylvania","lat":40.69932,"lng":-75.94656,"zip":"17960","miles_from_dt":25.92},{"city":"Doylestown","state_name":"Pennsylvania","lat":40.35474,"lng":-75.09855,"zip":"18902","miles_from_dt":26},{"city":"Temple","state_name":"Pennsylvania","lat":40.40053,"lng":-75.88993,"zip":"19560","miles_from_dt":26.17},{"city":"Skippack","state_name":"Pennsylvania","lat":40.22427,"lng":-75.40507,"zip":"19474","miles_from_dt":26.35},{"city":"Shoemakersville","state_name":"Pennsylvania","lat":40.49335,"lng":-75.94993,"zip":"19555","miles_from_dt":26.38},{"city":"Washington","state_name":"New Jersey","lat":40.75327,"lng":-75.00748,"zip":"07882","miles_from_dt":26.41},{"city":"Lumberville","state_name":"Pennsylvania","lat":40.40265,"lng":-75.042,"zip":"18933","miles_from_dt":26.44},{"city":"Hampton","state_name":"New Jersey","lat":40.66775,"lng":-74.97351,"zip":"08827","miles_from_dt":26.47},{"city":"Pittstown","state_name":"New Jersey","lat":40.57513,"lng":-74.96777,"zip":"08867","miles_from_dt":26.48},{"city":"Doylestown","state_name":"Pennsylvania","lat":40.30529,"lng":-75.15026,"zip":"18901","miles_from_dt":26.56},{"city":"Creamery","state_name":"Pennsylvania","lat":40.22035,"lng":-75.41455,"zip":"19430","miles_from_dt":26.56},{"city":"Nesquehoning","state_name":"Pennsylvania","lat":40.86279,"lng":-75.84727,"zip":"18240","miles_from_dt":26.72},{"city":"Lansford","state_name":"Pennsylvania","lat":40.83515,"lng":-75.87939,"zip":"18232","miles_from_dt":26.81},{"city":"Carversville","state_name":"Pennsylvania","lat":40.37727,"lng":-75.0545,"zip":"18913","miles_from_dt":26.86},{"city":"Lansdale","state_name":"Pennsylvania","lat":40.23068,"lng":-75.30369,"zip":"19446","miles_from_dt":27.14},{"city":"Douglassville","state_name":"Pennsylvania","lat":40.27187,"lng":-75.74981,"zip":"19518","miles_from_dt":27.2},{"city":"Stroudsburg","state_name":"Pennsylvania","lat":40.97254,"lng":-75.28562,"zip":"18360","miles_from_dt":27.27},{"city":"Belvidere","state_name":"New Jersey","lat":40.82589,"lng":-75.03781,"zip":"07823","miles_from_dt":27.4},{"city":"Cedars","state_name":"Pennsylvania","lat":40.212,"lng":-75.37831,"zip":"19423","miles_from_dt":27.41},{"city":"Mechanicsville","state_name":"Pennsylvania","lat":40.34663,"lng":-75.07211,"zip":"18934","miles_from_dt":27.42},{"city":"Royersford","state_name":"Pennsylvania","lat":40.20776,"lng":-75.53137,"zip":"19468","miles_from_dt":27.46},{"city":"Reading","state_name":"Pennsylvania","lat":40.3357,"lng":-75.85755,"zip":"19606","miles_from_dt":27.53},{"city":"Mount Bethel","state_name":"Pennsylvania","lat":40.89043,"lng":-75.1058,"zip":"18343","miles_from_dt":27.54},{"city":"Quakertown","state_name":"New Jersey","lat":40.56607,"lng":-74.94355,"zip":"08868","miles_from_dt":27.8},{"city":"Coaldale","state_name":"Pennsylvania","lat":40.81974,"lng":-75.91611,"zip":"18218","miles_from_dt":27.8},{"city":"Rosemont","state_name":"New Jersey","lat":40.42097,"lng":-74.9951,"zip":"08556","miles_from_dt":27.98},{"city":"Hamburg","state_name":"Pennsylvania","lat":40.5465,"lng":-75.99802,"zip":"19526","miles_from_dt":28.06},{"city":"Parker Ford","state_name":"Pennsylvania","lat":40.20512,"lng":-75.58758,"zip":"19457","miles_from_dt":28.15},{"city":"Albrightsville","state_name":"Pennsylvania","lat":41.00057,"lng":-75.59146,"zip":"18210","miles_from_dt":28.16},{"city":"Reading","state_name":"Pennsylvania","lat":40.36608,"lng":-75.91368,"zip":"19612","miles_from_dt":28.53},{"city":"Collegeville","state_name":"Pennsylvania","lat":40.18972,"lng":-75.43734,"zip":"19426","miles_from_dt":28.57},{"city":"Reeders","state_name":"Pennsylvania","lat":40.9897,"lng":-75.27501,"zip":"18352","miles_from_dt":28.57},{"city":"Stockton","state_name":"New Jersey","lat":40.4387,"lng":-74.9716,"zip":"08559","miles_from_dt":28.58},{"city":"Montgomeryville","state_name":"Pennsylvania","lat":40.22993,"lng":-75.23154,"zip":"18936","miles_from_dt":28.64},{"city":"Reading","state_name":"Pennsylvania","lat":40.35791,"lng":-75.90954,"zip":"19604","miles_from_dt":28.68},{"city":"Worcester","state_name":"Pennsylvania","lat":40.19673,"lng":-75.35401,"zip":"19490","miles_from_dt":28.69},{"city":"Reading","state_name":"Pennsylvania","lat":40.39917,"lng":-75.94596,"zip":"19605","miles_from_dt":28.75},{"city":"Solebury","state_name":"Pennsylvania","lat":40.38068,"lng":-75.00825,"zip":"18963","miles_from_dt":28.75},{"city":"North Wales","state_name":"Pennsylvania","lat":40.22303,"lng":-75.24365,"zip":"19454","miles_from_dt":28.8},{"city":"West Point","state_name":"Pennsylvania","lat":40.20665,"lng":-75.2985,"zip":"19486","miles_from_dt":28.8},{"city":"Clinton","state_name":"New Jersey","lat":40.64973,"lng":-74.92503,"zip":"08809","miles_from_dt":28.82},{"city":"Holicong","state_name":"Pennsylvania","lat":40.33594,"lng":-75.04855,"zip":"18928","miles_from_dt":28.85},{"city":"North Wales","state_name":"Pennsylvania","lat":40.21106,"lng":-75.2779,"zip":"19455","miles_from_dt":28.88},{"city":"Changewater","state_name":"New Jersey","lat":40.73909,"lng":-74.94678,"zip":"07831","miles_from_dt":29.04},{"city":"Lahaska","state_name":"Pennsylvania","lat":40.34779,"lng":-75.0315,"zip":"18931","miles_from_dt":29.04},{"city":"Delaware","state_name":"New Jersey","lat":40.89422,"lng":-75.06979,"zip":"07833","miles_from_dt":29.06},{"city":"Buckingham","state_name":"Pennsylvania","lat":40.32134,"lng":-75.05852,"zip":"18912","miles_from_dt":29.11},{"city":"Centerport","state_name":"Pennsylvania","lat":40.48686,"lng":-76.00526,"zip":"19516","miles_from_dt":29.3},{"city":"Port Clinton","state_name":"Pennsylvania","lat":40.58176,"lng":-76.02672,"zip":"19549","miles_from_dt":29.33},{"city":"Tamaqua","state_name":"Pennsylvania","lat":40.77857,"lng":-75.97893,"zip":"18252","miles_from_dt":29.36},{"city":"Portland","state_name":"Pennsylvania","lat":40.92321,"lng":-75.10063,"zip":"18351","miles_from_dt":29.38},{"city":"Weatherly","state_name":"Pennsylvania","lat":40.93308,"lng":-75.82996,"zip":"18255","miles_from_dt":29.59},{"city":"Sergeantsville","state_name":"New Jersey","lat":40.44541,"lng":-74.94305,"zip":"08557","miles_from_dt":29.79},{"city":"Pottstown","state_name":"Pennsylvania","lat":40.19981,"lng":-75.6727,"zip":"19465","miles_from_dt":29.81},{"city":"Gwynedd","state_name":"Pennsylvania","lat":40.20253,"lng":-75.24842,"zip":"19436","miles_from_dt":30}],"targetCityZipCode":"18101","targetCityState":"Pennsylvania"},"__N_SSG":true}