{"pageProps":{"stateName":"Pennsylvania","cityName":"beaver-falls","nearbyCities":[{"city":"Beaver","state_name":"Pennsylvania","lat":40.69933,"lng":-80.36464,"zip":"15009","miles_from_dt":4.77},{"city":"Koppel","state_name":"Pennsylvania","lat":40.83425,"lng":-80.32369,"zip":"16136","miles_from_dt":4.91},{"city":"New Brighton","state_name":"Pennsylvania","lat":40.75119,"lng":-80.25269,"zip":"15066","miles_from_dt":5.69},{"city":"Darlington","state_name":"Pennsylvania","lat":40.79433,"lng":-80.46289,"zip":"16115","miles_from_dt":5.75},{"city":"New Galilee","state_name":"Pennsylvania","lat":40.87237,"lng":-80.3968,"zip":"16141","miles_from_dt":7.45},{"city":"Rochester","state_name":"Pennsylvania","lat":40.72837,"lng":-80.21937,"zip":"15074","miles_from_dt":7.81},{"city":"Monaca","state_name":"Pennsylvania","lat":40.66013,"lng":-80.31082,"zip":"15061","miles_from_dt":7.88},{"city":"Industry","state_name":"Pennsylvania","lat":40.6669,"lng":-80.43318,"zip":"15052","miles_from_dt":8.01},{"city":"Wampum","state_name":"Pennsylvania","lat":40.88902,"lng":-80.33509,"zip":"16157","miles_from_dt":8.42},{"city":"Ellwood City","state_name":"Pennsylvania","lat":40.8743,"lng":-80.2568,"zip":"16117","miles_from_dt":9.06},{"city":"Midland","state_name":"Pennsylvania","lat":40.68056,"lng":-80.49182,"zip":"15059","miles_from_dt":9.24},{"city":"Fombell","state_name":"Pennsylvania","lat":40.82389,"lng":-80.19844,"zip":"16123","miles_from_dt":9.24},{"city":"Conway","state_name":"Pennsylvania","lat":40.66706,"lng":-80.23988,"zip":"15027","miles_from_dt":9.37},{"city":"Freedom","state_name":"Pennsylvania","lat":40.68786,"lng":-80.20411,"zip":"15042","miles_from_dt":9.83},{"city":"Negley","state_name":"Ohio","lat":40.75802,"lng":-80.55264,"zip":"44441","miles_from_dt":10.2},{"city":"Shippingport","state_name":"Pennsylvania","lat":40.62517,"lng":-80.4173,"zip":"15077","miles_from_dt":10.34},{"city":"Enon Valley","state_name":"Pennsylvania","lat":40.892,"lng":-80.47344,"zip":"16120","miles_from_dt":10.44},{"city":"West Pittsburg","state_name":"Pennsylvania","lat":40.9283,"lng":-80.36235,"zip":"16160","miles_from_dt":11.04},{"city":"East Palestine","state_name":"Ohio","lat":40.84803,"lng":-80.5549,"zip":"44413","miles_from_dt":11.66},{"city":"Zelienople","state_name":"Pennsylvania","lat":40.76352,"lng":-80.12773,"zip":"16063","miles_from_dt":12.12},{"city":"Aliquippa","state_name":"Pennsylvania","lat":40.59161,"lng":-80.32078,"zip":"15001","miles_from_dt":12.35},{"city":"Baden","state_name":"Pennsylvania","lat":40.64431,"lng":-80.17607,"zip":"15005","miles_from_dt":12.85},{"city":"Rogers","state_name":"Ohio","lat":40.77581,"lng":-80.60485,"zip":"44455","miles_from_dt":12.92},{"city":"East Liverpool","state_name":"Ohio","lat":40.67608,"lng":-80.57965,"zip":"43920","miles_from_dt":13.23},{"city":"Harmony","state_name":"Pennsylvania","lat":40.85103,"lng":-80.12592,"zip":"16037","miles_from_dt":13.48},{"city":"New Castle","state_name":"Pennsylvania","lat":40.96173,"lng":-80.41616,"zip":"16102","miles_from_dt":13.68},{"city":"Ambridge","state_name":"Pennsylvania","lat":40.60153,"lng":-80.21415,"zip":"15003","miles_from_dt":13.79},{"city":"Cranberry Township","state_name":"Pennsylvania","lat":40.71114,"lng":-80.10606,"zip":"16066","miles_from_dt":13.84},{"city":"Petersburg","state_name":"Ohio","lat":40.9197,"lng":-80.53976,"zip":"44454","miles_from_dt":14.11},{"city":"New Waterford","state_name":"Ohio","lat":40.84834,"lng":-80.61732,"zip":"44445","miles_from_dt":14.64},{"city":"South Heights","state_name":"Pennsylvania","lat":40.57471,"lng":-80.23614,"zip":"15081","miles_from_dt":14.83},{"city":"Hookstown","state_name":"Pennsylvania","lat":40.5617,"lng":-80.44038,"zip":"15050","miles_from_dt":14.89},{"city":"Warrendale","state_name":"Pennsylvania","lat":40.67161,"lng":-80.10344,"zip":"15096","miles_from_dt":14.97},{"city":"Curllsville","state_name":"Pennsylvania","lat":40.98826,"lng":-80.29541,"zip":"16221","miles_from_dt":15.54},{"city":"New Castle","state_name":"Pennsylvania","lat":40.98826,"lng":-80.29541,"zip":"16108","miles_from_dt":15.54},{"city":"Warrendale","state_name":"Pennsylvania","lat":40.664,"lng":-80.09593,"zip":"15086","miles_from_dt":15.56},{"city":"New Castle","state_name":"Pennsylvania","lat":40.98776,"lng":-80.28814,"zip":"16101","miles_from_dt":15.59},{"city":"Bessemer","state_name":"Pennsylvania","lat":40.96812,"lng":-80.50099,"zip":"16112","miles_from_dt":15.67},{"city":"Warrendale","state_name":"Pennsylvania","lat":40.6433,"lng":-80.10951,"zip":"15095","miles_from_dt":15.67},{"city":"Chester","state_name":"West Virginia","lat":40.59404,"lng":-80.55258,"zip":"26034","miles_from_dt":15.76},{"city":"Leetsdale","state_name":"Pennsylvania","lat":40.56512,"lng":-80.21407,"zip":"15056","miles_from_dt":15.95},{"city":"New Castle","state_name":"Pennsylvania","lat":40.99983,"lng":-80.35011,"zip":"16103","miles_from_dt":15.98},{"city":"New Castle","state_name":"Pennsylvania","lat":40.99992,"lng":-80.35011,"zip":"16107","miles_from_dt":15.99},{"city":"Crescent","state_name":"Pennsylvania","lat":40.55618,"lng":-80.22868,"zip":"15046","miles_from_dt":16.15},{"city":"Georgetown","state_name":"Pennsylvania","lat":40.55585,"lng":-80.48994,"zip":"15043","miles_from_dt":16.2},{"city":"New Springfield","state_name":"Ohio","lat":40.92351,"lng":-80.59473,"zip":"44443","miles_from_dt":16.36},{"city":"Evans City","state_name":"Pennsylvania","lat":40.79355,"lng":-80.04618,"zip":"16033","miles_from_dt":16.49},{"city":"Portersville","state_name":"Pennsylvania","lat":40.94459,"lng":-80.14152,"zip":"16051","miles_from_dt":16.66},{"city":"New Middletown","state_name":"Ohio","lat":40.96591,"lng":-80.54963,"zip":"44442","miles_from_dt":16.91},{"city":"Callery","state_name":"Pennsylvania","lat":40.73961,"lng":-80.03719,"zip":"16024","miles_from_dt":16.99},{"city":"Bradfordwoods","state_name":"Pennsylvania","lat":40.63622,"lng":-80.08164,"zip":"15015","miles_from_dt":17.17},{"city":"Sewickley","state_name":"Pennsylvania","lat":40.57298,"lng":-80.14725,"zip":"15143","miles_from_dt":17.47},{"city":"Clinton","state_name":"Pennsylvania","lat":40.51043,"lng":-80.35662,"zip":"15026","miles_from_dt":17.79},{"city":"Mars","state_name":"Pennsylvania","lat":40.70192,"lng":-80.02866,"zip":"16046","miles_from_dt":17.92},{"city":"Hillsville","state_name":"Pennsylvania","lat":41.00603,"lng":-80.50449,"zip":"16132","miles_from_dt":18.09},{"city":"Elkton","state_name":"Ohio","lat":40.77068,"lng":-80.70455,"zip":"44415","miles_from_dt":18.14},{"city":"Wexford","state_name":"Pennsylvania","lat":40.62587,"lng":-80.06766,"zip":"15090","miles_from_dt":18.17},{"city":"Newell","state_name":"West Virginia","lat":40.60108,"lng":-80.62646,"zip":"26050","miles_from_dt":18.19},{"city":"Prospect","state_name":"Pennsylvania","lat":40.90579,"lng":-80.06154,"zip":"16052","miles_from_dt":18.24},{"city":"Connoquenessing","state_name":"Pennsylvania","lat":40.81822,"lng":-80.01531,"zip":"16027","miles_from_dt":18.34},{"city":"West Point","state_name":"Ohio","lat":40.70796,"lng":-80.70221,"zip":"44492","miles_from_dt":18.5},{"city":"Columbiana","state_name":"Ohio","lat":40.88487,"lng":-80.68569,"zip":"44408","miles_from_dt":18.93},{"city":"Edinburg","state_name":"Pennsylvania","lat":41.03744,"lng":-80.45212,"zip":"16116","miles_from_dt":19.21},{"city":"Wellsville","state_name":"Ohio","lat":40.63365,"lng":-80.68729,"zip":"43968","miles_from_dt":19.6},{"city":"New Castle","state_name":"Pennsylvania","lat":41.05285,"lng":-80.33918,"zip":"16105","miles_from_dt":19.66},{"city":"Renfrew","state_name":"Pennsylvania","lat":40.81194,"lng":-79.9826,"zip":"16053","miles_from_dt":19.95},{"city":"North Lima","state_name":"Ohio","lat":40.94711,"lng":-80.66232,"zip":"44452","miles_from_dt":20.13},{"city":"New Cumberland","state_name":"West Virginia","lat":40.53223,"lng":-80.5837,"zip":"26047","miles_from_dt":20.13},{"city":"Ingomar","state_name":"Pennsylvania","lat":40.58104,"lng":-80.06113,"zip":"15127","miles_from_dt":20.28},{"city":"Coraopolis","state_name":"Pennsylvania","lat":40.50006,"lng":-80.20031,"zip":"15108","miles_from_dt":20.3},{"city":"New Manchester","state_name":"West Virginia","lat":40.5211,"lng":-80.57022,"zip":"26056","miles_from_dt":20.36},{"city":"Pittsburgh","state_name":"Pennsylvania","lat":40.50277,"lng":-80.18917,"zip":"15231","miles_from_dt":20.37},{"city":"Youngstown","state_name":"Ohio","lat":40.99838,"lng":-80.60868,"zip":"44514","miles_from_dt":20.58},{"city":"Lisbon","state_name":"Ohio","lat":40.74974,"lng":-80.75149,"zip":"44432","miles_from_dt":20.65},{"city":"Leetonia","state_name":"Ohio","lat":40.84748,"lng":-80.75365,"zip":"44431","miles_from_dt":21.41},{"city":"Imperial","state_name":"Pennsylvania","lat":40.46019,"lng":-80.28727,"zip":"15126","miles_from_dt":21.59},{"city":"Stratton","state_name":"Ohio","lat":40.52343,"lng":-80.63025,"zip":"43961","miles_from_dt":22.12},{"city":"Villa Maria","state_name":"Pennsylvania","lat":41.06771,"lng":-80.51073,"zip":"16155","miles_from_dt":22.14},{"city":"Lowellville","state_name":"Ohio","lat":41.05775,"lng":-80.54241,"zip":"44436","miles_from_dt":22.17},{"city":"Pittsburgh","state_name":"Pennsylvania","lat":40.50636,"lng":-80.1116,"zip":"15225","miles_from_dt":22.26},{"city":"Pittsburgh","state_name":"Pennsylvania","lat":40.54834,"lng":-80.04682,"zip":"15237","miles_from_dt":22.34},{"city":"Empire","state_name":"Ohio","lat":40.51068,"lng":-80.62252,"zip":"43926","miles_from_dt":22.54},{"city":"Struthers","state_name":"Ohio","lat":41.04793,"lng":-80.58973,"zip":"44471","miles_from_dt":22.77},{"city":"Pittsburgh","state_name":"Pennsylvania","lat":40.51194,"lng":-80.07968,"zip":"15278","miles_from_dt":22.98},{"city":"Valencia","state_name":"Pennsylvania","lat":40.70425,"lng":-79.92812,"zip":"16059","miles_from_dt":23.03},{"city":"Gibsonia","state_name":"Pennsylvania","lat":40.64009,"lng":-79.9492,"zip":"15044","miles_from_dt":23.25},{"city":"Washingtonville","state_name":"Ohio","lat":40.90041,"lng":-80.76801,"zip":"44490","miles_from_dt":23.31},{"city":"Pittsburgh","state_name":"Pennsylvania","lat":40.45246,"lng":-80.18405,"zip":"15275","miles_from_dt":23.65},{"city":"Pittsburgh","state_name":"Pennsylvania","lat":40.50566,"lng":-80.06902,"zip":"15202","miles_from_dt":23.67},{"city":"Wildwood","state_name":"Pennsylvania","lat":40.5939,"lng":-79.97022,"zip":"15091","miles_from_dt":23.69},{"city":"Pulaski","state_name":"Pennsylvania","lat":41.10528,"lng":-80.45434,"zip":"16143","miles_from_dt":23.79},{"city":"New Bedford","state_name":"Pennsylvania","lat":41.09355,"lng":-80.51078,"zip":"16140","miles_from_dt":23.81},{"city":"Volant","state_name":"Pennsylvania","lat":41.09702,"lng":-80.21943,"zip":"16156","miles_from_dt":23.83},{"city":"Bakerstown","state_name":"Pennsylvania","lat":40.65128,"lng":-79.93173,"zip":"15007","miles_from_dt":23.83},{"city":"Butler","state_name":"Pennsylvania","lat":40.91049,"lng":-79.94376,"zip":"16001","miles_from_dt":23.86},{"city":"Lyndora","state_name":"Pennsylvania","lat":40.85277,"lng":-79.91626,"zip":"16045","miles_from_dt":23.92},{"city":"Youngstown","state_name":"Ohio","lat":41.0249,"lng":-80.66757,"zip":"44512","miles_from_dt":23.98},{"city":"Pittsburgh","state_name":"Pennsylvania","lat":40.51995,"lng":-80.03866,"zip":"15229","miles_from_dt":24.01},{"city":"New Wilmington","state_name":"Pennsylvania","lat":41.1177,"lng":-80.33105,"zip":"16172","miles_from_dt":24.15},{"city":"Slippery Rock","state_name":"Pennsylvania","lat":41.03427,"lng":-80.0579,"zip":"16057","miles_from_dt":24.19},{"city":"Youngstown","state_name":"Ohio","lat":41.02467,"lng":-80.67596,"zip":"44513","miles_from_dt":24.27},{"city":"Campbell","state_name":"Ohio","lat":41.07787,"lng":-80.59136,"zip":"44405","miles_from_dt":24.59},{"city":"McKees Rocks","state_name":"Pennsylvania","lat":40.46872,"lng":-80.10233,"zip":"15136","miles_from_dt":24.68},{"city":"Allison Park","state_name":"Pennsylvania","lat":40.58139,"lng":-79.95531,"zip":"15101","miles_from_dt":24.81},{"city":"Bulger","state_name":"Pennsylvania","lat":40.40805,"lng":-80.33053,"zip":"15019","miles_from_dt":24.9},{"city":"Butler","state_name":"Pennsylvania","lat":40.85806,"lng":-79.89528,"zip":"16003","miles_from_dt":25.07},{"city":"Toronto","state_name":"Ohio","lat":40.48695,"lng":-80.66928,"zip":"43964","miles_from_dt":25.37},{"city":"New Wilmington","state_name":"Pennsylvania","lat":41.13908,"lng":-80.34084,"zip":"16142","miles_from_dt":25.6},{"city":"Hammondsville","state_name":"Ohio","lat":40.56978,"lng":-80.77372,"zip":"43930","miles_from_dt":25.75},{"city":"Greenford","state_name":"Ohio","lat":40.94502,"lng":-80.79206,"zip":"44422","miles_from_dt":25.77},{"city":"Oakdale","state_name":"Pennsylvania","lat":40.41486,"lng":-80.18981,"zip":"15071","miles_from_dt":25.96},{"city":"Irondale","state_name":"Ohio","lat":40.53145,"lng":-80.74699,"zip":"43932","miles_from_dt":26.14},{"city":"Burgettstown","state_name":"Pennsylvania","lat":40.39373,"lng":-80.43583,"zip":"15021","miles_from_dt":26.16},{"city":"Weirton","state_name":"West Virginia","lat":40.42189,"lng":-80.56123,"zip":"26062","miles_from_dt":26.17},{"city":"Youngstown","state_name":"Ohio","lat":41.07436,"lng":-80.65542,"zip":"44507","miles_from_dt":26.21},{"city":"Youngstown","state_name":"Ohio","lat":41.08365,"lng":-80.64253,"zip":"44502","miles_from_dt":26.35},{"city":"Pittsburgh","state_name":"Pennsylvania","lat":40.4381,"lng":-80.10552,"zip":"15205","miles_from_dt":26.39},{"city":"Pittsburgh","state_name":"Pennsylvania","lat":40.44139,"lng":-80.0978,"zip":"15277","miles_from_dt":26.4},{"city":"Youngstown","state_name":"Ohio","lat":41.09356,"lng":-80.62583,"zip":"44506","miles_from_dt":26.44},{"city":"Butler","state_name":"Pennsylvania","lat":40.81568,"lng":-79.85638,"zip":"16002","miles_from_dt":26.55},{"city":"Glenshaw","state_name":"Pennsylvania","lat":40.5384,"lng":-79.95211,"zip":"15116","miles_from_dt":26.61},{"city":"Pittsburgh","state_name":"Pennsylvania","lat":40.48541,"lng":-80.01455,"zip":"15214","miles_from_dt":26.62},{"city":"Pittsburgh","state_name":"Pennsylvania","lat":40.45597,"lng":-80.06051,"zip":"15204","miles_from_dt":26.65},{"city":"Pittsburgh","state_name":"Pennsylvania","lat":40.43803,"lng":-80.09376,"zip":"15276","miles_from_dt":26.71},{"city":"Joffre","state_name":"Pennsylvania","lat":40.38056,"lng":-80.35975,"zip":"15053","miles_from_dt":26.75},{"city":"Pittsburgh","state_name":"Pennsylvania","lat":40.46742,"lng":-80.03747,"zip":"15268","miles_from_dt":26.76},{"city":"Pittsburgh","state_name":"Pennsylvania","lat":40.46742,"lng":-80.03747,"zip":"15267","miles_from_dt":26.76},{"city":"Pittsburgh","state_name":"Pennsylvania","lat":40.46551,"lng":-80.0383,"zip":"15279","miles_from_dt":26.84},{"city":"Bairdford","state_name":"Pennsylvania","lat":40.63351,"lng":-79.87678,"zip":"15006","miles_from_dt":26.96},{"city":"Midway","state_name":"Pennsylvania","lat":40.37695,"lng":-80.29113,"zip":"15060","miles_from_dt":27.24},{"city":"Youngstown","state_name":"Ohio","lat":41.06927,"lng":-80.69617,"zip":"44511","miles_from_dt":27.26},{"city":"Pittsburgh","state_name":"Pennsylvania","lat":40.45985,"lng":-80.03387,"zip":"15233","miles_from_dt":27.29},{"city":"Salineville","state_name":"Ohio","lat":40.63156,"lng":-80.84797,"zip":"43945","miles_from_dt":27.37},{"city":"Canfield","state_name":"Ohio","lat":41.01132,"lng":-80.77194,"zip":"44406","miles_from_dt":27.38},{"city":"Pittsburgh","state_name":"Pennsylvania","lat":40.50007,"lng":-79.97463,"zip":"15209","miles_from_dt":27.39},{"city":"Youngstown","state_name":"Ohio","lat":41.09918,"lng":-80.64912,"zip":"44503","miles_from_dt":27.43},{"city":"Pittsburgh","state_name":"Pennsylvania","lat":40.45873,"lng":-80.03122,"zip":"15286","miles_from_dt":27.44},{"city":"Saxonburg","state_name":"Pennsylvania","lat":40.72301,"lng":-79.83911,"zip":"16056","miles_from_dt":27.45},{"city":"Pittsburgh","state_name":"Pennsylvania","lat":40.47106,"lng":-80.00844,"zip":"15212","miles_from_dt":27.57},{"city":"West Middlesex","state_name":"Pennsylvania","lat":41.15967,"lng":-80.46858,"zip":"16159","miles_from_dt":27.61},{"city":"Youngstown","state_name":"Ohio","lat":41.09739,"lng":-80.6617,"zip":"44501","miles_from_dt":27.7},{"city":"Sturgeon","state_name":"Pennsylvania","lat":40.38031,"lng":-80.21061,"zip":"15082","miles_from_dt":27.88},{"city":"Youngstown","state_name":"Ohio","lat":41.10726,"lng":-80.64875,"zip":"44555","miles_from_dt":27.88},{"city":"Pittsburgh","state_name":"Pennsylvania","lat":40.45589,"lng":-80.02196,"zip":"15255","miles_from_dt":27.9},{"city":"Pittsburgh","state_name":"Pennsylvania","lat":40.45735,"lng":-80.01932,"zip":"15290","miles_from_dt":27.91},{"city":"East Butler","state_name":"Pennsylvania","lat":40.87996,"lng":-79.84602,"zip":"16029","miles_from_dt":27.96},{"city":"Langeloth","state_name":"Pennsylvania","lat":40.36353,"lng":-80.4008,"zip":"15054","miles_from_dt":28.02},{"city":"Winona","state_name":"Ohio","lat":40.82192,"lng":-80.88864,"zip":"44493","miles_from_dt":28.03},{"city":"Carnegie","state_name":"Pennsylvania","lat":40.40882,"lng":-80.10863,"zip":"15106","miles_from_dt":28.08},{"city":"Pittsburgh","state_name":"Pennsylvania","lat":40.50431,"lng":-79.95199,"zip":"15223","miles_from_dt":28.09},{"city":"Curtisville","state_name":"Pennsylvania","lat":40.6407,"lng":-79.85029,"zip":"15032","miles_from_dt":28.11},{"city":"Youngstown","state_name":"Ohio","lat":41.12735,"lng":-80.61687,"zip":"44505","miles_from_dt":28.22},{"city":"Slovan","state_name":"Pennsylvania","lat":40.35949,"lng":-80.38501,"zip":"15078","miles_from_dt":28.24},{"city":"Salem","state_name":"Ohio","lat":40.90221,"lng":-80.87026,"zip":"44460","miles_from_dt":28.36},{"city":"Hanoverton","state_name":"Ohio","lat":40.7524,"lng":-80.89963,"zip":"44423","miles_from_dt":28.4},{"city":"Branchton","state_name":"Pennsylvania","lat":41.07019,"lng":-79.98605,"zip":"16021","miles_from_dt":28.54},{"city":"Summitville","state_name":"Ohio","lat":40.67315,"lng":-80.88919,"zip":"43962","miles_from_dt":28.61},{"city":"Youngstown","state_name":"Ohio","lat":41.12327,"lng":-80.65363,"zip":"44504","miles_from_dt":28.95},{"city":"Pittsburgh","state_name":"Pennsylvania","lat":40.42209,"lng":-80.04637,"zip":"15283","miles_from_dt":28.99},{"city":"Pittsburgh","state_name":"Pennsylvania","lat":40.42,"lng":-80.05002,"zip":"15244","miles_from_dt":29},{"city":"Pittsburgh","state_name":"Pennsylvania","lat":40.42,"lng":-80.05002,"zip":"15242","miles_from_dt":29},{"city":"Herman","state_name":"Pennsylvania","lat":40.83052,"lng":-79.81135,"zip":"16039","miles_from_dt":29.02},{"city":"McDonald","state_name":"Pennsylvania","lat":40.35571,"lng":-80.24713,"zip":"15057","miles_from_dt":29.07},{"city":"Pittsburgh","state_name":"Pennsylvania","lat":40.41875,"lng":-80.04894,"zip":"15220","miles_from_dt":29.11},{"city":"Pittsburgh","state_name":"Pennsylvania","lat":40.44185,"lng":-80.00502,"zip":"15272","miles_from_dt":29.21},{"city":"Presto","state_name":"Pennsylvania","lat":40.38474,"lng":-80.12231,"zip":"15142","miles_from_dt":29.24},{"city":"Pittsburgh","state_name":"Pennsylvania","lat":40.44998,"lng":-79.9912,"zip":"15222","miles_from_dt":29.26},{"city":"Pittsburgh","state_name":"Pennsylvania","lat":40.47565,"lng":-79.95389,"zip":"15201","miles_from_dt":29.34},{"city":"Pittsburgh","state_name":"Pennsylvania","lat":40.44238,"lng":-79.99994,"zip":"15265","miles_from_dt":29.36},{"city":"Atlasburg","state_name":"Pennsylvania","lat":40.34216,"lng":-80.38289,"zip":"15004","miles_from_dt":29.43},{"city":"Pittsburgh","state_name":"Pennsylvania","lat":40.43767,"lng":-80.00472,"zip":"15295","miles_from_dt":29.45},{"city":"Youngstown","state_name":"Ohio","lat":41.10986,"lng":-80.69655,"zip":"44509","miles_from_dt":29.46},{"city":"Pittsburgh","state_name":"Pennsylvania","lat":40.4414,"lng":-79.99816,"zip":"15259","miles_from_dt":29.47},{"city":"Pittsburgh","state_name":"Pennsylvania","lat":40.44155,"lng":-79.99779,"zip":"15257","miles_from_dt":29.47},{"city":"Pittsburgh","state_name":"Pennsylvania","lat":40.44109,"lng":-79.99828,"zip":"15254","miles_from_dt":29.48},{"city":"Pittsburgh","state_name":"Pennsylvania","lat":40.44097,"lng":-79.99827,"zip":"15252","miles_from_dt":29.49},{"city":"Russellton","state_name":"Pennsylvania","lat":40.60949,"lng":-79.8374,"zip":"15076","miles_from_dt":29.49},{"city":"Forestville","state_name":"Pennsylvania","lat":41.10779,"lng":-80.01659,"zip":"16035","miles_from_dt":29.49},{"city":"Youngstown","state_name":"Ohio","lat":41.12246,"lng":-80.67424,"zip":"44510","miles_from_dt":29.49},{"city":"Pittsburgh","state_name":"Pennsylvania","lat":40.4302,"lng":-80.01533,"zip":"15211","miles_from_dt":29.5},{"city":"Pittsburgh","state_name":"Pennsylvania","lat":40.44002,"lng":-79.99865,"zip":"15281","miles_from_dt":29.52},{"city":"Pittsburgh","state_name":"Pennsylvania","lat":40.4421,"lng":-79.99519,"zip":"15230","miles_from_dt":29.53},{"city":"Indianola","state_name":"Pennsylvania","lat":40.56812,"lng":-79.86076,"zip":"15051","miles_from_dt":29.59},{"city":"Pittsburgh","state_name":"Pennsylvania","lat":40.50457,"lng":-79.91338,"zip":"15215","miles_from_dt":29.65},{"city":"Pittsburgh","state_name":"Pennsylvania","lat":40.43962,"lng":-79.99517,"zip":"15262","miles_from_dt":29.66},{"city":"West Sunbury","state_name":"Pennsylvania","lat":41.00866,"lng":-79.88687,"zip":"16061","miles_from_dt":29.76},{"city":"Pittsburgh","state_name":"Pennsylvania","lat":40.44304,"lng":-79.98443,"zip":"15219","miles_from_dt":29.85},{"city":"Pittsburgh","state_name":"Pennsylvania","lat":40.53405,"lng":-79.88115,"zip":"15238","miles_from_dt":29.85},{"city":"Hubbard","state_name":"Ohio","lat":41.17022,"lng":-80.57395,"zip":"44425","miles_from_dt":29.93},{"city":"Cheswick","state_name":"Pennsylvania","lat":40.57649,"lng":-79.84649,"zip":"15024","miles_from_dt":29.99}],"targetCityZipCode":"15010","targetCityState":"Pennsylvania"},"__N_SSG":true}