{"pageProps":{"stateName":"Pennsylvania","cityName":"burlington","nearbyCities":[{"city":"East Smithfield","state_name":"Pennsylvania","lat":41.87431,"lng":-76.62075,"zip":"18817","miles_from_dt":6.48},{"city":"Granville Summit","state_name":"Pennsylvania","lat":41.71506,"lng":-76.70485,"zip":"16926","miles_from_dt":7.05},{"city":"Monroeton","state_name":"Pennsylvania","lat":41.67625,"lng":-76.55639,"zip":"18832","miles_from_dt":7.63},{"city":"Towanda","state_name":"Pennsylvania","lat":41.75358,"lng":-76.45615,"zip":"18848","miles_from_dt":7.74},{"city":"Milan","state_name":"Pennsylvania","lat":41.89356,"lng":-76.60832,"zip":"18831","miles_from_dt":7.74},{"city":"Ulster","state_name":"Pennsylvania","lat":41.85916,"lng":-76.49126,"zip":"18850","miles_from_dt":7.81},{"city":"Troy","state_name":"Pennsylvania","lat":41.76969,"lng":-76.79519,"zip":"16947","miles_from_dt":10.05},{"city":"Columbia Cross Roads","state_name":"Pennsylvania","lat":41.8618,"lng":-76.77687,"zip":"16914","miles_from_dt":10.63},{"city":"Athens","state_name":"Pennsylvania","lat":41.93738,"lng":-76.50181,"zip":"18810","miles_from_dt":11.92},{"city":"Wysox","state_name":"Pennsylvania","lat":41.79532,"lng":-76.35472,"zip":"18854","miles_from_dt":12.77},{"city":"Alba","state_name":"Pennsylvania","lat":41.70477,"lng":-76.83124,"zip":"16910","miles_from_dt":13.02},{"city":"Sylvania","state_name":"Pennsylvania","lat":41.80546,"lng":-76.85648,"zip":"16945","miles_from_dt":13.29},{"city":"Sayre","state_name":"Pennsylvania","lat":41.97433,"lng":-76.52968,"zip":"18840","miles_from_dt":13.81},{"city":"Canton","state_name":"Pennsylvania","lat":41.63827,"lng":-76.80034,"zip":"17724","miles_from_dt":14.27},{"city":"New Albany","state_name":"Pennsylvania","lat":41.59433,"lng":-76.46515,"zip":"18833","miles_from_dt":14.71},{"city":"Gillett","state_name":"Pennsylvania","lat":41.95319,"lng":-76.78997,"zip":"16925","miles_from_dt":15.34},{"city":"Wyalusing","state_name":"Pennsylvania","lat":41.71654,"lng":-76.27534,"zip":"18853","miles_from_dt":17.43},{"city":"Mainesburg","state_name":"Pennsylvania","lat":41.77574,"lng":-76.94017,"zip":"16932","miles_from_dt":17.51},{"city":"Shunk","state_name":"Pennsylvania","lat":41.54632,"lng":-76.7477,"zip":"17768","miles_from_dt":17.91},{"city":"Grover","state_name":"Pennsylvania","lat":41.61486,"lng":-76.86716,"zip":"17735","miles_from_dt":17.93},{"city":"Forksville","state_name":"Pennsylvania","lat":41.51907,"lng":-76.63954,"zip":"18616","miles_from_dt":18.22},{"city":"Rome","state_name":"Pennsylvania","lat":41.91928,"lng":-76.29122,"zip":"18837","miles_from_dt":18.61},{"city":"Waverly","state_name":"New York","lat":42.0478,"lng":-76.52804,"zip":"14892","miles_from_dt":18.76},{"city":"Wellsburg","state_name":"New York","lat":42.02442,"lng":-76.77185,"zip":"14894","miles_from_dt":18.93},{"city":"Chemung","state_name":"New York","lat":42.05564,"lng":-76.62116,"zip":"14825","miles_from_dt":18.95},{"city":"Camptown","state_name":"Pennsylvania","lat":41.73112,"lng":-76.23278,"zip":"18815","miles_from_dt":19.35},{"city":"Nichols","state_name":"New York","lat":42.02993,"lng":-76.35461,"zip":"13812","miles_from_dt":21.34},{"city":"Elmira","state_name":"New York","lat":42.07363,"lng":-76.74137,"zip":"14901","miles_from_dt":21.42},{"city":"Stevensville","state_name":"Pennsylvania","lat":41.78994,"lng":-76.18454,"zip":"18845","miles_from_dt":21.53},{"city":"Millerton","state_name":"Pennsylvania","lat":41.94318,"lng":-76.95837,"zip":"16936","miles_from_dt":21.54},{"city":"Lowman","state_name":"New York","lat":42.0914,"lng":-76.6888,"zip":"14861","miles_from_dt":21.86},{"city":"Sugar Run","state_name":"Pennsylvania","lat":41.60494,"lng":-76.23929,"zip":"18846","miles_from_dt":22.34},{"city":"Morris Run","state_name":"Pennsylvania","lat":41.68097,"lng":-77.0141,"zip":"16939","miles_from_dt":22.44},{"city":"Le Raysville","state_name":"Pennsylvania","lat":41.8395,"lng":-76.17088,"zip":"18829","miles_from_dt":22.58},{"city":"Elmira","state_name":"New York","lat":42.07007,"lng":-76.80798,"zip":"14904","miles_from_dt":22.59},{"city":"Barton","state_name":"New York","lat":42.07752,"lng":-76.40864,"zip":"13734","miles_from_dt":22.71},{"city":"Tioga Center","state_name":"New York","lat":42.0579,"lng":-76.35062,"zip":"13845","miles_from_dt":23.04},{"city":"Lockwood","state_name":"New York","lat":42.12118,"lng":-76.53985,"zip":"14859","miles_from_dt":23.66},{"city":"Covington","state_name":"Pennsylvania","lat":41.723,"lng":-77.05519,"zip":"16917","miles_from_dt":23.81},{"city":"Roaring Branch","state_name":"Pennsylvania","lat":41.57591,"lng":-76.97168,"zip":"17765","miles_from_dt":23.85},{"city":"Pine City","state_name":"New York","lat":42.03838,"lng":-76.91093,"zip":"14871","miles_from_dt":23.86},{"city":"Dushore","state_name":"Pennsylvania","lat":41.48373,"lng":-76.35768,"zip":"18614","miles_from_dt":24.11},{"city":"Mansfield","state_name":"Pennsylvania","lat":41.81904,"lng":-77.06716,"zip":"16933","miles_from_dt":24.2},{"city":"Warren Center","state_name":"Pennsylvania","lat":41.93677,"lng":-76.17992,"zip":"18851","miles_from_dt":24.23},{"city":"Elmira","state_name":"New York","lat":42.08692,"lng":-76.84284,"zip":"14905","miles_from_dt":24.48},{"city":"Eagles Mere","state_name":"Pennsylvania","lat":41.42713,"lng":-76.57293,"zip":"17731","miles_from_dt":24.5},{"city":"Mildred","state_name":"Pennsylvania","lat":41.46769,"lng":-76.3764,"zip":"18632","miles_from_dt":24.59},{"city":"Laceyville","state_name":"Pennsylvania","lat":41.67297,"lng":-76.14768,"zip":"18623","miles_from_dt":24.62},{"city":"Hillsgrove","state_name":"Pennsylvania","lat":41.43574,"lng":-76.7195,"zip":"18619","miles_from_dt":24.64},{"city":"Ralston","state_name":"Pennsylvania","lat":41.50999,"lng":-76.91388,"zip":"17763","miles_from_dt":24.76},{"city":"Elmira","state_name":"New York","lat":42.10412,"lng":-76.81218,"zip":"14902","miles_from_dt":24.78},{"city":"Blossburg","state_name":"Pennsylvania","lat":41.66803,"lng":-77.05845,"zip":"16912","miles_from_dt":24.9},{"city":"Smithboro","state_name":"New York","lat":42.09884,"lng":-76.3649,"zip":"13840","miles_from_dt":25.06},{"city":"Lawton","state_name":"Pennsylvania","lat":41.79672,"lng":-76.11245,"zip":"18828","miles_from_dt":25.27},{"city":"Laporte","state_name":"Pennsylvania","lat":41.41136,"lng":-76.4635,"zip":"18626","miles_from_dt":26.52},{"city":"Arnot","state_name":"Pennsylvania","lat":41.67787,"lng":-77.10392,"zip":"16911","miles_from_dt":26.96},{"city":"Elmira","state_name":"New York","lat":42.12372,"lng":-76.87771,"zip":"14903","miles_from_dt":27.58},{"city":"Little Meadows","state_name":"Pennsylvania","lat":41.95049,"lng":-76.10904,"zip":"18830","miles_from_dt":27.94},{"city":"Erin","state_name":"New York","lat":42.18951,"lng":-76.66635,"zip":"14838","miles_from_dt":28.36},{"city":"Apalachin","state_name":"New York","lat":42.04396,"lng":-76.16772,"zip":"13732","miles_from_dt":28.77},{"city":"Owego","state_name":"New York","lat":42.11178,"lng":-76.25216,"zip":"13827","miles_from_dt":29.03},{"city":"Lopez","state_name":"Pennsylvania","lat":41.41474,"lng":-76.32047,"zip":"18628","miles_from_dt":29.19},{"city":"Tioga","state_name":"Pennsylvania","lat":41.91422,"lng":-77.13999,"zip":"16946","miles_from_dt":29.27},{"city":"Breesport","state_name":"New York","lat":42.19728,"lng":-76.73161,"zip":"14816","miles_from_dt":29.47},{"city":"Muncy Valley","state_name":"Pennsylvania","lat":41.35234,"lng":-76.55155,"zip":"17758","miles_from_dt":29.73},{"city":"Friendsville","state_name":"Pennsylvania","lat":41.91343,"lng":-76.04843,"zip":"18818","miles_from_dt":29.94}],"targetCityZipCode":"18814","targetCityState":"Pennsylvania"},"__N_SSG":true}