{"pageProps":{"stateName":"Pennsylvania","cityName":"hollsopple","nearbyCities":[{"city":"Jerome","state_name":"Pennsylvania","lat":40.21463,"lng":-78.98105,"zip":"15937","miles_from_dt":1.17},{"city":"Davidsville","state_name":"Pennsylvania","lat":40.23943,"lng":-78.91591,"zip":"15928","miles_from_dt":3.8},{"city":"Seanor","state_name":"Pennsylvania","lat":40.21113,"lng":-78.89049,"zip":"15953","miles_from_dt":4.13},{"city":"Hooversville","state_name":"Pennsylvania","lat":40.16221,"lng":-78.89584,"zip":"15936","miles_from_dt":4.65},{"city":"Tire Hill","state_name":"Pennsylvania","lat":40.26919,"lng":-78.91523,"zip":"15959","miles_from_dt":5.45},{"city":"Boswell","state_name":"Pennsylvania","lat":40.18537,"lng":-79.0794,"zip":"15531","miles_from_dt":6.02},{"city":"Jennerstown","state_name":"Pennsylvania","lat":40.1629,"lng":-79.07019,"zip":"15547","miles_from_dt":6.04},{"city":"Jenners","state_name":"Pennsylvania","lat":40.13717,"lng":-79.04758,"zip":"15546","miles_from_dt":6.12},{"city":"Johnstown","state_name":"Pennsylvania","lat":40.29423,"lng":-78.98035,"zip":"15905","miles_from_dt":6.46},{"city":"Kantner","state_name":"Pennsylvania","lat":40.10445,"lng":-78.93981,"zip":"15548","miles_from_dt":6.83},{"city":"Stoystown","state_name":"Pennsylvania","lat":40.0962,"lng":-78.93618,"zip":"15563","miles_from_dt":7.43},{"city":"Acosta","state_name":"Pennsylvania","lat":40.10626,"lng":-79.06017,"zip":"15520","miles_from_dt":8.18},{"city":"Gray","state_name":"Pennsylvania","lat":40.13254,"lng":-79.09656,"zip":"15544","miles_from_dt":8.31},{"city":"Johnstown","state_name":"Pennsylvania","lat":40.32845,"lng":-78.9146,"zip":"15901","miles_from_dt":9.22},{"city":"Johnstown","state_name":"Pennsylvania","lat":40.33,"lng":-78.92001,"zip":"15907","miles_from_dt":9.24},{"city":"Quecreek","state_name":"Pennsylvania","lat":40.09758,"lng":-79.08132,"zip":"15555","miles_from_dt":9.34},{"city":"Johnstown","state_name":"Pennsylvania","lat":40.30833,"lng":-78.85929,"zip":"15915","miles_from_dt":9.35},{"city":"Johnstown","state_name":"Pennsylvania","lat":40.32,"lng":-78.87911,"zip":"15902","miles_from_dt":9.44},{"city":"Johnstown","state_name":"Pennsylvania","lat":40.3056,"lng":-78.84382,"zip":"15904","miles_from_dt":9.73},{"city":"Sipesville","state_name":"Pennsylvania","lat":40.09379,"lng":-79.0907,"zip":"15561","miles_from_dt":9.87},{"city":"Windber","state_name":"Pennsylvania","lat":40.21676,"lng":-78.77234,"zip":"15963","miles_from_dt":10.38},{"city":"Friedens","state_name":"Pennsylvania","lat":40.04905,"lng":-78.98076,"zip":"15541","miles_from_dt":10.52},{"city":"Elton","state_name":"Pennsylvania","lat":40.28107,"lng":-78.79589,"zip":"15934","miles_from_dt":10.62},{"city":"Laughlintown","state_name":"Pennsylvania","lat":40.19739,"lng":-79.18141,"zip":"15655","miles_from_dt":11.32},{"city":"Cairnbrook","state_name":"Pennsylvania","lat":40.10684,"lng":-78.77527,"zip":"15924","miles_from_dt":12.08},{"city":"Parkhill","state_name":"Pennsylvania","lat":40.35909,"lng":-78.86867,"zip":"15945","miles_from_dt":12.09},{"city":"Listie","state_name":"Pennsylvania","lat":40.02929,"lng":-79.01269,"zip":"15549","miles_from_dt":12.09},{"city":"Johnstown","state_name":"Pennsylvania","lat":40.37806,"lng":-78.93356,"zip":"15906","miles_from_dt":12.34},{"city":"Salix","state_name":"Pennsylvania","lat":40.30348,"lng":-78.77614,"zip":"15952","miles_from_dt":12.34},{"city":"New Florence","state_name":"Pennsylvania","lat":40.36295,"lng":-79.0816,"zip":"15944","miles_from_dt":12.69},{"city":"Shanksville","state_name":"Pennsylvania","lat":40.01687,"lng":-78.90664,"zip":"15560","miles_from_dt":13.12},{"city":"Central City","state_name":"Pennsylvania","lat":40.04783,"lng":-78.81934,"zip":"15926","miles_from_dt":13.17},{"city":"Saint Michael","state_name":"Pennsylvania","lat":40.3307,"lng":-78.77209,"zip":"15951","miles_from_dt":13.66},{"city":"Ligonier","state_name":"Pennsylvania","lat":40.25467,"lng":-79.22217,"zip":"15658","miles_from_dt":13.96},{"city":"South Fork","state_name":"Pennsylvania","lat":40.35022,"lng":-78.78819,"zip":"15956","miles_from_dt":13.99},{"city":"Somerset","state_name":"Pennsylvania","lat":40.03582,"lng":-79.13024,"zip":"15501","miles_from_dt":14.29},{"city":"Rector","state_name":"Pennsylvania","lat":40.15048,"lng":-79.23113,"zip":"15677","miles_from_dt":14.38},{"city":"Dunlo","state_name":"Pennsylvania","lat":40.29468,"lng":-78.71732,"zip":"15930","miles_from_dt":14.72},{"city":"Bolivar","state_name":"Pennsylvania","lat":40.35518,"lng":-79.16447,"zip":"15923","miles_from_dt":14.88},{"city":"Seward","state_name":"Pennsylvania","lat":40.41837,"lng":-79.00051,"zip":"15954","miles_from_dt":15.09},{"city":"Johnstown","state_name":"Pennsylvania","lat":40.40783,"lng":-78.87047,"zip":"15909","miles_from_dt":15.16},{"city":"Sidman","state_name":"Pennsylvania","lat":40.30878,"lng":-78.69285,"zip":"15955","miles_from_dt":16.31},{"city":"Beaverdale","state_name":"Pennsylvania","lat":40.31642,"lng":-78.69786,"zip":"15921","miles_from_dt":16.33},{"city":"Mineral Point","state_name":"Pennsylvania","lat":40.40584,"lng":-78.81215,"zip":"15942","miles_from_dt":16.34},{"city":"Robinson","state_name":"Pennsylvania","lat":40.4055,"lng":-79.13442,"zip":"15949","miles_from_dt":16.63},{"city":"Somerset","state_name":"Pennsylvania","lat":39.96435,"lng":-79.04009,"zip":"15510","miles_from_dt":16.78},{"city":"Alum Bank","state_name":"Pennsylvania","lat":40.19972,"lng":-78.63176,"zip":"15521","miles_from_dt":17.77},{"city":"Berlin","state_name":"Pennsylvania","lat":39.94531,"lng":-78.91253,"zip":"15530","miles_from_dt":17.89},{"city":"Summerhill","state_name":"Pennsylvania","lat":40.3891,"lng":-78.73284,"zip":"15958","miles_from_dt":17.94},{"city":"Schellsburg","state_name":"Pennsylvania","lat":40.05914,"lng":-78.68241,"zip":"15559","miles_from_dt":18},{"city":"Vintondale","state_name":"Pennsylvania","lat":40.46187,"lng":-78.9382,"zip":"15961","miles_from_dt":18.06},{"city":"New Baltimore","state_name":"Pennsylvania","lat":39.98452,"lng":-78.77052,"zip":"15553","miles_from_dt":18.23},{"city":"Wilmore","state_name":"Pennsylvania","lat":40.38942,"lng":-78.71644,"zip":"15962","miles_from_dt":18.57},{"city":"Armagh","state_name":"Pennsylvania","lat":40.46705,"lng":-79.05006,"zip":"15920","miles_from_dt":18.86},{"city":"Hidden Valley","state_name":"Pennsylvania","lat":40.03641,"lng":-79.25176,"zip":"15502","miles_from_dt":18.86},{"city":"Torrance","state_name":"Pennsylvania","lat":40.40008,"lng":-79.21846,"zip":"15779","miles_from_dt":19.08},{"city":"Dilltown","state_name":"Pennsylvania","lat":40.47683,"lng":-79.0042,"zip":"15929","miles_from_dt":19.12},{"city":"Stahlstown","state_name":"Pennsylvania","lat":40.13149,"lng":-79.31977,"zip":"15687","miles_from_dt":19.25},{"city":"New Paris","state_name":"Pennsylvania","lat":40.12525,"lng":-78.61575,"zip":"15554","miles_from_dt":19.34},{"city":"Nanty Glo","state_name":"Pennsylvania","lat":40.47437,"lng":-78.83513,"zip":"15943","miles_from_dt":20.11},{"city":"Fishertown","state_name":"Pennsylvania","lat":40.12835,"lng":-78.59341,"zip":"15539","miles_from_dt":20.43},{"city":"Derry","state_name":"Pennsylvania","lat":40.35064,"lng":-79.30667,"zip":"15627","miles_from_dt":20.68},{"city":"Portage","state_name":"Pennsylvania","lat":40.37248,"lng":-78.63573,"zip":"15946","miles_from_dt":21.15},{"city":"Jones Mills","state_name":"Pennsylvania","lat":40.09517,"lng":-79.34448,"zip":"15646","miles_from_dt":21.25},{"city":"Bradenville","state_name":"Pennsylvania","lat":40.32336,"lng":-79.33882,"zip":"15620","miles_from_dt":21.36},{"city":"Twin Rocks","state_name":"Pennsylvania","lat":40.49848,"lng":-78.85184,"zip":"15960","miles_from_dt":21.41},{"city":"New Derry","state_name":"Pennsylvania","lat":40.36038,"lng":-79.32146,"zip":"15671","miles_from_dt":21.69},{"city":"Youngstown","state_name":"Pennsylvania","lat":40.2798,"lng":-79.36587,"zip":"15696","miles_from_dt":21.75},{"city":"Champion","state_name":"Pennsylvania","lat":40.0356,"lng":-79.31724,"zip":"15622","miles_from_dt":21.76},{"city":"Black Lick","state_name":"Pennsylvania","lat":40.47025,"lng":-79.19031,"zip":"15716","miles_from_dt":21.98},{"city":"Imler","state_name":"Pennsylvania","lat":40.24898,"lng":-78.55092,"zip":"16655","miles_from_dt":22.28},{"city":"Loyalhanna","state_name":"Pennsylvania","lat":40.32192,"lng":-79.36007,"zip":"15661","miles_from_dt":22.36},{"city":"Belsano","state_name":"Pennsylvania","lat":40.51853,"lng":-78.87794,"zip":"15922","miles_from_dt":22.41},{"city":"Donegal","state_name":"Pennsylvania","lat":40.10009,"lng":-79.37008,"zip":"15628","miles_from_dt":22.42},{"city":"Cassandra","state_name":"Pennsylvania","lat":40.40851,"lng":-78.6407,"zip":"15925","miles_from_dt":22.42},{"city":"Manns Choice","state_name":"Pennsylvania","lat":39.99025,"lng":-78.64493,"zip":"15550","miles_from_dt":22.45},{"city":"Blairsville","state_name":"Pennsylvania","lat":40.45354,"lng":-79.23896,"zip":"15717","miles_from_dt":22.56},{"city":"Revloc","state_name":"Pennsylvania","lat":40.48986,"lng":-78.76699,"zip":"15948","miles_from_dt":22.56},{"city":"Josephine","state_name":"Pennsylvania","lat":40.48377,"lng":-79.18256,"zip":"15750","miles_from_dt":22.57},{"city":"Rockwood","state_name":"Pennsylvania","lat":39.92757,"lng":-79.20945,"zip":"15557","miles_from_dt":22.82},{"city":"Latrobe","state_name":"Pennsylvania","lat":40.27527,"lng":-79.39213,"zip":"15650","miles_from_dt":23.03},{"city":"Homer City","state_name":"Pennsylvania","lat":40.52489,"lng":-79.087,"zip":"15748","miles_from_dt":23.21},{"city":"Hostetter","state_name":"Pennsylvania","lat":40.26466,"lng":-79.4017,"zip":"15638","miles_from_dt":23.37},{"city":"Whitney","state_name":"Pennsylvania","lat":40.24939,"lng":-79.40592,"zip":"15693","miles_from_dt":23.42},{"city":"Osterburg","state_name":"Pennsylvania","lat":40.18213,"lng":-78.52546,"zip":"16667","miles_from_dt":23.43},{"city":"Coral","state_name":"Pennsylvania","lat":40.50383,"lng":-79.1767,"zip":"15731","miles_from_dt":23.62},{"city":"Strongstown","state_name":"Pennsylvania","lat":40.53953,"lng":-78.89744,"zip":"15957","miles_from_dt":23.64},{"city":"Garrett","state_name":"Pennsylvania","lat":39.86742,"lng":-79.07851,"zip":"15542","miles_from_dt":23.76},{"city":"Brush Valley","state_name":"Pennsylvania","lat":40.53896,"lng":-79.06625,"zip":"15720","miles_from_dt":23.89},{"city":"Melcroft","state_name":"Pennsylvania","lat":40.06136,"lng":-79.38113,"zip":"15462","miles_from_dt":23.93},{"city":"Acme","state_name":"Pennsylvania","lat":40.13699,"lng":-79.41613,"zip":"15610","miles_from_dt":24.15},{"city":"Fairhope","state_name":"Pennsylvania","lat":39.86644,"lng":-78.83233,"zip":"15538","miles_from_dt":24.18},{"city":"Ebensburg","state_name":"Pennsylvania","lat":40.51612,"lng":-78.76225,"zip":"15931","miles_from_dt":24.29},{"city":"Lilly","state_name":"Pennsylvania","lat":40.42215,"lng":-78.6057,"zip":"15938","miles_from_dt":24.45},{"city":"Queen","state_name":"Pennsylvania","lat":40.25828,"lng":-78.50556,"zip":"16670","miles_from_dt":24.75},{"city":"Claysburg","state_name":"Pennsylvania","lat":40.28482,"lng":-78.50855,"zip":"16625","miles_from_dt":24.95},{"city":"Buffalo Mills","state_name":"Pennsylvania","lat":39.89712,"lng":-78.69589,"zip":"15534","miles_from_dt":25.44},{"city":"Indian Head","state_name":"Pennsylvania","lat":40.03172,"lng":-79.39433,"zip":"15446","miles_from_dt":25.45},{"city":"Colver","state_name":"Pennsylvania","lat":40.54148,"lng":-78.78019,"zip":"15927","miles_from_dt":25.48},{"city":"Pleasant Unity","state_name":"Pennsylvania","lat":40.24303,"lng":-79.45913,"zip":"15676","miles_from_dt":26.16},{"city":"Lucernemines","state_name":"Pennsylvania","lat":40.55667,"lng":-79.15152,"zip":"15754","miles_from_dt":26.38},{"city":"Markleton","state_name":"Pennsylvania","lat":39.88413,"lng":-79.26761,"zip":"15551","miles_from_dt":27.05},{"city":"Normalville","state_name":"Pennsylvania","lat":40.01366,"lng":-79.41861,"zip":"15469","miles_from_dt":27.17},{"city":"Cresson","state_name":"Pennsylvania","lat":40.46231,"lng":-78.58003,"zip":"16630","miles_from_dt":27.27},{"city":"White","state_name":"Pennsylvania","lat":40.06782,"lng":-79.45327,"zip":"15490","miles_from_dt":27.32},{"city":"Penn Run","state_name":"Pennsylvania","lat":40.59661,"lng":-78.99574,"zip":"15765","miles_from_dt":27.33},{"city":"Cresson","state_name":"Pennsylvania","lat":40.44736,"lng":-78.56054,"zip":"16699","miles_from_dt":27.4},{"city":"Calumet","state_name":"Pennsylvania","lat":40.2112,"lng":-79.48581,"zip":"15621","miles_from_dt":27.43},{"city":"Sproul","state_name":"Pennsylvania","lat":40.27206,"lng":-78.4565,"zip":"16682","miles_from_dt":27.46},{"city":"United","state_name":"Pennsylvania","lat":40.2253,"lng":-79.49164,"zip":"15689","miles_from_dt":27.77},{"city":"Meyersdale","state_name":"Pennsylvania","lat":39.79629,"lng":-78.98232,"zip":"15552","miles_from_dt":27.94},{"city":"Norvelt","state_name":"Pennsylvania","lat":40.20672,"lng":-79.49636,"zip":"15674","miles_from_dt":27.98},{"city":"East Freedom","state_name":"Pennsylvania","lat":40.34214,"lng":-78.47079,"zip":"16637","miles_from_dt":28},{"city":"Bedford","state_name":"Pennsylvania","lat":39.94931,"lng":-78.55173,"zip":"15522","miles_from_dt":28.06},{"city":"Loretto","state_name":"Pennsylvania","lat":40.52128,"lng":-78.63218,"zip":"15940","miles_from_dt":28.31},{"city":"New Alexandria","state_name":"Pennsylvania","lat":40.40783,"lng":-79.4321,"zip":"15670","miles_from_dt":28.38},{"city":"Nicktown","state_name":"Pennsylvania","lat":40.6001,"lng":-78.83309,"zip":"15762","miles_from_dt":28.43},{"city":"Luxor","state_name":"Pennsylvania","lat":40.33892,"lng":-79.47972,"zip":"15662","miles_from_dt":28.69},{"city":"Kent","state_name":"Pennsylvania","lat":40.5408,"lng":-79.28177,"zip":"15752","miles_from_dt":28.71},{"city":"New Enterprise","state_name":"Pennsylvania","lat":40.17822,"lng":-78.42437,"zip":"16664","miles_from_dt":28.79},{"city":"Crabtree","state_name":"Pennsylvania","lat":40.36638,"lng":-79.47124,"zip":"15624","miles_from_dt":28.96},{"city":"Mount Pleasant","state_name":"Pennsylvania","lat":40.15858,"lng":-79.51398,"zip":"15666","miles_from_dt":29.07},{"city":"Bovard","state_name":"Pennsylvania","lat":40.32051,"lng":-79.49719,"zip":"15619","miles_from_dt":29.18},{"city":"Heilwood","state_name":"Pennsylvania","lat":40.62264,"lng":-78.91347,"zip":"15745","miles_from_dt":29.22},{"city":"Clarksburg","state_name":"Pennsylvania","lat":40.51751,"lng":-79.33954,"zip":"15725","miles_from_dt":29.36},{"city":"Duncansville","state_name":"Pennsylvania","lat":40.41621,"lng":-78.48743,"zip":"16635","miles_from_dt":29.38},{"city":"Elmora","state_name":"Pennsylvania","lat":40.59871,"lng":-78.75356,"zip":"15737","miles_from_dt":29.66},{"city":"Gallitzin","state_name":"Pennsylvania","lat":40.50774,"lng":-78.57146,"zip":"16641","miles_from_dt":29.74},{"city":"Aultman","state_name":"Pennsylvania","lat":40.5698,"lng":-79.26184,"zip":"15713","miles_from_dt":29.8},{"city":"Hannastown","state_name":"Pennsylvania","lat":40.34891,"lng":-79.49877,"zip":"15635","miles_from_dt":29.87}],"targetCityZipCode":"15935","targetCityState":"Pennsylvania"},"__N_SSG":true}