{"pageProps":{"stateName":"Pennsylvania","cityName":"honey-grove","nearbyCities":[{"city":"Mifflin","state_name":"Pennsylvania","lat":40.50111,"lng":-77.54792,"zip":"17058","miles_from_dt":6.01},{"city":"East Waterford","state_name":"Pennsylvania","lat":40.33758,"lng":-77.66093,"zip":"17021","miles_from_dt":7.1},{"city":"Ickesburg","state_name":"Pennsylvania","lat":40.43329,"lng":-77.42872,"zip":"17037","miles_from_dt":7.77},{"city":"New Germantown","state_name":"Pennsylvania","lat":40.30061,"lng":-77.58928,"zip":"17071","miles_from_dt":8.03},{"city":"Loysville","state_name":"Pennsylvania","lat":40.37098,"lng":-77.41426,"zip":"17047","miles_from_dt":9.01},{"city":"Blain","state_name":"Pennsylvania","lat":40.28495,"lng":-77.54364,"zip":"17006","miles_from_dt":9.21},{"city":"Port Royal","state_name":"Pennsylvania","lat":40.49762,"lng":-77.42579,"zip":"17082","miles_from_dt":9.63},{"city":"Mattawana","state_name":"Pennsylvania","lat":40.49746,"lng":-77.72764,"zip":"17054","miles_from_dt":9.82},{"city":"Granville","state_name":"Pennsylvania","lat":40.55416,"lng":-77.62196,"zip":"17029","miles_from_dt":9.83},{"city":"McVeytown","state_name":"Pennsylvania","lat":40.45881,"lng":-77.77306,"zip":"17051","miles_from_dt":10.87},{"city":"Lewistown","state_name":"Pennsylvania","lat":40.58236,"lng":-77.59013,"zip":"17044","miles_from_dt":11.48},{"city":"Newton Hamilton","state_name":"Pennsylvania","lat":40.39372,"lng":-77.83429,"zip":"17075","miles_from_dt":13.8},{"city":"Elliottsburg","state_name":"Pennsylvania","lat":40.40992,"lng":-77.30854,"zip":"17024","miles_from_dt":14.03},{"city":"Mexico","state_name":"Pennsylvania","lat":40.53349,"lng":-77.35585,"zip":"17056","miles_from_dt":14.07},{"city":"Concord","state_name":"Pennsylvania","lat":40.23822,"lng":-77.72235,"zip":"17217","miles_from_dt":14.56},{"city":"Doylesburg","state_name":"Pennsylvania","lat":40.22367,"lng":-77.69318,"zip":"17219","miles_from_dt":14.7},{"city":"Landisburg","state_name":"Pennsylvania","lat":40.31558,"lng":-77.32571,"zip":"17040","miles_from_dt":14.86},{"city":"Burnham","state_name":"Pennsylvania","lat":40.6359,"lng":-77.56609,"zip":"17009","miles_from_dt":15.15},{"city":"Belleville","state_name":"Pennsylvania","lat":40.59966,"lng":-77.73278,"zip":"17004","miles_from_dt":15.15},{"city":"Blairs Mills","state_name":"Pennsylvania","lat":40.25381,"lng":-77.77249,"zip":"17213","miles_from_dt":15.34},{"city":"Mount Union","state_name":"Pennsylvania","lat":40.35885,"lng":-77.85892,"zip":"17066","miles_from_dt":15.53},{"city":"Orbisonia","state_name":"Pennsylvania","lat":40.28368,"lng":-77.81484,"zip":"17243","miles_from_dt":15.65},{"city":"Yeagertown","state_name":"Pennsylvania","lat":40.64535,"lng":-77.57639,"zip":"17099","miles_from_dt":15.8},{"city":"Allensville","state_name":"Pennsylvania","lat":40.46463,"lng":-77.86761,"zip":"17002","miles_from_dt":15.81},{"city":"Mifflintown","state_name":"Pennsylvania","lat":40.59241,"lng":-77.38165,"zip":"17059","miles_from_dt":15.83},{"city":"Amberson","state_name":"Pennsylvania","lat":40.18989,"lng":-77.661,"zip":"17210","miles_from_dt":16.28},{"city":"Mill Creek","state_name":"Pennsylvania","lat":40.49144,"lng":-77.88158,"zip":"17060","miles_from_dt":17},{"city":"Newburg","state_name":"Pennsylvania","lat":40.15411,"lng":-77.58227,"zip":"17240","miles_from_dt":18.1},{"city":"Dry Run","state_name":"Pennsylvania","lat":40.17807,"lng":-77.74108,"zip":"17220","miles_from_dt":18.65},{"city":"Newville","state_name":"Pennsylvania","lat":40.17793,"lng":-77.40326,"zip":"17241","miles_from_dt":18.77},{"city":"Shirleysburg","state_name":"Pennsylvania","lat":40.2977,"lng":-77.89489,"zip":"17260","miles_from_dt":18.79},{"city":"Reedsville","state_name":"Pennsylvania","lat":40.68705,"lng":-77.62692,"zip":"17084","miles_from_dt":18.88},{"city":"Oakland Mills","state_name":"Pennsylvania","lat":40.62084,"lng":-77.30758,"zip":"17076","miles_from_dt":19.91},{"city":"Spring Run","state_name":"Pennsylvania","lat":40.14489,"lng":-77.74174,"zip":"17262","miles_from_dt":20.71},{"city":"New Bloomfield","state_name":"Pennsylvania","lat":40.40685,"lng":-77.17795,"zip":"17068","miles_from_dt":20.92},{"city":"Roxbury","state_name":"Pennsylvania","lat":40.12159,"lng":-77.66695,"zip":"17251","miles_from_dt":20.92},{"city":"Rockhill Furnace","state_name":"Pennsylvania","lat":40.24186,"lng":-77.9002,"zip":"17249","miles_from_dt":21},{"city":"Huntingdon","state_name":"Pennsylvania","lat":40.51692,"lng":-77.95302,"zip":"16652","miles_from_dt":21.12},{"city":"Plainfield","state_name":"Pennsylvania","lat":40.20121,"lng":-77.28322,"zip":"17081","miles_from_dt":21.38},{"city":"Shermans Dale","state_name":"Pennsylvania","lat":40.32953,"lng":-77.18302,"zip":"17090","miles_from_dt":21.51},{"city":"Thompsontown","state_name":"Pennsylvania","lat":40.58414,"lng":-77.2168,"zip":"17094","miles_from_dt":22.11},{"city":"Lurgan","state_name":"Pennsylvania","lat":40.09462,"lng":-77.63341,"zip":"17232","miles_from_dt":22.42},{"city":"Mapleton Depot","state_name":"Pennsylvania","lat":40.31577,"lng":-77.98195,"zip":"17052","miles_from_dt":22.6},{"city":"Newport","state_name":"Pennsylvania","lat":40.47983,"lng":-77.14456,"zip":"17074","miles_from_dt":23.08},{"city":"McAlisterville","state_name":"Pennsylvania","lat":40.65172,"lng":-77.25948,"zip":"17049","miles_from_dt":23.21},{"city":"Orrstown","state_name":"Pennsylvania","lat":40.08595,"lng":-77.66562,"zip":"17244","miles_from_dt":23.3},{"city":"Millerstown","state_name":"Pennsylvania","lat":40.55153,"lng":-77.16813,"zip":"17062","miles_from_dt":23.35},{"city":"Neelyton","state_name":"Pennsylvania","lat":40.13973,"lng":-77.83009,"zip":"17239","miles_from_dt":23.39},{"city":"Carlisle","state_name":"Pennsylvania","lat":40.241,"lng":-77.19286,"zip":"17013","miles_from_dt":23.5},{"city":"Shade Gap","state_name":"Pennsylvania","lat":40.15426,"lng":-77.86756,"zip":"17255","miles_from_dt":23.81},{"city":"McClure","state_name":"Pennsylvania","lat":40.72455,"lng":-77.35888,"zip":"17841","miles_from_dt":24.1},{"city":"Petersburg","state_name":"Pennsylvania","lat":40.65737,"lng":-77.90675,"zip":"16669","miles_from_dt":24.14},{"city":"Carlisle","state_name":"Pennsylvania","lat":40.18392,"lng":-77.23234,"zip":"17015","miles_from_dt":24.16},{"city":"Walnut Bottom","state_name":"Pennsylvania","lat":40.08745,"lng":-77.412,"zip":"17266","miles_from_dt":24.27},{"city":"Milroy","state_name":"Pennsylvania","lat":40.76274,"lng":-77.47343,"zip":"17063","miles_from_dt":24.48},{"city":"Huntingdon","state_name":"Pennsylvania","lat":40.49189,"lng":-78.02854,"zip":"16654","miles_from_dt":24.5},{"city":"Willow Hill","state_name":"Pennsylvania","lat":40.10183,"lng":-77.80367,"zip":"17271","miles_from_dt":24.86},{"city":"Pleasant Hall","state_name":"Pennsylvania","lat":40.0629,"lng":-77.68255,"zip":"17246","miles_from_dt":25.05},{"city":"Shippensburg","state_name":"Pennsylvania","lat":40.0508,"lng":-77.49027,"zip":"17257","miles_from_dt":25.61},{"city":"Cocolamus","state_name":"Pennsylvania","lat":40.6596,"lng":-77.19358,"zip":"17014","miles_from_dt":26.15},{"city":"McConnellstown","state_name":"Pennsylvania","lat":40.46214,"lng":-78.07009,"zip":"16660","miles_from_dt":26.32},{"city":"Boalsburg","state_name":"Pennsylvania","lat":40.76607,"lng":-77.77739,"zip":"16827","miles_from_dt":26.39},{"city":"Cassville","state_name":"Pennsylvania","lat":40.27618,"lng":-78.04556,"zip":"16623","miles_from_dt":26.69},{"city":"Saltillo","state_name":"Pennsylvania","lat":40.21241,"lng":-78.00628,"zip":"17253","miles_from_dt":26.8},{"city":"Calvin","state_name":"Pennsylvania","lat":40.32853,"lng":-78.0692,"zip":"16622","miles_from_dt":26.8},{"city":"Pine Grove Mills","state_name":"Pennsylvania","lat":40.72725,"lng":-77.89066,"zip":"16868","miles_from_dt":27.15},{"city":"Three Springs","state_name":"Pennsylvania","lat":40.17993,"lng":-77.99331,"zip":"17264","miles_from_dt":27.49},{"city":"Centre Hall","state_name":"Pennsylvania","lat":40.80704,"lng":-77.69097,"zip":"16828","miles_from_dt":27.64},{"city":"Hesston","state_name":"Pennsylvania","lat":40.39514,"lng":-78.09798,"zip":"16647","miles_from_dt":27.65},{"city":"Burnt Cabins","state_name":"Pennsylvania","lat":40.09234,"lng":-77.89008,"zip":"17215","miles_from_dt":27.9},{"city":"Fannettsburg","state_name":"Pennsylvania","lat":40.05796,"lng":-77.82019,"zip":"17221","miles_from_dt":27.94},{"city":"Duncannon","state_name":"Pennsylvania","lat":40.41014,"lng":-77.04367,"zip":"17020","miles_from_dt":28},{"city":"Upperstrasburg","state_name":"Pennsylvania","lat":40.03846,"lng":-77.77297,"zip":"17265","miles_from_dt":28.11},{"city":"Todd","state_name":"Pennsylvania","lat":40.28019,"lng":-78.08063,"zip":"16685","miles_from_dt":28.33},{"city":"Beaver Springs","state_name":"Pennsylvania","lat":40.73626,"lng":-77.23641,"zip":"17812","miles_from_dt":28.35},{"city":"New Kingstown","state_name":"Pennsylvania","lat":40.23385,"lng":-77.08178,"zip":"17072","miles_from_dt":28.9},{"city":"State College","state_name":"Pennsylvania","lat":40.78538,"lng":-77.84214,"zip":"16801","miles_from_dt":29.09},{"city":"Beaver Springs","state_name":"Pennsylvania","lat":40.76172,"lng":-77.25674,"zip":"17843","miles_from_dt":29.1},{"city":"Marysville","state_name":"Pennsylvania","lat":40.3255,"lng":-77.03256,"zip":"17053","miles_from_dt":29.28},{"city":"Pennsylvania Furnace","state_name":"Pennsylvania","lat":40.72086,"lng":-77.96396,"zip":"16865","miles_from_dt":29.35},{"city":"Mount Holly Springs","state_name":"Pennsylvania","lat":40.09837,"lng":-77.20527,"zip":"17065","miles_from_dt":29.36},{"city":"Spring Mills","state_name":"Pennsylvania","lat":40.84536,"lng":-77.56882,"zip":"16875","miles_from_dt":29.6},{"city":"Alexandria","state_name":"Pennsylvania","lat":40.56719,"lng":-78.10214,"zip":"16611","miles_from_dt":29.68},{"city":"Lemont","state_name":"Pennsylvania","lat":40.81229,"lng":-77.80132,"zip":"16851","miles_from_dt":29.81},{"city":"State College","state_name":"Pennsylvania","lat":40.79192,"lng":-77.86099,"zip":"16805","miles_from_dt":29.98},{"city":"State College","state_name":"Pennsylvania","lat":40.79203,"lng":-77.86109,"zip":"16804","miles_from_dt":29.99}],"targetCityZipCode":"17035","targetCityState":"Pennsylvania"},"__N_SSG":true}