{"pageProps":{"stateName":"Pennsylvania","cityName":"hostetter","nearbyCities":[{"city":"Latrobe","state_name":"Pennsylvania","lat":40.27527,"lng":-79.39213,"zip":"15650","miles_from_dt":0.89},{"city":"Whitney","state_name":"Pennsylvania","lat":40.24939,"lng":-79.40592,"zip":"15693","miles_from_dt":1.08},{"city":"Youngstown","state_name":"Pennsylvania","lat":40.2798,"lng":-79.36587,"zip":"15696","miles_from_dt":2.16},{"city":"Pleasant Unity","state_name":"Pennsylvania","lat":40.24303,"lng":-79.45913,"zip":"15676","miles_from_dt":3.38},{"city":"Loyalhanna","state_name":"Pennsylvania","lat":40.32192,"lng":-79.36007,"zip":"15661","miles_from_dt":4.52},{"city":"Bradenville","state_name":"Pennsylvania","lat":40.32336,"lng":-79.33882,"zip":"15620","miles_from_dt":5.24},{"city":"United","state_name":"Pennsylvania","lat":40.2253,"lng":-79.49164,"zip":"15689","miles_from_dt":5.48},{"city":"Calumet","state_name":"Pennsylvania","lat":40.2112,"lng":-79.48581,"zip":"15621","miles_from_dt":5.78},{"city":"Bovard","state_name":"Pennsylvania","lat":40.32051,"lng":-79.49719,"zip":"15619","miles_from_dt":6.35},{"city":"Norvelt","state_name":"Pennsylvania","lat":40.20672,"lng":-79.49636,"zip":"15674","miles_from_dt":6.41},{"city":"Luxor","state_name":"Pennsylvania","lat":40.33892,"lng":-79.47972,"zip":"15662","miles_from_dt":6.58},{"city":"Greensburg","state_name":"Pennsylvania","lat":40.30169,"lng":-79.53809,"zip":"15606","miles_from_dt":7.65},{"city":"Hannastown","state_name":"Pennsylvania","lat":40.34891,"lng":-79.49877,"zip":"15635","miles_from_dt":7.75},{"city":"Derry","state_name":"Pennsylvania","lat":40.35064,"lng":-79.30667,"zip":"15627","miles_from_dt":7.77},{"city":"New Derry","state_name":"Pennsylvania","lat":40.36038,"lng":-79.32146,"zip":"15671","miles_from_dt":7.85},{"city":"Greensburg","state_name":"Pennsylvania","lat":40.31397,"lng":-79.53643,"zip":"15601","miles_from_dt":7.89},{"city":"Crabtree","state_name":"Pennsylvania","lat":40.36638,"lng":-79.47124,"zip":"15624","miles_from_dt":7.92},{"city":"Armbrust","state_name":"Pennsylvania","lat":40.23502,"lng":-79.55093,"zip":"15616","miles_from_dt":8.15},{"city":"Greensburg","state_name":"Pennsylvania","lat":40.34828,"lng":-79.5188,"zip":"15605","miles_from_dt":8.46},{"city":"Acme","state_name":"Pennsylvania","lat":40.13699,"lng":-79.41613,"zip":"15610","miles_from_dt":8.84},{"city":"Forbes Road","state_name":"Pennsylvania","lat":40.35941,"lng":-79.51699,"zip":"15633","miles_from_dt":8.93},{"city":"Mount Pleasant","state_name":"Pennsylvania","lat":40.15858,"lng":-79.51398,"zip":"15666","miles_from_dt":9.43},{"city":"Ligonier","state_name":"Pennsylvania","lat":40.25467,"lng":-79.22217,"zip":"15658","miles_from_dt":9.51},{"city":"Youngwood","state_name":"Pennsylvania","lat":40.24054,"lng":-79.5803,"zip":"15697","miles_from_dt":9.59},{"city":"New Alexandria","state_name":"Pennsylvania","lat":40.40783,"lng":-79.4321,"zip":"15670","miles_from_dt":10.01},{"city":"Stahlstown","state_name":"Pennsylvania","lat":40.13149,"lng":-79.31977,"zip":"15687","miles_from_dt":10.16},{"city":"Southwest","state_name":"Pennsylvania","lat":40.14955,"lng":-79.54155,"zip":"15685","miles_from_dt":10.85},{"city":"Hunker","state_name":"Pennsylvania","lat":40.20927,"lng":-79.59379,"zip":"15639","miles_from_dt":10.85},{"city":"Donegal","state_name":"Pennsylvania","lat":40.10009,"lng":-79.37008,"zip":"15628","miles_from_dt":11.48},{"city":"Grapeville","state_name":"Pennsylvania","lat":40.32533,"lng":-79.60596,"zip":"15634","miles_from_dt":11.57},{"city":"Tarrs","state_name":"Pennsylvania","lat":40.1734,"lng":-79.58602,"zip":"15688","miles_from_dt":11.61},{"city":"Rector","state_name":"Pennsylvania","lat":40.15048,"lng":-79.23113,"zip":"15677","miles_from_dt":11.98},{"city":"Jones Mills","state_name":"Pennsylvania","lat":40.09517,"lng":-79.34448,"zip":"15646","miles_from_dt":12.08},{"city":"New Stanton","state_name":"Pennsylvania","lat":40.24428,"lng":-79.63069,"zip":"15672","miles_from_dt":12.19},{"city":"Jeannette","state_name":"Pennsylvania","lat":40.34681,"lng":-79.61278,"zip":"15644","miles_from_dt":12.51},{"city":"Laughlintown","state_name":"Pennsylvania","lat":40.19739,"lng":-79.18141,"zip":"15655","miles_from_dt":12.54},{"city":"Penn","state_name":"Pennsylvania","lat":40.33363,"lng":-79.63867,"zip":"15675","miles_from_dt":13.39},{"city":"Torrance","state_name":"Pennsylvania","lat":40.40008,"lng":-79.21846,"zip":"15779","miles_from_dt":13.45},{"city":"Delmont","state_name":"Pennsylvania","lat":40.40868,"lng":-79.57592,"zip":"15626","miles_from_dt":13.54},{"city":"Arona","state_name":"Pennsylvania","lat":40.26856,"lng":-79.65805,"zip":"15617","miles_from_dt":13.55},{"city":"Adamsburg","state_name":"Pennsylvania","lat":40.30656,"lng":-79.65266,"zip":"15611","miles_from_dt":13.57},{"city":"Alverton","state_name":"Pennsylvania","lat":40.13793,"lng":-79.59938,"zip":"15612","miles_from_dt":13.63},{"city":"Claridge","state_name":"Pennsylvania","lat":40.3689,"lng":-79.62263,"zip":"15623","miles_from_dt":13.71},{"city":"White","state_name":"Pennsylvania","lat":40.06782,"lng":-79.45327,"zip":"15490","miles_from_dt":13.85},{"city":"Bolivar","state_name":"Pennsylvania","lat":40.35518,"lng":-79.16447,"zip":"15923","miles_from_dt":14},{"city":"Melcroft","state_name":"Pennsylvania","lat":40.06136,"lng":-79.38113,"zip":"15462","miles_from_dt":14.07},{"city":"Ruffs Dale","state_name":"Pennsylvania","lat":40.18126,"lng":-79.64982,"zip":"15679","miles_from_dt":14.33},{"city":"Darragh","state_name":"Pennsylvania","lat":40.27048,"lng":-79.67925,"zip":"15625","miles_from_dt":14.68},{"city":"Madison","state_name":"Pennsylvania","lat":40.25233,"lng":-79.67958,"zip":"15663","miles_from_dt":14.71},{"city":"Slickville","state_name":"Pennsylvania","lat":40.4629,"lng":-79.50629,"zip":"15684","miles_from_dt":14.75},{"city":"Manor","state_name":"Pennsylvania","lat":40.33925,"lng":-79.66338,"zip":"15665","miles_from_dt":14.75},{"city":"Mammoth","state_name":"Pennsylvania","lat":40.32378,"lng":-79.67173,"zip":"15664","miles_from_dt":14.84},{"city":"Wendel","state_name":"Pennsylvania","lat":40.29668,"lng":-79.68411,"zip":"15691","miles_from_dt":15.09},{"city":"Harrison City","state_name":"Pennsylvania","lat":40.36459,"lng":-79.65619,"zip":"15636","miles_from_dt":15.11},{"city":"Scottdale","state_name":"Pennsylvania","lat":40.10926,"lng":-79.60492,"zip":"15683","miles_from_dt":15.19},{"city":"Westmoreland City","state_name":"Pennsylvania","lat":40.33086,"lng":-79.67861,"zip":"15692","miles_from_dt":15.33},{"city":"Everson","state_name":"Pennsylvania","lat":40.08968,"lng":-79.58527,"zip":"15631","miles_from_dt":15.5},{"city":"Yukon","state_name":"Pennsylvania","lat":40.2167,"lng":-79.68894,"zip":"15698","miles_from_dt":15.54},{"city":"Blairsville","state_name":"Pennsylvania","lat":40.45354,"lng":-79.23896,"zip":"15717","miles_from_dt":15.61},{"city":"Indian Head","state_name":"Pennsylvania","lat":40.03172,"lng":-79.39433,"zip":"15446","miles_from_dt":16.08},{"city":"Wyano","state_name":"Pennsylvania","lat":40.19707,"lng":-79.69284,"zip":"15695","miles_from_dt":16.09},{"city":"Export","state_name":"Pennsylvania","lat":40.43803,"lng":-79.60668,"zip":"15632","miles_from_dt":16.13},{"city":"Herminie","state_name":"Pennsylvania","lat":40.26125,"lng":-79.71203,"zip":"15637","miles_from_dt":16.4},{"city":"Champion","state_name":"Pennsylvania","lat":40.0356,"lng":-79.31724,"zip":"15622","miles_from_dt":16.42},{"city":"Saltsburg","state_name":"Pennsylvania","lat":40.5023,"lng":-79.43873,"zip":"15681","miles_from_dt":16.51},{"city":"Robinson","state_name":"Pennsylvania","lat":40.4055,"lng":-79.13442,"zip":"15949","miles_from_dt":17.13},{"city":"Rillton","state_name":"Pennsylvania","lat":40.28447,"lng":-79.72579,"zip":"15678","miles_from_dt":17.18},{"city":"Irwin","state_name":"Pennsylvania","lat":40.32045,"lng":-79.72119,"zip":"15642","miles_from_dt":17.31},{"city":"Normalville","state_name":"Pennsylvania","lat":40.01366,"lng":-79.41861,"zip":"15469","miles_from_dt":17.34},{"city":"Hidden Valley","state_name":"Pennsylvania","lat":40.03641,"lng":-79.25176,"zip":"15502","miles_from_dt":17.64},{"city":"Larimer","state_name":"Pennsylvania","lat":40.34262,"lng":-79.72009,"zip":"15647","miles_from_dt":17.66},{"city":"Hutchinson","state_name":"Pennsylvania","lat":40.22315,"lng":-79.73243,"zip":"15640","miles_from_dt":17.72},{"city":"Clarksburg","state_name":"Pennsylvania","lat":40.51751,"lng":-79.33954,"zip":"15725","miles_from_dt":17.75},{"city":"Boswell","state_name":"Pennsylvania","lat":40.18537,"lng":-79.0794,"zip":"15531","miles_from_dt":17.9},{"city":"West Newton","state_name":"Pennsylvania","lat":40.22063,"lng":-79.73719,"zip":"15089","miles_from_dt":18},{"city":"Black Lick","state_name":"Pennsylvania","lat":40.47025,"lng":-79.19031,"zip":"15716","miles_from_dt":18.05},{"city":"New Florence","state_name":"Pennsylvania","lat":40.36295,"lng":-79.0816,"zip":"15944","miles_from_dt":18.22},{"city":"Smithton","state_name":"Pennsylvania","lat":40.15224,"lng":-79.71329,"zip":"15479","miles_from_dt":18.22},{"city":"Connellsville","state_name":"Pennsylvania","lat":40.02702,"lng":-79.55411,"zip":"15425","miles_from_dt":18.27},{"city":"Salina","state_name":"Pennsylvania","lat":40.52104,"lng":-79.49638,"zip":"15680","miles_from_dt":18.38},{"city":"Gray","state_name":"Pennsylvania","lat":40.13254,"lng":-79.09656,"zip":"15544","miles_from_dt":18.54},{"city":"Ardara","state_name":"Pennsylvania","lat":40.36133,"lng":-79.73397,"zip":"15615","miles_from_dt":18.77},{"city":"Jennerstown","state_name":"Pennsylvania","lat":40.1629,"lng":-79.07019,"zip":"15547","miles_from_dt":18.89},{"city":"Trafford","state_name":"Pennsylvania","lat":40.38497,"lng":-79.72539,"zip":"15085","miles_from_dt":19},{"city":"Josephine","state_name":"Pennsylvania","lat":40.48377,"lng":-79.18256,"zip":"15750","miles_from_dt":19.03},{"city":"Dawson","state_name":"Pennsylvania","lat":40.0811,"lng":-79.68184,"zip":"15428","miles_from_dt":19.5},{"city":"Lowber","state_name":"Pennsylvania","lat":40.24669,"lng":-79.77293,"zip":"15660","miles_from_dt":19.66},{"city":"Jacobs Creek","state_name":"Pennsylvania","lat":40.13572,"lng":-79.73394,"zip":"15448","miles_from_dt":19.7},{"city":"Murrysville","state_name":"Pennsylvania","lat":40.46352,"lng":-79.67168,"zip":"15668","miles_from_dt":19.78},{"city":"Kent","state_name":"Pennsylvania","lat":40.5408,"lng":-79.28177,"zip":"15752","miles_from_dt":20.08},{"city":"Sipesville","state_name":"Pennsylvania","lat":40.09379,"lng":-79.0907,"zip":"15561","miles_from_dt":20.25},{"city":"Coral","state_name":"Pennsylvania","lat":40.50383,"lng":-79.1767,"zip":"15731","miles_from_dt":20.33},{"city":"Dickerson Run","state_name":"Pennsylvania","lat":40.04025,"lng":-79.65534,"zip":"15430","miles_from_dt":20.5},{"city":"Quecreek","state_name":"Pennsylvania","lat":40.09758,"lng":-79.08132,"zip":"15555","miles_from_dt":20.5},{"city":"Sutersville","state_name":"Pennsylvania","lat":40.24802,"lng":-79.79041,"zip":"15083","miles_from_dt":20.58},{"city":"Avonmore","state_name":"Pennsylvania","lat":40.56229,"lng":-79.44628,"zip":"15618","miles_from_dt":20.67},{"city":"Jenners","state_name":"Pennsylvania","lat":40.13717,"lng":-79.04758,"zip":"15546","miles_from_dt":20.7},{"city":"Buena Vista","state_name":"Pennsylvania","lat":40.26924,"lng":-79.79805,"zip":"15018","miles_from_dt":20.95},{"city":"Greenock","state_name":"Pennsylvania","lat":40.3123,"lng":-79.79513,"zip":"15047","miles_from_dt":21.05},{"city":"Acosta","state_name":"Pennsylvania","lat":40.10626,"lng":-79.06017,"zip":"15520","miles_from_dt":21.12},{"city":"Coulters","state_name":"Pennsylvania","lat":40.30194,"lng":-79.79891,"zip":"15028","miles_from_dt":21.15},{"city":"Clune","state_name":"Pennsylvania","lat":40.56498,"lng":-79.31496,"zip":"15727","miles_from_dt":21.22},{"city":"Somerset","state_name":"Pennsylvania","lat":40.03582,"lng":-79.13024,"zip":"15501","miles_from_dt":21.35},{"city":"Wickhaven","state_name":"Pennsylvania","lat":40.11974,"lng":-79.76306,"zip":"15492","miles_from_dt":21.58},{"city":"Mckeesport","state_name":"Pennsylvania","lat":40.33477,"lng":-79.80132,"zip":"15131","miles_from_dt":21.66},{"city":"Apollo","state_name":"Pennsylvania","lat":40.55355,"lng":-79.56577,"zip":"15613","miles_from_dt":21.73},{"city":"Mckeesport","state_name":"Pennsylvania","lat":40.29959,"lng":-79.81153,"zip":"15135","miles_from_dt":21.79},{"city":"McIntyre","state_name":"Pennsylvania","lat":40.57134,"lng":-79.30096,"zip":"15756","miles_from_dt":21.82},{"city":"Monroeville","state_name":"Pennsylvania","lat":40.4264,"lng":-79.76005,"zip":"15146","miles_from_dt":21.96},{"city":"Leisenring","state_name":"Pennsylvania","lat":40.00614,"lng":-79.64609,"zip":"15455","miles_from_dt":22.04},{"city":"Pitcairn","state_name":"Pennsylvania","lat":40.4073,"lng":-79.7783,"zip":"15140","miles_from_dt":22.19},{"city":"Aultman","state_name":"Pennsylvania","lat":40.5698,"lng":-79.26184,"zip":"15713","miles_from_dt":22.31},{"city":"Johnstown","state_name":"Pennsylvania","lat":40.29423,"lng":-78.98035,"zip":"15905","miles_from_dt":22.36},{"city":"Jerome","state_name":"Pennsylvania","lat":40.21463,"lng":-78.98105,"zip":"15937","miles_from_dt":22.51},{"city":"Wilmerding","state_name":"Pennsylvania","lat":40.39351,"lng":-79.79525,"zip":"15148","miles_from_dt":22.6},{"city":"North Versailles","state_name":"Pennsylvania","lat":40.37762,"lng":-79.80902,"zip":"15137","miles_from_dt":22.88},{"city":"Belle Vernon","state_name":"Pennsylvania","lat":40.15871,"lng":-79.81188,"zip":"15012","miles_from_dt":22.9},{"city":"East McKeesport","state_name":"Pennsylvania","lat":40.38488,"lng":-79.80726,"zip":"15035","miles_from_dt":22.97},{"city":"Vanderbilt","state_name":"Pennsylvania","lat":40.02762,"lng":-79.70981,"zip":"15486","miles_from_dt":23.1},{"city":"Armagh","state_name":"Pennsylvania","lat":40.46705,"lng":-79.05006,"zip":"15920","miles_from_dt":23.23},{"city":"Pittsburgh","state_name":"Pennsylvania","lat":40.48437,"lng":-79.73753,"zip":"15239","miles_from_dt":23.32},{"city":"Hollsopple","state_name":"Pennsylvania","lat":40.20112,"lng":-78.96755,"zip":"15935","miles_from_dt":23.37},{"city":"Mill Run","state_name":"Pennsylvania","lat":39.92463,"lng":-79.43695,"zip":"15464","miles_from_dt":23.53},{"city":"West Lebanon","state_name":"Pennsylvania","lat":40.60297,"lng":-79.34495,"zip":"15783","miles_from_dt":23.53},{"city":"Seward","state_name":"Pennsylvania","lat":40.41837,"lng":-79.00051,"zip":"15954","miles_from_dt":23.69},{"city":"Elizabeth","state_name":"Pennsylvania","lat":40.25649,"lng":-79.85017,"zip":"15037","miles_from_dt":23.71},{"city":"Perryopolis","state_name":"Pennsylvania","lat":40.07256,"lng":-79.77352,"zip":"15473","miles_from_dt":23.73},{"city":"Mckeesport","state_name":"Pennsylvania","lat":40.33982,"lng":-79.84299,"zip":"15132","miles_from_dt":23.88},{"city":"Star Junction","state_name":"Pennsylvania","lat":40.06073,"lng":-79.76645,"zip":"15482","miles_from_dt":23.89},{"city":"Lucernemines","state_name":"Pennsylvania","lat":40.55667,"lng":-79.15152,"zip":"15754","miles_from_dt":24.08},{"city":"North Apollo","state_name":"Pennsylvania","lat":40.59383,"lng":-79.55634,"zip":"15673","miles_from_dt":24.13},{"city":"Webster","state_name":"Pennsylvania","lat":40.19504,"lng":-79.84948,"zip":"15087","miles_from_dt":24.16},{"city":"Dunbar","state_name":"Pennsylvania","lat":39.94066,"lng":-79.58075,"zip":"15431","miles_from_dt":24.28},{"city":"Homer City","state_name":"Pennsylvania","lat":40.52489,"lng":-79.087,"zip":"15748","miles_from_dt":24.45},{"city":"Spring Church","state_name":"Pennsylvania","lat":40.61802,"lng":-79.43635,"zip":"15686","miles_from_dt":24.45},{"city":"East Vandergrift","state_name":"Pennsylvania","lat":40.59731,"lng":-79.56304,"zip":"15629","miles_from_dt":24.48},{"city":"Turtle Creek","state_name":"Pennsylvania","lat":40.41451,"lng":-79.82352,"zip":"15145","miles_from_dt":24.55},{"city":"Mckeesport","state_name":"Pennsylvania","lat":40.3257,"lng":-79.86127,"zip":"15133","miles_from_dt":24.64},{"city":"Duquesne","state_name":"Pennsylvania","lat":40.37321,"lng":-79.85024,"zip":"15110","miles_from_dt":24.84},{"city":"East Pittsburgh","state_name":"Pennsylvania","lat":40.40453,"lng":-79.83734,"zip":"15112","miles_from_dt":24.94},{"city":"Mckeesport","state_name":"Pennsylvania","lat":40.34719,"lng":-79.86423,"zip":"15134","miles_from_dt":25.09},{"city":"Donora","state_name":"Pennsylvania","lat":40.18011,"lng":-79.86501,"zip":"15033","miles_from_dt":25.19},{"city":"Rockwood","state_name":"Pennsylvania","lat":39.92757,"lng":-79.20945,"zip":"15557","miles_from_dt":25.39},{"city":"Pricedale","state_name":"Pennsylvania","lat":40.13922,"lng":-79.85605,"zip":"15072","miles_from_dt":25.55},{"city":"Dilltown","state_name":"Pennsylvania","lat":40.47683,"lng":-79.0042,"zip":"15929","miles_from_dt":25.58},{"city":"Tire Hill","state_name":"Pennsylvania","lat":40.26919,"lng":-78.91523,"zip":"15959","miles_from_dt":25.71},{"city":"Davidsville","state_name":"Pennsylvania","lat":40.23943,"lng":-78.91591,"zip":"15928","miles_from_dt":25.74},{"city":"Mount Braddock","state_name":"Pennsylvania","lat":39.93883,"lng":-79.64126,"zip":"15465","miles_from_dt":25.82},{"city":"Johnstown","state_name":"Pennsylvania","lat":40.33,"lng":-78.92001,"zip":"15907","miles_from_dt":25.84},{"city":"Brush Valley","state_name":"Pennsylvania","lat":40.53896,"lng":-79.06625,"zip":"15720","miles_from_dt":25.91},{"city":"Johnstown","state_name":"Pennsylvania","lat":40.37806,"lng":-78.93356,"zip":"15906","miles_from_dt":25.93},{"city":"Pittsburgh","state_name":"Pennsylvania","lat":40.45968,"lng":-79.82194,"zip":"15235","miles_from_dt":25.94},{"city":"Glassport","state_name":"Pennsylvania","lat":40.32613,"lng":-79.88614,"zip":"15045","miles_from_dt":25.94},{"city":"West Leisenring","state_name":"Pennsylvania","lat":39.96323,"lng":-79.69531,"zip":"15489","miles_from_dt":25.97},{"city":"Johnstown","state_name":"Pennsylvania","lat":40.32845,"lng":-78.9146,"zip":"15901","miles_from_dt":26.11},{"city":"West Elizabeth","state_name":"Pennsylvania","lat":40.27159,"lng":-79.89607,"zip":"15088","miles_from_dt":26.13},{"city":"Braddock","state_name":"Pennsylvania","lat":40.40379,"lng":-79.86249,"zip":"15104","miles_from_dt":26.16},{"city":"Listie","state_name":"Pennsylvania","lat":40.02929,"lng":-79.01269,"zip":"15549","miles_from_dt":26.23},{"city":"New Kensington","state_name":"Pennsylvania","lat":40.56241,"lng":-79.7124,"zip":"15068","miles_from_dt":26.28},{"city":"Dunlevy","state_name":"Pennsylvania","lat":40.11301,"lng":-79.85913,"zip":"15432","miles_from_dt":26.37},{"city":"Dravosburg","state_name":"Pennsylvania","lat":40.35083,"lng":-79.89067,"zip":"15034","miles_from_dt":26.5},{"city":"Allenport","state_name":"Pennsylvania","lat":40.09496,"lng":-79.85218,"zip":"15412","miles_from_dt":26.56},{"city":"Monessen","state_name":"Pennsylvania","lat":40.15184,"lng":-79.88277,"zip":"15062","miles_from_dt":26.61},{"city":"Lemont Furnace","state_name":"Pennsylvania","lat":39.92919,"lng":-79.6532,"zip":"15456","miles_from_dt":26.71},{"city":"Friedens","state_name":"Pennsylvania","lat":40.04905,"lng":-78.98076,"zip":"15541","miles_from_dt":26.79},{"city":"Stockdale","state_name":"Pennsylvania","lat":40.08352,"lng":-79.85036,"zip":"15483","miles_from_dt":26.83},{"city":"Kantner","state_name":"Pennsylvania","lat":40.10445,"lng":-78.93981,"zip":"15548","miles_from_dt":26.83},{"city":"Fayette City","state_name":"Pennsylvania","lat":40.07485,"lng":-79.84431,"zip":"15438","miles_from_dt":26.84},{"city":"Hyde Park","state_name":"Pennsylvania","lat":40.63151,"lng":-79.58909,"zip":"15641","miles_from_dt":27.17},{"city":"Pittsburgh","state_name":"Pennsylvania","lat":40.43457,"lng":-79.86631,"zip":"15221","miles_from_dt":27.18},{"city":"Markleton","state_name":"Pennsylvania","lat":39.88413,"lng":-79.26761,"zip":"15551","miles_from_dt":27.2},{"city":"Stoystown","state_name":"Pennsylvania","lat":40.0962,"lng":-78.93618,"zip":"15563","miles_from_dt":27.24},{"city":"Seanor","state_name":"Pennsylvania","lat":40.21113,"lng":-78.89049,"zip":"15953","miles_from_dt":27.28},{"city":"Vandergrift","state_name":"Pennsylvania","lat":40.6455,"lng":-79.54243,"zip":"15690","miles_from_dt":27.3},{"city":"Smock","state_name":"Pennsylvania","lat":39.98644,"lng":-79.76962,"zip":"15480","miles_from_dt":27.35},{"city":"Indiana","state_name":"Pennsylvania","lat":40.61588,"lng":-79.15983,"zip":"15705","miles_from_dt":27.38},{"city":"Shelocta","state_name":"Pennsylvania","lat":40.65729,"lng":-79.32508,"zip":"15774","miles_from_dt":27.39},{"city":"Waltersburg","state_name":"Pennsylvania","lat":39.97749,"lng":-79.75974,"zip":"15488","miles_from_dt":27.43},{"city":"West Mifflin","state_name":"Pennsylvania","lat":40.35976,"lng":-79.90628,"zip":"15122","miles_from_dt":27.45},{"city":"Roscoe","state_name":"Pennsylvania","lat":40.07856,"lng":-79.86243,"zip":"15477","miles_from_dt":27.56},{"city":"Clairton","state_name":"Pennsylvania","lat":40.29887,"lng":-79.9213,"zip":"15025","miles_from_dt":27.56},{"city":"Elrama","state_name":"Pennsylvania","lat":40.2499,"lng":-79.92379,"zip":"15038","miles_from_dt":27.62},{"city":"Verona","state_name":"Pennsylvania","lat":40.49704,"lng":-79.82858,"zip":"15147","miles_from_dt":27.65},{"city":"Hooversville","state_name":"Pennsylvania","lat":40.16221,"lng":-78.89584,"zip":"15936","miles_from_dt":27.68},{"city":"Johnstown","state_name":"Pennsylvania","lat":40.32,"lng":-78.87911,"zip":"15902","miles_from_dt":27.87},{"city":"New Kensington","state_name":"Pennsylvania","lat":40.56968,"lng":-79.74932,"zip":"15069","miles_from_dt":27.91},{"city":"Monongahela","state_name":"Pennsylvania","lat":40.19487,"lng":-79.92228,"zip":"15063","miles_from_dt":27.95},{"city":"Pittsburgh","state_name":"Pennsylvania","lat":40.42366,"lng":-79.88924,"zip":"15218","miles_from_dt":27.98},{"city":"Vintondale","state_name":"Pennsylvania","lat":40.46187,"lng":-78.9382,"zip":"15961","miles_from_dt":27.99},{"city":"Springdale","state_name":"Pennsylvania","lat":40.54759,"lng":-79.78317,"zip":"15144","miles_from_dt":28.03},{"city":"Homestead","state_name":"Pennsylvania","lat":40.39597,"lng":-79.90689,"zip":"15120","miles_from_dt":28.17},{"city":"Somerset","state_name":"Pennsylvania","lat":39.96435,"lng":-79.04009,"zip":"15510","miles_from_dt":28.22},{"city":"Elco","state_name":"Pennsylvania","lat":40.08013,"lng":-79.88037,"zip":"15434","miles_from_dt":28.35},{"city":"Leechburg","state_name":"Pennsylvania","lat":40.64114,"lng":-79.61981,"zip":"15656","miles_from_dt":28.41},{"city":"Indiana","state_name":"Pennsylvania","lat":40.62935,"lng":-79.15056,"zip":"15701","miles_from_dt":28.43},{"city":"Keisterville","state_name":"Pennsylvania","lat":39.97267,"lng":-79.78055,"zip":"15449","miles_from_dt":28.44},{"city":"West Mifflin","state_name":"Pennsylvania","lat":40.34817,"lng":-79.93471,"zip":"15123","miles_from_dt":28.74},{"city":"Johnstown","state_name":"Pennsylvania","lat":40.30833,"lng":-78.85929,"zip":"15915","miles_from_dt":28.82},{"city":"Grindstone","state_name":"Pennsylvania","lat":40.01542,"lng":-79.84019,"zip":"15442","miles_from_dt":28.89},{"city":"Parkhill","state_name":"Pennsylvania","lat":40.35909,"lng":-78.86867,"zip":"15945","miles_from_dt":28.9},{"city":"Oakmont","state_name":"Pennsylvania","lat":40.52192,"lng":-79.83479,"zip":"15139","miles_from_dt":28.93},{"city":"Bunola","state_name":"Pennsylvania","lat":40.2283,"lng":-79.9479,"zip":"15020","miles_from_dt":28.99},{"city":"Newell","state_name":"Pennsylvania","lat":40.07562,"lng":-79.89199,"zip":"15466","miles_from_dt":29.04},{"city":"Oliver","state_name":"Pennsylvania","lat":39.91933,"lng":-79.71679,"zip":"15472","miles_from_dt":29.09},{"city":"Harwick","state_name":"Pennsylvania","lat":40.55545,"lng":-79.80366,"zip":"15049","miles_from_dt":29.19},{"city":"Ohiopyle","state_name":"Pennsylvania","lat":39.85321,"lng":-79.53078,"zip":"15470","miles_from_dt":29.2},{"city":"Chestnut Ridge","state_name":"Pennsylvania","lat":39.9781,"lng":-79.80927,"zip":"15422","miles_from_dt":29.27},{"city":"Pittsburgh","state_name":"Pennsylvania","lat":40.45387,"lng":-79.89883,"zip":"15208","miles_from_dt":29.31},{"city":"Pittsburgh","state_name":"Pennsylvania","lat":40.39813,"lng":-79.9334,"zip":"15207","miles_from_dt":29.55},{"city":"Johnstown","state_name":"Pennsylvania","lat":40.3056,"lng":-78.84382,"zip":"15904","miles_from_dt":29.61},{"city":"Pittsburgh","state_name":"Pennsylvania","lat":40.43083,"lng":-79.91999,"zip":"15217","miles_from_dt":29.67},{"city":"California","state_name":"Pennsylvania","lat":40.05861,"lng":-79.89408,"zip":"15419","miles_from_dt":29.69},{"city":"Charleroi","state_name":"Pennsylvania","lat":40.13329,"lng":-79.93661,"zip":"15022","miles_from_dt":29.72},{"city":"Brackenridge","state_name":"Pennsylvania","lat":40.60859,"lng":-79.74149,"zip":"15014","miles_from_dt":29.73},{"city":"Johnstown","state_name":"Pennsylvania","lat":40.40783,"lng":-78.87047,"zip":"15909","miles_from_dt":29.74},{"city":"Creighton","state_name":"Pennsylvania","lat":40.58492,"lng":-79.78074,"zip":"15030","miles_from_dt":29.8},{"city":"New Eagle","state_name":"Pennsylvania","lat":40.20823,"lng":-79.96106,"zip":"15067","miles_from_dt":29.83}],"targetCityZipCode":"15638","targetCityState":"Pennsylvania"},"__N_SSG":true}