{"pageProps":{"stateName":"Pennsylvania","cityName":"jonestown","nearbyCities":[{"city":"Ono","state_name":"Pennsylvania","lat":40.40232,"lng":-76.53651,"zip":"17077","miles_from_dt":4.57},{"city":"Tower City","state_name":"Pennsylvania","lat":40.531,"lng":-76.62065,"zip":"17980","miles_from_dt":5.77},{"city":"Fredericksburg","state_name":"Pennsylvania","lat":40.46734,"lng":-76.43626,"zip":"17026","miles_from_dt":5.94},{"city":"Grantville","state_name":"Pennsylvania","lat":40.4033,"lng":-76.65073,"zip":"17028","miles_from_dt":6.97},{"city":"Annville","state_name":"Pennsylvania","lat":40.35735,"lng":-76.55528,"zip":"17003","miles_from_dt":7.63},{"city":"Lebanon","state_name":"Pennsylvania","lat":40.38242,"lng":-76.4306,"zip":"17046","miles_from_dt":8.59},{"city":"Muir","state_name":"Pennsylvania","lat":40.59359,"lng":-76.51651,"zip":"17957","miles_from_dt":8.84},{"city":"Williamstown","state_name":"Pennsylvania","lat":40.58998,"lng":-76.63071,"zip":"17098","miles_from_dt":9.46},{"city":"Quentin","state_name":"Pennsylvania","lat":40.33791,"lng":-76.47433,"zip":"17083","miles_from_dt":9.79},{"city":"Wiconisco","state_name":"Pennsylvania","lat":40.57414,"lng":-76.67704,"zip":"17097","miles_from_dt":9.96},{"city":"Pine Grove","state_name":"Pennsylvania","lat":40.56133,"lng":-76.39548,"zip":"17963","miles_from_dt":10.34},{"city":"Spring Glen","state_name":"Pennsylvania","lat":40.6165,"lng":-76.65219,"zip":"17978","miles_from_dt":11.61},{"city":"Valley View","state_name":"Pennsylvania","lat":40.64403,"lng":-76.55027,"zip":"17983","miles_from_dt":12.16},{"city":"Palmyra","state_name":"Pennsylvania","lat":40.28952,"lng":-76.58484,"zip":"17078","miles_from_dt":12.45},{"city":"Sacramento","state_name":"Pennsylvania","lat":40.6417,"lng":-76.62625,"zip":"17968","miles_from_dt":12.67},{"city":"Ravine","state_name":"Pennsylvania","lat":40.55922,"lng":-76.33073,"zip":"17966","miles_from_dt":13.11},{"city":"Hegins","state_name":"Pennsylvania","lat":40.65558,"lng":-76.50198,"zip":"17938","miles_from_dt":13.19},{"city":"Campbelltown","state_name":"Pennsylvania","lat":40.27809,"lng":-76.58335,"zip":"17010","miles_from_dt":13.22},{"city":"Lykens","state_name":"Pennsylvania","lat":40.60554,"lng":-76.72669,"zip":"17048","miles_from_dt":13.33},{"city":"Harrisburg","state_name":"Pennsylvania","lat":40.37497,"lng":-76.77163,"zip":"17112","miles_from_dt":13.38},{"city":"Myerstown","state_name":"Pennsylvania","lat":40.38848,"lng":-76.31583,"zip":"17067","miles_from_dt":13.46},{"city":"Lebanon","state_name":"Pennsylvania","lat":40.29488,"lng":-76.42271,"zip":"17042","miles_from_dt":13.67},{"city":"Mount Aetna","state_name":"Pennsylvania","lat":40.41669,"lng":-76.29619,"zip":"19544","miles_from_dt":13.78},{"city":"Tremont","state_name":"Pennsylvania","lat":40.63077,"lng":-76.39523,"zip":"17981","miles_from_dt":13.85},{"city":"Gratz","state_name":"Pennsylvania","lat":40.60833,"lng":-76.74417,"zip":"17030","miles_from_dt":14.13},{"city":"Bethel","state_name":"Pennsylvania","lat":40.49268,"lng":-76.28235,"zip":"19507","miles_from_dt":14.15},{"city":"Halifax","state_name":"Pennsylvania","lat":40.49448,"lng":-76.81788,"zip":"17032","miles_from_dt":14.29},{"city":"Hershey","state_name":"Pennsylvania","lat":40.26829,"lng":-76.62754,"zip":"17033","miles_from_dt":14.38},{"city":"Hummelstown","state_name":"Pennsylvania","lat":40.28579,"lng":-76.69611,"zip":"17036","miles_from_dt":14.77},{"city":"Cornwall","state_name":"Pennsylvania","lat":40.27322,"lng":-76.40705,"zip":"17016","miles_from_dt":15.38},{"city":"Klingerstown","state_name":"Pennsylvania","lat":40.68614,"lng":-76.61472,"zip":"17941","miles_from_dt":15.45},{"city":"Richland","state_name":"Pennsylvania","lat":40.40523,"lng":-76.26356,"zip":"17087","miles_from_dt":15.65},{"city":"Rexmont","state_name":"Pennsylvania","lat":40.27885,"lng":-76.3832,"zip":"17085","miles_from_dt":15.7},{"city":"Rehrersburg","state_name":"Pennsylvania","lat":40.45593,"lng":-76.25055,"zip":"19550","miles_from_dt":15.75},{"city":"Elizabethville","state_name":"Pennsylvania","lat":40.5813,"lng":-76.81169,"zip":"17023","miles_from_dt":15.89},{"city":"Mount Gretna","state_name":"Pennsylvania","lat":40.24135,"lng":-76.47553,"zip":"17064","miles_from_dt":16.1},{"city":"Berrysburg","state_name":"Pennsylvania","lat":40.60304,"lng":-76.81065,"zip":"17005","miles_from_dt":16.64},{"city":"Pitman","state_name":"Pennsylvania","lat":40.71415,"lng":-76.49785,"zip":"17964","miles_from_dt":17.2},{"city":"Leck Kill","state_name":"Pennsylvania","lat":40.71446,"lng":-76.60136,"zip":"17836","miles_from_dt":17.24},{"city":"Lawn","state_name":"Pennsylvania","lat":40.21667,"lng":-76.5395,"zip":"17041","miles_from_dt":17.34},{"city":"Schaefferstown","state_name":"Pennsylvania","lat":40.30046,"lng":-76.295,"zip":"17088","miles_from_dt":17.69},{"city":"Pillow","state_name":"Pennsylvania","lat":40.64057,"lng":-76.80299,"zip":"17080","miles_from_dt":17.91},{"city":"Branchdale","state_name":"Pennsylvania","lat":40.66136,"lng":-76.31871,"zip":"17923","miles_from_dt":18.03},{"city":"Dauphin","state_name":"Pennsylvania","lat":40.40246,"lng":-76.88117,"zip":"17018","miles_from_dt":18.09},{"city":"Harrisburg","state_name":"Pennsylvania","lat":40.27041,"lng":-76.78265,"zip":"17111","miles_from_dt":18.38},{"city":"Harrisburg","state_name":"Pennsylvania","lat":40.29036,"lng":-76.81259,"zip":"17177","miles_from_dt":18.53},{"city":"Womelsdorf","state_name":"Pennsylvania","lat":40.3957,"lng":-76.20989,"zip":"19567","miles_from_dt":18.56},{"city":"Rebuck","state_name":"Pennsylvania","lat":40.71464,"lng":-76.69025,"zip":"17867","miles_from_dt":18.58},{"city":"Friedensburg","state_name":"Pennsylvania","lat":40.60357,"lng":-76.24244,"zip":"17933","miles_from_dt":18.66},{"city":"Harrisburg","state_name":"Pennsylvania","lat":40.28986,"lng":-76.82414,"zip":"17109","miles_from_dt":19.02},{"city":"Llewellyn","state_name":"Pennsylvania","lat":40.6605,"lng":-76.28903,"zip":"17944","miles_from_dt":19.07},{"city":"Newmanstown","state_name":"Pennsylvania","lat":40.30047,"lng":-76.25924,"zip":"17073","miles_from_dt":19.16},{"city":"Strausstown","state_name":"Pennsylvania","lat":40.49234,"lng":-76.18661,"zip":"19559","miles_from_dt":19.17},{"city":"Schuylkill Haven","state_name":"Pennsylvania","lat":40.58199,"lng":-76.21367,"zip":"17972","miles_from_dt":19.33},{"city":"Summit Station","state_name":"Pennsylvania","lat":40.56729,"lng":-76.20207,"zip":"17979","miles_from_dt":19.51},{"city":"Millersburg","state_name":"Pennsylvania","lat":40.56542,"lng":-76.90046,"zip":"17061","miles_from_dt":19.7},{"city":"Dornsife","state_name":"Pennsylvania","lat":40.72099,"lng":-76.72541,"zip":"17823","miles_from_dt":19.78},{"city":"Harrisburg","state_name":"Pennsylvania","lat":40.25965,"lng":-76.80772,"zip":"17140","miles_from_dt":19.82},{"city":"Herndon","state_name":"Pennsylvania","lat":40.68791,"lng":-76.79449,"zip":"17830","miles_from_dt":19.93},{"city":"Kleinfeltersville","state_name":"Pennsylvania","lat":40.2928,"lng":-76.24077,"zip":"17039","miles_from_dt":20.26},{"city":"Penryn","state_name":"Pennsylvania","lat":40.20546,"lng":-76.37044,"zip":"17564","miles_from_dt":20.41},{"city":"Harrisburg","state_name":"Pennsylvania","lat":40.31776,"lng":-76.88354,"zip":"17110","miles_from_dt":20.47},{"city":"Harrisburg","state_name":"Pennsylvania","lat":40.29648,"lng":-76.87461,"zip":"17107","miles_from_dt":20.86},{"city":"Shamokin","state_name":"Pennsylvania","lat":40.7677,"lng":-76.61317,"zip":"17872","miles_from_dt":20.96},{"city":"Elizabethtown","state_name":"Pennsylvania","lat":40.16677,"lng":-76.60823,"zip":"17022","miles_from_dt":21.01},{"city":"Middletown","state_name":"Pennsylvania","lat":40.19437,"lng":-76.72659,"zip":"17057","miles_from_dt":21.07},{"city":"Elm","state_name":"Pennsylvania","lat":40.20369,"lng":-76.34792,"zip":"17521","miles_from_dt":21.09},{"city":"Harrisburg","state_name":"Pennsylvania","lat":40.29406,"lng":-76.87783,"zip":"17106","miles_from_dt":21.09},{"city":"Harrisburg","state_name":"Pennsylvania","lat":40.27499,"lng":-76.86326,"zip":"17103","miles_from_dt":21.27},{"city":"Manheim","state_name":"Pennsylvania","lat":40.17307,"lng":-76.42792,"zip":"17545","miles_from_dt":21.32},{"city":"Dalmatia","state_name":"Pennsylvania","lat":40.6275,"lng":-76.89854,"zip":"17017","miles_from_dt":21.45},{"city":"Minersville","state_name":"Pennsylvania","lat":40.69047,"lng":-76.25985,"zip":"17954","miles_from_dt":21.62},{"city":"Mar Lin","state_name":"Pennsylvania","lat":40.67919,"lng":-76.24425,"zip":"17951","miles_from_dt":21.67},{"city":"Harrisburg","state_name":"Pennsylvania","lat":40.23032,"lng":-76.82083,"zip":"17113","miles_from_dt":21.79},{"city":"Highspire","state_name":"Pennsylvania","lat":40.20831,"lng":-76.78489,"zip":"17034","miles_from_dt":21.82},{"city":"Cressona","state_name":"Pennsylvania","lat":40.63104,"lng":-76.19273,"zip":"17929","miles_from_dt":21.87},{"city":"Hopeland","state_name":"Pennsylvania","lat":40.23452,"lng":-76.26784,"zip":"17533","miles_from_dt":21.9},{"city":"Pottsville","state_name":"Pennsylvania","lat":40.69364,"lng":-76.25526,"zip":"17901","miles_from_dt":21.94},{"city":"Kulpmont","state_name":"Pennsylvania","lat":40.77982,"lng":-76.46701,"zip":"17834","miles_from_dt":21.95},{"city":"Locust Gap","state_name":"Pennsylvania","lat":40.77537,"lng":-76.43291,"zip":"17840","miles_from_dt":22.08},{"city":"Lavelle","state_name":"Pennsylvania","lat":40.76161,"lng":-76.37949,"zip":"17943","miles_from_dt":22.14},{"city":"Coal Township","state_name":"Pennsylvania","lat":40.78866,"lng":-76.55035,"zip":"17866","miles_from_dt":22.14},{"city":"Ashland","state_name":"Pennsylvania","lat":40.75422,"lng":-76.35732,"zip":"17921","miles_from_dt":22.18},{"city":"Harrisburg","state_name":"Pennsylvania","lat":40.26258,"lng":-76.87617,"zip":"17105","miles_from_dt":22.34},{"city":"Harrisburg","state_name":"Pennsylvania","lat":40.26328,"lng":-76.87698,"zip":"17127","miles_from_dt":22.34},{"city":"Harrisburg","state_name":"Pennsylvania","lat":40.26596,"lng":-76.88045,"zip":"17123","miles_from_dt":22.36},{"city":"Harrisburg","state_name":"Pennsylvania","lat":40.26844,"lng":-76.88326,"zip":"17121","miles_from_dt":22.37},{"city":"Harrisburg","state_name":"Pennsylvania","lat":40.26617,"lng":-76.88091,"zip":"17125","miles_from_dt":22.37},{"city":"Gordon","state_name":"Pennsylvania","lat":40.75048,"lng":-76.33997,"zip":"17936","miles_from_dt":22.38},{"city":"Harrisburg","state_name":"Pennsylvania","lat":40.23901,"lng":-76.84985,"zip":"17104","miles_from_dt":22.4},{"city":"Harrisburg","state_name":"Pennsylvania","lat":40.27314,"lng":-76.88885,"zip":"17130","miles_from_dt":22.41},{"city":"Harrisburg","state_name":"Pennsylvania","lat":40.26601,"lng":-76.88167,"zip":"17124","miles_from_dt":22.41},{"city":"Bernville","state_name":"Pennsylvania","lat":40.45873,"lng":-76.12379,"zip":"19506","miles_from_dt":22.42},{"city":"Harrisburg","state_name":"Pennsylvania","lat":40.26511,"lng":-76.88281,"zip":"17120","miles_from_dt":22.5},{"city":"Harrisburg","state_name":"Pennsylvania","lat":40.26177,"lng":-76.8799,"zip":"17126","miles_from_dt":22.52},{"city":"Harrisburg","state_name":"Pennsylvania","lat":40.26329,"lng":-76.8816,"zip":"17122","miles_from_dt":22.53},{"city":"Harrisburg","state_name":"Pennsylvania","lat":40.26393,"lng":-76.8834,"zip":"17128","miles_from_dt":22.57},{"city":"Harrisburg","state_name":"Pennsylvania","lat":40.26319,"lng":-76.88269,"zip":"17129","miles_from_dt":22.58},{"city":"Harrisburg","state_name":"Pennsylvania","lat":40.26109,"lng":-76.88275,"zip":"17108","miles_from_dt":22.67},{"city":"New Buffalo","state_name":"Pennsylvania","lat":40.45722,"lng":-76.97921,"zip":"17069","miles_from_dt":22.69},{"city":"Robesonia","state_name":"Pennsylvania","lat":40.35951,"lng":-76.14213,"zip":"19551","miles_from_dt":22.72},{"city":"Seltzer","state_name":"Pennsylvania","lat":40.69592,"lng":-76.23606,"zip":"17974","miles_from_dt":22.77},{"city":"Summerdale","state_name":"Pennsylvania","lat":40.30998,"lng":-76.92817,"zip":"17093","miles_from_dt":22.78},{"city":"Trevorton","state_name":"Pennsylvania","lat":40.78098,"lng":-76.68632,"zip":"17881","miles_from_dt":22.78},{"city":"Harrisburg","state_name":"Pennsylvania","lat":40.27119,"lng":-76.89686,"zip":"17102","miles_from_dt":22.83},{"city":"Harrisburg","state_name":"Pennsylvania","lat":40.2595,"lng":-76.88705,"zip":"17101","miles_from_dt":22.92},{"city":"Rheems","state_name":"Pennsylvania","lat":40.12574,"lng":-76.57035,"zip":"17570","miles_from_dt":23.63},{"city":"Shartlesville","state_name":"Pennsylvania","lat":40.51288,"lng":-76.10377,"zip":"19554","miles_from_dt":23.66},{"city":"Lititz","state_name":"Pennsylvania","lat":40.18217,"lng":-76.30038,"zip":"17543","miles_from_dt":23.68},{"city":"Locustdale","state_name":"Pennsylvania","lat":40.78458,"lng":-76.37523,"zip":"17945","miles_from_dt":23.69},{"city":"Marion Heights","state_name":"Pennsylvania","lat":40.80554,"lng":-76.45499,"zip":"17832","miles_from_dt":23.82},{"city":"Mount Carmel","state_name":"Pennsylvania","lat":40.80255,"lng":-76.433,"zip":"17851","miles_from_dt":23.88},{"city":"Lemoyne","state_name":"Pennsylvania","lat":40.24679,"lng":-76.90033,"zip":"17043","miles_from_dt":24.01},{"city":"Auburn","state_name":"Pennsylvania","lat":40.592,"lng":-76.11212,"zip":"17922","miles_from_dt":24.54},{"city":"New Cumberland","state_name":"Pennsylvania","lat":40.20217,"lng":-76.86377,"zip":"17070","miles_from_dt":24.75},{"city":"Mount Joy","state_name":"Pennsylvania","lat":40.10935,"lng":-76.51174,"zip":"17552","miles_from_dt":24.81},{"city":"Camp Hill","state_name":"Pennsylvania","lat":40.25388,"lng":-76.92733,"zip":"17089","miles_from_dt":24.84},{"city":"Port Trevorton","state_name":"Pennsylvania","lat":40.70294,"lng":-76.90687,"zip":"17864","miles_from_dt":24.85},{"city":"Etters","state_name":"Pennsylvania","lat":40.1585,"lng":-76.79468,"zip":"17319","miles_from_dt":24.98},{"city":"Camp Hill","state_name":"Pennsylvania","lat":40.24001,"lng":-76.92002,"zip":"17001","miles_from_dt":25.12},{"city":"Paxinos","state_name":"Pennsylvania","lat":40.82685,"lng":-76.63402,"zip":"17860","miles_from_dt":25.17},{"city":"Liverpool","state_name":"Pennsylvania","lat":40.58841,"lng":-77.00389,"zip":"17045","miles_from_dt":25.36},{"city":"Enola","state_name":"Pennsylvania","lat":40.29506,"lng":-76.97731,"zip":"17025","miles_from_dt":25.55},{"city":"Saint Clair","state_name":"Pennsylvania","lat":40.72072,"lng":-76.19056,"zip":"17970","miles_from_dt":25.69},{"city":"Camp Hill","state_name":"Pennsylvania","lat":40.23508,"lng":-76.92931,"zip":"17011","miles_from_dt":25.71},{"city":"Port Carbon","state_name":"Pennsylvania","lat":40.69919,"lng":-76.16536,"zip":"17965","miles_from_dt":25.73},{"city":"Wernersville","state_name":"Pennsylvania","lat":40.34231,"lng":-76.08873,"zip":"19565","miles_from_dt":25.77},{"city":"Wilburton","state_name":"Pennsylvania","lat":40.81931,"lng":-76.37306,"zip":"17888","miles_from_dt":25.95},{"city":"Bainbridge","state_name":"Pennsylvania","lat":40.10081,"lng":-76.66732,"zip":"17502","miles_from_dt":26.09},{"city":"Duncannon","state_name":"Pennsylvania","lat":40.41014,"lng":-77.04367,"zip":"17020","miles_from_dt":26.38},{"city":"Stevens","state_name":"Pennsylvania","lat":40.22397,"lng":-76.16405,"zip":"17578","miles_from_dt":26.38},{"city":"Aristes","state_name":"Pennsylvania","lat":40.81328,"lng":-76.32989,"zip":"17920","miles_from_dt":26.47},{"city":"Girardville","state_name":"Pennsylvania","lat":40.79417,"lng":-76.28,"zip":"17935","miles_from_dt":26.59},{"city":"Numidia","state_name":"Pennsylvania","lat":40.84238,"lng":-76.42314,"zip":"17858","miles_from_dt":26.67},{"city":"Denver","state_name":"Pennsylvania","lat":40.24402,"lng":-76.13151,"zip":"17517","miles_from_dt":26.91},{"city":"Elysburg","state_name":"Pennsylvania","lat":40.85652,"lng":-76.49848,"zip":"17824","miles_from_dt":26.95},{"city":"York Haven","state_name":"Pennsylvania","lat":40.1174,"lng":-76.78124,"zip":"17370","miles_from_dt":27.12},{"city":"Landisville","state_name":"Pennsylvania","lat":40.08804,"lng":-76.41528,"zip":"17538","miles_from_dt":27.14},{"city":"Maytown","state_name":"Pennsylvania","lat":40.07492,"lng":-76.58339,"zip":"17550","miles_from_dt":27.17},{"city":"Marysville","state_name":"Pennsylvania","lat":40.3255,"lng":-77.03256,"zip":"17053","miles_from_dt":27.34},{"city":"Frackville","state_name":"Pennsylvania","lat":40.78269,"lng":-76.23214,"zip":"17932","miles_from_dt":27.37},{"city":"Marietta","state_name":"Pennsylvania","lat":40.07056,"lng":-76.58436,"zip":"17547","miles_from_dt":27.48},{"city":"Reinholds","state_name":"Pennsylvania","lat":40.27043,"lng":-76.09652,"zip":"17569","miles_from_dt":27.49},{"city":"Mohrsville","state_name":"Pennsylvania","lat":40.47821,"lng":-76.02597,"zip":"19541","miles_from_dt":27.57},{"city":"East Petersburg","state_name":"Pennsylvania","lat":40.09813,"lng":-76.34897,"zip":"17520","miles_from_dt":27.61},{"city":"Sunbury","state_name":"Pennsylvania","lat":40.83669,"lng":-76.75762,"zip":"17801","miles_from_dt":27.71},{"city":"Lancaster","state_name":"Pennsylvania","lat":40.11174,"lng":-76.30401,"zip":"17606","miles_from_dt":27.77},{"city":"Frackville","state_name":"Pennsylvania","lat":40.78378,"lng":-76.21638,"zip":"17931","miles_from_dt":27.94},{"city":"Mahanoy Plane","state_name":"Pennsylvania","lat":40.79624,"lng":-76.23547,"zip":"17949","miles_from_dt":28.02},{"city":"Akron","state_name":"Pennsylvania","lat":40.15697,"lng":-76.20532,"zip":"17501","miles_from_dt":28.1},{"city":"New Philadelphia","state_name":"Pennsylvania","lat":40.74224,"lng":-76.15141,"zip":"17959","miles_from_dt":28.2},{"city":"Cumbola","state_name":"Pennsylvania","lat":40.70867,"lng":-76.11529,"zip":"17930","miles_from_dt":28.22},{"city":"Manchester","state_name":"Pennsylvania","lat":40.07929,"lng":-76.72812,"zip":"17345","miles_from_dt":28.43},{"city":"Ephrata","state_name":"Pennsylvania","lat":40.17499,"lng":-76.17009,"zip":"17522","miles_from_dt":28.44},{"city":"Silver Spring","state_name":"Pennsylvania","lat":40.06372,"lng":-76.43579,"zip":"17575","miles_from_dt":28.52},{"city":"Reamstown","state_name":"Pennsylvania","lat":40.21244,"lng":-76.12343,"zip":"17567","miles_from_dt":28.55},{"city":"Orwigsburg","state_name":"Pennsylvania","lat":40.64713,"lng":-76.05988,"zip":"17961","miles_from_dt":28.56},{"city":"Port Clinton","state_name":"Pennsylvania","lat":40.58176,"lng":-76.02672,"zip":"19549","miles_from_dt":28.6},{"city":"Lost Creek","state_name":"Pennsylvania","lat":40.8123,"lng":-76.2449,"zip":"17946","miles_from_dt":28.64},{"city":"Centerport","state_name":"Pennsylvania","lat":40.48686,"lng":-76.00526,"zip":"19516","miles_from_dt":28.68},{"city":"Snydertown","state_name":"Pennsylvania","lat":40.87622,"lng":-76.66674,"zip":"17877","miles_from_dt":28.85},{"city":"Gilberton","state_name":"Pennsylvania","lat":40.79786,"lng":-76.21205,"zip":"17934","miles_from_dt":28.85},{"city":"Mount Pleasant Mills","state_name":"Pennsylvania","lat":40.69212,"lng":-77.01254,"zip":"17853","miles_from_dt":28.88},{"city":"Lewisberry","state_name":"Pennsylvania","lat":40.13438,"lng":-76.88188,"zip":"17339","miles_from_dt":28.96},{"city":"Reading","state_name":"Pennsylvania","lat":40.31401,"lng":-76.03574,"zip":"19608","miles_from_dt":29.08},{"city":"Freeburg","state_name":"Pennsylvania","lat":40.75482,"lng":-76.96133,"zip":"17827","miles_from_dt":29.36},{"city":"Hummels Wharf","state_name":"Pennsylvania","lat":40.83432,"lng":-76.83664,"zip":"17831","miles_from_dt":29.46},{"city":"Hamburg","state_name":"Pennsylvania","lat":40.5465,"lng":-75.99802,"zip":"19526","miles_from_dt":29.52},{"city":"Mechanicsburg","state_name":"Pennsylvania","lat":40.24907,"lng":-77.03005,"zip":"17050","miles_from_dt":29.54},{"city":"Brownstown","state_name":"Pennsylvania","lat":40.12455,"lng":-76.21394,"zip":"17508","miles_from_dt":29.57},{"city":"Leesport","state_name":"Pennsylvania","lat":40.42245,"lng":-75.99021,"zip":"19533","miles_from_dt":29.62},{"city":"Selinsgrove","state_name":"Pennsylvania","lat":40.80992,"lng":-76.8897,"zip":"17870","miles_from_dt":29.63},{"city":"Columbia","state_name":"Pennsylvania","lat":40.04,"lng":-76.48558,"zip":"17512","miles_from_dt":29.71},{"city":"Mount Wolf","state_name":"Pennsylvania","lat":40.04927,"lng":-76.68247,"zip":"17347","miles_from_dt":29.73},{"city":"Lancaster","state_name":"Pennsylvania","lat":40.07296,"lng":-76.31457,"zip":"17601","miles_from_dt":29.93}],"targetCityZipCode":"17038","targetCityState":"Pennsylvania"},"__N_SSG":true}