{"pageProps":{"stateName":"Pennsylvania","cityName":"luxor","nearbyCities":[{"city":"Hannastown","state_name":"Pennsylvania","lat":40.34891,"lng":-79.49877,"zip":"15635","miles_from_dt":1.22},{"city":"Bovard","state_name":"Pennsylvania","lat":40.32051,"lng":-79.49719,"zip":"15619","miles_from_dt":1.57},{"city":"Crabtree","state_name":"Pennsylvania","lat":40.36638,"lng":-79.47124,"zip":"15624","miles_from_dt":1.95},{"city":"Greensburg","state_name":"Pennsylvania","lat":40.34828,"lng":-79.5188,"zip":"15605","miles_from_dt":2.16},{"city":"Forbes Road","state_name":"Pennsylvania","lat":40.35941,"lng":-79.51699,"zip":"15633","miles_from_dt":2.42},{"city":"Greensburg","state_name":"Pennsylvania","lat":40.31397,"lng":-79.53643,"zip":"15601","miles_from_dt":3.45},{"city":"Greensburg","state_name":"Pennsylvania","lat":40.30169,"lng":-79.53809,"zip":"15606","miles_from_dt":4.01},{"city":"New Alexandria","state_name":"Pennsylvania","lat":40.40783,"lng":-79.4321,"zip":"15670","miles_from_dt":5.38},{"city":"Latrobe","state_name":"Pennsylvania","lat":40.27527,"lng":-79.39213,"zip":"15650","miles_from_dt":6.38},{"city":"Loyalhanna","state_name":"Pennsylvania","lat":40.32192,"lng":-79.36007,"zip":"15661","miles_from_dt":6.43},{"city":"Hostetter","state_name":"Pennsylvania","lat":40.26466,"lng":-79.4017,"zip":"15638","miles_from_dt":6.58},{"city":"Pleasant Unity","state_name":"Pennsylvania","lat":40.24303,"lng":-79.45913,"zip":"15676","miles_from_dt":6.7},{"city":"Grapeville","state_name":"Pennsylvania","lat":40.32533,"lng":-79.60596,"zip":"15634","miles_from_dt":6.73},{"city":"Delmont","state_name":"Pennsylvania","lat":40.40868,"lng":-79.57592,"zip":"15626","miles_from_dt":7},{"city":"Jeannette","state_name":"Pennsylvania","lat":40.34681,"lng":-79.61278,"zip":"15644","miles_from_dt":7.05},{"city":"Youngstown","state_name":"Pennsylvania","lat":40.2798,"lng":-79.36587,"zip":"15696","miles_from_dt":7.27},{"city":"Whitney","state_name":"Pennsylvania","lat":40.24939,"lng":-79.40592,"zip":"15693","miles_from_dt":7.3},{"city":"Bradenville","state_name":"Pennsylvania","lat":40.32336,"lng":-79.33882,"zip":"15620","miles_from_dt":7.52},{"city":"Claridge","state_name":"Pennsylvania","lat":40.3689,"lng":-79.62263,"zip":"15623","miles_from_dt":7.82},{"city":"United","state_name":"Pennsylvania","lat":40.2253,"lng":-79.49164,"zip":"15689","miles_from_dt":7.86},{"city":"Armbrust","state_name":"Pennsylvania","lat":40.23502,"lng":-79.55093,"zip":"15616","miles_from_dt":8.1},{"city":"Penn","state_name":"Pennsylvania","lat":40.33363,"lng":-79.63867,"zip":"15675","miles_from_dt":8.4},{"city":"New Derry","state_name":"Pennsylvania","lat":40.36038,"lng":-79.32146,"zip":"15671","miles_from_dt":8.48},{"city":"Youngwood","state_name":"Pennsylvania","lat":40.24054,"lng":-79.5803,"zip":"15697","miles_from_dt":8.62},{"city":"Slickville","state_name":"Pennsylvania","lat":40.4629,"lng":-79.50629,"zip":"15684","miles_from_dt":8.67},{"city":"Calumet","state_name":"Pennsylvania","lat":40.2112,"lng":-79.48581,"zip":"15621","miles_from_dt":8.82},{"city":"Norvelt","state_name":"Pennsylvania","lat":40.20672,"lng":-79.49636,"zip":"15674","miles_from_dt":9.16},{"city":"Derry","state_name":"Pennsylvania","lat":40.35064,"lng":-79.30667,"zip":"15627","miles_from_dt":9.17},{"city":"Adamsburg","state_name":"Pennsylvania","lat":40.30656,"lng":-79.65266,"zip":"15611","miles_from_dt":9.4},{"city":"Harrison City","state_name":"Pennsylvania","lat":40.36459,"lng":-79.65619,"zip":"15636","miles_from_dt":9.48},{"city":"Export","state_name":"Pennsylvania","lat":40.43803,"lng":-79.60668,"zip":"15632","miles_from_dt":9.57},{"city":"Manor","state_name":"Pennsylvania","lat":40.33925,"lng":-79.66338,"zip":"15665","miles_from_dt":9.7},{"city":"Mammoth","state_name":"Pennsylvania","lat":40.32378,"lng":-79.67173,"zip":"15664","miles_from_dt":10.19},{"city":"New Stanton","state_name":"Pennsylvania","lat":40.24428,"lng":-79.63069,"zip":"15672","miles_from_dt":10.31},{"city":"Westmoreland City","state_name":"Pennsylvania","lat":40.33086,"lng":-79.67861,"zip":"15692","miles_from_dt":10.52},{"city":"Arona","state_name":"Pennsylvania","lat":40.26856,"lng":-79.65805,"zip":"15617","miles_from_dt":10.6},{"city":"Hunker","state_name":"Pennsylvania","lat":40.20927,"lng":-79.59379,"zip":"15639","miles_from_dt":10.79},{"city":"Wendel","state_name":"Pennsylvania","lat":40.29668,"lng":-79.68411,"zip":"15691","miles_from_dt":11.18},{"city":"Saltsburg","state_name":"Pennsylvania","lat":40.5023,"lng":-79.43873,"zip":"15681","miles_from_dt":11.48},{"city":"Darragh","state_name":"Pennsylvania","lat":40.27048,"lng":-79.67925,"zip":"15625","miles_from_dt":11.55},{"city":"Madison","state_name":"Pennsylvania","lat":40.25233,"lng":-79.67958,"zip":"15663","miles_from_dt":12.13},{"city":"Mount Pleasant","state_name":"Pennsylvania","lat":40.15858,"lng":-79.51398,"zip":"15666","miles_from_dt":12.57},{"city":"Salina","state_name":"Pennsylvania","lat":40.52104,"lng":-79.49638,"zip":"15680","miles_from_dt":12.6},{"city":"Larimer","state_name":"Pennsylvania","lat":40.34262,"lng":-79.72009,"zip":"15647","miles_from_dt":12.69},{"city":"Tarrs","state_name":"Pennsylvania","lat":40.1734,"lng":-79.58602,"zip":"15688","miles_from_dt":12.73},{"city":"Irwin","state_name":"Pennsylvania","lat":40.32045,"lng":-79.72119,"zip":"15642","miles_from_dt":12.81},{"city":"Murrysville","state_name":"Pennsylvania","lat":40.46352,"lng":-79.67168,"zip":"15668","miles_from_dt":13.28},{"city":"Trafford","state_name":"Pennsylvania","lat":40.38497,"lng":-79.72539,"zip":"15085","miles_from_dt":13.35},{"city":"Herminie","state_name":"Pennsylvania","lat":40.26125,"lng":-79.71203,"zip":"15637","miles_from_dt":13.39},{"city":"Southwest","state_name":"Pennsylvania","lat":40.14955,"lng":-79.54155,"zip":"15685","miles_from_dt":13.47},{"city":"Ardara","state_name":"Pennsylvania","lat":40.36133,"lng":-79.73397,"zip":"15615","miles_from_dt":13.51},{"city":"Rillton","state_name":"Pennsylvania","lat":40.28447,"lng":-79.72579,"zip":"15678","miles_from_dt":13.53},{"city":"Yukon","state_name":"Pennsylvania","lat":40.2167,"lng":-79.68894,"zip":"15698","miles_from_dt":13.91},{"city":"Ruffs Dale","state_name":"Pennsylvania","lat":40.18126,"lng":-79.64982,"zip":"15679","miles_from_dt":14.11},{"city":"Acme","state_name":"Pennsylvania","lat":40.13699,"lng":-79.41613,"zip":"15610","miles_from_dt":14.33},{"city":"Clarksburg","state_name":"Pennsylvania","lat":40.51751,"lng":-79.33954,"zip":"15725","miles_from_dt":14.37},{"city":"Torrance","state_name":"Pennsylvania","lat":40.40008,"lng":-79.21846,"zip":"15779","miles_from_dt":14.42},{"city":"Ligonier","state_name":"Pennsylvania","lat":40.25467,"lng":-79.22217,"zip":"15658","miles_from_dt":14.8},{"city":"Wyano","state_name":"Pennsylvania","lat":40.19707,"lng":-79.69284,"zip":"15695","miles_from_dt":14.92},{"city":"Blairsville","state_name":"Pennsylvania","lat":40.45354,"lng":-79.23896,"zip":"15717","miles_from_dt":14.96},{"city":"Alverton","state_name":"Pennsylvania","lat":40.13793,"lng":-79.59938,"zip":"15612","miles_from_dt":15.24},{"city":"Apollo","state_name":"Pennsylvania","lat":40.55355,"lng":-79.56577,"zip":"15613","miles_from_dt":15.49},{"city":"Avonmore","state_name":"Pennsylvania","lat":40.56229,"lng":-79.44628,"zip":"15618","miles_from_dt":15.51},{"city":"Hutchinson","state_name":"Pennsylvania","lat":40.22315,"lng":-79.73243,"zip":"15640","miles_from_dt":15.56},{"city":"West Newton","state_name":"Pennsylvania","lat":40.22063,"lng":-79.73719,"zip":"15089","miles_from_dt":15.87},{"city":"Monroeville","state_name":"Pennsylvania","lat":40.4264,"lng":-79.76005,"zip":"15146","miles_from_dt":15.98},{"city":"Pitcairn","state_name":"Pennsylvania","lat":40.4073,"lng":-79.7783,"zip":"15140","miles_from_dt":16.45},{"city":"Stahlstown","state_name":"Pennsylvania","lat":40.13149,"lng":-79.31977,"zip":"15687","miles_from_dt":16.62},{"city":"Bolivar","state_name":"Pennsylvania","lat":40.35518,"lng":-79.16447,"zip":"15923","miles_from_dt":16.68},{"city":"Lowber","state_name":"Pennsylvania","lat":40.24669,"lng":-79.77293,"zip":"15660","miles_from_dt":16.75},{"city":"Greenock","state_name":"Pennsylvania","lat":40.3123,"lng":-79.79513,"zip":"15047","miles_from_dt":16.76},{"city":"Pittsburgh","state_name":"Pennsylvania","lat":40.48437,"lng":-79.73753,"zip":"15239","miles_from_dt":16.9},{"city":"Mckeesport","state_name":"Pennsylvania","lat":40.33477,"lng":-79.80132,"zip":"15131","miles_from_dt":16.98},{"city":"Coulters","state_name":"Pennsylvania","lat":40.30194,"lng":-79.79891,"zip":"15028","miles_from_dt":17.05},{"city":"Wilmerding","state_name":"Pennsylvania","lat":40.39351,"lng":-79.79525,"zip":"15148","miles_from_dt":17.07},{"city":"Scottdale","state_name":"Pennsylvania","lat":40.10926,"lng":-79.60492,"zip":"15683","miles_from_dt":17.17},{"city":"Kent","state_name":"Pennsylvania","lat":40.5408,"lng":-79.28177,"zip":"15752","miles_from_dt":17.41},{"city":"Donegal","state_name":"Pennsylvania","lat":40.10009,"lng":-79.37008,"zip":"15628","miles_from_dt":17.47},{"city":"Buena Vista","state_name":"Pennsylvania","lat":40.26924,"lng":-79.79805,"zip":"15018","miles_from_dt":17.49},{"city":"Sutersville","state_name":"Pennsylvania","lat":40.24802,"lng":-79.79041,"zip":"15083","miles_from_dt":17.57},{"city":"East McKeesport","state_name":"Pennsylvania","lat":40.38488,"lng":-79.80726,"zip":"15035","miles_from_dt":17.58},{"city":"North Versailles","state_name":"Pennsylvania","lat":40.37762,"lng":-79.80902,"zip":"15137","miles_from_dt":17.59},{"city":"Mckeesport","state_name":"Pennsylvania","lat":40.29959,"lng":-79.81153,"zip":"15135","miles_from_dt":17.73},{"city":"Black Lick","state_name":"Pennsylvania","lat":40.47025,"lng":-79.19031,"zip":"15716","miles_from_dt":17.75},{"city":"Smithton","state_name":"Pennsylvania","lat":40.15224,"lng":-79.71329,"zip":"15479","miles_from_dt":17.84},{"city":"Clune","state_name":"Pennsylvania","lat":40.56498,"lng":-79.31496,"zip":"15727","miles_from_dt":17.85},{"city":"North Apollo","state_name":"Pennsylvania","lat":40.59383,"lng":-79.55634,"zip":"15673","miles_from_dt":18.05},{"city":"Everson","state_name":"Pennsylvania","lat":40.08968,"lng":-79.58527,"zip":"15631","miles_from_dt":18.08},{"city":"Jones Mills","state_name":"Pennsylvania","lat":40.09517,"lng":-79.34448,"zip":"15646","miles_from_dt":18.28},{"city":"East Vandergrift","state_name":"Pennsylvania","lat":40.59731,"lng":-79.56304,"zip":"15629","miles_from_dt":18.36},{"city":"Rector","state_name":"Pennsylvania","lat":40.15048,"lng":-79.23113,"zip":"15677","miles_from_dt":18.49},{"city":"Laughlintown","state_name":"Pennsylvania","lat":40.19739,"lng":-79.18141,"zip":"15655","miles_from_dt":18.55},{"city":"Josephine","state_name":"Pennsylvania","lat":40.48377,"lng":-79.18256,"zip":"15750","miles_from_dt":18.59},{"city":"McIntyre","state_name":"Pennsylvania","lat":40.57134,"lng":-79.30096,"zip":"15756","miles_from_dt":18.6},{"city":"White","state_name":"Pennsylvania","lat":40.06782,"lng":-79.45327,"zip":"15490","miles_from_dt":18.76},{"city":"Robinson","state_name":"Pennsylvania","lat":40.4055,"lng":-79.13442,"zip":"15949","miles_from_dt":18.79},{"city":"Turtle Creek","state_name":"Pennsylvania","lat":40.41451,"lng":-79.82352,"zip":"15145","miles_from_dt":18.88},{"city":"Mckeesport","state_name":"Pennsylvania","lat":40.33982,"lng":-79.84299,"zip":"15132","miles_from_dt":19.18},{"city":"Spring Church","state_name":"Pennsylvania","lat":40.61802,"lng":-79.43635,"zip":"15686","miles_from_dt":19.39},{"city":"East Pittsburgh","state_name":"Pennsylvania","lat":40.40453,"lng":-79.83734,"zip":"15112","miles_from_dt":19.41},{"city":"Jacobs Creek","state_name":"Pennsylvania","lat":40.13572,"lng":-79.73394,"zip":"15448","miles_from_dt":19.42},{"city":"West Lebanon","state_name":"Pennsylvania","lat":40.60297,"lng":-79.34495,"zip":"15783","miles_from_dt":19.55},{"city":"Coral","state_name":"Pennsylvania","lat":40.50383,"lng":-79.1767,"zip":"15731","miles_from_dt":19.62},{"city":"Aultman","state_name":"Pennsylvania","lat":40.5698,"lng":-79.26184,"zip":"15713","miles_from_dt":19.64},{"city":"New Kensington","state_name":"Pennsylvania","lat":40.56241,"lng":-79.7124,"zip":"15068","miles_from_dt":19.7},{"city":"Duquesne","state_name":"Pennsylvania","lat":40.37321,"lng":-79.85024,"zip":"15110","miles_from_dt":19.7},{"city":"Melcroft","state_name":"Pennsylvania","lat":40.06136,"lng":-79.38113,"zip":"15462","miles_from_dt":19.85},{"city":"Pittsburgh","state_name":"Pennsylvania","lat":40.45968,"lng":-79.82194,"zip":"15235","miles_from_dt":19.88},{"city":"Mckeesport","state_name":"Pennsylvania","lat":40.3257,"lng":-79.86127,"zip":"15133","miles_from_dt":20.17},{"city":"Mckeesport","state_name":"Pennsylvania","lat":40.34719,"lng":-79.86423,"zip":"15134","miles_from_dt":20.31},{"city":"Elizabeth","state_name":"Pennsylvania","lat":40.25649,"lng":-79.85017,"zip":"15037","miles_from_dt":20.38},{"city":"Braddock","state_name":"Pennsylvania","lat":40.40379,"lng":-79.86249,"zip":"15104","miles_from_dt":20.69},{"city":"Dawson","state_name":"Pennsylvania","lat":40.0811,"lng":-79.68184,"zip":"15428","miles_from_dt":20.75},{"city":"Hyde Park","state_name":"Pennsylvania","lat":40.63151,"lng":-79.58909,"zip":"15641","miles_from_dt":20.99},{"city":"New Florence","state_name":"Pennsylvania","lat":40.36295,"lng":-79.0816,"zip":"15944","miles_from_dt":21.08},{"city":"Wickhaven","state_name":"Pennsylvania","lat":40.11974,"lng":-79.76306,"zip":"15492","miles_from_dt":21.29},{"city":"New Kensington","state_name":"Pennsylvania","lat":40.56968,"lng":-79.74932,"zip":"15069","miles_from_dt":21.34},{"city":"Verona","state_name":"Pennsylvania","lat":40.49704,"lng":-79.82858,"zip":"15147","miles_from_dt":21.39},{"city":"Vandergrift","state_name":"Pennsylvania","lat":40.6455,"lng":-79.54243,"zip":"15690","miles_from_dt":21.41},{"city":"Pittsburgh","state_name":"Pennsylvania","lat":40.43457,"lng":-79.86631,"zip":"15221","miles_from_dt":21.44},{"city":"Glassport","state_name":"Pennsylvania","lat":40.32613,"lng":-79.88614,"zip":"15045","miles_from_dt":21.48},{"city":"Belle Vernon","state_name":"Pennsylvania","lat":40.15871,"lng":-79.81188,"zip":"15012","miles_from_dt":21.52},{"city":"Springdale","state_name":"Pennsylvania","lat":40.54759,"lng":-79.78317,"zip":"15144","miles_from_dt":21.52},{"city":"Indian Head","state_name":"Pennsylvania","lat":40.03172,"lng":-79.39433,"zip":"15446","miles_from_dt":21.67},{"city":"Dravosburg","state_name":"Pennsylvania","lat":40.35083,"lng":-79.89067,"zip":"15034","miles_from_dt":21.71},{"city":"Connellsville","state_name":"Pennsylvania","lat":40.02702,"lng":-79.55411,"zip":"15425","miles_from_dt":21.88},{"city":"Webster","state_name":"Pennsylvania","lat":40.19504,"lng":-79.84948,"zip":"15087","miles_from_dt":21.92},{"city":"Leechburg","state_name":"Pennsylvania","lat":40.64114,"lng":-79.61981,"zip":"15656","miles_from_dt":22.12},{"city":"Pittsburgh","state_name":"Pennsylvania","lat":40.42366,"lng":-79.88924,"zip":"15218","miles_from_dt":22.39},{"city":"West Elizabeth","state_name":"Pennsylvania","lat":40.27159,"lng":-79.89607,"zip":"15088","miles_from_dt":22.48},{"city":"West Mifflin","state_name":"Pennsylvania","lat":40.35976,"lng":-79.90628,"zip":"15122","miles_from_dt":22.56},{"city":"Oakmont","state_name":"Pennsylvania","lat":40.52192,"lng":-79.83479,"zip":"15139","miles_from_dt":22.58},{"city":"Dickerson Run","state_name":"Pennsylvania","lat":40.04025,"lng":-79.65534,"zip":"15430","miles_from_dt":22.61},{"city":"Champion","state_name":"Pennsylvania","lat":40.0356,"lng":-79.31724,"zip":"15622","miles_from_dt":22.63},{"city":"Normalville","state_name":"Pennsylvania","lat":40.01366,"lng":-79.41861,"zip":"15469","miles_from_dt":22.67},{"city":"Harwick","state_name":"Pennsylvania","lat":40.55545,"lng":-79.80366,"zip":"15049","miles_from_dt":22.69},{"city":"Homestead","state_name":"Pennsylvania","lat":40.39597,"lng":-79.90689,"zip":"15120","miles_from_dt":22.89},{"city":"Lucernemines","state_name":"Pennsylvania","lat":40.55667,"lng":-79.15152,"zip":"15754","miles_from_dt":22.91},{"city":"Donora","state_name":"Pennsylvania","lat":40.18011,"lng":-79.86501,"zip":"15033","miles_from_dt":23.13},{"city":"Brackenridge","state_name":"Pennsylvania","lat":40.60859,"lng":-79.74149,"zip":"15014","miles_from_dt":23.16},{"city":"Creighton","state_name":"Pennsylvania","lat":40.58492,"lng":-79.78074,"zip":"15030","miles_from_dt":23.23},{"city":"Shelocta","state_name":"Pennsylvania","lat":40.65729,"lng":-79.32508,"zip":"15774","miles_from_dt":23.43},{"city":"Clairton","state_name":"Pennsylvania","lat":40.29887,"lng":-79.9213,"zip":"15025","miles_from_dt":23.48},{"city":"Pittsburgh","state_name":"Pennsylvania","lat":40.45387,"lng":-79.89883,"zip":"15208","miles_from_dt":23.49},{"city":"Boswell","state_name":"Pennsylvania","lat":40.18537,"lng":-79.0794,"zip":"15531","miles_from_dt":23.66},{"city":"West Mifflin","state_name":"Pennsylvania","lat":40.34817,"lng":-79.93471,"zip":"15123","miles_from_dt":24.03},{"city":"Perryopolis","state_name":"Pennsylvania","lat":40.07256,"lng":-79.77352,"zip":"15473","miles_from_dt":24.07},{"city":"Pittsburgh","state_name":"Pennsylvania","lat":40.43083,"lng":-79.91999,"zip":"15217","miles_from_dt":24.08},{"city":"Hidden Valley","state_name":"Pennsylvania","lat":40.03641,"lng":-79.25176,"zip":"15502","miles_from_dt":24.11},{"city":"Pricedale","state_name":"Pennsylvania","lat":40.13922,"lng":-79.85605,"zip":"15072","miles_from_dt":24.2},{"city":"Elrama","state_name":"Pennsylvania","lat":40.2499,"lng":-79.92379,"zip":"15038","miles_from_dt":24.25},{"city":"Pittsburgh","state_name":"Pennsylvania","lat":40.39813,"lng":-79.9334,"zip":"15207","miles_from_dt":24.29},{"city":"Armagh","state_name":"Pennsylvania","lat":40.46705,"lng":-79.05006,"zip":"15920","miles_from_dt":24.33},{"city":"Homer City","state_name":"Pennsylvania","lat":40.52489,"lng":-79.087,"zip":"15748","miles_from_dt":24.36},{"city":"Star Junction","state_name":"Pennsylvania","lat":40.06073,"lng":-79.76645,"zip":"15482","miles_from_dt":24.46},{"city":"Leisenring","state_name":"Pennsylvania","lat":40.00614,"lng":-79.64609,"zip":"15455","miles_from_dt":24.59},{"city":"Pittsburgh","state_name":"Pennsylvania","lat":40.47244,"lng":-79.91324,"zip":"15206","miles_from_dt":24.65},{"city":"Natrona Heights","state_name":"Pennsylvania","lat":40.64192,"lng":-79.72766,"zip":"15065","miles_from_dt":24.65},{"city":"Vanderbilt","state_name":"Pennsylvania","lat":40.02762,"lng":-79.70981,"zip":"15486","miles_from_dt":24.69},{"city":"Gray","state_name":"Pennsylvania","lat":40.13254,"lng":-79.09656,"zip":"15544","miles_from_dt":24.76},{"city":"Jennerstown","state_name":"Pennsylvania","lat":40.1629,"lng":-79.07019,"zip":"15547","miles_from_dt":24.82},{"city":"Monessen","state_name":"Pennsylvania","lat":40.15184,"lng":-79.88277,"zip":"15062","miles_from_dt":24.91},{"city":"Rural Ridge","state_name":"Pennsylvania","lat":40.58665,"lng":-79.82693,"zip":"15075","miles_from_dt":25.04},{"city":"Pittsburgh","state_name":"Pennsylvania","lat":40.53405,"lng":-79.88115,"zip":"15238","miles_from_dt":25.08},{"city":"Pittsburgh","state_name":"Pennsylvania","lat":40.45246,"lng":-79.93193,"zip":"15232","miles_from_dt":25.11},{"city":"Schenley","state_name":"Pennsylvania","lat":40.68301,"lng":-79.63696,"zip":"15682","miles_from_dt":25.14},{"city":"Pittsburgh","state_name":"Pennsylvania","lat":40.47911,"lng":-79.92143,"zip":"15258","miles_from_dt":25.23},{"city":"Cheswick","state_name":"Pennsylvania","lat":40.57649,"lng":-79.84649,"zip":"15024","miles_from_dt":25.35},{"city":"Dunlevy","state_name":"Pennsylvania","lat":40.11301,"lng":-79.85913,"zip":"15432","miles_from_dt":25.41},{"city":"Monongahela","state_name":"Pennsylvania","lat":40.19487,"lng":-79.92228,"zip":"15063","miles_from_dt":25.42},{"city":"Indiana","state_name":"Pennsylvania","lat":40.61588,"lng":-79.15983,"zip":"15705","miles_from_dt":25.48},{"city":"Elderton","state_name":"Pennsylvania","lat":40.69945,"lng":-79.36946,"zip":"15736","miles_from_dt":25.55},{"city":"Pittsburgh","state_name":"Pennsylvania","lat":40.44438,"lng":-79.94401,"zip":"15289","miles_from_dt":25.55},{"city":"Indianola","state_name":"Pennsylvania","lat":40.56812,"lng":-79.86076,"zip":"15051","miles_from_dt":25.56},{"city":"Pittsburgh","state_name":"Pennsylvania","lat":40.50457,"lng":-79.91338,"zip":"15215","miles_from_dt":25.57},{"city":"Ford City","state_name":"Pennsylvania","lat":40.71139,"lng":-79.48608,"zip":"16226","miles_from_dt":25.7},{"city":"Brush Valley","state_name":"Pennsylvania","lat":40.53896,"lng":-79.06625,"zip":"15720","miles_from_dt":25.8},{"city":"Seward","state_name":"Pennsylvania","lat":40.41837,"lng":-79.00051,"zip":"15954","miles_from_dt":25.87},{"city":"Bunola","state_name":"Pennsylvania","lat":40.2283,"lng":-79.9479,"zip":"15020","miles_from_dt":25.89},{"city":"Allenport","state_name":"Pennsylvania","lat":40.09496,"lng":-79.85218,"zip":"15412","miles_from_dt":25.91},{"city":"Pittsburgh","state_name":"Pennsylvania","lat":40.44475,"lng":-79.95156,"zip":"15251","miles_from_dt":25.94},{"city":"Pittsburgh","state_name":"Pennsylvania","lat":40.4432,"lng":-79.95306,"zip":"15260","miles_from_dt":25.99},{"city":"Pittsburgh","state_name":"Pennsylvania","lat":40.44293,"lng":-79.95345,"zip":"15213","miles_from_dt":26},{"city":"Pittsburgh","state_name":"Pennsylvania","lat":40.44029,"lng":-79.95451,"zip":"15274","miles_from_dt":26.01},{"city":"Pittsburgh","state_name":"Pennsylvania","lat":40.44829,"lng":-79.95189,"zip":"15250","miles_from_dt":26.03},{"city":"Pittsburgh","state_name":"Pennsylvania","lat":40.375,"lng":-79.97077,"zip":"15227","miles_from_dt":26.04},{"city":"Pittsburgh","state_name":"Pennsylvania","lat":40.46737,"lng":-79.94623,"zip":"15224","miles_from_dt":26.15},{"city":"Pittsburgh","state_name":"Pennsylvania","lat":40.44422,"lng":-79.95599,"zip":"15264","miles_from_dt":26.16},{"city":"Tarentum","state_name":"Pennsylvania","lat":40.6282,"lng":-79.8028,"zip":"15084","miles_from_dt":26.23},{"city":"Pittsburgh","state_name":"Pennsylvania","lat":40.34756,"lng":-79.97652,"zip":"15236","miles_from_dt":26.24},{"city":"Pittsburgh","state_name":"Pennsylvania","lat":40.43991,"lng":-79.96021,"zip":"15253","miles_from_dt":26.29},{"city":"Pittsburgh","state_name":"Pennsylvania","lat":40.44102,"lng":-79.96037,"zip":"15261","miles_from_dt":26.32},{"city":"Stockdale","state_name":"Pennsylvania","lat":40.08352,"lng":-79.85036,"zip":"15483","miles_from_dt":26.36},{"city":"Indiana","state_name":"Pennsylvania","lat":40.62935,"lng":-79.15056,"zip":"15701","miles_from_dt":26.5},{"city":"Pittsburgh","state_name":"Pennsylvania","lat":40.44598,"lng":-79.96243,"zip":"15240","miles_from_dt":26.52},{"city":"Russellton","state_name":"Pennsylvania","lat":40.60949,"lng":-79.8374,"zip":"15076","miles_from_dt":26.53},{"city":"Fayette City","state_name":"Pennsylvania","lat":40.07485,"lng":-79.84431,"zip":"15438","miles_from_dt":26.53},{"city":"Johnstown","state_name":"Pennsylvania","lat":40.29423,"lng":-78.98035,"zip":"15905","miles_from_dt":26.55},{"city":"Sipesville","state_name":"Pennsylvania","lat":40.09379,"lng":-79.0907,"zip":"15561","miles_from_dt":26.64},{"city":"Pittsburgh","state_name":"Pennsylvania","lat":40.47565,"lng":-79.95389,"zip":"15201","miles_from_dt":26.73},{"city":"Jenners","state_name":"Pennsylvania","lat":40.13717,"lng":-79.04758,"zip":"15546","miles_from_dt":26.76},{"city":"Pittsburgh","state_name":"Pennsylvania","lat":40.4257,"lng":-79.97491,"zip":"15203","miles_from_dt":26.81},{"city":"Dilltown","state_name":"Pennsylvania","lat":40.47683,"lng":-79.0042,"zip":"15929","miles_from_dt":26.83},{"city":"Quecreek","state_name":"Pennsylvania","lat":40.09758,"lng":-79.08132,"zip":"15555","miles_from_dt":26.86},{"city":"New Eagle","state_name":"Pennsylvania","lat":40.20823,"lng":-79.96106,"zip":"15067","miles_from_dt":26.99},{"city":"Pittsburgh","state_name":"Pennsylvania","lat":40.40679,"lng":-79.98411,"zip":"15210","miles_from_dt":27.03},{"city":"Roscoe","state_name":"Pennsylvania","lat":40.07856,"lng":-79.86243,"zip":"15477","miles_from_dt":27.07},{"city":"Acosta","state_name":"Pennsylvania","lat":40.10626,"lng":-79.06017,"zip":"15520","miles_from_dt":27.39},{"city":"Pittsburgh","state_name":"Pennsylvania","lat":40.50431,"lng":-79.95199,"zip":"15223","miles_from_dt":27.39},{"city":"South Park","state_name":"Pennsylvania","lat":40.29348,"lng":-79.99515,"zip":"15129","miles_from_dt":27.4},{"city":"Freeport","state_name":"Pennsylvania","lat":40.71624,"lng":-79.64567,"zip":"16229","miles_from_dt":27.46},{"city":"Gastonville","state_name":"Pennsylvania","lat":40.25621,"lng":-79.98983,"zip":"15336","miles_from_dt":27.55},{"city":"Pittsburgh","state_name":"Pennsylvania","lat":40.44304,"lng":-79.98443,"zip":"15219","miles_from_dt":27.58},{"city":"Jerome","state_name":"Pennsylvania","lat":40.21463,"lng":-78.98105,"zip":"15937","miles_from_dt":27.71},{"city":"Elco","state_name":"Pennsylvania","lat":40.08013,"lng":-79.88037,"zip":"15434","miles_from_dt":27.71},{"city":"Pittsburgh","state_name":"Pennsylvania","lat":40.43602,"lng":-79.99042,"zip":"15282","miles_from_dt":27.77},{"city":"Finleyville","state_name":"Pennsylvania","lat":40.24226,"lng":-79.99134,"zip":"15332","miles_from_dt":27.84},{"city":"Somerset","state_name":"Pennsylvania","lat":40.03582,"lng":-79.13024,"zip":"15501","miles_from_dt":27.92},{"city":"Dunbar","state_name":"Pennsylvania","lat":39.94066,"lng":-79.58075,"zip":"15431","miles_from_dt":27.99},{"city":"Charleroi","state_name":"Pennsylvania","lat":40.13329,"lng":-79.93661,"zip":"15022","miles_from_dt":28.02},{"city":"Pittsburgh","state_name":"Pennsylvania","lat":40.44998,"lng":-79.9912,"zip":"15222","miles_from_dt":28.05},{"city":"Pittsburgh","state_name":"Pennsylvania","lat":40.43962,"lng":-79.99517,"zip":"15262","miles_from_dt":28.07},{"city":"Pittsburgh","state_name":"Pennsylvania","lat":40.4421,"lng":-79.99519,"zip":"15230","miles_from_dt":28.11},{"city":"Pittsburgh","state_name":"Pennsylvania","lat":40.44155,"lng":-79.99779,"zip":"15257","miles_from_dt":28.23},{"city":"Pittsburgh","state_name":"Pennsylvania","lat":40.44002,"lng":-79.99865,"zip":"15281","miles_from_dt":28.25},{"city":"Pittsburgh","state_name":"Pennsylvania","lat":40.44097,"lng":-79.99827,"zip":"15252","miles_from_dt":28.25},{"city":"Pittsburgh","state_name":"Pennsylvania","lat":40.44109,"lng":-79.99828,"zip":"15254","miles_from_dt":28.25},{"city":"Pittsburgh","state_name":"Pennsylvania","lat":40.4414,"lng":-79.99816,"zip":"15259","miles_from_dt":28.25},{"city":"West Leisenring","state_name":"Pennsylvania","lat":39.96323,"lng":-79.69531,"zip":"15489","miles_from_dt":28.32},{"city":"Pittsburgh","state_name":"Pennsylvania","lat":40.44238,"lng":-79.99994,"zip":"15265","miles_from_dt":28.36},{"city":"Pittsburgh","state_name":"Pennsylvania","lat":40.50007,"lng":-79.97463,"zip":"15209","miles_from_dt":28.37},{"city":"Newell","state_name":"Pennsylvania","lat":40.07562,"lng":-79.89199,"zip":"15466","miles_from_dt":28.38},{"city":"Pittsburgh","state_name":"Pennsylvania","lat":40.39527,"lng":-80.01374,"zip":"15226","miles_from_dt":28.45},{"city":"Glenshaw","state_name":"Pennsylvania","lat":40.5384,"lng":-79.95211,"zip":"15116","miles_from_dt":28.45},{"city":"Pittsburgh","state_name":"Pennsylvania","lat":40.36808,"lng":-80.01782,"zip":"15234","miles_from_dt":28.48},{"city":"Pittsburgh","state_name":"Pennsylvania","lat":40.43767,"lng":-80.00472,"zip":"15295","miles_from_dt":28.52},{"city":"Curtisville","state_name":"Pennsylvania","lat":40.6407,"lng":-79.85029,"zip":"15032","miles_from_dt":28.54},{"city":"Pittsburgh","state_name":"Pennsylvania","lat":40.44185,"lng":-80.00502,"zip":"15272","miles_from_dt":28.61},{"city":"Mill Run","state_name":"Pennsylvania","lat":39.92463,"lng":-79.43695,"zip":"15464","miles_from_dt":28.67},{"city":"Hollsopple","state_name":"Pennsylvania","lat":40.20112,"lng":-78.96755,"zip":"15935","miles_from_dt":28.69},{"city":"Ernest","state_name":"Pennsylvania","lat":40.67875,"lng":-79.16454,"zip":"15739","miles_from_dt":28.73},{"city":"Smock","state_name":"Pennsylvania","lat":39.98644,"lng":-79.76962,"zip":"15480","miles_from_dt":28.76},{"city":"Mount Braddock","state_name":"Pennsylvania","lat":39.93883,"lng":-79.64126,"zip":"15465","miles_from_dt":28.9},{"city":"Van Voorhis","state_name":"Pennsylvania","lat":40.1598,"lng":-79.974,"zip":"15366","miles_from_dt":28.91},{"city":"Pittsburgh","state_name":"Pennsylvania","lat":40.4302,"lng":-80.01533,"zip":"15211","miles_from_dt":28.95},{"city":"Johnstown","state_name":"Pennsylvania","lat":40.37806,"lng":-78.93356,"zip":"15906","miles_from_dt":28.95},{"city":"Cadogan","state_name":"Pennsylvania","lat":40.75239,"lng":-79.57795,"zip":"16212","miles_from_dt":28.99},{"city":"Waltersburg","state_name":"Pennsylvania","lat":39.97749,"lng":-79.75974,"zip":"15488","miles_from_dt":29.01},{"city":"Bairdford","state_name":"Pennsylvania","lat":40.63351,"lng":-79.87678,"zip":"15006","miles_from_dt":29.17},{"city":"California","state_name":"Pennsylvania","lat":40.05861,"lng":-79.89408,"zip":"15419","miles_from_dt":29.23},{"city":"Coal Center","state_name":"Pennsylvania","lat":40.08804,"lng":-79.92538,"zip":"15423","miles_from_dt":29.25},{"city":"Ford Cliff","state_name":"Pennsylvania","lat":40.76076,"lng":-79.5358,"zip":"16228","miles_from_dt":29.26},{"city":"Pittsburgh","state_name":"Pennsylvania","lat":40.47106,"lng":-80.00844,"zip":"15212","miles_from_dt":29.34},{"city":"Grindstone","state_name":"Pennsylvania","lat":40.01542,"lng":-79.84019,"zip":"15442","miles_from_dt":29.36},{"city":"Bethel Park","state_name":"Pennsylvania","lat":40.32125,"lng":-80.03707,"zip":"15102","miles_from_dt":29.46},{"city":"Johnstown","state_name":"Pennsylvania","lat":40.33,"lng":-78.92001,"zip":"15907","miles_from_dt":29.56},{"city":"Sarver","state_name":"Pennsylvania","lat":40.7157,"lng":-79.74753,"zip":"16055","miles_from_dt":29.58},{"city":"Pittsburgh","state_name":"Pennsylvania","lat":40.45735,"lng":-80.01932,"zip":"15290","miles_from_dt":29.61},{"city":"Pittsburgh","state_name":"Pennsylvania","lat":40.40268,"lng":-80.0348,"zip":"15216","miles_from_dt":29.62},{"city":"Pittsburgh","state_name":"Pennsylvania","lat":40.40395,"lng":-80.03485,"zip":"15270","miles_from_dt":29.64},{"city":"Lemont Furnace","state_name":"Pennsylvania","lat":39.92919,"lng":-79.6532,"zip":"15456","miles_from_dt":29.72},{"city":"Pittsburgh","state_name":"Pennsylvania","lat":40.45589,"lng":-80.02196,"zip":"15255","miles_from_dt":29.72},{"city":"Vintondale","state_name":"Pennsylvania","lat":40.46187,"lng":-78.9382,"zip":"15961","miles_from_dt":29.8},{"city":"Johnstown","state_name":"Pennsylvania","lat":40.32845,"lng":-78.9146,"zip":"15901","miles_from_dt":29.85},{"city":"Pittsburgh","state_name":"Pennsylvania","lat":40.37075,"lng":-80.04395,"zip":"15228","miles_from_dt":29.86},{"city":"Keisterville","state_name":"Pennsylvania","lat":39.97267,"lng":-79.78055,"zip":"15449","miles_from_dt":29.87},{"city":"Pittsburgh","state_name":"Pennsylvania","lat":40.48541,"lng":-80.01455,"zip":"15214","miles_from_dt":29.96}],"targetCityZipCode":"15662","targetCityState":"Pennsylvania"},"__N_SSG":true}