{"pageProps":{"stateName":"Pennsylvania","cityName":"mcewensville","nearbyCities":[{"city":"Watsontown","state_name":"Pennsylvania","lat":41.10332,"lng":-76.82678,"zip":"17777","miles_from_dt":2.25},{"city":"White Deer","state_name":"Pennsylvania","lat":41.07508,"lng":-76.8849,"zip":"17887","miles_from_dt":3.73},{"city":"Dewart","state_name":"Pennsylvania","lat":41.10677,"lng":-76.87591,"zip":"17730","miles_from_dt":4.03},{"city":"Milton","state_name":"Pennsylvania","lat":41.00609,"lng":-76.80612,"zip":"17847","miles_from_dt":4.59},{"city":"West Milton","state_name":"Pennsylvania","lat":41.01847,"lng":-76.87598,"zip":"17886","miles_from_dt":4.95},{"city":"Turbotville","state_name":"Pennsylvania","lat":41.11832,"lng":-76.71756,"zip":"17772","miles_from_dt":5.93},{"city":"Potts Grove","state_name":"Pennsylvania","lat":40.98688,"lng":-76.78979,"zip":"17865","miles_from_dt":6.02},{"city":"Washingtonville","state_name":"Pennsylvania","lat":41.05201,"lng":-76.67509,"zip":"17884","miles_from_dt":7.36},{"city":"Montandon","state_name":"Pennsylvania","lat":40.9671,"lng":-76.85847,"zip":"17850","miles_from_dt":7.63},{"city":"New Columbia","state_name":"Pennsylvania","lat":41.05636,"lng":-76.9722,"zip":"17856","miles_from_dt":8.36},{"city":"Montgomery","state_name":"Pennsylvania","lat":41.18244,"lng":-76.92144,"zip":"17752","miles_from_dt":9.46},{"city":"Lewisburg","state_name":"Pennsylvania","lat":40.97485,"lng":-76.94247,"zip":"17837","miles_from_dt":9.52},{"city":"Northumberland","state_name":"Pennsylvania","lat":40.92789,"lng":-76.76712,"zip":"17857","miles_from_dt":10.26},{"city":"Muncy","state_name":"Pennsylvania","lat":41.20841,"lng":-76.73325,"zip":"17756","miles_from_dt":10.28},{"city":"Danville","state_name":"Pennsylvania","lat":40.9917,"lng":-76.63959,"zip":"17821","miles_from_dt":10.66},{"city":"Allenwood","state_name":"Pennsylvania","lat":41.1123,"lng":-77.02543,"zip":"17810","miles_from_dt":11.4},{"city":"Riverside","state_name":"Pennsylvania","lat":40.95536,"lng":-76.63098,"zip":"17868","miles_from_dt":12.5},{"city":"Danville","state_name":"Pennsylvania","lat":40.96861,"lng":-76.60365,"zip":"17822","miles_from_dt":13.1},{"city":"Winfield","state_name":"Pennsylvania","lat":40.88228,"lng":-76.9143,"zip":"17889","miles_from_dt":14.13},{"city":"Shamokin Dam","state_name":"Pennsylvania","lat":40.85571,"lng":-76.82319,"zip":"17876","miles_from_dt":14.96},{"city":"Williamsport","state_name":"Pennsylvania","lat":41.24,"lng":-77.00002,"zip":"17703","miles_from_dt":15.12},{"city":"New Berlin","state_name":"Pennsylvania","lat":40.88735,"lng":-76.97217,"zip":"17855","miles_from_dt":15.22},{"city":"Snydertown","state_name":"Pennsylvania","lat":40.87622,"lng":-76.66674,"zip":"17877","miles_from_dt":15.56},{"city":"Picture Rocks","state_name":"Pennsylvania","lat":41.28326,"lng":-76.70751,"zip":"17762","miles_from_dt":15.57},{"city":"Williamsport","state_name":"Pennsylvania","lat":41.18215,"lng":-77.07728,"zip":"17702","miles_from_dt":15.71},{"city":"Mifflinburg","state_name":"Pennsylvania","lat":40.95904,"lng":-77.08747,"zip":"17844","miles_from_dt":16.31},{"city":"Millville","state_name":"Pennsylvania","lat":41.14647,"lng":-76.51681,"zip":"17846","miles_from_dt":16.31},{"city":"Hughesville","state_name":"Pennsylvania","lat":41.28673,"lng":-76.68149,"zip":"17737","miles_from_dt":16.32},{"city":"Hummels Wharf","state_name":"Pennsylvania","lat":40.83432,"lng":-76.83664,"zip":"17831","miles_from_dt":16.47},{"city":"Sunbury","state_name":"Pennsylvania","lat":40.83669,"lng":-76.75762,"zip":"17801","miles_from_dt":16.52},{"city":"Williamsport","state_name":"Pennsylvania","lat":41.24061,"lng":-77.03912,"zip":"17705","miles_from_dt":16.53},{"city":"Lairdsville","state_name":"Pennsylvania","lat":41.23919,"lng":-76.5829,"zip":"17742","miles_from_dt":16.65},{"city":"Montoursville","state_name":"Pennsylvania","lat":41.31108,"lng":-76.88421,"zip":"17754","miles_from_dt":16.88},{"city":"Selinsgrove","state_name":"Pennsylvania","lat":40.80992,"lng":-76.8897,"zip":"17870","miles_from_dt":18.54},{"city":"Unityville","state_name":"Pennsylvania","lat":41.24782,"lng":-76.5416,"zip":"17774","miles_from_dt":18.65},{"city":"Williamsport","state_name":"Pennsylvania","lat":41.34206,"lng":-76.88821,"zip":"17701","miles_from_dt":19.02},{"city":"Penns Creek","state_name":"Pennsylvania","lat":40.86069,"lng":-77.05661,"zip":"17862","miles_from_dt":19.36},{"city":"Paxinos","state_name":"Pennsylvania","lat":40.82685,"lng":-76.63402,"zip":"17860","miles_from_dt":19.37},{"city":"Kreamer","state_name":"Pennsylvania","lat":40.80255,"lng":-76.96631,"zip":"17833","miles_from_dt":20.26},{"city":"Bloomsburg","state_name":"Pennsylvania","lat":41.02216,"lng":-76.43061,"zip":"17815","miles_from_dt":20.3},{"city":"Swengel","state_name":"Pennsylvania","lat":40.89109,"lng":-77.12383,"zip":"17880","miles_from_dt":20.49},{"city":"Trevorton","state_name":"Pennsylvania","lat":40.78098,"lng":-76.68632,"zip":"17881","miles_from_dt":21.18},{"city":"Hartleton","state_name":"Pennsylvania","lat":40.90057,"lng":-77.15546,"zip":"17829","miles_from_dt":21.45},{"city":"Linden","state_name":"Pennsylvania","lat":41.24397,"lng":-77.16139,"zip":"17744","miles_from_dt":21.67},{"city":"Antes Fort","state_name":"Pennsylvania","lat":41.18046,"lng":-77.20503,"zip":"17720","miles_from_dt":21.75},{"city":"Middleburg","state_name":"Pennsylvania","lat":40.80389,"lng":-77.04329,"zip":"17842","miles_from_dt":22.08},{"city":"Orangeville","state_name":"Pennsylvania","lat":41.11821,"lng":-76.39498,"zip":"17859","miles_from_dt":22.08},{"city":"Elysburg","state_name":"Pennsylvania","lat":40.85652,"lng":-76.49848,"zip":"17824","miles_from_dt":22.21},{"city":"Cogan Station","state_name":"Pennsylvania","lat":41.32546,"lng":-77.08215,"zip":"17728","miles_from_dt":22.39},{"city":"Freeburg","state_name":"Pennsylvania","lat":40.75482,"lng":-76.96133,"zip":"17827","miles_from_dt":23.24},{"city":"Shamokin","state_name":"Pennsylvania","lat":40.7677,"lng":-76.61317,"zip":"17872","miles_from_dt":23.49},{"city":"Muncy Valley","state_name":"Pennsylvania","lat":41.35234,"lng":-76.55155,"zip":"17758","miles_from_dt":23.66},{"city":"Coal Township","state_name":"Pennsylvania","lat":40.78866,"lng":-76.55035,"zip":"17866","miles_from_dt":23.93},{"city":"Laurelton","state_name":"Pennsylvania","lat":40.88365,"lng":-77.19795,"zip":"17835","miles_from_dt":23.95},{"city":"Catawissa","state_name":"Pennsylvania","lat":40.9011,"lng":-76.40783,"zip":"17820","miles_from_dt":24.28},{"city":"Dornsife","state_name":"Pennsylvania","lat":40.72099,"lng":-76.72541,"zip":"17823","miles_from_dt":24.68},{"city":"Millmont","state_name":"Pennsylvania","lat":40.88308,"lng":-77.21628,"zip":"17845","miles_from_dt":24.78},{"city":"Paxtonville","state_name":"Pennsylvania","lat":40.77361,"lng":-77.0788,"zip":"17861","miles_from_dt":24.85},{"city":"Rebuck","state_name":"Pennsylvania","lat":40.71464,"lng":-76.69025,"zip":"17867","miles_from_dt":25.51},{"city":"Hillsgrove","state_name":"Pennsylvania","lat":41.43574,"lng":-76.7195,"zip":"18619","miles_from_dt":25.55},{"city":"Numidia","state_name":"Pennsylvania","lat":40.84238,"lng":-76.42314,"zip":"17858","miles_from_dt":25.86},{"city":"Jersey Shore","state_name":"Pennsylvania","lat":41.2342,"lng":-77.26171,"zip":"17740","miles_from_dt":25.91},{"city":"Port Trevorton","state_name":"Pennsylvania","lat":40.70294,"lng":-76.90687,"zip":"17864","miles_from_dt":25.95},{"city":"Marion Heights","state_name":"Pennsylvania","lat":40.80554,"lng":-76.45499,"zip":"17832","miles_from_dt":26.28},{"city":"Loganton","state_name":"Pennsylvania","lat":41.03847,"lng":-77.31497,"zip":"17747","miles_from_dt":26.3},{"city":"Stillwater","state_name":"Pennsylvania","lat":41.1721,"lng":-76.32364,"zip":"17878","miles_from_dt":26.47},{"city":"Herndon","state_name":"Pennsylvania","lat":40.68791,"lng":-76.79449,"zip":"17830","miles_from_dt":26.54},{"city":"Benton","state_name":"Pennsylvania","lat":41.26885,"lng":-76.3751,"zip":"17814","miles_from_dt":26.58},{"city":"Mifflinville","state_name":"Pennsylvania","lat":41.03079,"lng":-76.30233,"zip":"18631","miles_from_dt":26.86},{"city":"Leck Kill","state_name":"Pennsylvania","lat":40.71446,"lng":-76.60136,"zip":"17836","miles_from_dt":27.08},{"city":"Kulpmont","state_name":"Pennsylvania","lat":40.77982,"lng":-76.46701,"zip":"17834","miles_from_dt":27.13},{"city":"Mount Carmel","state_name":"Pennsylvania","lat":40.80255,"lng":-76.433,"zip":"17851","miles_from_dt":27.26},{"city":"Avis","state_name":"Pennsylvania","lat":41.18155,"lng":-77.31927,"zip":"17721","miles_from_dt":27.44},{"city":"Beavertown","state_name":"Pennsylvania","lat":40.78505,"lng":-77.1772,"zip":"17813","miles_from_dt":27.48},{"city":"Eagles Mere","state_name":"Pennsylvania","lat":41.42713,"lng":-76.57293,"zip":"17731","miles_from_dt":27.5},{"city":"Trout Run","state_name":"Pennsylvania","lat":41.43137,"lng":-77.04524,"zip":"17771","miles_from_dt":27.56},{"city":"Troxelville","state_name":"Pennsylvania","lat":40.80301,"lng":-77.20565,"zip":"17882","miles_from_dt":27.68},{"city":"Cambra","state_name":"Pennsylvania","lat":41.19675,"lng":-76.30463,"zip":"18611","miles_from_dt":27.9},{"city":"Mount Pleasant Mills","state_name":"Pennsylvania","lat":40.69212,"lng":-77.01254,"zip":"17853","miles_from_dt":28.23},{"city":"Weikert","state_name":"Pennsylvania","lat":40.87042,"lng":-77.28941,"zip":"17885","miles_from_dt":28.52},{"city":"McElhattan","state_name":"Pennsylvania","lat":41.15147,"lng":-77.35043,"zip":"17748","miles_from_dt":28.55},{"city":"Locust Gap","state_name":"Pennsylvania","lat":40.77537,"lng":-76.43291,"zip":"17840","miles_from_dt":28.58},{"city":"Klingerstown","state_name":"Pennsylvania","lat":40.68614,"lng":-76.61472,"zip":"17941","miles_from_dt":28.61},{"city":"Wilburton","state_name":"Pennsylvania","lat":40.81931,"lng":-76.37306,"zip":"17888","miles_from_dt":28.91},{"city":"Rebersburg","state_name":"Pennsylvania","lat":40.96715,"lng":-77.35939,"zip":"16872","miles_from_dt":29.44},{"city":"Huntington Mills","state_name":"Pennsylvania","lat":41.20228,"lng":-76.27348,"zip":"18622","miles_from_dt":29.57},{"city":"Berwick","state_name":"Pennsylvania","lat":41.08506,"lng":-76.24591,"zip":"18603","miles_from_dt":29.65},{"city":"Laporte","state_name":"Pennsylvania","lat":41.41136,"lng":-76.4635,"zip":"18626","miles_from_dt":29.66},{"city":"Woodward","state_name":"Pennsylvania","lat":40.90707,"lng":-77.33841,"zip":"16882","miles_from_dt":29.72},{"city":"Pitman","state_name":"Pennsylvania","lat":40.71415,"lng":-76.49785,"zip":"17964","miles_from_dt":29.73},{"city":"Pillow","state_name":"Pennsylvania","lat":40.64057,"lng":-76.80299,"zip":"17080","miles_from_dt":29.8}],"targetCityZipCode":"17749","targetCityState":"Pennsylvania"},"__N_SSG":true}