{"pageProps":{"stateName":"Pennsylvania","cityName":"mills","nearbyCities":[{"city":"Harrison Valley","state_name":"Pennsylvania","lat":41.9655,"lng":-77.65941,"zip":"16927","miles_from_dt":2.61},{"city":"Genesee","state_name":"Pennsylvania","lat":41.98841,"lng":-77.75796,"zip":"16941","miles_from_dt":2.98},{"city":"Whitesville","state_name":"New York","lat":42.02949,"lng":-77.79076,"zip":"14897","miles_from_dt":6.13},{"city":"Rexville","state_name":"New York","lat":42.06181,"lng":-77.68384,"zip":"14877","miles_from_dt":6.87},{"city":"Ulysses","state_name":"Pennsylvania","lat":41.85369,"lng":-77.75683,"zip":"16948","miles_from_dt":8},{"city":"Genesee","state_name":"Pennsylvania","lat":41.94103,"lng":-77.8761,"zip":"16923","miles_from_dt":8.7},{"city":"Troupsburg","state_name":"New York","lat":42.048,"lng":-77.57117,"zip":"14885","miles_from_dt":9.19},{"city":"Sabinsville","state_name":"Pennsylvania","lat":41.8406,"lng":-77.61915,"zip":"16943","miles_from_dt":9.73},{"city":"Westfield","state_name":"Pennsylvania","lat":41.89816,"lng":-77.53429,"zip":"16950","miles_from_dt":10.14},{"city":"Greenwood","state_name":"New York","lat":42.13961,"lng":-77.64331,"zip":"14839","miles_from_dt":12.58},{"city":"Andover","state_name":"New York","lat":42.15543,"lng":-77.78662,"zip":"14806","miles_from_dt":13.77},{"city":"Wellsville","state_name":"New York","lat":42.07772,"lng":-77.93387,"zip":"14895","miles_from_dt":13.93},{"city":"Knoxville","state_name":"Pennsylvania","lat":41.95203,"lng":-77.43371,"zip":"16928","miles_from_dt":14.26},{"city":"Woodhull","state_name":"New York","lat":42.05729,"lng":-77.43482,"zip":"14898","miles_from_dt":15.55},{"city":"Jasper","state_name":"New York","lat":42.13978,"lng":-77.50112,"zip":"14855","miles_from_dt":16.2},{"city":"Osceola","state_name":"Pennsylvania","lat":41.9654,"lng":-77.35414,"zip":"16942","miles_from_dt":18.33},{"city":"Coudersport","state_name":"Pennsylvania","lat":41.77481,"lng":-77.96104,"zip":"16915","miles_from_dt":18.4},{"city":"Alma","state_name":"New York","lat":42.01424,"lng":-78.06988,"zip":"14708","miles_from_dt":18.85},{"city":"Scio","state_name":"New York","lat":42.17363,"lng":-77.97334,"zip":"14880","miles_from_dt":19.81},{"city":"Allentown","state_name":"New York","lat":42.08256,"lng":-78.06196,"zip":"14707","miles_from_dt":19.87},{"city":"Galeton","state_name":"Pennsylvania","lat":41.67191,"lng":-77.70064,"zip":"16922","miles_from_dt":20.18},{"city":"Alfred Station","state_name":"New York","lat":42.25135,"lng":-77.78808,"zip":"14803","miles_from_dt":20.22},{"city":"Canisteo","state_name":"New York","lat":42.23984,"lng":-77.5722,"zip":"14823","miles_from_dt":20.3},{"city":"Gaines","state_name":"Pennsylvania","lat":41.69614,"lng":-77.54654,"zip":"16921","miles_from_dt":20.34},{"city":"Alfred","state_name":"New York","lat":42.2537,"lng":-77.78989,"zip":"14802","miles_from_dt":20.4},{"city":"Middlebury Center","state_name":"Pennsylvania","lat":41.87032,"lng":-77.32404,"zip":"16935","miles_from_dt":20.93},{"city":"Elkland","state_name":"Pennsylvania","lat":41.98218,"lng":-77.28851,"zip":"16920","miles_from_dt":21.75},{"city":"Shinglehouse","state_name":"Pennsylvania","lat":41.9427,"lng":-78.14425,"zip":"16748","miles_from_dt":22.42},{"city":"Cameron","state_name":"New York","lat":42.21924,"lng":-77.43466,"zip":"14819","miles_from_dt":22.59},{"city":"Cameron Mills","state_name":"New York","lat":42.18629,"lng":-77.36258,"zip":"14820","miles_from_dt":23.54},{"city":"Addison","state_name":"New York","lat":42.09718,"lng":-77.28461,"zip":"14801","miles_from_dt":23.74},{"city":"Bolivar","state_name":"New York","lat":42.07323,"lng":-78.14832,"zip":"14715","miles_from_dt":23.78},{"city":"Richburg","state_name":"New York","lat":42.08875,"lng":-78.14658,"zip":"14774","miles_from_dt":24.05},{"city":"Belmont","state_name":"New York","lat":42.24638,"lng":-77.99209,"zip":"14813","miles_from_dt":24.28},{"city":"Nelson","state_name":"Pennsylvania","lat":41.97752,"lng":-77.23373,"zip":"16940","miles_from_dt":24.55},{"city":"Roulette","state_name":"Pennsylvania","lat":41.79064,"lng":-78.13858,"zip":"16746","miles_from_dt":25.14},{"city":"Almond","state_name":"New York","lat":42.31587,"lng":-77.8476,"zip":"14804","miles_from_dt":25.28},{"city":"Hornell","state_name":"New York","lat":42.32819,"lng":-77.64371,"zip":"14843","miles_from_dt":25.35},{"city":"Little Genesee","state_name":"New York","lat":42.02385,"lng":-78.19799,"zip":"14754","miles_from_dt":25.46},{"city":"Wellsboro","state_name":"Pennsylvania","lat":41.73038,"lng":-77.31841,"zip":"16901","miles_from_dt":25.86},{"city":"Friendship","state_name":"New York","lat":42.1925,"lng":-78.14932,"zip":"14739","miles_from_dt":27.54},{"city":"Lawrenceville","state_name":"Pennsylvania","lat":41.97352,"lng":-77.15028,"zip":"16929","miles_from_dt":28.84},{"city":"Ceres","state_name":"New York","lat":42.01645,"lng":-78.26801,"zip":"14721","miles_from_dt":28.95},{"city":"West Clarksville","state_name":"New York","lat":42.12521,"lng":-78.22988,"zip":"14786","miles_from_dt":28.96},{"city":"Tioga","state_name":"Pennsylvania","lat":41.91422,"lng":-77.13999,"zip":"16946","miles_from_dt":29.58}],"targetCityZipCode":"16937","targetCityState":"Pennsylvania"},"__N_SSG":true}