{"pageProps":{"stateName":"Pennsylvania","cityName":"montoursville","nearbyCities":[{"city":"Williamsport","state_name":"Pennsylvania","lat":41.34206,"lng":-76.88821,"zip":"17701","miles_from_dt":2.15},{"city":"Williamsport","state_name":"Pennsylvania","lat":41.24,"lng":-77.00002,"zip":"17703","miles_from_dt":7.77},{"city":"Montgomery","state_name":"Pennsylvania","lat":41.18244,"lng":-76.92144,"zip":"17752","miles_from_dt":9.09},{"city":"Picture Rocks","state_name":"Pennsylvania","lat":41.28326,"lng":-76.70751,"zip":"17762","miles_from_dt":9.39},{"city":"Williamsport","state_name":"Pennsylvania","lat":41.24061,"lng":-77.03912,"zip":"17705","miles_from_dt":9.42},{"city":"Cogan Station","state_name":"Pennsylvania","lat":41.32546,"lng":-77.08215,"zip":"17728","miles_from_dt":10.35},{"city":"Muncy","state_name":"Pennsylvania","lat":41.20841,"lng":-76.73325,"zip":"17756","miles_from_dt":10.58},{"city":"Hughesville","state_name":"Pennsylvania","lat":41.28673,"lng":-76.68149,"zip":"17737","miles_from_dt":10.68},{"city":"Trout Run","state_name":"Pennsylvania","lat":41.43137,"lng":-77.04524,"zip":"17771","miles_from_dt":11.79},{"city":"Hillsgrove","state_name":"Pennsylvania","lat":41.43574,"lng":-76.7195,"zip":"18619","miles_from_dt":12.14},{"city":"Williamsport","state_name":"Pennsylvania","lat":41.18215,"lng":-77.07728,"zip":"17702","miles_from_dt":13.43},{"city":"Ralston","state_name":"Pennsylvania","lat":41.50999,"lng":-76.91388,"zip":"17763","miles_from_dt":13.81},{"city":"Dewart","state_name":"Pennsylvania","lat":41.10677,"lng":-76.87591,"zip":"17730","miles_from_dt":14.11},{"city":"Watsontown","state_name":"Pennsylvania","lat":41.10332,"lng":-76.82678,"zip":"17777","miles_from_dt":14.65},{"city":"Linden","state_name":"Pennsylvania","lat":41.24397,"lng":-77.16139,"zip":"17744","miles_from_dt":15.15},{"city":"Allenwood","state_name":"Pennsylvania","lat":41.1123,"lng":-77.02543,"zip":"17810","miles_from_dt":15.57},{"city":"Turbotville","state_name":"Pennsylvania","lat":41.11832,"lng":-76.71756,"zip":"17772","miles_from_dt":15.89},{"city":"White Deer","state_name":"Pennsylvania","lat":41.07508,"lng":-76.8849,"zip":"17887","miles_from_dt":16.29},{"city":"Lairdsville","state_name":"Pennsylvania","lat":41.23919,"lng":-76.5829,"zip":"17742","miles_from_dt":16.45},{"city":"McEwensville","state_name":"Pennsylvania","lat":41.07232,"lng":-76.81352,"zip":"17749","miles_from_dt":16.88},{"city":"Muncy Valley","state_name":"Pennsylvania","lat":41.35234,"lng":-76.55155,"zip":"17758","miles_from_dt":17.54},{"city":"Shunk","state_name":"Pennsylvania","lat":41.54632,"lng":-76.7477,"zip":"17768","miles_from_dt":17.71},{"city":"Eagles Mere","state_name":"Pennsylvania","lat":41.42713,"lng":-76.57293,"zip":"17731","miles_from_dt":18.06},{"city":"New Columbia","state_name":"Pennsylvania","lat":41.05636,"lng":-76.9722,"zip":"17856","miles_from_dt":18.17},{"city":"Unityville","state_name":"Pennsylvania","lat":41.24782,"lng":-76.5416,"zip":"17774","miles_from_dt":18.36},{"city":"Roaring Branch","state_name":"Pennsylvania","lat":41.57591,"lng":-76.97168,"zip":"17765","miles_from_dt":18.83},{"city":"Antes Fort","state_name":"Pennsylvania","lat":41.18046,"lng":-77.20503,"zip":"17720","miles_from_dt":18.99},{"city":"Forksville","state_name":"Pennsylvania","lat":41.51907,"lng":-76.63954,"zip":"18616","miles_from_dt":19.17},{"city":"West Milton","state_name":"Pennsylvania","lat":41.01847,"lng":-76.87598,"zip":"17886","miles_from_dt":20.2},{"city":"Jersey Shore","state_name":"Pennsylvania","lat":41.2342,"lng":-77.26171,"zip":"17740","miles_from_dt":20.36},{"city":"Washingtonville","state_name":"Pennsylvania","lat":41.05201,"lng":-76.67509,"zip":"17884","miles_from_dt":20.94},{"city":"Grover","state_name":"Pennsylvania","lat":41.61486,"lng":-76.86716,"zip":"17735","miles_from_dt":20.98},{"city":"Milton","state_name":"Pennsylvania","lat":41.00609,"lng":-76.80612,"zip":"17847","miles_from_dt":21.44},{"city":"Millville","state_name":"Pennsylvania","lat":41.14647,"lng":-76.51681,"zip":"17846","miles_from_dt":22.26},{"city":"Liberty","state_name":"Pennsylvania","lat":41.57693,"lng":-77.14021,"zip":"16930","miles_from_dt":22.66},{"city":"Potts Grove","state_name":"Pennsylvania","lat":40.98688,"lng":-76.78979,"zip":"17865","miles_from_dt":22.91},{"city":"Laporte","state_name":"Pennsylvania","lat":41.41136,"lng":-76.4635,"zip":"18626","miles_from_dt":22.94},{"city":"Canton","state_name":"Pennsylvania","lat":41.63827,"lng":-76.80034,"zip":"17724","miles_from_dt":23},{"city":"Lewisburg","state_name":"Pennsylvania","lat":40.97485,"lng":-76.94247,"zip":"17837","miles_from_dt":23.4},{"city":"Waterville","state_name":"Pennsylvania","lat":41.41704,"lng":-77.31257,"zip":"17776","miles_from_dt":23.44},{"city":"Montandon","state_name":"Pennsylvania","lat":40.9671,"lng":-76.85847,"zip":"17850","miles_from_dt":23.78},{"city":"Avis","state_name":"Pennsylvania","lat":41.18155,"lng":-77.31927,"zip":"17721","miles_from_dt":24.36},{"city":"Danville","state_name":"Pennsylvania","lat":40.9917,"lng":-76.63959,"zip":"17821","miles_from_dt":25.47},{"city":"Blossburg","state_name":"Pennsylvania","lat":41.66803,"lng":-77.05845,"zip":"16912","miles_from_dt":26.24},{"city":"Morris Run","state_name":"Pennsylvania","lat":41.68097,"lng":-77.0141,"zip":"16939","miles_from_dt":26.4},{"city":"Mifflinburg","state_name":"Pennsylvania","lat":40.95904,"lng":-77.08747,"zip":"17844","miles_from_dt":26.51},{"city":"Benton","state_name":"Pennsylvania","lat":41.26885,"lng":-76.3751,"zip":"17814","miles_from_dt":26.66},{"city":"McElhattan","state_name":"Pennsylvania","lat":41.15147,"lng":-77.35043,"zip":"17748","miles_from_dt":26.67},{"city":"Woolrich","state_name":"Pennsylvania","lat":41.20551,"lng":-77.38019,"zip":"17779","miles_from_dt":26.84},{"city":"Northumberland","state_name":"Pennsylvania","lat":40.92789,"lng":-76.76712,"zip":"17857","miles_from_dt":27.14},{"city":"Alba","state_name":"Pennsylvania","lat":41.70477,"lng":-76.83124,"zip":"16910","miles_from_dt":27.31},{"city":"Arnot","state_name":"Pennsylvania","lat":41.67787,"lng":-77.10392,"zip":"16911","miles_from_dt":27.76},{"city":"Jersey Mills","state_name":"Pennsylvania","lat":41.41289,"lng":-77.40156,"zip":"17739","miles_from_dt":27.8},{"city":"Danville","state_name":"Pennsylvania","lat":40.96861,"lng":-76.60365,"zip":"17822","miles_from_dt":27.8},{"city":"Riverside","state_name":"Pennsylvania","lat":40.95536,"lng":-76.63098,"zip":"17868","miles_from_dt":27.88},{"city":"Mildred","state_name":"Pennsylvania","lat":41.46769,"lng":-76.3764,"zip":"18632","miles_from_dt":28.52},{"city":"Orangeville","state_name":"Pennsylvania","lat":41.11821,"lng":-76.39498,"zip":"17859","miles_from_dt":28.76},{"city":"New Albany","state_name":"Pennsylvania","lat":41.59433,"lng":-76.46515,"zip":"18833","miles_from_dt":29.25},{"city":"Loganton","state_name":"Pennsylvania","lat":41.03847,"lng":-77.31497,"zip":"17747","miles_from_dt":29.3},{"city":"Granville Summit","state_name":"Pennsylvania","lat":41.71506,"lng":-76.70485,"zip":"16926","miles_from_dt":29.39},{"city":"New Berlin","state_name":"Pennsylvania","lat":40.88735,"lng":-76.97217,"zip":"17855","miles_from_dt":29.6},{"city":"Winfield","state_name":"Pennsylvania","lat":40.88228,"lng":-76.9143,"zip":"17889","miles_from_dt":29.63},{"city":"Covington","state_name":"Pennsylvania","lat":41.723,"lng":-77.05519,"zip":"16917","miles_from_dt":29.78},{"city":"Morris","state_name":"Pennsylvania","lat":41.56935,"lng":-77.34487,"zip":"16938","miles_from_dt":29.83},{"city":"Dushore","state_name":"Pennsylvania","lat":41.48373,"lng":-76.35768,"zip":"18614","miles_from_dt":29.84}],"targetCityZipCode":"17754","targetCityState":"Pennsylvania"},"__N_SSG":true}