{"pageProps":{"stateName":"Pennsylvania","cityName":"muncy-valley","nearbyCities":[{"city":"Eagles Mere","state_name":"Pennsylvania","lat":41.42713,"lng":-76.57293,"zip":"17731","miles_from_dt":5.28},{"city":"Laporte","state_name":"Pennsylvania","lat":41.41136,"lng":-76.4635,"zip":"18626","miles_from_dt":6.13},{"city":"Unityville","state_name":"Pennsylvania","lat":41.24782,"lng":-76.5416,"zip":"17774","miles_from_dt":7.23},{"city":"Lairdsville","state_name":"Pennsylvania","lat":41.23919,"lng":-76.5829,"zip":"17742","miles_from_dt":7.98},{"city":"Hughesville","state_name":"Pennsylvania","lat":41.28673,"lng":-76.68149,"zip":"17737","miles_from_dt":8.14},{"city":"Picture Rocks","state_name":"Pennsylvania","lat":41.28326,"lng":-76.70751,"zip":"17762","miles_from_dt":9.41},{"city":"Hillsgrove","state_name":"Pennsylvania","lat":41.43574,"lng":-76.7195,"zip":"18619","miles_from_dt":10.45},{"city":"Benton","state_name":"Pennsylvania","lat":41.26885,"lng":-76.3751,"zip":"17814","miles_from_dt":10.84},{"city":"Mildred","state_name":"Pennsylvania","lat":41.46769,"lng":-76.3764,"zip":"18632","miles_from_dt":12.09},{"city":"Forksville","state_name":"Pennsylvania","lat":41.51907,"lng":-76.63954,"zip":"18616","miles_from_dt":12.38},{"city":"Lopez","state_name":"Pennsylvania","lat":41.41474,"lng":-76.32047,"zip":"18628","miles_from_dt":12.76},{"city":"Dushore","state_name":"Pennsylvania","lat":41.48373,"lng":-76.35768,"zip":"18614","miles_from_dt":13.55},{"city":"Muncy","state_name":"Pennsylvania","lat":41.20841,"lng":-76.73325,"zip":"17756","miles_from_dt":13.72},{"city":"Millville","state_name":"Pennsylvania","lat":41.14647,"lng":-76.51681,"zip":"17846","miles_from_dt":14.32},{"city":"Cambra","state_name":"Pennsylvania","lat":41.19675,"lng":-76.30463,"zip":"18611","miles_from_dt":16.75},{"city":"Shunk","state_name":"Pennsylvania","lat":41.54632,"lng":-76.7477,"zip":"17768","miles_from_dt":16.82},{"city":"Stillwater","state_name":"Pennsylvania","lat":41.1721,"lng":-76.32364,"zip":"17878","miles_from_dt":17.19},{"city":"New Albany","state_name":"Pennsylvania","lat":41.59433,"lng":-76.46515,"zip":"18833","miles_from_dt":17.29},{"city":"Williamsport","state_name":"Pennsylvania","lat":41.34206,"lng":-76.88821,"zip":"17701","miles_from_dt":17.52},{"city":"Montoursville","state_name":"Pennsylvania","lat":41.31108,"lng":-76.88421,"zip":"17754","miles_from_dt":17.54},{"city":"Huntington Mills","state_name":"Pennsylvania","lat":41.20228,"lng":-76.27348,"zip":"18622","miles_from_dt":17.8},{"city":"Orangeville","state_name":"Pennsylvania","lat":41.11821,"lng":-76.39498,"zip":"17859","miles_from_dt":18.1},{"city":"Sweet Valley","state_name":"Pennsylvania","lat":41.32703,"lng":-76.20442,"zip":"18656","miles_from_dt":18.14},{"city":"Turbotville","state_name":"Pennsylvania","lat":41.11832,"lng":-76.71756,"zip":"17772","miles_from_dt":18.32},{"city":"Washingtonville","state_name":"Pennsylvania","lat":41.05201,"lng":-76.67509,"zip":"17884","miles_from_dt":21.7},{"city":"Ralston","state_name":"Pennsylvania","lat":41.50999,"lng":-76.91388,"zip":"17763","miles_from_dt":21.74},{"city":"Shickshinny","state_name":"Pennsylvania","lat":41.18327,"lng":-76.19619,"zip":"18655","miles_from_dt":21.87},{"city":"Monroeton","state_name":"Pennsylvania","lat":41.67625,"lng":-76.55639,"zip":"18832","miles_from_dt":22.36},{"city":"Watsontown","state_name":"Pennsylvania","lat":41.10332,"lng":-76.82678,"zip":"17777","miles_from_dt":22.38},{"city":"Montgomery","state_name":"Pennsylvania","lat":41.18244,"lng":-76.92144,"zip":"17752","miles_from_dt":22.55},{"city":"Canton","state_name":"Pennsylvania","lat":41.63827,"lng":-76.80034,"zip":"17724","miles_from_dt":23.58},{"city":"Bloomsburg","state_name":"Pennsylvania","lat":41.02216,"lng":-76.43061,"zip":"17815","miles_from_dt":23.64},{"city":"McEwensville","state_name":"Pennsylvania","lat":41.07232,"lng":-76.81352,"zip":"17749","miles_from_dt":23.66},{"city":"Sugar Run","state_name":"Pennsylvania","lat":41.60494,"lng":-76.23929,"zip":"18846","miles_from_dt":23.8},{"city":"Dewart","state_name":"Pennsylvania","lat":41.10677,"lng":-76.87591,"zip":"17730","miles_from_dt":23.93},{"city":"Berwick","state_name":"Pennsylvania","lat":41.08506,"lng":-76.24591,"zip":"18603","miles_from_dt":24.37},{"city":"Noxen","state_name":"Pennsylvania","lat":41.41215,"lng":-76.08859,"zip":"18636","miles_from_dt":24.41},{"city":"Grover","state_name":"Pennsylvania","lat":41.61486,"lng":-76.86716,"zip":"17735","miles_from_dt":24.42},{"city":"Williamsport","state_name":"Pennsylvania","lat":41.24,"lng":-77.00002,"zip":"17703","miles_from_dt":24.59},{"city":"Mehoopany","state_name":"Pennsylvania","lat":41.52393,"lng":-76.13365,"zip":"18629","miles_from_dt":24.72},{"city":"Hunlock Creek","state_name":"Pennsylvania","lat":41.25441,"lng":-76.09129,"zip":"18621","miles_from_dt":24.89},{"city":"Danville","state_name":"Pennsylvania","lat":40.9917,"lng":-76.63959,"zip":"17821","miles_from_dt":25.31},{"city":"Mifflinville","state_name":"Pennsylvania","lat":41.03079,"lng":-76.30233,"zip":"18631","miles_from_dt":25.71},{"city":"White Deer","state_name":"Pennsylvania","lat":41.07508,"lng":-76.8849,"zip":"17887","miles_from_dt":25.84},{"city":"Shawanese","state_name":"Pennsylvania","lat":41.35344,"lng":-76.05141,"zip":"18654","miles_from_dt":26.01},{"city":"Trout Run","state_name":"Pennsylvania","lat":41.43137,"lng":-77.04524,"zip":"17771","miles_from_dt":26.23},{"city":"Granville Summit","state_name":"Pennsylvania","lat":41.71506,"lng":-76.70485,"zip":"16926","miles_from_dt":26.26},{"city":"Williamsport","state_name":"Pennsylvania","lat":41.24061,"lng":-77.03912,"zip":"17705","miles_from_dt":26.52},{"city":"Danville","state_name":"Pennsylvania","lat":40.96861,"lng":-76.60365,"zip":"17822","miles_from_dt":26.62},{"city":"Roaring Branch","state_name":"Pennsylvania","lat":41.57591,"lng":-76.97168,"zip":"17765","miles_from_dt":26.71},{"city":"Harveys Lake","state_name":"Pennsylvania","lat":41.37883,"lng":-76.0313,"zip":"18618","miles_from_dt":27.11},{"city":"Milton","state_name":"Pennsylvania","lat":41.00609,"lng":-76.80612,"zip":"17847","miles_from_dt":27.33},{"city":"Lehman","state_name":"Pennsylvania","lat":41.31559,"lng":-76.02235,"zip":"18627","miles_from_dt":27.64},{"city":"Cogan Station","state_name":"Pennsylvania","lat":41.32546,"lng":-77.08215,"zip":"17728","miles_from_dt":27.66},{"city":"Glen Lyon","state_name":"Pennsylvania","lat":41.17149,"lng":-76.07707,"zip":"18617","miles_from_dt":27.68},{"city":"Riverside","state_name":"Pennsylvania","lat":40.95536,"lng":-76.63098,"zip":"17868","miles_from_dt":27.71},{"city":"Beach Haven","state_name":"Pennsylvania","lat":41.06766,"lng":-76.17644,"zip":"18601","miles_from_dt":27.71},{"city":"Potts Grove","state_name":"Pennsylvania","lat":40.98688,"lng":-76.78979,"zip":"17865","miles_from_dt":28.11},{"city":"Towanda","state_name":"Pennsylvania","lat":41.75358,"lng":-76.45615,"zip":"18848","miles_from_dt":28.13},{"city":"Alba","state_name":"Pennsylvania","lat":41.70477,"lng":-76.83124,"zip":"16910","miles_from_dt":28.32},{"city":"West Milton","state_name":"Pennsylvania","lat":41.01847,"lng":-76.87598,"zip":"17886","miles_from_dt":28.58},{"city":"Nescopeck","state_name":"Pennsylvania","lat":41.02961,"lng":-76.20598,"zip":"18635","miles_from_dt":28.64},{"city":"Wyalusing","state_name":"Pennsylvania","lat":41.71654,"lng":-76.27534,"zip":"18853","miles_from_dt":28.93},{"city":"Dallas","state_name":"Pennsylvania","lat":41.35025,"lng":-75.98207,"zip":"18612","miles_from_dt":29.61},{"city":"Burlington","state_name":"Pennsylvania","lat":41.78151,"lng":-76.60121,"zip":"18814","miles_from_dt":29.73},{"city":"Allenwood","state_name":"Pennsylvania","lat":41.1123,"lng":-77.02543,"zip":"17810","miles_from_dt":29.73},{"city":"Nanticoke","state_name":"Pennsylvania","lat":41.18984,"lng":-76.0218,"zip":"18634","miles_from_dt":29.77},{"city":"Williamsport","state_name":"Pennsylvania","lat":41.18215,"lng":-77.07728,"zip":"17702","miles_from_dt":29.79},{"city":"New Columbia","state_name":"Pennsylvania","lat":41.05636,"lng":-76.9722,"zip":"17856","miles_from_dt":29.96}],"targetCityZipCode":"17758","targetCityState":"Pennsylvania"},"__N_SSG":true}