{"pageProps":{"stateName":"Pennsylvania","cityName":"north-east","nearbyCities":[{"city":"Findley Lake","state_name":"New York","lat":42.13715,"lng":-79.74644,"zip":"14736","miles_from_dt":4.85},{"city":"Harborcreek","state_name":"Pennsylvania","lat":42.17036,"lng":-79.9351,"zip":"16421","miles_from_dt":5.44},{"city":"Erie","state_name":"Pennsylvania","lat":42.11184,"lng":-79.95395,"zip":"16510","miles_from_dt":7.61},{"city":"Erie","state_name":"Pennsylvania","lat":42.1076,"lng":-79.95604,"zip":"16515","miles_from_dt":7.86},{"city":"Ripley","state_name":"New York","lat":42.23198,"lng":-79.69532,"zip":"14775","miles_from_dt":8.05},{"city":"Erie","state_name":"Pennsylvania","lat":42.16529,"lng":-79.99667,"zip":"16511","miles_from_dt":8.61},{"city":"Erie","state_name":"Pennsylvania","lat":42.11929,"lng":-79.98643,"zip":"16563","miles_from_dt":8.84},{"city":"Wattsburg","state_name":"Pennsylvania","lat":42.04094,"lng":-79.82631,"zip":"16442","miles_from_dt":8.98},{"city":"Erie","state_name":"Pennsylvania","lat":42.11988,"lng":-80.0201,"zip":"16541","miles_from_dt":10.43},{"city":"Erie","state_name":"Pennsylvania","lat":42.11987,"lng":-80.02023,"zip":"16514","miles_from_dt":10.44},{"city":"Clymer","state_name":"New York","lat":42.05272,"lng":-79.67031,"zip":"14724","miles_from_dt":11.55},{"city":"Sherman","state_name":"New York","lat":42.16402,"lng":-79.604,"zip":"14781","miles_from_dt":11.57},{"city":"Erie","state_name":"Pennsylvania","lat":42.10942,"lng":-80.0489,"zip":"16504","miles_from_dt":12.07},{"city":"Erie","state_name":"Pennsylvania","lat":42.12718,"lng":-80.06103,"zip":"16503","miles_from_dt":12.29},{"city":"Erie","state_name":"Pennsylvania","lat":42.10389,"lng":-80.05338,"zip":"16546","miles_from_dt":12.42},{"city":"Erie","state_name":"Pennsylvania","lat":42.12524,"lng":-80.08062,"zip":"16522","miles_from_dt":13.3},{"city":"Erie","state_name":"Pennsylvania","lat":42.13036,"lng":-80.08287,"zip":"16530","miles_from_dt":13.33},{"city":"Erie","state_name":"Pennsylvania","lat":42.13378,"lng":-80.08495,"zip":"16550","miles_from_dt":13.39},{"city":"Erie","state_name":"Pennsylvania","lat":42.1264,"lng":-80.08294,"zip":"16553","miles_from_dt":13.4},{"city":"Erie","state_name":"Pennsylvania","lat":42.12164,"lng":-80.08305,"zip":"16512","miles_from_dt":13.48},{"city":"Erie","state_name":"Pennsylvania","lat":42.13575,"lng":-80.08743,"zip":"16507","miles_from_dt":13.49},{"city":"Erie","state_name":"Pennsylvania","lat":42.12909,"lng":-80.08588,"zip":"16538","miles_from_dt":13.5},{"city":"Erie","state_name":"Pennsylvania","lat":42.05861,"lng":-80.04419,"zip":"16509","miles_from_dt":13.51},{"city":"Erie","state_name":"Pennsylvania","lat":42.12144,"lng":-80.08528,"zip":"16534","miles_from_dt":13.6},{"city":"Erie","state_name":"Pennsylvania","lat":42.12096,"lng":-80.08958,"zip":"16501","miles_from_dt":13.82},{"city":"Erie","state_name":"Pennsylvania","lat":42.09719,"lng":-80.09249,"zip":"16508","miles_from_dt":14.46},{"city":"Erie","state_name":"Pennsylvania","lat":42.11073,"lng":-80.10123,"zip":"16502","miles_from_dt":14.59},{"city":"Erie","state_name":"Pennsylvania","lat":42.1101,"lng":-80.10311,"zip":"16544","miles_from_dt":14.69},{"city":"Erie","state_name":"Pennsylvania","lat":42.06906,"lng":-80.10263,"zip":"16565","miles_from_dt":15.72},{"city":"Erie","state_name":"Pennsylvania","lat":42.11789,"lng":-80.14304,"zip":"16505","miles_from_dt":16.54},{"city":"Westfield","state_name":"New York","lat":42.31342,"lng":-79.5675,"zip":"14787","miles_from_dt":16.63},{"city":"Waterford","state_name":"Pennsylvania","lat":41.9554,"lng":-79.98552,"zip":"16441","miles_from_dt":16.92},{"city":"Erie","state_name":"Pennsylvania","lat":42.10355,"lng":-80.1488,"zip":"16531","miles_from_dt":17.07},{"city":"Mayville","state_name":"New York","lat":42.23944,"lng":-79.50457,"zip":"14757","miles_from_dt":17.31},{"city":"Panama","state_name":"New York","lat":42.05344,"lng":-79.51583,"zip":"14767","miles_from_dt":18.03},{"city":"Erie","state_name":"Pennsylvania","lat":42.06449,"lng":-80.15472,"zip":"16506","miles_from_dt":18.28},{"city":"Chautauqua","state_name":"New York","lat":42.20961,"lng":-79.46882,"zip":"14722","miles_from_dt":18.68},{"city":"Elgin","state_name":"Pennsylvania","lat":41.9001,"lng":-79.74527,"zip":"16413","miles_from_dt":19.19},{"city":"Union City","state_name":"Pennsylvania","lat":41.89084,"lng":-79.84709,"zip":"16438","miles_from_dt":19.36},{"city":"Corry","state_name":"Pennsylvania","lat":41.91743,"lng":-79.66374,"zip":"16407","miles_from_dt":19.46},{"city":"McKean","state_name":"Pennsylvania","lat":41.98121,"lng":-80.13937,"zip":"16426","miles_from_dt":20.65},{"city":"Maple Springs","state_name":"New York","lat":42.19708,"lng":-79.42373,"zip":"14756","miles_from_dt":20.88},{"city":"Ashville","state_name":"New York","lat":42.08957,"lng":-79.42306,"zip":"14710","miles_from_dt":21.6},{"city":"Mill Village","state_name":"Pennsylvania","lat":41.87466,"lng":-79.97132,"zip":"16427","miles_from_dt":21.73},{"city":"Stow","state_name":"New York","lat":42.15572,"lng":-79.40337,"zip":"14785","miles_from_dt":21.89},{"city":"Dewittville","state_name":"New York","lat":42.2648,"lng":-79.41689,"zip":"14728","miles_from_dt":22.11},{"city":"Columbus","state_name":"Pennsylvania","lat":41.938,"lng":-79.5335,"zip":"16405","miles_from_dt":22.13},{"city":"Niobe","state_name":"New York","lat":42.01142,"lng":-79.45041,"zip":"14758","miles_from_dt":22.37},{"city":"Fairview","state_name":"Pennsylvania","lat":42.03122,"lng":-80.22873,"zip":"16415","miles_from_dt":22.7},{"city":"Portland","state_name":"New York","lat":42.36885,"lng":-79.47413,"zip":"14769","miles_from_dt":22.75},{"city":"Bear Lake","state_name":"Pennsylvania","lat":41.96459,"lng":-79.48076,"zip":"16402","miles_from_dt":22.89},{"city":"Bemus Point","state_name":"New York","lat":42.18163,"lng":-79.36812,"zip":"14712","miles_from_dt":23.68},{"city":"Brocton","state_name":"New York","lat":42.38056,"lng":-79.43406,"zip":"14716","miles_from_dt":24.88},{"city":"Stockton","state_name":"New York","lat":42.31445,"lng":-79.38028,"zip":"14784","miles_from_dt":25.05},{"city":"Edinboro","state_name":"Pennsylvania","lat":41.87071,"lng":-80.12175,"zip":"16444","miles_from_dt":25.63},{"city":"Edinboro","state_name":"Pennsylvania","lat":41.88212,"lng":-80.16392,"zip":"16412","miles_from_dt":26.36},{"city":"Lakewood","state_name":"New York","lat":42.07939,"lng":-79.32752,"zip":"14750","miles_from_dt":26.54},{"city":"Greenhurst","state_name":"New York","lat":42.11934,"lng":-79.30878,"zip":"14742","miles_from_dt":26.96},{"city":"Riceville","state_name":"Pennsylvania","lat":41.77923,"lng":-79.79955,"zip":"16432","miles_from_dt":27.09},{"city":"Spartansburg","state_name":"Pennsylvania","lat":41.79442,"lng":-79.66765,"zip":"16434","miles_from_dt":27.29},{"city":"Spring Creek","state_name":"Pennsylvania","lat":41.85563,"lng":-79.49889,"zip":"16436","miles_from_dt":27.62},{"city":"Cambridge Springs","state_name":"Pennsylvania","lat":41.7912,"lng":-80.02017,"zip":"16403","miles_from_dt":28.01},{"city":"Girard","state_name":"Pennsylvania","lat":41.97107,"lng":-80.31039,"zip":"16417","miles_from_dt":28.34},{"city":"Lake City","state_name":"Pennsylvania","lat":42.01881,"lng":-80.34253,"zip":"16423","miles_from_dt":28.41},{"city":"Celoron","state_name":"New York","lat":42.10857,"lng":-79.27997,"zip":"14720","miles_from_dt":28.53},{"city":"Van Buren Point","state_name":"New York","lat":42.45088,"lng":-79.41592,"zip":"14166","miles_from_dt":28.65},{"city":"Lily Dale","state_name":"New York","lat":42.3517,"lng":-79.31965,"zip":"14752","miles_from_dt":28.94},{"city":"Sugar Grove","state_name":"Pennsylvania","lat":41.96323,"lng":-79.3322,"zip":"16350","miles_from_dt":29.3},{"city":"Cranesville","state_name":"Pennsylvania","lat":41.92012,"lng":-80.30482,"zip":"16410","miles_from_dt":29.98}],"targetCityZipCode":"16428","targetCityState":"Pennsylvania"},"__N_SSG":true}