{"pageProps":{"stateName":"Pennsylvania","cityName":"rockton","nearbyCities":[{"city":"Du Bois","state_name":"Pennsylvania","lat":41.12867,"lng":-78.72352,"zip":"15801","miles_from_dt":6.27},{"city":"Luthersburg","state_name":"Pennsylvania","lat":41.03137,"lng":-78.71908,"zip":"15848","miles_from_dt":6.72},{"city":"Penfield","state_name":"Pennsylvania","lat":41.17838,"lng":-78.55592,"zip":"15849","miles_from_dt":6.9},{"city":"Grampian","state_name":"Pennsylvania","lat":40.98923,"lng":-78.64292,"zip":"16838","miles_from_dt":7.04},{"city":"Clearfield","state_name":"Pennsylvania","lat":41.08569,"lng":-78.43317,"zip":"16830","miles_from_dt":9.52},{"city":"Hyde","state_name":"Pennsylvania","lat":41.00849,"lng":-78.46269,"zip":"16843","miles_from_dt":9.72},{"city":"Troutville","state_name":"Pennsylvania","lat":41.02587,"lng":-78.78628,"zip":"15866","miles_from_dt":9.93},{"city":"Curwensville","state_name":"Pennsylvania","lat":40.94158,"lng":-78.57862,"zip":"16833","miles_from_dt":10.36},{"city":"Sykesville","state_name":"Pennsylvania","lat":41.0508,"lng":-78.81418,"zip":"15865","miles_from_dt":10.71},{"city":"Glen Richey","state_name":"Pennsylvania","lat":40.94576,"lng":-78.47494,"zip":"16837","miles_from_dt":12.32},{"city":"Falls Creek","state_name":"Pennsylvania","lat":41.16927,"lng":-78.82708,"zip":"15840","miles_from_dt":12.35},{"city":"Stump Creek","state_name":"Pennsylvania","lat":41.0157,"lng":-78.83847,"zip":"15863","miles_from_dt":12.7},{"city":"Brockport","state_name":"Pennsylvania","lat":41.25888,"lng":-78.71001,"zip":"15823","miles_from_dt":12.71},{"city":"Force","state_name":"Pennsylvania","lat":41.25798,"lng":-78.50441,"zip":"15841","miles_from_dt":13.01},{"city":"Shawville","state_name":"Pennsylvania","lat":41.06993,"lng":-78.3605,"zip":"16873","miles_from_dt":13.38},{"city":"Olanta","state_name":"Pennsylvania","lat":40.91162,"lng":-78.47204,"zip":"16863","miles_from_dt":14.36},{"city":"Mineral Springs","state_name":"Pennsylvania","lat":40.99902,"lng":-78.36046,"zip":"16855","miles_from_dt":14.7},{"city":"Reynoldsville","state_name":"Pennsylvania","lat":41.10115,"lng":-78.90316,"zip":"15851","miles_from_dt":15.05},{"city":"Mahaffey","state_name":"Pennsylvania","lat":40.8902,"lng":-78.73733,"zip":"15757","miles_from_dt":15.13},{"city":"Byrnedale","state_name":"Pennsylvania","lat":41.29479,"lng":-78.50582,"zip":"15827","miles_from_dt":15.3},{"city":"Big Run","state_name":"Pennsylvania","lat":40.97017,"lng":-78.87655,"zip":"15715","miles_from_dt":15.92},{"city":"Brockway","state_name":"Pennsylvania","lat":41.24831,"lng":-78.83828,"zip":"15824","miles_from_dt":16},{"city":"New Millport","state_name":"Pennsylvania","lat":40.86764,"lng":-78.51991,"zip":"16861","miles_from_dt":16.07},{"city":"Brandy Camp","state_name":"Pennsylvania","lat":41.31891,"lng":-78.68736,"zip":"15822","miles_from_dt":16.3},{"city":"Woodland","state_name":"Pennsylvania","lat":41.02743,"lng":-78.31119,"zip":"16881","miles_from_dt":16.45},{"city":"Kersey","state_name":"Pennsylvania","lat":41.33375,"lng":-78.6147,"zip":"15846","miles_from_dt":16.89},{"city":"Bigler","state_name":"Pennsylvania","lat":40.98803,"lng":-78.31208,"zip":"16825","miles_from_dt":17.31},{"city":"Lecontes Mills","state_name":"Pennsylvania","lat":41.08186,"lng":-78.28036,"zip":"16850","miles_from_dt":17.5},{"city":"West Decatur","state_name":"Pennsylvania","lat":40.94325,"lng":-78.33609,"zip":"16878","miles_from_dt":17.73},{"city":"Weedville","state_name":"Pennsylvania","lat":41.29885,"lng":-78.41799,"zip":"15868","miles_from_dt":17.76},{"city":"Dagus Mines","state_name":"Pennsylvania","lat":41.35305,"lng":-78.604,"zip":"15831","miles_from_dt":18.23},{"city":"Frenchville","state_name":"Pennsylvania","lat":41.14633,"lng":-78.26454,"zip":"16836","miles_from_dt":18.73},{"city":"Anita","state_name":"Pennsylvania","lat":41.00926,"lng":-78.96235,"zip":"15711","miles_from_dt":18.94},{"city":"Wallaceton","state_name":"Pennsylvania","lat":40.96648,"lng":-78.29087,"zip":"16876","miles_from_dt":18.95},{"city":"De Lancey","state_name":"Pennsylvania","lat":40.9869,"lng":-78.96072,"zip":"15733","miles_from_dt":19.37},{"city":"Irvona","state_name":"Pennsylvania","lat":40.8066,"lng":-78.56353,"zip":"16656","miles_from_dt":19.68},{"city":"Madera","state_name":"Pennsylvania","lat":40.83058,"lng":-78.45026,"zip":"16661","miles_from_dt":19.82},{"city":"Houtzdale","state_name":"Pennsylvania","lat":40.8505,"lng":-78.37945,"zip":"16651","miles_from_dt":20.57},{"city":"Punxsutawney","state_name":"Pennsylvania","lat":40.95859,"lng":-78.96974,"zip":"15767","miles_from_dt":20.59},{"city":"Burnside","state_name":"Pennsylvania","lat":40.82029,"lng":-78.78739,"zip":"15721","miles_from_dt":20.61},{"city":"Glen Hope","state_name":"Pennsylvania","lat":40.80204,"lng":-78.49932,"zip":"16645","miles_from_dt":20.72},{"city":"La Jose","state_name":"Pennsylvania","lat":40.78681,"lng":-78.64728,"zip":"15753","miles_from_dt":20.92},{"city":"Rossiter","state_name":"Pennsylvania","lat":40.87392,"lng":-78.89984,"zip":"15772","miles_from_dt":21.02},{"city":"Walston","state_name":"Pennsylvania","lat":40.96375,"lng":-78.98679,"zip":"15781","miles_from_dt":21.25},{"city":"Knox Dale","state_name":"Pennsylvania","lat":41.08614,"lng":-79.02948,"zip":"15847","miles_from_dt":21.62},{"city":"Osceola Mills","state_name":"Pennsylvania","lat":40.87056,"lng":-78.31286,"zip":"16666","miles_from_dt":21.86},{"city":"Brisbin","state_name":"Pennsylvania","lat":40.83947,"lng":-78.35259,"zip":"16620","miles_from_dt":22.04},{"city":"Smokerun","state_name":"Pennsylvania","lat":40.80032,"lng":-78.42766,"zip":"16681","miles_from_dt":22.21},{"city":"Oliveburg","state_name":"Pennsylvania","lat":40.99423,"lng":-79.02773,"zip":"15764","miles_from_dt":22.51},{"city":"Morrisdale","state_name":"Pennsylvania","lat":41.00056,"lng":-78.20033,"zip":"16858","miles_from_dt":22.53},{"city":"Houtzdale","state_name":"Pennsylvania","lat":40.82833,"lng":-78.35235,"zip":"16698","miles_from_dt":22.65},{"city":"Benezett","state_name":"Pennsylvania","lat":41.35868,"lng":-78.36453,"zip":"15821","miles_from_dt":22.74},{"city":"Brookville","state_name":"Pennsylvania","lat":41.17005,"lng":-79.03885,"zip":"15825","miles_from_dt":22.79},{"city":"Ridgway","state_name":"Pennsylvania","lat":41.39253,"lng":-78.79357,"zip":"15853","miles_from_dt":22.91},{"city":"Ramey","state_name":"Pennsylvania","lat":40.79414,"lng":-78.40203,"zip":"16671","miles_from_dt":23.21},{"city":"Glen Campbell","state_name":"Pennsylvania","lat":40.81042,"lng":-78.8688,"zip":"15742","miles_from_dt":23.36},{"city":"Westover","state_name":"Pennsylvania","lat":40.75935,"lng":-78.72053,"zip":"16692","miles_from_dt":23.41},{"city":"Allport","state_name":"Pennsylvania","lat":40.95888,"lng":-78.19875,"zip":"16821","miles_from_dt":23.55},{"city":"Arcadia","state_name":"Pennsylvania","lat":40.79323,"lng":-78.84692,"zip":"15712","miles_from_dt":23.74},{"city":"Beccaria","state_name":"Pennsylvania","lat":40.76832,"lng":-78.45128,"zip":"16616","miles_from_dt":23.74},{"city":"Coalport","state_name":"Pennsylvania","lat":40.75272,"lng":-78.50036,"zip":"16627","miles_from_dt":23.98},{"city":"Gipsy","state_name":"Pennsylvania","lat":40.80601,"lng":-78.88924,"zip":"15741","miles_from_dt":24.22},{"city":"Kylertown","state_name":"Pennsylvania","lat":40.99941,"lng":-78.16439,"zip":"16847","miles_from_dt":24.36},{"city":"Hawk Run","state_name":"Pennsylvania","lat":40.92555,"lng":-78.20214,"zip":"16840","miles_from_dt":24.37},{"city":"Morann","state_name":"Pennsylvania","lat":40.7868,"lng":-78.36707,"zip":"16663","miles_from_dt":24.57},{"city":"Coolspring","state_name":"Pennsylvania","lat":41.02749,"lng":-79.07921,"zip":"15730","miles_from_dt":24.6},{"city":"Munson","state_name":"Pennsylvania","lat":40.94673,"lng":-78.17219,"zip":"16860","miles_from_dt":25.16},{"city":"Winburne","state_name":"Pennsylvania","lat":40.97116,"lng":-78.15162,"zip":"16879","miles_from_dt":25.56},{"city":"Saint Marys","state_name":"Pennsylvania","lat":41.45671,"lng":-78.53439,"zip":"15857","miles_from_dt":25.72},{"city":"Smithmill","state_name":"Pennsylvania","lat":40.75149,"lng":-78.40254,"zip":"16680","miles_from_dt":25.82},{"city":"Valier","state_name":"Pennsylvania","lat":40.91628,"lng":-79.05606,"zip":"15780","miles_from_dt":25.94},{"city":"Rochester Mills","state_name":"Pennsylvania","lat":40.83309,"lng":-78.99009,"zip":"15771","miles_from_dt":26.38},{"city":"Flinton","state_name":"Pennsylvania","lat":40.70657,"lng":-78.5702,"zip":"16640","miles_from_dt":26.5},{"city":"Sprankle Mills","state_name":"Pennsylvania","lat":41.01348,"lng":-79.11442,"zip":"15776","miles_from_dt":26.58},{"city":"Cherry Tree","state_name":"Pennsylvania","lat":40.73545,"lng":-78.81746,"zip":"15724","miles_from_dt":26.59},{"city":"Hamilton","state_name":"Pennsylvania","lat":40.91722,"lng":-79.07119,"zip":"15744","miles_from_dt":26.61},{"city":"Hillsdale","state_name":"Pennsylvania","lat":40.75285,"lng":-78.87455,"zip":"15746","miles_from_dt":26.87},{"city":"Marchand","state_name":"Pennsylvania","lat":40.87431,"lng":-79.04554,"zip":"15758","miles_from_dt":26.94},{"city":"Drifting","state_name":"Pennsylvania","lat":41.0391,"lng":-78.10389,"zip":"16834","miles_from_dt":26.94},{"city":"Grassflat","state_name":"Pennsylvania","lat":41.00319,"lng":-78.11113,"zip":"16839","miles_from_dt":27},{"city":"Sandy Ridge","state_name":"Pennsylvania","lat":40.81507,"lng":-78.2457,"zip":"16677","miles_from_dt":27.05},{"city":"Glasgow","state_name":"Pennsylvania","lat":40.7094,"lng":-78.4485,"zip":"16644","miles_from_dt":27.62},{"city":"Lanse","state_name":"Pennsylvania","lat":40.95978,"lng":-78.11431,"zip":"16849","miles_from_dt":27.66},{"city":"Worthville","state_name":"Pennsylvania","lat":41.02449,"lng":-79.13937,"zip":"15784","miles_from_dt":27.73},{"city":"Philipsburg","state_name":"Pennsylvania","lat":40.86684,"lng":-78.17163,"zip":"16866","miles_from_dt":27.82},{"city":"Saint Boniface","state_name":"Pennsylvania","lat":40.68796,"lng":-78.67905,"zip":"16675","miles_from_dt":27.88},{"city":"Hastings","state_name":"Pennsylvania","lat":40.68291,"lng":-78.71579,"zip":"16646","miles_from_dt":28.51},{"city":"Sigel","state_name":"Pennsylvania","lat":41.3435,"lng":-79.04697,"zip":"15860","miles_from_dt":28.53},{"city":"Driftwood","state_name":"Pennsylvania","lat":41.35301,"lng":-78.19053,"zip":"15832","miles_from_dt":28.67},{"city":"Emeigh","state_name":"Pennsylvania","lat":40.69039,"lng":-78.78174,"zip":"15738","miles_from_dt":28.86},{"city":"Ringgold","state_name":"Pennsylvania","lat":40.99528,"lng":-79.15747,"zip":"15770","miles_from_dt":29.05},{"city":"Johnsonburg","state_name":"Pennsylvania","lat":41.50714,"lng":-78.69066,"zip":"15845","miles_from_dt":29.12},{"city":"Fallentimber","state_name":"Pennsylvania","lat":40.68566,"lng":-78.44912,"zip":"16639","miles_from_dt":29.17},{"city":"Northpoint","state_name":"Pennsylvania","lat":40.90718,"lng":-79.12795,"zip":"15763","miles_from_dt":29.59},{"city":"Blandburg","state_name":"Pennsylvania","lat":40.68367,"lng":-78.41591,"zip":"16619","miles_from_dt":29.86}],"targetCityZipCode":"15856","targetCityState":"Pennsylvania"},"__N_SSG":true}