{"pageProps":{"stateName":"Pennsylvania","cityName":"schenley","nearbyCities":[{"city":"Freeport","state_name":"Pennsylvania","lat":40.71624,"lng":-79.64567,"zip":"16229","miles_from_dt":2.34},{"city":"Leechburg","state_name":"Pennsylvania","lat":40.64114,"lng":-79.61981,"zip":"15656","miles_from_dt":3.03},{"city":"Hyde Park","state_name":"Pennsylvania","lat":40.63151,"lng":-79.58909,"zip":"15641","miles_from_dt":4.35},{"city":"Natrona Heights","state_name":"Pennsylvania","lat":40.64192,"lng":-79.72766,"zip":"15065","miles_from_dt":5.55},{"city":"Vandergrift","state_name":"Pennsylvania","lat":40.6455,"lng":-79.54243,"zip":"15690","miles_from_dt":5.6},{"city":"Cadogan","state_name":"Pennsylvania","lat":40.75239,"lng":-79.57795,"zip":"16212","miles_from_dt":5.7},{"city":"Sarver","state_name":"Pennsylvania","lat":40.7157,"lng":-79.74753,"zip":"16055","miles_from_dt":6.23},{"city":"East Vandergrift","state_name":"Pennsylvania","lat":40.59731,"lng":-79.56304,"zip":"15629","miles_from_dt":7.08},{"city":"North Apollo","state_name":"Pennsylvania","lat":40.59383,"lng":-79.55634,"zip":"15673","miles_from_dt":7.47},{"city":"Brackenridge","state_name":"Pennsylvania","lat":40.60859,"lng":-79.74149,"zip":"15014","miles_from_dt":7.52},{"city":"Ford Cliff","state_name":"Pennsylvania","lat":40.76076,"lng":-79.5358,"zip":"16228","miles_from_dt":7.55},{"city":"Ford City","state_name":"Pennsylvania","lat":40.71139,"lng":-79.48608,"zip":"16226","miles_from_dt":8.16},{"city":"McGrann","state_name":"Pennsylvania","lat":40.78119,"lng":-79.52376,"zip":"16236","miles_from_dt":9.01},{"city":"Cabot","state_name":"Pennsylvania","lat":40.78495,"lng":-79.74921,"zip":"16023","miles_from_dt":9.18},{"city":"New Kensington","state_name":"Pennsylvania","lat":40.56241,"lng":-79.7124,"zip":"15068","miles_from_dt":9.22},{"city":"Manorville","state_name":"Pennsylvania","lat":40.78778,"lng":-79.52036,"zip":"16238","miles_from_dt":9.47},{"city":"Tarentum","state_name":"Pennsylvania","lat":40.6282,"lng":-79.8028,"zip":"15084","miles_from_dt":9.5},{"city":"Apollo","state_name":"Pennsylvania","lat":40.55355,"lng":-79.56577,"zip":"15613","miles_from_dt":9.69},{"city":"New Kensington","state_name":"Pennsylvania","lat":40.56968,"lng":-79.74932,"zip":"15069","miles_from_dt":9.8},{"city":"Creighton","state_name":"Pennsylvania","lat":40.58492,"lng":-79.78074,"zip":"15030","miles_from_dt":10.15},{"city":"Worthington","state_name":"Pennsylvania","lat":40.8377,"lng":-79.65266,"zip":"16262","miles_from_dt":10.71},{"city":"Saxonburg","state_name":"Pennsylvania","lat":40.72301,"lng":-79.83911,"zip":"16056","miles_from_dt":10.97},{"city":"Spring Church","state_name":"Pennsylvania","lat":40.61802,"lng":-79.43635,"zip":"15686","miles_from_dt":11.46},{"city":"Curtisville","state_name":"Pennsylvania","lat":40.6407,"lng":-79.85029,"zip":"15032","miles_from_dt":11.58},{"city":"Russellton","state_name":"Pennsylvania","lat":40.60949,"lng":-79.8374,"zip":"15076","miles_from_dt":11.69},{"city":"Rural Ridge","state_name":"Pennsylvania","lat":40.58665,"lng":-79.82693,"zip":"15075","miles_from_dt":12},{"city":"Springdale","state_name":"Pennsylvania","lat":40.54759,"lng":-79.78317,"zip":"15144","miles_from_dt":12.1},{"city":"Kittanning","state_name":"Pennsylvania","lat":40.80984,"lng":-79.47204,"zip":"16201","miles_from_dt":12.31},{"city":"Harwick","state_name":"Pennsylvania","lat":40.55545,"lng":-79.80366,"zip":"15049","miles_from_dt":12.42},{"city":"Avonmore","state_name":"Pennsylvania","lat":40.56229,"lng":-79.44628,"zip":"15618","miles_from_dt":13.03},{"city":"Bairdford","state_name":"Pennsylvania","lat":40.63351,"lng":-79.87678,"zip":"15006","miles_from_dt":13.06},{"city":"Fenelton","state_name":"Pennsylvania","lat":40.86051,"lng":-79.7288,"zip":"16034","miles_from_dt":13.16},{"city":"Cheswick","state_name":"Pennsylvania","lat":40.57649,"lng":-79.84649,"zip":"15024","miles_from_dt":13.24},{"city":"Salina","state_name":"Pennsylvania","lat":40.52104,"lng":-79.49638,"zip":"15680","miles_from_dt":13.4},{"city":"Herman","state_name":"Pennsylvania","lat":40.83052,"lng":-79.81135,"zip":"16039","miles_from_dt":13.69},{"city":"Elderton","state_name":"Pennsylvania","lat":40.69945,"lng":-79.36946,"zip":"15736","miles_from_dt":14.1},{"city":"Indianola","state_name":"Pennsylvania","lat":40.56812,"lng":-79.86076,"zip":"15051","miles_from_dt":14.19},{"city":"Pittsburgh","state_name":"Pennsylvania","lat":40.48437,"lng":-79.73753,"zip":"15239","miles_from_dt":14.69},{"city":"Butler","state_name":"Pennsylvania","lat":40.81568,"lng":-79.85638,"zip":"16002","miles_from_dt":14.71},{"city":"Oakmont","state_name":"Pennsylvania","lat":40.52192,"lng":-79.83479,"zip":"15139","miles_from_dt":15.22},{"city":"Murrysville","state_name":"Pennsylvania","lat":40.46352,"lng":-79.67168,"zip":"15668","miles_from_dt":15.25},{"city":"Valencia","state_name":"Pennsylvania","lat":40.70425,"lng":-79.92812,"zip":"16059","miles_from_dt":15.36},{"city":"Bakerstown","state_name":"Pennsylvania","lat":40.65128,"lng":-79.93173,"zip":"15007","miles_from_dt":15.64},{"city":"Adrian","state_name":"Pennsylvania","lat":40.89697,"lng":-79.519,"zip":"16210","miles_from_dt":16.01},{"city":"Saltsburg","state_name":"Pennsylvania","lat":40.5023,"lng":-79.43873,"zip":"15681","miles_from_dt":16.25},{"city":"West Lebanon","state_name":"Pennsylvania","lat":40.60297,"lng":-79.34495,"zip":"15783","miles_from_dt":16.31},{"city":"Verona","state_name":"Pennsylvania","lat":40.49704,"lng":-79.82858,"zip":"15147","miles_from_dt":16.32},{"city":"Pittsburgh","state_name":"Pennsylvania","lat":40.53405,"lng":-79.88115,"zip":"15238","miles_from_dt":16.45},{"city":"Shelocta","state_name":"Pennsylvania","lat":40.65729,"lng":-79.32508,"zip":"15774","miles_from_dt":16.48},{"city":"Gibsonia","state_name":"Pennsylvania","lat":40.64009,"lng":-79.9492,"zip":"15044","miles_from_dt":16.67},{"city":"Slickville","state_name":"Pennsylvania","lat":40.4629,"lng":-79.50629,"zip":"15684","miles_from_dt":16.67},{"city":"Export","state_name":"Pennsylvania","lat":40.43803,"lng":-79.60668,"zip":"15632","miles_from_dt":16.98},{"city":"Cowansville","state_name":"Pennsylvania","lat":40.92705,"lng":-79.59325,"zip":"16218","miles_from_dt":16.99},{"city":"Rural Valley","state_name":"Pennsylvania","lat":40.76209,"lng":-79.32163,"zip":"16249","miles_from_dt":17.43},{"city":"East Butler","state_name":"Pennsylvania","lat":40.87996,"lng":-79.84602,"zip":"16029","miles_from_dt":17.46},{"city":"Yatesboro","state_name":"Pennsylvania","lat":40.80118,"lng":-79.34108,"zip":"16263","miles_from_dt":17.54},{"city":"Allison Park","state_name":"Pennsylvania","lat":40.58139,"lng":-79.95531,"zip":"15101","miles_from_dt":18.14},{"city":"Butler","state_name":"Pennsylvania","lat":40.85806,"lng":-79.89528,"zip":"16003","miles_from_dt":18.15},{"city":"Pittsburgh","state_name":"Pennsylvania","lat":40.45968,"lng":-79.82194,"zip":"15235","miles_from_dt":18.23},{"city":"Wildwood","state_name":"Pennsylvania","lat":40.5939,"lng":-79.97022,"zip":"15091","miles_from_dt":18.57},{"city":"Lyndora","state_name":"Pennsylvania","lat":40.85277,"lng":-79.91626,"zip":"16045","miles_from_dt":18.76},{"city":"Clune","state_name":"Pennsylvania","lat":40.56498,"lng":-79.31496,"zip":"15727","miles_from_dt":18.79},{"city":"Monroeville","state_name":"Pennsylvania","lat":40.4264,"lng":-79.76005,"zip":"15146","miles_from_dt":18.85},{"city":"East Brady","state_name":"Pennsylvania","lat":40.95684,"lng":-79.63985,"zip":"16028","miles_from_dt":18.9},{"city":"Pittsburgh","state_name":"Pennsylvania","lat":40.50457,"lng":-79.91338,"zip":"15215","miles_from_dt":19.05},{"city":"Chicora","state_name":"Pennsylvania","lat":40.94464,"lng":-79.75841,"zip":"16025","miles_from_dt":19.14},{"city":"Delmont","state_name":"Pennsylvania","lat":40.40868,"lng":-79.57592,"zip":"15626","miles_from_dt":19.2},{"city":"McIntyre","state_name":"Pennsylvania","lat":40.57134,"lng":-79.30096,"zip":"15756","miles_from_dt":19.27},{"city":"Templeton","state_name":"Pennsylvania","lat":40.92699,"lng":-79.45692,"zip":"16259","miles_from_dt":19.3},{"city":"Glenshaw","state_name":"Pennsylvania","lat":40.5384,"lng":-79.95211,"zip":"15116","miles_from_dt":19.34},{"city":"Clarksburg","state_name":"Pennsylvania","lat":40.51751,"lng":-79.33954,"zip":"15725","miles_from_dt":19.37},{"city":"Renfrew","state_name":"Pennsylvania","lat":40.81194,"lng":-79.9826,"zip":"16053","miles_from_dt":20.2},{"city":"Pitcairn","state_name":"Pennsylvania","lat":40.4073,"lng":-79.7783,"zip":"15140","miles_from_dt":20.43},{"city":"Pittsburgh","state_name":"Pennsylvania","lat":40.47911,"lng":-79.92143,"zip":"15258","miles_from_dt":20.54},{"city":"Pittsburgh","state_name":"Pennsylvania","lat":40.47244,"lng":-79.91324,"zip":"15206","miles_from_dt":20.55},{"city":"Nu Mine","state_name":"Pennsylvania","lat":40.80499,"lng":-79.27905,"zip":"16244","miles_from_dt":20.58},{"city":"Mars","state_name":"Pennsylvania","lat":40.70192,"lng":-80.02866,"zip":"16046","miles_from_dt":20.61},{"city":"Pittsburgh","state_name":"Pennsylvania","lat":40.50431,"lng":-79.95199,"zip":"15223","miles_from_dt":20.65},{"city":"Pittsburgh","state_name":"Pennsylvania","lat":40.45387,"lng":-79.89883,"zip":"15208","miles_from_dt":20.97},{"city":"Turtle Creek","state_name":"Pennsylvania","lat":40.41451,"lng":-79.82352,"zip":"15145","miles_from_dt":20.97},{"city":"Pittsburgh","state_name":"Pennsylvania","lat":40.43457,"lng":-79.86631,"zip":"15221","miles_from_dt":20.97},{"city":"Trafford","state_name":"Pennsylvania","lat":40.38497,"lng":-79.72539,"zip":"15085","miles_from_dt":21.09},{"city":"Kent","state_name":"Pennsylvania","lat":40.5408,"lng":-79.28177,"zip":"15752","miles_from_dt":21.1},{"city":"Aultman","state_name":"Pennsylvania","lat":40.5698,"lng":-79.26184,"zip":"15713","miles_from_dt":21.21},{"city":"Widnoon","state_name":"Pennsylvania","lat":40.96428,"lng":-79.46983,"zip":"16261","miles_from_dt":21.29},{"city":"Callery","state_name":"Pennsylvania","lat":40.73961,"lng":-80.03719,"zip":"16024","miles_from_dt":21.37},{"city":"Wilmerding","state_name":"Pennsylvania","lat":40.39351,"lng":-79.79525,"zip":"15148","miles_from_dt":21.64},{"city":"Claridge","state_name":"Pennsylvania","lat":40.3689,"lng":-79.62263,"zip":"15623","miles_from_dt":21.69},{"city":"Pittsburgh","state_name":"Pennsylvania","lat":40.50007,"lng":-79.97463,"zip":"15209","miles_from_dt":21.79},{"city":"New Alexandria","state_name":"Pennsylvania","lat":40.40783,"lng":-79.4321,"zip":"15670","miles_from_dt":21.84},{"city":"Sagamore","state_name":"Pennsylvania","lat":40.77566,"lng":-79.23782,"zip":"16250","miles_from_dt":21.91},{"city":"East Pittsburgh","state_name":"Pennsylvania","lat":40.40453,"lng":-79.83734,"zip":"15112","miles_from_dt":21.92},{"city":"Connoquenessing","state_name":"Pennsylvania","lat":40.81822,"lng":-80.01531,"zip":"16027","miles_from_dt":21.94},{"city":"Pittsburgh","state_name":"Pennsylvania","lat":40.47565,"lng":-79.95389,"zip":"15201","miles_from_dt":21.97},{"city":"Harrison City","state_name":"Pennsylvania","lat":40.36459,"lng":-79.65619,"zip":"15636","miles_from_dt":21.99},{"city":"Pittsburgh","state_name":"Pennsylvania","lat":40.46737,"lng":-79.94623,"zip":"15224","miles_from_dt":22.05},{"city":"Pittsburgh","state_name":"Pennsylvania","lat":40.45246,"lng":-79.93193,"zip":"15232","miles_from_dt":22.23},{"city":"Pittsburgh","state_name":"Pennsylvania","lat":40.42366,"lng":-79.88924,"zip":"15218","miles_from_dt":22.28},{"city":"East McKeesport","state_name":"Pennsylvania","lat":40.38488,"lng":-79.80726,"zip":"15035","miles_from_dt":22.44},{"city":"Creekside","state_name":"Pennsylvania","lat":40.72829,"lng":-79.21336,"zip":"15732","miles_from_dt":22.46},{"city":"Butler","state_name":"Pennsylvania","lat":40.91049,"lng":-79.94376,"zip":"16001","miles_from_dt":22.48},{"city":"Braddock","state_name":"Pennsylvania","lat":40.40379,"lng":-79.86249,"zip":"15104","miles_from_dt":22.63},{"city":"Karns City","state_name":"Pennsylvania","lat":41.00693,"lng":-79.71395,"zip":"16041","miles_from_dt":22.71},{"city":"Ardara","state_name":"Pennsylvania","lat":40.36133,"lng":-79.73397,"zip":"15615","miles_from_dt":22.78},{"city":"Evans City","state_name":"Pennsylvania","lat":40.79355,"lng":-80.04618,"zip":"16033","miles_from_dt":22.79},{"city":"Pittsburgh","state_name":"Pennsylvania","lat":40.43083,"lng":-79.91999,"zip":"15217","miles_from_dt":22.91},{"city":"North Versailles","state_name":"Pennsylvania","lat":40.37762,"lng":-79.80902,"zip":"15137","miles_from_dt":22.94},{"city":"Wexford","state_name":"Pennsylvania","lat":40.62587,"lng":-80.06766,"zip":"15090","miles_from_dt":22.97},{"city":"Pittsburgh","state_name":"Pennsylvania","lat":40.44438,"lng":-79.94401,"zip":"15289","miles_from_dt":23.07},{"city":"Pittsburgh","state_name":"Pennsylvania","lat":40.44829,"lng":-79.95189,"zip":"15250","miles_from_dt":23.17},{"city":"Forbes Road","state_name":"Pennsylvania","lat":40.35941,"lng":-79.51699,"zip":"15633","miles_from_dt":23.2},{"city":"Jeannette","state_name":"Pennsylvania","lat":40.34681,"lng":-79.61278,"zip":"15644","miles_from_dt":23.23},{"city":"Pittsburgh","state_name":"Pennsylvania","lat":40.44475,"lng":-79.95156,"zip":"15251","miles_from_dt":23.33},{"city":"Ingomar","state_name":"Pennsylvania","lat":40.58104,"lng":-80.06113,"zip":"15127","miles_from_dt":23.38},{"city":"Pittsburgh","state_name":"Pennsylvania","lat":40.4432,"lng":-79.95306,"zip":"15260","miles_from_dt":23.46},{"city":"Pittsburgh","state_name":"Pennsylvania","lat":40.54834,"lng":-80.04682,"zip":"15237","miles_from_dt":23.47},{"city":"Pittsburgh","state_name":"Pennsylvania","lat":40.44293,"lng":-79.95345,"zip":"15213","miles_from_dt":23.49},{"city":"Pittsburgh","state_name":"Pennsylvania","lat":40.44422,"lng":-79.95599,"zip":"15264","miles_from_dt":23.52},{"city":"Crabtree","state_name":"Pennsylvania","lat":40.36638,"lng":-79.47124,"zip":"15624","miles_from_dt":23.53},{"city":"Bradfordwoods","state_name":"Pennsylvania","lat":40.63622,"lng":-80.08164,"zip":"15015","miles_from_dt":23.59},{"city":"Pittsburgh","state_name":"Pennsylvania","lat":40.44029,"lng":-79.95451,"zip":"15274","miles_from_dt":23.66},{"city":"Pittsburgh","state_name":"Pennsylvania","lat":40.44598,"lng":-79.96243,"zip":"15240","miles_from_dt":23.68},{"city":"Manor","state_name":"Pennsylvania","lat":40.33925,"lng":-79.66338,"zip":"15665","miles_from_dt":23.76},{"city":"Dayton","state_name":"Pennsylvania","lat":40.87171,"lng":-79.25719,"zip":"16222","miles_from_dt":23.8},{"city":"Pittsburgh","state_name":"Pennsylvania","lat":40.44102,"lng":-79.96037,"zip":"15261","miles_from_dt":23.84},{"city":"Pittsburgh","state_name":"Pennsylvania","lat":40.43991,"lng":-79.96021,"zip":"15253","miles_from_dt":23.89},{"city":"Larimer","state_name":"Pennsylvania","lat":40.34262,"lng":-79.72009,"zip":"15647","miles_from_dt":23.89},{"city":"Greensburg","state_name":"Pennsylvania","lat":40.34828,"lng":-79.5188,"zip":"15605","miles_from_dt":23.92},{"city":"Pittsburgh","state_name":"Pennsylvania","lat":40.51995,"lng":-80.03866,"zip":"15229","miles_from_dt":23.94},{"city":"Beyer","state_name":"Pennsylvania","lat":40.79436,"lng":-79.2023,"zip":"16211","miles_from_dt":24.07},{"city":"Pittsburgh","state_name":"Pennsylvania","lat":40.48541,"lng":-80.01455,"zip":"15214","miles_from_dt":24.09},{"city":"Penn","state_name":"Pennsylvania","lat":40.33363,"lng":-79.63867,"zip":"15675","miles_from_dt":24.11},{"city":"Duquesne","state_name":"Pennsylvania","lat":40.37321,"lng":-79.85024,"zip":"15110","miles_from_dt":24.15},{"city":"Warrendale","state_name":"Pennsylvania","lat":40.664,"lng":-80.09593,"zip":"15086","miles_from_dt":24.15},{"city":"Hannastown","state_name":"Pennsylvania","lat":40.34891,"lng":-79.49877,"zip":"15635","miles_from_dt":24.17},{"city":"Seminole","state_name":"Pennsylvania","lat":40.954,"lng":-79.34106,"zip":"16253","miles_from_dt":24.3},{"city":"Homestead","state_name":"Pennsylvania","lat":40.39597,"lng":-79.90689,"zip":"15120","miles_from_dt":24.38},{"city":"Westmoreland City","state_name":"Pennsylvania","lat":40.33086,"lng":-79.67861,"zip":"15692","miles_from_dt":24.4},{"city":"Pittsburgh","state_name":"Pennsylvania","lat":40.47106,"lng":-80.00844,"zip":"15212","miles_from_dt":24.41},{"city":"Warrendale","state_name":"Pennsylvania","lat":40.67161,"lng":-80.10344,"zip":"15096","miles_from_dt":24.52},{"city":"Pittsburgh","state_name":"Pennsylvania","lat":40.44998,"lng":-79.9912,"zip":"15222","miles_from_dt":24.62},{"city":"Pittsburgh","state_name":"Pennsylvania","lat":40.44304,"lng":-79.98443,"zip":"15219","miles_from_dt":24.67},{"city":"Cranberry Township","state_name":"Pennsylvania","lat":40.71114,"lng":-80.10606,"zip":"16066","miles_from_dt":24.71},{"city":"Grapeville","state_name":"Pennsylvania","lat":40.32533,"lng":-79.60596,"zip":"15634","miles_from_dt":24.73},{"city":"Ernest","state_name":"Pennsylvania","lat":40.67875,"lng":-79.16454,"zip":"15739","miles_from_dt":24.82},{"city":"Mammoth","state_name":"Pennsylvania","lat":40.32378,"lng":-79.67173,"zip":"15664","miles_from_dt":24.85},{"city":"Warrendale","state_name":"Pennsylvania","lat":40.6433,"lng":-80.10951,"zip":"15095","miles_from_dt":24.98},{"city":"Plumville","state_name":"Pennsylvania","lat":40.79167,"lng":-79.18215,"zip":"16246","miles_from_dt":25.02},{"city":"Pittsburgh","state_name":"Pennsylvania","lat":40.39813,"lng":-79.9334,"zip":"15207","miles_from_dt":25.1},{"city":"Pittsburgh","state_name":"Pennsylvania","lat":40.4421,"lng":-79.99519,"zip":"15230","miles_from_dt":25.13},{"city":"Pittsburgh","state_name":"Pennsylvania","lat":40.4257,"lng":-79.97491,"zip":"15203","miles_from_dt":25.13},{"city":"Luxor","state_name":"Pennsylvania","lat":40.33892,"lng":-79.47972,"zip":"15662","miles_from_dt":25.14},{"city":"Chambersville","state_name":"Pennsylvania","lat":40.70066,"lng":-79.1582,"zip":"15723","miles_from_dt":25.17},{"city":"Rimersburg","state_name":"Pennsylvania","lat":41.03412,"lng":-79.50348,"zip":"16248","miles_from_dt":25.22},{"city":"Pittsburgh","state_name":"Pennsylvania","lat":40.43602,"lng":-79.99042,"zip":"15282","miles_from_dt":25.23},{"city":"Pittsburgh","state_name":"Pennsylvania","lat":40.43962,"lng":-79.99517,"zip":"15262","miles_from_dt":25.25},{"city":"Pittsburgh","state_name":"Pennsylvania","lat":40.44155,"lng":-79.99779,"zip":"15257","miles_from_dt":25.26},{"city":"Pittsburgh","state_name":"Pennsylvania","lat":40.4414,"lng":-79.99816,"zip":"15259","miles_from_dt":25.28},{"city":"Pittsburgh","state_name":"Pennsylvania","lat":40.44109,"lng":-79.99828,"zip":"15254","miles_from_dt":25.3},{"city":"Pittsburgh","state_name":"Pennsylvania","lat":40.44097,"lng":-79.99827,"zip":"15252","miles_from_dt":25.31},{"city":"Pittsburgh","state_name":"Pennsylvania","lat":40.44238,"lng":-79.99994,"zip":"15265","miles_from_dt":25.31},{"city":"Pittsburgh","state_name":"Pennsylvania","lat":40.44002,"lng":-79.99865,"zip":"15281","miles_from_dt":25.37},{"city":"Irwin","state_name":"Pennsylvania","lat":40.32045,"lng":-79.72119,"zip":"15642","miles_from_dt":25.41},{"city":"Pittsburgh","state_name":"Pennsylvania","lat":40.45735,"lng":-80.01932,"zip":"15290","miles_from_dt":25.44},{"city":"Indiana","state_name":"Pennsylvania","lat":40.61588,"lng":-79.15983,"zip":"15705","miles_from_dt":25.5},{"city":"Pittsburgh","state_name":"Pennsylvania","lat":40.44185,"lng":-80.00502,"zip":"15272","miles_from_dt":25.53},{"city":"Mckeesport","state_name":"Pennsylvania","lat":40.33477,"lng":-79.80132,"zip":"15131","miles_from_dt":25.54},{"city":"Pittsburgh","state_name":"Pennsylvania","lat":40.45589,"lng":-80.02196,"zip":"15255","miles_from_dt":25.61},{"city":"Distant","state_name":"Pennsylvania","lat":40.98701,"lng":-79.35381,"zip":"16223","miles_from_dt":25.7},{"city":"Pittsburgh","state_name":"Pennsylvania","lat":40.43767,"lng":-80.00472,"zip":"15295","miles_from_dt":25.71},{"city":"Pittsburgh","state_name":"Pennsylvania","lat":40.46742,"lng":-80.03747,"zip":"15267","miles_from_dt":25.79},{"city":"Pittsburgh","state_name":"Pennsylvania","lat":40.46742,"lng":-80.03747,"zip":"15268","miles_from_dt":25.79},{"city":"Pittsburgh","state_name":"Pennsylvania","lat":40.50566,"lng":-80.06902,"zip":"15202","miles_from_dt":25.81},{"city":"Indiana","state_name":"Pennsylvania","lat":40.62935,"lng":-79.15056,"zip":"15701","miles_from_dt":25.83},{"city":"Pittsburgh","state_name":"Pennsylvania","lat":40.45873,"lng":-80.03122,"zip":"15286","miles_from_dt":25.88},{"city":"Petrolia","state_name":"Pennsylvania","lat":41.04362,"lng":-79.77379,"zip":"16050","miles_from_dt":25.9},{"city":"Pittsburgh","state_name":"Pennsylvania","lat":40.46551,"lng":-80.0383,"zip":"15279","miles_from_dt":25.91},{"city":"Pittsburgh","state_name":"Pennsylvania","lat":40.45985,"lng":-80.03387,"zip":"15233","miles_from_dt":25.95},{"city":"Adamsburg","state_name":"Pennsylvania","lat":40.30656,"lng":-79.65266,"zip":"15611","miles_from_dt":25.99},{"city":"West Sunbury","state_name":"Pennsylvania","lat":41.00866,"lng":-79.88687,"zip":"16061","miles_from_dt":26.01},{"city":"Greensburg","state_name":"Pennsylvania","lat":40.31397,"lng":-79.53643,"zip":"15601","miles_from_dt":26.01},{"city":"Mckeesport","state_name":"Pennsylvania","lat":40.33982,"lng":-79.84299,"zip":"15132","miles_from_dt":26.05},{"city":"Bovard","state_name":"Pennsylvania","lat":40.32051,"lng":-79.49719,"zip":"15619","miles_from_dt":26.07},{"city":"Mckeesport","state_name":"Pennsylvania","lat":40.34719,"lng":-79.86423,"zip":"15134","miles_from_dt":26.08},{"city":"Pittsburgh","state_name":"Pennsylvania","lat":40.51194,"lng":-80.07968,"zip":"15278","miles_from_dt":26.11},{"city":"Bruin","state_name":"Pennsylvania","lat":41.05461,"lng":-79.7333,"zip":"16022","miles_from_dt":26.13},{"city":"Blairsville","state_name":"Pennsylvania","lat":40.45354,"lng":-79.23896,"zip":"15717","miles_from_dt":26.25},{"city":"Zelienople","state_name":"Pennsylvania","lat":40.76352,"lng":-80.12773,"zip":"16063","miles_from_dt":26.36},{"city":"Pittsburgh","state_name":"Pennsylvania","lat":40.40679,"lng":-79.98411,"zip":"15210","miles_from_dt":26.4},{"city":"Home","state_name":"Pennsylvania","lat":40.76533,"lng":-79.14562,"zip":"15747","miles_from_dt":26.41},{"city":"West Mifflin","state_name":"Pennsylvania","lat":40.35976,"lng":-79.90628,"zip":"15122","miles_from_dt":26.43},{"city":"Pittsburgh","state_name":"Pennsylvania","lat":40.4302,"lng":-80.01533,"zip":"15211","miles_from_dt":26.47},{"city":"Dravosburg","state_name":"Pennsylvania","lat":40.35083,"lng":-79.89067,"zip":"15034","miles_from_dt":26.53},{"city":"New Bethlehem","state_name":"Pennsylvania","lat":41.0031,"lng":-79.35479,"zip":"16242","miles_from_dt":26.58},{"city":"Wendel","state_name":"Pennsylvania","lat":40.29668,"lng":-79.68411,"zip":"15691","miles_from_dt":26.77},{"city":"Greensburg","state_name":"Pennsylvania","lat":40.30169,"lng":-79.53809,"zip":"15606","miles_from_dt":26.82},{"city":"Greenock","state_name":"Pennsylvania","lat":40.3123,"lng":-79.79513,"zip":"15047","miles_from_dt":26.9},{"city":"North Washington","state_name":"Pennsylvania","lat":41.05217,"lng":-79.80349,"zip":"16048","miles_from_dt":26.93},{"city":"Lucernemines","state_name":"Pennsylvania","lat":40.55667,"lng":-79.15152,"zip":"15754","miles_from_dt":26.97},{"city":"Prospect","state_name":"Pennsylvania","lat":40.90579,"lng":-80.06154,"zip":"16052","miles_from_dt":27.06},{"city":"Coral","state_name":"Pennsylvania","lat":40.50383,"lng":-79.1767,"zip":"15731","miles_from_dt":27.18},{"city":"Pittsburgh","state_name":"Pennsylvania","lat":40.45597,"lng":-80.06051,"zip":"15204","miles_from_dt":27.24},{"city":"Mckeesport","state_name":"Pennsylvania","lat":40.3257,"lng":-79.86127,"zip":"15133","miles_from_dt":27.34},{"city":"Pittsburgh","state_name":"Pennsylvania","lat":40.375,"lng":-79.97077,"zip":"15227","miles_from_dt":27.58},{"city":"Josephine","state_name":"Pennsylvania","lat":40.48377,"lng":-79.18256,"zip":"15750","miles_from_dt":27.58},{"city":"Coulters","state_name":"Pennsylvania","lat":40.30194,"lng":-79.79891,"zip":"15028","miles_from_dt":27.64},{"city":"Black Lick","state_name":"Pennsylvania","lat":40.47025,"lng":-79.19031,"zip":"15716","miles_from_dt":27.71},{"city":"Pittsburgh","state_name":"Pennsylvania","lat":40.50636,"lng":-80.1116,"zip":"15225","miles_from_dt":27.78},{"city":"New Derry","state_name":"Pennsylvania","lat":40.36038,"lng":-79.32146,"zip":"15671","miles_from_dt":27.78},{"city":"Sewickley","state_name":"Pennsylvania","lat":40.57298,"lng":-80.14725,"zip":"15143","miles_from_dt":27.88},{"city":"Rillton","state_name":"Pennsylvania","lat":40.28447,"lng":-79.72579,"zip":"15678","miles_from_dt":27.89},{"city":"Glassport","state_name":"Pennsylvania","lat":40.32613,"lng":-79.88614,"zip":"15045","miles_from_dt":27.9},{"city":"West Mifflin","state_name":"Pennsylvania","lat":40.34817,"lng":-79.93471,"zip":"15123","miles_from_dt":27.92},{"city":"Mckeesport","state_name":"Pennsylvania","lat":40.29959,"lng":-79.81153,"zip":"15135","miles_from_dt":28.01},{"city":"Pittsburgh","state_name":"Pennsylvania","lat":40.39527,"lng":-80.01374,"zip":"15226","miles_from_dt":28.06},{"city":"Pittsburgh","state_name":"Pennsylvania","lat":40.42209,"lng":-80.04637,"zip":"15283","miles_from_dt":28.08},{"city":"Harmony","state_name":"Pennsylvania","lat":40.85103,"lng":-80.12592,"zip":"16037","miles_from_dt":28.15},{"city":"Pittsburgh","state_name":"Pennsylvania","lat":40.42,"lng":-80.05002,"zip":"15244","miles_from_dt":28.32},{"city":"Pittsburgh","state_name":"Pennsylvania","lat":40.42,"lng":-80.05002,"zip":"15242","miles_from_dt":28.32},{"city":"Pittsburgh","state_name":"Pennsylvania","lat":40.41875,"lng":-80.04894,"zip":"15220","miles_from_dt":28.33},{"city":"Oak Ridge","state_name":"Pennsylvania","lat":41.00153,"lng":-79.29311,"zip":"16245","miles_from_dt":28.42},{"city":"Baden","state_name":"Pennsylvania","lat":40.64431,"lng":-80.17607,"zip":"15005","miles_from_dt":28.45},{"city":"Pittsburgh","state_name":"Pennsylvania","lat":40.40395,"lng":-80.03485,"zip":"15270","miles_from_dt":28.45},{"city":"Pittsburgh","state_name":"Pennsylvania","lat":40.40268,"lng":-80.0348,"zip":"15216","miles_from_dt":28.51},{"city":"Darragh","state_name":"Pennsylvania","lat":40.27048,"lng":-79.67925,"zip":"15625","miles_from_dt":28.55},{"city":"Parker","state_name":"Pennsylvania","lat":41.09622,"lng":-79.67258,"zip":"16049","miles_from_dt":28.57},{"city":"McKees Rocks","state_name":"Pennsylvania","lat":40.46872,"lng":-80.10233,"zip":"15136","miles_from_dt":28.6},{"city":"Arona","state_name":"Pennsylvania","lat":40.26856,"lng":-79.65805,"zip":"15617","miles_from_dt":28.62},{"city":"Derry","state_name":"Pennsylvania","lat":40.35064,"lng":-79.30667,"zip":"15627","miles_from_dt":28.78},{"city":"Loyalhanna","state_name":"Pennsylvania","lat":40.32192,"lng":-79.36007,"zip":"15661","miles_from_dt":28.87},{"city":"Smicksburg","state_name":"Pennsylvania","lat":40.8661,"lng":-79.13611,"zip":"16256","miles_from_dt":29.15},{"city":"Pittsburgh","state_name":"Pennsylvania","lat":40.34756,"lng":-79.97652,"zip":"15236","miles_from_dt":29.25},{"city":"Herminie","state_name":"Pennsylvania","lat":40.26125,"lng":-79.71203,"zip":"15637","miles_from_dt":29.37},{"city":"Bradenville","state_name":"Pennsylvania","lat":40.32336,"lng":-79.33882,"zip":"15620","miles_from_dt":29.37},{"city":"Pittsburgh","state_name":"Pennsylvania","lat":40.43803,"lng":-80.09376,"zip":"15276","miles_from_dt":29.39},{"city":"Pittsburgh","state_name":"Pennsylvania","lat":40.44139,"lng":-80.0978,"zip":"15277","miles_from_dt":29.43},{"city":"Torrance","state_name":"Pennsylvania","lat":40.40008,"lng":-79.21846,"zip":"15779","miles_from_dt":29.44},{"city":"Pittsburgh","state_name":"Pennsylvania","lat":40.36808,"lng":-80.01782,"zip":"15234","miles_from_dt":29.57},{"city":"Buena Vista","state_name":"Pennsylvania","lat":40.26924,"lng":-79.79805,"zip":"15018","miles_from_dt":29.78},{"city":"Freedom","state_name":"Pennsylvania","lat":40.68786,"lng":-80.20411,"zip":"15042","miles_from_dt":29.79},{"city":"Madison","state_name":"Pennsylvania","lat":40.25233,"lng":-79.67958,"zip":"15663","miles_from_dt":29.8},{"city":"Pittsburgh","state_name":"Pennsylvania","lat":40.4381,"lng":-80.10552,"zip":"15205","miles_from_dt":29.89},{"city":"Hawthorn","state_name":"Pennsylvania","lat":41.02099,"lng":-79.27817,"zip":"16230","miles_from_dt":29.96}],"targetCityZipCode":"15682","targetCityState":"Pennsylvania"},"__N_SSG":true}