{"pageProps":{"stateName":"Pennsylvania","cityName":"sheakleyville","nearbyCities":[{"city":"Hadley","state_name":"Pennsylvania","lat":41.44315,"lng":-80.21668,"zip":"16130","miles_from_dt":0.58},{"city":"Clarks Mills","state_name":"Pennsylvania","lat":41.40432,"lng":-80.18766,"zip":"16114","miles_from_dt":2.81},{"city":"Atlantic","state_name":"Pennsylvania","lat":41.51936,"lng":-80.28463,"zip":"16111","miles_from_dt":6.69},{"city":"Sandy Lake","state_name":"Pennsylvania","lat":41.38574,"lng":-80.07422,"zip":"16145","miles_from_dt":7.88},{"city":"Fredonia","state_name":"Pennsylvania","lat":41.33336,"lng":-80.26486,"zip":"16124","miles_from_dt":8.16},{"city":"Cochranton","state_name":"Pennsylvania","lat":41.51895,"lng":-80.06782,"zip":"16314","miles_from_dt":8.87},{"city":"Carlton","state_name":"Pennsylvania","lat":41.45706,"lng":-80.03477,"zip":"16311","miles_from_dt":8.92},{"city":"Greenville","state_name":"Pennsylvania","lat":41.40565,"lng":-80.37135,"zip":"16125","miles_from_dt":8.98},{"city":"Adamsville","state_name":"Pennsylvania","lat":41.49757,"lng":-80.38591,"zip":"16110","miles_from_dt":10.09},{"city":"Stoneboro","state_name":"Pennsylvania","lat":41.31845,"lng":-80.08122,"zip":"16153","miles_from_dt":10.74},{"city":"Hartstown","state_name":"Pennsylvania","lat":41.54908,"lng":-80.37617,"zip":"16131","miles_from_dt":11.49},{"city":"Conneaut Lake","state_name":"Pennsylvania","lat":41.6012,"lng":-80.29958,"zip":"16316","miles_from_dt":11.97},{"city":"Utica","state_name":"Pennsylvania","lat":41.45032,"lng":-79.96284,"zip":"16362","miles_from_dt":12.62},{"city":"Jackson Center","state_name":"Pennsylvania","lat":41.27101,"lng":-80.11562,"zip":"16133","miles_from_dt":12.75},{"city":"Meadville","state_name":"Pennsylvania","lat":41.63143,"lng":-80.15378,"zip":"16335","miles_from_dt":13.29},{"city":"Transfer","state_name":"Pennsylvania","lat":41.32539,"lng":-80.42111,"zip":"16154","miles_from_dt":13.82},{"city":"Jamestown","state_name":"Pennsylvania","lat":41.50315,"lng":-80.46571,"zip":"16134","miles_from_dt":14.13},{"city":"Meadville","state_name":"Pennsylvania","lat":41.64896,"lng":-80.14727,"zip":"16388","miles_from_dt":14.55},{"city":"Mercer","state_name":"Pennsylvania","lat":41.23219,"lng":-80.2397,"zip":"16137","miles_from_dt":14.64},{"city":"Clark","state_name":"Pennsylvania","lat":41.2828,"lng":-80.42569,"zip":"16113","miles_from_dt":15.9},{"city":"Harmonsburg","state_name":"Pennsylvania","lat":41.66555,"lng":-80.31447,"zip":"16422","miles_from_dt":16.38},{"city":"Sharpsville","state_name":"Pennsylvania","lat":41.28687,"lng":-80.44509,"zip":"16150","miles_from_dt":16.46},{"city":"Polk","state_name":"Pennsylvania","lat":41.31995,"lng":-79.9294,"zip":"16342","miles_from_dt":16.67},{"city":"Orangeville","state_name":"Ohio","lat":41.33602,"lng":-80.52628,"zip":"44453","miles_from_dt":18.22},{"city":"Guys Mills","state_name":"Pennsylvania","lat":41.6323,"lng":-79.95878,"zip":"16327","miles_from_dt":18.3},{"city":"Hermitage","state_name":"Pennsylvania","lat":41.23147,"lng":-80.43199,"zip":"16148","miles_from_dt":18.74},{"city":"Linesville","state_name":"Pennsylvania","lat":41.65887,"lng":-80.44175,"zip":"16424","miles_from_dt":19.29},{"city":"Cooperstown","state_name":"Pennsylvania","lat":41.53232,"lng":-79.85258,"zip":"16317","miles_from_dt":19.33},{"city":"Kinsman","state_name":"Ohio","lat":41.43458,"lng":-80.5779,"zip":"44428","miles_from_dt":19.34},{"city":"Burghill","state_name":"Ohio","lat":41.3277,"lng":-80.54861,"zip":"44404","miles_from_dt":19.52},{"city":"Franklin","state_name":"Pennsylvania","lat":41.41286,"lng":-79.83047,"zip":"16323","miles_from_dt":19.59},{"city":"Grove City","state_name":"Pennsylvania","lat":41.17433,"lng":-80.07002,"zip":"16127","miles_from_dt":19.82},{"city":"Saegertown","state_name":"Pennsylvania","lat":41.73553,"lng":-80.14316,"zip":"16433","miles_from_dt":20.46},{"city":"Sharon","state_name":"Pennsylvania","lat":41.23478,"lng":-80.49932,"zip":"16146","miles_from_dt":20.96},{"city":"Hartford","state_name":"Ohio","lat":41.32201,"lng":-80.58326,"zip":"44424","miles_from_dt":21.33},{"city":"Masury","state_name":"Ohio","lat":41.24252,"lng":-80.5345,"zip":"44438","miles_from_dt":21.99},{"city":"Farrell","state_name":"Pennsylvania","lat":41.21121,"lng":-80.49696,"zip":"16121","miles_from_dt":22.03},{"city":"New Wilmington","state_name":"Pennsylvania","lat":41.13908,"lng":-80.34084,"zip":"16142","miles_from_dt":22.11},{"city":"Williamsfield","state_name":"Ohio","lat":41.53478,"lng":-80.61637,"zip":"44093","miles_from_dt":22.24},{"city":"Wheatland","state_name":"Pennsylvania","lat":41.20232,"lng":-80.49282,"zip":"16161","miles_from_dt":22.33},{"city":"Conneautville","state_name":"Pennsylvania","lat":41.75047,"lng":-80.36273,"zip":"16406","miles_from_dt":22.74},{"city":"Fowler","state_name":"Ohio","lat":41.30692,"lng":-80.60465,"zip":"44418","miles_from_dt":22.76},{"city":"Andover","state_name":"Ohio","lat":41.6202,"lng":-80.58361,"zip":"44003","miles_from_dt":23.11},{"city":"Townville","state_name":"Pennsylvania","lat":41.68167,"lng":-79.89028,"zip":"16360","miles_from_dt":23.21},{"city":"New Wilmington","state_name":"Pennsylvania","lat":41.1177,"lng":-80.33105,"zip":"16172","miles_from_dt":23.37},{"city":"Reno","state_name":"Pennsylvania","lat":41.42204,"lng":-79.75233,"zip":"16343","miles_from_dt":23.58},{"city":"Harrisville","state_name":"Pennsylvania","lat":41.15967,"lng":-79.95042,"zip":"16038","miles_from_dt":23.62},{"city":"Farmdale","state_name":"Ohio","lat":41.43336,"lng":-80.66329,"zip":"44417","miles_from_dt":23.78},{"city":"West Middlesex","state_name":"Pennsylvania","lat":41.15967,"lng":-80.46858,"zip":"16159","miles_from_dt":23.85},{"city":"Volant","state_name":"Pennsylvania","lat":41.09702,"lng":-80.21943,"zip":"16156","miles_from_dt":23.87},{"city":"Clintonville","state_name":"Pennsylvania","lat":41.20121,"lng":-79.87406,"zip":"16372","miles_from_dt":23.99},{"city":"Venango","state_name":"Pennsylvania","lat":41.78673,"lng":-80.13088,"zip":"16440","miles_from_dt":24.05},{"city":"Kennerdell","state_name":"Pennsylvania","lat":41.26136,"lng":-79.81066,"zip":"16374","miles_from_dt":24.05},{"city":"Brookfield","state_name":"Ohio","lat":41.24053,"lng":-80.58265,"zip":"44403","miles_from_dt":24.07},{"city":"Forestville","state_name":"Pennsylvania","lat":41.10779,"lng":-80.01659,"zip":"16035","miles_from_dt":25.13},{"city":"Cambridge Springs","state_name":"Pennsylvania","lat":41.7912,"lng":-80.02017,"zip":"16403","miles_from_dt":25.89},{"city":"Pulaski","state_name":"Pennsylvania","lat":41.10528,"lng":-80.45434,"zip":"16143","miles_from_dt":26.65},{"city":"Hubbard","state_name":"Ohio","lat":41.17022,"lng":-80.57395,"zip":"44425","miles_from_dt":26.86},{"city":"Rouseville","state_name":"Pennsylvania","lat":41.47045,"lng":-79.684,"zip":"16344","miles_from_dt":27.15},{"city":"Vienna","state_name":"Ohio","lat":41.24684,"lng":-80.66326,"zip":"44473","miles_from_dt":27.37},{"city":"Springboro","state_name":"Pennsylvania","lat":41.81937,"lng":-80.38356,"zip":"16435","miles_from_dt":27.57},{"city":"Boyers","state_name":"Pennsylvania","lat":41.11651,"lng":-79.89648,"zip":"16020","miles_from_dt":27.68},{"city":"New Castle","state_name":"Pennsylvania","lat":41.05285,"lng":-80.33918,"zip":"16105","miles_from_dt":27.79},{"city":"Cortland","state_name":"Ohio","lat":41.34817,"lng":-80.72629,"zip":"44410","miles_from_dt":27.83},{"city":"Seneca","state_name":"Pennsylvania","lat":41.37845,"lng":-79.6727,"zip":"16346","miles_from_dt":28.04},{"city":"Branchton","state_name":"Pennsylvania","lat":41.07019,"lng":-79.98605,"zip":"16021","miles_from_dt":28.14},{"city":"Boyers","state_name":"Pennsylvania","lat":41.10648,"lng":-79.89705,"zip":"16016","miles_from_dt":28.23},{"city":"Titusville","state_name":"Pennsylvania","lat":41.61476,"lng":-79.70637,"zip":"16354","miles_from_dt":28.48},{"city":"Dorset","state_name":"Ohio","lat":41.6658,"lng":-80.66954,"zip":"44032","miles_from_dt":28.55},{"city":"Hydetown","state_name":"Pennsylvania","lat":41.651,"lng":-79.72716,"zip":"16328","miles_from_dt":28.67},{"city":"Pierpont","state_name":"Ohio","lat":41.76012,"lng":-80.56558,"zip":"44082","miles_from_dt":28.76},{"city":"Boyers","state_name":"Pennsylvania","lat":41.09144,"lng":-79.90777,"zip":"16017","miles_from_dt":28.78},{"city":"New Bedford","state_name":"Pennsylvania","lat":41.09355,"lng":-80.51078,"zip":"16140","miles_from_dt":28.87},{"city":"Oil City","state_name":"Pennsylvania","lat":41.45596,"lng":-79.64946,"zip":"16301","miles_from_dt":28.89},{"city":"Centerville","state_name":"Pennsylvania","lat":41.72483,"lng":-79.79018,"zip":"16404","miles_from_dt":29.02},{"city":"Slippery Rock","state_name":"Pennsylvania","lat":41.03427,"lng":-80.0579,"zip":"16057","miles_from_dt":29.22},{"city":"Boyers","state_name":"Pennsylvania","lat":41.08995,"lng":-79.89008,"zip":"16018","miles_from_dt":29.37},{"city":"Edinboro","state_name":"Pennsylvania","lat":41.87071,"lng":-80.12175,"zip":"16444","miles_from_dt":29.85}],"targetCityZipCode":"16151","targetCityState":"Pennsylvania"},"__N_SSG":true}