{"pageProps":{"stateName":"Pennsylvania","cityName":"south-gibson","nearbyCities":[{"city":"Gibson","state_name":"Pennsylvania","lat":41.7779,"lng":-75.65029,"zip":"18820","miles_from_dt":2.31},{"city":"Harford","state_name":"Pennsylvania","lat":41.77415,"lng":-75.69168,"zip":"18823","miles_from_dt":4.08},{"city":"Union Dale","state_name":"Pennsylvania","lat":41.732,"lng":-75.53502,"zip":"18470","miles_from_dt":4.52},{"city":"Jackson","state_name":"Pennsylvania","lat":41.82276,"lng":-75.599,"zip":"18825","miles_from_dt":4.7},{"city":"Kingsley","state_name":"Pennsylvania","lat":41.7495,"lng":-75.74276,"zip":"18826","miles_from_dt":6.54},{"city":"Lenoxville","state_name":"Pennsylvania","lat":41.65833,"lng":-75.62565,"zip":"18441","miles_from_dt":6.75},{"city":"Herrick Center","state_name":"Pennsylvania","lat":41.7428,"lng":-75.47779,"zip":"18430","miles_from_dt":7.23},{"city":"Thompson","state_name":"Pennsylvania","lat":41.83654,"lng":-75.51811,"zip":"18465","miles_from_dt":7.53},{"city":"New Milford","state_name":"Pennsylvania","lat":41.84185,"lng":-75.71189,"zip":"18834","miles_from_dt":7.71},{"city":"Clifford","state_name":"Pennsylvania","lat":41.64767,"lng":-75.53258,"zip":"18413","miles_from_dt":8.64},{"city":"Hop Bottom","state_name":"Pennsylvania","lat":41.70422,"lng":-75.786,"zip":"18824","miles_from_dt":9.46},{"city":"Orson","state_name":"Pennsylvania","lat":41.81459,"lng":-75.44997,"zip":"18449","miles_from_dt":9.51},{"city":"Brooklyn","state_name":"Pennsylvania","lat":41.75061,"lng":-75.80696,"zip":"18813","miles_from_dt":9.85},{"city":"Forest City","state_name":"Pennsylvania","lat":41.66337,"lng":-75.4691,"zip":"18421","miles_from_dt":9.95},{"city":"Nicholson","state_name":"Pennsylvania","lat":41.64513,"lng":-75.76044,"zip":"18446","miles_from_dt":10.67},{"city":"Poyntelle","state_name":"Pennsylvania","lat":41.81963,"lng":-75.42731,"zip":"18454","miles_from_dt":10.72},{"city":"Fleetville","state_name":"Pennsylvania","lat":41.60333,"lng":-75.70589,"zip":"18420","miles_from_dt":11.5},{"city":"Carbondale","state_name":"Pennsylvania","lat":41.59971,"lng":-75.53026,"zip":"18407","miles_from_dt":11.67},{"city":"Susquehanna","state_name":"Pennsylvania","lat":41.93539,"lng":-75.56893,"zip":"18847","miles_from_dt":12.63},{"city":"Jermyn","state_name":"Pennsylvania","lat":41.57107,"lng":-75.58452,"zip":"18433","miles_from_dt":12.87},{"city":"Pleasant Mount","state_name":"Pennsylvania","lat":41.74971,"lng":-75.361,"zip":"18453","miles_from_dt":13.21},{"city":"Lanesboro","state_name":"Pennsylvania","lat":41.95642,"lng":-75.58703,"zip":"18827","miles_from_dt":13.92},{"city":"Starrucca","state_name":"Pennsylvania","lat":41.9049,"lng":-75.42988,"zip":"18462","miles_from_dt":14.09},{"city":"South Montrose","state_name":"Pennsylvania","lat":41.80446,"lng":-75.89416,"zip":"18843","miles_from_dt":14.73},{"city":"Lakewood","state_name":"Pennsylvania","lat":41.82674,"lng":-75.34735,"zip":"18439","miles_from_dt":14.74},{"city":"Dimock","state_name":"Pennsylvania","lat":41.73977,"lng":-75.90966,"zip":"18816","miles_from_dt":15.19},{"city":"Factoryville","state_name":"Pennsylvania","lat":41.57858,"lng":-75.7994,"zip":"18419","miles_from_dt":15.47},{"city":"La Plume","state_name":"Pennsylvania","lat":41.55931,"lng":-75.76505,"zip":"18440","miles_from_dt":15.6},{"city":"Springville","state_name":"Pennsylvania","lat":41.69247,"lng":-75.91351,"zip":"18844","miles_from_dt":15.97},{"city":"Preston Park","state_name":"Pennsylvania","lat":41.88467,"lng":-75.35541,"zip":"18455","miles_from_dt":16.14},{"city":"Waymart","state_name":"Pennsylvania","lat":41.58738,"lng":-75.40002,"zip":"18472","miles_from_dt":16.15},{"city":"Waverly","state_name":"Pennsylvania","lat":41.5291,"lng":-75.69807,"zip":"18471","miles_from_dt":16.21},{"city":"Hallstead","state_name":"Pennsylvania","lat":41.9482,"lng":-75.80116,"zip":"18822","miles_from_dt":16.34},{"city":"Dalton","state_name":"Pennsylvania","lat":41.53893,"lng":-75.7427,"zip":"18414","miles_from_dt":16.34},{"city":"Olyphant","state_name":"Pennsylvania","lat":41.5132,"lng":-75.61684,"zip":"18447","miles_from_dt":16.75},{"city":"Great Bend","state_name":"Pennsylvania","lat":41.98588,"lng":-75.73466,"zip":"18821","miles_from_dt":17},{"city":"Prompton","state_name":"Pennsylvania","lat":41.61843,"lng":-75.3404,"zip":"18456","miles_from_dt":17.15},{"city":"Montrose","state_name":"Pennsylvania","lat":41.82861,"lng":-75.9437,"zip":"18801","miles_from_dt":17.63},{"city":"Archbald","state_name":"Pennsylvania","lat":41.50495,"lng":-75.53529,"zip":"18403","miles_from_dt":17.82},{"city":"Lake Como","state_name":"Pennsylvania","lat":41.86859,"lng":-75.30345,"zip":"18437","miles_from_dt":17.94},{"city":"Peckville","state_name":"Pennsylvania","lat":41.48387,"lng":-75.58951,"zip":"18452","miles_from_dt":18.83},{"city":"Starlight","state_name":"Pennsylvania","lat":41.92774,"lng":-75.32434,"zip":"18461","miles_from_dt":19.18},{"city":"Chinchilla","state_name":"Pennsylvania","lat":41.48207,"lng":-75.68976,"zip":"18410","miles_from_dt":19.28},{"city":"Corbettsville","state_name":"New York","lat":42.01887,"lng":-75.79096,"zip":"13749","miles_from_dt":20.25},{"city":"Scranton","state_name":"Pennsylvania","lat":41.46207,"lng":-75.63062,"zip":"18519","miles_from_dt":20.29},{"city":"South Canaan","state_name":"Pennsylvania","lat":41.50476,"lng":-75.41241,"zip":"18459","miles_from_dt":20.3},{"city":"Lake Winola","state_name":"Pennsylvania","lat":41.51311,"lng":-75.85027,"zip":"18625","miles_from_dt":20.67},{"city":"Jessup","state_name":"Pennsylvania","lat":41.46014,"lng":-75.54823,"zip":"18434","miles_from_dt":20.72},{"city":"Honesdale","state_name":"Pennsylvania","lat":41.62214,"lng":-75.25531,"zip":"18431","miles_from_dt":20.84},{"city":"Scranton","state_name":"Pennsylvania","lat":41.45503,"lng":-75.65827,"zip":"18508","miles_from_dt":20.88},{"city":"Olyphant","state_name":"Pennsylvania","lat":41.45199,"lng":-75.58021,"zip":"18448","miles_from_dt":21.06},{"city":"Windsor","state_name":"New York","lat":42.06282,"lng":-75.62879,"zip":"13865","miles_from_dt":21.19},{"city":"Scranton","state_name":"Pennsylvania","lat":41.44954,"lng":-75.66412,"zip":"18515","miles_from_dt":21.29},{"city":"Clarks Summit","state_name":"Pennsylvania","lat":41.45655,"lng":-75.74295,"zip":"18411","miles_from_dt":21.67},{"city":"Equinunk","state_name":"Pennsylvania","lat":41.80705,"lng":-75.20122,"zip":"18417","miles_from_dt":21.74},{"city":"Conklin","state_name":"New York","lat":42.03428,"lng":-75.81727,"zip":"13748","miles_from_dt":21.82},{"city":"Meshoppen","state_name":"Pennsylvania","lat":41.66361,"lng":-76.02698,"zip":"18630","miles_from_dt":22.16},{"city":"Kirkwood","state_name":"New York","lat":42.05844,"lng":-75.77419,"zip":"13795","miles_from_dt":22.4},{"city":"Scranton","state_name":"Pennsylvania","lat":41.43062,"lng":-75.64321,"zip":"18509","miles_from_dt":22.49},{"city":"Scranton","state_name":"Pennsylvania","lat":41.42648,"lng":-75.5912,"zip":"18512","miles_from_dt":22.77},{"city":"Scranton","state_name":"Pennsylvania","lat":41.42109,"lng":-75.60282,"zip":"18577","miles_from_dt":23.12},{"city":"Scranton","state_name":"Pennsylvania","lat":41.42375,"lng":-75.70581,"zip":"18504","miles_from_dt":23.39},{"city":"Brackney","state_name":"Pennsylvania","lat":41.97203,"lng":-75.96822,"zip":"18812","miles_from_dt":23.49},{"city":"Tunkhannock","state_name":"Pennsylvania","lat":41.52712,"lng":-75.95601,"zip":"18657","miles_from_dt":23.63},{"city":"Falls","state_name":"Pennsylvania","lat":41.45968,"lng":-75.85752,"zip":"18615","miles_from_dt":23.96},{"city":"Scranton","state_name":"Pennsylvania","lat":41.41007,"lng":-75.66767,"zip":"18503","miles_from_dt":24.02},{"city":"Scranton","state_name":"Pennsylvania","lat":41.40735,"lng":-75.64376,"zip":"18510","miles_from_dt":24.1},{"city":"Ouaquaga","state_name":"New York","lat":42.10517,"lng":-75.63701,"zip":"13826","miles_from_dt":24.13},{"city":"Hancock","state_name":"New York","lat":41.99037,"lng":-75.26764,"zip":"13783","miles_from_dt":24.2},{"city":"Tyler Hill","state_name":"Pennsylvania","lat":41.70352,"lng":-75.14597,"zip":"18469","miles_from_dt":24.59},{"city":"Lake Ariel","state_name":"Pennsylvania","lat":41.43867,"lng":-75.3959,"zip":"18436","miles_from_dt":24.7},{"city":"Binghamton","state_name":"New York","lat":42.04749,"lng":-75.89573,"zip":"13903","miles_from_dt":24.74},{"city":"Friendsville","state_name":"Pennsylvania","lat":41.91343,"lng":-76.04843,"zip":"18818","miles_from_dt":24.8},{"city":"Deposit","state_name":"New York","lat":42.09387,"lng":-75.43625,"zip":"13754","miles_from_dt":25.11},{"city":"Scranton","state_name":"Pennsylvania","lat":41.38874,"lng":-75.65109,"zip":"18505","miles_from_dt":25.4},{"city":"Taylor","state_name":"Pennsylvania","lat":41.39524,"lng":-75.71461,"zip":"18517","miles_from_dt":25.41},{"city":"Lawton","state_name":"Pennsylvania","lat":41.79672,"lng":-76.11245,"zip":"18828","miles_from_dt":25.77},{"city":"Damascus","state_name":"Pennsylvania","lat":41.74821,"lng":-75.11315,"zip":"18415","miles_from_dt":26.02},{"city":"White Mills","state_name":"Pennsylvania","lat":41.52828,"lng":-75.20821,"zip":"18473","miles_from_dt":26.34},{"city":"Scranton","state_name":"Pennsylvania","lat":41.37228,"lng":-75.6578,"zip":"18540","miles_from_dt":26.56},{"city":"Elmhurst","state_name":"Pennsylvania","lat":41.37341,"lng":-75.54863,"zip":"18416","miles_from_dt":26.63},{"city":"Scranton","state_name":"Pennsylvania","lat":41.36996,"lng":-75.68022,"zip":"18502","miles_from_dt":26.84},{"city":"Scranton","state_name":"Pennsylvania","lat":41.37,"lng":-75.68003,"zip":"18501","miles_from_dt":26.84},{"city":"Fishs Eddy","state_name":"New York","lat":41.96192,"lng":-75.17283,"zip":"13774","miles_from_dt":26.95},{"city":"Milanville","state_name":"Pennsylvania","lat":41.66262,"lng":-75.11059,"zip":"18443","miles_from_dt":26.95},{"city":"Old Forge","state_name":"Pennsylvania","lat":41.37495,"lng":-75.73963,"zip":"18518","miles_from_dt":27.06},{"city":"Ransom","state_name":"Pennsylvania","lat":41.39399,"lng":-75.82461,"zip":"18653","miles_from_dt":27.21},{"city":"Binghamton","state_name":"New York","lat":42.13072,"lng":-75.81587,"zip":"13904","miles_from_dt":27.83},{"city":"Moosic","state_name":"Pennsylvania","lat":41.35541,"lng":-75.68016,"zip":"18507","miles_from_dt":27.84},{"city":"Laceyville","state_name":"Pennsylvania","lat":41.67297,"lng":-76.14768,"zip":"18623","miles_from_dt":28.06},{"city":"Long Eddy","state_name":"New York","lat":41.90063,"lng":-75.10559,"zip":"12760","miles_from_dt":28.2},{"city":"Hamlin","state_name":"Pennsylvania","lat":41.39751,"lng":-75.35019,"zip":"18427","miles_from_dt":28.33},{"city":"Vestal","state_name":"New York","lat":42.03593,"lng":-76.01958,"zip":"13851","miles_from_dt":28.38},{"city":"Hankins","state_name":"New York","lat":41.84368,"lng":-75.07816,"zip":"12741","miles_from_dt":28.45},{"city":"Nineveh","state_name":"New York","lat":42.16808,"lng":-75.54266,"zip":"13813","miles_from_dt":28.7},{"city":"Little Meadows","state_name":"Pennsylvania","lat":41.95049,"lng":-76.10904,"zip":"18830","miles_from_dt":28.74},{"city":"Duryea","state_name":"Pennsylvania","lat":41.35359,"lng":-75.77681,"zip":"18642","miles_from_dt":28.98},{"city":"Moscow","state_name":"Pennsylvania","lat":41.33912,"lng":-75.54667,"zip":"18444","miles_from_dt":28.99},{"city":"Beach Lake","state_name":"Pennsylvania","lat":41.59792,"lng":-75.09509,"zip":"18405","miles_from_dt":29.1},{"city":"Le Raysville","state_name":"Pennsylvania","lat":41.8395,"lng":-76.17088,"zip":"18829","miles_from_dt":29.2},{"city":"Vestal","state_name":"New York","lat":42.04873,"lng":-76.02663,"zip":"13850","miles_from_dt":29.25},{"city":"Pittston","state_name":"Pennsylvania","lat":41.36456,"lng":-75.8344,"zip":"18643","miles_from_dt":29.28},{"city":"Binghamton","state_name":"New York","lat":42.08895,"lng":-75.96891,"zip":"13902","miles_from_dt":29.29},{"city":"Lakeville","state_name":"Pennsylvania","lat":41.43591,"lng":-75.24499,"zip":"18438","miles_from_dt":29.3},{"city":"Stevensville","state_name":"Pennsylvania","lat":41.78994,"lng":-76.18454,"zip":"18845","miles_from_dt":29.44},{"city":"Pittston","state_name":"Pennsylvania","lat":41.33644,"lng":-75.73007,"zip":"18641","miles_from_dt":29.54}],"targetCityZipCode":"18842","targetCityState":"Pennsylvania"},"__N_SSG":true}