{"pageProps":{"stateName":"Pennsylvania","cityName":"south-canaan","nearbyCities":[{"city":"Lake Ariel","state_name":"Pennsylvania","lat":41.43867,"lng":-75.3959,"zip":"18436","miles_from_dt":4.64},{"city":"Waymart","state_name":"Pennsylvania","lat":41.58738,"lng":-75.40002,"zip":"18472","miles_from_dt":5.74},{"city":"Archbald","state_name":"Pennsylvania","lat":41.50495,"lng":-75.53529,"zip":"18403","miles_from_dt":6.37},{"city":"Jessup","state_name":"Pennsylvania","lat":41.46014,"lng":-75.54823,"zip":"18434","miles_from_dt":7.69},{"city":"Hamlin","state_name":"Pennsylvania","lat":41.39751,"lng":-75.35019,"zip":"18427","miles_from_dt":8.08},{"city":"Prompton","state_name":"Pennsylvania","lat":41.61843,"lng":-75.3404,"zip":"18456","miles_from_dt":8.69},{"city":"Carbondale","state_name":"Pennsylvania","lat":41.59971,"lng":-75.53026,"zip":"18407","miles_from_dt":8.96},{"city":"Peckville","state_name":"Pennsylvania","lat":41.48387,"lng":-75.58951,"zip":"18452","miles_from_dt":9.3},{"city":"Olyphant","state_name":"Pennsylvania","lat":41.45199,"lng":-75.58021,"zip":"18448","miles_from_dt":9.44},{"city":"Lakeville","state_name":"Pennsylvania","lat":41.43591,"lng":-75.24499,"zip":"18438","miles_from_dt":9.9},{"city":"Jermyn","state_name":"Pennsylvania","lat":41.57107,"lng":-75.58452,"zip":"18433","miles_from_dt":10.03},{"city":"Olyphant","state_name":"Pennsylvania","lat":41.5132,"lng":-75.61684,"zip":"18447","miles_from_dt":10.62},{"city":"White Mills","state_name":"Pennsylvania","lat":41.52828,"lng":-75.20821,"zip":"18473","miles_from_dt":10.72},{"city":"Scranton","state_name":"Pennsylvania","lat":41.42648,"lng":-75.5912,"zip":"18512","miles_from_dt":10.74},{"city":"Sterling","state_name":"Pennsylvania","lat":41.34825,"lng":-75.37964,"zip":"18463","miles_from_dt":10.93},{"city":"Forest City","state_name":"Pennsylvania","lat":41.66337,"lng":-75.4691,"zip":"18421","miles_from_dt":11.33},{"city":"Scranton","state_name":"Pennsylvania","lat":41.42109,"lng":-75.60282,"zip":"18577","miles_from_dt":11.45},{"city":"Honesdale","state_name":"Pennsylvania","lat":41.62214,"lng":-75.25531,"zip":"18431","miles_from_dt":11.49},{"city":"Elmhurst","state_name":"Pennsylvania","lat":41.37341,"lng":-75.54863,"zip":"18416","miles_from_dt":11.5},{"city":"Clifford","state_name":"Pennsylvania","lat":41.64767,"lng":-75.53258,"zip":"18413","miles_from_dt":11.66},{"city":"Scranton","state_name":"Pennsylvania","lat":41.46207,"lng":-75.63062,"zip":"18519","miles_from_dt":11.7},{"city":"Paupack","state_name":"Pennsylvania","lat":41.39849,"lng":-75.22023,"zip":"18451","miles_from_dt":12.38},{"city":"Scranton","state_name":"Pennsylvania","lat":41.43062,"lng":-75.64321,"zip":"18509","miles_from_dt":13.03},{"city":"Scranton","state_name":"Pennsylvania","lat":41.45503,"lng":-75.65827,"zip":"18508","miles_from_dt":13.21},{"city":"Moscow","state_name":"Pennsylvania","lat":41.33912,"lng":-75.54667,"zip":"18444","miles_from_dt":13.39},{"city":"Scranton","state_name":"Pennsylvania","lat":41.44954,"lng":-75.66412,"zip":"18515","miles_from_dt":13.61},{"city":"Scranton","state_name":"Pennsylvania","lat":41.40735,"lng":-75.64376,"zip":"18510","miles_from_dt":13.76},{"city":"Tafton","state_name":"Pennsylvania","lat":41.40181,"lng":-75.17824,"zip":"18464","miles_from_dt":14.08},{"city":"Chinchilla","state_name":"Pennsylvania","lat":41.48207,"lng":-75.68976,"zip":"18410","miles_from_dt":14.48},{"city":"Scranton","state_name":"Pennsylvania","lat":41.38874,"lng":-75.65109,"zip":"18505","miles_from_dt":14.75},{"city":"Scranton","state_name":"Pennsylvania","lat":41.41007,"lng":-75.66767,"zip":"18503","miles_from_dt":14.78},{"city":"Newfoundland","state_name":"Pennsylvania","lat":41.2948,"lng":-75.34751,"zip":"18445","miles_from_dt":14.88},{"city":"Waverly","state_name":"Pennsylvania","lat":41.5291,"lng":-75.69807,"zip":"18471","miles_from_dt":14.91},{"city":"Greentown","state_name":"Pennsylvania","lat":41.32774,"lng":-75.23577,"zip":"18426","miles_from_dt":15.28},{"city":"Lenoxville","state_name":"Pennsylvania","lat":41.65833,"lng":-75.62565,"zip":"18441","miles_from_dt":15.31},{"city":"Scranton","state_name":"Pennsylvania","lat":41.37228,"lng":-75.6578,"zip":"18540","miles_from_dt":15.68},{"city":"Hawley","state_name":"Pennsylvania","lat":41.42946,"lng":-75.1253,"zip":"18428","miles_from_dt":15.78},{"city":"Scranton","state_name":"Pennsylvania","lat":41.42375,"lng":-75.70581,"zip":"18504","miles_from_dt":16.22},{"city":"Fleetville","state_name":"Pennsylvania","lat":41.60333,"lng":-75.70589,"zip":"18420","miles_from_dt":16.67},{"city":"Scranton","state_name":"Pennsylvania","lat":41.37,"lng":-75.68003,"zip":"18501","miles_from_dt":16.72},{"city":"Scranton","state_name":"Pennsylvania","lat":41.36996,"lng":-75.68022,"zip":"18502","miles_from_dt":16.73},{"city":"South Sterling","state_name":"Pennsylvania","lat":41.26719,"lng":-75.34744,"zip":"18460","miles_from_dt":16.74},{"city":"Herrick Center","state_name":"Pennsylvania","lat":41.7428,"lng":-75.47779,"zip":"18430","miles_from_dt":16.77},{"city":"Union Dale","state_name":"Pennsylvania","lat":41.732,"lng":-75.53502,"zip":"18470","miles_from_dt":16.92},{"city":"Pleasant Mount","state_name":"Pennsylvania","lat":41.74971,"lng":-75.361,"zip":"18453","miles_from_dt":17.11},{"city":"Dalton","state_name":"Pennsylvania","lat":41.53893,"lng":-75.7427,"zip":"18414","miles_from_dt":17.29},{"city":"Moosic","state_name":"Pennsylvania","lat":41.35541,"lng":-75.68016,"zip":"18507","miles_from_dt":17.31},{"city":"Taylor","state_name":"Pennsylvania","lat":41.39524,"lng":-75.71461,"zip":"18517","miles_from_dt":17.42},{"city":"Clarks Summit","state_name":"Pennsylvania","lat":41.45655,"lng":-75.74295,"zip":"18411","miles_from_dt":17.47},{"city":"Beach Lake","state_name":"Pennsylvania","lat":41.59792,"lng":-75.09509,"zip":"18405","miles_from_dt":17.66},{"city":"La Plume","state_name":"Pennsylvania","lat":41.55931,"lng":-75.76505,"zip":"18440","miles_from_dt":18.67},{"city":"Rowland","state_name":"Pennsylvania","lat":41.4696,"lng":-75.05084,"zip":"18457","miles_from_dt":18.92},{"city":"Gouldsboro","state_name":"Pennsylvania","lat":41.24267,"lng":-75.52234,"zip":"18424","miles_from_dt":18.97},{"city":"Milanville","state_name":"Pennsylvania","lat":41.66262,"lng":-75.11059,"zip":"18443","miles_from_dt":19.06},{"city":"Old Forge","state_name":"Pennsylvania","lat":41.37495,"lng":-75.73963,"zip":"18518","miles_from_dt":19.21},{"city":"Tyler Hill","state_name":"Pennsylvania","lat":41.70352,"lng":-75.14597,"zip":"18469","miles_from_dt":19.46},{"city":"Pittston","state_name":"Pennsylvania","lat":41.33644,"lng":-75.73007,"zip":"18641","miles_from_dt":20.18},{"city":"South Gibson","state_name":"Pennsylvania","lat":41.75594,"lng":-75.61652,"zip":"18842","miles_from_dt":20.3},{"city":"Nicholson","state_name":"Pennsylvania","lat":41.64513,"lng":-75.76044,"zip":"18446","miles_from_dt":20.47},{"city":"Factoryville","state_name":"Pennsylvania","lat":41.57858,"lng":-75.7994,"zip":"18419","miles_from_dt":20.7},{"city":"Greeley","state_name":"Pennsylvania","lat":41.42263,"lng":-75.02206,"zip":"18425","miles_from_dt":21.04},{"city":"Lackawaxen","state_name":"Pennsylvania","lat":41.49221,"lng":-75.00661,"zip":"18435","miles_from_dt":21.07},{"city":"Tobyhanna","state_name":"Pennsylvania","lat":41.19709,"lng":-75.37796,"zip":"18466","miles_from_dt":21.31},{"city":"Orson","state_name":"Pennsylvania","lat":41.81459,"lng":-75.44997,"zip":"18449","miles_from_dt":21.47},{"city":"Skytop","state_name":"Pennsylvania","lat":41.22956,"lng":-75.2191,"zip":"18357","miles_from_dt":21.49},{"city":"Duryea","state_name":"Pennsylvania","lat":41.35359,"lng":-75.77681,"zip":"18642","miles_from_dt":21.61},{"city":"Canadensis","state_name":"Pennsylvania","lat":41.22545,"lng":-75.22268,"zip":"18325","miles_from_dt":21.65},{"city":"Poyntelle","state_name":"Pennsylvania","lat":41.81963,"lng":-75.42731,"zip":"18454","miles_from_dt":21.74},{"city":"Pittston","state_name":"Pennsylvania","lat":41.29724,"lng":-75.74024,"zip":"18640","miles_from_dt":22.25},{"city":"Lakewood","state_name":"Pennsylvania","lat":41.82674,"lng":-75.34735,"zip":"18439","miles_from_dt":22.47},{"city":"Gibson","state_name":"Pennsylvania","lat":41.7779,"lng":-75.65029,"zip":"18820","miles_from_dt":22.52},{"city":"Buck Hill Falls","state_name":"Pennsylvania","lat":41.19558,"lng":-75.27264,"zip":"18323","miles_from_dt":22.54},{"city":"Lake Winola","state_name":"Pennsylvania","lat":41.51311,"lng":-75.85027,"zip":"18625","miles_from_dt":22.72},{"city":"Ransom","state_name":"Pennsylvania","lat":41.39399,"lng":-75.82461,"zip":"18653","miles_from_dt":22.73},{"city":"Damascus","state_name":"Pennsylvania","lat":41.74821,"lng":-75.11315,"zip":"18415","miles_from_dt":22.86},{"city":"Narrowsburg","state_name":"New York","lat":41.59639,"lng":-74.98515,"zip":"12764","miles_from_dt":23.03},{"city":"Falls","state_name":"Pennsylvania","lat":41.45968,"lng":-75.85752,"zip":"18615","miles_from_dt":23.31},{"city":"Thompson","state_name":"Pennsylvania","lat":41.83654,"lng":-75.51811,"zip":"18465","miles_from_dt":23.54},{"city":"Equinunk","state_name":"Pennsylvania","lat":41.80705,"lng":-75.20122,"zip":"18417","miles_from_dt":23.55},{"city":"Harford","state_name":"Pennsylvania","lat":41.77415,"lng":-75.69168,"zip":"18823","miles_from_dt":23.55},{"city":"Mountainhome","state_name":"Pennsylvania","lat":41.17045,"lng":-75.30485,"zip":"18342","miles_from_dt":23.74},{"city":"Hop Bottom","state_name":"Pennsylvania","lat":41.70422,"lng":-75.786,"zip":"18824","miles_from_dt":23.75},{"city":"Yulan","state_name":"New York","lat":41.51447,"lng":-74.95172,"zip":"12792","miles_from_dt":23.91},{"city":"Pittston","state_name":"Pennsylvania","lat":41.36456,"lng":-75.8344,"zip":"18643","miles_from_dt":23.96},{"city":"Jackson","state_name":"Pennsylvania","lat":41.82276,"lng":-75.599,"zip":"18825","miles_from_dt":23.98},{"city":"Kingsley","state_name":"Pennsylvania","lat":41.7495,"lng":-75.74276,"zip":"18826","miles_from_dt":24.04},{"city":"Pocono Summit","state_name":"Pennsylvania","lat":41.14643,"lng":-75.42752,"zip":"18346","miles_from_dt":24.74},{"city":"Cochecton","state_name":"New York","lat":41.64061,"lng":-74.96813,"zip":"12727","miles_from_dt":24.86},{"city":"Lake Huntington","state_name":"New York","lat":41.68278,"lng":-74.9905,"zip":"12752","miles_from_dt":25.07},{"city":"Pocono Lake","state_name":"Pennsylvania","lat":41.15116,"lng":-75.53664,"zip":"18347","miles_from_dt":25.24},{"city":"Cresco","state_name":"Pennsylvania","lat":41.15617,"lng":-75.25186,"zip":"18326","miles_from_dt":25.46},{"city":"Lake Como","state_name":"Pennsylvania","lat":41.86859,"lng":-75.30345,"zip":"18437","miles_from_dt":25.73},{"city":"Barryville","state_name":"New York","lat":41.48431,"lng":-74.90543,"zip":"12719","miles_from_dt":26.34},{"city":"Preston Park","state_name":"Pennsylvania","lat":41.88467,"lng":-75.35541,"zip":"18455","miles_from_dt":26.38},{"city":"Cochecton","state_name":"New York","lat":41.69269,"lng":-74.96902,"zip":"12726","miles_from_dt":26.38},{"city":"Shohola","state_name":"Pennsylvania","lat":41.40916,"lng":-74.91757,"zip":"18458","miles_from_dt":26.52},{"city":"Brooklyn","state_name":"Pennsylvania","lat":41.75061,"lng":-75.80696,"zip":"18813","miles_from_dt":26.56},{"city":"Wyoming","state_name":"Pennsylvania","lat":41.33192,"lng":-75.87753,"zip":"18644","miles_from_dt":26.95},{"city":"Mount Pocono","state_name":"Pennsylvania","lat":41.11735,"lng":-75.34442,"zip":"18344","miles_from_dt":26.97},{"city":"Pocono Pines","state_name":"Pennsylvania","lat":41.11339,"lng":-75.45633,"zip":"18350","miles_from_dt":27.1},{"city":"Wilkes Barre","state_name":"Pennsylvania","lat":41.21406,"lng":-75.76925,"zip":"18702","miles_from_dt":27.33},{"city":"Callicoon","state_name":"New York","lat":41.77809,"lng":-75.02751,"zip":"12723","miles_from_dt":27.44},{"city":"Wilkes Barre","state_name":"Pennsylvania","lat":41.27156,"lng":-75.84241,"zip":"18705","miles_from_dt":27.54},{"city":"Starrucca","state_name":"Pennsylvania","lat":41.9049,"lng":-75.42988,"zip":"18462","miles_from_dt":27.63},{"city":"Pocono Lake Preserve","state_name":"Pennsylvania","lat":41.10688,"lng":-75.47923,"zip":"18348","miles_from_dt":27.68},{"city":"Hortonville","state_name":"New York","lat":41.78503,"lng":-75.02633,"zip":"12745","miles_from_dt":27.81},{"city":"New Milford","state_name":"Pennsylvania","lat":41.84185,"lng":-75.71189,"zip":"18834","miles_from_dt":27.95},{"city":"Wilkes Barre","state_name":"Pennsylvania","lat":41.21828,"lng":-75.7946,"zip":"18764","miles_from_dt":28.03},{"city":"Pocono Manor","state_name":"Pennsylvania","lat":41.0995,"lng":-75.3682,"zip":"18349","miles_from_dt":28.06},{"city":"Kenoza Lake","state_name":"New York","lat":41.73595,"lng":-74.96382,"zip":"12750","miles_from_dt":28.18},{"city":"Eldred","state_name":"New York","lat":41.56075,"lng":-74.87353,"zip":"12732","miles_from_dt":28.21},{"city":"Tunkhannock","state_name":"Pennsylvania","lat":41.52712,"lng":-75.95601,"zip":"18657","miles_from_dt":28.24},{"city":"Bear Creek","state_name":"Pennsylvania","lat":41.18749,"lng":-75.75526,"zip":"18602","miles_from_dt":28.24},{"city":"Bethel","state_name":"New York","lat":41.65794,"lng":-74.90029,"zip":"12720","miles_from_dt":28.56},{"city":"Dingmans Ferry","state_name":"Pennsylvania","lat":41.22531,"lng":-75.00633,"zip":"18328","miles_from_dt":28.59},{"city":"Swiftwater","state_name":"Pennsylvania","lat":41.08926,"lng":-75.33771,"zip":"18370","miles_from_dt":28.94},{"city":"Springville","state_name":"Pennsylvania","lat":41.69247,"lng":-75.91351,"zip":"18844","miles_from_dt":29.01},{"city":"Hankins","state_name":"New York","lat":41.84368,"lng":-75.07816,"zip":"12741","miles_from_dt":29.09},{"city":"Luzerne","state_name":"Pennsylvania","lat":41.28635,"lng":-75.89674,"zip":"18709","miles_from_dt":29.34},{"city":"Highland Lake","state_name":"New York","lat":41.54065,"lng":-74.84687,"zip":"12743","miles_from_dt":29.44},{"city":"Pond Eddy","state_name":"New York","lat":41.44681,"lng":-74.85028,"zip":"12770","miles_from_dt":29.45},{"city":"Wilkes Barre","state_name":"Pennsylvania","lat":41.25387,"lng":-75.87117,"zip":"18769","miles_from_dt":29.47},{"city":"Starlight","state_name":"Pennsylvania","lat":41.92774,"lng":-75.32434,"zip":"18461","miles_from_dt":29.54},{"city":"Henryville","state_name":"Pennsylvania","lat":41.0922,"lng":-75.25968,"zip":"18332","miles_from_dt":29.56},{"city":"Kingston","state_name":"Pennsylvania","lat":41.27676,"lng":-75.89474,"zip":"18704","miles_from_dt":29.6},{"city":"Wilkes Barre","state_name":"Pennsylvania","lat":41.24995,"lng":-75.87598,"zip":"18767","miles_from_dt":29.83},{"city":"Long Pond","state_name":"Pennsylvania","lat":41.07208,"lng":-75.44298,"zip":"18334","miles_from_dt":29.9},{"city":"Scotrun","state_name":"Pennsylvania","lat":41.07301,"lng":-75.35553,"zip":"18355","miles_from_dt":29.94},{"city":"Wilkes Barre","state_name":"Pennsylvania","lat":41.25003,"lng":-75.88002,"zip":"18710","miles_from_dt":30}],"targetCityZipCode":"18459","targetCityState":"Pennsylvania"},"__N_SSG":true}