{"pageProps":{"stateName":"Pennsylvania","cityName":"tafton","nearbyCities":[{"city":"Paupack","state_name":"Pennsylvania","lat":41.39849,"lng":-75.22023,"zip":"18451","miles_from_dt":2.19},{"city":"Hawley","state_name":"Pennsylvania","lat":41.42946,"lng":-75.1253,"zip":"18428","miles_from_dt":3.35},{"city":"Lakeville","state_name":"Pennsylvania","lat":41.43591,"lng":-75.24499,"zip":"18438","miles_from_dt":4.19},{"city":"Greentown","state_name":"Pennsylvania","lat":41.32774,"lng":-75.23577,"zip":"18426","miles_from_dt":5.92},{"city":"Rowland","state_name":"Pennsylvania","lat":41.4696,"lng":-75.05084,"zip":"18457","miles_from_dt":8.1},{"city":"Greeley","state_name":"Pennsylvania","lat":41.42263,"lng":-75.02206,"zip":"18425","miles_from_dt":8.24},{"city":"White Mills","state_name":"Pennsylvania","lat":41.52828,"lng":-75.20821,"zip":"18473","miles_from_dt":8.87},{"city":"Hamlin","state_name":"Pennsylvania","lat":41.39751,"lng":-75.35019,"zip":"18427","miles_from_dt":8.94},{"city":"Lackawaxen","state_name":"Pennsylvania","lat":41.49221,"lng":-75.00661,"zip":"18435","miles_from_dt":10.88},{"city":"Sterling","state_name":"Pennsylvania","lat":41.34825,"lng":-75.37964,"zip":"18463","miles_from_dt":11.1},{"city":"Newfoundland","state_name":"Pennsylvania","lat":41.2948,"lng":-75.34751,"zip":"18445","miles_from_dt":11.49},{"city":"Lake Ariel","state_name":"Pennsylvania","lat":41.43867,"lng":-75.3959,"zip":"18436","miles_from_dt":11.59},{"city":"Skytop","state_name":"Pennsylvania","lat":41.22956,"lng":-75.2191,"zip":"18357","miles_from_dt":12.08},{"city":"Canadensis","state_name":"Pennsylvania","lat":41.22545,"lng":-75.22268,"zip":"18325","miles_from_dt":12.39},{"city":"South Sterling","state_name":"Pennsylvania","lat":41.26719,"lng":-75.34744,"zip":"18460","miles_from_dt":12.8},{"city":"Shohola","state_name":"Pennsylvania","lat":41.40916,"lng":-74.91757,"zip":"18458","miles_from_dt":13.55},{"city":"South Canaan","state_name":"Pennsylvania","lat":41.50476,"lng":-75.41241,"zip":"18459","miles_from_dt":14.08},{"city":"Yulan","state_name":"New York","lat":41.51447,"lng":-74.95172,"zip":"12792","miles_from_dt":14.1},{"city":"Beach Lake","state_name":"Pennsylvania","lat":41.59792,"lng":-75.09509,"zip":"18405","miles_from_dt":14.2},{"city":"Buck Hill Falls","state_name":"Pennsylvania","lat":41.19558,"lng":-75.27264,"zip":"18323","miles_from_dt":15.06},{"city":"Dingmans Ferry","state_name":"Pennsylvania","lat":41.22531,"lng":-75.00633,"zip":"18328","miles_from_dt":15.11},{"city":"Barryville","state_name":"New York","lat":41.48431,"lng":-74.90543,"zip":"12719","miles_from_dt":15.27},{"city":"Honesdale","state_name":"Pennsylvania","lat":41.62214,"lng":-75.25531,"zip":"18431","miles_from_dt":15.72},{"city":"Milford","state_name":"Pennsylvania","lat":41.33406,"lng":-74.87342,"zip":"18337","miles_from_dt":16.52},{"city":"Narrowsburg","state_name":"New York","lat":41.59639,"lng":-74.98515,"zip":"12764","miles_from_dt":16.75},{"city":"Prompton","state_name":"Pennsylvania","lat":41.61843,"lng":-75.3404,"zip":"18456","miles_from_dt":17.15},{"city":"Waymart","state_name":"Pennsylvania","lat":41.58738,"lng":-75.40002,"zip":"18472","miles_from_dt":17.22},{"city":"Mountainhome","state_name":"Pennsylvania","lat":41.17045,"lng":-75.30485,"zip":"18342","miles_from_dt":17.27},{"city":"Pond Eddy","state_name":"New York","lat":41.44681,"lng":-74.85028,"zip":"12770","miles_from_dt":17.32},{"city":"Cresco","state_name":"Pennsylvania","lat":41.15617,"lng":-75.25186,"zip":"18326","miles_from_dt":17.38},{"city":"Tobyhanna","state_name":"Pennsylvania","lat":41.19709,"lng":-75.37796,"zip":"18466","miles_from_dt":17.54},{"city":"Milanville","state_name":"Pennsylvania","lat":41.66262,"lng":-75.11059,"zip":"18443","miles_from_dt":18.34},{"city":"Tamiment","state_name":"Pennsylvania","lat":41.15837,"lng":-75.03658,"zip":"18371","miles_from_dt":18.35},{"city":"Eldred","state_name":"New York","lat":41.56075,"lng":-74.87353,"zip":"12732","miles_from_dt":19.25},{"city":"Elmhurst","state_name":"Pennsylvania","lat":41.37341,"lng":-75.54863,"zip":"18416","miles_from_dt":19.35},{"city":"Jessup","state_name":"Pennsylvania","lat":41.46014,"lng":-75.54823,"zip":"18434","miles_from_dt":19.63},{"city":"Moscow","state_name":"Pennsylvania","lat":41.33912,"lng":-75.54667,"zip":"18444","miles_from_dt":19.64},{"city":"Highland Lake","state_name":"New York","lat":41.54065,"lng":-74.84687,"zip":"12743","miles_from_dt":19.69},{"city":"Cochecton","state_name":"New York","lat":41.64061,"lng":-74.96813,"zip":"12727","miles_from_dt":19.76},{"city":"Archbald","state_name":"Pennsylvania","lat":41.50495,"lng":-75.53529,"zip":"18403","miles_from_dt":19.86},{"city":"Bushkill","state_name":"Pennsylvania","lat":41.14712,"lng":-75.0001,"zip":"18324","miles_from_dt":19.87},{"city":"Tyler Hill","state_name":"Pennsylvania","lat":41.70352,"lng":-75.14597,"zip":"18469","miles_from_dt":20.89},{"city":"Glen Spey","state_name":"New York","lat":41.50529,"lng":-74.79941,"zip":"12737","miles_from_dt":20.92},{"city":"Millrift","state_name":"Pennsylvania","lat":41.42027,"lng":-74.77503,"zip":"18340","miles_from_dt":20.99},{"city":"Gouldsboro","state_name":"Pennsylvania","lat":41.24267,"lng":-75.52234,"zip":"18424","miles_from_dt":21},{"city":"Olyphant","state_name":"Pennsylvania","lat":41.45199,"lng":-75.58021,"zip":"18448","miles_from_dt":21.16},{"city":"Mount Pocono","state_name":"Pennsylvania","lat":41.11735,"lng":-75.34442,"zip":"18344","miles_from_dt":21.45},{"city":"Scranton","state_name":"Pennsylvania","lat":41.42648,"lng":-75.5912,"zip":"18512","miles_from_dt":21.52},{"city":"East Stroudsburg","state_name":"Pennsylvania","lat":41.09243,"lng":-75.11783,"zip":"18302","miles_from_dt":21.58},{"city":"Lake Huntington","state_name":"New York","lat":41.68278,"lng":-74.9905,"zip":"12752","miles_from_dt":21.7},{"city":"Layton","state_name":"New Jersey","lat":41.19883,"lng":-74.85923,"zip":"07851","miles_from_dt":21.72},{"city":"Henryville","state_name":"Pennsylvania","lat":41.0922,"lng":-75.25968,"zip":"18332","miles_from_dt":21.78},{"city":"Pocono Summit","state_name":"Pennsylvania","lat":41.14643,"lng":-75.42752,"zip":"18346","miles_from_dt":21.89},{"city":"Peckville","state_name":"Pennsylvania","lat":41.48387,"lng":-75.58951,"zip":"18452","miles_from_dt":22.09},{"city":"Scranton","state_name":"Pennsylvania","lat":41.42109,"lng":-75.60282,"zip":"18577","miles_from_dt":22.1},{"city":"Carbondale","state_name":"Pennsylvania","lat":41.59971,"lng":-75.53026,"zip":"18407","miles_from_dt":22.81},{"city":"Bethel","state_name":"New York","lat":41.65794,"lng":-74.90029,"zip":"12720","miles_from_dt":22.81},{"city":"Cochecton","state_name":"New York","lat":41.69269,"lng":-74.96902,"zip":"12726","miles_from_dt":22.82},{"city":"Matamoras","state_name":"Pennsylvania","lat":41.37566,"lng":-74.73674,"zip":"18336","miles_from_dt":23.02},{"city":"Pocono Manor","state_name":"Pennsylvania","lat":41.0995,"lng":-75.3682,"zip":"18349","miles_from_dt":23.09},{"city":"Swiftwater","state_name":"Pennsylvania","lat":41.08926,"lng":-75.33771,"zip":"18370","miles_from_dt":23.11},{"city":"Wallpack Center","state_name":"New Jersey","lat":41.12213,"lng":-74.93249,"zip":"07881","miles_from_dt":23.16},{"city":"Forest City","state_name":"Pennsylvania","lat":41.66337,"lng":-75.4691,"zip":"18421","miles_from_dt":23.52},{"city":"Marshalls Creek","state_name":"Pennsylvania","lat":41.06413,"lng":-75.10455,"zip":"18335","miles_from_dt":23.62},{"city":"White Lake","state_name":"New York","lat":41.64306,"lng":-74.85393,"zip":"12786","miles_from_dt":23.67},{"city":"Scranton","state_name":"Pennsylvania","lat":41.46207,"lng":-75.63062,"zip":"18519","miles_from_dt":23.86},{"city":"Montague","state_name":"New Jersey","lat":41.28918,"lng":-74.74351,"zip":"07827","miles_from_dt":23.91},{"city":"Sparrow Bush","state_name":"New York","lat":41.44514,"lng":-74.71989,"zip":"12780","miles_from_dt":24},{"city":"Olyphant","state_name":"Pennsylvania","lat":41.5132,"lng":-75.61684,"zip":"18447","miles_from_dt":24.03},{"city":"Jermyn","state_name":"Pennsylvania","lat":41.57107,"lng":-75.58452,"zip":"18433","miles_from_dt":24.1},{"city":"Damascus","state_name":"Pennsylvania","lat":41.74821,"lng":-75.11315,"zip":"18415","miles_from_dt":24.14},{"city":"Scranton","state_name":"Pennsylvania","lat":41.40735,"lng":-75.64376,"zip":"18510","miles_from_dt":24.19},{"city":"Scranton","state_name":"Pennsylvania","lat":41.43062,"lng":-75.64321,"zip":"18509","miles_from_dt":24.24},{"city":"Analomink","state_name":"Pennsylvania","lat":41.05183,"lng":-75.21989,"zip":"18320","miles_from_dt":24.25},{"city":"Scotrun","state_name":"Pennsylvania","lat":41.07301,"lng":-75.35553,"zip":"18355","miles_from_dt":24.5},{"city":"Scranton","state_name":"Pennsylvania","lat":41.38874,"lng":-75.65109,"zip":"18505","miles_from_dt":24.59},{"city":"Pocono Pines","state_name":"Pennsylvania","lat":41.11339,"lng":-75.45633,"zip":"18350","miles_from_dt":24.61},{"city":"Clifford","state_name":"Pennsylvania","lat":41.64767,"lng":-75.53258,"zip":"18413","miles_from_dt":25.01},{"city":"Scranton","state_name":"Pennsylvania","lat":41.37228,"lng":-75.6578,"zip":"18540","miles_from_dt":25.01},{"city":"Scranton","state_name":"Pennsylvania","lat":41.45503,"lng":-75.65827,"zip":"18508","miles_from_dt":25.2},{"city":"Pocono Lake","state_name":"Pennsylvania","lat":41.15116,"lng":-75.53664,"zip":"18347","miles_from_dt":25.44},{"city":"Scranton","state_name":"Pennsylvania","lat":41.41007,"lng":-75.66767,"zip":"18503","miles_from_dt":25.44},{"city":"Scranton","state_name":"Pennsylvania","lat":41.44954,"lng":-75.66412,"zip":"18515","miles_from_dt":25.45},{"city":"Branchville","state_name":"New Jersey","lat":41.17633,"lng":-74.79042,"zip":"07826","miles_from_dt":25.49},{"city":"East Stroudsburg","state_name":"Pennsylvania","lat":41.03141,"lng":-75.18316,"zip":"18301","miles_from_dt":25.56},{"city":"Tannersville","state_name":"Pennsylvania","lat":41.04777,"lng":-75.32512,"zip":"18372","miles_from_dt":25.6},{"city":"Kenoza Lake","state_name":"New York","lat":41.73595,"lng":-74.96382,"zip":"12750","miles_from_dt":25.6},{"city":"Pocono Lake Preserve","state_name":"Pennsylvania","lat":41.10688,"lng":-75.47923,"zip":"18348","miles_from_dt":25.69},{"city":"Pleasant Mount","state_name":"Pennsylvania","lat":41.74971,"lng":-75.361,"zip":"18453","miles_from_dt":25.81},{"city":"Smallwood","state_name":"New York","lat":41.66174,"lng":-74.8138,"zip":"12778","miles_from_dt":26.06},{"city":"Scranton","state_name":"Pennsylvania","lat":41.37,"lng":-75.68003,"zip":"18501","miles_from_dt":26.17},{"city":"Scranton","state_name":"Pennsylvania","lat":41.36996,"lng":-75.68022,"zip":"18502","miles_from_dt":26.18},{"city":"Moosic","state_name":"Pennsylvania","lat":41.35541,"lng":-75.68016,"zip":"18507","miles_from_dt":26.28},{"city":"Forestburgh","state_name":"New York","lat":41.55172,"lng":-74.71067,"zip":"12777","miles_from_dt":26.38},{"city":"Mongaup Valley","state_name":"New York","lat":41.65582,"lng":-74.79462,"zip":"12762","miles_from_dt":26.52},{"city":"Long Pond","state_name":"Pennsylvania","lat":41.07208,"lng":-75.44298,"zip":"18334","miles_from_dt":26.61},{"city":"Shawnee On Delaware","state_name":"Pennsylvania","lat":41.01574,"lng":-75.11192,"zip":"18356","miles_from_dt":26.87},{"city":"Kauneonga Lake","state_name":"New York","lat":41.69149,"lng":-74.82768,"zip":"12749","miles_from_dt":27.02},{"city":"Callicoon","state_name":"New York","lat":41.77809,"lng":-75.02751,"zip":"12723","miles_from_dt":27.12},{"city":"Chinchilla","state_name":"Pennsylvania","lat":41.48207,"lng":-75.68976,"zip":"18410","miles_from_dt":27.13},{"city":"Bartonsville","state_name":"Pennsylvania","lat":41.01734,"lng":-75.28754,"zip":"18321","miles_from_dt":27.14},{"city":"Huguenot","state_name":"New York","lat":41.44929,"lng":-74.65582,"zip":"12746","miles_from_dt":27.33},{"city":"Scranton","state_name":"Pennsylvania","lat":41.42375,"lng":-75.70581,"zip":"18504","miles_from_dt":27.45},{"city":"Hortonville","state_name":"New York","lat":41.78503,"lng":-75.02633,"zip":"12745","miles_from_dt":27.59},{"city":"Minisink Hills","state_name":"Pennsylvania","lat":41,"lng":-75.13618,"zip":"18341","miles_from_dt":27.81},{"city":"Taylor","state_name":"Pennsylvania","lat":41.39524,"lng":-75.71461,"zip":"18517","miles_from_dt":27.88},{"city":"Equinunk","state_name":"Pennsylvania","lat":41.80705,"lng":-75.20122,"zip":"18417","miles_from_dt":27.99},{"city":"Herrick Center","state_name":"Pennsylvania","lat":41.7428,"lng":-75.47779,"zip":"18430","miles_from_dt":28.19},{"city":"Swartswood","state_name":"New Jersey","lat":41.08723,"lng":-74.829,"zip":"07877","miles_from_dt":28.32},{"city":"Waverly","state_name":"Pennsylvania","lat":41.5291,"lng":-75.69807,"zip":"18471","miles_from_dt":28.38},{"city":"Branchville","state_name":"New Jersey","lat":41.14489,"lng":-74.75209,"zip":"07890","miles_from_dt":28.4},{"city":"Port Jervis","state_name":"New York","lat":41.37394,"lng":-74.62429,"zip":"12771","miles_from_dt":28.85},{"city":"Reeders","state_name":"Pennsylvania","lat":40.9897,"lng":-75.27501,"zip":"18352","miles_from_dt":28.88},{"city":"Delaware Water Gap","state_name":"Pennsylvania","lat":40.98341,"lng":-75.14665,"zip":"18327","miles_from_dt":28.92},{"city":"Pittston","state_name":"Pennsylvania","lat":41.33644,"lng":-75.73007,"zip":"18641","miles_from_dt":29.04},{"city":"Middleville","state_name":"New Jersey","lat":41.05443,"lng":-74.86272,"zip":"07855","miles_from_dt":29.07},{"city":"Jeffersonville","state_name":"New York","lat":41.77604,"lng":-74.91845,"zip":"12748","miles_from_dt":29.12},{"city":"Lenoxville","state_name":"Pennsylvania","lat":41.65833,"lng":-75.62565,"zip":"18441","miles_from_dt":29.18},{"city":"Old Forge","state_name":"Pennsylvania","lat":41.37495,"lng":-75.73963,"zip":"18518","miles_from_dt":29.23},{"city":"Union Dale","state_name":"Pennsylvania","lat":41.732,"lng":-75.53502,"zip":"18470","miles_from_dt":29.35},{"city":"Swan Lake","state_name":"New York","lat":41.74026,"lng":-74.83502,"zip":"12783","miles_from_dt":29.36},{"city":"Clarks Summit","state_name":"Pennsylvania","lat":41.45655,"lng":-75.74295,"zip":"18411","miles_from_dt":29.57},{"city":"Stillwater","state_name":"New Jersey","lat":41.03594,"lng":-74.87994,"zip":"07875","miles_from_dt":29.65},{"city":"Cuddebackville","state_name":"New York","lat":41.49411,"lng":-74.61582,"zip":"12729","miles_from_dt":29.89},{"city":"Blakeslee","state_name":"Pennsylvania","lat":41.05959,"lng":-75.53226,"zip":"18610","miles_from_dt":29.96}],"targetCityZipCode":"18464","targetCityState":"Pennsylvania"},"__N_SSG":true}