{"pageProps":{"stateName":"Pennsylvania","cityName":"waynesboro","nearbyCities":[{"city":"Quincy","state_name":"Pennsylvania","lat":39.79883,"lng":-77.57933,"zip":"17247","miles_from_dt":1.73},{"city":"Zullinger","state_name":"Pennsylvania","lat":39.76764,"lng":-77.62183,"zip":"17272","miles_from_dt":2.61},{"city":"Rouzerville","state_name":"Pennsylvania","lat":39.73668,"lng":-77.52338,"zip":"17250","miles_from_dt":3.72},{"city":"Mont Alto","state_name":"Pennsylvania","lat":39.83705,"lng":-77.54091,"zip":"17237","miles_from_dt":4.67},{"city":"Shady Grove","state_name":"Pennsylvania","lat":39.77776,"lng":-77.66873,"zip":"17256","miles_from_dt":5.07},{"city":"Blue Ridge Summit","state_name":"Pennsylvania","lat":39.74811,"lng":-77.47025,"zip":"17214","miles_from_dt":5.79},{"city":"Cascade","state_name":"Maryland","lat":39.70501,"lng":-77.49977,"zip":"21719","miles_from_dt":6.18},{"city":"South Mountain","state_name":"Pennsylvania","lat":39.85981,"lng":-77.51164,"zip":"17261","miles_from_dt":6.76},{"city":"Hagerstown","state_name":"Maryland","lat":39.67363,"lng":-77.65928,"zip":"21742","miles_from_dt":8.31},{"city":"State Line","state_name":"Pennsylvania","lat":39.72409,"lng":-77.71727,"zip":"17263","miles_from_dt":8.4},{"city":"Smithsburg","state_name":"Maryland","lat":39.64885,"lng":-77.55903,"zip":"21783","miles_from_dt":8.68},{"city":"Marion","state_name":"Pennsylvania","lat":39.85699,"lng":-77.69743,"zip":"17235","miles_from_dt":8.72},{"city":"Sabillasville","state_name":"Maryland","lat":39.67676,"lng":-77.46777,"zip":"21780","miles_from_dt":8.77},{"city":"Cavetown","state_name":"Maryland","lat":39.64237,"lng":-77.58285,"zip":"21720","miles_from_dt":9.11},{"city":"Chewsville","state_name":"Maryland","lat":39.64822,"lng":-77.62758,"zip":"21721","miles_from_dt":9.16},{"city":"Fayetteville","state_name":"Pennsylvania","lat":39.89983,"lng":-77.49242,"zip":"17222","miles_from_dt":9.68},{"city":"Greencastle","state_name":"Pennsylvania","lat":39.78706,"lng":-77.75709,"zip":"17225","miles_from_dt":9.81},{"city":"Fairfield","state_name":"Pennsylvania","lat":39.7695,"lng":-77.38749,"zip":"17320","miles_from_dt":9.91},{"city":"Maugansville","state_name":"Maryland","lat":39.69773,"lng":-77.74638,"zip":"21767","miles_from_dt":10.61},{"city":"Chambersburg","state_name":"Pennsylvania","lat":39.92133,"lng":-77.67442,"zip":"17202","miles_from_dt":11.48},{"city":"Hagerstown","state_name":"Maryland","lat":39.64139,"lng":-77.71879,"zip":"21741","miles_from_dt":11.99},{"city":"Orrtanna","state_name":"Pennsylvania","lat":39.88741,"lng":-77.38714,"zip":"17353","miles_from_dt":12.62},{"city":"Hagerstown","state_name":"Maryland","lat":39.63737,"lng":-77.74454,"zip":"21749","miles_from_dt":13.12},{"city":"Hagerstown","state_name":"Maryland","lat":39.63233,"lng":-77.73902,"zip":"21740","miles_from_dt":13.17},{"city":"Hagerstown","state_name":"Maryland","lat":39.63447,"lng":-77.74596,"zip":"21747","miles_from_dt":13.32},{"city":"Scotland","state_name":"Pennsylvania","lat":39.96853,"lng":-77.58917,"zip":"17254","miles_from_dt":13.43},{"city":"Funkstown","state_name":"Maryland","lat":39.60583,"lng":-77.70382,"zip":"21734","miles_from_dt":13.53},{"city":"Chambersburg","state_name":"Pennsylvania","lat":39.96229,"lng":-77.65677,"zip":"17201","miles_from_dt":13.71},{"city":"Cashtown","state_name":"Pennsylvania","lat":39.88481,"lng":-77.35878,"zip":"17310","miles_from_dt":13.74},{"city":"Emmitsburg","state_name":"Maryland","lat":39.68865,"lng":-77.33096,"zip":"21727","miles_from_dt":14.21},{"city":"McKnightstown","state_name":"Pennsylvania","lat":39.86863,"lng":-77.32948,"zip":"17343","miles_from_dt":14.53},{"city":"Thurmont","state_name":"Maryland","lat":39.59429,"lng":-77.41958,"zip":"21788","miles_from_dt":14.88},{"city":"Saint Thomas","state_name":"Pennsylvania","lat":39.91317,"lng":-77.81695,"zip":"17252","miles_from_dt":16.11},{"city":"Hagerstown","state_name":"Maryland","lat":39.56591,"lng":-77.71409,"zip":"21746","miles_from_dt":16.21},{"city":"Lemasters","state_name":"Pennsylvania","lat":39.86021,"lng":-77.85934,"zip":"17231","miles_from_dt":16.32},{"city":"Myersville","state_name":"Maryland","lat":39.53725,"lng":-77.55301,"zip":"21773","miles_from_dt":16.38},{"city":"Rocky Ridge","state_name":"Maryland","lat":39.61576,"lng":-77.33754,"zip":"21778","miles_from_dt":16.66},{"city":"Saint James","state_name":"Maryland","lat":39.57123,"lng":-77.75981,"zip":"21781","miles_from_dt":17.17},{"city":"Boonsboro","state_name":"Maryland","lat":39.52618,"lng":-77.66933,"zip":"21713","miles_from_dt":17.86},{"city":"Arendtsville","state_name":"Pennsylvania","lat":39.92615,"lng":-77.29755,"zip":"17303","miles_from_dt":18.04},{"city":"Biglerville","state_name":"Pennsylvania","lat":39.94853,"lng":-77.314,"zip":"17307","miles_from_dt":18.3},{"city":"Fairplay","state_name":"Maryland","lat":39.55004,"lng":-77.75838,"zip":"21733","miles_from_dt":18.34},{"city":"Gettysburg","state_name":"Pennsylvania","lat":39.82762,"lng":-77.22641,"zip":"17325","miles_from_dt":18.84},{"city":"Williamsport","state_name":"Maryland","lat":39.582,"lng":-77.82733,"zip":"21795","miles_from_dt":18.94},{"city":"Shippensburg","state_name":"Pennsylvania","lat":40.0508,"lng":-77.49027,"zip":"17257","miles_from_dt":19.59},{"city":"Clear Spring","state_name":"Maryland","lat":39.66575,"lng":-77.91457,"zip":"21722","miles_from_dt":19.65},{"city":"Mercersburg","state_name":"Pennsylvania","lat":39.79997,"lng":-77.94305,"zip":"17236","miles_from_dt":19.75},{"city":"Keymar","state_name":"Maryland","lat":39.59902,"lng":-77.25906,"zip":"21757","miles_from_dt":20.67},{"city":"Pleasant Hall","state_name":"Pennsylvania","lat":40.0629,"lng":-77.68255,"zip":"17246","miles_from_dt":20.74},{"city":"New Midway","state_name":"Maryland","lat":39.55622,"lng":-77.30221,"zip":"21775","miles_from_dt":20.87},{"city":"Upperstrasburg","state_name":"Pennsylvania","lat":40.03846,"lng":-77.77297,"zip":"17265","miles_from_dt":21.09},{"city":"Frederick","state_name":"Maryland","lat":39.48019,"lng":-77.4578,"zip":"21702","miles_from_dt":21.2},{"city":"Falling Waters","state_name":"West Virginia","lat":39.58286,"lng":-77.88493,"zip":"25419","miles_from_dt":21.21},{"city":"Ladiesburg","state_name":"Maryland","lat":39.57501,"lng":-77.26392,"zip":"21759","miles_from_dt":21.48},{"city":"Fort Loudon","state_name":"Pennsylvania","lat":39.9723,"lng":-77.89195,"zip":"17224","miles_from_dt":21.76},{"city":"Woodsboro","state_name":"Maryland","lat":39.53858,"lng":-77.29985,"zip":"21798","miles_from_dt":21.85},{"city":"Orrstown","state_name":"Pennsylvania","lat":40.08595,"lng":-77.66562,"zip":"17244","miles_from_dt":22.06},{"city":"Lurgan","state_name":"Pennsylvania","lat":40.09462,"lng":-77.63341,"zip":"17232","miles_from_dt":22.33},{"city":"Taneytown","state_name":"Maryland","lat":39.67169,"lng":-77.17317,"zip":"21787","miles_from_dt":22.47},{"city":"Bendersville","state_name":"Pennsylvania","lat":39.98383,"lng":-77.24966,"zip":"17306","miles_from_dt":22.48},{"city":"Middletown","state_name":"Maryland","lat":39.44582,"lng":-77.56489,"zip":"21769","miles_from_dt":22.66},{"city":"Peach Glen","state_name":"Pennsylvania","lat":39.97383,"lng":-77.23158,"zip":"17375","miles_from_dt":22.81},{"city":"Keedysville","state_name":"Maryland","lat":39.45758,"lng":-77.70118,"zip":"21756","miles_from_dt":22.88},{"city":"Aspers","state_name":"Pennsylvania","lat":39.97696,"lng":-77.23099,"zip":"17304","miles_from_dt":22.96},{"city":"Walkersville","state_name":"Maryland","lat":39.48963,"lng":-77.34357,"zip":"21793","miles_from_dt":23.15},{"city":"Walnut Bottom","state_name":"Pennsylvania","lat":40.08745,"lng":-77.412,"zip":"17266","miles_from_dt":23.25},{"city":"Fannettsburg","state_name":"Pennsylvania","lat":40.05796,"lng":-77.82019,"zip":"17221","miles_from_dt":23.56},{"city":"Sharpsburg","state_name":"Maryland","lat":39.4552,"lng":-77.75995,"zip":"21782","miles_from_dt":24.15},{"city":"Roxbury","state_name":"Pennsylvania","lat":40.12159,"lng":-77.66695,"zip":"17251","miles_from_dt":24.47},{"city":"Big Pool","state_name":"Maryland","lat":39.66808,"lng":-78.01247,"zip":"21711","miles_from_dt":24.5},{"city":"Rohrersville","state_name":"Maryland","lat":39.42447,"lng":-77.65398,"zip":"21779","miles_from_dt":24.51},{"city":"Littlestown","state_name":"Pennsylvania","lat":39.75566,"lng":-77.11183,"zip":"17340","miles_from_dt":24.62},{"city":"Braddock Heights","state_name":"Maryland","lat":39.41059,"lng":-77.51003,"zip":"21714","miles_from_dt":25.31},{"city":"Frederick","state_name":"Maryland","lat":39.42776,"lng":-77.41549,"zip":"21709","miles_from_dt":25.35},{"city":"Idaville","state_name":"Pennsylvania","lat":40.0132,"lng":-77.20289,"zip":"17337","miles_from_dt":25.69},{"city":"Willow Hill","state_name":"Pennsylvania","lat":40.10183,"lng":-77.80367,"zip":"17271","miles_from_dt":25.7},{"city":"Gardners","state_name":"Pennsylvania","lat":40.03616,"lng":-77.22772,"zip":"17324","miles_from_dt":25.77},{"city":"Frederick","state_name":"Maryland","lat":39.44729,"lng":-77.33512,"zip":"21701","miles_from_dt":25.89},{"city":"McConnellsburg","state_name":"Pennsylvania","lat":39.95118,"lng":-78.00406,"zip":"17233","miles_from_dt":25.94},{"city":"Union Bridge","state_name":"Maryland","lat":39.54267,"lng":-77.18713,"zip":"21791","miles_from_dt":26.07},{"city":"Newburg","state_name":"Pennsylvania","lat":40.15411,"lng":-77.58227,"zip":"17240","miles_from_dt":26.21},{"city":"Martinsburg","state_name":"West Virginia","lat":39.48631,"lng":-77.89782,"zip":"25404","miles_from_dt":26.34},{"city":"Burkittsville","state_name":"Maryland","lat":39.39343,"lng":-77.62734,"zip":"21718","miles_from_dt":26.43},{"city":"Shepherdstown","state_name":"West Virginia","lat":39.43835,"lng":-77.81477,"zip":"25443","miles_from_dt":26.51},{"city":"Big Cove Tannery","state_name":"Pennsylvania","lat":39.81,"lng":-78.07073,"zip":"17212","miles_from_dt":26.58},{"city":"Libertytown","state_name":"Maryland","lat":39.48058,"lng":-77.24842,"zip":"21762","miles_from_dt":26.67},{"city":"Frederick","state_name":"Maryland","lat":39.40887,"lng":-77.41002,"zip":"21705","miles_from_dt":26.67},{"city":"Spring Run","state_name":"Pennsylvania","lat":40.14489,"lng":-77.74174,"zip":"17262","miles_from_dt":27.09},{"city":"New Oxford","state_name":"Pennsylvania","lat":39.88918,"lng":-77.07896,"zip":"17350","miles_from_dt":27.48},{"city":"Burnt Cabins","state_name":"Pennsylvania","lat":40.09234,"lng":-77.89008,"zip":"17215","miles_from_dt":27.65},{"city":"Brownsville","state_name":"Maryland","lat":39.37879,"lng":-77.66063,"zip":"21715","miles_from_dt":27.67},{"city":"Fort Littleton","state_name":"Pennsylvania","lat":40.06521,"lng":-77.9389,"zip":"17223","miles_from_dt":27.92},{"city":"Frederick","state_name":"Maryland","lat":39.36961,"lng":-77.47088,"zip":"21703","miles_from_dt":28.45},{"city":"Jefferson","state_name":"Maryland","lat":39.36101,"lng":-77.56887,"zip":"21755","miles_from_dt":28.51},{"city":"Neelyton","state_name":"Pennsylvania","lat":40.13973,"lng":-77.83009,"zip":"17239","miles_from_dt":28.66},{"city":"Amberson","state_name":"Pennsylvania","lat":40.18989,"lng":-77.661,"zip":"17210","miles_from_dt":29.05},{"city":"Unionville","state_name":"Maryland","lat":39.47481,"lng":-77.18722,"zip":"21792","miles_from_dt":29.18},{"city":"Dry Run","state_name":"Pennsylvania","lat":40.17807,"lng":-77.74108,"zip":"17220","miles_from_dt":29.25},{"city":"Newville","state_name":"Pennsylvania","lat":40.17793,"lng":-77.40326,"zip":"17241","miles_from_dt":29.28},{"city":"York Springs","state_name":"Pennsylvania","lat":40.00037,"lng":-77.10633,"zip":"17372","miles_from_dt":29.33},{"city":"McSherrystown","state_name":"Pennsylvania","lat":39.80535,"lng":-77.01887,"zip":"17344","miles_from_dt":29.6},{"city":"Mount Holly Springs","state_name":"Pennsylvania","lat":40.09837,"lng":-77.20527,"zip":"17065","miles_from_dt":29.71},{"city":"New Market","state_name":"Maryland","lat":39.4088,"lng":-77.27844,"zip":"21774","miles_from_dt":29.73},{"city":"Knoxville","state_name":"Maryland","lat":39.34567,"lng":-77.66265,"zip":"21758","miles_from_dt":29.94}],"targetCityZipCode":"17268","targetCityState":"Pennsylvania"},"__N_SSG":true}