{"pageProps":{"stateName":"California","cityName":"artois","nearbyCities":[{"city":"Glenn","state_name":"California","lat":39.57692,"lng":-122.0367,"zip":"95943","miles_from_dt":9.04},{"city":"Orland","state_name":"California","lat":39.73682,"lng":-122.30329,"zip":"95963","miles_from_dt":9.51},{"city":"Willows","state_name":"California","lat":39.49825,"lng":-122.28698,"zip":"95988","miles_from_dt":10.34},{"city":"Hamilton City","state_name":"California","lat":39.71473,"lng":-122.00197,"zip":"95951","miles_from_dt":11.74},{"city":"Princeton","state_name":"California","lat":39.41159,"lng":-122.05176,"zip":"95970","miles_from_dt":16.77},{"city":"Butte City","state_name":"California","lat":39.46071,"lng":-121.93702,"zip":"95920","miles_from_dt":17.9},{"city":"Chico","state_name":"California","lat":39.75384,"lng":-121.87011,"zip":"95976","miles_from_dt":19.2},{"city":"Chico","state_name":"California","lat":39.68317,"lng":-121.83528,"zip":"95928","miles_from_dt":19.39},{"city":"Chico","state_name":"California","lat":39.72578,"lng":-121.85022,"zip":"95929","miles_from_dt":19.41},{"city":"Chico","state_name":"California","lat":39.74573,"lng":-121.84396,"zip":"95926","miles_from_dt":20.23},{"city":"Corning","state_name":"California","lat":39.91871,"lng":-122.26813,"zip":"96021","miles_from_dt":20.39},{"city":"Durham","state_name":"California","lat":39.60504,"lng":-121.79708,"zip":"95938","miles_from_dt":21.14},{"city":"Nelson","state_name":"California","lat":39.56417,"lng":-121.79804,"zip":"95958","miles_from_dt":21.5},{"city":"Chico","state_name":"California","lat":39.75174,"lng":-121.81253,"zip":"95927","miles_from_dt":21.93},{"city":"Elk Creek","state_name":"California","lat":39.56755,"lng":-122.60224,"zip":"95939","miles_from_dt":22.29},{"city":"Maxwell","state_name":"California","lat":39.29657,"lng":-122.20454,"zip":"95955","miles_from_dt":22.94},{"city":"Richvale","state_name":"California","lat":39.4973,"lng":-121.75569,"zip":"95974","miles_from_dt":25.01},{"city":"Chico","state_name":"California","lat":39.88099,"lng":-121.8516,"zip":"95973","miles_from_dt":25.12},{"city":"Tehama","state_name":"California","lat":40.00681,"lng":-122.12142,"zip":"96090","miles_from_dt":26.34},{"city":"Vina","state_name":"California","lat":39.97344,"lng":-121.97342,"zip":"96092","miles_from_dt":26.46},{"city":"Biggs","state_name":"California","lat":39.42392,"lng":-121.77178,"zip":"95917","miles_from_dt":26.54},{"city":"Flournoy","state_name":"California","lat":39.94003,"lng":-122.48743,"zip":"96029","miles_from_dt":26.6},{"city":"Colusa","state_name":"California","lat":39.26839,"lng":-122.00426,"zip":"95932","miles_from_dt":26.83},{"city":"Paskenta","state_name":"California","lat":39.87196,"lng":-122.58599,"zip":"96074","miles_from_dt":26.85},{"city":"Stonyford","state_name":"California","lat":39.29771,"lng":-122.47913,"zip":"95979","miles_from_dt":27.53},{"city":"Gerber","state_name":"California","lat":40.04168,"lng":-122.18254,"zip":"96035","miles_from_dt":28.48}],"targetCityZipCode":"95913","targetCityState":"California"},"__N_SSG":true}