{"pageProps":{"stateName":"California","cityName":"catheys-valley","nearbyCities":[{"city":"Le Grand","state_name":"California","lat":37.2447,"lng":-120.24277,"zip":"95333","miles_from_dt":10.6},{"city":"Hornitos","state_name":"California","lat":37.48058,"lng":-120.24208,"zip":"95325","miles_from_dt":10.83},{"city":"Mariposa","state_name":"California","lat":37.50911,"lng":-119.98659,"zip":"95338","miles_from_dt":12.49},{"city":"Planada","state_name":"California","lat":37.3012,"lng":-120.33152,"zip":"95365","miles_from_dt":12.56},{"city":"Raymond","state_name":"California","lat":37.24769,"lng":-119.91882,"zip":"93653","miles_from_dt":13.34},{"city":"Merced","state_name":"California","lat":37.34128,"lng":-120.40658,"zip":"95340","miles_from_dt":16.06},{"city":"Midpines","state_name":"California","lat":37.58784,"lng":-119.96408,"zip":"95345","miles_from_dt":17.78},{"city":"Snelling","state_name":"California","lat":37.52435,"lng":-120.41301,"zip":"95369","miles_from_dt":19.88},{"city":"Chowchilla","state_name":"California","lat":37.09047,"lng":-120.29036,"zip":"93610","miles_from_dt":20.94},{"city":"Ahwahnee","state_name":"California","lat":37.39395,"lng":-119.73702,"zip":"93601","miles_from_dt":20.98},{"city":"Merced","state_name":"California","lat":37.2937,"lng":-120.48784,"zip":"95343","miles_from_dt":20.99},{"city":"Merced","state_name":"California","lat":37.41525,"lng":-120.4979,"zip":"95348","miles_from_dt":21.37},{"city":"Madera","state_name":"California","lat":37.0424,"lng":-120.03816,"zip":"93638","miles_from_dt":22.33},{"city":"Merced","state_name":"California","lat":37.23037,"lng":-120.50715,"zip":"95341","miles_from_dt":23.34},{"city":"Coarsegold","state_name":"California","lat":37.21282,"lng":-119.72659,"zip":"93614","miles_from_dt":23.73},{"city":"Coulterville","state_name":"California","lat":37.70443,"lng":-120.08344,"zip":"95311","miles_from_dt":23.81},{"city":"Fish Camp","state_name":"California","lat":37.47478,"lng":-119.66071,"zip":"93623","miles_from_dt":26.25},{"city":"Winton","state_name":"California","lat":37.42171,"lng":-120.59715,"zip":"95388","miles_from_dt":26.82},{"city":"El Nido","state_name":"California","lat":37.12947,"lng":-120.5074,"zip":"95317","miles_from_dt":26.82},{"city":"El Portal","state_name":"California","lat":37.66618,"lng":-119.8064,"zip":"95318","miles_from_dt":27.1},{"city":"La Grange","state_name":"California","lat":37.67726,"lng":-120.41363,"zip":"95329","miles_from_dt":27.31},{"city":"Madera","state_name":"California","lat":36.96478,"lng":-120.08456,"zip":"93639","miles_from_dt":27.32},{"city":"Merced","state_name":"California","lat":37.37775,"lng":-120.61376,"zip":"95344","miles_from_dt":27.43},{"city":"Oakhurst","state_name":"California","lat":37.41245,"lng":-119.59431,"zip":"93644","miles_from_dt":28.92},{"city":"Madera","state_name":"California","lat":36.98171,"lng":-119.87706,"zip":"93636","miles_from_dt":29.23},{"city":"Atwater","state_name":"California","lat":37.30634,"lng":-120.65119,"zip":"95301","miles_from_dt":29.71},{"city":"Cressey","state_name":"California","lat":37.42107,"lng":-120.65295,"zip":"95312","miles_from_dt":29.85}],"targetCityZipCode":"95306","targetCityState":"California"},"__N_SSG":true}