{"pageProps":{"stateName":"California","cityName":"clearlake-oaks","nearbyCities":[{"city":"Glenhaven","state_name":"California","lat":39.05013,"lng":-122.73962,"zip":"95443","miles_from_dt":6.15},{"city":"Clearlake","state_name":"California","lat":38.97829,"lng":-122.6423,"zip":"95422","miles_from_dt":6.2},{"city":"Clearlake Park","state_name":"California","lat":38.9688,"lng":-122.66158,"zip":"95424","miles_from_dt":7.05},{"city":"Lucerne","state_name":"California","lat":39.11667,"lng":-122.78204,"zip":"95458","miles_from_dt":8.97},{"city":"Nice","state_name":"California","lat":39.12736,"lng":-122.84733,"zip":"95464","miles_from_dt":12.52},{"city":"Kelseyville","state_name":"California","lat":38.9388,"lng":-122.80484,"zip":"95451","miles_from_dt":13.03},{"city":"Finley","state_name":"California","lat":39.00315,"lng":-122.8748,"zip":"95435","miles_from_dt":14.02},{"city":"Lower Lake","state_name":"California","lat":38.87967,"lng":-122.52753,"zip":"95457","miles_from_dt":14.03},{"city":"Lakeport","state_name":"California","lat":39.04346,"lng":-122.93918,"zip":"95453","miles_from_dt":16.84},{"city":"Cobb","state_name":"California","lat":38.83449,"lng":-122.7361,"zip":"95426","miles_from_dt":17.1},{"city":"Stonyford","state_name":"California","lat":39.29771,"lng":-122.47913,"zip":"95979","miles_from_dt":17.77},{"city":"Hidden Valley Lake","state_name":"California","lat":38.80453,"lng":-122.54948,"zip":"95467","miles_from_dt":18.62},{"city":"Upper Lake","state_name":"California","lat":39.20828,"lng":-122.9259,"zip":"95485","miles_from_dt":18.74},{"city":"Williams","state_name":"California","lat":39.10299,"lng":-122.2726,"zip":"95987","miles_from_dt":19.24},{"city":"Witter Springs","state_name":"California","lat":39.20241,"lng":-122.97948,"zip":"95493","miles_from_dt":21.07},{"city":"Middletown","state_name":"California","lat":38.762,"lng":-122.59314,"zip":"95461","miles_from_dt":21.15},{"city":"Rumsey","state_name":"California","lat":38.90524,"lng":-122.26727,"zip":"95679","miles_from_dt":22.39},{"city":"Guinda","state_name":"California","lat":38.85283,"lng":-122.2729,"zip":"95637","miles_from_dt":24.17},{"city":"Hopland","state_name":"California","lat":38.94331,"lng":-123.09653,"zip":"95449","miles_from_dt":26.66},{"city":"Cloverdale","state_name":"California","lat":38.81792,"lng":-123.02566,"zip":"95425","miles_from_dt":27.5},{"city":"Maxwell","state_name":"California","lat":39.29657,"lng":-122.20454,"zip":"95955","miles_from_dt":27.67},{"city":"Talmage","state_name":"California","lat":39.13013,"lng":-123.1641,"zip":"95481","miles_from_dt":29.16},{"city":"Pope Valley","state_name":"California","lat":38.66342,"lng":-122.4349,"zip":"94567","miles_from_dt":29.75}],"targetCityZipCode":"95423","targetCityState":"California"},"__N_SSG":true}