{"pageProps":{"stateName":"California","cityName":"cloverdale","nearbyCities":[{"city":"Geyserville","state_name":"California","lat":38.73775,"lng":-123.0354,"zip":"95441","miles_from_dt":5.56},{"city":"Hopland","state_name":"California","lat":38.94331,"lng":-123.09653,"zip":"95449","miles_from_dt":9.46},{"city":"Kelseyville","state_name":"California","lat":38.9388,"lng":-122.80484,"zip":"95451","miles_from_dt":14.54},{"city":"Finley","state_name":"California","lat":39.00315,"lng":-122.8748,"zip":"95435","miles_from_dt":15.14},{"city":"Healdsburg","state_name":"California","lat":38.62309,"lng":-122.89089,"zip":"95448","miles_from_dt":15.29},{"city":"Cobb","state_name":"California","lat":38.83449,"lng":-122.7361,"zip":"95426","miles_from_dt":15.67},{"city":"Lakeport","state_name":"California","lat":39.04346,"lng":-122.93918,"zip":"95453","miles_from_dt":16.24},{"city":"Annapolis","state_name":"California","lat":38.71168,"lng":-123.31967,"zip":"95412","miles_from_dt":17.49},{"city":"Yorkville","state_name":"California","lat":38.89646,"lng":-123.34324,"zip":"95494","miles_from_dt":17.97},{"city":"Cazadero","state_name":"California","lat":38.58276,"lng":-123.18037,"zip":"95421","miles_from_dt":18.25},{"city":"Rio Nido","state_name":"California","lat":38.53218,"lng":-122.97362,"zip":"95471","miles_from_dt":19.91},{"city":"Guerneville","state_name":"California","lat":38.52525,"lng":-123.00423,"zip":"95446","miles_from_dt":20.22},{"city":"Stewarts Point","state_name":"California","lat":38.68463,"lng":-123.36802,"zip":"95480","miles_from_dt":20.65},{"city":"Clearlake Park","state_name":"California","lat":38.9688,"lng":-122.66158,"zip":"95424","miles_from_dt":22.22},{"city":"Glenhaven","state_name":"California","lat":39.05013,"lng":-122.73962,"zip":"95443","miles_from_dt":22.23},{"city":"Jenner","state_name":"California","lat":38.5229,"lng":-123.21508,"zip":"95450","miles_from_dt":22.78},{"city":"Talmage","state_name":"California","lat":39.13013,"lng":-123.1641,"zip":"95481","miles_from_dt":22.79},{"city":"Windsor","state_name":"California","lat":38.53052,"lng":-122.81254,"zip":"95492","miles_from_dt":22.93},{"city":"Boonville","state_name":"California","lat":39.0205,"lng":-123.36751,"zip":"95415","miles_from_dt":23.12},{"city":"Forestville","state_name":"California","lat":38.49108,"lng":-122.91425,"zip":"95436","miles_from_dt":23.34},{"city":"Nice","state_name":"California","lat":39.12736,"lng":-122.84733,"zip":"95464","miles_from_dt":23.41},{"city":"Clearlake","state_name":"California","lat":38.97829,"lng":-122.6423,"zip":"95422","miles_from_dt":23.44},{"city":"Middletown","state_name":"California","lat":38.762,"lng":-122.59314,"zip":"95461","miles_from_dt":23.67},{"city":"Villa Grande","state_name":"California","lat":38.4741,"lng":-123.02403,"zip":"95486","miles_from_dt":23.72},{"city":"Monte Rio","state_name":"California","lat":38.47263,"lng":-123.02064,"zip":"95462","miles_from_dt":23.82},{"city":"The Sea Ranch","state_name":"California","lat":38.71976,"lng":-123.45601,"zip":"95497","miles_from_dt":24.21},{"city":"Lucerne","state_name":"California","lat":39.11667,"lng":-122.78204,"zip":"95458","miles_from_dt":24.43},{"city":"Duncans Mills","state_name":"California","lat":38.46279,"lng":-123.04476,"zip":"95430","miles_from_dt":24.52},{"city":"Calpella","state_name":"California","lat":39.15132,"lng":-123.2088,"zip":"95418","miles_from_dt":25.02},{"city":"Gualala","state_name":"California","lat":38.83762,"lng":-123.49404,"zip":"95445","miles_from_dt":25.31},{"city":"Calistoga","state_name":"California","lat":38.62449,"lng":-122.62503,"zip":"94515","miles_from_dt":25.43},{"city":"Hidden Valley Lake","state_name":"California","lat":38.80453,"lng":-122.54948,"zip":"95467","miles_from_dt":25.72},{"city":"Santa Rosa","state_name":"California","lat":38.50326,"lng":-122.75358,"zip":"95403","miles_from_dt":26.22},{"city":"Fulton","state_name":"California","lat":38.49055,"lng":-122.77591,"zip":"95439","miles_from_dt":26.31},{"city":"Ukiah","state_name":"California","lat":39.1618,"lng":-123.23925,"zip":"95482","miles_from_dt":26.36},{"city":"Witter Springs","state_name":"California","lat":39.20241,"lng":-122.97948,"zip":"95493","miles_from_dt":26.64},{"city":"Lower Lake","state_name":"California","lat":38.87967,"lng":-122.52753,"zip":"95457","miles_from_dt":27.21},{"city":"Upper Lake","state_name":"California","lat":39.20828,"lng":-122.9259,"zip":"95485","miles_from_dt":27.46},{"city":"Camp Meeker","state_name":"California","lat":38.42336,"lng":-122.9582,"zip":"95419","miles_from_dt":27.46},{"city":"Clearlake Oaks","state_name":"California","lat":39.06749,"lng":-122.62753,"zip":"95423","miles_from_dt":27.5},{"city":"Graton","state_name":"California","lat":38.43261,"lng":-122.86922,"zip":"95444","miles_from_dt":27.89},{"city":"Santa Rosa","state_name":"California","lat":38.44922,"lng":-122.79307,"zip":"95401","miles_from_dt":28.38},{"city":"Occidental","state_name":"California","lat":38.40556,"lng":-123.01963,"zip":"95465","miles_from_dt":28.45},{"city":"Santa Rosa","state_name":"California","lat":38.45992,"lng":-122.7277,"zip":"95406","miles_from_dt":29.49}],"targetCityZipCode":"95425","targetCityState":"California"},"__N_SSG":true}