{"pageProps":{"stateName":"California","cityName":"discovery-bay","nearbyCities":[{"city":"Byron","state_name":"California","lat":37.83071,"lng":-121.63392,"zip":"94514","miles_from_dt":3.56},{"city":"Tracy","state_name":"California","lat":37.79914,"lng":-121.55177,"zip":"95378","miles_from_dt":5.02},{"city":"Tracy","state_name":"California","lat":37.76952,"lng":-121.5912,"zip":"95391","miles_from_dt":6.68},{"city":"Brentwood","state_name":"California","lat":37.92541,"lng":-121.68452,"zip":"94513","miles_from_dt":6.72},{"city":"Knightsen","state_name":"California","lat":37.97481,"lng":-121.65265,"zip":"94548","miles_from_dt":8.3},{"city":"Holt","state_name":"California","lat":37.92634,"lng":-121.44551,"zip":"95234","miles_from_dt":8.76},{"city":"Stockton","state_name":"California","lat":37.8961,"lng":-121.41051,"zip":"95206","miles_from_dt":9.85},{"city":"Stockton","state_name":"California","lat":37.95595,"lng":-121.44167,"zip":"95208","miles_from_dt":10.05},{"city":"Stockton","state_name":"California","lat":37.95579,"lng":-121.43856,"zip":"95213","miles_from_dt":10.18},{"city":"Oakley","state_name":"California","lat":37.99311,"lng":-121.69172,"zip":"94561","miles_from_dt":10.45},{"city":"Stockton","state_name":"California","lat":37.97294,"lng":-121.44196,"zip":"95214","miles_from_dt":10.8},{"city":"Stockton","state_name":"California","lat":38.0207,"lng":-121.51584,"zip":"95219","miles_from_dt":11.33},{"city":"Bethel Island","state_name":"California","lat":38.02883,"lng":-121.64039,"zip":"94511","miles_from_dt":11.58},{"city":"Livermore","state_name":"California","lat":37.75902,"lng":-121.76026,"zip":"94551","miles_from_dt":12.04},{"city":"Antioch","state_name":"California","lat":37.95665,"lng":-121.77777,"zip":"94531","miles_from_dt":12.15},{"city":"Tracy","state_name":"California","lat":37.73678,"lng":-121.43404,"zip":"95376","miles_from_dt":12.24},{"city":"Antioch","state_name":"California","lat":37.99214,"lng":-121.8142,"zip":"94509","miles_from_dt":15.15},{"city":"Stockton","state_name":"California","lat":37.95237,"lng":-121.33098,"zip":"95203","miles_from_dt":15.18},{"city":"Lathrop","state_name":"California","lat":37.8117,"lng":-121.31331,"zip":"95330","miles_from_dt":15.43},{"city":"Tracy","state_name":"California","lat":37.65293,"lng":-121.49598,"zip":"95377","miles_from_dt":15.54},{"city":"French Camp","state_name":"California","lat":37.87331,"lng":-121.29272,"zip":"95231","miles_from_dt":16.09},{"city":"Clayton","state_name":"California","lat":37.8926,"lng":-121.88252,"zip":"94517","miles_from_dt":16.27},{"city":"Stockton","state_name":"California","lat":37.97403,"lng":-121.31906,"zip":"95204","miles_from_dt":16.4},{"city":"Tracy","state_name":"California","lat":37.6773,"lng":-121.3948,"zip":"95304","miles_from_dt":16.75},{"city":"Stockton","state_name":"California","lat":37.97084,"lng":-121.30788,"zip":"95297","miles_from_dt":16.86},{"city":"Stockton","state_name":"California","lat":37.98078,"lng":-121.31198,"zip":"95211","miles_from_dt":16.96},{"city":"Stockton","state_name":"California","lat":38.00242,"lng":-121.325,"zip":"95207","miles_from_dt":17.1},{"city":"Stockton","state_name":"California","lat":38.00382,"lng":-121.31904,"zip":"95267","miles_from_dt":17.43},{"city":"Stockton","state_name":"California","lat":37.95968,"lng":-121.28772,"zip":"95202","miles_from_dt":17.56},{"city":"Danville","state_name":"California","lat":37.80862,"lng":-121.90498,"zip":"94506","miles_from_dt":17.85},{"city":"Stockton","state_name":"California","lat":38.01899,"lng":-121.32225,"zip":"95269","miles_from_dt":17.88},{"city":"Stockton","state_name":"California","lat":38.04717,"lng":-121.35121,"zip":"95209","miles_from_dt":17.92},{"city":"Pleasanton","state_name":"California","lat":37.73801,"lng":-121.88178,"zip":"94588","miles_from_dt":18.41},{"city":"Stockton","state_name":"California","lat":37.96425,"lng":-121.25955,"zip":"95205","miles_from_dt":19.11},{"city":"Stockton","state_name":"California","lat":38.02598,"lng":-121.29727,"zip":"95296","miles_from_dt":19.27},{"city":"San Ramon","state_name":"California","lat":37.76357,"lng":-121.91469,"zip":"94582","miles_from_dt":19.29},{"city":"Stockton","state_name":"California","lat":38.03215,"lng":-121.29782,"zip":"95210","miles_from_dt":19.49},{"city":"Isleton","state_name":"California","lat":38.15046,"lng":-121.60271,"zip":"95641","miles_from_dt":19.61},{"city":"Stockton","state_name":"California","lat":37.90688,"lng":-121.2234,"zip":"95201","miles_from_dt":20.06},{"city":"Dublin","state_name":"California","lat":37.71596,"lng":-121.90113,"zip":"94568","miles_from_dt":20.09},{"city":"Diablo","state_name":"California","lat":37.84149,"lng":-121.95819,"zip":"94528","miles_from_dt":20.38},{"city":"Manteca","state_name":"California","lat":37.74171,"lng":-121.23834,"zip":"95337","miles_from_dt":20.92},{"city":"Pleasanton","state_name":"California","lat":37.65032,"lng":-121.85881,"zip":"94566","miles_from_dt":21.07},{"city":"Pittsburg","state_name":"California","lat":38.00926,"lng":-121.92886,"zip":"94565","miles_from_dt":21.12},{"city":"Lodi","state_name":"California","lat":38.13204,"lng":-121.38875,"zip":"95242","miles_from_dt":21.27},{"city":"Manteca","state_name":"California","lat":37.83351,"lng":-121.1988,"zip":"95336","miles_from_dt":21.34},{"city":"Walnut Creek","state_name":"California","lat":37.89238,"lng":-121.98283,"zip":"94598","miles_from_dt":21.72},{"city":"Concord","state_name":"California","lat":37.95293,"lng":-121.96971,"zip":"94521","miles_from_dt":21.76},{"city":"Rio Vista","state_name":"California","lat":38.1566,"lng":-121.7482,"zip":"94571","miles_from_dt":21.87},{"city":"Danville","state_name":"California","lat":37.81472,"lng":-121.98451,"zip":"94526","miles_from_dt":22.04},{"city":"Birds Landing","state_name":"California","lat":38.1263,"lng":-121.83793,"zip":"94512","miles_from_dt":22.57},{"city":"Alamo","state_name":"California","lat":37.85429,"lng":-122.00664,"zip":"94507","miles_from_dt":22.97},{"city":"Thornton","state_name":"California","lat":38.19039,"lng":-121.48543,"zip":"95686","miles_from_dt":23.02},{"city":"San Ramon","state_name":"California","lat":37.77245,"lng":-121.99157,"zip":"94583","miles_from_dt":23.07},{"city":"Stockton","state_name":"California","lat":38.04897,"lng":-121.22684,"zip":"95212","miles_from_dt":23.34},{"city":"Livermore","state_name":"California","lat":37.51746,"lng":-121.59406,"zip":"94550","miles_from_dt":24.07},{"city":"Stockton","state_name":"California","lat":37.9444,"lng":-121.15276,"zip":"95215","miles_from_dt":24.32},{"city":"Concord","state_name":"California","lat":37.95052,"lng":-122.02209,"zip":"94518","miles_from_dt":24.48},{"city":"Walnut Creek","state_name":"California","lat":37.88902,"lng":-122.03676,"zip":"94596","miles_from_dt":24.65},{"city":"Concord","state_name":"California","lat":37.98881,"lng":-122.01275,"zip":"94519","miles_from_dt":24.75},{"city":"Lodi","state_name":"California","lat":38.15244,"lng":-121.30635,"zip":"95241","miles_from_dt":24.97},{"city":"Sunol","state_name":"California","lat":37.57327,"lng":-121.85472,"zip":"94586","miles_from_dt":24.98},{"city":"Concord","state_name":"California","lat":37.87462,"lng":-122.04724,"zip":"94529","miles_from_dt":25.18},{"city":"Walnut Grove","state_name":"California","lat":38.23429,"lng":-121.58672,"zip":"95690","miles_from_dt":25.37},{"city":"Vernalis","state_name":"California","lat":37.612,"lng":-121.24773,"zip":"95385","miles_from_dt":25.55},{"city":"Woodbridge","state_name":"California","lat":38.16811,"lng":-121.31011,"zip":"95258","miles_from_dt":25.71},{"city":"Ryde","state_name":"California","lat":38.24142,"lng":-121.57816,"zip":"95680","miles_from_dt":25.87},{"city":"Castro Valley","state_name":"California","lat":37.70456,"lng":-122.01359,"zip":"94552","miles_from_dt":25.89},{"city":"Concord","state_name":"California","lat":38.01535,"lng":-122.02331,"zip":"94522","miles_from_dt":25.96},{"city":"Concord","state_name":"California","lat":37.99344,"lng":-122.03532,"zip":"94520","miles_from_dt":26.02},{"city":"Ripon","state_name":"California","lat":37.76223,"lng":-121.12574,"zip":"95366","miles_from_dt":26.23},{"city":"Walnut Creek","state_name":"California","lat":37.87206,"lng":-122.06892,"zip":"94595","miles_from_dt":26.36},{"city":"Walnut Creek","state_name":"California","lat":37.91768,"lng":-122.0718,"zip":"94597","miles_from_dt":26.74},{"city":"Concord","state_name":"California","lat":37.97662,"lng":-122.0564,"zip":"94527","miles_from_dt":26.76},{"city":"Concord","state_name":"California","lat":37.97359,"lng":-122.05763,"zip":"94524","miles_from_dt":26.77},{"city":"Pleasant Hill","state_name":"California","lat":37.95403,"lng":-122.07608,"zip":"94523","miles_from_dt":27.41},{"city":"Hayward","state_name":"California","lat":37.6553,"lng":-122.02584,"zip":"94542","miles_from_dt":28.1},{"city":"Moraga","state_name":"California","lat":37.83102,"lng":-122.10425,"zip":"94556","miles_from_dt":28.4},{"city":"Westley","state_name":"California","lat":37.55429,"lng":-121.2451,"zip":"95387","miles_from_dt":28.53},{"city":"Moraga","state_name":"California","lat":37.84235,"lng":-122.11012,"zip":"94575","miles_from_dt":28.67},{"city":"Victor","state_name":"California","lat":38.14725,"lng":-121.19525,"zip":"95253","miles_from_dt":28.84},{"city":"Lodi","state_name":"California","lat":38.1177,"lng":-121.1627,"zip":"95240","miles_from_dt":28.92},{"city":"Castro Valley","state_name":"California","lat":37.73441,"lng":-122.09056,"zip":"94546","miles_from_dt":29.03},{"city":"Salida","state_name":"California","lat":37.71544,"lng":-121.09047,"zip":"95368","miles_from_dt":29.09},{"city":"Lafayette","state_name":"California","lat":37.90133,"lng":-122.11933,"zip":"94549","miles_from_dt":29.21},{"city":"Moraga","state_name":"California","lat":37.85928,"lng":-122.1252,"zip":"94570","miles_from_dt":29.44},{"city":"Suisun City","state_name":"California","lat":38.19061,"lng":-121.94216,"zip":"94585","miles_from_dt":29.6},{"city":"Acampo","state_name":"California","lat":38.19779,"lng":-121.23603,"zip":"95220","miles_from_dt":29.81},{"city":"Fremont","state_name":"California","lat":37.57072,"lng":-121.98555,"zip":"94536","miles_from_dt":29.88}],"targetCityZipCode":"94505","targetCityState":"California"},"__N_SSG":true}