{"pageProps":{"stateName":"California","cityName":"escalon","nearbyCities":[{"city":"Modesto","state_name":"California","lat":37.71945,"lng":-121.02786,"zip":"95356","miles_from_dt":7.28},{"city":"Ripon","state_name":"California","lat":37.76223,"lng":-121.12574,"zip":"95366","miles_from_dt":7.41},{"city":"Riverbank","state_name":"California","lat":37.73089,"lng":-120.94669,"zip":"95367","miles_from_dt":7.47},{"city":"Salida","state_name":"California","lat":37.71544,"lng":-121.09047,"zip":"95368","miles_from_dt":8.57},{"city":"Manteca","state_name":"California","lat":37.83351,"lng":-121.1988,"zip":"95336","miles_from_dt":10.05},{"city":"Modesto","state_name":"California","lat":37.67175,"lng":-121.00732,"zip":"95350","miles_from_dt":10.55},{"city":"Modesto","state_name":"California","lat":37.6727,"lng":-120.94717,"zip":"95355","miles_from_dt":11.12},{"city":"Modesto","state_name":"California","lat":37.66337,"lng":-120.99458,"zip":"95352","miles_from_dt":11.17},{"city":"Stockton","state_name":"California","lat":37.9444,"lng":-121.15276,"zip":"95215","miles_from_dt":11.17},{"city":"Modesto","state_name":"California","lat":37.66077,"lng":-120.99343,"zip":"95397","miles_from_dt":11.36},{"city":"Modesto","state_name":"California","lat":37.66541,"lng":-120.94414,"zip":"95353","miles_from_dt":11.65},{"city":"Stockton","state_name":"California","lat":37.90688,"lng":-121.2234,"zip":"95201","miles_from_dt":12.71},{"city":"Modesto","state_name":"California","lat":37.66985,"lng":-120.87924,"zip":"95357","miles_from_dt":13.02},{"city":"Modesto","state_name":"California","lat":37.63849,"lng":-120.96428,"zip":"95354","miles_from_dt":13.13},{"city":"Farmington","state_name":"California","lat":37.97361,"lng":-120.86492,"zip":"95230","miles_from_dt":13.17},{"city":"Oakdale","state_name":"California","lat":37.79342,"lng":-120.77654,"zip":"95361","miles_from_dt":13.25},{"city":"Manteca","state_name":"California","lat":37.74171,"lng":-121.23834,"zip":"95337","miles_from_dt":13.47},{"city":"Modesto","state_name":"California","lat":37.6236,"lng":-120.99828,"zip":"95351","miles_from_dt":13.89},{"city":"Linden","state_name":"California","lat":38.04218,"lng":-121.03176,"zip":"95236","miles_from_dt":15.04},{"city":"Modesto","state_name":"California","lat":37.61578,"lng":-121.10059,"zip":"95358","miles_from_dt":15.13},{"city":"Empire","state_name":"California","lat":37.6309,"lng":-120.87728,"zip":"95319","miles_from_dt":15.35},{"city":"French Camp","state_name":"California","lat":37.87331,"lng":-121.29272,"zip":"95231","miles_from_dt":15.53},{"city":"Lathrop","state_name":"California","lat":37.8117,"lng":-121.31331,"zip":"95330","miles_from_dt":16.32},{"city":"Stockton","state_name":"California","lat":37.96425,"lng":-121.25955,"zip":"95205","miles_from_dt":16.46},{"city":"Stockton","state_name":"California","lat":37.95968,"lng":-121.28772,"zip":"95202","miles_from_dt":17.56},{"city":"Hughson","state_name":"California","lat":37.58998,"lng":-120.8531,"zip":"95326","miles_from_dt":18.46},{"city":"Ceres","state_name":"California","lat":37.55582,"lng":-120.95385,"zip":"95307","miles_from_dt":18.84},{"city":"Stockton","state_name":"California","lat":37.97084,"lng":-121.30788,"zip":"95297","miles_from_dt":18.9},{"city":"Keyes","state_name":"California","lat":37.55797,"lng":-120.90932,"zip":"95328","miles_from_dt":19.28},{"city":"Stockton","state_name":"California","lat":38.04897,"lng":-121.22684,"zip":"95212","miles_from_dt":19.31},{"city":"Stockton","state_name":"California","lat":37.95237,"lng":-121.33098,"zip":"95203","miles_from_dt":19.37},{"city":"Vernalis","state_name":"California","lat":37.612,"lng":-121.24773,"zip":"95385","miles_from_dt":19.41},{"city":"Stockton","state_name":"California","lat":37.98078,"lng":-121.31198,"zip":"95211","miles_from_dt":19.46},{"city":"Stockton","state_name":"California","lat":37.97403,"lng":-121.31906,"zip":"95204","miles_from_dt":19.54},{"city":"Copperopolis","state_name":"California","lat":37.94669,"lng":-120.68067,"zip":"95228","miles_from_dt":20.15},{"city":"Stockton","state_name":"California","lat":38.00382,"lng":-121.31904,"zip":"95267","miles_from_dt":20.69},{"city":"Stockton","state_name":"California","lat":38.02598,"lng":-121.29727,"zip":"95296","miles_from_dt":20.74},{"city":"Stockton","state_name":"California","lat":38.00242,"lng":-121.325,"zip":"95207","miles_from_dt":20.9},{"city":"Stockton","state_name":"California","lat":38.03215,"lng":-121.29782,"zip":"95210","miles_from_dt":21.05},{"city":"Stockton","state_name":"California","lat":38.01899,"lng":-121.32225,"zip":"95269","miles_from_dt":21.47},{"city":"Lodi","state_name":"California","lat":38.1177,"lng":-121.1627,"zip":"95240","miles_from_dt":21.76},{"city":"Stockton","state_name":"California","lat":37.8961,"lng":-121.41051,"zip":"95206","miles_from_dt":22.16},{"city":"Turlock","state_name":"California","lat":37.52831,"lng":-120.85214,"zip":"95382","miles_from_dt":22.3},{"city":"Westley","state_name":"California","lat":37.55429,"lng":-121.2451,"zip":"95387","miles_from_dt":22.49},{"city":"Tracy","state_name":"California","lat":37.6773,"lng":-121.3948,"zip":"95304","miles_from_dt":23.12},{"city":"Hickman","state_name":"California","lat":37.60881,"lng":-120.68464,"zip":"95323","miles_from_dt":23.45},{"city":"Waterford","state_name":"California","lat":37.67391,"lng":-120.63045,"zip":"95386","miles_from_dt":23.5},{"city":"Tracy","state_name":"California","lat":37.73678,"lng":-121.43404,"zip":"95376","miles_from_dt":23.7},{"city":"Stockton","state_name":"California","lat":38.04717,"lng":-121.35121,"zip":"95209","miles_from_dt":23.92},{"city":"Turlock","state_name":"California","lat":37.4964,"lng":-120.85868,"zip":"95381","miles_from_dt":24.21},{"city":"Lockeford","state_name":"California","lat":38.15953,"lng":-121.14845,"zip":"95237","miles_from_dt":24.22},{"city":"Victor","state_name":"California","lat":38.14725,"lng":-121.19525,"zip":"95253","miles_from_dt":24.33},{"city":"Holt","state_name":"California","lat":37.92634,"lng":-121.44551,"zip":"95234","miles_from_dt":24.54},{"city":"Stockton","state_name":"California","lat":37.95579,"lng":-121.43856,"zip":"95213","miles_from_dt":24.84},{"city":"Valley Springs","state_name":"California","lat":38.15871,"lng":-120.84214,"zip":"95252","miles_from_dt":24.91},{"city":"Stockton","state_name":"California","lat":37.95595,"lng":-121.44167,"zip":"95208","miles_from_dt":25},{"city":"Stockton","state_name":"California","lat":37.97294,"lng":-121.44196,"zip":"95214","miles_from_dt":25.46},{"city":"Turlock","state_name":"California","lat":37.47226,"lng":-120.86978,"zip":"95380","miles_from_dt":25.57},{"city":"Denair","state_name":"California","lat":37.54613,"lng":-120.69212,"zip":"95316","miles_from_dt":26.13},{"city":"Wallace","state_name":"California","lat":38.20323,"lng":-120.95857,"zip":"95254","miles_from_dt":26.3},{"city":"Clements","state_name":"California","lat":38.20678,"lng":-121.04615,"zip":"95227","miles_from_dt":26.42},{"city":"Crows Landing","state_name":"California","lat":37.43511,"lng":-121.03769,"zip":"95313","miles_from_dt":26.88},{"city":"Angels Camp","state_name":"California","lat":38.06127,"lng":-120.61791,"zip":"95222","miles_from_dt":27.17},{"city":"Burson","state_name":"California","lat":38.20399,"lng":-120.86488,"zip":"95225","miles_from_dt":27.43},{"city":"Lodi","state_name":"California","lat":38.15244,"lng":-121.30635,"zip":"95241","miles_from_dt":27.63},{"city":"Acampo","state_name":"California","lat":38.19779,"lng":-121.23603,"zip":"95220","miles_from_dt":28.42},{"city":"Woodbridge","state_name":"California","lat":38.16811,"lng":-121.31011,"zip":"95258","miles_from_dt":28.64},{"city":"Tracy","state_name":"California","lat":37.65293,"lng":-121.49598,"zip":"95377","miles_from_dt":28.86},{"city":"Jamestown","state_name":"California","lat":37.84912,"lng":-120.4858,"zip":"95327","miles_from_dt":29.02},{"city":"Tracy","state_name":"California","lat":37.79914,"lng":-121.55177,"zip":"95378","miles_from_dt":29.4},{"city":"Lodi","state_name":"California","lat":38.13204,"lng":-121.38875,"zip":"95242","miles_from_dt":29.41},{"city":"Campo Seco","state_name":"California","lat":38.23377,"lng":-120.86232,"zip":"95226","miles_from_dt":29.44}],"targetCityZipCode":"95320","targetCityState":"California"},"__N_SSG":true}