{"pageProps":{"stateName":"California","cityName":"fresno","nearbyCities":[{"city":"Fresno","state_name":"California","lat":36.83872,"lng":-119.78801,"zip":"93750","miles_from_dt":0.69},{"city":"Fresno","state_name":"California","lat":36.83387,"lng":-119.82897,"zip":"93765","miles_from_dt":1.64},{"city":"Fresno","state_name":"California","lat":36.83508,"lng":-119.83309,"zip":"93711","miles_from_dt":1.85},{"city":"Fresno","state_name":"California","lat":36.85244,"lng":-119.76557,"zip":"93729","miles_from_dt":2.1},{"city":"Fresno","state_name":"California","lat":36.82335,"lng":-119.76251,"zip":"93710","miles_from_dt":2.4},{"city":"Fresno","state_name":"California","lat":36.8606,"lng":-119.76228,"zip":"93720","miles_from_dt":2.53},{"city":"Fresno","state_name":"California","lat":36.80012,"lng":-119.80202,"zip":"93704","miles_from_dt":2.77},{"city":"Fresno","state_name":"California","lat":36.81638,"lng":-119.74613,"zip":"93740","miles_from_dt":3.43},{"city":"Fresno","state_name":"California","lat":36.78737,"lng":-119.79352,"zip":"93755","miles_from_dt":3.67},{"city":"Fresno","state_name":"California","lat":36.79032,"lng":-119.82979,"zip":"93791","miles_from_dt":3.81},{"city":"Fresno","state_name":"California","lat":36.78944,"lng":-119.82761,"zip":"93790","miles_from_dt":3.82},{"city":"Fresno","state_name":"California","lat":36.79374,"lng":-119.76161,"zip":"93726","miles_from_dt":3.86},{"city":"Fresno","state_name":"California","lat":36.78797,"lng":-119.8295,"zip":"93794","miles_from_dt":3.95},{"city":"Fresno","state_name":"California","lat":36.78667,"lng":-119.82851,"zip":"93705","miles_from_dt":4.01},{"city":"Fresno","state_name":"California","lat":36.78717,"lng":-119.83021,"zip":"93793","miles_from_dt":4.02},{"city":"Fresno","state_name":"California","lat":36.7813,"lng":-119.82717,"zip":"93792","miles_from_dt":4.33},{"city":"Fresno","state_name":"California","lat":36.76742,"lng":-119.79602,"zip":"93741","miles_from_dt":5.03},{"city":"Fresno","state_name":"California","lat":36.90354,"lng":-119.75512,"zip":"93730","miles_from_dt":5.03},{"city":"Fresno","state_name":"California","lat":36.80003,"lng":-119.87791,"zip":"93722","miles_from_dt":5.12},{"city":"Clovis","state_name":"California","lat":36.81548,"lng":-119.71076,"zip":"93612","miles_from_dt":5.25},{"city":"Fresno","state_name":"California","lat":36.76884,"lng":-119.76249,"zip":"93703","miles_from_dt":5.35},{"city":"Fresno","state_name":"California","lat":36.75868,"lng":-119.79762,"zip":"93744","miles_from_dt":5.63},{"city":"Fresno","state_name":"California","lat":36.75729,"lng":-119.81816,"zip":"93728","miles_from_dt":5.81},{"city":"Fresno","state_name":"California","lat":36.75166,"lng":-119.78857,"zip":"93761","miles_from_dt":6.14},{"city":"Fresno","state_name":"California","lat":36.75109,"lng":-119.79,"zip":"93777","miles_from_dt":6.18},{"city":"Fresno","state_name":"California","lat":36.7497,"lng":-119.79243,"zip":"93771","miles_from_dt":6.26},{"city":"Fresno","state_name":"California","lat":36.74955,"lng":-119.78772,"zip":"93701","miles_from_dt":6.29},{"city":"Fresno","state_name":"California","lat":36.74804,"lng":-119.79175,"zip":"93772","miles_from_dt":6.38},{"city":"Fresno","state_name":"California","lat":36.74786,"lng":-119.79166,"zip":"93779","miles_from_dt":6.39},{"city":"Fresno","state_name":"California","lat":36.74806,"lng":-119.78873,"zip":"93774","miles_from_dt":6.39},{"city":"Fresno","state_name":"California","lat":36.74746,"lng":-119.79049,"zip":"93778","miles_from_dt":6.42},{"city":"Fresno","state_name":"California","lat":36.74636,"lng":-119.79049,"zip":"93776","miles_from_dt":6.5},{"city":"Clovis","state_name":"California","lat":36.82552,"lng":-119.68115,"zip":"93611","miles_from_dt":6.69},{"city":"Fresno","state_name":"California","lat":36.80321,"lng":-119.67992,"zip":"93747","miles_from_dt":7.15},{"city":"Fresno","state_name":"California","lat":36.73626,"lng":-119.78251,"zip":"93708","miles_from_dt":7.24},{"city":"Fresno","state_name":"California","lat":36.73518,"lng":-119.78563,"zip":"93714","miles_from_dt":7.29},{"city":"Fresno","state_name":"California","lat":36.73581,"lng":-119.77876,"zip":"93760","miles_from_dt":7.3},{"city":"Fresno","state_name":"California","lat":36.73497,"lng":-119.7823,"zip":"93718","miles_from_dt":7.33},{"city":"Fresno","state_name":"California","lat":36.73402,"lng":-119.79206,"zip":"93717","miles_from_dt":7.34},{"city":"Fresno","state_name":"California","lat":36.73413,"lng":-119.78463,"zip":"93764","miles_from_dt":7.37},{"city":"Fresno","state_name":"California","lat":36.73942,"lng":-119.75422,"zip":"93702","miles_from_dt":7.41},{"city":"Fresno","state_name":"California","lat":36.73304,"lng":-119.78475,"zip":"93715","miles_from_dt":7.44},{"city":"Fresno","state_name":"California","lat":36.73282,"lng":-119.78383,"zip":"93721","miles_from_dt":7.47},{"city":"Fresno","state_name":"California","lat":36.7316,"lng":-119.78469,"zip":"93709","miles_from_dt":7.54},{"city":"Fresno","state_name":"California","lat":36.73103,"lng":-119.78648,"zip":"93716","miles_from_dt":7.57},{"city":"Fresno","state_name":"California","lat":36.73027,"lng":-119.78694,"zip":"93707","miles_from_dt":7.62},{"city":"Fresno","state_name":"California","lat":36.72523,"lng":-119.79448,"zip":"93724","miles_from_dt":7.94},{"city":"Fresno","state_name":"California","lat":36.733,"lng":-119.74711,"zip":"93775","miles_from_dt":7.96},{"city":"Fresno","state_name":"California","lat":36.75119,"lng":-119.69736,"zip":"93727","miles_from_dt":8.39},{"city":"Fresno","state_name":"California","lat":36.71998,"lng":-119.85805,"zip":"93773","miles_from_dt":8.89},{"city":"Fresno","state_name":"California","lat":36.7536,"lng":-119.67814,"zip":"93888","miles_from_dt":9.04},{"city":"Fresno","state_name":"California","lat":36.78693,"lng":-119.95271,"zip":"93723","miles_from_dt":9.21},{"city":"Fresno","state_name":"California","lat":36.75363,"lng":-119.67343,"zip":"93844","miles_from_dt":9.23},{"city":"Clovis","state_name":"California","lat":36.79785,"lng":-119.6406,"zip":"93613","miles_from_dt":9.33},{"city":"Fresno","state_name":"California","lat":36.70705,"lng":-119.7535,"zip":"93745","miles_from_dt":9.55},{"city":"Fresno","state_name":"California","lat":36.75358,"lng":-119.6456,"zip":"93737","miles_from_dt":10.46},{"city":"Madera","state_name":"California","lat":36.98171,"lng":-119.87706,"zip":"93636","miles_from_dt":10.64},{"city":"Biola","state_name":"California","lat":36.79871,"lng":-120.01625,"zip":"93606","miles_from_dt":12.31},{"city":"Clovis","state_name":"California","lat":36.91656,"lng":-119.57372,"zip":"93619","miles_from_dt":13.61},{"city":"Fresno","state_name":"California","lat":36.65344,"lng":-119.90216,"zip":"93706","miles_from_dt":14.07},{"city":"Friant","state_name":"California","lat":37.03278,"lng":-119.68601,"zip":"93626","miles_from_dt":14.71},{"city":"Fresno","state_name":"California","lat":36.63864,"lng":-119.90311,"zip":"93786","miles_from_dt":15.03},{"city":"Fresno","state_name":"California","lat":36.62667,"lng":-119.73501,"zip":"93725","miles_from_dt":15.17},{"city":"Fresno","state_name":"California","lat":36.61095,"lng":-119.774,"zip":"93712","miles_from_dt":15.88},{"city":"Fowler","state_name":"California","lat":36.62423,"lng":-119.67173,"zip":"93625","miles_from_dt":16.52},{"city":"Del Rey","state_name":"California","lat":36.65468,"lng":-119.59437,"zip":"93616","miles_from_dt":17.16},{"city":"Raisin City","state_name":"California","lat":36.59502,"lng":-119.90458,"zip":"93652","miles_from_dt":17.87},{"city":"Madera","state_name":"California","lat":36.96478,"lng":-120.08456,"zip":"93639","miles_from_dt":17.93},{"city":"Prather","state_name":"California","lat":37.00296,"lng":-119.521,"zip":"93651","miles_from_dt":19.11},{"city":"Madera","state_name":"California","lat":37.0424,"lng":-120.03816,"zip":"93638","miles_from_dt":19.17},{"city":"Kerman","state_name":"California","lat":36.71831,"lng":-120.12912,"zip":"93630","miles_from_dt":20.08},{"city":"Sanger","state_name":"California","lat":36.78853,"lng":-119.4378,"zip":"93657","miles_from_dt":20.42},{"city":"Parlier","state_name":"California","lat":36.6206,"lng":-119.52062,"zip":"93648","miles_from_dt":21.69},{"city":"Caruthers","state_name":"California","lat":36.52616,"lng":-119.86388,"zip":"93609","miles_from_dt":21.94},{"city":"Madera","state_name":"California","lat":36.91099,"lng":-120.1922,"zip":"93637","miles_from_dt":22.25},{"city":"Selma","state_name":"California","lat":36.53963,"lng":-119.64287,"zip":"93662","miles_from_dt":22.5},{"city":"O'Neals","state_name":"California","lat":37.1641,"lng":-119.61824,"zip":"93645","miles_from_dt":24.5},{"city":"Piedra","state_name":"California","lat":36.824,"lng":-119.35505,"zip":"93649","miles_from_dt":24.71},{"city":"Reedley","state_name":"California","lat":36.65747,"lng":-119.402,"zip":"93654","miles_from_dt":25.45},{"city":"San Joaquin","state_name":"California","lat":36.60932,"lng":-120.16514,"zip":"93660","miles_from_dt":25.76},{"city":"Coarsegold","state_name":"California","lat":37.21282,"lng":-119.72659,"zip":"93614","miles_from_dt":26.01},{"city":"Burrel","state_name":"California","lat":36.48833,"lng":-119.98417,"zip":"93607","miles_from_dt":26.33},{"city":"Laton","state_name":"California","lat":36.44115,"lng":-119.73024,"zip":"93242","miles_from_dt":27.79},{"city":"Riverdale","state_name":"California","lat":36.45173,"lng":-119.93615,"zip":"93656","miles_from_dt":27.83},{"city":"Helm","state_name":"California","lat":36.51568,"lng":-120.10635,"zip":"93627","miles_from_dt":28.1},{"city":"Auberry","state_name":"California","lat":37.0644,"lng":-119.37484,"zip":"93602","miles_from_dt":28.17},{"city":"Tollhouse","state_name":"California","lat":36.96585,"lng":-119.31511,"zip":"93667","miles_from_dt":28.23},{"city":"Raymond","state_name":"California","lat":37.24769,"lng":-119.91882,"zip":"93653","miles_from_dt":28.85},{"city":"Kingsburg","state_name":"California","lat":36.47653,"lng":-119.52131,"zip":"93631","miles_from_dt":29.49},{"city":"Tranquillity","state_name":"California","lat":36.65663,"lng":-120.28997,"zip":"93668","miles_from_dt":29.97}],"targetCityZipCode":"93650","targetCityState":"California"},"__N_SSG":true}