{"pageProps":{"stateName":"California","cityName":"huntington-park","nearbyCities":[{"city":"Los Angeles","state_name":"California","lat":34.00264,"lng":-118.21452,"zip":"90058","miles_from_dt":1.78},{"city":"Los Angeles","state_name":"California","lat":33.97365,"lng":-118.24904,"zip":"90001","miles_from_dt":1.84},{"city":"Maywood","state_name":"California","lat":33.98856,"lng":-118.18774,"zip":"90270","miles_from_dt":1.87},{"city":"Los Angeles","state_name":"California","lat":33.9783,"lng":-118.25891,"zip":"90052","miles_from_dt":2.39},{"city":"Los Angeles","state_name":"California","lat":33.94906,"lng":-118.24679,"zip":"90002","miles_from_dt":2.56},{"city":"South Gate","state_name":"California","lat":33.94453,"lng":-118.19256,"zip":"90280","miles_from_dt":2.65},{"city":"Los Angeles","state_name":"California","lat":33.967,"lng":-118.17219,"zip":"90096","miles_from_dt":2.68},{"city":"Bell Gardens","state_name":"California","lat":33.97113,"lng":-118.1709,"zip":"90201","miles_from_dt":2.69},{"city":"Los Angeles","state_name":"California","lat":34.00689,"lng":-118.25861,"zip":"90011","miles_from_dt":3.14},{"city":"Los Angeles","state_name":"California","lat":34.02264,"lng":-118.19986,"zip":"90023","miles_from_dt":3.3},{"city":"Los Angeles","state_name":"California","lat":33.96409,"lng":-118.27368,"zip":"90003","miles_from_dt":3.36},{"city":"Bell","state_name":"California","lat":33.96992,"lng":-118.15235,"zip":"90202","miles_from_dt":3.76},{"city":"Lynwood","state_name":"California","lat":33.92384,"lng":-118.20133,"zip":"90262","miles_from_dt":3.77},{"city":"Los Angeles","state_name":"California","lat":34.02909,"lng":-118.23889,"zip":"90021","miles_from_dt":3.8},{"city":"Los Angeles","state_name":"California","lat":33.92709,"lng":-118.2491,"zip":"90059","miles_from_dt":3.89},{"city":"Los Angeles","state_name":"California","lat":34.00055,"lng":-118.27907,"zip":"90082","miles_from_dt":3.9},{"city":"Los Angeles","state_name":"California","lat":33.98966,"lng":-118.14915,"zip":"90091","miles_from_dt":4.01},{"city":"Los Angeles","state_name":"California","lat":33.99318,"lng":-118.1489,"zip":"90040","miles_from_dt":4.08},{"city":"Los Angeles","state_name":"California","lat":34.00271,"lng":-118.28747,"zip":"90037","miles_from_dt":4.4},{"city":"Compton","state_name":"California","lat":33.91213,"lng":-118.23721,"zip":"90222","miles_from_dt":4.61},{"city":"Los Angeles","state_name":"California","lat":33.95253,"lng":-118.29194,"zip":"90044","miles_from_dt":4.61},{"city":"Los Angeles","state_name":"California","lat":34.02455,"lng":-118.15608,"zip":"90022","miles_from_dt":4.8},{"city":"Los Angeles","state_name":"California","lat":34.04435,"lng":-118.24,"zip":"90013","miles_from_dt":4.82},{"city":"Los Angeles","state_name":"California","lat":34.04058,"lng":-118.25541,"zip":"90079","miles_from_dt":4.9},{"city":"Los Angeles","state_name":"California","lat":34.04302,"lng":-118.25182,"zip":"90014","miles_from_dt":4.97},{"city":"Los Angeles","state_name":"California","lat":34.02158,"lng":-118.2856,"zip":"90089","miles_from_dt":4.98},{"city":"Los Angeles","state_name":"California","lat":34.0452,"lng":-118.18583,"zip":"90063","miles_from_dt":5.04},{"city":"Los Angeles","state_name":"California","lat":33.92037,"lng":-118.27383,"zip":"90061","miles_from_dt":5.08},{"city":"Los Angeles","state_name":"California","lat":34.05117,"lng":-118.21165,"zip":"90033","miles_from_dt":5.12},{"city":"Los Angeles","state_name":"California","lat":34.03932,"lng":-118.26625,"zip":"90015","miles_from_dt":5.14},{"city":"Los Angeles","state_name":"California","lat":34.02819,"lng":-118.28486,"zip":"90007","miles_from_dt":5.25},{"city":"Los Angeles","state_name":"California","lat":34.04754,"lng":-118.25656,"zip":"90055","miles_from_dt":5.36},{"city":"Los Angeles","state_name":"California","lat":33.95456,"lng":-118.30899,"zip":"90047","miles_from_dt":5.49},{"city":"Los Angeles","state_name":"California","lat":34.0035,"lng":-118.30904,"zip":"90062","miles_from_dt":5.58},{"city":"Los Angeles","state_name":"California","lat":34.05565,"lng":-118.24047,"zip":"90053","miles_from_dt":5.58},{"city":"Downey","state_name":"California","lat":33.94076,"lng":-118.1295,"zip":"90241","miles_from_dt":5.62},{"city":"Los Angeles","state_name":"California","lat":34.05239,"lng":-118.25518,"zip":"90071","miles_from_dt":5.64},{"city":"Downey","state_name":"California","lat":33.92216,"lng":-118.14167,"zip":"90242","miles_from_dt":5.75},{"city":"Los Angeles","state_name":"California","lat":34.05937,"lng":-118.23609,"zip":"90054","miles_from_dt":5.78},{"city":"Compton","state_name":"California","lat":33.8925,"lng":-118.22645,"zip":"90223","miles_from_dt":5.85},{"city":"Downey","state_name":"California","lat":33.9564,"lng":-118.11803,"zip":"90240","miles_from_dt":5.87},{"city":"Los Angeles","state_name":"California","lat":34.05306,"lng":-118.26447,"zip":"90017","miles_from_dt":5.9},{"city":"Los Angeles","state_name":"California","lat":34.05513,"lng":-118.26196,"zip":"90088","miles_from_dt":5.97},{"city":"Los Angeles","state_name":"California","lat":34.05258,"lng":-118.26801,"zip":"90074","miles_from_dt":5.97},{"city":"Los Angeles","state_name":"California","lat":34.06207,"lng":-118.2385,"zip":"90030","miles_from_dt":5.99},{"city":"Los Angeles","state_name":"California","lat":34.06294,"lng":-118.23623,"zip":"90099","miles_from_dt":6.02},{"city":"Los Angeles","state_name":"California","lat":34.06274,"lng":-118.24314,"zip":"90051","miles_from_dt":6.1},{"city":"Los Angeles","state_name":"California","lat":34.05652,"lng":-118.26525,"zip":"90084","miles_from_dt":6.14},{"city":"Los Angeles","state_name":"California","lat":34.06438,"lng":-118.24066,"zip":"90087","miles_from_dt":6.17},{"city":"Los Angeles","state_name":"California","lat":34.05701,"lng":-118.26656,"zip":"90081","miles_from_dt":6.2},{"city":"Paramount","state_name":"California","lat":33.89768,"lng":-118.16508,"zip":"90723","miles_from_dt":6.23},{"city":"Los Angeles","state_name":"California","lat":34.06636,"lng":-118.23972,"zip":"90086","miles_from_dt":6.29},{"city":"Los Angeles","state_name":"California","lat":34.06679,"lng":-118.23878,"zip":"90012","miles_from_dt":6.31},{"city":"Compton","state_name":"California","lat":33.88542,"lng":-118.20614,"zip":"90221","miles_from_dt":6.34},{"city":"Monterey Park","state_name":"California","lat":34.051,"lng":-118.14451,"zip":"91754","miles_from_dt":6.59},{"city":"Los Angeles","state_name":"California","lat":34.04807,"lng":-118.29411,"zip":"90006","miles_from_dt":6.59},{"city":"Montebello","state_name":"California","lat":34.01506,"lng":-118.111,"zip":"90640","miles_from_dt":6.64},{"city":"Inglewood","state_name":"California","lat":33.9583,"lng":-118.33113,"zip":"90305","miles_from_dt":6.67},{"city":"Compton","state_name":"California","lat":33.88058,"lng":-118.23591,"zip":"90220","miles_from_dt":6.73},{"city":"Downey","state_name":"California","lat":33.93242,"lng":-118.11284,"zip":"90239","miles_from_dt":6.74},{"city":"Los Angeles","state_name":"California","lat":34.0286,"lng":-118.31737,"zip":"90018","miles_from_dt":6.76},{"city":"Los Angeles","state_name":"California","lat":34.06205,"lng":-118.27704,"zip":"90057","miles_from_dt":6.79},{"city":"Inglewood","state_name":"California","lat":33.92776,"lng":-118.31992,"zip":"90310","miles_from_dt":6.8},{"city":"Los Angeles","state_name":"California","lat":33.98876,"lng":-118.33519,"zip":"90043","miles_from_dt":6.82},{"city":"Pico Rivera","state_name":"California","lat":33.96941,"lng":-118.09848,"zip":"90662","miles_from_dt":6.84},{"city":"Monterey Park","state_name":"California","lat":34.04756,"lng":-118.1328,"zip":"91756","miles_from_dt":6.87},{"city":"Inglewood","state_name":"California","lat":33.93601,"lng":-118.33112,"zip":"90303","miles_from_dt":7.12},{"city":"Los Angeles","state_name":"California","lat":34.08122,"lng":-118.21081,"zip":"90031","miles_from_dt":7.19},{"city":"Pico Rivera","state_name":"California","lat":33.98868,"lng":-118.09111,"zip":"90660","miles_from_dt":7.29},{"city":"Los Angeles","state_name":"California","lat":34.0793,"lng":-118.17835,"zip":"90032","miles_from_dt":7.4},{"city":"Gardena","state_name":"California","lat":33.89159,"lng":-118.29735,"zip":"90247","miles_from_dt":7.47},{"city":"Los Angeles","state_name":"California","lat":34.07883,"lng":-118.2637,"zip":"90026","miles_from_dt":7.51},{"city":"Los Angeles","state_name":"California","lat":34.01037,"lng":-118.3428,"zip":"90008","miles_from_dt":7.57},{"city":"Monterey Park","state_name":"California","lat":34.04832,"lng":-118.11496,"zip":"91755","miles_from_dt":7.66},{"city":"Inglewood","state_name":"California","lat":33.96082,"lng":-118.35013,"zip":"90306","miles_from_dt":7.71},{"city":"Inglewood","state_name":"California","lat":33.96063,"lng":-118.35022,"zip":"90312","miles_from_dt":7.72},{"city":"Gardena","state_name":"California","lat":33.90152,"lng":-118.31707,"zip":"90249","miles_from_dt":7.74},{"city":"Los Angeles","state_name":"California","lat":34.05939,"lng":-118.30909,"zip":"90005","miles_from_dt":7.75},{"city":"Compton","state_name":"California","lat":33.87197,"lng":-118.26677,"zip":"90224","miles_from_dt":7.78},{"city":"Inglewood","state_name":"California","lat":33.96045,"lng":-118.35147,"zip":"90308","miles_from_dt":7.79},{"city":"Gardena","state_name":"California","lat":33.87689,"lng":-118.28362,"zip":"90248","miles_from_dt":7.88},{"city":"Alhambra","state_name":"California","lat":34.0749,"lng":-118.14624,"zip":"91803","miles_from_dt":7.88},{"city":"Los Angeles","state_name":"California","lat":34.06253,"lng":-118.30884,"zip":"90076","miles_from_dt":7.9},{"city":"Inglewood","state_name":"California","lat":33.97472,"lng":-118.35565,"zip":"90302","miles_from_dt":7.95},{"city":"Los Angeles","state_name":"California","lat":34.06244,"lng":-118.31044,"zip":"90070","miles_from_dt":7.96},{"city":"Pico Rivera","state_name":"California","lat":33.99824,"lng":-118.08065,"zip":"90661","miles_from_dt":7.98},{"city":"Long Beach","state_name":"California","lat":33.86494,"lng":-118.18051,"zip":"90805","miles_from_dt":8},{"city":"Los Angeles","state_name":"California","lat":34.06209,"lng":-118.31262,"zip":"90010","miles_from_dt":8.02},{"city":"Inglewood","state_name":"California","lat":33.97342,"lng":-118.35707,"zip":"90309","miles_from_dt":8.03},{"city":"Los Angeles","state_name":"California","lat":34.06449,"lng":-118.30956,"zip":"90075","miles_from_dt":8.03},{"city":"Bellflower","state_name":"California","lat":33.88802,"lng":-118.12709,"zip":"90706","miles_from_dt":8.03},{"city":"Carson","state_name":"California","lat":33.86372,"lng":-118.25142,"zip":"90747","miles_from_dt":8.05},{"city":"Los Angeles","state_name":"California","lat":34.06638,"lng":-118.30986,"zip":"90020","miles_from_dt":8.14},{"city":"Inglewood","state_name":"California","lat":33.95731,"lng":-118.35838,"zip":"90311","miles_from_dt":8.22},{"city":"Inglewood","state_name":"California","lat":33.95647,"lng":-118.35863,"zip":"90301","miles_from_dt":8.24},{"city":"Whittier","state_name":"California","lat":33.96984,"lng":-118.07193,"zip":"90610","miles_from_dt":8.36},{"city":"Carson","state_name":"California","lat":33.85855,"lng":-118.25518,"zip":"90746","miles_from_dt":8.45},{"city":"Bellflower","state_name":"California","lat":33.88235,"lng":-118.12221,"zip":"90707","miles_from_dt":8.51},{"city":"Los Angeles","state_name":"California","lat":34.04861,"lng":-118.33874,"zip":"90019","miles_from_dt":8.54},{"city":"Alhambra","state_name":"California","lat":34.08082,"lng":-118.13541,"zip":"91899","miles_from_dt":8.56},{"city":"Inglewood","state_name":"California","lat":33.93736,"lng":-118.35879,"zip":"90304","miles_from_dt":8.58},{"city":"Los Angeles","state_name":"California","lat":34.02881,"lng":-118.35436,"zip":"90016","miles_from_dt":8.64},{"city":"Whittier","state_name":"California","lat":33.97742,"lng":-118.0661,"zip":"90606","miles_from_dt":8.68},{"city":"Los Angeles","state_name":"California","lat":34.07624,"lng":-118.31101,"zip":"90004","miles_from_dt":8.7},{"city":"Hawthorne","state_name":"California","lat":33.91383,"lng":-118.34996,"zip":"90250","miles_from_dt":8.78},{"city":"Los Angeles","state_name":"California","lat":33.99361,"lng":-118.36884,"zip":"90056","miles_from_dt":8.78},{"city":"Los Angeles","state_name":"California","lat":34.08983,"lng":-118.29467,"zip":"90029","miles_from_dt":8.96},{"city":"Torrance","state_name":"California","lat":33.88493,"lng":-118.33044,"zip":"90506","miles_from_dt":9.08},{"city":"Los Angeles","state_name":"California","lat":34.10867,"lng":-118.22813,"zip":"90065","miles_from_dt":9.1},{"city":"Inglewood","state_name":"California","lat":33.95468,"lng":-118.37361,"zip":"90307","miles_from_dt":9.11},{"city":"Norwalk","state_name":"California","lat":33.90703,"lng":-118.08249,"zip":"90650","miles_from_dt":9.12},{"city":"Hawthorne","state_name":"California","lat":33.91694,"lng":-118.35944,"zip":"90251","miles_from_dt":9.16},{"city":"Norwalk","state_name":"California","lat":33.92045,"lng":-118.0721,"zip":"90652","miles_from_dt":9.2},{"city":"Los Angeles","state_name":"California","lat":33.971,"lng":-118.379,"zip":"90189","miles_from_dt":9.3},{"city":"Alhambra","state_name":"California","lat":34.09093,"lng":-118.12776,"zip":"91801","miles_from_dt":9.38},{"city":"Santa Fe Springs","state_name":"California","lat":33.93279,"lng":-118.0626,"zip":"90670","miles_from_dt":9.39},{"city":"Alhambra","state_name":"California","lat":34.09202,"lng":-118.12885,"zip":"91804","miles_from_dt":9.41},{"city":"Norwalk","state_name":"California","lat":33.90686,"lng":-118.07607,"zip":"90651","miles_from_dt":9.44},{"city":"Carson","state_name":"California","lat":33.84,"lng":-118.219,"zip":"90895","miles_from_dt":9.44},{"city":"Alhambra","state_name":"California","lat":34.09251,"lng":-118.12848,"zip":"91896","miles_from_dt":9.45},{"city":"Alhambra","state_name":"California","lat":34.0909,"lng":-118.12401,"zip":"91802","miles_from_dt":9.5},{"city":"Los Angeles","state_name":"California","lat":33.94635,"lng":-118.37988,"zip":"90009","miles_from_dt":9.58},{"city":"Los Angeles","state_name":"California","lat":34.11475,"lng":-118.192,"zip":"90042","miles_from_dt":9.61},{"city":"Santa Fe Springs","state_name":"California","lat":33.93251,"lng":-118.05849,"zip":"90671","miles_from_dt":9.62},{"city":"Los Angeles","state_name":"California","lat":34.11242,"lng":-118.26153,"zip":"90039","miles_from_dt":9.68},{"city":"Lakewood","state_name":"California","lat":33.849,"lng":-118.14677,"zip":"90712","miles_from_dt":9.71},{"city":"Rosemead","state_name":"California","lat":34.06573,"lng":-118.08579,"zip":"91772","miles_from_dt":9.71},{"city":"Lakewood","state_name":"California","lat":33.84894,"lng":-118.14677,"zip":"90711","miles_from_dt":9.71},{"city":"Rosemead","state_name":"California","lat":34.06395,"lng":-118.08361,"zip":"91770","miles_from_dt":9.73},{"city":"Lawndale","state_name":"California","lat":33.88768,"lng":-118.34952,"zip":"90260","miles_from_dt":9.78},{"city":"Rosemead","state_name":"California","lat":34.06506,"lng":-118.08303,"zip":"91771","miles_from_dt":9.81},{"city":"South Pasadena","state_name":"California","lat":34.11029,"lng":-118.15748,"zip":"91030","miles_from_dt":9.81},{"city":"Los Angeles","state_name":"California","lat":34.09719,"lng":-118.30902,"zip":"90072","miles_from_dt":9.82},{"city":"Lakewood","state_name":"California","lat":33.85149,"lng":-118.13602,"zip":"90714","miles_from_dt":9.83},{"city":"Lawndale","state_name":"California","lat":33.88958,"lng":-118.35275,"zip":"90261","miles_from_dt":9.84},{"city":"Los Angeles","state_name":"California","lat":34.08882,"lng":-118.32671,"zip":"90038","miles_from_dt":9.94},{"city":"Los Angeles","state_name":"California","lat":34.07013,"lng":-118.34978,"zip":"90036","miles_from_dt":9.95},{"city":"Los Angeles","state_name":"California","lat":34.12138,"lng":-118.20691,"zip":"90050","miles_from_dt":9.97},{"city":"Long Beach","state_name":"California","lat":33.83425,"lng":-118.189,"zip":"90847","miles_from_dt":9.97},{"city":"Torrance","state_name":"California","lat":33.86693,"lng":-118.33135,"zip":"90504","miles_from_dt":10.03},{"city":"Culver City","state_name":"California","lat":33.99949,"lng":-118.3913,"zip":"90231","miles_from_dt":10.11},{"city":"Long Beach","state_name":"California","lat":33.83098,"lng":-118.18113,"zip":"90807","miles_from_dt":10.27},{"city":"Long Beach","state_name":"California","lat":33.83035,"lng":-118.18493,"zip":"90848","miles_from_dt":10.27},{"city":"Culver City","state_name":"California","lat":33.99691,"lng":-118.39487,"zip":"90230","miles_from_dt":10.29},{"city":"Glendale","state_name":"California","lat":34.12426,"lng":-118.25429,"zip":"91225","miles_from_dt":10.37},{"city":"Los Angeles","state_name":"California","lat":33.95477,"lng":-118.39609,"zip":"90080","miles_from_dt":10.38},{"city":"South Pasadena","state_name":"California","lat":34.11754,"lng":-118.15176,"zip":"91031","miles_from_dt":10.39},{"city":"Culver City","state_name":"California","lat":34.01859,"lng":-118.39157,"zip":"90232","miles_from_dt":10.41},{"city":"San Gabriel","state_name":"California","lat":34.08987,"lng":-118.09519,"zip":"91776","miles_from_dt":10.47},{"city":"South El Monte","state_name":"California","lat":34.0454,"lng":-118.05314,"zip":"91733","miles_from_dt":10.53},{"city":"Los Angeles","state_name":"California","lat":34.09982,"lng":-118.3268,"zip":"90028","miles_from_dt":10.55},{"city":"Los Angeles","state_name":"California","lat":34.09965,"lng":-118.32804,"zip":"90078","miles_from_dt":10.58},{"city":"Pasadena","state_name":"California","lat":34.12407,"lng":-118.16454,"zip":"91189","miles_from_dt":10.58},{"city":"Los Angeles","state_name":"California","lat":33.95302,"lng":-118.40028,"zip":"90045","miles_from_dt":10.64},{"city":"Los Angeles","state_name":"California","lat":33.95486,"lng":-118.40083,"zip":"90083","miles_from_dt":10.65},{"city":"Torrance","state_name":"California","lat":33.83497,"lng":-118.29291,"zip":"90502","miles_from_dt":10.71},{"city":"Whittier","state_name":"California","lat":33.98161,"lng":-118.03055,"zip":"90609","miles_from_dt":10.72},{"city":"Whittier","state_name":"California","lat":33.97932,"lng":-118.03053,"zip":"90608","miles_from_dt":10.72},{"city":"Lakewood","state_name":"California","lat":33.84797,"lng":-118.11268,"zip":"90713","miles_from_dt":10.73},{"city":"San Gabriel","state_name":"California","lat":34.10155,"lng":-118.10385,"zip":"91778","miles_from_dt":10.77},{"city":"Los Angeles","state_name":"California","lat":34.09808,"lng":-118.3364,"zip":"90093","miles_from_dt":10.79},{"city":"Whittier","state_name":"California","lat":34.0078,"lng":-118.03287,"zip":"90601","miles_from_dt":10.8},{"city":"Long Beach","state_name":"California","lat":33.81912,"lng":-118.22096,"zip":"90810","miles_from_dt":10.88},{"city":"Artesia","state_name":"California","lat":33.8676,"lng":-118.08055,"zip":"90701","miles_from_dt":10.89},{"city":"Los Angeles","state_name":"California","lat":34.05139,"lng":-118.38577,"zip":"90035","miles_from_dt":10.95},{"city":"Artesia","state_name":"California","lat":33.8634,"lng":-118.08252,"zip":"90702","miles_from_dt":11.01},{"city":"Whittier","state_name":"California","lat":33.95961,"lng":-118.02655,"zip":"90607","miles_from_dt":11.02},{"city":"Los Angeles","state_name":"California","lat":34.12515,"lng":-118.29049,"zip":"90027","miles_from_dt":11.04},{"city":"Los Angeles","state_name":"California","lat":34.13749,"lng":-118.20746,"zip":"90041","miles_from_dt":11.08},{"city":"Carson","state_name":"California","lat":33.82117,"lng":-118.26458,"zip":"90745","miles_from_dt":11.08},{"city":"Los Angeles","state_name":"California","lat":34.03059,"lng":-118.39936,"zip":"90034","miles_from_dt":11.09},{"city":"Los Angeles","state_name":"California","lat":34.07293,"lng":-118.3727,"zip":"90048","miles_from_dt":11.11},{"city":"Glendale","state_name":"California","lat":34.13679,"lng":-118.24339,"zip":"91205","miles_from_dt":11.12},{"city":"Whittier","state_name":"California","lat":33.97317,"lng":-118.02341,"zip":"90602","miles_from_dt":11.13},{"city":"Torrance","state_name":"California","lat":33.84435,"lng":-118.32878,"zip":"90509","miles_from_dt":11.16},{"city":"Carson","state_name":"California","lat":33.81915,"lng":-118.26311,"zip":"90749","miles_from_dt":11.19},{"city":"Glendale","state_name":"California","lat":34.13554,"lng":-118.26093,"zip":"91204","miles_from_dt":11.21},{"city":"Long Beach","state_name":"California","lat":33.81935,"lng":-118.16814,"zip":"90842","miles_from_dt":11.22},{"city":"Beverly Hills","state_name":"California","lat":34.06498,"lng":-118.38293,"zip":"90211","miles_from_dt":11.28},{"city":"Torrance","state_name":"California","lat":33.8346,"lng":-118.31539,"zip":"90508","miles_from_dt":11.32},{"city":"Redondo Beach","state_name":"California","lat":33.87362,"lng":-118.37028,"zip":"90278","miles_from_dt":11.32},{"city":"Torrance","state_name":"California","lat":33.8336,"lng":-118.31419,"zip":"90501","miles_from_dt":11.34},{"city":"Cerritos","state_name":"California","lat":33.86797,"lng":-118.06874,"zip":"90703","miles_from_dt":11.37},{"city":"El Segundo","state_name":"California","lat":33.91709,"lng":-118.40161,"zip":"90245","miles_from_dt":11.37},{"city":"Whittier","state_name":"California","lat":33.95209,"lng":-118.02085,"zip":"90605","miles_from_dt":11.41},{"city":"Playa Vista","state_name":"California","lat":33.97523,"lng":-118.41837,"zip":"90094","miles_from_dt":11.55},{"city":"Torrance","state_name":"California","lat":33.8318,"lng":-118.31821,"zip":"90507","miles_from_dt":11.57},{"city":"Pasadena","state_name":"California","lat":34.13588,"lng":-118.15159,"zip":"91115","miles_from_dt":11.58},{"city":"Pasadena","state_name":"California","lat":34.14045,"lng":-118.16716,"zip":"91105","miles_from_dt":11.63},{"city":"San Marino","state_name":"California","lat":34.12232,"lng":-118.11363,"zip":"91108","miles_from_dt":11.65},{"city":"Glendale","state_name":"California","lat":34.14464,"lng":-118.25026,"zip":"91209","miles_from_dt":11.71},{"city":"Pasadena","state_name":"California","lat":34.13833,"lng":-118.15278,"zip":"91123","miles_from_dt":11.72},{"city":"Glendale","state_name":"California","lat":34.14468,"lng":-118.25809,"zip":"91210","miles_from_dt":11.79},{"city":"Long Beach","state_name":"California","lat":33.82596,"lng":-118.12092,"zip":"90846","miles_from_dt":11.79},{"city":"Pasadena","state_name":"California","lat":34.14115,"lng":-118.15685,"zip":"91129","miles_from_dt":11.83},{"city":"Los Angeles","state_name":"California","lat":33.99574,"lng":-118.42202,"zip":"90060","miles_from_dt":11.83},{"city":"Pasadena","state_name":"California","lat":34.1416,"lng":-118.15756,"zip":"91184","miles_from_dt":11.85},{"city":"Long Beach","state_name":"California","lat":33.80819,"lng":-118.17797,"zip":"90806","miles_from_dt":11.85},{"city":"Beverly Hills","state_name":"California","lat":34.072,"lng":-118.39142,"zip":"90209","miles_from_dt":11.95},{"city":"Manhattan Beach","state_name":"California","lat":33.88968,"lng":-118.39705,"zip":"90266","miles_from_dt":11.95},{"city":"San Gabriel","state_name":"California","lat":34.11454,"lng":-118.08946,"zip":"91775","miles_from_dt":11.99},{"city":"Beverly Hills","state_name":"California","lat":34.05481,"lng":-118.40416,"zip":"90213","miles_from_dt":11.99},{"city":"Beverly Hills","state_name":"California","lat":34.06208,"lng":-118.40173,"zip":"90212","miles_from_dt":12.1},{"city":"Long Beach","state_name":"California","lat":33.82406,"lng":-118.11236,"zip":"90808","miles_from_dt":12.14},{"city":"Pasadena","state_name":"California","lat":34.13676,"lng":-118.1259,"zip":"91126","miles_from_dt":12.2},{"city":"Whittier","state_name":"California","lat":33.93012,"lng":-118.01226,"zip":"90604","miles_from_dt":12.21},{"city":"Torrance","state_name":"California","lat":33.84089,"lng":-118.3538,"zip":"90503","miles_from_dt":12.23},{"city":"Los Angeles","state_name":"California","lat":34.12794,"lng":-118.32914,"zip":"90068","miles_from_dt":12.23},{"city":"Torrance","state_name":"California","lat":33.8256,"lng":-118.32842,"zip":"90510","miles_from_dt":12.23},{"city":"Pasadena","state_name":"California","lat":34.13861,"lng":-118.12825,"zip":"91106","miles_from_dt":12.26},{"city":"Pasadena","state_name":"California","lat":34.13772,"lng":-118.12492,"zip":"91125","miles_from_dt":12.28},{"city":"Lakewood","state_name":"California","lat":33.84037,"lng":-118.07887,"zip":"90715","miles_from_dt":12.32},{"city":"Signal Hill","state_name":"California","lat":33.80274,"lng":-118.16747,"zip":"90755","miles_from_dt":12.34},{"city":"El Monte","state_name":"California","lat":34.07914,"lng":-118.04047,"zip":"91731","miles_from_dt":12.35},{"city":"Los Angeles","state_name":"California","lat":34.10752,"lng":-118.36575,"zip":"90046","miles_from_dt":12.39},{"city":"Los Angeles","state_name":"California","lat":34.00166,"lng":-118.43104,"zip":"90066","miles_from_dt":12.39},{"city":"Glendale","state_name":"California","lat":34.15287,"lng":-118.26355,"zip":"91203","miles_from_dt":12.41},{"city":"West Hollywood","state_name":"California","lat":34.09401,"lng":-118.38154,"zip":"90069","miles_from_dt":12.41},{"city":"El Monte","state_name":"California","lat":34.07183,"lng":-118.03331,"zip":"91734","miles_from_dt":12.42},{"city":"Manhattan Beach","state_name":"California","lat":33.87432,"lng":-118.39546,"zip":"90267","miles_from_dt":12.45},{"city":"San Marino","state_name":"California","lat":34.12501,"lng":-118.09242,"zip":"91118","miles_from_dt":12.47},{"city":"Pasadena","state_name":"California","lat":34.15018,"lng":-118.15286,"zip":"91124","miles_from_dt":12.5},{"city":"Pasadena","state_name":"California","lat":34.14671,"lng":-118.13895,"zip":"91101","miles_from_dt":12.53},{"city":"Los Angeles","state_name":"California","lat":34.0565,"lng":-118.41373,"zip":"90067","miles_from_dt":12.54},{"city":"Pasadena","state_name":"California","lat":34.14318,"lng":-118.1282,"zip":"91116","miles_from_dt":12.54},{"city":"Pasadena","state_name":"California","lat":34.14831,"lng":-118.1431,"zip":"91102","miles_from_dt":12.55},{"city":"Pasadena","state_name":"California","lat":34.15,"lng":-118.146,"zip":"91199","miles_from_dt":12.61},{"city":"La Mirada","state_name":"California","lat":33.90565,"lng":-118.01499,"zip":"90639","miles_from_dt":12.62},{"city":"Glendale","state_name":"California","lat":34.16003,"lng":-118.21322,"zip":"91226","miles_from_dt":12.62},{"city":"Temple City","state_name":"California","lat":34.10152,"lng":-118.05584,"zip":"91780","miles_from_dt":12.63},{"city":"Pasadena","state_name":"California","lat":34.14877,"lng":-118.14041,"zip":"91182","miles_from_dt":12.64},{"city":"North Hollywood","state_name":"California","lat":34.11274,"lng":-118.36583,"zip":"91618","miles_from_dt":12.66},{"city":"Glendale","state_name":"California","lat":34.16076,"lng":-118.21311,"zip":"91206","miles_from_dt":12.67},{"city":"Los Angeles","state_name":"California","lat":34.0358,"lng":-118.42653,"zip":"90064","miles_from_dt":12.68},{"city":"Marina Del Rey","state_name":"California","lat":33.98088,"lng":-118.43814,"zip":"90295","miles_from_dt":12.69},{"city":"Pasadena","state_name":"California","lat":34.15103,"lng":-118.14394,"zip":"91188","miles_from_dt":12.71},{"city":"Playa Del Rey","state_name":"California","lat":33.95071,"lng":-118.43745,"zip":"90293","miles_from_dt":12.77},{"city":"El Monte","state_name":"California","lat":34.07491,"lng":-118.02805,"zip":"91735","miles_from_dt":12.79},{"city":"Glendale","state_name":"California","lat":34.15922,"lng":-118.26256,"zip":"91222","miles_from_dt":12.83},{"city":"Hermosa Beach","state_name":"California","lat":33.86532,"lng":-118.39616,"zip":"90254","miles_from_dt":12.84},{"city":"Pasadena","state_name":"California","lat":34.15594,"lng":-118.15429,"zip":"91110","miles_from_dt":12.85},{"city":"La Mirada","state_name":"California","lat":33.90236,"lng":-118.00907,"zip":"90638","miles_from_dt":13.02},{"city":"Hawaiian Gardens","state_name":"California","lat":33.8305,"lng":-118.07295,"zip":"90716","miles_from_dt":13.06},{"city":"Whittier","state_name":"California","lat":33.94487,"lng":-117.99239,"zip":"90603","miles_from_dt":13.1},{"city":"Marina Del Rey","state_name":"California","lat":33.97865,"lng":-118.44707,"zip":"90292","miles_from_dt":13.2},{"city":"Harbor City","state_name":"California","lat":33.79806,"lng":-118.29918,"zip":"90710","miles_from_dt":13.2},{"city":"Glendale","state_name":"California","lat":34.16872,"lng":-118.24477,"zip":"91207","miles_from_dt":13.31},{"city":"El Monte","state_name":"California","lat":34.07239,"lng":-118.01455,"zip":"91732","miles_from_dt":13.36},{"city":"La Palma","state_name":"California","lat":33.85038,"lng":-118.04088,"zip":"90623","miles_from_dt":13.37},{"city":"Playa Del Rey","state_name":"California","lat":33.9561,"lng":-118.44985,"zip":"90296","miles_from_dt":13.43},{"city":"Pasadena","state_name":"California","lat":34.16707,"lng":-118.16472,"zip":"91109","miles_from_dt":13.44},{"city":"Long Beach","state_name":"California","lat":33.78237,"lng":-118.19656,"zip":"90813","miles_from_dt":13.46},{"city":"Pasadena","state_name":"California","lat":34.16738,"lng":-118.16446,"zip":"91103","miles_from_dt":13.47},{"city":"La Mirada","state_name":"California","lat":33.8971,"lng":-118.00237,"zip":"90637","miles_from_dt":13.52},{"city":"Wilmington","state_name":"California","lat":33.78415,"lng":-118.26398,"zip":"90748","miles_from_dt":13.56},{"city":"Universal City","state_name":"California","lat":34.13839,"lng":-118.35272,"zip":"91608","miles_from_dt":13.57},{"city":"Burbank","state_name":"California","lat":34.1469,"lng":-118.33757,"zip":"91522","miles_from_dt":13.59},{"city":"Glendale","state_name":"California","lat":34.16533,"lng":-118.28942,"zip":"91221","miles_from_dt":13.63},{"city":"Pasadena","state_name":"California","lat":34.14702,"lng":-118.09272,"zip":"91117","miles_from_dt":13.73},{"city":"Burbank","state_name":"California","lat":34.15487,"lng":-118.32628,"zip":"91521","miles_from_dt":13.76},{"city":"Long Beach","state_name":"California","lat":33.79572,"lng":-118.11592,"zip":"90815","miles_from_dt":13.78},{"city":"Torrance","state_name":"California","lat":33.80904,"lng":-118.34775,"zip":"90505","miles_from_dt":13.79},{"city":"Arcadia","state_name":"California","lat":34.126,"lng":-118.055,"zip":"91077","miles_from_dt":13.86},{"city":"Long Beach","state_name":"California","lat":33.77676,"lng":-118.19162,"zip":"90844","miles_from_dt":13.88},{"city":"Lomita","state_name":"California","lat":33.79345,"lng":-118.31706,"zip":"90717","miles_from_dt":13.89},{"city":"Redondo Beach","state_name":"California","lat":33.83099,"lng":-118.38441,"zip":"90277","miles_from_dt":13.91},{"city":"Los Angeles","state_name":"California","lat":34.06565,"lng":-118.43521,"zip":"90024","miles_from_dt":13.92},{"city":"Wilmington","state_name":"California","lat":33.77821,"lng":-118.26087,"zip":"90744","miles_from_dt":13.93},{"city":"Los Angeles","state_name":"California","lat":34.04551,"lng":-118.44583,"zip":"90025","miles_from_dt":13.94},{"city":"La Puente","state_name":"California","lat":34.04397,"lng":-117.98785,"zip":"91746","miles_from_dt":13.95},{"city":"Glendale","state_name":"California","lat":34.17041,"lng":-118.28902,"zip":"91201","miles_from_dt":13.95},{"city":"Long Beach","state_name":"California","lat":33.78223,"lng":-118.14917,"zip":"90804","miles_from_dt":13.98},{"city":"Pasadena","state_name":"California","lat":34.14992,"lng":-118.0886,"zip":"91121","miles_from_dt":14.02},{"city":"City Of Industry","state_name":"California","lat":34.00376,"lng":-117.97456,"zip":"91716","miles_from_dt":14.06},{"city":"Long Beach","state_name":"California","lat":33.77378,"lng":-118.18631,"zip":"90801","miles_from_dt":14.12},{"city":"Hacienda Heights","state_name":"California","lat":33.99926,"lng":-117.97225,"zip":"91745","miles_from_dt":14.15},{"city":"Venice","state_name":"California","lat":33.99447,"lng":-118.46315,"zip":"90291","miles_from_dt":14.17},{"city":"Pasadena","state_name":"California","lat":34.16836,"lng":-118.12644,"zip":"91114","miles_from_dt":14.18},{"city":"Pasadena","state_name":"California","lat":34.16766,"lng":-118.12341,"zip":"91104","miles_from_dt":14.2},{"city":"Arcadia","state_name":"California","lat":34.12842,"lng":-118.04818,"zip":"91007","miles_from_dt":14.25},{"city":"Beverly Hills","state_name":"California","lat":34.10251,"lng":-118.41505,"zip":"90210","miles_from_dt":14.27},{"city":"Long Beach","state_name":"California","lat":33.78449,"lng":-118.12133,"zip":"90840","miles_from_dt":14.37},{"city":"Los Angeles","state_name":"California","lat":34.1141,"lng":-118.4068,"zip":"90134","miles_from_dt":14.41},{"city":"Long Beach","state_name":"California","lat":33.76824,"lng":-118.20055,"zip":"90831","miles_from_dt":14.42},{"city":"Venice","state_name":"California","lat":33.98621,"lng":-118.46828,"zip":"90294","miles_from_dt":14.43},{"city":"City Of Industry","state_name":"California","lat":34.01573,"lng":-117.96997,"zip":"91715","miles_from_dt":14.44},{"city":"Glendale","state_name":"California","lat":34.18221,"lng":-118.26761,"zip":"91202","miles_from_dt":14.44},{"city":"Los Angeles","state_name":"California","lat":34.07121,"lng":-118.44334,"zip":"90095","miles_from_dt":14.51},{"city":"Long Beach","state_name":"California","lat":33.76636,"lng":-118.20309,"zip":"90833","miles_from_dt":14.54},{"city":"Santa Monica","state_name":"California","lat":34.01465,"lng":-118.4674,"zip":"90410","miles_from_dt":14.59},{"city":"Santa Monica","state_name":"California","lat":34.01208,"lng":-118.4679,"zip":"90405","miles_from_dt":14.59},{"city":"Long Beach","state_name":"California","lat":33.76589,"lng":-118.19859,"zip":"90832","miles_from_dt":14.59},{"city":"Pasadena","state_name":"California","lat":34.15919,"lng":-118.08688,"zip":"91107","miles_from_dt":14.62},{"city":"Buena Park","state_name":"California","lat":33.87396,"lng":-117.99346,"zip":"90621","miles_from_dt":14.69},{"city":"North Hollywood","state_name":"California","lat":34.15078,"lng":-118.36633,"zip":"91602","miles_from_dt":14.72},{"city":"Burbank","state_name":"California","lat":34.17134,"lng":-118.32384,"zip":"91506","miles_from_dt":14.73},{"city":"Burbank","state_name":"California","lat":34.17684,"lng":-118.30936,"zip":"91502","miles_from_dt":14.75},{"city":"Los Alamitos","state_name":"California","lat":33.80225,"lng":-118.06898,"zip":"90721","miles_from_dt":14.75},{"city":"Buena Park","state_name":"California","lat":33.85838,"lng":-118.00327,"zip":"90624","miles_from_dt":14.76},{"city":"Long Beach","state_name":"California","lat":33.7716,"lng":-118.14351,"zip":"90814","miles_from_dt":14.78},{"city":"Santa Monica","state_name":"California","lat":34.01245,"lng":-118.47128,"zip":"90411","miles_from_dt":14.79},{"city":"Long Beach","state_name":"California","lat":33.77825,"lng":-118.11871,"zip":"90822","miles_from_dt":14.82},{"city":"Buena Park","state_name":"California","lat":33.84616,"lng":-118.01176,"zip":"90620","miles_from_dt":14.86},{"city":"Burbank","state_name":"California","lat":34.16911,"lng":-118.3366,"zip":"91523","miles_from_dt":14.91},{"city":"Glendale","state_name":"California","lat":34.19333,"lng":-118.23839,"zip":"91208","miles_from_dt":14.96},{"city":"Burbank","state_name":"California","lat":34.18067,"lng":-118.30753,"zip":"91503","miles_from_dt":14.96},{"city":"Los Angeles","state_name":"California","lat":34.05738,"lng":-118.45956,"zip":"90073","miles_from_dt":14.97},{"city":"Cypress","state_name":"California","lat":33.81814,"lng":-118.03814,"zip":"90630","miles_from_dt":15.03},{"city":"Santa Monica","state_name":"California","lat":34.02665,"lng":-118.47381,"zip":"90404","miles_from_dt":15.12},{"city":"Studio City","state_name":"California","lat":34.13985,"lng":-118.39435,"zip":"91604","miles_from_dt":15.14},{"city":"Altadena","state_name":"California","lat":34.18505,"lng":-118.13022,"zip":"91003","miles_from_dt":15.19},{"city":"Burbank","state_name":"California","lat":34.16869,"lng":-118.3478,"zip":"91507","miles_from_dt":15.19},{"city":"City Of Industry","state_name":"California","lat":34.01945,"lng":-117.95713,"zip":"91714","miles_from_dt":15.22},{"city":"Buena Park","state_name":"California","lat":33.84619,"lng":-118.00313,"zip":"90622","miles_from_dt":15.25},{"city":"Los Alamitos","state_name":"California","lat":33.79573,"lng":-118.06342,"zip":"90720","miles_from_dt":15.3},{"city":"Studio City","state_name":"California","lat":34.14452,"lng":-118.39382,"zip":"91614","miles_from_dt":15.36},{"city":"Burbank","state_name":"California","lat":34.17328,"lng":-118.34591,"zip":"91510","miles_from_dt":15.41},{"city":"Toluca Lake","state_name":"California","lat":34.15584,"lng":-118.37919,"zip":"91610","miles_from_dt":15.44},{"city":"Arcadia","state_name":"California","lat":34.1352,"lng":-118.02667,"zip":"91006","miles_from_dt":15.44},{"city":"La Habra","state_name":"California","lat":33.94266,"lng":-117.95126,"zip":"90631","miles_from_dt":15.46},{"city":"Santa Monica","state_name":"California","lat":34.00302,"lng":-118.48562,"zip":"90409","miles_from_dt":15.51},{"city":"Burbank","state_name":"California","lat":34.17583,"lng":-118.34692,"zip":"91505","miles_from_dt":15.59},{"city":"Long Beach","state_name":"California","lat":33.75035,"lng":-118.21143,"zip":"90802","miles_from_dt":15.62},{"city":"Burbank","state_name":"California","lat":34.19469,"lng":-118.29431,"zip":"91501","miles_from_dt":15.64},{"city":"Arcadia","state_name":"California","lat":34.1411,"lng":-118.029,"zip":"91066","miles_from_dt":15.64},{"city":"Sierra Madre","state_name":"California","lat":34.1575,"lng":-118.0512,"zip":"91025","miles_from_dt":15.67},{"city":"La Habra","state_name":"California","lat":33.91433,"lng":-117.95472,"zip":"90632","miles_from_dt":15.69},{"city":"Long Beach","state_name":"California","lat":33.7604,"lng":-118.1327,"zip":"90853","miles_from_dt":15.7},{"city":"Altadena","state_name":"California","lat":34.19522,"lng":-118.13866,"zip":"91001","miles_from_dt":15.7},{"city":"La Canada Flintridge","state_name":"California","lat":34.20377,"lng":-118.19119,"zip":"91012","miles_from_dt":15.7},{"city":"Long Beach","state_name":"California","lat":33.76238,"lng":-118.12192,"zip":"90809","miles_from_dt":15.77},{"city":"La Puente","state_name":"California","lat":34.03073,"lng":-117.94999,"zip":"91749","miles_from_dt":15.78},{"city":"La Puente","state_name":"California","lat":34.02322,"lng":-117.94799,"zip":"91747","miles_from_dt":15.78},{"city":"Long Beach","state_name":"California","lat":33.76162,"lng":-118.12178,"zip":"90803","miles_from_dt":15.82},{"city":"Montrose","state_name":"California","lat":34.20693,"lng":-118.22532,"zip":"91021","miles_from_dt":15.86},{"city":"La Habra","state_name":"California","lat":33.93453,"lng":-117.94525,"zip":"90633","miles_from_dt":15.89},{"city":"North Hollywood","state_name":"California","lat":34.16827,"lng":-118.37222,"zip":"91601","miles_from_dt":15.9},{"city":"Burbank","state_name":"California","lat":34.19045,"lng":-118.3259,"zip":"91526","miles_from_dt":15.98},{"city":"Santa Monica","state_name":"California","lat":34.01584,"lng":-118.49251,"zip":"90401","miles_from_dt":16.03},{"city":"Santa Monica","state_name":"California","lat":34.01322,"lng":-118.49306,"zip":"90407","miles_from_dt":16.03},{"city":"San Pedro","state_name":"California","lat":33.75611,"lng":-118.30637,"zip":"90734","miles_from_dt":16.06},{"city":"Burbank","state_name":"California","lat":34.19119,"lng":-118.32848,"zip":"91508","miles_from_dt":16.08},{"city":"Santa Monica","state_name":"California","lat":34.03164,"lng":-118.48975,"zip":"90403","miles_from_dt":16.09},{"city":"Santa Monica","state_name":"California","lat":34.02616,"lng":-118.49197,"zip":"90408","miles_from_dt":16.13},{"city":"Fullerton","state_name":"California","lat":33.88051,"lng":-117.96112,"zip":"92833","miles_from_dt":16.15},{"city":"Montrose","state_name":"California","lat":34.21144,"lng":-118.23065,"zip":"91020","miles_from_dt":16.18},{"city":"Verdugo City","state_name":"California","lat":34.2117,"lng":-118.24092,"zip":"91046","miles_from_dt":16.24},{"city":"Palos Verdes Peninsula","state_name":"California","lat":33.77732,"lng":-118.3684,"zip":"90274","miles_from_dt":16.27},{"city":"North Hollywood","state_name":"California","lat":34.17207,"lng":-118.37692,"zip":"91603","miles_from_dt":16.27},{"city":"Los Angeles","state_name":"California","lat":34.10536,"lng":-118.45591,"zip":"90077","miles_from_dt":16.3},{"city":"Santa Monica","state_name":"California","lat":34.01818,"lng":-118.4972,"zip":"90406","miles_from_dt":16.32},{"city":"La Puente","state_name":"California","lat":34.02914,"lng":-117.93735,"zip":"91744","miles_from_dt":16.46},{"city":"Baldwin Park","state_name":"California","lat":34.09627,"lng":-117.96855,"zip":"91706","miles_from_dt":16.47},{"city":"Fullerton","state_name":"California","lat":33.86953,"lng":-117.96112,"zip":"92837","miles_from_dt":16.47},{"city":"La Canada Flintridge","state_name":"California","lat":34.21757,"lng":-118.20346,"zip":"91011","miles_from_dt":16.6},{"city":"Sierra Madre","state_name":"California","lat":34.17177,"lng":-118.04654,"zip":"91024","miles_from_dt":16.62},{"city":"Valley Village","state_name":"California","lat":34.16633,"lng":-118.39982,"zip":"91607","miles_from_dt":16.73},{"city":"Garden Grove","state_name":"California","lat":33.78803,"lng":-118.03254,"zip":"92846","miles_from_dt":16.8},{"city":"Valley Village","state_name":"California","lat":34.16499,"lng":-118.40356,"zip":"91617","miles_from_dt":16.8},{"city":"Santa Monica","state_name":"California","lat":34.03598,"lng":-118.50391,"zip":"90402","miles_from_dt":16.95},{"city":"Monrovia","state_name":"California","lat":34.13144,"lng":-117.9873,"zip":"91017","miles_from_dt":16.95},{"city":"San Pedro","state_name":"California","lat":33.74319,"lng":-118.31048,"zip":"90732","miles_from_dt":16.98},{"city":"San Pedro","state_name":"California","lat":33.7334,"lng":-118.27398,"zip":"90731","miles_from_dt":17.1},{"city":"Sherman Oaks","state_name":"California","lat":34.14924,"lng":-118.43239,"zip":"91423","miles_from_dt":17.13},{"city":"West Covina","state_name":"California","lat":34.06722,"lng":-117.93788,"zip":"91790","miles_from_dt":17.2},{"city":"Burbank","state_name":"California","lat":34.21349,"lng":-118.31478,"zip":"91504","miles_from_dt":17.23},{"city":"Garden Grove","state_name":"California","lat":33.78292,"lng":-118.0264,"zip":"92845","miles_from_dt":17.3},{"city":"Monrovia","state_name":"California","lat":34.15246,"lng":-118.00065,"zip":"91016","miles_from_dt":17.34},{"city":"La Crescenta","state_name":"California","lat":34.22796,"lng":-118.2464,"zip":"91224","miles_from_dt":17.38},{"city":"Los Angeles","state_name":"California","lat":34.08749,"lng":-118.48976,"zip":"90049","miles_from_dt":17.39},{"city":"Rancho Palos Verdes","state_name":"California","lat":33.7555,"lng":-118.36338,"zip":"90275","miles_from_dt":17.42},{"city":"Fullerton","state_name":"California","lat":33.8918,"lng":-117.931,"zip":"92838","miles_from_dt":17.46},{"city":"Seal Beach","state_name":"California","lat":33.75461,"lng":-118.07129,"zip":"90740","miles_from_dt":17.47},{"city":"North Hollywood","state_name":"California","lat":34.18655,"lng":-118.38867,"zip":"91606","miles_from_dt":17.47},{"city":"North Hollywood","state_name":"California","lat":34.18827,"lng":-118.38678,"zip":"91609","miles_from_dt":17.51},{"city":"North Hollywood","state_name":"California","lat":34.1842,"lng":-118.39605,"zip":"91616","miles_from_dt":17.58},{"city":"Stanton","state_name":"California","lat":33.80115,"lng":-117.99532,"zip":"90680","miles_from_dt":17.59},{"city":"Anaheim","state_name":"California","lat":33.84421,"lng":-117.95555,"zip":"92850","miles_from_dt":17.6},{"city":"North Hollywood","state_name":"California","lat":34.18647,"lng":-118.39575,"zip":"91611","miles_from_dt":17.7},{"city":"Anaheim","state_name":"California","lat":33.81801,"lng":-117.97517,"zip":"92804","miles_from_dt":17.71},{"city":"North Hollywood","state_name":"California","lat":34.18655,"lng":-118.39689,"zip":"91612","miles_from_dt":17.74},{"city":"West Covina","state_name":"California","lat":34.06747,"lng":-117.92776,"zip":"91793","miles_from_dt":17.75},{"city":"Anaheim","state_name":"California","lat":33.84441,"lng":-117.95175,"zip":"92801","miles_from_dt":17.78},{"city":"Sherman Oaks","state_name":"California","lat":34.15111,"lng":-118.44833,"zip":"91495","miles_from_dt":17.88},{"city":"La Crescenta","state_name":"California","lat":34.23759,"lng":-118.24778,"zip":"91214","miles_from_dt":18.05},{"city":"Fullerton","state_name":"California","lat":33.90171,"lng":-117.91529,"zip":"92835","miles_from_dt":18.11},{"city":"Fullerton","state_name":"California","lat":33.86871,"lng":-117.92914,"zip":"92832","miles_from_dt":18.16},{"city":"Duarte","state_name":"California","lat":34.13976,"lng":-117.9673,"zip":"91009","miles_from_dt":18.21},{"city":"Rowland Heights","state_name":"California","lat":33.9769,"lng":-117.89924,"zip":"91748","miles_from_dt":18.26},{"city":"Sherman Oaks","state_name":"California","lat":34.14716,"lng":-118.46311,"zip":"91403","miles_from_dt":18.34},{"city":"Van Nuys","state_name":"California","lat":34.17569,"lng":-118.43016,"zip":"91408","miles_from_dt":18.35},{"city":"Anaheim","state_name":"California","lat":33.81735,"lng":-117.96073,"zip":"92814","miles_from_dt":18.4},{"city":"North Hollywood","state_name":"California","lat":34.20089,"lng":-118.39482,"zip":"91615","miles_from_dt":18.49},{"city":"Van Nuys","state_name":"California","lat":34.1775,"lng":-118.43194,"zip":"91404","miles_from_dt":18.51},{"city":"West Covina","state_name":"California","lat":34.02586,"lng":-117.89989,"zip":"91792","miles_from_dt":18.53},{"city":"Van Nuys","state_name":"California","lat":34.17801,"lng":-118.43183,"zip":"91401","miles_from_dt":18.53},{"city":"Anaheim","state_name":"California","lat":33.83971,"lng":-117.93882,"zip":"92803","miles_from_dt":18.59},{"city":"Mount Wilson","state_name":"California","lat":34.22617,"lng":-118.09229,"zip":"91023","miles_from_dt":18.61},{"city":"Duarte","state_name":"California","lat":34.14114,"lng":-117.95918,"zip":"91010","miles_from_dt":18.63},{"city":"Surfside","state_name":"California","lat":33.72963,"lng":-118.08594,"zip":"90743","miles_from_dt":18.64},{"city":"Sun Valley","state_name":"California","lat":34.21753,"lng":-118.36751,"zip":"91353","miles_from_dt":18.69},{"city":"Duarte","state_name":"California","lat":34.15363,"lng":-117.96862,"zip":"91008","miles_from_dt":18.75},{"city":"Van Nuys","state_name":"California","lat":34.16319,"lng":-118.45661,"zip":"91496","miles_from_dt":18.79},{"city":"Garden Grove","state_name":"California","lat":33.7868,"lng":-117.98207,"zip":"92841","miles_from_dt":18.83},{"city":"Sherman Oaks","state_name":"California","lat":34.16436,"lng":-118.45835,"zip":"91413","miles_from_dt":18.92},{"city":"Pasadena","state_name":"California","lat":34.1697,"lng":-117.98139,"zip":"91185","miles_from_dt":18.96},{"city":"North Hollywood","state_name":"California","lat":34.20699,"lng":-118.40067,"zip":"91605","miles_from_dt":19.03},{"city":"Westminster","state_name":"California","lat":33.76266,"lng":-118.0072,"zip":"92684","miles_from_dt":19.08},{"city":"San Pedro","state_name":"California","lat":33.70664,"lng":-118.29067,"zip":"90733","miles_from_dt":19.1},{"city":"Brea","state_name":"California","lat":33.91866,"lng":-117.8892,"zip":"92822","miles_from_dt":19.27},{"city":"Fullerton","state_name":"California","lat":33.87548,"lng":-117.90381,"zip":"92836","miles_from_dt":19.32},{"city":"West Covina","state_name":"California","lat":34.06134,"lng":-117.89425,"zip":"91791","miles_from_dt":19.43},{"city":"Tujunga","state_name":"California","lat":34.25201,"lng":-118.29279,"zip":"91043","miles_from_dt":19.45},{"city":"Sun Valley","state_name":"California","lat":34.23183,"lng":-118.36596,"zip":"91352","miles_from_dt":19.53},{"city":"Fullerton","state_name":"California","lat":33.8795,"lng":-117.89607,"zip":"92831","miles_from_dt":19.64},{"city":"Fullerton","state_name":"California","lat":33.87678,"lng":-117.897,"zip":"92834","miles_from_dt":19.65},{"city":"Van Nuys","state_name":"California","lat":34.17853,"lng":-118.45956,"zip":"91411","miles_from_dt":19.65},{"city":"Sunset Beach","state_name":"California","lat":33.71834,"lng":-118.07174,"zip":"90742","miles_from_dt":19.69},{"city":"Covina","state_name":"California","lat":34.09731,"lng":-117.90612,"zip":"91722","miles_from_dt":19.69},{"city":"Encino","state_name":"California","lat":34.15219,"lng":-118.49053,"zip":"91436","miles_from_dt":19.79},{"city":"Anaheim","state_name":"California","lat":33.817,"lng":-117.9286,"zip":"92812","miles_from_dt":19.92},{"city":"Van Nuys","state_name":"California","lat":34.19385,"lng":-118.44845,"zip":"91407","miles_from_dt":19.98},{"city":"Anaheim","state_name":"California","lat":33.83565,"lng":-117.9132,"zip":"92825","miles_from_dt":20},{"city":"Westminster","state_name":"California","lat":33.75281,"lng":-117.9951,"zip":"92685","miles_from_dt":20.05},{"city":"Pacific Palisades","state_name":"California","lat":34.08066,"lng":-118.54459,"zip":"90272","miles_from_dt":20.1},{"city":"Westminster","state_name":"California","lat":33.75242,"lng":-117.99383,"zip":"92683","miles_from_dt":20.11},{"city":"Anaheim","state_name":"California","lat":33.83194,"lng":-117.9121,"zip":"92815","miles_from_dt":20.19},{"city":"Brea","state_name":"California","lat":33.92997,"lng":-117.86986,"zip":"92821","miles_from_dt":20.21},{"city":"Huntington Beach","state_name":"California","lat":33.72037,"lng":-118.04423,"zip":"92649","miles_from_dt":20.29},{"city":"Garden Grove","state_name":"California","lat":33.76561,"lng":-117.96952,"zip":"92844","miles_from_dt":20.37},{"city":"Van Nuys","state_name":"California","lat":34.20153,"lng":-118.44863,"zip":"91405","miles_from_dt":20.39},{"city":"Covina","state_name":"California","lat":34.08495,"lng":-117.88652,"zip":"91723","miles_from_dt":20.39},{"city":"Walnut","state_name":"California","lat":34.0137,"lng":-117.86372,"zip":"91788","miles_from_dt":20.45},{"city":"Anaheim","state_name":"California","lat":33.80831,"lng":-117.9237,"zip":"92802","miles_from_dt":20.49},{"city":"Sunland","state_name":"California","lat":34.26251,"lng":-118.31811,"zip":"91041","miles_from_dt":20.51},{"city":"Sunland","state_name":"California","lat":34.25861,"lng":-118.33468,"zip":"91040","miles_from_dt":20.55},{"city":"Anaheim","state_name":"California","lat":33.83003,"lng":-117.90568,"zip":"92805","miles_from_dt":20.57},{"city":"Van Nuys","state_name":"California","lat":34.2019,"lng":-118.4544,"zip":"91499","miles_from_dt":20.62},{"city":"Midway City","state_name":"California","lat":33.74606,"lng":-117.98765,"zip":"92655","miles_from_dt":20.68},{"city":"Garden Grove","state_name":"California","lat":33.77834,"lng":-117.94558,"zip":"92842","miles_from_dt":20.77},{"city":"Garden Grove","state_name":"California","lat":33.78584,"lng":-117.93202,"zip":"92840","miles_from_dt":21.03},{"city":"Walnut","state_name":"California","lat":34.01858,"lng":-117.85408,"zip":"91789","miles_from_dt":21.04},{"city":"Encino","state_name":"California","lat":34.15501,"lng":-118.51595,"zip":"91426","miles_from_dt":21.07},{"city":"Anaheim","state_name":"California","lat":33.84011,"lng":-117.88669,"zip":"92816","miles_from_dt":21.21},{"city":"Huntington Beach","state_name":"California","lat":33.72395,"lng":-118.00685,"zip":"92647","miles_from_dt":21.22},{"city":"Encino","state_name":"California","lat":34.15836,"lng":-118.51658,"zip":"91316","miles_from_dt":21.24},{"city":"Van Nuys","state_name":"California","lat":34.20102,"lng":-118.47521,"zip":"91482","miles_from_dt":21.38},{"city":"Panorama City","state_name":"California","lat":34.22208,"lng":-118.44603,"zip":"91412","miles_from_dt":21.39},{"city":"Panorama City","state_name":"California","lat":34.22413,"lng":-118.4448,"zip":"91402","miles_from_dt":21.46},{"city":"Huntington Beach","state_name":"California","lat":33.71512,"lng":-118.00767,"zip":"92605","miles_from_dt":21.7},{"city":"Placentia","state_name":"California","lat":33.88293,"lng":-117.85569,"zip":"92871","miles_from_dt":21.76},{"city":"Van Nuys","state_name":"California","lat":34.19791,"lng":-118.48987,"zip":"91406","miles_from_dt":21.82},{"city":"Placentia","state_name":"California","lat":33.88087,"lng":-117.85522,"zip":"92870","miles_from_dt":21.83},{"city":"Covina","state_name":"California","lat":34.0805,"lng":-117.85515,"zip":"91724","miles_from_dt":21.97},{"city":"Pacoima","state_name":"California","lat":34.24428,"lng":-118.42602,"zip":"91334","miles_from_dt":21.97},{"city":"Garden Grove","state_name":"California","lat":33.76399,"lng":-117.93153,"zip":"92843","miles_from_dt":22.03},{"city":"Anaheim","state_name":"California","lat":33.83884,"lng":-117.87054,"zip":"92806","miles_from_dt":22.08},{"city":"Anaheim","state_name":"California","lat":33.83726,"lng":-117.87122,"zip":"92899","miles_from_dt":22.09},{"city":"Van Nuys","state_name":"California","lat":34.20356,"lng":-118.48977,"zip":"91409","miles_from_dt":22.09},{"city":"Encino","state_name":"California","lat":34.17804,"lng":-118.51744,"zip":"91416","miles_from_dt":22.1},{"city":"Van Nuys","state_name":"California","lat":34.20364,"lng":-118.49292,"zip":"91410","miles_from_dt":22.23},{"city":"Pacoima","state_name":"California","lat":34.25602,"lng":-118.41939,"zip":"91331","miles_from_dt":22.45},{"city":"Tarzana","state_name":"California","lat":34.15504,"lng":-118.54757,"zip":"91356","miles_from_dt":22.58},{"city":"North Hills","state_name":"California","lat":34.23054,"lng":-118.46699,"zip":"91393","miles_from_dt":22.59},{"city":"Tujunga","state_name":"California","lat":34.30687,"lng":-118.25701,"zip":"91042","miles_from_dt":22.85},{"city":"Tarzana","state_name":"California","lat":34.17264,"lng":-118.54041,"zip":"91357","miles_from_dt":22.92},{"city":"Glendora","state_name":"California","lat":34.11884,"lng":-117.8534,"zip":"91740","miles_from_dt":23.05},{"city":"Diamond Bar","state_name":"California","lat":33.98725,"lng":-117.81473,"zip":"91765","miles_from_dt":23.12},{"city":"Pacoima","state_name":"California","lat":34.26607,"lng":-118.42687,"zip":"91333","miles_from_dt":23.27},{"city":"Orange","state_name":"California","lat":33.8317,"lng":-117.84914,"zip":"92857","miles_from_dt":23.4},{"city":"Atwood","state_name":"California","lat":33.8674,"lng":-117.83099,"zip":"92811","miles_from_dt":23.44},{"city":"Yorba Linda","state_name":"California","lat":33.89109,"lng":-117.82219,"zip":"92885","miles_from_dt":23.46},{"city":"Orange","state_name":"California","lat":33.82887,"lng":-117.84925,"zip":"92865","miles_from_dt":23.48},{"city":"North Hills","state_name":"California","lat":34.23837,"lng":-118.48076,"zip":"91343","miles_from_dt":23.51},{"city":"Orange","state_name":"California","lat":33.78799,"lng":-117.87637,"zip":"92868","miles_from_dt":23.53},{"city":"Huntington Beach","state_name":"California","lat":33.68212,"lng":-118.0101,"zip":"92648","miles_from_dt":23.56},{"city":"Mission Hills","state_name":"California","lat":34.25395,"lng":-118.46462,"zip":"91395","miles_from_dt":23.78},{"city":"Santa Ana","state_name":"California","lat":33.74853,"lng":-117.90621,"zip":"92703","miles_from_dt":23.83},{"city":"Fountain Valley","state_name":"California","lat":33.71046,"lng":-117.95132,"zip":"92708","miles_from_dt":23.9},{"city":"Reseda","state_name":"California","lat":34.20264,"lng":-118.53461,"zip":"91337","miles_from_dt":23.94},{"city":"Reseda","state_name":"California","lat":34.20107,"lng":-118.5407,"zip":"91335","miles_from_dt":24.14},{"city":"Topanga","state_name":"California","lat":34.09725,"lng":-118.6125,"zip":"90290","miles_from_dt":24.15},{"city":"Santa Ana","state_name":"California","lat":33.76602,"lng":-117.88174,"zip":"92706","miles_from_dt":24.15},{"city":"Brea","state_name":"California","lat":33.92536,"lng":-117.80024,"zip":"92823","miles_from_dt":24.21},{"city":"Mission Hills","state_name":"California","lat":34.26591,"lng":-118.45948,"zip":"91345","miles_from_dt":24.28},{"city":"Northridge","state_name":"California","lat":34.21786,"lng":-118.53117,"zip":"91328","miles_from_dt":24.49},{"city":"Yorba Linda","state_name":"California","lat":33.89517,"lng":-117.80154,"zip":"92886","miles_from_dt":24.54},{"city":"Fountain Valley","state_name":"California","lat":33.71399,"lng":-117.92835,"zip":"92728","miles_from_dt":24.59},{"city":"Mission Hills","state_name":"California","lat":34.26798,"lng":-118.46628,"zip":"91346","miles_from_dt":24.62},{"city":"San Fernando","state_name":"California","lat":34.28222,"lng":-118.44278,"zip":"91341","miles_from_dt":24.69},{"city":"San Fernando","state_name":"California","lat":34.28668,"lng":-118.43479,"zip":"91340","miles_from_dt":24.72},{"city":"Northridge","state_name":"California","lat":34.23636,"lng":-118.51777,"zip":"91325","miles_from_dt":24.83},{"city":"Orange","state_name":"California","lat":33.81425,"lng":-117.83075,"zip":"92864","miles_from_dt":24.88},{"city":"Woodland Hills","state_name":"California","lat":34.1548,"lng":-118.59492,"zip":"91364","miles_from_dt":24.89},{"city":"Santa Ana","state_name":"California","lat":33.72048,"lng":-117.90985,"zip":"92799","miles_from_dt":25},{"city":"Orange","state_name":"California","lat":33.81535,"lng":-117.82728,"zip":"92863","miles_from_dt":25.03},{"city":"San Dimas","state_name":"California","lat":34.1072,"lng":-117.80928,"zip":"91773","miles_from_dt":25.07},{"city":"Santa Ana","state_name":"California","lat":33.72038,"lng":-117.90807,"zip":"92704","miles_from_dt":25.08},{"city":"Woodland Hills","state_name":"California","lat":34.18505,"lng":-118.57605,"zip":"91371","miles_from_dt":25.08},{"city":"Santa Ana","state_name":"California","lat":33.74962,"lng":-117.87498,"zip":"92712","miles_from_dt":25.16},{"city":"Orange","state_name":"California","lat":33.78453,"lng":-117.84479,"zip":"92866","miles_from_dt":25.19},{"city":"Pomona","state_name":"California","lat":34.06358,"lng":-117.78941,"zip":"91768","miles_from_dt":25.27},{"city":"Orange","state_name":"California","lat":33.78406,"lng":-117.84348,"zip":"92856","miles_from_dt":25.27},{"city":"Sylmar","state_name":"California","lat":34.31778,"lng":-118.39207,"zip":"91342","miles_from_dt":25.54},{"city":"Anaheim","state_name":"California","lat":33.851,"lng":-117.799,"zip":"92809","miles_from_dt":25.55},{"city":"Northridge","state_name":"California","lat":34.2446,"lng":-118.52669,"zip":"91330","miles_from_dt":25.59},{"city":"Glendora","state_name":"California","lat":34.1647,"lng":-117.83197,"zip":"91741","miles_from_dt":25.61},{"city":"Villa Park","state_name":"California","lat":33.81801,"lng":-117.81031,"zip":"92861","miles_from_dt":25.83},{"city":"Huntington Beach","state_name":"California","lat":33.66525,"lng":-117.96755,"zip":"92646","miles_from_dt":25.84},{"city":"Winnetka","state_name":"California","lat":34.21026,"lng":-118.57059,"zip":"91396","miles_from_dt":25.87},{"city":"Northridge","state_name":"California","lat":34.24604,"lng":-118.53191,"zip":"91329","miles_from_dt":25.87},{"city":"Santa Ana","state_name":"California","lat":33.73655,"lng":-117.87139,"zip":"92702","miles_from_dt":25.89},{"city":"Santa Ana","state_name":"California","lat":33.7486,"lng":-117.85877,"zip":"92701","miles_from_dt":25.93},{"city":"Anaheim","state_name":"California","lat":33.85122,"lng":-117.79146,"zip":"92817","miles_from_dt":25.96},{"city":"Sylmar","state_name":"California","lat":34.31001,"lng":-118.43191,"zip":"91392","miles_from_dt":26.04},{"city":"Woodland Hills","state_name":"California","lat":34.17284,"lng":-118.60572,"zip":"91365","miles_from_dt":26.05},{"city":"Winnetka","state_name":"California","lat":34.20926,"lng":-118.5755,"zip":"91306","miles_from_dt":26.05},{"city":"Anaheim","state_name":"California","lat":33.85001,"lng":-117.78946,"zip":"92807","miles_from_dt":26.09},{"city":"Northridge","state_name":"California","lat":34.23855,"lng":-118.55015,"zip":"91324","miles_from_dt":26.26},{"city":"Huntington Beach","state_name":"California","lat":33.65655,"lng":-117.96987,"zip":"92615","miles_from_dt":26.27},{"city":"Granada Hills","state_name":"California","lat":34.26351,"lng":-118.52605,"zip":"91394","miles_from_dt":26.52},{"city":"Van Nuys","state_name":"California","lat":34.17779,"lng":-118.61468,"zip":"91470","miles_from_dt":26.67},{"city":"Orange","state_name":"California","lat":33.81443,"lng":-117.79617,"zip":"92867","miles_from_dt":26.67},{"city":"Woodland Hills","state_name":"California","lat":34.17708,"lng":-118.61518,"zip":"91367","miles_from_dt":26.67},{"city":"West Hills","state_name":"California","lat":34.20111,"lng":-118.59722,"zip":"91308","miles_from_dt":26.71},{"city":"Canoga Park","state_name":"California","lat":34.19784,"lng":-118.6017,"zip":"91303","miles_from_dt":26.79},{"city":"Pomona","state_name":"California","lat":34.04192,"lng":-117.75698,"zip":"91766","miles_from_dt":26.8},{"city":"Canoga Park","state_name":"California","lat":34.20105,"lng":-118.60416,"zip":"91305","miles_from_dt":27.03},{"city":"Pomona","state_name":"California","lat":34.06136,"lng":-117.75682,"zip":"91769","miles_from_dt":27.06},{"city":"Santa Ana","state_name":"California","lat":33.70991,"lng":-117.87045,"zip":"92707","miles_from_dt":27.14},{"city":"Granada Hills","state_name":"California","lat":34.28991,"lng":-118.5047,"zip":"91344","miles_from_dt":27.14},{"city":"Costa Mesa","state_name":"California","lat":33.67896,"lng":-117.90844,"zip":"92626","miles_from_dt":27.15},{"city":"Calabasas","state_name":"California","lat":34.1545,"lng":-118.64317,"zip":"91372","miles_from_dt":27.32},{"city":"Canoga Park","state_name":"California","lat":34.2181,"lng":-118.59548,"zip":"91309","miles_from_dt":27.32},{"city":"Santa Ana","state_name":"California","lat":33.71884,"lng":-117.85462,"zip":"92735","miles_from_dt":27.41},{"city":"Orange","state_name":"California","lat":33.80266,"lng":-117.78669,"zip":"92859","miles_from_dt":27.51},{"city":"Santa Ana","state_name":"California","lat":33.755,"lng":-117.81488,"zip":"92705","miles_from_dt":27.74},{"city":"Santa Ana","state_name":"California","lat":33.76685,"lng":-117.80435,"zip":"92711","miles_from_dt":27.81},{"city":"Chatsworth","state_name":"California","lat":34.23948,"lng":-118.58849,"zip":"91313","miles_from_dt":27.94},{"city":"Calabasas","state_name":"California","lat":34.12295,"lng":-118.67193,"zip":"91302","miles_from_dt":27.96},{"city":"Northridge","state_name":"California","lat":34.27302,"lng":-118.55143,"zip":"91327","miles_from_dt":27.99},{"city":"Tustin","state_name":"California","lat":33.73685,"lng":-117.81968,"zip":"92780","miles_from_dt":28.22},{"city":"Chino Hills","state_name":"California","lat":33.95105,"lng":-117.72549,"zip":"91709","miles_from_dt":28.3},{"city":"Tustin","state_name":"California","lat":33.73687,"lng":-117.81805,"zip":"92781","miles_from_dt":28.3},{"city":"Pomona","state_name":"California","lat":34.08143,"lng":-117.73868,"zip":"91767","miles_from_dt":28.39},{"city":"Costa Mesa","state_name":"California","lat":33.64786,"lng":-117.9205,"zip":"92627","miles_from_dt":28.39},{"city":"Yorba Linda","state_name":"California","lat":33.88727,"lng":-117.73389,"zip":"92887","miles_from_dt":28.45},{"city":"La Verne","state_name":"California","lat":34.14927,"lng":-117.76647,"zip":"91750","miles_from_dt":28.45},{"city":"Malibu","state_name":"California","lat":34.03919,"lng":-118.70809,"zip":"90263","miles_from_dt":28.5},{"city":"Porter Ranch","state_name":"California","lat":34.28022,"lng":-118.5566,"zip":"91326","miles_from_dt":28.55},{"city":"Anaheim","state_name":"California","lat":33.85623,"lng":-117.74018,"zip":"92808","miles_from_dt":28.65},{"city":"Azusa","state_name":"California","lat":34.24129,"lng":-117.82614,"zip":"91702","miles_from_dt":28.89},{"city":"Costa Mesa","state_name":"California","lat":33.64015,"lng":-117.91588,"zip":"92628","miles_from_dt":28.97},{"city":"Orange","state_name":"California","lat":33.79479,"lng":-117.7621,"zip":"92869","miles_from_dt":29.02},{"city":"Canoga Park","state_name":"California","lat":34.22472,"lng":-118.63261,"zip":"91304","miles_from_dt":29.3},{"city":"Newport Beach","state_name":"California","lat":33.62328,"lng":-117.93022,"zip":"92663","miles_from_dt":29.44},{"city":"Palmdale","state_name":"California","lat":34.38305,"lng":-118.04926,"zip":"93550","miles_from_dt":29.6},{"city":"Tustin","state_name":"California","lat":33.72833,"lng":-117.79753,"zip":"92782","miles_from_dt":29.6},{"city":"Santa Clarita","state_name":"California","lat":34.35885,"lng":-118.45563,"zip":"91383","miles_from_dt":29.65},{"city":"Newport Beach","state_name":"California","lat":33.62219,"lng":-117.92352,"zip":"92659","miles_from_dt":29.72},{"city":"West Hills","state_name":"California","lat":34.20177,"lng":-118.66226,"zip":"91307","miles_from_dt":29.85}],"targetCityZipCode":"90255","targetCityState":"California"},"__N_SSG":true}