{"pageProps":{"stateName":"California","cityName":"idyllwild","nearbyCities":[{"city":"Cabazon","state_name":"California","lat":33.9088,"lng":-116.76879,"zip":"92230","miles_from_dt":7.62},{"city":"Palm Springs","state_name":"California","lat":33.87589,"lng":-116.56629,"zip":"92263","miles_from_dt":9.58},{"city":"Palm Springs","state_name":"California","lat":33.86287,"lng":-116.55736,"zip":"92262","miles_from_dt":9.65},{"city":"Whitewater","state_name":"California","lat":33.96253,"lng":-116.65829,"zip":"92282","miles_from_dt":11.03},{"city":"North Palm Springs","state_name":"California","lat":33.91791,"lng":-116.56002,"zip":"92258","miles_from_dt":11.53},{"city":"Banning","state_name":"California","lat":33.93992,"lng":-116.83935,"zip":"92220","miles_from_dt":11.62},{"city":"San Jacinto","state_name":"California","lat":33.79662,"lng":-116.93188,"zip":"92583","miles_from_dt":12.67},{"city":"Palm Springs","state_name":"California","lat":33.73575,"lng":-116.50544,"zip":"92264","miles_from_dt":12.92},{"city":"Hemet","state_name":"California","lat":33.64581,"lng":-116.86033,"zip":"92544","miles_from_dt":14.11},{"city":"Cathedral City","state_name":"California","lat":33.81386,"lng":-116.46663,"zip":"92234","miles_from_dt":14.13},{"city":"Mountain Center","state_name":"California","lat":33.63704,"lng":-116.57441,"zip":"92561","miles_from_dt":14.25},{"city":"San Jacinto","state_name":"California","lat":33.78471,"lng":-116.95991,"zip":"92581","miles_from_dt":14.36},{"city":"Cathedral City","state_name":"California","lat":33.78061,"lng":-116.46127,"zip":"92235","miles_from_dt":14.57},{"city":"Desert Hot Springs","state_name":"California","lat":33.95291,"lng":-116.5194,"zip":"92240","miles_from_dt":14.88},{"city":"Hemet","state_name":"California","lat":33.74999,"lng":-116.96813,"zip":"92546","miles_from_dt":15.28},{"city":"Rancho Mirage","state_name":"California","lat":33.76399,"lng":-116.42705,"zip":"92270","miles_from_dt":16.69},{"city":"Hemet","state_name":"California","lat":33.69867,"lng":-116.97916,"zip":"92543","miles_from_dt":17.15},{"city":"San Jacinto","state_name":"California","lat":33.80489,"lng":-117.01873,"zip":"92582","miles_from_dt":17.64},{"city":"Beaumont","state_name":"California","lat":33.9382,"lng":-116.98137,"zip":"92223","miles_from_dt":17.86},{"city":"Thousand Palms","state_name":"California","lat":33.83234,"lng":-116.38648,"zip":"92276","miles_from_dt":18.8},{"city":"Morongo Valley","state_name":"California","lat":34.07207,"lng":-116.61761,"zip":"92256","miles_from_dt":18.94},{"city":"Palm Desert","state_name":"California","lat":33.69841,"lng":-116.40519,"zip":"92260","miles_from_dt":19.24},{"city":"Hemet","state_name":"California","lat":33.7311,"lng":-117.0359,"zip":"92545","miles_from_dt":19.39},{"city":"Forest Falls","state_name":"California","lat":34.08189,"lng":-116.83838,"zip":"92339","miles_from_dt":20.17},{"city":"Palm Desert","state_name":"California","lat":33.74676,"lng":-116.36651,"zip":"92255","miles_from_dt":20.35},{"city":"Anza","state_name":"California","lat":33.51579,"lng":-116.64432,"zip":"92539","miles_from_dt":20.57},{"city":"Palm Desert","state_name":"California","lat":33.61768,"lng":-116.43026,"zip":"92261","miles_from_dt":20.91},{"city":"Palm Desert","state_name":"California","lat":33.76593,"lng":-116.33241,"zip":"92211","miles_from_dt":22.05},{"city":"Nuevo","state_name":"California","lat":33.82378,"lng":-117.10305,"zip":"92567","miles_from_dt":22.51},{"city":"Indian Wells","state_name":"California","lat":33.70357,"lng":-116.33953,"zip":"92210","miles_from_dt":22.64},{"city":"Aguanga","state_name":"California","lat":33.48791,"lng":-116.81528,"zip":"92536","miles_from_dt":22.91},{"city":"Calimesa","state_name":"California","lat":33.9874,"lng":-117.05024,"zip":"92320","miles_from_dt":23},{"city":"Homeland","state_name":"California","lat":33.76392,"lng":-117.10907,"zip":"92548","miles_from_dt":23.05},{"city":"Yucaipa","state_name":"California","lat":34.04469,"lng":-117.004,"zip":"92399","miles_from_dt":23.35},{"city":"Winchester","state_name":"California","lat":33.64739,"lng":-117.07641,"zip":"92596","miles_from_dt":23.75},{"city":"Moreno Valley","state_name":"California","lat":33.9133,"lng":-117.10867,"zip":"92555","miles_from_dt":23.91},{"city":"Desert Hot Springs","state_name":"California","lat":33.84634,"lng":-116.28342,"zip":"92241","miles_from_dt":24.79},{"city":"La Quinta","state_name":"California","lat":33.676,"lng":-116.304,"zip":"92248","miles_from_dt":25.22},{"city":"La Quinta","state_name":"California","lat":33.67365,"lng":-116.29509,"zip":"92247","miles_from_dt":25.76},{"city":"Angelus Oaks","state_name":"California","lat":34.17018,"lng":-116.83231,"zip":"92305","miles_from_dt":25.84},{"city":"Indio","state_name":"California","lat":33.66134,"lng":-116.2978,"zip":"92202","miles_from_dt":25.93},{"city":"Pioneertown","state_name":"California","lat":34.16146,"lng":-116.55002,"zip":"92268","miles_from_dt":26.02},{"city":"Menifee","state_name":"California","lat":33.74217,"lng":-117.16723,"zip":"92585","miles_from_dt":26.59},{"city":"La Quinta","state_name":"California","lat":33.65562,"lng":-116.28785,"zip":"92253","miles_from_dt":26.62},{"city":"Temecula","state_name":"California","lat":33.511,"lng":-117.0242,"zip":"92592","miles_from_dt":27.29},{"city":"Indio","state_name":"California","lat":33.75159,"lng":-116.24139,"zip":"92203","miles_from_dt":27.38},{"city":"Perris","state_name":"California","lat":33.84182,"lng":-117.19522,"zip":"92571","miles_from_dt":27.88},{"city":"Mentone","state_name":"California","lat":34.08296,"lng":-117.07026,"zip":"92359","miles_from_dt":27.93},{"city":"Perris","state_name":"California","lat":33.83036,"lng":-117.19802,"zip":"92599","miles_from_dt":27.99},{"city":"Indio","state_name":"California","lat":33.70804,"lng":-116.23502,"zip":"92201","miles_from_dt":28.33},{"city":"Redlands","state_name":"California","lat":34.00648,"lng":-117.15351,"zip":"92373","miles_from_dt":28.79},{"city":"Menifee","state_name":"California","lat":33.66167,"lng":-117.18079,"zip":"92584","miles_from_dt":28.83},{"city":"Menifee","state_name":"California","lat":33.70773,"lng":-117.20045,"zip":"92586","miles_from_dt":28.96},{"city":"Yucca Valley","state_name":"California","lat":34.16013,"lng":-116.42474,"zip":"92284","miles_from_dt":29.3},{"city":"Murrieta","state_name":"California","lat":33.58435,"lng":-117.14458,"zip":"92563","miles_from_dt":29.33},{"city":"Murrieta","state_name":"California","lat":33.64178,"lng":-117.18626,"zip":"92564","miles_from_dt":29.63},{"city":"Perris","state_name":"California","lat":33.78596,"lng":-117.22671,"zip":"92572","miles_from_dt":29.65},{"city":"Temecula","state_name":"California","lat":33.53432,"lng":-117.1092,"zip":"92591","miles_from_dt":29.69},{"city":"Moreno Valley","state_name":"California","lat":33.88148,"lng":-117.22521,"zip":"92551","miles_from_dt":29.93}],"targetCityZipCode":"92549","targetCityState":"California"},"__N_SSG":true}