{"pageProps":{"stateName":"California","cityName":"lamont","nearbyCities":[{"city":"Bakersfield","state_name":"California","lat":35.2487,"lng":-118.93253,"zip":"93307","miles_from_dt":1.15},{"city":"Bakersfield","state_name":"California","lat":35.26499,"lng":-119.03195,"zip":"93383","miles_from_dt":6.86},{"city":"Bakersfield","state_name":"California","lat":35.35151,"lng":-118.96243,"zip":"93387","miles_from_dt":7.6},{"city":"Bakersfield","state_name":"California","lat":35.33938,"lng":-119.02368,"zip":"93304","miles_from_dt":8.85},{"city":"Bakersfield","state_name":"California","lat":35.35641,"lng":-119.00229,"zip":"93390","miles_from_dt":8.97},{"city":"Bakersfield","state_name":"California","lat":35.37557,"lng":-118.95466,"zip":"93386","miles_from_dt":9.03},{"city":"Arvin","state_name":"California","lat":35.12158,"lng":-118.8468,"zip":"93203","miles_from_dt":9.55},{"city":"Bakersfield","state_name":"California","lat":35.16363,"lng":-119.04715,"zip":"93313","miles_from_dt":9.65},{"city":"Bakersfield","state_name":"California","lat":35.37911,"lng":-118.98965,"zip":"93385","miles_from_dt":9.97},{"city":"Bakersfield","state_name":"California","lat":35.3732,"lng":-119.01767,"zip":"93384","miles_from_dt":10.42},{"city":"Bakersfield","state_name":"California","lat":35.38989,"lng":-118.98515,"zip":"93305","miles_from_dt":10.54},{"city":"Bakersfield","state_name":"California","lat":35.37535,"lng":-119.02189,"zip":"93302","miles_from_dt":10.68},{"city":"Bakersfield","state_name":"California","lat":35.34266,"lng":-119.06461,"zip":"93309","miles_from_dt":10.75},{"city":"Edison","state_name":"California","lat":35.3705,"lng":-118.78369,"zip":"93220","miles_from_dt":11.08},{"city":"Bakersfield","state_name":"California","lat":35.38428,"lng":-119.02057,"zip":"93301","miles_from_dt":11.14},{"city":"Bakersfield","state_name":"California","lat":35.35564,"lng":-119.063,"zip":"93389","miles_from_dt":11.24},{"city":"Bakersfield","state_name":"California","lat":35.41886,"lng":-119.02293,"zip":"93388","miles_from_dt":13.26},{"city":"Bakersfield","state_name":"California","lat":35.39186,"lng":-119.11954,"zip":"93312","miles_from_dt":15.29},{"city":"Bakersfield","state_name":"California","lat":35.15378,"lng":-119.16567,"zip":"93311","miles_from_dt":15.78},{"city":"Bakersfield","state_name":"California","lat":35.46595,"lng":-118.78445,"zip":"93306","miles_from_dt":16.59},{"city":"Keene","state_name":"California","lat":35.22937,"lng":-118.60781,"zip":"93531","miles_from_dt":17.27},{"city":"Bakersfield","state_name":"California","lat":35.385,"lng":-119.23741,"zip":"93314","miles_from_dt":20.62},{"city":"Bakersfield","state_name":"California","lat":35.5498,"lng":-118.93389,"zip":"93308","miles_from_dt":20.76},{"city":"Bakersfield","state_name":"California","lat":35.55048,"lng":-118.92102,"zip":"93380","miles_from_dt":20.77},{"city":"Bakersfield","state_name":"California","lat":35.55218,"lng":-118.91904,"zip":"93303","miles_from_dt":20.89},{"city":"Tehachapi","state_name":"California","lat":35.11288,"lng":-118.57035,"zip":"93581","miles_from_dt":21.51},{"city":"Tehachapi","state_name":"California","lat":35.10904,"lng":-118.52016,"zip":"93561","miles_from_dt":24.2},{"city":"Caliente","state_name":"California","lat":35.37675,"lng":-118.47314,"zip":"93518","miles_from_dt":26.32},{"city":"Shafter","state_name":"California","lat":35.48722,"lng":-119.27835,"zip":"93263","miles_from_dt":26.39},{"city":"Tupman","state_name":"California","lat":35.31756,"lng":-119.4092,"zip":"93276","miles_from_dt":28.48},{"city":"Taft","state_name":"California","lat":35.16725,"lng":-119.40785,"zip":"93268","miles_from_dt":28.61},{"city":"Lebec","state_name":"California","lat":34.84057,"lng":-118.81769,"zip":"93243","miles_from_dt":28.68}],"targetCityZipCode":"93241","targetCityState":"California"},"__N_SSG":true}