{"pageProps":{"stateName":"California","cityName":"leggett","nearbyCities":[{"city":"Piercy","state_name":"California","lat":39.96969,"lng":-123.75537,"zip":"95587","miles_from_dt":9},{"city":"Laytonville","state_name":"California","lat":39.78063,"lng":-123.51631,"zip":"95454","miles_from_dt":9.62},{"city":"Westport","state_name":"California","lat":39.73679,"lng":-123.77199,"zip":"95488","miles_from_dt":10.12},{"city":"Branscomb","state_name":"California","lat":39.68791,"lng":-123.65075,"zip":"95417","miles_from_dt":11.81},{"city":"Garberville","state_name":"California","lat":40.08074,"lng":-123.77369,"zip":"95542","miles_from_dt":16.35},{"city":"Dos Rios","state_name":"California","lat":39.73292,"lng":-123.34841,"zip":"95429","miles_from_dt":19.01},{"city":"Alderpoint","state_name":"California","lat":40.16975,"lng":-123.59539,"zip":"95511","miles_from_dt":21.79},{"city":"Redway","state_name":"California","lat":40.14606,"lng":-123.83816,"zip":"95560","miles_from_dt":21.82},{"city":"Whitethorn","state_name":"California","lat":40.07927,"lng":-123.98596,"zip":"95589","miles_from_dt":22.8},{"city":"Phillipsville","state_name":"California","lat":40.18977,"lng":-123.7512,"zip":"95559","miles_from_dt":23.28},{"city":"Covelo","state_name":"California","lat":39.82489,"lng":-123.18126,"zip":"95428","miles_from_dt":25.9},{"city":"Zenia","state_name":"California","lat":40.11074,"lng":-123.26642,"zip":"95595","miles_from_dt":27.43},{"city":"Miranda","state_name":"California","lat":40.22981,"lng":-123.87133,"zip":"95553","miles_from_dt":27.82},{"city":"Fort Bragg","state_name":"California","lat":39.44535,"lng":-123.69402,"zip":"95437","miles_from_dt":28.56},{"city":"Myers Flat","state_name":"California","lat":40.27573,"lng":-123.78414,"zip":"95554","miles_from_dt":29.44},{"city":"Blocksburg","state_name":"California","lat":40.29151,"lng":-123.67119,"zip":"95514","miles_from_dt":29.86}],"targetCityZipCode":"95585","targetCityState":"California"},"__N_SSG":true}