{"pageProps":{"stateName":"California","cityName":"lockeford","nearbyCities":[{"city":"Victor","state_name":"California","lat":38.14725,"lng":-121.19525,"zip":"95253","miles_from_dt":2.69},{"city":"Lodi","state_name":"California","lat":38.1177,"lng":-121.1627,"zip":"95240","miles_from_dt":2.99},{"city":"Acampo","state_name":"California","lat":38.19779,"lng":-121.23603,"zip":"95220","miles_from_dt":5.45},{"city":"Clements","state_name":"California","lat":38.20678,"lng":-121.04615,"zip":"95227","miles_from_dt":6.45},{"city":"Lodi","state_name":"California","lat":38.15244,"lng":-121.30635,"zip":"95241","miles_from_dt":8.61},{"city":"Stockton","state_name":"California","lat":38.04897,"lng":-121.22684,"zip":"95212","miles_from_dt":8.74},{"city":"Woodbridge","state_name":"California","lat":38.16811,"lng":-121.31011,"zip":"95258","miles_from_dt":8.82},{"city":"Galt","state_name":"California","lat":38.27705,"lng":-121.26128,"zip":"95632","miles_from_dt":10.17},{"city":"Linden","state_name":"California","lat":38.04218,"lng":-121.03176,"zip":"95236","miles_from_dt":10.29},{"city":"Wallace","state_name":"California","lat":38.20323,"lng":-120.95857,"zip":"95254","miles_from_dt":10.77},{"city":"Stockton","state_name":"California","lat":38.03215,"lng":-121.29782,"zip":"95210","miles_from_dt":11.98},{"city":"Stockton","state_name":"California","lat":38.02598,"lng":-121.29727,"zip":"95296","miles_from_dt":12.27},{"city":"Herald","state_name":"California","lat":38.33969,"lng":-121.11481,"zip":"95638","miles_from_dt":12.56},{"city":"Lodi","state_name":"California","lat":38.13204,"lng":-121.38875,"zip":"95242","miles_from_dt":13.23},{"city":"Stockton","state_name":"California","lat":38.04717,"lng":-121.35121,"zip":"95209","miles_from_dt":13.5},{"city":"Stockton","state_name":"California","lat":38.01899,"lng":-121.32225,"zip":"95269","miles_from_dt":13.55},{"city":"Stockton","state_name":"California","lat":38.00382,"lng":-121.31904,"zip":"95267","miles_from_dt":14.21},{"city":"Stockton","state_name":"California","lat":38.00242,"lng":-121.325,"zip":"95207","miles_from_dt":14.49},{"city":"Stockton","state_name":"California","lat":37.96425,"lng":-121.25955,"zip":"95205","miles_from_dt":14.77},{"city":"Stockton","state_name":"California","lat":37.9444,"lng":-121.15276,"zip":"95215","miles_from_dt":14.84},{"city":"Stockton","state_name":"California","lat":37.98078,"lng":-121.31198,"zip":"95211","miles_from_dt":15.21},{"city":"Stockton","state_name":"California","lat":37.97084,"lng":-121.30788,"zip":"95297","miles_from_dt":15.65},{"city":"Stockton","state_name":"California","lat":37.95968,"lng":-121.28772,"zip":"95202","miles_from_dt":15.74},{"city":"Burson","state_name":"California","lat":38.20399,"lng":-120.86488,"zip":"95225","miles_from_dt":15.74},{"city":"Stockton","state_name":"California","lat":37.97403,"lng":-121.31906,"zip":"95204","miles_from_dt":15.82},{"city":"Campo Seco","state_name":"California","lat":38.23377,"lng":-120.86232,"zip":"95226","miles_from_dt":16.39},{"city":"Valley Springs","state_name":"California","lat":38.15871,"lng":-120.84214,"zip":"95252","miles_from_dt":16.68},{"city":"Ione","state_name":"California","lat":38.33922,"lng":-120.94024,"zip":"95640","miles_from_dt":16.79},{"city":"Wilton","state_name":"California","lat":38.39851,"lng":-121.21956,"zip":"95693","miles_from_dt":16.93},{"city":"Stockton","state_name":"California","lat":37.95237,"lng":-121.33098,"zip":"95203","miles_from_dt":17.41},{"city":"Stockton","state_name":"California","lat":37.90688,"lng":-121.2234,"zip":"95201","miles_from_dt":17.9},{"city":"Thornton","state_name":"California","lat":38.19039,"lng":-121.48543,"zip":"95686","miles_from_dt":18.47},{"city":"Elk Grove","state_name":"California","lat":38.33886,"lng":-121.43643,"zip":"95757","miles_from_dt":19.96},{"city":"Farmington","state_name":"California","lat":37.97361,"lng":-120.86492,"zip":"95230","miles_from_dt":20.09},{"city":"Stockton","state_name":"California","lat":37.97294,"lng":-121.44196,"zip":"95214","miles_from_dt":20.54},{"city":"Elk Grove","state_name":"California","lat":38.43203,"lng":-121.30506,"zip":"95624","miles_from_dt":20.63},{"city":"Elk Grove","state_name":"California","lat":38.40435,"lng":-121.37531,"zip":"95759","miles_from_dt":20.91},{"city":"Stockton","state_name":"California","lat":37.95579,"lng":-121.43856,"zip":"95213","miles_from_dt":21.16},{"city":"French Camp","state_name":"California","lat":37.87331,"lng":-121.29272,"zip":"95231","miles_from_dt":21.25},{"city":"Stockton","state_name":"California","lat":37.95595,"lng":-121.44167,"zip":"95208","miles_from_dt":21.28},{"city":"Stockton","state_name":"California","lat":38.0207,"lng":-121.51584,"zip":"95219","miles_from_dt":22.2},{"city":"Manteca","state_name":"California","lat":37.83351,"lng":-121.1988,"zip":"95336","miles_from_dt":22.65},{"city":"Holt","state_name":"California","lat":37.92634,"lng":-121.44551,"zip":"95234","miles_from_dt":22.83},{"city":"Stockton","state_name":"California","lat":37.8961,"lng":-121.41051,"zip":"95206","miles_from_dt":23.12},{"city":"Martell","state_name":"California","lat":38.36681,"lng":-120.79462,"zip":"95654","miles_from_dt":23.97},{"city":"Courtland","state_name":"California","lat":38.31113,"lng":-121.54595,"zip":"95615","miles_from_dt":24.02},{"city":"Sacramento","state_name":"California","lat":38.49415,"lng":-121.27229,"zip":"95830","miles_from_dt":24.04},{"city":"Ryde","state_name":"California","lat":38.24142,"lng":-121.57816,"zip":"95680","miles_from_dt":24.06},{"city":"Escalon","state_name":"California","lat":37.82453,"lng":-121.01545,"zip":"95320","miles_from_dt":24.22},{"city":"Sloughhouse","state_name":"California","lat":38.51018,"lng":-121.09894,"zip":"95683","miles_from_dt":24.33},{"city":"Walnut Grove","state_name":"California","lat":38.23429,"lng":-121.58672,"zip":"95690","miles_from_dt":24.41},{"city":"Jackson","state_name":"California","lat":38.3434,"lng":-120.76398,"zip":"95642","miles_from_dt":24.46},{"city":"Elk Grove","state_name":"California","lat":38.42932,"lng":-121.44603,"zip":"95758","miles_from_dt":24.66},{"city":"Isleton","state_name":"California","lat":38.15046,"lng":-121.60271,"zip":"95641","miles_from_dt":24.75},{"city":"Sacramento","state_name":"California","lat":38.48759,"lng":-121.33326,"zip":"95829","miles_from_dt":24.76},{"city":"Hood","state_name":"California","lat":38.39202,"lng":-121.49599,"zip":"95639","miles_from_dt":24.78},{"city":"Drytown","state_name":"California","lat":38.44074,"lng":-120.85702,"zip":"95699","miles_from_dt":25.04},{"city":"Amador City","state_name":"California","lat":38.42713,"lng":-120.82997,"zip":"95601","miles_from_dt":25.31},{"city":"Lathrop","state_name":"California","lat":37.8117,"lng":-121.31331,"zip":"95330","miles_from_dt":25.62},{"city":"Sacramento","state_name":"California","lat":38.48943,"lng":-121.39598,"zip":"95828","miles_from_dt":26.43},{"city":"Sacramento","state_name":"California","lat":38.47473,"lng":-121.44266,"zip":"95823","miles_from_dt":26.99},{"city":"Sacramento","state_name":"California","lat":38.47447,"lng":-121.44401,"zip":"94230","miles_from_dt":27.02},{"city":"Plymouth","state_name":"California","lat":38.49522,"lng":-120.89157,"zip":"95669","miles_from_dt":27.04},{"city":"Sacramento","state_name":"California","lat":38.47658,"lng":-121.44271,"zip":"94205","miles_from_dt":27.09},{"city":"Sacramento","state_name":"California","lat":38.43979,"lng":-121.49888,"zip":"95832","miles_from_dt":27.14},{"city":"Sacramento","state_name":"California","lat":38.47736,"lng":-121.44416,"zip":"94283","miles_from_dt":27.18},{"city":"Ripon","state_name":"California","lat":37.76223,"lng":-121.12574,"zip":"95366","miles_from_dt":27.43},{"city":"Sutter Creek","state_name":"California","lat":38.42716,"lng":-120.76698,"zip":"95685","miles_from_dt":27.76},{"city":"Mather","state_name":"California","lat":38.54976,"lng":-121.27898,"zip":"95655","miles_from_dt":27.83},{"city":"Sacramento","state_name":"California","lat":38.508,"lng":-121.41678,"zip":"95813","miles_from_dt":28.11},{"city":"Clarksburg","state_name":"California","lat":38.38644,"lng":-121.58118,"zip":"95612","miles_from_dt":28.26},{"city":"Bethel Island","state_name":"California","lat":38.02883,"lng":-121.64039,"zip":"94511","miles_from_dt":28.29},{"city":"Sacramento","state_name":"California","lat":38.49482,"lng":-121.44957,"zip":"94206","miles_from_dt":28.33},{"city":"Rancho Cordova","state_name":"California","lat":38.5735,"lng":-121.19854,"zip":"95742","miles_from_dt":28.68},{"city":"Sacramento","state_name":"California","lat":38.55151,"lng":-121.3253,"zip":"95827","miles_from_dt":28.69},{"city":"San Andreas","state_name":"California","lat":38.18986,"lng":-120.61784,"zip":"95249","miles_from_dt":28.97},{"city":"Manteca","state_name":"California","lat":37.74171,"lng":-121.23834,"zip":"95337","miles_from_dt":29.23},{"city":"Sacramento","state_name":"California","lat":38.51746,"lng":-121.44147,"zip":"95824","miles_from_dt":29.37},{"city":"Sacramento","state_name":"California","lat":38.54554,"lng":-121.37885,"zip":"95826","miles_from_dt":29.42},{"city":"Copperopolis","state_name":"California","lat":37.94669,"lng":-120.68067,"zip":"95228","miles_from_dt":29.43},{"city":"Angels Camp","state_name":"California","lat":38.06127,"lng":-120.61791,"zip":"95222","miles_from_dt":29.7}],"targetCityZipCode":"95237","targetCityState":"California"},"__N_SSG":true}