{"pageProps":{"stateName":"California","cityName":"lucerne-valley","nearbyCities":[{"city":"Apple Valley","state_name":"California","lat":34.59078,"lng":-117.14127,"zip":"92307","miles_from_dt":15.6},{"city":"Apple Valley","state_name":"California","lat":34.42005,"lng":-117.15558,"zip":"92308","miles_from_dt":15.91},{"city":"Fawnskin","state_name":"California","lat":34.26951,"lng":-116.96277,"zip":"92333","miles_from_dt":16.14},{"city":"Big Bear City","state_name":"California","lat":34.2576,"lng":-116.80075,"zip":"92314","miles_from_dt":17.27},{"city":"Sugarloaf","state_name":"California","lat":34.23702,"lng":-116.82523,"zip":"92386","miles_from_dt":18.28},{"city":"Big Bear Lake","state_name":"California","lat":34.22011,"lng":-116.95301,"zip":"92315","miles_from_dt":19.35},{"city":"Green Valley Lake","state_name":"California","lat":34.24009,"lng":-117.06798,"zip":"92341","miles_from_dt":20.31},{"city":"Cedar Glen","state_name":"California","lat":34.24748,"lng":-117.14694,"zip":"92321","miles_from_dt":22.48},{"city":"Hesperia","state_name":"California","lat":34.42022,"lng":-117.27658,"zip":"92340","miles_from_dt":22.54},{"city":"Angelus Oaks","state_name":"California","lat":34.17018,"lng":-116.83231,"zip":"92305","miles_from_dt":22.74},{"city":"Lake Arrowhead","state_name":"California","lat":34.26824,"lng":-117.18486,"zip":"92352","miles_from_dt":22.94},{"city":"Victorville","state_name":"California","lat":34.50032,"lng":-117.29479,"zip":"92395","miles_from_dt":22.95},{"city":"Running Springs","state_name":"California","lat":34.20604,"lng":-117.11276,"zip":"92382","miles_from_dt":23.64},{"city":"Victorville","state_name":"California","lat":34.48307,"lng":-117.31249,"zip":"92393","miles_from_dt":23.98},{"city":"Landers","state_name":"California","lat":34.33762,"lng":-116.51364,"zip":"92285","miles_from_dt":24.26},{"city":"Blue Jay","state_name":"California","lat":34.24507,"lng":-117.20874,"zip":"92317","miles_from_dt":25.03},{"city":"Hesperia","state_name":"California","lat":34.36415,"lng":-117.30984,"zip":"92345","miles_from_dt":25.51},{"city":"Daggett","state_name":"California","lat":34.86632,"lng":-116.84347,"zip":"92327","miles_from_dt":25.66},{"city":"Oro Grande","state_name":"California","lat":34.65508,"lng":-117.30893,"zip":"92368","miles_from_dt":26.14},{"city":"Rimforest","state_name":"California","lat":34.23206,"lng":-117.22483,"zip":"92378","miles_from_dt":26.31},{"city":"Twin Peaks","state_name":"California","lat":34.23958,"lng":-117.23665,"zip":"92391","miles_from_dt":26.45},{"city":"Victorville","state_name":"California","lat":34.563,"lng":-117.3542,"zip":"92394","miles_from_dt":26.73},{"city":"Skyforest","state_name":"California","lat":34.21345,"lng":-117.23057,"zip":"92385","miles_from_dt":27.45},{"city":"Crestline","state_name":"California","lat":34.24554,"lng":-117.27506,"zip":"92325","miles_from_dt":27.87},{"city":"Forest Falls","state_name":"California","lat":34.08189,"lng":-116.83838,"zip":"92339","miles_from_dt":28.73},{"city":"Victorville","state_name":"California","lat":34.479,"lng":-117.40884,"zip":"92392","miles_from_dt":29.49},{"city":"San Bernardino","state_name":"California","lat":34.17862,"lng":-117.23891,"zip":"92404","miles_from_dt":29.52},{"city":"Cedarpines Park","state_name":"California","lat":34.25419,"lng":-117.32259,"zip":"92322","miles_from_dt":29.7}],"targetCityZipCode":"92356","targetCityState":"California"},"__N_SSG":true}