{"pageProps":{"stateName":"California","cityName":"marysville","nearbyCities":[{"city":"Browns Valley","state_name":"California","lat":39.301,"lng":-121.34547,"zip":"95918","miles_from_dt":9.39},{"city":"Beale Afb","state_name":"California","lat":39.11337,"lng":-121.37192,"zip":"95903","miles_from_dt":9.79},{"city":"Smartsville","state_name":"California","lat":39.17967,"lng":-121.29007,"zip":"95977","miles_from_dt":11.06},{"city":"Wheatland","state_name":"California","lat":39.04699,"lng":-121.40471,"zip":"95692","miles_from_dt":12.92},{"city":"Olivehurst","state_name":"California","lat":39.03343,"lng":-121.55754,"zip":"95961","miles_from_dt":13.56},{"city":"Oregon House","state_name":"California","lat":39.32669,"lng":-121.26876,"zip":"95962","miles_from_dt":13.8},{"city":"Bangor","state_name":"California","lat":39.40756,"lng":-121.37878,"zip":"95914","miles_from_dt":14.06},{"city":"Yuba City","state_name":"California","lat":39.08171,"lng":-121.68798,"zip":"95993","miles_from_dt":14.46},{"city":"Palermo","state_name":"California","lat":39.43514,"lng":-121.55179,"zip":"95968","miles_from_dt":15.06},{"city":"Yuba City","state_name":"California","lat":39.0236,"lng":-121.60704,"zip":"95992","miles_from_dt":15.13},{"city":"Penn Valley","state_name":"California","lat":39.21052,"lng":-121.20467,"zip":"95946","miles_from_dt":15.26},{"city":"Yuba City","state_name":"California","lat":39.02205,"lng":-121.61317,"zip":"95991","miles_from_dt":15.36},{"city":"Live Oak","state_name":"California","lat":39.25018,"lng":-121.77309,"zip":"95953","miles_from_dt":15.38},{"city":"Rackerby","state_name":"California","lat":39.42955,"lng":-121.33624,"zip":"95972","miles_from_dt":16.45},{"city":"Gridley","state_name":"California","lat":39.34289,"lng":-121.75818,"zip":"95948","miles_from_dt":16.67},{"city":"Sheridan","state_name":"California","lat":38.99809,"lng":-121.35422,"zip":"95681","miles_from_dt":17.08},{"city":"Sutter","state_name":"California","lat":39.18051,"lng":-121.80746,"zip":"95982","miles_from_dt":17.36},{"city":"Oroville","state_name":"California","lat":39.47332,"lng":-121.43284,"zip":"95966","miles_from_dt":17.56},{"city":"Rough And Ready","state_name":"California","lat":39.22436,"lng":-121.15367,"zip":"95975","miles_from_dt":17.97},{"city":"Rio Oso","state_name":"California","lat":38.95396,"lng":-121.48187,"zip":"95674","miles_from_dt":18.53},{"city":"Dobbins","state_name":"California","lat":39.37369,"lng":-121.19615,"zip":"95935","miles_from_dt":18.83},{"city":"Brownsville","state_name":"California","lat":39.43445,"lng":-121.26554,"zip":"95919","miles_from_dt":18.88},{"city":"Feather Falls","state_name":"California","lat":39.51162,"lng":-121.55652,"zip":"95940","miles_from_dt":20.27},{"city":"Biggs","state_name":"California","lat":39.42392,"lng":-121.77178,"zip":"95917","miles_from_dt":20.58},{"city":"Grass Valley","state_name":"California","lat":39.102,"lng":-121.13343,"zip":"95949","miles_from_dt":20.8},{"city":"Meridian","state_name":"California","lat":39.05366,"lng":-121.82379,"zip":"95957","miles_from_dt":21.45},{"city":"Lincoln","state_name":"California","lat":38.92643,"lng":-121.31101,"zip":"95648","miles_from_dt":22.54},{"city":"Challenge","state_name":"California","lat":39.46798,"lng":-121.18006,"zip":"95925","miles_from_dt":23.66},{"city":"Richvale","state_name":"California","lat":39.4973,"lng":-121.75569,"zip":"95974","miles_from_dt":23.75},{"city":"Cedar Ridge","state_name":"California","lat":39.19808,"lng":-121.01896,"zip":"95924","miles_from_dt":25.26},{"city":"North San Juan","state_name":"California","lat":39.39121,"lng":-121.0583,"zip":"95960","miles_from_dt":25.83},{"city":"Auburn","state_name":"California","lat":38.99039,"lng":-121.10991,"zip":"95602","miles_from_dt":25.89},{"city":"Oroville","state_name":"California","lat":39.59169,"lng":-121.59034,"zip":"95965","miles_from_dt":26.05},{"city":"Grimes","state_name":"California","lat":39.05144,"lng":-121.92196,"zip":"95950","miles_from_dt":26.1},{"city":"Nicolaus","state_name":"California","lat":38.84594,"lng":-121.57679,"zip":"95659","miles_from_dt":26.41},{"city":"Forbestown","state_name":"California","lat":39.5588,"lng":-121.24157,"zip":"95941","miles_from_dt":26.7},{"city":"Robbins","state_name":"California","lat":38.87224,"lng":-121.71664,"zip":"95676","miles_from_dt":27.1},{"city":"Grass Valley","state_name":"California","lat":39.19426,"lng":-120.98199,"zip":"95945","miles_from_dt":27.26},{"city":"Pleasant Grove","state_name":"California","lat":38.82708,"lng":-121.49378,"zip":"95668","miles_from_dt":27.28},{"city":"Colusa","state_name":"California","lat":39.26839,"lng":-122.00426,"zip":"95932","miles_from_dt":27.84},{"city":"Camptonville","state_name":"California","lat":39.47033,"lng":-121.07736,"zip":"95922","miles_from_dt":27.88},{"city":"Knights Landing","state_name":"California","lat":38.89025,"lng":-121.79992,"zip":"95645","miles_from_dt":28.39},{"city":"Clipper Mills","state_name":"California","lat":39.54679,"lng":-121.1606,"zip":"95930","miles_from_dt":28.44},{"city":"Nelson","state_name":"California","lat":39.56417,"lng":-121.79804,"zip":"95958","miles_from_dt":28.81},{"city":"Chicago Park","state_name":"California","lat":39.16232,"lng":-120.95675,"zip":"95712","miles_from_dt":28.85},{"city":"Meadow Vista","state_name":"California","lat":39.00467,"lng":-121.02891,"zip":"95722","miles_from_dt":28.91},{"city":"Butte City","state_name":"California","lat":39.46071,"lng":-121.93702,"zip":"95920","miles_from_dt":29.11},{"city":"Newcastle","state_name":"California","lat":38.87938,"lng":-121.15173,"zip":"95658","miles_from_dt":29.81}],"targetCityZipCode":"95901","targetCityState":"California"},"__N_SSG":true}