{"pageProps":{"stateName":"California","cityName":"moccasin","nearbyCities":[{"city":"Big Oak Flat","state_name":"California","lat":37.8306,"lng":-120.34821,"zip":"95305","miles_from_dt":3.67},{"city":"Chinese Camp","state_name":"California","lat":37.87154,"lng":-120.43299,"zip":"95309","miles_from_dt":8.97},{"city":"La Grange","state_name":"California","lat":37.67726,"lng":-120.41363,"zip":"95329","miles_from_dt":9.7},{"city":"Jamestown","state_name":"California","lat":37.84912,"lng":-120.4858,"zip":"95327","miles_from_dt":10.66},{"city":"Standard","state_name":"California","lat":37.96662,"lng":-120.3108,"zip":"95373","miles_from_dt":12.25},{"city":"Tuolumne","state_name":"California","lat":37.96174,"lng":-120.21635,"zip":"95379","miles_from_dt":12.88},{"city":"Coulterville","state_name":"California","lat":37.70443,"lng":-120.08344,"zip":"95311","miles_from_dt":13.53},{"city":"Sonora","state_name":"California","lat":37.98484,"lng":-120.34515,"zip":"95370","miles_from_dt":13.67},{"city":"Soulsbyville","state_name":"California","lat":37.98927,"lng":-120.26272,"zip":"95372","miles_from_dt":14.01},{"city":"Snelling","state_name":"California","lat":37.52435,"lng":-120.41301,"zip":"95369","miles_from_dt":19.17},{"city":"Waterford","state_name":"California","lat":37.67391,"lng":-120.63045,"zip":"95386","miles_from_dt":19.45},{"city":"Mi Wuk Village","state_name":"California","lat":38.07045,"lng":-120.17291,"zip":"95346","miles_from_dt":20.73},{"city":"Hornitos","state_name":"California","lat":37.48058,"lng":-120.24208,"zip":"95325","miles_from_dt":21.56},{"city":"Twain Harte","state_name":"California","lat":38.09534,"lng":-120.22602,"zip":"95383","miles_from_dt":21.57},{"city":"Columbia","state_name":"California","lat":38.09944,"lng":-120.36171,"zip":"95310","miles_from_dt":21.62},{"city":"Vallecito","state_name":"California","lat":38.08024,"lng":-120.45769,"zip":"95251","miles_from_dt":21.72},{"city":"Copperopolis","state_name":"California","lat":37.94669,"lng":-120.68067,"zip":"95228","miles_from_dt":23.18},{"city":"Midpines","state_name":"California","lat":37.58784,"lng":-119.96408,"zip":"95345","miles_from_dt":23.33},{"city":"Altaville","state_name":"California","lat":38.0724,"lng":-120.54852,"zip":"95221","miles_from_dt":23.6},{"city":"Douglas Flat","state_name":"California","lat":38.11643,"lng":-120.45775,"zip":"95229","miles_from_dt":24.05},{"city":"Hickman","state_name":"California","lat":37.60881,"lng":-120.68464,"zip":"95323","miles_from_dt":24.18},{"city":"Angels Camp","state_name":"California","lat":38.06127,"lng":-120.61791,"zip":"95222","miles_from_dt":25.34},{"city":"Murphys","state_name":"California","lat":38.14264,"lng":-120.44359,"zip":"95247","miles_from_dt":25.51},{"city":"Long Barn","state_name":"California","lat":38.11894,"lng":-120.09239,"zip":"95335","miles_from_dt":25.57},{"city":"Oakdale","state_name":"California","lat":37.79342,"lng":-120.77654,"zip":"95361","miles_from_dt":25.74},{"city":"Mariposa","state_name":"California","lat":37.50911,"lng":-119.98659,"zip":"95338","miles_from_dt":26.08},{"city":"Denair","state_name":"California","lat":37.54613,"lng":-120.69212,"zip":"95316","miles_from_dt":26.99},{"city":"Hathaway Pines","state_name":"California","lat":38.18622,"lng":-120.36859,"zip":"95233","miles_from_dt":27.6},{"city":"Merced","state_name":"California","lat":37.41525,"lng":-120.4979,"zip":"95348","miles_from_dt":27.84},{"city":"El Portal","state_name":"California","lat":37.66618,"lng":-119.8064,"zip":"95318","miles_from_dt":28.66},{"city":"Ballico","state_name":"California","lat":37.4714,"lng":-120.67744,"zip":"95303","miles_from_dt":29.91},{"city":"Winton","state_name":"California","lat":37.42171,"lng":-120.59715,"zip":"95388","miles_from_dt":29.94}],"targetCityZipCode":"95347","targetCityState":"California"},"__N_SSG":true}