{"pageProps":{"stateName":"California","cityName":"mono-hot-springs","nearbyCities":[{"city":"Lakeshore","state_name":"California","lat":37.20583,"lng":-118.93652,"zip":"93634","miles_from_dt":9.43},{"city":"Big Creek","state_name":"California","lat":37.17622,"lng":-119.24953,"zip":"93605","miles_from_dt":16.51},{"city":"Shaver Lake","state_name":"California","lat":37.05671,"lng":-119.17981,"zip":"93664","miles_from_dt":20.68},{"city":"Mammoth Lakes","state_name":"California","lat":37.60573,"lng":-118.85219,"zip":"93546","miles_from_dt":21.26},{"city":"North Fork","state_name":"California","lat":37.27155,"lng":-119.45004,"zip":"93643","miles_from_dt":24.18},{"city":"Auberry","state_name":"California","lat":37.0644,"lng":-119.37484,"zip":"93602","miles_from_dt":26.79},{"city":"Bass Lake","state_name":"California","lat":37.3717,"lng":-119.52215,"zip":"93604","miles_from_dt":28},{"city":"Wishon","state_name":"California","lat":37.28334,"lng":-119.54297,"zip":"93669","miles_from_dt":29.15},{"city":"Tollhouse","state_name":"California","lat":36.96585,"lng":-119.31511,"zip":"93667","miles_from_dt":29.84}],"targetCityZipCode":"93642","targetCityState":"California"},"__N_SSG":true}