{"pageProps":{"stateName":"California","cityName":"oro-grande","nearbyCities":[{"city":"Victorville","state_name":"California","lat":34.563,"lng":-117.3542,"zip":"92394","miles_from_dt":6.85},{"city":"Helendale","state_name":"California","lat":34.76078,"lng":-117.33795,"zip":"92342","miles_from_dt":7.47},{"city":"Apple Valley","state_name":"California","lat":34.59078,"lng":-117.14127,"zip":"92307","miles_from_dt":10.53},{"city":"Victorville","state_name":"California","lat":34.50032,"lng":-117.29479,"zip":"92395","miles_from_dt":10.7},{"city":"Victorville","state_name":"California","lat":34.48307,"lng":-117.31249,"zip":"92393","miles_from_dt":11.86},{"city":"Adelanto","state_name":"California","lat":34.65183,"lng":-117.52617,"zip":"92301","miles_from_dt":12.38},{"city":"Victorville","state_name":"California","lat":34.479,"lng":-117.40884,"zip":"92392","miles_from_dt":13.41},{"city":"Hesperia","state_name":"California","lat":34.42022,"lng":-117.27658,"zip":"92340","miles_from_dt":16.29},{"city":"Apple Valley","state_name":"California","lat":34.42005,"lng":-117.15558,"zip":"92308","miles_from_dt":18.41},{"city":"Hesperia","state_name":"California","lat":34.39176,"lng":-117.40657,"zip":"92344","miles_from_dt":18.99},{"city":"Phelan","state_name":"California","lat":34.43837,"lng":-117.54266,"zip":"92371","miles_from_dt":20.02},{"city":"Hesperia","state_name":"California","lat":34.36415,"lng":-117.30984,"zip":"92345","miles_from_dt":20.05},{"city":"Hinkley","state_name":"California","lat":34.95003,"lng":-117.25802,"zip":"92347","miles_from_dt":20.54},{"city":"Pinon Hills","state_name":"California","lat":34.45097,"lng":-117.62859,"zip":"92372","miles_from_dt":23.03},{"city":"Lucerne Valley","state_name":"California","lat":34.49633,"lng":-116.89265,"zip":"92356","miles_from_dt":26.14},{"city":"Barstow","state_name":"California","lat":34.97696,"lng":-117.06001,"zip":"92312","miles_from_dt":26.32},{"city":"Phelan","state_name":"California","lat":34.35514,"lng":-117.60716,"zip":"92329","miles_from_dt":26.78},{"city":"Lake Arrowhead","state_name":"California","lat":34.26824,"lng":-117.18486,"zip":"92352","miles_from_dt":27.59},{"city":"Cedarpines Park","state_name":"California","lat":34.25419,"lng":-117.32259,"zip":"92322","miles_from_dt":27.64},{"city":"Barstow","state_name":"California","lat":34.97204,"lng":-117.0101,"zip":"92311","miles_from_dt":27.68},{"city":"Llano","state_name":"California","lat":34.49063,"lng":-117.75505,"zip":"93544","miles_from_dt":27.85},{"city":"Crestline","state_name":"California","lat":34.24554,"lng":-117.27506,"zip":"92325","miles_from_dt":28.3},{"city":"Palmdale","state_name":"California","lat":34.59656,"lng":-117.80955,"zip":"93591","miles_from_dt":28.81},{"city":"Blue Jay","state_name":"California","lat":34.24507,"lng":-117.20874,"zip":"92317","miles_from_dt":28.83},{"city":"Twin Peaks","state_name":"California","lat":34.23958,"lng":-117.23665,"zip":"92391","miles_from_dt":28.94},{"city":"Rimforest","state_name":"California","lat":34.23206,"lng":-117.22483,"zip":"92378","miles_from_dt":29.55},{"city":"Cedar Glen","state_name":"California","lat":34.24748,"lng":-117.14694,"zip":"92321","miles_from_dt":29.58},{"city":"Wrightwood","state_name":"California","lat":34.36212,"lng":-117.69136,"zip":"92397","miles_from_dt":29.73}],"targetCityZipCode":"92368","targetCityState":"California"},"__N_SSG":true}