{"pageProps":{"stateName":"California","cityName":"palo-cedro","nearbyCities":[{"city":"Redding","state_name":"California","lat":40.56449,"lng":-122.29627,"zip":"96049","miles_from_dt":5.11},{"city":"Redding","state_name":"California","lat":40.5299,"lng":-122.31679,"zip":"96002","miles_from_dt":7.2},{"city":"Millville","state_name":"California","lat":40.56373,"lng":-122.06646,"zip":"96062","miles_from_dt":7.54},{"city":"Redding","state_name":"California","lat":40.66664,"lng":-122.31564,"zip":"96003","miles_from_dt":7.82},{"city":"Shasta Lake","state_name":"California","lat":40.69141,"lng":-122.34477,"zip":"96079","miles_from_dt":10.11},{"city":"Anderson","state_name":"California","lat":40.45507,"lng":-122.30468,"zip":"96007","miles_from_dt":10.71},{"city":"Bella Vista","state_name":"California","lat":40.73559,"lng":-122.11091,"zip":"96008","miles_from_dt":11.18},{"city":"Oak Run","state_name":"California","lat":40.68226,"lng":-122.02341,"zip":"96069","miles_from_dt":11.47},{"city":"Shasta Lake","state_name":"California","lat":40.6831,"lng":-122.40046,"zip":"96089","miles_from_dt":12.08},{"city":"Shasta Lake","state_name":"California","lat":40.68729,"lng":-122.39927,"zip":"96019","miles_from_dt":12.19},{"city":"Redding","state_name":"California","lat":40.57731,"lng":-122.45443,"zip":"96001","miles_from_dt":13.13},{"city":"Redding","state_name":"California","lat":40.64146,"lng":-122.5061,"zip":"96099","miles_from_dt":16.2},{"city":"Obrien","state_name":"California","lat":40.81222,"lng":-122.32306,"zip":"96070","miles_from_dt":16.5},{"city":"Shingletown","state_name":"California","lat":40.50983,"lng":-121.88848,"zip":"96088","miles_from_dt":17.58},{"city":"Whitmore","state_name":"California","lat":40.63738,"lng":-121.87552,"zip":"96096","miles_from_dt":17.64},{"city":"Shasta","state_name":"California","lat":40.63296,"lng":-122.58067,"zip":"96087","miles_from_dt":19.95},{"city":"Round Mountain","state_name":"California","lat":40.79395,"lng":-121.91519,"zip":"96084","miles_from_dt":20.72},{"city":"Cottonwood","state_name":"California","lat":40.34232,"lng":-122.44814,"zip":"96022","miles_from_dt":21.37},{"city":"Whiskeytown","state_name":"California","lat":40.7116,"lng":-122.60178,"zip":"96095","miles_from_dt":22.45},{"city":"Manton","state_name":"California","lat":40.42947,"lng":-121.83465,"zip":"96059","miles_from_dt":22.46},{"city":"Lakehead","state_name":"California","lat":40.90112,"lng":-122.35664,"zip":"96051","miles_from_dt":22.86},{"city":"French Gulch","state_name":"California","lat":40.75076,"lng":-122.60004,"zip":"96033","miles_from_dt":23.5},{"city":"Paynes Creek","state_name":"California","lat":40.35582,"lng":-121.87196,"zip":"96075","miles_from_dt":23.89},{"city":"Montgomery Creek","state_name":"California","lat":40.88056,"lng":-121.95433,"zip":"96065","miles_from_dt":23.96},{"city":"Igo","state_name":"California","lat":40.47695,"lng":-122.69889,"zip":"96047","miles_from_dt":27.14}],"targetCityZipCode":"96073","targetCityState":"California"},"__N_SSG":true}