{"pageProps":{"stateName":"California","cityName":"pebble-beach","nearbyCities":[{"city":"Monterey","state_name":"California","lat":36.60058,"lng":-121.91858,"zip":"93944","miles_from_dt":1.72},{"city":"Carmel By The Sea","state_name":"California","lat":36.55359,"lng":-121.92259,"zip":"93921","miles_from_dt":2.49},{"city":"Pacific Grove","state_name":"California","lat":36.61899,"lng":-121.92575,"zip":"93950","miles_from_dt":2.5},{"city":"Monterey","state_name":"California","lat":36.61697,"lng":-121.89881,"zip":"93942","miles_from_dt":3.28},{"city":"Monterey","state_name":"California","lat":36.59736,"lng":-121.87332,"zip":"93943","miles_from_dt":3.97},{"city":"Seaside","state_name":"California","lat":36.62153,"lng":-121.79562,"zip":"93955","miles_from_dt":8.57},{"city":"Monterey","state_name":"California","lat":36.45294,"lng":-121.8498,"zip":"93940","miles_from_dt":10.53},{"city":"Marina","state_name":"California","lat":36.67566,"lng":-121.78237,"zip":"93933","miles_from_dt":10.89},{"city":"Carmel","state_name":"California","lat":36.48919,"lng":-121.74475,"zip":"93922","miles_from_dt":12.9},{"city":"Carmel","state_name":"California","lat":36.40394,"lng":-121.79867,"zip":"93923","miles_from_dt":14.89},{"city":"Spreckels","state_name":"California","lat":36.62472,"lng":-121.64649,"zip":"93962","miles_from_dt":16.72},{"city":"Salinas","state_name":"California","lat":36.6726,"lng":-121.65745,"zip":"93902","miles_from_dt":16.98},{"city":"Castroville","state_name":"California","lat":36.78373,"lng":-121.74164,"zip":"95012","miles_from_dt":17.66},{"city":"Salinas","state_name":"California","lat":36.64794,"lng":-121.63044,"zip":"93901","miles_from_dt":17.91},{"city":"Salinas","state_name":"California","lat":36.73865,"lng":-121.68159,"zip":"93912","miles_from_dt":17.96},{"city":"Moss Landing","state_name":"California","lat":36.81515,"lng":-121.7779,"zip":"95039","miles_from_dt":18.3},{"city":"Salinas","state_name":"California","lat":36.67573,"lng":-121.62799,"zip":"93915","miles_from_dt":18.59},{"city":"Salinas","state_name":"California","lat":36.62153,"lng":-121.60048,"zip":"93908","miles_from_dt":19.22},{"city":"Salinas","state_name":"California","lat":36.72258,"lng":-121.63218,"zip":"93906","miles_from_dt":19.7},{"city":"Salinas","state_name":"California","lat":36.76643,"lng":-121.66816,"zip":"93907","miles_from_dt":19.72},{"city":"Salinas","state_name":"California","lat":36.6849,"lng":-121.60562,"zip":"93905","miles_from_dt":19.97},{"city":"Carmel Valley","state_name":"California","lat":36.39489,"lng":-121.63406,"zip":"93924","miles_from_dt":21.67},{"city":"Watsonville","state_name":"California","lat":36.91105,"lng":-121.75849,"zip":"95077","miles_from_dt":24.67},{"city":"Freedom","state_name":"California","lat":36.93575,"lng":-121.78458,"zip":"95019","miles_from_dt":25.7},{"city":"Aromas","state_name":"California","lat":36.86818,"lng":-121.63237,"zip":"95004","miles_from_dt":26.03},{"city":"Watsonville","state_name":"California","lat":36.94029,"lng":-121.75089,"zip":"95076","miles_from_dt":26.68},{"city":"Santa Cruz","state_name":"California","lat":36.97279,"lng":-121.99008,"zip":"95062","miles_from_dt":26.82},{"city":"Capitola","state_name":"California","lat":36.97721,"lng":-121.95466,"zip":"95010","miles_from_dt":27.01},{"city":"Scotts Valley","state_name":"California","lat":36.97417,"lng":-122.02972,"zip":"95067","miles_from_dt":27.22},{"city":"Santa Cruz","state_name":"California","lat":36.97673,"lng":-122.0236,"zip":"95061","miles_from_dt":27.33},{"city":"Aptos","state_name":"California","lat":36.98042,"lng":-121.8984,"zip":"95001","miles_from_dt":27.33},{"city":"Santa Cruz","state_name":"California","lat":36.98227,"lng":-122.00918,"zip":"95063","miles_from_dt":27.59},{"city":"Santa Cruz","state_name":"California","lat":36.99158,"lng":-122.05886,"zip":"95064","miles_from_dt":28.72},{"city":"San Juan Bautista","state_name":"California","lat":36.83281,"lng":-121.52576,"zip":"95045","miles_from_dt":28.77},{"city":"Chualar","state_name":"California","lat":36.60209,"lng":-121.42526,"zip":"93925","miles_from_dt":28.83},{"city":"Aptos","state_name":"California","lat":37.0089,"lng":-121.87775,"zip":"95003","miles_from_dt":29.41}],"targetCityZipCode":"93953","targetCityState":"California"},"__N_SSG":true}