{"pageProps":{"stateName":"California","cityName":"penn-valley","nearbyCities":[{"city":"Rough And Ready","state_name":"California","lat":39.22436,"lng":-121.15367,"zip":"95975","miles_from_dt":2.9},{"city":"Smartsville","state_name":"California","lat":39.17967,"lng":-121.29007,"zip":"95977","miles_from_dt":5.05},{"city":"Grass Valley","state_name":"California","lat":39.102,"lng":-121.13343,"zip":"95949","miles_from_dt":8.41},{"city":"Oregon House","state_name":"California","lat":39.32669,"lng":-121.26876,"zip":"95962","miles_from_dt":8.72},{"city":"Browns Valley","state_name":"California","lat":39.301,"lng":-121.34547,"zip":"95918","miles_from_dt":9.8},{"city":"Cedar Ridge","state_name":"California","lat":39.19808,"lng":-121.01896,"zip":"95924","miles_from_dt":10},{"city":"Beale Afb","state_name":"California","lat":39.11337,"lng":-121.37192,"zip":"95903","miles_from_dt":11.21},{"city":"Dobbins","state_name":"California","lat":39.37369,"lng":-121.19615,"zip":"95935","miles_from_dt":11.27},{"city":"Grass Valley","state_name":"California","lat":39.19426,"lng":-120.98199,"zip":"95945","miles_from_dt":12},{"city":"Chicago Park","state_name":"California","lat":39.16232,"lng":-120.95675,"zip":"95712","miles_from_dt":13.72},{"city":"North San Juan","state_name":"California","lat":39.39121,"lng":-121.0583,"zip":"95960","miles_from_dt":14.73},{"city":"Marysville","state_name":"California","lat":39.2225,"lng":-121.48855,"zip":"95901","miles_from_dt":15.26},{"city":"Wheatland","state_name":"California","lat":39.04699,"lng":-121.40471,"zip":"95692","miles_from_dt":15.58},{"city":"Brownsville","state_name":"California","lat":39.43445,"lng":-121.26554,"zip":"95919","miles_from_dt":15.79},{"city":"Auburn","state_name":"California","lat":38.99039,"lng":-121.10991,"zip":"95602","miles_from_dt":16.02},{"city":"Bangor","state_name":"California","lat":39.40756,"lng":-121.37878,"zip":"95914","miles_from_dt":16.49},{"city":"Rackerby","state_name":"California","lat":39.42955,"lng":-121.33624,"zip":"95972","miles_from_dt":16.67},{"city":"Sheridan","state_name":"California","lat":38.99809,"lng":-121.35422,"zip":"95681","miles_from_dt":16.71},{"city":"Weimar","state_name":"California","lat":39.03905,"lng":-120.97738,"zip":"95736","miles_from_dt":17},{"city":"Meadow Vista","state_name":"California","lat":39.00467,"lng":-121.02891,"zip":"95722","miles_from_dt":17.06},{"city":"Colfax","state_name":"California","lat":39.08477,"lng":-120.92788,"zip":"95713","miles_from_dt":17.21},{"city":"Challenge","state_name":"California","lat":39.46798,"lng":-121.18006,"zip":"95925","miles_from_dt":17.81},{"city":"Applegate","state_name":"California","lat":38.99156,"lng":-120.9864,"zip":"95703","miles_from_dt":19.13},{"city":"Camptonville","state_name":"California","lat":39.47033,"lng":-121.07736,"zip":"95922","miles_from_dt":19.18},{"city":"Dutch Flat","state_name":"California","lat":39.2013,"lng":-120.83677,"zip":"95714","miles_from_dt":19.76},{"city":"Gold Run","state_name":"California","lat":39.14258,"lng":-120.84268,"zip":"95717","miles_from_dt":19.99},{"city":"Nevada City","state_name":"California","lat":39.34509,"lng":-120.86797,"zip":"95959","miles_from_dt":20.3},{"city":"Lincoln","state_name":"California","lat":38.92643,"lng":-121.31101,"zip":"95648","miles_from_dt":20.41},{"city":"Auburn","state_name":"California","lat":38.9112,"lng":-121.0982,"zip":"95604","miles_from_dt":21.43},{"city":"Auburn","state_name":"California","lat":38.91167,"lng":-121.08559,"zip":"95603","miles_from_dt":21.59},{"city":"Oroville","state_name":"California","lat":39.47332,"lng":-121.43284,"zip":"95966","miles_from_dt":21.86},{"city":"Olivehurst","state_name":"California","lat":39.03343,"lng":-121.55754,"zip":"95961","miles_from_dt":22.56},{"city":"Newcastle","state_name":"California","lat":38.87938,"lng":-121.15173,"zip":"95658","miles_from_dt":23.02},{"city":"Rio Oso","state_name":"California","lat":38.95396,"lng":-121.48187,"zip":"95674","miles_from_dt":23.14},{"city":"Clipper Mills","state_name":"California","lat":39.54679,"lng":-121.1606,"zip":"95930","miles_from_dt":23.32},{"city":"Alta","state_name":"California","lat":39.22633,"lng":-120.76741,"zip":"95701","miles_from_dt":23.49},{"city":"Forbestown","state_name":"California","lat":39.5588,"lng":-121.24157,"zip":"95941","miles_from_dt":24.11},{"city":"Palermo","state_name":"California","lat":39.43514,"lng":-121.55179,"zip":"95968","miles_from_dt":24.21},{"city":"Penryn","state_name":"California","lat":38.85739,"lng":-121.18251,"zip":"95663","miles_from_dt":24.39},{"city":"Yuba City","state_name":"California","lat":39.0236,"lng":-121.60704,"zip":"95992","miles_from_dt":25.18},{"city":"Cool","state_name":"California","lat":38.88649,"lng":-120.98896,"zip":"95614","miles_from_dt":25.18},{"city":"Yuba City","state_name":"California","lat":39.02205,"lng":-121.61317,"zip":"95991","miles_from_dt":25.51},{"city":"Washington","state_name":"California","lat":39.36149,"lng":-120.7652,"zip":"95986","miles_from_dt":25.76},{"city":"Greenwood","state_name":"California","lat":38.91111,"lng":-120.90043,"zip":"95635","miles_from_dt":26.35},{"city":"Foresthill","state_name":"California","lat":39.05453,"lng":-120.75365,"zip":"95631","miles_from_dt":26.51},{"city":"Alleghany","state_name":"California","lat":39.46742,"lng":-120.83158,"zip":"95910","miles_from_dt":26.71},{"city":"Rocklin","state_name":"California","lat":38.81982,"lng":-121.27772,"zip":"95765","miles_from_dt":27.24},{"city":"Yuba City","state_name":"California","lat":39.08171,"lng":-121.68798,"zip":"95993","miles_from_dt":27.44},{"city":"Loomis","state_name":"California","lat":38.81339,"lng":-121.16831,"zip":"95650","miles_from_dt":27.46},{"city":"Feather Falls","state_name":"California","lat":39.51162,"lng":-121.55652,"zip":"95940","miles_from_dt":28.04},{"city":"Rocklin","state_name":"California","lat":38.79298,"lng":-121.23133,"zip":"95677","miles_from_dt":28.84},{"city":"Goodyears Bar","state_name":"California","lat":39.53482,"lng":-120.86159,"zip":"95944","miles_from_dt":28.95},{"city":"Pilot Hill","state_name":"California","lat":38.79755,"lng":-121.05136,"zip":"95664","miles_from_dt":29.66}],"targetCityZipCode":"95946","targetCityState":"California"},"__N_SSG":true}