{"pageProps":{"stateName":"California","cityName":"pinecrest","nearbyCities":[{"city":"Strawberry","state_name":"California","lat":38.21493,"lng":-119.97031,"zip":"95375","miles_from_dt":9.77},{"city":"Arnold","state_name":"California","lat":38.4644,"lng":-119.85939,"zip":"95223","miles_from_dt":16.64},{"city":"Groveland","state_name":"California","lat":37.97719,"lng":-119.75012,"zip":"95321","miles_from_dt":17.52},{"city":"Long Barn","state_name":"California","lat":38.11894,"lng":-120.09239,"zip":"95335","miles_from_dt":18.05},{"city":"Coleville","state_name":"California","lat":38.45215,"lng":-119.51421,"zip":"96107","miles_from_dt":21.54},{"city":"Mi Wuk Village","state_name":"California","lat":38.07045,"lng":-120.17291,"zip":"95346","miles_from_dt":23.47},{"city":"Twain Harte","state_name":"California","lat":38.09534,"lng":-120.22602,"zip":"95383","miles_from_dt":25.38},{"city":"Bridgeport","state_name":"California","lat":38.27091,"lng":-119.27372,"zip":"93517","miles_from_dt":28.32},{"city":"Avery","state_name":"California","lat":38.22706,"lng":-120.32562,"zip":"95224","miles_from_dt":29.05},{"city":"Tuolumne","state_name":"California","lat":37.96174,"lng":-120.21635,"zip":"95379","miles_from_dt":29.59}],"targetCityZipCode":"95364","targetCityState":"California"},"__N_SSG":true}