{"pageProps":{"stateName":"California","cityName":"planada","nearbyCities":[{"city":"Merced","state_name":"California","lat":37.34128,"lng":-120.40658,"zip":"95340","miles_from_dt":4.97},{"city":"Le Grand","state_name":"California","lat":37.2447,"lng":-120.24277,"zip":"95333","miles_from_dt":6.25},{"city":"Merced","state_name":"California","lat":37.2937,"lng":-120.48784,"zip":"95343","miles_from_dt":8.63},{"city":"Merced","state_name":"California","lat":37.23037,"lng":-120.50715,"zip":"95341","miles_from_dt":10.84},{"city":"Merced","state_name":"California","lat":37.41525,"lng":-120.4979,"zip":"95348","miles_from_dt":12.07},{"city":"Catheys Valley","state_name":"California","lat":37.36015,"lng":-120.11581,"zip":"95306","miles_from_dt":12.56},{"city":"Hornitos","state_name":"California","lat":37.48058,"lng":-120.24208,"zip":"95325","miles_from_dt":13.31},{"city":"Chowchilla","state_name":"California","lat":37.09047,"lng":-120.29036,"zip":"93610","miles_from_dt":14.71},{"city":"El Nido","state_name":"California","lat":37.12947,"lng":-120.5074,"zip":"95317","miles_from_dt":15.31},{"city":"Snelling","state_name":"California","lat":37.52435,"lng":-120.41301,"zip":"95369","miles_from_dt":16.03},{"city":"Merced","state_name":"California","lat":37.37775,"lng":-120.61376,"zip":"95344","miles_from_dt":16.41},{"city":"Winton","state_name":"California","lat":37.42171,"lng":-120.59715,"zip":"95388","miles_from_dt":16.82},{"city":"Atwater","state_name":"California","lat":37.30634,"lng":-120.65119,"zip":"95301","miles_from_dt":17.61},{"city":"Cressey","state_name":"California","lat":37.42107,"lng":-120.65295,"zip":"95312","miles_from_dt":19.53},{"city":"Santa Rita Park","state_name":"California","lat":37.10867,"lng":-120.59745,"zip":"93661","miles_from_dt":19.79},{"city":"Ballico","state_name":"California","lat":37.4714,"lng":-120.67744,"zip":"95303","miles_from_dt":22.36},{"city":"Raymond","state_name":"California","lat":37.24769,"lng":-119.91882,"zip":"93653","miles_from_dt":23.04},{"city":"Livingston","state_name":"California","lat":37.34756,"lng":-120.74624,"zip":"95334","miles_from_dt":23.06},{"city":"Mariposa","state_name":"California","lat":37.50911,"lng":-119.98659,"zip":"95338","miles_from_dt":23.78},{"city":"Dos Palos","state_name":"California","lat":37.0448,"lng":-120.6223,"zip":"93620","miles_from_dt":23.88},{"city":"Madera","state_name":"California","lat":37.0424,"lng":-120.03816,"zip":"93638","miles_from_dt":24.1},{"city":"Delhi","state_name":"California","lat":37.42243,"lng":-120.7733,"zip":"95315","miles_from_dt":25.72},{"city":"Denair","state_name":"California","lat":37.54613,"lng":-120.69212,"zip":"95316","miles_from_dt":26.05},{"city":"La Grange","state_name":"California","lat":37.67726,"lng":-120.41363,"zip":"95329","miles_from_dt":26.32},{"city":"Madera","state_name":"California","lat":36.96478,"lng":-120.08456,"zip":"93639","miles_from_dt":26.91},{"city":"Madera","state_name":"California","lat":36.91099,"lng":-120.1922,"zip":"93637","miles_from_dt":27.99},{"city":"Midpines","state_name":"California","lat":37.58784,"lng":-119.96408,"zip":"95345","miles_from_dt":28.27},{"city":"Hickman","state_name":"California","lat":37.60881,"lng":-120.68464,"zip":"95323","miles_from_dt":28.76},{"city":"Stevinson","state_name":"California","lat":37.31636,"lng":-120.85683,"zip":"95374","miles_from_dt":28.96},{"city":"South Dos Palos","state_name":"California","lat":36.96334,"lng":-120.65034,"zip":"93665","miles_from_dt":29.2}],"targetCityZipCode":"95365","targetCityState":"California"},"__N_SSG":true}