{"pageProps":{"stateName":"California","cityName":"salton-city","nearbyCities":[{"city":"Borrego Springs","state_name":"California","lat":33.18481,"lng":-116.15688,"zip":"92004","miles_from_dt":16.07},{"city":"Westmorland","state_name":"California","lat":33.05033,"lng":-115.61264,"zip":"92281","miles_from_dt":18.96},{"city":"Calipatria","state_name":"California","lat":33.14736,"lng":-115.50686,"zip":"92233","miles_from_dt":22.07},{"city":"Niland","state_name":"California","lat":33.33976,"lng":-115.52814,"zip":"92257","miles_from_dt":22.35},{"city":"Thermal","state_name":"California","lat":33.47031,"lng":-116.11387,"zip":"92274","miles_from_dt":22.56},{"city":"Mecca","state_name":"California","lat":33.54371,"lng":-115.99995,"zip":"92254","miles_from_dt":24.15},{"city":"Imperial","state_name":"California","lat":32.87129,"lng":-115.71804,"zip":"92251","miles_from_dt":25.04},{"city":"Seeley","state_name":"California","lat":32.80798,"lng":-115.69592,"zip":"92273","miles_from_dt":29.57}],"targetCityZipCode":"92275","targetCityState":"California"},"__N_SSG":true}