{"pageProps":{"stateName":"California","cityName":"soda-springs","nearbyCities":[{"city":"Norden","state_name":"California","lat":39.31038,"lng":-120.43722,"zip":"95724","miles_from_dt":2.03},{"city":"Truckee","state_name":"California","lat":39.30758,"lng":-120.31479,"zip":"96162","miles_from_dt":4.82},{"city":"Truckee","state_name":"California","lat":39.34848,"lng":-120.22603,"zip":"96161","miles_from_dt":10.16},{"city":"Olympic Valley","state_name":"California","lat":39.22556,"lng":-120.23681,"zip":"96146","miles_from_dt":10.2},{"city":"Truckee","state_name":"California","lat":39.32959,"lng":-120.17931,"zip":"96160","miles_from_dt":12.23},{"city":"Emigrant Gap","state_name":"California","lat":39.27495,"lng":-120.64388,"zip":"95715","miles_from_dt":12.97},{"city":"Tahoe City","state_name":"California","lat":39.18203,"lng":-120.15143,"zip":"96145","miles_from_dt":15.67},{"city":"Carnelian Bay","state_name":"California","lat":39.23244,"lng":-120.10364,"zip":"96140","miles_from_dt":16.68},{"city":"Homewood","state_name":"California","lat":39.10297,"lng":-120.19872,"zip":"96141","miles_from_dt":17.31},{"city":"Sierraville","state_name":"California","lat":39.54764,"lng":-120.38999,"zip":"96126","miles_from_dt":17.32},{"city":"Tahoe Vista","state_name":"California","lat":39.24978,"lng":-120.05767,"zip":"96148","miles_from_dt":18.83},{"city":"Washington","state_name":"California","lat":39.36149,"lng":-120.7652,"zip":"95986","miles_from_dt":19.88},{"city":"Alta","state_name":"California","lat":39.22633,"lng":-120.76741,"zip":"95701","miles_from_dt":20.11},{"city":"Kings Beach","state_name":"California","lat":39.26174,"lng":-120.02817,"zip":"96143","miles_from_dt":20.27},{"city":"Crystal Bay","state_name":"Nevada","lat":39.23075,"lng":-120.00259,"zip":"89402","miles_from_dt":21.98},{"city":"Floriston","state_name":"California","lat":39.41571,"lng":-120.01648,"zip":"96111","miles_from_dt":22.3},{"city":"Incline Village","state_name":"Nevada","lat":39.24474,"lng":-119.96492,"zip":"89452","miles_from_dt":23.79},{"city":"Calpine","state_name":"California","lat":39.63918,"lng":-120.46194,"zip":"96124","miles_from_dt":23.83},{"city":"Dutch Flat","state_name":"California","lat":39.2013,"lng":-120.83677,"zip":"95714","miles_from_dt":24.15},{"city":"Sierra City","state_name":"California","lat":39.61526,"lng":-120.60493,"zip":"96125","miles_from_dt":24.47},{"city":"Incline Village","state_name":"Nevada","lat":39.26775,"lng":-119.94534,"zip":"89451","miles_from_dt":24.65},{"city":"Nevada City","state_name":"California","lat":39.34509,"lng":-120.86797,"zip":"95959","miles_from_dt":25.11},{"city":"Foresthill","state_name":"California","lat":39.05453,"lng":-120.75365,"zip":"95631","miles_from_dt":25.15},{"city":"Incline Village","state_name":"Nevada","lat":39.24135,"lng":-119.93832,"zip":"89450","miles_from_dt":25.24},{"city":"Loyalton","state_name":"California","lat":39.64823,"lng":-120.25392,"zip":"96118","miles_from_dt":25.54},{"city":"Tahoma","state_name":"California","lat":39.0138,"lng":-120.09592,"zip":"96142","miles_from_dt":25.57},{"city":"Alleghany","state_name":"California","lat":39.46742,"lng":-120.83158,"zip":"95910","miles_from_dt":25.76},{"city":"Gold Run","state_name":"California","lat":39.14258,"lng":-120.84268,"zip":"95717","miles_from_dt":25.85},{"city":"Verdi","state_name":"Nevada","lat":39.52291,"lng":-119.99008,"zip":"89439","miles_from_dt":27.08},{"city":"Downieville","state_name":"California","lat":39.56336,"lng":-120.79279,"zip":"95936","miles_from_dt":27.78},{"city":"Reno","state_name":"Nevada","lat":39.40747,"lng":-119.88822,"zip":"89511","miles_from_dt":28.64},{"city":"Goodyears Bar","state_name":"California","lat":39.53482,"lng":-120.86159,"zip":"95944","miles_from_dt":29.5}],"targetCityZipCode":"95728","targetCityState":"California"},"__N_SSG":true}