{"pageProps":{"stateName":"California","cityName":"walnut-grove","nearbyCities":[{"city":"Ryde","state_name":"California","lat":38.24142,"lng":-121.57816,"zip":"95680","miles_from_dt":0.68},{"city":"Courtland","state_name":"California","lat":38.31113,"lng":-121.54595,"zip":"95615","miles_from_dt":5.74},{"city":"Isleton","state_name":"California","lat":38.15046,"lng":-121.60271,"zip":"95641","miles_from_dt":5.85},{"city":"Thornton","state_name":"California","lat":38.19039,"lng":-121.48543,"zip":"95686","miles_from_dt":6.29},{"city":"Rio Vista","state_name":"California","lat":38.1566,"lng":-121.7482,"zip":"94571","miles_from_dt":10.29},{"city":"Clarksburg","state_name":"California","lat":38.38644,"lng":-121.58118,"zip":"95612","miles_from_dt":10.5},{"city":"Elk Grove","state_name":"California","lat":38.33886,"lng":-121.43643,"zip":"95757","miles_from_dt":10.9},{"city":"Hood","state_name":"California","lat":38.39202,"lng":-121.49599,"zip":"95639","miles_from_dt":11.94},{"city":"Lodi","state_name":"California","lat":38.13204,"lng":-121.38875,"zip":"95242","miles_from_dt":12.88},{"city":"Bethel Island","state_name":"California","lat":38.02883,"lng":-121.64039,"zip":"94511","miles_from_dt":14.47},{"city":"Sacramento","state_name":"California","lat":38.43979,"lng":-121.49888,"zip":"95832","miles_from_dt":14.96},{"city":"Dixon","state_name":"California","lat":38.40599,"lng":-121.75689,"zip":"95620","miles_from_dt":15.03},{"city":"Stockton","state_name":"California","lat":38.0207,"lng":-121.51584,"zip":"95219","miles_from_dt":15.23},{"city":"Elk Grove","state_name":"California","lat":38.42932,"lng":-121.44603,"zip":"95758","miles_from_dt":15.47},{"city":"Birds Landing","state_name":"California","lat":38.1263,"lng":-121.83793,"zip":"94512","miles_from_dt":15.57},{"city":"Woodbridge","state_name":"California","lat":38.16811,"lng":-121.31011,"zip":"95258","miles_from_dt":15.73},{"city":"Lodi","state_name":"California","lat":38.15244,"lng":-121.30635,"zip":"95241","miles_from_dt":16.27},{"city":"Elk Grove","state_name":"California","lat":38.40435,"lng":-121.37531,"zip":"95759","miles_from_dt":16.42},{"city":"Oakley","state_name":"California","lat":37.99311,"lng":-121.69172,"zip":"94561","miles_from_dt":17.59},{"city":"Galt","state_name":"California","lat":38.27705,"lng":-121.26128,"zip":"95632","miles_from_dt":17.94},{"city":"Stockton","state_name":"California","lat":38.04717,"lng":-121.35121,"zip":"95209","miles_from_dt":18.2},{"city":"Knightsen","state_name":"California","lat":37.97481,"lng":-121.65265,"zip":"94548","miles_from_dt":18.25},{"city":"Sacramento","state_name":"California","lat":38.47447,"lng":-121.44401,"zip":"94230","miles_from_dt":18.29},{"city":"Sacramento","state_name":"California","lat":38.49599,"lng":-121.52948,"zip":"95831","miles_from_dt":18.32},{"city":"Sacramento","state_name":"California","lat":38.47473,"lng":-121.44266,"zip":"95823","miles_from_dt":18.34},{"city":"Sacramento","state_name":"California","lat":38.47658,"lng":-121.44271,"zip":"94205","miles_from_dt":18.45},{"city":"Sacramento","state_name":"California","lat":38.47736,"lng":-121.44416,"zip":"94283","miles_from_dt":18.47},{"city":"Vacaville","state_name":"California","lat":38.3175,"lng":-121.92079,"zip":"95696","miles_from_dt":19.05},{"city":"Acampo","state_name":"California","lat":38.19779,"lng":-121.23603,"zip":"95220","miles_from_dt":19.25},{"city":"Vacaville","state_name":"California","lat":38.3344,"lng":-121.91765,"zip":"95687","miles_from_dt":19.27},{"city":"Travis Afb","state_name":"California","lat":38.27048,"lng":-121.93851,"zip":"94535","miles_from_dt":19.3},{"city":"Elmira","state_name":"California","lat":38.35728,"lng":-121.90861,"zip":"95625","miles_from_dt":19.44},{"city":"Sacramento","state_name":"California","lat":38.49482,"lng":-121.44957,"zip":"94206","miles_from_dt":19.45},{"city":"Suisun City","state_name":"California","lat":38.19061,"lng":-121.94216,"zip":"94585","miles_from_dt":19.58},{"city":"Stockton","state_name":"California","lat":37.97294,"lng":-121.44196,"zip":"95214","miles_from_dt":19.68},{"city":"Sacramento","state_name":"California","lat":38.51273,"lng":-121.49556,"zip":"95822","miles_from_dt":19.83},{"city":"Sacramento","state_name":"California","lat":38.48943,"lng":-121.39598,"zip":"95828","miles_from_dt":20.42},{"city":"Elk Grove","state_name":"California","lat":38.43203,"lng":-121.30506,"zip":"95624","miles_from_dt":20.5},{"city":"Stockton","state_name":"California","lat":38.01899,"lng":-121.32225,"zip":"95269","miles_from_dt":20.69},{"city":"Stockton","state_name":"California","lat":37.95595,"lng":-121.44167,"zip":"95208","miles_from_dt":20.76},{"city":"Antioch","state_name":"California","lat":37.99214,"lng":-121.8142,"zip":"94509","miles_from_dt":20.8},{"city":"Stockton","state_name":"California","lat":37.95579,"lng":-121.43856,"zip":"95213","miles_from_dt":20.84},{"city":"Sacramento","state_name":"California","lat":38.508,"lng":-121.41678,"zip":"95813","miles_from_dt":21.01},{"city":"Stockton","state_name":"California","lat":38.03215,"lng":-121.29782,"zip":"95210","miles_from_dt":21.03},{"city":"Sacramento","state_name":"California","lat":38.51746,"lng":-121.44147,"zip":"95824","miles_from_dt":21.06},{"city":"West Sacramento","state_name":"California","lat":38.54078,"lng":-121.557,"zip":"95799","miles_from_dt":21.2},{"city":"Stockton","state_name":"California","lat":38.02598,"lng":-121.29727,"zip":"95296","miles_from_dt":21.33},{"city":"Stockton","state_name":"California","lat":38.00242,"lng":-121.325,"zip":"95207","miles_from_dt":21.43},{"city":"Stockton","state_name":"California","lat":38.00382,"lng":-121.31904,"zip":"95267","miles_from_dt":21.57},{"city":"Antioch","state_name":"California","lat":37.95665,"lng":-121.77777,"zip":"94531","miles_from_dt":21.8},{"city":"Brentwood","state_name":"California","lat":37.92541,"lng":-121.68452,"zip":"94513","miles_from_dt":21.96},{"city":"Davis","state_name":"California","lat":38.54348,"lng":-121.6917,"zip":"95618","miles_from_dt":22.07},{"city":"Sacramento","state_name":"California","lat":38.53491,"lng":-121.4442,"zip":"95820","miles_from_dt":22.13},{"city":"Victor","state_name":"California","lat":38.14725,"lng":-121.19525,"zip":"95253","miles_from_dt":22.14},{"city":"Sacramento","state_name":"California","lat":38.48759,"lng":-121.33326,"zip":"95829","miles_from_dt":22.24},{"city":"Sacramento","state_name":"California","lat":38.55232,"lng":-121.50072,"zip":"94285","miles_from_dt":22.43},{"city":"Sacramento","state_name":"California","lat":38.5532,"lng":-121.50148,"zip":"94284","miles_from_dt":22.48},{"city":"Sacramento","state_name":"California","lat":38.553,"lng":-121.49737,"zip":"94297","miles_from_dt":22.51},{"city":"Holt","state_name":"California","lat":37.92634,"lng":-121.44551,"zip":"95234","miles_from_dt":22.59},{"city":"Sacramento","state_name":"California","lat":38.55543,"lng":-121.49926,"zip":"94290","miles_from_dt":22.65},{"city":"Sacramento","state_name":"California","lat":38.55478,"lng":-121.49562,"zip":"94293","miles_from_dt":22.65},{"city":"Sacramento","state_name":"California","lat":38.55497,"lng":-121.49628,"zip":"94232","miles_from_dt":22.66},{"city":"Sacramento","state_name":"California","lat":38.55548,"lng":-121.49654,"zip":"94269","miles_from_dt":22.69},{"city":"Sacramento","state_name":"California","lat":38.55579,"lng":-121.49669,"zip":"95818","miles_from_dt":22.71},{"city":"Sacramento","state_name":"California","lat":38.55668,"lng":-121.49807,"zip":"95894","miles_from_dt":22.75},{"city":"Sacramento","state_name":"California","lat":38.55651,"lng":-121.49648,"zip":"94239","miles_from_dt":22.76},{"city":"Sacramento","state_name":"California","lat":38.55645,"lng":-121.49421,"zip":"94294","miles_from_dt":22.78},{"city":"Davis","state_name":"California","lat":38.5477,"lng":-121.72218,"zip":"95617","miles_from_dt":22.83},{"city":"Sacramento","state_name":"California","lat":38.55871,"lng":-121.49752,"zip":"94259","miles_from_dt":22.89},{"city":"Sacramento","state_name":"California","lat":38.55905,"lng":-121.49722,"zip":"94291","miles_from_dt":22.92},{"city":"Sacramento","state_name":"California","lat":38.55057,"lng":-121.45713,"zip":"95817","miles_from_dt":22.92},{"city":"Wilton","state_name":"California","lat":38.39851,"lng":-121.21956,"zip":"95693","miles_from_dt":22.94},{"city":"Stockton","state_name":"California","lat":37.98078,"lng":-121.31198,"zip":"95211","miles_from_dt":23.02},{"city":"Fairfield","state_name":"California","lat":38.28132,"lng":-122.00693,"zip":"94533","miles_from_dt":23.08},{"city":"Stockton","state_name":"California","lat":37.97403,"lng":-121.31906,"zip":"95204","miles_from_dt":23.13},{"city":"Stockton","state_name":"California","lat":38.04897,"lng":-121.22684,"zip":"95212","miles_from_dt":23.4},{"city":"West Sacramento","state_name":"California","lat":38.57492,"lng":-121.56186,"zip":"95798","miles_from_dt":23.53},{"city":"Sacramento","state_name":"California","lat":38.56443,"lng":-121.46914,"zip":"94299","miles_from_dt":23.65},{"city":"Sacramento","state_name":"California","lat":38.57092,"lng":-121.50291,"zip":"94296","miles_from_dt":23.66},{"city":"Stockton","state_name":"California","lat":37.97084,"lng":-121.30788,"zip":"95297","miles_from_dt":23.69},{"city":"Stockton","state_name":"California","lat":37.95237,"lng":-121.33098,"zip":"95203","miles_from_dt":23.92},{"city":"Sacramento","state_name":"California","lat":38.58071,"lng":-121.52656,"zip":"95899","miles_from_dt":24.12},{"city":"Sacramento","state_name":"California","lat":38.57302,"lng":-121.46736,"zip":"94249","miles_from_dt":24.25},{"city":"Sacramento","state_name":"California","lat":38.54554,"lng":-121.37885,"zip":"95826","miles_from_dt":24.25},{"city":"Pittsburg","state_name":"California","lat":38.00926,"lng":-121.92886,"zip":"94565","miles_from_dt":24.26},{"city":"Sacramento","state_name":"California","lat":38.57426,"lng":-121.46893,"zip":"94278","miles_from_dt":24.31},{"city":"Sacramento","state_name":"California","lat":38.58064,"lng":-121.49488,"zip":"95814","miles_from_dt":24.4},{"city":"Sacramento","state_name":"California","lat":38.56816,"lng":-121.43772,"zip":"95819","miles_from_dt":24.41},{"city":"Lockeford","state_name":"California","lat":38.15953,"lng":-121.14845,"zip":"95237","miles_from_dt":24.41},{"city":"Sacramento","state_name":"California","lat":38.57555,"lng":-121.46543,"zip":"95816","miles_from_dt":24.44},{"city":"Lodi","state_name":"California","lat":38.1177,"lng":-121.1627,"zip":"95240","miles_from_dt":24.45},{"city":"Sacramento","state_name":"California","lat":38.58193,"lng":-121.49635,"zip":"95812","miles_from_dt":24.47},{"city":"Sacramento","state_name":"California","lat":38.58162,"lng":-121.4915,"zip":"94250","miles_from_dt":24.51},{"city":"Sacramento","state_name":"California","lat":38.58232,"lng":-121.49447,"zip":"94280","miles_from_dt":24.52},{"city":"Sacramento","state_name":"California","lat":38.58219,"lng":-121.49289,"zip":"94288","miles_from_dt":24.53},{"city":"Sacramento","state_name":"California","lat":38.58169,"lng":-121.48869,"zip":"94207","miles_from_dt":24.55},{"city":"Sacramento","state_name":"California","lat":38.58246,"lng":-121.49182,"zip":"94268","miles_from_dt":24.56},{"city":"Sacramento","state_name":"California","lat":38.5828,"lng":-121.49057,"zip":"94267","miles_from_dt":24.6},{"city":"Sacramento","state_name":"California","lat":38.58358,"lng":-121.4943,"zip":"94256","miles_from_dt":24.61},{"city":"Sacramento","state_name":"California","lat":38.58321,"lng":-121.49129,"zip":"94271","miles_from_dt":24.62},{"city":"Sacramento","state_name":"California","lat":38.5832,"lng":-121.49086,"zip":"94236","miles_from_dt":24.62},{"city":"Sacramento","state_name":"California","lat":38.58354,"lng":-121.49338,"zip":"94209","miles_from_dt":24.62},{"city":"Sacramento","state_name":"California","lat":38.58402,"lng":-121.49442,"zip":"94298","miles_from_dt":24.64},{"city":"Sacramento","state_name":"California","lat":38.58407,"lng":-121.49328,"zip":"94295","miles_from_dt":24.65},{"city":"Sacramento","state_name":"California","lat":38.58381,"lng":-121.49215,"zip":"94262","miles_from_dt":24.65},{"city":"Sacramento","state_name":"California","lat":38.58371,"lng":-121.49023,"zip":"95840","miles_from_dt":24.66},{"city":"Sacramento","state_name":"California","lat":38.58447,"lng":-121.49525,"zip":"94235","miles_from_dt":24.66},{"city":"Sacramento","state_name":"California","lat":38.58452,"lng":-121.49449,"zip":"94282","miles_from_dt":24.67},{"city":"Sacramento","state_name":"California","lat":38.58435,"lng":-121.49376,"zip":"94203","miles_from_dt":24.67},{"city":"Sacramento","state_name":"California","lat":38.58481,"lng":-121.49489,"zip":"94208","miles_from_dt":24.69},{"city":"Sacramento","state_name":"California","lat":38.58486,"lng":-121.49372,"zip":"95867","miles_from_dt":24.7},{"city":"Sacramento","state_name":"California","lat":38.58499,"lng":-121.49367,"zip":"94261","miles_from_dt":24.71},{"city":"Sacramento","state_name":"California","lat":38.58529,"lng":-121.49479,"zip":"94240","miles_from_dt":24.72},{"city":"Sacramento","state_name":"California","lat":38.58528,"lng":-121.49496,"zip":"94258","miles_from_dt":24.72},{"city":"Sacramento","state_name":"California","lat":38.58508,"lng":-121.49166,"zip":"94263","miles_from_dt":24.74},{"city":"Sacramento","state_name":"California","lat":38.58508,"lng":-121.49197,"zip":"94254","miles_from_dt":24.74},{"city":"Sacramento","state_name":"California","lat":38.58547,"lng":-121.49331,"zip":"94237","miles_from_dt":24.75},{"city":"Sacramento","state_name":"California","lat":38.58568,"lng":-121.49456,"zip":"94279","miles_from_dt":24.75},{"city":"Sacramento","state_name":"California","lat":38.49415,"lng":-121.27229,"zip":"95830","miles_from_dt":24.76},{"city":"Sacramento","state_name":"California","lat":38.5862,"lng":-121.49532,"zip":"94252","miles_from_dt":24.77},{"city":"Sacramento","state_name":"California","lat":38.5858,"lng":-121.49353,"zip":"94287","miles_from_dt":24.77},{"city":"Sacramento","state_name":"California","lat":38.58521,"lng":-121.48958,"zip":"94277","miles_from_dt":24.77},{"city":"Sacramento","state_name":"California","lat":38.58606,"lng":-121.49445,"zip":"94234","miles_from_dt":24.77},{"city":"Sacramento","state_name":"California","lat":38.58628,"lng":-121.49546,"zip":"94211","miles_from_dt":24.78},{"city":"Sacramento","state_name":"California","lat":38.58643,"lng":-121.49504,"zip":"94247","miles_from_dt":24.79},{"city":"Sacramento","state_name":"California","lat":38.58645,"lng":-121.49408,"zip":"94274","miles_from_dt":24.81},{"city":"Sacramento","state_name":"California","lat":38.58646,"lng":-121.49303,"zip":"94248","miles_from_dt":24.82},{"city":"Sacramento","state_name":"California","lat":38.58712,"lng":-121.49513,"zip":"94229","miles_from_dt":24.84},{"city":"Sacramento","state_name":"California","lat":38.58712,"lng":-121.49448,"zip":"94273","miles_from_dt":24.85},{"city":"Sacramento","state_name":"California","lat":38.58712,"lng":-121.49327,"zip":"94257","miles_from_dt":24.86},{"city":"West Sacramento","state_name":"California","lat":38.59289,"lng":-121.53929,"zip":"95605","miles_from_dt":24.87},{"city":"Sacramento","state_name":"California","lat":38.58708,"lng":-121.49081,"zip":"94289","miles_from_dt":24.88},{"city":"Sacramento","state_name":"California","lat":38.58719,"lng":-121.49154,"zip":"94245","miles_from_dt":24.88},{"city":"Sacramento","state_name":"California","lat":38.588,"lng":-121.49379,"zip":"94244","miles_from_dt":24.91},{"city":"Sacramento","state_name":"California","lat":38.58761,"lng":-121.49077,"zip":"95811","miles_from_dt":24.92},{"city":"Stockton","state_name":"California","lat":37.95968,"lng":-121.28772,"zip":"95202","miles_from_dt":24.99},{"city":"Davis","state_name":"California","lat":38.55819,"lng":-121.80044,"zip":"95616","miles_from_dt":25.17},{"city":"Stockton","state_name":"California","lat":37.8961,"lng":-121.41051,"zip":"95206","miles_from_dt":25.23},{"city":"Discovery Bay","state_name":"California","lat":37.86638,"lng":-121.5868,"zip":"94505","miles_from_dt":25.37},{"city":"Stockton","state_name":"California","lat":37.96425,"lng":-121.25955,"zip":"95205","miles_from_dt":25.78},{"city":"Sacramento","state_name":"California","lat":38.55151,"lng":-121.3253,"zip":"95827","miles_from_dt":26.08},{"city":"Sacramento","state_name":"California","lat":38.58868,"lng":-121.40725,"zip":"95865","miles_from_dt":26.31},{"city":"Sacramento","state_name":"California","lat":38.58945,"lng":-121.40784,"zip":"95866","miles_from_dt":26.35},{"city":"Sacramento","state_name":"California","lat":38.5901,"lng":-121.40644,"zip":"95825","miles_from_dt":26.42},{"city":"Sacramento","state_name":"California","lat":38.60282,"lng":-121.44588,"zip":"94204","miles_from_dt":26.54},{"city":"Sacramento","state_name":"California","lat":38.61529,"lng":-121.51558,"zip":"95833","miles_from_dt":26.56},{"city":"Herald","state_name":"California","lat":38.33969,"lng":-121.11481,"zip":"95638","miles_from_dt":26.66},{"city":"Sacramento","state_name":"California","lat":38.60544,"lng":-121.44497,"zip":"95815","miles_from_dt":26.73},{"city":"Sacramento","state_name":"California","lat":38.58512,"lng":-121.37655,"zip":"95864","miles_from_dt":26.75},{"city":"Sacramento","state_name":"California","lat":38.60559,"lng":-121.44143,"zip":"95852","miles_from_dt":26.8},{"city":"West Sacramento","state_name":"California","lat":38.62394,"lng":-121.58272,"zip":"95691","miles_from_dt":26.88},{"city":"Sacramento","state_name":"California","lat":38.6073,"lng":-121.44317,"zip":"95853","miles_from_dt":26.88},{"city":"Sacramento","state_name":"California","lat":38.6081,"lng":-121.44154,"zip":"95851","miles_from_dt":26.96},{"city":"Vacaville","state_name":"California","lat":38.41901,"lng":-122.02571,"zip":"95688","miles_from_dt":27.04},{"city":"Mather","state_name":"California","lat":38.54976,"lng":-121.27898,"zip":"95655","miles_from_dt":27.43},{"city":"Byron","state_name":"California","lat":37.83071,"lng":-121.63392,"zip":"94514","miles_from_dt":27.95},{"city":"Sacramento","state_name":"California","lat":38.60833,"lng":-121.38169,"zip":"95860","miles_from_dt":28.1},{"city":"Concord","state_name":"California","lat":38.01535,"lng":-122.02331,"zip":"94522","miles_from_dt":28.18},{"city":"Sacramento","state_name":"California","lat":38.64207,"lng":-121.51967,"zip":"95834","miles_from_dt":28.36},{"city":"Concord","state_name":"California","lat":37.95293,"lng":-121.96971,"zip":"94521","miles_from_dt":28.5},{"city":"Clayton","state_name":"California","lat":37.8926,"lng":-121.88252,"zip":"94517","miles_from_dt":28.56},{"city":"Concord","state_name":"California","lat":37.98881,"lng":-122.01275,"zip":"94519","miles_from_dt":28.73},{"city":"Rancho Cordova","state_name":"California","lat":38.58882,"lng":-121.30068,"zip":"95741","miles_from_dt":28.96},{"city":"Fairfield","state_name":"California","lat":38.24112,"lng":-122.12142,"zip":"94534","miles_from_dt":29.09},{"city":"Sacramento","state_name":"California","lat":38.62541,"lng":-121.38479,"zip":"95821","miles_from_dt":29.12},{"city":"Clements","state_name":"California","lat":38.20678,"lng":-121.04615,"zip":"95227","miles_from_dt":29.47},{"city":"Sacramento","state_name":"California","lat":38.64708,"lng":-121.44312,"zip":"95838","miles_from_dt":29.52},{"city":"Concord","state_name":"California","lat":37.99344,"lng":-122.03532,"zip":"94520","miles_from_dt":29.56},{"city":"French Camp","state_name":"California","lat":37.87331,"lng":-121.29272,"zip":"95231","miles_from_dt":29.61}],"targetCityZipCode":"95690","targetCityState":"California"},"__N_SSG":true}