{"pageProps":{"stateName":"California","cityName":"winterhaven","nearbyCities":[{"city":"Yuma","state_name":"Arizona","lat":32.69884,"lng":-114.67793,"zip":"85369","miles_from_dt":11.72},{"city":"Yuma","state_name":"Arizona","lat":32.70469,"lng":-114.65664,"zip":"85364","miles_from_dt":12.17},{"city":"Bard","state_name":"California","lat":32.78346,"lng":-114.54965,"zip":"92222","miles_from_dt":14.73},{"city":"Yuma","state_name":"Arizona","lat":32.68673,"lng":-114.59192,"zip":"85366","miles_from_dt":15.72},{"city":"Somerton","state_name":"Arizona","lat":32.56651,"lng":-114.70896,"zip":"85350","miles_from_dt":19.32},{"city":"San Luis","state_name":"Arizona","lat":32.51904,"lng":-114.77977,"zip":"85336","miles_from_dt":21.96},{"city":"Palo Verde","state_name":"California","lat":33.17507,"lng":-114.92594,"zip":"92266","miles_from_dt":24.49},{"city":"San Luis","state_name":"Arizona","lat":32.47983,"lng":-114.69647,"zip":"85349","miles_from_dt":25.3},{"city":"Holtville","state_name":"California","lat":32.79188,"lng":-115.23454,"zip":"92250","miles_from_dt":25.79},{"city":"Yuma","state_name":"Arizona","lat":32.66082,"lng":-114.39361,"zip":"85367","miles_from_dt":26.33},{"city":"Cibola","state_name":"Arizona","lat":33.22795,"lng":-114.63413,"zip":"85328","miles_from_dt":28.48}],"targetCityZipCode":"92283","targetCityState":"California"},"__N_SSG":true}