{"pageProps":{"stateName":"Delaware","cityName":"delmar","nearbyCities":[{"city":"Delmar","state_name":"Maryland","lat":38.44038,"lng":-75.54559,"zip":"21875","miles_from_dt":2.82},{"city":"Laurel","state_name":"Delaware","lat":38.5465,"lng":-75.53961,"zip":"19956","miles_from_dt":5.02},{"city":"Bethel","state_name":"Delaware","lat":38.56928,"lng":-75.61029,"zip":"19931","miles_from_dt":6.74},{"city":"Salisbury","state_name":"Maryland","lat":38.38106,"lng":-75.64073,"zip":"21801","miles_from_dt":7.71},{"city":"Salisbury","state_name":"Maryland","lat":38.36305,"lng":-75.65682,"zip":"21803","miles_from_dt":9.23},{"city":"Parsonsburg","state_name":"Maryland","lat":38.37006,"lng":-75.46064,"zip":"21849","miles_from_dt":9.42},{"city":"Sharptown","state_name":"Maryland","lat":38.53525,"lng":-75.72834,"zip":"21861","miles_from_dt":9.55},{"city":"Salisbury","state_name":"Maryland","lat":38.34096,"lng":-75.53603,"zip":"21802","miles_from_dt":9.56},{"city":"Hebron","state_name":"Maryland","lat":38.40202,"lng":-75.72841,"zip":"21830","miles_from_dt":10.12},{"city":"Mardela Springs","state_name":"Maryland","lat":38.4594,"lng":-75.76731,"zip":"21837","miles_from_dt":10.86},{"city":"Salisbury","state_name":"Maryland","lat":38.31726,"lng":-75.53673,"zip":"21804","miles_from_dt":11.17},{"city":"Fruitland","state_name":"Maryland","lat":38.32077,"lng":-75.62353,"zip":"21826","miles_from_dt":11.2},{"city":"Seaford","state_name":"Delaware","lat":38.63404,"lng":-75.62454,"zip":"19973","miles_from_dt":11.24},{"city":"Pittsville","state_name":"Maryland","lat":38.36171,"lng":-75.39867,"zip":"21850","miles_from_dt":12.17},{"city":"Powellville","state_name":"Maryland","lat":38.3495,"lng":-75.40549,"zip":"21852","miles_from_dt":12.48},{"city":"Willards","state_name":"Maryland","lat":38.39266,"lng":-75.35417,"zip":"21874","miles_from_dt":13},{"city":"Rhodesdale","state_name":"Maryland","lat":38.57442,"lng":-75.79985,"zip":"21659","miles_from_dt":14.23},{"city":"Eden","state_name":"Maryland","lat":38.28129,"lng":-75.65566,"zip":"21822","miles_from_dt":14.32},{"city":"Allen","state_name":"Maryland","lat":38.29005,"lng":-75.68887,"zip":"21810","miles_from_dt":14.48},{"city":"Whaleyville","state_name":"Maryland","lat":38.4163,"lng":-75.29399,"zip":"21872","miles_from_dt":15.46},{"city":"Quantico","state_name":"Maryland","lat":38.33807,"lng":-75.79224,"zip":"21856","miles_from_dt":15.49},{"city":"Georgetown","state_name":"Delaware","lat":38.67421,"lng":-75.39864,"zip":"19947","miles_from_dt":16.4},{"city":"Manokin","state_name":"Maryland","lat":38.33073,"lng":-75.80639,"zip":"21836","miles_from_dt":16.41},{"city":"Millsboro","state_name":"Delaware","lat":38.58118,"lng":-75.28274,"zip":"19966","miles_from_dt":17.05},{"city":"Vienna","state_name":"Maryland","lat":38.43246,"lng":-75.89012,"zip":"21869","miles_from_dt":17.73},{"city":"Bridgeville","state_name":"Delaware","lat":38.73699,"lng":-75.60586,"zip":"19933","miles_from_dt":18.03},{"city":"Frankford","state_name":"Delaware","lat":38.50336,"lng":-75.22855,"zip":"19945","miles_from_dt":18.51},{"city":"Tyaskin","state_name":"Maryland","lat":38.28605,"lng":-75.83296,"zip":"21865","miles_from_dt":19.5},{"city":"Showell","state_name":"Maryland","lat":38.39716,"lng":-75.21514,"zip":"21862","miles_from_dt":19.94},{"city":"Hurlock","state_name":"Maryland","lat":38.6442,"lng":-75.87124,"zip":"21643","miles_from_dt":20.05},{"city":"Federalsburg","state_name":"Maryland","lat":38.72287,"lng":-75.77478,"zip":"21632","miles_from_dt":20.3},{"city":"Princess Anne","state_name":"Maryland","lat":38.20453,"lng":-75.7102,"zip":"21853","miles_from_dt":20.33},{"city":"Linkwood","state_name":"Maryland","lat":38.53355,"lng":-75.93758,"zip":"21835","miles_from_dt":20.39},{"city":"Dagsboro","state_name":"Delaware","lat":38.56575,"lng":-75.2022,"zip":"19939","miles_from_dt":20.76},{"city":"Selbyville","state_name":"Delaware","lat":38.46862,"lng":-75.17462,"zip":"19975","miles_from_dt":21.35},{"city":"Bivalve","state_name":"Maryland","lat":38.29176,"lng":-75.88669,"zip":"21814","miles_from_dt":21.51},{"city":"Snow Hill","state_name":"Maryland","lat":38.19167,"lng":-75.40327,"zip":"21863","miles_from_dt":21.64},{"city":"Bishopville","state_name":"Maryland","lat":38.42658,"lng":-75.17293,"zip":"21813","miles_from_dt":21.73},{"city":"Berlin","state_name":"Maryland","lat":38.31977,"lng":-75.22024,"zip":"21811","miles_from_dt":21.79},{"city":"East New Market","state_name":"Maryland","lat":38.58784,"lng":-75.94598,"zip":"21631","miles_from_dt":21.84},{"city":"Newark","state_name":"Maryland","lat":38.24385,"lng":-75.29588,"zip":"21841","miles_from_dt":21.86},{"city":"Secretary","state_name":"Maryland","lat":38.6081,"lng":-75.94732,"zip":"21664","miles_from_dt":22.43},{"city":"Harbeson","state_name":"Delaware","lat":38.68763,"lng":-75.25124,"zip":"19951","miles_from_dt":22.48},{"city":"Nanticoke","state_name":"Maryland","lat":38.25814,"lng":-75.89276,"zip":"21840","miles_from_dt":23.21},{"city":"Westover","state_name":"Maryland","lat":38.15673,"lng":-75.6998,"zip":"21890","miles_from_dt":23.23},{"city":"Ellendale","state_name":"Delaware","lat":38.7949,"lng":-75.42476,"zip":"19941","miles_from_dt":23.25},{"city":"Greenwood","state_name":"Delaware","lat":38.82007,"lng":-75.59691,"zip":"19950","miles_from_dt":23.7},{"city":"Millville","state_name":"Delaware","lat":38.53978,"lng":-75.1209,"zip":"19967","miles_from_dt":24.63},{"city":"Milton","state_name":"Delaware","lat":38.77553,"lng":-75.28466,"zip":"19968","miles_from_dt":25.67},{"city":"Ocean View","state_name":"Delaware","lat":38.55504,"lng":-75.09901,"zip":"19970","miles_from_dt":25.99},{"city":"Preston","state_name":"Maryland","lat":38.74601,"lng":-75.92103,"zip":"21655","miles_from_dt":26.61},{"city":"Ocean City","state_name":"Maryland","lat":38.3778,"lng":-75.09084,"zip":"21842","miles_from_dt":26.8},{"city":"Lincoln","state_name":"Delaware","lat":38.85082,"lng":-75.41363,"zip":"19960","miles_from_dt":27.09},{"city":"Westover","state_name":"Maryland","lat":38.10489,"lng":-75.73127,"zip":"21871","miles_from_dt":27.17},{"city":"Cambridge","state_name":"Maryland","lat":38.49537,"lng":-76.07169,"zip":"21613","miles_from_dt":27.32},{"city":"Pocomoke City","state_name":"Maryland","lat":38.07825,"lng":-75.54375,"zip":"21851","miles_from_dt":27.55},{"city":"Bethlehem","state_name":"Maryland","lat":38.74032,"lng":-75.95202,"zip":"21609","miles_from_dt":27.58},{"city":"Bethany Beach","state_name":"Delaware","lat":38.56311,"lng":-75.07085,"zip":"19930","miles_from_dt":27.6},{"city":"Lewes","state_name":"Delaware","lat":38.72737,"lng":-75.16632,"zip":"19958","miles_from_dt":27.77},{"city":"Fenwick Island","state_name":"Delaware","lat":38.47542,"lng":-75.05559,"zip":"19944","miles_from_dt":27.8},{"city":"Girdletree","state_name":"Maryland","lat":38.09892,"lng":-75.38324,"zip":"21829","miles_from_dt":27.97},{"city":"Ocean City","state_name":"Maryland","lat":38.33803,"lng":-75.08397,"zip":"21843","miles_from_dt":27.98},{"city":"Nassau","state_name":"Delaware","lat":38.75443,"lng":-75.18785,"zip":"19969","miles_from_dt":28.1},{"city":"Upper Fairmount","state_name":"Maryland","lat":38.11025,"lng":-75.79399,"zip":"21867","miles_from_dt":28.13},{"city":"Deal Island","state_name":"Maryland","lat":38.16664,"lng":-75.90611,"zip":"21821","miles_from_dt":28.21},{"city":"Trappe","state_name":"Maryland","lat":38.65235,"lng":-76.04163,"zip":"21673","miles_from_dt":28.34},{"city":"Houston","state_name":"Delaware","lat":38.89891,"lng":-75.52092,"zip":"19954","miles_from_dt":29.2},{"city":"Rehoboth Beach","state_name":"Delaware","lat":38.69113,"lng":-75.10132,"zip":"19971","miles_from_dt":29.27},{"city":"Crapo","state_name":"Maryland","lat":38.33902,"lng":-76.08398,"zip":"21626","miles_from_dt":29.57},{"city":"Denton","state_name":"Maryland","lat":38.86111,"lng":-75.82753,"zip":"21629","miles_from_dt":29.96}],"targetCityZipCode":"19940","targetCityState":"Delaware"},"__N_SSG":true}