{"pageProps":{"stateName":"Delaware","cityName":"yorklyn","nearbyCities":[{"city":"Wilmington","state_name":"Delaware","lat":39.79767,"lng":-75.61284,"zip":"19807","miles_from_dt":1.99},{"city":"Hockessin","state_name":"Delaware","lat":39.78512,"lng":-75.68147,"zip":"19707","miles_from_dt":2.09},{"city":"Winterthur","state_name":"Delaware","lat":39.80666,"lng":-75.5973,"zip":"19735","miles_from_dt":3.03},{"city":"Montchanin","state_name":"Delaware","lat":39.78964,"lng":-75.58458,"zip":"19710","miles_from_dt":3.16},{"city":"Wilmington","state_name":"Delaware","lat":39.73777,"lng":-75.66596,"zip":"19808","miles_from_dt":3.18},{"city":"Wilmington","state_name":"Delaware","lat":39.74523,"lng":-75.59373,"zip":"19805","miles_from_dt":3.56},{"city":"Rockland","state_name":"Delaware","lat":39.80033,"lng":-75.57455,"zip":"19732","miles_from_dt":3.88},{"city":"Wilmington","state_name":"Delaware","lat":39.762,"lng":-75.56336,"zip":"19806","miles_from_dt":4.41},{"city":"Wilmington","state_name":"Delaware","lat":39.7166,"lng":-75.62094,"zip":"19804","miles_from_dt":4.55},{"city":"Mendenhall","state_name":"Pennsylvania","lat":39.85343,"lng":-75.64103,"zip":"19357","miles_from_dt":5.05},{"city":"Wilmington","state_name":"Delaware","lat":39.74769,"lng":-75.55791,"zip":"19893","miles_from_dt":5.05},{"city":"Wilmington","state_name":"Delaware","lat":39.79805,"lng":-75.54565,"zip":"19897","miles_from_dt":5.31},{"city":"Wilmington","state_name":"Delaware","lat":39.79912,"lng":-75.5422,"zip":"19803","miles_from_dt":5.51},{"city":"Wilmington","state_name":"Delaware","lat":39.74384,"lng":-75.54947,"zip":"19895","miles_from_dt":5.57},{"city":"Wilmington","state_name":"Delaware","lat":39.74245,"lng":-75.54941,"zip":"19898","miles_from_dt":5.61},{"city":"Wilmington","state_name":"Delaware","lat":39.74827,"lng":-75.54565,"zip":"19886","miles_from_dt":5.62},{"city":"Wilmington","state_name":"Delaware","lat":39.74852,"lng":-75.54409,"zip":"19894","miles_from_dt":5.69},{"city":"Wilmington","state_name":"Delaware","lat":39.74328,"lng":-75.54713,"zip":"19885","miles_from_dt":5.7},{"city":"Wilmington","state_name":"Delaware","lat":39.73822,"lng":-75.55029,"zip":"19890","miles_from_dt":5.72},{"city":"Chadds Ford","state_name":"Pennsylvania","lat":39.85722,"lng":-75.60244,"zip":"19317","miles_from_dt":5.72},{"city":"Wilmington","state_name":"Delaware","lat":39.74325,"lng":-75.54538,"zip":"19884","miles_from_dt":5.78},{"city":"Wilmington","state_name":"Delaware","lat":39.73563,"lng":-75.54766,"zip":"19899","miles_from_dt":5.93},{"city":"Wilmington","state_name":"Delaware","lat":39.75715,"lng":-75.52873,"zip":"19802","miles_from_dt":6.28},{"city":"Wilmington","state_name":"Delaware","lat":39.72782,"lng":-75.54615,"zip":"19801","miles_from_dt":6.29},{"city":"Wilmington","state_name":"Delaware","lat":39.75842,"lng":-75.52771,"zip":"19896","miles_from_dt":6.31},{"city":"Wilmington","state_name":"Delaware","lat":39.73018,"lng":-75.53862,"zip":"19880","miles_from_dt":6.53},{"city":"Wilmington","state_name":"Delaware","lat":39.72894,"lng":-75.53734,"zip":"19850","miles_from_dt":6.64},{"city":"Newark","state_name":"Delaware","lat":39.71404,"lng":-75.73776,"zip":"19715","miles_from_dt":6.82},{"city":"Wilmington","state_name":"Delaware","lat":39.6836,"lng":-75.61307,"zip":"19892","miles_from_dt":6.86},{"city":"Toughkenamon","state_name":"Pennsylvania","lat":39.83333,"lng":-75.75267,"zip":"19374","miles_from_dt":6.9},{"city":"Newark","state_name":"Delaware","lat":39.71379,"lng":-75.74033,"zip":"19711","miles_from_dt":6.93},{"city":"Newark","state_name":"Delaware","lat":39.71416,"lng":-75.74145,"zip":"19714","miles_from_dt":6.96},{"city":"Kennett Square","state_name":"Pennsylvania","lat":39.86706,"lng":-75.71763,"zip":"19348","miles_from_dt":7.19},{"city":"Wilmington","state_name":"Delaware","lat":39.68227,"lng":-75.69312,"zip":"19891","miles_from_dt":7.28},{"city":"Avondale","state_name":"Pennsylvania","lat":39.82163,"lng":-75.76887,"zip":"19311","miles_from_dt":7.29},{"city":"Wilmington","state_name":"Delaware","lat":39.75801,"lng":-75.50218,"zip":"19809","miles_from_dt":7.64},{"city":"Wilmington","state_name":"Delaware","lat":39.81855,"lng":-75.50628,"zip":"19810","miles_from_dt":7.73},{"city":"Newark","state_name":"Delaware","lat":39.68293,"lng":-75.71918,"zip":"19712","miles_from_dt":7.86},{"city":"Landenberg","state_name":"Pennsylvania","lat":39.76244,"lng":-75.79528,"zip":"19350","miles_from_dt":8.21},{"city":"New Castle","state_name":"Delaware","lat":39.68458,"lng":-75.73524,"zip":"19726","miles_from_dt":8.24},{"city":"Newark","state_name":"Delaware","lat":39.68567,"lng":-75.73728,"zip":"19725","miles_from_dt":8.25},{"city":"Newark","state_name":"Delaware","lat":39.67097,"lng":-75.70972,"zip":"19713","miles_from_dt":8.34},{"city":"Pocopson","state_name":"Pennsylvania","lat":39.90149,"lng":-75.6267,"zip":"19366","miles_from_dt":8.4},{"city":"Newark","state_name":"Delaware","lat":39.6665,"lng":-75.70752,"zip":"19718","miles_from_dt":8.58},{"city":"New Castle","state_name":"Delaware","lat":39.66366,"lng":-75.5682,"zip":"19721","miles_from_dt":8.97},{"city":"Newark","state_name":"Delaware","lat":39.68121,"lng":-75.75343,"zip":"19717","miles_from_dt":9.03},{"city":"Garnet Valley","state_name":"Pennsylvania","lat":39.85048,"lng":-75.4921,"zip":"19060","miles_from_dt":9.36},{"city":"Newark","state_name":"Delaware","lat":39.66779,"lng":-75.74595,"zip":"19716","miles_from_dt":9.51},{"city":"New Castle","state_name":"Delaware","lat":39.645,"lng":-75.60678,"zip":"19720","miles_from_dt":9.53},{"city":"Unionville","state_name":"Pennsylvania","lat":39.8996,"lng":-75.73993,"zip":"19375","miles_from_dt":9.72},{"city":"Concordville","state_name":"Pennsylvania","lat":39.88672,"lng":-75.51889,"zip":"19340","miles_from_dt":9.86},{"city":"Kemblesville","state_name":"Pennsylvania","lat":39.74633,"lng":-75.82436,"zip":"19347","miles_from_dt":9.95},{"city":"Claymont","state_name":"Delaware","lat":39.8043,"lng":-75.45794,"zip":"19703","miles_from_dt":9.97},{"city":"Concordville","state_name":"Pennsylvania","lat":39.89003,"lng":-75.52008,"zip":"19331","miles_from_dt":9.99},{"city":"Deepwater","state_name":"New Jersey","lat":39.68825,"lng":-75.49761,"zip":"08023","miles_from_dt":10},{"city":"West Chester","state_name":"Pennsylvania","lat":39.92766,"lng":-75.61475,"zip":"19382","miles_from_dt":10.27},{"city":"Thornton","state_name":"Pennsylvania","lat":39.90674,"lng":-75.53255,"zip":"19373","miles_from_dt":10.51},{"city":"Chatham","state_name":"Pennsylvania","lat":39.85597,"lng":-75.82292,"zip":"19318","miles_from_dt":10.91},{"city":"Concordville","state_name":"Pennsylvania","lat":39.89912,"lng":-75.5042,"zip":"19339","miles_from_dt":11.02},{"city":"West Grove","state_name":"Pennsylvania","lat":39.83683,"lng":-75.83962,"zip":"19390","miles_from_dt":11.18},{"city":"Glen Mills","state_name":"Pennsylvania","lat":39.90458,"lng":-75.50243,"zip":"19342","miles_from_dt":11.37},{"city":"West Chester","state_name":"Pennsylvania","lat":39.94303,"lng":-75.60155,"zip":"19383","miles_from_dt":11.44},{"city":"Penns Grove","state_name":"New Jersey","lat":39.70209,"lng":-75.4501,"zip":"08069","miles_from_dt":11.59},{"city":"Westtown","state_name":"Pennsylvania","lat":39.93217,"lng":-75.54945,"zip":"19395","miles_from_dt":11.59},{"city":"Marcus Hook","state_name":"Pennsylvania","lat":39.82741,"lng":-75.432,"zip":"19061","miles_from_dt":11.68},{"city":"Newark","state_name":"Delaware","lat":39.62199,"lng":-75.72803,"zip":"19702","miles_from_dt":11.83},{"city":"Cheyney","state_name":"Pennsylvania","lat":39.92723,"lng":-75.52319,"zip":"19319","miles_from_dt":11.96},{"city":"Chester Heights","state_name":"Pennsylvania","lat":39.89078,"lng":-75.46295,"zip":"19017","miles_from_dt":12.23},{"city":"Aston","state_name":"Pennsylvania","lat":39.8637,"lng":-75.4338,"zip":"19014","miles_from_dt":12.52},{"city":"Pedricktown","state_name":"New Jersey","lat":39.7388,"lng":-75.41281,"zip":"08067","miles_from_dt":12.57},{"city":"Kelton","state_name":"Pennsylvania","lat":39.80935,"lng":-75.87654,"zip":"19346","miles_from_dt":12.6},{"city":"New London","state_name":"Pennsylvania","lat":39.78001,"lng":-75.88005,"zip":"19360","miles_from_dt":12.63},{"city":"Pennsville","state_name":"New Jersey","lat":39.62494,"lng":-75.50902,"zip":"08070","miles_from_dt":12.87},{"city":"Lewisville","state_name":"Pennsylvania","lat":39.72265,"lng":-75.8748,"zip":"19351","miles_from_dt":12.98},{"city":"Lincoln University","state_name":"Pennsylvania","lat":39.78036,"lng":-75.89054,"zip":"19352","miles_from_dt":13.19},{"city":"Lenni","state_name":"Pennsylvania","lat":39.89721,"lng":-75.44532,"zip":"19052","miles_from_dt":13.24},{"city":"Elk Mills","state_name":"Maryland","lat":39.65675,"lng":-75.83449,"zip":"21920","miles_from_dt":13.31},{"city":"Bear","state_name":"Delaware","lat":39.58427,"lng":-75.69914,"zip":"19701","miles_from_dt":13.85},{"city":"West Chester","state_name":"Pennsylvania","lat":39.98594,"lng":-75.60358,"zip":"19380","miles_from_dt":14.34},{"city":"Gradyville","state_name":"Pennsylvania","lat":39.94291,"lng":-75.4676,"zip":"19039","miles_from_dt":14.58},{"city":"Delaware City","state_name":"Delaware","lat":39.5715,"lng":-75.5905,"zip":"19706","miles_from_dt":14.67},{"city":"Brookhaven","state_name":"Pennsylvania","lat":39.86811,"lng":-75.39164,"zip":"19015","miles_from_dt":14.67},{"city":"Chester","state_name":"Pennsylvania","lat":39.84529,"lng":-75.37474,"zip":"19013","miles_from_dt":14.95},{"city":"Bridgeport","state_name":"New Jersey","lat":39.81186,"lng":-75.36286,"zip":"08014","miles_from_dt":15.05},{"city":"Childs","state_name":"Maryland","lat":39.64921,"lng":-75.87095,"zip":"21916","miles_from_dt":15.15},{"city":"Saint Georges","state_name":"Delaware","lat":39.55928,"lng":-75.65143,"zip":"19733","miles_from_dt":15.26},{"city":"West Chester","state_name":"Pennsylvania","lat":39.99742,"lng":-75.58076,"zip":"19381","miles_from_dt":15.34},{"city":"Modena","state_name":"Pennsylvania","lat":39.96362,"lng":-75.80659,"zip":"19358","miles_from_dt":15.36},{"city":"Media","state_name":"Pennsylvania","lat":39.92248,"lng":-75.41419,"zip":"19063","miles_from_dt":15.62},{"city":"Southeastern","state_name":"Pennsylvania","lat":39.98224,"lng":-75.50887,"zip":"19397","miles_from_dt":15.64},{"city":"Chester","state_name":"Pennsylvania","lat":39.84699,"lng":-75.36099,"zip":"19016","miles_from_dt":15.68},{"city":"Elkton","state_name":"Maryland","lat":39.62568,"lng":-75.85904,"zip":"21921","miles_from_dt":15.71},{"city":"Elkton","state_name":"Maryland","lat":39.60804,"lng":-75.83567,"zip":"21922","miles_from_dt":15.72},{"city":"Cochranville","state_name":"Pennsylvania","lat":39.87359,"lng":-75.91695,"zip":"19330","miles_from_dt":15.94},{"city":"Media","state_name":"Pennsylvania","lat":39.90495,"lng":-75.38863,"zip":"19065","miles_from_dt":16.02},{"city":"Glen Riddle Lima","state_name":"Pennsylvania","lat":39.90513,"lng":-75.38884,"zip":"19037","miles_from_dt":16.02},{"city":"Thorndale","state_name":"Pennsylvania","lat":39.99941,"lng":-75.75972,"zip":"19372","miles_from_dt":16.34},{"city":"Wallingford","state_name":"Pennsylvania","lat":39.89094,"lng":-75.37014,"zip":"19086","miles_from_dt":16.39},{"city":"Coatesville","state_name":"Pennsylvania","lat":39.97046,"lng":-75.83069,"zip":"19320","miles_from_dt":16.49},{"city":"Media","state_name":"Pennsylvania","lat":39.91905,"lng":-75.38738,"zip":"19091","miles_from_dt":16.61},{"city":"Swedesboro","state_name":"New Jersey","lat":39.75579,"lng":-75.33017,"zip":"08085","miles_from_dt":16.73},{"city":"Edgemont","state_name":"Pennsylvania","lat":39.97442,"lng":-75.45261,"zip":"19028","miles_from_dt":16.78},{"city":"Woodlyn","state_name":"Pennsylvania","lat":39.87499,"lng":-75.3467,"zip":"19094","miles_from_dt":17.05},{"city":"Downingtown","state_name":"Pennsylvania","lat":40.02271,"lng":-75.72045,"zip":"19335","miles_from_dt":17.23},{"city":"Crum Lynne","state_name":"Pennsylvania","lat":39.85862,"lng":-75.33507,"zip":"19022","miles_from_dt":17.24},{"city":"Lionville","state_name":"Pennsylvania","lat":40.03277,"lng":-75.62202,"zip":"19353","miles_from_dt":17.45},{"city":"Oxford","state_name":"Pennsylvania","lat":39.7864,"lng":-75.97279,"zip":"19363","miles_from_dt":17.57},{"city":"Immaculata","state_name":"Pennsylvania","lat":40.02967,"lng":-75.56955,"zip":"19345","miles_from_dt":17.64},{"city":"Swarthmore","state_name":"Pennsylvania","lat":39.89864,"lng":-75.34751,"zip":"19081","miles_from_dt":17.7},{"city":"Newtown Square","state_name":"Pennsylvania","lat":39.98093,"lng":-75.4346,"zip":"19073","miles_from_dt":17.72},{"city":"Pomeroy","state_name":"Pennsylvania","lat":39.96285,"lng":-75.88395,"zip":"19367","miles_from_dt":17.97},{"city":"Exton","state_name":"Pennsylvania","lat":40.04213,"lng":-75.63814,"zip":"19341","miles_from_dt":18.07},{"city":"Ridley Park","state_name":"Pennsylvania","lat":39.87328,"lng":-75.32159,"zip":"19078","miles_from_dt":18.25},{"city":"Folsom","state_name":"Pennsylvania","lat":39.89077,"lng":-75.32892,"zip":"19033","miles_from_dt":18.35},{"city":"Port Penn","state_name":"Delaware","lat":39.5102,"lng":-75.59616,"zip":"19731","miles_from_dt":18.8},{"city":"Gibbstown","state_name":"New Jersey","lat":39.82883,"lng":-75.29345,"zip":"08027","miles_from_dt":18.89},{"city":"Wagontown","state_name":"Pennsylvania","lat":40.00958,"lng":-75.84113,"zip":"19376","miles_from_dt":19.01},{"city":"Morton","state_name":"Pennsylvania","lat":39.90628,"lng":-75.32452,"zip":"19070","miles_from_dt":19.02},{"city":"Woodstown","state_name":"New Jersey","lat":39.63934,"lng":-75.3316,"zip":"08098","miles_from_dt":19.22},{"city":"Prospect Park","state_name":"Pennsylvania","lat":39.88586,"lng":-75.30763,"zip":"19076","miles_from_dt":19.25},{"city":"Springfield","state_name":"Pennsylvania","lat":39.93214,"lng":-75.33873,"zip":"19064","miles_from_dt":19.26},{"city":"Sadsburyville","state_name":"Pennsylvania","lat":39.98082,"lng":-75.89496,"zip":"19369","miles_from_dt":19.26},{"city":"Malvern","state_name":"Pennsylvania","lat":40.0466,"lng":-75.5302,"zip":"19355","miles_from_dt":19.32},{"city":"Valley Forge","state_name":"Pennsylvania","lat":40.05394,"lng":-75.55694,"zip":"19493","miles_from_dt":19.42},{"city":"Valley Forge","state_name":"Pennsylvania","lat":40.054,"lng":-75.55746,"zip":"19495","miles_from_dt":19.42},{"city":"Valley Forge","state_name":"Pennsylvania","lat":40.05458,"lng":-75.55688,"zip":"19494","miles_from_dt":19.46},{"city":"Essington","state_name":"Pennsylvania","lat":39.86345,"lng":-75.29271,"zip":"19029","miles_from_dt":19.48},{"city":"Kirkwood","state_name":"Delaware","lat":39.49842,"lng":-75.68489,"zip":"19708","miles_from_dt":19.58},{"city":"Holmes","state_name":"Pennsylvania","lat":39.90042,"lng":-75.30891,"zip":"19043","miles_from_dt":19.59},{"city":"Holmes","state_name":"Pennsylvania","lat":39.90438,"lng":-75.30854,"zip":"19098","miles_from_dt":19.73},{"city":"Parkesburg","state_name":"Pennsylvania","lat":39.9655,"lng":-75.92766,"zip":"19365","miles_from_dt":19.82},{"city":"Norwood","state_name":"Pennsylvania","lat":39.88642,"lng":-75.29643,"zip":"19074","miles_from_dt":19.82},{"city":"Salem","state_name":"New Jersey","lat":39.54284,"lng":-75.43184,"zip":"08079","miles_from_dt":19.87},{"city":"Paoli","state_name":"Pennsylvania","lat":40.0414,"lng":-75.4809,"zip":"19301","miles_from_dt":19.96},{"city":"Lyndell","state_name":"Pennsylvania","lat":40.05937,"lng":-75.74483,"zip":"19354","miles_from_dt":20},{"city":"Berwyn","state_name":"Pennsylvania","lat":40.0309,"lng":-75.45083,"zip":"19312","miles_from_dt":20.07},{"city":"Broomall","state_name":"Pennsylvania","lat":39.97425,"lng":-75.36107,"zip":"19008","miles_from_dt":20.08},{"city":"Middletown","state_name":"Delaware","lat":39.48923,"lng":-75.68314,"zip":"19709","miles_from_dt":20.2},{"city":"Philadelphia","state_name":"Pennsylvania","lat":39.86679,"lng":-75.27911,"zip":"19113","miles_from_dt":20.24},{"city":"Quinton","state_name":"New Jersey","lat":39.54495,"lng":-75.41258,"zip":"08072","miles_from_dt":20.35},{"city":"Atglen","state_name":"Pennsylvania","lat":39.93478,"lng":-75.97038,"zip":"19310","miles_from_dt":20.42},{"city":"Glenolden","state_name":"Pennsylvania","lat":39.90368,"lng":-75.29323,"zip":"19036","miles_from_dt":20.44},{"city":"Harrisonville","state_name":"New Jersey","lat":39.68662,"lng":-75.27661,"zip":"08039","miles_from_dt":20.55},{"city":"Clifton Heights","state_name":"Pennsylvania","lat":39.92312,"lng":-75.29834,"zip":"19018","miles_from_dt":20.8},{"city":"Mickleton","state_name":"New Jersey","lat":39.78355,"lng":-75.25155,"zip":"08056","miles_from_dt":20.82},{"city":"Folcroft","state_name":"Pennsylvania","lat":39.88907,"lng":-75.277,"zip":"19032","miles_from_dt":20.85},{"city":"Devault","state_name":"Pennsylvania","lat":40.07829,"lng":-75.53511,"zip":"19432","miles_from_dt":21.34},{"city":"Drexel Hill","state_name":"Pennsylvania","lat":39.95035,"lng":-75.304,"zip":"19026","miles_from_dt":21.49},{"city":"Devon","state_name":"Pennsylvania","lat":40.04208,"lng":-75.42331,"zip":"19333","miles_from_dt":21.5},{"city":"North East","state_name":"Maryland","lat":39.58593,"lng":-75.95821,"zip":"21901","miles_from_dt":21.51},{"city":"Southeastern","state_name":"Pennsylvania","lat":40.04122,"lng":-75.42075,"zip":"19398","miles_from_dt":21.52},{"city":"Uwchland","state_name":"Pennsylvania","lat":40.09186,"lng":-75.6913,"zip":"19480","miles_from_dt":21.65},{"city":"Brandamore","state_name":"Pennsylvania","lat":40.05597,"lng":-75.83804,"zip":"19316","miles_from_dt":21.66},{"city":"Sharon Hill","state_name":"Pennsylvania","lat":39.90238,"lng":-75.26591,"zip":"19079","miles_from_dt":21.74},{"city":"Alloway","state_name":"New Jersey","lat":39.55423,"lng":-75.35683,"zip":"08001","miles_from_dt":21.81},{"city":"Rising Sun","state_name":"Maryland","lat":39.68931,"lng":-76.03886,"zip":"21911","miles_from_dt":22.01},{"city":"Darby","state_name":"Pennsylvania","lat":39.91724,"lng":-75.26708,"zip":"19023","miles_from_dt":22.1},{"city":"Chesapeake City","state_name":"Maryland","lat":39.50095,"lng":-75.84764,"zip":"21915","miles_from_dt":22.16},{"city":"Havertown","state_name":"Pennsylvania","lat":39.97715,"lng":-75.31192,"zip":"19083","miles_from_dt":22.22},{"city":"Paulsboro","state_name":"New Jersey","lat":39.83475,"lng":-75.23017,"zip":"08066","miles_from_dt":22.27},{"city":"Chester Springs","state_name":"Pennsylvania","lat":40.10383,"lng":-75.64476,"zip":"19425","miles_from_dt":22.32},{"city":"Clarksboro","state_name":"New Jersey","lat":39.79674,"lng":-75.22271,"zip":"08020","miles_from_dt":22.38},{"city":"Christiana","state_name":"Pennsylvania","lat":39.90923,"lng":-76.03073,"zip":"17509","miles_from_dt":22.47},{"city":"Odessa","state_name":"Delaware","lat":39.45443,"lng":-75.66077,"zip":"19730","miles_from_dt":22.5},{"city":"Nottingham","state_name":"Pennsylvania","lat":39.75175,"lng":-76.06576,"zip":"19362","miles_from_dt":22.61},{"city":"Hancocks Bridge","state_name":"New Jersey","lat":39.47391,"lng":-75.48852,"zip":"08038","miles_from_dt":22.68},{"city":"Philadelphia","state_name":"Pennsylvania","lat":39.88391,"lng":-75.2343,"zip":"19153","miles_from_dt":22.87},{"city":"Lansdowne","state_name":"Pennsylvania","lat":39.93764,"lng":-75.26355,"zip":"19050","miles_from_dt":22.9},{"city":"Mullica Hill","state_name":"New Jersey","lat":39.71465,"lng":-75.22124,"zip":"08062","miles_from_dt":22.9},{"city":"Glenmoore","state_name":"Pennsylvania","lat":40.10203,"lng":-75.75461,"zip":"19343","miles_from_dt":22.98},{"city":"Philadelphia","state_name":"Pennsylvania","lat":39.90264,"lng":-75.24032,"zip":"19176","miles_from_dt":23.01},{"city":"Charlestown","state_name":"Maryland","lat":39.57256,"lng":-75.98158,"zip":"21914","miles_from_dt":23.06},{"city":"Southeastern","state_name":"Pennsylvania","lat":40.0716,"lng":-75.42816,"zip":"19399","miles_from_dt":23.1},{"city":"Mount Royal","state_name":"New Jersey","lat":39.80459,"lng":-75.207,"zip":"08061","miles_from_dt":23.25},{"city":"Haverford","state_name":"Pennsylvania","lat":40.00663,"lng":-75.31747,"zip":"19041","miles_from_dt":23.29},{"city":"Wayne","state_name":"Pennsylvania","lat":40.06172,"lng":-75.40004,"zip":"19087","miles_from_dt":23.31},{"city":"Kirkwood","state_name":"Pennsylvania","lat":39.84345,"lng":-76.07316,"zip":"17536","miles_from_dt":23.31},{"city":"Upper Darby","state_name":"Pennsylvania","lat":39.96043,"lng":-75.27032,"zip":"19082","miles_from_dt":23.38},{"city":"Villanova","state_name":"Pennsylvania","lat":40.03759,"lng":-75.34969,"zip":"19085","miles_from_dt":23.61},{"city":"Bryn Mawr","state_name":"Pennsylvania","lat":40.02362,"lng":-75.3298,"zip":"19010","miles_from_dt":23.63},{"city":"Valley Forge","state_name":"Pennsylvania","lat":40.09729,"lng":-75.46849,"zip":"19496","miles_from_dt":23.75},{"city":"Ardmore","state_name":"Pennsylvania","lat":40.00217,"lng":-75.29841,"zip":"19003","miles_from_dt":23.86},{"city":"Philadelphia","state_name":"Pennsylvania","lat":39.92278,"lng":-75.23375,"zip":"19142","miles_from_dt":23.87},{"city":"Valley Forge","state_name":"Pennsylvania","lat":40.10004,"lng":-75.47003,"zip":"19482","miles_from_dt":23.89},{"city":"Birchrunville","state_name":"Pennsylvania","lat":40.13093,"lng":-75.64029,"zip":"19421","miles_from_dt":24.19},{"city":"Honey Brook","state_name":"Pennsylvania","lat":40.08279,"lng":-75.88338,"zip":"19344","miles_from_dt":24.47},{"city":"Kimberton","state_name":"Pennsylvania","lat":40.13233,"lng":-75.57863,"zip":"19442","miles_from_dt":24.52},{"city":"Philadelphia","state_name":"Pennsylvania","lat":39.97562,"lng":-75.25616,"zip":"19151","miles_from_dt":24.57},{"city":"Phoenixville","state_name":"Pennsylvania","lat":40.12674,"lng":-75.5294,"zip":"19460","miles_from_dt":24.65},{"city":"Valley Forge","state_name":"Pennsylvania","lat":40.12053,"lng":-75.4995,"zip":"19481","miles_from_dt":24.67},{"city":"Gap","state_name":"Pennsylvania","lat":40.01495,"lng":-75.99333,"zip":"17527","miles_from_dt":24.68},{"city":"Mantua","state_name":"New Jersey","lat":39.78583,"lng":-75.17903,"zip":"08051","miles_from_dt":24.69},{"city":"Wynnewood","state_name":"Pennsylvania","lat":39.99813,"lng":-75.27388,"zip":"19096","miles_from_dt":24.7},{"city":"Thorofare","state_name":"New Jersey","lat":39.85136,"lng":-75.18582,"zip":"08086","miles_from_dt":24.8},{"city":"Philadelphia","state_name":"Pennsylvania","lat":39.94315,"lng":-75.22664,"zip":"19143","miles_from_dt":24.81},{"city":"National Park","state_name":"New Jersey","lat":39.86758,"lng":-75.18509,"zip":"08063","miles_from_dt":25.08},{"city":"Ewan","state_name":"New Jersey","lat":39.69757,"lng":-75.18274,"zip":"08025","miles_from_dt":25.16},{"city":"Philadelphia","state_name":"Pennsylvania","lat":39.96144,"lng":-75.22964,"zip":"19139","miles_from_dt":25.27},{"city":"Colora","state_name":"Maryland","lat":39.67106,"lng":-76.09823,"zip":"21917","miles_from_dt":25.41},{"city":"Valley Forge","state_name":"Pennsylvania","lat":40.10016,"lng":-75.40009,"zip":"19484","miles_from_dt":25.55},{"city":"Port Deposit","state_name":"Maryland","lat":39.62303,"lng":-76.07812,"zip":"21904","miles_from_dt":25.61},{"city":"King Of Prussia","state_name":"Pennsylvania","lat":40.09467,"lng":-75.38402,"zip":"19406","miles_from_dt":25.67},{"city":"Philadelphia","state_name":"Pennsylvania","lat":39.91469,"lng":-75.19194,"zip":"19145","miles_from_dt":25.7},{"city":"Perryville","state_name":"Maryland","lat":39.57274,"lng":-76.04378,"zip":"21903","miles_from_dt":25.73},{"city":"Bart","state_name":"Pennsylvania","lat":39.93825,"lng":-76.08325,"zip":"17503","miles_from_dt":25.83},{"city":"Mont Clare","state_name":"Pennsylvania","lat":40.13886,"lng":-75.50141,"zip":"19453","miles_from_dt":25.85},{"city":"Merion Station","state_name":"Pennsylvania","lat":40.0022,"lng":-75.2489,"zip":"19066","miles_from_dt":25.93},{"city":"Richwood","state_name":"New Jersey","lat":39.71289,"lng":-75.16379,"zip":"08074","miles_from_dt":25.93},{"city":"Warwick","state_name":"Maryland","lat":39.42486,"lng":-75.81607,"zip":"21912","miles_from_dt":26.21},{"city":"Woodbury Heights","state_name":"New Jersey","lat":39.81571,"lng":-75.15117,"zip":"08097","miles_from_dt":26.27},{"city":"Philadelphia","state_name":"Pennsylvania","lat":39.88999,"lng":-75.16985,"zip":"19112","miles_from_dt":26.27},{"city":"Philadelphia","state_name":"Pennsylvania","lat":39.89154,"lng":-75.16942,"zip":"19185","miles_from_dt":26.32},{"city":"Wenonah","state_name":"New Jersey","lat":39.79777,"lng":-75.14849,"zip":"08090","miles_from_dt":26.33},{"city":"Audubon","state_name":"Pennsylvania","lat":40.12856,"lng":-75.43766,"zip":"19407","miles_from_dt":26.38},{"city":"Kinzers","state_name":"Pennsylvania","lat":40.01224,"lng":-76.03813,"zip":"17535","miles_from_dt":26.41},{"city":"Oaks","state_name":"Pennsylvania","lat":40.1367,"lng":-75.45962,"zip":"19456","miles_from_dt":26.44},{"city":"Narberth","state_name":"Pennsylvania","lat":40.02419,"lng":-75.25697,"zip":"19072","miles_from_dt":26.52},{"city":"Philadelphia","state_name":"Pennsylvania","lat":39.95891,"lng":-75.19836,"zip":"19104","miles_from_dt":26.64},{"city":"Gladwyne","state_name":"Pennsylvania","lat":40.04851,"lng":-75.28126,"zip":"19035","miles_from_dt":26.67},{"city":"Philadelphia","state_name":"Pennsylvania","lat":39.93917,"lng":-75.18398,"zip":"19146","miles_from_dt":26.74},{"city":"Philadelphia","state_name":"Pennsylvania","lat":39.98865,"lng":-75.21835,"zip":"19131","miles_from_dt":26.75},{"city":"Monroeville","state_name":"New Jersey","lat":39.64057,"lng":-75.1699,"zip":"08343","miles_from_dt":26.98},{"city":"Spring City","state_name":"Pennsylvania","lat":40.17028,"lng":-75.60042,"zip":"19475","miles_from_dt":27},{"city":"Philadelphia","state_name":"Pennsylvania","lat":39.95309,"lng":-75.18496,"zip":"19178","miles_from_dt":27.1},{"city":"Philadelphia","state_name":"Pennsylvania","lat":39.95,"lng":-75.18219,"zip":"19194","miles_from_dt":27.14},{"city":"Philadelphia","state_name":"Pennsylvania","lat":39.95201,"lng":-75.18332,"zip":"19170","miles_from_dt":27.15},{"city":"Philadelphia","state_name":"Pennsylvania","lat":39.9532,"lng":-75.1839,"zip":"19184","miles_from_dt":27.15},{"city":"Bala Cynwyd","state_name":"Pennsylvania","lat":40.01362,"lng":-75.22979,"zip":"19004","miles_from_dt":27.22},{"city":"Philadelphia","state_name":"Pennsylvania","lat":39.95568,"lng":-75.18406,"zip":"19193","miles_from_dt":27.22},{"city":"Philadelphia","state_name":"Pennsylvania","lat":39.95258,"lng":-75.18178,"zip":"19092","miles_from_dt":27.24},{"city":"Pitman","state_name":"New Jersey","lat":39.73227,"lng":-75.13457,"zip":"08071","miles_from_dt":27.26},{"city":"Philadelphia","state_name":"Pennsylvania","lat":39.95744,"lng":-75.18426,"zip":"19196","miles_from_dt":27.27},{"city":"Philadelphia","state_name":"Pennsylvania","lat":39.95591,"lng":-75.18238,"zip":"19093","miles_from_dt":27.31},{"city":"Perry Point","state_name":"Maryland","lat":39.55229,"lng":-76.06157,"zip":"21902","miles_from_dt":27.32},{"city":"Townsend","state_name":"Delaware","lat":39.38377,"lng":-75.65026,"zip":"19734","miles_from_dt":27.36},{"city":"Philadelphia","state_name":"Pennsylvania","lat":39.9557,"lng":-75.18101,"zip":"19162","miles_from_dt":27.37},{"city":"Bridgeport","state_name":"Pennsylvania","lat":40.09949,"lng":-75.33497,"zip":"19405","miles_from_dt":27.42},{"city":"Conshohocken","state_name":"Pennsylvania","lat":40.08011,"lng":-75.30317,"zip":"19428","miles_from_dt":27.44},{"city":"Philadelphia","state_name":"Pennsylvania","lat":39.9547,"lng":-75.17878,"zip":"19197","miles_from_dt":27.44},{"city":"Elverson","state_name":"Pennsylvania","lat":40.15968,"lng":-75.79959,"zip":"19520","miles_from_dt":27.47},{"city":"Paradise","state_name":"Pennsylvania","lat":39.97636,"lng":-76.09264,"zip":"17562","miles_from_dt":27.47},{"city":"Quarryville","state_name":"Pennsylvania","lat":39.86924,"lng":-76.1476,"zip":"17566","miles_from_dt":27.55},{"city":"Woodbury","state_name":"New Jersey","lat":39.82921,"lng":-75.12871,"zip":"08096","miles_from_dt":27.56},{"city":"Conshohocken","state_name":"Pennsylvania","lat":40.08051,"lng":-75.30008,"zip":"19429","miles_from_dt":27.57},{"city":"Philadelphia","state_name":"Pennsylvania","lat":39.95303,"lng":-75.17386,"zip":"19103","miles_from_dt":27.63},{"city":"Philadelphia","state_name":"Pennsylvania","lat":39.91175,"lng":-75.1514,"zip":"19148","miles_from_dt":27.66},{"city":"Westville","state_name":"New Jersey","lat":39.86098,"lng":-75.13265,"zip":"08093","miles_from_dt":27.7},{"city":"Philadelphia","state_name":"Pennsylvania","lat":39.9516,"lng":-75.169,"zip":"19183","miles_from_dt":27.82},{"city":"Philadelphia","state_name":"Pennsylvania","lat":39.95173,"lng":-75.16796,"zip":"19192","miles_from_dt":27.87},{"city":"Philadelphia","state_name":"Pennsylvania","lat":39.95473,"lng":-75.16986,"zip":"19173","miles_from_dt":27.87},{"city":"Deerfield Street","state_name":"New Jersey","lat":39.53065,"lng":-75.23101,"zip":"08313","miles_from_dt":27.91},{"city":"Philadelphia","state_name":"Pennsylvania","lat":40.02854,"lng":-75.22746,"zip":"19127","miles_from_dt":27.93},{"city":"Saint Peters","state_name":"Pennsylvania","lat":40.17967,"lng":-75.73164,"zip":"19470","miles_from_dt":27.95},{"city":"Sewell","state_name":"New Jersey","lat":39.75714,"lng":-75.11801,"zip":"08080","miles_from_dt":27.98},{"city":"Philadelphia","state_name":"Pennsylvania","lat":39.95477,"lng":-75.16769,"zip":"19187","miles_from_dt":27.98},{"city":"Philadelphia","state_name":"Pennsylvania","lat":39.95228,"lng":-75.16597,"zip":"19191","miles_from_dt":27.99},{"city":"Philadelphia","state_name":"Pennsylvania","lat":39.94958,"lng":-75.16387,"zip":"19109","miles_from_dt":28.01},{"city":"Philadelphia","state_name":"Pennsylvania","lat":39.9676,"lng":-75.17495,"zip":"19130","miles_from_dt":28.02},{"city":"Philadelphia","state_name":"Pennsylvania","lat":39.95356,"lng":-75.16602,"zip":"19110","miles_from_dt":28.02},{"city":"Philadelphia","state_name":"Pennsylvania","lat":39.95301,"lng":-75.16544,"zip":"19102","miles_from_dt":28.03},{"city":"Philadelphia","state_name":"Pennsylvania","lat":39.95126,"lng":-75.1631,"zip":"19255","miles_from_dt":28.1},{"city":"Philadelphia","state_name":"Pennsylvania","lat":39.93645,"lng":-75.15468,"zip":"19147","miles_from_dt":28.1},{"city":"Philadelphia","state_name":"Pennsylvania","lat":39.95,"lng":-75.16219,"zip":"19195","miles_from_dt":28.1},{"city":"Philadelphia","state_name":"Pennsylvania","lat":39.95,"lng":-75.16219,"zip":"19190","miles_from_dt":28.1},{"city":"Philadelphia","state_name":"Pennsylvania","lat":39.95253,"lng":-75.1628,"zip":"19101","miles_from_dt":28.15},{"city":"Philadelphia","state_name":"Pennsylvania","lat":39.95,"lng":-75.1601,"zip":"19182","miles_from_dt":28.2},{"city":"Philadelphia","state_name":"Pennsylvania","lat":39.95193,"lng":-75.16046,"zip":"19105","miles_from_dt":28.24},{"city":"Philadelphia","state_name":"Pennsylvania","lat":39.95307,"lng":-75.16103,"zip":"19099","miles_from_dt":28.25},{"city":"Philadelphia","state_name":"Pennsylvania","lat":39.98231,"lng":-75.17995,"zip":"19121","miles_from_dt":28.27},{"city":"Cecilton","state_name":"Maryland","lat":39.40973,"lng":-75.87073,"zip":"21913","miles_from_dt":28.31},{"city":"Philadelphia","state_name":"Pennsylvania","lat":39.9518,"lng":-75.15864,"zip":"19107","miles_from_dt":28.33},{"city":"Eagleville","state_name":"Pennsylvania","lat":40.12,"lng":-75.34219,"zip":"19415","miles_from_dt":28.35},{"city":"Norristown","state_name":"Pennsylvania","lat":40.12022,"lng":-75.34019,"zip":"19404","miles_from_dt":28.43},{"city":"Philadelphia","state_name":"Pennsylvania","lat":39.95987,"lng":-75.16083,"zip":"19108","miles_from_dt":28.46},{"city":"Philadelphia","state_name":"Pennsylvania","lat":39.94999,"lng":-75.15464,"zip":"19175","miles_from_dt":28.47},{"city":"Fairview Village","state_name":"Pennsylvania","lat":40.12139,"lng":-75.34028,"zip":"19409","miles_from_dt":28.49},{"city":"Glassboro","state_name":"New Jersey","lat":39.69336,"lng":-75.11949,"zip":"08028","miles_from_dt":28.51},{"city":"Philadelphia","state_name":"Pennsylvania","lat":39.94534,"lng":-75.15108,"zip":"19172","miles_from_dt":28.51},{"city":"Philadelphia","state_name":"Pennsylvania","lat":39.95563,"lng":-75.15526,"zip":"19171","miles_from_dt":28.6},{"city":"Philadelphia","state_name":"Pennsylvania","lat":39.96334,"lng":-75.15953,"zip":"19188","miles_from_dt":28.62},{"city":"Philadelphia","state_name":"Pennsylvania","lat":39.95144,"lng":-75.15151,"zip":"19244","miles_from_dt":28.66},{"city":"Conowingo","state_name":"Maryland","lat":39.68327,"lng":-76.16662,"zip":"21918","miles_from_dt":28.7},{"city":"Philadelphia","state_name":"Pennsylvania","lat":39.951,"lng":-75.14975,"zip":"19177","miles_from_dt":28.73},{"city":"Philadelphia","state_name":"Pennsylvania","lat":40.05003,"lng":-75.23003,"zip":"19128","miles_from_dt":28.76},{"city":"Shiloh","state_name":"New Jersey","lat":39.45954,"lng":-75.29695,"zip":"08353","miles_from_dt":28.81},{"city":"Philadelphia","state_name":"Pennsylvania","lat":39.95145,"lng":-75.14702,"zip":"19181","miles_from_dt":28.88},{"city":"Gloucester City","state_name":"New Jersey","lat":39.89023,"lng":-75.1178,"zip":"08030","miles_from_dt":28.93},{"city":"Philadelphia","state_name":"Pennsylvania","lat":39.94589,"lng":-75.14224,"zip":"19106","miles_from_dt":28.96},{"city":"Peach Bottom","state_name":"Pennsylvania","lat":39.76404,"lng":-76.18649,"zip":"17563","miles_from_dt":28.97},{"city":"Pottstown","state_name":"Pennsylvania","lat":40.19981,"lng":-75.6727,"zip":"19465","miles_from_dt":28.99},{"city":"Norristown","state_name":"Pennsylvania","lat":40.14898,"lng":-75.38034,"zip":"19403","miles_from_dt":29},{"city":"Narvon","state_name":"Pennsylvania","lat":40.12075,"lng":-75.96514,"zip":"17555","miles_from_dt":29.06},{"city":"Philadelphia","state_name":"Pennsylvania","lat":39.99649,"lng":-75.17102,"zip":"19132","miles_from_dt":29.17},{"city":"Philadelphia","state_name":"Pennsylvania","lat":40.01338,"lng":-75.18454,"zip":"19129","miles_from_dt":29.18},{"city":"Eagleville","state_name":"Pennsylvania","lat":40.16003,"lng":-75.40007,"zip":"19408","miles_from_dt":29.19},{"city":"Elmer","state_name":"New Jersey","lat":39.55657,"lng":-75.17776,"zip":"08318","miles_from_dt":29.2},{"city":"Norristown","state_name":"Pennsylvania","lat":40.13042,"lng":-75.33143,"zip":"19401","miles_from_dt":29.27},{"city":"Earleville","state_name":"Maryland","lat":39.42047,"lng":-75.93372,"zip":"21919","miles_from_dt":29.28},{"city":"Philadelphia","state_name":"Pennsylvania","lat":39.96399,"lng":-75.14568,"zip":"19123","miles_from_dt":29.31},{"city":"Parker Ford","state_name":"Pennsylvania","lat":40.20512,"lng":-75.58758,"zip":"19457","miles_from_dt":29.45},{"city":"Lafayette Hill","state_name":"Pennsylvania","lat":40.08686,"lng":-75.25427,"zip":"19444","miles_from_dt":29.55},{"city":"Camden","state_name":"New Jersey","lat":39.9409,"lng":-75.12616,"zip":"08101","miles_from_dt":29.62},{"city":"Philadelphia","state_name":"Pennsylvania","lat":39.97767,"lng":-75.14571,"zip":"19122","miles_from_dt":29.72},{"city":"Camden","state_name":"New Jersey","lat":39.91672,"lng":-75.11203,"zip":"08104","miles_from_dt":29.75},{"city":"Bellmawr","state_name":"New Jersey","lat":39.86655,"lng":-75.09408,"zip":"08031","miles_from_dt":29.79},{"city":"Bellmawr","state_name":"New Jersey","lat":39.86876,"lng":-75.09225,"zip":"08099","miles_from_dt":29.91},{"city":"Plymouth Meeting","state_name":"Pennsylvania","lat":40.11542,"lng":-75.28453,"zip":"19462","miles_from_dt":29.94}],"targetCityZipCode":"19736","targetCityState":"Delaware"},"__N_SSG":true}