{"pageProps":{"stateName":"Maryland","cityName":"big-pool","nearbyCities":[{"city":"Clear Spring","state_name":"Maryland","lat":39.66575,"lng":-77.91457,"zip":"21722","miles_from_dt":5.22},{"city":"Falling Waters","state_name":"West Virginia","lat":39.58286,"lng":-77.88493,"zip":"25419","miles_from_dt":8.99},{"city":"Mercersburg","state_name":"Pennsylvania","lat":39.79997,"lng":-77.94305,"zip":"17236","miles_from_dt":9.82},{"city":"Big Cove Tannery","state_name":"Pennsylvania","lat":39.81,"lng":-78.07073,"zip":"17212","miles_from_dt":10.27},{"city":"Hedgesville","state_name":"West Virginia","lat":39.52608,"lng":-78.09098,"zip":"25427","miles_from_dt":10.65},{"city":"Hancock","state_name":"Maryland","lat":39.68698,"lng":-78.2129,"zip":"21750","miles_from_dt":10.76},{"city":"Williamsport","state_name":"Maryland","lat":39.582,"lng":-77.82733,"zip":"21795","miles_from_dt":11.53},{"city":"Martinsburg","state_name":"West Virginia","lat":39.4842,"lng":-78.00725,"zip":"25403","miles_from_dt":12.69},{"city":"Berkeley Springs","state_name":"West Virginia","lat":39.55497,"lng":-78.22004,"zip":"25411","miles_from_dt":13.55},{"city":"Martinsburg","state_name":"West Virginia","lat":39.48631,"lng":-77.89782,"zip":"25404","miles_from_dt":13.95},{"city":"Maugansville","state_name":"Maryland","lat":39.69773,"lng":-77.74638,"zip":"21767","miles_from_dt":14.33},{"city":"Hagerstown","state_name":"Maryland","lat":39.63447,"lng":-77.74596,"zip":"21747","miles_from_dt":14.4},{"city":"Hagerstown","state_name":"Maryland","lat":39.63737,"lng":-77.74454,"zip":"21749","miles_from_dt":14.44},{"city":"Martinsburg","state_name":"West Virginia","lat":39.46145,"lng":-77.96982,"zip":"25402","miles_from_dt":14.44},{"city":"Needmore","state_name":"Pennsylvania","lat":39.8612,"lng":-78.13003,"zip":"17238","miles_from_dt":14.72},{"city":"Martinsburg","state_name":"West Virginia","lat":39.45642,"lng":-77.97267,"zip":"25401","miles_from_dt":14.76},{"city":"Hagerstown","state_name":"Maryland","lat":39.63233,"lng":-77.73902,"zip":"21740","miles_from_dt":14.79},{"city":"Saint James","state_name":"Maryland","lat":39.57123,"lng":-77.75981,"zip":"21781","miles_from_dt":15.05},{"city":"Warfordsburg","state_name":"Pennsylvania","lat":39.80389,"lng":-78.23958,"zip":"17267","miles_from_dt":15.3},{"city":"Lemasters","state_name":"Pennsylvania","lat":39.86021,"lng":-77.85934,"zip":"17231","miles_from_dt":15.56},{"city":"Hagerstown","state_name":"Maryland","lat":39.64139,"lng":-77.71879,"zip":"21741","miles_from_dt":15.77},{"city":"Fairplay","state_name":"Maryland","lat":39.55004,"lng":-77.75838,"zip":"21733","miles_from_dt":15.82},{"city":"Greencastle","state_name":"Pennsylvania","lat":39.78706,"lng":-77.75709,"zip":"17225","miles_from_dt":15.89},{"city":"State Line","state_name":"Pennsylvania","lat":39.72409,"lng":-77.71727,"zip":"17263","miles_from_dt":16.2},{"city":"Funkstown","state_name":"Maryland","lat":39.60583,"lng":-77.70382,"zip":"21734","miles_from_dt":17.01},{"city":"Hagerstown","state_name":"Maryland","lat":39.56591,"lng":-77.71409,"zip":"21746","miles_from_dt":17.41},{"city":"Martinsburg","state_name":"West Virginia","lat":39.40892,"lng":-77.96235,"zip":"25405","miles_from_dt":18.08},{"city":"Hagerstown","state_name":"Maryland","lat":39.67363,"lng":-77.65928,"zip":"21742","miles_from_dt":18.83},{"city":"Shepherdstown","state_name":"West Virginia","lat":39.43835,"lng":-77.81477,"zip":"25443","miles_from_dt":19.04},{"city":"McConnellsburg","state_name":"Pennsylvania","lat":39.95118,"lng":-78.00406,"zip":"17233","miles_from_dt":19.54},{"city":"Shady Grove","state_name":"Pennsylvania","lat":39.77776,"lng":-77.66873,"zip":"17256","miles_from_dt":19.81},{"city":"Saint Thomas","state_name":"Pennsylvania","lat":39.91317,"lng":-77.81695,"zip":"17252","miles_from_dt":19.85},{"city":"Sharpsburg","state_name":"Maryland","lat":39.4552,"lng":-77.75995,"zip":"21782","miles_from_dt":19.94},{"city":"Great Cacapon","state_name":"West Virginia","lat":39.55812,"lng":-78.35887,"zip":"25422","miles_from_dt":19.98},{"city":"Inwood","state_name":"West Virginia","lat":39.37407,"lng":-78.02729,"zip":"25428","miles_from_dt":20.3},{"city":"Chewsville","state_name":"Maryland","lat":39.64822,"lng":-77.62758,"zip":"21721","miles_from_dt":20.57},{"city":"Little Orleans","state_name":"Maryland","lat":39.65928,"lng":-78.39859,"zip":"21766","miles_from_dt":20.6},{"city":"Gerrardstown","state_name":"West Virginia","lat":39.38095,"lng":-78.11969,"zip":"25420","miles_from_dt":20.62},{"city":"Boonsboro","state_name":"Maryland","lat":39.52618,"lng":-77.66933,"zip":"21713","miles_from_dt":20.77},{"city":"Marion","state_name":"Pennsylvania","lat":39.85699,"lng":-77.69743,"zip":"17235","miles_from_dt":21.24},{"city":"Glengary","state_name":"West Virginia","lat":39.37821,"lng":-78.16384,"zip":"25421","miles_from_dt":21.57},{"city":"Zullinger","state_name":"Pennsylvania","lat":39.76764,"lng":-77.62183,"zip":"17272","miles_from_dt":21.92},{"city":"Fort Loudon","state_name":"Pennsylvania","lat":39.9723,"lng":-77.89195,"zip":"17224","miles_from_dt":21.95},{"city":"Keedysville","state_name":"Maryland","lat":39.45758,"lng":-77.70118,"zip":"21756","miles_from_dt":22.07},{"city":"Crystal Spring","state_name":"Pennsylvania","lat":39.94956,"lng":-78.2109,"zip":"15536","miles_from_dt":22.1},{"city":"Artemas","state_name":"Pennsylvania","lat":39.75191,"lng":-78.41457,"zip":"17211","miles_from_dt":22.19},{"city":"Shenandoah Junction","state_name":"West Virginia","lat":39.37157,"lng":-77.83181,"zip":"25442","miles_from_dt":22.62},{"city":"Kearneysville","state_name":"West Virginia","lat":39.34024,"lng":-77.93899,"zip":"25430","miles_from_dt":22.96},{"city":"Cavetown","state_name":"Maryland","lat":39.64237,"lng":-77.58285,"zip":"21720","miles_from_dt":22.98},{"city":"Harrisonville","state_name":"Pennsylvania","lat":39.99512,"lng":-78.09831,"zip":"17228","miles_from_dt":23.02},{"city":"Smithsburg","state_name":"Maryland","lat":39.64885,"lng":-77.55903,"zip":"21783","miles_from_dt":24.22},{"city":"Bunker Hill","state_name":"West Virginia","lat":39.31632,"lng":-78.053,"zip":"25413","miles_from_dt":24.36},{"city":"Waynesboro","state_name":"Pennsylvania","lat":39.77421,"lng":-77.57354,"zip":"17268","miles_from_dt":24.5},{"city":"Quincy","state_name":"Pennsylvania","lat":39.79883,"lng":-77.57933,"zip":"17247","miles_from_dt":24.77},{"city":"Chambersburg","state_name":"Pennsylvania","lat":39.92133,"lng":-77.67442,"zip":"17202","miles_from_dt":25.08},{"city":"Breezewood","state_name":"Pennsylvania","lat":39.98585,"lng":-78.24566,"zip":"15533","miles_from_dt":25.19},{"city":"Ranson","state_name":"West Virginia","lat":39.31853,"lng":-77.86448,"zip":"25438","miles_from_dt":25.38},{"city":"Rohrersville","state_name":"Maryland","lat":39.42447,"lng":-77.65398,"zip":"21779","miles_from_dt":25.48},{"city":"Ridgeway","state_name":"West Virginia","lat":39.29801,"lng":-78.07101,"zip":"25440","miles_from_dt":25.72},{"city":"Clearville","state_name":"Pennsylvania","lat":39.826,"lng":-78.45001,"zip":"15535","miles_from_dt":25.72},{"city":"Cross Junction","state_name":"Virginia","lat":39.37397,"lng":-78.31172,"zip":"22625","miles_from_dt":25.83},{"city":"Myersville","state_name":"Maryland","lat":39.53725,"lng":-77.55301,"zip":"21773","miles_from_dt":26.13},{"city":"Rouzerville","state_name":"Pennsylvania","lat":39.73668,"lng":-77.52338,"zip":"17250","miles_from_dt":26.49},{"city":"Bakerton","state_name":"West Virginia","lat":39.32699,"lng":-77.78005,"zip":"25410","miles_from_dt":26.61},{"city":"Halltown","state_name":"West Virginia","lat":39.31449,"lng":-77.79823,"zip":"25423","miles_from_dt":26.95},{"city":"Brownsville","state_name":"Maryland","lat":39.37879,"lng":-77.66063,"zip":"21715","miles_from_dt":27.42},{"city":"Cascade","state_name":"Maryland","lat":39.70501,"lng":-77.49977,"zip":"21719","miles_from_dt":27.45},{"city":"Paw Paw","state_name":"West Virginia","lat":39.45797,"lng":-78.45038,"zip":"25434","miles_from_dt":27.51},{"city":"Fort Littleton","state_name":"Pennsylvania","lat":40.06521,"lng":-77.9389,"zip":"17223","miles_from_dt":27.68},{"city":"Mont Alto","state_name":"Pennsylvania","lat":39.83705,"lng":-77.54091,"zip":"17237","miles_from_dt":27.69},{"city":"Chambersburg","state_name":"Pennsylvania","lat":39.96229,"lng":-77.65677,"zip":"17201","miles_from_dt":27.75},{"city":"Burkittsville","state_name":"Maryland","lat":39.39343,"lng":-77.62734,"zip":"21718","miles_from_dt":27.97},{"city":"Clear Brook","state_name":"Virginia","lat":39.26535,"lng":-78.09507,"zip":"22624","miles_from_dt":28.13},{"city":"Flintstone","state_name":"Maryland","lat":39.68878,"lng":-78.54138,"zip":"21530","miles_from_dt":28.23},{"city":"Hustontown","state_name":"Pennsylvania","lat":40.07853,"lng":-78.01144,"zip":"17229","miles_from_dt":28.32},{"city":"Millville","state_name":"West Virginia","lat":39.29562,"lng":-77.78663,"zip":"25432","miles_from_dt":28.39},{"city":"Middletown","state_name":"Maryland","lat":39.44582,"lng":-77.56489,"zip":"21769","miles_from_dt":28.4},{"city":"Brucetown","state_name":"Virginia","lat":39.25659,"lng":-78.06706,"zip":"22622","miles_from_dt":28.54},{"city":"Upperstrasburg","state_name":"Pennsylvania","lat":40.03846,"lng":-77.77297,"zip":"17265","miles_from_dt":28.55},{"city":"Winchester","state_name":"Virginia","lat":39.28153,"lng":-78.2056,"zip":"22603","miles_from_dt":28.6},{"city":"Fannettsburg","state_name":"Pennsylvania","lat":40.05796,"lng":-77.82019,"zip":"17221","miles_from_dt":28.78},{"city":"Sabillasville","state_name":"Maryland","lat":39.67676,"lng":-77.46777,"zip":"21780","miles_from_dt":29.05},{"city":"Knoxville","state_name":"Maryland","lat":39.34567,"lng":-77.66265,"zip":"21758","miles_from_dt":29.06},{"city":"Wells Tannery","state_name":"Pennsylvania","lat":40.07744,"lng":-78.1473,"zip":"16691","miles_from_dt":29.14},{"city":"Bloomery","state_name":"West Virginia","lat":39.35957,"lng":-78.39067,"zip":"26817","miles_from_dt":29.35},{"city":"Blue Ridge Summit","state_name":"Pennsylvania","lat":39.74811,"lng":-77.47025,"zip":"17214","miles_from_dt":29.42},{"city":"Harpers Ferry","state_name":"West Virginia","lat":39.27613,"lng":-77.79184,"zip":"25425","miles_from_dt":29.5},{"city":"Everett","state_name":"Pennsylvania","lat":39.9981,"lng":-78.36506,"zip":"15537","miles_from_dt":29.5},{"city":"Oldtown","state_name":"Maryland","lat":39.58777,"lng":-78.55685,"zip":"21555","miles_from_dt":29.57},{"city":"Charles Town","state_name":"West Virginia","lat":39.25273,"lng":-77.87055,"zip":"25414","miles_from_dt":29.64},{"city":"Summit Point","state_name":"West Virginia","lat":39.24013,"lng":-77.95705,"zip":"25446","miles_from_dt":29.67},{"city":"South Mountain","state_name":"Pennsylvania","lat":39.85981,"lng":-77.51164,"zip":"17261","miles_from_dt":29.77},{"city":"Burnt Cabins","state_name":"Pennsylvania","lat":40.09234,"lng":-77.89008,"zip":"17215","miles_from_dt":29.98}],"targetCityZipCode":"21711","targetCityState":"Maryland"},"__N_SSG":true}