{"pageProps":{"stateName":"Maryland","cityName":"boonsboro","nearbyCities":[{"city":"Hagerstown","state_name":"Maryland","lat":39.56591,"lng":-77.71409,"zip":"21746","miles_from_dt":3.64},{"city":"Keedysville","state_name":"Maryland","lat":39.45758,"lng":-77.70118,"zip":"21756","miles_from_dt":5.03},{"city":"Fairplay","state_name":"Maryland","lat":39.55004,"lng":-77.75838,"zip":"21733","miles_from_dt":5.03},{"city":"Saint James","state_name":"Maryland","lat":39.57123,"lng":-77.75981,"zip":"21781","miles_from_dt":5.75},{"city":"Funkstown","state_name":"Maryland","lat":39.60583,"lng":-77.70382,"zip":"21734","miles_from_dt":5.8},{"city":"Myersville","state_name":"Maryland","lat":39.53725,"lng":-77.55301,"zip":"21773","miles_from_dt":6.26},{"city":"Sharpsburg","state_name":"Maryland","lat":39.4552,"lng":-77.75995,"zip":"21782","miles_from_dt":6.89},{"city":"Rohrersville","state_name":"Maryland","lat":39.42447,"lng":-77.65398,"zip":"21779","miles_from_dt":7.06},{"city":"Middletown","state_name":"Maryland","lat":39.44582,"lng":-77.56489,"zip":"21769","miles_from_dt":7.87},{"city":"Hagerstown","state_name":"Maryland","lat":39.63233,"lng":-77.73902,"zip":"21740","miles_from_dt":8.21},{"city":"Hagerstown","state_name":"Maryland","lat":39.64139,"lng":-77.71879,"zip":"21741","miles_from_dt":8.38},{"city":"Hagerstown","state_name":"Maryland","lat":39.63447,"lng":-77.74596,"zip":"21747","miles_from_dt":8.52},{"city":"Hagerstown","state_name":"Maryland","lat":39.63737,"lng":-77.74454,"zip":"21749","miles_from_dt":8.66},{"city":"Chewsville","state_name":"Maryland","lat":39.64822,"lng":-77.62758,"zip":"21721","miles_from_dt":8.71},{"city":"Cavetown","state_name":"Maryland","lat":39.64237,"lng":-77.58285,"zip":"21720","miles_from_dt":9.25},{"city":"Williamsport","state_name":"Maryland","lat":39.582,"lng":-77.82733,"zip":"21795","miles_from_dt":9.28},{"city":"Burkittsville","state_name":"Maryland","lat":39.39343,"lng":-77.62734,"zip":"21718","miles_from_dt":9.43},{"city":"Shepherdstown","state_name":"West Virginia","lat":39.43835,"lng":-77.81477,"zip":"25443","miles_from_dt":9.86},{"city":"Brownsville","state_name":"Maryland","lat":39.37879,"lng":-77.66063,"zip":"21715","miles_from_dt":10.18},{"city":"Hagerstown","state_name":"Maryland","lat":39.67363,"lng":-77.65928,"zip":"21742","miles_from_dt":10.19},{"city":"Smithsburg","state_name":"Maryland","lat":39.64885,"lng":-77.55903,"zip":"21783","miles_from_dt":10.31},{"city":"Braddock Heights","state_name":"Maryland","lat":39.41059,"lng":-77.51003,"zip":"21714","miles_from_dt":11.67},{"city":"Frederick","state_name":"Maryland","lat":39.48019,"lng":-77.4578,"zip":"21702","miles_from_dt":11.74},{"city":"Falling Waters","state_name":"West Virginia","lat":39.58286,"lng":-77.88493,"zip":"25419","miles_from_dt":12.16},{"city":"Knoxville","state_name":"Maryland","lat":39.34567,"lng":-77.66265,"zip":"21758","miles_from_dt":12.46},{"city":"Martinsburg","state_name":"West Virginia","lat":39.48631,"lng":-77.89782,"zip":"25404","miles_from_dt":12.52},{"city":"Maugansville","state_name":"Maryland","lat":39.69773,"lng":-77.74638,"zip":"21767","miles_from_dt":12.53},{"city":"Jefferson","state_name":"Maryland","lat":39.36101,"lng":-77.56887,"zip":"21755","miles_from_dt":12.6},{"city":"Shenandoah Junction","state_name":"West Virginia","lat":39.37157,"lng":-77.83181,"zip":"25442","miles_from_dt":13.76},{"city":"State Line","state_name":"Pennsylvania","lat":39.72409,"lng":-77.71727,"zip":"17263","miles_from_dt":13.89},{"city":"Thurmont","state_name":"Maryland","lat":39.59429,"lng":-77.41958,"zip":"21788","miles_from_dt":14.14},{"city":"Brunswick","state_name":"Maryland","lat":39.31798,"lng":-77.6262,"zip":"21716","miles_from_dt":14.55},{"city":"Sabillasville","state_name":"Maryland","lat":39.67676,"lng":-77.46777,"zip":"21780","miles_from_dt":14.95},{"city":"Bakerton","state_name":"West Virginia","lat":39.32699,"lng":-77.78005,"zip":"25410","miles_from_dt":14.96},{"city":"Frederick","state_name":"Maryland","lat":39.36961,"lng":-77.47088,"zip":"21703","miles_from_dt":15.14},{"city":"Frederick","state_name":"Maryland","lat":39.42776,"lng":-77.41549,"zip":"21709","miles_from_dt":15.17},{"city":"Cascade","state_name":"Maryland","lat":39.70501,"lng":-77.49977,"zip":"21719","miles_from_dt":15.3},{"city":"Frederick","state_name":"Maryland","lat":39.40887,"lng":-77.41002,"zip":"21705","miles_from_dt":16.05},{"city":"Halltown","state_name":"West Virginia","lat":39.31449,"lng":-77.79823,"zip":"25423","miles_from_dt":16.15},{"city":"Clear Spring","state_name":"Maryland","lat":39.66575,"lng":-77.91457,"zip":"21722","miles_from_dt":16.25},{"city":"Rouzerville","state_name":"Pennsylvania","lat":39.73668,"lng":-77.52338,"zip":"17250","miles_from_dt":16.48},{"city":"Martinsburg","state_name":"West Virginia","lat":39.46145,"lng":-77.96982,"zip":"25402","miles_from_dt":16.67},{"city":"Zullinger","state_name":"Pennsylvania","lat":39.76764,"lng":-77.62183,"zip":"17272","miles_from_dt":16.85},{"city":"Martinsburg","state_name":"West Virginia","lat":39.45642,"lng":-77.97267,"zip":"25401","miles_from_dt":16.91},{"city":"Millville","state_name":"West Virginia","lat":39.29562,"lng":-77.78663,"zip":"25432","miles_from_dt":17.1},{"city":"Shady Grove","state_name":"Pennsylvania","lat":39.77776,"lng":-77.66873,"zip":"17256","miles_from_dt":17.36},{"city":"Walkersville","state_name":"Maryland","lat":39.48963,"lng":-77.34357,"zip":"21793","miles_from_dt":17.59},{"city":"Martinsburg","state_name":"West Virginia","lat":39.40892,"lng":-77.96235,"zip":"25405","miles_from_dt":17.63},{"city":"Ranson","state_name":"West Virginia","lat":39.31853,"lng":-77.86448,"zip":"25438","miles_from_dt":17.73},{"city":"Waynesboro","state_name":"Pennsylvania","lat":39.77421,"lng":-77.57354,"zip":"17268","miles_from_dt":17.86},{"city":"Lovettsville","state_name":"Virginia","lat":39.26775,"lng":-77.63804,"zip":"20180","miles_from_dt":17.91},{"city":"Buckeystown","state_name":"Maryland","lat":39.33865,"lng":-77.43147,"zip":"21717","miles_from_dt":18.15},{"city":"Martinsburg","state_name":"West Virginia","lat":39.4842,"lng":-78.00725,"zip":"25403","miles_from_dt":18.29},{"city":"Harpers Ferry","state_name":"West Virginia","lat":39.27613,"lng":-77.79184,"zip":"25425","miles_from_dt":18.45},{"city":"Greencastle","state_name":"Pennsylvania","lat":39.78706,"lng":-77.75709,"zip":"17225","miles_from_dt":18.6},{"city":"Point Of Rocks","state_name":"Maryland","lat":39.27918,"lng":-77.5287,"zip":"21777","miles_from_dt":18.63},{"city":"Blue Ridge Summit","state_name":"Pennsylvania","lat":39.74811,"lng":-77.47025,"zip":"17214","miles_from_dt":18.63},{"city":"Frederick","state_name":"Maryland","lat":39.44729,"lng":-77.33512,"zip":"21701","miles_from_dt":18.68},{"city":"Rocky Ridge","state_name":"Maryland","lat":39.61576,"lng":-77.33754,"zip":"21778","miles_from_dt":18.76},{"city":"Kearneysville","state_name":"West Virginia","lat":39.34024,"lng":-77.93899,"zip":"25430","miles_from_dt":19.3},{"city":"Quincy","state_name":"Pennsylvania","lat":39.79883,"lng":-77.57933,"zip":"17247","miles_from_dt":19.41},{"city":"New Midway","state_name":"Maryland","lat":39.55622,"lng":-77.30221,"zip":"21775","miles_from_dt":19.72},{"city":"Adamstown","state_name":"Maryland","lat":39.29652,"lng":-77.44941,"zip":"21710","miles_from_dt":19.74},{"city":"Woodsboro","state_name":"Maryland","lat":39.53858,"lng":-77.29985,"zip":"21798","miles_from_dt":19.76},{"city":"Frederick","state_name":"Maryland","lat":39.3506,"lng":-77.3735,"zip":"21704","miles_from_dt":19.93},{"city":"Tuscarora","state_name":"Maryland","lat":39.25908,"lng":-77.49559,"zip":"21790","miles_from_dt":20.64},{"city":"Big Pool","state_name":"Maryland","lat":39.66808,"lng":-78.01247,"zip":"21711","miles_from_dt":20.77},{"city":"Emmitsburg","state_name":"Maryland","lat":39.68865,"lng":-77.33096,"zip":"21727","miles_from_dt":21.25},{"city":"Charles Town","state_name":"West Virginia","lat":39.25273,"lng":-77.87055,"zip":"25414","miles_from_dt":21.72},{"city":"Inwood","state_name":"West Virginia","lat":39.37407,"lng":-78.02729,"zip":"25428","miles_from_dt":21.83},{"city":"Ladiesburg","state_name":"Maryland","lat":39.57501,"lng":-77.26392,"zip":"21759","miles_from_dt":21.91},{"city":"New Market","state_name":"Maryland","lat":39.4088,"lng":-77.27844,"zip":"21774","miles_from_dt":22.42},{"city":"Keymar","state_name":"Maryland","lat":39.59902,"lng":-77.25906,"zip":"21757","miles_from_dt":22.48},{"city":"Mont Alto","state_name":"Pennsylvania","lat":39.83705,"lng":-77.54091,"zip":"17237","miles_from_dt":22.51},{"city":"Hedgesville","state_name":"West Virginia","lat":39.52608,"lng":-78.09098,"zip":"25427","miles_from_dt":22.53},{"city":"Fairfield","state_name":"Pennsylvania","lat":39.7695,"lng":-77.38749,"zip":"17320","miles_from_dt":22.53},{"city":"Libertytown","state_name":"Maryland","lat":39.48058,"lng":-77.24842,"zip":"21762","miles_from_dt":22.71},{"city":"Marion","state_name":"Pennsylvania","lat":39.85699,"lng":-77.69743,"zip":"17235","miles_from_dt":22.87},{"city":"Waterford","state_name":"Virginia","lat":39.19379,"lng":-77.62252,"zip":"20197","miles_from_dt":23.07},{"city":"Ijamsville","state_name":"Maryland","lat":39.33684,"lng":-77.31131,"zip":"21754","miles_from_dt":23.18},{"city":"Mercersburg","state_name":"Pennsylvania","lat":39.79997,"lng":-77.94305,"zip":"17236","miles_from_dt":23.87},{"city":"South Mountain","state_name":"Pennsylvania","lat":39.85981,"lng":-77.51164,"zip":"17261","miles_from_dt":24.5},{"city":"Rippon","state_name":"West Virginia","lat":39.2282,"lng":-77.92222,"zip":"25441","miles_from_dt":24.61},{"city":"Leesburg","state_name":"Virginia","lat":39.18147,"lng":-77.5345,"zip":"20176","miles_from_dt":24.85},{"city":"Purcellville","state_name":"Virginia","lat":39.16648,"lng":-77.72748,"zip":"20132","miles_from_dt":25.01},{"city":"Summit Point","state_name":"West Virginia","lat":39.24013,"lng":-77.95705,"zip":"25446","miles_from_dt":25.03},{"city":"Monrovia","state_name":"Maryland","lat":39.35245,"lng":-77.25791,"zip":"21770","miles_from_dt":25.06},{"city":"Bunker Hill","state_name":"West Virginia","lat":39.31632,"lng":-78.053,"zip":"25413","miles_from_dt":25.12},{"city":"Paeonian Springs","state_name":"Virginia","lat":39.16673,"lng":-77.59404,"zip":"20129","miles_from_dt":25.12},{"city":"Lemasters","state_name":"Pennsylvania","lat":39.86021,"lng":-77.85934,"zip":"17231","miles_from_dt":25.17},{"city":"Dickerson","state_name":"Maryland","lat":39.20831,"lng":-77.42473,"zip":"20842","miles_from_dt":25.54},{"city":"Union Bridge","state_name":"Maryland","lat":39.54267,"lng":-77.18713,"zip":"21791","miles_from_dt":25.78},{"city":"Unionville","state_name":"Maryland","lat":39.47481,"lng":-77.18722,"zip":"21792","miles_from_dt":26.01},{"city":"Gerrardstown","state_name":"West Virginia","lat":39.38095,"lng":-78.11969,"zip":"25420","miles_from_dt":26.09},{"city":"Barnesville","state_name":"Maryland","lat":39.22341,"lng":-77.37223,"zip":"20838","miles_from_dt":26.25},{"city":"Hamilton","state_name":"Virginia","lat":39.14126,"lng":-77.65514,"zip":"20158","miles_from_dt":26.56},{"city":"Purcellville","state_name":"Virginia","lat":39.14233,"lng":-77.71139,"zip":"20134","miles_from_dt":26.58},{"city":"Ridgeway","state_name":"West Virginia","lat":39.29801,"lng":-78.07101,"zip":"25440","miles_from_dt":26.64},{"city":"Hamilton","state_name":"Virginia","lat":39.13425,"lng":-77.66495,"zip":"20159","miles_from_dt":27.04},{"city":"Chambersburg","state_name":"Pennsylvania","lat":39.92133,"lng":-77.67442,"zip":"17202","miles_from_dt":27.26},{"city":"Fayetteville","state_name":"Pennsylvania","lat":39.89983,"lng":-77.49242,"zip":"17222","miles_from_dt":27.45},{"city":"Round Hill","state_name":"Virginia","lat":39.13504,"lng":-77.77179,"zip":"20142","miles_from_dt":27.54},{"city":"Beallsville","state_name":"Maryland","lat":39.17909,"lng":-77.41438,"zip":"20839","miles_from_dt":27.56},{"city":"Clarksburg","state_name":"Maryland","lat":39.2592,"lng":-77.28187,"zip":"20871","miles_from_dt":27.74},{"city":"Saint Thomas","state_name":"Pennsylvania","lat":39.91317,"lng":-77.81695,"zip":"17252","miles_from_dt":27.83},{"city":"Brucetown","state_name":"Virginia","lat":39.25659,"lng":-78.06706,"zip":"22622","miles_from_dt":28.27},{"city":"Lincoln","state_name":"Virginia","lat":39.1162,"lng":-77.69397,"zip":"20160","miles_from_dt":28.31},{"city":"Taneytown","state_name":"Maryland","lat":39.67169,"lng":-77.17317,"zip":"21787","miles_from_dt":28.32},{"city":"Glengary","state_name":"West Virginia","lat":39.37821,"lng":-78.16384,"zip":"25421","miles_from_dt":28.35},{"city":"Leesburg","state_name":"Virginia","lat":39.11878,"lng":-77.56645,"zip":"20178","miles_from_dt":28.64},{"city":"Mount Airy","state_name":"Maryland","lat":39.3955,"lng":-77.15869,"zip":"21771","miles_from_dt":28.76},{"city":"Round Hill","state_name":"Virginia","lat":39.11675,"lng":-77.79159,"zip":"20141","miles_from_dt":28.99},{"city":"Big Cove Tannery","state_name":"Pennsylvania","lat":39.81,"lng":-78.07073,"zip":"17212","miles_from_dt":29.01},{"city":"Clear Brook","state_name":"Virginia","lat":39.26535,"lng":-78.09507,"zip":"22624","miles_from_dt":29.04},{"city":"Orrtanna","state_name":"Pennsylvania","lat":39.88741,"lng":-77.38714,"zip":"17353","miles_from_dt":29.11},{"city":"Damascus","state_name":"Maryland","lat":39.29142,"lng":-77.21619,"zip":"20872","miles_from_dt":29.16},{"city":"Leesburg","state_name":"Virginia","lat":39.10694,"lng":-77.56527,"zip":"20177","miles_from_dt":29.45},{"city":"Berkeley Springs","state_name":"West Virginia","lat":39.55497,"lng":-78.22004,"zip":"25411","miles_from_dt":29.48},{"city":"Cashtown","state_name":"Pennsylvania","lat":39.88481,"lng":-77.35878,"zip":"17310","miles_from_dt":29.77},{"city":"McKnightstown","state_name":"Pennsylvania","lat":39.86863,"lng":-77.32948,"zip":"17343","miles_from_dt":29.77},{"city":"Boyds","state_name":"Maryland","lat":39.1858,"lng":-77.32581,"zip":"20841","miles_from_dt":29.83}],"targetCityZipCode":"21713","targetCityState":"Maryland"},"__N_SSG":true}