{"pageProps":{"stateName":"Maryland","cityName":"deal-island","nearbyCities":[{"city":"Nanticoke","state_name":"Maryland","lat":38.25814,"lng":-75.89276,"zip":"21840","miles_from_dt":6.35},{"city":"Upper Fairmount","state_name":"Maryland","lat":38.11025,"lng":-75.79399,"zip":"21867","miles_from_dt":7.24},{"city":"Bivalve","state_name":"Maryland","lat":38.29176,"lng":-75.88669,"zip":"21814","miles_from_dt":8.69},{"city":"Crocheron","state_name":"Maryland","lat":38.23528,"lng":-76.04967,"zip":"21627","miles_from_dt":9.14},{"city":"Tyaskin","state_name":"Maryland","lat":38.28605,"lng":-75.83296,"zip":"21865","miles_from_dt":9.15},{"city":"Westover","state_name":"Maryland","lat":38.10489,"lng":-75.73127,"zip":"21871","miles_from_dt":10.43},{"city":"Princess Anne","state_name":"Maryland","lat":38.20453,"lng":-75.7102,"zip":"21853","miles_from_dt":10.98},{"city":"Westover","state_name":"Maryland","lat":38.15673,"lng":-75.6998,"zip":"21890","miles_from_dt":11.26},{"city":"Toddville","state_name":"Maryland","lat":38.27707,"lng":-76.06148,"zip":"21672","miles_from_dt":11.38},{"city":"Manokin","state_name":"Maryland","lat":38.33073,"lng":-75.80639,"zip":"21836","miles_from_dt":12.55},{"city":"Wingate","state_name":"Maryland","lat":38.29011,"lng":-76.0884,"zip":"21675","miles_from_dt":13.07},{"city":"Quantico","state_name":"Maryland","lat":38.33807,"lng":-75.79224,"zip":"21856","miles_from_dt":13.35},{"city":"Crisfield","state_name":"Maryland","lat":37.98081,"lng":-75.83537,"zip":"21817","miles_from_dt":13.38},{"city":"Marion Station","state_name":"Maryland","lat":38.01452,"lng":-75.73098,"zip":"21838","miles_from_dt":14.18},{"city":"Ewell","state_name":"Maryland","lat":37.97982,"lng":-76.02871,"zip":"21824","miles_from_dt":14.52},{"city":"Allen","state_name":"Maryland","lat":38.29005,"lng":-75.68887,"zip":"21810","miles_from_dt":14.57},{"city":"Tylerton","state_name":"Maryland","lat":37.9672,"lng":-76.02137,"zip":"21866","miles_from_dt":15.12},{"city":"Crapo","state_name":"Maryland","lat":38.33902,"lng":-76.08398,"zip":"21626","miles_from_dt":15.33},{"city":"Rehobeth","state_name":"Maryland","lat":38.04647,"lng":-75.66726,"zip":"21857","miles_from_dt":15.43},{"city":"Eden","state_name":"Maryland","lat":38.28129,"lng":-75.65566,"zip":"21822","miles_from_dt":15.76},{"city":"Fishing Creek","state_name":"Maryland","lat":38.27995,"lng":-76.185,"zip":"21634","miles_from_dt":17.07},{"city":"Vienna","state_name":"Maryland","lat":38.43246,"lng":-75.89012,"zip":"21869","miles_from_dt":18.36},{"city":"Fruitland","state_name":"Maryland","lat":38.32077,"lng":-75.62353,"zip":"21826","miles_from_dt":18.69},{"city":"Hebron","state_name":"Maryland","lat":38.40202,"lng":-75.72841,"zip":"21830","miles_from_dt":18.89},{"city":"Salisbury","state_name":"Maryland","lat":38.36305,"lng":-75.65682,"zip":"21803","miles_from_dt":19.16},{"city":"Saxis","state_name":"Virginia","lat":37.9124,"lng":-75.71344,"zip":"23427","miles_from_dt":20.44},{"city":"Pocomoke City","state_name":"Maryland","lat":38.07825,"lng":-75.54375,"zip":"21851","miles_from_dt":20.66},{"city":"Salisbury","state_name":"Maryland","lat":38.38106,"lng":-75.64073,"zip":"21801","miles_from_dt":20.66},{"city":"Sanford","state_name":"Virginia","lat":37.92706,"lng":-75.67506,"zip":"23426","miles_from_dt":20.78},{"city":"Mardela Springs","state_name":"Maryland","lat":38.4594,"lng":-75.76731,"zip":"21837","miles_from_dt":21.56},{"city":"Withams","state_name":"Virginia","lat":37.95237,"lng":-75.60831,"zip":"23488","miles_from_dt":21.96},{"city":"Church Creek","state_name":"Maryland","lat":38.40821,"lng":-76.17381,"zip":"21622","miles_from_dt":22.12},{"city":"Salisbury","state_name":"Maryland","lat":38.31726,"lng":-75.53673,"zip":"21804","miles_from_dt":22.62},{"city":"Salisbury","state_name":"Maryland","lat":38.34096,"lng":-75.53603,"zip":"21802","miles_from_dt":23.45},{"city":"Tangier","state_name":"Virginia","lat":37.83048,"lng":-75.99019,"zip":"23440","miles_from_dt":23.63},{"city":"New Church","state_name":"Virginia","lat":37.97459,"lng":-75.53443,"zip":"23415","miles_from_dt":24.21},{"city":"Dameron","state_name":"Maryland","lat":38.1459,"lng":-76.35027,"zip":"20628","miles_from_dt":24.23},{"city":"Mears","state_name":"Virginia","lat":37.88017,"lng":-75.64709,"zip":"23409","miles_from_dt":24.29},{"city":"Cambridge","state_name":"Maryland","lat":38.49537,"lng":-76.07169,"zip":"21613","miles_from_dt":24.39},{"city":"Scotland","state_name":"Maryland","lat":38.07578,"lng":-76.34382,"zip":"20687","miles_from_dt":24.66},{"city":"Oak Hall","state_name":"Virginia","lat":37.93371,"lng":-75.557,"zip":"23416","miles_from_dt":24.91},{"city":"Oak Hall","state_name":"Virginia","lat":37.92528,"lng":-75.55889,"zip":"23396","miles_from_dt":25.21},{"city":"Linkwood","state_name":"Maryland","lat":38.53355,"lng":-75.93758,"zip":"21835","miles_from_dt":25.36},{"city":"Hallwood","state_name":"Virginia","lat":37.88643,"lng":-75.60422,"zip":"23359","miles_from_dt":25.39},{"city":"Wattsville","state_name":"Virginia","lat":37.96152,"lng":-75.51341,"zip":"23483","miles_from_dt":25.66},{"city":"Ridge","state_name":"Maryland","lat":38.11071,"lng":-76.37353,"zip":"20680","miles_from_dt":25.75},{"city":"Temperanceville","state_name":"Virginia","lat":37.90127,"lng":-75.56874,"zip":"23442","miles_from_dt":25.96},{"city":"Woolford","state_name":"Maryland","lat":38.48454,"lng":-76.18544,"zip":"21677","miles_from_dt":26.67},{"city":"Ophelia","state_name":"Virginia","lat":37.91247,"lng":-76.28359,"zip":"22530","miles_from_dt":27.04},{"city":"Sharptown","state_name":"Maryland","lat":38.53525,"lng":-75.72834,"zip":"21861","miles_from_dt":27.2},{"city":"Delmar","state_name":"Maryland","lat":38.44038,"lng":-75.54559,"zip":"21875","miles_from_dt":27.21},{"city":"Snow Hill","state_name":"Maryland","lat":38.19167,"lng":-75.40327,"zip":"21863","miles_from_dt":27.43},{"city":"Saint Inigoes","state_name":"Maryland","lat":38.14308,"lng":-76.41027,"zip":"20684","miles_from_dt":27.51},{"city":"Parsonsburg","state_name":"Maryland","lat":38.37006,"lng":-75.46064,"zip":"21849","miles_from_dt":27.99},{"city":"Delmar","state_name":"Delaware","lat":38.47723,"lng":-75.56828,"zip":"19940","miles_from_dt":28.21},{"city":"Horntown","state_name":"Virginia","lat":37.97051,"lng":-75.45159,"zip":"23395","miles_from_dt":28.23},{"city":"Bloxom","state_name":"Virginia","lat":37.82431,"lng":-75.61773,"zip":"23308","miles_from_dt":28.38},{"city":"Atlantic","state_name":"Virginia","lat":37.90346,"lng":-75.50562,"zip":"23303","miles_from_dt":28.4},{"city":"Stockton","state_name":"Maryland","lat":38.04355,"lng":-75.40532,"zip":"21864","miles_from_dt":28.58},{"city":"Rhodesdale","state_name":"Maryland","lat":38.57442,"lng":-75.79985,"zip":"21659","miles_from_dt":28.71},{"city":"Taylors Island","state_name":"Maryland","lat":38.45897,"lng":-76.28509,"zip":"21669","miles_from_dt":28.82},{"city":"Wallops Island","state_name":"Virginia","lat":37.93332,"lng":-75.46691,"zip":"23337","miles_from_dt":28.86},{"city":"Girdletree","state_name":"Maryland","lat":38.09892,"lng":-75.38324,"zip":"21829","miles_from_dt":28.87},{"city":"Lexington Park","state_name":"Maryland","lat":38.22795,"lng":-76.43139,"zip":"20653","miles_from_dt":28.9},{"city":"Madison","state_name":"Maryland","lat":38.4966,"lng":-76.23386,"zip":"21648","miles_from_dt":28.9},{"city":"Saint Marys City","state_name":"Maryland","lat":38.18557,"lng":-76.43898,"zip":"20686","miles_from_dt":29.04},{"city":"Patuxent River","state_name":"Maryland","lat":38.2824,"lng":-76.42031,"zip":"20670","miles_from_dt":29.09},{"city":"East New Market","state_name":"Maryland","lat":38.58784,"lng":-75.94598,"zip":"21631","miles_from_dt":29.13},{"city":"Modest Town","state_name":"Virginia","lat":37.83336,"lng":-75.56899,"zip":"23412","miles_from_dt":29.44},{"city":"Mappsville","state_name":"Virginia","lat":37.8432,"lng":-75.55362,"zip":"23407","miles_from_dt":29.46},{"city":"Park Hall","state_name":"Maryland","lat":38.21782,"lng":-76.44537,"zip":"20667","miles_from_dt":29.57},{"city":"Reedville","state_name":"Virginia","lat":37.85865,"lng":-76.28731,"zip":"22539","miles_from_dt":29.73},{"city":"Assawoman","state_name":"Virginia","lat":37.85858,"lng":-75.52197,"zip":"23302","miles_from_dt":29.85},{"city":"Nelsonia","state_name":"Virginia","lat":37.81375,"lng":-75.58688,"zip":"23414","miles_from_dt":29.93}],"targetCityZipCode":"21821","targetCityState":"Maryland"},"__N_SSG":true}