{"pageProps":{"stateName":"Maryland","cityName":"dickerson","nearbyCities":[{"city":"Beallsville","state_name":"Maryland","lat":39.17909,"lng":-77.41438,"zip":"20839","miles_from_dt":2.09},{"city":"Barnesville","state_name":"Maryland","lat":39.22341,"lng":-77.37223,"zip":"20838","miles_from_dt":3},{"city":"Tuscarora","state_name":"Maryland","lat":39.25908,"lng":-77.49559,"zip":"21790","miles_from_dt":5.17},{"city":"Boyds","state_name":"Maryland","lat":39.1858,"lng":-77.32581,"zip":"20841","miles_from_dt":5.53},{"city":"Leesburg","state_name":"Virginia","lat":39.18147,"lng":-77.5345,"zip":"20176","miles_from_dt":6.18},{"city":"Adamstown","state_name":"Maryland","lat":39.29652,"lng":-77.44941,"zip":"21710","miles_from_dt":6.23},{"city":"Poolesville","state_name":"Maryland","lat":39.11208,"lng":-77.40823,"zip":"20837","miles_from_dt":6.7},{"city":"Point Of Rocks","state_name":"Maryland","lat":39.27918,"lng":-77.5287,"zip":"21777","miles_from_dt":7.42},{"city":"Clarksburg","state_name":"Maryland","lat":39.2592,"lng":-77.28187,"zip":"20871","miles_from_dt":8.43},{"city":"Germantown","state_name":"Maryland","lat":39.1291,"lng":-77.29721,"zip":"20874","miles_from_dt":8.76},{"city":"Germantown","state_name":"Maryland","lat":39.17643,"lng":-77.26251,"zip":"20875","miles_from_dt":8.98},{"city":"Buckeystown","state_name":"Maryland","lat":39.33865,"lng":-77.43147,"zip":"21717","miles_from_dt":9},{"city":"Paeonian Springs","state_name":"Virginia","lat":39.16673,"lng":-77.59404,"zip":"20129","miles_from_dt":9.53},{"city":"Leesburg","state_name":"Virginia","lat":39.11878,"lng":-77.56645,"zip":"20178","miles_from_dt":9.8},{"city":"Frederick","state_name":"Maryland","lat":39.3506,"lng":-77.3735,"zip":"21704","miles_from_dt":10.19},{"city":"Leesburg","state_name":"Virginia","lat":39.10694,"lng":-77.56527,"zip":"20177","miles_from_dt":10.29},{"city":"Germantown","state_name":"Maryland","lat":39.20706,"lng":-77.23284,"zip":"20876","miles_from_dt":10.3},{"city":"Waterford","state_name":"Virginia","lat":39.19379,"lng":-77.62252,"zip":"20197","miles_from_dt":10.66},{"city":"Ijamsville","state_name":"Maryland","lat":39.33684,"lng":-77.31131,"zip":"21754","miles_from_dt":10.75},{"city":"Sterling","state_name":"Virginia","lat":39.05058,"lng":-77.38854,"zip":"20165","miles_from_dt":11.05},{"city":"Frederick","state_name":"Maryland","lat":39.36961,"lng":-77.47088,"zip":"21703","miles_from_dt":11.4},{"city":"Gaithersburg","state_name":"Maryland","lat":39.11376,"lng":-77.24781,"zip":"20878","miles_from_dt":11.52},{"city":"Gaithersburg","state_name":"Maryland","lat":39.13349,"lng":-77.22906,"zip":"20885","miles_from_dt":11.71},{"city":"Ashburn","state_name":"Virginia","lat":39.04362,"lng":-77.48161,"zip":"20149","miles_from_dt":11.76},{"city":"Ashburn","state_name":"Virginia","lat":39.04151,"lng":-77.47958,"zip":"20147","miles_from_dt":11.88},{"city":"Gaithersburg","state_name":"Maryland","lat":39.14442,"lng":-77.21621,"zip":"20899","miles_from_dt":12.03},{"city":"Lovettsville","state_name":"Virginia","lat":39.26775,"lng":-77.63804,"zip":"20180","miles_from_dt":12.16},{"city":"Montgomery Village","state_name":"Maryland","lat":39.17952,"lng":-77.197,"zip":"20886","miles_from_dt":12.38},{"city":"Damascus","state_name":"Maryland","lat":39.29142,"lng":-77.21619,"zip":"20872","miles_from_dt":12.57},{"city":"Gaithersburg","state_name":"Maryland","lat":39.14289,"lng":-77.20282,"zip":"20898","miles_from_dt":12.74},{"city":"Gaithersburg","state_name":"Maryland","lat":39.17,"lng":-77.19219,"zip":"20883","miles_from_dt":12.76},{"city":"Jefferson","state_name":"Maryland","lat":39.36101,"lng":-77.56887,"zip":"21755","miles_from_dt":13.06},{"city":"Gaithersburg","state_name":"Maryland","lat":39.14269,"lng":-77.19508,"zip":"20884","miles_from_dt":13.14},{"city":"Brunswick","state_name":"Maryland","lat":39.31798,"lng":-77.6262,"zip":"21716","miles_from_dt":13.19},{"city":"Ashburn","state_name":"Virginia","lat":39.01905,"lng":-77.46099,"zip":"20146","miles_from_dt":13.2},{"city":"Hamilton","state_name":"Virginia","lat":39.14126,"lng":-77.65514,"zip":"20158","miles_from_dt":13.21},{"city":"Sterling","state_name":"Virginia","lat":39.01703,"lng":-77.39409,"zip":"20167","miles_from_dt":13.3},{"city":"Monrovia","state_name":"Maryland","lat":39.35245,"lng":-77.25791,"zip":"21770","miles_from_dt":13.37},{"city":"Gaithersburg","state_name":"Maryland","lat":39.14068,"lng":-77.18865,"zip":"20877","miles_from_dt":13.51},{"city":"Sterling","state_name":"Virginia","lat":39.01244,"lng":-77.39586,"zip":"20164","miles_from_dt":13.6},{"city":"Leesburg","state_name":"Virginia","lat":39.0641,"lng":-77.59939,"zip":"20175","miles_from_dt":13.68},{"city":"Gaithersburg","state_name":"Maryland","lat":39.16992,"lng":-77.17416,"zip":"20879","miles_from_dt":13.71},{"city":"Frederick","state_name":"Maryland","lat":39.40887,"lng":-77.41002,"zip":"21705","miles_from_dt":13.86},{"city":"Hamilton","state_name":"Virginia","lat":39.13425,"lng":-77.66495,"zip":"20159","miles_from_dt":13.87},{"city":"Washington Grove","state_name":"Maryland","lat":39.14077,"lng":-77.17456,"zip":"20880","miles_from_dt":14.22},{"city":"Dulles","state_name":"Virginia","lat":38.99738,"lng":-77.45148,"zip":"20103","miles_from_dt":14.62},{"city":"Braddock Heights","state_name":"Maryland","lat":39.41059,"lng":-77.51003,"zip":"21714","miles_from_dt":14.68},{"city":"Dulles","state_name":"Virginia","lat":38.99793,"lng":-77.46975,"zip":"20104","miles_from_dt":14.71},{"city":"Gaithersburg","state_name":"Maryland","lat":39.23182,"lng":-77.14514,"zip":"20882","miles_from_dt":15.09},{"city":"Great Falls","state_name":"Virginia","lat":39.01032,"lng":-77.30258,"zip":"22066","miles_from_dt":15.15},{"city":"Frederick","state_name":"Maryland","lat":39.42776,"lng":-77.41549,"zip":"21709","miles_from_dt":15.15},{"city":"Dulles","state_name":"Virginia","lat":38.98835,"lng":-77.45192,"zip":"20101","miles_from_dt":15.24},{"city":"Sterling","state_name":"Virginia","lat":38.98799,"lng":-77.45013,"zip":"20163","miles_from_dt":15.26},{"city":"Rockville","state_name":"Maryland","lat":39.0908,"lng":-77.1809,"zip":"20850","miles_from_dt":15.4},{"city":"Lincoln","state_name":"Virginia","lat":39.1162,"lng":-77.69397,"zip":"20160","miles_from_dt":15.79},{"city":"Herndon","state_name":"Virginia","lat":38.98075,"lng":-77.38042,"zip":"20170","miles_from_dt":15.88},{"city":"Knoxville","state_name":"Maryland","lat":39.34567,"lng":-77.66265,"zip":"21758","miles_from_dt":15.89},{"city":"New Market","state_name":"Maryland","lat":39.4088,"lng":-77.27844,"zip":"21774","miles_from_dt":15.9},{"city":"Purcellville","state_name":"Virginia","lat":39.14233,"lng":-77.71139,"zip":"20134","miles_from_dt":16.05},{"city":"Ashburn","state_name":"Virginia","lat":38.99062,"lng":-77.53284,"zip":"20148","miles_from_dt":16.1},{"city":"Potomac","state_name":"Maryland","lat":39.03413,"lng":-77.22149,"zip":"20854","miles_from_dt":16.24},{"city":"Reston","state_name":"Virginia","lat":38.97998,"lng":-77.34354,"zip":"20194","miles_from_dt":16.34},{"city":"Sterling","state_name":"Virginia","lat":38.97146,"lng":-77.4637,"zip":"20166","miles_from_dt":16.47},{"city":"Derwood","state_name":"Maryland","lat":39.13702,"lng":-77.13197,"zip":"20855","miles_from_dt":16.47},{"city":"Purcellville","state_name":"Virginia","lat":39.16648,"lng":-77.72748,"zip":"20132","miles_from_dt":16.51},{"city":"Herndon","state_name":"Virginia","lat":38.96894,"lng":-77.3887,"zip":"22095","miles_from_dt":16.63},{"city":"Herndon","state_name":"Virginia","lat":38.96932,"lng":-77.38325,"zip":"20172","miles_from_dt":16.64},{"city":"Burkittsville","state_name":"Maryland","lat":39.39343,"lng":-77.62734,"zip":"21718","miles_from_dt":16.76},{"city":"Rockville","state_name":"Maryland","lat":39.07935,"lng":-77.1564,"zip":"20857","miles_from_dt":16.94},{"city":"Rockville","state_name":"Maryland","lat":39.08448,"lng":-77.15186,"zip":"20847","miles_from_dt":16.97},{"city":"Rockville","state_name":"Maryland","lat":39.08242,"lng":-77.15282,"zip":"20849","miles_from_dt":16.99},{"city":"Dulles","state_name":"Virginia","lat":38.96242,"lng":-77.45563,"zip":"20189","miles_from_dt":17.04},{"city":"Frederick","state_name":"Maryland","lat":39.44729,"lng":-77.33512,"zip":"21701","miles_from_dt":17.17},{"city":"Brownsville","state_name":"Maryland","lat":39.37879,"lng":-77.66063,"zip":"21715","miles_from_dt":17.27},{"city":"Dulles","state_name":"Virginia","lat":38.95656,"lng":-77.45032,"zip":"20102","miles_from_dt":17.42},{"city":"Potomac","state_name":"Maryland","lat":39.02296,"lng":-77.19925,"zip":"20859","miles_from_dt":17.62},{"city":"Reston","state_name":"Virginia","lat":38.95968,"lng":-77.33806,"zip":"20190","miles_from_dt":17.77},{"city":"Middletown","state_name":"Maryland","lat":39.44582,"lng":-77.56489,"zip":"21769","miles_from_dt":18.02},{"city":"Reston","state_name":"Virginia","lat":38.94986,"lng":-77.34433,"zip":"22096","miles_from_dt":18.35},{"city":"Herndon","state_name":"Virginia","lat":38.94635,"lng":-77.36314,"zip":"20192","miles_from_dt":18.37},{"city":"Rockville","state_name":"Maryland","lat":39.07767,"lng":-77.12089,"zip":"20851","miles_from_dt":18.64},{"city":"Reston","state_name":"Virginia","lat":38.94889,"lng":-77.32678,"zip":"20195","miles_from_dt":18.65},{"city":"Washington","state_name":"District of Columbia","lat":38.94,"lng":-77.47751,"zip":"20041","miles_from_dt":18.73},{"city":"Frederick","state_name":"Maryland","lat":39.48019,"lng":-77.4578,"zip":"21702","miles_from_dt":18.84},{"city":"Rockville","state_name":"Maryland","lat":39.07308,"lng":-77.11829,"zip":"20848","miles_from_dt":18.92},{"city":"Olney","state_name":"Maryland","lat":39.15927,"lng":-77.07572,"zip":"20830","miles_from_dt":19.04},{"city":"Rockville","state_name":"Maryland","lat":39.10237,"lng":-77.09462,"zip":"20853","miles_from_dt":19.18},{"city":"Mount Airy","state_name":"Maryland","lat":39.3955,"lng":-77.15869,"zip":"21771","miles_from_dt":19.24},{"city":"Olney","state_name":"Maryland","lat":39.15134,"lng":-77.07331,"zip":"20832","miles_from_dt":19.27},{"city":"Reston","state_name":"Virginia","lat":38.93438,"lng":-77.35184,"zip":"20191","miles_from_dt":19.3},{"city":"Round Hill","state_name":"Virginia","lat":39.13504,"lng":-77.77179,"zip":"20142","miles_from_dt":19.31},{"city":"Rohrersville","state_name":"Maryland","lat":39.42447,"lng":-77.65398,"zip":"21779","miles_from_dt":19.32},{"city":"Rockville","state_name":"Maryland","lat":39.05134,"lng":-77.12507,"zip":"20852","miles_from_dt":19.4},{"city":"Reston","state_name":"Virginia","lat":38.92613,"lng":-77.39669,"zip":"20196","miles_from_dt":19.52},{"city":"Bethesda","state_name":"Maryland","lat":39.01371,"lng":-77.15874,"zip":"20827","miles_from_dt":19.61},{"city":"Herndon","state_name":"Virginia","lat":38.9246,"lng":-77.39824,"zip":"20171","miles_from_dt":19.62},{"city":"Aldie","state_name":"Virginia","lat":38.95949,"lng":-77.60829,"zip":"20105","miles_from_dt":19.8},{"city":"Brookeville","state_name":"Maryland","lat":39.20595,"lng":-77.05552,"zip":"20833","miles_from_dt":19.82},{"city":"Philomont","state_name":"Virginia","lat":39.05815,"lng":-77.74061,"zip":"20131","miles_from_dt":19.88},{"city":"Walkersville","state_name":"Maryland","lat":39.48963,"lng":-77.34357,"zip":"21793","miles_from_dt":19.89},{"city":"Silver Spring","state_name":"Maryland","lat":39.10473,"lng":-77.07679,"zip":"20908","miles_from_dt":20.01},{"city":"Harpers Ferry","state_name":"West Virginia","lat":39.27613,"lng":-77.79184,"zip":"25425","miles_from_dt":20.24},{"city":"Millville","state_name":"West Virginia","lat":39.29562,"lng":-77.78663,"zip":"25432","miles_from_dt":20.32},{"city":"Silver Spring","state_name":"Maryland","lat":39.08411,"lng":-77.07933,"zip":"20916","miles_from_dt":20.44},{"city":"Vienna","state_name":"Virginia","lat":38.93611,"lng":-77.2736,"zip":"22182","miles_from_dt":20.46},{"city":"McLean","state_name":"Virginia","lat":38.95199,"lng":-77.22901,"zip":"22102","miles_from_dt":20.58},{"city":"Round Hill","state_name":"Virginia","lat":39.11675,"lng":-77.79159,"zip":"20141","miles_from_dt":20.69},{"city":"Bethesda","state_name":"Maryland","lat":38.99809,"lng":-77.14919,"zip":"20817","miles_from_dt":20.73},{"city":"Bakerton","state_name":"West Virginia","lat":39.32699,"lng":-77.78005,"zip":"25410","miles_from_dt":20.74},{"city":"West Mclean","state_name":"Virginia","lat":38.94777,"lng":-77.22795,"zip":"22103","miles_from_dt":20.86},{"city":"Woodbine","state_name":"Maryland","lat":39.33284,"lng":-77.07002,"zip":"21797","miles_from_dt":20.87},{"city":"Libertytown","state_name":"Maryland","lat":39.48058,"lng":-77.24842,"zip":"21762","miles_from_dt":21.02},{"city":"Lisbon","state_name":"Maryland","lat":39.33483,"lng":-77.06811,"zip":"21765","miles_from_dt":21.02},{"city":"Halltown","state_name":"West Virginia","lat":39.31449,"lng":-77.79823,"zip":"25423","miles_from_dt":21.33},{"city":"Garrett Park","state_name":"Maryland","lat":39.03521,"lng":-77.09494,"zip":"20896","miles_from_dt":21.37},{"city":"Cabin John","state_name":"Maryland","lat":38.97347,"lng":-77.16188,"zip":"20818","miles_from_dt":21.5},{"city":"Silver Spring","state_name":"Maryland","lat":39.08858,"lng":-77.05522,"zip":"20906","miles_from_dt":21.5},{"city":"Sandy Spring","state_name":"Maryland","lat":39.15072,"lng":-77.03069,"zip":"20860","miles_from_dt":21.53},{"city":"Suburb Maryland Fac","state_name":"Maryland","lat":39.08787,"lng":-77.05479,"zip":"20897","miles_from_dt":21.54},{"city":"Chantilly","state_name":"Virginia","lat":38.89583,"lng":-77.44453,"zip":"20151","miles_from_dt":21.58},{"city":"Brinklow","state_name":"Maryland","lat":39.18039,"lng":-77.01879,"zip":"20862","miles_from_dt":21.88},{"city":"Chantilly","state_name":"Virginia","lat":38.8998,"lng":-77.51917,"zip":"20152","miles_from_dt":21.88},{"city":"Glenwood","state_name":"Maryland","lat":39.27973,"lng":-77.02554,"zip":"21738","miles_from_dt":21.97},{"city":"Glenelg","state_name":"Maryland","lat":39.2543,"lng":-77.01959,"zip":"21737","miles_from_dt":21.97},{"city":"Vienna","state_name":"Virginia","lat":38.9053,"lng":-77.29466,"zip":"22181","miles_from_dt":22.04},{"city":"Chantilly","state_name":"Virginia","lat":38.88759,"lng":-77.44142,"zip":"20153","miles_from_dt":22.14},{"city":"Bethesda","state_name":"Maryland","lat":39.00506,"lng":-77.10295,"zip":"20814","miles_from_dt":22.26},{"city":"Unionville","state_name":"Maryland","lat":39.47481,"lng":-77.18722,"zip":"21792","miles_from_dt":22.36},{"city":"Middleburg","state_name":"Virginia","lat":38.99473,"lng":-77.73851,"zip":"20117","miles_from_dt":22.39},{"city":"Bethesda","state_name":"Maryland","lat":39.0006,"lng":-77.10373,"zip":"20892","miles_from_dt":22.43},{"city":"Kensington","state_name":"Maryland","lat":39.02696,"lng":-77.07781,"zip":"20895","miles_from_dt":22.45},{"city":"Oakton","state_name":"Virginia","lat":38.8909,"lng":-77.33025,"zip":"22124","miles_from_dt":22.48},{"city":"Glen Echo","state_name":"Maryland","lat":38.96677,"lng":-77.14357,"zip":"20812","miles_from_dt":22.5},{"city":"Kensington","state_name":"Maryland","lat":39.02628,"lng":-77.07544,"zip":"20891","miles_from_dt":22.58},{"city":"Keedysville","state_name":"Maryland","lat":39.45758,"lng":-77.70118,"zip":"21756","miles_from_dt":22.69},{"city":"Bethesda","state_name":"Maryland","lat":38.99591,"lng":-77.10221,"zip":"20894","miles_from_dt":22.7},{"city":"Dayton","state_name":"Maryland","lat":39.23416,"lng":-77.00223,"zip":"21036","miles_from_dt":22.74},{"city":"McLean","state_name":"Virginia","lat":38.94084,"lng":-77.17614,"zip":"22106","miles_from_dt":22.78},{"city":"McLean","state_name":"Virginia","lat":38.93368,"lng":-77.18439,"zip":"22109","miles_from_dt":22.93},{"city":"Bethesda","state_name":"Maryland","lat":39.00193,"lng":-77.09038,"zip":"20889","miles_from_dt":22.93},{"city":"Fairfax","state_name":"Virginia","lat":38.87564,"lng":-77.38419,"zip":"22033","miles_from_dt":23.05},{"city":"Vienna","state_name":"Virginia","lat":38.89929,"lng":-77.26033,"zip":"22185","miles_from_dt":23.08},{"city":"Greenway","state_name":"Virginia","lat":38.94062,"lng":-77.16512,"zip":"22067","miles_from_dt":23.15},{"city":"McLean","state_name":"Virginia","lat":38.93,"lng":-77.18219,"zip":"22107","miles_from_dt":23.21},{"city":"McLean","state_name":"Virginia","lat":38.93,"lng":-77.18219,"zip":"22108","miles_from_dt":23.21},{"city":"Ashton","state_name":"Maryland","lat":39.14653,"lng":-76.99886,"zip":"20861","miles_from_dt":23.26},{"city":"McLean","state_name":"Virginia","lat":38.9386,"lng":-77.16513,"zip":"22101","miles_from_dt":23.26},{"city":"Silver Spring","state_name":"Maryland","lat":39.04373,"lng":-77.04679,"zip":"20915","miles_from_dt":23.27},{"city":"Vienna","state_name":"Virginia","lat":38.89745,"lng":-77.25434,"zip":"22183","miles_from_dt":23.32},{"city":"Vienna","state_name":"Virginia","lat":38.89619,"lng":-77.25426,"zip":"22180","miles_from_dt":23.4},{"city":"Bethesda","state_name":"Maryland","lat":38.98,"lng":-77.10219,"zip":"20810","miles_from_dt":23.42},{"city":"Bethesda","state_name":"Maryland","lat":38.98204,"lng":-77.09981,"zip":"20811","miles_from_dt":23.42},{"city":"Silver Spring","state_name":"Maryland","lat":39.04381,"lng":-77.0421,"zip":"20902","miles_from_dt":23.48},{"city":"Middleburg","state_name":"Virginia","lat":38.96752,"lng":-77.73428,"zip":"20118","miles_from_dt":23.51},{"city":"Bethesda","state_name":"Maryland","lat":38.98412,"lng":-77.09272,"zip":"20824","miles_from_dt":23.62},{"city":"Cooksville","state_name":"Maryland","lat":39.32825,"lng":-77.01056,"zip":"21723","miles_from_dt":23.7},{"city":"Myersville","state_name":"Maryland","lat":39.53725,"lng":-77.55301,"zip":"21773","miles_from_dt":23.71},{"city":"Woodsboro","state_name":"Maryland","lat":39.53858,"lng":-77.29985,"zip":"21798","miles_from_dt":23.74},{"city":"Chevy Chase","state_name":"Maryland","lat":38.9955,"lng":-77.07499,"zip":"20825","miles_from_dt":23.85},{"city":"Bethesda","state_name":"Maryland","lat":38.95612,"lng":-77.11873,"zip":"20816","miles_from_dt":23.94},{"city":"Charles Town","state_name":"West Virginia","lat":39.25273,"lng":-77.87055,"zip":"25414","miles_from_dt":24.11},{"city":"Bethesda","state_name":"Maryland","lat":38.9841,"lng":-77.08021,"zip":"20813","miles_from_dt":24.13},{"city":"Chevy Chase","state_name":"Maryland","lat":38.98369,"lng":-77.07845,"zip":"20815","miles_from_dt":24.22},{"city":"Dunn Loring","state_name":"Virginia","lat":38.89411,"lng":-77.22159,"zip":"22027","miles_from_dt":24.27},{"city":"Silver Spring","state_name":"Maryland","lat":39.11052,"lng":-76.99036,"zip":"20905","miles_from_dt":24.28},{"city":"Silver Spring","state_name":"Maryland","lat":39.07413,"lng":-77.00346,"zip":"20914","miles_from_dt":24.45},{"city":"Centreville","state_name":"Virginia","lat":38.85594,"lng":-77.47862,"zip":"20122","miles_from_dt":24.48},{"city":"Falls Church","state_name":"Virginia","lat":38.90076,"lng":-77.19746,"zip":"22043","miles_from_dt":24.49},{"city":"Centreville","state_name":"Virginia","lat":38.85576,"lng":-77.47987,"zip":"20120","miles_from_dt":24.5},{"city":"Fairfax","state_name":"Virginia","lat":38.85628,"lng":-77.36269,"zip":"22035","miles_from_dt":24.51},{"city":"Shenandoah Junction","state_name":"West Virginia","lat":39.37157,"lng":-77.83181,"zip":"25442","miles_from_dt":24.56},{"city":"Highland","state_name":"Maryland","lat":39.17487,"lng":-76.96783,"zip":"20777","miles_from_dt":24.64},{"city":"Sharpsburg","state_name":"Maryland","lat":39.4552,"lng":-77.75995,"zip":"21782","miles_from_dt":24.75},{"city":"Ranson","state_name":"West Virginia","lat":39.31853,"lng":-77.86448,"zip":"25438","miles_from_dt":24.78},{"city":"New Midway","state_name":"Maryland","lat":39.55622,"lng":-77.30221,"zip":"21775","miles_from_dt":24.88},{"city":"West Friendship","state_name":"Maryland","lat":39.29705,"lng":-76.97388,"zip":"21794","miles_from_dt":24.94},{"city":"Catharpin","state_name":"Virginia","lat":38.86421,"lng":-77.56792,"zip":"20143","miles_from_dt":24.96},{"city":"Merrifield","state_name":"Virginia","lat":38.87685,"lng":-77.23574,"zip":"22119","miles_from_dt":25.02},{"city":"Spencerville","state_name":"Maryland","lat":39.12534,"lng":-76.96834,"zip":"20868","miles_from_dt":25.17},{"city":"Merrifield","state_name":"Virginia","lat":38.87338,"lng":-77.23598,"zip":"22081","miles_from_dt":25.24},{"city":"Merrifield","state_name":"Virginia","lat":38.87267,"lng":-77.2373,"zip":"22082","miles_from_dt":25.25},{"city":"Silver Spring","state_name":"Maryland","lat":39.00227,"lng":-77.03634,"zip":"20910","miles_from_dt":25.25},{"city":"Clarksville","state_name":"Maryland","lat":39.20633,"lng":-76.95206,"zip":"21029","miles_from_dt":25.37},{"city":"Fairfax","state_name":"Virginia","lat":38.85344,"lng":-77.30039,"zip":"22037","miles_from_dt":25.38},{"city":"Silver Spring","state_name":"Maryland","lat":39.02082,"lng":-77.01637,"zip":"20918","miles_from_dt":25.47},{"city":"Washington","state_name":"District of Columbia","lat":38.98,"lng":-77.05219,"zip":"20511","miles_from_dt":25.48},{"city":"Boonsboro","state_name":"Maryland","lat":39.52618,"lng":-77.66933,"zip":"21713","miles_from_dt":25.54},{"city":"Silver Spring","state_name":"Maryland","lat":38.99886,"lng":-77.03252,"zip":"20907","miles_from_dt":25.56},{"city":"Merrifield","state_name":"Virginia","lat":38.86135,"lng":-77.25745,"zip":"22116","miles_from_dt":25.57},{"city":"Fairfax","state_name":"Virginia","lat":38.85954,"lng":-77.2599,"zip":"22031","miles_from_dt":25.64},{"city":"Bluemont","state_name":"Virginia","lat":39.08602,"lng":-77.87659,"zip":"20135","miles_from_dt":25.7},{"city":"Silver Spring","state_name":"Maryland","lat":38.99457,"lng":-77.03226,"zip":"20911","miles_from_dt":25.74},{"city":"Washington","state_name":"District of Columbia","lat":38.94137,"lng":-77.08984,"zip":"20375","miles_from_dt":25.76},{"city":"Falls Church","state_name":"Virginia","lat":38.88696,"lng":-77.18025,"zip":"22046","miles_from_dt":25.77},{"city":"Fairfax","state_name":"Virginia","lat":38.85798,"lng":-77.25866,"zip":"22036","miles_from_dt":25.77},{"city":"Silver Spring","state_name":"Maryland","lat":39.02155,"lng":-77.00919,"zip":"20901","miles_from_dt":25.78},{"city":"Washington","state_name":"District of Columbia","lat":38.96661,"lng":-77.05837,"zip":"20015","miles_from_dt":25.81},{"city":"Washington","state_name":"District of Columbia","lat":38.94167,"lng":-77.08741,"zip":"20394","miles_from_dt":25.83},{"city":"Arlington","state_name":"Virginia","lat":38.89459,"lng":-77.16239,"zip":"22213","miles_from_dt":25.84},{"city":"Washington","state_name":"District of Columbia","lat":38.93822,"lng":-77.09139,"zip":"20016","miles_from_dt":25.85},{"city":"Fairfax","state_name":"Virginia","lat":38.83891,"lng":-77.34188,"zip":"22030","miles_from_dt":25.87},{"city":"Silver Spring","state_name":"Maryland","lat":39.06608,"lng":-76.97918,"zip":"20904","miles_from_dt":25.87},{"city":"Fairfax","state_name":"Virginia","lat":38.85596,"lng":-77.2602,"zip":"22034","miles_from_dt":25.87},{"city":"Merrifield","state_name":"Virginia","lat":38.83936,"lng":-77.33663,"zip":"22118","miles_from_dt":25.89},{"city":"Washington","state_name":"District of Columbia","lat":38.94357,"lng":-77.08243,"zip":"20393","miles_from_dt":25.93},{"city":"Silver Spring","state_name":"Maryland","lat":38.99447,"lng":-77.02542,"zip":"20997","miles_from_dt":26.04},{"city":"Haymarket","state_name":"Virginia","lat":38.87172,"lng":-77.64627,"zip":"20169","miles_from_dt":26.1},{"city":"Falls Church","state_name":"Virginia","lat":38.88569,"lng":-77.17123,"zip":"22040","miles_from_dt":26.1},{"city":"Silver Spring","state_name":"Maryland","lat":39.03614,"lng":-76.99099,"zip":"20993","miles_from_dt":26.16},{"city":"Shepherdstown","state_name":"West Virginia","lat":39.43835,"lng":-77.81477,"zip":"25443","miles_from_dt":26.24},{"city":"Fairfax","state_name":"Virginia","lat":38.83082,"lng":-77.36294,"zip":"22038","miles_from_dt":26.25},{"city":"Union Bridge","state_name":"Maryland","lat":39.54267,"lng":-77.18713,"zip":"21791","miles_from_dt":26.34},{"city":"Arlington","state_name":"Virginia","lat":38.90665,"lng":-77.12384,"zip":"22207","miles_from_dt":26.36},{"city":"Washington","state_name":"District of Columbia","lat":38.97863,"lng":-77.03076,"zip":"20012","miles_from_dt":26.45},{"city":"Washington","state_name":"District of Columbia","lat":38.97417,"lng":-77.03376,"zip":"20306","miles_from_dt":26.51},{"city":"Thurmont","state_name":"Maryland","lat":39.59429,"lng":-77.41958,"zip":"21788","miles_from_dt":26.63},{"city":"Washington","state_name":"District of Columbia","lat":38.96001,"lng":-77.04356,"zip":"20242","miles_from_dt":26.71},{"city":"Ladiesburg","state_name":"Maryland","lat":39.57501,"lng":-77.26392,"zip":"21759","miles_from_dt":26.72},{"city":"Rippon","state_name":"West Virginia","lat":39.2282,"lng":-77.92222,"zip":"25441","miles_from_dt":26.73},{"city":"Falls Church","state_name":"Virginia","lat":38.86463,"lng":-77.19406,"zip":"22042","miles_from_dt":26.76},{"city":"Fulton","state_name":"Maryland","lat":39.15419,"lng":-76.92877,"zip":"20759","miles_from_dt":26.89},{"city":"Washington","state_name":"District of Columbia","lat":38.96672,"lng":-77.03159,"zip":"20040","miles_from_dt":26.92},{"city":"Centreville","state_name":"Virginia","lat":38.8175,"lng":-77.46015,"zip":"20121","miles_from_dt":27.03},{"city":"Silver Spring","state_name":"Maryland","lat":39.02128,"lng":-76.9821,"zip":"20903","miles_from_dt":27.06},{"city":"Arlington","state_name":"Virginia","lat":38.88337,"lng":-77.13948,"zip":"22205","miles_from_dt":27.16},{"city":"Washington","state_name":"District of Columbia","lat":38.93539,"lng":-77.05935,"zip":"20008","miles_from_dt":27.21},{"city":"Burtonsville","state_name":"Maryland","lat":39.10969,"lng":-76.93411,"zip":"20866","miles_from_dt":27.21},{"city":"Washington","state_name":"District of Columbia","lat":38.9335,"lng":-77.06003,"zip":"20392","miles_from_dt":27.28},{"city":"Washington","state_name":"District of Columbia","lat":38.9164,"lng":-77.07787,"zip":"20435","miles_from_dt":27.45},{"city":"New Windsor","state_name":"Maryland","lat":39.51861,"lng":-77.10376,"zip":"21776","miles_from_dt":27.45},{"city":"Takoma Park","state_name":"Maryland","lat":38.98188,"lng":-77.00388,"zip":"20913","miles_from_dt":27.49},{"city":"Takoma Park","state_name":"Maryland","lat":38.98182,"lng":-77.00106,"zip":"20912","miles_from_dt":27.62},{"city":"Sykesville","state_name":"Maryland","lat":39.40087,"lng":-76.9726,"zip":"21784","miles_from_dt":27.63},{"city":"Washington","state_name":"District of Columbia","lat":38.91259,"lng":-77.07756,"zip":"20007","miles_from_dt":27.65},{"city":"Washington","state_name":"District of Columbia","lat":38.95442,"lng":-77.02636,"zip":"20039","miles_from_dt":27.67},{"city":"Fairfax","state_name":"Virginia","lat":38.82012,"lng":-77.29032,"zip":"22032","miles_from_dt":27.74},{"city":"Washington","state_name":"District of Columbia","lat":38.95295,"lng":-77.02323,"zip":"20011","miles_from_dt":27.86},{"city":"Washington","state_name":"District of Columbia","lat":38.90892,"lng":-77.07511,"zip":"20057","miles_from_dt":27.93},{"city":"Falls Church","state_name":"Virginia","lat":38.85957,"lng":-77.15627,"zip":"22044","miles_from_dt":28.06},{"city":"Washington","state_name":"District of Columbia","lat":38.94136,"lng":-77.02801,"zip":"20542","miles_from_dt":28.18},{"city":"Washington","state_name":"District of Columbia","lat":38.91415,"lng":-77.06096,"zip":"20406","miles_from_dt":28.19},{"city":"Upperville","state_name":"Virginia","lat":39.00143,"lng":-77.87874,"zip":"20184","miles_from_dt":28.27},{"city":"Hyattsville","state_name":"Maryland","lat":39.00188,"lng":-76.96939,"zip":"20787","miles_from_dt":28.31},{"city":"Keymar","state_name":"Maryland","lat":39.59902,"lng":-77.25906,"zip":"21757","miles_from_dt":28.37},{"city":"Arlington","state_name":"Virginia","lat":38.88684,"lng":-77.09501,"zip":"22201","miles_from_dt":28.4},{"city":"Annandale","state_name":"Virginia","lat":38.8308,"lng":-77.21402,"zip":"22003","miles_from_dt":28.4},{"city":"Arlington","state_name":"Virginia","lat":38.88728,"lng":-77.09394,"zip":"22210","miles_from_dt":28.41},{"city":"Hyattsville","state_name":"Maryland","lat":38.99988,"lng":-76.96886,"zip":"20783","miles_from_dt":28.41},{"city":"Arlington","state_name":"Virginia","lat":38.87377,"lng":-77.1164,"zip":"22203","miles_from_dt":28.42},{"city":"Washington","state_name":"District of Columbia","lat":38.93255,"lng":-77.03128,"zip":"20010","miles_from_dt":28.45},{"city":"Arlington","state_name":"Virginia","lat":38.89162,"lng":-77.08532,"zip":"22216","miles_from_dt":28.47},{"city":"Rocky Ridge","state_name":"Maryland","lat":39.61576,"lng":-77.33754,"zip":"21778","miles_from_dt":28.49},{"city":"Arlington","state_name":"Virginia","lat":38.88388,"lng":-77.09428,"zip":"22226","miles_from_dt":28.58},{"city":"Arlington","state_name":"Virginia","lat":38.87006,"lng":-77.11668,"zip":"22230","miles_from_dt":28.62},{"city":"Summit Point","state_name":"West Virginia","lat":39.24013,"lng":-77.95705,"zip":"25446","miles_from_dt":28.65},{"city":"Upperville","state_name":"Virginia","lat":38.9945,"lng":-77.88181,"zip":"20185","miles_from_dt":28.66},{"city":"Washington","state_name":"District of Columbia","lat":38.92326,"lng":-77.0348,"zip":"20441","miles_from_dt":28.75},{"city":"Arlington","state_name":"Virginia","lat":38.89413,"lng":-77.07309,"zip":"22209","miles_from_dt":28.77},{"city":"Springfield","state_name":"Virginia","lat":38.81226,"lng":-77.25641,"zip":"22158","miles_from_dt":28.78},{"city":"Washington","state_name":"District of Columbia","lat":38.91456,"lng":-77.04447,"zip":"20440","miles_from_dt":28.79},{"city":"Washington","state_name":"District of Columbia","lat":38.91986,"lng":-77.03749,"zip":"20009","miles_from_dt":28.8},{"city":"Washington","state_name":"District of Columbia","lat":38.91703,"lng":-77.04116,"zip":"20554","miles_from_dt":28.8},{"city":"Washington","state_name":"District of Columbia","lat":38.91344,"lng":-77.04398,"zip":"20428","miles_from_dt":28.86},{"city":"Washington","state_name":"District of Columbia","lat":38.9119,"lng":-77.04586,"zip":"20235","miles_from_dt":28.87},{"city":"Ellicott City","state_name":"Maryland","lat":39.27105,"lng":-76.8924,"zip":"21042","miles_from_dt":28.88},{"city":"Washington","state_name":"District of Columbia","lat":38.91925,"lng":-77.03605,"zip":"20232","miles_from_dt":28.89},{"city":"Arlington","state_name":"Virginia","lat":38.89123,"lng":-77.07307,"zip":"22219","miles_from_dt":28.92},{"city":"Washington","state_name":"District of Columbia","lat":38.93645,"lng":-77.0128,"zip":"20317","miles_from_dt":29.02},{"city":"Kearneysville","state_name":"West Virginia","lat":39.34024,"lng":-77.93899,"zip":"25430","miles_from_dt":29.04},{"city":"Columbia","state_name":"Maryland","lat":39.21047,"lng":-76.88353,"zip":"21044","miles_from_dt":29.05},{"city":"Manassas","state_name":"Virginia","lat":38.79472,"lng":-77.53105,"zip":"20109","miles_from_dt":29.1},{"city":"Falls Church","state_name":"Virginia","lat":38.8485,"lng":-77.14212,"zip":"22041","miles_from_dt":29.11},{"city":"Manassas","state_name":"Virginia","lat":38.78674,"lng":-77.45575,"zip":"20113","miles_from_dt":29.13},{"city":"Hagerstown","state_name":"Maryland","lat":39.56591,"lng":-77.71409,"zip":"21746","miles_from_dt":29.13},{"city":"Washington","state_name":"District of Columbia","lat":38.90504,"lng":-77.04704,"zip":"20586","miles_from_dt":29.16},{"city":"Washington","state_name":"District of Columbia","lat":38.90646,"lng":-77.04493,"zip":"20433","miles_from_dt":29.17},{"city":"Washington","state_name":"District of Columbia","lat":38.90187,"lng":-77.04895,"zip":"20437","miles_from_dt":29.25},{"city":"The Plains","state_name":"Virginia","lat":38.87523,"lng":-77.76128,"zip":"20198","miles_from_dt":29.25},{"city":"Washington","state_name":"District of Columbia","lat":38.90074,"lng":-77.05016,"zip":"20372","miles_from_dt":29.26},{"city":"Washington","state_name":"District of Columbia","lat":38.90454,"lng":-77.04504,"zip":"20203","miles_from_dt":29.26},{"city":"Washington","state_name":"District of Columbia","lat":38.90415,"lng":-77.04535,"zip":"20238","miles_from_dt":29.27},{"city":"Washington","state_name":"District of Columbia","lat":38.89667,"lng":-77.05536,"zip":"20566","miles_from_dt":29.27},{"city":"Washington","state_name":"District of Columbia","lat":38.90705,"lng":-77.04155,"zip":"20036","miles_from_dt":29.27},{"city":"Washington","state_name":"District of Columbia","lat":38.89959,"lng":-77.05111,"zip":"20521","miles_from_dt":29.28},{"city":"Washington","state_name":"District of Columbia","lat":38.90207,"lng":-77.04755,"zip":"20427","miles_from_dt":29.29},{"city":"Dhs","state_name":"Maryland","lat":39.20311,"lng":-76.87883,"zip":"20588","miles_from_dt":29.3},{"city":"Washington","state_name":"District of Columbia","lat":38.90321,"lng":-77.04439,"zip":"20063","miles_from_dt":29.35},{"city":"Washington","state_name":"District of Columbia","lat":38.90105,"lng":-77.04674,"zip":"20068","miles_from_dt":29.37},{"city":"Washington","state_name":"District of Columbia","lat":38.90516,"lng":-77.04143,"zip":"20033","miles_from_dt":29.37},{"city":"Washington","state_name":"District of Columbia","lat":38.92247,"lng":-77.02003,"zip":"20059","miles_from_dt":29.37},{"city":"Washington","state_name":"District of Columbia","lat":38.90371,"lng":-77.04214,"zip":"20507","miles_from_dt":29.41},{"city":"Washington","state_name":"District of Columbia","lat":38.90143,"lng":-77.0449,"zip":"20579","miles_from_dt":29.42},{"city":"Washington","state_name":"District of Columbia","lat":38.90067,"lng":-77.04558,"zip":"20526","miles_from_dt":29.43},{"city":"Washington","state_name":"District of Columbia","lat":38.90539,"lng":-77.03945,"zip":"20035","miles_from_dt":29.43},{"city":"Washington","state_name":"District of Columbia","lat":38.89884,"lng":-77.04779,"zip":"20052","miles_from_dt":29.44},{"city":"Fort Myer","state_name":"Virginia","lat":38.88011,"lng":-77.07482,"zip":"22211","miles_from_dt":29.44},{"city":"Washington","state_name":"District of Columbia","lat":38.90622,"lng":-77.03809,"zip":"20544","miles_from_dt":29.44},{"city":"Marriottsville","state_name":"Maryland","lat":39.35044,"lng":-76.90654,"zip":"21104","miles_from_dt":29.46},{"city":"Washington","state_name":"District of Columbia","lat":38.89473,"lng":-77.05271,"zip":"20241","miles_from_dt":29.47},{"city":"Springfield","state_name":"Virginia","lat":38.81129,"lng":-77.22119,"zip":"22160","miles_from_dt":29.5},{"city":"Washington","state_name":"District of Columbia","lat":38.91864,"lng":-77.02038,"zip":"20060","miles_from_dt":29.53},{"city":"Washington","state_name":"District of Columbia","lat":38.92714,"lng":-77.0103,"zip":"20422","miles_from_dt":29.54},{"city":"Clifton","state_name":"Virginia","lat":38.78059,"lng":-77.39085,"zip":"20124","miles_from_dt":29.56},{"city":"Washington","state_name":"District of Columbia","lat":38.89213,"lng":-77.0535,"zip":"20037","miles_from_dt":29.57},{"city":"Washington","state_name":"District of Columbia","lat":38.89895,"lng":-77.04419,"zip":"20431","miles_from_dt":29.57},{"city":"Washington","state_name":"District of Columbia","lat":38.89845,"lng":-77.04444,"zip":"20456","miles_from_dt":29.58},{"city":"Washington","state_name":"District of Columbia","lat":38.89671,"lng":-77.04701,"zip":"20523","miles_from_dt":29.58},{"city":"Fairplay","state_name":"Maryland","lat":39.55004,"lng":-77.75838,"zip":"21733","miles_from_dt":29.58},{"city":"Washington","state_name":"District of Columbia","lat":38.93637,"lng":-76.99924,"zip":"20064","miles_from_dt":29.59},{"city":"Washington","state_name":"District of Columbia","lat":38.89376,"lng":-77.05064,"zip":"20522","miles_from_dt":29.59},{"city":"Washington","state_name":"District of Columbia","lat":38.9,"lng":-77.04219,"zip":"20509","miles_from_dt":29.59},{"city":"Parcel Return Service","state_name":"District of Columbia","lat":38.9,"lng":-77.04219,"zip":"56901","miles_from_dt":29.59},{"city":"Washington","state_name":"District of Columbia","lat":38.9,"lng":-77.04219,"zip":"20355","miles_from_dt":29.59},{"city":"Washington","state_name":"District of Columbia","lat":38.8947,"lng":-77.04848,"zip":"20520","miles_from_dt":29.62},{"city":"Washington","state_name":"District of Columbia","lat":38.90436,"lng":-77.03541,"zip":"20577","miles_from_dt":29.63},{"city":"Washington","state_name":"District of Columbia","lat":38.89846,"lng":-77.04329,"zip":"20067","miles_from_dt":29.63},{"city":"Washington","state_name":"District of Columbia","lat":38.90324,"lng":-77.03606,"zip":"20071","miles_from_dt":29.66},{"city":"Washington","state_name":"District of Columbia","lat":38.89944,"lng":-77.04118,"zip":"20575","miles_from_dt":29.66},{"city":"Gainesville","state_name":"Virginia","lat":38.80646,"lng":-77.62145,"zip":"20155","miles_from_dt":29.67},{"city":"Haymarket","state_name":"Virginia","lat":38.81099,"lng":-77.63563,"zip":"20168","miles_from_dt":29.67},{"city":"Washington","state_name":"District of Columbia","lat":38.89773,"lng":-77.04287,"zip":"20504","miles_from_dt":29.68},{"city":"Washington","state_name":"District of Columbia","lat":38.90631,"lng":-77.03125,"zip":"20421","miles_from_dt":29.7},{"city":"Washington","state_name":"District of Columbia","lat":38.89443,"lng":-77.04668,"zip":"20451","miles_from_dt":29.7},{"city":"Arlington","state_name":"Virginia","lat":38.86076,"lng":-77.09894,"zip":"22204","miles_from_dt":29.7},{"city":"Washington","state_name":"District of Columbia","lat":38.89929,"lng":-77.04034,"zip":"20508","miles_from_dt":29.7},{"city":"Washington","state_name":"District of Columbia","lat":38.89847,"lng":-77.04119,"zip":"20006","miles_from_dt":29.71},{"city":"Washington","state_name":"District of Columbia","lat":38.89967,"lng":-77.03934,"zip":"20506","miles_from_dt":29.71},{"city":"Washington","state_name":"District of Columbia","lat":38.90212,"lng":-77.03616,"zip":"20503","miles_from_dt":29.71},{"city":"Washington","state_name":"District of Columbia","lat":38.89798,"lng":-77.04153,"zip":"20570","miles_from_dt":29.72},{"city":"Washington","state_name":"District of Columbia","lat":38.90191,"lng":-77.03628,"zip":"20062","miles_from_dt":29.72},{"city":"Washington","state_name":"District of Columbia","lat":38.90536,"lng":-77.03177,"zip":"20043","miles_from_dt":29.72},{"city":"Washington","state_name":"District of Columbia","lat":38.89499,"lng":-77.04491,"zip":"20013","miles_from_dt":29.74},{"city":"Washington","state_name":"District of Columbia","lat":38.8928,"lng":-77.04776,"zip":"20418","miles_from_dt":29.75},{"city":"Washington","state_name":"District of Columbia","lat":38.90501,"lng":-77.03143,"zip":"20038","miles_from_dt":29.75},{"city":"Washington","state_name":"District of Columbia","lat":38.90457,"lng":-77.03191,"zip":"20533","miles_from_dt":29.76},{"city":"Washington","state_name":"District of Columbia","lat":38.90584,"lng":-77.03019,"zip":"20572","miles_from_dt":29.76},{"city":"Washington","state_name":"District of Columbia","lat":38.93813,"lng":-76.99294,"zip":"20017","miles_from_dt":29.77},{"city":"Washington","state_name":"District of Columbia","lat":38.89494,"lng":-77.0442,"zip":"20415","miles_from_dt":29.77},{"city":"Washington","state_name":"District of Columbia","lat":38.90443,"lng":-77.0316,"zip":"20005","miles_from_dt":29.77},{"city":"Burke","state_name":"Virginia","lat":38.79333,"lng":-77.27194,"zip":"22009","miles_from_dt":29.78},{"city":"Washington","state_name":"District of Columbia","lat":38.89639,"lng":-77.04156,"zip":"20505","miles_from_dt":29.79},{"city":"College Park","state_name":"Maryland","lat":38.99422,"lng":-76.94347,"zip":"20742","miles_from_dt":29.79},{"city":"Hyattsville","state_name":"Maryland","lat":38.9649,"lng":-76.9667,"zip":"20788","miles_from_dt":29.8},{"city":"Washington","state_name":"District of Columbia","lat":38.89645,"lng":-77.04107,"zip":"20555","miles_from_dt":29.81},{"city":"Washington","state_name":"District of Columbia","lat":38.90477,"lng":-77.03023,"zip":"20439","miles_from_dt":29.81},{"city":"Washington","state_name":"District of Columbia","lat":38.89358,"lng":-77.04503,"zip":"20245","miles_from_dt":29.81},{"city":"Washington","state_name":"District of Columbia","lat":38.8928,"lng":-77.0458,"zip":"20551","miles_from_dt":29.82},{"city":"Washington","state_name":"District of Columbia","lat":38.89521,"lng":-77.04199,"zip":"20469","miles_from_dt":29.84},{"city":"Washington","state_name":"District of Columbia","lat":38.89446,"lng":-77.04261,"zip":"20240","miles_from_dt":29.85},{"city":"Washington","state_name":"District of Columbia","lat":38.90247,"lng":-77.03179,"zip":"20524","miles_from_dt":29.86},{"city":"Washington","state_name":"District of Columbia","lat":38.90231,"lng":-77.03176,"zip":"20419","miles_from_dt":29.87},{"city":"Hyattsville","state_name":"Maryland","lat":38.96469,"lng":-76.9649,"zip":"20782","miles_from_dt":29.89},{"city":"Washington","state_name":"District of Columbia","lat":38.90045,"lng":-77.03281,"zip":"20571","miles_from_dt":29.92},{"city":"Washington","state_name":"District of Columbia","lat":38.89121,"lng":-77.04491,"zip":"20581","miles_from_dt":29.93},{"city":"Parcel Return Service","state_name":"District of Columbia","lat":38.8951,"lng":-77.03875,"zip":"56904","miles_from_dt":29.96},{"city":"Parcel Return Service","state_name":"District of Columbia","lat":38.8951,"lng":-77.03875,"zip":"56999","miles_from_dt":29.96},{"city":"Parcel Return Service","state_name":"District of Columbia","lat":38.8951,"lng":-77.03875,"zip":"56945","miles_from_dt":29.96},{"city":"Parcel Return Service","state_name":"District of Columbia","lat":38.8951,"lng":-77.03875,"zip":"56950","miles_from_dt":29.96},{"city":"Parcel Return Service","state_name":"District of Columbia","lat":38.8951,"lng":-77.03875,"zip":"56965","miles_from_dt":29.96},{"city":"Parcel Return Service","state_name":"District of Columbia","lat":38.8951,"lng":-77.03875,"zip":"56967","miles_from_dt":29.96},{"city":"Parcel Return Service","state_name":"District of Columbia","lat":38.8951,"lng":-77.03875,"zip":"56972","miles_from_dt":29.96},{"city":"Parcel Return Service","state_name":"District of Columbia","lat":38.8951,"lng":-77.03875,"zip":"56998","miles_from_dt":29.96},{"city":"Washington","state_name":"District of Columbia","lat":38.90486,"lng":-77.02619,"zip":"20091","miles_from_dt":29.96},{"city":"Parcel Return Service","state_name":"District of Columbia","lat":38.8951,"lng":-77.03875,"zip":"56902","miles_from_dt":29.96},{"city":"Parcel Return Service","state_name":"District of Columbia","lat":38.8951,"lng":-77.03875,"zip":"56908","miles_from_dt":29.96},{"city":"Parcel Return Service","state_name":"District of Columbia","lat":38.8951,"lng":-77.03875,"zip":"56915","miles_from_dt":29.96},{"city":"Parcel Return Service","state_name":"District of Columbia","lat":38.8951,"lng":-77.03875,"zip":"56920","miles_from_dt":29.96},{"city":"Parcel Return Service","state_name":"District of Columbia","lat":38.8951,"lng":-77.03875,"zip":"56933","miles_from_dt":29.96},{"city":"Parcel Return Service","state_name":"District of Columbia","lat":38.8951,"lng":-77.03875,"zip":"56935","miles_from_dt":29.96},{"city":"Parcel Return Service","state_name":"District of Columbia","lat":38.8951,"lng":-77.03875,"zip":"56944","miles_from_dt":29.96},{"city":"Washington","state_name":"District of Columbia","lat":38.92,"lng":-77.00751,"zip":"20206","miles_from_dt":29.98},{"city":"College Park","state_name":"Maryland","lat":38.9981,"lng":-76.93648,"zip":"20741","miles_from_dt":29.98},{"city":"Washington","state_name":"District of Columbia","lat":38.90255,"lng":-77.02869,"zip":"20420","miles_from_dt":29.98},{"city":"Washington","state_name":"District of Columbia","lat":38.92,"lng":-77.00751,"zip":"20058","miles_from_dt":29.98},{"city":"Washington","state_name":"District of Columbia","lat":38.92,"lng":-77.00751,"zip":"20070","miles_from_dt":29.98},{"city":"Washington","state_name":"District of Columbia","lat":38.92,"lng":-77.00751,"zip":"20069","miles_from_dt":29.98}],"targetCityZipCode":"20842","targetCityState":"Maryland"},"__N_SSG":true}