{"pageProps":{"stateName":"Maryland","cityName":"grasonville","nearbyCities":[{"city":"Queenstown","state_name":"Maryland","lat":38.94071,"lng":-76.13819,"zip":"21658","miles_from_dt":3.48},{"city":"Chester","state_name":"Maryland","lat":38.95285,"lng":-76.27939,"zip":"21619","miles_from_dt":4.17},{"city":"Wye Mills","state_name":"Maryland","lat":38.91722,"lng":-76.08875,"zip":"21679","miles_from_dt":6.43},{"city":"Stevensville","state_name":"Maryland","lat":38.93956,"lng":-76.33272,"zip":"21666","miles_from_dt":7.02},{"city":"Claiborne","state_name":"Maryland","lat":38.83407,"lng":-76.27212,"zip":"21624","miles_from_dt":8.53},{"city":"Mcdaniel","state_name":"Maryland","lat":38.80114,"lng":-76.2831,"zip":"21647","miles_from_dt":10.84},{"city":"Saint Michaels","state_name":"Maryland","lat":38.78333,"lng":-76.23303,"zip":"21663","miles_from_dt":11.28},{"city":"Centreville","state_name":"Maryland","lat":39.04985,"lng":-76.03819,"zip":"21617","miles_from_dt":11.43},{"city":"Queen Anne","state_name":"Maryland","lat":38.9534,"lng":-75.99042,"zip":"21657","miles_from_dt":11.45},{"city":"Wittman","state_name":"Maryland","lat":38.78628,"lng":-76.30548,"zip":"21676","miles_from_dt":12.28},{"city":"Easton","state_name":"Maryland","lat":38.79275,"lng":-76.08242,"zip":"21601","miles_from_dt":12.35},{"city":"Cordova","state_name":"Maryland","lat":38.86925,"lng":-75.99216,"zip":"21625","miles_from_dt":12.49},{"city":"Rock Hall","state_name":"Maryland","lat":39.12905,"lng":-76.21967,"zip":"21661","miles_from_dt":12.72},{"city":"Newcomb","state_name":"Maryland","lat":38.74704,"lng":-76.17744,"zip":"21653","miles_from_dt":13.73},{"city":"Bozman","state_name":"Maryland","lat":38.74928,"lng":-76.27695,"zip":"21612","miles_from_dt":14.09},{"city":"Annapolis","state_name":"Maryland","lat":39.01968,"lng":-76.44738,"zip":"21409","miles_from_dt":14.15},{"city":"Hillsboro","state_name":"Maryland","lat":38.91696,"lng":-75.94161,"zip":"21641","miles_from_dt":14.2},{"city":"Annapolis","state_name":"Maryland","lat":38.98816,"lng":-76.47202,"zip":"21402","miles_from_dt":14.81},{"city":"Sherwood","state_name":"Maryland","lat":38.75158,"lng":-76.34469,"zip":"21665","miles_from_dt":15.39},{"city":"Gibson Island","state_name":"Maryland","lat":39.07805,"lng":-76.4338,"zip":"21056","miles_from_dt":15.45},{"city":"Annapolis","state_name":"Maryland","lat":38.94433,"lng":-76.49296,"zip":"21403","miles_from_dt":15.64},{"city":"Royal Oak","state_name":"Maryland","lat":38.7136,"lng":-76.20209,"zip":"21662","miles_from_dt":15.97},{"city":"Neavitt","state_name":"Maryland","lat":38.72028,"lng":-76.28108,"zip":"21652","miles_from_dt":16.08},{"city":"Annapolis","state_name":"Maryland","lat":38.97778,"lng":-76.49829,"zip":"21404","miles_from_dt":16.08},{"city":"Annapolis","state_name":"Maryland","lat":38.97161,"lng":-76.49986,"zip":"21411","miles_from_dt":16.11},{"city":"Price","state_name":"Maryland","lat":39.0975,"lng":-75.95917,"zip":"21656","miles_from_dt":16.8},{"city":"Ridgely","state_name":"Maryland","lat":38.95534,"lng":-75.88839,"zip":"21660","miles_from_dt":16.94},{"city":"Mayo","state_name":"Maryland","lat":38.8799,"lng":-76.50746,"zip":"21106","miles_from_dt":17.03},{"city":"Arnold","state_name":"Maryland","lat":39.04529,"lng":-76.49716,"zip":"21012","miles_from_dt":17.29},{"city":"Church Hill","state_name":"Maryland","lat":39.11915,"lng":-75.96268,"zip":"21623","miles_from_dt":17.63},{"city":"Oxford","state_name":"Maryland","lat":38.6908,"lng":-76.12518,"zip":"21654","miles_from_dt":18.03},{"city":"Shady Side","state_name":"Maryland","lat":38.83374,"lng":-76.51146,"zip":"20764","miles_from_dt":18.34},{"city":"Edgewater","state_name":"Maryland","lat":38.91476,"lng":-76.54361,"zip":"21037","miles_from_dt":18.49},{"city":"Tilghman","state_name":"Maryland","lat":38.69658,"lng":-76.33562,"zip":"21671","miles_from_dt":18.59},{"city":"Annapolis","state_name":"Maryland","lat":38.98967,"lng":-76.5505,"zip":"21401","miles_from_dt":18.98},{"city":"Chestertown","state_name":"Maryland","lat":39.20667,"lng":-76.08739,"zip":"21620","miles_from_dt":19.08},{"city":"Bethlehem","state_name":"Maryland","lat":38.74032,"lng":-75.95202,"zip":"21609","miles_from_dt":19.55},{"city":"Annapolis","state_name":"Maryland","lat":39.02996,"lng":-76.54971,"zip":"21405","miles_from_dt":19.58},{"city":"Galesville","state_name":"Maryland","lat":38.84533,"lng":-76.54654,"zip":"20765","miles_from_dt":19.78},{"city":"Pasadena","state_name":"Maryland","lat":39.11631,"lng":-76.49941,"zip":"21122","miles_from_dt":19.86},{"city":"Churchton","state_name":"Maryland","lat":38.80628,"lng":-76.53139,"zip":"20733","miles_from_dt":20.15},{"city":"Chestertown","state_name":"Maryland","lat":39.21889,"lng":-76.07101,"zip":"21690","miles_from_dt":20.17},{"city":"Preston","state_name":"Maryland","lat":38.74601,"lng":-75.92103,"zip":"21655","miles_from_dt":20.48},{"city":"Riva","state_name":"Maryland","lat":38.95062,"lng":-76.58569,"zip":"21140","miles_from_dt":20.64},{"city":"West River","state_name":"Maryland","lat":38.83733,"lng":-76.56647,"zip":"20778","miles_from_dt":20.98},{"city":"Denton","state_name":"Maryland","lat":38.86111,"lng":-75.82753,"zip":"21629","miles_from_dt":21.03},{"city":"Severna Park","state_name":"Maryland","lat":39.07737,"lng":-76.55613,"zip":"21146","miles_from_dt":21.1},{"city":"Ingleside","state_name":"Maryland","lat":39.11728,"lng":-75.87441,"zip":"21644","miles_from_dt":21.28},{"city":"Annapolis","state_name":"Maryland","lat":39.12209,"lng":-76.52933,"zip":"21412","miles_from_dt":21.4},{"city":"Deale","state_name":"Maryland","lat":38.79552,"lng":-76.56221,"zip":"20751","miles_from_dt":21.97},{"city":"Fort Howard","state_name":"Maryland","lat":39.20238,"lng":-76.44379,"zip":"21052","miles_from_dt":21.98},{"city":"Trappe","state_name":"Maryland","lat":38.65235,"lng":-76.04163,"zip":"21673","miles_from_dt":21.99},{"city":"Henderson","state_name":"Maryland","lat":39.07036,"lng":-75.82533,"zip":"21640","miles_from_dt":22.07},{"city":"Pasadena","state_name":"Maryland","lat":39.11197,"lng":-76.55356,"zip":"21123","miles_from_dt":22.11},{"city":"Greensboro","state_name":"Maryland","lat":38.96533,"lng":-75.7928,"zip":"21639","miles_from_dt":22.12},{"city":"Harwood","state_name":"Maryland","lat":38.86913,"lng":-76.6067,"zip":"20776","miles_from_dt":22.4},{"city":"Crownsville","state_name":"Maryland","lat":39.03376,"lng":-76.60401,"zip":"21032","miles_from_dt":22.46},{"city":"Goldsboro","state_name":"Maryland","lat":39.0261,"lng":-75.79839,"zip":"21636","miles_from_dt":22.47},{"city":"Barclay","state_name":"Maryland","lat":39.13398,"lng":-75.85644,"zip":"21607","miles_from_dt":22.73},{"city":"Davidsonville","state_name":"Maryland","lat":38.93637,"lng":-76.63875,"zip":"21035","miles_from_dt":23.5},{"city":"Sparrows Point","state_name":"Maryland","lat":39.23097,"lng":-76.44383,"zip":"21219","miles_from_dt":23.6},{"city":"Tracys Landing","state_name":"Maryland","lat":38.76388,"lng":-76.57665,"zip":"20779","miles_from_dt":23.73},{"city":"North Beach","state_name":"Maryland","lat":38.71813,"lng":-76.53987,"zip":"20714","miles_from_dt":24.01},{"city":"Millersville","state_name":"Maryland","lat":39.08932,"lng":-76.62139,"zip":"21108","miles_from_dt":24.63},{"city":"Crumpton","state_name":"Maryland","lat":39.23577,"lng":-75.92238,"zip":"21628","miles_from_dt":25.08},{"city":"Sudlersville","state_name":"Maryland","lat":39.18967,"lng":-75.85139,"zip":"21668","miles_from_dt":25.32},{"city":"Friendship","state_name":"Maryland","lat":38.73399,"lng":-76.58961,"zip":"20758","miles_from_dt":25.46},{"city":"Worton","state_name":"Maryland","lat":39.30889,"lng":-76.10336,"zip":"21678","miles_from_dt":25.65},{"city":"Glen Burnie","state_name":"Maryland","lat":39.16893,"lng":-76.58346,"zip":"21060","miles_from_dt":25.65},{"city":"Gambrills","state_name":"Maryland","lat":39.02624,"lng":-76.67083,"zip":"21054","miles_from_dt":25.82},{"city":"Lothian","state_name":"Maryland","lat":38.80485,"lng":-76.65245,"zip":"20711","miles_from_dt":26.11},{"city":"Crofton","state_name":"Maryland","lat":39.00967,"lng":-76.6839,"zip":"21114","miles_from_dt":26.29},{"city":"Glen Burnie","state_name":"Maryland","lat":39.1637,"lng":-76.60358,"zip":"21062","miles_from_dt":26.31},{"city":"Curtis Bay","state_name":"Maryland","lat":39.2078,"lng":-76.5627,"zip":"21226","miles_from_dt":26.52},{"city":"Marydel","state_name":"Maryland","lat":39.1366,"lng":-75.77453,"zip":"21649","miles_from_dt":26.55},{"city":"Templeville","state_name":"Maryland","lat":39.13545,"lng":-75.76789,"zip":"21670","miles_from_dt":26.82},{"city":"Secretary","state_name":"Maryland","lat":38.6081,"lng":-75.94732,"zip":"21664","miles_from_dt":27.03},{"city":"Dundalk","state_name":"Maryland","lat":39.26424,"lng":-76.49537,"zip":"21222","miles_from_dt":27.06},{"city":"Chesapeake Beach","state_name":"Maryland","lat":38.65573,"lng":-76.54292,"zip":"20732","miles_from_dt":27.13},{"city":"Essex","state_name":"Maryland","lat":39.29462,"lng":-76.44034,"zip":"21221","miles_from_dt":27.28},{"city":"Hurlock","state_name":"Maryland","lat":38.6442,"lng":-75.87124,"zip":"21643","miles_from_dt":27.4},{"city":"Glen Burnie","state_name":"Maryland","lat":39.16116,"lng":-76.63226,"zip":"21061","miles_from_dt":27.5},{"city":"Bowie","state_name":"Maryland","lat":38.92734,"lng":-76.71494,"zip":"20716","miles_from_dt":27.63},{"city":"Federalsburg","state_name":"Maryland","lat":38.72287,"lng":-75.77478,"zip":"21632","miles_from_dt":27.71},{"city":"Marydel","state_name":"Delaware","lat":39.09436,"lng":-75.72439,"zip":"19964","miles_from_dt":27.72},{"city":"Sunderland","state_name":"Maryland","lat":38.66963,"lng":-76.58591,"zip":"20689","miles_from_dt":28.09},{"city":"East New Market","state_name":"Maryland","lat":38.58784,"lng":-75.94598,"zip":"21631","miles_from_dt":28.28},{"city":"Severn","state_name":"Maryland","lat":39.12058,"lng":-76.67767,"zip":"21144","miles_from_dt":28.28},{"city":"Dunkirk","state_name":"Maryland","lat":38.736,"lng":-76.65493,"zip":"20754","miles_from_dt":28.35},{"city":"Millington","state_name":"Maryland","lat":39.25821,"lng":-75.85802,"zip":"21651","miles_from_dt":28.45},{"city":"Odenton","state_name":"Maryland","lat":39.05448,"lng":-76.71519,"zip":"21113","miles_from_dt":28.6},{"city":"Still Pond","state_name":"Maryland","lat":39.34377,"lng":-76.05188,"zip":"21667","miles_from_dt":28.67},{"city":"Bowie","state_name":"Maryland","lat":38.95985,"lng":-76.73713,"zip":"20719","miles_from_dt":28.81},{"city":"Kennedyville","state_name":"Maryland","lat":39.31979,"lng":-75.96216,"zip":"21645","miles_from_dt":28.89},{"city":"Owings","state_name":"Maryland","lat":38.6913,"lng":-76.62855,"zip":"20736","miles_from_dt":28.89},{"city":"Bowie","state_name":"Maryland","lat":38.98643,"lng":-76.73967,"zip":"20715","miles_from_dt":29.06},{"city":"Brooklyn","state_name":"Maryland","lat":39.22597,"lng":-76.61508,"zip":"21225","miles_from_dt":29.45},{"city":"Middle River","state_name":"Maryland","lat":39.345,"lng":-76.3966,"zip":"21220","miles_from_dt":29.49},{"city":"Baltimore","state_name":"Maryland","lat":39.28309,"lng":-76.54088,"zip":"21224","miles_from_dt":29.56},{"city":"Chase","state_name":"Maryland","lat":39.35393,"lng":-76.37251,"zip":"21027","miles_from_dt":29.64},{"city":"Baltimore","state_name":"Maryland","lat":39.17483,"lng":-76.67181,"zip":"21240","miles_from_dt":29.8},{"city":"Bowie","state_name":"Maryland","lat":38.98588,"lng":-76.75415,"zip":"20718","miles_from_dt":29.83},{"city":"Betterton","state_name":"Maryland","lat":39.3652,"lng":-76.06845,"zip":"21610","miles_from_dt":29.86}],"targetCityZipCode":"21638","targetCityState":"Maryland"},"__N_SSG":true}