{"pageProps":{"stateName":"Maryland","cityName":"hollywood","nearbyCities":[{"city":"Broomes Island","state_name":"Maryland","lat":38.4204,"lng":-76.54772,"zip":"20615","miles_from_dt":4.65},{"city":"Compton","state_name":"Maryland","lat":38.30501,"lng":-76.63201,"zip":"20627","miles_from_dt":4.78},{"city":"California","state_name":"Maryland","lat":38.2919,"lng":-76.52714,"zip":"20619","miles_from_dt":5.04},{"city":"Solomons","state_name":"Maryland","lat":38.33475,"lng":-76.46965,"zip":"20688","miles_from_dt":5.75},{"city":"Loveville","state_name":"Maryland","lat":38.33914,"lng":-76.6787,"zip":"20656","miles_from_dt":5.9},{"city":"Saint Leonard","state_name":"Maryland","lat":38.43465,"lng":-76.52904,"zip":"20685","miles_from_dt":5.92},{"city":"Dowell","state_name":"Maryland","lat":38.33996,"lng":-76.45388,"zip":"20629","miles_from_dt":6.52},{"city":"Leonardtown","state_name":"Maryland","lat":38.27186,"lng":-76.63276,"zip":"20650","miles_from_dt":6.66},{"city":"Lusby","state_name":"Maryland","lat":38.38358,"lng":-76.44537,"zip":"20657","miles_from_dt":7.14},{"city":"Morganza","state_name":"Maryland","lat":38.36928,"lng":-76.70741,"zip":"20660","miles_from_dt":7.41},{"city":"Great Mills","state_name":"Maryland","lat":38.24582,"lng":-76.49412,"zip":"20634","miles_from_dt":8.69},{"city":"Callaway","state_name":"Maryland","lat":38.23288,"lng":-76.52196,"zip":"20620","miles_from_dt":8.91},{"city":"Clements","state_name":"Maryland","lat":38.33523,"lng":-76.73451,"zip":"20624","miles_from_dt":8.93},{"city":"Port Republic","state_name":"Maryland","lat":38.4869,"lng":-76.54788,"zip":"20676","miles_from_dt":9.14},{"city":"Patuxent River","state_name":"Maryland","lat":38.2824,"lng":-76.42031,"zip":"20670","miles_from_dt":9.68},{"city":"Mechanicsville","state_name":"Maryland","lat":38.41886,"lng":-76.73238,"zip":"20659","miles_from_dt":9.73},{"city":"Avenue","state_name":"Maryland","lat":38.27191,"lng":-76.74625,"zip":"20609","miles_from_dt":11.09},{"city":"Abell","state_name":"Maryland","lat":38.25412,"lng":-76.73878,"zip":"20606","miles_from_dt":11.46},{"city":"Prince Frederick","state_name":"Maryland","lat":38.52164,"lng":-76.60072,"zip":"20678","miles_from_dt":11.54},{"city":"Lexington Park","state_name":"Maryland","lat":38.22795,"lng":-76.43139,"zip":"20653","miles_from_dt":11.68},{"city":"Park Hall","state_name":"Maryland","lat":38.21782,"lng":-76.44537,"zip":"20667","miles_from_dt":11.75},{"city":"Benedict","state_name":"Maryland","lat":38.50708,"lng":-76.67789,"zip":"20612","miles_from_dt":11.91},{"city":"Chaptico","state_name":"Maryland","lat":38.33062,"lng":-76.79438,"zip":"20621","miles_from_dt":12.2},{"city":"Valley Lee","state_name":"Maryland","lat":38.18352,"lng":-76.50682,"zip":"20692","miles_from_dt":12.4},{"city":"Barstow","state_name":"Maryland","lat":38.53316,"lng":-76.6168,"zip":"20610","miles_from_dt":12.47},{"city":"Bushwood","state_name":"Maryland","lat":38.28152,"lng":-76.78891,"zip":"20618","miles_from_dt":12.85},{"city":"Coltons Point","state_name":"Maryland","lat":38.23256,"lng":-76.76404,"zip":"20626","miles_from_dt":13.46},{"city":"Tall Timbers","state_name":"Maryland","lat":38.15916,"lng":-76.52631,"zip":"20690","miles_from_dt":13.79},{"city":"Saint Marys City","state_name":"Maryland","lat":38.18557,"lng":-76.43898,"zip":"20686","miles_from_dt":13.79},{"city":"Drayden","state_name":"Maryland","lat":38.16653,"lng":-76.47087,"zip":"20630","miles_from_dt":14.17},{"city":"Coles Point","state_name":"Virginia","lat":38.14623,"lng":-76.63382,"zip":"22442","miles_from_dt":14.84},{"city":"Piney Point","state_name":"Maryland","lat":38.13307,"lng":-76.50019,"zip":"20674","miles_from_dt":15.85},{"city":"Mount Holly","state_name":"Virginia","lat":38.13575,"lng":-76.66166,"zip":"22524","miles_from_dt":15.94},{"city":"Mount Victoria","state_name":"Maryland","lat":38.26474,"lng":-76.84473,"zip":"20661","miles_from_dt":16.09},{"city":"Hughesville","state_name":"Maryland","lat":38.52577,"lng":-76.77897,"zip":"20637","miles_from_dt":16.23},{"city":"Charlotte Hall","state_name":"Maryland","lat":38.45281,"lng":-76.84504,"zip":"20622","miles_from_dt":16.25},{"city":"Cobb Island","state_name":"Maryland","lat":38.26212,"lng":-76.84877,"zip":"20625","miles_from_dt":16.37},{"city":"Saint Inigoes","state_name":"Maryland","lat":38.14308,"lng":-76.41027,"zip":"20684","miles_from_dt":17.11},{"city":"Taylors Island","state_name":"Maryland","lat":38.45897,"lng":-76.28509,"zip":"21669","miles_from_dt":17.13},{"city":"Aquasco","state_name":"Maryland","lat":38.58638,"lng":-76.70702,"zip":"20608","miles_from_dt":17.5},{"city":"Huntingtown","state_name":"Maryland","lat":38.60823,"lng":-76.6086,"zip":"20639","miles_from_dt":17.52},{"city":"Newburg","state_name":"Maryland","lat":38.35062,"lng":-76.91631,"zip":"20664","miles_from_dt":18.7},{"city":"Dameron","state_name":"Maryland","lat":38.1459,"lng":-76.35027,"zip":"20628","miles_from_dt":18.85},{"city":"Rock Point","state_name":"Maryland","lat":38.34621,"lng":-76.92068,"zip":"20682","miles_from_dt":18.94},{"city":"Issue","state_name":"Maryland","lat":38.29838,"lng":-76.91413,"zip":"20645","miles_from_dt":19},{"city":"Zacata","state_name":"Virginia","lat":38.1197,"lng":-76.785,"zip":"22581","miles_from_dt":19.98},{"city":"Bryantown","state_name":"Maryland","lat":38.54351,"lng":-76.854,"zip":"20617","miles_from_dt":20.03},{"city":"Sandy Point","state_name":"Virginia","lat":38.0653,"lng":-76.55916,"zip":"22577","miles_from_dt":20.05},{"city":"Ridge","state_name":"Maryland","lat":38.11071,"lng":-76.37353,"zip":"20680","miles_from_dt":20.06},{"city":"Hague","state_name":"Virginia","lat":38.0667,"lng":-76.64749,"zip":"22469","miles_from_dt":20.36},{"city":"Stratford","state_name":"Virginia","lat":38.14647,"lng":-76.84229,"zip":"22558","miles_from_dt":20.6},{"city":"Chesapeake Beach","state_name":"Maryland","lat":38.65573,"lng":-76.54292,"zip":"20732","miles_from_dt":20.75},{"city":"Madison","state_name":"Maryland","lat":38.4966,"lng":-76.23386,"zip":"21648","miles_from_dt":20.76},{"city":"Montross","state_name":"Virginia","lat":38.11651,"lng":-76.80634,"zip":"22520","miles_from_dt":20.85},{"city":"Kinsale","state_name":"Virginia","lat":38.04986,"lng":-76.58796,"zip":"22488","miles_from_dt":21.12},{"city":"Faulkner","state_name":"Maryland","lat":38.42591,"lng":-76.95682,"zip":"20632","miles_from_dt":21.44},{"city":"Sunderland","state_name":"Maryland","lat":38.66963,"lng":-76.58591,"zip":"20689","miles_from_dt":21.66},{"city":"Fishing Creek","state_name":"Maryland","lat":38.27995,"lng":-76.185,"zip":"21634","miles_from_dt":21.68},{"city":"Church Creek","state_name":"Maryland","lat":38.40821,"lng":-76.17381,"zip":"21622","miles_from_dt":21.92},{"city":"Woolford","state_name":"Maryland","lat":38.48454,"lng":-76.18544,"zip":"21677","miles_from_dt":22.78},{"city":"Scotland","state_name":"Maryland","lat":38.07578,"lng":-76.34382,"zip":"20687","miles_from_dt":22.97},{"city":"Owings","state_name":"Maryland","lat":38.6913,"lng":-76.62855,"zip":"20736","miles_from_dt":23.34},{"city":"Waldorf","state_name":"Maryland","lat":38.58335,"lng":-76.89466,"zip":"20602","miles_from_dt":23.5},{"city":"Bel Alton","state_name":"Maryland","lat":38.46251,"lng":-76.98538,"zip":"20611","miles_from_dt":23.6},{"city":"Waldorf","state_name":"Maryland","lat":38.61863,"lng":-76.85715,"zip":"20601","miles_from_dt":23.82},{"city":"Oldhams","state_name":"Virginia","lat":38.01036,"lng":-76.67942,"zip":"22529","miles_from_dt":24.53},{"city":"Dahlgren","state_name":"Virginia","lat":38.33996,"lng":-77.03238,"zip":"22448","miles_from_dt":25.02},{"city":"North Beach","state_name":"Maryland","lat":38.71813,"lng":-76.53987,"zip":"20714","miles_from_dt":25.05},{"city":"Waldorf","state_name":"Maryland","lat":38.61797,"lng":-76.89208,"zip":"20604","miles_from_dt":25.06},{"city":"Brandywine","state_name":"Maryland","lat":38.67179,"lng":-76.80576,"zip":"20613","miles_from_dt":25.21},{"city":"La Plata","state_name":"Maryland","lat":38.52114,"lng":-76.99989,"zip":"20646","miles_from_dt":25.86},{"city":"Lottsburg","state_name":"Virginia","lat":37.98352,"lng":-76.50323,"zip":"22511","miles_from_dt":25.95},{"city":"Friendship","state_name":"Maryland","lat":38.73399,"lng":-76.58961,"zip":"20758","miles_from_dt":26.1},{"city":"Colonial Beach","state_name":"Virginia","lat":38.18078,"lng":-76.99776,"zip":"22443","miles_from_dt":26.1},{"city":"Callao","state_name":"Virginia","lat":37.97216,"lng":-76.57288,"zip":"22435","miles_from_dt":26.46},{"city":"Crapo","state_name":"Maryland","lat":38.33902,"lng":-76.08398,"zip":"21626","miles_from_dt":26.54},{"city":"Dunkirk","state_name":"Maryland","lat":38.736,"lng":-76.65493,"zip":"20754","miles_from_dt":26.6},{"city":"Wingate","state_name":"Maryland","lat":38.29011,"lng":-76.0884,"zip":"21675","miles_from_dt":26.67},{"city":"Tilghman","state_name":"Maryland","lat":38.69658,"lng":-76.33562,"zip":"21671","miles_from_dt":26.77},{"city":"Ninde","state_name":"Virginia","lat":38.27014,"lng":-77.05432,"zip":"22526","miles_from_dt":26.86},{"city":"White Plains","state_name":"Maryland","lat":38.58885,"lng":-76.97269,"zip":"20695","miles_from_dt":27.02},{"city":"Port Tobacco","state_name":"Maryland","lat":38.49992,"lng":-77.04016,"zip":"20677","miles_from_dt":27.27},{"city":"Haynesville","state_name":"Virginia","lat":37.95897,"lng":-76.67257,"zip":"22472","miles_from_dt":27.91},{"city":"Tracys Landing","state_name":"Maryland","lat":38.76388,"lng":-76.57665,"zip":"20779","miles_from_dt":28.15},{"city":"Village","state_name":"Virginia","lat":37.9484,"lng":-76.60462,"zip":"22570","miles_from_dt":28.16},{"city":"Toddville","state_name":"Maryland","lat":38.27707,"lng":-76.06148,"zip":"21672","miles_from_dt":28.28},{"city":"Warsaw","state_name":"Virginia","lat":37.97552,"lng":-76.77495,"zip":"22572","miles_from_dt":28.46},{"city":"Pomfret","state_name":"Maryland","lat":38.58349,"lng":-77.01522,"zip":"20675","miles_from_dt":28.7},{"city":"Cambridge","state_name":"Maryland","lat":38.49537,"lng":-76.07169,"zip":"21613","miles_from_dt":28.81},{"city":"Waldorf","state_name":"Maryland","lat":38.62972,"lng":-76.97473,"zip":"20603","miles_from_dt":28.87},{"city":"Welcome","state_name":"Maryland","lat":38.45924,"lng":-77.08931,"zip":"20693","miles_from_dt":28.96},{"city":"Rollins Fork","state_name":"Virginia","lat":38.18562,"lng":-77.06584,"zip":"22544","miles_from_dt":29.3},{"city":"Crocheron","state_name":"Maryland","lat":38.23528,"lng":-76.04967,"zip":"21627","miles_from_dt":29.59},{"city":"Neavitt","state_name":"Maryland","lat":38.72028,"lng":-76.28108,"zip":"21652","miles_from_dt":29.67},{"city":"Sherwood","state_name":"Maryland","lat":38.75158,"lng":-76.34469,"zip":"21665","miles_from_dt":29.95}],"targetCityZipCode":"20636","targetCityState":"Maryland"},"__N_SSG":true}