{"pageProps":{"stateName":"Maryland","cityName":"nanjemoy","nearbyCities":[{"city":"Ironsides","state_name":"Maryland","lat":38.49143,"lng":-77.15828,"zip":"20643","miles_from_dt":4.58},{"city":"Welcome","state_name":"Maryland","lat":38.45924,"lng":-77.08931,"zip":"20693","miles_from_dt":6.24},{"city":"Quantico","state_name":"Virginia","lat":38.52118,"lng":-77.28805,"zip":"22135","miles_from_dt":7.71},{"city":"Indian Head","state_name":"Maryland","lat":38.55408,"lng":-77.1657,"zip":"20640","miles_from_dt":8.51},{"city":"Brooke","state_name":"Virginia","lat":38.37879,"lng":-77.36252,"zip":"22430","miles_from_dt":9.61},{"city":"Marbury","state_name":"Maryland","lat":38.56973,"lng":-77.15958,"zip":"20658","miles_from_dt":9.64},{"city":"Port Tobacco","state_name":"Maryland","lat":38.49992,"lng":-77.04016,"zip":"20677","miles_from_dt":9.79},{"city":"Stafford","state_name":"Virginia","lat":38.42285,"lng":-77.3835,"zip":"22554","miles_from_dt":10},{"city":"Dumfries","state_name":"Virginia","lat":38.56717,"lng":-77.29476,"zip":"22026","miles_from_dt":10.56},{"city":"Dahlgren","state_name":"Virginia","lat":38.33996,"lng":-77.03238,"zip":"22448","miles_from_dt":11.15},{"city":"King George","state_name":"Virginia","lat":38.2717,"lng":-77.15996,"zip":"22485","miles_from_dt":11.37},{"city":"Stafford","state_name":"Virginia","lat":38.42026,"lng":-77.40955,"zip":"22555","miles_from_dt":11.42},{"city":"Bel Alton","state_name":"Maryland","lat":38.46251,"lng":-76.98538,"zip":"20611","miles_from_dt":11.8},{"city":"La Plata","state_name":"Maryland","lat":38.52114,"lng":-76.99989,"zip":"20646","miles_from_dt":12.4},{"city":"Faulkner","state_name":"Maryland","lat":38.42591,"lng":-76.95682,"zip":"20632","miles_from_dt":13.19},{"city":"Quantico","state_name":"Virginia","lat":38.53186,"lng":-77.409,"zip":"22134","miles_from_dt":13.22},{"city":"Dogue","state_name":"Virginia","lat":38.23522,"lng":-77.21402,"zip":"22451","miles_from_dt":13.7},{"city":"Woodbridge","state_name":"Virginia","lat":38.6249,"lng":-77.26849,"zip":"22191","miles_from_dt":13.71},{"city":"Fredericksburg","state_name":"Virginia","lat":38.31568,"lng":-77.40377,"zip":"22405","miles_from_dt":13.74},{"city":"Ninde","state_name":"Virginia","lat":38.27014,"lng":-77.05432,"zip":"22526","miles_from_dt":13.76},{"city":"Dumfries","state_name":"Virginia","lat":38.59874,"lng":-77.3491,"zip":"22025","miles_from_dt":13.97},{"city":"Sealston","state_name":"Virginia","lat":38.25047,"lng":-77.31107,"zip":"22547","miles_from_dt":14},{"city":"Triangle","state_name":"Virginia","lat":38.5742,"lng":-77.3895,"zip":"22172","miles_from_dt":14.14},{"city":"Woodbridge","state_name":"Virginia","lat":38.63496,"lng":-77.25982,"zip":"22194","miles_from_dt":14.27},{"city":"Pomfret","state_name":"Maryland","lat":38.58349,"lng":-77.01522,"zip":"20675","miles_from_dt":14.38},{"city":"Woodbridge","state_name":"Virginia","lat":38.65844,"lng":-77.24958,"zip":"22195","miles_from_dt":15.74},{"city":"Jersey","state_name":"Virginia","lat":38.21048,"lng":-77.13727,"zip":"22481","miles_from_dt":15.76},{"city":"Fredericksburg","state_name":"Virginia","lat":38.35086,"lng":-77.47736,"zip":"22403","miles_from_dt":16.12},{"city":"Rock Point","state_name":"Maryland","lat":38.34621,"lng":-76.92068,"zip":"20682","miles_from_dt":16.3},{"city":"White Plains","state_name":"Maryland","lat":38.58885,"lng":-76.97269,"zip":"20695","miles_from_dt":16.31},{"city":"Bryans Road","state_name":"Maryland","lat":38.65443,"lng":-77.08848,"zip":"20616","miles_from_dt":16.38},{"city":"Garrisonville","state_name":"Virginia","lat":38.47914,"lng":-77.49634,"zip":"22463","miles_from_dt":16.39},{"city":"Newburg","state_name":"Maryland","lat":38.35062,"lng":-76.91631,"zip":"20664","miles_from_dt":16.41},{"city":"Woodbridge","state_name":"Virginia","lat":38.64233,"lng":-77.34881,"zip":"22193","miles_from_dt":16.51},{"city":"Fredericksburg","state_name":"Virginia","lat":38.29772,"lng":-77.45646,"zip":"22404","miles_from_dt":16.8},{"city":"Lorton","state_name":"Virginia","lat":38.67998,"lng":-77.2055,"zip":"22079","miles_from_dt":17},{"city":"Rappahannock Academy","state_name":"Virginia","lat":38.18941,"lng":-77.27334,"zip":"22538","miles_from_dt":17.31},{"city":"Stafford","state_name":"Virginia","lat":38.48624,"lng":-77.513,"zip":"22556","miles_from_dt":17.37},{"city":"Occoquan","state_name":"Virginia","lat":38.68217,"lng":-77.26073,"zip":"22125","miles_from_dt":17.46},{"city":"Ruby","state_name":"Virginia","lat":38.50435,"lng":-77.51768,"zip":"22545","miles_from_dt":17.92},{"city":"Issue","state_name":"Maryland","lat":38.29838,"lng":-76.91413,"zip":"20645","miles_from_dt":18.1},{"city":"Fredericksburg","state_name":"Virginia","lat":38.29928,"lng":-77.48704,"zip":"22401","miles_from_dt":18.15},{"city":"Fredericksburg","state_name":"Virginia","lat":38.29992,"lng":-77.48821,"zip":"22412","miles_from_dt":18.18},{"city":"Waldorf","state_name":"Maryland","lat":38.62972,"lng":-76.97473,"zip":"20603","miles_from_dt":18.21},{"city":"Woodbridge","state_name":"Virginia","lat":38.68358,"lng":-77.31821,"zip":"22192","miles_from_dt":18.4},{"city":"Lorton","state_name":"Virginia","lat":38.70199,"lng":-77.23036,"zip":"22199","miles_from_dt":18.59},{"city":"Rollins Fork","state_name":"Virginia","lat":38.18562,"lng":-77.06584,"zip":"22544","miles_from_dt":18.59},{"city":"Fort Belvoir","state_name":"Virginia","lat":38.70525,"lng":-77.15636,"zip":"22060","miles_from_dt":18.88},{"city":"Accokeek","state_name":"Maryland","lat":38.67161,"lng":-77.02478,"zip":"20607","miles_from_dt":18.96},{"city":"Corbin","state_name":"Virginia","lat":38.19777,"lng":-77.39052,"zip":"22446","miles_from_dt":19.29},{"city":"Charlotte Hall","state_name":"Maryland","lat":38.45281,"lng":-76.84504,"zip":"20622","miles_from_dt":19.29},{"city":"Fredericksburg","state_name":"Virginia","lat":38.39964,"lng":-77.55596,"zip":"22406","miles_from_dt":19.47},{"city":"Waldorf","state_name":"Maryland","lat":38.58335,"lng":-76.89466,"zip":"20602","miles_from_dt":19.5},{"city":"Fredericksburg","state_name":"Virginia","lat":38.21916,"lng":-77.44013,"zip":"22408","miles_from_dt":19.73},{"city":"Mount Vernon","state_name":"Virginia","lat":38.7167,"lng":-77.10823,"zip":"22121","miles_from_dt":20.15},{"city":"Bryantown","state_name":"Maryland","lat":38.54351,"lng":-76.854,"zip":"20617","miles_from_dt":20.22},{"city":"Alexandria","state_name":"Virginia","lat":38.71931,"lng":-77.10724,"zip":"22309","miles_from_dt":20.33},{"city":"Colonial Beach","state_name":"Virginia","lat":38.18078,"lng":-76.99776,"zip":"22443","miles_from_dt":20.6},{"city":"Manassas","state_name":"Virginia","lat":38.67274,"lng":-77.42901,"zip":"20112","miles_from_dt":20.65},{"city":"Hartwood","state_name":"Virginia","lat":38.40242,"lng":-77.58067,"zip":"22471","miles_from_dt":20.78},{"city":"Waldorf","state_name":"Maryland","lat":38.61797,"lng":-76.89208,"zip":"20604","miles_from_dt":20.97},{"city":"Newington","state_name":"Virginia","lat":38.73902,"lng":-77.18032,"zip":"22122","miles_from_dt":21.09},{"city":"Port Royal","state_name":"Virginia","lat":38.12314,"lng":-77.19619,"zip":"22535","miles_from_dt":21.41},{"city":"Springfield","state_name":"Virginia","lat":38.74443,"lng":-77.23451,"zip":"22153","miles_from_dt":21.52},{"city":"Alexandria","state_name":"Virginia","lat":38.72957,"lng":-77.05876,"zip":"22308","miles_from_dt":21.8},{"city":"Cobb Island","state_name":"Maryland","lat":38.26212,"lng":-76.84877,"zip":"20625","miles_from_dt":22.43},{"city":"Alexandria","state_name":"Virginia","lat":38.75735,"lng":-77.14803,"zip":"22315","miles_from_dt":22.51},{"city":"Mount Victoria","state_name":"Maryland","lat":38.26474,"lng":-76.84473,"zip":"20661","miles_from_dt":22.53},{"city":"Waldorf","state_name":"Maryland","lat":38.61863,"lng":-76.85715,"zip":"20601","miles_from_dt":22.53},{"city":"Fairfax Station","state_name":"Virginia","lat":38.74992,"lng":-77.31536,"zip":"22039","miles_from_dt":22.7},{"city":"Alexandria","state_name":"Virginia","lat":38.75655,"lng":-77.09254,"zip":"22306","miles_from_dt":23.02},{"city":"Fredericksburg","state_name":"Virginia","lat":38.28581,"lng":-77.58055,"zip":"22407","miles_from_dt":23.06},{"city":"Chaptico","state_name":"Maryland","lat":38.33062,"lng":-76.79438,"zip":"20621","miles_from_dt":23.12},{"city":"Somerville","state_name":"Virginia","lat":38.52399,"lng":-77.61049,"zip":"22739","miles_from_dt":23.13},{"city":"Fort Washington","state_name":"Maryland","lat":38.73353,"lng":-77.00301,"zip":"20749","miles_from_dt":23.27},{"city":"Springfield","state_name":"Virginia","lat":38.77198,"lng":-77.18605,"zip":"22150","miles_from_dt":23.35},{"city":"Fredericksburg","state_name":"Virginia","lat":38.25611,"lng":-77.56679,"zip":"22402","miles_from_dt":23.4},{"city":"Alexandria","state_name":"Virginia","lat":38.77218,"lng":-77.17049,"zip":"22313","miles_from_dt":23.41},{"city":"Springfield","state_name":"Virginia","lat":38.77564,"lng":-77.23149,"zip":"22152","miles_from_dt":23.66},{"city":"Springfield","state_name":"Virginia","lat":38.7765,"lng":-77.1864,"zip":"22156","miles_from_dt":23.66},{"city":"Hughesville","state_name":"Maryland","lat":38.52577,"lng":-76.77897,"zip":"20637","miles_from_dt":23.68},{"city":"Loretto","state_name":"Virginia","lat":38.10642,"lng":-77.06669,"zip":"22509","miles_from_dt":23.7},{"city":"Springfield","state_name":"Virginia","lat":38.78786,"lng":-77.18722,"zip":"22161","miles_from_dt":24.45},{"city":"Goldvein","state_name":"Virginia","lat":38.48044,"lng":-77.6468,"zip":"22720","miles_from_dt":24.46},{"city":"Alexandria","state_name":"Virginia","lat":38.7708,"lng":-77.05694,"zip":"22307","miles_from_dt":24.51},{"city":"Alexandria","state_name":"Virginia","lat":38.78447,"lng":-77.12231,"zip":"22310","miles_from_dt":24.56},{"city":"Bushwood","state_name":"Maryland","lat":38.28152,"lng":-76.78891,"zip":"20618","miles_from_dt":24.65},{"city":"Burke","state_name":"Virginia","lat":38.78784,"lng":-77.28136,"zip":"22015","miles_from_dt":24.83},{"city":"Fort Washington","state_name":"Maryland","lat":38.75362,"lng":-76.98393,"zip":"20744","miles_from_dt":24.97},{"city":"Nokesville","state_name":"Virginia","lat":38.66687,"lng":-77.55374,"zip":"20181","miles_from_dt":25.03},{"city":"Manassas","state_name":"Virginia","lat":38.74907,"lng":-77.43039,"zip":"20111","miles_from_dt":25.09},{"city":"Burke","state_name":"Virginia","lat":38.79333,"lng":-77.27194,"zip":"22009","miles_from_dt":25.12},{"city":"Mechanicsville","state_name":"Maryland","lat":38.41886,"lng":-76.73238,"zip":"20659","miles_from_dt":25.38},{"city":"Bowling Green","state_name":"Virginia","lat":38.07177,"lng":-77.28624,"zip":"22427","miles_from_dt":25.4},{"city":"Springfield","state_name":"Virginia","lat":38.8017,"lng":-77.18227,"zip":"22159","miles_from_dt":25.41},{"city":"Springfield","state_name":"Virginia","lat":38.80283,"lng":-77.2096,"zip":"22151","miles_from_dt":25.47},{"city":"Alexandria","state_name":"Virginia","lat":38.794,"lng":-77.08175,"zip":"22303","miles_from_dt":25.67},{"city":"Woodford","state_name":"Virginia","lat":38.10941,"lng":-77.44419,"zip":"22580","miles_from_dt":26.01},{"city":"Clifton","state_name":"Virginia","lat":38.78059,"lng":-77.39085,"zip":"20124","miles_from_dt":26.07},{"city":"Springfield","state_name":"Virginia","lat":38.81129,"lng":-77.22119,"zip":"22160","miles_from_dt":26.08},{"city":"Clements","state_name":"Maryland","lat":38.33523,"lng":-76.73451,"zip":"20624","miles_from_dt":26.15},{"city":"Dhs","state_name":"Virginia","lat":38.80111,"lng":-77.07257,"zip":"20598","miles_from_dt":26.27},{"city":"Springfield","state_name":"Virginia","lat":38.81226,"lng":-77.25641,"zip":"22158","miles_from_dt":26.3},{"city":"Manassas","state_name":"Virginia","lat":38.74594,"lng":-77.48577,"zip":"20108","miles_from_dt":26.53},{"city":"Spotsylvania","state_name":"Virginia","lat":38.26594,"lng":-77.6397,"zip":"22553","miles_from_dt":26.55},{"city":"Alexandria","state_name":"Virginia","lat":38.81685,"lng":-77.15372,"zip":"22312","miles_from_dt":26.55},{"city":"Catlett","state_name":"Virginia","lat":38.62159,"lng":-77.62819,"zip":"20119","miles_from_dt":26.59},{"city":"Manassas","state_name":"Virginia","lat":38.7464,"lng":-77.48699,"zip":"20110","miles_from_dt":26.6},{"city":"Alexandria","state_name":"Virginia","lat":38.80318,"lng":-77.05868,"zip":"22334","miles_from_dt":26.61},{"city":"Alexandria","state_name":"Virginia","lat":38.81361,"lng":-77.11498,"zip":"22304","miles_from_dt":26.61},{"city":"Alexandria","state_name":"Virginia","lat":38.80459,"lng":-77.05927,"zip":"22332","miles_from_dt":26.7},{"city":"Alexandria","state_name":"Virginia","lat":38.81507,"lng":-77.11364,"zip":"22333","miles_from_dt":26.72},{"city":"Alexandria","state_name":"Virginia","lat":38.80536,"lng":-77.05642,"zip":"22320","miles_from_dt":26.79},{"city":"Alexandria","state_name":"Virginia","lat":38.80663,"lng":-77.05806,"zip":"22331","miles_from_dt":26.85},{"city":"Alexandria","state_name":"Virginia","lat":38.80732,"lng":-77.0563,"zip":"22314","miles_from_dt":26.92},{"city":"Brandywine","state_name":"Maryland","lat":38.67179,"lng":-76.80576,"zip":"20613","miles_from_dt":26.93},{"city":"Clinton","state_name":"Maryland","lat":38.75034,"lng":-76.90566,"zip":"20735","miles_from_dt":27.03},{"city":"Avenue","state_name":"Maryland","lat":38.27191,"lng":-76.74625,"zip":"20609","miles_from_dt":27.04},{"city":"Thornburg","state_name":"Virginia","lat":38.13336,"lng":-77.51978,"zip":"22565","miles_from_dt":27.05},{"city":"Morganza","state_name":"Maryland","lat":38.36928,"lng":-76.70741,"zip":"20660","miles_from_dt":27.09},{"city":"Richardsville","state_name":"Virginia","lat":38.39633,"lng":-77.69673,"zip":"22736","miles_from_dt":27.09},{"city":"Fairfax","state_name":"Virginia","lat":38.82012,"lng":-77.29032,"zip":"22032","miles_from_dt":27.11},{"city":"Annandale","state_name":"Virginia","lat":38.8308,"lng":-77.21402,"zip":"22003","miles_from_dt":27.41},{"city":"Coltons Point","state_name":"Maryland","lat":38.23256,"lng":-76.76404,"zip":"20626","miles_from_dt":27.43},{"city":"Caret","state_name":"Virginia","lat":38.04698,"lng":-77.07471,"zip":"22436","miles_from_dt":27.52},{"city":"Nokesville","state_name":"Virginia","lat":38.70021,"lng":-77.57907,"zip":"20182","miles_from_dt":27.57},{"city":"Alexandria","state_name":"Virginia","lat":38.81995,"lng":-77.05934,"zip":"22301","miles_from_dt":27.71},{"city":"Stratford","state_name":"Virginia","lat":38.14647,"lng":-76.84229,"zip":"22558","miles_from_dt":27.74},{"city":"Oxon Hill","state_name":"Maryland","lat":38.80142,"lng":-76.99111,"zip":"20750","miles_from_dt":27.77},{"city":"Sumerduck","state_name":"Virginia","lat":38.4589,"lng":-77.71179,"zip":"22742","miles_from_dt":27.83},{"city":"Bowling Green","state_name":"Virginia","lat":38.04738,"lng":-77.34812,"zip":"22428","miles_from_dt":27.83},{"city":"Alexandria","state_name":"Virginia","lat":38.82799,"lng":-77.08432,"zip":"22302","miles_from_dt":27.91},{"city":"Abell","state_name":"Maryland","lat":38.25412,"lng":-76.73878,"zip":"20606","miles_from_dt":27.93},{"city":"Oxon Hill","state_name":"Maryland","lat":38.80552,"lng":-76.99495,"zip":"20745","miles_from_dt":27.95},{"city":"Alexandria","state_name":"Virginia","lat":38.83442,"lng":-77.12313,"zip":"22311","miles_from_dt":27.96},{"city":"Manassas","state_name":"Virginia","lat":38.78674,"lng":-77.45575,"zip":"20113","miles_from_dt":28.02},{"city":"Midland","state_name":"Virginia","lat":38.57773,"lng":-77.68639,"zip":"22728","miles_from_dt":28.19},{"city":"Hustle","state_name":"Virginia","lat":38.03807,"lng":-77.06872,"zip":"22476","miles_from_dt":28.2},{"city":"Bristow","state_name":"Virginia","lat":38.7374,"lng":-77.55473,"zip":"20136","miles_from_dt":28.44},{"city":"Aquasco","state_name":"Maryland","lat":38.58638,"lng":-76.70702,"zip":"20608","miles_from_dt":28.71},{"city":"Benedict","state_name":"Maryland","lat":38.50708,"lng":-76.67789,"zip":"20612","miles_from_dt":28.75},{"city":"Alexandria","state_name":"Virginia","lat":38.83655,"lng":-77.06234,"zip":"22305","miles_from_dt":28.77},{"city":"Falls Church","state_name":"Virginia","lat":38.8485,"lng":-77.14212,"zip":"22041","miles_from_dt":28.79},{"city":"Fairfax","state_name":"Virginia","lat":38.83082,"lng":-77.36294,"zip":"22038","miles_from_dt":28.79},{"city":"Cheltenham","state_name":"Maryland","lat":38.7423,"lng":-76.83747,"zip":"20623","miles_from_dt":28.95},{"city":"Merrifield","state_name":"Virginia","lat":38.83936,"lng":-77.33663,"zip":"22118","miles_from_dt":28.95},{"city":"Arlington","state_name":"Virginia","lat":38.8442,"lng":-77.0886,"zip":"22206","miles_from_dt":28.95},{"city":"Fairfax","state_name":"Virginia","lat":38.83891,"lng":-77.34188,"zip":"22030","miles_from_dt":29},{"city":"Calverton","state_name":"Virginia","lat":38.6314,"lng":-77.67255,"zip":"20138","miles_from_dt":29.02},{"city":"Washington Navy Yard","state_name":"District of Columbia","lat":38.82891,"lng":-77.0155,"zip":"20374","miles_from_dt":29.03},{"city":"Loveville","state_name":"Maryland","lat":38.33914,"lng":-76.6787,"zip":"20656","miles_from_dt":29.03},{"city":"Temple Hills","state_name":"Maryland","lat":38.8068,"lng":-76.94718,"zip":"20757","miles_from_dt":29.15},{"city":"Washington","state_name":"District of Columbia","lat":38.83142,"lng":-77.01514,"zip":"20032","miles_from_dt":29.2},{"city":"Fairfax","state_name":"Virginia","lat":38.85596,"lng":-77.2602,"zip":"22034","miles_from_dt":29.32},{"city":"Champlain","state_name":"Virginia","lat":38.03788,"lng":-76.99971,"zip":"22438","miles_from_dt":29.38},{"city":"Fairfax","state_name":"Virginia","lat":38.85798,"lng":-77.25866,"zip":"22036","miles_from_dt":29.45},{"city":"Fairfax","state_name":"Virginia","lat":38.85344,"lng":-77.30039,"zip":"22037","miles_from_dt":29.47},{"city":"Falls Church","state_name":"Virginia","lat":38.85957,"lng":-77.15627,"zip":"22044","miles_from_dt":29.48},{"city":"Fairfax","state_name":"Virginia","lat":38.85954,"lng":-77.2599,"zip":"22031","miles_from_dt":29.56},{"city":"Merrifield","state_name":"Virginia","lat":38.86135,"lng":-77.25745,"zip":"22116","miles_from_dt":29.67},{"city":"Arlington","state_name":"Virginia","lat":38.85566,"lng":-77.093,"zip":"22217","miles_from_dt":29.68},{"city":"Falls Church","state_name":"Virginia","lat":38.86463,"lng":-77.19406,"zip":"22042","miles_from_dt":29.73},{"city":"Capitol Heights","state_name":"Maryland","lat":38.81765,"lng":-76.94377,"zip":"20791","miles_from_dt":29.89},{"city":"Arlington","state_name":"Virginia","lat":38.85843,"lng":-77.08967,"zip":"22212","miles_from_dt":29.9},{"city":"Temple Hills","state_name":"Maryland","lat":38.81692,"lng":-76.94124,"zip":"20748","miles_from_dt":29.91},{"city":"Arlington","state_name":"Virginia","lat":38.85207,"lng":-77.05149,"zip":"22245","miles_from_dt":29.96},{"city":"Arlington","state_name":"Virginia","lat":38.86076,"lng":-77.09894,"zip":"22204","miles_from_dt":29.97},{"city":"Arlington","state_name":"Virginia","lat":38.85302,"lng":-77.05415,"zip":"22240","miles_from_dt":29.98},{"city":"Centreville","state_name":"Virginia","lat":38.8175,"lng":-77.46015,"zip":"20121","miles_from_dt":30}],"targetCityZipCode":"20662","targetCityState":"Maryland"},"__N_SSG":true}