{"pageProps":{"stateName":"Maryland","cityName":"neavitt","nearbyCities":[{"city":"Bozman","state_name":"Maryland","lat":38.74928,"lng":-76.27695,"zip":"21612","miles_from_dt":2.01},{"city":"Tilghman","state_name":"Maryland","lat":38.69658,"lng":-76.33562,"zip":"21671","miles_from_dt":3.37},{"city":"Sherwood","state_name":"Maryland","lat":38.75158,"lng":-76.34469,"zip":"21665","miles_from_dt":4.06},{"city":"Royal Oak","state_name":"Maryland","lat":38.7136,"lng":-76.20209,"zip":"21662","miles_from_dt":4.29},{"city":"Wittman","state_name":"Maryland","lat":38.78628,"lng":-76.30548,"zip":"21676","miles_from_dt":4.74},{"city":"Saint Michaels","state_name":"Maryland","lat":38.78333,"lng":-76.23303,"zip":"21663","miles_from_dt":5.06},{"city":"Mcdaniel","state_name":"Maryland","lat":38.80114,"lng":-76.2831,"zip":"21647","miles_from_dt":5.58},{"city":"Newcomb","state_name":"Maryland","lat":38.74704,"lng":-76.17744,"zip":"21653","miles_from_dt":5.9},{"city":"Claiborne","state_name":"Maryland","lat":38.83407,"lng":-76.27212,"zip":"21624","miles_from_dt":7.86},{"city":"Oxford","state_name":"Maryland","lat":38.6908,"lng":-76.12518,"zip":"21654","miles_from_dt":8.67},{"city":"Easton","state_name":"Maryland","lat":38.79275,"lng":-76.08242,"zip":"21601","miles_from_dt":11.84},{"city":"Trappe","state_name":"Maryland","lat":38.65235,"lng":-76.04163,"zip":"21673","miles_from_dt":13.77},{"city":"North Beach","state_name":"Maryland","lat":38.71813,"lng":-76.53987,"zip":"20714","miles_from_dt":13.99},{"city":"Shady Side","state_name":"Maryland","lat":38.83374,"lng":-76.51146,"zip":"20764","miles_from_dt":14.7},{"city":"Churchton","state_name":"Maryland","lat":38.80628,"lng":-76.53139,"zip":"20733","miles_from_dt":14.76},{"city":"Chesapeake Beach","state_name":"Maryland","lat":38.65573,"lng":-76.54292,"zip":"20732","miles_from_dt":14.84},{"city":"Stevensville","state_name":"Maryland","lat":38.93956,"lng":-76.33272,"zip":"21666","miles_from_dt":15.38},{"city":"Madison","state_name":"Maryland","lat":38.4966,"lng":-76.23386,"zip":"21648","miles_from_dt":15.64},{"city":"Chester","state_name":"Maryland","lat":38.95285,"lng":-76.27939,"zip":"21619","miles_from_dt":16.04},{"city":"Deale","state_name":"Maryland","lat":38.79552,"lng":-76.56221,"zip":"20751","miles_from_dt":16.05},{"city":"Grasonville","state_name":"Maryland","lat":38.94513,"lng":-76.20263,"zip":"21638","miles_from_dt":16.08},{"city":"Tracys Landing","state_name":"Maryland","lat":38.76388,"lng":-76.57665,"zip":"20779","miles_from_dt":16.25},{"city":"Mayo","state_name":"Maryland","lat":38.8799,"lng":-76.50746,"zip":"21106","miles_from_dt":16.45},{"city":"Friendship","state_name":"Maryland","lat":38.73399,"lng":-76.58961,"zip":"20758","miles_from_dt":16.7},{"city":"Galesville","state_name":"Maryland","lat":38.84533,"lng":-76.54654,"zip":"20765","miles_from_dt":16.73},{"city":"Sunderland","state_name":"Maryland","lat":38.66963,"lng":-76.58591,"zip":"20689","miles_from_dt":16.84},{"city":"Queenstown","state_name":"Maryland","lat":38.94071,"lng":-76.13819,"zip":"21658","miles_from_dt":17.05},{"city":"Woolford","state_name":"Maryland","lat":38.48454,"lng":-76.18544,"zip":"21677","miles_from_dt":17.06},{"city":"Wye Mills","state_name":"Maryland","lat":38.91722,"lng":-76.08875,"zip":"21679","miles_from_dt":17.1},{"city":"West River","state_name":"Maryland","lat":38.83733,"lng":-76.56647,"zip":"20778","miles_from_dt":17.4},{"city":"Bethlehem","state_name":"Maryland","lat":38.74032,"lng":-75.95202,"zip":"21609","miles_from_dt":17.83},{"city":"Taylors Island","state_name":"Maryland","lat":38.45897,"lng":-76.28509,"zip":"21669","miles_from_dt":18.03},{"city":"Cordova","state_name":"Maryland","lat":38.86925,"lng":-75.99216,"zip":"21625","miles_from_dt":18.68},{"city":"Owings","state_name":"Maryland","lat":38.6913,"lng":-76.62855,"zip":"20736","miles_from_dt":18.89},{"city":"Cambridge","state_name":"Maryland","lat":38.49537,"lng":-76.07169,"zip":"21613","miles_from_dt":19.21},{"city":"Annapolis","state_name":"Maryland","lat":38.94433,"lng":-76.49296,"zip":"21403","miles_from_dt":19.22},{"city":"Huntingtown","state_name":"Maryland","lat":38.60823,"lng":-76.6086,"zip":"20639","miles_from_dt":19.33},{"city":"Edgewater","state_name":"Maryland","lat":38.91476,"lng":-76.54361,"zip":"21037","miles_from_dt":19.51},{"city":"Preston","state_name":"Maryland","lat":38.74601,"lng":-75.92103,"zip":"21655","miles_from_dt":19.53},{"city":"Secretary","state_name":"Maryland","lat":38.6081,"lng":-75.94732,"zip":"21664","miles_from_dt":19.64},{"city":"Dunkirk","state_name":"Maryland","lat":38.736,"lng":-76.65493,"zip":"20754","miles_from_dt":20.23},{"city":"East New Market","state_name":"Maryland","lat":38.58784,"lng":-75.94598,"zip":"21631","miles_from_dt":20.3},{"city":"Harwood","state_name":"Maryland","lat":38.86913,"lng":-76.6067,"zip":"20776","miles_from_dt":20.36},{"city":"Lothian","state_name":"Maryland","lat":38.80485,"lng":-76.65245,"zip":"20711","miles_from_dt":20.89},{"city":"Annapolis","state_name":"Maryland","lat":38.97161,"lng":-76.49986,"zip":"21411","miles_from_dt":20.97},{"city":"Annapolis","state_name":"Maryland","lat":38.98816,"lng":-76.47202,"zip":"21402","miles_from_dt":21.15},{"city":"Annapolis","state_name":"Maryland","lat":38.97778,"lng":-76.49829,"zip":"21404","miles_from_dt":21.28},{"city":"Port Republic","state_name":"Maryland","lat":38.4869,"lng":-76.54788,"zip":"20676","miles_from_dt":21.63},{"city":"Prince Frederick","state_name":"Maryland","lat":38.52164,"lng":-76.60072,"zip":"20678","miles_from_dt":22.07},{"city":"Barstow","state_name":"Maryland","lat":38.53316,"lng":-76.6168,"zip":"20610","miles_from_dt":22.28},{"city":"Church Creek","state_name":"Maryland","lat":38.40821,"lng":-76.17381,"zip":"21622","miles_from_dt":22.3},{"city":"Queen Anne","state_name":"Maryland","lat":38.9534,"lng":-75.99042,"zip":"21657","miles_from_dt":22.46},{"city":"Annapolis","state_name":"Maryland","lat":39.01968,"lng":-76.44738,"zip":"21409","miles_from_dt":22.52},{"city":"Linkwood","state_name":"Maryland","lat":38.53355,"lng":-75.93758,"zip":"21835","miles_from_dt":22.61},{"city":"Hurlock","state_name":"Maryland","lat":38.6442,"lng":-75.87124,"zip":"21643","miles_from_dt":22.77},{"city":"Hillsboro","state_name":"Maryland","lat":38.91696,"lng":-75.94161,"zip":"21641","miles_from_dt":22.8},{"city":"Riva","state_name":"Maryland","lat":38.95062,"lng":-76.58569,"zip":"21140","miles_from_dt":22.86},{"city":"Annapolis","state_name":"Maryland","lat":38.98967,"lng":-76.5505,"zip":"21401","miles_from_dt":23.59},{"city":"Saint Leonard","state_name":"Maryland","lat":38.43465,"lng":-76.52904,"zip":"20685","miles_from_dt":23.84},{"city":"Davidsonville","state_name":"Maryland","lat":38.93637,"lng":-76.63875,"zip":"21035","miles_from_dt":24.38},{"city":"Aquasco","state_name":"Maryland","lat":38.58638,"lng":-76.70702,"zip":"20608","miles_from_dt":24.82},{"city":"Lusby","state_name":"Maryland","lat":38.38358,"lng":-76.44537,"zip":"20657","miles_from_dt":24.87},{"city":"Broomes Island","state_name":"Maryland","lat":38.4204,"lng":-76.54772,"zip":"20615","miles_from_dt":25.23},{"city":"Arnold","state_name":"Maryland","lat":39.04529,"lng":-76.49716,"zip":"21012","miles_from_dt":25.27},{"city":"Annapolis","state_name":"Maryland","lat":39.02996,"lng":-76.54971,"zip":"21405","miles_from_dt":25.81},{"city":"Gibson Island","state_name":"Maryland","lat":39.07805,"lng":-76.4338,"zip":"21056","miles_from_dt":26.02},{"city":"Benedict","state_name":"Maryland","lat":38.50708,"lng":-76.67789,"zip":"20612","miles_from_dt":26.03},{"city":"Centreville","state_name":"Maryland","lat":39.04985,"lng":-76.03819,"zip":"21617","miles_from_dt":26.24},{"city":"Denton","state_name":"Maryland","lat":38.86111,"lng":-75.82753,"zip":"21629","miles_from_dt":26.34},{"city":"Upper Marlboro","state_name":"Maryland","lat":38.82,"lng":-76.75219,"zip":"20792","miles_from_dt":26.35},{"city":"Upper Marlboro","state_name":"Maryland","lat":38.81455,"lng":-76.75425,"zip":"20773","miles_from_dt":26.37},{"city":"Upper Marlboro","state_name":"Maryland","lat":38.78269,"lng":-76.76782,"zip":"20775","miles_from_dt":26.64},{"city":"Upper Marlboro","state_name":"Maryland","lat":38.7785,"lng":-76.76911,"zip":"20772","miles_from_dt":26.67},{"city":"Ridgely","state_name":"Maryland","lat":38.95534,"lng":-75.88839,"zip":"21660","miles_from_dt":26.68},{"city":"Federalsburg","state_name":"Maryland","lat":38.72287,"lng":-75.77478,"zip":"21632","miles_from_dt":27.36},{"city":"Bowie","state_name":"Maryland","lat":38.92734,"lng":-76.71494,"zip":"20716","miles_from_dt":27.42},{"city":"Crownsville","state_name":"Maryland","lat":39.03376,"lng":-76.60401,"zip":"21032","miles_from_dt":27.76},{"city":"Dowell","state_name":"Maryland","lat":38.33996,"lng":-76.45388,"zip":"20629","miles_from_dt":27.85},{"city":"Rhodesdale","state_name":"Maryland","lat":38.57442,"lng":-75.79985,"zip":"21659","miles_from_dt":27.91},{"city":"Crapo","state_name":"Maryland","lat":38.33902,"lng":-76.08398,"zip":"21626","miles_from_dt":28.38},{"city":"Rock Hall","state_name":"Maryland","lat":39.12905,"lng":-76.21967,"zip":"21661","miles_from_dt":28.39},{"city":"Upper Marlboro","state_name":"Maryland","lat":38.87589,"lng":-76.76925,"zip":"20774","miles_from_dt":28.45},{"city":"Solomons","state_name":"Maryland","lat":38.33475,"lng":-76.46965,"zip":"20688","miles_from_dt":28.49},{"city":"Brandywine","state_name":"Maryland","lat":38.67179,"lng":-76.80576,"zip":"20613","miles_from_dt":28.56},{"city":"Severna Park","state_name":"Maryland","lat":39.07737,"lng":-76.55613,"zip":"21146","miles_from_dt":28.75},{"city":"Vienna","state_name":"Maryland","lat":38.43246,"lng":-75.89012,"zip":"21869","miles_from_dt":29.02},{"city":"Crofton","state_name":"Maryland","lat":39.00967,"lng":-76.6839,"zip":"21114","miles_from_dt":29.5},{"city":"Bowie","state_name":"Maryland","lat":38.95985,"lng":-76.73713,"zip":"20719","miles_from_dt":29.64},{"city":"Hollywood","state_name":"Maryland","lat":38.35582,"lng":-76.57212,"zip":"20636","miles_from_dt":29.67},{"city":"Pasadena","state_name":"Maryland","lat":39.11631,"lng":-76.49941,"zip":"21122","miles_from_dt":29.74},{"city":"Gambrills","state_name":"Maryland","lat":39.02624,"lng":-76.67083,"zip":"21054","miles_from_dt":29.78}],"targetCityZipCode":"21652","targetCityState":"Maryland"},"__N_SSG":true}