{"pageProps":{"stateName":"Maryland","cityName":"oakland","nearbyCities":[{"city":"Gormania","state_name":"West Virginia","lat":39.27761,"lng":-79.33126,"zip":"26720","miles_from_dt":8.45},{"city":"Kitzmiller","state_name":"Maryland","lat":39.40133,"lng":-79.22109,"zip":"21538","miles_from_dt":9.11},{"city":"Terra Alta","state_name":"West Virginia","lat":39.45042,"lng":-79.56035,"zip":"26764","miles_from_dt":9.95},{"city":"Aurora","state_name":"West Virginia","lat":39.32388,"lng":-79.56663,"zip":"26705","miles_from_dt":10.49},{"city":"Eglon","state_name":"West Virginia","lat":39.2641,"lng":-79.51892,"zip":"26716","miles_from_dt":11.13},{"city":"McHenry","state_name":"Maryland","lat":39.55727,"lng":-79.36732,"zip":"21541","miles_from_dt":11.53},{"city":"Bayard","state_name":"West Virginia","lat":39.22275,"lng":-79.39418,"zip":"26707","miles_from_dt":11.61},{"city":"Elk Garden","state_name":"West Virginia","lat":39.34583,"lng":-79.17597,"zip":"26717","miles_from_dt":11.92},{"city":"Swanton","state_name":"Maryland","lat":39.49976,"lng":-79.20482,"zip":"21561","miles_from_dt":12.46},{"city":"Mount Storm","state_name":"West Virginia","lat":39.21508,"lng":-79.2647,"zip":"26739","miles_from_dt":13.9},{"city":"Rowlesburg","state_name":"West Virginia","lat":39.3116,"lng":-79.68651,"zip":"26425","miles_from_dt":16.76},{"city":"Bittinger","state_name":"Maryland","lat":39.58811,"lng":-79.20277,"zip":"21522","miles_from_dt":16.91},{"city":"Albright","state_name":"West Virginia","lat":39.55179,"lng":-79.63212,"zip":"26519","miles_from_dt":17.01},{"city":"Accident","state_name":"Maryland","lat":39.63661,"lng":-79.30786,"zip":"21520","miles_from_dt":17.51},{"city":"Bloomington","state_name":"Maryland","lat":39.47956,"lng":-79.07925,"zip":"21523","miles_from_dt":17.75},{"city":"Friendsville","state_name":"Maryland","lat":39.64862,"lng":-79.42221,"zip":"21531","miles_from_dt":17.85},{"city":"Thomas","state_name":"West Virginia","lat":39.15247,"lng":-79.52916,"zip":"26292","miles_from_dt":18.05},{"city":"New Creek","state_name":"West Virginia","lat":39.28873,"lng":-79.07998,"zip":"26743","miles_from_dt":18.09},{"city":"Kingwood","state_name":"West Virginia","lat":39.4846,"lng":-79.71189,"zip":"26537","miles_from_dt":18.35},{"city":"Luke","state_name":"Maryland","lat":39.47659,"lng":-79.05929,"zip":"21540","miles_from_dt":18.69},{"city":"Piedmont","state_name":"West Virginia","lat":39.47764,"lng":-79.04627,"zip":"26750","miles_from_dt":19.38},{"city":"Westernport","state_name":"Maryland","lat":39.50326,"lng":-79.05046,"zip":"21562","miles_from_dt":19.78},{"city":"Tunnelton","state_name":"West Virginia","lat":39.36861,"lng":-79.7626,"zip":"26444","miles_from_dt":19.96},{"city":"Davis","state_name":"West Virginia","lat":39.08923,"lng":-79.41147,"zip":"26260","miles_from_dt":20.85},{"city":"Barton","state_name":"Maryland","lat":39.55042,"lng":-79.04836,"zip":"21521","miles_from_dt":21.36},{"city":"Grantsville","state_name":"Maryland","lat":39.65619,"lng":-79.16924,"zip":"21536","miles_from_dt":21.79},{"city":"Bruceton Mills","state_name":"West Virginia","lat":39.65465,"lng":-79.6184,"zip":"26525","miles_from_dt":21.87},{"city":"Keyser","state_name":"West Virginia","lat":39.40508,"lng":-78.98222,"zip":"26726","miles_from_dt":21.89},{"city":"Parsons","state_name":"West Virginia","lat":39.16657,"lng":-79.69057,"zip":"26287","miles_from_dt":22.32},{"city":"Hambleton","state_name":"West Virginia","lat":39.11612,"lng":-79.61617,"zip":"26269","miles_from_dt":22.49},{"city":"Newburg","state_name":"West Virginia","lat":39.4032,"lng":-79.82389,"zip":"26410","miles_from_dt":23.19},{"city":"Maysville","state_name":"West Virginia","lat":39.08119,"lng":-79.2083,"zip":"26833","miles_from_dt":23.51},{"city":"Reedsville","state_name":"West Virginia","lat":39.5133,"lng":-79.80757,"zip":"26547","miles_from_dt":23.83},{"city":"Lahmansville","state_name":"West Virginia","lat":39.15243,"lng":-79.06859,"zip":"26731","miles_from_dt":23.87},{"city":"Arthurdale","state_name":"West Virginia","lat":39.50105,"lng":-79.82393,"zip":"26520","miles_from_dt":24.38},{"city":"Burlington","state_name":"West Virginia","lat":39.30996,"lng":-78.94544,"zip":"26710","miles_from_dt":24.5},{"city":"Bretz","state_name":"West Virginia","lat":39.54075,"lng":-79.80716,"zip":"26524","miles_from_dt":24.54},{"city":"Addison","state_name":"Pennsylvania","lat":39.74724,"lng":-79.34344,"zip":"15411","miles_from_dt":24.7},{"city":"Masontown","state_name":"West Virginia","lat":39.573,"lng":-79.79041,"zip":"26542","miles_from_dt":24.77},{"city":"Lonaconing","state_name":"Maryland","lat":39.59828,"lng":-79.01074,"zip":"21539","miles_from_dt":24.84},{"city":"Hendricks","state_name":"West Virginia","lat":39.049,"lng":-79.55194,"zip":"26271","miles_from_dt":25.13},{"city":"Markleysburg","state_name":"Pennsylvania","lat":39.76483,"lng":-79.4648,"zip":"15459","miles_from_dt":26.09},{"city":"Rawlings","state_name":"Maryland","lat":39.5191,"lng":-78.92353,"zip":"21557","miles_from_dt":26.51},{"city":"Independence","state_name":"West Virginia","lat":39.44755,"lng":-79.88101,"zip":"26374","miles_from_dt":26.52},{"city":"Midland","state_name":"Maryland","lat":39.59114,"lng":-78.95087,"zip":"21542","miles_from_dt":27.27},{"city":"Purgitsville","state_name":"West Virginia","lat":39.2477,"lng":-78.91599,"zip":"26852","miles_from_dt":27.3},{"city":"Gibbon Glade","state_name":"Pennsylvania","lat":39.73775,"lng":-79.64347,"zip":"15440","miles_from_dt":27.46},{"city":"Old Fields","state_name":"West Virginia","lat":39.16734,"lng":-78.96193,"zip":"26845","miles_from_dt":27.7},{"city":"Thornton","state_name":"West Virginia","lat":39.32947,"lng":-79.90625,"zip":"26440","miles_from_dt":27.93},{"city":"Springs","state_name":"Pennsylvania","lat":39.74165,"lng":-79.1219,"zip":"15562","miles_from_dt":28.13},{"city":"Red Creek","state_name":"West Virginia","lat":38.98972,"lng":-79.51268,"zip":"26289","miles_from_dt":28.45},{"city":"Midlothian","state_name":"Maryland","lat":39.64157,"lng":-78.96231,"zip":"21543","miles_from_dt":28.69},{"city":"Moatsville","state_name":"West Virginia","lat":39.23093,"lng":-79.89076,"zip":"26405","miles_from_dt":28.98},{"city":"Fort Hill","state_name":"Pennsylvania","lat":39.79549,"lng":-79.23712,"zip":"15540","miles_from_dt":29.08},{"city":"Salisbury","state_name":"Pennsylvania","lat":39.7494,"lng":-79.09755,"zip":"15558","miles_from_dt":29.26},{"city":"West Salisbury","state_name":"Pennsylvania","lat":39.75907,"lng":-79.11552,"zip":"15565","miles_from_dt":29.34},{"city":"Fisher","state_name":"West Virginia","lat":39.07662,"lng":-79.02238,"zip":"26818","miles_from_dt":29.35},{"city":"Frostburg","state_name":"Maryland","lat":39.65559,"lng":-78.96025,"zip":"21532","miles_from_dt":29.36},{"city":"Ursina","state_name":"Pennsylvania","lat":39.81517,"lng":-79.33362,"zip":"15485","miles_from_dt":29.42},{"city":"Farmington","state_name":"Pennsylvania","lat":39.79202,"lng":-79.59846,"zip":"15437","miles_from_dt":29.8},{"city":"Cabins","state_name":"West Virginia","lat":38.96933,"lng":-79.25935,"zip":"26855","miles_from_dt":29.94}],"targetCityZipCode":"21550","targetCityState":"Maryland"},"__N_SSG":true}