{"pageProps":{"stateName":"Maryland","cityName":"parsonsburg","nearbyCities":[{"city":"Powellville","state_name":"Maryland","lat":38.3495,"lng":-75.40549,"zip":"21852","miles_from_dt":3.31},{"city":"Pittsville","state_name":"Maryland","lat":38.36171,"lng":-75.39867,"zip":"21850","miles_from_dt":3.41},{"city":"Salisbury","state_name":"Maryland","lat":38.34096,"lng":-75.53603,"zip":"21802","miles_from_dt":4.56},{"city":"Salisbury","state_name":"Maryland","lat":38.31726,"lng":-75.53673,"zip":"21804","miles_from_dt":5.51},{"city":"Willards","state_name":"Maryland","lat":38.39266,"lng":-75.35417,"zip":"21874","miles_from_dt":5.99},{"city":"Delmar","state_name":"Maryland","lat":38.44038,"lng":-75.54559,"zip":"21875","miles_from_dt":6.69},{"city":"Delmar","state_name":"Delaware","lat":38.47723,"lng":-75.56828,"zip":"19940","miles_from_dt":9.42},{"city":"Fruitland","state_name":"Maryland","lat":38.32077,"lng":-75.62353,"zip":"21826","miles_from_dt":9.48},{"city":"Whaleyville","state_name":"Maryland","lat":38.4163,"lng":-75.29399,"zip":"21872","miles_from_dt":9.59},{"city":"Salisbury","state_name":"Maryland","lat":38.38106,"lng":-75.64073,"zip":"21801","miles_from_dt":9.81},{"city":"Salisbury","state_name":"Maryland","lat":38.36305,"lng":-75.65682,"zip":"21803","miles_from_dt":10.66},{"city":"Eden","state_name":"Maryland","lat":38.28129,"lng":-75.65566,"zip":"21822","miles_from_dt":12.24},{"city":"Newark","state_name":"Maryland","lat":38.24385,"lng":-75.29588,"zip":"21841","miles_from_dt":12.49},{"city":"Snow Hill","state_name":"Maryland","lat":38.19167,"lng":-75.40327,"zip":"21863","miles_from_dt":12.69},{"city":"Laurel","state_name":"Delaware","lat":38.5465,"lng":-75.53961,"zip":"19956","miles_from_dt":12.9},{"city":"Showell","state_name":"Maryland","lat":38.39716,"lng":-75.21514,"zip":"21862","miles_from_dt":13.46},{"city":"Berlin","state_name":"Maryland","lat":38.31977,"lng":-75.22024,"zip":"21811","miles_from_dt":13.51},{"city":"Allen","state_name":"Maryland","lat":38.29005,"lng":-75.68887,"zip":"21810","miles_from_dt":13.57},{"city":"Hebron","state_name":"Maryland","lat":38.40202,"lng":-75.72841,"zip":"21830","miles_from_dt":14.7},{"city":"Frankford","state_name":"Delaware","lat":38.50336,"lng":-75.22855,"zip":"19945","miles_from_dt":15.59},{"city":"Bethel","state_name":"Delaware","lat":38.56928,"lng":-75.61029,"zip":"19931","miles_from_dt":15.96},{"city":"Bishopville","state_name":"Maryland","lat":38.42658,"lng":-75.17293,"zip":"21813","miles_from_dt":16.1},{"city":"Selbyville","state_name":"Delaware","lat":38.46862,"lng":-75.17462,"zip":"19975","miles_from_dt":16.94},{"city":"Millsboro","state_name":"Delaware","lat":38.58118,"lng":-75.28274,"zip":"19966","miles_from_dt":17.47},{"city":"Princess Anne","state_name":"Maryland","lat":38.20453,"lng":-75.7102,"zip":"21853","miles_from_dt":17.73},{"city":"Mardela Springs","state_name":"Maryland","lat":38.4594,"lng":-75.76731,"zip":"21837","miles_from_dt":17.75},{"city":"Quantico","state_name":"Maryland","lat":38.33807,"lng":-75.79224,"zip":"21856","miles_from_dt":18.14},{"city":"Sharptown","state_name":"Maryland","lat":38.53525,"lng":-75.72834,"zip":"21861","miles_from_dt":18.46},{"city":"Manokin","state_name":"Maryland","lat":38.33073,"lng":-75.80639,"zip":"21836","miles_from_dt":18.97},{"city":"Girdletree","state_name":"Maryland","lat":38.09892,"lng":-75.38324,"zip":"21829","miles_from_dt":19.17},{"city":"Dagsboro","state_name":"Delaware","lat":38.56575,"lng":-75.2022,"zip":"19939","miles_from_dt":19.46},{"city":"Westover","state_name":"Maryland","lat":38.15673,"lng":-75.6998,"zip":"21890","miles_from_dt":19.64},{"city":"Ocean City","state_name":"Maryland","lat":38.3778,"lng":-75.09084,"zip":"21842","miles_from_dt":20.09},{"city":"Seaford","state_name":"Delaware","lat":38.63404,"lng":-75.62454,"zip":"19973","miles_from_dt":20.26},{"city":"Ocean City","state_name":"Maryland","lat":38.33803,"lng":-75.08397,"zip":"21843","miles_from_dt":20.58},{"city":"Pocomoke City","state_name":"Maryland","lat":38.07825,"lng":-75.54375,"zip":"21851","miles_from_dt":20.63},{"city":"Tyaskin","state_name":"Maryland","lat":38.28605,"lng":-75.83296,"zip":"21865","miles_from_dt":21.04},{"city":"Georgetown","state_name":"Delaware","lat":38.67421,"lng":-75.39864,"zip":"19947","miles_from_dt":21.25},{"city":"Millville","state_name":"Delaware","lat":38.53978,"lng":-75.1209,"zip":"19967","miles_from_dt":21.83},{"city":"Stockton","state_name":"Maryland","lat":38.04355,"lng":-75.40532,"zip":"21864","miles_from_dt":22.72},{"city":"Fenwick Island","state_name":"Delaware","lat":38.47542,"lng":-75.05559,"zip":"19944","miles_from_dt":23.15},{"city":"Rhodesdale","state_name":"Maryland","lat":38.57442,"lng":-75.79985,"zip":"21659","miles_from_dt":23.17},{"city":"Ocean View","state_name":"Delaware","lat":38.55504,"lng":-75.09901,"zip":"19970","miles_from_dt":23.4},{"city":"Westover","state_name":"Maryland","lat":38.10489,"lng":-75.73127,"zip":"21871","miles_from_dt":23.48},{"city":"Vienna","state_name":"Maryland","lat":38.43246,"lng":-75.89012,"zip":"21869","miles_from_dt":23.71},{"city":"Bivalve","state_name":"Maryland","lat":38.29176,"lng":-75.88669,"zip":"21814","miles_from_dt":23.77},{"city":"Harbeson","state_name":"Delaware","lat":38.68763,"lng":-75.25124,"zip":"19951","miles_from_dt":24.67},{"city":"Nanticoke","state_name":"Maryland","lat":38.25814,"lng":-75.89276,"zip":"21840","miles_from_dt":24.72},{"city":"Bethany Beach","state_name":"Delaware","lat":38.56311,"lng":-75.07085,"zip":"19930","miles_from_dt":24.98},{"city":"Rehobeth","state_name":"Maryland","lat":38.04647,"lng":-75.66726,"zip":"21857","miles_from_dt":24.99},{"city":"Upper Fairmount","state_name":"Maryland","lat":38.11025,"lng":-75.79399,"zip":"21867","miles_from_dt":25.49},{"city":"Greenbackville","state_name":"Virginia","lat":37.9905,"lng":-75.39228,"zip":"23356","miles_from_dt":26.44},{"city":"Bridgeville","state_name":"Delaware","lat":38.73699,"lng":-75.60586,"zip":"19933","miles_from_dt":26.5},{"city":"Horntown","state_name":"Virginia","lat":37.97051,"lng":-75.45159,"zip":"23395","miles_from_dt":27.56},{"city":"New Church","state_name":"Virginia","lat":37.97459,"lng":-75.53443,"zip":"23415","miles_from_dt":27.57},{"city":"Deal Island","state_name":"Maryland","lat":38.16664,"lng":-75.90611,"zip":"21821","miles_from_dt":27.99},{"city":"Linkwood","state_name":"Maryland","lat":38.53355,"lng":-75.93758,"zip":"21835","miles_from_dt":28.22},{"city":"Wattsville","state_name":"Virginia","lat":37.96152,"lng":-75.51341,"zip":"23483","miles_from_dt":28.32},{"city":"Marion Station","state_name":"Maryland","lat":38.01452,"lng":-75.73098,"zip":"21838","miles_from_dt":28.6},{"city":"Hurlock","state_name":"Maryland","lat":38.6442,"lng":-75.87124,"zip":"21643","miles_from_dt":29.2},{"city":"Lewes","state_name":"Delaware","lat":38.72737,"lng":-75.16632,"zip":"19958","miles_from_dt":29.35},{"city":"Ellendale","state_name":"Delaware","lat":38.7949,"lng":-75.42476,"zip":"19941","miles_from_dt":29.37},{"city":"Chincoteague Island","state_name":"Virginia","lat":37.95461,"lng":-75.33759,"zip":"23336","miles_from_dt":29.43},{"city":"Rehoboth Beach","state_name":"Delaware","lat":38.69113,"lng":-75.10132,"zip":"19971","miles_from_dt":29.49},{"city":"Milton","state_name":"Delaware","lat":38.77553,"lng":-75.28466,"zip":"19968","miles_from_dt":29.55},{"city":"Federalsburg","state_name":"Maryland","lat":38.72287,"lng":-75.77478,"zip":"21632","miles_from_dt":29.69},{"city":"Withams","state_name":"Virginia","lat":37.95237,"lng":-75.60831,"zip":"23488","miles_from_dt":29.91}],"targetCityZipCode":"21849","targetCityState":"Maryland"},"__N_SSG":true}