{"pageProps":{"stateName":"Maryland","cityName":"potomac","nearbyCities":[{"city":"Potomac","state_name":"Maryland","lat":39.02296,"lng":-77.19925,"zip":"20859","miles_from_dt":1.42},{"city":"Bethesda","state_name":"Maryland","lat":39.01371,"lng":-77.15874,"zip":"20827","miles_from_dt":3.66},{"city":"Rockville","state_name":"Maryland","lat":39.0908,"lng":-77.1809,"zip":"20850","miles_from_dt":4.48},{"city":"Bethesda","state_name":"Maryland","lat":38.99809,"lng":-77.14919,"zip":"20817","miles_from_dt":4.62},{"city":"Great Falls","state_name":"Virginia","lat":39.01032,"lng":-77.30258,"zip":"22066","miles_from_dt":4.66},{"city":"Rockville","state_name":"Maryland","lat":39.07935,"lng":-77.1564,"zip":"20857","miles_from_dt":4.69},{"city":"Rockville","state_name":"Maryland","lat":39.08242,"lng":-77.15282,"zip":"20849","miles_from_dt":4.97},{"city":"Rockville","state_name":"Maryland","lat":39.08448,"lng":-77.15186,"zip":"20847","miles_from_dt":5.11},{"city":"Cabin John","state_name":"Maryland","lat":38.97347,"lng":-77.16188,"zip":"20818","miles_from_dt":5.27},{"city":"Rockville","state_name":"Maryland","lat":39.05134,"lng":-77.12507,"zip":"20852","miles_from_dt":5.32},{"city":"Gaithersburg","state_name":"Maryland","lat":39.11376,"lng":-77.24781,"zip":"20878","miles_from_dt":5.67},{"city":"McLean","state_name":"Virginia","lat":38.95199,"lng":-77.22901,"zip":"22102","miles_from_dt":5.68},{"city":"West Mclean","state_name":"Virginia","lat":38.94777,"lng":-77.22795,"zip":"22103","miles_from_dt":5.97},{"city":"Rockville","state_name":"Maryland","lat":39.07308,"lng":-77.11829,"zip":"20848","miles_from_dt":6.17},{"city":"Rockville","state_name":"Maryland","lat":39.07767,"lng":-77.12089,"zip":"20851","miles_from_dt":6.19},{"city":"Glen Echo","state_name":"Maryland","lat":38.96677,"lng":-77.14357,"zip":"20812","miles_from_dt":6.26},{"city":"Bethesda","state_name":"Maryland","lat":39.00506,"lng":-77.10295,"zip":"20814","miles_from_dt":6.69},{"city":"Bethesda","state_name":"Maryland","lat":39.0006,"lng":-77.10373,"zip":"20892","miles_from_dt":6.75},{"city":"Garrett Park","state_name":"Maryland","lat":39.03521,"lng":-77.09494,"zip":"20896","miles_from_dt":6.81},{"city":"Gaithersburg","state_name":"Maryland","lat":39.13349,"lng":-77.22906,"zip":"20885","miles_from_dt":6.87},{"city":"McLean","state_name":"Virginia","lat":38.94084,"lng":-77.17614,"zip":"22106","miles_from_dt":6.88},{"city":"Bethesda","state_name":"Maryland","lat":38.99591,"lng":-77.10221,"zip":"20894","miles_from_dt":6.94},{"city":"Greenway","state_name":"Virginia","lat":38.94062,"lng":-77.16512,"zip":"22067","miles_from_dt":7.13},{"city":"McLean","state_name":"Virginia","lat":38.93368,"lng":-77.18439,"zip":"22109","miles_from_dt":7.21},{"city":"McLean","state_name":"Virginia","lat":38.9386,"lng":-77.16513,"zip":"22101","miles_from_dt":7.25},{"city":"Vienna","state_name":"Virginia","lat":38.93611,"lng":-77.2736,"zip":"22182","miles_from_dt":7.32},{"city":"Bethesda","state_name":"Maryland","lat":39.00193,"lng":-77.09038,"zip":"20889","miles_from_dt":7.4},{"city":"Bethesda","state_name":"Maryland","lat":38.98,"lng":-77.10219,"zip":"20810","miles_from_dt":7.43},{"city":"Bethesda","state_name":"Maryland","lat":38.98204,"lng":-77.09981,"zip":"20811","miles_from_dt":7.47},{"city":"McLean","state_name":"Virginia","lat":38.93,"lng":-77.18219,"zip":"22108","miles_from_dt":7.49},{"city":"McLean","state_name":"Virginia","lat":38.93,"lng":-77.18219,"zip":"22107","miles_from_dt":7.49},{"city":"Gaithersburg","state_name":"Maryland","lat":39.14068,"lng":-77.18865,"zip":"20877","miles_from_dt":7.56},{"city":"Reston","state_name":"Virginia","lat":38.97998,"lng":-77.34354,"zip":"20194","miles_from_dt":7.56},{"city":"Gaithersburg","state_name":"Maryland","lat":39.14289,"lng":-77.20282,"zip":"20898","miles_from_dt":7.57},{"city":"Gaithersburg","state_name":"Maryland","lat":39.14442,"lng":-77.21621,"zip":"20899","miles_from_dt":7.61},{"city":"Gaithersburg","state_name":"Maryland","lat":39.14269,"lng":-77.19508,"zip":"20884","miles_from_dt":7.62},{"city":"Germantown","state_name":"Maryland","lat":39.1291,"lng":-77.29721,"zip":"20874","miles_from_dt":7.71},{"city":"Bethesda","state_name":"Maryland","lat":38.95612,"lng":-77.11873,"zip":"20816","miles_from_dt":7.72},{"city":"Bethesda","state_name":"Maryland","lat":38.98412,"lng":-77.09272,"zip":"20824","miles_from_dt":7.74},{"city":"Kensington","state_name":"Maryland","lat":39.02696,"lng":-77.07781,"zip":"20895","miles_from_dt":7.75},{"city":"Washington Grove","state_name":"Maryland","lat":39.14077,"lng":-77.17456,"zip":"20880","miles_from_dt":7.78},{"city":"Kensington","state_name":"Maryland","lat":39.02628,"lng":-77.07544,"zip":"20891","miles_from_dt":7.88},{"city":"Reston","state_name":"Virginia","lat":38.95968,"lng":-77.33806,"zip":"20190","miles_from_dt":8.11},{"city":"Reston","state_name":"Virginia","lat":38.94889,"lng":-77.32678,"zip":"20195","miles_from_dt":8.17},{"city":"Rockville","state_name":"Maryland","lat":39.10237,"lng":-77.09462,"zip":"20853","miles_from_dt":8.29},{"city":"Chevy Chase","state_name":"Maryland","lat":38.9955,"lng":-77.07499,"zip":"20825","miles_from_dt":8.32},{"city":"Bethesda","state_name":"Maryland","lat":38.9841,"lng":-77.08021,"zip":"20813","miles_from_dt":8.35},{"city":"Silver Spring","state_name":"Maryland","lat":39.08411,"lng":-77.07933,"zip":"20916","miles_from_dt":8.39},{"city":"Chevy Chase","state_name":"Maryland","lat":38.98369,"lng":-77.07845,"zip":"20815","miles_from_dt":8.45},{"city":"Derwood","state_name":"Maryland","lat":39.13702,"lng":-77.13197,"zip":"20855","miles_from_dt":8.58},{"city":"Reston","state_name":"Virginia","lat":38.94986,"lng":-77.34433,"zip":"22096","miles_from_dt":8.8},{"city":"Sterling","state_name":"Virginia","lat":39.05058,"lng":-77.38854,"zip":"20165","miles_from_dt":9.06},{"city":"Silver Spring","state_name":"Maryland","lat":39.10473,"lng":-77.07679,"zip":"20908","miles_from_dt":9.18},{"city":"Falls Church","state_name":"Virginia","lat":38.90076,"lng":-77.19746,"zip":"22043","miles_from_dt":9.29},{"city":"Herndon","state_name":"Virginia","lat":38.98075,"lng":-77.38042,"zip":"20170","miles_from_dt":9.31},{"city":"Sterling","state_name":"Virginia","lat":39.01703,"lng":-77.39409,"zip":"20167","miles_from_dt":9.36},{"city":"Silver Spring","state_name":"Maryland","lat":39.04373,"lng":-77.04679,"zip":"20915","miles_from_dt":9.42},{"city":"Gaithersburg","state_name":"Maryland","lat":39.17,"lng":-77.19219,"zip":"20883","miles_from_dt":9.5},{"city":"Sterling","state_name":"Virginia","lat":39.01244,"lng":-77.39586,"zip":"20164","miles_from_dt":9.5},{"city":"Vienna","state_name":"Virginia","lat":38.89929,"lng":-77.26033,"zip":"22185","miles_from_dt":9.53},{"city":"Washington","state_name":"District of Columbia","lat":38.94137,"lng":-77.08984,"zip":"20375","miles_from_dt":9.55},{"city":"Vienna","state_name":"Virginia","lat":38.89745,"lng":-77.25434,"zip":"22183","miles_from_dt":9.59},{"city":"Washington","state_name":"District of Columbia","lat":38.94167,"lng":-77.08741,"zip":"20394","miles_from_dt":9.63},{"city":"Washington","state_name":"District of Columbia","lat":38.93822,"lng":-77.09139,"zip":"20016","miles_from_dt":9.63},{"city":"Dunn Loring","state_name":"Virginia","lat":38.89411,"lng":-77.22159,"zip":"22027","miles_from_dt":9.66},{"city":"Silver Spring","state_name":"Maryland","lat":39.04381,"lng":-77.0421,"zip":"20902","miles_from_dt":9.67},{"city":"Vienna","state_name":"Virginia","lat":38.89619,"lng":-77.25426,"zip":"22180","miles_from_dt":9.68},{"city":"Silver Spring","state_name":"Maryland","lat":39.08858,"lng":-77.05522,"zip":"20906","miles_from_dt":9.7},{"city":"Suburb Maryland Fac","state_name":"Maryland","lat":39.08787,"lng":-77.05479,"zip":"20897","miles_from_dt":9.7},{"city":"Gaithersburg","state_name":"Maryland","lat":39.16992,"lng":-77.17416,"zip":"20879","miles_from_dt":9.71},{"city":"Vienna","state_name":"Virginia","lat":38.9053,"lng":-77.29466,"zip":"22181","miles_from_dt":9.72},{"city":"Herndon","state_name":"Virginia","lat":38.94635,"lng":-77.36314,"zip":"20192","miles_from_dt":9.74},{"city":"Washington","state_name":"District of Columbia","lat":38.94357,"lng":-77.08243,"zip":"20393","miles_from_dt":9.75},{"city":"Herndon","state_name":"Virginia","lat":38.96932,"lng":-77.38325,"zip":"20172","miles_from_dt":9.79},{"city":"Reston","state_name":"Virginia","lat":38.93438,"lng":-77.35184,"zip":"20191","miles_from_dt":9.83},{"city":"Washington","state_name":"District of Columbia","lat":38.98,"lng":-77.05219,"zip":"20511","miles_from_dt":9.85},{"city":"Washington","state_name":"District of Columbia","lat":38.96661,"lng":-77.05837,"zip":"20015","miles_from_dt":9.94},{"city":"Herndon","state_name":"Virginia","lat":38.96894,"lng":-77.3887,"zip":"22095","miles_from_dt":10.06},{"city":"Germantown","state_name":"Maryland","lat":39.17643,"lng":-77.26251,"zip":"20875","miles_from_dt":10.06},{"city":"Montgomery Village","state_name":"Maryland","lat":39.17952,"lng":-77.197,"zip":"20886","miles_from_dt":10.12},{"city":"Arlington","state_name":"Virginia","lat":38.89459,"lng":-77.16239,"zip":"22213","miles_from_dt":10.14},{"city":"Silver Spring","state_name":"Maryland","lat":39.00227,"lng":-77.03634,"zip":"20910","miles_from_dt":10.2},{"city":"Arlington","state_name":"Virginia","lat":38.90665,"lng":-77.12384,"zip":"22207","miles_from_dt":10.25},{"city":"Falls Church","state_name":"Virginia","lat":38.88696,"lng":-77.18025,"zip":"22046","miles_from_dt":10.39},{"city":"Silver Spring","state_name":"Maryland","lat":38.99886,"lng":-77.03252,"zip":"20907","miles_from_dt":10.46},{"city":"Silver Spring","state_name":"Maryland","lat":38.99457,"lng":-77.03226,"zip":"20911","miles_from_dt":10.54},{"city":"Falls Church","state_name":"Virginia","lat":38.88569,"lng":-77.17123,"zip":"22040","miles_from_dt":10.59},{"city":"Washington","state_name":"District of Columbia","lat":38.96001,"lng":-77.04356,"zip":"20242","miles_from_dt":10.86},{"city":"Merrifield","state_name":"Virginia","lat":38.87685,"lng":-77.23574,"zip":"22119","miles_from_dt":10.88},{"city":"Silver Spring","state_name":"Maryland","lat":38.99447,"lng":-77.02542,"zip":"20997","miles_from_dt":10.9},{"city":"Washington","state_name":"District of Columbia","lat":38.97417,"lng":-77.03376,"zip":"20306","miles_from_dt":10.92},{"city":"Washington","state_name":"District of Columbia","lat":38.97863,"lng":-77.03076,"zip":"20012","miles_from_dt":10.96},{"city":"Washington","state_name":"District of Columbia","lat":38.93539,"lng":-77.05935,"zip":"20008","miles_from_dt":11.07},{"city":"Silver Spring","state_name":"Maryland","lat":39.02082,"lng":-77.01637,"zip":"20918","miles_from_dt":11.07},{"city":"Washington","state_name":"District of Columbia","lat":38.9335,"lng":-77.06003,"zip":"20392","miles_from_dt":11.12},{"city":"Merrifield","state_name":"Virginia","lat":38.87338,"lng":-77.23598,"zip":"22081","miles_from_dt":11.12},{"city":"Merrifield","state_name":"Virginia","lat":38.87267,"lng":-77.2373,"zip":"22082","miles_from_dt":11.17},{"city":"Washington","state_name":"District of Columbia","lat":38.9164,"lng":-77.07787,"zip":"20435","miles_from_dt":11.21},{"city":"Washington","state_name":"District of Columbia","lat":38.96672,"lng":-77.03159,"zip":"20040","miles_from_dt":11.23},{"city":"Arlington","state_name":"Virginia","lat":38.88337,"lng":-77.13948,"zip":"22205","miles_from_dt":11.3},{"city":"Olney","state_name":"Maryland","lat":39.15134,"lng":-77.07331,"zip":"20832","miles_from_dt":11.35},{"city":"Poolesville","state_name":"Maryland","lat":39.11208,"lng":-77.40823,"zip":"20837","miles_from_dt":11.39},{"city":"Washington","state_name":"District of Columbia","lat":38.91259,"lng":-77.07756,"zip":"20007","miles_from_dt":11.42},{"city":"Silver Spring","state_name":"Maryland","lat":39.02155,"lng":-77.00919,"zip":"20901","miles_from_dt":11.46},{"city":"Oakton","state_name":"Virginia","lat":38.8909,"lng":-77.33025,"zip":"22124","miles_from_dt":11.49},{"city":"Olney","state_name":"Maryland","lat":39.15927,"lng":-77.07572,"zip":"20830","miles_from_dt":11.66},{"city":"Washington","state_name":"District of Columbia","lat":38.90892,"lng":-77.07511,"zip":"20057","miles_from_dt":11.69},{"city":"Falls Church","state_name":"Virginia","lat":38.86463,"lng":-77.19406,"zip":"22042","miles_from_dt":11.79},{"city":"Washington","state_name":"District of Columbia","lat":38.95442,"lng":-77.02636,"zip":"20039","miles_from_dt":11.86},{"city":"Boyds","state_name":"Maryland","lat":39.1858,"lng":-77.32581,"zip":"20841","miles_from_dt":11.87},{"city":"Germantown","state_name":"Maryland","lat":39.20706,"lng":-77.23284,"zip":"20876","miles_from_dt":11.94},{"city":"Washington","state_name":"District of Columbia","lat":38.91415,"lng":-77.06096,"zip":"20406","miles_from_dt":11.97},{"city":"Reston","state_name":"Virginia","lat":38.92613,"lng":-77.39669,"zip":"20196","miles_from_dt":12.02},{"city":"Silver Spring","state_name":"Maryland","lat":39.07413,"lng":-77.00346,"zip":"20914","miles_from_dt":12.05},{"city":"Washington","state_name":"District of Columbia","lat":38.95295,"lng":-77.02323,"zip":"20011","miles_from_dt":12.05},{"city":"Merrifield","state_name":"Virginia","lat":38.86135,"lng":-77.25745,"zip":"22116","miles_from_dt":12.07},{"city":"Herndon","state_name":"Virginia","lat":38.9246,"lng":-77.39824,"zip":"20171","miles_from_dt":12.15},{"city":"Fairfax","state_name":"Virginia","lat":38.85954,"lng":-77.2599,"zip":"22031","miles_from_dt":12.22},{"city":"Washington","state_name":"District of Columbia","lat":38.94136,"lng":-77.02801,"zip":"20542","miles_from_dt":12.23},{"city":"Arlington","state_name":"Virginia","lat":38.88684,"lng":-77.09501,"zip":"22201","miles_from_dt":12.23},{"city":"Arlington","state_name":"Virginia","lat":38.88728,"lng":-77.09394,"zip":"22210","miles_from_dt":12.24},{"city":"Takoma Park","state_name":"Maryland","lat":38.98188,"lng":-77.00388,"zip":"20913","miles_from_dt":12.25},{"city":"Arlington","state_name":"Virginia","lat":38.89162,"lng":-77.08532,"zip":"22216","miles_from_dt":12.26},{"city":"Fairfax","state_name":"Virginia","lat":38.85798,"lng":-77.25866,"zip":"22036","miles_from_dt":12.31},{"city":"Silver Spring","state_name":"Maryland","lat":39.03614,"lng":-76.99099,"zip":"20993","miles_from_dt":12.4},{"city":"Takoma Park","state_name":"Maryland","lat":38.98182,"lng":-77.00106,"zip":"20912","miles_from_dt":12.4},{"city":"Washington","state_name":"District of Columbia","lat":38.93255,"lng":-77.03128,"zip":"20010","miles_from_dt":12.41},{"city":"Arlington","state_name":"Virginia","lat":38.88388,"lng":-77.09428,"zip":"22226","miles_from_dt":12.42},{"city":"Arlington","state_name":"Virginia","lat":38.87377,"lng":-77.1164,"zip":"22203","miles_from_dt":12.43},{"city":"Fairfax","state_name":"Virginia","lat":38.85596,"lng":-77.2602,"zip":"22034","miles_from_dt":12.47},{"city":"Arlington","state_name":"Virginia","lat":38.89413,"lng":-77.07309,"zip":"22209","miles_from_dt":12.54},{"city":"Falls Church","state_name":"Virginia","lat":38.85957,"lng":-77.15627,"zip":"22044","miles_from_dt":12.54},{"city":"Washington","state_name":"District of Columbia","lat":38.91456,"lng":-77.04447,"zip":"20440","miles_from_dt":12.61},{"city":"Washington","state_name":"District of Columbia","lat":38.92326,"lng":-77.0348,"zip":"20441","miles_from_dt":12.63},{"city":"Washington","state_name":"District of Columbia","lat":38.91703,"lng":-77.04116,"zip":"20554","miles_from_dt":12.63},{"city":"Dulles","state_name":"Virginia","lat":38.99738,"lng":-77.45148,"zip":"20103","miles_from_dt":12.63},{"city":"Arlington","state_name":"Virginia","lat":38.87006,"lng":-77.11668,"zip":"22230","miles_from_dt":12.65},{"city":"Washington","state_name":"District of Columbia","lat":38.91986,"lng":-77.03749,"zip":"20009","miles_from_dt":12.66},{"city":"Washington","state_name":"District of Columbia","lat":38.9119,"lng":-77.04586,"zip":"20235","miles_from_dt":12.67},{"city":"Washington","state_name":"District of Columbia","lat":38.91344,"lng":-77.04398,"zip":"20428","miles_from_dt":12.68},{"city":"Arlington","state_name":"Virginia","lat":38.89123,"lng":-77.07307,"zip":"22219","miles_from_dt":12.69},{"city":"Sterling","state_name":"Virginia","lat":38.98799,"lng":-77.45013,"zip":"20163","miles_from_dt":12.71},{"city":"Washington","state_name":"District of Columbia","lat":38.91925,"lng":-77.03605,"zip":"20232","miles_from_dt":12.75},{"city":"Dulles","state_name":"Virginia","lat":38.98835,"lng":-77.45192,"zip":"20101","miles_from_dt":12.8},{"city":"Silver Spring","state_name":"Maryland","lat":39.02128,"lng":-76.9821,"zip":"20903","miles_from_dt":12.91},{"city":"Ashburn","state_name":"Virginia","lat":39.01905,"lng":-77.46099,"zip":"20146","miles_from_dt":12.93},{"city":"Washington","state_name":"District of Columbia","lat":38.90504,"lng":-77.04704,"zip":"20586","miles_from_dt":12.94},{"city":"Washington","state_name":"District of Columbia","lat":38.90646,"lng":-77.04493,"zip":"20433","miles_from_dt":12.96},{"city":"Washington","state_name":"District of Columbia","lat":38.90187,"lng":-77.04895,"zip":"20437","miles_from_dt":13.02},{"city":"Washington","state_name":"District of Columbia","lat":38.90074,"lng":-77.05016,"zip":"20372","miles_from_dt":13.03},{"city":"Sandy Spring","state_name":"Maryland","lat":39.15072,"lng":-77.03069,"zip":"20860","miles_from_dt":13.03},{"city":"Washington","state_name":"District of Columbia","lat":38.89667,"lng":-77.05536,"zip":"20566","miles_from_dt":13.04},{"city":"Washington","state_name":"District of Columbia","lat":38.90454,"lng":-77.04504,"zip":"20203","miles_from_dt":13.05},{"city":"Washington","state_name":"District of Columbia","lat":38.89959,"lng":-77.05111,"zip":"20521","miles_from_dt":13.05},{"city":"Washington","state_name":"District of Columbia","lat":38.90415,"lng":-77.04535,"zip":"20238","miles_from_dt":13.05},{"city":"Washington","state_name":"District of Columbia","lat":38.90207,"lng":-77.04755,"zip":"20427","miles_from_dt":13.07},{"city":"Washington","state_name":"District of Columbia","lat":38.90705,"lng":-77.04155,"zip":"20036","miles_from_dt":13.07},{"city":"Washington","state_name":"District of Columbia","lat":38.93645,"lng":-77.0128,"zip":"20317","miles_from_dt":13.1},{"city":"Washington","state_name":"District of Columbia","lat":38.90321,"lng":-77.04439,"zip":"20063","miles_from_dt":13.13},{"city":"Washington","state_name":"District of Columbia","lat":38.90105,"lng":-77.04674,"zip":"20068","miles_from_dt":13.15},{"city":"Washington","state_name":"District of Columbia","lat":38.90516,"lng":-77.04143,"zip":"20033","miles_from_dt":13.16},{"city":"Fairfax","state_name":"Virginia","lat":38.85344,"lng":-77.30039,"zip":"22037","miles_from_dt":13.17},{"city":"Washington","state_name":"District of Columbia","lat":38.90143,"lng":-77.0449,"zip":"20579","miles_from_dt":13.2},{"city":"Washington","state_name":"District of Columbia","lat":38.90371,"lng":-77.04214,"zip":"20507","miles_from_dt":13.2},{"city":"Washington","state_name":"District of Columbia","lat":38.89884,"lng":-77.04779,"zip":"20052","miles_from_dt":13.21},{"city":"Washington","state_name":"District of Columbia","lat":38.90067,"lng":-77.04558,"zip":"20526","miles_from_dt":13.21},{"city":"Silver Spring","state_name":"Maryland","lat":39.06608,"lng":-76.97918,"zip":"20904","miles_from_dt":13.22},{"city":"Washington","state_name":"District of Columbia","lat":38.90539,"lng":-77.03945,"zip":"20035","miles_from_dt":13.23},{"city":"Washington","state_name":"District of Columbia","lat":38.89473,"lng":-77.05271,"zip":"20241","miles_from_dt":13.23},{"city":"Fort Myer","state_name":"Virginia","lat":38.88011,"lng":-77.07482,"zip":"22211","miles_from_dt":13.24},{"city":"Washington","state_name":"District of Columbia","lat":38.90622,"lng":-77.03809,"zip":"20544","miles_from_dt":13.24},{"city":"Washington","state_name":"District of Columbia","lat":38.92247,"lng":-77.02003,"zip":"20059","miles_from_dt":13.3},{"city":"Washington","state_name":"District of Columbia","lat":38.89213,"lng":-77.0535,"zip":"20037","miles_from_dt":13.33},{"city":"Washington","state_name":"District of Columbia","lat":38.89895,"lng":-77.04419,"zip":"20431","miles_from_dt":13.35},{"city":"Washington","state_name":"District of Columbia","lat":38.89671,"lng":-77.04701,"zip":"20523","miles_from_dt":13.35},{"city":"Washington","state_name":"District of Columbia","lat":38.89376,"lng":-77.05064,"zip":"20522","miles_from_dt":13.36},{"city":"Washington","state_name":"District of Columbia","lat":38.89845,"lng":-77.04444,"zip":"20456","miles_from_dt":13.36},{"city":"Washington","state_name":"District of Columbia","lat":38.9,"lng":-77.04219,"zip":"20355","miles_from_dt":13.37},{"city":"Washington","state_name":"District of Columbia","lat":38.9,"lng":-77.04219,"zip":"20509","miles_from_dt":13.37},{"city":"Parcel Return Service","state_name":"District of Columbia","lat":38.9,"lng":-77.04219,"zip":"56901","miles_from_dt":13.37},{"city":"Washington","state_name":"District of Columbia","lat":38.8947,"lng":-77.04848,"zip":"20520","miles_from_dt":13.39},{"city":"Washington","state_name":"District of Columbia","lat":38.89846,"lng":-77.04329,"zip":"20067","miles_from_dt":13.4},{"city":"Dulles","state_name":"Virginia","lat":38.95656,"lng":-77.45032,"zip":"20102","miles_from_dt":13.43},{"city":"Washington","state_name":"District of Columbia","lat":38.91864,"lng":-77.02038,"zip":"20060","miles_from_dt":13.44},{"city":"Washington","state_name":"District of Columbia","lat":38.90436,"lng":-77.03541,"zip":"20577","miles_from_dt":13.44},{"city":"Washington","state_name":"District of Columbia","lat":38.89944,"lng":-77.04118,"zip":"20575","miles_from_dt":13.44},{"city":"Washington","state_name":"District of Columbia","lat":38.89773,"lng":-77.04287,"zip":"20504","miles_from_dt":13.46},{"city":"Washington","state_name":"District of Columbia","lat":38.90324,"lng":-77.03606,"zip":"20071","miles_from_dt":13.46},{"city":"Washington","state_name":"District of Columbia","lat":38.89443,"lng":-77.04668,"zip":"20451","miles_from_dt":13.47},{"city":"Washington","state_name":"District of Columbia","lat":38.89929,"lng":-77.04034,"zip":"20508","miles_from_dt":13.48},{"city":"Washington","state_name":"District of Columbia","lat":38.89847,"lng":-77.04119,"zip":"20006","miles_from_dt":13.49},{"city":"Falls Church","state_name":"Virginia","lat":38.8485,"lng":-77.14212,"zip":"22041","miles_from_dt":13.5},{"city":"Washington","state_name":"District of Columbia","lat":38.89967,"lng":-77.03934,"zip":"20506","miles_from_dt":13.5},{"city":"Silver Spring","state_name":"Maryland","lat":39.11052,"lng":-76.99036,"zip":"20905","miles_from_dt":13.5},{"city":"Washington","state_name":"District of Columbia","lat":38.89798,"lng":-77.04153,"zip":"20570","miles_from_dt":13.5},{"city":"Washington","state_name":"District of Columbia","lat":38.89499,"lng":-77.04491,"zip":"20013","miles_from_dt":13.51},{"city":"Washington","state_name":"District of Columbia","lat":38.90212,"lng":-77.03616,"zip":"20503","miles_from_dt":13.51},{"city":"Washington","state_name":"District of Columbia","lat":38.8928,"lng":-77.04776,"zip":"20418","miles_from_dt":13.51},{"city":"Washington","state_name":"District of Columbia","lat":38.90631,"lng":-77.03125,"zip":"20421","miles_from_dt":13.52},{"city":"Washington","state_name":"District of Columbia","lat":38.90191,"lng":-77.03628,"zip":"20062","miles_from_dt":13.52},{"city":"Washington","state_name":"District of Columbia","lat":38.90536,"lng":-77.03177,"zip":"20043","miles_from_dt":13.54},{"city":"Dulles","state_name":"Virginia","lat":38.96242,"lng":-77.45563,"zip":"20189","miles_from_dt":13.54},{"city":"Washington","state_name":"District of Columbia","lat":38.89494,"lng":-77.0442,"zip":"20415","miles_from_dt":13.54},{"city":"Washington","state_name":"District of Columbia","lat":38.92714,"lng":-77.0103,"zip":"20422","miles_from_dt":13.56},{"city":"Washington","state_name":"District of Columbia","lat":38.90501,"lng":-77.03143,"zip":"20038","miles_from_dt":13.57},{"city":"Washington","state_name":"District of Columbia","lat":38.90457,"lng":-77.03191,"zip":"20533","miles_from_dt":13.57},{"city":"Washington","state_name":"District of Columbia","lat":38.89639,"lng":-77.04156,"zip":"20505","miles_from_dt":13.57},{"city":"Washington","state_name":"District of Columbia","lat":38.90584,"lng":-77.03019,"zip":"20572","miles_from_dt":13.58},{"city":"Washington","state_name":"District of Columbia","lat":38.89358,"lng":-77.04503,"zip":"20245","miles_from_dt":13.58},{"city":"Washington","state_name":"District of Columbia","lat":38.8928,"lng":-77.0458,"zip":"20551","miles_from_dt":13.59},{"city":"Washington","state_name":"District of Columbia","lat":38.90443,"lng":-77.0316,"zip":"20005","miles_from_dt":13.59},{"city":"Dulles","state_name":"Virginia","lat":38.99793,"lng":-77.46975,"zip":"20104","miles_from_dt":13.59},{"city":"Washington","state_name":"District of Columbia","lat":38.89645,"lng":-77.04107,"zip":"20555","miles_from_dt":13.59},{"city":"Washington","state_name":"District of Columbia","lat":38.89521,"lng":-77.04199,"zip":"20469","miles_from_dt":13.61},{"city":"Washington","state_name":"District of Columbia","lat":38.89446,"lng":-77.04261,"zip":"20240","miles_from_dt":13.62},{"city":"Washington","state_name":"District of Columbia","lat":38.90477,"lng":-77.03023,"zip":"20439","miles_from_dt":13.63},{"city":"Arlington","state_name":"Virginia","lat":38.86076,"lng":-77.09894,"zip":"22204","miles_from_dt":13.66},{"city":"Washington","state_name":"District of Columbia","lat":38.90247,"lng":-77.03179,"zip":"20524","miles_from_dt":13.67},{"city":"Washington","state_name":"District of Columbia","lat":38.90231,"lng":-77.03176,"zip":"20419","miles_from_dt":13.68},{"city":"Washington","state_name":"District of Columbia","lat":38.89121,"lng":-77.04491,"zip":"20581","miles_from_dt":13.7},{"city":"Washington","state_name":"District of Columbia","lat":38.90045,"lng":-77.03281,"zip":"20571","miles_from_dt":13.72},{"city":"Parcel Return Service","state_name":"District of Columbia","lat":38.8951,"lng":-77.03875,"zip":"56950","miles_from_dt":13.74},{"city":"Parcel Return Service","state_name":"District of Columbia","lat":38.8951,"lng":-77.03875,"zip":"56904","miles_from_dt":13.74},{"city":"Parcel Return Service","state_name":"District of Columbia","lat":38.8951,"lng":-77.03875,"zip":"56908","miles_from_dt":13.74},{"city":"Parcel Return Service","state_name":"District of Columbia","lat":38.8951,"lng":-77.03875,"zip":"56915","miles_from_dt":13.74},{"city":"Parcel Return Service","state_name":"District of Columbia","lat":38.8951,"lng":-77.03875,"zip":"56920","miles_from_dt":13.74},{"city":"Parcel Return Service","state_name":"District of Columbia","lat":38.8951,"lng":-77.03875,"zip":"56933","miles_from_dt":13.74},{"city":"Parcel Return Service","state_name":"District of Columbia","lat":38.8951,"lng":-77.03875,"zip":"56967","miles_from_dt":13.74},{"city":"Parcel Return Service","state_name":"District of Columbia","lat":38.8951,"lng":-77.03875,"zip":"56972","miles_from_dt":13.74},{"city":"Sterling","state_name":"Virginia","lat":38.97146,"lng":-77.4637,"zip":"20166","miles_from_dt":13.74},{"city":"Washington","state_name":"District of Columbia","lat":38.93637,"lng":-76.99924,"zip":"20064","miles_from_dt":13.74},{"city":"Parcel Return Service","state_name":"District of Columbia","lat":38.8951,"lng":-77.03875,"zip":"56944","miles_from_dt":13.74},{"city":"Parcel Return Service","state_name":"District of Columbia","lat":38.8951,"lng":-77.03875,"zip":"56945","miles_from_dt":13.74},{"city":"Parcel Return Service","state_name":"District of Columbia","lat":38.8951,"lng":-77.03875,"zip":"56999","miles_from_dt":13.74},{"city":"Parcel Return Service","state_name":"District of Columbia","lat":38.8951,"lng":-77.03875,"zip":"56965","miles_from_dt":13.74},{"city":"Parcel Return Service","state_name":"District of Columbia","lat":38.8951,"lng":-77.03875,"zip":"56902","miles_from_dt":13.74},{"city":"Parcel Return Service","state_name":"District of Columbia","lat":38.8951,"lng":-77.03875,"zip":"56935","miles_from_dt":13.74},{"city":"Parcel Return Service","state_name":"District of Columbia","lat":38.8951,"lng":-77.03875,"zip":"56998","miles_from_dt":13.74},{"city":"Hyattsville","state_name":"Maryland","lat":39.00188,"lng":-76.96939,"zip":"20787","miles_from_dt":13.75},{"city":"Washington","state_name":"District of Columbia","lat":38.90255,"lng":-77.02869,"zip":"20420","miles_from_dt":13.79},{"city":"Washington","state_name":"District of Columbia","lat":38.90486,"lng":-77.02619,"zip":"20091","miles_from_dt":13.79},{"city":"Hyattsville","state_name":"Maryland","lat":38.99988,"lng":-76.96886,"zip":"20783","miles_from_dt":13.8},{"city":"Washington","state_name":"District of Columbia","lat":38.89819,"lng":-77.03312,"zip":"20500","miles_from_dt":13.81},{"city":"Washington","state_name":"District of Columbia","lat":38.89696,"lng":-77.03462,"zip":"20502","miles_from_dt":13.81},{"city":"Washington","state_name":"District of Columbia","lat":38.89713,"lng":-77.03436,"zip":"20220","miles_from_dt":13.82},{"city":"Washington","state_name":"District of Columbia","lat":38.90062,"lng":-77.0302,"zip":"20525","miles_from_dt":13.82},{"city":"Washington","state_name":"District of Columbia","lat":38.90088,"lng":-77.02971,"zip":"20501","miles_from_dt":13.83},{"city":"Washington","state_name":"District of Columbia","lat":38.89838,"lng":-77.03246,"zip":"20576","miles_from_dt":13.83},{"city":"Washington","state_name":"District of Columbia","lat":38.89834,"lng":-77.0323,"zip":"20222","miles_from_dt":13.84},{"city":"Washington","state_name":"District of Columbia","lat":38.89145,"lng":-77.04079,"zip":"20429","miles_from_dt":13.84},{"city":"Arlington","state_name":"Virginia","lat":38.87499,"lng":-77.06501,"zip":"22214","miles_from_dt":13.84},{"city":"Washington","state_name":"District of Columbia","lat":38.89294,"lng":-77.03893,"zip":"20434","miles_from_dt":13.84},{"city":"Washington","state_name":"District of Columbia","lat":38.90107,"lng":-77.02882,"zip":"20268","miles_from_dt":13.85},{"city":"Washington","state_name":"District of Columbia","lat":38.89662,"lng":-77.034,"zip":"20597","miles_from_dt":13.85},{"city":"Washington","state_name":"District of Columbia","lat":38.89434,"lng":-77.03699,"zip":"20223","miles_from_dt":13.85},{"city":"Washington","state_name":"District of Columbia","lat":38.89458,"lng":-77.03635,"zip":"20468","miles_from_dt":13.86},{"city":"Washington","state_name":"District of Columbia","lat":38.89779,"lng":-77.03198,"zip":"20226","miles_from_dt":13.88},{"city":"Ashburn","state_name":"Virginia","lat":39.04151,"lng":-77.47958,"zip":"20147","miles_from_dt":13.89},{"city":"Washington","state_name":"District of Columbia","lat":38.91002,"lng":-77.018,"zip":"20001","miles_from_dt":13.91},{"city":"Washington","state_name":"District of Columbia","lat":38.90191,"lng":-77.02594,"zip":"20527","miles_from_dt":13.93},{"city":"Washington","state_name":"District of Columbia","lat":38.89278,"lng":-77.03685,"zip":"20470","miles_from_dt":13.93},{"city":"Washington","state_name":"District of Columbia","lat":38.89373,"lng":-77.03567,"zip":"20230","miles_from_dt":13.93},{"city":"Washington","state_name":"District of Columbia","lat":38.8991,"lng":-77.029,"zip":"20453","miles_from_dt":13.94},{"city":"Washington","state_name":"District of Columbia","lat":38.8991,"lng":-77.029,"zip":"20350","miles_from_dt":13.94},{"city":"Washington","state_name":"District of Columbia","lat":38.8991,"lng":-77.029,"zip":"20330","miles_from_dt":13.94},{"city":"Washington","state_name":"District of Columbia","lat":38.8991,"lng":-77.029,"zip":"20310","miles_from_dt":13.94},{"city":"Washington","state_name":"District of Columbia","lat":38.8991,"lng":-77.029,"zip":"20233","miles_from_dt":13.94},{"city":"Washington","state_name":"District of Columbia","lat":38.8991,"lng":-77.029,"zip":"20047","miles_from_dt":13.94},{"city":"Washington","state_name":"District of Columbia","lat":38.8991,"lng":-77.029,"zip":"20389","miles_from_dt":13.94},{"city":"Washington","state_name":"District of Columbia","lat":38.8991,"lng":-77.029,"zip":"20076","miles_from_dt":13.94},{"city":"Washington","state_name":"District of Columbia","lat":38.92,"lng":-77.00751,"zip":"20206","miles_from_dt":13.95},{"city":"Washington","state_name":"District of Columbia","lat":38.92,"lng":-77.00751,"zip":"20058","miles_from_dt":13.95},{"city":"Washington","state_name":"District of Columbia","lat":38.92,"lng":-77.00751,"zip":"20069","miles_from_dt":13.95},{"city":"Washington","state_name":"District of Columbia","lat":38.92,"lng":-77.00751,"zip":"20070","miles_from_dt":13.95},{"city":"Washington","state_name":"District of Columbia","lat":38.89457,"lng":-77.03366,"zip":"20227","miles_from_dt":13.96},{"city":"Washington","state_name":"District of Columbia","lat":38.89673,"lng":-77.0308,"zip":"20045","miles_from_dt":13.97},{"city":"Washington","state_name":"District of Columbia","lat":38.93813,"lng":-76.99294,"zip":"20017","miles_from_dt":13.97},{"city":"Washington","state_name":"District of Columbia","lat":38.90003,"lng":-77.02655,"zip":"20080","miles_from_dt":13.99},{"city":"Washington","state_name":"District of Columbia","lat":38.89839,"lng":-77.02859,"zip":"20539","miles_from_dt":13.99},{"city":"Fairfax","state_name":"Virginia","lat":38.87564,"lng":-77.38419,"zip":"22033","miles_from_dt":14.01},{"city":"Ashburn","state_name":"Virginia","lat":39.04362,"lng":-77.48161,"zip":"20149","miles_from_dt":14.01},{"city":"Washington","state_name":"District of Columbia","lat":38.89946,"lng":-77.02664,"zip":"20081","miles_from_dt":14.01},{"city":"Washington","state_name":"District of Columbia","lat":38.89539,"lng":-77.03119,"zip":"20424","miles_from_dt":14.02},{"city":"Annandale","state_name":"Virginia","lat":38.8308,"lng":-77.21402,"zip":"22003","miles_from_dt":14.03},{"city":"Washington","state_name":"District of Columbia","lat":38.89681,"lng":-77.02915,"zip":"20528","miles_from_dt":14.04},{"city":"Arlington","state_name":"Virginia","lat":38.85843,"lng":-77.08967,"zip":"22212","miles_from_dt":14.05},{"city":"Washington","state_name":"District of Columbia","lat":38.9014,"lng":-77.02335,"zip":"20055","miles_from_dt":14.06},{"city":"Washington","state_name":"District of Columbia","lat":38.89277,"lng":-77.03299,"zip":"20229","miles_from_dt":14.08},{"city":"Washington","state_name":"District of Columbia","lat":38.89976,"lng":-77.02443,"zip":"20552","miles_from_dt":14.09},{"city":"Washington","state_name":"District of Columbia","lat":38.89669,"lng":-77.02806,"zip":"20202","miles_from_dt":14.09},{"city":"Arlington","state_name":"Virginia","lat":38.85566,"lng":-77.093,"zip":"22217","miles_from_dt":14.12},{"city":"Washington","state_name":"District of Columbia","lat":38.90108,"lng":-77.02217,"zip":"20405","miles_from_dt":14.12},{"city":"Washington","state_name":"District of Columbia","lat":38.89858,"lng":-77.02454,"zip":"20463","miles_from_dt":14.14},{"city":"Washington","state_name":"District of Columbia","lat":38.90059,"lng":-77.02208,"zip":"20270","miles_from_dt":14.15},{"city":"Washington","state_name":"District of Columbia","lat":38.8941,"lng":-77.02888,"zip":"20221","miles_from_dt":14.17},{"city":"Washington","state_name":"District of Columbia","lat":38.89723,"lng":-77.02536,"zip":"20537","miles_from_dt":14.17},{"city":"Washington","state_name":"District of Columbia","lat":38.89757,"lng":-77.0241,"zip":"20436","miles_from_dt":14.2},{"city":"Washington","state_name":"District of Columbia","lat":38.896,"lng":-77.02581,"zip":"20044","miles_from_dt":14.21},{"city":"Washington","state_name":"District of Columbia","lat":38.89504,"lng":-77.02661,"zip":"20004","miles_from_dt":14.22},{"city":"Washington","state_name":"District of Columbia","lat":38.89709,"lng":-77.02417,"zip":"20425","miles_from_dt":14.22},{"city":"Washington","state_name":"District of Columbia","lat":38.90071,"lng":-77.01962,"zip":"20548","miles_from_dt":14.24},{"city":"Gaithersburg","state_name":"Maryland","lat":39.23182,"lng":-77.14514,"zip":"20882","miles_from_dt":14.24},{"city":"Washington","state_name":"District of Columbia","lat":38.89321,"lng":-77.02776,"zip":"20423","miles_from_dt":14.26},{"city":"Ashton","state_name":"Maryland","lat":39.14653,"lng":-76.99886,"zip":"20861","miles_from_dt":14.26},{"city":"Washington","state_name":"District of Columbia","lat":38.89514,"lng":-77.02493,"zip":"20535","miles_from_dt":14.28},{"city":"Washington","state_name":"District of Columbia","lat":38.9016,"lng":-77.01749,"zip":"20538","miles_from_dt":14.29},{"city":"Washington","state_name":"District of Columbia","lat":38.89618,"lng":-77.02251,"zip":"20073","miles_from_dt":14.33},{"city":"Washington","state_name":"District of Columbia","lat":38.89412,"lng":-77.02413,"zip":"20580","miles_from_dt":14.36},{"city":"Washington","state_name":"District of Columbia","lat":38.89094,"lng":-77.02783,"zip":"20224","miles_from_dt":14.36},{"city":"Washington","state_name":"District of Columbia","lat":38.89313,"lng":-77.02503,"zip":"20530","miles_from_dt":14.37},{"city":"Washington","state_name":"District of Columbia","lat":38.88771,"lng":-77.03142,"zip":"20228","miles_from_dt":14.38},{"city":"Washington","state_name":"District of Columbia","lat":38.90101,"lng":-77.01594,"zip":"20536","miles_from_dt":14.38},{"city":"Beallsville","state_name":"Maryland","lat":39.17909,"lng":-77.41438,"zip":"20839","miles_from_dt":14.4},{"city":"Washington","state_name":"District of Columbia","lat":38.8902,"lng":-77.02745,"zip":"20560","miles_from_dt":14.41},{"city":"Washington","state_name":"District of Columbia","lat":38.89498,"lng":-77.02178,"zip":"20413","miles_from_dt":14.42},{"city":"Washington","state_name":"District of Columbia","lat":38.88556,"lng":-77.03276,"zip":"20250","miles_from_dt":14.43},{"city":"Fairfax","state_name":"Virginia","lat":38.85628,"lng":-77.36269,"zip":"22035","miles_from_dt":14.43},{"city":"Washington","state_name":"District of Columbia","lat":38.89953,"lng":-77.01593,"zip":"20529","miles_from_dt":14.45},{"city":"Washington","state_name":"District of Columbia","lat":38.90685,"lng":-77.008,"zip":"20417","miles_from_dt":14.47},{"city":"Washington","state_name":"District of Columbia","lat":38.89571,"lng":-77.01963,"zip":"20531","miles_from_dt":14.47},{"city":"Washington","state_name":"District of Columbia","lat":38.89284,"lng":-77.02301,"zip":"20408","miles_from_dt":14.47},{"city":"Washington","state_name":"District of Columbia","lat":38.89443,"lng":-77.02032,"zip":"20049","miles_from_dt":14.5},{"city":"Washington","state_name":"District of Columbia","lat":38.92058,"lng":-76.9945,"zip":"20303","miles_from_dt":14.52},{"city":"Hyattsville","state_name":"Maryland","lat":38.9649,"lng":-76.9667,"zip":"20788","miles_from_dt":14.52},{"city":"Washington","state_name":"District of Columbia","lat":38.91948,"lng":-76.99466,"zip":"20077","miles_from_dt":14.55},{"city":"Washington","state_name":"District of Columbia","lat":38.91821,"lng":-76.99548,"zip":"20066","miles_from_dt":14.56},{"city":"Washington","state_name":"District of Columbia","lat":38.919,"lng":-76.99492,"zip":"20262","miles_from_dt":14.56},{"city":"Washington","state_name":"District of Columbia","lat":38.89228,"lng":-77.02052,"zip":"20412","miles_from_dt":14.59},{"city":"Washington","state_name":"District of Columbia","lat":38.91696,"lng":-76.99581,"zip":"20075","miles_from_dt":14.59},{"city":"Washington","state_name":"District of Columbia","lat":38.91888,"lng":-76.99385,"zip":"20061","miles_from_dt":14.61},{"city":"Hyattsville","state_name":"Maryland","lat":38.96469,"lng":-76.9649,"zip":"20782","miles_from_dt":14.62},{"city":"Washington","state_name":"District of Columbia","lat":38.89109,"lng":-77.02094,"zip":"20301","miles_from_dt":14.63},{"city":"Washington","state_name":"District of Columbia","lat":38.89182,"lng":-77.01958,"zip":"20549","miles_from_dt":14.65},{"city":"Washington","state_name":"District of Columbia","lat":38.9149,"lng":-76.99627,"zip":"20244","miles_from_dt":14.65},{"city":"Washington","state_name":"District of Columbia","lat":38.91756,"lng":-76.99393,"zip":"20214","miles_from_dt":14.66},{"city":"Washington","state_name":"District of Columbia","lat":38.90241,"lng":-77.00792,"zip":"20211","miles_from_dt":14.66},{"city":"Washington","state_name":"District of Columbia","lat":38.8877,"lng":-77.02404,"zip":"20553","miles_from_dt":14.67},{"city":"Washington","state_name":"District of Columbia","lat":38.9164,"lng":-76.99451,"zip":"20078","miles_from_dt":14.67},{"city":"Washington","state_name":"District of Columbia","lat":38.91673,"lng":-76.99429,"zip":"20042","miles_from_dt":14.67},{"city":"Washington","state_name":"District of Columbia","lat":38.88506,"lng":-77.02733,"zip":"20447","miles_from_dt":14.67},{"city":"Washington","state_name":"District of Columbia","lat":38.91471,"lng":-76.99592,"zip":"20074","miles_from_dt":14.68},{"city":"Washington","state_name":"District of Columbia","lat":38.88617,"lng":-77.02567,"zip":"20585","miles_from_dt":14.68},{"city":"Washington","state_name":"District of Columbia","lat":38.89825,"lng":-77.01096,"zip":"20402","miles_from_dt":14.71},{"city":"Alexandria","state_name":"Virginia","lat":38.864,"lng":-77.05664,"zip":"22350","miles_from_dt":14.72},{"city":"Washington","state_name":"District of Columbia","lat":38.89007,"lng":-77.01955,"zip":"20565","miles_from_dt":14.73},{"city":"Washington","state_name":"District of Columbia","lat":38.89773,"lng":-77.01112,"zip":"20208","miles_from_dt":14.73},{"city":"Washington","state_name":"District of Columbia","lat":38.87959,"lng":-77.03246,"zip":"20239","miles_from_dt":14.74},{"city":"Washington","state_name":"District of Columbia","lat":38.88695,"lng":-77.02297,"zip":"20591","miles_from_dt":14.74},{"city":"Alexandria","state_name":"Virginia","lat":38.83442,"lng":-77.12313,"zip":"22311","miles_from_dt":14.76},{"city":"Washington","state_name":"District of Columbia","lat":38.89725,"lng":-77.01055,"zip":"20578","miles_from_dt":14.77},{"city":"Washington","state_name":"District of Columbia","lat":38.91837,"lng":-76.99078,"zip":"20299","miles_from_dt":14.77},{"city":"Washington","state_name":"District of Columbia","lat":38.9017,"lng":-77.00599,"zip":"20426","miles_from_dt":14.77},{"city":"Washington","state_name":"District of Columbia","lat":38.89938,"lng":-77.00802,"zip":"20573","miles_from_dt":14.78},{"city":"Washington","state_name":"District of Columbia","lat":38.88683,"lng":-77.02214,"zip":"20594","miles_from_dt":14.78},{"city":"Washington","state_name":"District of Columbia","lat":38.88271,"lng":-77.02719,"zip":"20065","miles_from_dt":14.79},{"city":"Merrifield","state_name":"Virginia","lat":38.83936,"lng":-77.33663,"zip":"22118","miles_from_dt":14.8},{"city":"Washington","state_name":"District of Columbia","lat":38.8852,"lng":-77.02363,"zip":"20411","miles_from_dt":14.8},{"city":"Washington","state_name":"District of Columbia","lat":38.89782,"lng":-77.009,"zip":"20401","miles_from_dt":14.81},{"city":"Washington","state_name":"District of Columbia","lat":38.89281,"lng":-77.01451,"zip":"20442","miles_from_dt":14.81},{"city":"Washington","state_name":"District of Columbia","lat":38.89771,"lng":-77.00887,"zip":"20404","miles_from_dt":14.82},{"city":"Washington","state_name":"District of Columbia","lat":38.89421,"lng":-77.01251,"zip":"20215","miles_from_dt":14.83},{"city":"Washington","state_name":"District of Columbia","lat":38.88615,"lng":-77.02186,"zip":"20251","miles_from_dt":14.83},{"city":"Brookeville","state_name":"Maryland","lat":39.20595,"lng":-77.05552,"zip":"20833","miles_from_dt":14.83},{"city":"Washington","state_name":"District of Columbia","lat":38.88355,"lng":-77.02504,"zip":"20260","miles_from_dt":14.83},{"city":"Brinklow","state_name":"Maryland","lat":39.18039,"lng":-77.01879,"zip":"20862","miles_from_dt":14.85},{"city":"Washington","state_name":"District of Columbia","lat":38.89493,"lng":-77.01118,"zip":"20217","miles_from_dt":14.85},{"city":"Washington","state_name":"District of Columbia","lat":38.89692,"lng":-77.0088,"zip":"20444","miles_from_dt":14.86},{"city":"Washington","state_name":"District of Columbia","lat":38.8843,"lng":-77.02313,"zip":"20407","miles_from_dt":14.86},{"city":"Washington","state_name":"District of Columbia","lat":38.88555,"lng":-77.02138,"zip":"20410","miles_from_dt":14.87},{"city":"Washington","state_name":"District of Columbia","lat":38.89642,"lng":-77.00878,"zip":"20082","miles_from_dt":14.88},{"city":"Washington","state_name":"District of Columbia","lat":38.89587,"lng":-77.00916,"zip":"20314","miles_from_dt":14.89},{"city":"Washington","state_name":"District of Columbia","lat":38.89186,"lng":-77.01278,"zip":"20216","miles_from_dt":14.92},{"city":"Washington","state_name":"District of Columbia","lat":38.88497,"lng":-77.02085,"zip":"20254","miles_from_dt":14.92},{"city":"Washington","state_name":"District of Columbia","lat":38.88161,"lng":-77.02498,"zip":"20414","miles_from_dt":14.92},{"city":"Arlington","state_name":"Virginia","lat":38.8442,"lng":-77.0886,"zip":"22206","miles_from_dt":14.93},{"city":"Washington","state_name":"District of Columbia","lat":38.88593,"lng":-77.01944,"zip":"20472","miles_from_dt":14.93},{"city":"Washington","state_name":"District of Columbia","lat":38.89087,"lng":-77.01347,"zip":"20213","miles_from_dt":14.94},{"city":"Washington","state_name":"District of Columbia","lat":38.88752,"lng":-77.01741,"zip":"20252","miles_from_dt":14.94},{"city":"Washington","state_name":"District of Columbia","lat":38.88752,"lng":-77.01741,"zip":"20237","miles_from_dt":14.94},{"city":"Washington","state_name":"District of Columbia","lat":38.88839,"lng":-77.01599,"zip":"20403","miles_from_dt":14.95},{"city":"Fairfax","state_name":"Virginia","lat":38.83891,"lng":-77.34188,"zip":"22030","miles_from_dt":14.95},{"city":"Washington","state_name":"District of Columbia","lat":38.88735,"lng":-77.01736,"zip":"20201","miles_from_dt":14.95},{"city":"Washington","state_name":"District of Columbia","lat":38.88569,"lng":-77.0191,"zip":"20261","miles_from_dt":14.96},{"city":"Washington","state_name":"District of Columbia","lat":38.89537,"lng":-77.00753,"zip":"20212","miles_from_dt":14.98},{"city":"Washington","state_name":"District of Columbia","lat":38.89227,"lng":-77.011,"zip":"20534","miles_from_dt":14.98},{"city":"Washington","state_name":"District of Columbia","lat":38.88433,"lng":-77.0202,"zip":"20265","miles_from_dt":14.98},{"city":"Spencerville","state_name":"Maryland","lat":39.12534,"lng":-76.96834,"zip":"20868","miles_from_dt":14.99},{"city":"Arlington","state_name":"Virginia","lat":38.86103,"lng":-77.05257,"zip":"22243","miles_from_dt":15.01},{"city":"Arlington","state_name":"Virginia","lat":38.8587,"lng":-77.05635,"zip":"22241","miles_from_dt":15.02},{"city":"Washington","state_name":"District of Columbia","lat":38.88994,"lng":-77.01235,"zip":"20210","miles_from_dt":15.03},{"city":"Arlington","state_name":"Virginia","lat":38.85661,"lng":-77.05938,"zip":"22225","miles_from_dt":15.04},{"city":"Washington","state_name":"District of Columbia","lat":38.88244,"lng":-77.02071,"zip":"20266","miles_from_dt":15.05},{"city":"Washington","state_name":"District of Columbia","lat":38.87517,"lng":-77.0295,"zip":"20024","miles_from_dt":15.07},{"city":"Washington","state_name":"District of Columbia","lat":38.88306,"lng":-77.01885,"zip":"20289","miles_from_dt":15.09},{"city":"Washington","state_name":"District of Columbia","lat":38.87885,"lng":-77.02362,"zip":"20590","miles_from_dt":15.11},{"city":"Washington","state_name":"District of Columbia","lat":38.89278,"lng":-77.00689,"zip":"20510","miles_from_dt":15.12},{"city":"Washington","state_name":"District of Columbia","lat":38.88525,"lng":-77.0146,"zip":"20547","miles_from_dt":15.15},{"city":"Washington","state_name":"District of Columbia","lat":38.88556,"lng":-77.01443,"zip":"20204","miles_from_dt":15.15},{"city":"Mount Rainier","state_name":"Maryland","lat":38.94306,"lng":-76.96517,"zip":"20712","miles_from_dt":15.16},{"city":"Washington","state_name":"District of Columbia","lat":38.88262,"lng":-77.01739,"zip":"20416","miles_from_dt":15.17},{"city":"Arlington","state_name":"Virginia","lat":38.85762,"lng":-77.05308,"zip":"22246","miles_from_dt":15.18},{"city":"Washington","state_name":"District of Columbia","lat":38.88254,"lng":-77.017,"zip":"20277","miles_from_dt":15.19},{"city":"Washington","state_name":"District of Columbia","lat":38.88033,"lng":-77.01933,"zip":"20026","miles_from_dt":15.2},{"city":"Washington","state_name":"District of Columbia","lat":38.88917,"lng":-77.0088,"zip":"20543","miles_from_dt":15.21},{"city":"College Park","state_name":"Maryland","lat":38.99422,"lng":-76.94347,"zip":"20742","miles_from_dt":15.21},{"city":"Washington","state_name":"District of Columbia","lat":38.88241,"lng":-77.01621,"zip":"20219","miles_from_dt":15.22},{"city":"Fairfax","state_name":"Virginia","lat":38.82012,"lng":-77.29032,"zip":"22032","miles_from_dt":15.22},{"city":"Washington","state_name":"District of Columbia","lat":38.94,"lng":-77.47751,"zip":"20041","miles_from_dt":15.24},{"city":"Washington","state_name":"District of Columbia","lat":38.88473,"lng":-77.01222,"zip":"20053","miles_from_dt":15.27},{"city":"Arlington","state_name":"Virginia","lat":38.85846,"lng":-77.04896,"zip":"22215","miles_from_dt":15.27},{"city":"Arlington","state_name":"Virginia","lat":38.8569,"lng":-77.05175,"zip":"22202","miles_from_dt":15.27},{"city":"Washington","state_name":"District of Columbia","lat":38.87823,"lng":-77.02001,"zip":"20460","miles_from_dt":15.28},{"city":"Washington","state_name":"District of Columbia","lat":38.88864,"lng":-77.00711,"zip":"20541","miles_from_dt":15.3},{"city":"Washington","state_name":"District of Columbia","lat":38.88681,"lng":-77.00901,"zip":"20515","miles_from_dt":15.3},{"city":"Washington","state_name":"District of Columbia","lat":38.89359,"lng":-77.00129,"zip":"20599","miles_from_dt":15.32},{"city":"Arlington","state_name":"Virginia","lat":38.85408,"lng":-77.0549,"zip":"22227","miles_from_dt":15.32},{"city":"Washington","state_name":"District of Columbia","lat":38.92596,"lng":-76.97281,"zip":"20018","miles_from_dt":15.33},{"city":"Arlington","state_name":"Virginia","lat":38.85629,"lng":-77.05089,"zip":"22242","miles_from_dt":15.33},{"city":"Chantilly","state_name":"Virginia","lat":38.89583,"lng":-77.44453,"zip":"20151","miles_from_dt":15.34},{"city":"Barnesville","state_name":"Maryland","lat":39.22341,"lng":-77.37223,"zip":"20838","miles_from_dt":15.37},{"city":"Springfield","state_name":"Virginia","lat":38.81129,"lng":-77.22119,"zip":"22160","miles_from_dt":15.37},{"city":"Washington","state_name":"District of Columbia","lat":38.88795,"lng":-77.00579,"zip":"20559","miles_from_dt":15.38},{"city":"Washington","state_name":"District of Columbia","lat":38.90618,"lng":-76.98722,"zip":"20050","miles_from_dt":15.4},{"city":"Washington","state_name":"District of Columbia","lat":38.8789,"lng":-77.01598,"zip":"20090","miles_from_dt":15.4},{"city":"Arlington","state_name":"Virginia","lat":38.85512,"lng":-77.05026,"zip":"22244","miles_from_dt":15.41},{"city":"Arlington","state_name":"Virginia","lat":38.85302,"lng":-77.05415,"zip":"22240","miles_from_dt":15.41},{"city":"Springfield","state_name":"Virginia","lat":38.81226,"lng":-77.25641,"zip":"22158","miles_from_dt":15.42},{"city":"Washington","state_name":"District of Columbia","lat":38.90663,"lng":-76.98615,"zip":"20056","miles_from_dt":15.43},{"city":"Washington","state_name":"District of Columbia","lat":38.88793,"lng":-77.00471,"zip":"20540","miles_from_dt":15.43},{"city":"Alexandria","state_name":"Virginia","lat":38.81685,"lng":-77.15372,"zip":"22312","miles_from_dt":15.43},{"city":"Arlington","state_name":"Virginia","lat":38.85207,"lng":-77.05149,"zip":"22245","miles_from_dt":15.54},{"city":"College Park","state_name":"Maryland","lat":38.9981,"lng":-76.93648,"zip":"20741","miles_from_dt":15.54},{"city":"Washington","state_name":"District of Columbia","lat":38.90511,"lng":-76.98431,"zip":"20002","miles_from_dt":15.57},{"city":"Chantilly","state_name":"Virginia","lat":38.88759,"lng":-77.44142,"zip":"20153","miles_from_dt":15.57},{"city":"Washington","state_name":"District of Columbia","lat":38.90172,"lng":-76.98357,"zip":"20207","miles_from_dt":15.73},{"city":"College Park","state_name":"Maryland","lat":39.00193,"lng":-76.93096,"zip":"20740","miles_from_dt":15.79},{"city":"Clarksburg","state_name":"Maryland","lat":39.2592,"lng":-77.28187,"zip":"20871","miles_from_dt":15.86},{"city":"Washington","state_name":"District of Columbia","lat":38.9,"lng":-76.98219,"zip":"20027","miles_from_dt":15.86},{"city":"Washington","state_name":"District of Columbia","lat":38.86706,"lng":-77.01695,"zip":"20319","miles_from_dt":15.94},{"city":"Fairfax","state_name":"Virginia","lat":38.83082,"lng":-77.36294,"zip":"22038","miles_from_dt":15.96},{"city":"Springfield","state_name":"Virginia","lat":38.80283,"lng":-77.2096,"zip":"22151","miles_from_dt":15.97},{"city":"Washington","state_name":"District of Columbia","lat":38.91871,"lng":-76.96339,"zip":"20022","miles_from_dt":16.02},{"city":"Alexandria","state_name":"Virginia","lat":38.82799,"lng":-77.08432,"zip":"22302","miles_from_dt":16.03},{"city":"Alexandria","state_name":"Virginia","lat":38.83655,"lng":-77.06234,"zip":"22305","miles_from_dt":16.1},{"city":"Washington","state_name":"District of Columbia","lat":38.86738,"lng":-77.01225,"zip":"20593","miles_from_dt":16.1},{"city":"Brentwood","state_name":"Maryland","lat":38.9351,"lng":-76.94944,"zip":"20722","miles_from_dt":16.16},{"city":"Springfield","state_name":"Virginia","lat":38.8017,"lng":-77.18227,"zip":"22159","miles_from_dt":16.17},{"city":"Alexandria","state_name":"Virginia","lat":38.81507,"lng":-77.11364,"zip":"22333","miles_from_dt":16.19},{"city":"Washington","state_name":"District of Columbia","lat":38.86497,"lng":-77.01222,"zip":"20318","miles_from_dt":16.22},{"city":"Dickerson","state_name":"Maryland","lat":39.20831,"lng":-77.42473,"zip":"20842","miles_from_dt":16.24},{"city":"Washington","state_name":"District of Columbia","lat":38.88397,"lng":-76.98925,"zip":"20546","miles_from_dt":16.24},{"city":"Alexandria","state_name":"Virginia","lat":38.81361,"lng":-77.11498,"zip":"22304","miles_from_dt":16.26},{"city":"Washington","state_name":"District of Columbia","lat":38.87876,"lng":-76.9942,"zip":"20370","miles_from_dt":16.27},{"city":"Washington","state_name":"District of Columbia","lat":38.87902,"lng":-76.99375,"zip":"20390","miles_from_dt":16.28},{"city":"Washington","state_name":"District of Columbia","lat":38.88193,"lng":-76.99033,"zip":"20003","miles_from_dt":16.29},{"city":"Washington Navy Yard","state_name":"District of Columbia","lat":38.87642,"lng":-76.99592,"zip":"20376","miles_from_dt":16.31},{"city":"Burtonsville","state_name":"Maryland","lat":39.10969,"lng":-76.93411,"zip":"20866","miles_from_dt":16.31},{"city":"Washington Navy Yard","state_name":"District of Columbia","lat":38.87705,"lng":-76.99498,"zip":"20391","miles_from_dt":16.32},{"city":"Washington","state_name":"District of Columbia","lat":38.88037,"lng":-76.99066,"zip":"20557","miles_from_dt":16.34},{"city":"Washington","state_name":"District of Columbia","lat":38.87692,"lng":-76.99408,"zip":"20380","miles_from_dt":16.36},{"city":"Washington Navy Yard","state_name":"District of Columbia","lat":38.87613,"lng":-76.99424,"zip":"20398","miles_from_dt":16.39},{"city":"Riverdale","state_name":"Maryland","lat":38.96324,"lng":-76.9292,"zip":"20738","miles_from_dt":16.48},{"city":"Washington Navy Yard","state_name":"District of Columbia","lat":38.8718,"lng":-76.99481,"zip":"20388","miles_from_dt":16.57},{"city":"Hyattsville","state_name":"Maryland","lat":38.94229,"lng":-76.93655,"zip":"20781","miles_from_dt":16.6},{"city":"Naval Anacost Annex","state_name":"District of Columbia","lat":38.85779,"lng":-77.01051,"zip":"20373","miles_from_dt":16.65},{"city":"Highland","state_name":"Maryland","lat":39.17487,"lng":-76.96783,"zip":"20777","miles_from_dt":16.74},{"city":"Burke","state_name":"Virginia","lat":38.79333,"lng":-77.27194,"zip":"22009","miles_from_dt":16.83},{"city":"Washington","state_name":"District of Columbia","lat":38.84962,"lng":-77.01664,"zip":"20340","miles_from_dt":16.85},{"city":"Beltsville","state_name":"Maryland","lat":39.0394,"lng":-76.90696,"zip":"20704","miles_from_dt":16.93},{"city":"Ashburn","state_name":"Virginia","lat":38.99062,"lng":-77.53284,"zip":"20148","miles_from_dt":17.02},{"city":"Southern Md Facility","state_name":"Maryland","lat":39.03292,"lng":-76.90425,"zip":"20697","miles_from_dt":17.07},{"city":"Springfield","state_name":"Virginia","lat":38.78786,"lng":-77.18722,"zip":"22161","miles_from_dt":17.09},{"city":"Bladensburg","state_name":"Maryland","lat":38.94204,"lng":-76.92623,"zip":"20710","miles_from_dt":17.12},{"city":"Alexandria","state_name":"Virginia","lat":38.81995,"lng":-77.05934,"zip":"22301","miles_from_dt":17.16},{"city":"Riverdale","state_name":"Maryland","lat":38.96247,"lng":-76.91571,"zip":"20737","miles_from_dt":17.19},{"city":"Burke","state_name":"Virginia","lat":38.78784,"lng":-77.28136,"zip":"22015","miles_from_dt":17.29},{"city":"Beltsville","state_name":"Maryland","lat":39.04503,"lng":-76.90009,"zip":"20705","miles_from_dt":17.31},{"city":"Damascus","state_name":"Maryland","lat":39.29142,"lng":-77.21619,"zip":"20872","miles_from_dt":17.75},{"city":"Washington","state_name":"District of Columbia","lat":38.86289,"lng":-76.97473,"zip":"20030","miles_from_dt":17.78},{"city":"Fulton","state_name":"Maryland","lat":39.15419,"lng":-76.92877,"zip":"20759","miles_from_dt":17.78},{"city":"Washington","state_name":"District of Columbia","lat":38.86234,"lng":-76.97446,"zip":"20020","miles_from_dt":17.82},{"city":"Springfield","state_name":"Virginia","lat":38.77564,"lng":-77.23149,"zip":"22152","miles_from_dt":17.84},{"city":"Washington","state_name":"District of Columbia","lat":38.83142,"lng":-77.01514,"zip":"20032","miles_from_dt":17.86},{"city":"Springfield","state_name":"Virginia","lat":38.7765,"lng":-77.1864,"zip":"22156","miles_from_dt":17.87},{"city":"Washington","state_name":"District of Columbia","lat":38.85901,"lng":-76.97556,"zip":"20395","miles_from_dt":17.93},{"city":"Washington","state_name":"District of Columbia","lat":38.89214,"lng":-76.94195,"zip":"20019","miles_from_dt":17.96},{"city":"Washington","state_name":"District of Columbia","lat":38.89118,"lng":-76.94252,"zip":"20218","miles_from_dt":17.97},{"city":"Dhs","state_name":"Virginia","lat":38.80111,"lng":-77.07257,"zip":"20598","miles_from_dt":17.97},{"city":"Washington Navy Yard","state_name":"District of Columbia","lat":38.82891,"lng":-77.0155,"zip":"20374","miles_from_dt":17.99},{"city":"Alexandria","state_name":"Virginia","lat":38.80663,"lng":-77.05806,"zip":"22331","miles_from_dt":18},{"city":"Alexandria","state_name":"Virginia","lat":38.80732,"lng":-77.0563,"zip":"22314","miles_from_dt":18},{"city":"Washington","state_name":"District of Columbia","lat":38.89293,"lng":-76.93997,"zip":"20029","miles_from_dt":18.02},{"city":"Alexandria","state_name":"Virginia","lat":38.78447,"lng":-77.12231,"zip":"22310","miles_from_dt":18.03},{"city":"Alexandria","state_name":"Virginia","lat":38.80459,"lng":-77.05927,"zip":"22332","miles_from_dt":18.09},{"city":"Alexandria","state_name":"Virginia","lat":38.80536,"lng":-77.05642,"zip":"22320","miles_from_dt":18.12},{"city":"Dayton","state_name":"Maryland","lat":39.23416,"lng":-77.00223,"zip":"21036","miles_from_dt":18.14},{"city":"Springfield","state_name":"Virginia","lat":38.77198,"lng":-77.18605,"zip":"22150","miles_from_dt":18.18},{"city":"Alexandria","state_name":"Virginia","lat":38.80318,"lng":-77.05868,"zip":"22334","miles_from_dt":18.19},{"city":"Alexandria","state_name":"Virginia","lat":38.794,"lng":-77.08175,"zip":"22303","miles_from_dt":18.2},{"city":"Greenbelt","state_name":"Maryland","lat":38.99981,"lng":-76.88567,"zip":"20770","miles_from_dt":18.23},{"city":"Alexandria","state_name":"Virginia","lat":38.77218,"lng":-77.17049,"zip":"22313","miles_from_dt":18.28},{"city":"Chantilly","state_name":"Virginia","lat":38.8998,"lng":-77.51917,"zip":"20152","miles_from_dt":18.52},{"city":"Centreville","state_name":"Virginia","lat":38.85594,"lng":-77.47862,"zip":"20122","miles_from_dt":18.52},{"city":"Centreville","state_name":"Virginia","lat":38.85576,"lng":-77.47987,"zip":"20120","miles_from_dt":18.58},{"city":"Laurel","state_name":"Maryland","lat":39.09563,"lng":-76.8842,"zip":"20707","miles_from_dt":18.63},{"city":"Greenbelt","state_name":"Maryland","lat":39.00062,"lng":-76.87775,"zip":"20768","miles_from_dt":18.64},{"city":"Glenelg","state_name":"Maryland","lat":39.2543,"lng":-77.01959,"zip":"21737","miles_from_dt":18.66},{"city":"Hyattsville","state_name":"Maryland","lat":38.95145,"lng":-76.89025,"zip":"20784","miles_from_dt":18.72},{"city":"Clarksville","state_name":"Maryland","lat":39.20633,"lng":-76.95206,"zip":"21029","miles_from_dt":18.73},{"city":"Leesburg","state_name":"Virginia","lat":39.10694,"lng":-77.56527,"zip":"20177","miles_from_dt":19.16},{"city":"Leesburg","state_name":"Virginia","lat":39.11878,"lng":-77.56645,"zip":"20178","miles_from_dt":19.45},{"city":"Capitol Heights","state_name":"Maryland","lat":38.88768,"lng":-76.91215,"zip":"20731","miles_from_dt":19.48},{"city":"Alexandria","state_name":"Virginia","lat":38.75735,"lng":-77.14803,"zip":"22315","miles_from_dt":19.5},{"city":"Leesburg","state_name":"Virginia","lat":39.18147,"lng":-77.5345,"zip":"20176","miles_from_dt":19.65},{"city":"Centreville","state_name":"Virginia","lat":38.8175,"lng":-77.46015,"zip":"20121","miles_from_dt":19.71},{"city":"Clifton","state_name":"Virginia","lat":38.78059,"lng":-77.39085,"zip":"20124","miles_from_dt":19.73},{"city":"Greenbelt","state_name":"Maryland","lat":39.00289,"lng":-76.85534,"zip":"20771","miles_from_dt":19.82},{"city":"Lanham","state_name":"Maryland","lat":38.96694,"lng":-76.86222,"zip":"20703","miles_from_dt":19.89},{"city":"Hyattsville","state_name":"Maryland","lat":38.91849,"lng":-76.88237,"zip":"20785","miles_from_dt":19.93},{"city":"Capitol Heights","state_name":"Maryland","lat":38.85464,"lng":-76.93153,"zip":"20790","miles_from_dt":19.93},{"city":"Oxon Hill","state_name":"Maryland","lat":38.80552,"lng":-76.99495,"zip":"20745","miles_from_dt":19.94},{"city":"Glenwood","state_name":"Maryland","lat":39.27973,"lng":-77.02554,"zip":"21738","miles_from_dt":19.94},{"city":"Springfield","state_name":"Virginia","lat":38.74443,"lng":-77.23451,"zip":"22153","miles_from_dt":20},{"city":"Laurel","state_name":"Maryland","lat":39.08939,"lng":-76.8524,"zip":"20726","miles_from_dt":20.21},{"city":"Alexandria","state_name":"Virginia","lat":38.7708,"lng":-77.05694,"zip":"22307","miles_from_dt":20.21},{"city":"Fairfax Station","state_name":"Virginia","lat":38.74992,"lng":-77.31536,"zip":"22039","miles_from_dt":20.25},{"city":"Oxon Hill","state_name":"Maryland","lat":38.80142,"lng":-76.99111,"zip":"20750","miles_from_dt":20.29},{"city":"Laurel","state_name":"Maryland","lat":39.13664,"lng":-76.86647,"zip":"20723","miles_from_dt":20.35},{"city":"Alexandria","state_name":"Virginia","lat":38.75655,"lng":-77.09254,"zip":"22306","miles_from_dt":20.37},{"city":"Leesburg","state_name":"Virginia","lat":39.0641,"lng":-77.59939,"zip":"20175","miles_from_dt":20.43},{"city":"Suitland","state_name":"Maryland","lat":38.84934,"lng":-76.92508,"zip":"20752","miles_from_dt":20.43},{"city":"Newington","state_name":"Virginia","lat":38.73902,"lng":-77.18032,"zip":"22122","miles_from_dt":20.48},{"city":"Capitol Heights","state_name":"Maryland","lat":38.88372,"lng":-76.89362,"zip":"20743","miles_from_dt":20.48},{"city":"Lanham","state_name":"Maryland","lat":38.96548,"lng":-76.85091,"zip":"20706","miles_from_dt":20.5},{"city":"Laurel","state_name":"Maryland","lat":39.06416,"lng":-76.8371,"zip":"20709","miles_from_dt":20.78},{"city":"Laurel","state_name":"Maryland","lat":39.10252,"lng":-76.84438,"zip":"20725","miles_from_dt":20.82},{"city":"Laurel","state_name":"Maryland","lat":39.04546,"lng":-76.83462,"zip":"20708","miles_from_dt":20.83},{"city":"Southern Md Facility","state_name":"Maryland","lat":39.09595,"lng":-76.83896,"zip":"20797","miles_from_dt":21.01},{"city":"Capitol Heights","state_name":"Maryland","lat":38.81765,"lng":-76.94377,"zip":"20791","miles_from_dt":21.14},{"city":"Suitland","state_name":"Maryland","lat":38.83664,"lng":-76.91936,"zip":"20746","miles_from_dt":21.23},{"city":"Manassas","state_name":"Virginia","lat":38.78674,"lng":-77.45575,"zip":"20113","miles_from_dt":21.23},{"city":"Temple Hills","state_name":"Maryland","lat":38.81692,"lng":-76.94124,"zip":"20748","miles_from_dt":21.27},{"city":"Simpsonville","state_name":"Maryland","lat":39.1744,"lng":-76.86709,"zip":"21150","miles_from_dt":21.37},{"city":"Tuscarora","state_name":"Maryland","lat":39.25908,"lng":-77.49559,"zip":"21790","miles_from_dt":21.39},{"city":"Ijamsville","state_name":"Maryland","lat":39.33684,"lng":-77.31131,"zip":"21754","miles_from_dt":21.43},{"city":"Aldie","state_name":"Virginia","lat":38.95949,"lng":-77.60829,"zip":"20105","miles_from_dt":21.45},{"city":"Temple Hills","state_name":"Maryland","lat":38.8068,"lng":-76.94718,"zip":"20757","miles_from_dt":21.55},{"city":"District Heights","state_name":"Maryland","lat":38.85826,"lng":-76.88728,"zip":"20753","miles_from_dt":21.71},{"city":"Dhs","state_name":"Maryland","lat":39.20311,"lng":-76.87883,"zip":"20588","miles_from_dt":21.79},{"city":"Adamstown","state_name":"Maryland","lat":39.29652,"lng":-77.44941,"zip":"21710","miles_from_dt":21.85},{"city":"Columbia","state_name":"Maryland","lat":39.21047,"lng":-76.88353,"zip":"21044","miles_from_dt":21.86},{"city":"Paeonian Springs","state_name":"Virginia","lat":39.16673,"lng":-77.59404,"zip":"20129","miles_from_dt":22.02},{"city":"Glenn Dale","state_name":"Maryland","lat":38.98818,"lng":-76.81635,"zip":"20769","miles_from_dt":22.03},{"city":"Catharpin","state_name":"Virginia","lat":38.86421,"lng":-77.56792,"zip":"20143","miles_from_dt":22.04},{"city":"Monrovia","state_name":"Maryland","lat":39.35245,"lng":-77.25791,"zip":"21770","miles_from_dt":22.05},{"city":"District Heights","state_name":"Maryland","lat":38.85348,"lng":-76.88377,"zip":"20747","miles_from_dt":22.05},{"city":"Woodbine","state_name":"Maryland","lat":39.33284,"lng":-77.07002,"zip":"21797","miles_from_dt":22.15},{"city":"Lisbon","state_name":"Maryland","lat":39.33483,"lng":-77.06811,"zip":"21765","miles_from_dt":22.32},{"city":"Capitol Heights","state_name":"Maryland","lat":38.88141,"lng":-76.85612,"zip":"20799","miles_from_dt":22.32},{"city":"West Friendship","state_name":"Maryland","lat":39.29705,"lng":-76.97388,"zip":"21794","miles_from_dt":22.49},{"city":"Columbia","state_name":"Maryland","lat":39.17357,"lng":-76.84183,"zip":"21046","miles_from_dt":22.56},{"city":"Alexandria","state_name":"Virginia","lat":38.71931,"lng":-77.10724,"zip":"22309","miles_from_dt":22.57},{"city":"Manassas","state_name":"Virginia","lat":38.74907,"lng":-77.43039,"zip":"20111","miles_from_dt":22.66},{"city":"Savage","state_name":"Maryland","lat":39.13786,"lng":-76.82134,"zip":"20763","miles_from_dt":22.67},{"city":"Mount Vernon","state_name":"Virginia","lat":38.7167,"lng":-77.10823,"zip":"22121","miles_from_dt":22.73},{"city":"Alexandria","state_name":"Virginia","lat":38.72957,"lng":-77.05876,"zip":"22308","miles_from_dt":22.77},{"city":"Lorton","state_name":"Virginia","lat":38.70199,"lng":-77.23036,"zip":"22199","miles_from_dt":22.92},{"city":"Fort Belvoir","state_name":"Virginia","lat":38.70525,"lng":-77.15636,"zip":"22060","miles_from_dt":22.96},{"city":"Fort Washington","state_name":"Maryland","lat":38.75362,"lng":-76.98393,"zip":"20744","miles_from_dt":23.2},{"city":"Cooksville","state_name":"Maryland","lat":39.32825,"lng":-77.01056,"zip":"21723","miles_from_dt":23.24},{"city":"Frederick","state_name":"Maryland","lat":39.3506,"lng":-77.3735,"zip":"21704","miles_from_dt":23.31},{"city":"Laurel","state_name":"Maryland","lat":39.08028,"lng":-76.79054,"zip":"20724","miles_from_dt":23.4},{"city":"Manassas","state_name":"Virginia","lat":38.79472,"lng":-77.53105,"zip":"20109","miles_from_dt":23.47},{"city":"Bowie","state_name":"Maryland","lat":38.9971,"lng":-76.78588,"zip":"20720","miles_from_dt":23.58},{"city":"Point Of Rocks","state_name":"Maryland","lat":39.27918,"lng":-77.5287,"zip":"21777","miles_from_dt":23.62},{"city":"Bowie","state_name":"Maryland","lat":39.00896,"lng":-76.78195,"zip":"20717","miles_from_dt":23.72},{"city":"Buckeystown","state_name":"Maryland","lat":39.33865,"lng":-77.43147,"zip":"21717","miles_from_dt":23.84},{"city":"Fort Washington","state_name":"Maryland","lat":38.73353,"lng":-77.00301,"zip":"20749","miles_from_dt":23.85},{"city":"Ellicott City","state_name":"Maryland","lat":39.27105,"lng":-76.8924,"zip":"21042","miles_from_dt":24.07},{"city":"Annapolis Junction","state_name":"Maryland","lat":39.12877,"lng":-76.78803,"zip":"20701","miles_from_dt":24.2},{"city":"Waterford","state_name":"Virginia","lat":39.19379,"lng":-77.62252,"zip":"20197","miles_from_dt":24.2},{"city":"Columbia","state_name":"Maryland","lat":39.20622,"lng":-76.82747,"zip":"21045","miles_from_dt":24.27},{"city":"Occoquan","state_name":"Virginia","lat":38.68217,"lng":-77.26073,"zip":"22125","miles_from_dt":24.37},{"city":"Andrews Air Force Base","state_name":"Maryland","lat":38.80748,"lng":-76.87457,"zip":"20762","miles_from_dt":24.37},{"city":"Lorton","state_name":"Virginia","lat":38.67998,"lng":-77.2055,"zip":"22079","miles_from_dt":24.44},{"city":"Hamilton","state_name":"Virginia","lat":39.14126,"lng":-77.65514,"zip":"20158","miles_from_dt":24.46},{"city":"Manassas","state_name":"Virginia","lat":38.74594,"lng":-77.48577,"zip":"20108","miles_from_dt":24.46},{"city":"Manassas","state_name":"Virginia","lat":38.7464,"lng":-77.48699,"zip":"20110","miles_from_dt":24.47},{"city":"Bowie","state_name":"Maryland","lat":38.92106,"lng":-76.78881,"zip":"20721","miles_from_dt":24.57},{"city":"Jessup","state_name":"Maryland","lat":39.15107,"lng":-76.78882,"zip":"20794","miles_from_dt":24.62},{"city":"Woodbridge","state_name":"Virginia","lat":38.68358,"lng":-77.31821,"zip":"22192","miles_from_dt":24.74},{"city":"Hamilton","state_name":"Virginia","lat":39.13425,"lng":-77.66495,"zip":"20159","miles_from_dt":24.82},{"city":"Mount Airy","state_name":"Maryland","lat":39.3955,"lng":-77.15869,"zip":"21771","miles_from_dt":25.16},{"city":"Bowie","state_name":"Maryland","lat":38.98588,"lng":-76.75415,"zip":"20718","miles_from_dt":25.37},{"city":"Haymarket","state_name":"Virginia","lat":38.87172,"lng":-77.64627,"zip":"20169","miles_from_dt":25.48},{"city":"Clinton","state_name":"Maryland","lat":38.75034,"lng":-76.90566,"zip":"20735","miles_from_dt":25.94},{"city":"Woodbridge","state_name":"Virginia","lat":38.65844,"lng":-77.24958,"zip":"22195","miles_from_dt":25.96},{"city":"Fort George G Meade","state_name":"Maryland","lat":39.09892,"lng":-76.74479,"zip":"20755","miles_from_dt":26.02},{"city":"Lincoln","state_name":"Virginia","lat":39.1162,"lng":-77.69397,"zip":"20160","miles_from_dt":26.03},{"city":"New Market","state_name":"Maryland","lat":39.4088,"lng":-77.27844,"zip":"21774","miles_from_dt":26.03},{"city":"Bowie","state_name":"Maryland","lat":38.98643,"lng":-76.73967,"zip":"20715","miles_from_dt":26.14},{"city":"Ellicott City","state_name":"Maryland","lat":39.27395,"lng":-76.83606,"zip":"21041","miles_from_dt":26.5},{"city":"Bowie","state_name":"Maryland","lat":38.95985,"lng":-76.73713,"zip":"20719","miles_from_dt":26.57},{"city":"Gainesville","state_name":"Virginia","lat":38.80646,"lng":-77.62145,"zip":"20155","miles_from_dt":26.67},{"city":"Upper Marlboro","state_name":"Maryland","lat":38.87589,"lng":-76.76925,"zip":"20774","miles_from_dt":26.69},{"city":"Frederick","state_name":"Maryland","lat":39.36961,"lng":-77.47088,"zip":"21703","miles_from_dt":26.74},{"city":"Haymarket","state_name":"Virginia","lat":38.81099,"lng":-77.63563,"zip":"20168","miles_from_dt":27.11},{"city":"Bryans Road","state_name":"Maryland","lat":38.65443,"lng":-77.08848,"zip":"20616","miles_from_dt":27.16},{"city":"Accokeek","state_name":"Maryland","lat":38.67161,"lng":-77.02478,"zip":"20607","miles_from_dt":27.16},{"city":"Bristow","state_name":"Virginia","lat":38.7374,"lng":-77.55473,"zip":"20136","miles_from_dt":27.23},{"city":"Odenton","state_name":"Maryland","lat":39.05448,"lng":-76.71519,"zip":"21113","miles_from_dt":27.27},{"city":"Manassas","state_name":"Virginia","lat":38.67274,"lng":-77.42901,"zip":"20112","miles_from_dt":27.33},{"city":"Purcellville","state_name":"Virginia","lat":39.14233,"lng":-77.71139,"zip":"20134","miles_from_dt":27.37},{"city":"Gainesville","state_name":"Virginia","lat":38.79195,"lng":-77.62537,"zip":"20156","miles_from_dt":27.44},{"city":"Ellicott City","state_name":"Maryland","lat":39.25759,"lng":-76.79773,"zip":"21043","miles_from_dt":27.49},{"city":"Lovettsville","state_name":"Virginia","lat":39.26775,"lng":-77.63804,"zip":"20180","miles_from_dt":27.57},{"city":"Marriottsville","state_name":"Maryland","lat":39.35044,"lng":-76.90654,"zip":"21104","miles_from_dt":27.6},{"city":"Woodbridge","state_name":"Virginia","lat":38.63496,"lng":-77.25982,"zip":"22194","miles_from_dt":27.61},{"city":"Frederick","state_name":"Maryland","lat":39.40887,"lng":-77.41002,"zip":"21705","miles_from_dt":27.76},{"city":"Elkridge","state_name":"Maryland","lat":39.20414,"lng":-76.75301,"zip":"21075","miles_from_dt":27.77},{"city":"Woodbridge","state_name":"Virginia","lat":38.64233,"lng":-77.34881,"zip":"22193","miles_from_dt":27.89},{"city":"Middleburg","state_name":"Virginia","lat":38.99473,"lng":-77.73851,"zip":"20117","miles_from_dt":27.96},{"city":"Philomont","state_name":"Virginia","lat":39.05815,"lng":-77.74061,"zip":"20131","miles_from_dt":27.97},{"city":"Middleburg","state_name":"Virginia","lat":38.96752,"lng":-77.73428,"zip":"20118","miles_from_dt":27.98},{"city":"Bowie","state_name":"Maryland","lat":38.92734,"lng":-76.71494,"zip":"20716","miles_from_dt":28.25},{"city":"Woodbridge","state_name":"Virginia","lat":38.6249,"lng":-77.26849,"zip":"22191","miles_from_dt":28.34},{"city":"Hanover","state_name":"Maryland","lat":39.16856,"lng":-76.72239,"zip":"21076","miles_from_dt":28.38},{"city":"Sykesville","state_name":"Maryland","lat":39.40087,"lng":-76.9726,"zip":"21784","miles_from_dt":28.61},{"city":"Purcellville","state_name":"Virginia","lat":39.16648,"lng":-77.72748,"zip":"20132","miles_from_dt":28.69},{"city":"Woodstock","state_name":"Maryland","lat":39.34024,"lng":-76.85706,"zip":"21163","miles_from_dt":28.79},{"city":"Cheltenham","state_name":"Maryland","lat":38.7423,"lng":-76.83747,"zip":"20623","miles_from_dt":28.88},{"city":"Crofton","state_name":"Maryland","lat":39.00967,"lng":-76.6839,"zip":"21114","miles_from_dt":28.98},{"city":"Frederick","state_name":"Maryland","lat":39.42776,"lng":-77.41549,"zip":"21709","miles_from_dt":29.08},{"city":"Frederick","state_name":"Maryland","lat":39.44729,"lng":-77.33512,"zip":"21701","miles_from_dt":29.15},{"city":"Brunswick","state_name":"Maryland","lat":39.31798,"lng":-77.6262,"zip":"21716","miles_from_dt":29.25},{"city":"Jefferson","state_name":"Maryland","lat":39.36101,"lng":-77.56887,"zip":"21755","miles_from_dt":29.26},{"city":"Upper Marlboro","state_name":"Maryland","lat":38.82,"lng":-76.75219,"zip":"20792","miles_from_dt":29.28},{"city":"Harmans","state_name":"Maryland","lat":39.1583,"lng":-76.69953,"zip":"21077","miles_from_dt":29.34},{"city":"Upper Marlboro","state_name":"Maryland","lat":38.81455,"lng":-76.75425,"zip":"20773","miles_from_dt":29.38},{"city":"Gambrills","state_name":"Maryland","lat":39.02624,"lng":-76.67083,"zip":"21054","miles_from_dt":29.63},{"city":"Severn","state_name":"Maryland","lat":39.12058,"lng":-76.67767,"zip":"21144","miles_from_dt":29.84},{"city":"Upper Marlboro","state_name":"Maryland","lat":38.78269,"lng":-76.76782,"zip":"20775","miles_from_dt":29.98}],"targetCityZipCode":"20854","targetCityState":"Maryland"},"__N_SSG":true}