{"pageProps":{"stateName":"Maryland","cityName":"worton","nearbyCities":[{"city":"Still Pond","state_name":"Maryland","lat":39.34377,"lng":-76.05188,"zip":"21667","miles_from_dt":3.66},{"city":"Betterton","state_name":"Maryland","lat":39.3652,"lng":-76.06845,"zip":"21610","miles_from_dt":4.31},{"city":"Chestertown","state_name":"Maryland","lat":39.21889,"lng":-76.07101,"zip":"21690","miles_from_dt":6.45},{"city":"Chestertown","state_name":"Maryland","lat":39.20667,"lng":-76.08739,"zip":"21620","miles_from_dt":7.1},{"city":"Kennedyville","state_name":"Maryland","lat":39.31979,"lng":-75.96216,"zip":"21645","miles_from_dt":7.6},{"city":"Aberdeen Proving Ground","state_name":"Maryland","lat":39.44101,"lng":-76.16509,"zip":"21005","miles_from_dt":9.7},{"city":"Crumpton","state_name":"Maryland","lat":39.23577,"lng":-75.92238,"zip":"21628","miles_from_dt":10.94},{"city":"Gunpowder","state_name":"Maryland","lat":39.38953,"lng":-76.29851,"zip":"21010","miles_from_dt":11.84},{"city":"Earleville","state_name":"Maryland","lat":39.42047,"lng":-75.93372,"zip":"21919","miles_from_dt":11.91},{"city":"Georgetown","state_name":"Maryland","lat":39.37198,"lng":-75.89115,"zip":"21930","miles_from_dt":12.17},{"city":"Perryman","state_name":"Maryland","lat":39.47495,"lng":-76.18921,"zip":"21130","miles_from_dt":12.34},{"city":"Edgewood","state_name":"Maryland","lat":39.42953,"lng":-76.28947,"zip":"21040","miles_from_dt":12.98},{"city":"Belcamp","state_name":"Maryland","lat":39.47498,"lng":-76.23667,"zip":"21017","miles_from_dt":13.5},{"city":"Millington","state_name":"Maryland","lat":39.25821,"lng":-75.85802,"zip":"21651","miles_from_dt":13.61},{"city":"Rock Hall","state_name":"Maryland","lat":39.12905,"lng":-76.21967,"zip":"21661","miles_from_dt":13.89},{"city":"Cecilton","state_name":"Maryland","lat":39.40973,"lng":-75.87073,"zip":"21913","miles_from_dt":14.27},{"city":"Galena","state_name":"Maryland","lat":39.34006,"lng":-75.83826,"zip":"21635","miles_from_dt":14.37},{"city":"Chase","state_name":"Maryland","lat":39.35393,"lng":-76.37251,"zip":"21027","miles_from_dt":14.75},{"city":"Aberdeen","state_name":"Maryland","lat":39.51077,"lng":-76.20274,"zip":"21001","miles_from_dt":14.91},{"city":"Abingdon","state_name":"Maryland","lat":39.47032,"lng":-76.29378,"zip":"21009","miles_from_dt":15.1},{"city":"Church Hill","state_name":"Maryland","lat":39.11915,"lng":-75.96268,"zip":"21623","miles_from_dt":15.11},{"city":"Sudlersville","state_name":"Maryland","lat":39.18967,"lng":-75.85139,"zip":"21668","miles_from_dt":15.82},{"city":"Massey","state_name":"Maryland","lat":39.31286,"lng":-75.80795,"zip":"21650","miles_from_dt":15.83},{"city":"Middle River","state_name":"Maryland","lat":39.345,"lng":-76.3966,"zip":"21220","miles_from_dt":15.91},{"city":"Joppa","state_name":"Maryland","lat":39.44462,"lng":-76.35601,"zip":"21085","miles_from_dt":16.45},{"city":"Price","state_name":"Maryland","lat":39.0975,"lng":-75.95917,"zip":"21656","miles_from_dt":16.51},{"city":"Perry Point","state_name":"Maryland","lat":39.55229,"lng":-76.06157,"zip":"21902","miles_from_dt":16.94},{"city":"White Marsh","state_name":"Maryland","lat":39.39084,"lng":-76.40164,"zip":"21162","miles_from_dt":16.95},{"city":"Warwick","state_name":"Maryland","lat":39.42486,"lng":-75.81607,"zip":"21912","miles_from_dt":17.34},{"city":"Barclay","state_name":"Maryland","lat":39.13398,"lng":-75.85644,"zip":"21607","miles_from_dt":17.92},{"city":"Ingleside","state_name":"Maryland","lat":39.11728,"lng":-75.87441,"zip":"21644","miles_from_dt":18.05},{"city":"Upper Falls","state_name":"Maryland","lat":39.43752,"lng":-76.397,"zip":"21156","miles_from_dt":18.05},{"city":"Essex","state_name":"Maryland","lat":39.29462,"lng":-76.44034,"zip":"21221","miles_from_dt":18.09},{"city":"Havre De Grace","state_name":"Maryland","lat":39.56911,"lng":-76.14776,"zip":"21078","miles_from_dt":18.11},{"city":"Centreville","state_name":"Maryland","lat":39.04985,"lng":-76.03819,"zip":"21617","miles_from_dt":18.21},{"city":"Perryville","state_name":"Maryland","lat":39.57274,"lng":-76.04378,"zip":"21903","miles_from_dt":18.48},{"city":"Sparrows Point","state_name":"Maryland","lat":39.23097,"lng":-76.44383,"zip":"21219","miles_from_dt":19.03},{"city":"Chesapeake City","state_name":"Maryland","lat":39.50095,"lng":-75.84764,"zip":"21915","miles_from_dt":19.05},{"city":"Kingsville","state_name":"Maryland","lat":39.44728,"lng":-76.41583,"zip":"21087","miles_from_dt":19.26},{"city":"Charlestown","state_name":"Maryland","lat":39.57256,"lng":-75.98158,"zip":"21914","miles_from_dt":19.32},{"city":"Churchville","state_name":"Maryland","lat":39.56832,"lng":-76.24162,"zip":"21028","miles_from_dt":19.37},{"city":"Bel Air","state_name":"Maryland","lat":39.54691,"lng":-76.29619,"zip":"21015","miles_from_dt":19.39},{"city":"Perry Hall","state_name":"Maryland","lat":39.40526,"lng":-76.44628,"zip":"21128","miles_from_dt":19.53},{"city":"Fort Howard","state_name":"Maryland","lat":39.20238,"lng":-76.44379,"zip":"21052","miles_from_dt":19.68},{"city":"Benson","state_name":"Maryland","lat":39.50417,"lng":-76.38647,"zip":"21018","miles_from_dt":20.27},{"city":"Bel Air","state_name":"Maryland","lat":39.53606,"lng":-76.35164,"zip":"21014","miles_from_dt":20.54},{"city":"North East","state_name":"Maryland","lat":39.58593,"lng":-75.95821,"zip":"21901","miles_from_dt":20.63},{"city":"Rosedale","state_name":"Maryland","lat":39.33938,"lng":-76.49456,"zip":"21237","miles_from_dt":21.07},{"city":"Nottingham","state_name":"Maryland","lat":39.38789,"lng":-76.48552,"zip":"21236","miles_from_dt":21.18},{"city":"Dundalk","state_name":"Maryland","lat":39.26424,"lng":-76.49537,"zip":"21222","miles_from_dt":21.24},{"city":"Marydel","state_name":"Maryland","lat":39.1366,"lng":-75.77453,"zip":"21649","miles_from_dt":21.27},{"city":"Templeville","state_name":"Maryland","lat":39.13545,"lng":-75.76789,"zip":"21670","miles_from_dt":21.61},{"city":"Port Deposit","state_name":"Maryland","lat":39.62303,"lng":-76.07812,"zip":"21904","miles_from_dt":21.71},{"city":"Fork","state_name":"Maryland","lat":39.4721,"lng":-76.45388,"zip":"21051","miles_from_dt":21.88},{"city":"Clayton","state_name":"Delaware","lat":39.25646,"lng":-75.69884,"zip":"19938","miles_from_dt":21.99},{"city":"Henderson","state_name":"Maryland","lat":39.07036,"lng":-75.82533,"zip":"21640","miles_from_dt":22.22},{"city":"Hydes","state_name":"Maryland","lat":39.48284,"lng":-76.46735,"zip":"21082","miles_from_dt":22.88},{"city":"Baltimore","state_name":"Maryland","lat":39.33932,"lng":-76.53706,"zip":"21206","miles_from_dt":23.33},{"city":"Fallston","state_name":"Maryland","lat":39.52818,"lng":-76.43781,"zip":"21047","miles_from_dt":23.43},{"city":"Baltimore","state_name":"Maryland","lat":39.28309,"lng":-76.54088,"zip":"21224","miles_from_dt":23.52},{"city":"Glen Arm","state_name":"Maryland","lat":39.45111,"lng":-76.50606,"zip":"21057","miles_from_dt":23.69},{"city":"Parkville","state_name":"Maryland","lat":39.395,"lng":-76.53252,"zip":"21234","miles_from_dt":23.74},{"city":"Gibson Island","state_name":"Maryland","lat":39.07805,"lng":-76.4338,"zip":"21056","miles_from_dt":23.84},{"city":"Kenton","state_name":"Delaware","lat":39.22652,"lng":-75.6654,"zip":"19955","miles_from_dt":24.16},{"city":"Darlington","state_name":"Maryland","lat":39.64905,"lng":-76.22261,"zip":"21034","miles_from_dt":24.32},{"city":"Hartly","state_name":"Delaware","lat":39.15145,"lng":-75.69695,"zip":"19953","miles_from_dt":24.36},{"city":"Forest Hill","state_name":"Maryland","lat":39.58569,"lng":-76.39228,"zip":"21050","miles_from_dt":24.57},{"city":"Baltimore","state_name":"Maryland","lat":39.30227,"lng":-76.56413,"zip":"21205","miles_from_dt":24.7},{"city":"Townsend","state_name":"Delaware","lat":39.38377,"lng":-75.65026,"zip":"19734","miles_from_dt":24.81},{"city":"Baltimore","state_name":"Maryland","lat":39.35217,"lng":-76.5644,"zip":"21214","miles_from_dt":24.88},{"city":"Baltimore","state_name":"Maryland","lat":39.29087,"lng":-76.56774,"zip":"21281","miles_from_dt":24.92},{"city":"Colora","state_name":"Maryland","lat":39.67106,"lng":-76.09823,"zip":"21917","miles_from_dt":24.99},{"city":"Baldwin","state_name":"Maryland","lat":39.51123,"lng":-76.49124,"zip":"21013","miles_from_dt":25.01},{"city":"Pasadena","state_name":"Maryland","lat":39.11631,"lng":-76.49941,"zip":"21122","miles_from_dt":25.06},{"city":"Elkton","state_name":"Maryland","lat":39.60804,"lng":-75.83567,"zip":"21922","miles_from_dt":25.12},{"city":"Marydel","state_name":"Delaware","lat":39.09436,"lng":-75.72439,"zip":"19964","miles_from_dt":25.15},{"city":"Queen Anne","state_name":"Maryland","lat":38.9534,"lng":-75.99042,"zip":"21657","miles_from_dt":25.26},{"city":"Baltimore","state_name":"Maryland","lat":39.31501,"lng":-76.57723,"zip":"21213","miles_from_dt":25.4},{"city":"Elkton","state_name":"Maryland","lat":39.62568,"lng":-75.85904,"zip":"21921","miles_from_dt":25.46},{"city":"Goldsboro","state_name":"Maryland","lat":39.0261,"lng":-75.79839,"zip":"21636","miles_from_dt":25.47},{"city":"Queenstown","state_name":"Maryland","lat":38.94071,"lng":-76.13819,"zip":"21658","miles_from_dt":25.47},{"city":"Long Green","state_name":"Maryland","lat":39.4753,"lng":-76.52858,"zip":"21092","miles_from_dt":25.49},{"city":"Curtis Bay","state_name":"Maryland","lat":39.2078,"lng":-76.5627,"zip":"21226","miles_from_dt":25.6},{"city":"Grasonville","state_name":"Maryland","lat":38.94513,"lng":-76.20263,"zip":"21638","miles_from_dt":25.65},{"city":"Middletown","state_name":"Delaware","lat":39.48923,"lng":-75.68314,"zip":"19709","miles_from_dt":25.7},{"city":"Baltimore","state_name":"Maryland","lat":39.34993,"lng":-76.58027,"zip":"21251","miles_from_dt":25.71},{"city":"Odessa","state_name":"Delaware","lat":39.45443,"lng":-75.66077,"zip":"19730","miles_from_dt":25.73},{"city":"Kirkwood","state_name":"Delaware","lat":39.49842,"lng":-75.68489,"zip":"19708","miles_from_dt":25.93},{"city":"Baltimore","state_name":"Maryland","lat":39.29899,"lng":-76.58817,"zip":"21287","miles_from_dt":25.99},{"city":"Conowingo","state_name":"Maryland","lat":39.68327,"lng":-76.16662,"zip":"21918","miles_from_dt":26.05},{"city":"Baltimore","state_name":"Maryland","lat":39.36517,"lng":-76.58709,"zip":"21239","miles_from_dt":26.2},{"city":"Towson","state_name":"Maryland","lat":39.41374,"lng":-76.57375,"zip":"21286","miles_from_dt":26.21},{"city":"Baltimore","state_name":"Maryland","lat":39.28775,"lng":-76.592,"zip":"21231","miles_from_dt":26.23},{"city":"Annapolis","state_name":"Maryland","lat":39.12209,"lng":-76.52933,"zip":"21412","miles_from_dt":26.24},{"city":"Chester","state_name":"Maryland","lat":38.95285,"lng":-76.27939,"zip":"21619","miles_from_dt":26.32},{"city":"Rising Sun","state_name":"Maryland","lat":39.68931,"lng":-76.03886,"zip":"21911","miles_from_dt":26.47},{"city":"Childs","state_name":"Maryland","lat":39.64921,"lng":-75.87095,"zip":"21916","miles_from_dt":26.56},{"city":"Baltimore","state_name":"Maryland","lat":39.33031,"lng":-76.60235,"zip":"21218","miles_from_dt":26.78},{"city":"Baltimore","state_name":"Maryland","lat":39.29244,"lng":-76.60503,"zip":"21233","miles_from_dt":26.91},{"city":"Ridgely","state_name":"Maryland","lat":38.95534,"lng":-75.88839,"zip":"21660","miles_from_dt":26.99},{"city":"Wye Mills","state_name":"Maryland","lat":38.91722,"lng":-76.08875,"zip":"21679","miles_from_dt":27.03},{"city":"Baltimore","state_name":"Maryland","lat":39.29705,"lng":-76.60747,"zip":"21202","miles_from_dt":27.03},{"city":"Baltimore","state_name":"Maryland","lat":39.29721,"lng":-76.60797,"zip":"21203","miles_from_dt":27.06},{"city":"Baltimore","state_name":"Maryland","lat":39.29663,"lng":-76.60821,"zip":"21279","miles_from_dt":27.07},{"city":"Baltimore","state_name":"Maryland","lat":39.29778,"lng":-76.60899,"zip":"21298","miles_from_dt":27.11},{"city":"Baltimore","state_name":"Maryland","lat":39.29538,"lng":-76.60917,"zip":"21297","miles_from_dt":27.13},{"city":"Baltimore","state_name":"Maryland","lat":39.29055,"lng":-76.6096,"zip":"21264","miles_from_dt":27.16},{"city":"Baltimore","state_name":"Maryland","lat":39.29055,"lng":-76.6096,"zip":"21263","miles_from_dt":27.16},{"city":"Annapolis","state_name":"Maryland","lat":39.01968,"lng":-76.44738,"zip":"21409","miles_from_dt":27.19},{"city":"Baltimore","state_name":"Maryland","lat":39.28742,"lng":-76.61127,"zip":"21273","miles_from_dt":27.26},{"city":"Towson","state_name":"Maryland","lat":39.39969,"lng":-76.5992,"zip":"21284","miles_from_dt":27.28},{"city":"Baltimore","state_name":"Maryland","lat":39.31636,"lng":-76.61472,"zip":"21278","miles_from_dt":27.41},{"city":"Baltimore","state_name":"Maryland","lat":39.28703,"lng":-76.61413,"zip":"21275","miles_from_dt":27.42},{"city":"Street","state_name":"Maryland","lat":39.65314,"lng":-76.36087,"zip":"21154","miles_from_dt":27.45},{"city":"Glen Burnie","state_name":"Maryland","lat":39.16893,"lng":-76.58346,"zip":"21060","miles_from_dt":27.51},{"city":"Baltimore","state_name":"Maryland","lat":39.3678,"lng":-76.61456,"zip":"21212","miles_from_dt":27.68},{"city":"Pasadena","state_name":"Maryland","lat":39.11197,"lng":-76.55356,"zip":"21123","miles_from_dt":27.72},{"city":"Baltimore","state_name":"Maryland","lat":39.29487,"lng":-76.62237,"zip":"21201","miles_from_dt":27.83},{"city":"Towson","state_name":"Maryland","lat":39.39413,"lng":-76.61144,"zip":"21252","miles_from_dt":27.84},{"city":"Arnold","state_name":"Maryland","lat":39.04529,"lng":-76.49716,"zip":"21012","miles_from_dt":27.89},{"city":"Baltimore","state_name":"Maryland","lat":39.29282,"lng":-76.62379,"zip":"21290","miles_from_dt":27.92},{"city":"Baltimore","state_name":"Maryland","lat":39.26651,"lng":-76.62213,"zip":"21230","miles_from_dt":27.96},{"city":"Elk Mills","state_name":"Maryland","lat":39.65675,"lng":-75.83449,"zip":"21920","miles_from_dt":27.97},{"city":"Brooklyn","state_name":"Maryland","lat":39.22597,"lng":-76.61508,"zip":"21225","miles_from_dt":28.03},{"city":"Towson","state_name":"Maryland","lat":39.3875,"lng":-76.61702,"zip":"21285","miles_from_dt":28.04},{"city":"Stevensville","state_name":"Maryland","lat":38.93956,"lng":-76.33272,"zip":"21666","miles_from_dt":28.3},{"city":"Hillsboro","state_name":"Maryland","lat":38.91696,"lng":-75.94161,"zip":"21641","miles_from_dt":28.4},{"city":"Cheswold","state_name":"Delaware","lat":39.21846,"lng":-75.58498,"zip":"19936","miles_from_dt":28.49},{"city":"Phoenix","state_name":"Maryland","lat":39.50338,"lng":-76.57486,"zip":"21131","miles_from_dt":28.58},{"city":"Glen Burnie","state_name":"Maryland","lat":39.1637,"lng":-76.60358,"zip":"21062","miles_from_dt":28.64},{"city":"Jarrettsville","state_name":"Maryland","lat":39.61659,"lng":-76.46317,"zip":"21084","miles_from_dt":28.65},{"city":"Baltimore","state_name":"Maryland","lat":39.30701,"lng":-76.63833,"zip":"21217","miles_from_dt":28.67},{"city":"Baltimore","state_name":"Maryland","lat":39.35878,"lng":-76.63521,"zip":"21210","miles_from_dt":28.7},{"city":"Baltimore","state_name":"Maryland","lat":39.32857,"lng":-76.6389,"zip":"21211","miles_from_dt":28.73},{"city":"Bear","state_name":"Delaware","lat":39.58427,"lng":-75.69914,"zip":"19701","miles_from_dt":28.78},{"city":"Dover","state_name":"Delaware","lat":39.17289,"lng":-75.59517,"zip":"19904","miles_from_dt":28.83},{"city":"Lutherville Timonium","state_name":"Maryland","lat":39.42132,"lng":-76.6231,"zip":"21094","miles_from_dt":28.89},{"city":"Towson","state_name":"Maryland","lat":39.40353,"lng":-76.63024,"zip":"21204","miles_from_dt":28.96},{"city":"Greensboro","state_name":"Maryland","lat":38.96533,"lng":-75.7928,"zip":"21639","miles_from_dt":28.98},{"city":"Severna Park","state_name":"Maryland","lat":39.07737,"lng":-76.55613,"zip":"21146","miles_from_dt":29.08},{"city":"Dover","state_name":"Delaware","lat":39.20946,"lng":-75.57012,"zip":"19903","miles_from_dt":29.41},{"city":"Newark","state_name":"Delaware","lat":39.62199,"lng":-75.72803,"zip":"19702","miles_from_dt":29.48},{"city":"Baltimore","state_name":"Maryland","lat":39.28421,"lng":-76.65323,"zip":"21223","miles_from_dt":29.52},{"city":"Whiteford","state_name":"Maryland","lat":39.70728,"lng":-76.30754,"zip":"21160","miles_from_dt":29.57},{"city":"Smyrna","state_name":"Delaware","lat":39.29653,"lng":-75.55132,"zip":"19977","miles_from_dt":29.6},{"city":"Annapolis","state_name":"Maryland","lat":38.98816,"lng":-76.47202,"zip":"21402","miles_from_dt":29.69},{"city":"Saint Georges","state_name":"Delaware","lat":39.55928,"lng":-75.65143,"zip":"19733","miles_from_dt":29.71},{"city":"Camden Wyoming","state_name":"Delaware","lat":39.08135,"lng":-75.63113,"zip":"19934","miles_from_dt":29.82},{"city":"Riderwood","state_name":"Maryland","lat":39.40732,"lng":-76.64849,"zip":"21139","miles_from_dt":29.97}],"targetCityZipCode":"21678","targetCityState":"Maryland"},"__N_SSG":true}