{"pageProps":{"stateName":"Maryland","cityName":"wye-mills","nearbyCities":[{"city":"Queenstown","state_name":"Maryland","lat":38.94071,"lng":-76.13819,"zip":"21658","miles_from_dt":3.12},{"city":"Queen Anne","state_name":"Maryland","lat":38.9534,"lng":-75.99042,"zip":"21657","miles_from_dt":5.86},{"city":"Cordova","state_name":"Maryland","lat":38.86925,"lng":-75.99216,"zip":"21625","miles_from_dt":6.17},{"city":"Grasonville","state_name":"Maryland","lat":38.94513,"lng":-76.20263,"zip":"21638","miles_from_dt":6.43},{"city":"Hillsboro","state_name":"Maryland","lat":38.91696,"lng":-75.94161,"zip":"21641","miles_from_dt":7.93},{"city":"Easton","state_name":"Maryland","lat":38.79275,"lng":-76.08242,"zip":"21601","miles_from_dt":8.59},{"city":"Centreville","state_name":"Maryland","lat":39.04985,"lng":-76.03819,"zip":"21617","miles_from_dt":9.55},{"city":"Chester","state_name":"Maryland","lat":38.95285,"lng":-76.27939,"zip":"21619","miles_from_dt":10.56},{"city":"Ridgely","state_name":"Maryland","lat":38.95534,"lng":-75.88839,"zip":"21660","miles_from_dt":11.11},{"city":"Claiborne","state_name":"Maryland","lat":38.83407,"lng":-76.27212,"zip":"21624","miles_from_dt":11.43},{"city":"Saint Michaels","state_name":"Maryland","lat":38.78333,"lng":-76.23303,"zip":"21663","miles_from_dt":12.08},{"city":"Newcomb","state_name":"Maryland","lat":38.74704,"lng":-76.17744,"zip":"21653","miles_from_dt":12.68},{"city":"Mcdaniel","state_name":"Maryland","lat":38.80114,"lng":-76.2831,"zip":"21647","miles_from_dt":13.19},{"city":"Stevensville","state_name":"Maryland","lat":38.93956,"lng":-76.33272,"zip":"21666","miles_from_dt":13.24},{"city":"Price","state_name":"Maryland","lat":39.0975,"lng":-75.95917,"zip":"21656","miles_from_dt":14.26},{"city":"Bethlehem","state_name":"Maryland","lat":38.74032,"lng":-75.95202,"zip":"21609","miles_from_dt":14.26},{"city":"Denton","state_name":"Maryland","lat":38.86111,"lng":-75.82753,"zip":"21629","miles_from_dt":14.6},{"city":"Wittman","state_name":"Maryland","lat":38.78628,"lng":-76.30548,"zip":"21676","miles_from_dt":14.77},{"city":"Preston","state_name":"Maryland","lat":38.74601,"lng":-75.92103,"zip":"21655","miles_from_dt":14.88},{"city":"Royal Oak","state_name":"Maryland","lat":38.7136,"lng":-76.20209,"zip":"21662","miles_from_dt":15.32},{"city":"Bozman","state_name":"Maryland","lat":38.74928,"lng":-76.27695,"zip":"21612","miles_from_dt":15.4},{"city":"Church Hill","state_name":"Maryland","lat":39.11915,"lng":-75.96268,"zip":"21623","miles_from_dt":15.49},{"city":"Oxford","state_name":"Maryland","lat":38.6908,"lng":-76.12518,"zip":"21654","miles_from_dt":15.74},{"city":"Rock Hall","state_name":"Maryland","lat":39.12905,"lng":-76.21967,"zip":"21661","miles_from_dt":16.22},{"city":"Greensboro","state_name":"Maryland","lat":38.96533,"lng":-75.7928,"zip":"21639","miles_from_dt":16.29},{"city":"Neavitt","state_name":"Maryland","lat":38.72028,"lng":-76.28108,"zip":"21652","miles_from_dt":17.1},{"city":"Goldsboro","state_name":"Maryland","lat":39.0261,"lng":-75.79839,"zip":"21636","miles_from_dt":17.35},{"city":"Henderson","state_name":"Maryland","lat":39.07036,"lng":-75.82533,"zip":"21640","miles_from_dt":17.68},{"city":"Sherwood","state_name":"Maryland","lat":38.75158,"lng":-76.34469,"zip":"21665","miles_from_dt":17.92},{"city":"Ingleside","state_name":"Maryland","lat":39.11728,"lng":-75.87441,"zip":"21644","miles_from_dt":17.99},{"city":"Trappe","state_name":"Maryland","lat":38.65235,"lng":-76.04163,"zip":"21673","miles_from_dt":18.45},{"city":"Barclay","state_name":"Maryland","lat":39.13398,"lng":-75.85644,"zip":"21607","miles_from_dt":19.49},{"city":"Chestertown","state_name":"Maryland","lat":39.20667,"lng":-76.08739,"zip":"21620","miles_from_dt":19.97},{"city":"Tilghman","state_name":"Maryland","lat":38.69658,"lng":-76.33562,"zip":"21671","miles_from_dt":20.23},{"city":"Annapolis","state_name":"Maryland","lat":39.01968,"lng":-76.44738,"zip":"21409","miles_from_dt":20.57},{"city":"Chestertown","state_name":"Maryland","lat":39.21889,"lng":-76.07101,"zip":"21690","miles_from_dt":20.83},{"city":"Annapolis","state_name":"Maryland","lat":38.98816,"lng":-76.47202,"zip":"21402","miles_from_dt":21.22},{"city":"Federalsburg","state_name":"Maryland","lat":38.72287,"lng":-75.77478,"zip":"21632","miles_from_dt":21.61},{"city":"Gibson Island","state_name":"Maryland","lat":39.07805,"lng":-76.4338,"zip":"21056","miles_from_dt":21.63},{"city":"Annapolis","state_name":"Maryland","lat":38.94433,"lng":-76.49296,"zip":"21403","miles_from_dt":21.86},{"city":"Hurlock","state_name":"Maryland","lat":38.6442,"lng":-75.87124,"zip":"21643","miles_from_dt":22.19},{"city":"Annapolis","state_name":"Maryland","lat":38.97778,"lng":-76.49829,"zip":"21404","miles_from_dt":22.45},{"city":"Annapolis","state_name":"Maryland","lat":38.97161,"lng":-76.49986,"zip":"21411","miles_from_dt":22.46},{"city":"Secretary","state_name":"Maryland","lat":38.6081,"lng":-75.94732,"zip":"21664","miles_from_dt":22.65},{"city":"Marydel","state_name":"Maryland","lat":39.1366,"lng":-75.77453,"zip":"21649","miles_from_dt":22.69},{"city":"Sudlersville","state_name":"Maryland","lat":39.18967,"lng":-75.85139,"zip":"21668","miles_from_dt":22.72},{"city":"Mayo","state_name":"Maryland","lat":38.8799,"lng":-76.50746,"zip":"21106","miles_from_dt":22.72},{"city":"Templeville","state_name":"Maryland","lat":39.13545,"lng":-75.76789,"zip":"21670","miles_from_dt":22.91},{"city":"Marydel","state_name":"Delaware","lat":39.09436,"lng":-75.72439,"zip":"19964","miles_from_dt":23.11},{"city":"Shady Side","state_name":"Maryland","lat":38.83374,"lng":-76.51146,"zip":"20764","miles_from_dt":23.51},{"city":"Arnold","state_name":"Maryland","lat":39.04529,"lng":-76.49716,"zip":"21012","miles_from_dt":23.7},{"city":"Crumpton","state_name":"Maryland","lat":39.23577,"lng":-75.92238,"zip":"21628","miles_from_dt":23.73},{"city":"East New Market","state_name":"Maryland","lat":38.58784,"lng":-75.94598,"zip":"21631","miles_from_dt":23.99},{"city":"Edgewater","state_name":"Maryland","lat":38.91476,"lng":-76.54361,"zip":"21037","miles_from_dt":24.51},{"city":"Harrington","state_name":"Delaware","lat":38.91654,"lng":-75.62531,"zip":"19952","miles_from_dt":24.97},{"city":"Churchton","state_name":"Maryland","lat":38.80628,"lng":-76.53139,"zip":"20733","miles_from_dt":25.07},{"city":"Galesville","state_name":"Maryland","lat":38.84533,"lng":-76.54654,"zip":"20765","miles_from_dt":25.18},{"city":"Annapolis","state_name":"Maryland","lat":38.98967,"lng":-76.5505,"zip":"21401","miles_from_dt":25.37},{"city":"Annapolis","state_name":"Maryland","lat":39.02996,"lng":-76.54971,"zip":"21405","miles_from_dt":26.01},{"city":"Pasadena","state_name":"Maryland","lat":39.11631,"lng":-76.49941,"zip":"21122","miles_from_dt":26.02},{"city":"West River","state_name":"Maryland","lat":38.83733,"lng":-76.56647,"zip":"20778","miles_from_dt":26.34},{"city":"Hartly","state_name":"Delaware","lat":39.15145,"lng":-75.69695,"zip":"19953","miles_from_dt":26.56},{"city":"Millington","state_name":"Maryland","lat":39.25821,"lng":-75.85802,"zip":"21651","miles_from_dt":26.59},{"city":"Felton","state_name":"Delaware","lat":39.00562,"lng":-75.60756,"zip":"19943","miles_from_dt":26.62},{"city":"Riva","state_name":"Maryland","lat":38.95062,"lng":-76.58569,"zip":"21140","miles_from_dt":26.87},{"city":"Deale","state_name":"Maryland","lat":38.79552,"lng":-76.56221,"zip":"20751","miles_from_dt":26.88},{"city":"Worton","state_name":"Maryland","lat":39.30889,"lng":-76.10336,"zip":"21678","miles_from_dt":27.03},{"city":"Camden Wyoming","state_name":"Delaware","lat":39.08135,"lng":-75.63113,"zip":"19934","miles_from_dt":27.11},{"city":"Greenwood","state_name":"Delaware","lat":38.82007,"lng":-75.59691,"zip":"19950","miles_from_dt":27.36},{"city":"Fort Howard","state_name":"Maryland","lat":39.20238,"lng":-76.44379,"zip":"21052","miles_from_dt":27.41},{"city":"Severna Park","state_name":"Maryland","lat":39.07737,"lng":-76.55613,"zip":"21146","miles_from_dt":27.48},{"city":"Annapolis","state_name":"Maryland","lat":39.12209,"lng":-76.52933,"zip":"21412","miles_from_dt":27.6},{"city":"Linkwood","state_name":"Maryland","lat":38.53355,"lng":-75.93758,"zip":"21835","miles_from_dt":27.7},{"city":"North Beach","state_name":"Maryland","lat":38.71813,"lng":-76.53987,"zip":"20714","miles_from_dt":27.95},{"city":"Harwood","state_name":"Maryland","lat":38.86913,"lng":-76.6067,"zip":"20776","miles_from_dt":28.12},{"city":"Rhodesdale","state_name":"Maryland","lat":38.57442,"lng":-75.79985,"zip":"21659","miles_from_dt":28.33},{"city":"Tracys Landing","state_name":"Maryland","lat":38.76388,"lng":-76.57665,"zip":"20779","miles_from_dt":28.37},{"city":"Pasadena","state_name":"Maryland","lat":39.11197,"lng":-76.55356,"zip":"21123","miles_from_dt":28.39},{"city":"Kennedyville","state_name":"Maryland","lat":39.31979,"lng":-75.96216,"zip":"21645","miles_from_dt":28.59},{"city":"Sparrows Point","state_name":"Maryland","lat":39.23097,"lng":-76.44383,"zip":"21219","miles_from_dt":28.86},{"city":"Bridgeville","state_name":"Delaware","lat":38.73699,"lng":-75.60586,"zip":"19933","miles_from_dt":28.87},{"city":"Crownsville","state_name":"Maryland","lat":39.03376,"lng":-76.60401,"zip":"21032","miles_from_dt":28.89},{"city":"Viola","state_name":"Delaware","lat":39.05041,"lng":-75.57642,"zip":"19979","miles_from_dt":29.07},{"city":"Cambridge","state_name":"Maryland","lat":38.49537,"lng":-76.07169,"zip":"21613","miles_from_dt":29.11},{"city":"Still Pond","state_name":"Maryland","lat":39.34377,"lng":-76.05188,"zip":"21667","miles_from_dt":29.49},{"city":"Davidsonville","state_name":"Maryland","lat":38.93637,"lng":-76.63875,"zip":"21035","miles_from_dt":29.66},{"city":"Friendship","state_name":"Maryland","lat":38.73399,"lng":-76.58961,"zip":"20758","miles_from_dt":29.84},{"city":"Woodside","state_name":"Delaware","lat":39.07349,"lng":-75.57008,"zip":"19980","miles_from_dt":29.93}],"targetCityZipCode":"21679","targetCityState":"Maryland"},"__N_SSG":true}