{"pageProps":{"stateName":"Maine","cityName":"blue-hill","nearbyCities":[{"city":"East Blue Hill","state_name":"Maine","lat":44.41551,"lng":-68.52147,"zip":"04629","miles_from_dt":3.01},{"city":"Sedgwick","state_name":"Maine","lat":44.34741,"lng":-68.64238,"zip":"04676","miles_from_dt":5.72},{"city":"Surry","state_name":"Maine","lat":44.49335,"lng":-68.52796,"zip":"04684","miles_from_dt":5.84},{"city":"Penobscot","state_name":"Maine","lat":44.47474,"lng":-68.70521,"zip":"04476","miles_from_dt":7.23},{"city":"Brooksville","state_name":"Maine","lat":44.36929,"lng":-68.73081,"zip":"04617","miles_from_dt":8.09},{"city":"Sargentville","state_name":"Maine","lat":44.30484,"lng":-68.67028,"zip":"04673","miles_from_dt":8.96},{"city":"Brooklin","state_name":"Maine","lat":44.28346,"lng":-68.57069,"zip":"04616","miles_from_dt":9.32},{"city":"Castine","state_name":"Maine","lat":44.39467,"lng":-68.78946,"zip":"04420","miles_from_dt":10.38},{"city":"Castine","state_name":"Maine","lat":44.4111,"lng":-68.79524,"zip":"04421","miles_from_dt":10.55},{"city":"East Orland","state_name":"Maine","lat":44.56453,"lng":-68.6678,"zip":"04431","miles_from_dt":10.95},{"city":"Little Deer Isle","state_name":"Maine","lat":44.28924,"lng":-68.71412,"zip":"04650","miles_from_dt":11.04},{"city":"Orland","state_name":"Maine","lat":44.57334,"lng":-68.67736,"zip":"04472","miles_from_dt":11.7},{"city":"Harborside","state_name":"Maine","lat":44.33906,"lng":-68.79591,"zip":"04642","miles_from_dt":11.91},{"city":"Seal Cove","state_name":"Maine","lat":44.29347,"lng":-68.40883,"zip":"04674","miles_from_dt":12.16},{"city":"Sandy Point","state_name":"Maine","lat":44.51252,"lng":-68.81108,"zip":"04972","miles_from_dt":13.06},{"city":"Mount Desert","state_name":"Maine","lat":44.34026,"lng":-68.33231,"zip":"04660","miles_from_dt":13.49},{"city":"Deer Isle","state_name":"Maine","lat":44.22275,"lng":-68.66581,"zip":"04627","miles_from_dt":14.12},{"city":"Salsbury Cove","state_name":"Maine","lat":44.43057,"lng":-68.28396,"zip":"04672","miles_from_dt":14.78},{"city":"Bernard","state_name":"Maine","lat":44.25954,"lng":-68.37722,"zip":"04612","miles_from_dt":14.94},{"city":"Bar Harbor","state_name":"Maine","lat":44.38518,"lng":-68.27108,"zip":"04609","miles_from_dt":15.57},{"city":"Southwest Harbor","state_name":"Maine","lat":44.27843,"lng":-68.33247,"zip":"04679","miles_from_dt":15.69},{"city":"Stockton Springs","state_name":"Maine","lat":44.53228,"lng":-68.85941,"zip":"04981","miles_from_dt":15.81},{"city":"Hancock","state_name":"Maine","lat":44.53803,"lng":-68.30573,"zip":"04640","miles_from_dt":15.98},{"city":"Hulls Cove","state_name":"Maine","lat":44.4144,"lng":-68.25084,"zip":"04644","miles_from_dt":16.4},{"city":"Northeast Harbor","state_name":"Maine","lat":44.30766,"lng":-68.28735,"zip":"04662","miles_from_dt":16.48},{"city":"Bucksport","state_name":"Maine","lat":44.62725,"lng":-68.75286,"zip":"04416","miles_from_dt":16.72},{"city":"Bass Harbor","state_name":"Maine","lat":44.23705,"lng":-68.3431,"zip":"04653","miles_from_dt":17.23},{"city":"Sunset","state_name":"Maine","lat":44.23596,"lng":-68.82368,"zip":"04683","miles_from_dt":17.36},{"city":"Stonington","state_name":"Maine","lat":44.16655,"lng":-68.65646,"zip":"04681","miles_from_dt":17.76},{"city":"Islesboro","state_name":"Maine","lat":44.31083,"lng":-68.90896,"zip":"04848","miles_from_dt":17.8},{"city":"Searsport","state_name":"Maine","lat":44.4893,"lng":-68.92996,"zip":"04974","miles_from_dt":17.88},{"city":"Ellsworth","state_name":"Maine","lat":44.66038,"lng":-68.41623,"zip":"04605","miles_from_dt":18.62},{"city":"Seal Harbor","state_name":"Maine","lat":44.30083,"lng":-68.24223,"zip":"04675","miles_from_dt":18.69},{"city":"Swans Island","state_name":"Maine","lat":44.15869,"lng":-68.44015,"zip":"04685","miles_from_dt":19.25},{"city":"Cranberry Isles","state_name":"Maine","lat":44.25041,"lng":-68.25503,"zip":"04625","miles_from_dt":19.93},{"city":"Sorrento","state_name":"Maine","lat":44.49016,"lng":-68.17945,"zip":"04677","miles_from_dt":20.53},{"city":"Islesford","state_name":"Maine","lat":44.26007,"lng":-68.22812,"zip":"04646","miles_from_dt":20.67},{"city":"Frankfort","state_name":"Maine","lat":44.59856,"lng":-68.91904,"zip":"04438","miles_from_dt":20.79},{"city":"Holden","state_name":"Maine","lat":44.72039,"lng":-68.6171,"zip":"04429","miles_from_dt":20.94},{"city":"Orrington","state_name":"Maine","lat":44.71501,"lng":-68.77901,"zip":"04474","miles_from_dt":22.68},{"city":"Belfast","state_name":"Maine","lat":44.46643,"lng":-69.04156,"zip":"04915","miles_from_dt":22.96},{"city":"North Haven","state_name":"Maine","lat":44.15172,"lng":-68.86311,"zip":"04853","miles_from_dt":23.08},{"city":"Franklin","state_name":"Maine","lat":44.63457,"lng":-68.22253,"zip":"04634","miles_from_dt":23.21},{"city":"Winterport","state_name":"Maine","lat":44.65839,"lng":-68.91189,"zip":"04496","miles_from_dt":23.24},{"city":"Frenchboro","state_name":"Maine","lat":44.11376,"lng":-68.35479,"zip":"04635","miles_from_dt":23.86},{"city":"Sullivan","state_name":"Maine","lat":44.53906,"lng":-68.12797,"zip":"04664","miles_from_dt":23.96},{"city":"Lincolnville","state_name":"Maine","lat":44.3179,"lng":-69.04753,"zip":"04849","miles_from_dt":24.06},{"city":"Winter Harbor","state_name":"Maine","lat":44.38479,"lng":-68.07828,"zip":"04693","miles_from_dt":25.05},{"city":"Isle Au Haut","state_name":"Maine","lat":44.05408,"lng":-68.6282,"zip":"04645","miles_from_dt":25.24},{"city":"Brewer","state_name":"Maine","lat":44.78354,"lng":-68.73517,"zip":"04412","miles_from_dt":26.33},{"city":"Monroe","state_name":"Maine","lat":44.60716,"lng":-69.04575,"zip":"04951","miles_from_dt":26.36},{"city":"Gouldsboro","state_name":"Maine","lat":44.47689,"lng":-68.05228,"zip":"04607","miles_from_dt":26.52},{"city":"Vinalhaven","state_name":"Maine","lat":44.07898,"lng":-68.84384,"zip":"04863","miles_from_dt":26.78},{"city":"Eddington","state_name":"Maine","lat":44.80643,"lng":-68.55584,"zip":"04428","miles_from_dt":26.84},{"city":"Birch Harbor","state_name":"Maine","lat":44.37498,"lng":-68.03593,"zip":"04613","miles_from_dt":27.21},{"city":"Lincolnville Center","state_name":"Maine","lat":44.29488,"lng":-69.10973,"zip":"04850","miles_from_dt":27.48},{"city":"Morrill","state_name":"Maine","lat":44.40934,"lng":-69.14261,"zip":"04952","miles_from_dt":27.74},{"city":"Hampden","state_name":"Maine","lat":44.72591,"lng":-68.94585,"zip":"04444","miles_from_dt":27.81},{"city":"Prospect Harbor","state_name":"Maine","lat":44.40014,"lng":-68.01841,"zip":"04669","miles_from_dt":27.93},{"city":"Camden","state_name":"Maine","lat":44.22929,"lng":-69.08924,"zip":"04843","miles_from_dt":28.31},{"city":"Brooks","state_name":"Maine","lat":44.57256,"lng":-69.13326,"zip":"04921","miles_from_dt":29.24},{"city":"Corea","state_name":"Maine","lat":44.42438,"lng":-67.9877,"zip":"04624","miles_from_dt":29.42}],"targetCityZipCode":"04614","targetCityState":"Maine"},"__N_SSG":true}