{"pageProps":{"stateName":"Maine","cityName":"hebron","nearbyCities":[{"city":"Minot","state_name":"Maine","lat":44.14829,"lng":-70.33794,"zip":"04258","miles_from_dt":4.6},{"city":"South Paris","state_name":"Maine","lat":44.2445,"lng":-70.48832,"zip":"04281","miles_from_dt":5.97},{"city":"Paris","state_name":"Maine","lat":44.26099,"lng":-70.49871,"zip":"04271","miles_from_dt":6.97},{"city":"Mechanic Falls","state_name":"Maine","lat":44.10294,"lng":-70.40733,"zip":"04256","miles_from_dt":7.38},{"city":"Turner","state_name":"Maine","lat":44.26709,"lng":-70.24291,"zip":"04282","miles_from_dt":7.91},{"city":"Buckfield","state_name":"Maine","lat":44.33511,"lng":-70.35286,"zip":"04220","miles_from_dt":8.88},{"city":"Oxford","state_name":"Maine","lat":44.11241,"lng":-70.51559,"zip":"04270","miles_from_dt":9.45},{"city":"North Turner","state_name":"Maine","lat":44.32973,"lng":-70.25716,"zip":"04266","miles_from_dt":10.37},{"city":"West Minot","state_name":"Maine","lat":44.05699,"lng":-70.41347,"zip":"04288","miles_from_dt":10.55},{"city":"Auburn","state_name":"Maine","lat":44.08432,"lng":-70.25126,"zip":"04212","miles_from_dt":10.64},{"city":"Auburn","state_name":"Maine","lat":44.08505,"lng":-70.24923,"zip":"04210","miles_from_dt":10.67},{"city":"Auburn","state_name":"Maine","lat":44.08333,"lng":-70.24712,"zip":"04211","miles_from_dt":10.82},{"city":"West Paris","state_name":"Maine","lat":44.32108,"lng":-70.53248,"zip":"04289","miles_from_dt":10.9},{"city":"Poland","state_name":"Maine","lat":44.04634,"lng":-70.38999,"zip":"04274","miles_from_dt":11.16},{"city":"Norway","state_name":"Maine","lat":44.22842,"lng":-70.60651,"zip":"04268","miles_from_dt":11.37},{"city":"Greene","state_name":"Maine","lat":44.19036,"lng":-70.14461,"zip":"04236","miles_from_dt":11.72},{"city":"West Poland","state_name":"Maine","lat":44.04066,"lng":-70.4446,"zip":"04291","miles_from_dt":11.99},{"city":"Sumner","state_name":"Maine","lat":44.37461,"lng":-70.44674,"zip":"04292","miles_from_dt":11.99},{"city":"East Poland","state_name":"Maine","lat":44.02535,"lng":-70.38649,"zip":"04230","miles_from_dt":12.61},{"city":"Lewiston","state_name":"Maine","lat":44.09208,"lng":-70.17594,"zip":"04243","miles_from_dt":12.89},{"city":"Lewiston","state_name":"Maine","lat":44.09147,"lng":-70.16808,"zip":"04240","miles_from_dt":13.22},{"city":"Danville","state_name":"Maine","lat":44.0303,"lng":-70.27433,"zip":"04223","miles_from_dt":13.33},{"city":"Lewiston","state_name":"Maine","lat":44.08585,"lng":-70.17009,"zip":"04241","miles_from_dt":13.39},{"city":"Leeds","state_name":"Maine","lat":44.29476,"lng":-70.13061,"zip":"04263","miles_from_dt":13.73},{"city":"Livermore","state_name":"Maine","lat":44.4079,"lng":-70.21503,"zip":"04253","miles_from_dt":16.04},{"city":"Greenwood","state_name":"Maine","lat":44.33505,"lng":-70.66863,"zip":"04255","miles_from_dt":16.82},{"city":"Sabattus","state_name":"Maine","lat":44.1215,"lng":-70.06152,"zip":"04280","miles_from_dt":16.88},{"city":"Waterford","state_name":"Maine","lat":44.19352,"lng":-70.71906,"zip":"04088","miles_from_dt":16.9},{"city":"New Gloucester","state_name":"Maine","lat":43.96409,"lng":-70.29589,"zip":"04260","miles_from_dt":17.34},{"city":"North Monmouth","state_name":"Maine","lat":44.27542,"lng":-70.04276,"zip":"04265","miles_from_dt":17.35},{"city":"Bryant Pond","state_name":"Maine","lat":44.40924,"lng":-70.59285,"zip":"04219","miles_from_dt":17.47},{"city":"North Bridgton","state_name":"Maine","lat":44.09563,"lng":-70.70177,"zip":"04057","miles_from_dt":17.8},{"city":"Lisbon","state_name":"Maine","lat":44.02582,"lng":-70.11706,"zip":"04250","miles_from_dt":18.12},{"city":"Harrison","state_name":"Maine","lat":44.10922,"lng":-70.71784,"zip":"04040","miles_from_dt":18.15},{"city":"Casco","state_name":"Maine","lat":43.96503,"lng":-70.5205,"zip":"04015","miles_from_dt":18.18},{"city":"East Livermore","state_name":"Maine","lat":44.40026,"lng":-70.12824,"zip":"04228","miles_from_dt":18.21},{"city":"Wayne","state_name":"Maine","lat":44.34757,"lng":-70.0651,"zip":"04284","miles_from_dt":18.33},{"city":"Monmouth","state_name":"Maine","lat":44.22762,"lng":-70.00868,"zip":"04259","miles_from_dt":18.46},{"city":"Peru","state_name":"Maine","lat":44.47354,"lng":-70.45058,"zip":"04290","miles_from_dt":18.68},{"city":"Canton","state_name":"Maine","lat":44.47242,"lng":-70.29857,"zip":"04221","miles_from_dt":18.7},{"city":"Livermore Falls","state_name":"Maine","lat":44.43249,"lng":-70.14265,"zip":"04254","miles_from_dt":19.45},{"city":"North Waterford","state_name":"Maine","lat":44.22478,"lng":-70.77084,"zip":"04267","miles_from_dt":19.47},{"city":"Naples","state_name":"Maine","lat":43.97065,"lng":-70.61444,"zip":"04055","miles_from_dt":20.13},{"city":"Lisbon Falls","state_name":"Maine","lat":44.02719,"lng":-70.06011,"zip":"04252","miles_from_dt":20.19},{"city":"Durham","state_name":"Maine","lat":43.9644,"lng":-70.12954,"zip":"04222","miles_from_dt":20.91},{"city":"Bridgton","state_name":"Maine","lat":44.04791,"lng":-70.73632,"zip":"04009","miles_from_dt":20.91},{"city":"East Winthrop","state_name":"Maine","lat":44.31344,"lng":-69.97856,"zip":"04343","miles_from_dt":21.18},{"city":"Winthrop","state_name":"Maine","lat":44.31158,"lng":-69.96153,"zip":"04364","miles_from_dt":21.94},{"city":"Kents Hill","state_name":"Maine","lat":44.43734,"lng":-70.07014,"zip":"04349","miles_from_dt":22.05},{"city":"Litchfield","state_name":"Maine","lat":44.16266,"lng":-69.93942,"zip":"04350","miles_from_dt":22.08},{"city":"Raymond","state_name":"Maine","lat":43.89598,"lng":-70.48133,"zip":"04071","miles_from_dt":22.12},{"city":"Gray","state_name":"Maine","lat":43.88744,"lng":-70.34532,"zip":"04039","miles_from_dt":22.19},{"city":"Bowdoin","state_name":"Maine","lat":44.05812,"lng":-69.9694,"zip":"04287","miles_from_dt":22.86},{"city":"North Jay","state_name":"Maine","lat":44.52374,"lng":-70.21012,"zip":"04262","miles_from_dt":23.37},{"city":"Pownal","state_name":"Maine","lat":43.89918,"lng":-70.18191,"zip":"04069","miles_from_dt":23.47},{"city":"Jay","state_name":"Maine","lat":44.53062,"lng":-70.20935,"zip":"04239","miles_from_dt":23.82},{"city":"South Casco","state_name":"Maine","lat":43.87173,"lng":-70.51401,"zip":"04077","miles_from_dt":24.16},{"city":"Readfield","state_name":"Maine","lat":44.38227,"lng":-69.94915,"zip":"04355","miles_from_dt":24.5},{"city":"Center Lovell","state_name":"Maine","lat":44.17235,"lng":-70.87315,"zip":"04016","miles_from_dt":24.65},{"city":"Bethel","state_name":"Maine","lat":44.36726,"lng":-70.83364,"zip":"04217","miles_from_dt":25.07},{"city":"Lovell","state_name":"Maine","lat":44.18945,"lng":-70.88477,"zip":"04051","miles_from_dt":25.14},{"city":"East Dixfield","state_name":"Maine","lat":44.56866,"lng":-70.29471,"zip":"04227","miles_from_dt":25.26},{"city":"Rumford","state_name":"Maine","lat":44.53469,"lng":-70.61541,"zip":"04276","miles_from_dt":25.42},{"city":"Stoneham","state_name":"Maine","lat":44.26438,"lng":-70.88777,"zip":"04231","miles_from_dt":25.54},{"city":"North Yarmouth","state_name":"Maine","lat":43.85123,"lng":-70.23636,"zip":"04097","miles_from_dt":25.63},{"city":"Dixfield","state_name":"Maine","lat":44.58001,"lng":-70.40058,"zip":"04224","miles_from_dt":25.72},{"city":"Sebago","state_name":"Maine","lat":43.89479,"lng":-70.66007,"zip":"04029","miles_from_dt":25.74},{"city":"Mexico","state_name":"Maine","lat":44.57347,"lng":-70.51358,"zip":"04257","miles_from_dt":26.1},{"city":"Hanover","state_name":"Maine","lat":44.49665,"lng":-70.7256,"zip":"04237","miles_from_dt":26.3},{"city":"Denmark","state_name":"Maine","lat":43.98055,"lng":-70.80718,"zip":"04022","miles_from_dt":26.45},{"city":"Topsham","state_name":"Maine","lat":43.96145,"lng":-69.95872,"zip":"04086","miles_from_dt":26.98},{"city":"Manchester","state_name":"Maine","lat":44.33174,"lng":-69.86082,"zip":"04351","miles_from_dt":27.11},{"city":"Mount Vernon","state_name":"Maine","lat":44.46478,"lng":-69.96225,"zip":"04352","miles_from_dt":27.24},{"city":"Dryden","state_name":"Maine","lat":44.585,"lng":-70.21565,"zip":"04225","miles_from_dt":27.27},{"city":"West Bethel","state_name":"Maine","lat":44.4032,"lng":-70.86019,"zip":"04286","miles_from_dt":27.39},{"city":"Freeport","state_name":"Maine","lat":43.85658,"lng":-70.10259,"zip":"04034","miles_from_dt":27.9},{"city":"Freeport","state_name":"Maine","lat":43.85647,"lng":-70.10233,"zip":"04033","miles_from_dt":27.91},{"city":"Farmingdale","state_name":"Maine","lat":44.2588,"lng":-69.82125,"zip":"04344","miles_from_dt":27.93},{"city":"Richmond","state_name":"Maine","lat":44.12366,"lng":-69.82883,"zip":"04357","miles_from_dt":27.97},{"city":"Freeport","state_name":"Maine","lat":43.85561,"lng":-70.10085,"zip":"04032","miles_from_dt":28},{"city":"Bowdoinham","state_name":"Maine","lat":44.03664,"lng":-69.86337,"zip":"04008","miles_from_dt":28.25},{"city":"Windham","state_name":"Maine","lat":43.79798,"lng":-70.40547,"zip":"04062","miles_from_dt":28.33},{"city":"Hallowell","state_name":"Maine","lat":44.29047,"lng":-69.81399,"zip":"04347","miles_from_dt":28.63},{"city":"Cumberland Center","state_name":"Maine","lat":43.79756,"lng":-70.26519,"zip":"04021","miles_from_dt":28.89},{"city":"Wilton","state_name":"Maine","lat":44.62346,"lng":-70.27075,"zip":"04294","miles_from_dt":29.2},{"city":"Brunswick","state_name":"Maine","lat":43.90068,"lng":-69.97607,"zip":"04011","miles_from_dt":29.21},{"city":"Fryeburg","state_name":"Maine","lat":44.09129,"lng":-70.94942,"zip":"04037","miles_from_dt":29.46},{"city":"Gardiner","state_name":"Maine","lat":44.19816,"lng":-69.7841,"zip":"04345","miles_from_dt":29.57},{"city":"East Wilton","state_name":"Maine","lat":44.61624,"lng":-70.19359,"zip":"04234","miles_from_dt":29.66},{"city":"East Baldwin","state_name":"Maine","lat":43.83556,"lng":-70.67701,"zip":"04024","miles_from_dt":29.67},{"city":"South Freeport","state_name":"Maine","lat":43.82136,"lng":-70.11161,"zip":"04078","miles_from_dt":29.83},{"city":"Vienna","state_name":"Maine","lat":44.54741,"lng":-70.00299,"zip":"04360","miles_from_dt":29.95}],"targetCityZipCode":"04238","targetCityState":"Maine"},"__N_SSG":true}