{"pageProps":{"stateName":"Virginia","cityName":"dogue","nearbyCities":[{"city":"King George","state_name":"Virginia","lat":38.2717,"lng":-77.15996,"zip":"22485","miles_from_dt":3.87},{"city":"Jersey","state_name":"Virginia","lat":38.21048,"lng":-77.13727,"zip":"22481","miles_from_dt":4.51},{"city":"Rappahannock Academy","state_name":"Virginia","lat":38.18941,"lng":-77.27334,"zip":"22538","miles_from_dt":4.52},{"city":"Sealston","state_name":"Virginia","lat":38.25047,"lng":-77.31107,"zip":"22547","miles_from_dt":5.38},{"city":"Port Royal","state_name":"Virginia","lat":38.12314,"lng":-77.19619,"zip":"22535","miles_from_dt":7.79},{"city":"Rollins Fork","state_name":"Virginia","lat":38.18562,"lng":-77.06584,"zip":"22544","miles_from_dt":8.76},{"city":"Ninde","state_name":"Virginia","lat":38.27014,"lng":-77.05432,"zip":"22526","miles_from_dt":9.01},{"city":"Corbin","state_name":"Virginia","lat":38.19777,"lng":-77.39052,"zip":"22446","miles_from_dt":9.95},{"city":"Fredericksburg","state_name":"Virginia","lat":38.31568,"lng":-77.40377,"zip":"22405","miles_from_dt":11.71},{"city":"Bowling Green","state_name":"Virginia","lat":38.07177,"lng":-77.28624,"zip":"22427","miles_from_dt":11.94},{"city":"Loretto","state_name":"Virginia","lat":38.10642,"lng":-77.06669,"zip":"22509","miles_from_dt":11.97},{"city":"Dahlgren","state_name":"Virginia","lat":38.33996,"lng":-77.03238,"zip":"22448","miles_from_dt":12.23},{"city":"Colonial Beach","state_name":"Virginia","lat":38.18078,"lng":-76.99776,"zip":"22443","miles_from_dt":12.35},{"city":"Fredericksburg","state_name":"Virginia","lat":38.21916,"lng":-77.44013,"zip":"22408","miles_from_dt":12.35},{"city":"Brooke","state_name":"Virginia","lat":38.37879,"lng":-77.36252,"zip":"22430","miles_from_dt":12.77},{"city":"Nanjemoy","state_name":"Maryland","lat":38.43359,"lng":-77.19972,"zip":"20662","miles_from_dt":13.7},{"city":"Fredericksburg","state_name":"Virginia","lat":38.29772,"lng":-77.45646,"zip":"22404","miles_from_dt":13.87},{"city":"Bowling Green","state_name":"Virginia","lat":38.04738,"lng":-77.34812,"zip":"22428","miles_from_dt":14.87},{"city":"Caret","state_name":"Virginia","lat":38.04698,"lng":-77.07471,"zip":"22436","miles_from_dt":15.04},{"city":"Woodford","state_name":"Virginia","lat":38.10941,"lng":-77.44419,"zip":"22580","miles_from_dt":15.24},{"city":"Fredericksburg","state_name":"Virginia","lat":38.29928,"lng":-77.48704,"zip":"22401","miles_from_dt":15.49},{"city":"Fredericksburg","state_name":"Virginia","lat":38.29992,"lng":-77.48821,"zip":"22412","miles_from_dt":15.56},{"city":"Hustle","state_name":"Virginia","lat":38.03807,"lng":-77.06872,"zip":"22476","miles_from_dt":15.73},{"city":"Stafford","state_name":"Virginia","lat":38.42285,"lng":-77.3835,"zip":"22554","miles_from_dt":15.88},{"city":"Fredericksburg","state_name":"Virginia","lat":38.35086,"lng":-77.47736,"zip":"22403","miles_from_dt":16.39},{"city":"Stafford","state_name":"Virginia","lat":38.42026,"lng":-77.40955,"zip":"22555","miles_from_dt":16.61},{"city":"Sparta","state_name":"Virginia","lat":37.9913,"lng":-77.22889,"zip":"22552","miles_from_dt":16.84},{"city":"Welcome","state_name":"Maryland","lat":38.45924,"lng":-77.08931,"zip":"20693","miles_from_dt":16.87},{"city":"Issue","state_name":"Maryland","lat":38.29838,"lng":-76.91413,"zip":"20645","miles_from_dt":16.88},{"city":"Rock Point","state_name":"Maryland","lat":38.34621,"lng":-76.92068,"zip":"20682","miles_from_dt":17.69},{"city":"Ironsides","state_name":"Maryland","lat":38.49143,"lng":-77.15828,"zip":"20643","miles_from_dt":17.93},{"city":"Champlain","state_name":"Virginia","lat":38.03788,"lng":-76.99971,"zip":"22438","miles_from_dt":17.93},{"city":"Newburg","state_name":"Maryland","lat":38.35062,"lng":-76.91631,"zip":"20664","miles_from_dt":18.03},{"city":"Thornburg","state_name":"Virginia","lat":38.13336,"lng":-77.51978,"zip":"22565","miles_from_dt":18.07},{"city":"Milford","state_name":"Virginia","lat":37.9724,"lng":-77.24471,"zip":"22514","miles_from_dt":18.2},{"city":"Faulkner","state_name":"Maryland","lat":38.42591,"lng":-76.95682,"zip":"20632","miles_from_dt":19.19},{"city":"Fredericksburg","state_name":"Virginia","lat":38.25611,"lng":-77.56679,"zip":"22402","miles_from_dt":19.24},{"city":"Cobb Island","state_name":"Maryland","lat":38.26212,"lng":-76.84877,"zip":"20625","miles_from_dt":19.95},{"city":"Bel Alton","state_name":"Maryland","lat":38.46251,"lng":-76.98538,"zip":"20611","miles_from_dt":20},{"city":"Quantico","state_name":"Virginia","lat":38.52118,"lng":-77.28805,"zip":"22135","miles_from_dt":20.13},{"city":"Mount Victoria","state_name":"Maryland","lat":38.26474,"lng":-76.84473,"zip":"20661","miles_from_dt":20.19},{"city":"Fredericksburg","state_name":"Virginia","lat":38.28581,"lng":-77.58055,"zip":"22407","miles_from_dt":20.24},{"city":"Port Tobacco","state_name":"Maryland","lat":38.49992,"lng":-77.04016,"zip":"20677","miles_from_dt":20.55},{"city":"Stratford","state_name":"Virginia","lat":38.14647,"lng":-76.84229,"zip":"22558","miles_from_dt":21.14},{"city":"Fredericksburg","state_name":"Virginia","lat":38.39964,"lng":-77.55596,"zip":"22406","miles_from_dt":21.77},{"city":"Newtown","state_name":"Virginia","lat":37.92285,"lng":-77.1448,"zip":"23126","miles_from_dt":21.87},{"city":"Indian Head","state_name":"Maryland","lat":38.55408,"lng":-77.1657,"zip":"20640","miles_from_dt":22.15},{"city":"Ladysmith","state_name":"Virginia","lat":38.01636,"lng":-77.51743,"zip":"22501","miles_from_dt":22.39},{"city":"Garrisonville","state_name":"Virginia","lat":38.47914,"lng":-77.49634,"zip":"22463","miles_from_dt":22.76},{"city":"La Plata","state_name":"Maryland","lat":38.52114,"lng":-76.99989,"zip":"20646","miles_from_dt":22.89},{"city":"Hartwood","state_name":"Virginia","lat":38.40242,"lng":-77.58067,"zip":"22471","miles_from_dt":23.02},{"city":"Quantico","state_name":"Virginia","lat":38.53186,"lng":-77.409,"zip":"22134","miles_from_dt":23.04},{"city":"Spotsylvania","state_name":"Virginia","lat":38.26594,"lng":-77.6397,"zip":"22553","miles_from_dt":23.25},{"city":"Marbury","state_name":"Maryland","lat":38.56973,"lng":-77.15958,"zip":"20658","miles_from_dt":23.26},{"city":"Dumfries","state_name":"Virginia","lat":38.56717,"lng":-77.29476,"zip":"22026","miles_from_dt":23.31},{"city":"Bushwood","state_name":"Maryland","lat":38.28152,"lng":-76.78891,"zip":"20618","miles_from_dt":23.34},{"city":"Montross","state_name":"Virginia","lat":38.11651,"lng":-76.80634,"zip":"22520","miles_from_dt":23.66},{"city":"Stafford","state_name":"Virginia","lat":38.48624,"lng":-77.513,"zip":"22556","miles_from_dt":23.74},{"city":"Chaptico","state_name":"Maryland","lat":38.33062,"lng":-76.79438,"zip":"20621","miles_from_dt":23.74},{"city":"Ruther Glen","state_name":"Virginia","lat":37.94342,"lng":-77.44565,"zip":"22546","miles_from_dt":23.76},{"city":"Coltons Point","state_name":"Maryland","lat":38.23256,"lng":-76.76404,"zip":"20626","miles_from_dt":24.48},{"city":"Zacata","state_name":"Virginia","lat":38.1197,"lng":-76.785,"zip":"22581","miles_from_dt":24.68},{"city":"Ruby","state_name":"Virginia","lat":38.50435,"lng":-77.51768,"zip":"22545","miles_from_dt":24.83},{"city":"Charlotte Hall","state_name":"Maryland","lat":38.45281,"lng":-76.84504,"zip":"20622","miles_from_dt":25.04},{"city":"Triangle","state_name":"Virginia","lat":38.5742,"lng":-77.3895,"zip":"22172","miles_from_dt":25.25},{"city":"Avenue","state_name":"Maryland","lat":38.27191,"lng":-76.74625,"zip":"20609","miles_from_dt":25.57},{"city":"Abell","state_name":"Maryland","lat":38.25412,"lng":-76.73878,"zip":"20606","miles_from_dt":25.88},{"city":"Dumfries","state_name":"Virginia","lat":38.59874,"lng":-77.3491,"zip":"22025","miles_from_dt":26.12},{"city":"Tappahannock","state_name":"Virginia","lat":37.91289,"lng":-76.96196,"zip":"22560","miles_from_dt":26.14},{"city":"Pomfret","state_name":"Maryland","lat":38.58349,"lng":-77.01522,"zip":"20675","miles_from_dt":26.33},{"city":"Partlow","state_name":"Virginia","lat":38.08473,"lng":-77.67062,"zip":"22534","miles_from_dt":26.94},{"city":"Clements","state_name":"Maryland","lat":38.33523,"lng":-76.73451,"zip":"20624","miles_from_dt":26.97},{"city":"Woodbridge","state_name":"Virginia","lat":38.6249,"lng":-77.26849,"zip":"22191","miles_from_dt":27.04},{"city":"Spotsylvania","state_name":"Virginia","lat":38.17273,"lng":-77.70575,"zip":"22551","miles_from_dt":27.11},{"city":"Woodbridge","state_name":"Virginia","lat":38.63496,"lng":-77.25982,"zip":"22194","miles_from_dt":27.68},{"city":"White Plains","state_name":"Maryland","lat":38.58885,"lng":-76.97269,"zip":"20695","miles_from_dt":27.69},{"city":"Saint Stephens Church","state_name":"Virginia","lat":37.84262,"lng":-77.06223,"zip":"23148","miles_from_dt":28.32},{"city":"Richardsville","state_name":"Virginia","lat":38.39633,"lng":-77.69673,"zip":"22736","miles_from_dt":28.49},{"city":"Bryantown","state_name":"Maryland","lat":38.54351,"lng":-76.854,"zip":"20617","miles_from_dt":28.88},{"city":"Goldvein","state_name":"Virginia","lat":38.48044,"lng":-77.6468,"zip":"22720","miles_from_dt":28.96},{"city":"Woodbridge","state_name":"Virginia","lat":38.64233,"lng":-77.34881,"zip":"22193","miles_from_dt":29.02},{"city":"Morganza","state_name":"Maryland","lat":38.36928,"lng":-76.70741,"zip":"20660","miles_from_dt":29.05},{"city":"Mechanicsville","state_name":"Maryland","lat":38.41886,"lng":-76.73238,"zip":"20659","miles_from_dt":29.07},{"city":"Woodbridge","state_name":"Virginia","lat":38.65844,"lng":-77.24958,"zip":"22195","miles_from_dt":29.26},{"city":"Somerville","state_name":"Virginia","lat":38.52399,"lng":-77.61049,"zip":"22739","miles_from_dt":29.33},{"city":"Aylett","state_name":"Virginia","lat":37.81038,"lng":-77.18717,"zip":"23009","miles_from_dt":29.34},{"city":"Waldorf","state_name":"Maryland","lat":38.58335,"lng":-76.89466,"zip":"20602","miles_from_dt":29.61},{"city":"Bryans Road","state_name":"Maryland","lat":38.65443,"lng":-77.08848,"zip":"20616","miles_from_dt":29.71},{"city":"Warsaw","state_name":"Virginia","lat":37.97552,"lng":-76.77495,"zip":"22572","miles_from_dt":29.89},{"city":"Loveville","state_name":"Maryland","lat":38.33914,"lng":-76.6787,"zip":"20656","miles_from_dt":29.97}],"targetCityZipCode":"22451","targetCityState":"Virginia"},"__N_SSG":true}