{"pageProps":{"stateName":"Virginia","cityName":"haywood","nearbyCities":[{"city":"Reva","state_name":"Virginia","lat":38.47941,"lng":-78.18336,"zip":"22735","miles_from_dt":2.6},{"city":"Banco","state_name":"Virginia","lat":38.46239,"lng":-78.27634,"zip":"22711","miles_from_dt":2.71},{"city":"Brightwood","state_name":"Virginia","lat":38.41032,"lng":-78.18541,"zip":"22715","miles_from_dt":4.26},{"city":"Leon","state_name":"Virginia","lat":38.44029,"lng":-78.1527,"zip":"22725","miles_from_dt":4.3},{"city":"Etlan","state_name":"Virginia","lat":38.52888,"lng":-78.28337,"zip":"22719","miles_from_dt":5.49},{"city":"Madison","state_name":"Virginia","lat":38.39626,"lng":-78.30058,"zip":"22727","miles_from_dt":6.12},{"city":"Oakpark","state_name":"Virginia","lat":38.36782,"lng":-78.16635,"zip":"22730","miles_from_dt":7.33},{"city":"Boston","state_name":"Virginia","lat":38.54123,"lng":-78.13204,"zip":"22713","miles_from_dt":7.43},{"city":"Pratts","state_name":"Virginia","lat":38.34413,"lng":-78.26151,"zip":"22731","miles_from_dt":8.42},{"city":"Syria","state_name":"Virginia","lat":38.52477,"lng":-78.37132,"zip":"22743","miles_from_dt":8.93},{"city":"Aroda","state_name":"Virginia","lat":38.32769,"lng":-78.21732,"zip":"22709","miles_from_dt":9.35},{"city":"Locust Dale","state_name":"Virginia","lat":38.35154,"lng":-78.12264,"zip":"22948","miles_from_dt":9.53},{"city":"Wolftown","state_name":"Virginia","lat":38.35812,"lng":-78.3482,"zip":"22748","miles_from_dt":9.8},{"city":"Radiant","state_name":"Virginia","lat":38.30886,"lng":-78.19153,"zip":"22732","miles_from_dt":10.8},{"city":"Woodville","state_name":"Virginia","lat":38.61945,"lng":-78.18394,"zip":"22749","miles_from_dt":11.03},{"city":"Sperryville","state_name":"Virginia","lat":38.63805,"lng":-78.26163,"zip":"22740","miles_from_dt":12.22},{"city":"Hood","state_name":"Virginia","lat":38.33789,"lng":-78.38821,"zip":"22723","miles_from_dt":12.31},{"city":"Rochelle","state_name":"Virginia","lat":38.28692,"lng":-78.27685,"zip":"22738","miles_from_dt":12.45},{"city":"Culpeper","state_name":"Virginia","lat":38.44038,"lng":-77.99633,"zip":"22701","miles_from_dt":12.58},{"city":"Castleton","state_name":"Virginia","lat":38.62596,"lng":-78.10794,"zip":"22716","miles_from_dt":12.94},{"city":"Woodberry Forest","state_name":"Virginia","lat":38.29328,"lng":-78.11943,"zip":"22989","miles_from_dt":13.07},{"city":"Rapidan","state_name":"Virginia","lat":38.33191,"lng":-78.0467,"zip":"22733","miles_from_dt":13.3},{"city":"Mitchells","state_name":"Virginia","lat":38.35658,"lng":-78.01596,"zip":"22729","miles_from_dt":13.58},{"city":"Rixeyville","state_name":"Virginia","lat":38.59024,"lng":-78.00205,"zip":"22737","miles_from_dt":14.99},{"city":"Stanardsville","state_name":"Virginia","lat":38.33588,"lng":-78.46915,"zip":"22973","miles_from_dt":15.83},{"city":"Viewtown","state_name":"Virginia","lat":38.62922,"lng":-78.0195,"zip":"22746","miles_from_dt":16.03},{"city":"Montpelier Station","state_name":"Virginia","lat":38.22998,"lng":-78.1918,"zip":"22957","miles_from_dt":16.18},{"city":"Stanley","state_name":"Virginia","lat":38.56061,"lng":-78.51061,"zip":"22851","miles_from_dt":16.81},{"city":"Quinque","state_name":"Virginia","lat":38.27941,"lng":-78.43045,"zip":"22965","miles_from_dt":16.83},{"city":"Somerset","state_name":"Virginia","lat":38.21746,"lng":-78.23451,"zip":"22972","miles_from_dt":16.94},{"city":"Washington","state_name":"Virginia","lat":38.7122,"lng":-78.16768,"zip":"22747","miles_from_dt":17.48},{"city":"Ruckersville","state_name":"Virginia","lat":38.24111,"lng":-78.39407,"zip":"22968","miles_from_dt":17.81},{"city":"Brandy Station","state_name":"Virginia","lat":38.52068,"lng":-77.89363,"zip":"22714","miles_from_dt":18.48},{"city":"Orange","state_name":"Virginia","lat":38.21992,"lng":-78.06624,"zip":"22960","miles_from_dt":18.89},{"city":"Luray","state_name":"Virginia","lat":38.67199,"lng":-78.4548,"zip":"22835","miles_from_dt":18.99},{"city":"Amissville","state_name":"Virginia","lat":38.6871,"lng":-78.0133,"zip":"20106","miles_from_dt":19.29},{"city":"Stevensburg","state_name":"Virginia","lat":38.44541,"lng":-77.86819,"zip":"22741","miles_from_dt":19.47},{"city":"Barboursville","state_name":"Virginia","lat":38.18671,"lng":-78.32405,"zip":"22923","miles_from_dt":19.78},{"city":"Jeffersonton","state_name":"Virginia","lat":38.63286,"lng":-77.90752,"zip":"22724","miles_from_dt":20.87},{"city":"Burr Hill","state_name":"Virginia","lat":38.35875,"lng":-77.86093,"zip":"22433","miles_from_dt":21.1},{"city":"Elkton","state_name":"Virginia","lat":38.3903,"lng":-78.6131,"zip":"22827","miles_from_dt":21.57},{"city":"Rileyville","state_name":"Virginia","lat":38.75893,"lng":-78.35817,"zip":"22650","miles_from_dt":21.62},{"city":"Flint Hill","state_name":"Virginia","lat":38.76554,"lng":-78.11371,"zip":"22627","miles_from_dt":21.74},{"city":"Rhoadesville","state_name":"Virginia","lat":38.29348,"lng":-77.88837,"zip":"22542","miles_from_dt":21.77},{"city":"Elkwood","state_name":"Virginia","lat":38.47076,"lng":-77.82026,"zip":"22718","miles_from_dt":22.03},{"city":"Shenandoah","state_name":"Virginia","lat":38.5256,"lng":-78.6253,"zip":"22849","miles_from_dt":22.05},{"city":"Lignum","state_name":"Virginia","lat":38.40179,"lng":-77.81796,"zip":"22726","miles_from_dt":22.56},{"city":"Dyke","state_name":"Virginia","lat":38.25785,"lng":-78.55474,"zip":"22935","miles_from_dt":22.76},{"city":"Unionville","state_name":"Virginia","lat":38.23395,"lng":-77.92401,"zip":"22567","miles_from_dt":22.79},{"city":"Remington","state_name":"Virginia","lat":38.52757,"lng":-77.81119,"zip":"22734","miles_from_dt":22.95},{"city":"Huntly","state_name":"Virginia","lat":38.80737,"lng":-78.13302,"zip":"22640","miles_from_dt":24.28},{"city":"Orlean","state_name":"Virginia","lat":38.74958,"lng":-77.96246,"zip":"20128","miles_from_dt":24.39},{"city":"Bentonville","state_name":"Virginia","lat":38.81803,"lng":-78.28102,"zip":"22610","miles_from_dt":24.66},{"city":"Gordonsville","state_name":"Virginia","lat":38.10397,"lng":-78.19684,"zip":"22942","miles_from_dt":24.82},{"city":"Earlysville","state_name":"Virginia","lat":38.1671,"lng":-78.49974,"zip":"22936","miles_from_dt":25.24},{"city":"Locust Grove","state_name":"Virginia","lat":38.31732,"lng":-77.7913,"zip":"22508","miles_from_dt":25.67},{"city":"Warrenton","state_name":"Virginia","lat":38.69045,"lng":-77.843,"zip":"20186","miles_from_dt":26.02},{"city":"Bealeton","state_name":"Virginia","lat":38.55632,"lng":-77.75884,"zip":"22712","miles_from_dt":26.15},{"city":"Warrenton","state_name":"Virginia","lat":38.70589,"lng":-77.83937,"zip":"20188","miles_from_dt":26.83},{"city":"Free Union","state_name":"Virginia","lat":38.20559,"lng":-78.59705,"zip":"22940","miles_from_dt":26.85},{"city":"New Market","state_name":"Virginia","lat":38.65886,"lng":-78.66038,"zip":"22844","miles_from_dt":27.11},{"city":"Hume","state_name":"Virginia","lat":38.82625,"lng":-78.0321,"zip":"22639","miles_from_dt":27.17},{"city":"Charlottesville","state_name":"Virginia","lat":38.09522,"lng":-78.4078,"zip":"22911","miles_from_dt":27.22},{"city":"Chester Gap","state_name":"Virginia","lat":38.85158,"lng":-78.13734,"zip":"22623","miles_from_dt":27.23},{"city":"Sumerduck","state_name":"Virginia","lat":38.4589,"lng":-77.71179,"zip":"22742","miles_from_dt":27.91},{"city":"Fort Valley","state_name":"Virginia","lat":38.83921,"lng":-78.42894,"zip":"22652","miles_from_dt":28.16},{"city":"Lacey Spring","state_name":"Virginia","lat":38.54906,"lng":-78.73505,"zip":"22833","miles_from_dt":28.2},{"city":"McGaheysville","state_name":"Virginia","lat":38.38642,"lng":-78.73845,"zip":"22840","miles_from_dt":28.28},{"city":"Keezletown","state_name":"Virginia","lat":38.45778,"lng":-78.75692,"zip":"22832","miles_from_dt":28.77},{"city":"Richardsville","state_name":"Virginia","lat":38.39633,"lng":-77.69673,"zip":"22736","miles_from_dt":29.11},{"city":"Trevilians","state_name":"Virginia","lat":38.05374,"lng":-78.07248,"zip":"23170","miles_from_dt":29.45},{"city":"Keswick","state_name":"Virginia","lat":38.04326,"lng":-78.32624,"zip":"22947","miles_from_dt":29.46}],"targetCityZipCode":"22722","targetCityState":"Virginia"},"__N_SSG":true}