{"pageProps":{"stateName":"Virginia","cityName":"hot-springs","nearbyCities":[{"city":"Bacova","state_name":"Virginia","lat":38.05774,"lng":-79.83096,"zip":"24412","miles_from_dt":6.86},{"city":"Selma","state_name":"Virginia","lat":37.80504,"lng":-79.84731,"zip":"24474","miles_from_dt":11.26},{"city":"Clifton Forge","state_name":"Virginia","lat":37.83041,"lng":-79.75128,"zip":"24422","miles_from_dt":11.71},{"city":"Low Moor","state_name":"Virginia","lat":37.79379,"lng":-79.87014,"zip":"24457","miles_from_dt":11.9},{"city":"Iron Gate","state_name":"Virginia","lat":37.79836,"lng":-79.79002,"zip":"24448","miles_from_dt":12.58},{"city":"Warm Springs","state_name":"Virginia","lat":38.1448,"lng":-79.82013,"zip":"24484","miles_from_dt":12.75},{"city":"Millboro","state_name":"Virginia","lat":38.02237,"lng":-79.65048,"zip":"24460","miles_from_dt":13.12},{"city":"Glen Wilton","state_name":"Virginia","lat":37.75338,"lng":-79.81662,"zip":"24438","miles_from_dt":15.08},{"city":"Covington","state_name":"Virginia","lat":37.76589,"lng":-80.06927,"zip":"24426","miles_from_dt":17.25},{"city":"White Sulphur Springs","state_name":"West Virginia","lat":37.91189,"lng":-80.19455,"zip":"24986","miles_from_dt":17.58},{"city":"Eagle Rock","state_name":"Virginia","lat":37.67539,"lng":-79.83639,"zip":"24085","miles_from_dt":20.2},{"city":"Marlinton","state_name":"West Virginia","lat":38.22932,"lng":-80.07436,"zip":"24954","miles_from_dt":21.01},{"city":"Oriskany","state_name":"Virginia","lat":37.66188,"lng":-79.83496,"zip":"24130","miles_from_dt":21.13},{"city":"Buckeye","state_name":"West Virginia","lat":38.19294,"lng":-80.15174,"zip":"24924","miles_from_dt":21.54},{"city":"Goshen","state_name":"Virginia","lat":38.01151,"lng":-79.47359,"zip":"24439","miles_from_dt":22.41},{"city":"Lexington","state_name":"Virginia","lat":37.77883,"lng":-79.53888,"zip":"24450","miles_from_dt":22.69},{"city":"Williamsville","state_name":"Virginia","lat":38.20099,"lng":-79.58105,"zip":"24487","miles_from_dt":22.98},{"city":"Dunmore","state_name":"West Virginia","lat":38.32836,"lng":-79.89267,"zip":"24934","miles_from_dt":24.99},{"city":"Hillsboro","state_name":"West Virginia","lat":38.17891,"lng":-80.2671,"zip":"24946","miles_from_dt":25.7},{"city":"Rockbridge Baths","state_name":"Virginia","lat":37.9129,"lng":-79.41052,"zip":"24473","miles_from_dt":25.91},{"city":"Renick","state_name":"West Virginia","lat":38.03345,"lng":-80.35283,"zip":"24966","miles_from_dt":26.21},{"city":"Natural Bridge","state_name":"Virginia","lat":37.66269,"lng":-79.55693,"zip":"24578","miles_from_dt":27.4},{"city":"Frankford","state_name":"West Virginia","lat":37.92516,"lng":-80.38083,"zip":"24938","miles_from_dt":27.49},{"city":"Deerfield","state_name":"Virginia","lat":38.17639,"lng":-79.43845,"zip":"24432","miles_from_dt":28.11},{"city":"Maxwelton","state_name":"West Virginia","lat":37.88729,"lng":-80.40827,"zip":"24957","miles_from_dt":29.36},{"city":"Cass","state_name":"West Virginia","lat":38.38999,"lng":-79.965,"zip":"24927","miles_from_dt":29.6}],"targetCityZipCode":"24445","targetCityState":"Virginia"},"__N_SSG":true}