{"pageProps":{"stateName":"Virginia","cityName":"lynch-station","nearbyCities":[{"city":"Huddleston","state_name":"Virginia","lat":37.13546,"lng":-79.48773,"zip":"24104","miles_from_dt":5.96},{"city":"Hurt","state_name":"Virginia","lat":37.06106,"lng":-79.27385,"zip":"24563","miles_from_dt":7.84},{"city":"Altavista","state_name":"Virginia","lat":37.14532,"lng":-79.23258,"zip":"24517","miles_from_dt":8.15},{"city":"Evington","state_name":"Virginia","lat":37.23493,"lng":-79.26898,"zip":"24550","miles_from_dt":9.13},{"city":"Pittsville","state_name":"Virginia","lat":37.01092,"lng":-79.4752,"zip":"24139","miles_from_dt":10.15},{"city":"Gretna","state_name":"Virginia","lat":36.9666,"lng":-79.30401,"zip":"24557","miles_from_dt":12.46},{"city":"Sandy Level","state_name":"Virginia","lat":36.98132,"lng":-79.54391,"zip":"24161","miles_from_dt":14.04},{"city":"Moneta","state_name":"Virginia","lat":37.1709,"lng":-79.64141,"zip":"24121","miles_from_dt":14.63},{"city":"Lowry","state_name":"Virginia","lat":37.3486,"lng":-79.4272,"zip":"24570","miles_from_dt":14.84},{"city":"Long Island","state_name":"Virginia","lat":37.0463,"lng":-79.12129,"zip":"24569","miles_from_dt":15.58},{"city":"Bedford","state_name":"Virginia","lat":37.3364,"lng":-79.52347,"zip":"24523","miles_from_dt":15.89},{"city":"Forest","state_name":"Virginia","lat":37.36655,"lng":-79.3268,"zip":"24551","miles_from_dt":16.12},{"city":"Goode","state_name":"Virginia","lat":37.38093,"lng":-79.4021,"zip":"24556","miles_from_dt":16.89},{"city":"Gladys","state_name":"Virginia","lat":37.13674,"lng":-79.06639,"zip":"24554","miles_from_dt":17.31},{"city":"Lynchburg","state_name":"Virginia","lat":37.35624,"lng":-79.2194,"zip":"24502","miles_from_dt":17.53},{"city":"Rustburg","state_name":"Virginia","lat":37.26408,"lng":-79.09997,"zip":"24588","miles_from_dt":17.76},{"city":"Lynchburg","state_name":"Virginia","lat":37.36583,"lng":-79.21529,"zip":"24514","miles_from_dt":18.22},{"city":"Lynchburg","state_name":"Virginia","lat":37.35261,"lng":-79.17827,"zip":"24515","miles_from_dt":18.58},{"city":"Lynchburg","state_name":"Virginia","lat":37.35591,"lng":-79.16674,"zip":"24506","miles_from_dt":19.14},{"city":"Union Hall","state_name":"Virginia","lat":37.00937,"lng":-79.69193,"zip":"24176","miles_from_dt":19.35},{"city":"Lynchburg","state_name":"Virginia","lat":37.35565,"lng":-79.15608,"zip":"24501","miles_from_dt":19.5},{"city":"Goodview","state_name":"Virginia","lat":37.22304,"lng":-79.73787,"zip":"24095","miles_from_dt":20.63},{"city":"Chatham","state_name":"Virginia","lat":36.83922,"lng":-79.44332,"zip":"24531","miles_from_dt":20.81},{"city":"Penhook","state_name":"Virginia","lat":36.92587,"lng":-79.65456,"zip":"24137","miles_from_dt":21.03},{"city":"Lynchburg","state_name":"Virginia","lat":37.40369,"lng":-79.18986,"zip":"24513","miles_from_dt":21.18},{"city":"Thaxton","state_name":"Virginia","lat":37.35087,"lng":-79.66762,"zip":"24174","miles_from_dt":21.68},{"city":"Wirtz","state_name":"Virginia","lat":37.0881,"lng":-79.77642,"zip":"24184","miles_from_dt":22.16},{"city":"Java","state_name":"Virginia","lat":36.85259,"lng":-79.18588,"zip":"24565","miles_from_dt":22.34},{"city":"Lynchburg","state_name":"Virginia","lat":37.45272,"lng":-79.24286,"zip":"24503","miles_from_dt":23.06},{"city":"Glade Hill","state_name":"Virginia","lat":37.00158,"lng":-79.76306,"zip":"24092","miles_from_dt":23.14},{"city":"Lynchburg","state_name":"Virginia","lat":37.41625,"lng":-79.14179,"zip":"24505","miles_from_dt":23.32},{"city":"Redwood","state_name":"Virginia","lat":37.00792,"lng":-79.77025,"zip":"24146","miles_from_dt":23.33},{"city":"Hardy","state_name":"Virginia","lat":37.17702,"lng":-79.80111,"zip":"24101","miles_from_dt":23.42},{"city":"Lynchburg","state_name":"Virginia","lat":37.36673,"lng":-79.04953,"zip":"24504","miles_from_dt":24.15},{"city":"Coleman Falls","state_name":"Virginia","lat":37.48996,"lng":-79.32097,"zip":"24536","miles_from_dt":24.58},{"city":"Vinton","state_name":"Virginia","lat":37.2855,"lng":-79.79963,"zip":"24179","miles_from_dt":25.33},{"city":"Callands","state_name":"Virginia","lat":36.80785,"lng":-79.61044,"zip":"24530","miles_from_dt":26.02},{"city":"Montvale","state_name":"Virginia","lat":37.4212,"lng":-79.69372,"zip":"24122","miles_from_dt":26.16},{"city":"Nathalie","state_name":"Virginia","lat":36.93762,"lng":-78.97553,"zip":"24577","miles_from_dt":26.23},{"city":"Naruna","state_name":"Virginia","lat":37.09347,"lng":-78.90219,"zip":"24576","miles_from_dt":26.55},{"city":"Villamont","state_name":"Virginia","lat":37.42527,"lng":-79.70855,"zip":"24178","miles_from_dt":26.91},{"city":"Concord","state_name":"Virginia","lat":37.32908,"lng":-78.95367,"zip":"24538","miles_from_dt":26.98},{"city":"Blue Ridge","state_name":"Virginia","lat":37.37237,"lng":-79.7759,"zip":"24064","miles_from_dt":27.22},{"city":"Madison Heights","state_name":"Virginia","lat":37.46514,"lng":-79.09628,"zip":"24572","miles_from_dt":27.51},{"city":"Blairs","state_name":"Virginia","lat":36.7324,"lng":-79.34577,"zip":"24527","miles_from_dt":27.94},{"city":"Brookneal","state_name":"Virginia","lat":37.07733,"lng":-78.8777,"zip":"24528","miles_from_dt":28.03},{"city":"Vernon Hill","state_name":"Virginia","lat":36.78553,"lng":-79.1095,"zip":"24597","miles_from_dt":28.46},{"city":"Big Island","state_name":"Virginia","lat":37.55452,"lng":-79.40169,"zip":"24526","miles_from_dt":28.84},{"city":"Spout Spring","state_name":"Virginia","lat":37.32651,"lng":-78.91342,"zip":"24593","miles_from_dt":28.86},{"city":"Keeling","state_name":"Virginia","lat":36.72747,"lng":-79.25069,"zip":"24566","miles_from_dt":29.11},{"city":"Rocky Mount","state_name":"Virginia","lat":36.95827,"lng":-79.86457,"zip":"24151","miles_from_dt":29.48},{"city":"Dry Fork","state_name":"Virginia","lat":36.71584,"lng":-79.50632,"zip":"24549","miles_from_dt":29.86}],"targetCityZipCode":"24571","targetCityState":"Virginia"},"__N_SSG":true}