{"pageProps":{"stateName":"Virginia","cityName":"wicomico-church","nearbyCities":[{"city":"Kilmarnock","state_name":"Virginia","lat":37.73723,"lng":-76.35245,"zip":"22482","miles_from_dt":3.59},{"city":"Burgess","state_name":"Virginia","lat":37.8637,"lng":-76.35043,"zip":"22432","miles_from_dt":5.18},{"city":"Reedville","state_name":"Virginia","lat":37.85865,"lng":-76.28731,"zip":"22539","miles_from_dt":6.24},{"city":"Heathsville","state_name":"Virginia","lat":37.88316,"lng":-76.41386,"zip":"22473","miles_from_dt":7.13},{"city":"Weems","state_name":"Virginia","lat":37.69398,"lng":-76.43277,"zip":"22576","miles_from_dt":7.66},{"city":"Lancaster","state_name":"Virginia","lat":37.7624,"lng":-76.50432,"zip":"22503","miles_from_dt":8.1},{"city":"Edwardsville","state_name":"Virginia","lat":37.90854,"lng":-76.36714,"zip":"22456","miles_from_dt":8.26},{"city":"Lively","state_name":"Virginia","lat":37.77585,"lng":-76.51487,"zip":"22507","miles_from_dt":8.52},{"city":"Mollusk","state_name":"Virginia","lat":37.77585,"lng":-76.51487,"zip":"22517","miles_from_dt":8.52},{"city":"Merry Point","state_name":"Virginia","lat":37.77585,"lng":-76.51487,"zip":"22513","miles_from_dt":8.52},{"city":"Irvington","state_name":"Virginia","lat":37.66631,"lng":-76.41498,"zip":"22480","miles_from_dt":8.98},{"city":"Ophelia","state_name":"Virginia","lat":37.91247,"lng":-76.28359,"zip":"22530","miles_from_dt":9.49},{"city":"White Stone","state_name":"Virginia","lat":37.65063,"lng":-76.36268,"zip":"22578","miles_from_dt":9.54},{"city":"Nuttsville","state_name":"Virginia","lat":37.79008,"lng":-76.55182,"zip":"22528","miles_from_dt":10.49},{"city":"Christchurch","state_name":"Virginia","lat":37.59774,"lng":-76.45003,"zip":"23031","miles_from_dt":14.08},{"city":"Morattico","state_name":"Virginia","lat":37.78866,"lng":-76.63003,"zip":"22523","miles_from_dt":14.77},{"city":"Farnham","state_name":"Virginia","lat":37.87612,"lng":-76.60692,"zip":"22460","miles_from_dt":14.78},{"city":"Topping","state_name":"Virginia","lat":37.58945,"lng":-76.46225,"zip":"23169","miles_from_dt":14.85},{"city":"Wake","state_name":"Virginia","lat":37.56934,"lng":-76.41991,"zip":"23176","miles_from_dt":15.5},{"city":"Water View","state_name":"Virginia","lat":37.69977,"lng":-76.62045,"zip":"23180","miles_from_dt":15.53},{"city":"Lottsburg","state_name":"Virginia","lat":37.98352,"lng":-76.50323,"zip":"22511","miles_from_dt":15.53},{"city":"Locust Hill","state_name":"Virginia","lat":37.59402,"lng":-76.50755,"zip":"23092","miles_from_dt":15.68},{"city":"Deltaville","state_name":"Virginia","lat":37.55519,"lng":-76.34357,"zip":"23043","miles_from_dt":16.15},{"city":"Hardyville","state_name":"Virginia","lat":37.55065,"lng":-76.38528,"zip":"23070","miles_from_dt":16.49},{"city":"Callao","state_name":"Virginia","lat":37.97216,"lng":-76.57288,"zip":"22435","miles_from_dt":17.17},{"city":"Urbanna","state_name":"Virginia","lat":37.65343,"lng":-76.62407,"zip":"23175","miles_from_dt":17.22},{"city":"Village","state_name":"Virginia","lat":37.9484,"lng":-76.60462,"zip":"22570","miles_from_dt":17.31},{"city":"Hartfield","state_name":"Virginia","lat":37.54326,"lng":-76.45228,"zip":"23071","miles_from_dt":17.68},{"city":"Sharps","state_name":"Virginia","lat":37.82929,"lng":-76.69256,"zip":"22548","miles_from_dt":18.4},{"city":"Jamaica","state_name":"Virginia","lat":37.7248,"lng":-76.68941,"zip":"23079","miles_from_dt":18.57},{"city":"Scotland","state_name":"Maryland","lat":38.07578,"lng":-76.34382,"zip":"20687","miles_from_dt":19.8},{"city":"Church View","state_name":"Virginia","lat":37.65552,"lng":-76.68199,"zip":"23032","miles_from_dt":19.89},{"city":"Cobbs Creek","state_name":"Virginia","lat":37.49809,"lng":-76.37679,"zip":"23035","miles_from_dt":20.08},{"city":"Laneview","state_name":"Virginia","lat":37.76346,"lng":-76.72675,"zip":"22504","miles_from_dt":20.15},{"city":"Grimstead","state_name":"Virginia","lat":37.49893,"lng":-76.30446,"zip":"23064","miles_from_dt":20.23},{"city":"Hallieford","state_name":"Virginia","lat":37.49511,"lng":-76.33727,"zip":"23068","miles_from_dt":20.3},{"city":"Gwynn","state_name":"Virginia","lat":37.49836,"lng":-76.28831,"zip":"23066","miles_from_dt":20.42},{"city":"Tangier","state_name":"Virginia","lat":37.83048,"lng":-75.99019,"zip":"23440","miles_from_dt":20.44},{"city":"Saluda","state_name":"Virginia","lat":37.56794,"lng":-76.61599,"zip":"23149","miles_from_dt":20.71},{"city":"Haynesville","state_name":"Virginia","lat":37.95897,"lng":-76.67257,"zip":"22472","miles_from_dt":20.72},{"city":"Dutton","state_name":"Virginia","lat":37.48918,"lng":-76.41986,"zip":"23050","miles_from_dt":20.93},{"city":"Kinsale","state_name":"Virginia","lat":38.04986,"lng":-76.58796,"zip":"22488","miles_from_dt":21.88},{"city":"Sandy Point","state_name":"Virginia","lat":38.0653,"lng":-76.55916,"zip":"22577","miles_from_dt":21.94},{"city":"Hudgins","state_name":"Virginia","lat":37.47328,"lng":-76.30499,"zip":"23076","miles_from_dt":21.98},{"city":"Ridge","state_name":"Maryland","lat":38.11071,"lng":-76.37353,"zip":"20680","miles_from_dt":22.2},{"city":"Tylerton","state_name":"Maryland","lat":37.9672,"lng":-76.02137,"zip":"21866","miles_from_dt":22.23},{"city":"Mascot","state_name":"Virginia","lat":37.65523,"lng":-76.73015,"zip":"23108","miles_from_dt":22.27},{"city":"Ewell","state_name":"Maryland","lat":37.97982,"lng":-76.02871,"zip":"21824","miles_from_dt":22.39},{"city":"Oldhams","state_name":"Virginia","lat":38.01036,"lng":-76.67942,"zip":"22529","miles_from_dt":23.19},{"city":"North","state_name":"Virginia","lat":37.4514,"lng":-76.43216,"zip":"23128","miles_from_dt":23.61},{"city":"Moon","state_name":"Virginia","lat":37.45139,"lng":-76.27978,"zip":"23119","miles_from_dt":23.69},{"city":"Saint Inigoes","state_name":"Maryland","lat":38.14308,"lng":-76.41027,"zip":"20684","miles_from_dt":24.58},{"city":"Dameron","state_name":"Maryland","lat":38.1459,"lng":-76.35027,"zip":"20628","miles_from_dt":24.62},{"city":"Mathews","state_name":"Virginia","lat":37.43263,"lng":-76.32445,"zip":"23109","miles_from_dt":24.65},{"city":"Hague","state_name":"Virginia","lat":38.0667,"lng":-76.64749,"zip":"22469","miles_from_dt":24.77},{"city":"Piney Point","state_name":"Maryland","lat":38.13307,"lng":-76.50019,"zip":"20674","miles_from_dt":24.94},{"city":"Center Cross","state_name":"Virginia","lat":37.7764,"lng":-76.8156,"zip":"22437","miles_from_dt":24.95},{"city":"Diggs","state_name":"Virginia","lat":37.42937,"lng":-76.27069,"zip":"23045","miles_from_dt":25.28},{"city":"Woods Cross Roads","state_name":"Virginia","lat":37.48354,"lng":-76.62069,"zip":"23190","miles_from_dt":25.45},{"city":"Foster","state_name":"Virginia","lat":37.41809,"lng":-76.38724,"zip":"23056","miles_from_dt":25.62},{"city":"Cardinal","state_name":"Virginia","lat":37.41447,"lng":-76.36204,"zip":"23025","miles_from_dt":25.83},{"city":"Warsaw","state_name":"Virginia","lat":37.97552,"lng":-76.77495,"zip":"22572","miles_from_dt":26.07},{"city":"Little Plymouth","state_name":"Virginia","lat":37.64647,"lng":-76.80167,"zip":"23091","miles_from_dt":26.11},{"city":"Mattaponi","state_name":"Virginia","lat":37.58338,"lng":-76.76578,"zip":"23110","miles_from_dt":26.37},{"city":"Shacklefords","state_name":"Virginia","lat":37.5244,"lng":-76.71106,"zip":"23156","miles_from_dt":26.52},{"city":"Gloucester","state_name":"Virginia","lat":37.4331,"lng":-76.55019,"zip":"23061","miles_from_dt":26.66},{"city":"Drayden","state_name":"Maryland","lat":38.16653,"lng":-76.47087,"zip":"20630","miles_from_dt":26.73},{"city":"Bohannon","state_name":"Virginia","lat":37.40102,"lng":-76.37187,"zip":"23021","miles_from_dt":26.76},{"city":"Ark","state_name":"Virginia","lat":37.43857,"lng":-76.57822,"zip":"23003","miles_from_dt":26.96},{"city":"King And Queen Court House","state_name":"Virginia","lat":37.70623,"lng":-76.84205,"zip":"23085","miles_from_dt":27},{"city":"Dunnsville","state_name":"Virginia","lat":37.83599,"lng":-76.85032,"zip":"22454","miles_from_dt":27.02},{"city":"Tall Timbers","state_name":"Maryland","lat":38.15916,"lng":-76.52631,"zip":"20690","miles_from_dt":27.1},{"city":"Ware Neck","state_name":"Virginia","lat":37.40177,"lng":-76.45575,"zip":"23178","miles_from_dt":27.21},{"city":"Saint Marys City","state_name":"Maryland","lat":38.18557,"lng":-76.43898,"zip":"20686","miles_from_dt":27.69},{"city":"Onemo","state_name":"Virginia","lat":37.39048,"lng":-76.26494,"zip":"23130","miles_from_dt":27.97},{"city":"Schley","state_name":"Virginia","lat":37.38995,"lng":-76.45819,"zip":"23154","miles_from_dt":28.04},{"city":"Valley Lee","state_name":"Maryland","lat":38.18352,"lng":-76.50682,"zip":"20692","miles_from_dt":28.37},{"city":"Coles Point","state_name":"Virginia","lat":38.14623,"lng":-76.63382,"zip":"22442","miles_from_dt":28.82},{"city":"Hacksneck","state_name":"Virginia","lat":37.64406,"lng":-75.86495,"zip":"23358","miles_from_dt":28.91},{"city":"Mount Holly","state_name":"Virginia","lat":38.13575,"lng":-76.66166,"zip":"22524","miles_from_dt":29.04},{"city":"Jamesville","state_name":"Virginia","lat":37.52054,"lng":-75.93971,"zip":"23398","miles_from_dt":29.56},{"city":"Port Haywood","state_name":"Virginia","lat":37.36245,"lng":-76.30062,"zip":"23138","miles_from_dt":29.59},{"city":"Davis Wharf","state_name":"Virginia","lat":37.57,"lng":-75.88845,"zip":"23345","miles_from_dt":29.94},{"city":"Park Hall","state_name":"Maryland","lat":38.21782,"lng":-76.44537,"zip":"20667","miles_from_dt":29.94},{"city":"Susan","state_name":"Virginia","lat":37.3572,"lng":-76.29765,"zip":"23163","miles_from_dt":29.97}],"targetCityZipCode":"22579","targetCityState":"Virginia"},"__N_SSG":true}