{"pageProps":{"stateName":"South-carolina","cityName":"blackstock","nearbyCities":[{"city":"Richburg","state_name":"South Carolina","lat":34.67716,"lng":-81.00528,"zip":"29729","miles_from_dt":11.82},{"city":"Winnsboro","state_name":"South Carolina","lat":34.36472,"lng":-81.09821,"zip":"29180","miles_from_dt":12.52},{"city":"Great Falls","state_name":"South Carolina","lat":34.57248,"lng":-80.91753,"zip":"29055","miles_from_dt":12.59},{"city":"Chester","state_name":"South Carolina","lat":34.71773,"lng":-81.23055,"zip":"29706","miles_from_dt":13.16},{"city":"Blair","state_name":"South Carolina","lat":34.4412,"lng":-81.33807,"zip":"29015","miles_from_dt":13.55},{"city":"Rion","state_name":"South Carolina","lat":34.30373,"lng":-81.12414,"zip":"29132","miles_from_dt":16.55},{"city":"Fort Lawn","state_name":"South Carolina","lat":34.71171,"lng":-80.9145,"zip":"29714","miles_from_dt":17.11},{"city":"Carlisle","state_name":"South Carolina","lat":34.60624,"lng":-81.42665,"zip":"29031","miles_from_dt":17.15},{"city":"Lando","state_name":"South Carolina","lat":34.77503,"lng":-81.01248,"zip":"29724","miles_from_dt":17.42},{"city":"Edgemoor","state_name":"South Carolina","lat":34.79439,"lng":-80.98398,"zip":"29712","miles_from_dt":19.32},{"city":"Jenkinsville","state_name":"South Carolina","lat":34.29495,"lng":-81.29239,"zip":"29065","miles_from_dt":19.34},{"city":"Liberty Hill","state_name":"South Carolina","lat":34.4512,"lng":-80.8144,"zip":"29074","miles_from_dt":19.4},{"city":"Ridgeway","state_name":"South Carolina","lat":34.32757,"lng":-80.89205,"zip":"29130","miles_from_dt":20.38},{"city":"Pomaria","state_name":"South Carolina","lat":34.32195,"lng":-81.41932,"zip":"29126","miles_from_dt":22.28},{"city":"McConnells","state_name":"South Carolina","lat":34.85738,"lng":-81.23223,"zip":"29726","miles_from_dt":22.31},{"city":"Heath Springs","state_name":"South Carolina","lat":34.56297,"lng":-80.73473,"zip":"29058","miles_from_dt":22.9},{"city":"Catawba","state_name":"South Carolina","lat":34.82293,"lng":-80.91592,"zip":"29704","miles_from_dt":22.95},{"city":"Peak","state_name":"South Carolina","lat":34.24015,"lng":-81.32532,"zip":"29122","miles_from_dt":23.57},{"city":"Rock Hill","state_name":"South Carolina","lat":34.8878,"lng":-81.02116,"zip":"29730","miles_from_dt":24.6},{"city":"Blythewood","state_name":"South Carolina","lat":34.20367,"lng":-80.99296,"zip":"29016","miles_from_dt":24.81},{"city":"Lockhart","state_name":"South Carolina","lat":34.78846,"lng":-81.46202,"zip":"29364","miles_from_dt":25.11},{"city":"Whitmire","state_name":"South Carolina","lat":34.4992,"lng":-81.5961,"zip":"29178","miles_from_dt":26.45},{"city":"Sharon","state_name":"South Carolina","lat":34.86939,"lng":-81.38155,"zip":"29742","miles_from_dt":26.46},{"city":"Lancaster","state_name":"South Carolina","lat":34.74265,"lng":-80.73684,"zip":"29720","miles_from_dt":26.53},{"city":"Van Wyck","state_name":"South Carolina","lat":34.8585,"lng":-80.84603,"zip":"29744","miles_from_dt":27.25},{"city":"Ballentine","state_name":"South Carolina","lat":34.16061,"lng":-81.262,"zip":"29002","miles_from_dt":27.38},{"city":"Little Mountain","state_name":"South Carolina","lat":34.19985,"lng":-81.37581,"zip":"29075","miles_from_dt":27.39},{"city":"Rock Hill","state_name":"South Carolina","lat":34.74958,"lng":-80.72082,"zip":"29731","miles_from_dt":27.56},{"city":"Lancaster","state_name":"South Carolina","lat":34.74958,"lng":-80.72082,"zip":"29722","miles_from_dt":27.56},{"city":"Rock Hill","state_name":"South Carolina","lat":34.74958,"lng":-80.72082,"zip":"29734","miles_from_dt":27.56},{"city":"Lancaster","state_name":"South Carolina","lat":34.7471,"lng":-80.71842,"zip":"29721","miles_from_dt":27.59},{"city":"Rock Hill","state_name":"South Carolina","lat":34.93945,"lng":-81.03173,"zip":"29733","miles_from_dt":27.91},{"city":"Irmo","state_name":"South Carolina","lat":34.13948,"lng":-81.20457,"zip":"29063","miles_from_dt":28.14},{"city":"Columbia","state_name":"South Carolina","lat":34.13819,"lng":-81.06596,"zip":"29230","miles_from_dt":28.23},{"city":"Union","state_name":"South Carolina","lat":34.68772,"lng":-81.60403,"zip":"29379","miles_from_dt":28.49},{"city":"White Rock","state_name":"South Carolina","lat":34.1405,"lng":-81.2675,"zip":"29177","miles_from_dt":28.8},{"city":"Rock Hill","state_name":"South Carolina","lat":34.96979,"lng":-81.07963,"zip":"29732","miles_from_dt":29.54}],"targetCityZipCode":"29014","targetCityState":"South Carolina"},"__N_SSG":true}