{"pageProps":{"stateName":"South-carolina","cityName":"blair","nearbyCities":[{"city":"Pomaria","state_name":"South Carolina","lat":34.32195,"lng":-81.41932,"zip":"29126","miles_from_dt":9.44},{"city":"Jenkinsville","state_name":"South Carolina","lat":34.29495,"lng":-81.29239,"zip":"29065","miles_from_dt":10.41},{"city":"Carlisle","state_name":"South Carolina","lat":34.60624,"lng":-81.42665,"zip":"29031","miles_from_dt":12.45},{"city":"Blackstock","state_name":"South Carolina","lat":34.54368,"lng":-81.13553,"zip":"29014","miles_from_dt":13.55},{"city":"Peak","state_name":"South Carolina","lat":34.24015,"lng":-81.32532,"zip":"29122","miles_from_dt":13.88},{"city":"Winnsboro","state_name":"South Carolina","lat":34.36472,"lng":-81.09821,"zip":"29180","miles_from_dt":14.68},{"city":"Whitmire","state_name":"South Carolina","lat":34.4992,"lng":-81.5961,"zip":"29178","miles_from_dt":15.26},{"city":"Rion","state_name":"South Carolina","lat":34.30373,"lng":-81.12414,"zip":"29132","miles_from_dt":15.47},{"city":"Little Mountain","state_name":"South Carolina","lat":34.19985,"lng":-81.37581,"zip":"29075","miles_from_dt":16.78},{"city":"Newberry","state_name":"South Carolina","lat":34.29805,"lng":-81.62433,"zip":"29108","miles_from_dt":19.11},{"city":"Ballentine","state_name":"South Carolina","lat":34.16061,"lng":-81.262,"zip":"29002","miles_from_dt":19.82},{"city":"Chester","state_name":"South Carolina","lat":34.71773,"lng":-81.23055,"zip":"29706","miles_from_dt":20.02},{"city":"White Rock","state_name":"South Carolina","lat":34.1405,"lng":-81.2675,"zip":"29177","miles_from_dt":21.12},{"city":"Chapin","state_name":"South Carolina","lat":34.13396,"lng":-81.33622,"zip":"29036","miles_from_dt":21.18},{"city":"Prosperity","state_name":"South Carolina","lat":34.16568,"lng":-81.51192,"zip":"29127","miles_from_dt":21.44},{"city":"Irmo","state_name":"South Carolina","lat":34.13948,"lng":-81.20457,"zip":"29063","miles_from_dt":22.15},{"city":"Union","state_name":"South Carolina","lat":34.68772,"lng":-81.60403,"zip":"29379","miles_from_dt":22.78},{"city":"Kinards","state_name":"South Carolina","lat":34.37012,"lng":-81.75894,"zip":"29355","miles_from_dt":24.54},{"city":"Lockhart","state_name":"South Carolina","lat":34.78846,"lng":-81.46202,"zip":"29364","miles_from_dt":24.96},{"city":"Richburg","state_name":"South Carolina","lat":34.67716,"lng":-81.00528,"zip":"29729","miles_from_dt":24.99},{"city":"Blythewood","state_name":"South Carolina","lat":34.20367,"lng":-80.99296,"zip":"29016","miles_from_dt":25.64},{"city":"Great Falls","state_name":"South Carolina","lat":34.57248,"lng":-80.91753,"zip":"29055","miles_from_dt":25.65},{"city":"Columbia","state_name":"South Carolina","lat":34.13819,"lng":-81.06596,"zip":"29230","miles_from_dt":26.05},{"city":"Columbia","state_name":"South Carolina","lat":34.0777,"lng":-81.2022,"zip":"29212","miles_from_dt":26.23},{"city":"Ridgeway","state_name":"South Carolina","lat":34.32757,"lng":-80.89205,"zip":"29130","miles_from_dt":26.66},{"city":"Joanna","state_name":"South Carolina","lat":34.42177,"lng":-81.80967,"zip":"29351","miles_from_dt":26.97},{"city":"Clinton","state_name":"South Carolina","lat":34.47682,"lng":-81.83973,"zip":"29325","miles_from_dt":28.75},{"city":"Columbia","state_name":"South Carolina","lat":34.0242,"lng":-81.29359,"zip":"29211","miles_from_dt":28.85},{"city":"Columbia","state_name":"South Carolina","lat":34.10198,"lng":-81.04009,"zip":"29203","miles_from_dt":28.94},{"city":"Silverstreet","state_name":"South Carolina","lat":34.21905,"lng":-81.77453,"zip":"29145","miles_from_dt":29.28},{"city":"McConnells","state_name":"South Carolina","lat":34.85738,"lng":-81.23223,"zip":"29726","miles_from_dt":29.31},{"city":"Lando","state_name":"South Carolina","lat":34.77503,"lng":-81.01248,"zip":"29724","miles_from_dt":29.56},{"city":"Sharon","state_name":"South Carolina","lat":34.86939,"lng":-81.38155,"zip":"29742","miles_from_dt":29.62},{"city":"Liberty Hill","state_name":"South Carolina","lat":34.4512,"lng":-80.8144,"zip":"29074","miles_from_dt":29.91},{"city":"Buffalo","state_name":"South Carolina","lat":34.71975,"lng":-81.74151,"zip":"29321","miles_from_dt":29.96}],"targetCityZipCode":"29015","targetCityState":"South Carolina"},"__N_SSG":true}