{"pageProps":{"stateName":"South-carolina","cityName":"gresham","nearbyCities":[{"city":"Johnsonville","state_name":"South Carolina","lat":33.83864,"lng":-79.46191,"zip":"29555","miles_from_dt":7.27},{"city":"Centenary","state_name":"South Carolina","lat":34.01622,"lng":-79.36048,"zip":"29519","miles_from_dt":8.71},{"city":"Galivants Ferry","state_name":"South Carolina","lat":34.00067,"lng":-79.21083,"zip":"29544","miles_from_dt":11.11},{"city":"Hemingway","state_name":"South Carolina","lat":33.69879,"lng":-79.38816,"zip":"29554","miles_from_dt":13.35},{"city":"Pamplico","state_name":"South Carolina","lat":33.9724,"lng":-79.57045,"zip":"29583","miles_from_dt":13.8},{"city":"Conway","state_name":"South Carolina","lat":33.78271,"lng":-79.14715,"zip":"29527","miles_from_dt":13.89},{"city":"Rains","state_name":"South Carolina","lat":34.10037,"lng":-79.32015,"zip":"29589","miles_from_dt":14.61},{"city":"Aynor","state_name":"South Carolina","lat":33.97519,"lng":-79.11043,"zip":"29511","miles_from_dt":15.04},{"city":"Conway","state_name":"South Carolina","lat":33.84017,"lng":-79.06079,"zip":"29528","miles_from_dt":17.06},{"city":"Marion","state_name":"South Carolina","lat":34.138,"lng":-79.42205,"zip":"29571","miles_from_dt":17.57},{"city":"Mullins","state_name":"South Carolina","lat":34.17134,"lng":-79.26695,"zip":"29574","miles_from_dt":19.99},{"city":"Nesmith","state_name":"South Carolina","lat":33.65827,"lng":-79.56164,"zip":"29580","miles_from_dt":20.03},{"city":"Conway","state_name":"South Carolina","lat":33.86696,"lng":-78.9718,"zip":"29526","miles_from_dt":21.89},{"city":"Lake City","state_name":"South Carolina","lat":33.83535,"lng":-79.74747,"zip":"29560","miles_from_dt":23.08},{"city":"Coward","state_name":"South Carolina","lat":33.98984,"lng":-79.74222,"zip":"29530","miles_from_dt":23.48},{"city":"Scranton","state_name":"South Carolina","lat":33.93894,"lng":-79.759,"zip":"29591","miles_from_dt":23.66},{"city":"Myrtle Beach","state_name":"South Carolina","lat":33.67112,"lng":-79.02574,"zip":"29588","miles_from_dt":24.06},{"city":"Florence","state_name":"South Carolina","lat":34.12348,"lng":-79.68974,"zip":"29505","miles_from_dt":25.22},{"city":"Nichols","state_name":"South Carolina","lat":34.19864,"lng":-79.11295,"zip":"29581","miles_from_dt":25.3},{"city":"Effingham","state_name":"South Carolina","lat":34.0653,"lng":-79.74087,"zip":"29541","miles_from_dt":25.41},{"city":"Myrtle Beach","state_name":"South Carolina","lat":33.76052,"lng":-78.91463,"zip":"29579","miles_from_dt":26.67},{"city":"Sellers","state_name":"South Carolina","lat":34.26941,"lng":-79.47704,"zip":"29592","miles_from_dt":27.12},{"city":"Loris","state_name":"South Carolina","lat":34.0326,"lng":-78.90359,"zip":"29569","miles_from_dt":27.54},{"city":"Florence","state_name":"South Carolina","lat":34.2103,"lng":-79.64432,"zip":"29506","miles_from_dt":27.74},{"city":"Fork","state_name":"South Carolina","lat":34.28759,"lng":-79.26591,"zip":"29543","miles_from_dt":27.84},{"city":"Murrells Inlet","state_name":"South Carolina","lat":33.56952,"lng":-79.05076,"zip":"29576","miles_from_dt":28.07},{"city":"Myrtle Beach","state_name":"South Carolina","lat":33.61787,"lng":-78.98793,"zip":"29587","miles_from_dt":28.11},{"city":"Kingstree","state_name":"South Carolina","lat":33.66849,"lng":-79.76403,"zip":"29556","miles_from_dt":28.23},{"city":"Myrtle Beach","state_name":"South Carolina","lat":33.628,"lng":-78.97369,"zip":"29575","miles_from_dt":28.27},{"city":"Myrtle Beach","state_name":"South Carolina","lat":33.69711,"lng":-78.90495,"zip":"29577","miles_from_dt":28.93},{"city":"Green Sea","state_name":"South Carolina","lat":34.16175,"lng":-78.96635,"zip":"29545","miles_from_dt":28.97},{"city":"Pawleys Island","state_name":"South Carolina","lat":33.50537,"lng":-79.13557,"zip":"29585","miles_from_dt":29.28},{"city":"Cades","state_name":"South Carolina","lat":33.7892,"lng":-79.84851,"zip":"29518","miles_from_dt":29.42}],"targetCityZipCode":"29546","targetCityState":"South Carolina"},"__N_SSG":true}