{"pageProps":{"stateName":"South-carolina","cityName":"mcclellanville","nearbyCities":[{"city":"Jamestown","state_name":"South Carolina","lat":33.21984,"lng":-79.61269,"zip":"29453","miles_from_dt":10.05},{"city":"Awendaw","state_name":"South Carolina","lat":32.98699,"lng":-79.68011,"zip":"29429","miles_from_dt":14.44},{"city":"Huger","state_name":"South Carolina","lat":33.08731,"lng":-79.77164,"zip":"29450","miles_from_dt":16.64},{"city":"Georgetown","state_name":"South Carolina","lat":33.38229,"lng":-79.32908,"zip":"29440","miles_from_dt":20.31},{"city":"Cordesville","state_name":"South Carolina","lat":33.14027,"lng":-79.8453,"zip":"29434","miles_from_dt":20.81},{"city":"Georgetown","state_name":"South Carolina","lat":33.38379,"lng":-79.28696,"zip":"29442","miles_from_dt":21.61},{"city":"Andrews","state_name":"South Carolina","lat":33.45326,"lng":-79.61068,"zip":"29510","miles_from_dt":24.1},{"city":"Mount Pleasant","state_name":"South Carolina","lat":32.87486,"lng":-79.78785,"zip":"29466","miles_from_dt":24.26},{"city":"Bonneau","state_name":"South Carolina","lat":33.27708,"lng":-79.87711,"zip":"29431","miles_from_dt":25.07},{"city":"Isle Of Palms","state_name":"South Carolina","lat":32.81633,"lng":-79.75266,"zip":"29451","miles_from_dt":25.95},{"city":"Charleston","state_name":"South Carolina","lat":32.91657,"lng":-79.87818,"zip":"29492","miles_from_dt":26.65},{"city":"Mount Pleasant","state_name":"South Carolina","lat":32.82082,"lng":-79.85583,"zip":"29464","miles_from_dt":29.69},{"city":"Saint Stephen","state_name":"South Carolina","lat":33.3808,"lng":-79.89499,"zip":"29479","miles_from_dt":29.71}],"targetCityZipCode":"29458","targetCityState":"South Carolina"},"__N_SSG":true}