{"pageProps":{"stateName":"South-carolina","cityName":"rembert","nearbyCities":[{"city":"Dalzell","state_name":"South Carolina","lat":34.06253,"lng":-80.43455,"zip":"29040","miles_from_dt":6.09},{"city":"Horatio","state_name":"South Carolina","lat":33.99818,"lng":-80.60785,"zip":"29062","miles_from_dt":8.02},{"city":"Shaw Afb","state_name":"South Carolina","lat":33.97517,"lng":-80.47019,"zip":"29152","miles_from_dt":9.09},{"city":"Lugoff","state_name":"South Carolina","lat":34.18162,"lng":-80.6994,"zip":"29078","miles_from_dt":11.22},{"city":"Eastover","state_name":"South Carolina","lat":33.93437,"lng":-80.69446,"zip":"29044","miles_from_dt":14.52},{"city":"Sumter","state_name":"South Carolina","lat":33.88515,"lng":-80.47547,"zip":"29154","miles_from_dt":14.92},{"city":"Camden","state_name":"South Carolina","lat":34.31036,"lng":-80.59334,"zip":"29020","miles_from_dt":15.16},{"city":"Sumter","state_name":"South Carolina","lat":33.96515,"lng":-80.30675,"zip":"29153","miles_from_dt":15.81},{"city":"Sumter","state_name":"South Carolina","lat":33.90864,"lng":-80.36259,"zip":"29151","miles_from_dt":16.21},{"city":"Wedgefield","state_name":"South Carolina","lat":33.84848,"lng":-80.54483,"zip":"29168","miles_from_dt":17.09},{"city":"Bishopville","state_name":"South Carolina","lat":34.21487,"lng":-80.26946,"zip":"29010","miles_from_dt":17.15},{"city":"Elgin","state_name":"South Carolina","lat":34.18389,"lng":-80.8141,"zip":"29045","miles_from_dt":17.22},{"city":"Cassatt","state_name":"South Carolina","lat":34.34002,"lng":-80.44374,"zip":"29032","miles_from_dt":17.55},{"city":"Columbia","state_name":"South Carolina","lat":34.05799,"lng":-80.84161,"zip":"29224","miles_from_dt":17.91},{"city":"Columbia","state_name":"South Carolina","lat":34.04306,"lng":-80.84208,"zip":"29207","miles_from_dt":18.12},{"city":"Sumter","state_name":"South Carolina","lat":33.87621,"lng":-80.35609,"zip":"29150","miles_from_dt":18.25},{"city":"Mayesville","state_name":"South Carolina","lat":33.99524,"lng":-80.21373,"zip":"29104","miles_from_dt":19.58},{"city":"Columbia","state_name":"South Carolina","lat":34.14697,"lng":-80.89316,"zip":"29229","miles_from_dt":20.96},{"city":"Elliott","state_name":"South Carolina","lat":34.11252,"lng":-80.16131,"zip":"29046","miles_from_dt":21.32},{"city":"Columbia","state_name":"South Carolina","lat":34.09243,"lng":-80.92153,"zip":"29223","miles_from_dt":22.3},{"city":"Columbia","state_name":"South Carolina","lat":34.06759,"lng":-80.92084,"zip":"29219","miles_from_dt":22.35},{"city":"Hopkins","state_name":"South Carolina","lat":33.89923,"lng":-80.84955,"zip":"29061","miles_from_dt":22.7},{"city":"Gadsden","state_name":"South Carolina","lat":33.81036,"lng":-80.73832,"zip":"29052","miles_from_dt":22.98},{"city":"Columbia","state_name":"South Carolina","lat":33.91826,"lng":-80.87372,"zip":"29290","miles_from_dt":23.1},{"city":"State Park","state_name":"South Carolina","lat":34.11373,"lng":-80.95438,"zip":"29147","miles_from_dt":24.21},{"city":"Westville","state_name":"South Carolina","lat":34.44266,"lng":-80.60666,"zip":"29175","miles_from_dt":24.25},{"city":"Columbia","state_name":"South Carolina","lat":34.02848,"lng":-80.95828,"zip":"29206","miles_from_dt":24.86},{"city":"Bethune","state_name":"South Carolina","lat":34.44097,"lng":-80.37642,"zip":"29009","miles_from_dt":25.38},{"city":"Columbia","state_name":"South Carolina","lat":34.02606,"lng":-80.96765,"zip":"29260","miles_from_dt":25.42},{"city":"Lamar","state_name":"South Carolina","lat":34.18798,"lng":-80.09654,"zip":"29069","miles_from_dt":25.78},{"city":"Ridgeway","state_name":"South Carolina","lat":34.32757,"lng":-80.89205,"zip":"29130","miles_from_dt":26.03},{"city":"Lynchburg","state_name":"South Carolina","lat":34.01525,"lng":-80.08374,"zip":"29080","miles_from_dt":26.35},{"city":"Columbia","state_name":"South Carolina","lat":33.97211,"lng":-80.97544,"zip":"29202","miles_from_dt":26.81},{"city":"Columbia","state_name":"South Carolina","lat":33.92442,"lng":-80.95284,"zip":"29209","miles_from_dt":26.87},{"city":"Columbia","state_name":"South Carolina","lat":34.02938,"lng":-81.00008,"zip":"29204","miles_from_dt":27.21},{"city":"Columbia","state_name":"South Carolina","lat":34.02684,"lng":-81.00119,"zip":"29215","miles_from_dt":27.3},{"city":"Blythewood","state_name":"South Carolina","lat":34.20367,"lng":-80.99296,"zip":"29016","miles_from_dt":27.39},{"city":"Pinewood","state_name":"South Carolina","lat":33.70165,"lng":-80.47434,"zip":"29125","miles_from_dt":27.41},{"city":"Lydia","state_name":"South Carolina","lat":34.289,"lng":-80.11318,"zip":"29079","miles_from_dt":27.45},{"city":"Columbia","state_name":"South Carolina","lat":33.99001,"lng":-80.99661,"zip":"29205","miles_from_dt":27.61},{"city":"Columbia","state_name":"South Carolina","lat":34.02761,"lng":-81.0092,"zip":"29240","miles_from_dt":27.74},{"city":"Columbia","state_name":"South Carolina","lat":34.00282,"lng":-81.0058,"zip":"29250","miles_from_dt":27.9},{"city":"Gable","state_name":"South Carolina","lat":33.8669,"lng":-80.12231,"zip":"29051","miles_from_dt":28.38},{"city":"Columbia","state_name":"South Carolina","lat":34.10198,"lng":-81.04009,"zip":"29203","miles_from_dt":29.1},{"city":"Columbia","state_name":"South Carolina","lat":33.99751,"lng":-81.02681,"zip":"29208","miles_from_dt":29.16},{"city":"Liberty Hill","state_name":"South Carolina","lat":34.4512,"lng":-80.8144,"zip":"29074","miles_from_dt":29.3},{"city":"Columbia","state_name":"South Carolina","lat":34.00432,"lng":-81.03253,"zip":"29220","miles_from_dt":29.37},{"city":"Columbia","state_name":"South Carolina","lat":33.99538,"lng":-81.03006,"zip":"29225","miles_from_dt":29.37},{"city":"Columbia","state_name":"South Carolina","lat":34.00079,"lng":-81.03194,"zip":"29214","miles_from_dt":29.39},{"city":"Columbia","state_name":"South Carolina","lat":34.01072,"lng":-81.03612,"zip":"29217","miles_from_dt":29.48},{"city":"Columbia","state_name":"South Carolina","lat":33.98381,"lng":-81.02829,"zip":"29201","miles_from_dt":29.48},{"city":"Columbia","state_name":"South Carolina","lat":34.0073,"lng":-81.03659,"zip":"29218","miles_from_dt":29.55},{"city":"Columbia","state_name":"South Carolina","lat":33.98436,"lng":-81.02997,"zip":"29222","miles_from_dt":29.56},{"city":"Columbia","state_name":"South Carolina","lat":33.99782,"lng":-81.03651,"zip":"29216","miles_from_dt":29.69},{"city":"Alcolu","state_name":"South Carolina","lat":33.78528,"lng":-80.17338,"zip":"29001","miles_from_dt":29.76}],"targetCityZipCode":"29128","targetCityState":"South Carolina"},"__N_SSG":true}