{"pageProps":{"stateName":"South-carolina","cityName":"springfield","nearbyCities":[{"city":"Salley","state_name":"South Carolina","lat":33.59626,"lng":-81.32226,"zip":"29137","miles_from_dt":6.23},{"city":"Elko","state_name":"South Carolina","lat":33.383,"lng":-81.36697,"zip":"29826","miles_from_dt":9.5},{"city":"Blackville","state_name":"South Carolina","lat":33.36989,"lng":-81.27096,"zip":"29817","miles_from_dt":9.66},{"city":"Neeses","state_name":"South Carolina","lat":33.52348,"lng":-81.11856,"zip":"29107","miles_from_dt":10.42},{"city":"Williston","state_name":"South Carolina","lat":33.39871,"lng":-81.43217,"zip":"29853","miles_from_dt":10.81},{"city":"Norway","state_name":"South Carolina","lat":33.43514,"lng":-81.13173,"zip":"29113","miles_from_dt":10.85},{"city":"Windsor","state_name":"South Carolina","lat":33.48365,"lng":-81.51276,"zip":"29856","miles_from_dt":12.51},{"city":"Wagener","state_name":"South Carolina","lat":33.65699,"lng":-81.42586,"zip":"29164","miles_from_dt":12.63},{"city":"North","state_name":"South Carolina","lat":33.62662,"lng":-81.0837,"zip":"29112","miles_from_dt":14.82},{"city":"Aiken","state_name":"South Carolina","lat":33.5323,"lng":-81.57088,"zip":"29804","miles_from_dt":15.83},{"city":"Denmark","state_name":"South Carolina","lat":33.30735,"lng":-81.14723,"zip":"29042","miles_from_dt":16.36},{"city":"Montmorenci","state_name":"South Carolina","lat":33.50628,"lng":-81.60047,"zip":"29839","miles_from_dt":17.46},{"city":"Pelion","state_name":"South Carolina","lat":33.76563,"lng":-81.25844,"zip":"29123","miles_from_dt":17.89},{"city":"Hilda","state_name":"South Carolina","lat":33.24191,"lng":-81.36178,"zip":"29813","miles_from_dt":18.71},{"city":"Aiken","state_name":"South Carolina","lat":33.6495,"lng":-81.61044,"zip":"29805","miles_from_dt":20.48},{"city":"Cope","state_name":"South Carolina","lat":33.37494,"lng":-80.98095,"zip":"29038","miles_from_dt":20.5},{"city":"Barnwell","state_name":"South Carolina","lat":33.21185,"lng":-81.37911,"zip":"29812","miles_from_dt":20.95},{"city":"Swansea","state_name":"South Carolina","lat":33.74358,"lng":-81.04188,"zip":"29160","miles_from_dt":21.94},{"city":"Olar","state_name":"South Carolina","lat":33.18385,"lng":-81.18218,"zip":"29843","miles_from_dt":23.33},{"city":"New Ellenton","state_name":"South Carolina","lat":33.41653,"lng":-81.6889,"zip":"29809","miles_from_dt":23.44},{"city":"Cordova","state_name":"South Carolina","lat":33.41855,"lng":-80.90556,"zip":"29039","miles_from_dt":23.5},{"city":"Aiken","state_name":"South Carolina","lat":33.45889,"lng":-81.70076,"zip":"29803","miles_from_dt":23.5},{"city":"Aiken","state_name":"South Carolina","lat":33.58675,"lng":-81.69701,"zip":"29801","miles_from_dt":23.65},{"city":"Orangeburg","state_name":"South Carolina","lat":33.57056,"lng":-80.89501,"zip":"29118","miles_from_dt":23.66},{"city":"Bamberg","state_name":"South Carolina","lat":33.24135,"lng":-81.01838,"zip":"29003","miles_from_dt":24.49},{"city":"Aiken","state_name":"South Carolina","lat":33.56256,"lng":-81.72033,"zip":"29802","miles_from_dt":24.65},{"city":"Gaston","state_name":"South Carolina","lat":33.82734,"lng":-81.08646,"zip":"29053","miles_from_dt":25.15},{"city":"Orangeburg","state_name":"South Carolina","lat":33.49828,"lng":-80.85,"zip":"29117","miles_from_dt":25.88},{"city":"Orangeburg","state_name":"South Carolina","lat":33.47673,"lng":-80.84758,"zip":"29115","miles_from_dt":26.11},{"city":"Monetta","state_name":"South Carolina","lat":33.80764,"lng":-81.59047,"zip":"29105","miles_from_dt":26.64},{"city":"Lexington","state_name":"South Carolina","lat":33.89299,"lng":-81.23774,"zip":"29073","miles_from_dt":26.75},{"city":"Aiken","state_name":"South Carolina","lat":33.24809,"lng":-81.64937,"zip":"29808","miles_from_dt":27.09},{"city":"Orangeburg","state_name":"South Carolina","lat":33.48145,"lng":-80.81091,"zip":"29116","miles_from_dt":28.19},{"city":"Ulmer","state_name":"South Carolina","lat":33.10168,"lng":-81.23641,"zip":"29849","miles_from_dt":28.24},{"city":"Ridge Spring","state_name":"South Carolina","lat":33.79236,"lng":-81.66823,"zip":"29129","miles_from_dt":28.96},{"city":"Batesburg","state_name":"South Carolina","lat":33.87673,"lng":-81.55294,"zip":"29006","miles_from_dt":29.34},{"city":"Leesville","state_name":"South Carolina","lat":33.91742,"lng":-81.45517,"zip":"29070","miles_from_dt":29.62},{"city":"Warrenville","state_name":"South Carolina","lat":33.51098,"lng":-81.81597,"zip":"29851","miles_from_dt":29.9}],"targetCityZipCode":"29146","targetCityState":"South Carolina"},"__N_SSG":true}