{"pageProps":{"stateName":"South-carolina","cityName":"tamassee","nearbyCities":[{"city":"Salem","state_name":"South Carolina","lat":34.93326,"lng":-82.96006,"zip":"29676","miles_from_dt":4.86},{"city":"Mountain Rest","state_name":"South Carolina","lat":34.86393,"lng":-83.15991,"zip":"29664","miles_from_dt":7.88},{"city":"Walhalla","state_name":"South Carolina","lat":34.78547,"lng":-83.07669,"zip":"29691","miles_from_dt":10.02},{"city":"Cashiers","state_name":"North Carolina","lat":35.07131,"lng":-83.09458,"zip":"28717","miles_from_dt":10.23},{"city":"West Union","state_name":"South Carolina","lat":34.77458,"lng":-83.00771,"zip":"29696","miles_from_dt":10.83},{"city":"Sapphire","state_name":"North Carolina","lat":35.08976,"lng":-82.99791,"zip":"28774","miles_from_dt":11.43},{"city":"Sunset","state_name":"South Carolina","lat":34.98297,"lng":-82.84727,"zip":"29685","miles_from_dt":11.85},{"city":"Six Mile","state_name":"South Carolina","lat":34.83295,"lng":-82.84701,"zip":"29682","miles_from_dt":13.06},{"city":"Highlands","state_name":"North Carolina","lat":35.06614,"lng":-83.21053,"zip":"28741","miles_from_dt":13.33},{"city":"Seneca","state_name":"South Carolina","lat":34.75036,"lng":-82.94257,"zip":"29672","miles_from_dt":13.6},{"city":"Richland","state_name":"South Carolina","lat":34.70479,"lng":-83.02001,"zip":"29675","miles_from_dt":15.49},{"city":"Newry","state_name":"South Carolina","lat":34.72399,"lng":-82.91413,"zip":"29665","miles_from_dt":15.96},{"city":"Dillard","state_name":"Georgia","lat":34.97855,"lng":-83.32975,"zip":"30537","miles_from_dt":16.5},{"city":"Lake Toxaway","state_name":"North Carolina","lat":35.15185,"lng":-82.9249,"zip":"28747","miles_from_dt":16.84},{"city":"Scaly Mountain","state_name":"North Carolina","lat":35.01916,"lng":-83.32186,"zip":"28775","miles_from_dt":16.88},{"city":"Glenville","state_name":"North Carolina","lat":35.18039,"lng":-83.0838,"zip":"28736","miles_from_dt":17.49},{"city":"Seneca","state_name":"South Carolina","lat":34.68597,"lng":-82.94482,"zip":"29679","miles_from_dt":17.67},{"city":"Clayton","state_name":"Georgia","lat":34.91289,"lng":-83.35853,"zip":"30525","miles_from_dt":17.81},{"city":"Clemson","state_name":"South Carolina","lat":34.69888,"lng":-82.89315,"zip":"29633","miles_from_dt":18.05},{"city":"Long Creek","state_name":"South Carolina","lat":34.76191,"lng":-83.29858,"zip":"29658","miles_from_dt":18.41},{"city":"Pickens","state_name":"South Carolina","lat":34.94071,"lng":-82.72057,"zip":"29671","miles_from_dt":18.46},{"city":"Rosman","state_name":"North Carolina","lat":35.13927,"lng":-82.83709,"zip":"28772","miles_from_dt":18.72},{"city":"Mountain City","state_name":"Georgia","lat":34.91937,"lng":-83.38177,"zip":"30562","miles_from_dt":19.11},{"city":"Central","state_name":"South Carolina","lat":34.73882,"lng":-82.79646,"zip":"29630","miles_from_dt":19.27},{"city":"Westminster","state_name":"South Carolina","lat":34.65641,"lng":-83.15284,"zip":"29693","miles_from_dt":19.73},{"city":"Norris","state_name":"South Carolina","lat":34.76446,"lng":-82.75655,"zip":"29667","miles_from_dt":19.94},{"city":"Rabun Gap","state_name":"Georgia","lat":34.95348,"lng":-83.41218,"zip":"30568","miles_from_dt":20.89},{"city":"Clemson","state_name":"South Carolina","lat":34.67517,"lng":-82.83978,"zip":"29634","miles_from_dt":21.02},{"city":"Seneca","state_name":"South Carolina","lat":34.63365,"lng":-82.93991,"zip":"29678","miles_from_dt":21.2},{"city":"Clemson","state_name":"South Carolina","lat":34.68133,"lng":-82.81716,"zip":"29631","miles_from_dt":21.42},{"city":"Clemson","state_name":"South Carolina","lat":34.68501,"lng":-82.8112,"zip":"29632","miles_from_dt":21.43},{"city":"Tuckasegee","state_name":"North Carolina","lat":35.24906,"lng":-83.02,"zip":"28783","miles_from_dt":22.14},{"city":"Liberty","state_name":"South Carolina","lat":34.76713,"lng":-82.68941,"zip":"29657","miles_from_dt":23.09},{"city":"Brevard","state_name":"North Carolina","lat":35.17324,"lng":-82.76711,"zip":"28712","miles_from_dt":23.09},{"city":"Otto","state_name":"North Carolina","lat":35.03796,"lng":-83.43215,"zip":"28763","miles_from_dt":23.2},{"city":"Wiley","state_name":"Georgia","lat":34.80195,"lng":-83.42405,"zip":"30581","miles_from_dt":23.22},{"city":"Tiger","state_name":"Georgia","lat":34.82682,"lng":-83.44539,"zip":"30576","miles_from_dt":23.78},{"city":"Tallulah Falls","state_name":"Georgia","lat":34.74242,"lng":-83.39986,"zip":"30573","miles_from_dt":23.89},{"city":"Cullowhee","state_name":"North Carolina","lat":35.27776,"lng":-83.12195,"zip":"28723","miles_from_dt":24.46},{"city":"Lakemont","state_name":"Georgia","lat":34.76965,"lng":-83.44575,"zip":"30552","miles_from_dt":25.25},{"city":"Cleveland","state_name":"South Carolina","lat":35.07754,"lng":-82.63152,"zip":"29635","miles_from_dt":25.62},{"city":"Franklin","state_name":"North Carolina","lat":35.18074,"lng":-83.38166,"zip":"28744","miles_from_dt":25.8},{"city":"Balsam Grove","state_name":"North Carolina","lat":35.27105,"lng":-82.85979,"zip":"28708","miles_from_dt":25.84},{"city":"Easley","state_name":"South Carolina","lat":34.84368,"lng":-82.59507,"zip":"29641","miles_from_dt":26.24},{"city":"Easley","state_name":"South Carolina","lat":34.88706,"lng":-82.57725,"zip":"29640","miles_from_dt":26.74},{"city":"Pendleton","state_name":"South Carolina","lat":34.64191,"lng":-82.72455,"zip":"29670","miles_from_dt":26.9},{"city":"La France","state_name":"South Carolina","lat":34.61207,"lng":-82.76134,"zip":"29656","miles_from_dt":27.15},{"city":"Franklin","state_name":"North Carolina","lat":35.1825,"lng":-83.42599,"zip":"28734","miles_from_dt":27.78},{"city":"Cedar Mountain","state_name":"North Carolina","lat":35.16614,"lng":-82.63108,"zip":"28718","miles_from_dt":28.63},{"city":"Townville","state_name":"South Carolina","lat":34.53624,"lng":-82.87658,"zip":"29689","miles_from_dt":28.7},{"city":"Toccoa Falls","state_name":"Georgia","lat":34.59663,"lng":-83.35411,"zip":"30598","miles_from_dt":28.84},{"city":"Sandy Springs","state_name":"South Carolina","lat":34.59519,"lng":-82.73756,"zip":"29677","miles_from_dt":28.89},{"city":"Easley","state_name":"South Carolina","lat":34.77487,"lng":-82.56538,"zip":"29642","miles_from_dt":29.26},{"city":"Fair Play","state_name":"South Carolina","lat":34.50506,"lng":-82.97441,"zip":"29643","miles_from_dt":29.47}],"targetCityZipCode":"29686","targetCityState":"South Carolina"},"__N_SSG":true}