{"pageProps":{"stateName":"Texas","cityName":"anahuac","nearbyCities":[{"city":"Wallisville","state_name":"Texas","lat":29.82811,"lng":-94.69521,"zip":"77597","miles_from_dt":10.32},{"city":"Hankamer","state_name":"Texas","lat":29.86399,"lng":-94.59643,"zip":"77560","miles_from_dt":12.05},{"city":"Gilchrist","state_name":"Texas","lat":29.51128,"lng":-94.51052,"zip":"77617","miles_from_dt":14.19},{"city":"Winnie","state_name":"Texas","lat":29.78697,"lng":-94.40969,"zip":"77665","miles_from_dt":14.59},{"city":"Baytown","state_name":"Texas","lat":29.77598,"lng":-94.8632,"zip":"77523","miles_from_dt":15.42},{"city":"High Island","state_name":"Texas","lat":29.55957,"lng":-94.41621,"zip":"77623","miles_from_dt":15.53},{"city":"Stowell","state_name":"Texas","lat":29.78021,"lng":-94.36861,"zip":"77661","miles_from_dt":16.65},{"city":"Port Bolivar","state_name":"Texas","lat":29.42995,"lng":-94.68096,"zip":"77650","miles_from_dt":18.28},{"city":"Mont Belvieu","state_name":"Texas","lat":29.85706,"lng":-94.88081,"zip":"77580","miles_from_dt":19.11},{"city":"Baytown","state_name":"Texas","lat":29.75639,"lng":-94.96837,"zip":"77522","miles_from_dt":21.07},{"city":"Devers","state_name":"Texas","lat":29.99217,"lng":-94.53976,"zip":"77538","miles_from_dt":21.38},{"city":"Baytown","state_name":"Texas","lat":29.81298,"lng":-94.96233,"zip":"77521","miles_from_dt":21.89},{"city":"Raywood","state_name":"Texas","lat":30.01371,"lng":-94.65497,"zip":"77582","miles_from_dt":22.3},{"city":"La Porte","state_name":"Texas","lat":29.66426,"lng":-95.00409,"zip":"77572","miles_from_dt":22.82},{"city":"Nome","state_name":"Texas","lat":29.97476,"lng":-94.42727,"zip":"77629","miles_from_dt":22.9},{"city":"Hamshire","state_name":"Texas","lat":29.85741,"lng":-94.29467,"zip":"77622","miles_from_dt":22.97},{"city":"Baytown","state_name":"Texas","lat":29.74599,"lng":-95.00388,"zip":"77520","miles_from_dt":23.03},{"city":"Bacliff","state_name":"Texas","lat":29.50544,"lng":-94.98664,"zip":"77518","miles_from_dt":25.19},{"city":"Seabrook","state_name":"Texas","lat":29.58267,"lng":-95.03391,"zip":"77586","miles_from_dt":25.65},{"city":"La Porte","state_name":"Texas","lat":29.69287,"lng":-95.06012,"zip":"77571","miles_from_dt":26.11},{"city":"Kemah","state_name":"Texas","lat":29.53925,"lng":-95.03229,"zip":"77565","miles_from_dt":26.59},{"city":"Pasadena","state_name":"Texas","lat":29.62332,"lng":-95.06582,"zip":"77507","miles_from_dt":26.87},{"city":"Liberty","state_name":"Texas","lat":30.07738,"lng":-94.73666,"zip":"77575","miles_from_dt":27.43},{"city":"Highlands","state_name":"Texas","lat":29.82917,"lng":-95.05473,"zip":"77562","miles_from_dt":27.47},{"city":"Daisetta","state_name":"Texas","lat":30.09139,"lng":-94.59488,"zip":"77533","miles_from_dt":27.64},{"city":"Texas City","state_name":"Texas","lat":29.3804,"lng":-94.91759,"zip":"77590","miles_from_dt":27.68},{"city":"Galveston","state_name":"Texas","lat":29.31082,"lng":-94.77641,"zip":"77555","miles_from_dt":27.71},{"city":"Galveston","state_name":"Texas","lat":29.31021,"lng":-94.77706,"zip":"77550","miles_from_dt":27.76},{"city":"China","state_name":"Texas","lat":30.02493,"lng":-94.35393,"zip":"77613","miles_from_dt":28.21},{"city":"Houston","state_name":"Texas","lat":29.57112,"lng":-95.07924,"zip":"77258","miles_from_dt":28.5},{"city":"League City","state_name":"Texas","lat":29.51313,"lng":-95.0581,"zip":"77574","miles_from_dt":28.75},{"city":"Dickinson","state_name":"Texas","lat":29.45578,"lng":-95.02723,"zip":"77539","miles_from_dt":29.09},{"city":"Houston","state_name":"Texas","lat":29.56297,"lng":-95.09303,"zip":"77058","miles_from_dt":29.46},{"city":"Deer Park","state_name":"Texas","lat":29.69021,"lng":-95.11891,"zip":"77536","miles_from_dt":29.64},{"city":"Channelview","state_name":"Texas","lat":29.78948,"lng":-95.11159,"zip":"77530","miles_from_dt":29.97}],"targetCityZipCode":"77514","targetCityState":"Texas"},"__N_SSG":true}