{"pageProps":{"stateName":"Texas","cityName":"benjamin","nearbyCities":[{"city":"Knox City","state_name":"Texas","lat":33.42911,"lng":-99.82915,"zip":"79529","miles_from_dt":9.26},{"city":"Munday","state_name":"Texas","lat":33.48668,"lng":-99.65453,"zip":"76371","miles_from_dt":11.94},{"city":"O'Brien","state_name":"Texas","lat":33.36965,"lng":-99.89207,"zip":"79539","miles_from_dt":13.68},{"city":"Rochester","state_name":"Texas","lat":33.30557,"lng":-99.86565,"zip":"79544","miles_from_dt":17.82},{"city":"Goree","state_name":"Texas","lat":33.50762,"lng":-99.53122,"zip":"76363","miles_from_dt":18.23},{"city":"Weinert","state_name":"Texas","lat":33.31785,"lng":-99.62931,"zip":"76388","miles_from_dt":20.84},{"city":"Crowell","state_name":"Texas","lat":33.87702,"lng":-99.74893,"zip":"79227","miles_from_dt":22.25},{"city":"Rule","state_name":"Texas","lat":33.20478,"lng":-99.91023,"zip":"79547","miles_from_dt":25.03},{"city":"Guthrie","state_name":"Texas","lat":33.5992,"lng":-100.28095,"zip":"79236","miles_from_dt":25.56}],"targetCityZipCode":"79505","targetCityState":"Texas"},"__N_SSG":true}