{"pageProps":{"stateName":"Texas","cityName":"bivins","nearbyCities":[{"city":"McLeod","state_name":"Texas","lat":32.95202,"lng":-94.07527,"zip":"75565","miles_from_dt":3.61},{"city":"Kildare","state_name":"Texas","lat":32.93588,"lng":-94.25302,"zip":"75562","miles_from_dt":6.78},{"city":"Lodi","state_name":"Texas","lat":32.88784,"lng":-94.24962,"zip":"75564","miles_from_dt":7.66},{"city":"Rodessa","state_name":"Louisiana","lat":32.9726,"lng":-93.9887,"zip":"71069","miles_from_dt":8.81},{"city":"Vivian","state_name":"Louisiana","lat":32.84389,"lng":-93.97763,"zip":"71082","miles_from_dt":11.62},{"city":"Atlanta","state_name":"Texas","lat":33.11648,"lng":-94.20325,"zip":"75551","miles_from_dt":12.39},{"city":"Jefferson","state_name":"Texas","lat":32.79437,"lng":-94.30498,"zip":"75657","miles_from_dt":14.29},{"city":"Bloomburg","state_name":"Texas","lat":33.1512,"lng":-94.06263,"zip":"75556","miles_from_dt":14.81},{"city":"Ida","state_name":"Louisiana","lat":32.96662,"lng":-93.88083,"zip":"71044","miles_from_dt":14.95},{"city":"Hosston","state_name":"Louisiana","lat":32.88789,"lng":-93.88906,"zip":"71043","miles_from_dt":14.95},{"city":"Linden","state_name":"Texas","lat":33.01835,"lng":-94.38871,"zip":"75563","miles_from_dt":15.46},{"city":"Doddridge","state_name":"Arkansas","lat":33.11552,"lng":-93.9577,"zip":"71834","miles_from_dt":15.66},{"city":"Oil City","state_name":"Louisiana","lat":32.75342,"lng":-93.97742,"zip":"71061","miles_from_dt":16.17},{"city":"Gilliam","state_name":"Louisiana","lat":32.83733,"lng":-93.83446,"zip":"71029","miles_from_dt":19.11},{"city":"Queen City","state_name":"Texas","lat":33.23114,"lng":-94.12934,"zip":"75572","miles_from_dt":19.68},{"city":"Karnack","state_name":"Texas","lat":32.63908,"lng":-94.15655,"zip":"75661","miles_from_dt":21.16},{"city":"Belcher","state_name":"Louisiana","lat":32.74403,"lng":-93.85843,"zip":"71004","miles_from_dt":21.34},{"city":"Douglassville","state_name":"Texas","lat":33.1957,"lng":-94.36699,"zip":"75560","miles_from_dt":21.8},{"city":"Mooringsport","state_name":"Louisiana","lat":32.63933,"lng":-93.987,"zip":"71060","miles_from_dt":22.84},{"city":"Woodlawn","state_name":"Texas","lat":32.6383,"lng":-94.34442,"zip":"75694","miles_from_dt":24.38},{"city":"Avinger","state_name":"Texas","lat":32.87588,"lng":-94.5572,"zip":"75630","miles_from_dt":24.9},{"city":"Marietta","state_name":"Texas","lat":33.15256,"lng":-94.49018,"zip":"75566","miles_from_dt":24.97},{"city":"Bradley","state_name":"Arkansas","lat":33.08994,"lng":-93.72536,"zip":"71826","miles_from_dt":25.88},{"city":"Plain Dealing","state_name":"Louisiana","lat":32.91356,"lng":-93.68761,"zip":"71064","miles_from_dt":26.21},{"city":"Hughes Springs","state_name":"Texas","lat":33.01471,"lng":-94.58686,"zip":"75656","miles_from_dt":26.56},{"city":"Fouke","state_name":"Arkansas","lat":33.25543,"lng":-93.85693,"zip":"71837","miles_from_dt":26.83},{"city":"Maud","state_name":"Texas","lat":33.31688,"lng":-94.31935,"zip":"75567","miles_from_dt":27.68},{"city":"Redwater","state_name":"Texas","lat":33.34214,"lng":-94.22454,"zip":"75573","miles_from_dt":27.79},{"city":"Texarkana","state_name":"Texas","lat":33.35273,"lng":-94.21872,"zip":"75504","miles_from_dt":28.45},{"city":"Texarkana","state_name":"Texas","lat":33.35468,"lng":-94.21932,"zip":"75507","miles_from_dt":28.59},{"city":"Scottsville","state_name":"Texas","lat":32.53417,"lng":-94.24071,"zip":"75688","miles_from_dt":28.99},{"city":"Shreveport","state_name":"Louisiana","lat":32.59509,"lng":-93.85909,"zip":"71107","miles_from_dt":29.07},{"city":"Blanchard","state_name":"Louisiana","lat":32.57793,"lng":-93.89185,"zip":"71009","miles_from_dt":29.08},{"city":"Shreveport","state_name":"Louisiana","lat":32.593,"lng":-93.85411,"zip":"71137","miles_from_dt":29.35},{"city":"Texarkana","state_name":"Texas","lat":33.37413,"lng":-94.13168,"zip":"75501","miles_from_dt":29.53},{"city":"Harleton","state_name":"Texas","lat":32.67061,"lng":-94.53064,"zip":"75651","miles_from_dt":29.73}],"targetCityZipCode":"75555","targetCityState":"Texas"},"__N_SSG":true}