{"pageProps":{"stateName":"Texas","cityName":"blum","nearbyCities":[{"city":"Rio Vista","state_name":"Texas","lat":32.21459,"lng":-97.40098,"zip":"76093","miles_from_dt":7.58},{"city":"Covington","state_name":"Texas","lat":32.17213,"lng":-97.28307,"zip":"76636","miles_from_dt":7.7},{"city":"Whitney","state_name":"Texas","lat":31.95902,"lng":-97.33382,"zip":"76692","miles_from_dt":10.56},{"city":"Kopperl","state_name":"Texas","lat":32.11331,"lng":-97.57648,"zip":"76652","miles_from_dt":11.06},{"city":"Morgan","state_name":"Texas","lat":31.99351,"lng":-97.52768,"zip":"76671","miles_from_dt":11.23},{"city":"Itasca","state_name":"Texas","lat":32.1596,"lng":-97.14812,"zip":"76055","miles_from_dt":14.56},{"city":"Cleburne","state_name":"Texas","lat":32.28663,"lng":-97.52075,"zip":"76033","miles_from_dt":14.73},{"city":"Hillsboro","state_name":"Texas","lat":32.01224,"lng":-97.12816,"zip":"76645","miles_from_dt":16.54},{"city":"Laguna Park","state_name":"Texas","lat":31.85888,"lng":-97.37682,"zip":"76644","miles_from_dt":16.98},{"city":"Cleburne","state_name":"Texas","lat":32.34873,"lng":-97.33267,"zip":"76031","miles_from_dt":17.1},{"city":"Grandview","state_name":"Texas","lat":32.27262,"lng":-97.16326,"zip":"76050","miles_from_dt":17.52},{"city":"Nemo","state_name":"Texas","lat":32.24291,"lng":-97.64991,"zip":"76070","miles_from_dt":18.04},{"city":"Keene","state_name":"Texas","lat":32.3921,"lng":-97.32897,"zip":"76059","miles_from_dt":20.08},{"city":"Aquilla","state_name":"Texas","lat":31.82032,"lng":-97.24942,"zip":"76622","miles_from_dt":21.25},{"city":"Rainbow","state_name":"Texas","lat":32.27886,"lng":-97.70891,"zip":"76077","miles_from_dt":22.29},{"city":"Glen Rose","state_name":"Texas","lat":32.20039,"lng":-97.76129,"zip":"76043","miles_from_dt":22.84},{"city":"Clifton","state_name":"Texas","lat":31.80953,"lng":-97.56866,"zip":"76634","miles_from_dt":22.96},{"city":"Meridian","state_name":"Texas","lat":31.91784,"lng":-97.72049,"zip":"76665","miles_from_dt":23.39},{"city":"Milford","state_name":"Texas","lat":32.12887,"lng":-96.98836,"zip":"76670","miles_from_dt":23.5},{"city":"Abbott","state_name":"Texas","lat":31.87789,"lng":-97.08891,"zip":"76621","miles_from_dt":23.53},{"city":"Walnut Springs","state_name":"Texas","lat":32.1031,"lng":-97.79219,"zip":"76690","miles_from_dt":23.7},{"city":"Alvarado","state_name":"Texas","lat":32.41635,"lng":-97.20115,"zip":"76009","miles_from_dt":24.08},{"city":"Godley","state_name":"Texas","lat":32.42961,"lng":-97.54286,"zip":"76044","miles_from_dt":24.13},{"city":"Brandon","state_name":"Texas","lat":32.03007,"lng":-96.97179,"zip":"76628","miles_from_dt":24.97},{"city":"Maypearl","state_name":"Texas","lat":32.30757,"lng":-97.03225,"zip":"76064","miles_from_dt":25.08},{"city":"Joshua","state_name":"Texas","lat":32.47072,"lng":-97.4251,"zip":"76058","miles_from_dt":25.29},{"city":"Bynum","state_name":"Texas","lat":31.97905,"lng":-96.96277,"zip":"76631","miles_from_dt":26.43},{"city":"West","state_name":"Texas","lat":31.77564,"lng":-97.09721,"zip":"76691","miles_from_dt":28.42},{"city":"Venus","state_name":"Texas","lat":32.43258,"lng":-97.0888,"zip":"76084","miles_from_dt":28.57},{"city":"China Spring","state_name":"Texas","lat":31.6857,"lng":-97.32503,"zip":"76633","miles_from_dt":29.13},{"city":"Mertens","state_name":"Texas","lat":32.04653,"lng":-96.89178,"zip":"76666","miles_from_dt":29.4},{"city":"Burleson","state_name":"Texas","lat":32.52603,"lng":-97.30491,"zip":"76028","miles_from_dt":29.41},{"city":"Lillian","state_name":"Texas","lat":32.5026,"lng":-97.19813,"zip":"76061","miles_from_dt":29.56},{"city":"Iredell","state_name":"Texas","lat":32.00132,"lng":-97.87816,"zip":"76649","miles_from_dt":29.63},{"city":"Penelope","state_name":"Texas","lat":31.87169,"lng":-96.95847,"zip":"76676","miles_from_dt":29.92}],"targetCityZipCode":"76627","targetCityState":"Texas"},"__N_SSG":true}