{"pageProps":{"stateName":"Texas","cityName":"boyd","nearbyCities":[{"city":"Newark","state_name":"Texas","lat":33.00613,"lng":-97.47821,"zip":"76071","miles_from_dt":7.86},{"city":"Paradise","state_name":"Texas","lat":33.10416,"lng":-97.72571,"zip":"76073","miles_from_dt":8.05},{"city":"Springtown","state_name":"Texas","lat":32.97098,"lng":-97.71783,"zip":"76082","miles_from_dt":8.46},{"city":"Rhome","state_name":"Texas","lat":33.0896,"lng":-97.46647,"zip":"76078","miles_from_dt":8.5},{"city":"Azle","state_name":"Texas","lat":32.90102,"lng":-97.56483,"zip":"76020","miles_from_dt":10.37},{"city":"Azle","state_name":"Texas","lat":32.89871,"lng":-97.54091,"zip":"76098","miles_from_dt":10.91},{"city":"Fort Worth","state_name":"Texas","lat":32.93294,"lng":-97.43525,"zip":"76192","miles_from_dt":12.61},{"city":"Fort Worth","state_name":"Texas","lat":32.89938,"lng":-97.45812,"zip":"76136","miles_from_dt":13.29},{"city":"Fort Worth","state_name":"Texas","lat":32.91397,"lng":-97.43947,"zip":"76179","miles_from_dt":13.29},{"city":"Haslet","state_name":"Texas","lat":32.98205,"lng":-97.38037,"zip":"76052","miles_from_dt":13.76},{"city":"Weatherford","state_name":"Texas","lat":32.84907,"lng":-97.70051,"zip":"76085","miles_from_dt":14.79},{"city":"Bridgeport","state_name":"Texas","lat":33.16493,"lng":-97.83772,"zip":"76426","miles_from_dt":15.77},{"city":"Justin","state_name":"Texas","lat":33.0965,"lng":-97.33154,"zip":"76247","miles_from_dt":16.18},{"city":"Decatur","state_name":"Texas","lat":33.27587,"lng":-97.51404,"zip":"76234","miles_from_dt":16.57},{"city":"Fort Worth","state_name":"Texas","lat":32.83708,"lng":-97.46621,"zip":"76135","miles_from_dt":16.59},{"city":"Poolville","state_name":"Texas","lat":32.97912,"lng":-97.88346,"zip":"76487","miles_from_dt":16.89},{"city":"Fort Worth","state_name":"Texas","lat":32.96999,"lng":-97.30611,"zip":"76177","miles_from_dt":18.12},{"city":"Fort Worth","state_name":"Texas","lat":32.88227,"lng":-97.34895,"zip":"76131","miles_from_dt":18.71},{"city":"Fort Worth","state_name":"Texas","lat":32.77943,"lng":-97.51811,"zip":"76108","miles_from_dt":19.16},{"city":"Peaster","state_name":"Texas","lat":32.87199,"lng":-97.86913,"zip":"76485","miles_from_dt":19.58},{"city":"Ponder","state_name":"Texas","lat":33.19977,"lng":-97.31603,"zip":"76259","miles_from_dt":19.72},{"city":"Keller","state_name":"Texas","lat":32.93101,"lng":-97.28076,"zip":"76244","miles_from_dt":20.44},{"city":"Naval Air Station Jrb","state_name":"Texas","lat":32.77663,"lng":-97.43044,"zip":"76127","miles_from_dt":21.24},{"city":"Fort Worth","state_name":"Texas","lat":32.81417,"lng":-97.35209,"zip":"76106","miles_from_dt":21.77},{"city":"Fort Worth","state_name":"Texas","lat":32.80801,"lng":-97.35431,"zip":"76191","miles_from_dt":22},{"city":"Fort Worth","state_name":"Texas","lat":32.80571,"lng":-97.353,"zip":"76161","miles_from_dt":22.17},{"city":"Fort Worth","state_name":"Texas","lat":32.77365,"lng":-97.40417,"zip":"76114","miles_from_dt":22.18},{"city":"Weatherford","state_name":"Texas","lat":32.84554,"lng":-97.90345,"zip":"76088","miles_from_dt":22.28},{"city":"Alvord","state_name":"Texas","lat":33.36616,"lng":-97.67345,"zip":"76225","miles_from_dt":22.31},{"city":"Fort Worth","state_name":"Texas","lat":32.85864,"lng":-97.29137,"zip":"76137","miles_from_dt":22.37},{"city":"Roanoke","state_name":"Texas","lat":33.01137,"lng":-97.22101,"zip":"76262","miles_from_dt":22.39},{"city":"Weatherford","state_name":"Texas","lat":32.75345,"lng":-97.78909,"zip":"76086","miles_from_dt":22.95},{"city":"Keller","state_name":"Texas","lat":32.92988,"lng":-97.22972,"zip":"76248","miles_from_dt":23.22},{"city":"Fort Worth","state_name":"Texas","lat":32.7808,"lng":-97.35411,"zip":"76164","miles_from_dt":23.45},{"city":"Chico","state_name":"Texas","lat":33.31066,"lng":-97.86228,"zip":"76431","miles_from_dt":23.49},{"city":"Krum","state_name":"Texas","lat":33.27993,"lng":-97.3026,"zip":"76249","miles_from_dt":23.7},{"city":"Fort Worth","state_name":"Texas","lat":32.86789,"lng":-97.25197,"zip":"76148","miles_from_dt":23.93},{"city":"Greenwood","state_name":"Texas","lat":33.3785,"lng":-97.47447,"zip":"76246","miles_from_dt":24},{"city":"Fort Worth","state_name":"Texas","lat":32.80277,"lng":-97.30881,"zip":"76190","miles_from_dt":24.08},{"city":"Fort Worth","state_name":"Texas","lat":32.72203,"lng":-97.44986,"zip":"76121","miles_from_dt":24.18},{"city":"Fort Worth","state_name":"Texas","lat":32.72128,"lng":-97.44766,"zip":"76116","miles_from_dt":24.27},{"city":"Fort Worth","state_name":"Texas","lat":32.74176,"lng":-97.38202,"zip":"76107","miles_from_dt":24.73},{"city":"Fort Worth","state_name":"Texas","lat":32.7481,"lng":-97.36537,"zip":"76147","miles_from_dt":24.89},{"city":"Slidell","state_name":"Texas","lat":33.36935,"lng":-97.39711,"zip":"76267","miles_from_dt":25.2},{"city":"Aledo","state_name":"Texas","lat":32.68182,"lng":-97.62738,"zip":"76008","miles_from_dt":25.25},{"city":"Fort Worth","state_name":"Texas","lat":32.75587,"lng":-97.33818,"zip":"76196","miles_from_dt":25.37},{"city":"Argyle","state_name":"Texas","lat":33.10775,"lng":-97.17196,"zip":"76226","miles_from_dt":25.42},{"city":"Fort Worth","state_name":"Texas","lat":32.7804,"lng":-97.30116,"zip":"76111","miles_from_dt":25.49},{"city":"Fort Worth","state_name":"Texas","lat":32.75944,"lng":-97.32912,"zip":"76101","miles_from_dt":25.51},{"city":"North Richland Hills","state_name":"Texas","lat":32.88257,"lng":-97.20969,"zip":"76182","miles_from_dt":25.59},{"city":"Fort Worth","state_name":"Texas","lat":32.75145,"lng":-97.33899,"zip":"76150","miles_from_dt":25.59},{"city":"Fort Worth","state_name":"Texas","lat":32.75799,"lng":-97.32858,"zip":"76102","miles_from_dt":25.6},{"city":"Fort Worth","state_name":"Texas","lat":32.75508,"lng":-97.33245,"zip":"76198","miles_from_dt":25.62},{"city":"Fort Worth","state_name":"Texas","lat":32.75243,"lng":-97.33428,"zip":"76199","miles_from_dt":25.7},{"city":"Fort Worth","state_name":"Texas","lat":32.7771,"lng":-97.29905,"zip":"76197","miles_from_dt":25.74},{"city":"Haltom City","state_name":"Texas","lat":32.80374,"lng":-97.26766,"zip":"76117","miles_from_dt":25.8},{"city":"Fort Worth","state_name":"Texas","lat":32.86197,"lng":-97.2166,"zip":"76185","miles_from_dt":25.91},{"city":"Denton","state_name":"Texas","lat":33.17651,"lng":-97.18345,"zip":"76202","miles_from_dt":25.97},{"city":"Whitt","state_name":"Texas","lat":32.95721,"lng":-98.04033,"zip":"76490","miles_from_dt":26.08},{"city":"Fort Worth","state_name":"Texas","lat":32.74738,"lng":-97.33061,"zip":"76193","miles_from_dt":26.11},{"city":"Fort Worth","state_name":"Texas","lat":32.747,"lng":-97.33,"zip":"76166","miles_from_dt":26.15},{"city":"Fort Worth","state_name":"Texas","lat":32.74656,"lng":-97.32802,"zip":"76113","miles_from_dt":26.24},{"city":"North Richland Hills","state_name":"Texas","lat":32.83994,"lng":-97.22468,"zip":"76180","miles_from_dt":26.3},{"city":"Perrin","state_name":"Texas","lat":33.02138,"lng":-98.05618,"zip":"76486","miles_from_dt":26.3},{"city":"Denton","state_name":"Texas","lat":33.22174,"lng":-97.18505,"zip":"76207","miles_from_dt":27.1},{"city":"Fort Worth","state_name":"Texas","lat":32.70115,"lng":-97.38378,"zip":"76109","miles_from_dt":27.11},{"city":"Fort Worth","state_name":"Texas","lat":32.81307,"lng":-97.22823,"zip":"76181","miles_from_dt":27.19},{"city":"Southlake","state_name":"Texas","lat":32.95562,"lng":-97.14879,"zip":"76092","miles_from_dt":27.2},{"city":"Fort Worth","state_name":"Texas","lat":32.70934,"lng":-97.36255,"zip":"76129","miles_from_dt":27.23},{"city":"Fort Worth","state_name":"Texas","lat":32.70693,"lng":-97.36222,"zip":"76130","miles_from_dt":27.38},{"city":"Fort Worth","state_name":"Texas","lat":32.72848,"lng":-97.31819,"zip":"76104","miles_from_dt":27.58},{"city":"Fort Worth","state_name":"Texas","lat":32.72528,"lng":-97.32056,"zip":"76122","miles_from_dt":27.68},{"city":"Fort Worth","state_name":"Texas","lat":32.72674,"lng":-97.31736,"zip":"76195","miles_from_dt":27.71},{"city":"Hurst","state_name":"Texas","lat":32.85904,"lng":-97.17789,"zip":"76054","miles_from_dt":27.98},{"city":"Fort Worth","state_name":"Texas","lat":32.70678,"lng":-97.33843,"zip":"76110","miles_from_dt":28.13},{"city":"Weatherford","state_name":"Texas","lat":32.66995,"lng":-97.79065,"zip":"76087","miles_from_dt":28.2},{"city":"Flower Mound","state_name":"Texas","lat":33.02554,"lng":-97.11871,"zip":"75022","miles_from_dt":28.22},{"city":"Fort Worth","state_name":"Texas","lat":32.75282,"lng":-97.26627,"zip":"76103","miles_from_dt":28.27},{"city":"Fort Worth","state_name":"Texas","lat":32.64374,"lng":-97.51767,"zip":"76126","miles_from_dt":28.29},{"city":"Fort Worth","state_name":"Texas","lat":32.66743,"lng":-97.41827,"zip":"76132","miles_from_dt":28.35},{"city":"Denton","state_name":"Texas","lat":33.21213,"lng":-97.15181,"zip":"76203","miles_from_dt":28.57},{"city":"Colleyville","state_name":"Texas","lat":32.89121,"lng":-97.1488,"zip":"76034","miles_from_dt":28.57},{"city":"Denton","state_name":"Texas","lat":33.22122,"lng":-97.14715,"zip":"76201","miles_from_dt":29.07},{"city":"Denton","state_name":"Texas","lat":33.19074,"lng":-97.12894,"zip":"76205","miles_from_dt":29.27},{"city":"Fort Worth","state_name":"Texas","lat":32.79606,"lng":-97.1972,"zip":"76118","miles_from_dt":29.34},{"city":"Hurst","state_name":"Texas","lat":32.81683,"lng":-97.17898,"zip":"76053","miles_from_dt":29.39},{"city":"Sunset","state_name":"Texas","lat":33.45471,"lng":-97.76247,"zip":"76270","miles_from_dt":29.5},{"city":"Bedford","state_name":"Texas","lat":32.85538,"lng":-97.14928,"zip":"76095","miles_from_dt":29.57},{"city":"Fort Worth","state_name":"Texas","lat":32.66331,"lng":-97.37786,"zip":"76162","miles_from_dt":29.59},{"city":"Fort Worth","state_name":"Texas","lat":32.66419,"lng":-97.37424,"zip":"76163","miles_from_dt":29.63},{"city":"Fort Worth","state_name":"Texas","lat":32.72327,"lng":-97.26999,"zip":"76105","miles_from_dt":29.63},{"city":"Denton","state_name":"Texas","lat":33.21404,"lng":-97.13265,"zip":"76204","miles_from_dt":29.65},{"city":"Flower Mound","state_name":"Texas","lat":33.02647,"lng":-97.09377,"zip":"75027","miles_from_dt":29.67},{"city":"Denton","state_name":"Texas","lat":33.19889,"lng":-97.12026,"zip":"76206","miles_from_dt":29.94},{"city":"Fort Worth","state_name":"Texas","lat":32.67861,"lng":-97.33117,"zip":"76115","miles_from_dt":29.99}],"targetCityZipCode":"76023","targetCityState":"Texas"},"__N_SSG":true}