{"pageProps":{"stateName":"Texas","cityName":"buckholts","nearbyCities":[{"city":"Rogers","state_name":"Texas","lat":30.93873,"lng":-97.21904,"zip":"76569","miles_from_dt":7.67},{"city":"Davilla","state_name":"Texas","lat":30.80366,"lng":-97.27795,"zip":"76523","miles_from_dt":8.85},{"city":"Burlington","state_name":"Texas","lat":30.98978,"lng":-97.03579,"zip":"76519","miles_from_dt":11.38},{"city":"Holland","state_name":"Texas","lat":30.88225,"lng":-97.36952,"zip":"76534","miles_from_dt":13.83},{"city":"Cameron","state_name":"Texas","lat":30.87266,"lng":-96.89972,"zip":"76520","miles_from_dt":14.33},{"city":"Thorndale","state_name":"Texas","lat":30.62128,"lng":-97.1787,"zip":"76577","miles_from_dt":15.99},{"city":"Rockdale","state_name":"Texas","lat":30.64535,"lng":-97.01363,"zip":"76567","miles_from_dt":16.02},{"city":"Little River Academy","state_name":"Texas","lat":30.97583,"lng":-97.3677,"zip":"76554","miles_from_dt":16.05},{"city":"Temple","state_name":"Texas","lat":31.07555,"lng":-97.25469,"zip":"76501","miles_from_dt":16.92},{"city":"Bartlett","state_name":"Texas","lat":30.79955,"lng":-97.42293,"zip":"76511","miles_from_dt":17.21},{"city":"Heidenheimer","state_name":"Texas","lat":31.08037,"lng":-97.32376,"zip":"76533","miles_from_dt":19.22},{"city":"Granger","state_name":"Texas","lat":30.71357,"lng":-97.42434,"zip":"76530","miles_from_dt":19.4},{"city":"Rosebud","state_name":"Texas","lat":31.0818,"lng":-96.94173,"zip":"76570","miles_from_dt":19.77},{"city":"Milano","state_name":"Texas","lat":30.69481,"lng":-96.84487,"zip":"76556","miles_from_dt":20.57},{"city":"Temple","state_name":"Texas","lat":31.09289,"lng":-97.36482,"zip":"76508","miles_from_dt":21.37},{"city":"Schwertner","state_name":"Texas","lat":30.81864,"lng":-97.50226,"zip":"76573","miles_from_dt":21.67},{"city":"Pendleton","state_name":"Texas","lat":31.15637,"lng":-97.25561,"zip":"76564","miles_from_dt":22.14},{"city":"Thrall","state_name":"Texas","lat":30.53488,"lng":-97.24092,"zip":"76578","miles_from_dt":22.59},{"city":"Temple","state_name":"Texas","lat":31.09388,"lng":-97.41082,"zip":"76502","miles_from_dt":23.23},{"city":"Lott","state_name":"Texas","lat":31.18555,"lng":-97.06161,"zip":"76656","miles_from_dt":23.51},{"city":"Taylor","state_name":"Texas","lat":30.58297,"lng":-97.38967,"zip":"76574","miles_from_dt":23.71},{"city":"Gause","state_name":"Texas","lat":30.78246,"lng":-96.73927,"zip":"77857","miles_from_dt":24.26},{"city":"Temple","state_name":"Texas","lat":31.14135,"lng":-97.37748,"zip":"76504","miles_from_dt":24.49},{"city":"Troy","state_name":"Texas","lat":31.19894,"lng":-97.26046,"zip":"76579","miles_from_dt":25.03},{"city":"Belton","state_name":"Texas","lat":31.05777,"lng":-97.50369,"zip":"76513","miles_from_dt":25.89},{"city":"Salado","state_name":"Texas","lat":30.93305,"lng":-97.58448,"zip":"76571","miles_from_dt":27.03},{"city":"Walburg","state_name":"Texas","lat":30.73653,"lng":-97.5776,"zip":"78673","miles_from_dt":27.22},{"city":"Temple","state_name":"Texas","lat":31.15517,"lng":-97.4413,"zip":"76503","miles_from_dt":27.57},{"city":"Jarrell","state_name":"Texas","lat":30.81779,"lng":-97.60645,"zip":"76537","miles_from_dt":27.85},{"city":"Chriesman","state_name":"Texas","lat":30.60008,"lng":-96.77245,"zip":"77838","miles_from_dt":27.86},{"city":"Eddy","state_name":"Texas","lat":31.27445,"lng":-97.20736,"zip":"76524","miles_from_dt":29.45},{"city":"Calvert","state_name":"Texas","lat":31.00704,"lng":-96.67718,"zip":"77837","miles_from_dt":29.49},{"city":"Weir","state_name":"Texas","lat":30.67213,"lng":-97.59653,"zip":"78674","miles_from_dt":29.84},{"city":"Lexington","state_name":"Texas","lat":30.42378,"lng":-97.04183,"zip":"78947","miles_from_dt":29.99}],"targetCityZipCode":"76518","targetCityState":"Texas"},"__N_SSG":true}