{"pageProps":{"stateName":"Texas","cityName":"burkburnett","nearbyCities":[{"city":"Devol","state_name":"Oklahoma","lat":34.18845,"lng":-98.52703,"zip":"73531","miles_from_dt":8.45},{"city":"Iowa Park","state_name":"Texas","lat":33.97361,"lng":-98.7168,"zip":"76367","miles_from_dt":9.97},{"city":"Sheppard Afb","state_name":"Texas","lat":33.97324,"lng":-98.50823,"zip":"76311","miles_from_dt":10.67},{"city":"Grandfield","state_name":"Oklahoma","lat":34.22336,"lng":-98.73053,"zip":"73546","miles_from_dt":10.78},{"city":"Wichita Falls","state_name":"Texas","lat":33.95237,"lng":-98.52745,"zip":"76306","miles_from_dt":11.26},{"city":"Randlett","state_name":"Oklahoma","lat":34.19469,"lng":-98.41203,"zip":"73562","miles_from_dt":13.89},{"city":"Wichita Falls","state_name":"Texas","lat":33.89551,"lng":-98.544,"zip":"76309","miles_from_dt":14.49},{"city":"Wichita Falls","state_name":"Texas","lat":33.99979,"lng":-98.3909,"zip":"76305","miles_from_dt":14.84},{"city":"Wichita Falls","state_name":"Texas","lat":33.90869,"lng":-98.49267,"zip":"76307","miles_from_dt":14.87},{"city":"Wichita Falls","state_name":"Texas","lat":33.90507,"lng":-98.48043,"zip":"76301","miles_from_dt":15.44},{"city":"Loveland","state_name":"Oklahoma","lat":34.33066,"lng":-98.70295,"zip":"73553","miles_from_dt":16.87},{"city":"Wichita Falls","state_name":"Texas","lat":33.85684,"lng":-98.5378,"zip":"76308","miles_from_dt":17.14},{"city":"Wichita Falls","state_name":"Texas","lat":33.86607,"lng":-98.48487,"zip":"76302","miles_from_dt":17.67},{"city":"Kamay","state_name":"Texas","lat":33.86669,"lng":-98.80192,"zip":"76369","miles_from_dt":18.81},{"city":"Hollister","state_name":"Oklahoma","lat":34.30754,"lng":-98.87487,"zip":"73551","miles_from_dt":20.56},{"city":"Wichita Falls","state_name":"Texas","lat":33.81115,"lng":-98.51178,"zip":"76310","miles_from_dt":20.59},{"city":"Chattanooga","state_name":"Oklahoma","lat":34.4033,"lng":-98.6452,"zip":"73528","miles_from_dt":21.27},{"city":"Harrold","state_name":"Texas","lat":34.13998,"lng":-99.00529,"zip":"76364","miles_from_dt":22.14},{"city":"Petrolia","state_name":"Texas","lat":34.0101,"lng":-98.24191,"zip":"76377","miles_from_dt":22.62},{"city":"Electra","state_name":"Texas","lat":33.97361,"lng":-99.00302,"zip":"76360","miles_from_dt":23.37},{"city":"Byers","state_name":"Texas","lat":34.07875,"lng":-98.18512,"zip":"76357","miles_from_dt":25.12},{"city":"Walters","state_name":"Oklahoma","lat":34.37318,"lng":-98.32638,"zip":"73572","miles_from_dt":25.59},{"city":"Temple","state_name":"Oklahoma","lat":34.26327,"lng":-98.21629,"zip":"73568","miles_from_dt":26.01},{"city":"Faxon","state_name":"Oklahoma","lat":34.47099,"lng":-98.55756,"zip":"73540","miles_from_dt":26.17},{"city":"Davidson","state_name":"Oklahoma","lat":34.25845,"lng":-99.05664,"zip":"73530","miles_from_dt":27.28},{"city":"Holliday","state_name":"Texas","lat":33.71439,"lng":-98.77436,"zip":"76366","miles_from_dt":27.66},{"city":"Frederick","state_name":"Oklahoma","lat":34.4024,"lng":-98.93893,"zip":"73542","miles_from_dt":27.85},{"city":"Oklaunion","state_name":"Texas","lat":34.15541,"lng":-99.11973,"zip":"76373","miles_from_dt":28.79},{"city":"Geronimo","state_name":"Oklahoma","lat":34.46389,"lng":-98.38385,"zip":"73543","miles_from_dt":28.86},{"city":"Hastings","state_name":"Oklahoma","lat":34.21427,"lng":-98.13818,"zip":"73548","miles_from_dt":28.95}],"targetCityZipCode":"76354","targetCityState":"Texas"},"__N_SSG":true}