{"pageProps":{"stateName":"Texas","cityName":"burkeville","nearbyCities":[{"city":"Evans","state_name":"Louisiana","lat":30.98235,"lng":-93.49793,"zip":"70639","miles_from_dt":8.52},{"city":"Wiergate","state_name":"Texas","lat":31.05997,"lng":-93.78455,"zip":"75977","miles_from_dt":10.12},{"city":"Anacoco","state_name":"Louisiana","lat":31.21047,"lng":-93.44061,"zip":"71403","miles_from_dt":14.84},{"city":"Newton","state_name":"Texas","lat":30.83783,"lng":-93.72611,"zip":"75966","miles_from_dt":16.38},{"city":"Hemphill","state_name":"Texas","lat":31.29389,"lng":-93.77573,"zip":"75948","miles_from_dt":19.04},{"city":"New Llano","state_name":"Louisiana","lat":31.12099,"lng":-93.29775,"zip":"71461","miles_from_dt":19.29},{"city":"Rosepine","state_name":"Louisiana","lat":30.92161,"lng":-93.284,"zip":"70659","miles_from_dt":21.64},{"city":"Leesville","state_name":"Louisiana","lat":31.14359,"lng":-93.25839,"zip":"71496","miles_from_dt":21.94},{"city":"Brookeland","state_name":"Texas","lat":31.09978,"lng":-93.98953,"zip":"75931","miles_from_dt":22.48},{"city":"Fort Polk","state_name":"Louisiana","lat":31.07854,"lng":-93.21723,"zip":"71459","miles_from_dt":23.58},{"city":"Hornbeck","state_name":"Louisiana","lat":31.33707,"lng":-93.36597,"zip":"71439","miles_from_dt":24.35},{"city":"Pineland","state_name":"Texas","lat":31.25882,"lng":-93.95924,"zip":"75968","miles_from_dt":24.81},{"city":"Florien","state_name":"Louisiana","lat":31.39843,"lng":-93.43218,"zip":"71429","miles_from_dt":25.99},{"city":"Merryville","state_name":"Louisiana","lat":30.66744,"lng":-93.55994,"zip":"70653","miles_from_dt":26.9},{"city":"Bon Wier","state_name":"Texas","lat":30.67111,"lng":-93.7064,"zip":"75928","miles_from_dt":27.02},{"city":"Leesville","state_name":"Louisiana","lat":31.15585,"lng":-93.17187,"zip":"71446","miles_from_dt":27.11},{"city":"Jasper","state_name":"Texas","lat":30.93098,"lng":-94.05762,"zip":"75951","miles_from_dt":27.68},{"city":"Deridder","state_name":"Louisiana","lat":30.80142,"lng":-93.24309,"zip":"70634","miles_from_dt":28.12},{"city":"Negreet","state_name":"Louisiana","lat":31.47149,"lng":-93.57269,"zip":"71460","miles_from_dt":28.79}],"targetCityZipCode":"75932","targetCityState":"Texas"},"__N_SSG":true}