{"pageProps":{"stateName":"Texas","cityName":"burnet","nearbyCities":[{"city":"Buchanan Dam","state_name":"Texas","lat":30.75975,"lng":-98.45271,"zip":"78609","miles_from_dt":11.29},{"city":"Bertram","state_name":"Texas","lat":30.77366,"lng":-98.04663,"zip":"78605","miles_from_dt":13.15},{"city":"Bluffton","state_name":"Texas","lat":30.81961,"lng":-98.488,"zip":"78607","miles_from_dt":13.3},{"city":"Kingsland","state_name":"Texas","lat":30.65823,"lng":-98.45506,"zip":"78639","miles_from_dt":14.51},{"city":"Tow","state_name":"Texas","lat":30.88151,"lng":-98.49128,"zip":"78672","miles_from_dt":14.71},{"city":"Bend","state_name":"Texas","lat":30.9411,"lng":-98.46339,"zip":"76824","miles_from_dt":15.57},{"city":"Marble Falls","state_name":"Texas","lat":30.57112,"lng":-98.20982,"zip":"78654","miles_from_dt":15.58},{"city":"Horseshoe Bay","state_name":"Texas","lat":30.53328,"lng":-98.37906,"zip":"78657","miles_from_dt":19.03},{"city":"Lampasas","state_name":"Texas","lat":31.07714,"lng":-98.22165,"zip":"76550","miles_from_dt":19.83},{"city":"Liberty Hill","state_name":"Texas","lat":30.6946,"lng":-97.94087,"zip":"78642","miles_from_dt":20.51},{"city":"Briggs","state_name":"Texas","lat":30.9341,"lng":-97.93255,"zip":"78608","miles_from_dt":22.14},{"city":"Spicewood","state_name":"Texas","lat":30.4347,"lng":-98.13066,"zip":"78669","miles_from_dt":25.9},{"city":"Round Mountain","state_name":"Texas","lat":30.41582,"lng":-98.31144,"zip":"78663","miles_from_dt":26.04},{"city":"Kempner","state_name":"Texas","lat":31.09193,"lng":-97.9992,"zip":"76539","miles_from_dt":26.07},{"city":"Leander","state_name":"Texas","lat":30.55851,"lng":-97.91473,"zip":"78641","miles_from_dt":26.41},{"city":"Llano","state_name":"Texas","lat":30.68161,"lng":-98.71281,"zip":"78643","miles_from_dt":27.62},{"city":"Florence","state_name":"Texas","lat":30.8379,"lng":-97.79531,"zip":"76527","miles_from_dt":28.2},{"city":"Leander","state_name":"Texas","lat":30.57956,"lng":-97.84926,"zip":"78646","miles_from_dt":28.83},{"city":"Leander","state_name":"Texas","lat":30.4502,"lng":-97.96934,"zip":"78645","miles_from_dt":29.46}],"targetCityZipCode":"78611","targetCityState":"Texas"},"__N_SSG":true}