{"pageProps":{"stateName":"Texas","cityName":"byers","nearbyCities":[{"city":"Petrolia","state_name":"Texas","lat":34.0101,"lng":-98.24191,"zip":"76377","miles_from_dt":5.75},{"city":"Hastings","state_name":"Oklahoma","lat":34.21427,"lng":-98.13818,"zip":"73548","miles_from_dt":9.72},{"city":"Temple","state_name":"Oklahoma","lat":34.26327,"lng":-98.21629,"zip":"73568","miles_from_dt":12.84},{"city":"Wichita Falls","state_name":"Texas","lat":33.99979,"lng":-98.3909,"zip":"76305","miles_from_dt":13},{"city":"Waurika","state_name":"Oklahoma","lat":34.1556,"lng":-97.95412,"zip":"73573","miles_from_dt":14.26},{"city":"Randlett","state_name":"Oklahoma","lat":34.19469,"lng":-98.41203,"zip":"73562","miles_from_dt":15.26},{"city":"Addington","state_name":"Oklahoma","lat":34.26148,"lng":-97.97856,"zip":"73520","miles_from_dt":17.28},{"city":"Ryan","state_name":"Oklahoma","lat":34.02326,"lng":-97.8751,"zip":"73565","miles_from_dt":18.19},{"city":"Sheppard Afb","state_name":"Texas","lat":33.97324,"lng":-98.50823,"zip":"76311","miles_from_dt":19.92},{"city":"Wichita Falls","state_name":"Texas","lat":33.90507,"lng":-98.48043,"zip":"76301","miles_from_dt":20.75},{"city":"Devol","state_name":"Oklahoma","lat":34.18845,"lng":-98.52703,"zip":"73531","miles_from_dt":21},{"city":"Wichita Falls","state_name":"Texas","lat":33.90869,"lng":-98.49267,"zip":"76307","miles_from_dt":21.19},{"city":"Wichita Falls","state_name":"Texas","lat":33.95237,"lng":-98.52745,"zip":"76306","miles_from_dt":21.49},{"city":"Walters","state_name":"Oklahoma","lat":34.37318,"lng":-98.32638,"zip":"73572","miles_from_dt":21.85},{"city":"Henrietta","state_name":"Texas","lat":33.754,"lng":-98.2076,"zip":"76365","miles_from_dt":22.42},{"city":"Wichita Falls","state_name":"Texas","lat":33.86607,"lng":-98.48487,"zip":"76302","miles_from_dt":22.61},{"city":"Comanche","state_name":"Oklahoma","lat":34.34146,"lng":-97.94619,"zip":"73529","miles_from_dt":22.7},{"city":"Ringgold","state_name":"Texas","lat":33.80291,"lng":-97.96233,"zip":"76261","miles_from_dt":22.92},{"city":"Terral","state_name":"Oklahoma","lat":33.93772,"lng":-97.80363,"zip":"73569","miles_from_dt":23.96},{"city":"Wichita Falls","state_name":"Texas","lat":33.89551,"lng":-98.544,"zip":"76309","miles_from_dt":24.17},{"city":"Burkburnett","state_name":"Texas","lat":34.09521,"lng":-98.62276,"zip":"76354","miles_from_dt":25.12},{"city":"Wichita Falls","state_name":"Texas","lat":33.85684,"lng":-98.5378,"zip":"76308","miles_from_dt":25.38},{"city":"Oscar","state_name":"Oklahoma","lat":33.95997,"lng":-97.76134,"zip":"73561","miles_from_dt":25.66},{"city":"Wichita Falls","state_name":"Texas","lat":33.81115,"lng":-98.51178,"zip":"76310","miles_from_dt":26.31},{"city":"Bluegrove","state_name":"Texas","lat":33.67614,"lng":-98.22958,"zip":"76352","miles_from_dt":27.87},{"city":"Geronimo","state_name":"Oklahoma","lat":34.46389,"lng":-98.38385,"zip":"73543","miles_from_dt":28.88}],"targetCityZipCode":"76357","targetCityState":"Texas"},"__N_SSG":true}