{"pageProps":{"stateName":"Texas","cityName":"calliham","nearbyCities":[{"city":"Whitsett","state_name":"Texas","lat":28.58862,"lng":-98.26823,"zip":"78075","miles_from_dt":11.03},{"city":"Three Rivers","state_name":"Texas","lat":28.47756,"lng":-98.19733,"zip":"78071","miles_from_dt":12.56},{"city":"Oakville","state_name":"Texas","lat":28.46,"lng":-98.18222,"zip":"78060","miles_from_dt":13.56},{"city":"Tilden","state_name":"Texas","lat":28.32631,"lng":-98.58357,"zip":"78072","miles_from_dt":15.33},{"city":"Campbellton","state_name":"Texas","lat":28.72478,"lng":-98.25911,"zip":"78008","miles_from_dt":18.88},{"city":"Christine","state_name":"Texas","lat":28.75792,"lng":-98.45578,"zip":"78012","miles_from_dt":19.25},{"city":"Jourdanton","state_name":"Texas","lat":28.75573,"lng":-98.54754,"zip":"78026","miles_from_dt":20.77},{"city":"George West","state_name":"Texas","lat":28.24222,"lng":-98.16421,"zip":"78022","miles_from_dt":22.04},{"city":"Peggy","state_name":"Texas","lat":28.74599,"lng":-98.19711,"zip":"78062","miles_from_dt":22.09},{"city":"Fowlerton","state_name":"Texas","lat":28.4318,"lng":-98.83489,"zip":"78021","miles_from_dt":26.47},{"city":"Mineral","state_name":"Texas","lat":28.53184,"lng":-97.96656,"zip":"78125","miles_from_dt":26.81},{"city":"Pawnee","state_name":"Texas","lat":28.64539,"lng":-97.99248,"zip":"78145","miles_from_dt":27.42},{"city":"Charlotte","state_name":"Texas","lat":28.80267,"lng":-98.73441,"zip":"78011","miles_from_dt":29.85}],"targetCityZipCode":"78007","targetCityState":"Texas"},"__N_SSG":true}