{"pageProps":{"stateName":"Texas","cityName":"cedar-park","nearbyCities":[{"city":"Cedar Park","state_name":"Texas","lat":30.50417,"lng":-97.82014,"zip":"78630","miles_from_dt":0.19},{"city":"Austin","state_name":"Texas","lat":30.48988,"lng":-97.75393,"zip":"78717","miles_from_dt":4.08},{"city":"Austin","state_name":"Texas","lat":30.45738,"lng":-97.75516,"zip":"78729","miles_from_dt":5.13},{"city":"Leander","state_name":"Texas","lat":30.57956,"lng":-97.84926,"zip":"78646","miles_from_dt":5.32},{"city":"Austin","state_name":"Texas","lat":30.42898,"lng":-97.84254,"zip":"78726","miles_from_dt":5.54},{"city":"Round Rock","state_name":"Texas","lat":30.5355,"lng":-97.71981,"zip":"78681","miles_from_dt":6.26},{"city":"Austin","state_name":"Texas","lat":30.41685,"lng":-97.80223,"zip":"78750","miles_from_dt":6.28},{"city":"Leander","state_name":"Texas","lat":30.55851,"lng":-97.91473,"zip":"78641","miles_from_dt":6.71},{"city":"McNeil","state_name":"Texas","lat":30.45269,"lng":-97.72316,"zip":"78651","miles_from_dt":6.85},{"city":"Austin","state_name":"Texas","lat":30.4027,"lng":-97.76093,"zip":"78759","miles_from_dt":7.98},{"city":"Austin","state_name":"Texas","lat":30.42894,"lng":-97.71736,"zip":"78727","miles_from_dt":8.12},{"city":"Austin","state_name":"Texas","lat":30.40185,"lng":-97.75413,"zip":"78720","miles_from_dt":8.21},{"city":"Austin","state_name":"Texas","lat":30.45537,"lng":-97.68948,"zip":"78728","miles_from_dt":8.52},{"city":"Round Rock","state_name":"Texas","lat":30.50936,"lng":-97.67625,"zip":"78683","miles_from_dt":8.54},{"city":"Round Rock","state_name":"Texas","lat":30.51511,"lng":-97.67271,"zip":"78682","miles_from_dt":8.77},{"city":"Austin","state_name":"Texas","lat":30.3802,"lng":-97.89291,"zip":"78732","miles_from_dt":9.76},{"city":"Leander","state_name":"Texas","lat":30.4502,"lng":-97.96934,"zip":"78645","miles_from_dt":9.76},{"city":"Round Rock","state_name":"Texas","lat":30.44628,"lng":-97.66813,"zip":"78680","miles_from_dt":9.94},{"city":"Austin","state_name":"Texas","lat":30.36322,"lng":-97.83847,"zip":"78730","miles_from_dt":9.96},{"city":"Georgetown","state_name":"Texas","lat":30.63981,"lng":-97.74636,"zip":"78628","miles_from_dt":10.14},{"city":"Round Rock","state_name":"Texas","lat":30.50461,"lng":-97.64583,"zip":"78664","miles_from_dt":10.35},{"city":"Austin","state_name":"Texas","lat":30.44682,"lng":-97.65976,"zip":"78764","miles_from_dt":10.38},{"city":"Austin","state_name":"Texas","lat":30.39033,"lng":-97.70619,"zip":"78718","miles_from_dt":10.49},{"city":"Austin","state_name":"Texas","lat":30.38768,"lng":-97.70665,"zip":"78758","miles_from_dt":10.61},{"city":"Austin","state_name":"Texas","lat":30.35984,"lng":-97.76093,"zip":"78755","miles_from_dt":10.71},{"city":"Austin","state_name":"Texas","lat":30.38531,"lng":-97.70525,"zip":"78708","miles_from_dt":10.79},{"city":"Round Rock","state_name":"Texas","lat":30.55038,"lng":-97.63681,"zip":"78665","miles_from_dt":11.29},{"city":"Austin","state_name":"Texas","lat":30.34809,"lng":-97.76826,"zip":"78779","miles_from_dt":11.35},{"city":"Austin","state_name":"Texas","lat":30.34766,"lng":-97.7687,"zip":"78731","miles_from_dt":11.37},{"city":"Austin","state_name":"Texas","lat":30.38079,"lng":-97.94676,"zip":"78734","miles_from_dt":11.54},{"city":"Austin","state_name":"Texas","lat":30.35164,"lng":-97.73267,"zip":"78757","miles_from_dt":11.88},{"city":"Austin","state_name":"Texas","lat":30.35215,"lng":-97.72972,"zip":"78766","miles_from_dt":11.92},{"city":"Austin","state_name":"Texas","lat":30.38353,"lng":-97.67335,"zip":"78753","miles_from_dt":12.17},{"city":"Georgetown","state_name":"Texas","lat":30.63698,"lng":-97.67465,"zip":"78627","miles_from_dt":12.44},{"city":"Pflugerville","state_name":"Texas","lat":30.44069,"lng":-97.62143,"zip":"78691","miles_from_dt":12.66},{"city":"Austin","state_name":"Texas","lat":30.32289,"lng":-97.86404,"zip":"78716","miles_from_dt":12.95},{"city":"Austin","state_name":"Texas","lat":30.32338,"lng":-97.87762,"zip":"78733","miles_from_dt":13.11},{"city":"Austin","state_name":"Texas","lat":30.32219,"lng":-97.7402,"zip":"78756","miles_from_dt":13.57},{"city":"Austin","state_name":"Texas","lat":30.33109,"lng":-97.70651,"zip":"78773","miles_from_dt":13.86},{"city":"Austin","state_name":"Texas","lat":30.33141,"lng":-97.70364,"zip":"78752","miles_from_dt":13.92},{"city":"Austin","state_name":"Texas","lat":30.3421,"lng":-97.68189,"zip":"78761","miles_from_dt":14.01},{"city":"Pflugerville","state_name":"Texas","lat":30.44361,"lng":-97.59558,"zip":"78660","miles_from_dt":14.05},{"city":"Austin","state_name":"Texas","lat":30.35342,"lng":-97.65676,"zip":"78710","miles_from_dt":14.35},{"city":"Austin","state_name":"Texas","lat":30.29759,"lng":-97.81136,"zip":"78746","miles_from_dt":14.42},{"city":"Austin","state_name":"Texas","lat":30.3108,"lng":-97.72278,"zip":"78751","miles_from_dt":14.68},{"city":"Austin","state_name":"Texas","lat":30.30828,"lng":-97.72892,"zip":"78765","miles_from_dt":14.71},{"city":"Austin","state_name":"Texas","lat":30.29711,"lng":-97.76685,"zip":"78763","miles_from_dt":14.78},{"city":"Liberty Hill","state_name":"Texas","lat":30.6946,"lng":-97.94087,"zip":"78642","miles_from_dt":14.82},{"city":"Austin","state_name":"Texas","lat":30.35633,"lng":-97.63925,"zip":"78754","miles_from_dt":14.94},{"city":"Austin","state_name":"Texas","lat":30.29385,"lng":-97.76554,"zip":"78703","miles_from_dt":15.02},{"city":"Austin","state_name":"Texas","lat":30.2947,"lng":-97.739,"zip":"78705","miles_from_dt":15.38},{"city":"Austin","state_name":"Texas","lat":30.28392,"lng":-97.74132,"zip":"78713","miles_from_dt":16.05},{"city":"Austin","state_name":"Texas","lat":30.30423,"lng":-97.68578,"zip":"78723","miles_from_dt":16.08},{"city":"Austin","state_name":"Texas","lat":30.29005,"lng":-97.71458,"zip":"78722","miles_from_dt":16.19},{"city":"Austin","state_name":"Texas","lat":30.28393,"lng":-97.73294,"zip":"78712","miles_from_dt":16.2},{"city":"Austin","state_name":"Texas","lat":30.27986,"lng":-97.73918,"zip":"78774","miles_from_dt":16.35},{"city":"Austin","state_name":"Texas","lat":30.27968,"lng":-97.7381,"zip":"78711","miles_from_dt":16.38},{"city":"Georgetown","state_name":"Texas","lat":30.73803,"lng":-97.75465,"zip":"78633","miles_from_dt":16.39},{"city":"Austin","state_name":"Texas","lat":30.27621,"lng":-97.73962,"zip":"78778","miles_from_dt":16.59},{"city":"Austin","state_name":"Texas","lat":30.27282,"lng":-97.74283,"zip":"78767","miles_from_dt":16.76},{"city":"Hutto","state_name":"Texas","lat":30.56,"lng":-97.54404,"zip":"78634","miles_from_dt":16.82},{"city":"Austin","state_name":"Texas","lat":30.26634,"lng":-97.86775,"zip":"78735","miles_from_dt":16.82},{"city":"Austin","state_name":"Texas","lat":30.27046,"lng":-97.74407,"zip":"78768","miles_from_dt":16.89},{"city":"Austin","state_name":"Texas","lat":30.27022,"lng":-97.74248,"zip":"78701","miles_from_dt":16.93},{"city":"Austin","state_name":"Texas","lat":30.26884,"lng":-97.74122,"zip":"78714","miles_from_dt":17.05},{"city":"Austin","state_name":"Texas","lat":30.30668,"lng":-97.99002,"zip":"78738","miles_from_dt":17.14},{"city":"Georgetown","state_name":"Texas","lat":30.66664,"lng":-97.59878,"zip":"78626","miles_from_dt":17.15},{"city":"Weir","state_name":"Texas","lat":30.67213,"lng":-97.59653,"zip":"78674","miles_from_dt":17.49},{"city":"Austin","state_name":"Texas","lat":30.26339,"lng":-97.7144,"zip":"78702","miles_from_dt":17.9},{"city":"Austin","state_name":"Texas","lat":30.26043,"lng":-97.72295,"zip":"78762","miles_from_dt":17.92},{"city":"Austin","state_name":"Texas","lat":30.27127,"lng":-97.68345,"zip":"78721","miles_from_dt":18.14},{"city":"Austin","state_name":"Texas","lat":30.24641,"lng":-97.76639,"zip":"78783","miles_from_dt":18.22},{"city":"Austin","state_name":"Texas","lat":30.24298,"lng":-97.76537,"zip":"78704","miles_from_dt":18.46},{"city":"Austin","state_name":"Texas","lat":30.23502,"lng":-97.84764,"zip":"78709","miles_from_dt":18.8},{"city":"Austin","state_name":"Texas","lat":30.29474,"lng":-97.61439,"zip":"78724","miles_from_dt":19.06},{"city":"Spicewood","state_name":"Texas","lat":30.4347,"lng":-98.13066,"zip":"78669","miles_from_dt":19.23},{"city":"Austin","state_name":"Texas","lat":30.251,"lng":-97.685,"zip":"78799","miles_from_dt":19.36},{"city":"Austin","state_name":"Texas","lat":30.24833,"lng":-97.94965,"zip":"78736","miles_from_dt":19.43},{"city":"Austin","state_name":"Texas","lat":30.22432,"lng":-97.75029,"zip":"78772","miles_from_dt":19.89},{"city":"Austin","state_name":"Texas","lat":30.23007,"lng":-97.71389,"zip":"78741","miles_from_dt":20.08},{"city":"Austin","state_name":"Texas","lat":30.22023,"lng":-97.74994,"zip":"73301","miles_from_dt":20.17},{"city":"Austin","state_name":"Texas","lat":30.21329,"lng":-97.85732,"zip":"78749","miles_from_dt":20.35},{"city":"Austin","state_name":"Texas","lat":30.24375,"lng":-97.65869,"zip":"78742","miles_from_dt":20.51},{"city":"Austin","state_name":"Texas","lat":30.20743,"lng":-97.79822,"zip":"78745","miles_from_dt":20.66},{"city":"Austin","state_name":"Texas","lat":30.20657,"lng":-97.79623,"zip":"78715","miles_from_dt":20.73},{"city":"Austin","state_name":"Texas","lat":30.21256,"lng":-97.73332,"zip":"78760","miles_from_dt":20.91},{"city":"Manor","state_name":"Texas","lat":30.33783,"lng":-97.52006,"zip":"78653","miles_from_dt":21.33},{"city":"Walburg","state_name":"Texas","lat":30.73653,"lng":-97.5776,"zip":"78673","miles_from_dt":21.4},{"city":"Austin","state_name":"Texas","lat":30.23554,"lng":-97.60859,"zip":"78725","miles_from_dt":22.53},{"city":"Bertram","state_name":"Texas","lat":30.77366,"lng":-98.04663,"zip":"78605","miles_from_dt":22.83},{"city":"Florence","state_name":"Texas","lat":30.8379,"lng":-97.79531,"zip":"76527","miles_from_dt":22.85},{"city":"Austin","state_name":"Texas","lat":30.18024,"lng":-97.72888,"zip":"78744","miles_from_dt":23.14},{"city":"Austin","state_name":"Texas","lat":30.17596,"lng":-97.89087,"zip":"78739","miles_from_dt":23.19},{"city":"Austin","state_name":"Texas","lat":30.17617,"lng":-97.72922,"zip":"73344","miles_from_dt":23.41},{"city":"Austin","state_name":"Texas","lat":30.18935,"lng":-97.96059,"zip":"78737","miles_from_dt":23.44},{"city":"Marble Falls","state_name":"Texas","lat":30.57112,"lng":-98.20982,"zip":"78654","miles_from_dt":23.7},{"city":"Austin","state_name":"Texas","lat":30.16144,"lng":-97.8227,"zip":"78748","miles_from_dt":23.79},{"city":"Jarrell","state_name":"Texas","lat":30.81779,"lng":-97.60645,"zip":"76537","miles_from_dt":24.89},{"city":"Coupland","state_name":"Texas","lat":30.46426,"lng":-97.39061,"zip":"78615","miles_from_dt":25.75},{"city":"Manchaca","state_name":"Texas","lat":30.13462,"lng":-97.8606,"zip":"78652","miles_from_dt":25.76},{"city":"Taylor","state_name":"Texas","lat":30.58297,"lng":-97.38967,"zip":"76574","miles_from_dt":26.15},{"city":"Austin","state_name":"Texas","lat":30.14465,"lng":-97.67148,"zip":"78719","miles_from_dt":26.47},{"city":"Austin","state_name":"Texas","lat":30.12521,"lng":-97.74117,"zip":"78747","miles_from_dt":26.7},{"city":"Dripping Springs","state_name":"Texas","lat":30.22214,"lng":-98.13491,"zip":"78620","miles_from_dt":27.2},{"city":"Granger","state_name":"Texas","lat":30.71357,"lng":-97.42434,"zip":"76530","miles_from_dt":27.51},{"city":"Del Valle","state_name":"Texas","lat":30.1508,"lng":-97.59928,"zip":"78617","miles_from_dt":27.83},{"city":"Schwertner","state_name":"Texas","lat":30.81864,"lng":-97.50226,"zip":"76573","miles_from_dt":28.6},{"city":"Buda","state_name":"Texas","lat":30.07962,"lng":-97.84047,"zip":"78610","miles_from_dt":29.45},{"city":"Elgin","state_name":"Texas","lat":30.33737,"lng":-97.36053,"zip":"78621","miles_from_dt":29.78},{"city":"Driftwood","state_name":"Texas","lat":30.11215,"lng":-98.03101,"zip":"78619","miles_from_dt":29.99}],"targetCityZipCode":"78613","targetCityState":"Texas"},"__N_SSG":true}