{"pageProps":{"stateName":"Texas","cityName":"chico","nearbyCities":[{"city":"Bridgeport","state_name":"Texas","lat":33.16493,"lng":-97.83772,"zip":"76426","miles_from_dt":10.14},{"city":"Sunset","state_name":"Texas","lat":33.45471,"lng":-97.76247,"zip":"76270","miles_from_dt":11.48},{"city":"Alvord","state_name":"Texas","lat":33.36616,"lng":-97.67345,"zip":"76225","miles_from_dt":11.57},{"city":"Bowie","state_name":"Texas","lat":33.52264,"lng":-97.94497,"zip":"76230","miles_from_dt":15.37},{"city":"Paradise","state_name":"Texas","lat":33.10416,"lng":-97.72571,"zip":"76073","miles_from_dt":16.28},{"city":"Jacksboro","state_name":"Texas","lat":33.21518,"lng":-98.18944,"zip":"76458","miles_from_dt":20.05},{"city":"Decatur","state_name":"Texas","lat":33.27587,"lng":-97.51404,"zip":"76234","miles_from_dt":20.3},{"city":"Forestburg","state_name":"Texas","lat":33.524,"lng":-97.57033,"zip":"76239","miles_from_dt":22.38},{"city":"Poolville","state_name":"Texas","lat":32.97912,"lng":-97.88346,"zip":"76487","miles_from_dt":22.88},{"city":"Perrin","state_name":"Texas","lat":33.02138,"lng":-98.05618,"zip":"76486","miles_from_dt":22.89},{"city":"Greenwood","state_name":"Texas","lat":33.3785,"lng":-97.47447,"zip":"76246","miles_from_dt":22.91},{"city":"Boyd","state_name":"Texas","lat":33.04777,"lng":-97.60425,"zip":"76023","miles_from_dt":23.49},{"city":"Bellevue","state_name":"Texas","lat":33.61438,"lng":-98.06305,"zip":"76228","miles_from_dt":23.93},{"city":"Springtown","state_name":"Texas","lat":32.97098,"lng":-97.71783,"zip":"76082","miles_from_dt":24.86},{"city":"Montague","state_name":"Texas","lat":33.65455,"lng":-97.69076,"zip":"76251","miles_from_dt":25.69},{"city":"Whitt","state_name":"Texas","lat":32.95721,"lng":-98.04033,"zip":"76490","miles_from_dt":26.46},{"city":"Slidell","state_name":"Texas","lat":33.36935,"lng":-97.39711,"zip":"76267","miles_from_dt":27.21},{"city":"Rhome","state_name":"Texas","lat":33.0896,"lng":-97.46647,"zip":"76078","miles_from_dt":27.53},{"city":"Rosston","state_name":"Texas","lat":33.50435,"lng":-97.43735,"zip":"76263","miles_from_dt":27.95}],"targetCityZipCode":"76431","targetCityState":"Texas"},"__N_SSG":true}