{"pageProps":{"stateName":"Texas","cityName":"clarksville","nearbyCities":[{"city":"Bagwell","state_name":"Texas","lat":33.80295,"lng":-95.14232,"zip":"75412","miles_from_dt":12.64},{"city":"Annona","state_name":"Texas","lat":33.49966,"lng":-94.88454,"zip":"75550","miles_from_dt":13.01},{"city":"Avery","state_name":"Texas","lat":33.58534,"lng":-94.78563,"zip":"75554","miles_from_dt":13.88},{"city":"Detroit","state_name":"Texas","lat":33.73507,"lng":-95.24904,"zip":"75436","miles_from_dt":14.76},{"city":"Bogata","state_name":"Texas","lat":33.43827,"lng":-95.13114,"zip":"75417","miles_from_dt":16.54},{"city":"Idabel","state_name":"Oklahoma","lat":33.86017,"lng":-94.81319,"zip":"74745","miles_from_dt":18.1},{"city":"Garvin","state_name":"Oklahoma","lat":33.92436,"lng":-94.98772,"zip":"74736","miles_from_dt":18.54},{"city":"Deport","state_name":"Texas","lat":33.50175,"lng":-95.29522,"zip":"75435","miles_from_dt":19.55},{"city":"Blossom","state_name":"Texas","lat":33.67255,"lng":-95.35431,"zip":"75416","miles_from_dt":19.82},{"city":"Millerton","state_name":"Oklahoma","lat":33.98514,"lng":-95.01175,"zip":"74750","miles_from_dt":22.68},{"city":"Talco","state_name":"Texas","lat":33.33584,"lng":-95.16567,"zip":"75487","miles_from_dt":23.81},{"city":"De Kalb","state_name":"Texas","lat":33.49929,"lng":-94.63931,"zip":"75559","miles_from_dt":24.01},{"city":"Pattonville","state_name":"Texas","lat":33.51175,"lng":-95.40747,"zip":"75468","miles_from_dt":24.94},{"city":"Haworth","state_name":"Oklahoma","lat":33.7938,"lng":-94.59614,"zip":"74740","miles_from_dt":25.7},{"city":"Cunningham","state_name":"Texas","lat":33.41258,"lng":-95.35171,"zip":"75434","miles_from_dt":25.85},{"city":"Golden","state_name":"Oklahoma","lat":34.0311,"lng":-94.8995,"zip":"74737","miles_from_dt":26.63},{"city":"Swink","state_name":"Oklahoma","lat":34.00938,"lng":-95.20134,"zip":"74761","miles_from_dt":26.7},{"city":"Paris","state_name":"Texas","lat":33.62166,"lng":-95.48362,"zip":"75462","miles_from_dt":27.35},{"city":"Powderly","state_name":"Texas","lat":33.81461,"lng":-95.48433,"zip":"75473","miles_from_dt":29.37},{"city":"Cookville","state_name":"Texas","lat":33.25017,"lng":-94.85564,"zip":"75558","miles_from_dt":29.38},{"city":"Wright City","state_name":"Oklahoma","lat":34.08597,"lng":-94.97271,"zip":"74766","miles_from_dt":29.71}],"targetCityZipCode":"75426","targetCityState":"Texas"},"__N_SSG":true}