{"pageProps":{"stateName":"Texas","cityName":"clyde","nearbyCities":[{"city":"Abilene","state_name":"Texas","lat":32.33568,"lng":-99.6699,"zip":"79602","miles_from_dt":9.77},{"city":"Baird","state_name":"Texas","lat":32.31336,"lng":-99.35271,"zip":"79504","miles_from_dt":10.94},{"city":"Abilene","state_name":"Texas","lat":32.41822,"lng":-99.74842,"zip":"79608","miles_from_dt":16.85},{"city":"Abilene","state_name":"Texas","lat":32.43294,"lng":-99.74784,"zip":"79697","miles_from_dt":17.5},{"city":"Goldsboro","state_name":"Texas","lat":32.04926,"lng":-99.69857,"zip":"79519","miles_from_dt":17.61},{"city":"Buffalo Gap","state_name":"Texas","lat":32.26999,"lng":-99.83032,"zip":"79508","miles_from_dt":17.67},{"city":"Abilene","state_name":"Texas","lat":32.46221,"lng":-99.71502,"zip":"79699","miles_from_dt":17.68},{"city":"Abilene","state_name":"Texas","lat":32.45318,"lng":-99.73236,"zip":"79604","miles_from_dt":17.86},{"city":"Ovalo","state_name":"Texas","lat":32.15018,"lng":-99.81617,"zip":"79541","miles_from_dt":18.46},{"city":"Lawn","state_name":"Texas","lat":32.09981,"lng":-99.78178,"zip":"79530","miles_from_dt":18.49},{"city":"Abilene","state_name":"Texas","lat":32.35477,"lng":-99.83139,"zip":"79606","miles_from_dt":18.88},{"city":"Abilene","state_name":"Texas","lat":32.47486,"lng":-99.7327,"zip":"79698","miles_from_dt":19.01},{"city":"Abilene","state_name":"Texas","lat":32.43394,"lng":-99.78182,"zip":"79605","miles_from_dt":19.05},{"city":"Putnam","state_name":"Texas","lat":32.34696,"lng":-99.21707,"zip":"76469","miles_from_dt":19.2},{"city":"Tuscola","state_name":"Texas","lat":32.24168,"lng":-99.86766,"zip":"79562","miles_from_dt":19.89},{"city":"Dyess Afb","state_name":"Texas","lat":32.42289,"lng":-99.83904,"zip":"79607","miles_from_dt":21.34},{"city":"Cross Plains","state_name":"Texas","lat":32.11907,"lng":-99.20174,"zip":"76443","miles_from_dt":21.48},{"city":"Novice","state_name":"Texas","lat":31.97891,"lng":-99.69177,"zip":"79538","miles_from_dt":21.6},{"city":"Burkett","state_name":"Texas","lat":32.00728,"lng":-99.28435,"zip":"76828","miles_from_dt":22.55},{"city":"Abilene","state_name":"Texas","lat":32.57226,"lng":-99.64921,"zip":"79601","miles_from_dt":22.64},{"city":"Abilene","state_name":"Texas","lat":32.39904,"lng":-99.89222,"zip":"79603","miles_from_dt":23.32},{"city":"Tye","state_name":"Texas","lat":32.42222,"lng":-99.90929,"zip":"79563","miles_from_dt":24.91},{"city":"Coleman","state_name":"Texas","lat":31.87885,"lng":-99.46843,"zip":"76834","miles_from_dt":26.5}],"targetCityZipCode":"79510","targetCityState":"Texas"},"__N_SSG":true}