{"pageProps":{"stateName":"Texas","cityName":"commerce","nearbyCities":[{"city":"Commerce","state_name":"Texas","lat":33.27847,"lng":-95.89231,"zip":"75429","miles_from_dt":1.57},{"city":"Klondike","state_name":"Texas","lat":33.31478,"lng":-95.79681,"zip":"75448","miles_from_dt":7.63},{"city":"Campbell","state_name":"Texas","lat":33.13889,"lng":-95.93059,"zip":"75422","miles_from_dt":9.16},{"city":"Ladonia","state_name":"Texas","lat":33.423,"lng":-95.9493,"zip":"75449","miles_from_dt":10.61},{"city":"Wolfe City","state_name":"Texas","lat":33.36276,"lng":-96.06616,"zip":"75496","miles_from_dt":10.64},{"city":"Pecan Gap","state_name":"Texas","lat":33.41269,"lng":-95.8248,"zip":"75469","miles_from_dt":11.13},{"city":"Greenville","state_name":"Texas","lat":33.1957,"lng":-96.10597,"zip":"75403","miles_from_dt":12.07},{"city":"Greenville","state_name":"Texas","lat":33.19283,"lng":-96.10546,"zip":"75404","miles_from_dt":12.13},{"city":"Greenville","state_name":"Texas","lat":33.18506,"lng":-96.11556,"zip":"75401","miles_from_dt":12.9},{"city":"Cumby","state_name":"Texas","lat":33.10883,"lng":-95.80571,"zip":"75433","miles_from_dt":12.95},{"city":"Celeste","state_name":"Texas","lat":33.29279,"lng":-96.19918,"zip":"75423","miles_from_dt":16.34},{"city":"Cooper","state_name":"Texas","lat":33.38912,"lng":-95.66804,"zip":"75432","miles_from_dt":16.58},{"city":"Ben Franklin","state_name":"Texas","lat":33.4645,"lng":-95.74603,"zip":"75415","miles_from_dt":16.62},{"city":"Merit","state_name":"Texas","lat":33.2821,"lng":-96.20939,"zip":"75458","miles_from_dt":16.88},{"city":"Greenville","state_name":"Texas","lat":33.06724,"lng":-96.08576,"zip":"75402","miles_from_dt":17.1},{"city":"Bailey","state_name":"Texas","lat":33.43596,"lng":-96.16477,"zip":"75413","miles_from_dt":18.23},{"city":"Brashear","state_name":"Texas","lat":33.05782,"lng":-95.72503,"zip":"75420","miles_from_dt":18.48},{"city":"Lone Oak","state_name":"Texas","lat":33.00025,"lng":-95.92817,"zip":"75453","miles_from_dt":18.69},{"city":"Enloe","state_name":"Texas","lat":33.4296,"lng":-95.65456,"zip":"75441","miles_from_dt":18.74},{"city":"Sulphur Springs","state_name":"Texas","lat":33.16929,"lng":-95.60946,"zip":"75482","miles_from_dt":19.2},{"city":"Sulphur Springs","state_name":"Texas","lat":33.14222,"lng":-95.59786,"zip":"75483","miles_from_dt":20.57},{"city":"Leonard","state_name":"Texas","lat":33.39284,"lng":-96.24469,"zip":"75452","miles_from_dt":20.67},{"city":"Roxton","state_name":"Texas","lat":33.53118,"lng":-95.73429,"zip":"75477","miles_from_dt":20.82},{"city":"Gober","state_name":"Texas","lat":33.55431,"lng":-96.04411,"zip":"75443","miles_from_dt":20.82},{"city":"Windom","state_name":"Texas","lat":33.59139,"lng":-96.0004,"zip":"75492","miles_from_dt":22.57},{"city":"Petty","state_name":"Texas","lat":33.58341,"lng":-95.79836,"zip":"75470","miles_from_dt":22.59},{"city":"Caddo Mills","state_name":"Texas","lat":33.06666,"lng":-96.22567,"zip":"75135","miles_from_dt":22.74},{"city":"Honey Grove","state_name":"Texas","lat":33.61385,"lng":-95.89177,"zip":"75446","miles_from_dt":23.65},{"city":"Randolph","state_name":"Texas","lat":33.48593,"lng":-96.25757,"zip":"75475","miles_from_dt":24.58},{"city":"Dodd City","state_name":"Texas","lat":33.60701,"lng":-96.07462,"zip":"75438","miles_from_dt":24.84},{"city":"Trenton","state_name":"Texas","lat":33.4363,"lng":-96.30771,"zip":"75490","miles_from_dt":25.25},{"city":"Bonham","state_name":"Texas","lat":33.57235,"lng":-96.1773,"zip":"75418","miles_from_dt":25.59},{"city":"Farmersville","state_name":"Texas","lat":33.17717,"lng":-96.35035,"zip":"75442","miles_from_dt":25.87},{"city":"Dike","state_name":"Texas","lat":33.25605,"lng":-95.46567,"zip":"75437","miles_from_dt":26.21},{"city":"Point","state_name":"Texas","lat":32.89177,"lng":-95.87239,"zip":"75472","miles_from_dt":26.29},{"city":"Josephine","state_name":"Texas","lat":33.06963,"lng":-96.3041,"zip":"75164","miles_from_dt":26.34},{"city":"Quinlan","state_name":"Texas","lat":32.91709,"lng":-96.10611,"zip":"75474","miles_from_dt":26.74},{"city":"Westminster","state_name":"Texas","lat":33.3056,"lng":-96.3841,"zip":"75485","miles_from_dt":27.08},{"city":"Copeville","state_name":"Texas","lat":33.17163,"lng":-96.37204,"zip":"75121","miles_from_dt":27.18},{"city":"Lake Creek","state_name":"Texas","lat":33.40465,"lng":-95.47481,"zip":"75450","miles_from_dt":27.23},{"city":"Blue Ridge","state_name":"Texas","lat":33.30535,"lng":-96.39059,"zip":"75424","miles_from_dt":27.45},{"city":"Brookston","state_name":"Texas","lat":33.6448,"lng":-95.71809,"zip":"75421","miles_from_dt":28.21},{"city":"Ector","state_name":"Texas","lat":33.55261,"lng":-96.27796,"zip":"75439","miles_from_dt":28.44},{"city":"Emory","state_name":"Texas","lat":32.87507,"lng":-95.75262,"zip":"75440","miles_from_dt":28.94}],"targetCityZipCode":"75428","targetCityState":"Texas"},"__N_SSG":true}