{"pageProps":{"stateName":"Texas","cityName":"daingerfield","nearbyCities":[{"city":"Cason","state_name":"Texas","lat":32.94351,"lng":-94.70518,"zip":"75636","miles_from_dt":5.41},{"city":"Lone Star","state_name":"Texas","lat":32.90846,"lng":-94.68485,"zip":"75668","miles_from_dt":8.07},{"city":"Hughes Springs","state_name":"Texas","lat":33.01471,"lng":-94.58686,"zip":"75656","miles_from_dt":8.42},{"city":"Pittsburg","state_name":"Texas","lat":32.96921,"lng":-94.94697,"zip":"75686","miles_from_dt":12.96},{"city":"Omaha","state_name":"Texas","lat":33.20704,"lng":-94.76407,"zip":"75571","miles_from_dt":13.11},{"city":"Ore City","state_name":"Texas","lat":32.82182,"lng":-94.74035,"zip":"75683","miles_from_dt":13.58},{"city":"Avinger","state_name":"Texas","lat":32.87588,"lng":-94.5572,"zip":"75630","miles_from_dt":14.13},{"city":"Naples","state_name":"Texas","lat":33.19607,"lng":-94.59362,"zip":"75568","miles_from_dt":14.61},{"city":"Mount Pleasant","state_name":"Texas","lat":33.15819,"lng":-94.96805,"zip":"75456","miles_from_dt":16.74},{"city":"Marietta","state_name":"Texas","lat":33.15256,"lng":-94.49018,"zip":"75566","miles_from_dt":16.78},{"city":"Cookville","state_name":"Texas","lat":33.25017,"lng":-94.85564,"zip":"75558","miles_from_dt":17.5},{"city":"Mount Pleasant","state_name":"Texas","lat":33.21725,"lng":-94.98022,"zip":"75455","miles_from_dt":19.87},{"city":"Linden","state_name":"Texas","lat":33.01835,"lng":-94.38871,"zip":"75563","miles_from_dt":19.91},{"city":"Diana","state_name":"Texas","lat":32.7152,"lng":-94.68133,"zip":"75640","miles_from_dt":21.12},{"city":"Gilmer","state_name":"Texas","lat":32.79171,"lng":-94.99498,"zip":"75644","miles_from_dt":21.88},{"city":"Leesburg","state_name":"Texas","lat":32.96247,"lng":-95.11835,"zip":"75451","miles_from_dt":22.78},{"city":"Winfield","state_name":"Texas","lat":33.14073,"lng":-95.11316,"zip":"75493","miles_from_dt":23.67},{"city":"Simms","state_name":"Texas","lat":33.32892,"lng":-94.55229,"zip":"75574","miles_from_dt":23.77},{"city":"Douglassville","state_name":"Texas","lat":33.1957,"lng":-94.36699,"zip":"75560","miles_from_dt":24.42},{"city":"Gilmer","state_name":"Texas","lat":32.68375,"lng":-94.87317,"zip":"75645","miles_from_dt":24.5},{"city":"Harleton","state_name":"Texas","lat":32.67061,"lng":-94.53064,"zip":"75651","miles_from_dt":26.69},{"city":"Scroggins","state_name":"Texas","lat":33.02129,"lng":-95.19159,"zip":"75480","miles_from_dt":26.7},{"city":"Kildare","state_name":"Texas","lat":32.93588,"lng":-94.25302,"zip":"75562","miles_from_dt":28.38},{"city":"Jefferson","state_name":"Texas","lat":32.79437,"lng":-94.30498,"zip":"75657","miles_from_dt":29.23},{"city":"Lodi","state_name":"Texas","lat":32.88784,"lng":-94.24962,"zip":"75564","miles_from_dt":29.43},{"city":"Mount Vernon","state_name":"Texas","lat":33.1746,"lng":-95.21125,"zip":"75457","miles_from_dt":29.82},{"city":"Judson","state_name":"Texas","lat":32.58563,"lng":-94.75618,"zip":"75660","miles_from_dt":29.88},{"city":"Longview","state_name":"Texas","lat":32.58385,"lng":-94.71554,"zip":"75605","miles_from_dt":29.98}],"targetCityZipCode":"75638","targetCityState":"Texas"},"__N_SSG":true}