{"pageProps":{"stateName":"Texas","cityName":"deanville","nearbyCities":[{"city":"Dime Box","state_name":"Texas","lat":30.3623,"lng":-96.84035,"zip":"77853","miles_from_dt":6.73},{"city":"Caldwell","state_name":"Texas","lat":30.53798,"lng":-96.67813,"zip":"77836","miles_from_dt":8.91},{"city":"Chriesman","state_name":"Texas","lat":30.60008,"lng":-96.77245,"zip":"77838","miles_from_dt":11.87},{"city":"Lyons","state_name":"Texas","lat":30.39306,"lng":-96.55946,"zip":"77863","miles_from_dt":12.06},{"city":"Lincoln","state_name":"Texas","lat":30.30748,"lng":-96.97022,"zip":"78948","miles_from_dt":15.2},{"city":"Somerville","state_name":"Texas","lat":30.40078,"lng":-96.49378,"zip":"77879","miles_from_dt":15.85},{"city":"Ledbetter","state_name":"Texas","lat":30.18947,"lng":-96.77412,"zip":"78946","miles_from_dt":16.48},{"city":"Lexington","state_name":"Texas","lat":30.42378,"lng":-97.04183,"zip":"78947","miles_from_dt":16.99},{"city":"Carmine","state_name":"Texas","lat":30.1656,"lng":-96.70793,"zip":"78932","miles_from_dt":18.34},{"city":"Snook","state_name":"Texas","lat":30.47222,"lng":-96.45089,"zip":"77878","miles_from_dt":18.54},{"city":"Burton","state_name":"Texas","lat":30.19439,"lng":-96.59257,"zip":"77835","miles_from_dt":18.88},{"city":"Milano","state_name":"Texas","lat":30.69481,"lng":-96.84487,"zip":"76556","miles_from_dt":19.08},{"city":"Giddings","state_name":"Texas","lat":30.16803,"lng":-96.93153,"zip":"78942","miles_from_dt":20.74},{"city":"Rockdale","state_name":"Texas","lat":30.64535,"lng":-97.01363,"zip":"76567","miles_from_dt":21.38},{"city":"Bryan","state_name":"Texas","lat":30.6783,"lng":-96.47982,"zip":"77807","miles_from_dt":23.88},{"city":"Mumford","state_name":"Texas","lat":30.74163,"lng":-96.56992,"zip":"77867","miles_from_dt":24.3},{"city":"Gause","state_name":"Texas","lat":30.78246,"lng":-96.73927,"zip":"77857","miles_from_dt":24.42},{"city":"Brenham","state_name":"Texas","lat":30.20842,"lng":-96.40797,"zip":"77833","miles_from_dt":25.79},{"city":"Round Top","state_name":"Texas","lat":30.04507,"lng":-96.69774,"zip":"78954","miles_from_dt":26.64},{"city":"Paige","state_name":"Texas","lat":30.20667,"lng":-97.12624,"zip":"78659","miles_from_dt":26.82},{"city":"College Station","state_name":"Texas","lat":30.61072,"lng":-96.35473,"zip":"77844","miles_from_dt":27.1},{"city":"Warda","state_name":"Texas","lat":30.05358,"lng":-96.91558,"zip":"78960","miles_from_dt":27.49},{"city":"College Station","state_name":"Texas","lat":30.57281,"lng":-96.32639,"zip":"77841","miles_from_dt":27.56},{"city":"Bryan","state_name":"Texas","lat":30.63968,"lng":-96.36451,"zip":"77801","miles_from_dt":27.58},{"city":"Brenham","state_name":"Texas","lat":30.16811,"lng":-96.39782,"zip":"77834","miles_from_dt":27.98},{"city":"College Station","state_name":"Texas","lat":30.61527,"lng":-96.34027,"zip":"77843","miles_from_dt":28.01},{"city":"Bryan","state_name":"Texas","lat":30.67835,"lng":-96.3867,"zip":"77803","miles_from_dt":28.01},{"city":"Wellborn","state_name":"Texas","lat":30.53656,"lng":-96.30145,"zip":"77881","miles_from_dt":28.2},{"city":"Warrenton","state_name":"Texas","lat":30.01722,"lng":-96.73167,"zip":"78961","miles_from_dt":28.36},{"city":"Thorndale","state_name":"Texas","lat":30.62128,"lng":-97.1787,"zip":"76577","miles_from_dt":28.43},{"city":"McDade","state_name":"Texas","lat":30.30536,"lng":-97.21574,"zip":"78650","miles_from_dt":28.66},{"city":"College Station","state_name":"Texas","lat":30.6115,"lng":-96.32332,"zip":"77840","miles_from_dt":28.79},{"city":"Bryan","state_name":"Texas","lat":30.67591,"lng":-96.36828,"zip":"77806","miles_from_dt":28.79},{"city":"College Station","state_name":"Texas","lat":30.62996,"lng":-96.33321,"zip":"77842","miles_from_dt":28.85},{"city":"Thrall","state_name":"Texas","lat":30.53488,"lng":-97.24092,"zip":"76578","miles_from_dt":29.77},{"city":"Bryan","state_name":"Texas","lat":30.67294,"lng":-96.34302,"zip":"77805","miles_from_dt":29.9}],"targetCityZipCode":"77852","targetCityState":"Texas"},"__N_SSG":true}