{"pageProps":{"stateName":"Texas","cityName":"doucette","nearbyCities":[{"city":"Woodville","state_name":"Texas","lat":30.77396,"lng":-94.42353,"zip":"75990","miles_from_dt":3.59},{"city":"Woodville","state_name":"Texas","lat":30.77477,"lng":-94.4026,"zip":"75979","miles_from_dt":3.6},{"city":"Colmesneil","state_name":"Texas","lat":30.93436,"lng":-94.35605,"zip":"75938","miles_from_dt":8.31},{"city":"Hillister","state_name":"Texas","lat":30.68674,"lng":-94.2822,"zip":"77624","miles_from_dt":12.47},{"city":"Chester","state_name":"Texas","lat":30.95147,"lng":-94.58883,"zip":"75936","miles_from_dt":13.41},{"city":"Warren","state_name":"Texas","lat":30.58901,"lng":-94.39529,"zip":"77664","miles_from_dt":16.35},{"city":"Dallardsville","state_name":"Texas","lat":30.6262,"lng":-94.63094,"zip":"77332","miles_from_dt":18.75},{"city":"Camden","state_name":"Texas","lat":30.89688,"lng":-94.75153,"zip":"75934","miles_from_dt":20.5},{"city":"Spurger","state_name":"Texas","lat":30.63993,"lng":-94.14105,"zip":"77660","miles_from_dt":20.8},{"city":"Zavalla","state_name":"Texas","lat":31.12387,"lng":-94.34703,"zip":"75980","miles_from_dt":20.95},{"city":"Fred","state_name":"Texas","lat":30.56804,"lng":-94.2117,"zip":"77616","miles_from_dt":21.53},{"city":"Village Mills","state_name":"Texas","lat":30.51033,"lng":-94.4052,"zip":"77663","miles_from_dt":21.73},{"city":"Jasper","state_name":"Texas","lat":30.93098,"lng":-94.05762,"zip":"75951","miles_from_dt":22.53},{"city":"Livingston","state_name":"Texas","lat":30.70411,"lng":-94.81682,"zip":"77351","miles_from_dt":25.24},{"city":"Corrigan","state_name":"Texas","lat":31.01496,"lng":-94.80501,"zip":"75939","miles_from_dt":26.5},{"city":"Moscow","state_name":"Texas","lat":30.90372,"lng":-94.8618,"zip":"75960","miles_from_dt":27},{"city":"Huntington","state_name":"Texas","lat":31.22907,"lng":-94.51782,"zip":"75949","miles_from_dt":28.43},{"city":"Kirbyville","state_name":"Texas","lat":30.6721,"lng":-93.96706,"zip":"75956","miles_from_dt":28.76},{"city":"Leggett","state_name":"Texas","lat":30.81432,"lng":-94.90086,"zip":"77350","miles_from_dt":28.8}],"targetCityZipCode":"75942","targetCityState":"Texas"},"__N_SSG":true}