{"pageProps":{"stateName":"Texas","cityName":"dougherty","nearbyCities":[{"city":"Floydada","state_name":"Texas","lat":33.94794,"lng":-101.26088,"zip":"79235","miles_from_dt":11.21},{"city":"Mcadoo","state_name":"Texas","lat":33.76426,"lng":-101.02557,"zip":"79243","miles_from_dt":12.44},{"city":"Roaring Springs","state_name":"Texas","lat":33.87463,"lng":-100.82078,"zip":"79256","miles_from_dt":14.82},{"city":"Matador","state_name":"Texas","lat":34.0383,"lng":-100.8059,"zip":"79244","miles_from_dt":16.34},{"city":"Flomot","state_name":"Texas","lat":34.22108,"lng":-100.95509,"zip":"79234","miles_from_dt":20.28},{"city":"Crosbyton","state_name":"Texas","lat":33.65887,"lng":-101.19814,"zip":"79322","miles_from_dt":20.92},{"city":"Afton","state_name":"Texas","lat":33.7658,"lng":-100.76614,"zip":"79220","miles_from_dt":21.07},{"city":"Lockney","state_name":"Texas","lat":34.18069,"lng":-101.38507,"zip":"79241","miles_from_dt":24.64},{"city":"South Plains","state_name":"Texas","lat":34.24344,"lng":-101.29647,"zip":"79258","miles_from_dt":24.65},{"city":"Aiken","state_name":"Texas","lat":34.11988,"lng":-101.44601,"zip":"79221","miles_from_dt":25.04},{"city":"Dickens","state_name":"Texas","lat":33.67379,"lng":-100.744,"zip":"79229","miles_from_dt":26.15},{"city":"Ralls","state_name":"Texas","lat":33.64659,"lng":-101.40577,"zip":"79357","miles_from_dt":28.22},{"city":"Quitaque","state_name":"Texas","lat":34.36113,"lng":-101.04924,"zip":"79255","miles_from_dt":28.93}],"targetCityZipCode":"79231","targetCityState":"Texas"},"__N_SSG":true}