{"pageProps":{"stateName":"Texas","cityName":"farwell","nearbyCities":[{"city":"Bovina","state_name":"Texas","lat":34.53016,"lng":-102.88533,"zip":"79009","miles_from_dt":8.95},{"city":"Texico","state_name":"New Mexico","lat":34.5623,"lng":-103.08204,"zip":"88135","miles_from_dt":13.44},{"city":"Clovis","state_name":"New Mexico","lat":34.39256,"lng":-103.21577,"zip":"88102","miles_from_dt":15.89},{"city":"Muleshoe","state_name":"Texas","lat":34.18804,"lng":-102.79682,"zip":"79347","miles_from_dt":17.18},{"city":"Clovis","state_name":"New Mexico","lat":34.50114,"lng":-103.26616,"zip":"88101","miles_from_dt":19.8},{"city":"Lazbuddie","state_name":"Texas","lat":34.40284,"lng":-102.59106,"zip":"79053","miles_from_dt":19.84},{"city":"Friona","state_name":"Texas","lat":34.68301,"lng":-102.78573,"zip":"79035","miles_from_dt":20.86},{"city":"Cannon Afb","state_name":"New Mexico","lat":34.38418,"lng":-103.31551,"zip":"88103","miles_from_dt":21.62},{"city":"Portales","state_name":"New Mexico","lat":34.1285,"lng":-103.31825,"zip":"88130","miles_from_dt":29.05},{"city":"Earth","state_name":"Texas","lat":34.24501,"lng":-102.45225,"zip":"79031","miles_from_dt":29.97}],"targetCityZipCode":"79325","targetCityState":"Texas"},"__N_SSG":true}