{"pageProps":{"stateName":"Texas","cityName":"fort-hood","nearbyCities":[{"city":"Killeen","state_name":"Texas","lat":31.12162,"lng":-97.72045,"zip":"76540","miles_from_dt":7.89},{"city":"Killeen","state_name":"Texas","lat":31.11894,"lng":-97.7266,"zip":"76547","miles_from_dt":7.97},{"city":"Killeen","state_name":"Texas","lat":31.11447,"lng":-97.72922,"zip":"76541","miles_from_dt":8.24},{"city":"Killeen","state_name":"Texas","lat":31.12343,"lng":-97.64077,"zip":"76543","miles_from_dt":10.2},{"city":"Flat","state_name":"Texas","lat":31.31204,"lng":-97.57222,"zip":"76526","miles_from_dt":12.35},{"city":"Mound","state_name":"Texas","lat":31.308,"lng":-97.56967,"zip":"76558","miles_from_dt":12.37},{"city":"Copperas Cove","state_name":"Texas","lat":31.21577,"lng":-97.97215,"zip":"76522","miles_from_dt":12.68},{"city":"Nolanville","state_name":"Texas","lat":31.07987,"lng":-97.61079,"zip":"76559","miles_from_dt":13.63},{"city":"Harker Heights","state_name":"Texas","lat":31.05299,"lng":-97.64613,"zip":"76548","miles_from_dt":13.98},{"city":"Gatesville","state_name":"Texas","lat":31.43589,"lng":-97.7844,"zip":"76528","miles_from_dt":14.17},{"city":"Killeen","state_name":"Texas","lat":31.01583,"lng":-97.82546,"zip":"76549","miles_from_dt":15.37},{"city":"Killeen","state_name":"Texas","lat":31.00062,"lng":-97.7274,"zip":"76542","miles_from_dt":16},{"city":"Gatesville","state_name":"Texas","lat":31.47092,"lng":-97.73361,"zip":"76599","miles_from_dt":16.57},{"city":"Gatesville","state_name":"Texas","lat":31.47543,"lng":-97.73488,"zip":"76598","miles_from_dt":16.88},{"city":"Gatesville","state_name":"Texas","lat":31.47626,"lng":-97.72696,"zip":"76596","miles_from_dt":16.98},{"city":"Kempner","state_name":"Texas","lat":31.09193,"lng":-97.9992,"zip":"76539","miles_from_dt":17.18},{"city":"Gatesville","state_name":"Texas","lat":31.48446,"lng":-97.70983,"zip":"76597","miles_from_dt":17.68},{"city":"Oglesby","state_name":"Texas","lat":31.42531,"lng":-97.54098,"zip":"76561","miles_from_dt":18.56},{"city":"Belton","state_name":"Texas","lat":31.05777,"lng":-97.50369,"zip":"76513","miles_from_dt":19.27},{"city":"Temple","state_name":"Texas","lat":31.15517,"lng":-97.4413,"zip":"76503","miles_from_dt":19.51},{"city":"Moody","state_name":"Texas","lat":31.29075,"lng":-97.39814,"zip":"76557","miles_from_dt":21.73},{"city":"Temple","state_name":"Texas","lat":31.09388,"lng":-97.41082,"zip":"76502","miles_from_dt":22.68},{"city":"Briggs","state_name":"Texas","lat":30.9341,"lng":-97.93255,"zip":"78608","miles_from_dt":22.93},{"city":"Salado","state_name":"Texas","lat":30.93305,"lng":-97.58448,"zip":"76571","miles_from_dt":23},{"city":"Temple","state_name":"Texas","lat":31.14135,"lng":-97.37748,"zip":"76504","miles_from_dt":23.41},{"city":"Purmela","state_name":"Texas","lat":31.51664,"lng":-97.99881,"zip":"76566","miles_from_dt":24.25},{"city":"Temple","state_name":"Texas","lat":31.09289,"lng":-97.36482,"zip":"76508","miles_from_dt":25.21},{"city":"McGregor","state_name":"Texas","lat":31.43851,"lng":-97.39971,"zip":"76657","miles_from_dt":25.58},{"city":"Florence","state_name":"Texas","lat":30.8379,"lng":-97.79531,"zip":"76527","miles_from_dt":27.19},{"city":"Heidenheimer","state_name":"Texas","lat":31.08037,"lng":-97.32376,"zip":"76533","miles_from_dt":27.79},{"city":"Crawford","state_name":"Texas","lat":31.55487,"lng":-97.446,"zip":"76638","miles_from_dt":28.95},{"city":"Little River Academy","state_name":"Texas","lat":30.97583,"lng":-97.3677,"zip":"76554","miles_from_dt":29.1},{"city":"Jonesboro","state_name":"Texas","lat":31.64261,"lng":-97.8896,"zip":"76538","miles_from_dt":29.37},{"city":"Lampasas","state_name":"Texas","lat":31.07714,"lng":-98.22165,"zip":"76550","miles_from_dt":29.42},{"city":"Troy","state_name":"Texas","lat":31.19894,"lng":-97.26046,"zip":"76579","miles_from_dt":29.58},{"city":"Evant","state_name":"Texas","lat":31.47643,"lng":-98.17321,"zip":"76525","miles_from_dt":29.76},{"city":"Jarrell","state_name":"Texas","lat":30.81779,"lng":-97.60645,"zip":"76537","miles_from_dt":29.89}],"targetCityZipCode":"76544","targetCityState":"Texas"},"__N_SSG":true}