{"pageProps":{"stateName":"Texas","cityName":"glen-rose","nearbyCities":[{"city":"Rainbow","state_name":"Texas","lat":32.27886,"lng":-97.70891,"zip":"76077","miles_from_dt":6.22},{"city":"Walnut Springs","state_name":"Texas","lat":32.1031,"lng":-97.79219,"zip":"76690","miles_from_dt":6.94},{"city":"Nemo","state_name":"Texas","lat":32.24291,"lng":-97.64991,"zip":"76070","miles_from_dt":7.15},{"city":"Paluxy","state_name":"Texas","lat":32.27059,"lng":-97.90503,"zip":"76467","miles_from_dt":9.71},{"city":"Kopperl","state_name":"Texas","lat":32.11331,"lng":-97.57648,"zip":"76652","miles_from_dt":12.38},{"city":"Granbury","state_name":"Texas","lat":32.40791,"lng":-97.80117,"zip":"76048","miles_from_dt":14.49},{"city":"Tolar","state_name":"Texas","lat":32.37055,"lng":-97.92017,"zip":"76476","miles_from_dt":14.97},{"city":"Cleburne","state_name":"Texas","lat":32.28663,"lng":-97.52075,"zip":"76033","miles_from_dt":15.29},{"city":"Iredell","state_name":"Texas","lat":32.00132,"lng":-97.87816,"zip":"76649","miles_from_dt":15.33},{"city":"Bluff Dale","state_name":"Texas","lat":32.30662,"lng":-98.01096,"zip":"76433","miles_from_dt":16.35},{"city":"Granbury","state_name":"Texas","lat":32.46759,"lng":-97.70645,"zip":"76049","miles_from_dt":18.69},{"city":"Meridian","state_name":"Texas","lat":31.91784,"lng":-97.72049,"zip":"76665","miles_from_dt":19.62},{"city":"Morgan","state_name":"Texas","lat":31.99351,"lng":-97.52768,"zip":"76671","miles_from_dt":19.77},{"city":"Godley","state_name":"Texas","lat":32.42961,"lng":-97.54286,"zip":"76044","miles_from_dt":20.32},{"city":"Rio Vista","state_name":"Texas","lat":32.21459,"lng":-97.40098,"zip":"76093","miles_from_dt":21.13},{"city":"Blum","state_name":"Texas","lat":32.10511,"lng":-97.3881,"zip":"76627","miles_from_dt":22.84},{"city":"Hico","state_name":"Texas","lat":31.94968,"lng":-98.02773,"zip":"76457","miles_from_dt":23.3},{"city":"Cresson","state_name":"Texas","lat":32.56172,"lng":-97.64251,"zip":"76035","miles_from_dt":25.85},{"city":"Stephenville","state_name":"Texas","lat":32.27918,"lng":-98.19994,"zip":"76401","miles_from_dt":26.26},{"city":"Stephenville","state_name":"Texas","lat":32.21728,"lng":-98.21702,"zip":"76402","miles_from_dt":26.72},{"city":"Morgan Mill","state_name":"Texas","lat":32.38719,"lng":-98.16545,"zip":"76465","miles_from_dt":26.93},{"city":"Joshua","state_name":"Texas","lat":32.47072,"lng":-97.4251,"zip":"76058","miles_from_dt":27.09},{"city":"Cleburne","state_name":"Texas","lat":32.34873,"lng":-97.33267,"zip":"76031","miles_from_dt":27.09},{"city":"Lipan","state_name":"Texas","lat":32.52316,"lng":-98.03421,"zip":"76462","miles_from_dt":27.38},{"city":"Covington","state_name":"Texas","lat":32.17213,"lng":-97.28307,"zip":"76636","miles_from_dt":28.09},{"city":"Keene","state_name":"Texas","lat":32.3921,"lng":-97.32897,"zip":"76059","miles_from_dt":28.54},{"city":"Clifton","state_name":"Texas","lat":31.80953,"lng":-97.56866,"zip":"76634","miles_from_dt":29.21}],"targetCityZipCode":"76043","targetCityState":"Texas"},"__N_SSG":true}