{"pageProps":{"stateName":"Texas","cityName":"graham","nearbyCities":[{"city":"South Bend","state_name":"Texas","lat":32.99706,"lng":-98.70977,"zip":"76481","miles_from_dt":5.86},{"city":"Bryson","state_name":"Texas","lat":33.13145,"lng":-98.39271,"zip":"76427","miles_from_dt":15.26},{"city":"Loving","state_name":"Texas","lat":33.30796,"lng":-98.49798,"zip":"76460","miles_from_dt":19.02},{"city":"Jermyn","state_name":"Texas","lat":33.27395,"lng":-98.38972,"zip":"76459","miles_from_dt":20.76},{"city":"Graford","state_name":"Texas","lat":32.91592,"lng":-98.32512,"zip":"76449","miles_from_dt":20.88},{"city":"Olney","state_name":"Texas","lat":33.34823,"lng":-98.7648,"zip":"76374","miles_from_dt":21.13},{"city":"Caddo","state_name":"Texas","lat":32.74742,"lng":-98.67428,"zip":"76429","miles_from_dt":21.6},{"city":"Newcastle","state_name":"Texas","lat":33.25173,"lng":-98.93643,"zip":"76372","miles_from_dt":21.62},{"city":"Breckenridge","state_name":"Texas","lat":32.80431,"lng":-98.89236,"zip":"76424","miles_from_dt":22.85},{"city":"Woodson","state_name":"Texas","lat":33.05754,"lng":-99.03834,"zip":"76491","miles_from_dt":23.03},{"city":"Jacksboro","state_name":"Texas","lat":33.21518,"lng":-98.18944,"zip":"76458","miles_from_dt":28.32},{"city":"Strawn","state_name":"Texas","lat":32.65296,"lng":-98.51281,"zip":"76475","miles_from_dt":29.01},{"city":"Palo Pinto","state_name":"Texas","lat":32.73147,"lng":-98.30551,"zip":"76484","miles_from_dt":29.89}],"targetCityZipCode":"76450","targetCityState":"Texas"},"__N_SSG":true}