{"pageProps":{"stateName":"Texas","cityName":"gunter","nearbyCities":[{"city":"Howe","state_name":"Texas","lat":33.52988,"lng":-96.6831,"zip":"75459","miles_from_dt":6.44},{"city":"Celina","state_name":"Texas","lat":33.3384,"lng":-96.75185,"zip":"75009","miles_from_dt":7.56},{"city":"Weston","state_name":"Texas","lat":33.34878,"lng":-96.66912,"zip":"75097","miles_from_dt":7.8},{"city":"Tioga","state_name":"Texas","lat":33.46953,"lng":-96.91412,"zip":"76271","miles_from_dt":10.43},{"city":"Van Alstyne","state_name":"Texas","lat":33.43246,"lng":-96.55041,"zip":"75495","miles_from_dt":10.74},{"city":"Collinsville","state_name":"Texas","lat":33.54025,"lng":-96.89696,"zip":"76233","miles_from_dt":11.31},{"city":"Pilot Point","state_name":"Texas","lat":33.37202,"lng":-96.9204,"zip":"76258","miles_from_dt":11.88},{"city":"Southmayd","state_name":"Texas","lat":33.62785,"lng":-96.76539,"zip":"76268","miles_from_dt":12.56},{"city":"Anna","state_name":"Texas","lat":33.35223,"lng":-96.52808,"zip":"75409","miles_from_dt":13.66},{"city":"Sherman","state_name":"Texas","lat":33.64869,"lng":-96.70011,"zip":"75092","miles_from_dt":14.03},{"city":"Prosper","state_name":"Texas","lat":33.24526,"lng":-96.80791,"zip":"75078","miles_from_dt":14.54},{"city":"Sherman","state_name":"Texas","lat":33.63487,"lng":-96.60905,"zip":"75091","miles_from_dt":14.84},{"city":"Melissa","state_name":"Texas","lat":33.283,"lng":-96.56073,"zip":"75454","miles_from_dt":15.18},{"city":"Mckinney","state_name":"Texas","lat":33.24558,"lng":-96.62951,"zip":"75071","miles_from_dt":15.19},{"city":"Tom Bean","state_name":"Texas","lat":33.5204,"lng":-96.48467,"zip":"75489","miles_from_dt":15.33},{"city":"Sherman","state_name":"Texas","lat":33.6054,"lng":-96.54657,"zip":"75090","miles_from_dt":15.41},{"city":"Mckinney","state_name":"Texas","lat":33.1875,"lng":-96.70099,"zip":"75072","miles_from_dt":18.02},{"city":"Aubrey","state_name":"Texas","lat":33.27465,"lng":-96.99075,"zip":"76227","miles_from_dt":18.96},{"city":"Frisco","state_name":"Texas","lat":33.18471,"lng":-96.84404,"zip":"75033","miles_from_dt":19.16},{"city":"Whitewright","state_name":"Texas","lat":33.49741,"lng":-96.39485,"zip":"75491","miles_from_dt":19.97},{"city":"Frisco","state_name":"Texas","lat":33.15814,"lng":-96.7734,"zip":"75035","miles_from_dt":20.05},{"city":"Mckinney","state_name":"Texas","lat":33.15587,"lng":-96.69742,"zip":"75070","miles_from_dt":20.2},{"city":"Mckinney","state_name":"Texas","lat":33.16805,"lng":-96.59671,"zip":"75069","miles_from_dt":20.85},{"city":"Sadler","state_name":"Texas","lat":33.74172,"lng":-96.83509,"zip":"76264","miles_from_dt":21.09},{"city":"Bells","state_name":"Texas","lat":33.62504,"lng":-96.43193,"zip":"75414","miles_from_dt":21.38},{"city":"Blue Ridge","state_name":"Texas","lat":33.30535,"lng":-96.39059,"zip":"75424","miles_from_dt":22.21},{"city":"Little Elm","state_name":"Texas","lat":33.17713,"lng":-96.95228,"zip":"75068","miles_from_dt":22.45},{"city":"Westminster","state_name":"Texas","lat":33.3056,"lng":-96.3841,"zip":"75485","miles_from_dt":22.54},{"city":"Valley View","state_name":"Texas","lat":33.46421,"lng":-97.12721,"zip":"76272","miles_from_dt":22.66},{"city":"Allen","state_name":"Texas","lat":33.11463,"lng":-96.69413,"zip":"75013","miles_from_dt":23.05},{"city":"Frisco","state_name":"Texas","lat":33.12084,"lng":-96.83778,"zip":"75034","miles_from_dt":23.26},{"city":"Denison","state_name":"Texas","lat":33.77264,"lng":-96.60391,"zip":"75020","miles_from_dt":23.67},{"city":"Whitesboro","state_name":"Texas","lat":33.74794,"lng":-96.93935,"zip":"76273","miles_from_dt":23.82},{"city":"Frisco","state_name":"Texas","lat":33.13339,"lng":-96.91453,"zip":"75036","miles_from_dt":23.99},{"city":"Pottsboro","state_name":"Texas","lat":33.79608,"lng":-96.71913,"zip":"75076","miles_from_dt":24.06},{"city":"Denison","state_name":"Texas","lat":33.72686,"lng":-96.47552,"zip":"75021","miles_from_dt":24.41},{"city":"Plano","state_name":"Texas","lat":33.09057,"lng":-96.74061,"zip":"75025","miles_from_dt":24.59},{"city":"Trenton","state_name":"Texas","lat":33.4363,"lng":-96.30771,"zip":"75490","miles_from_dt":24.73},{"city":"Denton","state_name":"Texas","lat":33.20917,"lng":-97.05786,"zip":"76208","miles_from_dt":24.84},{"city":"Princeton","state_name":"Texas","lat":33.1512,"lng":-96.48808,"zip":"75407","miles_from_dt":24.93},{"city":"Allen","state_name":"Texas","lat":33.08946,"lng":-96.60639,"zip":"75002","miles_from_dt":25.77},{"city":"Plano","state_name":"Texas","lat":33.07712,"lng":-96.80826,"zip":"75024","miles_from_dt":25.86},{"city":"Savoy","state_name":"Texas","lat":33.63007,"lng":-96.3386,"zip":"75479","miles_from_dt":26.14},{"city":"Denton","state_name":"Texas","lat":33.2315,"lng":-97.11,"zip":"76209","miles_from_dt":26.28},{"city":"Plano","state_name":"Texas","lat":33.05657,"lng":-96.73286,"zip":"75023","miles_from_dt":26.93},{"city":"Gordonville","state_name":"Texas","lat":33.82885,"lng":-96.85422,"zip":"76245","miles_from_dt":27.17},{"city":"Ector","state_name":"Texas","lat":33.55261,"lng":-96.27796,"zip":"75439","miles_from_dt":27.39},{"city":"The Colony","state_name":"Texas","lat":33.07541,"lng":-96.90978,"zip":"75056","miles_from_dt":27.54},{"city":"Randolph","state_name":"Texas","lat":33.48593,"lng":-96.25757,"zip":"75475","miles_from_dt":27.73},{"city":"Denton","state_name":"Texas","lat":33.21404,"lng":-97.13265,"zip":"76204","miles_from_dt":28.04},{"city":"Denton","state_name":"Texas","lat":33.19889,"lng":-97.12026,"zip":"76206","miles_from_dt":28.08},{"city":"Plano","state_name":"Texas","lat":33.03933,"lng":-96.73328,"zip":"75026","miles_from_dt":28.12},{"city":"Lake Dallas","state_name":"Texas","lat":33.11108,"lng":-97.01277,"zip":"75065","miles_from_dt":28.19},{"city":"Sanger","state_name":"Texas","lat":33.36818,"lng":-97.21513,"zip":"76266","miles_from_dt":28.26},{"city":"Copeville","state_name":"Texas","lat":33.17163,"lng":-96.37204,"zip":"75121","miles_from_dt":28.34},{"city":"Denton","state_name":"Texas","lat":33.22122,"lng":-97.14715,"zip":"76201","miles_from_dt":28.46},{"city":"Leonard","state_name":"Texas","lat":33.39284,"lng":-96.24469,"zip":"75452","miles_from_dt":28.61},{"city":"Plano","state_name":"Texas","lat":33.03521,"lng":-96.80943,"zip":"75093","miles_from_dt":28.72},{"city":"Plano","state_name":"Texas","lat":33.03298,"lng":-96.67304,"zip":"75074","miles_from_dt":28.78},{"city":"Denton","state_name":"Texas","lat":33.19074,"lng":-97.12894,"zip":"76205","miles_from_dt":28.83},{"city":"Gainesville","state_name":"Texas","lat":33.64542,"lng":-97.17628,"zip":"76241","miles_from_dt":28.87},{"city":"Denton","state_name":"Texas","lat":33.21213,"lng":-97.15181,"zip":"76203","miles_from_dt":29.03},{"city":"Farmersville","state_name":"Texas","lat":33.17717,"lng":-96.35035,"zip":"75442","miles_from_dt":29.04},{"city":"Plano","state_name":"Texas","lat":33.02597,"lng":-96.69903,"zip":"75086","miles_from_dt":29.11},{"city":"Denton","state_name":"Texas","lat":33.14985,"lng":-97.0962,"zip":"76210","miles_from_dt":29.26},{"city":"Gainesville","state_name":"Texas","lat":33.65654,"lng":-97.17766,"zip":"76240","miles_from_dt":29.31},{"city":"Plano","state_name":"Texas","lat":33.02163,"lng":-96.74043,"zip":"75075","miles_from_dt":29.34}],"targetCityZipCode":"75058","targetCityState":"Texas"},"__N_SSG":true}