{"pageProps":{"stateName":"Texas","cityName":"harleton","nearbyCities":[{"city":"Diana","state_name":"Texas","lat":32.7152,"lng":-94.68133,"zip":"75640","miles_from_dt":9.3},{"city":"Marshall","state_name":"Texas","lat":32.56456,"lng":-94.42326,"zip":"75670","miles_from_dt":9.62},{"city":"Hallsville","state_name":"Texas","lat":32.51529,"lng":-94.55358,"zip":"75650","miles_from_dt":10.79},{"city":"Woodlawn","state_name":"Texas","lat":32.6383,"lng":-94.34442,"zip":"75694","miles_from_dt":11.08},{"city":"Longview","state_name":"Texas","lat":32.58385,"lng":-94.71554,"zip":"75605","miles_from_dt":12.33},{"city":"Avinger","state_name":"Texas","lat":32.87588,"lng":-94.5572,"zip":"75630","miles_from_dt":14.23},{"city":"Judson","state_name":"Texas","lat":32.58563,"lng":-94.75618,"zip":"75660","miles_from_dt":14.4},{"city":"Jefferson","state_name":"Texas","lat":32.79437,"lng":-94.30498,"zip":"75657","miles_from_dt":15.67},{"city":"Longview","state_name":"Texas","lat":32.57841,"lng":-94.77928,"zip":"75607","miles_from_dt":15.83},{"city":"Longview","state_name":"Texas","lat":32.5086,"lng":-94.72414,"zip":"75601","miles_from_dt":15.88},{"city":"Ore City","state_name":"Texas","lat":32.82182,"lng":-94.74035,"zip":"75683","miles_from_dt":16.05},{"city":"Longview","state_name":"Texas","lat":32.45803,"lng":-94.65712,"zip":"75602","miles_from_dt":16.4},{"city":"Longview","state_name":"Texas","lat":32.49574,"lng":-94.73846,"zip":"75606","miles_from_dt":17.09},{"city":"Longview","state_name":"Texas","lat":32.55609,"lng":-94.80149,"zip":"75608","miles_from_dt":17.66},{"city":"Marshall","state_name":"Texas","lat":32.48907,"lng":-94.31494,"zip":"75671","miles_from_dt":17.74},{"city":"Longview","state_name":"Texas","lat":32.46434,"lng":-94.72847,"zip":"75615","miles_from_dt":18.31},{"city":"Lone Star","state_name":"Texas","lat":32.90846,"lng":-94.68485,"zip":"75668","miles_from_dt":18.69},{"city":"Scottsville","state_name":"Texas","lat":32.53417,"lng":-94.24071,"zip":"75688","miles_from_dt":19.35},{"city":"Marshall","state_name":"Texas","lat":32.47076,"lng":-94.29353,"zip":"75672","miles_from_dt":19.52},{"city":"Easton","state_name":"Texas","lat":32.3846,"lng":-94.5757,"zip":"75641","miles_from_dt":19.88},{"city":"Gilmer","state_name":"Texas","lat":32.68375,"lng":-94.87317,"zip":"75645","miles_from_dt":19.98},{"city":"Longview","state_name":"Texas","lat":32.51374,"lng":-94.82919,"zip":"75604","miles_from_dt":20.5},{"city":"Longview","state_name":"Texas","lat":32.40448,"lng":-94.71754,"zip":"75603","miles_from_dt":21.34},{"city":"Cason","state_name":"Texas","lat":32.94351,"lng":-94.70518,"zip":"75636","miles_from_dt":21.37},{"city":"White Oak","state_name":"Texas","lat":32.53364,"lng":-94.86083,"zip":"75693","miles_from_dt":21.45},{"city":"Karnack","state_name":"Texas","lat":32.63908,"lng":-94.15655,"zip":"75661","miles_from_dt":21.92},{"city":"Lodi","state_name":"Texas","lat":32.88784,"lng":-94.24962,"zip":"75564","miles_from_dt":22.17},{"city":"Hughes Springs","state_name":"Texas","lat":33.01471,"lng":-94.58686,"zip":"75656","miles_from_dt":23.94},{"city":"Kildare","state_name":"Texas","lat":32.93588,"lng":-94.25302,"zip":"75562","miles_from_dt":24.4},{"city":"Tatum","state_name":"Texas","lat":32.31108,"lng":-94.55725,"zip":"75691","miles_from_dt":24.82},{"city":"Linden","state_name":"Texas","lat":33.01835,"lng":-94.38871,"zip":"75563","miles_from_dt":25.35},{"city":"Daingerfield","state_name":"Texas","lat":33.01869,"lng":-94.73173,"zip":"75638","miles_from_dt":26.69},{"city":"Gladewater","state_name":"Texas","lat":32.5167,"lng":-94.96429,"zip":"75647","miles_from_dt":27.43},{"city":"Waskom","state_name":"Texas","lat":32.4718,"lng":-94.11936,"zip":"75692","miles_from_dt":27.63},{"city":"Jonesville","state_name":"Texas","lat":32.50725,"lng":-94.09249,"zip":"75659","miles_from_dt":27.93},{"city":"Kilgore","state_name":"Texas","lat":32.37523,"lng":-94.86534,"zip":"75663","miles_from_dt":28.21},{"city":"Gilmer","state_name":"Texas","lat":32.79171,"lng":-94.99498,"zip":"75644","miles_from_dt":28.3},{"city":"Kilgore","state_name":"Texas","lat":32.38076,"lng":-94.87503,"zip":"75662","miles_from_dt":28.34},{"city":"Beckville","state_name":"Texas","lat":32.25343,"lng":-94.44957,"zip":"75631","miles_from_dt":29.13},{"city":"Bivins","state_name":"Texas","lat":32.94564,"lng":-94.13696,"zip":"75555","miles_from_dt":29.73},{"city":"Elysian Fields","state_name":"Texas","lat":32.35818,"lng":-94.17821,"zip":"75642","miles_from_dt":29.78}],"targetCityZipCode":"75651","targetCityState":"Texas"},"__N_SSG":true}