{"pageProps":{"stateName":"Texas","cityName":"henderson","nearbyCities":[{"city":"Henderson","state_name":"Texas","lat":32.16182,"lng":-94.80568,"zip":"75653","miles_from_dt":6.54},{"city":"Joinerville","state_name":"Texas","lat":32.17545,"lng":-94.90362,"zip":"75658","miles_from_dt":10.95},{"city":"Tatum","state_name":"Texas","lat":32.31108,"lng":-94.55725,"zip":"75691","miles_from_dt":11.45},{"city":"Henderson","state_name":"Texas","lat":32.08299,"lng":-94.82961,"zip":"75654","miles_from_dt":11.75},{"city":"Longview","state_name":"Texas","lat":32.40448,"lng":-94.71754,"zip":"75603","miles_from_dt":12.03},{"city":"Overton","state_name":"Texas","lat":32.27085,"lng":-94.93147,"zip":"75684","miles_from_dt":12.23},{"city":"Kilgore","state_name":"Texas","lat":32.37523,"lng":-94.86534,"zip":"75663","miles_from_dt":12.83},{"city":"New London","state_name":"Texas","lat":32.25152,"lng":-94.94713,"zip":"75682","miles_from_dt":12.91},{"city":"Laird Hill","state_name":"Texas","lat":32.35487,"lng":-94.90302,"zip":"75666","miles_from_dt":13.37},{"city":"Kilgore","state_name":"Texas","lat":32.38076,"lng":-94.87503,"zip":"75662","miles_from_dt":13.48},{"city":"Selman City","state_name":"Texas","lat":32.18196,"lng":-94.95771,"zip":"75689","miles_from_dt":13.85},{"city":"Easton","state_name":"Texas","lat":32.3846,"lng":-94.5757,"zip":"75641","miles_from_dt":13.89},{"city":"Minden","state_name":"Texas","lat":32.01035,"lng":-94.71824,"zip":"75680","miles_from_dt":15.15},{"city":"Longview","state_name":"Texas","lat":32.46434,"lng":-94.72847,"zip":"75615","miles_from_dt":16.14},{"city":"Price","state_name":"Texas","lat":32.10575,"lng":-94.96352,"zip":"75687","miles_from_dt":16.24},{"city":"Longview","state_name":"Texas","lat":32.45803,"lng":-94.65712,"zip":"75602","miles_from_dt":16.25},{"city":"Beckville","state_name":"Texas","lat":32.25343,"lng":-94.44957,"zip":"75631","miles_from_dt":16.39},{"city":"Long Branch","state_name":"Texas","lat":32.03348,"lng":-94.55678,"zip":"75669","miles_from_dt":16.87},{"city":"Clayton","state_name":"Texas","lat":32.10086,"lng":-94.47273,"zip":"75637","miles_from_dt":17.42},{"city":"Laneville","state_name":"Texas","lat":31.988,"lng":-94.83729,"zip":"75667","miles_from_dt":17.87},{"city":"Longview","state_name":"Texas","lat":32.49574,"lng":-94.73846,"zip":"75606","miles_from_dt":18.31},{"city":"Longview","state_name":"Texas","lat":32.5086,"lng":-94.72414,"zip":"75601","miles_from_dt":19.19},{"city":"Arp","state_name":"Texas","lat":32.27222,"lng":-95.07124,"zip":"75750","miles_from_dt":20.3},{"city":"Longview","state_name":"Texas","lat":32.51374,"lng":-94.82919,"zip":"75604","miles_from_dt":20.42},{"city":"Mount Enterprise","state_name":"Texas","lat":31.93597,"lng":-94.685,"zip":"75681","miles_from_dt":20.42},{"city":"Hallsville","state_name":"Texas","lat":32.51529,"lng":-94.55358,"zip":"75650","miles_from_dt":22.14},{"city":"White Oak","state_name":"Texas","lat":32.53364,"lng":-94.86083,"zip":"75693","miles_from_dt":22.31},{"city":"Longview","state_name":"Texas","lat":32.55609,"lng":-94.80149,"zip":"75608","miles_from_dt":22.87},{"city":"Troup","state_name":"Texas","lat":32.1126,"lng":-95.09405,"zip":"75789","miles_from_dt":22.92},{"city":"Tyler","state_name":"Texas","lat":32.35905,"lng":-95.10149,"zip":"75705","miles_from_dt":23.59},{"city":"Gladewater","state_name":"Texas","lat":32.5167,"lng":-94.96429,"zip":"75647","miles_from_dt":24.1},{"city":"Longview","state_name":"Texas","lat":32.57841,"lng":-94.77928,"zip":"75607","miles_from_dt":24.19},{"city":"Longview","state_name":"Texas","lat":32.58385,"lng":-94.71554,"zip":"75605","miles_from_dt":24.39},{"city":"Judson","state_name":"Texas","lat":32.58563,"lng":-94.75618,"zip":"75660","miles_from_dt":24.55},{"city":"Tyler","state_name":"Texas","lat":32.30479,"lng":-95.171,"zip":"75707","miles_from_dt":26.44},{"city":"Gary","state_name":"Texas","lat":32.01041,"lng":-94.35518,"zip":"75643","miles_from_dt":26.6},{"city":"New Summerfield","state_name":"Texas","lat":31.98905,"lng":-95.09122,"zip":"75780","miles_from_dt":27.01},{"city":"Carthage","state_name":"Texas","lat":32.12788,"lng":-94.28109,"zip":"75633","miles_from_dt":27.13},{"city":"Winona","state_name":"Texas","lat":32.4679,"lng":-95.10623,"zip":"75792","miles_from_dt":27.53},{"city":"Reklaw","state_name":"Texas","lat":31.87344,"lng":-94.96234,"zip":"75784","miles_from_dt":28.16},{"city":"Whitehouse","state_name":"Texas","lat":32.22214,"lng":-95.22103,"zip":"75791","miles_from_dt":28.88},{"city":"Marshall","state_name":"Texas","lat":32.56456,"lng":-94.42326,"zip":"75670","miles_from_dt":29.13},{"city":"Timpson","state_name":"Texas","lat":31.89535,"lng":-94.4122,"zip":"75975","miles_from_dt":29.59}],"targetCityZipCode":"75652","targetCityState":"Texas"},"__N_SSG":true}