{"pageProps":{"stateName":"Texas","cityName":"itasca","nearbyCities":[{"city":"Grandview","state_name":"Texas","lat":32.27262,"lng":-97.16326,"zip":"76050","miles_from_dt":7.84},{"city":"Covington","state_name":"Texas","lat":32.17213,"lng":-97.28307,"zip":"76636","miles_from_dt":7.96},{"city":"Milford","state_name":"Texas","lat":32.12887,"lng":-96.98836,"zip":"76670","miles_from_dt":9.6},{"city":"Hillsboro","state_name":"Texas","lat":32.01224,"lng":-97.12816,"zip":"76645","miles_from_dt":10.22},{"city":"Maypearl","state_name":"Texas","lat":32.30757,"lng":-97.03225,"zip":"76064","miles_from_dt":12.25},{"city":"Brandon","state_name":"Texas","lat":32.03007,"lng":-96.97179,"zip":"76628","miles_from_dt":13.66},{"city":"Blum","state_name":"Texas","lat":32.10511,"lng":-97.3881,"zip":"76627","miles_from_dt":14.56},{"city":"Rio Vista","state_name":"Texas","lat":32.21459,"lng":-97.40098,"zip":"76093","miles_from_dt":15.29},{"city":"Italy","state_name":"Texas","lat":32.18313,"lng":-96.87158,"zip":"76651","miles_from_dt":16.29},{"city":"Bynum","state_name":"Texas","lat":31.97905,"lng":-96.96277,"zip":"76631","miles_from_dt":16.52},{"city":"Cleburne","state_name":"Texas","lat":32.34873,"lng":-97.33267,"zip":"76031","miles_from_dt":16.93},{"city":"Mertens","state_name":"Texas","lat":32.04653,"lng":-96.89178,"zip":"76666","miles_from_dt":16.93},{"city":"Whitney","state_name":"Texas","lat":31.95902,"lng":-97.33382,"zip":"76692","miles_from_dt":17.6},{"city":"Forreston","state_name":"Texas","lat":32.23911,"lng":-96.85724,"zip":"76041","miles_from_dt":17.9},{"city":"Alvarado","state_name":"Texas","lat":32.41635,"lng":-97.20115,"zip":"76009","miles_from_dt":17.96},{"city":"Venus","state_name":"Texas","lat":32.43258,"lng":-97.0888,"zip":"76084","miles_from_dt":19.13},{"city":"Keene","state_name":"Texas","lat":32.3921,"lng":-97.32897,"zip":"76059","miles_from_dt":19.2},{"city":"Waxahachie","state_name":"Texas","lat":32.36123,"lng":-96.91547,"zip":"75167","miles_from_dt":19.46},{"city":"Abbott","state_name":"Texas","lat":31.87789,"lng":-97.08891,"zip":"76621","miles_from_dt":19.72},{"city":"Irene","state_name":"Texas","lat":31.98994,"lng":-96.86678,"zip":"76650","miles_from_dt":20.23},{"city":"Avalon","state_name":"Texas","lat":32.219,"lng":-96.78879,"zip":"76623","miles_from_dt":21.45},{"city":"Malone","state_name":"Texas","lat":31.93015,"lng":-96.89331,"zip":"76660","miles_from_dt":21.76},{"city":"Frost","state_name":"Texas","lat":32.03847,"lng":-96.78723,"zip":"76641","miles_from_dt":22.75},{"city":"Penelope","state_name":"Texas","lat":31.87169,"lng":-96.95847,"zip":"76676","miles_from_dt":22.75},{"city":"Midlothian","state_name":"Texas","lat":32.47042,"lng":-96.98861,"zip":"76065","miles_from_dt":23.36},{"city":"Cleburne","state_name":"Texas","lat":32.28663,"lng":-97.52075,"zip":"76033","miles_from_dt":23.52},{"city":"Lillian","state_name":"Texas","lat":32.5026,"lng":-97.19813,"zip":"76061","miles_from_dt":23.81},{"city":"Aquilla","state_name":"Texas","lat":31.82032,"lng":-97.24942,"zip":"76622","miles_from_dt":24.12},{"city":"Waxahachie","state_name":"Texas","lat":32.30535,"lng":-96.7691,"zip":"75168","miles_from_dt":24.36},{"city":"Laguna Park","state_name":"Texas","lat":31.85888,"lng":-97.37682,"zip":"76644","miles_from_dt":24.69},{"city":"Waxahachie","state_name":"Texas","lat":32.36687,"lng":-96.79677,"zip":"75165","miles_from_dt":25.04},{"city":"Morgan","state_name":"Texas","lat":31.99351,"lng":-97.52768,"zip":"76671","miles_from_dt":25.04},{"city":"Kopperl","state_name":"Texas","lat":32.11331,"lng":-97.57648,"zip":"76652","miles_from_dt":25.32},{"city":"Blooming Grove","state_name":"Texas","lat":32.10522,"lng":-96.71615,"zip":"76626","miles_from_dt":25.6},{"city":"West","state_name":"Texas","lat":31.77564,"lng":-97.09721,"zip":"76691","miles_from_dt":26.62},{"city":"Burleson","state_name":"Texas","lat":32.52603,"lng":-97.30491,"zip":"76028","miles_from_dt":26.86},{"city":"Joshua","state_name":"Texas","lat":32.47072,"lng":-97.4251,"zip":"76058","miles_from_dt":26.87},{"city":"Bardwell","state_name":"Texas","lat":32.27003,"lng":-96.70239,"zip":"75101","miles_from_dt":27.2},{"city":"Burleson","state_name":"Texas","lat":32.54091,"lng":-97.32107,"zip":"76097","miles_from_dt":28.15},{"city":"Mansfield","state_name":"Texas","lat":32.56913,"lng":-97.14376,"zip":"76063","miles_from_dt":28.22},{"city":"Hubbard","state_name":"Texas","lat":31.84942,"lng":-96.80659,"zip":"76648","miles_from_dt":29.31},{"city":"Godley","state_name":"Texas","lat":32.42961,"lng":-97.54286,"zip":"76044","miles_from_dt":29.66},{"city":"Nemo","state_name":"Texas","lat":32.24291,"lng":-97.64991,"zip":"76070","miles_from_dt":29.95}],"targetCityZipCode":"76055","targetCityState":"Texas"},"__N_SSG":true}