{"pageProps":{"stateName":"Texas","cityName":"kennedale","nearbyCities":[{"city":"Arlington","state_name":"Texas","lat":32.65469,"lng":-97.17554,"zip":"76003","miles_from_dt":2.58},{"city":"Fort Worth","state_name":"Texas","lat":32.62012,"lng":-97.27036,"zip":"76140","miles_from_dt":3.44},{"city":"Arlington","state_name":"Texas","lat":32.66223,"lng":-97.16237,"zip":"76017","miles_from_dt":3.49},{"city":"Arlington","state_name":"Texas","lat":32.63076,"lng":-97.15408,"zip":"76001","miles_from_dt":3.67},{"city":"Arlington","state_name":"Texas","lat":32.68907,"lng":-97.18868,"zip":"76016","miles_from_dt":3.75},{"city":"Fort Worth","state_name":"Texas","lat":32.69026,"lng":-97.26176,"zip":"76119","miles_from_dt":4.37},{"city":"Arlington","state_name":"Texas","lat":32.69204,"lng":-97.13341,"zip":"76015","miles_from_dt":6.01},{"city":"Mansfield","state_name":"Texas","lat":32.56913,"lng":-97.14376,"zip":"76063","miles_from_dt":6.45},{"city":"Arlington","state_name":"Texas","lat":32.72027,"lng":-97.15652,"zip":"76013","miles_from_dt":6.54},{"city":"Fort Worth","state_name":"Texas","lat":32.72327,"lng":-97.26999,"zip":"76105","miles_from_dt":6.55},{"city":"Fort Worth","state_name":"Texas","lat":32.64331,"lng":-97.33103,"zip":"76134","miles_from_dt":6.7},{"city":"Arlington","state_name":"Texas","lat":32.72409,"lng":-97.15073,"zip":"76094","miles_from_dt":6.94},{"city":"Fort Worth","state_name":"Texas","lat":32.67861,"lng":-97.33117,"zip":"76115","miles_from_dt":7.22},{"city":"Arlington","state_name":"Texas","lat":32.62233,"lng":-97.09265,"zip":"76002","miles_from_dt":7.3},{"city":"Fort Worth","state_name":"Texas","lat":32.74831,"lng":-97.21828,"zip":"76112","miles_from_dt":7.47},{"city":"Arlington","state_name":"Texas","lat":32.66074,"lng":-97.08967,"zip":"76018","miles_from_dt":7.51},{"city":"Arlington","state_name":"Texas","lat":32.67212,"lng":-97.09101,"zip":"76096","miles_from_dt":7.62},{"city":"Fort Worth","state_name":"Texas","lat":32.75822,"lng":-97.20527,"zip":"76124","miles_from_dt":8.18},{"city":"Arlington","state_name":"Texas","lat":32.69201,"lng":-97.08814,"zip":"76014","miles_from_dt":8.28},{"city":"Fort Worth","state_name":"Texas","lat":32.75282,"lng":-97.26627,"zip":"76103","miles_from_dt":8.31},{"city":"Fort Worth","state_name":"Texas","lat":32.72674,"lng":-97.31736,"zip":"76195","miles_from_dt":8.41},{"city":"Fort Worth","state_name":"Texas","lat":32.72528,"lng":-97.32056,"zip":"76122","miles_from_dt":8.47},{"city":"Fort Worth","state_name":"Texas","lat":32.70678,"lng":-97.33843,"zip":"76110","miles_from_dt":8.49},{"city":"Fort Worth","state_name":"Texas","lat":32.72848,"lng":-97.31819,"zip":"76104","miles_from_dt":8.53},{"city":"Arlington","state_name":"Texas","lat":32.7282,"lng":-97.1126,"zip":"76019","miles_from_dt":8.57},{"city":"Fort Worth","state_name":"Texas","lat":32.76742,"lng":-97.18286,"zip":"76120","miles_from_dt":9},{"city":"Arlington","state_name":"Texas","lat":32.75459,"lng":-97.13901,"zip":"76012","miles_from_dt":9.09},{"city":"Burleson","state_name":"Texas","lat":32.54091,"lng":-97.32107,"zip":"76097","miles_from_dt":9.17},{"city":"Arlington","state_name":"Texas","lat":32.73549,"lng":-97.10676,"zip":"76004","miles_from_dt":9.17},{"city":"Fort Worth","state_name":"Texas","lat":32.66419,"lng":-97.37424,"zip":"76163","miles_from_dt":9.37},{"city":"Burleson","state_name":"Texas","lat":32.52603,"lng":-97.30491,"zip":"76028","miles_from_dt":9.4},{"city":"Fort Worth","state_name":"Texas","lat":32.6538,"lng":-97.37746,"zip":"76133","miles_from_dt":9.46},{"city":"Lillian","state_name":"Texas","lat":32.5026,"lng":-97.19813,"zip":"76061","miles_from_dt":9.52},{"city":"Fort Worth","state_name":"Texas","lat":32.66331,"lng":-97.37786,"zip":"76162","miles_from_dt":9.57},{"city":"Arlington","state_name":"Texas","lat":32.72138,"lng":-97.08191,"zip":"76007","miles_from_dt":9.63},{"city":"Fort Worth","state_name":"Texas","lat":32.70693,"lng":-97.36222,"zip":"76130","miles_from_dt":9.69},{"city":"Arlington","state_name":"Texas","lat":32.72271,"lng":-97.08065,"zip":"76010","miles_from_dt":9.74},{"city":"Fort Worth","state_name":"Texas","lat":32.70934,"lng":-97.36255,"zip":"76129","miles_from_dt":9.79},{"city":"Fort Worth","state_name":"Texas","lat":32.74656,"lng":-97.32802,"zip":"76113","miles_from_dt":9.83},{"city":"Fort Worth","state_name":"Texas","lat":32.747,"lng":-97.33,"zip":"76166","miles_from_dt":9.93},{"city":"Fort Worth","state_name":"Texas","lat":32.74738,"lng":-97.33061,"zip":"76193","miles_from_dt":9.97},{"city":"Fort Worth","state_name":"Texas","lat":32.75243,"lng":-97.33428,"zip":"76199","miles_from_dt":10.37},{"city":"Fort Worth","state_name":"Texas","lat":32.75508,"lng":-97.33245,"zip":"76198","miles_from_dt":10.44},{"city":"Fort Worth","state_name":"Texas","lat":32.75799,"lng":-97.32858,"zip":"76102","miles_from_dt":10.45},{"city":"Fort Worth","state_name":"Texas","lat":32.75145,"lng":-97.33899,"zip":"76150","miles_from_dt":10.51},{"city":"Fort Worth","state_name":"Texas","lat":32.75944,"lng":-97.32912,"zip":"76101","miles_from_dt":10.55},{"city":"Fort Worth","state_name":"Texas","lat":32.7771,"lng":-97.29905,"zip":"76197","miles_from_dt":10.62},{"city":"Fort Worth","state_name":"Texas","lat":32.70115,"lng":-97.38378,"zip":"76109","miles_from_dt":10.65},{"city":"Fort Worth","state_name":"Texas","lat":32.75587,"lng":-97.33818,"zip":"76196","miles_from_dt":10.7},{"city":"Fort Worth","state_name":"Texas","lat":32.79606,"lng":-97.1972,"zip":"76118","miles_from_dt":10.82},{"city":"Fort Worth","state_name":"Texas","lat":32.7804,"lng":-97.30116,"zip":"76111","miles_from_dt":10.88},{"city":"Fort Worth","state_name":"Texas","lat":32.62298,"lng":-97.40262,"zip":"76123","miles_from_dt":10.94},{"city":"Grand Prairie","state_name":"Texas","lat":32.60036,"lng":-97.03409,"zip":"75054","miles_from_dt":10.96},{"city":"Arlington","state_name":"Texas","lat":32.7543,"lng":-97.08223,"zip":"76011","miles_from_dt":11.09},{"city":"Grand Prairie","state_name":"Texas","lat":32.66455,"lng":-97.02809,"zip":"75052","miles_from_dt":11.09},{"city":"Fort Worth","state_name":"Texas","lat":32.7481,"lng":-97.36537,"zip":"76147","miles_from_dt":11.46},{"city":"Haltom City","state_name":"Texas","lat":32.80374,"lng":-97.26766,"zip":"76117","miles_from_dt":11.68},{"city":"Fort Worth","state_name":"Texas","lat":32.66743,"lng":-97.41827,"zip":"76132","miles_from_dt":11.94},{"city":"Fort Worth","state_name":"Texas","lat":32.74176,"lng":-97.38202,"zip":"76107","miles_from_dt":11.95},{"city":"Fort Worth","state_name":"Texas","lat":32.81307,"lng":-97.22823,"zip":"76181","miles_from_dt":11.96},{"city":"Arlington","state_name":"Texas","lat":32.78511,"lng":-97.10019,"zip":"76006","miles_from_dt":12.07},{"city":"Hurst","state_name":"Texas","lat":32.81683,"lng":-97.17898,"zip":"76053","miles_from_dt":12.38},{"city":"Crowley","state_name":"Texas","lat":32.57366,"lng":-97.41434,"zip":"76036","miles_from_dt":12.43},{"city":"Fort Worth","state_name":"Texas","lat":32.80277,"lng":-97.30881,"zip":"76190","miles_from_dt":12.46},{"city":"Fort Worth","state_name":"Texas","lat":32.7808,"lng":-97.35411,"zip":"76164","miles_from_dt":12.61},{"city":"Grand Prairie","state_name":"Texas","lat":32.75269,"lng":-97.02499,"zip":"75053","miles_from_dt":13.58},{"city":"Arlington","state_name":"Texas","lat":32.80057,"lng":-97.08001,"zip":"76005","miles_from_dt":13.62},{"city":"Bedford","state_name":"Texas","lat":32.83063,"lng":-97.14506,"zip":"76022","miles_from_dt":13.78},{"city":"North Richland Hills","state_name":"Texas","lat":32.83994,"lng":-97.22468,"zip":"76180","miles_from_dt":13.8},{"city":"Fort Worth","state_name":"Texas","lat":32.80571,"lng":-97.353,"zip":"76161","miles_from_dt":13.94},{"city":"Euless","state_name":"Texas","lat":32.82133,"lng":-97.10488,"zip":"76040","miles_from_dt":14.08},{"city":"Fort Worth","state_name":"Texas","lat":32.80801,"lng":-97.35431,"zip":"76191","miles_from_dt":14.11},{"city":"Grand Prairie","state_name":"Texas","lat":32.72635,"lng":-96.99375,"zip":"75051","miles_from_dt":14.26},{"city":"Fort Worth","state_name":"Texas","lat":32.77365,"lng":-97.40417,"zip":"76114","miles_from_dt":14.32},{"city":"Fort Worth","state_name":"Texas","lat":32.81417,"lng":-97.35209,"zip":"76106","miles_from_dt":14.39},{"city":"Dallas","state_name":"Texas","lat":32.74323,"lng":-97.00109,"zip":"75265","miles_from_dt":14.41},{"city":"Fort Worth","state_name":"Texas","lat":32.72128,"lng":-97.44766,"zip":"76116","miles_from_dt":14.61},{"city":"Fort Worth","state_name":"Texas","lat":32.72203,"lng":-97.44986,"zip":"76121","miles_from_dt":14.75},{"city":"Dallas","state_name":"Texas","lat":32.6449,"lng":-96.96257,"zip":"75249","miles_from_dt":14.79},{"city":"Cedar Hill","state_name":"Texas","lat":32.58295,"lng":-96.96712,"zip":"75104","miles_from_dt":15.04},{"city":"Hurst","state_name":"Texas","lat":32.85904,"lng":-97.17789,"zip":"76054","miles_from_dt":15.27},{"city":"Fort Worth","state_name":"Texas","lat":32.86197,"lng":-97.2166,"zip":"76185","miles_from_dt":15.3},{"city":"Bedford","state_name":"Texas","lat":32.85538,"lng":-97.14928,"zip":"76095","miles_from_dt":15.35},{"city":"Alvarado","state_name":"Texas","lat":32.41635,"lng":-97.20115,"zip":"76009","miles_from_dt":15.43},{"city":"Bedford","state_name":"Texas","lat":32.8523,"lng":-97.13128,"zip":"76021","miles_from_dt":15.45},{"city":"Grand Prairie","state_name":"Texas","lat":32.77428,"lng":-97.0037,"zip":"75050","miles_from_dt":15.46},{"city":"Cedar Hill","state_name":"Texas","lat":32.58772,"lng":-96.95615,"zip":"75106","miles_from_dt":15.58},{"city":"Naval Air Station Jrb","state_name":"Texas","lat":32.77663,"lng":-97.43044,"zip":"76127","miles_from_dt":15.64},{"city":"Fort Worth","state_name":"Texas","lat":32.85864,"lng":-97.29137,"zip":"76137","miles_from_dt":15.7},{"city":"Fort Worth","state_name":"Texas","lat":32.86789,"lng":-97.25197,"zip":"76148","miles_from_dt":15.85},{"city":"Fort Worth","state_name":"Texas","lat":32.82404,"lng":-97.04911,"zip":"76155","miles_from_dt":15.99},{"city":"Venus","state_name":"Texas","lat":32.43258,"lng":-97.0888,"zip":"76084","miles_from_dt":16.1},{"city":"Dallas","state_name":"Texas","lat":32.6866,"lng":-96.93455,"zip":"75236","miles_from_dt":16.72},{"city":"North Richland Hills","state_name":"Texas","lat":32.88257,"lng":-97.20969,"zip":"76182","miles_from_dt":16.73},{"city":"Irving","state_name":"Texas","lat":32.86309,"lng":-97.10152,"zip":"75064","miles_from_dt":16.77},{"city":"Joshua","state_name":"Texas","lat":32.47072,"lng":-97.4251,"zip":"76058","miles_from_dt":16.87},{"city":"Euless","state_name":"Texas","lat":32.8592,"lng":-97.08422,"zip":"76039","miles_from_dt":16.95},{"city":"Fort Worth","state_name":"Texas","lat":32.64374,"lng":-97.51767,"zip":"76126","miles_from_dt":17.58},{"city":"Duncanville","state_name":"Texas","lat":32.67415,"lng":-96.91672,"zip":"75138","miles_from_dt":17.61},{"city":"Duncanville","state_name":"Texas","lat":32.66013,"lng":-96.91402,"zip":"75116","miles_from_dt":17.67},{"city":"Midlothian","state_name":"Texas","lat":32.47042,"lng":-96.98861,"zip":"76065","miles_from_dt":17.68},{"city":"Duncanville","state_name":"Texas","lat":32.63421,"lng":-96.91224,"zip":"75137","miles_from_dt":17.72},{"city":"Colleyville","state_name":"Texas","lat":32.89121,"lng":-97.1488,"zip":"76034","miles_from_dt":17.76},{"city":"Keene","state_name":"Texas","lat":32.3921,"lng":-97.32897,"zip":"76059","miles_from_dt":18.3},{"city":"Fort Worth","state_name":"Texas","lat":32.88227,"lng":-97.34895,"zip":"76131","miles_from_dt":18.41},{"city":"Irving","state_name":"Texas","lat":32.79774,"lng":-96.95295,"zip":"75060","miles_from_dt":18.8},{"city":"Dallas","state_name":"Texas","lat":32.66151,"lng":-96.88539,"zip":"75301","miles_from_dt":19.34},{"city":"Irving","state_name":"Texas","lat":32.814,"lng":-96.955,"zip":"75059","miles_from_dt":19.37},{"city":"Dallas","state_name":"Texas","lat":32.88568,"lng":-97.05419,"zip":"75261","miles_from_dt":19.39},{"city":"Irving","state_name":"Texas","lat":32.82607,"lng":-96.96563,"zip":"75061","miles_from_dt":19.43},{"city":"Dallas","state_name":"Texas","lat":32.73649,"lng":-96.90214,"zip":"75211","miles_from_dt":19.47},{"city":"Irving","state_name":"Texas","lat":32.81197,"lng":-96.94711,"zip":"75017","miles_from_dt":19.65},{"city":"Fort Worth","state_name":"Texas","lat":32.83708,"lng":-97.46621,"zip":"76135","miles_from_dt":19.92},{"city":"Irving","state_name":"Texas","lat":32.84208,"lng":-96.97023,"zip":"75014","miles_from_dt":19.98},{"city":"Keller","state_name":"Texas","lat":32.92988,"lng":-97.22972,"zip":"76248","miles_from_dt":20},{"city":"Fort Worth","state_name":"Texas","lat":32.77943,"lng":-97.51811,"zip":"76108","miles_from_dt":20.05},{"city":"Dallas","state_name":"Texas","lat":32.66489,"lng":-96.87238,"zip":"75237","miles_from_dt":20.11},{"city":"Keller","state_name":"Texas","lat":32.93101,"lng":-97.28076,"zip":"76244","miles_from_dt":20.41},{"city":"Dallas","state_name":"Texas","lat":32.70444,"lng":-96.87271,"zip":"75233","miles_from_dt":20.5},{"city":"Desoto","state_name":"Texas","lat":32.59831,"lng":-96.86433,"zip":"75115","miles_from_dt":20.71},{"city":"Irving","state_name":"Texas","lat":32.847,"lng":-96.95813,"zip":"75062","miles_from_dt":20.72},{"city":"Dallas","state_name":"Texas","lat":32.86763,"lng":-96.9824,"zip":"75326","miles_from_dt":20.77},{"city":"Desoto","state_name":"Texas","lat":32.58835,"lng":-96.86032,"zip":"75123","miles_from_dt":21.05},{"city":"Irving","state_name":"Texas","lat":32.87231,"lng":-96.97946,"zip":"75038","miles_from_dt":21.13},{"city":"Cleburne","state_name":"Texas","lat":32.34873,"lng":-97.33267,"zip":"76031","miles_from_dt":21.19},{"city":"Grapevine","state_name":"Texas","lat":32.93179,"lng":-97.0781,"zip":"76099","miles_from_dt":21.66},{"city":"Dallas","state_name":"Texas","lat":32.78098,"lng":-96.88177,"zip":"75266","miles_from_dt":21.77},{"city":"Dallas","state_name":"Texas","lat":32.78203,"lng":-96.87853,"zip":"75212","miles_from_dt":21.97},{"city":"Dallas","state_name":"Texas","lat":32.65878,"lng":-96.83968,"zip":"75232","miles_from_dt":21.98},{"city":"Southlake","state_name":"Texas","lat":32.95562,"lng":-97.14879,"zip":"76092","miles_from_dt":22.11},{"city":"Grapevine","state_name":"Texas","lat":32.94192,"lng":-97.07888,"zip":"76051","miles_from_dt":22.29},{"city":"Dallas","state_name":"Texas","lat":32.77,"lng":-96.86352,"zip":"75342","miles_from_dt":22.41},{"city":"Irving","state_name":"Texas","lat":32.90797,"lng":-96.9961,"zip":"75063","miles_from_dt":22.48},{"city":"Dallas","state_name":"Texas","lat":32.70894,"lng":-96.83894,"zip":"75395","miles_from_dt":22.49},{"city":"Dallas","state_name":"Texas","lat":32.71117,"lng":-96.83953,"zip":"75224","miles_from_dt":22.49},{"city":"Dallas","state_name":"Texas","lat":32.71157,"lng":-96.83922,"zip":"75376","miles_from_dt":22.51},{"city":"Irving","state_name":"Texas","lat":32.89557,"lng":-96.97372,"zip":"75015","miles_from_dt":22.57},{"city":"Dallas","state_name":"Texas","lat":32.76579,"lng":-96.85689,"zip":"75398","miles_from_dt":22.66},{"city":"Irving","state_name":"Texas","lat":32.9019,"lng":-96.97814,"zip":"75016","miles_from_dt":22.76},{"city":"Fort Worth","state_name":"Texas","lat":32.89938,"lng":-97.45812,"zip":"76136","miles_from_dt":22.77},{"city":"Fort Worth","state_name":"Texas","lat":32.91397,"lng":-97.43947,"zip":"76179","miles_from_dt":22.93},{"city":"Dallas","state_name":"Texas","lat":32.81417,"lng":-96.87803,"zip":"75247","miles_from_dt":23.07},{"city":"Dallas","state_name":"Texas","lat":32.75369,"lng":-96.84295,"zip":"75267","miles_from_dt":23.11},{"city":"Dallas","state_name":"Texas","lat":32.69181,"lng":-96.82438,"zip":"75221","miles_from_dt":23.11},{"city":"Dallas","state_name":"Texas","lat":32.75272,"lng":-96.8424,"zip":"75263","miles_from_dt":23.12},{"city":"Dallas","state_name":"Texas","lat":32.74972,"lng":-96.84125,"zip":"75262","miles_from_dt":23.12},{"city":"Dallas","state_name":"Texas","lat":32.81515,"lng":-96.877,"zip":"75356","miles_from_dt":23.15},{"city":"Dallas","state_name":"Texas","lat":32.75473,"lng":-96.84239,"zip":"75264","miles_from_dt":23.17},{"city":"Dallas","state_name":"Texas","lat":32.75461,"lng":-96.84088,"zip":"75222","miles_from_dt":23.25},{"city":"Dallas","state_name":"Texas","lat":32.75409,"lng":-96.83943,"zip":"75208","miles_from_dt":23.32},{"city":"Fort Worth","state_name":"Texas","lat":32.96999,"lng":-97.30611,"zip":"76177","miles_from_dt":23.34},{"city":"Irving","state_name":"Texas","lat":32.88592,"lng":-96.94042,"zip":"75039","miles_from_dt":23.35},{"city":"Fort Worth","state_name":"Texas","lat":32.93294,"lng":-97.43525,"zip":"76192","miles_from_dt":23.89},{"city":"Dallas","state_name":"Texas","lat":32.92079,"lng":-96.97494,"zip":"75368","miles_from_dt":23.91},{"city":"Godley","state_name":"Texas","lat":32.42961,"lng":-97.54286,"zip":"76044","miles_from_dt":23.95},{"city":"Dallas","state_name":"Texas","lat":32.76823,"lng":-96.83032,"zip":"75283","miles_from_dt":24.15},{"city":"Aledo","state_name":"Texas","lat":32.68182,"lng":-97.62738,"zip":"76008","miles_from_dt":24.15},{"city":"Dallas","state_name":"Texas","lat":32.76725,"lng":-96.82909,"zip":"75397","miles_from_dt":24.2},{"city":"Dallas","state_name":"Texas","lat":32.76794,"lng":-96.82793,"zip":"75285","miles_from_dt":24.28},{"city":"Dallas","state_name":"Texas","lat":32.76866,"lng":-96.82709,"zip":"75284","miles_from_dt":24.34},{"city":"Dallas","state_name":"Texas","lat":32.7693,"lng":-96.82701,"zip":"75312","miles_from_dt":24.36},{"city":"Dallas","state_name":"Texas","lat":32.826,"lng":-96.86,"zip":"75358","miles_from_dt":24.39},{"city":"Dallas","state_name":"Texas","lat":32.76886,"lng":-96.82491,"zip":"75392","miles_from_dt":24.46},{"city":"Dallas","state_name":"Texas","lat":32.7724,"lng":-96.82576,"zip":"75260","miles_from_dt":24.51},{"city":"Coppell","state_name":"Texas","lat":32.95443,"lng":-97.01521,"zip":"75099","miles_from_dt":24.63},{"city":"Dallas","state_name":"Texas","lat":32.78384,"lng":-96.82912,"zip":"75373","miles_from_dt":24.63},{"city":"Dallas","state_name":"Texas","lat":32.86385,"lng":-96.8861,"zip":"75354","miles_from_dt":24.65},{"city":"Dallas","state_name":"Texas","lat":32.814,"lng":-96.84283,"zip":"75390","miles_from_dt":24.83},{"city":"Red Oak","state_name":"Texas","lat":32.52319,"lng":-96.80885,"zip":"75154","miles_from_dt":25.08},{"city":"Dallas","state_name":"Texas","lat":32.78693,"lng":-96.82181,"zip":"75207","miles_from_dt":25.11},{"city":"Dallas","state_name":"Texas","lat":32.74439,"lng":-96.80206,"zip":"75203","miles_from_dt":25.18},{"city":"Dallas","state_name":"Texas","lat":32.83219,"lng":-96.84798,"zip":"75235","miles_from_dt":25.21},{"city":"Dallas","state_name":"Texas","lat":32.86692,"lng":-96.87571,"zip":"75220","miles_from_dt":25.25},{"city":"Maypearl","state_name":"Texas","lat":32.30757,"lng":-97.03225,"zip":"76064","miles_from_dt":25.29},{"city":"Haslet","state_name":"Texas","lat":32.98205,"lng":-97.38037,"zip":"76052","miles_from_dt":25.44},{"city":"Lancaster","state_name":"Texas","lat":32.62308,"lng":-96.78007,"zip":"75134","miles_from_dt":25.45},{"city":"Cresson","state_name":"Texas","lat":32.56172,"lng":-97.64251,"zip":"76035","miles_from_dt":25.45},{"city":"Grandview","state_name":"Texas","lat":32.27262,"lng":-97.16326,"zip":"76050","miles_from_dt":25.49},{"city":"Roanoke","state_name":"Texas","lat":33.01137,"lng":-97.22101,"zip":"76262","miles_from_dt":25.6},{"city":"Dallas","state_name":"Texas","lat":32.71158,"lng":-96.78256,"zip":"75216","miles_from_dt":25.75},{"city":"Dallas","state_name":"Texas","lat":32.71643,"lng":-96.78307,"zip":"75339","miles_from_dt":25.78},{"city":"Dallas","state_name":"Texas","lat":32.77596,"lng":-96.80374,"zip":"75242","miles_from_dt":25.79},{"city":"Dallas","state_name":"Texas","lat":32.77843,"lng":-96.8037,"zip":"75202","miles_from_dt":25.85},{"city":"Coppell","state_name":"Texas","lat":32.96183,"lng":-96.984,"zip":"75019","miles_from_dt":25.98},{"city":"Azle","state_name":"Texas","lat":32.89871,"lng":-97.54091,"zip":"76098","miles_from_dt":26},{"city":"Waxahachie","state_name":"Texas","lat":32.36123,"lng":-96.91547,"zip":"75167","miles_from_dt":26.02},{"city":"Dallas","state_name":"Texas","lat":32.78126,"lng":-96.80192,"zip":"75270","miles_from_dt":26.02},{"city":"Dallas","state_name":"Texas","lat":32.77784,"lng":-96.79863,"zip":"75320","miles_from_dt":26.11},{"city":"Dallas","state_name":"Texas","lat":32.78296,"lng":-96.80016,"zip":"75250","miles_from_dt":26.16},{"city":"Dallas","state_name":"Texas","lat":32.7856,"lng":-96.79985,"zip":"75313","miles_from_dt":26.25},{"city":"Dallas","state_name":"Texas","lat":32.81087,"lng":-96.81315,"zip":"75219","miles_from_dt":26.26},{"city":"Dallas","state_name":"Texas","lat":32.78826,"lng":-96.79953,"zip":"75201","miles_from_dt":26.33},{"city":"Dallas","state_name":"Texas","lat":32.89209,"lng":-96.87325,"zip":"75378","miles_from_dt":26.47},{"city":"Dallas","state_name":"Texas","lat":32.667,"lng":-96.75903,"zip":"75241","miles_from_dt":26.71},{"city":"Dallas","state_name":"Texas","lat":32.8487,"lng":-96.8257,"zip":"75209","miles_from_dt":26.91},{"city":"Dallas","state_name":"Texas","lat":32.8939,"lng":-96.86517,"zip":"75229","miles_from_dt":26.91},{"city":"Azle","state_name":"Texas","lat":32.90102,"lng":-97.56483,"zip":"76020","miles_from_dt":27.13},{"city":"Flower Mound","state_name":"Texas","lat":33.02554,"lng":-97.11871,"zip":"75022","miles_from_dt":27.17},{"city":"Dallas","state_name":"Texas","lat":32.80137,"lng":-96.79049,"zip":"75393","miles_from_dt":27.18},{"city":"Dallas","state_name":"Texas","lat":32.80216,"lng":-96.78885,"zip":"75204","miles_from_dt":27.28},{"city":"Dallas","state_name":"Texas","lat":32.92423,"lng":-96.88904,"zip":"75234","miles_from_dt":27.32},{"city":"Dallas","state_name":"Texas","lat":32.78037,"lng":-96.77601,"zip":"75303","miles_from_dt":27.41},{"city":"Dallas","state_name":"Texas","lat":32.78315,"lng":-96.77654,"zip":"75226","miles_from_dt":27.45},{"city":"Lancaster","state_name":"Texas","lat":32.57608,"lng":-96.75137,"zip":"75146","miles_from_dt":27.46},{"city":"Dallas","state_name":"Texas","lat":32.7705,"lng":-96.76912,"zip":"75315","miles_from_dt":27.55},{"city":"Flower Mound","state_name":"Texas","lat":33.02647,"lng":-97.09377,"zip":"75027","miles_from_dt":27.58},{"city":"Dallas","state_name":"Texas","lat":32.75259,"lng":-96.76075,"zip":"75215","miles_from_dt":27.65},{"city":"Dallas","state_name":"Texas","lat":32.79296,"lng":-96.77322,"zip":"75246","miles_from_dt":27.87},{"city":"Dallas","state_name":"Texas","lat":32.79162,"lng":-96.77262,"zip":"75371","miles_from_dt":27.87},{"city":"Dallas","state_name":"Texas","lat":32.83657,"lng":-96.79617,"zip":"75205","miles_from_dt":27.96},{"city":"Dallas","state_name":"Texas","lat":32.7384,"lng":-96.74637,"zip":"75277","miles_from_dt":28.2},{"city":"Dallas","state_name":"Texas","lat":32.94476,"lng":-96.88846,"zip":"75381","miles_from_dt":28.37},{"city":"Flower Mound","state_name":"Texas","lat":33.03382,"lng":-97.0629,"zip":"75028","miles_from_dt":28.57},{"city":"Lewisville","state_name":"Texas","lat":33.01416,"lng":-97.00268,"zip":"75067","miles_from_dt":28.63},{"city":"Dallas","state_name":"Texas","lat":32.84362,"lng":-96.78395,"zip":"75275","miles_from_dt":28.82},{"city":"Carrollton","state_name":"Texas","lat":32.95442,"lng":-96.88958,"zip":"75011","miles_from_dt":28.83},{"city":"Dallas","state_name":"Texas","lat":32.77141,"lng":-96.74618,"zip":"75210","miles_from_dt":28.84},{"city":"Carrollton","state_name":"Texas","lat":32.96165,"lng":-96.89717,"zip":"75006","miles_from_dt":28.92},{"city":"Dallas","state_name":"Texas","lat":32.83161,"lng":-96.77032,"zip":"75206","miles_from_dt":29.13},{"city":"Dallas","state_name":"Texas","lat":32.83953,"lng":-96.77384,"zip":"75372","miles_from_dt":29.2},{"city":"Dallas","state_name":"Texas","lat":32.86511,"lng":-96.79109,"zip":"75225","miles_from_dt":29.21},{"city":"Dallas","state_name":"Texas","lat":32.81282,"lng":-96.75656,"zip":"75359","miles_from_dt":29.3},{"city":"Dallas","state_name":"Texas","lat":32.79255,"lng":-96.74556,"zip":"75223","miles_from_dt":29.36},{"city":"Newark","state_name":"Texas","lat":33.00613,"lng":-97.47821,"zip":"76071","miles_from_dt":29.49},{"city":"Dallas","state_name":"Texas","lat":32.92544,"lng":-96.83671,"zip":"75244","miles_from_dt":29.58}],"targetCityZipCode":"76060","targetCityState":"Texas"},"__N_SSG":true}