{"pageProps":{"stateName":"Texas","cityName":"la-grange","nearbyCities":[{"city":"Plum","state_name":"Texas","lat":29.93636,"lng":-96.96819,"zip":"78952","miles_from_dt":4.88},{"city":"West Point","state_name":"Texas","lat":29.92586,"lng":-97.02767,"zip":"78963","miles_from_dt":8.27},{"city":"Warda","state_name":"Texas","lat":30.05358,"lng":-96.91558,"zip":"78960","miles_from_dt":9.6},{"city":"Warrenton","state_name":"Texas","lat":30.01722,"lng":-96.73167,"zip":"78961","miles_from_dt":11.8},{"city":"Muldoon","state_name":"Texas","lat":29.83681,"lng":-97.08062,"zip":"78949","miles_from_dt":12.66},{"city":"Ellinger","state_name":"Texas","lat":29.82757,"lng":-96.7041,"zip":"78938","miles_from_dt":12.73},{"city":"Fayetteville","state_name":"Texas","lat":29.93139,"lng":-96.66701,"zip":"78940","miles_from_dt":13.44},{"city":"Round Top","state_name":"Texas","lat":30.04507,"lng":-96.69774,"zip":"78954","miles_from_dt":14.58},{"city":"Schulenburg","state_name":"Texas","lat":29.68322,"lng":-96.93454,"zip":"78956","miles_from_dt":16.25},{"city":"Giddings","state_name":"Texas","lat":30.16803,"lng":-96.93153,"zip":"78942","miles_from_dt":17.54},{"city":"Smithville","state_name":"Texas","lat":30.01279,"lng":-97.17481,"zip":"78957","miles_from_dt":18.32},{"city":"Weimar","state_name":"Texas","lat":29.66951,"lng":-96.73815,"zip":"78962","miles_from_dt":19.28},{"city":"Flatonia","state_name":"Texas","lat":29.74201,"lng":-97.1561,"zip":"78941","miles_from_dt":19.96},{"city":"Ledbetter","state_name":"Texas","lat":30.18947,"lng":-96.77412,"zip":"78946","miles_from_dt":20.09},{"city":"Carmine","state_name":"Texas","lat":30.1656,"lng":-96.70793,"zip":"78932","miles_from_dt":20.38},{"city":"Oakland","state_name":"Texas","lat":29.61361,"lng":-96.83746,"zip":"78951","miles_from_dt":21.06},{"city":"Glidden","state_name":"Texas","lat":29.69721,"lng":-96.59538,"zip":"78943","miles_from_dt":23.26},{"city":"New Ulm","state_name":"Texas","lat":29.90735,"lng":-96.48518,"zip":"78950","miles_from_dt":24.32},{"city":"Columbus","state_name":"Texas","lat":29.7023,"lng":-96.56741,"zip":"78934","miles_from_dt":24.35},{"city":"Paige","state_name":"Texas","lat":30.20667,"lng":-97.12624,"zip":"78659","miles_from_dt":24.51},{"city":"Industry","state_name":"Texas","lat":30.00401,"lng":-96.48945,"zip":"78944","miles_from_dt":24.8},{"city":"Burton","state_name":"Texas","lat":30.19439,"lng":-96.59257,"zip":"77835","miles_from_dt":26.19},{"city":"Moulton","state_name":"Texas","lat":29.56843,"lng":-97.08818,"zip":"77975","miles_from_dt":26.73},{"city":"Lincoln","state_name":"Texas","lat":30.30748,"lng":-96.97022,"zip":"78948","miles_from_dt":27.39},{"city":"Bleiblerville","state_name":"Texas","lat":30.03117,"lng":-96.44291,"zip":"78931","miles_from_dt":27.98},{"city":"Rosanky","state_name":"Texas","lat":29.85552,"lng":-97.35214,"zip":"78953","miles_from_dt":28.03},{"city":"Waelder","state_name":"Texas","lat":29.69877,"lng":-97.30153,"zip":"78959","miles_from_dt":28.88}],"targetCityZipCode":"78945","targetCityState":"Texas"},"__N_SSG":true}