{"pageProps":{"stateName":"Texas","cityName":"lytle","nearbyCities":[{"city":"Natalia","state_name":"Texas","lat":29.19236,"lng":-98.84143,"zip":"78059","miles_from_dt":4.16},{"city":"Somerset","state_name":"Texas","lat":29.18973,"lng":-98.68045,"zip":"78069","miles_from_dt":5.78},{"city":"Atascosa","state_name":"Texas","lat":29.28305,"lng":-98.73652,"zip":"78002","miles_from_dt":5.79},{"city":"La Coste","state_name":"Texas","lat":29.31324,"lng":-98.82528,"zip":"78039","miles_from_dt":8.01},{"city":"Macdona","state_name":"Texas","lat":29.32401,"lng":-98.69356,"zip":"78054","miles_from_dt":9.49},{"city":"Von Ormy","state_name":"Texas","lat":29.24569,"lng":-98.6213,"zip":"78073","miles_from_dt":9.64},{"city":"San Antonio","state_name":"Texas","lat":29.34167,"lng":-98.69682,"zip":"78252","miles_from_dt":10.46},{"city":"Devine","state_name":"Texas","lat":29.18499,"lng":-98.95692,"zip":"78016","miles_from_dt":11.13},{"city":"Poteet","state_name":"Texas","lat":29.08152,"lng":-98.64437,"zip":"78065","miles_from_dt":11.62},{"city":"Castroville","state_name":"Texas","lat":29.36251,"lng":-98.88442,"zip":"78009","miles_from_dt":12.68},{"city":"San Antonio","state_name":"Texas","lat":29.40106,"lng":-98.73549,"zip":"78245","miles_from_dt":13.65},{"city":"San Antonio","state_name":"Texas","lat":29.35067,"lng":-98.60751,"zip":"78242","miles_from_dt":14.17},{"city":"Jbsa Lackland","state_name":"Texas","lat":29.3859,"lng":-98.62256,"zip":"78236","miles_from_dt":15.42},{"city":"San Antonio","state_name":"Texas","lat":29.39654,"lng":-98.64019,"zip":"78227","miles_from_dt":15.43},{"city":"San Antonio","state_name":"Texas","lat":29.37213,"lng":-98.59349,"zip":"78243","miles_from_dt":15.82},{"city":"San Antonio","state_name":"Texas","lat":29.30831,"lng":-98.53751,"zip":"78224","miles_from_dt":15.95},{"city":"San Antonio","state_name":"Texas","lat":29.34644,"lng":-98.56327,"zip":"78211","miles_from_dt":16},{"city":"San Antonio","state_name":"Texas","lat":29.19868,"lng":-98.50534,"zip":"78264","miles_from_dt":16.26},{"city":"San Antonio","state_name":"Texas","lat":29.38442,"lng":-98.56885,"zip":"78226","miles_from_dt":17.47},{"city":"San Antonio","state_name":"Texas","lat":29.37681,"lng":-98.54663,"zip":"78241","miles_from_dt":18.1},{"city":"San Antonio","state_name":"Texas","lat":29.46899,"lng":-98.78885,"zip":"78253","miles_from_dt":18.15},{"city":"Leming","state_name":"Texas","lat":29.08924,"lng":-98.50258,"zip":"78050","miles_from_dt":18.28},{"city":"San Antonio","state_name":"Texas","lat":29.46292,"lng":-98.67763,"zip":"78251","miles_from_dt":18.64},{"city":"San Antonio","state_name":"Texas","lat":29.28097,"lng":-98.47529,"zip":"78221","miles_from_dt":18.79},{"city":"Moore","state_name":"Texas","lat":29.03924,"lng":-99.02185,"zip":"78057","miles_from_dt":18.86},{"city":"San Antonio","state_name":"Texas","lat":29.42079,"lng":-98.56832,"zip":"78237","miles_from_dt":19.33},{"city":"San Antonio","state_name":"Texas","lat":29.38795,"lng":-98.52586,"zip":"78225","miles_from_dt":19.55},{"city":"Bigfoot","state_name":"Texas","lat":28.92848,"lng":-98.84668,"zip":"78005","miles_from_dt":19.6},{"city":"San Antonio","state_name":"Texas","lat":29.34944,"lng":-98.47971,"zip":"78214","miles_from_dt":20.35},{"city":"San Antonio","state_name":"Texas","lat":29.47088,"lng":-98.61925,"zip":"78238","miles_from_dt":20.51},{"city":"San Antonio","state_name":"Texas","lat":29.47028,"lng":-98.61717,"zip":"78268","miles_from_dt":20.53},{"city":"Rio Medina","state_name":"Texas","lat":29.49065,"lng":-98.89042,"zip":"78066","miles_from_dt":20.83},{"city":"San Antonio","state_name":"Texas","lat":29.42223,"lng":-98.52545,"zip":"78207","miles_from_dt":21.16},{"city":"San Antonio","state_name":"Texas","lat":29.42226,"lng":-98.52558,"zip":"78285","miles_from_dt":21.16},{"city":"San Antonio","state_name":"Texas","lat":29.40327,"lng":-98.50368,"zip":"78204","miles_from_dt":21.25},{"city":"San Antonio","state_name":"Texas","lat":29.46072,"lng":-98.57201,"zip":"78228","miles_from_dt":21.38},{"city":"San Antonio","state_name":"Texas","lat":29.50341,"lng":-98.66668,"zip":"78250","miles_from_dt":21.5},{"city":"San Antonio","state_name":"Texas","lat":29.41111,"lng":-98.50367,"zip":"78283","miles_from_dt":21.6},{"city":"San Antonio","state_name":"Texas","lat":29.41681,"lng":-98.49853,"zip":"78206","miles_from_dt":22.1},{"city":"San Antonio","state_name":"Texas","lat":29.34244,"lng":-98.43934,"zip":"78235","miles_from_dt":22.31},{"city":"San Antonio","state_name":"Texas","lat":29.53011,"lng":-98.72805,"zip":"78254","miles_from_dt":22.51},{"city":"San Antonio","state_name":"Texas","lat":29.42583,"lng":-98.49159,"zip":"78288","miles_from_dt":22.82},{"city":"San Antonio","state_name":"Texas","lat":29.39597,"lng":-98.46433,"zip":"78210","miles_from_dt":22.84},{"city":"San Antonio","state_name":"Texas","lat":29.42364,"lng":-98.48647,"zip":"78205","miles_from_dt":22.95},{"city":"San Antonio","state_name":"Texas","lat":29.42552,"lng":-98.48827,"zip":"78291","miles_from_dt":22.96},{"city":"San Antonio","state_name":"Texas","lat":29.42543,"lng":-98.48693,"zip":"78299","miles_from_dt":23.01},{"city":"San Antonio","state_name":"Texas","lat":29.42537,"lng":-98.48673,"zip":"78293","miles_from_dt":23.02},{"city":"San Antonio","state_name":"Texas","lat":29.42541,"lng":-98.48637,"zip":"78297","miles_from_dt":23.04},{"city":"San Antonio","state_name":"Texas","lat":29.42555,"lng":-98.48575,"zip":"78292","miles_from_dt":23.07},{"city":"San Antonio","state_name":"Texas","lat":29.42752,"lng":-98.48758,"zip":"78296","miles_from_dt":23.08},{"city":"San Antonio","state_name":"Texas","lat":29.42818,"lng":-98.48831,"zip":"78295","miles_from_dt":23.08},{"city":"San Antonio","state_name":"Texas","lat":29.42712,"lng":-98.48605,"zip":"78294","miles_from_dt":23.13},{"city":"San Antonio","state_name":"Texas","lat":29.46901,"lng":-98.52861,"zip":"78201","miles_from_dt":23.42},{"city":"San Antonio","state_name":"Texas","lat":29.41513,"lng":-98.4593,"zip":"78203","miles_from_dt":23.86},{"city":"San Antonio","state_name":"Texas","lat":29.45735,"lng":-98.50199,"zip":"78298","miles_from_dt":23.88},{"city":"San Antonio","state_name":"Texas","lat":29.47246,"lng":-98.51899,"zip":"78284","miles_from_dt":23.97},{"city":"San Antonio","state_name":"Texas","lat":29.5056,"lng":-98.57261,"zip":"78229","miles_from_dt":23.97},{"city":"San Antonio","state_name":"Texas","lat":29.4404,"lng":-98.48031,"zip":"78215","miles_from_dt":24},{"city":"San Antonio","state_name":"Texas","lat":29.5244,"lng":-98.60813,"zip":"78240","miles_from_dt":24.12},{"city":"Elmendorf","state_name":"Texas","lat":29.21353,"lng":-98.37266,"zip":"78112","miles_from_dt":24.27},{"city":"San Antonio","state_name":"Texas","lat":29.42821,"lng":-98.46078,"zip":"78202","miles_from_dt":24.34},{"city":"San Antonio","state_name":"Texas","lat":29.31102,"lng":-98.38675,"zip":"78223","miles_from_dt":24.5},{"city":"San Antonio","state_name":"Texas","lat":29.46447,"lng":-98.49222,"zip":"78212","miles_from_dt":24.64},{"city":"San Antonio","state_name":"Texas","lat":29.4399,"lng":-98.45823,"zip":"78208","miles_from_dt":24.98},{"city":"Mico","state_name":"Texas","lat":29.53896,"lng":-98.94184,"zip":"78056","miles_from_dt":25.07},{"city":"Yancey","state_name":"Texas","lat":29.15453,"lng":-99.18749,"zip":"78886","miles_from_dt":25.22},{"city":"San Antonio","state_name":"Texas","lat":29.3679,"lng":-98.38334,"zip":"78222","miles_from_dt":26.11},{"city":"San Antonio","state_name":"Texas","lat":29.51745,"lng":-98.52358,"zip":"78213","miles_from_dt":26.26},{"city":"San Antonio","state_name":"Texas","lat":29.41308,"lng":-98.40152,"zip":"78220","miles_from_dt":26.65},{"city":"San Antonio","state_name":"Texas","lat":29.56752,"lng":-98.61548,"zip":"78269","miles_from_dt":26.69},{"city":"San Antonio","state_name":"Texas","lat":29.56752,"lng":-98.614,"zip":"78249","miles_from_dt":26.72},{"city":"San Antonio","state_name":"Texas","lat":29.5455,"lng":-98.55571,"zip":"78230","miles_from_dt":26.85},{"city":"Jbsa Ft Sam Houston","state_name":"Texas","lat":29.46108,"lng":-98.43715,"zip":"78234","miles_from_dt":26.89},{"city":"Hondo","state_name":"Texas","lat":29.41778,"lng":-99.15663,"zip":"78861","miles_from_dt":27.31},{"city":"San Antonio","state_name":"Texas","lat":29.48899,"lng":-98.45675,"zip":"78209","miles_from_dt":27.34},{"city":"San Antonio","state_name":"Texas","lat":29.56299,"lng":-98.56227,"zip":"78278","miles_from_dt":27.73},{"city":"Charlotte","state_name":"Texas","lat":28.80267,"lng":-98.73441,"zip":"78011","miles_from_dt":27.87},{"city":"Helotes","state_name":"Texas","lat":29.61549,"lng":-98.75443,"zip":"78023","miles_from_dt":28.24},{"city":"San Antonio","state_name":"Texas","lat":29.53321,"lng":-98.49101,"zip":"78279","miles_from_dt":28.29},{"city":"San Antonio","state_name":"Texas","lat":29.53641,"lng":-98.48999,"zip":"78216","miles_from_dt":28.51},{"city":"San Antonio","state_name":"Texas","lat":29.44137,"lng":-98.38459,"zip":"78219","miles_from_dt":28.57},{"city":"San Antonio","state_name":"Texas","lat":29.53529,"lng":-98.4862,"zip":"78246","miles_from_dt":28.58},{"city":"Pleasanton","state_name":"Texas","lat":28.9206,"lng":-98.4249,"zip":"78064","miles_from_dt":28.86},{"city":"San Antonio","state_name":"Texas","lat":29.57978,"lng":-98.54504,"zip":"78231","miles_from_dt":29.23},{"city":"San Antonio","state_name":"Texas","lat":29.35084,"lng":-98.31219,"zip":"78263","miles_from_dt":29.64}],"targetCityZipCode":"78052","targetCityState":"Texas"},"__N_SSG":true}