{"pageProps":{"stateName":"Texas","cityName":"masterson","nearbyCities":[{"city":"Boys Ranch","state_name":"Texas","lat":35.45283,"lng":-102.12013,"zip":"79010","miles_from_dt":13.75},{"city":"Amarillo","state_name":"Texas","lat":35.37511,"lng":-101.80307,"zip":"79108","miles_from_dt":17.26},{"city":"Dumas","state_name":"Texas","lat":35.89513,"lng":-102.02756,"zip":"79029","miles_from_dt":21.15},{"city":"Fritch","state_name":"Texas","lat":35.59727,"lng":-101.54826,"zip":"79036","miles_from_dt":22.58},{"city":"Channing","state_name":"Texas","lat":35.69322,"lng":-102.33767,"zip":"79018","miles_from_dt":22.88},{"city":"Amarillo","state_name":"Texas","lat":35.26891,"lng":-102.02705,"zip":"79124","miles_from_dt":22.91},{"city":"Sanford","state_name":"Texas","lat":35.69856,"lng":-101.55,"zip":"79078","miles_from_dt":23.57},{"city":"Amarillo","state_name":"Texas","lat":35.23726,"lng":-102.03862,"zip":"79159","miles_from_dt":25.18},{"city":"Amarillo","state_name":"Texas","lat":35.23119,"lng":-101.7946,"zip":"79107","miles_from_dt":26.56},{"city":"Amarillo","state_name":"Texas","lat":35.21316,"lng":-101.88541,"zip":"79116","miles_from_dt":26.58},{"city":"Amarillo","state_name":"Texas","lat":35.22302,"lng":-101.81033,"zip":"79117","miles_from_dt":26.82},{"city":"Amarillo","state_name":"Texas","lat":35.20369,"lng":-101.89178,"zip":"79106","miles_from_dt":27.18},{"city":"Amarillo","state_name":"Texas","lat":35.20605,"lng":-101.83946,"zip":"79101","miles_from_dt":27.53},{"city":"Amarillo","state_name":"Texas","lat":35.20435,"lng":-101.83127,"zip":"79166","miles_from_dt":27.75},{"city":"Amarillo","state_name":"Texas","lat":35.20326,"lng":-101.83425,"zip":"79174","miles_from_dt":27.78},{"city":"Amarillo","state_name":"Texas","lat":35.20204,"lng":-101.83318,"zip":"79172","miles_from_dt":27.88},{"city":"Amarillo","state_name":"Texas","lat":35.19948,"lng":-101.84661,"zip":"79102","miles_from_dt":27.88},{"city":"Amarillo","state_name":"Texas","lat":35.19973,"lng":-101.81689,"zip":"79189","miles_from_dt":28.26},{"city":"Amarillo","state_name":"Texas","lat":35.2011,"lng":-101.79017,"zip":"79104","miles_from_dt":28.61},{"city":"Amarillo","state_name":"Texas","lat":35.18794,"lng":-101.84867,"zip":"79178","miles_from_dt":28.64},{"city":"Amarillo","state_name":"Texas","lat":35.17447,"lng":-101.92922,"zip":"79121","miles_from_dt":29.02},{"city":"Amarillo","state_name":"Texas","lat":35.18297,"lng":-101.7999,"zip":"79103","miles_from_dt":29.64},{"city":"Amarillo","state_name":"Texas","lat":35.19277,"lng":-101.76036,"zip":"79120","miles_from_dt":29.71},{"city":"Amarillo","state_name":"Texas","lat":35.1665,"lng":-101.88633,"zip":"79109","miles_from_dt":29.76},{"city":"Amarillo","state_name":"Texas","lat":35.21934,"lng":-101.68957,"zip":"79111","miles_from_dt":29.76},{"city":"Amarillo","state_name":"Texas","lat":35.16586,"lng":-101.8793,"zip":"79114","miles_from_dt":29.85}],"targetCityZipCode":"79058","targetCityState":"Texas"},"__N_SSG":true}