{"pageProps":{"stateName":"Texas","cityName":"maud","nearbyCities":[{"city":"Redwater","state_name":"Texas","lat":33.34214,"lng":-94.22454,"zip":"75573","miles_from_dt":5.75},{"city":"Texarkana","state_name":"Texas","lat":33.35273,"lng":-94.21872,"zip":"75504","miles_from_dt":6.32},{"city":"Texarkana","state_name":"Texas","lat":33.35468,"lng":-94.21932,"zip":"75507","miles_from_dt":6.35},{"city":"Texarkana","state_name":"Texas","lat":33.39638,"lng":-94.25052,"zip":"75505","miles_from_dt":6.77},{"city":"Douglassville","state_name":"Texas","lat":33.1957,"lng":-94.36699,"zip":"75560","miles_from_dt":8.79},{"city":"Texarkana","state_name":"Texas","lat":33.37413,"lng":-94.13168,"zip":"75501","miles_from_dt":11.55},{"city":"New Boston","state_name":"Texas","lat":33.4649,"lng":-94.4389,"zip":"75570","miles_from_dt":12.32},{"city":"Queen City","state_name":"Texas","lat":33.23114,"lng":-94.12934,"zip":"75572","miles_from_dt":12.49},{"city":"Simms","state_name":"Texas","lat":33.32892,"lng":-94.55229,"zip":"75574","miles_from_dt":13.5},{"city":"Hooks","state_name":"Texas","lat":33.517,"lng":-94.27855,"zip":"75561","miles_from_dt":13.99},{"city":"Nash","state_name":"Texas","lat":33.44127,"lng":-94.12292,"zip":"75569","miles_from_dt":14.23},{"city":"Marietta","state_name":"Texas","lat":33.15256,"lng":-94.49018,"zip":"75566","miles_from_dt":15.04},{"city":"Atlanta","state_name":"Texas","lat":33.11648,"lng":-94.20325,"zip":"75551","miles_from_dt":15.36},{"city":"Texarkana","state_name":"Texas","lat":33.44713,"lng":-94.07752,"zip":"75599","miles_from_dt":16.62},{"city":"Texarkana","state_name":"Texas","lat":33.51345,"lng":-94.13038,"zip":"75503","miles_from_dt":17.4},{"city":"Naples","state_name":"Texas","lat":33.19607,"lng":-94.59362,"zip":"75568","miles_from_dt":17.93},{"city":"Bloomburg","state_name":"Texas","lat":33.1512,"lng":-94.06263,"zip":"75556","miles_from_dt":18.75},{"city":"Linden","state_name":"Texas","lat":33.01835,"lng":-94.38871,"zip":"75563","miles_from_dt":20.96},{"city":"De Kalb","state_name":"Texas","lat":33.49929,"lng":-94.63931,"zip":"75559","miles_from_dt":22.36},{"city":"Genoa","state_name":"Arkansas","lat":33.38378,"lng":-93.90896,"zip":"71840","miles_from_dt":24.18},{"city":"Doddridge","state_name":"Arkansas","lat":33.11552,"lng":-93.9577,"zip":"71834","miles_from_dt":25.13},{"city":"Texarkana","state_name":"Arkansas","lat":33.44445,"lng":-93.90504,"zip":"71854","miles_from_dt":25.52},{"city":"Hughes Springs","state_name":"Texas","lat":33.01471,"lng":-94.58686,"zip":"75656","miles_from_dt":25.96},{"city":"Ashdown","state_name":"Arkansas","lat":33.66946,"lng":-94.14755,"zip":"71822","miles_from_dt":26.25},{"city":"Kildare","state_name":"Texas","lat":32.93588,"lng":-94.25302,"zip":"75562","miles_from_dt":26.54},{"city":"Omaha","state_name":"Texas","lat":33.20704,"lng":-94.76407,"zip":"75571","miles_from_dt":26.84},{"city":"Fouke","state_name":"Arkansas","lat":33.25543,"lng":-93.85693,"zip":"71837","miles_from_dt":27.1},{"city":"Foreman","state_name":"Arkansas","lat":33.71297,"lng":-94.39584,"zip":"71836","miles_from_dt":27.65},{"city":"Bivins","state_name":"Texas","lat":32.94564,"lng":-94.13696,"zip":"75555","miles_from_dt":27.68},{"city":"Ogden","state_name":"Arkansas","lat":33.59442,"lng":-93.95635,"zip":"71853","miles_from_dt":28.38},{"city":"McLeod","state_name":"Texas","lat":32.95202,"lng":-94.07527,"zip":"75565","miles_from_dt":28.85},{"city":"Lodi","state_name":"Texas","lat":32.88784,"lng":-94.24962,"zip":"75564","miles_from_dt":29.84}],"targetCityZipCode":"75567","targetCityState":"Texas"},"__N_SSG":true}