{"pageProps":{"stateName":"Texas","cityName":"maxwell","nearbyCities":[{"city":"Martindale","state_name":"Texas","lat":29.82346,"lng":-97.83517,"zip":"78655","miles_from_dt":5.68},{"city":"Kyle","state_name":"Texas","lat":29.99619,"lng":-97.82355,"zip":"78640","miles_from_dt":6.5},{"city":"Lockhart","state_name":"Texas","lat":29.87111,"lng":-97.67292,"zip":"78644","miles_from_dt":8.45},{"city":"San Marcos","state_name":"Texas","lat":29.85831,"lng":-97.94297,"zip":"78667","miles_from_dt":8.61},{"city":"Fentress","state_name":"Texas","lat":29.77225,"lng":-97.78229,"zip":"78622","miles_from_dt":9.13},{"city":"Staples","state_name":"Texas","lat":29.76267,"lng":-97.84608,"zip":"78670","miles_from_dt":9.9},{"city":"San Marcos","state_name":"Texas","lat":29.8826,"lng":-97.97974,"zip":"78666","miles_from_dt":10.35},{"city":"Buda","state_name":"Texas","lat":30.07962,"lng":-97.84047,"zip":"78610","miles_from_dt":12.33},{"city":"Prairie Lea","state_name":"Texas","lat":29.72925,"lng":-97.74212,"zip":"78661","miles_from_dt":12.61},{"city":"Dale","state_name":"Texas","lat":29.92687,"lng":-97.55655,"zip":"78616","miles_from_dt":15.23},{"city":"Austin","state_name":"Texas","lat":30.12521,"lng":-97.74117,"zip":"78747","miles_from_dt":15.85},{"city":"Manchaca","state_name":"Texas","lat":30.13462,"lng":-97.8606,"zip":"78652","miles_from_dt":16.27},{"city":"Kingsbury","state_name":"Texas","lat":29.65821,"lng":-97.79595,"zip":"78638","miles_from_dt":16.86},{"city":"Luling","state_name":"Texas","lat":29.69594,"lng":-97.63827,"zip":"78648","miles_from_dt":17.55},{"city":"Austin","state_name":"Texas","lat":30.16144,"lng":-97.8227,"zip":"78748","miles_from_dt":17.84},{"city":"Austin","state_name":"Texas","lat":30.14465,"lng":-97.67148,"zip":"78719","miles_from_dt":18.59},{"city":"Austin","state_name":"Texas","lat":30.17617,"lng":-97.72922,"zip":"73344","miles_from_dt":19.43},{"city":"Austin","state_name":"Texas","lat":30.17596,"lng":-97.89087,"zip":"78739","miles_from_dt":19.45},{"city":"Driftwood","state_name":"Texas","lat":30.11215,"lng":-98.03101,"zip":"78619","miles_from_dt":19.63},{"city":"Austin","state_name":"Texas","lat":30.18024,"lng":-97.72888,"zip":"78744","miles_from_dt":19.71},{"city":"Austin","state_name":"Texas","lat":30.20657,"lng":-97.79623,"zip":"78715","miles_from_dt":20.94},{"city":"Austin","state_name":"Texas","lat":30.20743,"lng":-97.79822,"zip":"78745","miles_from_dt":21},{"city":"Del Valle","state_name":"Texas","lat":30.1508,"lng":-97.59928,"zip":"78617","miles_from_dt":21.21},{"city":"New Braunfels","state_name":"Texas","lat":29.69224,"lng":-98.06877,"zip":"78130","miles_from_dt":21.31},{"city":"Austin","state_name":"Texas","lat":30.21329,"lng":-97.85732,"zip":"78749","miles_from_dt":21.59},{"city":"Austin","state_name":"Texas","lat":30.18935,"lng":-97.96059,"zip":"78737","miles_from_dt":21.73},{"city":"Austin","state_name":"Texas","lat":30.21256,"lng":-97.73332,"zip":"78760","miles_from_dt":21.82},{"city":"Austin","state_name":"Texas","lat":30.22023,"lng":-97.74994,"zip":"73301","miles_from_dt":22.15},{"city":"Red Rock","state_name":"Texas","lat":29.94316,"lng":-97.44231,"zip":"78662","miles_from_dt":22.17},{"city":"Austin","state_name":"Texas","lat":30.22432,"lng":-97.75029,"zip":"78772","miles_from_dt":22.43},{"city":"Wimberley","state_name":"Texas","lat":30.04141,"lng":-98.15051,"zip":"78676","miles_from_dt":22.6},{"city":"Austin","state_name":"Texas","lat":30.23502,"lng":-97.84764,"zip":"78709","miles_from_dt":23},{"city":"New Braunfels","state_name":"Texas","lat":29.70387,"lng":-98.11752,"zip":"78135","miles_from_dt":23.05},{"city":"Cedar Creek","state_name":"Texas","lat":30.09301,"lng":-97.49017,"zip":"78612","miles_from_dt":23.17},{"city":"Austin","state_name":"Texas","lat":30.23007,"lng":-97.71389,"zip":"78741","miles_from_dt":23.25},{"city":"Austin","state_name":"Texas","lat":30.24298,"lng":-97.76537,"zip":"78704","miles_from_dt":23.58},{"city":"Austin","state_name":"Texas","lat":30.24641,"lng":-97.76639,"zip":"78783","miles_from_dt":23.81},{"city":"New Braunfels","state_name":"Texas","lat":29.71498,"lng":-98.14372,"zip":"78131","miles_from_dt":23.91},{"city":"Ottine","state_name":"Texas","lat":29.59339,"lng":-97.62661,"zip":"78658","miles_from_dt":23.96},{"city":"Geronimo","state_name":"Texas","lat":29.61024,"lng":-98.02557,"zip":"78115","miles_from_dt":23.99},{"city":"Seguin","state_name":"Texas","lat":29.56732,"lng":-97.93086,"zip":"78156","miles_from_dt":24.24},{"city":"New Braunfels","state_name":"Texas","lat":29.76299,"lng":-98.19,"zip":"78132","miles_from_dt":24.83},{"city":"Fischer","state_name":"Texas","lat":29.95973,"lng":-98.21933,"zip":"78623","miles_from_dt":24.93},{"city":"McQueeney","state_name":"Texas","lat":29.60056,"lng":-98.04236,"zip":"78123","miles_from_dt":25.1},{"city":"Austin","state_name":"Texas","lat":30.251,"lng":-97.685,"zip":"78799","miles_from_dt":25.11},{"city":"Austin","state_name":"Texas","lat":30.24375,"lng":-97.65869,"zip":"78742","miles_from_dt":25.15},{"city":"Austin","state_name":"Texas","lat":30.26043,"lng":-97.72295,"zip":"78762","miles_from_dt":25.17},{"city":"Harwood","state_name":"Texas","lat":29.68866,"lng":-97.46858,"zip":"78632","miles_from_dt":25.21},{"city":"Austin","state_name":"Texas","lat":30.24833,"lng":-97.94965,"zip":"78736","miles_from_dt":25.25},{"city":"Austin","state_name":"Texas","lat":30.26634,"lng":-97.86775,"zip":"78735","miles_from_dt":25.29},{"city":"Austin","state_name":"Texas","lat":30.26339,"lng":-97.7144,"zip":"78702","miles_from_dt":25.48},{"city":"Austin","state_name":"Texas","lat":30.26884,"lng":-97.74122,"zip":"78714","miles_from_dt":25.54},{"city":"Austin","state_name":"Texas","lat":30.27046,"lng":-97.74407,"zip":"78768","miles_from_dt":25.62},{"city":"Austin","state_name":"Texas","lat":30.27022,"lng":-97.74248,"zip":"78701","miles_from_dt":25.62},{"city":"Austin","state_name":"Texas","lat":30.27282,"lng":-97.74283,"zip":"78767","miles_from_dt":25.8},{"city":"Austin","state_name":"Texas","lat":30.23554,"lng":-97.60859,"zip":"78725","miles_from_dt":25.87},{"city":"Austin","state_name":"Texas","lat":30.27621,"lng":-97.73962,"zip":"78778","miles_from_dt":26.06},{"city":"Canyon Lake","state_name":"Texas","lat":29.88119,"lng":-98.24624,"zip":"78133","miles_from_dt":26.29},{"city":"Austin","state_name":"Texas","lat":30.27986,"lng":-97.73918,"zip":"78774","miles_from_dt":26.31},{"city":"Austin","state_name":"Texas","lat":30.27968,"lng":-97.7381,"zip":"78711","miles_from_dt":26.31},{"city":"Austin","state_name":"Texas","lat":30.27127,"lng":-97.68345,"zip":"78721","miles_from_dt":26.47},{"city":"Austin","state_name":"Texas","lat":30.28392,"lng":-97.74132,"zip":"78713","miles_from_dt":26.57},{"city":"Seguin","state_name":"Texas","lat":29.53305,"lng":-97.93832,"zip":"78155","miles_from_dt":26.63},{"city":"Austin","state_name":"Texas","lat":30.28393,"lng":-97.73294,"zip":"78712","miles_from_dt":26.65},{"city":"Austin","state_name":"Texas","lat":30.29385,"lng":-97.76554,"zip":"78703","miles_from_dt":27.06},{"city":"Belmont","state_name":"Texas","lat":29.52393,"lng":-97.68192,"zip":"78604","miles_from_dt":27.19},{"city":"Austin","state_name":"Texas","lat":30.29759,"lng":-97.81136,"zip":"78746","miles_from_dt":27.2},{"city":"Austin","state_name":"Texas","lat":30.29005,"lng":-97.71458,"zip":"78722","miles_from_dt":27.27},{"city":"Austin","state_name":"Texas","lat":30.29711,"lng":-97.76685,"zip":"78763","miles_from_dt":27.28},{"city":"Austin","state_name":"Texas","lat":30.2947,"lng":-97.739,"zip":"78705","miles_from_dt":27.32},{"city":"Rosanky","state_name":"Texas","lat":29.85552,"lng":-97.35214,"zip":"78953","miles_from_dt":27.61},{"city":"Austin","state_name":"Texas","lat":30.30828,"lng":-97.72892,"zip":"78765","miles_from_dt":28.34},{"city":"Austin","state_name":"Texas","lat":30.3108,"lng":-97.72278,"zip":"78751","miles_from_dt":28.58},{"city":"Austin","state_name":"Texas","lat":30.30423,"lng":-97.68578,"zip":"78723","miles_from_dt":28.62},{"city":"Austin","state_name":"Texas","lat":30.32289,"lng":-97.86404,"zip":"78716","miles_from_dt":29.13},{"city":"Austin","state_name":"Texas","lat":30.32219,"lng":-97.7402,"zip":"78756","miles_from_dt":29.18},{"city":"Austin","state_name":"Texas","lat":30.32338,"lng":-97.87762,"zip":"78733","miles_from_dt":29.26},{"city":"Austin","state_name":"Texas","lat":30.29474,"lng":-97.61439,"zip":"78724","miles_from_dt":29.41},{"city":"Dripping Springs","state_name":"Texas","lat":30.22214,"lng":-98.13491,"zip":"78620","miles_from_dt":29.42},{"city":"Austin","state_name":"Texas","lat":30.30668,"lng":-97.99002,"zip":"78738","miles_from_dt":29.86}],"targetCityZipCode":"78656","targetCityState":"Texas"},"__N_SSG":true}