{"pageProps":{"stateName":"Texas","cityName":"milano","nearbyCities":[{"city":"Chriesman","state_name":"Texas","lat":30.60008,"lng":-96.77245,"zip":"77838","miles_from_dt":7.82},{"city":"Gause","state_name":"Texas","lat":30.78246,"lng":-96.73927,"zip":"77857","miles_from_dt":8.71},{"city":"Rockdale","state_name":"Texas","lat":30.64535,"lng":-97.01363,"zip":"76567","miles_from_dt":10.61},{"city":"Cameron","state_name":"Texas","lat":30.87266,"lng":-96.89972,"zip":"76520","miles_from_dt":12.68},{"city":"Caldwell","state_name":"Texas","lat":30.53798,"lng":-96.67813,"zip":"77836","miles_from_dt":14.68},{"city":"Mumford","state_name":"Texas","lat":30.74163,"lng":-96.56992,"zip":"77867","miles_from_dt":16.68},{"city":"Deanville","state_name":"Texas","lat":30.42833,"lng":-96.7573,"zip":"77852","miles_from_dt":19.08},{"city":"Thorndale","state_name":"Texas","lat":30.62128,"lng":-97.1787,"zip":"76577","miles_from_dt":20.52},{"city":"Buckholts","state_name":"Texas","lat":30.85091,"lng":-97.13957,"zip":"76518","miles_from_dt":20.57},{"city":"Bryan","state_name":"Texas","lat":30.6783,"lng":-96.47982,"zip":"77807","miles_from_dt":21.76},{"city":"Lexington","state_name":"Texas","lat":30.42378,"lng":-97.04183,"zip":"78947","miles_from_dt":22.06},{"city":"Dime Box","state_name":"Texas","lat":30.3623,"lng":-96.84035,"zip":"77853","miles_from_dt":22.91},{"city":"Burlington","state_name":"Texas","lat":30.98978,"lng":-97.03579,"zip":"76519","miles_from_dt":23.27},{"city":"Hearne","state_name":"Texas","lat":30.88012,"lng":-96.51707,"zip":"77859","miles_from_dt":23.3},{"city":"Calvert","state_name":"Texas","lat":31.00704,"lng":-96.67718,"zip":"77837","miles_from_dt":23.71},{"city":"Thrall","state_name":"Texas","lat":30.53488,"lng":-97.24092,"zip":"76578","miles_from_dt":26.04},{"city":"Davilla","state_name":"Texas","lat":30.80366,"lng":-97.27795,"zip":"76523","miles_from_dt":26.84},{"city":"Lyons","state_name":"Texas","lat":30.39306,"lng":-96.55946,"zip":"77863","miles_from_dt":26.86},{"city":"Rosebud","state_name":"Texas","lat":31.0818,"lng":-96.94173,"zip":"76570","miles_from_dt":27.27},{"city":"Bryan","state_name":"Texas","lat":30.67835,"lng":-96.3867,"zip":"77803","miles_from_dt":27.3},{"city":"Lincoln","state_name":"Texas","lat":30.30748,"lng":-96.97022,"zip":"78948","miles_from_dt":27.71},{"city":"Rogers","state_name":"Texas","lat":30.93873,"lng":-97.21904,"zip":"76569","miles_from_dt":27.88},{"city":"Snook","state_name":"Texas","lat":30.47222,"lng":-96.45089,"zip":"77878","miles_from_dt":28.04},{"city":"Bryan","state_name":"Texas","lat":30.67591,"lng":-96.36828,"zip":"77806","miles_from_dt":28.4},{"city":"Bryan","state_name":"Texas","lat":30.63968,"lng":-96.36451,"zip":"77801","miles_from_dt":28.86},{"city":"Somerville","state_name":"Texas","lat":30.40078,"lng":-96.49378,"zip":"77879","miles_from_dt":29.13},{"city":"College Station","state_name":"Texas","lat":30.61072,"lng":-96.35473,"zip":"77844","miles_from_dt":29.76},{"city":"Bryan","state_name":"Texas","lat":30.67294,"lng":-96.34302,"zip":"77805","miles_from_dt":29.92}],"targetCityZipCode":"76556","targetCityState":"Texas"},"__N_SSG":true}