{"pageProps":{"stateName":"Texas","cityName":"mission","nearbyCities":[{"city":"Mcallen","state_name":"Texas","lat":26.19828,"lng":-98.24697,"zip":"78502","miles_from_dt":6.79},{"city":"Mcallen","state_name":"Texas","lat":26.16229,"lng":-98.25132,"zip":"78503","miles_from_dt":6.98},{"city":"Mcallen","state_name":"Texas","lat":26.21599,"lng":-98.2391,"zip":"78501","miles_from_dt":7.38},{"city":"Mission","state_name":"Texas","lat":26.29745,"lng":-98.30242,"zip":"78573","miles_from_dt":7.59},{"city":"Mcallen","state_name":"Texas","lat":26.20016,"lng":-98.23297,"zip":"78505","miles_from_dt":7.66},{"city":"Mission","state_name":"Texas","lat":26.31118,"lng":-98.37293,"zip":"78574","miles_from_dt":7.83},{"city":"Hidalgo","state_name":"Texas","lat":26.10844,"lng":-98.25118,"zip":"78557","miles_from_dt":9.01},{"city":"Mcallen","state_name":"Texas","lat":26.27758,"lng":-98.23728,"zip":"78504","miles_from_dt":9.18},{"city":"La Joya","state_name":"Texas","lat":26.25545,"lng":-98.49515,"zip":"78560","miles_from_dt":9.47},{"city":"Pharr","state_name":"Texas","lat":26.1665,"lng":-98.19082,"zip":"78577","miles_from_dt":10.51},{"city":"Penitas","state_name":"Texas","lat":26.32584,"lng":-98.46799,"zip":"78576","miles_from_dt":11.18},{"city":"Edinburg","state_name":"Texas","lat":26.28,"lng":-98.18311,"zip":"78539","miles_from_dt":12.13},{"city":"San Juan","state_name":"Texas","lat":26.15349,"lng":-98.15979,"zip":"78589","miles_from_dt":12.6},{"city":"Los Ebanos","state_name":"Texas","lat":26.24453,"lng":-98.561,"zip":"78565","miles_from_dt":13.1},{"city":"Sullivan City","state_name":"Texas","lat":26.31457,"lng":-98.54038,"zip":"78595","miles_from_dt":13.94},{"city":"Alamo","state_name":"Texas","lat":26.14256,"lng":-98.11977,"zip":"78516","miles_from_dt":15.19},{"city":"Edinburg","state_name":"Texas","lat":26.4528,"lng":-98.28632,"zip":"78541","miles_from_dt":18.04},{"city":"Donna","state_name":"Texas","lat":26.17322,"lng":-98.05744,"zip":"78537","miles_from_dt":18.65},{"city":"Grulla","state_name":"Texas","lat":26.27654,"lng":-98.65527,"zip":"78548","miles_from_dt":19.32},{"city":"La Blanca","state_name":"Texas","lat":26.29276,"lng":-98.02366,"zip":"78558","miles_from_dt":21.65},{"city":"Garciasville","state_name":"Texas","lat":26.30868,"lng":-98.69723,"zip":"78547","miles_from_dt":22.48},{"city":"Weslaco","state_name":"Texas","lat":26.2181,"lng":-97.99087,"zip":"78599","miles_from_dt":22.74},{"city":"Elsa","state_name":"Texas","lat":26.30117,"lng":-98.00508,"zip":"78543","miles_from_dt":22.92},{"city":"Weslaco","state_name":"Texas","lat":26.10668,"lng":-97.99856,"zip":"78596","miles_from_dt":23.11},{"city":"Edinburg","state_name":"Texas","lat":26.44412,"lng":-98.09163,"zip":"78542","miles_from_dt":23.57},{"city":"Progreso","state_name":"Texas","lat":26.0892,"lng":-97.94627,"zip":"78579","miles_from_dt":26.57},{"city":"Edcouch","state_name":"Texas","lat":26.36812,"lng":-97.97152,"zip":"78538","miles_from_dt":26.58},{"city":"Mercedes","state_name":"Texas","lat":26.17149,"lng":-97.9112,"zip":"78570","miles_from_dt":27.71},{"city":"Hargill","state_name":"Texas","lat":26.48528,"lng":-98.02329,"zip":"78549","miles_from_dt":28.58},{"city":"La Villa","state_name":"Texas","lat":26.28809,"lng":-97.89293,"zip":"78562","miles_from_dt":29.42}],"targetCityZipCode":"78572","targetCityState":"Texas"},"__N_SSG":true}