{"pageProps":{"stateName":"Texas","cityName":"montgomery","nearbyCities":[{"city":"Dobbin","state_name":"Texas","lat":30.36722,"lng":-95.77248,"zip":"77333","miles_from_dt":6.54},{"city":"Magnolia","state_name":"Texas","lat":30.21113,"lng":-95.65003,"zip":"77354","miles_from_dt":7.11},{"city":"Magnolia","state_name":"Texas","lat":30.21166,"lng":-95.75701,"zip":"77353","miles_from_dt":8},{"city":"Montgomery","state_name":"Texas","lat":30.44807,"lng":-95.70358,"zip":"77356","miles_from_dt":9.59},{"city":"Conroe","state_name":"Texas","lat":30.33097,"lng":-95.51538,"zip":"77304","miles_from_dt":10.26},{"city":"Pinehurst","state_name":"Texas","lat":30.16003,"lng":-95.67237,"zip":"77362","miles_from_dt":10.34},{"city":"Plantersville","state_name":"Texas","lat":30.3267,"lng":-95.85732,"zip":"77363","miles_from_dt":10.35},{"city":"Magnolia","state_name":"Texas","lat":30.1579,"lng":-95.75014,"zip":"77355","miles_from_dt":11.16},{"city":"Spring","state_name":"Texas","lat":30.19961,"lng":-95.5455,"zip":"77382","miles_from_dt":11.29},{"city":"Conroe","state_name":"Texas","lat":30.23453,"lng":-95.49675,"zip":"77384","miles_from_dt":12.41},{"city":"Willis","state_name":"Texas","lat":30.44709,"lng":-95.54364,"zip":"77318","miles_from_dt":12.69},{"city":"Conroe","state_name":"Texas","lat":30.32201,"lng":-95.46219,"zip":"77305","miles_from_dt":13.36},{"city":"Hufsmith","state_name":"Texas","lat":30.12211,"lng":-95.59323,"zip":"77337","miles_from_dt":14.05},{"city":"Spring","state_name":"Texas","lat":30.17791,"lng":-95.50266,"zip":"77381","miles_from_dt":14.2},{"city":"Conroe","state_name":"Texas","lat":30.30897,"lng":-95.43281,"zip":"77301","miles_from_dt":15.09},{"city":"Tomball","state_name":"Texas","lat":30.09393,"lng":-95.59095,"zip":"77375","miles_from_dt":15.9},{"city":"Tomball","state_name":"Texas","lat":30.06141,"lng":-95.67608,"zip":"77377","miles_from_dt":17.11},{"city":"Spring","state_name":"Texas","lat":30.11509,"lng":-95.50752,"zip":"77389","miles_from_dt":17.11},{"city":"Spring","state_name":"Texas","lat":30.1365,"lng":-95.46863,"zip":"77380","miles_from_dt":17.62},{"city":"Conroe","state_name":"Texas","lat":30.1894,"lng":-95.42264,"zip":"77385","miles_from_dt":17.76},{"city":"Conroe","state_name":"Texas","lat":30.37569,"lng":-95.37937,"zip":"77303","miles_from_dt":18.83},{"city":"Richards","state_name":"Texas","lat":30.57489,"lng":-95.79934,"zip":"77873","miles_from_dt":19.49},{"city":"Hockley","state_name":"Texas","lat":30.05178,"lng":-95.82868,"zip":"77447","miles_from_dt":19.73},{"city":"Conroe","state_name":"Texas","lat":30.22626,"lng":-95.36014,"zip":"77302","miles_from_dt":20.27},{"city":"Spring","state_name":"Texas","lat":30.03966,"lng":-95.53305,"zip":"77379","miles_from_dt":20.71},{"city":"Spring","state_name":"Texas","lat":30.02154,"lng":-95.56934,"zip":"77391","miles_from_dt":21.03},{"city":"Willis","state_name":"Texas","lat":30.45873,"lng":-95.37454,"zip":"77378","miles_from_dt":21.21},{"city":"Waller","state_name":"Texas","lat":30.07924,"lng":-95.92812,"zip":"77484","miles_from_dt":21.52},{"city":"New Waverly","state_name":"Texas","lat":30.55061,"lng":-95.45419,"zip":"77358","miles_from_dt":21.58},{"city":"Spring","state_name":"Texas","lat":30.05957,"lng":-95.46764,"zip":"77388","miles_from_dt":21.6},{"city":"Cypress","state_name":"Texas","lat":29.99068,"lng":-95.65808,"zip":"77429","miles_from_dt":22.04},{"city":"Conroe","state_name":"Texas","lat":30.2799,"lng":-95.31337,"zip":"77306","miles_from_dt":22.33},{"city":"Spring","state_name":"Texas","lat":30.07429,"lng":-95.42279,"zip":"77383","miles_from_dt":22.58},{"city":"Spring","state_name":"Texas","lat":30.0771,"lng":-95.41774,"zip":"77387","miles_from_dt":22.65},{"city":"Navasota","state_name":"Texas","lat":30.36954,"lng":-96.05815,"zip":"77868","miles_from_dt":22.66},{"city":"Shiro","state_name":"Texas","lat":30.60369,"lng":-95.85656,"zip":"77876","miles_from_dt":22.68},{"city":"Cypress","state_name":"Texas","lat":29.97266,"lng":-95.69681,"zip":"77410","miles_from_dt":23.23},{"city":"Prairie View","state_name":"Texas","lat":30.0871,"lng":-95.9895,"zip":"77446","miles_from_dt":23.8},{"city":"Houston","state_name":"Texas","lat":29.97783,"lng":-95.57377,"zip":"77070","miles_from_dt":23.82},{"city":"Houston","state_name":"Texas","lat":29.97882,"lng":-95.56821,"zip":"77269","miles_from_dt":23.85},{"city":"Houston","state_name":"Texas","lat":30.00715,"lng":-95.4867,"zip":"77268","miles_from_dt":23.99},{"city":"Houston","state_name":"Texas","lat":30.00628,"lng":-95.48694,"zip":"77068","miles_from_dt":24.04},{"city":"Houston","state_name":"Texas","lat":29.98631,"lng":-95.52398,"zip":"77069","miles_from_dt":24.28},{"city":"Spring","state_name":"Texas","lat":30.10153,"lng":-95.3561,"zip":"77386","miles_from_dt":24.36},{"city":"Roans Prairie","state_name":"Texas","lat":30.58119,"lng":-95.94675,"zip":"77875","miles_from_dt":24.36},{"city":"Anderson","state_name":"Texas","lat":30.52648,"lng":-96.00849,"zip":"77830","miles_from_dt":24.4},{"city":"Spring","state_name":"Texas","lat":30.0619,"lng":-95.3838,"zip":"77393","miles_from_dt":24.84},{"city":"Spring","state_name":"Texas","lat":30.06143,"lng":-95.38423,"zip":"77373","miles_from_dt":24.84},{"city":"Huntsville","state_name":"Texas","lat":30.64601,"lng":-95.53441,"zip":"77340","miles_from_dt":24.85},{"city":"Cypress","state_name":"Texas","lat":29.9492,"lng":-95.73979,"zip":"77433","miles_from_dt":25.05},{"city":"Houston","state_name":"Texas","lat":30.00845,"lng":-95.44317,"zip":"77090","miles_from_dt":25.31},{"city":"Houston","state_name":"Texas","lat":29.98453,"lng":-95.46663,"zip":"77290","miles_from_dt":25.95},{"city":"Houston","state_name":"Texas","lat":29.98025,"lng":-95.46363,"zip":"77014","miles_from_dt":26.29},{"city":"Houston","state_name":"Texas","lat":29.95714,"lng":-95.50277,"zip":"77066","miles_from_dt":26.63},{"city":"Houston","state_name":"Texas","lat":29.92673,"lng":-95.60324,"zip":"77065","miles_from_dt":26.84},{"city":"Hempstead","state_name":"Texas","lat":30.09562,"lng":-96.06247,"zip":"77445","miles_from_dt":26.96},{"city":"Houston","state_name":"Texas","lat":30.00088,"lng":-95.39827,"zip":"77273","miles_from_dt":27.35},{"city":"Houston","state_name":"Texas","lat":29.99849,"lng":-95.39804,"zip":"77073","miles_from_dt":27.48},{"city":"Houston","state_name":"Texas","lat":29.90834,"lng":-95.65492,"zip":"77095","miles_from_dt":27.71},{"city":"Huntsville","state_name":"Texas","lat":30.69818,"lng":-95.55886,"zip":"77341","miles_from_dt":27.8},{"city":"Houston","state_name":"Texas","lat":29.92279,"lng":-95.5467,"zip":"77064","miles_from_dt":27.92},{"city":"Porter","state_name":"Texas","lat":30.11638,"lng":-95.2747,"zip":"77365","miles_from_dt":27.94},{"city":"Houston","state_name":"Texas","lat":29.95283,"lng":-95.44719,"zip":"77067","miles_from_dt":28.42},{"city":"Houston","state_name":"Texas","lat":29.95395,"lng":-95.44486,"zip":"77267","miles_from_dt":28.42},{"city":"Houston","state_name":"Texas","lat":29.9186,"lng":-95.49064,"zip":"77086","miles_from_dt":29.36},{"city":"Huntsville","state_name":"Texas","lat":30.72204,"lng":-95.55279,"zip":"77344","miles_from_dt":29.48},{"city":"Huntsville","state_name":"Texas","lat":30.72181,"lng":-95.55114,"zip":"77349","miles_from_dt":29.49},{"city":"Huntsville","state_name":"Texas","lat":30.72286,"lng":-95.55333,"zip":"77348","miles_from_dt":29.53},{"city":"Huntsville","state_name":"Texas","lat":30.7228,"lng":-95.54872,"zip":"77343","miles_from_dt":29.6}],"targetCityZipCode":"77316","targetCityState":"Texas"},"__N_SSG":true}