{"pageProps":{"stateName":"Texas","cityName":"moore","nearbyCities":[{"city":"Devine","state_name":"Texas","lat":29.18499,"lng":-98.95692,"zip":"78016","miles_from_dt":10.78},{"city":"Pearsall","state_name":"Texas","lat":28.90162,"lng":-99.13104,"zip":"78061","miles_from_dt":11.56},{"city":"Yancey","state_name":"Texas","lat":29.15453,"lng":-99.18749,"zip":"78886","miles_from_dt":12.78},{"city":"Bigfoot","state_name":"Texas","lat":28.92848,"lng":-98.84668,"zip":"78005","miles_from_dt":13.07},{"city":"Natalia","state_name":"Texas","lat":29.19236,"lng":-98.84143,"zip":"78059","miles_from_dt":15.17},{"city":"Lytle","state_name":"Texas","lat":29.20582,"lng":-98.77427,"zip":"78052","miles_from_dt":18.86},{"city":"La Coste","state_name":"Texas","lat":29.31324,"lng":-98.82528,"zip":"78039","miles_from_dt":22.3},{"city":"Poteet","state_name":"Texas","lat":29.08152,"lng":-98.64437,"zip":"78065","miles_from_dt":23.03},{"city":"Somerset","state_name":"Texas","lat":29.18973,"lng":-98.68045,"zip":"78069","miles_from_dt":23.1},{"city":"Castroville","state_name":"Texas","lat":29.36251,"lng":-98.88442,"zip":"78009","miles_from_dt":23.76},{"city":"Charlotte","state_name":"Texas","lat":28.80267,"lng":-98.73441,"zip":"78011","miles_from_dt":23.85},{"city":"Atascosa","state_name":"Texas","lat":29.28305,"lng":-98.73652,"zip":"78002","miles_from_dt":24.07},{"city":"Dilley","state_name":"Texas","lat":28.72456,"lng":-99.20455,"zip":"78017","miles_from_dt":24.34},{"city":"D Hanis","state_name":"Texas","lat":29.27937,"lng":-99.33581,"zip":"78850","miles_from_dt":25.17},{"city":"Hondo","state_name":"Texas","lat":29.41778,"lng":-99.15663,"zip":"78861","miles_from_dt":27.31},{"city":"Macdona","state_name":"Texas","lat":29.32401,"lng":-98.69356,"zip":"78054","miles_from_dt":27.9},{"city":"Von Ormy","state_name":"Texas","lat":29.24569,"lng":-98.6213,"zip":"78073","miles_from_dt":28.08},{"city":"San Antonio","state_name":"Texas","lat":29.34167,"lng":-98.69682,"zip":"78252","miles_from_dt":28.63}],"targetCityZipCode":"78057","targetCityState":"Texas"},"__N_SSG":true}