{"pageProps":{"stateName":"Texas","cityName":"paige","nearbyCities":[{"city":"McDade","state_name":"Texas","lat":30.30536,"lng":-97.21574,"zip":"78650","miles_from_dt":8.65},{"city":"Lincoln","state_name":"Texas","lat":30.30748,"lng":-96.97022,"zip":"78948","miles_from_dt":11.63},{"city":"Giddings","state_name":"Texas","lat":30.16803,"lng":-96.93153,"zip":"78942","miles_from_dt":11.95},{"city":"Bastrop","state_name":"Texas","lat":30.12735,"lng":-97.32801,"zip":"78602","miles_from_dt":13.26},{"city":"Smithville","state_name":"Texas","lat":30.01279,"lng":-97.17481,"zip":"78957","miles_from_dt":13.67},{"city":"Lexington","state_name":"Texas","lat":30.42378,"lng":-97.04183,"zip":"78947","miles_from_dt":15.78},{"city":"Warda","state_name":"Texas","lat":30.05358,"lng":-96.91558,"zip":"78960","miles_from_dt":16.44},{"city":"Elgin","state_name":"Texas","lat":30.33737,"lng":-97.36053,"zip":"78621","miles_from_dt":16.65},{"city":"Dime Box","state_name":"Texas","lat":30.3623,"lng":-96.84035,"zip":"77853","miles_from_dt":20.17},{"city":"West Point","state_name":"Texas","lat":29.92586,"lng":-97.02767,"zip":"78963","miles_from_dt":20.22},{"city":"Plum","state_name":"Texas","lat":29.93636,"lng":-96.96819,"zip":"78952","miles_from_dt":20.89},{"city":"Ledbetter","state_name":"Texas","lat":30.18947,"lng":-96.77412,"zip":"78946","miles_from_dt":21.1},{"city":"Cedar Creek","state_name":"Texas","lat":30.09301,"lng":-97.49017,"zip":"78612","miles_from_dt":23.15},{"city":"Thrall","state_name":"Texas","lat":30.53488,"lng":-97.24092,"zip":"76578","miles_from_dt":23.62},{"city":"Coupland","state_name":"Texas","lat":30.46426,"lng":-97.39061,"zip":"78615","miles_from_dt":23.76},{"city":"La Grange","state_name":"Texas","lat":29.91594,"lng":-96.89031,"zip":"78945","miles_from_dt":24.51},{"city":"Carmine","state_name":"Texas","lat":30.1656,"lng":-96.70793,"zip":"78932","miles_from_dt":25.19},{"city":"Manor","state_name":"Texas","lat":30.33783,"lng":-97.52006,"zip":"78653","miles_from_dt":25.22},{"city":"Muldoon","state_name":"Texas","lat":29.83681,"lng":-97.08062,"zip":"78949","miles_from_dt":25.62},{"city":"Red Rock","state_name":"Texas","lat":29.94316,"lng":-97.44231,"zip":"78662","miles_from_dt":26.23},{"city":"Deanville","state_name":"Texas","lat":30.42833,"lng":-96.7573,"zip":"77852","miles_from_dt":26.82},{"city":"Warrenton","state_name":"Texas","lat":30.01722,"lng":-96.73167,"zip":"78961","miles_from_dt":26.99},{"city":"Rosanky","state_name":"Texas","lat":29.85552,"lng":-97.35214,"zip":"78953","miles_from_dt":27.72},{"city":"Round Top","state_name":"Texas","lat":30.04507,"lng":-96.69774,"zip":"78954","miles_from_dt":27.97},{"city":"Del Valle","state_name":"Texas","lat":30.1508,"lng":-97.59928,"zip":"78617","miles_from_dt":28.57},{"city":"Thorndale","state_name":"Texas","lat":30.62128,"lng":-97.1787,"zip":"76577","miles_from_dt":28.73},{"city":"Austin","state_name":"Texas","lat":30.23554,"lng":-97.60859,"zip":"78725","miles_from_dt":28.92},{"city":"Austin","state_name":"Texas","lat":30.29474,"lng":-97.61439,"zip":"78724","miles_from_dt":29.82}],"targetCityZipCode":"78659","targetCityState":"Texas"},"__N_SSG":true}