{"pageProps":{"stateName":"Texas","cityName":"peaster","nearbyCities":[{"city":"Weatherford","state_name":"Texas","lat":32.84554,"lng":-97.90345,"zip":"76088","miles_from_dt":2.7},{"city":"Poolville","state_name":"Texas","lat":32.97912,"lng":-97.88346,"zip":"76487","miles_from_dt":7.43},{"city":"Weatherford","state_name":"Texas","lat":32.75345,"lng":-97.78909,"zip":"76086","miles_from_dt":9.4},{"city":"Weatherford","state_name":"Texas","lat":32.84907,"lng":-97.70051,"zip":"76085","miles_from_dt":9.93},{"city":"Springtown","state_name":"Texas","lat":32.97098,"lng":-97.71783,"zip":"76082","miles_from_dt":11.13},{"city":"Whitt","state_name":"Texas","lat":32.95721,"lng":-98.04033,"zip":"76490","miles_from_dt":11.55},{"city":"Millsap","state_name":"Texas","lat":32.7058,"lng":-97.99913,"zip":"76066","miles_from_dt":13.73},{"city":"Weatherford","state_name":"Texas","lat":32.66995,"lng":-97.79065,"zip":"76087","miles_from_dt":14.65},{"city":"Mineral Wells","state_name":"Texas","lat":32.80795,"lng":-98.1126,"zip":"76068","miles_from_dt":14.84},{"city":"Perrin","state_name":"Texas","lat":33.02138,"lng":-98.05618,"zip":"76486","miles_from_dt":14.97},{"city":"Mineral Wells","state_name":"Texas","lat":32.80303,"lng":-98.1449,"zip":"76067","miles_from_dt":16.73},{"city":"Azle","state_name":"Texas","lat":32.90102,"lng":-97.56483,"zip":"76020","miles_from_dt":17.81},{"city":"Dennis","state_name":"Texas","lat":32.6176,"lng":-97.92708,"zip":"76439","miles_from_dt":17.85},{"city":"Paradise","state_name":"Texas","lat":33.10416,"lng":-97.72571,"zip":"76073","miles_from_dt":18.04},{"city":"Azle","state_name":"Texas","lat":32.89871,"lng":-97.54091,"zip":"76098","miles_from_dt":19.17},{"city":"Aledo","state_name":"Texas","lat":32.68182,"lng":-97.62738,"zip":"76008","miles_from_dt":19.23},{"city":"Boyd","state_name":"Texas","lat":33.04777,"lng":-97.60425,"zip":"76023","miles_from_dt":19.58},{"city":"Bridgeport","state_name":"Texas","lat":33.16493,"lng":-97.83772,"zip":"76426","miles_from_dt":20.27},{"city":"Fort Worth","state_name":"Texas","lat":32.77943,"lng":-97.51811,"zip":"76108","miles_from_dt":21.4},{"city":"Fort Worth","state_name":"Texas","lat":32.83708,"lng":-97.46621,"zip":"76135","miles_from_dt":23.56},{"city":"Fort Worth","state_name":"Texas","lat":32.89938,"lng":-97.45812,"zip":"76136","miles_from_dt":23.97},{"city":"Newark","state_name":"Texas","lat":33.00613,"lng":-97.47821,"zip":"76071","miles_from_dt":24.52},{"city":"Cresson","state_name":"Texas","lat":32.56172,"lng":-97.64251,"zip":"76035","miles_from_dt":25.13},{"city":"Fort Worth","state_name":"Texas","lat":32.91397,"lng":-97.43947,"zip":"76179","miles_from_dt":25.15},{"city":"Santo","state_name":"Texas","lat":32.60631,"lng":-98.17095,"zip":"76472","miles_from_dt":25.38},{"city":"Fort Worth","state_name":"Texas","lat":32.93294,"lng":-97.43525,"zip":"76192","miles_from_dt":25.57},{"city":"Fort Worth","state_name":"Texas","lat":32.64374,"lng":-97.51767,"zip":"76126","miles_from_dt":25.81},{"city":"Lipan","state_name":"Texas","lat":32.52316,"lng":-98.03421,"zip":"76462","miles_from_dt":25.89},{"city":"Naval Air Station Jrb","state_name":"Texas","lat":32.77663,"lng":-97.43044,"zip":"76127","miles_from_dt":26.36},{"city":"Fort Worth","state_name":"Texas","lat":32.72203,"lng":-97.44986,"zip":"76121","miles_from_dt":26.5},{"city":"Fort Worth","state_name":"Texas","lat":32.72128,"lng":-97.44766,"zip":"76116","miles_from_dt":26.64},{"city":"Graford","state_name":"Texas","lat":32.91592,"lng":-98.32512,"zip":"76449","miles_from_dt":26.68},{"city":"Palo Pinto","state_name":"Texas","lat":32.73147,"lng":-98.30551,"zip":"76484","miles_from_dt":27.18},{"city":"Rhome","state_name":"Texas","lat":33.0896,"lng":-97.46647,"zip":"76078","miles_from_dt":27.78},{"city":"Fort Worth","state_name":"Texas","lat":32.77365,"lng":-97.40417,"zip":"76114","miles_from_dt":27.89},{"city":"Haslet","state_name":"Texas","lat":32.98205,"lng":-97.38037,"zip":"76052","miles_from_dt":29.4},{"city":"Granbury","state_name":"Texas","lat":32.46759,"lng":-97.70645,"zip":"76049","miles_from_dt":29.44},{"city":"Fort Worth","state_name":"Texas","lat":32.74176,"lng":-97.38202,"zip":"76107","miles_from_dt":29.73},{"city":"Fort Worth","state_name":"Texas","lat":32.66743,"lng":-97.41827,"zip":"76132","miles_from_dt":29.79}],"targetCityZipCode":"76485","targetCityState":"Texas"},"__N_SSG":true}