{"pageProps":{"stateName":"Texas","cityName":"pollok","nearbyCities":[{"city":"Wells","state_name":"Texas","lat":31.51546,"lng":-94.93863,"zip":"75976","miles_from_dt":5.26},{"city":"Lufkin","state_name":"Texas","lat":31.33872,"lng":-94.83467,"zip":"75904","miles_from_dt":8.38},{"city":"Lufkin","state_name":"Texas","lat":31.37428,"lng":-94.74796,"zip":"75903","miles_from_dt":10.18},{"city":"Lufkin","state_name":"Texas","lat":31.3228,"lng":-94.80107,"zip":"75902","miles_from_dt":10.32},{"city":"Lufkin","state_name":"Texas","lat":31.33528,"lng":-94.72871,"zip":"75915","miles_from_dt":12.63},{"city":"Douglass","state_name":"Texas","lat":31.65451,"lng":-94.88935,"zip":"75943","miles_from_dt":14.26},{"city":"Alto","state_name":"Texas","lat":31.61018,"lng":-95.05327,"zip":"75925","miles_from_dt":14.48},{"city":"Ratcliff","state_name":"Texas","lat":31.38083,"lng":-95.13676,"zip":"75858","miles_from_dt":14.86},{"city":"Apple Springs","state_name":"Texas","lat":31.23281,"lng":-94.96944,"zip":"75926","miles_from_dt":15.4},{"city":"Nacogdoches","state_name":"Texas","lat":31.63334,"lng":-94.75057,"zip":"75964","miles_from_dt":15.46},{"city":"Kennard","state_name":"Texas","lat":31.35204,"lng":-95.13564,"zip":"75847","miles_from_dt":15.53},{"city":"Centralia","state_name":"Texas","lat":31.25837,"lng":-95.04062,"zip":"75834","miles_from_dt":15.54},{"city":"Lufkin","state_name":"Texas","lat":31.30264,"lng":-94.65481,"zip":"75901","miles_from_dt":17.49},{"city":"Nacogdoches","state_name":"Texas","lat":31.61981,"lng":-94.6484,"zip":"75962","miles_from_dt":18.89},{"city":"Nacogdoches","state_name":"Texas","lat":31.6321,"lng":-94.63732,"zip":"75963","miles_from_dt":19.93},{"city":"Diboll","state_name":"Texas","lat":31.18078,"lng":-94.76219,"zip":"75941","miles_from_dt":20.05},{"city":"Woden","state_name":"Texas","lat":31.50322,"lng":-94.52275,"zip":"75978","miles_from_dt":22.46},{"city":"Nacogdoches","state_name":"Texas","lat":31.5576,"lng":-94.51098,"zip":"75961","miles_from_dt":24.05},{"city":"Cushing","state_name":"Texas","lat":31.80738,"lng":-94.85758,"zip":"75760","miles_from_dt":24.9},{"city":"Nacogdoches","state_name":"Texas","lat":31.7284,"lng":-94.62629,"zip":"75965","miles_from_dt":25.1},{"city":"Sacul","state_name":"Texas","lat":31.82252,"lng":-94.91617,"zip":"75788","miles_from_dt":25.85},{"city":"Groveton","state_name":"Texas","lat":31.09488,"lng":-95.08707,"zip":"75845","miles_from_dt":26.77},{"city":"Huntington","state_name":"Texas","lat":31.22907,"lng":-94.51782,"zip":"75949","miles_from_dt":27.04},{"city":"Pennington","state_name":"Texas","lat":31.20138,"lng":-95.2537,"zip":"75856","miles_from_dt":27.05},{"city":"Woodlake","state_name":"Texas","lat":31.05808,"lng":-94.96228,"zip":"75865","miles_from_dt":27.11},{"city":"Rusk","state_name":"Texas","lat":31.76641,"lng":-95.17446,"zip":"75785","miles_from_dt":27.37},{"city":"Reklaw","state_name":"Texas","lat":31.87344,"lng":-94.96234,"zip":"75784","miles_from_dt":29.58}],"targetCityZipCode":"75969","targetCityState":"Texas"},"__N_SSG":true}