{"pageProps":{"stateName":"Texas","cityName":"prairie-view","nearbyCities":[{"city":"Waller","state_name":"Texas","lat":30.07924,"lng":-95.92812,"zip":"77484","miles_from_dt":3.72},{"city":"Hempstead","state_name":"Texas","lat":30.09562,"lng":-96.06247,"zip":"77445","miles_from_dt":4.41},{"city":"Hockley","state_name":"Texas","lat":30.05178,"lng":-95.82868,"zip":"77447","miles_from_dt":9.94},{"city":"Magnolia","state_name":"Texas","lat":30.1579,"lng":-95.75014,"zip":"77355","miles_from_dt":15.14},{"city":"Chappell Hill","state_name":"Texas","lat":30.11633,"lng":-96.24721,"zip":"77426","miles_from_dt":15.57},{"city":"Magnolia","state_name":"Texas","lat":30.21166,"lng":-95.75701,"zip":"77353","miles_from_dt":16.35},{"city":"Bellville","state_name":"Texas","lat":29.97922,"lng":-96.25063,"zip":"77418","miles_from_dt":17.33},{"city":"Brookshire","state_name":"Texas","lat":29.83386,"lng":-95.98219,"zip":"77423","miles_from_dt":17.45},{"city":"Cypress","state_name":"Texas","lat":29.9492,"lng":-95.73979,"zip":"77433","miles_from_dt":17.73},{"city":"Washington","state_name":"Texas","lat":30.28283,"lng":-96.1863,"zip":"77880","miles_from_dt":17.9},{"city":"Plantersville","state_name":"Texas","lat":30.3267,"lng":-95.85732,"zip":"77363","miles_from_dt":18.3},{"city":"Katy","state_name":"Texas","lat":29.85193,"lng":-95.83025,"zip":"77493","miles_from_dt":18.8},{"city":"Tomball","state_name":"Texas","lat":30.06141,"lng":-95.67608,"zip":"77377","miles_from_dt":18.86},{"city":"Cypress","state_name":"Texas","lat":29.97266,"lng":-95.69681,"zip":"77410","miles_from_dt":19.23},{"city":"Pinehurst","state_name":"Texas","lat":30.16003,"lng":-95.67237,"zip":"77362","miles_from_dt":19.64},{"city":"Pattison","state_name":"Texas","lat":29.80003,"lng":-96.01085,"zip":"77466","miles_from_dt":19.81},{"city":"Navasota","state_name":"Texas","lat":30.36954,"lng":-96.05815,"zip":"77868","miles_from_dt":19.88},{"city":"Kenney","state_name":"Texas","lat":30.04654,"lng":-96.31901,"zip":"77452","miles_from_dt":19.94},{"city":"Cypress","state_name":"Texas","lat":29.99068,"lng":-95.65808,"zip":"77429","miles_from_dt":20.94},{"city":"San Felipe","state_name":"Texas","lat":29.79459,"lng":-96.1038,"zip":"77473","miles_from_dt":21.28},{"city":"Magnolia","state_name":"Texas","lat":30.21113,"lng":-95.65003,"zip":"77354","miles_from_dt":22.04},{"city":"Katy","state_name":"Texas","lat":29.83674,"lng":-95.73547,"zip":"77449","miles_from_dt":23.01},{"city":"Katy","state_name":"Texas","lat":29.78608,"lng":-95.82084,"zip":"77491","miles_from_dt":23.07},{"city":"Dobbin","state_name":"Texas","lat":30.36722,"lng":-95.77248,"zip":"77333","miles_from_dt":23.26},{"city":"Houston","state_name":"Texas","lat":29.90834,"lng":-95.65492,"zip":"77095","miles_from_dt":23.54},{"city":"Montgomery","state_name":"Texas","lat":30.30974,"lng":-95.68528,"zip":"77316","miles_from_dt":23.8},{"city":"Hufsmith","state_name":"Texas","lat":30.12211,"lng":-95.59323,"zip":"77337","miles_from_dt":23.86},{"city":"Tomball","state_name":"Texas","lat":30.09393,"lng":-95.59095,"zip":"77375","miles_from_dt":23.88},{"city":"Sealy","state_name":"Texas","lat":29.77583,"lng":-96.18518,"zip":"77474","miles_from_dt":24.44},{"city":"Brenham","state_name":"Texas","lat":30.16811,"lng":-96.39782,"zip":"77834","miles_from_dt":25.08},{"city":"Katy","state_name":"Texas","lat":29.74703,"lng":-95.82166,"zip":"77492","miles_from_dt":25.5},{"city":"Katy","state_name":"Texas","lat":29.74566,"lng":-95.82302,"zip":"77494","miles_from_dt":25.55},{"city":"Spring","state_name":"Texas","lat":30.02154,"lng":-95.56934,"zip":"77391","miles_from_dt":25.58},{"city":"Houston","state_name":"Texas","lat":29.92673,"lng":-95.60324,"zip":"77065","miles_from_dt":25.66},{"city":"Houston","state_name":"Texas","lat":29.97783,"lng":-95.57377,"zip":"77070","miles_from_dt":26.03},{"city":"Houston","state_name":"Texas","lat":29.97882,"lng":-95.56821,"zip":"77269","miles_from_dt":26.33},{"city":"Brenham","state_name":"Texas","lat":30.20842,"lng":-96.40797,"zip":"77833","miles_from_dt":26.41},{"city":"Houston","state_name":"Texas","lat":29.82698,"lng":-95.6612,"zip":"77084","miles_from_dt":26.62},{"city":"Houston","state_name":"Texas","lat":29.82814,"lng":-95.65304,"zip":"77218","miles_from_dt":26.93},{"city":"Fulshear","state_name":"Texas","lat":29.6955,"lng":-95.90896,"zip":"77441","miles_from_dt":27.4},{"city":"Bleiblerville","state_name":"Texas","lat":30.03117,"lng":-96.44291,"zip":"78931","miles_from_dt":27.44},{"city":"Spring","state_name":"Texas","lat":30.03966,"lng":-95.53305,"zip":"77379","miles_from_dt":27.54},{"city":"Spring","state_name":"Texas","lat":30.19961,"lng":-95.5455,"zip":"77382","miles_from_dt":27.69},{"city":"Houston","state_name":"Texas","lat":29.7738,"lng":-95.69955,"zip":"77094","miles_from_dt":27.72},{"city":"Barker","state_name":"Texas","lat":29.77063,"lng":-95.7023,"zip":"77413","miles_from_dt":27.79},{"city":"Katy","state_name":"Texas","lat":29.74753,"lng":-95.73696,"zip":"77450","miles_from_dt":27.87},{"city":"Simonton","state_name":"Texas","lat":29.67551,"lng":-95.97105,"zip":"77476","miles_from_dt":28.37},{"city":"Houston","state_name":"Texas","lat":29.98631,"lng":-95.52398,"zip":"77069","miles_from_dt":28.75},{"city":"Houston","state_name":"Texas","lat":29.86031,"lng":-95.58548,"zip":"77280","miles_from_dt":28.83},{"city":"Houston","state_name":"Texas","lat":29.92279,"lng":-95.5467,"zip":"77064","miles_from_dt":28.86},{"city":"Spring","state_name":"Texas","lat":30.11509,"lng":-95.50752,"zip":"77389","miles_from_dt":28.93},{"city":"Houston","state_name":"Texas","lat":29.86203,"lng":-95.58187,"zip":"77041","miles_from_dt":28.95},{"city":"Spring","state_name":"Texas","lat":30.17791,"lng":-95.50266,"zip":"77381","miles_from_dt":29.81}],"targetCityZipCode":"77446","targetCityState":"Texas"},"__N_SSG":true}