{"pageProps":{"stateName":"Texas","cityName":"quinlan","nearbyCities":[{"city":"Greenville","state_name":"Texas","lat":33.06724,"lng":-96.08576,"zip":"75402","miles_from_dt":10.41},{"city":"Lone Oak","state_name":"Texas","lat":33.00025,"lng":-95.92817,"zip":"75453","miles_from_dt":11.82},{"city":"Royse City","state_name":"Texas","lat":32.94821,"lng":-96.30941,"zip":"75189","miles_from_dt":12.01},{"city":"Caddo Mills","state_name":"Texas","lat":33.06666,"lng":-96.22567,"zip":"75135","miles_from_dt":12.43},{"city":"Terrell","state_name":"Texas","lat":32.73609,"lng":-96.17129,"zip":"75161","miles_from_dt":13.04},{"city":"Point","state_name":"Texas","lat":32.89177,"lng":-95.87239,"zip":"75472","miles_from_dt":13.7},{"city":"Terrell","state_name":"Texas","lat":32.76466,"lng":-96.29835,"zip":"75160","miles_from_dt":15.34},{"city":"Josephine","state_name":"Texas","lat":33.06963,"lng":-96.3041,"zip":"75164","miles_from_dt":15.58},{"city":"Fate","state_name":"Texas","lat":32.93865,"lng":-96.38046,"zip":"75132","miles_from_dt":16.01},{"city":"Wills Point","state_name":"Texas","lat":32.70335,"lng":-95.99754,"zip":"75169","miles_from_dt":16.03},{"city":"Elmo","state_name":"Texas","lat":32.68509,"lng":-96.21459,"zip":"75118","miles_from_dt":17.19},{"city":"Campbell","state_name":"Texas","lat":33.13889,"lng":-95.93059,"zip":"75422","miles_from_dt":18.37},{"city":"Greenville","state_name":"Texas","lat":33.18506,"lng":-96.11556,"zip":"75401","miles_from_dt":18.47},{"city":"Greenville","state_name":"Texas","lat":33.19283,"lng":-96.10546,"zip":"75404","miles_from_dt":19},{"city":"Nevada","state_name":"Texas","lat":33.05986,"lng":-96.38673,"zip":"75173","miles_from_dt":19.04},{"city":"Rockwall","state_name":"Texas","lat":32.85756,"lng":-96.42858,"zip":"75032","miles_from_dt":19.19},{"city":"Greenville","state_name":"Texas","lat":33.1957,"lng":-96.10597,"zip":"75403","miles_from_dt":19.2},{"city":"Rockwall","state_name":"Texas","lat":32.94581,"lng":-96.44136,"zip":"75087","miles_from_dt":19.58},{"city":"Edgewood","state_name":"Texas","lat":32.71005,"lng":-95.85268,"zip":"75117","miles_from_dt":20.52},{"city":"Emory","state_name":"Texas","lat":32.87507,"lng":-95.75262,"zip":"75440","miles_from_dt":20.75},{"city":"Lavon","state_name":"Texas","lat":33.01671,"lng":-96.4495,"zip":"75166","miles_from_dt":21.1},{"city":"Cumby","state_name":"Texas","lat":33.10883,"lng":-95.80571,"zip":"75433","miles_from_dt":21.88},{"city":"Farmersville","state_name":"Texas","lat":33.17717,"lng":-96.35035,"zip":"75442","miles_from_dt":22.85},{"city":"Copeville","state_name":"Texas","lat":33.17163,"lng":-96.37204,"zip":"75121","miles_from_dt":23.36},{"city":"Forney","state_name":"Texas","lat":32.74361,"lng":-96.45289,"zip":"75126","miles_from_dt":23.45},{"city":"Fruitvale","state_name":"Texas","lat":32.6926,"lng":-95.79262,"zip":"75127","miles_from_dt":23.92},{"city":"Brashear","state_name":"Texas","lat":33.05782,"lng":-95.72503,"zip":"75420","miles_from_dt":24.16},{"city":"Rowlett","state_name":"Texas","lat":32.89368,"lng":-96.53929,"zip":"75088","miles_from_dt":25.23},{"city":"Kaufman","state_name":"Texas","lat":32.57004,"lng":-96.24637,"zip":"75142","miles_from_dt":25.27},{"city":"Rowlett","state_name":"Texas","lat":32.93195,"lng":-96.54435,"zip":"75089","miles_from_dt":25.49},{"city":"Wylie","state_name":"Texas","lat":33.01432,"lng":-96.53531,"zip":"75098","miles_from_dt":25.82},{"city":"Merit","state_name":"Texas","lat":33.2821,"lng":-96.20939,"zip":"75458","miles_from_dt":25.86},{"city":"Celeste","state_name":"Texas","lat":33.29279,"lng":-96.19918,"zip":"75423","miles_from_dt":26.45},{"city":"Rowlett","state_name":"Texas","lat":32.89992,"lng":-96.56373,"zip":"75030","miles_from_dt":26.63},{"city":"Commerce","state_name":"Texas","lat":33.27132,"lng":-95.91799,"zip":"75428","miles_from_dt":26.74},{"city":"Sunnyvale","state_name":"Texas","lat":32.80033,"lng":-96.55425,"zip":"75182","miles_from_dt":27.28},{"city":"Princeton","state_name":"Texas","lat":33.1512,"lng":-96.48808,"zip":"75407","miles_from_dt":27.42},{"city":"Commerce","state_name":"Texas","lat":33.27847,"lng":-95.89231,"zip":"75429","miles_from_dt":27.82},{"city":"Garland","state_name":"Texas","lat":32.8571,"lng":-96.57986,"zip":"75043","miles_from_dt":27.85},{"city":"Sachse","state_name":"Texas","lat":32.9704,"lng":-96.58139,"zip":"75048","miles_from_dt":27.86},{"city":"Alba","state_name":"Texas","lat":32.7921,"lng":-95.63705,"zip":"75410","miles_from_dt":28.61},{"city":"Crandall","state_name":"Texas","lat":32.60769,"lng":-96.44322,"zip":"75114","miles_from_dt":28.98},{"city":"Garland","state_name":"Texas","lat":32.85894,"lng":-96.60296,"zip":"75049","miles_from_dt":29.16},{"city":"Mesquite","state_name":"Texas","lat":32.72696,"lng":-96.555,"zip":"75181","miles_from_dt":29.22},{"city":"Garland","state_name":"Texas","lat":32.92797,"lng":-96.62006,"zip":"75040","miles_from_dt":29.88}],"targetCityZipCode":"75474","targetCityState":"Texas"},"__N_SSG":true}