{"pageProps":{"stateName":"Texas","cityName":"rice","nearbyCities":[{"city":"Chatfield","state_name":"Texas","lat":32.26717,"lng":-96.36682,"zip":"75105","miles_from_dt":6.71},{"city":"Powell","state_name":"Texas","lat":32.17149,"lng":-96.35331,"zip":"75153","miles_from_dt":7.66},{"city":"Ennis","state_name":"Texas","lat":32.32293,"lng":-96.59107,"zip":"75119","miles_from_dt":9.91},{"city":"Corsicana","state_name":"Texas","lat":32.08071,"lng":-96.52344,"zip":"75110","miles_from_dt":10.32},{"city":"Corsicana","state_name":"Texas","lat":32.0539,"lng":-96.52343,"zip":"75151","miles_from_dt":12.09},{"city":"Ennis","state_name":"Texas","lat":32.35419,"lng":-96.62592,"zip":"75120","miles_from_dt":12.87},{"city":"Barry","state_name":"Texas","lat":32.08274,"lng":-96.63999,"zip":"75102","miles_from_dt":13.93},{"city":"Bardwell","state_name":"Texas","lat":32.27003,"lng":-96.70239,"zip":"75101","miles_from_dt":14.04},{"city":"Corsicana","state_name":"Texas","lat":32.04246,"lng":-96.35622,"zip":"75109","miles_from_dt":14.1},{"city":"Kemp","state_name":"Texas","lat":32.36334,"lng":-96.24929,"zip":"75143","miles_from_dt":16.08},{"city":"Rosser","state_name":"Texas","lat":32.46168,"lng":-96.44914,"zip":"75157","miles_from_dt":16.47},{"city":"Blooming Grove","state_name":"Texas","lat":32.10522,"lng":-96.71615,"zip":"76626","miles_from_dt":16.61},{"city":"Kerens","state_name":"Texas","lat":32.11157,"lng":-96.20954,"zip":"75144","miles_from_dt":17.04},{"city":"Scurry","state_name":"Texas","lat":32.46694,"lng":-96.39315,"zip":"75158","miles_from_dt":17.37},{"city":"Waxahachie","state_name":"Texas","lat":32.30535,"lng":-96.7691,"zip":"75168","miles_from_dt":18.46},{"city":"Avalon","state_name":"Texas","lat":32.219,"lng":-96.78879,"zip":"76623","miles_from_dt":18.73},{"city":"Palmer","state_name":"Texas","lat":32.43598,"lng":-96.67444,"zip":"75152","miles_from_dt":18.96},{"city":"Purdon","state_name":"Texas","lat":31.94557,"lng":-96.59358,"zip":"76679","miles_from_dt":20.48},{"city":"Trinidad","state_name":"Texas","lat":32.1672,"lng":-96.10999,"zip":"75163","miles_from_dt":21.39},{"city":"Waxahachie","state_name":"Texas","lat":32.36687,"lng":-96.79677,"zip":"75165","miles_from_dt":21.58},{"city":"Richland","state_name":"Texas","lat":31.91071,"lng":-96.44006,"zip":"76681","miles_from_dt":21.6},{"city":"Mabank","state_name":"Texas","lat":32.28759,"lng":-96.09999,"zip":"75156","miles_from_dt":22.06},{"city":"Frost","state_name":"Texas","lat":32.03847,"lng":-96.78723,"zip":"76641","miles_from_dt":22.58},{"city":"Forreston","state_name":"Texas","lat":32.23911,"lng":-96.85724,"zip":"76041","miles_from_dt":22.76},{"city":"Ferris","state_name":"Texas","lat":32.52983,"lng":-96.61563,"zip":"75125","miles_from_dt":22.8},{"city":"Italy","state_name":"Texas","lat":32.18313,"lng":-96.87158,"zip":"76651","miles_from_dt":23.74},{"city":"Dawson","state_name":"Texas","lat":31.87254,"lng":-96.65551,"zip":"76639","miles_from_dt":26.52},{"city":"Streetman","state_name":"Texas","lat":31.8842,"lng":-96.25512,"zip":"75859","miles_from_dt":26.52},{"city":"Crandall","state_name":"Texas","lat":32.60769,"lng":-96.44322,"zip":"75114","miles_from_dt":26.54},{"city":"Seagoville","state_name":"Texas","lat":32.60652,"lng":-96.53939,"zip":"75159","miles_from_dt":26.73},{"city":"Kaufman","state_name":"Texas","lat":32.57004,"lng":-96.24637,"zip":"75142","miles_from_dt":27.22},{"city":"Mabank","state_name":"Texas","lat":32.42256,"lng":-96.06517,"zip":"75147","miles_from_dt":27.33},{"city":"Mertens","state_name":"Texas","lat":32.04653,"lng":-96.89178,"zip":"76666","miles_from_dt":27.61},{"city":"Malakoff","state_name":"Texas","lat":32.12491,"lng":-96.01173,"zip":"75148","miles_from_dt":27.64},{"city":"Waxahachie","state_name":"Texas","lat":32.36123,"lng":-96.91547,"zip":"75167","miles_from_dt":27.8},{"city":"Irene","state_name":"Texas","lat":31.98994,"lng":-96.86678,"zip":"76650","miles_from_dt":28.33},{"city":"Wortham","state_name":"Texas","lat":31.80977,"lng":-96.43843,"zip":"76693","miles_from_dt":28.54},{"city":"Red Oak","state_name":"Texas","lat":32.52319,"lng":-96.80885,"zip":"75154","miles_from_dt":28.67},{"city":"Wilmer","state_name":"Texas","lat":32.60369,"lng":-96.67458,"zip":"75172","miles_from_dt":28.84},{"city":"Lancaster","state_name":"Texas","lat":32.57608,"lng":-96.75137,"zip":"75146","miles_from_dt":29.39}],"targetCityZipCode":"75155","targetCityState":"Texas"},"__N_SSG":true}