{"pageProps":{"stateName":"Texas","cityName":"rosenberg","nearbyCities":[{"city":"Orchard","state_name":"Texas","lat":29.61807,"lng":-95.94148,"zip":"77464","miles_from_dt":6.37},{"city":"Richmond","state_name":"Texas","lat":29.64571,"lng":-95.79184,"zip":"77406","miles_from_dt":7.93},{"city":"Beasley","state_name":"Texas","lat":29.46633,"lng":-95.9621,"zip":"77417","miles_from_dt":8.17},{"city":"Fulshear","state_name":"Texas","lat":29.6955,"lng":-95.90896,"zip":"77441","miles_from_dt":10.22},{"city":"Simonton","state_name":"Texas","lat":29.67551,"lng":-95.97105,"zip":"77476","miles_from_dt":10.56},{"city":"Richmond","state_name":"Texas","lat":29.49229,"lng":-95.70571,"zip":"77469","miles_from_dt":10.59},{"city":"Kendleton","state_name":"Texas","lat":29.46173,"lng":-96.02688,"zip":"77451","miles_from_dt":11.41},{"city":"Needville","state_name":"Texas","lat":29.39159,"lng":-95.77345,"zip":"77461","miles_from_dt":12.4},{"city":"Richmond","state_name":"Texas","lat":29.67658,"lng":-95.71455,"zip":"77407","miles_from_dt":12.62},{"city":"Wallis","state_name":"Texas","lat":29.64118,"lng":-96.06236,"zip":"77485","miles_from_dt":13.24},{"city":"Katy","state_name":"Texas","lat":29.74566,"lng":-95.82302,"zip":"77494","miles_from_dt":13.64},{"city":"Katy","state_name":"Texas","lat":29.74703,"lng":-95.82166,"zip":"77492","miles_from_dt":13.75},{"city":"Sugar Land","state_name":"Texas","lat":29.56503,"lng":-95.6346,"zip":"77479","miles_from_dt":14.08},{"city":"Sugar Land","state_name":"Texas","lat":29.64224,"lng":-95.65244,"zip":"77498","miles_from_dt":14.39},{"city":"Sugar Land","state_name":"Texas","lat":29.6202,"lng":-95.63775,"zip":"77496","miles_from_dt":14.64},{"city":"Sugar Land","state_name":"Texas","lat":29.6186,"lng":-95.63687,"zip":"77487","miles_from_dt":14.65},{"city":"Katy","state_name":"Texas","lat":29.74753,"lng":-95.73696,"zip":"77450","miles_from_dt":15.63},{"city":"East Bernard","state_name":"Texas","lat":29.51111,"lng":-96.12395,"zip":"77435","miles_from_dt":15.68},{"city":"Hungerford","state_name":"Texas","lat":29.4147,"lng":-96.08746,"zip":"77448","miles_from_dt":16.25},{"city":"Sugar Land","state_name":"Texas","lat":29.61896,"lng":-95.6077,"zip":"77478","miles_from_dt":16.33},{"city":"Katy","state_name":"Texas","lat":29.78608,"lng":-95.82084,"zip":"77491","miles_from_dt":16.4},{"city":"Houston","state_name":"Texas","lat":29.69316,"lng":-95.64858,"zip":"77083","miles_from_dt":16.41},{"city":"Houston","state_name":"Texas","lat":29.72383,"lng":-95.6414,"zip":"77082","miles_from_dt":18.07},{"city":"Barker","state_name":"Texas","lat":29.77063,"lng":-95.7023,"zip":"77413","miles_from_dt":18.08},{"city":"Houston","state_name":"Texas","lat":29.7738,"lng":-95.69955,"zip":"77094","miles_from_dt":18.35},{"city":"Guy","state_name":"Texas","lat":29.29641,"lng":-95.77794,"zip":"77444","miles_from_dt":18.39},{"city":"Thompsons","state_name":"Texas","lat":29.47053,"lng":-95.56975,"zip":"77481","miles_from_dt":18.81},{"city":"Stafford","state_name":"Texas","lat":29.62625,"lng":-95.56718,"zip":"77477","miles_from_dt":18.82},{"city":"Houston","state_name":"Texas","lat":29.67067,"lng":-95.58485,"zip":"77099","miles_from_dt":18.9},{"city":"Pattison","state_name":"Texas","lat":29.80003,"lng":-96.01085,"zip":"77466","miles_from_dt":19.15},{"city":"Stafford","state_name":"Texas","lat":29.61558,"lng":-95.55467,"zip":"77497","miles_from_dt":19.36},{"city":"Houston","state_name":"Texas","lat":29.75375,"lng":-95.64189,"zip":"77077","miles_from_dt":19.46},{"city":"Houston","state_name":"Texas","lat":29.70006,"lng":-95.58539,"zip":"77072","miles_from_dt":19.84},{"city":"Houston","state_name":"Texas","lat":29.69984,"lng":-95.58269,"zip":"77272","miles_from_dt":19.97},{"city":"Missouri City","state_name":"Texas","lat":29.52691,"lng":-95.53407,"zip":"77459","miles_from_dt":20.17},{"city":"Houston","state_name":"Texas","lat":29.74541,"lng":-95.61334,"zip":"77282","miles_from_dt":20.31},{"city":"Houston","state_name":"Texas","lat":29.65434,"lng":-95.54622,"zip":"77031","miles_from_dt":20.61},{"city":"Brookshire","state_name":"Texas","lat":29.83386,"lng":-95.98219,"zip":"77423","miles_from_dt":20.62},{"city":"Alief","state_name":"Texas","lat":29.7308,"lng":-95.59262,"zip":"77411","miles_from_dt":20.65},{"city":"Katy","state_name":"Texas","lat":29.85193,"lng":-95.83025,"zip":"77493","miles_from_dt":20.81},{"city":"Katy","state_name":"Texas","lat":29.83674,"lng":-95.73547,"zip":"77449","miles_from_dt":21.19},{"city":"Missouri City","state_name":"Texas","lat":29.60068,"lng":-95.51605,"zip":"77489","miles_from_dt":21.45},{"city":"Lissie","state_name":"Texas","lat":29.54304,"lng":-96.23044,"zip":"77454","miles_from_dt":21.84},{"city":"Houston","state_name":"Texas","lat":29.65966,"lng":-95.52638,"zip":"77271","miles_from_dt":21.86},{"city":"San Felipe","state_name":"Texas","lat":29.79459,"lng":-96.1038,"zip":"77473","miles_from_dt":21.94},{"city":"Houston","state_name":"Texas","lat":29.65265,"lng":-95.52046,"zip":"77071","miles_from_dt":22.04},{"city":"Boling","state_name":"Texas","lat":29.23404,"lng":-95.91908,"zip":"77420","miles_from_dt":22.09},{"city":"Houston","state_name":"Texas","lat":29.77632,"lng":-95.6037,"zip":"77079","miles_from_dt":22.18},{"city":"Houston","state_name":"Texas","lat":29.77755,"lng":-95.60326,"zip":"77244","miles_from_dt":22.26},{"city":"Wharton","state_name":"Texas","lat":29.29833,"lng":-96.09821,"zip":"77488","miles_from_dt":22.3},{"city":"Houston","state_name":"Texas","lat":29.73257,"lng":-95.55978,"zip":"77242","miles_from_dt":22.34},{"city":"Houston","state_name":"Texas","lat":29.7026,"lng":-95.53899,"zip":"77251","miles_from_dt":22.36},{"city":"Houston","state_name":"Texas","lat":29.70119,"lng":-95.53659,"zip":"77036","miles_from_dt":22.44},{"city":"Houston","state_name":"Texas","lat":29.74125,"lng":-95.56015,"zip":"77042","miles_from_dt":22.66},{"city":"Houston","state_name":"Texas","lat":29.82698,"lng":-95.6612,"zip":"77084","miles_from_dt":22.68},{"city":"Houston","state_name":"Texas","lat":29.82814,"lng":-95.65304,"zip":"77218","miles_from_dt":23.02},{"city":"Houston","state_name":"Texas","lat":29.68799,"lng":-95.51644,"zip":"77274","miles_from_dt":23.14},{"city":"Houston","state_name":"Texas","lat":29.68821,"lng":-95.51633,"zip":"77074","miles_from_dt":23.15},{"city":"Glen Flora","state_name":"Texas","lat":29.35835,"lng":-96.18255,"zip":"77443","miles_from_dt":23.17},{"city":"Damon","state_name":"Texas","lat":29.26487,"lng":-95.65616,"zip":"77430","miles_from_dt":23.51},{"city":"Houston","state_name":"Texas","lat":29.62465,"lng":-95.48411,"zip":"77085","miles_from_dt":23.64},{"city":"Lane City","state_name":"Texas","lat":29.23303,"lng":-96.01802,"zip":"77453","miles_from_dt":23.74},{"city":"Fresno","state_name":"Texas","lat":29.53729,"lng":-95.47242,"zip":"77545","miles_from_dt":23.84},{"city":"Houston","state_name":"Texas","lat":29.72856,"lng":-95.5192,"zip":"77263","miles_from_dt":24.26},{"city":"Houston","state_name":"Texas","lat":29.6541,"lng":-95.48112,"zip":"77235","miles_from_dt":24.32},{"city":"Houston","state_name":"Texas","lat":29.7356,"lng":-95.52157,"zip":"77063","miles_from_dt":24.39},{"city":"Houston","state_name":"Texas","lat":29.7365,"lng":-95.52117,"zip":"77215","miles_from_dt":24.44},{"city":"Houston","state_name":"Texas","lat":29.65269,"lng":-95.47688,"zip":"77035","miles_from_dt":24.54},{"city":"Sealy","state_name":"Texas","lat":29.77583,"lng":-96.18518,"zip":"77474","miles_from_dt":24.55},{"city":"Houston","state_name":"Texas","lat":29.65433,"lng":-95.4754,"zip":"77231","miles_from_dt":24.66},{"city":"Houston","state_name":"Texas","lat":29.58549,"lng":-95.45991,"zip":"77053","miles_from_dt":24.67},{"city":"Houston","state_name":"Texas","lat":29.70724,"lng":-95.49797,"zip":"77236","miles_from_dt":24.7},{"city":"Houston","state_name":"Texas","lat":29.67464,"lng":-95.47965,"zip":"77096","miles_from_dt":24.85},{"city":"Houston","state_name":"Texas","lat":29.8112,"lng":-95.57981,"zip":"77043","miles_from_dt":24.9},{"city":"Egypt","state_name":"Texas","lat":29.38874,"lng":-96.23832,"zip":"77436","miles_from_dt":24.99},{"city":"Houston","state_name":"Texas","lat":29.7341,"lng":-95.49864,"zip":"77237","miles_from_dt":25.52},{"city":"Houston","state_name":"Texas","lat":29.71219,"lng":-95.48026,"zip":"77081","miles_from_dt":25.81},{"city":"Bellaire","state_name":"Texas","lat":29.70662,"lng":-95.47534,"zip":"77402","miles_from_dt":25.92},{"city":"Houston","state_name":"Texas","lat":29.77159,"lng":-95.51682,"zip":"77224","miles_from_dt":25.99},{"city":"Houston","state_name":"Texas","lat":29.76812,"lng":-95.51034,"zip":"77279","miles_from_dt":26.17},{"city":"Houston","state_name":"Texas","lat":29.77073,"lng":-95.50869,"zip":"77024","miles_from_dt":26.36},{"city":"Houston","state_name":"Texas","lat":29.74522,"lng":-95.48885,"zip":"77057","miles_from_dt":26.42},{"city":"Houston","state_name":"Texas","lat":29.74458,"lng":-95.48617,"zip":"77257","miles_from_dt":26.53},{"city":"Bellaire","state_name":"Texas","lat":29.70398,"lng":-95.46192,"zip":"77401","miles_from_dt":26.59},{"city":"Houston","state_name":"Texas","lat":29.64035,"lng":-95.43586,"zip":"77245","miles_from_dt":26.71},{"city":"Houston","state_name":"Texas","lat":29.63634,"lng":-95.43279,"zip":"77045","miles_from_dt":26.83},{"city":"Houston","state_name":"Texas","lat":29.86031,"lng":-95.58548,"zip":"77280","miles_from_dt":27.21},{"city":"Eagle Lake","state_name":"Texas","lat":29.52577,"lng":-96.31983,"zip":"77434","miles_from_dt":27.28},{"city":"Rosharon","state_name":"Texas","lat":29.37763,"lng":-95.4585,"zip":"77583","miles_from_dt":27.43},{"city":"Houston","state_name":"Texas","lat":29.86203,"lng":-95.58187,"zip":"77041","miles_from_dt":27.44},{"city":"Houston","state_name":"Texas","lat":29.81662,"lng":-95.52375,"zip":"77080","miles_from_dt":27.6},{"city":"Houston","state_name":"Texas","lat":29.74849,"lng":-95.46806,"zip":"77056","miles_from_dt":27.61},{"city":"Houston","state_name":"Texas","lat":29.68584,"lng":-95.43512,"zip":"77025","miles_from_dt":27.64},{"city":"Houston","state_name":"Texas","lat":29.90834,"lng":-95.65492,"zip":"77095","miles_from_dt":27.71},{"city":"Pledger","state_name":"Texas","lat":29.14681,"lng":-95.85173,"zip":"77468","miles_from_dt":27.9},{"city":"Houston","state_name":"Texas","lat":29.79757,"lng":-95.4928,"zip":"77055","miles_from_dt":28.21},{"city":"Houston","state_name":"Texas","lat":29.79679,"lng":-95.49197,"zip":"77243","miles_from_dt":28.22},{"city":"Houston","state_name":"Texas","lat":29.8044,"lng":-95.49623,"zip":"77255","miles_from_dt":28.33},{"city":"Houston","state_name":"Texas","lat":29.73698,"lng":-95.44727,"zip":"77227","miles_from_dt":28.34},{"city":"Cypress","state_name":"Texas","lat":29.9492,"lng":-95.73979,"zip":"77433","miles_from_dt":28.45},{"city":"Houston","state_name":"Texas","lat":29.73919,"lng":-95.44609,"zip":"77027","miles_from_dt":28.48},{"city":"Houston","state_name":"Texas","lat":29.71984,"lng":-95.43081,"zip":"77265","miles_from_dt":28.74},{"city":"Houston","state_name":"Texas","lat":29.71673,"lng":-95.42814,"zip":"77277","miles_from_dt":28.8},{"city":"Houston","state_name":"Texas","lat":29.69311,"lng":-95.41646,"zip":"77225","miles_from_dt":28.86},{"city":"Houston","state_name":"Texas","lat":29.73833,"lng":-95.43631,"zip":"77256","miles_from_dt":28.98},{"city":"Danciger","state_name":"Texas","lat":29.13239,"lng":-95.82309,"zip":"77431","miles_from_dt":29},{"city":"Houston","state_name":"Texas","lat":29.73438,"lng":-95.43301,"zip":"77046","miles_from_dt":29.03},{"city":"Houston","state_name":"Texas","lat":29.85884,"lng":-95.53705,"zip":"77241","miles_from_dt":29.04},{"city":"Houston","state_name":"Texas","lat":29.71824,"lng":-95.42413,"zip":"77005","miles_from_dt":29.06},{"city":"Pierce","state_name":"Texas","lat":29.23345,"lng":-96.18563,"zip":"77467","miles_from_dt":29.11},{"city":"Houston","state_name":"Texas","lat":29.60843,"lng":-95.38662,"zip":"77047","miles_from_dt":29.24},{"city":"Houston","state_name":"Texas","lat":29.68102,"lng":-95.40424,"zip":"77054","miles_from_dt":29.29},{"city":"West Columbia","state_name":"Texas","lat":29.15495,"lng":-95.6805,"zip":"77486","miles_from_dt":29.56},{"city":"Houston","state_name":"Texas","lat":29.70597,"lng":-95.40253,"zip":"77030","miles_from_dt":29.95}],"targetCityZipCode":"77471","targetCityState":"Texas"},"__N_SSG":true}