{"pageProps":{"stateName":"Texas","cityName":"sabine-pass","nearbyCities":[{"city":"Port Arthur","state_name":"Texas","lat":29.79233,"lng":-93.93402,"zip":"77641","miles_from_dt":5.56},{"city":"Port Arthur","state_name":"Texas","lat":29.88021,"lng":-93.94152,"zip":"77640","miles_from_dt":11.51},{"city":"Port Arthur","state_name":"Texas","lat":29.90075,"lng":-93.93194,"zip":"77643","miles_from_dt":12.97},{"city":"Port Arthur","state_name":"Texas","lat":29.93917,"lng":-93.91606,"zip":"77642","miles_from_dt":15.71},{"city":"Groves","state_name":"Texas","lat":29.94549,"lng":-93.9165,"zip":"77619","miles_from_dt":16.14},{"city":"Port Neches","state_name":"Texas","lat":29.98036,"lng":-93.94821,"zip":"77651","miles_from_dt":18.39},{"city":"Beaumont","state_name":"Texas","lat":29.90652,"lng":-94.16961,"zip":"77705","miles_from_dt":18.61},{"city":"Nederland","state_name":"Texas","lat":29.99095,"lng":-94.00772,"zip":"77627","miles_from_dt":19.4},{"city":"Bridge City","state_name":"Texas","lat":30.01259,"lng":-93.8222,"zip":"77611","miles_from_dt":22.06},{"city":"Hamshire","state_name":"Texas","lat":29.85741,"lng":-94.29467,"zip":"77622","miles_from_dt":22.8},{"city":"Orangefield","state_name":"Texas","lat":30.05321,"lng":-93.85617,"zip":"77639","miles_from_dt":24.12},{"city":"Orange","state_name":"Texas","lat":30.06534,"lng":-93.86844,"zip":"77630","miles_from_dt":24.77},{"city":"Stowell","state_name":"Texas","lat":29.78021,"lng":-94.36861,"zip":"77661","miles_from_dt":25.4},{"city":"Beaumont","state_name":"Texas","lat":30.03555,"lng":-94.15923,"zip":"77720","miles_from_dt":25.41},{"city":"Beaumont","state_name":"Texas","lat":30.06887,"lng":-94.09935,"zip":"77710","miles_from_dt":26.01},{"city":"Cameron","state_name":"Louisiana","lat":29.86692,"lng":-93.55404,"zip":"70631","miles_from_dt":26.2},{"city":"Beaumont","state_name":"Texas","lat":30.07259,"lng":-94.10312,"zip":"77704","miles_from_dt":26.33},{"city":"Beaumont","state_name":"Texas","lat":30.07321,"lng":-94.10579,"zip":"77701","miles_from_dt":26.43},{"city":"Beaumont","state_name":"Texas","lat":30.05323,"lng":-94.1748,"zip":"77707","miles_from_dt":26.93},{"city":"Beaumont","state_name":"Texas","lat":30.0879,"lng":-94.10193,"zip":"77725","miles_from_dt":27.3},{"city":"Beaumont","state_name":"Texas","lat":30.08624,"lng":-94.12825,"zip":"77702","miles_from_dt":27.75},{"city":"Winnie","state_name":"Texas","lat":29.78697,"lng":-94.40969,"zip":"77665","miles_from_dt":27.91},{"city":"Vidor","state_name":"Texas","lat":30.12173,"lng":-94.012,"zip":"77670","miles_from_dt":28.35},{"city":"Beaumont","state_name":"Texas","lat":30.09111,"lng":-94.14596,"zip":"77726","miles_from_dt":28.48},{"city":"Beaumont","state_name":"Texas","lat":30.11522,"lng":-94.10906,"zip":"77703","miles_from_dt":29.22},{"city":"Orange","state_name":"Texas","lat":30.09276,"lng":-93.73204,"zip":"77631","miles_from_dt":29.31},{"city":"Beaumont","state_name":"Texas","lat":30.10049,"lng":-94.16717,"zip":"77706","miles_from_dt":29.6},{"city":"High Island","state_name":"Texas","lat":29.55957,"lng":-94.41621,"zip":"77623","miles_from_dt":29.81}],"targetCityZipCode":"77655","targetCityState":"Texas"},"__N_SSG":true}