{"pageProps":{"stateName":"Texas","cityName":"saltillo","nearbyCities":[{"city":"Mount Vernon","state_name":"Texas","lat":33.1746,"lng":-95.21125,"zip":"75457","miles_from_dt":8.17},{"city":"Dike","state_name":"Texas","lat":33.25605,"lng":-95.46567,"zip":"75437","miles_from_dt":8.72},{"city":"Pickton","state_name":"Texas","lat":33.04431,"lng":-95.38883,"zip":"75471","miles_from_dt":9.1},{"city":"Sulphur Bluff","state_name":"Texas","lat":33.31751,"lng":-95.37485,"zip":"75481","miles_from_dt":10.06},{"city":"Como","state_name":"Texas","lat":33.0073,"lng":-95.4628,"zip":"75431","miles_from_dt":13.08},{"city":"Scroggins","state_name":"Texas","lat":33.02129,"lng":-95.19159,"zip":"75480","miles_from_dt":13.99},{"city":"Winfield","state_name":"Texas","lat":33.14073,"lng":-95.11316,"zip":"75493","miles_from_dt":14.03},{"city":"Sulphur Springs","state_name":"Texas","lat":33.14222,"lng":-95.59786,"zip":"75483","miles_from_dt":14.39},{"city":"Sulphur Springs","state_name":"Texas","lat":33.16929,"lng":-95.60946,"zip":"75482","miles_from_dt":14.91},{"city":"Talco","state_name":"Texas","lat":33.33584,"lng":-95.16567,"zip":"75487","miles_from_dt":15.59},{"city":"Cunningham","state_name":"Texas","lat":33.41258,"lng":-95.35171,"zip":"75434","miles_from_dt":16.53},{"city":"Lake Creek","state_name":"Texas","lat":33.40465,"lng":-95.47481,"zip":"75450","miles_from_dt":17.48},{"city":"Winnsboro","state_name":"Texas","lat":32.90898,"lng":-95.26126,"zip":"75494","miles_from_dt":18.93},{"city":"Leesburg","state_name":"Texas","lat":32.96247,"lng":-95.11835,"zip":"75451","miles_from_dt":19.86},{"city":"Yantis","state_name":"Texas","lat":32.92098,"lng":-95.5764,"zip":"75497","miles_from_dt":21.69},{"city":"Mount Pleasant","state_name":"Texas","lat":33.21725,"lng":-94.98022,"zip":"75455","miles_from_dt":21.77},{"city":"Mount Pleasant","state_name":"Texas","lat":33.15819,"lng":-94.96805,"zip":"75456","miles_from_dt":22.29},{"city":"Bogata","state_name":"Texas","lat":33.43827,"lng":-95.13114,"zip":"75417","miles_from_dt":22.33},{"city":"Deport","state_name":"Texas","lat":33.50175,"lng":-95.29522,"zip":"75435","miles_from_dt":22.91},{"city":"Brashear","state_name":"Texas","lat":33.05782,"lng":-95.72503,"zip":"75420","miles_from_dt":23.02},{"city":"Pattonville","state_name":"Texas","lat":33.51175,"lng":-95.40747,"zip":"75468","miles_from_dt":23.58},{"city":"Cooper","state_name":"Texas","lat":33.38912,"lng":-95.66804,"zip":"75432","miles_from_dt":23.59},{"city":"Quitman","state_name":"Texas","lat":32.82227,"lng":-95.42386,"zip":"75783","miles_from_dt":24.51},{"city":"Enloe","state_name":"Texas","lat":33.4296,"lng":-95.65456,"zip":"75441","miles_from_dt":24.89},{"city":"Cumby","state_name":"Texas","lat":33.10883,"lng":-95.80571,"zip":"75433","miles_from_dt":26.66},{"city":"Pittsburg","state_name":"Texas","lat":32.96921,"lng":-94.94697,"zip":"75686","miles_from_dt":27.38},{"city":"Klondike","state_name":"Texas","lat":33.31478,"lng":-95.79681,"zip":"75448","miles_from_dt":27.54},{"city":"Cookville","state_name":"Texas","lat":33.25017,"lng":-94.85564,"zip":"75558","miles_from_dt":29.26}],"targetCityZipCode":"75478","targetCityState":"Texas"},"__N_SSG":true}