{"pageProps":{"stateName":"Texas","cityName":"silver","nearbyCities":[{"city":"Robert Lee","state_name":"Texas","lat":31.87297,"lng":-100.60292,"zip":"76945","miles_from_dt":12.51},{"city":"Maryneal","state_name":"Texas","lat":32.2219,"lng":-100.48421,"zip":"79535","miles_from_dt":16.98},{"city":"Blackwell","state_name":"Texas","lat":32.11366,"lng":-100.32613,"zip":"79506","miles_from_dt":21.45},{"city":"Colorado City","state_name":"Texas","lat":32.32614,"lng":-100.92807,"zip":"79512","miles_from_dt":24.34},{"city":"Loraine","state_name":"Texas","lat":32.40804,"lng":-100.71357,"zip":"79532","miles_from_dt":25.31},{"city":"Bronte","state_name":"Texas","lat":31.87618,"lng":-100.28544,"zip":"76933","miles_from_dt":25.92},{"city":"Sterling City","state_name":"Texas","lat":31.81255,"lng":-101.04709,"zip":"76951","miles_from_dt":26.64},{"city":"Roscoe","state_name":"Texas","lat":32.41806,"lng":-100.57753,"zip":"79545","miles_from_dt":26.64},{"city":"Water Valley","state_name":"Texas","lat":31.64467,"lng":-100.75515,"zip":"76958","miles_from_dt":27.69},{"city":"Carlsbad","state_name":"Texas","lat":31.61491,"lng":-100.67661,"zip":"76934","miles_from_dt":29.4}],"targetCityZipCode":"76949","targetCityState":"Texas"},"__N_SSG":true}