{"pageProps":{"stateName":"Texas","cityName":"spade","nearbyCities":[{"city":"Anton","state_name":"Texas","lat":33.8126,"lng":-102.16093,"zip":"79313","miles_from_dt":9},{"city":"Cotton Center","state_name":"Texas","lat":33.98366,"lng":-101.99302,"zip":"79021","miles_from_dt":9.94},{"city":"Fieldton","state_name":"Texas","lat":34.09913,"lng":-102.21433,"zip":"79326","miles_from_dt":11.2},{"city":"Littlefield","state_name":"Texas","lat":33.87938,"lng":-102.34682,"zip":"79339","miles_from_dt":11.65},{"city":"Plainview","state_name":"Texas","lat":33.95608,"lng":-101.94924,"zip":"79073","miles_from_dt":12.09},{"city":"Hale Center","state_name":"Texas","lat":34.0376,"lng":-101.93466,"zip":"79041","miles_from_dt":14.44},{"city":"Amherst","state_name":"Texas","lat":34.06218,"lng":-102.36794,"zip":"79312","miles_from_dt":14.52},{"city":"Olton","state_name":"Texas","lat":34.17738,"lng":-102.12699,"zip":"79064","miles_from_dt":16.24},{"city":"Abernathy","state_name":"Texas","lat":33.85781,"lng":-101.88228,"zip":"79311","miles_from_dt":16.97},{"city":"Whitharral","state_name":"Texas","lat":33.73913,"lng":-102.32784,"zip":"79380","miles_from_dt":17.09},{"city":"Shallowater","state_name":"Texas","lat":33.70769,"lng":-102.03804,"zip":"79363","miles_from_dt":17.67},{"city":"Springlake","state_name":"Texas","lat":34.21881,"lng":-102.2862,"zip":"79082","miles_from_dt":20.34},{"city":"Lubbock","state_name":"Texas","lat":33.69863,"lng":-101.90497,"zip":"79415","miles_from_dt":22.32},{"city":"New Deal","state_name":"Texas","lat":33.73115,"lng":-101.82296,"zip":"79350","miles_from_dt":24.24},{"city":"Smyer","state_name":"Texas","lat":33.58938,"lng":-102.16805,"zip":"79367","miles_from_dt":24.39},{"city":"Lubbock","state_name":"Texas","lat":33.60473,"lng":-101.97658,"zip":"79416","miles_from_dt":25.59},{"city":"Lubbock","state_name":"Texas","lat":33.56566,"lng":-102.08895,"zip":"79407","miles_from_dt":26.33},{"city":"Levelland","state_name":"Texas","lat":33.59238,"lng":-102.35724,"zip":"79338","miles_from_dt":26.73},{"city":"Earth","state_name":"Texas","lat":34.24501,"lng":-102.45225,"zip":"79031","miles_from_dt":26.74},{"city":"Pep","state_name":"Texas","lat":33.78723,"lng":-102.58723,"zip":"79353","miles_from_dt":26.86},{"city":"Lubbock","state_name":"Texas","lat":33.58076,"lng":-101.97765,"zip":"79408","miles_from_dt":27.08},{"city":"Lubbock","state_name":"Texas","lat":33.57656,"lng":-101.98281,"zip":"79490","miles_from_dt":27.23},{"city":"Lubbock","state_name":"Texas","lat":33.60805,"lng":-101.90736,"zip":"79499","miles_from_dt":27.27},{"city":"Levelland","state_name":"Texas","lat":33.59962,"lng":-102.40214,"zip":"79336","miles_from_dt":27.5},{"city":"Edmonson","state_name":"Texas","lat":34.2878,"lng":-101.89492,"zip":"79032","miles_from_dt":28.17},{"city":"Lubbock","state_name":"Texas","lat":33.59275,"lng":-101.89879,"zip":"79430","miles_from_dt":28.43},{"city":"Plainview","state_name":"Texas","lat":34.1719,"lng":-101.745,"zip":"79072","miles_from_dt":28.51},{"city":"Hart","state_name":"Texas","lat":34.36761,"lng":-102.1374,"zip":"79043","miles_from_dt":29.28},{"city":"Lubbock","state_name":"Texas","lat":33.58336,"lng":-101.88082,"zip":"79406","miles_from_dt":29.53}],"targetCityZipCode":"79369","targetCityState":"Texas"},"__N_SSG":true}