{"pageProps":{"stateName":"Texas","cityName":"sulphur-springs","nearbyCities":[{"city":"Sulphur Springs","state_name":"Texas","lat":33.14222,"lng":-95.59786,"zip":"75483","miles_from_dt":1.98},{"city":"Brashear","state_name":"Texas","lat":33.05782,"lng":-95.72503,"zip":"75420","miles_from_dt":10.19},{"city":"Dike","state_name":"Texas","lat":33.25605,"lng":-95.46567,"zip":"75437","miles_from_dt":10.25},{"city":"Cumby","state_name":"Texas","lat":33.10883,"lng":-95.80571,"zip":"75433","miles_from_dt":12.12},{"city":"Como","state_name":"Texas","lat":33.0073,"lng":-95.4628,"zip":"75431","miles_from_dt":14.04},{"city":"Klondike","state_name":"Texas","lat":33.31478,"lng":-95.79681,"zip":"75448","miles_from_dt":14.77},{"city":"Saltillo","state_name":"Texas","lat":33.17276,"lng":-95.35226,"zip":"75478","miles_from_dt":14.91},{"city":"Pickton","state_name":"Texas","lat":33.04431,"lng":-95.38883,"zip":"75471","miles_from_dt":15.42},{"city":"Cooper","state_name":"Texas","lat":33.38912,"lng":-95.66804,"zip":"75432","miles_from_dt":15.52},{"city":"Sulphur Bluff","state_name":"Texas","lat":33.31751,"lng":-95.37485,"zip":"75481","miles_from_dt":17},{"city":"Yantis","state_name":"Texas","lat":32.92098,"lng":-95.5764,"zip":"75497","miles_from_dt":17.22},{"city":"Lake Creek","state_name":"Texas","lat":33.40465,"lng":-95.47481,"zip":"75450","miles_from_dt":18},{"city":"Commerce","state_name":"Texas","lat":33.27847,"lng":-95.89231,"zip":"75429","miles_from_dt":18.03},{"city":"Enloe","state_name":"Texas","lat":33.4296,"lng":-95.65456,"zip":"75441","miles_from_dt":18.13},{"city":"Campbell","state_name":"Texas","lat":33.13889,"lng":-95.93059,"zip":"75422","miles_from_dt":18.73},{"city":"Commerce","state_name":"Texas","lat":33.27132,"lng":-95.91799,"zip":"75428","miles_from_dt":19.2},{"city":"Pecan Gap","state_name":"Texas","lat":33.41269,"lng":-95.8248,"zip":"75469","miles_from_dt":20.9},{"city":"Ben Franklin","state_name":"Texas","lat":33.4645,"lng":-95.74603,"zip":"75415","miles_from_dt":21.83},{"city":"Lone Oak","state_name":"Texas","lat":33.00025,"lng":-95.92817,"zip":"75453","miles_from_dt":21.85},{"city":"Emory","state_name":"Texas","lat":32.87507,"lng":-95.75262,"zip":"75440","miles_from_dt":21.91},{"city":"Cunningham","state_name":"Texas","lat":33.41258,"lng":-95.35171,"zip":"75434","miles_from_dt":22.44},{"city":"Mount Vernon","state_name":"Texas","lat":33.1746,"lng":-95.21125,"zip":"75457","miles_from_dt":23.08},{"city":"Point","state_name":"Texas","lat":32.89177,"lng":-95.87239,"zip":"75472","miles_from_dt":24.47},{"city":"Roxton","state_name":"Texas","lat":33.53118,"lng":-95.73429,"zip":"75477","miles_from_dt":25.96},{"city":"Alba","state_name":"Texas","lat":32.7921,"lng":-95.63705,"zip":"75410","miles_from_dt":26.04},{"city":"Quitman","state_name":"Texas","lat":32.82227,"lng":-95.42386,"zip":"75783","miles_from_dt":26.23},{"city":"Scroggins","state_name":"Texas","lat":33.02129,"lng":-95.19159,"zip":"75480","miles_from_dt":26.3},{"city":"Ladonia","state_name":"Texas","lat":33.423,"lng":-95.9493,"zip":"75449","miles_from_dt":26.32},{"city":"Pattonville","state_name":"Texas","lat":33.51175,"lng":-95.40747,"zip":"75468","miles_from_dt":26.34},{"city":"Winnsboro","state_name":"Texas","lat":32.90898,"lng":-95.26126,"zip":"75494","miles_from_dt":27.02},{"city":"Golden","state_name":"Texas","lat":32.77721,"lng":-95.58866,"zip":"75444","miles_from_dt":27.05},{"city":"Talco","state_name":"Texas","lat":33.33584,"lng":-95.16567,"zip":"75487","miles_from_dt":28.14},{"city":"Greenville","state_name":"Texas","lat":33.06724,"lng":-96.08576,"zip":"75402","miles_from_dt":28.5},{"city":"Greenville","state_name":"Texas","lat":33.19283,"lng":-96.10546,"zip":"75404","miles_from_dt":28.79},{"city":"Greenville","state_name":"Texas","lat":33.1957,"lng":-96.10597,"zip":"75403","miles_from_dt":28.83},{"city":"Winfield","state_name":"Texas","lat":33.14073,"lng":-95.11316,"zip":"75493","miles_from_dt":28.84},{"city":"Deport","state_name":"Texas","lat":33.50175,"lng":-95.29522,"zip":"75435","miles_from_dt":29.25},{"city":"Greenville","state_name":"Texas","lat":33.18506,"lng":-96.11556,"zip":"75401","miles_from_dt":29.35},{"city":"Wolfe City","state_name":"Texas","lat":33.36276,"lng":-96.06616,"zip":"75496","miles_from_dt":29.61}],"targetCityZipCode":"75482","targetCityState":"Texas"},"__N_SSG":true}