{"pageProps":{"stateName":"Texas","cityName":"thompsons","nearbyCities":[{"city":"Missouri City","state_name":"Texas","lat":29.52691,"lng":-95.53407,"zip":"77459","miles_from_dt":4.44},{"city":"Fresno","state_name":"Texas","lat":29.53729,"lng":-95.47242,"zip":"77545","miles_from_dt":7.45},{"city":"Sugar Land","state_name":"Texas","lat":29.56503,"lng":-95.6346,"zip":"77479","miles_from_dt":7.59},{"city":"Richmond","state_name":"Texas","lat":29.49229,"lng":-95.70571,"zip":"77469","miles_from_dt":8.33},{"city":"Rosharon","state_name":"Texas","lat":29.37763,"lng":-95.4585,"zip":"77583","miles_from_dt":9.27},{"city":"Missouri City","state_name":"Texas","lat":29.60068,"lng":-95.51605,"zip":"77489","miles_from_dt":9.53},{"city":"Stafford","state_name":"Texas","lat":29.61558,"lng":-95.55467,"zip":"77497","miles_from_dt":10.03},{"city":"Houston","state_name":"Texas","lat":29.58549,"lng":-95.45991,"zip":"77053","miles_from_dt":10.32},{"city":"Sugar Land","state_name":"Texas","lat":29.61896,"lng":-95.6077,"zip":"77478","miles_from_dt":10.48},{"city":"Stafford","state_name":"Texas","lat":29.62625,"lng":-95.56718,"zip":"77477","miles_from_dt":10.73},{"city":"Sugar Land","state_name":"Texas","lat":29.6186,"lng":-95.63687,"zip":"77487","miles_from_dt":10.97},{"city":"Sugar Land","state_name":"Texas","lat":29.6202,"lng":-95.63775,"zip":"77496","miles_from_dt":11.09},{"city":"Houston","state_name":"Texas","lat":29.62465,"lng":-95.48411,"zip":"77085","miles_from_dt":11.8},{"city":"Manvel","state_name":"Texas","lat":29.47794,"lng":-95.36757,"zip":"77578","miles_from_dt":12.2},{"city":"Houston","state_name":"Texas","lat":29.65434,"lng":-95.54622,"zip":"77031","miles_from_dt":12.74},{"city":"Sugar Land","state_name":"Texas","lat":29.64224,"lng":-95.65244,"zip":"77498","miles_from_dt":12.83},{"city":"Houston","state_name":"Texas","lat":29.65265,"lng":-95.52046,"zip":"77071","miles_from_dt":12.89},{"city":"Houston","state_name":"Texas","lat":29.65966,"lng":-95.52638,"zip":"77271","miles_from_dt":13.29},{"city":"Needville","state_name":"Texas","lat":29.39159,"lng":-95.77345,"zip":"77461","miles_from_dt":13.43},{"city":"Houston","state_name":"Texas","lat":29.6541,"lng":-95.48112,"zip":"77235","miles_from_dt":13.72},{"city":"Houston","state_name":"Texas","lat":29.65269,"lng":-95.47688,"zip":"77035","miles_from_dt":13.74},{"city":"Houston","state_name":"Texas","lat":29.67067,"lng":-95.58485,"zip":"77099","miles_from_dt":13.81},{"city":"Houston","state_name":"Texas","lat":29.65433,"lng":-95.4754,"zip":"77231","miles_from_dt":13.88},{"city":"Houston","state_name":"Texas","lat":29.63634,"lng":-95.43279,"zip":"77045","miles_from_dt":14.09},{"city":"Pearland","state_name":"Texas","lat":29.54577,"lng":-95.35013,"zip":"77584","miles_from_dt":14.21},{"city":"Houston","state_name":"Texas","lat":29.64035,"lng":-95.43586,"zip":"77245","miles_from_dt":14.21},{"city":"Houston","state_name":"Texas","lat":29.60843,"lng":-95.38662,"zip":"77047","miles_from_dt":14.56},{"city":"Houston","state_name":"Texas","lat":29.67464,"lng":-95.47965,"zip":"77096","miles_from_dt":15.07},{"city":"Damon","state_name":"Texas","lat":29.26487,"lng":-95.65616,"zip":"77430","miles_from_dt":15.09},{"city":"Houston","state_name":"Texas","lat":29.68799,"lng":-95.51644,"zip":"77274","miles_from_dt":15.32},{"city":"Houston","state_name":"Texas","lat":29.68821,"lng":-95.51633,"zip":"77074","miles_from_dt":15.33},{"city":"Houston","state_name":"Texas","lat":29.69984,"lng":-95.58269,"zip":"77272","miles_from_dt":15.81},{"city":"Houston","state_name":"Texas","lat":29.70006,"lng":-95.58539,"zip":"77072","miles_from_dt":15.84},{"city":"Houston","state_name":"Texas","lat":29.70119,"lng":-95.53659,"zip":"77036","miles_from_dt":16.01},{"city":"Houston","state_name":"Texas","lat":29.69316,"lng":-95.64858,"zip":"77083","miles_from_dt":16.05},{"city":"Houston","state_name":"Texas","lat":29.7026,"lng":-95.53899,"zip":"77251","miles_from_dt":16.09},{"city":"Richmond","state_name":"Texas","lat":29.67658,"lng":-95.71455,"zip":"77407","miles_from_dt":16.66},{"city":"Houston","state_name":"Texas","lat":29.70724,"lng":-95.49797,"zip":"77236","miles_from_dt":16.87},{"city":"Houston","state_name":"Texas","lat":29.68584,"lng":-95.43512,"zip":"77025","miles_from_dt":16.9},{"city":"Houston","state_name":"Texas","lat":29.65586,"lng":-95.38023,"zip":"77051","miles_from_dt":17.12},{"city":"Bellaire","state_name":"Texas","lat":29.70662,"lng":-95.47534,"zip":"77402","miles_from_dt":17.23},{"city":"Bellaire","state_name":"Texas","lat":29.70398,"lng":-95.46192,"zip":"77401","miles_from_dt":17.34},{"city":"Guy","state_name":"Texas","lat":29.29641,"lng":-95.77794,"zip":"77444","miles_from_dt":17.36},{"city":"Houston","state_name":"Texas","lat":29.71219,"lng":-95.48026,"zip":"77081","miles_from_dt":17.49},{"city":"Houston","state_name":"Texas","lat":29.68102,"lng":-95.40424,"zip":"77054","miles_from_dt":17.59},{"city":"Houston","state_name":"Texas","lat":29.62154,"lng":-95.32986,"zip":"77048","miles_from_dt":17.8},{"city":"Houston","state_name":"Texas","lat":29.69311,"lng":-95.41646,"zip":"77225","miles_from_dt":17.89},{"city":"Houston","state_name":"Texas","lat":29.72383,"lng":-95.6414,"zip":"77082","miles_from_dt":17.97},{"city":"Alief","state_name":"Texas","lat":29.7308,"lng":-95.59262,"zip":"77411","miles_from_dt":17.98},{"city":"Houston","state_name":"Texas","lat":29.65506,"lng":-95.35822,"zip":"77233","miles_from_dt":17.99},{"city":"Richmond","state_name":"Texas","lat":29.64571,"lng":-95.79184,"zip":"77406","miles_from_dt":18.01},{"city":"Houston","state_name":"Texas","lat":29.72856,"lng":-95.5192,"zip":"77263","miles_from_dt":18.03},{"city":"Houston","state_name":"Texas","lat":29.73257,"lng":-95.55978,"zip":"77242","miles_from_dt":18.06},{"city":"Houston","state_name":"Texas","lat":29.7356,"lng":-95.52157,"zip":"77063","miles_from_dt":18.49},{"city":"Houston","state_name":"Texas","lat":29.7365,"lng":-95.52117,"zip":"77215","miles_from_dt":18.55},{"city":"Pearland","state_name":"Texas","lat":29.5624,"lng":-95.27982,"zip":"77581","miles_from_dt":18.58},{"city":"Houston","state_name":"Texas","lat":29.7341,"lng":-95.49864,"zip":"77237","miles_from_dt":18.65},{"city":"Houston","state_name":"Texas","lat":29.74125,"lng":-95.56015,"zip":"77042","miles_from_dt":18.66},{"city":"Pearland","state_name":"Texas","lat":29.55315,"lng":-95.27377,"zip":"77588","miles_from_dt":18.72},{"city":"Rosenberg","state_name":"Texas","lat":29.55159,"lng":-95.86785,"zip":"77471","miles_from_dt":18.81},{"city":"Houston","state_name":"Texas","lat":29.71673,"lng":-95.42814,"zip":"77277","miles_from_dt":18.98},{"city":"Houston","state_name":"Texas","lat":29.70597,"lng":-95.40253,"zip":"77030","miles_from_dt":19.09},{"city":"Houston","state_name":"Texas","lat":29.71984,"lng":-95.43081,"zip":"77265","miles_from_dt":19.1},{"city":"Houston","state_name":"Texas","lat":29.74541,"lng":-95.61334,"zip":"77282","miles_from_dt":19.11},{"city":"Houston","state_name":"Texas","lat":29.71824,"lng":-95.42413,"zip":"77005","miles_from_dt":19.18},{"city":"Houston","state_name":"Texas","lat":29.69808,"lng":-95.38416,"zip":"77230","miles_from_dt":19.25},{"city":"Houston","state_name":"Texas","lat":29.66801,"lng":-95.33801,"zip":"77033","miles_from_dt":19.49},{"city":"Houston","state_name":"Texas","lat":29.74458,"lng":-95.48617,"zip":"77257","miles_from_dt":19.53},{"city":"Houston","state_name":"Texas","lat":29.74522,"lng":-95.48885,"zip":"77057","miles_from_dt":19.54},{"city":"Alvin","state_name":"Texas","lat":29.42173,"lng":-95.24786,"zip":"77512","miles_from_dt":19.69},{"city":"Houston","state_name":"Texas","lat":29.73698,"lng":-95.44727,"zip":"77227","miles_from_dt":19.78},{"city":"Houston","state_name":"Texas","lat":29.73919,"lng":-95.44609,"zip":"77027","miles_from_dt":19.95},{"city":"Houston","state_name":"Texas","lat":29.73438,"lng":-95.43301,"zip":"77046","miles_from_dt":19.95},{"city":"Houston","state_name":"Texas","lat":29.75375,"lng":-95.64189,"zip":"77077","miles_from_dt":19.98},{"city":"Houston","state_name":"Texas","lat":29.74849,"lng":-95.46806,"zip":"77056","miles_from_dt":20.1},{"city":"Houston","state_name":"Texas","lat":29.73833,"lng":-95.43631,"zip":"77256","miles_from_dt":20.12},{"city":"Houston","state_name":"Texas","lat":29.69713,"lng":-95.35751,"zip":"77021","miles_from_dt":20.17},{"city":"Houston","state_name":"Texas","lat":29.73222,"lng":-95.41387,"zip":"77254","miles_from_dt":20.32},{"city":"Houston","state_name":"Texas","lat":29.73482,"lng":-95.41526,"zip":"77098","miles_from_dt":20.44},{"city":"Houston","state_name":"Texas","lat":29.70156,"lng":-95.35251,"zip":"77221","miles_from_dt":20.6},{"city":"Houston","state_name":"Texas","lat":29.76812,"lng":-95.51034,"zip":"77279","miles_from_dt":20.81},{"city":"Alvin","state_name":"Texas","lat":29.38638,"lng":-95.23769,"zip":"77511","miles_from_dt":20.84},{"city":"Houston","state_name":"Texas","lat":29.62119,"lng":-95.26749,"zip":"77075","miles_from_dt":20.95},{"city":"Houston","state_name":"Texas","lat":29.77159,"lng":-95.51682,"zip":"77224","miles_from_dt":20.98},{"city":"Houston","state_name":"Texas","lat":29.77073,"lng":-95.50869,"zip":"77024","miles_from_dt":21},{"city":"Houston","state_name":"Texas","lat":29.77632,"lng":-95.6037,"zip":"77079","miles_from_dt":21.16},{"city":"Houston","state_name":"Texas","lat":29.77755,"lng":-95.60326,"zip":"77244","miles_from_dt":21.24},{"city":"Houston","state_name":"Texas","lat":29.65436,"lng":-95.28481,"zip":"77061","miles_from_dt":21.32},{"city":"Houston","state_name":"Texas","lat":29.72477,"lng":-95.36498,"zip":"77004","miles_from_dt":21.41},{"city":"Houston","state_name":"Texas","lat":29.74086,"lng":-95.39126,"zip":"77006","miles_from_dt":21.5},{"city":"Angleton","state_name":"Texas","lat":29.17604,"lng":-95.44955,"zip":"77515","miles_from_dt":21.54},{"city":"Katy","state_name":"Texas","lat":29.74753,"lng":-95.73696,"zip":"77450","miles_from_dt":21.57},{"city":"Houston","state_name":"Texas","lat":29.72697,"lng":-95.36171,"zip":"77288","miles_from_dt":21.65},{"city":"Houston","state_name":"Texas","lat":29.75318,"lng":-95.41212,"zip":"77019","miles_from_dt":21.66},{"city":"Houston","state_name":"Texas","lat":29.74663,"lng":-95.3915,"zip":"77266","miles_from_dt":21.83},{"city":"Houston","state_name":"Texas","lat":29.68631,"lng":-95.3034,"zip":"77087","miles_from_dt":21.86},{"city":"Houston","state_name":"Texas","lat":29.75716,"lng":-95.41196,"zip":"77219","miles_from_dt":21.91},{"city":"Houston","state_name":"Texas","lat":29.72168,"lng":-95.34356,"zip":"77204","miles_from_dt":22.01},{"city":"Houston","state_name":"Texas","lat":29.68782,"lng":-95.30109,"zip":"77207","miles_from_dt":22.04},{"city":"Barker","state_name":"Texas","lat":29.77063,"lng":-95.7023,"zip":"77413","miles_from_dt":22.16},{"city":"Houston","state_name":"Texas","lat":29.58698,"lng":-95.2257,"zip":"77089","miles_from_dt":22.22},{"city":"Houston","state_name":"Texas","lat":29.7738,"lng":-95.69955,"zip":"77094","miles_from_dt":22.3},{"city":"Angleton","state_name":"Texas","lat":29.16884,"lng":-95.43136,"zip":"77516","miles_from_dt":22.39},{"city":"Friendswood","state_name":"Texas","lat":29.53035,"lng":-95.20173,"zip":"77549","miles_from_dt":22.55},{"city":"Houston","state_name":"Texas","lat":29.77063,"lng":-95.41482,"zip":"77299","miles_from_dt":22.68},{"city":"West Columbia","state_name":"Texas","lat":29.15495,"lng":-95.6805,"zip":"77486","miles_from_dt":22.74},{"city":"Friendswood","state_name":"Texas","lat":29.5132,"lng":-95.19352,"zip":"77546","miles_from_dt":22.86},{"city":"Houston","state_name":"Texas","lat":29.77152,"lng":-95.40919,"zip":"77007","miles_from_dt":22.87},{"city":"Houston","state_name":"Texas","lat":29.79679,"lng":-95.49197,"zip":"77243","miles_from_dt":22.95},{"city":"Houston","state_name":"Texas","lat":29.7216,"lng":-95.31827,"zip":"77023","miles_from_dt":22.98},{"city":"Houston","state_name":"Texas","lat":29.79757,"lng":-95.4928,"zip":"77055","miles_from_dt":23},{"city":"Houston","state_name":"Texas","lat":29.75546,"lng":-95.36787,"zip":"77284","miles_from_dt":23.08},{"city":"Houston","state_name":"Texas","lat":29.75617,"lng":-95.3682,"zip":"77253","miles_from_dt":23.11},{"city":"Houston","state_name":"Texas","lat":29.72716,"lng":-95.32093,"zip":"77223","miles_from_dt":23.17},{"city":"Houston","state_name":"Texas","lat":29.75635,"lng":-95.36538,"zip":"77002","miles_from_dt":23.21},{"city":"Houston","state_name":"Texas","lat":29.75745,"lng":-95.36678,"zip":"77275","miles_from_dt":23.23},{"city":"Houston","state_name":"Texas","lat":29.75368,"lng":-95.35987,"zip":"77010","miles_from_dt":23.24},{"city":"Houston","state_name":"Texas","lat":29.75894,"lng":-95.36773,"zip":"77203","miles_from_dt":23.29},{"city":"Houston","state_name":"Texas","lat":29.75807,"lng":-95.36555,"zip":"77202","miles_from_dt":23.31},{"city":"Liverpool","state_name":"Texas","lat":29.25966,"lng":-95.26731,"zip":"77577","miles_from_dt":23.32},{"city":"Houston","state_name":"Texas","lat":29.759,"lng":-95.3669,"zip":"77252","miles_from_dt":23.32},{"city":"Houston","state_name":"Texas","lat":29.75774,"lng":-95.36388,"zip":"77210","miles_from_dt":23.34},{"city":"Houston","state_name":"Texas","lat":29.75897,"lng":-95.36594,"zip":"77208","miles_from_dt":23.35},{"city":"Houston","state_name":"Texas","lat":29.8044,"lng":-95.49623,"zip":"77255","miles_from_dt":23.42},{"city":"Houston","state_name":"Texas","lat":29.75693,"lng":-95.35896,"zip":"77052","miles_from_dt":23.45},{"city":"Houston","state_name":"Texas","lat":29.8112,"lng":-95.57981,"zip":"77043","miles_from_dt":23.47},{"city":"Houston","state_name":"Texas","lat":29.74961,"lng":-95.34521,"zip":"77003","miles_from_dt":23.5},{"city":"Houston","state_name":"Texas","lat":29.61573,"lng":-95.21652,"zip":"77216","miles_from_dt":23.51},{"city":"Houston","state_name":"Texas","lat":29.76257,"lng":-95.36414,"zip":"77297","miles_from_dt":23.62},{"city":"Beasley","state_name":"Texas","lat":29.46633,"lng":-95.9621,"zip":"77417","miles_from_dt":23.65},{"city":"Houston","state_name":"Texas","lat":29.76374,"lng":-95.3653,"zip":"77212","miles_from_dt":23.65},{"city":"Houston","state_name":"Texas","lat":29.76393,"lng":-95.36375,"zip":"77201","miles_from_dt":23.71},{"city":"Danbury","state_name":"Texas","lat":29.21335,"lng":-95.30387,"zip":"77534","miles_from_dt":23.9},{"city":"Houston","state_name":"Texas","lat":29.6745,"lng":-95.24757,"zip":"77287","miles_from_dt":23.95},{"city":"Houston","state_name":"Texas","lat":29.81662,"lng":-95.52375,"zip":"77080","miles_from_dt":24},{"city":"Houston","state_name":"Texas","lat":29.67567,"lng":-95.24441,"zip":"77261","miles_from_dt":24.15},{"city":"Houston","state_name":"Texas","lat":29.70206,"lng":-95.26623,"zip":"77217","miles_from_dt":24.25},{"city":"Katy","state_name":"Texas","lat":29.74566,"lng":-95.82302,"zip":"77494","miles_from_dt":24.32},{"city":"Houston","state_name":"Texas","lat":29.79845,"lng":-95.41901,"zip":"77270","miles_from_dt":24.34},{"city":"Katy","state_name":"Texas","lat":29.74703,"lng":-95.82166,"zip":"77492","miles_from_dt":24.34},{"city":"Houston","state_name":"Texas","lat":29.79856,"lng":-95.41766,"zip":"77008","miles_from_dt":24.38},{"city":"South Houston","state_name":"Texas","lat":29.66117,"lng":-95.22865,"zip":"77587","miles_from_dt":24.38},{"city":"Houston","state_name":"Texas","lat":29.79992,"lng":-95.41731,"zip":"77248","miles_from_dt":24.47},{"city":"Houston","state_name":"Texas","lat":29.69153,"lng":-95.25093,"zip":"77017","miles_from_dt":24.5},{"city":"Houston","state_name":"Texas","lat":29.743,"lng":-95.30785,"zip":"77011","miles_from_dt":24.51},{"city":"Orchard","state_name":"Texas","lat":29.61807,"lng":-95.94148,"zip":"77464","miles_from_dt":24.59},{"city":"Houston","state_name":"Texas","lat":29.71904,"lng":-95.27449,"zip":"77012","miles_from_dt":24.68},{"city":"Houston","state_name":"Texas","lat":29.72315,"lng":-95.27893,"zip":"77262","miles_from_dt":24.68},{"city":"Houston","state_name":"Texas","lat":29.61522,"lng":-95.19237,"zip":"77034","miles_from_dt":24.82},{"city":"Houston","state_name":"Texas","lat":29.6182,"lng":-95.19113,"zip":"77234","miles_from_dt":24.97},{"city":"Houston","state_name":"Texas","lat":29.62007,"lng":-95.19002,"zip":"77209","miles_from_dt":25.08},{"city":"Houston","state_name":"Texas","lat":29.82814,"lng":-95.65304,"zip":"77218","miles_from_dt":25.14},{"city":"Houston","state_name":"Texas","lat":29.82698,"lng":-95.6612,"zip":"77084","miles_from_dt":25.16},{"city":"Houston","state_name":"Texas","lat":29.79499,"lng":-95.36758,"zip":"77009","miles_from_dt":25.44},{"city":"Houston","state_name":"Texas","lat":29.83153,"lng":-95.47521,"zip":"77092","miles_from_dt":25.51},{"city":"Fulshear","state_name":"Texas","lat":29.6955,"lng":-95.90896,"zip":"77441","miles_from_dt":25.63},{"city":"Texas City","state_name":"Texas","lat":29.50875,"lng":-95.14528,"zip":"77592","miles_from_dt":25.71},{"city":"Houston","state_name":"Texas","lat":29.80463,"lng":-95.37562,"zip":"77249","miles_from_dt":25.81},{"city":"Houston","state_name":"Texas","lat":29.77237,"lng":-95.31509,"zip":"77220","miles_from_dt":25.83},{"city":"Houston","state_name":"Texas","lat":29.76842,"lng":-95.30878,"zip":"77020","miles_from_dt":25.84},{"city":"Pasadena","state_name":"Texas","lat":29.64766,"lng":-95.19007,"zip":"77504","miles_from_dt":25.91},{"city":"Houston","state_name":"Texas","lat":29.82618,"lng":-95.42877,"zip":"77292","miles_from_dt":25.92},{"city":"Houston","state_name":"Texas","lat":29.82713,"lng":-95.42625,"zip":"77206","miles_from_dt":26.03},{"city":"Houston","state_name":"Texas","lat":29.82703,"lng":-95.42571,"zip":"77018","miles_from_dt":26.04},{"city":"Webster","state_name":"Texas","lat":29.53766,"lng":-95.13714,"zip":"77598","miles_from_dt":26.47},{"city":"Katy","state_name":"Texas","lat":29.78608,"lng":-95.82084,"zip":"77491","miles_from_dt":26.47},{"city":"Pasadena","state_name":"Texas","lat":29.67984,"lng":-95.19953,"zip":"77502","miles_from_dt":26.55},{"city":"Boling","state_name":"Texas","lat":29.23404,"lng":-95.91908,"zip":"77420","miles_from_dt":26.64},{"city":"Houston","state_name":"Texas","lat":29.57435,"lng":-95.14109,"zip":"77259","miles_from_dt":26.79},{"city":"Houston","state_name":"Texas","lat":29.85884,"lng":-95.53705,"zip":"77241","miles_from_dt":26.82},{"city":"Houston","state_name":"Texas","lat":29.86031,"lng":-95.58548,"zip":"77280","miles_from_dt":26.86},{"city":"Houston","state_name":"Texas","lat":29.80013,"lng":-95.32934,"zip":"77026","miles_from_dt":26.92},{"city":"Houston","state_name":"Texas","lat":29.86203,"lng":-95.58187,"zip":"77041","miles_from_dt":26.98},{"city":"Houston","state_name":"Texas","lat":29.80161,"lng":-95.32886,"zip":"77226","miles_from_dt":27.02},{"city":"Houston","state_name":"Texas","lat":29.72039,"lng":-95.22206,"zip":"77001","miles_from_dt":27.1},{"city":"Katy","state_name":"Texas","lat":29.83674,"lng":-95.73547,"zip":"77449","miles_from_dt":27.12},{"city":"Santa Fe","state_name":"Texas","lat":29.36253,"lng":-95.1369,"zip":"77517","miles_from_dt":27.14},{"city":"Houston","state_name":"Texas","lat":29.76496,"lng":-95.26943,"zip":"77229","miles_from_dt":27.16},{"city":"Houston","state_name":"Texas","lat":29.57584,"lng":-95.13406,"zip":"77062","miles_from_dt":27.23},{"city":"Galena Park","state_name":"Texas","lat":29.74018,"lng":-95.23836,"zip":"77547","miles_from_dt":27.25},{"city":"Houston","state_name":"Texas","lat":29.76382,"lng":-95.26326,"zip":"77029","miles_from_dt":27.36},{"city":"Houston","state_name":"Texas","lat":29.8306,"lng":-95.3768,"zip":"77022","miles_from_dt":27.38},{"city":"Houston","state_name":"Texas","lat":29.82964,"lng":-95.37223,"zip":"77222","miles_from_dt":27.44},{"city":"Houston","state_name":"Texas","lat":29.85382,"lng":-95.43969,"zip":"77091","miles_from_dt":27.53},{"city":"Kendleton","state_name":"Texas","lat":29.46173,"lng":-96.02688,"zip":"77451","miles_from_dt":27.56},{"city":"Danciger","state_name":"Texas","lat":29.13239,"lng":-95.82309,"zip":"77431","miles_from_dt":27.86},{"city":"Simonton","state_name":"Texas","lat":29.67551,"lng":-95.97105,"zip":"77476","miles_from_dt":27.98},{"city":"Houston","state_name":"Texas","lat":29.87539,"lng":-95.52861,"zip":"77040","miles_from_dt":28},{"city":"Pledger","state_name":"Texas","lat":29.14681,"lng":-95.85173,"zip":"77468","miles_from_dt":28.05},{"city":"Houston","state_name":"Texas","lat":29.87631,"lng":-95.52535,"zip":"77240","miles_from_dt":28.08},{"city":"Houston","state_name":"Texas","lat":29.60632,"lng":-95.12847,"zip":"77289","miles_from_dt":28.18},{"city":"Pasadena","state_name":"Texas","lat":29.68446,"lng":-95.1698,"zip":"77501","miles_from_dt":28.23},{"city":"Pasadena","state_name":"Texas","lat":29.64895,"lng":-95.14284,"zip":"77505","miles_from_dt":28.49},{"city":"Houston","state_name":"Texas","lat":29.60929,"lng":-95.12417,"zip":"77059","miles_from_dt":28.49},{"city":"Pasadena","state_name":"Texas","lat":29.71786,"lng":-95.19018,"zip":"77506","miles_from_dt":28.5},{"city":"Sweeny","state_name":"Texas","lat":29.09388,"lng":-95.76692,"zip":"77480","miles_from_dt":28.54},{"city":"Pasadena","state_name":"Texas","lat":29.66381,"lng":-95.14818,"zip":"77508","miles_from_dt":28.66},{"city":"Pasadena","state_name":"Texas","lat":29.69078,"lng":-95.15781,"zip":"77503","miles_from_dt":29.07},{"city":"Houston","state_name":"Texas","lat":29.86002,"lng":-95.38328,"zip":"77076","miles_from_dt":29.08},{"city":"Old Ocean","state_name":"Texas","lat":29.07739,"lng":-95.74824,"zip":"77463","miles_from_dt":29.14},{"city":"Houston","state_name":"Texas","lat":29.88148,"lng":-95.45316,"zip":"77088","miles_from_dt":29.16},{"city":"Houston","state_name":"Texas","lat":29.87229,"lng":-95.41591,"zip":"77291","miles_from_dt":29.18},{"city":"League City","state_name":"Texas","lat":29.50213,"lng":-95.08636,"zip":"77573","miles_from_dt":29.21},{"city":"Houston","state_name":"Texas","lat":29.56297,"lng":-95.09303,"zip":"77058","miles_from_dt":29.42},{"city":"Lake Jackson","state_name":"Texas","lat":29.04971,"lng":-95.47511,"zip":"77566","miles_from_dt":29.54},{"city":"Houston","state_name":"Texas","lat":29.82471,"lng":-95.28668,"zip":"77028","miles_from_dt":29.75},{"city":"Houston","state_name":"Texas","lat":29.7947,"lng":-95.24067,"zip":"77213","miles_from_dt":29.84},{"city":"Houston","state_name":"Texas","lat":29.79516,"lng":-95.23895,"zip":"77013","miles_from_dt":29.94}],"targetCityZipCode":"77481","targetCityState":"Texas"},"__N_SSG":true}