{"pageProps":{"stateName":"Texas","cityName":"timpson","nearbyCities":[{"city":"Gary","state_name":"Texas","lat":32.01041,"lng":-94.35518,"zip":"75643","miles_from_dt":8.61},{"city":"Garrison","state_name":"Texas","lat":31.81372,"lng":-94.52392,"zip":"75946","miles_from_dt":8.65},{"city":"Tenaha","state_name":"Texas","lat":31.95674,"lng":-94.23713,"zip":"75974","miles_from_dt":11.12},{"city":"Long Branch","state_name":"Texas","lat":32.03348,"lng":-94.55678,"zip":"75669","miles_from_dt":12.76},{"city":"Clayton","state_name":"Texas","lat":32.10086,"lng":-94.47273,"zip":"75637","miles_from_dt":14.6},{"city":"Mount Enterprise","state_name":"Texas","lat":31.93597,"lng":-94.685,"zip":"75681","miles_from_dt":16.27},{"city":"Center","state_name":"Texas","lat":31.72999,"lng":-94.20077,"zip":"75935","miles_from_dt":16.87},{"city":"Nacogdoches","state_name":"Texas","lat":31.7284,"lng":-94.62629,"zip":"75965","miles_from_dt":17.06},{"city":"Martinsville","state_name":"Texas","lat":31.64171,"lng":-94.41327,"zip":"75958","miles_from_dt":17.48},{"city":"Carthage","state_name":"Texas","lat":32.12788,"lng":-94.28109,"zip":"75633","miles_from_dt":17.77},{"city":"Minden","state_name":"Texas","lat":32.01035,"lng":-94.71824,"zip":"75680","miles_from_dt":19.65},{"city":"Joaquin","state_name":"Texas","lat":31.92169,"lng":-94.05523,"zip":"75954","miles_from_dt":21.06},{"city":"Nacogdoches","state_name":"Texas","lat":31.6321,"lng":-94.63732,"zip":"75963","miles_from_dt":22.46},{"city":"Nacogdoches","state_name":"Texas","lat":31.61981,"lng":-94.6484,"zip":"75962","miles_from_dt":23.53},{"city":"Nacogdoches","state_name":"Texas","lat":31.5576,"lng":-94.51098,"zip":"75961","miles_from_dt":23.99},{"city":"Beckville","state_name":"Texas","lat":32.25343,"lng":-94.44957,"zip":"75631","miles_from_dt":24.77},{"city":"Laneville","state_name":"Texas","lat":31.988,"lng":-94.83729,"zip":"75667","miles_from_dt":25.78},{"city":"Cushing","state_name":"Texas","lat":31.80738,"lng":-94.85758,"zip":"75760","miles_from_dt":26.88},{"city":"Nacogdoches","state_name":"Texas","lat":31.63334,"lng":-94.75057,"zip":"75964","miles_from_dt":26.88},{"city":"Logansport","state_name":"Louisiana","lat":32.01603,"lng":-93.96663,"zip":"71049","miles_from_dt":27.46},{"city":"Henderson","state_name":"Texas","lat":32.08299,"lng":-94.82961,"zip":"75654","miles_from_dt":27.71},{"city":"Woden","state_name":"Texas","lat":31.50322,"lng":-94.52275,"zip":"75978","miles_from_dt":27.79},{"city":"Chireno","state_name":"Texas","lat":31.47805,"lng":-94.38259,"zip":"75937","miles_from_dt":28.8},{"city":"Henderson","state_name":"Texas","lat":32.16182,"lng":-94.80568,"zip":"75653","miles_from_dt":29.5},{"city":"Henderson","state_name":"Texas","lat":32.2301,"lng":-94.7281,"zip":"75652","miles_from_dt":29.59},{"city":"Tatum","state_name":"Texas","lat":32.31108,"lng":-94.55725,"zip":"75691","miles_from_dt":29.88}],"targetCityZipCode":"75975","targetCityState":"Texas"},"__N_SSG":true}