{"pageProps":{"stateName":"Texas","cityName":"waring","nearbyCities":[{"city":"Boerne","state_name":"Texas","lat":29.86869,"lng":-98.71368,"zip":"78006","miles_from_dt":6.92},{"city":"Comfort","state_name":"Texas","lat":29.97798,"lng":-98.90647,"zip":"78013","miles_from_dt":7.28},{"city":"Center Point","state_name":"Texas","lat":29.91122,"lng":-99.04698,"zip":"78010","miles_from_dt":15.44},{"city":"Kendalia","state_name":"Texas","lat":29.98193,"lng":-98.53868,"zip":"78027","miles_from_dt":15.44},{"city":"Boerne","state_name":"Texas","lat":29.7439,"lng":-98.64785,"zip":"78015","miles_from_dt":16.18},{"city":"Bergheim","state_name":"Texas","lat":29.85767,"lng":-98.53773,"zip":"78004","miles_from_dt":16.34},{"city":"Pipe Creek","state_name":"Texas","lat":29.68793,"lng":-98.91424,"zip":"78063","miles_from_dt":19},{"city":"Stonewall","state_name":"Texas","lat":30.20409,"lng":-98.63275,"zip":"78671","miles_from_dt":20.4},{"city":"San Antonio","state_name":"Texas","lat":29.64814,"lng":-98.66405,"zip":"78255","miles_from_dt":21.68},{"city":"Blanco","state_name":"Texas","lat":30.09213,"lng":-98.45789,"zip":"78606","miles_from_dt":22.54},{"city":"Helotes","state_name":"Texas","lat":29.61549,"lng":-98.75443,"zip":"78023","miles_from_dt":22.63},{"city":"Kerrville","state_name":"Texas","lat":30.04115,"lng":-99.16276,"zip":"78028","miles_from_dt":23.24},{"city":"Spring Branch","state_name":"Texas","lat":29.89291,"lng":-98.40732,"zip":"78070","miles_from_dt":23.34},{"city":"Hye","state_name":"Texas","lat":30.20824,"lng":-98.5485,"zip":"78635","miles_from_dt":23.42},{"city":"Kerrville","state_name":"Texas","lat":29.90078,"lng":-99.1898,"zip":"78029","miles_from_dt":24.03},{"city":"Bulverde","state_name":"Texas","lat":29.7663,"lng":-98.44514,"zip":"78163","miles_from_dt":24.11},{"city":"San Antonio","state_name":"Texas","lat":29.62272,"lng":-98.6262,"zip":"78256","miles_from_dt":24.17},{"city":"San Antonio","state_name":"Texas","lat":29.64373,"lng":-98.57713,"zip":"78257","miles_from_dt":24.29},{"city":"Bandera","state_name":"Texas","lat":29.71092,"lng":-99.09823,"zip":"78003","miles_from_dt":24.33},{"city":"Fredericksburg","state_name":"Texas","lat":30.29227,"lng":-98.87141,"zip":"78624","miles_from_dt":24.57},{"city":"San Antonio","state_name":"Texas","lat":29.69737,"lng":-98.49212,"zip":"78260","miles_from_dt":24.69},{"city":"San Antonio","state_name":"Texas","lat":29.63574,"lng":-98.49282,"zip":"78258","miles_from_dt":27.74},{"city":"San Antonio","state_name":"Texas","lat":29.56752,"lng":-98.61548,"zip":"78269","miles_from_dt":27.91},{"city":"San Antonio","state_name":"Texas","lat":29.56752,"lng":-98.614,"zip":"78249","miles_from_dt":27.95},{"city":"San Antonio","state_name":"Texas","lat":29.53011,"lng":-98.72805,"zip":"78254","miles_from_dt":28.65},{"city":"San Antonio","state_name":"Texas","lat":29.57978,"lng":-98.54504,"zip":"78231","miles_from_dt":29.05},{"city":"San Antonio","state_name":"Texas","lat":29.59022,"lng":-98.52553,"zip":"78248","miles_from_dt":29.07},{"city":"San Antonio","state_name":"Texas","lat":29.69189,"lng":-98.40072,"zip":"78261","miles_from_dt":29.16},{"city":"Mico","state_name":"Texas","lat":29.53896,"lng":-98.94184,"zip":"78056","miles_from_dt":29.2},{"city":"San Antonio","state_name":"Texas","lat":29.56299,"lng":-98.56227,"zip":"78278","miles_from_dt":29.56}],"targetCityZipCode":"78074","targetCityState":"Texas"},"__N_SSG":true}