{"pageProps":{"stateName":"Texas","cityName":"weimar","nearbyCities":[{"city":"Oakland","state_name":"Texas","lat":29.61361,"lng":-96.83746,"zip":"78951","miles_from_dt":7.11},{"city":"Glidden","state_name":"Texas","lat":29.69721,"lng":-96.59538,"zip":"78943","miles_from_dt":8.8},{"city":"Columbus","state_name":"Texas","lat":29.7023,"lng":-96.56741,"zip":"78934","miles_from_dt":10.51},{"city":"Ellinger","state_name":"Texas","lat":29.82757,"lng":-96.7041,"zip":"78938","miles_from_dt":11.08},{"city":"Schulenburg","state_name":"Texas","lat":29.68322,"lng":-96.93454,"zip":"78956","miles_from_dt":11.85},{"city":"Sheridan","state_name":"Texas","lat":29.50419,"lng":-96.66026,"zip":"77475","miles_from_dt":12.31},{"city":"Sublime","state_name":"Texas","lat":29.47661,"lng":-96.79607,"zip":"77986","miles_from_dt":13.74},{"city":"Rock Island","state_name":"Texas","lat":29.52775,"lng":-96.55305,"zip":"77470","miles_from_dt":14.81},{"city":"Altair","state_name":"Texas","lat":29.56693,"lng":-96.46031,"zip":"77412","miles_from_dt":18.15},{"city":"Fayetteville","state_name":"Texas","lat":29.93139,"lng":-96.66701,"zip":"78940","miles_from_dt":18.54},{"city":"Alleyton","state_name":"Texas","lat":29.68797,"lng":-96.43006,"zip":"78935","miles_from_dt":18.57},{"city":"La Grange","state_name":"Texas","lat":29.91594,"lng":-96.89031,"zip":"78945","miles_from_dt":19.28},{"city":"Hallettsville","state_name":"Texas","lat":29.38023,"lng":-96.84301,"zip":"77964","miles_from_dt":20.9},{"city":"Garwood","state_name":"Texas","lat":29.43708,"lng":-96.49757,"zip":"77442","miles_from_dt":21.59},{"city":"Moulton","state_name":"Texas","lat":29.56843,"lng":-97.08818,"zip":"77975","miles_from_dt":22.19},{"city":"New Ulm","state_name":"Texas","lat":29.90735,"lng":-96.48518,"zip":"78950","miles_from_dt":22.35},{"city":"Plum","state_name":"Texas","lat":29.93636,"lng":-96.96819,"zip":"78952","miles_from_dt":23},{"city":"Muldoon","state_name":"Texas","lat":29.83681,"lng":-97.08062,"zip":"78949","miles_from_dt":23.59},{"city":"Warrenton","state_name":"Texas","lat":30.01722,"lng":-96.73167,"zip":"78961","miles_from_dt":23.95},{"city":"West Point","state_name":"Texas","lat":29.92586,"lng":-97.02767,"zip":"78963","miles_from_dt":24.78},{"city":"Cat Spring","state_name":"Texas","lat":29.77209,"lng":-96.33829,"zip":"78933","miles_from_dt":25.06},{"city":"Flatonia","state_name":"Texas","lat":29.74201,"lng":-97.1561,"zip":"78941","miles_from_dt":25.62},{"city":"Round Top","state_name":"Texas","lat":30.04507,"lng":-96.69774,"zip":"78954","miles_from_dt":25.98},{"city":"Eagle Lake","state_name":"Texas","lat":29.52577,"lng":-96.31983,"zip":"77434","miles_from_dt":27.06},{"city":"Industry","state_name":"Texas","lat":30.00401,"lng":-96.48945,"zip":"78944","miles_from_dt":27.46},{"city":"Nada","state_name":"Texas","lat":29.39744,"lng":-96.38451,"zip":"77460","miles_from_dt":28.37},{"city":"Warda","state_name":"Texas","lat":30.05358,"lng":-96.91558,"zip":"78960","miles_from_dt":28.52}],"targetCityZipCode":"78962","targetCityState":"Texas"},"__N_SSG":true}