{"pageProps":{"stateName":"Texas","cityName":"windthorst","nearbyCities":[{"city":"Scotland","state_name":"Texas","lat":33.67058,"lng":-98.47453,"zip":"76379","miles_from_dt":11.95},{"city":"Loving","state_name":"Texas","lat":33.30796,"lng":-98.49798,"zip":"76460","miles_from_dt":13.1},{"city":"Archer City","state_name":"Texas","lat":33.55553,"lng":-98.71145,"zip":"76351","miles_from_dt":14.19},{"city":"Jermyn","state_name":"Texas","lat":33.27395,"lng":-98.38972,"zip":"76459","miles_from_dt":16.16},{"city":"Bluegrove","state_name":"Texas","lat":33.67614,"lng":-98.22958,"zip":"76352","miles_from_dt":18.81},{"city":"Olney","state_name":"Texas","lat":33.34823,"lng":-98.7648,"zip":"76374","miles_from_dt":19.61},{"city":"Wichita Falls","state_name":"Texas","lat":33.81115,"lng":-98.51178,"zip":"76310","miles_from_dt":21.74},{"city":"Holliday","state_name":"Texas","lat":33.71439,"lng":-98.77436,"zip":"76366","miles_from_dt":22.82},{"city":"Henrietta","state_name":"Texas","lat":33.754,"lng":-98.2076,"zip":"76365","miles_from_dt":23.5},{"city":"Megargel","state_name":"Texas","lat":33.45624,"lng":-98.89407,"zip":"76370","miles_from_dt":24.33},{"city":"Wichita Falls","state_name":"Texas","lat":33.85684,"lng":-98.5378,"zip":"76308","miles_from_dt":25.05},{"city":"Bellevue","state_name":"Texas","lat":33.61438,"lng":-98.06305,"zip":"76228","miles_from_dt":25.14},{"city":"Wichita Falls","state_name":"Texas","lat":33.86607,"lng":-98.48487,"zip":"76302","miles_from_dt":25.43},{"city":"Jacksboro","state_name":"Texas","lat":33.21518,"lng":-98.18944,"zip":"76458","miles_from_dt":25.53},{"city":"Bryson","state_name":"Texas","lat":33.13145,"lng":-98.39271,"zip":"76427","miles_from_dt":25.65},{"city":"Wichita Falls","state_name":"Texas","lat":33.89551,"lng":-98.544,"zip":"76309","miles_from_dt":27.74},{"city":"Wichita Falls","state_name":"Texas","lat":33.90507,"lng":-98.48043,"zip":"76301","miles_from_dt":28.12},{"city":"Wichita Falls","state_name":"Texas","lat":33.90869,"lng":-98.49267,"zip":"76307","miles_from_dt":28.38}],"targetCityZipCode":"76389","targetCityState":"Texas"},"__N_SSG":true}