{"pageProps":{"stateName":"Utah","cityName":"paradise","nearbyCities":[{"city":"Mantua","state_name":"Utah","lat":41.49253,"lng":-111.93868,"zip":"84324","miles_from_dt":5.86},{"city":"Wellsville","state_name":"Utah","lat":41.62546,"lng":-111.939,"zip":"84339","miles_from_dt":7.7},{"city":"Millville","state_name":"Utah","lat":41.67228,"lng":-111.81772,"zip":"84326","miles_from_dt":9.28},{"city":"Hyrum","state_name":"Utah","lat":41.59401,"lng":-111.659,"zip":"84319","miles_from_dt":10.32},{"city":"Brigham City","state_name":"Utah","lat":41.57956,"lng":-112.04769,"zip":"84302","miles_from_dt":10.9},{"city":"Providence","state_name":"Utah","lat":41.70313,"lng":-111.81205,"zip":"84332","miles_from_dt":11.43},{"city":"Eden","state_name":"Utah","lat":41.3371,"lng":-111.84598,"zip":"84310","miles_from_dt":13.96},{"city":"Logan","state_name":"Utah","lat":41.68476,"lng":-111.64987,"zip":"84323","miles_from_dt":14.22},{"city":"Honeyville","state_name":"Utah","lat":41.64929,"lng":-112.09292,"zip":"84314","miles_from_dt":14.94},{"city":"Logan","state_name":"Utah","lat":41.75822,"lng":-111.81256,"zip":"84322","miles_from_dt":15.19},{"city":"Bear River City","state_name":"Utah","lat":41.61368,"lng":-112.12723,"zip":"84301","miles_from_dt":15.53},{"city":"Mendon","state_name":"Utah","lat":41.73869,"lng":-111.99303,"zip":"84325","miles_from_dt":15.76},{"city":"Ogden","state_name":"Utah","lat":41.32578,"lng":-111.96547,"zip":"84414","miles_from_dt":16.03},{"city":"Logan","state_name":"Utah","lat":41.77197,"lng":-111.81128,"zip":"84341","miles_from_dt":16.14},{"city":"Ogden","state_name":"Utah","lat":41.30088,"lng":-111.94641,"zip":"84412","miles_from_dt":17.29},{"city":"Deweyville","state_name":"Utah","lat":41.71375,"lng":-112.09908,"zip":"84309","miles_from_dt":17.85},{"city":"Hyde Park","state_name":"Utah","lat":41.80167,"lng":-111.80422,"zip":"84318","miles_from_dt":18.22},{"city":"Logan","state_name":"Utah","lat":41.77938,"lng":-111.68316,"zip":"84321","miles_from_dt":18.55},{"city":"Willard","state_name":"Utah","lat":41.39312,"lng":-112.15705,"zip":"84340","miles_from_dt":19.11},{"city":"Huntsville","state_name":"Utah","lat":41.30359,"lng":-111.62178,"zip":"84317","miles_from_dt":19.96},{"city":"Smithfield","state_name":"Utah","lat":41.82907,"lng":-111.88074,"zip":"84335","miles_from_dt":20.08},{"city":"Collinston","state_name":"Utah","lat":41.78272,"lng":-112.06323,"zip":"84306","miles_from_dt":20.26},{"city":"Ogden","state_name":"Utah","lat":41.26036,"lng":-111.97079,"zip":"84244","miles_from_dt":20.34},{"city":"Cache Junction","state_name":"Utah","lat":41.82722,"lng":-111.99867,"zip":"84304","miles_from_dt":21.41},{"city":"Ogden","state_name":"Utah","lat":41.24316,"lng":-111.96726,"zip":"84407","miles_from_dt":21.42},{"city":"Ogden","state_name":"Utah","lat":41.24425,"lng":-112.00072,"zip":"84201","miles_from_dt":21.93},{"city":"Ogden","state_name":"Utah","lat":41.2229,"lng":-111.97175,"zip":"84415","miles_from_dt":22.82},{"city":"Garland","state_name":"Utah","lat":41.77976,"lng":-112.15681,"zip":"84312","miles_from_dt":23.17},{"city":"Ogden","state_name":"Utah","lat":41.27198,"lng":-112.11705,"zip":"84404","miles_from_dt":23.26},{"city":"Riverside","state_name":"Utah","lat":41.78955,"lng":-112.15189,"zip":"84334","miles_from_dt":23.48},{"city":"Ogden","state_name":"Utah","lat":41.22369,"lng":-112.02172,"zip":"84402","miles_from_dt":23.65},{"city":"Fielding","state_name":"Utah","lat":41.82012,"lng":-112.1106,"zip":"84311","miles_from_dt":23.77},{"city":"Newton","state_name":"Utah","lat":41.86555,"lng":-111.99512,"zip":"84327","miles_from_dt":23.82},{"city":"Ogden","state_name":"Utah","lat":41.19379,"lng":-111.9038,"zip":"84403","miles_from_dt":24.05},{"city":"Ogden","state_name":"Utah","lat":41.21962,"lng":-112.03352,"zip":"84401","miles_from_dt":24.16},{"city":"Ogden","state_name":"Utah","lat":41.19252,"lng":-111.93966,"zip":"84408","miles_from_dt":24.44},{"city":"Ogden","state_name":"Utah","lat":41.18928,"lng":-111.94657,"zip":"84409","miles_from_dt":24.74},{"city":"Tremonton","state_name":"Utah","lat":41.69223,"lng":-112.28486,"zip":"84337","miles_from_dt":25.13},{"city":"Richmond","state_name":"Utah","lat":41.91008,"lng":-111.79882,"zip":"84333","miles_from_dt":25.69},{"city":"Trenton","state_name":"Utah","lat":41.91133,"lng":-111.93527,"zip":"84338","miles_from_dt":26.1},{"city":"Ogden","state_name":"Utah","lat":41.15747,"lng":-111.96499,"zip":"84405","miles_from_dt":27.09},{"city":"Roy","state_name":"Utah","lat":41.17189,"lng":-112.04803,"zip":"84067","miles_from_dt":27.48},{"city":"Lewiston","state_name":"Utah","lat":41.96011,"lng":-111.85252,"zip":"84320","miles_from_dt":29.04},{"city":"Hill Afb","state_name":"Utah","lat":41.12679,"lng":-111.99084,"zip":"84056","miles_from_dt":29.47},{"city":"Hooper","state_name":"Utah","lat":41.16681,"lng":-112.13672,"zip":"84315","miles_from_dt":29.87}],"targetCityZipCode":"84328","targetCityState":"Utah"},"__N_SSG":true}