{"pageProps":{"stateName":"North-dakota","cityName":"alamo","nearbyCities":[{"city":"Zahl","state_name":"North Dakota","lat":48.59123,"lng":-103.72546,"zip":"58856","miles_from_dt":11.91},{"city":"Wildrose","state_name":"North Dakota","lat":48.64198,"lng":-103.15094,"zip":"58795","miles_from_dt":14.69},{"city":"Crosby","state_name":"North Dakota","lat":48.86171,"lng":-103.30652,"zip":"58730","miles_from_dt":19.33},{"city":"Ambrose","state_name":"North Dakota","lat":48.89186,"lng":-103.52517,"zip":"58833","miles_from_dt":20.16},{"city":"Grenora","state_name":"North Dakota","lat":48.63928,"lng":-103.92207,"zip":"58845","miles_from_dt":21.04},{"city":"Fortuna","state_name":"North Dakota","lat":48.89167,"lng":-103.74304,"zip":"58844","miles_from_dt":23.64},{"city":"Mcgregor","state_name":"North Dakota","lat":48.62857,"lng":-102.94666,"zip":"58755","miles_from_dt":23.86},{"city":"Ray","state_name":"North Dakota","lat":48.30906,"lng":-103.15697,"zip":"58849","miles_from_dt":24.77},{"city":"Epping","state_name":"North Dakota","lat":48.23141,"lng":-103.38142,"zip":"58843","miles_from_dt":25.95},{"city":"Noonan","state_name":"North Dakota","lat":48.87261,"lng":-103.03805,"zip":"58765","miles_from_dt":27.03},{"city":"Tioga","state_name":"North Dakota","lat":48.38037,"lng":-102.93276,"zip":"58852","miles_from_dt":28.91},{"city":"Williston","state_name":"North Dakota","lat":48.23522,"lng":-103.76747,"zip":"58801","miles_from_dt":28.93}],"targetCityZipCode":"58830","targetCityState":"North Dakota"},"__N_SSG":true}