{"pageProps":{"stateName":"North-dakota","cityName":"bowdon","nearbyCities":[{"city":"Chaseley","state_name":"North Dakota","lat":47.41899,"lng":-99.82951,"zip":"58423","miles_from_dt":9.11},{"city":"Sykeston","state_name":"North Dakota","lat":47.39421,"lng":-99.39279,"zip":"58486","miles_from_dt":11.46},{"city":"Hurdsfield","state_name":"North Dakota","lat":47.45167,"lng":-99.95275,"zip":"58451","miles_from_dt":15.1},{"city":"Cathay","state_name":"North Dakota","lat":47.59853,"lng":-99.39531,"zip":"58422","miles_from_dt":16.94},{"city":"Fessenden","state_name":"North Dakota","lat":47.66247,"lng":-99.57983,"zip":"58438","miles_from_dt":17.3},{"city":"Robinson","state_name":"North Dakota","lat":47.16008,"lng":-99.74543,"zip":"58478","miles_from_dt":18.35},{"city":"Pettibone","state_name":"North Dakota","lat":47.14118,"lng":-99.53717,"zip":"58475","miles_from_dt":19.47},{"city":"Tuttle","state_name":"North Dakota","lat":47.17552,"lng":-99.99709,"zip":"58488","miles_from_dt":23.72},{"city":"Goodrich","state_name":"North Dakota","lat":47.48278,"lng":-100.13156,"zip":"58444","miles_from_dt":23.73},{"city":"Woodworth","state_name":"North Dakota","lat":47.14063,"lng":-99.30794,"zip":"58496","miles_from_dt":24.41},{"city":"Carrington","state_name":"North Dakota","lat":47.43974,"lng":-99.06968,"zip":"58421","miles_from_dt":26.57},{"city":"Harvey","state_name":"North Dakota","lat":47.77117,"lng":-99.85599,"zip":"58341","miles_from_dt":26.69},{"city":"Denhoff","state_name":"North Dakota","lat":47.50831,"lng":-100.25954,"zip":"58430","miles_from_dt":29.95}],"targetCityZipCode":"58418","targetCityState":"North Dakota"},"__N_SSG":true}