{"pageProps":{"stateName":"North-dakota","cityName":"buchanan","nearbyCities":[{"city":"Pingree","state_name":"North Dakota","lat":47.19398,"lng":-99.00263,"zip":"58476","miles_from_dt":11.2},{"city":"Jamestown","state_name":"North Dakota","lat":46.91454,"lng":-98.69673,"zip":"58405","miles_from_dt":12.92},{"city":"Jamestown","state_name":"North Dakota","lat":46.88145,"lng":-98.76883,"zip":"58401","miles_from_dt":13.23},{"city":"Jamestown","state_name":"North Dakota","lat":46.88191,"lng":-98.68755,"zip":"58402","miles_from_dt":14.99},{"city":"Cleveland","state_name":"North Dakota","lat":46.87554,"lng":-99.10217,"zip":"58424","miles_from_dt":16.94},{"city":"Courtenay","state_name":"North Dakota","lat":47.21972,"lng":-98.58075,"zip":"58426","miles_from_dt":17.41},{"city":"Kensal","state_name":"North Dakota","lat":47.30094,"lng":-98.72667,"zip":"58455","miles_from_dt":17.87},{"city":"Wimbledon","state_name":"North Dakota","lat":47.15793,"lng":-98.43787,"zip":"58492","miles_from_dt":21.34},{"city":"Woodworth","state_name":"North Dakota","lat":47.14063,"lng":-99.30794,"zip":"58496","miles_from_dt":21.5},{"city":"Spiritwood","state_name":"North Dakota","lat":46.9346,"lng":-98.42814,"zip":"58481","miles_from_dt":22.51},{"city":"Ypsilanti","state_name":"North Dakota","lat":46.76738,"lng":-98.54076,"zip":"58497","miles_from_dt":25.49},{"city":"Medina","state_name":"North Dakota","lat":46.8746,"lng":-99.34103,"zip":"58467","miles_from_dt":25.83},{"city":"Carrington","state_name":"North Dakota","lat":47.43974,"lng":-99.06968,"zip":"58421","miles_from_dt":27.86},{"city":"Sutton","state_name":"North Dakota","lat":47.37821,"lng":-98.4687,"zip":"58484","miles_from_dt":28.86},{"city":"Glenfield","state_name":"North Dakota","lat":47.46374,"lng":-98.67239,"zip":"58443","miles_from_dt":29.31},{"city":"Sanborn","state_name":"North Dakota","lat":46.94707,"lng":-98.25685,"zip":"58480","miles_from_dt":29.9}],"targetCityZipCode":"58420","targetCityState":"North Dakota"},"__N_SSG":true}