{"pageProps":{"stateName":"North-dakota","cityName":"center","nearbyCities":[{"city":"Washburn","state_name":"North Dakota","lat":47.31983,"lng":-101.05319,"zip":"58577","miles_from_dt":13.69},{"city":"Stanton","state_name":"North Dakota","lat":47.29134,"lng":-101.41043,"zip":"58571","miles_from_dt":16.31},{"city":"Wilton","state_name":"North Dakota","lat":47.18059,"lng":-100.74422,"zip":"58579","miles_from_dt":19.51},{"city":"New Salem","state_name":"North Dakota","lat":46.90178,"lng":-101.43257,"zip":"58563","miles_from_dt":20.77},{"city":"Underwood","state_name":"North Dakota","lat":47.4406,"lng":-101.21597,"zip":"58576","miles_from_dt":21.42},{"city":"Baldwin","state_name":"North Dakota","lat":47.0269,"lng":-100.66963,"zip":"58521","miles_from_dt":23.95},{"city":"Bismarck","state_name":"North Dakota","lat":46.90587,"lng":-100.75262,"zip":"58503","miles_from_dt":24.58},{"city":"Hazen","state_name":"North Dakota","lat":47.34916,"lng":-101.58921,"zip":"58545","miles_from_dt":25.37},{"city":"Riverdale","state_name":"North Dakota","lat":47.49639,"lng":-101.37148,"zip":"58565","miles_from_dt":27.09},{"city":"Bismarck","state_name":"North Dakota","lat":46.82035,"lng":-100.78106,"zip":"58505","miles_from_dt":27.87},{"city":"Mandan","state_name":"North Dakota","lat":46.75148,"lng":-100.95036,"zip":"58554","miles_from_dt":28.07},{"city":"Bismarck","state_name":"North Dakota","lat":46.85102,"lng":-100.7174,"zip":"58502","miles_from_dt":28.36},{"city":"Bismarck","state_name":"North Dakota","lat":46.79637,"lng":-100.75608,"zip":"58507","miles_from_dt":29.9}],"targetCityZipCode":"58530","targetCityState":"North Dakota"},"__N_SSG":true}