{"pageProps":{"stateName":"North-dakota","cityName":"dickey","nearbyCities":[{"city":"Berlin","state_name":"North Dakota","lat":46.36602,"lng":-98.48587,"zip":"58415","miles_from_dt":9.63},{"city":"Marion","state_name":"North Dakota","lat":46.61489,"lng":-98.36493,"zip":"58466","miles_from_dt":9.84},{"city":"Montpelier","state_name":"North Dakota","lat":46.64135,"lng":-98.66055,"zip":"58472","miles_from_dt":12.22},{"city":"Lamoure","state_name":"North Dakota","lat":46.36921,"lng":-98.29257,"zip":"58458","miles_from_dt":13.53},{"city":"Edgeley","state_name":"North Dakota","lat":46.36989,"lng":-98.72157,"zip":"58433","miles_from_dt":14.24},{"city":"Litchville","state_name":"North Dakota","lat":46.64958,"lng":-98.19248,"zip":"58461","miles_from_dt":17.58},{"city":"Ypsilanti","state_name":"North Dakota","lat":46.76738,"lng":-98.54076,"zip":"58497","miles_from_dt":18.23},{"city":"Jud","state_name":"North Dakota","lat":46.5978,"lng":-98.94038,"zip":"58454","miles_from_dt":22.09},{"city":"Verona","state_name":"North Dakota","lat":46.38137,"lng":-98.06063,"zip":"58490","miles_from_dt":22.5},{"city":"Fullerton","state_name":"North Dakota","lat":46.17119,"lng":-98.37844,"zip":"58441","miles_from_dt":23.75},{"city":"Kathryn","state_name":"North Dakota","lat":46.66291,"lng":-98.00054,"zip":"58049","miles_from_dt":26.01},{"city":"Jamestown","state_name":"North Dakota","lat":46.88191,"lng":-98.68755,"zip":"58402","miles_from_dt":27.56},{"city":"Fort Ransom","state_name":"North Dakota","lat":46.44019,"lng":-97.92628,"zip":"58033","miles_from_dt":27.58},{"city":"Kulm","state_name":"North Dakota","lat":46.25674,"lng":-98.95475,"zip":"58456","miles_from_dt":27.82},{"city":"Jamestown","state_name":"North Dakota","lat":46.88145,"lng":-98.76883,"zip":"58401","miles_from_dt":29.03},{"city":"Ellendale","state_name":"North Dakota","lat":46.08203,"lng":-98.58773,"zip":"58436","miles_from_dt":29.55},{"city":"Jamestown","state_name":"North Dakota","lat":46.91454,"lng":-98.69673,"zip":"58405","miles_from_dt":29.83},{"city":"Spiritwood","state_name":"North Dakota","lat":46.9346,"lng":-98.42814,"zip":"58481","miles_from_dt":29.84}],"targetCityZipCode":"58431","targetCityState":"North Dakota"},"__N_SSG":true}