{"pageProps":{"stateName":"North-dakota","cityName":"forbes","nearbyCities":[{"city":"Ellendale","state_name":"North Dakota","lat":46.08203,"lng":-98.58773,"zip":"58436","miles_from_dt":14.09},{"city":"Long Lake","state_name":"South Dakota","lat":45.87281,"lng":-99.15812,"zip":"57457","miles_from_dt":17.11},{"city":"Frederick","state_name":"South Dakota","lat":45.82275,"lng":-98.51474,"zip":"57441","miles_from_dt":18.19},{"city":"Leola","state_name":"South Dakota","lat":45.72104,"lng":-98.99589,"zip":"57456","miles_from_dt":18.8},{"city":"Kulm","state_name":"North Dakota","lat":46.25674,"lng":-98.95475,"zip":"58456","miles_from_dt":20.87},{"city":"Barnard","state_name":"South Dakota","lat":45.73485,"lng":-98.4936,"zip":"57426","miles_from_dt":22.83},{"city":"Westport","state_name":"South Dakota","lat":45.65279,"lng":-98.66821,"zip":"57481","miles_from_dt":23.09},{"city":"Ashley","state_name":"North Dakota","lat":46.02963,"lng":-99.34235,"zip":"58413","miles_from_dt":25.04},{"city":"Fullerton","state_name":"North Dakota","lat":46.17119,"lng":-98.37844,"zip":"58441","miles_from_dt":25.87},{"city":"Fredonia","state_name":"North Dakota","lat":46.27941,"lng":-99.16324,"zip":"58440","miles_from_dt":26.85},{"city":"Edgeley","state_name":"North Dakota","lat":46.36989,"lng":-98.72157,"zip":"58433","miles_from_dt":28.28}],"targetCityZipCode":"58439","targetCityState":"North Dakota"},"__N_SSG":true}