{"pageProps":{"stateName":"North-dakota","cityName":"gladstone","nearbyCities":[{"city":"Taylor","state_name":"North Dakota","lat":46.95207,"lng":-102.46801,"zip":"58656","miles_from_dt":5.58},{"city":"Dickinson","state_name":"North Dakota","lat":46.88493,"lng":-102.78373,"zip":"58602","miles_from_dt":10.12},{"city":"Dickinson","state_name":"North Dakota","lat":46.90964,"lng":-102.82766,"zip":"58601","miles_from_dt":11.93},{"city":"Richardton","state_name":"North Dakota","lat":46.88854,"lng":-102.27037,"zip":"58652","miles_from_dt":14.63},{"city":"Lefor","state_name":"North Dakota","lat":46.66732,"lng":-102.48551,"zip":"58641","miles_from_dt":17.96},{"city":"Marshall","state_name":"North Dakota","lat":47.14095,"lng":-102.35867,"zip":"58644","miles_from_dt":18.41},{"city":"Manning","state_name":"North Dakota","lat":47.20145,"lng":-102.83667,"zip":"58642","miles_from_dt":23.02},{"city":"South Heart","state_name":"North Dakota","lat":46.77921,"lng":-103.03163,"zip":"58655","miles_from_dt":23.68},{"city":"Hebron","state_name":"North Dakota","lat":46.92201,"lng":-102.04867,"zip":"58638","miles_from_dt":24.96}],"targetCityZipCode":"58630","targetCityState":"North Dakota"},"__N_SSG":true}