{"pageProps":{"stateName":"North-dakota","cityName":"hannah","nearbyCities":[{"city":"Wales","state_name":"North Dakota","lat":48.85941,"lng":-98.61086,"zip":"58281","miles_from_dt":7.05},{"city":"Calvin","state_name":"North Dakota","lat":48.84252,"lng":-98.91923,"zip":"58323","miles_from_dt":11.66},{"city":"Sarles","state_name":"North Dakota","lat":48.93906,"lng":-99.00628,"zip":"58372","miles_from_dt":13.54},{"city":"Maida","state_name":"North Dakota","lat":48.99683,"lng":-98.35392,"zip":"58255","miles_from_dt":16.64},{"city":"Munich","state_name":"North Dakota","lat":48.70188,"lng":-98.86099,"zip":"58352","miles_from_dt":17.76},{"city":"Langdon","state_name":"North Dakota","lat":48.82113,"lng":-98.32514,"zip":"58249","miles_from_dt":19.27},{"city":"Alsen","state_name":"North Dakota","lat":48.65111,"lng":-98.57312,"zip":"58311","miles_from_dt":20.8},{"city":"Rocklake","state_name":"North Dakota","lat":48.83655,"lng":-99.23626,"zip":"58365","miles_from_dt":25.05},{"city":"Egeland","state_name":"North Dakota","lat":48.64014,"lng":-99.09293,"zip":"58331","miles_from_dt":27.06},{"city":"Hansboro","state_name":"North Dakota","lat":48.97175,"lng":-99.32709,"zip":"58339","miles_from_dt":28.23},{"city":"Hampden","state_name":"North Dakota","lat":48.52879,"lng":-98.6313,"zip":"58338","miles_from_dt":28.53},{"city":"Nekoma","state_name":"North Dakota","lat":48.57504,"lng":-98.38528,"zip":"58355","miles_from_dt":29.14}],"targetCityZipCode":"58239","targetCityState":"North Dakota"},"__N_SSG":true}