{"pageProps":{"stateName":"North-dakota","cityName":"lankin","nearbyCities":[{"city":"Dahlen","state_name":"North Dakota","lat":48.16777,"lng":-97.94307,"zip":"58224","miles_from_dt":8.4},{"city":"Adams","state_name":"North Dakota","lat":48.4081,"lng":-98.11446,"zip":"58210","miles_from_dt":10.01},{"city":"Fordville","state_name":"North Dakota","lat":48.20208,"lng":-97.82544,"zip":"58231","miles_from_dt":10.66},{"city":"Park River","state_name":"North Dakota","lat":48.39336,"lng":-97.78848,"zip":"58270","miles_from_dt":13.77},{"city":"Brocket","state_name":"North Dakota","lat":48.2025,"lng":-98.32707,"zip":"58321","miles_from_dt":14.64},{"city":"Lawton","state_name":"North Dakota","lat":48.30564,"lng":-98.37436,"zip":"58345","miles_from_dt":16.07},{"city":"Pisek","state_name":"North Dakota","lat":48.29747,"lng":-97.66275,"zip":"58273","miles_from_dt":16.96},{"city":"Michigan","state_name":"North Dakota","lat":48.02053,"lng":-98.12168,"zip":"58259","miles_from_dt":18.09},{"city":"Petersburg","state_name":"North Dakota","lat":48.00868,"lng":-97.9854,"zip":"58272","miles_from_dt":18.51},{"city":"Fairdale","state_name":"North Dakota","lat":48.5182,"lng":-98.25087,"zip":"58229","miles_from_dt":19.67},{"city":"Edinburg","state_name":"North Dakota","lat":48.55247,"lng":-97.90549,"zip":"58227","miles_from_dt":20},{"city":"Inkster","state_name":"North Dakota","lat":48.11035,"lng":-97.65752,"zip":"58244","miles_from_dt":20.59},{"city":"Niagara","state_name":"North Dakota","lat":48.00127,"lng":-97.84967,"zip":"58266","miles_from_dt":20.65},{"city":"Forest River","state_name":"North Dakota","lat":48.20253,"lng":-97.54982,"zip":"58233","miles_from_dt":22.67},{"city":"Lakota","state_name":"North Dakota","lat":48.01471,"lng":-98.33857,"zip":"58344","miles_from_dt":22.98},{"city":"Hoople","state_name":"North Dakota","lat":48.51423,"lng":-97.67956,"zip":"58243","miles_from_dt":23.06},{"city":"Edmore","state_name":"North Dakota","lat":48.44208,"lng":-98.48275,"zip":"58330","miles_from_dt":23.87},{"city":"Milton","state_name":"North Dakota","lat":48.63254,"lng":-98.04709,"zip":"58260","miles_from_dt":24.72},{"city":"Nekoma","state_name":"North Dakota","lat":48.57504,"lng":-98.38528,"zip":"58355","miles_from_dt":26.43},{"city":"Larimore","state_name":"North Dakota","lat":47.94945,"lng":-97.6906,"zip":"58251","miles_from_dt":27.4},{"city":"Crary","state_name":"North Dakota","lat":48.10137,"lng":-98.5731,"zip":"58327","miles_from_dt":27.85},{"city":"Gilby","state_name":"North Dakota","lat":48.09007,"lng":-97.48307,"zip":"58235","miles_from_dt":28.27},{"city":"Crystal","state_name":"North Dakota","lat":48.61853,"lng":-97.68221,"zip":"58222","miles_from_dt":28.59},{"city":"Mountain","state_name":"North Dakota","lat":48.681,"lng":-97.87759,"zip":"58262","miles_from_dt":28.9}],"targetCityZipCode":"58250","targetCityState":"North Dakota"},"__N_SSG":true}