{"pageProps":{"stateName":"North-dakota","cityName":"lefor","nearbyCities":[{"city":"Regent","state_name":"North Dakota","lat":46.43241,"lng":-102.59033,"zip":"58650","miles_from_dt":16.98},{"city":"Gladstone","state_name":"North Dakota","lat":46.91981,"lng":-102.57603,"zip":"58630","miles_from_dt":17.96},{"city":"Richardton","state_name":"North Dakota","lat":46.88854,"lng":-102.27037,"zip":"58652","miles_from_dt":18.38},{"city":"Taylor","state_name":"North Dakota","lat":46.95207,"lng":-102.46801,"zip":"58656","miles_from_dt":19.69},{"city":"Dickinson","state_name":"North Dakota","lat":46.88493,"lng":-102.78373,"zip":"58602","miles_from_dt":20.65},{"city":"Mott","state_name":"North Dakota","lat":46.39826,"lng":-102.28782,"zip":"58646","miles_from_dt":20.84},{"city":"Dickinson","state_name":"North Dakota","lat":46.90964,"lng":-102.82766,"zip":"58601","miles_from_dt":23.32},{"city":"New England","state_name":"North Dakota","lat":46.51695,"lng":-102.93466,"zip":"58647","miles_from_dt":23.78},{"city":"South Heart","state_name":"North Dakota","lat":46.77921,"lng":-103.03163,"zip":"58655","miles_from_dt":27.07},{"city":"Hebron","state_name":"North Dakota","lat":46.92201,"lng":-102.04867,"zip":"58638","miles_from_dt":27.18}],"targetCityZipCode":"58641","targetCityState":"North Dakota"},"__N_SSG":true}