{"pageProps":{"stateName":"North-dakota","cityName":"riverdale","nearbyCities":[{"city":"Underwood","state_name":"North Dakota","lat":47.4406,"lng":-101.21597,"zip":"58576","miles_from_dt":8.24},{"city":"Coleharbor","state_name":"North Dakota","lat":47.58387,"lng":-101.20289,"zip":"58531","miles_from_dt":9.94},{"city":"Stanton","state_name":"North Dakota","lat":47.29134,"lng":-101.41043,"zip":"58571","miles_from_dt":14.28},{"city":"Hazen","state_name":"North Dakota","lat":47.34916,"lng":-101.58921,"zip":"58545","miles_from_dt":14.41},{"city":"Garrison","state_name":"North Dakota","lat":47.62427,"lng":-101.72538,"zip":"58540","miles_from_dt":18.76},{"city":"Washburn","state_name":"North Dakota","lat":47.31983,"lng":-101.05319,"zip":"58577","miles_from_dt":19.28},{"city":"Turtle Lake","state_name":"North Dakota","lat":47.55749,"lng":-100.89971,"zip":"58575","miles_from_dt":22.48},{"city":"Max","state_name":"North Dakota","lat":47.84776,"lng":-101.25026,"zip":"58759","miles_from_dt":24.93},{"city":"Beulah","state_name":"North Dakota","lat":47.26581,"lng":-101.78138,"zip":"58523","miles_from_dt":24.97},{"city":"Benedict","state_name":"North Dakota","lat":47.80049,"lng":-101.06003,"zip":"58716","miles_from_dt":25.55},{"city":"Douglas","state_name":"North Dakota","lat":47.87771,"lng":-101.48366,"zip":"58735","miles_from_dt":26.86},{"city":"Roseglen","state_name":"North Dakota","lat":47.71424,"lng":-101.85203,"zip":"58775","miles_from_dt":27.03},{"city":"Center","state_name":"North Dakota","lat":47.13357,"lng":-101.15257,"zip":"58530","miles_from_dt":27.09},{"city":"Ruso","state_name":"North Dakota","lat":47.78307,"lng":-100.91268,"zip":"58778","miles_from_dt":29.17}],"targetCityZipCode":"58565","targetCityState":"North Dakota"},"__N_SSG":true}