{"pageProps":{"stateName":"North-dakota","cityName":"stanton","nearbyCities":[{"city":"Hazen","state_name":"North Dakota","lat":47.34916,"lng":-101.58921,"zip":"58545","miles_from_dt":9.3},{"city":"Underwood","state_name":"North Dakota","lat":47.4406,"lng":-101.21597,"zip":"58576","miles_from_dt":13.77},{"city":"Riverdale","state_name":"North Dakota","lat":47.49639,"lng":-101.37148,"zip":"58565","miles_from_dt":14.28},{"city":"Center","state_name":"North Dakota","lat":47.13357,"lng":-101.15257,"zip":"58530","miles_from_dt":16.31},{"city":"Washburn","state_name":"North Dakota","lat":47.31983,"lng":-101.05319,"zip":"58577","miles_from_dt":16.9},{"city":"Beulah","state_name":"North Dakota","lat":47.26581,"lng":-101.78138,"zip":"58523","miles_from_dt":17.53},{"city":"Coleharbor","state_name":"North Dakota","lat":47.58387,"lng":-101.20289,"zip":"58531","miles_from_dt":22.43},{"city":"Zap","state_name":"North Dakota","lat":47.2665,"lng":-101.93301,"zip":"58580","miles_from_dt":24.63},{"city":"New Salem","state_name":"North Dakota","lat":46.90178,"lng":-101.43257,"zip":"58563","miles_from_dt":26.93},{"city":"Garrison","state_name":"North Dakota","lat":47.62427,"lng":-101.72538,"zip":"58540","miles_from_dt":27.33}],"targetCityZipCode":"58571","targetCityState":"North Dakota"},"__N_SSG":true}