{"pageProps":{"stateName":"Iowa","cityName":"alta","nearbyCities":[{"city":"Aurelia","state_name":"Iowa","lat":42.72044,"lng":-95.42405,"zip":"51005","miles_from_dt":5.57},{"city":"Truesdale","state_name":"Iowa","lat":42.72927,"lng":-95.18345,"zip":"50592","miles_from_dt":7.2},{"city":"Storm Lake","state_name":"Iowa","lat":42.65777,"lng":-95.16391,"zip":"50588","miles_from_dt":8.37},{"city":"Rembrandt","state_name":"Iowa","lat":42.80267,"lng":-95.17727,"zip":"50576","miles_from_dt":10.17},{"city":"Cherokee","state_name":"Iowa","lat":42.74474,"lng":-95.56171,"zip":"51012","miles_from_dt":12.78},{"city":"Galva","state_name":"Iowa","lat":42.51215,"lng":-95.41249,"zip":"51020","miles_from_dt":13.73},{"city":"Schaller","state_name":"Iowa","lat":42.4938,"lng":-95.28842,"zip":"51053","miles_from_dt":14.22},{"city":"Linn Grove","state_name":"Iowa","lat":42.91653,"lng":-95.25324,"zip":"51033","miles_from_dt":15.41},{"city":"Peterson","state_name":"Iowa","lat":42.93523,"lng":-95.35752,"zip":"51047","miles_from_dt":16.45},{"city":"Nemaha","state_name":"Iowa","lat":42.52146,"lng":-95.08935,"zip":"50567","miles_from_dt":16.92},{"city":"Larrabee","state_name":"Iowa","lat":42.88549,"lng":-95.5414,"zip":"51029","miles_from_dt":17.17},{"city":"Sioux Rapids","state_name":"Iowa","lat":42.91154,"lng":-95.1407,"zip":"50585","miles_from_dt":17.26},{"city":"Quimby","state_name":"Iowa","lat":42.63005,"lng":-95.64463,"zip":"51049","miles_from_dt":17.27},{"city":"Newell","state_name":"Iowa","lat":42.62171,"lng":-94.99395,"zip":"50568","miles_from_dt":17.37},{"city":"Albert City","state_name":"Iowa","lat":42.76084,"lng":-94.98216,"zip":"50510","miles_from_dt":17.65},{"city":"Holstein","state_name":"Iowa","lat":42.4973,"lng":-95.55853,"zip":"51025","miles_from_dt":18.51},{"city":"Meriden","state_name":"Iowa","lat":42.82567,"lng":-95.64269,"zip":"51037","miles_from_dt":18.67},{"city":"Early","state_name":"Iowa","lat":42.45138,"lng":-95.16167,"zip":"50535","miles_from_dt":18.85},{"city":"Marathon","state_name":"Iowa","lat":42.86118,"lng":-94.99698,"zip":"50565","miles_from_dt":19.84},{"city":"Calumet","state_name":"Iowa","lat":42.94499,"lng":-95.55142,"zip":"51009","miles_from_dt":20.72},{"city":"Cleghorn","state_name":"Iowa","lat":42.78428,"lng":-95.71155,"zip":"51014","miles_from_dt":20.85},{"city":"Sutherland","state_name":"Iowa","lat":42.98367,"lng":-95.46879,"zip":"51058","miles_from_dt":21.11},{"city":"Varina","state_name":"Iowa","lat":42.65796,"lng":-94.89832,"zip":"50593","miles_from_dt":21.59},{"city":"Washta","state_name":"Iowa","lat":42.57983,"lng":-95.72036,"zip":"51061","miles_from_dt":22.05},{"city":"Webb","state_name":"Iowa","lat":42.96008,"lng":-95.0095,"zip":"51366","miles_from_dt":23.93},{"city":"Greenville","state_name":"Iowa","lat":43.01804,"lng":-95.11445,"zip":"51343","miles_from_dt":24.37},{"city":"Arthur","state_name":"Iowa","lat":42.34446,"lng":-95.35146,"zip":"51431","miles_from_dt":24.5},{"city":"Sac City","state_name":"Iowa","lat":42.43049,"lng":-94.98595,"zip":"50583","miles_from_dt":25.11},{"city":"Royal","state_name":"Iowa","lat":43.06215,"lng":-95.28762,"zip":"51357","miles_from_dt":25.15},{"city":"Marcus","state_name":"Iowa","lat":42.78086,"lng":-95.80054,"zip":"51035","miles_from_dt":25.17},{"city":"Cushing","state_name":"Iowa","lat":42.44884,"lng":-95.67814,"zip":"51018","miles_from_dt":25.17},{"city":"Fonda","state_name":"Iowa","lat":42.60019,"lng":-94.8407,"zip":"50540","miles_from_dt":25.28},{"city":"Paullina","state_name":"Iowa","lat":42.96621,"lng":-95.67949,"zip":"51046","miles_from_dt":26.03},{"city":"Gillett Grove","state_name":"Iowa","lat":43.01665,"lng":-95.04132,"zip":"51341","miles_from_dt":26.08},{"city":"Laurens","state_name":"Iowa","lat":42.84648,"lng":-94.84118,"zip":"50554","miles_from_dt":26.34},{"city":"Odebolt","state_name":"Iowa","lat":42.32141,"lng":-95.23524,"zip":"51458","miles_from_dt":26.38},{"city":"Ida Grove","state_name":"Iowa","lat":42.32719,"lng":-95.46724,"zip":"51445","miles_from_dt":26.74},{"city":"Pierson","state_name":"Iowa","lat":42.57963,"lng":-95.86412,"zip":"51048","miles_from_dt":28.99},{"city":"Correctionville","state_name":"Iowa","lat":42.46907,"lng":-95.80113,"zip":"51016","miles_from_dt":29.27},{"city":"Primghar","state_name":"Iowa","lat":43.07788,"lng":-95.60149,"zip":"51245","miles_from_dt":29.86}],"targetCityZipCode":"51002","targetCityState":"Iowa"},"__N_SSG":true}