{"pageProps":{"stateName":"Iowa","cityName":"battle-creek","nearbyCities":[{"city":"Danbury","state_name":"Iowa","lat":42.2721,"lng":-95.72615,"zip":"51019","miles_from_dt":6.39},{"city":"Ida Grove","state_name":"Iowa","lat":42.32719,"lng":-95.46724,"zip":"51445","miles_from_dt":7.55},{"city":"Cushing","state_name":"Iowa","lat":42.44884,"lng":-95.67814,"zip":"51018","miles_from_dt":10.09},{"city":"Schleswig","state_name":"Iowa","lat":42.172,"lng":-95.47579,"zip":"51461","miles_from_dt":11.89},{"city":"Ricketts","state_name":"Iowa","lat":42.1324,"lng":-95.571,"zip":"51460","miles_from_dt":12.51},{"city":"Holstein","state_name":"Iowa","lat":42.4973,"lng":-95.55853,"zip":"51025","miles_from_dt":13.17},{"city":"Arthur","state_name":"Iowa","lat":42.34446,"lng":-95.35146,"zip":"51431","miles_from_dt":13.59},{"city":"Mapleton","state_name":"Iowa","lat":42.16241,"lng":-95.78947,"zip":"51034","miles_from_dt":13.67},{"city":"Correctionville","state_name":"Iowa","lat":42.46907,"lng":-95.80113,"zip":"51016","miles_from_dt":14.56},{"city":"Oto","state_name":"Iowa","lat":42.30113,"lng":-95.91716,"zip":"51044","miles_from_dt":15.6},{"city":"Charter Oak","state_name":"Iowa","lat":42.08298,"lng":-95.58347,"zip":"51439","miles_from_dt":15.8},{"city":"Anthon","state_name":"Iowa","lat":42.3762,"lng":-95.916,"zip":"51004","miles_from_dt":16.16},{"city":"Galva","state_name":"Iowa","lat":42.51215,"lng":-95.41249,"zip":"51020","miles_from_dt":17.27},{"city":"Kiron","state_name":"Iowa","lat":42.20238,"lng":-95.30839,"zip":"51448","miles_from_dt":17.32},{"city":"Smithland","state_name":"Iowa","lat":42.23443,"lng":-95.95391,"zip":"51056","miles_from_dt":18.26},{"city":"Ute","state_name":"Iowa","lat":42.04189,"lng":-95.69844,"zip":"51060","miles_from_dt":19.08},{"city":"Odebolt","state_name":"Iowa","lat":42.32141,"lng":-95.23524,"zip":"51458","miles_from_dt":19.36},{"city":"Washta","state_name":"Iowa","lat":42.57983,"lng":-95.72036,"zip":"51061","miles_from_dt":19.36},{"city":"Rodney","state_name":"Iowa","lat":42.20443,"lng":-95.96988,"zip":"51051","miles_from_dt":19.72},{"city":"Deloit","state_name":"Iowa","lat":42.11784,"lng":-95.3157,"zip":"51441","miles_from_dt":20.25},{"city":"Schaller","state_name":"Iowa","lat":42.4938,"lng":-95.28842,"zip":"51053","miles_from_dt":20.86},{"city":"Castana","state_name":"Iowa","lat":42.09309,"lng":-95.92044,"zip":"51010","miles_from_dt":21.79},{"city":"Quimby","state_name":"Iowa","lat":42.63005,"lng":-95.64463,"zip":"51049","miles_from_dt":22.09},{"city":"Pierson","state_name":"Iowa","lat":42.57963,"lng":-95.86412,"zip":"51048","miles_from_dt":22.56},{"city":"Denison","state_name":"Iowa","lat":42.02696,"lng":-95.35915,"zip":"51442","miles_from_dt":23.53},{"city":"Soldier","state_name":"Iowa","lat":41.9896,"lng":-95.79053,"zip":"51572","miles_from_dt":23.98},{"city":"Climbing Hill","state_name":"Iowa","lat":42.33936,"lng":-96.08107,"zip":"51015","miles_from_dt":24.05},{"city":"Hornick","state_name":"Iowa","lat":42.24857,"lng":-96.07592,"zip":"51026","miles_from_dt":24.11},{"city":"Moville","state_name":"Iowa","lat":42.45655,"lng":-96.05381,"zip":"51039","miles_from_dt":24.7},{"city":"Arion","state_name":"Iowa","lat":41.9692,"lng":-95.4593,"zip":"51520","miles_from_dt":24.87},{"city":"Early","state_name":"Iowa","lat":42.45138,"lng":-95.16167,"zip":"50535","miles_from_dt":25.05},{"city":"Vail","state_name":"Iowa","lat":42.08964,"lng":-95.19872,"zip":"51465","miles_from_dt":26.18},{"city":"Wall Lake","state_name":"Iowa","lat":42.25302,"lng":-95.09837,"zip":"51466","miles_from_dt":26.68},{"city":"Dow City","state_name":"Iowa","lat":41.92724,"lng":-95.50185,"zip":"51528","miles_from_dt":27.09},{"city":"Kingsley","state_name":"Iowa","lat":42.59909,"lng":-95.99199,"zip":"51028","miles_from_dt":27.77},{"city":"Aurelia","state_name":"Iowa","lat":42.72044,"lng":-95.42405,"zip":"51005","miles_from_dt":29.87}],"targetCityZipCode":"51006","targetCityState":"Iowa"},"__N_SSG":true}