{"pageProps":{"stateName":"Iowa","cityName":"delmar","nearbyCities":[{"city":"Welton","state_name":"Iowa","lat":41.90743,"lng":-90.59596,"zip":"52774","miles_from_dt":4.46},{"city":"Charlotte","state_name":"Iowa","lat":41.96637,"lng":-90.48551,"zip":"52731","miles_from_dt":7.39},{"city":"Grand Mound","state_name":"Iowa","lat":41.8519,"lng":-90.68398,"zip":"52751","miles_from_dt":8.44},{"city":"Lost Nation","state_name":"Iowa","lat":41.95232,"lng":-90.80538,"zip":"52254","miles_from_dt":9.14},{"city":"Maquoketa","state_name":"Iowa","lat":42.10217,"lng":-90.67961,"zip":"52060","miles_from_dt":9.68},{"city":"De Witt","state_name":"Iowa","lat":41.83616,"lng":-90.51076,"zip":"52742","miles_from_dt":10.9},{"city":"Preston","state_name":"Iowa","lat":42.05772,"lng":-90.4279,"zip":"52069","miles_from_dt":12.09},{"city":"Goose Lake","state_name":"Iowa","lat":41.933,"lng":-90.39302,"zip":"52750","miles_from_dt":12.38},{"city":"Spragueville","state_name":"Iowa","lat":42.10966,"lng":-90.4724,"zip":"52074","miles_from_dt":12.72},{"city":"Calamus","state_name":"Iowa","lat":41.80063,"lng":-90.74312,"zip":"52729","miles_from_dt":12.91},{"city":"Andrew","state_name":"Iowa","lat":42.15322,"lng":-90.59219,"zip":"52030","miles_from_dt":12.98},{"city":"Baldwin","state_name":"Iowa","lat":42.09286,"lng":-90.83,"zip":"52207","miles_from_dt":13.5},{"city":"Wheatland","state_name":"Iowa","lat":41.84739,"lng":-90.85529,"zip":"52777","miles_from_dt":14.3},{"city":"Bryant","state_name":"Iowa","lat":41.95834,"lng":-90.33341,"zip":"52727","miles_from_dt":15.24},{"city":"Springbrook","state_name":"Iowa","lat":42.16577,"lng":-90.47916,"zip":"52075","miles_from_dt":15.73},{"city":"Oxford Junction","state_name":"Iowa","lat":41.98445,"lng":-90.95344,"zip":"52323","miles_from_dt":16.75},{"city":"Long Grove","state_name":"Iowa","lat":41.72966,"lng":-90.54084,"zip":"52756","miles_from_dt":17.01},{"city":"Monmouth","state_name":"Iowa","lat":42.12415,"lng":-90.88733,"zip":"52309","miles_from_dt":17.15},{"city":"Donahue","state_name":"Iowa","lat":41.71945,"lng":-90.67172,"zip":"52746","miles_from_dt":17.23},{"city":"Low Moor","state_name":"Iowa","lat":41.80337,"lng":-90.3552,"zip":"52757","miles_from_dt":18.09},{"city":"McCausland","state_name":"Iowa","lat":41.74405,"lng":-90.44104,"zip":"52758","miles_from_dt":18.2},{"city":"Miles","state_name":"Iowa","lat":42.08977,"lng":-90.31076,"zip":"52064","miles_from_dt":18.43},{"city":"Lowden","state_name":"Iowa","lat":41.86294,"lng":-90.96129,"zip":"52255","miles_from_dt":18.58},{"city":"Dixon","state_name":"Iowa","lat":41.71502,"lng":-90.75783,"zip":"52745","miles_from_dt":18.63},{"city":"Teeds Grove","state_name":"Iowa","lat":42.01958,"lng":-90.25707,"zip":"52771","miles_from_dt":19.49},{"city":"Andover","state_name":"Iowa","lat":41.98198,"lng":-90.24908,"zip":"52701","miles_from_dt":19.59},{"city":"Camanche","state_name":"Iowa","lat":41.77366,"lng":-90.34364,"zip":"52730","miles_from_dt":19.87},{"city":"Clinton","state_name":"Iowa","lat":41.90126,"lng":-90.25083,"zip":"52732","miles_from_dt":20.01},{"city":"Wyoming","state_name":"Iowa","lat":42.05881,"lng":-91.00258,"zip":"52362","miles_from_dt":20.24},{"city":"Bellevue","state_name":"Iowa","lat":42.24874,"lng":-90.48922,"zip":"52031","miles_from_dt":20.72},{"city":"New Liberty","state_name":"Iowa","lat":41.72182,"lng":-90.87274,"zip":"52765","miles_from_dt":21.09},{"city":"Eldridge","state_name":"Iowa","lat":41.66471,"lng":-90.55713,"zip":"52748","miles_from_dt":21.2},{"city":"Onslow","state_name":"Iowa","lat":42.14168,"lng":-90.98307,"zip":"52321","miles_from_dt":21.84},{"city":"Clarence","state_name":"Iowa","lat":41.89321,"lng":-91.0431,"zip":"52216","miles_from_dt":21.94},{"city":"Clinton","state_name":"Iowa","lat":41.84253,"lng":-90.23168,"zip":"52736","miles_from_dt":22.22},{"city":"Princeton","state_name":"Iowa","lat":41.69906,"lng":-90.38977,"zip":"52768","miles_from_dt":22.24},{"city":"Bennett","state_name":"Iowa","lat":41.75588,"lng":-90.9633,"zip":"52721","miles_from_dt":22.58},{"city":"Sabula","state_name":"Iowa","lat":42.08146,"lng":-90.21771,"zip":"52070","miles_from_dt":22.59},{"city":"Zwingle","state_name":"Iowa","lat":42.28781,"lng":-90.71908,"zip":"52079","miles_from_dt":22.61},{"city":"Clinton","state_name":"Iowa","lat":41.81909,"lng":-90.23587,"zip":"52734","miles_from_dt":22.7},{"city":"La Motte","state_name":"Iowa","lat":42.30569,"lng":-90.62811,"zip":"52054","miles_from_dt":23.37},{"city":"Clinton","state_name":"Iowa","lat":41.8477,"lng":-90.18734,"zip":"52733","miles_from_dt":24.22},{"city":"Walcott","state_name":"Iowa","lat":41.62187,"lng":-90.75529,"zip":"52773","miles_from_dt":24.7},{"city":"Bernard","state_name":"Iowa","lat":42.29006,"lng":-90.84317,"zip":"52032","miles_from_dt":24.86},{"city":"Davenport","state_name":"Iowa","lat":41.61061,"lng":-90.51634,"zip":"52807","miles_from_dt":25.28},{"city":"Center Junction","state_name":"Iowa","lat":42.10954,"lng":-91.08929,"zip":"52212","miles_from_dt":25.64},{"city":"Cordova","state_name":"Illinois","lat":41.70363,"lng":-90.27858,"zip":"61242","miles_from_dt":25.65},{"city":"Davenport","state_name":"Iowa","lat":41.58918,"lng":-90.62553,"zip":"52806","miles_from_dt":26.08},{"city":"Hanover","state_name":"Illinois","lat":42.272,"lng":-90.3202,"zip":"61041","miles_from_dt":26.35},{"city":"Albany","state_name":"Illinois","lat":41.74074,"lng":-90.21447,"zip":"61230","miles_from_dt":26.49},{"city":"Le Claire","state_name":"Iowa","lat":41.62544,"lng":-90.38989,"zip":"52753","miles_from_dt":26.62},{"city":"Olin","state_name":"Iowa","lat":41.99997,"lng":-91.14643,"zip":"52320","miles_from_dt":26.74},{"city":"Stockton","state_name":"Iowa","lat":41.60836,"lng":-90.8416,"zip":"52769","miles_from_dt":27.09},{"city":"Stanwood","state_name":"Iowa","lat":41.88217,"lng":-91.14282,"zip":"52337","miles_from_dt":27.12},{"city":"Davenport","state_name":"Iowa","lat":41.57263,"lng":-90.60231,"zip":"52805","miles_from_dt":27.26},{"city":"Fulton","state_name":"Illinois","lat":41.8435,"lng":-90.12272,"zip":"61252","miles_from_dt":27.46},{"city":"Saint Donatus","state_name":"Iowa","lat":42.36245,"lng":-90.54234,"zip":"52071","miles_from_dt":27.65},{"city":"Savanna","state_name":"Illinois","lat":42.12615,"lng":-90.13061,"zip":"61074","miles_from_dt":27.89},{"city":"Davenport","state_name":"Iowa","lat":41.5601,"lng":-90.63254,"zip":"52809","miles_from_dt":28.09},{"city":"Thomson","state_name":"Illinois","lat":41.98307,"lng":-90.0811,"zip":"61285","miles_from_dt":28.24},{"city":"Cascade","state_name":"Iowa","lat":42.27941,"lng":-91.00177,"zip":"52033","miles_from_dt":28.83},{"city":"Bettendorf","state_name":"Iowa","lat":41.56633,"lng":-90.4673,"zip":"52722","miles_from_dt":28.89},{"city":"Pleasant Valley","state_name":"Iowa","lat":41.57356,"lng":-90.42326,"zip":"52767","miles_from_dt":29.17},{"city":"Durant","state_name":"Iowa","lat":41.59758,"lng":-90.91147,"zip":"52747","miles_from_dt":29.38},{"city":"Davenport","state_name":"Iowa","lat":41.53871,"lng":-90.55623,"zip":"52803","miles_from_dt":29.8},{"city":"Davenport","state_name":"Iowa","lat":41.53584,"lng":-90.68081,"zip":"52804","miles_from_dt":29.88}],"targetCityZipCode":"52037","targetCityState":"Iowa"},"__N_SSG":true}