{"pageProps":{"stateName":"Iowa","cityName":"dunlap","nearbyCities":[{"city":"Dow City","state_name":"Iowa","lat":41.92724,"lng":-95.50185,"zip":"51528","miles_from_dt":7.83},{"city":"Woodbine","state_name":"Iowa","lat":41.75171,"lng":-95.7069,"zip":"51579","miles_from_dt":8.67},{"city":"Arion","state_name":"Iowa","lat":41.9692,"lng":-95.4593,"zip":"51520","miles_from_dt":11.34},{"city":"Panama","state_name":"Iowa","lat":41.72591,"lng":-95.50128,"zip":"51562","miles_from_dt":11.37},{"city":"Earling","state_name":"Iowa","lat":41.78247,"lng":-95.42613,"zip":"51530","miles_from_dt":11.68},{"city":"Soldier","state_name":"Iowa","lat":41.9896,"lng":-95.79053,"zip":"51572","miles_from_dt":12.24},{"city":"Ute","state_name":"Iowa","lat":42.04189,"lng":-95.69844,"zip":"51060","miles_from_dt":12.98},{"city":"Moorhead","state_name":"Iowa","lat":41.91497,"lng":-95.87023,"zip":"51558","miles_from_dt":13.12},{"city":"Defiance","state_name":"Iowa","lat":41.82875,"lng":-95.348,"zip":"51527","miles_from_dt":14.52},{"city":"Pisgah","state_name":"Iowa","lat":41.81309,"lng":-95.90801,"zip":"51564","miles_from_dt":14.94},{"city":"Charter Oak","state_name":"Iowa","lat":42.08298,"lng":-95.58347,"zip":"51439","miles_from_dt":15.42},{"city":"Westphalia","state_name":"Iowa","lat":41.72002,"lng":-95.39508,"zip":"51578","miles_from_dt":15.42},{"city":"Portsmouth","state_name":"Iowa","lat":41.64555,"lng":-95.52391,"zip":"51565","miles_from_dt":15.83},{"city":"Logan","state_name":"Iowa","lat":41.6399,"lng":-95.77209,"zip":"51546","miles_from_dt":17.08},{"city":"Magnolia","state_name":"Iowa","lat":41.69203,"lng":-95.87399,"zip":"51550","miles_from_dt":17.36},{"city":"Denison","state_name":"Iowa","lat":42.02696,"lng":-95.35915,"zip":"51442","miles_from_dt":17.86},{"city":"Ricketts","state_name":"Iowa","lat":42.1324,"lng":-95.571,"zip":"51460","miles_from_dt":18.89},{"city":"Persia","state_name":"Iowa","lat":41.5769,"lng":-95.59405,"zip":"51563","miles_from_dt":19.73},{"city":"Little Sioux","state_name":"Iowa","lat":41.83897,"lng":-96.02072,"zip":"51545","miles_from_dt":20.43},{"city":"Harlan","state_name":"Iowa","lat":41.65809,"lng":-95.31861,"zip":"51593","miles_from_dt":21.21},{"city":"Mondamin","state_name":"Iowa","lat":41.72903,"lng":-96.00233,"zip":"51557","miles_from_dt":21.49},{"city":"Manilla","state_name":"Iowa","lat":41.8798,"lng":-95.2072,"zip":"51454","miles_from_dt":21.63},{"city":"Castana","state_name":"Iowa","lat":42.09309,"lng":-95.92044,"zip":"51010","miles_from_dt":22.02},{"city":"Mapleton","state_name":"Iowa","lat":42.16241,"lng":-95.78947,"zip":"51034","miles_from_dt":22.39},{"city":"Harlan","state_name":"Iowa","lat":41.64646,"lng":-95.29531,"zip":"51537","miles_from_dt":22.64},{"city":"Schleswig","state_name":"Iowa","lat":42.172,"lng":-95.47579,"zip":"51461","miles_from_dt":22.76},{"city":"Irwin","state_name":"Iowa","lat":41.77663,"lng":-95.19277,"zip":"51446","miles_from_dt":23.12},{"city":"Blencoe","state_name":"Iowa","lat":41.9122,"lng":-96.07172,"zip":"51523","miles_from_dt":23.25},{"city":"Deloit","state_name":"Iowa","lat":42.11784,"lng":-95.3157,"zip":"51441","miles_from_dt":23.82},{"city":"Kirkman","state_name":"Iowa","lat":41.72101,"lng":-95.19196,"zip":"51447","miles_from_dt":24.43},{"city":"Shelby","state_name":"Iowa","lat":41.52271,"lng":-95.46039,"zip":"51570","miles_from_dt":24.92},{"city":"Aspinwall","state_name":"Iowa","lat":41.91009,"lng":-95.13795,"zip":"51432","miles_from_dt":25.39},{"city":"Missouri Valley","state_name":"Iowa","lat":41.55937,"lng":-95.91398,"zip":"51555","miles_from_dt":25.64},{"city":"Onawa","state_name":"Iowa","lat":42.03073,"lng":-96.0706,"zip":"51040","miles_from_dt":25.71},{"city":"Modale","state_name":"Iowa","lat":41.63548,"lng":-96.04198,"zip":"51556","miles_from_dt":26.58},{"city":"Vail","state_name":"Iowa","lat":42.08964,"lng":-95.19872,"zip":"51465","miles_from_dt":27.04},{"city":"Neola","state_name":"Iowa","lat":41.46034,"lng":-95.66049,"zip":"51559","miles_from_dt":27.76},{"city":"Kiron","state_name":"Iowa","lat":42.20238,"lng":-95.30839,"zip":"51448","miles_from_dt":28.63},{"city":"Danbury","state_name":"Iowa","lat":42.2721,"lng":-95.72615,"zip":"51019","miles_from_dt":28.78},{"city":"Rodney","state_name":"Iowa","lat":42.20443,"lng":-95.96988,"zip":"51051","miles_from_dt":29.54},{"city":"Manning","state_name":"Iowa","lat":41.90829,"lng":-95.0559,"zip":"51455","miles_from_dt":29.57}],"targetCityZipCode":"51529","targetCityState":"Iowa"},"__N_SSG":true}