{"pageProps":{"stateName":"Iowa","cityName":"estherville","nearbyCities":[{"city":"Superior","state_name":"Iowa","lat":43.43363,"lng":-94.94678,"zip":"51363","miles_from_dt":7.33},{"city":"Wallingford","state_name":"Iowa","lat":43.30652,"lng":-94.7349,"zip":"51365","miles_from_dt":7.63},{"city":"Dunnell","state_name":"Minnesota","lat":43.54892,"lng":-94.77261,"zip":"56127","miles_from_dt":10.17},{"city":"Dolliver","state_name":"Iowa","lat":43.45841,"lng":-94.61417,"zip":"50531","miles_from_dt":10.41},{"city":"Terril","state_name":"Iowa","lat":43.2993,"lng":-94.96293,"zip":"51364","miles_from_dt":10.67},{"city":"Graettinger","state_name":"Iowa","lat":43.24359,"lng":-94.73832,"zip":"51342","miles_from_dt":11.59},{"city":"Ceylon","state_name":"Minnesota","lat":43.53858,"lng":-94.61051,"zip":"56121","miles_from_dt":13.57},{"city":"Spirit Lake","state_name":"Iowa","lat":43.43626,"lng":-95.08556,"zip":"51360","miles_from_dt":14.2},{"city":"Ringsted","state_name":"Iowa","lat":43.30081,"lng":-94.54775,"zip":"50578","miles_from_dt":14.87},{"city":"Arnolds Park","state_name":"Iowa","lat":43.36431,"lng":-95.13028,"zip":"51331","miles_from_dt":16.5},{"city":"Armstrong","state_name":"Iowa","lat":43.41374,"lng":-94.47361,"zip":"50514","miles_from_dt":16.79},{"city":"Alpha","state_name":"Minnesota","lat":43.64155,"lng":-94.8799,"zip":"56111","miles_from_dt":16.82},{"city":"Okoboji","state_name":"Iowa","lat":43.38996,"lng":-95.14082,"zip":"51355","miles_from_dt":16.83},{"city":"Jackson","state_name":"Minnesota","lat":43.62803,"lng":-95.00759,"zip":"56143","miles_from_dt":18.47},{"city":"Sherburn","state_name":"Minnesota","lat":43.66902,"lng":-94.75925,"zip":"56171","miles_from_dt":18.47},{"city":"Ruthven","state_name":"Iowa","lat":43.13033,"lng":-94.89579,"zip":"51358","miles_from_dt":19.4},{"city":"Milford","state_name":"Iowa","lat":43.31656,"lng":-95.18626,"zip":"51351","miles_from_dt":20.03},{"city":"Emmetsburg","state_name":"Iowa","lat":43.11605,"lng":-94.69716,"zip":"50536","miles_from_dt":20.62},{"city":"Fostoria","state_name":"Iowa","lat":43.2404,"lng":-95.15613,"zip":"51340","miles_from_dt":20.9},{"city":"Dickens","state_name":"Iowa","lat":43.1324,"lng":-95.00437,"zip":"51333","miles_from_dt":21.22},{"city":"Welcome","state_name":"Minnesota","lat":43.67951,"lng":-94.61549,"zip":"56181","miles_from_dt":21.33},{"city":"Fenton","state_name":"Iowa","lat":43.23543,"lng":-94.41849,"zip":"50539","miles_from_dt":22.77},{"city":"Fairmont","state_name":"Minnesota","lat":43.62246,"lng":-94.46757,"zip":"56031","miles_from_dt":22.78},{"city":"Cylinder","state_name":"Iowa","lat":43.13717,"lng":-94.54023,"zip":"50528","miles_from_dt":22.8},{"city":"Spencer","state_name":"Iowa","lat":43.15314,"lng":-95.14973,"zip":"51301","miles_from_dt":24.46},{"city":"Swea City","state_name":"Iowa","lat":43.40647,"lng":-94.30303,"zip":"50590","miles_from_dt":25.37},{"city":"Lake Park","state_name":"Iowa","lat":43.42547,"lng":-95.31363,"zip":"51347","miles_from_dt":25.54},{"city":"Lakefield","state_name":"Minnesota","lat":43.63469,"lng":-95.21266,"zip":"56150","miles_from_dt":25.87},{"city":"Trimont","state_name":"Minnesota","lat":43.78319,"lng":-94.72835,"zip":"56176","miles_from_dt":26.49},{"city":"Ayrshire","state_name":"Iowa","lat":43.01993,"lng":-94.87812,"zip":"50515","miles_from_dt":26.74},{"city":"Lone Rock","state_name":"Iowa","lat":43.20912,"lng":-94.32477,"zip":"50559","miles_from_dt":27.78},{"city":"Gillett Grove","state_name":"Iowa","lat":43.01665,"lng":-95.04132,"zip":"51341","miles_from_dt":29.23},{"city":"Everly","state_name":"Iowa","lat":43.2065,"lng":-95.32378,"zip":"51338","miles_from_dt":29.4},{"city":"Northrop","state_name":"Minnesota","lat":43.73516,"lng":-94.43663,"zip":"56075","miles_from_dt":29.48},{"city":"Odin","state_name":"Minnesota","lat":43.83311,"lng":-94.81041,"zip":"56160","miles_from_dt":29.64},{"city":"Bancroft","state_name":"Iowa","lat":43.30099,"lng":-94.23452,"zip":"50517","miles_from_dt":29.7},{"city":"Whittemore","state_name":"Iowa","lat":43.08023,"lng":-94.41841,"zip":"50598","miles_from_dt":29.72}],"targetCityZipCode":"51334","targetCityState":"Iowa"},"__N_SSG":true}