{"pageProps":{"stateName":"Iowa","cityName":"hartwick","nearbyCities":[{"city":"Brooklyn","state_name":"Iowa","lat":41.75978,"lng":-92.45062,"zip":"52211","miles_from_dt":6.37},{"city":"Victor","state_name":"Iowa","lat":41.71345,"lng":-92.28591,"zip":"52347","miles_from_dt":6.68},{"city":"Belle Plaine","state_name":"Iowa","lat":41.88568,"lng":-92.26475,"zip":"52208","miles_from_dt":7.01},{"city":"Chelsea","state_name":"Iowa","lat":41.91018,"lng":-92.40106,"zip":"52215","miles_from_dt":8.14},{"city":"Ladora","state_name":"Iowa","lat":41.71218,"lng":-92.20314,"zip":"52251","miles_from_dt":9.39},{"city":"Guernsey","state_name":"Iowa","lat":41.64151,"lng":-92.33215,"zip":"52221","miles_from_dt":11.03},{"city":"Luzerne","state_name":"Iowa","lat":41.91836,"lng":-92.17742,"zip":"52257","miles_from_dt":11.66},{"city":"Malcom","state_name":"Iowa","lat":41.74545,"lng":-92.56183,"zip":"50157","miles_from_dt":12.07},{"city":"Marengo","state_name":"Iowa","lat":41.78658,"lng":-92.09013,"zip":"52301","miles_from_dt":12.97},{"city":"Vining","state_name":"Iowa","lat":41.99331,"lng":-92.38597,"zip":"52348","miles_from_dt":13.46},{"city":"Elberon","state_name":"Iowa","lat":42.01289,"lng":-92.32636,"zip":"52225","miles_from_dt":14.62},{"city":"Blairstown","state_name":"Iowa","lat":41.90809,"lng":-92.09462,"zip":"52209","miles_from_dt":14.67},{"city":"Tama","state_name":"Iowa","lat":41.92313,"lng":-92.58307,"zip":"52339","miles_from_dt":15.08},{"city":"Deep River","state_name":"Iowa","lat":41.57623,"lng":-92.33693,"zip":"52222","miles_from_dt":15.53},{"city":"Keystone","state_name":"Iowa","lat":42.01202,"lng":-92.20517,"zip":"52249","miles_from_dt":16.13},{"city":"Montezuma","state_name":"Iowa","lat":41.58434,"lng":-92.52584,"zip":"50171","miles_from_dt":17.78},{"city":"Millersburg","state_name":"Iowa","lat":41.5733,"lng":-92.1592,"zip":"52308","miles_from_dt":18.32},{"city":"Conroy","state_name":"Iowa","lat":41.72661,"lng":-91.99853,"zip":"52220","miles_from_dt":18.4},{"city":"Clutier","state_name":"Iowa","lat":42.07948,"lng":-92.41067,"zip":"52217","miles_from_dt":19.54},{"city":"Van Horne","state_name":"Iowa","lat":42.01298,"lng":-92.08119,"zip":"52346","miles_from_dt":19.8},{"city":"Watkins","state_name":"Iowa","lat":41.91883,"lng":-91.98856,"zip":"52354","miles_from_dt":19.88},{"city":"Williamsburg","state_name":"Iowa","lat":41.6446,"lng":-92.0154,"zip":"52361","miles_from_dt":19.98},{"city":"Grinnell","state_name":"Iowa","lat":41.7319,"lng":-92.71591,"zip":"50112","miles_from_dt":19.98},{"city":"Toledo","state_name":"Iowa","lat":42.05047,"lng":-92.55849,"zip":"52342","miles_from_dt":20.54},{"city":"South Amana","state_name":"Iowa","lat":41.73084,"lng":-91.94355,"zip":"52334","miles_from_dt":21.07},{"city":"Gibson","state_name":"Iowa","lat":41.49458,"lng":-92.38841,"zip":"50104","miles_from_dt":21.31},{"city":"North English","state_name":"Iowa","lat":41.53727,"lng":-92.09367,"zip":"52316","miles_from_dt":22.25},{"city":"Montour","state_name":"Iowa","lat":41.97461,"lng":-92.71044,"zip":"50173","miles_from_dt":22.52},{"city":"Middle Amana","state_name":"Iowa","lat":41.79158,"lng":-91.90244,"zip":"52307","miles_from_dt":22.63},{"city":"Keswick","state_name":"Iowa","lat":41.46984,"lng":-92.28927,"zip":"50136","miles_from_dt":23.03},{"city":"Amana","state_name":"Iowa","lat":41.81035,"lng":-91.8906,"zip":"52203","miles_from_dt":23.24},{"city":"Newhall","state_name":"Iowa","lat":42.00181,"lng":-91.96985,"zip":"52315","miles_from_dt":23.59},{"city":"Barnes City","state_name":"Iowa","lat":41.4739,"lng":-92.47194,"zip":"50027","miles_from_dt":23.6},{"city":"Norway","state_name":"Iowa","lat":41.89012,"lng":-91.89656,"zip":"52318","miles_from_dt":23.71},{"city":"Thornburg","state_name":"Iowa","lat":41.45593,"lng":-92.33207,"zip":"50255","miles_from_dt":23.84},{"city":"Amana","state_name":"Iowa","lat":41.79852,"lng":-91.87065,"zip":"52204","miles_from_dt":24.26},{"city":"Homestead","state_name":"Iowa","lat":41.73143,"lng":-91.87647,"zip":"52236","miles_from_dt":24.45},{"city":"Searsboro","state_name":"Iowa","lat":41.56332,"lng":-92.69428,"zip":"50242","miles_from_dt":24.59},{"city":"Gilman","state_name":"Iowa","lat":41.88213,"lng":-92.80749,"zip":"50106","miles_from_dt":24.74},{"city":"Webster","state_name":"Iowa","lat":41.4576,"lng":-92.18387,"zip":"52355","miles_from_dt":25.07},{"city":"Dysart","state_name":"Iowa","lat":42.16386,"lng":-92.29836,"zip":"52224","miles_from_dt":25.12},{"city":"Garrison","state_name":"Iowa","lat":42.14609,"lng":-92.16884,"zip":"52229","miles_from_dt":25.39},{"city":"Parnell","state_name":"Iowa","lat":41.58028,"lng":-91.92305,"zip":"52325","miles_from_dt":26.43},{"city":"Le Grand","state_name":"Iowa","lat":42.0055,"lng":-92.77582,"zip":"50142","miles_from_dt":26.51},{"city":"Walford","state_name":"Iowa","lat":41.87496,"lng":-91.83529,"zip":"52351","miles_from_dt":26.56},{"city":"Garwin","state_name":"Iowa","lat":42.07667,"lng":-92.70299,"zip":"50632","miles_from_dt":26.65},{"city":"Atkins","state_name":"Iowa","lat":41.99187,"lng":-91.88718,"zip":"52206","miles_from_dt":26.82},{"city":"What Cheer","state_name":"Iowa","lat":41.40695,"lng":-92.36227,"zip":"50268","miles_from_dt":27.24},{"city":"South English","state_name":"Iowa","lat":41.45935,"lng":-92.05895,"zip":"52335","miles_from_dt":27.74},{"city":"Lynnville","state_name":"Iowa","lat":41.57669,"lng":-92.80033,"zip":"50153","miles_from_dt":28.39},{"city":"Traer","state_name":"Iowa","lat":42.19884,"lng":-92.4928,"zip":"50675","miles_from_dt":28.54},{"city":"Ferguson","state_name":"Iowa","lat":41.93862,"lng":-92.8629,"zip":"50078","miles_from_dt":28.57},{"city":"Kellogg","state_name":"Iowa","lat":41.7475,"lng":-92.89096,"zip":"50135","miles_from_dt":28.68},{"city":"Fairfax","state_name":"Iowa","lat":41.90282,"lng":-91.79132,"zip":"52228","miles_from_dt":29.19},{"city":"New Sharon","state_name":"Iowa","lat":41.43344,"lng":-92.6381,"zip":"50207","miles_from_dt":29.7}],"targetCityZipCode":"52232","targetCityState":"Iowa"},"__N_SSG":true}