{"pageProps":{"stateName":"Iowa","cityName":"kalona","nearbyCities":[{"city":"Wellman","state_name":"Iowa","lat":41.4749,"lng":-91.84769,"zip":"52356","miles_from_dt":7.29},{"city":"Riverside","state_name":"Iowa","lat":41.477,"lng":-91.58046,"zip":"52327","miles_from_dt":7.59},{"city":"Hills","state_name":"Iowa","lat":41.57024,"lng":-91.53281,"zip":"52235","miles_from_dt":10.32},{"city":"Iowa City","state_name":"Iowa","lat":41.64903,"lng":-91.59718,"zip":"52246","miles_from_dt":11.16},{"city":"Parnell","state_name":"Iowa","lat":41.58028,"lng":-91.92305,"zip":"52325","miles_from_dt":11.56},{"city":"West Chester","state_name":"Iowa","lat":41.35428,"lng":-91.81006,"zip":"52359","miles_from_dt":12.09},{"city":"Oxford","state_name":"Iowa","lat":41.69221,"lng":-91.76284,"zip":"52322","miles_from_dt":12.45},{"city":"Tiffin","state_name":"Iowa","lat":41.70615,"lng":-91.68019,"zip":"52340","miles_from_dt":13.33},{"city":"Iowa City","state_name":"Iowa","lat":41.66195,"lng":-91.54317,"zip":"52242","miles_from_dt":13.59},{"city":"Iowa City","state_name":"Iowa","lat":41.6566,"lng":-91.53555,"zip":"52243","miles_from_dt":13.59},{"city":"Iowa City","state_name":"Iowa","lat":41.63143,"lng":-91.49924,"zip":"52240","miles_from_dt":13.88},{"city":"Coralville","state_name":"Iowa","lat":41.69708,"lng":-91.59746,"zip":"52241","miles_from_dt":14.02},{"city":"Washington","state_name":"Iowa","lat":41.29923,"lng":-91.71596,"zip":"52353","miles_from_dt":14.89},{"city":"Lone Tree","state_name":"Iowa","lat":41.48015,"lng":-91.43349,"zip":"52755","miles_from_dt":14.94},{"city":"Iowa City","state_name":"Iowa","lat":41.67071,"lng":-91.50666,"zip":"52245","miles_from_dt":15.33},{"city":"Ainsworth","state_name":"Iowa","lat":41.33218,"lng":-91.54704,"zip":"52201","miles_from_dt":15.42},{"city":"Iowa City","state_name":"Iowa","lat":41.68504,"lng":-91.51708,"zip":"52244","miles_from_dt":15.68},{"city":"Keota","state_name":"Iowa","lat":41.34386,"lng":-91.93891,"zip":"52248","miles_from_dt":16.48},{"city":"Homestead","state_name":"Iowa","lat":41.73143,"lng":-91.87647,"zip":"52236","miles_from_dt":17.05},{"city":"North Liberty","state_name":"Iowa","lat":41.76277,"lng":-91.63142,"zip":"52317","miles_from_dt":17.67},{"city":"Williamsburg","state_name":"Iowa","lat":41.6446,"lng":-92.0154,"zip":"52361","miles_from_dt":17.83},{"city":"South English","state_name":"Iowa","lat":41.45935,"lng":-92.05895,"zip":"52335","miles_from_dt":18.12},{"city":"South Amana","state_name":"Iowa","lat":41.73084,"lng":-91.94355,"zip":"52334","miles_from_dt":18.94},{"city":"North English","state_name":"Iowa","lat":41.53727,"lng":-92.09367,"zip":"52316","miles_from_dt":19.56},{"city":"Harper","state_name":"Iowa","lat":41.36371,"lng":-92.05912,"zip":"52231","miles_from_dt":20.58},{"city":"Conroy","state_name":"Iowa","lat":41.72661,"lng":-91.99853,"zip":"52220","miles_from_dt":20.61},{"city":"Conesville","state_name":"Iowa","lat":41.3728,"lng":-91.36823,"zip":"52739","miles_from_dt":20.63},{"city":"Amana","state_name":"Iowa","lat":41.79852,"lng":-91.87065,"zip":"52204","miles_from_dt":21.1},{"city":"Middle Amana","state_name":"Iowa","lat":41.79158,"lng":-91.90244,"zip":"52307","miles_from_dt":21.35},{"city":"Swisher","state_name":"Iowa","lat":41.82904,"lng":-91.70858,"zip":"52338","miles_from_dt":21.68},{"city":"Nichols","state_name":"Iowa","lat":41.46407,"lng":-91.30061,"zip":"52766","miles_from_dt":21.93},{"city":"Amana","state_name":"Iowa","lat":41.81035,"lng":-91.8906,"zip":"52203","miles_from_dt":22.26},{"city":"Solon","state_name":"Iowa","lat":41.80376,"lng":-91.48685,"zip":"52333","miles_from_dt":23.23},{"city":"Millersburg","state_name":"Iowa","lat":41.5733,"lng":-92.1592,"zip":"52308","miles_from_dt":23.24},{"city":"Crawfordsville","state_name":"Iowa","lat":41.20821,"lng":-91.53209,"zip":"52621","miles_from_dt":23.27},{"city":"West Liberty","state_name":"Iowa","lat":41.5795,"lng":-91.275,"zip":"52776","miles_from_dt":23.38},{"city":"West Branch","state_name":"Iowa","lat":41.69644,"lng":-91.32097,"zip":"52358","miles_from_dt":24.06},{"city":"Columbus Junction","state_name":"Iowa","lat":41.2736,"lng":-91.38072,"zip":"52738","miles_from_dt":24.17},{"city":"Webster","state_name":"Iowa","lat":41.4576,"lng":-92.18387,"zip":"52355","miles_from_dt":24.51},{"city":"Columbus City","state_name":"Iowa","lat":41.25918,"lng":-91.37478,"zip":"52737","miles_from_dt":25.09},{"city":"Brighton","state_name":"Iowa","lat":41.15769,"lng":-91.82281,"zip":"52540","miles_from_dt":25.26},{"city":"Walford","state_name":"Iowa","lat":41.87496,"lng":-91.83529,"zip":"52351","miles_from_dt":25.57},{"city":"Wayland","state_name":"Iowa","lat":41.13581,"lng":-91.66898,"zip":"52654","miles_from_dt":26.29},{"city":"Richland","state_name":"Iowa","lat":41.18902,"lng":-91.98863,"zip":"52585","miles_from_dt":26.54},{"city":"Marengo","state_name":"Iowa","lat":41.78658,"lng":-92.09013,"zip":"52301","miles_from_dt":26.88},{"city":"Fairfax","state_name":"Iowa","lat":41.90282,"lng":-91.79132,"zip":"52228","miles_from_dt":27.03},{"city":"Letts","state_name":"Iowa","lat":41.34254,"lng":-91.24144,"zip":"52754","miles_from_dt":27.45},{"city":"Norway","state_name":"Iowa","lat":41.89012,"lng":-91.89656,"zip":"52318","miles_from_dt":27.49},{"city":"Ely","state_name":"Iowa","lat":41.89647,"lng":-91.5626,"zip":"52227","miles_from_dt":27.52},{"city":"Olds","state_name":"Iowa","lat":41.1342,"lng":-91.54506,"zip":"52647","miles_from_dt":27.77},{"city":"Cedar Rapids","state_name":"Iowa","lat":41.9199,"lng":-91.67799,"zip":"52406","miles_from_dt":28.02},{"city":"Cedar Rapids","state_name":"Iowa","lat":41.92153,"lng":-91.69077,"zip":"52404","miles_from_dt":28.09},{"city":"Sigourney","state_name":"Iowa","lat":41.31988,"lng":-92.19465,"zip":"52591","miles_from_dt":28.2},{"city":"Ladora","state_name":"Iowa","lat":41.71218,"lng":-92.20314,"zip":"52251","miles_from_dt":28.59},{"city":"Atalissa","state_name":"Iowa","lat":41.59064,"lng":-91.16578,"zip":"52720","miles_from_dt":29.09},{"city":"Ollie","state_name":"Iowa","lat":41.21337,"lng":-92.1125,"zip":"52576","miles_from_dt":29.23},{"city":"Keswick","state_name":"Iowa","lat":41.46984,"lng":-92.28927,"zip":"50136","miles_from_dt":29.82}],"targetCityZipCode":"52247","targetCityState":"Iowa"},"__N_SSG":true}