{"pageProps":{"stateName":"Iowa","cityName":"luther","nearbyCities":[{"city":"Madrid","state_name":"Iowa","lat":41.90349,"lng":-93.80001,"zip":"50156","miles_from_dt":4.59},{"city":"Boone","state_name":"Iowa","lat":42.05618,"lng":-93.88076,"zip":"50037","miles_from_dt":6.85},{"city":"Boone","state_name":"Iowa","lat":42.05965,"lng":-93.88218,"zip":"50099","miles_from_dt":7.1},{"city":"Kelley","state_name":"Iowa","lat":41.93992,"lng":-93.67429,"zip":"50134","miles_from_dt":7.65},{"city":"Ames","state_name":"Iowa","lat":42.04993,"lng":-93.69342,"zip":"50014","miles_from_dt":8.5},{"city":"Boone","state_name":"Iowa","lat":42.0892,"lng":-93.85378,"zip":"50036","miles_from_dt":8.52},{"city":"Woodward","state_name":"Iowa","lat":41.85997,"lng":-93.923,"zip":"50276","miles_from_dt":9.26},{"city":"Ames","state_name":"Iowa","lat":42.01732,"lng":-93.64809,"zip":"50013","miles_from_dt":9.35},{"city":"Sheldahl","state_name":"Iowa","lat":41.86457,"lng":-93.6967,"zip":"50243","miles_from_dt":9.52},{"city":"Ames","state_name":"Iowa","lat":42.02904,"lng":-93.65086,"zip":"50012","miles_from_dt":9.54},{"city":"Ames","state_name":"Iowa","lat":42.02222,"lng":-93.63948,"zip":"50011","miles_from_dt":9.89},{"city":"Slater","state_name":"Iowa","lat":41.85083,"lng":-93.65126,"zip":"50244","miles_from_dt":11.82},{"city":"Huxley","state_name":"Iowa","lat":41.88516,"lng":-93.60446,"zip":"50124","miles_from_dt":12.41},{"city":"Ames","state_name":"Iowa","lat":42.03316,"lng":-93.58761,"zip":"50010","miles_from_dt":12.65},{"city":"Polk City","state_name":"Iowa","lat":41.79716,"lng":-93.70566,"zip":"50226","miles_from_dt":13.17},{"city":"Ogden","state_name":"Iowa","lat":42.03515,"lng":-94.05996,"zip":"50212","miles_from_dt":13.29},{"city":"Gilbert","state_name":"Iowa","lat":42.11754,"lng":-93.63912,"zip":"50105","miles_from_dt":13.78},{"city":"Bouton","state_name":"Iowa","lat":41.82615,"lng":-94.00653,"zip":"50039","miles_from_dt":13.85},{"city":"Granger","state_name":"Iowa","lat":41.76802,"lng":-93.80775,"zip":"50109","miles_from_dt":13.86},{"city":"Alleman","state_name":"Iowa","lat":41.80365,"lng":-93.60043,"zip":"50007","miles_from_dt":15.98},{"city":"Cambridge","state_name":"Iowa","lat":41.88974,"lng":-93.5234,"zip":"50046","miles_from_dt":16.12},{"city":"Beaver","state_name":"Iowa","lat":42.03881,"lng":-94.14003,"zip":"50031","miles_from_dt":17.29},{"city":"Pilot Mound","state_name":"Iowa","lat":42.17117,"lng":-94.02831,"zip":"50223","miles_from_dt":17.68},{"city":"Perry","state_name":"Iowa","lat":41.8366,"lng":-94.12293,"zip":"50220","miles_from_dt":18.19},{"city":"Story City","state_name":"Iowa","lat":42.19256,"lng":-93.61297,"zip":"50248","miles_from_dt":18.69},{"city":"Grimes","state_name":"Iowa","lat":41.69353,"lng":-93.80358,"zip":"50111","miles_from_dt":19.01},{"city":"Ankeny","state_name":"Iowa","lat":41.72768,"lng":-93.63412,"zip":"50023","miles_from_dt":19.14},{"city":"Johnston","state_name":"Iowa","lat":41.69749,"lng":-93.72021,"zip":"50131","miles_from_dt":19.38},{"city":"Elkhart","state_name":"Iowa","lat":41.79234,"lng":-93.52463,"zip":"50073","miles_from_dt":19.41},{"city":"Minburn","state_name":"Iowa","lat":41.74613,"lng":-94.04871,"zip":"50167","miles_from_dt":19.45},{"city":"Nevada","state_name":"Iowa","lat":42.03337,"lng":-93.44434,"zip":"50201","miles_from_dt":19.73},{"city":"Dallas Center","state_name":"Iowa","lat":41.69669,"lng":-93.93677,"zip":"50063","miles_from_dt":19.76},{"city":"Boxholm","state_name":"Iowa","lat":42.17363,"lng":-94.10121,"zip":"50040","miles_from_dt":20.31},{"city":"Rippey","state_name":"Iowa","lat":41.92974,"lng":-94.20873,"zip":"50235","miles_from_dt":20.33},{"city":"Grand Junction","state_name":"Iowa","lat":42.03547,"lng":-94.2191,"zip":"50107","miles_from_dt":21.17},{"city":"Stratford","state_name":"Iowa","lat":42.26991,"lng":-93.89973,"zip":"50249","miles_from_dt":21.21},{"city":"Ankeny","state_name":"Iowa","lat":41.7207,"lng":-93.56838,"zip":"50021","miles_from_dt":21.41},{"city":"Randall","state_name":"Iowa","lat":42.23765,"lng":-93.60257,"zip":"50231","miles_from_dt":21.6},{"city":"Stanhope","state_name":"Iowa","lat":42.28411,"lng":-93.78198,"zip":"50246","miles_from_dt":21.84},{"city":"Roland","state_name":"Iowa","lat":42.1675,"lng":-93.4834,"zip":"50236","miles_from_dt":21.99},{"city":"Urbandale","state_name":"Iowa","lat":41.63894,"lng":-93.8185,"zip":"50323","miles_from_dt":22.76},{"city":"Maxwell","state_name":"Iowa","lat":41.84764,"lng":-93.39914,"zip":"50161","miles_from_dt":23.14},{"city":"Dana","state_name":"Iowa","lat":42.10671,"lng":-94.229,"zip":"50064","miles_from_dt":23.21},{"city":"Urbandale","state_name":"Iowa","lat":41.63383,"lng":-93.73589,"zip":"50322","miles_from_dt":23.5},{"city":"Dayton","state_name":"Iowa","lat":42.27021,"lng":-94.04173,"zip":"50530","miles_from_dt":23.78},{"city":"Des Moines","state_name":"Iowa","lat":41.65538,"lng":-93.62287,"zip":"50313","miles_from_dt":23.85},{"city":"Dawson","state_name":"Iowa","lat":41.8051,"lng":-94.22708,"zip":"50066","miles_from_dt":23.95},{"city":"Jewell","state_name":"Iowa","lat":42.30074,"lng":-93.67331,"zip":"50130","miles_from_dt":24.08},{"city":"Des Moines","state_name":"Iowa","lat":41.62711,"lng":-93.71089,"zip":"50334","miles_from_dt":24.21},{"city":"Clive","state_name":"Iowa","lat":41.61475,"lng":-93.79864,"zip":"50325","miles_from_dt":24.45},{"city":"Des Moines","state_name":"Iowa","lat":41.62897,"lng":-93.67441,"zip":"50394","miles_from_dt":24.59},{"city":"Des Moines","state_name":"Iowa","lat":41.62777,"lng":-93.67297,"zip":"50310","miles_from_dt":24.69},{"city":"Bondurant","state_name":"Iowa","lat":41.7248,"lng":-93.45957,"zip":"50035","miles_from_dt":25},{"city":"Berwick","state_name":"Iowa","lat":41.66591,"lng":-93.54301,"zip":"50032","miles_from_dt":25.26},{"city":"Waukee","state_name":"Iowa","lat":41.60391,"lng":-93.87989,"zip":"50263","miles_from_dt":25.38},{"city":"Des Moines","state_name":"Iowa","lat":41.59851,"lng":-93.76677,"zip":"50368","miles_from_dt":25.69},{"city":"Windsor Heights","state_name":"Iowa","lat":41.60471,"lng":-93.71273,"zip":"50324","miles_from_dt":25.7},{"city":"Des Moines","state_name":"Iowa","lat":41.59727,"lng":-93.76435,"zip":"50361","miles_from_dt":25.78},{"city":"Des Moines","state_name":"Iowa","lat":41.5967,"lng":-93.76491,"zip":"50364","miles_from_dt":25.82},{"city":"Des Moines","state_name":"Iowa","lat":41.59649,"lng":-93.76501,"zip":"50362","miles_from_dt":25.83},{"city":"Des Moines","state_name":"Iowa","lat":41.59584,"lng":-93.76498,"zip":"50359","miles_from_dt":25.88},{"city":"Des Moines","state_name":"Iowa","lat":41.59563,"lng":-93.76633,"zip":"50367","miles_from_dt":25.89},{"city":"Des Moines","state_name":"Iowa","lat":41.59716,"lng":-93.74644,"zip":"50339","miles_from_dt":25.91},{"city":"Des Moines","state_name":"Iowa","lat":41.59516,"lng":-93.76498,"zip":"50363","miles_from_dt":25.93},{"city":"Des Moines","state_name":"Iowa","lat":41.5949,"lng":-93.76456,"zip":"50360","miles_from_dt":25.95},{"city":"Des Moines","state_name":"Iowa","lat":41.59594,"lng":-93.7462,"zip":"50369","miles_from_dt":25.99},{"city":"Jamaica","state_name":"Iowa","lat":41.85173,"lng":-94.29853,"zip":"50128","miles_from_dt":26.07},{"city":"McCallsburg","state_name":"Iowa","lat":42.17625,"lng":-93.39068,"zip":"50154","miles_from_dt":26.21},{"city":"Paton","state_name":"Iowa","lat":42.17206,"lng":-94.24984,"zip":"50217","miles_from_dt":26.28},{"city":"Des Moines","state_name":"Iowa","lat":41.601,"lng":-93.67335,"zip":"50311","miles_from_dt":26.45},{"city":"Des Moines","state_name":"Iowa","lat":41.60698,"lng":-93.6326,"zip":"50304","miles_from_dt":26.73},{"city":"Harcourt","state_name":"Iowa","lat":42.2537,"lng":-94.17042,"zip":"50544","miles_from_dt":26.75},{"city":"Des Moines","state_name":"Iowa","lat":41.6058,"lng":-93.63488,"zip":"50302","miles_from_dt":26.77},{"city":"Des Moines","state_name":"Iowa","lat":41.60503,"lng":-93.6318,"zip":"50306","miles_from_dt":26.87},{"city":"Des Moines","state_name":"Iowa","lat":41.6049,"lng":-93.63102,"zip":"50314","miles_from_dt":26.9},{"city":"Des Moines","state_name":"Iowa","lat":41.60379,"lng":-93.63166,"zip":"50301","miles_from_dt":26.96},{"city":"Des Moines","state_name":"Iowa","lat":41.60319,"lng":-93.63137,"zip":"50303","miles_from_dt":27},{"city":"Colo","state_name":"Iowa","lat":42.01925,"lng":-93.29701,"zip":"50056","miles_from_dt":27.03},{"city":"Des Moines","state_name":"Iowa","lat":41.60215,"lng":-93.63109,"zip":"50305","miles_from_dt":27.07},{"city":"Des Moines","state_name":"Iowa","lat":41.60096,"lng":-93.63077,"zip":"50395","miles_from_dt":27.16},{"city":"Adel","state_name":"Iowa","lat":41.61192,"lng":-94.04352,"zip":"50003","miles_from_dt":27.25},{"city":"Cooper","state_name":"Iowa","lat":41.89957,"lng":-94.33951,"zip":"50059","miles_from_dt":27.31},{"city":"Des Moines","state_name":"Iowa","lat":41.60877,"lng":-93.59775,"zip":"50316","miles_from_dt":27.32},{"city":"Urbandale","state_name":"Iowa","lat":41.57758,"lng":-93.70871,"zip":"50398","miles_from_dt":27.58},{"city":"Des Moines","state_name":"Iowa","lat":41.59564,"lng":-93.62105,"zip":"50335","miles_from_dt":27.68},{"city":"Des Moines","state_name":"Iowa","lat":41.58064,"lng":-93.67622,"zip":"50312","miles_from_dt":27.76},{"city":"Des Moines","state_name":"Iowa","lat":41.58914,"lng":-93.63728,"zip":"50332","miles_from_dt":27.81},{"city":"Des Moines","state_name":"Iowa","lat":41.58914,"lng":-93.63728,"zip":"50333","miles_from_dt":27.81},{"city":"Des Moines","state_name":"Iowa","lat":41.59037,"lng":-93.62966,"zip":"50392","miles_from_dt":27.86},{"city":"Collins","state_name":"Iowa","lat":41.88456,"lng":-93.2889,"zip":"50055","miles_from_dt":27.86},{"city":"Des Moines","state_name":"Iowa","lat":41.58706,"lng":-93.63729,"zip":"50330","miles_from_dt":27.94},{"city":"Des Moines","state_name":"Iowa","lat":41.58564,"lng":-93.64015,"zip":"50381","miles_from_dt":27.98},{"city":"Des Moines","state_name":"Iowa","lat":41.58716,"lng":-93.6346,"zip":"50331","miles_from_dt":27.98},{"city":"West Des Moines","state_name":"Iowa","lat":41.56323,"lng":-93.81107,"zip":"50266","miles_from_dt":27.99},{"city":"Des Moines","state_name":"Iowa","lat":41.58594,"lng":-93.63598,"zip":"50983","miles_from_dt":28.04},{"city":"Des Moines","state_name":"Iowa","lat":41.61572,"lng":-93.54881,"zip":"50317","miles_from_dt":28.04},{"city":"Des Moines","state_name":"Iowa","lat":41.58594,"lng":-93.63598,"zip":"50982","miles_from_dt":28.04},{"city":"Des Moines","state_name":"Iowa","lat":41.58593,"lng":-93.63521,"zip":"50329","miles_from_dt":28.05},{"city":"Des Moines","state_name":"Iowa","lat":41.56853,"lng":-93.7145,"zip":"50336","miles_from_dt":28.13},{"city":"Des Moines","state_name":"Iowa","lat":41.59405,"lng":-93.60239,"zip":"50307","miles_from_dt":28.15},{"city":"Des Moines","state_name":"Iowa","lat":41.58283,"lng":-93.63937,"zip":"50981","miles_from_dt":28.18},{"city":"Des Moines","state_name":"Iowa","lat":41.58536,"lng":-93.62901,"zip":"50940","miles_from_dt":28.2},{"city":"Des Moines","state_name":"Iowa","lat":41.5825,"lng":-93.6393,"zip":"50380","miles_from_dt":28.2},{"city":"Des Moines","state_name":"Iowa","lat":41.58204,"lng":-93.63889,"zip":"50936","miles_from_dt":28.24},{"city":"Des Moines","state_name":"Iowa","lat":41.58625,"lng":-93.62299,"zip":"50318","miles_from_dt":28.25},{"city":"Des Moines","state_name":"Iowa","lat":41.58209,"lng":-93.63795,"zip":"50328","miles_from_dt":28.25},{"city":"Des Moines","state_name":"Iowa","lat":41.58174,"lng":-93.639,"zip":"50980","miles_from_dt":28.26},{"city":"Des Moines","state_name":"Iowa","lat":41.58724,"lng":-93.61754,"zip":"50340","miles_from_dt":28.29},{"city":"Des Moines","state_name":"Iowa","lat":41.58546,"lng":-93.62242,"zip":"50391","miles_from_dt":28.31},{"city":"Des Moines","state_name":"Iowa","lat":41.59115,"lng":-93.60314,"zip":"50319","miles_from_dt":28.32},{"city":"Des Moines","state_name":"Iowa","lat":41.588,"lng":-93.6098,"zip":"50396","miles_from_dt":28.39},{"city":"Des Moines","state_name":"Iowa","lat":41.58448,"lng":-93.62152,"zip":"50309","miles_from_dt":28.39},{"city":"Des Moines","state_name":"Iowa","lat":41.58204,"lng":-93.62933,"zip":"50947","miles_from_dt":28.41},{"city":"Des Moines","state_name":"Iowa","lat":41.58392,"lng":-93.62155,"zip":"50308","miles_from_dt":28.42},{"city":"Des Moines","state_name":"Iowa","lat":41.58221,"lng":-93.62221,"zip":"50393","miles_from_dt":28.52},{"city":"Ellsworth","state_name":"Iowa","lat":42.33516,"lng":-93.56054,"zip":"50075","miles_from_dt":28.53},{"city":"Boone","state_name":"Iowa","lat":41.58027,"lng":-93.62842,"zip":"50950","miles_from_dt":28.54},{"city":"Garden City","state_name":"Iowa","lat":42.24554,"lng":-93.40022,"zip":"50102","miles_from_dt":28.73},{"city":"Jefferson","state_name":"Iowa","lat":42.01335,"lng":-94.3764,"zip":"50129","miles_from_dt":28.93},{"city":"West Des Moines","state_name":"Iowa","lat":41.55129,"lng":-93.73821,"zip":"50265","miles_from_dt":29.1},{"city":"Altoona","state_name":"Iowa","lat":41.64313,"lng":-93.45945,"zip":"50009","miles_from_dt":29.1},{"city":"Lehigh","state_name":"Iowa","lat":42.35544,"lng":-94.04409,"zip":"50557","miles_from_dt":29.11},{"city":"Zearing","state_name":"Iowa","lat":42.1528,"lng":-93.29926,"zip":"50278","miles_from_dt":29.53},{"city":"Linden","state_name":"Iowa","lat":41.68038,"lng":-94.24905,"zip":"50146","miles_from_dt":29.87},{"city":"Burnside","state_name":"Iowa","lat":42.3462,"lng":-94.10276,"zip":"50521","miles_from_dt":29.89}],"targetCityZipCode":"50152","targetCityState":"Iowa"},"__N_SSG":true}