{"pageProps":{"stateName":"Iowa","cityName":"melcher-dallas","nearbyCities":[{"city":"Melcher Dallas","state_name":"Iowa","lat":41.2223,"lng":-93.24101,"zip":"50163","miles_from_dt":0.89},{"city":"Columbia","state_name":"Iowa","lat":41.17859,"lng":-93.14554,"zip":"50057","miles_from_dt":6.45},{"city":"Lacona","state_name":"Iowa","lat":41.19237,"lng":-93.36683,"zip":"50139","miles_from_dt":7.03},{"city":"Knoxville","state_name":"Iowa","lat":41.30246,"lng":-93.10534,"zip":"50138","miles_from_dt":8.6},{"city":"Milo","state_name":"Iowa","lat":41.28289,"lng":-93.42629,"zip":"50166","miles_from_dt":10.04},{"city":"Williamson","state_name":"Iowa","lat":41.08809,"lng":-93.25682,"zip":"50272","miles_from_dt":10.16},{"city":"Pleasantville","state_name":"Iowa","lat":41.3823,"lng":-93.27103,"zip":"50225","miles_from_dt":10.26},{"city":"Liberty Center","state_name":"Iowa","lat":41.20387,"lng":-93.48515,"zip":"50145","miles_from_dt":12.73},{"city":"Ackworth","state_name":"Iowa","lat":41.3611,"lng":-93.43321,"zip":"50001","miles_from_dt":13.13},{"city":"Chariton","state_name":"Iowa","lat":41.03741,"lng":-93.29566,"zip":"50049","miles_from_dt":13.9},{"city":"Hamilton","state_name":"Iowa","lat":41.17812,"lng":-92.98247,"zip":"50116","miles_from_dt":14.2},{"city":"Swan","state_name":"Iowa","lat":41.45881,"lng":-93.31518,"zip":"50252","miles_from_dt":15.88},{"city":"Lovilia","state_name":"Iowa","lat":41.12771,"lng":-92.97404,"zip":"50150","miles_from_dt":15.91},{"city":"Harvey","state_name":"Iowa","lat":41.31089,"lng":-92.94587,"zip":"50119","miles_from_dt":16.39},{"city":"Lucas","state_name":"Iowa","lat":41.08074,"lng":-93.49717,"zip":"50151","miles_from_dt":16.95},{"city":"Hartford","state_name":"Iowa","lat":41.45957,"lng":-93.37673,"zip":"50118","miles_from_dt":16.96},{"city":"Tracy","state_name":"Iowa","lat":41.2664,"lng":-92.91114,"zip":"50256","miles_from_dt":17.48},{"city":"Otley","state_name":"Iowa","lat":41.46246,"lng":-93.05528,"zip":"50214","miles_from_dt":18.52},{"city":"Russell","state_name":"Iowa","lat":40.97124,"lng":-93.17502,"zip":"50238","miles_from_dt":18.56},{"city":"Bussey","state_name":"Iowa","lat":41.20247,"lng":-92.88907,"zip":"50044","miles_from_dt":18.64},{"city":"Indianola","state_name":"Iowa","lat":41.33286,"lng":-93.57957,"zip":"50125","miles_from_dt":18.72},{"city":"Carlisle","state_name":"Iowa","lat":41.47551,"lng":-93.46556,"zip":"50047","miles_from_dt":20.2},{"city":"Melrose","state_name":"Iowa","lat":40.97968,"lng":-93.04939,"zip":"52569","miles_from_dt":20.34},{"city":"Monroe","state_name":"Iowa","lat":41.52911,"lng":-93.11546,"zip":"50170","miles_from_dt":21.37},{"city":"Pella","state_name":"Iowa","lat":41.42243,"lng":-92.90132,"zip":"50219","miles_from_dt":22.03},{"city":"Runnells","state_name":"Iowa","lat":41.54238,"lng":-93.36859,"zip":"50237","miles_from_dt":22.18},{"city":"Woodburn","state_name":"Iowa","lat":41.04375,"lng":-93.58852,"zip":"50275","miles_from_dt":22.29},{"city":"Prairie City","state_name":"Iowa","lat":41.57008,"lng":-93.24154,"zip":"50228","miles_from_dt":23.13},{"city":"Derby","state_name":"Iowa","lat":40.94229,"lng":-93.46704,"zip":"50068","miles_from_dt":23.31},{"city":"New Virginia","state_name":"Iowa","lat":41.18998,"lng":-93.6978,"zip":"50210","miles_from_dt":23.84},{"city":"Leighton","state_name":"Iowa","lat":41.34245,"lng":-92.79893,"zip":"50143","miles_from_dt":24.34},{"city":"Saint Marys","state_name":"Iowa","lat":41.30771,"lng":-93.73368,"zip":"50241","miles_from_dt":25.97},{"city":"Reasnor","state_name":"Iowa","lat":41.55761,"lng":-92.96868,"zip":"50232","miles_from_dt":26.47},{"city":"Albia","state_name":"Iowa","lat":41.02684,"lng":-92.81562,"zip":"52531","miles_from_dt":26.58},{"city":"Des Moines","state_name":"Iowa","lat":41.53208,"lng":-93.57217,"zip":"50320","miles_from_dt":26.66},{"city":"Millerton","state_name":"Iowa","lat":40.84808,"lng":-93.30937,"zip":"50165","miles_from_dt":26.92},{"city":"Pleasant Hill","state_name":"Iowa","lat":41.58402,"lng":-93.48856,"zip":"50327","miles_from_dt":27.23},{"city":"Martensdale","state_name":"Iowa","lat":41.37385,"lng":-93.7387,"zip":"50160","miles_from_dt":27.46},{"city":"Norwalk","state_name":"Iowa","lat":41.45614,"lng":-93.6887,"zip":"50211","miles_from_dt":27.7},{"city":"Des Moines","state_name":"Iowa","lat":41.5449,"lng":-93.62063,"zip":"50315","miles_from_dt":28.98},{"city":"Saint Charles","state_name":"Iowa","lat":41.29368,"lng":-93.796,"zip":"50240","miles_from_dt":29.01},{"city":"Prole","state_name":"Iowa","lat":41.37416,"lng":-93.77906,"zip":"50229","miles_from_dt":29.44},{"city":"Beacon","state_name":"Iowa","lat":41.27342,"lng":-92.6806,"zip":"52534","miles_from_dt":29.47},{"city":"Mitchellville","state_name":"Iowa","lat":41.65617,"lng":-93.35062,"zip":"50169","miles_from_dt":29.59},{"city":"Bevington","state_name":"Iowa","lat":41.36048,"lng":-93.79416,"zip":"50033","miles_from_dt":29.9}],"targetCityZipCode":"50062","targetCityState":"Iowa"},"__N_SSG":true}