{"pageProps":{"stateName":"Iowa","cityName":"moville","nearbyCities":[{"city":"Lawton","state_name":"Iowa","lat":42.49791,"lng":-96.19365,"zip":"51030","miles_from_dt":7.69},{"city":"Bronson","state_name":"Iowa","lat":42.40225,"lng":-96.18857,"zip":"51007","miles_from_dt":7.84},{"city":"Climbing Hill","state_name":"Iowa","lat":42.33936,"lng":-96.08107,"zip":"51015","miles_from_dt":8.21},{"city":"Anthon","state_name":"Iowa","lat":42.3762,"lng":-95.916,"zip":"51004","miles_from_dt":8.97},{"city":"Kingsley","state_name":"Iowa","lat":42.59909,"lng":-95.99199,"zip":"51028","miles_from_dt":10.33},{"city":"Oto","state_name":"Iowa","lat":42.30113,"lng":-95.91716,"zip":"51044","miles_from_dt":12.81},{"city":"Pierson","state_name":"Iowa","lat":42.57963,"lng":-95.86412,"zip":"51048","miles_from_dt":12.88},{"city":"Correctionville","state_name":"Iowa","lat":42.46907,"lng":-95.80113,"zip":"51016","miles_from_dt":12.94},{"city":"Sioux City","state_name":"Iowa","lat":42.46292,"lng":-96.32,"zip":"51106","miles_from_dt":13.61},{"city":"Hornick","state_name":"Iowa","lat":42.24857,"lng":-96.07592,"zip":"51026","miles_from_dt":14.4},{"city":"Salix","state_name":"Iowa","lat":42.31063,"lng":-96.26343,"zip":"51052","miles_from_dt":14.71},{"city":"Sioux City","state_name":"Iowa","lat":42.41773,"lng":-96.33961,"zip":"51102","miles_from_dt":14.86},{"city":"Sergeant Bluff","state_name":"Iowa","lat":42.37832,"lng":-96.33159,"zip":"51054","miles_from_dt":15.2},{"city":"Hinton","state_name":"Iowa","lat":42.6201,"lng":-96.26564,"zip":"51024","miles_from_dt":15.63},{"city":"Smithland","state_name":"Iowa","lat":42.23443,"lng":-95.95391,"zip":"51056","miles_from_dt":16.16},{"city":"Sioux City","state_name":"Iowa","lat":42.50808,"lng":-96.3671,"zip":"51105","miles_from_dt":16.4},{"city":"Sioux City","state_name":"Iowa","lat":42.56625,"lng":-96.34858,"zip":"51108","miles_from_dt":16.85},{"city":"Sioux City","state_name":"Iowa","lat":42.41129,"lng":-96.38606,"zip":"51111","miles_from_dt":17.27},{"city":"Sioux City","state_name":"Iowa","lat":42.49413,"lng":-96.39361,"zip":"51101","miles_from_dt":17.56},{"city":"Rodney","state_name":"Iowa","lat":42.20443,"lng":-95.96988,"zip":"51051","miles_from_dt":17.92},{"city":"Sioux City","state_name":"Iowa","lat":42.53518,"lng":-96.40389,"zip":"51104","miles_from_dt":18.69},{"city":"Washta","state_name":"Iowa","lat":42.57983,"lng":-95.72036,"zip":"51061","miles_from_dt":19.03},{"city":"Cushing","state_name":"Iowa","lat":42.44884,"lng":-95.67814,"zip":"51018","miles_from_dt":19.21},{"city":"Sloan","state_name":"Iowa","lat":42.21162,"lng":-96.26069,"zip":"51055","miles_from_dt":19.95},{"city":"South Sioux City","state_name":"Nebraska","lat":42.4601,"lng":-96.44424,"zip":"68776","miles_from_dt":19.96},{"city":"Sioux City","state_name":"Iowa","lat":42.52173,"lng":-96.44642,"zip":"51103","miles_from_dt":20.55},{"city":"Danbury","state_name":"Iowa","lat":42.2721,"lng":-95.72615,"zip":"51019","miles_from_dt":21.06},{"city":"Merrill","state_name":"Iowa","lat":42.7056,"lng":-96.31569,"zip":"51038","miles_from_dt":21.77},{"city":"Dakota City","state_name":"Nebraska","lat":42.40993,"lng":-96.48341,"zip":"68731","miles_from_dt":22.2},{"city":"Homer","state_name":"Nebraska","lat":42.3184,"lng":-96.45057,"zip":"68030","miles_from_dt":22.43},{"city":"Whiting","state_name":"Iowa","lat":42.13103,"lng":-96.18611,"zip":"51063","miles_from_dt":23.47},{"city":"North Sioux City","state_name":"South Dakota","lat":42.52486,"lng":-96.50732,"zip":"57049","miles_from_dt":23.64},{"city":"Sioux City","state_name":"Iowa","lat":42.59873,"lng":-96.47804,"zip":"51109","miles_from_dt":23.78},{"city":"Remsen","state_name":"Iowa","lat":42.79545,"lng":-95.94772,"zip":"51050","miles_from_dt":24.01},{"city":"Quimby","state_name":"Iowa","lat":42.63005,"lng":-95.64463,"zip":"51049","miles_from_dt":24.07},{"city":"Mapleton","state_name":"Iowa","lat":42.16241,"lng":-95.78947,"zip":"51034","miles_from_dt":24.4},{"city":"Battle Creek","state_name":"Iowa","lat":42.31088,"lng":-95.61299,"zip":"51006","miles_from_dt":24.7},{"city":"Le Mars","state_name":"Iowa","lat":42.80282,"lng":-96.18092,"zip":"51031","miles_from_dt":24.76},{"city":"Oyens","state_name":"Iowa","lat":42.82019,"lng":-96.05772,"zip":"51045","miles_from_dt":25.1},{"city":"Holstein","state_name":"Iowa","lat":42.4973,"lng":-95.55853,"zip":"51025","miles_from_dt":25.46},{"city":"Marcus","state_name":"Iowa","lat":42.78086,"lng":-95.80054,"zip":"51035","miles_from_dt":25.84},{"city":"Castana","state_name":"Iowa","lat":42.09309,"lng":-95.92044,"zip":"51010","miles_from_dt":26},{"city":"Winnebago","state_name":"Nebraska","lat":42.23605,"lng":-96.47446,"zip":"68071","miles_from_dt":26.37},{"city":"Brunsville","state_name":"Iowa","lat":42.81127,"lng":-96.26724,"zip":"51008","miles_from_dt":26.79},{"city":"Macy","state_name":"Nebraska","lat":42.112,"lng":-96.34397,"zip":"68039","miles_from_dt":28.05},{"city":"Jefferson","state_name":"South Dakota","lat":42.57924,"lng":-96.57957,"zip":"57038","miles_from_dt":28.15},{"city":"Hubbard","state_name":"Nebraska","lat":42.35711,"lng":-96.59375,"zip":"68741","miles_from_dt":28.46},{"city":"Cleghorn","state_name":"Iowa","lat":42.78428,"lng":-95.71155,"zip":"51014","miles_from_dt":28.57},{"city":"Jackson","state_name":"Nebraska","lat":42.47271,"lng":-96.62586,"zip":"68743","miles_from_dt":29.26},{"city":"Onawa","state_name":"Iowa","lat":42.03073,"lng":-96.0706,"zip":"51040","miles_from_dt":29.4},{"city":"Westfield","state_name":"Iowa","lat":42.70623,"lng":-96.53511,"zip":"51062","miles_from_dt":30}],"targetCityZipCode":"51039","targetCityState":"Iowa"},"__N_SSG":true}