{"pageProps":{"stateName":"Iowa","cityName":"orchard","nearbyCities":[{"city":"Floyd","state_name":"Iowa","lat":43.15752,"lng":-92.76877,"zip":"50435","miles_from_dt":6.17},{"city":"Colwell","state_name":"Iowa","lat":43.15712,"lng":-92.5912,"zip":"50620","miles_from_dt":6.9},{"city":"Osage","state_name":"Iowa","lat":43.29995,"lng":-92.81412,"zip":"50461","miles_from_dt":8.08},{"city":"Charles City","state_name":"Iowa","lat":43.07978,"lng":-92.66104,"zip":"50616","miles_from_dt":10.19},{"city":"Rudd","state_name":"Iowa","lat":43.16486,"lng":-92.87834,"zip":"50471","miles_from_dt":10.39},{"city":"Little Cedar","state_name":"Iowa","lat":43.38505,"lng":-92.73935,"zip":"50454","miles_from_dt":11.26},{"city":"Alta Vista","state_name":"Iowa","lat":43.18893,"lng":-92.45834,"zip":"50603","miles_from_dt":11.98},{"city":"Riceville","state_name":"Iowa","lat":43.38782,"lng":-92.53815,"zip":"50466","miles_from_dt":13.55},{"city":"Elma","state_name":"Iowa","lat":43.26655,"lng":-92.39134,"zip":"50628","miles_from_dt":15.34},{"city":"Toeterville","state_name":"Iowa","lat":43.37833,"lng":-92.91861,"zip":"50481","miles_from_dt":15.6},{"city":"Stacyville","state_name":"Iowa","lat":43.4527,"lng":-92.76311,"zip":"50476","miles_from_dt":16.08},{"city":"McIntire","state_name":"Iowa","lat":43.45695,"lng":-92.64981,"zip":"50455","miles_from_dt":16.08},{"city":"Nora Springs","state_name":"Iowa","lat":43.15969,"lng":-93.00609,"zip":"50458","miles_from_dt":16.6},{"city":"Rockford","state_name":"Iowa","lat":43.04631,"lng":-92.95703,"zip":"50468","miles_from_dt":18.32},{"city":"Ionia","state_name":"Iowa","lat":43.02174,"lng":-92.44952,"zip":"50645","miles_from_dt":18.62},{"city":"Saint Ansgar","state_name":"Iowa","lat":43.42265,"lng":-92.94644,"zip":"50472","miles_from_dt":18.74},{"city":"Rock Falls","state_name":"Iowa","lat":43.20916,"lng":-93.06608,"zip":"50467","miles_from_dt":19.01},{"city":"Plymouth","state_name":"Iowa","lat":43.25146,"lng":-93.0765,"zip":"50464","miles_from_dt":19.58},{"city":"Grafton","state_name":"Iowa","lat":43.33213,"lng":-93.06891,"zip":"50440","miles_from_dt":20.46},{"city":"Marble Rock","state_name":"Iowa","lat":42.96737,"lng":-92.88927,"zip":"50653","miles_from_dt":20.49},{"city":"Nashua","state_name":"Iowa","lat":42.95024,"lng":-92.53782,"zip":"50658","miles_from_dt":20.53},{"city":"New Hampton","state_name":"Iowa","lat":43.08749,"lng":-92.3221,"zip":"50659","miles_from_dt":20.91},{"city":"Carpenter","state_name":"Iowa","lat":43.41507,"lng":-93.01718,"zip":"50426","miles_from_dt":21.03},{"city":"North Washington","state_name":"Iowa","lat":43.05755,"lng":-92.31272,"zip":"50661","miles_from_dt":22.34},{"city":"Chester","state_name":"Iowa","lat":43.47156,"lng":-92.40078,"zip":"52134","miles_from_dt":22.37},{"city":"Taopi","state_name":"Minnesota","lat":43.55371,"lng":-92.64792,"zip":"55977","miles_from_dt":22.73},{"city":"Adams","state_name":"Minnesota","lat":43.56312,"lng":-92.73461,"zip":"55909","miles_from_dt":23.39},{"city":"Greene","state_name":"Iowa","lat":42.89439,"lng":-92.80745,"zip":"50636","miles_from_dt":23.64},{"city":"Lime Springs","state_name":"Iowa","lat":43.41412,"lng":-92.29683,"zip":"52155","miles_from_dt":23.71},{"city":"Le Roy","state_name":"Minnesota","lat":43.53529,"lng":-92.48414,"zip":"55951","miles_from_dt":23.75},{"city":"Lyle","state_name":"Minnesota","lat":43.52772,"lng":-92.96521,"zip":"55953","miles_from_dt":25.02},{"city":"Mason City","state_name":"Iowa","lat":43.15389,"lng":-93.20006,"zip":"50401","miles_from_dt":26.23},{"city":"Mason City","state_name":"Iowa","lat":43.15167,"lng":-93.20448,"zip":"50402","miles_from_dt":26.48},{"city":"Rose Creek","state_name":"Minnesota","lat":43.59681,"lng":-92.83118,"zip":"55970","miles_from_dt":26.57},{"city":"Manly","state_name":"Iowa","lat":43.28812,"lng":-93.21579,"zip":"50456","miles_from_dt":26.86},{"city":"Plainfield","state_name":"Iowa","lat":42.85995,"lng":-92.50933,"zip":"50666","miles_from_dt":26.87},{"city":"Dougherty","state_name":"Iowa","lat":42.92852,"lng":-93.04774,"zip":"50433","miles_from_dt":27.36},{"city":"Lawler","state_name":"Iowa","lat":43.12201,"lng":-92.16519,"zip":"52154","miles_from_dt":27.48},{"city":"Ostrander","state_name":"Minnesota","lat":43.60541,"lng":-92.47544,"zip":"55961","miles_from_dt":28.34},{"city":"Elkton","state_name":"Minnesota","lat":43.64787,"lng":-92.68504,"zip":"55933","miles_from_dt":29.13},{"city":"Kensett","state_name":"Iowa","lat":43.35053,"lng":-93.24753,"zip":"50448","miles_from_dt":29.39},{"city":"Clarksville","state_name":"Iowa","lat":42.79725,"lng":-92.66266,"zip":"50619","miles_from_dt":29.62},{"city":"Protivin","state_name":"Iowa","lat":43.21976,"lng":-92.10315,"zip":"52163","miles_from_dt":29.64}],"targetCityZipCode":"50460","targetCityState":"Iowa"},"__N_SSG":true}