{"pageProps":{"stateName":"Iowa","cityName":"pacific-junction","nearbyCities":[{"city":"Glenwood","state_name":"Iowa","lat":41.04092,"lng":-95.71853,"zip":"51534","miles_from_dt":5.36},{"city":"Plattsmouth","state_name":"Nebraska","lat":40.98304,"lng":-95.9345,"zip":"68048","miles_from_dt":6.7},{"city":"Offutt Afb","state_name":"Nebraska","lat":41.11745,"lng":-95.90889,"zip":"68113","miles_from_dt":9.28},{"city":"Bellevue","state_name":"Nebraska","lat":41.10108,"lng":-95.94774,"zip":"68123","miles_from_dt":9.75},{"city":"Murray","state_name":"Nebraska","lat":40.90906,"lng":-95.95074,"zip":"68409","miles_from_dt":9.94},{"city":"Bellevue","state_name":"Nebraska","lat":41.14161,"lng":-95.89394,"zip":"68005","miles_from_dt":10.35},{"city":"St Columbans","state_name":"Nebraska","lat":41.14123,"lng":-95.90438,"zip":"68056","miles_from_dt":10.57},{"city":"Tabor","state_name":"Iowa","lat":40.88444,"lng":-95.67179,"zip":"51653","miles_from_dt":11.06},{"city":"Malvern","state_name":"Iowa","lat":40.99129,"lng":-95.58907,"zip":"51551","miles_from_dt":11.59},{"city":"Mineola","state_name":"Iowa","lat":41.14512,"lng":-95.68122,"zip":"51554","miles_from_dt":11.74},{"city":"Thurman","state_name":"Iowa","lat":40.831,"lng":-95.76038,"zip":"51654","miles_from_dt":12.33},{"city":"Papillion","state_name":"Nebraska","lat":41.11754,"lng":-96.00292,"zip":"68133","miles_from_dt":12.7},{"city":"Union","state_name":"Nebraska","lat":40.82286,"lng":-95.90123,"zip":"68455","miles_from_dt":13.49},{"city":"Bellevue","state_name":"Nebraska","lat":41.17655,"lng":-95.95678,"zip":"68147","miles_from_dt":14.06},{"city":"Silver City","state_name":"Iowa","lat":41.14582,"lng":-95.60994,"zip":"51571","miles_from_dt":14.23},{"city":"Omaha","state_name":"Nebraska","lat":41.17902,"lng":-95.99536,"zip":"68157","miles_from_dt":15.39},{"city":"Papillion","state_name":"Nebraska","lat":41.12206,"lng":-96.06138,"zip":"68046","miles_from_dt":15.39},{"city":"Cedar Creek","state_name":"Nebraska","lat":41.02518,"lng":-96.1063,"zip":"68016","miles_from_dt":15.55},{"city":"Council Bluffs","state_name":"Iowa","lat":41.2304,"lng":-95.77795,"zip":"51503","miles_from_dt":15.59},{"city":"Nehawka","state_name":"Nebraska","lat":40.83775,"lng":-96.01053,"zip":"68413","miles_from_dt":15.64},{"city":"Council Bluffs","state_name":"Iowa","lat":41.22828,"lng":-95.87889,"zip":"51501","miles_from_dt":15.78},{"city":"Omaha","state_name":"Nebraska","lat":41.20888,"lng":-95.95126,"zip":"68107","miles_from_dt":15.84},{"city":"Hastings","state_name":"Iowa","lat":41.02488,"lng":-95.49802,"zip":"51540","miles_from_dt":16.36},{"city":"Louisville","state_name":"Nebraska","lat":40.9844,"lng":-96.12673,"zip":"68037","miles_from_dt":16.63},{"city":"Omaha","state_name":"Nebraska","lat":41.2062,"lng":-96.00138,"zip":"68117","miles_from_dt":17.07},{"city":"Omaha","state_name":"Nebraska","lat":41.23759,"lng":-95.92759,"zip":"68109","miles_from_dt":17.14},{"city":"Omaha","state_name":"Nebraska","lat":41.23753,"lng":-95.93118,"zip":"68108","miles_from_dt":17.2},{"city":"Council Bluffs","state_name":"Iowa","lat":41.26139,"lng":-95.84988,"zip":"51502","miles_from_dt":17.77},{"city":"Randolph","state_name":"Iowa","lat":40.8518,"lng":-95.53565,"zip":"51649","miles_from_dt":17.86},{"city":"Omaha","state_name":"Nebraska","lat":41.2406,"lng":-95.96429,"zip":"68105","miles_from_dt":18.1},{"city":"La Vista","state_name":"Nebraska","lat":41.17972,"lng":-96.07081,"zip":"68128","miles_from_dt":18.16},{"city":"Percival","state_name":"Iowa","lat":40.74215,"lng":-95.80325,"zip":"51648","miles_from_dt":18.19},{"city":"Omaha","state_name":"Nebraska","lat":41.25762,"lng":-95.93666,"zip":"68145","miles_from_dt":18.6},{"city":"Omaha","state_name":"Nebraska","lat":41.25709,"lng":-95.93977,"zip":"68183","miles_from_dt":18.62},{"city":"Omaha","state_name":"Nebraska","lat":41.25711,"lng":-95.945,"zip":"68103","miles_from_dt":18.73},{"city":"Springfield","state_name":"Nebraska","lat":41.06673,"lng":-96.1595,"zip":"68059","miles_from_dt":18.74},{"city":"Omaha","state_name":"Nebraska","lat":41.2061,"lng":-96.05245,"zip":"68127","miles_from_dt":18.75},{"city":"Omaha","state_name":"Nebraska","lat":41.26219,"lng":-95.93133,"zip":"68101","miles_from_dt":18.8},{"city":"Omaha","state_name":"Nebraska","lat":41.26231,"lng":-95.93224,"zip":"68102","miles_from_dt":18.82},{"city":"Sidney","state_name":"Iowa","lat":40.77032,"lng":-95.62815,"zip":"51652","miles_from_dt":18.83},{"city":"Omaha","state_name":"Nebraska","lat":41.26069,"lng":-95.94059,"zip":"68176","miles_from_dt":18.87},{"city":"Omaha","state_name":"Nebraska","lat":41.26069,"lng":-95.94059,"zip":"68172","miles_from_dt":18.87},{"city":"Omaha","state_name":"Nebraska","lat":41.26144,"lng":-95.93865,"zip":"68197","miles_from_dt":18.88},{"city":"Omaha","state_name":"Nebraska","lat":41.26277,"lng":-95.93439,"zip":"68179","miles_from_dt":18.89},{"city":"Omaha","state_name":"Nebraska","lat":41.23885,"lng":-96.00244,"zip":"68106","miles_from_dt":18.97},{"city":"Weeping Water","state_name":"Nebraska","lat":40.8759,"lng":-96.13518,"zip":"68463","miles_from_dt":19.23},{"city":"Omaha","state_name":"Nebraska","lat":41.26535,"lng":-95.94535,"zip":"68178","miles_from_dt":19.26},{"city":"Treynor","state_name":"Iowa","lat":41.24111,"lng":-95.60218,"zip":"51575","miles_from_dt":19.53},{"city":"Omaha","state_name":"Nebraska","lat":41.26435,"lng":-95.96479,"zip":"68131","miles_from_dt":19.59},{"city":"Manley","state_name":"Nebraska","lat":40.92045,"lng":-96.16707,"zip":"68403","miles_from_dt":19.59},{"city":"Omaha","state_name":"Nebraska","lat":41.26626,"lng":-95.96434,"zip":"68175","miles_from_dt":19.7},{"city":"Omaha","state_name":"Nebraska","lat":41.15661,"lng":-96.13891,"zip":"68138","miles_from_dt":20.09},{"city":"Omaha","state_name":"Nebraska","lat":41.23322,"lng":-96.053,"zip":"68180","miles_from_dt":20.18},{"city":"Omaha","state_name":"Nebraska","lat":41.23515,"lng":-96.0522,"zip":"68124","miles_from_dt":20.26},{"city":"Carter Lake","state_name":"Iowa","lat":41.28844,"lng":-95.91715,"zip":"51510","miles_from_dt":20.3},{"city":"Omaha","state_name":"Nebraska","lat":41.25775,"lng":-96.01072,"zip":"68182","miles_from_dt":20.3},{"city":"Omaha","state_name":"Nebraska","lat":41.26506,"lng":-96.00153,"zip":"68132","miles_from_dt":20.5},{"city":"Omaha","state_name":"Nebraska","lat":41.266,"lng":-96.01003,"zip":"68198","miles_from_dt":20.78},{"city":"Omaha","state_name":"Nebraska","lat":41.29867,"lng":-95.91143,"zip":"68110","miles_from_dt":20.9},{"city":"Omaha","state_name":"Nebraska","lat":41.20595,"lng":-96.11924,"zip":"68137","miles_from_dt":21.25},{"city":"Omaha","state_name":"Nebraska","lat":41.3066,"lng":-95.90513,"zip":"68119","miles_from_dt":21.35},{"city":"Omaha","state_name":"Nebraska","lat":41.29564,"lng":-95.96395,"zip":"68111","miles_from_dt":21.56},{"city":"Omaha","state_name":"Nebraska","lat":41.26318,"lng":-96.05208,"zip":"68114","miles_from_dt":21.8},{"city":"Imogene","state_name":"Iowa","lat":40.88206,"lng":-95.4229,"zip":"51645","miles_from_dt":21.97},{"city":"Omaha","state_name":"Nebraska","lat":41.22151,"lng":-96.12024,"zip":"68139","miles_from_dt":22},{"city":"Macedonia","state_name":"Iowa","lat":41.18253,"lng":-95.45445,"zip":"51549","miles_from_dt":22.21},{"city":"Omaha","state_name":"Nebraska","lat":41.29525,"lng":-96.00104,"zip":"68104","miles_from_dt":22.33},{"city":"Henderson","state_name":"Iowa","lat":41.13664,"lng":-95.41623,"zip":"51541","miles_from_dt":22.46},{"city":"Omaha","state_name":"Nebraska","lat":41.23473,"lng":-96.11909,"zip":"68144","miles_from_dt":22.58},{"city":"Emerson","state_name":"Iowa","lat":41.03606,"lng":-95.37933,"zip":"51533","miles_from_dt":22.6},{"city":"Omaha","state_name":"Nebraska","lat":41.16932,"lng":-96.18783,"zip":"68136","miles_from_dt":22.73},{"city":"South Bend","state_name":"Nebraska","lat":41.00842,"lng":-96.2483,"zip":"68058","miles_from_dt":22.92},{"city":"Avoca","state_name":"Nebraska","lat":40.78769,"lng":-96.14054,"zip":"68307","miles_from_dt":22.94},{"city":"McClelland","state_name":"Iowa","lat":41.31713,"lng":-95.63553,"zip":"51548","miles_from_dt":23.34},{"city":"Omaha","state_name":"Nebraska","lat":41.29776,"lng":-96.0503,"zip":"68134","miles_from_dt":23.74},{"city":"Otoe","state_name":"Nebraska","lat":40.7359,"lng":-96.09199,"zip":"68417","miles_from_dt":23.77},{"city":"Omaha","state_name":"Nebraska","lat":41.26408,"lng":-96.11665,"zip":"68154","miles_from_dt":23.96},{"city":"Boys Town","state_name":"Nebraska","lat":41.25616,"lng":-96.13352,"zip":"68010","miles_from_dt":24.16},{"city":"Murdock","state_name":"Nebraska","lat":40.921,"lng":-96.26263,"zip":"68407","miles_from_dt":24.39},{"city":"Omaha","state_name":"Nebraska","lat":41.2052,"lng":-96.19576,"zip":"68135","miles_from_dt":24.39},{"city":"Gretna","state_name":"Nebraska","lat":41.10513,"lng":-96.26098,"zip":"68028","miles_from_dt":24.54},{"city":"Crescent","state_name":"Iowa","lat":41.37186,"lng":-95.87818,"zip":"51526","miles_from_dt":25.52},{"city":"Omaha","state_name":"Nebraska","lat":41.29886,"lng":-96.10949,"zip":"68164","miles_from_dt":25.56},{"city":"Omaha","state_name":"Nebraska","lat":41.23394,"lng":-96.19613,"zip":"68130","miles_from_dt":25.58},{"city":"Nebraska City","state_name":"Nebraska","lat":40.63729,"lng":-95.88584,"zip":"68410","miles_from_dt":25.73},{"city":"Carson","state_name":"Iowa","lat":41.23443,"lng":-95.41999,"zip":"51525","miles_from_dt":25.75},{"city":"Omaha","state_name":"Nebraska","lat":41.263,"lng":-96.1772,"zip":"68118","miles_from_dt":26.12},{"city":"Underwood","state_name":"Iowa","lat":41.3777,"lng":-95.70945,"zip":"51576","miles_from_dt":26.2},{"city":"Dunbar","state_name":"Nebraska","lat":40.66195,"lng":-96.03066,"zip":"68346","miles_from_dt":26.39},{"city":"Farragut","state_name":"Iowa","lat":40.71859,"lng":-95.47362,"zip":"51639","miles_from_dt":26.51},{"city":"Omaha","state_name":"Nebraska","lat":41.36282,"lng":-95.99995,"zip":"68152","miles_from_dt":26.56},{"city":"Riverton","state_name":"Iowa","lat":40.673,"lng":-95.5492,"zip":"51650","miles_from_dt":26.72},{"city":"Omaha","state_name":"Nebraska","lat":41.38183,"lng":-95.95804,"zip":"68112","miles_from_dt":27.08},{"city":"Omaha","state_name":"Nebraska","lat":41.29842,"lng":-96.16629,"zip":"68116","miles_from_dt":27.45},{"city":"Hamburg","state_name":"Iowa","lat":40.62262,"lng":-95.6634,"zip":"51640","miles_from_dt":27.53},{"city":"Omaha","state_name":"Nebraska","lat":41.36451,"lng":-96.05036,"zip":"68122","miles_from_dt":27.75},{"city":"Shenandoah","state_name":"Iowa","lat":40.7667,"lng":-95.37171,"zip":"51603","miles_from_dt":28.26},{"city":"Elmwood","state_name":"Nebraska","lat":40.82962,"lng":-96.30028,"zip":"68349","miles_from_dt":28.4},{"city":"Red Oak","state_name":"Iowa","lat":40.97836,"lng":-95.25775,"zip":"51591","miles_from_dt":28.93},{"city":"Omaha","state_name":"Nebraska","lat":41.37012,"lng":-96.10276,"zip":"68142","miles_from_dt":29.42},{"city":"Elkhorn","state_name":"Nebraska","lat":41.27744,"lng":-96.24558,"zip":"68022","miles_from_dt":29.46},{"city":"Honey Creek","state_name":"Iowa","lat":41.43354,"lng":-95.84072,"zip":"51542","miles_from_dt":29.57}],"targetCityZipCode":"51561","targetCityState":"Iowa"},"__N_SSG":true}