{"pageProps":{"stateName":"Iowa","cityName":"pella","nearbyCities":[{"city":"Leighton","state_name":"Iowa","lat":41.34245,"lng":-92.79893,"zip":"50143","miles_from_dt":7.67},{"city":"Harvey","state_name":"Iowa","lat":41.31089,"lng":-92.94587,"zip":"50119","miles_from_dt":8.04},{"city":"Otley","state_name":"Iowa","lat":41.46246,"lng":-93.05528,"zip":"50214","miles_from_dt":8.46},{"city":"Reasnor","state_name":"Iowa","lat":41.55761,"lng":-92.96868,"zip":"50232","miles_from_dt":9.96},{"city":"Sully","state_name":"Iowa","lat":41.56883,"lng":-92.87007,"zip":"50251","miles_from_dt":10.23},{"city":"Tracy","state_name":"Iowa","lat":41.2664,"lng":-92.91114,"zip":"50256","miles_from_dt":10.78},{"city":"Lynnville","state_name":"Iowa","lat":41.57669,"lng":-92.80033,"zip":"50153","miles_from_dt":11.87},{"city":"Killduff","state_name":"Iowa","lat":41.60872,"lng":-92.92126,"zip":"50137","miles_from_dt":12.9},{"city":"Monroe","state_name":"Iowa","lat":41.52911,"lng":-93.11546,"zip":"50170","miles_from_dt":13.33},{"city":"Knoxville","state_name":"Iowa","lat":41.30246,"lng":-93.10534,"zip":"50138","miles_from_dt":13.46},{"city":"New Sharon","state_name":"Iowa","lat":41.43344,"lng":-92.6381,"zip":"50207","miles_from_dt":13.69},{"city":"Searsboro","state_name":"Iowa","lat":41.56332,"lng":-92.69428,"zip":"50242","miles_from_dt":14.49},{"city":"Bussey","state_name":"Iowa","lat":41.20247,"lng":-92.88907,"zip":"50044","miles_from_dt":15.19},{"city":"Beacon","state_name":"Iowa","lat":41.27342,"lng":-92.6806,"zip":"52534","miles_from_dt":15.41},{"city":"Oskaloosa","state_name":"Iowa","lat":41.27174,"lng":-92.6602,"zip":"52577","miles_from_dt":16.29},{"city":"Hamilton","state_name":"Iowa","lat":41.17812,"lng":-92.98247,"zip":"50116","miles_from_dt":17.38},{"city":"University Park","state_name":"Iowa","lat":41.28847,"lng":-92.61506,"zip":"52595","miles_from_dt":17.52},{"city":"Pleasantville","state_name":"Iowa","lat":41.3823,"lng":-93.27103,"zip":"50225","miles_from_dt":19.41},{"city":"Prairie City","state_name":"Iowa","lat":41.57008,"lng":-93.24154,"zip":"50228","miles_from_dt":20.38},{"city":"Lovilia","state_name":"Iowa","lat":41.12771,"lng":-92.97404,"zip":"50150","miles_from_dt":20.69},{"city":"Columbia","state_name":"Iowa","lat":41.17859,"lng":-93.14554,"zip":"50057","miles_from_dt":21.09},{"city":"Newton","state_name":"Iowa","lat":41.71129,"lng":-93.03924,"zip":"50208","miles_from_dt":21.18},{"city":"Swan","state_name":"Iowa","lat":41.45881,"lng":-93.31518,"zip":"50252","miles_from_dt":21.64},{"city":"Melcher Dallas","state_name":"Iowa","lat":41.23499,"lng":-93.24425,"zip":"50062","miles_from_dt":22.03},{"city":"Melcher Dallas","state_name":"Iowa","lat":41.2223,"lng":-93.24101,"zip":"50163","miles_from_dt":22.43},{"city":"Kellogg","state_name":"Iowa","lat":41.7475,"lng":-92.89096,"zip":"50135","miles_from_dt":22.44},{"city":"Montezuma","state_name":"Iowa","lat":41.58434,"lng":-92.52584,"zip":"50171","miles_from_dt":22.46},{"city":"Barnes City","state_name":"Iowa","lat":41.4739,"lng":-92.47194,"zip":"50027","miles_from_dt":22.58},{"city":"Eddyville","state_name":"Iowa","lat":41.14865,"lng":-92.65668,"zip":"52553","miles_from_dt":22.78},{"city":"Rose Hill","state_name":"Iowa","lat":41.34573,"lng":-92.46694,"zip":"52586","miles_from_dt":23.19},{"city":"Grinnell","state_name":"Iowa","lat":41.7319,"lng":-92.71591,"zip":"50112","miles_from_dt":23.42},{"city":"Hartford","state_name":"Iowa","lat":41.45957,"lng":-93.37673,"zip":"50118","miles_from_dt":24.82},{"city":"Colfax","state_name":"Iowa","lat":41.68729,"lng":-93.23196,"zip":"50054","miles_from_dt":25.06},{"city":"Cedar","state_name":"Iowa","lat":41.20065,"lng":-92.51773,"zip":"52543","miles_from_dt":25.15},{"city":"Runnells","state_name":"Iowa","lat":41.54238,"lng":-93.36859,"zip":"50237","miles_from_dt":25.62},{"city":"Gibson","state_name":"Iowa","lat":41.49458,"lng":-92.38841,"zip":"50104","miles_from_dt":27.09},{"city":"Albia","state_name":"Iowa","lat":41.02684,"lng":-92.81562,"zip":"52531","miles_from_dt":27.66},{"city":"Fremont","state_name":"Iowa","lat":41.22135,"lng":-92.44081,"zip":"52561","miles_from_dt":27.69},{"city":"Ackworth","state_name":"Iowa","lat":41.3611,"lng":-93.43321,"zip":"50001","miles_from_dt":27.96},{"city":"What Cheer","state_name":"Iowa","lat":41.40695,"lng":-92.36227,"zip":"50268","miles_from_dt":28.02},{"city":"Mitchellville","state_name":"Iowa","lat":41.65617,"lng":-93.35062,"zip":"50169","miles_from_dt":28.34},{"city":"Malcom","state_name":"Iowa","lat":41.74545,"lng":-92.56183,"zip":"50157","miles_from_dt":28.4},{"city":"Kirkville","state_name":"Iowa","lat":41.12887,"lng":-92.50547,"zip":"52566","miles_from_dt":28.9},{"city":"Delta","state_name":"Iowa","lat":41.31635,"lng":-92.36254,"zip":"52550","miles_from_dt":28.95},{"city":"Milo","state_name":"Iowa","lat":41.28289,"lng":-93.42629,"zip":"50166","miles_from_dt":28.95},{"city":"Lacona","state_name":"Iowa","lat":41.19237,"lng":-93.36683,"zip":"50139","miles_from_dt":28.96},{"city":"Ira","state_name":"Iowa","lat":41.78122,"lng":-93.21129,"zip":"50127","miles_from_dt":29.51},{"city":"Carlisle","state_name":"Iowa","lat":41.47551,"lng":-93.46556,"zip":"50047","miles_from_dt":29.52},{"city":"Williamson","state_name":"Iowa","lat":41.08809,"lng":-93.25682,"zip":"50272","miles_from_dt":29.58},{"city":"Thornburg","state_name":"Iowa","lat":41.45593,"lng":-92.33207,"zip":"50255","miles_from_dt":29.65}],"targetCityZipCode":"50219","targetCityState":"Iowa"},"__N_SSG":true}