{"pageProps":{"stateName":"Iowa","cityName":"promise-city","nearbyCities":[{"city":"Plano","state_name":"Iowa","lat":40.80504,"lng":-93.06265,"zip":"52581","miles_from_dt":4.87},{"city":"Millerton","state_name":"Iowa","lat":40.84808,"lng":-93.30937,"zip":"50165","miles_from_dt":8.65},{"city":"Corydon","state_name":"Iowa","lat":40.75508,"lng":-93.31922,"zip":"50060","miles_from_dt":9.2},{"city":"Seymour","state_name":"Iowa","lat":40.6654,"lng":-93.13594,"zip":"52590","miles_from_dt":9.54},{"city":"Mystic","state_name":"Iowa","lat":40.80822,"lng":-92.96948,"zip":"52574","miles_from_dt":9.76},{"city":"Russell","state_name":"Iowa","lat":40.97124,"lng":-93.17502,"zip":"50238","miles_from_dt":11.67},{"city":"Melrose","state_name":"Iowa","lat":40.97968,"lng":-93.04939,"zip":"52569","miles_from_dt":13.41},{"city":"Centerville","state_name":"Iowa","lat":40.71774,"lng":-92.90831,"zip":"52544","miles_from_dt":14.24},{"city":"Allerton","state_name":"Iowa","lat":40.67847,"lng":-93.38549,"zip":"50008","miles_from_dt":14.81},{"city":"Cincinnati","state_name":"Iowa","lat":40.61392,"lng":-92.94602,"zip":"52549","miles_from_dt":17.06},{"city":"Moravia","state_name":"Iowa","lat":40.87739,"lng":-92.83114,"zip":"52571","miles_from_dt":17.76},{"city":"Chariton","state_name":"Iowa","lat":41.03741,"lng":-93.29566,"zip":"50049","miles_from_dt":17.77},{"city":"Humeston","state_name":"Iowa","lat":40.83938,"lng":-93.50634,"zip":"50123","miles_from_dt":18.56},{"city":"Clio","state_name":"Iowa","lat":40.64417,"lng":-93.44538,"zip":"50052","miles_from_dt":18.75},{"city":"Derby","state_name":"Iowa","lat":40.94229,"lng":-93.46704,"zip":"50068","miles_from_dt":18.94},{"city":"Powersville","state_name":"Missouri","lat":40.53869,"lng":-93.26015,"zip":"64672","miles_from_dt":19.04},{"city":"Williamson","state_name":"Iowa","lat":41.08809,"lng":-93.25682,"zip":"50272","miles_from_dt":20.39},{"city":"Exline","state_name":"Iowa","lat":40.63905,"lng":-92.81046,"zip":"52555","miles_from_dt":21.35},{"city":"Udell","state_name":"Iowa","lat":40.77363,"lng":-92.73955,"zip":"52593","miles_from_dt":21.91},{"city":"Albia","state_name":"Iowa","lat":41.02684,"lng":-92.81562,"zip":"52531","miles_from_dt":23.57},{"city":"Garden Grove","state_name":"Iowa","lat":40.79292,"lng":-93.61079,"zip":"50103","miles_from_dt":23.88},{"city":"Lineville","state_name":"Iowa","lat":40.62381,"lng":-93.54597,"zip":"50147","miles_from_dt":23.94},{"city":"Lovilia","state_name":"Iowa","lat":41.12771,"lng":-92.97404,"zip":"50150","miles_from_dt":24.34},{"city":"Unionville","state_name":"Missouri","lat":40.48263,"lng":-92.95447,"zip":"63565","miles_from_dt":24.49},{"city":"Lucerne","state_name":"Missouri","lat":40.44017,"lng":-93.23684,"zip":"64655","miles_from_dt":25.39},{"city":"Moulton","state_name":"Iowa","lat":40.67795,"lng":-92.69163,"zip":"52572","miles_from_dt":25.83},{"city":"Columbia","state_name":"Iowa","lat":41.17859,"lng":-93.14554,"zip":"50057","miles_from_dt":25.93},{"city":"Lucas","state_name":"Iowa","lat":41.08074,"lng":-93.49717,"zip":"50151","miles_from_dt":26.22},{"city":"Unionville","state_name":"Iowa","lat":40.83561,"lng":-92.64957,"zip":"52594","miles_from_dt":26.62},{"city":"Mercer","state_name":"Missouri","lat":40.53031,"lng":-93.51901,"zip":"64661","miles_from_dt":26.8},{"city":"Hamilton","state_name":"Iowa","lat":41.17812,"lng":-92.98247,"zip":"50116","miles_from_dt":27.43},{"city":"Woodburn","state_name":"Iowa","lat":41.04375,"lng":-93.58852,"zip":"50275","miles_from_dt":28.11},{"city":"Lacona","state_name":"Iowa","lat":41.19237,"lng":-93.36683,"zip":"50139","miles_from_dt":29.06},{"city":"Melcher Dallas","state_name":"Iowa","lat":41.2223,"lng":-93.24101,"zip":"50163","miles_from_dt":29.29},{"city":"Weldon","state_name":"Iowa","lat":40.89919,"lng":-93.70071,"zip":"50264","miles_from_dt":29.33},{"city":"Coatsville","state_name":"Missouri","lat":40.57244,"lng":-92.67946,"zip":"63535","miles_from_dt":29.63},{"city":"Newtown","state_name":"Missouri","lat":40.39434,"lng":-93.33618,"zip":"64667","miles_from_dt":29.75},{"city":"Blakesburg","state_name":"Iowa","lat":40.95291,"lng":-92.61802,"zip":"52536","miles_from_dt":30}],"targetCityZipCode":"52583","targetCityState":"Iowa"},"__N_SSG":true}