{"pageProps":{"stateName":"Iowa","cityName":"rockwell-city","nearbyCities":[{"city":"Jolley","state_name":"Iowa","lat":42.48242,"lng":-94.75484,"zip":"50551","miles_from_dt":8.69},{"city":"Knierim","state_name":"Iowa","lat":42.45638,"lng":-94.46068,"zip":"50552","miles_from_dt":9.89},{"city":"Lohrville","state_name":"Iowa","lat":42.26366,"lng":-94.55155,"zip":"51453","miles_from_dt":9.92},{"city":"Lake City","state_name":"Iowa","lat":42.26614,"lng":-94.73475,"zip":"51449","miles_from_dt":10.18},{"city":"Somers","state_name":"Iowa","lat":42.40472,"lng":-94.43204,"zip":"50586","miles_from_dt":10.39},{"city":"Manson","state_name":"Iowa","lat":42.52802,"lng":-94.52515,"zip":"50563","miles_from_dt":10.83},{"city":"Lytton","state_name":"Iowa","lat":42.42122,"lng":-94.84794,"zip":"50561","miles_from_dt":11.08},{"city":"Pomeroy","state_name":"Iowa","lat":42.5588,"lng":-94.70065,"zip":"50575","miles_from_dt":11.9},{"city":"Farnhamville","state_name":"Iowa","lat":42.28422,"lng":-94.43024,"zip":"50538","miles_from_dt":12.9},{"city":"Auburn","state_name":"Iowa","lat":42.27635,"lng":-94.87057,"zip":"51433","miles_from_dt":14.55},{"city":"Lanesboro","state_name":"Iowa","lat":42.1846,"lng":-94.69471,"zip":"51451","miles_from_dt":14.75},{"city":"Barnum","state_name":"Iowa","lat":42.51212,"lng":-94.38241,"zip":"50518","miles_from_dt":15.26},{"city":"Moorland","state_name":"Iowa","lat":42.43925,"lng":-94.32889,"zip":"50566","miles_from_dt":15.95},{"city":"Palmer","state_name":"Iowa","lat":42.63485,"lng":-94.5806,"zip":"50571","miles_from_dt":16.88},{"city":"Churdan","state_name":"Iowa","lat":42.16459,"lng":-94.51054,"zip":"50050","miles_from_dt":17.03},{"city":"Callender","state_name":"Iowa","lat":42.36783,"lng":-94.29357,"zip":"50523","miles_from_dt":17.54},{"city":"Fonda","state_name":"Iowa","lat":42.60019,"lng":-94.8407,"zip":"50540","miles_from_dt":17.73},{"city":"Sac City","state_name":"Iowa","lat":42.43049,"lng":-94.98595,"zip":"50583","miles_from_dt":18.16},{"city":"Gowrie","state_name":"Iowa","lat":42.27434,"lng":-94.30666,"zip":"50543","miles_from_dt":18.7},{"city":"Clare","state_name":"Iowa","lat":42.59992,"lng":-94.35799,"zip":"50524","miles_from_dt":20.06},{"city":"Lidderdale","state_name":"Iowa","lat":42.12242,"lng":-94.78366,"zip":"51452","miles_from_dt":20.22},{"city":"Lake View","state_name":"Iowa","lat":42.31205,"lng":-95.02722,"zip":"51450","miles_from_dt":20.88},{"city":"Glidden","state_name":"Iowa","lat":42.07748,"lng":-94.70517,"zip":"51443","miles_from_dt":22.12},{"city":"Varina","state_name":"Iowa","lat":42.65796,"lng":-94.89832,"zip":"50593","miles_from_dt":22.68},{"city":"Pocahontas","state_name":"Iowa","lat":42.71891,"lng":-94.69967,"zip":"50574","miles_from_dt":22.7},{"city":"Fort Dodge","state_name":"Iowa","lat":42.49244,"lng":-94.18967,"zip":"50501","miles_from_dt":23.74},{"city":"Ralston","state_name":"Iowa","lat":42.04495,"lng":-94.63779,"zip":"51459","miles_from_dt":24.06},{"city":"Newell","state_name":"Iowa","lat":42.62171,"lng":-94.99395,"zip":"50568","miles_from_dt":24.19},{"city":"Gilmore City","state_name":"Iowa","lat":42.71569,"lng":-94.44715,"zip":"50541","miles_from_dt":24.2},{"city":"Breda","state_name":"Iowa","lat":42.18254,"lng":-95.01247,"zip":"51436","miles_from_dt":24.24},{"city":"Nemaha","state_name":"Iowa","lat":42.52146,"lng":-95.08935,"zip":"50567","miles_from_dt":24.87},{"city":"Paton","state_name":"Iowa","lat":42.17206,"lng":-94.24984,"zip":"50217","miles_from_dt":24.95},{"city":"Otho","state_name":"Iowa","lat":42.4032,"lng":-94.13841,"zip":"50569","miles_from_dt":25.39},{"city":"Harcourt","state_name":"Iowa","lat":42.2537,"lng":-94.17042,"zip":"50544","miles_from_dt":25.66},{"city":"Wall Lake","state_name":"Iowa","lat":42.25302,"lng":-95.09837,"zip":"51466","miles_from_dt":25.66},{"city":"Carroll","state_name":"Iowa","lat":42.06516,"lng":-94.87068,"zip":"51401","miles_from_dt":25.7},{"city":"Scranton","state_name":"Iowa","lat":42.01319,"lng":-94.55744,"zip":"51462","miles_from_dt":26.55},{"city":"Early","state_name":"Iowa","lat":42.45138,"lng":-95.16167,"zip":"50535","miles_from_dt":27.25},{"city":"Burnside","state_name":"Iowa","lat":42.3462,"lng":-94.10276,"zip":"50521","miles_from_dt":27.41},{"city":"Dana","state_name":"Iowa","lat":42.10671,"lng":-94.229,"zip":"50064","miles_from_dt":28.71},{"city":"Arcadia","state_name":"Iowa","lat":42.0869,"lng":-95.02633,"zip":"51430","miles_from_dt":29.19},{"city":"Jefferson","state_name":"Iowa","lat":42.01335,"lng":-94.3764,"zip":"50129","miles_from_dt":29.4}],"targetCityZipCode":"50579","targetCityState":"Iowa"},"__N_SSG":true}