{"pageProps":{"stateName":"Iowa","cityName":"rowley","nearbyCities":[{"city":"Quasqueton","state_name":"Iowa","lat":42.39513,"lng":-91.75641,"zip":"52326","miles_from_dt":5.59},{"city":"Walker","state_name":"Iowa","lat":42.28706,"lng":-91.77897,"zip":"52352","miles_from_dt":6.28},{"city":"Brandon","state_name":"Iowa","lat":42.33905,"lng":-92.00537,"zip":"52210","miles_from_dt":7.87},{"city":"Independence","state_name":"Iowa","lat":42.47751,"lng":-91.89721,"zip":"50644","miles_from_dt":8.48},{"city":"Urbana","state_name":"Iowa","lat":42.22239,"lng":-91.89177,"zip":"52345","miles_from_dt":9.62},{"city":"Troy Mills","state_name":"Iowa","lat":42.29202,"lng":-91.68325,"zip":"52344","miles_from_dt":9.89},{"city":"Winthrop","state_name":"Iowa","lat":42.45241,"lng":-91.69893,"zip":"50682","miles_from_dt":10.23},{"city":"Center Point","state_name":"Iowa","lat":42.1995,"lng":-91.77222,"zip":"52213","miles_from_dt":11.78},{"city":"Jesup","state_name":"Iowa","lat":42.45182,"lng":-92.09465,"zip":"50648","miles_from_dt":13.88},{"city":"Mount Auburn","state_name":"Iowa","lat":42.25955,"lng":-92.09726,"zip":"52313","miles_from_dt":14.22},{"city":"Masonville","state_name":"Iowa","lat":42.45812,"lng":-91.60933,"zip":"50654","miles_from_dt":14.27},{"city":"Vinton","state_name":"Iowa","lat":42.17246,"lng":-92.00566,"zip":"52349","miles_from_dt":15.04},{"city":"Coggon","state_name":"Iowa","lat":42.2946,"lng":-91.53826,"zip":"52218","miles_from_dt":16.77},{"city":"Hazleton","state_name":"Iowa","lat":42.59746,"lng":-91.91961,"zip":"50641","miles_from_dt":16.8},{"city":"Alburnett","state_name":"Iowa","lat":42.15836,"lng":-91.63792,"zip":"52202","miles_from_dt":17.73},{"city":"La Porte City","state_name":"Iowa","lat":42.32271,"lng":-92.19993,"zip":"50651","miles_from_dt":17.89},{"city":"Shellsburg","state_name":"Iowa","lat":42.09861,"lng":-91.88772,"zip":"52332","miles_from_dt":18.05},{"city":"Aurora","state_name":"Iowa","lat":42.60872,"lng":-91.74747,"zip":"50607","miles_from_dt":18.08},{"city":"Ryan","state_name":"Iowa","lat":42.35261,"lng":-91.50076,"zip":"52330","miles_from_dt":18.09},{"city":"Toddville","state_name":"Iowa","lat":42.10535,"lng":-91.7341,"zip":"52341","miles_from_dt":18.55},{"city":"Gilbertville","state_name":"Iowa","lat":42.4181,"lng":-92.21422,"zip":"50634","miles_from_dt":18.88},{"city":"Stanley","state_name":"Iowa","lat":42.6523,"lng":-91.7997,"zip":"50671","miles_from_dt":20.44},{"city":"Raymond","state_name":"Iowa","lat":42.47003,"lng":-92.22545,"zip":"50667","miles_from_dt":20.48},{"city":"Palo","state_name":"Iowa","lat":42.06421,"lng":-91.80583,"zip":"52324","miles_from_dt":20.49},{"city":"Lamont","state_name":"Iowa","lat":42.61915,"lng":-91.65429,"zip":"50650","miles_from_dt":20.66},{"city":"Central City","state_name":"Iowa","lat":42.19056,"lng":-91.50704,"zip":"52214","miles_from_dt":21.25},{"city":"Dewar","state_name":"Iowa","lat":42.52693,"lng":-92.20962,"zip":"50623","miles_from_dt":21.56},{"city":"Dundee","state_name":"Iowa","lat":42.58586,"lng":-91.55685,"zip":"52038","miles_from_dt":21.82},{"city":"Garrison","state_name":"Iowa","lat":42.14609,"lng":-92.16884,"zip":"52229","miles_from_dt":21.83},{"city":"Robins","state_name":"Iowa","lat":42.07195,"lng":-91.66641,"zip":"52328","miles_from_dt":22.02},{"city":"Cedar Rapids","state_name":"Iowa","lat":42.05093,"lng":-91.72723,"zip":"52411","miles_from_dt":22.23},{"city":"Dunkerton","state_name":"Iowa","lat":42.58028,"lng":-92.17049,"zip":"50626","miles_from_dt":22.25},{"city":"Manchester","state_name":"Iowa","lat":42.4916,"lng":-91.45333,"zip":"52057","miles_from_dt":22.44},{"city":"Fairbank","state_name":"Iowa","lat":42.64222,"lng":-92.081,"zip":"50629","miles_from_dt":22.73},{"city":"Hiawatha","state_name":"Iowa","lat":42.04934,"lng":-91.68732,"zip":"52233","miles_from_dt":23.02},{"city":"Oelwein","state_name":"Iowa","lat":42.68748,"lng":-91.93396,"zip":"50662","miles_from_dt":23.04},{"city":"Evansdale","state_name":"Iowa","lat":42.4771,"lng":-92.27918,"zip":"50707","miles_from_dt":23.22},{"city":"Prairieburg","state_name":"Iowa","lat":42.23758,"lng":-91.42576,"zip":"52219","miles_from_dt":23.49},{"city":"Waterloo","state_name":"Iowa","lat":42.52769,"lng":-92.27167,"zip":"50704","miles_from_dt":24.32},{"city":"Waterloo","state_name":"Iowa","lat":42.45745,"lng":-92.31283,"zip":"50702","miles_from_dt":24.43},{"city":"Marion","state_name":"Iowa","lat":42.0656,"lng":-91.57091,"zip":"52302","miles_from_dt":24.92},{"city":"Cedar Rapids","state_name":"Iowa","lat":42.02272,"lng":-91.66001,"zip":"52402","miles_from_dt":25.25},{"city":"Cedar Rapids","state_name":"Iowa","lat":42.02179,"lng":-91.66109,"zip":"52498","miles_from_dt":25.29},{"city":"Newhall","state_name":"Iowa","lat":42.00181,"lng":-91.96985,"zip":"52315","miles_from_dt":25.36},{"city":"Cedar Rapids","state_name":"Iowa","lat":42.02126,"lng":-91.65851,"zip":"52410","miles_from_dt":25.38},{"city":"Atkins","state_name":"Iowa","lat":41.99187,"lng":-91.88718,"zip":"52206","miles_from_dt":25.39},{"city":"Waterloo","state_name":"Iowa","lat":42.4171,"lng":-92.34448,"zip":"50701","miles_from_dt":25.41},{"city":"Waterloo","state_name":"Iowa","lat":42.54817,"lng":-92.28195,"zip":"50703","miles_from_dt":25.47},{"city":"Cedar Rapids","state_name":"Iowa","lat":41.98644,"lng":-91.74774,"zip":"52405","miles_from_dt":26.28},{"city":"Dysart","state_name":"Iowa","lat":42.16386,"lng":-92.29836,"zip":"52224","miles_from_dt":26.46},{"city":"Oran","state_name":"Iowa","lat":42.70698,"lng":-92.07222,"zip":"50664","miles_from_dt":26.48},{"city":"Cedar Rapids","state_name":"Iowa","lat":41.98957,"lng":-91.71433,"zip":"52409","miles_from_dt":26.48},{"city":"Van Horne","state_name":"Iowa","lat":42.01298,"lng":-92.08119,"zip":"52346","miles_from_dt":26.57},{"city":"Cedar Rapids","state_name":"Iowa","lat":41.9879,"lng":-91.71311,"zip":"52408","miles_from_dt":26.61},{"city":"Cedar Rapids","state_name":"Iowa","lat":42.00587,"lng":-91.64172,"zip":"52497","miles_from_dt":26.7},{"city":"Delhi","state_name":"Iowa","lat":42.41315,"lng":-91.32408,"zip":"52223","miles_from_dt":27.37},{"city":"Delaware","state_name":"Iowa","lat":42.47285,"lng":-91.34086,"zip":"52036","miles_from_dt":27.4},{"city":"Buckingham","state_name":"Iowa","lat":42.28546,"lng":-92.38687,"zip":"50612","miles_from_dt":27.76},{"city":"Arlington","state_name":"Iowa","lat":42.74669,"lng":-91.68299,"zip":"50606","miles_from_dt":28.15},{"city":"Cedar Rapids","state_name":"Iowa","lat":41.97534,"lng":-91.65871,"zip":"52401","miles_from_dt":28.31},{"city":"Cedar Rapids","state_name":"Iowa","lat":41.97584,"lng":-91.65536,"zip":"52407","miles_from_dt":28.34},{"city":"Cedar Rapids","state_name":"Iowa","lat":41.97494,"lng":-91.6551,"zip":"52499","miles_from_dt":28.4},{"city":"Maynard","state_name":"Iowa","lat":42.77232,"lng":-91.9016,"zip":"50655","miles_from_dt":28.64},{"city":"Springville","state_name":"Iowa","lat":42.0689,"lng":-91.44111,"zip":"52336","miles_from_dt":29.15},{"city":"Strawberry Point","state_name":"Iowa","lat":42.69805,"lng":-91.50984,"zip":"52076","miles_from_dt":29.27},{"city":"Readlyn","state_name":"Iowa","lat":42.69087,"lng":-92.2265,"zip":"50668","miles_from_dt":29.77},{"city":"Westgate","state_name":"Iowa","lat":42.77754,"lng":-92.00931,"zip":"50681","miles_from_dt":29.96},{"city":"Keystone","state_name":"Iowa","lat":42.01202,"lng":-92.20517,"zip":"52249","miles_from_dt":29.97}],"targetCityZipCode":"52329","targetCityState":"Iowa"},"__N_SSG":true}