{"pageProps":{"stateName":"Iowa","cityName":"saint-marys","nearbyCities":[{"city":"Saint Charles","state_name":"Iowa","lat":41.29368,"lng":-93.796,"zip":"50240","miles_from_dt":3.38},{"city":"Martensdale","state_name":"Iowa","lat":41.37385,"lng":-93.7387,"zip":"50160","miles_from_dt":4.57},{"city":"Bevington","state_name":"Iowa","lat":41.36048,"lng":-93.79416,"zip":"50033","miles_from_dt":4.81},{"city":"Prole","state_name":"Iowa","lat":41.37416,"lng":-93.77906,"zip":"50229","miles_from_dt":5.16},{"city":"Patterson","state_name":"Iowa","lat":41.34844,"lng":-93.87755,"zip":"50218","miles_from_dt":7.99},{"city":"Indianola","state_name":"Iowa","lat":41.33286,"lng":-93.57957,"zip":"50125","miles_from_dt":8.2},{"city":"New Virginia","state_name":"Iowa","lat":41.18998,"lng":-93.6978,"zip":"50210","miles_from_dt":8.34},{"city":"Truro","state_name":"Iowa","lat":41.19092,"lng":-93.85048,"zip":"50257","miles_from_dt":10.1},{"city":"Norwalk","state_name":"Iowa","lat":41.45614,"lng":-93.6887,"zip":"50211","miles_from_dt":10.51},{"city":"Cumming","state_name":"Iowa","lat":41.48022,"lng":-93.79343,"zip":"50061","miles_from_dt":12.3},{"city":"Peru","state_name":"Iowa","lat":41.21701,"lng":-93.95369,"zip":"50222","miles_from_dt":13.05},{"city":"Liberty Center","state_name":"Iowa","lat":41.20387,"lng":-93.48515,"zip":"50145","miles_from_dt":14.79},{"city":"Van Meter","state_name":"Iowa","lat":41.47014,"lng":-93.92286,"zip":"50261","miles_from_dt":14.91},{"city":"Ackworth","state_name":"Iowa","lat":41.3611,"lng":-93.43321,"zip":"50001","miles_from_dt":16.06},{"city":"Milo","state_name":"Iowa","lat":41.28289,"lng":-93.42629,"zip":"50166","miles_from_dt":16.09},{"city":"Des Moines","state_name":"Iowa","lat":41.53997,"lng":-93.67184,"zip":"50321","miles_from_dt":16.35},{"city":"West Des Moines","state_name":"Iowa","lat":41.55129,"lng":-93.73821,"zip":"50265","miles_from_dt":16.81},{"city":"Winterset","state_name":"Iowa","lat":41.32838,"lng":-94.05606,"zip":"50273","miles_from_dt":16.83},{"city":"Booneville","state_name":"Iowa","lat":41.52186,"lng":-93.90064,"zip":"50038","miles_from_dt":17.14},{"city":"Des Moines","state_name":"Iowa","lat":41.5449,"lng":-93.62063,"zip":"50315","miles_from_dt":17.39},{"city":"Des Moines","state_name":"Iowa","lat":41.53208,"lng":-93.57217,"zip":"50320","miles_from_dt":17.61},{"city":"Des Moines","state_name":"Iowa","lat":41.56853,"lng":-93.7145,"zip":"50336","miles_from_dt":18.03},{"city":"West Des Moines","state_name":"Iowa","lat":41.56323,"lng":-93.81107,"zip":"50266","miles_from_dt":18.09},{"city":"Carlisle","state_name":"Iowa","lat":41.47551,"lng":-93.46556,"zip":"50047","miles_from_dt":18.12},{"city":"Urbandale","state_name":"Iowa","lat":41.57758,"lng":-93.70871,"zip":"50398","miles_from_dt":18.67},{"city":"Osceola","state_name":"Iowa","lat":41.03292,"lng":-93.76557,"zip":"50213","miles_from_dt":19.04},{"city":"Des Moines","state_name":"Iowa","lat":41.58064,"lng":-93.67622,"zip":"50312","miles_from_dt":19.07},{"city":"Des Moines","state_name":"Iowa","lat":41.58174,"lng":-93.639,"zip":"50980","miles_from_dt":19.54},{"city":"Des Moines","state_name":"Iowa","lat":41.58204,"lng":-93.63889,"zip":"50936","miles_from_dt":19.56},{"city":"Des Moines","state_name":"Iowa","lat":41.58209,"lng":-93.63795,"zip":"50328","miles_from_dt":19.58},{"city":"Boone","state_name":"Iowa","lat":41.58027,"lng":-93.62842,"zip":"50950","miles_from_dt":19.59},{"city":"Des Moines","state_name":"Iowa","lat":41.5825,"lng":-93.6393,"zip":"50380","miles_from_dt":19.59},{"city":"Des Moines","state_name":"Iowa","lat":41.58283,"lng":-93.63937,"zip":"50981","miles_from_dt":19.61},{"city":"Des Moines","state_name":"Iowa","lat":41.58204,"lng":-93.62933,"zip":"50947","miles_from_dt":19.69},{"city":"Woodburn","state_name":"Iowa","lat":41.04375,"lng":-93.58852,"zip":"50275","miles_from_dt":19.73},{"city":"Des Moines","state_name":"Iowa","lat":41.58564,"lng":-93.64015,"zip":"50381","miles_from_dt":19.79},{"city":"Des Moines","state_name":"Iowa","lat":41.58221,"lng":-93.62221,"zip":"50393","miles_from_dt":19.81},{"city":"Des Moines","state_name":"Iowa","lat":41.58594,"lng":-93.63598,"zip":"50983","miles_from_dt":19.86},{"city":"Des Moines","state_name":"Iowa","lat":41.58594,"lng":-93.63598,"zip":"50982","miles_from_dt":19.86},{"city":"Des Moines","state_name":"Iowa","lat":41.58593,"lng":-93.63521,"zip":"50329","miles_from_dt":19.87},{"city":"Des Moines","state_name":"Iowa","lat":41.5949,"lng":-93.76456,"zip":"50360","miles_from_dt":19.88},{"city":"Des Moines","state_name":"Iowa","lat":41.59594,"lng":-93.7462,"zip":"50369","miles_from_dt":19.9},{"city":"Des Moines","state_name":"Iowa","lat":41.59516,"lng":-93.76498,"zip":"50363","miles_from_dt":19.9},{"city":"Des Moines","state_name":"Iowa","lat":41.58706,"lng":-93.63729,"zip":"50330","miles_from_dt":19.92},{"city":"Des Moines","state_name":"Iowa","lat":41.58536,"lng":-93.62901,"zip":"50940","miles_from_dt":19.92},{"city":"Lucas","state_name":"Iowa","lat":41.08074,"lng":-93.49717,"zip":"50151","miles_from_dt":19.93},{"city":"Des Moines","state_name":"Iowa","lat":41.58392,"lng":-93.62155,"zip":"50308","miles_from_dt":19.93},{"city":"Des Moines","state_name":"Iowa","lat":41.59563,"lng":-93.76633,"zip":"50367","miles_from_dt":19.94},{"city":"Des Moines","state_name":"Iowa","lat":41.59584,"lng":-93.76498,"zip":"50359","miles_from_dt":19.95},{"city":"Des Moines","state_name":"Iowa","lat":41.58716,"lng":-93.6346,"zip":"50331","miles_from_dt":19.96},{"city":"Des Moines","state_name":"Iowa","lat":41.58448,"lng":-93.62152,"zip":"50309","miles_from_dt":19.97},{"city":"Des Moines","state_name":"Iowa","lat":41.59716,"lng":-93.74644,"zip":"50339","miles_from_dt":19.99},{"city":"Des Moines","state_name":"Iowa","lat":41.59649,"lng":-93.76501,"zip":"50362","miles_from_dt":20},{"city":"Des Moines","state_name":"Iowa","lat":41.5967,"lng":-93.76491,"zip":"50364","miles_from_dt":20.01},{"city":"Des Moines","state_name":"Iowa","lat":41.58546,"lng":-93.62242,"zip":"50391","miles_from_dt":20.02},{"city":"Des Moines","state_name":"Iowa","lat":41.59727,"lng":-93.76435,"zip":"50361","miles_from_dt":20.05},{"city":"Des Moines","state_name":"Iowa","lat":41.58914,"lng":-93.63728,"zip":"50332","miles_from_dt":20.06},{"city":"Des Moines","state_name":"Iowa","lat":41.58914,"lng":-93.63728,"zip":"50333","miles_from_dt":20.06},{"city":"Des Moines","state_name":"Iowa","lat":41.58625,"lng":-93.62299,"zip":"50318","miles_from_dt":20.06},{"city":"Des Moines","state_name":"Iowa","lat":41.59851,"lng":-93.76677,"zip":"50368","miles_from_dt":20.14},{"city":"Des Moines","state_name":"Iowa","lat":41.58724,"lng":-93.61754,"zip":"50340","miles_from_dt":20.21},{"city":"Des Moines","state_name":"Iowa","lat":41.59037,"lng":-93.62966,"zip":"50392","miles_from_dt":20.24},{"city":"Des Moines","state_name":"Iowa","lat":41.588,"lng":-93.6098,"zip":"50396","miles_from_dt":20.38},{"city":"Des Moines","state_name":"Iowa","lat":41.601,"lng":-93.67335,"zip":"50311","miles_from_dt":20.48},{"city":"Windsor Heights","state_name":"Iowa","lat":41.60471,"lng":-93.71273,"zip":"50324","miles_from_dt":20.53},{"city":"Des Moines","state_name":"Iowa","lat":41.59115,"lng":-93.60314,"zip":"50319","miles_from_dt":20.7},{"city":"Lacona","state_name":"Iowa","lat":41.19237,"lng":-93.36683,"zip":"50139","miles_from_dt":20.7},{"city":"Des Moines","state_name":"Iowa","lat":41.59564,"lng":-93.62105,"zip":"50335","miles_from_dt":20.71},{"city":"Des Moines","state_name":"Iowa","lat":41.59405,"lng":-93.60239,"zip":"50307","miles_from_dt":20.9},{"city":"Des Moines","state_name":"Iowa","lat":41.60096,"lng":-93.63077,"zip":"50395","miles_from_dt":20.93},{"city":"Des Moines","state_name":"Iowa","lat":41.60215,"lng":-93.63109,"zip":"50305","miles_from_dt":21.01},{"city":"Des Moines","state_name":"Iowa","lat":41.60319,"lng":-93.63137,"zip":"50303","miles_from_dt":21.07},{"city":"Lorimor","state_name":"Iowa","lat":41.1512,"lng":-94.08194,"zip":"50149","miles_from_dt":21.11},{"city":"Des Moines","state_name":"Iowa","lat":41.60379,"lng":-93.63166,"zip":"50301","miles_from_dt":21.11},{"city":"Des Moines","state_name":"Iowa","lat":41.6049,"lng":-93.63102,"zip":"50314","miles_from_dt":21.19},{"city":"Des Moines","state_name":"Iowa","lat":41.60503,"lng":-93.6318,"zip":"50306","miles_from_dt":21.19},{"city":"Des Moines","state_name":"Iowa","lat":41.6058,"lng":-93.63488,"zip":"50302","miles_from_dt":21.2},{"city":"De Soto","state_name":"Iowa","lat":41.52104,"lng":-94.02993,"zip":"50069","miles_from_dt":21.3},{"city":"Des Moines","state_name":"Iowa","lat":41.60698,"lng":-93.6326,"zip":"50304","miles_from_dt":21.31},{"city":"Hartford","state_name":"Iowa","lat":41.45957,"lng":-93.37673,"zip":"50118","miles_from_dt":21.31},{"city":"Clive","state_name":"Iowa","lat":41.61475,"lng":-93.79864,"zip":"50325","miles_from_dt":21.46},{"city":"Waukee","state_name":"Iowa","lat":41.60391,"lng":-93.87989,"zip":"50263","miles_from_dt":21.81},{"city":"Des Moines","state_name":"Iowa","lat":41.60877,"lng":-93.59775,"zip":"50316","miles_from_dt":21.94},{"city":"Des Moines","state_name":"Iowa","lat":41.62711,"lng":-93.71089,"zip":"50334","miles_from_dt":22.07},{"city":"Murray","state_name":"Iowa","lat":41.03723,"lng":-93.96167,"zip":"50174","miles_from_dt":22.13},{"city":"Des Moines","state_name":"Iowa","lat":41.62777,"lng":-93.67297,"zip":"50310","miles_from_dt":22.31},{"city":"Des Moines","state_name":"Iowa","lat":41.62897,"lng":-93.67441,"zip":"50394","miles_from_dt":22.38},{"city":"Urbandale","state_name":"Iowa","lat":41.63383,"lng":-93.73589,"zip":"50322","miles_from_dt":22.51},{"city":"Pleasant Hill","state_name":"Iowa","lat":41.58402,"lng":-93.48856,"zip":"50327","miles_from_dt":22.93},{"city":"Earlham","state_name":"Iowa","lat":41.46984,"lng":-94.12115,"zip":"50072","miles_from_dt":23.04},{"city":"Urbandale","state_name":"Iowa","lat":41.63894,"lng":-93.8185,"zip":"50323","miles_from_dt":23.28},{"city":"Des Moines","state_name":"Iowa","lat":41.61572,"lng":-93.54881,"zip":"50317","miles_from_dt":23.32},{"city":"Swan","state_name":"Iowa","lat":41.45881,"lng":-93.31518,"zip":"50252","miles_from_dt":24.12},{"city":"Pleasantville","state_name":"Iowa","lat":41.3823,"lng":-93.27103,"zip":"50225","miles_from_dt":24.6},{"city":"Des Moines","state_name":"Iowa","lat":41.65538,"lng":-93.62287,"zip":"50313","miles_from_dt":24.67},{"city":"Runnells","state_name":"Iowa","lat":41.54238,"lng":-93.36859,"zip":"50237","miles_from_dt":24.94},{"city":"Macksburg","state_name":"Iowa","lat":41.21288,"lng":-94.19713,"zip":"50155","miles_from_dt":25},{"city":"Melcher Dallas","state_name":"Iowa","lat":41.23499,"lng":-93.24425,"zip":"50062","miles_from_dt":25.97},{"city":"Melcher Dallas","state_name":"Iowa","lat":41.2223,"lng":-93.24101,"zip":"50163","miles_from_dt":26.32},{"city":"Adel","state_name":"Iowa","lat":41.61192,"lng":-94.04352,"zip":"50003","miles_from_dt":26.45},{"city":"Berwick","state_name":"Iowa","lat":41.66591,"lng":-93.54301,"zip":"50032","miles_from_dt":26.63},{"city":"Grimes","state_name":"Iowa","lat":41.69353,"lng":-93.80358,"zip":"50111","miles_from_dt":26.87},{"city":"Johnston","state_name":"Iowa","lat":41.69749,"lng":-93.72021,"zip":"50131","miles_from_dt":26.91},{"city":"Altoona","state_name":"Iowa","lat":41.64313,"lng":-93.45945,"zip":"50009","miles_from_dt":27.17},{"city":"Thayer","state_name":"Iowa","lat":40.99045,"lng":-94.06917,"zip":"50254","miles_from_dt":28.03},{"city":"Dexter","state_name":"Iowa","lat":41.45402,"lng":-94.23745,"zip":"50070","miles_from_dt":28.06},{"city":"Weldon","state_name":"Iowa","lat":40.89919,"lng":-93.70071,"zip":"50264","miles_from_dt":28.24},{"city":"Derby","state_name":"Iowa","lat":40.94229,"lng":-93.46704,"zip":"50068","miles_from_dt":28.8},{"city":"Dallas Center","state_name":"Iowa","lat":41.69669,"lng":-93.93677,"zip":"50063","miles_from_dt":28.84},{"city":"Williamson","state_name":"Iowa","lat":41.08809,"lng":-93.25682,"zip":"50272","miles_from_dt":29.11},{"city":"Ankeny","state_name":"Iowa","lat":41.72768,"lng":-93.63412,"zip":"50023","miles_from_dt":29.44},{"city":"Chariton","state_name":"Iowa","lat":41.03741,"lng":-93.29566,"zip":"50049","miles_from_dt":29.49},{"city":"Ankeny","state_name":"Iowa","lat":41.7207,"lng":-93.56838,"zip":"50021","miles_from_dt":29.76}],"targetCityZipCode":"50241","targetCityState":"Iowa"},"__N_SSG":true}