{"pageProps":{"stateName":"Iowa","cityName":"spragueville","nearbyCities":[{"city":"Springbrook","state_name":"Iowa","lat":42.16577,"lng":-90.47916,"zip":"52075","miles_from_dt":3.89},{"city":"Preston","state_name":"Iowa","lat":42.05772,"lng":-90.4279,"zip":"52069","miles_from_dt":4.25},{"city":"Andrew","state_name":"Iowa","lat":42.15322,"lng":-90.59219,"zip":"52030","miles_from_dt":6.85},{"city":"Miles","state_name":"Iowa","lat":42.08977,"lng":-90.31076,"zip":"52064","miles_from_dt":8.42},{"city":"Bellevue","state_name":"Iowa","lat":42.24874,"lng":-90.48922,"zip":"52031","miles_from_dt":9.64},{"city":"Charlotte","state_name":"Iowa","lat":41.96637,"lng":-90.48551,"zip":"52731","miles_from_dt":9.91},{"city":"Maquoketa","state_name":"Iowa","lat":42.10217,"lng":-90.67961,"zip":"52060","miles_from_dt":10.66},{"city":"Bryant","state_name":"Iowa","lat":41.95834,"lng":-90.33341,"zip":"52727","miles_from_dt":12.66},{"city":"Teeds Grove","state_name":"Iowa","lat":42.01958,"lng":-90.25707,"zip":"52771","miles_from_dt":12.7},{"city":"Delmar","state_name":"Iowa","lat":41.96712,"lng":-90.62899,"zip":"52037","miles_from_dt":12.72},{"city":"Goose Lake","state_name":"Iowa","lat":41.933,"lng":-90.39302,"zip":"52750","miles_from_dt":12.86},{"city":"Sabula","state_name":"Iowa","lat":42.08146,"lng":-90.21771,"zip":"52070","miles_from_dt":13.24},{"city":"Hanover","state_name":"Illinois","lat":42.272,"lng":-90.3202,"zip":"61041","miles_from_dt":13.66},{"city":"Andover","state_name":"Iowa","lat":41.98198,"lng":-90.24908,"zip":"52701","miles_from_dt":14.48},{"city":"Welton","state_name":"Iowa","lat":41.90743,"lng":-90.59596,"zip":"52774","miles_from_dt":15.34},{"city":"La Motte","state_name":"Iowa","lat":42.30569,"lng":-90.62811,"zip":"52054","miles_from_dt":15.71},{"city":"Savanna","state_name":"Illinois","lat":42.12615,"lng":-90.13061,"zip":"61074","miles_from_dt":17.6},{"city":"Zwingle","state_name":"Iowa","lat":42.28781,"lng":-90.71908,"zip":"52079","miles_from_dt":17.65},{"city":"Saint Donatus","state_name":"Iowa","lat":42.36245,"lng":-90.54234,"zip":"52071","miles_from_dt":17.81},{"city":"Clinton","state_name":"Iowa","lat":41.90126,"lng":-90.25083,"zip":"52732","miles_from_dt":18.36},{"city":"Baldwin","state_name":"Iowa","lat":42.09286,"lng":-90.83,"zip":"52207","miles_from_dt":18.42},{"city":"De Witt","state_name":"Iowa","lat":41.83616,"lng":-90.51076,"zip":"52742","miles_from_dt":18.98},{"city":"Elizabeth","state_name":"Illinois","lat":42.29366,"lng":-90.16935,"zip":"61028","miles_from_dt":20.08},{"city":"Lost Nation","state_name":"Iowa","lat":41.95232,"lng":-90.80538,"zip":"52254","miles_from_dt":20.29},{"city":"Grand Mound","state_name":"Iowa","lat":41.8519,"lng":-90.68398,"zip":"52751","miles_from_dt":20.86},{"city":"Monmouth","state_name":"Iowa","lat":42.12415,"lng":-90.88733,"zip":"52309","miles_from_dt":21.35},{"city":"Galena","state_name":"Illinois","lat":42.4172,"lng":-90.39816,"zip":"61036","miles_from_dt":21.57},{"city":"Thomson","state_name":"Illinois","lat":41.98307,"lng":-90.0811,"zip":"61285","miles_from_dt":21.94},{"city":"Low Moor","state_name":"Iowa","lat":41.80337,"lng":-90.3552,"zip":"52757","miles_from_dt":21.98},{"city":"Clinton","state_name":"Iowa","lat":41.84253,"lng":-90.23168,"zip":"52736","miles_from_dt":22.22},{"city":"Bernard","state_name":"Iowa","lat":42.29006,"lng":-90.84317,"zip":"52032","miles_from_dt":22.74},{"city":"Clinton","state_name":"Iowa","lat":41.8477,"lng":-90.18734,"zip":"52733","miles_from_dt":23.29},{"city":"Clinton","state_name":"Iowa","lat":41.81909,"lng":-90.23587,"zip":"52734","miles_from_dt":23.47},{"city":"Camanche","state_name":"Iowa","lat":41.77366,"lng":-90.34364,"zip":"52730","miles_from_dt":24.12},{"city":"Dubuque","state_name":"Iowa","lat":42.43434,"lng":-90.67506,"zip":"52003","miles_from_dt":24.7},{"city":"Mount Carroll","state_name":"Illinois","lat":42.11506,"lng":-89.98335,"zip":"61053","miles_from_dt":25.14},{"city":"East Dubuque","state_name":"Illinois","lat":42.46958,"lng":-90.55904,"zip":"61025","miles_from_dt":25.24},{"city":"McCausland","state_name":"Iowa","lat":41.74405,"lng":-90.44104,"zip":"52758","miles_from_dt":25.28},{"city":"Calamus","state_name":"Iowa","lat":41.80063,"lng":-90.74312,"zip":"52729","miles_from_dt":25.48},{"city":"Fulton","state_name":"Illinois","lat":41.8435,"lng":-90.12272,"zip":"61252","miles_from_dt":25.72},{"city":"Oxford Junction","state_name":"Iowa","lat":41.98445,"lng":-90.95344,"zip":"52323","miles_from_dt":26.21},{"city":"Onslow","state_name":"Iowa","lat":42.14168,"lng":-90.98307,"zip":"52321","miles_from_dt":26.33},{"city":"Long Grove","state_name":"Iowa","lat":41.72966,"lng":-90.54084,"zip":"52756","miles_from_dt":26.46},{"city":"Scales Mound","state_name":"Illinois","lat":42.46546,"lng":-90.26444,"zip":"61075","miles_from_dt":26.77},{"city":"Wheatland","state_name":"Iowa","lat":41.84739,"lng":-90.85529,"zip":"52777","miles_from_dt":26.77},{"city":"Wyoming","state_name":"Iowa","lat":42.05881,"lng":-91.00258,"zip":"52362","miles_from_dt":27.48},{"city":"Peosta","state_name":"Iowa","lat":42.42382,"lng":-90.81128,"zip":"52068","miles_from_dt":27.78},{"city":"Stockton","state_name":"Illinois","lat":42.34268,"lng":-90.03077,"zip":"61085","miles_from_dt":27.78},{"city":"Dubuque","state_name":"Iowa","lat":42.49588,"lng":-90.66751,"zip":"52099","miles_from_dt":28.47},{"city":"Princeton","state_name":"Iowa","lat":41.69906,"lng":-90.38977,"zip":"52768","miles_from_dt":28.66},{"city":"Albany","state_name":"Illinois","lat":41.74074,"lng":-90.21447,"zip":"61230","miles_from_dt":28.72},{"city":"Dubuque","state_name":"Iowa","lat":42.5001,"lng":-90.66775,"zip":"52004","miles_from_dt":28.75},{"city":"Sinsinawa","state_name":"Wisconsin","lat":42.52378,"lng":-90.53785,"zip":"53824","miles_from_dt":28.78},{"city":"Donahue","state_name":"Iowa","lat":41.71945,"lng":-90.67172,"zip":"52746","miles_from_dt":28.82},{"city":"Hazel Green","state_name":"Wisconsin","lat":42.53576,"lng":-90.51541,"zip":"53811","miles_from_dt":29.49},{"city":"Cascade","state_name":"Iowa","lat":42.27941,"lng":-91.00177,"zip":"52033","miles_from_dt":29.59},{"city":"Cordova","state_name":"Illinois","lat":41.70363,"lng":-90.27858,"zip":"61242","miles_from_dt":29.75}],"targetCityZipCode":"52074","targetCityState":"Iowa"},"__N_SSG":true}