{"pageProps":{"stateName":"Iowa","cityName":"stanhope","nearbyCities":[{"city":"Jewell","state_name":"Iowa","lat":42.30074,"lng":-93.67331,"zip":"50130","miles_from_dt":5.69},{"city":"Stratford","state_name":"Iowa","lat":42.26991,"lng":-93.89973,"zip":"50249","miles_from_dt":6.11},{"city":"Kamrar","state_name":"Iowa","lat":42.39392,"lng":-93.68256,"zip":"50132","miles_from_dt":9.13},{"city":"Randall","state_name":"Iowa","lat":42.23765,"lng":-93.60257,"zip":"50231","miles_from_dt":9.74},{"city":"Story City","state_name":"Iowa","lat":42.19256,"lng":-93.61297,"zip":"50248","miles_from_dt":10.73},{"city":"Ellsworth","state_name":"Iowa","lat":42.33516,"lng":-93.56054,"zip":"50075","miles_from_dt":11.88},{"city":"Webster City","state_name":"Iowa","lat":42.46097,"lng":-93.82154,"zip":"50595","miles_from_dt":12.37},{"city":"Dayton","state_name":"Iowa","lat":42.27021,"lng":-94.04173,"zip":"50530","miles_from_dt":13.35},{"city":"Gilbert","state_name":"Iowa","lat":42.11754,"lng":-93.63912,"zip":"50105","miles_from_dt":13.64},{"city":"Boone","state_name":"Iowa","lat":42.0892,"lng":-93.85378,"zip":"50036","miles_from_dt":13.95},{"city":"Lehigh","state_name":"Iowa","lat":42.35544,"lng":-94.04409,"zip":"50557","miles_from_dt":14.3},{"city":"Pilot Mound","state_name":"Iowa","lat":42.17117,"lng":-94.02831,"zip":"50223","miles_from_dt":14.85},{"city":"Boone","state_name":"Iowa","lat":42.05965,"lng":-93.88218,"zip":"50099","miles_from_dt":16.32},{"city":"Boone","state_name":"Iowa","lat":42.05618,"lng":-93.88076,"zip":"50037","miles_from_dt":16.53},{"city":"Duncombe","state_name":"Iowa","lat":42.46212,"lng":-94.00175,"zip":"50532","miles_from_dt":16.66},{"city":"Ames","state_name":"Iowa","lat":42.04993,"lng":-93.69342,"zip":"50014","miles_from_dt":16.79},{"city":"Burnside","state_name":"Iowa","lat":42.3462,"lng":-94.10276,"zip":"50521","miles_from_dt":16.98},{"city":"Radcliffe","state_name":"Iowa","lat":42.30655,"lng":-93.44718,"zip":"50230","miles_from_dt":17.23},{"city":"Roland","state_name":"Iowa","lat":42.1675,"lng":-93.4834,"zip":"50236","miles_from_dt":17.3},{"city":"Boxholm","state_name":"Iowa","lat":42.17363,"lng":-94.10121,"zip":"50040","miles_from_dt":18.06},{"city":"Blairsburg","state_name":"Iowa","lat":42.52921,"lng":-93.65438,"zip":"50034","miles_from_dt":18.13},{"city":"Williams","state_name":"Iowa","lat":42.48444,"lng":-93.54489,"zip":"50271","miles_from_dt":18.4},{"city":"Ames","state_name":"Iowa","lat":42.02904,"lng":-93.65086,"zip":"50012","miles_from_dt":18.85},{"city":"Ames","state_name":"Iowa","lat":42.02222,"lng":-93.63948,"zip":"50011","miles_from_dt":19.5},{"city":"Ames","state_name":"Iowa","lat":42.01732,"lng":-93.64809,"zip":"50013","miles_from_dt":19.66},{"city":"Garden City","state_name":"Iowa","lat":42.24554,"lng":-93.40022,"zip":"50102","miles_from_dt":19.75},{"city":"Ames","state_name":"Iowa","lat":42.03316,"lng":-93.58761,"zip":"50010","miles_from_dt":19.99},{"city":"Harcourt","state_name":"Iowa","lat":42.2537,"lng":-94.17042,"zip":"50544","miles_from_dt":20.02},{"city":"Otho","state_name":"Iowa","lat":42.4032,"lng":-94.13841,"zip":"50569","miles_from_dt":20.02},{"city":"Woolstock","state_name":"Iowa","lat":42.58089,"lng":-93.81471,"zip":"50599","miles_from_dt":20.55},{"city":"McCallsburg","state_name":"Iowa","lat":42.17625,"lng":-93.39068,"zip":"50154","miles_from_dt":21.41},{"city":"Luther","state_name":"Iowa","lat":41.96873,"lng":-93.81765,"zip":"50152","miles_from_dt":21.84},{"city":"Ogden","state_name":"Iowa","lat":42.03515,"lng":-94.05996,"zip":"50212","miles_from_dt":22.34},{"city":"Hubbard","state_name":"Iowa","lat":42.30218,"lng":-93.3087,"zip":"50122","miles_from_dt":24.28},{"city":"Kelley","state_name":"Iowa","lat":41.93992,"lng":-93.67429,"zip":"50134","miles_from_dt":24.39},{"city":"Nevada","state_name":"Iowa","lat":42.03337,"lng":-93.44434,"zip":"50201","miles_from_dt":24.5},{"city":"Vincent","state_name":"Iowa","lat":42.58561,"lng":-94.03949,"zip":"50594","miles_from_dt":24.63},{"city":"Beaver","state_name":"Iowa","lat":42.03881,"lng":-94.14003,"zip":"50031","miles_from_dt":24.99},{"city":"Alden","state_name":"Iowa","lat":42.51354,"lng":-93.40227,"zip":"50006","miles_from_dt":25.06},{"city":"Paton","state_name":"Iowa","lat":42.17206,"lng":-94.24984,"zip":"50217","miles_from_dt":25.21},{"city":"Fort Dodge","state_name":"Iowa","lat":42.49244,"lng":-94.18967,"zip":"50501","miles_from_dt":25.34},{"city":"Dana","state_name":"Iowa","lat":42.10671,"lng":-94.229,"zip":"50064","miles_from_dt":26.01},{"city":"Eagle Grove","state_name":"Iowa","lat":42.65251,"lng":-93.91109,"zip":"50533","miles_from_dt":26.27},{"city":"Madrid","state_name":"Iowa","lat":41.90349,"lng":-93.80001,"zip":"50156","miles_from_dt":26.29},{"city":"Zearing","state_name":"Iowa","lat":42.1528,"lng":-93.29926,"zip":"50278","miles_from_dt":26.37},{"city":"Buckeye","state_name":"Iowa","lat":42.52028,"lng":-93.37583,"zip":"50043","miles_from_dt":26.41},{"city":"Callender","state_name":"Iowa","lat":42.36783,"lng":-94.29357,"zip":"50523","miles_from_dt":26.83},{"city":"Gowrie","state_name":"Iowa","lat":42.27434,"lng":-94.30666,"zip":"50543","miles_from_dt":26.9},{"city":"Galt","state_name":"Iowa","lat":42.66713,"lng":-93.63423,"zip":"50101","miles_from_dt":27.49},{"city":"Popejoy","state_name":"Iowa","lat":42.59388,"lng":-93.42818,"zip":"50227","miles_from_dt":28.01},{"city":"Grand Junction","state_name":"Iowa","lat":42.03547,"lng":-94.2191,"zip":"50107","miles_from_dt":28.26},{"city":"Dows","state_name":"Iowa","lat":42.64931,"lng":-93.50597,"zip":"50071","miles_from_dt":28.89},{"city":"Huxley","state_name":"Iowa","lat":41.88516,"lng":-93.60446,"zip":"50124","miles_from_dt":29.01},{"city":"Sheldahl","state_name":"Iowa","lat":41.86457,"lng":-93.6967,"zip":"50243","miles_from_dt":29.29},{"city":"Badger","state_name":"Iowa","lat":42.62566,"lng":-94.13545,"zip":"50516","miles_from_dt":29.7},{"city":"Moorland","state_name":"Iowa","lat":42.43925,"lng":-94.32889,"zip":"50566","miles_from_dt":29.97}],"targetCityZipCode":"50246","targetCityState":"Iowa"},"__N_SSG":true}