{"pageProps":{"stateName":"Iowa","cityName":"stuart","nearbyCities":[{"city":"Menlo","state_name":"Iowa","lat":41.49921,"lng":-94.42176,"zip":"50164","miles_from_dt":4.4},{"city":"Dexter","state_name":"Iowa","lat":41.45402,"lng":-94.23745,"zip":"50070","miles_from_dt":5.67},{"city":"Casey","state_name":"Iowa","lat":41.51167,"lng":-94.51936,"zip":"50048","miles_from_dt":9.51},{"city":"Redfield","state_name":"Iowa","lat":41.61221,"lng":-94.21095,"zip":"50233","miles_from_dt":11.28},{"city":"Earlham","state_name":"Iowa","lat":41.46984,"lng":-94.12115,"zip":"50072","miles_from_dt":11.42},{"city":"Greenfield","state_name":"Iowa","lat":41.30004,"lng":-94.40176,"zip":"50849","miles_from_dt":12.88},{"city":"Linden","state_name":"Iowa","lat":41.68038,"lng":-94.24905,"zip":"50146","miles_from_dt":14.56},{"city":"Panora","state_name":"Iowa","lat":41.69798,"lng":-94.35023,"zip":"50216","miles_from_dt":14.99},{"city":"Adair","state_name":"Iowa","lat":41.51236,"lng":-94.64801,"zip":"50002","miles_from_dt":16.1},{"city":"De Soto","state_name":"Iowa","lat":41.52104,"lng":-94.02993,"zip":"50069","miles_from_dt":16.36},{"city":"Fontanelle","state_name":"Iowa","lat":41.31081,"lng":-94.56839,"zip":"50846","miles_from_dt":16.67},{"city":"Adel","state_name":"Iowa","lat":41.61192,"lng":-94.04352,"zip":"50003","miles_from_dt":17.86},{"city":"Guthrie Center","state_name":"Iowa","lat":41.68765,"lng":-94.55501,"zip":"50115","miles_from_dt":18.08},{"city":"Winterset","state_name":"Iowa","lat":41.32838,"lng":-94.05606,"zip":"50273","miles_from_dt":18.15},{"city":"Orient","state_name":"Iowa","lat":41.20961,"lng":-94.40902,"zip":"50858","miles_from_dt":19.06},{"city":"Macksburg","state_name":"Iowa","lat":41.21288,"lng":-94.19713,"zip":"50155","miles_from_dt":19.94},{"city":"Yale","state_name":"Iowa","lat":41.77867,"lng":-94.347,"zip":"50277","miles_from_dt":20.55},{"city":"Anita","state_name":"Iowa","lat":41.43364,"lng":-94.75215,"zip":"50020","miles_from_dt":21.61},{"city":"Van Meter","state_name":"Iowa","lat":41.47014,"lng":-93.92286,"zip":"50261","miles_from_dt":21.7},{"city":"Booneville","state_name":"Iowa","lat":41.52186,"lng":-93.90064,"zip":"50038","miles_from_dt":23},{"city":"Dawson","state_name":"Iowa","lat":41.8051,"lng":-94.22708,"zip":"50066","miles_from_dt":23.13},{"city":"Minburn","state_name":"Iowa","lat":41.74613,"lng":-94.04871,"zip":"50167","miles_from_dt":23.74},{"city":"Bridgewater","state_name":"Iowa","lat":41.22878,"lng":-94.68367,"zip":"50837","miles_from_dt":24.92},{"city":"Waukee","state_name":"Iowa","lat":41.60391,"lng":-93.87989,"zip":"50263","miles_from_dt":25.35},{"city":"Dallas Center","state_name":"Iowa","lat":41.69669,"lng":-93.93677,"zip":"50063","miles_from_dt":25.68},{"city":"Jamaica","state_name":"Iowa","lat":41.85173,"lng":-94.29853,"zip":"50128","miles_from_dt":25.69},{"city":"Patterson","state_name":"Iowa","lat":41.34844,"lng":-93.87755,"zip":"50218","miles_from_dt":25.73},{"city":"Bayard","state_name":"Iowa","lat":41.82497,"lng":-94.55075,"zip":"50029","miles_from_dt":26.12},{"city":"Lorimor","state_name":"Iowa","lat":41.1512,"lng":-94.08194,"zip":"50149","miles_from_dt":26.43},{"city":"Bagley","state_name":"Iowa","lat":41.85823,"lng":-94.44958,"zip":"50026","miles_from_dt":26.65},{"city":"Perry","state_name":"Iowa","lat":41.8366,"lng":-94.12293,"zip":"50220","miles_from_dt":27.01},{"city":"Peru","state_name":"Iowa","lat":41.21701,"lng":-93.95369,"zip":"50222","miles_from_dt":27.14},{"city":"Wiota","state_name":"Iowa","lat":41.38261,"lng":-94.85756,"zip":"50274","miles_from_dt":27.69},{"city":"Creston","state_name":"Iowa","lat":41.07959,"lng":-94.39224,"zip":"50801","miles_from_dt":27.82},{"city":"Exira","state_name":"Iowa","lat":41.595,"lng":-94.8576,"zip":"50076","miles_from_dt":27.94},{"city":"West Des Moines","state_name":"Iowa","lat":41.56323,"lng":-93.81107,"zip":"50266","miles_from_dt":28.05},{"city":"Massena","state_name":"Iowa","lat":41.23869,"lng":-94.77455,"zip":"50853","miles_from_dt":28.08},{"city":"Cumming","state_name":"Iowa","lat":41.48022,"lng":-93.79343,"zip":"50061","miles_from_dt":28.4},{"city":"Cooper","state_name":"Iowa","lat":41.89957,"lng":-94.33951,"zip":"50059","miles_from_dt":28.9},{"city":"Urbandale","state_name":"Iowa","lat":41.63894,"lng":-93.8185,"zip":"50323","miles_from_dt":29.18},{"city":"Brayton","state_name":"Iowa","lat":41.53326,"lng":-94.90004,"zip":"50042","miles_from_dt":29.24},{"city":"Bouton","state_name":"Iowa","lat":41.82615,"lng":-94.00653,"zip":"50039","miles_from_dt":29.44},{"city":"Clive","state_name":"Iowa","lat":41.61475,"lng":-93.79864,"zip":"50325","miles_from_dt":29.58},{"city":"Bevington","state_name":"Iowa","lat":41.36048,"lng":-93.79416,"zip":"50033","miles_from_dt":29.58},{"city":"Hamlin","state_name":"Iowa","lat":41.66903,"lng":-94.85419,"zip":"50117","miles_from_dt":29.61}],"targetCityZipCode":"50250","targetCityState":"Iowa"},"__N_SSG":true}