{"pageProps":{"stateName":"North-carolina","cityName":"almond","nearbyCities":[{"city":"Bryson City","state_name":"North Carolina","lat":35.3697,"lng":-83.50559,"zip":"28713","miles_from_dt":7.16},{"city":"Fontana Dam","state_name":"North Carolina","lat":35.43536,"lng":-83.78403,"zip":"28733","miles_from_dt":9.21},{"city":"Topton","state_name":"North Carolina","lat":35.21417,"lng":-83.63877,"zip":"28781","miles_from_dt":12.37},{"city":"Cherokee","state_name":"North Carolina","lat":35.53223,"lng":-83.47056,"zip":"28719","miles_from_dt":13.09},{"city":"Robbinsville","state_name":"North Carolina","lat":35.34245,"lng":-83.8567,"zip":"28771","miles_from_dt":13.33},{"city":"Andrews","state_name":"North Carolina","lat":35.20127,"lng":-83.80506,"zip":"28901","miles_from_dt":16.57},{"city":"Whittier","state_name":"North Carolina","lat":35.4077,"lng":-83.31727,"zip":"28789","miles_from_dt":17.63},{"city":"Townsend","state_name":"Tennessee","lat":35.60335,"lng":-83.82118,"zip":"37882","miles_from_dt":18.07},{"city":"Franklin","state_name":"North Carolina","lat":35.1825,"lng":-83.42599,"zip":"28734","miles_from_dt":18.53},{"city":"Franklin","state_name":"North Carolina","lat":35.18074,"lng":-83.38166,"zip":"28744","miles_from_dt":20.26},{"city":"Dillsboro","state_name":"North Carolina","lat":35.37631,"lng":-83.26411,"zip":"28725","miles_from_dt":20.64},{"city":"Gatlinburg","state_name":"Tennessee","lat":35.67125,"lng":-83.47641,"zip":"37738","miles_from_dt":20.99},{"city":"Webster","state_name":"North Carolina","lat":35.35044,"lng":-83.22266,"zip":"28788","miles_from_dt":23.14},{"city":"Hayesville","state_name":"North Carolina","lat":35.06185,"lng":-83.73041,"zip":"28904","miles_from_dt":23.57},{"city":"Marble","state_name":"North Carolina","lat":35.1631,"lng":-83.9409,"zip":"28905","miles_from_dt":23.73},{"city":"Sylva","state_name":"North Carolina","lat":35.3558,"lng":-83.20962,"zip":"28779","miles_from_dt":23.83},{"city":"Tallassee","state_name":"Tennessee","lat":35.59406,"lng":-83.98358,"zip":"37878","miles_from_dt":24.31},{"city":"Walland","state_name":"Tennessee","lat":35.74142,"lng":-83.80747,"zip":"37886","miles_from_dt":26.01},{"city":"Pigeon Forge","state_name":"Tennessee","lat":35.77561,"lng":-83.53784,"zip":"37868","miles_from_dt":26.84},{"city":"Sevierville","state_name":"Tennessee","lat":35.78314,"lng":-83.61232,"zip":"37862","miles_from_dt":26.88},{"city":"Otto","state_name":"North Carolina","lat":35.03796,"lng":-83.43215,"zip":"28763","miles_from_dt":26.92},{"city":"Pigeon Forge","state_name":"Tennessee","lat":35.7864,"lng":-83.56367,"zip":"37863","miles_from_dt":27.34},{"city":"Maryville","state_name":"Tennessee","lat":35.67115,"lng":-83.97761,"zip":"37803","miles_from_dt":27.43},{"city":"Vonore","state_name":"Tennessee","lat":35.50392,"lng":-84.12539,"zip":"37885","miles_from_dt":29.02},{"city":"Cullowhee","state_name":"North Carolina","lat":35.27776,"lng":-83.12195,"zip":"28723","miles_from_dt":29.74},{"city":"Maggie Valley","state_name":"North Carolina","lat":35.50547,"lng":-83.11955,"zip":"28751","miles_from_dt":29.76}],"targetCityZipCode":"28702","targetCityState":"North Carolina"},"__N_SSG":true}