{"pageProps":{"stateName":"North-carolina","cityName":"barnardsville","nearbyCities":[{"city":"Weaverville","state_name":"North Carolina","lat":35.72795,"lng":-82.52306,"zip":"28787","miles_from_dt":7.1},{"city":"Burnsville","state_name":"North Carolina","lat":35.87739,"lng":-82.30714,"zip":"28714","miles_from_dt":9.58},{"city":"Montreat","state_name":"North Carolina","lat":35.64781,"lng":-82.30006,"zip":"28757","miles_from_dt":9.88},{"city":"Mars Hill","state_name":"North Carolina","lat":35.87696,"lng":-82.51441,"zip":"28754","miles_from_dt":9.99},{"city":"Swannanoa","state_name":"North Carolina","lat":35.61667,"lng":-82.40768,"zip":"28778","miles_from_dt":10.1},{"city":"Asheville","state_name":"North Carolina","lat":35.61528,"lng":-82.47923,"zip":"28805","miles_from_dt":11.04},{"city":"Asheville","state_name":"North Carolina","lat":35.64814,"lng":-82.5612,"zip":"28804","miles_from_dt":11.87},{"city":"Ridgecrest","state_name":"North Carolina","lat":35.62104,"lng":-82.2782,"zip":"28770","miles_from_dt":12.1},{"city":"Asheville","state_name":"North Carolina","lat":35.62368,"lng":-82.55448,"zip":"28814","miles_from_dt":12.8},{"city":"Black Mountain","state_name":"North Carolina","lat":35.59666,"lng":-82.28767,"zip":"28711","miles_from_dt":13.22},{"city":"Alexander","state_name":"North Carolina","lat":35.70558,"lng":-82.64096,"zip":"28701","miles_from_dt":13.88},{"city":"Micaville","state_name":"North Carolina","lat":35.90825,"lng":-82.21756,"zip":"28755","miles_from_dt":14.49},{"city":"Asheville","state_name":"North Carolina","lat":35.59441,"lng":-82.55785,"zip":"28801","miles_from_dt":14.49},{"city":"Old Fort","state_name":"North Carolina","lat":35.63517,"lng":-82.18929,"zip":"28762","miles_from_dt":14.97},{"city":"Asheville","state_name":"North Carolina","lat":35.57562,"lng":-82.54563,"zip":"28815","miles_from_dt":15.18},{"city":"Asheville","state_name":"North Carolina","lat":35.55447,"lng":-82.51072,"zip":"28813","miles_from_dt":15.59},{"city":"Fairview","state_name":"North Carolina","lat":35.52792,"lng":-82.37588,"zip":"28730","miles_from_dt":16.3},{"city":"Asheville","state_name":"North Carolina","lat":35.58178,"lng":-82.60141,"zip":"28816","miles_from_dt":16.72},{"city":"Asheville","state_name":"North Carolina","lat":35.52949,"lng":-82.52007,"zip":"28803","miles_from_dt":17.38},{"city":"Asheville","state_name":"North Carolina","lat":35.57154,"lng":-82.61386,"zip":"28806","miles_from_dt":17.71},{"city":"Asheville","state_name":"North Carolina","lat":35.56733,"lng":-82.61473,"zip":"28810","miles_from_dt":17.96},{"city":"Little Switzerland","state_name":"North Carolina","lat":35.84098,"lng":-82.09797,"zip":"28749","miles_from_dt":18.02},{"city":"Marshall","state_name":"North Carolina","lat":35.87181,"lng":-82.7002,"zip":"28753","miles_from_dt":18.23},{"city":"Flag Pond","state_name":"Tennessee","lat":36.01725,"lng":-82.56057,"zip":"37657","miles_from_dt":19.59},{"city":"Penland","state_name":"North Carolina","lat":35.92802,"lng":-82.11699,"zip":"28765","miles_from_dt":19.73},{"city":"Asheville","state_name":"North Carolina","lat":35.49867,"lng":-82.5384,"zip":"28802","miles_from_dt":19.74},{"city":"Green Mountain","state_name":"North Carolina","lat":36.04118,"lng":-82.30287,"zip":"28740","miles_from_dt":19.99},{"city":"Gerton","state_name":"North Carolina","lat":35.47544,"lng":-82.3485,"zip":"28735","miles_from_dt":20.09},{"city":"Enka","state_name":"North Carolina","lat":35.54141,"lng":-82.64364,"zip":"28728","miles_from_dt":20.38},{"city":"Skyland","state_name":"North Carolina","lat":35.48201,"lng":-82.52391,"zip":"28776","miles_from_dt":20.52},{"city":"Marion","state_name":"North Carolina","lat":35.71124,"lng":-82.03631,"zip":"28752","miles_from_dt":20.99},{"city":"Leicester","state_name":"North Carolina","lat":35.65492,"lng":-82.76032,"zip":"28748","miles_from_dt":21.37},{"city":"Spruce Pine","state_name":"North Carolina","lat":35.90833,"lng":-82.06617,"zip":"28777","miles_from_dt":21.46},{"city":"Fletcher","state_name":"North Carolina","lat":35.44667,"lng":-82.46577,"zip":"28732","miles_from_dt":22.1},{"city":"Bat Cave","state_name":"North Carolina","lat":35.45683,"lng":-82.27971,"zip":"28710","miles_from_dt":22.26},{"city":"Arden","state_name":"North Carolina","lat":35.46305,"lng":-82.57142,"zip":"28704","miles_from_dt":22.73},{"city":"Glenwood","state_name":"North Carolina","lat":35.68389,"lng":-82.00944,"zip":"28737","miles_from_dt":22.86},{"city":"Erwin","state_name":"Tennessee","lat":36.10416,"lng":-82.45938,"zip":"37650","miles_from_dt":23.71},{"city":"Bakersville","state_name":"North Carolina","lat":36.04349,"lng":-82.1573,"zip":"28705","miles_from_dt":23.78},{"city":"Candler","state_name":"North Carolina","lat":35.51247,"lng":-82.71196,"zip":"28715","miles_from_dt":24.47},{"city":"Chimney Rock","state_name":"North Carolina","lat":35.42766,"lng":-82.25145,"zip":"28720","miles_from_dt":24.68},{"city":"Lake Lure","state_name":"North Carolina","lat":35.461,"lng":-82.16779,"zip":"28746","miles_from_dt":24.73},{"city":"Edneyville","state_name":"North Carolina","lat":35.39634,"lng":-82.34372,"zip":"28727","miles_from_dt":25.52},{"city":"Hendersonville","state_name":"North Carolina","lat":35.39289,"lng":-82.36786,"zip":"28792","miles_from_dt":25.61},{"city":"Naples","state_name":"North Carolina","lat":35.39261,"lng":-82.503,"zip":"28760","miles_from_dt":26.15},{"city":"Mountain Home","state_name":"North Carolina","lat":35.37489,"lng":-82.49569,"zip":"28758","miles_from_dt":27.26},{"city":"Mills River","state_name":"North Carolina","lat":35.38348,"lng":-82.58431,"zip":"28759","miles_from_dt":28.07},{"city":"Hot Springs","state_name":"North Carolina","lat":35.80869,"lng":-82.90114,"zip":"28743","miles_from_dt":28.09},{"city":"Nebo","state_name":"North Carolina","lat":35.69134,"lng":-81.90714,"zip":"28761","miles_from_dt":28.38},{"city":"Hendersonville","state_name":"North Carolina","lat":35.35674,"lng":-82.508,"zip":"28791","miles_from_dt":28.63},{"city":"Horse Shoe","state_name":"North Carolina","lat":35.39486,"lng":-82.65436,"zip":"28742","miles_from_dt":29.04},{"city":"Linville Falls","state_name":"North Carolina","lat":35.95674,"lng":-81.94418,"zip":"28647","miles_from_dt":29.07},{"city":"Plumtree","state_name":"North Carolina","lat":36.04249,"lng":-82.00596,"zip":"28664","miles_from_dt":29.5},{"city":"Unicoi","state_name":"Tennessee","lat":36.18456,"lng":-82.30413,"zip":"37692","miles_from_dt":29.59},{"city":"Dana","state_name":"North Carolina","lat":35.32905,"lng":-82.37446,"zip":"28724","miles_from_dt":29.98}],"targetCityZipCode":"28709","targetCityState":"North Carolina"},"__N_SSG":true}