{"pageProps":{"stateName":"North-carolina","cityName":"boonville","nearbyCities":[{"city":"Jonesville","state_name":"North Carolina","lat":36.22433,"lng":-80.81628,"zip":"28642","miles_from_dt":6.67},{"city":"Yadkinville","state_name":"North Carolina","lat":36.11382,"lng":-80.63586,"zip":"27055","miles_from_dt":7.87},{"city":"Siloam","state_name":"North Carolina","lat":36.31178,"lng":-80.57786,"zip":"27047","miles_from_dt":9.36},{"city":"East Bend","state_name":"North Carolina","lat":36.1978,"lng":-80.52096,"zip":"27018","miles_from_dt":9.94},{"city":"Elkin","state_name":"North Carolina","lat":36.30863,"lng":-80.83612,"zip":"28621","miles_from_dt":10.02},{"city":"Hamptonville","state_name":"North Carolina","lat":36.1047,"lng":-80.81272,"zip":"27020","miles_from_dt":10.05},{"city":"State Road","state_name":"North Carolina","lat":36.3283,"lng":-80.85722,"zip":"28676","miles_from_dt":11.8},{"city":"Dobson","state_name":"North Carolina","lat":36.38141,"lng":-80.76052,"zip":"27017","miles_from_dt":11.91},{"city":"Ronda","state_name":"North Carolina","lat":36.19508,"lng":-80.92282,"zip":"28670","miles_from_dt":12.69},{"city":"Ararat","state_name":"North Carolina","lat":36.38799,"lng":-80.59144,"zip":"27007","miles_from_dt":13.22},{"city":"Pinnacle","state_name":"North Carolina","lat":36.33709,"lng":-80.44917,"zip":"27043","miles_from_dt":16.16},{"city":"Mount Airy","state_name":"North Carolina","lat":36.44556,"lng":-80.63361,"zip":"27031","miles_from_dt":16.19},{"city":"Lewisville","state_name":"North Carolina","lat":36.09103,"lng":-80.45101,"zip":"27023","miles_from_dt":16.26},{"city":"Tobaccoville","state_name":"North Carolina","lat":36.23608,"lng":-80.40116,"zip":"27050","miles_from_dt":16.6},{"city":"Roaring River","state_name":"North Carolina","lat":36.22538,"lng":-80.99443,"zip":"28669","miles_from_dt":16.61},{"city":"Thurmond","state_name":"North Carolina","lat":36.38835,"lng":-80.91219,"zip":"28683","miles_from_dt":16.86},{"city":"Harmony","state_name":"North Carolina","lat":35.97052,"lng":-80.75528,"zip":"28634","miles_from_dt":17.27},{"city":"Pfafftown","state_name":"North Carolina","lat":36.16869,"lng":-80.38969,"zip":"27040","miles_from_dt":17.5},{"city":"Union Grove","state_name":"North Carolina","lat":36.04319,"lng":-80.93345,"zip":"28689","miles_from_dt":17.81},{"city":"Pilot Mountain","state_name":"North Carolina","lat":36.41539,"lng":-80.48465,"zip":"27041","miles_from_dt":18.13},{"city":"Bethania","state_name":"North Carolina","lat":36.16581,"lng":-80.3695,"zip":"27010","miles_from_dt":18.65},{"city":"Mount Airy","state_name":"North Carolina","lat":36.48836,"lng":-80.63013,"zip":"27030","miles_from_dt":19.12},{"city":"Olin","state_name":"North Carolina","lat":35.9689,"lng":-80.85785,"zip":"28660","miles_from_dt":19.29},{"city":"Toast","state_name":"North Carolina","lat":36.49624,"lng":-80.63293,"zip":"27049","miles_from_dt":19.62},{"city":"Roaring Gap","state_name":"North Carolina","lat":36.40698,"lng":-80.99024,"zip":"28668","miles_from_dt":20.97},{"city":"Traphill","state_name":"North Carolina","lat":36.34729,"lng":-81.04097,"zip":"28685","miles_from_dt":21.2},{"city":"North Wilkesboro","state_name":"North Carolina","lat":36.20329,"lng":-81.07659,"zip":"28656","miles_from_dt":21.21},{"city":"King","state_name":"North Carolina","lat":36.31859,"lng":-80.3386,"zip":"27021","miles_from_dt":21.23},{"city":"Mocksville","state_name":"North Carolina","lat":35.92433,"lng":-80.5742,"zip":"27028","miles_from_dt":21.29},{"city":"Winston Salem","state_name":"North Carolina","lat":36.14255,"lng":-80.3228,"zip":"27106","miles_from_dt":21.54},{"city":"North Wilkesboro","state_name":"North Carolina","lat":36.16647,"lng":-81.07913,"zip":"28659","miles_from_dt":21.62},{"city":"Rural Hall","state_name":"North Carolina","lat":36.22923,"lng":-80.3045,"zip":"27098","miles_from_dt":21.96},{"city":"Rural Hall","state_name":"North Carolina","lat":36.22858,"lng":-80.3032,"zip":"27099","miles_from_dt":22.03},{"city":"Rural Hall","state_name":"North Carolina","lat":36.23678,"lng":-80.29703,"zip":"27094","miles_from_dt":22.4},{"city":"Rural Hall","state_name":"North Carolina","lat":36.23482,"lng":-80.29614,"zip":"27045","miles_from_dt":22.45},{"city":"Winston Salem","state_name":"North Carolina","lat":36.09465,"lng":-80.32501,"zip":"27104","miles_from_dt":22.45},{"city":"Lowgap","state_name":"North Carolina","lat":36.52399,"lng":-80.84027,"zip":"27024","miles_from_dt":22.65},{"city":"Clemmons","state_name":"North Carolina","lat":36.00434,"lng":-80.37547,"zip":"27012","miles_from_dt":23.2},{"city":"Winston Salem","state_name":"North Carolina","lat":36.0594,"lng":-80.32198,"zip":"27157","miles_from_dt":23.62},{"city":"Winston Salem","state_name":"North Carolina","lat":36.05822,"lng":-80.32125,"zip":"27103","miles_from_dt":23.69},{"city":"Winston Salem","state_name":"North Carolina","lat":36.05696,"lng":-80.32072,"zip":"27130","miles_from_dt":23.76},{"city":"Advance","state_name":"North Carolina","lat":35.94352,"lng":-80.43673,"zip":"27006","miles_from_dt":23.81},{"city":"Glade Valley","state_name":"North Carolina","lat":36.4528,"lng":-81.01294,"zip":"28627","miles_from_dt":23.99},{"city":"Winston Salem","state_name":"North Carolina","lat":36.13371,"lng":-80.27539,"zip":"27109","miles_from_dt":24.26},{"city":"Hays","state_name":"North Carolina","lat":36.33297,"lng":-81.12603,"zip":"28635","miles_from_dt":25.25},{"city":"Lambsburg","state_name":"Virginia","lat":36.58081,"lng":-80.76591,"zip":"24351","miles_from_dt":25.41},{"city":"Winston Salem","state_name":"North Carolina","lat":36.16294,"lng":-80.23521,"zip":"27105","miles_from_dt":26.09},{"city":"Germanton","state_name":"North Carolina","lat":36.28604,"lng":-80.23548,"zip":"27019","miles_from_dt":26.23},{"city":"Westfield","state_name":"North Carolina","lat":36.47317,"lng":-80.34989,"zip":"27053","miles_from_dt":26.24},{"city":"Winston Salem","state_name":"North Carolina","lat":36.09941,"lng":-80.24996,"zip":"27115","miles_from_dt":26.28},{"city":"Winston Salem","state_name":"North Carolina","lat":36.0992,"lng":-80.24932,"zip":"27199","miles_from_dt":26.32},{"city":"Winston Salem","state_name":"North Carolina","lat":36.10192,"lng":-80.24726,"zip":"27113","miles_from_dt":26.37},{"city":"Statesville","state_name":"North Carolina","lat":35.86487,"lng":-80.88709,"zip":"28625","miles_from_dt":26.47},{"city":"Winston Salem","state_name":"North Carolina","lat":36.10324,"lng":-80.24369,"zip":"27114","miles_from_dt":26.54},{"city":"Ennice","state_name":"North Carolina","lat":36.53088,"lng":-80.97185,"zip":"28623","miles_from_dt":26.54},{"city":"Winston Salem","state_name":"North Carolina","lat":36.09083,"lng":-80.24794,"zip":"27108","miles_from_dt":26.58},{"city":"Cana","state_name":"Virginia","lat":36.60138,"lng":-80.66876,"zip":"24317","miles_from_dt":26.59},{"city":"Winston Salem","state_name":"North Carolina","lat":36.09787,"lng":-80.24455,"zip":"27116","miles_from_dt":26.6},{"city":"Winston Salem","state_name":"North Carolina","lat":36.10789,"lng":-80.24059,"zip":"27120","miles_from_dt":26.61},{"city":"Wilkesboro","state_name":"North Carolina","lat":36.13666,"lng":-81.16317,"zip":"28697","miles_from_dt":26.62},{"city":"Winston Salem","state_name":"North Carolina","lat":36.09889,"lng":-80.24389,"zip":"27111","miles_from_dt":26.62},{"city":"Winston Salem","state_name":"North Carolina","lat":36.02028,"lng":-80.27847,"zip":"27127","miles_from_dt":27.05},{"city":"Winston Salem","state_name":"North Carolina","lat":36.07783,"lng":-80.23874,"zip":"27117","miles_from_dt":27.37},{"city":"Moravian Falls","state_name":"North Carolina","lat":36.06338,"lng":-81.15003,"zip":"28654","miles_from_dt":27.43},{"city":"Winston Salem","state_name":"North Carolina","lat":36.10511,"lng":-80.2257,"zip":"27198","miles_from_dt":27.46},{"city":"Winston Salem","state_name":"North Carolina","lat":36.08919,"lng":-80.225,"zip":"27110","miles_from_dt":27.83},{"city":"Hiddenite","state_name":"North Carolina","lat":35.94241,"lng":-81.06589,"zip":"28636","miles_from_dt":27.98},{"city":"Winston Salem","state_name":"North Carolina","lat":36.10368,"lng":-80.20772,"zip":"27150","miles_from_dt":28.46},{"city":"Winston Salem","state_name":"North Carolina","lat":36.10441,"lng":-80.20645,"zip":"27152","miles_from_dt":28.51},{"city":"Winston Salem","state_name":"North Carolina","lat":36.11089,"lng":-80.20288,"zip":"27102","miles_from_dt":28.58},{"city":"Ararat","state_name":"Virginia","lat":36.60999,"lng":-80.53283,"zip":"24053","miles_from_dt":28.64},{"city":"Winston Salem","state_name":"North Carolina","lat":36.10513,"lng":-80.2019,"zip":"27155","miles_from_dt":28.74},{"city":"Winston Salem","state_name":"North Carolina","lat":36.11204,"lng":-80.19889,"zip":"27101","miles_from_dt":28.78},{"city":"Turnersburg","state_name":"North Carolina","lat":35.83074,"lng":-80.8984,"zip":"28688","miles_from_dt":28.88},{"city":"Cooleemee","state_name":"North Carolina","lat":35.8121,"lng":-80.55508,"zip":"27014","miles_from_dt":29},{"city":"McGrady","state_name":"North Carolina","lat":36.33198,"lng":-81.20326,"zip":"28649","miles_from_dt":29.35},{"city":"Woodleaf","state_name":"North Carolina","lat":35.79304,"lng":-80.59833,"zip":"27054","miles_from_dt":29.72}],"targetCityZipCode":"27011","targetCityState":"North Carolina"},"__N_SSG":true}