{"pageProps":{"stateName":"North-carolina","cityName":"bridgeton","nearbyCities":[{"city":"New Bern","state_name":"North Carolina","lat":35.13821,"lng":-77.00635,"zip":"28563","miles_from_dt":0.92},{"city":"New Bern","state_name":"North Carolina","lat":35.13354,"lng":-76.97575,"zip":"28560","miles_from_dt":2.26},{"city":"New Bern","state_name":"North Carolina","lat":35.07483,"lng":-77.02219,"zip":"28564","miles_from_dt":3.61},{"city":"New Bern","state_name":"North Carolina","lat":35.10113,"lng":-77.07703,"zip":"28561","miles_from_dt":3.95},{"city":"New Bern","state_name":"North Carolina","lat":35.08105,"lng":-77.12486,"zip":"28562","miles_from_dt":6.99},{"city":"Grantsboro","state_name":"North Carolina","lat":35.12237,"lng":-76.86848,"zip":"28529","miles_from_dt":8.29},{"city":"Ernul","state_name":"North Carolina","lat":35.26396,"lng":-77.01568,"zip":"28527","miles_from_dt":9.46},{"city":"Alliance","state_name":"North Carolina","lat":35.14524,"lng":-76.80662,"zip":"28509","miles_from_dt":11.86},{"city":"Arapahoe","state_name":"North Carolina","lat":35.00516,"lng":-76.81171,"zip":"28510","miles_from_dt":14.24},{"city":"Pollocksville","state_name":"North Carolina","lat":34.97997,"lng":-77.19794,"zip":"28573","miles_from_dt":14.5},{"city":"Stonewall","state_name":"North Carolina","lat":35.13746,"lng":-76.73862,"zip":"28583","miles_from_dt":15.66},{"city":"Edward","state_name":"North Carolina","lat":35.3237,"lng":-76.87392,"zip":"27821","miles_from_dt":15.74},{"city":"Vanceboro","state_name":"North Carolina","lat":35.31884,"lng":-77.16602,"zip":"28586","miles_from_dt":15.76},{"city":"Cove City","state_name":"North Carolina","lat":35.20662,"lng":-77.29541,"zip":"28523","miles_from_dt":16.81},{"city":"Cherry Point","state_name":"North Carolina","lat":34.90167,"lng":-76.89955,"zip":"28533","miles_from_dt":16.84},{"city":"Oriental","state_name":"North Carolina","lat":35.05679,"lng":-76.72311,"zip":"28571","miles_from_dt":17.22},{"city":"Havelock","state_name":"North Carolina","lat":34.88857,"lng":-76.90872,"zip":"28532","miles_from_dt":17.49},{"city":"Blounts Creek","state_name":"North Carolina","lat":35.37987,"lng":-76.93513,"zip":"27814","miles_from_dt":18.02},{"city":"Bayboro","state_name":"North Carolina","lat":35.19285,"lng":-76.70263,"zip":"28515","miles_from_dt":18.25},{"city":"Aurora","state_name":"North Carolina","lat":35.29713,"lng":-76.76264,"zip":"27806","miles_from_dt":18.48},{"city":"Merritt","state_name":"North Carolina","lat":35.12233,"lng":-76.66904,"zip":"28556","miles_from_dt":19.58},{"city":"Vandemere","state_name":"North Carolina","lat":35.18714,"lng":-76.66783,"zip":"28587","miles_from_dt":20.08},{"city":"Maysville","state_name":"North Carolina","lat":34.86982,"lng":-77.24543,"zip":"28555","miles_from_dt":22.02},{"city":"Chocowinity","state_name":"North Carolina","lat":35.4506,"lng":-77.0825,"zip":"27817","miles_from_dt":22.65},{"city":"Trenton","state_name":"North Carolina","lat":35.05264,"lng":-77.41497,"zip":"28585","miles_from_dt":23.25},{"city":"Dover","state_name":"North Carolina","lat":35.24439,"lng":-77.40447,"zip":"28526","miles_from_dt":23.5},{"city":"Newport","state_name":"North Carolina","lat":34.78123,"lng":-76.88003,"zip":"28570","miles_from_dt":25.02},{"city":"Stella","state_name":"North Carolina","lat":34.7613,"lng":-77.14507,"zip":"28582","miles_from_dt":26.26},{"city":"Hobucken","state_name":"North Carolina","lat":35.25558,"lng":-76.55912,"zip":"28537","miles_from_dt":27.27},{"city":"Bath","state_name":"North Carolina","lat":35.47228,"lng":-76.76494,"zip":"27808","miles_from_dt":27.69},{"city":"Swansboro","state_name":"North Carolina","lat":34.72632,"lng":-77.10002,"zip":"28584","miles_from_dt":28.03},{"city":"Grifton","state_name":"North Carolina","lat":35.372,"lng":-77.41579,"zip":"28530","miles_from_dt":28.28},{"city":"Grimesland","state_name":"North Carolina","lat":35.51606,"lng":-77.20892,"zip":"27837","miles_from_dt":28.99},{"city":"Lowland","state_name":"North Carolina","lat":35.29281,"lng":-76.54382,"zip":"28552","miles_from_dt":29},{"city":"Jacksonville","state_name":"North Carolina","lat":34.83461,"lng":-77.38818,"zip":"28546","miles_from_dt":29.23},{"city":"Beaufort","state_name":"North Carolina","lat":34.84827,"lng":-76.61128,"zip":"28516","miles_from_dt":29.88},{"city":"Kinston","state_name":"North Carolina","lat":35.23838,"lng":-77.52658,"zip":"28501","miles_from_dt":29.97},{"city":"Comfort","state_name":"North Carolina","lat":35.00339,"lng":-77.52227,"zip":"28522","miles_from_dt":30}],"targetCityZipCode":"28519","targetCityState":"North Carolina"},"__N_SSG":true}