{"pageProps":{"stateName":"North-carolina","cityName":"charlotte","nearbyCities":[{"city":"Charlotte","state_name":"North Carolina","lat":35.19512,"lng":-80.82606,"zip":"28207","miles_from_dt":0.15},{"city":"Charlotte","state_name":"North Carolina","lat":35.19619,"lng":-80.82436,"zip":"28231","miles_from_dt":0.25},{"city":"Charlotte","state_name":"North Carolina","lat":35.18909,"lng":-80.83384,"zip":"28274","miles_from_dt":0.5},{"city":"Charlotte","state_name":"North Carolina","lat":35.19126,"lng":-80.8042,"zip":"28222","miles_from_dt":1.26},{"city":"Charlotte","state_name":"North Carolina","lat":35.21261,"lng":-80.8282,"zip":"28230","miles_from_dt":1.36},{"city":"Charlotte","state_name":"North Carolina","lat":35.21302,"lng":-80.82737,"zip":"28296","miles_from_dt":1.38},{"city":"Charlotte","state_name":"North Carolina","lat":35.21304,"lng":-80.82771,"zip":"28233","miles_from_dt":1.39},{"city":"Charlotte","state_name":"North Carolina","lat":35.21451,"lng":-80.82569,"zip":"28235","miles_from_dt":1.49},{"city":"Charlotte","state_name":"North Carolina","lat":35.21469,"lng":-80.82677,"zip":"28204","miles_from_dt":1.5},{"city":"Charlotte","state_name":"North Carolina","lat":35.21625,"lng":-80.82817,"zip":"28237","miles_from_dt":1.61},{"city":"Charlotte","state_name":"North Carolina","lat":35.21628,"lng":-80.82682,"zip":"28232","miles_from_dt":1.61},{"city":"Charlotte","state_name":"North Carolina","lat":35.1778,"lng":-80.85102,"zip":"28220","miles_from_dt":1.75},{"city":"Charlotte","state_name":"North Carolina","lat":35.19914,"lng":-80.85646,"zip":"28234","miles_from_dt":1.76},{"city":"Charlotte","state_name":"North Carolina","lat":35.17878,"lng":-80.85418,"zip":"28209","miles_from_dt":1.86},{"city":"Charlotte","state_name":"North Carolina","lat":35.21847,"lng":-80.81163,"zip":"28299","miles_from_dt":1.94},{"city":"Charlotte","state_name":"North Carolina","lat":35.22143,"lng":-80.83763,"zip":"28243","miles_from_dt":2.06},{"city":"Charlotte","state_name":"North Carolina","lat":35.20832,"lng":-80.8577,"zip":"28203","miles_from_dt":2.07},{"city":"Charlotte","state_name":"North Carolina","lat":35.2246,"lng":-80.8431,"zip":"28244","miles_from_dt":2.38},{"city":"Charlotte","state_name":"North Carolina","lat":35.21185,"lng":-80.86176,"zip":"28242","miles_from_dt":2.39},{"city":"Charlotte","state_name":"North Carolina","lat":35.16816,"lng":-80.79604,"zip":"28211","miles_from_dt":2.42},{"city":"Charlotte","state_name":"North Carolina","lat":35.22589,"lng":-80.84168,"zip":"28289","miles_from_dt":2.43},{"city":"Charlotte","state_name":"North Carolina","lat":35.22481,"lng":-80.84529,"zip":"28282","miles_from_dt":2.44},{"city":"Charlotte","state_name":"North Carolina","lat":35.22541,"lng":-80.84528,"zip":"28246","miles_from_dt":2.48},{"city":"Charlotte","state_name":"North Carolina","lat":35.22671,"lng":-80.84182,"zip":"28281","miles_from_dt":2.49},{"city":"Charlotte","state_name":"North Carolina","lat":35.22633,"lng":-80.84309,"zip":"28280","miles_from_dt":2.49},{"city":"Charlotte","state_name":"North Carolina","lat":35.22687,"lng":-80.84293,"zip":"28275","miles_from_dt":2.52},{"city":"Charlotte","state_name":"North Carolina","lat":35.21119,"lng":-80.86511,"zip":"28255","miles_from_dt":2.53},{"city":"Charlotte","state_name":"North Carolina","lat":35.22766,"lng":-80.84358,"zip":"28241","miles_from_dt":2.58},{"city":"Charlotte","state_name":"North Carolina","lat":35.22852,"lng":-80.84211,"zip":"28265","miles_from_dt":2.61},{"city":"Charlotte","state_name":"North Carolina","lat":35.22773,"lng":-80.8447,"zip":"28202","miles_from_dt":2.61},{"city":"Charlotte","state_name":"North Carolina","lat":35.22917,"lng":-80.84114,"zip":"28288","miles_from_dt":2.63},{"city":"Charlotte","state_name":"North Carolina","lat":35.22989,"lng":-80.84082,"zip":"28284","miles_from_dt":2.67},{"city":"Charlotte","state_name":"North Carolina","lat":35.23,"lng":-80.84219,"zip":"28271","miles_from_dt":2.71},{"city":"Charlotte","state_name":"North Carolina","lat":35.22886,"lng":-80.84673,"zip":"28285","miles_from_dt":2.73},{"city":"Charlotte","state_name":"North Carolina","lat":35.22971,"lng":-80.84476,"zip":"28272","miles_from_dt":2.74},{"city":"Charlotte","state_name":"North Carolina","lat":35.23132,"lng":-80.84452,"zip":"28266","miles_from_dt":2.84},{"city":"Charlotte","state_name":"North Carolina","lat":35.2313,"lng":-80.84485,"zip":"28260","miles_from_dt":2.84},{"city":"Charlotte","state_name":"North Carolina","lat":35.22019,"lng":-80.78737,"zip":"28205","miles_from_dt":2.89},{"city":"Charlotte","state_name":"North Carolina","lat":35.22199,"lng":-80.78827,"zip":"28218","miles_from_dt":2.94},{"city":"Charlotte","state_name":"North Carolina","lat":35.15106,"lng":-80.87343,"zip":"28224","miles_from_dt":3.93},{"city":"Charlotte","state_name":"North Carolina","lat":35.25631,"lng":-80.82144,"zip":"28206","miles_from_dt":4.38},{"city":"Charlotte","state_name":"North Carolina","lat":35.13018,"lng":-80.85368,"zip":"28287","miles_from_dt":4.6},{"city":"Charlotte","state_name":"North Carolina","lat":35.1896,"lng":-80.74519,"zip":"28212","miles_from_dt":4.6},{"city":"Charlotte","state_name":"North Carolina","lat":35.12969,"lng":-80.8548,"zip":"28210","miles_from_dt":4.65},{"city":"Charlotte","state_name":"North Carolina","lat":35.18882,"lng":-80.74363,"zip":"28229","miles_from_dt":4.69},{"city":"Charlotte","state_name":"North Carolina","lat":35.17146,"lng":-80.9077,"zip":"28217","miles_from_dt":4.84},{"city":"Charlotte","state_name":"North Carolina","lat":35.23153,"lng":-80.90611,"zip":"28208","miles_from_dt":5.24},{"city":"Charlotte","state_name":"North Carolina","lat":35.23498,"lng":-80.9138,"zip":"28290","miles_from_dt":5.74},{"city":"Charlotte","state_name":"North Carolina","lat":35.10767,"lng":-80.81837,"zip":"28226","miles_from_dt":5.9},{"city":"Charlotte","state_name":"North Carolina","lat":35.10593,"lng":-80.82252,"zip":"28247","miles_from_dt":6},{"city":"Charlotte","state_name":"North Carolina","lat":35.27797,"lng":-80.85526,"zip":"28297","miles_from_dt":6.08},{"city":"Charlotte","state_name":"North Carolina","lat":35.22143,"lng":-80.92875,"zip":"28254","miles_from_dt":6.12},{"city":"Charlotte","state_name":"North Carolina","lat":35.223,"lng":-80.93036,"zip":"28258","miles_from_dt":6.24},{"city":"Charlotte","state_name":"North Carolina","lat":35.2069,"lng":-80.94164,"zip":"28219","miles_from_dt":6.6},{"city":"Charlotte","state_name":"North Carolina","lat":35.10963,"lng":-80.76005,"zip":"28270","miles_from_dt":6.86},{"city":"Charlotte","state_name":"North Carolina","lat":35.0996,"lng":-80.77142,"zip":"28228","miles_from_dt":7.15},{"city":"Newell","state_name":"North Carolina","lat":35.27594,"lng":-80.73661,"zip":"28126","miles_from_dt":7.65},{"city":"Charlotte","state_name":"North Carolina","lat":35.21,"lng":-80.69219,"zip":"28263","miles_from_dt":7.68},{"city":"Matthews","state_name":"North Carolina","lat":35.12345,"lng":-80.7136,"zip":"28106","miles_from_dt":7.98},{"city":"Charlotte","state_name":"North Carolina","lat":35.12624,"lng":-80.94469,"zip":"28273","miles_from_dt":8.13},{"city":"Charlotte","state_name":"North Carolina","lat":35.28459,"lng":-80.73339,"zip":"28213","miles_from_dt":8.22},{"city":"Charlotte","state_name":"North Carolina","lat":35.28318,"lng":-80.73065,"zip":"28256","miles_from_dt":8.24},{"city":"Matthews","state_name":"North Carolina","lat":35.11914,"lng":-80.71116,"zip":"28105","miles_from_dt":8.27},{"city":"Charlotte","state_name":"North Carolina","lat":35.24854,"lng":-80.69571,"zip":"28215","miles_from_dt":8.32},{"city":"Pineville","state_name":"North Carolina","lat":35.08364,"lng":-80.89125,"zip":"28134","miles_from_dt":8.39},{"city":"Charlotte","state_name":"North Carolina","lat":35.31039,"lng":-80.8883,"zip":"28216","miles_from_dt":8.82},{"city":"Paw Creek","state_name":"North Carolina","lat":35.29085,"lng":-80.9293,"zip":"28130","miles_from_dt":8.91},{"city":"Charlotte","state_name":"North Carolina","lat":35.32365,"lng":-80.78218,"zip":"28253","miles_from_dt":9.35},{"city":"Charlotte","state_name":"North Carolina","lat":35.30824,"lng":-80.73282,"zip":"28223","miles_from_dt":9.55},{"city":"Charlotte","state_name":"North Carolina","lat":35.27177,"lng":-80.96847,"zip":"28214","miles_from_dt":9.7},{"city":"Charlotte","state_name":"North Carolina","lat":35.05212,"lng":-80.81622,"zip":"28277","miles_from_dt":9.73},{"city":"Charlotte","state_name":"North Carolina","lat":35.18851,"lng":-80.6507,"zip":"28227","miles_from_dt":9.94},{"city":"Charlotte","state_name":"North Carolina","lat":35.33747,"lng":-80.8026,"zip":"28269","miles_from_dt":10.05},{"city":"Charlotte","state_name":"North Carolina","lat":35.32609,"lng":-80.74234,"zip":"28262","miles_from_dt":10.33},{"city":"Charlotte","state_name":"North Carolina","lat":35.13063,"lng":-81.00753,"zip":"28278","miles_from_dt":11.12},{"city":"Matthews","state_name":"North Carolina","lat":35.06017,"lng":-80.69666,"zip":"28104","miles_from_dt":11.74},{"city":"Belmont","state_name":"North Carolina","lat":35.21054,"lng":-81.04077,"zip":"28012","miles_from_dt":12.2},{"city":"Charlotte","state_name":"North Carolina","lat":35.2901,"lng":-81.0131,"zip":"28236","miles_from_dt":12.51},{"city":"Charlotte","state_name":"North Carolina","lat":35.36857,"lng":-80.76013,"zip":"28221","miles_from_dt":12.67},{"city":"Harrisburg","state_name":"North Carolina","lat":35.30192,"lng":-80.63929,"zip":"28075","miles_from_dt":12.97},{"city":"Fort Mill","state_name":"South Carolina","lat":35.04655,"lng":-80.98604,"zip":"29708","miles_from_dt":13.55},{"city":"Fort Mill","state_name":"South Carolina","lat":35.01028,"lng":-80.92752,"zip":"29715","miles_from_dt":13.84},{"city":"Indian Trail","state_name":"North Carolina","lat":35.1132,"lng":-80.60183,"zip":"28079","miles_from_dt":13.85},{"city":"Fort Mill","state_name":"South Carolina","lat":35.00695,"lng":-80.94234,"zip":"29716","miles_from_dt":14.41},{"city":"Cramerton","state_name":"North Carolina","lat":35.23354,"lng":-81.07925,"zip":"28032","miles_from_dt":14.58},{"city":"Fort Mill","state_name":"South Carolina","lat":34.98148,"lng":-80.85669,"zip":"29707","miles_from_dt":14.68},{"city":"McAdenville","state_name":"North Carolina","lat":35.25703,"lng":-81.07572,"zip":"28101","miles_from_dt":14.78},{"city":"Huntersville","state_name":"North Carolina","lat":35.40545,"lng":-80.86633,"zip":"28078","miles_from_dt":14.82},{"city":"Mount Holly","state_name":"North Carolina","lat":35.33305,"lng":-81.02692,"zip":"28120","miles_from_dt":14.9},{"city":"Huntersville","state_name":"North Carolina","lat":35.4168,"lng":-80.84249,"zip":"28070","miles_from_dt":15.46},{"city":"Lowell","state_name":"North Carolina","lat":35.27057,"lng":-81.09749,"zip":"28098","miles_from_dt":16.25},{"city":"Gastonia","state_name":"North Carolina","lat":35.21768,"lng":-81.12503,"zip":"28056","miles_from_dt":16.99},{"city":"Concord","state_name":"North Carolina","lat":35.40879,"lng":-80.67524,"zip":"28027","miles_from_dt":17.15},{"city":"Midland","state_name":"North Carolina","lat":35.24992,"lng":-80.52115,"zip":"28107","miles_from_dt":17.7},{"city":"Stanley","state_name":"North Carolina","lat":35.39091,"lng":-81.03846,"zip":"28164","miles_from_dt":18.17},{"city":"Gastonia","state_name":"North Carolina","lat":35.26128,"lng":-81.15072,"zip":"28054","miles_from_dt":18.95},{"city":"Monroe","state_name":"North Carolina","lat":35.06552,"lng":-80.52781,"zip":"28110","miles_from_dt":19.05},{"city":"Mineral Springs","state_name":"North Carolina","lat":34.93411,"lng":-80.67975,"zip":"28108","miles_from_dt":19.68},{"city":"Cornelius","state_name":"North Carolina","lat":35.47539,"lng":-80.89344,"zip":"28031","miles_from_dt":19.84},{"city":"Waxhaw","state_name":"North Carolina","lat":34.91532,"lng":-80.73021,"zip":"28173","miles_from_dt":19.9},{"city":"Davidson","state_name":"North Carolina","lat":35.48586,"lng":-80.79375,"zip":"28036","miles_from_dt":20.28},{"city":"Concord","state_name":"North Carolina","lat":35.37613,"lng":-80.53368,"zip":"28026","miles_from_dt":20.81},{"city":"Rock Hill","state_name":"South Carolina","lat":34.93945,"lng":-81.03173,"zip":"29733","miles_from_dt":21},{"city":"Rock Hill","state_name":"South Carolina","lat":34.96979,"lng":-81.07963,"zip":"29732","miles_from_dt":21.04},{"city":"Alexis","state_name":"North Carolina","lat":35.40664,"lng":-81.0926,"zip":"28006","miles_from_dt":21.06},{"city":"Concord","state_name":"North Carolina","lat":35.38095,"lng":-80.52719,"zip":"28025","miles_from_dt":21.3},{"city":"Monroe","state_name":"North Carolina","lat":34.98367,"lng":-80.54919,"zip":"28111","miles_from_dt":21.32},{"city":"Davidson","state_name":"North Carolina","lat":35.50603,"lng":-80.84164,"zip":"28035","miles_from_dt":21.6},{"city":"Stanfield","state_name":"North Carolina","lat":35.20702,"lng":-80.4285,"zip":"28163","miles_from_dt":22.53},{"city":"Bowling Green","state_name":"South Carolina","lat":35.1455,"lng":-81.22308,"zip":"29703","miles_from_dt":22.7},{"city":"Kannapolis","state_name":"North Carolina","lat":35.47954,"lng":-80.62662,"zip":"28082","miles_from_dt":22.75},{"city":"Dallas","state_name":"North Carolina","lat":35.35323,"lng":-81.18016,"zip":"28034","miles_from_dt":22.85},{"city":"Kannapolis","state_name":"North Carolina","lat":35.50199,"lng":-80.67024,"zip":"28081","miles_from_dt":23.06},{"city":"Van Wyck","state_name":"South Carolina","lat":34.8585,"lng":-80.84603,"zip":"29744","miles_from_dt":23.08},{"city":"Gastonia","state_name":"North Carolina","lat":35.22492,"lng":-81.23266,"zip":"28052","miles_from_dt":23.1},{"city":"Gastonia","state_name":"North Carolina","lat":35.19277,"lng":-81.23585,"zip":"28053","miles_from_dt":23.18},{"city":"Clover","state_name":"South Carolina","lat":35.10598,"lng":-81.22209,"zip":"29710","miles_from_dt":23.2},{"city":"Rock Hill","state_name":"South Carolina","lat":34.8878,"lng":-81.02116,"zip":"29730","miles_from_dt":23.76},{"city":"Iron Station","state_name":"North Carolina","lat":35.45269,"lng":-81.10995,"zip":"28080","miles_from_dt":24.03},{"city":"Denver","state_name":"North Carolina","lat":35.5064,"lng":-81.01712,"zip":"28037","miles_from_dt":24.15},{"city":"Gastonia","state_name":"North Carolina","lat":35.2185,"lng":-81.2531,"zip":"28055","miles_from_dt":24.21},{"city":"Mount Mourne","state_name":"North Carolina","lat":35.54398,"lng":-80.84655,"zip":"28123","miles_from_dt":24.23},{"city":"Kannapolis","state_name":"North Carolina","lat":35.49108,"lng":-80.58092,"zip":"28083","miles_from_dt":24.79},{"city":"Locust","state_name":"North Carolina","lat":35.29675,"lng":-80.39327,"zip":"28097","miles_from_dt":25.51},{"city":"High Shoals","state_name":"North Carolina","lat":35.40413,"lng":-81.20284,"zip":"28077","miles_from_dt":25.78},{"city":"York","state_name":"South Carolina","lat":34.99549,"lng":-81.21573,"zip":"29745","miles_from_dt":25.93},{"city":"Catawba","state_name":"South Carolina","lat":34.82293,"lng":-80.91592,"zip":"29704","miles_from_dt":26.01},{"city":"Monroe","state_name":"North Carolina","lat":34.89355,"lng":-80.54113,"zip":"28112","miles_from_dt":26.22},{"city":"Mooresville","state_name":"North Carolina","lat":35.57405,"lng":-80.89658,"zip":"28117","miles_from_dt":26.57},{"city":"Mooresville","state_name":"North Carolina","lat":35.58001,"lng":-80.77477,"zip":"28115","miles_from_dt":26.84},{"city":"Wingate","state_name":"North Carolina","lat":34.96959,"lng":-80.4382,"zip":"28174","miles_from_dt":26.85},{"city":"Landis","state_name":"North Carolina","lat":35.54437,"lng":-80.61463,"zip":"28088","miles_from_dt":27.01},{"city":"Bessemer City","state_name":"North Carolina","lat":35.31729,"lng":-81.28737,"zip":"28016","miles_from_dt":27.44},{"city":"Mount Pleasant","state_name":"North Carolina","lat":35.40136,"lng":-80.40406,"zip":"28124","miles_from_dt":27.86},{"city":"Terrell","state_name":"North Carolina","lat":35.5838,"lng":-80.96369,"zip":"28682","miles_from_dt":28.04},{"city":"Oakboro","state_name":"North Carolina","lat":35.23224,"lng":-80.32737,"zip":"28129","miles_from_dt":28.36},{"city":"China Grove","state_name":"North Carolina","lat":35.56922,"lng":-80.60321,"zip":"28023","miles_from_dt":28.84},{"city":"Edgemoor","state_name":"South Carolina","lat":34.79439,"lng":-80.98398,"zip":"29712","miles_from_dt":28.89},{"city":"Marshville","state_name":"North Carolina","lat":35.0037,"lng":-80.35316,"zip":"28103","miles_from_dt":29.81}],"targetCityZipCode":"28201","targetCityState":"North Carolina"},"__N_SSG":true}