{"pageProps":{"stateName":"North-carolina","cityName":"conway","nearbyCities":[{"city":"Potecasi","state_name":"North Carolina","lat":36.36107,"lng":-77.23816,"zip":"27867","miles_from_dt":3.76},{"city":"Pendleton","state_name":"North Carolina","lat":36.49264,"lng":-77.18906,"zip":"27862","miles_from_dt":6.15},{"city":"Woodland","state_name":"North Carolina","lat":36.3246,"lng":-77.20969,"zip":"27897","miles_from_dt":6.55},{"city":"Severn","state_name":"North Carolina","lat":36.51883,"lng":-77.19219,"zip":"27877","miles_from_dt":7.7},{"city":"Margarettsville","state_name":"North Carolina","lat":36.51716,"lng":-77.30488,"zip":"27853","miles_from_dt":7.79},{"city":"Murfreesboro","state_name":"North Carolina","lat":36.42171,"lng":-77.08432,"zip":"27855","miles_from_dt":8.93},{"city":"Seaboard","state_name":"North Carolina","lat":36.48015,"lng":-77.40065,"zip":"27876","miles_from_dt":9.79},{"city":"Jackson","state_name":"North Carolina","lat":36.37403,"lng":-77.43331,"zip":"27845","miles_from_dt":10.92},{"city":"Rich Square","state_name":"North Carolina","lat":36.26631,"lng":-77.31665,"zip":"27869","miles_from_dt":11.04},{"city":"Branchville","state_name":"Virginia","lat":36.58693,"lng":-77.28557,"zip":"23828","miles_from_dt":12.05},{"city":"Boykins","state_name":"Virginia","lat":36.61491,"lng":-77.20724,"zip":"23827","miles_from_dt":13.91},{"city":"Como","state_name":"North Carolina","lat":36.50275,"lng":-77.01394,"zip":"27818","miles_from_dt":14.17},{"city":"Roxobel","state_name":"North Carolina","lat":36.20096,"lng":-77.24601,"zip":"27872","miles_from_dt":14.79},{"city":"Newsoms","state_name":"Virginia","lat":36.60761,"lng":-77.09803,"zip":"23874","miles_from_dt":15.55},{"city":"Kelford","state_name":"North Carolina","lat":36.18597,"lng":-77.20738,"zip":"27847","miles_from_dt":15.95},{"city":"Pleasant Hill","state_name":"North Carolina","lat":36.51832,"lng":-77.51577,"zip":"27866","miles_from_dt":16.7},{"city":"Aulander","state_name":"North Carolina","lat":36.20863,"lng":-77.08861,"zip":"27805","miles_from_dt":16.7},{"city":"Ahoskie","state_name":"North Carolina","lat":36.27996,"lng":-76.99281,"zip":"27910","miles_from_dt":16.85},{"city":"Tillery","state_name":"North Carolina","lat":36.25427,"lng":-77.48761,"zip":"27887","miles_from_dt":17.54},{"city":"Winton","state_name":"North Carolina","lat":36.3891,"lng":-76.92816,"zip":"27986","miles_from_dt":17.72},{"city":"Garysburg","state_name":"North Carolina","lat":36.45614,"lng":-77.56574,"zip":"27831","miles_from_dt":18.13},{"city":"Drewryville","state_name":"Virginia","lat":36.67032,"lng":-77.3358,"zip":"23844","miles_from_dt":18.3},{"city":"Halifax","state_name":"North Carolina","lat":36.28818,"lng":-77.55009,"zip":"27839","miles_from_dt":19.18},{"city":"Weldon","state_name":"North Carolina","lat":36.41505,"lng":-77.59194,"zip":"27890","miles_from_dt":19.37},{"city":"Eure","state_name":"North Carolina","lat":36.43026,"lng":-76.85962,"zip":"27935","miles_from_dt":21.46},{"city":"Scotland Neck","state_name":"North Carolina","lat":36.12874,"lng":-77.41037,"zip":"27874","miles_from_dt":21.83},{"city":"Capron","state_name":"Virginia","lat":36.73393,"lng":-77.22525,"zip":"23829","miles_from_dt":21.99},{"city":"Franklin","state_name":"Virginia","lat":36.6521,"lng":-76.95776,"zip":"23851","miles_from_dt":22.82},{"city":"Powellsville","state_name":"North Carolina","lat":36.22232,"lng":-76.90838,"zip":"27967","miles_from_dt":22.99},{"city":"Cofield","state_name":"North Carolina","lat":36.32118,"lng":-76.84837,"zip":"27922","miles_from_dt":23.01},{"city":"Skippers","state_name":"Virginia","lat":36.59224,"lng":-77.59547,"zip":"23879","miles_from_dt":23.04},{"city":"Lewiston Woodville","state_name":"North Carolina","lat":36.06796,"lng":-77.20675,"zip":"27849","miles_from_dt":24.05},{"city":"Emporia","state_name":"Virginia","lat":36.668,"lng":-77.54972,"zip":"23847","miles_from_dt":24.33},{"city":"Roduco","state_name":"North Carolina","lat":36.4633,"lng":-76.80259,"zip":"27969","miles_from_dt":24.83},{"city":"Courtland","state_name":"Virginia","lat":36.75816,"lng":-77.08753,"zip":"23837","miles_from_dt":25.19},{"city":"Roanoke Rapids","state_name":"North Carolina","lat":36.43053,"lng":-77.71828,"zip":"27870","miles_from_dt":26.43},{"city":"Gates","state_name":"North Carolina","lat":36.50453,"lng":-76.77726,"zip":"27937","miles_from_dt":26.73},{"city":"Jarratt","state_name":"Virginia","lat":36.75241,"lng":-77.50016,"zip":"23870","miles_from_dt":27.25},{"city":"Gaston","state_name":"North Carolina","lat":36.51262,"lng":-77.72178,"zip":"27832","miles_from_dt":27.42},{"city":"Colerain","state_name":"North Carolina","lat":36.17835,"lng":-76.83822,"zip":"27924","miles_from_dt":27.94},{"city":"Harrellsville","state_name":"North Carolina","lat":36.28785,"lng":-76.7597,"zip":"27942","miles_from_dt":28.42},{"city":"Suffolk","state_name":"Virginia","lat":36.63533,"lng":-76.80256,"zip":"23437","miles_from_dt":28.88},{"city":"Yale","state_name":"Virginia","lat":36.83399,"lng":-77.28234,"zip":"23897","miles_from_dt":28.94},{"city":"Gatesville","state_name":"North Carolina","lat":36.38422,"lng":-76.71628,"zip":"27938","miles_from_dt":29.51}],"targetCityZipCode":"27820","targetCityState":"North Carolina"},"__N_SSG":true}