{"pageProps":{"stateName":"North-carolina","cityName":"grifton","nearbyCities":[{"city":"Ayden","state_name":"North Carolina","lat":35.44276,"lng":-77.3897,"zip":"28513","miles_from_dt":5.1},{"city":"Dover","state_name":"North Carolina","lat":35.24439,"lng":-77.40447,"zip":"28526","miles_from_dt":8.82},{"city":"Hookerton","state_name":"North Carolina","lat":35.41769,"lng":-77.56366,"zip":"28538","miles_from_dt":8.92},{"city":"Winterville","state_name":"North Carolina","lat":35.52046,"lng":-77.41651,"zip":"28590","miles_from_dt":10.23},{"city":"Kinston","state_name":"North Carolina","lat":35.23838,"lng":-77.52658,"zip":"28501","miles_from_dt":11.14},{"city":"Kinston","state_name":"North Carolina","lat":35.28006,"lng":-77.5829,"zip":"28503","miles_from_dt":11.37},{"city":"Kinston","state_name":"North Carolina","lat":35.26168,"lng":-77.57793,"zip":"28502","miles_from_dt":11.91},{"city":"Maury","state_name":"North Carolina","lat":35.47569,"lng":-77.5926,"zip":"28554","miles_from_dt":12.27},{"city":"Greenville","state_name":"North Carolina","lat":35.53229,"lng":-77.29709,"zip":"27858","miles_from_dt":12.92},{"city":"Cove City","state_name":"North Carolina","lat":35.20662,"lng":-77.29541,"zip":"28523","miles_from_dt":13.28},{"city":"Vanceboro","state_name":"North Carolina","lat":35.31884,"lng":-77.16602,"zip":"28586","miles_from_dt":14.58},{"city":"Bellarthur","state_name":"North Carolina","lat":35.58307,"lng":-77.49049,"zip":"27811","miles_from_dt":15.15},{"city":"Grimesland","state_name":"North Carolina","lat":35.51606,"lng":-77.20892,"zip":"27837","miles_from_dt":15.32},{"city":"Greenville","state_name":"North Carolina","lat":35.59701,"lng":-77.3758,"zip":"27833","miles_from_dt":15.68},{"city":"Snow Hill","state_name":"North Carolina","lat":35.45116,"lng":-77.68053,"zip":"28580","miles_from_dt":15.91},{"city":"Kinston","state_name":"North Carolina","lat":35.22755,"lng":-77.63566,"zip":"28504","miles_from_dt":15.92},{"city":"Simpson","state_name":"North Carolina","lat":35.57456,"lng":-77.27968,"zip":"27879","miles_from_dt":15.94},{"city":"Greenville","state_name":"North Carolina","lat":35.60328,"lng":-77.35948,"zip":"27836","miles_from_dt":16.26},{"city":"Greenville","state_name":"North Carolina","lat":35.607,"lng":-77.37177,"zip":"27835","miles_from_dt":16.39},{"city":"Farmville","state_name":"North Carolina","lat":35.58509,"lng":-77.58519,"zip":"27828","miles_from_dt":17.52},{"city":"Chocowinity","state_name":"North Carolina","lat":35.4506,"lng":-77.0825,"zip":"27817","miles_from_dt":19.58},{"city":"Greenville","state_name":"North Carolina","lat":35.6571,"lng":-77.37981,"zip":"27834","miles_from_dt":19.76},{"city":"La Grange","state_name":"North Carolina","lat":35.32204,"lng":-77.78087,"zip":"28551","miles_from_dt":20.91},{"city":"Trenton","state_name":"North Carolina","lat":35.05264,"lng":-77.41497,"zip":"28585","miles_from_dt":22.02},{"city":"Walstonburg","state_name":"North Carolina","lat":35.59589,"lng":-77.70448,"zip":"27888","miles_from_dt":22.43},{"city":"Deep Run","state_name":"North Carolina","lat":35.1241,"lng":-77.68987,"zip":"28525","miles_from_dt":23.07},{"city":"Falkland","state_name":"North Carolina","lat":35.69823,"lng":-77.51224,"zip":"27827","miles_from_dt":23.14},{"city":"Ernul","state_name":"North Carolina","lat":35.26396,"lng":-77.01568,"zip":"28527","miles_from_dt":23.8},{"city":"Stokes","state_name":"North Carolina","lat":35.70771,"lng":-77.27176,"zip":"27884","miles_from_dt":24.53},{"city":"Fountain","state_name":"North Carolina","lat":35.69272,"lng":-77.61215,"zip":"27829","miles_from_dt":24.73},{"city":"New Bern","state_name":"North Carolina","lat":35.08105,"lng":-77.12486,"zip":"28562","miles_from_dt":25.94},{"city":"Comfort","state_name":"North Carolina","lat":35.00339,"lng":-77.52227,"zip":"28522","miles_from_dt":26.12},{"city":"Stantonsburg","state_name":"North Carolina","lat":35.59141,"lng":-77.80095,"zip":"27883","miles_from_dt":26.47},{"city":"Washington","state_name":"North Carolina","lat":35.58909,"lng":-77.02386,"zip":"27889","miles_from_dt":26.69},{"city":"New Bern","state_name":"North Carolina","lat":35.10113,"lng":-77.07703,"zip":"28561","miles_from_dt":26.75},{"city":"Blounts Creek","state_name":"North Carolina","lat":35.37987,"lng":-76.93513,"zip":"27814","miles_from_dt":27.14},{"city":"Goldsboro","state_name":"North Carolina","lat":35.37153,"lng":-77.90646,"zip":"27534","miles_from_dt":27.71},{"city":"Seven Springs","state_name":"North Carolina","lat":35.20017,"lng":-77.86332,"zip":"28578","miles_from_dt":27.93},{"city":"Saratoga","state_name":"North Carolina","lat":35.65331,"lng":-77.77606,"zip":"27873","miles_from_dt":28.08},{"city":"New Bern","state_name":"North Carolina","lat":35.13821,"lng":-77.00635,"zip":"28563","miles_from_dt":28.21},{"city":"Bridgeton","state_name":"North Carolina","lat":35.1268,"lng":-77.01477,"zip":"28519","miles_from_dt":28.28},{"city":"Macclesfield","state_name":"North Carolina","lat":35.75288,"lng":-77.63581,"zip":"27852","miles_from_dt":29.04},{"city":"Pollocksville","state_name":"North Carolina","lat":34.97997,"lng":-77.19794,"zip":"28573","miles_from_dt":29.71},{"city":"New Bern","state_name":"North Carolina","lat":35.13354,"lng":-76.97575,"zip":"28560","miles_from_dt":29.82},{"city":"Pink Hill","state_name":"North Carolina","lat":35.02256,"lng":-77.72637,"zip":"28572","miles_from_dt":29.82},{"city":"Bethel","state_name":"North Carolina","lat":35.80506,"lng":-77.37616,"zip":"27812","miles_from_dt":29.94}],"targetCityZipCode":"28530","targetCityState":"North Carolina"},"__N_SSG":true}