{"pageProps":{"stateName":"North-carolina","cityName":"hobucken","nearbyCities":[{"city":"Lowland","state_name":"North Carolina","lat":35.29281,"lng":-76.54382,"zip":"28552","miles_from_dt":2.71},{"city":"Vandemere","state_name":"North Carolina","lat":35.18714,"lng":-76.66783,"zip":"28587","miles_from_dt":7.75},{"city":"Bayboro","state_name":"North Carolina","lat":35.19285,"lng":-76.70263,"zip":"28515","miles_from_dt":9.2},{"city":"Merritt","state_name":"North Carolina","lat":35.12233,"lng":-76.66904,"zip":"28556","miles_from_dt":11.09},{"city":"Aurora","state_name":"North Carolina","lat":35.29713,"lng":-76.76264,"zip":"27806","miles_from_dt":11.86},{"city":"Stonewall","state_name":"North Carolina","lat":35.13746,"lng":-76.73862,"zip":"28583","miles_from_dt":13.02},{"city":"Scranton","state_name":"North Carolina","lat":35.45623,"lng":-76.48532,"zip":"27875","miles_from_dt":14.45},{"city":"Alliance","state_name":"North Carolina","lat":35.14524,"lng":-76.80662,"zip":"28509","miles_from_dt":15.94},{"city":"Oriental","state_name":"North Carolina","lat":35.05679,"lng":-76.72311,"zip":"28571","miles_from_dt":16.55},{"city":"Edward","state_name":"North Carolina","lat":35.3237,"lng":-76.87392,"zip":"27821","miles_from_dt":18.4},{"city":"Bath","state_name":"North Carolina","lat":35.47228,"lng":-76.76494,"zip":"27808","miles_from_dt":18.93},{"city":"Grantsboro","state_name":"North Carolina","lat":35.12237,"lng":-76.86848,"zip":"28529","miles_from_dt":19.77},{"city":"Cedar Island","state_name":"North Carolina","lat":34.95613,"lng":-76.44484,"zip":"28520","miles_from_dt":21.63},{"city":"Arapahoe","state_name":"North Carolina","lat":35.00516,"lng":-76.81171,"zip":"28510","miles_from_dt":22.42},{"city":"Swanquarter","state_name":"North Carolina","lat":35.44429,"lng":-76.23125,"zip":"27885","miles_from_dt":22.63},{"city":"Blounts Creek","state_name":"North Carolina","lat":35.37987,"lng":-76.93513,"zip":"27814","miles_from_dt":22.91},{"city":"Belhaven","state_name":"North Carolina","lat":35.58637,"lng":-76.49706,"zip":"27810","miles_from_dt":23.07},{"city":"Sealevel","state_name":"North Carolina","lat":34.91494,"lng":-76.40769,"zip":"28577","miles_from_dt":25},{"city":"New Bern","state_name":"North Carolina","lat":35.13354,"lng":-76.97575,"zip":"28560","miles_from_dt":25.03},{"city":"Ernul","state_name":"North Carolina","lat":35.26396,"lng":-77.01568,"zip":"28527","miles_from_dt":25.82},{"city":"New Bern","state_name":"North Carolina","lat":35.13821,"lng":-77.00635,"zip":"28563","miles_from_dt":26.57},{"city":"Atlantic","state_name":"North Carolina","lat":34.89959,"lng":-76.35195,"zip":"28511","miles_from_dt":27.2},{"city":"Bridgeton","state_name":"North Carolina","lat":35.1268,"lng":-77.01477,"zip":"28519","miles_from_dt":27.27},{"city":"Beaufort","state_name":"North Carolina","lat":34.84827,"lng":-76.61128,"zip":"28516","miles_from_dt":28.23},{"city":"Pinetown","state_name":"North Carolina","lat":35.60588,"lng":-76.83244,"zip":"27865","miles_from_dt":28.65},{"city":"Fairfield","state_name":"North Carolina","lat":35.58988,"lng":-76.2521,"zip":"27826","miles_from_dt":28.83},{"city":"Stacy","state_name":"North Carolina","lat":34.84992,"lng":-76.43341,"zip":"28581","miles_from_dt":28.86},{"city":"New Bern","state_name":"North Carolina","lat":35.07483,"lng":-77.02219,"zip":"28564","miles_from_dt":29.02},{"city":"Pantego","state_name":"North Carolina","lat":35.67693,"lng":-76.65001,"zip":"27860","miles_from_dt":29.5}],"targetCityZipCode":"28537","targetCityState":"North Carolina"},"__N_SSG":true}