{"pageProps":{"stateName":"North-carolina","cityName":"horse-shoe","nearbyCities":[{"city":"Mills River","state_name":"North Carolina","lat":35.38348,"lng":-82.58431,"zip":"28759","miles_from_dt":4.03},{"city":"Etowah","state_name":"North Carolina","lat":35.31961,"lng":-82.60283,"zip":"28729","miles_from_dt":5.95},{"city":"Arden","state_name":"North Carolina","lat":35.46305,"lng":-82.57142,"zip":"28704","miles_from_dt":6.63},{"city":"Pisgah Forest","state_name":"North Carolina","lat":35.30437,"lng":-82.70925,"zip":"28768","miles_from_dt":6.97},{"city":"Naples","state_name":"North Carolina","lat":35.39261,"lng":-82.503,"zip":"28760","miles_from_dt":8.55},{"city":"Hendersonville","state_name":"North Carolina","lat":35.35674,"lng":-82.508,"zip":"28791","miles_from_dt":8.67},{"city":"Candler","state_name":"North Carolina","lat":35.51247,"lng":-82.71196,"zip":"28715","miles_from_dt":8.73},{"city":"Mountain Home","state_name":"North Carolina","lat":35.37489,"lng":-82.49569,"zip":"28758","miles_from_dt":9.06},{"city":"Skyland","state_name":"North Carolina","lat":35.48201,"lng":-82.52391,"zip":"28776","miles_from_dt":9.5},{"city":"Asheville","state_name":"North Carolina","lat":35.49867,"lng":-82.5384,"zip":"28802","miles_from_dt":9.7},{"city":"Enka","state_name":"North Carolina","lat":35.54141,"lng":-82.64364,"zip":"28728","miles_from_dt":10.12},{"city":"Penrose","state_name":"North Carolina","lat":35.24945,"lng":-82.61923,"zip":"28766","miles_from_dt":10.22},{"city":"Hendersonville","state_name":"North Carolina","lat":35.2719,"lng":-82.5419,"zip":"28739","miles_from_dt":10.59},{"city":"Hendersonville","state_name":"North Carolina","lat":35.32798,"lng":-82.47818,"zip":"28793","miles_from_dt":10.97},{"city":"Fletcher","state_name":"North Carolina","lat":35.44667,"lng":-82.46577,"zip":"28732","miles_from_dt":11.23},{"city":"Asheville","state_name":"North Carolina","lat":35.52949,"lng":-82.52007,"zip":"28803","miles_from_dt":11.98},{"city":"Canton","state_name":"North Carolina","lat":35.4358,"lng":-82.86126,"zip":"28716","miles_from_dt":12.01},{"city":"Asheville","state_name":"North Carolina","lat":35.56733,"lng":-82.61473,"zip":"28810","miles_from_dt":12.1},{"city":"Asheville","state_name":"North Carolina","lat":35.57154,"lng":-82.61386,"zip":"28806","miles_from_dt":12.39},{"city":"Asheville","state_name":"North Carolina","lat":35.58178,"lng":-82.60141,"zip":"28816","miles_from_dt":13.23},{"city":"Asheville","state_name":"North Carolina","lat":35.55447,"lng":-82.51072,"zip":"28813","miles_from_dt":13.66},{"city":"Asheville","state_name":"North Carolina","lat":35.57562,"lng":-82.54563,"zip":"28815","miles_from_dt":13.89},{"city":"Balsam Grove","state_name":"North Carolina","lat":35.27105,"lng":-82.85979,"zip":"28708","miles_from_dt":14.41},{"city":"Asheville","state_name":"North Carolina","lat":35.59441,"lng":-82.55785,"zip":"28801","miles_from_dt":14.79},{"city":"East Flat Rock","state_name":"North Carolina","lat":35.282,"lng":-82.41752,"zip":"28726","miles_from_dt":15.48},{"city":"Cedar Mountain","state_name":"North Carolina","lat":35.16614,"lng":-82.63108,"zip":"28718","miles_from_dt":15.82},{"city":"Zirconia","state_name":"North Carolina","lat":35.20036,"lng":-82.49507,"zip":"28790","miles_from_dt":16.15},{"city":"Hendersonville","state_name":"North Carolina","lat":35.39289,"lng":-82.36786,"zip":"28792","miles_from_dt":16.17},{"city":"Dana","state_name":"North Carolina","lat":35.32905,"lng":-82.37446,"zip":"28724","miles_from_dt":16.44},{"city":"Brevard","state_name":"North Carolina","lat":35.17324,"lng":-82.76711,"zip":"28712","miles_from_dt":16.55},{"city":"Asheville","state_name":"North Carolina","lat":35.62368,"lng":-82.55448,"zip":"28814","miles_from_dt":16.75},{"city":"Tuxedo","state_name":"North Carolina","lat":35.23229,"lng":-82.43118,"zip":"28784","miles_from_dt":16.87},{"city":"Flat Rock","state_name":"North Carolina","lat":35.28905,"lng":-82.37796,"zip":"28731","miles_from_dt":17.23},{"city":"Edneyville","state_name":"North Carolina","lat":35.39634,"lng":-82.34372,"zip":"28727","miles_from_dt":17.54},{"city":"Asheville","state_name":"North Carolina","lat":35.61528,"lng":-82.47923,"zip":"28805","miles_from_dt":18.12},{"city":"Gerton","state_name":"North Carolina","lat":35.47544,"lng":-82.3485,"zip":"28735","miles_from_dt":18.13},{"city":"Fairview","state_name":"North Carolina","lat":35.52792,"lng":-82.37588,"zip":"28730","miles_from_dt":18.19},{"city":"Asheville","state_name":"North Carolina","lat":35.64814,"lng":-82.5612,"zip":"28804","miles_from_dt":18.23},{"city":"Leicester","state_name":"North Carolina","lat":35.65492,"lng":-82.76032,"zip":"28748","miles_from_dt":18.9},{"city":"Waynesville","state_name":"North Carolina","lat":35.46272,"lng":-82.99294,"zip":"28786","miles_from_dt":19.67},{"city":"Lake Junaluska","state_name":"North Carolina","lat":35.52524,"lng":-82.97152,"zip":"28745","miles_from_dt":20.02},{"city":"Rosman","state_name":"North Carolina","lat":35.13927,"lng":-82.83709,"zip":"28772","miles_from_dt":20.43},{"city":"Hazelwood","state_name":"North Carolina","lat":35.47679,"lng":-83.00293,"zip":"28738","miles_from_dt":20.46},{"city":"Swannanoa","state_name":"North Carolina","lat":35.61667,"lng":-82.40768,"zip":"28778","miles_from_dt":20.67},{"city":"Alexander","state_name":"North Carolina","lat":35.70558,"lng":-82.64096,"zip":"28701","miles_from_dt":21.43},{"city":"Bat Cave","state_name":"North Carolina","lat":35.45683,"lng":-82.27971,"zip":"28710","miles_from_dt":21.57},{"city":"Saluda","state_name":"North Carolina","lat":35.25246,"lng":-82.31166,"zip":"28773","miles_from_dt":21.71},{"city":"Cleveland","state_name":"South Carolina","lat":35.07754,"lng":-82.63152,"zip":"29635","miles_from_dt":21.91},{"city":"Clyde","state_name":"North Carolina","lat":35.63378,"lng":-82.93081,"zip":"28721","miles_from_dt":22.67},{"city":"Lake Toxaway","state_name":"North Carolina","lat":35.15185,"lng":-82.9249,"zip":"28747","miles_from_dt":22.68},{"city":"Chimney Rock","state_name":"North Carolina","lat":35.42766,"lng":-82.25145,"zip":"28720","miles_from_dt":22.85},{"city":"Tuckasegee","state_name":"North Carolina","lat":35.24906,"lng":-83.02,"zip":"28783","miles_from_dt":22.97},{"city":"Balsam","state_name":"North Carolina","lat":35.39873,"lng":-83.0662,"zip":"28707","miles_from_dt":23.25},{"city":"Marietta","state_name":"South Carolina","lat":35.06706,"lng":-82.53852,"zip":"29661","miles_from_dt":23.53},{"city":"Weaverville","state_name":"North Carolina","lat":35.72795,"lng":-82.52306,"zip":"28787","miles_from_dt":24.13},{"city":"Black Mountain","state_name":"North Carolina","lat":35.59666,"lng":-82.28767,"zip":"28711","miles_from_dt":24.92},{"city":"Ridgecrest","state_name":"North Carolina","lat":35.62104,"lng":-82.2782,"zip":"28770","miles_from_dt":26.32},{"city":"Montreat","state_name":"North Carolina","lat":35.64781,"lng":-82.30006,"zip":"28757","miles_from_dt":26.51},{"city":"Travelers Rest","state_name":"South Carolina","lat":35.06008,"lng":-82.42136,"zip":"29690","miles_from_dt":26.58},{"city":"Slater","state_name":"South Carolina","lat":35.03032,"lng":-82.49306,"zip":"29683","miles_from_dt":26.74},{"city":"Mill Spring","state_name":"North Carolina","lat":35.34256,"lng":-82.18219,"zip":"28756","miles_from_dt":26.91},{"city":"Lynn","state_name":"North Carolina","lat":35.22687,"lng":-82.2228,"zip":"28750","miles_from_dt":27},{"city":"Maggie Valley","state_name":"North Carolina","lat":35.50547,"lng":-83.11955,"zip":"28751","miles_from_dt":27.33},{"city":"Cullowhee","state_name":"North Carolina","lat":35.27776,"lng":-83.12195,"zip":"28723","miles_from_dt":27.62},{"city":"Lake Lure","state_name":"North Carolina","lat":35.461,"lng":-82.16779,"zip":"28746","miles_from_dt":27.83},{"city":"Landrum","state_name":"South Carolina","lat":35.14411,"lng":-82.26187,"zip":"29356","miles_from_dt":28.13},{"city":"Glenville","state_name":"North Carolina","lat":35.18039,"lng":-83.0838,"zip":"28736","miles_from_dt":28.42},{"city":"Tigerville","state_name":"South Carolina","lat":35.06245,"lng":-82.35226,"zip":"29688","miles_from_dt":28.59},{"city":"Sapphire","state_name":"North Carolina","lat":35.08976,"lng":-82.99791,"zip":"28774","miles_from_dt":28.63},{"city":"Barnardsville","state_name":"North Carolina","lat":35.76321,"lng":-82.40428,"zip":"28709","miles_from_dt":29.04}],"targetCityZipCode":"28742","targetCityState":"North Carolina"},"__N_SSG":true}