{"pageProps":{"stateName":"North-carolina","cityName":"linwood","nearbyCities":[{"city":"Spencer","state_name":"North Carolina","lat":35.69411,"lng":-80.43528,"zip":"28159","miles_from_dt":4.88},{"city":"Salisbury","state_name":"North Carolina","lat":35.70645,"lng":-80.46341,"zip":"28144","miles_from_dt":5.43},{"city":"East Spencer","state_name":"North Carolina","lat":35.6803,"lng":-80.43626,"zip":"28039","miles_from_dt":5.71},{"city":"Salisbury","state_name":"North Carolina","lat":35.66126,"lng":-80.44721,"zip":"28145","miles_from_dt":7.15},{"city":"Lexington","state_name":"North Carolina","lat":35.86756,"lng":-80.31623,"zip":"27295","miles_from_dt":8.87},{"city":"Lexington","state_name":"North Carolina","lat":35.82116,"lng":-80.25058,"zip":"27294","miles_from_dt":8.91},{"city":"Salisbury","state_name":"North Carolina","lat":35.62194,"lng":-80.39563,"zip":"28146","miles_from_dt":8.94},{"city":"Southmont","state_name":"North Carolina","lat":35.65976,"lng":-80.26786,"zip":"27351","miles_from_dt":9.08},{"city":"Lexington","state_name":"North Carolina","lat":35.73469,"lng":-80.20845,"zip":"27292","miles_from_dt":9.93},{"city":"Granite Quarry","state_name":"North Carolina","lat":35.61326,"lng":-80.44241,"zip":"28072","miles_from_dt":10.07},{"city":"Lexington","state_name":"North Carolina","lat":35.85926,"lng":-80.25786,"zip":"27293","miles_from_dt":10.28},{"city":"Cooleemee","state_name":"North Carolina","lat":35.8121,"lng":-80.55508,"zip":"27014","miles_from_dt":10.48},{"city":"Salisbury","state_name":"North Carolina","lat":35.67997,"lng":-80.56275,"zip":"28147","miles_from_dt":11.19},{"city":"Faith","state_name":"North Carolina","lat":35.58747,"lng":-80.46249,"zip":"28041","miles_from_dt":12.13},{"city":"Woodleaf","state_name":"North Carolina","lat":35.79304,"lng":-80.59833,"zip":"27054","miles_from_dt":12.38},{"city":"Welcome","state_name":"North Carolina","lat":35.91752,"lng":-80.25777,"zip":"27374","miles_from_dt":13.47},{"city":"Advance","state_name":"North Carolina","lat":35.94352,"lng":-80.43673,"zip":"27006","miles_from_dt":13.58},{"city":"Mocksville","state_name":"North Carolina","lat":35.92433,"lng":-80.5742,"zip":"27028","miles_from_dt":16.01},{"city":"Rockwell","state_name":"North Carolina","lat":35.52121,"lng":-80.44193,"zip":"28138","miles_from_dt":16.2},{"city":"Gold Hill","state_name":"North Carolina","lat":35.51859,"lng":-80.32175,"zip":"28071","miles_from_dt":16.42},{"city":"Clemmons","state_name":"North Carolina","lat":36.00434,"lng":-80.37547,"zip":"27012","miles_from_dt":17.45},{"city":"Thomasville","state_name":"North Carolina","lat":35.85684,"lng":-80.09987,"zip":"27360","miles_from_dt":17.54},{"city":"China Grove","state_name":"North Carolina","lat":35.56922,"lng":-80.60321,"zip":"28023","miles_from_dt":17.6},{"city":"Cleveland","state_name":"North Carolina","lat":35.75633,"lng":-80.70235,"zip":"27013","miles_from_dt":17.89},{"city":"Thomasville","state_name":"North Carolina","lat":35.87601,"lng":-80.09968,"zip":"27361","miles_from_dt":18.13},{"city":"Richfield","state_name":"North Carolina","lat":35.50009,"lng":-80.25783,"zip":"28137","miles_from_dt":18.72},{"city":"Mount Ulla","state_name":"North Carolina","lat":35.66061,"lng":-80.69949,"zip":"28125","miles_from_dt":18.81},{"city":"Misenheimer","state_name":"North Carolina","lat":35.48609,"lng":-80.28628,"zip":"28109","miles_from_dt":19.09},{"city":"Landis","state_name":"North Carolina","lat":35.54437,"lng":-80.61463,"zip":"28088","miles_from_dt":19.29},{"city":"Denton","state_name":"North Carolina","lat":35.60566,"lng":-80.09024,"zip":"27239","miles_from_dt":19.34},{"city":"Winston Salem","state_name":"North Carolina","lat":36.02028,"lng":-80.27847,"zip":"27127","miles_from_dt":19.47},{"city":"Kannapolis","state_name":"North Carolina","lat":35.49108,"lng":-80.58092,"zip":"28083","miles_from_dt":21.09},{"city":"Winston Salem","state_name":"North Carolina","lat":36.05696,"lng":-80.32072,"zip":"27130","miles_from_dt":21.37},{"city":"Winston Salem","state_name":"North Carolina","lat":36.05822,"lng":-80.32125,"zip":"27103","miles_from_dt":21.45},{"city":"Winston Salem","state_name":"North Carolina","lat":36.0594,"lng":-80.32198,"zip":"27157","miles_from_dt":21.52},{"city":"Winston Salem","state_name":"North Carolina","lat":36.01488,"lng":-80.17819,"zip":"27107","miles_from_dt":21.53},{"city":"Trinity","state_name":"North Carolina","lat":35.8116,"lng":-79.99133,"zip":"27370","miles_from_dt":22.45},{"city":"Wallburg","state_name":"North Carolina","lat":36.01277,"lng":-80.1392,"zip":"27373","miles_from_dt":22.66},{"city":"Kannapolis","state_name":"North Carolina","lat":35.47954,"lng":-80.62662,"zip":"28082","miles_from_dt":23.19},{"city":"Kannapolis","state_name":"North Carolina","lat":35.50199,"lng":-80.67024,"zip":"28081","miles_from_dt":23.56},{"city":"Lewisville","state_name":"North Carolina","lat":36.09103,"lng":-80.45101,"zip":"27023","miles_from_dt":23.72},{"city":"Winston Salem","state_name":"North Carolina","lat":36.09465,"lng":-80.32501,"zip":"27104","miles_from_dt":23.9},{"city":"Winston Salem","state_name":"North Carolina","lat":36.07783,"lng":-80.23874,"zip":"27117","miles_from_dt":23.94},{"city":"Mount Pleasant","state_name":"North Carolina","lat":35.40136,"lng":-80.40406,"zip":"28124","miles_from_dt":24.15},{"city":"New London","state_name":"North Carolina","lat":35.44978,"lng":-80.16552,"zip":"28127","miles_from_dt":24.16},{"city":"High Point","state_name":"North Carolina","lat":35.96191,"lng":-80.03845,"zip":"27262","miles_from_dt":24.23},{"city":"Winston Salem","state_name":"North Carolina","lat":36.09083,"lng":-80.24794,"zip":"27108","miles_from_dt":24.62},{"city":"Winston Salem","state_name":"North Carolina","lat":36.08919,"lng":-80.225,"zip":"27110","miles_from_dt":24.94},{"city":"Mooresville","state_name":"North Carolina","lat":35.58001,"lng":-80.77477,"zip":"28115","miles_from_dt":24.96},{"city":"Winston Salem","state_name":"North Carolina","lat":36.09787,"lng":-80.24455,"zip":"27116","miles_from_dt":25.14},{"city":"Winston Salem","state_name":"North Carolina","lat":36.09941,"lng":-80.24996,"zip":"27115","miles_from_dt":25.15},{"city":"Winston Salem","state_name":"North Carolina","lat":36.0992,"lng":-80.24932,"zip":"27199","miles_from_dt":25.15},{"city":"Winston Salem","state_name":"North Carolina","lat":36.09889,"lng":-80.24389,"zip":"27111","miles_from_dt":25.22},{"city":"Winston Salem","state_name":"North Carolina","lat":36.10192,"lng":-80.24726,"zip":"27113","miles_from_dt":25.36},{"city":"Winston Salem","state_name":"North Carolina","lat":36.10324,"lng":-80.24369,"zip":"27114","miles_from_dt":25.51},{"city":"Harmony","state_name":"North Carolina","lat":35.97052,"lng":-80.75528,"zip":"28634","miles_from_dt":25.74},{"city":"Winston Salem","state_name":"North Carolina","lat":36.10789,"lng":-80.24059,"zip":"27120","miles_from_dt":25.87},{"city":"Winston Salem","state_name":"North Carolina","lat":36.10511,"lng":-80.2257,"zip":"27198","miles_from_dt":25.96},{"city":"Winston Salem","state_name":"North Carolina","lat":36.10368,"lng":-80.20772,"zip":"27150","miles_from_dt":26.23},{"city":"Winston Salem","state_name":"North Carolina","lat":36.10441,"lng":-80.20645,"zip":"27152","miles_from_dt":26.3},{"city":"High Point","state_name":"North Carolina","lat":35.95473,"lng":-79.98697,"zip":"27260","miles_from_dt":26.33},{"city":"Winston Salem","state_name":"North Carolina","lat":36.10513,"lng":-80.2019,"zip":"27155","miles_from_dt":26.45},{"city":"High Point","state_name":"North Carolina","lat":35.97534,"lng":-79.99949,"zip":"27261","miles_from_dt":26.54},{"city":"High Point","state_name":"North Carolina","lat":36.00947,"lng":-80.03272,"zip":"27265","miles_from_dt":26.56},{"city":"High Point","state_name":"North Carolina","lat":35.97139,"lng":-79.99471,"zip":"27268","miles_from_dt":26.6},{"city":"Concord","state_name":"North Carolina","lat":35.38095,"lng":-80.52719,"zip":"28025","miles_from_dt":26.78},{"city":"Winston Salem","state_name":"North Carolina","lat":36.11089,"lng":-80.20288,"zip":"27102","miles_from_dt":26.79},{"city":"High Point","state_name":"North Carolina","lat":35.98051,"lng":-79.99583,"zip":"27264","miles_from_dt":26.91},{"city":"Winston Salem","state_name":"North Carolina","lat":36.11204,"lng":-80.19889,"zip":"27101","miles_from_dt":26.95},{"city":"Winston Salem","state_name":"North Carolina","lat":36.13371,"lng":-80.27539,"zip":"27109","miles_from_dt":27.06},{"city":"Winston Salem","state_name":"North Carolina","lat":36.14255,"lng":-80.3228,"zip":"27106","miles_from_dt":27.19},{"city":"Concord","state_name":"North Carolina","lat":35.37613,"lng":-80.53368,"zip":"28026","miles_from_dt":27.2},{"city":"High Point","state_name":"North Carolina","lat":35.90931,"lng":-79.93829,"zip":"27263","miles_from_dt":27.29},{"city":"Troutman","state_name":"North Carolina","lat":35.68025,"lng":-80.87528,"zip":"28166","miles_from_dt":28.05},{"city":"Sophia","state_name":"North Carolina","lat":35.80631,"lng":-79.88917,"zip":"27350","miles_from_dt":28.06},{"city":"Badin","state_name":"North Carolina","lat":35.40826,"lng":-80.10743,"zip":"28009","miles_from_dt":28.32},{"city":"Bethania","state_name":"North Carolina","lat":36.16581,"lng":-80.3695,"zip":"27010","miles_from_dt":28.59},{"city":"Yadkinville","state_name":"North Carolina","lat":36.11382,"lng":-80.63586,"zip":"27055","miles_from_dt":28.71},{"city":"Concord","state_name":"North Carolina","lat":35.40879,"lng":-80.67524,"zip":"28027","miles_from_dt":28.75},{"city":"Pfafftown","state_name":"North Carolina","lat":36.16869,"lng":-80.38969,"zip":"27040","miles_from_dt":28.78},{"city":"Barium Springs","state_name":"North Carolina","lat":35.72001,"lng":-80.89811,"zip":"28010","miles_from_dt":28.98},{"city":"Statesville","state_name":"North Carolina","lat":35.86487,"lng":-80.88709,"zip":"28625","miles_from_dt":29.32},{"city":"Albemarle","state_name":"North Carolina","lat":35.35439,"lng":-80.19363,"zip":"28002","miles_from_dt":29.39},{"city":"Turnersburg","state_name":"North Carolina","lat":35.83074,"lng":-80.8984,"zip":"28688","miles_from_dt":29.41},{"city":"Davidson","state_name":"North Carolina","lat":35.48586,"lng":-80.79375,"zip":"28036","miles_from_dt":29.44},{"city":"Winston Salem","state_name":"North Carolina","lat":36.16294,"lng":-80.23521,"zip":"27105","miles_from_dt":29.58},{"city":"Statesville","state_name":"North Carolina","lat":35.77647,"lng":-80.91051,"zip":"28687","miles_from_dt":29.64},{"city":"Mount Mourne","state_name":"North Carolina","lat":35.54398,"lng":-80.84655,"zip":"28123","miles_from_dt":29.69}],"targetCityZipCode":"27299","targetCityState":"North Carolina"},"__N_SSG":true}