{"pageProps":{"stateName":"North-carolina","cityName":"manteo","nearbyCities":[{"city":"Wanchese","state_name":"North Carolina","lat":35.85602,"lng":-75.64041,"zip":"27981","miles_from_dt":4.43},{"city":"Nags Head","state_name":"North Carolina","lat":35.88566,"lng":-75.59641,"zip":"27959","miles_from_dt":5.1},{"city":"Kill Devil Hills","state_name":"North Carolina","lat":36.01761,"lng":-75.68663,"zip":"27948","miles_from_dt":7.39},{"city":"Manns Harbor","state_name":"North Carolina","lat":35.79298,"lng":-75.8685,"zip":"27953","miles_from_dt":13.24},{"city":"Kitty Hawk","state_name":"North Carolina","lat":36.10814,"lng":-75.73112,"zip":"27949","miles_from_dt":13.9},{"city":"Harbinger","state_name":"North Carolina","lat":36.09147,"lng":-75.81678,"zip":"27941","miles_from_dt":14.58},{"city":"Point Harbor","state_name":"North Carolina","lat":36.10074,"lng":-75.80438,"zip":"27964","miles_from_dt":14.8},{"city":"Stumpy Point","state_name":"North Carolina","lat":35.66438,"lng":-75.76959,"zip":"27978","miles_from_dt":17.67},{"city":"Powells Point","state_name":"North Carolina","lat":36.13325,"lng":-75.83833,"zip":"27966","miles_from_dt":17.67},{"city":"Rodanthe","state_name":"North Carolina","lat":35.68549,"lng":-75.49195,"zip":"27968","miles_from_dt":18.84},{"city":"Jarvisburg","state_name":"North Carolina","lat":36.20278,"lng":-75.86922,"zip":"27947","miles_from_dt":22.71},{"city":"Grandy","state_name":"North Carolina","lat":36.23528,"lng":-75.87689,"zip":"27939","miles_from_dt":24.9},{"city":"Waves","state_name":"North Carolina","lat":35.5635,"lng":-75.46466,"zip":"27982","miles_from_dt":26.87},{"city":"Salvo","state_name":"North Carolina","lat":35.55427,"lng":-75.46986,"zip":"27972","miles_from_dt":27.31},{"city":"Columbia","state_name":"North Carolina","lat":35.84336,"lng":-76.18349,"zip":"27925","miles_from_dt":28.52},{"city":"Shiloh","state_name":"North Carolina","lat":36.23941,"lng":-76.00264,"zip":"27974","miles_from_dt":28.92},{"city":"Poplar Branch","state_name":"North Carolina","lat":36.28404,"lng":-75.92681,"zip":"27965","miles_from_dt":29.17}],"targetCityZipCode":"27954","targetCityState":"North Carolina"},"__N_SSG":true}