{"pageProps":{"stateName":"North-carolina","cityName":"maple-hill","nearbyCities":[{"city":"Jacksonville","state_name":"North Carolina","lat":34.74361,"lng":-77.49833,"zip":"28540","miles_from_dt":10.2},{"city":"Holly Ridge","state_name":"North Carolina","lat":34.54199,"lng":-77.54019,"zip":"28445","miles_from_dt":10.97},{"city":"Chinquapin","state_name":"North Carolina","lat":34.82136,"lng":-77.73684,"zip":"28521","miles_from_dt":11.43},{"city":"Camp Lejeune","state_name":"North Carolina","lat":34.72992,"lng":-77.46198,"zip":"28542","miles_from_dt":11.67},{"city":"Wallace","state_name":"North Carolina","lat":34.73219,"lng":-77.8954,"zip":"28466","miles_from_dt":14.39},{"city":"Hampstead","state_name":"North Carolina","lat":34.46211,"lng":-77.67312,"zip":"28443","miles_from_dt":14.39},{"city":"Richlands","state_name":"North Carolina","lat":34.87716,"lng":-77.59212,"zip":"28574","miles_from_dt":14.69},{"city":"Tarawa Terrace","state_name":"North Carolina","lat":34.73263,"lng":-77.39825,"zip":"28543","miles_from_dt":15.18},{"city":"Jacksonville","state_name":"North Carolina","lat":34.76496,"lng":-77.4039,"zip":"28541","miles_from_dt":15.66},{"city":"Burgaw","state_name":"North Carolina","lat":34.5591,"lng":-77.90253,"zip":"28425","miles_from_dt":16.11},{"city":"Beulaville","state_name":"North Carolina","lat":34.89678,"lng":-77.75569,"zip":"28518","miles_from_dt":16.65},{"city":"Sneads Ferry","state_name":"North Carolina","lat":34.52569,"lng":-77.41873,"zip":"28460","miles_from_dt":16.71},{"city":"Camp Lejeune","state_name":"North Carolina","lat":34.62518,"lng":-77.36307,"zip":"28547","miles_from_dt":16.86},{"city":"Mccutcheon Field","state_name":"North Carolina","lat":34.68375,"lng":-77.34191,"zip":"28545","miles_from_dt":17.79},{"city":"Jacksonville","state_name":"North Carolina","lat":34.83461,"lng":-77.38818,"zip":"28546","miles_from_dt":18.89},{"city":"Rocky Point","state_name":"North Carolina","lat":34.45608,"lng":-77.86618,"zip":"28457","miles_from_dt":19.09},{"city":"Midway Park","state_name":"North Carolina","lat":34.70853,"lng":-77.31562,"zip":"28544","miles_from_dt":19.44},{"city":"Teachey","state_name":"North Carolina","lat":34.77661,"lng":-78.01854,"zip":"28464","miles_from_dt":22.01},{"city":"Willard","state_name":"North Carolina","lat":34.64217,"lng":-78.04255,"zip":"28478","miles_from_dt":22.22},{"city":"Hubert","state_name":"North Carolina","lat":34.6891,"lng":-77.23615,"zip":"28539","miles_from_dt":23.83},{"city":"Comfort","state_name":"North Carolina","lat":35.00339,"lng":-77.52227,"zip":"28522","miles_from_dt":24.15},{"city":"Pink Hill","state_name":"North Carolina","lat":35.02256,"lng":-77.72637,"zip":"28572","miles_from_dt":24.63},{"city":"Rose Hill","state_name":"North Carolina","lat":34.81886,"lng":-78.07895,"zip":"28458","miles_from_dt":26.26},{"city":"Kenansville","state_name":"North Carolina","lat":34.98206,"lng":-77.92033,"zip":"28349","miles_from_dt":26.29},{"city":"Wilmington","state_name":"North Carolina","lat":34.3015,"lng":-77.79307,"zip":"28411","miles_from_dt":26.63},{"city":"Castle Hayne","state_name":"North Carolina","lat":34.34171,"lng":-77.9011,"zip":"28429","miles_from_dt":26.68},{"city":"Maysville","state_name":"North Carolina","lat":34.86982,"lng":-77.24543,"zip":"28555","miles_from_dt":27},{"city":"Magnolia","state_name":"North Carolina","lat":34.88283,"lng":-78.06805,"zip":"28453","miles_from_dt":27.74},{"city":"Stella","state_name":"North Carolina","lat":34.7613,"lng":-77.14507,"zip":"28582","miles_from_dt":29.64},{"city":"Trenton","state_name":"North Carolina","lat":35.05264,"lng":-77.41497,"zip":"28585","miles_from_dt":29.65}],"targetCityZipCode":"28454","targetCityState":"North Carolina"},"__N_SSG":true}