{"pageProps":{"stateName":"North-carolina","cityName":"maxton","nearbyCities":[{"city":"Laurinburg","state_name":"North Carolina","lat":34.76762,"lng":-79.45321,"zip":"28352","miles_from_dt":8.03},{"city":"Pembroke","state_name":"North Carolina","lat":34.69991,"lng":-79.1786,"zip":"28372","miles_from_dt":8.54},{"city":"Laurinburg","state_name":"North Carolina","lat":34.77702,"lng":-79.46508,"zip":"28353","miles_from_dt":8.93},{"city":"Rowland","state_name":"North Carolina","lat":34.57553,"lng":-79.26856,"zip":"28383","miles_from_dt":10.15},{"city":"Red Springs","state_name":"North Carolina","lat":34.83526,"lng":-79.21282,"zip":"28377","miles_from_dt":10.58},{"city":"Little Rock","state_name":"South Carolina","lat":34.55325,"lng":-79.42649,"zip":"29567","miles_from_dt":12.46},{"city":"McColl","state_name":"South Carolina","lat":34.67495,"lng":-79.5624,"zip":"29570","miles_from_dt":13.64},{"city":"Lumberton","state_name":"North Carolina","lat":34.67588,"lng":-79.07582,"zip":"28360","miles_from_dt":14.58},{"city":"Gibson","state_name":"North Carolina","lat":34.76454,"lng":-79.58129,"zip":"28343","miles_from_dt":14.84},{"city":"Shannon","state_name":"North Carolina","lat":34.85889,"lng":-79.12984,"zip":"28386","miles_from_dt":15.02},{"city":"Tatum","state_name":"South Carolina","lat":34.64017,"lng":-79.57728,"zip":"29594","miles_from_dt":15.11},{"city":"Clio","state_name":"South Carolina","lat":34.5722,"lng":-79.53327,"zip":"29525","miles_from_dt":15.28},{"city":"Hamer","state_name":"South Carolina","lat":34.48684,"lng":-79.33243,"zip":"29547","miles_from_dt":15.69},{"city":"Laurel Hill","state_name":"North Carolina","lat":34.84098,"lng":-79.56102,"zip":"28351","miles_from_dt":15.88},{"city":"Wagram","state_name":"North Carolina","lat":34.93948,"lng":-79.40971,"zip":"28396","miles_from_dt":16.2},{"city":"Lumberton","state_name":"North Carolina","lat":34.58686,"lng":-79.05475,"zip":"28359","miles_from_dt":17.86},{"city":"Rex","state_name":"North Carolina","lat":34.85872,"lng":-79.0506,"zip":"28378","miles_from_dt":18.63},{"city":"Lumber Bridge","state_name":"North Carolina","lat":34.90606,"lng":-79.08688,"zip":"28357","miles_from_dt":19.02},{"city":"Fairmont","state_name":"North Carolina","lat":34.47136,"lng":-79.1403,"zip":"28340","miles_from_dt":19.87},{"city":"Marston","state_name":"North Carolina","lat":34.95772,"lng":-79.53384,"zip":"28363","miles_from_dt":20.46},{"city":"Dillon","state_name":"South Carolina","lat":34.41911,"lng":-79.37241,"zip":"29536","miles_from_dt":20.52},{"city":"Saint Pauls","state_name":"North Carolina","lat":34.79687,"lng":-78.95035,"zip":"28384","miles_from_dt":22.2},{"city":"Hamlet","state_name":"North Carolina","lat":34.87464,"lng":-79.6716,"zip":"28345","miles_from_dt":22.46},{"city":"Bennettsville","state_name":"South Carolina","lat":34.62733,"lng":-79.71091,"zip":"29512","miles_from_dt":22.64},{"city":"Proctorville","state_name":"North Carolina","lat":34.47723,"lng":-79.04337,"zip":"28375","miles_from_dt":23.02},{"city":"Lumberton","state_name":"North Carolina","lat":34.60527,"lng":-78.94097,"zip":"28358","miles_from_dt":23.27},{"city":"Parkton","state_name":"North Carolina","lat":34.9079,"lng":-78.99018,"zip":"28371","miles_from_dt":23.36},{"city":"Raeford","state_name":"North Carolina","lat":35.052,"lng":-79.23342,"zip":"28376","miles_from_dt":23.87},{"city":"Blenheim","state_name":"South Carolina","lat":34.44323,"lng":-79.62414,"zip":"29516","miles_from_dt":25.21},{"city":"Lake View","state_name":"South Carolina","lat":34.35301,"lng":-79.2044,"zip":"29563","miles_from_dt":25.89},{"city":"Marietta","state_name":"North Carolina","lat":34.36961,"lng":-79.12882,"zip":"28362","miles_from_dt":26.34},{"city":"Orrum","state_name":"North Carolina","lat":34.42184,"lng":-79.02901,"zip":"28369","miles_from_dt":26.4},{"city":"Hoffman","state_name":"North Carolina","lat":35.04652,"lng":-79.56203,"zip":"28347","miles_from_dt":26.48},{"city":"Latta","state_name":"South Carolina","lat":34.35841,"lng":-79.50457,"zip":"29565","miles_from_dt":26.54},{"city":"Barnesville","state_name":"North Carolina","lat":34.38429,"lng":-79.06613,"zip":"28319","miles_from_dt":27.21},{"city":"Pinebluff","state_name":"North Carolina","lat":35.09079,"lng":-79.48522,"zip":"28373","miles_from_dt":27.44},{"city":"Hope Mills","state_name":"North Carolina","lat":34.92691,"lng":-78.91313,"zip":"28348","miles_from_dt":27.74},{"city":"Aberdeen","state_name":"North Carolina","lat":35.1122,"lng":-79.44452,"zip":"28315","miles_from_dt":28.21},{"city":"Fayetteville","state_name":"North Carolina","lat":35.02498,"lng":-78.99072,"zip":"28304","miles_from_dt":28.71},{"city":"Wallace","state_name":"South Carolina","lat":34.74456,"lng":-79.83978,"zip":"29596","miles_from_dt":29.22},{"city":"Rockingham","state_name":"North Carolina","lat":34.94305,"lng":-79.76084,"zip":"28380","miles_from_dt":29.24},{"city":"Fayetteville","state_name":"North Carolina","lat":35.0557,"lng":-79.01678,"zip":"28314","miles_from_dt":29.41},{"city":"Fork","state_name":"South Carolina","lat":34.28759,"lng":-79.26591,"zip":"29543","miles_from_dt":29.63},{"city":"Fayetteville","state_name":"North Carolina","lat":34.9582,"lng":-78.89487,"zip":"28306","miles_from_dt":29.79},{"city":"Rockingham","state_name":"North Carolina","lat":34.93073,"lng":-79.78252,"zip":"28379","miles_from_dt":29.85}],"targetCityZipCode":"28364","targetCityState":"North Carolina"},"__N_SSG":true}