{"pageProps":{"stateName":"North-carolina","cityName":"olivia","nearbyCities":[{"city":"Sanford","state_name":"North Carolina","lat":35.37836,"lng":-79.13599,"zip":"27332","miles_from_dt":1.42},{"city":"Lemon Springs","state_name":"North Carolina","lat":35.39053,"lng":-79.19514,"zip":"28355","miles_from_dt":4.84},{"city":"Cameron","state_name":"North Carolina","lat":35.27938,"lng":-79.16989,"zip":"28326","miles_from_dt":6.98},{"city":"Broadway","state_name":"North Carolina","lat":35.414,"lng":-79.00198,"zip":"27505","miles_from_dt":7},{"city":"Sanford","state_name":"North Carolina","lat":35.47494,"lng":-79.18258,"zip":"27331","miles_from_dt":8.26},{"city":"Mamers","state_name":"North Carolina","lat":35.42006,"lng":-78.93433,"zip":"27552","miles_from_dt":10.69},{"city":"Sanford","state_name":"North Carolina","lat":35.51624,"lng":-79.18394,"zip":"27330","miles_from_dt":10.88},{"city":"Vass","state_name":"North Carolina","lat":35.21652,"lng":-79.23777,"zip":"28394","miles_from_dt":12.67},{"city":"Spring Lake","state_name":"North Carolina","lat":35.21783,"lng":-78.95488,"zip":"28390","miles_from_dt":13.76},{"city":"Lillington","state_name":"North Carolina","lat":35.38458,"lng":-78.86626,"zip":"27546","miles_from_dt":13.99},{"city":"Lakeview","state_name":"North Carolina","lat":35.2488,"lng":-79.32064,"zip":"28350","miles_from_dt":14.37},{"city":"Cumnock","state_name":"North Carolina","lat":35.55472,"lng":-79.23806,"zip":"27237","miles_from_dt":14.58},{"city":"Pope Army Airfield","state_name":"North Carolina","lat":35.17206,"lng":-79.0149,"zip":"28308","miles_from_dt":14.7},{"city":"Gulf","state_name":"North Carolina","lat":35.56058,"lng":-79.2725,"zip":"27256","miles_from_dt":15.95},{"city":"Bunnlevel","state_name":"North Carolina","lat":35.31192,"lng":-78.83842,"zip":"28323","miles_from_dt":16.03},{"city":"Fort Bragg","state_name":"North Carolina","lat":35.12946,"lng":-79.0523,"zip":"28310","miles_from_dt":16.9},{"city":"Fort Bragg","state_name":"North Carolina","lat":35.14154,"lng":-78.99447,"zip":"28307","miles_from_dt":17.09},{"city":"Carthage","state_name":"North Carolina","lat":35.35759,"lng":-79.42333,"zip":"28327","miles_from_dt":17.53},{"city":"Moncure","state_name":"North Carolina","lat":35.6299,"lng":-79.0973,"zip":"27559","miles_from_dt":17.98},{"city":"Kipling","state_name":"North Carolina","lat":35.48105,"lng":-78.82165,"zip":"27543","miles_from_dt":18.17},{"city":"Fayetteville","state_name":"North Carolina","lat":35.17033,"lng":-78.88223,"zip":"28311","miles_from_dt":18.95},{"city":"Goldston","state_name":"North Carolina","lat":35.56033,"lng":-79.35563,"zip":"27252","miles_from_dt":18.97},{"city":"Southern Pines","state_name":"North Carolina","lat":35.18059,"lng":-79.37566,"zip":"28387","miles_from_dt":19.73},{"city":"Fuquay Varina","state_name":"North Carolina","lat":35.54179,"lng":-78.8274,"zip":"27526","miles_from_dt":20.03},{"city":"New Hill","state_name":"North Carolina","lat":35.64157,"lng":-78.98141,"zip":"27562","miles_from_dt":20.18},{"city":"Linden","state_name":"North Carolina","lat":35.23092,"lng":-78.79113,"zip":"28356","miles_from_dt":20.56},{"city":"Southern Pines","state_name":"North Carolina","lat":35.18181,"lng":-79.4019,"zip":"28388","miles_from_dt":20.82},{"city":"Buies Creek","state_name":"North Carolina","lat":35.40875,"lng":-78.73896,"zip":"27506","miles_from_dt":21.31},{"city":"Holly Springs","state_name":"North Carolina","lat":35.6103,"lng":-78.87332,"zip":"27540","miles_from_dt":21.42},{"city":"Fayetteville","state_name":"North Carolina","lat":35.0852,"lng":-78.95815,"zip":"28303","miles_from_dt":21.47},{"city":"Fayetteville","state_name":"North Carolina","lat":35.0557,"lng":-79.01678,"zip":"28314","miles_from_dt":22.31},{"city":"Erwin","state_name":"North Carolina","lat":35.31409,"lng":-78.72115,"zip":"28339","miles_from_dt":22.48},{"city":"Bear Creek","state_name":"North Carolina","lat":35.6064,"lng":-79.38893,"zip":"27207","miles_from_dt":22.55},{"city":"Raeford","state_name":"North Carolina","lat":35.052,"lng":-79.23342,"zip":"28376","miles_from_dt":22.91},{"city":"Pinehurst","state_name":"North Carolina","lat":35.19705,"lng":-79.46009,"zip":"28374","miles_from_dt":22.92},{"city":"Pinehurst","state_name":"North Carolina","lat":35.18208,"lng":-79.46043,"zip":"28370","miles_from_dt":23.49},{"city":"Fayetteville","state_name":"North Carolina","lat":35.07188,"lng":-78.89907,"zip":"28309","miles_from_dt":23.82},{"city":"Fayetteville","state_name":"North Carolina","lat":35.07442,"lng":-78.88376,"zip":"28301","miles_from_dt":24.13},{"city":"Fayetteville","state_name":"North Carolina","lat":35.05321,"lng":-78.90687,"zip":"28305","miles_from_dt":24.73},{"city":"Fayetteville","state_name":"North Carolina","lat":35.02498,"lng":-78.99072,"zip":"28304","miles_from_dt":24.74},{"city":"Highfalls","state_name":"North Carolina","lat":35.49149,"lng":-79.52624,"zip":"27259","miles_from_dt":24.77},{"city":"West End","state_name":"North Carolina","lat":35.25607,"lng":-79.53184,"zip":"27376","miles_from_dt":24.91},{"city":"Bonlee","state_name":"North Carolina","lat":35.6473,"lng":-79.40454,"zip":"27213","miles_from_dt":25.23},{"city":"Fayetteville","state_name":"North Carolina","lat":35.03326,"lng":-78.92904,"zip":"28302","miles_from_dt":25.41},{"city":"Angier","state_name":"North Carolina","lat":35.48684,"lng":-78.68419,"zip":"27501","miles_from_dt":25.53},{"city":"Aberdeen","state_name":"North Carolina","lat":35.1122,"lng":-79.44452,"zip":"28315","miles_from_dt":25.79},{"city":"Coats","state_name":"North Carolina","lat":35.41298,"lng":-78.65847,"zip":"27521","miles_from_dt":25.85},{"city":"Wade","state_name":"North Carolina","lat":35.13643,"lng":-78.73855,"zip":"28395","miles_from_dt":26.59},{"city":"Robbins","state_name":"North Carolina","lat":35.46236,"lng":-79.57249,"zip":"27325","miles_from_dt":26.69},{"city":"Apex","state_name":"North Carolina","lat":35.72123,"lng":-78.90828,"zip":"27502","miles_from_dt":26.87},{"city":"Pittsboro","state_name":"North Carolina","lat":35.75446,"lng":-79.19648,"zip":"27312","miles_from_dt":26.96},{"city":"Apex","state_name":"North Carolina","lat":35.67713,"lng":-78.81269,"zip":"27539","miles_from_dt":27.15},{"city":"Bennett","state_name":"North Carolina","lat":35.56246,"lng":-79.54231,"zip":"27208","miles_from_dt":27.61},{"city":"Bynum","state_name":"North Carolina","lat":35.77262,"lng":-79.13782,"zip":"27228","miles_from_dt":27.83},{"city":"Willow Spring","state_name":"North Carolina","lat":35.55922,"lng":-78.67164,"zip":"27592","miles_from_dt":28.14},{"city":"Pinebluff","state_name":"North Carolina","lat":35.09079,"lng":-79.48522,"zip":"28373","miles_from_dt":28.49},{"city":"Cumberland","state_name":"North Carolina","lat":35.19883,"lng":-78.64944,"zip":"28331","miles_from_dt":28.74},{"city":"Dunn","state_name":"North Carolina","lat":35.3097,"lng":-78.6082,"zip":"28335","miles_from_dt":28.83},{"city":"Falcon","state_name":"North Carolina","lat":35.18949,"lng":-78.6499,"zip":"28342","miles_from_dt":28.98},{"city":"Apex","state_name":"North Carolina","lat":35.77102,"lng":-78.95367,"zip":"27523","miles_from_dt":29.11},{"city":"Eagle Springs","state_name":"North Carolina","lat":35.33645,"lng":-79.63761,"zip":"27242","miles_from_dt":29.7}],"targetCityZipCode":"28368","targetCityState":"North Carolina"},"__N_SSG":true}