{"pageProps":{"stateName":"North-carolina","cityName":"parkton","nearbyCities":[{"city":"Hope Mills","state_name":"North Carolina","lat":34.92691,"lng":-78.91313,"zip":"28348","miles_from_dt":4.57},{"city":"Rex","state_name":"North Carolina","lat":34.85872,"lng":-79.0506,"zip":"28378","miles_from_dt":4.82},{"city":"Lumber Bridge","state_name":"North Carolina","lat":34.90606,"lng":-79.08688,"zip":"28357","miles_from_dt":5.49},{"city":"Fayetteville","state_name":"North Carolina","lat":34.9582,"lng":-78.89487,"zip":"28306","miles_from_dt":6.43},{"city":"Saint Pauls","state_name":"North Carolina","lat":34.79687,"lng":-78.95035,"zip":"28384","miles_from_dt":7.98},{"city":"Fayetteville","state_name":"North Carolina","lat":35.02498,"lng":-78.99072,"zip":"28304","miles_from_dt":8.07},{"city":"Shannon","state_name":"North Carolina","lat":34.85889,"lng":-79.12984,"zip":"28386","miles_from_dt":8.62},{"city":"Fayetteville","state_name":"North Carolina","lat":35.03326,"lng":-78.92904,"zip":"28302","miles_from_dt":9.31},{"city":"Fayetteville","state_name":"North Carolina","lat":35.0557,"lng":-79.01678,"zip":"28314","miles_from_dt":10.3},{"city":"Fayetteville","state_name":"North Carolina","lat":35.05321,"lng":-78.90687,"zip":"28305","miles_from_dt":11.08},{"city":"Fayetteville","state_name":"North Carolina","lat":35.0852,"lng":-78.95815,"zip":"28303","miles_from_dt":12.36},{"city":"Fayetteville","state_name":"North Carolina","lat":35.07188,"lng":-78.89907,"zip":"28309","miles_from_dt":12.43},{"city":"Fayetteville","state_name":"North Carolina","lat":35.07442,"lng":-78.88376,"zip":"28301","miles_from_dt":12.97},{"city":"Red Springs","state_name":"North Carolina","lat":34.83526,"lng":-79.21282,"zip":"28377","miles_from_dt":13.6},{"city":"Fayetteville","state_name":"North Carolina","lat":34.94713,"lng":-78.73225,"zip":"28312","miles_from_dt":14.89},{"city":"Fort Bragg","state_name":"North Carolina","lat":35.12946,"lng":-79.0523,"zip":"28310","miles_from_dt":15.67},{"city":"Fort Bragg","state_name":"North Carolina","lat":35.14154,"lng":-78.99447,"zip":"28307","miles_from_dt":16.11},{"city":"Tar Heel","state_name":"North Carolina","lat":34.73467,"lng":-78.79465,"zip":"28392","miles_from_dt":16.31},{"city":"Lumberton","state_name":"North Carolina","lat":34.67588,"lng":-79.07582,"zip":"28360","miles_from_dt":16.72},{"city":"Raeford","state_name":"North Carolina","lat":35.052,"lng":-79.23342,"zip":"28376","miles_from_dt":17},{"city":"White Oak","state_name":"North Carolina","lat":34.77885,"lng":-78.72953,"zip":"28399","miles_from_dt":17.28},{"city":"Pembroke","state_name":"North Carolina","lat":34.69991,"lng":-79.1786,"zip":"28372","miles_from_dt":17.9},{"city":"Pope Army Airfield","state_name":"North Carolina","lat":35.17206,"lng":-79.0149,"zip":"28308","miles_from_dt":18.26},{"city":"Stedman","state_name":"North Carolina","lat":35.03045,"lng":-78.70009,"zip":"28391","miles_from_dt":18.5},{"city":"Fayetteville","state_name":"North Carolina","lat":35.17033,"lng":-78.88223,"zip":"28311","miles_from_dt":19.1},{"city":"Lumberton","state_name":"North Carolina","lat":34.60527,"lng":-78.94097,"zip":"28358","miles_from_dt":21.05},{"city":"Wade","state_name":"North Carolina","lat":35.13643,"lng":-78.73855,"zip":"28395","miles_from_dt":21.26},{"city":"Spring Lake","state_name":"North Carolina","lat":35.21783,"lng":-78.95488,"zip":"28390","miles_from_dt":21.46},{"city":"Lumberton","state_name":"North Carolina","lat":34.58686,"lng":-79.05475,"zip":"28359","miles_from_dt":22.43},{"city":"Autryville","state_name":"North Carolina","lat":35.0176,"lng":-78.61665,"zip":"28318","miles_from_dt":22.51},{"city":"Maxton","state_name":"North Carolina","lat":34.71447,"lng":-79.32759,"zip":"28364","miles_from_dt":23.36},{"city":"Dublin","state_name":"North Carolina","lat":34.65808,"lng":-78.70971,"zip":"28332","miles_from_dt":23.47},{"city":"Wagram","state_name":"North Carolina","lat":34.93948,"lng":-79.40971,"zip":"28396","miles_from_dt":23.92},{"city":"Linden","state_name":"North Carolina","lat":35.23092,"lng":-78.79113,"zip":"28356","miles_from_dt":24.96},{"city":"Vass","state_name":"North Carolina","lat":35.21652,"lng":-79.23777,"zip":"28394","miles_from_dt":25.49},{"city":"Godwin","state_name":"North Carolina","lat":35.16506,"lng":-78.63139,"zip":"28344","miles_from_dt":26.98},{"city":"Bladenboro","state_name":"North Carolina","lat":34.55378,"lng":-78.77456,"zip":"28320","miles_from_dt":27.32},{"city":"Falcon","state_name":"North Carolina","lat":35.18949,"lng":-78.6499,"zip":"28342","miles_from_dt":27.37},{"city":"Cameron","state_name":"North Carolina","lat":35.27938,"lng":-79.16989,"zip":"28326","miles_from_dt":27.56},{"city":"Cumberland","state_name":"North Carolina","lat":35.19883,"lng":-78.64944,"zip":"28331","miles_from_dt":27.84},{"city":"Rowland","state_name":"North Carolina","lat":34.57553,"lng":-79.26856,"zip":"28383","miles_from_dt":27.85},{"city":"Roseboro","state_name":"North Carolina","lat":34.97546,"lng":-78.50561,"zip":"28382","miles_from_dt":27.9},{"city":"Laurinburg","state_name":"North Carolina","lat":34.76762,"lng":-79.45321,"zip":"28352","miles_from_dt":28.04},{"city":"Laurinburg","state_name":"North Carolina","lat":34.77702,"lng":-79.46508,"zip":"28353","miles_from_dt":28.46},{"city":"Southern Pines","state_name":"North Carolina","lat":35.18059,"lng":-79.37566,"zip":"28387","miles_from_dt":28.83},{"city":"Elizabethtown","state_name":"North Carolina","lat":34.66094,"lng":-78.57733,"zip":"28337","miles_from_dt":29},{"city":"Bunnlevel","state_name":"North Carolina","lat":35.31192,"lng":-78.83842,"zip":"28323","miles_from_dt":29.15},{"city":"Salemburg","state_name":"North Carolina","lat":35.04461,"lng":-78.50012,"zip":"28385","miles_from_dt":29.36},{"city":"Aberdeen","state_name":"North Carolina","lat":35.1122,"lng":-79.44452,"zip":"28315","miles_from_dt":29.37},{"city":"Proctorville","state_name":"North Carolina","lat":34.47723,"lng":-79.04337,"zip":"28375","miles_from_dt":29.84}],"targetCityZipCode":"28371","targetCityState":"North Carolina"},"__N_SSG":true}