{"pageProps":{"stateName":"North-carolina","cityName":"snow-camp","nearbyCities":[{"city":"Graham","state_name":"North Carolina","lat":35.96239,"lng":-79.34581,"zip":"27253","miles_from_dt":5.76},{"city":"Saxapahaw","state_name":"North Carolina","lat":35.94557,"lng":-79.31141,"zip":"27340","miles_from_dt":6.51},{"city":"Liberty","state_name":"North Carolina","lat":35.88563,"lng":-79.56816,"zip":"27298","miles_from_dt":8.8},{"city":"Swepsonville","state_name":"North Carolina","lat":36.03414,"lng":-79.36838,"zip":"27359","miles_from_dt":9.67},{"city":"Burlington","state_name":"North Carolina","lat":36.03055,"lng":-79.48729,"zip":"27215","miles_from_dt":10.04},{"city":"Alamance","state_name":"North Carolina","lat":36.03258,"lng":-79.48418,"zip":"27201","miles_from_dt":10.09},{"city":"Haw River","state_name":"North Carolina","lat":36.03401,"lng":-79.32623,"zip":"27258","miles_from_dt":10.51},{"city":"Staley","state_name":"North Carolina","lat":35.78859,"lng":-79.5678,"zip":"27355","miles_from_dt":11.57},{"city":"Siler City","state_name":"North Carolina","lat":35.7289,"lng":-79.43366,"zip":"27344","miles_from_dt":11.75},{"city":"Burlington","state_name":"North Carolina","lat":36.08169,"lng":-79.4127,"zip":"27216","miles_from_dt":12.63},{"city":"Julian","state_name":"North Carolina","lat":35.95293,"lng":-79.63621,"zip":"27283","miles_from_dt":13.12},{"city":"Whitsett","state_name":"North Carolina","lat":36.03728,"lng":-79.60221,"zip":"27377","miles_from_dt":14.33},{"city":"Chapel Hill","state_name":"North Carolina","lat":35.91239,"lng":-79.15156,"zip":"27516","miles_from_dt":14.64},{"city":"Pittsboro","state_name":"North Carolina","lat":35.75446,"lng":-79.19648,"zip":"27312","miles_from_dt":15.65},{"city":"Climax","state_name":"North Carolina","lat":35.8882,"lng":-79.6988,"zip":"27233","miles_from_dt":16.1},{"city":"Sedalia","state_name":"North Carolina","lat":36.06641,"lng":-79.6186,"zip":"27342","miles_from_dt":16.37},{"city":"Bonlee","state_name":"North Carolina","lat":35.6473,"lng":-79.40454,"zip":"27213","miles_from_dt":17.32},{"city":"Efland","state_name":"North Carolina","lat":36.07821,"lng":-79.1945,"zip":"27243","miles_from_dt":17.38},{"city":"Greensboro","state_name":"North Carolina","lat":35.97913,"lng":-79.70883,"zip":"27419","miles_from_dt":17.55},{"city":"Bynum","state_name":"North Carolina","lat":35.77262,"lng":-79.13782,"zip":"27228","miles_from_dt":17.67},{"city":"Greensboro","state_name":"North Carolina","lat":36.07893,"lng":-79.64581,"zip":"27415","miles_from_dt":18.07},{"city":"Franklinville","state_name":"North Carolina","lat":35.78916,"lng":-79.70953,"zip":"27248","miles_from_dt":18.32},{"city":"Mebane","state_name":"North Carolina","lat":36.13749,"lng":-79.2647,"zip":"27302","miles_from_dt":18.43},{"city":"Carrboro","state_name":"North Carolina","lat":35.91147,"lng":-79.08211,"zip":"27510","miles_from_dt":18.53},{"city":"Ramseur","state_name":"North Carolina","lat":35.68996,"lng":-79.62366,"zip":"27316","miles_from_dt":18.65},{"city":"Pleasant Garden","state_name":"North Carolina","lat":35.92892,"lng":-79.75142,"zip":"27313","miles_from_dt":19.15},{"city":"Chapel Hill","state_name":"North Carolina","lat":35.91022,"lng":-79.05461,"zip":"27515","miles_from_dt":20.06},{"city":"Bear Creek","state_name":"North Carolina","lat":35.6064,"lng":-79.38893,"zip":"27207","miles_from_dt":20.18},{"city":"Chapel Hill","state_name":"North Carolina","lat":35.90394,"lng":-79.05234,"zip":"27599","miles_from_dt":20.18},{"city":"Burlington","state_name":"North Carolina","lat":36.19221,"lng":-79.38404,"zip":"27217","miles_from_dt":20.31},{"city":"Gibsonville","state_name":"North Carolina","lat":36.16014,"lng":-79.58134,"zip":"27249","miles_from_dt":20.38},{"city":"Altamahaw","state_name":"North Carolina","lat":36.18565,"lng":-79.50594,"zip":"27202","miles_from_dt":20.49},{"city":"Cedar Falls","state_name":"North Carolina","lat":35.75286,"lng":-79.73163,"zip":"27230","miles_from_dt":20.56},{"city":"McLeansville","state_name":"North Carolina","lat":36.11512,"lng":-79.66755,"zip":"27301","miles_from_dt":20.69},{"city":"Greensboro","state_name":"North Carolina","lat":36.00231,"lng":-79.76409,"zip":"27416","miles_from_dt":21},{"city":"Greensboro","state_name":"North Carolina","lat":35.9982,"lng":-79.76686,"zip":"27406","miles_from_dt":21.05},{"city":"Chapel Hill","state_name":"North Carolina","lat":35.96776,"lng":-79.04406,"zip":"27514","miles_from_dt":21.18},{"city":"Chapel Hill","state_name":"North Carolina","lat":35.84389,"lng":-79.03186,"zip":"27517","miles_from_dt":21.66},{"city":"Elon","state_name":"North Carolina","lat":36.21402,"lng":-79.48747,"zip":"27244","miles_from_dt":22.16},{"city":"Hillsborough","state_name":"North Carolina","lat":36.08673,"lng":-79.08778,"zip":"27278","miles_from_dt":22.33},{"city":"Randleman","state_name":"North Carolina","lat":35.83809,"lng":-79.80376,"zip":"27317","miles_from_dt":22.37},{"city":"Greensboro","state_name":"North Carolina","lat":36.0689,"lng":-79.76662,"zip":"27427","miles_from_dt":23.09},{"city":"Greensboro","state_name":"North Carolina","lat":36.07058,"lng":-79.76615,"zip":"27499","miles_from_dt":23.12},{"city":"Greensboro","state_name":"North Carolina","lat":36.06995,"lng":-79.76724,"zip":"27401","miles_from_dt":23.15},{"city":"Greensboro","state_name":"North Carolina","lat":36.072,"lng":-79.76791,"zip":"27498","miles_from_dt":23.26},{"city":"Greensboro","state_name":"North Carolina","lat":36.10862,"lng":-79.73791,"zip":"27495","miles_from_dt":23.31},{"city":"Greensboro","state_name":"North Carolina","lat":36.11373,"lng":-79.73463,"zip":"27405","miles_from_dt":23.39},{"city":"Goldston","state_name":"North Carolina","lat":35.56033,"lng":-79.35563,"zip":"27252","miles_from_dt":23.53},{"city":"Greensboro","state_name":"North Carolina","lat":36.07665,"lng":-79.77157,"zip":"27411","miles_from_dt":23.6},{"city":"Asheboro","state_name":"North Carolina","lat":35.73253,"lng":-79.78857,"zip":"27203","miles_from_dt":24.04},{"city":"Bennett","state_name":"North Carolina","lat":35.56246,"lng":-79.54231,"zip":"27208","miles_from_dt":24.29},{"city":"Greensboro","state_name":"North Carolina","lat":36.07176,"lng":-79.79103,"zip":"27402","miles_from_dt":24.37},{"city":"Greensboro","state_name":"North Carolina","lat":36.05575,"lng":-79.80426,"zip":"27438","miles_from_dt":24.51},{"city":"Gulf","state_name":"North Carolina","lat":35.56058,"lng":-79.2725,"zip":"27256","miles_from_dt":24.58},{"city":"Cedar Grove","state_name":"North Carolina","lat":36.20455,"lng":-79.17268,"zip":"27231","miles_from_dt":25},{"city":"Greensboro","state_name":"North Carolina","lat":36.06873,"lng":-79.81028,"zip":"27413","miles_from_dt":25.22},{"city":"Greensboro","state_name":"North Carolina","lat":36.06903,"lng":-79.81062,"zip":"27412","miles_from_dt":25.24},{"city":"Moncure","state_name":"North Carolina","lat":35.6299,"lng":-79.0973,"zip":"27559","miles_from_dt":25.6},{"city":"Cumnock","state_name":"North Carolina","lat":35.55472,"lng":-79.23806,"zip":"27237","miles_from_dt":25.64},{"city":"Durham","state_name":"North Carolina","lat":36.0259,"lng":-78.98046,"zip":"27705","miles_from_dt":25.74},{"city":"Greensboro","state_name":"North Carolina","lat":36.06406,"lng":-79.82538,"zip":"27403","miles_from_dt":25.83},{"city":"Greensboro","state_name":"North Carolina","lat":36.06452,"lng":-79.82698,"zip":"27435","miles_from_dt":25.92},{"city":"Durham","state_name":"North Carolina","lat":35.95463,"lng":-78.95451,"zip":"27707","miles_from_dt":25.95},{"city":"Durham","state_name":"North Carolina","lat":35.95623,"lng":-78.95163,"zip":"27717","miles_from_dt":26.12},{"city":"Greensboro","state_name":"North Carolina","lat":36.09345,"lng":-79.81275,"zip":"27429","miles_from_dt":26.17},{"city":"Browns Summit","state_name":"North Carolina","lat":36.21407,"lng":-79.68283,"zip":"27214","miles_from_dt":26.52},{"city":"Greensboro","state_name":"North Carolina","lat":36.10321,"lng":-79.81411,"zip":"27408","miles_from_dt":26.59},{"city":"Durham","state_name":"North Carolina","lat":36.01368,"lng":-78.95914,"zip":"27715","miles_from_dt":26.6},{"city":"Durham","state_name":"North Carolina","lat":35.88401,"lng":-78.936,"zip":"27713","miles_from_dt":26.72},{"city":"Greensboro","state_name":"North Carolina","lat":36.06467,"lng":-79.84391,"zip":"27420","miles_from_dt":26.78},{"city":"Greensboro","state_name":"North Carolina","lat":36.08483,"lng":-79.83277,"zip":"27404","miles_from_dt":26.85},{"city":"Greensboro","state_name":"North Carolina","lat":36.01124,"lng":-79.87588,"zip":"27407","miles_from_dt":27.14},{"city":"Apex","state_name":"North Carolina","lat":35.77102,"lng":-78.95367,"zip":"27523","miles_from_dt":27.19},{"city":"Durham","state_name":"North Carolina","lat":36.00009,"lng":-78.94305,"zip":"27708","miles_from_dt":27.21},{"city":"Asheboro","state_name":"North Carolina","lat":35.66844,"lng":-79.80847,"zip":"27204","miles_from_dt":27.34},{"city":"Durham","state_name":"North Carolina","lat":36.00177,"lng":-78.94072,"zip":"27710","miles_from_dt":27.36},{"city":"Durham","state_name":"North Carolina","lat":35.99683,"lng":-78.93799,"zip":"27706","miles_from_dt":27.43},{"city":"Sophia","state_name":"North Carolina","lat":35.80631,"lng":-79.88917,"zip":"27350","miles_from_dt":27.53},{"city":"Highfalls","state_name":"North Carolina","lat":35.49149,"lng":-79.52624,"zip":"27259","miles_from_dt":28.78},{"city":"Sanford","state_name":"North Carolina","lat":35.51624,"lng":-79.18394,"zip":"27330","miles_from_dt":29.31},{"city":"Durham","state_name":"North Carolina","lat":35.99697,"lng":-78.89956,"zip":"27722","miles_from_dt":29.52},{"city":"High Point","state_name":"North Carolina","lat":35.90931,"lng":-79.93829,"zip":"27263","miles_from_dt":29.53},{"city":"Durham","state_name":"North Carolina","lat":35.99858,"lng":-78.89872,"zip":"27701","miles_from_dt":29.59},{"city":"Greensboro","state_name":"North Carolina","lat":36.18283,"lng":-79.80794,"zip":"27455","miles_from_dt":29.6},{"city":"Jamestown","state_name":"North Carolina","lat":35.99656,"lng":-79.92869,"zip":"27282","miles_from_dt":29.74},{"city":"Prospect Hill","state_name":"North Carolina","lat":36.29072,"lng":-79.18594,"zip":"27314","miles_from_dt":29.86},{"city":"New Hill","state_name":"North Carolina","lat":35.64157,"lng":-78.98141,"zip":"27562","miles_from_dt":29.98}],"targetCityZipCode":"27349","targetCityState":"North Carolina"},"__N_SSG":true}