{"pageProps":{"stateName":"North-carolina","cityName":"youngsville","nearbyCities":[{"city":"Wake Forest","state_name":"North Carolina","lat":35.96735,"lng":-78.51782,"zip":"27588","miles_from_dt":5.02},{"city":"Rolesville","state_name":"North Carolina","lat":35.92151,"lng":-78.4647,"zip":"27571","miles_from_dt":6.14},{"city":"Wake Forest","state_name":"North Carolina","lat":35.98098,"lng":-78.54963,"zip":"27587","miles_from_dt":6.2},{"city":"Franklinton","state_name":"North Carolina","lat":36.11721,"lng":-78.46997,"zip":"27525","miles_from_dt":7.59},{"city":"Raleigh","state_name":"North Carolina","lat":35.8974,"lng":-78.56154,"zip":"27661","miles_from_dt":10.12},{"city":"Raleigh","state_name":"North Carolina","lat":35.94739,"lng":-78.62059,"zip":"27614","miles_from_dt":10.75},{"city":"Raleigh","state_name":"North Carolina","lat":35.86735,"lng":-78.53792,"zip":"27616","miles_from_dt":11.09},{"city":"Bunn","state_name":"North Carolina","lat":35.95882,"lng":-78.25105,"zip":"27508","miles_from_dt":11.38},{"city":"Louisburg","state_name":"North Carolina","lat":36.10439,"lng":-78.24282,"zip":"27549","miles_from_dt":13.06},{"city":"Kittrell","state_name":"North Carolina","lat":36.20018,"lng":-78.44097,"zip":"27544","miles_from_dt":13.18},{"city":"Raleigh","state_name":"North Carolina","lat":35.89772,"lng":-78.636,"zip":"27615","miles_from_dt":13.2},{"city":"Raleigh","state_name":"North Carolina","lat":35.85097,"lng":-78.59329,"zip":"27658","miles_from_dt":13.73},{"city":"Zebulon","state_name":"North Carolina","lat":35.84034,"lng":-78.30303,"zip":"27597","miles_from_dt":14.08},{"city":"Creedmoor","state_name":"North Carolina","lat":36.10565,"lng":-78.67676,"zip":"27522","miles_from_dt":14.61},{"city":"Raleigh","state_name":"North Carolina","lat":35.82011,"lng":-78.56369,"zip":"27604","miles_from_dt":14.64},{"city":"Raleigh","state_name":"North Carolina","lat":35.82134,"lng":-78.57084,"zip":"27625","miles_from_dt":14.76},{"city":"Raleigh","state_name":"North Carolina","lat":35.85422,"lng":-78.6288,"zip":"27619","miles_from_dt":14.86},{"city":"Raleigh","state_name":"North Carolina","lat":35.81964,"lng":-78.57275,"zip":"27629","miles_from_dt":14.91},{"city":"Raleigh","state_name":"North Carolina","lat":35.81793,"lng":-78.57233,"zip":"27635","miles_from_dt":15},{"city":"Raleigh","state_name":"North Carolina","lat":35.84506,"lng":-78.63425,"zip":"27624","miles_from_dt":15.53},{"city":"Raleigh","state_name":"North Carolina","lat":35.8437,"lng":-78.63282,"zip":"27609","miles_from_dt":15.54},{"city":"Knightdale","state_name":"North Carolina","lat":35.78513,"lng":-78.48045,"zip":"27545","miles_from_dt":15.57},{"city":"Raleigh","state_name":"North Carolina","lat":35.84296,"lng":-78.63448,"zip":"27668","miles_from_dt":15.64},{"city":"Wendell","state_name":"North Carolina","lat":35.7859,"lng":-78.38638,"zip":"27591","miles_from_dt":15.73},{"city":"Raleigh","state_name":"North Carolina","lat":35.92633,"lng":-78.71183,"zip":"27613","miles_from_dt":16.03},{"city":"Raleigh","state_name":"North Carolina","lat":35.83428,"lng":-78.66649,"zip":"27690","miles_from_dt":17.33},{"city":"Raleigh","state_name":"North Carolina","lat":35.85068,"lng":-78.69267,"zip":"27622","miles_from_dt":17.69},{"city":"Raleigh","state_name":"North Carolina","lat":35.8488,"lng":-78.69226,"zip":"27656","miles_from_dt":17.75},{"city":"Raleigh","state_name":"North Carolina","lat":35.81004,"lng":-78.64815,"zip":"27608","miles_from_dt":17.85},{"city":"Raleigh","state_name":"North Carolina","lat":35.80418,"lng":-78.64556,"zip":"27628","miles_from_dt":18.08},{"city":"Raleigh","state_name":"North Carolina","lat":35.90434,"lng":-78.74241,"zip":"27675","miles_from_dt":18.19},{"city":"Raleigh","state_name":"North Carolina","lat":35.85034,"lng":-78.70387,"zip":"27612","miles_from_dt":18.2},{"city":"Raleigh","state_name":"North Carolina","lat":35.76508,"lng":-78.58728,"zip":"27620","miles_from_dt":18.63},{"city":"Raleigh","state_name":"North Carolina","lat":35.7788,"lng":-78.62297,"zip":"27697","miles_from_dt":18.77},{"city":"Raleigh","state_name":"North Carolina","lat":35.78609,"lng":-78.63869,"zip":"27640","miles_from_dt":18.84},{"city":"Spring Hope","state_name":"North Carolina","lat":35.94222,"lng":-78.11825,"zip":"27882","miles_from_dt":18.85},{"city":"Raleigh","state_name":"North Carolina","lat":35.79046,"lng":-78.65452,"zip":"27605","miles_from_dt":19.13},{"city":"Raleigh","state_name":"North Carolina","lat":35.7435,"lng":-78.54644,"zip":"27610","miles_from_dt":19.18},{"city":"Raleigh","state_name":"North Carolina","lat":35.77768,"lng":-78.63452,"zip":"27626","miles_from_dt":19.19},{"city":"Raleigh","state_name":"North Carolina","lat":35.77944,"lng":-78.63886,"zip":"27634","miles_from_dt":19.22},{"city":"Raleigh","state_name":"North Carolina","lat":35.7737,"lng":-78.63453,"zip":"27601","miles_from_dt":19.42},{"city":"Raleigh","state_name":"North Carolina","lat":35.77237,"lng":-78.63454,"zip":"27676","miles_from_dt":19.49},{"city":"Raleigh","state_name":"North Carolina","lat":35.78773,"lng":-78.66262,"zip":"27650","miles_from_dt":19.56},{"city":"Raleigh","state_name":"North Carolina","lat":35.77282,"lng":-78.63981,"zip":"27698","miles_from_dt":19.63},{"city":"Raleigh","state_name":"North Carolina","lat":35.90723,"lng":-78.77221,"zip":"27617","miles_from_dt":19.67},{"city":"Raleigh","state_name":"North Carolina","lat":35.78558,"lng":-78.679,"zip":"27695","miles_from_dt":20.26},{"city":"Butner","state_name":"North Carolina","lat":36.12889,"lng":-78.77604,"zip":"27509","miles_from_dt":20.32},{"city":"Raleigh","state_name":"North Carolina","lat":35.79269,"lng":-78.69105,"zip":"27636","miles_from_dt":20.34},{"city":"Durham","state_name":"North Carolina","lat":35.96299,"lng":-78.80452,"zip":"27703","miles_from_dt":20.42},{"city":"Raleigh","state_name":"North Carolina","lat":35.82145,"lng":-78.72697,"zip":"27607","miles_from_dt":20.45},{"city":"Stem","state_name":"North Carolina","lat":36.20155,"lng":-78.73355,"zip":"27581","miles_from_dt":20.92},{"city":"Middlesex","state_name":"North Carolina","lat":35.77941,"lng":-78.2,"zip":"27557","miles_from_dt":20.95},{"city":"Raleigh","state_name":"North Carolina","lat":35.74788,"lng":-78.63723,"zip":"27602","miles_from_dt":21.01},{"city":"Durham","state_name":"North Carolina","lat":36.04088,"lng":-78.83007,"zip":"27704","miles_from_dt":21.71},{"city":"Castalia","state_name":"North Carolina","lat":36.10732,"lng":-78.07245,"zip":"27816","miles_from_dt":21.9},{"city":"Raleigh","state_name":"North Carolina","lat":35.85907,"lng":-78.79023,"zip":"27623","miles_from_dt":21.97},{"city":"Henderson","state_name":"North Carolina","lat":36.32645,"lng":-78.40754,"zip":"27536","miles_from_dt":21.98},{"city":"Raleigh","state_name":"North Carolina","lat":35.77201,"lng":-78.71378,"zip":"27627","miles_from_dt":22.26},{"city":"Morrisville","state_name":"North Carolina","lat":35.85845,"lng":-78.82544,"zip":"27560","miles_from_dt":23.75},{"city":"Henderson","state_name":"North Carolina","lat":36.35343,"lng":-78.38887,"zip":"27537","miles_from_dt":23.95},{"city":"Raleigh","state_name":"North Carolina","lat":35.73991,"lng":-78.71833,"zip":"27606","miles_from_dt":24.09},{"city":"Bailey","state_name":"North Carolina","lat":35.80915,"lng":-78.0917,"zip":"27807","miles_from_dt":24.11},{"city":"Clayton","state_name":"North Carolina","lat":35.65767,"lng":-78.38336,"zip":"27527","miles_from_dt":24.47},{"city":"Durham","state_name":"North Carolina","lat":36.05251,"lng":-78.87949,"zip":"27702","miles_from_dt":24.55},{"city":"Durham","state_name":"North Carolina","lat":35.91441,"lng":-78.86666,"zip":"27709","miles_from_dt":24.55},{"city":"Durham","state_name":"North Carolina","lat":35.9162,"lng":-78.86747,"zip":"27711","miles_from_dt":24.56},{"city":"Cary","state_name":"North Carolina","lat":35.80269,"lng":-78.80159,"zip":"27513","miles_from_dt":24.57},{"city":"Clayton","state_name":"North Carolina","lat":35.65,"lng":-78.46219,"zip":"27528","miles_from_dt":24.78},{"city":"Durham","state_name":"North Carolina","lat":35.99858,"lng":-78.89872,"zip":"27701","miles_from_dt":25.46},{"city":"Cary","state_name":"North Carolina","lat":35.76324,"lng":-78.78437,"zip":"27511","miles_from_dt":25.51},{"city":"Durham","state_name":"North Carolina","lat":35.99697,"lng":-78.89956,"zip":"27722","miles_from_dt":25.51},{"city":"Raleigh","state_name":"North Carolina","lat":35.72026,"lng":-78.73381,"zip":"27611","miles_from_dt":25.69},{"city":"Garner","state_name":"North Carolina","lat":35.65048,"lng":-78.58167,"zip":"27529","miles_from_dt":25.89},{"city":"Cary","state_name":"North Carolina","lat":35.76797,"lng":-78.79898,"zip":"27512","miles_from_dt":25.92},{"city":"Nashville","state_name":"North Carolina","lat":36.00998,"lng":-77.98151,"zip":"27856","miles_from_dt":25.93},{"city":"Bahama","state_name":"North Carolina","lat":36.15832,"lng":-78.87757,"zip":"27503","miles_from_dt":26.33},{"city":"Raleigh","state_name":"North Carolina","lat":35.67064,"lng":-78.66373,"zip":"27699","miles_from_dt":26.38},{"city":"Durham","state_name":"North Carolina","lat":36.09606,"lng":-78.90481,"zip":"27712","miles_from_dt":26.46},{"city":"Cary","state_name":"North Carolina","lat":35.72927,"lng":-78.7736,"zip":"27518","miles_from_dt":26.71},{"city":"Raleigh","state_name":"North Carolina","lat":35.66408,"lng":-78.66186,"zip":"27603","miles_from_dt":26.73},{"city":"Oxford","state_name":"North Carolina","lat":36.36203,"lng":-78.64604,"zip":"27565","miles_from_dt":26.82},{"city":"Clayton","state_name":"North Carolina","lat":35.61274,"lng":-78.47075,"zip":"27520","miles_from_dt":27.36},{"city":"Sims","state_name":"North Carolina","lat":35.73656,"lng":-78.08912,"zip":"27880","miles_from_dt":27.4},{"city":"Durham","state_name":"North Carolina","lat":35.99683,"lng":-78.93799,"zip":"27706","miles_from_dt":27.66},{"city":"Durham","state_name":"North Carolina","lat":36.00177,"lng":-78.94072,"zip":"27710","miles_from_dt":27.8},{"city":"Middleburg","state_name":"North Carolina","lat":36.39869,"lng":-78.31294,"zip":"27556","miles_from_dt":27.85},{"city":"Durham","state_name":"North Carolina","lat":36.00009,"lng":-78.94305,"zip":"27708","miles_from_dt":27.94},{"city":"Cary","state_name":"North Carolina","lat":35.80815,"lng":-78.88711,"zip":"27519","miles_from_dt":28.43},{"city":"Warrenton","state_name":"North Carolina","lat":36.33461,"lng":-78.12819,"zip":"27589","miles_from_dt":28.57},{"city":"Durham","state_name":"North Carolina","lat":35.95623,"lng":-78.95163,"zip":"27717","miles_from_dt":28.65},{"city":"Durham","state_name":"North Carolina","lat":36.01368,"lng":-78.95914,"zip":"27715","miles_from_dt":28.83},{"city":"Durham","state_name":"North Carolina","lat":35.95463,"lng":-78.95451,"zip":"27707","miles_from_dt":28.83},{"city":"Durham","state_name":"North Carolina","lat":35.88401,"lng":-78.936,"zip":"27713","miles_from_dt":28.87},{"city":"Rougemont","state_name":"North Carolina","lat":36.24872,"lng":-78.88045,"zip":"27572","miles_from_dt":29.46},{"city":"Wilsons Mills","state_name":"North Carolina","lat":35.58579,"lng":-78.36231,"zip":"27593","miles_from_dt":29.54}],"targetCityZipCode":"27596","targetCityState":"North Carolina"},"__N_SSG":true}