{"pageProps":{"stateName":"Alabama","cityName":"albertville","nearbyCities":[{"city":"Boaz","state_name":"Alabama","lat":34.19105,"lng":-86.19531,"zip":"35957","miles_from_dt":5.65},{"city":"Douglas","state_name":"Alabama","lat":34.17087,"lng":-86.3229,"zip":"35964","miles_from_dt":6.69},{"city":"Guntersville","state_name":"Alabama","lat":34.34819,"lng":-86.32919,"zip":"35976","miles_from_dt":7.67},{"city":"Albertville","state_name":"Alabama","lat":34.33713,"lng":-86.1553,"zip":"35951","miles_from_dt":8.36},{"city":"Horton","state_name":"Alabama","lat":34.17719,"lng":-86.38335,"zip":"35980","miles_from_dt":8.76},{"city":"Boaz","state_name":"Alabama","lat":34.1433,"lng":-86.14799,"zip":"35956","miles_from_dt":9.91},{"city":"Walnut Grove","state_name":"Alabama","lat":34.06676,"lng":-86.3052,"zip":"35990","miles_from_dt":13.07},{"city":"Crossville","state_name":"Alabama","lat":34.29916,"lng":-86.03795,"zip":"35962","miles_from_dt":13.12},{"city":"Altoona","state_name":"Alabama","lat":34.05322,"lng":-86.3082,"zip":"35952","miles_from_dt":14.02},{"city":"Arab","state_name":"Alabama","lat":34.32545,"lng":-86.5033,"zip":"35016","miles_from_dt":14.78},{"city":"Attalla","state_name":"Alabama","lat":34.08952,"lng":-86.05771,"zip":"35954","miles_from_dt":16.16},{"city":"Geraldine","state_name":"Alabama","lat":34.36284,"lng":-86.0099,"zip":"35974","miles_from_dt":16.21},{"city":"Grant","state_name":"Alabama","lat":34.49414,"lng":-86.30497,"zip":"35747","miles_from_dt":16.84},{"city":"Groveoak","state_name":"Alabama","lat":34.43832,"lng":-86.06655,"zip":"35975","miles_from_dt":16.92},{"city":"Gallant","state_name":"Alabama","lat":33.98797,"lng":-86.24943,"zip":"35972","miles_from_dt":18.26},{"city":"Joppa","state_name":"Alabama","lat":34.30556,"lng":-86.58252,"zip":"35087","miles_from_dt":18.8},{"city":"Langston","state_name":"Alabama","lat":34.50676,"lng":-86.12609,"zip":"35755","miles_from_dt":19.11},{"city":"Blountsville","state_name":"Alabama","lat":34.10256,"lng":-86.5455,"zip":"35031","miles_from_dt":19.34},{"city":"Union Grove","state_name":"Alabama","lat":34.43731,"lng":-86.51673,"zip":"35175","miles_from_dt":19.41},{"city":"Holly Pond","state_name":"Alabama","lat":34.19718,"lng":-86.5931,"zip":"35083","miles_from_dt":19.44},{"city":"Gadsden","state_name":"Alabama","lat":34.07569,"lng":-85.98519,"zip":"35904","miles_from_dt":19.93},{"city":"Dawson","state_name":"Alabama","lat":34.35812,"lng":-85.93114,"zip":"35963","miles_from_dt":20.18},{"city":"New Hope","state_name":"Alabama","lat":34.54768,"lng":-86.38324,"zip":"35760","miles_from_dt":21.51},{"city":"Baileyton","state_name":"Alabama","lat":34.29828,"lng":-86.63496,"zip":"35019","miles_from_dt":21.67},{"city":"Fyffe","state_name":"Alabama","lat":34.45603,"lng":-85.9466,"zip":"35971","miles_from_dt":22.76},{"city":"Collinsville","state_name":"Alabama","lat":34.27753,"lng":-85.86241,"zip":"35961","miles_from_dt":22.83},{"city":"Steele","state_name":"Alabama","lat":33.91557,"lng":-86.23889,"zip":"35987","miles_from_dt":23.27},{"city":"Gadsden","state_name":"Alabama","lat":34.04848,"lng":-85.92395,"zip":"35901","miles_from_dt":23.86},{"city":"Rainbow City","state_name":"Alabama","lat":33.93159,"lng":-86.09033,"zip":"35906","miles_from_dt":24.18},{"city":"Oneonta","state_name":"Alabama","lat":33.9397,"lng":-86.454,"zip":"35121","miles_from_dt":24.27},{"city":"Section","state_name":"Alabama","lat":34.53635,"lng":-85.99843,"zip":"35771","miles_from_dt":24.62},{"city":"Gadsden","state_name":"Alabama","lat":34.00028,"lng":-85.95643,"zip":"35902","miles_from_dt":24.62},{"city":"Scottsboro","state_name":"Alabama","lat":34.59255,"lng":-86.09472,"zip":"35769","miles_from_dt":25.26},{"city":"Huntsville","state_name":"Alabama","lat":34.56476,"lng":-86.52185,"zip":"35803","miles_from_dt":26.19},{"city":"Cullman","state_name":"Alabama","lat":34.23082,"lng":-86.73265,"zip":"35058","miles_from_dt":27.08},{"city":"Laceys Spring","state_name":"Alabama","lat":34.51819,"lng":-86.61099,"zip":"35754","miles_from_dt":27.14},{"city":"Eva","state_name":"Alabama","lat":34.34967,"lng":-86.7239,"zip":"35621","miles_from_dt":27.35},{"city":"Gadsden","state_name":"Alabama","lat":34.03144,"lng":-85.85703,"zip":"35903","miles_from_dt":27.69},{"city":"Gadsden","state_name":"Alabama","lat":33.89874,"lng":-86.02408,"zip":"35907","miles_from_dt":27.91},{"city":"Owens Cross Roads","state_name":"Alabama","lat":34.62022,"lng":-86.46615,"zip":"35763","miles_from_dt":27.93},{"city":"Woodville","state_name":"Alabama","lat":34.66083,"lng":-86.24338,"zip":"35776","miles_from_dt":28.15},{"city":"Cleveland","state_name":"Alabama","lat":33.95674,"lng":-86.59904,"zip":"35049","miles_from_dt":28.17},{"city":"Allgood","state_name":"Alabama","lat":33.90166,"lng":-86.51785,"zip":"35013","miles_from_dt":28.35},{"city":"Leesburg","state_name":"Alabama","lat":34.17088,"lng":-85.76746,"zip":"35983","miles_from_dt":28.78},{"city":"Cullman","state_name":"Alabama","lat":34.1542,"lng":-86.75932,"zip":"35055","miles_from_dt":29.38},{"city":"Rainsville","state_name":"Alabama","lat":34.50524,"lng":-85.84012,"zip":"35986","miles_from_dt":29.65}],"targetCityZipCode":"35950","targetCityState":"Alabama"},"__N_SSG":true}