{"pageProps":{"stateName":"Alabama","cityName":"attalla","nearbyCities":[{"city":"Gadsden","state_name":"Alabama","lat":34.07569,"lng":-85.98519,"zip":"35904","miles_from_dt":4.27},{"city":"Boaz","state_name":"Alabama","lat":34.1433,"lng":-86.14799,"zip":"35956","miles_from_dt":6.37},{"city":"Gadsden","state_name":"Alabama","lat":34.04848,"lng":-85.92395,"zip":"35901","miles_from_dt":8.18},{"city":"Gadsden","state_name":"Alabama","lat":34.00028,"lng":-85.95643,"zip":"35902","miles_from_dt":8.46},{"city":"Boaz","state_name":"Alabama","lat":34.19105,"lng":-86.19531,"zip":"35957","miles_from_dt":10.54},{"city":"Rainbow City","state_name":"Alabama","lat":33.93159,"lng":-86.09033,"zip":"35906","miles_from_dt":11.05},{"city":"Gadsden","state_name":"Alabama","lat":34.03144,"lng":-85.85703,"zip":"35903","miles_from_dt":12.19},{"city":"Gallant","state_name":"Alabama","lat":33.98797,"lng":-86.24943,"zip":"35972","miles_from_dt":13.04},{"city":"Gadsden","state_name":"Alabama","lat":33.89874,"lng":-86.02408,"zip":"35907","miles_from_dt":13.29},{"city":"Gadsden","state_name":"Alabama","lat":33.93667,"lng":-85.89842,"zip":"35905","miles_from_dt":13.95},{"city":"Walnut Grove","state_name":"Alabama","lat":34.06676,"lng":-86.3052,"zip":"35990","miles_from_dt":14.28},{"city":"Crossville","state_name":"Alabama","lat":34.29916,"lng":-86.03795,"zip":"35962","miles_from_dt":14.49},{"city":"Altoona","state_name":"Alabama","lat":34.05322,"lng":-86.3082,"zip":"35952","miles_from_dt":14.58},{"city":"Steele","state_name":"Alabama","lat":33.91557,"lng":-86.23889,"zip":"35987","miles_from_dt":15.87},{"city":"Albertville","state_name":"Alabama","lat":34.25273,"lng":-86.26023,"zip":"35950","miles_from_dt":16.16},{"city":"Douglas","state_name":"Alabama","lat":34.17087,"lng":-86.3229,"zip":"35964","miles_from_dt":16.2},{"city":"Collinsville","state_name":"Alabama","lat":34.27753,"lng":-85.86241,"zip":"35961","miles_from_dt":17.12},{"city":"Leesburg","state_name":"Alabama","lat":34.17088,"lng":-85.76746,"zip":"35983","miles_from_dt":17.56},{"city":"Wellington","state_name":"Alabama","lat":33.87237,"lng":-85.88645,"zip":"36279","miles_from_dt":17.91},{"city":"Albertville","state_name":"Alabama","lat":34.33713,"lng":-86.1553,"zip":"35951","miles_from_dt":17.96},{"city":"Geraldine","state_name":"Alabama","lat":34.36284,"lng":-86.0099,"zip":"35974","miles_from_dt":19.04},{"city":"Horton","state_name":"Alabama","lat":34.17719,"lng":-86.38335,"zip":"35980","miles_from_dt":19.62},{"city":"Dawson","state_name":"Alabama","lat":34.35812,"lng":-85.93114,"zip":"35963","miles_from_dt":19.88},{"city":"Ashville","state_name":"Alabama","lat":33.81058,"lng":-86.20986,"zip":"35953","miles_from_dt":21.12},{"city":"Ohatchee","state_name":"Alabama","lat":33.78215,"lng":-86.01624,"zip":"36271","miles_from_dt":21.32},{"city":"Jacksonville","state_name":"Alabama","lat":33.84659,"lng":-85.78662,"zip":"36265","miles_from_dt":22.86},{"city":"Guntersville","state_name":"Alabama","lat":34.34819,"lng":-86.32919,"zip":"35976","miles_from_dt":23.65},{"city":"Groveoak","state_name":"Alabama","lat":34.43832,"lng":-86.06655,"zip":"35975","miles_from_dt":24.05},{"city":"Alexandria","state_name":"Alabama","lat":33.76564,"lng":-85.89675,"zip":"36250","miles_from_dt":24.16},{"city":"Oneonta","state_name":"Alabama","lat":33.9397,"lng":-86.454,"zip":"35121","miles_from_dt":24.98},{"city":"Fyffe","state_name":"Alabama","lat":34.45603,"lng":-85.9466,"zip":"35971","miles_from_dt":26.05},{"city":"Weaver","state_name":"Alabama","lat":33.7609,"lng":-85.81541,"zip":"36277","miles_from_dt":26.59},{"city":"Ragland","state_name":"Alabama","lat":33.72062,"lng":-86.19965,"zip":"35131","miles_from_dt":26.7},{"city":"Anniston","state_name":"Alabama","lat":33.71868,"lng":-85.8756,"zip":"36202","miles_from_dt":27.62},{"city":"Piedmont","state_name":"Alabama","lat":33.94441,"lng":-85.60454,"zip":"36272","miles_from_dt":27.87},{"city":"Cedar Bluff","state_name":"Alabama","lat":34.23968,"lng":-85.60575,"zip":"35959","miles_from_dt":27.89},{"city":"Blountsville","state_name":"Alabama","lat":34.10256,"lng":-86.5455,"zip":"35031","miles_from_dt":27.98},{"city":"Centre","state_name":"Alabama","lat":34.12515,"lng":-85.56786,"zip":"35960","miles_from_dt":28.19},{"city":"Anniston","state_name":"Alabama","lat":33.73225,"lng":-85.81638,"zip":"36206","miles_from_dt":28.26},{"city":"Langston","state_name":"Alabama","lat":34.50676,"lng":-86.12609,"zip":"35755","miles_from_dt":29.02},{"city":"Allgood","state_name":"Alabama","lat":33.90166,"lng":-86.51785,"zip":"35013","miles_from_dt":29.42},{"city":"Fort Payne","state_name":"Alabama","lat":34.3981,"lng":-85.69698,"zip":"35967","miles_from_dt":29.64},{"city":"Springville","state_name":"Alabama","lat":33.79275,"lng":-86.43258,"zip":"35146","miles_from_dt":29.7},{"city":"Spring Garden","state_name":"Alabama","lat":33.97566,"lng":-85.55592,"zip":"36275","miles_from_dt":29.84}],"targetCityZipCode":"35954","targetCityState":"Alabama"},"__N_SSG":true}