{"pageProps":{"stateName":"Alabama","cityName":"belk","nearbyCities":[{"city":"Kennedy","state_name":"Alabama","lat":33.5683,"lng":-87.95757,"zip":"35574","miles_from_dt":5.3},{"city":"Fayette","state_name":"Alabama","lat":33.66829,"lng":-87.82309,"zip":"35555","miles_from_dt":6.5},{"city":"Vernon","state_name":"Alabama","lat":33.74315,"lng":-88.09672,"zip":"35592","miles_from_dt":11.8},{"city":"Millport","state_name":"Alabama","lat":33.582,"lng":-88.1315,"zip":"35576","miles_from_dt":12.26},{"city":"Bankston","state_name":"Alabama","lat":33.7083,"lng":-87.68161,"zip":"35542","miles_from_dt":15.1},{"city":"Reform","state_name":"Alabama","lat":33.39852,"lng":-88.03934,"zip":"35481","miles_from_dt":17.9},{"city":"Elrod","state_name":"Alabama","lat":33.3814,"lng":-87.79713,"zip":"35458","miles_from_dt":19.57},{"city":"Samantha","state_name":"Alabama","lat":33.45656,"lng":-87.67047,"zip":"35482","miles_from_dt":19.76},{"city":"Sulligent","state_name":"Alabama","lat":33.87332,"lng":-88.13837,"zip":"35586","miles_from_dt":19.9},{"city":"Winfield","state_name":"Alabama","lat":33.92222,"lng":-87.7813,"zip":"35594","miles_from_dt":21.15},{"city":"Glen Allen","state_name":"Alabama","lat":33.91166,"lng":-87.73537,"zip":"35559","miles_from_dt":21.74},{"city":"McShan","state_name":"Alabama","lat":33.38104,"lng":-88.14272,"zip":"35471","miles_from_dt":21.74},{"city":"Beaverton","state_name":"Alabama","lat":33.95392,"lng":-88.02022,"zip":"35544","miles_from_dt":22.09},{"city":"Berry","state_name":"Alabama","lat":33.60555,"lng":-87.54763,"zip":"35546","miles_from_dt":22.27},{"city":"Ethelsville","state_name":"Alabama","lat":33.41749,"lng":-88.21158,"zip":"35461","miles_from_dt":22.38},{"city":"Steens","state_name":"Mississippi","lat":33.5876,"lng":-88.31598,"zip":"39766","miles_from_dt":22.49},{"city":"Caledonia","state_name":"Mississippi","lat":33.71668,"lng":-88.31287,"zip":"39740","miles_from_dt":22.57},{"city":"Gattman","state_name":"Mississippi","lat":33.839,"lng":-88.25593,"zip":"38844","miles_from_dt":23.09},{"city":"Eldridge","state_name":"Alabama","lat":33.89745,"lng":-87.65593,"zip":"35554","miles_from_dt":23.69},{"city":"Guin","state_name":"Alabama","lat":33.99678,"lng":-87.90149,"zip":"35563","miles_from_dt":24.51},{"city":"Northport","state_name":"Alabama","lat":33.42792,"lng":-87.5854,"zip":"35475","miles_from_dt":24.84},{"city":"Echola","state_name":"Alabama","lat":33.29891,"lng":-87.77229,"zip":"35457","miles_from_dt":25.38},{"city":"Carbon Hill","state_name":"Alabama","lat":33.83474,"lng":-87.55001,"zip":"35549","miles_from_dt":25.67},{"city":"Gordo","state_name":"Alabama","lat":33.25904,"lng":-87.91554,"zip":"35466","miles_from_dt":26.42},{"city":"Columbus","state_name":"Mississippi","lat":33.43876,"lng":-88.34493,"zip":"39702","miles_from_dt":27.67},{"city":"Kansas","state_name":"Alabama","lat":33.90137,"lng":-87.54999,"zip":"35573","miles_from_dt":28.31},{"city":"Coker","state_name":"Alabama","lat":33.28349,"lng":-87.6854,"zip":"35452","miles_from_dt":28.51},{"city":"Hamilton","state_name":"Mississippi","lat":33.74697,"lng":-88.41544,"zip":"39746","miles_from_dt":28.8},{"city":"Greenwood Springs","state_name":"Mississippi","lat":33.94523,"lng":-88.27797,"zip":"38848","miles_from_dt":28.88},{"city":"Columbus","state_name":"Mississippi","lat":33.58669,"lng":-88.43705,"zip":"39705","miles_from_dt":29.4},{"city":"Carrollton","state_name":"Alabama","lat":33.25701,"lng":-88.15716,"zip":"35447","miles_from_dt":29.57},{"city":"Townley","state_name":"Alabama","lat":33.80071,"lng":-87.4521,"zip":"35587","miles_from_dt":29.69}],"targetCityZipCode":"35545","targetCityState":"Alabama"},"__N_SSG":true}