{"pageProps":{"stateName":"Alabama","cityName":"billingsley","nearbyCities":[{"city":"Jones","state_name":"Alabama","lat":32.54759,"lng":-86.85303,"zip":"36749","miles_from_dt":9.73},{"city":"Plantersville","state_name":"Alabama","lat":32.6491,"lng":-86.89975,"zip":"36758","miles_from_dt":10.2},{"city":"Maplesville","state_name":"Alabama","lat":32.78396,"lng":-86.84361,"zip":"36750","miles_from_dt":12.18},{"city":"Clanton","state_name":"Alabama","lat":32.81127,"lng":-86.67249,"zip":"35045","miles_from_dt":12.31},{"city":"Stanton","state_name":"Alabama","lat":32.72758,"lng":-86.9107,"zip":"36790","miles_from_dt":12.43},{"city":"Prattville","state_name":"Alabama","lat":32.51134,"lng":-86.57084,"zip":"36067","miles_from_dt":12.56},{"city":"Autaugaville","state_name":"Alabama","lat":32.44651,"lng":-86.72536,"zip":"36003","miles_from_dt":13.22},{"city":"Booth","state_name":"Alabama","lat":32.49747,"lng":-86.56416,"zip":"36008","miles_from_dt":13.51},{"city":"Verbena","state_name":"Alabama","lat":32.74881,"lng":-86.52021,"zip":"36091","miles_from_dt":14.17},{"city":"Marbury","state_name":"Alabama","lat":32.68771,"lng":-86.488,"zip":"36051","miles_from_dt":14.25},{"city":"Thorsby","state_name":"Alabama","lat":32.87823,"lng":-86.74636,"zip":"35171","miles_from_dt":16.58},{"city":"Selma","state_name":"Alabama","lat":32.43387,"lng":-86.91118,"zip":"36703","miles_from_dt":17.78},{"city":"Deatsville","state_name":"Alabama","lat":32.61951,"lng":-86.40492,"zip":"36022","miles_from_dt":18.73},{"city":"Prattville","state_name":"Alabama","lat":32.46122,"lng":-86.44463,"zip":"36068","miles_from_dt":20.43},{"city":"Prattville","state_name":"Alabama","lat":32.48216,"lng":-86.42431,"zip":"36066","miles_from_dt":20.6},{"city":"Lawley","state_name":"Alabama","lat":32.8292,"lng":-87.00947,"zip":"36793","miles_from_dt":21.14},{"city":"Selma","state_name":"Alabama","lat":32.49672,"lng":-87.0568,"zip":"36701","miles_from_dt":21.66},{"city":"Randolph","state_name":"Alabama","lat":32.92146,"lng":-86.91147,"zip":"36792","miles_from_dt":22.32},{"city":"Clanton","state_name":"Alabama","lat":32.923,"lng":-86.54127,"zip":"35046","miles_from_dt":22.35},{"city":"Elmore","state_name":"Alabama","lat":32.54664,"lng":-86.33941,"zip":"36025","miles_from_dt":23.38},{"city":"Jemison","state_name":"Alabama","lat":32.97975,"lng":-86.73584,"zip":"35085","miles_from_dt":23.54},{"city":"Selma","state_name":"Alabama","lat":32.40624,"lng":-87.02243,"zip":"36702","miles_from_dt":23.59},{"city":"Lowndesboro","state_name":"Alabama","lat":32.30628,"lng":-86.62544,"zip":"36752","miles_from_dt":23.61},{"city":"Millbrook","state_name":"Alabama","lat":32.46821,"lng":-86.35962,"zip":"36054","miles_from_dt":24.35},{"city":"Tyler","state_name":"Alabama","lat":32.27615,"lng":-86.82683,"zip":"36785","miles_from_dt":25.65},{"city":"Coosada","state_name":"Alabama","lat":32.49616,"lng":-86.31858,"zip":"36020","miles_from_dt":25.68},{"city":"Titus","state_name":"Alabama","lat":32.70497,"lng":-86.28662,"zip":"36080","miles_from_dt":25.98},{"city":"Montgomery","state_name":"Alabama","lat":32.38343,"lng":-86.36,"zip":"36112","miles_from_dt":27.63},{"city":"Montgomery","state_name":"Alabama","lat":32.33956,"lng":-86.40602,"zip":"36108","miles_from_dt":27.78},{"city":"Montgomery","state_name":"Alabama","lat":32.39808,"lng":-86.32848,"zip":"36119","miles_from_dt":28.47},{"city":"Montgomery","state_name":"Alabama","lat":32.38146,"lng":-86.34172,"zip":"36113","miles_from_dt":28.55},{"city":"Montgomery","state_name":"Alabama","lat":32.39794,"lng":-86.32683,"zip":"36103","miles_from_dt":28.56},{"city":"Montgomery","state_name":"Alabama","lat":32.39524,"lng":-86.32646,"zip":"36102","miles_from_dt":28.68},{"city":"Montgomery","state_name":"Alabama","lat":32.39889,"lng":-86.31593,"zip":"36104","miles_from_dt":29.04}],"targetCityZipCode":"36006","targetCityState":"Alabama"},"__N_SSG":true}