{"pageProps":{"stateName":"Alabama","cityName":"clopton","nearbyCities":[{"city":"Skipperville","state_name":"Alabama","lat":31.5723,"lng":-85.48956,"zip":"36374","miles_from_dt":7.42},{"city":"Clio","state_name":"Alabama","lat":31.68142,"lng":-85.55411,"zip":"36017","miles_from_dt":10.32},{"city":"Abbeville","state_name":"Alabama","lat":31.60296,"lng":-85.21229,"zip":"36310","miles_from_dt":10.57},{"city":"Newville","state_name":"Alabama","lat":31.4817,"lng":-85.36208,"zip":"36353","miles_from_dt":10.69},{"city":"Clayton","state_name":"Alabama","lat":31.84562,"lng":-85.4255,"zip":"36016","miles_from_dt":14.66},{"city":"Louisville","state_name":"Alabama","lat":31.79011,"lng":-85.59066,"zip":"36048","miles_from_dt":16.03},{"city":"Ariton","state_name":"Alabama","lat":31.60092,"lng":-85.68372,"zip":"36311","miles_from_dt":17.63},{"city":"Ozark","state_name":"Alabama","lat":31.46648,"lng":-85.61641,"zip":"36360","miles_from_dt":17.83},{"city":"Shorterville","state_name":"Alabama","lat":31.52131,"lng":-85.10355,"zip":"36373","miles_from_dt":18.5},{"city":"Headland","state_name":"Alabama","lat":31.3741,"lng":-85.31,"zip":"36345","miles_from_dt":18.57},{"city":"Ozark","state_name":"Alabama","lat":31.45446,"lng":-85.64796,"zip":"36361","miles_from_dt":19.79},{"city":"Midland City","state_name":"Alabama","lat":31.3435,"lng":-85.49669,"zip":"36350","miles_from_dt":21.11},{"city":"Eufaula","state_name":"Alabama","lat":31.88909,"lng":-85.14373,"zip":"36072","miles_from_dt":22.62},{"city":"Fort Gaines","state_name":"Georgia","lat":31.63432,"lng":-85.00086,"zip":"39851","miles_from_dt":22.79},{"city":"Eufaula","state_name":"Alabama","lat":31.93307,"lng":-85.20968,"zip":"36027","miles_from_dt":23.03},{"city":"Pinckard","state_name":"Alabama","lat":31.3208,"lng":-85.54738,"zip":"36371","miles_from_dt":23.64},{"city":"Brundidge","state_name":"Alabama","lat":31.66751,"lng":-85.81439,"zip":"36010","miles_from_dt":25.26},{"city":"Georgetown","state_name":"Georgia","lat":31.86713,"lng":-85.04881,"zip":"39854","miles_from_dt":25.55},{"city":"Dothan","state_name":"Alabama","lat":31.26389,"lng":-85.39213,"zip":"36303","miles_from_dt":25.59},{"city":"Columbia","state_name":"Alabama","lat":31.32367,"lng":-85.14931,"zip":"36319","miles_from_dt":25.67},{"city":"Banks","state_name":"Alabama","lat":31.88137,"lng":-85.72802,"zip":"36005","miles_from_dt":26.25},{"city":"Fort Rucker","state_name":"Alabama","lat":31.35072,"lng":-85.69027,"zip":"36362","miles_from_dt":26.53},{"city":"Webb","state_name":"Alabama","lat":31.25213,"lng":-85.26961,"zip":"36376","miles_from_dt":27.3},{"city":"Dothan","state_name":"Alabama","lat":31.23388,"lng":-85.40377,"zip":"36304","miles_from_dt":27.67},{"city":"Midway","state_name":"Alabama","lat":32.03514,"lng":-85.43945,"zip":"36053","miles_from_dt":27.72},{"city":"Dothan","state_name":"Alabama","lat":31.22718,"lng":-85.39588,"zip":"36302","miles_from_dt":28.12},{"city":"Newton","state_name":"Alabama","lat":31.25682,"lng":-85.61629,"zip":"36352","miles_from_dt":29.37}],"targetCityZipCode":"36317","targetCityState":"Alabama"},"__N_SSG":true}