{"pageProps":{"stateName":"Alabama","cityName":"coaling","nearbyCities":[{"city":"Cottondale","state_name":"Alabama","lat":33.16176,"lng":-87.387,"zip":"35453","miles_from_dt":2.82},{"city":"Vance","state_name":"Alabama","lat":33.21607,"lng":-87.24546,"zip":"35490","miles_from_dt":6.75},{"city":"Peterson","state_name":"Alabama","lat":33.2343,"lng":-87.42347,"zip":"35478","miles_from_dt":7.23},{"city":"Duncanville","state_name":"Alabama","lat":33.05651,"lng":-87.43515,"zip":"35456","miles_from_dt":8.92},{"city":"Tuscaloosa","state_name":"Alabama","lat":33.21661,"lng":-87.48655,"zip":"35404","miles_from_dt":9.49},{"city":"Woodstock","state_name":"Alabama","lat":33.18326,"lng":-87.17322,"zip":"35188","miles_from_dt":9.75},{"city":"Tuscaloosa","state_name":"Alabama","lat":33.16648,"lng":-87.52225,"zip":"35407","miles_from_dt":10.66},{"city":"Tuscaloosa","state_name":"Alabama","lat":33.2041,"lng":-87.52365,"zip":"35403","miles_from_dt":11.19},{"city":"West Blocton","state_name":"Alabama","lat":33.1152,"lng":-87.13931,"zip":"35184","miles_from_dt":11.92},{"city":"Tuscaloosa","state_name":"Alabama","lat":33.20674,"lng":-87.53919,"zip":"35486","miles_from_dt":12.11},{"city":"Abernant","state_name":"Alabama","lat":33.29256,"lng":-87.19789,"zip":"35440","miles_from_dt":12.39},{"city":"Brookwood","state_name":"Alabama","lat":33.33474,"lng":-87.30387,"zip":"35444","miles_from_dt":12.39},{"city":"Tuscaloosa","state_name":"Alabama","lat":33.12087,"lng":-87.55082,"zip":"35405","miles_from_dt":12.55},{"city":"Tuscaloosa","state_name":"Alabama","lat":33.21426,"lng":-87.54782,"zip":"35487","miles_from_dt":12.74},{"city":"Green Pond","state_name":"Alabama","lat":33.22235,"lng":-87.12415,"zip":"35074","miles_from_dt":13.21},{"city":"Tuscaloosa","state_name":"Alabama","lat":33.33194,"lng":-87.4683,"zip":"35406","miles_from_dt":14.19},{"city":"Tuscaloosa","state_name":"Alabama","lat":33.14849,"lng":-87.60966,"zip":"35402","miles_from_dt":15.72},{"city":"Tuscaloosa","state_name":"Alabama","lat":33.179,"lng":-87.61586,"zip":"35401","miles_from_dt":16.14},{"city":"Northport","state_name":"Alabama","lat":33.2271,"lng":-87.60464,"zip":"35476","miles_from_dt":16.14},{"city":"Northport","state_name":"Alabama","lat":33.27236,"lng":-87.58481,"zip":"35473","miles_from_dt":16.32},{"city":"McCalla","state_name":"Alabama","lat":33.28309,"lng":-87.09002,"zip":"35111","miles_from_dt":16.81},{"city":"Brent","state_name":"Alabama","lat":32.9016,"lng":-87.26948,"zip":"35034","miles_from_dt":18.07},{"city":"Centreville","state_name":"Alabama","lat":32.93297,"lng":-87.12542,"zip":"35042","miles_from_dt":19.8},{"city":"Moundville","state_name":"Alabama","lat":32.93679,"lng":-87.57226,"zip":"35474","miles_from_dt":20.36},{"city":"Adger","state_name":"Alabama","lat":33.43159,"lng":-87.19961,"zip":"35006","miles_from_dt":20.55},{"city":"Fosters","state_name":"Alabama","lat":33.0563,"lng":-87.68687,"zip":"35463","miles_from_dt":21.36},{"city":"Coker","state_name":"Alabama","lat":33.28349,"lng":-87.6854,"zip":"35452","miles_from_dt":21.89},{"city":"Brierfield","state_name":"Alabama","lat":33.04423,"lng":-86.97149,"zip":"35035","miles_from_dt":22.68},{"city":"Northport","state_name":"Alabama","lat":33.42792,"lng":-87.5854,"zip":"35475","miles_from_dt":23.49},{"city":"Buhl","state_name":"Alabama","lat":33.21642,"lng":-87.74833,"zip":"35446","miles_from_dt":24.09},{"city":"Bessemer","state_name":"Alabama","lat":33.33107,"lng":-86.95959,"zip":"35022","miles_from_dt":25.01},{"city":"Helena","state_name":"Alabama","lat":33.25508,"lng":-86.91894,"zip":"35080","miles_from_dt":25.23},{"city":"Bessemer","state_name":"Alabama","lat":33.46674,"lng":-87.08891,"zip":"35023","miles_from_dt":25.76},{"city":"Montevallo","state_name":"Alabama","lat":33.12133,"lng":-86.89605,"zip":"35115","miles_from_dt":25.78},{"city":"Echola","state_name":"Alabama","lat":33.29891,"lng":-87.77229,"zip":"35457","miles_from_dt":26.94},{"city":"Ralph","state_name":"Alabama","lat":33.09794,"lng":-87.80734,"zip":"35480","miles_from_dt":27.48},{"city":"Wilton","state_name":"Alabama","lat":33.07363,"lng":-86.87523,"zip":"35187","miles_from_dt":27.49},{"city":"Alabaster","state_name":"Alabama","lat":33.22274,"lng":-86.86739,"zip":"35114","miles_from_dt":27.68},{"city":"Bessemer","state_name":"Alabama","lat":33.40502,"lng":-86.95436,"zip":"35020","miles_from_dt":28.04},{"city":"Samantha","state_name":"Alabama","lat":33.45656,"lng":-87.67047,"zip":"35482","miles_from_dt":28.18},{"city":"Knoxville","state_name":"Alabama","lat":33.01447,"lng":-87.80578,"zip":"35469","miles_from_dt":28.83},{"city":"Lawley","state_name":"Alabama","lat":32.8292,"lng":-87.00947,"zip":"36793","miles_from_dt":29.61},{"city":"Randolph","state_name":"Alabama","lat":32.92146,"lng":-86.91147,"zip":"36792","miles_from_dt":29.65}],"targetCityZipCode":"35449","targetCityState":"Alabama"},"__N_SSG":true}