{"pageProps":{"stateName":"Alabama","cityName":"ethelsville","nearbyCities":[{"city":"McShan","state_name":"Alabama","lat":33.38104,"lng":-88.14272,"zip":"35471","miles_from_dt":4.71},{"city":"Columbus","state_name":"Mississippi","lat":33.43876,"lng":-88.34493,"zip":"39702","miles_from_dt":7.84},{"city":"Reform","state_name":"Alabama","lat":33.39852,"lng":-88.03934,"zip":"35481","miles_from_dt":10.04},{"city":"Carrollton","state_name":"Alabama","lat":33.25701,"lng":-88.15716,"zip":"35447","miles_from_dt":11.5},{"city":"Millport","state_name":"Alabama","lat":33.582,"lng":-88.1315,"zip":"35576","miles_from_dt":12.24},{"city":"Steens","state_name":"Mississippi","lat":33.5876,"lng":-88.31598,"zip":"39766","miles_from_dt":13.18},{"city":"Columbus","state_name":"Mississippi","lat":33.51744,"lng":-88.47993,"zip":"39704","miles_from_dt":16.96},{"city":"Columbus","state_name":"Mississippi","lat":33.51615,"lng":-88.4835,"zip":"39703","miles_from_dt":17.12},{"city":"Columbus","state_name":"Mississippi","lat":33.41091,"lng":-88.50807,"zip":"39701","miles_from_dt":17.14},{"city":"Columbus","state_name":"Mississippi","lat":33.58669,"lng":-88.43705,"zip":"39705","miles_from_dt":17.48},{"city":"Kennedy","state_name":"Alabama","lat":33.5683,"lng":-87.95757,"zip":"35574","miles_from_dt":17.98},{"city":"Gordo","state_name":"Alabama","lat":33.25904,"lng":-87.91554,"zip":"35466","miles_from_dt":20.31},{"city":"Columbus","state_name":"Mississippi","lat":33.63637,"lng":-88.45507,"zip":"39710","miles_from_dt":20.62},{"city":"Caledonia","state_name":"Mississippi","lat":33.71668,"lng":-88.31287,"zip":"39740","miles_from_dt":21.43},{"city":"Belk","state_name":"Alabama","lat":33.6421,"lng":-87.93147,"zip":"35545","miles_from_dt":22.38},{"city":"Vernon","state_name":"Alabama","lat":33.74315,"lng":-88.09672,"zip":"35592","miles_from_dt":23.4},{"city":"Elrod","state_name":"Alabama","lat":33.3814,"lng":-87.79713,"zip":"35458","miles_from_dt":24.09},{"city":"Crawford","state_name":"Mississippi","lat":33.31913,"lng":-88.61308,"zip":"39743","miles_from_dt":24.19},{"city":"Brooksville","state_name":"Mississippi","lat":33.23843,"lng":-88.57855,"zip":"39739","miles_from_dt":24.56},{"city":"Aliceville","state_name":"Alabama","lat":33.06016,"lng":-88.20159,"zip":"35442","miles_from_dt":24.63},{"city":"Mayhew","state_name":"Mississippi","lat":33.48441,"lng":-88.63052,"zip":"39753","miles_from_dt":24.64},{"city":"Artesia","state_name":"Mississippi","lat":33.4169,"lng":-88.64178,"zip":"39736","miles_from_dt":24.86},{"city":"Hamilton","state_name":"Mississippi","lat":33.74697,"lng":-88.41544,"zip":"39746","miles_from_dt":25.57},{"city":"Echola","state_name":"Alabama","lat":33.29891,"lng":-87.77229,"zip":"35457","miles_from_dt":26.69},{"city":"Fayette","state_name":"Alabama","lat":33.66829,"lng":-87.82309,"zip":"35555","miles_from_dt":28.31},{"city":"Gattman","state_name":"Mississippi","lat":33.839,"lng":-88.25593,"zip":"38844","miles_from_dt":29.16},{"city":"Macon","state_name":"Mississippi","lat":33.0998,"lng":-88.55702,"zip":"39341","miles_from_dt":29.65}],"targetCityZipCode":"35461","targetCityState":"Alabama"},"__N_SSG":true}