{"pageProps":{"stateName":"Alabama","cityName":"honoraville","nearbyCities":[{"city":"Highland Home","state_name":"Alabama","lat":31.92361,"lng":-86.32172,"zip":"36041","miles_from_dt":8.45},{"city":"Lapine","state_name":"Alabama","lat":31.9994,"lng":-86.33948,"zip":"36046","miles_from_dt":11.19},{"city":"Greenville","state_name":"Alabama","lat":31.79384,"lng":-86.62356,"zip":"36037","miles_from_dt":11.43},{"city":"Rutledge","state_name":"Alabama","lat":31.70534,"lng":-86.39815,"zip":"36071","miles_from_dt":11.5},{"city":"Fort Deposit","state_name":"Alabama","lat":31.99857,"lng":-86.57179,"zip":"36032","miles_from_dt":11.61},{"city":"Luverne","state_name":"Alabama","lat":31.76612,"lng":-86.28092,"zip":"36049","miles_from_dt":12.07},{"city":"Petrey","state_name":"Alabama","lat":31.84819,"lng":-86.20728,"zip":"36062","miles_from_dt":14.27},{"city":"Letohatchee","state_name":"Alabama","lat":32.07868,"lng":-86.52474,"zip":"36047","miles_from_dt":15.28},{"city":"Grady","state_name":"Alabama","lat":31.97541,"lng":-86.16063,"zip":"36036","miles_from_dt":18.53},{"city":"Goshen","state_name":"Alabama","lat":31.79285,"lng":-86.12415,"zip":"36035","miles_from_dt":19.77},{"city":"Chapman","state_name":"Alabama","lat":31.66352,"lng":-86.70022,"zip":"36015","miles_from_dt":20.36},{"city":"Brantley","state_name":"Alabama","lat":31.58395,"lng":-86.30531,"zip":"36009","miles_from_dt":21.23},{"city":"Hope Hull","state_name":"Alabama","lat":32.1939,"lng":-86.42811,"zip":"36043","miles_from_dt":22.59},{"city":"Ramer","state_name":"Alabama","lat":32.0905,"lng":-86.16008,"zip":"36069","miles_from_dt":22.93},{"city":"Georgiana","state_name":"Alabama","lat":31.66983,"lng":-86.771,"zip":"36033","miles_from_dt":23.3},{"city":"Forest Home","state_name":"Alabama","lat":31.86044,"lng":-86.85697,"zip":"36030","miles_from_dt":23.99},{"city":"Hayneville","state_name":"Alabama","lat":32.17795,"lng":-86.66972,"zip":"36040","miles_from_dt":25.07},{"city":"Montgomery","state_name":"Alabama","lat":32.21808,"lng":-86.28778,"zip":"36105","miles_from_dt":26},{"city":"Glenwood","state_name":"Alabama","lat":31.62308,"lng":-86.11155,"zip":"36034","miles_from_dt":26},{"city":"Dozier","state_name":"Alabama","lat":31.49031,"lng":-86.38271,"zip":"36028","miles_from_dt":26.21},{"city":"Troy","state_name":"Alabama","lat":31.76605,"lng":-86.01206,"zip":"36079","miles_from_dt":26.62},{"city":"Pine Level","state_name":"Alabama","lat":32.07003,"lng":-86.05701,"zip":"36065","miles_from_dt":26.96},{"city":"Troy","state_name":"Alabama","lat":31.80271,"lng":-85.95514,"zip":"36082","miles_from_dt":29.38}],"targetCityZipCode":"36042","targetCityState":"Alabama"},"__N_SSG":true}