{"pageProps":{"stateName":"Alabama","cityName":"letohatchee","nearbyCities":[{"city":"Fort Deposit","state_name":"Alabama","lat":31.99857,"lng":-86.57179,"zip":"36032","miles_from_dt":6.17},{"city":"Hope Hull","state_name":"Alabama","lat":32.1939,"lng":-86.42811,"zip":"36043","miles_from_dt":9.75},{"city":"Hayneville","state_name":"Alabama","lat":32.17795,"lng":-86.66972,"zip":"36040","miles_from_dt":10.91},{"city":"Lapine","state_name":"Alabama","lat":31.9994,"lng":-86.33948,"zip":"36046","miles_from_dt":12.17},{"city":"Honoraville","state_name":"Alabama","lat":31.86655,"lng":-86.44897,"zip":"36042","miles_from_dt":15.28},{"city":"Highland Home","state_name":"Alabama","lat":31.92361,"lng":-86.32172,"zip":"36041","miles_from_dt":16.01},{"city":"Lowndesboro","state_name":"Alabama","lat":32.30628,"lng":-86.62544,"zip":"36752","miles_from_dt":16.76},{"city":"Montgomery","state_name":"Alabama","lat":32.21808,"lng":-86.28778,"zip":"36105","miles_from_dt":16.89},{"city":"Montgomery","state_name":"Alabama","lat":32.33956,"lng":-86.40602,"zip":"36108","miles_from_dt":19.27},{"city":"Montgomery","state_name":"Alabama","lat":32.31304,"lng":-86.31813,"zip":"36125","miles_from_dt":20.18},{"city":"Greenville","state_name":"Alabama","lat":31.79384,"lng":-86.62356,"zip":"36037","miles_from_dt":20.47},{"city":"Ramer","state_name":"Alabama","lat":32.0905,"lng":-86.16008,"zip":"36069","miles_from_dt":21.41},{"city":"Tyler","state_name":"Alabama","lat":32.27615,"lng":-86.82683,"zip":"36785","miles_from_dt":22.33},{"city":"Montgomery","state_name":"Alabama","lat":32.32654,"lng":-86.27662,"zip":"36191","miles_from_dt":22.43},{"city":"Montgomery","state_name":"Alabama","lat":32.27312,"lng":-86.21765,"zip":"36116","miles_from_dt":22.44},{"city":"Grady","state_name":"Alabama","lat":31.97541,"lng":-86.16063,"zip":"36036","miles_from_dt":22.53},{"city":"Montgomery","state_name":"Alabama","lat":32.38343,"lng":-86.36,"zip":"36112","miles_from_dt":23.11},{"city":"Montgomery","state_name":"Alabama","lat":32.33755,"lng":-86.27154,"zip":"36111","miles_from_dt":23.2},{"city":"Montgomery","state_name":"Alabama","lat":32.31285,"lng":-86.23456,"zip":"36120","miles_from_dt":23.44},{"city":"Montgomery","state_name":"Alabama","lat":32.38146,"lng":-86.34172,"zip":"36113","miles_from_dt":23.46},{"city":"Montgomery","state_name":"Alabama","lat":32.36493,"lng":-86.29847,"zip":"36123","miles_from_dt":23.76},{"city":"Montgomery","state_name":"Alabama","lat":32.38105,"lng":-86.31045,"zip":"36142","miles_from_dt":24.32},{"city":"Montgomery","state_name":"Alabama","lat":32.37897,"lng":-86.30372,"zip":"36177","miles_from_dt":24.41},{"city":"Montgomery","state_name":"Alabama","lat":32.37778,"lng":-86.29926,"zip":"36130","miles_from_dt":24.48},{"city":"Petrey","state_name":"Alabama","lat":31.84819,"lng":-86.20728,"zip":"36062","miles_from_dt":24.49},{"city":"Montgomery","state_name":"Alabama","lat":32.35264,"lng":-86.25793,"zip":"36106","miles_from_dt":24.51},{"city":"Montgomery","state_name":"Alabama","lat":32.37935,"lng":-86.2985,"zip":"36131","miles_from_dt":24.59},{"city":"Forest Home","state_name":"Alabama","lat":31.86044,"lng":-86.85697,"zip":"36030","miles_from_dt":24.64},{"city":"Montgomery","state_name":"Alabama","lat":32.39524,"lng":-86.32646,"zip":"36102","miles_from_dt":24.71},{"city":"Montgomery","state_name":"Alabama","lat":32.38177,"lng":-86.29763,"zip":"36101","miles_from_dt":24.76},{"city":"Montgomery","state_name":"Alabama","lat":32.39808,"lng":-86.32848,"zip":"36119","miles_from_dt":24.83},{"city":"Montgomery","state_name":"Alabama","lat":32.39794,"lng":-86.32683,"zip":"36103","miles_from_dt":24.86},{"city":"Montgomery","state_name":"Alabama","lat":32.39889,"lng":-86.31593,"zip":"36104","miles_from_dt":25.23},{"city":"Montgomery","state_name":"Alabama","lat":32.38434,"lng":-86.2795,"zip":"36107","miles_from_dt":25.49},{"city":"Luverne","state_name":"Alabama","lat":31.76612,"lng":-86.28092,"zip":"36049","miles_from_dt":25.87},{"city":"Minter","state_name":"Alabama","lat":32.07872,"lng":-86.97602,"zip":"36761","miles_from_dt":26.47},{"city":"Sardis","state_name":"Alabama","lat":32.20066,"lng":-86.95487,"zip":"36775","miles_from_dt":26.58},{"city":"Prattville","state_name":"Alabama","lat":32.46122,"lng":-86.44463,"zip":"36068","miles_from_dt":26.77},{"city":"Rutledge","state_name":"Alabama","lat":31.70534,"lng":-86.39815,"zip":"36071","miles_from_dt":26.78},{"city":"Montgomery","state_name":"Alabama","lat":32.38682,"lng":-86.24052,"zip":"36109","miles_from_dt":26.98},{"city":"Pine Level","state_name":"Alabama","lat":32.07003,"lng":-86.05701,"zip":"36065","miles_from_dt":27.45},{"city":"Montgomery","state_name":"Alabama","lat":32.40484,"lng":-86.24568,"zip":"36114","miles_from_dt":27.79},{"city":"Montgomery","state_name":"Alabama","lat":32.40698,"lng":-86.24783,"zip":"36118","miles_from_dt":27.83},{"city":"Montgomery","state_name":"Alabama","lat":32.40688,"lng":-86.24685,"zip":"36115","miles_from_dt":27.86},{"city":"Autaugaville","state_name":"Alabama","lat":32.44651,"lng":-86.72536,"zip":"36003","miles_from_dt":27.93},{"city":"Prattville","state_name":"Alabama","lat":32.48216,"lng":-86.42431,"zip":"36066","miles_from_dt":28.42},{"city":"Millbrook","state_name":"Alabama","lat":32.46821,"lng":-86.35962,"zip":"36054","miles_from_dt":28.53},{"city":"Montgomery","state_name":"Alabama","lat":32.3801,"lng":-86.18188,"zip":"36132","miles_from_dt":28.89},{"city":"Booth","state_name":"Alabama","lat":32.49747,"lng":-86.56416,"zip":"36008","miles_from_dt":28.95},{"city":"Mathews","state_name":"Alabama","lat":32.17935,"lng":-86.04309,"zip":"36052","miles_from_dt":29.08},{"city":"Furman","state_name":"Alabama","lat":32.02198,"lng":-87.02594,"zip":"36741","miles_from_dt":29.67},{"city":"Montgomery","state_name":"Alabama","lat":32.39363,"lng":-86.17574,"zip":"36124","miles_from_dt":29.81},{"city":"Prattville","state_name":"Alabama","lat":32.51134,"lng":-86.57084,"zip":"36067","miles_from_dt":29.93},{"city":"Montgomery","state_name":"Alabama","lat":32.44899,"lng":-86.25566,"zip":"36110","miles_from_dt":29.99}],"targetCityZipCode":"36047","targetCityState":"Alabama"},"__N_SSG":true}