{"pageProps":{"stateName":"Alabama","cityName":"louisville","nearbyCities":[{"city":"Clio","state_name":"Alabama","lat":31.68142,"lng":-85.55411,"zip":"36017","miles_from_dt":7.79},{"city":"Banks","state_name":"Alabama","lat":31.88137,"lng":-85.72802,"zip":"36005","miles_from_dt":10.24},{"city":"Clayton","state_name":"Alabama","lat":31.84562,"lng":-85.4255,"zip":"36016","miles_from_dt":10.44},{"city":"Ariton","state_name":"Alabama","lat":31.60092,"lng":-85.68372,"zip":"36311","miles_from_dt":14.14},{"city":"Brundidge","state_name":"Alabama","lat":31.66751,"lng":-85.81439,"zip":"36010","miles_from_dt":15.65},{"city":"Clopton","state_name":"Alabama","lat":31.63532,"lng":-85.38748,"zip":"36317","miles_from_dt":16.03},{"city":"Skipperville","state_name":"Alabama","lat":31.5723,"lng":-85.48956,"zip":"36374","miles_from_dt":16.15},{"city":"Perote","state_name":"Alabama","lat":31.9919,"lng":-85.75116,"zip":"36061","miles_from_dt":16.8},{"city":"Midway","state_name":"Alabama","lat":32.03514,"lng":-85.43945,"zip":"36053","miles_from_dt":19.08},{"city":"Troy","state_name":"Alabama","lat":31.90663,"lng":-85.89804,"zip":"36081","miles_from_dt":19.78},{"city":"Troy","state_name":"Alabama","lat":31.80271,"lng":-85.95514,"zip":"36082","miles_from_dt":21.47},{"city":"Ozark","state_name":"Alabama","lat":31.46648,"lng":-85.61641,"zip":"36360","miles_from_dt":22.35},{"city":"Ozark","state_name":"Alabama","lat":31.45446,"lng":-85.64796,"zip":"36361","miles_from_dt":23.37},{"city":"Eufaula","state_name":"Alabama","lat":31.93307,"lng":-85.20968,"zip":"36027","miles_from_dt":24.47},{"city":"Troy","state_name":"Alabama","lat":31.76605,"lng":-86.01206,"zip":"36079","miles_from_dt":24.86},{"city":"Newville","state_name":"Alabama","lat":31.4817,"lng":-85.36208,"zip":"36353","miles_from_dt":25.16},{"city":"Abbeville","state_name":"Alabama","lat":31.60296,"lng":-85.21229,"zip":"36310","miles_from_dt":25.75},{"city":"Jack","state_name":"Alabama","lat":31.55783,"lng":-85.9331,"zip":"36346","miles_from_dt":25.75},{"city":"Union Springs","state_name":"Alabama","lat":32.15745,"lng":-85.69872,"zip":"36089","miles_from_dt":26.09},{"city":"Eufaula","state_name":"Alabama","lat":31.88909,"lng":-85.14373,"zip":"36072","miles_from_dt":27.16}],"targetCityZipCode":"36048","targetCityState":"Alabama"},"__N_SSG":true}