{"pageProps":{"stateName":"Alabama","cityName":"rainbow-city","nearbyCities":[{"city":"Gadsden","state_name":"Alabama","lat":33.89874,"lng":-86.02408,"zip":"35907","miles_from_dt":4.43},{"city":"Steele","state_name":"Alabama","lat":33.91557,"lng":-86.23889,"zip":"35987","miles_from_dt":8.61},{"city":"Gadsden","state_name":"Alabama","lat":34.00028,"lng":-85.95643,"zip":"35902","miles_from_dt":9.03},{"city":"Gallant","state_name":"Alabama","lat":33.98797,"lng":-86.24943,"zip":"35972","miles_from_dt":9.93},{"city":"Ashville","state_name":"Alabama","lat":33.81058,"lng":-86.20986,"zip":"35953","miles_from_dt":10.81},{"city":"Gadsden","state_name":"Alabama","lat":33.93667,"lng":-85.89842,"zip":"35905","miles_from_dt":11.03},{"city":"Attalla","state_name":"Alabama","lat":34.08952,"lng":-86.05771,"zip":"35954","miles_from_dt":11.05},{"city":"Ohatchee","state_name":"Alabama","lat":33.78215,"lng":-86.01624,"zip":"36271","miles_from_dt":11.15},{"city":"Gadsden","state_name":"Alabama","lat":34.07569,"lng":-85.98519,"zip":"35904","miles_from_dt":11.62},{"city":"Wellington","state_name":"Alabama","lat":33.87237,"lng":-85.88645,"zip":"36279","miles_from_dt":12.41},{"city":"Gadsden","state_name":"Alabama","lat":34.04848,"lng":-85.92395,"zip":"35901","miles_from_dt":12.5},{"city":"Boaz","state_name":"Alabama","lat":34.1433,"lng":-86.14799,"zip":"35956","miles_from_dt":14.96},{"city":"Gadsden","state_name":"Alabama","lat":34.03144,"lng":-85.85703,"zip":"35903","miles_from_dt":15.06},{"city":"Altoona","state_name":"Alabama","lat":34.05322,"lng":-86.3082,"zip":"35952","miles_from_dt":15.06},{"city":"Walnut Grove","state_name":"Alabama","lat":34.06676,"lng":-86.3052,"zip":"35990","miles_from_dt":15.46},{"city":"Ragland","state_name":"Alabama","lat":33.72062,"lng":-86.19965,"zip":"35131","miles_from_dt":15.84},{"city":"Alexandria","state_name":"Alabama","lat":33.76564,"lng":-85.89675,"zip":"36250","miles_from_dt":15.96},{"city":"Jacksonville","state_name":"Alabama","lat":33.84659,"lng":-85.78662,"zip":"36265","miles_from_dt":18.41},{"city":"Boaz","state_name":"Alabama","lat":34.19105,"lng":-86.19531,"zip":"35957","miles_from_dt":18.87},{"city":"Anniston","state_name":"Alabama","lat":33.71868,"lng":-85.8756,"zip":"36202","miles_from_dt":19.18},{"city":"Weaver","state_name":"Alabama","lat":33.7609,"lng":-85.81541,"zip":"36277","miles_from_dt":19.71},{"city":"Oneonta","state_name":"Alabama","lat":33.9397,"lng":-86.454,"zip":"35121","miles_from_dt":20.9},{"city":"Anniston","state_name":"Alabama","lat":33.73225,"lng":-85.81638,"zip":"36206","miles_from_dt":20.91},{"city":"Wattsville","state_name":"Alabama","lat":33.66056,"lng":-86.26333,"zip":"35182","miles_from_dt":21.17},{"city":"Douglas","state_name":"Alabama","lat":34.17087,"lng":-86.3229,"zip":"35964","miles_from_dt":21.21},{"city":"Lincoln","state_name":"Alabama","lat":33.62141,"lng":-86.10849,"zip":"35096","miles_from_dt":21.4},{"city":"Springville","state_name":"Alabama","lat":33.79275,"lng":-86.43258,"zip":"35146","miles_from_dt":21.88},{"city":"Riverside","state_name":"Alabama","lat":33.61814,"lng":-86.1991,"zip":"35135","miles_from_dt":22.49},{"city":"Anniston","state_name":"Alabama","lat":33.65082,"lng":-85.88264,"zip":"36201","miles_from_dt":22.74},{"city":"Anniston","state_name":"Alabama","lat":33.68477,"lng":-85.82212,"zip":"36204","miles_from_dt":22.97},{"city":"Anniston","state_name":"Alabama","lat":33.70037,"lng":-85.78898,"zip":"36205","miles_from_dt":23.55},{"city":"Bynum","state_name":"Alabama","lat":33.60249,"lng":-85.96263,"zip":"36253","miles_from_dt":23.84},{"city":"Horton","state_name":"Alabama","lat":34.17719,"lng":-86.38335,"zip":"35980","miles_from_dt":23.86},{"city":"Albertville","state_name":"Alabama","lat":34.25273,"lng":-86.26023,"zip":"35950","miles_from_dt":24.18},{"city":"Pell City","state_name":"Alabama","lat":33.62567,"lng":-86.29594,"zip":"35125","miles_from_dt":24.18},{"city":"Eastaboga","state_name":"Alabama","lat":33.58662,"lng":-86.00025,"zip":"36260","miles_from_dt":24.33},{"city":"Allgood","state_name":"Alabama","lat":33.90166,"lng":-86.51785,"zip":"35013","miles_from_dt":24.65},{"city":"Leesburg","state_name":"Alabama","lat":34.17088,"lng":-85.76746,"zip":"35983","miles_from_dt":24.8},{"city":"Crossville","state_name":"Alabama","lat":34.29916,"lng":-86.03795,"zip":"35962","miles_from_dt":25.51},{"city":"Odenville","state_name":"Alabama","lat":33.66777,"lng":-86.42064,"zip":"35120","miles_from_dt":26.3},{"city":"Collinsville","state_name":"Alabama","lat":34.27753,"lng":-85.86241,"zip":"35961","miles_from_dt":27.19},{"city":"Margaret","state_name":"Alabama","lat":33.69374,"lng":-86.47248,"zip":"35112","miles_from_dt":27.42},{"city":"Anniston","state_name":"Alabama","lat":33.68196,"lng":-85.71356,"zip":"36207","miles_from_dt":27.68},{"city":"Piedmont","state_name":"Alabama","lat":33.94441,"lng":-85.60454,"zip":"36272","miles_from_dt":27.92},{"city":"Albertville","state_name":"Alabama","lat":34.33713,"lng":-86.1553,"zip":"35951","miles_from_dt":28.2},{"city":"Oxford","state_name":"Alabama","lat":33.58205,"lng":-85.83312,"zip":"36203","miles_from_dt":28.28},{"city":"Blountsville","state_name":"Alabama","lat":34.10256,"lng":-86.5455,"zip":"35031","miles_from_dt":28.66},{"city":"De Armanville","state_name":"Alabama","lat":33.62852,"lng":-85.74325,"zip":"36257","miles_from_dt":28.9},{"city":"Cleveland","state_name":"Alabama","lat":33.95674,"lng":-86.59904,"zip":"35049","miles_from_dt":29.27},{"city":"Choccolocco","state_name":"Alabama","lat":33.65793,"lng":-85.6992,"zip":"36254","miles_from_dt":29.36},{"city":"Cook Springs","state_name":"Alabama","lat":33.59228,"lng":-86.40771,"zip":"35052","miles_from_dt":29.68}],"targetCityZipCode":"35906","targetCityState":"Alabama"},"__N_SSG":true}