{"pageProps":{"stateName":"Alabama","cityName":"samantha","nearbyCities":[{"city":"Northport","state_name":"Alabama","lat":33.42792,"lng":-87.5854,"zip":"35475","miles_from_dt":5.3},{"city":"Elrod","state_name":"Alabama","lat":33.3814,"lng":-87.79713,"zip":"35458","miles_from_dt":8.97},{"city":"Coker","state_name":"Alabama","lat":33.28349,"lng":-87.6854,"zip":"35452","miles_from_dt":11.96},{"city":"Echola","state_name":"Alabama","lat":33.29891,"lng":-87.77229,"zip":"35457","miles_from_dt":12.36},{"city":"Berry","state_name":"Alabama","lat":33.60555,"lng":-87.54763,"zip":"35546","miles_from_dt":12.48},{"city":"Northport","state_name":"Alabama","lat":33.27236,"lng":-87.58481,"zip":"35473","miles_from_dt":13.63},{"city":"Tuscaloosa","state_name":"Alabama","lat":33.33194,"lng":-87.4683,"zip":"35406","miles_from_dt":14.5},{"city":"Northport","state_name":"Alabama","lat":33.2271,"lng":-87.60464,"zip":"35476","miles_from_dt":16.27},{"city":"Fayette","state_name":"Alabama","lat":33.66829,"lng":-87.82309,"zip":"35555","miles_from_dt":17.04},{"city":"Buhl","state_name":"Alabama","lat":33.21642,"lng":-87.74833,"zip":"35446","miles_from_dt":17.15},{"city":"Bankston","state_name":"Alabama","lat":33.7083,"lng":-87.68161,"zip":"35542","miles_from_dt":17.36},{"city":"Tuscaloosa","state_name":"Alabama","lat":33.21426,"lng":-87.54782,"zip":"35487","miles_from_dt":18.14},{"city":"Kennedy","state_name":"Alabama","lat":33.5683,"lng":-87.95757,"zip":"35574","miles_from_dt":18.28},{"city":"Tuscaloosa","state_name":"Alabama","lat":33.20674,"lng":-87.53919,"zip":"35486","miles_from_dt":18.82},{"city":"Tuscaloosa","state_name":"Alabama","lat":33.2041,"lng":-87.52365,"zip":"35403","miles_from_dt":19.36},{"city":"Tuscaloosa","state_name":"Alabama","lat":33.179,"lng":-87.61586,"zip":"35401","miles_from_dt":19.39},{"city":"Gordo","state_name":"Alabama","lat":33.25904,"lng":-87.91554,"zip":"35466","miles_from_dt":19.65},{"city":"Tuscaloosa","state_name":"Alabama","lat":33.21661,"lng":-87.48655,"zip":"35404","miles_from_dt":19.66},{"city":"Belk","state_name":"Alabama","lat":33.6421,"lng":-87.93147,"zip":"35545","miles_from_dt":19.76},{"city":"Peterson","state_name":"Alabama","lat":33.2343,"lng":-87.42347,"zip":"35478","miles_from_dt":20.95},{"city":"Tuscaloosa","state_name":"Alabama","lat":33.14849,"lng":-87.60966,"zip":"35402","miles_from_dt":21.52},{"city":"Reform","state_name":"Alabama","lat":33.39852,"lng":-88.03934,"zip":"35481","miles_from_dt":21.69},{"city":"Tuscaloosa","state_name":"Alabama","lat":33.16648,"lng":-87.52225,"zip":"35407","miles_from_dt":21.75},{"city":"Oakman","state_name":"Alabama","lat":33.63069,"lng":-87.34441,"zip":"35579","miles_from_dt":22.32},{"city":"Brookwood","state_name":"Alabama","lat":33.33474,"lng":-87.30387,"zip":"35444","miles_from_dt":22.79},{"city":"Tuscaloosa","state_name":"Alabama","lat":33.12087,"lng":-87.55082,"zip":"35405","miles_from_dt":24.15},{"city":"Ralph","state_name":"Alabama","lat":33.09794,"lng":-87.80734,"zip":"35480","miles_from_dt":25.95},{"city":"Cottondale","state_name":"Alabama","lat":33.16176,"lng":-87.387,"zip":"35453","miles_from_dt":26.11},{"city":"Townley","state_name":"Alabama","lat":33.80071,"lng":-87.4521,"zip":"35587","miles_from_dt":26.85},{"city":"Carbon Hill","state_name":"Alabama","lat":33.83474,"lng":-87.55001,"zip":"35549","miles_from_dt":26.97},{"city":"Adger","state_name":"Alabama","lat":33.43159,"lng":-87.19961,"zip":"35006","miles_from_dt":27.26},{"city":"Fosters","state_name":"Alabama","lat":33.0563,"lng":-87.68687,"zip":"35463","miles_from_dt":27.6},{"city":"McShan","state_name":"Alabama","lat":33.38104,"lng":-88.14272,"zip":"35471","miles_from_dt":27.78},{"city":"Millport","state_name":"Alabama","lat":33.582,"lng":-88.1315,"zip":"35576","miles_from_dt":27.98},{"city":"Coaling","state_name":"Alabama","lat":33.15728,"lng":-87.33867,"zip":"35449","miles_from_dt":28.18},{"city":"Parrish","state_name":"Alabama","lat":33.7011,"lng":-87.27331,"zip":"35580","miles_from_dt":28.44},{"city":"Goodsprings","state_name":"Alabama","lat":33.666,"lng":-87.23106,"zip":"35560","miles_from_dt":29.17},{"city":"Abernant","state_name":"Alabama","lat":33.29256,"lng":-87.19789,"zip":"35440","miles_from_dt":29.57},{"city":"Vance","state_name":"Alabama","lat":33.21607,"lng":-87.24546,"zip":"35490","miles_from_dt":29.65}],"targetCityZipCode":"35482","targetCityState":"Alabama"},"__N_SSG":true}