{"pageProps":{"stateName":"Alabama","cityName":"tuskegee-institute","nearbyCities":[{"city":"Tuskegee","state_name":"Alabama","lat":32.39512,"lng":-85.68672,"zip":"36083","miles_from_dt":1.27},{"city":"Tuskegee Institute","state_name":"Alabama","lat":32.41911,"lng":-85.718,"zip":"36088","miles_from_dt":2.17},{"city":"Notasulga","state_name":"Alabama","lat":32.55468,"lng":-85.71459,"zip":"36866","miles_from_dt":9.95},{"city":"Fort Davis","state_name":"Alabama","lat":32.24944,"lng":-85.75157,"zip":"36031","miles_from_dt":11.99},{"city":"Hardaway","state_name":"Alabama","lat":32.28939,"lng":-85.82789,"zip":"36039","miles_from_dt":12.08},{"city":"Shorter","state_name":"Alabama","lat":32.38913,"lng":-85.91257,"zip":"36075","miles_from_dt":13.61},{"city":"Auburn","state_name":"Alabama","lat":32.5339,"lng":-85.49449,"zip":"36830","miles_from_dt":13.74},{"city":"Auburn","state_name":"Alabama","lat":32.59447,"lng":-85.58163,"zip":"36832","miles_from_dt":13.8},{"city":"Loachapoka","state_name":"Alabama","lat":32.60259,"lng":-85.58946,"zip":"36865","miles_from_dt":14.13},{"city":"East Tallassee","state_name":"Alabama","lat":32.60958,"lng":-85.81037,"zip":"36023","miles_from_dt":15.49},{"city":"Auburn University","state_name":"Alabama","lat":32.59953,"lng":-85.48858,"zip":"36849","miles_from_dt":17.09},{"city":"Tallassee","state_name":"Alabama","lat":32.53991,"lng":-85.93328,"zip":"36078","miles_from_dt":17.11},{"city":"Union Springs","state_name":"Alabama","lat":32.15745,"lng":-85.69872,"zip":"36089","miles_from_dt":17.64},{"city":"Auburn","state_name":"Alabama","lat":32.60679,"lng":-85.48034,"zip":"36831","miles_from_dt":17.79},{"city":"Hurtsboro","state_name":"Alabama","lat":32.26118,"lng":-85.42064,"zip":"36860","miles_from_dt":18.5},{"city":"Cecil","state_name":"Alabama","lat":32.2976,"lng":-85.97959,"zip":"36013","miles_from_dt":19.16},{"city":"Kent","state_name":"Alabama","lat":32.6188,"lng":-85.94954,"zip":"36045","miles_from_dt":21.12},{"city":"Fitzpatrick","state_name":"Alabama","lat":32.18479,"lng":-85.92953,"zip":"36029","miles_from_dt":21.4},{"city":"Opelika","state_name":"Alabama","lat":32.53045,"lng":-85.33875,"zip":"36804","miles_from_dt":21.6},{"city":"Waverly","state_name":"Alabama","lat":32.73091,"lng":-85.55449,"zip":"36879","miles_from_dt":23.13},{"city":"Hatchechubbee","state_name":"Alabama","lat":32.30061,"lng":-85.30138,"zip":"36858","miles_from_dt":23.54},{"city":"Mount Meigs","state_name":"Alabama","lat":32.37464,"lng":-86.08461,"zip":"36057","miles_from_dt":23.71},{"city":"Opelika","state_name":"Alabama","lat":32.64556,"lng":-85.37443,"zip":"36803","miles_from_dt":24.05},{"city":"Pike Road","state_name":"Alabama","lat":32.3008,"lng":-86.08186,"zip":"36064","miles_from_dt":24.66},{"city":"Opelika","state_name":"Alabama","lat":32.59491,"lng":-85.3142,"zip":"36802","miles_from_dt":24.84},{"city":"Camp Hill","state_name":"Alabama","lat":32.78857,"lng":-85.65336,"zip":"36850","miles_from_dt":25.93},{"city":"Opelika","state_name":"Alabama","lat":32.701,"lng":-85.39243,"zip":"36801","miles_from_dt":26.05},{"city":"Mathews","state_name":"Alabama","lat":32.17935,"lng":-86.04309,"zip":"36052","miles_from_dt":26.59},{"city":"Eclectic","state_name":"Alabama","lat":32.6654,"lng":-86.03312,"zip":"36024","miles_from_dt":26.9},{"city":"Montgomery","state_name":"Alabama","lat":32.37831,"lng":-86.14627,"zip":"36117","miles_from_dt":27.27},{"city":"Montgomery","state_name":"Alabama","lat":32.38287,"lng":-86.14671,"zip":"36140","miles_from_dt":27.27},{"city":"Montgomery","state_name":"Alabama","lat":32.38609,"lng":-86.14699,"zip":"36121","miles_from_dt":27.27},{"city":"Montgomery","state_name":"Alabama","lat":32.38691,"lng":-86.14808,"zip":"36141","miles_from_dt":27.33},{"city":"Wetumpka","state_name":"Alabama","lat":32.49584,"lng":-86.13956,"zip":"36093","miles_from_dt":27.36},{"city":"Montgomery","state_name":"Alabama","lat":32.38793,"lng":-86.15103,"zip":"36135","miles_from_dt":27.5},{"city":"Dadeville","state_name":"Alabama","lat":32.80557,"lng":-85.76809,"zip":"36853","miles_from_dt":27.52},{"city":"Montgomery","state_name":"Alabama","lat":32.39363,"lng":-86.17574,"zip":"36124","miles_from_dt":28.92},{"city":"Perote","state_name":"Alabama","lat":31.9919,"lng":-85.75116,"zip":"36061","miles_from_dt":29.3},{"city":"Montgomery","state_name":"Alabama","lat":32.3801,"lng":-86.18188,"zip":"36132","miles_from_dt":29.34},{"city":"Midway","state_name":"Alabama","lat":32.03514,"lng":-85.43945,"zip":"36053","miles_from_dt":29.65},{"city":"Salem","state_name":"Alabama","lat":32.56603,"lng":-85.20322,"zip":"36874","miles_from_dt":29.86}],"targetCityZipCode":"36087","targetCityState":"Alabama"},"__N_SSG":true}