{"pageProps":{"stateName":"Alabama","cityName":"uniontown","nearbyCities":[{"city":"Faunsdale","state_name":"Alabama","lat":32.43421,"lng":-87.62481,"zip":"36738","miles_from_dt":7.88},{"city":"Newbern","state_name":"Alabama","lat":32.59278,"lng":-87.51933,"zip":"36765","miles_from_dt":10.78},{"city":"Marion Junction","state_name":"Alabama","lat":32.42977,"lng":-87.28722,"zip":"36759","miles_from_dt":11.87},{"city":"Safford","state_name":"Alabama","lat":32.28252,"lng":-87.38607,"zip":"36773","miles_from_dt":12.34},{"city":"Gallion","state_name":"Alabama","lat":32.45836,"lng":-87.74215,"zip":"36742","miles_from_dt":14.8},{"city":"Thomaston","state_name":"Alabama","lat":32.24085,"lng":-87.6081,"zip":"36783","miles_from_dt":15.26},{"city":"Greensboro","state_name":"Alabama","lat":32.69178,"lng":-87.59845,"zip":"36744","miles_from_dt":18.58},{"city":"Catherine","state_name":"Alabama","lat":32.16625,"lng":-87.48416,"zip":"36728","miles_from_dt":18.75},{"city":"Linden","state_name":"Alabama","lat":32.27084,"lng":-87.77728,"zip":"36748","miles_from_dt":20.38},{"city":"Alberta","state_name":"Alabama","lat":32.16493,"lng":-87.34684,"zip":"36720","miles_from_dt":20.62},{"city":"Marion","state_name":"Alabama","lat":32.69327,"lng":-87.29873,"zip":"36756","miles_from_dt":20.81},{"city":"Orrville","state_name":"Alabama","lat":32.25083,"lng":-87.21042,"zip":"36767","miles_from_dt":20.84},{"city":"Magnolia","state_name":"Alabama","lat":32.15731,"lng":-87.70238,"zip":"36754","miles_from_dt":23.01},{"city":"Forkland","state_name":"Alabama","lat":32.62421,"lng":-87.83209,"zip":"36740","miles_from_dt":23.72},{"city":"Jefferson","state_name":"Alabama","lat":32.38754,"lng":-87.90205,"zip":"36745","miles_from_dt":24.34},{"city":"Demopolis","state_name":"Alabama","lat":32.41638,"lng":-87.91367,"zip":"36732","miles_from_dt":24.8},{"city":"Arlington","state_name":"Alabama","lat":32.08124,"lng":-87.57661,"zip":"36722","miles_from_dt":25.12},{"city":"Selma","state_name":"Alabama","lat":32.49672,"lng":-87.0568,"zip":"36701","miles_from_dt":25.62},{"city":"Sawyerville","state_name":"Alabama","lat":32.74513,"lng":-87.74488,"zip":"36776","miles_from_dt":25.85},{"city":"Selma","state_name":"Alabama","lat":32.40624,"lng":-87.02243,"zip":"36702","miles_from_dt":27.42},{"city":"Boykin","state_name":"Alabama","lat":32.06633,"lng":-87.2907,"zip":"36723","miles_from_dt":28.16},{"city":"Dixons Mills","state_name":"Alabama","lat":32.07832,"lng":-87.76444,"zip":"36736","miles_from_dt":29.55}],"targetCityZipCode":"36786","targetCityState":"Alabama"},"__N_SSG":true}