{"pageProps":{"stateName":"Alabama","cityName":"vincent","nearbyCities":[{"city":"Harpersville","state_name":"Alabama","lat":33.32279,"lng":-86.44116,"zip":"35078","miles_from_dt":7.11},{"city":"Cropwell","state_name":"Alabama","lat":33.50417,"lng":-86.32693,"zip":"35054","miles_from_dt":7.17},{"city":"Vandiver","state_name":"Alabama","lat":33.4817,"lng":-86.50221,"zip":"35176","miles_from_dt":7.28},{"city":"Sterrett","state_name":"Alabama","lat":33.41233,"lng":-86.53164,"zip":"35147","miles_from_dt":7.63},{"city":"Alpine","state_name":"Alabama","lat":33.36097,"lng":-86.25909,"zip":"35014","miles_from_dt":9.1},{"city":"Pell City","state_name":"Alabama","lat":33.54738,"lng":-86.34596,"zip":"35128","miles_from_dt":9.31},{"city":"Westover","state_name":"Alabama","lat":33.34903,"lng":-86.53871,"zip":"35185","miles_from_dt":9.4},{"city":"Childersburg","state_name":"Alabama","lat":33.26859,"lng":-86.36324,"zip":"35044","miles_from_dt":10.65},{"city":"Bon Air","state_name":"Alabama","lat":33.26321,"lng":-86.33408,"zip":"35032","miles_from_dt":11.46},{"city":"Leeds","state_name":"Alabama","lat":33.52057,"lng":-86.56127,"zip":"35094","miles_from_dt":11.61},{"city":"Cook Springs","state_name":"Alabama","lat":33.59228,"lng":-86.40771,"zip":"35052","miles_from_dt":11.88},{"city":"Wilsonville","state_name":"Alabama","lat":33.25699,"lng":-86.51442,"zip":"35186","miles_from_dt":13.04},{"city":"Moody","state_name":"Alabama","lat":33.60369,"lng":-86.49333,"zip":"35004","miles_from_dt":13.76},{"city":"Pell City","state_name":"Alabama","lat":33.62567,"lng":-86.29594,"zip":"35125","miles_from_dt":15.39},{"city":"Birmingham","state_name":"Alabama","lat":33.42371,"lng":-86.67073,"zip":"35242","miles_from_dt":15.65},{"city":"Sycamore","state_name":"Alabama","lat":33.24378,"lng":-86.20709,"zip":"35149","miles_from_dt":16.49},{"city":"Chelsea","state_name":"Alabama","lat":33.30926,"lng":-86.66028,"zip":"35043","miles_from_dt":16.88},{"city":"Odenville","state_name":"Alabama","lat":33.66777,"lng":-86.42064,"zip":"35120","miles_from_dt":17.12},{"city":"Talladega","state_name":"Alabama","lat":33.43765,"lng":-86.10313,"zip":"35161","miles_from_dt":17.19},{"city":"Birmingham","state_name":"Alabama","lat":33.5431,"lng":-86.6661,"zip":"35210","miles_from_dt":17.56},{"city":"Talladega","state_name":"Alabama","lat":33.36898,"lng":-86.1005,"zip":"35160","miles_from_dt":17.66},{"city":"Alton","state_name":"Alabama","lat":33.57976,"lng":-86.63904,"zip":"35015","miles_from_dt":17.66},{"city":"Riverside","state_name":"Alabama","lat":33.61814,"lng":-86.1991,"zip":"35135","miles_from_dt":17.91},{"city":"Wattsville","state_name":"Alabama","lat":33.66056,"lng":-86.26333,"zip":"35182","miles_from_dt":18.36},{"city":"Sylacauga","state_name":"Alabama","lat":33.18581,"lng":-86.24454,"zip":"35150","miles_from_dt":18.48},{"city":"Trussville","state_name":"Alabama","lat":33.65284,"lng":-86.56337,"zip":"35173","miles_from_dt":18.61},{"city":"Margaret","state_name":"Alabama","lat":33.69374,"lng":-86.47248,"zip":"35112","miles_from_dt":19.32},{"city":"Columbiana","state_name":"Alabama","lat":33.20457,"lng":-86.61523,"zip":"35051","miles_from_dt":19.38},{"city":"Birmingham","state_name":"Alabama","lat":33.44185,"lng":-86.74055,"zip":"35243","miles_from_dt":19.74},{"city":"Birmingham","state_name":"Alabama","lat":33.61723,"lng":-86.65008,"zip":"35235","miles_from_dt":19.83},{"city":"Birmingham","state_name":"Alabama","lat":33.48777,"lng":-86.73605,"zip":"35223","miles_from_dt":19.97},{"city":"Birmingham","state_name":"Alabama","lat":33.48622,"lng":-86.74039,"zip":"35253","miles_from_dt":20.19},{"city":"Birmingham","state_name":"Alabama","lat":33.50659,"lng":-86.74241,"zip":"35213","miles_from_dt":20.66},{"city":"Birmingham","state_name":"Alabama","lat":33.57024,"lng":-86.71328,"zip":"35206","miles_from_dt":20.85},{"city":"Birmingham","state_name":"Alabama","lat":33.57331,"lng":-86.71532,"zip":"35261","miles_from_dt":21.05},{"city":"Birmingham","state_name":"Alabama","lat":33.46311,"lng":-86.76941,"zip":"35288","miles_from_dt":21.55},{"city":"Sylacauga","state_name":"Alabama","lat":33.108,"lng":-86.36704,"zip":"35151","miles_from_dt":21.59},{"city":"Birmingham","state_name":"Alabama","lat":33.55009,"lng":-86.74132,"zip":"35290","miles_from_dt":21.66},{"city":"Lincoln","state_name":"Alabama","lat":33.62141,"lng":-86.10849,"zip":"35096","miles_from_dt":21.81},{"city":"Pelham","state_name":"Alabama","lat":33.31368,"lng":-86.76194,"zip":"35124","miles_from_dt":22.18},{"city":"Birmingham","state_name":"Alabama","lat":33.54765,"lng":-86.75272,"zip":"35212","miles_from_dt":22.19},{"city":"Birmingham","state_name":"Alabama","lat":33.53589,"lng":-86.75836,"zip":"35232","miles_from_dt":22.19},{"city":"Birmingham","state_name":"Alabama","lat":33.41995,"lng":-86.78746,"zip":"35216","miles_from_dt":22.4},{"city":"Birmingham","state_name":"Alabama","lat":33.52378,"lng":-86.76994,"zip":"35222","miles_from_dt":22.54},{"city":"Birmingham","state_name":"Alabama","lat":33.44685,"lng":-86.79016,"zip":"35266","miles_from_dt":22.62},{"city":"Birmingham","state_name":"Alabama","lat":33.49321,"lng":-86.78175,"zip":"35297","miles_from_dt":22.63},{"city":"Birmingham","state_name":"Alabama","lat":33.46434,"lng":-86.79399,"zip":"35229","miles_from_dt":22.97},{"city":"Hollins","state_name":"Alabama","lat":33.1563,"lng":-86.15456,"zip":"35082","miles_from_dt":23.07},{"city":"Birmingham","state_name":"Alabama","lat":33.49562,"lng":-86.79434,"zip":"35282","miles_from_dt":23.37},{"city":"Birmingham","state_name":"Alabama","lat":33.64911,"lng":-86.70435,"zip":"35215","miles_from_dt":23.62},{"city":"Birmingham","state_name":"Alabama","lat":33.41491,"lng":-86.80948,"zip":"35296","miles_from_dt":23.67},{"city":"Ragland","state_name":"Alabama","lat":33.72062,"lng":-86.19965,"zip":"35131","miles_from_dt":23.72},{"city":"Birmingham","state_name":"Alabama","lat":33.49949,"lng":-86.80079,"zip":"35298","miles_from_dt":23.79},{"city":"Birmingham","state_name":"Alabama","lat":33.51077,"lng":-86.79809,"zip":"35270","miles_from_dt":23.83},{"city":"Clay","state_name":"Alabama","lat":33.73566,"lng":-86.57021,"zip":"35048","miles_from_dt":23.87},{"city":"Birmingham","state_name":"Alabama","lat":33.46507,"lng":-86.81107,"zip":"35209","miles_from_dt":23.96},{"city":"Birmingham","state_name":"Alabama","lat":33.50916,"lng":-86.80132,"zip":"35233","miles_from_dt":23.99},{"city":"Birmingham","state_name":"Alabama","lat":33.50657,"lng":-86.80316,"zip":"35249","miles_from_dt":24.04},{"city":"Birmingham","state_name":"Alabama","lat":33.49509,"lng":-86.8084,"zip":"35205","miles_from_dt":24.16},{"city":"Birmingham","state_name":"Alabama","lat":33.51809,"lng":-86.8023,"zip":"35238","miles_from_dt":24.2},{"city":"Birmingham","state_name":"Alabama","lat":33.51952,"lng":-86.80188,"zip":"35246","miles_from_dt":24.21},{"city":"Birmingham","state_name":"Alabama","lat":33.51135,"lng":-86.80484,"zip":"35295","miles_from_dt":24.22},{"city":"Birmingham","state_name":"Alabama","lat":33.49351,"lng":-86.8103,"zip":"35255","miles_from_dt":24.24},{"city":"Birmingham","state_name":"Alabama","lat":33.5125,"lng":-86.80502,"zip":"35292","miles_from_dt":24.25},{"city":"Birmingham","state_name":"Alabama","lat":33.52056,"lng":-86.8025,"zip":"35259","miles_from_dt":24.26},{"city":"Birmingham","state_name":"Alabama","lat":33.51309,"lng":-86.80643,"zip":"35291","miles_from_dt":24.34},{"city":"Birmingham","state_name":"Alabama","lat":33.51635,"lng":-86.80581,"zip":"35202","miles_from_dt":24.37},{"city":"Birmingham","state_name":"Alabama","lat":33.51011,"lng":-86.80787,"zip":"35294","miles_from_dt":24.37},{"city":"Birmingham","state_name":"Alabama","lat":33.5139,"lng":-86.80737,"zip":"35287","miles_from_dt":24.41},{"city":"Birmingham","state_name":"Alabama","lat":33.60711,"lng":-86.7613,"zip":"35217","miles_from_dt":24.52},{"city":"Birmingham","state_name":"Alabama","lat":33.35661,"lng":-86.8174,"zip":"35236","miles_from_dt":24.53},{"city":"Birmingham","state_name":"Alabama","lat":33.51989,"lng":-86.80775,"zip":"35237","miles_from_dt":24.54},{"city":"Birmingham","state_name":"Alabama","lat":33.51856,"lng":-86.80842,"zip":"35201","miles_from_dt":24.55},{"city":"Shelby","state_name":"Alabama","lat":33.08797,"lng":-86.55369,"zip":"35143","miles_from_dt":24.55},{"city":"Birmingham","state_name":"Alabama","lat":33.51749,"lng":-86.80948,"zip":"35283","miles_from_dt":24.59},{"city":"Birmingham","state_name":"Alabama","lat":33.46386,"lng":-86.82303,"zip":"35293","miles_from_dt":24.63},{"city":"Birmingham","state_name":"Alabama","lat":33.51847,"lng":-86.80999,"zip":"35203","miles_from_dt":24.64},{"city":"Birmingham","state_name":"Alabama","lat":33.54005,"lng":-86.80382,"zip":"35234","miles_from_dt":24.75},{"city":"Birmingham","state_name":"Alabama","lat":33.54198,"lng":-86.80361,"zip":"35285","miles_from_dt":24.78},{"city":"Birmingham","state_name":"Alabama","lat":33.47366,"lng":-86.82588,"zip":"35219","miles_from_dt":24.89},{"city":"Birmingham","state_name":"Alabama","lat":33.35205,"lng":-86.8267,"zip":"35244","miles_from_dt":25.11},{"city":"Birmingham","state_name":"Alabama","lat":33.39977,"lng":-86.83895,"zip":"35260","miles_from_dt":25.41},{"city":"Birmingham","state_name":"Alabama","lat":33.39823,"lng":-86.84421,"zip":"35226","miles_from_dt":25.72},{"city":"Springville","state_name":"Alabama","lat":33.79275,"lng":-86.43258,"zip":"35146","miles_from_dt":25.76},{"city":"Eastaboga","state_name":"Alabama","lat":33.58662,"lng":-86.00025,"zip":"36260","miles_from_dt":25.77},{"city":"Pinson","state_name":"Alabama","lat":33.73071,"lng":-86.65385,"zip":"35126","miles_from_dt":25.94},{"city":"Birmingham","state_name":"Alabama","lat":33.52203,"lng":-86.84067,"zip":"35204","miles_from_dt":26.41},{"city":"Birmingham","state_name":"Alabama","lat":33.5682,"lng":-86.8223,"zip":"35207","miles_from_dt":26.44},{"city":"New Castle","state_name":"Alabama","lat":33.63809,"lng":-86.77864,"zip":"35119","miles_from_dt":26.53},{"city":"Palmerdale","state_name":"Alabama","lat":33.74773,"lng":-86.64506,"zip":"35123","miles_from_dt":26.65},{"city":"Alabaster","state_name":"Alabama","lat":33.21751,"lng":-86.79307,"zip":"35007","miles_from_dt":26.69},{"city":"Saginaw","state_name":"Alabama","lat":33.21594,"lng":-86.79188,"zip":"35137","miles_from_dt":26.69},{"city":"Siluria","state_name":"Alabama","lat":33.2,"lng":-86.78333,"zip":"35144","miles_from_dt":26.87},{"city":"Birmingham","state_name":"Alabama","lat":33.51375,"lng":-86.85282,"zip":"35254","miles_from_dt":26.95},{"city":"Munford","state_name":"Alabama","lat":33.49469,"lng":-85.94016,"zip":"36268","miles_from_dt":27.05},{"city":"Birmingham","state_name":"Alabama","lat":33.45262,"lng":-86.87046,"zip":"35211","miles_from_dt":27.28},{"city":"Shannon","state_name":"Alabama","lat":33.40351,"lng":-86.8743,"zip":"35142","miles_from_dt":27.44},{"city":"Fultondale","state_name":"Alabama","lat":33.60933,"lng":-86.83174,"zip":"35068","miles_from_dt":28.14},{"city":"Birmingham","state_name":"Alabama","lat":33.49717,"lng":-86.87909,"zip":"35208","miles_from_dt":28.19},{"city":"Bynum","state_name":"Alabama","lat":33.60249,"lng":-85.96263,"zip":"36253","miles_from_dt":28.2},{"city":"Weogufka","state_name":"Alabama","lat":33.00675,"lng":-86.35706,"zip":"35183","miles_from_dt":28.59},{"city":"Calera","state_name":"Alabama","lat":33.10487,"lng":-86.72958,"zip":"35040","miles_from_dt":28.91},{"city":"Birmingham","state_name":"Alabama","lat":33.4497,"lng":-86.89901,"zip":"35221","miles_from_dt":28.91},{"city":"Ashville","state_name":"Alabama","lat":33.81058,"lng":-86.20986,"zip":"35953","miles_from_dt":29.06},{"city":"Birmingham","state_name":"Alabama","lat":33.50771,"lng":-86.89388,"zip":"35218","miles_from_dt":29.17},{"city":"Bessemer","state_name":"Alabama","lat":33.43429,"lng":-86.90605,"zip":"35021","miles_from_dt":29.26},{"city":"Birmingham","state_name":"Alabama","lat":33.44167,"lng":-86.9058,"zip":"35220","miles_from_dt":29.27},{"city":"Remlap","state_name":"Alabama","lat":33.81969,"lng":-86.59878,"zip":"35133","miles_from_dt":29.84}],"targetCityZipCode":"35178","targetCityState":"Alabama"},"__N_SSG":true}