{"pageProps":{"stateName":"Alabama","cityName":"webb","nearbyCities":[{"city":"Cowarts","state_name":"Alabama","lat":31.20558,"lng":-85.30093,"zip":"36321","miles_from_dt":3.7},{"city":"Ashford","state_name":"Alabama","lat":31.16748,"lng":-85.23867,"zip":"36312","miles_from_dt":6.11},{"city":"Dothan","state_name":"Alabama","lat":31.26389,"lng":-85.39213,"zip":"36303","miles_from_dt":7.3},{"city":"Dothan","state_name":"Alabama","lat":31.22718,"lng":-85.39588,"zip":"36302","miles_from_dt":7.67},{"city":"Dothan","state_name":"Alabama","lat":31.23388,"lng":-85.40377,"zip":"36304","miles_from_dt":8.04},{"city":"Columbia","state_name":"Alabama","lat":31.32367,"lng":-85.14931,"zip":"36319","miles_from_dt":8.66},{"city":"Headland","state_name":"Alabama","lat":31.3741,"lng":-85.31,"zip":"36345","miles_from_dt":8.74},{"city":"Pansey","state_name":"Alabama","lat":31.13175,"lng":-85.15688,"zip":"36370","miles_from_dt":10.65},{"city":"Dothan","state_name":"Alabama","lat":31.14387,"lng":-85.40321,"zip":"36301","miles_from_dt":10.87},{"city":"Dothan","state_name":"Alabama","lat":31.20229,"lng":-85.49798,"zip":"36305","miles_from_dt":13.95},{"city":"Cottonwood","state_name":"Alabama","lat":31.05105,"lng":-85.31765,"zip":"36320","miles_from_dt":14.14},{"city":"Midland City","state_name":"Alabama","lat":31.3435,"lng":-85.49669,"zip":"36350","miles_from_dt":14.84},{"city":"Cedar Springs","state_name":"Georgia","lat":31.19304,"lng":-85.0257,"zip":"39832","miles_from_dt":15},{"city":"Gordon","state_name":"Alabama","lat":31.05753,"lng":-85.11812,"zip":"36343","miles_from_dt":16.13},{"city":"Newville","state_name":"Alabama","lat":31.4817,"lng":-85.36208,"zip":"36353","miles_from_dt":16.73},{"city":"Pinckard","state_name":"Alabama","lat":31.3208,"lng":-85.54738,"zip":"36371","miles_from_dt":17.1},{"city":"Jakin","state_name":"Georgia","lat":31.13635,"lng":-84.9884,"zip":"39861","miles_from_dt":18.47},{"city":"Malone","state_name":"Florida","lat":30.96924,"lng":-85.19504,"zip":"32445","miles_from_dt":19.98},{"city":"Blakely","state_name":"Georgia","lat":31.34004,"lng":-84.94641,"zip":"39823","miles_from_dt":20.06},{"city":"Slocomb","state_name":"Alabama","lat":31.07681,"lng":-85.54111,"zip":"36375","miles_from_dt":20.11},{"city":"Newton","state_name":"Alabama","lat":31.25682,"lng":-85.61629,"zip":"36352","miles_from_dt":20.52},{"city":"Shorterville","state_name":"Alabama","lat":31.52131,"lng":-85.10355,"zip":"36373","miles_from_dt":20.98},{"city":"Campbellton","state_name":"Florida","lat":30.94861,"lng":-85.36714,"zip":"32426","miles_from_dt":21.69},{"city":"Malvern","state_name":"Alabama","lat":31.10349,"lng":-85.60298,"zip":"36349","miles_from_dt":22.24},{"city":"Abbeville","state_name":"Alabama","lat":31.60296,"lng":-85.21229,"zip":"36310","miles_from_dt":24.41},{"city":"Bascom","state_name":"Florida","lat":30.94496,"lng":-85.06073,"zip":"32423","miles_from_dt":24.52},{"city":"Ozark","state_name":"Alabama","lat":31.46648,"lng":-85.61641,"zip":"36360","miles_from_dt":25.27},{"city":"Skipperville","state_name":"Alabama","lat":31.5723,"lng":-85.48956,"zip":"36374","miles_from_dt":25.6},{"city":"Fort Rucker","state_name":"Alabama","lat":31.35072,"lng":-85.69027,"zip":"36362","miles_from_dt":25.79},{"city":"Ozark","state_name":"Alabama","lat":31.45446,"lng":-85.64796,"zip":"36361","miles_from_dt":26.36},{"city":"Clopton","state_name":"Alabama","lat":31.63532,"lng":-85.38748,"zip":"36317","miles_from_dt":27.3},{"city":"Daleville","state_name":"Alabama","lat":31.25575,"lng":-85.73249,"zip":"36322","miles_from_dt":27.4},{"city":"Graceville","state_name":"Florida","lat":30.92025,"lng":-85.52588,"zip":"32440","miles_from_dt":27.45},{"city":"Marianna","state_name":"Florida","lat":30.85296,"lng":-85.22784,"zip":"32447","miles_from_dt":27.61},{"city":"Noma","state_name":"Florida","lat":30.9806,"lng":-85.61508,"zip":"32452","miles_from_dt":27.73},{"city":"Hartford","state_name":"Alabama","lat":31.1007,"lng":-85.70931,"zip":"36344","miles_from_dt":28.06},{"city":"Greenwood","state_name":"Florida","lat":30.86586,"lng":-85.11695,"zip":"32443","miles_from_dt":28.11},{"city":"Marianna","state_name":"Florida","lat":30.84493,"lng":-85.23017,"zip":"32446","miles_from_dt":28.15}],"targetCityZipCode":"36376","targetCityState":"Alabama"},"__N_SSG":true}