{"pageProps":{"stateName":"Alabama","cityName":"wellington","nearbyCities":[{"city":"Gadsden","state_name":"Alabama","lat":33.93667,"lng":-85.89842,"zip":"35905","miles_from_dt":4.48},{"city":"Jacksonville","state_name":"Alabama","lat":33.84659,"lng":-85.78662,"zip":"36265","miles_from_dt":6.01},{"city":"Alexandria","state_name":"Alabama","lat":33.76564,"lng":-85.89675,"zip":"36250","miles_from_dt":7.38},{"city":"Gadsden","state_name":"Alabama","lat":33.89874,"lng":-86.02408,"zip":"35907","miles_from_dt":8.12},{"city":"Weaver","state_name":"Alabama","lat":33.7609,"lng":-85.81541,"zip":"36277","miles_from_dt":8.7},{"city":"Gadsden","state_name":"Alabama","lat":34.00028,"lng":-85.95643,"zip":"35902","miles_from_dt":9.69},{"city":"Ohatchee","state_name":"Alabama","lat":33.78215,"lng":-86.01624,"zip":"36271","miles_from_dt":9.72},{"city":"Anniston","state_name":"Alabama","lat":33.73225,"lng":-85.81638,"zip":"36206","miles_from_dt":10.47},{"city":"Anniston","state_name":"Alabama","lat":33.71868,"lng":-85.8756,"zip":"36202","miles_from_dt":10.61},{"city":"Gadsden","state_name":"Alabama","lat":34.03144,"lng":-85.85703,"zip":"35903","miles_from_dt":11.09},{"city":"Gadsden","state_name":"Alabama","lat":34.04848,"lng":-85.92395,"zip":"35901","miles_from_dt":12.33},{"city":"Rainbow City","state_name":"Alabama","lat":33.93159,"lng":-86.09033,"zip":"35906","miles_from_dt":12.41},{"city":"Anniston","state_name":"Alabama","lat":33.70037,"lng":-85.78898,"zip":"36205","miles_from_dt":13.11},{"city":"Anniston","state_name":"Alabama","lat":33.68477,"lng":-85.82212,"zip":"36204","miles_from_dt":13.45},{"city":"Gadsden","state_name":"Alabama","lat":34.07569,"lng":-85.98519,"zip":"35904","miles_from_dt":15.12},{"city":"Anniston","state_name":"Alabama","lat":33.65082,"lng":-85.88264,"zip":"36201","miles_from_dt":15.27},{"city":"Anniston","state_name":"Alabama","lat":33.68196,"lng":-85.71356,"zip":"36207","miles_from_dt":16.47},{"city":"Piedmont","state_name":"Alabama","lat":33.94441,"lng":-85.60454,"zip":"36272","miles_from_dt":16.94},{"city":"Attalla","state_name":"Alabama","lat":34.08952,"lng":-86.05771,"zip":"35954","miles_from_dt":17.91},{"city":"Choccolocco","state_name":"Alabama","lat":33.65793,"lng":-85.6992,"zip":"36254","miles_from_dt":18.29},{"city":"De Armanville","state_name":"Alabama","lat":33.62852,"lng":-85.74325,"zip":"36257","miles_from_dt":18.72},{"city":"Ashville","state_name":"Alabama","lat":33.81058,"lng":-86.20986,"zip":"35953","miles_from_dt":19.08},{"city":"Bynum","state_name":"Alabama","lat":33.60249,"lng":-85.96263,"zip":"36253","miles_from_dt":19.11},{"city":"Oxford","state_name":"Alabama","lat":33.58205,"lng":-85.83312,"zip":"36203","miles_from_dt":20.24},{"city":"Spring Garden","state_name":"Alabama","lat":33.97566,"lng":-85.55592,"zip":"36275","miles_from_dt":20.28},{"city":"Steele","state_name":"Alabama","lat":33.91557,"lng":-86.23889,"zip":"35987","miles_from_dt":20.47},{"city":"Eastaboga","state_name":"Alabama","lat":33.58662,"lng":-86.00025,"zip":"36260","miles_from_dt":20.76},{"city":"Ragland","state_name":"Alabama","lat":33.72062,"lng":-86.19965,"zip":"35131","miles_from_dt":20.84},{"city":"Lincoln","state_name":"Alabama","lat":33.62141,"lng":-86.10849,"zip":"35096","miles_from_dt":21.51},{"city":"Leesburg","state_name":"Alabama","lat":34.17088,"lng":-85.76746,"zip":"35983","miles_from_dt":21.68},{"city":"Gallant","state_name":"Alabama","lat":33.98797,"lng":-86.24943,"zip":"35972","miles_from_dt":22.32},{"city":"Boaz","state_name":"Alabama","lat":34.1433,"lng":-86.14799,"zip":"35956","miles_from_dt":23.96},{"city":"Edwardsville","state_name":"Alabama","lat":33.7074,"lng":-85.50936,"zip":"36261","miles_from_dt":24.5},{"city":"Fruithurst","state_name":"Alabama","lat":33.7965,"lng":-85.46741,"zip":"36262","miles_from_dt":24.66},{"city":"Riverside","state_name":"Alabama","lat":33.61814,"lng":-86.1991,"zip":"35135","miles_from_dt":25.12},{"city":"Centre","state_name":"Alabama","lat":34.12515,"lng":-85.56786,"zip":"35960","miles_from_dt":25.26},{"city":"Wattsville","state_name":"Alabama","lat":33.66056,"lng":-86.26333,"zip":"35182","miles_from_dt":26.15},{"city":"Munford","state_name":"Alabama","lat":33.49469,"lng":-85.94016,"zip":"36268","miles_from_dt":26.21},{"city":"Altoona","state_name":"Alabama","lat":34.05322,"lng":-86.3082,"zip":"35952","miles_from_dt":27.24},{"city":"Walnut Grove","state_name":"Alabama","lat":34.06676,"lng":-86.3052,"zip":"35990","miles_from_dt":27.53},{"city":"Heflin","state_name":"Alabama","lat":33.59305,"lng":-85.53817,"zip":"36264","miles_from_dt":27.8},{"city":"Collinsville","state_name":"Alabama","lat":34.27753,"lng":-85.86241,"zip":"35961","miles_from_dt":27.96},{"city":"Boaz","state_name":"Alabama","lat":34.19105,"lng":-86.19531,"zip":"35957","miles_from_dt":28.22},{"city":"Delta","state_name":"Alabama","lat":33.47795,"lng":-85.716,"zip":"36258","miles_from_dt":28.9},{"city":"Pell City","state_name":"Alabama","lat":33.62567,"lng":-86.29594,"zip":"35125","miles_from_dt":29.07}],"targetCityZipCode":"36279","targetCityState":"Alabama"},"__N_SSG":true}