{"pageProps":{"stateName":"Alabama","cityName":"wing","nearbyCities":[{"city":"Baker","state_name":"Florida","lat":30.88513,"lng":-86.696,"zip":"32531","miles_from_dt":10.88},{"city":"Andalusia","state_name":"Alabama","lat":31.18092,"lng":-86.57618,"zip":"36420","miles_from_dt":11.5},{"city":"Laurel Hill","state_name":"Florida","lat":30.92207,"lng":-86.43396,"zip":"32567","miles_from_dt":17.06},{"city":"Florala","state_name":"Alabama","lat":31.07312,"lng":-86.36355,"zip":"36442","miles_from_dt":19.18},{"city":"Lockhart","state_name":"Alabama","lat":31.01212,"lng":-86.35321,"zip":"36455","miles_from_dt":19.79},{"city":"Milligan","state_name":"Florida","lat":30.76092,"lng":-86.60592,"zip":"32537","miles_from_dt":19.97},{"city":"Crestview","state_name":"Florida","lat":30.75399,"lng":-86.59491,"zip":"32536","miles_from_dt":20.6},{"city":"Crestview","state_name":"Florida","lat":30.78128,"lng":-86.46646,"zip":"32539","miles_from_dt":22.2},{"city":"Andalusia","state_name":"Alabama","lat":31.32769,"lng":-86.50903,"zip":"36421","miles_from_dt":22.23},{"city":"Holt","state_name":"Florida","lat":30.72755,"lng":-86.7875,"zip":"32564","miles_from_dt":22.55},{"city":"Paxton","state_name":"Florida","lat":30.97737,"lng":-86.3124,"zip":"32538","miles_from_dt":22.56},{"city":"River Falls","state_name":"Alabama","lat":31.35359,"lng":-86.54633,"zip":"36476","miles_from_dt":22.94},{"city":"Brewton","state_name":"Alabama","lat":31.10793,"lng":-87.07115,"zip":"36427","miles_from_dt":23.34},{"city":"Brewton","state_name":"Alabama","lat":31.14386,"lng":-87.076,"zip":"36426","miles_from_dt":24.21},{"city":"Milton","state_name":"Florida","lat":30.80022,"lng":-86.98158,"zip":"32570","miles_from_dt":24.28},{"city":"Red Level","state_name":"Alabama","lat":31.42664,"lng":-86.62022,"zip":"36474","miles_from_dt":26.72},{"city":"Castleberry","state_name":"Alabama","lat":31.30055,"lng":-87.03888,"zip":"36432","miles_from_dt":27.48},{"city":"Gantt","state_name":"Alabama","lat":31.40788,"lng":-86.4869,"zip":"36038","miles_from_dt":27.75},{"city":"Jay","state_name":"Florida","lat":30.89241,"lng":-87.14071,"zip":"32565","miles_from_dt":28.97}],"targetCityZipCode":"36483","targetCityState":"Alabama"},"__N_SSG":true}