{"pageProps":{"stateName":"New-york","cityName":"babylon","nearbyCities":[{"city":"Lindenhurst","state_name":"New York","lat":40.68892,"lng":-73.37356,"zip":"11757","miles_from_dt":3.18},{"city":"West Babylon","state_name":"New York","lat":40.7004,"lng":-73.3278,"zip":"11707","miles_from_dt":3.42},{"city":"Copiague","state_name":"New York","lat":40.67891,"lng":-73.39564,"zip":"11726","miles_from_dt":3.56},{"city":"West Islip","state_name":"New York","lat":40.70803,"lng":-73.29827,"zip":"11795","miles_from_dt":4.43},{"city":"Amityville","state_name":"New York","lat":40.6817,"lng":-73.41289,"zip":"11701","miles_from_dt":4.44},{"city":"West Babylon","state_name":"New York","lat":40.71623,"lng":-73.35908,"zip":"11704","miles_from_dt":4.6},{"city":"North Babylon","state_name":"New York","lat":40.73325,"lng":-73.32533,"zip":"11703","miles_from_dt":5.68},{"city":"Brightwaters","state_name":"New York","lat":40.71891,"lng":-73.26391,"zip":"11718","miles_from_dt":6.07},{"city":"Massapequa Park","state_name":"New York","lat":40.68283,"lng":-73.44707,"zip":"11762","miles_from_dt":6.11},{"city":"Massapequa","state_name":"New York","lat":40.65361,"lng":-73.45626,"zip":"11758","miles_from_dt":6.2},{"city":"Bay Shore","state_name":"New York","lat":40.706,"lng":-73.24208,"zip":"11706","miles_from_dt":6.3},{"city":"Wyandanch","state_name":"New York","lat":40.752,"lng":-73.37497,"zip":"11798","miles_from_dt":7.19},{"city":"Farmingdale","state_name":"New York","lat":40.73177,"lng":-73.43284,"zip":"11735","miles_from_dt":7.44},{"city":"Deer Park","state_name":"New York","lat":40.76249,"lng":-73.32161,"zip":"11729","miles_from_dt":7.7},{"city":"Farmingdale","state_name":"New York","lat":40.73491,"lng":-73.4456,"zip":"11737","miles_from_dt":8.05},{"city":"Seaford","state_name":"New York","lat":40.67766,"lng":-73.49068,"zip":"11783","miles_from_dt":8.21},{"city":"Islip","state_name":"New York","lat":40.72999,"lng":-73.21424,"zip":"11751","miles_from_dt":8.47},{"city":"Wantagh","state_name":"New York","lat":40.6462,"lng":-73.51024,"zip":"11793","miles_from_dt":9.05},{"city":"East Islip","state_name":"New York","lat":40.72701,"lng":-73.18456,"zip":"11730","miles_from_dt":9.61},{"city":"Old Bethpage","state_name":"New York","lat":40.75829,"lng":-73.45706,"zip":"11804","miles_from_dt":9.65},{"city":"Melville","state_name":"New York","lat":40.78372,"lng":-73.40931,"zip":"11747","miles_from_dt":9.85},{"city":"Bethpage","state_name":"New York","lat":40.74267,"lng":-73.48615,"zip":"11714","miles_from_dt":9.99},{"city":"Great River","state_name":"New York","lat":40.71058,"lng":-73.16275,"zip":"11739","miles_from_dt":10.08},{"city":"Brentwood","state_name":"New York","lat":40.78405,"lng":-73.25223,"zip":"11717","miles_from_dt":10.2},{"city":"Bellmore","state_name":"New York","lat":40.67217,"lng":-73.53293,"zip":"11710","miles_from_dt":10.33},{"city":"Ocean Beach","state_name":"New York","lat":40.64945,"lng":-73.14123,"zip":"11770","miles_from_dt":10.35},{"city":"Melville","state_name":"New York","lat":40.79318,"lng":-73.41794,"zip":"11775","miles_from_dt":10.63},{"city":"Levittown","state_name":"New York","lat":40.72545,"lng":-73.51656,"zip":"11756","miles_from_dt":10.66},{"city":"Huntington Station","state_name":"New York","lat":40.81421,"lng":-73.3608,"zip":"11746","miles_from_dt":11.29},{"city":"Islip Terrace","state_name":"New York","lat":40.75791,"lng":-73.17359,"zip":"11752","miles_from_dt":11.34},{"city":"Merrick","state_name":"New York","lat":40.66307,"lng":-73.55407,"zip":"11566","miles_from_dt":11.37},{"city":"Plainview","state_name":"New York","lat":40.78177,"lng":-73.4733,"zip":"11803","miles_from_dt":11.45},{"city":"Central Islip","state_name":"New York","lat":40.78358,"lng":-73.19657,"zip":"11722","miles_from_dt":11.76},{"city":"Hicksville","state_name":"New York","lat":40.76832,"lng":-73.51415,"zip":"11815","miles_from_dt":12.26},{"city":"Hicksville","state_name":"New York","lat":40.76256,"lng":-73.52383,"zip":"11801","miles_from_dt":12.4},{"city":"Oakdale","state_name":"New York","lat":40.73703,"lng":-73.12929,"zip":"11769","miles_from_dt":12.46},{"city":"East Meadow","state_name":"New York","lat":40.71974,"lng":-73.56044,"zip":"11554","miles_from_dt":12.58},{"city":"Hicksville","state_name":"New York","lat":40.76432,"lng":-73.53162,"zip":"11802","miles_from_dt":12.79},{"city":"Freeport","state_name":"New York","lat":40.65007,"lng":-73.58305,"zip":"11520","miles_from_dt":12.87},{"city":"Roosevelt","state_name":"New York","lat":40.68044,"lng":-73.58525,"zip":"11575","miles_from_dt":13.13},{"city":"Melville","state_name":"New York","lat":40.81603,"lng":-73.21201,"zip":"11760","miles_from_dt":13.14},{"city":"Hauppauge","state_name":"New York","lat":40.81808,"lng":-73.21318,"zip":"11788","miles_from_dt":13.23},{"city":"Woodbury","state_name":"New York","lat":40.81739,"lng":-73.47004,"zip":"11797","miles_from_dt":13.37},{"city":"Commack","state_name":"New York","lat":40.84056,"lng":-73.28085,"zip":"11725","miles_from_dt":13.39},{"city":"Point Lookout","state_name":"New York","lat":40.5903,"lng":-73.58046,"zip":"11569","miles_from_dt":13.42},{"city":"West Sayville","state_name":"New York","lat":40.72958,"lng":-73.09986,"zip":"11796","miles_from_dt":13.63},{"city":"Uniondale","state_name":"New York","lat":40.71997,"lng":-73.58327,"zip":"11556","miles_from_dt":13.71},{"city":"Bohemia","state_name":"New York","lat":40.77131,"lng":-73.12729,"zip":"11716","miles_from_dt":13.82},{"city":"Islandia","state_name":"New York","lat":40.80674,"lng":-73.1708,"zip":"11749","miles_from_dt":13.85},{"city":"Uniondale","state_name":"New York","lat":40.70529,"lng":-73.5923,"zip":"11553","miles_from_dt":13.85},{"city":"Uniondale","state_name":"New York","lat":40.70594,"lng":-73.59575,"zip":"11555","miles_from_dt":14.04},{"city":"Baldwin","state_name":"New York","lat":40.65027,"lng":-73.60809,"zip":"11510","miles_from_dt":14.18},{"city":"Jericho","state_name":"New York","lat":40.78657,"lng":-73.5422,"zip":"11853","miles_from_dt":14.19},{"city":"Jericho","state_name":"New York","lat":40.78976,"lng":-73.5411,"zip":"11753","miles_from_dt":14.3},{"city":"Westbury","state_name":"New York","lat":40.75541,"lng":-73.57463,"zip":"11590","miles_from_dt":14.33},{"city":"Hempstead","state_name":"New York","lat":40.71896,"lng":-73.59973,"zip":"11549","miles_from_dt":14.5},{"city":"East Northport","state_name":"New York","lat":40.86262,"lng":-73.31703,"zip":"11731","miles_from_dt":14.61},{"city":"Sayville","state_name":"New York","lat":40.73727,"lng":-73.08024,"zip":"11782","miles_from_dt":14.78},{"city":"Greenlawn","state_name":"New York","lat":40.86536,"lng":-73.36118,"zip":"11740","miles_from_dt":14.8},{"city":"Syosset","state_name":"New York","lat":40.82819,"lng":-73.50282,"zip":"11791","miles_from_dt":14.94},{"city":"Melville","state_name":"New York","lat":40.82821,"lng":-73.50362,"zip":"11773","miles_from_dt":14.96},{"city":"Hempstead","state_name":"New York","lat":40.70158,"lng":-73.62039,"zip":"11550","miles_from_dt":15.22},{"city":"Smithtown","state_name":"New York","lat":40.85338,"lng":-73.21089,"zip":"11787","miles_from_dt":15.45},{"city":"Hempstead","state_name":"New York","lat":40.70334,"lng":-73.62858,"zip":"11551","miles_from_dt":15.67},{"city":"Oceanside","state_name":"New York","lat":40.63231,"lng":-73.63686,"zip":"11572","miles_from_dt":15.75},{"city":"Rockville Centre","state_name":"New York","lat":40.66504,"lng":-73.63882,"zip":"11570","miles_from_dt":15.82},{"city":"Cold Spring Harbor","state_name":"New York","lat":40.86522,"lng":-73.45288,"zip":"11724","miles_from_dt":15.92},{"city":"Carle Place","state_name":"New York","lat":40.74979,"lng":-73.61298,"zip":"11514","miles_from_dt":15.94},{"city":"Ronkonkoma","state_name":"New York","lat":40.8127,"lng":-73.1156,"zip":"11779","miles_from_dt":16.13},{"city":"Garden City","state_name":"New York","lat":40.72159,"lng":-73.63244,"zip":"11531","miles_from_dt":16.19},{"city":"Bayport","state_name":"New York","lat":40.74514,"lng":-73.05461,"zip":"11705","miles_from_dt":16.24},{"city":"Garden City","state_name":"New York","lat":40.72485,"lng":-73.63256,"zip":"11599","miles_from_dt":16.27},{"city":"Rockville Centre","state_name":"New York","lat":40.65746,"lng":-73.64859,"zip":"11571","miles_from_dt":16.31},{"city":"Huntington","state_name":"New York","lat":40.88018,"lng":-73.4266,"zip":"11743","miles_from_dt":16.44},{"city":"Old Westbury","state_name":"New York","lat":40.78659,"lng":-73.59719,"zip":"11568","miles_from_dt":16.48},{"city":"Garden City","state_name":"New York","lat":40.72716,"lng":-73.63654,"zip":"11530","miles_from_dt":16.51},{"city":"West Hempstead","state_name":"New York","lat":40.6916,"lng":-73.65073,"zip":"11552","miles_from_dt":16.65},{"city":"Long Beach","state_name":"New York","lat":40.58969,"lng":-73.64455,"zip":"11561","miles_from_dt":16.66},{"city":"Island Park","state_name":"New York","lat":40.60539,"lng":-73.64952,"zip":"11558","miles_from_dt":16.67},{"city":"Nesconset","state_name":"New York","lat":40.84438,"lng":-73.14535,"zip":"11767","miles_from_dt":16.72},{"city":"Centerport","state_name":"New York","lat":40.89362,"lng":-73.37009,"zip":"11721","miles_from_dt":16.79},{"city":"East Norwich","state_name":"New York","lat":40.84245,"lng":-73.53916,"zip":"11732","miles_from_dt":16.87},{"city":"Kings Park","state_name":"New York","lat":40.88771,"lng":-73.24738,"zip":"11754","miles_from_dt":16.98},{"city":"Mineola","state_name":"New York","lat":40.74629,"lng":-73.63921,"zip":"11501","miles_from_dt":17.1},{"city":"Holbrook","state_name":"New York","lat":40.79473,"lng":-73.07043,"zip":"11741","miles_from_dt":17.18},{"city":"East Rockaway","state_name":"New York","lat":40.63772,"lng":-73.66691,"zip":"11518","miles_from_dt":17.3},{"city":"Blue Point","state_name":"New York","lat":40.75005,"lng":-73.03531,"zip":"11715","miles_from_dt":17.3},{"city":"Malverne","state_name":"New York","lat":40.67505,"lng":-73.67177,"zip":"11565","miles_from_dt":17.6},{"city":"Williston Park","state_name":"New York","lat":40.75968,"lng":-73.6422,"zip":"11596","miles_from_dt":17.62},{"city":"Lynbrook","state_name":"New York","lat":40.65746,"lng":-73.67408,"zip":"11563","miles_from_dt":17.65},{"city":"Glen Head","state_name":"New York","lat":40.82685,"lng":-73.58853,"zip":"11545","miles_from_dt":17.86},{"city":"Oyster Bay","state_name":"New York","lat":40.8674,"lng":-73.52651,"zip":"11771","miles_from_dt":17.87},{"city":"Northport","state_name":"New York","lat":40.91052,"lng":-73.32611,"zip":"11768","miles_from_dt":17.88},{"city":"Franklin Square","state_name":"New York","lat":40.70066,"lng":-73.67514,"zip":"11010","miles_from_dt":18.02},{"city":"Greenvale","state_name":"New York","lat":40.81414,"lng":-73.6097,"zip":"11548","miles_from_dt":18.14},{"city":"Roslyn Heights","state_name":"New York","lat":40.78288,"lng":-73.6391,"zip":"11577","miles_from_dt":18.21},{"city":"Lake Grove","state_name":"New York","lat":40.8583,"lng":-73.11748,"zip":"11755","miles_from_dt":18.38},{"city":"Albertson","state_name":"New York","lat":40.77082,"lng":-73.6521,"zip":"11507","miles_from_dt":18.42},{"city":"Hewlett","state_name":"New York","lat":40.63723,"lng":-73.6921,"zip":"11557","miles_from_dt":18.62},{"city":"Saint James","state_name":"New York","lat":40.89249,"lng":-73.16973,"zip":"11780","miles_from_dt":18.83},{"city":"Holtsville","state_name":"New York","lat":40.81034,"lng":-73.0419,"zip":"11742","miles_from_dt":19.03},{"city":"New Hyde Park","state_name":"New York","lat":40.74572,"lng":-73.67979,"zip":"11040","miles_from_dt":19.08},{"city":"Roslyn","state_name":"New York","lat":40.79791,"lng":-73.64711,"zip":"11576","miles_from_dt":19.1},{"city":"Valley Stream","state_name":"New York","lat":40.66455,"lng":-73.70428,"zip":"11582","miles_from_dt":19.26},{"city":"Valley Stream","state_name":"New York","lat":40.67491,"lng":-73.70374,"zip":"11580","miles_from_dt":19.27},{"city":"Woodmere","state_name":"New York","lat":40.63109,"lng":-73.71188,"zip":"11598","miles_from_dt":19.69},{"city":"Mill Neck","state_name":"New York","lat":40.88249,"lng":-73.55862,"zip":"11765","miles_from_dt":19.69},{"city":"Elmont","state_name":"New York","lat":40.70143,"lng":-73.7078,"zip":"11003","miles_from_dt":19.72},{"city":"Floral Park","state_name":"New York","lat":40.72356,"lng":-73.70451,"zip":"11001","miles_from_dt":19.87},{"city":"Valley Stream","state_name":"New York","lat":40.65153,"lng":-73.71653,"zip":"11581","miles_from_dt":19.88},{"city":"Patchogue","state_name":"New York","lat":40.76118,"lng":-72.9875,"zip":"11772","miles_from_dt":19.91},{"city":"Floral Park","state_name":"New York","lat":40.72045,"lng":-73.70743,"zip":"11002","miles_from_dt":19.97},{"city":"Lawrence","state_name":"New York","lat":40.60615,"lng":-73.71688,"zip":"11559","miles_from_dt":20.15},{"city":"Centereach","state_name":"New York","lat":40.87025,"lng":-73.08202,"zip":"11720","miles_from_dt":20.21},{"city":"Glenwood Landing","state_name":"New York","lat":40.82881,"lng":-73.64505,"zip":"11547","miles_from_dt":20.22},{"city":"New Hyde Park","state_name":"New York","lat":40.75854,"lng":-73.6975,"zip":"11042","miles_from_dt":20.26},{"city":"Farmingville","state_name":"New York","lat":40.83779,"lng":-73.03761,"zip":"11738","miles_from_dt":20.35},{"city":"Cedarhurst","state_name":"New York","lat":40.6258,"lng":-73.7263,"zip":"11516","miles_from_dt":20.48},{"city":"Locust Valley","state_name":"New York","lat":40.88068,"lng":-73.59057,"zip":"11560","miles_from_dt":20.62},{"city":"Glen Oaks","state_name":"New York","lat":40.74621,"lng":-73.71147,"zip":"11004","miles_from_dt":20.66},{"city":"Stony Brook","state_name":"New York","lat":40.90719,"lng":-73.12777,"zip":"11790","miles_from_dt":20.81},{"city":"Manhasset","state_name":"New York","lat":40.79293,"lng":-73.68868,"zip":"11030","miles_from_dt":20.82},{"city":"Sea Cliff","state_name":"New York","lat":40.84406,"lng":-73.64426,"zip":"11579","miles_from_dt":20.84},{"city":"Rosedale","state_name":"New York","lat":40.66053,"lng":-73.73658,"zip":"11422","miles_from_dt":20.94},{"city":"Atlantic Beach","state_name":"New York","lat":40.58872,"lng":-73.7286,"zip":"11509","miles_from_dt":20.98},{"city":"Bellerose","state_name":"New York","lat":40.73641,"lng":-73.7223,"zip":"11426","miles_from_dt":21},{"city":"Floral Park","state_name":"New York","lat":40.75661,"lng":-73.71424,"zip":"11005","miles_from_dt":21.03},{"city":"Bayville","state_name":"New York","lat":40.90665,"lng":-73.56005,"zip":"11709","miles_from_dt":21.1},{"city":"Cambria Heights","state_name":"New York","lat":40.69406,"lng":-73.73623,"zip":"11411","miles_from_dt":21.11},{"city":"Great Neck","state_name":"New York","lat":40.77098,"lng":-73.71293,"zip":"11020","miles_from_dt":21.33},{"city":"Queens Village","state_name":"New York","lat":40.70958,"lng":-73.73843,"zip":"11429","miles_from_dt":21.4},{"city":"Glen Cove","state_name":"New York","lat":40.87073,"lng":-73.62879,"zip":"11542","miles_from_dt":21.47},{"city":"Selden","state_name":"New York","lat":40.86855,"lng":-73.0422,"zip":"11784","miles_from_dt":21.57},{"city":"Stony Brook","state_name":"New York","lat":40.91915,"lng":-73.12475,"zip":"11794","miles_from_dt":21.59},{"city":"Springfield Gardens","state_name":"New York","lat":40.67002,"lng":-73.75116,"zip":"11413","miles_from_dt":21.73},{"city":"Queens Village","state_name":"New York","lat":40.72099,"lng":-73.74222,"zip":"11428","miles_from_dt":21.75},{"city":"Inwood","state_name":"New York","lat":40.62143,"lng":-73.75292,"zip":"11096","miles_from_dt":21.9},{"city":"Port Washington","state_name":"New York","lat":40.83134,"lng":-73.68331,"zip":"11054","miles_from_dt":21.95},{"city":"Queens Village","state_name":"New York","lat":40.73094,"lng":-73.74569,"zip":"11427","miles_from_dt":22.09},{"city":"Little Neck","state_name":"New York","lat":40.75899,"lng":-73.73583,"zip":"11362","miles_from_dt":22.16},{"city":"Medford","state_name":"New York","lat":40.82529,"lng":-72.98245,"zip":"11763","miles_from_dt":22.19},{"city":"Saint Albans","state_name":"New York","lat":40.69804,"lng":-73.759,"zip":"11412","miles_from_dt":22.34},{"city":"Great Neck","state_name":"New York","lat":40.78644,"lng":-73.7289,"zip":"11021","miles_from_dt":22.52},{"city":"Bellport","state_name":"New York","lat":40.77774,"lng":-72.94253,"zip":"11713","miles_from_dt":22.53},{"city":"Far Rockaway","state_name":"New York","lat":40.60152,"lng":-73.76173,"zip":"11691","miles_from_dt":22.53},{"city":"Far Rockaway","state_name":"New York","lat":40.60107,"lng":-73.76211,"zip":"11690","miles_from_dt":22.55},{"city":"Port Washington","state_name":"New York","lat":40.83815,"lng":-73.69113,"zip":"11050","miles_from_dt":22.56},{"city":"Great Neck","state_name":"New York","lat":40.78769,"lng":-73.73186,"zip":"11022","miles_from_dt":22.7},{"city":"Great Neck","state_name":"New York","lat":40.79162,"lng":-73.72967,"zip":"11026","miles_from_dt":22.71},{"city":"Port Washington","state_name":"New York","lat":40.84103,"lng":-73.69405,"zip":"11051","miles_from_dt":22.79},{"city":"Jamaica","state_name":"New York","lat":40.67437,"lng":-73.77189,"zip":"11425","miles_from_dt":22.84},{"city":"Oakland Gardens","state_name":"New York","lat":40.74625,"lng":-73.75598,"zip":"11364","miles_from_dt":22.89},{"city":"Hollis","state_name":"New York","lat":40.71564,"lng":-73.76826,"zip":"11423","miles_from_dt":23.02},{"city":"Little Neck","state_name":"New York","lat":40.77251,"lng":-73.74708,"zip":"11363","miles_from_dt":23.03},{"city":"Jamaica","state_name":"New York","lat":40.67683,"lng":-73.77623,"zip":"11434","miles_from_dt":23.08},{"city":"Great Neck","state_name":"New York","lat":40.7994,"lng":-73.73282,"zip":"11023","miles_from_dt":23.09},{"city":"Port Washington","state_name":"New York","lat":40.83919,"lng":-73.70326,"zip":"11053","miles_from_dt":23.12},{"city":"East Setauket","state_name":"New York","lat":40.93742,"lng":-73.10544,"zip":"11733","miles_from_dt":23.2},{"city":"Port Washington","state_name":"New York","lat":40.84089,"lng":-73.70491,"zip":"11055","miles_from_dt":23.26},{"city":"Port Washington","state_name":"New York","lat":40.84441,"lng":-73.70193,"zip":"11052","miles_from_dt":23.27},{"city":"Great Neck","state_name":"New York","lat":40.79821,"lng":-73.73829,"zip":"11027","miles_from_dt":23.31},{"city":"Jamaica","state_name":"New York","lat":40.6494,"lng":-73.78373,"zip":"11499","miles_from_dt":23.41},{"city":"Jamaica","state_name":"New York","lat":40.64703,"lng":-73.78717,"zip":"11430","miles_from_dt":23.6},{"city":"Coram","state_name":"New York","lat":40.88019,"lng":-73.00368,"zip":"11727","miles_from_dt":23.6},{"city":"Port Jefferson Station","state_name":"New York","lat":40.91345,"lng":-73.04567,"zip":"11776","miles_from_dt":23.71},{"city":"Jamaica","state_name":"New York","lat":40.69805,"lng":-73.78675,"zip":"11433","miles_from_dt":23.78},{"city":"Fresh Meadows","state_name":"New York","lat":40.73112,"lng":-73.7804,"zip":"11366","miles_from_dt":23.86},{"city":"Jamaica","state_name":"New York","lat":40.69945,"lng":-73.78856,"zip":"11405","miles_from_dt":23.89},{"city":"Great Neck","state_name":"New York","lat":40.81642,"lng":-73.74205,"zip":"11024","miles_from_dt":24.06},{"city":"Jamaica","state_name":"New York","lat":40.69924,"lng":-73.792,"zip":"11437","miles_from_dt":24.06},{"city":"Brookhaven","state_name":"New York","lat":40.77935,"lng":-72.91175,"zip":"11719","miles_from_dt":24.07},{"city":"Bayside","state_name":"New York","lat":40.76393,"lng":-73.77294,"zip":"11361","miles_from_dt":24.11},{"city":"Jamaica","state_name":"New York","lat":40.67587,"lng":-73.79664,"zip":"11436","miles_from_dt":24.14},{"city":"Arverne","state_name":"New York","lat":40.59373,"lng":-73.79201,"zip":"11692","miles_from_dt":24.19},{"city":"Jamaica","state_name":"New York","lat":40.7012,"lng":-73.79579,"zip":"11451","miles_from_dt":24.28},{"city":"Jamaica","state_name":"New York","lat":40.71491,"lng":-73.79295,"zip":"11432","miles_from_dt":24.28},{"city":"Jamaica","state_name":"New York","lat":40.71789,"lng":-73.79349,"zip":"11431","miles_from_dt":24.35},{"city":"Jamaica","state_name":"New York","lat":40.72195,"lng":-73.79455,"zip":"11439","miles_from_dt":24.46},{"city":"Fresh Meadows","state_name":"New York","lat":40.73983,"lng":-73.79499,"zip":"11365","miles_from_dt":24.75},{"city":"Bayside","state_name":"New York","lat":40.7805,"lng":-73.78159,"zip":"11360","miles_from_dt":24.92},{"city":"Bayside","state_name":"New York","lat":40.79147,"lng":-73.77662,"zip":"11359","miles_from_dt":24.96},{"city":"Jamaica","state_name":"New York","lat":40.70111,"lng":-73.80968,"zip":"11435","miles_from_dt":25},{"city":"Yaphank","state_name":"New York","lat":40.8321,"lng":-72.92198,"zip":"11980","miles_from_dt":25.15},{"city":"Port Jefferson","state_name":"New York","lat":40.95171,"lng":-73.0645,"zip":"11777","miles_from_dt":25.2},{"city":"Flushing","state_name":"New York","lat":40.76038,"lng":-73.79648,"zip":"11358","miles_from_dt":25.21},{"city":"South Ozone Park","state_name":"New York","lat":40.67352,"lng":-73.8177,"zip":"11420","miles_from_dt":25.24},{"city":"Far Rockaway","state_name":"New York","lat":40.59649,"lng":-73.81663,"zip":"11693","miles_from_dt":25.44},{"city":"South Richmond Hill","state_name":"New York","lat":40.68863,"lng":-73.82302,"zip":"11419","miles_from_dt":25.6},{"city":"Mount Sinai","state_name":"New York","lat":40.93602,"lng":-73.01645,"zip":"11766","miles_from_dt":25.89},{"city":"Middle Island","state_name":"New York","lat":40.88585,"lng":-72.95054,"zip":"11953","miles_from_dt":25.98},{"city":"Kew Gardens","state_name":"New York","lat":40.70808,"lng":-73.82801,"zip":"11415","miles_from_dt":26.02},{"city":"Flushing","state_name":"New York","lat":40.73044,"lng":-73.82274,"zip":"11367","miles_from_dt":26.02},{"city":"Jamaica","state_name":"New York","lat":40.71397,"lng":-73.82809,"zip":"11424","miles_from_dt":26.09},{"city":"Flushing","state_name":"New York","lat":40.75143,"lng":-73.82125,"zip":"11355","miles_from_dt":26.28},{"city":"Flushing","state_name":"New York","lat":40.75328,"lng":-73.82064,"zip":"11352","miles_from_dt":26.29},{"city":"Shirley","state_name":"New York","lat":40.80092,"lng":-72.87611,"zip":"11967","miles_from_dt":26.36},{"city":"Richmond Hill","state_name":"New York","lat":40.70032,"lng":-73.83603,"zip":"11418","miles_from_dt":26.37},{"city":"Whitestone","state_name":"New York","lat":40.78636,"lng":-73.81094,"zip":"11357","miles_from_dt":26.5},{"city":"Howard Beach","state_name":"New York","lat":40.65818,"lng":-73.8448,"zip":"11414","miles_from_dt":26.62},{"city":"Ozone Park","state_name":"New York","lat":40.67641,"lng":-73.84455,"zip":"11417","miles_from_dt":26.66},{"city":"Flushing","state_name":"New York","lat":40.7686,"lng":-73.82743,"zip":"11354","miles_from_dt":26.93},{"city":"Ozone Park","state_name":"New York","lat":40.68458,"lng":-73.84967,"zip":"11416","miles_from_dt":26.97},{"city":"Forest Hills","state_name":"New York","lat":40.72315,"lng":-73.84373,"zip":"11375","miles_from_dt":27.01},{"city":"Miller Place","state_name":"New York","lat":40.93585,"lng":-72.97544,"zip":"11764","miles_from_dt":27.33},{"city":"Flushing","state_name":"New York","lat":40.78109,"lng":-73.83091,"zip":"11351","miles_from_dt":27.37},{"city":"Brooklyn","state_name":"New York","lat":40.66392,"lng":-73.86051,"zip":"11256","miles_from_dt":27.46},{"city":"Rockaway Park","state_name":"New York","lat":40.57532,"lng":-73.85099,"zip":"11694","miles_from_dt":27.47},{"city":"Woodhaven","state_name":"New York","lat":40.69403,"lng":-73.85865,"zip":"11421","miles_from_dt":27.5},{"city":"Mastic Beach","state_name":"New York","lat":40.76624,"lng":-72.83655,"zip":"11951","miles_from_dt":27.51},{"city":"Corona","state_name":"New York","lat":40.74962,"lng":-73.85264,"zip":"11368","miles_from_dt":27.85},{"city":"Mastic","state_name":"New York","lat":40.80627,"lng":-72.84734,"zip":"11950","miles_from_dt":27.89},{"city":"Upton","state_name":"New York","lat":40.86583,"lng":-72.88718,"zip":"11973","miles_from_dt":27.91},{"city":"Rego Park","state_name":"New York","lat":40.72647,"lng":-73.86144,"zip":"11374","miles_from_dt":27.96},{"city":"College Point","state_name":"New York","lat":40.78492,"lng":-73.84149,"zip":"11356","miles_from_dt":27.98},{"city":"Brooklyn","state_name":"New York","lat":40.64733,"lng":-73.87136,"zip":"11239","miles_from_dt":28.02},{"city":"Brooklyn","state_name":"New York","lat":40.67481,"lng":-73.87243,"zip":"11208","miles_from_dt":28.11},{"city":"Bronx","state_name":"New York","lat":40.8286,"lng":-73.82179,"zip":"10465","miles_from_dt":28.17},{"city":"Bronx","state_name":"New York","lat":40.86821,"lng":-73.80044,"zip":"10464","miles_from_dt":28.49},{"city":"Sound Beach","state_name":"New York","lat":40.95759,"lng":-72.97214,"zip":"11789","miles_from_dt":28.54},{"city":"Flushing","state_name":"New York","lat":40.71592,"lng":-73.87577,"zip":"11381","miles_from_dt":28.58},{"city":"New Rochelle","state_name":"New York","lat":40.89593,"lng":-73.78028,"zip":"10805","miles_from_dt":28.67},{"city":"Old Greenwich","state_name":"Connecticut","lat":41.02881,"lng":-73.56964,"zip":"06870","miles_from_dt":28.72},{"city":"Middle Village","state_name":"New York","lat":40.71709,"lng":-73.88056,"zip":"11379","miles_from_dt":28.84},{"city":"Stamford","state_name":"Connecticut","lat":41.04026,"lng":-73.54805,"zip":"06926","miles_from_dt":28.99},{"city":"Elmhurst","state_name":"New York","lat":40.73892,"lng":-73.87854,"zip":"11373","miles_from_dt":29.01},{"city":"East Elmhurst","state_name":"New York","lat":40.76345,"lng":-73.87222,"zip":"11369","miles_from_dt":29.08},{"city":"Moriches","state_name":"New York","lat":40.80777,"lng":-72.82289,"zip":"11955","miles_from_dt":29.12},{"city":"Ridgewood","state_name":"New York","lat":40.70103,"lng":-73.89011,"zip":"11385","miles_from_dt":29.19},{"city":"Riverside","state_name":"Connecticut","lat":41.03191,"lng":-73.58283,"zip":"06878","miles_from_dt":29.21},{"city":"Stamford","state_name":"Connecticut","lat":41.04383,"lng":-73.54811,"zip":"06927","miles_from_dt":29.22},{"city":"Brooklyn","state_name":"New York","lat":40.67016,"lng":-73.89383,"zip":"11207","miles_from_dt":29.22},{"city":"Rye","state_name":"New York","lat":40.97854,"lng":-73.69258,"zip":"10580","miles_from_dt":29.23},{"city":"Stamford","state_name":"Connecticut","lat":41.04444,"lng":-73.54963,"zip":"06910","miles_from_dt":29.29},{"city":"Norwalk","state_name":"Connecticut","lat":41.06962,"lng":-73.43775,"zip":"06853","miles_from_dt":29.32},{"city":"Flushing","state_name":"New York","lat":40.77445,"lng":-73.87316,"zip":"11371","miles_from_dt":29.34},{"city":"Rocky Point","state_name":"New York","lat":40.94312,"lng":-72.93073,"zip":"11778","miles_from_dt":29.35},{"city":"Stamford","state_name":"Connecticut","lat":41.04136,"lng":-73.56248,"zip":"06911","miles_from_dt":29.35},{"city":"New Rochelle","state_name":"New York","lat":40.91314,"lng":-73.77973,"zip":"10802","miles_from_dt":29.36},{"city":"Elmhurst","state_name":"New York","lat":40.74295,"lng":-73.88462,"zip":"11380","miles_from_dt":29.38},{"city":"Ridgewood","state_name":"New York","lat":40.70039,"lng":-73.89473,"zip":"11386","miles_from_dt":29.43},{"city":"Stamford","state_name":"Connecticut","lat":41.05007,"lng":-73.53897,"zip":"06913","miles_from_dt":29.44},{"city":"Jackson Heights","state_name":"New York","lat":40.75172,"lng":-73.88367,"zip":"11372","miles_from_dt":29.46},{"city":"Mamaroneck","state_name":"New York","lat":40.95274,"lng":-73.73645,"zip":"10543","miles_from_dt":29.46},{"city":"Ridge","state_name":"New York","lat":40.90458,"lng":-72.88488,"zip":"11961","miles_from_dt":29.5},{"city":"Larchmont","state_name":"New York","lat":40.9376,"lng":-73.75707,"zip":"10538","miles_from_dt":29.53},{"city":"Stamford","state_name":"Connecticut","lat":41.05114,"lng":-73.54054,"zip":"06904","miles_from_dt":29.54},{"city":"Brooklyn","state_name":"New York","lat":40.63951,"lng":-73.90098,"zip":"11236","miles_from_dt":29.59},{"city":"Bronx","state_name":"New York","lat":40.84671,"lng":-73.84079,"zip":"10461","miles_from_dt":29.61},{"city":"Bronx","state_name":"New York","lat":40.81817,"lng":-73.85889,"zip":"10473","miles_from_dt":29.65},{"city":"Stamford","state_name":"Connecticut","lat":41.05349,"lng":-73.53845,"zip":"06901","miles_from_dt":29.65},{"city":"New Rochelle","state_name":"New York","lat":40.91751,"lng":-73.78396,"zip":"10801","miles_from_dt":29.72},{"city":"Greenwich","state_name":"Connecticut","lat":41.02276,"lng":-73.62845,"zip":"06836","miles_from_dt":29.79},{"city":"Stamford","state_name":"Connecticut","lat":41.05512,"lng":-73.54068,"zip":"06912","miles_from_dt":29.8},{"city":"Pelham","state_name":"New York","lat":40.89978,"lng":-73.80619,"zip":"10803","miles_from_dt":29.93},{"city":"Bronx","state_name":"New York","lat":40.87528,"lng":-73.82702,"zip":"10475","miles_from_dt":29.93}],"targetCityZipCode":"11702","targetCityState":"New York"},"__N_SSG":true}