{"pageProps":{"stateName":"New-york","cityName":"bellona","nearbyCities":[{"city":"Hall","state_name":"New York","lat":42.79539,"lng":-77.0689,"zip":"14463","miles_from_dt":3.81},{"city":"Dresden","state_name":"New York","lat":42.68608,"lng":-76.95756,"zip":"14441","miles_from_dt":5.67},{"city":"Geneva","state_name":"New York","lat":42.84584,"lng":-77.00012,"zip":"14456","miles_from_dt":6.26},{"city":"Penn Yan","state_name":"New York","lat":42.66764,"lng":-77.06473,"zip":"14527","miles_from_dt":6.57},{"city":"Gorham","state_name":"New York","lat":42.80179,"lng":-77.1305,"zip":"14461","miles_from_dt":6.61},{"city":"Stanley","state_name":"New York","lat":42.82218,"lng":-77.13131,"zip":"14561","miles_from_dt":7.42},{"city":"Romulus","state_name":"New York","lat":42.75704,"lng":-76.84403,"zip":"14541","miles_from_dt":8.77},{"city":"Willard","state_name":"New York","lat":42.67973,"lng":-76.87047,"zip":"14588","miles_from_dt":9.1},{"city":"Fayette","state_name":"New York","lat":42.81884,"lng":-76.81577,"zip":"13065","miles_from_dt":11.09},{"city":"Himrod","state_name":"New York","lat":42.59666,"lng":-76.963,"zip":"14842","miles_from_dt":11.32},{"city":"Rushville","state_name":"New York","lat":42.75562,"lng":-77.23958,"zip":"14544","miles_from_dt":11.35},{"city":"Seneca Castle","state_name":"New York","lat":42.90494,"lng":-77.12653,"zip":"14547","miles_from_dt":11.71},{"city":"Ovid","state_name":"New York","lat":42.67639,"lng":-76.80876,"zip":"14521","miles_from_dt":11.91},{"city":"Oaks Corners","state_name":"New York","lat":42.93017,"lng":-77.01246,"zip":"14518","miles_from_dt":12.03},{"city":"Waterloo","state_name":"New York","lat":42.91185,"lng":-76.87601,"zip":"13165","miles_from_dt":12.91},{"city":"Keuka Park","state_name":"New York","lat":42.58011,"lng":-77.12791,"zip":"14478","miles_from_dt":13.4},{"city":"Middlesex","state_name":"New York","lat":42.69635,"lng":-77.27373,"zip":"14507","miles_from_dt":13.72},{"city":"Phelps","state_name":"New York","lat":42.96462,"lng":-77.02601,"zip":"14532","miles_from_dt":14.42},{"city":"Lodi","state_name":"New York","lat":42.59099,"lng":-76.84201,"zip":"14860","miles_from_dt":14.44},{"city":"Branchport","state_name":"New York","lat":42.60717,"lng":-77.21681,"zip":"14418","miles_from_dt":14.48},{"city":"Clifton Springs","state_name":"New York","lat":42.95696,"lng":-77.14333,"zip":"14432","miles_from_dt":15.3},{"city":"Canandaigua","state_name":"New York","lat":42.84649,"lng":-77.3104,"zip":"14424","miles_from_dt":16.2},{"city":"Seneca Falls","state_name":"New York","lat":42.9208,"lng":-76.78106,"zip":"13148","miles_from_dt":16.51},{"city":"Lakemont","state_name":"New York","lat":42.51874,"lng":-76.92825,"zip":"14857","miles_from_dt":16.98},{"city":"Pulteney","state_name":"New York","lat":42.53231,"lng":-77.17234,"zip":"14874","miles_from_dt":17.36},{"city":"Interlaken","state_name":"New York","lat":42.6031,"lng":-76.74047,"zip":"14847","miles_from_dt":17.57},{"city":"Dundee","state_name":"New York","lat":42.49919,"lng":-77.01668,"zip":"14837","miles_from_dt":17.72},{"city":"Hector","state_name":"New York","lat":42.52699,"lng":-76.84249,"zip":"14841","miles_from_dt":18.12},{"city":"Aurora","state_name":"New York","lat":42.75044,"lng":-76.65968,"zip":"13026","miles_from_dt":18.15},{"city":"Manchester","state_name":"New York","lat":42.96839,"lng":-77.2327,"zip":"14504","miles_from_dt":18.32},{"city":"Shortsville","state_name":"New York","lat":42.97538,"lng":-77.24341,"zip":"14548","miles_from_dt":19.04},{"city":"Union Springs","state_name":"New York","lat":42.82613,"lng":-76.65157,"zip":"13160","miles_from_dt":19.17},{"city":"Cayuga","state_name":"New York","lat":42.91366,"lng":-76.69502,"zip":"13034","miles_from_dt":19.63},{"city":"Wayne","state_name":"New York","lat":42.46952,"lng":-77.11182,"zip":"14893","miles_from_dt":20.36},{"city":"Port Gibson","state_name":"New York","lat":43.03539,"lng":-77.15604,"zip":"14537","miles_from_dt":20.55},{"city":"Naples","state_name":"New York","lat":42.64411,"lng":-77.39296,"zip":"14512","miles_from_dt":20.66},{"city":"King Ferry","state_name":"New York","lat":42.67364,"lng":-76.62527,"zip":"13081","miles_from_dt":20.7},{"city":"Poplar Ridge","state_name":"New York","lat":42.74057,"lng":-76.59794,"zip":"13139","miles_from_dt":21.32},{"city":"Rock Stream","state_name":"New York","lat":42.44946,"lng":-76.94401,"zip":"14878","miles_from_dt":21.47},{"city":"Prattsburgh","state_name":"New York","lat":42.52181,"lng":-77.29814,"zip":"14873","miles_from_dt":21.61},{"city":"Newark","state_name":"New York","lat":43.07204,"lng":-77.0961,"zip":"14513","miles_from_dt":22.19},{"city":"Reading Center","state_name":"New York","lat":42.43372,"lng":-76.95015,"zip":"14876","miles_from_dt":22.49},{"city":"Farmington","state_name":"New York","lat":42.98962,"lng":-77.33734,"zip":"14425","miles_from_dt":22.93},{"city":"Scipio Center","state_name":"New York","lat":42.77336,"lng":-76.56603,"zip":"13147","miles_from_dt":22.94},{"city":"Lyons","state_name":"New York","lat":43.09008,"lng":-76.99238,"zip":"14489","miles_from_dt":23.1},{"city":"Palmyra","state_name":"New York","lat":43.05911,"lng":-77.22152,"zip":"14522","miles_from_dt":23.37},{"city":"Clyde","state_name":"New York","lat":43.07939,"lng":-76.87779,"zip":"14433","miles_from_dt":23.41},{"city":"Hammondsport","state_name":"New York","lat":42.44119,"lng":-77.18758,"zip":"14840","miles_from_dt":23.41},{"city":"Montezuma","state_name":"New York","lat":43.01007,"lng":-76.70838,"zip":"13117","miles_from_dt":23.5},{"city":"Burdett","state_name":"New York","lat":42.44878,"lng":-76.81688,"zip":"14818","miles_from_dt":23.51},{"city":"East Bloomfield","state_name":"New York","lat":42.89039,"lng":-77.4465,"zip":"14443","miles_from_dt":23.74},{"city":"Trumansburg","state_name":"New York","lat":42.50408,"lng":-76.68836,"zip":"14886","miles_from_dt":24.12},{"city":"Honeoye","state_name":"New York","lat":42.75308,"lng":-77.49425,"zip":"14471","miles_from_dt":24.31},{"city":"Bloomfield","state_name":"New York","lat":42.87778,"lng":-77.46735,"zip":"14469","miles_from_dt":24.41},{"city":"Tyrone","state_name":"New York","lat":42.40247,"lng":-77.06989,"zip":"14887","miles_from_dt":24.55},{"city":"Genoa","state_name":"New York","lat":42.67584,"lng":-76.54252,"zip":"13071","miles_from_dt":24.75},{"city":"Auburn","state_name":"New York","lat":42.93453,"lng":-76.57424,"zip":"13024","miles_from_dt":25.62},{"city":"Mecklenburg","state_name":"New York","lat":42.4555,"lng":-76.71105,"zip":"14863","miles_from_dt":25.93},{"city":"Lansing","state_name":"New York","lat":42.5801,"lng":-76.56576,"zip":"14882","miles_from_dt":25.97},{"city":"Victor","state_name":"New York","lat":42.98329,"lng":-77.42417,"zip":"14564","miles_from_dt":25.98},{"city":"Auburn","state_name":"New York","lat":42.91713,"lng":-76.5542,"zip":"13021","miles_from_dt":25.99},{"city":"Auburn","state_name":"New York","lat":42.91996,"lng":-76.55292,"zip":"13022","miles_from_dt":26.13},{"city":"Watkins Glen","state_name":"New York","lat":42.37823,"lng":-76.95035,"zip":"14891","miles_from_dt":26.29},{"city":"Bradford","state_name":"New York","lat":42.37335,"lng":-77.09463,"zip":"14815","miles_from_dt":26.71},{"city":"Jacksonville","state_name":"New York","lat":42.51138,"lng":-76.60874,"zip":"14854","miles_from_dt":26.77},{"city":"Atlanta","state_name":"New York","lat":42.55817,"lng":-77.46882,"zip":"14808","miles_from_dt":26.79},{"city":"Savannah","state_name":"New York","lat":43.09711,"lng":-76.76031,"zip":"13146","miles_from_dt":26.9},{"city":"Ionia","state_name":"New York","lat":42.93683,"lng":-77.49787,"zip":"14475","miles_from_dt":27.46},{"city":"Port Byron","state_name":"New York","lat":43.05891,"lng":-76.65841,"zip":"13140","miles_from_dt":27.7},{"city":"Rose","state_name":"New York","lat":43.15306,"lng":-76.87595,"zip":"14542","miles_from_dt":28.33},{"city":"Macedon","state_name":"New York","lat":43.09532,"lng":-77.33598,"zip":"14502","miles_from_dt":28.49},{"city":"Springwater","state_name":"New York","lat":42.68716,"lng":-77.57691,"zip":"14560","miles_from_dt":28.92},{"city":"Hemlock","state_name":"New York","lat":42.77773,"lng":-77.5842,"zip":"14466","miles_from_dt":28.92},{"city":"Marion","state_name":"New York","lat":43.15846,"lng":-77.17503,"zip":"14505","miles_from_dt":28.93},{"city":"South Butler","state_name":"New York","lat":43.13378,"lng":-76.76192,"zip":"13154","miles_from_dt":29.1},{"city":"West Bloomfield","state_name":"New York","lat":42.90587,"lng":-77.55301,"zip":"14585","miles_from_dt":29.16},{"city":"Fishers","state_name":"New York","lat":43.01602,"lng":-77.47338,"zip":"14453","miles_from_dt":29.33},{"city":"Montour Falls","state_name":"New York","lat":42.35091,"lng":-76.83178,"zip":"14865","miles_from_dt":29.5},{"city":"Odessa","state_name":"New York","lat":42.36403,"lng":-76.77052,"zip":"14869","miles_from_dt":29.82}],"targetCityZipCode":"14415","targetCityState":"New York"},"__N_SSG":true}