{"pageProps":{"stateName":"New-york","cityName":"burke","nearbyCities":[{"city":"Chateaugay","state_name":"New York","lat":44.89332,"lng":-74.06016,"zip":"12920","miles_from_dt":5.99},{"city":"Constable","state_name":"New York","lat":44.95223,"lng":-74.32214,"zip":"12926","miles_from_dt":7.52},{"city":"Brainardsville","state_name":"New York","lat":44.8535,"lng":-74.035,"zip":"12915","miles_from_dt":8.4},{"city":"Whippleville","state_name":"New York","lat":44.80833,"lng":-74.26124,"zip":"12995","miles_from_dt":9.11},{"city":"Churubusco","state_name":"New York","lat":44.94546,"lng":-73.95802,"zip":"12923","miles_from_dt":10.68},{"city":"Malone","state_name":"New York","lat":44.74198,"lng":-74.26347,"zip":"12953","miles_from_dt":13.36},{"city":"Lyon Mountain","state_name":"New York","lat":44.78934,"lng":-73.95855,"zip":"12955","miles_from_dt":14.11},{"city":"North Bangor","state_name":"New York","lat":44.79226,"lng":-74.41915,"zip":"12966","miles_from_dt":15.12},{"city":"Fort Covington","state_name":"New York","lat":44.96176,"lng":-74.47807,"zip":"12937","miles_from_dt":15.14},{"city":"Owls Head","state_name":"New York","lat":44.71102,"lng":-74.0812,"zip":"12969","miles_from_dt":15.44},{"city":"Ellenburg Center","state_name":"New York","lat":44.84603,"lng":-73.87659,"zip":"12934","miles_from_dt":15.57},{"city":"Ellenburg","state_name":"New York","lat":44.89118,"lng":-73.84512,"zip":"12933","miles_from_dt":16.3},{"city":"Brushton","state_name":"New York","lat":44.83572,"lng":-74.5145,"zip":"12916","miles_from_dt":17.82},{"city":"Ellenburg Depot","state_name":"New York","lat":44.85709,"lng":-73.79461,"zip":"12935","miles_from_dt":19.19},{"city":"Lyon Mountain","state_name":"New York","lat":44.71181,"lng":-73.91362,"zip":"12952","miles_from_dt":19.48},{"city":"Moira","state_name":"New York","lat":44.85353,"lng":-74.57706,"zip":"12957","miles_from_dt":20.39},{"city":"Bombay","state_name":"New York","lat":44.93289,"lng":-74.6018,"zip":"12914","miles_from_dt":21},{"city":"Dickinson Center","state_name":"New York","lat":44.72349,"lng":-74.5437,"zip":"12930","miles_from_dt":22.88},{"city":"Mooers Forks","state_name":"New York","lat":44.96073,"lng":-73.7014,"zip":"12959","miles_from_dt":23.3},{"city":"Hogansburg","state_name":"New York","lat":44.97865,"lng":-74.64781,"zip":"13655","miles_from_dt":23.54},{"city":"Helena","state_name":"New York","lat":44.91246,"lng":-74.69983,"zip":"13649","miles_from_dt":25.82},{"city":"North Lawrence","state_name":"New York","lat":44.76864,"lng":-74.65897,"zip":"12967","miles_from_dt":26.15},{"city":"Altona","state_name":"New York","lat":44.8546,"lng":-73.64593,"zip":"12910","miles_from_dt":26.36},{"city":"Dannemora","state_name":"New York","lat":44.71971,"lng":-73.71909,"zip":"12929","miles_from_dt":26.45},{"city":"Saranac","state_name":"New York","lat":44.62235,"lng":-73.84035,"zip":"12981","miles_from_dt":26.55},{"city":"Lawrenceville","state_name":"New York","lat":44.75881,"lng":-74.66276,"zip":"12949","miles_from_dt":26.61},{"city":"Vermontville","state_name":"New York","lat":44.53935,"lng":-74.06439,"zip":"12989","miles_from_dt":27.15},{"city":"Rooseveltown","state_name":"New York","lat":44.97395,"lng":-74.73543,"zip":"13683","miles_from_dt":27.75},{"city":"Brasher Falls","state_name":"New York","lat":44.85884,"lng":-74.73879,"zip":"13613","miles_from_dt":28.1},{"city":"Redford","state_name":"New York","lat":44.6181,"lng":-73.79589,"zip":"12978","miles_from_dt":28.17},{"city":"Rainbow Lake","state_name":"New York","lat":44.50469,"lng":-74.20498,"zip":"12976","miles_from_dt":29.04},{"city":"Cadyville","state_name":"New York","lat":44.68975,"lng":-73.67863,"zip":"12918","miles_from_dt":29.25},{"city":"Nicholville","state_name":"New York","lat":44.70587,"lng":-74.684,"zip":"12965","miles_from_dt":29.27},{"city":"Saint Regis Falls","state_name":"New York","lat":44.57254,"lng":-74.50875,"zip":"12980","miles_from_dt":29.37},{"city":"Mooers","state_name":"New York","lat":44.95661,"lng":-73.57419,"zip":"12958","miles_from_dt":29.49}],"targetCityZipCode":"12917","targetCityState":"New York"},"__N_SSG":true}