{"pageProps":{"stateName":"New-york","cityName":"caroga-lake","nearbyCities":[{"city":"Stratford","state_name":"New York","lat":43.21075,"lng":-74.66825,"zip":"13470","miles_from_dt":5.99},{"city":"Salisbury Center","state_name":"New York","lat":43.16885,"lng":-74.75719,"zip":"13454","miles_from_dt":11.27},{"city":"Dolgeville","state_name":"New York","lat":43.11094,"lng":-74.70017,"zip":"13329","miles_from_dt":11.51},{"city":"Gloversville","state_name":"New York","lat":43.12338,"lng":-74.36255,"zip":"12078","miles_from_dt":12.71},{"city":"Saint Johnsville","state_name":"New York","lat":43.03718,"lng":-74.63001,"zip":"13452","miles_from_dt":14.51},{"city":"Mayfield","state_name":"New York","lat":43.16894,"lng":-74.25557,"zip":"12117","miles_from_dt":15.99},{"city":"Johnstown","state_name":"New York","lat":43.03151,"lng":-74.41553,"zip":"12095","miles_from_dt":16.09},{"city":"Northville","state_name":"New York","lat":43.26533,"lng":-74.23059,"zip":"12134","miles_from_dt":16.54},{"city":"Lake Pleasant","state_name":"New York","lat":43.47045,"lng":-74.42768,"zip":"12108","miles_from_dt":17.16},{"city":"Little Falls","state_name":"New York","lat":43.09804,"lng":-74.84937,"zip":"13365","miles_from_dt":17.76},{"city":"Hoffmeister","state_name":"New York","lat":43.47123,"lng":-74.72732,"zip":"13353","miles_from_dt":18.1},{"city":"Piseco","state_name":"New York","lat":43.52096,"lng":-74.56552,"zip":"12139","miles_from_dt":19.37},{"city":"Middleville","state_name":"New York","lat":43.14326,"lng":-74.92257,"zip":"13406","miles_from_dt":19.66},{"city":"Cold Brook","state_name":"New York","lat":43.3165,"lng":-74.93325,"zip":"13324","miles_from_dt":19.71},{"city":"Newport","state_name":"New York","lat":43.18768,"lng":-74.9571,"zip":"13416","miles_from_dt":20.54},{"city":"Fonda","state_name":"New York","lat":42.95701,"lng":-74.40467,"zip":"12068","miles_from_dt":21.02},{"city":"Fort Plain","state_name":"New York","lat":42.93995,"lng":-74.66631,"zip":"13339","miles_from_dt":21.47},{"city":"Wells","state_name":"New York","lat":43.47359,"lng":-74.2733,"zip":"12190","miles_from_dt":21.51},{"city":"Nelliston","state_name":"New York","lat":42.92908,"lng":-74.60922,"zip":"13410","miles_from_dt":21.66},{"city":"Palatine Bridge","state_name":"New York","lat":42.92096,"lng":-74.53311,"zip":"13428","miles_from_dt":22.08},{"city":"Fort Johnson","state_name":"New York","lat":42.98513,"lng":-74.25441,"zip":"12070","miles_from_dt":23.33},{"city":"Tribes Hill","state_name":"New York","lat":42.95184,"lng":-74.28459,"zip":"12177","miles_from_dt":24.21},{"city":"Broadalbin","state_name":"New York","lat":43.09142,"lng":-74.11924,"zip":"12025","miles_from_dt":24.38},{"city":"Auriesville","state_name":"New York","lat":42.92878,"lng":-74.31964,"zip":"12016","miles_from_dt":24.63},{"city":"Fort Hunter","state_name":"New York","lat":42.94336,"lng":-74.28193,"zip":"12069","miles_from_dt":24.77},{"city":"Herkimer","state_name":"New York","lat":43.06352,"lng":-74.98817,"zip":"13350","miles_from_dt":25},{"city":"Poland","state_name":"New York","lat":43.20691,"lng":-75.07608,"zip":"13431","miles_from_dt":26.32},{"city":"Canajoharie","state_name":"New York","lat":42.85638,"lng":-74.58844,"zip":"13317","miles_from_dt":26.56},{"city":"Fultonville","state_name":"New York","lat":42.88102,"lng":-74.36164,"zip":"12072","miles_from_dt":26.7},{"city":"Mohawk","state_name":"New York","lat":42.9677,"lng":-74.94087,"zip":"13407","miles_from_dt":27.06},{"city":"Van Hornesville","state_name":"New York","lat":42.88789,"lng":-74.81196,"zip":"13475","miles_from_dt":27.55},{"city":"Speculator","state_name":"New York","lat":43.62883,"lng":-74.42717,"zip":"12164","miles_from_dt":27.59},{"city":"Forestport","state_name":"New York","lat":43.49706,"lng":-74.97833,"zip":"13338","miles_from_dt":27.66},{"city":"Sprakers","state_name":"New York","lat":42.83846,"lng":-74.45644,"zip":"12166","miles_from_dt":28.21},{"city":"Jordanville","state_name":"New York","lat":42.89807,"lng":-74.86256,"zip":"13361","miles_from_dt":28.25},{"city":"Hagaman","state_name":"New York","lat":42.99684,"lng":-74.10508,"zip":"12086","miles_from_dt":28.36},{"city":"Hadley","state_name":"New York","lat":43.32496,"lng":-74.00589,"zip":"12835","miles_from_dt":28.38},{"city":"Amsterdam","state_name":"New York","lat":42.93752,"lng":-74.17287,"zip":"12010","miles_from_dt":28.53},{"city":"Galway","state_name":"New York","lat":43.05219,"lng":-74.04709,"zip":"12074","miles_from_dt":28.85},{"city":"Hinckley","state_name":"New York","lat":43.31122,"lng":-75.12058,"zip":"13352","miles_from_dt":28.86},{"city":"Stony Creek","state_name":"New York","lat":43.44217,"lng":-74.0479,"zip":"12878","miles_from_dt":29.17}],"targetCityZipCode":"12032","targetCityState":"New York"},"__N_SSG":true}