{"pageProps":{"stateName":"New-york","cityName":"chazy","nearbyCities":[{"city":"Isle La Motte","state_name":"Vermont","lat":44.86297,"lng":-73.34254,"zip":"05463","miles_from_dt":4.99},{"city":"Champlain","state_name":"New York","lat":44.96793,"lng":-73.45072,"zip":"12919","miles_from_dt":5.3},{"city":"West Chazy","state_name":"New York","lat":44.81822,"lng":-73.51582,"zip":"12992","miles_from_dt":6.43},{"city":"Rouses Point","state_name":"New York","lat":44.98926,"lng":-73.37213,"zip":"12979","miles_from_dt":7.41},{"city":"Mooers","state_name":"New York","lat":44.95661,"lng":-73.57419,"zip":"12958","miles_from_dt":8.13},{"city":"Alburgh","state_name":"Vermont","lat":44.95214,"lng":-73.2848,"zip":"05440","miles_from_dt":8.49},{"city":"North Hero","state_name":"Vermont","lat":44.83445,"lng":-73.26687,"zip":"05474","miles_from_dt":9.19},{"city":"Altona","state_name":"New York","lat":44.8546,"lng":-73.64593,"zip":"12910","miles_from_dt":10.64},{"city":"Plattsburgh","state_name":"New York","lat":44.70842,"lng":-73.47465,"zip":"12901","miles_from_dt":12.81},{"city":"Grand Isle","state_name":"Vermont","lat":44.71838,"lng":-73.29837,"zip":"05458","miles_from_dt":13.75},{"city":"Mooers Forks","state_name":"New York","lat":44.96073,"lng":-73.7014,"zip":"12959","miles_from_dt":13.87},{"city":"Swanton","state_name":"Vermont","lat":44.92214,"lng":-73.14286,"zip":"05488","miles_from_dt":14.52},{"city":"Morrisonville","state_name":"New York","lat":44.70642,"lng":-73.60141,"zip":"12962","miles_from_dt":15.18},{"city":"Saint Albans Bay","state_name":"Vermont","lat":44.80833,"lng":-73.1396,"zip":"05481","miles_from_dt":15.65},{"city":"Plattsburgh","state_name":"New York","lat":44.65698,"lng":-73.46306,"zip":"12903","miles_from_dt":16.28},{"city":"Saint Albans","state_name":"Vermont","lat":44.7941,"lng":-73.11714,"zip":"05478","miles_from_dt":17.05},{"city":"Highgate Springs","state_name":"Vermont","lat":44.97982,"lng":-73.10545,"zip":"05460","miles_from_dt":17.3},{"city":"Ellenburg Depot","state_name":"New York","lat":44.85709,"lng":-73.79461,"zip":"12935","miles_from_dt":17.78},{"city":"Essex Junction","state_name":"Vermont","lat":44.81206,"lng":-73.08276,"zip":"05479","miles_from_dt":18.19},{"city":"Dannemora","state_name":"New York","lat":44.71971,"lng":-73.71909,"zip":"12929","miles_from_dt":18.31},{"city":"Cadyville","state_name":"New York","lat":44.68975,"lng":-73.67863,"zip":"12918","miles_from_dt":18.37},{"city":"South Hero","state_name":"Vermont","lat":44.62958,"lng":-73.31444,"zip":"05486","miles_from_dt":19.07},{"city":"Ellenburg","state_name":"New York","lat":44.89118,"lng":-73.84512,"zip":"12933","miles_from_dt":20.09},{"city":"Highgate Center","state_name":"Vermont","lat":44.95568,"lng":-73.01861,"zip":"05459","miles_from_dt":20.93},{"city":"Milton","state_name":"Vermont","lat":44.65378,"lng":-73.15343,"zip":"05468","miles_from_dt":21.52},{"city":"Ellenburg Center","state_name":"New York","lat":44.84603,"lng":-73.87659,"zip":"12934","miles_from_dt":21.88},{"city":"Sheldon","state_name":"Vermont","lat":44.88322,"lng":-72.98484,"zip":"05483","miles_from_dt":22.14},{"city":"Sheldon Springs","state_name":"Vermont","lat":44.90405,"lng":-72.97567,"zip":"05485","miles_from_dt":22.6},{"city":"Peru","state_name":"New York","lat":44.559,"lng":-73.56516,"zip":"12972","miles_from_dt":23.85},{"city":"Fairfield","state_name":"Vermont","lat":44.80352,"lng":-72.96568,"zip":"05455","miles_from_dt":23.88},{"city":"Fairfax","state_name":"Vermont","lat":44.7056,"lng":-73.02294,"zip":"05454","miles_from_dt":24.03},{"city":"Keeseville","state_name":"New York","lat":44.53464,"lng":-73.46687,"zip":"12911","miles_from_dt":24.72},{"city":"Port Kent","state_name":"New York","lat":44.52977,"lng":-73.431,"zip":"12975","miles_from_dt":25},{"city":"Colchester","state_name":"Vermont","lat":44.5541,"lng":-73.21647,"zip":"05446","miles_from_dt":25.7},{"city":"Churubusco","state_name":"New York","lat":44.94546,"lng":-73.95802,"zip":"12923","miles_from_dt":25.89},{"city":"Redford","state_name":"New York","lat":44.6181,"lng":-73.79589,"zip":"12978","miles_from_dt":25.91},{"city":"Franklin","state_name":"Vermont","lat":44.97294,"lng":-72.91832,"zip":"05457","miles_from_dt":25.99},{"city":"Lyon Mountain","state_name":"New York","lat":44.71181,"lng":-73.91362,"zip":"12952","miles_from_dt":26.58},{"city":"Lyon Mountain","state_name":"New York","lat":44.78934,"lng":-73.95855,"zip":"12955","miles_from_dt":26.64},{"city":"Jonesville","state_name":"Vermont","lat":44.54068,"lng":-73.20958,"zip":"05466","miles_from_dt":26.68},{"city":"Schuyler Falls","state_name":"New York","lat":44.56413,"lng":-73.73395,"zip":"12985","miles_from_dt":26.98},{"city":"Saranac","state_name":"New York","lat":44.62235,"lng":-73.84035,"zip":"12981","miles_from_dt":27.25},{"city":"Colchester","state_name":"Vermont","lat":44.54505,"lng":-73.14596,"zip":"05449","miles_from_dt":27.88},{"city":"East Fairfield","state_name":"Vermont","lat":44.75374,"lng":-72.8872,"zip":"05448","miles_from_dt":28.6},{"city":"Westford","state_name":"Vermont","lat":44.60472,"lng":-73.01523,"zip":"05494","miles_from_dt":28.66},{"city":"Burlington","state_name":"Vermont","lat":44.48969,"lng":-73.27139,"zip":"05408","miles_from_dt":28.93},{"city":"Brainardsville","state_name":"New York","lat":44.8535,"lng":-74.035,"zip":"12915","miles_from_dt":29.54},{"city":"Keeseville","state_name":"New York","lat":44.47589,"lng":-73.58751,"zip":"12924","miles_from_dt":29.68},{"city":"Burlington","state_name":"Vermont","lat":44.48717,"lng":-73.22627,"zip":"05406","miles_from_dt":29.79}],"targetCityZipCode":"12921","targetCityState":"New York"},"__N_SSG":true}