{"pageProps":{"stateName":"New-york","cityName":"crown-point","nearbyCities":[{"city":"Moriah","state_name":"New York","lat":44.02226,"lng":-73.54123,"zip":"12960","miles_from_dt":4.76},{"city":"Ticonderoga","state_name":"New York","lat":43.85291,"lng":-73.50786,"zip":"12883","miles_from_dt":7.05},{"city":"Port Henry","state_name":"New York","lat":44.05582,"lng":-73.46931,"zip":"12974","miles_from_dt":7.64},{"city":"Moriah Center","state_name":"New York","lat":44.06103,"lng":-73.57972,"zip":"12961","miles_from_dt":7.82},{"city":"Paradox","state_name":"New York","lat":43.88899,"lng":-73.6703,"zip":"12858","miles_from_dt":8.36},{"city":"Witherbee","state_name":"New York","lat":44.0879,"lng":-73.57584,"zip":"12998","miles_from_dt":9.54},{"city":"Mineville","state_name":"New York","lat":44.09301,"lng":-73.49628,"zip":"12956","miles_from_dt":9.74},{"city":"Bridport","state_name":"Vermont","lat":43.98243,"lng":-73.33286,"zip":"05734","miles_from_dt":9.98},{"city":"Severance","state_name":"New York","lat":43.8839,"lng":-73.72309,"zip":"12872","miles_from_dt":10.83},{"city":"Shoreham","state_name":"Vermont","lat":43.88662,"lng":-73.32771,"zip":"05770","miles_from_dt":11.07},{"city":"New Russia","state_name":"New York","lat":44.13224,"lng":-73.63625,"zip":"12964","miles_from_dt":13.42},{"city":"North Hudson","state_name":"New York","lat":44.00121,"lng":-73.79762,"zip":"12855","miles_from_dt":13.79},{"city":"Schroon Lake","state_name":"New York","lat":43.83931,"lng":-73.7625,"zip":"12870","miles_from_dt":14.09},{"city":"Hague","state_name":"New York","lat":43.74994,"lng":-73.56816,"zip":"12836","miles_from_dt":14.22},{"city":"Putnam Station","state_name":"New York","lat":43.74982,"lng":-73.41502,"zip":"12861","miles_from_dt":15.2},{"city":"Vergennes","state_name":"Vermont","lat":44.12101,"lng":-73.32111,"zip":"05491","miles_from_dt":15.5},{"city":"Orwell","state_name":"Vermont","lat":43.80359,"lng":-73.29517,"zip":"05760","miles_from_dt":15.62},{"city":"Whiting","state_name":"Vermont","lat":43.87279,"lng":-73.21228,"zip":"05778","miles_from_dt":16.77},{"city":"Westport","state_name":"New York","lat":44.19711,"lng":-73.48097,"zip":"12993","miles_from_dt":16.96},{"city":"Middlebury","state_name":"Vermont","lat":43.9991,"lng":-73.17403,"zip":"05753","miles_from_dt":17.97},{"city":"Adirondack","state_name":"New York","lat":43.74782,"lng":-73.75393,"zip":"12808","miles_from_dt":18.13},{"city":"Silver Bay","state_name":"New York","lat":43.69035,"lng":-73.54836,"zip":"12874","miles_from_dt":18.22},{"city":"Elizabethtown","state_name":"New York","lat":44.21222,"lng":-73.6082,"zip":"12932","miles_from_dt":18.27},{"city":"Benson","state_name":"Vermont","lat":43.7532,"lng":-73.28857,"zip":"05731","miles_from_dt":18.34},{"city":"Brant Lake","state_name":"New York","lat":43.70161,"lng":-73.69459,"zip":"12815","miles_from_dt":19.28},{"city":"Keene Valley","state_name":"New York","lat":44.13934,"lng":-73.82075,"zip":"12943","miles_from_dt":19.37},{"city":"Salisbury","state_name":"Vermont","lat":43.91948,"lng":-73.11651,"zip":"05769","miles_from_dt":20.72},{"city":"Pottersville","state_name":"New York","lat":43.72843,"lng":-73.80942,"zip":"12860","miles_from_dt":20.95},{"city":"East Middlebury","state_name":"Vermont","lat":43.97299,"lng":-73.10273,"zip":"05740","miles_from_dt":21.3},{"city":"New Haven","state_name":"Vermont","lat":44.11377,"lng":-73.1611,"zip":"05472","miles_from_dt":21.39},{"city":"Olmstedville","state_name":"New York","lat":43.84033,"lng":-73.93354,"zip":"12857","miles_from_dt":21.67},{"city":"Ferrisburgh","state_name":"Vermont","lat":44.20776,"lng":-73.25796,"zip":"05456","miles_from_dt":22.12},{"city":"Fair Haven","state_name":"Vermont","lat":43.67118,"lng":-73.30726,"zip":"05743","miles_from_dt":22.45},{"city":"Essex","state_name":"New York","lat":44.26869,"lng":-73.4029,"zip":"12936","miles_from_dt":22.62},{"city":"Brandon","state_name":"Vermont","lat":43.81746,"lng":-73.09216,"zip":"05733","miles_from_dt":23.76},{"city":"Clemons","state_name":"New York","lat":43.61144,"lng":-73.46315,"zip":"12819","miles_from_dt":23.87},{"city":"Huletts Landing","state_name":"New York","lat":43.59919,"lng":-73.5165,"zip":"12841","miles_from_dt":24.5},{"city":"Keene","state_name":"New York","lat":44.26023,"lng":-73.79523,"zip":"12942","miles_from_dt":24.96},{"city":"Bolton Landing","state_name":"New York","lat":43.6004,"lng":-73.63678,"zip":"12814","miles_from_dt":24.99},{"city":"Forest Dale","state_name":"Vermont","lat":43.82952,"lng":-73.05453,"zip":"05745","miles_from_dt":25.2},{"city":"Bomoseen","state_name":"Vermont","lat":43.67998,"lng":-73.18648,"zip":"05732","miles_from_dt":25.51},{"city":"Lewis","state_name":"New York","lat":44.32685,"lng":-73.57675,"zip":"12950","miles_from_dt":25.86},{"city":"North Ferrisburgh","state_name":"Vermont","lat":44.24119,"lng":-73.19346,"zip":"05473","miles_from_dt":25.93},{"city":"Chestertown","state_name":"New York","lat":43.63697,"lng":-73.82614,"zip":"12817","miles_from_dt":26.45},{"city":"Ripton","state_name":"Vermont","lat":43.98833,"lng":-72.99072,"zip":"05766","miles_from_dt":26.94},{"city":"Riparius","state_name":"New York","lat":43.67419,"lng":-73.91878,"zip":"12862","miles_from_dt":27.43},{"city":"Bristol","state_name":"Vermont","lat":44.12976,"lng":-73.03347,"zip":"05443","miles_from_dt":27.5},{"city":"Minerva","state_name":"New York","lat":43.85171,"lng":-74.06211,"zip":"12851","miles_from_dt":27.53},{"city":"Hydeville","state_name":"Vermont","lat":43.60684,"lng":-73.2287,"zip":"05750","miles_from_dt":28.28},{"city":"Castleton","state_name":"Vermont","lat":43.64475,"lng":-73.15456,"zip":"05735","miles_from_dt":28.39},{"city":"Charlotte","state_name":"Vermont","lat":44.30896,"lng":-73.23593,"zip":"05445","miles_from_dt":28.52},{"city":"Willsboro","state_name":"New York","lat":44.36129,"lng":-73.42129,"zip":"12996","miles_from_dt":28.63},{"city":"Florence","state_name":"Vermont","lat":43.69034,"lng":-73.08272,"zip":"05744","miles_from_dt":28.79},{"city":"Jay","state_name":"New York","lat":44.35147,"lng":-73.7126,"zip":"12941","miles_from_dt":28.93},{"city":"Monkton","state_name":"Vermont","lat":44.25395,"lng":-73.12095,"zip":"05469","miles_from_dt":29},{"city":"Upper Jay","state_name":"New York","lat":44.33948,"lng":-73.76386,"zip":"12987","miles_from_dt":29.07},{"city":"Whitehall","state_name":"New York","lat":43.54504,"lng":-73.37471,"zip":"12887","miles_from_dt":29.26},{"city":"Wevertown","state_name":"New York","lat":43.63689,"lng":-73.92654,"zip":"12886","miles_from_dt":29.57},{"city":"North Creek","state_name":"New York","lat":43.68816,"lng":-73.99804,"zip":"12853","miles_from_dt":29.77},{"city":"Lake Placid","state_name":"New York","lat":44.23162,"lng":-73.98903,"zip":"12946","miles_from_dt":29.86}],"targetCityZipCode":"12928","targetCityState":"New York"},"__N_SSG":true}