{"pageProps":{"stateName":"New-york","cityName":"milford","nearbyCities":[{"city":"Portlandville","state_name":"New York","lat":42.54903,"lng":-74.96727,"zip":"13834","miles_from_dt":4.8},{"city":"Mount Vision","state_name":"New York","lat":42.61188,"lng":-75.11157,"zip":"13810","miles_from_dt":6.41},{"city":"Maryland","state_name":"New York","lat":42.53849,"lng":-74.91278,"zip":"12116","miles_from_dt":6.6},{"city":"Hartwick","state_name":"New York","lat":42.70202,"lng":-75.06398,"zip":"13348","miles_from_dt":7.07},{"city":"Cooperstown","state_name":"New York","lat":42.71865,"lng":-74.90374,"zip":"13326","miles_from_dt":8.16},{"city":"Schenevus","state_name":"New York","lat":42.59229,"lng":-74.82337,"zip":"12155","miles_from_dt":8.47},{"city":"Colliersville","state_name":"New York","lat":42.49003,"lng":-74.98209,"zip":"13747","miles_from_dt":8.78},{"city":"Laurens","state_name":"New York","lat":42.5513,"lng":-75.13644,"zip":"13796","miles_from_dt":8.91},{"city":"Fly Creek","state_name":"New York","lat":42.75114,"lng":-74.9816,"zip":"13337","miles_from_dt":9.25},{"city":"Oneonta","state_name":"New York","lat":42.47204,"lng":-75.03893,"zip":"13820","miles_from_dt":10.37},{"city":"Garrattsville","state_name":"New York","lat":42.64766,"lng":-75.18918,"zip":"13342","miles_from_dt":10.56},{"city":"Roseboom","state_name":"New York","lat":42.7026,"lng":-74.81263,"zip":"13450","miles_from_dt":10.62},{"city":"New Lisbon","state_name":"New York","lat":42.59714,"lng":-75.19729,"zip":"13415","miles_from_dt":10.86},{"city":"West Oneonta","state_name":"New York","lat":42.5048,"lng":-75.14156,"zip":"13861","miles_from_dt":11.09},{"city":"West Burlington","state_name":"New York","lat":42.69661,"lng":-75.17695,"zip":"13482","miles_from_dt":11.16},{"city":"Schuyler Lake","state_name":"New York","lat":42.77527,"lng":-75.03691,"zip":"13457","miles_from_dt":11.21},{"city":"West Davenport","state_name":"New York","lat":42.45573,"lng":-74.94989,"zip":"13860","miles_from_dt":11.3},{"city":"Burlington Flats","state_name":"New York","lat":42.7438,"lng":-75.1385,"zip":"13315","miles_from_dt":11.69},{"city":"Westford","state_name":"New York","lat":42.67447,"lng":-74.76796,"zip":"13488","miles_from_dt":11.8},{"city":"Davenport Center","state_name":"New York","lat":42.45745,"lng":-74.88363,"zip":"13751","miles_from_dt":12.2},{"city":"Davenport","state_name":"New York","lat":42.47739,"lng":-74.83904,"zip":"13750","miles_from_dt":12.22},{"city":"Worcester","state_name":"New York","lat":42.6094,"lng":-74.72587,"zip":"12197","miles_from_dt":13.28},{"city":"Edmeston","state_name":"New York","lat":42.70193,"lng":-75.24847,"zip":"13335","miles_from_dt":14.59},{"city":"Morris","state_name":"New York","lat":42.52797,"lng":-75.25657,"zip":"13808","miles_from_dt":15.11},{"city":"East Meredith","state_name":"New York","lat":42.40915,"lng":-74.89321,"zip":"13757","miles_from_dt":15.12},{"city":"Otego","state_name":"New York","lat":42.44329,"lng":-75.20154,"zip":"13825","miles_from_dt":16.28},{"city":"Charlotteville","state_name":"New York","lat":42.53564,"lng":-74.68468,"zip":"12036","miles_from_dt":16.38},{"city":"Cherry Valley","state_name":"New York","lat":42.77353,"lng":-74.74325,"zip":"13320","miles_from_dt":16.41},{"city":"Richfield Springs","state_name":"New York","lat":42.85491,"lng":-74.99724,"zip":"13439","miles_from_dt":16.42},{"city":"Meridale","state_name":"New York","lat":42.37894,"lng":-74.97315,"zip":"13806","miles_from_dt":16.46},{"city":"New Berlin","state_name":"New York","lat":42.63723,"lng":-75.30981,"zip":"13411","miles_from_dt":16.56},{"city":"East Worcester","state_name":"New York","lat":42.60711,"lng":-74.65887,"zip":"12064","miles_from_dt":16.7},{"city":"East Springfield","state_name":"New York","lat":42.83091,"lng":-74.82207,"zip":"13333","miles_from_dt":16.95},{"city":"Springfield Center","state_name":"New York","lat":42.84696,"lng":-74.86448,"zip":"13468","miles_from_dt":17.03},{"city":"Treadwell","state_name":"New York","lat":42.36037,"lng":-75.05465,"zip":"13846","miles_from_dt":18.07},{"city":"Harpersfield","state_name":"New York","lat":42.4485,"lng":-74.69563,"zip":"13786","miles_from_dt":18.85},{"city":"Leonardsville","state_name":"New York","lat":42.80501,"lng":-75.26105,"zip":"13364","miles_from_dt":19.08},{"city":"West Winfield","state_name":"New York","lat":42.85957,"lng":-75.17698,"zip":"13491","miles_from_dt":19.35},{"city":"Bloomville","state_name":"New York","lat":42.36614,"lng":-74.78982,"zip":"13739","miles_from_dt":20.02},{"city":"Jefferson","state_name":"New York","lat":42.49599,"lng":-74.6262,"zip":"12093","miles_from_dt":20.18},{"city":"Jordanville","state_name":"New York","lat":42.89807,"lng":-74.86256,"zip":"13361","miles_from_dt":20.38},{"city":"Gilbertsville","state_name":"New York","lat":42.47023,"lng":-75.33458,"zip":"13776","miles_from_dt":20.47},{"city":"West Edmeston","state_name":"New York","lat":42.7865,"lng":-75.3165,"zip":"13485","miles_from_dt":20.48},{"city":"Van Hornesville","state_name":"New York","lat":42.88789,"lng":-74.81196,"zip":"13475","miles_from_dt":20.68},{"city":"South New Berlin","state_name":"New York","lat":42.53468,"lng":-75.37584,"zip":"13843","miles_from_dt":20.68},{"city":"Franklin","state_name":"New York","lat":42.33706,"lng":-75.14728,"zip":"13775","miles_from_dt":21.02},{"city":"South Kortright","state_name":"New York","lat":42.37922,"lng":-74.72302,"zip":"13842","miles_from_dt":21.22},{"city":"Richmondville","state_name":"New York","lat":42.62011,"lng":-74.56692,"zip":"12149","miles_from_dt":21.37},{"city":"Delhi","state_name":"New York","lat":42.30873,"lng":-74.92538,"zip":"13753","miles_from_dt":21.52},{"city":"Wells Bridge","state_name":"New York","lat":42.37123,"lng":-75.24916,"zip":"13859","miles_from_dt":21.65},{"city":"Brookfield","state_name":"New York","lat":42.82476,"lng":-75.31568,"zip":"13314","miles_from_dt":22.06},{"city":"Summit","state_name":"New York","lat":42.55489,"lng":-74.56161,"zip":"12175","miles_from_dt":22.08},{"city":"Sharon Springs","state_name":"New York","lat":42.77721,"lng":-74.59315,"zip":"13459","miles_from_dt":22.85},{"city":"Bridgewater","state_name":"New York","lat":42.88715,"lng":-75.26228,"zip":"13313","miles_from_dt":23.34},{"city":"Cobleskill","state_name":"New York","lat":42.70357,"lng":-74.5267,"zip":"12043","miles_from_dt":24.15},{"city":"Mohawk","state_name":"New York","lat":42.9677,"lng":-74.94087,"zip":"13407","miles_from_dt":24.3},{"city":"Stamford","state_name":"New York","lat":42.42101,"lng":-74.59011,"zip":"12167","miles_from_dt":24.34},{"city":"Sherburne","state_name":"New York","lat":42.68492,"lng":-75.45572,"zip":"13460","miles_from_dt":24.38},{"city":"Ilion","state_name":"New York","lat":42.96952,"lng":-75.08037,"zip":"13357","miles_from_dt":24.79},{"city":"Hobart","state_name":"New York","lat":42.34914,"lng":-74.65658,"zip":"13788","miles_from_dt":25.01},{"city":"Mount Upton","state_name":"New York","lat":42.40849,"lng":-75.3914,"zip":"13809","miles_from_dt":25.22},{"city":"Cassville","state_name":"New York","lat":42.92366,"lng":-75.25958,"zip":"13318","miles_from_dt":25.32},{"city":"Unadilla","state_name":"New York","lat":42.33785,"lng":-75.31392,"zip":"13849","miles_from_dt":25.54},{"city":"North Brookfield","state_name":"New York","lat":42.84519,"lng":-75.38213,"zip":"13418","miles_from_dt":25.57},{"city":"Hubbardsville","state_name":"New York","lat":42.80971,"lng":-75.42401,"zip":"13355","miles_from_dt":25.95},{"city":"Canajoharie","state_name":"New York","lat":42.85638,"lng":-74.58844,"zip":"13317","miles_from_dt":26.12},{"city":"Clayville","state_name":"New York","lat":42.96661,"lng":-75.20445,"zip":"13322","miles_from_dt":26.55},{"city":"Warnerville","state_name":"New York","lat":42.62632,"lng":-74.46537,"zip":"12187","miles_from_dt":26.55},{"city":"Bovina Center","state_name":"New York","lat":42.27535,"lng":-74.74498,"zip":"13740","miles_from_dt":26.62},{"city":"North Norwich","state_name":"New York","lat":42.61655,"lng":-75.52584,"zip":"13814","miles_from_dt":27.52},{"city":"Fort Plain","state_name":"New York","lat":42.93995,"lng":-74.66631,"zip":"13339","miles_from_dt":27.58},{"city":"West Fulton","state_name":"New York","lat":42.53839,"lng":-74.45431,"zip":"12194","miles_from_dt":27.67},{"city":"Waterville","state_name":"New York","lat":42.91424,"lng":-75.36699,"zip":"13480","miles_from_dt":28.21},{"city":"Norwich","state_name":"New York","lat":42.54712,"lng":-75.53413,"zip":"13815","miles_from_dt":28.37},{"city":"Carlisle","state_name":"New York","lat":42.76579,"lng":-74.46617,"zip":"12031","miles_from_dt":28.39},{"city":"Guilford","state_name":"New York","lat":42.42496,"lng":-75.48128,"zip":"13780","miles_from_dt":28.55},{"city":"North Blenheim","state_name":"New York","lat":42.46573,"lng":-74.46249,"zip":"12131","miles_from_dt":28.7},{"city":"Sangerfield","state_name":"New York","lat":42.91791,"lng":-75.37655,"zip":"13455","miles_from_dt":28.73},{"city":"Nelliston","state_name":"New York","lat":42.92908,"lng":-74.60922,"zip":"13410","miles_from_dt":28.82},{"city":"Sidney Center","state_name":"New York","lat":42.24824,"lng":-75.26007,"zip":"13839","miles_from_dt":29.06},{"city":"Fultonham","state_name":"New York","lat":42.56971,"lng":-74.41521,"zip":"12071","miles_from_dt":29.3},{"city":"Sauquoit","state_name":"New York","lat":43.00145,"lng":-75.25855,"zip":"13456","miles_from_dt":29.92},{"city":"Grand Gorge","state_name":"New York","lat":42.36491,"lng":-74.50793,"zip":"12434","miles_from_dt":30}],"targetCityZipCode":"13807","targetCityState":"New York"},"__N_SSG":true}