{"pageProps":{"stateName":"New-york","cityName":"newcomb","nearbyCities":[{"city":"Newcomb","state_name":"New York","lat":44.018,"lng":-74.12899,"zip":"12879","miles_from_dt":1.77},{"city":"Minerva","state_name":"New York","lat":43.85171,"lng":-74.06211,"zip":"12851","miles_from_dt":10.42},{"city":"Olmstedville","state_name":"New York","lat":43.84033,"lng":-73.93354,"zip":"12857","miles_from_dt":14.6},{"city":"Blue Mountain Lake","state_name":"New York","lat":43.85731,"lng":-74.41213,"zip":"12812","miles_from_dt":16.66},{"city":"North Hudson","state_name":"New York","lat":44.00121,"lng":-73.79762,"zip":"12855","miles_from_dt":16.87},{"city":"Lake Placid","state_name":"New York","lat":44.23162,"lng":-73.98903,"zip":"12946","miles_from_dt":18.03},{"city":"Indian Lake","state_name":"New York","lat":43.75058,"lng":-74.2746,"zip":"12842","miles_from_dt":18.11},{"city":"Keene Valley","state_name":"New York","lat":44.13934,"lng":-73.82075,"zip":"12943","miles_from_dt":18.67},{"city":"Sabael","state_name":"New York","lat":43.72733,"lng":-74.3054,"zip":"12864","miles_from_dt":20.2},{"city":"Ray Brook","state_name":"New York","lat":44.29484,"lng":-74.09673,"zip":"12977","miles_from_dt":20.94},{"city":"Schroon Lake","state_name":"New York","lat":43.83931,"lng":-73.7625,"zip":"12870","miles_from_dt":21.45},{"city":"Severance","state_name":"New York","lat":43.8839,"lng":-73.72309,"zip":"12872","miles_from_dt":21.93},{"city":"Tupper Lake","state_name":"New York","lat":44.22279,"lng":-74.44056,"zip":"12986","miles_from_dt":21.94},{"city":"North Creek","state_name":"New York","lat":43.68816,"lng":-73.99804,"zip":"12853","miles_from_dt":22.14},{"city":"Long Lake","state_name":"New York","lat":43.98698,"lng":-74.59024,"zip":"12847","miles_from_dt":22.65},{"city":"North River","state_name":"New York","lat":43.65531,"lng":-74.14625,"zip":"12856","miles_from_dt":23.31},{"city":"Lake Clear","state_name":"New York","lat":44.33451,"lng":-74.23829,"zip":"12945","miles_from_dt":24.13},{"city":"Paradox","state_name":"New York","lat":43.88899,"lng":-73.6703,"zip":"12858","miles_from_dt":24.31},{"city":"Saranac Lake","state_name":"New York","lat":44.34627,"lng":-74.14243,"zip":"12983","miles_from_dt":24.4},{"city":"Pottersville","state_name":"New York","lat":43.72843,"lng":-73.80942,"zip":"12860","miles_from_dt":24.49},{"city":"Riparius","state_name":"New York","lat":43.67419,"lng":-73.91878,"zip":"12862","miles_from_dt":24.54},{"city":"Keene","state_name":"New York","lat":44.26023,"lng":-73.79523,"zip":"12942","miles_from_dt":25.06},{"city":"Adirondack","state_name":"New York","lat":43.74782,"lng":-73.75393,"zip":"12808","miles_from_dt":25.5},{"city":"New Russia","state_name":"New York","lat":44.13224,"lng":-73.63625,"zip":"12964","miles_from_dt":26.67},{"city":"Wevertown","state_name":"New York","lat":43.63689,"lng":-73.92654,"zip":"12886","miles_from_dt":26.72},{"city":"Moriah Center","state_name":"New York","lat":44.06103,"lng":-73.57972,"zip":"12961","miles_from_dt":28.11},{"city":"Witherbee","state_name":"New York","lat":44.0879,"lng":-73.57584,"zip":"12998","miles_from_dt":28.66},{"city":"Bakers Mills","state_name":"New York","lat":43.57502,"lng":-74.07508,"zip":"12811","miles_from_dt":29.01},{"city":"Speculator","state_name":"New York","lat":43.62883,"lng":-74.42717,"zip":"12164","miles_from_dt":29.05},{"city":"Chestertown","state_name":"New York","lat":43.63697,"lng":-73.82614,"zip":"12817","miles_from_dt":29.05},{"city":"Johnsburg","state_name":"New York","lat":43.5849,"lng":-73.97771,"zip":"12843","miles_from_dt":29.26},{"city":"Raquette Lake","state_name":"New York","lat":43.80501,"lng":-74.67034,"zip":"13436","miles_from_dt":29.66},{"city":"Moriah","state_name":"New York","lat":44.02226,"lng":-73.54123,"zip":"12960","miles_from_dt":29.71},{"city":"Brant Lake","state_name":"New York","lat":43.70161,"lng":-73.69459,"zip":"12815","miles_from_dt":29.85}],"targetCityZipCode":"12852","targetCityState":"New York"},"__N_SSG":true}