{"pageProps":{"stateName":"New-york","cityName":"plessis","nearbyCities":[{"city":"Theresa","state_name":"New York","lat":44.22747,"lng":-75.78208,"zip":"13691","miles_from_dt":4.71},{"city":"Redwood","state_name":"New York","lat":44.32664,"lng":-75.76554,"zip":"13679","miles_from_dt":4.75},{"city":"Alexandria Bay","state_name":"New York","lat":44.33233,"lng":-75.91187,"zip":"13607","miles_from_dt":5.01},{"city":"Fishers Landing","state_name":"New York","lat":44.27341,"lng":-76.00573,"zip":"13641","miles_from_dt":8.31},{"city":"La Fargeville","state_name":"New York","lat":44.19141,"lng":-75.95058,"zip":"13656","miles_from_dt":8.38},{"city":"Wellesley Island","state_name":"New York","lat":44.3198,"lng":-75.99937,"zip":"13640","miles_from_dt":8.38},{"city":"Thousand Island Park","state_name":"New York","lat":44.28861,"lng":-76.0258,"zip":"13692","miles_from_dt":9.29},{"city":"Philadelphia","state_name":"New York","lat":44.17105,"lng":-75.72133,"zip":"13673","miles_from_dt":9.64},{"city":"Antwerp","state_name":"New York","lat":44.28431,"lng":-75.61839,"zip":"13671","miles_from_dt":10.93},{"city":"Antwerp","state_name":"New York","lat":44.23879,"lng":-75.62508,"zip":"13608","miles_from_dt":11.02},{"city":"Chippewa Bay","state_name":"New York","lat":44.44877,"lng":-75.75299,"zip":"13623","miles_from_dt":12.26},{"city":"Evans Mills","state_name":"New York","lat":44.09751,"lng":-75.83346,"zip":"13637","miles_from_dt":12.76},{"city":"Hammond","state_name":"New York","lat":44.44144,"lng":-75.69379,"zip":"13646","miles_from_dt":13.13},{"city":"Clayton","state_name":"New York","lat":44.22284,"lng":-76.09736,"zip":"13624","miles_from_dt":13.48},{"city":"Depauville","state_name":"New York","lat":44.12698,"lng":-76.06826,"zip":"13632","miles_from_dt":15.65},{"city":"Fort Drum","state_name":"New York","lat":44.04877,"lng":-75.75747,"zip":"13602","miles_from_dt":16.62},{"city":"Watertown","state_name":"New York","lat":44.03826,"lng":-75.79765,"zip":"13603","miles_from_dt":16.97},{"city":"Calcium","state_name":"New York","lat":44.02538,"lng":-75.85896,"zip":"13616","miles_from_dt":17.77},{"city":"Great Bend","state_name":"New York","lat":44.03207,"lng":-75.71738,"zip":"13643","miles_from_dt":18.3},{"city":"Felts Mills","state_name":"New York","lat":44.02077,"lng":-75.75443,"zip":"13638","miles_from_dt":18.53},{"city":"Deferiet","state_name":"New York","lat":44.03764,"lng":-75.68307,"zip":"13628","miles_from_dt":18.58},{"city":"Brier Hill","state_name":"New York","lat":44.53081,"lng":-75.69194,"zip":"13614","miles_from_dt":18.64},{"city":"Gouverneur","state_name":"New York","lat":44.3263,"lng":-75.46742,"zip":"13642","miles_from_dt":18.66},{"city":"Chaumont","state_name":"New York","lat":44.09654,"lng":-76.115,"zip":"13622","miles_from_dt":18.78},{"city":"Hailesboro","state_name":"New York","lat":44.30878,"lng":-75.44655,"zip":"13645","miles_from_dt":19.53},{"city":"Brownville","state_name":"New York","lat":44.00569,"lng":-75.98328,"zip":"13615","miles_from_dt":20.4},{"city":"Limerick","state_name":"New York","lat":44.0279,"lng":-76.05099,"zip":"13657","miles_from_dt":20.49},{"city":"Black River","state_name":"New York","lat":43.98571,"lng":-75.76911,"zip":"13612","miles_from_dt":20.77},{"city":"Watertown","state_name":"New York","lat":43.96949,"lng":-75.90965,"zip":"13601","miles_from_dt":21.88},{"city":"Dexter","state_name":"New York","lat":44.01197,"lng":-76.07034,"zip":"13634","miles_from_dt":21.93},{"city":"De Peyster","state_name":"New York","lat":44.48259,"lng":-75.48825,"zip":"13633","miles_from_dt":22.19},{"city":"Morristown","state_name":"New York","lat":44.58423,"lng":-75.64537,"zip":"13664","miles_from_dt":22.94},{"city":"Carthage","state_name":"New York","lat":43.97705,"lng":-75.59432,"zip":"13619","miles_from_dt":24.33},{"city":"Cape Vincent","state_name":"New York","lat":44.11641,"lng":-76.27851,"zip":"13618","miles_from_dt":24.66},{"city":"Natural Bridge","state_name":"New York","lat":44.05227,"lng":-75.44933,"zip":"13665","miles_from_dt":25.03},{"city":"Richville","state_name":"New York","lat":44.42933,"lng":-75.37142,"zip":"13681","miles_from_dt":25.28},{"city":"Three Mile Bay","state_name":"New York","lat":44.03237,"lng":-76.24824,"zip":"13693","miles_from_dt":26.68},{"city":"Heuvelton","state_name":"New York","lat":44.56654,"lng":-75.46067,"zip":"13654","miles_from_dt":27.11},{"city":"Sackets Harbor","state_name":"New York","lat":43.93343,"lng":-76.09399,"zip":"13685","miles_from_dt":27.23},{"city":"Deer River","state_name":"New York","lat":43.92915,"lng":-75.59045,"zip":"13627","miles_from_dt":27.33},{"city":"Harrisville","state_name":"New York","lat":44.14977,"lng":-75.29908,"zip":"13648","miles_from_dt":28.32},{"city":"Edwards","state_name":"New York","lat":44.29915,"lng":-75.26188,"zip":"13635","miles_from_dt":28.63},{"city":"Denmark","state_name":"New York","lat":43.90036,"lng":-75.58529,"zip":"13631","miles_from_dt":29.23},{"city":"De Kalb Junction","state_name":"New York","lat":44.49742,"lng":-75.31756,"zip":"13630","miles_from_dt":29.77},{"city":"Adams Center","state_name":"New York","lat":43.87007,"lng":-76.01601,"zip":"13606","miles_from_dt":29.8}],"targetCityZipCode":"13675","targetCityState":"New York"},"__N_SSG":true}