{"pageProps":{"stateName":"New-york","cityName":"port-kent","nearbyCities":[{"city":"Keeseville","state_name":"New York","lat":44.53464,"lng":-73.46687,"zip":"12911","miles_from_dt":1.8},{"city":"Peru","state_name":"New York","lat":44.559,"lng":-73.56516,"zip":"12972","miles_from_dt":6.93},{"city":"Keeseville","state_name":"New York","lat":44.44585,"lng":-73.51193,"zip":"12944","miles_from_dt":7.04},{"city":"Burlington","state_name":"Vermont","lat":44.48969,"lng":-73.27139,"zip":"05408","miles_from_dt":8.36},{"city":"Keeseville","state_name":"New York","lat":44.47589,"lng":-73.58751,"zip":"12924","miles_from_dt":8.58},{"city":"Plattsburgh","state_name":"New York","lat":44.65698,"lng":-73.46306,"zip":"12903","miles_from_dt":8.93},{"city":"South Hero","state_name":"Vermont","lat":44.62958,"lng":-73.31444,"zip":"05486","miles_from_dt":8.98},{"city":"Burlington","state_name":"Vermont","lat":44.48717,"lng":-73.22627,"zip":"05406","miles_from_dt":10.53},{"city":"Colchester","state_name":"Vermont","lat":44.5541,"lng":-73.21647,"zip":"05446","miles_from_dt":10.73},{"city":"Jonesville","state_name":"Vermont","lat":44.54068,"lng":-73.20958,"zip":"05466","miles_from_dt":10.96},{"city":"Burlington","state_name":"Vermont","lat":44.47484,"lng":-73.21758,"zip":"05401","miles_from_dt":11.21},{"city":"Willsboro","state_name":"New York","lat":44.36129,"lng":-73.42129,"zip":"12996","miles_from_dt":11.64},{"city":"Burlington","state_name":"Vermont","lat":44.47475,"lng":-73.19649,"zip":"05405","miles_from_dt":12.2},{"city":"Winooski","state_name":"Vermont","lat":44.49483,"lng":-73.18467,"zip":"05404","miles_from_dt":12.41},{"city":"Plattsburgh","state_name":"New York","lat":44.70842,"lng":-73.47465,"zip":"12901","miles_from_dt":12.52},{"city":"Colchester","state_name":"Vermont","lat":44.49573,"lng":-73.16524,"zip":"05439","miles_from_dt":13.34},{"city":"Shelburne","state_name":"Vermont","lat":44.39057,"lng":-73.24134,"zip":"05482","miles_from_dt":13.43},{"city":"South Burlington","state_name":"Vermont","lat":44.44635,"lng":-73.17568,"zip":"05407","miles_from_dt":13.87},{"city":"South Burlington","state_name":"Vermont","lat":44.447,"lng":-73.17229,"zip":"05403","miles_from_dt":14.01},{"city":"Colchester","state_name":"Vermont","lat":44.54505,"lng":-73.14596,"zip":"05449","miles_from_dt":14.12},{"city":"Grand Isle","state_name":"Vermont","lat":44.71838,"lng":-73.29837,"zip":"05458","miles_from_dt":14.57},{"city":"Morrisonville","state_name":"New York","lat":44.70642,"lng":-73.60141,"zip":"12962","miles_from_dt":14.81},{"city":"Burlington","state_name":"Vermont","lat":44.5057,"lng":-73.12665,"zip":"05402","miles_from_dt":15.13},{"city":"Schuyler Falls","state_name":"New York","lat":44.56413,"lng":-73.73395,"zip":"12985","miles_from_dt":15.15},{"city":"Lewis","state_name":"New York","lat":44.32685,"lng":-73.57675,"zip":"12950","miles_from_dt":15.76},{"city":"Au Sable Forks","state_name":"New York","lat":44.46233,"lng":-73.74201,"zip":"12912","miles_from_dt":16.06},{"city":"Milton","state_name":"Vermont","lat":44.65378,"lng":-73.15343,"zip":"05468","miles_from_dt":16.15},{"city":"Cadyville","state_name":"New York","lat":44.68975,"lng":-73.67863,"zip":"12918","miles_from_dt":16.47},{"city":"Essex Junction","state_name":"Vermont","lat":44.4929,"lng":-73.08159,"zip":"05453","miles_from_dt":17.45},{"city":"Essex","state_name":"Vermont","lat":44.5075,"lng":-73.06948,"zip":"05451","miles_from_dt":17.93},{"city":"Charlotte","state_name":"Vermont","lat":44.30896,"lng":-73.23593,"zip":"05445","miles_from_dt":18.05},{"city":"Essex","state_name":"New York","lat":44.26869,"lng":-73.4029,"zip":"12936","miles_from_dt":18.08},{"city":"Essex Junction","state_name":"Vermont","lat":44.5238,"lng":-73.06479,"zip":"05452","miles_from_dt":18.09},{"city":"Williston","state_name":"Vermont","lat":44.42901,"lng":-73.09197,"zip":"05495","miles_from_dt":18.15},{"city":"Jay","state_name":"New York","lat":44.35147,"lng":-73.7126,"zip":"12941","miles_from_dt":18.59},{"city":"Redford","state_name":"New York","lat":44.6181,"lng":-73.79589,"zip":"12978","miles_from_dt":19.01},{"city":"Dannemora","state_name":"New York","lat":44.71971,"lng":-73.71909,"zip":"12929","miles_from_dt":19.33},{"city":"West Chazy","state_name":"New York","lat":44.81822,"lng":-73.51582,"zip":"12992","miles_from_dt":20.35},{"city":"Upper Jay","state_name":"New York","lat":44.33948,"lng":-73.76386,"zip":"12987","miles_from_dt":21.07},{"city":"Westford","state_name":"Vermont","lat":44.60472,"lng":-73.01523,"zip":"05494","miles_from_dt":21.17},{"city":"Saranac","state_name":"New York","lat":44.62235,"lng":-73.84035,"zip":"12981","miles_from_dt":21.19},{"city":"Hinesburg","state_name":"Vermont","lat":44.32094,"lng":-73.09176,"zip":"05461","miles_from_dt":22.13},{"city":"North Hero","state_name":"Vermont","lat":44.83445,"lng":-73.26687,"zip":"05474","miles_from_dt":22.54},{"city":"Wilmington","state_name":"New York","lat":44.3755,"lng":-73.84314,"zip":"12997","miles_from_dt":23},{"city":"Westport","state_name":"New York","lat":44.19711,"lng":-73.48097,"zip":"12993","miles_from_dt":23.1},{"city":"North Ferrisburgh","state_name":"Vermont","lat":44.24119,"lng":-73.19346,"zip":"05473","miles_from_dt":23.14},{"city":"Isle La Motte","state_name":"Vermont","lat":44.86297,"lng":-73.34254,"zip":"05463","miles_from_dt":23.42},{"city":"Fairfax","state_name":"Vermont","lat":44.7056,"lng":-73.02294,"zip":"05454","miles_from_dt":23.5},{"city":"Elizabethtown","state_name":"New York","lat":44.21222,"lng":-73.6082,"zip":"12932","miles_from_dt":23.62},{"city":"Richmond","state_name":"Vermont","lat":44.3936,"lng":-72.99152,"zip":"05477","miles_from_dt":23.68},{"city":"Ferrisburgh","state_name":"Vermont","lat":44.20776,"lng":-73.25796,"zip":"05456","miles_from_dt":23.83},{"city":"Saint Albans","state_name":"Vermont","lat":44.7941,"lng":-73.11714,"zip":"05478","miles_from_dt":23.92},{"city":"Saint Albans Bay","state_name":"Vermont","lat":44.80833,"lng":-73.1396,"zip":"05481","miles_from_dt":24},{"city":"Monkton","state_name":"Vermont","lat":44.25395,"lng":-73.12095,"zip":"05469","miles_from_dt":24.46},{"city":"Altona","state_name":"New York","lat":44.8546,"lng":-73.64593,"zip":"12910","miles_from_dt":24.8},{"city":"Chazy","state_name":"New York","lat":44.89188,"lng":-73.43574,"zip":"12921","miles_from_dt":25},{"city":"Jericho","state_name":"Vermont","lat":44.45882,"lng":-72.93058,"zip":"05465","miles_from_dt":25.21},{"city":"Keene","state_name":"New York","lat":44.26023,"lng":-73.79523,"zip":"12942","miles_from_dt":25.91},{"city":"Essex Junction","state_name":"Vermont","lat":44.81206,"lng":-73.08276,"zip":"05479","miles_from_dt":25.97},{"city":"Underhill Center","state_name":"Vermont","lat":44.52797,"lng":-72.89695,"zip":"05490","miles_from_dt":26.38},{"city":"Underhill","state_name":"Vermont","lat":44.5458,"lng":-72.89471,"zip":"05489","miles_from_dt":26.51},{"city":"Lyon Mountain","state_name":"New York","lat":44.71181,"lng":-73.91362,"zip":"12952","miles_from_dt":26.92},{"city":"Cambridge","state_name":"Vermont","lat":44.62628,"lng":-72.88242,"zip":"05444","miles_from_dt":27.88},{"city":"Huntington","state_name":"Vermont","lat":44.29909,"lng":-72.95228,"zip":"05462","miles_from_dt":28.55},{"city":"Vergennes","state_name":"Vermont","lat":44.12101,"lng":-73.32111,"zip":"05491","miles_from_dt":28.74},{"city":"Ellenburg Depot","state_name":"New York","lat":44.85709,"lng":-73.79461,"zip":"12935","miles_from_dt":28.84},{"city":"New Russia","state_name":"New York","lat":44.13224,"lng":-73.63625,"zip":"12964","miles_from_dt":29.27},{"city":"Starksboro","state_name":"Vermont","lat":44.23082,"lng":-73.01096,"zip":"05487","miles_from_dt":29.3},{"city":"Fairfield","state_name":"Vermont","lat":44.80352,"lng":-72.96568,"zip":"05455","miles_from_dt":29.72},{"city":"Bloomingdale","state_name":"New York","lat":44.42627,"lng":-74.01562,"zip":"12913","miles_from_dt":29.77}],"targetCityZipCode":"12975","targetCityState":"New York"},"__N_SSG":true}