{"pageProps":{"stateName":"New-york","cityName":"sloansville","nearbyCities":[{"city":"Central Bridge","state_name":"New York","lat":42.73453,"lng":-74.37534,"zip":"12035","miles_from_dt":2.04},{"city":"Esperance","state_name":"New York","lat":42.78011,"lng":-74.30291,"zip":"12066","miles_from_dt":3.42},{"city":"Howes Cave","state_name":"New York","lat":42.70396,"lng":-74.38456,"zip":"12092","miles_from_dt":4.2},{"city":"Carlisle","state_name":"New York","lat":42.76579,"lng":-74.46617,"zip":"12031","miles_from_dt":5.09},{"city":"Sprakers","state_name":"New York","lat":42.83846,"lng":-74.45644,"zip":"12166","miles_from_dt":6.93},{"city":"Schoharie","state_name":"New York","lat":42.66742,"lng":-74.29892,"zip":"12157","miles_from_dt":7.45},{"city":"Fultonville","state_name":"New York","lat":42.88102,"lng":-74.36164,"zip":"12072","miles_from_dt":8.13},{"city":"Delanson","state_name":"New York","lat":42.75283,"lng":-74.18791,"zip":"12053","miles_from_dt":9.1},{"city":"Cobleskill","state_name":"New York","lat":42.70357,"lng":-74.5267,"zip":"12043","miles_from_dt":9.15},{"city":"Quaker Street","state_name":"New York","lat":42.733,"lng":-74.1866,"zip":"12141","miles_from_dt":9.37},{"city":"Gallupville","state_name":"New York","lat":42.66207,"lng":-74.22992,"zip":"12073","miles_from_dt":9.84},{"city":"Warnerville","state_name":"New York","lat":42.62632,"lng":-74.46537,"zip":"12187","miles_from_dt":10.72},{"city":"Sharon Springs","state_name":"New York","lat":42.77721,"lng":-74.59315,"zip":"13459","miles_from_dt":11.58},{"city":"Auriesville","state_name":"New York","lat":42.92878,"lng":-74.31964,"zip":"12016","miles_from_dt":11.67},{"city":"Canajoharie","state_name":"New York","lat":42.85638,"lng":-74.58844,"zip":"13317","miles_from_dt":13},{"city":"Fort Hunter","state_name":"New York","lat":42.94336,"lng":-74.28193,"zip":"12069","miles_from_dt":13.15},{"city":"Fonda","state_name":"New York","lat":42.95701,"lng":-74.40467,"zip":"12068","miles_from_dt":13.52},{"city":"Fultonham","state_name":"New York","lat":42.56971,"lng":-74.41521,"zip":"12071","miles_from_dt":13.59},{"city":"Tribes Hill","state_name":"New York","lat":42.95184,"lng":-74.28459,"zip":"12177","miles_from_dt":13.66},{"city":"Pattersonville","state_name":"New York","lat":42.85727,"lng":-74.12922,"zip":"12137","miles_from_dt":13.68},{"city":"Palatine Bridge","state_name":"New York","lat":42.92096,"lng":-74.53311,"zip":"13428","miles_from_dt":13.8},{"city":"Duanesburg","state_name":"New York","lat":42.76761,"lng":-74.0905,"zip":"12056","miles_from_dt":14.02},{"city":"Knox","state_name":"New York","lat":42.66981,"lng":-74.11989,"zip":"12107","miles_from_dt":14.1},{"city":"Richmondville","state_name":"New York","lat":42.62011,"lng":-74.56692,"zip":"12149","miles_from_dt":14.22},{"city":"Berne","state_name":"New York","lat":42.60656,"lng":-74.16573,"zip":"12023","miles_from_dt":14.87},{"city":"Middleburgh","state_name":"New York","lat":42.54341,"lng":-74.31138,"zip":"12122","miles_from_dt":15.43},{"city":"Amsterdam","state_name":"New York","lat":42.93752,"lng":-74.17287,"zip":"12010","miles_from_dt":15.53},{"city":"West Fulton","state_name":"New York","lat":42.53839,"lng":-74.45431,"zip":"12194","miles_from_dt":16.16},{"city":"Fort Johnson","state_name":"New York","lat":42.98513,"lng":-74.25441,"zip":"12070","miles_from_dt":16.33},{"city":"Nelliston","state_name":"New York","lat":42.92908,"lng":-74.60922,"zip":"13410","miles_from_dt":16.83},{"city":"Schenectady","state_name":"New York","lat":42.80686,"lng":-74.03344,"zip":"12306","miles_from_dt":17.18},{"city":"Altamont","state_name":"New York","lat":42.69824,"lng":-74.03398,"zip":"12009","miles_from_dt":17.49},{"city":"Summit","state_name":"New York","lat":42.55489,"lng":-74.56161,"zip":"12175","miles_from_dt":17.49},{"city":"Rotterdam Junction","state_name":"New York","lat":42.87613,"lng":-74.04923,"zip":"12150","miles_from_dt":17.89},{"city":"East Worcester","state_name":"New York","lat":42.60711,"lng":-74.65887,"zip":"12064","miles_from_dt":18.39},{"city":"Johnstown","state_name":"New York","lat":43.03151,"lng":-74.41553,"zip":"12095","miles_from_dt":18.69},{"city":"East Berne","state_name":"New York","lat":42.61403,"lng":-74.05811,"zip":"12059","miles_from_dt":18.77},{"city":"Cherry Valley","state_name":"New York","lat":42.77353,"lng":-74.74325,"zip":"13320","miles_from_dt":19.19},{"city":"Albany","state_name":"New York","lat":42.69718,"lng":-73.99431,"zip":"12249","miles_from_dt":19.47},{"city":"Fort Plain","state_name":"New York","lat":42.93995,"lng":-74.66631,"zip":"13339","miles_from_dt":19.52},{"city":"Rensselaerville","state_name":"New York","lat":42.51365,"lng":-74.15147,"zip":"12147","miles_from_dt":20.41},{"city":"Guilderland Center","state_name":"New York","lat":42.70043,"lng":-73.96659,"zip":"12085","miles_from_dt":20.79},{"city":"Hagaman","state_name":"New York","lat":42.99684,"lng":-74.10508,"zip":"12086","miles_from_dt":20.87},{"city":"Schenectady","state_name":"New York","lat":42.88188,"lng":-73.98323,"zip":"12302","miles_from_dt":21.11},{"city":"North Blenheim","state_name":"New York","lat":42.46573,"lng":-74.46249,"zip":"12131","miles_from_dt":21.12},{"city":"Worcester","state_name":"New York","lat":42.6094,"lng":-74.72587,"zip":"12197","miles_from_dt":21.17},{"city":"Westford","state_name":"New York","lat":42.67447,"lng":-74.76796,"zip":"13488","miles_from_dt":21.35},{"city":"Schenectady","state_name":"New York","lat":42.81219,"lng":-73.95036,"zip":"12305","miles_from_dt":21.41},{"city":"Schenectady","state_name":"New York","lat":42.81566,"lng":-73.94232,"zip":"12345","miles_from_dt":21.85},{"city":"Schenectady","state_name":"New York","lat":42.81417,"lng":-73.94,"zip":"12325","miles_from_dt":21.95},{"city":"Schenectady","state_name":"New York","lat":42.81324,"lng":-73.9394,"zip":"12301","miles_from_dt":21.97},{"city":"Voorheesville","state_name":"New York","lat":42.62502,"lng":-73.9737,"zip":"12186","miles_from_dt":22.15},{"city":"Schenectady","state_name":"New York","lat":42.80507,"lng":-73.93341,"zip":"12307","miles_from_dt":22.19},{"city":"Schenectady","state_name":"New York","lat":42.74938,"lng":-73.92562,"zip":"12303","miles_from_dt":22.43},{"city":"Charlotteville","state_name":"New York","lat":42.53564,"lng":-74.68468,"zip":"12036","miles_from_dt":22.59},{"city":"Jefferson","state_name":"New York","lat":42.49599,"lng":-74.6262,"zip":"12093","miles_from_dt":22.71},{"city":"Preston Hollow","state_name":"New York","lat":42.44521,"lng":-74.2421,"zip":"12469","miles_from_dt":22.85},{"city":"Schenectady","state_name":"New York","lat":42.82152,"lng":-73.92006,"zip":"12308","miles_from_dt":23.03},{"city":"Roseboom","state_name":"New York","lat":42.7026,"lng":-74.81263,"zip":"13450","miles_from_dt":23.1},{"city":"Saint Johnsville","state_name":"New York","lat":43.03718,"lng":-74.63001,"zip":"13452","miles_from_dt":23.17},{"city":"East Springfield","state_name":"New York","lat":42.83091,"lng":-74.82207,"zip":"13333","miles_from_dt":23.64},{"city":"Westerlo","state_name":"New York","lat":42.51713,"lng":-74.04327,"zip":"12193","miles_from_dt":23.65},{"city":"Schenectady","state_name":"New York","lat":42.77375,"lng":-73.89742,"zip":"12304","miles_from_dt":23.85},{"city":"Dormansville","state_name":"New York","lat":42.43842,"lng":-74.20308,"zip":"12055","miles_from_dt":23.91},{"city":"Guilderland","state_name":"New York","lat":42.70411,"lng":-73.90182,"zip":"12084","miles_from_dt":23.98},{"city":"Medusa","state_name":"New York","lat":42.45781,"lng":-74.1409,"zip":"12120","miles_from_dt":24.01},{"city":"Alplaus","state_name":"New York","lat":42.85367,"lng":-73.9063,"zip":"12008","miles_from_dt":24.19},{"city":"Van Hornesville","state_name":"New York","lat":42.88789,"lng":-74.81196,"zip":"13475","miles_from_dt":24.23},{"city":"Gilboa","state_name":"New York","lat":42.40868,"lng":-74.38506,"zip":"12076","miles_from_dt":24.49},{"city":"Clarksville","state_name":"New York","lat":42.55893,"lng":-73.97028,"zip":"12041","miles_from_dt":24.61},{"city":"Gloversville","state_name":"New York","lat":43.12338,"lng":-74.36255,"zip":"12078","miles_from_dt":24.86},{"city":"Schenectady","state_name":"New York","lat":42.79693,"lng":-73.86785,"zip":"12309","miles_from_dt":25.45},{"city":"Albany","state_name":"New York","lat":42.6649,"lng":-73.88326,"zip":"12220","miles_from_dt":25.5},{"city":"Oak Hill","state_name":"New York","lat":42.42357,"lng":-74.16676,"zip":"12460","miles_from_dt":25.56},{"city":"Burnt Hills","state_name":"New York","lat":42.92122,"lng":-73.90872,"zip":"12027","miles_from_dt":25.67},{"city":"Galway","state_name":"New York","lat":43.05219,"lng":-74.04709,"zip":"12074","miles_from_dt":25.69},{"city":"Slingerlands","state_name":"New York","lat":42.64328,"lng":-73.88503,"zip":"12159","miles_from_dt":25.86},{"city":"Broadalbin","state_name":"New York","lat":43.09142,"lng":-74.11924,"zip":"12025","miles_from_dt":25.89},{"city":"Springfield Center","state_name":"New York","lat":42.84696,"lng":-74.86448,"zip":"13468","miles_from_dt":25.98},{"city":"Schenevus","state_name":"New York","lat":42.59229,"lng":-74.82337,"zip":"12155","miles_from_dt":26.1},{"city":"Stamford","state_name":"New York","lat":42.42101,"lng":-74.59011,"zip":"12167","miles_from_dt":26.24},{"city":"Albany","state_name":"New York","lat":42.72872,"lng":-73.84776,"zip":"12288","miles_from_dt":26.48},{"city":"Albany","state_name":"New York","lat":42.68138,"lng":-73.85099,"zip":"12203","miles_from_dt":26.82},{"city":"Feura Bush","state_name":"New York","lat":42.56083,"lng":-73.91663,"zip":"12067","miles_from_dt":26.83},{"city":"Rexford","state_name":"New York","lat":42.83361,"lng":-73.84652,"zip":"12148","miles_from_dt":26.86},{"city":"Jordanville","state_name":"New York","lat":42.89807,"lng":-74.86256,"zip":"13361","miles_from_dt":26.88},{"city":"Durham","state_name":"New York","lat":42.39205,"lng":-74.20232,"zip":"12422","miles_from_dt":26.95},{"city":"Albany","state_name":"New York","lat":42.68632,"lng":-73.84693,"zip":"12214","miles_from_dt":26.95},{"city":"Albany","state_name":"New York","lat":42.68955,"lng":-73.84598,"zip":"12227","miles_from_dt":26.96},{"city":"Ballston Lake","state_name":"New York","lat":42.92993,"lng":-73.88245,"zip":"12019","miles_from_dt":27.13},{"city":"Albany","state_name":"New York","lat":42.67967,"lng":-73.84011,"zip":"12212","miles_from_dt":27.39},{"city":"Albany","state_name":"New York","lat":42.68226,"lng":-73.83811,"zip":"12225","miles_from_dt":27.45},{"city":"Harpersfield","state_name":"New York","lat":42.4485,"lng":-74.69563,"zip":"13786","miles_from_dt":27.46},{"city":"Albany","state_name":"New York","lat":42.71719,"lng":-73.83006,"zip":"12205","miles_from_dt":27.46},{"city":"Delmar","state_name":"New York","lat":42.60764,"lng":-73.86864,"zip":"12054","miles_from_dt":27.52},{"city":"Cooperstown","state_name":"New York","lat":42.71865,"lng":-74.90374,"zip":"13326","miles_from_dt":27.52},{"city":"Albany","state_name":"New York","lat":42.66466,"lng":-73.84173,"zip":"12224","miles_from_dt":27.55},{"city":"Albany","state_name":"New York","lat":42.68637,"lng":-73.82656,"zip":"12222","miles_from_dt":27.97},{"city":"Albany","state_name":"New York","lat":42.68901,"lng":-73.82116,"zip":"12246","miles_from_dt":28.21},{"city":"Grand Gorge","state_name":"New York","lat":42.36491,"lng":-74.50793,"zip":"12434","miles_from_dt":28.43},{"city":"Greenville","state_name":"New York","lat":42.43151,"lng":-74.03155,"zip":"12083","miles_from_dt":28.56},{"city":"Mayfield","state_name":"New York","lat":43.16894,"lng":-74.25557,"zip":"12117","miles_from_dt":28.56},{"city":"Albany","state_name":"New York","lat":42.67931,"lng":-73.80987,"zip":"12226","miles_from_dt":28.9},{"city":"Alcove","state_name":"New York","lat":42.48889,"lng":-73.93159,"zip":"12007","miles_from_dt":29.14},{"city":"Albany","state_name":"New York","lat":42.65042,"lng":-73.81441,"zip":"12229","miles_from_dt":29.15},{"city":"Dolgeville","state_name":"New York","lat":43.11094,"lng":-74.70017,"zip":"13329","miles_from_dt":29.38},{"city":"Albany","state_name":"New York","lat":42.65293,"lng":-73.80835,"zip":"12208","miles_from_dt":29.4},{"city":"East Durham","state_name":"New York","lat":42.37968,"lng":-74.11136,"zip":"12423","miles_from_dt":29.5},{"city":"Coeymans Hollow","state_name":"New York","lat":42.48864,"lng":-73.92119,"zip":"12046","miles_from_dt":29.56},{"city":"Cornwallville","state_name":"New York","lat":42.35863,"lng":-74.1609,"zip":"12418","miles_from_dt":29.83},{"city":"Ballston Spa","state_name":"New York","lat":43.00208,"lng":-73.87401,"zip":"12020","miles_from_dt":29.93},{"city":"Latham","state_name":"New York","lat":42.75349,"lng":-73.77671,"zip":"12110","miles_from_dt":29.99}],"targetCityZipCode":"12160","targetCityState":"New York"},"__N_SSG":true}