{"pageProps":{"stateName":"New-york","cityName":"walworth","nearbyCities":[{"city":"Macedon","state_name":"New York","lat":43.09532,"lng":-77.33598,"zip":"14502","miles_from_dt":4.42},{"city":"Marion","state_name":"New York","lat":43.15846,"lng":-77.17503,"zip":"14505","miles_from_dt":5.55},{"city":"Ontario Center","state_name":"New York","lat":43.22743,"lng":-77.30696,"zip":"14520","miles_from_dt":5.7},{"city":"Ontario","state_name":"New York","lat":43.23184,"lng":-77.31389,"zip":"14519","miles_from_dt":6.08},{"city":"Palmyra","state_name":"New York","lat":43.05911,"lng":-77.22152,"zip":"14522","miles_from_dt":6.81},{"city":"Union Hill","state_name":"New York","lat":43.2231,"lng":-77.37135,"zip":"14563","miles_from_dt":6.89},{"city":"Fairport","state_name":"New York","lat":43.0921,"lng":-77.41623,"zip":"14450","miles_from_dt":7.69},{"city":"Penfield","state_name":"New York","lat":43.15129,"lng":-77.44806,"zip":"14526","miles_from_dt":8.32},{"city":"Williamson","state_name":"New York","lat":43.23997,"lng":-77.17224,"zip":"14589","miles_from_dt":8.56},{"city":"East Williamson","state_name":"New York","lat":43.23274,"lng":-77.15012,"zip":"14449","miles_from_dt":8.99},{"city":"Webster","state_name":"New York","lat":43.21883,"lng":-77.44561,"zip":"14580","miles_from_dt":9.58},{"city":"Port Gibson","state_name":"New York","lat":43.03539,"lng":-77.15604,"zip":"14537","miles_from_dt":10.03},{"city":"East Rochester","state_name":"New York","lat":43.11312,"lng":-77.48978,"zip":"14445","miles_from_dt":10.67},{"city":"Pultneyville","state_name":"New York","lat":43.27804,"lng":-77.1722,"zip":"14538","miles_from_dt":10.68},{"city":"Newark","state_name":"New York","lat":43.07204,"lng":-77.0961,"zip":"14513","miles_from_dt":10.79},{"city":"Farmington","state_name":"New York","lat":42.98962,"lng":-77.33734,"zip":"14425","miles_from_dt":11.17},{"city":"Rochester","state_name":"New York","lat":43.14891,"lng":-77.50551,"zip":"14625","miles_from_dt":11.22},{"city":"Shortsville","state_name":"New York","lat":42.97538,"lng":-77.24341,"zip":"14548","miles_from_dt":11.99},{"city":"Manchester","state_name":"New York","lat":42.96839,"lng":-77.2327,"zip":"14504","miles_from_dt":12.57},{"city":"Sodus","state_name":"New York","lat":43.21886,"lng":-77.04596,"zip":"14551","miles_from_dt":13},{"city":"Fishers","state_name":"New York","lat":43.01602,"lng":-77.47338,"zip":"14453","miles_from_dt":13.17},{"city":"Rochester","state_name":"New York","lat":43.14196,"lng":-77.5463,"zip":"14610","miles_from_dt":13.28},{"city":"Victor","state_name":"New York","lat":42.98329,"lng":-77.42417,"zip":"14564","miles_from_dt":13.33},{"city":"Pittsford","state_name":"New York","lat":43.0564,"lng":-77.52083,"zip":"14534","miles_from_dt":13.52},{"city":"Rochester","state_name":"New York","lat":43.17731,"lng":-77.55234,"zip":"14609","miles_from_dt":13.74},{"city":"Rochester","state_name":"New York","lat":43.11305,"lng":-77.55547,"zip":"14618","miles_from_dt":13.94},{"city":"Rochester","state_name":"New York","lat":43.21389,"lng":-77.55359,"zip":"14622","miles_from_dt":14.41},{"city":"Clifton Springs","state_name":"New York","lat":42.95696,"lng":-77.14333,"zip":"14432","miles_from_dt":14.89},{"city":"Mendon","state_name":"New York","lat":43.0012,"lng":-77.50508,"zip":"14506","miles_from_dt":15.04},{"city":"Lyons","state_name":"New York","lat":43.09008,"lng":-76.99238,"zip":"14489","miles_from_dt":15.24},{"city":"Rochester","state_name":"New York","lat":43.15099,"lng":-77.58682,"zip":"14607","miles_from_dt":15.33},{"city":"Rochester","state_name":"New York","lat":43.16823,"lng":-77.60193,"zip":"14602","miles_from_dt":16.15},{"city":"Rochester","state_name":"New York","lat":43.16838,"lng":-77.60177,"zip":"14605","miles_from_dt":16.15},{"city":"Rochester","state_name":"New York","lat":43.15384,"lng":-77.60365,"zip":"14644","miles_from_dt":16.18},{"city":"Rochester","state_name":"New York","lat":43.15711,"lng":-77.60437,"zip":"14649","miles_from_dt":16.23},{"city":"Rochester","state_name":"New York","lat":43.12878,"lng":-77.60463,"zip":"14620","miles_from_dt":16.27},{"city":"Rochester","state_name":"New York","lat":43.15802,"lng":-77.60511,"zip":"14639","miles_from_dt":16.27},{"city":"Rochester","state_name":"New York","lat":43.16003,"lng":-77.60527,"zip":"14603","miles_from_dt":16.28},{"city":"Rochester","state_name":"New York","lat":43.15151,"lng":-77.60568,"zip":"14646","miles_from_dt":16.28},{"city":"Rochester","state_name":"New York","lat":43.1569,"lng":-77.60536,"zip":"14604","miles_from_dt":16.28},{"city":"Rochester","state_name":"New York","lat":43.15714,"lng":-77.60668,"zip":"14638","miles_from_dt":16.34},{"city":"Rochester","state_name":"New York","lat":43.15537,"lng":-77.60729,"zip":"14643","miles_from_dt":16.37},{"city":"Rochester","state_name":"New York","lat":43.1572,"lng":-77.60804,"zip":"14647","miles_from_dt":16.41},{"city":"Rochester","state_name":"New York","lat":43.18911,"lng":-77.60408,"zip":"14621","miles_from_dt":16.46},{"city":"Rochester","state_name":"New York","lat":43.08884,"lng":-77.59968,"zip":"14694","miles_from_dt":16.47},{"city":"Rochester","state_name":"New York","lat":43.22488,"lng":-77.59323,"zip":"14617","miles_from_dt":16.55},{"city":"Alton","state_name":"New York","lat":43.2229,"lng":-76.97067,"zip":"14413","miles_from_dt":16.67},{"city":"Rochester","state_name":"New York","lat":43.1574,"lng":-77.61473,"zip":"14614","miles_from_dt":16.75},{"city":"Sodus Point","state_name":"New York","lat":43.25946,"lng":-76.98665,"zip":"14555","miles_from_dt":16.9},{"city":"Rochester","state_name":"New York","lat":43.16065,"lng":-77.61961,"zip":"14651","miles_from_dt":17.01},{"city":"Rochester","state_name":"New York","lat":43.16217,"lng":-77.62167,"zip":"14650","miles_from_dt":17.12},{"city":"Rochester","state_name":"New York","lat":43.15213,"lng":-77.62333,"zip":"14653","miles_from_dt":17.17},{"city":"Rochester","state_name":"New York","lat":43.15213,"lng":-77.62333,"zip":"14692","miles_from_dt":17.17},{"city":"Rochester","state_name":"New York","lat":43.15335,"lng":-77.62362,"zip":"14608","miles_from_dt":17.19},{"city":"Rochester","state_name":"New York","lat":43.12281,"lng":-77.62508,"zip":"14642","miles_from_dt":17.34},{"city":"Rochester","state_name":"New York","lat":43.12931,"lng":-77.62912,"zip":"14627","miles_from_dt":17.51},{"city":"Henrietta","state_name":"New York","lat":43.04119,"lng":-77.60996,"zip":"14467","miles_from_dt":18.04},{"city":"Ionia","state_name":"New York","lat":42.93683,"lng":-77.49787,"zip":"14475","miles_from_dt":18.09},{"city":"Phelps","state_name":"New York","lat":42.96462,"lng":-77.02601,"zip":"14532","miles_from_dt":18.11},{"city":"Rochester","state_name":"New York","lat":43.1822,"lng":-77.64068,"zip":"14613","miles_from_dt":18.21},{"city":"Rochester","state_name":"New York","lat":43.14756,"lng":-77.64731,"zip":"14611","miles_from_dt":18.38},{"city":"Rochester","state_name":"New York","lat":43.1361,"lng":-77.649,"zip":"14619","miles_from_dt":18.48},{"city":"Seneca Castle","state_name":"New York","lat":42.90494,"lng":-77.12653,"zip":"14547","miles_from_dt":18.48},{"city":"Rochester","state_name":"New York","lat":43.08798,"lng":-77.64314,"zip":"14623","miles_from_dt":18.62},{"city":"North Rose","state_name":"New York","lat":43.19855,"lng":-76.91153,"zip":"14516","miles_from_dt":19.14},{"city":"Rochester","state_name":"New York","lat":43.20337,"lng":-77.65637,"zip":"14615","miles_from_dt":19.23},{"city":"East Bloomfield","state_name":"New York","lat":42.89039,"lng":-77.4465,"zip":"14443","miles_from_dt":19.51},{"city":"Honeoye Falls","state_name":"New York","lat":42.96589,"lng":-77.58173,"zip":"14472","miles_from_dt":19.58},{"city":"Rochester","state_name":"New York","lat":43.23431,"lng":-77.65822,"zip":"14616","miles_from_dt":19.87},{"city":"Oaks Corners","state_name":"New York","lat":42.93017,"lng":-77.01246,"zip":"14518","miles_from_dt":20.29},{"city":"Rose","state_name":"New York","lat":43.15306,"lng":-76.87595,"zip":"14542","miles_from_dt":20.61},{"city":"Canandaigua","state_name":"New York","lat":42.84649,"lng":-77.3104,"zip":"14424","miles_from_dt":20.76},{"city":"Bloomfield","state_name":"New York","lat":42.87778,"lng":-77.46735,"zip":"14469","miles_from_dt":20.76},{"city":"Clyde","state_name":"New York","lat":43.07939,"lng":-76.87779,"zip":"14433","miles_from_dt":21.04},{"city":"Rochester","state_name":"New York","lat":43.17069,"lng":-77.69933,"zip":"14606","miles_from_dt":21.07},{"city":"Rochester","state_name":"New York","lat":43.26513,"lng":-77.67654,"zip":"14612","miles_from_dt":21.46},{"city":"West Bloomfield","state_name":"New York","lat":42.90587,"lng":-77.55301,"zip":"14585","miles_from_dt":21.5},{"city":"West Henrietta","state_name":"New York","lat":43.04151,"lng":-77.68693,"zip":"14586","miles_from_dt":21.65},{"city":"Rochester","state_name":"New York","lat":43.21348,"lng":-77.71272,"zip":"14626","miles_from_dt":22.16},{"city":"Rochester","state_name":"New York","lat":43.15062,"lng":-77.7283,"zip":"14652","miles_from_dt":22.48},{"city":"Rochester","state_name":"New York","lat":43.12765,"lng":-77.7317,"zip":"14624","miles_from_dt":22.69},{"city":"Rush","state_name":"New York","lat":42.98777,"lng":-77.67747,"zip":"14543","miles_from_dt":22.75},{"city":"Stanley","state_name":"New York","lat":42.82218,"lng":-77.13131,"zip":"14561","miles_from_dt":23.69},{"city":"North Greece","state_name":"New York","lat":43.25287,"lng":-77.73175,"zip":"14515","miles_from_dt":23.79},{"city":"Wolcott","state_name":"New York","lat":43.24533,"lng":-76.83099,"zip":"14590","miles_from_dt":23.86},{"city":"Lima","state_name":"New York","lat":42.88016,"lng":-77.60131,"zip":"14485","miles_from_dt":24.44},{"city":"Gorham","state_name":"New York","lat":42.80179,"lng":-77.1305,"zip":"14461","miles_from_dt":25.03},{"city":"Geneva","state_name":"New York","lat":42.84584,"lng":-77.00012,"zip":"14456","miles_from_dt":25.25},{"city":"Scottsville","state_name":"New York","lat":43.0296,"lng":-77.77372,"zip":"14546","miles_from_dt":26.08},{"city":"Waterloo","state_name":"New York","lat":42.91185,"lng":-76.87601,"zip":"13165","miles_from_dt":26.24},{"city":"South Butler","state_name":"New York","lat":43.13378,"lng":-76.76192,"zip":"13154","miles_from_dt":26.39},{"city":"Hall","state_name":"New York","lat":42.79539,"lng":-77.0689,"zip":"14463","miles_from_dt":26.57},{"city":"North Chili","state_name":"New York","lat":43.08597,"lng":-77.80303,"zip":"14514","miles_from_dt":26.6},{"city":"Savannah","state_name":"New York","lat":43.09711,"lng":-76.76031,"zip":"13146","miles_from_dt":26.68},{"city":"Rushville","state_name":"New York","lat":42.75562,"lng":-77.23958,"zip":"14544","miles_from_dt":27.08},{"city":"Spencerport","state_name":"New York","lat":43.18823,"lng":-77.81778,"zip":"14559","miles_from_dt":27.14},{"city":"Hilton","state_name":"New York","lat":43.29242,"lng":-77.80542,"zip":"14468","miles_from_dt":28.2},{"city":"South Lima","state_name":"New York","lat":42.85382,"lng":-77.67765,"zip":"14558","miles_from_dt":28.41},{"city":"Avon","state_name":"New York","lat":42.89358,"lng":-77.73501,"zip":"14414","miles_from_dt":28.77},{"city":"Livonia Center","state_name":"New York","lat":42.81881,"lng":-77.64226,"zip":"14488","miles_from_dt":29.02},{"city":"Adams Basin","state_name":"New York","lat":43.19221,"lng":-77.85555,"zip":"14410","miles_from_dt":29.07},{"city":"Honeoye","state_name":"New York","lat":42.75308,"lng":-77.49425,"zip":"14471","miles_from_dt":29.19},{"city":"Livonia","state_name":"New York","lat":42.81174,"lng":-77.63873,"zip":"14487","miles_from_dt":29.29},{"city":"Red Creek","state_name":"New York","lat":43.23325,"lng":-76.71545,"zip":"13143","miles_from_dt":29.32},{"city":"Churchville","state_name":"New York","lat":43.08029,"lng":-77.85963,"zip":"14428","miles_from_dt":29.49},{"city":"Hemlock","state_name":"New York","lat":42.77773,"lng":-77.5842,"zip":"14466","miles_from_dt":29.67},{"city":"Seneca Falls","state_name":"New York","lat":42.9208,"lng":-76.78106,"zip":"13148","miles_from_dt":29.84}],"targetCityZipCode":"14568","targetCityState":"New York"},"__N_SSG":true}