{"pageProps":{"stateName":"New-york","cityName":"whitesville","nearbyCities":[{"city":"Genesee","state_name":"Pennsylvania","lat":41.98841,"lng":-77.75796,"zip":"16941","miles_from_dt":3.3},{"city":"Rexville","state_name":"New York","lat":42.06181,"lng":-77.68384,"zip":"14877","miles_from_dt":5.94},{"city":"Mills","state_name":"Pennsylvania","lat":41.96421,"lng":-77.71004,"zip":"16937","miles_from_dt":6.13},{"city":"Genesee","state_name":"Pennsylvania","lat":41.94103,"lng":-77.8761,"zip":"16923","miles_from_dt":7.52},{"city":"Wellsville","state_name":"New York","lat":42.07772,"lng":-77.93387,"zip":"14895","miles_from_dt":8.08},{"city":"Harrison Valley","state_name":"Pennsylvania","lat":41.9655,"lng":-77.65941,"zip":"16927","miles_from_dt":8.08},{"city":"Andover","state_name":"New York","lat":42.15543,"lng":-77.78662,"zip":"14806","miles_from_dt":8.69},{"city":"Greenwood","state_name":"New York","lat":42.13961,"lng":-77.64331,"zip":"14839","miles_from_dt":10.73},{"city":"Troupsburg","state_name":"New York","lat":42.048,"lng":-77.57117,"zip":"14885","miles_from_dt":11.37},{"city":"Ulysses","state_name":"Pennsylvania","lat":41.85369,"lng":-77.75683,"zip":"16948","miles_from_dt":12.26},{"city":"Scio","state_name":"New York","lat":42.17363,"lng":-77.97334,"zip":"14880","miles_from_dt":13.68},{"city":"Alma","state_name":"New York","lat":42.01424,"lng":-78.06988,"zip":"14708","miles_from_dt":14.4},{"city":"Allentown","state_name":"New York","lat":42.08256,"lng":-78.06196,"zip":"14707","miles_from_dt":14.42},{"city":"Alfred Station","state_name":"New York","lat":42.25135,"lng":-77.78808,"zip":"14803","miles_from_dt":15.31},{"city":"Alfred","state_name":"New York","lat":42.2537,"lng":-77.78989,"zip":"14802","miles_from_dt":15.47},{"city":"Sabinsville","state_name":"Pennsylvania","lat":41.8406,"lng":-77.61915,"zip":"16943","miles_from_dt":15.75},{"city":"Westfield","state_name":"Pennsylvania","lat":41.89816,"lng":-77.53429,"zip":"16950","miles_from_dt":16.02},{"city":"Jasper","state_name":"New York","lat":42.13978,"lng":-77.50112,"zip":"14855","miles_from_dt":16.72},{"city":"Belmont","state_name":"New York","lat":42.24638,"lng":-77.99209,"zip":"14813","miles_from_dt":18.19},{"city":"Canisteo","state_name":"New York","lat":42.23984,"lng":-77.5722,"zip":"14823","miles_from_dt":18.35},{"city":"Woodhull","state_name":"New York","lat":42.05729,"lng":-77.43482,"zip":"14898","miles_from_dt":18.41},{"city":"Bolivar","state_name":"New York","lat":42.07323,"lng":-78.14832,"zip":"14715","miles_from_dt":18.64},{"city":"Richburg","state_name":"New York","lat":42.08875,"lng":-78.14658,"zip":"14774","miles_from_dt":18.75},{"city":"Knoxville","state_name":"Pennsylvania","lat":41.95203,"lng":-77.43371,"zip":"16928","miles_from_dt":19.15},{"city":"Shinglehouse","state_name":"Pennsylvania","lat":41.9427,"lng":-78.14425,"zip":"16748","miles_from_dt":19.16},{"city":"Coudersport","state_name":"Pennsylvania","lat":41.77481,"lng":-77.96104,"zip":"16915","miles_from_dt":19.65},{"city":"Almond","state_name":"New York","lat":42.31587,"lng":-77.8476,"zip":"14804","miles_from_dt":19.98},{"city":"Little Genesee","state_name":"New York","lat":42.02385,"lng":-78.19799,"zip":"14754","miles_from_dt":20.96},{"city":"Friendship","state_name":"New York","lat":42.1925,"lng":-78.14932,"zip":"14739","miles_from_dt":21.59},{"city":"Hornell","state_name":"New York","lat":42.32819,"lng":-77.64371,"zip":"14843","miles_from_dt":21.95},{"city":"Cameron","state_name":"New York","lat":42.21924,"lng":-77.43466,"zip":"14819","miles_from_dt":22.5},{"city":"Osceola","state_name":"Pennsylvania","lat":41.9654,"lng":-77.35414,"zip":"16942","miles_from_dt":22.91},{"city":"West Clarksville","state_name":"New York","lat":42.12521,"lng":-78.22988,"zip":"14786","miles_from_dt":23.53},{"city":"Roulette","state_name":"Pennsylvania","lat":41.79064,"lng":-78.13858,"zip":"16746","miles_from_dt":24.36},{"city":"Angelica","state_name":"New York","lat":42.35279,"lng":-77.98267,"zip":"14709","miles_from_dt":24.39},{"city":"Cameron Mills","state_name":"New York","lat":42.18629,"lng":-77.36258,"zip":"14820","miles_from_dt":24.52},{"city":"Ceres","state_name":"New York","lat":42.01645,"lng":-78.26801,"zip":"14721","miles_from_dt":24.58},{"city":"Galeton","state_name":"Pennsylvania","lat":41.67191,"lng":-77.70064,"zip":"16922","miles_from_dt":25.11},{"city":"Elkland","state_name":"Pennsylvania","lat":41.98218,"lng":-77.28851,"zip":"16920","miles_from_dt":26.06},{"city":"Portville","state_name":"New York","lat":42.0468,"lng":-78.29963,"zip":"14770","miles_from_dt":26.21},{"city":"Gaines","state_name":"Pennsylvania","lat":41.69614,"lng":-77.54654,"zip":"16921","miles_from_dt":26.23},{"city":"Middlebury Center","state_name":"Pennsylvania","lat":41.87032,"lng":-77.32404,"zip":"16935","miles_from_dt":26.44},{"city":"Addison","state_name":"New York","lat":42.09718,"lng":-77.28461,"zip":"14801","miles_from_dt":26.45},{"city":"Belfast","state_name":"New York","lat":42.32088,"lng":-78.12625,"zip":"14711","miles_from_dt":26.48},{"city":"Arkport","state_name":"New York","lat":42.41821,"lng":-77.71949,"zip":"14807","miles_from_dt":27.08},{"city":"Turtlepoint","state_name":"Pennsylvania","lat":41.88796,"lng":-78.29682,"zip":"16750","miles_from_dt":27.84},{"city":"Canaseraga","state_name":"New York","lat":42.43522,"lng":-77.84702,"zip":"14822","miles_from_dt":28.15},{"city":"Cuba","state_name":"New York","lat":42.2129,"lng":-78.29358,"zip":"14727","miles_from_dt":28.77},{"city":"Black Creek","state_name":"New York","lat":42.28368,"lng":-78.23493,"zip":"14714","miles_from_dt":28.78},{"city":"Nelson","state_name":"Pennsylvania","lat":41.97752,"lng":-77.23373,"zip":"16940","miles_from_dt":28.9},{"city":"Port Allegany","state_name":"Pennsylvania","lat":41.7888,"lng":-78.26016,"zip":"16743","miles_from_dt":29.35}],"targetCityZipCode":"14897","targetCityState":"New York"},"__N_SSG":true}