{"pageProps":{"stateName":"New-york","cityName":"woodgate","nearbyCities":[{"city":"Port Leyden","state_name":"New York","lat":43.59914,"lng":-75.24765,"zip":"13433","miles_from_dt":7.07},{"city":"Alder Creek","state_name":"New York","lat":43.42225,"lng":-75.21546,"zip":"13301","miles_from_dt":8.39},{"city":"Forestport","state_name":"New York","lat":43.49706,"lng":-74.97833,"zip":"13338","miles_from_dt":8.56},{"city":"Boonville","state_name":"New York","lat":43.47398,"lng":-75.34103,"zip":"13309","miles_from_dt":10.76},{"city":"Thendara","state_name":"New York","lat":43.69491,"lng":-75.06072,"zip":"13472","miles_from_dt":12},{"city":"Old Forge","state_name":"New York","lat":43.65069,"lng":-74.9619,"zip":"13420","miles_from_dt":12.23},{"city":"Brantingham","state_name":"New York","lat":43.70247,"lng":-75.20758,"zip":"13312","miles_from_dt":12.26},{"city":"Lyons Falls","state_name":"New York","lat":43.6446,"lng":-75.33209,"zip":"13368","miles_from_dt":12.33},{"city":"Remsen","state_name":"New York","lat":43.35171,"lng":-75.15527,"zip":"13438","miles_from_dt":12.42},{"city":"Greig","state_name":"New York","lat":43.6889,"lng":-75.33153,"zip":"13345","miles_from_dt":14.45},{"city":"Hinckley","state_name":"New York","lat":43.31122,"lng":-75.12058,"zip":"13352","miles_from_dt":15.24},{"city":"Westernville","state_name":"New York","lat":43.35707,"lng":-75.34088,"zip":"13486","miles_from_dt":15.65},{"city":"Prospect","state_name":"New York","lat":43.30255,"lng":-75.15134,"zip":"13435","miles_from_dt":15.8},{"city":"Turin","state_name":"New York","lat":43.64414,"lng":-75.44517,"zip":"13473","miles_from_dt":17.09},{"city":"Glenfield","state_name":"New York","lat":43.75271,"lng":-75.31062,"zip":"13343","miles_from_dt":17.46},{"city":"Cold Brook","state_name":"New York","lat":43.3165,"lng":-74.93325,"zip":"13324","miles_from_dt":18.17},{"city":"Holland Patent","state_name":"New York","lat":43.26612,"lng":-75.27199,"zip":"13354","miles_from_dt":19.45},{"city":"Ava","state_name":"New York","lat":43.36992,"lng":-75.46636,"zip":"13303","miles_from_dt":19.76},{"city":"West Leyden","state_name":"New York","lat":43.46698,"lng":-75.52928,"zip":"13489","miles_from_dt":19.96},{"city":"Barneveld","state_name":"New York","lat":43.23954,"lng":-75.1589,"zip":"13304","miles_from_dt":20.16},{"city":"Constableville","state_name":"New York","lat":43.58398,"lng":-75.54091,"zip":"13325","miles_from_dt":20.36},{"city":"Hoffmeister","state_name":"New York","lat":43.47123,"lng":-74.72732,"zip":"13353","miles_from_dt":21.25},{"city":"Eagle Bay","state_name":"New York","lat":43.81706,"lng":-74.97284,"zip":"13331","miles_from_dt":21.47},{"city":"Martinsburg","state_name":"New York","lat":43.73842,"lng":-75.48089,"zip":"13404","miles_from_dt":22.21},{"city":"Poland","state_name":"New York","lat":43.20691,"lng":-75.07608,"zip":"13431","miles_from_dt":22.64},{"city":"Stittville","state_name":"New York","lat":43.22028,"lng":-75.29853,"zip":"13469","miles_from_dt":22.88},{"city":"Lee Center","state_name":"New York","lat":43.33127,"lng":-75.50984,"zip":"13363","miles_from_dt":23.09},{"city":"Lowville","state_name":"New York","lat":43.85563,"lng":-75.31772,"zip":"13367","miles_from_dt":24.06},{"city":"Inlet","state_name":"New York","lat":43.72457,"lng":-74.73577,"zip":"13360","miles_from_dt":24.35},{"city":"Rome","state_name":"New York","lat":43.22711,"lng":-75.40758,"zip":"13441","miles_from_dt":24.9},{"city":"Newport","state_name":"New York","lat":43.18768,"lng":-74.9571,"zip":"13416","miles_from_dt":25.49},{"city":"Marcy","state_name":"New York","lat":43.17041,"lng":-75.27188,"zip":"13403","miles_from_dt":25.76},{"city":"Taberg","state_name":"New York","lat":43.37606,"lng":-75.6122,"zip":"13471","miles_from_dt":25.97},{"city":"Rome","state_name":"New York","lat":43.21762,"lng":-75.44742,"zip":"13442","miles_from_dt":26.56},{"city":"Rome","state_name":"New York","lat":43.21807,"lng":-75.45941,"zip":"13440","miles_from_dt":26.89},{"city":"Utica","state_name":"New York","lat":43.14121,"lng":-75.16584,"zip":"13502","miles_from_dt":26.96},{"city":"Rome","state_name":"New York","lat":43.22549,"lng":-75.49228,"zip":"13449","miles_from_dt":27.51},{"city":"Oriskany","state_name":"New York","lat":43.15228,"lng":-75.36291,"zip":"13424","miles_from_dt":28.44},{"city":"Beaver Falls","state_name":"New York","lat":43.89329,"lng":-75.43144,"zip":"13305","miles_from_dt":28.89},{"city":"Piseco","state_name":"New York","lat":43.52096,"lng":-74.56552,"zip":"12139","miles_from_dt":28.97},{"city":"Middleville","state_name":"New York","lat":43.14326,"lng":-74.92257,"zip":"13406","miles_from_dt":28.98},{"city":"Yorkville","state_name":"New York","lat":43.11087,"lng":-75.27744,"zip":"13495","miles_from_dt":29.82},{"city":"Castorland","state_name":"New York","lat":43.89989,"lng":-75.45265,"zip":"13620","miles_from_dt":29.82}],"targetCityZipCode":"13494","targetCityState":"New York"},"__N_SSG":true}