{"pageProps":{"stateName":"West-virginia","cityName":"bowden","nearbyCities":[{"city":"Harman","state_name":"West Virginia","lat":38.81229,"lng":-79.60034,"zip":"26270","miles_from_dt":7.49},{"city":"Elkins","state_name":"West Virginia","lat":38.9163,"lng":-79.79229,"zip":"26241","miles_from_dt":7.49},{"city":"Red Creek","state_name":"West Virginia","lat":38.98972,"lng":-79.51268,"zip":"26289","miles_from_dt":9.26},{"city":"Kerens","state_name":"West Virginia","lat":39.03201,"lng":-79.75659,"zip":"26276","miles_from_dt":9.94},{"city":"Hendricks","state_name":"West Virginia","lat":39.049,"lng":-79.55194,"zip":"26271","miles_from_dt":10.88},{"city":"Whitmer","state_name":"West Virginia","lat":38.75425,"lng":-79.56369,"zip":"26296","miles_from_dt":11.95},{"city":"Dryfork","state_name":"West Virginia","lat":38.95705,"lng":-79.43586,"zip":"26263","miles_from_dt":12.12},{"city":"Beverly","state_name":"West Virginia","lat":38.80772,"lng":-79.85654,"zip":"26253","miles_from_dt":13.13},{"city":"Onego","state_name":"West Virginia","lat":38.88742,"lng":-79.40064,"zip":"26886","miles_from_dt":13.74},{"city":"Montrose","state_name":"West Virginia","lat":39.06436,"lng":-79.82088,"zip":"26283","miles_from_dt":13.82},{"city":"Hambleton","state_name":"West Virginia","lat":39.11612,"lng":-79.61617,"zip":"26269","miles_from_dt":14.18},{"city":"Seneca Rocks","state_name":"West Virginia","lat":38.84273,"lng":-79.40118,"zip":"26884","miles_from_dt":14.43},{"city":"Riverton","state_name":"West Virginia","lat":38.75176,"lng":-79.46648,"zip":"26814","miles_from_dt":14.99},{"city":"Dailey","state_name":"West Virginia","lat":38.82536,"lng":-79.91528,"zip":"26259","miles_from_dt":15.35},{"city":"Norton","state_name":"West Virginia","lat":38.9102,"lng":-79.94945,"zip":"26285","miles_from_dt":15.96},{"city":"Glady","state_name":"West Virginia","lat":38.71457,"lng":-79.82276,"zip":"26268","miles_from_dt":16.44},{"city":"Junior","state_name":"West Virginia","lat":38.98313,"lng":-79.94583,"zip":"26275","miles_from_dt":16.49},{"city":"Parsons","state_name":"West Virginia","lat":39.16657,"lng":-79.69057,"zip":"26287","miles_from_dt":17.63},{"city":"Valley Bend","state_name":"West Virginia","lat":38.7824,"lng":-79.9365,"zip":"26293","miles_from_dt":17.72},{"city":"Davis","state_name":"West Virginia","lat":39.08923,"lng":-79.41147,"zip":"26260","miles_from_dt":17.83},{"city":"Thomas","state_name":"West Virginia","lat":39.15247,"lng":-79.52916,"zip":"26292","miles_from_dt":17.85},{"city":"Belington","state_name":"West Virginia","lat":39.02757,"lng":-79.96198,"zip":"26250","miles_from_dt":18.41},{"city":"Coalton","state_name":"West Virginia","lat":38.9226,"lng":-80.01239,"zip":"26257","miles_from_dt":19.36},{"city":"Circleville","state_name":"West Virginia","lat":38.63306,"lng":-79.54526,"zip":"26804","miles_from_dt":20.15},{"city":"Mabie","state_name":"West Virginia","lat":38.82572,"lng":-80.02547,"zip":"26278","miles_from_dt":20.94},{"city":"Cabins","state_name":"West Virginia","lat":38.96933,"lng":-79.25935,"zip":"26855","miles_from_dt":21.59},{"city":"Bartow","state_name":"West Virginia","lat":38.58918,"lng":-79.71723,"zip":"24920","miles_from_dt":22.57},{"city":"Upper Tract","state_name":"West Virginia","lat":38.80493,"lng":-79.2512,"zip":"26866","miles_from_dt":22.93},{"city":"Ellamore","state_name":"West Virginia","lat":38.92557,"lng":-80.08069,"zip":"26267","miles_from_dt":23.04},{"city":"Durbin","state_name":"West Virginia","lat":38.58923,"lng":-79.82277,"zip":"26264","miles_from_dt":24.11},{"city":"Mill Creek","state_name":"West Virginia","lat":38.71738,"lng":-80.03775,"zip":"26280","miles_from_dt":24.73},{"city":"Franklin","state_name":"West Virginia","lat":38.62895,"lng":-79.36157,"zip":"26807","miles_from_dt":25.12},{"city":"Eglon","state_name":"West Virginia","lat":39.2641,"lng":-79.51892,"zip":"26716","miles_from_dt":25.3},{"city":"Moatsville","state_name":"West Virginia","lat":39.23093,"lng":-79.89076,"zip":"26405","miles_from_dt":25.4},{"city":"Bayard","state_name":"West Virginia","lat":39.22275,"lng":-79.39418,"zip":"26707","miles_from_dt":25.54},{"city":"Huttonsville","state_name":"West Virginia","lat":38.62993,"lng":-79.963,"zip":"26273","miles_from_dt":25.68},{"city":"Philippi","state_name":"West Virginia","lat":39.16349,"lng":-80.02245,"zip":"26416","miles_from_dt":26.34},{"city":"Maysville","state_name":"West Virginia","lat":39.08119,"lng":-79.2083,"zip":"26833","miles_from_dt":26.63},{"city":"Petersburg","state_name":"West Virginia","lat":38.95809,"lng":-79.15189,"zip":"26847","miles_from_dt":27.2},{"city":"Tallmansville","state_name":"West Virginia","lat":38.84769,"lng":-80.15145,"zip":"26237","miles_from_dt":27.22},{"city":"Rowlesburg","state_name":"West Virginia","lat":39.3116,"lng":-79.68651,"zip":"26425","miles_from_dt":27.58},{"city":"Blue Grass","state_name":"Virginia","lat":38.50753,"lng":-79.55925,"zip":"24413","miles_from_dt":28.4},{"city":"Aurora","state_name":"West Virginia","lat":39.32388,"lng":-79.56663,"zip":"26705","miles_from_dt":28.75},{"city":"Mount Storm","state_name":"West Virginia","lat":39.21508,"lng":-79.2647,"zip":"26739","miles_from_dt":29.54}],"targetCityZipCode":"26254","targetCityState":"West Virginia"},"__N_SSG":true}