{"pageProps":{"stateName":"West-virginia","cityName":"dryfork","nearbyCities":[{"city":"Red Creek","state_name":"West Virginia","lat":38.98972,"lng":-79.51268,"zip":"26289","miles_from_dt":4.71},{"city":"Onego","state_name":"West Virginia","lat":38.88742,"lng":-79.40064,"zip":"26886","miles_from_dt":5.16},{"city":"Seneca Rocks","state_name":"West Virginia","lat":38.84273,"lng":-79.40118,"zip":"26884","miles_from_dt":8.1},{"city":"Hendricks","state_name":"West Virginia","lat":39.049,"lng":-79.55194,"zip":"26271","miles_from_dt":8.9},{"city":"Davis","state_name":"West Virginia","lat":39.08923,"lng":-79.41147,"zip":"26260","miles_from_dt":9.21},{"city":"Cabins","state_name":"West Virginia","lat":38.96933,"lng":-79.25935,"zip":"26855","miles_from_dt":9.54},{"city":"Bowden","state_name":"West Virginia","lat":38.91261,"lng":-79.65341,"zip":"26254","miles_from_dt":12.12},{"city":"Harman","state_name":"West Virginia","lat":38.81229,"lng":-79.60034,"zip":"26270","miles_from_dt":13.35},{"city":"Riverton","state_name":"West Virginia","lat":38.75176,"lng":-79.46648,"zip":"26814","miles_from_dt":14.26},{"city":"Thomas","state_name":"West Virginia","lat":39.15247,"lng":-79.52916,"zip":"26292","miles_from_dt":14.38},{"city":"Upper Tract","state_name":"West Virginia","lat":38.80493,"lng":-79.2512,"zip":"26866","miles_from_dt":14.47},{"city":"Hambleton","state_name":"West Virginia","lat":39.11612,"lng":-79.61617,"zip":"26269","miles_from_dt":14.65},{"city":"Maysville","state_name":"West Virginia","lat":39.08119,"lng":-79.2083,"zip":"26833","miles_from_dt":14.94},{"city":"Petersburg","state_name":"West Virginia","lat":38.95809,"lng":-79.15189,"zip":"26847","miles_from_dt":15.29},{"city":"Whitmer","state_name":"West Virginia","lat":38.75425,"lng":-79.56369,"zip":"26296","miles_from_dt":15.6},{"city":"Kerens","state_name":"West Virginia","lat":39.03201,"lng":-79.75659,"zip":"26276","miles_from_dt":18.02},{"city":"Bayard","state_name":"West Virginia","lat":39.22275,"lng":-79.39418,"zip":"26707","miles_from_dt":18.47},{"city":"Elkins","state_name":"West Virginia","lat":38.9163,"lng":-79.79229,"zip":"26241","miles_from_dt":19.41},{"city":"Parsons","state_name":"West Virginia","lat":39.16657,"lng":-79.69057,"zip":"26287","miles_from_dt":19.91},{"city":"Mount Storm","state_name":"West Virginia","lat":39.21508,"lng":-79.2647,"zip":"26739","miles_from_dt":20.04},{"city":"Eglon","state_name":"West Virginia","lat":39.2641,"lng":-79.51892,"zip":"26716","miles_from_dt":21.65},{"city":"Montrose","state_name":"West Virginia","lat":39.06436,"lng":-79.82088,"zip":"26283","miles_from_dt":22},{"city":"Milam","state_name":"West Virginia","lat":38.80492,"lng":-79.07237,"zip":"26838","miles_from_dt":22.23},{"city":"Gormania","state_name":"West Virginia","lat":39.27761,"lng":-79.33126,"zip":"26720","miles_from_dt":22.82},{"city":"Franklin","state_name":"West Virginia","lat":38.62895,"lng":-79.36157,"zip":"26807","miles_from_dt":22.98},{"city":"Circleville","state_name":"West Virginia","lat":38.63306,"lng":-79.54526,"zip":"26804","miles_from_dt":23.12},{"city":"Fisher","state_name":"West Virginia","lat":39.07662,"lng":-79.02238,"zip":"26818","miles_from_dt":23.73},{"city":"Lahmansville","state_name":"West Virginia","lat":39.15243,"lng":-79.06859,"zip":"26731","miles_from_dt":23.91},{"city":"Beverly","state_name":"West Virginia","lat":38.80772,"lng":-79.85654,"zip":"26253","miles_from_dt":24.91},{"city":"Brandywine","state_name":"West Virginia","lat":38.64454,"lng":-79.18706,"zip":"26802","miles_from_dt":25.4},{"city":"Moorefield","state_name":"West Virginia","lat":39.00693,"lng":-78.96366,"zip":"26836","miles_from_dt":25.66},{"city":"Aurora","state_name":"West Virginia","lat":39.32388,"lng":-79.56663,"zip":"26705","miles_from_dt":26.26},{"city":"Glady","state_name":"West Virginia","lat":38.71457,"lng":-79.82276,"zip":"26268","miles_from_dt":26.75},{"city":"Bergton","state_name":"Virginia","lat":38.79264,"lng":-78.9757,"zip":"22811","miles_from_dt":27.28},{"city":"Criders","state_name":"Virginia","lat":38.74387,"lng":-79.00948,"zip":"22820","miles_from_dt":27.3},{"city":"Dailey","state_name":"West Virginia","lat":38.82536,"lng":-79.91528,"zip":"26259","miles_from_dt":27.4},{"city":"Junior","state_name":"West Virginia","lat":38.98313,"lng":-79.94583,"zip":"26275","miles_from_dt":27.52},{"city":"Norton","state_name":"West Virginia","lat":38.9102,"lng":-79.94945,"zip":"26285","miles_from_dt":27.86},{"city":"Rowlesburg","state_name":"West Virginia","lat":39.3116,"lng":-79.68651,"zip":"26425","miles_from_dt":27.92},{"city":"Belington","state_name":"West Virginia","lat":39.02757,"lng":-79.96198,"zip":"26250","miles_from_dt":28.74},{"city":"Old Fields","state_name":"West Virginia","lat":39.16734,"lng":-78.96193,"zip":"26845","miles_from_dt":29.33},{"city":"Valley Bend","state_name":"West Virginia","lat":38.7824,"lng":-79.9365,"zip":"26293","miles_from_dt":29.56},{"city":"Bartow","state_name":"West Virginia","lat":38.58918,"lng":-79.71723,"zip":"24920","miles_from_dt":29.58},{"city":"New Creek","state_name":"West Virginia","lat":39.28873,"lng":-79.07998,"zip":"26743","miles_from_dt":29.82}],"targetCityZipCode":"26263","targetCityState":"West Virginia"},"__N_SSG":true}