{"pageProps":{"stateName":"West-virginia","cityName":"pipestem","nearbyCities":[{"city":"Lerona","state_name":"West Virginia","lat":37.48001,"lng":-80.97821,"zip":"25971","miles_from_dt":4.03},{"city":"Athens","state_name":"West Virginia","lat":37.46903,"lng":-81.02029,"zip":"24712","miles_from_dt":6.4},{"city":"Forest Hill","state_name":"West Virginia","lat":37.56362,"lng":-80.80344,"zip":"24935","miles_from_dt":7.18},{"city":"Nimitz","state_name":"West Virginia","lat":37.62861,"lng":-80.94138,"zip":"25978","miles_from_dt":8.11},{"city":"Jumping Branch","state_name":"West Virginia","lat":37.61657,"lng":-81.00903,"zip":"25969","miles_from_dt":8.76},{"city":"Ballard","state_name":"West Virginia","lat":37.51793,"lng":-80.75461,"zip":"24918","miles_from_dt":8.95},{"city":"Rich Creek","state_name":"Virginia","lat":37.40178,"lng":-80.82815,"zip":"24147","miles_from_dt":9.08},{"city":"Glen Lyn","state_name":"Virginia","lat":37.38784,"lng":-80.85657,"zip":"24093","miles_from_dt":9.23},{"city":"Peterstown","state_name":"West Virginia","lat":37.43743,"lng":-80.77617,"zip":"24963","miles_from_dt":9.33},{"city":"Flat Top","state_name":"West Virginia","lat":37.55325,"lng":-81.09061,"zip":"25841","miles_from_dt":9.92},{"city":"Hinton","state_name":"West Virginia","lat":37.65535,"lng":-80.87197,"zip":"25951","miles_from_dt":10.16},{"city":"Spanishburg","state_name":"West Virginia","lat":37.47147,"lng":-81.09966,"zip":"25922","miles_from_dt":10.41},{"city":"Princeton","state_name":"West Virginia","lat":37.36784,"lng":-80.9949,"zip":"24739","miles_from_dt":10.86},{"city":"Kellysville","state_name":"West Virginia","lat":37.3417,"lng":-80.92781,"zip":"24732","miles_from_dt":11.8},{"city":"Camp Creek","state_name":"West Virginia","lat":37.50812,"lng":-81.13549,"zip":"25820","miles_from_dt":11.99},{"city":"Princeton","state_name":"West Virginia","lat":37.4042,"lng":-81.10205,"zip":"24740","miles_from_dt":12.61},{"city":"Greenville","state_name":"West Virginia","lat":37.54113,"lng":-80.68795,"zip":"24945","miles_from_dt":12.75},{"city":"Talcott","state_name":"West Virginia","lat":37.63256,"lng":-80.73968,"zip":"24981","miles_from_dt":12.79},{"city":"Cool Ridge","state_name":"West Virginia","lat":37.64736,"lng":-81.08862,"zip":"25825","miles_from_dt":13.22},{"city":"White Oak","state_name":"West Virginia","lat":37.67864,"lng":-81.04594,"zip":"25989","miles_from_dt":13.45},{"city":"Wayside","state_name":"West Virginia","lat":37.59989,"lng":-80.68948,"zip":"24985","miles_from_dt":13.88},{"city":"Narrows","state_name":"Virginia","lat":37.30996,"lng":-80.86774,"zip":"24124","miles_from_dt":14.24},{"city":"Ghent","state_name":"West Virginia","lat":37.62129,"lng":-81.14129,"zip":"25843","miles_from_dt":14.4},{"city":"Beeson","state_name":"West Virginia","lat":37.47627,"lng":-81.18352,"zip":"24714","miles_from_dt":14.84},{"city":"Pence Springs","state_name":"West Virginia","lat":37.66029,"lng":-80.72041,"zip":"24962","miles_from_dt":14.85},{"city":"Kegley","state_name":"West Virginia","lat":37.39733,"lng":-81.15162,"zip":"24731","miles_from_dt":15.13},{"city":"Lindside","state_name":"West Virginia","lat":37.48358,"lng":-80.63103,"zip":"24951","miles_from_dt":15.86},{"city":"Lashmeet","state_name":"West Virginia","lat":37.44986,"lng":-81.20094,"zip":"24733","miles_from_dt":16.17},{"city":"Odd","state_name":"West Virginia","lat":37.56301,"lng":-81.21115,"zip":"25902","miles_from_dt":16.5},{"city":"Shady Spring","state_name":"West Virginia","lat":37.74575,"lng":-81.00993,"zip":"25918","miles_from_dt":16.86},{"city":"Sandstone","state_name":"West Virginia","lat":37.75752,"lng":-80.83044,"zip":"25985","miles_from_dt":17.55},{"city":"Daniels","state_name":"West Virginia","lat":37.72637,"lng":-81.10494,"zip":"25832","miles_from_dt":17.98},{"city":"Coal City","state_name":"West Virginia","lat":37.66626,"lng":-81.18231,"zip":"25823","miles_from_dt":17.99},{"city":"Wolfcreek","state_name":"West Virginia","lat":37.66095,"lng":-80.63512,"zip":"24993","miles_from_dt":18.56},{"city":"Hiawatha","state_name":"West Virginia","lat":37.44759,"lng":-81.24699,"zip":"24729","miles_from_dt":18.66},{"city":"Rock","state_name":"West Virginia","lat":37.40182,"lng":-81.2273,"zip":"24747","miles_from_dt":18.67},{"city":"Josephine","state_name":"West Virginia","lat":37.61443,"lng":-81.23288,"zip":"25857","miles_from_dt":18.69},{"city":"Ripplemead","state_name":"Virginia","lat":37.40229,"lng":-80.59694,"zip":"24150","miles_from_dt":19.19},{"city":"Pearisburg","state_name":"Virginia","lat":37.24595,"lng":-80.77901,"zip":"24134","miles_from_dt":19.9},{"city":"Rocky Gap","state_name":"Virginia","lat":37.26426,"lng":-81.10315,"zip":"24366","miles_from_dt":19.95},{"city":"Meadow Creek","state_name":"West Virginia","lat":37.80819,"lng":-80.90571,"zip":"25977","miles_from_dt":20.4},{"city":"Princewick","state_name":"West Virginia","lat":37.66782,"lng":-81.24434,"zip":"25908","miles_from_dt":20.89},{"city":"Alderson","state_name":"West Virginia","lat":37.74173,"lng":-80.66835,"zip":"24910","miles_from_dt":20.89},{"city":"Staffordsville","state_name":"Virginia","lat":37.24718,"lng":-80.7345,"zip":"24167","miles_from_dt":20.89},{"city":"Beaver","state_name":"West Virginia","lat":37.78309,"lng":-81.10001,"zip":"25813","miles_from_dt":21.17},{"city":"Matoaka","state_name":"West Virginia","lat":37.45045,"lng":-81.29589,"zip":"24736","miles_from_dt":21.24},{"city":"Green Sulphur Springs","state_name":"West Virginia","lat":37.7975,"lng":-80.76729,"zip":"25966","miles_from_dt":21.3},{"city":"Rhodell","state_name":"West Virginia","lat":37.61575,"lng":-81.28691,"zip":"25915","miles_from_dt":21.5},{"city":"Bluefield","state_name":"West Virginia","lat":37.29929,"lng":-81.2065,"zip":"24701","miles_from_dt":21.67},{"city":"Pembroke","state_name":"Virginia","lat":37.31927,"lng":-80.60686,"zip":"24136","miles_from_dt":21.67},{"city":"Midway","state_name":"West Virginia","lat":37.71303,"lng":-81.22464,"zip":"25878","miles_from_dt":21.8},{"city":"Helen","state_name":"West Virginia","lat":37.64616,"lng":-81.27827,"zip":"25853","miles_from_dt":21.85},{"city":"Raleigh","state_name":"West Virginia","lat":37.75232,"lng":-81.17848,"zip":"25911","miles_from_dt":21.87},{"city":"Montcalm","state_name":"West Virginia","lat":37.35042,"lng":-81.26055,"zip":"24737","miles_from_dt":21.94},{"city":"Amigo","state_name":"West Virginia","lat":37.60835,"lng":-81.3065,"zip":"25811","miles_from_dt":22.36},{"city":"Sophia","state_name":"West Virginia","lat":37.69181,"lng":-81.25882,"zip":"25921","miles_from_dt":22.45},{"city":"Covel","state_name":"West Virginia","lat":37.48722,"lng":-81.32652,"zip":"24719","miles_from_dt":22.55},{"city":"Eggleston","state_name":"Virginia","lat":37.27268,"lng":-80.63585,"zip":"24086","miles_from_dt":22.66},{"city":"Union","state_name":"West Virginia","lat":37.59165,"lng":-80.51672,"zip":"24983","miles_from_dt":22.66},{"city":"Meadow Bridge","state_name":"West Virginia","lat":37.84372,"lng":-80.86221,"zip":"25976","miles_from_dt":23.04},{"city":"MacArthur","state_name":"West Virginia","lat":37.75136,"lng":-81.21515,"zip":"25873","miles_from_dt":23.19},{"city":"Stephenson","state_name":"West Virginia","lat":37.55481,"lng":-81.34126,"zip":"25928","miles_from_dt":23.46},{"city":"Mabscott","state_name":"West Virginia","lat":37.76917,"lng":-81.21165,"zip":"25871","miles_from_dt":23.95},{"city":"Sinks Grove","state_name":"West Virginia","lat":37.66513,"lng":-80.52273,"zip":"24976","miles_from_dt":24.08},{"city":"Crab Orchard","state_name":"West Virginia","lat":37.73869,"lng":-81.25368,"zip":"25827","miles_from_dt":24.15},{"city":"Allen Junction","state_name":"West Virginia","lat":37.58355,"lng":-81.34953,"zip":"25810","miles_from_dt":24.23},{"city":"Skelton","state_name":"West Virginia","lat":37.79607,"lng":-81.18216,"zip":"25919","miles_from_dt":24.35},{"city":"Wyco","state_name":"West Virginia","lat":37.59657,"lng":-81.34914,"zip":"25943","miles_from_dt":24.4},{"city":"Grassy Meadows","state_name":"West Virginia","lat":37.83632,"lng":-80.72709,"zip":"24943","miles_from_dt":24.64},{"city":"Piney View","state_name":"West Virginia","lat":37.83176,"lng":-81.12194,"zip":"25906","miles_from_dt":24.7},{"city":"Glen White","state_name":"West Virginia","lat":37.73175,"lng":-81.27799,"zip":"25849","miles_from_dt":24.9},{"city":"Stanaford","state_name":"West Virginia","lat":37.81734,"lng":-81.16138,"zip":"25927","miles_from_dt":24.91},{"city":"Corinne","state_name":"West Virginia","lat":37.57291,"lng":-81.36565,"zip":"25826","miles_from_dt":24.97},{"city":"Herndon","state_name":"West Virginia","lat":37.52084,"lng":-81.37229,"zip":"24726","miles_from_dt":25},{"city":"Lanark","state_name":"West Virginia","lat":37.82703,"lng":-81.14653,"zip":"25860","miles_from_dt":25.06},{"city":"Freeman","state_name":"West Virginia","lat":37.33603,"lng":-81.31579,"zip":"24724","miles_from_dt":25.07},{"city":"Bud","state_name":"West Virginia","lat":37.53331,"lng":-81.37337,"zip":"24716","miles_from_dt":25.09},{"city":"Prince","state_name":"West Virginia","lat":37.8593,"lng":-81.07196,"zip":"25907","miles_from_dt":25.37},{"city":"Beckley","state_name":"West Virginia","lat":37.79333,"lng":-81.21961,"zip":"25802","miles_from_dt":25.49},{"city":"Bramwell","state_name":"West Virginia","lat":37.33408,"lng":-81.32933,"zip":"24715","miles_from_dt":25.79},{"city":"Layland","state_name":"West Virginia","lat":37.87948,"lng":-81.01781,"zip":"25864","miles_from_dt":25.89},{"city":"Parrott","state_name":"Virginia","lat":37.20534,"lng":-80.64707,"zip":"24132","miles_from_dt":25.89},{"city":"Slab Fork","state_name":"West Virginia","lat":37.68646,"lng":-81.33661,"zip":"25920","miles_from_dt":25.94},{"city":"Nemours","state_name":"West Virginia","lat":37.3032,"lng":-81.32013,"zip":"24738","miles_from_dt":26.45},{"city":"Wolfe","state_name":"West Virginia","lat":37.30996,"lng":-81.33,"zip":"24751","miles_from_dt":26.66},{"city":"Maybeury","state_name":"West Virginia","lat":37.36182,"lng":-81.36525,"zip":"24861","miles_from_dt":26.73},{"city":"Bland","state_name":"Virginia","lat":37.1393,"lng":-81.0534,"zip":"24315","miles_from_dt":26.81},{"city":"Spring Dale","state_name":"West Virginia","lat":37.89395,"lng":-80.81741,"zip":"25986","miles_from_dt":26.86},{"city":"Maben","state_name":"West Virginia","lat":37.63931,"lng":-81.3813,"zip":"25870","miles_from_dt":26.92},{"city":"Surveyor","state_name":"West Virginia","lat":37.75623,"lng":-81.30282,"zip":"25932","miles_from_dt":27},{"city":"Newport","state_name":"Virginia","lat":37.3426,"lng":-80.47196,"zip":"24128","miles_from_dt":27.16},{"city":"Mullens","state_name":"West Virginia","lat":37.60359,"lng":-81.39892,"zip":"25882","miles_from_dt":27.17},{"city":"Prosperity","state_name":"West Virginia","lat":37.83687,"lng":-81.20192,"zip":"25909","miles_from_dt":27.27},{"city":"Northfork","state_name":"West Virginia","lat":37.42412,"lng":-81.40259,"zip":"24868","miles_from_dt":27.36},{"city":"Eccles","state_name":"West Virginia","lat":37.78693,"lng":-81.27804,"zip":"25836","miles_from_dt":27.37},{"city":"Switchback","state_name":"West Virginia","lat":37.37808,"lng":-81.38664,"zip":"24887","miles_from_dt":27.42},{"city":"Harper","state_name":"West Virginia","lat":37.80177,"lng":-81.26154,"zip":"25851","miles_from_dt":27.46},{"city":"Waiteville","state_name":"West Virginia","lat":37.48942,"lng":-80.41749,"zip":"24984","miles_from_dt":27.51},{"city":"Secondcreek","state_name":"West Virginia","lat":37.65395,"lng":-80.44693,"zip":"24974","miles_from_dt":27.6},{"city":"Itmann","state_name":"West Virginia","lat":37.57339,"lng":-81.41455,"zip":"24847","miles_from_dt":27.62},{"city":"Pocahontas","state_name":"Virginia","lat":37.30683,"lng":-81.34962,"zip":"24635","miles_from_dt":27.69},{"city":"Belspring","state_name":"Virginia","lat":37.18257,"lng":-80.61637,"zip":"24058","miles_from_dt":28.15},{"city":"Lester","state_name":"West Virginia","lat":37.73076,"lng":-81.35212,"zip":"25865","miles_from_dt":28.2},{"city":"Dublin","state_name":"Virginia","lat":37.11468,"lng":-80.79088,"zip":"24084","miles_from_dt":28.31},{"city":"Bradley","state_name":"West Virginia","lat":37.8608,"lng":-81.19252,"zip":"25818","miles_from_dt":28.36},{"city":"Bastian","state_name":"Virginia","lat":37.17166,"lng":-81.20728,"zip":"24314","miles_from_dt":28.42},{"city":"Ronceverte","state_name":"West Virginia","lat":37.73238,"lng":-80.47574,"zip":"24970","miles_from_dt":28.58},{"city":"Asbury","state_name":"West Virginia","lat":37.82735,"lng":-80.57735,"zip":"24916","miles_from_dt":28.61},{"city":"Kyle","state_name":"West Virginia","lat":37.40882,"lng":-81.42499,"zip":"24855","miles_from_dt":28.81},{"city":"Falls Mills","state_name":"Virginia","lat":37.262,"lng":-81.3385,"zip":"24613","miles_from_dt":28.91},{"city":"Thurmond","state_name":"West Virginia","lat":37.92917,"lng":-81.03105,"zip":"25936","miles_from_dt":29.4},{"city":"Mount Hope","state_name":"West Virginia","lat":37.87672,"lng":-81.20095,"zip":"25880","miles_from_dt":29.53},{"city":"Beckley","state_name":"West Virginia","lat":37.83805,"lng":-81.27017,"zip":"25801","miles_from_dt":29.63},{"city":"Anawalt","state_name":"West Virginia","lat":37.33142,"lng":-81.41048,"zip":"24808","miles_from_dt":29.86}],"targetCityZipCode":"25979","targetCityState":"West Virginia"},"__N_SSG":true}