{"pageProps":{"stateName":"West-virginia","cityName":"slatyfork","nearbyCities":[{"city":"Snowshoe","state_name":"West Virginia","lat":38.39401,"lng":-80.04434,"zip":"26209","miles_from_dt":3.97},{"city":"Monterville","state_name":"West Virginia","lat":38.52022,"lng":-80.14619,"zip":"26282","miles_from_dt":6.35},{"city":"Valley Head","state_name":"West Virginia","lat":38.53443,"lng":-80.02309,"zip":"26294","miles_from_dt":7.3},{"city":"Cass","state_name":"West Virginia","lat":38.38999,"lng":-79.965,"zip":"24927","miles_from_dt":7.47},{"city":"Bergoo","state_name":"West Virginia","lat":38.45054,"lng":-80.26552,"zip":"26298","miles_from_dt":9.74},{"city":"Dunmore","state_name":"West Virginia","lat":38.32836,"lng":-79.89267,"zip":"24934","miles_from_dt":13.08},{"city":"Marlinton","state_name":"West Virginia","lat":38.22932,"lng":-80.07436,"zip":"24954","miles_from_dt":14.62},{"city":"Huttonsville","state_name":"West Virginia","lat":38.62993,"lng":-79.963,"zip":"26273","miles_from_dt":14.64},{"city":"Pickens","state_name":"West Virginia","lat":38.6437,"lng":-80.18881,"zip":"26230","miles_from_dt":15.04},{"city":"Webster Springs","state_name":"West Virginia","lat":38.49664,"lng":-80.3645,"zip":"26288","miles_from_dt":15.56},{"city":"Arbovale","state_name":"West Virginia","lat":38.4693,"lng":-79.78668,"zip":"24915","miles_from_dt":16.37},{"city":"Green Bank","state_name":"West Virginia","lat":38.39926,"lng":-79.77108,"zip":"24944","miles_from_dt":17.35},{"city":"Buckeye","state_name":"West Virginia","lat":38.19294,"lng":-80.15174,"zip":"24924","miles_from_dt":17.48},{"city":"Durbin","state_name":"West Virginia","lat":38.58923,"lng":-79.82277,"zip":"26264","miles_from_dt":17.56},{"city":"Mill Creek","state_name":"West Virginia","lat":38.71738,"lng":-80.03775,"zip":"26280","miles_from_dt":19.24},{"city":"Hillsboro","state_name":"West Virginia","lat":38.17891,"lng":-80.2671,"zip":"24946","miles_from_dt":20.58},{"city":"Selbyville","state_name":"West Virginia","lat":38.71755,"lng":-80.23088,"zip":"26236","miles_from_dt":20.61},{"city":"Helvetia","state_name":"West Virginia","lat":38.74485,"lng":-80.17474,"zip":"26224","miles_from_dt":21.49},{"city":"Hacker Valley","state_name":"West Virginia","lat":38.66123,"lng":-80.37122,"zip":"26222","miles_from_dt":21.65},{"city":"Cowen","state_name":"West Virginia","lat":38.36992,"lng":-80.47848,"zip":"26206","miles_from_dt":21.84},{"city":"Bartow","state_name":"West Virginia","lat":38.58918,"lng":-79.71723,"zip":"24920","miles_from_dt":22.46},{"city":"Upperglade","state_name":"West Virginia","lat":38.43411,"lng":-80.50219,"zip":"26266","miles_from_dt":22.56},{"city":"Diana","state_name":"West Virginia","lat":38.60837,"lng":-80.45901,"zip":"26217","miles_from_dt":23.26},{"city":"Glady","state_name":"West Virginia","lat":38.71457,"lng":-79.82276,"zip":"26268","miles_from_dt":23.66},{"city":"Monterey","state_name":"Virginia","lat":38.39611,"lng":-79.64636,"zip":"24465","miles_from_dt":24.08},{"city":"Cleveland","state_name":"West Virginia","lat":38.71931,"lng":-80.37915,"zip":"26215","miles_from_dt":24.89},{"city":"Valley Bend","state_name":"West Virginia","lat":38.7824,"lng":-79.9365,"zip":"26293","miles_from_dt":24.9},{"city":"Warm Springs","state_name":"Virginia","lat":38.1448,"lng":-79.82013,"zip":"24484","miles_from_dt":25.04},{"city":"Rock Cave","state_name":"West Virginia","lat":38.76618,"lng":-80.30833,"zip":"26234","miles_from_dt":25.44},{"city":"Kanawha Head","state_name":"West Virginia","lat":38.75437,"lng":-80.37054,"zip":"26228","miles_from_dt":26.52},{"city":"Mabie","state_name":"West Virginia","lat":38.82572,"lng":-80.02547,"zip":"26278","miles_from_dt":26.73},{"city":"Camden On Gauley","state_name":"West Virginia","lat":38.34781,"lng":-80.57314,"zip":"26208","miles_from_dt":27.2},{"city":"Dailey","state_name":"West Virginia","lat":38.82536,"lng":-79.91528,"zip":"26259","miles_from_dt":28.08},{"city":"Beverly","state_name":"West Virginia","lat":38.80772,"lng":-79.85654,"zip":"26253","miles_from_dt":28.18},{"city":"Tallmansville","state_name":"West Virginia","lat":38.84769,"lng":-80.15145,"zip":"26237","miles_from_dt":28.27},{"city":"Erbacon","state_name":"West Virginia","lat":38.53136,"lng":-80.60149,"zip":"26203","miles_from_dt":28.61},{"city":"Richwood","state_name":"West Virginia","lat":38.18881,"lng":-80.50454,"zip":"26261","miles_from_dt":28.62},{"city":"Frenchton","state_name":"West Virginia","lat":38.83805,"lng":-80.25934,"zip":"26219","miles_from_dt":28.94},{"city":"Blue Grass","state_name":"Virginia","lat":38.50753,"lng":-79.55925,"zip":"24413","miles_from_dt":28.95},{"city":"French Creek","state_name":"West Virginia","lat":38.84506,"lng":-80.26798,"zip":"26218","miles_from_dt":29.55},{"city":"Bacova","state_name":"Virginia","lat":38.05774,"lng":-79.83096,"zip":"24412","miles_from_dt":29.87}],"targetCityZipCode":"26291","targetCityState":"West Virginia"},"__N_SSG":true}