{"pageProps":{"stateName":"West-virginia","cityName":"tunnelton","nearbyCities":[{"city":"Newburg","state_name":"West Virginia","lat":39.4032,"lng":-79.82389,"zip":"26410","miles_from_dt":4.06},{"city":"Rowlesburg","state_name":"West Virginia","lat":39.3116,"lng":-79.68651,"zip":"26425","miles_from_dt":5.66},{"city":"Thornton","state_name":"West Virginia","lat":39.32947,"lng":-79.90625,"zip":"26440","miles_from_dt":8.15},{"city":"Independence","state_name":"West Virginia","lat":39.44755,"lng":-79.88101,"zip":"26374","miles_from_dt":8.36},{"city":"Kingwood","state_name":"West Virginia","lat":39.4846,"lng":-79.71189,"zip":"26537","miles_from_dt":8.45},{"city":"Arthurdale","state_name":"West Virginia","lat":39.50105,"lng":-79.82393,"zip":"26520","miles_from_dt":9.71},{"city":"Reedsville","state_name":"West Virginia","lat":39.5133,"lng":-79.80757,"zip":"26547","miles_from_dt":10.27},{"city":"Aurora","state_name":"West Virginia","lat":39.32388,"lng":-79.56663,"zip":"26705","miles_from_dt":10.94},{"city":"Moatsville","state_name":"West Virginia","lat":39.23093,"lng":-79.89076,"zip":"26405","miles_from_dt":11.72},{"city":"Bretz","state_name":"West Virginia","lat":39.54075,"lng":-79.80716,"zip":"26524","miles_from_dt":12.11},{"city":"Terra Alta","state_name":"West Virginia","lat":39.45042,"lng":-79.56035,"zip":"26764","miles_from_dt":12.21},{"city":"Masontown","state_name":"West Virginia","lat":39.573,"lng":-79.79041,"zip":"26542","miles_from_dt":14.18},{"city":"Grafton","state_name":"West Virginia","lat":39.34847,"lng":-80.02866,"zip":"26354","miles_from_dt":14.32},{"city":"Albright","state_name":"West Virginia","lat":39.55179,"lng":-79.63212,"zip":"26519","miles_from_dt":14.44},{"city":"Parsons","state_name":"West Virginia","lat":39.16657,"lng":-79.69057,"zip":"26287","miles_from_dt":14.46},{"city":"Eglon","state_name":"West Virginia","lat":39.2641,"lng":-79.51892,"zip":"26716","miles_from_dt":14.92},{"city":"Morgantown","state_name":"West Virginia","lat":39.59941,"lng":-79.89724,"zip":"26508","miles_from_dt":17.47},{"city":"Dellslow","state_name":"West Virginia","lat":39.60688,"lng":-79.89066,"zip":"26531","miles_from_dt":17.81},{"city":"Morgantown","state_name":"West Virginia","lat":39.61424,"lng":-79.91584,"zip":"26507","miles_from_dt":18.82},{"city":"Simpson","state_name":"West Virginia","lat":39.26743,"lng":-80.08875,"zip":"26435","miles_from_dt":18.82},{"city":"Hambleton","state_name":"West Virginia","lat":39.11612,"lng":-79.61617,"zip":"26269","miles_from_dt":19.11},{"city":"Thomas","state_name":"West Virginia","lat":39.15247,"lng":-79.52916,"zip":"26292","miles_from_dt":19.47},{"city":"Philippi","state_name":"West Virginia","lat":39.16349,"lng":-80.02245,"zip":"26416","miles_from_dt":19.86},{"city":"Oakland","state_name":"Maryland","lat":39.39107,"lng":-79.39085,"zip":"21550","miles_from_dt":19.96},{"city":"Fairmont","state_name":"West Virginia","lat":39.46475,"lng":-80.11461,"zip":"26554","miles_from_dt":19.97},{"city":"Colfax","state_name":"West Virginia","lat":39.43521,"lng":-80.12954,"zip":"26566","miles_from_dt":20.17},{"city":"Flemington","state_name":"West Virginia","lat":39.26371,"lng":-80.1261,"zip":"26347","miles_from_dt":20.78},{"city":"Morgantown","state_name":"West Virginia","lat":39.63037,"lng":-79.95785,"zip":"26504","miles_from_dt":20.86},{"city":"Galloway","state_name":"West Virginia","lat":39.22757,"lng":-80.11098,"zip":"26349","miles_from_dt":21.06},{"city":"Bruceton Mills","state_name":"West Virginia","lat":39.65465,"lng":-79.6184,"zip":"26525","miles_from_dt":21.18},{"city":"Montrose","state_name":"West Virginia","lat":39.06436,"lng":-79.82088,"zip":"26283","miles_from_dt":21.22},{"city":"Morgantown","state_name":"West Virginia","lat":39.63444,"lng":-79.97,"zip":"26502","miles_from_dt":21.43},{"city":"Montana Mines","state_name":"West Virginia","lat":39.52786,"lng":-80.10952,"zip":"26586","miles_from_dt":21.56},{"city":"Morgantown","state_name":"West Virginia","lat":39.6511,"lng":-79.94306,"zip":"26505","miles_from_dt":21.74},{"city":"Fairmont","state_name":"West Virginia","lat":39.47026,"lng":-80.15026,"zip":"26555","miles_from_dt":21.9},{"city":"Bayard","state_name":"West Virginia","lat":39.22275,"lng":-79.39418,"zip":"26707","miles_from_dt":22.16},{"city":"Morgantown","state_name":"West Virginia","lat":39.64677,"lng":-79.9701,"zip":"26506","miles_from_dt":22.16},{"city":"Rosemont","state_name":"West Virginia","lat":39.28117,"lng":-80.17272,"zip":"26424","miles_from_dt":22.79},{"city":"Kingmont","state_name":"West Virginia","lat":39.44888,"lng":-80.179,"zip":"26578","miles_from_dt":22.96},{"city":"Granville","state_name":"West Virginia","lat":39.64748,"lng":-79.99733,"zip":"26534","miles_from_dt":22.97},{"city":"Kerens","state_name":"West Virginia","lat":39.03201,"lng":-79.75659,"zip":"26276","miles_from_dt":23.22},{"city":"Morgantown","state_name":"West Virginia","lat":39.62872,"lng":-80.04025,"zip":"26501","miles_from_dt":23.29},{"city":"Baxter","state_name":"West Virginia","lat":39.54088,"lng":-80.14362,"zip":"26560","miles_from_dt":23.59},{"city":"Gormania","state_name":"West Virginia","lat":39.27761,"lng":-79.33126,"zip":"26720","miles_from_dt":23.95},{"city":"Osage","state_name":"West Virginia","lat":39.66375,"lng":-80.00219,"zip":"26543","miles_from_dt":24.05},{"city":"Barrackville","state_name":"West Virginia","lat":39.52141,"lng":-80.18015,"zip":"26559","miles_from_dt":24.7},{"city":"Pursglove","state_name":"West Virginia","lat":39.66099,"lng":-80.03115,"zip":"26546","miles_from_dt":24.75},{"city":"Hendricks","state_name":"West Virginia","lat":39.049,"lng":-79.55194,"zip":"26271","miles_from_dt":24.78},{"city":"McHenry","state_name":"Maryland","lat":39.55727,"lng":-79.36732,"zip":"21541","miles_from_dt":24.82},{"city":"Bridgeport","state_name":"West Virginia","lat":39.28837,"lng":-80.22109,"zip":"26330","miles_from_dt":25.18},{"city":"Rivesville","state_name":"West Virginia","lat":39.5738,"lng":-80.15339,"zip":"26588","miles_from_dt":25.24},{"city":"Gans","state_name":"Pennsylvania","lat":39.73333,"lng":-79.86667,"zip":"15439","miles_from_dt":25.77},{"city":"Grant Town","state_name":"West Virginia","lat":39.55926,"lng":-80.17741,"zip":"26574","miles_from_dt":25.79},{"city":"Belington","state_name":"West Virginia","lat":39.02757,"lng":-79.96198,"zip":"26250","miles_from_dt":25.85},{"city":"Cassville","state_name":"West Virginia","lat":39.66712,"lng":-80.05637,"zip":"26527","miles_from_dt":25.89},{"city":"Lake Lynn","state_name":"Pennsylvania","lat":39.74018,"lng":-79.84005,"zip":"15451","miles_from_dt":25.97},{"city":"Gibbon Glade","state_name":"Pennsylvania","lat":39.73775,"lng":-79.64347,"zip":"15440","miles_from_dt":26.25},{"city":"Friendsville","state_name":"Maryland","lat":39.64862,"lng":-79.42221,"zip":"21531","miles_from_dt":26.53},{"city":"Davis","state_name":"West Virginia","lat":39.08923,"lng":-79.41147,"zip":"26260","miles_from_dt":26.95},{"city":"Maidsville","state_name":"West Virginia","lat":39.68179,"lng":-80.07458,"zip":"26541","miles_from_dt":27.29},{"city":"Point Marion","state_name":"Pennsylvania","lat":39.75201,"lng":-79.90145,"zip":"15474","miles_from_dt":27.47},{"city":"Idamay","state_name":"West Virginia","lat":39.49307,"lng":-80.25644,"zip":"26576","miles_from_dt":27.78},{"city":"Shinnston","state_name":"West Virginia","lat":39.39144,"lng":-80.28085,"zip":"26431","miles_from_dt":27.79},{"city":"Enterprise","state_name":"West Virginia","lat":39.42542,"lng":-80.27729,"zip":"26568","miles_from_dt":27.83},{"city":"Volga","state_name":"West Virginia","lat":39.10178,"lng":-80.1584,"zip":"26238","miles_from_dt":28.1},{"city":"Junior","state_name":"West Virginia","lat":38.98313,"lng":-79.94583,"zip":"26275","miles_from_dt":28.35},{"city":"Carolina","state_name":"West Virginia","lat":39.48085,"lng":-80.27369,"zip":"26563","miles_from_dt":28.42},{"city":"Dilliner","state_name":"Pennsylvania","lat":39.75088,"lng":-79.96293,"zip":"15327","miles_from_dt":28.46},{"city":"Farmington","state_name":"West Virginia","lat":39.51945,"lng":-80.26013,"zip":"26571","miles_from_dt":28.57},{"city":"Mount Storm","state_name":"West Virginia","lat":39.21508,"lng":-79.2647,"zip":"26739","miles_from_dt":28.71},{"city":"Worthington","state_name":"West Virginia","lat":39.45499,"lng":-80.2903,"zip":"26591","miles_from_dt":28.86},{"city":"Smithfield","state_name":"Pennsylvania","lat":39.78601,"lng":-79.80099,"zip":"15478","miles_from_dt":28.87},{"city":"Kitzmiller","state_name":"Maryland","lat":39.40133,"lng":-79.22109,"zip":"21538","miles_from_dt":29.08},{"city":"Anmoore","state_name":"West Virginia","lat":39.2623,"lng":-80.29057,"zip":"26323","miles_from_dt":29.23},{"city":"Bobtown","state_name":"Pennsylvania","lat":39.75741,"lng":-79.98319,"zip":"15315","miles_from_dt":29.3},{"city":"Meadowbrook","state_name":"West Virginia","lat":39.34636,"lng":-80.30996,"zip":"26404","miles_from_dt":29.35},{"city":"Red Creek","state_name":"West Virginia","lat":38.98972,"lng":-79.51268,"zip":"26289","miles_from_dt":29.38},{"city":"Spelter","state_name":"West Virginia","lat":39.34315,"lng":-80.31631,"zip":"26438","miles_from_dt":29.71},{"city":"Gypsy","state_name":"West Virginia","lat":39.36507,"lng":-80.31776,"zip":"26361","miles_from_dt":29.73}],"targetCityZipCode":"26444","targetCityState":"West Virginia"},"__N_SSG":true}