{"pageProps":{"stateName":"California","cityName":"aguanga","nearbyCities":[{"city":"Palomar Mountain","state_name":"California","lat":33.35043,"lng":-116.86451,"zip":"92060","miles_from_dt":9.89},{"city":"Anza","state_name":"California","lat":33.51579,"lng":-116.64432,"zip":"92539","miles_from_dt":10.06},{"city":"Hemet","state_name":"California","lat":33.64581,"lng":-116.86033,"zip":"92544","miles_from_dt":11.19},{"city":"Temecula","state_name":"California","lat":33.511,"lng":-117.0242,"zip":"92592","miles_from_dt":12.17},{"city":"Pauma Valley","state_name":"California","lat":33.30036,"lng":-116.93048,"zip":"92061","miles_from_dt":14.54},{"city":"Pala","state_name":"California","lat":33.38277,"lng":-117.05193,"zip":"92059","miles_from_dt":15.48},{"city":"Warner Springs","state_name":"California","lat":33.29718,"lng":-116.64176,"zip":"92086","miles_from_dt":16.54},{"city":"Temecula","state_name":"California","lat":33.51697,"lng":-117.11021,"zip":"92589","miles_from_dt":17.15},{"city":"Temecula","state_name":"California","lat":33.53432,"lng":-117.1092,"zip":"92591","miles_from_dt":17.27},{"city":"Mountain Center","state_name":"California","lat":33.63704,"lng":-116.57441,"zip":"92561","miles_from_dt":17.29},{"city":"Hemet","state_name":"California","lat":33.69867,"lng":-116.97916,"zip":"92543","miles_from_dt":17.33},{"city":"Winchester","state_name":"California","lat":33.64739,"lng":-117.07641,"zip":"92596","miles_from_dt":18.65},{"city":"Valley Center","state_name":"California","lat":33.2518,"lng":-117.00284,"zip":"92082","miles_from_dt":19.56},{"city":"Temecula","state_name":"California","lat":33.50207,"lng":-117.15483,"zip":"92593","miles_from_dt":19.63},{"city":"Hemet","state_name":"California","lat":33.74999,"lng":-116.96813,"zip":"92546","miles_from_dt":20.1},{"city":"Murrieta","state_name":"California","lat":33.58435,"lng":-117.14458,"zip":"92563","miles_from_dt":20.13},{"city":"Hemet","state_name":"California","lat":33.7311,"lng":-117.0359,"zip":"92545","miles_from_dt":21.04},{"city":"Santa Ysabel","state_name":"California","lat":33.18513,"lng":-116.74071,"zip":"92070","miles_from_dt":21.31},{"city":"San Jacinto","state_name":"California","lat":33.78471,"lng":-116.95991,"zip":"92581","miles_from_dt":22.09},{"city":"San Jacinto","state_name":"California","lat":33.79662,"lng":-116.93188,"zip":"92583","miles_from_dt":22.31},{"city":"Idyllwild","state_name":"California","lat":33.80886,"lng":-116.71212,"zip":"92549","miles_from_dt":22.91},{"city":"Temecula","state_name":"California","lat":33.48391,"lng":-117.22075,"zip":"92590","miles_from_dt":23.42},{"city":"Murrieta","state_name":"California","lat":33.64178,"lng":-117.18626,"zip":"92564","miles_from_dt":23.89},{"city":"Palm Desert","state_name":"California","lat":33.61768,"lng":-116.43026,"zip":"92261","miles_from_dt":23.95},{"city":"Menifee","state_name":"California","lat":33.66167,"lng":-117.18079,"zip":"92584","miles_from_dt":24.25},{"city":"Palm Springs","state_name":"California","lat":33.73575,"lng":-116.50544,"zip":"92264","miles_from_dt":24.72},{"city":"Fallbrook","state_name":"California","lat":33.38613,"lng":-117.22658,"zip":"92028","miles_from_dt":24.78},{"city":"Ranchita","state_name":"California","lat":33.21541,"lng":-116.53583,"zip":"92066","miles_from_dt":24.78},{"city":"San Jacinto","state_name":"California","lat":33.80489,"lng":-117.01873,"zip":"92582","miles_from_dt":24.79},{"city":"Homeland","state_name":"California","lat":33.76392,"lng":-117.10907,"zip":"92548","miles_from_dt":25.47},{"city":"Escondido","state_name":"California","lat":33.2111,"lng":-117.11157,"zip":"92026","miles_from_dt":25.64},{"city":"Bonsall","state_name":"California","lat":33.28701,"lng":-117.19977,"zip":"92003","miles_from_dt":26.19},{"city":"Escondido","state_name":"California","lat":33.13263,"lng":-116.98335,"zip":"92027","miles_from_dt":26.35},{"city":"Fallbrook","state_name":"California","lat":33.36563,"lng":-117.24838,"zip":"92088","miles_from_dt":26.41},{"city":"Menifee","state_name":"California","lat":33.74217,"lng":-117.16723,"zip":"92585","miles_from_dt":26.81},{"city":"Menifee","state_name":"California","lat":33.70773,"lng":-117.20045,"zip":"92586","miles_from_dt":26.89},{"city":"Wildomar","state_name":"California","lat":33.61638,"lng":-117.26028,"zip":"92595","miles_from_dt":27.16},{"city":"Palm Desert","state_name":"California","lat":33.69841,"lng":-116.40519,"zip":"92260","miles_from_dt":27.75},{"city":"Escondido","state_name":"California","lat":33.13512,"lng":-117.05619,"zip":"92030","miles_from_dt":28.03},{"city":"Nuevo","state_name":"California","lat":33.82378,"lng":-117.10305,"zip":"92567","miles_from_dt":28.48},{"city":"Cathedral City","state_name":"California","lat":33.78061,"lng":-116.46127,"zip":"92235","miles_from_dt":28.7},{"city":"Vista","state_name":"California","lat":33.22454,"lng":-117.20334,"zip":"92084","miles_from_dt":28.86},{"city":"Menifee","state_name":"California","lat":33.69466,"lng":-117.25196,"zip":"92587","miles_from_dt":28.94},{"city":"Cabazon","state_name":"California","lat":33.9088,"lng":-116.76879,"zip":"92230","miles_from_dt":29.13},{"city":"San Marcos","state_name":"California","lat":33.17536,"lng":-117.15761,"zip":"92069","miles_from_dt":29.26},{"city":"Rancho Mirage","state_name":"California","lat":33.76399,"lng":-116.42705,"zip":"92270","miles_from_dt":29.38},{"city":"Escondido","state_name":"California","lat":33.12107,"lng":-117.08689,"zip":"92033","miles_from_dt":29.77},{"city":"Palm Springs","state_name":"California","lat":33.86287,"lng":-116.55736,"zip":"92262","miles_from_dt":29.81},{"city":"Escondido","state_name":"California","lat":33.12592,"lng":-117.10164,"zip":"92046","miles_from_dt":29.95}],"targetCityZipCode":"92536","targetCityState":"California"},"__N_SSG":true}