{"pageProps":{"stateName":"California","cityName":"alpaugh","nearbyCities":[{"city":"Earlimart","state_name":"California","lat":35.87908,"lng":-119.28818,"zip":"93219","miles_from_dt":11.07},{"city":"Corcoran","state_name":"California","lat":36.01649,"lng":-119.56937,"zip":"93212","miles_from_dt":12.1},{"city":"Pixley","state_name":"California","lat":35.96805,"lng":-119.31251,"zip":"93256","miles_from_dt":12.33},{"city":"Delano","state_name":"California","lat":35.75515,"lng":-119.27606,"zip":"93216","miles_from_dt":13.54},{"city":"Wasco","state_name":"California","lat":35.65204,"lng":-119.44716,"zip":"93280","miles_from_dt":14.17},{"city":"Tipton","state_name":"California","lat":36.04818,"lng":-119.34535,"zip":"93272","miles_from_dt":15.37},{"city":"Delano","state_name":"California","lat":35.7764,"lng":-119.18835,"zip":"93215","miles_from_dt":17.44},{"city":"Waukena","state_name":"California","lat":36.1494,"lng":-119.50607,"zip":"93282","miles_from_dt":20.3},{"city":"McFarland","state_name":"California","lat":35.66456,"lng":-119.20278,"zip":"93250","miles_from_dt":20.54},{"city":"Richgrove","state_name":"California","lat":35.81147,"lng":-119.11673,"zip":"93261","miles_from_dt":20.81},{"city":"Tulare","state_name":"California","lat":36.17978,"lng":-119.37949,"zip":"93274","miles_from_dt":23.1},{"city":"Porterville","state_name":"California","lat":36.05833,"lng":-119.15209,"zip":"93258","miles_from_dt":23.25},{"city":"Lost Hills","state_name":"California","lat":35.67033,"lng":-119.85814,"zip":"93249","miles_from_dt":24.63},{"city":"Terra Bella","state_name":"California","lat":35.94703,"lng":-119.05669,"zip":"93270","miles_from_dt":24.75},{"city":"Ducor","state_name":"California","lat":35.86194,"lng":-119.03822,"zip":"93218","miles_from_dt":24.99},{"city":"Tulare","state_name":"California","lat":36.20753,"lng":-119.34371,"zip":"93275","miles_from_dt":25.5},{"city":"Shafter","state_name":"California","lat":35.48722,"lng":-119.27835,"zip":"93263","miles_from_dt":27.89},{"city":"Buttonwillow","state_name":"California","lat":35.44402,"lng":-119.47578,"zip":"93206","miles_from_dt":28.37},{"city":"Hanford","state_name":"California","lat":36.23565,"lng":-119.70719,"zip":"93232","miles_from_dt":29.05}],"targetCityZipCode":"93201","targetCityState":"California"},"__N_SSG":true}