{"pageProps":{"stateName":"California","cityName":"alviso","nearbyCities":[{"city":"Sunnyvale","state_name":"California","lat":37.41192,"lng":-122.01441,"zip":"94089","miles_from_dt":2.13},{"city":"San Jose","state_name":"California","lat":37.43003,"lng":-121.94528,"zip":"95134","miles_from_dt":3.12},{"city":"Mountain View","state_name":"California","lat":37.41289,"lng":-122.04989,"zip":"94035","miles_from_dt":3.33},{"city":"Santa Clara","state_name":"California","lat":37.40059,"lng":-121.96347,"zip":"95056","miles_from_dt":3.44},{"city":"Sunnyvale","state_name":"California","lat":37.38862,"lng":-122.01793,"zip":"94085","miles_from_dt":3.72},{"city":"Santa Clara","state_name":"California","lat":37.39308,"lng":-121.96483,"zip":"95054","miles_from_dt":3.83},{"city":"Sunnyvale","state_name":"California","lat":37.39098,"lng":-122.03733,"zip":"94088","miles_from_dt":3.99},{"city":"Mountain View","state_name":"California","lat":37.41188,"lng":-122.06892,"zip":"94043","miles_from_dt":4.26},{"city":"Newark","state_name":"California","lat":37.50771,"lng":-122.02523,"zip":"94560","miles_from_dt":4.81},{"city":"Sunnyvale","state_name":"California","lat":37.37164,"lng":-122.02316,"zip":"94086","miles_from_dt":4.93},{"city":"Fremont","state_name":"California","lat":37.50653,"lng":-121.96361,"zip":"94538","miles_from_dt":4.97},{"city":"Mountain View","state_name":"California","lat":37.41077,"lng":-122.08732,"zip":"94042","miles_from_dt":5.2},{"city":"Mountain View","state_name":"California","lat":37.39505,"lng":-122.07666,"zip":"94039","miles_from_dt":5.24},{"city":"San Jose","state_name":"California","lat":37.39252,"lng":-121.92386,"zip":"95164","miles_from_dt":5.37},{"city":"Mountain View","state_name":"California","lat":37.38822,"lng":-122.07529,"zip":"94041","miles_from_dt":5.48},{"city":"Mountain View","state_name":"California","lat":37.38034,"lng":-122.08531,"zip":"94040","miles_from_dt":6.26},{"city":"Santa Clara","state_name":"California","lat":37.35584,"lng":-121.95367,"zip":"95052","miles_from_dt":6.4},{"city":"Santa Clara","state_name":"California","lat":37.3483,"lng":-121.98444,"zip":"95051","miles_from_dt":6.44},{"city":"Sunnyvale","state_name":"California","lat":37.35164,"lng":-122.03669,"zip":"94087","miles_from_dt":6.46},{"city":"Palo Alto","state_name":"California","lat":37.45064,"lng":-122.11928,"zip":"94303","miles_from_dt":6.57},{"city":"San Jose","state_name":"California","lat":37.38574,"lng":-121.89934,"zip":"95161","miles_from_dt":6.73},{"city":"San Jose","state_name":"California","lat":37.38729,"lng":-121.89793,"zip":"95131","miles_from_dt":6.74},{"city":"Santa Clara","state_name":"California","lat":37.3504,"lng":-121.95238,"zip":"95050","miles_from_dt":6.77},{"city":"Milpitas","state_name":"California","lat":37.44319,"lng":-121.87632,"zip":"95035","miles_from_dt":6.83},{"city":"San Jose","state_name":"California","lat":37.3852,"lng":-121.89654,"zip":"95101","miles_from_dt":6.88},{"city":"San Jose","state_name":"California","lat":37.37614,"lng":-121.90232,"zip":"95190","miles_from_dt":7},{"city":"Fremont","state_name":"California","lat":37.51635,"lng":-121.9119,"zip":"94539","miles_from_dt":7.13},{"city":"Santa Clara","state_name":"California","lat":37.33657,"lng":-121.98383,"zip":"95055","miles_from_dt":7.24},{"city":"Santa Clara","state_name":"California","lat":37.34848,"lng":-121.93737,"zip":"95053","miles_from_dt":7.25},{"city":"Palo Alto","state_name":"California","lat":37.41627,"lng":-122.13088,"zip":"94306","miles_from_dt":7.37},{"city":"Los Altos","state_name":"California","lat":37.3766,"lng":-122.1144,"zip":"94023","miles_from_dt":7.67},{"city":"Fremont","state_name":"California","lat":37.55569,"lng":-122.01734,"zip":"94537","miles_from_dt":7.98},{"city":"San Jose","state_name":"California","lat":37.34656,"lng":-121.9097,"zip":"95110","miles_from_dt":8.19},{"city":"Palo Alto","state_name":"California","lat":37.44424,"lng":-122.14992,"zip":"94301","miles_from_dt":8.22},{"city":"Los Altos","state_name":"California","lat":37.35037,"lng":-122.09863,"zip":"94024","miles_from_dt":8.25},{"city":"Palo Alto","state_name":"California","lat":37.44709,"lng":-122.15608,"zip":"94302","miles_from_dt":8.57},{"city":"Cupertino","state_name":"California","lat":37.32286,"lng":-122.05296,"zip":"95015","miles_from_dt":8.63},{"city":"San Jose","state_name":"California","lat":37.33607,"lng":-122.09022,"zip":"95108","miles_from_dt":8.75},{"city":"Fremont","state_name":"California","lat":37.55083,"lng":-122.08043,"zip":"94555","miles_from_dt":8.77},{"city":"San Jose","state_name":"California","lat":37.31175,"lng":-122.00901,"zip":"95170","miles_from_dt":8.91},{"city":"Fremont","state_name":"California","lat":37.57072,"lng":-121.98555,"zip":"94536","miles_from_dt":9},{"city":"San Jose","state_name":"California","lat":37.37171,"lng":-121.86057,"zip":"95133","miles_from_dt":9.05},{"city":"San Jose","state_name":"California","lat":37.32687,"lng":-121.91677,"zip":"95126","miles_from_dt":9.1},{"city":"San Jose","state_name":"California","lat":37.34189,"lng":-121.89021,"zip":"95192","miles_from_dt":9.13},{"city":"San Jose","state_name":"California","lat":37.34116,"lng":-121.88831,"zip":"95103","miles_from_dt":9.23},{"city":"San Jose","state_name":"California","lat":37.34461,"lng":-121.88346,"zip":"95112","miles_from_dt":9.24},{"city":"San Jose","state_name":"California","lat":37.31008,"lng":-121.96225,"zip":"95117","miles_from_dt":9.25},{"city":"San Jose","state_name":"California","lat":37.33854,"lng":-121.89162,"zip":"95106","miles_from_dt":9.25},{"city":"San Jose","state_name":"California","lat":37.33728,"lng":-121.89345,"zip":"95109","miles_from_dt":9.25},{"city":"San Jose","state_name":"California","lat":37.32407,"lng":-121.91724,"zip":"95191","miles_from_dt":9.26},{"city":"Palo Alto","state_name":"California","lat":37.41667,"lng":-122.16667,"zip":"94309","miles_from_dt":9.29},{"city":"San Jose","state_name":"California","lat":37.30597,"lng":-122.00072,"zip":"95129","miles_from_dt":9.29},{"city":"San Jose","state_name":"California","lat":37.31579,"lng":-121.93647,"zip":"95128","miles_from_dt":9.31},{"city":"San Jose","state_name":"California","lat":37.31679,"lng":-121.93239,"zip":"95159","miles_from_dt":9.33},{"city":"San Jose","state_name":"California","lat":37.34365,"lng":-121.88118,"zip":"95194","miles_from_dt":9.38},{"city":"San Jose","state_name":"California","lat":37.33459,"lng":-121.89333,"zip":"95173","miles_from_dt":9.4},{"city":"Stanford","state_name":"California","lat":37.41623,"lng":-122.17069,"zip":"94305","miles_from_dt":9.51},{"city":"San Jose","state_name":"California","lat":37.3339,"lng":-121.8905,"zip":"95113","miles_from_dt":9.54},{"city":"Palo Alto","state_name":"California","lat":37.39744,"lng":-122.16699,"zip":"94304","miles_from_dt":9.63},{"city":"San Jose","state_name":"California","lat":37.33041,"lng":-121.89113,"zip":"95196","miles_from_dt":9.7},{"city":"San Jose","state_name":"California","lat":37.33383,"lng":-121.88515,"zip":"95172","miles_from_dt":9.73},{"city":"San Jose","state_name":"California","lat":37.29996,"lng":-121.97592,"zip":"95157","miles_from_dt":9.8},{"city":"Los Altos","state_name":"California","lat":37.35534,"lng":-122.14494,"zip":"94022","miles_from_dt":9.89},{"city":"San Jose","state_name":"California","lat":37.4174,"lng":-121.82003,"zip":"95152","miles_from_dt":10.05},{"city":"Menlo Park","state_name":"California","lat":37.45087,"lng":-122.1829,"zip":"94025","miles_from_dt":10.06},{"city":"Cupertino","state_name":"California","lat":37.30827,"lng":-122.07981,"zip":"95014","miles_from_dt":10.13},{"city":"San Jose","state_name":"California","lat":37.35043,"lng":-121.85255,"zip":"95116","miles_from_dt":10.25},{"city":"Menlo Park","state_name":"California","lat":37.48113,"lng":-122.18014,"zip":"94026","miles_from_dt":10.26},{"city":"Campbell","state_name":"California","lat":37.29502,"lng":-121.96066,"zip":"95011","miles_from_dt":10.29},{"city":"San Jose","state_name":"California","lat":37.35997,"lng":-121.84002,"zip":"95156","miles_from_dt":10.44},{"city":"San Jose","state_name":"California","lat":37.3114,"lng":-121.90081,"zip":"95155","miles_from_dt":10.47},{"city":"San Jose","state_name":"California","lat":37.28803,"lng":-121.98146,"zip":"95130","miles_from_dt":10.58},{"city":"Campbell","state_name":"California","lat":37.28905,"lng":-121.94796,"zip":"95009","miles_from_dt":10.85},{"city":"Union City","state_name":"California","lat":37.59142,"lng":-122.06993,"zip":"94587","miles_from_dt":11.07},{"city":"Atherton","state_name":"California","lat":37.45399,"lng":-122.20313,"zip":"94027","miles_from_dt":11.18},{"city":"San Jose","state_name":"California","lat":37.30423,"lng":-121.88789,"zip":"95115","miles_from_dt":11.27},{"city":"Campbell","state_name":"California","lat":37.27977,"lng":-121.95481,"zip":"95008","miles_from_dt":11.38},{"city":"San Jose","state_name":"California","lat":37.28904,"lng":-121.91438,"zip":"95150","miles_from_dt":11.49},{"city":"San Jose","state_name":"California","lat":37.29554,"lng":-121.89408,"zip":"95125","miles_from_dt":11.6},{"city":"San Jose","state_name":"California","lat":37.41994,"lng":-121.79059,"zip":"95132","miles_from_dt":11.63},{"city":"San Jose","state_name":"California","lat":37.32925,"lng":-121.83481,"zip":"95122","miles_from_dt":11.93},{"city":"Redwood City","state_name":"California","lat":37.49367,"lng":-122.20823,"zip":"94063","miles_from_dt":11.99},{"city":"Sunol","state_name":"California","lat":37.57327,"lng":-121.85472,"zip":"94586","miles_from_dt":12.15},{"city":"Portola Valley","state_name":"California","lat":37.37492,"lng":-122.21136,"zip":"94028","miles_from_dt":12.46},{"city":"San Jose","state_name":"California","lat":37.37453,"lng":-121.78733,"zip":"95127","miles_from_dt":12.58},{"city":"Saratoga","state_name":"California","lat":37.25624,"lng":-122.05151,"zip":"95070","miles_from_dt":13.03},{"city":"Saratoga","state_name":"California","lat":37.25286,"lng":-122.0296,"zip":"95071","miles_from_dt":13.06},{"city":"Redwood City","state_name":"California","lat":37.46136,"lng":-122.23731,"zip":"94061","miles_from_dt":13.1},{"city":"San Jose","state_name":"California","lat":37.26166,"lng":-121.91282,"zip":"95154","miles_from_dt":13.26},{"city":"San Jose","state_name":"California","lat":37.25684,"lng":-121.92286,"zip":"95124","miles_from_dt":13.38},{"city":"Hayward","state_name":"California","lat":37.63352,"lng":-122.05678,"zip":"94544","miles_from_dt":13.65},{"city":"Milpitas","state_name":"California","lat":37.24309,"lng":-121.97166,"zip":"95036","miles_from_dt":13.72},{"city":"San Jose","state_name":"California","lat":37.30463,"lng":-121.80981,"zip":"95121","miles_from_dt":14.08},{"city":"Redwood City","state_name":"California","lat":37.46293,"lng":-122.25544,"zip":"94064","miles_from_dt":14.1},{"city":"San Jose","state_name":"California","lat":37.25589,"lng":-121.88991,"zip":"95118","miles_from_dt":14.13},{"city":"San Jose","state_name":"California","lat":37.33252,"lng":-121.78142,"zip":"95148","miles_from_dt":14.18},{"city":"San Jose","state_name":"California","lat":37.27192,"lng":-121.85237,"zip":"95136","miles_from_dt":14.21},{"city":"Hayward","state_name":"California","lat":37.62988,"lng":-122.10303,"zip":"94557","miles_from_dt":14.21},{"city":"San Jose","state_name":"California","lat":37.25932,"lng":-121.87681,"zip":"95158","miles_from_dt":14.24},{"city":"San Jose","state_name":"California","lat":37.28401,"lng":-121.82731,"zip":"95111","miles_from_dt":14.41},{"city":"Hayward","state_name":"California","lat":37.62957,"lng":-122.12048,"zip":"94545","miles_from_dt":14.59},{"city":"Hayward","state_name":"California","lat":37.6553,"lng":-122.02584,"zip":"94542","miles_from_dt":14.86},{"city":"Redwood City","state_name":"California","lat":37.53504,"lng":-122.24683,"zip":"94065","miles_from_dt":15.02},{"city":"Los Gatos","state_name":"California","lat":37.22168,"lng":-121.98326,"zip":"95030","miles_from_dt":15.14},{"city":"San Carlos","state_name":"California","lat":37.49739,"lng":-122.27021,"zip":"94070","miles_from_dt":15.33},{"city":"San Jose","state_name":"California","lat":37.29174,"lng":-121.78373,"zip":"95151","miles_from_dt":15.75},{"city":"San Jose","state_name":"California","lat":37.24801,"lng":-121.84514,"zip":"95153","miles_from_dt":15.81},{"city":"Hayward","state_name":"California","lat":37.65881,"lng":-122.09505,"zip":"94540","miles_from_dt":15.91},{"city":"La Honda","state_name":"California","lat":37.28473,"lng":-122.21969,"zip":"94020","miles_from_dt":16.17},{"city":"Redwood City","state_name":"California","lat":37.42562,"lng":-122.29653,"zip":"94062","miles_from_dt":16.31},{"city":"San Jose","state_name":"California","lat":37.24479,"lng":-121.83306,"zip":"95123","miles_from_dt":16.36},{"city":"Pleasanton","state_name":"California","lat":37.65032,"lng":-121.85881,"zip":"94566","miles_from_dt":16.41},{"city":"San Jose","state_name":"California","lat":37.24401,"lng":-121.83099,"zip":"95193","miles_from_dt":16.47},{"city":"Los Gatos","state_name":"California","lat":37.20859,"lng":-121.92359,"zip":"95032","miles_from_dt":16.56},{"city":"Hayward","state_name":"California","lat":37.67323,"lng":-122.0822,"zip":"94543","miles_from_dt":16.65},{"city":"Hayward","state_name":"California","lat":37.67376,"lng":-122.08707,"zip":"94541","miles_from_dt":16.76},{"city":"San Mateo","state_name":"California","lat":37.5562,"lng":-122.26905,"zip":"94404","miles_from_dt":16.77},{"city":"San Jose","state_name":"California","lat":37.21903,"lng":-121.86038,"zip":"95160","miles_from_dt":17.13},{"city":"Belmont","state_name":"California","lat":37.51366,"lng":-122.29853,"zip":"94002","miles_from_dt":17.14},{"city":"San Lorenzo","state_name":"California","lat":37.67803,"lng":-122.13334,"zip":"94580","miles_from_dt":17.92},{"city":"San Mateo","state_name":"California","lat":37.53844,"lng":-122.30454,"zip":"94403","miles_from_dt":18.02},{"city":"Castro Valley","state_name":"California","lat":37.70456,"lng":-122.01359,"zip":"94552","miles_from_dt":18.21},{"city":"San Jose","state_name":"California","lat":37.22756,"lng":-121.79077,"zip":"95119","miles_from_dt":18.69},{"city":"Loma Mar","state_name":"California","lat":37.25028,"lng":-122.24958,"zip":"94021","miles_from_dt":18.99},{"city":"San Leandro","state_name":"California","lat":37.68656,"lng":-122.15709,"zip":"94579","miles_from_dt":19.01},{"city":"Redwood Estates","state_name":"California","lat":37.15842,"lng":-121.98487,"zip":"95044","miles_from_dt":19.49},{"city":"San Mateo","state_name":"California","lat":37.54035,"lng":-122.33388,"zip":"94402","miles_from_dt":19.57},{"city":"San Leandro","state_name":"California","lat":37.70675,"lng":-122.1256,"zip":"94578","miles_from_dt":19.59},{"city":"Los Gatos","state_name":"California","lat":37.15701,"lng":-121.97771,"zip":"95033","miles_from_dt":19.61},{"city":"San Mateo","state_name":"California","lat":37.56256,"lng":-122.32483,"zip":"94497","miles_from_dt":19.7},{"city":"Holy City","state_name":"California","lat":37.15501,"lng":-121.98252,"zip":"95026","miles_from_dt":19.73},{"city":"Dublin","state_name":"California","lat":37.71596,"lng":-121.90113,"zip":"94568","miles_from_dt":19.75},{"city":"San Jose","state_name":"California","lat":37.22489,"lng":-121.76393,"zip":"95139","miles_from_dt":19.78},{"city":"San Mateo","state_name":"California","lat":37.57445,"lng":-122.31942,"zip":"94401","miles_from_dt":19.8},{"city":"San Jose","state_name":"California","lat":37.18428,"lng":-121.83658,"zip":"95120","miles_from_dt":19.86},{"city":"San Jose","state_name":"California","lat":37.2462,"lng":-121.73287,"zip":"95138","miles_from_dt":19.93},{"city":"San Gregorio","state_name":"California","lat":37.32817,"lng":-122.34164,"zip":"94074","miles_from_dt":20.32},{"city":"Boulder Creek","state_name":"California","lat":37.17129,"lng":-122.151,"zip":"95006","miles_from_dt":20.35},{"city":"Oakland","state_name":"California","lat":37.717,"lng":-122.146,"zip":"94622","miles_from_dt":20.66},{"city":"New Almaden","state_name":"California","lat":37.17754,"lng":-121.81851,"zip":"95042","miles_from_dt":20.73},{"city":"Mount Hamilton","state_name":"California","lat":37.3483,"lng":-121.64085,"zip":"95140","miles_from_dt":20.79},{"city":"Castro Valley","state_name":"California","lat":37.73441,"lng":-122.09056,"zip":"94546","miles_from_dt":20.85},{"city":"San Leandro","state_name":"California","lat":37.71595,"lng":-122.16615,"zip":"94577","miles_from_dt":21.05},{"city":"Coyote","state_name":"California","lat":37.21531,"lng":-121.73962,"zip":"95013","miles_from_dt":21.17},{"city":"Burlingame","state_name":"California","lat":37.5795,"lng":-122.34432,"zip":"94011","miles_from_dt":21.18},{"city":"Pleasanton","state_name":"California","lat":37.73801,"lng":-121.88178,"zip":"94588","miles_from_dt":21.51},{"city":"Los Gatos","state_name":"California","lat":37.13009,"lng":-121.93851,"zip":"95031","miles_from_dt":21.69},{"city":"Half Moon Bay","state_name":"California","lat":37.44826,"lng":-122.4023,"zip":"94019","miles_from_dt":22.1},{"city":"Burlingame","state_name":"California","lat":37.57306,"lng":-122.37828,"zip":"94010","miles_from_dt":22.67},{"city":"Oakland","state_name":"California","lat":37.73923,"lng":-122.17554,"zip":"94603","miles_from_dt":22.72},{"city":"San Ramon","state_name":"California","lat":37.76357,"lng":-121.91469,"zip":"94582","miles_from_dt":22.76},{"city":"Oakland","state_name":"California","lat":37.72971,"lng":-122.20067,"zip":"94614","miles_from_dt":22.76},{"city":"San Jose","state_name":"California","lat":37.17615,"lng":-121.75168,"zip":"95141","miles_from_dt":22.82},{"city":"San Ramon","state_name":"California","lat":37.77245,"lng":-121.99157,"zip":"94583","miles_from_dt":22.88},{"city":"Livermore","state_name":"California","lat":37.51746,"lng":-121.59406,"zip":"94550","miles_from_dt":22.95},{"city":"Oakland","state_name":"California","lat":37.7473,"lng":-122.17236,"zip":"94624","miles_from_dt":23.15},{"city":"Oakland","state_name":"California","lat":37.75798,"lng":-122.14705,"zip":"94617","miles_from_dt":23.31},{"city":"Oakland","state_name":"California","lat":37.7379,"lng":-122.20794,"zip":"94621","miles_from_dt":23.44},{"city":"Oakland","state_name":"California","lat":37.76062,"lng":-122.14903,"zip":"94605","miles_from_dt":23.52},{"city":"Brookdale","state_name":"California","lat":37.11019,"lng":-122.11434,"zip":"95007","miles_from_dt":23.64},{"city":"Pescadero","state_name":"California","lat":37.22297,"lng":-122.33572,"zip":"94060","miles_from_dt":23.8},{"city":"Ben Lomond","state_name":"California","lat":37.09835,"lng":-122.08931,"zip":"95005","miles_from_dt":24.11},{"city":"Alameda","state_name":"California","lat":37.73686,"lng":-122.24114,"zip":"94502","miles_from_dt":24.32},{"city":"San Francisco","state_name":"California","lat":37.62197,"lng":-122.38388,"zip":"94128","miles_from_dt":24.49},{"city":"Millbrae","state_name":"California","lat":37.59969,"lng":-122.40343,"zip":"94030","miles_from_dt":24.7},{"city":"Felton","state_name":"California","lat":37.08027,"lng":-122.05824,"zip":"95018","miles_from_dt":25.06},{"city":"Oakland","state_name":"California","lat":37.78075,"lng":-122.18308,"zip":"94613","miles_from_dt":25.5},{"city":"Livermore","state_name":"California","lat":37.75902,"lng":-121.76026,"zip":"94551","miles_from_dt":25.6},{"city":"Scotts Valley","state_name":"California","lat":37.0672,"lng":-122.01453,"zip":"95066","miles_from_dt":25.77},{"city":"Oakland","state_name":"California","lat":37.79262,"lng":-122.16001,"zip":"94619","miles_from_dt":25.8},{"city":"Danville","state_name":"California","lat":37.81472,"lng":-121.98451,"zip":"94526","miles_from_dt":25.81},{"city":"Danville","state_name":"California","lat":37.80862,"lng":-121.90498,"zip":"94506","miles_from_dt":25.91},{"city":"Piedmont","state_name":"California","lat":37.77757,"lng":-122.21475,"zip":"94620","miles_from_dt":26.03},{"city":"Oakland","state_name":"California","lat":37.77684,"lng":-122.21822,"zip":"94601","miles_from_dt":26.08},{"city":"Davenport","state_name":"California","lat":37.10529,"lng":-122.22913,"zip":"95017","miles_from_dt":26.34},{"city":"El Granada","state_name":"California","lat":37.50603,"lng":-122.47321,"zip":"94018","miles_from_dt":26.37},{"city":"South San Francisco","state_name":"California","lat":37.64364,"lng":-122.41198,"zip":"94083","miles_from_dt":26.58},{"city":"San Bruno","state_name":"California","lat":37.62539,"lng":-122.43229,"zip":"94066","miles_from_dt":26.92},{"city":"Mount Hermon","state_name":"California","lat":37.05052,"lng":-122.05828,"zip":"95041","miles_from_dt":27.1},{"city":"Moss Beach","state_name":"California","lat":37.52946,"lng":-122.4849,"zip":"94038","miles_from_dt":27.32},{"city":"South San Francisco","state_name":"California","lat":37.65541,"lng":-122.42083,"zip":"94080","miles_from_dt":27.42},{"city":"Moraga","state_name":"California","lat":37.83102,"lng":-122.10425,"zip":"94556","miles_from_dt":27.51},{"city":"Oakland","state_name":"California","lat":37.80517,"lng":-122.20422,"zip":"94602","miles_from_dt":27.51},{"city":"Alameda","state_name":"California","lat":37.77525,"lng":-122.27493,"zip":"94501","miles_from_dt":27.55},{"city":"Oakland","state_name":"California","lat":37.79179,"lng":-122.24455,"zip":"94606","miles_from_dt":27.67},{"city":"Morgan Hill","state_name":"California","lat":37.13213,"lng":-121.67886,"zip":"95037","miles_from_dt":27.69},{"city":"Diablo","state_name":"California","lat":37.84149,"lng":-121.95819,"zip":"94528","miles_from_dt":27.73},{"city":"Soquel","state_name":"California","lat":37.04068,"lng":-121.93174,"zip":"95073","miles_from_dt":27.85},{"city":"Brisbane","state_name":"California","lat":37.6882,"lng":-122.40873,"zip":"94005","miles_from_dt":28.17},{"city":"Canyon","state_name":"California","lat":37.82748,"lng":-122.16629,"zip":"94516","miles_from_dt":28.18},{"city":"Santa Cruz","state_name":"California","lat":37.03229,"lng":-121.98444,"zip":"95065","miles_from_dt":28.18},{"city":"Montara","state_name":"California","lat":37.55327,"lng":-122.49584,"zip":"94037","miles_from_dt":28.3},{"city":"Moraga","state_name":"California","lat":37.84235,"lng":-122.11012,"zip":"94575","miles_from_dt":28.34},{"city":"Alamo","state_name":"California","lat":37.85429,"lng":-122.00664,"zip":"94507","miles_from_dt":28.52},{"city":"San Jose","state_name":"California","lat":37.22285,"lng":-121.55913,"zip":"95135","miles_from_dt":28.57},{"city":"Oakland","state_name":"California","lat":37.79591,"lng":-122.26977,"zip":"94660","miles_from_dt":28.6},{"city":"Pacifica","state_name":"California","lat":37.60544,"lng":-122.47993,"zip":"94044","miles_from_dt":28.68},{"city":"Oakland","state_name":"California","lat":37.80126,"lng":-122.26575,"zip":"94604","miles_from_dt":28.81},{"city":"Oakland","state_name":"California","lat":37.81229,"lng":-122.24048,"zip":"94610","miles_from_dt":28.81},{"city":"Oakland","state_name":"California","lat":37.80694,"lng":-122.26383,"zip":"94649","miles_from_dt":29.09},{"city":"San Francisco","state_name":"California","lat":37.73138,"lng":-122.38496,"zip":"94125","miles_from_dt":29.1},{"city":"San Francisco","state_name":"California","lat":37.73204,"lng":-122.3858,"zip":"94124","miles_from_dt":29.17},{"city":"Oakland","state_name":"California","lat":37.82978,"lng":-122.20989,"zip":"94661","miles_from_dt":29.18},{"city":"Oakland","state_name":"California","lat":37.80789,"lng":-122.2662,"zip":"94612","miles_from_dt":29.22},{"city":"San Francisco","state_name":"California","lat":37.71802,"lng":-122.40439,"zip":"94160","miles_from_dt":29.28},{"city":"Oakland","state_name":"California","lat":37.80982,"lng":-122.26553,"zip":"94666","miles_from_dt":29.31},{"city":"San Francisco","state_name":"California","lat":37.7407,"lng":-122.38091,"zip":"94188","miles_from_dt":29.39},{"city":"Oakland","state_name":"California","lat":37.80998,"lng":-122.2692,"zip":"94659","miles_from_dt":29.42},{"city":"Oakland","state_name":"California","lat":37.83191,"lng":-122.21592,"zip":"94611","miles_from_dt":29.45},{"city":"San Francisco","state_name":"California","lat":37.71887,"lng":-122.41124,"zip":"94134","miles_from_dt":29.6},{"city":"Moraga","state_name":"California","lat":37.85928,"lng":-122.1252,"zip":"94570","miles_from_dt":29.66},{"city":"Walnut Creek","state_name":"California","lat":37.87206,"lng":-122.06892,"zip":"94595","miles_from_dt":29.98},{"city":"Santa Cruz","state_name":"California","lat":37.01352,"lng":-122.10176,"zip":"95060","miles_from_dt":29.99},{"city":"Daly City","state_name":"California","lat":37.6907,"lng":-122.44769,"zip":"94014","miles_from_dt":30}],"targetCityZipCode":"95002","targetCityState":"California"},"__N_SSG":true}