{"pageProps":{"stateName":"California","cityName":"burnt-ranch","nearbyCities":[{"city":"Salyer","state_name":"California","lat":40.84248,"lng":-123.51225,"zip":"95563","miles_from_dt":8.07},{"city":"Big Bar","state_name":"California","lat":40.89735,"lng":-123.24365,"zip":"96010","miles_from_dt":9.59},{"city":"Willow Creek","state_name":"California","lat":40.89567,"lng":-123.65873,"zip":"95573","miles_from_dt":12.82},{"city":"Junction City","state_name":"California","lat":40.82613,"lng":-123.05594,"zip":"96048","miles_from_dt":20.5},{"city":"Forks Of Salmon","state_name":"California","lat":41.17262,"lng":-123.18029,"zip":"96031","miles_from_dt":20.57},{"city":"Blue Lake","state_name":"California","lat":40.94845,"lng":-123.82629,"zip":"95525","miles_from_dt":21.29},{"city":"Hyampom","state_name":"California","lat":40.61118,"lng":-123.43151,"zip":"96046","miles_from_dt":22.42},{"city":"Korbel","state_name":"California","lat":40.77695,"lng":-123.82951,"zip":"95550","miles_from_dt":24.11},{"city":"Hoopa","state_name":"California","lat":41.18777,"lng":-123.74535,"zip":"95546","miles_from_dt":24.32},{"city":"Weaverville","state_name":"California","lat":40.77237,"lng":-122.94329,"zip":"96093","miles_from_dt":27.39},{"city":"Orleans","state_name":"California","lat":41.31444,"lng":-123.59043,"zip":"95556","miles_from_dt":27.6}],"targetCityZipCode":"95527","targetCityState":"California"},"__N_SSG":true}