{"pageProps":{"stateName":"California","cityName":"calistoga","nearbyCities":[{"city":"Deer Park","state_name":"California","lat":38.54932,"lng":-122.47581,"zip":"94576","miles_from_dt":9.6},{"city":"Middletown","state_name":"California","lat":38.762,"lng":-122.59314,"zip":"95461","miles_from_dt":9.64},{"city":"Angwin","state_name":"California","lat":38.57909,"lng":-122.44451,"zip":"94508","miles_from_dt":10.26},{"city":"Santa Rosa","state_name":"California","lat":38.47181,"lng":-122.60759,"zip":"95402","miles_from_dt":10.57},{"city":"Pope Valley","state_name":"California","lat":38.66342,"lng":-122.4349,"zip":"94567","miles_from_dt":10.63},{"city":"Santa Rosa","state_name":"California","lat":38.50326,"lng":-122.75358,"zip":"95403","miles_from_dt":10.88},{"city":"Santa Rosa","state_name":"California","lat":38.46488,"lng":-122.65709,"zip":"95404","miles_from_dt":11.15},{"city":"Santa Rosa","state_name":"California","lat":38.46116,"lng":-122.60425,"zip":"95409","miles_from_dt":11.32},{"city":"Windsor","state_name":"California","lat":38.53052,"lng":-122.81254,"zip":"95492","miles_from_dt":12.05},{"city":"Fulton","state_name":"California","lat":38.49055,"lng":-122.77591,"zip":"95439","miles_from_dt":12.33},{"city":"Santa Rosa","state_name":"California","lat":38.45992,"lng":-122.7277,"zip":"95406","miles_from_dt":12.64},{"city":"Santa Rosa","state_name":"California","lat":38.43926,"lng":-122.66908,"zip":"95405","miles_from_dt":13},{"city":"Hidden Valley Lake","state_name":"California","lat":38.80453,"lng":-122.54948,"zip":"95467","miles_from_dt":13.07},{"city":"Saint Helena","state_name":"California","lat":38.52742,"lng":-122.39261,"zip":"94574","miles_from_dt":14.26},{"city":"Kenwood","state_name":"California","lat":38.42969,"lng":-122.5362,"zip":"95452","miles_from_dt":14.27},{"city":"Healdsburg","state_name":"California","lat":38.62309,"lng":-122.89089,"zip":"95448","miles_from_dt":14.39},{"city":"Santa Rosa","state_name":"California","lat":38.44922,"lng":-122.79307,"zip":"95401","miles_from_dt":15.13},{"city":"Cobb","state_name":"California","lat":38.83449,"lng":-122.7361,"zip":"95426","miles_from_dt":15.68},{"city":"Rutherford","state_name":"California","lat":38.45726,"lng":-122.42348,"zip":"94573","miles_from_dt":15.88},{"city":"Santa Rosa","state_name":"California","lat":38.39465,"lng":-122.74591,"zip":"95407","miles_from_dt":17.15},{"city":"Oakville","state_name":"California","lat":38.43071,"lng":-122.40874,"zip":"94562","miles_from_dt":17.78},{"city":"Glen Ellen","state_name":"California","lat":38.3785,"lng":-122.51549,"zip":"95442","miles_from_dt":17.98},{"city":"Forestville","state_name":"California","lat":38.49108,"lng":-122.91425,"zip":"95436","miles_from_dt":18.17},{"city":"Lower Lake","state_name":"California","lat":38.87967,"lng":-122.52753,"zip":"95457","miles_from_dt":18.37},{"city":"Graton","state_name":"California","lat":38.43261,"lng":-122.86922,"zip":"95444","miles_from_dt":18.71},{"city":"Sebastopol","state_name":"California","lat":38.40074,"lng":-122.82455,"zip":"95473","miles_from_dt":18.84},{"city":"Rohnert Park","state_name":"California","lat":38.34744,"lng":-122.69837,"zip":"94927","miles_from_dt":19.52},{"city":"Rohnert Park","state_name":"California","lat":38.3459,"lng":-122.6935,"zip":"94928","miles_from_dt":19.57},{"city":"Eldridge","state_name":"California","lat":38.34897,"lng":-122.51625,"zip":"95431","miles_from_dt":19.9},{"city":"Rio Nido","state_name":"California","lat":38.53218,"lng":-122.97362,"zip":"95471","miles_from_dt":19.92},{"city":"Yountville","state_name":"California","lat":38.41012,"lng":-122.37365,"zip":"94599","miles_from_dt":20.1},{"city":"Sebastopol","state_name":"California","lat":38.39738,"lng":-122.86668,"zip":"95472","miles_from_dt":20.42},{"city":"Petaluma","state_name":"California","lat":38.32395,"lng":-122.64259,"zip":"94999","miles_from_dt":20.75},{"city":"Penngrove","state_name":"California","lat":38.32252,"lng":-122.64492,"zip":"94951","miles_from_dt":20.86},{"city":"Petaluma","state_name":"California","lat":38.32234,"lng":-122.64657,"zip":"94975","miles_from_dt":20.87},{"city":"Napa","state_name":"California","lat":38.50846,"lng":-122.26497,"zip":"94558","miles_from_dt":21.08},{"city":"Rohnert Park","state_name":"California","lat":38.32648,"lng":-122.71231,"zip":"94926","miles_from_dt":21.09},{"city":"Cotati","state_name":"California","lat":38.32229,"lng":-122.71497,"zip":"94931","miles_from_dt":21.41},{"city":"Guerneville","state_name":"California","lat":38.52525,"lng":-123.00423,"zip":"95446","miles_from_dt":21.64},{"city":"Camp Meeker","state_name":"California","lat":38.42336,"lng":-122.9582,"zip":"95419","miles_from_dt":22.77},{"city":"Boyes Hot Springs","state_name":"California","lat":38.31241,"lng":-122.48286,"zip":"95416","miles_from_dt":22.86},{"city":"Geyserville","state_name":"California","lat":38.73775,"lng":-123.0354,"zip":"95441","miles_from_dt":23.52},{"city":"El Verano","state_name":"California","lat":38.29996,"lng":-122.48927,"zip":"95433","miles_from_dt":23.56},{"city":"Kelseyville","state_name":"California","lat":38.9388,"lng":-122.80484,"zip":"95451","miles_from_dt":23.76},{"city":"Clearlake Park","state_name":"California","lat":38.9688,"lng":-122.66158,"zip":"95424","miles_from_dt":23.83},{"city":"Monte Rio","state_name":"California","lat":38.47263,"lng":-123.02064,"zip":"95462","miles_from_dt":23.85},{"city":"Villa Grande","state_name":"California","lat":38.4741,"lng":-123.02403,"zip":"95486","miles_from_dt":23.97},{"city":"Clearlake","state_name":"California","lat":38.97829,"lng":-122.6423,"zip":"95422","miles_from_dt":24.42},{"city":"Guinda","state_name":"California","lat":38.85283,"lng":-122.2729,"zip":"95637","miles_from_dt":24.7},{"city":"Brooks","state_name":"California","lat":38.75604,"lng":-122.19387,"zip":"95606","miles_from_dt":25.01},{"city":"Petaluma","state_name":"California","lat":38.26152,"lng":-122.63908,"zip":"94953","miles_from_dt":25.05},{"city":"Duncans Mills","state_name":"California","lat":38.46279,"lng":-123.04476,"zip":"95430","miles_from_dt":25.33},{"city":"Cloverdale","state_name":"California","lat":38.81792,"lng":-123.02566,"zip":"95425","miles_from_dt":25.43},{"city":"Bodega","state_name":"California","lat":38.35683,"lng":-122.95098,"zip":"94922","miles_from_dt":25.56},{"city":"Valley Ford","state_name":"California","lat":38.33665,"lng":-122.93934,"zip":"94972","miles_from_dt":26.16},{"city":"Occidental","state_name":"California","lat":38.40556,"lng":-123.01963,"zip":"95465","miles_from_dt":26.18},{"city":"Petaluma","state_name":"California","lat":38.24624,"lng":-122.56627,"zip":"94954","miles_from_dt":26.28},{"city":"Sonoma","state_name":"California","lat":38.25531,"lng":-122.46055,"zip":"95476","miles_from_dt":26.98},{"city":"Vineburg","state_name":"California","lat":38.25197,"lng":-122.45398,"zip":"95487","miles_from_dt":27.32},{"city":"Rumsey","state_name":"California","lat":38.90524,"lng":-122.26727,"zip":"95679","miles_from_dt":27.36},{"city":"Petaluma","state_name":"California","lat":38.22237,"lng":-122.55618,"zip":"94955","miles_from_dt":27.99},{"city":"Petaluma","state_name":"California","lat":38.23007,"lng":-122.76338,"zip":"94952","miles_from_dt":28.22},{"city":"Napa","state_name":"California","lat":38.29728,"lng":-122.28766,"zip":"94581","miles_from_dt":29.05},{"city":"Capay","state_name":"California","lat":38.7899,"lng":-122.12585,"zip":"95607","miles_from_dt":29.29},{"city":"Finley","state_name":"California","lat":39.00315,"lng":-122.8748,"zip":"95435","miles_from_dt":29.39},{"city":"Bodega Bay","state_name":"California","lat":38.33588,"lng":-123.02647,"zip":"94923","miles_from_dt":29.5}],"targetCityZipCode":"94515","targetCityState":"California"},"__N_SSG":true}