{"pageProps":{"stateName":"California","cityName":"calipatria","nearbyCities":[{"city":"Westmorland","state_name":"California","lat":33.05033,"lng":-115.61264,"zip":"92281","miles_from_dt":9.08},{"city":"Niland","state_name":"California","lat":33.33976,"lng":-115.52814,"zip":"92257","miles_from_dt":13.32},{"city":"Brawley","state_name":"California","lat":32.98677,"lng":-115.3341,"zip":"92227","miles_from_dt":14.93},{"city":"Salton City","state_name":"California","lat":33.20783,"lng":-115.88084,"zip":"92275","miles_from_dt":22.07},{"city":"Imperial","state_name":"California","lat":32.87129,"lng":-115.71804,"zip":"92251","miles_from_dt":22.63},{"city":"El Centro","state_name":"California","lat":32.79425,"lng":-115.57928,"zip":"92244","miles_from_dt":24.69},{"city":"Seeley","state_name":"California","lat":32.80798,"lng":-115.69592,"zip":"92273","miles_from_dt":25.84},{"city":"El Centro","state_name":"California","lat":32.77285,"lng":-115.60065,"zip":"92243","miles_from_dt":26.38},{"city":"Heber","state_name":"California","lat":32.72606,"lng":-115.48218,"zip":"92249","miles_from_dt":29.07},{"city":"Holtville","state_name":"California","lat":32.79188,"lng":-115.23454,"zip":"92250","miles_from_dt":29.16}],"targetCityZipCode":"92233","targetCityState":"California"},"__N_SSG":true}