{"pageProps":{"stateName":"California","cityName":"camarillo","nearbyCities":[{"city":"Camarillo","state_name":"California","lat":34.21466,"lng":-119.03559,"zip":"93011","miles_from_dt":2.46},{"city":"Somis","state_name":"California","lat":34.28851,"lng":-119.02848,"zip":"93066","miles_from_dt":4.81},{"city":"Camarillo","state_name":"California","lat":34.20518,"lng":-118.99309,"zip":"93012","miles_from_dt":4.96},{"city":"Oxnard","state_name":"California","lat":34.24911,"lng":-119.15977,"zip":"93036","miles_from_dt":5.06},{"city":"Oxnard","state_name":"California","lat":34.15401,"lng":-119.12296,"zip":"93033","miles_from_dt":5.94},{"city":"Oxnard","state_name":"California","lat":34.2051,"lng":-119.1753,"zip":"93030","miles_from_dt":6.03},{"city":"Oxnard","state_name":"California","lat":34.22047,"lng":-119.18124,"zip":"93031","miles_from_dt":6.15},{"city":"Ventura","state_name":"California","lat":34.27901,"lng":-119.16537,"zip":"93004","miles_from_dt":6.21},{"city":"Oxnard","state_name":"California","lat":34.19953,"lng":-119.17667,"zip":"93032","miles_from_dt":6.22},{"city":"Ventura","state_name":"California","lat":34.28972,"lng":-119.15781,"zip":"93007","miles_from_dt":6.3},{"city":"Oxnard","state_name":"California","lat":34.17255,"lng":-119.17736,"zip":"93034","miles_from_dt":7.11},{"city":"Ventura","state_name":"California","lat":34.25013,"lng":-119.20298,"zip":"93005","miles_from_dt":7.49},{"city":"Port Hueneme","state_name":"California","lat":34.14956,"lng":-119.17458,"zip":"93041","miles_from_dt":7.98},{"city":"Ventura","state_name":"California","lat":34.26623,"lng":-119.20918,"zip":"93009","miles_from_dt":8.11},{"city":"Newbury Park","state_name":"California","lat":34.17339,"lng":-118.94795,"zip":"91320","miles_from_dt":8.23},{"city":"Port Hueneme","state_name":"California","lat":34.15421,"lng":-119.18796,"zip":"93044","miles_from_dt":8.35},{"city":"Port Hueneme Cbc Base","state_name":"California","lat":34.17001,"lng":-119.2026,"zip":"93043","miles_from_dt":8.43},{"city":"Santa Paula","state_name":"California","lat":34.35265,"lng":-119.05691,"zip":"93061","miles_from_dt":8.51},{"city":"Oxnard","state_name":"California","lat":34.19034,"lng":-119.22879,"zip":"93035","miles_from_dt":9.26},{"city":"Ventura","state_name":"California","lat":34.28434,"lng":-119.22256,"zip":"93003","miles_from_dt":9.27},{"city":"Santa Paula","state_name":"California","lat":34.36543,"lng":-119.09563,"zip":"93060","miles_from_dt":9.41},{"city":"Newbury Park","state_name":"California","lat":34.18485,"lng":-118.91642,"zip":"91319","miles_from_dt":9.57},{"city":"Thousand Oaks","state_name":"California","lat":34.21475,"lng":-118.87735,"zip":"91360","miles_from_dt":11.33},{"city":"Moorpark","state_name":"California","lat":34.28483,"lng":-118.8814,"zip":"93020","miles_from_dt":11.67},{"city":"Thousand Oaks","state_name":"California","lat":34.17891,"lng":-118.8744,"zip":"91358","miles_from_dt":11.98},{"city":"Moorpark","state_name":"California","lat":34.30417,"lng":-118.88274,"zip":"93021","miles_from_dt":12.1},{"city":"Westlake Village","state_name":"California","lat":34.14016,"lng":-118.88398,"zip":"91361","miles_from_dt":12.54},{"city":"Ventura","state_name":"California","lat":34.2807,"lng":-119.2868,"zip":"93002","miles_from_dt":12.65},{"city":"Ventura","state_name":"California","lat":34.27989,"lng":-119.29193,"zip":"93006","miles_from_dt":12.92},{"city":"Westlake Village","state_name":"California","lat":34.19444,"lng":-118.82001,"zip":"91359","miles_from_dt":14.77},{"city":"Thousand Oaks","state_name":"California","lat":34.19244,"lng":-118.81949,"zip":"91362","miles_from_dt":14.82},{"city":"Fillmore","state_name":"California","lat":34.40111,"lng":-118.91178,"zip":"93016","miles_from_dt":15.02},{"city":"Simi Valley","state_name":"California","lat":34.27217,"lng":-118.79529,"zip":"93094","miles_from_dt":16.23},{"city":"Ventura","state_name":"California","lat":34.35321,"lng":-119.31868,"zip":"93001","miles_from_dt":16.35},{"city":"Fillmore","state_name":"California","lat":34.40969,"lng":-118.87807,"zip":"93015","miles_from_dt":16.71},{"city":"Malibu","state_name":"California","lat":34.07282,"lng":-118.84995,"zip":"90265","miles_from_dt":16.82},{"city":"Simi Valley","state_name":"California","lat":34.26206,"lng":-118.77151,"zip":"93065","miles_from_dt":17.48},{"city":"Oak View","state_name":"California","lat":34.40324,"lng":-119.29836,"zip":"93022","miles_from_dt":17.51},{"city":"Oak Park","state_name":"California","lat":34.1847,"lng":-118.76652,"zip":"91377","miles_from_dt":17.9},{"city":"Ojai","state_name":"California","lat":34.44023,"lng":-119.26063,"zip":"93024","miles_from_dt":17.98},{"city":"Simi Valley","state_name":"California","lat":34.26293,"lng":-118.75053,"zip":"93099","miles_from_dt":18.67},{"city":"Agoura Hills","state_name":"California","lat":34.14044,"lng":-118.75157,"zip":"91376","miles_from_dt":19.49},{"city":"Simi Valley","state_name":"California","lat":34.28784,"lng":-118.74102,"zip":"93062","miles_from_dt":19.49},{"city":"Agoura Hills","state_name":"California","lat":34.12314,"lng":-118.75685,"zip":"91301","miles_from_dt":19.63},{"city":"Ojai","state_name":"California","lat":34.50372,"lng":-119.24856,"zip":"93023","miles_from_dt":21.33},{"city":"Brandeis","state_name":"California","lat":34.24527,"lng":-118.69984,"zip":"93064","miles_from_dt":21.47},{"city":"Malibu","state_name":"California","lat":34.04351,"lng":-118.77104,"zip":"90264","miles_from_dt":21.62},{"city":"Simi Valley","state_name":"California","lat":34.30922,"lng":-118.69041,"zip":"93063","miles_from_dt":22.64},{"city":"West Hills","state_name":"California","lat":34.20177,"lng":-118.66226,"zip":"91307","miles_from_dt":23.68},{"city":"Calabasas","state_name":"California","lat":34.12295,"lng":-118.67193,"zip":"91302","miles_from_dt":24.21},{"city":"Malibu","state_name":"California","lat":34.03919,"lng":-118.70809,"zip":"90263","miles_from_dt":24.78},{"city":"Calabasas","state_name":"California","lat":34.1545,"lng":-118.64317,"zip":"91372","miles_from_dt":25.24},{"city":"Canoga Park","state_name":"California","lat":34.22472,"lng":-118.63261,"zip":"91304","miles_from_dt":25.29},{"city":"Piru","state_name":"California","lat":34.59337,"lng":-118.93657,"zip":"93040","miles_from_dt":26.25},{"city":"Woodland Hills","state_name":"California","lat":34.17708,"lng":-118.61518,"zip":"91367","miles_from_dt":26.55},{"city":"Van Nuys","state_name":"California","lat":34.17779,"lng":-118.61468,"zip":"91470","miles_from_dt":26.57},{"city":"Carpinteria","state_name":"California","lat":34.42697,"lng":-119.48032,"zip":"93013","miles_from_dt":26.89},{"city":"Canoga Park","state_name":"California","lat":34.20105,"lng":-118.60416,"zip":"91305","miles_from_dt":27},{"city":"Chatsworth","state_name":"California","lat":34.29011,"lng":-118.60776,"zip":"91311","miles_from_dt":27.02},{"city":"Woodland Hills","state_name":"California","lat":34.17284,"lng":-118.60572,"zip":"91365","miles_from_dt":27.13},{"city":"Canoga Park","state_name":"California","lat":34.19784,"lng":-118.6017,"zip":"91303","miles_from_dt":27.16},{"city":"West Hills","state_name":"California","lat":34.20111,"lng":-118.59722,"zip":"91308","miles_from_dt":27.39},{"city":"Canoga Park","state_name":"California","lat":34.2181,"lng":-118.59548,"zip":"91309","miles_from_dt":27.43},{"city":"Carpinteria","state_name":"California","lat":34.39242,"lng":-119.51252,"zip":"93014","miles_from_dt":27.44},{"city":"Chatsworth","state_name":"California","lat":34.23948,"lng":-118.58849,"zip":"91313","miles_from_dt":27.82},{"city":"Woodland Hills","state_name":"California","lat":34.1548,"lng":-118.59492,"zip":"91364","miles_from_dt":27.95},{"city":"Topanga","state_name":"California","lat":34.09725,"lng":-118.6125,"zip":"90290","miles_from_dt":28},{"city":"Stevenson Ranch","state_name":"California","lat":34.3753,"lng":-118.60744,"zip":"91381","miles_from_dt":28.52},{"city":"Winnetka","state_name":"California","lat":34.20926,"lng":-118.5755,"zip":"91306","miles_from_dt":28.6},{"city":"Woodland Hills","state_name":"California","lat":34.18505,"lng":-118.57605,"zip":"91371","miles_from_dt":28.7},{"city":"Winnetka","state_name":"California","lat":34.21026,"lng":-118.57059,"zip":"91396","miles_from_dt":28.88},{"city":"Porter Ranch","state_name":"California","lat":34.28022,"lng":-118.5566,"zip":"91326","miles_from_dt":29.83}],"targetCityZipCode":"93010","targetCityState":"California"},"__N_SSG":true}