{"pageProps":{"stateName":"California","cityName":"cantil","nearbyCities":[{"city":"California City","state_name":"California","lat":35.15708,"lng":-117.90934,"zip":"93505","miles_from_dt":11.34},{"city":"Randsburg","state_name":"California","lat":35.36914,"lng":-117.75876,"zip":"93554","miles_from_dt":11.7},{"city":"California City","state_name":"California","lat":35.14796,"lng":-118.01004,"zip":"93504","miles_from_dt":12.05},{"city":"Johannesburg","state_name":"California","lat":35.37194,"lng":-117.64193,"zip":"93528","miles_from_dt":18.14},{"city":"Red Mountain","state_name":"California","lat":35.33945,"lng":-117.58517,"zip":"93558","miles_from_dt":21},{"city":"Mojave","state_name":"California","lat":35.0557,"lng":-118.17553,"zip":"93502","miles_from_dt":21.89},{"city":"Edwards","state_name":"California","lat":34.99788,"lng":-117.88308,"zip":"93523","miles_from_dt":22.39},{"city":"Ridgecrest","state_name":"California","lat":35.58596,"lng":-117.68446,"zip":"93555","miles_from_dt":24.04},{"city":"Mojave","state_name":"California","lat":35.0411,"lng":-118.22922,"zip":"93501","miles_from_dt":24.52},{"city":"Onyx","state_name":"California","lat":35.68292,"lng":-118.0798,"zip":"93255","miles_from_dt":26.17},{"city":"Weldon","state_name":"California","lat":35.58478,"lng":-118.28854,"zip":"93283","miles_from_dt":26.32},{"city":"Ridgecrest","state_name":"California","lat":35.62307,"lng":-117.67036,"zip":"93556","miles_from_dt":26.54},{"city":"Boron","state_name":"California","lat":35.006,"lng":-117.65139,"zip":"93596","miles_from_dt":27.52},{"city":"Boron","state_name":"California","lat":35.0081,"lng":-117.64268,"zip":"93516","miles_from_dt":27.72},{"city":"Edwards","state_name":"California","lat":34.90993,"lng":-117.85007,"zip":"93524","miles_from_dt":28.7},{"city":"Caliente","state_name":"California","lat":35.37675,"lng":-118.47314,"zip":"93518","miles_from_dt":29.5}],"targetCityZipCode":"93519","targetCityState":"California"},"__N_SSG":true}