{"pageProps":{"stateName":"California","cityName":"capistrano-beach","nearbyCities":[{"city":"Dana Point","state_name":"California","lat":33.47678,"lng":-117.70459,"zip":"92629","miles_from_dt":2.46},{"city":"San Juan Capistrano","state_name":"California","lat":33.49771,"lng":-117.66512,"zip":"92693","miles_from_dt":2.54},{"city":"San Juan Capistrano","state_name":"California","lat":33.49977,"lng":-117.65366,"zip":"92675","miles_from_dt":2.79},{"city":"San Clemente","state_name":"California","lat":33.44094,"lng":-117.62113,"zip":"92674","miles_from_dt":2.96},{"city":"San Clemente","state_name":"California","lat":33.46611,"lng":-117.61204,"zip":"92673","miles_from_dt":3.17},{"city":"Laguna Niguel","state_name":"California","lat":33.52777,"lng":-117.70523,"zip":"92677","miles_from_dt":5.13},{"city":"Laguna Niguel","state_name":"California","lat":33.52685,"lng":-117.71171,"zip":"92607","miles_from_dt":5.24},{"city":"Ladera Ranch","state_name":"California","lat":33.51502,"lng":-117.58065,"zip":"92694","miles_from_dt":6.21},{"city":"Aliso Viejo","state_name":"California","lat":33.57518,"lng":-117.73036,"zip":"92656","miles_from_dt":8.7},{"city":"Laguna Beach","state_name":"California","lat":33.543,"lng":-117.78145,"zip":"92652","miles_from_dt":8.72},{"city":"San Clemente","state_name":"California","lat":33.3825,"lng":-117.5403,"zip":"92672","miles_from_dt":9.08},{"city":"Laguna Hills","state_name":"California","lat":33.59276,"lng":-117.69994,"zip":"92653","miles_from_dt":9.3},{"city":"Laguna Beach","state_name":"California","lat":33.56535,"lng":-117.77399,"zip":"92651","miles_from_dt":9.51},{"city":"Laguna Hills","state_name":"California","lat":33.6042,"lng":-117.71536,"zip":"92654","miles_from_dt":10.28},{"city":"Mission Viejo","state_name":"California","lat":33.61051,"lng":-117.66627,"zip":"92691","miles_from_dt":10.32},{"city":"Mission Viejo","state_name":"California","lat":33.60948,"lng":-117.64396,"zip":"92692","miles_from_dt":10.33},{"city":"Mission Viejo","state_name":"California","lat":33.61171,"lng":-117.64297,"zip":"92690","miles_from_dt":10.49},{"city":"Laguna Woods","state_name":"California","lat":33.60796,"lng":-117.72799,"zip":"92637","miles_from_dt":10.74},{"city":"Rancho Santa Margarita","state_name":"California","lat":33.61737,"lng":-117.61131,"zip":"92688","miles_from_dt":11.25},{"city":"El Toro","state_name":"California","lat":33.62401,"lng":-117.69084,"zip":"92609","miles_from_dt":11.33},{"city":"Lake Forest","state_name":"California","lat":33.64709,"lng":-117.68428,"zip":"92630","miles_from_dt":12.88},{"city":"Newport Coast","state_name":"California","lat":33.59571,"lng":-117.83069,"zip":"92657","miles_from_dt":13.27},{"city":"Irvine","state_name":"California","lat":33.62927,"lng":-117.79408,"zip":"92603","miles_from_dt":13.75},{"city":"Trabuco Canyon","state_name":"California","lat":33.65274,"lng":-117.56048,"zip":"92679","miles_from_dt":14.57},{"city":"Irvine","state_name":"California","lat":33.66729,"lng":-117.73362,"zip":"92618","miles_from_dt":14.75},{"city":"Camp Pendleton","state_name":"California","lat":33.38123,"lng":-117.42874,"zip":"92055","miles_from_dt":14.8},{"city":"Corona Del Mar","state_name":"California","lat":33.60229,"lng":-117.86551,"zip":"92625","miles_from_dt":15.06},{"city":"Foothill Ranch","state_name":"California","lat":33.68336,"lng":-117.65404,"zip":"92610","miles_from_dt":15.35},{"city":"Irvine","state_name":"California","lat":33.6699,"lng":-117.76458,"zip":"92619","miles_from_dt":15.48},{"city":"Trabuco Canyon","state_name":"California","lat":33.64627,"lng":-117.50662,"zip":"92678","miles_from_dt":15.76},{"city":"East Irvine","state_name":"California","lat":33.67946,"lng":-117.76086,"zip":"92650","miles_from_dt":16.02},{"city":"Irvine","state_name":"California","lat":33.64197,"lng":-117.84103,"zip":"92617","miles_from_dt":16.04},{"city":"Newport Beach","state_name":"California","lat":33.60547,"lng":-117.89218,"zip":"92662","miles_from_dt":16.4},{"city":"Irvine","state_name":"California","lat":33.65193,"lng":-117.8361,"zip":"92616","miles_from_dt":16.41},{"city":"Irvine","state_name":"California","lat":33.65984,"lng":-117.82457,"zip":"92612","miles_from_dt":16.47},{"city":"Newport Beach","state_name":"California","lat":33.60231,"lng":-117.89872,"zip":"92661","miles_from_dt":16.57},{"city":"Irvine","state_name":"California","lat":33.65061,"lng":-117.85091,"zip":"92697","miles_from_dt":16.86},{"city":"Newport Beach","state_name":"California","lat":33.64222,"lng":-117.86305,"zip":"92658","miles_from_dt":16.88},{"city":"Newport Beach","state_name":"California","lat":33.63375,"lng":-117.87504,"zip":"92660","miles_from_dt":16.93},{"city":"Irvine","state_name":"California","lat":33.6879,"lng":-117.7889,"zip":"92604","miles_from_dt":17.17},{"city":"Aliso Viejo","state_name":"California","lat":33.6686,"lng":-117.83864,"zip":"92698","miles_from_dt":17.43},{"city":"Irvine","state_name":"California","lat":33.70661,"lng":-117.75695,"zip":"92620","miles_from_dt":17.72},{"city":"Irvine","state_name":"California","lat":33.68173,"lng":-117.83316,"zip":"92614","miles_from_dt":18},{"city":"Irvine","state_name":"California","lat":33.69425,"lng":-117.81261,"zip":"92623","miles_from_dt":18.16},{"city":"Irvine","state_name":"California","lat":33.69849,"lng":-117.8123,"zip":"92606","miles_from_dt":18.41},{"city":"Newport Beach","state_name":"California","lat":33.62219,"lng":-117.92352,"zip":"92659","miles_from_dt":18.54},{"city":"Lake Elsinore","state_name":"California","lat":33.60526,"lng":-117.3939,"zip":"92531","miles_from_dt":18.62},{"city":"Irvine","state_name":"California","lat":33.72645,"lng":-117.7287,"zip":"92602","miles_from_dt":18.65},{"city":"Newport Beach","state_name":"California","lat":33.62328,"lng":-117.93022,"zip":"92663","miles_from_dt":18.89},{"city":"Murrieta","state_name":"California","lat":33.53579,"lng":-117.35098,"zip":"92562","miles_from_dt":18.94},{"city":"Costa Mesa","state_name":"California","lat":33.64015,"lng":-117.91588,"zip":"92628","miles_from_dt":18.97},{"city":"Costa Mesa","state_name":"California","lat":33.64786,"lng":-117.9205,"zip":"92627","miles_from_dt":19.52},{"city":"Tustin","state_name":"California","lat":33.72833,"lng":-117.79753,"zip":"92782","miles_from_dt":19.92},{"city":"Silverado","state_name":"California","lat":33.75306,"lng":-117.63534,"zip":"92676","miles_from_dt":20.22},{"city":"Lake Elsinore","state_name":"California","lat":33.63386,"lng":-117.37949,"zip":"92530","miles_from_dt":20.41},{"city":"Costa Mesa","state_name":"California","lat":33.67896,"lng":-117.90844,"zip":"92626","miles_from_dt":20.51},{"city":"Santa Ana","state_name":"California","lat":33.70991,"lng":-117.87045,"zip":"92707","miles_from_dt":20.81},{"city":"Santa Ana","state_name":"California","lat":33.71884,"lng":-117.85462,"zip":"92735","miles_from_dt":20.83},{"city":"Tustin","state_name":"California","lat":33.73687,"lng":-117.81805,"zip":"92781","miles_from_dt":20.94},{"city":"Tustin","state_name":"California","lat":33.73685,"lng":-117.81968,"zip":"92780","miles_from_dt":20.97},{"city":"Santa Ana","state_name":"California","lat":33.755,"lng":-117.81488,"zip":"92705","miles_from_dt":22.01},{"city":"Huntington Beach","state_name":"California","lat":33.65655,"lng":-117.96987,"zip":"92615","miles_from_dt":22.1},{"city":"Huntington Beach","state_name":"California","lat":33.66525,"lng":-117.96755,"zip":"92646","miles_from_dt":22.36},{"city":"Santa Ana","state_name":"California","lat":33.73655,"lng":-117.87139,"zip":"92702","miles_from_dt":22.38},{"city":"Oceanside","state_name":"California","lat":33.28379,"lng":-117.34182,"zip":"92058","miles_from_dt":22.39},{"city":"Santa Ana","state_name":"California","lat":33.76685,"lng":-117.80435,"zip":"92711","miles_from_dt":22.54},{"city":"Santa Ana","state_name":"California","lat":33.72038,"lng":-117.90807,"zip":"92704","miles_from_dt":22.67},{"city":"Santa Ana","state_name":"California","lat":33.7486,"lng":-117.85877,"zip":"92701","miles_from_dt":22.72},{"city":"Santa Ana","state_name":"California","lat":33.72048,"lng":-117.90985,"zip":"92799","miles_from_dt":22.74},{"city":"Orange","state_name":"California","lat":33.7915,"lng":-117.71401,"zip":"92862","miles_from_dt":22.95},{"city":"Fountain Valley","state_name":"California","lat":33.71399,"lng":-117.92835,"zip":"92728","miles_from_dt":23.08},{"city":"Santa Ana","state_name":"California","lat":33.74962,"lng":-117.87498,"zip":"92712","miles_from_dt":23.25},{"city":"Corona","state_name":"California","lat":33.75994,"lng":-117.47827,"zip":"92883","miles_from_dt":23.3},{"city":"Orange","state_name":"California","lat":33.79479,"lng":-117.7621,"zip":"92869","miles_from_dt":23.67},{"city":"Fountain Valley","state_name":"California","lat":33.71046,"lng":-117.95132,"zip":"92708","miles_from_dt":23.79},{"city":"Santa Ana","state_name":"California","lat":33.74853,"lng":-117.90621,"zip":"92703","miles_from_dt":24.17},{"city":"Santa Ana","state_name":"California","lat":33.76602,"lng":-117.88174,"zip":"92706","miles_from_dt":24.42},{"city":"Orange","state_name":"California","lat":33.78406,"lng":-117.84348,"zip":"92856","miles_from_dt":24.5},{"city":"Orange","state_name":"California","lat":33.78453,"lng":-117.84479,"zip":"92866","miles_from_dt":24.56},{"city":"Orange","state_name":"California","lat":33.80266,"lng":-117.78669,"zip":"92859","miles_from_dt":24.56},{"city":"Oceanside","state_name":"California","lat":33.19482,"lng":-117.37967,"zip":"92049","miles_from_dt":24.73},{"city":"Oceanside","state_name":"California","lat":33.20151,"lng":-117.37022,"zip":"92051","miles_from_dt":24.76},{"city":"Huntington Beach","state_name":"California","lat":33.68212,"lng":-118.0101,"zip":"92648","miles_from_dt":25.01},{"city":"Fallbrook","state_name":"California","lat":33.36563,"lng":-117.24838,"zip":"92088","miles_from_dt":25.04},{"city":"Oceanside","state_name":"California","lat":33.19698,"lng":-117.36706,"zip":"92052","miles_from_dt":25.12},{"city":"Orange","state_name":"California","lat":33.81443,"lng":-117.79617,"zip":"92867","miles_from_dt":25.49},{"city":"Corona","state_name":"California","lat":33.82163,"lng":-117.56763,"zip":"92881","miles_from_dt":25.51},{"city":"Orange","state_name":"California","lat":33.78799,"lng":-117.87637,"zip":"92868","miles_from_dt":25.59},{"city":"Oceanside","state_name":"California","lat":33.19377,"lng":-117.35508,"zip":"92054","miles_from_dt":25.76},{"city":"Wildomar","state_name":"California","lat":33.61638,"lng":-117.26028,"zip":"92595","miles_from_dt":25.78},{"city":"Temecula","state_name":"California","lat":33.48391,"lng":-117.22075,"zip":"92590","miles_from_dt":25.8},{"city":"Garden Grove","state_name":"California","lat":33.76399,"lng":-117.93153,"zip":"92843","miles_from_dt":25.89},{"city":"Fallbrook","state_name":"California","lat":33.38613,"lng":-117.22658,"zip":"92028","miles_from_dt":25.94},{"city":"Villa Park","state_name":"California","lat":33.81801,"lng":-117.81031,"zip":"92861","miles_from_dt":25.97},{"city":"San Luis Rey","state_name":"California","lat":33.27676,"lng":-117.2727,"zip":"92068","miles_from_dt":26.07},{"city":"Orange","state_name":"California","lat":33.81535,"lng":-117.82728,"zip":"92863","miles_from_dt":26.13},{"city":"Orange","state_name":"California","lat":33.81425,"lng":-117.83075,"zip":"92864","miles_from_dt":26.13},{"city":"Oceanside","state_name":"California","lat":33.25326,"lng":-117.28704,"zip":"92057","miles_from_dt":26.2},{"city":"Lake Elsinore","state_name":"California","lat":33.69052,"lng":-117.30241,"zip":"92532","miles_from_dt":26.3},{"city":"Huntington Beach","state_name":"California","lat":33.71512,"lng":-118.00767,"zip":"92605","miles_from_dt":26.35},{"city":"Huntington Beach","state_name":"California","lat":33.72395,"lng":-118.00685,"zip":"92647","miles_from_dt":26.72},{"city":"Midway City","state_name":"California","lat":33.74606,"lng":-117.98765,"zip":"92655","miles_from_dt":27.01},{"city":"Garden Grove","state_name":"California","lat":33.78584,"lng":-117.93202,"zip":"92840","miles_from_dt":27.13},{"city":"Garden Grove","state_name":"California","lat":33.77834,"lng":-117.94558,"zip":"92842","miles_from_dt":27.16},{"city":"Garden Grove","state_name":"California","lat":33.76561,"lng":-117.96952,"zip":"92844","miles_from_dt":27.32},{"city":"Orange","state_name":"California","lat":33.82887,"lng":-117.84925,"zip":"92865","miles_from_dt":27.47},{"city":"Westminster","state_name":"California","lat":33.75242,"lng":-117.99383,"zip":"92683","miles_from_dt":27.57},{"city":"Anaheim","state_name":"California","lat":33.85623,"lng":-117.74018,"zip":"92808","miles_from_dt":27.58},{"city":"Carlsbad","state_name":"California","lat":33.1614,"lng":-117.34969,"zip":"92013","miles_from_dt":27.6},{"city":"Orange","state_name":"California","lat":33.8317,"lng":-117.84914,"zip":"92857","miles_from_dt":27.64},{"city":"Westminster","state_name":"California","lat":33.75281,"lng":-117.9951,"zip":"92685","miles_from_dt":27.64},{"city":"Carlsbad","state_name":"California","lat":33.1629,"lng":-117.34574,"zip":"92018","miles_from_dt":27.68},{"city":"Anaheim","state_name":"California","lat":33.85001,"lng":-117.78946,"zip":"92807","miles_from_dt":27.74},{"city":"Anaheim","state_name":"California","lat":33.85122,"lng":-117.79146,"zip":"92817","miles_from_dt":27.85},{"city":"Anaheim","state_name":"California","lat":33.851,"lng":-117.799,"zip":"92809","miles_from_dt":27.95},{"city":"Corona","state_name":"California","lat":33.86367,"lng":-117.59989,"zip":"92882","miles_from_dt":28.03},{"city":"Anaheim","state_name":"California","lat":33.80831,"lng":-117.9237,"zip":"92802","miles_from_dt":28.17},{"city":"Oceanside","state_name":"California","lat":33.20197,"lng":-117.28939,"zip":"92056","miles_from_dt":28.18},{"city":"Huntington Beach","state_name":"California","lat":33.72037,"lng":-118.04423,"zip":"92649","miles_from_dt":28.19},{"city":"Anaheim","state_name":"California","lat":33.83726,"lng":-117.87122,"zip":"92899","miles_from_dt":28.5},{"city":"Anaheim","state_name":"California","lat":33.83884,"lng":-117.87054,"zip":"92806","miles_from_dt":28.58},{"city":"Westminster","state_name":"California","lat":33.76266,"lng":-118.0072,"zip":"92684","miles_from_dt":28.61},{"city":"Anaheim","state_name":"California","lat":33.817,"lng":-117.9286,"zip":"92812","miles_from_dt":28.82},{"city":"Menifee","state_name":"California","lat":33.69466,"lng":-117.25196,"zip":"92587","miles_from_dt":28.84},{"city":"Garden Grove","state_name":"California","lat":33.7868,"lng":-117.98207,"zip":"92841","miles_from_dt":28.91},{"city":"Anaheim","state_name":"California","lat":33.83003,"lng":-117.90568,"zip":"92805","miles_from_dt":28.94},{"city":"Anaheim","state_name":"California","lat":33.84011,"lng":-117.88669,"zip":"92816","miles_from_dt":29.06},{"city":"Corona","state_name":"California","lat":33.87433,"lng":-117.56515,"zip":"92878","miles_from_dt":29.09},{"city":"Corona","state_name":"California","lat":33.87582,"lng":-117.56729,"zip":"92877","miles_from_dt":29.17},{"city":"Anaheim","state_name":"California","lat":33.83194,"lng":-117.9121,"zip":"92815","miles_from_dt":29.23},{"city":"Sunset Beach","state_name":"California","lat":33.71834,"lng":-118.07174,"zip":"90742","miles_from_dt":29.35},{"city":"Anaheim","state_name":"California","lat":33.83565,"lng":-117.9132,"zip":"92825","miles_from_dt":29.49},{"city":"Bonsall","state_name":"California","lat":33.28701,"lng":-117.19977,"zip":"92003","miles_from_dt":29.53},{"city":"Atwood","state_name":"California","lat":33.8674,"lng":-117.83099,"zip":"92811","miles_from_dt":29.58},{"city":"Yorba Linda","state_name":"California","lat":33.88727,"lng":-117.73389,"zip":"92887","miles_from_dt":29.65},{"city":"Carlsbad","state_name":"California","lat":33.14564,"lng":-117.31691,"zip":"92008","miles_from_dt":29.69},{"city":"Temecula","state_name":"California","lat":33.50207,"lng":-117.15483,"zip":"92593","miles_from_dt":29.69},{"city":"Corona","state_name":"California","lat":33.87979,"lng":-117.5357,"zip":"92879","miles_from_dt":29.84},{"city":"Anaheim","state_name":"California","lat":33.81735,"lng":-117.96073,"zip":"92814","miles_from_dt":29.86}],"targetCityZipCode":"92624","targetCityState":"California"},"__N_SSG":true}