{"pageProps":{"stateName":"California","cityName":"castroville","nearbyCities":[{"city":"Moss Landing","state_name":"California","lat":36.81515,"lng":-121.7779,"zip":"95039","miles_from_dt":2.96},{"city":"Salinas","state_name":"California","lat":36.76643,"lng":-121.66816,"zip":"93907","miles_from_dt":4.25},{"city":"Salinas","state_name":"California","lat":36.73865,"lng":-121.68159,"zip":"93912","miles_from_dt":4.56},{"city":"Salinas","state_name":"California","lat":36.72258,"lng":-121.63218,"zip":"93906","miles_from_dt":7.39},{"city":"Marina","state_name":"California","lat":36.67566,"lng":-121.78237,"zip":"93933","miles_from_dt":7.79},{"city":"Aromas","state_name":"California","lat":36.86818,"lng":-121.63237,"zip":"95004","miles_from_dt":8.4},{"city":"Watsonville","state_name":"California","lat":36.91105,"lng":-121.75849,"zip":"95077","miles_from_dt":8.83},{"city":"Salinas","state_name":"California","lat":36.6726,"lng":-121.65745,"zip":"93902","miles_from_dt":8.98},{"city":"Salinas","state_name":"California","lat":36.67573,"lng":-121.62799,"zip":"93915","miles_from_dt":9.76},{"city":"Salinas","state_name":"California","lat":36.6849,"lng":-121.60562,"zip":"93905","miles_from_dt":10.17},{"city":"Freedom","state_name":"California","lat":36.93575,"lng":-121.78458,"zip":"95019","miles_from_dt":10.75},{"city":"Watsonville","state_name":"California","lat":36.94029,"lng":-121.75089,"zip":"95076","miles_from_dt":10.81},{"city":"Salinas","state_name":"California","lat":36.64794,"lng":-121.63044,"zip":"93901","miles_from_dt":11.22},{"city":"Seaside","state_name":"California","lat":36.62153,"lng":-121.79562,"zip":"93955","miles_from_dt":11.58},{"city":"Spreckels","state_name":"California","lat":36.62472,"lng":-121.64649,"zip":"93962","miles_from_dt":12.17},{"city":"San Juan Bautista","state_name":"California","lat":36.83281,"lng":-121.52576,"zip":"95045","miles_from_dt":12.44},{"city":"Salinas","state_name":"California","lat":36.62153,"lng":-121.60048,"zip":"93908","miles_from_dt":13.66},{"city":"Monterey","state_name":"California","lat":36.61697,"lng":-121.89881,"zip":"93942","miles_from_dt":14.44},{"city":"Monterey","state_name":"California","lat":36.59736,"lng":-121.87332,"zip":"93943","miles_from_dt":14.79},{"city":"Pacific Grove","state_name":"California","lat":36.61899,"lng":-121.92575,"zip":"93950","miles_from_dt":15.28},{"city":"Monterey","state_name":"California","lat":36.60058,"lng":-121.91858,"zip":"93944","miles_from_dt":16},{"city":"Aptos","state_name":"California","lat":36.98042,"lng":-121.8984,"zip":"95001","miles_from_dt":16.1},{"city":"Aptos","state_name":"California","lat":37.0089,"lng":-121.87775,"zip":"95003","miles_from_dt":17.26},{"city":"Pebble Beach","state_name":"California","lat":36.58566,"lng":-121.94329,"zip":"93953","miles_from_dt":17.66},{"city":"Capitola","state_name":"California","lat":36.97721,"lng":-121.95466,"zip":"95010","miles_from_dt":17.81},{"city":"Carmel By The Sea","state_name":"California","lat":36.55359,"lng":-121.92259,"zip":"93921","miles_from_dt":18.78},{"city":"Gilroy","state_name":"California","lat":37.01461,"lng":-121.55718,"zip":"95020","miles_from_dt":18.92},{"city":"Santa Cruz","state_name":"California","lat":36.97279,"lng":-121.99008,"zip":"95062","miles_from_dt":18.96},{"city":"Gilroy","state_name":"California","lat":37.01446,"lng":-121.54959,"zip":"95021","miles_from_dt":19.14},{"city":"Hollister","state_name":"California","lat":36.8429,"lng":-121.39354,"zip":"95024","miles_from_dt":19.73},{"city":"Santa Cruz","state_name":"California","lat":36.98227,"lng":-122.00918,"zip":"95063","miles_from_dt":20.18},{"city":"Carmel","state_name":"California","lat":36.48919,"lng":-121.74475,"zip":"93922","miles_from_dt":20.31},{"city":"Santa Cruz","state_name":"California","lat":36.97673,"lng":-122.0236,"zip":"95061","miles_from_dt":20.52},{"city":"Soquel","state_name":"California","lat":37.04068,"lng":-121.93174,"zip":"95073","miles_from_dt":20.61},{"city":"Scotts Valley","state_name":"California","lat":36.97417,"lng":-122.02972,"zip":"95067","miles_from_dt":20.67},{"city":"Chualar","state_name":"California","lat":36.60209,"lng":-121.42526,"zip":"93925","miles_from_dt":21.58},{"city":"Santa Cruz","state_name":"California","lat":37.03229,"lng":-121.98444,"zip":"95065","miles_from_dt":21.78},{"city":"Morgan Hill","state_name":"California","lat":37.08552,"lng":-121.6098,"zip":"95038","miles_from_dt":22.05},{"city":"Santa Cruz","state_name":"California","lat":36.99158,"lng":-122.05886,"zip":"95064","miles_from_dt":22.68},{"city":"San Martin","state_name":"California","lat":37.09576,"lng":-121.59649,"zip":"95046","miles_from_dt":22.97},{"city":"Hollister","state_name":"California","lat":36.92113,"lng":-121.36117,"zip":"95023","miles_from_dt":23.12},{"city":"Monterey","state_name":"California","lat":36.45294,"lng":-121.8498,"zip":"93940","miles_from_dt":23.59},{"city":"Morgan Hill","state_name":"California","lat":37.13213,"lng":-121.67886,"zip":"95037","miles_from_dt":24.27},{"city":"Scotts Valley","state_name":"California","lat":37.0672,"lng":-122.01453,"zip":"95066","miles_from_dt":24.71},{"city":"Mount Hermon","state_name":"California","lat":37.05052,"lng":-122.05828,"zip":"95041","miles_from_dt":25.41},{"city":"Santa Cruz","state_name":"California","lat":37.01352,"lng":-122.10176,"zip":"95060","miles_from_dt":25.47},{"city":"Gonzales","state_name":"California","lat":36.52567,"lng":-121.3991,"zip":"93926","miles_from_dt":26.05},{"city":"Los Gatos","state_name":"California","lat":37.13009,"lng":-121.93851,"zip":"95031","miles_from_dt":26.25},{"city":"Carmel","state_name":"California","lat":36.40394,"lng":-121.79867,"zip":"93923","miles_from_dt":26.38},{"city":"Felton","state_name":"California","lat":37.08027,"lng":-122.05824,"zip":"95018","miles_from_dt":26.93},{"city":"San Jose","state_name":"California","lat":37.17615,"lng":-121.75168,"zip":"95141","miles_from_dt":27.07},{"city":"Carmel Valley","state_name":"California","lat":36.39489,"lng":-121.63406,"zip":"93924","miles_from_dt":27.47},{"city":"New Almaden","state_name":"California","lat":37.17754,"lng":-121.81851,"zip":"95042","miles_from_dt":27.49},{"city":"San Jose","state_name":"California","lat":37.18428,"lng":-121.83658,"zip":"95120","miles_from_dt":28.12},{"city":"Holy City","state_name":"California","lat":37.15501,"lng":-121.98252,"zip":"95026","miles_from_dt":28.86},{"city":"Los Gatos","state_name":"California","lat":37.15701,"lng":-121.97771,"zip":"95033","miles_from_dt":28.87},{"city":"Ben Lomond","state_name":"California","lat":37.09835,"lng":-122.08931,"zip":"95005","miles_from_dt":29},{"city":"Redwood Estates","state_name":"California","lat":37.15842,"lng":-121.98487,"zip":"95044","miles_from_dt":29.13},{"city":"Coyote","state_name":"California","lat":37.21531,"lng":-121.73962,"zip":"95013","miles_from_dt":29.76}],"targetCityZipCode":"95012","targetCityState":"California"},"__N_SSG":true}