{"pageProps":{"stateName":"California","cityName":"chowchilla","nearbyCities":[{"city":"Le Grand","state_name":"California","lat":37.2447,"lng":-120.24277,"zip":"95333","miles_from_dt":10.96},{"city":"El Nido","state_name":"California","lat":37.12947,"lng":-120.5074,"zip":"95317","miles_from_dt":12.29},{"city":"Madera","state_name":"California","lat":36.91099,"lng":-120.1922,"zip":"93637","miles_from_dt":13.52},{"city":"Madera","state_name":"California","lat":36.96478,"lng":-120.08456,"zip":"93639","miles_from_dt":14.3},{"city":"Madera","state_name":"California","lat":37.0424,"lng":-120.03816,"zip":"93638","miles_from_dt":14.33},{"city":"Planada","state_name":"California","lat":37.3012,"lng":-120.33152,"zip":"95365","miles_from_dt":14.71},{"city":"Merced","state_name":"California","lat":37.23037,"lng":-120.50715,"zip":"95341","miles_from_dt":15.37},{"city":"Santa Rita Park","state_name":"California","lat":37.10867,"lng":-120.59745,"zip":"93661","miles_from_dt":17.01},{"city":"Merced","state_name":"California","lat":37.2937,"lng":-120.48784,"zip":"95343","miles_from_dt":17.75},{"city":"Merced","state_name":"California","lat":37.34128,"lng":-120.40658,"zip":"95340","miles_from_dt":18.45},{"city":"Dos Palos","state_name":"California","lat":37.0448,"lng":-120.6223,"zip":"93620","miles_from_dt":18.61},{"city":"Catheys Valley","state_name":"California","lat":37.36015,"lng":-120.11581,"zip":"95306","miles_from_dt":20.94},{"city":"South Dos Palos","state_name":"California","lat":36.96334,"lng":-120.65034,"zip":"93665","miles_from_dt":21.75},{"city":"Raymond","state_name":"California","lat":37.24769,"lng":-119.91882,"zip":"93653","miles_from_dt":23.19},{"city":"Madera","state_name":"California","lat":36.98171,"lng":-119.87706,"zip":"93636","miles_from_dt":24.05},{"city":"Atwater","state_name":"California","lat":37.30634,"lng":-120.65119,"zip":"95301","miles_from_dt":24.86},{"city":"Merced","state_name":"California","lat":37.41525,"lng":-120.4979,"zip":"95348","miles_from_dt":25.15},{"city":"Biola","state_name":"California","lat":36.79871,"lng":-120.01625,"zip":"93606","miles_from_dt":25.2},{"city":"Merced","state_name":"California","lat":37.37775,"lng":-120.61376,"zip":"95344","miles_from_dt":26.65},{"city":"Hornitos","state_name":"California","lat":37.48058,"lng":-120.24208,"zip":"95325","miles_from_dt":27.03},{"city":"Kerman","state_name":"California","lat":36.71831,"lng":-120.12912,"zip":"93630","miles_from_dt":27.17},{"city":"Firebaugh","state_name":"California","lat":36.79283,"lng":-120.62434,"zip":"93622","miles_from_dt":27.62},{"city":"Fresno","state_name":"California","lat":36.78693,"lng":-119.95271,"zip":"93723","miles_from_dt":28.06},{"city":"Winton","state_name":"California","lat":37.42171,"lng":-120.59715,"zip":"95388","miles_from_dt":28.42},{"city":"Tranquillity","state_name":"California","lat":36.65663,"lng":-120.28997,"zip":"93668","miles_from_dt":29.92},{"city":"Mendota","state_name":"California","lat":36.67215,"lng":-120.43778,"zip":"93640","miles_from_dt":29.98}],"targetCityZipCode":"93610","targetCityState":"California"},"__N_SSG":true}