{"pageProps":{"stateName":"California","cityName":"dunnigan","nearbyCities":[{"city":"Zamora","state_name":"California","lat":38.8187,"lng":-121.91012,"zip":"95698","miles_from_dt":6.56},{"city":"Arbuckle","state_name":"California","lat":39.0016,"lng":-122.07462,"zip":"95912","miles_from_dt":9.09},{"city":"Capay","state_name":"California","lat":38.7899,"lng":-122.12585,"zip":"95607","miles_from_dt":9.45},{"city":"Esparto","state_name":"California","lat":38.72936,"lng":-122.00959,"zip":"95627","miles_from_dt":10.69},{"city":"Knights Landing","state_name":"California","lat":38.89025,"lng":-121.79992,"zip":"95645","miles_from_dt":10.71},{"city":"Grimes","state_name":"California","lat":39.05144,"lng":-121.92196,"zip":"95950","miles_from_dt":12.26},{"city":"Madison","state_name":"California","lat":38.69151,"lng":-121.97723,"zip":"95653","miles_from_dt":13.33},{"city":"Brooks","state_name":"California","lat":38.75604,"lng":-122.19387,"zip":"95606","miles_from_dt":13.75},{"city":"Rumsey","state_name":"California","lat":38.90524,"lng":-122.26727,"zip":"95679","miles_from_dt":14.56},{"city":"Yolo","state_name":"California","lat":38.73284,"lng":-121.80701,"zip":"95697","miles_from_dt":14.68},{"city":"Guinda","state_name":"California","lat":38.85283,"lng":-122.2729,"zip":"95637","miles_from_dt":14.95},{"city":"Meridian","state_name":"California","lat":39.05366,"lng":-121.82379,"zip":"95957","miles_from_dt":15.01},{"city":"Robbins","state_name":"California","lat":38.87224,"lng":-121.71664,"zip":"95676","miles_from_dt":15.22},{"city":"Woodland","state_name":"California","lat":38.68847,"lng":-121.85666,"zip":"95695","miles_from_dt":15.51},{"city":"Woodland","state_name":"California","lat":38.68889,"lng":-121.70776,"zip":"95776","miles_from_dt":20.68},{"city":"Williams","state_name":"California","lat":39.10299,"lng":-122.2726,"zip":"95987","miles_from_dt":21.12},{"city":"Yuba City","state_name":"California","lat":39.08171,"lng":-121.68798,"zip":"95993","miles_from_dt":21.57},{"city":"Winters","state_name":"California","lat":38.56163,"lng":-122.00609,"zip":"95694","miles_from_dt":22.24},{"city":"Yuba City","state_name":"California","lat":39.02205,"lng":-121.61317,"zip":"95991","miles_from_dt":22.83},{"city":"Nicolaus","state_name":"California","lat":38.84594,"lng":-121.57679,"zip":"95659","miles_from_dt":22.89},{"city":"Sutter","state_name":"California","lat":39.18051,"lng":-121.80746,"zip":"95982","miles_from_dt":22.89},{"city":"Yuba City","state_name":"California","lat":39.0236,"lng":-121.60704,"zip":"95992","miles_from_dt":23.18},{"city":"Davis","state_name":"California","lat":38.55819,"lng":-121.80044,"zip":"95616","miles_from_dt":24.89},{"city":"Sacramento","state_name":"California","lat":38.68925,"lng":-121.59537,"zip":"95837","miles_from_dt":25.58},{"city":"Olivehurst","state_name":"California","lat":39.03343,"lng":-121.55754,"zip":"95961","miles_from_dt":25.89},{"city":"Colusa","state_name":"California","lat":39.26839,"lng":-122.00426,"zip":"95932","miles_from_dt":26.52},{"city":"Pleasant Grove","state_name":"California","lat":38.82708,"lng":-121.49378,"zip":"95668","miles_from_dt":27.5},{"city":"Davis","state_name":"California","lat":38.5477,"lng":-121.72218,"zip":"95617","miles_from_dt":27.59},{"city":"Sacramento","state_name":"California","lat":38.70406,"lng":-121.53555,"zip":"95836","miles_from_dt":27.9},{"city":"Live Oak","state_name":"California","lat":39.25018,"lng":-121.77309,"zip":"95953","miles_from_dt":28.02},{"city":"Pope Valley","state_name":"California","lat":38.66342,"lng":-122.4349,"zip":"94567","miles_from_dt":28.05},{"city":"Rio Oso","state_name":"California","lat":38.95396,"lng":-121.48187,"zip":"95674","miles_from_dt":28.25},{"city":"Lower Lake","state_name":"California","lat":38.87967,"lng":-122.52753,"zip":"95457","miles_from_dt":28.53},{"city":"West Sacramento","state_name":"California","lat":38.62394,"lng":-121.58272,"zip":"95691","miles_from_dt":28.74},{"city":"Davis","state_name":"California","lat":38.54348,"lng":-121.6917,"zip":"95618","miles_from_dt":28.75},{"city":"Elverta","state_name":"California","lat":38.73378,"lng":-121.48898,"zip":"95626","miles_from_dt":29.39},{"city":"Sacramento","state_name":"California","lat":38.67088,"lng":-121.52464,"zip":"95835","miles_from_dt":29.51},{"city":"Napa","state_name":"California","lat":38.50846,"lng":-122.26497,"zip":"94558","miles_from_dt":29.64}],"targetCityZipCode":"95937","targetCityState":"California"},"__N_SSG":true}