{"pageProps":{"stateName":"California","cityName":"durham","nearbyCities":[{"city":"Nelson","state_name":"California","lat":39.56417,"lng":-121.79804,"zip":"95958","miles_from_dt":2.82},{"city":"Chico","state_name":"California","lat":39.68317,"lng":-121.83528,"zip":"95928","miles_from_dt":5.76},{"city":"Richvale","state_name":"California","lat":39.4973,"lng":-121.75569,"zip":"95974","miles_from_dt":7.75},{"city":"Chico","state_name":"California","lat":39.72578,"lng":-121.85022,"zip":"95929","miles_from_dt":8.8},{"city":"Chico","state_name":"California","lat":39.74573,"lng":-121.84396,"zip":"95926","miles_from_dt":10.02},{"city":"Chico","state_name":"California","lat":39.75174,"lng":-121.81253,"zip":"95927","miles_from_dt":10.15},{"city":"Chico","state_name":"California","lat":39.75384,"lng":-121.87011,"zip":"95976","miles_from_dt":10.98},{"city":"Oroville","state_name":"California","lat":39.59169,"lng":-121.59034,"zip":"95965","miles_from_dt":11.07},{"city":"Paradise","state_name":"California","lat":39.72178,"lng":-121.63388,"zip":"95969","miles_from_dt":11.86},{"city":"Butte City","state_name":"California","lat":39.46071,"lng":-121.93702,"zip":"95920","miles_from_dt":12.45},{"city":"Biggs","state_name":"California","lat":39.42392,"lng":-121.77178,"zip":"95917","miles_from_dt":12.57},{"city":"Glenn","state_name":"California","lat":39.57692,"lng":-122.0367,"zip":"95943","miles_from_dt":12.94},{"city":"Hamilton City","state_name":"California","lat":39.71473,"lng":-122.00197,"zip":"95951","miles_from_dt":13.29},{"city":"Paradise","state_name":"California","lat":39.74257,"lng":-121.60453,"zip":"95967","miles_from_dt":13.98},{"city":"Feather Falls","state_name":"California","lat":39.51162,"lng":-121.55652,"zip":"95940","miles_from_dt":14.37},{"city":"Palermo","state_name":"California","lat":39.43514,"lng":-121.55179,"zip":"95968","miles_from_dt":17.58},{"city":"Gridley","state_name":"California","lat":39.34289,"lng":-121.75818,"zip":"95948","miles_from_dt":18.2},{"city":"Princeton","state_name":"California","lat":39.41159,"lng":-122.05176,"zip":"95970","miles_from_dt":19.06},{"city":"Chico","state_name":"California","lat":39.88099,"lng":-121.8516,"zip":"95973","miles_from_dt":19.26},{"city":"Artois","state_name":"California","lat":39.62899,"lng":-122.19215,"zip":"95913","miles_from_dt":21.14},{"city":"Oroville","state_name":"California","lat":39.47332,"lng":-121.43284,"zip":"95966","miles_from_dt":21.47},{"city":"Berry Creek","state_name":"California","lat":39.65945,"lng":-121.37375,"zip":"95916","miles_from_dt":22.89},{"city":"Live Oak","state_name":"California","lat":39.25018,"lng":-121.77309,"zip":"95953","miles_from_dt":24.51},{"city":"Stirling City","state_name":"California","lat":39.90826,"lng":-121.52941,"zip":"95978","miles_from_dt":25.31},{"city":"Colusa","state_name":"California","lat":39.26839,"lng":-122.00426,"zip":"95932","miles_from_dt":25.73},{"city":"Bangor","state_name":"California","lat":39.40756,"lng":-121.37878,"zip":"95914","miles_from_dt":26.18},{"city":"Vina","state_name":"California","lat":39.97344,"lng":-121.97342,"zip":"96092","miles_from_dt":27.09},{"city":"Willows","state_name":"California","lat":39.49825,"lng":-122.28698,"zip":"95988","miles_from_dt":27.18},{"city":"Magalia","state_name":"California","lat":39.94916,"lng":-121.54088,"zip":"95954","miles_from_dt":27.38},{"city":"Rackerby","state_name":"California","lat":39.42955,"lng":-121.33624,"zip":"95972","miles_from_dt":27.44},{"city":"Orland","state_name":"California","lat":39.73682,"lng":-122.30329,"zip":"95963","miles_from_dt":28.48},{"city":"Forest Ranch","state_name":"California","lat":39.98954,"lng":-121.58872,"zip":"95942","miles_from_dt":28.75},{"city":"Sutter","state_name":"California","lat":39.18051,"lng":-121.80746,"zip":"95982","miles_from_dt":29.29},{"city":"Forbestown","state_name":"California","lat":39.5588,"lng":-121.24157,"zip":"95941","miles_from_dt":29.83}],"targetCityZipCode":"95938","targetCityState":"California"},"__N_SSG":true}