{"pageProps":{"stateName":"California","cityName":"fall-river-mills","nearbyCities":[{"city":"Cassel","state_name":"California","lat":40.90675,"lng":-121.52032,"zip":"96016","miles_from_dt":7.7},{"city":"Mcarthur","state_name":"California","lat":41.07178,"lng":-121.32607,"zip":"96056","miles_from_dt":8.16},{"city":"Burney","state_name":"California","lat":40.97495,"lng":-121.68316,"zip":"96013","miles_from_dt":12.02},{"city":"Hat Creek","state_name":"California","lat":40.79393,"lng":-121.47397,"zip":"96040","miles_from_dt":14.77},{"city":"Nubieber","state_name":"California","lat":41.10525,"lng":-121.20455,"zip":"96068","miles_from_dt":14.82},{"city":"Bieber","state_name":"California","lat":41.06183,"lng":-121.04434,"zip":"96009","miles_from_dt":21.9},{"city":"Old Station","state_name":"California","lat":40.68134,"lng":-121.45275,"zip":"96071","miles_from_dt":22.52},{"city":"Big Bend","state_name":"California","lat":41.05762,"lng":-121.89157,"zip":"96011","miles_from_dt":22.95},{"city":"Lookout","state_name":"California","lat":41.26665,"lng":-121.10633,"zip":"96054","miles_from_dt":25.59},{"city":"Montgomery Creek","state_name":"California","lat":40.88056,"lng":-121.95433,"zip":"96065","miles_from_dt":27.44},{"city":"Round Mountain","state_name":"California","lat":40.79395,"lng":-121.91519,"zip":"96084","miles_from_dt":28.14}],"targetCityZipCode":"96028","targetCityState":"California"},"__N_SSG":true}