{"pageProps":{"stateName":"California","cityName":"groveland","nearbyCities":[{"city":"Pinecrest","state_name":"California","lat":38.22908,"lng":-119.79174,"zip":"95364","miles_from_dt":17.52},{"city":"Strawberry","state_name":"California","lat":38.21493,"lng":-119.97031,"zip":"95375","miles_from_dt":20.32},{"city":"Yosemite National Park","state_name":"California","lat":37.73784,"lng":-119.52556,"zip":"95389","miles_from_dt":20.57},{"city":"Long Barn","state_name":"California","lat":38.11894,"lng":-120.09239,"zip":"95335","miles_from_dt":21.07},{"city":"El Portal","state_name":"California","lat":37.66618,"lng":-119.8064,"zip":"95318","miles_from_dt":21.67},{"city":"Mi Wuk Village","state_name":"California","lat":38.07045,"lng":-120.17291,"zip":"95346","miles_from_dt":23.95},{"city":"Tuolumne","state_name":"California","lat":37.96174,"lng":-120.21635,"zip":"95379","miles_from_dt":25.48},{"city":"Coulterville","state_name":"California","lat":37.70443,"lng":-120.08344,"zip":"95311","miles_from_dt":26.2},{"city":"Twain Harte","state_name":"California","lat":38.09534,"lng":-120.22602,"zip":"95383","miles_from_dt":27.21},{"city":"Soulsbyville","state_name":"California","lat":37.98927,"lng":-120.26272,"zip":"95372","miles_from_dt":27.99},{"city":"Midpines","state_name":"California","lat":37.58784,"lng":-119.96408,"zip":"95345","miles_from_dt":29.3}],"targetCityZipCode":"95321","targetCityState":"California"},"__N_SSG":true}