{"pageProps":{"stateName":"California","cityName":"helm","nearbyCities":[{"city":"Burrel","state_name":"California","lat":36.48833,"lng":-119.98417,"zip":"93607","miles_from_dt":7.06},{"city":"San Joaquin","state_name":"California","lat":36.60932,"lng":-120.16514,"zip":"93660","miles_from_dt":7.24},{"city":"Five Points","state_name":"California","lat":36.37258,"lng":-120.12125,"zip":"93624","miles_from_dt":9.9},{"city":"Riverdale","state_name":"California","lat":36.45173,"lng":-119.93615,"zip":"93656","miles_from_dt":10.45},{"city":"Raisin City","state_name":"California","lat":36.59502,"lng":-119.90458,"zip":"93652","miles_from_dt":12.49},{"city":"Cantua Creek","state_name":"California","lat":36.5055,"lng":-120.3418,"zip":"93608","miles_from_dt":13.12},{"city":"Caruthers","state_name":"California","lat":36.52616,"lng":-119.86388,"zip":"93609","miles_from_dt":13.51},{"city":"Kerman","state_name":"California","lat":36.71831,"lng":-120.12912,"zip":"93630","miles_from_dt":14.03},{"city":"Tranquillity","state_name":"California","lat":36.65663,"lng":-120.28997,"zip":"93668","miles_from_dt":14.1},{"city":"Fresno","state_name":"California","lat":36.63864,"lng":-119.90311,"zip":"93786","miles_from_dt":14.13},{"city":"Fresno","state_name":"California","lat":36.65344,"lng":-119.90216,"zip":"93706","miles_from_dt":14.8},{"city":"Lemoore","state_name":"California","lat":36.31921,"lng":-119.93135,"zip":"93246","miles_from_dt":16.69},{"city":"Fresno","state_name":"California","lat":36.61095,"lng":-119.774,"zip":"93712","miles_from_dt":19.62},{"city":"Fresno","state_name":"California","lat":36.71998,"lng":-119.85805,"zip":"93773","miles_from_dt":19.72},{"city":"Biola","state_name":"California","lat":36.79871,"lng":-120.01625,"zip":"93606","miles_from_dt":20.15},{"city":"Fresno","state_name":"California","lat":36.78693,"lng":-119.95271,"zip":"93723","miles_from_dt":20.56},{"city":"Mendota","state_name":"California","lat":36.67215,"lng":-120.43778,"zip":"93640","miles_from_dt":21.35},{"city":"Laton","state_name":"California","lat":36.44115,"lng":-119.73024,"zip":"93242","miles_from_dt":21.56},{"city":"Lemoore","state_name":"California","lat":36.28614,"lng":-119.83405,"zip":"93245","miles_from_dt":21.93},{"city":"Fresno","state_name":"California","lat":36.62667,"lng":-119.73501,"zip":"93725","miles_from_dt":22.03},{"city":"Huron","state_name":"California","lat":36.19608,"lng":-120.08477,"zip":"93234","miles_from_dt":22.07},{"city":"Fresno","state_name":"California","lat":36.72523,"lng":-119.79448,"zip":"93724","miles_from_dt":22.57},{"city":"Fresno","state_name":"California","lat":36.73402,"lng":-119.79206,"zip":"93717","miles_from_dt":23.06},{"city":"Fresno","state_name":"California","lat":36.75729,"lng":-119.81816,"zip":"93728","miles_from_dt":23.11},{"city":"Fresno","state_name":"California","lat":36.73027,"lng":-119.78694,"zip":"93707","miles_from_dt":23.11},{"city":"Fresno","state_name":"California","lat":36.73103,"lng":-119.78648,"zip":"93716","miles_from_dt":23.16},{"city":"Fresno","state_name":"California","lat":36.7316,"lng":-119.78469,"zip":"93709","miles_from_dt":23.27},{"city":"Fresno","state_name":"California","lat":36.73304,"lng":-119.78475,"zip":"93715","miles_from_dt":23.33},{"city":"Fresno","state_name":"California","lat":36.80003,"lng":-119.87791,"zip":"93722","miles_from_dt":23.36},{"city":"Fresno","state_name":"California","lat":36.73282,"lng":-119.78383,"zip":"93721","miles_from_dt":23.36},{"city":"Fresno","state_name":"California","lat":36.73413,"lng":-119.78463,"zip":"93764","miles_from_dt":23.38},{"city":"Fresno","state_name":"California","lat":36.73518,"lng":-119.78563,"zip":"93714","miles_from_dt":23.38},{"city":"Fresno","state_name":"California","lat":36.73497,"lng":-119.7823,"zip":"93718","miles_from_dt":23.52},{"city":"Fresno","state_name":"California","lat":36.73626,"lng":-119.78251,"zip":"93708","miles_from_dt":23.56},{"city":"Fresno","state_name":"California","lat":36.70705,"lng":-119.7535,"zip":"93745","miles_from_dt":23.64},{"city":"Fresno","state_name":"California","lat":36.74636,"lng":-119.79049,"zip":"93776","miles_from_dt":23.69},{"city":"Fresno","state_name":"California","lat":36.73581,"lng":-119.77876,"zip":"93760","miles_from_dt":23.7},{"city":"Fresno","state_name":"California","lat":36.74786,"lng":-119.79166,"zip":"93779","miles_from_dt":23.71},{"city":"Fresno","state_name":"California","lat":36.74804,"lng":-119.79175,"zip":"93772","miles_from_dt":23.71},{"city":"Fresno","state_name":"California","lat":36.74746,"lng":-119.79049,"zip":"93778","miles_from_dt":23.74},{"city":"Fresno","state_name":"California","lat":36.7497,"lng":-119.79243,"zip":"93771","miles_from_dt":23.76},{"city":"Fresno","state_name":"California","lat":36.74806,"lng":-119.78873,"zip":"93774","miles_from_dt":23.84},{"city":"Fresno","state_name":"California","lat":36.75109,"lng":-119.79,"zip":"93777","miles_from_dt":23.93},{"city":"Fresno","state_name":"California","lat":36.74955,"lng":-119.78772,"zip":"93701","miles_from_dt":23.95},{"city":"Fresno","state_name":"California","lat":36.75868,"lng":-119.79762,"zip":"93744","miles_from_dt":23.98},{"city":"Fresno","state_name":"California","lat":36.7813,"lng":-119.82717,"zip":"93792","miles_from_dt":24},{"city":"Fresno","state_name":"California","lat":36.75166,"lng":-119.78857,"zip":"93761","miles_from_dt":24.01},{"city":"Fresno","state_name":"California","lat":36.78717,"lng":-119.83021,"zip":"93793","miles_from_dt":24.2},{"city":"Fresno","state_name":"California","lat":36.78667,"lng":-119.82851,"zip":"93705","miles_from_dt":24.24},{"city":"Fresno","state_name":"California","lat":36.78797,"lng":-119.8295,"zip":"93794","miles_from_dt":24.27},{"city":"Fresno","state_name":"California","lat":36.79032,"lng":-119.82979,"zip":"93791","miles_from_dt":24.39},{"city":"Fresno","state_name":"California","lat":36.78944,"lng":-119.82761,"zip":"93790","miles_from_dt":24.42},{"city":"Fresno","state_name":"California","lat":36.76742,"lng":-119.79602,"zip":"93741","miles_from_dt":24.47},{"city":"Fresno","state_name":"California","lat":36.73942,"lng":-119.75422,"zip":"93702","miles_from_dt":24.92},{"city":"Fresno","state_name":"California","lat":36.733,"lng":-119.74711,"zip":"93775","miles_from_dt":24.96},{"city":"Fowler","state_name":"California","lat":36.62423,"lng":-119.67173,"zip":"93625","miles_from_dt":25.31},{"city":"Fresno","state_name":"California","lat":36.78737,"lng":-119.79352,"zip":"93755","miles_from_dt":25.56},{"city":"Selma","state_name":"California","lat":36.53963,"lng":-119.64287,"zip":"93662","miles_from_dt":25.85},{"city":"Fresno","state_name":"California","lat":36.76884,"lng":-119.76249,"zip":"93703","miles_from_dt":25.88},{"city":"Fresno","state_name":"California","lat":36.80012,"lng":-119.80202,"zip":"93704","miles_from_dt":25.89},{"city":"Armona","state_name":"California","lat":36.3187,"lng":-119.7076,"zip":"93202","miles_from_dt":26.04},{"city":"Fresno","state_name":"California","lat":36.83508,"lng":-119.83309,"zip":"93711","miles_from_dt":26.75},{"city":"Fresno","state_name":"California","lat":36.83387,"lng":-119.82897,"zip":"93765","miles_from_dt":26.81},{"city":"Fresno","state_name":"California","lat":36.79374,"lng":-119.76161,"zip":"93726","miles_from_dt":27.1},{"city":"Stratford","state_name":"California","lat":36.17176,"lng":-119.85628,"zip":"93266","miles_from_dt":27.51},{"city":"Madera","state_name":"California","lat":36.91099,"lng":-120.1922,"zip":"93637","miles_from_dt":27.67},{"city":"Fresno","state_name":"California","lat":36.75119,"lng":-119.69736,"zip":"93727","miles_from_dt":27.93},{"city":"Fresno","state_name":"California","lat":36.84026,"lng":-119.80038,"zip":"93650","miles_from_dt":28.1},{"city":"Fresno","state_name":"California","lat":36.83872,"lng":-119.78801,"zip":"93750","miles_from_dt":28.44},{"city":"Fresno","state_name":"California","lat":36.82335,"lng":-119.76251,"zip":"93710","miles_from_dt":28.55},{"city":"Coalinga","state_name":"California","lat":36.19519,"lng":-120.43245,"zip":"93210","miles_from_dt":28.62},{"city":"Fresno","state_name":"California","lat":36.81638,"lng":-119.74613,"zip":"93740","miles_from_dt":28.82},{"city":"Fresno","state_name":"California","lat":36.7536,"lng":-119.67814,"zip":"93888","miles_from_dt":28.9},{"city":"Fresno","state_name":"California","lat":36.75363,"lng":-119.67343,"zip":"93844","miles_from_dt":29.12},{"city":"Hanford","state_name":"California","lat":36.23565,"lng":-119.70719,"zip":"93232","miles_from_dt":29.46},{"city":"Fresno","state_name":"California","lat":36.85244,"lng":-119.76557,"zip":"93729","miles_from_dt":29.96}],"targetCityZipCode":"93627","targetCityState":"California"},"__N_SSG":true}