{"pageProps":{"stateName":"California","cityName":"hesperia","nearbyCities":[{"city":"Hesperia","state_name":"California","lat":34.36415,"lng":-117.30984,"zip":"92345","miles_from_dt":4.31},{"city":"Victorville","state_name":"California","lat":34.48307,"lng":-117.31249,"zip":"92393","miles_from_dt":4.79},{"city":"Victorville","state_name":"California","lat":34.50032,"lng":-117.29479,"zip":"92395","miles_from_dt":5.62},{"city":"Apple Valley","state_name":"California","lat":34.42005,"lng":-117.15558,"zip":"92308","miles_from_dt":6.91},{"city":"Hesperia","state_name":"California","lat":34.39176,"lng":-117.40657,"zip":"92344","miles_from_dt":7.68},{"city":"Victorville","state_name":"California","lat":34.479,"lng":-117.40884,"zip":"92392","miles_from_dt":8.57},{"city":"Victorville","state_name":"California","lat":34.563,"lng":-117.3542,"zip":"92394","miles_from_dt":10.79},{"city":"Lake Arrowhead","state_name":"California","lat":34.26824,"lng":-117.18486,"zip":"92352","miles_from_dt":11.71},{"city":"Cedarpines Park","state_name":"California","lat":34.25419,"lng":-117.32259,"zip":"92322","miles_from_dt":11.74},{"city":"Crestline","state_name":"California","lat":34.24554,"lng":-117.27506,"zip":"92325","miles_from_dt":12.04},{"city":"Twin Peaks","state_name":"California","lat":34.23958,"lng":-117.23665,"zip":"92391","miles_from_dt":12.66},{"city":"Blue Jay","state_name":"California","lat":34.24507,"lng":-117.20874,"zip":"92317","miles_from_dt":12.68},{"city":"Rimforest","state_name":"California","lat":34.23206,"lng":-117.22483,"zip":"92378","miles_from_dt":13.3},{"city":"Cedar Glen","state_name":"California","lat":34.24748,"lng":-117.14694,"zip":"92321","miles_from_dt":14.03},{"city":"Apple Valley","state_name":"California","lat":34.59078,"lng":-117.14127,"zip":"92307","miles_from_dt":14.07},{"city":"Skyforest","state_name":"California","lat":34.21345,"lng":-117.23057,"zip":"92385","miles_from_dt":14.49},{"city":"San Bernardino","state_name":"California","lat":34.22394,"lng":-117.38839,"zip":"92407","miles_from_dt":14.96},{"city":"Phelan","state_name":"California","lat":34.43837,"lng":-117.54266,"zip":"92371","miles_from_dt":15.25},{"city":"San Bernardino","state_name":"California","lat":34.19986,"lng":-117.34535,"zip":"92427","miles_from_dt":15.69},{"city":"Oro Grande","state_name":"California","lat":34.65508,"lng":-117.30893,"zip":"92368","miles_from_dt":16.29},{"city":"San Bernardino","state_name":"California","lat":34.17862,"lng":-117.23891,"zip":"92404","miles_from_dt":16.79},{"city":"Green Valley Lake","state_name":"California","lat":34.24009,"lng":-117.06798,"zip":"92341","miles_from_dt":17.22},{"city":"Running Springs","state_name":"California","lat":34.20604,"lng":-117.11276,"zip":"92382","miles_from_dt":17.49},{"city":"San Bernardino","state_name":"California","lat":34.1501,"lng":-117.25672,"zip":"92413","miles_from_dt":18.65},{"city":"San Bernardino","state_name":"California","lat":34.14578,"lng":-117.30225,"zip":"92405","miles_from_dt":18.97},{"city":"Phelan","state_name":"California","lat":34.35514,"lng":-117.60716,"zip":"92329","miles_from_dt":19.42},{"city":"Patton","state_name":"California","lat":34.13941,"lng":-117.21966,"zip":"92369","miles_from_dt":19.63},{"city":"San Bernardino","state_name":"California","lat":34.13398,"lng":-117.28625,"zip":"92406","miles_from_dt":19.74},{"city":"Rialto","state_name":"California","lat":34.15234,"lng":-117.40412,"zip":"92377","miles_from_dt":19.85},{"city":"Pinon Hills","state_name":"California","lat":34.45097,"lng":-117.62859,"zip":"92372","miles_from_dt":20.21},{"city":"Lytle Creek","state_name":"California","lat":34.24624,"lng":-117.56762,"zip":"92358","miles_from_dt":20.51},{"city":"San Bernardino","state_name":"California","lat":34.12214,"lng":-117.32291,"zip":"92411","miles_from_dt":20.72},{"city":"Fawnskin","state_name":"California","lat":34.26951,"lng":-116.96277,"zip":"92333","miles_from_dt":20.73},{"city":"Highland","state_name":"California","lat":34.12629,"lng":-117.1792,"zip":"92346","miles_from_dt":21.01},{"city":"Adelanto","state_name":"California","lat":34.65183,"lng":-117.52617,"zip":"92301","miles_from_dt":21.39},{"city":"San Bernardino","state_name":"California","lat":34.10712,"lng":-117.29236,"zip":"92423","miles_from_dt":21.6},{"city":"San Bernardino","state_name":"California","lat":34.10655,"lng":-117.29574,"zip":"92410","miles_from_dt":21.65},{"city":"San Bernardino","state_name":"California","lat":34.10586,"lng":-117.29188,"zip":"92401","miles_from_dt":21.69},{"city":"San Bernardino","state_name":"California","lat":34.10506,"lng":-117.28685,"zip":"92415","miles_from_dt":21.73},{"city":"San Bernardino","state_name":"California","lat":34.10415,"lng":-117.29075,"zip":"92418","miles_from_dt":21.8},{"city":"San Bernardino","state_name":"California","lat":34.10213,"lng":-117.26926,"zip":"92403","miles_from_dt":21.93},{"city":"Rialto","state_name":"California","lat":34.11053,"lng":-117.37997,"zip":"92376","miles_from_dt":22.15},{"city":"Fontana","state_name":"California","lat":34.13686,"lng":-117.46033,"zip":"92336","miles_from_dt":22.18},{"city":"Rancho Cucamonga","state_name":"California","lat":34.1622,"lng":-117.51558,"zip":"91739","miles_from_dt":22.43},{"city":"Lucerne Valley","state_name":"California","lat":34.49633,"lng":-116.89265,"zip":"92356","miles_from_dt":22.54},{"city":"Big Bear Lake","state_name":"California","lat":34.22011,"lng":-116.95301,"zip":"92315","miles_from_dt":23.08},{"city":"San Bernardino","state_name":"California","lat":34.0845,"lng":-117.2653,"zip":"92408","miles_from_dt":23.15},{"city":"Fontana","state_name":"California","lat":34.104,"lng":-117.436,"zip":"92331","miles_from_dt":23.63},{"city":"Helendale","state_name":"California","lat":34.76078,"lng":-117.33795,"zip":"92342","miles_from_dt":23.73},{"city":"Wrightwood","state_name":"California","lat":34.36212,"lng":-117.69136,"zip":"92397","miles_from_dt":24.04},{"city":"Redlands","state_name":"California","lat":34.06738,"lng":-117.17482,"zip":"92374","miles_from_dt":25.01},{"city":"Redlands","state_name":"California","lat":34.06281,"lng":-117.19559,"zip":"92375","miles_from_dt":25.07},{"city":"Rancho Cucamonga","state_name":"California","lat":34.15523,"lng":-117.57808,"zip":"91737","miles_from_dt":25.12},{"city":"Loma Linda","state_name":"California","lat":34.05461,"lng":-117.25281,"zip":"92357","miles_from_dt":25.24},{"city":"Loma Linda","state_name":"California","lat":34.05296,"lng":-117.2617,"zip":"92350","miles_from_dt":25.33},{"city":"Fontana","state_name":"California","lat":34.08733,"lng":-117.46519,"zip":"92335","miles_from_dt":25.36},{"city":"Loma Linda","state_name":"California","lat":34.04933,"lng":-117.25119,"zip":"92354","miles_from_dt":25.61},{"city":"Bryn Mawr","state_name":"California","lat":34.04837,"lng":-117.23367,"zip":"92318","miles_from_dt":25.75},{"city":"San Bernardino","state_name":"California","lat":34.07896,"lng":-117.4624,"zip":"92402","miles_from_dt":25.81},{"city":"Bloomington","state_name":"California","lat":34.0576,"lng":-117.39076,"zip":"92316","miles_from_dt":25.83},{"city":"Mentone","state_name":"California","lat":34.08296,"lng":-117.07026,"zip":"92359","miles_from_dt":26.07},{"city":"Fontana","state_name":"California","lat":34.07503,"lng":-117.46902,"zip":"92334","miles_from_dt":26.22},{"city":"Mt Baldy","state_name":"California","lat":34.2541,"lng":-117.69194,"zip":"91759","miles_from_dt":26.37},{"city":"Colton","state_name":"California","lat":34.03398,"lng":-117.29008,"zip":"92324","miles_from_dt":26.63},{"city":"Rancho Cucamonga","state_name":"California","lat":34.13784,"lng":-117.60028,"zip":"91701","miles_from_dt":26.87},{"city":"Grand Terrace","state_name":"California","lat":34.03142,"lng":-117.31373,"zip":"92313","miles_from_dt":26.88},{"city":"Rancho Cucamonga","state_name":"California","lat":34.09836,"lng":-117.56304,"zip":"91729","miles_from_dt":27.59},{"city":"Llano","state_name":"California","lat":34.49063,"lng":-117.75505,"zip":"93544","miles_from_dt":27.75},{"city":"Fontana","state_name":"California","lat":34.04967,"lng":-117.47145,"zip":"92337","miles_from_dt":27.87},{"city":"Rancho Cucamonga","state_name":"California","lat":34.10023,"lng":-117.5811,"zip":"91730","miles_from_dt":28.11},{"city":"Sugarloaf","state_name":"California","lat":34.23702,"lng":-116.82523,"zip":"92386","miles_from_dt":28.73},{"city":"Upland","state_name":"California","lat":34.14103,"lng":-117.65831,"zip":"91784","miles_from_dt":29.11},{"city":"Redlands","state_name":"California","lat":34.00648,"lng":-117.15351,"zip":"92373","miles_from_dt":29.38},{"city":"Big Bear City","state_name":"California","lat":34.2576,"lng":-116.80075,"zip":"92314","miles_from_dt":29.42},{"city":"Riverside","state_name":"California","lat":33.99496,"lng":-117.37367,"zip":"92501","miles_from_dt":29.83}],"targetCityZipCode":"92340","targetCityState":"California"},"__N_SSG":true}