{"pageProps":{"stateName":"California","cityName":"holt","nearbyCities":[{"city":"Stockton","state_name":"California","lat":37.95595,"lng":-121.44167,"zip":"95208","miles_from_dt":2.05},{"city":"Stockton","state_name":"California","lat":37.95579,"lng":-121.43856,"zip":"95213","miles_from_dt":2.07},{"city":"Stockton","state_name":"California","lat":37.8961,"lng":-121.41051,"zip":"95206","miles_from_dt":2.83},{"city":"Stockton","state_name":"California","lat":37.97294,"lng":-121.44196,"zip":"95214","miles_from_dt":3.22},{"city":"Stockton","state_name":"California","lat":37.95237,"lng":-121.33098,"zip":"95203","miles_from_dt":6.51},{"city":"Stockton","state_name":"California","lat":38.0207,"lng":-121.51584,"zip":"95219","miles_from_dt":7.56},{"city":"Stockton","state_name":"California","lat":37.97403,"lng":-121.31906,"zip":"95204","miles_from_dt":7.65},{"city":"Stockton","state_name":"California","lat":37.97084,"lng":-121.30788,"zip":"95297","miles_from_dt":8.12},{"city":"Stockton","state_name":"California","lat":37.98078,"lng":-121.31198,"zip":"95211","miles_from_dt":8.2},{"city":"Stockton","state_name":"California","lat":38.00242,"lng":-121.325,"zip":"95207","miles_from_dt":8.42},{"city":"Stockton","state_name":"California","lat":38.00382,"lng":-121.31904,"zip":"95267","miles_from_dt":8.73},{"city":"Discovery Bay","state_name":"California","lat":37.86638,"lng":-121.5868,"zip":"94505","miles_from_dt":8.76},{"city":"Stockton","state_name":"California","lat":37.95968,"lng":-121.28772,"zip":"95202","miles_from_dt":8.92},{"city":"French Camp","state_name":"California","lat":37.87331,"lng":-121.29272,"zip":"95231","miles_from_dt":9.12},{"city":"Stockton","state_name":"California","lat":38.01899,"lng":-121.32225,"zip":"95269","miles_from_dt":9.28},{"city":"Stockton","state_name":"California","lat":38.04717,"lng":-121.35121,"zip":"95209","miles_from_dt":9.8},{"city":"Stockton","state_name":"California","lat":37.96425,"lng":-121.25955,"zip":"95205","miles_from_dt":10.49},{"city":"Tracy","state_name":"California","lat":37.79914,"lng":-121.55177,"zip":"95378","miles_from_dt":10.52},{"city":"Stockton","state_name":"California","lat":38.02598,"lng":-121.29727,"zip":"95296","miles_from_dt":10.62},{"city":"Lathrop","state_name":"California","lat":37.8117,"lng":-121.31331,"zip":"95330","miles_from_dt":10.71},{"city":"Stockton","state_name":"California","lat":38.03215,"lng":-121.29782,"zip":"95210","miles_from_dt":10.87},{"city":"Knightsen","state_name":"California","lat":37.97481,"lng":-121.65265,"zip":"94548","miles_from_dt":11.8},{"city":"Stockton","state_name":"California","lat":37.90688,"lng":-121.2234,"zip":"95201","miles_from_dt":12.21},{"city":"Byron","state_name":"California","lat":37.83071,"lng":-121.63392,"zip":"94514","miles_from_dt":12.23},{"city":"Bethel Island","state_name":"California","lat":38.02883,"lng":-121.64039,"zip":"94511","miles_from_dt":12.77},{"city":"Brentwood","state_name":"California","lat":37.92541,"lng":-121.68452,"zip":"94513","miles_from_dt":13.06},{"city":"Tracy","state_name":"California","lat":37.73678,"lng":-121.43404,"zip":"95376","miles_from_dt":13.09},{"city":"Tracy","state_name":"California","lat":37.76952,"lng":-121.5912,"zip":"95391","miles_from_dt":13.43},{"city":"Oakley","state_name":"California","lat":37.99311,"lng":-121.69172,"zip":"94561","miles_from_dt":14.21},{"city":"Lodi","state_name":"California","lat":38.13204,"lng":-121.38875,"zip":"95242","miles_from_dt":14.52},{"city":"Stockton","state_name":"California","lat":38.04897,"lng":-121.22684,"zip":"95212","miles_from_dt":14.63},{"city":"Manteca","state_name":"California","lat":37.83351,"lng":-121.1988,"zip":"95336","miles_from_dt":14.93},{"city":"Stockton","state_name":"California","lat":37.9444,"lng":-121.15276,"zip":"95215","miles_from_dt":16.04},{"city":"Manteca","state_name":"California","lat":37.74171,"lng":-121.23834,"zip":"95337","miles_from_dt":17.05},{"city":"Lodi","state_name":"California","lat":38.15244,"lng":-121.30635,"zip":"95241","miles_from_dt":17.34},{"city":"Tracy","state_name":"California","lat":37.6773,"lng":-121.3948,"zip":"95304","miles_from_dt":17.4},{"city":"Isleton","state_name":"California","lat":38.15046,"lng":-121.60271,"zip":"95641","miles_from_dt":17.68},{"city":"Woodbridge","state_name":"California","lat":38.16811,"lng":-121.31011,"zip":"95258","miles_from_dt":18.24},{"city":"Antioch","state_name":"California","lat":37.95665,"lng":-121.77777,"zip":"94531","miles_from_dt":18.27},{"city":"Thornton","state_name":"California","lat":38.19039,"lng":-121.48543,"zip":"95686","miles_from_dt":18.34},{"city":"Tracy","state_name":"California","lat":37.65293,"lng":-121.49598,"zip":"95377","miles_from_dt":19.06},{"city":"Lodi","state_name":"California","lat":38.1177,"lng":-121.1627,"zip":"95240","miles_from_dt":20.3},{"city":"Victor","state_name":"California","lat":38.14725,"lng":-121.19525,"zip":"95253","miles_from_dt":20.46},{"city":"Antioch","state_name":"California","lat":37.99214,"lng":-121.8142,"zip":"94509","miles_from_dt":20.64},{"city":"Livermore","state_name":"California","lat":37.75902,"lng":-121.76026,"zip":"94551","miles_from_dt":20.72},{"city":"Ripon","state_name":"California","lat":37.76223,"lng":-121.12574,"zip":"95366","miles_from_dt":20.83},{"city":"Acampo","state_name":"California","lat":38.19779,"lng":-121.23603,"zip":"95220","miles_from_dt":21.93},{"city":"Walnut Grove","state_name":"California","lat":38.23429,"lng":-121.58672,"zip":"95690","miles_from_dt":22.59},{"city":"Lockeford","state_name":"California","lat":38.15953,"lng":-121.14845,"zip":"95237","miles_from_dt":22.83},{"city":"Ryde","state_name":"California","lat":38.24142,"lng":-121.57816,"zip":"95680","miles_from_dt":22.9},{"city":"Rio Vista","state_name":"California","lat":38.1566,"lng":-121.7482,"zip":"94571","miles_from_dt":22.91},{"city":"Linden","state_name":"California","lat":38.04218,"lng":-121.03176,"zip":"95236","miles_from_dt":23.96},{"city":"Clayton","state_name":"California","lat":37.8926,"lng":-121.88252,"zip":"94517","miles_from_dt":23.99},{"city":"Vernalis","state_name":"California","lat":37.612,"lng":-121.24773,"zip":"95385","miles_from_dt":24.23},{"city":"Salida","state_name":"California","lat":37.71544,"lng":-121.09047,"zip":"95368","miles_from_dt":24.27},{"city":"Escalon","state_name":"California","lat":37.82453,"lng":-121.01545,"zip":"95320","miles_from_dt":24.54},{"city":"Birds Landing","state_name":"California","lat":38.1263,"lng":-121.83793,"zip":"94512","miles_from_dt":25.47},{"city":"Galt","state_name":"California","lat":38.27705,"lng":-121.26128,"zip":"95632","miles_from_dt":26.19},{"city":"Danville","state_name":"California","lat":37.80862,"lng":-121.90498,"zip":"94506","miles_from_dt":26.4},{"city":"Modesto","state_name":"California","lat":37.71945,"lng":-121.02786,"zip":"95356","miles_from_dt":26.94},{"city":"Pittsburg","state_name":"California","lat":38.00926,"lng":-121.92886,"zip":"94565","miles_from_dt":27},{"city":"Courtland","state_name":"California","lat":38.31113,"lng":-121.54595,"zip":"95615","miles_from_dt":27.1},{"city":"Pleasanton","state_name":"California","lat":37.73801,"lng":-121.88178,"zip":"94588","miles_from_dt":27.17},{"city":"Westley","state_name":"California","lat":37.55429,"lng":-121.2451,"zip":"95387","miles_from_dt":27.91},{"city":"San Ramon","state_name":"California","lat":37.76357,"lng":-121.91469,"zip":"94582","miles_from_dt":28.01},{"city":"Elk Grove","state_name":"California","lat":38.33886,"lng":-121.43643,"zip":"95757","miles_from_dt":28.46},{"city":"Modesto","state_name":"California","lat":37.61578,"lng":-121.10059,"zip":"95358","miles_from_dt":28.55},{"city":"Diablo","state_name":"California","lat":37.84149,"lng":-121.95819,"zip":"94528","miles_from_dt":28.63},{"city":"Concord","state_name":"California","lat":37.95293,"lng":-121.96971,"zip":"94521","miles_from_dt":28.69},{"city":"Dublin","state_name":"California","lat":37.71596,"lng":-121.90113,"zip":"94568","miles_from_dt":28.84},{"city":"Clements","state_name":"California","lat":38.20678,"lng":-121.04615,"zip":"95227","miles_from_dt":29.13},{"city":"Livermore","state_name":"California","lat":37.51746,"lng":-121.59406,"zip":"94550","miles_from_dt":29.35},{"city":"Walnut Creek","state_name":"California","lat":37.89238,"lng":-121.98283,"zip":"94598","miles_from_dt":29.45},{"city":"Pleasanton","state_name":"California","lat":37.65032,"lng":-121.85881,"zip":"94566","miles_from_dt":29.57},{"city":"Modesto","state_name":"California","lat":37.67175,"lng":-121.00732,"zip":"95350","miles_from_dt":29.72}],"targetCityZipCode":"95234","targetCityState":"California"},"__N_SSG":true}