{"pageProps":{"stateName":"California","cityName":"inyokern","nearbyCities":[{"city":"Onyx","state_name":"California","lat":35.68292,"lng":-118.0798,"zip":"93255","miles_from_dt":9.84},{"city":"Little Lake","state_name":"California","lat":35.93693,"lng":-117.90796,"zip":"93542","miles_from_dt":10.2},{"city":"Ridgecrest","state_name":"California","lat":35.62307,"lng":-117.67036,"zip":"93556","miles_from_dt":21.61},{"city":"Ridgecrest","state_name":"California","lat":35.58596,"lng":-117.68446,"zip":"93555","miles_from_dt":22.57},{"city":"Weldon","state_name":"California","lat":35.58478,"lng":-118.28854,"zip":"93283","miles_from_dt":22.75},{"city":"Kernville","state_name":"California","lat":35.82799,"lng":-118.47137,"zip":"93238","miles_from_dt":27.36},{"city":"Lake Isabella","state_name":"California","lat":35.62425,"lng":-118.4645,"zip":"93240","miles_from_dt":29.64},{"city":"Wofford Heights","state_name":"California","lat":35.72233,"lng":-118.50871,"zip":"93285","miles_from_dt":29.95}],"targetCityZipCode":"93527","targetCityState":"California"},"__N_SSG":true}