{"pageProps":{"stateName":"California","cityName":"janesville","nearbyCities":[{"city":"Standish","state_name":"California","lat":40.34948,"lng":-120.40198,"zip":"96128","miles_from_dt":6.15},{"city":"Milford","state_name":"California","lat":40.16938,"lng":-120.37659,"zip":"96121","miles_from_dt":10.62},{"city":"Susanville","state_name":"California","lat":40.41737,"lng":-120.64901,"zip":"96127","miles_from_dt":11.8},{"city":"Susanville","state_name":"California","lat":40.54992,"lng":-120.63064,"zip":"96130","miles_from_dt":19.05},{"city":"Wendel","state_name":"California","lat":40.31263,"lng":-120.12425,"zip":"96136","miles_from_dt":19.55},{"city":"Herlong","state_name":"California","lat":40.18577,"lng":-120.14609,"zip":"96113","miles_from_dt":19.85},{"city":"Greenville","state_name":"California","lat":40.15942,"lng":-120.84409,"zip":"95947","miles_from_dt":20.75},{"city":"Taylorsville","state_name":"California","lat":40.05827,"lng":-120.73897,"zip":"95983","miles_from_dt":20.84},{"city":"Litchfield","state_name":"California","lat":40.54556,"lng":-120.23978,"zip":"96117","miles_from_dt":21.89},{"city":"Crescent Mills","state_name":"California","lat":40.07463,"lng":-120.93108,"zip":"95934","miles_from_dt":27.68},{"city":"Doyle","state_name":"California","lat":39.99747,"lng":-120.09521,"zip":"96109","miles_from_dt":29.41}],"targetCityZipCode":"96114","targetCityState":"California"},"__N_SSG":true}