{"pageProps":{"stateName":"California","cityName":"joshua-tree","nearbyCities":[{"city":"Yucca Valley","state_name":"California","lat":34.18497,"lng":-116.40663,"zip":"92286","miles_from_dt":7.46},{"city":"Yucca Valley","state_name":"California","lat":34.16013,"lng":-116.42474,"zip":"92284","miles_from_dt":8.1},{"city":"Twentynine Palms","state_name":"California","lat":34.23505,"lng":-116.05825,"zip":"92278","miles_from_dt":14.27},{"city":"Pioneertown","state_name":"California","lat":34.16146,"lng":-116.55002,"zip":"92268","miles_from_dt":15.26},{"city":"Landers","state_name":"California","lat":34.33762,"lng":-116.51364,"zip":"92285","miles_from_dt":18.53},{"city":"Desert Hot Springs","state_name":"California","lat":33.95291,"lng":-116.5194,"zip":"92240","miles_from_dt":19.05},{"city":"Morongo Valley","state_name":"California","lat":34.07207,"lng":-116.61761,"zip":"92256","miles_from_dt":19.82},{"city":"Desert Hot Springs","state_name":"California","lat":33.84634,"lng":-116.28342,"zip":"92241","miles_from_dt":20.79},{"city":"North Palm Springs","state_name":"California","lat":33.91791,"lng":-116.56002,"zip":"92258","miles_from_dt":22.41},{"city":"Thousand Palms","state_name":"California","lat":33.83234,"lng":-116.38648,"zip":"92276","miles_from_dt":22.54},{"city":"Palm Springs","state_name":"California","lat":33.87589,"lng":-116.56629,"zip":"92263","miles_from_dt":24.78},{"city":"Whitewater","state_name":"California","lat":33.96253,"lng":-116.65829,"zip":"92282","miles_from_dt":24.98},{"city":"Palm Springs","state_name":"California","lat":33.86287,"lng":-116.55736,"zip":"92262","miles_from_dt":25.14},{"city":"Cathedral City","state_name":"California","lat":33.81386,"lng":-116.46663,"zip":"92234","miles_from_dt":25.3},{"city":"Palm Desert","state_name":"California","lat":33.76593,"lng":-116.33241,"zip":"92211","miles_from_dt":26.48},{"city":"Cathedral City","state_name":"California","lat":33.78061,"lng":-116.46127,"zip":"92235","miles_from_dt":27.29},{"city":"Indio","state_name":"California","lat":33.75159,"lng":-116.24139,"zip":"92203","miles_from_dt":27.43},{"city":"Rancho Mirage","state_name":"California","lat":33.76399,"lng":-116.42705,"zip":"92270","miles_from_dt":27.71},{"city":"Palm Desert","state_name":"California","lat":33.74676,"lng":-116.36651,"zip":"92255","miles_from_dt":28.06}],"targetCityZipCode":"92252","targetCityState":"California"},"__N_SSG":true}