{"pageProps":{"stateName":"California","cityName":"king-city","nearbyCities":[{"city":"San Lucas","state_name":"California","lat":36.16434,"lng":-120.92441,"zip":"93954","miles_from_dt":8.64},{"city":"Lockwood","state_name":"California","lat":36.00143,"lng":-121.05757,"zip":"93932","miles_from_dt":13.67},{"city":"San Ardo","state_name":"California","lat":36.05791,"lng":-120.82894,"zip":"93450","miles_from_dt":16.76},{"city":"Greenfield","state_name":"California","lat":36.26978,"lng":-121.38018,"zip":"93927","miles_from_dt":17.84},{"city":"Jolon","state_name":"California","lat":36.06484,"lng":-121.38102,"zip":"93928","miles_from_dt":19.57},{"city":"Soledad","state_name":"California","lat":36.40489,"lng":-121.32121,"zip":"93960","miles_from_dt":19.83},{"city":"Paicines","state_name":"California","lat":36.51652,"lng":-120.97677,"zip":"95043","miles_from_dt":22.52},{"city":"Bradley","state_name":"California","lat":35.84682,"lng":-120.97233,"zip":"93426","miles_from_dt":24.94},{"city":"Big Sur","state_name":"California","lat":36.03164,"lng":-121.52592,"zip":"93920","miles_from_dt":27.86},{"city":"Gonzales","state_name":"California","lat":36.52567,"lng":-121.3991,"zip":"93926","miles_from_dt":28.94}],"targetCityZipCode":"93930","targetCityState":"California"},"__N_SSG":true}