{"pageProps":{"stateName":"California","cityName":"knights-landing","nearbyCities":[{"city":"Robbins","state_name":"California","lat":38.87224,"lng":-121.71664,"zip":"95676","miles_from_dt":4.66},{"city":"Zamora","state_name":"California","lat":38.8187,"lng":-121.91012,"zip":"95698","miles_from_dt":7.73},{"city":"Dunnigan","state_name":"California","lat":38.88403,"lng":-121.99847,"zip":"95937","miles_from_dt":10.71},{"city":"Yolo","state_name":"California","lat":38.73284,"lng":-121.80701,"zip":"95697","miles_from_dt":10.86},{"city":"Meridian","state_name":"California","lat":39.05366,"lng":-121.82379,"zip":"95957","miles_from_dt":11.35},{"city":"Nicolaus","state_name":"California","lat":38.84594,"lng":-121.57679,"zip":"95659","miles_from_dt":12.41},{"city":"Grimes","state_name":"California","lat":39.05144,"lng":-121.92196,"zip":"95950","miles_from_dt":12.92},{"city":"Yuba City","state_name":"California","lat":39.02205,"lng":-121.61317,"zip":"95991","miles_from_dt":13.56},{"city":"Yuba City","state_name":"California","lat":39.0236,"lng":-121.60704,"zip":"95992","miles_from_dt":13.88},{"city":"Woodland","state_name":"California","lat":38.68847,"lng":-121.85666,"zip":"95695","miles_from_dt":14.25},{"city":"Yuba City","state_name":"California","lat":39.08171,"lng":-121.68798,"zip":"95993","miles_from_dt":14.52},{"city":"Woodland","state_name":"California","lat":38.68889,"lng":-121.70776,"zip":"95776","miles_from_dt":14.75},{"city":"Esparto","state_name":"California","lat":38.72936,"lng":-122.00959,"zip":"95627","miles_from_dt":15.85},{"city":"Olivehurst","state_name":"California","lat":39.03343,"lng":-121.55754,"zip":"95961","miles_from_dt":16.37},{"city":"Arbuckle","state_name":"California","lat":39.0016,"lng":-122.07462,"zip":"95912","miles_from_dt":16.67},{"city":"Madison","state_name":"California","lat":38.69151,"lng":-121.97723,"zip":"95653","miles_from_dt":16.72},{"city":"Pleasant Grove","state_name":"California","lat":38.82708,"lng":-121.49378,"zip":"95668","miles_from_dt":17.08},{"city":"Rio Oso","state_name":"California","lat":38.95396,"lng":-121.48187,"zip":"95674","miles_from_dt":17.69},{"city":"Sacramento","state_name":"California","lat":38.68925,"lng":-121.59537,"zip":"95837","miles_from_dt":17.73},{"city":"Capay","state_name":"California","lat":38.7899,"lng":-122.12585,"zip":"95607","miles_from_dt":18.9},{"city":"Sacramento","state_name":"California","lat":38.70406,"lng":-121.53555,"zip":"95836","miles_from_dt":19.2},{"city":"Elverta","state_name":"California","lat":38.73378,"lng":-121.48898,"zip":"95626","miles_from_dt":19.95},{"city":"Sutter","state_name":"California","lat":39.18051,"lng":-121.80746,"zip":"95982","miles_from_dt":20.03},{"city":"Sacramento","state_name":"California","lat":38.67088,"lng":-121.52464,"zip":"95835","miles_from_dt":21.21},{"city":"West Sacramento","state_name":"California","lat":38.62394,"lng":-121.58272,"zip":"95691","miles_from_dt":21.8},{"city":"Rio Linda","state_name":"California","lat":38.69029,"lng":-121.46603,"zip":"95673","miles_from_dt":22.7},{"city":"Sacramento","state_name":"California","lat":38.64207,"lng":-121.51967,"zip":"95834","miles_from_dt":22.85},{"city":"Davis","state_name":"California","lat":38.55819,"lng":-121.80044,"zip":"95616","miles_from_dt":22.91},{"city":"Brooks","state_name":"California","lat":38.75604,"lng":-122.19387,"zip":"95606","miles_from_dt":23.19},{"city":"Wheatland","state_name":"California","lat":39.04699,"lng":-121.40471,"zip":"95692","miles_from_dt":23.87},{"city":"Davis","state_name":"California","lat":38.5477,"lng":-121.72218,"zip":"95617","miles_from_dt":24},{"city":"Sacramento","state_name":"California","lat":38.61529,"lng":-121.51558,"zip":"95833","miles_from_dt":24.4},{"city":"Roseville","state_name":"California","lat":38.77963,"lng":-121.36798,"zip":"95747","miles_from_dt":24.52},{"city":"Davis","state_name":"California","lat":38.54348,"lng":-121.6917,"zip":"95618","miles_from_dt":24.62},{"city":"Live Oak","state_name":"California","lat":39.25018,"lng":-121.77309,"zip":"95953","miles_from_dt":24.87},{"city":"West Sacramento","state_name":"California","lat":38.59289,"lng":-121.53929,"zip":"95605","miles_from_dt":24.88},{"city":"Sheridan","state_name":"California","lat":38.99809,"lng":-121.35422,"zip":"95681","miles_from_dt":25.14},{"city":"Rumsey","state_name":"California","lat":38.90524,"lng":-122.26727,"zip":"95679","miles_from_dt":25.21},{"city":"Winters","state_name":"California","lat":38.56163,"lng":-122.00609,"zip":"95694","miles_from_dt":25.26},{"city":"West Sacramento","state_name":"California","lat":38.57492,"lng":-121.56186,"zip":"95798","miles_from_dt":25.27},{"city":"Sacramento","state_name":"California","lat":38.64708,"lng":-121.44312,"zip":"95838","miles_from_dt":25.55},{"city":"Guinda","state_name":"California","lat":38.85283,"lng":-122.2729,"zip":"95637","miles_from_dt":25.64},{"city":"Sacramento","state_name":"California","lat":38.58071,"lng":-121.52656,"zip":"95899","miles_from_dt":25.96},{"city":"Antelope","state_name":"California","lat":38.71532,"lng":-121.36366,"zip":"95843","miles_from_dt":26.46},{"city":"Lincoln","state_name":"California","lat":38.92643,"lng":-121.31101,"zip":"95648","miles_from_dt":26.47},{"city":"Sacramento","state_name":"California","lat":38.58712,"lng":-121.49513,"zip":"94229","miles_from_dt":26.61},{"city":"Sacramento","state_name":"California","lat":38.588,"lng":-121.49379,"zip":"94244","miles_from_dt":26.61},{"city":"Sacramento","state_name":"California","lat":38.58712,"lng":-121.49448,"zip":"94273","miles_from_dt":26.64},{"city":"Sacramento","state_name":"California","lat":38.58628,"lng":-121.49546,"zip":"94211","miles_from_dt":26.65},{"city":"Mcclellan","state_name":"California","lat":38.66265,"lng":-121.40079,"zip":"95652","miles_from_dt":26.66},{"city":"Sacramento","state_name":"California","lat":38.58643,"lng":-121.49504,"zip":"94247","miles_from_dt":26.66},{"city":"Sacramento","state_name":"California","lat":38.5862,"lng":-121.49532,"zip":"94252","miles_from_dt":26.66},{"city":"Sacramento","state_name":"California","lat":38.58712,"lng":-121.49327,"zip":"94257","miles_from_dt":26.68},{"city":"Sacramento","state_name":"California","lat":38.58645,"lng":-121.49408,"zip":"94274","miles_from_dt":26.69},{"city":"Sacramento","state_name":"California","lat":38.58606,"lng":-121.49445,"zip":"94234","miles_from_dt":26.69},{"city":"Sacramento","state_name":"California","lat":38.58568,"lng":-121.49456,"zip":"94279","miles_from_dt":26.71},{"city":"Sacramento","state_name":"California","lat":38.58528,"lng":-121.49496,"zip":"94258","miles_from_dt":26.72},{"city":"Sacramento","state_name":"California","lat":38.58646,"lng":-121.49303,"zip":"94248","miles_from_dt":26.72},{"city":"Sacramento","state_name":"California","lat":38.58529,"lng":-121.49479,"zip":"94240","miles_from_dt":26.73},{"city":"Sacramento","state_name":"California","lat":38.58719,"lng":-121.49154,"zip":"94245","miles_from_dt":26.73},{"city":"Sacramento","state_name":"California","lat":38.58761,"lng":-121.49077,"zip":"95811","miles_from_dt":26.73},{"city":"Sacramento","state_name":"California","lat":38.5858,"lng":-121.49353,"zip":"94287","miles_from_dt":26.74},{"city":"Sacramento","state_name":"California","lat":38.58447,"lng":-121.49525,"zip":"94235","miles_from_dt":26.75},{"city":"Sacramento","state_name":"California","lat":38.58481,"lng":-121.49489,"zip":"94208","miles_from_dt":26.75},{"city":"Sacramento","state_name":"California","lat":38.58708,"lng":-121.49081,"zip":"94289","miles_from_dt":26.76},{"city":"Sacramento","state_name":"California","lat":38.58547,"lng":-121.49331,"zip":"94237","miles_from_dt":26.77},{"city":"Sacramento","state_name":"California","lat":38.58499,"lng":-121.49367,"zip":"94261","miles_from_dt":26.78},{"city":"Sacramento","state_name":"California","lat":38.58486,"lng":-121.49372,"zip":"95867","miles_from_dt":26.78},{"city":"Sacramento","state_name":"California","lat":38.58452,"lng":-121.49449,"zip":"94282","miles_from_dt":26.78},{"city":"Sacramento","state_name":"California","lat":38.58435,"lng":-121.49376,"zip":"94203","miles_from_dt":26.81},{"city":"Sacramento","state_name":"California","lat":38.58402,"lng":-121.49442,"zip":"94298","miles_from_dt":26.81},{"city":"Sacramento","state_name":"California","lat":38.58358,"lng":-121.4943,"zip":"94256","miles_from_dt":26.83},{"city":"Sacramento","state_name":"California","lat":38.58508,"lng":-121.49197,"zip":"94254","miles_from_dt":26.83},{"city":"Sacramento","state_name":"California","lat":38.58407,"lng":-121.49328,"zip":"94295","miles_from_dt":26.84},{"city":"Sacramento","state_name":"California","lat":38.58508,"lng":-121.49166,"zip":"94263","miles_from_dt":26.84},{"city":"Sacramento","state_name":"California","lat":38.58193,"lng":-121.49635,"zip":"95812","miles_from_dt":26.86},{"city":"Sacramento","state_name":"California","lat":38.58354,"lng":-121.49338,"zip":"94209","miles_from_dt":26.87},{"city":"Sacramento","state_name":"California","lat":38.58381,"lng":-121.49215,"zip":"94262","miles_from_dt":26.89},{"city":"Sacramento","state_name":"California","lat":38.58232,"lng":-121.49447,"zip":"94280","miles_from_dt":26.9},{"city":"Sacramento","state_name":"California","lat":38.58521,"lng":-121.48958,"zip":"94277","miles_from_dt":26.9},{"city":"North Highlands","state_name":"California","lat":38.67883,"lng":-121.3805,"zip":"95660","miles_from_dt":26.93},{"city":"Sacramento","state_name":"California","lat":38.58219,"lng":-121.49289,"zip":"94288","miles_from_dt":26.96},{"city":"Sacramento","state_name":"California","lat":38.58321,"lng":-121.49129,"zip":"94271","miles_from_dt":26.96},{"city":"Sacramento","state_name":"California","lat":38.58371,"lng":-121.49023,"zip":"95840","miles_from_dt":26.96},{"city":"Sacramento","state_name":"California","lat":38.5832,"lng":-121.49086,"zip":"94236","miles_from_dt":26.97},{"city":"Sacramento","state_name":"California","lat":38.58064,"lng":-121.49488,"zip":"95814","miles_from_dt":26.98},{"city":"Sacramento","state_name":"California","lat":38.58246,"lng":-121.49182,"zip":"94268","miles_from_dt":26.98},{"city":"Sacramento","state_name":"California","lat":38.5828,"lng":-121.49057,"zip":"94267","miles_from_dt":27},{"city":"Sacramento","state_name":"California","lat":38.58162,"lng":-121.4915,"zip":"94250","miles_from_dt":27.03},{"city":"Sacramento","state_name":"California","lat":38.58169,"lng":-121.48869,"zip":"94207","miles_from_dt":27.12},{"city":"Sacramento","state_name":"California","lat":38.57092,"lng":-121.50291,"zip":"94296","miles_from_dt":27.25},{"city":"Sacramento","state_name":"California","lat":38.6073,"lng":-121.44317,"zip":"95853","miles_from_dt":27.43},{"city":"West Sacramento","state_name":"California","lat":38.54078,"lng":-121.557,"zip":"95799","miles_from_dt":27.45},{"city":"Sacramento","state_name":"California","lat":38.60544,"lng":-121.44497,"zip":"95815","miles_from_dt":27.45},{"city":"Sacramento","state_name":"California","lat":38.6081,"lng":-121.44154,"zip":"95851","miles_from_dt":27.45},{"city":"Sacramento","state_name":"California","lat":38.60282,"lng":-121.44588,"zip":"94204","miles_from_dt":27.55},{"city":"Sacramento","state_name":"California","lat":38.60559,"lng":-121.44143,"zip":"95852","miles_from_dt":27.58},{"city":"Beale Afb","state_name":"California","lat":39.11337,"lng":-121.37192,"zip":"95903","miles_from_dt":27.71},{"city":"Sacramento","state_name":"California","lat":38.55905,"lng":-121.49722,"zip":"94291","miles_from_dt":28.1},{"city":"Sacramento","state_name":"California","lat":38.687,"lng":-121.34889,"zip":"95842","miles_from_dt":28.1},{"city":"Sacramento","state_name":"California","lat":38.55871,"lng":-121.49752,"zip":"94259","miles_from_dt":28.11},{"city":"Sacramento","state_name":"California","lat":38.57426,"lng":-121.46893,"zip":"94278","miles_from_dt":28.19},{"city":"Sacramento","state_name":"California","lat":38.55668,"lng":-121.49807,"zip":"95894","miles_from_dt":28.2},{"city":"Sacramento","state_name":"California","lat":38.55543,"lng":-121.49926,"zip":"94290","miles_from_dt":28.24},{"city":"Sacramento","state_name":"California","lat":38.57555,"lng":-121.46543,"zip":"95816","miles_from_dt":28.25},{"city":"Sacramento","state_name":"California","lat":38.55651,"lng":-121.49648,"zip":"94239","miles_from_dt":28.26},{"city":"Sacramento","state_name":"California","lat":38.5532,"lng":-121.50148,"zip":"94284","miles_from_dt":28.29},{"city":"Colusa","state_name":"California","lat":39.26839,"lng":-122.00426,"zip":"95932","miles_from_dt":28.3},{"city":"Sacramento","state_name":"California","lat":38.55579,"lng":-121.49669,"zip":"95818","miles_from_dt":28.3},{"city":"Sacramento","state_name":"California","lat":38.57302,"lng":-121.46736,"zip":"94249","miles_from_dt":28.31},{"city":"Sacramento","state_name":"California","lat":38.55548,"lng":-121.49654,"zip":"94269","miles_from_dt":28.32},{"city":"Sacramento","state_name":"California","lat":38.55645,"lng":-121.49421,"zip":"94294","miles_from_dt":28.34},{"city":"Sacramento","state_name":"California","lat":38.55497,"lng":-121.49628,"zip":"94232","miles_from_dt":28.36},{"city":"Sacramento","state_name":"California","lat":38.55232,"lng":-121.50072,"zip":"94285","miles_from_dt":28.37},{"city":"Marysville","state_name":"California","lat":39.2225,"lng":-121.48855,"zip":"95901","miles_from_dt":28.39},{"city":"Sacramento","state_name":"California","lat":38.55478,"lng":-121.49562,"zip":"94293","miles_from_dt":28.39},{"city":"Sacramento","state_name":"California","lat":38.553,"lng":-121.49737,"zip":"94297","miles_from_dt":28.43},{"city":"Rocklin","state_name":"California","lat":38.81982,"lng":-121.27772,"zip":"95765","miles_from_dt":28.58},{"city":"Sacramento","state_name":"California","lat":38.56443,"lng":-121.46914,"zip":"94299","miles_from_dt":28.72},{"city":"Roseville","state_name":"California","lat":38.76536,"lng":-121.28847,"zip":"95678","miles_from_dt":28.91},{"city":"Sacramento","state_name":"California","lat":38.62541,"lng":-121.38479,"zip":"95821","miles_from_dt":28.92},{"city":"Sacramento","state_name":"California","lat":38.66031,"lng":-121.34812,"zip":"95841","miles_from_dt":29.1},{"city":"Williams","state_name":"California","lat":39.10299,"lng":-122.2726,"zip":"95987","miles_from_dt":29.37},{"city":"Sacramento","state_name":"California","lat":38.56816,"lng":-121.43772,"zip":"95819","miles_from_dt":29.61},{"city":"Sacramento","state_name":"California","lat":38.58945,"lng":-121.40784,"zip":"95866","miles_from_dt":29.65},{"city":"Sacramento","state_name":"California","lat":38.5901,"lng":-121.40644,"zip":"95825","miles_from_dt":29.67},{"city":"Sacramento","state_name":"California","lat":38.58868,"lng":-121.40725,"zip":"95865","miles_from_dt":29.71},{"city":"Citrus Heights","state_name":"California","lat":38.69551,"lng":-121.30862,"zip":"95621","miles_from_dt":29.73},{"city":"Sacramento","state_name":"California","lat":38.60833,"lng":-121.38169,"zip":"95860","miles_from_dt":29.81},{"city":"Sacramento","state_name":"California","lat":38.55057,"lng":-121.45713,"zip":"95817","miles_from_dt":29.87}],"targetCityZipCode":"95645","targetCityState":"California"},"__N_SSG":true}