{"pageProps":{"stateName":"California","cityName":"lake-isabella","nearbyCities":[{"city":"Bodfish","state_name":"California","lat":35.5387,"lng":-118.45463,"zip":"93205","miles_from_dt":5.92},{"city":"Wofford Heights","state_name":"California","lat":35.72233,"lng":-118.50871,"zip":"93285","miles_from_dt":7.2},{"city":"Weldon","state_name":"California","lat":35.58478,"lng":-118.28854,"zip":"93283","miles_from_dt":10.27},{"city":"Kernville","state_name":"California","lat":35.82799,"lng":-118.47137,"zip":"93238","miles_from_dt":14.05},{"city":"Caliente","state_name":"California","lat":35.37675,"lng":-118.47314,"zip":"93518","miles_from_dt":17.07},{"city":"Posey","state_name":"California","lat":35.81909,"lng":-118.66116,"zip":"93260","miles_from_dt":17.4},{"city":"Glennville","state_name":"California","lat":35.7476,"lng":-118.73462,"zip":"93226","miles_from_dt":17.41},{"city":"California Hot Springs","state_name":"California","lat":35.88721,"lng":-118.63153,"zip":"93207","miles_from_dt":20.42},{"city":"Bakersfield","state_name":"California","lat":35.46595,"lng":-118.78445,"zip":"93306","miles_from_dt":21.07},{"city":"Onyx","state_name":"California","lat":35.68292,"lng":-118.0798,"zip":"93255","miles_from_dt":22.02},{"city":"Edison","state_name":"California","lat":35.3705,"lng":-118.78369,"zip":"93220","miles_from_dt":25.1},{"city":"Bakersfield","state_name":"California","lat":35.55218,"lng":-118.91904,"zip":"93303","miles_from_dt":26.08},{"city":"Bakersfield","state_name":"California","lat":35.55048,"lng":-118.92102,"zip":"93380","miles_from_dt":26.21},{"city":"Woody","state_name":"California","lat":35.72387,"lng":-118.91958,"zip":"93287","miles_from_dt":26.51},{"city":"Bakersfield","state_name":"California","lat":35.5498,"lng":-118.93389,"zip":"93308","miles_from_dt":26.93},{"city":"Keene","state_name":"California","lat":35.22937,"lng":-118.60781,"zip":"93531","miles_from_dt":28.4},{"city":"Inyokern","state_name":"California","lat":35.80294,"lng":-117.98504,"zip":"93527","miles_from_dt":29.64}],"targetCityZipCode":"93240","targetCityState":"California"},"__N_SSG":true}