{"pageProps":{"stateName":"California","cityName":"landers","nearbyCities":[{"city":"Yucca Valley","state_name":"California","lat":34.18497,"lng":-116.40663,"zip":"92286","miles_from_dt":12.17},{"city":"Pioneertown","state_name":"California","lat":34.16146,"lng":-116.55002,"zip":"92268","miles_from_dt":12.32},{"city":"Yucca Valley","state_name":"California","lat":34.16013,"lng":-116.42474,"zip":"92284","miles_from_dt":13.25},{"city":"Big Bear City","state_name":"California","lat":34.2576,"lng":-116.80075,"zip":"92314","miles_from_dt":17.33},{"city":"Joshua Tree","state_name":"California","lat":34.14801,"lng":-116.28422,"zip":"92252","miles_from_dt":18.53},{"city":"Sugarloaf","state_name":"California","lat":34.23702,"lng":-116.82523,"zip":"92386","miles_from_dt":19.13},{"city":"Morongo Valley","state_name":"California","lat":34.07207,"lng":-116.61761,"zip":"92256","miles_from_dt":19.25},{"city":"Angelus Oaks","state_name":"California","lat":34.17018,"lng":-116.83231,"zip":"92305","miles_from_dt":21.58},{"city":"Lucerne Valley","state_name":"California","lat":34.49633,"lng":-116.89265,"zip":"92356","miles_from_dt":24.26},{"city":"Forest Falls","state_name":"California","lat":34.08189,"lng":-116.83838,"zip":"92339","miles_from_dt":25.62},{"city":"Fawnskin","state_name":"California","lat":34.26951,"lng":-116.96277,"zip":"92333","miles_from_dt":26.12},{"city":"Big Bear Lake","state_name":"California","lat":34.22011,"lng":-116.95301,"zip":"92315","miles_from_dt":26.41},{"city":"Desert Hot Springs","state_name":"California","lat":33.95291,"lng":-116.5194,"zip":"92240","miles_from_dt":26.52},{"city":"Twentynine Palms","state_name":"California","lat":34.23505,"lng":-116.05825,"zip":"92278","miles_from_dt":27},{"city":"Whitewater","state_name":"California","lat":33.96253,"lng":-116.65829,"zip":"92282","miles_from_dt":27.15},{"city":"North Palm Springs","state_name":"California","lat":33.91791,"lng":-116.56002,"zip":"92258","miles_from_dt":29.05}],"targetCityZipCode":"92285","targetCityState":"California"},"__N_SSG":true}