{"pageProps":{"stateName":"California","cityName":"lebec","nearbyCities":[{"city":"Frazier Park","state_name":"California","lat":34.78532,"lng":-119.04196,"zip":"93225","miles_from_dt":13.31},{"city":"Lake Hughes","state_name":"California","lat":34.68571,"lng":-118.55914,"zip":"93532","miles_from_dt":18.17},{"city":"Piru","state_name":"California","lat":34.59337,"lng":-118.93657,"zip":"93040","miles_from_dt":18.33},{"city":"Arvin","state_name":"California","lat":35.12158,"lng":-118.8468,"zip":"93203","miles_from_dt":19.44},{"city":"Tehachapi","state_name":"California","lat":35.11288,"lng":-118.57035,"zip":"93581","miles_from_dt":23.44},{"city":"Castaic","state_name":"California","lat":34.51604,"lng":-118.67289,"zip":"91384","miles_from_dt":23.84},{"city":"Tehachapi","state_name":"California","lat":35.10904,"lng":-118.52016,"zip":"93561","miles_from_dt":25.05},{"city":"Lancaster","state_name":"California","lat":34.75267,"lng":-118.3889,"zip":"93536","miles_from_dt":25.12},{"city":"Pine Mountain Club","state_name":"California","lat":34.89835,"lng":-119.25983,"zip":"93222","miles_from_dt":25.43},{"city":"Bakersfield","state_name":"California","lat":35.16363,"lng":-119.04715,"zip":"93313","miles_from_dt":25.79},{"city":"Castaic","state_name":"California","lat":34.49464,"lng":-118.61446,"zip":"91310","miles_from_dt":26.51},{"city":"Rosamond","state_name":"California","lat":34.87116,"lng":-118.32594,"zip":"93560","miles_from_dt":28.02},{"city":"Lamont","state_name":"California","lat":35.24922,"lng":-118.91224,"zip":"93241","miles_from_dt":28.68},{"city":"Bakersfield","state_name":"California","lat":35.2487,"lng":-118.93253,"zip":"93307","miles_from_dt":28.88},{"city":"Bakersfield","state_name":"California","lat":35.15378,"lng":-119.16567,"zip":"93311","miles_from_dt":29.25},{"city":"Keene","state_name":"California","lat":35.22937,"lng":-118.60781,"zip":"93531","miles_from_dt":29.33},{"city":"Fillmore","state_name":"California","lat":34.40969,"lng":-118.87807,"zip":"93015","miles_from_dt":29.9}],"targetCityZipCode":"93243","targetCityState":"California"},"__N_SSG":true}