{"pageProps":{"stateName":"California","cityName":"livermore","nearbyCities":[{"city":"Tracy","state_name":"California","lat":37.65293,"lng":-121.49598,"zip":"95377","miles_from_dt":10.78},{"city":"Mount Hamilton","state_name":"California","lat":37.3483,"lng":-121.64085,"zip":"95140","miles_from_dt":11.95},{"city":"San Jose","state_name":"California","lat":37.41994,"lng":-121.79059,"zip":"95132","miles_from_dt":12.73},{"city":"San Jose","state_name":"California","lat":37.4174,"lng":-121.82003,"zip":"95152","miles_from_dt":14.21},{"city":"San Jose","state_name":"California","lat":37.37453,"lng":-121.78733,"zip":"95127","miles_from_dt":14.49},{"city":"Sunol","state_name":"California","lat":37.57327,"lng":-121.85472,"zip":"94586","miles_from_dt":14.82},{"city":"Tracy","state_name":"California","lat":37.6773,"lng":-121.3948,"zip":"95304","miles_from_dt":15.53},{"city":"Milpitas","state_name":"California","lat":37.44319,"lng":-121.87632,"zip":"95035","miles_from_dt":16.34},{"city":"San Jose","state_name":"California","lat":37.33252,"lng":-121.78142,"zip":"95148","miles_from_dt":16.4},{"city":"Pleasanton","state_name":"California","lat":37.65032,"lng":-121.85881,"zip":"94566","miles_from_dt":17.18},{"city":"San Jose","state_name":"California","lat":37.35997,"lng":-121.84002,"zip":"95156","miles_from_dt":17.35},{"city":"Tracy","state_name":"California","lat":37.76952,"lng":-121.5912,"zip":"95391","miles_from_dt":17.38},{"city":"Fremont","state_name":"California","lat":37.51635,"lng":-121.9119,"zip":"94539","miles_from_dt":17.46},{"city":"Tracy","state_name":"California","lat":37.73678,"lng":-121.43404,"zip":"95376","miles_from_dt":17.49},{"city":"San Jose","state_name":"California","lat":37.37171,"lng":-121.86057,"zip":"95133","miles_from_dt":17.77},{"city":"San Jose","state_name":"California","lat":37.35043,"lng":-121.85255,"zip":"95116","miles_from_dt":18.3},{"city":"San Jose","state_name":"California","lat":37.32925,"lng":-121.83481,"zip":"95122","miles_from_dt":18.54},{"city":"San Jose","state_name":"California","lat":37.29174,"lng":-121.78373,"zip":"95151","miles_from_dt":18.74},{"city":"San Jose","state_name":"California","lat":37.30463,"lng":-121.80981,"zip":"95121","miles_from_dt":18.88},{"city":"San Jose","state_name":"California","lat":37.38729,"lng":-121.89793,"zip":"95131","miles_from_dt":18.97},{"city":"San Jose","state_name":"California","lat":37.3852,"lng":-121.89654,"zip":"95101","miles_from_dt":18.97},{"city":"Livermore","state_name":"California","lat":37.75902,"lng":-121.76026,"zip":"94551","miles_from_dt":18.99},{"city":"San Jose","state_name":"California","lat":37.38574,"lng":-121.89934,"zip":"95161","miles_from_dt":19.08},{"city":"Westley","state_name":"California","lat":37.55429,"lng":-121.2451,"zip":"95387","miles_from_dt":19.33},{"city":"San Jose","state_name":"California","lat":37.37614,"lng":-121.90232,"zip":"95190","miles_from_dt":19.55},{"city":"Tracy","state_name":"California","lat":37.79914,"lng":-121.55177,"zip":"95378","miles_from_dt":19.56},{"city":"San Jose","state_name":"California","lat":37.34365,"lng":-121.88118,"zip":"95194","miles_from_dt":19.82},{"city":"San Jose","state_name":"California","lat":37.34461,"lng":-121.88346,"zip":"95112","miles_from_dt":19.88},{"city":"San Jose","state_name":"California","lat":37.39252,"lng":-121.92386,"zip":"95164","miles_from_dt":20.07},{"city":"Vernalis","state_name":"California","lat":37.612,"lng":-121.24773,"zip":"95385","miles_from_dt":20.1},{"city":"San Jose","state_name":"California","lat":37.2462,"lng":-121.73287,"zip":"95138","miles_from_dt":20.21},{"city":"San Jose","state_name":"California","lat":37.43003,"lng":-121.94528,"zip":"95134","miles_from_dt":20.22},{"city":"San Jose","state_name":"California","lat":37.34116,"lng":-121.88831,"zip":"95103","miles_from_dt":20.24},{"city":"San Jose","state_name":"California","lat":37.34189,"lng":-121.89021,"zip":"95192","miles_from_dt":20.29},{"city":"Fremont","state_name":"California","lat":37.50653,"lng":-121.96361,"zip":"94538","miles_from_dt":20.32},{"city":"Patterson","state_name":"California","lat":37.37251,"lng":-121.27192,"zip":"95363","miles_from_dt":20.34},{"city":"San Jose","state_name":"California","lat":37.22285,"lng":-121.55913,"zip":"95135","miles_from_dt":20.41},{"city":"San Jose","state_name":"California","lat":37.33383,"lng":-121.88515,"zip":"95172","miles_from_dt":20.41},{"city":"San Jose","state_name":"California","lat":37.33854,"lng":-121.89162,"zip":"95106","miles_from_dt":20.5},{"city":"San Jose","state_name":"California","lat":37.28401,"lng":-121.82731,"zip":"95111","miles_from_dt":20.59},{"city":"San Jose","state_name":"California","lat":37.33728,"lng":-121.89345,"zip":"95109","miles_from_dt":20.63},{"city":"San Jose","state_name":"California","lat":37.3339,"lng":-121.8905,"zip":"95113","miles_from_dt":20.64},{"city":"San Jose","state_name":"California","lat":37.33459,"lng":-121.89333,"zip":"95173","miles_from_dt":20.74},{"city":"San Jose","state_name":"California","lat":37.33041,"lng":-121.89113,"zip":"95196","miles_from_dt":20.82},{"city":"San Jose","state_name":"California","lat":37.34656,"lng":-121.9097,"zip":"95110","miles_from_dt":20.98},{"city":"Dublin","state_name":"California","lat":37.71596,"lng":-121.90113,"zip":"94568","miles_from_dt":21.71},{"city":"Byron","state_name":"California","lat":37.83071,"lng":-121.63392,"zip":"94514","miles_from_dt":21.71},{"city":"Fremont","state_name":"California","lat":37.57072,"lng":-121.98555,"zip":"94536","miles_from_dt":21.81},{"city":"San Jose","state_name":"California","lat":37.30423,"lng":-121.88789,"zip":"95115","miles_from_dt":21.85},{"city":"Santa Clara","state_name":"California","lat":37.40059,"lng":-121.96347,"zip":"95056","miles_from_dt":21.85},{"city":"Pleasanton","state_name":"California","lat":37.73801,"lng":-121.88178,"zip":"94588","miles_from_dt":21.92},{"city":"San Jose","state_name":"California","lat":37.3114,"lng":-121.90081,"zip":"95155","miles_from_dt":22.06},{"city":"San Jose","state_name":"California","lat":37.32687,"lng":-121.91677,"zip":"95126","miles_from_dt":22.09},{"city":"San Jose","state_name":"California","lat":37.27192,"lng":-121.85237,"zip":"95136","miles_from_dt":22.11},{"city":"Santa Clara","state_name":"California","lat":37.39308,"lng":-121.96483,"zip":"95054","miles_from_dt":22.12},{"city":"Santa Clara","state_name":"California","lat":37.34848,"lng":-121.93737,"zip":"95053","miles_from_dt":22.19},{"city":"San Jose","state_name":"California","lat":37.32407,"lng":-121.91724,"zip":"95191","miles_from_dt":22.22},{"city":"San Jose","state_name":"California","lat":37.22489,"lng":-121.76393,"zip":"95139","miles_from_dt":22.24},{"city":"Coyote","state_name":"California","lat":37.21531,"lng":-121.73962,"zip":"95013","miles_from_dt":22.32},{"city":"San Jose","state_name":"California","lat":37.29554,"lng":-121.89408,"zip":"95125","miles_from_dt":22.51},{"city":"Santa Clara","state_name":"California","lat":37.35584,"lng":-121.95367,"zip":"95052","miles_from_dt":22.7},{"city":"San Jose","state_name":"California","lat":37.22756,"lng":-121.79077,"zip":"95119","miles_from_dt":22.74},{"city":"Santa Clara","state_name":"California","lat":37.3504,"lng":-121.95238,"zip":"95050","miles_from_dt":22.83},{"city":"San Jose","state_name":"California","lat":37.24401,"lng":-121.83099,"zip":"95193","miles_from_dt":22.93},{"city":"San Jose","state_name":"California","lat":37.24479,"lng":-121.83306,"zip":"95123","miles_from_dt":22.95},{"city":"Alviso","state_name":"California","lat":37.44075,"lng":-122.00047,"zip":"95002","miles_from_dt":22.95},{"city":"San Jose","state_name":"California","lat":37.24801,"lng":-121.84514,"zip":"95153","miles_from_dt":23.16},{"city":"San Jose","state_name":"California","lat":37.31679,"lng":-121.93239,"zip":"95159","miles_from_dt":23.19},{"city":"Fremont","state_name":"California","lat":37.55569,"lng":-122.01734,"zip":"94537","miles_from_dt":23.39},{"city":"San Jose","state_name":"California","lat":37.31579,"lng":-121.93647,"zip":"95128","miles_from_dt":23.41},{"city":"San Jose","state_name":"California","lat":37.25932,"lng":-121.87681,"zip":"95158","miles_from_dt":23.64},{"city":"San Jose","state_name":"California","lat":37.28904,"lng":-121.91438,"zip":"95150","miles_from_dt":23.64},{"city":"Newark","state_name":"California","lat":37.50771,"lng":-122.02523,"zip":"94560","miles_from_dt":23.7},{"city":"Discovery Bay","state_name":"California","lat":37.86638,"lng":-121.5868,"zip":"94505","miles_from_dt":24.07},{"city":"Sunnyvale","state_name":"California","lat":37.41192,"lng":-122.01441,"zip":"94089","miles_from_dt":24.23},{"city":"San Jose","state_name":"California","lat":37.25589,"lng":-121.88991,"zip":"95118","miles_from_dt":24.3},{"city":"Santa Clara","state_name":"California","lat":37.3483,"lng":-121.98444,"zip":"95051","miles_from_dt":24.43},{"city":"San Ramon","state_name":"California","lat":37.76357,"lng":-121.91469,"zip":"94582","miles_from_dt":24.44},{"city":"San Jose","state_name":"California","lat":37.31008,"lng":-121.96225,"zip":"95117","miles_from_dt":24.79},{"city":"Santa Clara","state_name":"California","lat":37.33657,"lng":-121.98383,"zip":"95055","miles_from_dt":24.8},{"city":"San Jose","state_name":"California","lat":37.26166,"lng":-121.91282,"zip":"95154","miles_from_dt":24.88},{"city":"Manteca","state_name":"California","lat":37.74171,"lng":-121.23834,"zip":"95337","miles_from_dt":24.9},{"city":"Sunnyvale","state_name":"California","lat":37.38862,"lng":-122.01793,"zip":"94085","miles_from_dt":24.94},{"city":"Campbell","state_name":"California","lat":37.28905,"lng":-121.94796,"zip":"95009","miles_from_dt":25.04},{"city":"San Jose","state_name":"California","lat":37.17615,"lng":-121.75168,"zip":"95141","miles_from_dt":25.09},{"city":"San Jose","state_name":"California","lat":37.21903,"lng":-121.86038,"zip":"95160","miles_from_dt":25.27},{"city":"Campbell","state_name":"California","lat":37.29502,"lng":-121.96066,"zip":"95011","miles_from_dt":25.34},{"city":"Lathrop","state_name":"California","lat":37.8117,"lng":-121.31331,"zip":"95330","miles_from_dt":25.47},{"city":"San Jose","state_name":"California","lat":37.25684,"lng":-121.92286,"zip":"95124","miles_from_dt":25.5},{"city":"Hayward","state_name":"California","lat":37.6553,"lng":-122.02584,"zip":"94542","miles_from_dt":25.53},{"city":"Sunnyvale","state_name":"California","lat":37.37164,"lng":-122.02316,"zip":"94086","miles_from_dt":25.65},{"city":"Campbell","state_name":"California","lat":37.27977,"lng":-121.95481,"zip":"95008","miles_from_dt":25.74},{"city":"San Jose","state_name":"California","lat":37.29996,"lng":-121.97592,"zip":"95157","miles_from_dt":25.81},{"city":"Sunnyvale","state_name":"California","lat":37.39098,"lng":-122.03733,"zip":"94088","miles_from_dt":25.88},{"city":"Mountain View","state_name":"California","lat":37.41289,"lng":-122.04989,"zip":"94035","miles_from_dt":26.07},{"city":"Danville","state_name":"California","lat":37.80862,"lng":-121.90498,"zip":"94506","miles_from_dt":26.34},{"city":"Castro Valley","state_name":"California","lat":37.70456,"lng":-122.01359,"zip":"94552","miles_from_dt":26.39},{"city":"New Almaden","state_name":"California","lat":37.17754,"lng":-121.81851,"zip":"95042","miles_from_dt":26.5},{"city":"San Jose","state_name":"California","lat":37.28803,"lng":-121.98146,"zip":"95130","miles_from_dt":26.54},{"city":"San Jose","state_name":"California","lat":37.18428,"lng":-121.83658,"zip":"95120","miles_from_dt":26.57},{"city":"Union City","state_name":"California","lat":37.59142,"lng":-122.06993,"zip":"94587","miles_from_dt":26.62},{"city":"Hayward","state_name":"California","lat":37.63352,"lng":-122.05678,"zip":"94544","miles_from_dt":26.63},{"city":"San Jose","state_name":"California","lat":37.30597,"lng":-122.00072,"zip":"95129","miles_from_dt":26.7},{"city":"Fremont","state_name":"California","lat":37.55083,"lng":-122.08043,"zip":"94555","miles_from_dt":26.81},{"city":"San Jose","state_name":"California","lat":37.31175,"lng":-122.00901,"zip":"95170","miles_from_dt":26.87},{"city":"Sunnyvale","state_name":"California","lat":37.35164,"lng":-122.03669,"zip":"94087","miles_from_dt":26.89},{"city":"Morgan Hill","state_name":"California","lat":37.13213,"lng":-121.67886,"zip":"95037","miles_from_dt":26.98},{"city":"Mountain View","state_name":"California","lat":37.41188,"lng":-122.06892,"zip":"94043","miles_from_dt":27.1},{"city":"Mountain View","state_name":"California","lat":37.39505,"lng":-122.07666,"zip":"94039","miles_from_dt":27.84},{"city":"Mountain View","state_name":"California","lat":37.38822,"lng":-122.07529,"zip":"94041","miles_from_dt":27.92},{"city":"Modesto","state_name":"California","lat":37.61578,"lng":-121.10059,"zip":"95358","miles_from_dt":27.93},{"city":"Los Gatos","state_name":"California","lat":37.20859,"lng":-121.92359,"zip":"95032","miles_from_dt":27.98},{"city":"Stockton","state_name":"California","lat":37.8961,"lng":-121.41051,"zip":"95206","miles_from_dt":27.98},{"city":"San Ramon","state_name":"California","lat":37.77245,"lng":-121.99157,"zip":"94583","miles_from_dt":28.01},{"city":"Milpitas","state_name":"California","lat":37.24309,"lng":-121.97166,"zip":"95036","miles_from_dt":28.1},{"city":"Mountain View","state_name":"California","lat":37.41077,"lng":-122.08732,"zip":"94042","miles_from_dt":28.1},{"city":"Brentwood","state_name":"California","lat":37.92541,"lng":-121.68452,"zip":"94513","miles_from_dt":28.57},{"city":"Cupertino","state_name":"California","lat":37.32286,"lng":-122.05296,"zip":"95015","miles_from_dt":28.59},{"city":"Mountain View","state_name":"California","lat":37.38034,"lng":-122.08531,"zip":"94040","miles_from_dt":28.62},{"city":"Hayward","state_name":"California","lat":37.67323,"lng":-122.0822,"zip":"94543","miles_from_dt":28.86},{"city":"Hayward","state_name":"California","lat":37.62988,"lng":-122.10303,"zip":"94557","miles_from_dt":28.99},{"city":"San Martin","state_name":"California","lat":37.09576,"lng":-121.59649,"zip":"95046","miles_from_dt":29.08},{"city":"Hayward","state_name":"California","lat":37.67376,"lng":-122.08707,"zip":"94541","miles_from_dt":29.12},{"city":"Hayward","state_name":"California","lat":37.65881,"lng":-122.09505,"zip":"94540","miles_from_dt":29.17},{"city":"Palo Alto","state_name":"California","lat":37.45064,"lng":-122.11928,"zip":"94303","miles_from_dt":29.23},{"city":"Holt","state_name":"California","lat":37.92634,"lng":-121.44551,"zip":"95234","miles_from_dt":29.35},{"city":"Los Gatos","state_name":"California","lat":37.22168,"lng":-121.98326,"zip":"95030","miles_from_dt":29.58},{"city":"French Camp","state_name":"California","lat":37.87331,"lng":-121.29272,"zip":"95231","miles_from_dt":29.58},{"city":"Danville","state_name":"California","lat":37.81472,"lng":-121.98451,"zip":"94526","miles_from_dt":29.64},{"city":"Morgan Hill","state_name":"California","lat":37.08552,"lng":-121.6098,"zip":"95038","miles_from_dt":29.8},{"city":"Hayward","state_name":"California","lat":37.62957,"lng":-122.12048,"zip":"94545","miles_from_dt":29.91},{"city":"Diablo","state_name":"California","lat":37.84149,"lng":-121.95819,"zip":"94528","miles_from_dt":29.96}],"targetCityZipCode":"94550","targetCityState":"California"},"__N_SSG":true}