{"pageProps":{"stateName":"California","cityName":"los-banos","nearbyCities":[{"city":"Gustine","state_name":"California","lat":37.17622,"lng":-121.01861,"zip":"95322","miles_from_dt":13.35},{"city":"South Dos Palos","state_name":"California","lat":36.96334,"lng":-120.65034,"zip":"93665","miles_from_dt":13.37},{"city":"Dos Palos","state_name":"California","lat":37.0448,"lng":-120.6223,"zip":"93620","miles_from_dt":14.55},{"city":"Santa Rita Park","state_name":"California","lat":37.10867,"lng":-120.59745,"zip":"93661","miles_from_dt":17.02},{"city":"Stevinson","state_name":"California","lat":37.31636,"lng":-120.85683,"zip":"95374","miles_from_dt":20.76},{"city":"Firebaugh","state_name":"California","lat":36.79283,"lng":-120.62434,"zip":"93622","miles_from_dt":21.02},{"city":"El Nido","state_name":"California","lat":37.12947,"lng":-120.5074,"zip":"95317","miles_from_dt":22.18},{"city":"Tres Pinos","state_name":"California","lat":36.80112,"lng":-121.19258,"zip":"95075","miles_from_dt":22.66},{"city":"Newman","state_name":"California","lat":37.32918,"lng":-121.03827,"zip":"95360","miles_from_dt":23.24},{"city":"Atwater","state_name":"California","lat":37.30634,"lng":-120.65119,"zip":"95301","miles_from_dt":23.76},{"city":"Livingston","state_name":"California","lat":37.34756,"lng":-120.74624,"zip":"95334","miles_from_dt":24.08},{"city":"Merced","state_name":"California","lat":37.23037,"lng":-120.50715,"zip":"95341","miles_from_dt":25.48},{"city":"Hilmar","state_name":"California","lat":37.39452,"lng":-120.89605,"zip":"95324","miles_from_dt":26.11},{"city":"Hollister","state_name":"California","lat":36.92113,"lng":-121.36117,"zip":"95023","miles_from_dt":27.26},{"city":"Delhi","state_name":"California","lat":37.42243,"lng":-120.7733,"zip":"95315","miles_from_dt":28.67},{"city":"Merced","state_name":"California","lat":37.2937,"lng":-120.48784,"zip":"95343","miles_from_dt":29.02},{"city":"Merced","state_name":"California","lat":37.37775,"lng":-120.61376,"zip":"95344","miles_from_dt":29.03}],"targetCityZipCode":"93635","targetCityState":"California"},"__N_SSG":true}