{"pageProps":{"stateName":"California","cityName":"manton","nearbyCities":[{"city":"Paynes Creek","state_name":"California","lat":40.35582,"lng":-121.87196,"zip":"96075","miles_from_dt":5.45},{"city":"Shingletown","state_name":"California","lat":40.50983,"lng":-121.88848,"zip":"96088","miles_from_dt":6.23},{"city":"Mineral","state_name":"California","lat":40.35708,"lng":-121.60236,"zip":"96063","miles_from_dt":13.23},{"city":"Whitmore","state_name":"California","lat":40.63738,"lng":-121.87552,"zip":"96096","miles_from_dt":14.51},{"city":"Millville","state_name":"California","lat":40.56373,"lng":-122.06646,"zip":"96062","miles_from_dt":15.33},{"city":"Mill Creek","state_name":"California","lat":40.34407,"lng":-121.48767,"zip":"96061","miles_from_dt":19.23},{"city":"Oak Run","state_name":"California","lat":40.68226,"lng":-122.02341,"zip":"96069","miles_from_dt":20.07},{"city":"Palo Cedro","state_name":"California","lat":40.59047,"lng":-122.20537,"zip":"96073","miles_from_dt":22.46},{"city":"Anderson","state_name":"California","lat":40.45507,"lng":-122.30468,"zip":"96007","miles_from_dt":24.84},{"city":"Los Molinos","state_name":"California","lat":40.10249,"lng":-122.03213,"zip":"96055","miles_from_dt":24.86},{"city":"Round Mountain","state_name":"California","lat":40.79395,"lng":-121.91519,"zip":"96084","miles_from_dt":25.5},{"city":"Bella Vista","state_name":"California","lat":40.73559,"lng":-122.11091,"zip":"96008","miles_from_dt":25.64},{"city":"Redding","state_name":"California","lat":40.56449,"lng":-122.29627,"zip":"96049","miles_from_dt":26.04},{"city":"Redding","state_name":"California","lat":40.5299,"lng":-122.31679,"zip":"96002","miles_from_dt":26.33},{"city":"Old Station","state_name":"California","lat":40.68134,"lng":-121.45275,"zip":"96071","miles_from_dt":26.57},{"city":"Proberta","state_name":"California","lat":40.08245,"lng":-122.17607,"zip":"96078","miles_from_dt":29.98}],"targetCityZipCode":"96059","targetCityState":"California"},"__N_SSG":true}