{"pageProps":{"stateName":"California","cityName":"mcfarland","nearbyCities":[{"city":"Delano","state_name":"California","lat":35.75515,"lng":-119.27606,"zip":"93216","miles_from_dt":7.48},{"city":"Delano","state_name":"California","lat":35.7764,"lng":-119.18835,"zip":"93215","miles_from_dt":7.75},{"city":"Richgrove","state_name":"California","lat":35.81147,"lng":-119.11673,"zip":"93261","miles_from_dt":11.22},{"city":"Shafter","state_name":"California","lat":35.48722,"lng":-119.27835,"zip":"93263","miles_from_dt":12.95},{"city":"Wasco","state_name":"California","lat":35.65204,"lng":-119.44716,"zip":"93280","miles_from_dt":13.78},{"city":"Earlimart","state_name":"California","lat":35.87908,"lng":-119.28818,"zip":"93219","miles_from_dt":15.55},{"city":"Woody","state_name":"California","lat":35.72387,"lng":-118.91958,"zip":"93287","miles_from_dt":16.44},{"city":"Ducor","state_name":"California","lat":35.86194,"lng":-119.03822,"zip":"93218","miles_from_dt":16.45},{"city":"Bakersfield","state_name":"California","lat":35.5498,"lng":-118.93389,"zip":"93308","miles_from_dt":17.08},{"city":"Bakersfield","state_name":"California","lat":35.55048,"lng":-118.92102,"zip":"93380","miles_from_dt":17.71},{"city":"Bakersfield","state_name":"California","lat":35.55218,"lng":-118.91904,"zip":"93303","miles_from_dt":17.75},{"city":"Bakersfield","state_name":"California","lat":35.385,"lng":-119.23741,"zip":"93314","miles_from_dt":19.37},{"city":"Bakersfield","state_name":"California","lat":35.39186,"lng":-119.11954,"zip":"93312","miles_from_dt":19.38},{"city":"Bakersfield","state_name":"California","lat":35.41886,"lng":-119.02293,"zip":"93388","miles_from_dt":19.74},{"city":"Alpaugh","state_name":"California","lat":35.8555,"lng":-119.48338,"zip":"93201","miles_from_dt":20.54},{"city":"Terra Bella","state_name":"California","lat":35.94703,"lng":-119.05669,"zip":"93270","miles_from_dt":21.13},{"city":"Buttonwillow","state_name":"California","lat":35.44402,"lng":-119.47578,"zip":"93206","miles_from_dt":21.63},{"city":"Pixley","state_name":"California","lat":35.96805,"lng":-119.31251,"zip":"93256","miles_from_dt":21.81},{"city":"Bakersfield","state_name":"California","lat":35.38428,"lng":-119.02057,"zip":"93301","miles_from_dt":21.88},{"city":"Bakersfield","state_name":"California","lat":35.37535,"lng":-119.02189,"zip":"93302","miles_from_dt":22.39},{"city":"Bakersfield","state_name":"California","lat":35.38989,"lng":-118.98515,"zip":"93305","miles_from_dt":22.56},{"city":"Bakersfield","state_name":"California","lat":35.3732,"lng":-119.01767,"zip":"93384","miles_from_dt":22.63},{"city":"Bakersfield","state_name":"California","lat":35.35564,"lng":-119.063,"zip":"93389","miles_from_dt":22.71},{"city":"Bakersfield","state_name":"California","lat":35.37911,"lng":-118.98965,"zip":"93385","miles_from_dt":23.06},{"city":"Bakersfield","state_name":"California","lat":35.34266,"lng":-119.06461,"zip":"93309","miles_from_dt":23.52},{"city":"Bakersfield","state_name":"California","lat":35.35641,"lng":-119.00229,"zip":"93390","miles_from_dt":24.06},{"city":"Bakersfield","state_name":"California","lat":35.37557,"lng":-118.95466,"zip":"93386","miles_from_dt":24.34},{"city":"Bakersfield","state_name":"California","lat":35.33938,"lng":-119.02368,"zip":"93304","miles_from_dt":24.59},{"city":"Bakersfield","state_name":"California","lat":35.35151,"lng":-118.96243,"zip":"93387","miles_from_dt":25.48},{"city":"Tupman","state_name":"California","lat":35.31756,"lng":-119.4092,"zip":"93276","miles_from_dt":26.6},{"city":"Glennville","state_name":"California","lat":35.7476,"lng":-118.73462,"zip":"93226","miles_from_dt":26.94},{"city":"Bakersfield","state_name":"California","lat":35.46595,"lng":-118.78445,"zip":"93306","miles_from_dt":27.25},{"city":"Porterville","state_name":"California","lat":36.05833,"lng":-119.15209,"zip":"93258","miles_from_dt":27.3},{"city":"Tipton","state_name":"California","lat":36.04818,"lng":-119.34535,"zip":"93272","miles_from_dt":27.63},{"city":"Porterville","state_name":"California","lat":35.98708,"lng":-118.89493,"zip":"93257","miles_from_dt":28.16},{"city":"Bakersfield","state_name":"California","lat":35.26499,"lng":-119.03195,"zip":"93383","miles_from_dt":29.18}],"targetCityZipCode":"93250","targetCityState":"California"},"__N_SSG":true}