{"pageProps":{"stateName":"California","cityName":"mendota","nearbyCities":[{"city":"Tranquillity","state_name":"California","lat":36.65663,"lng":-120.28997,"zip":"93668","miles_from_dt":8.28},{"city":"Cantua Creek","state_name":"California","lat":36.5055,"lng":-120.3418,"zip":"93608","miles_from_dt":12.67},{"city":"Firebaugh","state_name":"California","lat":36.79283,"lng":-120.62434,"zip":"93622","miles_from_dt":13.28},{"city":"San Joaquin","state_name":"California","lat":36.60932,"lng":-120.16514,"zip":"93660","miles_from_dt":15.76},{"city":"Kerman","state_name":"California","lat":36.71831,"lng":-120.12912,"zip":"93630","miles_from_dt":17.43},{"city":"Helm","state_name":"California","lat":36.51568,"lng":-120.10635,"zip":"93627","miles_from_dt":21.35},{"city":"Madera","state_name":"California","lat":36.91099,"lng":-120.1922,"zip":"93637","miles_from_dt":21.37},{"city":"South Dos Palos","state_name":"California","lat":36.96334,"lng":-120.65034,"zip":"93665","miles_from_dt":23.28},{"city":"Biola","state_name":"California","lat":36.79871,"lng":-120.01625,"zip":"93606","miles_from_dt":24.97},{"city":"Five Points","state_name":"California","lat":36.37258,"lng":-120.12125,"zip":"93624","miles_from_dt":27.15},{"city":"Dos Palos","state_name":"California","lat":37.0448,"lng":-120.6223,"zip":"93620","miles_from_dt":27.66},{"city":"Fresno","state_name":"California","lat":36.78693,"lng":-119.95271,"zip":"93723","miles_from_dt":28.06},{"city":"Madera","state_name":"California","lat":36.96478,"lng":-120.08456,"zip":"93639","miles_from_dt":28.12},{"city":"Burrel","state_name":"California","lat":36.48833,"lng":-119.98417,"zip":"93607","miles_from_dt":28.23},{"city":"Fresno","state_name":"California","lat":36.65344,"lng":-119.90216,"zip":"93706","miles_from_dt":29.78},{"city":"Fresno","state_name":"California","lat":36.63864,"lng":-119.90311,"zip":"93786","miles_from_dt":29.79},{"city":"Chowchilla","state_name":"California","lat":37.09047,"lng":-120.29036,"zip":"93610","miles_from_dt":29.98}],"targetCityZipCode":"93640","targetCityState":"California"},"__N_SSG":true}