{"pageProps":{"stateName":"California","cityName":"nelson","nearbyCities":[{"city":"Durham","state_name":"California","lat":39.60504,"lng":-121.79708,"zip":"95938","miles_from_dt":2.82},{"city":"Richvale","state_name":"California","lat":39.4973,"lng":-121.75569,"zip":"95974","miles_from_dt":5.14},{"city":"Chico","state_name":"California","lat":39.68317,"lng":-121.83528,"zip":"95928","miles_from_dt":8.45},{"city":"Biggs","state_name":"California","lat":39.42392,"lng":-121.77178,"zip":"95917","miles_from_dt":9.78},{"city":"Butte City","state_name":"California","lat":39.46071,"lng":-121.93702,"zip":"95920","miles_from_dt":10.3},{"city":"Oroville","state_name":"California","lat":39.59169,"lng":-121.59034,"zip":"95965","miles_from_dt":11.25},{"city":"Chico","state_name":"California","lat":39.72578,"lng":-121.85022,"zip":"95929","miles_from_dt":11.49},{"city":"Chico","state_name":"California","lat":39.74573,"lng":-121.84396,"zip":"95926","miles_from_dt":12.76},{"city":"Glenn","state_name":"California","lat":39.57692,"lng":-122.0367,"zip":"95943","miles_from_dt":12.77},{"city":"Chico","state_name":"California","lat":39.75174,"lng":-121.81253,"zip":"95927","miles_from_dt":12.96},{"city":"Feather Falls","state_name":"California","lat":39.51162,"lng":-121.55652,"zip":"95940","miles_from_dt":13.4},{"city":"Chico","state_name":"California","lat":39.75384,"lng":-121.87011,"zip":"95976","miles_from_dt":13.64},{"city":"Paradise","state_name":"California","lat":39.72178,"lng":-121.63388,"zip":"95969","miles_from_dt":13.96},{"city":"Hamilton City","state_name":"California","lat":39.71473,"lng":-122.00197,"zip":"95951","miles_from_dt":15.04},{"city":"Gridley","state_name":"California","lat":39.34289,"lng":-121.75818,"zip":"95948","miles_from_dt":15.41},{"city":"Palermo","state_name":"California","lat":39.43514,"lng":-121.55179,"zip":"95968","miles_from_dt":15.89},{"city":"Paradise","state_name":"California","lat":39.74257,"lng":-121.60453,"zip":"95967","miles_from_dt":16.06},{"city":"Princeton","state_name":"California","lat":39.41159,"lng":-122.05176,"zip":"95970","miles_from_dt":17.17},{"city":"Oroville","state_name":"California","lat":39.47332,"lng":-121.43284,"zip":"95966","miles_from_dt":20.5},{"city":"Artois","state_name":"California","lat":39.62899,"lng":-122.19215,"zip":"95913","miles_from_dt":21.5},{"city":"Live Oak","state_name":"California","lat":39.25018,"lng":-121.77309,"zip":"95953","miles_from_dt":21.7},{"city":"Chico","state_name":"California","lat":39.88099,"lng":-121.8516,"zip":"95973","miles_from_dt":22.04},{"city":"Colusa","state_name":"California","lat":39.26839,"lng":-122.00426,"zip":"95932","miles_from_dt":23.2},{"city":"Berry Creek","state_name":"California","lat":39.65945,"lng":-121.37375,"zip":"95916","miles_from_dt":23.58},{"city":"Bangor","state_name":"California","lat":39.40756,"lng":-121.37878,"zip":"95914","miles_from_dt":24.88},{"city":"Rackerby","state_name":"California","lat":39.42955,"lng":-121.33624,"zip":"95972","miles_from_dt":26.37},{"city":"Sutter","state_name":"California","lat":39.18051,"lng":-121.80746,"zip":"95982","miles_from_dt":26.47},{"city":"Willows","state_name":"California","lat":39.49825,"lng":-122.28698,"zip":"95988","miles_from_dt":26.51},{"city":"Stirling City","state_name":"California","lat":39.90826,"lng":-121.52941,"zip":"95978","miles_from_dt":27.72},{"city":"Maxwell","state_name":"California","lat":39.29657,"lng":-122.20454,"zip":"95955","miles_from_dt":28.53},{"city":"Marysville","state_name":"California","lat":39.2225,"lng":-121.48855,"zip":"95901","miles_from_dt":28.81},{"city":"Orland","state_name":"California","lat":39.73682,"lng":-122.30329,"zip":"95963","miles_from_dt":29.46},{"city":"Forbestown","state_name":"California","lat":39.5588,"lng":-121.24157,"zip":"95941","miles_from_dt":29.72},{"city":"Vina","state_name":"California","lat":39.97344,"lng":-121.97342,"zip":"96092","miles_from_dt":29.74},{"city":"Brownsville","state_name":"California","lat":39.43445,"lng":-121.26554,"zip":"95919","miles_from_dt":29.83},{"city":"Magalia","state_name":"California","lat":39.94916,"lng":-121.54088,"zip":"95954","miles_from_dt":29.88}],"targetCityZipCode":"95958","targetCityState":"California"},"__N_SSG":true}