{"pageProps":{"stateName":"California","cityName":"orangevale","nearbyCities":[{"city":"Folsom","state_name":"California","lat":38.67818,"lng":-121.17437,"zip":"95763","miles_from_dt":2.57},{"city":"Citrus Heights","state_name":"California","lat":38.69494,"lng":-121.27219,"zip":"95610","miles_from_dt":2.86},{"city":"Fair Oaks","state_name":"California","lat":38.65212,"lng":-121.2543,"zip":"95628","miles_from_dt":3.16},{"city":"Citrus Heights","state_name":"California","lat":38.707,"lng":-121.27797,"zip":"95611","miles_from_dt":3.37},{"city":"Represa","state_name":"California","lat":38.69529,"lng":-121.15671,"zip":"95671","miles_from_dt":3.44},{"city":"Roseville","state_name":"California","lat":38.74129,"lng":-121.24925,"zip":"95661","miles_from_dt":3.93},{"city":"Folsom","state_name":"California","lat":38.66558,"lng":-121.141,"zip":"95630","miles_from_dt":4.56},{"city":"Citrus Heights","state_name":"California","lat":38.69551,"lng":-121.30862,"zip":"95621","miles_from_dt":4.82},{"city":"Granite Bay","state_name":"California","lat":38.75009,"lng":-121.16712,"zip":"95746","miles_from_dt":5.08},{"city":"Roseville","state_name":"California","lat":38.76536,"lng":-121.28847,"zip":"95678","miles_from_dt":6.43},{"city":"Rancho Cordova","state_name":"California","lat":38.60461,"lng":-121.27963,"zip":"95670","miles_from_dt":6.67},{"city":"Sacramento","state_name":"California","lat":38.687,"lng":-121.34889,"zip":"95842","miles_from_dt":6.98},{"city":"Rocklin","state_name":"California","lat":38.79298,"lng":-121.23133,"zip":"95677","miles_from_dt":7.19},{"city":"Sacramento","state_name":"California","lat":38.66031,"lng":-121.34812,"zip":"95841","miles_from_dt":7.21},{"city":"Carmichael","state_name":"California","lat":38.62531,"lng":-121.32742,"zip":"95609","miles_from_dt":7.3},{"city":"Carmichael","state_name":"California","lat":38.62611,"lng":-121.32886,"zip":"95608","miles_from_dt":7.33},{"city":"Antelope","state_name":"California","lat":38.71532,"lng":-121.36366,"zip":"95843","miles_from_dt":7.98},{"city":"Rancho Cordova","state_name":"California","lat":38.5735,"lng":-121.19854,"zip":"95742","miles_from_dt":8.06},{"city":"Rancho Cordova","state_name":"California","lat":38.58882,"lng":-121.30068,"zip":"95741","miles_from_dt":8.19},{"city":"North Highlands","state_name":"California","lat":38.67883,"lng":-121.3805,"zip":"95660","miles_from_dt":8.71},{"city":"El Dorado Hills","state_name":"California","lat":38.67694,"lng":-121.05755,"zip":"95762","miles_from_dt":8.82},{"city":"Loomis","state_name":"California","lat":38.81339,"lng":-121.16831,"zip":"95650","miles_from_dt":9.01},{"city":"Rocklin","state_name":"California","lat":38.81982,"lng":-121.27772,"zip":"95765","miles_from_dt":9.54},{"city":"Sacramento","state_name":"California","lat":38.62541,"lng":-121.38479,"zip":"95821","miles_from_dt":9.94},{"city":"Mcclellan","state_name":"California","lat":38.66265,"lng":-121.40079,"zip":"95652","miles_from_dt":9.95},{"city":"Mather","state_name":"California","lat":38.54976,"lng":-121.27898,"zip":"95655","miles_from_dt":10.13},{"city":"Roseville","state_name":"California","lat":38.77963,"lng":-121.36798,"zip":"95747","miles_from_dt":10.15},{"city":"Sacramento","state_name":"California","lat":38.60833,"lng":-121.38169,"zip":"95860","miles_from_dt":10.38},{"city":"Sacramento","state_name":"California","lat":38.55151,"lng":-121.3253,"zip":"95827","miles_from_dt":11.08},{"city":"Sacramento","state_name":"California","lat":38.58512,"lng":-121.37655,"zip":"95864","miles_from_dt":11.11},{"city":"Penryn","state_name":"California","lat":38.85739,"lng":-121.18251,"zip":"95663","miles_from_dt":11.78},{"city":"Pilot Hill","state_name":"California","lat":38.79755,"lng":-121.05136,"zip":"95664","miles_from_dt":11.78},{"city":"Sacramento","state_name":"California","lat":38.5901,"lng":-121.40644,"zip":"95825","miles_from_dt":12.19},{"city":"Sacramento","state_name":"California","lat":38.58945,"lng":-121.40784,"zip":"95866","miles_from_dt":12.28},{"city":"Sacramento","state_name":"California","lat":38.58868,"lng":-121.40725,"zip":"95865","miles_from_dt":12.28},{"city":"Rescue","state_name":"California","lat":38.72664,"lng":-120.99638,"zip":"95672","miles_from_dt":12.35},{"city":"Sacramento","state_name":"California","lat":38.64708,"lng":-121.44312,"zip":"95838","miles_from_dt":12.42},{"city":"Sacramento","state_name":"California","lat":38.54554,"lng":-121.37885,"zip":"95826","miles_from_dt":13.12},{"city":"Sacramento","state_name":"California","lat":38.6081,"lng":-121.44154,"zip":"95851","miles_from_dt":13.23},{"city":"Sacramento","state_name":"California","lat":38.60559,"lng":-121.44143,"zip":"95852","miles_from_dt":13.3},{"city":"Rio Linda","state_name":"California","lat":38.69029,"lng":-121.46603,"zip":"95673","miles_from_dt":13.31},{"city":"Sacramento","state_name":"California","lat":38.6073,"lng":-121.44317,"zip":"95853","miles_from_dt":13.33},{"city":"Sacramento","state_name":"California","lat":38.60544,"lng":-121.44497,"zip":"95815","miles_from_dt":13.48},{"city":"Sacramento","state_name":"California","lat":38.60282,"lng":-121.44588,"zip":"94204","miles_from_dt":13.6},{"city":"Newcastle","state_name":"California","lat":38.87938,"lng":-121.15173,"zip":"95658","miles_from_dt":13.63},{"city":"Sacramento","state_name":"California","lat":38.49415,"lng":-121.27229,"zip":"95830","miles_from_dt":13.75},{"city":"Sloughhouse","state_name":"California","lat":38.51018,"lng":-121.09894,"zip":"95683","miles_from_dt":13.97},{"city":"Sacramento","state_name":"California","lat":38.56816,"lng":-121.43772,"zip":"95819","miles_from_dt":14.44},{"city":"Elverta","state_name":"California","lat":38.73378,"lng":-121.48898,"zip":"95626","miles_from_dt":14.87},{"city":"Shingle Springs","state_name":"California","lat":38.60537,"lng":-120.96175,"zip":"95682","miles_from_dt":15.11},{"city":"Sacramento","state_name":"California","lat":38.48759,"lng":-121.33326,"zip":"95829","miles_from_dt":15.2},{"city":"Sacramento","state_name":"California","lat":38.57555,"lng":-121.46543,"zip":"95816","miles_from_dt":15.42},{"city":"Sacramento","state_name":"California","lat":38.57302,"lng":-121.46736,"zip":"94249","miles_from_dt":15.6},{"city":"Sacramento","state_name":"California","lat":38.57426,"lng":-121.46893,"zip":"94278","miles_from_dt":15.63},{"city":"Sacramento","state_name":"California","lat":38.56443,"lng":-121.46914,"zip":"94299","miles_from_dt":16},{"city":"Sacramento","state_name":"California","lat":38.55057,"lng":-121.45713,"zip":"95817","miles_from_dt":16.01},{"city":"Sacramento","state_name":"California","lat":38.53491,"lng":-121.4442,"zip":"95820","miles_from_dt":16.14},{"city":"Sacramento","state_name":"California","lat":38.58761,"lng":-121.49077,"zip":"95811","miles_from_dt":16.24},{"city":"Sacramento","state_name":"California","lat":38.58708,"lng":-121.49081,"zip":"94289","miles_from_dt":16.26},{"city":"Sacramento","state_name":"California","lat":38.58521,"lng":-121.48958,"zip":"94277","miles_from_dt":16.26},{"city":"Sacramento","state_name":"California","lat":38.58719,"lng":-121.49154,"zip":"94245","miles_from_dt":16.29},{"city":"Sacramento","state_name":"California","lat":38.58169,"lng":-121.48869,"zip":"94207","miles_from_dt":16.32},{"city":"Sacramento","state_name":"California","lat":38.58371,"lng":-121.49023,"zip":"95840","miles_from_dt":16.34},{"city":"Sacramento","state_name":"California","lat":38.58508,"lng":-121.49166,"zip":"94263","miles_from_dt":16.36},{"city":"Sacramento","state_name":"California","lat":38.58508,"lng":-121.49197,"zip":"94254","miles_from_dt":16.38},{"city":"Sacramento","state_name":"California","lat":38.5832,"lng":-121.49086,"zip":"94236","miles_from_dt":16.38},{"city":"Sacramento","state_name":"California","lat":38.5828,"lng":-121.49057,"zip":"94267","miles_from_dt":16.38},{"city":"Sacramento","state_name":"California","lat":38.58712,"lng":-121.49327,"zip":"94257","miles_from_dt":16.38},{"city":"Sacramento","state_name":"California","lat":38.588,"lng":-121.49379,"zip":"94244","miles_from_dt":16.38},{"city":"Sacramento","state_name":"California","lat":38.58646,"lng":-121.49303,"zip":"94248","miles_from_dt":16.39},{"city":"Sacramento","state_name":"California","lat":38.58321,"lng":-121.49129,"zip":"94271","miles_from_dt":16.4},{"city":"Sacramento","state_name":"California","lat":38.508,"lng":-121.41678,"zip":"95813","miles_from_dt":16.42},{"city":"Sacramento","state_name":"California","lat":38.58381,"lng":-121.49215,"zip":"94262","miles_from_dt":16.43},{"city":"Sacramento","state_name":"California","lat":38.58547,"lng":-121.49331,"zip":"94237","miles_from_dt":16.43},{"city":"Sacramento","state_name":"California","lat":38.5858,"lng":-121.49353,"zip":"94287","miles_from_dt":16.43},{"city":"Sacramento","state_name":"California","lat":38.58712,"lng":-121.49448,"zip":"94273","miles_from_dt":16.44},{"city":"Sacramento","state_name":"California","lat":38.58645,"lng":-121.49408,"zip":"94274","miles_from_dt":16.44},{"city":"Sacramento","state_name":"California","lat":38.58246,"lng":-121.49182,"zip":"94268","miles_from_dt":16.45},{"city":"Sacramento","state_name":"California","lat":38.58499,"lng":-121.49367,"zip":"94261","miles_from_dt":16.46},{"city":"Sacramento","state_name":"California","lat":38.58162,"lng":-121.4915,"zip":"94250","miles_from_dt":16.46},{"city":"Sacramento","state_name":"California","lat":38.58606,"lng":-121.49445,"zip":"94234","miles_from_dt":16.47},{"city":"Sacramento","state_name":"California","lat":38.58712,"lng":-121.49513,"zip":"94229","miles_from_dt":16.47},{"city":"Sacramento","state_name":"California","lat":38.58407,"lng":-121.49328,"zip":"94295","miles_from_dt":16.47},{"city":"Sacramento","state_name":"California","lat":38.58486,"lng":-121.49372,"zip":"95867","miles_from_dt":16.47},{"city":"Sacramento","state_name":"California","lat":38.58435,"lng":-121.49376,"zip":"94203","miles_from_dt":16.49},{"city":"Sacramento","state_name":"California","lat":38.58354,"lng":-121.49338,"zip":"94209","miles_from_dt":16.49},{"city":"Sacramento","state_name":"California","lat":38.58643,"lng":-121.49504,"zip":"94247","miles_from_dt":16.49},{"city":"Sacramento","state_name":"California","lat":38.58568,"lng":-121.49456,"zip":"94279","miles_from_dt":16.49},{"city":"Sacramento","state_name":"California","lat":38.58529,"lng":-121.49479,"zip":"94240","miles_from_dt":16.51},{"city":"Sacramento","state_name":"California","lat":38.58628,"lng":-121.49546,"zip":"94211","miles_from_dt":16.51},{"city":"Sacramento","state_name":"California","lat":38.58219,"lng":-121.49289,"zip":"94288","miles_from_dt":16.51},{"city":"Sacramento","state_name":"California","lat":38.5862,"lng":-121.49532,"zip":"94252","miles_from_dt":16.51},{"city":"Sacramento","state_name":"California","lat":38.58528,"lng":-121.49496,"zip":"94258","miles_from_dt":16.52},{"city":"Sacramento","state_name":"California","lat":38.58452,"lng":-121.49449,"zip":"94282","miles_from_dt":16.52},{"city":"Sacramento","state_name":"California","lat":38.67088,"lng":-121.52464,"zip":"95835","miles_from_dt":16.53},{"city":"Sacramento","state_name":"California","lat":38.58481,"lng":-121.49489,"zip":"94208","miles_from_dt":16.53},{"city":"Sacramento","state_name":"California","lat":38.58402,"lng":-121.49442,"zip":"94298","miles_from_dt":16.53},{"city":"Sacramento","state_name":"California","lat":38.64207,"lng":-121.51967,"zip":"95834","miles_from_dt":16.53},{"city":"Sacramento","state_name":"California","lat":38.58358,"lng":-121.4943,"zip":"94256","miles_from_dt":16.54},{"city":"Sacramento","state_name":"California","lat":38.58447,"lng":-121.49525,"zip":"94235","miles_from_dt":16.56},{"city":"Sacramento","state_name":"California","lat":38.58232,"lng":-121.49447,"zip":"94280","miles_from_dt":16.58},{"city":"Sacramento","state_name":"California","lat":38.58064,"lng":-121.49488,"zip":"95814","miles_from_dt":16.66},{"city":"Auburn","state_name":"California","lat":38.9112,"lng":-121.0982,"zip":"95604","miles_from_dt":16.66},{"city":"Sacramento","state_name":"California","lat":38.58193,"lng":-121.49635,"zip":"95812","miles_from_dt":16.69},{"city":"Sacramento","state_name":"California","lat":38.48943,"lng":-121.39598,"zip":"95828","miles_from_dt":16.75},{"city":"Sacramento","state_name":"California","lat":38.61529,"lng":-121.51558,"zip":"95833","miles_from_dt":16.79},{"city":"Sacramento","state_name":"California","lat":38.51746,"lng":-121.44147,"zip":"95824","miles_from_dt":16.86},{"city":"Auburn","state_name":"California","lat":38.91167,"lng":-121.08559,"zip":"95603","miles_from_dt":16.97},{"city":"Lincoln","state_name":"California","lat":38.92643,"lng":-121.31101,"zip":"95648","miles_from_dt":17.09},{"city":"Sacramento","state_name":"California","lat":38.70406,"lng":-121.53555,"zip":"95836","miles_from_dt":17.09},{"city":"Sacramento","state_name":"California","lat":38.57092,"lng":-121.50291,"zip":"94296","miles_from_dt":17.35},{"city":"Sacramento","state_name":"California","lat":38.55645,"lng":-121.49421,"zip":"94294","miles_from_dt":17.44},{"city":"Sacramento","state_name":"California","lat":38.55905,"lng":-121.49722,"zip":"94291","miles_from_dt":17.49},{"city":"Sacramento","state_name":"California","lat":38.55871,"lng":-121.49752,"zip":"94259","miles_from_dt":17.51},{"city":"Sacramento","state_name":"California","lat":38.55651,"lng":-121.49648,"zip":"94239","miles_from_dt":17.54},{"city":"Sacramento","state_name":"California","lat":38.55478,"lng":-121.49562,"zip":"94293","miles_from_dt":17.57},{"city":"Sacramento","state_name":"California","lat":38.55548,"lng":-121.49654,"zip":"94269","miles_from_dt":17.58},{"city":"Sacramento","state_name":"California","lat":38.55579,"lng":-121.49669,"zip":"95818","miles_from_dt":17.58},{"city":"Sacramento","state_name":"California","lat":38.55497,"lng":-121.49628,"zip":"94232","miles_from_dt":17.59},{"city":"Pleasant Grove","state_name":"California","lat":38.82708,"lng":-121.49378,"zip":"95668","miles_from_dt":17.59},{"city":"Sacramento","state_name":"California","lat":38.55668,"lng":-121.49807,"zip":"95894","miles_from_dt":17.61},{"city":"Sacramento","state_name":"California","lat":38.55543,"lng":-121.49926,"zip":"94290","miles_from_dt":17.71},{"city":"Sacramento","state_name":"California","lat":38.553,"lng":-121.49737,"zip":"94297","miles_from_dt":17.71},{"city":"Lotus","state_name":"California","lat":38.82088,"lng":-120.93515,"zip":"95651","miles_from_dt":17.86},{"city":"Sacramento","state_name":"California","lat":38.55232,"lng":-121.50072,"zip":"94285","miles_from_dt":17.89},{"city":"Sacramento","state_name":"California","lat":38.5532,"lng":-121.50148,"zip":"94284","miles_from_dt":17.89},{"city":"Sacramento","state_name":"California","lat":38.58071,"lng":-121.52656,"zip":"95899","miles_from_dt":18.2},{"city":"Sacramento","state_name":"California","lat":38.49482,"lng":-121.44957,"zip":"94206","miles_from_dt":18.28},{"city":"Elk Grove","state_name":"California","lat":38.43203,"lng":-121.30506,"zip":"95624","miles_from_dt":18.33},{"city":"Cool","state_name":"California","lat":38.88649,"lng":-120.98896,"zip":"95614","miles_from_dt":18.46},{"city":"West Sacramento","state_name":"California","lat":38.59289,"lng":-121.53929,"zip":"95605","miles_from_dt":18.51},{"city":"Sacramento","state_name":"California","lat":38.47658,"lng":-121.44271,"zip":"94205","miles_from_dt":18.99},{"city":"Sacramento","state_name":"California","lat":38.47736,"lng":-121.44416,"zip":"94283","miles_from_dt":19},{"city":"Sacramento","state_name":"California","lat":38.47473,"lng":-121.44266,"zip":"95823","miles_from_dt":19.09},{"city":"Sacramento","state_name":"California","lat":38.47447,"lng":-121.44401,"zip":"94230","miles_from_dt":19.15},{"city":"Sacramento","state_name":"California","lat":38.51273,"lng":-121.49556,"zip":"95822","miles_from_dt":19.26},{"city":"Coloma","state_name":"California","lat":38.81272,"lng":-120.89173,"zip":"95613","miles_from_dt":19.67},{"city":"Wilton","state_name":"California","lat":38.39851,"lng":-121.21956,"zip":"95693","miles_from_dt":20.05},{"city":"West Sacramento","state_name":"California","lat":38.57492,"lng":-121.56186,"zip":"95798","miles_from_dt":20.11},{"city":"West Sacramento","state_name":"California","lat":38.62394,"lng":-121.58272,"zip":"95691","miles_from_dt":20.13},{"city":"Sacramento","state_name":"California","lat":38.68925,"lng":-121.59537,"zip":"95837","miles_from_dt":20.3},{"city":"El Dorado","state_name":"California","lat":38.6075,"lng":-120.84873,"zip":"95623","miles_from_dt":20.85},{"city":"West Sacramento","state_name":"California","lat":38.54078,"lng":-121.557,"zip":"95799","miles_from_dt":20.92},{"city":"Elk Grove","state_name":"California","lat":38.40435,"lng":-121.37531,"zip":"95759","miles_from_dt":21.37},{"city":"Sacramento","state_name":"California","lat":38.49599,"lng":-121.52948,"zip":"95831","miles_from_dt":21.41},{"city":"Auburn","state_name":"California","lat":38.99039,"lng":-121.10991,"zip":"95602","miles_from_dt":21.61},{"city":"Elk Grove","state_name":"California","lat":38.42932,"lng":-121.44603,"zip":"95758","miles_from_dt":21.71},{"city":"Diamond Springs","state_name":"California","lat":38.68218,"lng":-120.81401,"zip":"95619","miles_from_dt":21.95},{"city":"Nicolaus","state_name":"California","lat":38.84594,"lng":-121.57679,"zip":"95659","miles_from_dt":22.1},{"city":"Plymouth","state_name":"California","lat":38.49522,"lng":-120.89157,"zip":"95669","miles_from_dt":22.25},{"city":"Sheridan","state_name":"California","lat":38.99809,"lng":-121.35422,"zip":"95681","miles_from_dt":22.51},{"city":"Sacramento","state_name":"California","lat":38.43979,"lng":-121.49888,"zip":"95832","miles_from_dt":22.9},{"city":"Greenwood","state_name":"California","lat":38.91111,"lng":-120.90043,"zip":"95635","miles_from_dt":23.06},{"city":"Rio Oso","state_name":"California","lat":38.95396,"lng":-121.48187,"zip":"95674","miles_from_dt":23.1},{"city":"Placerville","state_name":"California","lat":38.73407,"lng":-120.79216,"zip":"95667","miles_from_dt":23.32},{"city":"Meadow Vista","state_name":"California","lat":39.00467,"lng":-121.02891,"zip":"95722","miles_from_dt":24.08},{"city":"Garden Valley","state_name":"California","lat":38.84919,"lng":-120.82328,"zip":"95633","miles_from_dt":24.09},{"city":"Applegate","state_name":"California","lat":38.99156,"lng":-120.9864,"zip":"95703","miles_from_dt":24.37},{"city":"Herald","state_name":"California","lat":38.33969,"lng":-121.11481,"zip":"95638","miles_from_dt":24.77},{"city":"Hood","state_name":"California","lat":38.39202,"lng":-121.49599,"zip":"95639","miles_from_dt":25.37},{"city":"Drytown","state_name":"California","lat":38.44074,"lng":-120.85702,"zip":"95699","miles_from_dt":26.07},{"city":"Woodland","state_name":"California","lat":38.68889,"lng":-121.70776,"zip":"95776","miles_from_dt":26.38},{"city":"Wheatland","state_name":"California","lat":39.04699,"lng":-121.40471,"zip":"95692","miles_from_dt":26.62},{"city":"Elk Grove","state_name":"California","lat":38.33886,"lng":-121.43643,"zip":"95757","miles_from_dt":26.86},{"city":"Davis","state_name":"California","lat":38.54348,"lng":-121.6917,"zip":"95618","miles_from_dt":27.44},{"city":"Weimar","state_name":"California","lat":39.03905,"lng":-120.97738,"zip":"95736","miles_from_dt":27.45},{"city":"River Pines","state_name":"California","lat":38.54548,"lng":-120.74277,"zip":"95675","miles_from_dt":27.66},{"city":"Amador City","state_name":"California","lat":38.42713,"lng":-120.82997,"zip":"95601","miles_from_dt":27.8},{"city":"Ione","state_name":"California","lat":38.33922,"lng":-120.94024,"zip":"95640","miles_from_dt":28.5},{"city":"Galt","state_name":"California","lat":38.27705,"lng":-121.26128,"zip":"95632","miles_from_dt":28.51},{"city":"Clarksburg","state_name":"California","lat":38.38644,"lng":-121.58118,"zip":"95612","miles_from_dt":28.62},{"city":"Mount Aukum","state_name":"California","lat":38.56338,"lng":-120.71493,"zip":"95656","miles_from_dt":28.67},{"city":"Grass Valley","state_name":"California","lat":39.102,"lng":-121.13343,"zip":"95949","miles_from_dt":28.86},{"city":"Davis","state_name":"California","lat":38.5477,"lng":-121.72218,"zip":"95617","miles_from_dt":28.88},{"city":"Camino","state_name":"California","lat":38.74886,"lng":-120.68134,"zip":"95709","miles_from_dt":29.39},{"city":"Robbins","state_name":"California","lat":38.87224,"lng":-121.71664,"zip":"95676","miles_from_dt":29.65},{"city":"Olivehurst","state_name":"California","lat":39.03343,"lng":-121.55754,"zip":"95961","miles_from_dt":29.93}],"targetCityZipCode":"95662","targetCityState":"California"},"__N_SSG":true}