{"pageProps":{"stateName":"California","cityName":"pala","nearbyCities":[{"city":"Temecula","state_name":"California","lat":33.511,"lng":-117.0242,"zip":"92592","miles_from_dt":8.98},{"city":"Pauma Valley","state_name":"California","lat":33.30036,"lng":-116.93048,"zip":"92061","miles_from_dt":9.03},{"city":"Valley Center","state_name":"California","lat":33.2518,"lng":-117.00284,"zip":"92082","miles_from_dt":9.46},{"city":"Temecula","state_name":"California","lat":33.51697,"lng":-117.11021,"zip":"92589","miles_from_dt":9.84},{"city":"Fallbrook","state_name":"California","lat":33.38613,"lng":-117.22658,"zip":"92028","miles_from_dt":10.1},{"city":"Temecula","state_name":"California","lat":33.50207,"lng":-117.15483,"zip":"92593","miles_from_dt":10.15},{"city":"Bonsall","state_name":"California","lat":33.28701,"lng":-117.19977,"zip":"92003","miles_from_dt":10.8},{"city":"Temecula","state_name":"California","lat":33.53432,"lng":-117.1092,"zip":"92591","miles_from_dt":10.96},{"city":"Palomar Mountain","state_name":"California","lat":33.35043,"lng":-116.86451,"zip":"92060","miles_from_dt":11.06},{"city":"Fallbrook","state_name":"California","lat":33.36563,"lng":-117.24838,"zip":"92088","miles_from_dt":11.42},{"city":"Temecula","state_name":"California","lat":33.48391,"lng":-117.22075,"zip":"92590","miles_from_dt":11.99},{"city":"Escondido","state_name":"California","lat":33.2111,"lng":-117.11157,"zip":"92026","miles_from_dt":12.32},{"city":"Vista","state_name":"California","lat":33.22454,"lng":-117.20334,"zip":"92084","miles_from_dt":13.99},{"city":"San Luis Rey","state_name":"California","lat":33.27676,"lng":-117.2727,"zip":"92068","miles_from_dt":14.71},{"city":"Murrieta","state_name":"California","lat":33.58435,"lng":-117.14458,"zip":"92563","miles_from_dt":14.89},{"city":"Aguanga","state_name":"California","lat":33.48791,"lng":-116.81528,"zip":"92536","miles_from_dt":15.48},{"city":"San Marcos","state_name":"California","lat":33.17536,"lng":-117.15761,"zip":"92069","miles_from_dt":15.55},{"city":"Oceanside","state_name":"California","lat":33.25326,"lng":-117.28704,"zip":"92057","miles_from_dt":16.27},{"city":"Vista","state_name":"California","lat":33.19112,"lng":-117.22881,"zip":"92085","miles_from_dt":16.71},{"city":"Vista","state_name":"California","lat":33.19808,"lng":-117.24844,"zip":"92083","miles_from_dt":17.07},{"city":"Escondido","state_name":"California","lat":33.13512,"lng":-117.05619,"zip":"92030","miles_from_dt":17.07},{"city":"Escondido","state_name":"California","lat":33.13263,"lng":-116.98335,"zip":"92027","miles_from_dt":17.69},{"city":"San Marcos","state_name":"California","lat":33.14265,"lng":-117.16562,"zip":"92079","miles_from_dt":17.81},{"city":"Escondido","state_name":"California","lat":33.12592,"lng":-117.10164,"zip":"92046","miles_from_dt":17.93},{"city":"Oceanside","state_name":"California","lat":33.28379,"lng":-117.34182,"zip":"92058","miles_from_dt":18.1},{"city":"Escondido","state_name":"California","lat":33.12107,"lng":-117.08689,"zip":"92033","miles_from_dt":18.15},{"city":"Winchester","state_name":"California","lat":33.64739,"lng":-117.07641,"zip":"92596","miles_from_dt":18.29},{"city":"Oceanside","state_name":"California","lat":33.20197,"lng":-117.28939,"zip":"92056","miles_from_dt":18.55},{"city":"San Marcos","state_name":"California","lat":33.12819,"lng":-117.15631,"zip":"92096","miles_from_dt":18.56},{"city":"Vista","state_name":"California","lat":33.16451,"lng":-117.24056,"zip":"92081","miles_from_dt":18.59},{"city":"Murrieta","state_name":"California","lat":33.64178,"lng":-117.18626,"zip":"92564","miles_from_dt":19.46},{"city":"San Marcos","state_name":"California","lat":33.11834,"lng":-117.18554,"zip":"92078","miles_from_dt":19.8},{"city":"Wildomar","state_name":"California","lat":33.61638,"lng":-117.26028,"zip":"92595","miles_from_dt":20.1},{"city":"Murrieta","state_name":"California","lat":33.53579,"lng":-117.35098,"zip":"92562","miles_from_dt":20.24},{"city":"Escondido","state_name":"California","lat":33.08492,"lng":-117.02967,"zip":"92025","miles_from_dt":20.57},{"city":"Carlsbad","state_name":"California","lat":33.15676,"lng":-117.28423,"zip":"92010","miles_from_dt":20.58},{"city":"Menifee","state_name":"California","lat":33.66167,"lng":-117.18079,"zip":"92584","miles_from_dt":20.61},{"city":"Escondido","state_name":"California","lat":33.08555,"lng":-117.12885,"zip":"92029","miles_from_dt":20.96},{"city":"Hemet","state_name":"California","lat":33.64581,"lng":-116.86033,"zip":"92544","miles_from_dt":21.24},{"city":"Camp Pendleton","state_name":"California","lat":33.38123,"lng":-117.42874,"zip":"92055","miles_from_dt":21.79},{"city":"Oceanside","state_name":"California","lat":33.19377,"lng":-117.35508,"zip":"92054","miles_from_dt":21.85},{"city":"Hemet","state_name":"California","lat":33.69867,"lng":-116.97916,"zip":"92543","miles_from_dt":22.17},{"city":"Oceanside","state_name":"California","lat":33.20151,"lng":-117.37022,"zip":"92051","miles_from_dt":22.26},{"city":"Oceanside","state_name":"California","lat":33.19698,"lng":-117.36706,"zip":"92052","miles_from_dt":22.28},{"city":"Carlsbad","state_name":"California","lat":33.14564,"lng":-117.31691,"zip":"92008","miles_from_dt":22.41},{"city":"Santa Ysabel","state_name":"California","lat":33.18513,"lng":-116.74071,"zip":"92070","miles_from_dt":22.58},{"city":"Carlsbad","state_name":"California","lat":33.09535,"lng":-117.24574,"zip":"92009","miles_from_dt":22.77},{"city":"Carlsbad","state_name":"California","lat":33.1629,"lng":-117.34574,"zip":"92018","miles_from_dt":22.78},{"city":"Oceanside","state_name":"California","lat":33.19482,"lng":-117.37967,"zip":"92049","miles_from_dt":22.97},{"city":"Carlsbad","state_name":"California","lat":33.1614,"lng":-117.34969,"zip":"92013","miles_from_dt":23.02},{"city":"Carlsbad","state_name":"California","lat":33.10698,"lng":-117.29507,"zip":"92011","miles_from_dt":23.65},{"city":"Menifee","state_name":"California","lat":33.70773,"lng":-117.20045,"zip":"92586","miles_from_dt":23.98},{"city":"Hemet","state_name":"California","lat":33.7311,"lng":-117.0359,"zip":"92545","miles_from_dt":24.02},{"city":"Menifee","state_name":"California","lat":33.69466,"lng":-117.25196,"zip":"92587","miles_from_dt":24.4},{"city":"Warner Springs","state_name":"California","lat":33.29718,"lng":-116.64176,"zip":"92086","miles_from_dt":24.45},{"city":"Lake Elsinore","state_name":"California","lat":33.60526,"lng":-117.3939,"zip":"92531","miles_from_dt":25},{"city":"Anza","state_name":"California","lat":33.51579,"lng":-116.64432,"zip":"92539","miles_from_dt":25.27},{"city":"Encinitas","state_name":"California","lat":33.05716,"lng":-117.25651,"zip":"92024","miles_from_dt":25.38},{"city":"San Diego","state_name":"California","lat":33.01913,"lng":-117.12339,"zip":"92127","miles_from_dt":25.4},{"city":"Rancho Santa Fe","state_name":"California","lat":33.03432,"lng":-117.19704,"zip":"92091","miles_from_dt":25.44},{"city":"Lake Elsinore","state_name":"California","lat":33.63386,"lng":-117.37949,"zip":"92530","miles_from_dt":25.63},{"city":"Menifee","state_name":"California","lat":33.74217,"lng":-117.16723,"zip":"92585","miles_from_dt":25.65},{"city":"Lake Elsinore","state_name":"California","lat":33.69052,"lng":-117.30241,"zip":"92532","miles_from_dt":25.67},{"city":"Hemet","state_name":"California","lat":33.74999,"lng":-116.96813,"zip":"92546","miles_from_dt":25.77},{"city":"Ramona","state_name":"California","lat":33.04736,"lng":-116.84386,"zip":"92065","miles_from_dt":26.07},{"city":"Rancho Santa Fe","state_name":"California","lat":33.02087,"lng":-117.19209,"zip":"92067","miles_from_dt":26.23},{"city":"Homeland","state_name":"California","lat":33.76392,"lng":-117.10907,"zip":"92548","miles_from_dt":26.47},{"city":"San Diego","state_name":"California","lat":32.99705,"lng":-117.0707,"zip":"92198","miles_from_dt":26.6},{"city":"San Diego","state_name":"California","lat":32.99687,"lng":-117.07308,"zip":"92128","miles_from_dt":26.62},{"city":"San Diego","state_name":"California","lat":32.98629,"lng":-117.08136,"zip":"92150","miles_from_dt":27.38},{"city":"Encinitas","state_name":"California","lat":33.03477,"lng":-117.29326,"zip":"92023","miles_from_dt":27.76},{"city":"San Diego","state_name":"California","lat":32.98014,"lng":-117.08234,"zip":"92199","miles_from_dt":27.8},{"city":"Poway","state_name":"California","lat":32.98038,"lng":-117.01746,"zip":"92064","miles_from_dt":27.8},{"city":"Cardiff By The Sea","state_name":"California","lat":33.02216,"lng":-117.27389,"zip":"92007","miles_from_dt":27.98},{"city":"San Jacinto","state_name":"California","lat":33.78471,"lng":-116.95991,"zip":"92581","miles_from_dt":28.21},{"city":"San Clemente","state_name":"California","lat":33.3825,"lng":-117.5403,"zip":"92672","miles_from_dt":28.24},{"city":"Solana Beach","state_name":"California","lat":32.99735,"lng":-117.25875,"zip":"92075","miles_from_dt":29.14},{"city":"San Jacinto","state_name":"California","lat":33.80489,"lng":-117.01873,"zip":"92582","miles_from_dt":29.16},{"city":"San Diego","state_name":"California","lat":32.96354,"lng":-117.12622,"zip":"92129","miles_from_dt":29.21},{"city":"San Diego","state_name":"California","lat":32.96459,"lng":-117.13693,"zip":"92172","miles_from_dt":29.24},{"city":"Poway","state_name":"California","lat":32.9575,"lng":-117.03493,"zip":"92074","miles_from_dt":29.32},{"city":"San Jacinto","state_name":"California","lat":33.79662,"lng":-116.93188,"zip":"92583","miles_from_dt":29.35},{"city":"Perris","state_name":"California","lat":33.78596,"lng":-117.22671,"zip":"92572","miles_from_dt":29.56}],"targetCityZipCode":"92059","targetCityState":"California"},"__N_SSG":true}