{"pageProps":{"stateName":"California","cityName":"richgrove","nearbyCities":[{"city":"Delano","state_name":"California","lat":35.7764,"lng":-119.18835,"zip":"93215","miles_from_dt":4.69},{"city":"Ducor","state_name":"California","lat":35.86194,"lng":-119.03822,"zip":"93218","miles_from_dt":5.62},{"city":"Delano","state_name":"California","lat":35.75515,"lng":-119.27606,"zip":"93216","miles_from_dt":9.76},{"city":"Terra Bella","state_name":"California","lat":35.94703,"lng":-119.05669,"zip":"93270","miles_from_dt":9.93},{"city":"Earlimart","state_name":"California","lat":35.87908,"lng":-119.28818,"zip":"93219","miles_from_dt":10.69},{"city":"McFarland","state_name":"California","lat":35.66456,"lng":-119.20278,"zip":"93250","miles_from_dt":11.22},{"city":"Woody","state_name":"California","lat":35.72387,"lng":-118.91958,"zip":"93287","miles_from_dt":12.62},{"city":"Pixley","state_name":"California","lat":35.96805,"lng":-119.31251,"zip":"93256","miles_from_dt":15.4},{"city":"Porterville","state_name":"California","lat":36.05833,"lng":-119.15209,"zip":"93258","miles_from_dt":17.14},{"city":"Porterville","state_name":"California","lat":35.98708,"lng":-118.89493,"zip":"93257","miles_from_dt":17.36},{"city":"Tipton","state_name":"California","lat":36.04818,"lng":-119.34535,"zip":"93272","miles_from_dt":20.75},{"city":"Bakersfield","state_name":"California","lat":35.5498,"lng":-118.93389,"zip":"93308","miles_from_dt":20.77},{"city":"Alpaugh","state_name":"California","lat":35.8555,"lng":-119.48338,"zip":"93201","miles_from_dt":20.81},{"city":"Bakersfield","state_name":"California","lat":35.55218,"lng":-118.91904,"zip":"93303","miles_from_dt":21.05},{"city":"Bakersfield","state_name":"California","lat":35.55048,"lng":-118.92102,"zip":"93380","miles_from_dt":21.09},{"city":"Wasco","state_name":"California","lat":35.65204,"lng":-119.44716,"zip":"93280","miles_from_dt":21.58},{"city":"Glennville","state_name":"California","lat":35.7476,"lng":-118.73462,"zip":"93226","miles_from_dt":21.91},{"city":"Strathmore","state_name":"California","lat":36.14279,"lng":-119.0742,"zip":"93267","miles_from_dt":22.97},{"city":"Shafter","state_name":"California","lat":35.48722,"lng":-119.27835,"zip":"93263","miles_from_dt":24.13},{"city":"Posey","state_name":"California","lat":35.81909,"lng":-118.66116,"zip":"93260","miles_from_dt":25.59},{"city":"Lindsay","state_name":"California","lat":36.20234,"lng":-119.08277,"zip":"93247","miles_from_dt":27.02},{"city":"Bakersfield","state_name":"California","lat":35.41886,"lng":-119.02293,"zip":"93388","miles_from_dt":27.58},{"city":"California Hot Springs","state_name":"California","lat":35.88721,"lng":-118.63153,"zip":"93207","miles_from_dt":27.73},{"city":"Bakersfield","state_name":"California","lat":35.39186,"lng":-119.11954,"zip":"93312","miles_from_dt":28.93},{"city":"Corcoran","state_name":"California","lat":36.01649,"lng":-119.56937,"zip":"93212","miles_from_dt":29.06},{"city":"Tulare","state_name":"California","lat":36.17978,"lng":-119.37949,"zip":"93274","miles_from_dt":29.35},{"city":"Bakersfield","state_name":"California","lat":35.38428,"lng":-119.02057,"zip":"93301","miles_from_dt":29.94},{"city":"Bakersfield","state_name":"California","lat":35.38989,"lng":-118.98515,"zip":"93305","miles_from_dt":29.99}],"targetCityZipCode":"93261","targetCityState":"California"},"__N_SSG":true}