{"pageProps":{"stateName":"California","cityName":"riverside","nearbyCities":[{"city":"Riverside","state_name":"California","lat":33.97685,"lng":-117.36998,"zip":"92502","miles_from_dt":1.27},{"city":"Riverside","state_name":"California","lat":33.99548,"lng":-117.41344,"zip":"92519","miles_from_dt":2.28},{"city":"Riverside","state_name":"California","lat":33.95317,"lng":-117.39484,"zip":"92516","miles_from_dt":3.13},{"city":"Riverside","state_name":"California","lat":33.96794,"lng":-117.32731,"zip":"92521","miles_from_dt":3.25},{"city":"Riverside","state_name":"California","lat":33.97464,"lng":-117.32234,"zip":"92507","miles_from_dt":3.26},{"city":"Riverside","state_name":"California","lat":33.96424,"lng":-117.43257,"zip":"92517","miles_from_dt":3.99},{"city":"Riverside","state_name":"California","lat":33.9404,"lng":-117.397,"zip":"92522","miles_from_dt":3.99},{"city":"Jurupa Valley","state_name":"California","lat":34.00293,"lng":-117.44547,"zip":"92509","miles_from_dt":4.16},{"city":"Riverside","state_name":"California","lat":33.94501,"lng":-117.41471,"zip":"92514","miles_from_dt":4.17},{"city":"Riverside","state_name":"California","lat":33.93478,"lng":-117.36689,"zip":"92506","miles_from_dt":4.17},{"city":"Grand Terrace","state_name":"California","lat":34.03142,"lng":-117.31373,"zip":"92313","miles_from_dt":4.26},{"city":"Bloomington","state_name":"California","lat":34.0576,"lng":-117.39076,"zip":"92316","miles_from_dt":4.43},{"city":"Colton","state_name":"California","lat":34.03398,"lng":-117.29008,"zip":"92324","miles_from_dt":5.5},{"city":"Riverside","state_name":"California","lat":33.90607,"lng":-117.39854,"zip":"92504","miles_from_dt":6.29},{"city":"Fontana","state_name":"California","lat":34.04967,"lng":-117.47145,"zip":"92337","miles_from_dt":6.76},{"city":"Moreno Valley","state_name":"California","lat":33.96855,"lng":-117.25704,"zip":"92557","miles_from_dt":6.94},{"city":"Moreno Valley","state_name":"California","lat":33.96549,"lng":-117.24944,"zip":"92556","miles_from_dt":7.42},{"city":"Riverside","state_name":"California","lat":33.91307,"lng":-117.45909,"zip":"92513","miles_from_dt":7.48},{"city":"Loma Linda","state_name":"California","lat":34.05296,"lng":-117.2617,"zip":"92350","miles_from_dt":7.57},{"city":"Riverside","state_name":"California","lat":33.89039,"lng":-117.3282,"zip":"92508","miles_from_dt":7.67},{"city":"San Bernardino","state_name":"California","lat":34.07896,"lng":-117.4624,"zip":"92402","miles_from_dt":7.71},{"city":"Fontana","state_name":"California","lat":34.07503,"lng":-117.46902,"zip":"92334","miles_from_dt":7.77},{"city":"Rialto","state_name":"California","lat":34.11053,"lng":-117.37997,"zip":"92376","miles_from_dt":7.97},{"city":"Loma Linda","state_name":"California","lat":34.04933,"lng":-117.25119,"zip":"92354","miles_from_dt":7.97},{"city":"Loma Linda","state_name":"California","lat":34.05461,"lng":-117.25281,"zip":"92357","miles_from_dt":8.06},{"city":"Fontana","state_name":"California","lat":34.08733,"lng":-117.46519,"zip":"92335","miles_from_dt":8.25},{"city":"Riverside","state_name":"California","lat":33.92663,"lng":-117.4928,"zip":"92505","miles_from_dt":8.31},{"city":"Fontana","state_name":"California","lat":34.104,"lng":-117.436,"zip":"92331","miles_from_dt":8.32},{"city":"Moreno Valley","state_name":"California","lat":33.92554,"lng":-117.2482,"zip":"92552","miles_from_dt":8.65},{"city":"San Bernardino","state_name":"California","lat":34.0845,"lng":-117.2653,"zip":"92408","miles_from_dt":8.76},{"city":"March Air Reserve Base","state_name":"California","lat":33.89602,"lng":-117.27705,"zip":"92518","miles_from_dt":8.79},{"city":"Bryn Mawr","state_name":"California","lat":34.04837,"lng":-117.23367,"zip":"92318","miles_from_dt":8.84},{"city":"Moreno Valley","state_name":"California","lat":33.92335,"lng":-117.24532,"zip":"92553","miles_from_dt":8.87},{"city":"San Bernardino","state_name":"California","lat":34.10655,"lng":-117.29574,"zip":"92410","miles_from_dt":8.9},{"city":"San Bernardino","state_name":"California","lat":34.10415,"lng":-117.29075,"zip":"92418","miles_from_dt":8.9},{"city":"Riverside","state_name":"California","lat":33.88308,"lng":-117.45222,"zip":"92503","miles_from_dt":8.93},{"city":"Moreno Valley","state_name":"California","lat":33.9148,"lng":-117.2511,"zip":"92554","miles_from_dt":8.95},{"city":"San Bernardino","state_name":"California","lat":34.10586,"lng":-117.29188,"zip":"92401","miles_from_dt":8.97},{"city":"San Bernardino","state_name":"California","lat":34.10712,"lng":-117.29236,"zip":"92423","miles_from_dt":9.03},{"city":"San Bernardino","state_name":"California","lat":34.10506,"lng":-117.28685,"zip":"92415","miles_from_dt":9.08},{"city":"Mira Loma","state_name":"California","lat":33.99575,"lng":-117.53399,"zip":"91752","miles_from_dt":9.2},{"city":"San Bernardino","state_name":"California","lat":34.12214,"lng":-117.32291,"zip":"92411","miles_from_dt":9.24},{"city":"San Bernardino","state_name":"California","lat":34.10213,"lng":-117.26926,"zip":"92403","miles_from_dt":9.51},{"city":"San Bernardino","state_name":"California","lat":34.13398,"lng":-117.28625,"zip":"92406","miles_from_dt":10.81},{"city":"Fontana","state_name":"California","lat":34.13686,"lng":-117.46033,"zip":"92336","miles_from_dt":10.97},{"city":"Rialto","state_name":"California","lat":34.15234,"lng":-117.40412,"zip":"92377","miles_from_dt":10.99},{"city":"Norco","state_name":"California","lat":33.9262,"lng":-117.54913,"zip":"92860","miles_from_dt":11.14},{"city":"San Bernardino","state_name":"California","lat":34.14578,"lng":-117.30225,"zip":"92405","miles_from_dt":11.17},{"city":"Redlands","state_name":"California","lat":34.06281,"lng":-117.19559,"zip":"92375","miles_from_dt":11.24},{"city":"Moreno Valley","state_name":"California","lat":33.88148,"lng":-117.22521,"zip":"92551","miles_from_dt":11.57},{"city":"Corona","state_name":"California","lat":33.87979,"lng":-117.5357,"zip":"92879","miles_from_dt":12.23},{"city":"Redlands","state_name":"California","lat":34.06738,"lng":-117.17482,"zip":"92374","miles_from_dt":12.45},{"city":"San Bernardino","state_name":"California","lat":34.1501,"lng":-117.25672,"zip":"92413","miles_from_dt":12.62},{"city":"Redlands","state_name":"California","lat":34.00648,"lng":-117.15351,"zip":"92373","miles_from_dt":12.66},{"city":"Guasti","state_name":"California","lat":34.06488,"lng":-117.5803,"zip":"91743","miles_from_dt":12.8},{"city":"Ontario","state_name":"California","lat":34.03541,"lng":-117.5915,"zip":"91761","miles_from_dt":12.81},{"city":"Rancho Cucamonga","state_name":"California","lat":34.09836,"lng":-117.56304,"zip":"91729","miles_from_dt":12.99},{"city":"Patton","state_name":"California","lat":34.13941,"lng":-117.21966,"zip":"92369","miles_from_dt":13.31},{"city":"Corona","state_name":"California","lat":33.87433,"lng":-117.56515,"zip":"92878","miles_from_dt":13.79},{"city":"Corona","state_name":"California","lat":33.87582,"lng":-117.56729,"zip":"92877","miles_from_dt":13.83},{"city":"Rancho Cucamonga","state_name":"California","lat":34.10023,"lng":-117.5811,"zip":"91730","miles_from_dt":13.94},{"city":"Rancho Cucamonga","state_name":"California","lat":34.1622,"lng":-117.51558,"zip":"91739","miles_from_dt":14.11},{"city":"Ontario","state_name":"California","lat":34.05501,"lng":-117.60893,"zip":"91758","miles_from_dt":14.12},{"city":"Ontario","state_name":"California","lat":34.07533,"lng":-117.60164,"zip":"91764","miles_from_dt":14.21},{"city":"San Bernardino","state_name":"California","lat":34.19986,"lng":-117.34535,"zip":"92427","miles_from_dt":14.22},{"city":"Highland","state_name":"California","lat":34.12629,"lng":-117.1792,"zip":"92346","miles_from_dt":14.37},{"city":"Corona","state_name":"California","lat":33.92096,"lng":-117.61052,"zip":"92880","miles_from_dt":14.53},{"city":"Perris","state_name":"California","lat":33.84182,"lng":-117.19522,"zip":"92571","miles_from_dt":14.72},{"city":"San Bernardino","state_name":"California","lat":34.17862,"lng":-117.23891,"zip":"92404","miles_from_dt":14.83},{"city":"Perris","state_name":"California","lat":33.78377,"lng":-117.31737,"zip":"92570","miles_from_dt":14.91},{"city":"Perris","state_name":"California","lat":33.83036,"lng":-117.19802,"zip":"92599","miles_from_dt":15.18},{"city":"Ontario","state_name":"California","lat":34.02764,"lng":-117.64308,"zip":"91762","miles_from_dt":15.63},{"city":"San Bernardino","state_name":"California","lat":34.22394,"lng":-117.38839,"zip":"92407","miles_from_dt":15.81},{"city":"Corona","state_name":"California","lat":33.86367,"lng":-117.59989,"zip":"92882","miles_from_dt":15.84},{"city":"Chino","state_name":"California","lat":33.95141,"lng":-117.64506,"zip":"91708","miles_from_dt":15.87},{"city":"Rancho Cucamonga","state_name":"California","lat":34.15523,"lng":-117.57808,"zip":"91737","miles_from_dt":16.11},{"city":"Moreno Valley","state_name":"California","lat":33.9133,"lng":-117.10867,"zip":"92555","miles_from_dt":16.23},{"city":"Rancho Cucamonga","state_name":"California","lat":34.13784,"lng":-117.60028,"zip":"91701","miles_from_dt":16.31},{"city":"Corona","state_name":"California","lat":33.82163,"lng":-117.56763,"zip":"92881","miles_from_dt":16.34},{"city":"Perris","state_name":"California","lat":33.78596,"lng":-117.22671,"zip":"92572","miles_from_dt":16.7},{"city":"Skyforest","state_name":"California","lat":34.21345,"lng":-117.23057,"zip":"92385","miles_from_dt":17.15},{"city":"Corona","state_name":"California","lat":33.75994,"lng":-117.47827,"zip":"92883","miles_from_dt":17.28},{"city":"Upland","state_name":"California","lat":34.10076,"lng":-117.64766,"zip":"91785","miles_from_dt":17.33},{"city":"Chino","state_name":"California","lat":34.00507,"lng":-117.68249,"zip":"91710","miles_from_dt":17.74},{"city":"Cedarpines Park","state_name":"California","lat":34.25419,"lng":-117.32259,"zip":"92322","miles_from_dt":18.11},{"city":"Crestline","state_name":"California","lat":34.24554,"lng":-117.27506,"zip":"92325","miles_from_dt":18.17},{"city":"Upland","state_name":"California","lat":34.10525,"lng":-117.66206,"zip":"91786","miles_from_dt":18.21},{"city":"Rimforest","state_name":"California","lat":34.23206,"lng":-117.22483,"zip":"92378","miles_from_dt":18.44},{"city":"Mentone","state_name":"California","lat":34.08296,"lng":-117.07026,"zip":"92359","miles_from_dt":18.44},{"city":"Calimesa","state_name":"California","lat":33.9874,"lng":-117.05024,"zip":"92320","miles_from_dt":18.58},{"city":"Twin Peaks","state_name":"California","lat":34.23958,"lng":-117.23665,"zip":"92391","miles_from_dt":18.6},{"city":"Upland","state_name":"California","lat":34.14103,"lng":-117.65831,"zip":"91784","miles_from_dt":19.18},{"city":"Montclair","state_name":"California","lat":34.07208,"lng":-117.69828,"zip":"91763","miles_from_dt":19.37},{"city":"Nuevo","state_name":"California","lat":33.82378,"lng":-117.10305,"zip":"92567","miles_from_dt":19.52},{"city":"Blue Jay","state_name":"California","lat":34.24507,"lng":-117.20874,"zip":"92317","miles_from_dt":19.66},{"city":"Chino Hills","state_name":"California","lat":33.95105,"lng":-117.72549,"zip":"91709","miles_from_dt":20.43},{"city":"Lytle Creek","state_name":"California","lat":34.24624,"lng":-117.56762,"zip":"92358","miles_from_dt":20.58},{"city":"Running Springs","state_name":"California","lat":34.20604,"lng":-117.11276,"zip":"92382","miles_from_dt":20.87},{"city":"Menifee","state_name":"California","lat":33.74217,"lng":-117.16723,"zip":"92585","miles_from_dt":21.08},{"city":"Lake Elsinore","state_name":"California","lat":33.69052,"lng":-117.30241,"zip":"92532","miles_from_dt":21.38},{"city":"Yucaipa","state_name":"California","lat":34.04469,"lng":-117.004,"zip":"92399","miles_from_dt":21.49},{"city":"Claremont","state_name":"California","lat":34.12836,"lng":-117.71523,"zip":"91711","miles_from_dt":21.64},{"city":"Cedar Glen","state_name":"California","lat":34.24748,"lng":-117.14694,"zip":"92321","miles_from_dt":21.72},{"city":"Lake Arrowhead","state_name":"California","lat":34.26824,"lng":-117.18486,"zip":"92352","miles_from_dt":21.72},{"city":"Pomona","state_name":"California","lat":34.08143,"lng":-117.73868,"zip":"91767","miles_from_dt":21.78},{"city":"Menifee","state_name":"California","lat":33.69466,"lng":-117.25196,"zip":"92587","miles_from_dt":21.85},{"city":"Yorba Linda","state_name":"California","lat":33.88727,"lng":-117.73389,"zip":"92887","miles_from_dt":21.98},{"city":"Homeland","state_name":"California","lat":33.76392,"lng":-117.10907,"zip":"92548","miles_from_dt":22.02},{"city":"Menifee","state_name":"California","lat":33.70773,"lng":-117.20045,"zip":"92586","miles_from_dt":22.16},{"city":"Pomona","state_name":"California","lat":34.04192,"lng":-117.75698,"zip":"91766","miles_from_dt":22.24},{"city":"Silverado","state_name":"California","lat":33.75306,"lng":-117.63534,"zip":"92676","miles_from_dt":22.46},{"city":"Pomona","state_name":"California","lat":34.06136,"lng":-117.75682,"zip":"91769","miles_from_dt":22.46},{"city":"Beaumont","state_name":"California","lat":33.9382,"lng":-116.98137,"zip":"92223","miles_from_dt":22.87},{"city":"Anaheim","state_name":"California","lat":33.85623,"lng":-117.74018,"zip":"92808","miles_from_dt":23.13},{"city":"Orange","state_name":"California","lat":33.7915,"lng":-117.71401,"zip":"92862","miles_from_dt":24.07},{"city":"San Jacinto","state_name":"California","lat":33.80489,"lng":-117.01873,"zip":"92582","miles_from_dt":24.24},{"city":"Pomona","state_name":"California","lat":34.06358,"lng":-117.78941,"zip":"91768","miles_from_dt":24.32},{"city":"Green Valley Lake","state_name":"California","lat":34.24009,"lng":-117.06798,"zip":"92341","miles_from_dt":24.34},{"city":"Lake Elsinore","state_name":"California","lat":33.63386,"lng":-117.37949,"zip":"92530","miles_from_dt":24.89},{"city":"La Verne","state_name":"California","lat":34.14927,"lng":-117.76647,"zip":"91750","miles_from_dt":24.91},{"city":"Brea","state_name":"California","lat":33.92536,"lng":-117.80024,"zip":"92823","miles_from_dt":24.96},{"city":"Trabuco Canyon","state_name":"California","lat":33.64627,"lng":-117.50662,"zip":"92678","miles_from_dt":25.22},{"city":"Diamond Bar","state_name":"California","lat":33.98725,"lng":-117.81473,"zip":"91765","miles_from_dt":25.33},{"city":"Menifee","state_name":"California","lat":33.66167,"lng":-117.18079,"zip":"92584","miles_from_dt":25.51},{"city":"Yorba Linda","state_name":"California","lat":33.89517,"lng":-117.80154,"zip":"92886","miles_from_dt":25.52},{"city":"Mt Baldy","state_name":"California","lat":34.2541,"lng":-117.69194,"zip":"91759","miles_from_dt":25.53},{"city":"Hesperia","state_name":"California","lat":34.36415,"lng":-117.30984,"zip":"92345","miles_from_dt":25.71},{"city":"Anaheim","state_name":"California","lat":33.85001,"lng":-117.78946,"zip":"92807","miles_from_dt":25.89},{"city":"Trabuco Canyon","state_name":"California","lat":33.65274,"lng":-117.56048,"zip":"92679","miles_from_dt":25.92},{"city":"Anaheim","state_name":"California","lat":33.85122,"lng":-117.79146,"zip":"92817","miles_from_dt":25.97},{"city":"San Dimas","state_name":"California","lat":34.1072,"lng":-117.80928,"zip":"91773","miles_from_dt":26.16},{"city":"Orange","state_name":"California","lat":33.79479,"lng":-117.7621,"zip":"92869","miles_from_dt":26.24},{"city":"Anaheim","state_name":"California","lat":33.851,"lng":-117.799,"zip":"92809","miles_from_dt":26.38},{"city":"Hemet","state_name":"California","lat":33.7311,"lng":-117.0359,"zip":"92545","miles_from_dt":26.61},{"city":"Murrieta","state_name":"California","lat":33.64178,"lng":-117.18626,"zip":"92564","miles_from_dt":26.62},{"city":"Yorba Linda","state_name":"California","lat":33.89109,"lng":-117.82219,"zip":"92885","miles_from_dt":26.74},{"city":"Foothill Ranch","state_name":"California","lat":33.68336,"lng":-117.65404,"zip":"92610","miles_from_dt":26.86},{"city":"Lake Elsinore","state_name":"California","lat":33.60526,"lng":-117.3939,"zip":"92531","miles_from_dt":26.88},{"city":"Wildomar","state_name":"California","lat":33.61638,"lng":-117.26028,"zip":"92595","miles_from_dt":26.9},{"city":"Orange","state_name":"California","lat":33.80266,"lng":-117.78669,"zip":"92859","miles_from_dt":27.19},{"city":"Orange","state_name":"California","lat":33.81443,"lng":-117.79617,"zip":"92867","miles_from_dt":27.28},{"city":"Hesperia","state_name":"California","lat":34.39176,"lng":-117.40657,"zip":"92344","miles_from_dt":27.41},{"city":"Irvine","state_name":"California","lat":33.72645,"lng":-117.7287,"zip":"92602","miles_from_dt":27.55},{"city":"Walnut","state_name":"California","lat":34.01858,"lng":-117.85408,"zip":"91789","miles_from_dt":27.62},{"city":"Atwood","state_name":"California","lat":33.8674,"lng":-117.83099,"zip":"92811","miles_from_dt":27.71},{"city":"San Jacinto","state_name":"California","lat":33.78471,"lng":-116.95991,"zip":"92581","miles_from_dt":27.85},{"city":"Villa Park","state_name":"California","lat":33.81801,"lng":-117.81031,"zip":"92861","miles_from_dt":27.9},{"city":"Walnut","state_name":"California","lat":34.0137,"lng":-117.86372,"zip":"91788","miles_from_dt":28.16},{"city":"Phelan","state_name":"California","lat":34.35514,"lng":-117.60716,"zip":"92329","miles_from_dt":28.2},{"city":"Covina","state_name":"California","lat":34.0805,"lng":-117.85515,"zip":"91724","miles_from_dt":28.25},{"city":"Big Bear Lake","state_name":"California","lat":34.22011,"lng":-116.95301,"zip":"92315","miles_from_dt":28.68},{"city":"Placentia","state_name":"California","lat":33.88293,"lng":-117.85569,"zip":"92871","miles_from_dt":28.75},{"city":"Placentia","state_name":"California","lat":33.88087,"lng":-117.85522,"zip":"92870","miles_from_dt":28.76},{"city":"Glendora","state_name":"California","lat":34.1647,"lng":-117.83197,"zip":"91741","miles_from_dt":28.77},{"city":"Hemet","state_name":"California","lat":33.74999,"lng":-116.96813,"zip":"92546","miles_from_dt":28.79},{"city":"Glendora","state_name":"California","lat":34.11884,"lng":-117.8534,"zip":"91740","miles_from_dt":28.81},{"city":"San Jacinto","state_name":"California","lat":33.79662,"lng":-116.93188,"zip":"92583","miles_from_dt":28.84},{"city":"Brea","state_name":"California","lat":33.92997,"lng":-117.86986,"zip":"92821","miles_from_dt":28.85},{"city":"Orange","state_name":"California","lat":33.81535,"lng":-117.82728,"zip":"92863","miles_from_dt":28.86},{"city":"Orange","state_name":"California","lat":33.81425,"lng":-117.83075,"zip":"92864","miles_from_dt":29.07},{"city":"Santa Ana","state_name":"California","lat":33.76685,"lng":-117.80435,"zip":"92711","miles_from_dt":29.33},{"city":"Rancho Santa Margarita","state_name":"California","lat":33.61737,"lng":-117.61131,"zip":"92688","miles_from_dt":29.4},{"city":"Winchester","state_name":"California","lat":33.64739,"lng":-117.07641,"zip":"92596","miles_from_dt":29.43},{"city":"Orange","state_name":"California","lat":33.8317,"lng":-117.84914,"zip":"92857","miles_from_dt":29.55},{"city":"Orange","state_name":"California","lat":33.82887,"lng":-117.84925,"zip":"92865","miles_from_dt":29.63},{"city":"Irvine","state_name":"California","lat":33.70661,"lng":-117.75695,"zip":"92620","miles_from_dt":29.68},{"city":"Hesperia","state_name":"California","lat":34.42022,"lng":-117.27658,"zip":"92340","miles_from_dt":29.83},{"city":"Lake Forest","state_name":"California","lat":33.64709,"lng":-117.68428,"zip":"92630","miles_from_dt":29.9}],"targetCityZipCode":"92501","targetCityState":"California"},"__N_SSG":true}