{"pageProps":{"stateName":"California","cityName":"san-gregorio","nearbyCities":[{"city":"Redwood City","state_name":"California","lat":37.42562,"lng":-122.29653,"zip":"94062","miles_from_dt":7.16},{"city":"Pescadero","state_name":"California","lat":37.22297,"lng":-122.33572,"zip":"94060","miles_from_dt":7.26},{"city":"La Honda","state_name":"California","lat":37.28473,"lng":-122.21969,"zip":"94020","miles_from_dt":7.36},{"city":"Loma Mar","state_name":"California","lat":37.25028,"lng":-122.24958,"zip":"94021","miles_from_dt":7.39},{"city":"Portola Valley","state_name":"California","lat":37.37492,"lng":-122.21136,"zip":"94028","miles_from_dt":7.86},{"city":"Half Moon Bay","state_name":"California","lat":37.44826,"lng":-122.4023,"zip":"94019","miles_from_dt":8.93},{"city":"Redwood City","state_name":"California","lat":37.46293,"lng":-122.25544,"zip":"94064","miles_from_dt":10.43},{"city":"Palo Alto","state_name":"California","lat":37.39744,"lng":-122.16699,"zip":"94304","miles_from_dt":10.74},{"city":"Redwood City","state_name":"California","lat":37.46136,"lng":-122.23731,"zip":"94061","miles_from_dt":10.83},{"city":"Los Altos","state_name":"California","lat":37.35534,"lng":-122.14494,"zip":"94022","miles_from_dt":10.99},{"city":"Stanford","state_name":"California","lat":37.41623,"lng":-122.17069,"zip":"94305","miles_from_dt":11.2},{"city":"Palo Alto","state_name":"California","lat":37.41667,"lng":-122.16667,"zip":"94309","miles_from_dt":11.4},{"city":"Atherton","state_name":"California","lat":37.45399,"lng":-122.20313,"zip":"94027","miles_from_dt":11.55},{"city":"Menlo Park","state_name":"California","lat":37.45087,"lng":-122.1829,"zip":"94025","miles_from_dt":12.16},{"city":"San Carlos","state_name":"California","lat":37.49739,"lng":-122.27021,"zip":"94070","miles_from_dt":12.31},{"city":"Los Altos","state_name":"California","lat":37.3766,"lng":-122.1144,"zip":"94023","miles_from_dt":12.95},{"city":"Belmont","state_name":"California","lat":37.51366,"lng":-122.29853,"zip":"94002","miles_from_dt":13.01},{"city":"Palo Alto","state_name":"California","lat":37.41627,"lng":-122.13088,"zip":"94306","miles_from_dt":13.09},{"city":"Palo Alto","state_name":"California","lat":37.44709,"lng":-122.15608,"zip":"94302","miles_from_dt":13.1},{"city":"Palo Alto","state_name":"California","lat":37.44424,"lng":-122.14992,"zip":"94301","miles_from_dt":13.24},{"city":"Los Altos","state_name":"California","lat":37.35037,"lng":-122.09863,"zip":"94024","miles_from_dt":13.47},{"city":"Redwood City","state_name":"California","lat":37.49367,"lng":-122.20823,"zip":"94063","miles_from_dt":13.57},{"city":"Menlo Park","state_name":"California","lat":37.48113,"lng":-122.18014,"zip":"94026","miles_from_dt":13.79},{"city":"San Jose","state_name":"California","lat":37.33607,"lng":-122.09022,"zip":"95108","miles_from_dt":13.86},{"city":"El Granada","state_name":"California","lat":37.50603,"lng":-122.47321,"zip":"94018","miles_from_dt":14.24},{"city":"Cupertino","state_name":"California","lat":37.30827,"lng":-122.07981,"zip":"95014","miles_from_dt":14.49},{"city":"Mountain View","state_name":"California","lat":37.38034,"lng":-122.08531,"zip":"94040","miles_from_dt":14.56},{"city":"San Mateo","state_name":"California","lat":37.53844,"lng":-122.30454,"zip":"94403","miles_from_dt":14.64},{"city":"San Mateo","state_name":"California","lat":37.54035,"lng":-122.33388,"zip":"94402","miles_from_dt":14.64},{"city":"Palo Alto","state_name":"California","lat":37.45064,"lng":-122.11928,"zip":"94303","miles_from_dt":14.87},{"city":"Boulder Creek","state_name":"California","lat":37.17129,"lng":-122.151,"zip":"95006","miles_from_dt":15.08},{"city":"Mountain View","state_name":"California","lat":37.41077,"lng":-122.08732,"zip":"94042","miles_from_dt":15.11},{"city":"Redwood City","state_name":"California","lat":37.53504,"lng":-122.24683,"zip":"94065","miles_from_dt":15.19},{"city":"Mountain View","state_name":"California","lat":37.38822,"lng":-122.07529,"zip":"94041","miles_from_dt":15.24},{"city":"Mountain View","state_name":"California","lat":37.39505,"lng":-122.07666,"zip":"94039","miles_from_dt":15.3},{"city":"Cupertino","state_name":"California","lat":37.32286,"lng":-122.05296,"zip":"95015","miles_from_dt":15.9},{"city":"Moss Beach","state_name":"California","lat":37.52946,"lng":-122.4849,"zip":"94038","miles_from_dt":15.96},{"city":"Mountain View","state_name":"California","lat":37.41188,"lng":-122.06892,"zip":"94043","miles_from_dt":16.08},{"city":"San Mateo","state_name":"California","lat":37.56256,"lng":-122.32483,"zip":"94497","miles_from_dt":16.19},{"city":"San Mateo","state_name":"California","lat":37.5562,"lng":-122.26905,"zip":"94404","miles_from_dt":16.22},{"city":"Davenport","state_name":"California","lat":37.10529,"lng":-122.22913,"zip":"95017","miles_from_dt":16.58},{"city":"Saratoga","state_name":"California","lat":37.25624,"lng":-122.05151,"zip":"95070","miles_from_dt":16.74},{"city":"Sunnyvale","state_name":"California","lat":37.35164,"lng":-122.03669,"zip":"94087","miles_from_dt":16.87},{"city":"Burlingame","state_name":"California","lat":37.57306,"lng":-122.37828,"zip":"94010","miles_from_dt":17.01},{"city":"San Mateo","state_name":"California","lat":37.57445,"lng":-122.31942,"zip":"94401","miles_from_dt":17.03},{"city":"Mountain View","state_name":"California","lat":37.41289,"lng":-122.04989,"zip":"94035","miles_from_dt":17.09},{"city":"Sunnyvale","state_name":"California","lat":37.39098,"lng":-122.03733,"zip":"94088","miles_from_dt":17.3},{"city":"Burlingame","state_name":"California","lat":37.5795,"lng":-122.34432,"zip":"94011","miles_from_dt":17.33},{"city":"Montara","state_name":"California","lat":37.55327,"lng":-122.49584,"zip":"94037","miles_from_dt":17.69},{"city":"Sunnyvale","state_name":"California","lat":37.37164,"lng":-122.02316,"zip":"94086","miles_from_dt":17.79},{"city":"Saratoga","state_name":"California","lat":37.25286,"lng":-122.0296,"zip":"95071","miles_from_dt":17.96},{"city":"Sunnyvale","state_name":"California","lat":37.38862,"lng":-122.01793,"zip":"94085","miles_from_dt":18.3},{"city":"San Jose","state_name":"California","lat":37.31175,"lng":-122.00901,"zip":"95170","miles_from_dt":18.36},{"city":"San Jose","state_name":"California","lat":37.30597,"lng":-122.00072,"zip":"95129","miles_from_dt":18.84},{"city":"Sunnyvale","state_name":"California","lat":37.41192,"lng":-122.01441,"zip":"94089","miles_from_dt":18.91},{"city":"Millbrae","state_name":"California","lat":37.59969,"lng":-122.40343,"zip":"94030","miles_from_dt":19.03},{"city":"Brookdale","state_name":"California","lat":37.11019,"lng":-122.11434,"zip":"95007","miles_from_dt":19.57},{"city":"Santa Clara","state_name":"California","lat":37.33657,"lng":-121.98383,"zip":"95055","miles_from_dt":19.71},{"city":"Santa Clara","state_name":"California","lat":37.3483,"lng":-121.98444,"zip":"95051","miles_from_dt":19.72},{"city":"San Jose","state_name":"California","lat":37.28803,"lng":-121.98146,"zip":"95130","miles_from_dt":20.03},{"city":"San Jose","state_name":"California","lat":37.29996,"lng":-121.97592,"zip":"95157","miles_from_dt":20.24},{"city":"Alviso","state_name":"California","lat":37.44075,"lng":-122.00047,"zip":"95002","miles_from_dt":20.32},{"city":"San Francisco","state_name":"California","lat":37.62197,"lng":-122.38388,"zip":"94128","miles_from_dt":20.39},{"city":"Pacifica","state_name":"California","lat":37.60544,"lng":-122.47993,"zip":"94044","miles_from_dt":20.58},{"city":"San Jose","state_name":"California","lat":37.31008,"lng":-121.96225,"zip":"95117","miles_from_dt":20.93},{"city":"Fremont","state_name":"California","lat":37.55083,"lng":-122.08043,"zip":"94555","miles_from_dt":21.03},{"city":"Los Gatos","state_name":"California","lat":37.22168,"lng":-121.98326,"zip":"95030","miles_from_dt":21.07},{"city":"San Bruno","state_name":"California","lat":37.62539,"lng":-122.43229,"zip":"94066","miles_from_dt":21.09},{"city":"Ben Lomond","state_name":"California","lat":37.09835,"lng":-122.08931,"zip":"95005","miles_from_dt":21.09},{"city":"Campbell","state_name":"California","lat":37.29502,"lng":-121.96066,"zip":"95011","miles_from_dt":21.11},{"city":"Milpitas","state_name":"California","lat":37.24309,"lng":-121.97166,"zip":"95036","miles_from_dt":21.21},{"city":"Santa Clara","state_name":"California","lat":37.39308,"lng":-121.96483,"zip":"95054","miles_from_dt":21.22},{"city":"Newark","state_name":"California","lat":37.50771,"lng":-122.02523,"zip":"94560","miles_from_dt":21.36},{"city":"Santa Clara","state_name":"California","lat":37.40059,"lng":-121.96347,"zip":"95056","miles_from_dt":21.41},{"city":"Santa Clara","state_name":"California","lat":37.35584,"lng":-121.95367,"zip":"95052","miles_from_dt":21.45},{"city":"Santa Clara","state_name":"California","lat":37.3504,"lng":-121.95238,"zip":"95050","miles_from_dt":21.49},{"city":"Campbell","state_name":"California","lat":37.27977,"lng":-121.95481,"zip":"95008","miles_from_dt":21.57},{"city":"Campbell","state_name":"California","lat":37.28905,"lng":-121.94796,"zip":"95009","miles_from_dt":21.85},{"city":"South San Francisco","state_name":"California","lat":37.64364,"lng":-122.41198,"zip":"94083","miles_from_dt":22.1},{"city":"Santa Clara","state_name":"California","lat":37.34848,"lng":-121.93737,"zip":"95053","miles_from_dt":22.3},{"city":"San Jose","state_name":"California","lat":37.31579,"lng":-121.93647,"zip":"95128","miles_from_dt":22.33},{"city":"San Jose","state_name":"California","lat":37.31679,"lng":-121.93239,"zip":"95159","miles_from_dt":22.55},{"city":"Redwood Estates","state_name":"California","lat":37.15842,"lng":-121.98487,"zip":"95044","miles_from_dt":22.89},{"city":"San Jose","state_name":"California","lat":37.43003,"lng":-121.94528,"zip":"95134","miles_from_dt":22.92},{"city":"South San Francisco","state_name":"California","lat":37.65541,"lng":-122.42083,"zip":"94080","miles_from_dt":22.98},{"city":"Holy City","state_name":"California","lat":37.15501,"lng":-121.98252,"zip":"95026","miles_from_dt":23.12},{"city":"Felton","state_name":"California","lat":37.08027,"lng":-122.05824,"zip":"95018","miles_from_dt":23.17},{"city":"Los Gatos","state_name":"California","lat":37.15701,"lng":-121.97771,"zip":"95033","miles_from_dt":23.28},{"city":"San Jose","state_name":"California","lat":37.32407,"lng":-121.91724,"zip":"95191","miles_from_dt":23.37},{"city":"San Jose","state_name":"California","lat":37.32687,"lng":-121.91677,"zip":"95126","miles_from_dt":23.4},{"city":"San Jose","state_name":"California","lat":37.39252,"lng":-121.92386,"zip":"95164","miles_from_dt":23.42},{"city":"Union City","state_name":"California","lat":37.59142,"lng":-122.06993,"zip":"94587","miles_from_dt":23.51},{"city":"San Jose","state_name":"California","lat":37.25684,"lng":-121.92286,"zip":"95124","miles_from_dt":23.59},{"city":"San Jose","state_name":"California","lat":37.28904,"lng":-121.91438,"zip":"95150","miles_from_dt":23.69},{"city":"Fremont","state_name":"California","lat":37.55569,"lng":-122.01734,"zip":"94537","miles_from_dt":23.75},{"city":"San Jose","state_name":"California","lat":37.34656,"lng":-121.9097,"zip":"95110","miles_from_dt":23.82},{"city":"San Jose","state_name":"California","lat":37.26166,"lng":-121.91282,"zip":"95154","miles_from_dt":24.07},{"city":"Hayward","state_name":"California","lat":37.62957,"lng":-122.12048,"zip":"94545","miles_from_dt":24.08},{"city":"Fremont","state_name":"California","lat":37.50653,"lng":-121.96361,"zip":"94538","miles_from_dt":24.16},{"city":"San Jose","state_name":"California","lat":37.3114,"lng":-121.90081,"zip":"95155","miles_from_dt":24.31},{"city":"San Jose","state_name":"California","lat":37.37614,"lng":-121.90232,"zip":"95190","miles_from_dt":24.41},{"city":"Los Gatos","state_name":"California","lat":37.20859,"lng":-121.92359,"zip":"95032","miles_from_dt":24.47},{"city":"Hayward","state_name":"California","lat":37.62988,"lng":-122.10303,"zip":"94557","miles_from_dt":24.59},{"city":"San Jose","state_name":"California","lat":37.38574,"lng":-121.89934,"zip":"95161","miles_from_dt":24.67},{"city":"San Jose","state_name":"California","lat":37.33459,"lng":-121.89333,"zip":"95173","miles_from_dt":24.69},{"city":"San Jose","state_name":"California","lat":37.33728,"lng":-121.89345,"zip":"95109","miles_from_dt":24.69},{"city":"Mount Hermon","state_name":"California","lat":37.05052,"lng":-122.05828,"zip":"95041","miles_from_dt":24.72},{"city":"San Jose","state_name":"California","lat":37.38729,"lng":-121.89793,"zip":"95131","miles_from_dt":24.76},{"city":"San Jose","state_name":"California","lat":37.29554,"lng":-121.89408,"zip":"95125","miles_from_dt":24.76},{"city":"San Jose","state_name":"California","lat":37.33854,"lng":-121.89162,"zip":"95106","miles_from_dt":24.79},{"city":"San Jose","state_name":"California","lat":37.33041,"lng":-121.89113,"zip":"95196","miles_from_dt":24.81},{"city":"San Jose","state_name":"California","lat":37.3852,"lng":-121.89654,"zip":"95101","miles_from_dt":24.82},{"city":"San Jose","state_name":"California","lat":37.3339,"lng":-121.8905,"zip":"95113","miles_from_dt":24.85},{"city":"San Jose","state_name":"California","lat":37.34189,"lng":-121.89021,"zip":"95192","miles_from_dt":24.88},{"city":"San Jose","state_name":"California","lat":37.34116,"lng":-121.88831,"zip":"95103","miles_from_dt":24.98},{"city":"San Jose","state_name":"California","lat":37.30423,"lng":-121.88789,"zip":"95115","miles_from_dt":25.05},{"city":"Brisbane","state_name":"California","lat":37.6882,"lng":-122.40873,"zip":"94005","miles_from_dt":25.1},{"city":"San Jose","state_name":"California","lat":37.33383,"lng":-121.88515,"zip":"95172","miles_from_dt":25.14},{"city":"San Jose","state_name":"California","lat":37.34461,"lng":-121.88346,"zip":"95112","miles_from_dt":25.25},{"city":"San Jose","state_name":"California","lat":37.34365,"lng":-121.88118,"zip":"95194","miles_from_dt":25.38},{"city":"San Jose","state_name":"California","lat":37.25589,"lng":-121.88991,"zip":"95118","miles_from_dt":25.38},{"city":"Santa Cruz","state_name":"California","lat":37.01352,"lng":-122.10176,"zip":"95060","miles_from_dt":25.42},{"city":"Scotts Valley","state_name":"California","lat":37.0672,"lng":-122.01453,"zip":"95066","miles_from_dt":25.49},{"city":"Daly City","state_name":"California","lat":37.68121,"lng":-122.48074,"zip":"94015","miles_from_dt":25.52},{"city":"Daly City","state_name":"California","lat":37.6907,"lng":-122.44769,"zip":"94014","miles_from_dt":25.67},{"city":"Fremont","state_name":"California","lat":37.57072,"lng":-121.98555,"zip":"94536","miles_from_dt":25.75},{"city":"Daly City","state_name":"California","lat":37.68878,"lng":-122.46892,"zip":"94017","miles_from_dt":25.83},{"city":"San Jose","state_name":"California","lat":37.25932,"lng":-121.87681,"zip":"95158","miles_from_dt":26.05},{"city":"Los Gatos","state_name":"California","lat":37.13009,"lng":-121.93851,"zip":"95031","miles_from_dt":26.09},{"city":"Hayward","state_name":"California","lat":37.63352,"lng":-122.05678,"zip":"94544","miles_from_dt":26.24},{"city":"Hayward","state_name":"California","lat":37.65881,"lng":-122.09505,"zip":"94540","miles_from_dt":26.52},{"city":"San Jose","state_name":"California","lat":37.37171,"lng":-121.86057,"zip":"95133","miles_from_dt":26.65},{"city":"San Lorenzo","state_name":"California","lat":37.67803,"lng":-122.13334,"zip":"94580","miles_from_dt":26.7},{"city":"San Leandro","state_name":"California","lat":37.68656,"lng":-122.15709,"zip":"94579","miles_from_dt":26.71},{"city":"Milpitas","state_name":"California","lat":37.44319,"lng":-121.87632,"zip":"95035","miles_from_dt":26.81},{"city":"Daly City","state_name":"California","lat":37.70733,"lng":-122.45493,"zip":"94016","miles_from_dt":26.88},{"city":"Fremont","state_name":"California","lat":37.51635,"lng":-121.9119,"zip":"94539","miles_from_dt":26.96},{"city":"San Jose","state_name":"California","lat":37.35043,"lng":-121.85255,"zip":"95116","miles_from_dt":26.97},{"city":"San Francisco","state_name":"California","lat":37.71802,"lng":-122.40439,"zip":"94160","miles_from_dt":27.11},{"city":"San Francisco","state_name":"California","lat":37.71887,"lng":-122.41124,"zip":"94134","miles_from_dt":27.21},{"city":"San Jose","state_name":"California","lat":37.27192,"lng":-121.85237,"zip":"95136","miles_from_dt":27.23},{"city":"San Jose","state_name":"California","lat":37.21903,"lng":-121.86038,"zip":"95160","miles_from_dt":27.57},{"city":"Hayward","state_name":"California","lat":37.67376,"lng":-122.08707,"zip":"94541","miles_from_dt":27.63},{"city":"San Francisco","state_name":"California","lat":37.7206,"lng":-122.44311,"zip":"94112","miles_from_dt":27.63},{"city":"San Jose","state_name":"California","lat":37.35997,"lng":-121.84002,"zip":"95156","miles_from_dt":27.71},{"city":"Hayward","state_name":"California","lat":37.67323,"lng":-122.0822,"zip":"94543","miles_from_dt":27.74},{"city":"San Jose","state_name":"California","lat":37.32925,"lng":-121.83481,"zip":"95122","miles_from_dt":27.91},{"city":"San Jose","state_name":"California","lat":37.24801,"lng":-121.84514,"zip":"95153","miles_from_dt":27.91},{"city":"San Francisco","state_name":"California","lat":37.73138,"lng":-122.38496,"zip":"94125","miles_from_dt":27.91},{"city":"San Francisco","state_name":"California","lat":37.73204,"lng":-122.3858,"zip":"94124","miles_from_dt":27.96},{"city":"Santa Cruz","state_name":"California","lat":36.99158,"lng":-122.05886,"zip":"95064","miles_from_dt":27.97},{"city":"San Francisco","state_name":"California","lat":37.72219,"lng":-122.48475,"zip":"94132","miles_from_dt":28.29},{"city":"Santa Cruz","state_name":"California","lat":37.03229,"lng":-121.98444,"zip":"95065","miles_from_dt":28.37},{"city":"San Leandro","state_name":"California","lat":37.71595,"lng":-122.16615,"zip":"94577","miles_from_dt":28.43},{"city":"Hayward","state_name":"California","lat":37.6553,"lng":-122.02584,"zip":"94542","miles_from_dt":28.46},{"city":"San Jose","state_name":"California","lat":37.28401,"lng":-121.82731,"zip":"95111","miles_from_dt":28.5},{"city":"San Francisco","state_name":"California","lat":37.7407,"lng":-122.38091,"zip":"94188","miles_from_dt":28.53},{"city":"San Jose","state_name":"California","lat":37.24479,"lng":-121.83306,"zip":"95123","miles_from_dt":28.61},{"city":"San Leandro","state_name":"California","lat":37.70675,"lng":-122.1256,"zip":"94578","miles_from_dt":28.68},{"city":"Alameda","state_name":"California","lat":37.73686,"lng":-122.24114,"zip":"94502","miles_from_dt":28.72},{"city":"San Jose","state_name":"California","lat":37.24401,"lng":-121.83099,"zip":"95193","miles_from_dt":28.73},{"city":"Oakland","state_name":"California","lat":37.72971,"lng":-122.20067,"zip":"94614","miles_from_dt":28.75},{"city":"San Francisco","state_name":"California","lat":37.73642,"lng":-122.45961,"zip":"94127","miles_from_dt":28.89},{"city":"Oakland","state_name":"California","lat":37.717,"lng":-122.146,"zip":"94622","miles_from_dt":28.89},{"city":"Oakland","state_name":"California","lat":37.7379,"lng":-122.20794,"zip":"94621","miles_from_dt":29.2},{"city":"San Francisco","state_name":"California","lat":37.74569,"lng":-122.44243,"zip":"94131","miles_from_dt":29.32},{"city":"San Jose","state_name":"California","lat":37.30463,"lng":-121.80981,"zip":"95121","miles_from_dt":29.34},{"city":"San Francisco","state_name":"California","lat":37.74975,"lng":-122.41528,"zip":"94110","miles_from_dt":29.35},{"city":"San Jose","state_name":"California","lat":37.4174,"lng":-121.82003,"zip":"95152","miles_from_dt":29.36},{"city":"San Jose","state_name":"California","lat":37.18428,"lng":-121.83658,"zip":"95120","miles_from_dt":29.56},{"city":"Oakland","state_name":"California","lat":37.73923,"lng":-122.17554,"zip":"94603","miles_from_dt":29.78},{"city":"San Francisco","state_name":"California","lat":37.74457,"lng":-122.48611,"zip":"94116","miles_from_dt":29.79},{"city":"Scotts Valley","state_name":"California","lat":36.97417,"lng":-122.02972,"zip":"95067","miles_from_dt":29.87},{"city":"San Francisco","state_name":"California","lat":37.7578,"lng":-122.4127,"zip":"94140","miles_from_dt":29.89},{"city":"Santa Cruz","state_name":"California","lat":36.97673,"lng":-122.0236,"zip":"95061","miles_from_dt":29.93}],"targetCityZipCode":"94074","targetCityState":"California"},"__N_SSG":true}