{"pageProps":{"stateName":"California","cityName":"san-geronimo","nearbyCities":[{"city":"Woodacre","state_name":"California","lat":38.01259,"lng":-122.63947,"zip":"94973","miles_from_dt":1.43},{"city":"Forest Knolls","state_name":"California","lat":38.01753,"lng":-122.68814,"zip":"94933","miles_from_dt":1.44},{"city":"Lagunitas","state_name":"California","lat":38.03024,"lng":-122.72953,"zip":"94938","miles_from_dt":3.86},{"city":"Fairfax","state_name":"California","lat":37.97048,"lng":-122.61108,"zip":"94930","miles_from_dt":3.9},{"city":"Nicasio","state_name":"California","lat":38.07176,"lng":-122.68785,"zip":"94946","miles_from_dt":4.6},{"city":"San Anselmo","state_name":"California","lat":37.99707,"lng":-122.57838,"zip":"94960","miles_from_dt":4.77},{"city":"Fairfax","state_name":"California","lat":37.9849,"lng":-122.58005,"zip":"94978","miles_from_dt":4.89},{"city":"Bolinas","state_name":"California","lat":37.95411,"lng":-122.73171,"zip":"94924","miles_from_dt":5.19},{"city":"Olema","state_name":"California","lat":38.02122,"lng":-122.76187,"zip":"94950","miles_from_dt":5.38},{"city":"San Anselmo","state_name":"California","lat":37.97198,"lng":-122.56204,"zip":"94979","miles_from_dt":6.13},{"city":"San Rafael","state_name":"California","lat":38.02485,"lng":-122.5522,"zip":"94903","miles_from_dt":6.26},{"city":"Stinson Beach","state_name":"California","lat":37.91694,"lng":-122.65553,"zip":"94970","miles_from_dt":6.28},{"city":"Ross","state_name":"California","lat":37.96343,"lng":-122.56174,"zip":"94957","miles_from_dt":6.4},{"city":"Mill Valley","state_name":"California","lat":37.92562,"lng":-122.60083,"zip":"94941","miles_from_dt":6.65},{"city":"San Rafael","state_name":"California","lat":38.02578,"lng":-122.54487,"zip":"94913","miles_from_dt":6.66},{"city":"Novato","state_name":"California","lat":38.10705,"lng":-122.62813,"zip":"94947","miles_from_dt":7.14},{"city":"Greenbrae","state_name":"California","lat":37.94841,"lng":-122.55288,"zip":"94904","miles_from_dt":7.35},{"city":"San Quentin","state_name":"California","lat":37.95646,"lng":-122.53935,"zip":"94974","miles_from_dt":7.71},{"city":"Kentfield","state_name":"California","lat":37.94739,"lng":-122.53706,"zip":"94914","miles_from_dt":8.12},{"city":"Novato","state_name":"California","lat":38.09973,"lng":-122.57145,"zip":"94998","miles_from_dt":8.14},{"city":"Novato","state_name":"California","lat":38.06576,"lng":-122.53172,"zip":"94949","miles_from_dt":8.29},{"city":"Point Reyes Station","state_name":"California","lat":38.0476,"lng":-122.81046,"zip":"94956","miles_from_dt":8.41},{"city":"Larkspur","state_name":"California","lat":37.93802,"lng":-122.53526,"zip":"94977","miles_from_dt":8.55},{"city":"Larkspur","state_name":"California","lat":37.93725,"lng":-122.53518,"zip":"94939","miles_from_dt":8.58},{"city":"San Rafael","state_name":"California","lat":37.97771,"lng":-122.50646,"zip":"94912","miles_from_dt":8.89},{"city":"San Rafael","state_name":"California","lat":37.98053,"lng":-122.50249,"zip":"94901","miles_from_dt":9.06},{"city":"San Rafael","state_name":"California","lat":37.9599,"lng":-122.50402,"zip":"94915","miles_from_dt":9.38},{"city":"Corte Madera","state_name":"California","lat":37.92743,"lng":-122.52455,"zip":"94976","miles_from_dt":9.45},{"city":"Corte Madera","state_name":"California","lat":37.92386,"lng":-122.5132,"zip":"94925","miles_from_dt":10.1},{"city":"Novato","state_name":"California","lat":38.1258,"lng":-122.55443,"zip":"94945","miles_from_dt":10.13},{"city":"San Quentin","state_name":"California","lat":37.94235,"lng":-122.49244,"zip":"94964","miles_from_dt":10.43},{"city":"Novato","state_name":"California","lat":38.13578,"lng":-122.56224,"zip":"94948","miles_from_dt":10.46},{"city":"Mill Valley","state_name":"California","lat":37.90457,"lng":-122.5229,"zip":"94942","miles_from_dt":10.52},{"city":"Sausalito","state_name":"California","lat":37.85263,"lng":-122.52699,"zip":"94965","miles_from_dt":13.08},{"city":"Sausalito","state_name":"California","lat":37.86586,"lng":-122.49689,"zip":"94966","miles_from_dt":13.41},{"city":"Belvedere Tiburon","state_name":"California","lat":37.88732,"lng":-122.46549,"zip":"94920","miles_from_dt":13.69},{"city":"Marshall","state_name":"California","lat":38.15754,"lng":-122.86376,"zip":"94940","miles_from_dt":14.98},{"city":"Inverness","state_name":"California","lat":38.09466,"lng":-122.92719,"zip":"94937","miles_from_dt":15.52},{"city":"Petaluma","state_name":"California","lat":38.22237,"lng":-122.55618,"zip":"94955","miles_from_dt":15.95},{"city":"Richmond","state_name":"California","lat":37.95217,"lng":-122.38025,"zip":"94801","miles_from_dt":16},{"city":"Richmond","state_name":"California","lat":37.9471,"lng":-122.38153,"zip":"94850","miles_from_dt":16.02},{"city":"Petaluma","state_name":"California","lat":38.23007,"lng":-122.76338,"zip":"94952","miles_from_dt":16.25},{"city":"Petaluma","state_name":"California","lat":38.24624,"lng":-122.56627,"zip":"94954","miles_from_dt":17.31},{"city":"Richmond","state_name":"California","lat":37.93711,"lng":-122.35658,"zip":"94802","miles_from_dt":17.52},{"city":"Petaluma","state_name":"California","lat":38.26152,"lng":-122.63908,"zip":"94953","miles_from_dt":17.57},{"city":"Richmond","state_name":"California","lat":37.92715,"lng":-122.35385,"zip":"94807","miles_from_dt":17.86},{"city":"San Pablo","state_name":"California","lat":37.97811,"lng":-122.33618,"zip":"94806","miles_from_dt":18.05},{"city":"San Francisco","state_name":"California","lat":37.79743,"lng":-122.46662,"zip":"94129","miles_from_dt":18.1},{"city":"San Francisco","state_name":"California","lat":37.77849,"lng":-122.49548,"zip":"94121","miles_from_dt":18.32},{"city":"Richmond","state_name":"California","lat":37.936,"lng":-122.34143,"zip":"94808","miles_from_dt":18.34},{"city":"Richmond","state_name":"California","lat":37.92074,"lng":-122.34204,"zip":"94804","miles_from_dt":18.62},{"city":"San Francisco","state_name":"California","lat":37.80112,"lng":-122.43645,"zip":"94123","miles_from_dt":18.94},{"city":"San Francisco","state_name":"California","lat":37.80083,"lng":-122.43482,"zip":"94147","miles_from_dt":19.01},{"city":"San Francisco","state_name":"California","lat":37.78335,"lng":-122.45978,"zip":"94144","miles_from_dt":19.1},{"city":"San Francisco","state_name":"California","lat":37.78593,"lng":-122.45519,"zip":"94119","miles_from_dt":19.11},{"city":"Richmond","state_name":"California","lat":37.94215,"lng":-122.32364,"zip":"94805","miles_from_dt":19.17},{"city":"San Francisco","state_name":"California","lat":37.7801,"lng":-122.46185,"zip":"94118","miles_from_dt":19.22},{"city":"San Francisco","state_name":"California","lat":37.78402,"lng":-122.4533,"zip":"94159","miles_from_dt":19.28},{"city":"San Francisco","state_name":"California","lat":37.76113,"lng":-122.48433,"zip":"94122","miles_from_dt":19.66},{"city":"San Francisco","state_name":"California","lat":37.78608,"lng":-122.43742,"zip":"94115","miles_from_dt":19.7},{"city":"San Francisco","state_name":"California","lat":37.76044,"lng":-122.48316,"zip":"94172","miles_from_dt":19.73},{"city":"San Francisco","state_name":"California","lat":37.80193,"lng":-122.41092,"zip":"94133","miles_from_dt":19.85},{"city":"San Francisco","state_name":"California","lat":37.79334,"lng":-122.42138,"zip":"94109","miles_from_dt":19.89},{"city":"Tomales","state_name":"California","lat":38.23724,"lng":-122.89006,"zip":"94971","miles_from_dt":20.03},{"city":"San Francisco","state_name":"California","lat":37.78731,"lng":-122.42206,"zip":"94164","miles_from_dt":20.17},{"city":"El Sobrante","state_name":"California","lat":37.97827,"lng":-122.29528,"zip":"94820","miles_from_dt":20.27},{"city":"San Francisco","state_name":"California","lat":37.76379,"lng":-122.45739,"zip":"94143","miles_from_dt":20.28},{"city":"San Francisco","state_name":"California","lat":37.77002,"lng":-122.44425,"zip":"94117","miles_from_dt":20.35},{"city":"San Francisco","state_name":"California","lat":37.79487,"lng":-122.40619,"zip":"94139","miles_from_dt":20.38},{"city":"Vineburg","state_name":"California","lat":38.25197,"lng":-122.45398,"zip":"95487","miles_from_dt":20.39},{"city":"Sonoma","state_name":"California","lat":38.25531,"lng":-122.46055,"zip":"95476","miles_from_dt":20.39},{"city":"San Francisco","state_name":"California","lat":37.79847,"lng":-122.3998,"zip":"94111","miles_from_dt":20.44},{"city":"San Francisco","state_name":"California","lat":37.79853,"lng":-122.39989,"zip":"94161","miles_from_dt":20.44},{"city":"San Francisco","state_name":"California","lat":37.79189,"lng":-122.40854,"zip":"94108","miles_from_dt":20.44},{"city":"San Francisco","state_name":"California","lat":37.79315,"lng":-122.40432,"zip":"94137","miles_from_dt":20.53},{"city":"San Francisco","state_name":"California","lat":37.79377,"lng":-122.40216,"zip":"94120","miles_from_dt":20.58},{"city":"San Francisco","state_name":"California","lat":37.74457,"lng":-122.48611,"zip":"94116","miles_from_dt":20.61},{"city":"San Francisco","state_name":"California","lat":37.79425,"lng":-122.40038,"zip":"94145","miles_from_dt":20.63},{"city":"San Francisco","state_name":"California","lat":37.79349,"lng":-122.40018,"zip":"94151","miles_from_dt":20.67},{"city":"San Francisco","state_name":"California","lat":37.77956,"lng":-122.41931,"zip":"94102","miles_from_dt":20.68},{"city":"San Francisco","state_name":"California","lat":37.78441,"lng":-122.41223,"zip":"94142","miles_from_dt":20.68},{"city":"San Francisco","state_name":"California","lat":37.79144,"lng":-122.40211,"zip":"94104","miles_from_dt":20.7},{"city":"San Francisco","state_name":"California","lat":37.81975,"lng":-122.36898,"zip":"94130","miles_from_dt":20.72},{"city":"Vallejo","state_name":"California","lat":38.12009,"lng":-122.3117,"zip":"94592","miles_from_dt":20.76},{"city":"El Cerrito","state_name":"California","lat":37.92076,"lng":-122.30068,"zip":"94530","miles_from_dt":20.77},{"city":"San Francisco","state_name":"California","lat":37.79142,"lng":-122.39941,"zip":"94163","miles_from_dt":20.8},{"city":"San Francisco","state_name":"California","lat":37.79193,"lng":-122.39841,"zip":"94177","miles_from_dt":20.82},{"city":"San Francisco","state_name":"California","lat":37.79239,"lng":-122.39707,"zip":"94105","miles_from_dt":20.85},{"city":"San Francisco","state_name":"California","lat":37.79185,"lng":-122.39038,"zip":"94126","miles_from_dt":21.13},{"city":"El Sobrante","state_name":"California","lat":37.95683,"lng":-122.28235,"zip":"94803","miles_from_dt":21.17},{"city":"San Francisco","state_name":"California","lat":37.76015,"lng":-122.43328,"zip":"94146","miles_from_dt":21.25},{"city":"San Francisco","state_name":"California","lat":37.75814,"lng":-122.43547,"zip":"94114","miles_from_dt":21.29},{"city":"San Francisco","state_name":"California","lat":37.77299,"lng":-122.41136,"zip":"94103","miles_from_dt":21.3},{"city":"Pinole","state_name":"California","lat":37.98896,"lng":-122.27018,"zip":"94564","miles_from_dt":21.58},{"city":"San Francisco","state_name":"California","lat":37.76684,"lng":-122.40891,"zip":"94141","miles_from_dt":21.71},{"city":"Albany","state_name":"California","lat":37.88969,"lng":-122.29581,"zip":"94706","miles_from_dt":21.73},{"city":"Petaluma","state_name":"California","lat":38.32234,"lng":-122.64657,"zip":"94975","miles_from_dt":21.73},{"city":"Penngrove","state_name":"California","lat":38.32252,"lng":-122.64492,"zip":"94951","miles_from_dt":21.74},{"city":"San Francisco","state_name":"California","lat":37.74569,"lng":-122.44243,"zip":"94131","miles_from_dt":21.78},{"city":"San Francisco","state_name":"California","lat":37.73642,"lng":-122.45961,"zip":"94127","miles_from_dt":21.81},{"city":"Petaluma","state_name":"California","lat":38.32395,"lng":-122.64259,"zip":"94999","miles_from_dt":21.85},{"city":"Cotati","state_name":"California","lat":38.32229,"lng":-122.71497,"zip":"94931","miles_from_dt":21.87},{"city":"San Francisco","state_name":"California","lat":37.72219,"lng":-122.48475,"zip":"94132","miles_from_dt":22.01},{"city":"Berkeley","state_name":"California","lat":37.86705,"lng":-122.303,"zip":"94710","miles_from_dt":22.02},{"city":"Hercules","state_name":"California","lat":38.00637,"lng":-122.26117,"zip":"94547","miles_from_dt":22.03},{"city":"San Francisco","state_name":"California","lat":37.7578,"lng":-122.4127,"zip":"94140","miles_from_dt":22.07},{"city":"San Francisco","state_name":"California","lat":37.77116,"lng":-122.39153,"zip":"94158","miles_from_dt":22.12},{"city":"Rohnert Park","state_name":"California","lat":38.32648,"lng":-122.71231,"zip":"94926","miles_from_dt":22.14},{"city":"El Verano","state_name":"California","lat":38.29996,"lng":-122.48927,"zip":"95433","miles_from_dt":22.31},{"city":"San Francisco","state_name":"California","lat":37.76473,"lng":-122.39508,"zip":"94107","miles_from_dt":22.32},{"city":"Berkeley","state_name":"California","lat":37.89843,"lng":-122.27917,"zip":"94707","miles_from_dt":22.37},{"city":"San Francisco","state_name":"California","lat":37.74975,"lng":-122.41528,"zip":"94110","miles_from_dt":22.42},{"city":"Berkeley","state_name":"California","lat":37.86619,"lng":-122.28634,"zip":"94702","miles_from_dt":22.86},{"city":"Berkeley","state_name":"California","lat":37.90276,"lng":-122.26202,"zip":"94708","miles_from_dt":23.16},{"city":"San Francisco","state_name":"California","lat":37.7206,"lng":-122.44311,"zip":"94112","miles_from_dt":23.21},{"city":"Boyes Hot Springs","state_name":"California","lat":38.31241,"lng":-122.48286,"zip":"95416","miles_from_dt":23.24},{"city":"Emeryville","state_name":"California","lat":37.84048,"lng":-122.29376,"zip":"94662","miles_from_dt":23.32},{"city":"Rohnert Park","state_name":"California","lat":38.3459,"lng":-122.6935,"zip":"94928","miles_from_dt":23.38},{"city":"Vallejo","state_name":"California","lat":38.09546,"lng":-122.24986,"zip":"94590","miles_from_dt":23.43},{"city":"Berkeley","state_name":"California","lat":37.86397,"lng":-122.27573,"zip":"94703","miles_from_dt":23.45},{"city":"Rohnert Park","state_name":"California","lat":38.34744,"lng":-122.69837,"zip":"94927","miles_from_dt":23.51},{"city":"Dillon Beach","state_name":"California","lat":38.25444,"lng":-122.96243,"zip":"94929","miles_from_dt":23.51},{"city":"Berkeley","state_name":"California","lat":37.87835,"lng":-122.26613,"zip":"94709","miles_from_dt":23.53},{"city":"Berkeley","state_name":"California","lat":37.86991,"lng":-122.27067,"zip":"94701","miles_from_dt":23.53},{"city":"Rodeo","state_name":"California","lat":38.02392,"lng":-122.23285,"zip":"94572","miles_from_dt":23.6},{"city":"Daly City","state_name":"California","lat":37.70733,"lng":-122.45493,"zip":"94016","miles_from_dt":23.68},{"city":"Berkeley","state_name":"California","lat":37.869,"lng":-122.2679,"zip":"94712","miles_from_dt":23.7},{"city":"Emeryville","state_name":"California","lat":37.83611,"lng":-122.28621,"zip":"94608","miles_from_dt":23.83},{"city":"Crockett","state_name":"California","lat":38.04811,"lng":-122.2292,"zip":"94525","miles_from_dt":23.93},{"city":"San Francisco","state_name":"California","lat":37.7407,"lng":-122.38091,"zip":"94188","miles_from_dt":24.08},{"city":"Berkeley","state_name":"California","lat":37.8664,"lng":-122.26088,"zip":"94704","miles_from_dt":24.12},{"city":"Oakland","state_name":"California","lat":37.81067,"lng":-122.29747,"zip":"94623","miles_from_dt":24.24},{"city":"Oakland","state_name":"California","lat":37.80721,"lng":-122.30024,"zip":"94607","miles_from_dt":24.25},{"city":"Oakland","state_name":"California","lat":37.80823,"lng":-122.29898,"zip":"94615","miles_from_dt":24.27},{"city":"San Francisco","state_name":"California","lat":37.71887,"lng":-122.41124,"zip":"94134","miles_from_dt":24.27},{"city":"San Francisco","state_name":"California","lat":37.73204,"lng":-122.3858,"zip":"94124","miles_from_dt":24.37},{"city":"Berkeley","state_name":"California","lat":37.87185,"lng":-122.25226,"zip":"94720","miles_from_dt":24.4},{"city":"San Francisco","state_name":"California","lat":37.73138,"lng":-122.38496,"zip":"94125","miles_from_dt":24.44},{"city":"Daly City","state_name":"California","lat":37.68878,"lng":-122.46892,"zip":"94017","miles_from_dt":24.46},{"city":"San Francisco","state_name":"California","lat":37.71802,"lng":-122.40439,"zip":"94160","miles_from_dt":24.53},{"city":"Vallejo","state_name":"California","lat":38.14162,"lng":-122.24596,"zip":"94589","miles_from_dt":24.64},{"city":"Daly City","state_name":"California","lat":37.68121,"lng":-122.48074,"zip":"94015","miles_from_dt":24.66},{"city":"Daly City","state_name":"California","lat":37.6907,"lng":-122.44769,"zip":"94014","miles_from_dt":24.88},{"city":"Eldridge","state_name":"California","lat":38.34897,"lng":-122.51625,"zip":"95431","miles_from_dt":24.89},{"city":"Oakland","state_name":"California","lat":37.83476,"lng":-122.2642,"zip":"94609","miles_from_dt":24.93},{"city":"Berkeley","state_name":"California","lat":37.86523,"lng":-122.2384,"zip":"94705","miles_from_dt":25.28},{"city":"Oakland","state_name":"California","lat":37.80998,"lng":-122.2692,"zip":"94659","miles_from_dt":25.56},{"city":"Oakland","state_name":"California","lat":37.80982,"lng":-122.26553,"zip":"94666","miles_from_dt":25.73},{"city":"Oakland","state_name":"California","lat":37.80789,"lng":-122.2662,"zip":"94612","miles_from_dt":25.77},{"city":"Oakland","state_name":"California","lat":37.8442,"lng":-122.23868,"zip":"94618","miles_from_dt":25.87},{"city":"Oakland","state_name":"California","lat":37.80694,"lng":-122.26383,"zip":"94649","miles_from_dt":25.92},{"city":"Port Costa","state_name":"California","lat":38.04411,"lng":-122.19201,"zip":"94569","miles_from_dt":25.92},{"city":"Oakland","state_name":"California","lat":37.80126,"lng":-122.26575,"zip":"94604","miles_from_dt":26.04},{"city":"Oakland","state_name":"California","lat":37.79591,"lng":-122.26977,"zip":"94660","miles_from_dt":26.07},{"city":"Brisbane","state_name":"California","lat":37.6882,"lng":-122.40873,"zip":"94005","miles_from_dt":26.11},{"city":"Napa","state_name":"California","lat":38.25238,"lng":-122.29382,"zip":"94559","miles_from_dt":26.33},{"city":"Alameda","state_name":"California","lat":37.77525,"lng":-122.27493,"zip":"94501","miles_from_dt":26.67},{"city":"Oakland","state_name":"California","lat":37.81229,"lng":-122.24048,"zip":"94610","miles_from_dt":26.82},{"city":"Glen Ellen","state_name":"California","lat":38.3785,"lng":-122.51549,"zip":"95442","miles_from_dt":26.84},{"city":"Vallejo","state_name":"California","lat":38.12702,"lng":-122.19635,"zip":"94591","miles_from_dt":26.84},{"city":"American Canyon","state_name":"California","lat":38.19454,"lng":-122.23042,"zip":"94503","miles_from_dt":26.96},{"city":"Santa Rosa","state_name":"California","lat":38.39465,"lng":-122.74591,"zip":"95407","miles_from_dt":27.05},{"city":"Orinda","state_name":"California","lat":37.88196,"lng":-122.19419,"zip":"94563","miles_from_dt":27.13},{"city":"Valley Ford","state_name":"California","lat":38.33665,"lng":-122.93934,"zip":"94972","miles_from_dt":27.17},{"city":"Oakland","state_name":"California","lat":37.83191,"lng":-122.21592,"zip":"94611","miles_from_dt":27.36},{"city":"Oakland","state_name":"California","lat":37.79179,"lng":-122.24455,"zip":"94606","miles_from_dt":27.37},{"city":"Oakland","state_name":"California","lat":37.82978,"lng":-122.20989,"zip":"94661","miles_from_dt":27.72},{"city":"South San Francisco","state_name":"California","lat":37.65541,"lng":-122.42083,"zip":"94080","miles_from_dt":27.72},{"city":"Martinez","state_name":"California","lat":37.97999,"lng":-122.15368,"zip":"94553","miles_from_dt":27.96},{"city":"Sebastopol","state_name":"California","lat":38.40074,"lng":-122.82455,"zip":"95473","miles_from_dt":28.47},{"city":"Napa","state_name":"California","lat":38.29728,"lng":-122.28766,"zip":"94581","miles_from_dt":28.65},{"city":"South San Francisco","state_name":"California","lat":37.64364,"lng":-122.41198,"zip":"94083","miles_from_dt":28.66},{"city":"Bodega","state_name":"California","lat":38.35683,"lng":-122.95098,"zip":"94922","miles_from_dt":28.68},{"city":"Oakland","state_name":"California","lat":37.80517,"lng":-122.20422,"zip":"94602","miles_from_dt":28.79},{"city":"Sebastopol","state_name":"California","lat":38.39738,"lng":-122.86668,"zip":"95472","miles_from_dt":29.04},{"city":"Oakland","state_name":"California","lat":37.77684,"lng":-122.21822,"zip":"94601","miles_from_dt":29.14},{"city":"Piedmont","state_name":"California","lat":37.77757,"lng":-122.21475,"zip":"94620","miles_from_dt":29.27},{"city":"San Bruno","state_name":"California","lat":37.62539,"lng":-122.43229,"zip":"94066","miles_from_dt":29.27},{"city":"Pacifica","state_name":"California","lat":37.60544,"lng":-122.47993,"zip":"94044","miles_from_dt":29.53},{"city":"Benicia","state_name":"California","lat":38.09756,"lng":-122.13189,"zip":"94510","miles_from_dt":29.72},{"city":"Alameda","state_name":"California","lat":37.73686,"lng":-122.24114,"zip":"94502","miles_from_dt":29.76},{"city":"Santa Rosa","state_name":"California","lat":38.43926,"lng":-122.66908,"zip":"95405","miles_from_dt":29.77},{"city":"Kenwood","state_name":"California","lat":38.42969,"lng":-122.5362,"zip":"95452","miles_from_dt":29.94},{"city":"Canyon","state_name":"California","lat":37.82748,"lng":-122.16629,"zip":"94516","miles_from_dt":29.94}],"targetCityZipCode":"94963","targetCityState":"California"},"__N_SSG":true}