{"pageProps":{"stateName":"California","cityName":"san-jacinto","nearbyCities":[{"city":"San Jacinto","state_name":"California","lat":33.79662,"lng":-116.93188,"zip":"92583","miles_from_dt":1.81},{"city":"Hemet","state_name":"California","lat":33.74999,"lng":-116.96813,"zip":"92546","miles_from_dt":2.44},{"city":"San Jacinto","state_name":"California","lat":33.80489,"lng":-117.01873,"zip":"92582","miles_from_dt":3.66},{"city":"Hemet","state_name":"California","lat":33.7311,"lng":-117.0359,"zip":"92545","miles_from_dt":5.73},{"city":"Hemet","state_name":"California","lat":33.69867,"lng":-116.97916,"zip":"92543","miles_from_dt":6.03},{"city":"Nuevo","state_name":"California","lat":33.82378,"lng":-117.10305,"zip":"92567","miles_from_dt":8.66},{"city":"Homeland","state_name":"California","lat":33.76392,"lng":-117.10907,"zip":"92548","miles_from_dt":8.7},{"city":"Beaumont","state_name":"California","lat":33.9382,"lng":-116.98137,"zip":"92223","miles_from_dt":10.65},{"city":"Hemet","state_name":"California","lat":33.64581,"lng":-116.86033,"zip":"92544","miles_from_dt":11.16},{"city":"Winchester","state_name":"California","lat":33.64739,"lng":-117.07641,"zip":"92596","miles_from_dt":11.6},{"city":"Menifee","state_name":"California","lat":33.74217,"lng":-117.16723,"zip":"92585","miles_from_dt":12.29},{"city":"Moreno Valley","state_name":"California","lat":33.9133,"lng":-117.10867,"zip":"92555","miles_from_dt":12.32},{"city":"Banning","state_name":"California","lat":33.93992,"lng":-116.83935,"zip":"92220","miles_from_dt":12.75},{"city":"Cabazon","state_name":"California","lat":33.9088,"lng":-116.76879,"zip":"92230","miles_from_dt":13.93},{"city":"Perris","state_name":"California","lat":33.83036,"lng":-117.19802,"zip":"92599","miles_from_dt":14.06},{"city":"Perris","state_name":"California","lat":33.84182,"lng":-117.19522,"zip":"92571","miles_from_dt":14.1},{"city":"Idyllwild","state_name":"California","lat":33.80886,"lng":-116.71212,"zip":"92549","miles_from_dt":14.36},{"city":"Menifee","state_name":"California","lat":33.70773,"lng":-117.20045,"zip":"92586","miles_from_dt":14.83},{"city":"Calimesa","state_name":"California","lat":33.9874,"lng":-117.05024,"zip":"92320","miles_from_dt":14.9},{"city":"Menifee","state_name":"California","lat":33.66167,"lng":-117.18079,"zip":"92584","miles_from_dt":15.29},{"city":"Perris","state_name":"California","lat":33.78596,"lng":-117.22671,"zip":"92572","miles_from_dt":15.35},{"city":"Murrieta","state_name":"California","lat":33.64178,"lng":-117.18626,"zip":"92564","miles_from_dt":16.34},{"city":"Moreno Valley","state_name":"California","lat":33.88148,"lng":-117.22521,"zip":"92551","miles_from_dt":16.65},{"city":"Murrieta","state_name":"California","lat":33.58435,"lng":-117.14458,"zip":"92563","miles_from_dt":17.43},{"city":"Menifee","state_name":"California","lat":33.69466,"lng":-117.25196,"zip":"92587","miles_from_dt":17.92},{"city":"Yucaipa","state_name":"California","lat":34.04469,"lng":-117.004,"zip":"92399","miles_from_dt":18.1},{"city":"Redlands","state_name":"California","lat":34.00648,"lng":-117.15351,"zip":"92373","miles_from_dt":18.91},{"city":"Moreno Valley","state_name":"California","lat":33.92335,"lng":-117.24532,"zip":"92553","miles_from_dt":18.99},{"city":"Moreno Valley","state_name":"California","lat":33.9148,"lng":-117.2511,"zip":"92554","miles_from_dt":18.99},{"city":"Moreno Valley","state_name":"California","lat":33.92554,"lng":-117.2482,"zip":"92552","miles_from_dt":19.21},{"city":"Temecula","state_name":"California","lat":33.511,"lng":-117.0242,"zip":"92592","miles_from_dt":19.22},{"city":"Temecula","state_name":"California","lat":33.53432,"lng":-117.1092,"zip":"92591","miles_from_dt":19.28},{"city":"March Air Reserve Base","state_name":"California","lat":33.89602,"lng":-117.27705,"zip":"92518","miles_from_dt":19.79},{"city":"Temecula","state_name":"California","lat":33.51697,"lng":-117.11021,"zip":"92589","miles_from_dt":20.39},{"city":"Perris","state_name":"California","lat":33.78377,"lng":-117.31737,"zip":"92570","miles_from_dt":20.57},{"city":"Lake Elsinore","state_name":"California","lat":33.69052,"lng":-117.30241,"zip":"92532","miles_from_dt":20.76},{"city":"Moreno Valley","state_name":"California","lat":33.96549,"lng":-117.24944,"zip":"92556","miles_from_dt":20.79},{"city":"Wildomar","state_name":"California","lat":33.61638,"lng":-117.26028,"zip":"92595","miles_from_dt":20.83},{"city":"Whitewater","state_name":"California","lat":33.96253,"lng":-116.65829,"zip":"92282","miles_from_dt":21.23},{"city":"Moreno Valley","state_name":"California","lat":33.96855,"lng":-117.25704,"zip":"92557","miles_from_dt":21.27},{"city":"Mentone","state_name":"California","lat":34.08296,"lng":-117.07026,"zip":"92359","miles_from_dt":21.51},{"city":"Forest Falls","state_name":"California","lat":34.08189,"lng":-116.83838,"zip":"92339","miles_from_dt":21.64},{"city":"Aguanga","state_name":"California","lat":33.48791,"lng":-116.81528,"zip":"92536","miles_from_dt":22.09},{"city":"Riverside","state_name":"California","lat":33.89039,"lng":-117.3282,"zip":"92508","miles_from_dt":22.4},{"city":"Temecula","state_name":"California","lat":33.50207,"lng":-117.15483,"zip":"92593","miles_from_dt":22.49},{"city":"Redlands","state_name":"California","lat":34.06738,"lng":-117.17482,"zip":"92374","miles_from_dt":23.07},{"city":"Redlands","state_name":"California","lat":34.06281,"lng":-117.19559,"zip":"92375","miles_from_dt":23.47},{"city":"Palm Springs","state_name":"California","lat":33.87589,"lng":-116.56629,"zip":"92263","miles_from_dt":23.5},{"city":"Palm Springs","state_name":"California","lat":33.86287,"lng":-116.55736,"zip":"92262","miles_from_dt":23.77},{"city":"Bryn Mawr","state_name":"California","lat":34.04837,"lng":-117.23367,"zip":"92318","miles_from_dt":24.04},{"city":"Mountain Center","state_name":"California","lat":33.63704,"lng":-116.57441,"zip":"92561","miles_from_dt":24.43},{"city":"Riverside","state_name":"California","lat":33.97464,"lng":-117.32234,"zip":"92507","miles_from_dt":24.61},{"city":"Riverside","state_name":"California","lat":33.96794,"lng":-117.32731,"zip":"92521","miles_from_dt":24.61},{"city":"Loma Linda","state_name":"California","lat":34.04933,"lng":-117.25119,"zip":"92354","miles_from_dt":24.75},{"city":"North Palm Springs","state_name":"California","lat":33.91791,"lng":-116.56002,"zip":"92258","miles_from_dt":24.76},{"city":"Loma Linda","state_name":"California","lat":34.05461,"lng":-117.25281,"zip":"92357","miles_from_dt":25.09},{"city":"Loma Linda","state_name":"California","lat":34.05296,"lng":-117.2617,"zip":"92350","miles_from_dt":25.35},{"city":"Riverside","state_name":"California","lat":33.93478,"lng":-117.36689,"zip":"92506","miles_from_dt":25.58},{"city":"Colton","state_name":"California","lat":34.03398,"lng":-117.29008,"zip":"92324","miles_from_dt":25.6},{"city":"Temecula","state_name":"California","lat":33.48391,"lng":-117.22075,"zip":"92590","miles_from_dt":25.61},{"city":"Anza","state_name":"California","lat":33.51579,"lng":-116.64432,"zip":"92539","miles_from_dt":25.97},{"city":"Lake Elsinore","state_name":"California","lat":33.63386,"lng":-117.37949,"zip":"92530","miles_from_dt":26.31},{"city":"Palm Springs","state_name":"California","lat":33.73575,"lng":-116.50544,"zip":"92264","miles_from_dt":26.38},{"city":"Grand Terrace","state_name":"California","lat":34.03142,"lng":-117.31373,"zip":"92313","miles_from_dt":26.51},{"city":"Riverside","state_name":"California","lat":33.90607,"lng":-117.39854,"zip":"92504","miles_from_dt":26.58},{"city":"Highland","state_name":"California","lat":34.12629,"lng":-117.1792,"zip":"92346","miles_from_dt":26.7},{"city":"Riverside","state_name":"California","lat":33.97685,"lng":-117.36998,"zip":"92502","miles_from_dt":27.04},{"city":"San Bernardino","state_name":"California","lat":34.0845,"lng":-117.2653,"zip":"92408","miles_from_dt":27.11},{"city":"Riverside","state_name":"California","lat":33.9404,"lng":-117.397,"zip":"92522","miles_from_dt":27.33},{"city":"Angelus Oaks","state_name":"California","lat":34.17018,"lng":-116.83231,"zip":"92305","miles_from_dt":27.56},{"city":"Riverside","state_name":"California","lat":33.95317,"lng":-117.39484,"zip":"92516","miles_from_dt":27.57},{"city":"Riverside","state_name":"California","lat":33.99496,"lng":-117.37367,"zip":"92501","miles_from_dt":27.85},{"city":"Desert Hot Springs","state_name":"California","lat":33.95291,"lng":-116.5194,"zip":"92240","miles_from_dt":27.85},{"city":"Lake Elsinore","state_name":"California","lat":33.60526,"lng":-117.3939,"zip":"92531","miles_from_dt":27.89},{"city":"Morongo Valley","state_name":"California","lat":34.07207,"lng":-116.61761,"zip":"92256","miles_from_dt":27.91},{"city":"San Bernardino","state_name":"California","lat":34.10213,"lng":-117.26926,"zip":"92403","miles_from_dt":28.19},{"city":"Pala","state_name":"California","lat":33.38277,"lng":-117.05193,"zip":"92059","miles_from_dt":28.21},{"city":"Murrieta","state_name":"California","lat":33.53579,"lng":-117.35098,"zip":"92562","miles_from_dt":28.32},{"city":"Riverside","state_name":"California","lat":33.94501,"lng":-117.41471,"zip":"92514","miles_from_dt":28.39},{"city":"Cathedral City","state_name":"California","lat":33.81386,"lng":-116.46663,"zip":"92234","miles_from_dt":28.45},{"city":"Patton","state_name":"California","lat":34.13941,"lng":-117.21966,"zip":"92369","miles_from_dt":28.64},{"city":"Cathedral City","state_name":"California","lat":33.78061,"lng":-116.46127,"zip":"92235","miles_from_dt":28.7},{"city":"San Bernardino","state_name":"California","lat":34.10506,"lng":-117.28685,"zip":"92415","miles_from_dt":28.99},{"city":"San Bernardino","state_name":"California","lat":34.10415,"lng":-117.29075,"zip":"92418","miles_from_dt":29.08},{"city":"Riverside","state_name":"California","lat":33.88308,"lng":-117.45222,"zip":"92503","miles_from_dt":29.12},{"city":"San Bernardino","state_name":"California","lat":34.10586,"lng":-117.29188,"zip":"92401","miles_from_dt":29.22},{"city":"San Bernardino","state_name":"California","lat":34.10712,"lng":-117.29236,"zip":"92423","miles_from_dt":29.3},{"city":"San Bernardino","state_name":"California","lat":34.10655,"lng":-117.29574,"zip":"92410","miles_from_dt":29.4},{"city":"Riverside","state_name":"California","lat":33.99548,"lng":-117.41344,"zip":"92519","miles_from_dt":29.84},{"city":"Riverside","state_name":"California","lat":33.96424,"lng":-117.43257,"zip":"92517","miles_from_dt":29.86},{"city":"Corona","state_name":"California","lat":33.75994,"lng":-117.47827,"zip":"92883","miles_from_dt":29.88}],"targetCityZipCode":"92581","targetCityState":"California"},"__N_SSG":true}