{"pageProps":{"stateName":"California","cityName":"santa-paula","nearbyCities":[{"city":"Santa Paula","state_name":"California","lat":34.35265,"lng":-119.05691,"zip":"93061","miles_from_dt":2.38},{"city":"Ventura","state_name":"California","lat":34.28972,"lng":-119.15781,"zip":"93007","miles_from_dt":6.31},{"city":"Somis","state_name":"California","lat":34.28851,"lng":-119.02848,"zip":"93066","miles_from_dt":6.55},{"city":"Ventura","state_name":"California","lat":34.27901,"lng":-119.16537,"zip":"93004","miles_from_dt":7.17},{"city":"Oxnard","state_name":"California","lat":34.24911,"lng":-119.15977,"zip":"93036","miles_from_dt":8.82},{"city":"Ventura","state_name":"California","lat":34.28434,"lng":-119.22256,"zip":"93003","miles_from_dt":9.16},{"city":"Camarillo","state_name":"California","lat":34.23007,"lng":-119.07437,"zip":"93010","miles_from_dt":9.41},{"city":"Ventura","state_name":"California","lat":34.26623,"lng":-119.20918,"zip":"93009","miles_from_dt":9.43},{"city":"Ventura","state_name":"California","lat":34.25013,"lng":-119.20298,"zip":"93005","miles_from_dt":10.04},{"city":"Ojai","state_name":"California","lat":34.44023,"lng":-119.26063,"zip":"93024","miles_from_dt":10.74},{"city":"Fillmore","state_name":"California","lat":34.40111,"lng":-118.91178,"zip":"93016","miles_from_dt":10.79},{"city":"Camarillo","state_name":"California","lat":34.21466,"lng":-119.03559,"zip":"93011","miles_from_dt":10.95},{"city":"Oxnard","state_name":"California","lat":34.22047,"lng":-119.18124,"zip":"93031","miles_from_dt":11.13},{"city":"Oak View","state_name":"California","lat":34.40324,"lng":-119.29836,"zip":"93022","miles_from_dt":11.87},{"city":"Oxnard","state_name":"California","lat":34.2051,"lng":-119.1753,"zip":"93030","miles_from_dt":11.95},{"city":"Oxnard","state_name":"California","lat":34.19953,"lng":-119.17667,"zip":"93032","miles_from_dt":12.34},{"city":"Ventura","state_name":"California","lat":34.2807,"lng":-119.2868,"zip":"93002","miles_from_dt":12.39},{"city":"Camarillo","state_name":"California","lat":34.20518,"lng":-118.99309,"zip":"93012","miles_from_dt":12.51},{"city":"Ventura","state_name":"California","lat":34.27989,"lng":-119.29193,"zip":"93006","miles_from_dt":12.68},{"city":"Ventura","state_name":"California","lat":34.35321,"lng":-119.31868,"zip":"93001","miles_from_dt":12.78},{"city":"Fillmore","state_name":"California","lat":34.40969,"lng":-118.87807,"zip":"93015","miles_from_dt":12.8},{"city":"Moorpark","state_name":"California","lat":34.30417,"lng":-118.88274,"zip":"93021","miles_from_dt":12.88},{"city":"Ojai","state_name":"California","lat":34.50372,"lng":-119.24856,"zip":"93023","miles_from_dt":12.93},{"city":"Moorpark","state_name":"California","lat":34.28483,"lng":-118.8814,"zip":"93020","miles_from_dt":13.45},{"city":"Oxnard","state_name":"California","lat":34.17255,"lng":-119.17736,"zip":"93034","miles_from_dt":14.09},{"city":"Oxnard","state_name":"California","lat":34.19034,"lng":-119.22879,"zip":"93035","miles_from_dt":14.27},{"city":"Oxnard","state_name":"California","lat":34.15401,"lng":-119.12296,"zip":"93033","miles_from_dt":14.66},{"city":"Port Hueneme Cbc Base","state_name":"California","lat":34.17001,"lng":-119.2026,"zip":"93043","miles_from_dt":14.8},{"city":"Port Hueneme","state_name":"California","lat":34.15421,"lng":-119.18796,"zip":"93044","miles_from_dt":15.49},{"city":"Port Hueneme","state_name":"California","lat":34.14956,"lng":-119.17458,"zip":"93041","miles_from_dt":15.55},{"city":"Newbury Park","state_name":"California","lat":34.17339,"lng":-118.94795,"zip":"91320","miles_from_dt":15.7},{"city":"Newbury Park","state_name":"California","lat":34.18485,"lng":-118.91642,"zip":"91319","miles_from_dt":16.13},{"city":"Thousand Oaks","state_name":"California","lat":34.21475,"lng":-118.87735,"zip":"91360","miles_from_dt":16.24},{"city":"Thousand Oaks","state_name":"California","lat":34.17891,"lng":-118.8744,"zip":"91358","miles_from_dt":18.04},{"city":"Piru","state_name":"California","lat":34.59337,"lng":-118.93657,"zip":"93040","miles_from_dt":18.15},{"city":"Simi Valley","state_name":"California","lat":34.27217,"lng":-118.79529,"zip":"93094","miles_from_dt":18.34},{"city":"Westlake Village","state_name":"California","lat":34.19444,"lng":-118.82001,"zip":"91359","miles_from_dt":19.69},{"city":"Westlake Village","state_name":"California","lat":34.14016,"lng":-118.88398,"zip":"91361","miles_from_dt":19.69},{"city":"Thousand Oaks","state_name":"California","lat":34.19244,"lng":-118.81949,"zip":"91362","miles_from_dt":19.79},{"city":"Simi Valley","state_name":"California","lat":34.26206,"lng":-118.77151,"zip":"93065","miles_from_dt":19.86},{"city":"Simi Valley","state_name":"California","lat":34.26293,"lng":-118.75053,"zip":"93099","miles_from_dt":20.96},{"city":"Simi Valley","state_name":"California","lat":34.28784,"lng":-118.74102,"zip":"93062","miles_from_dt":20.97},{"city":"Carpinteria","state_name":"California","lat":34.42697,"lng":-119.48032,"zip":"93013","miles_from_dt":22.39},{"city":"Oak Park","state_name":"California","lat":34.1847,"lng":-118.76652,"zip":"91377","miles_from_dt":22.58},{"city":"Simi Valley","state_name":"California","lat":34.30922,"lng":-118.69041,"zip":"93063","miles_from_dt":23.49},{"city":"Carpinteria","state_name":"California","lat":34.39242,"lng":-119.51252,"zip":"93014","miles_from_dt":23.9},{"city":"Brandeis","state_name":"California","lat":34.24527,"lng":-118.69984,"zip":"93064","miles_from_dt":24.11},{"city":"Malibu","state_name":"California","lat":34.07282,"lng":-118.84995,"zip":"90265","miles_from_dt":24.59},{"city":"Agoura Hills","state_name":"California","lat":34.14044,"lng":-118.75157,"zip":"91376","miles_from_dt":25.07},{"city":"Agoura Hills","state_name":"California","lat":34.12314,"lng":-118.75685,"zip":"91301","miles_from_dt":25.59},{"city":"Castaic","state_name":"California","lat":34.51604,"lng":-118.67289,"zip":"91384","miles_from_dt":26.28},{"city":"West Hills","state_name":"California","lat":34.20177,"lng":-118.66226,"zip":"91307","miles_from_dt":27.24},{"city":"Stevenson Ranch","state_name":"California","lat":34.3753,"lng":-118.60744,"zip":"91381","miles_from_dt":27.91},{"city":"Canoga Park","state_name":"California","lat":34.22472,"lng":-118.63261,"zip":"91304","miles_from_dt":28.21},{"city":"Chatsworth","state_name":"California","lat":34.29011,"lng":-118.60776,"zip":"91311","miles_from_dt":28.38},{"city":"Summerland","state_name":"California","lat":34.42162,"lng":-119.59277,"zip":"93067","miles_from_dt":28.67},{"city":"Castaic","state_name":"California","lat":34.49464,"lng":-118.61446,"zip":"91310","miles_from_dt":28.89},{"city":"Malibu","state_name":"California","lat":34.04351,"lng":-118.77104,"zip":"90264","miles_from_dt":28.95},{"city":"Frazier Park","state_name":"California","lat":34.78532,"lng":-119.04196,"zip":"93225","miles_from_dt":29.1},{"city":"Calabasas","state_name":"California","lat":34.12295,"lng":-118.67193,"zip":"91302","miles_from_dt":29.45},{"city":"Valencia","state_name":"California","lat":34.42379,"lng":-118.58437,"zip":"91355","miles_from_dt":29.49},{"city":"Santa Barbara","state_name":"California","lat":34.44934,"lng":-119.60397,"zip":"93108","miles_from_dt":29.61},{"city":"Calabasas","state_name":"California","lat":34.1545,"lng":-118.64317,"zip":"91372","miles_from_dt":29.7}],"targetCityZipCode":"93060","targetCityState":"California"},"__N_SSG":true}