{"pageProps":{"stateName":"California","cityName":"santa-maria","nearbyCities":[{"city":"Santa Maria","state_name":"California","lat":34.86528,"lng":-120.435,"zip":"93457","miles_from_dt":12.76},{"city":"Santa Maria","state_name":"California","lat":34.94212,"lng":-120.46167,"zip":"93456","miles_from_dt":12.92},{"city":"Los Alamos","state_name":"California","lat":34.74606,"lng":-120.25292,"zip":"93440","miles_from_dt":13.98},{"city":"Santa Maria","state_name":"California","lat":34.84195,"lng":-120.45522,"zip":"93455","miles_from_dt":14.54},{"city":"Santa Maria","state_name":"California","lat":34.95477,"lng":-120.49042,"zip":"93458","miles_from_dt":14.55},{"city":"Nipomo","state_name":"California","lat":35.03553,"lng":-120.50293,"zip":"93444","miles_from_dt":16.38},{"city":"Los Olivos","state_name":"California","lat":34.73296,"lng":-120.09721,"zip":"93441","miles_from_dt":16.77},{"city":"Casmalia","state_name":"California","lat":34.86682,"lng":-120.53582,"zip":"93429","miles_from_dt":18.02},{"city":"Arroyo Grande","state_name":"California","lat":35.16682,"lng":-120.46617,"zip":"93420","miles_from_dt":19.99},{"city":"Lompoc","state_name":"California","lat":34.76049,"lng":-120.51102,"zip":"93437","miles_from_dt":20.37},{"city":"Guadalupe","state_name":"California","lat":34.94086,"lng":-120.6113,"zip":"93434","miles_from_dt":21.41},{"city":"Buellton","state_name":"California","lat":34.62724,"lng":-120.22465,"zip":"93427","miles_from_dt":22.14},{"city":"Arroyo Grande","state_name":"California","lat":35.12068,"lng":-120.57442,"zip":"93421","miles_from_dt":22.65},{"city":"Oceano","state_name":"California","lat":35.03319,"lng":-120.62002,"zip":"93445","miles_from_dt":22.65},{"city":"Oceano","state_name":"California","lat":35.099,"lng":-120.612,"zip":"93475","miles_from_dt":23.81},{"city":"Solvang","state_name":"California","lat":34.60688,"lng":-120.13495,"zip":"93463","miles_from_dt":24.21},{"city":"Grover Beach","state_name":"California","lat":35.12045,"lng":-120.61894,"zip":"93433","miles_from_dt":24.83},{"city":"Grover Beach","state_name":"California","lat":35.11917,"lng":-120.62088,"zip":"93483","miles_from_dt":24.88},{"city":"Lompoc","state_name":"California","lat":34.60888,"lng":-120.4002,"zip":"93436","miles_from_dt":25.23},{"city":"Lompoc","state_name":"California","lat":34.63638,"lng":-120.46903,"zip":"93438","miles_from_dt":25.31},{"city":"Santa Margarita","state_name":"California","lat":35.31339,"lng":-120.1655,"zip":"93453","miles_from_dt":25.46},{"city":"Santa Ynez","state_name":"California","lat":34.66214,"lng":-119.90091,"zip":"93460","miles_from_dt":27.36},{"city":"New Cuyama","state_name":"California","lat":34.92498,"lng":-119.74834,"zip":"93254","miles_from_dt":27.63},{"city":"Pismo Beach","state_name":"California","lat":35.15803,"lng":-120.6504,"zip":"93449","miles_from_dt":27.67},{"city":"Solvang","state_name":"California","lat":34.55422,"lng":-120.14178,"zip":"93464","miles_from_dt":27.67},{"city":"Pismo Beach","state_name":"California","lat":35.15528,"lng":-120.67139,"zip":"93448","miles_from_dt":28.59},{"city":"San Luis Obispo","state_name":"California","lat":35.23539,"lng":-120.61834,"zip":"93401","miles_from_dt":29.41}],"targetCityZipCode":"93454","targetCityState":"California"},"__N_SSG":true}