{"pageProps":{"stateName":"California","cityName":"sunol","nearbyCities":[{"city":"Fremont","state_name":"California","lat":37.51635,"lng":-121.9119,"zip":"94539","miles_from_dt":5.03},{"city":"Pleasanton","state_name":"California","lat":37.65032,"lng":-121.85881,"zip":"94566","miles_from_dt":5.32},{"city":"Fremont","state_name":"California","lat":37.57072,"lng":-121.98555,"zip":"94536","miles_from_dt":7.18},{"city":"Fremont","state_name":"California","lat":37.50653,"lng":-121.96361,"zip":"94538","miles_from_dt":7.55},{"city":"Fremont","state_name":"California","lat":37.55569,"lng":-122.01734,"zip":"94537","miles_from_dt":9.01},{"city":"Milpitas","state_name":"California","lat":37.44319,"lng":-121.87632,"zip":"95035","miles_from_dt":9.05},{"city":"Dublin","state_name":"California","lat":37.71596,"lng":-121.90113,"zip":"94568","miles_from_dt":10.16},{"city":"Newark","state_name":"California","lat":37.50771,"lng":-122.02523,"zip":"94560","miles_from_dt":10.4},{"city":"San Jose","state_name":"California","lat":37.4174,"lng":-121.82003,"zip":"95152","miles_from_dt":10.92},{"city":"Hayward","state_name":"California","lat":37.6553,"lng":-122.02584,"zip":"94542","miles_from_dt":10.96},{"city":"San Jose","state_name":"California","lat":37.43003,"lng":-121.94528,"zip":"95134","miles_from_dt":11.06},{"city":"San Jose","state_name":"California","lat":37.41994,"lng":-121.79059,"zip":"95132","miles_from_dt":11.15},{"city":"Pleasanton","state_name":"California","lat":37.73801,"lng":-121.88178,"zip":"94588","miles_from_dt":11.46},{"city":"Hayward","state_name":"California","lat":37.63352,"lng":-122.05678,"zip":"94544","miles_from_dt":11.84},{"city":"Union City","state_name":"California","lat":37.59142,"lng":-122.06993,"zip":"94587","miles_from_dt":11.88},{"city":"Alviso","state_name":"California","lat":37.44075,"lng":-122.00047,"zip":"95002","miles_from_dt":12.15},{"city":"Fremont","state_name":"California","lat":37.55083,"lng":-122.08043,"zip":"94555","miles_from_dt":12.49},{"city":"Castro Valley","state_name":"California","lat":37.70456,"lng":-122.01359,"zip":"94552","miles_from_dt":12.57},{"city":"San Jose","state_name":"California","lat":37.39252,"lng":-121.92386,"zip":"95164","miles_from_dt":13.03},{"city":"San Jose","state_name":"California","lat":37.38729,"lng":-121.89793,"zip":"95131","miles_from_dt":13.04},{"city":"San Jose","state_name":"California","lat":37.38574,"lng":-121.89934,"zip":"95161","miles_from_dt":13.16},{"city":"San Jose","state_name":"California","lat":37.3852,"lng":-121.89654,"zip":"95101","miles_from_dt":13.17},{"city":"Santa Clara","state_name":"California","lat":37.40059,"lng":-121.96347,"zip":"95056","miles_from_dt":13.32},{"city":"San Ramon","state_name":"California","lat":37.76357,"lng":-121.91469,"zip":"94582","miles_from_dt":13.53},{"city":"Santa Clara","state_name":"California","lat":37.39308,"lng":-121.96483,"zip":"95054","miles_from_dt":13.82},{"city":"Livermore","state_name":"California","lat":37.75902,"lng":-121.76026,"zip":"94551","miles_from_dt":13.82},{"city":"San Jose","state_name":"California","lat":37.37614,"lng":-121.90232,"zip":"95190","miles_from_dt":13.84},{"city":"San Jose","state_name":"California","lat":37.37171,"lng":-121.86057,"zip":"95133","miles_from_dt":13.9},{"city":"Hayward","state_name":"California","lat":37.62988,"lng":-122.10303,"zip":"94557","miles_from_dt":14.17},{"city":"Sunnyvale","state_name":"California","lat":37.41192,"lng":-122.01441,"zip":"94089","miles_from_dt":14.17},{"city":"San Jose","state_name":"California","lat":37.37453,"lng":-121.78733,"zip":"95127","miles_from_dt":14.2},{"city":"Hayward","state_name":"California","lat":37.67323,"lng":-122.0822,"zip":"94543","miles_from_dt":14.26},{"city":"Hayward","state_name":"California","lat":37.65881,"lng":-122.09505,"zip":"94540","miles_from_dt":14.44},{"city":"Hayward","state_name":"California","lat":37.67376,"lng":-122.08707,"zip":"94541","miles_from_dt":14.51},{"city":"San Jose","state_name":"California","lat":37.35997,"lng":-121.84002,"zip":"95156","miles_from_dt":14.73},{"city":"Livermore","state_name":"California","lat":37.51746,"lng":-121.59406,"zip":"94550","miles_from_dt":14.82},{"city":"Hayward","state_name":"California","lat":37.62957,"lng":-122.12048,"zip":"94545","miles_from_dt":15.09},{"city":"San Jose","state_name":"California","lat":37.35043,"lng":-121.85255,"zip":"95116","miles_from_dt":15.37},{"city":"Mountain View","state_name":"California","lat":37.41289,"lng":-122.04989,"zip":"94035","miles_from_dt":15.41},{"city":"Sunnyvale","state_name":"California","lat":37.38862,"lng":-122.01793,"zip":"94085","miles_from_dt":15.58},{"city":"San Ramon","state_name":"California","lat":37.77245,"lng":-121.99157,"zip":"94583","miles_from_dt":15.65},{"city":"San Jose","state_name":"California","lat":37.34461,"lng":-121.88346,"zip":"95112","miles_from_dt":15.85},{"city":"San Jose","state_name":"California","lat":37.34365,"lng":-121.88118,"zip":"95194","miles_from_dt":15.9},{"city":"San Jose","state_name":"California","lat":37.34656,"lng":-121.9097,"zip":"95110","miles_from_dt":15.92},{"city":"Santa Clara","state_name":"California","lat":37.35584,"lng":-121.95367,"zip":"95052","miles_from_dt":15.95},{"city":"San Jose","state_name":"California","lat":37.34189,"lng":-121.89021,"zip":"95192","miles_from_dt":16.08},{"city":"Sunnyvale","state_name":"California","lat":37.39098,"lng":-122.03733,"zip":"94088","miles_from_dt":16.09},{"city":"San Jose","state_name":"California","lat":37.34116,"lng":-121.88831,"zip":"95103","miles_from_dt":16.11},{"city":"Santa Clara","state_name":"California","lat":37.34848,"lng":-121.93737,"zip":"95053","miles_from_dt":16.15},{"city":"Mountain View","state_name":"California","lat":37.41188,"lng":-122.06892,"zip":"94043","miles_from_dt":16.2},{"city":"Santa Clara","state_name":"California","lat":37.3504,"lng":-121.95238,"zip":"95050","miles_from_dt":16.28},{"city":"San Jose","state_name":"California","lat":37.33854,"lng":-121.89162,"zip":"95106","miles_from_dt":16.31},{"city":"San Jose","state_name":"California","lat":37.33728,"lng":-121.89345,"zip":"95109","miles_from_dt":16.41},{"city":"Danville","state_name":"California","lat":37.80862,"lng":-121.90498,"zip":"94506","miles_from_dt":16.46},{"city":"San Jose","state_name":"California","lat":37.33383,"lng":-121.88515,"zip":"95172","miles_from_dt":16.6},{"city":"San Jose","state_name":"California","lat":37.33459,"lng":-121.89333,"zip":"95173","miles_from_dt":16.6},{"city":"San Jose","state_name":"California","lat":37.3339,"lng":-121.8905,"zip":"95113","miles_from_dt":16.62},{"city":"Sunnyvale","state_name":"California","lat":37.37164,"lng":-122.02316,"zip":"94086","miles_from_dt":16.71},{"city":"Palo Alto","state_name":"California","lat":37.45064,"lng":-122.11928,"zip":"94303","miles_from_dt":16.82},{"city":"San Jose","state_name":"California","lat":37.32925,"lng":-121.83481,"zip":"95122","miles_from_dt":16.86},{"city":"San Jose","state_name":"California","lat":37.33041,"lng":-121.89113,"zip":"95196","miles_from_dt":16.87},{"city":"San Lorenzo","state_name":"California","lat":37.67803,"lng":-122.13334,"zip":"94580","miles_from_dt":16.9},{"city":"Mountain View","state_name":"California","lat":37.41077,"lng":-122.08732,"zip":"94042","miles_from_dt":17},{"city":"Castro Valley","state_name":"California","lat":37.73441,"lng":-122.09056,"zip":"94546","miles_from_dt":17.05},{"city":"Santa Clara","state_name":"California","lat":37.3483,"lng":-121.98444,"zip":"95051","miles_from_dt":17.08},{"city":"San Jose","state_name":"California","lat":37.33252,"lng":-121.78142,"zip":"95148","miles_from_dt":17.09},{"city":"Mountain View","state_name":"California","lat":37.39505,"lng":-122.07666,"zip":"94039","miles_from_dt":17.32},{"city":"San Jose","state_name":"California","lat":37.32687,"lng":-121.91677,"zip":"95126","miles_from_dt":17.33},{"city":"San Leandro","state_name":"California","lat":37.70675,"lng":-122.1256,"zip":"94578","miles_from_dt":17.48},{"city":"San Jose","state_name":"California","lat":37.32407,"lng":-121.91724,"zip":"95191","miles_from_dt":17.53},{"city":"Mountain View","state_name":"California","lat":37.38822,"lng":-122.07529,"zip":"94041","miles_from_dt":17.6},{"city":"Santa Clara","state_name":"California","lat":37.33657,"lng":-121.98383,"zip":"95055","miles_from_dt":17.8},{"city":"Danville","state_name":"California","lat":37.81472,"lng":-121.98451,"zip":"94526","miles_from_dt":18.11},{"city":"San Jose","state_name":"California","lat":37.31679,"lng":-121.93239,"zip":"95159","miles_from_dt":18.2},{"city":"San Jose","state_name":"California","lat":37.3114,"lng":-121.90081,"zip":"95155","miles_from_dt":18.24},{"city":"Sunnyvale","state_name":"California","lat":37.35164,"lng":-122.03669,"zip":"94087","miles_from_dt":18.27},{"city":"San Jose","state_name":"California","lat":37.31579,"lng":-121.93647,"zip":"95128","miles_from_dt":18.32},{"city":"San Leandro","state_name":"California","lat":37.68656,"lng":-122.15709,"zip":"94579","miles_from_dt":18.33},{"city":"Mountain View","state_name":"California","lat":37.38034,"lng":-122.08531,"zip":"94040","miles_from_dt":18.38},{"city":"Palo Alto","state_name":"California","lat":37.44424,"lng":-122.14992,"zip":"94301","miles_from_dt":18.5},{"city":"Palo Alto","state_name":"California","lat":37.41627,"lng":-122.13088,"zip":"94306","miles_from_dt":18.64},{"city":"San Jose","state_name":"California","lat":37.30423,"lng":-121.88789,"zip":"95115","miles_from_dt":18.64},{"city":"San Jose","state_name":"California","lat":37.30463,"lng":-121.80981,"zip":"95121","miles_from_dt":18.69},{"city":"Palo Alto","state_name":"California","lat":37.44709,"lng":-122.15608,"zip":"94302","miles_from_dt":18.7},{"city":"Oakland","state_name":"California","lat":37.717,"lng":-122.146,"zip":"94622","miles_from_dt":18.8},{"city":"Menlo Park","state_name":"California","lat":37.48113,"lng":-122.18014,"zip":"94026","miles_from_dt":18.97},{"city":"San Jose","state_name":"California","lat":37.31008,"lng":-121.96225,"zip":"95117","miles_from_dt":19.09},{"city":"San Jose","state_name":"California","lat":37.29554,"lng":-121.89408,"zip":"95125","miles_from_dt":19.28},{"city":"Diablo","state_name":"California","lat":37.84149,"lng":-121.95819,"zip":"94528","miles_from_dt":19.35},{"city":"Mount Hamilton","state_name":"California","lat":37.3483,"lng":-121.64085,"zip":"95140","miles_from_dt":19.47},{"city":"Los Altos","state_name":"California","lat":37.3766,"lng":-122.1144,"zip":"94023","miles_from_dt":19.69},{"city":"San Leandro","state_name":"California","lat":37.71595,"lng":-122.16615,"zip":"94577","miles_from_dt":19.71},{"city":"San Jose","state_name":"California","lat":37.29174,"lng":-121.78373,"zip":"95151","miles_from_dt":19.8},{"city":"Tracy","state_name":"California","lat":37.76952,"lng":-121.5912,"zip":"95391","miles_from_dt":19.8},{"city":"San Jose","state_name":"California","lat":37.28904,"lng":-121.91438,"zip":"95150","miles_from_dt":19.87},{"city":"Menlo Park","state_name":"California","lat":37.45087,"lng":-122.1829,"zip":"94025","miles_from_dt":19.91},{"city":"San Jose","state_name":"California","lat":37.31175,"lng":-122.00901,"zip":"95170","miles_from_dt":19.93},{"city":"San Jose","state_name":"California","lat":37.29996,"lng":-121.97592,"zip":"95157","miles_from_dt":19.99},{"city":"San Jose","state_name":"California","lat":37.28401,"lng":-121.82731,"zip":"95111","miles_from_dt":20.01},{"city":"Campbell","state_name":"California","lat":37.29502,"lng":-121.96066,"zip":"95011","miles_from_dt":20.05},{"city":"San Jose","state_name":"California","lat":37.30597,"lng":-122.00072,"zip":"95129","miles_from_dt":20.11},{"city":"Redwood City","state_name":"California","lat":37.49367,"lng":-122.20823,"zip":"94063","miles_from_dt":20.18},{"city":"Palo Alto","state_name":"California","lat":37.41667,"lng":-122.16667,"zip":"94309","miles_from_dt":20.26},{"city":"Campbell","state_name":"California","lat":37.28905,"lng":-121.94796,"zip":"95009","miles_from_dt":20.26},{"city":"Los Altos","state_name":"California","lat":37.35037,"lng":-122.09863,"zip":"94024","miles_from_dt":20.4},{"city":"Cupertino","state_name":"California","lat":37.32286,"lng":-122.05296,"zip":"95015","miles_from_dt":20.42},{"city":"Tracy","state_name":"California","lat":37.65293,"lng":-121.49598,"zip":"95377","miles_from_dt":20.43},{"city":"Stanford","state_name":"California","lat":37.41623,"lng":-122.17069,"zip":"94305","miles_from_dt":20.46},{"city":"Oakland","state_name":"California","lat":37.75798,"lng":-122.14705,"zip":"94617","miles_from_dt":20.47},{"city":"Oakland","state_name":"California","lat":37.76062,"lng":-122.14903,"zip":"94605","miles_from_dt":20.67},{"city":"San Jose","state_name":"California","lat":37.27192,"lng":-121.85237,"zip":"95136","miles_from_dt":20.78},{"city":"Atherton","state_name":"California","lat":37.45399,"lng":-122.20313,"zip":"94027","miles_from_dt":20.83},{"city":"San Jose","state_name":"California","lat":37.33607,"lng":-122.09022,"zip":"95108","miles_from_dt":20.86},{"city":"San Jose","state_name":"California","lat":37.28803,"lng":-121.98146,"zip":"95130","miles_from_dt":20.87},{"city":"Campbell","state_name":"California","lat":37.27977,"lng":-121.95481,"zip":"95008","miles_from_dt":20.98},{"city":"Oakland","state_name":"California","lat":37.73923,"lng":-122.17554,"zip":"94603","miles_from_dt":20.99},{"city":"Palo Alto","state_name":"California","lat":37.39744,"lng":-122.16699,"zip":"94304","miles_from_dt":21.01},{"city":"Alamo","state_name":"California","lat":37.85429,"lng":-122.00664,"zip":"94507","miles_from_dt":21.09},{"city":"Oakland","state_name":"California","lat":37.7473,"lng":-122.17236,"zip":"94624","miles_from_dt":21.15},{"city":"Byron","state_name":"California","lat":37.83071,"lng":-121.63392,"zip":"94514","miles_from_dt":21.49},{"city":"San Jose","state_name":"California","lat":37.25932,"lng":-121.87681,"zip":"95158","miles_from_dt":21.69},{"city":"Redwood City","state_name":"California","lat":37.53504,"lng":-122.24683,"zip":"94065","miles_from_dt":21.69},{"city":"San Jose","state_name":"California","lat":37.26166,"lng":-121.91282,"zip":"95154","miles_from_dt":21.73},{"city":"Oakland","state_name":"California","lat":37.72971,"lng":-122.20067,"zip":"94614","miles_from_dt":21.82},{"city":"Los Altos","state_name":"California","lat":37.35534,"lng":-122.14494,"zip":"94022","miles_from_dt":21.92},{"city":"San Jose","state_name":"California","lat":37.25589,"lng":-121.88991,"zip":"95118","miles_from_dt":21.97},{"city":"Cupertino","state_name":"California","lat":37.30827,"lng":-122.07981,"zip":"95014","miles_from_dt":22.07},{"city":"Clayton","state_name":"California","lat":37.8926,"lng":-121.88252,"zip":"94517","miles_from_dt":22.08},{"city":"San Jose","state_name":"California","lat":37.25684,"lng":-121.92286,"zip":"95124","miles_from_dt":22.14},{"city":"Redwood City","state_name":"California","lat":37.46136,"lng":-122.23731,"zip":"94061","miles_from_dt":22.39},{"city":"Moraga","state_name":"California","lat":37.83102,"lng":-122.10425,"zip":"94556","miles_from_dt":22.43},{"city":"San Jose","state_name":"California","lat":37.24801,"lng":-121.84514,"zip":"95153","miles_from_dt":22.44},{"city":"Oakland","state_name":"California","lat":37.7379,"lng":-122.20794,"zip":"94621","miles_from_dt":22.45},{"city":"Oakland","state_name":"California","lat":37.79262,"lng":-122.16001,"zip":"94619","miles_from_dt":22.56},{"city":"San Jose","state_name":"California","lat":37.24479,"lng":-121.83306,"zip":"95123","miles_from_dt":22.68},{"city":"San Jose","state_name":"California","lat":37.24401,"lng":-121.83099,"zip":"95193","miles_from_dt":22.74},{"city":"Tracy","state_name":"California","lat":37.79914,"lng":-121.55177,"zip":"95378","miles_from_dt":22.77},{"city":"San Mateo","state_name":"California","lat":37.5562,"lng":-122.26905,"zip":"94404","miles_from_dt":22.78},{"city":"Oakland","state_name":"California","lat":37.78075,"lng":-122.18308,"zip":"94613","miles_from_dt":22.99},{"city":"Walnut Creek","state_name":"California","lat":37.89238,"lng":-121.98283,"zip":"94598","miles_from_dt":23.1},{"city":"Moraga","state_name":"California","lat":37.84235,"lng":-122.11012,"zip":"94575","miles_from_dt":23.24},{"city":"Redwood City","state_name":"California","lat":37.46293,"lng":-122.25544,"zip":"94064","miles_from_dt":23.29},{"city":"Concord","state_name":"California","lat":37.87462,"lng":-122.04724,"zip":"94529","miles_from_dt":23.31},{"city":"San Carlos","state_name":"California","lat":37.49739,"lng":-122.27021,"zip":"94070","miles_from_dt":23.41},{"city":"San Jose","state_name":"California","lat":37.2462,"lng":-121.73287,"zip":"95138","miles_from_dt":23.53},{"city":"Milpitas","state_name":"California","lat":37.24309,"lng":-121.97166,"zip":"95036","miles_from_dt":23.66},{"city":"Walnut Creek","state_name":"California","lat":37.87206,"lng":-122.06892,"zip":"94595","miles_from_dt":23.71},{"city":"Portola Valley","state_name":"California","lat":37.37492,"lng":-122.21136,"zip":"94028","miles_from_dt":23.9},{"city":"Walnut Creek","state_name":"California","lat":37.88902,"lng":-122.03676,"zip":"94596","miles_from_dt":23.95},{"city":"Alameda","state_name":"California","lat":37.73686,"lng":-122.24114,"zip":"94502","miles_from_dt":24},{"city":"San Jose","state_name":"California","lat":37.22756,"lng":-121.79077,"zip":"95119","miles_from_dt":24.1},{"city":"Saratoga","state_name":"California","lat":37.25286,"lng":-122.0296,"zip":"95071","miles_from_dt":24.1},{"city":"Piedmont","state_name":"California","lat":37.77757,"lng":-122.21475,"zip":"94620","miles_from_dt":24.25},{"city":"Oakland","state_name":"California","lat":37.77684,"lng":-122.21822,"zip":"94601","miles_from_dt":24.38},{"city":"Saratoga","state_name":"California","lat":37.25624,"lng":-122.05151,"zip":"95070","miles_from_dt":24.4},{"city":"San Jose","state_name":"California","lat":37.21903,"lng":-121.86038,"zip":"95160","miles_from_dt":24.43},{"city":"Canyon","state_name":"California","lat":37.82748,"lng":-122.16629,"zip":"94516","miles_from_dt":24.47},{"city":"San Jose","state_name":"California","lat":37.22489,"lng":-121.76393,"zip":"95139","miles_from_dt":24.54},{"city":"Moraga","state_name":"California","lat":37.85928,"lng":-122.1252,"zip":"94570","miles_from_dt":24.67},{"city":"Belmont","state_name":"California","lat":37.51366,"lng":-122.29853,"zip":"94002","miles_from_dt":24.72},{"city":"San Mateo","state_name":"California","lat":37.53844,"lng":-122.30454,"zip":"94403","miles_from_dt":24.81},{"city":"Oakland","state_name":"California","lat":37.80517,"lng":-122.20422,"zip":"94602","miles_from_dt":24.95},{"city":"Discovery Bay","state_name":"California","lat":37.86638,"lng":-121.5868,"zip":"94505","miles_from_dt":24.98},{"city":"Los Gatos","state_name":"California","lat":37.22168,"lng":-121.98326,"zip":"95030","miles_from_dt":25.26},{"city":"Los Gatos","state_name":"California","lat":37.20859,"lng":-121.92359,"zip":"95032","miles_from_dt":25.43},{"city":"Coyote","state_name":"California","lat":37.21531,"lng":-121.73962,"zip":"95013","miles_from_dt":25.49},{"city":"San Mateo","state_name":"California","lat":37.57445,"lng":-122.31942,"zip":"94401","miles_from_dt":25.51},{"city":"Tracy","state_name":"California","lat":37.73678,"lng":-121.43404,"zip":"95376","miles_from_dt":25.68},{"city":"San Mateo","state_name":"California","lat":37.56256,"lng":-122.32483,"zip":"94497","miles_from_dt":25.82},{"city":"Brentwood","state_name":"California","lat":37.92541,"lng":-121.68452,"zip":"94513","miles_from_dt":26.01},{"city":"Oakland","state_name":"California","lat":37.79179,"lng":-122.24455,"zip":"94606","miles_from_dt":26.15},{"city":"Tracy","state_name":"California","lat":37.6773,"lng":-121.3948,"zip":"95304","miles_from_dt":26.23},{"city":"Oakland","state_name":"California","lat":37.82978,"lng":-122.20989,"zip":"94661","miles_from_dt":26.3},{"city":"Redwood City","state_name":"California","lat":37.42562,"lng":-122.29653,"zip":"94062","miles_from_dt":26.32},{"city":"San Mateo","state_name":"California","lat":37.54035,"lng":-122.33388,"zip":"94402","miles_from_dt":26.41},{"city":"Walnut Creek","state_name":"California","lat":37.91768,"lng":-122.0718,"zip":"94597","miles_from_dt":26.56},{"city":"Oakland","state_name":"California","lat":37.83191,"lng":-122.21592,"zip":"94611","miles_from_dt":26.64},{"city":"Antioch","state_name":"California","lat":37.95665,"lng":-121.77777,"zip":"94531","miles_from_dt":26.77},{"city":"Oakland","state_name":"California","lat":37.81229,"lng":-122.24048,"zip":"94610","miles_from_dt":26.81},{"city":"San Jose","state_name":"California","lat":37.18428,"lng":-121.83658,"zip":"95120","miles_from_dt":26.84},{"city":"Lafayette","state_name":"California","lat":37.90133,"lng":-122.11933,"zip":"94549","miles_from_dt":26.87},{"city":"Burlingame","state_name":"California","lat":37.5795,"lng":-122.34432,"zip":"94011","miles_from_dt":26.88},{"city":"Alameda","state_name":"California","lat":37.77525,"lng":-122.27493,"zip":"94501","miles_from_dt":26.92},{"city":"Concord","state_name":"California","lat":37.95293,"lng":-121.96971,"zip":"94521","miles_from_dt":26.93},{"city":"New Almaden","state_name":"California","lat":37.17754,"lng":-121.81851,"zip":"95042","miles_from_dt":27.36},{"city":"Oakland","state_name":"California","lat":37.79591,"lng":-122.26977,"zip":"94660","miles_from_dt":27.45},{"city":"Oakland","state_name":"California","lat":37.80126,"lng":-122.26575,"zip":"94604","miles_from_dt":27.47},{"city":"Concord","state_name":"California","lat":37.95052,"lng":-122.02209,"zip":"94518","miles_from_dt":27.58},{"city":"Oakland","state_name":"California","lat":37.80694,"lng":-122.26383,"zip":"94649","miles_from_dt":27.61},{"city":"Oakland","state_name":"California","lat":37.80789,"lng":-122.2662,"zip":"94612","miles_from_dt":27.76},{"city":"Oakland","state_name":"California","lat":37.80982,"lng":-122.26553,"zip":"94666","miles_from_dt":27.8},{"city":"San Jose","state_name":"California","lat":37.17615,"lng":-121.75168,"zip":"95141","miles_from_dt":27.97},{"city":"Oakland","state_name":"California","lat":37.80998,"lng":-122.2692,"zip":"94659","miles_from_dt":27.97},{"city":"Oakland","state_name":"California","lat":37.8442,"lng":-122.23868,"zip":"94618","miles_from_dt":28.14},{"city":"La Honda","state_name":"California","lat":37.28473,"lng":-122.21969,"zip":"94020","miles_from_dt":28.26},{"city":"Orinda","state_name":"California","lat":37.88196,"lng":-122.19419,"zip":"94563","miles_from_dt":28.27},{"city":"Burlingame","state_name":"California","lat":37.57306,"lng":-122.37828,"zip":"94010","miles_from_dt":28.74},{"city":"Oakland","state_name":"California","lat":37.83476,"lng":-122.2642,"zip":"94609","miles_from_dt":28.79},{"city":"Pleasant Hill","state_name":"California","lat":37.95403,"lng":-122.07608,"zip":"94523","miles_from_dt":28.92},{"city":"Antioch","state_name":"California","lat":37.99214,"lng":-121.8142,"zip":"94509","miles_from_dt":28.97},{"city":"Berkeley","state_name":"California","lat":37.86523,"lng":-122.2384,"zip":"94705","miles_from_dt":29.11},{"city":"San Jose","state_name":"California","lat":37.22285,"lng":-121.55913,"zip":"95135","miles_from_dt":29.13},{"city":"San Francisco","state_name":"California","lat":37.62197,"lng":-122.38388,"zip":"94128","miles_from_dt":29.23},{"city":"Oakland","state_name":"California","lat":37.80823,"lng":-122.29898,"zip":"94615","miles_from_dt":29.25},{"city":"Oakland","state_name":"California","lat":37.81067,"lng":-122.29747,"zip":"94623","miles_from_dt":29.27},{"city":"Oakland","state_name":"California","lat":37.80721,"lng":-122.30024,"zip":"94607","miles_from_dt":29.27},{"city":"Los Gatos","state_name":"California","lat":37.15701,"lng":-121.97771,"zip":"95033","miles_from_dt":29.49},{"city":"Redwood Estates","state_name":"California","lat":37.15842,"lng":-121.98487,"zip":"95044","miles_from_dt":29.49},{"city":"Holy City","state_name":"California","lat":37.15501,"lng":-121.98252,"zip":"95026","miles_from_dt":29.69},{"city":"Concord","state_name":"California","lat":37.97359,"lng":-122.05763,"zip":"94524","miles_from_dt":29.76},{"city":"Emeryville","state_name":"California","lat":37.83611,"lng":-122.28621,"zip":"94608","miles_from_dt":29.79},{"city":"Knightsen","state_name":"California","lat":37.97481,"lng":-121.65265,"zip":"94548","miles_from_dt":29.82},{"city":"Concord","state_name":"California","lat":37.97662,"lng":-122.0564,"zip":"94527","miles_from_dt":29.93},{"city":"Concord","state_name":"California","lat":37.98881,"lng":-122.01275,"zip":"94519","miles_from_dt":29.94},{"city":"Berkeley","state_name":"California","lat":37.87185,"lng":-122.25226,"zip":"94720","miles_from_dt":29.97}],"targetCityZipCode":"94586","targetCityState":"California"},"__N_SSG":true}