{"pageProps":{"stateName":"California","cityName":"tranquillity","nearbyCities":[{"city":"San Joaquin","state_name":"California","lat":36.60932,"lng":-120.16514,"zip":"93660","miles_from_dt":7.67},{"city":"Mendota","state_name":"California","lat":36.67215,"lng":-120.43778,"zip":"93640","miles_from_dt":8.28},{"city":"Kerman","state_name":"California","lat":36.71831,"lng":-120.12912,"zip":"93630","miles_from_dt":9.89},{"city":"Cantua Creek","state_name":"California","lat":36.5055,"lng":-120.3418,"zip":"93608","miles_from_dt":10.81},{"city":"Helm","state_name":"California","lat":36.51568,"lng":-120.10635,"zip":"93627","miles_from_dt":14.1},{"city":"Biola","state_name":"California","lat":36.79871,"lng":-120.01625,"zip":"93606","miles_from_dt":18.08},{"city":"Madera","state_name":"California","lat":36.91099,"lng":-120.1922,"zip":"93637","miles_from_dt":18.36},{"city":"Burrel","state_name":"California","lat":36.48833,"lng":-119.98417,"zip":"93607","miles_from_dt":20.59},{"city":"Fresno","state_name":"California","lat":36.78693,"lng":-119.95271,"zip":"93723","miles_from_dt":20.77},{"city":"Firebaugh","state_name":"California","lat":36.79283,"lng":-120.62434,"zip":"93622","miles_from_dt":20.8},{"city":"Fresno","state_name":"California","lat":36.63864,"lng":-119.90311,"zip":"93786","miles_from_dt":21.53},{"city":"Fresno","state_name":"California","lat":36.65344,"lng":-119.90216,"zip":"93706","miles_from_dt":21.55},{"city":"Five Points","state_name":"California","lat":36.37258,"lng":-120.12125,"zip":"93624","miles_from_dt":21.72},{"city":"Raisin City","state_name":"California","lat":36.59502,"lng":-119.90458,"zip":"93652","miles_from_dt":21.84},{"city":"Madera","state_name":"California","lat":36.96478,"lng":-120.08456,"zip":"93639","miles_from_dt":24.11},{"city":"Riverdale","state_name":"California","lat":36.45173,"lng":-119.93615,"zip":"93656","miles_from_dt":24.23},{"city":"Fresno","state_name":"California","lat":36.71998,"lng":-119.85805,"zip":"93773","miles_from_dt":24.38},{"city":"Fresno","state_name":"California","lat":36.80003,"lng":-119.87791,"zip":"93722","miles_from_dt":24.92},{"city":"Caruthers","state_name":"California","lat":36.52616,"lng":-119.86388,"zip":"93609","miles_from_dt":25.34},{"city":"Fresno","state_name":"California","lat":36.78717,"lng":-119.83021,"zip":"93793","miles_from_dt":27.06},{"city":"Fresno","state_name":"California","lat":36.7813,"lng":-119.82717,"zip":"93792","miles_from_dt":27.09},{"city":"Fresno","state_name":"California","lat":36.75729,"lng":-119.81816,"zip":"93728","miles_from_dt":27.1},{"city":"Fresno","state_name":"California","lat":36.78797,"lng":-119.8295,"zip":"93794","miles_from_dt":27.12},{"city":"Fresno","state_name":"California","lat":36.78667,"lng":-119.82851,"zip":"93705","miles_from_dt":27.14},{"city":"Fresno","state_name":"California","lat":36.79032,"lng":-119.82979,"zip":"93791","miles_from_dt":27.16},{"city":"Fresno","state_name":"California","lat":36.78944,"lng":-119.82761,"zip":"93790","miles_from_dt":27.25},{"city":"Fresno","state_name":"California","lat":36.72523,"lng":-119.79448,"zip":"93724","miles_from_dt":27.92},{"city":"Fresno","state_name":"California","lat":36.73402,"lng":-119.79206,"zip":"93717","miles_from_dt":28.16},{"city":"Fresno","state_name":"California","lat":36.83508,"lng":-119.83309,"zip":"93711","miles_from_dt":28.18},{"city":"Fresno","state_name":"California","lat":36.75868,"lng":-119.79762,"zip":"93744","miles_from_dt":28.23},{"city":"Fresno","state_name":"California","lat":36.83387,"lng":-119.82897,"zip":"93765","miles_from_dt":28.35},{"city":"Fresno","state_name":"California","lat":36.7497,"lng":-119.79243,"zip":"93771","miles_from_dt":28.36},{"city":"Fresno","state_name":"California","lat":36.74804,"lng":-119.79175,"zip":"93772","miles_from_dt":28.37},{"city":"Fresno","state_name":"California","lat":36.74786,"lng":-119.79166,"zip":"93779","miles_from_dt":28.37},{"city":"Fresno","state_name":"California","lat":36.73027,"lng":-119.78694,"zip":"93707","miles_from_dt":28.39},{"city":"Fresno","state_name":"California","lat":36.74636,"lng":-119.79049,"zip":"93776","miles_from_dt":28.42},{"city":"Fresno","state_name":"California","lat":36.73103,"lng":-119.78648,"zip":"93716","miles_from_dt":28.43},{"city":"Fresno","state_name":"California","lat":36.74746,"lng":-119.79049,"zip":"93778","miles_from_dt":28.43},{"city":"Fresno","state_name":"California","lat":36.76742,"lng":-119.79602,"zip":"93741","miles_from_dt":28.47},{"city":"Fresno","state_name":"California","lat":36.75109,"lng":-119.79,"zip":"93777","miles_from_dt":28.51},{"city":"Fresno","state_name":"California","lat":36.73518,"lng":-119.78563,"zip":"93714","miles_from_dt":28.52},{"city":"Fresno","state_name":"California","lat":36.7316,"lng":-119.78469,"zip":"93709","miles_from_dt":28.53},{"city":"Fresno","state_name":"California","lat":36.74806,"lng":-119.78873,"zip":"93774","miles_from_dt":28.54},{"city":"Fresno","state_name":"California","lat":36.73304,"lng":-119.78475,"zip":"93715","miles_from_dt":28.55},{"city":"Fresno","state_name":"California","lat":36.73413,"lng":-119.78463,"zip":"93764","miles_from_dt":28.57},{"city":"Fresno","state_name":"California","lat":36.73282,"lng":-119.78383,"zip":"93721","miles_from_dt":28.59},{"city":"Fresno","state_name":"California","lat":36.75166,"lng":-119.78857,"zip":"93761","miles_from_dt":28.6},{"city":"Fresno","state_name":"California","lat":36.74955,"lng":-119.78772,"zip":"93701","miles_from_dt":28.61},{"city":"Fresno","state_name":"California","lat":36.73497,"lng":-119.7823,"zip":"93718","miles_from_dt":28.7},{"city":"Fresno","state_name":"California","lat":36.73626,"lng":-119.78251,"zip":"93708","miles_from_dt":28.71},{"city":"Fresno","state_name":"California","lat":36.80012,"lng":-119.80202,"zip":"93704","miles_from_dt":28.83},{"city":"Fresno","state_name":"California","lat":36.61095,"lng":-119.774,"zip":"93712","miles_from_dt":28.85},{"city":"Fresno","state_name":"California","lat":36.73581,"lng":-119.77876,"zip":"93760","miles_from_dt":28.91},{"city":"Fresno","state_name":"California","lat":36.78737,"lng":-119.79352,"zip":"93755","miles_from_dt":29},{"city":"South Dos Palos","state_name":"California","lat":36.96334,"lng":-120.65034,"zip":"93665","miles_from_dt":29.1},{"city":"Chowchilla","state_name":"California","lat":37.09047,"lng":-120.29036,"zip":"93610","miles_from_dt":29.92},{"city":"Fresno","state_name":"California","lat":36.84026,"lng":-119.80038,"zip":"93650","miles_from_dt":29.97},{"city":"Fresno","state_name":"California","lat":36.70705,"lng":-119.7535,"zip":"93745","miles_from_dt":30}],"targetCityZipCode":"93668","targetCityState":"California"},"__N_SSG":true}