{"pageProps":{"stateName":"California","cityName":"twin-bridges","nearbyCities":[{"city":"Kyburz","state_name":"California","lat":38.84536,"lng":-120.26021,"zip":"95720","miles_from_dt":4.49},{"city":"Echo Lake","state_name":"California","lat":38.82341,"lng":-120.09379,"zip":"95721","miles_from_dt":4.64},{"city":"South Lake Tahoe","state_name":"California","lat":38.75294,"lng":-120.09222,"zip":"96155","miles_from_dt":7.09},{"city":"South Lake Tahoe","state_name":"California","lat":38.88971,"lng":-120.04409,"zip":"96150","miles_from_dt":8.38},{"city":"South Lake Tahoe","state_name":"California","lat":38.94082,"lng":-119.98026,"zip":"96157","miles_from_dt":13.18},{"city":"South Lake Tahoe","state_name":"California","lat":38.94214,"lng":-119.98147,"zip":"96151","miles_from_dt":13.18},{"city":"South Lake Tahoe","state_name":"California","lat":38.9257,"lng":-119.96604,"zip":"96158","miles_from_dt":13.27},{"city":"South Lake Tahoe","state_name":"California","lat":38.94364,"lng":-119.97788,"zip":"96154","miles_from_dt":13.4},{"city":"South Lake Tahoe","state_name":"California","lat":38.94228,"lng":-119.97612,"zip":"96152","miles_from_dt":13.42},{"city":"Tahoma","state_name":"California","lat":39.0138,"lng":-120.09592,"zip":"96142","miles_from_dt":13.46},{"city":"South Lake Tahoe","state_name":"California","lat":38.94707,"lng":-119.97023,"zip":"96156","miles_from_dt":13.87},{"city":"Pollock Pines","state_name":"California","lat":38.75418,"lng":-120.41989,"zip":"95726","miles_from_dt":13.99},{"city":"Kirkwood","state_name":"California","lat":38.63828,"lng":-120.01813,"zip":"95646","miles_from_dt":15.83},{"city":"Stateline","state_name":"Nevada","lat":38.96433,"lng":-119.90688,"zip":"89449","miles_from_dt":17.37},{"city":"Zephyr Cove","state_name":"Nevada","lat":39.00789,"lng":-119.92412,"zip":"89448","miles_from_dt":18.44},{"city":"Homewood","state_name":"California","lat":39.10297,"lng":-120.19872,"zip":"96141","miles_from_dt":18.87},{"city":"Markleeville","state_name":"California","lat":38.745,"lng":-119.82485,"zip":"96120","miles_from_dt":20.01},{"city":"Gardnerville","state_name":"Nevada","lat":38.90136,"lng":-119.79085,"zip":"89460","miles_from_dt":21.52},{"city":"Pioneer","state_name":"California","lat":38.54113,"lng":-120.33076,"zip":"95666","miles_from_dt":21.53},{"city":"Glenbrook","state_name":"Nevada","lat":39.07389,"lng":-119.92095,"zip":"89413","miles_from_dt":21.84},{"city":"Genoa","state_name":"Nevada","lat":39.01837,"lng":-119.85301,"zip":"89411","miles_from_dt":21.87},{"city":"Grizzly Flats","state_name":"California","lat":38.6274,"lng":-120.51852,"zip":"95636","miles_from_dt":23.04},{"city":"Tahoe City","state_name":"California","lat":39.18203,"lng":-120.15143,"zip":"96145","miles_from_dt":24.34},{"city":"Carson City","state_name":"Nevada","lat":39.09003,"lng":-119.83689,"zip":"89705","miles_from_dt":25.74},{"city":"Somerset","state_name":"California","lat":38.59098,"lng":-120.55066,"zip":"95684","miles_from_dt":25.97},{"city":"Carson City","state_name":"Nevada","lat":38.97921,"lng":-119.72952,"zip":"89721","miles_from_dt":26.34},{"city":"Carson City","state_name":"Nevada","lat":39.0694,"lng":-119.79235,"zip":"89702","miles_from_dt":26.6},{"city":"Minden","state_name":"Nevada","lat":39.01561,"lng":-119.74636,"zip":"89423","miles_from_dt":26.62},{"city":"Olympic Valley","state_name":"California","lat":39.22556,"lng":-120.23681,"zip":"96146","miles_from_dt":27.47},{"city":"Camino","state_name":"California","lat":38.74886,"lng":-120.68134,"zip":"95709","miles_from_dt":27.67},{"city":"Carnelian Bay","state_name":"California","lat":39.23244,"lng":-120.10364,"zip":"96140","miles_from_dt":28.07},{"city":"Georgetown","state_name":"California","lat":38.9123,"lng":-120.69443,"zip":"95634","miles_from_dt":28.35},{"city":"Carson City","state_name":"Nevada","lat":39.15359,"lng":-119.8486,"zip":"89703","miles_from_dt":28.56},{"city":"Crystal Bay","state_name":"Nevada","lat":39.23075,"lng":-120.00259,"zip":"89402","miles_from_dt":29.24},{"city":"Tahoe Vista","state_name":"California","lat":39.24978,"lng":-120.05767,"zip":"96148","miles_from_dt":29.7}],"targetCityZipCode":"95735","targetCityState":"California"},"__N_SSG":true}