{"pageProps":{"stateName":"California","cityName":"visalia","nearbyCities":[{"city":"Goshen","state_name":"California","lat":36.34441,"lng":-119.41856,"zip":"93227","miles_from_dt":3.72},{"city":"Visalia","state_name":"California","lat":36.309,"lng":-119.314,"zip":"93290","miles_from_dt":3.82},{"city":"Visalia","state_name":"California","lat":36.30608,"lng":-119.31209,"zip":"93278","miles_from_dt":3.89},{"city":"Visalia","state_name":"California","lat":36.32921,"lng":-119.29101,"zip":"93279","miles_from_dt":5.44},{"city":"Visalia","state_name":"California","lat":36.38931,"lng":-119.36838,"zip":"93291","miles_from_dt":6.23},{"city":"Tulare","state_name":"California","lat":36.20753,"lng":-119.34371,"zip":"93275","miles_from_dt":6.69},{"city":"Tulare","state_name":"California","lat":36.17978,"lng":-119.37949,"zip":"93274","miles_from_dt":8.26},{"city":"Farmersville","state_name":"California","lat":36.30117,"lng":-119.20789,"zip":"93223","miles_from_dt":9.68},{"city":"Visalia","state_name":"California","lat":36.3763,"lng":-119.22183,"zip":"93292","miles_from_dt":10.35},{"city":"Ivanhoe","state_name":"California","lat":36.38507,"lng":-119.22314,"zip":"93235","miles_from_dt":10.61},{"city":"Traver","state_name":"California","lat":36.45229,"lng":-119.48232,"zip":"93673","miles_from_dt":11.94},{"city":"Waukena","state_name":"California","lat":36.1494,"lng":-119.50607,"zip":"93282","miles_from_dt":12.48},{"city":"Hanford","state_name":"California","lat":36.28967,"lng":-119.62514,"zip":"93230","miles_from_dt":13.62},{"city":"Kingsburg","state_name":"California","lat":36.47653,"lng":-119.52131,"zip":"93631","miles_from_dt":14.48},{"city":"Yettem","state_name":"California","lat":36.48564,"lng":-119.25442,"zip":"93670","miles_from_dt":14.65},{"city":"Cutler","state_name":"California","lat":36.50374,"lng":-119.28385,"zip":"93615","miles_from_dt":15.09},{"city":"Dinuba","state_name":"California","lat":36.52213,"lng":-119.38661,"zip":"93618","miles_from_dt":15.34},{"city":"Sultana","state_name":"California","lat":36.54623,"lng":-119.33629,"zip":"93666","miles_from_dt":17.19},{"city":"Tipton","state_name":"California","lat":36.04818,"lng":-119.34535,"zip":"93272","miles_from_dt":17.45},{"city":"Lindsay","state_name":"California","lat":36.20234,"lng":-119.08277,"zip":"93247","miles_from_dt":17.98},{"city":"Armona","state_name":"California","lat":36.3187,"lng":-119.7076,"zip":"93202","miles_from_dt":18.25},{"city":"Woodlake","state_name":"California","lat":36.45149,"lng":-119.1079,"zip":"93286","miles_from_dt":18.5},{"city":"Hanford","state_name":"California","lat":36.23565,"lng":-119.70719,"zip":"93232","miles_from_dt":18.72},{"city":"Exeter","state_name":"California","lat":36.29637,"lng":-119.02992,"zip":"93221","miles_from_dt":19.62},{"city":"Strathmore","state_name":"California","lat":36.14279,"lng":-119.0742,"zip":"93267","miles_from_dt":20.29},{"city":"Porterville","state_name":"California","lat":36.05833,"lng":-119.15209,"zip":"93258","miles_from_dt":21},{"city":"Laton","state_name":"California","lat":36.44115,"lng":-119.73024,"zip":"93242","miles_from_dt":21.76},{"city":"Selma","state_name":"California","lat":36.53963,"lng":-119.64287,"zip":"93662","miles_from_dt":22.05},{"city":"Corcoran","state_name":"California","lat":36.01649,"lng":-119.56937,"zip":"93212","miles_from_dt":22.17},{"city":"Lemon Cove","state_name":"California","lat":36.3908,"lng":-118.99733,"zip":"93244","miles_from_dt":22.33},{"city":"Orosi","state_name":"California","lat":36.58449,"lng":-119.17773,"zip":"93647","miles_from_dt":22.68},{"city":"Pixley","state_name":"California","lat":35.96805,"lng":-119.31251,"zip":"93256","miles_from_dt":23.18},{"city":"Parlier","state_name":"California","lat":36.6206,"lng":-119.52062,"zip":"93648","miles_from_dt":23.45},{"city":"Orange Cove","state_name":"California","lat":36.63218,"lng":-119.28938,"zip":"93646","miles_from_dt":23.5},{"city":"Reedley","state_name":"California","lat":36.65747,"lng":-119.402,"zip":"93654","miles_from_dt":24.7},{"city":"Lemoore","state_name":"California","lat":36.28614,"lng":-119.83405,"zip":"93245","miles_from_dt":25.28},{"city":"Del Rey","state_name":"California","lat":36.65468,"lng":-119.59437,"zip":"93616","miles_from_dt":27.2},{"city":"Badger","state_name":"California","lat":36.55118,"lng":-118.99607,"zip":"93603","miles_from_dt":27.6},{"city":"Fowler","state_name":"California","lat":36.62423,"lng":-119.67173,"zip":"93625","miles_from_dt":27.61},{"city":"Stratford","state_name":"California","lat":36.17176,"lng":-119.85628,"zip":"93266","miles_from_dt":27.95},{"city":"Kaweah","state_name":"California","lat":36.47452,"lng":-118.90426,"zip":"93237","miles_from_dt":29.21},{"city":"Earlimart","state_name":"California","lat":35.87908,"lng":-119.28818,"zip":"93219","miles_from_dt":29.46},{"city":"Fresno","state_name":"California","lat":36.62667,"lng":-119.73501,"zip":"93725","miles_from_dt":29.94}],"targetCityZipCode":"93277","targetCityState":"California"},"__N_SSG":true}