{"pageProps":{"stateName":"California","cityName":"weaverville","nearbyCities":[{"city":"Junction City","state_name":"California","lat":40.82613,"lng":-123.05594,"zip":"96048","miles_from_dt":6.98},{"city":"Lewiston","state_name":"California","lat":40.68515,"lng":-122.80342,"zip":"96052","miles_from_dt":9.49},{"city":"Douglas City","state_name":"California","lat":40.58767,"lng":-122.90143,"zip":"96024","miles_from_dt":12.93},{"city":"Big Bar","state_name":"California","lat":40.89735,"lng":-123.24365,"zip":"96010","miles_from_dt":17.95},{"city":"French Gulch","state_name":"California","lat":40.75076,"lng":-122.60004,"zip":"96033","miles_from_dt":18.07},{"city":"Whiskeytown","state_name":"California","lat":40.7116,"lng":-122.60178,"zip":"96095","miles_from_dt":18.41},{"city":"Trinity Center","state_name":"California","lat":41.04567,"lng":-122.78053,"zip":"96091","miles_from_dt":20.69},{"city":"Shasta","state_name":"California","lat":40.63296,"lng":-122.58067,"zip":"96087","miles_from_dt":21.33},{"city":"Hayfork","state_name":"California","lat":40.52059,"lng":-123.19991,"zip":"96041","miles_from_dt":21.99},{"city":"Igo","state_name":"California","lat":40.47695,"lng":-122.69889,"zip":"96047","miles_from_dt":24.1},{"city":"Redding","state_name":"California","lat":40.64146,"lng":-122.5061,"zip":"96099","miles_from_dt":24.67},{"city":"Burnt Ranch","state_name":"California","lat":40.93593,"lng":-123.41966,"zip":"95527","miles_from_dt":27.39},{"city":"Platina","state_name":"California","lat":40.37547,"lng":-122.92996,"zip":"96076","miles_from_dt":27.4},{"city":"Hyampom","state_name":"California","lat":40.61118,"lng":-123.43151,"zip":"96046","miles_from_dt":27.95},{"city":"Redding","state_name":"California","lat":40.57731,"lng":-122.45443,"zip":"96001","miles_from_dt":29},{"city":"Shasta Lake","state_name":"California","lat":40.6831,"lng":-122.40046,"zip":"96089","miles_from_dt":29.15},{"city":"Shasta Lake","state_name":"California","lat":40.68729,"lng":-122.39927,"zip":"96019","miles_from_dt":29.15}],"targetCityZipCode":"96093","targetCityState":"California"},"__N_SSG":true}