{"pageProps":{"stateName":"California","cityName":"westley","nearbyCities":[{"city":"Vernalis","state_name":"California","lat":37.612,"lng":-121.24773,"zip":"95385","miles_from_dt":3.98},{"city":"Modesto","state_name":"California","lat":37.61578,"lng":-121.10059,"zip":"95358","miles_from_dt":8.99},{"city":"Tracy","state_name":"California","lat":37.6773,"lng":-121.3948,"zip":"95304","miles_from_dt":11.81},{"city":"Patterson","state_name":"California","lat":37.37251,"lng":-121.27192,"zip":"95363","miles_from_dt":12.62},{"city":"Manteca","state_name":"California","lat":37.74171,"lng":-121.23834,"zip":"95337","miles_from_dt":12.93},{"city":"Salida","state_name":"California","lat":37.71544,"lng":-121.09047,"zip":"95368","miles_from_dt":13.98},{"city":"Crows Landing","state_name":"California","lat":37.43511,"lng":-121.03769,"zip":"95313","miles_from_dt":14.05},{"city":"Modesto","state_name":"California","lat":37.6236,"lng":-120.99828,"zip":"95351","miles_from_dt":14.36},{"city":"Tracy","state_name":"California","lat":37.65293,"lng":-121.49598,"zip":"95377","miles_from_dt":15.35},{"city":"Modesto","state_name":"California","lat":37.67175,"lng":-121.00732,"zip":"95350","miles_from_dt":15.36},{"city":"Modesto","state_name":"California","lat":37.66077,"lng":-120.99343,"zip":"95397","miles_from_dt":15.64},{"city":"Modesto","state_name":"California","lat":37.66337,"lng":-120.99458,"zip":"95352","miles_from_dt":15.67},{"city":"Ripon","state_name":"California","lat":37.76223,"lng":-121.12574,"zip":"95366","miles_from_dt":15.76},{"city":"Ceres","state_name":"California","lat":37.55582,"lng":-120.95385,"zip":"95307","miles_from_dt":15.99},{"city":"Tracy","state_name":"California","lat":37.73678,"lng":-121.43404,"zip":"95376","miles_from_dt":16.3},{"city":"Modesto","state_name":"California","lat":37.63849,"lng":-120.96428,"zip":"95354","miles_from_dt":16.47},{"city":"Modesto","state_name":"California","lat":37.71945,"lng":-121.02786,"zip":"95356","miles_from_dt":16.48},{"city":"Lathrop","state_name":"California","lat":37.8117,"lng":-121.31331,"zip":"95330","miles_from_dt":18.14},{"city":"Modesto","state_name":"California","lat":37.66541,"lng":-120.94414,"zip":"95353","miles_from_dt":18.2},{"city":"Modesto","state_name":"California","lat":37.6727,"lng":-120.94717,"zip":"95355","miles_from_dt":18.27},{"city":"Keyes","state_name":"California","lat":37.55797,"lng":-120.90932,"zip":"95328","miles_from_dt":18.44},{"city":"Newman","state_name":"California","lat":37.32918,"lng":-121.03827,"zip":"95360","miles_from_dt":19.24},{"city":"Livermore","state_name":"California","lat":37.51746,"lng":-121.59406,"zip":"94550","miles_from_dt":19.33},{"city":"Manteca","state_name":"California","lat":37.83351,"lng":-121.1988,"zip":"95336","miles_from_dt":19.42},{"city":"Riverbank","state_name":"California","lat":37.73089,"lng":-120.94669,"zip":"95367","miles_from_dt":20.4},{"city":"Empire","state_name":"California","lat":37.6309,"lng":-120.87728,"zip":"95319","miles_from_dt":20.86},{"city":"Turlock","state_name":"California","lat":37.47226,"lng":-120.86978,"zip":"95380","miles_from_dt":21.38},{"city":"Turlock","state_name":"California","lat":37.4964,"lng":-120.85868,"zip":"95381","miles_from_dt":21.6},{"city":"Modesto","state_name":"California","lat":37.66985,"lng":-120.87924,"zip":"95357","miles_from_dt":21.6},{"city":"Turlock","state_name":"California","lat":37.52831,"lng":-120.85214,"zip":"95382","miles_from_dt":21.65},{"city":"Hughson","state_name":"California","lat":37.58998,"lng":-120.8531,"zip":"95326","miles_from_dt":21.66},{"city":"Hilmar","state_name":"California","lat":37.39452,"lng":-120.89605,"zip":"95324","miles_from_dt":22.12},{"city":"French Camp","state_name":"California","lat":37.87331,"lng":-121.29272,"zip":"95231","miles_from_dt":22.16},{"city":"Escalon","state_name":"California","lat":37.82453,"lng":-121.01545,"zip":"95320","miles_from_dt":22.49},{"city":"Tracy","state_name":"California","lat":37.79914,"lng":-121.55177,"zip":"95378","miles_from_dt":23.83},{"city":"Tracy","state_name":"California","lat":37.76952,"lng":-121.5912,"zip":"95391","miles_from_dt":24.09},{"city":"Stockton","state_name":"California","lat":37.90688,"lng":-121.2234,"zip":"95201","miles_from_dt":24.35},{"city":"Stockton","state_name":"California","lat":37.8961,"lng":-121.41051,"zip":"95206","miles_from_dt":25.25},{"city":"Mount Hamilton","state_name":"California","lat":37.3483,"lng":-121.64085,"zip":"95140","miles_from_dt":25.99},{"city":"Stevinson","state_name":"California","lat":37.31636,"lng":-120.85683,"zip":"95374","miles_from_dt":26.93},{"city":"Stockton","state_name":"California","lat":37.9444,"lng":-121.15276,"zip":"95215","miles_from_dt":27.38},{"city":"Delhi","state_name":"California","lat":37.42243,"lng":-120.7733,"zip":"95315","miles_from_dt":27.48},{"city":"Stockton","state_name":"California","lat":37.95237,"lng":-121.33098,"zip":"95203","miles_from_dt":27.85},{"city":"Holt","state_name":"California","lat":37.92634,"lng":-121.44551,"zip":"95234","miles_from_dt":27.91},{"city":"Stockton","state_name":"California","lat":37.95968,"lng":-121.28772,"zip":"95202","miles_from_dt":28.06},{"city":"Stockton","state_name":"California","lat":37.96425,"lng":-121.25955,"zip":"95205","miles_from_dt":28.28},{"city":"Discovery Bay","state_name":"California","lat":37.86638,"lng":-121.5868,"zip":"94505","miles_from_dt":28.53},{"city":"Byron","state_name":"California","lat":37.83071,"lng":-121.63392,"zip":"94514","miles_from_dt":28.59},{"city":"San Jose","state_name":"California","lat":37.22285,"lng":-121.55913,"zip":"95135","miles_from_dt":28.65},{"city":"Gustine","state_name":"California","lat":37.17622,"lng":-121.01861,"zip":"95322","miles_from_dt":28.9},{"city":"Stockton","state_name":"California","lat":37.97084,"lng":-121.30788,"zip":"95297","miles_from_dt":28.93},{"city":"Stockton","state_name":"California","lat":37.97403,"lng":-121.31906,"zip":"95204","miles_from_dt":29.23},{"city":"Stockton","state_name":"California","lat":37.98078,"lng":-121.31198,"zip":"95211","miles_from_dt":29.64},{"city":"Stockton","state_name":"California","lat":37.95579,"lng":-121.43856,"zip":"95213","miles_from_dt":29.65},{"city":"Stockton","state_name":"California","lat":37.95595,"lng":-121.44167,"zip":"95208","miles_from_dt":29.72}],"targetCityZipCode":"95387","targetCityState":"California"},"__N_SSG":true}