{"pageProps":{"stateName":"California","cityName":"williams","nearbyCities":[{"city":"Arbuckle","state_name":"California","lat":39.0016,"lng":-122.07462,"zip":"95912","miles_from_dt":12.74},{"city":"Rumsey","state_name":"California","lat":38.90524,"lng":-122.26727,"zip":"95679","miles_from_dt":13.64},{"city":"Maxwell","state_name":"California","lat":39.29657,"lng":-122.20454,"zip":"95955","miles_from_dt":13.84},{"city":"Guinda","state_name":"California","lat":38.85283,"lng":-122.2729,"zip":"95637","miles_from_dt":17.26},{"city":"Stonyford","state_name":"California","lat":39.29771,"lng":-122.47913,"zip":"95979","miles_from_dt":17.42},{"city":"Colusa","state_name":"California","lat":39.26839,"lng":-122.00426,"zip":"95932","miles_from_dt":18.38},{"city":"Grimes","state_name":"California","lat":39.05144,"lng":-121.92196,"zip":"95950","miles_from_dt":19.19},{"city":"Clearlake Oaks","state_name":"California","lat":39.06749,"lng":-122.62753,"zip":"95423","miles_from_dt":19.24},{"city":"Lower Lake","state_name":"California","lat":38.87967,"lng":-122.52753,"zip":"95457","miles_from_dt":20.63},{"city":"Dunnigan","state_name":"California","lat":38.88403,"lng":-121.99847,"zip":"95937","miles_from_dt":21.12},{"city":"Clearlake","state_name":"California","lat":38.97829,"lng":-122.6423,"zip":"95422","miles_from_dt":21.67},{"city":"Clearlake Park","state_name":"California","lat":38.9688,"lng":-122.66158,"zip":"95424","miles_from_dt":22.88},{"city":"Capay","state_name":"California","lat":38.7899,"lng":-122.12585,"zip":"95607","miles_from_dt":23},{"city":"Brooks","state_name":"California","lat":38.75604,"lng":-122.19387,"zip":"95606","miles_from_dt":24.31},{"city":"Princeton","state_name":"California","lat":39.41159,"lng":-122.05176,"zip":"95970","miles_from_dt":24.36},{"city":"Meridian","state_name":"California","lat":39.05366,"lng":-121.82379,"zip":"95957","miles_from_dt":24.37},{"city":"Glenhaven","state_name":"California","lat":39.05013,"lng":-122.73962,"zip":"95443","miles_from_dt":25.37},{"city":"Hidden Valley Lake","state_name":"California","lat":38.80453,"lng":-122.54948,"zip":"95467","miles_from_dt":25.42},{"city":"Sutter","state_name":"California","lat":39.18051,"lng":-121.80746,"zip":"95982","miles_from_dt":25.55},{"city":"Willows","state_name":"California","lat":39.49825,"lng":-122.28698,"zip":"95988","miles_from_dt":27.28},{"city":"Lucerne","state_name":"California","lat":39.11667,"lng":-122.78204,"zip":"95458","miles_from_dt":27.4},{"city":"Zamora","state_name":"California","lat":38.8187,"lng":-121.91012,"zip":"95698","miles_from_dt":27.67},{"city":"Live Oak","state_name":"California","lat":39.25018,"lng":-121.77309,"zip":"95953","miles_from_dt":28.68},{"city":"Middletown","state_name":"California","lat":38.762,"lng":-122.59314,"zip":"95461","miles_from_dt":29.18},{"city":"Knights Landing","state_name":"California","lat":38.89025,"lng":-121.79992,"zip":"95645","miles_from_dt":29.37},{"city":"Esparto","state_name":"California","lat":38.72936,"lng":-122.00959,"zip":"95627","miles_from_dt":29.41}],"targetCityZipCode":"95987","targetCityState":"California"},"__N_SSG":true}