{"pageProps":{"stateName":"California","cityName":"wilmington","nearbyCities":[{"city":"Wilmington","state_name":"California","lat":33.78415,"lng":-118.26398,"zip":"90748","miles_from_dt":0.45},{"city":"Harbor City","state_name":"California","lat":33.79806,"lng":-118.29918,"zip":"90710","miles_from_dt":2.59},{"city":"Carson","state_name":"California","lat":33.81915,"lng":-118.26311,"zip":"90749","miles_from_dt":2.82},{"city":"Carson","state_name":"California","lat":33.82117,"lng":-118.26458,"zip":"90745","miles_from_dt":2.97},{"city":"San Pedro","state_name":"California","lat":33.75611,"lng":-118.30637,"zip":"90734","miles_from_dt":3.03},{"city":"San Pedro","state_name":"California","lat":33.7334,"lng":-118.27398,"zip":"90731","miles_from_dt":3.18},{"city":"Lomita","state_name":"California","lat":33.79345,"lng":-118.31706,"zip":"90717","miles_from_dt":3.4},{"city":"Long Beach","state_name":"California","lat":33.76636,"lng":-118.20309,"zip":"90833","miles_from_dt":3.42},{"city":"Long Beach","state_name":"California","lat":33.75035,"lng":-118.21143,"zip":"90802","miles_from_dt":3.43},{"city":"Long Beach","state_name":"California","lat":33.76824,"lng":-118.20055,"zip":"90831","miles_from_dt":3.54},{"city":"Long Beach","state_name":"California","lat":33.81912,"lng":-118.22096,"zip":"90810","miles_from_dt":3.64},{"city":"Long Beach","state_name":"California","lat":33.76589,"lng":-118.19859,"zip":"90832","miles_from_dt":3.68},{"city":"Long Beach","state_name":"California","lat":33.78237,"lng":-118.19656,"zip":"90813","miles_from_dt":3.71},{"city":"San Pedro","state_name":"California","lat":33.74319,"lng":-118.31048,"zip":"90732","miles_from_dt":3.74},{"city":"Long Beach","state_name":"California","lat":33.77676,"lng":-118.19162,"zip":"90844","miles_from_dt":3.99},{"city":"Long Beach","state_name":"California","lat":33.77378,"lng":-118.18631,"zip":"90801","miles_from_dt":4.3},{"city":"Torrance","state_name":"California","lat":33.83497,"lng":-118.29291,"zip":"90502","miles_from_dt":4.32},{"city":"Carson","state_name":"California","lat":33.84,"lng":-118.219,"zip":"90895","miles_from_dt":4.89},{"city":"Torrance","state_name":"California","lat":33.8336,"lng":-118.31419,"zip":"90501","miles_from_dt":4.9},{"city":"Torrance","state_name":"California","lat":33.8318,"lng":-118.31821,"zip":"90507","miles_from_dt":4.95},{"city":"Torrance","state_name":"California","lat":33.8346,"lng":-118.31539,"zip":"90508","miles_from_dt":4.99},{"city":"Torrance","state_name":"California","lat":33.8256,"lng":-118.32842,"zip":"90510","miles_from_dt":5.08},{"city":"Long Beach","state_name":"California","lat":33.80819,"lng":-118.17797,"zip":"90806","miles_from_dt":5.2},{"city":"San Pedro","state_name":"California","lat":33.70664,"lng":-118.29067,"zip":"90733","miles_from_dt":5.22},{"city":"Torrance","state_name":"California","lat":33.80904,"lng":-118.34775,"zip":"90505","miles_from_dt":5.43},{"city":"Carson","state_name":"California","lat":33.85855,"lng":-118.25518,"zip":"90746","miles_from_dt":5.55},{"city":"Signal Hill","state_name":"California","lat":33.80274,"lng":-118.16747,"zip":"90755","miles_from_dt":5.63},{"city":"Long Beach","state_name":"California","lat":33.83035,"lng":-118.18493,"zip":"90848","miles_from_dt":5.66},{"city":"Long Beach","state_name":"California","lat":33.83425,"lng":-118.189,"zip":"90847","miles_from_dt":5.66},{"city":"Long Beach","state_name":"California","lat":33.83098,"lng":-118.18113,"zip":"90807","miles_from_dt":5.85},{"city":"Carson","state_name":"California","lat":33.86372,"lng":-118.25142,"zip":"90747","miles_from_dt":5.92},{"city":"Torrance","state_name":"California","lat":33.84435,"lng":-118.32878,"zip":"90509","miles_from_dt":6},{"city":"Long Beach","state_name":"California","lat":33.81935,"lng":-118.16814,"zip":"90842","miles_from_dt":6.04},{"city":"Rancho Palos Verdes","state_name":"California","lat":33.7555,"lng":-118.36338,"zip":"90275","miles_from_dt":6.1},{"city":"Palos Verdes Peninsula","state_name":"California","lat":33.77732,"lng":-118.3684,"zip":"90274","miles_from_dt":6.19},{"city":"Long Beach","state_name":"California","lat":33.78223,"lng":-118.14917,"zip":"90804","miles_from_dt":6.43},{"city":"Compton","state_name":"California","lat":33.87197,"lng":-118.26677,"zip":"90224","miles_from_dt":6.47},{"city":"Long Beach","state_name":"California","lat":33.7716,"lng":-118.14351,"zip":"90814","miles_from_dt":6.77},{"city":"Torrance","state_name":"California","lat":33.84089,"lng":-118.3538,"zip":"90503","miles_from_dt":6.87},{"city":"Gardena","state_name":"California","lat":33.87689,"lng":-118.28362,"zip":"90248","miles_from_dt":6.93},{"city":"Compton","state_name":"California","lat":33.88058,"lng":-118.23591,"zip":"90220","miles_from_dt":7.2},{"city":"Torrance","state_name":"California","lat":33.86693,"lng":-118.33135,"zip":"90504","miles_from_dt":7.34},{"city":"Long Beach","state_name":"California","lat":33.7604,"lng":-118.1327,"zip":"90853","miles_from_dt":7.48},{"city":"Long Beach","state_name":"California","lat":33.86494,"lng":-118.18051,"zip":"90805","miles_from_dt":7.56},{"city":"Redondo Beach","state_name":"California","lat":33.83099,"lng":-118.38441,"zip":"90277","miles_from_dt":7.98},{"city":"Compton","state_name":"California","lat":33.88542,"lng":-118.20614,"zip":"90221","miles_from_dt":8.03},{"city":"Long Beach","state_name":"California","lat":33.78449,"lng":-118.12133,"zip":"90840","miles_from_dt":8.04},{"city":"Long Beach","state_name":"California","lat":33.76238,"lng":-118.12192,"zip":"90809","miles_from_dt":8.07},{"city":"Long Beach","state_name":"California","lat":33.76162,"lng":-118.12178,"zip":"90803","miles_from_dt":8.09},{"city":"Gardena","state_name":"California","lat":33.89159,"lng":-118.29735,"zip":"90247","miles_from_dt":8.09},{"city":"Compton","state_name":"California","lat":33.8925,"lng":-118.22645,"zip":"90223","miles_from_dt":8.12},{"city":"Lakewood","state_name":"California","lat":33.84894,"lng":-118.14677,"zip":"90711","miles_from_dt":8.18},{"city":"Lakewood","state_name":"California","lat":33.849,"lng":-118.14677,"zip":"90712","miles_from_dt":8.18},{"city":"Long Beach","state_name":"California","lat":33.77825,"lng":-118.11871,"zip":"90822","miles_from_dt":8.18},{"city":"Torrance","state_name":"California","lat":33.88493,"lng":-118.33044,"zip":"90506","miles_from_dt":8.37},{"city":"Long Beach","state_name":"California","lat":33.79572,"lng":-118.11592,"zip":"90815","miles_from_dt":8.43},{"city":"Long Beach","state_name":"California","lat":33.82596,"lng":-118.12092,"zip":"90846","miles_from_dt":8.7},{"city":"Lakewood","state_name":"California","lat":33.85149,"lng":-118.13602,"zip":"90714","miles_from_dt":8.78},{"city":"Gardena","state_name":"California","lat":33.90152,"lng":-118.31707,"zip":"90249","miles_from_dt":9.09},{"city":"Redondo Beach","state_name":"California","lat":33.87362,"lng":-118.37028,"zip":"90278","miles_from_dt":9.1},{"city":"Long Beach","state_name":"California","lat":33.82406,"lng":-118.11236,"zip":"90808","miles_from_dt":9.11},{"city":"Lawndale","state_name":"California","lat":33.88768,"lng":-118.34952,"zip":"90260","miles_from_dt":9.11},{"city":"Lawndale","state_name":"California","lat":33.88958,"lng":-118.35275,"zip":"90261","miles_from_dt":9.32},{"city":"Compton","state_name":"California","lat":33.91213,"lng":-118.23721,"zip":"90222","miles_from_dt":9.33},{"city":"Lakewood","state_name":"California","lat":33.84797,"lng":-118.11268,"zip":"90713","miles_from_dt":9.79},{"city":"Los Angeles","state_name":"California","lat":33.92037,"lng":-118.27383,"zip":"90061","miles_from_dt":9.83},{"city":"Hermosa Beach","state_name":"California","lat":33.86532,"lng":-118.39616,"zip":"90254","miles_from_dt":9.83},{"city":"Paramount","state_name":"California","lat":33.89768,"lng":-118.16508,"zip":"90723","miles_from_dt":9.91},{"city":"Manhattan Beach","state_name":"California","lat":33.87432,"lng":-118.39546,"zip":"90267","miles_from_dt":10.19},{"city":"Los Angeles","state_name":"California","lat":33.92709,"lng":-118.2491,"zip":"90059","miles_from_dt":10.28},{"city":"Lynwood","state_name":"California","lat":33.92384,"lng":-118.20133,"zip":"90262","miles_from_dt":10.61},{"city":"Surfside","state_name":"California","lat":33.72963,"lng":-118.08594,"zip":"90743","miles_from_dt":10.61},{"city":"Hawthorne","state_name":"California","lat":33.91383,"lng":-118.34996,"zip":"90250","miles_from_dt":10.66},{"city":"Bellflower","state_name":"California","lat":33.88235,"lng":-118.12221,"zip":"90707","miles_from_dt":10.73},{"city":"Bellflower","state_name":"California","lat":33.88802,"lng":-118.12709,"zip":"90706","miles_from_dt":10.79},{"city":"Inglewood","state_name":"California","lat":33.92776,"lng":-118.31992,"zip":"90310","miles_from_dt":10.85},{"city":"Manhattan Beach","state_name":"California","lat":33.88968,"lng":-118.39705,"zip":"90266","miles_from_dt":10.97},{"city":"Seal Beach","state_name":"California","lat":33.75461,"lng":-118.07129,"zip":"90740","miles_from_dt":11.03},{"city":"Hawthorne","state_name":"California","lat":33.91694,"lng":-118.35944,"zip":"90251","miles_from_dt":11.12},{"city":"Los Alamitos","state_name":"California","lat":33.80225,"lng":-118.06898,"zip":"90721","miles_from_dt":11.17},{"city":"Lakewood","state_name":"California","lat":33.84037,"lng":-118.07887,"zip":"90715","miles_from_dt":11.31},{"city":"Hawaiian Gardens","state_name":"California","lat":33.8305,"lng":-118.07295,"zip":"90716","miles_from_dt":11.4},{"city":"Los Alamitos","state_name":"California","lat":33.79573,"lng":-118.06342,"zip":"90720","miles_from_dt":11.43},{"city":"Inglewood","state_name":"California","lat":33.93601,"lng":-118.33112,"zip":"90303","miles_from_dt":11.6},{"city":"Sunset Beach","state_name":"California","lat":33.71834,"lng":-118.07174,"zip":"90742","miles_from_dt":11.64},{"city":"Los Angeles","state_name":"California","lat":33.94906,"lng":-118.24679,"zip":"90002","miles_from_dt":11.8},{"city":"Artesia","state_name":"California","lat":33.8634,"lng":-118.08252,"zip":"90702","miles_from_dt":11.82},{"city":"Downey","state_name":"California","lat":33.92216,"lng":-118.14167,"zip":"90242","miles_from_dt":12.06},{"city":"Artesia","state_name":"California","lat":33.8676,"lng":-118.08055,"zip":"90701","miles_from_dt":12.06},{"city":"South Gate","state_name":"California","lat":33.94453,"lng":-118.19256,"zip":"90280","miles_from_dt":12.12},{"city":"Los Angeles","state_name":"California","lat":33.95253,"lng":-118.29194,"zip":"90044","miles_from_dt":12.15},{"city":"Inglewood","state_name":"California","lat":33.93736,"lng":-118.35879,"zip":"90304","miles_from_dt":12.33},{"city":"Los Angeles","state_name":"California","lat":33.95456,"lng":-118.30899,"zip":"90047","miles_from_dt":12.47},{"city":"El Segundo","state_name":"California","lat":33.91709,"lng":-118.40161,"zip":"90245","miles_from_dt":12.54},{"city":"Cerritos","state_name":"California","lat":33.86797,"lng":-118.06874,"zip":"90703","miles_from_dt":12.67},{"city":"Los Angeles","state_name":"California","lat":33.96409,"lng":-118.27368,"zip":"90003","miles_from_dt":12.83},{"city":"Inglewood","state_name":"California","lat":33.9583,"lng":-118.33113,"zip":"90305","miles_from_dt":13.05},{"city":"Huntington Beach","state_name":"California","lat":33.72037,"lng":-118.04423,"zip":"92649","miles_from_dt":13.09},{"city":"Cypress","state_name":"California","lat":33.81814,"lng":-118.03814,"zip":"90630","miles_from_dt":13.11},{"city":"Garden Grove","state_name":"California","lat":33.78803,"lng":-118.03254,"zip":"92846","miles_from_dt":13.16},{"city":"Los Angeles","state_name":"California","lat":33.94635,"lng":-118.37988,"zip":"90009","miles_from_dt":13.46},{"city":"Los Angeles","state_name":"California","lat":33.97365,"lng":-118.24904,"zip":"90001","miles_from_dt":13.49},{"city":"Garden Grove","state_name":"California","lat":33.78292,"lng":-118.0264,"zip":"92845","miles_from_dt":13.5},{"city":"Inglewood","state_name":"California","lat":33.95647,"lng":-118.35863,"zip":"90301","miles_from_dt":13.51},{"city":"Downey","state_name":"California","lat":33.94076,"lng":-118.1295,"zip":"90241","miles_from_dt":13.51},{"city":"Inglewood","state_name":"California","lat":33.95731,"lng":-118.35838,"zip":"90311","miles_from_dt":13.56},{"city":"Norwalk","state_name":"California","lat":33.90703,"lng":-118.08249,"zip":"90650","miles_from_dt":13.57},{"city":"Inglewood","state_name":"California","lat":33.96063,"lng":-118.35022,"zip":"90312","miles_from_dt":13.58},{"city":"Inglewood","state_name":"California","lat":33.96082,"lng":-118.35013,"zip":"90306","miles_from_dt":13.59},{"city":"La Palma","state_name":"California","lat":33.85038,"lng":-118.04088,"zip":"90623","miles_from_dt":13.6},{"city":"Inglewood","state_name":"California","lat":33.96045,"lng":-118.35147,"zip":"90308","miles_from_dt":13.6},{"city":"Downey","state_name":"California","lat":33.93242,"lng":-118.11284,"zip":"90239","miles_from_dt":13.62},{"city":"Inglewood","state_name":"California","lat":33.95468,"lng":-118.37361,"zip":"90307","miles_from_dt":13.78},{"city":"Los Angeles","state_name":"California","lat":33.9783,"lng":-118.25891,"zip":"90052","miles_from_dt":13.79},{"city":"Norwalk","state_name":"California","lat":33.90686,"lng":-118.07607,"zip":"90651","miles_from_dt":13.84},{"city":"Huntington Park","state_name":"California","lat":33.97697,"lng":-118.21725,"zip":"90255","miles_from_dt":13.93},{"city":"Los Angeles","state_name":"California","lat":33.967,"lng":-118.17219,"zip":"90096","miles_from_dt":13.98},{"city":"Bell Gardens","state_name":"California","lat":33.97113,"lng":-118.1709,"zip":"90201","miles_from_dt":14.27},{"city":"Los Angeles","state_name":"California","lat":33.95477,"lng":-118.39609,"zip":"90080","miles_from_dt":14.44},{"city":"Los Angeles","state_name":"California","lat":33.95302,"lng":-118.40028,"zip":"90045","miles_from_dt":14.47},{"city":"Inglewood","state_name":"California","lat":33.97342,"lng":-118.35707,"zip":"90309","miles_from_dt":14.55},{"city":"Los Angeles","state_name":"California","lat":33.95486,"lng":-118.40083,"zip":"90083","miles_from_dt":14.59},{"city":"Inglewood","state_name":"California","lat":33.97472,"lng":-118.35565,"zip":"90302","miles_from_dt":14.6},{"city":"Bell","state_name":"California","lat":33.96992,"lng":-118.15235,"zip":"90202","miles_from_dt":14.61},{"city":"Norwalk","state_name":"California","lat":33.92045,"lng":-118.0721,"zip":"90652","miles_from_dt":14.63},{"city":"Westminster","state_name":"California","lat":33.76266,"lng":-118.0072,"zip":"92684","miles_from_dt":14.64},{"city":"Downey","state_name":"California","lat":33.9564,"lng":-118.11803,"zip":"90240","miles_from_dt":14.77},{"city":"Los Angeles","state_name":"California","lat":33.971,"lng":-118.379,"zip":"90189","miles_from_dt":14.92},{"city":"Buena Park","state_name":"California","lat":33.84616,"lng":-118.01176,"zip":"90620","miles_from_dt":15.08},{"city":"Maywood","state_name":"California","lat":33.98856,"lng":-118.18774,"zip":"90270","miles_from_dt":15.1},{"city":"Huntington Beach","state_name":"California","lat":33.72395,"lng":-118.00685,"zip":"92647","miles_from_dt":15.1},{"city":"Los Angeles","state_name":"California","lat":33.98876,"lng":-118.33519,"zip":"90043","miles_from_dt":15.13},{"city":"Huntington Beach","state_name":"California","lat":33.71512,"lng":-118.00767,"zip":"92605","miles_from_dt":15.21},{"city":"Stanton","state_name":"California","lat":33.80115,"lng":-117.99532,"zip":"90680","miles_from_dt":15.36},{"city":"Los Angeles","state_name":"California","lat":34.00055,"lng":-118.27907,"zip":"90082","miles_from_dt":15.36},{"city":"Westminster","state_name":"California","lat":33.75281,"lng":-117.9951,"zip":"92685","miles_from_dt":15.4},{"city":"Westminster","state_name":"California","lat":33.75242,"lng":-117.99383,"zip":"92683","miles_from_dt":15.47},{"city":"Buena Park","state_name":"California","lat":33.84619,"lng":-118.00313,"zip":"90622","miles_from_dt":15.55},{"city":"Los Angeles","state_name":"California","lat":34.00271,"lng":-118.28747,"zip":"90037","miles_from_dt":15.55},{"city":"Santa Fe Springs","state_name":"California","lat":33.93279,"lng":-118.0626,"zip":"90670","miles_from_dt":15.6},{"city":"Playa Del Rey","state_name":"California","lat":33.95071,"lng":-118.43745,"zip":"90293","miles_from_dt":15.63},{"city":"Los Angeles","state_name":"California","lat":34.00264,"lng":-118.21452,"zip":"90058","miles_from_dt":15.7},{"city":"Los Angeles","state_name":"California","lat":34.00689,"lng":-118.25861,"zip":"90011","miles_from_dt":15.76},{"city":"Santa Fe Springs","state_name":"California","lat":33.93251,"lng":-118.05849,"zip":"90671","miles_from_dt":15.76},{"city":"Los Angeles","state_name":"California","lat":34.0035,"lng":-118.30904,"zip":"90062","miles_from_dt":15.77},{"city":"Buena Park","state_name":"California","lat":33.85838,"lng":-118.00327,"zip":"90624","miles_from_dt":15.82},{"city":"Midway City","state_name":"California","lat":33.74606,"lng":-117.98765,"zip":"92655","miles_from_dt":15.88},{"city":"Huntington Beach","state_name":"California","lat":33.68212,"lng":-118.0101,"zip":"92648","miles_from_dt":15.89},{"city":"Los Angeles","state_name":"California","lat":33.98966,"lng":-118.14915,"zip":"90091","miles_from_dt":15.93},{"city":"Garden Grove","state_name":"California","lat":33.7868,"lng":-117.98207,"zip":"92841","miles_from_dt":16.06},{"city":"Los Angeles","state_name":"California","lat":33.99361,"lng":-118.36884,"zip":"90056","miles_from_dt":16.09},{"city":"Los Angeles","state_name":"California","lat":33.99318,"lng":-118.1489,"zip":"90040","miles_from_dt":16.15},{"city":"Pico Rivera","state_name":"California","lat":33.96941,"lng":-118.09848,"zip":"90662","miles_from_dt":16.15},{"city":"Playa Vista","state_name":"California","lat":33.97523,"lng":-118.41837,"zip":"90094","miles_from_dt":16.32},{"city":"Playa Del Rey","state_name":"California","lat":33.9561,"lng":-118.44985,"zip":"90296","miles_from_dt":16.38},{"city":"La Mirada","state_name":"California","lat":33.90565,"lng":-118.01499,"zip":"90639","miles_from_dt":16.65},{"city":"Anaheim","state_name":"California","lat":33.81801,"lng":-117.97517,"zip":"92804","miles_from_dt":16.67},{"city":"Los Angeles","state_name":"California","lat":34.01037,"lng":-118.3428,"zip":"90008","miles_from_dt":16.68},{"city":"Buena Park","state_name":"California","lat":33.87396,"lng":-117.99346,"zip":"90621","miles_from_dt":16.74},{"city":"Garden Grove","state_name":"California","lat":33.76561,"lng":-117.96952,"zip":"92844","miles_from_dt":16.79},{"city":"La Mirada","state_name":"California","lat":33.90236,"lng":-118.00907,"zip":"90638","miles_from_dt":16.82},{"city":"Los Angeles","state_name":"California","lat":34.02158,"lng":-118.2856,"zip":"90089","miles_from_dt":16.83},{"city":"Culver City","state_name":"California","lat":33.99691,"lng":-118.39487,"zip":"90230","miles_from_dt":16.93},{"city":"La Mirada","state_name":"California","lat":33.8971,"lng":-118.00237,"zip":"90637","miles_from_dt":16.98},{"city":"Culver City","state_name":"California","lat":33.99949,"lng":-118.3913,"zip":"90231","miles_from_dt":16.99},{"city":"Whittier","state_name":"California","lat":33.96984,"lng":-118.07193,"zip":"90610","miles_from_dt":17.1},{"city":"Los Angeles","state_name":"California","lat":34.02264,"lng":-118.19986,"zip":"90023","miles_from_dt":17.21},{"city":"Los Angeles","state_name":"California","lat":34.02819,"lng":-118.28486,"zip":"90007","miles_from_dt":17.28},{"city":"Marina Del Rey","state_name":"California","lat":33.98088,"lng":-118.43814,"zip":"90295","miles_from_dt":17.29},{"city":"Los Angeles","state_name":"California","lat":34.02909,"lng":-118.23889,"zip":"90021","miles_from_dt":17.34},{"city":"Anaheim","state_name":"California","lat":33.81735,"lng":-117.96073,"zip":"92814","miles_from_dt":17.48},{"city":"Marina Del Rey","state_name":"California","lat":33.97865,"lng":-118.44707,"zip":"90292","miles_from_dt":17.48},{"city":"Pico Rivera","state_name":"California","lat":33.98868,"lng":-118.09111,"zip":"90660","miles_from_dt":17.48},{"city":"Los Angeles","state_name":"California","lat":34.0286,"lng":-118.31737,"zip":"90018","miles_from_dt":17.56},{"city":"Los Angeles","state_name":"California","lat":33.99574,"lng":-118.42202,"zip":"90060","miles_from_dt":17.62},{"city":"Whittier","state_name":"California","lat":33.93012,"lng":-118.01226,"zip":"90604","miles_from_dt":17.72},{"city":"Whittier","state_name":"California","lat":33.97742,"lng":-118.0661,"zip":"90606","miles_from_dt":17.72},{"city":"Los Angeles","state_name":"California","lat":34.03932,"lng":-118.26625,"zip":"90015","miles_from_dt":18},{"city":"Los Angeles","state_name":"California","lat":34.02455,"lng":-118.15608,"zip":"90022","miles_from_dt":18.01},{"city":"Los Angeles","state_name":"California","lat":34.02881,"lng":-118.35436,"zip":"90016","miles_from_dt":18.09},{"city":"Los Angeles","state_name":"California","lat":34.04058,"lng":-118.25541,"zip":"90079","miles_from_dt":18.09},{"city":"Anaheim","state_name":"California","lat":33.84421,"lng":-117.95555,"zip":"92850","miles_from_dt":18.15},{"city":"Garden Grove","state_name":"California","lat":33.77834,"lng":-117.94558,"zip":"92842","miles_from_dt":18.15},{"city":"Culver City","state_name":"California","lat":34.01859,"lng":-118.39157,"zip":"90232","miles_from_dt":18.19},{"city":"Los Angeles","state_name":"California","lat":34.00166,"lng":-118.43104,"zip":"90066","miles_from_dt":18.24},{"city":"Los Angeles","state_name":"California","lat":34.04302,"lng":-118.25182,"zip":"90014","miles_from_dt":18.26},{"city":"Whittier","state_name":"California","lat":33.95209,"lng":-118.02085,"zip":"90605","miles_from_dt":18.28},{"city":"Anaheim","state_name":"California","lat":33.84441,"lng":-117.95175,"zip":"92801","miles_from_dt":18.36},{"city":"Fullerton","state_name":"California","lat":33.86953,"lng":-117.96112,"zip":"92837","miles_from_dt":18.36},{"city":"Pico Rivera","state_name":"California","lat":33.99824,"lng":-118.08065,"zip":"90661","miles_from_dt":18.37},{"city":"Los Angeles","state_name":"California","lat":34.04435,"lng":-118.24,"zip":"90013","miles_from_dt":18.38},{"city":"Whittier","state_name":"California","lat":33.95961,"lng":-118.02655,"zip":"90607","miles_from_dt":18.38},{"city":"Fountain Valley","state_name":"California","lat":33.71046,"lng":-117.95132,"zip":"92708","miles_from_dt":18.42},{"city":"Montebello","state_name":"California","lat":34.01506,"lng":-118.111,"zip":"90640","miles_from_dt":18.46},{"city":"Los Angeles","state_name":"California","lat":34.04754,"lng":-118.25656,"zip":"90055","miles_from_dt":18.56},{"city":"Huntington Beach","state_name":"California","lat":33.66525,"lng":-117.96755,"zip":"92646","miles_from_dt":18.6},{"city":"Fullerton","state_name":"California","lat":33.88051,"lng":-117.96112,"zip":"92833","miles_from_dt":18.63},{"city":"Venice","state_name":"California","lat":33.98621,"lng":-118.46828,"zip":"90294","miles_from_dt":18.65},{"city":"Los Angeles","state_name":"California","lat":34.04807,"lng":-118.29411,"zip":"90006","miles_from_dt":18.7},{"city":"Huntington Beach","state_name":"California","lat":33.65655,"lng":-117.96987,"zip":"92615","miles_from_dt":18.74},{"city":"Los Angeles","state_name":"California","lat":34.05239,"lng":-118.25518,"zip":"90071","miles_from_dt":18.9},{"city":"Venice","state_name":"California","lat":33.99447,"lng":-118.46315,"zip":"90291","miles_from_dt":18.9},{"city":"Los Angeles","state_name":"California","lat":34.0452,"lng":-118.18583,"zip":"90063","miles_from_dt":18.9},{"city":"Los Angeles","state_name":"California","lat":34.05258,"lng":-118.26801,"zip":"90074","miles_from_dt":18.91},{"city":"Garden Grove","state_name":"California","lat":33.78584,"lng":-117.93202,"zip":"92840","miles_from_dt":18.93},{"city":"Los Angeles","state_name":"California","lat":34.05306,"lng":-118.26447,"zip":"90017","miles_from_dt":18.94},{"city":"Garden Grove","state_name":"California","lat":33.76399,"lng":-117.93153,"zip":"92843","miles_from_dt":18.98},{"city":"Anaheim","state_name":"California","lat":33.83971,"lng":-117.93882,"zip":"92803","miles_from_dt":19.01},{"city":"Los Angeles","state_name":"California","lat":34.05117,"lng":-118.21165,"zip":"90033","miles_from_dt":19.02},{"city":"Los Angeles","state_name":"California","lat":34.05513,"lng":-118.26196,"zip":"90088","miles_from_dt":19.09},{"city":"Los Angeles","state_name":"California","lat":34.03059,"lng":-118.39936,"zip":"90034","miles_from_dt":19.13},{"city":"Whittier","state_name":"California","lat":33.97317,"lng":-118.02341,"zip":"90602","miles_from_dt":19.15},{"city":"Los Angeles","state_name":"California","lat":34.05565,"lng":-118.24047,"zip":"90053","miles_from_dt":19.16},{"city":"Los Angeles","state_name":"California","lat":34.04861,"lng":-118.33874,"zip":"90019","miles_from_dt":19.17},{"city":"Whittier","state_name":"California","lat":33.97932,"lng":-118.03053,"zip":"90608","miles_from_dt":19.17},{"city":"Los Angeles","state_name":"California","lat":34.05652,"lng":-118.26525,"zip":"90084","miles_from_dt":19.18},{"city":"Los Angeles","state_name":"California","lat":34.05701,"lng":-118.26656,"zip":"90081","miles_from_dt":19.22},{"city":"Whittier","state_name":"California","lat":33.94487,"lng":-117.99239,"zip":"90603","miles_from_dt":19.24},{"city":"Whittier","state_name":"California","lat":33.98161,"lng":-118.03055,"zip":"90609","miles_from_dt":19.28},{"city":"Anaheim","state_name":"California","lat":33.817,"lng":-117.9286,"zip":"92812","miles_from_dt":19.31},{"city":"Los Angeles","state_name":"California","lat":34.05937,"lng":-118.23609,"zip":"90054","miles_from_dt":19.43},{"city":"Anaheim","state_name":"California","lat":33.80831,"lng":-117.9237,"zip":"92802","miles_from_dt":19.51},{"city":"Los Angeles","state_name":"California","lat":34.05939,"lng":-118.30909,"zip":"90005","miles_from_dt":19.58},{"city":"Los Angeles","state_name":"California","lat":34.06205,"lng":-118.27704,"zip":"90057","miles_from_dt":19.59},{"city":"Los Angeles","state_name":"California","lat":34.06207,"lng":-118.2385,"zip":"90030","miles_from_dt":19.61},{"city":"Los Angeles","state_name":"California","lat":34.06274,"lng":-118.24314,"zip":"90051","miles_from_dt":19.64},{"city":"Fountain Valley","state_name":"California","lat":33.71399,"lng":-117.92835,"zip":"92728","miles_from_dt":19.65},{"city":"Los Angeles","state_name":"California","lat":34.06294,"lng":-118.23623,"zip":"90099","miles_from_dt":19.68},{"city":"Los Angeles","state_name":"California","lat":34.06438,"lng":-118.24066,"zip":"90087","miles_from_dt":19.76},{"city":"Los Angeles","state_name":"California","lat":34.06209,"lng":-118.31262,"zip":"90010","miles_from_dt":19.79},{"city":"Los Angeles","state_name":"California","lat":34.06253,"lng":-118.30884,"zip":"90076","miles_from_dt":19.79},{"city":"Los Angeles","state_name":"California","lat":34.06244,"lng":-118.31044,"zip":"90070","miles_from_dt":19.8},{"city":"Los Angeles","state_name":"California","lat":34.06636,"lng":-118.23972,"zip":"90086","miles_from_dt":19.9},{"city":"Los Angeles","state_name":"California","lat":34.06449,"lng":-118.30956,"zip":"90075","miles_from_dt":19.93},{"city":"Los Angeles","state_name":"California","lat":34.06679,"lng":-118.23878,"zip":"90012","miles_from_dt":19.93},{"city":"La Habra","state_name":"California","lat":33.91433,"lng":-117.95472,"zip":"90632","miles_from_dt":19.95},{"city":"Monterey Park","state_name":"California","lat":34.051,"lng":-118.14451,"zip":"91754","miles_from_dt":19.96},{"city":"Monterey Park","state_name":"California","lat":34.04756,"lng":-118.1328,"zip":"91756","miles_from_dt":19.97},{"city":"Santa Monica","state_name":"California","lat":34.01208,"lng":-118.4679,"zip":"90405","miles_from_dt":20.04},{"city":"Los Angeles","state_name":"California","lat":34.06638,"lng":-118.30986,"zip":"90020","miles_from_dt":20.06},{"city":"Fullerton","state_name":"California","lat":33.86871,"lng":-117.92914,"zip":"92832","miles_from_dt":20.08},{"city":"Los Angeles","state_name":"California","lat":34.0358,"lng":-118.42653,"zip":"90064","miles_from_dt":20.15},{"city":"Los Angeles","state_name":"California","lat":34.05139,"lng":-118.38577,"zip":"90035","miles_from_dt":20.15},{"city":"Santa Monica","state_name":"California","lat":34.01465,"lng":-118.4674,"zip":"90410","miles_from_dt":20.16},{"city":"Santa Monica","state_name":"California","lat":34.00302,"lng":-118.48562,"zip":"90409","miles_from_dt":20.17},{"city":"Santa Monica","state_name":"California","lat":34.01245,"lng":-118.47128,"zip":"90411","miles_from_dt":20.17},{"city":"Anaheim","state_name":"California","lat":33.83565,"lng":-117.9132,"zip":"92825","miles_from_dt":20.39},{"city":"Anaheim","state_name":"California","lat":33.83194,"lng":-117.9121,"zip":"92815","miles_from_dt":20.41},{"city":"Monterey Park","state_name":"California","lat":34.04832,"lng":-118.11496,"zip":"91755","miles_from_dt":20.42},{"city":"Santa Ana","state_name":"California","lat":33.74853,"lng":-117.90621,"zip":"92703","miles_from_dt":20.52},{"city":"Fullerton","state_name":"California","lat":33.8918,"lng":-117.931,"zip":"92838","miles_from_dt":20.52},{"city":"Whittier","state_name":"California","lat":34.0078,"lng":-118.03287,"zip":"90601","miles_from_dt":20.55},{"city":"Santa Ana","state_name":"California","lat":33.72048,"lng":-117.90985,"zip":"92799","miles_from_dt":20.6},{"city":"Santa Ana","state_name":"California","lat":33.72038,"lng":-117.90807,"zip":"92704","miles_from_dt":20.7},{"city":"Los Angeles","state_name":"California","lat":34.07883,"lng":-118.2637,"zip":"90026","miles_from_dt":20.72},{"city":"Los Angeles","state_name":"California","lat":34.07624,"lng":-118.31101,"zip":"90004","miles_from_dt":20.74},{"city":"Anaheim","state_name":"California","lat":33.83003,"lng":-117.90568,"zip":"92805","miles_from_dt":20.75},{"city":"Los Angeles","state_name":"California","lat":34.07013,"lng":-118.34978,"zip":"90036","miles_from_dt":20.76},{"city":"Beverly Hills","state_name":"California","lat":34.05481,"lng":-118.40416,"zip":"90213","miles_from_dt":20.77},{"city":"Beverly Hills","state_name":"California","lat":34.06498,"lng":-118.38293,"zip":"90211","miles_from_dt":20.97},{"city":"Santa Monica","state_name":"California","lat":34.01322,"lng":-118.49306,"zip":"90407","miles_from_dt":20.99},{"city":"Santa Monica","state_name":"California","lat":34.02665,"lng":-118.47381,"zip":"90404","miles_from_dt":21.05},{"city":"Los Angeles","state_name":"California","lat":34.08122,"lng":-118.21081,"zip":"90031","miles_from_dt":21.08},{"city":"Los Angeles","state_name":"California","lat":34.0565,"lng":-118.41373,"zip":"90067","miles_from_dt":21.1},{"city":"La Habra","state_name":"California","lat":33.94266,"lng":-117.95126,"zip":"90631","miles_from_dt":21.1},{"city":"Santa Monica","state_name":"California","lat":34.01584,"lng":-118.49251,"zip":"90401","miles_from_dt":21.11},{"city":"La Habra","state_name":"California","lat":33.93453,"lng":-117.94525,"zip":"90633","miles_from_dt":21.11},{"city":"Beverly Hills","state_name":"California","lat":34.06208,"lng":-118.40173,"zip":"90212","miles_from_dt":21.17},{"city":"Los Angeles","state_name":"California","lat":34.04551,"lng":-118.44583,"zip":"90025","miles_from_dt":21.27},{"city":"Los Angeles","state_name":"California","lat":34.0793,"lng":-118.17835,"zip":"90032","miles_from_dt":21.29},{"city":"Los Angeles","state_name":"California","lat":34.07293,"lng":-118.3727,"zip":"90048","miles_from_dt":21.3},{"city":"Santa Monica","state_name":"California","lat":34.01818,"lng":-118.4972,"zip":"90406","miles_from_dt":21.4},{"city":"Costa Mesa","state_name":"California","lat":33.67896,"lng":-117.90844,"zip":"92626","miles_from_dt":21.42},{"city":"Alhambra","state_name":"California","lat":34.0749,"lng":-118.14624,"zip":"91803","miles_from_dt":21.48},{"city":"Costa Mesa","state_name":"California","lat":33.64786,"lng":-117.9205,"zip":"92627","miles_from_dt":21.56},{"city":"Los Angeles","state_name":"California","lat":34.08983,"lng":-118.29467,"zip":"90029","miles_from_dt":21.57},{"city":"Beverly Hills","state_name":"California","lat":34.072,"lng":-118.39142,"zip":"90209","miles_from_dt":21.59},{"city":"Fullerton","state_name":"California","lat":33.87548,"lng":-117.90381,"zip":"92836","miles_from_dt":21.61},{"city":"Fullerton","state_name":"California","lat":33.90171,"lng":-117.91529,"zip":"92835","miles_from_dt":21.62},{"city":"Santa Monica","state_name":"California","lat":34.02616,"lng":-118.49197,"zip":"90408","miles_from_dt":21.64},{"city":"Los Angeles","state_name":"California","lat":34.08882,"lng":-118.32671,"zip":"90038","miles_from_dt":21.74},{"city":"Newport Beach","state_name":"California","lat":33.62328,"lng":-117.93022,"zip":"92663","miles_from_dt":21.84},{"city":"Santa Ana","state_name":"California","lat":33.76602,"lng":-117.88174,"zip":"92706","miles_from_dt":21.84},{"city":"Santa Monica","state_name":"California","lat":34.03164,"lng":-118.48975,"zip":"90403","miles_from_dt":21.87},{"city":"South El Monte","state_name":"California","lat":34.0454,"lng":-118.05314,"zip":"91733","miles_from_dt":21.95},{"city":"Anaheim","state_name":"California","lat":33.84011,"lng":-117.88669,"zip":"92816","miles_from_dt":21.95},{"city":"Fullerton","state_name":"California","lat":33.87678,"lng":-117.897,"zip":"92834","miles_from_dt":22.01},{"city":"Costa Mesa","state_name":"California","lat":33.64015,"lng":-117.91588,"zip":"92628","miles_from_dt":22.03},{"city":"Alhambra","state_name":"California","lat":34.08082,"lng":-118.13541,"zip":"91899","miles_from_dt":22.07},{"city":"Fullerton","state_name":"California","lat":33.8795,"lng":-117.89607,"zip":"92831","miles_from_dt":22.11},{"city":"Orange","state_name":"California","lat":33.78799,"lng":-117.87637,"zip":"92868","miles_from_dt":22.14},{"city":"Los Angeles","state_name":"California","lat":34.09719,"lng":-118.30902,"zip":"90072","miles_from_dt":22.16},{"city":"Rosemead","state_name":"California","lat":34.06395,"lng":-118.08361,"zip":"91770","miles_from_dt":22.17},{"city":"Los Angeles","state_name":"California","lat":34.06565,"lng":-118.43521,"zip":"90024","miles_from_dt":22.2},{"city":"Newport Beach","state_name":"California","lat":33.62219,"lng":-117.92352,"zip":"92659","miles_from_dt":22.21},{"city":"Rosemead","state_name":"California","lat":34.06573,"lng":-118.08579,"zip":"91772","miles_from_dt":22.22},{"city":"Rosemead","state_name":"California","lat":34.06506,"lng":-118.08303,"zip":"91771","miles_from_dt":22.26},{"city":"Santa Ana","state_name":"California","lat":33.74962,"lng":-117.87498,"zip":"92712","miles_from_dt":22.3},{"city":"Los Angeles","state_name":"California","lat":34.05738,"lng":-118.45956,"zip":"90073","miles_from_dt":22.37},{"city":"Los Angeles","state_name":"California","lat":34.09808,"lng":-118.3364,"zip":"90093","miles_from_dt":22.47},{"city":"Los Angeles","state_name":"California","lat":34.09982,"lng":-118.3268,"zip":"90028","miles_from_dt":22.49},{"city":"Los Angeles","state_name":"California","lat":34.09965,"lng":-118.32804,"zip":"90078","miles_from_dt":22.49},{"city":"Hacienda Heights","state_name":"California","lat":33.99926,"lng":-117.97225,"zip":"91745","miles_from_dt":22.52},{"city":"Santa Monica","state_name":"California","lat":34.03598,"lng":-118.50391,"zip":"90402","miles_from_dt":22.6},{"city":"Santa Ana","state_name":"California","lat":33.73655,"lng":-117.87139,"zip":"92702","miles_from_dt":22.6},{"city":"City Of Industry","state_name":"California","lat":34.00376,"lng":-117.97456,"zip":"91716","miles_from_dt":22.64},{"city":"Los Angeles","state_name":"California","lat":34.07121,"lng":-118.44334,"zip":"90095","miles_from_dt":22.75},{"city":"Anaheim","state_name":"California","lat":33.83726,"lng":-117.87122,"zip":"92899","miles_from_dt":22.78},{"city":"Anaheim","state_name":"California","lat":33.83884,"lng":-117.87054,"zip":"92806","miles_from_dt":22.84},{"city":"West Hollywood","state_name":"California","lat":34.09401,"lng":-118.38154,"zip":"90069","miles_from_dt":22.84},{"city":"Los Angeles","state_name":"California","lat":34.10867,"lng":-118.22813,"zip":"90065","miles_from_dt":22.85},{"city":"Alhambra","state_name":"California","lat":34.09093,"lng":-118.12776,"zip":"91801","miles_from_dt":22.87},{"city":"Alhambra","state_name":"California","lat":34.09202,"lng":-118.12885,"zip":"91804","miles_from_dt":22.92},{"city":"Alhambra","state_name":"California","lat":34.0909,"lng":-118.12401,"zip":"91802","miles_from_dt":22.94},{"city":"Alhambra","state_name":"California","lat":34.09251,"lng":-118.12848,"zip":"91896","miles_from_dt":22.96},{"city":"Santa Ana","state_name":"California","lat":33.70991,"lng":-117.87045,"zip":"92707","miles_from_dt":22.97},{"city":"Los Angeles","state_name":"California","lat":34.11242,"lng":-118.26153,"zip":"90039","miles_from_dt":23.03},{"city":"Santa Ana","state_name":"California","lat":33.7486,"lng":-117.85877,"zip":"92701","miles_from_dt":23.24},{"city":"City Of Industry","state_name":"California","lat":34.01573,"lng":-117.96997,"zip":"91715","miles_from_dt":23.4},{"city":"Brea","state_name":"California","lat":33.91866,"lng":-117.8892,"zip":"92822","miles_from_dt":23.46},{"city":"Los Angeles","state_name":"California","lat":34.10752,"lng":-118.36575,"zip":"90046","miles_from_dt":23.48},{"city":"San Gabriel","state_name":"California","lat":34.08987,"lng":-118.09519,"zip":"91776","miles_from_dt":23.49},{"city":"Los Angeles","state_name":"California","lat":34.11475,"lng":-118.192,"zip":"90042","miles_from_dt":23.53},{"city":"South Pasadena","state_name":"California","lat":34.11029,"lng":-118.15748,"zip":"91030","miles_from_dt":23.65},{"city":"Santa Ana","state_name":"California","lat":33.71884,"lng":-117.85462,"zip":"92735","miles_from_dt":23.74},{"city":"North Hollywood","state_name":"California","lat":34.11274,"lng":-118.36583,"zip":"91618","miles_from_dt":23.83},{"city":"Los Angeles","state_name":"California","lat":34.12138,"lng":-118.20691,"zip":"90050","miles_from_dt":23.85},{"city":"Glendale","state_name":"California","lat":34.12426,"lng":-118.25429,"zip":"91225","miles_from_dt":23.85},{"city":"Orange","state_name":"California","lat":33.82887,"lng":-117.84925,"zip":"92865","miles_from_dt":23.94},{"city":"Orange","state_name":"California","lat":33.78453,"lng":-117.84479,"zip":"92866","miles_from_dt":23.95},{"city":"Orange","state_name":"California","lat":33.8317,"lng":-117.84914,"zip":"92857","miles_from_dt":23.97},{"city":"Los Angeles","state_name":"California","lat":34.12515,"lng":-118.29049,"zip":"90027","miles_from_dt":23.97},{"city":"Orange","state_name":"California","lat":33.78406,"lng":-117.84348,"zip":"92856","miles_from_dt":24.03},{"city":"San Gabriel","state_name":"California","lat":34.10155,"lng":-118.10385,"zip":"91778","miles_from_dt":24.04},{"city":"Beverly Hills","state_name":"California","lat":34.10251,"lng":-118.41505,"zip":"90210","miles_from_dt":24.04},{"city":"El Monte","state_name":"California","lat":34.07183,"lng":-118.03331,"zip":"91734","miles_from_dt":24.09},{"city":"City Of Industry","state_name":"California","lat":34.01945,"lng":-117.95713,"zip":"91714","miles_from_dt":24.11},{"city":"La Puente","state_name":"California","lat":34.04397,"lng":-117.98785,"zip":"91746","miles_from_dt":24.12},{"city":"Newport Beach","state_name":"California","lat":33.60231,"lng":-117.89872,"zip":"92661","miles_from_dt":24.13},{"city":"South Pasadena","state_name":"California","lat":34.11754,"lng":-118.15176,"zip":"91031","miles_from_dt":24.21},{"city":"El Monte","state_name":"California","lat":34.07914,"lng":-118.04047,"zip":"91731","miles_from_dt":24.3},{"city":"Newport Beach","state_name":"California","lat":33.63375,"lng":-117.87504,"zip":"92660","miles_from_dt":24.35},{"city":"Newport Beach","state_name":"California","lat":33.60547,"lng":-117.89218,"zip":"92662","miles_from_dt":24.35},{"city":"Placentia","state_name":"California","lat":33.88087,"lng":-117.85522,"zip":"92870","miles_from_dt":24.38},{"city":"Placentia","state_name":"California","lat":33.88293,"lng":-117.85569,"zip":"92871","miles_from_dt":24.4},{"city":"Los Angeles","state_name":"California","lat":34.12794,"lng":-118.32914,"zip":"90068","miles_from_dt":24.42},{"city":"El Monte","state_name":"California","lat":34.07491,"lng":-118.02805,"zip":"91735","miles_from_dt":24.44},{"city":"Pasadena","state_name":"California","lat":34.12407,"lng":-118.16454,"zip":"91189","miles_from_dt":24.47},{"city":"Los Angeles","state_name":"California","lat":34.1141,"lng":-118.4068,"zip":"90134","miles_from_dt":24.62},{"city":"Glendale","state_name":"California","lat":34.13554,"lng":-118.26093,"zip":"91204","miles_from_dt":24.63},{"city":"La Puente","state_name":"California","lat":34.02322,"lng":-117.94799,"zip":"91747","miles_from_dt":24.67},{"city":"El Monte","state_name":"California","lat":34.07239,"lng":-118.01455,"zip":"91732","miles_from_dt":24.73},{"city":"Glendale","state_name":"California","lat":34.13679,"lng":-118.24339,"zip":"91205","miles_from_dt":24.73},{"city":"Newport Beach","state_name":"California","lat":33.64222,"lng":-117.86305,"zip":"92658","miles_from_dt":24.76},{"city":"Brea","state_name":"California","lat":33.92997,"lng":-117.86986,"zip":"92821","miles_from_dt":24.8},{"city":"Orange","state_name":"California","lat":33.81425,"lng":-117.83075,"zip":"92864","miles_from_dt":24.87},{"city":"Rowland Heights","state_name":"California","lat":33.9769,"lng":-117.89924,"zip":"91748","miles_from_dt":24.89},{"city":"La Puente","state_name":"California","lat":34.03073,"lng":-117.94999,"zip":"91749","miles_from_dt":24.94},{"city":"Los Angeles","state_name":"California","lat":34.13749,"lng":-118.20746,"zip":"90041","miles_from_dt":24.95},{"city":"Los Angeles","state_name":"California","lat":34.08749,"lng":-118.48976,"zip":"90049","miles_from_dt":25.05},{"city":"Orange","state_name":"California","lat":33.81535,"lng":-117.82728,"zip":"92863","miles_from_dt":25.08},{"city":"Los Angeles","state_name":"California","lat":34.10536,"lng":-118.45591,"zip":"90077","miles_from_dt":25.18},{"city":"San Marino","state_name":"California","lat":34.12232,"lng":-118.11363,"zip":"91108","miles_from_dt":25.18},{"city":"San Gabriel","state_name":"California","lat":34.11454,"lng":-118.08946,"zip":"91775","miles_from_dt":25.19},{"city":"Temple City","state_name":"California","lat":34.10152,"lng":-118.05584,"zip":"91780","miles_from_dt":25.2},{"city":"Irvine","state_name":"California","lat":33.65061,"lng":-117.85091,"zip":"92697","miles_from_dt":25.2},{"city":"Glendale","state_name":"California","lat":34.14468,"lng":-118.25809,"zip":"91210","miles_from_dt":25.26},{"city":"Glendale","state_name":"California","lat":34.14464,"lng":-118.25026,"zip":"91209","miles_from_dt":25.26},{"city":"Universal City","state_name":"California","lat":34.13839,"lng":-118.35272,"zip":"91608","miles_from_dt":25.38},{"city":"La Puente","state_name":"California","lat":34.02914,"lng":-117.93735,"zip":"91744","miles_from_dt":25.39},{"city":"Pasadena","state_name":"California","lat":34.13588,"lng":-118.15159,"zip":"91115","miles_from_dt":25.44},{"city":"Aliso Viejo","state_name":"California","lat":33.6686,"lng":-117.83864,"zip":"92698","miles_from_dt":25.46},{"city":"Atwood","state_name":"California","lat":33.8674,"lng":-117.83099,"zip":"92811","miles_from_dt":25.48},{"city":"Irvine","state_name":"California","lat":33.68173,"lng":-117.83316,"zip":"92614","miles_from_dt":25.51},{"city":"Pasadena","state_name":"California","lat":34.14045,"lng":-118.16716,"zip":"91105","miles_from_dt":25.54},{"city":"Tustin","state_name":"California","lat":33.73685,"lng":-117.81968,"zip":"92780","miles_from_dt":25.56},{"city":"Pasadena","state_name":"California","lat":34.13833,"lng":-118.15278,"zip":"91123","miles_from_dt":25.59},{"city":"Tustin","state_name":"California","lat":33.73687,"lng":-117.81805,"zip":"92781","miles_from_dt":25.65},{"city":"Santa Ana","state_name":"California","lat":33.755,"lng":-117.81488,"zip":"92705","miles_from_dt":25.72},{"city":"Pasadena","state_name":"California","lat":34.14115,"lng":-118.15685,"zip":"91129","miles_from_dt":25.72},{"city":"Pasadena","state_name":"California","lat":34.1416,"lng":-118.15756,"zip":"91184","miles_from_dt":25.74},{"city":"Burbank","state_name":"California","lat":34.1469,"lng":-118.33757,"zip":"91522","miles_from_dt":25.79},{"city":"San Marino","state_name":"California","lat":34.12501,"lng":-118.09242,"zip":"91118","miles_from_dt":25.79},{"city":"Corona Del Mar","state_name":"California","lat":33.60229,"lng":-117.86551,"zip":"92625","miles_from_dt":25.8},{"city":"Glendale","state_name":"California","lat":34.15287,"lng":-118.26355,"zip":"91203","miles_from_dt":25.82},{"city":"Pasadena","state_name":"California","lat":34.13676,"lng":-118.1259,"zip":"91126","miles_from_dt":25.9},{"city":"Irvine","state_name":"California","lat":33.64197,"lng":-117.84103,"zip":"92617","miles_from_dt":25.94},{"city":"Irvine","state_name":"California","lat":33.65193,"lng":-117.8361,"zip":"92616","miles_from_dt":25.97},{"city":"Pasadena","state_name":"California","lat":34.13772,"lng":-118.12492,"zip":"91125","miles_from_dt":25.98},{"city":"Pasadena","state_name":"California","lat":34.13861,"lng":-118.12825,"zip":"91106","miles_from_dt":25.98},{"city":"Villa Park","state_name":"California","lat":33.81801,"lng":-117.81031,"zip":"92861","miles_from_dt":26.07},{"city":"Studio City","state_name":"California","lat":34.13985,"lng":-118.39435,"zip":"91604","miles_from_dt":26.08},{"city":"Burbank","state_name":"California","lat":34.15487,"lng":-118.32628,"zip":"91521","miles_from_dt":26.23},{"city":"Glendale","state_name":"California","lat":34.15922,"lng":-118.26256,"zip":"91222","miles_from_dt":26.26},{"city":"Pasadena","state_name":"California","lat":34.14318,"lng":-118.1282,"zip":"91116","miles_from_dt":26.28},{"city":"Santa Ana","state_name":"California","lat":33.76685,"lng":-117.80435,"zip":"92711","miles_from_dt":26.29},{"city":"Pasadena","state_name":"California","lat":34.14671,"lng":-118.13895,"zip":"91101","miles_from_dt":26.35},{"city":"Pasadena","state_name":"California","lat":34.15018,"lng":-118.15286,"zip":"91124","miles_from_dt":26.38},{"city":"North Hollywood","state_name":"California","lat":34.15078,"lng":-118.36633,"zip":"91602","miles_from_dt":26.38},{"city":"Studio City","state_name":"California","lat":34.14452,"lng":-118.39382,"zip":"91614","miles_from_dt":26.38},{"city":"Pasadena","state_name":"California","lat":34.14831,"lng":-118.1431,"zip":"91102","miles_from_dt":26.39},{"city":"Yorba Linda","state_name":"California","lat":33.89109,"lng":-117.82219,"zip":"92885","miles_from_dt":26.4},{"city":"Irvine","state_name":"California","lat":33.69849,"lng":-117.8123,"zip":"92606","miles_from_dt":26.41},{"city":"Irvine","state_name":"California","lat":33.65984,"lng":-117.82457,"zip":"92612","miles_from_dt":26.42},{"city":"Irvine","state_name":"California","lat":33.69425,"lng":-117.81261,"zip":"92623","miles_from_dt":26.45},{"city":"Pasadena","state_name":"California","lat":34.14877,"lng":-118.14041,"zip":"91182","miles_from_dt":26.46},{"city":"Pasadena","state_name":"California","lat":34.15,"lng":-118.146,"zip":"91199","miles_from_dt":26.46},{"city":"Pacific Palisades","state_name":"California","lat":34.08066,"lng":-118.54459,"zip":"90272","miles_from_dt":26.46},{"city":"Glendale","state_name":"California","lat":34.16003,"lng":-118.21322,"zip":"91226","miles_from_dt":26.46},{"city":"Glendale","state_name":"California","lat":34.16076,"lng":-118.21311,"zip":"91206","miles_from_dt":26.51},{"city":"Pasadena","state_name":"California","lat":34.15103,"lng":-118.14394,"zip":"91188","miles_from_dt":26.56},{"city":"Arcadia","state_name":"California","lat":34.126,"lng":-118.055,"zip":"91077","miles_from_dt":26.73},{"city":"Glendale","state_name":"California","lat":34.16533,"lng":-118.28942,"zip":"91221","miles_from_dt":26.73},{"city":"Pasadena","state_name":"California","lat":34.15594,"lng":-118.15429,"zip":"91110","miles_from_dt":26.74},{"city":"Orange","state_name":"California","lat":33.81443,"lng":-117.79617,"zip":"92867","miles_from_dt":26.86},{"city":"West Covina","state_name":"California","lat":34.02586,"lng":-117.89989,"zip":"91792","miles_from_dt":26.87},{"city":"Toluca Lake","state_name":"California","lat":34.15584,"lng":-118.37919,"zip":"91610","miles_from_dt":26.9},{"city":"Tustin","state_name":"California","lat":33.72833,"lng":-117.79753,"zip":"92782","miles_from_dt":26.9},{"city":"Glendale","state_name":"California","lat":34.16872,"lng":-118.24477,"zip":"91207","miles_from_dt":26.93},{"city":"Anaheim","state_name":"California","lat":33.851,"lng":-117.799,"zip":"92809","miles_from_dt":27.04},{"city":"Arcadia","state_name":"California","lat":34.12842,"lng":-118.04818,"zip":"91007","miles_from_dt":27.05},{"city":"Glendale","state_name":"California","lat":34.17041,"lng":-118.28902,"zip":"91201","miles_from_dt":27.08},{"city":"Pasadena","state_name":"California","lat":34.14702,"lng":-118.09272,"zip":"91117","miles_from_dt":27.19},{"city":"West Covina","state_name":"California","lat":34.06722,"lng":-117.93788,"zip":"91790","miles_from_dt":27.22},{"city":"Burbank","state_name":"California","lat":34.16911,"lng":-118.3366,"zip":"91523","miles_from_dt":27.29},{"city":"Orange","state_name":"California","lat":33.80266,"lng":-117.78669,"zip":"92859","miles_from_dt":27.34},{"city":"Burbank","state_name":"California","lat":34.17134,"lng":-118.32384,"zip":"91506","miles_from_dt":27.34},{"city":"Pasadena","state_name":"California","lat":34.16707,"lng":-118.16472,"zip":"91109","miles_from_dt":27.36},{"city":"Burbank","state_name":"California","lat":34.16869,"lng":-118.3478,"zip":"91507","miles_from_dt":27.37},{"city":"Pasadena","state_name":"California","lat":34.16738,"lng":-118.16446,"zip":"91103","miles_from_dt":27.39},{"city":"Sherman Oaks","state_name":"California","lat":34.14924,"lng":-118.43239,"zip":"91423","miles_from_dt":27.4},{"city":"Pasadena","state_name":"California","lat":34.14992,"lng":-118.0886,"zip":"91121","miles_from_dt":27.46},{"city":"Anaheim","state_name":"California","lat":33.85122,"lng":-117.79146,"zip":"92817","miles_from_dt":27.47},{"city":"Anaheim","state_name":"California","lat":33.85001,"lng":-117.78946,"zip":"92807","miles_from_dt":27.57},{"city":"Baldwin Park","state_name":"California","lat":34.09627,"lng":-117.96855,"zip":"91706","miles_from_dt":27.61},{"city":"Yorba Linda","state_name":"California","lat":33.89517,"lng":-117.80154,"zip":"92886","miles_from_dt":27.62},{"city":"Burbank","state_name":"California","lat":34.17684,"lng":-118.30936,"zip":"91502","miles_from_dt":27.62},{"city":"North Hollywood","state_name":"California","lat":34.16827,"lng":-118.37222,"zip":"91601","miles_from_dt":27.63},{"city":"West Covina","state_name":"California","lat":34.06747,"lng":-117.92776,"zip":"91793","miles_from_dt":27.64},{"city":"Burbank","state_name":"California","lat":34.17328,"lng":-118.34591,"zip":"91510","miles_from_dt":27.66},{"city":"Newport Coast","state_name":"California","lat":33.59571,"lng":-117.83069,"zip":"92657","miles_from_dt":27.79},{"city":"Burbank","state_name":"California","lat":34.17583,"lng":-118.34692,"zip":"91505","miles_from_dt":27.85},{"city":"Glendale","state_name":"California","lat":34.18221,"lng":-118.26761,"zip":"91202","miles_from_dt":27.85},{"city":"Burbank","state_name":"California","lat":34.18067,"lng":-118.30753,"zip":"91503","miles_from_dt":27.87},{"city":"Sherman Oaks","state_name":"California","lat":34.15111,"lng":-118.44833,"zip":"91495","miles_from_dt":27.87},{"city":"Irvine","state_name":"California","lat":33.6879,"lng":-117.7889,"zip":"92604","miles_from_dt":27.88},{"city":"Valley Village","state_name":"California","lat":34.16499,"lng":-118.40356,"zip":"91617","miles_from_dt":27.89},{"city":"Valley Village","state_name":"California","lat":34.16633,"lng":-118.39982,"zip":"91607","miles_from_dt":27.92},{"city":"North Hollywood","state_name":"California","lat":34.17207,"lng":-118.37692,"zip":"91603","miles_from_dt":27.95},{"city":"Sherman Oaks","state_name":"California","lat":34.14716,"lng":-118.46311,"zip":"91403","miles_from_dt":27.96},{"city":"Pasadena","state_name":"California","lat":34.16836,"lng":-118.12644,"zip":"91114","miles_from_dt":27.98},{"city":"Pasadena","state_name":"California","lat":34.16766,"lng":-118.12341,"zip":"91104","miles_from_dt":27.98},{"city":"Walnut","state_name":"California","lat":34.0137,"lng":-117.86372,"zip":"91788","miles_from_dt":28.01},{"city":"Arcadia","state_name":"California","lat":34.1352,"lng":-118.02667,"zip":"91006","miles_from_dt":28.04},{"city":"Pasadena","state_name":"California","lat":34.15919,"lng":-118.08688,"zip":"91107","miles_from_dt":28.1},{"city":"Arcadia","state_name":"California","lat":34.1411,"lng":-118.029,"zip":"91066","miles_from_dt":28.34},{"city":"Brea","state_name":"California","lat":33.92536,"lng":-117.80024,"zip":"92823","miles_from_dt":28.36},{"city":"Glendale","state_name":"California","lat":34.19333,"lng":-118.23839,"zip":"91208","miles_from_dt":28.64},{"city":"Walnut","state_name":"California","lat":34.01858,"lng":-117.85408,"zip":"91789","miles_from_dt":28.65},{"city":"Burbank","state_name":"California","lat":34.19045,"lng":-118.3259,"zip":"91526","miles_from_dt":28.66},{"city":"West Covina","state_name":"California","lat":34.06134,"lng":-117.89425,"zip":"91791","miles_from_dt":28.72},{"city":"Burbank","state_name":"California","lat":34.19119,"lng":-118.32848,"zip":"91508","miles_from_dt":28.73},{"city":"Orange","state_name":"California","lat":33.79479,"lng":-117.7621,"zip":"92869","miles_from_dt":28.73},{"city":"Burbank","state_name":"California","lat":34.19469,"lng":-118.29431,"zip":"91501","miles_from_dt":28.77},{"city":"Irvine","state_name":"California","lat":33.62927,"lng":-117.79408,"zip":"92603","miles_from_dt":28.78},{"city":"Sierra Madre","state_name":"California","lat":34.1575,"lng":-118.0512,"zip":"91025","miles_from_dt":28.78},{"city":"Van Nuys","state_name":"California","lat":34.16319,"lng":-118.45661,"zip":"91496","miles_from_dt":28.82},{"city":"Sherman Oaks","state_name":"California","lat":34.16436,"lng":-118.45835,"zip":"91413","miles_from_dt":28.93},{"city":"Encino","state_name":"California","lat":34.15219,"lng":-118.49053,"zip":"91436","miles_from_dt":28.95},{"city":"Monrovia","state_name":"California","lat":34.13144,"lng":-117.9873,"zip":"91017","miles_from_dt":28.98},{"city":"Altadena","state_name":"California","lat":34.18505,"lng":-118.13022,"zip":"91003","miles_from_dt":29.03},{"city":"North Hollywood","state_name":"California","lat":34.1842,"lng":-118.39605,"zip":"91616","miles_from_dt":29.04},{"city":"Van Nuys","state_name":"California","lat":34.17569,"lng":-118.43016,"zip":"91408","miles_from_dt":29.07},{"city":"North Hollywood","state_name":"California","lat":34.18655,"lng":-118.38867,"zip":"91606","miles_from_dt":29.09},{"city":"North Hollywood","state_name":"California","lat":34.18827,"lng":-118.38678,"zip":"91609","miles_from_dt":29.17},{"city":"North Hollywood","state_name":"California","lat":34.18647,"lng":-118.39575,"zip":"91611","miles_from_dt":29.19},{"city":"North Hollywood","state_name":"California","lat":34.18655,"lng":-118.39689,"zip":"91612","miles_from_dt":29.21},{"city":"Van Nuys","state_name":"California","lat":34.1775,"lng":-118.43194,"zip":"91404","miles_from_dt":29.22},{"city":"Van Nuys","state_name":"California","lat":34.17801,"lng":-118.43183,"zip":"91401","miles_from_dt":29.25},{"city":"Diamond Bar","state_name":"California","lat":33.98725,"lng":-117.81473,"zip":"91765","miles_from_dt":29.42},{"city":"Irvine","state_name":"California","lat":33.70661,"lng":-117.75695,"zip":"92620","miles_from_dt":29.43},{"city":"Avalon","state_name":"California","lat":33.3765,"lng":-118.43678,"zip":"90704","miles_from_dt":29.49},{"city":"Irvine","state_name":"California","lat":33.6699,"lng":-117.76458,"zip":"92619","miles_from_dt":29.54},{"city":"Altadena","state_name":"California","lat":34.19522,"lng":-118.13866,"zip":"91001","miles_from_dt":29.59},{"city":"East Irvine","state_name":"California","lat":33.67946,"lng":-117.76086,"zip":"92650","miles_from_dt":29.59},{"city":"La Canada Flintridge","state_name":"California","lat":34.20377,"lng":-118.19119,"zip":"91012","miles_from_dt":29.6},{"city":"Montrose","state_name":"California","lat":34.20693,"lng":-118.22532,"zip":"91021","miles_from_dt":29.62},{"city":"Sierra Madre","state_name":"California","lat":34.17177,"lng":-118.04654,"zip":"91024","miles_from_dt":29.79},{"city":"Monrovia","state_name":"California","lat":34.15246,"lng":-118.00065,"zip":"91016","miles_from_dt":29.81},{"city":"Encino","state_name":"California","lat":34.15501,"lng":-118.51595,"zip":"91426","miles_from_dt":29.82},{"city":"Van Nuys","state_name":"California","lat":34.17853,"lng":-118.45956,"zip":"91411","miles_from_dt":29.86},{"city":"Topanga","state_name":"California","lat":34.09725,"lng":-118.6125,"zip":"90290","miles_from_dt":29.86},{"city":"Verdugo City","state_name":"California","lat":34.2117,"lng":-118.24092,"zip":"91046","miles_from_dt":29.9},{"city":"Montrose","state_name":"California","lat":34.21144,"lng":-118.23065,"zip":"91020","miles_from_dt":29.91},{"city":"Covina","state_name":"California","lat":34.09731,"lng":-117.90612,"zip":"91722","miles_from_dt":29.98}],"targetCityZipCode":"90744","targetCityState":"California"},"__N_SSG":true}