{"pageProps":{"stateName":"California","cityName":"wilton","nearbyCities":[{"city":"Elk Grove","state_name":"California","lat":38.43203,"lng":-121.30506,"zip":"95624","miles_from_dt":5.18},{"city":"Herald","state_name":"California","lat":38.33969,"lng":-121.11481,"zip":"95638","miles_from_dt":6.99},{"city":"Sacramento","state_name":"California","lat":38.49415,"lng":-121.27229,"zip":"95830","miles_from_dt":7.19},{"city":"Elk Grove","state_name":"California","lat":38.40435,"lng":-121.37531,"zip":"95759","miles_from_dt":8.46},{"city":"Galt","state_name":"California","lat":38.27705,"lng":-121.26128,"zip":"95632","miles_from_dt":8.68},{"city":"Sacramento","state_name":"California","lat":38.48759,"lng":-121.33326,"zip":"95829","miles_from_dt":8.71},{"city":"Sloughhouse","state_name":"California","lat":38.51018,"lng":-121.09894,"zip":"95683","miles_from_dt":10.11},{"city":"Mather","state_name":"California","lat":38.54976,"lng":-121.27898,"zip":"95655","miles_from_dt":10.92},{"city":"Sacramento","state_name":"California","lat":38.48943,"lng":-121.39598,"zip":"95828","miles_from_dt":11.44},{"city":"Sacramento","state_name":"California","lat":38.55151,"lng":-121.3253,"zip":"95827","miles_from_dt":12.01},{"city":"Rancho Cordova","state_name":"California","lat":38.5735,"lng":-121.19854,"zip":"95742","miles_from_dt":12.12},{"city":"Elk Grove","state_name":"California","lat":38.42932,"lng":-121.44603,"zip":"95758","miles_from_dt":12.47},{"city":"Elk Grove","state_name":"California","lat":38.33886,"lng":-121.43643,"zip":"95757","miles_from_dt":12.47},{"city":"Sacramento","state_name":"California","lat":38.508,"lng":-121.41678,"zip":"95813","miles_from_dt":13.09},{"city":"Sacramento","state_name":"California","lat":38.47473,"lng":-121.44266,"zip":"95823","miles_from_dt":13.2},{"city":"Sacramento","state_name":"California","lat":38.47658,"lng":-121.44271,"zip":"94205","miles_from_dt":13.25},{"city":"Sacramento","state_name":"California","lat":38.47447,"lng":-121.44401,"zip":"94230","miles_from_dt":13.26},{"city":"Sacramento","state_name":"California","lat":38.54554,"lng":-121.37885,"zip":"95826","miles_from_dt":13.32},{"city":"Sacramento","state_name":"California","lat":38.47736,"lng":-121.44416,"zip":"94283","miles_from_dt":13.34},{"city":"Rancho Cordova","state_name":"California","lat":38.58882,"lng":-121.30068,"zip":"95741","miles_from_dt":13.84},{"city":"Acampo","state_name":"California","lat":38.19779,"lng":-121.23603,"zip":"95220","miles_from_dt":13.87},{"city":"Sacramento","state_name":"California","lat":38.49482,"lng":-121.44957,"zip":"94206","miles_from_dt":14.13},{"city":"Sacramento","state_name":"California","lat":38.51746,"lng":-121.44147,"zip":"95824","miles_from_dt":14.57},{"city":"Rancho Cordova","state_name":"California","lat":38.60461,"lng":-121.27963,"zip":"95670","miles_from_dt":14.58},{"city":"Hood","state_name":"California","lat":38.39202,"lng":-121.49599,"zip":"95639","miles_from_dt":15.01},{"city":"Sacramento","state_name":"California","lat":38.53491,"lng":-121.4442,"zip":"95820","miles_from_dt":15.39},{"city":"Sacramento","state_name":"California","lat":38.43979,"lng":-121.49888,"zip":"95832","miles_from_dt":15.42},{"city":"Sacramento","state_name":"California","lat":38.58512,"lng":-121.37655,"zip":"95864","miles_from_dt":15.43},{"city":"Ione","state_name":"California","lat":38.33922,"lng":-120.94024,"zip":"95640","miles_from_dt":15.71},{"city":"Clements","state_name":"California","lat":38.20678,"lng":-121.04615,"zip":"95227","miles_from_dt":16.24},{"city":"Sacramento","state_name":"California","lat":38.58868,"lng":-121.40725,"zip":"95865","miles_from_dt":16.6},{"city":"Sacramento","state_name":"California","lat":38.55057,"lng":-121.45713,"zip":"95817","miles_from_dt":16.61},{"city":"Sacramento","state_name":"California","lat":38.56816,"lng":-121.43772,"zip":"95819","miles_from_dt":16.64},{"city":"Woodbridge","state_name":"California","lat":38.16811,"lng":-121.31011,"zip":"95258","miles_from_dt":16.64},{"city":"Sacramento","state_name":"California","lat":38.5901,"lng":-121.40644,"zip":"95825","miles_from_dt":16.65},{"city":"Sacramento","state_name":"California","lat":38.58945,"lng":-121.40784,"zip":"95866","miles_from_dt":16.66},{"city":"Carmichael","state_name":"California","lat":38.62531,"lng":-121.32742,"zip":"95609","miles_from_dt":16.7},{"city":"Carmichael","state_name":"California","lat":38.62611,"lng":-121.32886,"zip":"95608","miles_from_dt":16.78},{"city":"Sacramento","state_name":"California","lat":38.51273,"lng":-121.49556,"zip":"95822","miles_from_dt":16.92},{"city":"Sacramento","state_name":"California","lat":38.60833,"lng":-121.38169,"zip":"95860","miles_from_dt":16.93},{"city":"Lockeford","state_name":"California","lat":38.15953,"lng":-121.14845,"zip":"95237","miles_from_dt":16.93},{"city":"Victor","state_name":"California","lat":38.14725,"lng":-121.19525,"zip":"95253","miles_from_dt":17.38},{"city":"Fair Oaks","state_name":"California","lat":38.65212,"lng":-121.2543,"zip":"95628","miles_from_dt":17.59},{"city":"Lodi","state_name":"California","lat":38.15244,"lng":-121.30635,"zip":"95241","miles_from_dt":17.62},{"city":"Sacramento","state_name":"California","lat":38.56443,"lng":-121.46914,"zip":"94299","miles_from_dt":17.72},{"city":"Sacramento","state_name":"California","lat":38.62541,"lng":-121.38479,"zip":"95821","miles_from_dt":18.03},{"city":"Sacramento","state_name":"California","lat":38.57302,"lng":-121.46736,"zip":"94249","miles_from_dt":18.04},{"city":"Sacramento","state_name":"California","lat":38.57555,"lng":-121.46543,"zip":"95816","miles_from_dt":18.08},{"city":"Sacramento","state_name":"California","lat":38.49599,"lng":-121.52948,"zip":"95831","miles_from_dt":18.11},{"city":"Sacramento","state_name":"California","lat":38.57426,"lng":-121.46893,"zip":"94278","miles_from_dt":18.16},{"city":"Sacramento","state_name":"California","lat":38.553,"lng":-121.49737,"zip":"94297","miles_from_dt":18.45},{"city":"Sacramento","state_name":"California","lat":38.55478,"lng":-121.49562,"zip":"94293","miles_from_dt":18.45},{"city":"Sacramento","state_name":"California","lat":38.55645,"lng":-121.49421,"zip":"94294","miles_from_dt":18.45},{"city":"Sacramento","state_name":"California","lat":38.55497,"lng":-121.49628,"zip":"94232","miles_from_dt":18.48},{"city":"Sacramento","state_name":"California","lat":38.55548,"lng":-121.49654,"zip":"94269","miles_from_dt":18.51},{"city":"Sacramento","state_name":"California","lat":38.55579,"lng":-121.49669,"zip":"95818","miles_from_dt":18.53},{"city":"Sacramento","state_name":"California","lat":38.55651,"lng":-121.49648,"zip":"94239","miles_from_dt":18.55},{"city":"Sacramento","state_name":"California","lat":38.55232,"lng":-121.50072,"zip":"94285","miles_from_dt":18.57},{"city":"Sacramento","state_name":"California","lat":38.55543,"lng":-121.49926,"zip":"94290","miles_from_dt":18.63},{"city":"Sacramento","state_name":"California","lat":38.55668,"lng":-121.49807,"zip":"95894","miles_from_dt":18.63},{"city":"Sacramento","state_name":"California","lat":38.5532,"lng":-121.50148,"zip":"94284","miles_from_dt":18.64},{"city":"Sacramento","state_name":"California","lat":38.60559,"lng":-121.44143,"zip":"95852","miles_from_dt":18.67},{"city":"Sacramento","state_name":"California","lat":38.60282,"lng":-121.44588,"zip":"94204","miles_from_dt":18.68},{"city":"Sacramento","state_name":"California","lat":38.55905,"lng":-121.49722,"zip":"94291","miles_from_dt":18.69},{"city":"Sacramento","state_name":"California","lat":38.55871,"lng":-121.49752,"zip":"94259","miles_from_dt":18.69},{"city":"Courtland","state_name":"California","lat":38.31113,"lng":-121.54595,"zip":"95615","miles_from_dt":18.72},{"city":"Sacramento","state_name":"California","lat":38.60544,"lng":-121.44497,"zip":"95815","miles_from_dt":18.79},{"city":"Sacramento","state_name":"California","lat":38.6081,"lng":-121.44154,"zip":"95851","miles_from_dt":18.81},{"city":"Sacramento","state_name":"California","lat":38.6073,"lng":-121.44317,"zip":"95853","miles_from_dt":18.82},{"city":"Folsom","state_name":"California","lat":38.66558,"lng":-121.141,"zip":"95630","miles_from_dt":18.91},{"city":"Plymouth","state_name":"California","lat":38.49522,"lng":-120.89157,"zip":"95669","miles_from_dt":19},{"city":"Sacramento","state_name":"California","lat":38.58169,"lng":-121.48869,"zip":"94207","miles_from_dt":19.3},{"city":"Sacramento","state_name":"California","lat":38.66031,"lng":-121.34812,"zip":"95841","miles_from_dt":19.35},{"city":"Sacramento","state_name":"California","lat":38.58162,"lng":-121.4915,"zip":"94250","miles_from_dt":19.41},{"city":"Sacramento","state_name":"California","lat":38.57092,"lng":-121.50291,"zip":"94296","miles_from_dt":19.43},{"city":"Sacramento","state_name":"California","lat":38.5828,"lng":-121.49057,"zip":"94267","miles_from_dt":19.43},{"city":"Sacramento","state_name":"California","lat":38.58371,"lng":-121.49023,"zip":"95840","miles_from_dt":19.45},{"city":"Folsom","state_name":"California","lat":38.67818,"lng":-121.17437,"zip":"95763","miles_from_dt":19.45},{"city":"Sacramento","state_name":"California","lat":38.5832,"lng":-121.49086,"zip":"94236","miles_from_dt":19.46},{"city":"Sacramento","state_name":"California","lat":38.58246,"lng":-121.49182,"zip":"94268","miles_from_dt":19.46},{"city":"Sacramento","state_name":"California","lat":38.58321,"lng":-121.49129,"zip":"94271","miles_from_dt":19.48},{"city":"Sacramento","state_name":"California","lat":38.58521,"lng":-121.48958,"zip":"94277","miles_from_dt":19.5},{"city":"Sacramento","state_name":"California","lat":38.58219,"lng":-121.49289,"zip":"94288","miles_from_dt":19.5},{"city":"Sacramento","state_name":"California","lat":38.58064,"lng":-121.49488,"zip":"95814","miles_from_dt":19.51},{"city":"Sacramento","state_name":"California","lat":38.58381,"lng":-121.49215,"zip":"94262","miles_from_dt":19.54},{"city":"Wallace","state_name":"California","lat":38.20323,"lng":-120.95857,"zip":"95254","miles_from_dt":19.56},{"city":"Sacramento","state_name":"California","lat":38.58232,"lng":-121.49447,"zip":"94280","miles_from_dt":19.57},{"city":"Sacramento","state_name":"California","lat":38.58354,"lng":-121.49338,"zip":"94209","miles_from_dt":19.58},{"city":"Sacramento","state_name":"California","lat":38.58508,"lng":-121.49166,"zip":"94263","miles_from_dt":19.58},{"city":"Sacramento","state_name":"California","lat":38.58508,"lng":-121.49197,"zip":"94254","miles_from_dt":19.59},{"city":"Sacramento","state_name":"California","lat":38.58407,"lng":-121.49328,"zip":"94295","miles_from_dt":19.6},{"city":"Lodi","state_name":"California","lat":38.1177,"lng":-121.1627,"zip":"95240","miles_from_dt":19.61},{"city":"Sacramento","state_name":"California","lat":38.58358,"lng":-121.4943,"zip":"94256","miles_from_dt":19.62},{"city":"Sacramento","state_name":"California","lat":38.58435,"lng":-121.49376,"zip":"94203","miles_from_dt":19.63},{"city":"Sacramento","state_name":"California","lat":38.58708,"lng":-121.49081,"zip":"94289","miles_from_dt":19.63},{"city":"Sacramento","state_name":"California","lat":38.58193,"lng":-121.49635,"zip":"95812","miles_from_dt":19.63},{"city":"Sacramento","state_name":"California","lat":38.58402,"lng":-121.49442,"zip":"94298","miles_from_dt":19.64},{"city":"Sacramento","state_name":"California","lat":38.58499,"lng":-121.49367,"zip":"94261","miles_from_dt":19.65},{"city":"Clarksburg","state_name":"California","lat":38.38644,"lng":-121.58118,"zip":"95612","miles_from_dt":19.65},{"city":"Sacramento","state_name":"California","lat":38.58486,"lng":-121.49372,"zip":"95867","miles_from_dt":19.65},{"city":"Sacramento","state_name":"California","lat":38.58761,"lng":-121.49077,"zip":"95811","miles_from_dt":19.65},{"city":"Sacramento","state_name":"California","lat":38.58547,"lng":-121.49331,"zip":"94237","miles_from_dt":19.66},{"city":"Sacramento","state_name":"California","lat":38.58452,"lng":-121.49449,"zip":"94282","miles_from_dt":19.67},{"city":"Sacramento","state_name":"California","lat":38.58719,"lng":-121.49154,"zip":"94245","miles_from_dt":19.67},{"city":"Sacramento","state_name":"California","lat":38.5858,"lng":-121.49353,"zip":"94287","miles_from_dt":19.68},{"city":"Sacramento","state_name":"California","lat":38.58646,"lng":-121.49303,"zip":"94248","miles_from_dt":19.69},{"city":"Sacramento","state_name":"California","lat":38.58447,"lng":-121.49525,"zip":"94235","miles_from_dt":19.69},{"city":"Sacramento","state_name":"California","lat":38.58481,"lng":-121.49489,"zip":"94208","miles_from_dt":19.7},{"city":"Sacramento","state_name":"California","lat":38.58529,"lng":-121.49479,"zip":"94240","miles_from_dt":19.71},{"city":"Sacramento","state_name":"California","lat":38.58528,"lng":-121.49496,"zip":"94258","miles_from_dt":19.72},{"city":"Sacramento","state_name":"California","lat":38.58568,"lng":-121.49456,"zip":"94279","miles_from_dt":19.72},{"city":"Sacramento","state_name":"California","lat":38.58712,"lng":-121.49327,"zip":"94257","miles_from_dt":19.73},{"city":"Sacramento","state_name":"California","lat":38.58606,"lng":-121.49445,"zip":"94234","miles_from_dt":19.73},{"city":"Sacramento","state_name":"California","lat":38.58645,"lng":-121.49408,"zip":"94274","miles_from_dt":19.74},{"city":"Sacramento","state_name":"California","lat":38.58643,"lng":-121.49504,"zip":"94247","miles_from_dt":19.77},{"city":"Sacramento","state_name":"California","lat":38.58628,"lng":-121.49546,"zip":"94211","miles_from_dt":19.78},{"city":"Sacramento","state_name":"California","lat":38.5862,"lng":-121.49532,"zip":"94252","miles_from_dt":19.78},{"city":"Sacramento","state_name":"California","lat":38.58712,"lng":-121.49448,"zip":"94273","miles_from_dt":19.78},{"city":"Sacramento","state_name":"California","lat":38.588,"lng":-121.49379,"zip":"94244","miles_from_dt":19.79},{"city":"Sacramento","state_name":"California","lat":38.58712,"lng":-121.49513,"zip":"94229","miles_from_dt":19.81},{"city":"Drytown","state_name":"California","lat":38.44074,"lng":-120.85702,"zip":"95699","miles_from_dt":19.89},{"city":"Shingle Springs","state_name":"California","lat":38.60537,"lng":-120.96175,"zip":"95682","miles_from_dt":19.97},{"city":"Orangevale","state_name":"California","lat":38.68917,"lng":-121.21988,"zip":"95662","miles_from_dt":20.05},{"city":"Thornton","state_name":"California","lat":38.19039,"lng":-121.48543,"zip":"95686","miles_from_dt":20.37},{"city":"Lodi","state_name":"California","lat":38.13204,"lng":-121.38875,"zip":"95242","miles_from_dt":20.55},{"city":"Citrus Heights","state_name":"California","lat":38.69494,"lng":-121.27219,"zip":"95610","miles_from_dt":20.64},{"city":"Mcclellan","state_name":"California","lat":38.66265,"lng":-121.40079,"zip":"95652","miles_from_dt":20.7},{"city":"Represa","state_name":"California","lat":38.69529,"lng":-121.15671,"zip":"95671","miles_from_dt":20.75},{"city":"West Sacramento","state_name":"California","lat":38.54078,"lng":-121.557,"zip":"95799","miles_from_dt":20.76},{"city":"Sacramento","state_name":"California","lat":38.58071,"lng":-121.52656,"zip":"95899","miles_from_dt":20.85},{"city":"Sacramento","state_name":"California","lat":38.64708,"lng":-121.44312,"zip":"95838","miles_from_dt":20.99},{"city":"Citrus Heights","state_name":"California","lat":38.69551,"lng":-121.30862,"zip":"95621","miles_from_dt":21.05},{"city":"Sacramento","state_name":"California","lat":38.687,"lng":-121.34889,"zip":"95842","miles_from_dt":21.1},{"city":"El Dorado Hills","state_name":"California","lat":38.67694,"lng":-121.05755,"zip":"95762","miles_from_dt":21.12},{"city":"North Highlands","state_name":"California","lat":38.67883,"lng":-121.3805,"zip":"95660","miles_from_dt":21.21},{"city":"Amador City","state_name":"California","lat":38.42713,"lng":-120.82997,"zip":"95601","miles_from_dt":21.23},{"city":"Citrus Heights","state_name":"California","lat":38.707,"lng":-121.27797,"zip":"95611","miles_from_dt":21.51},{"city":"West Sacramento","state_name":"California","lat":38.59289,"lng":-121.53929,"zip":"95605","miles_from_dt":21.91},{"city":"Sacramento","state_name":"California","lat":38.61529,"lng":-121.51558,"zip":"95833","miles_from_dt":21.93},{"city":"West Sacramento","state_name":"California","lat":38.57492,"lng":-121.56186,"zip":"95798","miles_from_dt":22.19},{"city":"Ryde","state_name":"California","lat":38.24142,"lng":-121.57816,"zip":"95680","miles_from_dt":22.3},{"city":"Campo Seco","state_name":"California","lat":38.23377,"lng":-120.86232,"zip":"95226","miles_from_dt":22.49},{"city":"Walnut Grove","state_name":"California","lat":38.23429,"lng":-121.58672,"zip":"95690","miles_from_dt":22.94},{"city":"Martell","state_name":"California","lat":38.36681,"lng":-120.79462,"zip":"95654","miles_from_dt":23.17},{"city":"Antelope","state_name":"California","lat":38.71532,"lng":-121.36366,"zip":"95843","miles_from_dt":23.2},{"city":"Sacramento","state_name":"California","lat":38.64207,"lng":-121.51967,"zip":"95834","miles_from_dt":23.38},{"city":"Burson","state_name":"California","lat":38.20399,"lng":-120.86488,"zip":"95225","miles_from_dt":23.49},{"city":"Roseville","state_name":"California","lat":38.74129,"lng":-121.24925,"zip":"95661","miles_from_dt":23.7},{"city":"Stockton","state_name":"California","lat":38.04897,"lng":-121.22684,"zip":"95212","miles_from_dt":24.11},{"city":"Rio Linda","state_name":"California","lat":38.69029,"lng":-121.46603,"zip":"95673","miles_from_dt":24.15},{"city":"Granite Bay","state_name":"California","lat":38.75009,"lng":-121.16712,"zip":"95746","miles_from_dt":24.42},{"city":"Sutter Creek","state_name":"California","lat":38.42716,"lng":-120.76698,"zip":"95685","miles_from_dt":24.64},{"city":"El Dorado","state_name":"California","lat":38.6075,"lng":-120.84873,"zip":"95623","miles_from_dt":24.73},{"city":"Sacramento","state_name":"California","lat":38.67088,"lng":-121.52464,"zip":"95835","miles_from_dt":25.02},{"city":"Jackson","state_name":"California","lat":38.3434,"lng":-120.76398,"zip":"95642","miles_from_dt":25.03},{"city":"West Sacramento","state_name":"California","lat":38.62394,"lng":-121.58272,"zip":"95691","miles_from_dt":25.08},{"city":"Stockton","state_name":"California","lat":38.04717,"lng":-121.35121,"zip":"95209","miles_from_dt":25.27},{"city":"Roseville","state_name":"California","lat":38.76536,"lng":-121.28847,"zip":"95678","miles_from_dt":25.58},{"city":"Stockton","state_name":"California","lat":38.03215,"lng":-121.29782,"zip":"95210","miles_from_dt":25.63},{"city":"Rescue","state_name":"California","lat":38.72664,"lng":-120.99638,"zip":"95672","miles_from_dt":25.66},{"city":"Stockton","state_name":"California","lat":38.02598,"lng":-121.29727,"zip":"95296","miles_from_dt":26.04},{"city":"Valley Springs","state_name":"California","lat":38.15871,"lng":-120.84214,"zip":"95252","miles_from_dt":26.36},{"city":"Linden","state_name":"California","lat":38.04218,"lng":-121.03176,"zip":"95236","miles_from_dt":26.62},{"city":"Stockton","state_name":"California","lat":38.01899,"lng":-121.32225,"zip":"95269","miles_from_dt":26.77},{"city":"Isleton","state_name":"California","lat":38.15046,"lng":-121.60271,"zip":"95641","miles_from_dt":26.96},{"city":"Sacramento","state_name":"California","lat":38.70406,"lng":-121.53555,"zip":"95836","miles_from_dt":27.15},{"city":"Rocklin","state_name":"California","lat":38.79298,"lng":-121.23133,"zip":"95677","miles_from_dt":27.22},{"city":"Elverta","state_name":"California","lat":38.73378,"lng":-121.48898,"zip":"95626","miles_from_dt":27.34},{"city":"Roseville","state_name":"California","lat":38.77963,"lng":-121.36798,"zip":"95747","miles_from_dt":27.49},{"city":"Davis","state_name":"California","lat":38.54348,"lng":-121.6917,"zip":"95618","miles_from_dt":27.49},{"city":"Stockton","state_name":"California","lat":38.00382,"lng":-121.31904,"zip":"95267","miles_from_dt":27.76},{"city":"River Pines","state_name":"California","lat":38.54548,"lng":-120.74277,"zip":"95675","miles_from_dt":27.77},{"city":"Stockton","state_name":"California","lat":38.00242,"lng":-121.325,"zip":"95207","miles_from_dt":27.92},{"city":"Sacramento","state_name":"California","lat":38.68925,"lng":-121.59537,"zip":"95837","miles_from_dt":28.58},{"city":"Loomis","state_name":"California","lat":38.81339,"lng":-121.16831,"zip":"95650","miles_from_dt":28.75},{"city":"Pilot Hill","state_name":"California","lat":38.79755,"lng":-121.05136,"zip":"95664","miles_from_dt":28.99},{"city":"Davis","state_name":"California","lat":38.5477,"lng":-121.72218,"zip":"95617","miles_from_dt":29.13},{"city":"Dixon","state_name":"California","lat":38.40599,"lng":-121.75689,"zip":"95620","miles_from_dt":29.17},{"city":"Rocklin","state_name":"California","lat":38.81982,"lng":-121.27772,"zip":"95765","miles_from_dt":29.23},{"city":"Stockton","state_name":"California","lat":37.98078,"lng":-121.31198,"zip":"95211","miles_from_dt":29.25},{"city":"Diamond Springs","state_name":"California","lat":38.68218,"lng":-120.81401,"zip":"95619","miles_from_dt":29.42},{"city":"Mount Aukum","state_name":"California","lat":38.56338,"lng":-120.71493,"zip":"95656","miles_from_dt":29.63},{"city":"Stockton","state_name":"California","lat":37.97403,"lng":-121.31906,"zip":"95204","miles_from_dt":29.77},{"city":"Stockton","state_name":"California","lat":37.97084,"lng":-121.30788,"zip":"95297","miles_from_dt":29.89},{"city":"Fiddletown","state_name":"California","lat":38.51277,"lng":-120.6875,"zip":"95629","miles_from_dt":29.91}],"targetCityZipCode":"95693","targetCityState":"California"},"__N_SSG":true}