{"pageProps":{"stateName":"Mississippi","cityName":"big-creek","nearbyCities":[{"city":"Calhoun City","state_name":"Mississippi","lat":33.81815,"lng":-89.35158,"zip":"38916","miles_from_dt":7.24},{"city":"Gore Springs","state_name":"Mississippi","lat":33.74014,"lng":-89.52425,"zip":"38929","miles_from_dt":9.24},{"city":"Slate Spring","state_name":"Mississippi","lat":33.74056,"lng":-89.37111,"zip":"38955","miles_from_dt":10.1},{"city":"Derma","state_name":"Mississippi","lat":33.8558,"lng":-89.28404,"zip":"38839","miles_from_dt":10.4},{"city":"Coffeeville","state_name":"Mississippi","lat":33.93641,"lng":-89.64878,"zip":"38922","miles_from_dt":11.69},{"city":"Bruce","state_name":"Mississippi","lat":34.02807,"lng":-89.38957,"zip":"38915","miles_from_dt":12.06},{"city":"Pittsboro","state_name":"Mississippi","lat":33.97605,"lng":-89.28802,"zip":"38951","miles_from_dt":12.72},{"city":"Vardaman","state_name":"Mississippi","lat":33.88179,"lng":-89.19231,"zip":"38878","miles_from_dt":15.69},{"city":"Bellefontaine","state_name":"Mississippi","lat":33.65211,"lng":-89.33573,"zip":"39737","miles_from_dt":16.42},{"city":"Duck Hill","state_name":"Mississippi","lat":33.62917,"lng":-89.61961,"zip":"38925","miles_from_dt":18.52},{"city":"Banner","state_name":"Mississippi","lat":34.13774,"lng":-89.37836,"zip":"38913","miles_from_dt":19.46},{"city":"Water Valley","state_name":"Mississippi","lat":34.13486,"lng":-89.59257,"zip":"38965","miles_from_dt":20.02},{"city":"Grenada","state_name":"Mississippi","lat":33.76275,"lng":-89.79799,"zip":"38901","miles_from_dt":20.43},{"city":"Tie Plant","state_name":"Mississippi","lat":33.73882,"lng":-89.78941,"zip":"38960","miles_from_dt":20.61},{"city":"Walthall","state_name":"Mississippi","lat":33.60694,"lng":-89.27873,"zip":"39771","miles_from_dt":20.74},{"city":"Grenada","state_name":"Mississippi","lat":33.77883,"lng":-89.81228,"zip":"38902","miles_from_dt":20.86},{"city":"Eupora","state_name":"Mississippi","lat":33.58344,"lng":-89.30374,"zip":"39744","miles_from_dt":21.48},{"city":"Elliott","state_name":"Mississippi","lat":33.78008,"lng":-89.82708,"zip":"38926","miles_from_dt":21.65},{"city":"Paris","state_name":"Mississippi","lat":34.18542,"lng":-89.4151,"zip":"38949","miles_from_dt":22.29},{"city":"Mantee","state_name":"Mississippi","lat":33.70444,"lng":-89.10004,"zip":"39751","miles_from_dt":23.71},{"city":"Randolph","state_name":"Mississippi","lat":34.14325,"lng":-89.20167,"zip":"38864","miles_from_dt":24.42},{"city":"Tillatoba","state_name":"Mississippi","lat":33.96463,"lng":-89.8859,"zip":"38961","miles_from_dt":25.17},{"city":"Woodland","state_name":"Mississippi","lat":33.78517,"lng":-89.03239,"zip":"39776","miles_from_dt":25.45},{"city":"Houlka","state_name":"Mississippi","lat":34.04792,"lng":-89.06705,"zip":"38850","miles_from_dt":26.09},{"city":"Scobey","state_name":"Mississippi","lat":33.91821,"lng":-89.92325,"zip":"38953","miles_from_dt":26.62},{"city":"Stewart","state_name":"Mississippi","lat":33.47263,"lng":-89.45001,"zip":"39767","miles_from_dt":27.03},{"city":"Oakland","state_name":"Mississippi","lat":34.07635,"lng":-89.89364,"zip":"38948","miles_from_dt":28.64},{"city":"Houston","state_name":"Mississippi","lat":33.90763,"lng":-88.9637,"zip":"38851","miles_from_dt":28.94},{"city":"Mathiston","state_name":"Mississippi","lat":33.5198,"lng":-89.15427,"zip":"39752","miles_from_dt":29.74}],"targetCityZipCode":"38914","targetCityState":"Mississippi"},"__N_SSG":true}