{"pageProps":{"stateName":"Mississippi","cityName":"bogue-chitto","nearbyCities":[{"city":"Brookhaven","state_name":"Mississippi","lat":31.56548,"lng":-90.47762,"zip":"39601","miles_from_dt":8.91},{"city":"Brookhaven","state_name":"Mississippi","lat":31.57769,"lng":-90.4776,"zip":"39603","miles_from_dt":9.75},{"city":"Ruth","state_name":"Mississippi","lat":31.38778,"lng":-90.29838,"zip":"39662","miles_from_dt":9.99},{"city":"Summit","state_name":"Mississippi","lat":31.2853,"lng":-90.48857,"zip":"39666","miles_from_dt":10.63},{"city":"Brookhaven","state_name":"Mississippi","lat":31.59307,"lng":-90.46996,"zip":"39602","miles_from_dt":10.76},{"city":"Mccomb","state_name":"Mississippi","lat":31.24374,"lng":-90.45592,"zip":"39649","miles_from_dt":13.33},{"city":"Smithdale","state_name":"Mississippi","lat":31.32894,"lng":-90.68252,"zip":"39664","miles_from_dt":15.26},{"city":"McCall Creek","state_name":"Mississippi","lat":31.51498,"lng":-90.7143,"zip":"39647","miles_from_dt":16.09},{"city":"Fernwood","state_name":"Mississippi","lat":31.18432,"lng":-90.44859,"zip":"39635","miles_from_dt":17.44},{"city":"Mccomb","state_name":"Mississippi","lat":31.18611,"lng":-90.38804,"zip":"39648","miles_from_dt":17.78},{"city":"Jayess","state_name":"Mississippi","lat":31.35717,"lng":-90.17042,"zip":"39641","miles_from_dt":17.83},{"city":"Chatawa","state_name":"Mississippi","lat":31.16979,"lng":-90.47385,"zip":"39632","miles_from_dt":18.46},{"city":"Wesson","state_name":"Mississippi","lat":31.71492,"lng":-90.40764,"zip":"39191","miles_from_dt":19.35},{"city":"Monticello","state_name":"Mississippi","lat":31.53716,"lng":-90.13831,"zip":"39654","miles_from_dt":20.05},{"city":"Sontag","state_name":"Mississippi","lat":31.64125,"lng":-90.21404,"zip":"39665","miles_from_dt":20.09},{"city":"Magnolia","state_name":"Mississippi","lat":31.11034,"lng":-90.46701,"zip":"39652","miles_from_dt":22.53},{"city":"Bude","state_name":"Mississippi","lat":31.45939,"lng":-90.84544,"zip":"39630","miles_from_dt":22.97},{"city":"Meadville","state_name":"Mississippi","lat":31.46055,"lng":-90.86727,"zip":"39653","miles_from_dt":24.26},{"city":"Union Church","state_name":"Mississippi","lat":31.69126,"lng":-90.79126,"zip":"39668","miles_from_dt":26.35},{"city":"Silver Creek","state_name":"Mississippi","lat":31.58615,"lng":-90.02955,"zip":"39663","miles_from_dt":27.26},{"city":"Hazlehurst","state_name":"Mississippi","lat":31.83467,"lng":-90.46997,"zip":"39083","miles_from_dt":27.39},{"city":"Liberty","state_name":"Mississippi","lat":31.1485,"lng":-90.79399,"zip":"39645","miles_from_dt":28.15},{"city":"Osyka","state_name":"Mississippi","lat":31.02727,"lng":-90.50334,"zip":"39657","miles_from_dt":28.38},{"city":"Tylertown","state_name":"Mississippi","lat":31.1298,"lng":-90.12656,"zip":"39667","miles_from_dt":28.84},{"city":"Kokomo","state_name":"Mississippi","lat":31.24575,"lng":-90.01368,"zip":"39643","miles_from_dt":29.37}],"targetCityZipCode":"39629","targetCityState":"Mississippi"},"__N_SSG":true}