{"pageProps":{"stateName":"Mississippi","cityName":"bruce","nearbyCities":[{"city":"Pittsboro","state_name":"Mississippi","lat":33.97605,"lng":-89.28802,"zip":"38951","miles_from_dt":6.84},{"city":"Banner","state_name":"Mississippi","lat":34.13774,"lng":-89.37836,"zip":"38913","miles_from_dt":7.59},{"city":"Paris","state_name":"Mississippi","lat":34.18542,"lng":-89.4151,"zip":"38949","miles_from_dt":10.94},{"city":"Big Creek","state_name":"Mississippi","lat":33.86466,"lng":-89.46453,"zip":"38914","miles_from_dt":12.06},{"city":"Derma","state_name":"Mississippi","lat":33.8558,"lng":-89.28404,"zip":"38839","miles_from_dt":13.33},{"city":"Randolph","state_name":"Mississippi","lat":34.14325,"lng":-89.20167,"zip":"38864","miles_from_dt":13.38},{"city":"Water Valley","state_name":"Mississippi","lat":34.13486,"lng":-89.59257,"zip":"38965","miles_from_dt":13.77},{"city":"Calhoun City","state_name":"Mississippi","lat":33.81815,"lng":-89.35158,"zip":"38916","miles_from_dt":14.63},{"city":"Vardaman","state_name":"Mississippi","lat":33.88179,"lng":-89.19231,"zip":"38878","miles_from_dt":15.17},{"city":"Coffeeville","state_name":"Mississippi","lat":33.93641,"lng":-89.64878,"zip":"38922","miles_from_dt":16.17},{"city":"Houlka","state_name":"Mississippi","lat":34.04792,"lng":-89.06705,"zip":"38850","miles_from_dt":18.56},{"city":"Slate Spring","state_name":"Mississippi","lat":33.74056,"lng":-89.37111,"zip":"38955","miles_from_dt":19.84},{"city":"Gore Springs","state_name":"Mississippi","lat":33.74014,"lng":-89.52425,"zip":"38929","miles_from_dt":21.3},{"city":"Oxford","state_name":"Mississippi","lat":34.33114,"lng":-89.4825,"zip":"38655","miles_from_dt":21.56},{"city":"Taylor","state_name":"Mississippi","lat":34.29607,"lng":-89.62485,"zip":"38673","miles_from_dt":22.87},{"city":"Toccopola","state_name":"Mississippi","lat":34.30486,"lng":-89.1585,"zip":"38874","miles_from_dt":23.22},{"city":"Thaxton","state_name":"Mississippi","lat":34.33582,"lng":-89.2055,"zip":"38871","miles_from_dt":23.69},{"city":"Pontotoc","state_name":"Mississippi","lat":34.2167,"lng":-89.02738,"zip":"38863","miles_from_dt":24.5},{"city":"Memphis Stc","state_name":"Mississippi","lat":34.36481,"lng":-89.52665,"zip":"38675","miles_from_dt":24.5},{"city":"University","state_name":"Mississippi","lat":34.36402,"lng":-89.53859,"zip":"38677","miles_from_dt":24.68},{"city":"Houston","state_name":"Mississippi","lat":33.90763,"lng":-88.9637,"zip":"38851","miles_from_dt":25.83},{"city":"Bellefontaine","state_name":"Mississippi","lat":33.65211,"lng":-89.33573,"zip":"39737","miles_from_dt":26.1},{"city":"Algoma","state_name":"Mississippi","lat":34.17894,"lng":-88.96575,"zip":"38820","miles_from_dt":26.43},{"city":"Woodland","state_name":"Mississippi","lat":33.78517,"lng":-89.03239,"zip":"39776","miles_from_dt":26.49},{"city":"Van Vleet","state_name":"Mississippi","lat":33.91057,"lng":-88.93139,"zip":"38877","miles_from_dt":27.53},{"city":"Trebloc","state_name":"Mississippi","lat":33.91076,"lng":-88.93008,"zip":"38875","miles_from_dt":27.6},{"city":"Mantee","state_name":"Mississippi","lat":33.70444,"lng":-89.10004,"zip":"39751","miles_from_dt":27.83},{"city":"Tillatoba","state_name":"Mississippi","lat":33.96463,"lng":-89.8859,"zip":"38961","miles_from_dt":28.83},{"city":"Oakland","state_name":"Mississippi","lat":34.07635,"lng":-89.89364,"zip":"38948","miles_from_dt":29.11},{"city":"Walthall","state_name":"Mississippi","lat":33.60694,"lng":-89.27873,"zip":"39771","miles_from_dt":29.72},{"city":"Grenada","state_name":"Mississippi","lat":33.77883,"lng":-89.81228,"zip":"38902","miles_from_dt":29.75},{"city":"Grenada","state_name":"Mississippi","lat":33.76275,"lng":-89.79799,"zip":"38901","miles_from_dt":29.76},{"city":"Etta","state_name":"Mississippi","lat":34.44503,"lng":-89.24563,"zip":"38627","miles_from_dt":29.9}],"targetCityZipCode":"38915","targetCityState":"Mississippi"},"__N_SSG":true}