{"pageProps":{"stateName":"Mississippi","cityName":"como","nearbyCities":[{"city":"Senatobia","state_name":"Mississippi","lat":34.60109,"lng":-89.92505,"zip":"38668","miles_from_dt":8.27},{"city":"Independence","state_name":"Mississippi","lat":34.63309,"lng":-89.82378,"zip":"38638","miles_from_dt":8.29},{"city":"Sardis","state_name":"Mississippi","lat":34.42007,"lng":-89.92708,"zip":"38666","miles_from_dt":8.59},{"city":"Coldwater","state_name":"Mississippi","lat":34.70203,"lng":-89.93415,"zip":"38618","miles_from_dt":14.4},{"city":"Batesville","state_name":"Mississippi","lat":34.30375,"lng":-89.9581,"zip":"38606","miles_from_dt":16.25},{"city":"Arkabutla","state_name":"Mississippi","lat":34.69783,"lng":-90.00805,"zip":"38602","miles_from_dt":16.41},{"city":"Taylor","state_name":"Mississippi","lat":34.29607,"lng":-89.62485,"zip":"38673","miles_from_dt":18.88},{"city":"University","state_name":"Mississippi","lat":34.36402,"lng":-89.53859,"zip":"38677","miles_from_dt":19.39},{"city":"Memphis Stc","state_name":"Mississippi","lat":34.36481,"lng":-89.52665,"zip":"38675","miles_from_dt":19.95},{"city":"Sarah","state_name":"Mississippi","lat":34.58165,"lng":-90.16693,"zip":"38665","miles_from_dt":19.97},{"city":"Courtland","state_name":"Mississippi","lat":34.23206,"lng":-89.9156,"zip":"38620","miles_from_dt":20.01},{"city":"Waterford","state_name":"Mississippi","lat":34.5953,"lng":-89.48827,"zip":"38685","miles_from_dt":20.12},{"city":"Crenshaw","state_name":"Mississippi","lat":34.4528,"lng":-90.1731,"zip":"38621","miles_from_dt":20.2},{"city":"Abbeville","state_name":"Mississippi","lat":34.48146,"lng":-89.45166,"zip":"38601","miles_from_dt":21.52},{"city":"Hernando","state_name":"Mississippi","lat":34.79973,"lng":-90.00629,"zip":"38632","miles_from_dt":22.26},{"city":"Pope","state_name":"Mississippi","lat":34.19011,"lng":-89.89906,"zip":"38658","miles_from_dt":22.63},{"city":"Oxford","state_name":"Mississippi","lat":34.33114,"lng":-89.4825,"zip":"38655","miles_from_dt":23.32},{"city":"Mount Pleasant","state_name":"Mississippi","lat":34.73727,"lng":-89.50043,"zip":"38649","miles_from_dt":24.19},{"city":"Byhalia","state_name":"Mississippi","lat":34.85467,"lng":-89.67116,"zip":"38611","miles_from_dt":25.17},{"city":"Sledge","state_name":"Mississippi","lat":34.39527,"lng":-90.25492,"zip":"38628","miles_from_dt":25.76},{"city":"Holly Springs","state_name":"Mississippi","lat":34.7677,"lng":-89.47896,"zip":"38635","miles_from_dt":26.48},{"city":"Sledge","state_name":"Mississippi","lat":34.42815,"lng":-90.28899,"zip":"38670","miles_from_dt":27.02},{"city":"Nesbit","state_name":"Mississippi","lat":34.89172,"lng":-90.00359,"zip":"38651","miles_from_dt":27.99},{"city":"Enid","state_name":"Mississippi","lat":34.13394,"lng":-90.01827,"zip":"38927","miles_from_dt":28.32},{"city":"Holly Springs","state_name":"Mississippi","lat":34.77207,"lng":-89.44046,"zip":"38634","miles_from_dt":28.35},{"city":"Darling","state_name":"Mississippi","lat":34.36131,"lng":-90.29692,"zip":"38623","miles_from_dt":28.81},{"city":"Olive Branch","state_name":"Mississippi","lat":34.93635,"lng":-89.82409,"zip":"38654","miles_from_dt":29.19},{"city":"Water Valley","state_name":"Mississippi","lat":34.13486,"lng":-89.59257,"zip":"38965","miles_from_dt":29.3},{"city":"Crowder","state_name":"Mississippi","lat":34.16944,"lng":-90.13448,"zip":"38622","miles_from_dt":29.49},{"city":"Potts Camp","state_name":"Mississippi","lat":34.62073,"lng":-89.32065,"zip":"38659","miles_from_dt":29.8}],"targetCityZipCode":"38619","targetCityState":"Mississippi"},"__N_SSG":true}