{"pageProps":{"stateName":"Mississippi","cityName":"enterprise","nearbyCities":[{"city":"Stonewall","state_name":"Mississippi","lat":32.11918,"lng":-88.77628,"zip":"39363","miles_from_dt":6.99},{"city":"Pachuta","state_name":"Mississippi","lat":32.05507,"lng":-88.93419,"zip":"39347","miles_from_dt":10.58},{"city":"Meridian","state_name":"Mississippi","lat":32.33847,"lng":-88.79217,"zip":"39307","miles_from_dt":10.66},{"city":"Rose Hill","state_name":"Mississippi","lat":32.13632,"lng":-89.0283,"zip":"39356","miles_from_dt":10.8},{"city":"Chunky","state_name":"Mississippi","lat":32.34971,"lng":-88.92624,"zip":"39323","miles_from_dt":11.48},{"city":"Hickory","state_name":"Mississippi","lat":32.30399,"lng":-89.0046,"zip":"39332","miles_from_dt":11.51},{"city":"Meridian","state_name":"Mississippi","lat":32.36541,"lng":-88.70025,"zip":"39302","miles_from_dt":14.96},{"city":"Meridian","state_name":"Mississippi","lat":32.36429,"lng":-88.68699,"zip":"39304","miles_from_dt":15.39},{"city":"Meridian","state_name":"Mississippi","lat":32.27289,"lng":-88.59226,"zip":"39301","miles_from_dt":16.43},{"city":"Quitman","state_name":"Mississippi","lat":32.05808,"lng":-88.61965,"zip":"39355","miles_from_dt":16.76},{"city":"Paulding","state_name":"Mississippi","lat":32.00007,"lng":-89.03475,"zip":"39348","miles_from_dt":16.94},{"city":"Newton","state_name":"Mississippi","lat":32.28717,"lng":-89.12974,"zip":"39345","miles_from_dt":17.22},{"city":"Vossburg","state_name":"Mississippi","lat":31.93795,"lng":-88.90057,"zip":"39366","miles_from_dt":17.82},{"city":"Meridian","state_name":"Mississippi","lat":32.42443,"lng":-88.70486,"zip":"39303","miles_from_dt":18.21},{"city":"Marion","state_name":"Mississippi","lat":32.42566,"lng":-88.64968,"zip":"39342","miles_from_dt":20.05},{"city":"Meridian","state_name":"Mississippi","lat":32.46392,"lng":-88.72465,"zip":"39305","miles_from_dt":20.15},{"city":"Louin","state_name":"Mississippi","lat":32.11034,"lng":-89.23274,"zip":"39338","miles_from_dt":22.77},{"city":"Decatur","state_name":"Mississippi","lat":32.44563,"lng":-89.12173,"zip":"39327","miles_from_dt":23.26},{"city":"Little Rock","state_name":"Mississippi","lat":32.51447,"lng":-88.98528,"zip":"39337","miles_from_dt":23.33},{"city":"Shubuta","state_name":"Mississippi","lat":31.86357,"lng":-88.7409,"zip":"39360","miles_from_dt":23.75},{"city":"Heidelberg","state_name":"Mississippi","lat":31.85865,"lng":-89.00227,"zip":"39439","miles_from_dt":24.62},{"city":"Lawrence","state_name":"Mississippi","lat":32.29081,"lng":-89.27253,"zip":"39336","miles_from_dt":25.24},{"city":"Collinsville","state_name":"Mississippi","lat":32.56198,"lng":-88.87362,"zip":"39325","miles_from_dt":25.39},{"city":"Toomsuba","state_name":"Mississippi","lat":32.40597,"lng":-88.49617,"zip":"39364","miles_from_dt":25.68},{"city":"Bailey","state_name":"Mississippi","lat":32.56169,"lng":-88.74507,"zip":"39320","miles_from_dt":26.18},{"city":"Melvin","state_name":"Alabama","lat":31.96069,"lng":-88.44667,"zip":"36913","miles_from_dt":28.94},{"city":"Bay Springs","state_name":"Mississippi","lat":31.95953,"lng":-89.26745,"zip":"39422","miles_from_dt":29},{"city":"Sandersville","state_name":"Mississippi","lat":31.79291,"lng":-89.03579,"zip":"39477","miles_from_dt":29.56},{"city":"Daleville","state_name":"Mississippi","lat":32.59814,"lng":-88.67904,"zip":"39326","miles_from_dt":29.74},{"city":"Meridian","state_name":"Mississippi","lat":32.55417,"lng":-88.57422,"zip":"39309","miles_from_dt":29.83}],"targetCityZipCode":"39330","targetCityState":"Mississippi"},"__N_SSG":true}