{"pageProps":{"stateName":"Mississippi","cityName":"etta","nearbyCities":[{"city":"Thaxton","state_name":"Mississippi","lat":34.33582,"lng":-89.2055,"zip":"38871","miles_from_dt":7.87},{"city":"Myrtle","state_name":"Mississippi","lat":34.52776,"lng":-89.14165,"zip":"38650","miles_from_dt":8.23},{"city":"Toccopola","state_name":"Mississippi","lat":34.30486,"lng":-89.1585,"zip":"38874","miles_from_dt":10.87},{"city":"Abbeville","state_name":"Mississippi","lat":34.48146,"lng":-89.45166,"zip":"38601","miles_from_dt":12.03},{"city":"Potts Camp","state_name":"Mississippi","lat":34.62073,"lng":-89.32065,"zip":"38659","miles_from_dt":12.84},{"city":"Hickory Flat","state_name":"Mississippi","lat":34.64206,"lng":-89.19671,"zip":"38633","miles_from_dt":13.86},{"city":"Ecru","state_name":"Mississippi","lat":34.34943,"lng":-89.02237,"zip":"38841","miles_from_dt":14.36},{"city":"New Albany","state_name":"Mississippi","lat":34.48545,"lng":-88.99652,"zip":"38652","miles_from_dt":14.49},{"city":"Oxford","state_name":"Mississippi","lat":34.33114,"lng":-89.4825,"zip":"38655","miles_from_dt":15.65},{"city":"Memphis Stc","state_name":"Mississippi","lat":34.36481,"lng":-89.52665,"zip":"38675","miles_from_dt":16.98},{"city":"Waterford","state_name":"Mississippi","lat":34.5953,"lng":-89.48827,"zip":"38685","miles_from_dt":17.29},{"city":"University","state_name":"Mississippi","lat":34.36402,"lng":-89.53859,"zip":"38677","miles_from_dt":17.64},{"city":"Blue Mountain","state_name":"Mississippi","lat":34.65357,"lng":-89.02637,"zip":"38610","miles_from_dt":19.05},{"city":"Pontotoc","state_name":"Mississippi","lat":34.2167,"lng":-89.02738,"zip":"38863","miles_from_dt":20.09},{"city":"Paris","state_name":"Mississippi","lat":34.18542,"lng":-89.4151,"zip":"38949","miles_from_dt":20.35},{"city":"Randolph","state_name":"Mississippi","lat":34.14325,"lng":-89.20167,"zip":"38864","miles_from_dt":20.95},{"city":"Blue Springs","state_name":"Mississippi","lat":34.42365,"lng":-88.86789,"zip":"38828","miles_from_dt":21.62},{"city":"Banner","state_name":"Mississippi","lat":34.13774,"lng":-89.37836,"zip":"38913","miles_from_dt":22.5},{"city":"Taylor","state_name":"Mississippi","lat":34.29607,"lng":-89.62485,"zip":"38673","miles_from_dt":23.98},{"city":"Sherman","state_name":"Mississippi","lat":34.35627,"lng":-88.83635,"zip":"38869","miles_from_dt":24.17},{"city":"Algoma","state_name":"Mississippi","lat":34.17894,"lng":-88.96575,"zip":"38820","miles_from_dt":24.34},{"city":"Mount Pleasant","state_name":"Mississippi","lat":34.73727,"lng":-89.50043,"zip":"38649","miles_from_dt":24.83},{"city":"Belden","state_name":"Mississippi","lat":34.30164,"lng":-88.84655,"zip":"38826","miles_from_dt":24.86},{"city":"Holly Springs","state_name":"Mississippi","lat":34.77207,"lng":-89.44046,"zip":"38634","miles_from_dt":25.13},{"city":"Holly Springs","state_name":"Mississippi","lat":34.7677,"lng":-89.47896,"zip":"38635","miles_from_dt":25.91},{"city":"Dumas","state_name":"Mississippi","lat":34.61866,"lng":-88.8334,"zip":"38625","miles_from_dt":26.39},{"city":"Ashland","state_name":"Mississippi","lat":34.83949,"lng":-89.14163,"zip":"38603","miles_from_dt":27.83},{"city":"Ripley","state_name":"Mississippi","lat":34.74111,"lng":-88.89718,"zip":"38663","miles_from_dt":28.48},{"city":"Water Valley","state_name":"Mississippi","lat":34.13486,"lng":-89.59257,"zip":"38965","miles_from_dt":29.17},{"city":"Houlka","state_name":"Mississippi","lat":34.04792,"lng":-89.06705,"zip":"38850","miles_from_dt":29.22},{"city":"Bruce","state_name":"Mississippi","lat":34.02807,"lng":-89.38957,"zip":"38915","miles_from_dt":29.9}],"targetCityZipCode":"38627","targetCityState":"Mississippi"},"__N_SSG":true}