{"pageProps":{"stateName":"Mississippi","cityName":"gallman","nearbyCities":[{"city":"Crystal Springs","state_name":"Mississippi","lat":31.98194,"lng":-90.35141,"zip":"39059","miles_from_dt":3.92},{"city":"Hazlehurst","state_name":"Mississippi","lat":31.83467,"lng":-90.46997,"zip":"39083","miles_from_dt":8.39},{"city":"Georgetown","state_name":"Mississippi","lat":31.87901,"lng":-90.19596,"zip":"39078","miles_from_dt":11.84},{"city":"Terry","state_name":"Mississippi","lat":32.11182,"lng":-90.3377,"zip":"39170","miles_from_dt":12.61},{"city":"Wesson","state_name":"Mississippi","lat":31.71492,"lng":-90.40764,"zip":"39191","miles_from_dt":15.12},{"city":"Harrisville","state_name":"Mississippi","lat":31.94663,"lng":-90.12369,"zip":"39082","miles_from_dt":15.49},{"city":"Utica","state_name":"Mississippi","lat":32.09238,"lng":-90.62097,"zip":"39175","miles_from_dt":17.56},{"city":"Byram","state_name":"Mississippi","lat":32.18838,"lng":-90.26335,"zip":"39272","miles_from_dt":18.99},{"city":"Florence","state_name":"Mississippi","lat":32.10269,"lng":-90.13049,"zip":"39073","miles_from_dt":19.03},{"city":"Raymond","state_name":"Mississippi","lat":32.22695,"lng":-90.44762,"zip":"39154","miles_from_dt":20.52},{"city":"Hermanville","state_name":"Mississippi","lat":31.96275,"lng":-90.75964,"zip":"39086","miles_from_dt":21.99},{"city":"Jackson","state_name":"Mississippi","lat":32.24081,"lng":-90.26174,"zip":"39212","miles_from_dt":22.4},{"city":"Sontag","state_name":"Mississippi","lat":31.64125,"lng":-90.21404,"zip":"39665","miles_from_dt":22.57},{"city":"Star","state_name":"Mississippi","lat":32.09316,"lng":-90.04003,"zip":"39167","miles_from_dt":23.14},{"city":"Pinola","state_name":"Mississippi","lat":31.83354,"lng":-90.00985,"zip":"39149","miles_from_dt":23.21},{"city":"Jackson","state_name":"Mississippi","lat":32.25485,"lng":-90.24892,"zip":"39282","miles_from_dt":23.56},{"city":"Brookhaven","state_name":"Mississippi","lat":31.59307,"lng":-90.46996,"zip":"39602","miles_from_dt":23.97},{"city":"Richland","state_name":"Mississippi","lat":32.22825,"lng":-90.15857,"zip":"39218","miles_from_dt":24.32},{"city":"Piney Woods","state_name":"Mississippi","lat":32.06159,"lng":-89.99459,"zip":"39148","miles_from_dt":24.66},{"city":"Brookhaven","state_name":"Mississippi","lat":31.57769,"lng":-90.4776,"zip":"39603","miles_from_dt":25.1},{"city":"Braxton","state_name":"Mississippi","lat":32.02869,"lng":-89.97161,"zip":"39044","miles_from_dt":25.25},{"city":"Pattison","state_name":"Mississippi","lat":31.82971,"lng":-90.80155,"zip":"39144","miles_from_dt":25.41},{"city":"Jackson","state_name":"Mississippi","lat":32.27533,"lng":-90.21886,"zip":"39284","miles_from_dt":25.52},{"city":"Jackson","state_name":"Mississippi","lat":32.28313,"lng":-90.23689,"zip":"39204","miles_from_dt":25.63},{"city":"Newhebron","state_name":"Mississippi","lat":31.75211,"lng":-90.00512,"zip":"39140","miles_from_dt":25.7},{"city":"Brookhaven","state_name":"Mississippi","lat":31.56548,"lng":-90.47762,"zip":"39601","miles_from_dt":25.92},{"city":"Jackson","state_name":"Mississippi","lat":32.29754,"lng":-90.20963,"zip":"39217","miles_from_dt":27.14},{"city":"Jackson","state_name":"Mississippi","lat":32.28981,"lng":-90.18398,"zip":"39201","miles_from_dt":27.27},{"city":"Jackson","state_name":"Mississippi","lat":32.29132,"lng":-90.18593,"zip":"39250","miles_from_dt":27.32},{"city":"Jackson","state_name":"Mississippi","lat":32.28983,"lng":-90.18084,"zip":"39271","miles_from_dt":27.35},{"city":"Jackson","state_name":"Mississippi","lat":32.29146,"lng":-90.18351,"zip":"39225","miles_from_dt":27.39},{"city":"Whitfield","state_name":"Mississippi","lat":32.23625,"lng":-90.07681,"zip":"39193","miles_from_dt":27.67},{"city":"Jackson","state_name":"Mississippi","lat":32.29717,"lng":-90.1837,"zip":"39215","miles_from_dt":27.74},{"city":"Jackson","state_name":"Mississippi","lat":32.30114,"lng":-90.1889,"zip":"39269","miles_from_dt":27.85},{"city":"Clinton","state_name":"Mississippi","lat":32.33571,"lng":-90.33143,"zip":"39058","miles_from_dt":27.89},{"city":"Jackson","state_name":"Mississippi","lat":32.3062,"lng":-90.19859,"zip":"39207","miles_from_dt":27.94},{"city":"Jackson","state_name":"Mississippi","lat":32.30928,"lng":-90.20042,"zip":"39203","miles_from_dt":28.1},{"city":"Jackson","state_name":"Mississippi","lat":32.30432,"lng":-90.18253,"zip":"39205","miles_from_dt":28.21},{"city":"Pearl","state_name":"Mississippi","lat":32.25827,"lng":-90.08908,"zip":"39208","miles_from_dt":28.38},{"city":"Edwards","state_name":"Mississippi","lat":32.30188,"lng":-90.60502,"zip":"39066","miles_from_dt":28.41},{"city":"Jackson","state_name":"Mississippi","lat":32.32198,"lng":-90.20603,"zip":"39298","miles_from_dt":28.78},{"city":"D Lo","state_name":"Mississippi","lat":31.98479,"lng":-89.89815,"zip":"39062","miles_from_dt":28.92},{"city":"Pearl","state_name":"Mississippi","lat":32.30002,"lng":-90.14555,"zip":"39288","miles_from_dt":28.94},{"city":"Jackson","state_name":"Mississippi","lat":32.31105,"lng":-90.16956,"zip":"39202","miles_from_dt":28.96},{"city":"Union Church","state_name":"Mississippi","lat":31.69126,"lng":-90.79126,"zip":"39668","miles_from_dt":29.07},{"city":"Jackson","state_name":"Mississippi","lat":32.32255,"lng":-90.17997,"zip":"39210","miles_from_dt":29.41}],"targetCityZipCode":"39077","targetCityState":"Mississippi"},"__N_SSG":true}