{"pageProps":{"stateName":"Mississippi","cityName":"hermanville","nearbyCities":[{"city":"Pattison","state_name":"Mississippi","lat":31.82971,"lng":-90.80155,"zip":"39144","miles_from_dt":9.49},{"city":"Utica","state_name":"Mississippi","lat":32.09238,"lng":-90.62097,"zip":"39175","miles_from_dt":12.08},{"city":"Port Gibson","state_name":"Mississippi","lat":31.99264,"lng":-90.98487,"zip":"39150","miles_from_dt":13.39},{"city":"Union Church","state_name":"Mississippi","lat":31.69126,"lng":-90.79126,"zip":"39668","miles_from_dt":18.8},{"city":"Hazlehurst","state_name":"Mississippi","lat":31.83467,"lng":-90.46997,"zip":"39083","miles_from_dt":19.18},{"city":"Vicksburg","state_name":"Mississippi","lat":32.223,"lng":-90.90225,"zip":"39180","miles_from_dt":19.79},{"city":"Gallman","state_name":"Mississippi","lat":31.93368,"lng":-90.38689,"zip":"39077","miles_from_dt":21.99},{"city":"Lorman","state_name":"Mississippi","lat":31.82508,"lng":-91.11672,"zip":"39096","miles_from_dt":23.03},{"city":"Fayette","state_name":"Mississippi","lat":31.71806,"lng":-91.03849,"zip":"39081","miles_from_dt":23.52},{"city":"Crystal Springs","state_name":"Mississippi","lat":31.98194,"lng":-90.35141,"zip":"39059","miles_from_dt":24.01},{"city":"Edwards","state_name":"Mississippi","lat":32.30188,"lng":-90.60502,"zip":"39066","miles_from_dt":25.06},{"city":"Fayette","state_name":"Mississippi","lat":31.6836,"lng":-91.04038,"zip":"39069","miles_from_dt":25.35},{"city":"Raymond","state_name":"Mississippi","lat":32.22695,"lng":-90.44762,"zip":"39154","miles_from_dt":25.81},{"city":"Terry","state_name":"Mississippi","lat":32.11182,"lng":-90.3377,"zip":"39170","miles_from_dt":26.81},{"city":"Wesson","state_name":"Mississippi","lat":31.71492,"lng":-90.40764,"zip":"39191","miles_from_dt":26.84},{"city":"Vicksburg","state_name":"Mississippi","lat":32.34371,"lng":-90.85746,"zip":"39181","miles_from_dt":26.87},{"city":"Delta","state_name":"Louisiana","lat":32.32509,"lng":-90.93177,"zip":"71233","miles_from_dt":26.93},{"city":"Vicksburg","state_name":"Mississippi","lat":32.35085,"lng":-90.87854,"zip":"39182","miles_from_dt":27.63}],"targetCityZipCode":"39086","targetCityState":"Mississippi"},"__N_SSG":true}