{"pageProps":{"stateName":"Mississippi","cityName":"holcomb","nearbyCities":[{"city":"Cascilla","state_name":"Mississippi","lat":33.8823,"lng":-90.05018,"zip":"38920","miles_from_dt":9.06},{"city":"Philipp","state_name":"Mississippi","lat":33.74281,"lng":-90.19758,"zip":"38950","miles_from_dt":9.38},{"city":"Tippo","state_name":"Mississippi","lat":33.87201,"lng":-90.18465,"zip":"38962","miles_from_dt":11.96},{"city":"Elliott","state_name":"Mississippi","lat":33.78008,"lng":-89.82708,"zip":"38926","miles_from_dt":12.13},{"city":"Grenada","state_name":"Mississippi","lat":33.77883,"lng":-89.81228,"zip":"38902","miles_from_dt":12.96},{"city":"Scobey","state_name":"Mississippi","lat":33.91821,"lng":-89.92325,"zip":"38953","miles_from_dt":13.17},{"city":"Grenada","state_name":"Mississippi","lat":33.76275,"lng":-89.79799,"zip":"38901","miles_from_dt":13.67},{"city":"Tie Plant","state_name":"Mississippi","lat":33.73882,"lng":-89.78941,"zip":"38960","miles_from_dt":14.17},{"city":"Carrollton","state_name":"Mississippi","lat":33.54902,"lng":-89.95501,"zip":"38917","miles_from_dt":14.69},{"city":"Swan Lake","state_name":"Mississippi","lat":33.94923,"lng":-90.17468,"zip":"38958","miles_from_dt":15.82},{"city":"Glendora","state_name":"Mississippi","lat":33.85405,"lng":-90.28731,"zip":"38928","miles_from_dt":16.15},{"city":"Greenwood","state_name":"Mississippi","lat":33.52845,"lng":-90.14245,"zip":"38930","miles_from_dt":16.57},{"city":"Tillatoba","state_name":"Mississippi","lat":33.96463,"lng":-89.8859,"zip":"38961","miles_from_dt":17.01},{"city":"Charleston","state_name":"Mississippi","lat":33.98328,"lng":-90.1425,"zip":"38921","miles_from_dt":17.13},{"city":"North Carrollton","state_name":"Mississippi","lat":33.51718,"lng":-89.92128,"zip":"38947","miles_from_dt":17.43},{"city":"Minter City","state_name":"Mississippi","lat":33.76106,"lng":-90.34242,"zip":"38944","miles_from_dt":17.71},{"city":"Greenwood","state_name":"Mississippi","lat":33.52226,"lng":-90.17898,"zip":"38935","miles_from_dt":17.84},{"city":"Greenwood","state_name":"Mississippi","lat":33.52027,"lng":-90.18058,"zip":"38945","miles_from_dt":18.01},{"city":"Schlater","state_name":"Mississippi","lat":33.63041,"lng":-90.33711,"zip":"38952","miles_from_dt":19.3},{"city":"McCarley","state_name":"Mississippi","lat":33.52033,"lng":-89.84525,"zip":"38943","miles_from_dt":19.32},{"city":"Webb","state_name":"Mississippi","lat":33.9202,"lng":-90.31828,"zip":"38966","miles_from_dt":20.02},{"city":"Oakland","state_name":"Mississippi","lat":34.07635,"lng":-89.89364,"zip":"38948","miles_from_dt":23.82},{"city":"Sumner","state_name":"Mississippi","lat":33.98747,"lng":-90.37296,"zip":"38957","miles_from_dt":25.34},{"city":"Duck Hill","state_name":"Mississippi","lat":33.62917,"lng":-89.61961,"zip":"38925","miles_from_dt":25.37},{"city":"Sidon","state_name":"Mississippi","lat":33.41301,"lng":-90.21536,"zip":"38954","miles_from_dt":25.54},{"city":"Coffeeville","state_name":"Mississippi","lat":33.93641,"lng":-89.64878,"zip":"38922","miles_from_dt":25.61},{"city":"Coila","state_name":"Mississippi","lat":33.37829,"lng":-89.99354,"zip":"38923","miles_from_dt":25.83},{"city":"Itta Bena","state_name":"Mississippi","lat":33.48655,"lng":-90.35909,"zip":"38941","miles_from_dt":26.12},{"city":"Enid","state_name":"Mississippi","lat":34.13394,"lng":-90.01827,"zip":"38927","miles_from_dt":26.38},{"city":"Winona","state_name":"Mississippi","lat":33.45832,"lng":-89.72026,"zip":"38967","miles_from_dt":27.16},{"city":"Drew","state_name":"Mississippi","lat":33.85683,"lng":-90.4928,"zip":"38737","miles_from_dt":27.32},{"city":"Tutwiler","state_name":"Mississippi","lat":34.00442,"lng":-90.40598,"zip":"38963","miles_from_dt":27.54},{"city":"Ruleville","state_name":"Mississippi","lat":33.73914,"lng":-90.5243,"zip":"38771","miles_from_dt":28.18},{"city":"Crowder","state_name":"Mississippi","lat":34.16944,"lng":-90.13448,"zip":"38622","miles_from_dt":29.37},{"city":"Gore Springs","state_name":"Mississippi","lat":33.74014,"lng":-89.52425,"zip":"38929","miles_from_dt":29.42},{"city":"Rome","state_name":"Mississippi","lat":33.96576,"lng":-90.48036,"zip":"38768","miles_from_dt":29.56}],"targetCityZipCode":"38940","targetCityState":"Mississippi"},"__N_SSG":true}