{"pageProps":{"stateName":"Mississippi","cityName":"isola","nearbyCities":[{"city":"Inverness","state_name":"Mississippi","lat":33.34845,"lng":-90.58583,"zip":"38753","miles_from_dt":7.2},{"city":"Belzoni","state_name":"Mississippi","lat":33.20179,"lng":-90.47023,"zip":"39038","miles_from_dt":9.28},{"city":"Indianola","state_name":"Mississippi","lat":33.45083,"lng":-90.655,"zip":"38749","miles_from_dt":14.11},{"city":"Midnight","state_name":"Mississippi","lat":33.04679,"lng":-90.56133,"zip":"39115","miles_from_dt":14.3},{"city":"Indianola","state_name":"Mississippi","lat":33.45326,"lng":-90.67469,"zip":"38751","miles_from_dt":14.48},{"city":"Moorhead","state_name":"Mississippi","lat":33.42507,"lng":-90.47658,"zip":"38761","miles_from_dt":14.77},{"city":"Arcola","state_name":"Mississippi","lat":33.26116,"lng":-90.88304,"zip":"38722","miles_from_dt":15.22},{"city":"Delta City","state_name":"Mississippi","lat":33.08597,"lng":-90.80324,"zip":"39061","miles_from_dt":15.39},{"city":"Silver City","state_name":"Mississippi","lat":33.05161,"lng":-90.48208,"zip":"39166","miles_from_dt":15.75},{"city":"Hollandale","state_name":"Mississippi","lat":33.15787,"lng":-90.87964,"zip":"38748","miles_from_dt":16.24},{"city":"Leland","state_name":"Mississippi","lat":33.39326,"lng":-90.85827,"zip":"38756","miles_from_dt":17},{"city":"Morgan City","state_name":"Mississippi","lat":33.37701,"lng":-90.35591,"zip":"38946","miles_from_dt":17.71},{"city":"Louise","state_name":"Mississippi","lat":32.99105,"lng":-90.59478,"zip":"39097","miles_from_dt":17.78},{"city":"Swiftown","state_name":"Mississippi","lat":33.40762,"lng":-90.37472,"zip":"38959","miles_from_dt":17.98},{"city":"Tchula","state_name":"Mississippi","lat":33.13515,"lng":-90.29371,"zip":"39169","miles_from_dt":20.48},{"city":"Panther Burn","state_name":"Mississippi","lat":33.0493,"lng":-90.8896,"zip":"38765","miles_from_dt":20.76},{"city":"Anguilla","state_name":"Mississippi","lat":32.96598,"lng":-90.75876,"zip":"38721","miles_from_dt":21.03},{"city":"Sunflower","state_name":"Mississippi","lat":33.54564,"lng":-90.51832,"zip":"38778","miles_from_dt":21.34},{"city":"Stoneville","state_name":"Mississippi","lat":33.42466,"lng":-90.92752,"zip":"38776","miles_from_dt":21.52},{"city":"Itta Bena","state_name":"Mississippi","lat":33.48655,"lng":-90.35909,"zip":"38941","miles_from_dt":22.33},{"city":"Cruger","state_name":"Mississippi","lat":33.29342,"lng":-90.22392,"zip":"38924","miles_from_dt":23.18},{"city":"Wayside","state_name":"Mississippi","lat":33.26679,"lng":-91.02353,"zip":"38780","miles_from_dt":23.36},{"city":"Greenville","state_name":"Mississippi","lat":33.30621,"lng":-91.03346,"zip":"38701","miles_from_dt":24.23},{"city":"Avon","state_name":"Mississippi","lat":33.22967,"lng":-91.03845,"zip":"38723","miles_from_dt":24.23},{"city":"Metcalfe","state_name":"Mississippi","lat":33.4535,"lng":-90.99394,"zip":"38760","miles_from_dt":25.81},{"city":"Sidon","state_name":"Mississippi","lat":33.41301,"lng":-90.21536,"zip":"38954","miles_from_dt":26.05},{"city":"Shaw","state_name":"Mississippi","lat":33.60455,"lng":-90.77388,"zip":"38773","miles_from_dt":26.11},{"city":"Greenville","state_name":"Mississippi","lat":33.40497,"lng":-91.03858,"zip":"38704","miles_from_dt":26.48},{"city":"Doddsville","state_name":"Mississippi","lat":33.64389,"lng":-90.54173,"zip":"38736","miles_from_dt":27.65},{"city":"Greenville","state_name":"Mississippi","lat":33.40821,"lng":-91.06109,"zip":"38702","miles_from_dt":27.77},{"city":"Grace","state_name":"Mississippi","lat":32.98592,"lng":-91.00499,"zip":"38745","miles_from_dt":28.69},{"city":"Greenville","state_name":"Mississippi","lat":33.47081,"lng":-91.04775,"zip":"38703","miles_from_dt":29.08},{"city":"Glen Allan","state_name":"Mississippi","lat":33.03066,"lng":-91.05371,"zip":"38744","miles_from_dt":29.24},{"city":"Yazoo City","state_name":"Mississippi","lat":32.83423,"lng":-90.49856,"zip":"39194","miles_from_dt":29.39}],"targetCityZipCode":"38754","targetCityState":"Mississippi"},"__N_SSG":true}