{"pageProps":{"stateName":"Mississippi","cityName":"lauderdale","nearbyCities":[{"city":"Meridian","state_name":"Mississippi","lat":32.55417,"lng":-88.57422,"zip":"39309","miles_from_dt":5},{"city":"Toomsuba","state_name":"Mississippi","lat":32.40597,"lng":-88.49617,"zip":"39364","miles_from_dt":8.7},{"city":"Porterville","state_name":"Mississippi","lat":32.66834,"lng":-88.47808,"zip":"39352","miles_from_dt":9.42},{"city":"Cuba","state_name":"Alabama","lat":32.43895,"lng":-88.34797,"zip":"36907","miles_from_dt":10.61},{"city":"Marion","state_name":"Mississippi","lat":32.42566,"lng":-88.64968,"zip":"39342","miles_from_dt":11.75},{"city":"Daleville","state_name":"Mississippi","lat":32.59814,"lng":-88.67904,"zip":"39326","miles_from_dt":11.79},{"city":"Meridian","state_name":"Mississippi","lat":32.46392,"lng":-88.72465,"zip":"39305","miles_from_dt":14.34},{"city":"Meridian","state_name":"Mississippi","lat":32.42443,"lng":-88.70486,"zip":"39303","miles_from_dt":14.45},{"city":"Bailey","state_name":"Mississippi","lat":32.56169,"lng":-88.74507,"zip":"39320","miles_from_dt":14.87},{"city":"Meridian","state_name":"Mississippi","lat":32.36429,"lng":-88.68699,"zip":"39304","miles_from_dt":16.21},{"city":"Meridian","state_name":"Mississippi","lat":32.36541,"lng":-88.70025,"zip":"39302","miles_from_dt":16.71},{"city":"Meridian","state_name":"Mississippi","lat":32.27289,"lng":-88.59226,"zip":"39301","miles_from_dt":18.79},{"city":"De Kalb","state_name":"Mississippi","lat":32.75012,"lng":-88.69564,"zip":"39328","miles_from_dt":19.12},{"city":"York","state_name":"Alabama","lat":32.43468,"lng":-88.1791,"zip":"36925","miles_from_dt":19.5},{"city":"Scooba","state_name":"Mississippi","lat":32.83317,"lng":-88.45605,"zip":"39358","miles_from_dt":20.85},{"city":"Emelle","state_name":"Alabama","lat":32.79337,"lng":-88.3003,"zip":"35459","miles_from_dt":21.21},{"city":"Bellamy","state_name":"Alabama","lat":32.42284,"lng":-88.1465,"zip":"36901","miles_from_dt":21.57},{"city":"Epes","state_name":"Alabama","lat":32.71882,"lng":-88.19452,"zip":"35460","miles_from_dt":21.63},{"city":"Meridian","state_name":"Mississippi","lat":32.33847,"lng":-88.79217,"zip":"39307","miles_from_dt":22.01},{"city":"Collinsville","state_name":"Mississippi","lat":32.56198,"lng":-88.87362,"zip":"39325","miles_from_dt":22.33},{"city":"Lisman","state_name":"Alabama","lat":32.23825,"lng":-88.30369,"zip":"36912","miles_from_dt":23.07},{"city":"Livingston","state_name":"Alabama","lat":32.56801,"lng":-88.09894,"zip":"35470","miles_from_dt":23.11},{"city":"Ward","state_name":"Alabama","lat":32.30061,"lng":-88.15068,"zip":"36922","miles_from_dt":25.57},{"city":"Gainesville","state_name":"Alabama","lat":32.78369,"lng":-88.14383,"zip":"35464","miles_from_dt":26.72},{"city":"Chunky","state_name":"Mississippi","lat":32.34971,"lng":-88.92624,"zip":"39323","miles_from_dt":28.28},{"city":"Jachin","state_name":"Alabama","lat":32.23078,"lng":-88.15928,"zip":"36910","miles_from_dt":28.48},{"city":"Little Rock","state_name":"Mississippi","lat":32.51447,"lng":-88.98528,"zip":"39337","miles_from_dt":28.79}],"targetCityZipCode":"39335","targetCityState":"Mississippi"},"__N_SSG":true}