{"pageProps":{"stateName":"Mississippi","cityName":"mcadams","nearbyCities":[{"city":"Sallis","state_name":"Mississippi","lat":32.99756,"lng":-89.75336,"zip":"39160","miles_from_dt":4.13},{"city":"Kosciusko","state_name":"Mississippi","lat":33.00775,"lng":-89.54503,"zip":"39090","miles_from_dt":8.29},{"city":"Thomastown","state_name":"Mississippi","lat":32.86351,"lng":-89.67094,"zip":"39171","miles_from_dt":10.79},{"city":"West","state_name":"Mississippi","lat":33.19153,"lng":-89.75324,"zip":"39192","miles_from_dt":12.46},{"city":"Goodman","state_name":"Mississippi","lat":32.93178,"lng":-89.88449,"zip":"39079","miles_from_dt":12.96},{"city":"Durant","state_name":"Mississippi","lat":33.11698,"lng":-89.89975,"zip":"39063","miles_from_dt":14.05},{"city":"Ethel","state_name":"Mississippi","lat":33.11574,"lng":-89.44853,"zip":"39067","miles_from_dt":15.35},{"city":"Camden","state_name":"Mississippi","lat":32.78735,"lng":-89.8173,"zip":"39045","miles_from_dt":17.7},{"city":"Carthage","state_name":"Mississippi","lat":32.7868,"lng":-89.50718,"zip":"39051","miles_from_dt":19.14},{"city":"Vaiden","state_name":"Mississippi","lat":33.30398,"lng":-89.74859,"zip":"39176","miles_from_dt":19.93},{"city":"Pickens","state_name":"Mississippi","lat":32.88078,"lng":-89.99316,"zip":"39146","miles_from_dt":20.19},{"city":"McCool","state_name":"Mississippi","lat":33.15684,"lng":-89.33033,"zip":"39108","miles_from_dt":22.76},{"city":"French Camp","state_name":"Mississippi","lat":33.29984,"lng":-89.46277,"zip":"39745","miles_from_dt":23.29},{"city":"Lexington","state_name":"Mississippi","lat":33.11929,"lng":-90.09452,"zip":"39095","miles_from_dt":24.62},{"city":"Vaughan","state_name":"Mississippi","lat":32.80873,"lng":-90.0984,"zip":"39179","miles_from_dt":27.97},{"city":"Madden","state_name":"Mississippi","lat":32.70757,"lng":-89.37619,"zip":"39109","miles_from_dt":28.09},{"city":"Sharon","state_name":"Mississippi","lat":32.65887,"lng":-89.93721,"zip":"39163","miles_from_dt":28.8},{"city":"Kilmichael","state_name":"Mississippi","lat":33.42283,"lng":-89.5538,"zip":"39747","miles_from_dt":28.85},{"city":"Weir","state_name":"Mississippi","lat":33.30509,"lng":-89.29893,"zip":"39772","miles_from_dt":29.89}],"targetCityZipCode":"39107","targetCityState":"Mississippi"},"__N_SSG":true}