{"pageProps":{"stateName":"Mississippi","cityName":"mccarley","nearbyCities":[{"city":"North Carrollton","state_name":"Mississippi","lat":33.51718,"lng":-89.92128,"zip":"38947","miles_from_dt":4.39},{"city":"Carrollton","state_name":"Mississippi","lat":33.54902,"lng":-89.95501,"zip":"38917","miles_from_dt":6.64},{"city":"Winona","state_name":"Mississippi","lat":33.45832,"lng":-89.72026,"zip":"38967","miles_from_dt":8.39},{"city":"Coila","state_name":"Mississippi","lat":33.37829,"lng":-89.99354,"zip":"38923","miles_from_dt":13.01},{"city":"Duck Hill","state_name":"Mississippi","lat":33.62917,"lng":-89.61961,"zip":"38925","miles_from_dt":15.02},{"city":"Tie Plant","state_name":"Mississippi","lat":33.73882,"lng":-89.78941,"zip":"38960","miles_from_dt":15.4},{"city":"Vaiden","state_name":"Mississippi","lat":33.30398,"lng":-89.74859,"zip":"39176","miles_from_dt":15.92},{"city":"Grenada","state_name":"Mississippi","lat":33.76275,"lng":-89.79799,"zip":"38901","miles_from_dt":16.93},{"city":"Greenwood","state_name":"Mississippi","lat":33.52845,"lng":-90.14245,"zip":"38930","miles_from_dt":17.16},{"city":"Grenada","state_name":"Mississippi","lat":33.77883,"lng":-89.81228,"zip":"38902","miles_from_dt":17.92},{"city":"Elliott","state_name":"Mississippi","lat":33.78008,"lng":-89.82708,"zip":"38926","miles_from_dt":17.93},{"city":"Kilmichael","state_name":"Mississippi","lat":33.42283,"lng":-89.5538,"zip":"39747","miles_from_dt":18.13},{"city":"Greenwood","state_name":"Mississippi","lat":33.52226,"lng":-90.17898,"zip":"38935","miles_from_dt":19.27},{"city":"Holcomb","state_name":"Mississippi","lat":33.75145,"lng":-90.03505,"zip":"38940","miles_from_dt":19.32},{"city":"Greenwood","state_name":"Mississippi","lat":33.52027,"lng":-90.18058,"zip":"38945","miles_from_dt":19.36},{"city":"Sidon","state_name":"Mississippi","lat":33.41301,"lng":-90.21536,"zip":"38954","miles_from_dt":22.62},{"city":"Stewart","state_name":"Mississippi","lat":33.47263,"lng":-89.45001,"zip":"39767","miles_from_dt":23.06},{"city":"West","state_name":"Mississippi","lat":33.19153,"lng":-89.75324,"zip":"39192","miles_from_dt":23.28},{"city":"Gore Springs","state_name":"Mississippi","lat":33.74014,"lng":-89.52425,"zip":"38929","miles_from_dt":23.92},{"city":"Philipp","state_name":"Mississippi","lat":33.74281,"lng":-90.19758,"zip":"38950","miles_from_dt":25.45},{"city":"French Camp","state_name":"Mississippi","lat":33.29984,"lng":-89.46277,"zip":"39745","miles_from_dt":26.83},{"city":"Cruger","state_name":"Mississippi","lat":33.29342,"lng":-90.22392,"zip":"38924","miles_from_dt":26.9},{"city":"Cascilla","state_name":"Mississippi","lat":33.8823,"lng":-90.05018,"zip":"38920","miles_from_dt":27.6},{"city":"Scobey","state_name":"Mississippi","lat":33.91821,"lng":-89.92325,"zip":"38953","miles_from_dt":27.79},{"city":"Durant","state_name":"Mississippi","lat":33.11698,"lng":-89.89975,"zip":"39063","miles_from_dt":27.98},{"city":"Schlater","state_name":"Mississippi","lat":33.63041,"lng":-90.33711,"zip":"38952","miles_from_dt":29.37},{"city":"Itta Bena","state_name":"Mississippi","lat":33.48655,"lng":-90.35909,"zip":"38941","miles_from_dt":29.76}],"targetCityZipCode":"38943","targetCityState":"Mississippi"},"__N_SSG":true}