{"pageProps":{"stateName":"Mississippi","cityName":"meadville","nearbyCities":[{"city":"Bude","state_name":"Mississippi","lat":31.45939,"lng":-90.84544,"zip":"39630","miles_from_dt":1.29},{"city":"McCall Creek","state_name":"Mississippi","lat":31.51498,"lng":-90.7143,"zip":"39647","miles_from_dt":9.78},{"city":"Roxie","state_name":"Mississippi","lat":31.48704,"lng":-91.07952,"zip":"39661","miles_from_dt":12.67},{"city":"Smithdale","state_name":"Mississippi","lat":31.32894,"lng":-90.68252,"zip":"39664","miles_from_dt":14.19},{"city":"Union Church","state_name":"Mississippi","lat":31.69126,"lng":-90.79126,"zip":"39668","miles_from_dt":16.52},{"city":"Gloster","state_name":"Mississippi","lat":31.22378,"lng":-90.99747,"zip":"39638","miles_from_dt":18.04},{"city":"Fayette","state_name":"Mississippi","lat":31.6836,"lng":-91.04038,"zip":"39069","miles_from_dt":18.45},{"city":"Fayette","state_name":"Mississippi","lat":31.71806,"lng":-91.03849,"zip":"39081","miles_from_dt":20.41},{"city":"Crosby","state_name":"Mississippi","lat":31.287,"lng":-91.16663,"zip":"39633","miles_from_dt":21.36},{"city":"Liberty","state_name":"Mississippi","lat":31.1485,"lng":-90.79399,"zip":"39645","miles_from_dt":21.93},{"city":"Brookhaven","state_name":"Mississippi","lat":31.56548,"lng":-90.47762,"zip":"39601","miles_from_dt":24.11},{"city":"Bogue Chitto","state_name":"Mississippi","lat":31.43729,"lng":-90.45737,"zip":"39629","miles_from_dt":24.26},{"city":"Brookhaven","state_name":"Mississippi","lat":31.57769,"lng":-90.4776,"zip":"39603","miles_from_dt":24.37},{"city":"Brookhaven","state_name":"Mississippi","lat":31.59307,"lng":-90.46996,"zip":"39602","miles_from_dt":25.16},{"city":"Summit","state_name":"Mississippi","lat":31.2853,"lng":-90.48857,"zip":"39666","miles_from_dt":25.43},{"city":"Pattison","state_name":"Mississippi","lat":31.82971,"lng":-90.80155,"zip":"39144","miles_from_dt":25.73},{"city":"Washington","state_name":"Mississippi","lat":31.57607,"lng":-91.29918,"zip":"39190","miles_from_dt":26.7},{"city":"Mccomb","state_name":"Mississippi","lat":31.24374,"lng":-90.45592,"zip":"39649","miles_from_dt":28.54},{"city":"Natchez","state_name":"Mississippi","lat":31.51148,"lng":-91.35206,"zip":"39120","miles_from_dt":28.84},{"city":"Lorman","state_name":"Mississippi","lat":31.82508,"lng":-91.11672,"zip":"39096","miles_from_dt":29.1},{"city":"Natchez","state_name":"Mississippi","lat":31.50832,"lng":-91.36173,"zip":"39121","miles_from_dt":29.38},{"city":"Centreville","state_name":"Mississippi","lat":31.07321,"lng":-91.09581,"zip":"39631","miles_from_dt":29.92}],"targetCityZipCode":"39653","targetCityState":"Mississippi"},"__N_SSG":true}