{"pageProps":{"stateName":"Mississippi","cityName":"mount-olive","nearbyCities":[{"city":"Collins","state_name":"Mississippi","lat":31.65017,"lng":-89.57215,"zip":"39428","miles_from_dt":9.29},{"city":"Magee","state_name":"Mississippi","lat":31.89536,"lng":-89.71816,"zip":"39111","miles_from_dt":10.17},{"city":"Mize","state_name":"Mississippi","lat":31.89165,"lng":-89.54925,"zip":"39116","miles_from_dt":12.12},{"city":"Prentiss","state_name":"Mississippi","lat":31.61739,"lng":-89.85458,"zip":"39474","miles_from_dt":14.08},{"city":"Taylorsville","state_name":"Mississippi","lat":31.82994,"lng":-89.40974,"zip":"39168","miles_from_dt":16.5},{"city":"Mendenhall","state_name":"Mississippi","lat":31.95331,"lng":-89.83257,"zip":"39114","miles_from_dt":16.66},{"city":"Bassfield","state_name":"Mississippi","lat":31.48411,"lng":-89.71179,"zip":"39421","miles_from_dt":18.61},{"city":"Newhebron","state_name":"Mississippi","lat":31.75211,"lng":-90.00512,"zip":"39140","miles_from_dt":19.43},{"city":"Seminary","state_name":"Mississippi","lat":31.53775,"lng":-89.46065,"zip":"39479","miles_from_dt":19.45},{"city":"Carson","state_name":"Mississippi","lat":31.48693,"lng":-89.82701,"zip":"39427","miles_from_dt":20.36},{"city":"Pinola","state_name":"Mississippi","lat":31.83354,"lng":-90.00985,"zip":"39149","miles_from_dt":20.48},{"city":"D Lo","state_name":"Mississippi","lat":31.98479,"lng":-89.89815,"zip":"39062","miles_from_dt":20.7},{"city":"Soso","state_name":"Mississippi","lat":31.70889,"lng":-89.31529,"zip":"39480","miles_from_dt":21.4},{"city":"Raleigh","state_name":"Mississippi","lat":32.05133,"lng":-89.50159,"zip":"39153","miles_from_dt":22.99},{"city":"Silver Creek","state_name":"Mississippi","lat":31.58615,"lng":-90.02955,"zip":"39663","miles_from_dt":23.82},{"city":"Puckett","state_name":"Mississippi","lat":32.10104,"lng":-89.78709,"zip":"39151","miles_from_dt":24.91},{"city":"Oak Vale","state_name":"Mississippi","lat":31.45055,"lng":-89.92843,"zip":"39656","miles_from_dt":25.6},{"city":"Braxton","state_name":"Mississippi","lat":32.02869,"lng":-89.97161,"zip":"39044","miles_from_dt":25.81},{"city":"Stringer","state_name":"Mississippi","lat":31.86738,"lng":-89.24457,"zip":"39481","miles_from_dt":26.54},{"city":"Sumrall","state_name":"Mississippi","lat":31.37271,"lng":-89.57966,"zip":"39482","miles_from_dt":26.76},{"city":"Bay Springs","state_name":"Mississippi","lat":31.95953,"lng":-89.26745,"zip":"39422","miles_from_dt":27.9},{"city":"Eastabuchie","state_name":"Mississippi","lat":31.47293,"lng":-89.3263,"zip":"39436","miles_from_dt":28.17},{"city":"Piney Woods","state_name":"Mississippi","lat":32.06159,"lng":-89.99459,"zip":"39148","miles_from_dt":28.4},{"city":"Moselle","state_name":"Mississippi","lat":31.49021,"lng":-89.30216,"zip":"39459","miles_from_dt":28.45},{"city":"Ellisville","state_name":"Mississippi","lat":31.57883,"lng":-89.21981,"zip":"39437","miles_from_dt":29.37},{"city":"Harrisville","state_name":"Mississippi","lat":31.94663,"lng":-90.12369,"zip":"39082","miles_from_dt":29.58},{"city":"Moss","state_name":"Mississippi","lat":31.81504,"lng":-89.17748,"zip":"39460","miles_from_dt":29.6}],"targetCityZipCode":"39119","targetCityState":"Mississippi"},"__N_SSG":true}