{"pageProps":{"stateName":"Mississippi","cityName":"new-site","nearbyCities":[{"city":"Marietta","state_name":"Mississippi","lat":34.46835,"lng":-88.44553,"zip":"38856","miles_from_dt":5.77},{"city":"Dennis","state_name":"Mississippi","lat":34.5448,"lng":-88.2643,"zip":"38838","miles_from_dt":6.44},{"city":"Belmont","state_name":"Mississippi","lat":34.53,"lng":-88.20244,"zip":"38827","miles_from_dt":9.87},{"city":"Golden","state_name":"Mississippi","lat":34.40772,"lng":-88.24074,"zip":"38847","miles_from_dt":11.34},{"city":"Tishomingo","state_name":"Mississippi","lat":34.66169,"lng":-88.25141,"zip":"38873","miles_from_dt":11.58},{"city":"Booneville","state_name":"Mississippi","lat":34.65229,"lng":-88.53639,"zip":"38829","miles_from_dt":12.52},{"city":"Wheeler","state_name":"Mississippi","lat":34.53513,"lng":-88.63686,"zip":"38880","miles_from_dt":14.92},{"city":"Baldwyn","state_name":"Mississippi","lat":34.52303,"lng":-88.64334,"zip":"38824","miles_from_dt":15.29},{"city":"Mantachie","state_name":"Mississippi","lat":34.32646,"lng":-88.48659,"zip":"38855","miles_from_dt":15.31},{"city":"Red Bay","state_name":"Alabama","lat":34.48577,"lng":-88.09536,"zip":"35582","miles_from_dt":16.26},{"city":"Fulton","state_name":"Mississippi","lat":34.26753,"lng":-88.37437,"zip":"38843","miles_from_dt":18},{"city":"Guntown","state_name":"Mississippi","lat":34.45442,"lng":-88.69319,"zip":"38849","miles_from_dt":18.84},{"city":"Burnsville","state_name":"Mississippi","lat":34.82259,"lng":-88.34274,"zip":"38833","miles_from_dt":20.35},{"city":"Mooreville","state_name":"Mississippi","lat":34.28004,"lng":-88.57808,"zip":"38857","miles_from_dt":20.68},{"city":"Saltillo","state_name":"Mississippi","lat":34.36644,"lng":-88.68187,"zip":"38866","miles_from_dt":20.76},{"city":"Vina","state_name":"Alabama","lat":34.35721,"lng":-88.07328,"zip":"35593","miles_from_dt":20.92},{"city":"Rienzi","state_name":"Mississippi","lat":34.78003,"lng":-88.58821,"zip":"38865","miles_from_dt":21.14},{"city":"Glen","state_name":"Mississippi","lat":34.85135,"lng":-88.39501,"zip":"38846","miles_from_dt":22.27},{"city":"Tremont","state_name":"Mississippi","lat":34.21457,"lng":-88.23112,"zip":"38876","miles_from_dt":23.17},{"city":"Iuka","state_name":"Mississippi","lat":34.84484,"lng":-88.21598,"zip":"38852","miles_from_dt":23.61},{"city":"Tupelo","state_name":"Mississippi","lat":34.28094,"lng":-88.67246,"zip":"38804","miles_from_dt":24.07},{"city":"Cherokee","state_name":"Alabama","lat":34.7382,"lng":-88.01889,"zip":"35616","miles_from_dt":24.93},{"city":"Tupelo","state_name":"Mississippi","lat":34.27274,"lng":-88.70048,"zip":"38802","miles_from_dt":25.61},{"city":"Tupelo","state_name":"Mississippi","lat":34.27134,"lng":-88.70311,"zip":"38803","miles_from_dt":25.79},{"city":"Dumas","state_name":"Mississippi","lat":34.61866,"lng":-88.8334,"zip":"38625","miles_from_dt":26.84},{"city":"Hodges","state_name":"Alabama","lat":34.35153,"lng":-87.94672,"zip":"35571","miles_from_dt":27.36},{"city":"Plantersville","state_name":"Mississippi","lat":34.16871,"lng":-88.62048,"zip":"38862","miles_from_dt":28.49},{"city":"Corinth","state_name":"Mississippi","lat":34.91627,"lng":-88.56027,"zip":"38834","miles_from_dt":28.71},{"city":"Russellville","state_name":"Alabama","lat":34.53131,"lng":-87.86974,"zip":"35653","miles_from_dt":28.85},{"city":"Sherman","state_name":"Mississippi","lat":34.35627,"lng":-88.83635,"zip":"38869","miles_from_dt":28.88},{"city":"Corinth","state_name":"Mississippi","lat":34.93228,"lng":-88.51865,"zip":"38835","miles_from_dt":28.99},{"city":"Blue Springs","state_name":"Mississippi","lat":34.42365,"lng":-88.86789,"zip":"38828","miles_from_dt":29.03},{"city":"Verona","state_name":"Mississippi","lat":34.19519,"lng":-88.71209,"zip":"38879","miles_from_dt":29.98}],"targetCityZipCode":"38859","targetCityState":"Mississippi"},"__N_SSG":true}