{"pageProps":{"stateName":"Mississippi","cityName":"ovett","nearbyCities":[{"city":"Ellisville","state_name":"Mississippi","lat":31.57883,"lng":-89.21981,"zip":"39437","miles_from_dt":11.08},{"city":"Petal","state_name":"Mississippi","lat":31.34456,"lng":-89.18751,"zip":"39465","miles_from_dt":12.64},{"city":"Richton","state_name":"Mississippi","lat":31.37855,"lng":-88.86764,"zip":"39476","miles_from_dt":13.88},{"city":"Moselle","state_name":"Mississippi","lat":31.49021,"lng":-89.30216,"zip":"39459","miles_from_dt":14.22},{"city":"Laurel","state_name":"Mississippi","lat":31.69316,"lng":-89.14322,"zip":"39442","miles_from_dt":14.63},{"city":"Laurel","state_name":"Mississippi","lat":31.694,"lng":-89.14791,"zip":"39440","miles_from_dt":14.78},{"city":"Laurel","state_name":"Mississippi","lat":31.70494,"lng":-89.12324,"zip":"39441","miles_from_dt":15.07},{"city":"Laurel","state_name":"Mississippi","lat":31.71932,"lng":-89.07376,"zip":"39443","miles_from_dt":15.63},{"city":"Eastabuchie","state_name":"Mississippi","lat":31.47293,"lng":-89.3263,"zip":"39436","miles_from_dt":15.71},{"city":"Hattiesburg","state_name":"Mississippi","lat":31.32237,"lng":-89.27897,"zip":"39403","miles_from_dt":17.41},{"city":"New Augusta","state_name":"Mississippi","lat":31.22105,"lng":-89.05738,"zip":"39462","miles_from_dt":18.72},{"city":"Hattiesburg","state_name":"Mississippi","lat":31.31353,"lng":-89.30539,"zip":"39407","miles_from_dt":18.98},{"city":"Hattiesburg","state_name":"Mississippi","lat":31.32895,"lng":-89.33515,"zip":"39406","miles_from_dt":19.73},{"city":"Sandersville","state_name":"Mississippi","lat":31.79291,"lng":-89.03579,"zip":"39477","miles_from_dt":20.74},{"city":"Soso","state_name":"Mississippi","lat":31.70889,"lng":-89.31529,"zip":"39480","miles_from_dt":21.12},{"city":"Hattiesburg","state_name":"Mississippi","lat":31.23496,"lng":-89.26912,"zip":"39401","miles_from_dt":21.59},{"city":"Clara","state_name":"Mississippi","lat":31.58032,"lng":-88.69755,"zip":"39324","miles_from_dt":22.3},{"city":"Moss","state_name":"Mississippi","lat":31.81504,"lng":-89.17748,"zip":"39460","miles_from_dt":23.24},{"city":"Hattiesburg","state_name":"Mississippi","lat":31.33446,"lng":-89.4132,"zip":"39402","miles_from_dt":23.48},{"city":"Beaumont","state_name":"Mississippi","lat":31.17553,"lng":-88.91103,"zip":"39423","miles_from_dt":23.59},{"city":"Seminary","state_name":"Mississippi","lat":31.53775,"lng":-89.46065,"zip":"39479","miles_from_dt":23.77},{"city":"Heidelberg","state_name":"Mississippi","lat":31.85865,"lng":-89.00227,"zip":"39439","miles_from_dt":25.45},{"city":"Hattiesburg","state_name":"Mississippi","lat":31.29639,"lng":-89.42929,"zip":"39404","miles_from_dt":25.61},{"city":"Waynesboro","state_name":"Mississippi","lat":31.68219,"lng":-88.6644,"zip":"39367","miles_from_dt":26.8},{"city":"Stringer","state_name":"Mississippi","lat":31.86738,"lng":-89.24457,"zip":"39481","miles_from_dt":27.98},{"city":"Neely","state_name":"Mississippi","lat":31.18703,"lng":-88.73992,"zip":"39461","miles_from_dt":28.36}],"targetCityZipCode":"39464","targetCityState":"Mississippi"},"__N_SSG":true}