{"pageProps":{"stateName":"Mississippi","cityName":"pace","nearbyCities":[{"city":"Rosedale","state_name":"Mississippi","lat":33.84255,"lng":-90.97678,"zip":"38769","miles_from_dt":6.35},{"city":"Beulah","state_name":"Mississippi","lat":33.75207,"lng":-90.97664,"zip":"38726","miles_from_dt":6.44},{"city":"Merigold","state_name":"Mississippi","lat":33.82495,"lng":-90.73501,"zip":"38759","miles_from_dt":8.51},{"city":"Boyle","state_name":"Mississippi","lat":33.6883,"lng":-90.79932,"zip":"38730","miles_from_dt":8.91},{"city":"Cleveland","state_name":"Mississippi","lat":33.74463,"lng":-90.73504,"zip":"38733","miles_from_dt":9.12},{"city":"Cleveland","state_name":"Mississippi","lat":33.75556,"lng":-90.72558,"zip":"38732","miles_from_dt":9.35},{"city":"Winstonville","state_name":"Mississippi","lat":33.90876,"lng":-90.75684,"zip":"38781","miles_from_dt":10.36},{"city":"Mound Bayou","state_name":"Mississippi","lat":33.8885,"lng":-90.72681,"zip":"38762","miles_from_dt":10.75},{"city":"Gunnison","state_name":"Mississippi","lat":33.95677,"lng":-90.94112,"zip":"38746","miles_from_dt":11.45},{"city":"Shelby","state_name":"Mississippi","lat":33.9659,"lng":-90.76695,"zip":"38774","miles_from_dt":13.22},{"city":"Shaw","state_name":"Mississippi","lat":33.60455,"lng":-90.77388,"zip":"38773","miles_from_dt":14.71},{"city":"Benoit","state_name":"Mississippi","lat":33.63834,"lng":-91.05543,"zip":"38725","miles_from_dt":14.99},{"city":"Watson","state_name":"Arkansas","lat":33.82694,"lng":-91.18261,"zip":"71674","miles_from_dt":17.54},{"city":"Duncan","state_name":"Mississippi","lat":34.04825,"lng":-90.79039,"zip":"38740","miles_from_dt":17.94},{"city":"Crumrod","state_name":"Arkansas","lat":34.0684,"lng":-91.0057,"zip":"72328","miles_from_dt":19.94},{"city":"Scott","state_name":"Mississippi","lat":33.56254,"lng":-91.08769,"zip":"38772","miles_from_dt":20.22},{"city":"Ruleville","state_name":"Mississippi","lat":33.73914,"lng":-90.5243,"zip":"38771","miles_from_dt":20.86},{"city":"Snow Lake","state_name":"Arkansas","lat":34.07479,"lng":-91.05019,"zip":"72379","miles_from_dt":21.4},{"city":"Rohwer","state_name":"Arkansas","lat":33.7372,"lng":-91.24736,"zip":"71666","miles_from_dt":21.59},{"city":"Parchman","state_name":"Mississippi","lat":33.93049,"lng":-90.53653,"zip":"38738","miles_from_dt":21.72},{"city":"Doddsville","state_name":"Mississippi","lat":33.64389,"lng":-90.54173,"zip":"38736","miles_from_dt":22.2},{"city":"Drew","state_name":"Mississippi","lat":33.85683,"lng":-90.4928,"zip":"38737","miles_from_dt":22.61},{"city":"Alligator","state_name":"Mississippi","lat":34.11907,"lng":-90.78741,"zip":"38720","miles_from_dt":22.7},{"city":"Winterville","state_name":"Mississippi","lat":33.50415,"lng":-91.05709,"zip":"38782","miles_from_dt":22.74},{"city":"Rena Lara","state_name":"Mississippi","lat":34.12809,"lng":-90.80552,"zip":"38767","miles_from_dt":23.09},{"city":"Arkansas City","state_name":"Arkansas","lat":33.61827,"lng":-91.23004,"zip":"71630","miles_from_dt":23.71},{"city":"Greenville","state_name":"Mississippi","lat":33.47081,"lng":-91.04775,"zip":"38703","miles_from_dt":24.59},{"city":"Metcalfe","state_name":"Mississippi","lat":33.4535,"lng":-90.99394,"zip":"38760","miles_from_dt":24.69},{"city":"Rome","state_name":"Mississippi","lat":33.96576,"lng":-90.48036,"zip":"38768","miles_from_dt":25.68},{"city":"Stoneville","state_name":"Mississippi","lat":33.42466,"lng":-90.92752,"zip":"38776","miles_from_dt":25.93},{"city":"Indianola","state_name":"Mississippi","lat":33.45326,"lng":-90.67469,"zip":"38751","miles_from_dt":26.58},{"city":"Tichnor","state_name":"Arkansas","lat":34.04821,"lng":-91.23711,"zip":"72166","miles_from_dt":26.78},{"city":"Sunflower","state_name":"Mississippi","lat":33.54564,"lng":-90.51832,"zip":"38778","miles_from_dt":27.16},{"city":"Indianola","state_name":"Mississippi","lat":33.45083,"lng":-90.655,"zip":"38749","miles_from_dt":27.26},{"city":"Leland","state_name":"Mississippi","lat":33.39326,"lng":-90.85827,"zip":"38756","miles_from_dt":27.98},{"city":"Mellwood","state_name":"Arkansas","lat":34.1891,"lng":-91.02567,"zip":"72367","miles_from_dt":28.18},{"city":"Greenville","state_name":"Mississippi","lat":33.40497,"lng":-91.03858,"zip":"38704","miles_from_dt":28.65},{"city":"Greenville","state_name":"Mississippi","lat":33.40821,"lng":-91.06109,"zip":"38702","miles_from_dt":28.88},{"city":"Clarksdale","state_name":"Mississippi","lat":34.15914,"lng":-90.60747,"zip":"38614","miles_from_dt":29.35}],"targetCityZipCode":"38764","targetCityState":"Mississippi"},"__N_SSG":true}