{"pageProps":{"stateName":"Mississippi","cityName":"pontotoc","nearbyCities":[{"city":"Algoma","state_name":"Mississippi","lat":34.17894,"lng":-88.96575,"zip":"38820","miles_from_dt":4.39},{"city":"Ecru","state_name":"Mississippi","lat":34.34943,"lng":-89.02237,"zip":"38841","miles_from_dt":9.15},{"city":"Toccopola","state_name":"Mississippi","lat":34.30486,"lng":-89.1585,"zip":"38874","miles_from_dt":9.66},{"city":"Randolph","state_name":"Mississippi","lat":34.14325,"lng":-89.20167,"zip":"38864","miles_from_dt":11.19},{"city":"Houlka","state_name":"Mississippi","lat":34.04792,"lng":-89.06705,"zip":"38850","miles_from_dt":11.85},{"city":"Belden","state_name":"Mississippi","lat":34.30164,"lng":-88.84655,"zip":"38826","miles_from_dt":11.89},{"city":"Thaxton","state_name":"Mississippi","lat":34.33582,"lng":-89.2055,"zip":"38871","miles_from_dt":13.09},{"city":"Tupelo","state_name":"Mississippi","lat":34.22256,"lng":-88.7762,"zip":"38801","miles_from_dt":14.39},{"city":"Sherman","state_name":"Mississippi","lat":34.35627,"lng":-88.83635,"zip":"38869","miles_from_dt":14.56},{"city":"Blue Springs","state_name":"Mississippi","lat":34.42365,"lng":-88.86789,"zip":"38828","miles_from_dt":16.93},{"city":"Shannon","state_name":"Mississippi","lat":34.12168,"lng":-88.74692,"zip":"38868","miles_from_dt":17.35},{"city":"Verona","state_name":"Mississippi","lat":34.19519,"lng":-88.71209,"zip":"38879","miles_from_dt":18.12},{"city":"New Albany","state_name":"Mississippi","lat":34.48545,"lng":-88.99652,"zip":"38652","miles_from_dt":18.61},{"city":"Tupelo","state_name":"Mississippi","lat":34.27134,"lng":-88.70311,"zip":"38803","miles_from_dt":18.94},{"city":"Tupelo","state_name":"Mississippi","lat":34.27274,"lng":-88.70048,"zip":"38802","miles_from_dt":19.11},{"city":"Etta","state_name":"Mississippi","lat":34.44503,"lng":-89.24563,"zip":"38627","miles_from_dt":20.09},{"city":"Tupelo","state_name":"Mississippi","lat":34.28094,"lng":-88.67246,"zip":"38804","miles_from_dt":20.79},{"city":"Banner","state_name":"Mississippi","lat":34.13774,"lng":-89.37836,"zip":"38913","miles_from_dt":20.83},{"city":"Houston","state_name":"Mississippi","lat":33.90763,"lng":-88.9637,"zip":"38851","miles_from_dt":21.61},{"city":"Trebloc","state_name":"Mississippi","lat":33.91076,"lng":-88.93008,"zip":"38875","miles_from_dt":21.81},{"city":"Van Vleet","state_name":"Mississippi","lat":33.91057,"lng":-88.93139,"zip":"38877","miles_from_dt":21.81},{"city":"Saltillo","state_name":"Mississippi","lat":34.36644,"lng":-88.68187,"zip":"38866","miles_from_dt":22.3},{"city":"Paris","state_name":"Mississippi","lat":34.18542,"lng":-89.4151,"zip":"38949","miles_from_dt":22.31},{"city":"Pittsboro","state_name":"Mississippi","lat":33.97605,"lng":-89.28802,"zip":"38951","miles_from_dt":22.33},{"city":"Myrtle","state_name":"Mississippi","lat":34.52776,"lng":-89.14165,"zip":"38650","miles_from_dt":22.41},{"city":"Okolona","state_name":"Mississippi","lat":33.97649,"lng":-88.75879,"zip":"38860","miles_from_dt":22.61},{"city":"Plantersville","state_name":"Mississippi","lat":34.16871,"lng":-88.62048,"zip":"38862","miles_from_dt":23.54},{"city":"Bruce","state_name":"Mississippi","lat":34.02807,"lng":-89.38957,"zip":"38915","miles_from_dt":24.5},{"city":"Vardaman","state_name":"Mississippi","lat":33.88179,"lng":-89.19231,"zip":"38878","miles_from_dt":24.95},{"city":"Guntown","state_name":"Mississippi","lat":34.45442,"lng":-88.69319,"zip":"38849","miles_from_dt":25.17},{"city":"Mooreville","state_name":"Mississippi","lat":34.28004,"lng":-88.57808,"zip":"38857","miles_from_dt":26.08},{"city":"Oxford","state_name":"Mississippi","lat":34.33114,"lng":-89.4825,"zip":"38655","miles_from_dt":27.21},{"city":"Derma","state_name":"Mississippi","lat":33.8558,"lng":-89.28404,"zip":"38839","miles_from_dt":28.91},{"city":"Nettleton","state_name":"Mississippi","lat":34.10145,"lng":-88.53726,"zip":"38858","miles_from_dt":29.18},{"city":"Woodland","state_name":"Mississippi","lat":33.78517,"lng":-89.03239,"zip":"39776","miles_from_dt":29.74},{"city":"Dumas","state_name":"Mississippi","lat":34.61866,"lng":-88.8334,"zip":"38625","miles_from_dt":29.84}],"targetCityZipCode":"38863","targetCityState":"Mississippi"},"__N_SSG":true}