{"pageProps":{"stateName":"Mississippi","cityName":"red-banks","nearbyCities":[{"city":"Victoria","state_name":"Mississippi","lat":34.88573,"lng":-89.51038,"zip":"38679","miles_from_dt":2.79},{"city":"Byhalia","state_name":"Mississippi","lat":34.85467,"lng":-89.67116,"zip":"38611","miles_from_dt":6.81},{"city":"Holly Springs","state_name":"Mississippi","lat":34.7677,"lng":-89.47896,"zip":"38635","miles_from_dt":9.59},{"city":"Holly Springs","state_name":"Mississippi","lat":34.77207,"lng":-89.44046,"zip":"38634","miles_from_dt":10.57},{"city":"Mount Pleasant","state_name":"Mississippi","lat":34.73727,"lng":-89.50043,"zip":"38649","miles_from_dt":11.05},{"city":"Lamar","state_name":"Mississippi","lat":34.91861,"lng":-89.33901,"zip":"38642","miles_from_dt":12.66},{"city":"Rossville","state_name":"Tennessee","lat":35.07421,"lng":-89.53944,"zip":"38066","miles_from_dt":12.74},{"city":"Collierville","state_name":"Tennessee","lat":35.05695,"lng":-89.67644,"zip":"38027","miles_from_dt":13.29},{"city":"Collierville","state_name":"Tennessee","lat":35.06722,"lng":-89.65347,"zip":"38017","miles_from_dt":13.33},{"city":"Olive Branch","state_name":"Mississippi","lat":34.93635,"lng":-89.82409,"zip":"38654","miles_from_dt":15.38},{"city":"Moscow","state_name":"Tennessee","lat":35.05381,"lng":-89.36772,"zip":"38057","miles_from_dt":15.67},{"city":"Memphis","state_name":"Tennessee","lat":35.02537,"lng":-89.78936,"zip":"38125","miles_from_dt":16.05},{"city":"Williston","state_name":"Tennessee","lat":35.12301,"lng":-89.45633,"zip":"38076","miles_from_dt":17.08},{"city":"Germantown","state_name":"Tennessee","lat":35.08615,"lng":-89.75581,"zip":"38139","miles_from_dt":17.52},{"city":"Macon","state_name":"Tennessee","lat":35.15183,"lng":-89.48949,"zip":"38048","miles_from_dt":18.47},{"city":"Memphis","state_name":"Tennessee","lat":35.01599,"lng":-89.85472,"zip":"38141","miles_from_dt":18.89},{"city":"Germantown","state_name":"Tennessee","lat":35.08477,"lng":-89.7993,"zip":"38138","miles_from_dt":19.12},{"city":"Michigan City","state_name":"Mississippi","lat":34.95851,"lng":-89.21746,"zip":"38647","miles_from_dt":19.97},{"city":"Germantown","state_name":"Tennessee","lat":35.09735,"lng":-89.80555,"zip":"38183","miles_from_dt":19.99},{"city":"Memphis","state_name":"Tennessee","lat":35.04615,"lng":-89.86597,"zip":"38175","miles_from_dt":20.46},{"city":"Memphis","state_name":"Tennessee","lat":35.07607,"lng":-89.8436,"zip":"38187","miles_from_dt":20.61},{"city":"Memphis","state_name":"Tennessee","lat":35.05519,"lng":-89.86291,"zip":"38193","miles_from_dt":20.65},{"city":"Memphis","state_name":"Tennessee","lat":35.05499,"lng":-89.86362,"zip":"38115","miles_from_dt":20.68},{"city":"Waterford","state_name":"Mississippi","lat":34.5953,"lng":-89.48827,"zip":"38685","miles_from_dt":20.72},{"city":"Cordova","state_name":"Tennessee","lat":35.13781,"lng":-89.76647,"zip":"38018","miles_from_dt":20.73},{"city":"Eads","state_name":"Tennessee","lat":35.18486,"lng":-89.63474,"zip":"38028","miles_from_dt":20.77},{"city":"La Grange","state_name":"Tennessee","lat":35.04598,"lng":-89.24408,"zip":"38046","miles_from_dt":20.86},{"city":"Memphis","state_name":"Tennessee","lat":35.07986,"lng":-89.84593,"zip":"38119","miles_from_dt":20.88},{"city":"Memphis","state_name":"Tennessee","lat":35.09904,"lng":-89.84821,"zip":"38197","miles_from_dt":21.82},{"city":"Memphis","state_name":"Tennessee","lat":35.097,"lng":-89.85768,"zip":"38188","miles_from_dt":22.14},{"city":"Cordova","state_name":"Tennessee","lat":35.15185,"lng":-89.79078,"zip":"38088","miles_from_dt":22.32},{"city":"Southaven","state_name":"Mississippi","lat":34.93727,"lng":-89.94943,"zip":"38672","miles_from_dt":22.4},{"city":"Oakland","state_name":"Tennessee","lat":35.21214,"lng":-89.50468,"zip":"38060","miles_from_dt":22.41},{"city":"Cordova","state_name":"Tennessee","lat":35.17956,"lng":-89.76046,"zip":"38016","miles_from_dt":22.99},{"city":"Potts Camp","state_name":"Mississippi","lat":34.62073,"lng":-89.32065,"zip":"38659","miles_from_dt":23},{"city":"Memphis","state_name":"Tennessee","lat":35.12344,"lng":-89.85237,"zip":"38120","miles_from_dt":23.14},{"city":"Independence","state_name":"Mississippi","lat":34.63309,"lng":-89.82378,"zip":"38638","miles_from_dt":23.25},{"city":"Memphis","state_name":"Tennessee","lat":35.03655,"lng":-89.93021,"zip":"38118","miles_from_dt":23.35},{"city":"Braden","state_name":"Tennessee","lat":35.20171,"lng":-89.39514,"zip":"38010","miles_from_dt":23.41},{"city":"Memphis","state_name":"Tennessee","lat":35.03245,"lng":-89.93812,"zip":"38130","miles_from_dt":23.64},{"city":"Ashland","state_name":"Mississippi","lat":34.83949,"lng":-89.14163,"zip":"38603","miles_from_dt":23.98},{"city":"Memphis","state_name":"Tennessee","lat":35.1366,"lng":-89.86077,"zip":"38161","miles_from_dt":24.11},{"city":"Grand Junction","state_name":"Tennessee","lat":35.0571,"lng":-89.18545,"zip":"38039","miles_from_dt":24.13},{"city":"Memphis","state_name":"Tennessee","lat":35.11021,"lng":-89.89136,"zip":"38137","miles_from_dt":24.19},{"city":"Memphis","state_name":"Tennessee","lat":35.0523,"lng":-89.94224,"zip":"38181","miles_from_dt":24.44},{"city":"Memphis","state_name":"Tennessee","lat":35.11111,"lng":-89.89605,"zip":"38157","miles_from_dt":24.44},{"city":"Coldwater","state_name":"Mississippi","lat":34.70203,"lng":-89.93415,"zip":"38618","miles_from_dt":24.95},{"city":"Memphis","state_name":"Tennessee","lat":35.11105,"lng":-89.90781,"zip":"38124","miles_from_dt":24.96},{"city":"Memphis","state_name":"Tennessee","lat":35.11471,"lng":-89.90447,"zip":"38177","miles_from_dt":24.97},{"city":"Memphis","state_name":"Tennessee","lat":35.11504,"lng":-89.90551,"zip":"38117","miles_from_dt":25.03},{"city":"Nesbit","state_name":"Mississippi","lat":34.89172,"lng":-90.00359,"zip":"38651","miles_from_dt":25.24},{"city":"Southaven","state_name":"Mississippi","lat":34.96376,"lng":-89.99567,"zip":"38671","miles_from_dt":25.3},{"city":"Memphis","state_name":"Tennessee","lat":35.06806,"lng":-89.95758,"zip":"37501","miles_from_dt":25.72},{"city":"Memphis","state_name":"Tennessee","lat":35.21292,"lng":-89.79474,"zip":"38133","miles_from_dt":25.95},{"city":"Memphis","state_name":"Tennessee","lat":35.17674,"lng":-89.85992,"zip":"38134","miles_from_dt":26.1},{"city":"Hernando","state_name":"Mississippi","lat":34.79973,"lng":-90.00629,"zip":"38632","miles_from_dt":26.16},{"city":"Memphis","state_name":"Tennessee","lat":35.11014,"lng":-89.94429,"zip":"38111","miles_from_dt":26.6},{"city":"Memphis","state_name":"Tennessee","lat":35.11843,"lng":-89.93743,"zip":"38152","miles_from_dt":26.61},{"city":"Memphis","state_name":"Tennessee","lat":35.1855,"lng":-89.86486,"zip":"38184","miles_from_dt":26.74},{"city":"Hickory Flat","state_name":"Mississippi","lat":34.64206,"lng":-89.19671,"zip":"38633","miles_from_dt":26.79},{"city":"Memphis","state_name":"Tennessee","lat":35.03213,"lng":-90.01001,"zip":"38116","miles_from_dt":27.39},{"city":"Memphis","state_name":"Tennessee","lat":35.06603,"lng":-89.99266,"zip":"38131","miles_from_dt":27.42},{"city":"Memphis","state_name":"Tennessee","lat":35.1571,"lng":-89.92247,"zip":"38122","miles_from_dt":27.63},{"city":"Memphis","state_name":"Tennessee","lat":35.06413,"lng":-89.99949,"zip":"38194","miles_from_dt":27.71},{"city":"Memphis","state_name":"Tennessee","lat":35.03535,"lng":-90.01596,"zip":"38186","miles_from_dt":27.79},{"city":"Memphis","state_name":"Tennessee","lat":35.07069,"lng":-90.00033,"zip":"38132","miles_from_dt":27.95},{"city":"Memphis","state_name":"Tennessee","lat":35.09648,"lng":-89.98596,"zip":"38114","miles_from_dt":28.08},{"city":"Horn Lake","state_name":"Mississippi","lat":34.95105,"lng":-90.05004,"zip":"38637","miles_from_dt":28.19},{"city":"Somerville","state_name":"Tennessee","lat":35.25972,"lng":-89.3349,"zip":"38068","miles_from_dt":28.48},{"city":"Ellendale","state_name":"Tennessee","lat":35.24205,"lng":-89.82351,"zip":"38029","miles_from_dt":28.52},{"city":"Brunswick","state_name":"Tennessee","lat":35.26606,"lng":-89.77273,"zip":"38014","miles_from_dt":28.6},{"city":"Arlington","state_name":"Tennessee","lat":35.28854,"lng":-89.70926,"zip":"38002","miles_from_dt":28.75},{"city":"Arkabutla","state_name":"Mississippi","lat":34.69783,"lng":-90.00805,"zip":"38602","miles_from_dt":28.76},{"city":"Senatobia","state_name":"Mississippi","lat":34.60109,"lng":-89.92505,"zip":"38668","miles_from_dt":28.81},{"city":"Abbeville","state_name":"Mississippi","lat":34.48146,"lng":-89.45166,"zip":"38601","miles_from_dt":28.83},{"city":"Memphis","state_name":"Tennessee","lat":35.23876,"lng":-89.8497,"zip":"38135","miles_from_dt":29.14},{"city":"Memphis","state_name":"Tennessee","lat":35.1453,"lng":-89.97064,"zip":"38182","miles_from_dt":29.22},{"city":"Memphis","state_name":"Tennessee","lat":35.14791,"lng":-89.97661,"zip":"38112","miles_from_dt":29.6},{"city":"Memphis","state_name":"Tennessee","lat":35.14905,"lng":-89.97775,"zip":"38151","miles_from_dt":29.7},{"city":"Laconia","state_name":"Tennessee","lat":35.29216,"lng":-89.3688,"zip":"38045","miles_from_dt":29.74},{"city":"Hickory Valley","state_name":"Tennessee","lat":35.15059,"lng":-89.13848,"zip":"38042","miles_from_dt":29.86}],"targetCityZipCode":"38661","targetCityState":"Mississippi"},"__N_SSG":true}