{"pageProps":{"stateName":"Mississippi","cityName":"rolling-fork","nearbyCities":[{"city":"Cary","state_name":"Mississippi","lat":32.79855,"lng":-90.93525,"zip":"39054","miles_from_dt":2.18},{"city":"Mayersville","state_name":"Mississippi","lat":32.82707,"lng":-91.06476,"zip":"39113","miles_from_dt":8.15},{"city":"Grace","state_name":"Mississippi","lat":32.98592,"lng":-91.00499,"zip":"38745","miles_from_dt":11.78},{"city":"Holly Bluff","state_name":"Mississippi","lat":32.73287,"lng":-90.7545,"zip":"39088","miles_from_dt":11.92},{"city":"Anguilla","state_name":"Mississippi","lat":32.96598,"lng":-90.75876,"zip":"38721","miles_from_dt":13.5},{"city":"Panther Burn","state_name":"Mississippi","lat":33.0493,"lng":-90.8896,"zip":"38765","miles_from_dt":15.32},{"city":"Valley Park","state_name":"Mississippi","lat":32.61286,"lng":-90.84546,"zip":"39177","miles_from_dt":15.59},{"city":"Glen Allan","state_name":"Mississippi","lat":33.03066,"lng":-91.05371,"zip":"38744","miles_from_dt":15.79},{"city":"Lake Providence","state_name":"Louisiana","lat":32.79429,"lng":-91.23914,"zip":"71254","miles_from_dt":18.45},{"city":"Delta City","state_name":"Mississippi","lat":33.08597,"lng":-90.80324,"zip":"39061","miles_from_dt":19.07},{"city":"Transylvania","state_name":"Louisiana","lat":32.65244,"lng":-91.23397,"zip":"71286","miles_from_dt":21.73},{"city":"Redwood","state_name":"Mississippi","lat":32.53901,"lng":-90.77056,"zip":"39156","miles_from_dt":21.91},{"city":"Satartia","state_name":"Mississippi","lat":32.62627,"lng":-90.63395,"zip":"39162","miles_from_dt":21.95},{"city":"Sondheimer","state_name":"Louisiana","lat":32.57727,"lng":-91.16277,"zip":"71276","miles_from_dt":22.2},{"city":"Louise","state_name":"Mississippi","lat":32.99105,"lng":-90.59478,"zip":"39097","miles_from_dt":22.2},{"city":"Hollandale","state_name":"Mississippi","lat":33.15787,"lng":-90.87964,"zip":"38748","miles_from_dt":22.82},{"city":"Chatham","state_name":"Mississippi","lat":33.11524,"lng":-91.13829,"zip":"38731","miles_from_dt":23.3},{"city":"Yazoo City","state_name":"Mississippi","lat":32.83423,"lng":-90.49856,"zip":"39194","miles_from_dt":24.8},{"city":"Kilbourne","state_name":"Louisiana","lat":32.99597,"lng":-91.31576,"zip":"71253","miles_from_dt":25.48},{"city":"Midnight","state_name":"Mississippi","lat":33.04679,"lng":-90.56133,"zip":"39115","miles_from_dt":25.91},{"city":"Vicksburg","state_name":"Mississippi","lat":32.4554,"lng":-90.83307,"zip":"39183","miles_from_dt":26.29},{"city":"Tinsley","state_name":"Mississippi","lat":32.74247,"lng":-90.47219,"zip":"39173","miles_from_dt":27.01},{"city":"Eudora","state_name":"Arkansas","lat":33.1253,"lng":-91.24753,"zip":"71640","miles_from_dt":27.72},{"city":"Avon","state_name":"Mississippi","lat":33.22967,"lng":-91.03845,"zip":"38723","miles_from_dt":28.39},{"city":"Forest","state_name":"Louisiana","lat":32.79223,"lng":-91.41291,"zip":"71242","miles_from_dt":28.52},{"city":"Oak Grove","state_name":"Louisiana","lat":32.87497,"lng":-91.428,"zip":"71263","miles_from_dt":29.44},{"city":"Arcola","state_name":"Mississippi","lat":33.26116,"lng":-90.88304,"zip":"38722","miles_from_dt":29.88},{"city":"Silver City","state_name":"Mississippi","lat":33.05161,"lng":-90.48208,"zip":"39166","miles_from_dt":29.95}],"targetCityZipCode":"39159","targetCityState":"Mississippi"},"__N_SSG":true}