{"pageProps":{"stateName":"Mississippi","cityName":"sandersville","nearbyCities":[{"city":"Heidelberg","state_name":"Mississippi","lat":31.85865,"lng":-89.00227,"zip":"39439","miles_from_dt":4.94},{"city":"Laurel","state_name":"Mississippi","lat":31.71932,"lng":-89.07376,"zip":"39443","miles_from_dt":5.54},{"city":"Laurel","state_name":"Mississippi","lat":31.70494,"lng":-89.12324,"zip":"39441","miles_from_dt":7.95},{"city":"Moss","state_name":"Mississippi","lat":31.81504,"lng":-89.17748,"zip":"39460","miles_from_dt":8.48},{"city":"Laurel","state_name":"Mississippi","lat":31.69316,"lng":-89.14322,"zip":"39442","miles_from_dt":9.34},{"city":"Laurel","state_name":"Mississippi","lat":31.694,"lng":-89.14791,"zip":"39440","miles_from_dt":9.49},{"city":"Vossburg","state_name":"Mississippi","lat":31.93795,"lng":-88.90057,"zip":"39366","miles_from_dt":12.77},{"city":"Stringer","state_name":"Mississippi","lat":31.86738,"lng":-89.24457,"zip":"39481","miles_from_dt":13.31},{"city":"Paulding","state_name":"Mississippi","lat":32.00007,"lng":-89.03475,"zip":"39348","miles_from_dt":14.27},{"city":"Soso","state_name":"Mississippi","lat":31.70889,"lng":-89.31529,"zip":"39480","miles_from_dt":17.44},{"city":"Bay Springs","state_name":"Mississippi","lat":31.95953,"lng":-89.26745,"zip":"39422","miles_from_dt":17.81},{"city":"Shubuta","state_name":"Mississippi","lat":31.86357,"lng":-88.7409,"zip":"39360","miles_from_dt":18.02},{"city":"Ellisville","state_name":"Mississippi","lat":31.57883,"lng":-89.21981,"zip":"39437","miles_from_dt":18.31},{"city":"Pachuta","state_name":"Mississippi","lat":32.05507,"lng":-88.93419,"zip":"39347","miles_from_dt":19.02},{"city":"Ovett","state_name":"Mississippi","lat":31.49268,"lng":-89.06129,"zip":"39464","miles_from_dt":20.74},{"city":"Taylorsville","state_name":"Mississippi","lat":31.82994,"lng":-89.40974,"zip":"39168","miles_from_dt":22.15},{"city":"Waynesboro","state_name":"Mississippi","lat":31.68219,"lng":-88.6644,"zip":"39367","miles_from_dt":23.16},{"city":"Rose Hill","state_name":"Mississippi","lat":32.13632,"lng":-89.0283,"zip":"39356","miles_from_dt":23.67},{"city":"Clara","state_name":"Mississippi","lat":31.58032,"lng":-88.69755,"zip":"39324","miles_from_dt":24.73},{"city":"Louin","state_name":"Mississippi","lat":32.11034,"lng":-89.23274,"zip":"39338","miles_from_dt":24.74},{"city":"Moselle","state_name":"Mississippi","lat":31.49021,"lng":-89.30216,"zip":"39459","miles_from_dt":26.1},{"city":"Stonewall","state_name":"Mississippi","lat":32.11918,"lng":-88.77628,"zip":"39363","miles_from_dt":27.16},{"city":"Eastabuchie","state_name":"Mississippi","lat":31.47293,"lng":-89.3263,"zip":"39436","miles_from_dt":27.92},{"city":"Enterprise","state_name":"Mississippi","lat":32.19385,"lng":-88.85689,"zip":"39330","miles_from_dt":29.56}],"targetCityZipCode":"39477","targetCityState":"Mississippi"},"__N_SSG":true}