{"pageProps":{"stateName":"Mississippi","cityName":"scott","nearbyCities":[{"city":"Winterville","state_name":"Mississippi","lat":33.50415,"lng":-91.05709,"zip":"38782","miles_from_dt":4.39},{"city":"Benoit","state_name":"Mississippi","lat":33.63834,"lng":-91.05543,"zip":"38725","miles_from_dt":5.55},{"city":"Greenville","state_name":"Mississippi","lat":33.47081,"lng":-91.04775,"zip":"38703","miles_from_dt":6.73},{"city":"Arkansas City","state_name":"Arkansas","lat":33.61827,"lng":-91.23004,"zip":"71630","miles_from_dt":9.06},{"city":"Metcalfe","state_name":"Mississippi","lat":33.4535,"lng":-90.99394,"zip":"38760","miles_from_dt":9.26},{"city":"Greenville","state_name":"Mississippi","lat":33.40821,"lng":-91.06109,"zip":"38702","miles_from_dt":10.75},{"city":"Greenville","state_name":"Mississippi","lat":33.40497,"lng":-91.03858,"zip":"38704","miles_from_dt":11.22},{"city":"Stoneville","state_name":"Mississippi","lat":33.42466,"lng":-90.92752,"zip":"38776","miles_from_dt":13.26},{"city":"Beulah","state_name":"Mississippi","lat":33.75207,"lng":-90.97664,"zip":"38726","miles_from_dt":14.55},{"city":"Rohwer","state_name":"Arkansas","lat":33.7372,"lng":-91.24736,"zip":"71666","miles_from_dt":15.15},{"city":"McGehee","state_name":"Arkansas","lat":33.62476,"lng":-91.37234,"zip":"71654","miles_from_dt":16.97},{"city":"Lake Village","state_name":"Arkansas","lat":33.36919,"lng":-91.27676,"zip":"71653","miles_from_dt":17.23},{"city":"Leland","state_name":"Mississippi","lat":33.39326,"lng":-90.85827,"zip":"38756","miles_from_dt":17.65},{"city":"Greenville","state_name":"Mississippi","lat":33.30621,"lng":-91.03346,"zip":"38701","miles_from_dt":17.94},{"city":"Shaw","state_name":"Mississippi","lat":33.60455,"lng":-90.77388,"zip":"38773","miles_from_dt":18.33},{"city":"Boyle","state_name":"Mississippi","lat":33.6883,"lng":-90.79932,"zip":"38730","miles_from_dt":18.75},{"city":"Watson","state_name":"Arkansas","lat":33.82694,"lng":-91.18261,"zip":"71674","miles_from_dt":19.03},{"city":"Pace","state_name":"Mississippi","lat":33.79878,"lng":-90.87965,"zip":"38764","miles_from_dt":20.22},{"city":"Rosedale","state_name":"Mississippi","lat":33.84255,"lng":-90.97678,"zip":"38769","miles_from_dt":20.33},{"city":"Wayside","state_name":"Mississippi","lat":33.26679,"lng":-91.02353,"zip":"38780","miles_from_dt":20.72},{"city":"Tillar","state_name":"Arkansas","lat":33.74439,"lng":-91.40974,"zip":"71670","miles_from_dt":22.4},{"city":"Dermott","state_name":"Arkansas","lat":33.52008,"lng":-91.47927,"zip":"71638","miles_from_dt":22.79},{"city":"Avon","state_name":"Mississippi","lat":33.22967,"lng":-91.03845,"zip":"38723","miles_from_dt":23.12},{"city":"Cleveland","state_name":"Mississippi","lat":33.74463,"lng":-90.73504,"zip":"38733","miles_from_dt":23.89},{"city":"Arcola","state_name":"Mississippi","lat":33.26116,"lng":-90.88304,"zip":"38722","miles_from_dt":23.9},{"city":"Cleveland","state_name":"Mississippi","lat":33.75556,"lng":-90.72558,"zip":"38732","miles_from_dt":24.75},{"city":"Indianola","state_name":"Mississippi","lat":33.45326,"lng":-90.67469,"zip":"38751","miles_from_dt":25.01},{"city":"Indianola","state_name":"Mississippi","lat":33.45083,"lng":-90.655,"zip":"38749","miles_from_dt":26.14},{"city":"Winchester","state_name":"Arkansas","lat":33.76572,"lng":-91.4884,"zip":"71677","miles_from_dt":27.01},{"city":"Merigold","state_name":"Mississippi","lat":33.82495,"lng":-90.73501,"zip":"38759","miles_from_dt":27.2},{"city":"Gunnison","state_name":"Mississippi","lat":33.95677,"lng":-90.94112,"zip":"38746","miles_from_dt":28.45},{"city":"Pickens","state_name":"Arkansas","lat":33.82355,"lng":-91.50391,"zip":"71662","miles_from_dt":29.98}],"targetCityZipCode":"38772","targetCityState":"Mississippi"},"__N_SSG":true}