{"pageProps":{"stateName":"Mississippi","cityName":"sharon","nearbyCities":[{"city":"Canton","state_name":"Mississippi","lat":32.62834,"lng":-89.99634,"zip":"39046","miles_from_dt":4.04},{"city":"Camden","state_name":"Mississippi","lat":32.78735,"lng":-89.8173,"zip":"39045","miles_from_dt":11.28},{"city":"Sandhill","state_name":"Mississippi","lat":32.46977,"lng":-89.8764,"zip":"39161","miles_from_dt":13.51},{"city":"Vaughan","state_name":"Mississippi","lat":32.80873,"lng":-90.0984,"zip":"39179","miles_from_dt":13.96},{"city":"Ludlow","state_name":"Mississippi","lat":32.57298,"lng":-89.70935,"zip":"39098","miles_from_dt":14.55},{"city":"Brandon","state_name":"Mississippi","lat":32.43356,"lng":-89.95011,"zip":"39047","miles_from_dt":15.54},{"city":"Pickens","state_name":"Mississippi","lat":32.88078,"lng":-89.99316,"zip":"39146","miles_from_dt":15.63},{"city":"Madison","state_name":"Mississippi","lat":32.50325,"lng":-90.13791,"zip":"39110","miles_from_dt":15.88},{"city":"Lena","state_name":"Mississippi","lat":32.57497,"lng":-89.67591,"zip":"39094","miles_from_dt":16.3},{"city":"Madison","state_name":"Mississippi","lat":32.46296,"lng":-90.1149,"zip":"39130","miles_from_dt":17.02},{"city":"Goodman","state_name":"Mississippi","lat":32.93178,"lng":-89.88449,"zip":"39079","miles_from_dt":19.06},{"city":"Ridgeland","state_name":"Mississippi","lat":32.41899,"lng":-90.13228,"zip":"39158","miles_from_dt":20.07},{"city":"Benton","state_name":"Mississippi","lat":32.82216,"lng":-90.22757,"zip":"39039","miles_from_dt":20.31},{"city":"Ridgeland","state_name":"Mississippi","lat":32.42537,"lng":-90.16685,"zip":"39157","miles_from_dt":20.94},{"city":"Thomastown","state_name":"Mississippi","lat":32.86351,"lng":-89.67094,"zip":"39171","miles_from_dt":20.96},{"city":"Tougaloo","state_name":"Mississippi","lat":32.4009,"lng":-90.16018,"zip":"39174","miles_from_dt":22.03},{"city":"Jackson","state_name":"Mississippi","lat":32.37176,"lng":-90.12219,"zip":"39211","miles_from_dt":22.54},{"city":"Flora","state_name":"Mississippi","lat":32.54887,"lng":-90.3185,"zip":"39071","miles_from_dt":23.5},{"city":"Pelahatchie","state_name":"Mississippi","lat":32.33862,"lng":-89.79819,"zip":"39145","miles_from_dt":23.51},{"city":"Jackson","state_name":"Mississippi","lat":32.36421,"lng":-90.14518,"zip":"39236","miles_from_dt":23.66},{"city":"Flowood","state_name":"Mississippi","lat":32.3361,"lng":-90.08693,"zip":"39232","miles_from_dt":23.9},{"city":"Jackson","state_name":"Mississippi","lat":32.37237,"lng":-90.17268,"zip":"39206","miles_from_dt":24.06},{"city":"Jackson","state_name":"Mississippi","lat":32.39384,"lng":-90.23007,"zip":"39213","miles_from_dt":25.02},{"city":"Jackson","state_name":"Mississippi","lat":32.34515,"lng":-90.16596,"zip":"39296","miles_from_dt":25.41},{"city":"Jackson","state_name":"Mississippi","lat":32.35065,"lng":-90.1765,"zip":"39286","miles_from_dt":25.42},{"city":"Sallis","state_name":"Mississippi","lat":32.99756,"lng":-89.75336,"zip":"39160","miles_from_dt":25.67},{"city":"Jackson","state_name":"Mississippi","lat":32.33463,"lng":-90.1606,"zip":"39216","miles_from_dt":25.87},{"city":"Brandon","state_name":"Mississippi","lat":32.28253,"lng":-90.00517,"zip":"39043","miles_from_dt":26.23},{"city":"Jackson","state_name":"Mississippi","lat":32.36789,"lng":-90.23112,"zip":"39283","miles_from_dt":26.39},{"city":"Carthage","state_name":"Mississippi","lat":32.7868,"lng":-89.50718,"zip":"39051","miles_from_dt":26.56},{"city":"Jackson","state_name":"Mississippi","lat":32.32255,"lng":-90.17997,"zip":"39210","miles_from_dt":27.17},{"city":"Jackson","state_name":"Mississippi","lat":32.38546,"lng":-90.27653,"zip":"39289","miles_from_dt":27.34},{"city":"Jackson","state_name":"Mississippi","lat":32.31105,"lng":-90.16956,"zip":"39202","miles_from_dt":27.54},{"city":"Pearl","state_name":"Mississippi","lat":32.30002,"lng":-90.14555,"zip":"39288","miles_from_dt":27.56},{"city":"Bentonia","state_name":"Mississippi","lat":32.63907,"lng":-90.41314,"zip":"39040","miles_from_dt":27.78},{"city":"Clinton","state_name":"Mississippi","lat":32.36283,"lng":-90.26543,"zip":"39060","miles_from_dt":27.99},{"city":"Jackson","state_name":"Mississippi","lat":32.39498,"lng":-90.30168,"zip":"39209","miles_from_dt":27.99},{"city":"Jackson","state_name":"Mississippi","lat":32.32198,"lng":-90.20603,"zip":"39298","miles_from_dt":28.02},{"city":"Jackson","state_name":"Mississippi","lat":32.30432,"lng":-90.18253,"zip":"39205","miles_from_dt":28.32},{"city":"Harperville","state_name":"Mississippi","lat":32.496,"lng":-89.48983,"zip":"39080","miles_from_dt":28.41},{"city":"Hillsboro","state_name":"Mississippi","lat":32.4565,"lng":-89.51124,"zip":"39087","miles_from_dt":28.5},{"city":"Jackson","state_name":"Mississippi","lat":32.30928,"lng":-90.20042,"zip":"39203","miles_from_dt":28.58},{"city":"Jackson","state_name":"Mississippi","lat":32.3062,"lng":-90.19859,"zip":"39207","miles_from_dt":28.7},{"city":"Jackson","state_name":"Mississippi","lat":32.30114,"lng":-90.1889,"zip":"39269","miles_from_dt":28.7},{"city":"Jackson","state_name":"Mississippi","lat":32.29717,"lng":-90.1837,"zip":"39215","miles_from_dt":28.78},{"city":"Morton","state_name":"Mississippi","lat":32.31096,"lng":-89.66413,"zip":"39117","miles_from_dt":28.79},{"city":"McAdams","state_name":"Mississippi","lat":33.01949,"lng":-89.68708,"zip":"39107","miles_from_dt":28.8},{"city":"Pearl","state_name":"Mississippi","lat":32.25827,"lng":-90.08908,"zip":"39208","miles_from_dt":28.99},{"city":"Jackson","state_name":"Mississippi","lat":32.29146,"lng":-90.18351,"zip":"39225","miles_from_dt":29.12},{"city":"Jackson","state_name":"Mississippi","lat":32.28983,"lng":-90.18084,"zip":"39271","miles_from_dt":29.14},{"city":"Jackson","state_name":"Mississippi","lat":32.29132,"lng":-90.18593,"zip":"39250","miles_from_dt":29.2},{"city":"Jackson","state_name":"Mississippi","lat":32.28981,"lng":-90.18398,"zip":"39201","miles_from_dt":29.23},{"city":"Jackson","state_name":"Mississippi","lat":32.29754,"lng":-90.20963,"zip":"39217","miles_from_dt":29.55}],"targetCityZipCode":"39163","targetCityState":"Mississippi"},"__N_SSG":true}