{"pageProps":{"stateName":"Mississippi","cityName":"sledge","nearbyCities":[{"city":"Sledge","state_name":"Mississippi","lat":34.42815,"lng":-90.28899,"zip":"38670","miles_from_dt":2.99},{"city":"Darling","state_name":"Mississippi","lat":34.36131,"lng":-90.29692,"zip":"38623","miles_from_dt":3.35},{"city":"Crenshaw","state_name":"Mississippi","lat":34.4528,"lng":-90.1731,"zip":"38621","miles_from_dt":6.13},{"city":"Marks","state_name":"Mississippi","lat":34.28141,"lng":-90.29673,"zip":"38646","miles_from_dt":8.2},{"city":"Marks","state_name":"Mississippi","lat":34.2327,"lng":-90.29265,"zip":"38609","miles_from_dt":11.41},{"city":"Jonestown","state_name":"Mississippi","lat":34.30909,"lng":-90.4285,"zip":"38639","miles_from_dt":11.57},{"city":"Lula","state_name":"Mississippi","lat":34.45899,"lng":-90.47576,"zip":"38644","miles_from_dt":13.36},{"city":"Dundee","state_name":"Mississippi","lat":34.5182,"lng":-90.43966,"zip":"38626","miles_from_dt":13.53},{"city":"Sarah","state_name":"Mississippi","lat":34.58165,"lng":-90.16693,"zip":"38665","miles_from_dt":13.79},{"city":"Coahoma","state_name":"Mississippi","lat":34.36261,"lng":-90.49342,"zip":"38617","miles_from_dt":13.81},{"city":"Lyon","state_name":"Mississippi","lat":34.2469,"lng":-90.47663,"zip":"38645","miles_from_dt":16.29},{"city":"Lambert","state_name":"Mississippi","lat":34.15082,"lng":-90.26281,"zip":"38643","miles_from_dt":16.86},{"city":"Crowder","state_name":"Mississippi","lat":34.16944,"lng":-90.13448,"zip":"38622","miles_from_dt":17.02},{"city":"Batesville","state_name":"Mississippi","lat":34.30375,"lng":-89.9581,"zip":"38606","miles_from_dt":18.1},{"city":"Sardis","state_name":"Mississippi","lat":34.42007,"lng":-89.92708,"zip":"38666","miles_from_dt":18.81},{"city":"Tunica","state_name":"Mississippi","lat":34.67274,"lng":-90.3682,"zip":"38676","miles_from_dt":20.19},{"city":"Vance","state_name":"Mississippi","lat":34.11035,"lng":-90.38868,"zip":"38964","miles_from_dt":21.08},{"city":"Friars Point","state_name":"Mississippi","lat":34.35891,"lng":-90.62765,"zip":"38631","miles_from_dt":21.45},{"city":"Courtland","state_name":"Mississippi","lat":34.23206,"lng":-89.9156,"zip":"38620","miles_from_dt":22.43},{"city":"Farrell","state_name":"Mississippi","lat":34.20102,"lng":-90.57089,"zip":"38630","miles_from_dt":22.49},{"city":"Enid","state_name":"Mississippi","lat":34.13394,"lng":-90.01827,"zip":"38927","miles_from_dt":22.54},{"city":"Senatobia","state_name":"Mississippi","lat":34.60109,"lng":-89.92505,"zip":"38668","miles_from_dt":23.57},{"city":"Helena","state_name":"Arkansas","lat":34.44492,"lng":-90.67733,"zip":"72342","miles_from_dt":24.37},{"city":"Pope","state_name":"Mississippi","lat":34.19011,"lng":-89.89906,"zip":"38658","miles_from_dt":24.79},{"city":"Arkabutla","state_name":"Mississippi","lat":34.69783,"lng":-90.00805,"zip":"38602","miles_from_dt":25.16},{"city":"Dublin","state_name":"Mississippi","lat":34.18813,"lng":-90.6254,"zip":"38739","miles_from_dt":25.55},{"city":"Sherard","state_name":"Mississippi","lat":34.18965,"lng":-90.62667,"zip":"38669","miles_from_dt":25.56},{"city":"Como","state_name":"Mississippi","lat":34.51288,"lng":-89.82678,"zip":"38619","miles_from_dt":25.76},{"city":"Clarksdale","state_name":"Mississippi","lat":34.15914,"lng":-90.60747,"zip":"38614","miles_from_dt":25.92},{"city":"West Helena","state_name":"Arkansas","lat":34.55426,"lng":-90.67756,"zip":"72390","miles_from_dt":26.5},{"city":"Barton","state_name":"Arkansas","lat":34.49379,"lng":-90.71316,"zip":"72312","miles_from_dt":27.03},{"city":"Coldwater","state_name":"Mississippi","lat":34.70203,"lng":-89.93415,"zip":"38618","miles_from_dt":27.96},{"city":"Tutwiler","state_name":"Mississippi","lat":34.00442,"lng":-90.40598,"zip":"38963","miles_from_dt":28.29},{"city":"Robinsonville","state_name":"Mississippi","lat":34.80434,"lng":-90.33217,"zip":"38664","miles_from_dt":28.54},{"city":"Sumner","state_name":"Mississippi","lat":33.98747,"lng":-90.37296,"zip":"38957","miles_from_dt":28.91},{"city":"Charleston","state_name":"Mississippi","lat":33.98328,"lng":-90.1425,"zip":"38921","miles_from_dt":29.12},{"city":"Independence","state_name":"Mississippi","lat":34.63309,"lng":-89.82378,"zip":"38638","miles_from_dt":29.56}],"targetCityZipCode":"38628","targetCityState":"Mississippi"},"__N_SSG":true}