{"pageProps":{"stateName":"Mississippi","cityName":"thomastown","nearbyCities":[{"city":"Camden","state_name":"Mississippi","lat":32.78735,"lng":-89.8173,"zip":"39045","miles_from_dt":10},{"city":"Sallis","state_name":"Mississippi","lat":32.99756,"lng":-89.75336,"zip":"39160","miles_from_dt":10.41},{"city":"McAdams","state_name":"Mississippi","lat":33.01949,"lng":-89.68708,"zip":"39107","miles_from_dt":10.79},{"city":"Carthage","state_name":"Mississippi","lat":32.7868,"lng":-89.50718,"zip":"39051","miles_from_dt":10.9},{"city":"Kosciusko","state_name":"Mississippi","lat":33.00775,"lng":-89.54503,"zip":"39090","miles_from_dt":12.34},{"city":"Goodman","state_name":"Mississippi","lat":32.93178,"lng":-89.88449,"zip":"39079","miles_from_dt":13.28},{"city":"Pickens","state_name":"Mississippi","lat":32.88078,"lng":-89.99316,"zip":"39146","miles_from_dt":18.78},{"city":"Lena","state_name":"Mississippi","lat":32.57497,"lng":-89.67591,"zip":"39094","miles_from_dt":19.89},{"city":"Ludlow","state_name":"Mississippi","lat":32.57298,"lng":-89.70935,"zip":"39098","miles_from_dt":20.14},{"city":"Madden","state_name":"Mississippi","lat":32.70757,"lng":-89.37619,"zip":"39109","miles_from_dt":20.24},{"city":"Sharon","state_name":"Mississippi","lat":32.65887,"lng":-89.93721,"zip":"39163","miles_from_dt":20.96},{"city":"Ethel","state_name":"Mississippi","lat":33.11574,"lng":-89.44853,"zip":"39067","miles_from_dt":21.66},{"city":"Durant","state_name":"Mississippi","lat":33.11698,"lng":-89.89975,"zip":"39063","miles_from_dt":21.95},{"city":"West","state_name":"Mississippi","lat":33.19153,"lng":-89.75324,"zip":"39192","miles_from_dt":23.1},{"city":"Walnut Grove","state_name":"Mississippi","lat":32.60412,"lng":-89.4003,"zip":"39189","miles_from_dt":23.83},{"city":"Canton","state_name":"Mississippi","lat":32.62834,"lng":-89.99634,"zip":"39046","miles_from_dt":24.93},{"city":"Vaughan","state_name":"Mississippi","lat":32.80873,"lng":-90.0984,"zip":"39179","miles_from_dt":25.15},{"city":"Harperville","state_name":"Mississippi","lat":32.496,"lng":-89.48983,"zip":"39080","miles_from_dt":27.44},{"city":"McCool","state_name":"Mississippi","lat":33.15684,"lng":-89.33033,"zip":"39108","miles_from_dt":28.28},{"city":"Sebastopol","state_name":"Mississippi","lat":32.56852,"lng":-89.33206,"zip":"39359","miles_from_dt":28.34},{"city":"Hillsboro","state_name":"Mississippi","lat":32.4565,"lng":-89.51124,"zip":"39087","miles_from_dt":29.55},{"city":"Sandhill","state_name":"Mississippi","lat":32.46977,"lng":-89.8764,"zip":"39161","miles_from_dt":29.66}],"targetCityZipCode":"39171","targetCityState":"Mississippi"},"__N_SSG":true}