{"pageProps":{"stateName":"Mississippi","cityName":"vicksburg","nearbyCities":[{"city":"Delta","state_name":"Louisiana","lat":32.32509,"lng":-90.93177,"zip":"71233","miles_from_dt":7.24},{"city":"Vicksburg","state_name":"Mississippi","lat":32.34371,"lng":-90.85746,"zip":"39181","miles_from_dt":8.72},{"city":"Vicksburg","state_name":"Mississippi","lat":32.35085,"lng":-90.87854,"zip":"39182","miles_from_dt":8.92},{"city":"Vicksburg","state_name":"Mississippi","lat":32.4554,"lng":-90.83307,"zip":"39183","miles_from_dt":16.52},{"city":"Port Gibson","state_name":"Mississippi","lat":31.99264,"lng":-90.98487,"zip":"39150","miles_from_dt":16.6},{"city":"Edwards","state_name":"Mississippi","lat":32.30188,"lng":-90.60502,"zip":"39066","miles_from_dt":18.23},{"city":"Utica","state_name":"Mississippi","lat":32.09238,"lng":-90.62097,"zip":"39175","miles_from_dt":18.78},{"city":"Tallulah","state_name":"Louisiana","lat":32.35662,"lng":-91.20042,"zip":"71282","miles_from_dt":19.73},{"city":"Hermanville","state_name":"Mississippi","lat":31.96275,"lng":-90.75964,"zip":"39086","miles_from_dt":19.79},{"city":"Tallulah","state_name":"Louisiana","lat":32.4066,"lng":-91.18632,"zip":"71284","miles_from_dt":20.89},{"city":"Redwood","state_name":"Mississippi","lat":32.53901,"lng":-90.77056,"zip":"39156","miles_from_dt":23.1},{"city":"Newellton","state_name":"Louisiana","lat":32.1084,"lng":-91.29717,"zip":"71357","miles_from_dt":24.46},{"city":"Raymond","state_name":"Mississippi","lat":32.22695,"lng":-90.44762,"zip":"39154","miles_from_dt":26.63},{"city":"Valley Park","state_name":"Mississippi","lat":32.61286,"lng":-90.84546,"zip":"39177","miles_from_dt":27.07},{"city":"Pattison","state_name":"Mississippi","lat":31.82971,"lng":-90.80155,"zip":"39144","miles_from_dt":27.74},{"city":"Bolton","state_name":"Mississippi","lat":32.41757,"lng":-90.47273,"zip":"39041","miles_from_dt":28.48},{"city":"Sondheimer","state_name":"Louisiana","lat":32.57727,"lng":-91.16277,"zip":"71276","miles_from_dt":28.77}],"targetCityZipCode":"39180","targetCityState":"Mississippi"},"__N_SSG":true}