{"pageProps":{"stateName":"Nebraska","cityName":"ames","nearbyCities":[{"city":"Cedar Bluffs","state_name":"Nebraska","lat":41.38351,"lng":-96.64737,"zip":"68015","miles_from_dt":7.34},{"city":"North Bend","state_name":"Nebraska","lat":41.50784,"lng":-96.78896,"zip":"68649","miles_from_dt":7.88},{"city":"Fremont","state_name":"Nebraska","lat":41.43749,"lng":-96.49158,"zip":"68025","miles_from_dt":8.46},{"city":"Fremont","state_name":"Nebraska","lat":41.44032,"lng":-96.48975,"zip":"68026","miles_from_dt":8.47},{"city":"Morse Bluff","state_name":"Nebraska","lat":41.40482,"lng":-96.78949,"zip":"68648","miles_from_dt":9.76},{"city":"Nickerson","state_name":"Nebraska","lat":41.54798,"lng":-96.44871,"zip":"68044","miles_from_dt":10.66},{"city":"Winslow","state_name":"Nebraska","lat":41.61016,"lng":-96.50473,"zip":"68072","miles_from_dt":10.85},{"city":"Hooper","state_name":"Nebraska","lat":41.64041,"lng":-96.53046,"zip":"68031","miles_from_dt":11.83},{"city":"Scribner","state_name":"Nebraska","lat":41.65888,"lng":-96.71893,"zip":"68057","miles_from_dt":12.39},{"city":"Colon","state_name":"Nebraska","lat":41.30207,"lng":-96.61573,"zip":"68018","miles_from_dt":13},{"city":"Malmo","state_name":"Nebraska","lat":41.28555,"lng":-96.73815,"zip":"68040","miles_from_dt":14.99},{"city":"Arlington","state_name":"Nebraska","lat":41.50163,"lng":-96.33975,"zip":"68002","miles_from_dt":15.55},{"city":"Rogers","state_name":"Nebraska","lat":41.54388,"lng":-96.94438,"zip":"68659","miles_from_dt":16.27},{"city":"Prague","state_name":"Nebraska","lat":41.30593,"lng":-96.84303,"zip":"68050","miles_from_dt":16.52},{"city":"Snyder","state_name":"Nebraska","lat":41.70453,"lng":-96.78694,"zip":"68664","miles_from_dt":16.69},{"city":"Linwood","state_name":"Nebraska","lat":41.39031,"lng":-96.95086,"zip":"68036","miles_from_dt":17.58},{"city":"Valley","state_name":"Nebraska","lat":41.34925,"lng":-96.35545,"zip":"68064","miles_from_dt":17.63},{"city":"Uehling","state_name":"Nebraska","lat":41.72124,"lng":-96.49345,"zip":"68063","miles_from_dt":17.68},{"city":"Mead","state_name":"Nebraska","lat":41.23633,"lng":-96.48793,"zip":"68041","miles_from_dt":19.17},{"city":"Abie","state_name":"Nebraska","lat":41.33369,"lng":-96.95489,"zip":"68001","miles_from_dt":19.62},{"city":"Dodge","state_name":"Nebraska","lat":41.70585,"lng":-96.89668,"zip":"68633","miles_from_dt":20.02},{"city":"Yutan","state_name":"Nebraska","lat":41.23931,"lng":-96.40931,"zip":"68073","miles_from_dt":21},{"city":"Wahoo","state_name":"Nebraska","lat":41.18451,"lng":-96.61996,"zip":"68066","miles_from_dt":21.08},{"city":"Kennard","state_name":"Nebraska","lat":41.45558,"lng":-96.2203,"zip":"68034","miles_from_dt":21.86},{"city":"Weston","state_name":"Nebraska","lat":41.1924,"lng":-96.79973,"zip":"68070","miles_from_dt":22.15},{"city":"Bruno","state_name":"Nebraska","lat":41.28219,"lng":-96.96458,"zip":"68014","miles_from_dt":22.16},{"city":"Herman","state_name":"Nebraska","lat":41.65873,"lng":-96.27394,"zip":"68029","miles_from_dt":22.23},{"city":"Schuyler","state_name":"Nebraska","lat":41.49559,"lng":-97.08347,"zip":"68661","miles_from_dt":23.06},{"city":"Washington","state_name":"Nebraska","lat":41.39759,"lng":-96.20741,"zip":"68068","miles_from_dt":23.3},{"city":"Waterloo","state_name":"Nebraska","lat":41.24166,"lng":-96.31542,"zip":"68069","miles_from_dt":24},{"city":"Craig","state_name":"Nebraska","lat":41.77965,"lng":-96.37323,"zip":"68019","miles_from_dt":24.29},{"city":"Blair","state_name":"Nebraska","lat":41.54573,"lng":-96.17421,"zip":"68008","miles_from_dt":24.42},{"city":"Bennington","state_name":"Nebraska","lat":41.37184,"lng":-96.19524,"zip":"68007","miles_from_dt":24.44},{"city":"Oakland","state_name":"Nebraska","lat":41.8273,"lng":-96.49523,"zip":"68045","miles_from_dt":24.46},{"city":"West Point","state_name":"Nebraska","lat":41.8387,"lng":-96.72571,"zip":"68788","miles_from_dt":24.5},{"city":"Elkhorn","state_name":"Nebraska","lat":41.27744,"lng":-96.24558,"zip":"68022","miles_from_dt":25.16},{"city":"Howells","state_name":"Nebraska","lat":41.73452,"lng":-97.00829,"zip":"68641","miles_from_dt":25.52},{"city":"Ithaca","state_name":"Nebraska","lat":41.12933,"lng":-96.52425,"zip":"68033","miles_from_dt":25.57},{"city":"Omaha","state_name":"Nebraska","lat":41.29842,"lng":-96.16629,"zip":"68116","miles_from_dt":27.89},{"city":"Omaha","state_name":"Nebraska","lat":41.263,"lng":-96.1772,"zip":"68118","miles_from_dt":28.65},{"city":"Brainard","state_name":"Nebraska","lat":41.16821,"lng":-96.9921,"zip":"68626","miles_from_dt":28.8},{"city":"Omaha","state_name":"Nebraska","lat":41.23394,"lng":-96.19613,"zip":"68130","miles_from_dt":29.01},{"city":"Omaha","state_name":"Nebraska","lat":41.37012,"lng":-96.10276,"zip":"68142","miles_from_dt":29.05},{"city":"Memphis","state_name":"Nebraska","lat":41.09426,"lng":-96.43683,"zip":"68042","miles_from_dt":29.24},{"city":"Ceresco","state_name":"Nebraska","lat":41.05938,"lng":-96.66179,"zip":"68017","miles_from_dt":29.71},{"city":"Clarkson","state_name":"Nebraska","lat":41.71336,"lng":-97.12936,"zip":"68629","miles_from_dt":29.72}],"targetCityZipCode":"68621","targetCityState":"Nebraska"},"__N_SSG":true}