{"pageProps":{"stateName":"Nebraska","cityName":"daykin","nearbyCities":[{"city":"Tobias","state_name":"Nebraska","lat":40.40774,"lng":-97.33455,"zip":"68453","miles_from_dt":7.64},{"city":"Western","state_name":"Nebraska","lat":40.42232,"lng":-97.1955,"zip":"68464","miles_from_dt":7.68},{"city":"Alexandria","state_name":"Nebraska","lat":40.25753,"lng":-97.41033,"zip":"68303","miles_from_dt":9.53},{"city":"Swanton","state_name":"Nebraska","lat":40.40146,"lng":-97.08662,"zip":"68445","miles_from_dt":10.28},{"city":"Fairbury","state_name":"Nebraska","lat":40.15255,"lng":-97.21931,"zip":"68352","miles_from_dt":11.56},{"city":"Plymouth","state_name":"Nebraska","lat":40.30111,"lng":-97.01818,"zip":"68424","miles_from_dt":12.23},{"city":"Ohiowa","state_name":"Nebraska","lat":40.41093,"lng":-97.46185,"zip":"68416","miles_from_dt":12.93},{"city":"Jansen","state_name":"Nebraska","lat":40.217,"lng":-97.02303,"zip":"68377","miles_from_dt":13.83},{"city":"Milligan","state_name":"Nebraska","lat":40.50566,"lng":-97.37874,"zip":"68406","miles_from_dt":14.61},{"city":"Gilead","state_name":"Nebraska","lat":40.15323,"lng":-97.42553,"zip":"68362","miles_from_dt":14.76},{"city":"Belvidere","state_name":"Nebraska","lat":40.24605,"lng":-97.53841,"zip":"68315","miles_from_dt":16.11},{"city":"Bruning","state_name":"Nebraska","lat":40.3346,"lng":-97.55356,"zip":"68322","miles_from_dt":16.14},{"city":"Wilber","state_name":"Nebraska","lat":40.49248,"lng":-97.01987,"zip":"68465","miles_from_dt":17.01},{"city":"De Witt","state_name":"Nebraska","lat":40.3855,"lng":-96.91378,"zip":"68341","miles_from_dt":18.27},{"city":"Reynolds","state_name":"Nebraska","lat":40.06406,"lng":-97.37437,"zip":"68429","miles_from_dt":18.78},{"city":"Strang","state_name":"Nebraska","lat":40.41117,"lng":-97.5847,"zip":"68444","miles_from_dt":18.85},{"city":"Hebron","state_name":"Nebraska","lat":40.14148,"lng":-97.55567,"zip":"68370","miles_from_dt":20.32},{"city":"Endicott","state_name":"Nebraska","lat":40.03961,"lng":-97.09166,"zip":"68350","miles_from_dt":20.97},{"city":"Friend","state_name":"Nebraska","lat":40.63059,"lng":-97.28333,"zip":"68359","miles_from_dt":21.6},{"city":"Dorchester","state_name":"Nebraska","lat":40.61989,"lng":-97.13194,"zip":"68343","miles_from_dt":21.68},{"city":"Diller","state_name":"Nebraska","lat":40.1034,"lng":-96.94496,"zip":"68342","miles_from_dt":21.88},{"city":"Steele City","state_name":"Nebraska","lat":40.05266,"lng":-97.01168,"zip":"68440","miles_from_dt":22.23},{"city":"Geneva","state_name":"Nebraska","lat":40.50756,"lng":-97.60146,"zip":"68361","miles_from_dt":22.72},{"city":"Carleton","state_name":"Nebraska","lat":40.28569,"lng":-97.68243,"zip":"68326","miles_from_dt":23.03},{"city":"Hubbell","state_name":"Nebraska","lat":40.03939,"lng":-97.48826,"zip":"68375","miles_from_dt":23.07},{"city":"Mahaska","state_name":"Kansas","lat":39.97984,"lng":-97.31715,"zip":"66955","miles_from_dt":23.66},{"city":"Clatonia","state_name":"Nebraska","lat":40.47694,"lng":-96.8384,"zip":"68328","miles_from_dt":24.24},{"city":"Exeter","state_name":"Nebraska","lat":40.65393,"lng":-97.43015,"zip":"68351","miles_from_dt":25.03},{"city":"Crete","state_name":"Nebraska","lat":40.62126,"lng":-96.94901,"zip":"68333","miles_from_dt":26.18},{"city":"Beatrice","state_name":"Nebraska","lat":40.24957,"lng":-96.74943,"zip":"68310","miles_from_dt":26.81},{"city":"Cordova","state_name":"Nebraska","lat":40.70651,"lng":-97.34041,"zip":"68330","miles_from_dt":27.2},{"city":"Shickley","state_name":"Nebraska","lat":40.43357,"lng":-97.74427,"zip":"68436","miles_from_dt":27.33},{"city":"Hollenberg","state_name":"Kansas","lat":39.96684,"lng":-97.00192,"zip":"66946","miles_from_dt":27.57},{"city":"Hallam","state_name":"Nebraska","lat":40.55598,"lng":-96.81665,"zip":"68368","miles_from_dt":28.05},{"city":"Fairmont","state_name":"Nebraska","lat":40.63935,"lng":-97.58032,"zip":"68354","miles_from_dt":28.2},{"city":"Narka","state_name":"Kansas","lat":39.93042,"lng":-97.42134,"zip":"66960","miles_from_dt":28.3},{"city":"Odell","state_name":"Nebraska","lat":40.06249,"lng":-96.82157,"zip":"68415","miles_from_dt":28.69},{"city":"Chester","state_name":"Nebraska","lat":40.01079,"lng":-97.62113,"zip":"68327","miles_from_dt":28.98},{"city":"Deshler","state_name":"Nebraska","lat":40.12525,"lng":-97.74126,"zip":"68340","miles_from_dt":29.27},{"city":"Davenport","state_name":"Nebraska","lat":40.28243,"lng":-97.803,"zip":"68335","miles_from_dt":29.39},{"city":"Pickrell","state_name":"Nebraska","lat":40.38863,"lng":-96.69755,"zip":"68422","miles_from_dt":29.49}],"targetCityZipCode":"68338","targetCityState":"Nebraska"},"__N_SSG":true}