{"pageProps":{"stateName":"Nebraska","cityName":"eagle","nearbyCities":[{"city":"Walton","state_name":"Nebraska","lat":40.76682,"lng":-96.51419,"zip":"68461","miles_from_dt":5.42},{"city":"Lincoln","state_name":"Nebraska","lat":40.84573,"lng":-96.51753,"zip":"68527","miles_from_dt":5.76},{"city":"Alvo","state_name":"Nebraska","lat":40.88971,"lng":-96.38781,"zip":"68304","miles_from_dt":6.23},{"city":"Elmwood","state_name":"Nebraska","lat":40.82962,"lng":-96.30028,"zip":"68349","miles_from_dt":6.67},{"city":"Lincoln","state_name":"Nebraska","lat":40.79827,"lng":-96.55313,"zip":"68520","miles_from_dt":6.85},{"city":"Palmyra","state_name":"Nebraska","lat":40.69568,"lng":-96.38435,"zip":"68418","miles_from_dt":7.71},{"city":"Lincoln","state_name":"Nebraska","lat":40.7324,"lng":-96.58269,"zip":"68526","miles_from_dt":9.72},{"city":"Bennet","state_name":"Nebraska","lat":40.67325,"lng":-96.50451,"zip":"68317","miles_from_dt":9.96},{"city":"Lincoln","state_name":"Nebraska","lat":40.82446,"lng":-96.61562,"zip":"68505","miles_from_dt":10.22},{"city":"Unadilla","state_name":"Nebraska","lat":40.69275,"lng":-96.28686,"zip":"68454","miles_from_dt":10.45},{"city":"Lincoln","state_name":"Nebraska","lat":40.8529,"lng":-96.61311,"zip":"68529","miles_from_dt":10.55},{"city":"Lincoln","state_name":"Nebraska","lat":40.85954,"lng":-96.61172,"zip":"68507","miles_from_dt":10.63},{"city":"Waverly","state_name":"Nebraska","lat":40.94804,"lng":-96.52806,"zip":"68462","miles_from_dt":11.4},{"city":"Lincoln","state_name":"Nebraska","lat":40.78422,"lng":-96.63959,"zip":"68506","miles_from_dt":11.45},{"city":"Murdock","state_name":"Nebraska","lat":40.921,"lng":-96.26263,"zip":"68407","miles_from_dt":11.67},{"city":"Lincoln","state_name":"Nebraska","lat":40.80654,"lng":-96.64835,"zip":"68510","miles_from_dt":11.83},{"city":"Greenwood","state_name":"Nebraska","lat":40.98215,"lng":-96.44222,"zip":"68366","miles_from_dt":12.37},{"city":"Lincoln","state_name":"Nebraska","lat":40.73493,"lng":-96.6428,"zip":"68516","miles_from_dt":12.48},{"city":"Lincoln","state_name":"Nebraska","lat":40.8284,"lng":-96.66302,"zip":"68583","miles_from_dt":12.71},{"city":"Lincoln","state_name":"Nebraska","lat":40.85451,"lng":-96.66104,"zip":"68504","miles_from_dt":12.98},{"city":"Lincoln","state_name":"Nebraska","lat":40.93341,"lng":-96.60487,"zip":"68517","miles_from_dt":13.09},{"city":"Lincoln","state_name":"Nebraska","lat":40.82447,"lng":-96.67387,"zip":"68503","miles_from_dt":13.25},{"city":"Lincoln","state_name":"Nebraska","lat":40.82482,"lng":-96.69644,"zip":"68588","miles_from_dt":14.42},{"city":"Panama","state_name":"Nebraska","lat":40.60297,"lng":-96.51129,"zip":"68419","miles_from_dt":14.6},{"city":"Lincoln","state_name":"Nebraska","lat":40.7873,"lng":-96.70053,"zip":"68542","miles_from_dt":14.61},{"city":"Lincoln","state_name":"Nebraska","lat":40.78361,"lng":-96.70083,"zip":"68502","miles_from_dt":14.65},{"city":"Avoca","state_name":"Nebraska","lat":40.78769,"lng":-96.14054,"zip":"68307","miles_from_dt":14.84},{"city":"Lincoln","state_name":"Nebraska","lat":40.81831,"lng":-96.70621,"zip":"68508","miles_from_dt":14.9},{"city":"Lincoln","state_name":"Nebraska","lat":40.8136,"lng":-96.70726,"zip":"68544","miles_from_dt":14.93},{"city":"Lincoln","state_name":"Nebraska","lat":40.93408,"lng":-96.65076,"zip":"68514","miles_from_dt":14.96},{"city":"Lincoln","state_name":"Nebraska","lat":40.8167,"lng":-96.70917,"zip":"68509","miles_from_dt":15.04},{"city":"Lincoln","state_name":"Nebraska","lat":40.73746,"lng":-96.70567,"zip":"68512","miles_from_dt":15.53},{"city":"Manley","state_name":"Nebraska","lat":40.92045,"lng":-96.16707,"zip":"68403","miles_from_dt":15.64},{"city":"Roca","state_name":"Nebraska","lat":40.66599,"lng":-96.66012,"zip":"68430","miles_from_dt":15.66},{"city":"Lincoln","state_name":"Nebraska","lat":40.8618,"lng":-96.71519,"zip":"68521","miles_from_dt":15.85},{"city":"Weeping Water","state_name":"Nebraska","lat":40.8759,"lng":-96.13518,"zip":"68463","miles_from_dt":15.88},{"city":"Douglas","state_name":"Nebraska","lat":40.57159,"lng":-96.39544,"zip":"68344","miles_from_dt":16.06},{"city":"Hickman","state_name":"Nebraska","lat":40.60498,"lng":-96.60539,"zip":"68372","miles_from_dt":16.72},{"city":"Lincoln","state_name":"Nebraska","lat":40.90211,"lng":-96.71415,"zip":"68531","miles_from_dt":16.72},{"city":"Syracuse","state_name":"Nebraska","lat":40.65002,"lng":-96.17535,"zip":"68446","miles_from_dt":16.76},{"city":"South Bend","state_name":"Nebraska","lat":41.00842,"lng":-96.2483,"zip":"68058","miles_from_dt":16.83},{"city":"Davey","state_name":"Nebraska","lat":40.9615,"lng":-96.68405,"zip":"68336","miles_from_dt":17.5},{"city":"Lincoln","state_name":"Nebraska","lat":40.78941,"lng":-96.76214,"zip":"68522","miles_from_dt":17.82},{"city":"Otoe","state_name":"Nebraska","lat":40.7359,"lng":-96.09199,"zip":"68417","miles_from_dt":17.97},{"city":"Lincoln","state_name":"Nebraska","lat":40.73555,"lng":-96.75708,"zip":"68523","miles_from_dt":18.16},{"city":"Lincoln","state_name":"Nebraska","lat":40.82379,"lng":-96.77509,"zip":"68501","miles_from_dt":18.53},{"city":"Burr","state_name":"Nebraska","lat":40.55407,"lng":-96.29014,"zip":"68324","miles_from_dt":18.57},{"city":"Ashland","state_name":"Nebraska","lat":41.07161,"lng":-96.38013,"zip":"68003","miles_from_dt":18.64},{"city":"Louisville","state_name":"Nebraska","lat":40.9844,"lng":-96.12673,"zip":"68037","miles_from_dt":19.9},{"city":"Memphis","state_name":"Nebraska","lat":41.09426,"lng":-96.43683,"zip":"68042","miles_from_dt":20.08},{"city":"Lincoln","state_name":"Nebraska","lat":40.87145,"lng":-96.80264,"zip":"68524","miles_from_dt":20.45},{"city":"Lincoln","state_name":"Nebraska","lat":40.82244,"lng":-96.81762,"zip":"68528","miles_from_dt":20.74},{"city":"Sprague","state_name":"Nebraska","lat":40.62656,"lng":-96.74463,"zip":"68438","miles_from_dt":20.85},{"city":"Firth","state_name":"Nebraska","lat":40.53321,"lng":-96.60973,"zip":"68358","miles_from_dt":21.08},{"city":"Martell","state_name":"Nebraska","lat":40.619,"lng":-96.75566,"zip":"68404","miles_from_dt":21.62},{"city":"Ceresco","state_name":"Nebraska","lat":41.05938,"lng":-96.66179,"zip":"68017","miles_from_dt":21.64},{"city":"Nehawka","state_name":"Nebraska","lat":40.83775,"lng":-96.01053,"zip":"68413","miles_from_dt":21.74},{"city":"Lincoln","state_name":"Nebraska","lat":40.79544,"lng":-96.84332,"zip":"68532","miles_from_dt":22.06},{"city":"Gretna","state_name":"Nebraska","lat":41.10513,"lng":-96.26098,"zip":"68028","miles_from_dt":22.47},{"city":"Cedar Creek","state_name":"Nebraska","lat":41.02518,"lng":-96.1063,"zip":"68016","miles_from_dt":22.55},{"city":"Raymond","state_name":"Nebraska","lat":40.97244,"lng":-96.79624,"zip":"68428","miles_from_dt":22.77},{"city":"Dunbar","state_name":"Nebraska","lat":40.66195,"lng":-96.03066,"zip":"68346","miles_from_dt":22.78},{"city":"Springfield","state_name":"Nebraska","lat":41.06673,"lng":-96.1595,"zip":"68059","miles_from_dt":22.8},{"city":"Ithaca","state_name":"Nebraska","lat":41.12933,"lng":-96.52425,"zip":"68033","miles_from_dt":23.1},{"city":"Adams","state_name":"Nebraska","lat":40.46847,"lng":-96.52244,"zip":"68301","miles_from_dt":23.7},{"city":"Denton","state_name":"Nebraska","lat":40.73214,"lng":-96.86696,"zip":"68339","miles_from_dt":23.82},{"city":"Malcolm","state_name":"Nebraska","lat":40.90829,"lng":-96.8571,"zip":"68402","miles_from_dt":23.88},{"city":"Sterling","state_name":"Nebraska","lat":40.45627,"lng":-96.36758,"zip":"68443","miles_from_dt":24.13},{"city":"Cook","state_name":"Nebraska","lat":40.50089,"lng":-96.16772,"zip":"68329","miles_from_dt":24.81},{"city":"Lorton","state_name":"Nebraska","lat":40.59724,"lng":-96.02425,"zip":"68382","miles_from_dt":25.31},{"city":"Murray","state_name":"Nebraska","lat":40.90906,"lng":-95.95074,"zip":"68409","miles_from_dt":25.78},{"city":"Hallam","state_name":"Nebraska","lat":40.55598,"lng":-96.81665,"zip":"68368","miles_from_dt":26.83},{"city":"Talmage","state_name":"Nebraska","lat":40.54429,"lng":-96.035,"zip":"68448","miles_from_dt":27.11},{"city":"Union","state_name":"Nebraska","lat":40.82286,"lng":-95.90123,"zip":"68455","miles_from_dt":27.37},{"city":"Cortland","state_name":"Nebraska","lat":40.4712,"lng":-96.70863,"zip":"68331","miles_from_dt":27.41},{"city":"Pleasant Dale","state_name":"Nebraska","lat":40.80112,"lng":-96.95117,"zip":"68423","miles_from_dt":27.71},{"city":"Omaha","state_name":"Nebraska","lat":41.16932,"lng":-96.18783,"zip":"68136","miles_from_dt":28.08},{"city":"Wahoo","state_name":"Nebraska","lat":41.18451,"lng":-96.61996,"zip":"68066","miles_from_dt":28.24},{"city":"Plattsmouth","state_name":"Nebraska","lat":40.98304,"lng":-95.9345,"zip":"68048","miles_from_dt":28.41},{"city":"Omaha","state_name":"Nebraska","lat":41.15661,"lng":-96.13891,"zip":"68138","miles_from_dt":28.53},{"city":"Papillion","state_name":"Nebraska","lat":41.12206,"lng":-96.06138,"zip":"68046","miles_from_dt":28.99},{"city":"Valparaiso","state_name":"Nebraska","lat":41.0766,"lng":-96.84854,"zip":"68065","miles_from_dt":29.18},{"city":"Garland","state_name":"Nebraska","lat":40.94613,"lng":-96.95661,"zip":"68360","miles_from_dt":29.65}],"targetCityZipCode":"68347","targetCityState":"Nebraska"},"__N_SSG":true}