{"pageProps":{"stateName":"Nebraska","cityName":"hayes-center","nearbyCities":[{"city":"Palisade","state_name":"Nebraska","lat":40.35565,"lng":-101.12027,"zip":"69040","miles_from_dt":15.13},{"city":"Maywood","state_name":"Nebraska","lat":40.60932,"lng":-100.73703,"zip":"69038","miles_from_dt":16.56},{"city":"Dickens","state_name":"Nebraska","lat":40.81495,"lng":-101.00664,"zip":"69132","miles_from_dt":17.2},{"city":"Wallace","state_name":"Nebraska","lat":40.82144,"lng":-101.17663,"zip":"69169","miles_from_dt":18.79},{"city":"Wauneta","state_name":"Nebraska","lat":40.44582,"lng":-101.36639,"zip":"69045","miles_from_dt":18.8},{"city":"Wellfleet","state_name":"Nebraska","lat":40.79563,"lng":-100.74068,"zip":"69170","miles_from_dt":22.51},{"city":"Elsie","state_name":"Nebraska","lat":40.80733,"lng":-101.36968,"zip":"69134","miles_from_dt":23.68},{"city":"Culbertson","state_name":"Nebraska","lat":40.23918,"lng":-100.856,"zip":"69024","miles_from_dt":24.81},{"city":"Enders","state_name":"Nebraska","lat":40.49841,"lng":-101.52638,"zip":"69027","miles_from_dt":25.68},{"city":"Curtis","state_name":"Nebraska","lat":40.61957,"lng":-100.50814,"zip":"69025","miles_from_dt":28.57},{"city":"McCook","state_name":"Nebraska","lat":40.25232,"lng":-100.65782,"zip":"69001","miles_from_dt":29.92}],"targetCityZipCode":"69032","targetCityState":"Nebraska"},"__N_SSG":true}