{"pageProps":{"stateName":"Nebraska","cityName":"juniata","nearbyCities":[{"city":"Hastings","state_name":"Nebraska","lat":40.58543,"lng":-98.38512,"zip":"68902","miles_from_dt":8.15},{"city":"Kenesaw","state_name":"Nebraska","lat":40.63088,"lng":-98.6891,"zip":"68956","miles_from_dt":8.28},{"city":"Hastings","state_name":"Nebraska","lat":40.59092,"lng":-98.36599,"zip":"68901","miles_from_dt":9.14},{"city":"Roseland","state_name":"Nebraska","lat":40.45014,"lng":-98.55962,"zip":"68973","miles_from_dt":9.9},{"city":"Holstein","state_name":"Nebraska","lat":40.45586,"lng":-98.66413,"zip":"68950","miles_from_dt":11.5},{"city":"Heartwell","state_name":"Nebraska","lat":40.56098,"lng":-98.77327,"zip":"68945","miles_from_dt":12.49},{"city":"Ayr","state_name":"Nebraska","lat":40.42366,"lng":-98.43821,"zip":"68925","miles_from_dt":12.84},{"city":"Doniphan","state_name":"Nebraska","lat":40.76963,"lng":-98.36608,"zip":"68832","miles_from_dt":15.23},{"city":"Wood River","state_name":"Nebraska","lat":40.81823,"lng":-98.58558,"zip":"68883","miles_from_dt":15.74},{"city":"Trumbull","state_name":"Nebraska","lat":40.68213,"lng":-98.25814,"zip":"68980","miles_from_dt":16.03},{"city":"Inland","state_name":"Nebraska","lat":40.61215,"lng":-98.23512,"zip":"68954","miles_from_dt":16.07},{"city":"Glenvil","state_name":"Nebraska","lat":40.46882,"lng":-98.26792,"zip":"68941","miles_from_dt":16.67},{"city":"Alda","state_name":"Nebraska","lat":40.86238,"lng":-98.4675,"zip":"68810","miles_from_dt":18.98},{"city":"Shelton","state_name":"Nebraska","lat":40.82492,"lng":-98.74663,"zip":"68876","miles_from_dt":19.35},{"city":"Minden","state_name":"Nebraska","lat":40.49009,"lng":-98.91487,"zip":"68959","miles_from_dt":20.99},{"city":"Gibbon","state_name":"Nebraska","lat":40.75728,"lng":-98.88027,"zip":"68840","miles_from_dt":21.19},{"city":"Bladen","state_name":"Nebraska","lat":40.2874,"lng":-98.60728,"zip":"68928","miles_from_dt":21.38},{"city":"Blue Hill","state_name":"Nebraska","lat":40.28514,"lng":-98.41846,"zip":"68930","miles_from_dt":22.17},{"city":"Campbell","state_name":"Nebraska","lat":40.30258,"lng":-98.73851,"zip":"68932","miles_from_dt":22.61},{"city":"Giltner","state_name":"Nebraska","lat":40.76316,"lng":-98.16677,"zip":"68841","miles_from_dt":22.84},{"city":"Harvard","state_name":"Nebraska","lat":40.63741,"lng":-98.0949,"zip":"68944","miles_from_dt":23.59},{"city":"Grand Island","state_name":"Nebraska","lat":40.9104,"lng":-98.35067,"zip":"68802","miles_from_dt":24.05},{"city":"Fairfield","state_name":"Nebraska","lat":40.42093,"lng":-98.12344,"zip":"68938","miles_from_dt":24.93},{"city":"Grand Island","state_name":"Nebraska","lat":40.95357,"lng":-98.41593,"zip":"68803","miles_from_dt":25.72},{"city":"Deweese","state_name":"Nebraska","lat":40.33831,"lng":-98.15962,"zip":"68934","miles_from_dt":26.64},{"city":"Clay Center","state_name":"Nebraska","lat":40.51786,"lng":-98.04211,"zip":"68933","miles_from_dt":26.69},{"city":"Kearney","state_name":"Nebraska","lat":40.73465,"lng":-99.02272,"zip":"68847","miles_from_dt":27.2},{"city":"Lawrence","state_name":"Nebraska","lat":40.26745,"lng":-98.24176,"zip":"68957","miles_from_dt":27.4},{"city":"Phillips","state_name":"Nebraska","lat":40.89337,"lng":-98.187,"zip":"68865","miles_from_dt":27.79},{"city":"Grand Island","state_name":"Nebraska","lat":40.94949,"lng":-98.29295,"zip":"68801","miles_from_dt":27.8},{"city":"Upland","state_name":"Nebraska","lat":40.28601,"lng":-98.89237,"zip":"68981","miles_from_dt":28.18},{"city":"Cairo","state_name":"Nebraska","lat":41.00535,"lng":-98.61402,"zip":"68824","miles_from_dt":28.73},{"city":"Kearney","state_name":"Nebraska","lat":40.69941,"lng":-99.08167,"zip":"68848","miles_from_dt":29.42}],"targetCityZipCode":"68955","targetCityState":"Nebraska"},"__N_SSG":true}