{"pageProps":{"stateName":"Nebraska","cityName":"newcastle","nearbyCities":[{"city":"Maskell","state_name":"Nebraska","lat":42.69035,"lng":-96.98138,"zip":"68751","miles_from_dt":3.86},{"city":"Ponca","state_name":"Nebraska","lat":42.56287,"lng":-96.76898,"zip":"68770","miles_from_dt":10.1},{"city":"Wynot","state_name":"Nebraska","lat":42.73323,"lng":-97.11427,"zip":"68792","miles_from_dt":11.11},{"city":"Dixon","state_name":"Nebraska","lat":42.48176,"lng":-96.97387,"zip":"68732","miles_from_dt":12.04},{"city":"Burbank","state_name":"South Dakota","lat":42.8119,"lng":-96.82403,"zip":"57010","miles_from_dt":12.16},{"city":"Elk Point","state_name":"South Dakota","lat":42.71718,"lng":-96.68894,"zip":"57025","miles_from_dt":12.85},{"city":"Vermillion","state_name":"South Dakota","lat":42.84348,"lng":-96.98774,"zip":"57069","miles_from_dt":13.56},{"city":"Allen","state_name":"Nebraska","lat":42.439,"lng":-96.84784,"zip":"68710","miles_from_dt":15.26},{"city":"Laurel","state_name":"Nebraska","lat":42.44662,"lng":-97.08781,"zip":"68745","miles_from_dt":16.45},{"city":"Hartington","state_name":"Nebraska","lat":42.6284,"lng":-97.26265,"zip":"68739","miles_from_dt":17.26},{"city":"Coleridge","state_name":"Nebraska","lat":42.5116,"lng":-97.20596,"zip":"68727","miles_from_dt":17.3},{"city":"Jefferson","state_name":"South Dakota","lat":42.57924,"lng":-96.57957,"zip":"57038","miles_from_dt":18.35},{"city":"Waterbury","state_name":"Nebraska","lat":42.42796,"lng":-96.7224,"zip":"68785","miles_from_dt":18.65},{"city":"Concord","state_name":"Nebraska","lat":42.38085,"lng":-96.93641,"zip":"68728","miles_from_dt":18.76},{"city":"Jackson","state_name":"Nebraska","lat":42.47271,"lng":-96.62586,"zip":"68743","miles_from_dt":19.69},{"city":"Gayville","state_name":"South Dakota","lat":42.87058,"lng":-97.18655,"zip":"57031","miles_from_dt":20.07},{"city":"Westfield","state_name":"Iowa","lat":42.70623,"lng":-96.53511,"zip":"51062","miles_from_dt":20.23},{"city":"Saint Helena","state_name":"Nebraska","lat":42.81403,"lng":-97.27747,"zip":"68774","miles_from_dt":21.1},{"city":"North Sioux City","state_name":"South Dakota","lat":42.52486,"lng":-96.50732,"zip":"57049","miles_from_dt":23.08},{"city":"Sioux City","state_name":"Iowa","lat":42.59873,"lng":-96.47804,"zip":"51109","miles_from_dt":23.11},{"city":"Akron","state_name":"Iowa","lat":42.83854,"lng":-96.54551,"zip":"51001","miles_from_dt":23.21},{"city":"Belden","state_name":"Nebraska","lat":42.38962,"lng":-97.2192,"zip":"68717","miles_from_dt":23.54},{"city":"Fordyce","state_name":"Nebraska","lat":42.74481,"lng":-97.37136,"zip":"68736","miles_from_dt":23.58},{"city":"Wakonda","state_name":"South Dakota","lat":43.00227,"lng":-97.05754,"zip":"57073","miles_from_dt":25.06},{"city":"Sioux City","state_name":"Iowa","lat":42.52173,"lng":-96.44642,"zip":"51103","miles_from_dt":26.05},{"city":"Hubbard","state_name":"Nebraska","lat":42.35711,"lng":-96.59375,"zip":"68741","miles_from_dt":26.51},{"city":"Volin","state_name":"South Dakota","lat":42.98747,"lng":-97.20363,"zip":"57072","miles_from_dt":27.1},{"city":"Wakefield","state_name":"Nebraska","lat":42.25763,"lng":-96.88657,"zip":"68784","miles_from_dt":27.33},{"city":"Alcester","state_name":"South Dakota","lat":42.9981,"lng":-96.65492,"zip":"57001","miles_from_dt":27.54},{"city":"Emerson","state_name":"Nebraska","lat":42.28278,"lng":-96.72245,"zip":"68733","miles_from_dt":27.55},{"city":"Chatsworth","state_name":"Iowa","lat":42.91562,"lng":-96.51388,"zip":"51011","miles_from_dt":27.71},{"city":"Sioux City","state_name":"Iowa","lat":42.53518,"lng":-96.40389,"zip":"51104","miles_from_dt":27.81},{"city":"South Sioux City","state_name":"Nebraska","lat":42.4601,"lng":-96.44424,"zip":"68776","miles_from_dt":27.92},{"city":"Dakota City","state_name":"Nebraska","lat":42.40993,"lng":-96.48341,"zip":"68731","miles_from_dt":28.1},{"city":"Mission Hill","state_name":"South Dakota","lat":42.9563,"lng":-97.30113,"zip":"57046","miles_from_dt":28.36},{"city":"Randolph","state_name":"Nebraska","lat":42.38419,"lng":-97.35706,"zip":"68771","miles_from_dt":28.78},{"city":"Carroll","state_name":"Nebraska","lat":42.28759,"lng":-97.21456,"zip":"68723","miles_from_dt":29.2},{"city":"Sioux City","state_name":"Iowa","lat":42.49413,"lng":-96.39361,"zip":"51101","miles_from_dt":29.26},{"city":"Beresford","state_name":"South Dakota","lat":43.07571,"lng":-96.79376,"zip":"57004","miles_from_dt":29.97}],"targetCityZipCode":"68757","targetCityState":"Nebraska"},"__N_SSG":true}