{"pageProps":{"stateName":"Nebraska","cityName":"oconto","nearbyCities":[{"city":"Eddyville","state_name":"Nebraska","lat":41.01834,"lng":-99.65049,"zip":"68834","miles_from_dt":10.85},{"city":"Callaway","state_name":"Nebraska","lat":41.27347,"lng":-99.95758,"zip":"68825","miles_from_dt":12.95},{"city":"Sumner","state_name":"Nebraska","lat":40.98623,"lng":-99.50567,"zip":"68878","miles_from_dt":18.08},{"city":"Cozad","state_name":"Nebraska","lat":40.89924,"lng":-99.96628,"zip":"69130","miles_from_dt":18.58},{"city":"Broken Bow","state_name":"Nebraska","lat":41.38899,"lng":-99.62766,"zip":"68822","miles_from_dt":19.57},{"city":"Lexington","state_name":"Nebraska","lat":40.82548,"lng":-99.73574,"zip":"68850","miles_from_dt":21.47},{"city":"Willow Island","state_name":"Nebraska","lat":40.89065,"lng":-100.06814,"zip":"69171","miles_from_dt":22.14},{"city":"Gothenburg","state_name":"Nebraska","lat":40.99923,"lng":-100.17684,"zip":"69138","miles_from_dt":22.16},{"city":"Ansley","state_name":"Nebraska","lat":41.3086,"lng":-99.4102,"zip":"68814","miles_from_dt":23.25},{"city":"Mason City","state_name":"Nebraska","lat":41.16248,"lng":-99.32635,"zip":"68855","miles_from_dt":24.35},{"city":"Miller","state_name":"Nebraska","lat":40.96171,"lng":-99.37797,"zip":"68858","miles_from_dt":24.66},{"city":"Merna","state_name":"Nebraska","lat":41.50167,"lng":-99.8168,"zip":"68856","miles_from_dt":25.42},{"city":"Overton","state_name":"Nebraska","lat":40.76628,"lng":-99.5252,"zip":"68863","miles_from_dt":28.94}],"targetCityZipCode":"68860","targetCityState":"Nebraska"},"__N_SSG":true}