{"pageProps":{"stateName":"Nebraska","cityName":"ogallala","nearbyCities":[{"city":"Brule","state_name":"Nebraska","lat":41.10231,"lng":-101.90774,"zip":"69127","miles_from_dt":12.06},{"city":"Keystone","state_name":"Nebraska","lat":41.317,"lng":-101.60261,"zip":"69144","miles_from_dt":16.82},{"city":"Paxton","state_name":"Nebraska","lat":41.18974,"lng":-101.39008,"zip":"69155","miles_from_dt":16.85},{"city":"Grant","state_name":"Nebraska","lat":40.84129,"lng":-101.7724,"zip":"69140","miles_from_dt":17.2},{"city":"Madrid","state_name":"Nebraska","lat":40.82763,"lng":-101.54599,"zip":"69150","miles_from_dt":18.76},{"city":"Lemoyne","state_name":"Nebraska","lat":41.34986,"lng":-101.82892,"zip":"69146","miles_from_dt":20.19},{"city":"Big Springs","state_name":"Nebraska","lat":41.09713,"lng":-102.08834,"zip":"69122","miles_from_dt":21.42},{"city":"Elsie","state_name":"Nebraska","lat":40.80733,"lng":-101.36968,"zip":"69134","miles_from_dt":24.82},{"city":"Venango","state_name":"Nebraska","lat":40.74817,"lng":-101.98129,"zip":"69168","miles_from_dt":27.85},{"city":"Sutherland","state_name":"Nebraska","lat":41.35102,"lng":-101.27268,"zip":"69165","miles_from_dt":28.23},{"city":"Julesburg","state_name":"Colorado","lat":40.88974,"lng":-102.19267,"zip":"80737","miles_from_dt":29.92}],"targetCityZipCode":"69153","targetCityState":"Nebraska"},"__N_SSG":true}