{"pageProps":{"stateName":"Nebraska","cityName":"republican-city","nearbyCities":[{"city":"Alma","state_name":"Nebraska","lat":40.15482,"lng":-99.33521,"zip":"68920","miles_from_dt":5.38},{"city":"Naponee","state_name":"Nebraska","lat":40.08549,"lng":-99.13866,"zip":"68960","miles_from_dt":6.09},{"city":"Bloomington","state_name":"Nebraska","lat":40.15245,"lng":-99.07124,"zip":"68929","miles_from_dt":9.47},{"city":"Orleans","state_name":"Nebraska","lat":40.15765,"lng":-99.46262,"zip":"68966","miles_from_dt":11.83},{"city":"Ragan","state_name":"Nebraska","lat":40.31084,"lng":-99.25462,"zip":"68969","miles_from_dt":13.23},{"city":"Wilcox","state_name":"Nebraska","lat":40.33081,"lng":-99.19521,"zip":"68982","miles_from_dt":14.83},{"city":"Franklin","state_name":"Nebraska","lat":40.10977,"lng":-98.96169,"zip":"68939","miles_from_dt":15.01},{"city":"Hildreth","state_name":"Nebraska","lat":40.30139,"lng":-99.05188,"zip":"68947","miles_from_dt":16.18},{"city":"Long Island","state_name":"Kansas","lat":39.93794,"lng":-99.53162,"zip":"67647","miles_from_dt":19.7},{"city":"Stamford","state_name":"Nebraska","lat":40.06697,"lng":-99.63045,"zip":"68977","miles_from_dt":20.75},{"city":"Phillipsburg","state_name":"Kansas","lat":39.82546,"lng":-99.33039,"zip":"67661","miles_from_dt":20.78},{"city":"Agra","state_name":"Kansas","lat":39.82866,"lng":-99.12891,"zip":"67621","miles_from_dt":20.97},{"city":"Atlanta","state_name":"Nebraska","lat":40.36835,"lng":-99.47314,"zip":"68923","miles_from_dt":21},{"city":"Kensington","state_name":"Kansas","lat":39.86239,"lng":-99.03072,"zip":"66951","miles_from_dt":21.05},{"city":"Upland","state_name":"Nebraska","lat":40.28601,"lng":-98.89237,"zip":"68981","miles_from_dt":21.91},{"city":"Oxford","state_name":"Nebraska","lat":40.25263,"lng":-99.63085,"zip":"68967","miles_from_dt":22.41},{"city":"Holdrege","state_name":"Nebraska","lat":40.43193,"lng":-99.39481,"zip":"68949","miles_from_dt":22.98},{"city":"Riverton","state_name":"Nebraska","lat":40.10361,"lng":-98.80258,"zip":"68972","miles_from_dt":23.45},{"city":"Axtell","state_name":"Nebraska","lat":40.49557,"lng":-99.12469,"zip":"68924","miles_from_dt":26.72},{"city":"Prairie View","state_name":"Kansas","lat":39.81609,"lng":-99.5875,"zip":"67664","miles_from_dt":27.72},{"city":"Athol","state_name":"Kansas","lat":39.77925,"lng":-98.93227,"zip":"66932","miles_from_dt":28.74},{"city":"Funk","state_name":"Nebraska","lat":40.53815,"lng":-99.25086,"zip":"68940","miles_from_dt":28.9},{"city":"Campbell","state_name":"Nebraska","lat":40.30258,"lng":-98.73851,"zip":"68932","miles_from_dt":29.62},{"city":"Almena","state_name":"Kansas","lat":39.89983,"lng":-99.72522,"zip":"67622","miles_from_dt":29.65}],"targetCityZipCode":"68971","targetCityState":"Nebraska"},"__N_SSG":true}