{"pageProps":{"stateName":"Connecticut","cityName":"georgetown","nearbyCities":[{"city":"Wilton","state_name":"Connecticut","lat":41.20705,"lng":-73.44009,"zip":"06897","miles_from_dt":3.51},{"city":"Ridgefield","state_name":"Connecticut","lat":41.27254,"lng":-73.49702,"zip":"06879","miles_from_dt":3.52},{"city":"Weston","state_name":"Connecticut","lat":41.22842,"lng":-73.37256,"zip":"06883","miles_from_dt":3.71},{"city":"Redding","state_name":"Connecticut","lat":41.3051,"lng":-73.39139,"zip":"06896","miles_from_dt":3.91},{"city":"Ridgefield","state_name":"Connecticut","lat":41.30642,"lng":-73.50216,"zip":"06877","miles_from_dt":4.95},{"city":"South Salem","state_name":"New York","lat":41.25421,"lng":-73.53719,"zip":"10590","miles_from_dt":5.46},{"city":"Redding Center","state_name":"Connecticut","lat":41.32404,"lng":-73.37014,"zip":"06875","miles_from_dt":5.62},{"city":"Redding Ridge","state_name":"Connecticut","lat":41.31964,"lng":-73.35588,"zip":"06876","miles_from_dt":5.85},{"city":"Easton","state_name":"Connecticut","lat":41.26493,"lng":-73.30006,"zip":"06612","miles_from_dt":6.91},{"city":"New Canaan","state_name":"Connecticut","lat":41.15925,"lng":-73.49916,"zip":"06840","miles_from_dt":7.62},{"city":"Pound Ridge","state_name":"New York","lat":41.21323,"lng":-73.57289,"zip":"10576","miles_from_dt":7.93},{"city":"Norwalk","state_name":"Connecticut","lat":41.13948,"lng":-73.40387,"zip":"06851","miles_from_dt":8.29},{"city":"Danbury","state_name":"Connecticut","lat":41.37627,"lng":-73.45904,"zip":"06810","miles_from_dt":8.31},{"city":"Bethel","state_name":"Connecticut","lat":41.37468,"lng":-73.39275,"zip":"06801","miles_from_dt":8.34},{"city":"Norwalk","state_name":"Connecticut","lat":41.13047,"lng":-73.44044,"zip":"06858","miles_from_dt":8.78},{"city":"Cross River","state_name":"New York","lat":41.26787,"lng":-73.60073,"zip":"10518","miles_from_dt":8.79},{"city":"Westport","state_name":"Connecticut","lat":41.14237,"lng":-73.36012,"zip":"06889","miles_from_dt":8.8},{"city":"Waccabuc","state_name":"New York","lat":41.29423,"lng":-73.59703,"zip":"10597","miles_from_dt":8.93},{"city":"Westport","state_name":"Connecticut","lat":41.13776,"lng":-73.36503,"zip":"06881","miles_from_dt":8.98},{"city":"Westport","state_name":"Connecticut","lat":41.14379,"lng":-73.34698,"zip":"06880","miles_from_dt":9.03},{"city":"Norwalk","state_name":"Connecticut","lat":41.1263,"lng":-73.44316,"zip":"06850","miles_from_dt":9.08},{"city":"Fairfield","state_name":"Connecticut","lat":41.17571,"lng":-73.28111,"zip":"06824","miles_from_dt":9.7},{"city":"Fairfield","state_name":"Connecticut","lat":41.21827,"lng":-73.25276,"zip":"06828","miles_from_dt":9.75},{"city":"Danbury","state_name":"Connecticut","lat":41.39777,"lng":-73.45523,"zip":"06813","miles_from_dt":9.75},{"city":"Norwalk","state_name":"Connecticut","lat":41.11103,"lng":-73.42261,"zip":"06856","miles_from_dt":10.13},{"city":"North Salem","state_name":"New York","lat":41.33303,"lng":-73.60264,"zip":"10560","miles_from_dt":10.27},{"city":"Westport","state_name":"Connecticut","lat":41.12005,"lng":-73.34642,"zip":"06888","miles_from_dt":10.5},{"city":"Southport","state_name":"Connecticut","lat":41.14639,"lng":-73.28944,"zip":"06890","miles_from_dt":10.7},{"city":"Fairfield","state_name":"Connecticut","lat":41.19685,"lng":-73.24221,"zip":"06825","miles_from_dt":10.76},{"city":"Greens Farms","state_name":"Connecticut","lat":41.12294,"lng":-73.31809,"zip":"06838","miles_from_dt":11.04},{"city":"Newtown","state_name":"Connecticut","lat":41.3943,"lng":-73.31918,"zip":"06470","miles_from_dt":11.12},{"city":"Stamford","state_name":"Connecticut","lat":41.13571,"lng":-73.57207,"zip":"06903","miles_from_dt":11.12},{"city":"Norwalk","state_name":"Connecticut","lat":41.09475,"lng":-73.43407,"zip":"06857","miles_from_dt":11.24},{"city":"Norwalk","state_name":"Connecticut","lat":41.0936,"lng":-73.41726,"zip":"06852","miles_from_dt":11.34},{"city":"Norwalk","state_name":"Connecticut","lat":41.09148,"lng":-73.42972,"zip":"06854","miles_from_dt":11.46},{"city":"Bedford","state_name":"New York","lat":41.1889,"lng":-73.63411,"zip":"10506","miles_from_dt":11.53},{"city":"Stamford","state_name":"Connecticut","lat":41.1021,"lng":-73.52033,"zip":"06907","miles_from_dt":11.67},{"city":"Trumbull","state_name":"Connecticut","lat":41.26009,"lng":-73.20823,"zip":"06611","miles_from_dt":11.68},{"city":"Norwalk","state_name":"Connecticut","lat":41.08922,"lng":-73.39615,"zip":"06855","miles_from_dt":11.77},{"city":"Danbury","state_name":"Connecticut","lat":41.42427,"lng":-73.4821,"zip":"06811","miles_from_dt":11.79},{"city":"Norwalk","state_name":"Connecticut","lat":41.0864,"lng":-73.47559,"zip":"06860","miles_from_dt":12.03},{"city":"Bridgeport","state_name":"Connecticut","lat":41.21218,"lng":-73.20829,"zip":"06606","miles_from_dt":12.09},{"city":"Monroe","state_name":"Connecticut","lat":41.33791,"lng":-73.22499,"zip":"06468","miles_from_dt":12.14},{"city":"Goldens Bridge","state_name":"New York","lat":41.29388,"lng":-73.66171,"zip":"10526","miles_from_dt":12.2},{"city":"Stamford","state_name":"Connecticut","lat":41.09997,"lng":-73.55154,"zip":"06914","miles_from_dt":12.52},{"city":"Darien","state_name":"Connecticut","lat":41.07983,"lng":-73.48242,"zip":"06820","miles_from_dt":12.54},{"city":"Hawleyville","state_name":"Connecticut","lat":41.43302,"lng":-73.35369,"zip":"06440","miles_from_dt":12.78},{"city":"Bridgeport","state_name":"Connecticut","lat":41.16348,"lng":-73.21763,"zip":"06605","miles_from_dt":12.94},{"city":"Norwalk","state_name":"Connecticut","lat":41.06962,"lng":-73.43775,"zip":"06853","miles_from_dt":12.97},{"city":"Stamford","state_name":"Connecticut","lat":41.08792,"lng":-73.54351,"zip":"06905","miles_from_dt":13.06},{"city":"Purdys","state_name":"New York","lat":41.31815,"lng":-73.673,"zip":"10578","miles_from_dt":13.2},{"city":"Bridgeport","state_name":"Connecticut","lat":41.17645,"lng":-73.20293,"zip":"06601","miles_from_dt":13.21},{"city":"Bridgeport","state_name":"Connecticut","lat":41.17684,"lng":-73.20027,"zip":"06604","miles_from_dt":13.32},{"city":"Bridgeport","state_name":"Connecticut","lat":41.17365,"lng":-73.20047,"zip":"06602","miles_from_dt":13.4},{"city":"Katonah","state_name":"New York","lat":41.26971,"lng":-73.68943,"zip":"10536","miles_from_dt":13.41},{"city":"Croton Falls","state_name":"New York","lat":41.34701,"lng":-73.66196,"zip":"10519","miles_from_dt":13.44},{"city":"Bedford Hills","state_name":"New York","lat":41.22879,"lng":-73.6878,"zip":"10507","miles_from_dt":13.45},{"city":"Botsford","state_name":"Connecticut","lat":41.36182,"lng":-73.21362,"zip":"06404","miles_from_dt":13.47},{"city":"Brewster","state_name":"New York","lat":41.41205,"lng":-73.5937,"zip":"10509","miles_from_dt":13.56},{"city":"Stamford","state_name":"Connecticut","lat":41.07244,"lng":-73.52217,"zip":"06906","miles_from_dt":13.61},{"city":"Bridgeport","state_name":"Connecticut","lat":41.18675,"lng":-73.1809,"zip":"06608","miles_from_dt":13.99},{"city":"Bridgeport","state_name":"Connecticut","lat":41.20457,"lng":-73.16933,"zip":"06610","miles_from_dt":14.19},{"city":"Sandy Hook","state_name":"Connecticut","lat":41.4067,"lng":-73.24474,"zip":"06482","miles_from_dt":14.19},{"city":"Somers","state_name":"New York","lat":41.33178,"lng":-73.6933,"zip":"10589","miles_from_dt":14.51},{"city":"Brookfield","state_name":"Connecticut","lat":41.46731,"lng":-73.39232,"zip":"06804","miles_from_dt":14.62},{"city":"Stamford","state_name":"Connecticut","lat":41.05949,"lng":-73.54751,"zip":"06902","miles_from_dt":14.93},{"city":"Bridgeport","state_name":"Connecticut","lat":41.1736,"lng":-73.16696,"zip":"06607","miles_from_dt":15},{"city":"Stamford","state_name":"Connecticut","lat":41.05512,"lng":-73.54068,"zip":"06912","miles_from_dt":15.07},{"city":"Stamford","state_name":"Connecticut","lat":41.05349,"lng":-73.53845,"zip":"06901","miles_from_dt":15.13},{"city":"Stamford","state_name":"Connecticut","lat":41.05114,"lng":-73.54054,"zip":"06904","miles_from_dt":15.32},{"city":"Stevenson","state_name":"Connecticut","lat":41.3814,"lng":-73.18774,"zip":"06491","miles_from_dt":15.33},{"city":"Stamford","state_name":"Connecticut","lat":41.05007,"lng":-73.53897,"zip":"06913","miles_from_dt":15.36},{"city":"Mount Kisco","state_name":"New York","lat":41.19981,"lng":-73.72028,"zip":"10549","miles_from_dt":15.52},{"city":"Bridgeport","state_name":"Connecticut","lat":41.18427,"lng":-73.14814,"zip":"06673","miles_from_dt":15.65},{"city":"Shelton","state_name":"Connecticut","lat":41.30601,"lng":-73.13828,"zip":"06484","miles_from_dt":15.67},{"city":"Cos Cob","state_name":"Connecticut","lat":41.0611,"lng":-73.59215,"zip":"06807","miles_from_dt":15.91},{"city":"Stamford","state_name":"Connecticut","lat":41.04444,"lng":-73.54963,"zip":"06910","miles_from_dt":15.93},{"city":"Stamford","state_name":"Connecticut","lat":41.04383,"lng":-73.54811,"zip":"06927","miles_from_dt":15.94},{"city":"Stratford","state_name":"Connecticut","lat":41.22989,"lng":-73.12785,"zip":"06614","miles_from_dt":15.98},{"city":"Bridgeport","state_name":"Connecticut","lat":41.19116,"lng":-73.13801,"zip":"06699","miles_from_dt":16.01},{"city":"Lincolndale","state_name":"New York","lat":41.32575,"lng":-73.72745,"zip":"10540","miles_from_dt":16.06},{"city":"New Fairfield","state_name":"Connecticut","lat":41.48796,"lng":-73.48827,"zip":"06812","miles_from_dt":16.16},{"city":"Stamford","state_name":"Connecticut","lat":41.04026,"lng":-73.54805,"zip":"06926","miles_from_dt":16.16},{"city":"Stamford","state_name":"Connecticut","lat":41.04136,"lng":-73.56248,"zip":"06911","miles_from_dt":16.39},{"city":"Shenorock","state_name":"New York","lat":41.32713,"lng":-73.73674,"zip":"10587","miles_from_dt":16.55},{"city":"Stratford","state_name":"Connecticut","lat":41.17082,"lng":-73.13477,"zip":"06615","miles_from_dt":16.63},{"city":"Greenwich","state_name":"Connecticut","lat":41.08782,"lng":-73.66078,"zip":"06831","miles_from_dt":16.7},{"city":"Armonk","state_name":"New York","lat":41.13065,"lng":-73.70629,"zip":"10504","miles_from_dt":16.75},{"city":"Amawalk","state_name":"New York","lat":41.2954,"lng":-73.76006,"zip":"10501","miles_from_dt":17.25},{"city":"Old Greenwich","state_name":"Connecticut","lat":41.02881,"lng":-73.56964,"zip":"06870","miles_from_dt":17.33},{"city":"South Britain","state_name":"Connecticut","lat":41.46967,"lng":-73.25173,"zip":"06487","miles_from_dt":17.39},{"city":"Baldwin Place","state_name":"New York","lat":41.34207,"lng":-73.74791,"zip":"10505","miles_from_dt":17.42},{"city":"Riverside","state_name":"Connecticut","lat":41.03191,"lng":-73.58283,"zip":"06878","miles_from_dt":17.44},{"city":"Greenwich","state_name":"Connecticut","lat":41.048,"lng":-73.624,"zip":"06830","miles_from_dt":17.58},{"city":"Granite Springs","state_name":"New York","lat":41.3195,"lng":-73.76502,"zip":"10527","miles_from_dt":17.83},{"city":"Southbury","state_name":"Connecticut","lat":41.47451,"lng":-73.23288,"zip":"06488","miles_from_dt":18.21},{"city":"Patterson","state_name":"New York","lat":41.49417,"lng":-73.5891,"zip":"12563","miles_from_dt":18.24},{"city":"Bridgewater","state_name":"Connecticut","lat":41.52082,"lng":-73.35965,"zip":"06752","miles_from_dt":18.56},{"city":"Chappaqua","state_name":"New York","lat":41.17331,"lng":-73.77071,"zip":"10514","miles_from_dt":18.56},{"city":"Mahopac","state_name":"New York","lat":41.37855,"lng":-73.75122,"zip":"10541","miles_from_dt":18.57},{"city":"Milford","state_name":"Connecticut","lat":41.23937,"lng":-73.0752,"zip":"06461","miles_from_dt":18.65},{"city":"Derby","state_name":"Connecticut","lat":41.32647,"lng":-73.08324,"zip":"06418","miles_from_dt":18.79},{"city":"Mahopac Falls","state_name":"New York","lat":41.37115,"lng":-73.76436,"zip":"10542","miles_from_dt":18.96},{"city":"Yorktown Heights","state_name":"New York","lat":41.28309,"lng":-73.79516,"zip":"10598","miles_from_dt":18.97},{"city":"Greenwich","state_name":"Connecticut","lat":41.02276,"lng":-73.62845,"zip":"06836","miles_from_dt":19.16},{"city":"Carmel","state_name":"New York","lat":41.4483,"lng":-73.71054,"zip":"10512","miles_from_dt":19.55},{"city":"Oxford","state_name":"Connecticut","lat":41.43133,"lng":-73.13499,"zip":"06478","miles_from_dt":19.57},{"city":"Millwood","state_name":"New York","lat":41.19472,"lng":-73.8002,"zip":"10546","miles_from_dt":19.64},{"city":"Ansonia","state_name":"Connecticut","lat":41.34424,"lng":-73.06896,"zip":"06401","miles_from_dt":19.84},{"city":"Jefferson Valley","state_name":"New York","lat":41.33536,"lng":-73.79965,"zip":"10535","miles_from_dt":19.85},{"city":"Seymour","state_name":"Connecticut","lat":41.381,"lng":-73.08726,"zip":"06483","miles_from_dt":19.88},{"city":"Milford","state_name":"Connecticut","lat":41.21505,"lng":-73.05129,"zip":"06460","miles_from_dt":20.07},{"city":"Thornwood","state_name":"New York","lat":41.11579,"lng":-73.771,"zip":"10594","miles_from_dt":20.18},{"city":"Pleasantville","state_name":"New York","lat":41.12854,"lng":-73.78917,"zip":"10570","miles_from_dt":20.62},{"city":"Port Chester","state_name":"New York","lat":41.01676,"lng":-73.67735,"zip":"10573","miles_from_dt":20.96},{"city":"West Harrison","state_name":"New York","lat":41.06013,"lng":-73.73955,"zip":"10604","miles_from_dt":21.03},{"city":"Purchase","state_name":"New York","lat":41.03755,"lng":-73.71349,"zip":"10577","miles_from_dt":21.11},{"city":"Shrub Oak","state_name":"New York","lat":41.33222,"lng":-73.82624,"zip":"10588","miles_from_dt":21.13},{"city":"Orange","state_name":"Connecticut","lat":41.2827,"lng":-73.0272,"zip":"06477","miles_from_dt":21.17},{"city":"Ossining","state_name":"New York","lat":41.19295,"lng":-73.8305,"zip":"10562","miles_from_dt":21.21},{"city":"Roxbury","state_name":"Connecticut","lat":41.55424,"lng":-73.29998,"zip":"06783","miles_from_dt":21.6},{"city":"Valhalla","state_name":"New York","lat":41.08626,"lng":-73.78097,"zip":"10595","miles_from_dt":21.68},{"city":"Maryknoll","state_name":"New York","lat":41.17861,"lng":-73.83547,"zip":"10545","miles_from_dt":21.7},{"city":"Mohegan Lake","state_name":"New York","lat":41.31178,"lng":-73.84637,"zip":"10547","miles_from_dt":21.87},{"city":"Hawthorne","state_name":"New York","lat":41.09873,"lng":-73.80066,"zip":"10532","miles_from_dt":22.11},{"city":"Briarcliff Manor","state_name":"New York","lat":41.14152,"lng":-73.83411,"zip":"10510","miles_from_dt":22.41},{"city":"Waterbury","state_name":"Connecticut","lat":41.50498,"lng":-73.15243,"zip":"06749","miles_from_dt":22.43},{"city":"Crompond","state_name":"New York","lat":41.29837,"lng":-73.86013,"zip":"10517","miles_from_dt":22.44},{"city":"Sherman","state_name":"Connecticut","lat":41.58018,"lng":-73.49853,"zip":"06784","miles_from_dt":22.53},{"city":"Holmes","state_name":"New York","lat":41.53689,"lng":-73.66917,"zip":"12531","miles_from_dt":22.87},{"city":"White Plains","state_name":"New York","lat":41.05364,"lng":-73.78014,"zip":"10603","miles_from_dt":22.95},{"city":"Putnam Valley","state_name":"New York","lat":41.39651,"lng":-73.83384,"zip":"10579","miles_from_dt":22.98},{"city":"Woodbridge","state_name":"Connecticut","lat":41.35662,"lng":-73.01017,"zip":"06525","miles_from_dt":23.01},{"city":"Croton On Hudson","state_name":"New York","lat":41.22183,"lng":-73.87348,"zip":"10520","miles_from_dt":23.11},{"city":"Beacon Falls","state_name":"Connecticut","lat":41.43902,"lng":-73.05679,"zip":"06403","miles_from_dt":23.2},{"city":"White Plains","state_name":"New York","lat":41.03288,"lng":-73.7648,"zip":"10601","miles_from_dt":23.26},{"city":"White Plains","state_name":"New York","lat":41.03221,"lng":-73.76525,"zip":"10602","miles_from_dt":23.31},{"city":"Pawling","state_name":"New York","lat":41.57827,"lng":-73.5862,"zip":"12564","miles_from_dt":23.53},{"city":"Rye","state_name":"New York","lat":40.97854,"lng":-73.69258,"zip":"10580","miles_from_dt":23.56},{"city":"White Plains","state_name":"New York","lat":41.0095,"lng":-73.74518,"zip":"10605","miles_from_dt":23.65},{"city":"New Milford","state_name":"Connecticut","lat":41.60011,"lng":-73.4162,"zip":"06776","miles_from_dt":23.65},{"city":"Woodbury","state_name":"Connecticut","lat":41.56149,"lng":-73.20703,"zip":"06798","miles_from_dt":24.02},{"city":"Lake Peekskill","state_name":"New York","lat":41.33784,"lng":-73.88528,"zip":"10537","miles_from_dt":24.21},{"city":"West Haven","state_name":"Connecticut","lat":41.27393,"lng":-72.96718,"zip":"06516","miles_from_dt":24.25},{"city":"Cortlandt Manor","state_name":"New York","lat":41.28922,"lng":-73.89633,"zip":"10567","miles_from_dt":24.25},{"city":"White Plains","state_name":"New York","lat":41.02065,"lng":-73.77588,"zip":"10606","miles_from_dt":24.26},{"city":"Elmsford","state_name":"New York","lat":41.06005,"lng":-73.81859,"zip":"10523","miles_from_dt":24.32},{"city":"New Haven","state_name":"Connecticut","lat":41.29164,"lng":-72.96429,"zip":"06504","miles_from_dt":24.49},{"city":"Harrison","state_name":"New York","lat":40.97819,"lng":-73.72306,"zip":"10528","miles_from_dt":24.53},{"city":"New Haven","state_name":"Connecticut","lat":41.32794,"lng":-72.96954,"zip":"06515","miles_from_dt":24.58},{"city":"Northport","state_name":"New York","lat":40.91052,"lng":-73.32611,"zip":"11768","miles_from_dt":24.59},{"city":"Middlebury","state_name":"Connecticut","lat":41.5271,"lng":-73.1228,"zip":"06762","miles_from_dt":24.59},{"city":"Tarrytown","state_name":"New York","lat":41.08436,"lng":-73.84653,"zip":"10591","miles_from_dt":24.68},{"city":"White Plains","state_name":"New York","lat":41.03949,"lng":-73.81214,"zip":"10607","miles_from_dt":24.87},{"city":"Bayville","state_name":"New York","lat":40.90665,"lng":-73.56005,"zip":"11709","miles_from_dt":25.12},{"city":"Stormville","state_name":"New York","lat":41.54693,"lng":-73.72919,"zip":"12582","miles_from_dt":25.23},{"city":"Centerport","state_name":"New York","lat":40.89362,"lng":-73.37009,"zip":"11721","miles_from_dt":25.33},{"city":"Peekskill","state_name":"New York","lat":41.28924,"lng":-73.91837,"zip":"10566","miles_from_dt":25.39},{"city":"Hartsdale","state_name":"New York","lat":41.02304,"lng":-73.80764,"zip":"10530","miles_from_dt":25.4},{"city":"Naugatuck","state_name":"Connecticut","lat":41.48913,"lng":-73.05181,"zip":"06770","miles_from_dt":25.43},{"city":"White Plains","state_name":"New York","lat":41.02248,"lng":-73.81261,"zip":"10610","miles_from_dt":25.62},{"city":"Bethany","state_name":"Connecticut","lat":41.42606,"lng":-72.99308,"zip":"06524","miles_from_dt":25.64},{"city":"Croton On Hudson","state_name":"New York","lat":41.23452,"lng":-73.92434,"zip":"10521","miles_from_dt":25.67},{"city":"New Haven","state_name":"Connecticut","lat":41.29597,"lng":-72.93764,"zip":"06519","miles_from_dt":25.9},{"city":"Huntington","state_name":"New York","lat":40.88018,"lng":-73.4266,"zip":"11743","miles_from_dt":26.05},{"city":"Montrose","state_name":"New York","lat":41.24599,"lng":-73.93643,"zip":"10548","miles_from_dt":26.26},{"city":"Mamaroneck","state_name":"New York","lat":40.95274,"lng":-73.73645,"zip":"10543","miles_from_dt":26.35},{"city":"Scarsdale","state_name":"New York","lat":40.98916,"lng":-73.79443,"zip":"10583","miles_from_dt":26.46},{"city":"New Haven","state_name":"Connecticut","lat":41.30937,"lng":-72.92819,"zip":"06503","miles_from_dt":26.49},{"city":"New Haven","state_name":"Connecticut","lat":41.31432,"lng":-72.92901,"zip":"06535","miles_from_dt":26.5},{"city":"New Haven","state_name":"Connecticut","lat":41.31819,"lng":-72.92949,"zip":"06531","miles_from_dt":26.51},{"city":"New Haven","state_name":"Connecticut","lat":41.31773,"lng":-72.92921,"zip":"06533","miles_from_dt":26.52},{"city":"New Haven","state_name":"Connecticut","lat":41.3062,"lng":-72.92652,"zip":"06510","miles_from_dt":26.55},{"city":"New Haven","state_name":"Connecticut","lat":41.31008,"lng":-72.92631,"zip":"06501","miles_from_dt":26.59},{"city":"New Haven","state_name":"Connecticut","lat":41.30998,"lng":-72.9264,"zip":"06521","miles_from_dt":26.59},{"city":"New Haven","state_name":"Connecticut","lat":41.30863,"lng":-72.92578,"zip":"06520","miles_from_dt":26.61},{"city":"New Haven","state_name":"Connecticut","lat":41.31858,"lng":-72.92751,"zip":"06534","miles_from_dt":26.62},{"city":"New Haven","state_name":"Connecticut","lat":41.319,"lng":-72.92712,"zip":"06509","miles_from_dt":26.64},{"city":"Buchanan","state_name":"New York","lat":41.26302,"lng":-73.94391,"zip":"10511","miles_from_dt":26.64},{"city":"Garrison","state_name":"New York","lat":41.37076,"lng":-73.92201,"zip":"10524","miles_from_dt":26.64},{"city":"New Haven","state_name":"Connecticut","lat":41.30947,"lng":-72.92532,"zip":"06506","miles_from_dt":26.64},{"city":"New Haven","state_name":"Connecticut","lat":41.31739,"lng":-72.92672,"zip":"06536","miles_from_dt":26.65},{"city":"New Haven","state_name":"Connecticut","lat":41.31921,"lng":-72.92657,"zip":"06532","miles_from_dt":26.67},{"city":"New Haven","state_name":"Connecticut","lat":41.30868,"lng":-72.92444,"zip":"06502","miles_from_dt":26.68},{"city":"New Haven","state_name":"Connecticut","lat":41.31663,"lng":-72.92587,"zip":"06511","miles_from_dt":26.68},{"city":"Mill Neck","state_name":"New York","lat":40.88249,"lng":-73.55862,"zip":"11765","miles_from_dt":26.71},{"city":"New Haven","state_name":"Connecticut","lat":41.30703,"lng":-72.92335,"zip":"06508","miles_from_dt":26.72},{"city":"New Haven","state_name":"Connecticut","lat":41.30552,"lng":-72.92283,"zip":"06507","miles_from_dt":26.73},{"city":"New Haven","state_name":"Connecticut","lat":41.30781,"lng":-72.92306,"zip":"06505","miles_from_dt":26.74},{"city":"Hamden","state_name":"Connecticut","lat":41.3729,"lng":-72.94159,"zip":"06514","miles_from_dt":26.75},{"city":"Irvington","state_name":"New York","lat":41.03826,"lng":-73.8556,"zip":"10533","miles_from_dt":26.76},{"city":"New Haven","state_name":"Connecticut","lat":41.31818,"lng":-72.92392,"zip":"06530","miles_from_dt":26.8},{"city":"Washington","state_name":"Connecticut","lat":41.63089,"lng":-73.28835,"zip":"06793","miles_from_dt":26.83},{"city":"New Haven","state_name":"Connecticut","lat":41.31001,"lng":-72.92146,"zip":"06540","miles_from_dt":26.84},{"city":"Cold Spring Harbor","state_name":"New York","lat":40.86522,"lng":-73.45288,"zip":"11724","miles_from_dt":27.1},{"city":"Gaylordsville","state_name":"Connecticut","lat":41.64915,"lng":-73.48143,"zip":"06755","miles_from_dt":27.14},{"city":"Ardsley","state_name":"New York","lat":41.01126,"lng":-73.8409,"zip":"10502","miles_from_dt":27.26},{"city":"Locust Valley","state_name":"New York","lat":40.88068,"lng":-73.59057,"zip":"11560","miles_from_dt":27.29},{"city":"Kings Park","state_name":"New York","lat":40.88771,"lng":-73.24738,"zip":"11754","miles_from_dt":27.29},{"city":"Greenlawn","state_name":"New York","lat":40.86536,"lng":-73.36118,"zip":"11740","miles_from_dt":27.32},{"city":"Congers","state_name":"New York","lat":41.15477,"lng":-73.9393,"zip":"10920","miles_from_dt":27.35},{"city":"Oyster Bay","state_name":"New York","lat":40.8674,"lng":-73.52651,"zip":"11771","miles_from_dt":27.37},{"city":"Verplanck","state_name":"New York","lat":41.25552,"lng":-73.95854,"zip":"10596","miles_from_dt":27.4},{"city":"Washington Depot","state_name":"Connecticut","lat":41.64932,"lng":-73.32511,"zip":"06794","miles_from_dt":27.6},{"city":"Waterbury","state_name":"Connecticut","lat":41.54939,"lng":-73.06738,"zip":"06708","miles_from_dt":27.66},{"city":"Valley Cottage","state_name":"New York","lat":41.12479,"lng":-73.93632,"zip":"10989","miles_from_dt":27.82},{"city":"Larchmont","state_name":"New York","lat":40.9376,"lng":-73.75707,"zip":"10538","miles_from_dt":27.83},{"city":"East Northport","state_name":"New York","lat":40.86262,"lng":-73.31703,"zip":"11731","miles_from_dt":27.91},{"city":"East Setauket","state_name":"New York","lat":40.93742,"lng":-73.10544,"zip":"11733","miles_from_dt":27.92},{"city":"Cold Spring","state_name":"New York","lat":41.45342,"lng":-73.90233,"zip":"10516","miles_from_dt":27.92},{"city":"Hopewell Junction","state_name":"New York","lat":41.55925,"lng":-73.79401,"zip":"12533","miles_from_dt":28.04},{"city":"Ardsley On Hudson","state_name":"New York","lat":41.02654,"lng":-73.8753,"zip":"10503","miles_from_dt":28.07},{"city":"Poughquag","state_name":"New York","lat":41.62377,"lng":-73.66983,"zip":"12570","miles_from_dt":28.12},{"city":"Hamden","state_name":"Connecticut","lat":41.34834,"lng":-72.90494,"zip":"06517","miles_from_dt":28.16},{"city":"New Rochelle","state_name":"New York","lat":40.94914,"lng":-73.78629,"zip":"10804","miles_from_dt":28.18},{"city":"Dobbs Ferry","state_name":"New York","lat":41.01221,"lng":-73.8646,"zip":"10522","miles_from_dt":28.2},{"city":"Haverstraw","state_name":"New York","lat":41.19263,"lng":-73.96735,"zip":"10927","miles_from_dt":28.23},{"city":"Nyack","state_name":"New York","lat":41.08892,"lng":-73.92642,"zip":"10960","miles_from_dt":28.26},{"city":"Stony Brook","state_name":"New York","lat":40.91915,"lng":-73.12475,"zip":"11794","miles_from_dt":28.35},{"city":"West Haverstraw","state_name":"New York","lat":41.21011,"lng":-73.97565,"zip":"10993","miles_from_dt":28.49},{"city":"Waterbury","state_name":"Connecticut","lat":41.53285,"lng":-73.02389,"zip":"06706","miles_from_dt":28.49},{"city":"Waterbury","state_name":"Connecticut","lat":41.55985,"lng":-73.05903,"zip":"06721","miles_from_dt":28.49},{"city":"Port Jefferson","state_name":"New York","lat":40.95171,"lng":-73.0645,"zip":"11777","miles_from_dt":28.54},{"city":"Wingdale","state_name":"New York","lat":41.66049,"lng":-73.56004,"zip":"12594","miles_from_dt":28.58},{"city":"Glen Cove","state_name":"New York","lat":40.87073,"lng":-73.62879,"zip":"11542","miles_from_dt":28.6},{"city":"Bethlehem","state_name":"Connecticut","lat":41.63792,"lng":-73.2122,"zip":"06751","miles_from_dt":28.63},{"city":"Waterbury","state_name":"Connecticut","lat":41.55876,"lng":-73.05218,"zip":"06701","miles_from_dt":28.68},{"city":"Saint James","state_name":"New York","lat":40.89249,"lng":-73.16973,"zip":"11780","miles_from_dt":28.69},{"city":"Eastchester","state_name":"New York","lat":40.95337,"lng":-73.80885,"zip":"10709","miles_from_dt":28.75},{"city":"Waterbury","state_name":"Connecticut","lat":41.55266,"lng":-73.04093,"zip":"06725","miles_from_dt":28.78},{"city":"Waterbury","state_name":"Connecticut","lat":41.55713,"lng":-73.04539,"zip":"06702","miles_from_dt":28.84},{"city":"Stony Brook","state_name":"New York","lat":40.90719,"lng":-73.12777,"zip":"11790","miles_from_dt":28.94},{"city":"Waterbury","state_name":"Connecticut","lat":41.52891,"lng":-73.00787,"zip":"06703","miles_from_dt":28.94},{"city":"Tuckahoe","state_name":"New York","lat":40.95961,"lng":-73.82291,"zip":"10707","miles_from_dt":28.95},{"city":"Prospect","state_name":"Connecticut","lat":41.49927,"lng":-72.97609,"zip":"06712","miles_from_dt":29},{"city":"Waterbury","state_name":"Connecticut","lat":41.55503,"lng":-73.03798,"zip":"06726","miles_from_dt":29.01},{"city":"Waterbury","state_name":"Connecticut","lat":41.55647,"lng":-73.03858,"zip":"06722","miles_from_dt":29.06},{"city":"Waterbury","state_name":"Connecticut","lat":41.55703,"lng":-73.03805,"zip":"06720","miles_from_dt":29.1},{"city":"Waterbury","state_name":"Connecticut","lat":41.55961,"lng":-73.04141,"zip":"06724","miles_from_dt":29.11},{"city":"Waterbury","state_name":"Connecticut","lat":41.55707,"lng":-73.03674,"zip":"06723","miles_from_dt":29.15},{"city":"East Norwich","state_name":"New York","lat":40.84245,"lng":-73.53916,"zip":"11732","miles_from_dt":29.18},{"city":"East Haven","state_name":"Connecticut","lat":41.28111,"lng":-72.8719,"zip":"06512","miles_from_dt":29.23},{"city":"Tomkins Cove","state_name":"New York","lat":41.27917,"lng":-73.99445,"zip":"10986","miles_from_dt":29.3},{"city":"Hastings On Hudson","state_name":"New York","lat":40.99047,"lng":-73.86951,"zip":"10706","miles_from_dt":29.32},{"city":"Bear Mountain","state_name":"New York","lat":41.30798,"lng":-73.99243,"zip":"10911","miles_from_dt":29.36},{"city":"Hamden","state_name":"Connecticut","lat":41.42744,"lng":-72.91339,"zip":"06518","miles_from_dt":29.43},{"city":"Waterbury","state_name":"Connecticut","lat":41.56958,"lng":-73.04598,"zip":"06710","miles_from_dt":29.44},{"city":"Piermont","state_name":"New York","lat":41.03976,"lng":-73.91804,"zip":"10968","miles_from_dt":29.45},{"city":"Yonkers","state_name":"New York","lat":40.96732,"lng":-73.84739,"zip":"10710","miles_from_dt":29.5},{"city":"West Point","state_name":"New York","lat":41.38996,"lng":-73.97257,"zip":"10996","miles_from_dt":29.55},{"city":"Oakville","state_name":"Connecticut","lat":41.59562,"lng":-73.08058,"zip":"06779","miles_from_dt":29.63},{"city":"Watertown","state_name":"Connecticut","lat":41.61873,"lng":-73.12336,"zip":"06795","miles_from_dt":29.64},{"city":"New Haven","state_name":"Connecticut","lat":41.31953,"lng":-72.86856,"zip":"06513","miles_from_dt":29.66},{"city":"New Haven","state_name":"Connecticut","lat":41.43143,"lng":-72.91048,"zip":"06537","miles_from_dt":29.68},{"city":"Fort Montgomery","state_name":"New York","lat":41.32794,"lng":-73.99604,"zip":"10922","miles_from_dt":29.73},{"city":"New Haven","state_name":"Connecticut","lat":41.43221,"lng":-72.90928,"zip":"06538","miles_from_dt":29.76},{"city":"New Rochelle","state_name":"New York","lat":40.91751,"lng":-73.78396,"zip":"10801","miles_from_dt":29.79},{"city":"Garnerville","state_name":"New York","lat":41.20265,"lng":-74.00031,"zip":"10923","miles_from_dt":29.83},{"city":"Commack","state_name":"New York","lat":40.84056,"lng":-73.28085,"zip":"11725","miles_from_dt":29.85},{"city":"Melville","state_name":"New York","lat":40.82821,"lng":-73.50362,"zip":"11773","miles_from_dt":29.86},{"city":"Syosset","state_name":"New York","lat":40.82819,"lng":-73.50282,"zip":"11791","miles_from_dt":29.86},{"city":"New Rochelle","state_name":"New York","lat":40.91314,"lng":-73.77973,"zip":"10802","miles_from_dt":29.9}],"targetCityZipCode":"06829","targetCityState":"Connecticut"},"__N_SSG":true}