{"pageProps":{"stateName":"Connecticut","cityName":"salisbury","nearbyCities":[{"city":"Taconic","state_name":"Connecticut","lat":42.04174,"lng":-73.39755,"zip":"06079","miles_from_dt":2.27},{"city":"Lakeville","state_name":"Connecticut","lat":41.95001,"lng":-73.44379,"zip":"06039","miles_from_dt":4.57},{"city":"South Egremont","state_name":"Massachusetts","lat":42.09396,"lng":-73.46616,"zip":"01258","miles_from_dt":5.98},{"city":"Ashley Falls","state_name":"Massachusetts","lat":42.06242,"lng":-73.32146,"zip":"01222","miles_from_dt":6.12},{"city":"Sheffield","state_name":"Massachusetts","lat":42.0976,"lng":-73.37241,"zip":"01257","miles_from_dt":6.29},{"city":"Canaan","state_name":"Connecticut","lat":42.02872,"lng":-73.29807,"zip":"06018","miles_from_dt":6.42},{"city":"Falls Village","state_name":"Connecticut","lat":41.95788,"lng":-73.31733,"zip":"06031","miles_from_dt":6.61},{"city":"Millerton","state_name":"New York","lat":41.96627,"lng":-73.53313,"zip":"12546","miles_from_dt":6.64},{"city":"East Canaan","state_name":"Connecticut","lat":42.00812,"lng":-73.28374,"zip":"06024","miles_from_dt":7.09},{"city":"Ancramdale","state_name":"New York","lat":42.03615,"lng":-73.58139,"zip":"12503","miles_from_dt":8.38},{"city":"Copake","state_name":"New York","lat":42.10722,"lng":-73.55343,"zip":"12516","miles_from_dt":9.36},{"city":"Copake Falls","state_name":"New York","lat":42.13392,"lng":-73.51103,"zip":"12517","miles_from_dt":9.48},{"city":"Mill River","state_name":"Massachusetts","lat":42.10924,"lng":-73.27475,"zip":"01244","miles_from_dt":10},{"city":"Southfield","state_name":"Massachusetts","lat":42.07316,"lng":-73.23282,"zip":"01259","miles_from_dt":10.52},{"city":"West Cornwall","state_name":"Connecticut","lat":41.87595,"lng":-73.33255,"zip":"06796","miles_from_dt":10.57},{"city":"Sharon","state_name":"Connecticut","lat":41.85392,"lng":-73.4448,"zip":"06069","miles_from_dt":11.12},{"city":"Norfolk","state_name":"Connecticut","lat":41.97186,"lng":-73.1958,"zip":"06058","miles_from_dt":11.97},{"city":"Pine Plains","state_name":"New York","lat":41.98206,"lng":-73.65211,"zip":"12567","miles_from_dt":12.09},{"city":"Great Barrington","state_name":"Massachusetts","lat":42.18197,"lng":-73.34244,"zip":"01230","miles_from_dt":12.28},{"city":"North Egremont","state_name":"Massachusetts","lat":42.1967,"lng":-73.43628,"zip":"01252","miles_from_dt":12.63},{"city":"Ancram","state_name":"New York","lat":42.08324,"lng":-73.65409,"zip":"12502","miles_from_dt":12.9},{"city":"Amenia","state_name":"New York","lat":41.85664,"lng":-73.55953,"zip":"12501","miles_from_dt":12.99},{"city":"Cornwall","state_name":"Connecticut","lat":41.82514,"lng":-73.34471,"zip":"06753","miles_from_dt":13.62},{"city":"Goshen","state_name":"Connecticut","lat":41.84714,"lng":-73.23715,"zip":"06756","miles_from_dt":14.92},{"city":"Hillsdale","state_name":"New York","lat":42.21335,"lng":-73.53802,"zip":"12529","miles_from_dt":15.01},{"city":"Stanfordville","state_name":"New York","lat":41.90625,"lng":-73.69374,"zip":"12581","miles_from_dt":15.89},{"city":"Craryville","state_name":"New York","lat":42.17071,"lng":-73.65164,"zip":"12521","miles_from_dt":16.04},{"city":"Monterey","state_name":"Massachusetts","lat":42.19043,"lng":-73.21579,"zip":"01245","miles_from_dt":16.11},{"city":"Winchester Center","state_name":"Connecticut","lat":41.90188,"lng":-73.1423,"zip":"06094","miles_from_dt":16.32},{"city":"Sandisfield","state_name":"Massachusetts","lat":42.1068,"lng":-73.12213,"zip":"01255","miles_from_dt":16.66},{"city":"Bangall","state_name":"New York","lat":41.87513,"lng":-73.69038,"zip":"12506","miles_from_dt":16.86},{"city":"Wassaic","state_name":"New York","lat":41.78601,"lng":-73.5528,"zip":"12592","miles_from_dt":17.14},{"city":"Cornwall Bridge","state_name":"Connecticut","lat":41.76841,"lng":-73.36127,"zip":"06754","miles_from_dt":17.23},{"city":"Colebrook","state_name":"Connecticut","lat":42.00152,"lng":-73.08078,"zip":"06021","miles_from_dt":17.54},{"city":"Winsted","state_name":"Connecticut","lat":41.92379,"lng":-73.10003,"zip":"06098","miles_from_dt":17.68},{"city":"Housatonic","state_name":"Massachusetts","lat":42.26923,"lng":-73.37999,"zip":"01236","miles_from_dt":17.74},{"city":"Elizaville","state_name":"New York","lat":42.08627,"lng":-73.75311,"zip":"12523","miles_from_dt":17.79},{"city":"Hollowville","state_name":"New York","lat":42.20692,"lng":-73.68413,"zip":"12530","miles_from_dt":18.97},{"city":"South Lee","state_name":"Massachusetts","lat":42.26663,"lng":-73.2712,"zip":"01260","miles_from_dt":19.06},{"city":"Kent","state_name":"Connecticut","lat":41.73951,"lng":-73.46637,"zip":"06757","miles_from_dt":19.09},{"city":"Torrington","state_name":"Connecticut","lat":41.83747,"lng":-73.12874,"zip":"06790","miles_from_dt":19.38},{"city":"Tyringham","state_name":"Massachusetts","lat":42.23997,"lng":-73.19686,"zip":"01264","miles_from_dt":19.39},{"city":"Glendale","state_name":"Massachusetts","lat":42.29411,"lng":-73.35227,"zip":"01229","miles_from_dt":19.65},{"city":"Stockbridge","state_name":"Massachusetts","lat":42.28901,"lng":-73.31953,"zip":"01263","miles_from_dt":19.68},{"city":"Philmont","state_name":"New York","lat":42.24849,"lng":-73.64584,"zip":"12565","miles_from_dt":19.88},{"city":"West Stockbridge","state_name":"Massachusetts","lat":42.30264,"lng":-73.39846,"zip":"01266","miles_from_dt":19.95},{"city":"Red Hook","state_name":"New York","lat":42.00663,"lng":-73.81152,"zip":"12571","miles_from_dt":20.1},{"city":"Millbrook","state_name":"New York","lat":41.7914,"lng":-73.67251,"zip":"12545","miles_from_dt":20.1},{"city":"Clinton Corners","state_name":"New York","lat":41.87137,"lng":-73.76274,"zip":"12514","miles_from_dt":20.17},{"city":"Livingston","state_name":"New York","lat":42.14151,"lng":-73.7782,"zip":"12541","miles_from_dt":20.36},{"city":"Claverack","state_name":"New York","lat":42.21661,"lng":-73.71639,"zip":"12513","miles_from_dt":20.63},{"city":"Litchfield","state_name":"Connecticut","lat":41.75757,"lng":-73.21544,"zip":"06759","miles_from_dt":20.64},{"city":"Stockbridge","state_name":"Massachusetts","lat":42.30433,"lng":-73.32013,"zip":"01262","miles_from_dt":20.7},{"city":"Otis","state_name":"Massachusetts","lat":42.20751,"lng":-73.1118,"zip":"01253","miles_from_dt":20.76},{"city":"Austerlitz","state_name":"New York","lat":42.31453,"lng":-73.45682,"zip":"12017","miles_from_dt":20.82},{"city":"Spencertown","state_name":"New York","lat":42.31518,"lng":-73.50756,"zip":"12165","miles_from_dt":21.25},{"city":"Mellenville","state_name":"New York","lat":42.26129,"lng":-73.66822,"zip":"12544","miles_from_dt":21.27},{"city":"South Kent","state_name":"Connecticut","lat":41.70491,"lng":-73.43815,"zip":"06785","miles_from_dt":21.35},{"city":"Dover Plains","state_name":"New York","lat":41.72693,"lng":-73.58893,"zip":"12522","miles_from_dt":21.62},{"city":"Bantam","state_name":"Connecticut","lat":41.72327,"lng":-73.2624,"zip":"06750","miles_from_dt":21.68},{"city":"Riverton","state_name":"Connecticut","lat":41.97795,"lng":-73.00054,"zip":"06065","miles_from_dt":21.8},{"city":"Lee","state_name":"Massachusetts","lat":42.30072,"lng":-73.22553,"zip":"01238","miles_from_dt":22.19},{"city":"Hudson","state_name":"New York","lat":42.22434,"lng":-73.75427,"zip":"12534","miles_from_dt":22.44},{"city":"New Preston Marble Dale","state_name":"Connecticut","lat":41.69412,"lng":-73.33931,"zip":"06777","miles_from_dt":22.48},{"city":"East Otis","state_name":"Massachusetts","lat":42.19402,"lng":-73.05067,"zip":"01029","miles_from_dt":22.74},{"city":"Ghent","state_name":"New York","lat":42.30145,"lng":-73.64046,"zip":"12075","miles_from_dt":22.81},{"city":"West Hartland","state_name":"Connecticut","lat":42.01419,"lng":-72.97423,"zip":"06091","miles_from_dt":23.01},{"city":"Chatham","state_name":"New York","lat":42.33506,"lng":-73.55714,"zip":"12037","miles_from_dt":23.23},{"city":"Germantown","state_name":"New York","lat":42.12236,"lng":-73.85938,"zip":"12526","miles_from_dt":23.74},{"city":"Lenox Dale","state_name":"Massachusetts","lat":42.3334,"lng":-73.24967,"zip":"01242","miles_from_dt":23.74},{"city":"Tivoli","state_name":"New York","lat":42.05625,"lng":-73.88014,"zip":"12583","miles_from_dt":23.79},{"city":"Barkhamsted","state_name":"Connecticut","lat":41.93053,"lng":-72.97096,"zip":"06063","miles_from_dt":23.89},{"city":"Rhinebeck","state_name":"New York","lat":41.92548,"lng":-73.8717,"zip":"12572","miles_from_dt":23.99},{"city":"Salt Point","state_name":"New York","lat":41.80629,"lng":-73.79673,"zip":"12578","miles_from_dt":24.09},{"city":"Granville","state_name":"Massachusetts","lat":42.0826,"lng":-72.95611,"zip":"01034","miles_from_dt":24.39},{"city":"New Hartford","state_name":"Connecticut","lat":41.84417,"lng":-73.00552,"zip":"06057","miles_from_dt":24.42},{"city":"Verbank","state_name":"New York","lat":41.72396,"lng":-73.7025,"zip":"12585","miles_from_dt":24.73},{"city":"Morris","state_name":"Connecticut","lat":41.69027,"lng":-73.20714,"zip":"06763","miles_from_dt":24.93},{"city":"Torrington","state_name":"Connecticut","lat":41.77,"lng":-73.06219,"zip":"06792","miles_from_dt":25.03},{"city":"Stottville","state_name":"New York","lat":42.28915,"lng":-73.73895,"zip":"12172","miles_from_dt":25.04},{"city":"Annandale On Hudson","state_name":"New York","lat":42.02342,"lng":-73.9094,"zip":"12504","miles_from_dt":25.13},{"city":"Pine Meadow","state_name":"Connecticut","lat":41.87524,"lng":-72.96716,"zip":"06061","miles_from_dt":25.28},{"city":"Lakeside","state_name":"Connecticut","lat":41.67672,"lng":-73.2286,"zip":"06758","miles_from_dt":25.31},{"city":"Gaylordsville","state_name":"Connecticut","lat":41.64915,"lng":-73.48143,"zip":"06755","miles_from_dt":25.37},{"city":"Richmond","state_name":"Massachusetts","lat":42.37972,"lng":-73.36608,"zip":"01254","miles_from_dt":25.4},{"city":"Wingdale","state_name":"New York","lat":41.66049,"lng":-73.56004,"zip":"12594","miles_from_dt":25.43},{"city":"Washington Depot","state_name":"Connecticut","lat":41.64932,"lng":-73.32511,"zip":"06794","miles_from_dt":25.66},{"city":"Barrytown","state_name":"New York","lat":42.00735,"lng":-73.92126,"zip":"12507","miles_from_dt":25.74},{"city":"Staatsburg","state_name":"New York","lat":41.85348,"lng":-73.87302,"zip":"12580","miles_from_dt":25.79},{"city":"Harwinton","state_name":"Connecticut","lat":41.75509,"lng":-73.05838,"zip":"06791","miles_from_dt":25.88},{"city":"Lenox","state_name":"Massachusetts","lat":42.37567,"lng":-73.26466,"zip":"01240","miles_from_dt":26.22},{"city":"East Hartland","state_name":"Connecticut","lat":42.00403,"lng":-72.91112,"zip":"06027","miles_from_dt":26.27},{"city":"Northfield","state_name":"Connecticut","lat":41.71469,"lng":-73.10459,"zip":"06778","miles_from_dt":26.34},{"city":"Becket","state_name":"Massachusetts","lat":42.31118,"lng":-73.09835,"zip":"01223","miles_from_dt":26.37},{"city":"Blandford","state_name":"Massachusetts","lat":42.18234,"lng":-72.95819,"zip":"01008","miles_from_dt":26.48},{"city":"Columbiaville","state_name":"New York","lat":42.31504,"lng":-73.74881,"zip":"12050","miles_from_dt":26.73},{"city":"Canaan","state_name":"New York","lat":42.40397,"lng":-73.42466,"zip":"12029","miles_from_dt":26.91},{"city":"West Camp","state_name":"New York","lat":42.12355,"lng":-73.9251,"zip":"12490","miles_from_dt":26.99},{"city":"Glasco","state_name":"New York","lat":42.04702,"lng":-73.94403,"zip":"12432","miles_from_dt":27},{"city":"Malden On Hudson","state_name":"New York","lat":42.0929,"lng":-73.93629,"zip":"12453","miles_from_dt":27.05},{"city":"Washington","state_name":"Connecticut","lat":41.63089,"lng":-73.28835,"zip":"06793","miles_from_dt":27.32},{"city":"Pleasant Valley","state_name":"New York","lat":41.7346,"lng":-73.79731,"zip":"12569","miles_from_dt":27.36},{"city":"Collinsville","state_name":"Connecticut","lat":41.86595,"lng":-72.92749,"zip":"06022","miles_from_dt":27.42},{"city":"East Chatham","state_name":"New York","lat":42.41325,"lng":-73.49284,"zip":"12060","miles_from_dt":27.8},{"city":"Rhinecliff","state_name":"New York","lat":41.91764,"lng":-73.94566,"zip":"12574","miles_from_dt":27.82},{"city":"Athens","state_name":"New York","lat":42.28315,"lng":-73.82543,"zip":"12015","miles_from_dt":27.86},{"city":"Bethlehem","state_name":"Connecticut","lat":41.63792,"lng":-73.2122,"zip":"06751","miles_from_dt":28.11},{"city":"Stuyvesant Falls","state_name":"New York","lat":42.35314,"lng":-73.72802,"zip":"12174","miles_from_dt":28.21},{"city":"Canton Center","state_name":"Connecticut","lat":41.86283,"lng":-72.90991,"zip":"06020","miles_from_dt":28.34},{"city":"Lagrangeville","state_name":"New York","lat":41.67073,"lng":-73.72524,"zip":"12540","miles_from_dt":28.42},{"city":"Canton","state_name":"Connecticut","lat":41.8592,"lng":-72.90717,"zip":"06019","miles_from_dt":28.56},{"city":"New Milford","state_name":"Connecticut","lat":41.60011,"lng":-73.4162,"zip":"06776","miles_from_dt":28.57},{"city":"North Canton","state_name":"Connecticut","lat":41.89054,"lng":-72.88833,"zip":"06059","miles_from_dt":28.75},{"city":"Hyde Park","state_name":"New York","lat":41.79246,"lng":-73.89336,"zip":"12538","miles_from_dt":28.75},{"city":"West Granby","state_name":"Connecticut","lat":41.94685,"lng":-72.86403,"zip":"06090","miles_from_dt":29.07},{"city":"Thomaston","state_name":"Connecticut","lat":41.67033,"lng":-73.08568,"zip":"06787","miles_from_dt":29.37},{"city":"Billings","state_name":"New York","lat":41.67232,"lng":-73.76247,"zip":"12510","miles_from_dt":29.43},{"city":"Lake Katrine","state_name":"New York","lat":41.99377,"lng":-73.99338,"zip":"12449","miles_from_dt":29.49},{"city":"Catskill","state_name":"New York","lat":42.2211,"lng":-73.92356,"zip":"12414","miles_from_dt":29.51},{"city":"Burlington","state_name":"Connecticut","lat":41.7598,"lng":-72.95895,"zip":"06013","miles_from_dt":29.6},{"city":"North Granby","state_name":"Connecticut","lat":42.00687,"lng":-72.84594,"zip":"06060","miles_from_dt":29.61},{"city":"Port Ewen","state_name":"New York","lat":41.90671,"lng":-73.97826,"zip":"12466","miles_from_dt":29.64},{"city":"Mount Marion","state_name":"New York","lat":42.03308,"lng":-73.99703,"zip":"12456","miles_from_dt":29.66},{"city":"Old Chatham","state_name":"New York","lat":42.43249,"lng":-73.56016,"zip":"12136","miles_from_dt":29.75},{"city":"Poughquag","state_name":"New York","lat":41.62377,"lng":-73.66983,"zip":"12570","miles_from_dt":29.84},{"city":"Kinderhook","state_name":"New York","lat":42.38871,"lng":-73.71228,"zip":"12106","miles_from_dt":29.86}],"targetCityZipCode":"06068","targetCityState":"Connecticut"},"__N_SSG":true}