{"pageProps":{"stateName":"New-york","cityName":"brant-lake","nearbyCities":[{"city":"Adirondack","state_name":"New York","lat":43.74782,"lng":-73.75393,"zip":"12808","miles_from_dt":4.36},{"city":"Pottersville","state_name":"New York","lat":43.72843,"lng":-73.80942,"zip":"12860","miles_from_dt":6.04},{"city":"Hague","state_name":"New York","lat":43.74994,"lng":-73.56816,"zip":"12836","miles_from_dt":7.16},{"city":"Silver Bay","state_name":"New York","lat":43.69035,"lng":-73.54836,"zip":"12874","miles_from_dt":7.37},{"city":"Bolton Landing","state_name":"New York","lat":43.6004,"lng":-73.63678,"zip":"12814","miles_from_dt":7.56},{"city":"Chestertown","state_name":"New York","lat":43.63697,"lng":-73.82614,"zip":"12817","miles_from_dt":7.96},{"city":"Schroon Lake","state_name":"New York","lat":43.83931,"lng":-73.7625,"zip":"12870","miles_from_dt":10.1},{"city":"Huletts Landing","state_name":"New York","lat":43.59919,"lng":-73.5165,"zip":"12841","miles_from_dt":11.39},{"city":"Riparius","state_name":"New York","lat":43.67419,"lng":-73.91878,"zip":"12862","miles_from_dt":11.39},{"city":"Diamond Point","state_name":"New York","lat":43.5279,"lng":-73.71386,"zip":"12824","miles_from_dt":12.03},{"city":"Wevertown","state_name":"New York","lat":43.63689,"lng":-73.92654,"zip":"12886","miles_from_dt":12.45},{"city":"Severance","state_name":"New York","lat":43.8839,"lng":-73.72309,"zip":"12872","miles_from_dt":12.67},{"city":"Paradox","state_name":"New York","lat":43.88899,"lng":-73.6703,"zip":"12858","miles_from_dt":12.99},{"city":"Clemons","state_name":"New York","lat":43.61144,"lng":-73.46315,"zip":"12819","miles_from_dt":13.17},{"city":"Warrensburg","state_name":"New York","lat":43.52929,"lng":-73.83161,"zip":"12885","miles_from_dt":13.74},{"city":"Ticonderoga","state_name":"New York","lat":43.85291,"lng":-73.50786,"zip":"12883","miles_from_dt":14.01},{"city":"Putnam Station","state_name":"New York","lat":43.74982,"lng":-73.41502,"zip":"12861","miles_from_dt":14.39},{"city":"Kattskill Bay","state_name":"New York","lat":43.49423,"lng":-73.64081,"zip":"12844","miles_from_dt":14.57},{"city":"North Creek","state_name":"New York","lat":43.68816,"lng":-73.99804,"zip":"12853","miles_from_dt":15.23},{"city":"Olmstedville","state_name":"New York","lat":43.84033,"lng":-73.93354,"zip":"12857","miles_from_dt":15.32},{"city":"Johnsburg","state_name":"New York","lat":43.5849,"lng":-73.97771,"zip":"12843","miles_from_dt":16.32},{"city":"Cleverdale","state_name":"New York","lat":43.46022,"lng":-73.64067,"zip":"12820","miles_from_dt":16.88},{"city":"Lake George","state_name":"New York","lat":43.42757,"lng":-73.70703,"zip":"12845","miles_from_dt":18.93},{"city":"Athol","state_name":"New York","lat":43.49862,"lng":-73.95217,"zip":"12810","miles_from_dt":19.06},{"city":"Crown Point","state_name":"New York","lat":43.9539,"lng":-73.52898,"zip":"12928","miles_from_dt":19.28},{"city":"Whitehall","state_name":"New York","lat":43.54504,"lng":-73.37471,"zip":"12887","miles_from_dt":19.34},{"city":"Fair Haven","state_name":"Vermont","lat":43.67118,"lng":-73.30726,"zip":"05743","miles_from_dt":19.52},{"city":"Fort Ann","state_name":"New York","lat":43.44917,"lng":-73.51241,"zip":"12827","miles_from_dt":19.68},{"city":"Benson","state_name":"Vermont","lat":43.7532,"lng":-73.28857,"zip":"05731","miles_from_dt":20.64},{"city":"Bakers Mills","state_name":"New York","lat":43.57502,"lng":-74.07508,"zip":"12811","miles_from_dt":20.98},{"city":"Minerva","state_name":"New York","lat":43.85171,"lng":-74.06211,"zip":"12851","miles_from_dt":21.1},{"city":"Orwell","state_name":"Vermont","lat":43.80359,"lng":-73.29517,"zip":"05760","miles_from_dt":21.19},{"city":"North Hudson","state_name":"New York","lat":44.00121,"lng":-73.79762,"zip":"12855","miles_from_dt":21.32},{"city":"Comstock","state_name":"New York","lat":43.45866,"lng":-73.41332,"zip":"12821","miles_from_dt":21.92},{"city":"Shoreham","state_name":"Vermont","lat":43.88662,"lng":-73.32771,"zip":"05770","miles_from_dt":22.36},{"city":"North River","state_name":"New York","lat":43.65531,"lng":-74.14625,"zip":"12856","miles_from_dt":22.86},{"city":"Moriah","state_name":"New York","lat":44.02226,"lng":-73.54123,"zip":"12960","miles_from_dt":23.43},{"city":"Hydeville","state_name":"Vermont","lat":43.60684,"lng":-73.2287,"zip":"05750","miles_from_dt":24.25},{"city":"Queensbury","state_name":"New York","lat":43.3375,"lng":-73.68307,"zip":"12804","miles_from_dt":25.14},{"city":"Stony Creek","state_name":"New York","lat":43.44217,"lng":-74.0479,"zip":"12878","miles_from_dt":25.21},{"city":"Hampton","state_name":"New York","lat":43.50842,"lng":-73.26651,"zip":"12837","miles_from_dt":25.28},{"city":"North Granville","state_name":"New York","lat":43.45019,"lng":-73.32767,"zip":"12854","miles_from_dt":25.31},{"city":"Moriah Center","state_name":"New York","lat":44.06103,"lng":-73.57972,"zip":"12961","miles_from_dt":25.47},{"city":"Bomoseen","state_name":"Vermont","lat":43.67998,"lng":-73.18648,"zip":"05732","miles_from_dt":25.5},{"city":"Lake Luzerne","state_name":"New York","lat":43.34022,"lng":-73.80592,"zip":"12846","miles_from_dt":25.57},{"city":"Hudson Falls","state_name":"New York","lat":43.34496,"lng":-73.55058,"zip":"12839","miles_from_dt":25.66},{"city":"Middle Granville","state_name":"New York","lat":43.44812,"lng":-73.2985,"zip":"12849","miles_from_dt":26.49},{"city":"Bridport","state_name":"Vermont","lat":43.98243,"lng":-73.33286,"zip":"05734","miles_from_dt":26.51},{"city":"Whiting","state_name":"Vermont","lat":43.87279,"lng":-73.21228,"zip":"05778","miles_from_dt":26.86},{"city":"Port Henry","state_name":"New York","lat":44.05582,"lng":-73.46931,"zip":"12974","miles_from_dt":26.92},{"city":"Glens Falls","state_name":"New York","lat":43.31097,"lng":-73.64545,"zip":"12801","miles_from_dt":27.08},{"city":"East Poultney","state_name":"Vermont","lat":43.5271,"lng":-73.2064,"zip":"05741","miles_from_dt":27.29},{"city":"Witherbee","state_name":"New York","lat":44.0879,"lng":-73.57584,"zip":"12998","miles_from_dt":27.32},{"city":"Castleton","state_name":"Vermont","lat":43.64475,"lng":-73.15456,"zip":"05735","miles_from_dt":27.34},{"city":"Poultney","state_name":"Vermont","lat":43.52854,"lng":-73.19401,"zip":"05764","miles_from_dt":27.81},{"city":"Hartford","state_name":"New York","lat":43.34354,"lng":-73.40756,"zip":"12838","miles_from_dt":28.62},{"city":"South Glens Falls","state_name":"New York","lat":43.28891,"lng":-73.63024,"zip":"12803","miles_from_dt":28.67},{"city":"Mineville","state_name":"New York","lat":44.09301,"lng":-73.49628,"zip":"12956","miles_from_dt":28.78},{"city":"Indian Lake","state_name":"New York","lat":43.75058,"lng":-74.2746,"zip":"12842","miles_from_dt":29.24},{"city":"Granville","state_name":"New York","lat":43.36813,"lng":-73.31716,"zip":"12832","miles_from_dt":29.82},{"city":"Newcomb","state_name":"New York","lat":43.99293,"lng":-74.13598,"zip":"12852","miles_from_dt":29.85},{"city":"New Russia","state_name":"New York","lat":44.13224,"lng":-73.63625,"zip":"12964","miles_from_dt":29.87}],"targetCityZipCode":"12815","targetCityState":"New York"},"__N_SSG":true}