{"pageProps":{"stateName":"New-york","cityName":"brier-hill","nearbyCities":[{"city":"Morristown","state_name":"New York","lat":44.58423,"lng":-75.64537,"zip":"13664","miles_from_dt":4.35},{"city":"Hammond","state_name":"New York","lat":44.44144,"lng":-75.69379,"zip":"13646","miles_from_dt":6.17},{"city":"Chippewa Bay","state_name":"New York","lat":44.44877,"lng":-75.75299,"zip":"13623","miles_from_dt":6.42},{"city":"De Peyster","state_name":"New York","lat":44.48259,"lng":-75.48825,"zip":"13633","miles_from_dt":10.6},{"city":"Heuvelton","state_name":"New York","lat":44.56654,"lng":-75.46067,"zip":"13654","miles_from_dt":11.68},{"city":"Ogdensburg","state_name":"New York","lat":44.65004,"lng":-75.49861,"zip":"13669","miles_from_dt":12.6},{"city":"Redwood","state_name":"New York","lat":44.32664,"lng":-75.76554,"zip":"13679","miles_from_dt":14.56},{"city":"Richville","state_name":"New York","lat":44.42933,"lng":-75.37142,"zip":"13681","miles_from_dt":17.32},{"city":"Antwerp","state_name":"New York","lat":44.28431,"lng":-75.61839,"zip":"13671","miles_from_dt":17.41},{"city":"Alexandria Bay","state_name":"New York","lat":44.33233,"lng":-75.91187,"zip":"13607","miles_from_dt":17.5},{"city":"Gouverneur","state_name":"New York","lat":44.3263,"lng":-75.46742,"zip":"13642","miles_from_dt":17.97},{"city":"Rensselaer Falls","state_name":"New York","lat":44.59416,"lng":-75.32814,"zip":"13680","miles_from_dt":18.48},{"city":"De Kalb Junction","state_name":"New York","lat":44.49742,"lng":-75.31756,"zip":"13630","miles_from_dt":18.64},{"city":"Plessis","state_name":"New York","lat":44.28227,"lng":-75.83872,"zip":"13675","miles_from_dt":18.64},{"city":"Hailesboro","state_name":"New York","lat":44.30878,"lng":-75.44655,"zip":"13645","miles_from_dt":19.56},{"city":"Antwerp","state_name":"New York","lat":44.23879,"lng":-75.62508,"zip":"13608","miles_from_dt":20.43},{"city":"Wellesley Island","state_name":"New York","lat":44.3198,"lng":-75.99937,"zip":"13640","miles_from_dt":21.06},{"city":"Theresa","state_name":"New York","lat":44.22747,"lng":-75.78208,"zip":"13691","miles_from_dt":21.41},{"city":"Thousand Island Park","state_name":"New York","lat":44.28861,"lng":-76.0258,"zip":"13692","miles_from_dt":23.51},{"city":"Fishers Landing","state_name":"New York","lat":44.27341,"lng":-76.00573,"zip":"13641","miles_from_dt":23.6},{"city":"Hermon","state_name":"New York","lat":44.43579,"lng":-75.21338,"zip":"13652","miles_from_dt":24.55},{"city":"Philadelphia","state_name":"New York","lat":44.17105,"lng":-75.72133,"zip":"13673","miles_from_dt":24.88},{"city":"Lisbon","state_name":"New York","lat":44.73979,"lng":-75.27756,"zip":"13658","miles_from_dt":25.01},{"city":"Pyrites","state_name":"New York","lat":44.5151,"lng":-75.18557,"zip":"13677","miles_from_dt":25.04},{"city":"Edwards","state_name":"New York","lat":44.29915,"lng":-75.26188,"zip":"13635","miles_from_dt":26.62},{"city":"La Fargeville","state_name":"New York","lat":44.19141,"lng":-75.95058,"zip":"13656","miles_from_dt":26.71},{"city":"Canton","state_name":"New York","lat":44.5789,"lng":-75.14668,"zip":"13617","miles_from_dt":27.12},{"city":"Clayton","state_name":"New York","lat":44.22284,"lng":-76.09736,"zip":"13624","miles_from_dt":29.24}],"targetCityZipCode":"13614","targetCityState":"New York"},"__N_SSG":true}