{"pageProps":{"stateName":"New-york","cityName":"cape-vincent","nearbyCities":[{"city":"Three Mile Bay","state_name":"New York","lat":44.03237,"lng":-76.24824,"zip":"13693","miles_from_dt":5.99},{"city":"Chaumont","state_name":"New York","lat":44.09654,"lng":-76.115,"zip":"13622","miles_from_dt":8.25},{"city":"Depauville","state_name":"New York","lat":44.12698,"lng":-76.06826,"zip":"13632","miles_from_dt":10.48},{"city":"Clayton","state_name":"New York","lat":44.22284,"lng":-76.09736,"zip":"13624","miles_from_dt":11.62},{"city":"Dexter","state_name":"New York","lat":44.01197,"lng":-76.07034,"zip":"13634","miles_from_dt":12.63},{"city":"Limerick","state_name":"New York","lat":44.0279,"lng":-76.05099,"zip":"13657","miles_from_dt":12.87},{"city":"Sackets Harbor","state_name":"New York","lat":43.93343,"lng":-76.09399,"zip":"13685","miles_from_dt":15.62},{"city":"Brownville","state_name":"New York","lat":44.00569,"lng":-75.98328,"zip":"13615","miles_from_dt":16.57},{"city":"La Fargeville","state_name":"New York","lat":44.19141,"lng":-75.95058,"zip":"13656","miles_from_dt":17.1},{"city":"Thousand Island Park","state_name":"New York","lat":44.28861,"lng":-76.0258,"zip":"13692","miles_from_dt":17.29},{"city":"Fishers Landing","state_name":"New York","lat":44.27341,"lng":-76.00573,"zip":"13641","miles_from_dt":17.35},{"city":"Henderson Harbor","state_name":"New York","lat":43.86513,"lng":-76.18125,"zip":"13651","miles_from_dt":18.01},{"city":"Wellesley Island","state_name":"New York","lat":44.3198,"lng":-75.99937,"zip":"13640","miles_from_dt":19.73},{"city":"Watertown","state_name":"New York","lat":43.96949,"lng":-75.90965,"zip":"13601","miles_from_dt":20.98},{"city":"Adams Center","state_name":"New York","lat":43.87007,"lng":-76.01601,"zip":"13606","miles_from_dt":21.46},{"city":"Henderson","state_name":"New York","lat":43.80742,"lng":-76.20629,"zip":"13650","miles_from_dt":21.64},{"city":"Calcium","state_name":"New York","lat":44.02538,"lng":-75.85896,"zip":"13616","miles_from_dt":21.81},{"city":"Evans Mills","state_name":"New York","lat":44.09751,"lng":-75.83346,"zip":"13637","miles_from_dt":22.18},{"city":"Alexandria Bay","state_name":"New York","lat":44.33233,"lng":-75.91187,"zip":"13607","miles_from_dt":23.53},{"city":"Adams","state_name":"New York","lat":43.80641,"lng":-76.05195,"zip":"13605","miles_from_dt":24.2},{"city":"Watertown","state_name":"New York","lat":44.03826,"lng":-75.79765,"zip":"13603","miles_from_dt":24.53},{"city":"Belleville","state_name":"New York","lat":43.77726,"lng":-76.12374,"zip":"13611","miles_from_dt":24.66},{"city":"Plessis","state_name":"New York","lat":44.28227,"lng":-75.83872,"zip":"13675","miles_from_dt":24.66},{"city":"Theresa","state_name":"New York","lat":44.22747,"lng":-75.78208,"zip":"13691","miles_from_dt":25.83},{"city":"Fort Drum","state_name":"New York","lat":44.04877,"lng":-75.75747,"zip":"13602","miles_from_dt":26.35},{"city":"Felts Mills","state_name":"New York","lat":44.02077,"lng":-75.75443,"zip":"13638","miles_from_dt":26.91},{"city":"Black River","state_name":"New York","lat":43.98571,"lng":-75.76911,"zip":"13612","miles_from_dt":26.92},{"city":"Ellisburg","state_name":"New York","lat":43.74107,"lng":-76.12762,"zip":"13636","miles_from_dt":26.99},{"city":"Rodman","state_name":"New York","lat":43.84024,"lng":-75.88924,"zip":"13682","miles_from_dt":27.21},{"city":"Philadelphia","state_name":"New York","lat":44.17105,"lng":-75.72133,"zip":"13673","miles_from_dt":27.96},{"city":"Pierrepont Manor","state_name":"New York","lat":43.73763,"lng":-76.05192,"zip":"13674","miles_from_dt":28.49},{"city":"Great Bend","state_name":"New York","lat":44.03207,"lng":-75.71738,"zip":"13643","miles_from_dt":28.53},{"city":"Redwood","state_name":"New York","lat":44.32664,"lng":-75.76554,"zip":"13679","miles_from_dt":29.32},{"city":"Mannsville","state_name":"New York","lat":43.70924,"lng":-76.1054,"zip":"13661","miles_from_dt":29.41}],"targetCityZipCode":"13618","targetCityState":"New York"},"__N_SSG":true}