{"pageProps":{"stateName":"New-york","cityName":"cortland","nearbyCities":[{"city":"Blodgett Mills","state_name":"New York","lat":42.56236,"lng":-76.11986,"zip":"13738","miles_from_dt":3.97},{"city":"McLean","state_name":"New York","lat":42.55276,"lng":-76.29253,"zip":"13102","miles_from_dt":5.72},{"city":"McGraw","state_name":"New York","lat":42.60211,"lng":-76.06665,"zip":"13101","miles_from_dt":6.39},{"city":"East Homer","state_name":"New York","lat":42.67263,"lng":-76.09683,"zip":"13056","miles_from_dt":7.6},{"city":"Little York","state_name":"New York","lat":42.69634,"lng":-76.16493,"zip":"13087","miles_from_dt":7.66},{"city":"Dryden","state_name":"New York","lat":42.47513,"lng":-76.26471,"zip":"13053","miles_from_dt":8.6},{"city":"Homer","state_name":"New York","lat":42.71557,"lng":-76.20089,"zip":"13077","miles_from_dt":8.9},{"city":"Freeville","state_name":"New York","lat":42.49905,"lng":-76.35555,"zip":"13068","miles_from_dt":10.39},{"city":"Harford","state_name":"New York","lat":42.43542,"lng":-76.2177,"zip":"13784","miles_from_dt":10.55},{"city":"Groton","state_name":"New York","lat":42.58514,"lng":-76.39832,"zip":"13073","miles_from_dt":10.61},{"city":"Marathon","state_name":"New York","lat":42.45787,"lng":-76.06028,"zip":"13803","miles_from_dt":11.11},{"city":"Etna","state_name":"New York","lat":42.48121,"lng":-76.38694,"zip":"13062","miles_from_dt":12.41},{"city":"Preble","state_name":"New York","lat":42.76684,"lng":-76.18616,"zip":"13141","miles_from_dt":12.42},{"city":"Locke","state_name":"New York","lat":42.65145,"lng":-76.42502,"zip":"13092","miles_from_dt":12.77},{"city":"Cincinnatus","state_name":"New York","lat":42.56033,"lng":-75.93029,"zip":"13040","miles_from_dt":13.39},{"city":"Richford","state_name":"New York","lat":42.38906,"lng":-76.16939,"zip":"13835","miles_from_dt":13.7},{"city":"Truxton","state_name":"New York","lat":42.71603,"lng":-75.97626,"zip":"13158","miles_from_dt":14.08},{"city":"Ithaca","state_name":"New York","lat":42.50702,"lng":-76.47113,"zip":"14852","miles_from_dt":15.36},{"city":"Slaterville Springs","state_name":"New York","lat":42.4017,"lng":-76.35795,"zip":"14881","miles_from_dt":15.39},{"city":"Tully","state_name":"New York","lat":42.80321,"lng":-76.11545,"zip":"13159","miles_from_dt":15.41},{"city":"Moravia","state_name":"New York","lat":42.75226,"lng":-76.39522,"zip":"13118","miles_from_dt":15.47},{"city":"Killawog","state_name":"New York","lat":42.39976,"lng":-76.02149,"zip":"13794","miles_from_dt":15.53},{"city":"Apulia Station","state_name":"New York","lat":42.81646,"lng":-76.07458,"zip":"13020","miles_from_dt":16.9},{"city":"Brooktondale","state_name":"New York","lat":42.36295,"lng":-76.34548,"zip":"14817","miles_from_dt":17.37},{"city":"Pitcher","state_name":"New York","lat":42.60368,"lng":-75.84582,"zip":"13136","miles_from_dt":17.61},{"city":"Ithaca","state_name":"New York","lat":42.44727,"lng":-76.48149,"zip":"14853","miles_from_dt":17.72},{"city":"Willet","state_name":"New York","lat":42.44164,"lng":-75.904,"zip":"13863","miles_from_dt":17.73},{"city":"Berkshire","state_name":"New York","lat":42.31722,"lng":-76.19389,"zip":"13736","miles_from_dt":18.62},{"city":"Ithaca","state_name":"New York","lat":42.44757,"lng":-76.50319,"zip":"14851","miles_from_dt":18.65},{"city":"Genoa","state_name":"New York","lat":42.67584,"lng":-76.54252,"zip":"13071","miles_from_dt":18.97},{"city":"Ithaca","state_name":"New York","lat":42.43249,"lng":-76.49891,"zip":"14850","miles_from_dt":19.03},{"city":"De Ruyter","state_name":"New York","lat":42.72838,"lng":-75.86957,"zip":"13052","miles_from_dt":19.04},{"city":"Lansing","state_name":"New York","lat":42.5801,"lng":-76.56576,"zip":"14882","miles_from_dt":19.16},{"city":"Lisle","state_name":"New York","lat":42.32765,"lng":-76.04389,"zip":"13797","miles_from_dt":19.4},{"city":"North Pitcher","state_name":"New York","lat":42.64578,"lng":-75.81718,"zip":"13124","miles_from_dt":19.45},{"city":"Fabius","state_name":"New York","lat":42.84429,"lng":-75.98023,"zip":"13063","miles_from_dt":20.73},{"city":"La Fayette","state_name":"New York","lat":42.88938,"lng":-76.11314,"zip":"13084","miles_from_dt":21.24},{"city":"Smithville Flats","state_name":"New York","lat":42.41408,"lng":-75.84171,"zip":"13841","miles_from_dt":21.43},{"city":"Marietta","state_name":"New York","lat":42.89019,"lng":-76.28507,"zip":"13110","miles_from_dt":21.48},{"city":"Whitney Point","state_name":"New York","lat":42.3369,"lng":-75.9372,"zip":"13862","miles_from_dt":21.57},{"city":"McDonough","state_name":"New York","lat":42.50327,"lng":-75.78028,"zip":"13801","miles_from_dt":21.71},{"city":"South Otselic","state_name":"New York","lat":42.65945,"lng":-75.77136,"zip":"13155","miles_from_dt":21.93},{"city":"Jacksonville","state_name":"New York","lat":42.51138,"lng":-76.60874,"zip":"14854","miles_from_dt":21.98},{"city":"Willseyville","state_name":"New York","lat":42.29095,"lng":-76.39225,"zip":"13864","miles_from_dt":22.89},{"city":"King Ferry","state_name":"New York","lat":42.67364,"lng":-76.62527,"zip":"13081","miles_from_dt":22.96},{"city":"Scipio Center","state_name":"New York","lat":42.77336,"lng":-76.56603,"zip":"13147","miles_from_dt":23.06},{"city":"Poplar Ridge","state_name":"New York","lat":42.74057,"lng":-76.59794,"zip":"13139","miles_from_dt":23.32},{"city":"Pompey","state_name":"New York","lat":42.89915,"lng":-76.01461,"zip":"13138","miles_from_dt":23.33},{"city":"Skaneateles","state_name":"New York","lat":42.89323,"lng":-76.38518,"zip":"13152","miles_from_dt":23.35},{"city":"New Woodstock","state_name":"New York","lat":42.83857,"lng":-75.85919,"zip":"13122","miles_from_dt":24.2},{"city":"East Pharsalia","state_name":"New York","lat":42.55502,"lng":-75.71657,"zip":"13758","miles_from_dt":24.27},{"city":"Maine","state_name":"New York","lat":42.25164,"lng":-76.04207,"zip":"13802","miles_from_dt":24.35},{"city":"Nedrow","state_name":"New York","lat":42.94233,"lng":-76.1695,"zip":"13120","miles_from_dt":24.56},{"city":"Newark Valley","state_name":"New York","lat":42.23099,"lng":-76.17481,"zip":"13811","miles_from_dt":24.58},{"city":"Georgetown","state_name":"New York","lat":42.76243,"lng":-75.76296,"zip":"13072","miles_from_dt":24.91},{"city":"Glen Aubrey","state_name":"New York","lat":42.25894,"lng":-75.9866,"zip":"13777","miles_from_dt":24.92},{"city":"Delphi Falls","state_name":"New York","lat":42.88339,"lng":-75.91021,"zip":"13051","miles_from_dt":24.94},{"city":"Chenango Bridge","state_name":"New York","lat":42.28572,"lng":-75.91077,"zip":"13745","miles_from_dt":25.23},{"city":"South Plymouth","state_name":"New York","lat":42.60927,"lng":-75.68083,"zip":"13844","miles_from_dt":26.03},{"city":"Trumansburg","state_name":"New York","lat":42.50408,"lng":-76.68836,"zip":"14886","miles_from_dt":26.06},{"city":"Aurora","state_name":"New York","lat":42.75044,"lng":-76.65968,"zip":"13026","miles_from_dt":26.44},{"city":"Candor","state_name":"New York","lat":42.21706,"lng":-76.33898,"zip":"13743","miles_from_dt":26.64},{"city":"Jamesville","state_name":"New York","lat":42.96206,"lng":-76.06171,"zip":"13078","miles_from_dt":26.71},{"city":"Syracuse","state_name":"New York","lat":42.97852,"lng":-76.22979,"zip":"13215","miles_from_dt":27.11},{"city":"Plymouth","state_name":"New York","lat":42.6531,"lng":-75.66286,"zip":"13832","miles_from_dt":27.27},{"city":"Newfield","state_name":"New York","lat":42.34243,"lng":-76.61461,"zip":"14867","miles_from_dt":27.48},{"city":"Greene","state_name":"New York","lat":42.34795,"lng":-75.75977,"zip":"13778","miles_from_dt":27.5},{"city":"Marcellus","state_name":"New York","lat":42.97349,"lng":-76.33069,"zip":"13108","miles_from_dt":27.62},{"city":"Castle Creek","state_name":"New York","lat":42.24078,"lng":-75.90629,"zip":"13744","miles_from_dt":27.96},{"city":"Interlaken","state_name":"New York","lat":42.6031,"lng":-76.74047,"zip":"14847","miles_from_dt":28.08},{"city":"Mecklenburg","state_name":"New York","lat":42.4555,"lng":-76.71105,"zip":"14863","miles_from_dt":28.09},{"city":"Spencer","state_name":"New York","lat":42.24056,"lng":-76.482,"zip":"14883","miles_from_dt":28.18},{"city":"Manlius","state_name":"New York","lat":42.96378,"lng":-75.95523,"zip":"13104","miles_from_dt":28.63},{"city":"Union Springs","state_name":"New York","lat":42.82613,"lng":-76.65157,"zip":"13160","miles_from_dt":28.71},{"city":"Syracuse","state_name":"New York","lat":43.00474,"lng":-76.14163,"zip":"13205","miles_from_dt":28.95},{"city":"Chenango Forks","state_name":"New York","lat":42.26868,"lng":-75.82085,"zip":"13746","miles_from_dt":28.97},{"city":"Auburn","state_name":"New York","lat":42.91713,"lng":-76.5542,"zip":"13021","miles_from_dt":29.36},{"city":"Syracuse","state_name":"New York","lat":43.01221,"lng":-76.16354,"zip":"13207","miles_from_dt":29.39},{"city":"Erieville","state_name":"New York","lat":42.86493,"lng":-75.75173,"zip":"13061","miles_from_dt":29.43},{"city":"Auburn","state_name":"New York","lat":42.91996,"lng":-76.55292,"zip":"13022","miles_from_dt":29.47},{"city":"Mottville","state_name":"New York","lat":42.97655,"lng":-76.44488,"zip":"13119","miles_from_dt":29.85},{"city":"Smyrna","state_name":"New York","lat":42.68632,"lng":-75.61998,"zip":"13464","miles_from_dt":29.86}],"targetCityZipCode":"13045","targetCityState":"New York"},"__N_SSG":true}