{"pageProps":{"stateName":"New-york","cityName":"fort-edward","nearbyCities":[{"city":"South Glens Falls","state_name":"New York","lat":43.28891,"lng":-73.63024,"zip":"12803","miles_from_dt":3.89},{"city":"Argyle","state_name":"New York","lat":43.24097,"lng":-73.4624,"zip":"12809","miles_from_dt":5.44},{"city":"Glens Falls","state_name":"New York","lat":43.31097,"lng":-73.64545,"zip":"12801","miles_from_dt":5.46},{"city":"Hudson Falls","state_name":"New York","lat":43.34496,"lng":-73.55058,"zip":"12839","miles_from_dt":6.25},{"city":"Gansevoort","state_name":"New York","lat":43.19533,"lng":-73.68791,"zip":"12831","miles_from_dt":7.32},{"city":"Queensbury","state_name":"New York","lat":43.3375,"lng":-73.68307,"zip":"12804","miles_from_dt":8.1},{"city":"Cossayuna","state_name":"New York","lat":43.17945,"lng":-73.40628,"zip":"12823","miles_from_dt":9.72},{"city":"Hartford","state_name":"New York","lat":43.34354,"lng":-73.40756,"zip":"12838","miles_from_dt":10.14},{"city":"Middle Falls","state_name":"New York","lat":43.10241,"lng":-73.52636,"zip":"12848","miles_from_dt":10.77},{"city":"Greenwich","state_name":"New York","lat":43.09706,"lng":-73.50423,"zip":"12834","miles_from_dt":11.4},{"city":"Schuylerville","state_name":"New York","lat":43.09249,"lng":-73.61196,"zip":"12871","miles_from_dt":11.46},{"city":"Victory Mills","state_name":"New York","lat":43.08855,"lng":-73.5921,"zip":"12884","miles_from_dt":11.58},{"city":"Salem","state_name":"New York","lat":43.21225,"lng":-73.34191,"zip":"12865","miles_from_dt":11.81},{"city":"Lake Luzerne","state_name":"New York","lat":43.34022,"lng":-73.80592,"zip":"12846","miles_from_dt":13.33},{"city":"Fort Ann","state_name":"New York","lat":43.44917,"lng":-73.51241,"zip":"12827","miles_from_dt":13.68},{"city":"Lake George","state_name":"New York","lat":43.42757,"lng":-73.70703,"zip":"12845","miles_from_dt":13.79},{"city":"Cleverdale","state_name":"New York","lat":43.46022,"lng":-73.64067,"zip":"12820","miles_from_dt":14.6},{"city":"Granville","state_name":"New York","lat":43.36813,"lng":-73.31716,"zip":"12832","miles_from_dt":14.87},{"city":"Saratoga Springs","state_name":"New York","lat":43.07537,"lng":-73.7401,"zip":"12866","miles_from_dt":15.15},{"city":"Greenfield Center","state_name":"New York","lat":43.13866,"lng":-73.84355,"zip":"12833","miles_from_dt":16.06},{"city":"Comstock","state_name":"New York","lat":43.45866,"lng":-73.41332,"zip":"12821","miles_from_dt":16.06},{"city":"Corinth","state_name":"New York","lat":43.2407,"lng":-73.88959,"zip":"12822","miles_from_dt":16.24},{"city":"Shushan","state_name":"New York","lat":43.1185,"lng":-73.30682,"zip":"12873","miles_from_dt":16.24},{"city":"Kattskill Bay","state_name":"New York","lat":43.49423,"lng":-73.64081,"zip":"12844","miles_from_dt":16.89},{"city":"Cambridge","state_name":"New York","lat":43.05085,"lng":-73.37829,"zip":"12816","miles_from_dt":17.08},{"city":"Rupert","state_name":"Vermont","lat":43.29846,"lng":-73.22168,"zip":"05768","miles_from_dt":17.74},{"city":"North Granville","state_name":"New York","lat":43.45019,"lng":-73.32767,"zip":"12854","miles_from_dt":18.11},{"city":"Porter Corners","state_name":"New York","lat":43.16587,"lng":-73.90569,"zip":"12859","miles_from_dt":18.12},{"city":"Stillwater","state_name":"New York","lat":42.99936,"lng":-73.66234,"zip":"12170","miles_from_dt":18.3},{"city":"West Rupert","state_name":"Vermont","lat":43.24494,"lng":-73.20392,"zip":"05776","miles_from_dt":18.41},{"city":"West Pawlet","state_name":"Vermont","lat":43.35437,"lng":-73.22804,"zip":"05775","miles_from_dt":18.47},{"city":"Middle Granville","state_name":"New York","lat":43.44812,"lng":-73.2985,"zip":"12849","miles_from_dt":19.03},{"city":"Diamond Point","state_name":"New York","lat":43.5279,"lng":-73.71386,"zip":"12824","miles_from_dt":20.19},{"city":"Arlington","state_name":"Vermont","lat":43.12048,"lng":-73.19337,"zip":"05250","miles_from_dt":21.11},{"city":"Schaghticoke","state_name":"New York","lat":42.93713,"lng":-73.60124,"zip":"12154","miles_from_dt":22.03},{"city":"Pawlet","state_name":"Vermont","lat":43.34786,"lng":-73.14855,"zip":"05761","miles_from_dt":22.11},{"city":"Whitehall","state_name":"New York","lat":43.54504,"lng":-73.37471,"zip":"12887","miles_from_dt":22.25},{"city":"Buskirk","state_name":"New York","lat":42.94545,"lng":-73.44213,"zip":"12028","miles_from_dt":22.33},{"city":"Eagle Bridge","state_name":"New York","lat":42.97316,"lng":-73.34335,"zip":"12057","miles_from_dt":22.56},{"city":"Hadley","state_name":"New York","lat":43.32496,"lng":-74.00589,"zip":"12835","miles_from_dt":22.58},{"city":"Rock City Falls","state_name":"New York","lat":43.06031,"lng":-73.93162,"zip":"12863","miles_from_dt":22.76},{"city":"Warrensburg","state_name":"New York","lat":43.52929,"lng":-73.83161,"zip":"12885","miles_from_dt":23.09},{"city":"Wells","state_name":"Vermont","lat":43.42708,"lng":-73.17435,"zip":"05774","miles_from_dt":23.13},{"city":"Hampton","state_name":"New York","lat":43.50842,"lng":-73.26651,"zip":"12837","miles_from_dt":23.16},{"city":"Ballston Spa","state_name":"New York","lat":43.00208,"lng":-73.87401,"zip":"12020","miles_from_dt":23.33},{"city":"Middle Grove","state_name":"New York","lat":43.09886,"lng":-73.97941,"zip":"12850","miles_from_dt":23.41},{"city":"Huletts Landing","state_name":"New York","lat":43.59919,"lng":-73.5165,"zip":"12841","miles_from_dt":23.88},{"city":"Bolton Landing","state_name":"New York","lat":43.6004,"lng":-73.63678,"zip":"12814","miles_from_dt":24.07},{"city":"Mechanicville","state_name":"New York","lat":42.92096,"lng":-73.72049,"zip":"12118","miles_from_dt":24.33},{"city":"Dorset","state_name":"Vermont","lat":43.26189,"lng":-73.08269,"zip":"05251","miles_from_dt":24.51},{"city":"Valley Falls","state_name":"New York","lat":42.90102,"lng":-73.53507,"zip":"12185","miles_from_dt":24.52},{"city":"Clemons","state_name":"New York","lat":43.61144,"lng":-73.46315,"zip":"12819","miles_from_dt":25.15},{"city":"Round Lake","state_name":"New York","lat":42.92553,"lng":-73.78874,"zip":"12151","miles_from_dt":25.35},{"city":"North Hoosick","state_name":"New York","lat":42.92452,"lng":-73.3457,"zip":"12133","miles_from_dt":25.47},{"city":"Johnsonville","state_name":"New York","lat":42.89091,"lng":-73.48737,"zip":"12094","miles_from_dt":25.49},{"city":"Athol","state_name":"New York","lat":43.49862,"lng":-73.95217,"zip":"12810","miles_from_dt":25.6},{"city":"North Bennington","state_name":"Vermont","lat":42.96538,"lng":-73.25156,"zip":"05257","miles_from_dt":25.64},{"city":"Manchester Center","state_name":"Vermont","lat":43.16696,"lng":-73.06685,"zip":"05255","miles_from_dt":26.05},{"city":"Manchester","state_name":"Vermont","lat":43.15937,"lng":-73.06911,"zip":"05254","miles_from_dt":26.07},{"city":"East Poultney","state_name":"Vermont","lat":43.5271,"lng":-73.2064,"zip":"05741","miles_from_dt":26.16},{"city":"Poultney","state_name":"Vermont","lat":43.52854,"lng":-73.19401,"zip":"05764","miles_from_dt":26.66},{"city":"Middletown Springs","state_name":"Vermont","lat":43.48279,"lng":-73.12325,"zip":"05757","miles_from_dt":27.37},{"city":"Stony Creek","state_name":"New York","lat":43.44217,"lng":-74.0479,"zip":"12878","miles_from_dt":27.38},{"city":"Ballston Lake","state_name":"New York","lat":42.92993,"lng":-73.88245,"zip":"12019","miles_from_dt":27.51},{"city":"Danby","state_name":"Vermont","lat":43.34488,"lng":-73.0295,"zip":"05739","miles_from_dt":27.87},{"city":"Galway","state_name":"New York","lat":43.05219,"lng":-74.04709,"zip":"12074","miles_from_dt":27.96},{"city":"Hoosick Falls","state_name":"New York","lat":42.88073,"lng":-73.35624,"zip":"12090","miles_from_dt":28},{"city":"Melrose","state_name":"New York","lat":42.84368,"lng":-73.60398,"zip":"12121","miles_from_dt":28.47},{"city":"East Dorset","state_name":"Vermont","lat":43.25235,"lng":-72.99913,"zip":"05253","miles_from_dt":28.73},{"city":"East Arlington","state_name":"Vermont","lat":43.06642,"lng":-73.06132,"zip":"05252","miles_from_dt":28.75},{"city":"Burnt Hills","state_name":"New York","lat":42.92122,"lng":-73.90872,"zip":"12027","miles_from_dt":28.78},{"city":"Chestertown","state_name":"New York","lat":43.63697,"lng":-73.82614,"zip":"12817","miles_from_dt":29.36},{"city":"Shaftsbury","state_name":"Vermont","lat":42.97935,"lng":-73.12066,"zip":"05262","miles_from_dt":29.59},{"city":"Hoosick","state_name":"New York","lat":42.86431,"lng":-73.32714,"zip":"12089","miles_from_dt":29.63},{"city":"Hydeville","state_name":"Vermont","lat":43.60684,"lng":-73.2287,"zip":"05750","miles_from_dt":29.68},{"city":"Clifton Park","state_name":"New York","lat":42.85402,"lng":-73.78654,"zip":"12065","miles_from_dt":29.82}],"targetCityZipCode":"12828","targetCityState":"New York"},"__N_SSG":true}