{"pageProps":{"stateName":"New-york","cityName":"jay","nearbyCities":[{"city":"Upper Jay","state_name":"New York","lat":44.33948,"lng":-73.76386,"zip":"12987","miles_from_dt":2.67},{"city":"Wilmington","state_name":"New York","lat":44.3755,"lng":-73.84314,"zip":"12997","miles_from_dt":6.68},{"city":"Lewis","state_name":"New York","lat":44.32685,"lng":-73.57675,"zip":"12950","miles_from_dt":6.94},{"city":"Keene","state_name":"New York","lat":44.26023,"lng":-73.79523,"zip":"12942","miles_from_dt":7.51},{"city":"Au Sable Forks","state_name":"New York","lat":44.46233,"lng":-73.74201,"zip":"12912","miles_from_dt":7.79},{"city":"Keeseville","state_name":"New York","lat":44.47589,"lng":-73.58751,"zip":"12924","miles_from_dt":10.59},{"city":"Elizabethtown","state_name":"New York","lat":44.21222,"lng":-73.6082,"zip":"12932","miles_from_dt":10.92},{"city":"Keeseville","state_name":"New York","lat":44.44585,"lng":-73.51193,"zip":"12944","miles_from_dt":11.88},{"city":"Willsboro","state_name":"New York","lat":44.36129,"lng":-73.42129,"zip":"12996","miles_from_dt":14.45},{"city":"Schuyler Falls","state_name":"New York","lat":44.56413,"lng":-73.73395,"zip":"12985","miles_from_dt":14.72},{"city":"Keene Valley","state_name":"New York","lat":44.13934,"lng":-73.82075,"zip":"12943","miles_from_dt":15.6},{"city":"New Russia","state_name":"New York","lat":44.13224,"lng":-73.63625,"zip":"12964","miles_from_dt":15.6},{"city":"Westport","state_name":"New York","lat":44.19711,"lng":-73.48097,"zip":"12993","miles_from_dt":15.67},{"city":"Bloomingdale","state_name":"New York","lat":44.42627,"lng":-74.01562,"zip":"12913","miles_from_dt":15.87},{"city":"Lake Placid","state_name":"New York","lat":44.23162,"lng":-73.98903,"zip":"12946","miles_from_dt":16.01},{"city":"Peru","state_name":"New York","lat":44.559,"lng":-73.56516,"zip":"12972","miles_from_dt":16.08},{"city":"Essex","state_name":"New York","lat":44.26869,"lng":-73.4029,"zip":"12936","miles_from_dt":16.38},{"city":"Keeseville","state_name":"New York","lat":44.53464,"lng":-73.46687,"zip":"12911","miles_from_dt":17.54},{"city":"Port Kent","state_name":"New York","lat":44.52977,"lng":-73.431,"zip":"12975","miles_from_dt":18.59},{"city":"Redford","state_name":"New York","lat":44.6181,"lng":-73.79589,"zip":"12978","miles_from_dt":18.86},{"city":"Witherbee","state_name":"New York","lat":44.0879,"lng":-73.57584,"zip":"12998","miles_from_dt":19.42},{"city":"Ray Brook","state_name":"New York","lat":44.29484,"lng":-74.09673,"zip":"12977","miles_from_dt":19.44},{"city":"Saranac","state_name":"New York","lat":44.62235,"lng":-73.84035,"zip":"12981","miles_from_dt":19.74},{"city":"Mineville","state_name":"New York","lat":44.09301,"lng":-73.49628,"zip":"12956","miles_from_dt":20.83},{"city":"Moriah Center","state_name":"New York","lat":44.06103,"lng":-73.57972,"zip":"12961","miles_from_dt":21.11},{"city":"Saranac Lake","state_name":"New York","lat":44.34627,"lng":-74.14243,"zip":"12983","miles_from_dt":21.3},{"city":"Vermontville","state_name":"New York","lat":44.53935,"lng":-74.06439,"zip":"12989","miles_from_dt":21.7},{"city":"Gabriels","state_name":"New York","lat":44.43859,"lng":-74.16541,"zip":"12939","miles_from_dt":23.21},{"city":"Cadyville","state_name":"New York","lat":44.68975,"lng":-73.67863,"zip":"12918","miles_from_dt":23.42},{"city":"Shelburne","state_name":"Vermont","lat":44.39057,"lng":-73.24134,"zip":"05482","miles_from_dt":23.5},{"city":"Port Henry","state_name":"New York","lat":44.05582,"lng":-73.46931,"zip":"12974","miles_from_dt":23.72},{"city":"Charlotte","state_name":"Vermont","lat":44.30896,"lng":-73.23593,"zip":"05445","miles_from_dt":23.81},{"city":"Burlington","state_name":"Vermont","lat":44.48969,"lng":-73.27139,"zip":"05408","miles_from_dt":23.83},{"city":"Moriah","state_name":"New York","lat":44.02226,"lng":-73.54123,"zip":"12960","miles_from_dt":24.27},{"city":"Plattsburgh","state_name":"New York","lat":44.65698,"lng":-73.46306,"zip":"12903","miles_from_dt":24.43},{"city":"North Hudson","state_name":"New York","lat":44.00121,"lng":-73.79762,"zip":"12855","miles_from_dt":24.55},{"city":"Ferrisburgh","state_name":"Vermont","lat":44.20776,"lng":-73.25796,"zip":"05456","miles_from_dt":24.64},{"city":"Vergennes","state_name":"Vermont","lat":44.12101,"lng":-73.32111,"zip":"05491","miles_from_dt":25.12},{"city":"Morrisonville","state_name":"New York","lat":44.70642,"lng":-73.60141,"zip":"12962","miles_from_dt":25.12},{"city":"Dannemora","state_name":"New York","lat":44.71971,"lng":-73.71909,"zip":"12929","miles_from_dt":25.43},{"city":"Burlington","state_name":"Vermont","lat":44.48717,"lng":-73.22627,"zip":"05406","miles_from_dt":25.83},{"city":"Burlington","state_name":"Vermont","lat":44.47484,"lng":-73.21758,"zip":"05401","miles_from_dt":25.94},{"city":"Lake Clear","state_name":"New York","lat":44.33451,"lng":-74.23829,"zip":"12945","miles_from_dt":26.07},{"city":"Rainbow Lake","state_name":"New York","lat":44.50469,"lng":-74.20498,"zip":"12976","miles_from_dt":26.56},{"city":"Lyon Mountain","state_name":"New York","lat":44.71181,"lng":-73.91362,"zip":"12952","miles_from_dt":26.79},{"city":"North Ferrisburgh","state_name":"Vermont","lat":44.24119,"lng":-73.19346,"zip":"05473","miles_from_dt":26.85},{"city":"Burlington","state_name":"Vermont","lat":44.47475,"lng":-73.19649,"zip":"05405","miles_from_dt":26.92},{"city":"Plattsburgh","state_name":"New York","lat":44.70842,"lng":-73.47465,"zip":"12901","miles_from_dt":27.31},{"city":"South Burlington","state_name":"Vermont","lat":44.44635,"lng":-73.17568,"zip":"05407","miles_from_dt":27.37},{"city":"South Hero","state_name":"Vermont","lat":44.62958,"lng":-73.31444,"zip":"05486","miles_from_dt":27.5},{"city":"South Burlington","state_name":"Vermont","lat":44.447,"lng":-73.17229,"zip":"05403","miles_from_dt":27.55},{"city":"Winooski","state_name":"Vermont","lat":44.49483,"lng":-73.18467,"zip":"05404","miles_from_dt":27.94},{"city":"Jonesville","state_name":"Vermont","lat":44.54068,"lng":-73.20958,"zip":"05466","miles_from_dt":28.1},{"city":"Colchester","state_name":"Vermont","lat":44.5541,"lng":-73.21647,"zip":"05446","miles_from_dt":28.25},{"city":"Colchester","state_name":"Vermont","lat":44.49573,"lng":-73.16524,"zip":"05439","miles_from_dt":28.86},{"city":"Crown Point","state_name":"New York","lat":43.9539,"lng":-73.52898,"zip":"12928","miles_from_dt":28.93}],"targetCityZipCode":"12941","targetCityState":"New York"},"__N_SSG":true}