{"pageProps":{"stateName":"New-york","cityName":"middlesex","nearbyCities":[{"city":"Rushville","state_name":"New York","lat":42.75562,"lng":-77.23958,"zip":"14544","miles_from_dt":4.45},{"city":"Branchport","state_name":"New York","lat":42.60717,"lng":-77.21681,"zip":"14418","miles_from_dt":6.8},{"city":"Naples","state_name":"New York","lat":42.64411,"lng":-77.39296,"zip":"14512","miles_from_dt":7.06},{"city":"Gorham","state_name":"New York","lat":42.80179,"lng":-77.1305,"zip":"14461","miles_from_dt":10.3},{"city":"Canandaigua","state_name":"New York","lat":42.84649,"lng":-77.3104,"zip":"14424","miles_from_dt":10.53},{"city":"Penn Yan","state_name":"New York","lat":42.66764,"lng":-77.06473,"zip":"14527","miles_from_dt":10.83},{"city":"Keuka Park","state_name":"New York","lat":42.58011,"lng":-77.12791,"zip":"14478","miles_from_dt":10.94},{"city":"Stanley","state_name":"New York","lat":42.82218,"lng":-77.13131,"zip":"14561","miles_from_dt":11.31},{"city":"Honeoye","state_name":"New York","lat":42.75308,"lng":-77.49425,"zip":"14471","miles_from_dt":11.89},{"city":"Prattsburgh","state_name":"New York","lat":42.52181,"lng":-77.29814,"zip":"14873","miles_from_dt":12.11},{"city":"Pulteney","state_name":"New York","lat":42.53231,"lng":-77.17234,"zip":"14874","miles_from_dt":12.45},{"city":"Hall","state_name":"New York","lat":42.79539,"lng":-77.0689,"zip":"14463","miles_from_dt":12.46},{"city":"Bellona","state_name":"New York","lat":42.7559,"lng":-77.01643,"zip":"14415","miles_from_dt":13.72},{"city":"Atlanta","state_name":"New York","lat":42.55817,"lng":-77.46882,"zip":"14808","miles_from_dt":13.78},{"city":"Springwater","state_name":"New York","lat":42.68716,"lng":-77.57691,"zip":"14560","miles_from_dt":15.45},{"city":"Bloomfield","state_name":"New York","lat":42.87778,"lng":-77.46735,"zip":"14469","miles_from_dt":15.93},{"city":"East Bloomfield","state_name":"New York","lat":42.89039,"lng":-77.4465,"zip":"14443","miles_from_dt":16.02},{"city":"Dresden","state_name":"New York","lat":42.68608,"lng":-76.95756,"zip":"14441","miles_from_dt":16.12},{"city":"Seneca Castle","state_name":"New York","lat":42.90494,"lng":-77.12653,"zip":"14547","miles_from_dt":16.23},{"city":"Hemlock","state_name":"New York","lat":42.77773,"lng":-77.5842,"zip":"14466","miles_from_dt":16.77},{"city":"Himrod","state_name":"New York","lat":42.59666,"lng":-76.963,"zip":"14842","miles_from_dt":17.26},{"city":"Geneva","state_name":"New York","lat":42.84584,"lng":-77.00012,"zip":"14456","miles_from_dt":17.32},{"city":"Wayland","state_name":"New York","lat":42.5669,"lng":-77.57017,"zip":"14572","miles_from_dt":17.55},{"city":"Wayne","state_name":"New York","lat":42.46952,"lng":-77.11182,"zip":"14893","miles_from_dt":17.7},{"city":"Cohocton","state_name":"New York","lat":42.49354,"lng":-77.49335,"zip":"14826","miles_from_dt":17.93},{"city":"Hammondsport","state_name":"New York","lat":42.44119,"lng":-77.18758,"zip":"14840","miles_from_dt":18.15},{"city":"Manchester","state_name":"New York","lat":42.96839,"lng":-77.2327,"zip":"14504","miles_from_dt":18.89},{"city":"Dundee","state_name":"New York","lat":42.49919,"lng":-77.01668,"zip":"14837","miles_from_dt":18.9},{"city":"Clifton Springs","state_name":"New York","lat":42.95696,"lng":-77.14333,"zip":"14432","miles_from_dt":19.17},{"city":"Shortsville","state_name":"New York","lat":42.97538,"lng":-77.24341,"zip":"14548","miles_from_dt":19.32},{"city":"Conesus","state_name":"New York","lat":42.71496,"lng":-77.66721,"zip":"14435","miles_from_dt":20.07},{"city":"Ionia","state_name":"New York","lat":42.93683,"lng":-77.49787,"zip":"14475","miles_from_dt":20.13},{"city":"Livonia","state_name":"New York","lat":42.81174,"lng":-77.63873,"zip":"14487","miles_from_dt":20.2},{"city":"West Bloomfield","state_name":"New York","lat":42.90587,"lng":-77.55301,"zip":"14585","miles_from_dt":20.27},{"city":"Farmington","state_name":"New York","lat":42.98962,"lng":-77.33734,"zip":"14425","miles_from_dt":20.5},{"city":"Livonia Center","state_name":"New York","lat":42.81881,"lng":-77.64226,"zip":"14488","miles_from_dt":20.56},{"city":"Willard","state_name":"New York","lat":42.67973,"lng":-76.87047,"zip":"14588","miles_from_dt":20.57},{"city":"Oaks Corners","state_name":"New York","lat":42.93017,"lng":-77.01246,"zip":"14518","miles_from_dt":20.9},{"city":"Lima","state_name":"New York","lat":42.88016,"lng":-77.60131,"zip":"14485","miles_from_dt":20.94},{"city":"Avoca","state_name":"New York","lat":42.41961,"lng":-77.44355,"zip":"14809","miles_from_dt":20.98},{"city":"Victor","state_name":"New York","lat":42.98329,"lng":-77.42417,"zip":"14564","miles_from_dt":21.23},{"city":"Lakemont","state_name":"New York","lat":42.51874,"lng":-76.92825,"zip":"14857","miles_from_dt":21.46},{"city":"Perkinsville","state_name":"New York","lat":42.53748,"lng":-77.64418,"zip":"14529","miles_from_dt":21.84},{"city":"Romulus","state_name":"New York","lat":42.75704,"lng":-76.84403,"zip":"14541","miles_from_dt":22.27},{"city":"Scottsburg","state_name":"New York","lat":42.66166,"lng":-77.71056,"zip":"14545","miles_from_dt":22.38},{"city":"Phelps","state_name":"New York","lat":42.96462,"lng":-77.02601,"zip":"14532","miles_from_dt":22.39},{"city":"Kanona","state_name":"New York","lat":42.37737,"lng":-77.36944,"zip":"14856","miles_from_dt":22.55},{"city":"Tyrone","state_name":"New York","lat":42.40247,"lng":-77.06989,"zip":"14887","miles_from_dt":22.8},{"city":"Lodi","state_name":"New York","lat":42.59099,"lng":-76.84201,"zip":"14860","miles_from_dt":23.17},{"city":"South Lima","state_name":"New York","lat":42.85382,"lng":-77.67765,"zip":"14558","miles_from_dt":23.24},{"city":"Ovid","state_name":"New York","lat":42.67639,"lng":-76.80876,"zip":"14521","miles_from_dt":23.72},{"city":"Rock Stream","state_name":"New York","lat":42.44946,"lng":-76.94401,"zip":"14878","miles_from_dt":23.95},{"city":"Mendon","state_name":"New York","lat":43.0012,"lng":-77.50508,"zip":"14506","miles_from_dt":24.1},{"city":"Bradford","state_name":"New York","lat":42.37335,"lng":-77.09463,"zip":"14815","miles_from_dt":24.1},{"city":"Lakeville","state_name":"New York","lat":42.83809,"lng":-77.70736,"zip":"14480","miles_from_dt":24.13},{"city":"Port Gibson","state_name":"New York","lat":43.03539,"lng":-77.15604,"zip":"14537","miles_from_dt":24.15},{"city":"Fishers","state_name":"New York","lat":43.01602,"lng":-77.47338,"zip":"14453","miles_from_dt":24.28},{"city":"Honeoye Falls","state_name":"New York","lat":42.96589,"lng":-77.58173,"zip":"14472","miles_from_dt":24.31},{"city":"Groveland","state_name":"New York","lat":42.68652,"lng":-77.75112,"zip":"14462","miles_from_dt":24.32},{"city":"Bath","state_name":"New York","lat":42.34678,"lng":-77.34599,"zip":"14810","miles_from_dt":24.41},{"city":"Reading Center","state_name":"New York","lat":42.43372,"lng":-76.95015,"zip":"14876","miles_from_dt":24.52},{"city":"Fayette","state_name":"New York","lat":42.81884,"lng":-76.81577,"zip":"13065","miles_from_dt":24.78},{"city":"Hector","state_name":"New York","lat":42.52699,"lng":-76.84249,"zip":"14841","miles_from_dt":24.9},{"city":"Dansville","state_name":"New York","lat":42.57072,"lng":-77.73435,"zip":"14437","miles_from_dt":25.03},{"city":"Waterloo","state_name":"New York","lat":42.91185,"lng":-76.87601,"zip":"13165","miles_from_dt":25.1},{"city":"Palmyra","state_name":"New York","lat":43.05911,"lng":-77.22152,"zip":"14522","miles_from_dt":25.18},{"city":"Geneseo","state_name":"New York","lat":42.79731,"lng":-77.76879,"zip":"14454","miles_from_dt":26.13},{"city":"Savona","state_name":"New York","lat":42.31521,"lng":-77.19323,"zip":"14879","miles_from_dt":26.63},{"city":"Avon","state_name":"New York","lat":42.89358,"lng":-77.73501,"zip":"14414","miles_from_dt":27.11},{"city":"Newark","state_name":"New York","lat":43.07204,"lng":-77.0961,"zip":"14513","miles_from_dt":27.46},{"city":"Watkins Glen","state_name":"New York","lat":42.37823,"lng":-76.95035,"zip":"14891","miles_from_dt":27.47},{"city":"Macedon","state_name":"New York","lat":43.09532,"lng":-77.33598,"zip":"14502","miles_from_dt":27.72},{"city":"Pittsford","state_name":"New York","lat":43.0564,"lng":-77.52083,"zip":"14534","miles_from_dt":27.84},{"city":"Interlaken","state_name":"New York","lat":42.6031,"lng":-76.74047,"zip":"14847","miles_from_dt":27.92},{"city":"Fairport","state_name":"New York","lat":43.0921,"lng":-77.41623,"zip":"14450","miles_from_dt":28.26},{"city":"Sonyea","state_name":"New York","lat":42.67906,"lng":-77.83222,"zip":"14556","miles_from_dt":28.46},{"city":"Rush","state_name":"New York","lat":42.98777,"lng":-77.67747,"zip":"14543","miles_from_dt":28.73},{"city":"Burdett","state_name":"New York","lat":42.44878,"lng":-76.81688,"zip":"14818","miles_from_dt":28.9},{"city":"Henrietta","state_name":"New York","lat":43.04119,"lng":-77.60996,"zip":"14467","miles_from_dt":29.29},{"city":"Seneca Falls","state_name":"New York","lat":42.9208,"lng":-76.78106,"zip":"13148","miles_from_dt":29.45},{"city":"Arkport","state_name":"New York","lat":42.41821,"lng":-77.71949,"zip":"14807","miles_from_dt":29.77}],"targetCityZipCode":"14507","targetCityState":"New York"},"__N_SSG":true}