{"pageProps":{"stateName":"New-york","cityName":"rock-tavern","nearbyCities":[{"city":"Maybrook","state_name":"New York","lat":41.48602,"lng":-74.22354,"zip":"12543","miles_from_dt":3.45},{"city":"Washingtonville","state_name":"New York","lat":41.42648,"lng":-74.16567,"zip":"10992","miles_from_dt":4.07},{"city":"New Windsor","state_name":"New York","lat":41.46146,"lng":-74.07311,"zip":"12553","miles_from_dt":4.66},{"city":"Salisbury Mills","state_name":"New York","lat":41.42048,"lng":-74.11678,"zip":"12577","miles_from_dt":4.93},{"city":"Campbell Hall","state_name":"New York","lat":41.44881,"lng":-74.24311,"zip":"10916","miles_from_dt":5.12},{"city":"Blooming Grove","state_name":"New York","lat":41.41671,"lng":-74.20087,"zip":"10914","miles_from_dt":5.24},{"city":"Walden","state_name":"New York","lat":41.5657,"lng":-74.17289,"zip":"12586","miles_from_dt":5.62},{"city":"Vails Gate","state_name":"New York","lat":41.46623,"lng":-74.04924,"zip":"12584","miles_from_dt":5.75},{"city":"Montgomery","state_name":"New York","lat":41.52957,"lng":-74.25843,"zip":"12549","miles_from_dt":6.08},{"city":"Newburgh","state_name":"New York","lat":41.53671,"lng":-74.05196,"zip":"12550","miles_from_dt":6.51},{"city":"Newburgh","state_name":"New York","lat":41.53802,"lng":-74.04901,"zip":"12552","miles_from_dt":6.69},{"city":"Mountainville","state_name":"New York","lat":41.40581,"lng":-74.07783,"zip":"10953","miles_from_dt":6.85},{"city":"Newburgh","state_name":"New York","lat":41.54077,"lng":-74.04673,"zip":"12551","miles_from_dt":6.89},{"city":"Newburgh","state_name":"New York","lat":41.5086,"lng":-74.01337,"zip":"12555","miles_from_dt":7.63},{"city":"Cornwall","state_name":"New York","lat":41.41847,"lng":-74.03571,"zip":"12518","miles_from_dt":7.81},{"city":"Highland Mills","state_name":"New York","lat":41.3667,"lng":-74.11035,"zip":"10930","miles_from_dt":8.53},{"city":"Cornwall On Hudson","state_name":"New York","lat":41.43362,"lng":-74.00693,"zip":"12520","miles_from_dt":8.57},{"city":"Middletown","state_name":"New York","lat":41.48923,"lng":-74.34556,"zip":"10941","miles_from_dt":9.78},{"city":"Wallkill","state_name":"New York","lat":41.6278,"lng":-74.15875,"zip":"12589","miles_from_dt":9.85},{"city":"Plattekill","state_name":"New York","lat":41.61227,"lng":-74.06228,"zip":"12568","miles_from_dt":10.06},{"city":"Castle Point","state_name":"New York","lat":41.52822,"lng":-73.96344,"zip":"12511","miles_from_dt":10.48},{"city":"Beacon","state_name":"New York","lat":41.49637,"lng":-73.95351,"zip":"12508","miles_from_dt":10.59},{"city":"Chester","state_name":"New York","lat":41.34816,"lng":-74.25828,"zip":"10918","miles_from_dt":10.82},{"city":"Monroe","state_name":"New York","lat":41.33,"lng":-74.19219,"zip":"10949","miles_from_dt":10.86},{"city":"West Point","state_name":"New York","lat":41.3615,"lng":-74.02705,"zip":"10997","miles_from_dt":10.88},{"city":"Bullville","state_name":"New York","lat":41.54022,"lng":-74.35714,"zip":"10915","miles_from_dt":11.05},{"city":"Chelsea","state_name":"New York","lat":41.5542,"lng":-73.96471,"zip":"12512","miles_from_dt":11.06},{"city":"West Point","state_name":"New York","lat":41.38996,"lng":-73.97257,"zip":"10996","miles_from_dt":11.62},{"city":"Monroe","state_name":"New York","lat":41.31919,"lng":-74.19825,"zip":"10950","miles_from_dt":11.65},{"city":"Glenham","state_name":"New York","lat":41.51931,"lng":-73.93703,"zip":"12527","miles_from_dt":11.66},{"city":"Central Valley","state_name":"New York","lat":41.31851,"lng":-74.11094,"zip":"10917","miles_from_dt":11.75},{"city":"Marlboro","state_name":"New York","lat":41.60772,"lng":-73.99666,"zip":"12542","miles_from_dt":11.87},{"city":"Circleville","state_name":"New York","lat":41.52836,"lng":-74.38327,"zip":"10919","miles_from_dt":12.1},{"city":"Thompson Ridge","state_name":"New York","lat":41.57697,"lng":-74.35782,"zip":"10985","miles_from_dt":12.18},{"city":"Goshen","state_name":"New York","lat":41.3788,"lng":-74.3512,"zip":"10924","miles_from_dt":12.47},{"city":"Highland Falls","state_name":"New York","lat":41.3457,"lng":-74.00265,"zip":"10928","miles_from_dt":12.53},{"city":"Modena","state_name":"New York","lat":41.66307,"lng":-74.10157,"zip":"12548","miles_from_dt":12.61},{"city":"Sugar Loaf","state_name":"New York","lat":41.32301,"lng":-74.28559,"zip":"10981","miles_from_dt":13.03},{"city":"Pine Bush","state_name":"New York","lat":41.62223,"lng":-74.33256,"zip":"12566","miles_from_dt":13.12},{"city":"Cold Spring","state_name":"New York","lat":41.45342,"lng":-73.90233,"zip":"10516","miles_from_dt":13.41},{"city":"Burlingham","state_name":"New York","lat":41.59042,"lng":-74.3748,"zip":"12722","miles_from_dt":13.42},{"city":"Gardiner","state_name":"New York","lat":41.68115,"lng":-74.17751,"zip":"12525","miles_from_dt":13.57},{"city":"Fort Montgomery","state_name":"New York","lat":41.32794,"lng":-73.99604,"zip":"10922","miles_from_dt":13.7},{"city":"Hughsonville","state_name":"New York","lat":41.58315,"lng":-73.92722,"zip":"12537","miles_from_dt":13.71},{"city":"Fishkill","state_name":"New York","lat":41.53092,"lng":-73.89245,"zip":"12524","miles_from_dt":14.09},{"city":"Clintondale","state_name":"New York","lat":41.68008,"lng":-74.06451,"zip":"12515","miles_from_dt":14.28},{"city":"Arden","state_name":"New York","lat":41.2773,"lng":-74.13625,"zip":"10910","miles_from_dt":14.38},{"city":"Garrison","state_name":"New York","lat":41.37076,"lng":-73.92201,"zip":"10524","miles_from_dt":14.54},{"city":"Milton","state_name":"New York","lat":41.65463,"lng":-73.98322,"zip":"12547","miles_from_dt":14.77},{"city":"Bear Mountain","state_name":"New York","lat":41.30798,"lng":-73.99243,"zip":"10911","miles_from_dt":14.92},{"city":"Bloomingburg","state_name":"New York","lat":41.56741,"lng":-74.42832,"zip":"12721","miles_from_dt":15.17},{"city":"Florida","state_name":"New York","lat":41.3292,"lng":-74.3651,"zip":"10921","miles_from_dt":15.25},{"city":"Walker Valley","state_name":"New York","lat":41.6335,"lng":-74.37718,"zip":"12588","miles_from_dt":15.33},{"city":"Southfields","state_name":"New York","lat":41.25951,"lng":-74.17042,"zip":"10975","miles_from_dt":15.59},{"city":"Harriman","state_name":"New York","lat":41.25856,"lng":-74.1307,"zip":"10926","miles_from_dt":15.7},{"city":"Howells","state_name":"New York","lat":41.482,"lng":-74.46352,"zip":"10932","miles_from_dt":15.9},{"city":"Wappingers Falls","state_name":"New York","lat":41.59559,"lng":-73.88774,"zip":"12590","miles_from_dt":15.91},{"city":"New Hampton","state_name":"New York","lat":41.3764,"lng":-74.42881,"zip":"10958","miles_from_dt":15.98},{"city":"Middletown","state_name":"New York","lat":41.45149,"lng":-74.46997,"zip":"10940","miles_from_dt":16.4},{"city":"Tomkins Cove","state_name":"New York","lat":41.27917,"lng":-73.99445,"zip":"10986","miles_from_dt":16.54},{"city":"Cragsmoor","state_name":"New York","lat":41.6743,"lng":-74.37769,"zip":"12420","miles_from_dt":17.35},{"city":"Lake Peekskill","state_name":"New York","lat":41.33784,"lng":-73.88528,"zip":"10537","miles_from_dt":17.4},{"city":"Putnam Valley","state_name":"New York","lat":41.39651,"lng":-73.83384,"zip":"10579","miles_from_dt":17.87},{"city":"Slate Hill","state_name":"New York","lat":41.38442,"lng":-74.47566,"zip":"10973","miles_from_dt":17.94},{"city":"Bellvale","state_name":"New York","lat":41.24733,"lng":-74.30386,"zip":"10912","miles_from_dt":18.1},{"city":"Highland","state_name":"New York","lat":41.72273,"lng":-74.00477,"zip":"12528","miles_from_dt":18.2},{"city":"Stony Point","state_name":"New York","lat":41.23157,"lng":-74.05709,"zip":"10980","miles_from_dt":18.26},{"city":"Peekskill","state_name":"New York","lat":41.28924,"lng":-73.91837,"zip":"10566","miles_from_dt":18.35},{"city":"Summitville","state_name":"New York","lat":41.61448,"lng":-74.47208,"zip":"12781","miles_from_dt":18.61},{"city":"Warwick","state_name":"New York","lat":41.2651,"lng":-74.3663,"zip":"10990","miles_from_dt":18.68},{"city":"Verplanck","state_name":"New York","lat":41.25552,"lng":-73.95854,"zip":"10596","miles_from_dt":18.91},{"city":"Buchanan","state_name":"New York","lat":41.26302,"lng":-73.94391,"zip":"10511","miles_from_dt":18.92},{"city":"New Paltz","state_name":"New York","lat":41.75602,"lng":-74.0958,"zip":"12561","miles_from_dt":18.96},{"city":"Cortlandt Manor","state_name":"New York","lat":41.28922,"lng":-73.89633,"zip":"10567","miles_from_dt":19.15},{"city":"Poughkeepsie","state_name":"New York","lat":41.70623,"lng":-73.92854,"zip":"12602","miles_from_dt":19.31},{"city":"Spring Glen","state_name":"New York","lat":41.66796,"lng":-74.44184,"zip":"12483","miles_from_dt":19.41},{"city":"Tuxedo Park","state_name":"New York","lat":41.20737,"lng":-74.22284,"zip":"10987","miles_from_dt":19.47},{"city":"Hopewell Junction","state_name":"New York","lat":41.55925,"lng":-73.79401,"zip":"12533","miles_from_dt":19.52},{"city":"Poughkeepsie","state_name":"New York","lat":41.68844,"lng":-73.89448,"zip":"12604","miles_from_dt":19.55},{"city":"Poughkeepsie","state_name":"New York","lat":41.70602,"lng":-73.91119,"zip":"12601","miles_from_dt":19.87},{"city":"Wurtsboro","state_name":"New York","lat":41.5863,"lng":-74.51705,"zip":"12790","miles_from_dt":19.93},{"city":"Otisville","state_name":"New York","lat":41.4669,"lng":-74.54121,"zip":"10963","miles_from_dt":19.97},{"city":"Poughkeepsie","state_name":"New York","lat":41.67816,"lng":-73.86744,"zip":"12603","miles_from_dt":20.07},{"city":"Mohegan Lake","state_name":"New York","lat":41.31178,"lng":-73.84637,"zip":"10547","miles_from_dt":20.1},{"city":"Montrose","state_name":"New York","lat":41.24599,"lng":-73.93643,"zip":"10548","miles_from_dt":20.1},{"city":"Crompond","state_name":"New York","lat":41.29837,"lng":-73.86013,"zip":"10517","miles_from_dt":20.11},{"city":"Johnson","state_name":"New York","lat":41.36527,"lng":-74.51106,"zip":"10933","miles_from_dt":20.16},{"city":"Shrub Oak","state_name":"New York","lat":41.33222,"lng":-73.82624,"zip":"10588","miles_from_dt":20.17},{"city":"Phillipsport","state_name":"New York","lat":41.65925,"lng":-74.47071,"zip":"12769","miles_from_dt":20.21},{"city":"Thiells","state_name":"New York","lat":41.20928,"lng":-74.02008,"zip":"10984","miles_from_dt":20.33},{"city":"High Falls","state_name":"New York","lat":41.78665,"lng":-74.16338,"zip":"12440","miles_from_dt":20.81},{"city":"Greenwood Lake","state_name":"New York","lat":41.20076,"lng":-74.29535,"zip":"10925","miles_from_dt":20.9},{"city":"Croton On Hudson","state_name":"New York","lat":41.23452,"lng":-73.92434,"zip":"10521","miles_from_dt":21.11},{"city":"Garnerville","state_name":"New York","lat":41.20265,"lng":-74.00031,"zip":"10923","miles_from_dt":21.13},{"city":"West Haverstraw","state_name":"New York","lat":41.21011,"lng":-73.97565,"zip":"10993","miles_from_dt":21.2},{"city":"Pomona","state_name":"New York","lat":41.1852,"lng":-74.06568,"zip":"10970","miles_from_dt":21.24},{"city":"Jefferson Valley","state_name":"New York","lat":41.33536,"lng":-73.79965,"zip":"10535","miles_from_dt":21.26},{"city":"Wawarsing","state_name":"New York","lat":41.75597,"lng":-74.35462,"zip":"12489","miles_from_dt":21.31},{"city":"Pine Island","state_name":"New York","lat":41.292,"lng":-74.48879,"zip":"10969","miles_from_dt":21.79},{"city":"New Milford","state_name":"New York","lat":41.23454,"lng":-74.41307,"zip":"10959","miles_from_dt":21.82},{"city":"Mahopac Falls","state_name":"New York","lat":41.37115,"lng":-73.76436,"zip":"10542","miles_from_dt":21.86},{"city":"Westbrookville","state_name":"New York","lat":41.52429,"lng":-74.58051,"zip":"12785","miles_from_dt":22.13},{"city":"Mahopac","state_name":"New York","lat":41.37855,"lng":-73.75122,"zip":"10541","miles_from_dt":22.33},{"city":"Haverstraw","state_name":"New York","lat":41.19263,"lng":-73.96735,"zip":"10927","miles_from_dt":22.47},{"city":"Sterling Forest","state_name":"New York","lat":41.18237,"lng":-74.31877,"zip":"10979","miles_from_dt":22.52},{"city":"Westtown","state_name":"New York","lat":41.33118,"lng":-74.53989,"zip":"10998","miles_from_dt":22.55},{"city":"Stormville","state_name":"New York","lat":41.54693,"lng":-73.72919,"zip":"12582","miles_from_dt":22.6},{"city":"Sloatsburg","state_name":"New York","lat":41.15826,"lng":-74.18993,"zip":"10974","miles_from_dt":22.62},{"city":"Kerhonkson","state_name":"New York","lat":41.79063,"lng":-74.31655,"zip":"12446","miles_from_dt":22.64},{"city":"Ellenville","state_name":"New York","lat":41.73817,"lng":-74.44615,"zip":"12428","miles_from_dt":23},{"city":"Accord","state_name":"New York","lat":41.81602,"lng":-74.23632,"zip":"12404","miles_from_dt":23.2},{"city":"Mountain Dale","state_name":"New York","lat":41.68221,"lng":-74.52205,"zip":"12763","miles_from_dt":23.29},{"city":"West Park","state_name":"New York","lat":41.79316,"lng":-73.97283,"zip":"12493","miles_from_dt":23.3},{"city":"Carmel","state_name":"New York","lat":41.4483,"lng":-73.71054,"zip":"10512","miles_from_dt":23.32},{"city":"Granite Springs","state_name":"New York","lat":41.3195,"lng":-73.76502,"zip":"10527","miles_from_dt":23.36},{"city":"Croton On Hudson","state_name":"New York","lat":41.22183,"lng":-73.87348,"zip":"10520","miles_from_dt":23.4},{"city":"Yorktown Heights","state_name":"New York","lat":41.28309,"lng":-73.79516,"zip":"10598","miles_from_dt":23.42},{"city":"Baldwin Place","state_name":"New York","lat":41.34207,"lng":-73.74791,"zip":"10505","miles_from_dt":23.44},{"city":"Suffern","state_name":"New York","lat":41.14554,"lng":-74.12504,"zip":"10901","miles_from_dt":23.5},{"city":"Cuddebackville","state_name":"New York","lat":41.49411,"lng":-74.61582,"zip":"12729","miles_from_dt":23.81},{"city":"Rock Hill","state_name":"New York","lat":41.62266,"lng":-74.58232,"zip":"12775","miles_from_dt":24},{"city":"Glenwood","state_name":"New Jersey","lat":41.2387,"lng":-74.4873,"zip":"07418","miles_from_dt":24.16},{"city":"Billings","state_name":"New York","lat":41.67232,"lng":-73.76247,"zip":"12510","miles_from_dt":24.19},{"city":"New City","state_name":"New York","lat":41.15562,"lng":-73.99314,"zip":"10956","miles_from_dt":24.29},{"city":"Shenorock","state_name":"New York","lat":41.32713,"lng":-73.73674,"zip":"10587","miles_from_dt":24.41},{"city":"Amawalk","state_name":"New York","lat":41.2954,"lng":-73.76006,"zip":"10501","miles_from_dt":24.44},{"city":"Hewitt","state_name":"New Jersey","lat":41.1624,"lng":-74.35586,"zip":"07421","miles_from_dt":24.55},{"city":"Unionville","state_name":"New York","lat":41.30133,"lng":-74.56218,"zip":"10988","miles_from_dt":24.58},{"city":"Tillson","state_name":"New York","lat":41.83438,"lng":-74.06235,"zip":"12486","miles_from_dt":24.6},{"city":"Hillburn","state_name":"New York","lat":41.12769,"lng":-74.17012,"zip":"10931","miles_from_dt":24.68},{"city":"Greenfield Park","state_name":"New York","lat":41.72715,"lng":-74.51148,"zip":"12435","miles_from_dt":24.82},{"city":"Lincolndale","state_name":"New York","lat":41.32575,"lng":-73.72745,"zip":"10540","miles_from_dt":24.89},{"city":"Rifton","state_name":"New York","lat":41.83799,"lng":-74.04195,"zip":"12471","miles_from_dt":25.07},{"city":"Hyde Park","state_name":"New York","lat":41.79246,"lng":-73.89336,"zip":"12538","miles_from_dt":25.23},{"city":"Rosendale","state_name":"New York","lat":41.84732,"lng":-74.07447,"zip":"12472","miles_from_dt":25.36},{"city":"Pleasant Valley","state_name":"New York","lat":41.7346,"lng":-73.79731,"zip":"12569","miles_from_dt":25.37},{"city":"Port Jervis","state_name":"New York","lat":41.37394,"lng":-74.62429,"zip":"12771","miles_from_dt":25.45},{"city":"Congers","state_name":"New York","lat":41.15477,"lng":-73.9393,"zip":"10920","miles_from_dt":25.46},{"city":"Glen Wild","state_name":"New York","lat":41.66009,"lng":-74.59119,"zip":"12738","miles_from_dt":25.53},{"city":"Holmes","state_name":"New York","lat":41.53689,"lng":-73.66917,"zip":"12531","miles_from_dt":25.56},{"city":"Highland Lakes","state_name":"New Jersey","lat":41.17984,"lng":-74.44177,"zip":"07422","miles_from_dt":25.75},{"city":"Lagrangeville","state_name":"New York","lat":41.67073,"lng":-73.72524,"zip":"12540","miles_from_dt":25.79},{"city":"Monsey","state_name":"New York","lat":41.11385,"lng":-74.07975,"zip":"10952","miles_from_dt":25.94},{"city":"Cottekill","state_name":"New York","lat":41.85948,"lng":-74.10265,"zip":"12419","miles_from_dt":25.99},{"city":"Spring Valley","state_name":"New York","lat":41.11749,"lng":-74.04825,"zip":"10977","miles_from_dt":26},{"city":"Huguenot","state_name":"New York","lat":41.44929,"lng":-74.65582,"zip":"12746","miles_from_dt":26},{"city":"Esopus","state_name":"New York","lat":41.83323,"lng":-73.961,"zip":"12429","miles_from_dt":26.08},{"city":"Vernon","state_name":"New Jersey","lat":41.19873,"lng":-74.48911,"zip":"07462","miles_from_dt":26.24},{"city":"Tallman","state_name":"New York","lat":41.10654,"lng":-74.09865,"zip":"10982","miles_from_dt":26.3},{"city":"Somers","state_name":"New York","lat":41.33178,"lng":-73.6933,"zip":"10589","miles_from_dt":26.32},{"city":"Ossining","state_name":"New York","lat":41.19295,"lng":-73.8305,"zip":"10562","miles_from_dt":26.37},{"city":"Stone Ridge","state_name":"New York","lat":41.87024,"lng":-74.17338,"zip":"12484","miles_from_dt":26.59},{"city":"Woodridge","state_name":"New York","lat":41.71374,"lng":-74.57233,"zip":"12789","miles_from_dt":26.67},{"city":"Ringwood","state_name":"New Jersey","lat":41.10647,"lng":-74.27487,"zip":"07456","miles_from_dt":26.84},{"city":"Napanoch","state_name":"New York","lat":41.82273,"lng":-74.41666,"zip":"12458","miles_from_dt":26.89},{"city":"Thompsonville","state_name":"New York","lat":41.66907,"lng":-74.61485,"zip":"12784","miles_from_dt":26.9},{"city":"Maryknoll","state_name":"New York","lat":41.17861,"lng":-73.83547,"zip":"10545","miles_from_dt":26.97},{"city":"Poughquag","state_name":"New York","lat":41.62377,"lng":-73.66983,"zip":"12570","miles_from_dt":27.01},{"city":"Ulster Park","state_name":"New York","lat":41.86095,"lng":-73.99555,"zip":"12487","miles_from_dt":27.25},{"city":"Millwood","state_name":"New York","lat":41.19472,"lng":-73.8002,"zip":"10546","miles_from_dt":27.32},{"city":"Valley Cottage","state_name":"New York","lat":41.12479,"lng":-73.93632,"zip":"10989","miles_from_dt":27.39},{"city":"Croton Falls","state_name":"New York","lat":41.34701,"lng":-73.66196,"zip":"10519","miles_from_dt":27.43},{"city":"Nanuet","state_name":"New York","lat":41.09969,"lng":-74.01269,"zip":"10954","miles_from_dt":27.64},{"city":"Purdys","state_name":"New York","lat":41.31815,"lng":-73.673,"zip":"10578","miles_from_dt":27.67},{"city":"Bloomington","state_name":"New York","lat":41.87975,"lng":-74.04094,"zip":"12411","miles_from_dt":27.89},{"city":"Mahwah","state_name":"New Jersey","lat":41.08157,"lng":-74.18562,"zip":"07430","miles_from_dt":27.89},{"city":"Mahwah","state_name":"New Jersey","lat":41.08113,"lng":-74.18666,"zip":"07495","miles_from_dt":27.92},{"city":"South Fallsburg","state_name":"New York","lat":41.69804,"lng":-74.62703,"zip":"12779","miles_from_dt":28.43},{"city":"West Nyack","state_name":"New York","lat":41.09702,"lng":-73.97322,"zip":"10994","miles_from_dt":28.44},{"city":"Katonah","state_name":"New York","lat":41.26971,"lng":-73.68943,"zip":"10536","miles_from_dt":28.5},{"city":"Verbank","state_name":"New York","lat":41.72396,"lng":-73.7025,"zip":"12585","miles_from_dt":28.74},{"city":"Sussex","state_name":"New Jersey","lat":41.24213,"lng":-74.60648,"zip":"07461","miles_from_dt":28.76},{"city":"Goldens Bridge","state_name":"New York","lat":41.29388,"lng":-73.66171,"zip":"10526","miles_from_dt":28.93},{"city":"Salt Point","state_name":"New York","lat":41.80629,"lng":-73.79673,"zip":"12578","miles_from_dt":28.97},{"city":"Briarcliff Manor","state_name":"New York","lat":41.14152,"lng":-73.83411,"zip":"10510","miles_from_dt":29.07},{"city":"Fallsburg","state_name":"New York","lat":41.73378,"lng":-74.6102,"zip":"12733","miles_from_dt":29.07},{"city":"Forestburgh","state_name":"New York","lat":41.55172,"lng":-74.71067,"zip":"12777","miles_from_dt":29.08},{"city":"McAfee","state_name":"New Jersey","lat":41.18538,"lng":-74.55155,"zip":"07428","miles_from_dt":29.13},{"city":"Sparrow Bush","state_name":"New York","lat":41.44514,"lng":-74.71989,"zip":"12780","miles_from_dt":29.34},{"city":"Staatsburg","state_name":"New York","lat":41.85348,"lng":-73.87302,"zip":"12580","miles_from_dt":29.37},{"city":"Ramsey","state_name":"New Jersey","lat":41.05944,"lng":-74.14532,"zip":"07446","miles_from_dt":29.38},{"city":"Olivebridge","state_name":"New York","lat":41.90531,"lng":-74.25246,"zip":"12461","miles_from_dt":29.41},{"city":"Chappaqua","state_name":"New York","lat":41.17331,"lng":-73.77071,"zip":"10514","miles_from_dt":29.45},{"city":"Patterson","state_name":"New York","lat":41.49417,"lng":-73.5891,"zip":"12563","miles_from_dt":29.48},{"city":"Brewster","state_name":"New York","lat":41.41205,"lng":-73.5937,"zip":"10509","miles_from_dt":29.69},{"city":"West Milford","state_name":"New Jersey","lat":41.08713,"lng":-74.3779,"zip":"07480","miles_from_dt":29.77},{"city":"Kiamesha Lake","state_name":"New York","lat":41.69209,"lng":-74.66119,"zip":"12751","miles_from_dt":29.77},{"city":"Nyack","state_name":"New York","lat":41.08892,"lng":-73.92642,"zip":"10960","miles_from_dt":29.86}],"targetCityZipCode":"12575","targetCityState":"New York"},"__N_SSG":true}