{"pageProps":{"stateName":"New-york","cityName":"sandy-creek","nearbyCities":[{"city":"Mannsville","state_name":"New York","lat":43.70924,"lng":-76.1054,"zip":"13661","miles_from_dt":4.06},{"city":"Ellisburg","state_name":"New York","lat":43.74107,"lng":-76.12762,"zip":"13636","miles_from_dt":6.16},{"city":"Pulaski","state_name":"New York","lat":43.55189,"lng":-76.12959,"zip":"13142","miles_from_dt":6.91},{"city":"Pierrepont Manor","state_name":"New York","lat":43.73763,"lng":-76.05192,"zip":"13674","miles_from_dt":6.91},{"city":"Lacona","state_name":"New York","lat":43.64853,"lng":-75.98091,"zip":"13083","miles_from_dt":7.14},{"city":"Belleville","state_name":"New York","lat":43.77726,"lng":-76.12374,"zip":"13611","miles_from_dt":8.66},{"city":"Orwell","state_name":"New York","lat":43.56057,"lng":-75.9931,"zip":"13426","miles_from_dt":9.07},{"city":"Richland","state_name":"New York","lat":43.57034,"lng":-75.97464,"zip":"13144","miles_from_dt":9.34},{"city":"Adams","state_name":"New York","lat":43.80641,"lng":-76.05195,"zip":"13605","miles_from_dt":11.25},{"city":"Henderson","state_name":"New York","lat":43.80742,"lng":-76.20629,"zip":"13650","miles_from_dt":11.52},{"city":"Maple View","state_name":"New York","lat":43.46048,"lng":-76.147,"zip":"13107","miles_from_dt":13.27},{"city":"Altmar","state_name":"New York","lat":43.50261,"lng":-75.95044,"zip":"13302","miles_from_dt":13.47},{"city":"Lorraine","state_name":"New York","lat":43.73783,"lng":-75.8707,"zip":"13659","miles_from_dt":13.97},{"city":"Mexico","state_name":"New York","lat":43.46386,"lng":-76.24328,"zip":"13114","miles_from_dt":14.31},{"city":"New Haven","state_name":"New York","lat":43.48491,"lng":-76.30966,"zip":"13121","miles_from_dt":14.85},{"city":"Henderson Harbor","state_name":"New York","lat":43.86513,"lng":-76.18125,"zip":"13651","miles_from_dt":15.01},{"city":"Adams Center","state_name":"New York","lat":43.87007,"lng":-76.01601,"zip":"13606","miles_from_dt":15.99},{"city":"Parish","state_name":"New York","lat":43.41964,"lng":-76.09539,"zip":"13131","miles_from_dt":16.09},{"city":"Redfield","state_name":"New York","lat":43.59677,"lng":-75.80383,"zip":"13437","miles_from_dt":16.46},{"city":"Lycoming","state_name":"New York","lat":43.50137,"lng":-76.38857,"zip":"13093","miles_from_dt":16.89},{"city":"Rodman","state_name":"New York","lat":43.84024,"lng":-75.88924,"zip":"13682","miles_from_dt":17.5},{"city":"Williamstown","state_name":"New York","lat":43.43162,"lng":-75.90102,"zip":"13493","miles_from_dt":18.86},{"city":"Sackets Harbor","state_name":"New York","lat":43.93343,"lng":-76.09399,"zip":"13685","miles_from_dt":19.49},{"city":"Hastings","state_name":"New York","lat":43.35364,"lng":-76.15182,"zip":"13076","miles_from_dt":20.64},{"city":"Mallory","state_name":"New York","lat":43.32652,"lng":-76.10507,"zip":"13103","miles_from_dt":22.48},{"city":"Oswego","state_name":"New York","lat":43.43469,"lng":-76.46331,"zip":"13126","miles_from_dt":22.73},{"city":"Central Square","state_name":"New York","lat":43.32268,"lng":-76.17402,"zip":"13036","miles_from_dt":22.87},{"city":"Westdale","state_name":"New York","lat":43.40075,"lng":-75.81995,"zip":"13483","miles_from_dt":23.08},{"city":"West Monroe","state_name":"New York","lat":43.3171,"lng":-76.0571,"zip":"13167","miles_from_dt":23.35},{"city":"Watertown","state_name":"New York","lat":43.96949,"lng":-75.90965,"zip":"13601","miles_from_dt":24.39},{"city":"Copenhagen","state_name":"New York","lat":43.85143,"lng":-75.7202,"zip":"13626","miles_from_dt":24.42},{"city":"Dexter","state_name":"New York","lat":44.01197,"lng":-76.07034,"zip":"13634","miles_from_dt":25},{"city":"Minetto","state_name":"New York","lat":43.3937,"lng":-76.47462,"zip":"13115","miles_from_dt":25.09},{"city":"Camden","state_name":"New York","lat":43.41492,"lng":-75.73963,"zip":"13316","miles_from_dt":25.27},{"city":"Constantia","state_name":"New York","lat":43.2977,"lng":-75.99595,"zip":"13044","miles_from_dt":25.27},{"city":"Brownville","state_name":"New York","lat":44.00569,"lng":-75.98328,"zip":"13615","miles_from_dt":25.41},{"city":"Fulton","state_name":"New York","lat":43.33081,"lng":-76.37867,"zip":"13069","miles_from_dt":25.62},{"city":"Limerick","state_name":"New York","lat":44.0279,"lng":-76.05099,"zip":"13657","miles_from_dt":26.21},{"city":"Bernhards Bay","state_name":"New York","lat":43.29226,"lng":-75.93107,"zip":"13028","miles_from_dt":26.64},{"city":"Three Mile Bay","state_name":"New York","lat":44.03237,"lng":-76.24824,"zip":"13693","miles_from_dt":27},{"city":"Pennellville","state_name":"New York","lat":43.26547,"lng":-76.24446,"zip":"13132","miles_from_dt":27.36},{"city":"Phoenix","state_name":"New York","lat":43.25801,"lng":-76.31676,"zip":"13135","miles_from_dt":28.88},{"city":"Calcium","state_name":"New York","lat":44.02538,"lng":-75.85896,"zip":"13616","miles_from_dt":28.97},{"city":"Black River","state_name":"New York","lat":43.98571,"lng":-75.76911,"zip":"13612","miles_from_dt":29.06},{"city":"Constableville","state_name":"New York","lat":43.58398,"lng":-75.54091,"zip":"13325","miles_from_dt":29.58},{"city":"Brewerton","state_name":"New York","lat":43.2236,"lng":-76.14993,"zip":"13029","miles_from_dt":29.6},{"city":"Cleveland","state_name":"New York","lat":43.26565,"lng":-75.85154,"zip":"13042","miles_from_dt":29.96}],"targetCityZipCode":"13145","targetCityState":"New York"},"__N_SSG":true}