{"pageProps":{"stateName":"New-york","cityName":"walton","nearbyCities":[{"city":"Trout Creek","state_name":"New York","lat":42.20443,"lng":-75.27777,"zip":"13847","miles_from_dt":6.29},{"city":"Sidney Center","state_name":"New York","lat":42.24824,"lng":-75.26007,"zip":"13839","miles_from_dt":7.41},{"city":"Hamden","state_name":"New York","lat":42.17304,"lng":-74.9836,"zip":"13782","miles_from_dt":9.39},{"city":"Downsville","state_name":"New York","lat":42.05976,"lng":-75.01524,"zip":"13755","miles_from_dt":10.71},{"city":"Masonville","state_name":"New York","lat":42.20708,"lng":-75.37562,"zip":"13804","miles_from_dt":11.1},{"city":"East Branch","state_name":"New York","lat":42.01025,"lng":-75.10394,"zip":"13756","miles_from_dt":11.26},{"city":"Franklin","state_name":"New York","lat":42.33706,"lng":-75.14728,"zip":"13775","miles_from_dt":11.8},{"city":"Hancock","state_name":"New York","lat":41.99037,"lng":-75.26764,"zip":"13783","miles_from_dt":13.24},{"city":"Delancey","state_name":"New York","lat":42.17257,"lng":-74.90379,"zip":"13752","miles_from_dt":13.49},{"city":"Unadilla","state_name":"New York","lat":42.33785,"lng":-75.31392,"zip":"13849","miles_from_dt":14.03},{"city":"Fishs Eddy","state_name":"New York","lat":41.96192,"lng":-75.17283,"zip":"13774","miles_from_dt":14.13},{"city":"Sidney","state_name":"New York","lat":42.28423,"lng":-75.39595,"zip":"13838","miles_from_dt":14.3},{"city":"Treadwell","state_name":"New York","lat":42.36037,"lng":-75.05465,"zip":"13846","miles_from_dt":14.54},{"city":"Wells Bridge","state_name":"New York","lat":42.37123,"lng":-75.24916,"zip":"13859","miles_from_dt":14.74},{"city":"Deposit","state_name":"New York","lat":42.09387,"lng":-75.43625,"zip":"13754","miles_from_dt":14.75},{"city":"Delhi","state_name":"New York","lat":42.30873,"lng":-74.92538,"zip":"13753","miles_from_dt":15.78},{"city":"Meridale","state_name":"New York","lat":42.37894,"lng":-74.97315,"zip":"13806","miles_from_dt":17.68},{"city":"Starlight","state_name":"Pennsylvania","lat":41.92774,"lng":-75.32434,"zip":"18461","miles_from_dt":18.38},{"city":"Roscoe","state_name":"New York","lat":41.96486,"lng":-74.93197,"zip":"12776","miles_from_dt":18.42},{"city":"Long Eddy","state_name":"New York","lat":41.90063,"lng":-75.10559,"zip":"12760","miles_from_dt":18.62},{"city":"Bainbridge","state_name":"New York","lat":42.30459,"lng":-75.4793,"zip":"13733","miles_from_dt":18.66},{"city":"Otego","state_name":"New York","lat":42.44329,"lng":-75.20154,"zip":"13825","miles_from_dt":19.18},{"city":"Afton","state_name":"New York","lat":42.23201,"lng":-75.53127,"zip":"13730","miles_from_dt":19.26},{"city":"Nineveh","state_name":"New York","lat":42.16808,"lng":-75.54266,"zip":"13813","miles_from_dt":19.32},{"city":"Andes","state_name":"New York","lat":42.13059,"lng":-74.7882,"zip":"13731","miles_from_dt":19.58},{"city":"Mount Upton","state_name":"New York","lat":42.40849,"lng":-75.3914,"zip":"13809","miles_from_dt":20.29},{"city":"Lake Como","state_name":"Pennsylvania","lat":41.86859,"lng":-75.30345,"zip":"18437","miles_from_dt":21.75},{"city":"Preston Park","state_name":"Pennsylvania","lat":41.88467,"lng":-75.35541,"zip":"18455","miles_from_dt":21.76},{"city":"East Meredith","state_name":"New York","lat":42.40915,"lng":-74.89321,"zip":"13757","miles_from_dt":21.82},{"city":"Oneonta","state_name":"New York","lat":42.47204,"lng":-75.03893,"zip":"13820","miles_from_dt":22.06},{"city":"Starrucca","state_name":"Pennsylvania","lat":41.9049,"lng":-75.42988,"zip":"18462","miles_from_dt":22.59},{"city":"Gilbertsville","state_name":"New York","lat":42.47023,"lng":-75.33458,"zip":"13776","miles_from_dt":22.66},{"city":"Hankins","state_name":"New York","lat":41.84368,"lng":-75.07816,"zip":"12741","miles_from_dt":22.75},{"city":"West Davenport","state_name":"New York","lat":42.45573,"lng":-74.94989,"zip":"13860","miles_from_dt":22.83},{"city":"Bovina Center","state_name":"New York","lat":42.27535,"lng":-74.74498,"zip":"13740","miles_from_dt":22.88},{"city":"Fremont Center","state_name":"New York","lat":41.85327,"lng":-75.01917,"zip":"12736","miles_from_dt":22.92},{"city":"West Oneonta","state_name":"New York","lat":42.5048,"lng":-75.14156,"zip":"13861","miles_from_dt":23.37},{"city":"Bloomville","state_name":"New York","lat":42.36614,"lng":-74.78982,"zip":"13739","miles_from_dt":23.71},{"city":"Guilford","state_name":"New York","lat":42.42496,"lng":-75.48128,"zip":"13780","miles_from_dt":24.05},{"city":"Colliersville","state_name":"New York","lat":42.49003,"lng":-74.98209,"zip":"13747","miles_from_dt":24.23},{"city":"Obernburg","state_name":"New York","lat":41.83504,"lng":-75.00284,"zip":"12767","miles_from_dt":24.39},{"city":"Ouaquaga","state_name":"New York","lat":42.10517,"lng":-75.63701,"zip":"13826","miles_from_dt":24.55},{"city":"Davenport Center","state_name":"New York","lat":42.45745,"lng":-74.88363,"zip":"13751","miles_from_dt":24.75},{"city":"Callicoon Center","state_name":"New York","lat":41.85195,"lng":-74.93535,"zip":"12724","miles_from_dt":24.76},{"city":"Windsor","state_name":"New York","lat":42.06282,"lng":-75.62879,"zip":"13865","miles_from_dt":24.82},{"city":"Equinunk","state_name":"Pennsylvania","lat":41.80705,"lng":-75.20122,"zip":"18417","miles_from_dt":24.88},{"city":"Lakewood","state_name":"Pennsylvania","lat":41.82674,"lng":-75.34735,"zip":"18439","miles_from_dt":25.24},{"city":"Morris","state_name":"New York","lat":42.52797,"lng":-75.25657,"zip":"13808","miles_from_dt":25.36},{"city":"New Kingston","state_name":"New York","lat":42.23976,"lng":-74.6805,"zip":"12459","miles_from_dt":25.44},{"city":"Harpursville","state_name":"New York","lat":42.20606,"lng":-75.66334,"zip":"13787","miles_from_dt":25.66},{"city":"Margaretville","state_name":"New York","lat":42.14871,"lng":-74.66334,"zip":"12455","miles_from_dt":25.86},{"city":"Lanesboro","state_name":"Pennsylvania","lat":41.95642,"lng":-75.58703,"zip":"18827","miles_from_dt":26.05},{"city":"Susquehanna","state_name":"Pennsylvania","lat":41.93539,"lng":-75.56893,"zip":"18847","miles_from_dt":26.15},{"city":"North Branch","state_name":"New York","lat":41.81408,"lng":-74.97923,"zip":"12766","miles_from_dt":26.17},{"city":"Livingston Manor","state_name":"New York","lat":41.9428,"lng":-74.74942,"zip":"12758","miles_from_dt":26.43},{"city":"Laurens","state_name":"New York","lat":42.5513,"lng":-75.13644,"zip":"13796","miles_from_dt":26.59},{"city":"South Kortright","state_name":"New York","lat":42.37922,"lng":-74.72302,"zip":"13842","miles_from_dt":27.05},{"city":"Davenport","state_name":"New York","lat":42.47739,"lng":-74.83904,"zip":"13750","miles_from_dt":27.22},{"city":"Hortonville","state_name":"New York","lat":41.78503,"lng":-75.02633,"zip":"12745","miles_from_dt":27.31},{"city":"Poyntelle","state_name":"Pennsylvania","lat":41.81963,"lng":-75.42731,"zip":"18454","miles_from_dt":27.46},{"city":"South New Berlin","state_name":"New York","lat":42.53468,"lng":-75.37584,"zip":"13843","miles_from_dt":27.57},{"city":"Callicoon","state_name":"New York","lat":41.77809,"lng":-75.02751,"zip":"12723","miles_from_dt":27.75},{"city":"Portlandville","state_name":"New York","lat":42.54903,"lng":-74.96727,"zip":"13834","miles_from_dt":28.29},{"city":"Orson","state_name":"Pennsylvania","lat":41.81459,"lng":-75.44997,"zip":"18449","miles_from_dt":28.35},{"city":"Youngsville","state_name":"New York","lat":41.81126,"lng":-74.88692,"zip":"12791","miles_from_dt":28.44},{"city":"Maryland","state_name":"New York","lat":42.53849,"lng":-74.91278,"zip":"12116","miles_from_dt":28.76},{"city":"Damascus","state_name":"Pennsylvania","lat":41.74821,"lng":-75.11315,"zip":"18415","miles_from_dt":29.01},{"city":"Hobart","state_name":"New York","lat":42.34914,"lng":-74.65658,"zip":"13788","miles_from_dt":29.01},{"city":"Tunnel","state_name":"New York","lat":42.21635,"lng":-75.72815,"zip":"13848","miles_from_dt":29.04},{"city":"Thompson","state_name":"Pennsylvania","lat":41.83654,"lng":-75.51811,"zip":"18465","miles_from_dt":29.1},{"city":"Halcottsville","state_name":"New York","lat":42.21251,"lng":-74.59667,"zip":"12438","miles_from_dt":29.41},{"city":"New Lisbon","state_name":"New York","lat":42.59714,"lng":-75.19729,"zip":"13415","miles_from_dt":29.75},{"city":"Jeffersonville","state_name":"New York","lat":41.77604,"lng":-74.91845,"zip":"12748","miles_from_dt":29.83}],"targetCityZipCode":"13856","targetCityState":"New York"},"__N_SSG":true}