{"pageProps":{"stateName":"South-dakota","cityName":"big-stone-city","nearbyCities":[{"city":"Milbank","state_name":"South Dakota","lat":45.20507,"lng":-96.61053,"zip":"57252","miles_from_dt":7.8},{"city":"Ortonville","state_name":"Minnesota","lat":45.345,"lng":-96.37718,"zip":"56278","miles_from_dt":7.82},{"city":"Corona","state_name":"South Dakota","lat":45.36184,"lng":-96.72105,"zip":"57227","miles_from_dt":10.46},{"city":"Odessa","state_name":"Minnesota","lat":45.24134,"lng":-96.31249,"zip":"56276","miles_from_dt":11.12},{"city":"Clinton","state_name":"Minnesota","lat":45.45325,"lng":-96.4482,"zip":"56225","miles_from_dt":11.19},{"city":"Twin Brooks","state_name":"South Dakota","lat":45.22273,"lng":-96.80182,"zip":"57269","miles_from_dt":14.54},{"city":"Bellingham","state_name":"Minnesota","lat":45.13499,"lng":-96.32459,"zip":"56212","miles_from_dt":15.03},{"city":"Correll","state_name":"Minnesota","lat":45.29436,"lng":-96.16938,"zip":"56227","miles_from_dt":17.32},{"city":"Barry","state_name":"Minnesota","lat":45.55739,"lng":-96.55958,"zip":"56210","miles_from_dt":17.83},{"city":"Labolt","state_name":"South Dakota","lat":45.05639,"lng":-96.66914,"zip":"57246","miles_from_dt":18.27},{"city":"Graceville","state_name":"Minnesota","lat":45.56327,"lng":-96.47475,"zip":"56240","miles_from_dt":18.31},{"city":"Wilmot","state_name":"South Dakota","lat":45.41816,"lng":-96.87274,"zip":"57279","miles_from_dt":18.79},{"city":"Stockholm","state_name":"South Dakota","lat":45.10863,"lng":-96.80254,"zip":"57264","miles_from_dt":18.96},{"city":"Marvin","state_name":"South Dakota","lat":45.27717,"lng":-96.93677,"zip":"57251","miles_from_dt":20.15},{"city":"Revillo","state_name":"South Dakota","lat":45.00047,"lng":-96.56786,"zip":"57259","miles_from_dt":20.82},{"city":"Beardsley","state_name":"Minnesota","lat":45.58641,"lng":-96.6828,"zip":"56211","miles_from_dt":21.19},{"city":"Marietta","state_name":"Minnesota","lat":44.9684,"lng":-96.40275,"zip":"56257","miles_from_dt":23.69},{"city":"Chokio","state_name":"Minnesota","lat":45.55583,"lng":-96.1938,"zip":"56221","miles_from_dt":23.88},{"city":"Madison","state_name":"Minnesota","lat":45.02306,"lng":-96.19986,"zip":"56256","miles_from_dt":24.87},{"city":"Browns Valley","state_name":"Minnesota","lat":45.5977,"lng":-96.81913,"zip":"56219","miles_from_dt":25.03},{"city":"Strandburg","state_name":"South Dakota","lat":44.98866,"lng":-96.79591,"zip":"57265","miles_from_dt":25.28},{"city":"Appleton","state_name":"Minnesota","lat":45.24422,"lng":-96.00961,"zip":"56208","miles_from_dt":25.41},{"city":"Dumont","state_name":"Minnesota","lat":45.66341,"lng":-96.40312,"zip":"56236","miles_from_dt":25.76},{"city":"South Shore","state_name":"South Dakota","lat":45.14106,"lng":-97.00589,"zip":"57263","miles_from_dt":25.93},{"city":"Alberta","state_name":"Minnesota","lat":45.50266,"lng":-96.0708,"zip":"56207","miles_from_dt":26.13},{"city":"Summit","state_name":"South Dakota","lat":45.28619,"lng":-97.08985,"zip":"57266","miles_from_dt":27.56},{"city":"Peever","state_name":"South Dakota","lat":45.49975,"lng":-97.02982,"zip":"57257","miles_from_dt":28.17}],"targetCityZipCode":"57216","targetCityState":"South Dakota"},"__N_SSG":true}