{"pageProps":{"stateName":"South-dakota","cityName":"buffalo-gap","nearbyCities":[{"city":"Oral","state_name":"South Dakota","lat":43.35772,"lng":-103.18252,"zip":"57766","miles_from_dt":12.23},{"city":"Fairburn","state_name":"South Dakota","lat":43.66281,"lng":-103.13024,"zip":"57738","miles_from_dt":16.04},{"city":"Smithwick","state_name":"South Dakota","lat":43.25182,"lng":-103.1844,"zip":"57782","miles_from_dt":17.48},{"city":"Oglala","state_name":"South Dakota","lat":43.23676,"lng":-102.75539,"zip":"57764","miles_from_dt":19.01},{"city":"Hermosa","state_name":"South Dakota","lat":43.7773,"lng":-103.02415,"zip":"57744","miles_from_dt":22.2},{"city":"Porcupine","state_name":"South Dakota","lat":43.48182,"lng":-102.51903,"zip":"57772","miles_from_dt":23.31},{"city":"Oelrichs","state_name":"South Dakota","lat":43.12,"lng":-103.24944,"zip":"57763","miles_from_dt":26.92},{"city":"Hot Springs","state_name":"South Dakota","lat":43.37973,"lng":-103.5231,"zip":"57747","miles_from_dt":27.77},{"city":"Manderson","state_name":"South Dakota","lat":43.23729,"lng":-102.47544,"zip":"57756","miles_from_dt":29.67}],"targetCityZipCode":"57722","targetCityState":"South Dakota"},"__N_SSG":true}