{"pageProps":{"stateName":"South-dakota","cityName":"doland","nearbyCities":[{"city":"Frankfort","state_name":"South Dakota","lat":44.8502,"lng":-98.25956,"zip":"57440","miles_from_dt":8.27},{"city":"Raymond","state_name":"South Dakota","lat":44.88434,"lng":-97.9246,"zip":"57258","miles_from_dt":8.55},{"city":"Turton","state_name":"South Dakota","lat":45.03363,"lng":-98.15024,"zip":"57477","miles_from_dt":13.1},{"city":"Carpenter","state_name":"South Dakota","lat":44.63498,"lng":-97.96129,"zip":"57322","miles_from_dt":16.08},{"city":"Clark","state_name":"South Dakota","lat":44.88359,"lng":-97.72676,"zip":"57225","miles_from_dt":18.06},{"city":"Hitchcock","state_name":"South Dakota","lat":44.62147,"lng":-98.36483,"zip":"57348","miles_from_dt":20.67},{"city":"Conde","state_name":"South Dakota","lat":45.16669,"lng":-98.07049,"zip":"57434","miles_from_dt":21.99},{"city":"Redfield","state_name":"South Dakota","lat":44.85858,"lng":-98.57535,"zip":"57469","miles_from_dt":23.78},{"city":"Yale","state_name":"South Dakota","lat":44.50908,"lng":-97.99845,"zip":"57386","miles_from_dt":23.89},{"city":"Brentford","state_name":"South Dakota","lat":45.16116,"lng":-98.3005,"zip":"57429","miles_from_dt":23.89},{"city":"Willow Lake","state_name":"South Dakota","lat":44.64689,"lng":-97.68227,"zip":"57278","miles_from_dt":24.48},{"city":"Ashton","state_name":"South Dakota","lat":45.02012,"lng":-98.53101,"zip":"57424","miles_from_dt":24.6},{"city":"Bradley","state_name":"South Dakota","lat":45.0845,"lng":-97.67004,"zip":"57217","miles_from_dt":26.3},{"city":"Garden City","state_name":"South Dakota","lat":44.98724,"lng":-97.59033,"zip":"57236","miles_from_dt":26.38},{"city":"Mellette","state_name":"South Dakota","lat":45.16085,"lng":-98.43327,"zip":"57461","miles_from_dt":27.3},{"city":"Vienna","state_name":"South Dakota","lat":44.75179,"lng":-97.55161,"zip":"57271","miles_from_dt":27.36},{"city":"Tulare","state_name":"South Dakota","lat":44.71277,"lng":-98.62127,"zip":"57476","miles_from_dt":27.7}],"targetCityZipCode":"57436","targetCityState":"South Dakota"},"__N_SSG":true}