{"pageProps":{"stateName":"South-dakota","cityName":"goodwin","nearbyCities":[{"city":"Kranzburg","state_name":"South Dakota","lat":44.89365,"lng":-96.91835,"zip":"57245","miles_from_dt":3.1},{"city":"Strandburg","state_name":"South Dakota","lat":44.98866,"lng":-96.79591,"zip":"57265","miles_from_dt":8.63},{"city":"Clear Lake","state_name":"South Dakota","lat":44.78565,"lng":-96.72368,"zip":"57226","miles_from_dt":9.09},{"city":"Watertown","state_name":"South Dakota","lat":44.93412,"lng":-97.09424,"zip":"57201","miles_from_dt":12.14},{"city":"Castlewood","state_name":"South Dakota","lat":44.71019,"lng":-97.00567,"zip":"57223","miles_from_dt":13.26},{"city":"Labolt","state_name":"South Dakota","lat":45.05639,"lng":-96.66914,"zip":"57246","miles_from_dt":15.82},{"city":"Stockholm","state_name":"South Dakota","lat":45.10863,"lng":-96.80254,"zip":"57264","miles_from_dt":16.54},{"city":"Revillo","state_name":"South Dakota","lat":45.00047,"lng":-96.56786,"zip":"57259","miles_from_dt":16.92},{"city":"Gary","state_name":"South Dakota","lat":44.79323,"lng":-96.51991,"zip":"57237","miles_from_dt":17.7},{"city":"Estelline","state_name":"South Dakota","lat":44.59719,"lng":-96.89929,"zip":"57234","miles_from_dt":19.12},{"city":"Brandt","state_name":"South Dakota","lat":44.65787,"lng":-96.59624,"zip":"57218","miles_from_dt":19.79},{"city":"South Shore","state_name":"South Dakota","lat":45.14106,"lng":-97.00589,"zip":"57263","miles_from_dt":19.81},{"city":"Hayti","state_name":"South Dakota","lat":44.69742,"lng":-97.21747,"zip":"57241","miles_from_dt":21.26},{"city":"Toronto","state_name":"South Dakota","lat":44.56885,"lng":-96.68781,"zip":"57268","miles_from_dt":22.68},{"city":"Marietta","state_name":"Minnesota","lat":44.9684,"lng":-96.40275,"zip":"56257","miles_from_dt":23.49},{"city":"Twin Brooks","state_name":"South Dakota","lat":45.22273,"lng":-96.80182,"zip":"57269","miles_from_dt":24.34},{"city":"Hazel","state_name":"South Dakota","lat":44.77352,"lng":-97.35902,"zip":"57242","miles_from_dt":25.36},{"city":"Florence","state_name":"South Dakota","lat":45.06896,"lng":-97.31338,"zip":"57235","miles_from_dt":25.93},{"city":"Lake Norden","state_name":"South Dakota","lat":44.58063,"lng":-97.19328,"zip":"57248","miles_from_dt":25.94},{"city":"Milbank","state_name":"South Dakota","lat":45.20507,"lng":-96.61053,"zip":"57252","miles_from_dt":26.04},{"city":"Astoria","state_name":"South Dakota","lat":44.57112,"lng":-96.5323,"zip":"57213","miles_from_dt":26.42},{"city":"Henry","state_name":"South Dakota","lat":44.91177,"lng":-97.42072,"zip":"57243","miles_from_dt":27.54},{"city":"Marvin","state_name":"South Dakota","lat":45.27717,"lng":-96.93677,"zip":"57251","miles_from_dt":28.16},{"city":"Bruce","state_name":"South Dakota","lat":44.45927,"lng":-96.92022,"zip":"57220","miles_from_dt":28.7},{"city":"Canby","state_name":"Minnesota","lat":44.73125,"lng":-96.29339,"zip":"56220","miles_from_dt":29.63}],"targetCityZipCode":"57238","targetCityState":"South Dakota"},"__N_SSG":true}