{"pageProps":{"stateName":"South-dakota","cityName":"lake-norden","nearbyCities":[{"city":"Badger","state_name":"South Dakota","lat":44.47764,"lng":-97.19575,"zip":"57214","miles_from_dt":7.11},{"city":"Hayti","state_name":"South Dakota","lat":44.69742,"lng":-97.21747,"zip":"57241","miles_from_dt":8.15},{"city":"Erwin","state_name":"South Dakota","lat":44.50992,"lng":-97.3993,"zip":"57233","miles_from_dt":11.28},{"city":"Bryant","state_name":"South Dakota","lat":44.60654,"lng":-97.44853,"zip":"57221","miles_from_dt":12.72},{"city":"Castlewood","state_name":"South Dakota","lat":44.71019,"lng":-97.00567,"zip":"57223","miles_from_dt":12.87},{"city":"Arlington","state_name":"South Dakota","lat":44.38111,"lng":-97.14344,"zip":"57212","miles_from_dt":13.99},{"city":"Estelline","state_name":"South Dakota","lat":44.59719,"lng":-96.89929,"zip":"57234","miles_from_dt":14.55},{"city":"Hazel","state_name":"South Dakota","lat":44.77352,"lng":-97.35902,"zip":"57242","miles_from_dt":15.62},{"city":"Bruce","state_name":"South Dakota","lat":44.45927,"lng":-96.92022,"zip":"57220","miles_from_dt":15.88},{"city":"Lake Preston","state_name":"South Dakota","lat":44.37111,"lng":-97.3646,"zip":"57249","miles_from_dt":16.76},{"city":"Vienna","state_name":"South Dakota","lat":44.75179,"lng":-97.55161,"zip":"57271","miles_from_dt":21.25},{"city":"De Smet","state_name":"South Dakota","lat":44.3749,"lng":-97.58243,"zip":"57231","miles_from_dt":23.91},{"city":"Sinai","state_name":"South Dakota","lat":44.24452,"lng":-97.04399,"zip":"57061","miles_from_dt":24.36},{"city":"Volga","state_name":"South Dakota","lat":44.26986,"lng":-96.95934,"zip":"57071","miles_from_dt":24.38},{"city":"Willow Lake","state_name":"South Dakota","lat":44.64689,"lng":-97.68227,"zip":"57278","miles_from_dt":24.55},{"city":"Watertown","state_name":"South Dakota","lat":44.93412,"lng":-97.09424,"zip":"57201","miles_from_dt":24.89},{"city":"Toronto","state_name":"South Dakota","lat":44.56885,"lng":-96.68781,"zip":"57268","miles_from_dt":24.96},{"city":"Henry","state_name":"South Dakota","lat":44.91177,"lng":-97.42072,"zip":"57243","miles_from_dt":25.46},{"city":"Kranzburg","state_name":"South Dakota","lat":44.89365,"lng":-96.91835,"zip":"57245","miles_from_dt":25.5},{"city":"Goodwin","state_name":"South Dakota","lat":44.87287,"lng":-96.86231,"zip":"57238","miles_from_dt":25.94},{"city":"Oldham","state_name":"South Dakota","lat":44.21741,"lng":-97.35066,"zip":"57051","miles_from_dt":26.26},{"city":"Brookings","state_name":"South Dakota","lat":44.31588,"lng":-96.79518,"zip":"57006","miles_from_dt":26.87},{"city":"Clear Lake","state_name":"South Dakota","lat":44.78565,"lng":-96.72368,"zip":"57226","miles_from_dt":27.12},{"city":"Brookings","state_name":"South Dakota","lat":44.31924,"lng":-96.78408,"zip":"57007","miles_from_dt":27.12},{"city":"Brandt","state_name":"South Dakota","lat":44.65787,"lng":-96.59624,"zip":"57218","miles_from_dt":29.92}],"targetCityZipCode":"57248","targetCityState":"South Dakota"},"__N_SSG":true}