{"pageProps":{"stateName":"South-dakota","cityName":"mission-hill","nearbyCities":[{"city":"Volin","state_name":"South Dakota","lat":42.98747,"lng":-97.20363,"zip":"57072","miles_from_dt":5.39},{"city":"Yankton","state_name":"South Dakota","lat":42.91782,"lng":-97.44702,"zip":"57078","miles_from_dt":7.86},{"city":"Gayville","state_name":"South Dakota","lat":42.87058,"lng":-97.18655,"zip":"57031","miles_from_dt":8.3},{"city":"Saint Helena","state_name":"Nebraska","lat":42.81403,"lng":-97.27747,"zip":"68774","miles_from_dt":9.89},{"city":"Irene","state_name":"South Dakota","lat":43.10146,"lng":-97.25318,"zip":"57037","miles_from_dt":10.31},{"city":"Utica","state_name":"South Dakota","lat":43.04095,"lng":-97.47169,"zip":"57067","miles_from_dt":10.43},{"city":"Wakonda","state_name":"South Dakota","lat":43.00227,"lng":-97.05754,"zip":"57073","miles_from_dt":12.75},{"city":"Fordyce","state_name":"Nebraska","lat":42.74481,"lng":-97.37136,"zip":"68736","miles_from_dt":15.03},{"city":"Lesterville","state_name":"South Dakota","lat":43.06206,"lng":-97.58582,"zip":"57040","miles_from_dt":16.16},{"city":"Viborg","state_name":"South Dakota","lat":43.182,"lng":-97.1702,"zip":"57070","miles_from_dt":16.93},{"city":"Crofton","state_name":"Nebraska","lat":42.76688,"lng":-97.53488,"zip":"68730","miles_from_dt":17.66},{"city":"Vermillion","state_name":"South Dakota","lat":42.84348,"lng":-96.98774,"zip":"57069","miles_from_dt":17.71},{"city":"Wynot","state_name":"Nebraska","lat":42.73323,"lng":-97.11427,"zip":"68792","miles_from_dt":18.09},{"city":"Tabor","state_name":"South Dakota","lat":42.92483,"lng":-97.68668,"zip":"57063","miles_from_dt":19.67},{"city":"Menno","state_name":"South Dakota","lat":43.20051,"lng":-97.52425,"zip":"57045","miles_from_dt":20.29},{"city":"Centerville","state_name":"South Dakota","lat":43.11238,"lng":-96.95347,"zip":"57014","miles_from_dt":20.64},{"city":"Hartington","state_name":"Nebraska","lat":42.6284,"lng":-97.26265,"zip":"68739","miles_from_dt":22.72},{"city":"Hurley","state_name":"South Dakota","lat":43.27067,"lng":-97.14364,"zip":"57036","miles_from_dt":23.12},{"city":"Maskell","state_name":"Nebraska","lat":42.69035,"lng":-96.98138,"zip":"68751","miles_from_dt":24.51},{"city":"Scotland","state_name":"South Dakota","lat":43.12476,"lng":-97.76365,"zip":"57059","miles_from_dt":26.15},{"city":"Burbank","state_name":"South Dakota","lat":42.8119,"lng":-96.82403,"zip":"57010","miles_from_dt":26.19},{"city":"Beresford","state_name":"South Dakota","lat":43.07571,"lng":-96.79376,"zip":"57004","miles_from_dt":26.99},{"city":"Davis","state_name":"South Dakota","lat":43.2723,"lng":-96.97797,"zip":"57021","miles_from_dt":27.26},{"city":"Freeman","state_name":"South Dakota","lat":43.33696,"lng":-97.47936,"zip":"57029","miles_from_dt":27.78},{"city":"Newcastle","state_name":"Nebraska","lat":42.65247,"lng":-96.92554,"zip":"68757","miles_from_dt":28.36},{"city":"Bloomfield","state_name":"Nebraska","lat":42.6619,"lng":-97.69844,"zip":"68718","miles_from_dt":28.65},{"city":"Tyndall","state_name":"South Dakota","lat":42.98874,"lng":-97.86703,"zip":"57066","miles_from_dt":28.77}],"targetCityZipCode":"57046","targetCityState":"South Dakota"},"__N_SSG":true}