{"pageProps":{"stateName":"South-dakota","cityName":"pierpont","nearbyCities":[{"city":"Langford","state_name":"South Dakota","lat":45.61058,"lng":-97.77286,"zip":"57454","miles_from_dt":7.84},{"city":"Andover","state_name":"South Dakota","lat":45.42288,"lng":-97.92199,"zip":"57422","miles_from_dt":9.71},{"city":"Roslyn","state_name":"South Dakota","lat":45.54051,"lng":-97.49412,"zip":"57261","miles_from_dt":12.92},{"city":"Bristol","state_name":"South Dakota","lat":45.2877,"lng":-97.801,"zip":"57219","miles_from_dt":14.71},{"city":"Webster","state_name":"South Dakota","lat":45.30943,"lng":-97.55533,"zip":"57274","miles_from_dt":16.19},{"city":"Groton","state_name":"South Dakota","lat":45.45828,"lng":-98.12094,"zip":"57445","miles_from_dt":18.08},{"city":"Claremont","state_name":"South Dakota","lat":45.6839,"lng":-98.02453,"zip":"57432","miles_from_dt":18.38},{"city":"Amherst","state_name":"South Dakota","lat":45.75045,"lng":-97.90618,"zip":"57421","miles_from_dt":18.95},{"city":"Eden","state_name":"South Dakota","lat":45.61752,"lng":-97.38393,"zip":"57232","miles_from_dt":19.73},{"city":"Ferney","state_name":"South Dakota","lat":45.33464,"lng":-98.10007,"zip":"57439","miles_from_dt":20.29},{"city":"Lake City","state_name":"South Dakota","lat":45.71675,"lng":-97.45817,"zip":"57247","miles_from_dt":20.8},{"city":"Grenville","state_name":"South Dakota","lat":45.51223,"lng":-97.30938,"zip":"57239","miles_from_dt":21.57},{"city":"Britton","state_name":"South Dakota","lat":45.82203,"lng":-97.72205,"zip":"57430","miles_from_dt":22.43},{"city":"Waubay","state_name":"South Dakota","lat":45.33334,"lng":-97.27574,"zip":"57273","miles_from_dt":25.86},{"city":"Houghton","state_name":"South Dakota","lat":45.73101,"lng":-98.17553,"zip":"57449","miles_from_dt":26.04},{"city":"Bath","state_name":"South Dakota","lat":45.48109,"lng":-98.31786,"zip":"57427","miles_from_dt":27.45},{"city":"Conde","state_name":"South Dakota","lat":45.16669,"lng":-98.07049,"zip":"57434","miles_from_dt":27.61},{"city":"Bradley","state_name":"South Dakota","lat":45.0845,"lng":-97.67004,"zip":"57217","miles_from_dt":28.84},{"city":"Columbia","state_name":"South Dakota","lat":45.64311,"lng":-98.32104,"zip":"57433","miles_from_dt":29.31},{"city":"Stratford","state_name":"South Dakota","lat":45.28577,"lng":-98.27526,"zip":"57474","miles_from_dt":29.33}],"targetCityZipCode":"57468","targetCityState":"South Dakota"},"__N_SSG":true}