{"pageProps":{"stateName":"South-dakota","cityName":"plankinton","nearbyCities":[{"city":"Mount Vernon","state_name":"South Dakota","lat":43.68723,"lng":-98.25491,"zip":"57363","miles_from_dt":11.91},{"city":"White Lake","state_name":"South Dakota","lat":43.7177,"lng":-98.71382,"zip":"57383","miles_from_dt":12.13},{"city":"Stickney","state_name":"South Dakota","lat":43.56222,"lng":-98.47877,"zip":"57375","miles_from_dt":13.05},{"city":"Letcher","state_name":"South Dakota","lat":43.90105,"lng":-98.15589,"zip":"57359","miles_from_dt":19.05},{"city":"Harrison","state_name":"South Dakota","lat":43.45575,"lng":-98.61796,"zip":"57344","miles_from_dt":21.6},{"city":"Mitchell","state_name":"South Dakota","lat":43.71136,"lng":-98.04155,"zip":"57301","miles_from_dt":21.92},{"city":"Corsica","state_name":"South Dakota","lat":43.43413,"lng":-98.44207,"zip":"57328","miles_from_dt":21.95},{"city":"Woonsocket","state_name":"South Dakota","lat":44.04433,"lng":-98.29507,"zip":"57385","miles_from_dt":22.16},{"city":"Lane","state_name":"South Dakota","lat":44.07521,"lng":-98.42201,"zip":"57358","miles_from_dt":22.53},{"city":"New Holland","state_name":"South Dakota","lat":43.43442,"lng":-98.61786,"zip":"57364","miles_from_dt":23},{"city":"Wessington Springs","state_name":"South Dakota","lat":44.05561,"lng":-98.67303,"zip":"57382","miles_from_dt":23.21},{"city":"Kimball","state_name":"South Dakota","lat":43.7747,"lng":-98.95045,"zip":"57355","miles_from_dt":23.8},{"city":"Ethan","state_name":"South Dakota","lat":43.54199,"lng":-97.99492,"zip":"57334","miles_from_dt":28.11},{"city":"Dimock","state_name":"South Dakota","lat":43.47337,"lng":-98.04619,"zip":"57331","miles_from_dt":28.85}],"targetCityZipCode":"57368","targetCityState":"South Dakota"},"__N_SSG":true}