{"pageProps":{"stateName":"South-dakota","cityName":"selby","nearbyCities":[{"city":"Akaska","state_name":"South Dakota","lat":45.2852,"lng":-100.14319,"zip":"57420","miles_from_dt":10.07},{"city":"Java","state_name":"South Dakota","lat":45.52873,"lng":-99.87334,"zip":"57452","miles_from_dt":13.17},{"city":"Glenham","state_name":"South Dakota","lat":45.58195,"lng":-100.28779,"zip":"57631","miles_from_dt":13.86},{"city":"Mound City","state_name":"South Dakota","lat":45.68753,"lng":-100.05395,"zip":"57646","miles_from_dt":18.06},{"city":"Hoven","state_name":"South Dakota","lat":45.21599,"lng":-99.83696,"zip":"57450","miles_from_dt":19.6},{"city":"Mobridge","state_name":"South Dakota","lat":45.36646,"lng":-100.51108,"zip":"57601","miles_from_dt":20.27},{"city":"Bowdle","state_name":"South Dakota","lat":45.44984,"lng":-99.67922,"zip":"57428","miles_from_dt":20.7},{"city":"Gettysburg","state_name":"South Dakota","lat":45.05721,"lng":-100.14997,"zip":"57442","miles_from_dt":25.73},{"city":"Wakpala","state_name":"South Dakota","lat":45.65744,"lng":-100.55835,"zip":"57658","miles_from_dt":27.14},{"city":"Tolstoy","state_name":"South Dakota","lat":45.22843,"lng":-99.62031,"zip":"57475","miles_from_dt":27.31},{"city":"Herreid","state_name":"South Dakota","lat":45.82924,"lng":-100.04927,"zip":"57632","miles_from_dt":27.81}],"targetCityZipCode":"57472","targetCityState":"South Dakota"},"__N_SSG":true}