{"pageProps":{"stateName":"South-dakota","cityName":"winner","nearbyCities":[{"city":"Witten","state_name":"South Dakota","lat":43.49115,"lng":-100.06382,"zip":"57584","miles_from_dt":13.9},{"city":"Colome","state_name":"South Dakota","lat":43.17814,"lng":-99.75901,"zip":"57528","miles_from_dt":16.94},{"city":"Okreek","state_name":"South Dakota","lat":43.36039,"lng":-100.40149,"zip":"57563","miles_from_dt":18},{"city":"Ideal","state_name":"South Dakota","lat":43.60001,"lng":-99.90895,"zip":"57541","miles_from_dt":22.68},{"city":"Dallas","state_name":"South Dakota","lat":43.22931,"lng":-99.57019,"zip":"57529","miles_from_dt":24.95},{"city":"Wood","state_name":"South Dakota","lat":43.55508,"lng":-100.39752,"zip":"57585","miles_from_dt":25.05},{"city":"Sparks","state_name":"Nebraska","lat":42.92256,"lng":-100.17198,"zip":"69220","miles_from_dt":26.01},{"city":"Hamill","state_name":"South Dakota","lat":43.5709,"lng":-99.65975,"zip":"57534","miles_from_dt":27.88}],"targetCityZipCode":"57580","targetCityState":"South Dakota"},"__N_SSG":true}