{"pageProps":{"stateName":"Iowa","cityName":"agency","nearbyCities":[{"city":"Eldon","state_name":"Iowa","lat":40.92562,"lng":-92.23387,"zip":"52554","miles_from_dt":5.45},{"city":"Batavia","state_name":"Iowa","lat":41.01228,"lng":-92.15043,"zip":"52533","miles_from_dt":7.72},{"city":"Ottumwa","state_name":"Iowa","lat":41.03828,"lng":-92.43252,"zip":"52501","miles_from_dt":7.94},{"city":"Floris","state_name":"Iowa","lat":40.85491,"lng":-92.25312,"zip":"52560","miles_from_dt":9.54},{"city":"Selma","state_name":"Iowa","lat":40.86325,"lng":-92.16315,"zip":"52588","miles_from_dt":11.11},{"city":"Libertyville","state_name":"Iowa","lat":40.93174,"lng":-92.07224,"zip":"52567","miles_from_dt":12.31},{"city":"Hedrick","state_name":"Iowa","lat":41.17295,"lng":-92.27765,"zip":"52563","miles_from_dt":12.69},{"city":"Martinsburg","state_name":"Iowa","lat":41.1779,"lng":-92.25077,"zip":"52568","miles_from_dt":13.2},{"city":"Packwood","state_name":"Iowa","lat":41.12039,"lng":-92.09069,"zip":"52580","miles_from_dt":13.98},{"city":"Chillicothe","state_name":"Iowa","lat":41.0855,"lng":-92.5306,"zip":"52548","miles_from_dt":13.98},{"city":"Kirkville","state_name":"Iowa","lat":41.12887,"lng":-92.50547,"zip":"52566","miles_from_dt":14.61},{"city":"Douds","state_name":"Iowa","lat":40.81877,"lng":-92.1058,"zip":"52551","miles_from_dt":15.39},{"city":"Drakesville","state_name":"Iowa","lat":40.83552,"lng":-92.53633,"zip":"52552","miles_from_dt":16.51},{"city":"Blakesburg","state_name":"Iowa","lat":40.95291,"lng":-92.61802,"zip":"52536","miles_from_dt":17.09},{"city":"Fairfield","state_name":"Iowa","lat":41.02026,"lng":-91.96653,"zip":"52557","miles_from_dt":17.3},{"city":"Fremont","state_name":"Iowa","lat":41.22135,"lng":-92.44081,"zip":"52561","miles_from_dt":17.72},{"city":"Ollie","state_name":"Iowa","lat":41.21337,"lng":-92.1125,"zip":"52576","miles_from_dt":18.15},{"city":"Bloomfield","state_name":"Iowa","lat":40.7355,"lng":-92.41426,"zip":"52537","miles_from_dt":18.61},{"city":"Cedar","state_name":"Iowa","lat":41.20065,"lng":-92.51773,"zip":"52543","miles_from_dt":18.64},{"city":"Hayesville","state_name":"Iowa","lat":41.26539,"lng":-92.24858,"zip":"52562","miles_from_dt":19.19},{"city":"Birmingham","state_name":"Iowa","lat":40.86533,"lng":-91.96407,"zip":"52535","miles_from_dt":19.32},{"city":"Fairfield","state_name":"Iowa","lat":41.01842,"lng":-91.9264,"zip":"52556","miles_from_dt":19.37},{"city":"Richland","state_name":"Iowa","lat":41.18902,"lng":-91.98863,"zip":"52585","miles_from_dt":21.1},{"city":"Unionville","state_name":"Iowa","lat":40.83561,"lng":-92.64957,"zip":"52594","miles_from_dt":21.39},{"city":"Eddyville","state_name":"Iowa","lat":41.14865,"lng":-92.65668,"zip":"52553","miles_from_dt":21.85},{"city":"Milton","state_name":"Iowa","lat":40.68656,"lng":-92.14853,"zip":"52570","miles_from_dt":22.27},{"city":"Delta","state_name":"Iowa","lat":41.31635,"lng":-92.36254,"zip":"52550","miles_from_dt":22.83},{"city":"Pulaski","state_name":"Iowa","lat":40.65273,"lng":-92.24936,"zip":"52584","miles_from_dt":23.36},{"city":"Sigourney","state_name":"Iowa","lat":41.31988,"lng":-92.19465,"zip":"52591","miles_from_dt":23.39},{"city":"Keosauqua","state_name":"Iowa","lat":40.74005,"lng":-91.94332,"zip":"52565","miles_from_dt":25.21},{"city":"Rose Hill","state_name":"Iowa","lat":41.34573,"lng":-92.46694,"zip":"52586","miles_from_dt":26.17},{"city":"University Park","state_name":"Iowa","lat":41.28847,"lng":-92.61506,"zip":"52595","miles_from_dt":26.54},{"city":"Stockport","state_name":"Iowa","lat":40.85819,"lng":-91.81323,"zip":"52651","miles_from_dt":26.79},{"city":"Brighton","state_name":"Iowa","lat":41.15769,"lng":-91.82281,"zip":"52540","miles_from_dt":27.25},{"city":"Oskaloosa","state_name":"Iowa","lat":41.27174,"lng":-92.6602,"zip":"52577","miles_from_dt":27.25},{"city":"Albia","state_name":"Iowa","lat":41.02684,"lng":-92.81562,"zip":"52531","miles_from_dt":27.34},{"city":"Udell","state_name":"Iowa","lat":40.77363,"lng":-92.73955,"zip":"52593","miles_from_dt":27.64},{"city":"Lockridge","state_name":"Iowa","lat":40.99117,"lng":-91.75843,"zip":"52635","miles_from_dt":28.05},{"city":"Cantril","state_name":"Iowa","lat":40.62712,"lng":-92.05164,"zip":"52542","miles_from_dt":28.07},{"city":"Beacon","state_name":"Iowa","lat":41.27342,"lng":-92.6806,"zip":"52534","miles_from_dt":28.08},{"city":"Harper","state_name":"Iowa","lat":41.36371,"lng":-92.05912,"zip":"52231","miles_from_dt":28.6},{"city":"What Cheer","state_name":"Iowa","lat":41.40695,"lng":-92.36227,"zip":"50268","miles_from_dt":29.02},{"city":"Moravia","state_name":"Iowa","lat":40.87739,"lng":-92.83114,"zip":"52571","miles_from_dt":29.11},{"city":"Moulton","state_name":"Iowa","lat":40.67795,"lng":-92.69163,"zip":"52572","miles_from_dt":29.91}],"targetCityZipCode":"52530","targetCityState":"Iowa"},"__N_SSG":true}