{"pageProps":{"stateName":"Iowa","cityName":"ashton","nearbyCities":[{"city":"Matlock","state_name":"Iowa","lat":43.2443,"lng":-95.93436,"zip":"51244","miles_from_dt":7.13},{"city":"Sheldon","state_name":"Iowa","lat":43.18331,"lng":-95.8657,"zip":"51201","miles_from_dt":8.5},{"city":"Sibley","state_name":"Iowa","lat":43.41068,"lng":-95.73203,"zip":"51249","miles_from_dt":8.68},{"city":"George","state_name":"Iowa","lat":43.33885,"lng":-96.0005,"zip":"51237","miles_from_dt":9.65},{"city":"Sanborn","state_name":"Iowa","lat":43.20445,"lng":-95.65911,"zip":"51248","miles_from_dt":10.36},{"city":"Little Rock","state_name":"Iowa","lat":43.4425,"lng":-95.90287,"zip":"51243","miles_from_dt":10.7},{"city":"Melvin","state_name":"Iowa","lat":43.30752,"lng":-95.59827,"zip":"51350","miles_from_dt":11},{"city":"Boyden","state_name":"Iowa","lat":43.19412,"lng":-96.01992,"zip":"51234","miles_from_dt":12.65},{"city":"Archer","state_name":"Iowa","lat":43.10567,"lng":-95.74131,"zip":"51231","miles_from_dt":14},{"city":"Ocheyedan","state_name":"Iowa","lat":43.41267,"lng":-95.54352,"zip":"51354","miles_from_dt":15.75},{"city":"Hospers","state_name":"Iowa","lat":43.0758,"lng":-95.89071,"zip":"51238","miles_from_dt":15.99},{"city":"Bigelow","state_name":"Minnesota","lat":43.52662,"lng":-95.68607,"zip":"56117","miles_from_dt":16.9},{"city":"Hull","state_name":"Iowa","lat":43.20238,"lng":-96.14522,"zip":"51239","miles_from_dt":17.94},{"city":"Primghar","state_name":"Iowa","lat":43.07788,"lng":-95.60149,"zip":"51245","miles_from_dt":18.84},{"city":"Ellsworth","state_name":"Minnesota","lat":43.52775,"lng":-96.04327,"zip":"56129","miles_from_dt":19.38},{"city":"Rock Rapids","state_name":"Iowa","lat":43.42764,"lng":-96.16564,"zip":"51246","miles_from_dt":19.65},{"city":"Hartley","state_name":"Iowa","lat":43.18638,"lng":-95.45927,"zip":"51346","miles_from_dt":19.67},{"city":"Doon","state_name":"Iowa","lat":43.29488,"lng":-96.21531,"zip":"51235","miles_from_dt":20.13},{"city":"Harris","state_name":"Iowa","lat":43.4181,"lng":-95.43209,"zip":"51345","miles_from_dt":20.97},{"city":"Rushmore","state_name":"Minnesota","lat":43.61552,"lng":-95.80358,"zip":"56168","miles_from_dt":21.72},{"city":"Granville","state_name":"Iowa","lat":42.97819,"lng":-95.84722,"zip":"51022","miles_from_dt":22.34},{"city":"Adrian","state_name":"Minnesota","lat":43.62115,"lng":-95.94093,"zip":"56110","miles_from_dt":22.98},{"city":"Orange City","state_name":"Iowa","lat":43.02443,"lng":-96.07701,"zip":"51041","miles_from_dt":23.2},{"city":"Alton","state_name":"Iowa","lat":42.98355,"lng":-95.98642,"zip":"51003","miles_from_dt":23.54},{"city":"Kanaranzi","state_name":"Minnesota","lat":43.58006,"lng":-96.10343,"zip":"56146","miles_from_dt":24.08},{"city":"Paullina","state_name":"Iowa","lat":42.96621,"lng":-95.67949,"zip":"51046","miles_from_dt":24.12},{"city":"Sioux Center","state_name":"Iowa","lat":43.08437,"lng":-96.21232,"zip":"51250","miles_from_dt":24.98},{"city":"Worthington","state_name":"Minnesota","lat":43.62357,"lng":-95.58507,"zip":"56187","miles_from_dt":25.12},{"city":"Everly","state_name":"Iowa","lat":43.2065,"lng":-95.32378,"zip":"51338","miles_from_dt":25.69},{"city":"Alvord","state_name":"Iowa","lat":43.3562,"lng":-96.32217,"zip":"51230","miles_from_dt":25.78},{"city":"Magnolia","state_name":"Minnesota","lat":43.6337,"lng":-96.07465,"zip":"56158","miles_from_dt":26.39},{"city":"Steen","state_name":"Minnesota","lat":43.52505,"lng":-96.24186,"zip":"56173","miles_from_dt":26.42},{"city":"Lake Park","state_name":"Iowa","lat":43.42547,"lng":-95.31363,"zip":"51347","miles_from_dt":26.73},{"city":"Round Lake","state_name":"Minnesota","lat":43.55082,"lng":-95.40524,"zip":"56167","miles_from_dt":26.93},{"city":"Rock Valley","state_name":"Iowa","lat":43.19259,"lng":-96.33723,"zip":"51247","miles_from_dt":27.34},{"city":"Lester","state_name":"Iowa","lat":43.43227,"lng":-96.33806,"zip":"51242","miles_from_dt":27.8},{"city":"Calumet","state_name":"Iowa","lat":42.94499,"lng":-95.55142,"zip":"51009","miles_from_dt":27.98},{"city":"Sutherland","state_name":"Iowa","lat":42.98367,"lng":-95.46879,"zip":"51058","miles_from_dt":28.07},{"city":"Maurice","state_name":"Iowa","lat":42.97074,"lng":-96.18938,"zip":"51036","miles_from_dt":29.59},{"city":"Reading","state_name":"Minnesota","lat":43.7251,"lng":-95.7097,"zip":"56165","miles_from_dt":29.77}],"targetCityZipCode":"51232","targetCityState":"Iowa"},"__N_SSG":true}