{"pageProps":{"stateName":"Iowa","cityName":"batavia","nearbyCities":[{"city":"Libertyville","state_name":"Iowa","lat":40.93174,"lng":-92.07224,"zip":"52567","miles_from_dt":6.9},{"city":"Eldon","state_name":"Iowa","lat":40.92562,"lng":-92.23387,"zip":"52554","miles_from_dt":7.4},{"city":"Agency","state_name":"Iowa","lat":40.98953,"lng":-92.29492,"zip":"52530","miles_from_dt":7.72},{"city":"Packwood","state_name":"Iowa","lat":41.12039,"lng":-92.09069,"zip":"52580","miles_from_dt":8.09},{"city":"Fairfield","state_name":"Iowa","lat":41.02026,"lng":-91.96653,"zip":"52557","miles_from_dt":9.63},{"city":"Selma","state_name":"Iowa","lat":40.86325,"lng":-92.16315,"zip":"52588","miles_from_dt":10.31},{"city":"Fairfield","state_name":"Iowa","lat":41.01842,"lng":-91.9264,"zip":"52556","miles_from_dt":11.72},{"city":"Floris","state_name":"Iowa","lat":40.85491,"lng":-92.25312,"zip":"52560","miles_from_dt":12.12},{"city":"Martinsburg","state_name":"Iowa","lat":41.1779,"lng":-92.25077,"zip":"52568","miles_from_dt":12.57},{"city":"Hedrick","state_name":"Iowa","lat":41.17295,"lng":-92.27765,"zip":"52563","miles_from_dt":12.92},{"city":"Douds","state_name":"Iowa","lat":40.81877,"lng":-92.1058,"zip":"52551","miles_from_dt":13.56},{"city":"Ollie","state_name":"Iowa","lat":41.21337,"lng":-92.1125,"zip":"52576","miles_from_dt":14.02},{"city":"Birmingham","state_name":"Iowa","lat":40.86533,"lng":-91.96407,"zip":"52535","miles_from_dt":14.07},{"city":"Richland","state_name":"Iowa","lat":41.18902,"lng":-91.98863,"zip":"52585","miles_from_dt":14.84},{"city":"Ottumwa","state_name":"Iowa","lat":41.03828,"lng":-92.43252,"zip":"52501","miles_from_dt":14.85},{"city":"Hayesville","state_name":"Iowa","lat":41.26539,"lng":-92.24858,"zip":"52562","miles_from_dt":18.2},{"city":"Brighton","state_name":"Iowa","lat":41.15769,"lng":-91.82281,"zip":"52540","miles_from_dt":19.83},{"city":"Kirkville","state_name":"Iowa","lat":41.12887,"lng":-92.50547,"zip":"52566","miles_from_dt":20.21},{"city":"Chillicothe","state_name":"Iowa","lat":41.0855,"lng":-92.5306,"zip":"52548","miles_from_dt":20.49},{"city":"Lockridge","state_name":"Iowa","lat":40.99117,"lng":-91.75843,"zip":"52635","miles_from_dt":20.54},{"city":"Stockport","state_name":"Iowa","lat":40.85819,"lng":-91.81323,"zip":"52651","miles_from_dt":20.6},{"city":"Fremont","state_name":"Iowa","lat":41.22135,"lng":-92.44081,"zip":"52561","miles_from_dt":20.92},{"city":"Sigourney","state_name":"Iowa","lat":41.31988,"lng":-92.19465,"zip":"52591","miles_from_dt":21.35},{"city":"Keosauqua","state_name":"Iowa","lat":40.74005,"lng":-91.94332,"zip":"52565","miles_from_dt":21.69},{"city":"Milton","state_name":"Iowa","lat":40.68656,"lng":-92.14853,"zip":"52570","miles_from_dt":22.48},{"city":"Cedar","state_name":"Iowa","lat":41.20065,"lng":-92.51773,"zip":"52543","miles_from_dt":23.16},{"city":"Bloomfield","state_name":"Iowa","lat":40.7355,"lng":-92.41426,"zip":"52537","miles_from_dt":23.57},{"city":"Drakesville","state_name":"Iowa","lat":40.83552,"lng":-92.53633,"zip":"52552","miles_from_dt":23.59},{"city":"Delta","state_name":"Iowa","lat":41.31635,"lng":-92.36254,"zip":"52550","miles_from_dt":23.72},{"city":"Rome","state_name":"Iowa","lat":40.98152,"lng":-91.68088,"zip":"52642","miles_from_dt":24.64},{"city":"Harper","state_name":"Iowa","lat":41.36371,"lng":-92.05912,"zip":"52231","miles_from_dt":24.71},{"city":"Blakesburg","state_name":"Iowa","lat":40.95291,"lng":-92.61802,"zip":"52536","miles_from_dt":24.79},{"city":"Pulaski","state_name":"Iowa","lat":40.65273,"lng":-92.24936,"zip":"52584","miles_from_dt":25.35},{"city":"Keota","state_name":"Iowa","lat":41.34386,"lng":-91.93891,"zip":"52248","miles_from_dt":25.4},{"city":"Wayland","state_name":"Iowa","lat":41.13581,"lng":-91.66898,"zip":"52654","miles_from_dt":26.55},{"city":"Cantril","state_name":"Iowa","lat":40.62712,"lng":-92.05164,"zip":"52542","miles_from_dt":27.08},{"city":"Hillsboro","state_name":"Iowa","lat":40.80375,"lng":-91.7038,"zip":"52630","miles_from_dt":27.45},{"city":"Eddyville","state_name":"Iowa","lat":41.14865,"lng":-92.65668,"zip":"52553","miles_from_dt":28.06},{"city":"Bonaparte","state_name":"Iowa","lat":40.7032,"lng":-91.79563,"zip":"52620","miles_from_dt":28.29},{"city":"Rose Hill","state_name":"Iowa","lat":41.34573,"lng":-92.46694,"zip":"52586","miles_from_dt":28.32},{"city":"Unionville","state_name":"Iowa","lat":40.83561,"lng":-92.64957,"zip":"52594","miles_from_dt":28.83},{"city":"Mount Sterling","state_name":"Iowa","lat":40.62378,"lng":-91.92979,"zip":"52573","miles_from_dt":29.2},{"city":"What Cheer","state_name":"Iowa","lat":41.40695,"lng":-92.36227,"zip":"50268","miles_from_dt":29.39},{"city":"West Chester","state_name":"Iowa","lat":41.35428,"lng":-91.81006,"zip":"52359","miles_from_dt":29.53},{"city":"Mount Pleasant","state_name":"Iowa","lat":40.98799,"lng":-91.58531,"zip":"52641","miles_from_dt":29.59}],"targetCityZipCode":"52533","targetCityState":"Iowa"},"__N_SSG":true}