{"pageProps":{"stateName":"Iowa","cityName":"blencoe","nearbyCities":[{"city":"Little Sioux","state_name":"Iowa","lat":41.83897,"lng":-96.02072,"zip":"51545","miles_from_dt":5.7},{"city":"Onawa","state_name":"Iowa","lat":42.03073,"lng":-96.0706,"zip":"51040","miles_from_dt":8.18},{"city":"Moorhead","state_name":"Iowa","lat":41.91497,"lng":-95.87023,"zip":"51558","miles_from_dt":10.39},{"city":"Decatur","state_name":"Nebraska","lat":41.9762,"lng":-96.25627,"zip":"68020","miles_from_dt":10.48},{"city":"Tekamah","state_name":"Nebraska","lat":41.80078,"lng":-96.21165,"zip":"68061","miles_from_dt":10.55},{"city":"Pisgah","state_name":"Iowa","lat":41.81309,"lng":-95.90801,"zip":"51564","miles_from_dt":10.87},{"city":"Mondamin","state_name":"Iowa","lat":41.72903,"lng":-96.00233,"zip":"51557","miles_from_dt":13.14},{"city":"Castana","state_name":"Iowa","lat":42.09309,"lng":-95.92044,"zip":"51010","miles_from_dt":14.71},{"city":"Soldier","state_name":"Iowa","lat":41.9896,"lng":-95.79053,"zip":"51572","miles_from_dt":15.44},{"city":"Whiting","state_name":"Iowa","lat":42.13103,"lng":-96.18611,"zip":"51063","miles_from_dt":16.21},{"city":"Craig","state_name":"Nebraska","lat":41.77965,"lng":-96.37323,"zip":"68019","miles_from_dt":18.05},{"city":"Magnolia","state_name":"Iowa","lat":41.69203,"lng":-95.87399,"zip":"51550","miles_from_dt":18.31},{"city":"Modale","state_name":"Iowa","lat":41.63548,"lng":-96.04198,"zip":"51556","miles_from_dt":19.16},{"city":"Lyons","state_name":"Nebraska","lat":41.95458,"lng":-96.4432,"zip":"68038","miles_from_dt":19.37},{"city":"Macy","state_name":"Nebraska","lat":42.112,"lng":-96.34397,"zip":"68039","miles_from_dt":19.66},{"city":"Herman","state_name":"Nebraska","lat":41.65873,"lng":-96.27394,"zip":"68029","miles_from_dt":20.37},{"city":"Rodney","state_name":"Iowa","lat":42.20443,"lng":-95.96988,"zip":"51051","miles_from_dt":20.84},{"city":"Ute","state_name":"Iowa","lat":42.04189,"lng":-95.69844,"zip":"51060","miles_from_dt":21.21},{"city":"Woodbine","state_name":"Iowa","lat":41.75171,"lng":-95.7069,"zip":"51579","miles_from_dt":21.85},{"city":"Mapleton","state_name":"Iowa","lat":42.16241,"lng":-95.78947,"zip":"51034","miles_from_dt":22.56},{"city":"Oakland","state_name":"Nebraska","lat":41.8273,"lng":-96.49523,"zip":"68045","miles_from_dt":22.62},{"city":"Sloan","state_name":"Iowa","lat":42.21162,"lng":-96.26069,"zip":"51055","miles_from_dt":22.84},{"city":"Rosalie","state_name":"Nebraska","lat":42.05747,"lng":-96.47192,"zip":"68055","miles_from_dt":22.92},{"city":"Smithland","state_name":"Iowa","lat":42.23443,"lng":-95.95391,"zip":"51056","miles_from_dt":23.05},{"city":"Hornick","state_name":"Iowa","lat":42.24857,"lng":-96.07592,"zip":"51026","miles_from_dt":23.22},{"city":"Dunlap","state_name":"Iowa","lat":41.8618,"lng":-95.62591,"zip":"51529","miles_from_dt":23.25},{"city":"Logan","state_name":"Iowa","lat":41.6399,"lng":-95.77209,"zip":"51546","miles_from_dt":24.35},{"city":"Uehling","state_name":"Nebraska","lat":41.72124,"lng":-96.49345,"zip":"68063","miles_from_dt":25.45},{"city":"Missouri Valley","state_name":"Iowa","lat":41.55937,"lng":-95.91398,"zip":"51555","miles_from_dt":25.68},{"city":"Blair","state_name":"Nebraska","lat":41.54573,"lng":-96.17421,"zip":"68008","miles_from_dt":25.84},{"city":"Walthill","state_name":"Nebraska","lat":42.1519,"lng":-96.48603,"zip":"68067","miles_from_dt":26.98},{"city":"Charter Oak","state_name":"Iowa","lat":42.08298,"lng":-95.58347,"zip":"51439","miles_from_dt":27.76},{"city":"Oto","state_name":"Iowa","lat":42.30113,"lng":-95.91716,"zip":"51044","miles_from_dt":27.99},{"city":"Salix","state_name":"Iowa","lat":42.31063,"lng":-96.26343,"zip":"51052","miles_from_dt":29.21},{"city":"Dow City","state_name":"Iowa","lat":41.92724,"lng":-95.50185,"zip":"51528","miles_from_dt":29.39},{"city":"Climbing Hill","state_name":"Iowa","lat":42.33936,"lng":-96.08107,"zip":"51015","miles_from_dt":29.49},{"city":"Bancroft","state_name":"Nebraska","lat":42.00888,"lng":-96.62978,"zip":"68004","miles_from_dt":29.51},{"city":"Ricketts","state_name":"Iowa","lat":42.1324,"lng":-95.571,"zip":"51460","miles_from_dt":29.92}],"targetCityZipCode":"51523","targetCityState":"Iowa"},"__N_SSG":true}