{"pageProps":{"stateName":"Iowa","cityName":"correctionville","nearbyCities":[{"city":"Cushing","state_name":"Iowa","lat":42.44884,"lng":-95.67814,"zip":"51018","miles_from_dt":6.44},{"city":"Pierson","state_name":"Iowa","lat":42.57963,"lng":-95.86412,"zip":"51048","miles_from_dt":8.28},{"city":"Anthon","state_name":"Iowa","lat":42.3762,"lng":-95.916,"zip":"51004","miles_from_dt":8.69},{"city":"Washta","state_name":"Iowa","lat":42.57983,"lng":-95.72036,"zip":"51061","miles_from_dt":8.69},{"city":"Holstein","state_name":"Iowa","lat":42.4973,"lng":-95.55853,"zip":"51025","miles_from_dt":12.55},{"city":"Moville","state_name":"Iowa","lat":42.45655,"lng":-96.05381,"zip":"51039","miles_from_dt":12.94},{"city":"Oto","state_name":"Iowa","lat":42.30113,"lng":-95.91716,"zip":"51044","miles_from_dt":13.02},{"city":"Kingsley","state_name":"Iowa","lat":42.59909,"lng":-95.99199,"zip":"51028","miles_from_dt":13.25},{"city":"Quimby","state_name":"Iowa","lat":42.63005,"lng":-95.64463,"zip":"51049","miles_from_dt":13.68},{"city":"Danbury","state_name":"Iowa","lat":42.2721,"lng":-95.72615,"zip":"51019","miles_from_dt":14.13},{"city":"Battle Creek","state_name":"Iowa","lat":42.31088,"lng":-95.61299,"zip":"51006","miles_from_dt":14.56},{"city":"Climbing Hill","state_name":"Iowa","lat":42.33936,"lng":-96.08107,"zip":"51015","miles_from_dt":16.89},{"city":"Smithland","state_name":"Iowa","lat":42.23443,"lng":-95.95391,"zip":"51056","miles_from_dt":17.99},{"city":"Ida Grove","state_name":"Iowa","lat":42.32719,"lng":-95.46724,"zip":"51445","miles_from_dt":19.69},{"city":"Galva","state_name":"Iowa","lat":42.51215,"lng":-95.41249,"zip":"51020","miles_from_dt":20.07},{"city":"Lawton","state_name":"Iowa","lat":42.49791,"lng":-96.19365,"zip":"51030","miles_from_dt":20.15},{"city":"Rodney","state_name":"Iowa","lat":42.20443,"lng":-95.96988,"zip":"51051","miles_from_dt":20.21},{"city":"Bronson","state_name":"Iowa","lat":42.40225,"lng":-96.18857,"zip":"51007","miles_from_dt":20.34},{"city":"Hornick","state_name":"Iowa","lat":42.24857,"lng":-96.07592,"zip":"51026","miles_from_dt":20.72},{"city":"Mapleton","state_name":"Iowa","lat":42.16241,"lng":-95.78947,"zip":"51034","miles_from_dt":21.17},{"city":"Marcus","state_name":"Iowa","lat":42.78086,"lng":-95.80054,"zip":"51035","miles_from_dt":21.52},{"city":"Cleghorn","state_name":"Iowa","lat":42.78428,"lng":-95.71155,"zip":"51014","miles_from_dt":22.23},{"city":"Cherokee","state_name":"Iowa","lat":42.74474,"lng":-95.56171,"zip":"51012","miles_from_dt":22.61},{"city":"Remsen","state_name":"Iowa","lat":42.79545,"lng":-95.94772,"zip":"51050","miles_from_dt":23.74},{"city":"Arthur","state_name":"Iowa","lat":42.34446,"lng":-95.35146,"zip":"51431","miles_from_dt":24.56},{"city":"Hinton","state_name":"Iowa","lat":42.6201,"lng":-96.26564,"zip":"51024","miles_from_dt":25.9},{"city":"Meriden","state_name":"Iowa","lat":42.82567,"lng":-95.64269,"zip":"51037","miles_from_dt":25.9},{"city":"Aurelia","state_name":"Iowa","lat":42.72044,"lng":-95.42405,"zip":"51005","miles_from_dt":25.9},{"city":"Ricketts","state_name":"Iowa","lat":42.1324,"lng":-95.571,"zip":"51460","miles_from_dt":26.06},{"city":"Salix","state_name":"Iowa","lat":42.31063,"lng":-96.26343,"zip":"51052","miles_from_dt":26.06},{"city":"Schaller","state_name":"Iowa","lat":42.4938,"lng":-95.28842,"zip":"51053","miles_from_dt":26.25},{"city":"Schleswig","state_name":"Iowa","lat":42.172,"lng":-95.47579,"zip":"51461","miles_from_dt":26.42},{"city":"Sioux City","state_name":"Iowa","lat":42.46292,"lng":-96.32,"zip":"51106","miles_from_dt":26.52},{"city":"Castana","state_name":"Iowa","lat":42.09309,"lng":-95.92044,"zip":"51010","miles_from_dt":26.66},{"city":"Oyens","state_name":"Iowa","lat":42.82019,"lng":-96.05772,"zip":"51045","miles_from_dt":27.54},{"city":"Sioux City","state_name":"Iowa","lat":42.41773,"lng":-96.33961,"zip":"51102","miles_from_dt":27.76},{"city":"Sergeant Bluff","state_name":"Iowa","lat":42.37832,"lng":-96.33159,"zip":"51054","miles_from_dt":27.84},{"city":"Sioux City","state_name":"Iowa","lat":42.56625,"lng":-96.34858,"zip":"51108","miles_from_dt":28.75},{"city":"Charter Oak","state_name":"Iowa","lat":42.08298,"lng":-95.58347,"zip":"51439","miles_from_dt":28.89},{"city":"Sioux City","state_name":"Iowa","lat":42.50808,"lng":-96.3671,"zip":"51105","miles_from_dt":29.04},{"city":"Alta","state_name":"Iowa","lat":42.69859,"lng":-95.31863,"zip":"51002","miles_from_dt":29.27},{"city":"Sloan","state_name":"Iowa","lat":42.21162,"lng":-96.26069,"zip":"51055","miles_from_dt":29.49},{"city":"Ute","state_name":"Iowa","lat":42.04189,"lng":-95.69844,"zip":"51060","miles_from_dt":29.95}],"targetCityZipCode":"51016","targetCityState":"Iowa"},"__N_SSG":true}