{"pageProps":{"stateName":"Iowa","cityName":"crawfordsville","nearbyCities":[{"city":"Olds","state_name":"Iowa","lat":41.1342,"lng":-91.54506,"zip":"52647","miles_from_dt":5.15},{"city":"Winfield","state_name":"Iowa","lat":41.13285,"lng":-91.43658,"zip":"52659","miles_from_dt":7.2},{"city":"Swedesburg","state_name":"Iowa","lat":41.09796,"lng":-91.5542,"zip":"52652","miles_from_dt":7.69},{"city":"Ainsworth","state_name":"Iowa","lat":41.33218,"lng":-91.54704,"zip":"52201","miles_from_dt":8.59},{"city":"Wayland","state_name":"Iowa","lat":41.13581,"lng":-91.66898,"zip":"52654","miles_from_dt":8.71},{"city":"Columbus City","state_name":"Iowa","lat":41.25918,"lng":-91.37478,"zip":"52737","miles_from_dt":8.92},{"city":"Columbus Junction","state_name":"Iowa","lat":41.2736,"lng":-91.38072,"zip":"52738","miles_from_dt":9.08},{"city":"Washington","state_name":"Iowa","lat":41.29923,"lng":-91.71596,"zip":"52353","miles_from_dt":11.45},{"city":"Mount Union","state_name":"Iowa","lat":41.03988,"lng":-91.41535,"zip":"52644","miles_from_dt":13.12},{"city":"Conesville","state_name":"Iowa","lat":41.3728,"lng":-91.36823,"zip":"52739","miles_from_dt":14.2},{"city":"Morning Sun","state_name":"Iowa","lat":41.09649,"lng":-91.28205,"zip":"52640","miles_from_dt":15.15},{"city":"Mount Pleasant","state_name":"Iowa","lat":40.98799,"lng":-91.58531,"zip":"52641","miles_from_dt":15.45},{"city":"Brighton","state_name":"Iowa","lat":41.15769,"lng":-91.82281,"zip":"52540","miles_from_dt":15.55},{"city":"Rome","state_name":"Iowa","lat":40.98152,"lng":-91.68088,"zip":"52642","miles_from_dt":17.47},{"city":"West Chester","state_name":"Iowa","lat":41.35428,"lng":-91.81006,"zip":"52359","miles_from_dt":17.63},{"city":"Letts","state_name":"Iowa","lat":41.34254,"lng":-91.24144,"zip":"52754","miles_from_dt":17.75},{"city":"Grandview","state_name":"Iowa","lat":41.27465,"lng":-91.1911,"zip":"52752","miles_from_dt":18.34},{"city":"Riverside","state_name":"Iowa","lat":41.477,"lng":-91.58046,"zip":"52327","miles_from_dt":18.72},{"city":"Lockridge","state_name":"Iowa","lat":40.99117,"lng":-91.75843,"zip":"52635","miles_from_dt":19.08},{"city":"Yarmouth","state_name":"Iowa","lat":40.99146,"lng":-91.29998,"zip":"52660","miles_from_dt":19.25},{"city":"Lone Tree","state_name":"Iowa","lat":41.48015,"lng":-91.43349,"zip":"52755","miles_from_dt":19.45},{"city":"Wapello","state_name":"Iowa","lat":41.16642,"lng":-91.15597,"zip":"52653","miles_from_dt":19.82},{"city":"Nichols","state_name":"Iowa","lat":41.46407,"lng":-91.30061,"zip":"52766","miles_from_dt":21.37},{"city":"New London","state_name":"Iowa","lat":40.91429,"lng":-91.40138,"zip":"52645","miles_from_dt":21.4},{"city":"Fruitland","state_name":"Iowa","lat":41.34608,"lng":-91.13112,"zip":"52749","miles_from_dt":22.94},{"city":"Keota","state_name":"Iowa","lat":41.34386,"lng":-91.93891,"zip":"52248","miles_from_dt":23.16},{"city":"Kalona","state_name":"Iowa","lat":41.51503,"lng":-91.71774,"zip":"52247","miles_from_dt":23.27},{"city":"Richland","state_name":"Iowa","lat":41.18902,"lng":-91.98863,"zip":"52585","miles_from_dt":23.83},{"city":"Mediapolis","state_name":"Iowa","lat":41.01949,"lng":-91.13774,"zip":"52637","miles_from_dt":24.35},{"city":"Fairfield","state_name":"Iowa","lat":41.01842,"lng":-91.9264,"zip":"52556","miles_from_dt":24.39},{"city":"Wellman","state_name":"Iowa","lat":41.4749,"lng":-91.84769,"zip":"52356","miles_from_dt":24.66},{"city":"Hills","state_name":"Iowa","lat":41.57024,"lng":-91.53281,"zip":"52235","miles_from_dt":24.98},{"city":"Salem","state_name":"Iowa","lat":40.83827,"lng":-91.60647,"zip":"52649","miles_from_dt":25.82},{"city":"Fairfield","state_name":"Iowa","lat":41.02026,"lng":-91.96653,"zip":"52557","miles_from_dt":26.12},{"city":"Danville","state_name":"Iowa","lat":40.85569,"lng":-91.33998,"zip":"52623","miles_from_dt":26.32},{"city":"Sperry","state_name":"Iowa","lat":40.94782,"lng":-91.15687,"zip":"52650","miles_from_dt":26.58},{"city":"New Boston","state_name":"Illinois","lat":41.24817,"lng":-91.00865,"zip":"61272","miles_from_dt":27.41},{"city":"Stockport","state_name":"Iowa","lat":40.85819,"lng":-91.81323,"zip":"52651","miles_from_dt":28.27},{"city":"West Liberty","state_name":"Iowa","lat":41.5795,"lng":-91.275,"zip":"52776","miles_from_dt":28.9},{"city":"Iowa City","state_name":"Iowa","lat":41.63143,"lng":-91.49924,"zip":"52240","miles_from_dt":29.26},{"city":"Hillsboro","state_name":"Iowa","lat":40.80375,"lng":-91.7038,"zip":"52630","miles_from_dt":29.32},{"city":"Muscatine","state_name":"Iowa","lat":41.43798,"lng":-91.05802,"zip":"52761","miles_from_dt":29.32},{"city":"Oakville","state_name":"Iowa","lat":41.06706,"lng":-91.00072,"zip":"52646","miles_from_dt":29.38},{"city":"Harper","state_name":"Iowa","lat":41.36371,"lng":-92.05912,"zip":"52231","miles_from_dt":29.46},{"city":"Houghton","state_name":"Iowa","lat":40.78308,"lng":-91.61209,"zip":"52631","miles_from_dt":29.63},{"city":"Packwood","state_name":"Iowa","lat":41.12039,"lng":-92.09069,"zip":"52580","miles_from_dt":29.75},{"city":"West Burlington","state_name":"Iowa","lat":40.84768,"lng":-91.21174,"zip":"52655","miles_from_dt":29.99}],"targetCityZipCode":"52621","targetCityState":"Iowa"},"__N_SSG":true}