{"pageProps":{"stateName":"Iowa","cityName":"dows","nearbyCities":[{"city":"Popejoy","state_name":"Iowa","lat":42.59388,"lng":-93.42818,"zip":"50227","miles_from_dt":5.51},{"city":"Galt","state_name":"Iowa","lat":42.66713,"lng":-93.63423,"zip":"50101","miles_from_dt":6.65},{"city":"Rowan","state_name":"Iowa","lat":42.74652,"lng":-93.55374,"zip":"50470","miles_from_dt":7.14},{"city":"Coulter","state_name":"Iowa","lat":42.73648,"lng":-93.36989,"zip":"50431","miles_from_dt":9.18},{"city":"Alden","state_name":"Iowa","lat":42.51354,"lng":-93.40227,"zip":"50006","miles_from_dt":10.76},{"city":"Buckeye","state_name":"Iowa","lat":42.52028,"lng":-93.37583,"zip":"50043","miles_from_dt":11.11},{"city":"Alexander","state_name":"Iowa","lat":42.80621,"lng":-93.45677,"zip":"50420","miles_from_dt":11.12},{"city":"Latimer","state_name":"Iowa","lat":42.77969,"lng":-93.37542,"zip":"50452","miles_from_dt":11.19},{"city":"Blairsburg","state_name":"Iowa","lat":42.52921,"lng":-93.65438,"zip":"50034","miles_from_dt":11.23},{"city":"Williams","state_name":"Iowa","lat":42.48444,"lng":-93.54489,"zip":"50271","miles_from_dt":11.55},{"city":"Clarion","state_name":"Iowa","lat":42.73289,"lng":-93.73254,"zip":"50526","miles_from_dt":12.9},{"city":"Bradford","state_name":"Iowa","lat":42.63429,"lng":-93.24662,"zip":"50041","miles_from_dt":13.26},{"city":"Clarion","state_name":"Iowa","lat":42.73875,"lng":-93.74907,"zip":"50525","miles_from_dt":13.83},{"city":"Belmond","state_name":"Iowa","lat":42.84246,"lng":-93.62148,"zip":"50421","miles_from_dt":14.57},{"city":"Hampton","state_name":"Iowa","lat":42.73938,"lng":-93.22146,"zip":"50441","miles_from_dt":15.76},{"city":"Iowa Falls","state_name":"Iowa","lat":42.50875,"lng":-93.24815,"zip":"50126","miles_from_dt":16.34},{"city":"Woolstock","state_name":"Iowa","lat":42.58089,"lng":-93.81471,"zip":"50599","miles_from_dt":16.43},{"city":"Meservey","state_name":"Iowa","lat":42.91418,"lng":-93.4928,"zip":"50457","miles_from_dt":18.3},{"city":"Chapin","state_name":"Iowa","lat":42.83557,"lng":-93.22116,"zip":"50427","miles_from_dt":19.37},{"city":"Geneva","state_name":"Iowa","lat":42.67203,"lng":-93.12664,"zip":"50633","miles_from_dt":19.39},{"city":"Kamrar","state_name":"Iowa","lat":42.39392,"lng":-93.68256,"zip":"50132","miles_from_dt":19.8},{"city":"Eagle Grove","state_name":"Iowa","lat":42.65251,"lng":-93.91109,"zip":"50533","miles_from_dt":20.64},{"city":"Webster City","state_name":"Iowa","lat":42.46097,"lng":-93.82154,"zip":"50595","miles_from_dt":20.7},{"city":"Thornton","state_name":"Iowa","lat":42.94121,"lng":-93.4082,"zip":"50479","miles_from_dt":20.75},{"city":"Goodell","state_name":"Iowa","lat":42.94578,"lng":-93.6345,"zip":"50439","miles_from_dt":21.48},{"city":"Sheffield","state_name":"Iowa","lat":42.87902,"lng":-93.21852,"zip":"50475","miles_from_dt":21.57},{"city":"Ellsworth","state_name":"Iowa","lat":42.33516,"lng":-93.56054,"zip":"50075","miles_from_dt":21.86},{"city":"Ackley","state_name":"Iowa","lat":42.56612,"lng":-93.05665,"zip":"50601","miles_from_dt":23.62},{"city":"Radcliffe","state_name":"Iowa","lat":42.30655,"lng":-93.44718,"zip":"50230","miles_from_dt":23.85},{"city":"Goldfield","state_name":"Iowa","lat":42.7794,"lng":-93.94594,"zip":"50542","miles_from_dt":24.13},{"city":"Kanawha","state_name":"Iowa","lat":42.92719,"lng":-93.80118,"zip":"50447","miles_from_dt":24.36},{"city":"Klemme","state_name":"Iowa","lat":43.00129,"lng":-93.55629,"zip":"50449","miles_from_dt":24.43},{"city":"Swaledale","state_name":"Iowa","lat":42.98743,"lng":-93.32731,"zip":"50477","miles_from_dt":25.04},{"city":"Jewell","state_name":"Iowa","lat":42.30074,"lng":-93.67331,"zip":"50130","miles_from_dt":25.53},{"city":"Hubbard","state_name":"Iowa","lat":42.30218,"lng":-93.3087,"zip":"50122","miles_from_dt":25.99},{"city":"Aredale","state_name":"Iowa","lat":42.83559,"lng":-93.03276,"zip":"50605","miles_from_dt":27.29},{"city":"Steamboat Rock","state_name":"Iowa","lat":42.4247,"lng":-93.06545,"zip":"50672","miles_from_dt":27.31},{"city":"Dumont","state_name":"Iowa","lat":42.75071,"lng":-92.98691,"zip":"50625","miles_from_dt":27.34},{"city":"Vincent","state_name":"Iowa","lat":42.58561,"lng":-94.03949,"zip":"50594","miles_from_dt":27.55},{"city":"Thor","state_name":"Iowa","lat":42.67683,"lng":-94.05478,"zip":"50591","miles_from_dt":28.02},{"city":"Renwick","state_name":"Iowa","lat":42.85774,"lng":-93.97902,"zip":"50577","miles_from_dt":28.04},{"city":"Austinville","state_name":"Iowa","lat":42.58815,"lng":-92.96075,"zip":"50608","miles_from_dt":28.11},{"city":"Garden City","state_name":"Iowa","lat":42.24554,"lng":-93.40022,"zip":"50102","miles_from_dt":28.39},{"city":"Duncombe","state_name":"Iowa","lat":42.46212,"lng":-94.00175,"zip":"50532","miles_from_dt":28.41},{"city":"Rockwell","state_name":"Iowa","lat":42.99922,"lng":-93.19767,"zip":"50469","miles_from_dt":28.79},{"city":"Randall","state_name":"Iowa","lat":42.23765,"lng":-93.60257,"zip":"50231","miles_from_dt":28.84},{"city":"Stanhope","state_name":"Iowa","lat":42.28411,"lng":-93.78198,"zip":"50246","miles_from_dt":28.89},{"city":"Eldora","state_name":"Iowa","lat":42.34982,"lng":-93.095,"zip":"50627","miles_from_dt":29.46}],"targetCityZipCode":"50071","targetCityState":"Iowa"},"__N_SSG":true}