{"pageProps":{"stateName":"Iowa","cityName":"dubuque","nearbyCities":[{"city":"Dubuque","state_name":"Iowa","lat":42.5001,"lng":-90.66775,"zip":"52004","miles_from_dt":3.57},{"city":"Dubuque","state_name":"Iowa","lat":42.49588,"lng":-90.66751,"zip":"52099","miles_from_dt":3.85},{"city":"Dubuque","state_name":"Iowa","lat":42.52481,"lng":-90.77184,"zip":"52002","miles_from_dt":4.31},{"city":"Kieler","state_name":"Wisconsin","lat":42.5808,"lng":-90.60239,"zip":"53812","miles_from_dt":5.16},{"city":"Dubuque","state_name":"Iowa","lat":42.43434,"lng":-90.67506,"zip":"52003","miles_from_dt":7.91},{"city":"Dickeyville","state_name":"Wisconsin","lat":42.63745,"lng":-90.59204,"zip":"53808","miles_from_dt":8.05},{"city":"Sinsinawa","state_name":"Wisconsin","lat":42.52378,"lng":-90.53785,"zip":"53824","miles_from_dt":8.12},{"city":"Sherrill","state_name":"Iowa","lat":42.62331,"lng":-90.82069,"zip":"52073","miles_from_dt":8.31},{"city":"Durango","state_name":"Iowa","lat":42.53807,"lng":-90.85745,"zip":"52039","miles_from_dt":8.4},{"city":"East Dubuque","state_name":"Illinois","lat":42.46958,"lng":-90.55904,"zip":"61025","miles_from_dt":8.75},{"city":"Hazel Green","state_name":"Wisconsin","lat":42.53576,"lng":-90.51541,"zip":"53811","miles_from_dt":9.13},{"city":"Potosi","state_name":"Wisconsin","lat":42.69649,"lng":-90.70984,"zip":"53820","miles_from_dt":10.27},{"city":"Peosta","state_name":"Iowa","lat":42.42382,"lng":-90.81128,"zip":"52068","miles_from_dt":10.48},{"city":"Cuba City","state_name":"Wisconsin","lat":42.61123,"lng":-90.46668,"zip":"53807","miles_from_dt":12.36},{"city":"Epworth","state_name":"Iowa","lat":42.45485,"lng":-90.93113,"zip":"52045","miles_from_dt":13.74},{"city":"Holy Cross","state_name":"Iowa","lat":42.60656,"lng":-90.96399,"zip":"52053","miles_from_dt":14.38},{"city":"Saint Donatus","state_name":"Iowa","lat":42.36245,"lng":-90.54234,"zip":"52071","miles_from_dt":14.97},{"city":"La Motte","state_name":"Iowa","lat":42.30569,"lng":-90.62811,"zip":"52054","miles_from_dt":17.07},{"city":"Platteville","state_name":"Wisconsin","lat":42.74725,"lng":-90.49177,"zip":"53818","miles_from_dt":17.16},{"city":"North Buena Vista","state_name":"Iowa","lat":42.693,"lng":-90.96925,"zip":"52066","miles_from_dt":17.25},{"city":"Benton","state_name":"Wisconsin","lat":42.55915,"lng":-90.35508,"zip":"53803","miles_from_dt":17.29},{"city":"Cassville","state_name":"Wisconsin","lat":42.73554,"lng":-90.92544,"zip":"53806","miles_from_dt":17.52},{"city":"Galena","state_name":"Illinois","lat":42.4172,"lng":-90.39816,"zip":"61036","miles_from_dt":17.59},{"city":"Farley","state_name":"Iowa","lat":42.44024,"lng":-91.0119,"zip":"52046","miles_from_dt":17.89},{"city":"Zwingle","state_name":"Iowa","lat":42.28781,"lng":-90.71908,"zip":"52079","miles_from_dt":18.02},{"city":"Bernard","state_name":"Iowa","lat":42.29006,"lng":-90.84317,"zip":"52032","miles_from_dt":19.39},{"city":"Luxemburg","state_name":"Iowa","lat":42.60401,"lng":-91.07257,"zip":"52056","miles_from_dt":19.72},{"city":"Lancaster","state_name":"Wisconsin","lat":42.84402,"lng":-90.71641,"zip":"53813","miles_from_dt":20.45},{"city":"Beetown","state_name":"Wisconsin","lat":42.80538,"lng":-90.89358,"zip":"53802","miles_from_dt":20.47},{"city":"New Vienna","state_name":"Iowa","lat":42.58353,"lng":-91.10202,"zip":"52065","miles_from_dt":20.99},{"city":"Scales Mound","state_name":"Illinois","lat":42.46546,"lng":-90.26444,"zip":"61075","miles_from_dt":22.64},{"city":"Dyersville","state_name":"Iowa","lat":42.51114,"lng":-91.13884,"zip":"52040","miles_from_dt":22.88},{"city":"Belmont","state_name":"Wisconsin","lat":42.74065,"lng":-90.32147,"zip":"53510","miles_from_dt":23.15},{"city":"Bellevue","state_name":"Iowa","lat":42.24874,"lng":-90.48922,"zip":"52031","miles_from_dt":23.16},{"city":"Shullsburg","state_name":"Wisconsin","lat":42.57271,"lng":-90.22702,"zip":"53586","miles_from_dt":23.86},{"city":"Worthington","state_name":"Iowa","lat":42.39506,"lng":-91.11534,"zip":"52078","miles_from_dt":24.01},{"city":"Cascade","state_name":"Iowa","lat":42.27941,"lng":-91.00177,"zip":"52033","miles_from_dt":24.35},{"city":"Glen Haven","state_name":"Wisconsin","lat":42.82144,"lng":-90.9984,"zip":"53810","miles_from_dt":24.43},{"city":"Bloomington","state_name":"Wisconsin","lat":42.87645,"lng":-90.90798,"zip":"53804","miles_from_dt":25.15},{"city":"Guttenberg","state_name":"Iowa","lat":42.7411,"lng":-91.12083,"zip":"52052","miles_from_dt":25.53},{"city":"Stitzer","state_name":"Wisconsin","lat":42.91833,"lng":-90.58851,"zip":"53825","miles_from_dt":26.1},{"city":"Colesburg","state_name":"Iowa","lat":42.65996,"lng":-91.18784,"zip":"52035","miles_from_dt":26.36},{"city":"Rewey","state_name":"Wisconsin","lat":42.85943,"lng":-90.38131,"zip":"53580","miles_from_dt":26.72},{"city":"Hanover","state_name":"Illinois","lat":42.272,"lng":-90.3202,"zip":"61041","miles_from_dt":26.98},{"city":"Livingston","state_name":"Wisconsin","lat":42.90205,"lng":-90.44919,"zip":"53554","miles_from_dt":27.41},{"city":"Andrew","state_name":"Iowa","lat":42.15322,"lng":-90.59219,"zip":"52030","miles_from_dt":27.75},{"city":"Springbrook","state_name":"Iowa","lat":42.16577,"lng":-90.47916,"zip":"52075","miles_from_dt":28.58},{"city":"Earlville","state_name":"Iowa","lat":42.5051,"lng":-91.25515,"zip":"52041","miles_from_dt":28.83},{"city":"Apple River","state_name":"Illinois","lat":42.4612,"lng":-90.12226,"zip":"61001","miles_from_dt":29.78}],"targetCityZipCode":"52001","targetCityState":"Iowa"},"__N_SSG":true}