{"pageProps":{"stateName":"Iowa","cityName":"gilbertville","nearbyCities":[{"city":"Raymond","state_name":"Iowa","lat":42.47003,"lng":-92.22545,"zip":"50667","miles_from_dt":3.63},{"city":"Evansdale","state_name":"Iowa","lat":42.4771,"lng":-92.27918,"zip":"50707","miles_from_dt":5.25},{"city":"Waterloo","state_name":"Iowa","lat":42.45745,"lng":-92.31283,"zip":"50702","miles_from_dt":5.73},{"city":"Jesup","state_name":"Iowa","lat":42.45182,"lng":-92.09465,"zip":"50648","miles_from_dt":6.54},{"city":"La Porte City","state_name":"Iowa","lat":42.32271,"lng":-92.19993,"zip":"50651","miles_from_dt":6.62},{"city":"Waterloo","state_name":"Iowa","lat":42.4171,"lng":-92.34448,"zip":"50701","miles_from_dt":6.66},{"city":"Dewar","state_name":"Iowa","lat":42.52693,"lng":-92.20962,"zip":"50623","miles_from_dt":7.52},{"city":"Waterloo","state_name":"Iowa","lat":42.52769,"lng":-92.27167,"zip":"50704","miles_from_dt":8.11},{"city":"Waterloo","state_name":"Iowa","lat":42.54817,"lng":-92.28195,"zip":"50703","miles_from_dt":9.62},{"city":"Dunkerton","state_name":"Iowa","lat":42.58028,"lng":-92.17049,"zip":"50626","miles_from_dt":11.41},{"city":"Brandon","state_name":"Iowa","lat":42.33905,"lng":-92.00537,"zip":"52210","miles_from_dt":12},{"city":"Mount Auburn","state_name":"Iowa","lat":42.25955,"lng":-92.09726,"zip":"52313","miles_from_dt":12.48},{"city":"Buckingham","state_name":"Iowa","lat":42.28546,"lng":-92.38687,"zip":"50612","miles_from_dt":12.73},{"city":"Hudson","state_name":"Iowa","lat":42.36413,"lng":-92.47402,"zip":"50643","miles_from_dt":13.8},{"city":"Cedar Falls","state_name":"Iowa","lat":42.50928,"lng":-92.46075,"zip":"50614","miles_from_dt":14.08},{"city":"Cedar Falls","state_name":"Iowa","lat":42.53358,"lng":-92.49069,"zip":"50613","miles_from_dt":16.22},{"city":"Independence","state_name":"Iowa","lat":42.47751,"lng":-91.89721,"zip":"50644","miles_from_dt":16.72},{"city":"Fairbank","state_name":"Iowa","lat":42.64222,"lng":-92.081,"zip":"50629","miles_from_dt":16.9},{"city":"Dysart","state_name":"Iowa","lat":42.16386,"lng":-92.29836,"zip":"52224","miles_from_dt":18.07},{"city":"Denver","state_name":"Iowa","lat":42.67358,"lng":-92.33358,"zip":"50622","miles_from_dt":18.66},{"city":"Readlyn","state_name":"Iowa","lat":42.69087,"lng":-92.2265,"zip":"50668","miles_from_dt":18.84},{"city":"Rowley","state_name":"Iowa","lat":42.35894,"lng":-91.85405,"zip":"52329","miles_from_dt":18.88},{"city":"Garrison","state_name":"Iowa","lat":42.14609,"lng":-92.16884,"zip":"52229","miles_from_dt":18.92},{"city":"Hazleton","state_name":"Iowa","lat":42.59746,"lng":-91.91961,"zip":"50641","miles_from_dt":19.48},{"city":"Vinton","state_name":"Iowa","lat":42.17246,"lng":-92.00566,"zip":"52349","miles_from_dt":20.04},{"city":"Traer","state_name":"Iowa","lat":42.19884,"lng":-92.4928,"zip":"50675","miles_from_dt":20.8},{"city":"Janesville","state_name":"Iowa","lat":42.64787,"lng":-92.48026,"zip":"50647","miles_from_dt":20.88},{"city":"Reinbeck","state_name":"Iowa","lat":42.33309,"lng":-92.6124,"zip":"50669","miles_from_dt":21.21},{"city":"Oran","state_name":"Iowa","lat":42.70698,"lng":-92.07222,"zip":"50664","miles_from_dt":21.22},{"city":"Urbana","state_name":"Iowa","lat":42.22239,"lng":-91.89177,"zip":"52345","miles_from_dt":21.34},{"city":"Dike","state_name":"Iowa","lat":42.46874,"lng":-92.65879,"zip":"50624","miles_from_dt":22.99},{"city":"Oelwein","state_name":"Iowa","lat":42.68748,"lng":-91.93396,"zip":"50662","miles_from_dt":23.46},{"city":"Quasqueton","state_name":"Iowa","lat":42.39513,"lng":-91.75641,"zip":"52326","miles_from_dt":23.47},{"city":"Walker","state_name":"Iowa","lat":42.28706,"lng":-91.77897,"zip":"52352","miles_from_dt":24.05},{"city":"Morrison","state_name":"Iowa","lat":42.34454,"lng":-92.67399,"zip":"50657","miles_from_dt":24.07},{"city":"New Hartford","state_name":"Iowa","lat":42.58099,"lng":-92.63752,"zip":"50660","miles_from_dt":24.37},{"city":"Clutier","state_name":"Iowa","lat":42.07948,"lng":-92.41067,"zip":"52217","miles_from_dt":25.45},{"city":"Tripoli","state_name":"Iowa","lat":42.7943,"lng":-92.27895,"zip":"50676","miles_from_dt":26.18},{"city":"Waverly","state_name":"Iowa","lat":42.76363,"lng":-92.43775,"zip":"50677","miles_from_dt":26.43},{"city":"Winthrop","state_name":"Iowa","lat":42.45241,"lng":-91.69893,"zip":"50682","miles_from_dt":26.45},{"city":"Stout","state_name":"Iowa","lat":42.52505,"lng":-92.7113,"zip":"50673","miles_from_dt":26.45},{"city":"Stanley","state_name":"Iowa","lat":42.6523,"lng":-91.7997,"zip":"50671","miles_from_dt":26.63},{"city":"Lincoln","state_name":"Iowa","lat":42.26454,"lng":-92.69234,"zip":"50652","miles_from_dt":26.68},{"city":"Westgate","state_name":"Iowa","lat":42.77754,"lng":-92.00931,"zip":"50681","miles_from_dt":26.92},{"city":"Center Point","state_name":"Iowa","lat":42.1995,"lng":-91.77222,"zip":"52213","miles_from_dt":27.21},{"city":"Aurora","state_name":"Iowa","lat":42.60872,"lng":-91.74747,"zip":"50607","miles_from_dt":27.23},{"city":"Shell Rock","state_name":"Iowa","lat":42.68425,"lng":-92.61586,"zip":"50670","miles_from_dt":27.53},{"city":"Shellsburg","state_name":"Iowa","lat":42.09861,"lng":-91.88772,"zip":"52332","miles_from_dt":27.69},{"city":"Keystone","state_name":"Iowa","lat":42.01202,"lng":-92.20517,"zip":"52249","miles_from_dt":28.03},{"city":"Troy Mills","state_name":"Iowa","lat":42.29202,"lng":-91.68325,"zip":"52344","miles_from_dt":28.54},{"city":"Elberon","state_name":"Iowa","lat":42.01289,"lng":-92.32636,"zip":"52225","miles_from_dt":28.55},{"city":"Van Horne","state_name":"Iowa","lat":42.01298,"lng":-92.08119,"zip":"52346","miles_from_dt":28.78},{"city":"Gladbrook","state_name":"Iowa","lat":42.19886,"lng":-92.69896,"zip":"50635","miles_from_dt":29.08},{"city":"Maynard","state_name":"Iowa","lat":42.77232,"lng":-91.9016,"zip":"50655","miles_from_dt":29.19},{"city":"Sumner","state_name":"Iowa","lat":42.84202,"lng":-92.11746,"zip":"50674","miles_from_dt":29.67}],"targetCityZipCode":"50634","targetCityState":"Iowa"},"__N_SSG":true}