{"pageProps":{"stateName":"Iowa","cityName":"greenfield","nearbyCities":[{"city":"Orient","state_name":"Iowa","lat":41.20961,"lng":-94.40902,"zip":"50858","miles_from_dt":6.25},{"city":"Fontanelle","state_name":"Iowa","lat":41.31081,"lng":-94.56839,"zip":"50846","miles_from_dt":8.7},{"city":"Macksburg","state_name":"Iowa","lat":41.21288,"lng":-94.19713,"zip":"50155","miles_from_dt":12.24},{"city":"Stuart","state_name":"Iowa","lat":41.48088,"lng":-94.34062,"zip":"50250","miles_from_dt":12.88},{"city":"Dexter","state_name":"Iowa","lat":41.45402,"lng":-94.23745,"zip":"50070","miles_from_dt":13.63},{"city":"Menlo","state_name":"Iowa","lat":41.49921,"lng":-94.42176,"zip":"50164","miles_from_dt":13.78},{"city":"Creston","state_name":"Iowa","lat":41.07959,"lng":-94.39224,"zip":"50801","miles_from_dt":15.22},{"city":"Bridgewater","state_name":"Iowa","lat":41.22878,"lng":-94.68367,"zip":"50837","miles_from_dt":15.48},{"city":"Casey","state_name":"Iowa","lat":41.51167,"lng":-94.51936,"zip":"50048","miles_from_dt":15.83},{"city":"Winterset","state_name":"Iowa","lat":41.32838,"lng":-94.05606,"zip":"50273","miles_from_dt":18.09},{"city":"Cromwell","state_name":"Iowa","lat":41.03991,"lng":-94.4618,"zip":"50842","miles_from_dt":18.22},{"city":"Earlham","state_name":"Iowa","lat":41.46984,"lng":-94.12115,"zip":"50072","miles_from_dt":18.71},{"city":"Prescott","state_name":"Iowa","lat":41.06505,"lng":-94.60027,"zip":"50859","miles_from_dt":19.24},{"city":"Adair","state_name":"Iowa","lat":41.51236,"lng":-94.64801,"zip":"50002","miles_from_dt":19.45},{"city":"Lorimor","state_name":"Iowa","lat":41.1512,"lng":-94.08194,"zip":"50149","miles_from_dt":19.57},{"city":"Massena","state_name":"Iowa","lat":41.23869,"lng":-94.77455,"zip":"50853","miles_from_dt":19.87},{"city":"Anita","state_name":"Iowa","lat":41.43364,"lng":-94.75215,"zip":"50020","miles_from_dt":20.42},{"city":"Afton","state_name":"Iowa","lat":41.0242,"lng":-94.19037,"zip":"50830","miles_from_dt":22},{"city":"Redfield","state_name":"Iowa","lat":41.61221,"lng":-94.21095,"zip":"50233","miles_from_dt":23.71},{"city":"Peru","state_name":"Iowa","lat":41.21701,"lng":-93.95369,"zip":"50222","miles_from_dt":24.03},{"city":"Wiota","state_name":"Iowa","lat":41.38261,"lng":-94.85756,"zip":"50274","miles_from_dt":24.38},{"city":"De Soto","state_name":"Iowa","lat":41.52104,"lng":-94.02993,"zip":"50069","miles_from_dt":24.61},{"city":"Cumberland","state_name":"Iowa","lat":41.24057,"lng":-94.88913,"zip":"50843","miles_from_dt":25.7},{"city":"Arispe","state_name":"Iowa","lat":40.94938,"lng":-94.22341,"zip":"50831","miles_from_dt":25.93},{"city":"Linden","state_name":"Iowa","lat":41.68038,"lng":-94.24905,"zip":"50146","miles_from_dt":27.42},{"city":"Corning","state_name":"Iowa","lat":41.01147,"lng":-94.76342,"zip":"50841","miles_from_dt":27.43},{"city":"Patterson","state_name":"Iowa","lat":41.34844,"lng":-93.87755,"zip":"50218","miles_from_dt":27.47},{"city":"Thayer","state_name":"Iowa","lat":40.99045,"lng":-94.06917,"zip":"50254","miles_from_dt":27.52},{"city":"Van Meter","state_name":"Iowa","lat":41.47014,"lng":-93.92286,"zip":"50261","miles_from_dt":27.52},{"city":"Panora","state_name":"Iowa","lat":41.69798,"lng":-94.35023,"zip":"50216","miles_from_dt":27.59},{"city":"Shannon City","state_name":"Iowa","lat":40.91163,"lng":-94.25685,"zip":"50861","miles_from_dt":27.85},{"city":"Guthrie Center","state_name":"Iowa","lat":41.68765,"lng":-94.55501,"zip":"50115","miles_from_dt":27.91},{"city":"Carbon","state_name":"Iowa","lat":41.04874,"lng":-94.82206,"zip":"50839","miles_from_dt":27.95},{"city":"Lenox","state_name":"Iowa","lat":40.90327,"lng":-94.53637,"zip":"50851","miles_from_dt":28.27},{"city":"Adel","state_name":"Iowa","lat":41.61192,"lng":-94.04352,"zip":"50003","miles_from_dt":28.45},{"city":"Murray","state_name":"Iowa","lat":41.03723,"lng":-93.96167,"zip":"50174","miles_from_dt":29.25},{"city":"Truro","state_name":"Iowa","lat":41.19092,"lng":-93.85048,"zip":"50257","miles_from_dt":29.68}],"targetCityZipCode":"50849","targetCityState":"Iowa"},"__N_SSG":true}