{"pageProps":{"stateName":"Iowa","cityName":"hancock","nearbyCities":[{"city":"Oakland","state_name":"Iowa","lat":41.31746,"lng":-95.39838,"zip":"51560","miles_from_dt":4.99},{"city":"Avoca","state_name":"Iowa","lat":41.47987,"lng":-95.34526,"zip":"51521","miles_from_dt":6.67},{"city":"Walnut","state_name":"Iowa","lat":41.4644,"lng":-95.20296,"zip":"51577","miles_from_dt":9.88},{"city":"Minden","state_name":"Iowa","lat":41.41577,"lng":-95.54638,"zip":"51553","miles_from_dt":9.92},{"city":"Carson","state_name":"Iowa","lat":41.23443,"lng":-95.41999,"zip":"51525","miles_from_dt":10.77},{"city":"Shelby","state_name":"Iowa","lat":41.52271,"lng":-95.46039,"zip":"51570","miles_from_dt":10.9},{"city":"Lewis","state_name":"Iowa","lat":41.31316,"lng":-95.10817,"zip":"51544","miles_from_dt":13.99},{"city":"Marne","state_name":"Iowa","lat":41.48613,"lng":-95.11439,"zip":"51552","miles_from_dt":14.59},{"city":"Macedonia","state_name":"Iowa","lat":41.18253,"lng":-95.45445,"zip":"51549","miles_from_dt":14.73},{"city":"McClelland","state_name":"Iowa","lat":41.31713,"lng":-95.63553,"zip":"51548","miles_from_dt":15.04},{"city":"Treynor","state_name":"Iowa","lat":41.24111,"lng":-95.60218,"zip":"51575","miles_from_dt":15.98},{"city":"Griswold","state_name":"Iowa","lat":41.2264,"lng":-95.13241,"zip":"51535","miles_from_dt":16.08},{"city":"Neola","state_name":"Iowa","lat":41.46034,"lng":-95.66049,"zip":"51559","miles_from_dt":16.46},{"city":"Henderson","state_name":"Iowa","lat":41.13664,"lng":-95.41623,"zip":"51541","miles_from_dt":17.31},{"city":"Persia","state_name":"Iowa","lat":41.5769,"lng":-95.59405,"zip":"51563","miles_from_dt":18.02},{"city":"Underwood","state_name":"Iowa","lat":41.3777,"lng":-95.70945,"zip":"51576","miles_from_dt":18.16},{"city":"Harlan","state_name":"Iowa","lat":41.64646,"lng":-95.29531,"zip":"51537","miles_from_dt":18.43},{"city":"Atlantic","state_name":"Iowa","lat":41.41737,"lng":-95.00352,"zip":"50022","miles_from_dt":18.68},{"city":"Harlan","state_name":"Iowa","lat":41.65809,"lng":-95.31861,"zip":"51593","miles_from_dt":19.05},{"city":"Elk Horn","state_name":"Iowa","lat":41.58751,"lng":-95.08837,"zip":"51531","miles_from_dt":19.91},{"city":"Portsmouth","state_name":"Iowa","lat":41.64555,"lng":-95.52391,"zip":"51565","miles_from_dt":19.96},{"city":"Silver City","state_name":"Iowa","lat":41.14582,"lng":-95.60994,"zip":"51571","miles_from_dt":20.95},{"city":"Elliott","state_name":"Iowa","lat":41.13408,"lng":-95.11167,"zip":"51532","miles_from_dt":21.56},{"city":"Westphalia","state_name":"Iowa","lat":41.72002,"lng":-95.39508,"zip":"51578","miles_from_dt":23.27},{"city":"Mineola","state_name":"Iowa","lat":41.14512,"lng":-95.68122,"zip":"51554","miles_from_dt":23.47},{"city":"Emerson","state_name":"Iowa","lat":41.03606,"lng":-95.37933,"zip":"51533","miles_from_dt":24.02},{"city":"Kimballton","state_name":"Iowa","lat":41.65792,"lng":-95.07317,"zip":"51543","miles_from_dt":24.07},{"city":"Council Bluffs","state_name":"Iowa","lat":41.2304,"lng":-95.77795,"zip":"51503","miles_from_dt":24.18},{"city":"Panama","state_name":"Iowa","lat":41.72591,"lng":-95.50128,"zip":"51562","miles_from_dt":24.71},{"city":"Kirkman","state_name":"Iowa","lat":41.72101,"lng":-95.19196,"zip":"51447","miles_from_dt":24.85},{"city":"Honey Creek","state_name":"Iowa","lat":41.43354,"lng":-95.84072,"zip":"51542","miles_from_dt":25.2},{"city":"Grant","state_name":"Iowa","lat":41.14168,"lng":-94.98405,"zip":"50847","miles_from_dt":25.75},{"city":"Hastings","state_name":"Iowa","lat":41.02488,"lng":-95.49802,"zip":"51540","miles_from_dt":25.79},{"city":"Brayton","state_name":"Iowa","lat":41.53326,"lng":-94.90004,"zip":"50042","miles_from_dt":26.02},{"city":"Wiota","state_name":"Iowa","lat":41.38261,"lng":-94.85756,"zip":"50274","miles_from_dt":26.13},{"city":"Red Oak","state_name":"Iowa","lat":41.0151,"lng":-95.22994,"zip":"51566","miles_from_dt":26.34},{"city":"Cumberland","state_name":"Iowa","lat":41.24057,"lng":-94.88913,"zip":"50843","miles_from_dt":26.43},{"city":"Council Bluffs","state_name":"Iowa","lat":41.26139,"lng":-95.84988,"zip":"51502","miles_from_dt":26.84},{"city":"Crescent","state_name":"Iowa","lat":41.37186,"lng":-95.87818,"zip":"51526","miles_from_dt":26.93},{"city":"Earling","state_name":"Iowa","lat":41.78247,"lng":-95.42613,"zip":"51530","miles_from_dt":27.72},{"city":"Logan","state_name":"Iowa","lat":41.6399,"lng":-95.77209,"zip":"51546","miles_from_dt":27.72},{"city":"Irwin","state_name":"Iowa","lat":41.77663,"lng":-95.19277,"zip":"51446","miles_from_dt":28.46},{"city":"Red Oak","state_name":"Iowa","lat":40.97836,"lng":-95.25775,"zip":"51591","miles_from_dt":28.49},{"city":"Omaha","state_name":"Nebraska","lat":41.3066,"lng":-95.90513,"zip":"68119","miles_from_dt":28.83},{"city":"Council Bluffs","state_name":"Iowa","lat":41.22828,"lng":-95.87889,"zip":"51501","miles_from_dt":29.05},{"city":"Omaha","state_name":"Nebraska","lat":41.29867,"lng":-95.91143,"zip":"68110","miles_from_dt":29.26},{"city":"Malvern","state_name":"Iowa","lat":40.99129,"lng":-95.58907,"zip":"51551","miles_from_dt":29.6},{"city":"Carter Lake","state_name":"Iowa","lat":41.28844,"lng":-95.91715,"zip":"51510","miles_from_dt":29.7},{"city":"Exira","state_name":"Iowa","lat":41.595,"lng":-94.8576,"zip":"50076","miles_from_dt":29.88}],"targetCityZipCode":"51536","targetCityState":"Iowa"},"__N_SSG":true}