{"pageProps":{"stateName":"Iowa","cityName":"lakota","nearbyCities":[{"city":"Buffalo Center","state_name":"Iowa","lat":43.40366,"lng":-93.94939,"zip":"50424","miles_from_dt":7.37},{"city":"Ledyard","state_name":"Iowa","lat":43.45276,"lng":-94.20114,"zip":"50556","miles_from_dt":7.59},{"city":"Bancroft","state_name":"Iowa","lat":43.30099,"lng":-94.23452,"zip":"50517","miles_from_dt":8.94},{"city":"Titonka","state_name":"Iowa","lat":43.25097,"lng":-94.05272,"zip":"50480","miles_from_dt":8.95},{"city":"Elmore","state_name":"Minnesota","lat":43.51935,"lng":-94.12432,"zip":"56027","miles_from_dt":9.93},{"city":"Swea City","state_name":"Iowa","lat":43.40647,"lng":-94.30303,"zip":"50590","miles_from_dt":10.84},{"city":"Rake","state_name":"Iowa","lat":43.48703,"lng":-93.91056,"zip":"50465","miles_from_dt":11.83},{"city":"Woden","state_name":"Iowa","lat":43.23609,"lng":-93.91084,"zip":"50484","miles_from_dt":13.34},{"city":"Burt","state_name":"Iowa","lat":43.18562,"lng":-94.18576,"zip":"50522","miles_from_dt":14.07},{"city":"Frost","state_name":"Minnesota","lat":43.55926,"lng":-93.93118,"zip":"56033","miles_from_dt":14.91},{"city":"Thompson","state_name":"Iowa","lat":43.40377,"lng":-93.78448,"zip":"50478","miles_from_dt":15.56},{"city":"Lone Rock","state_name":"Iowa","lat":43.20912,"lng":-94.32477,"zip":"50559","miles_from_dt":16.54},{"city":"Blue Earth","state_name":"Minnesota","lat":43.62142,"lng":-94.10734,"zip":"56013","miles_from_dt":16.86},{"city":"Crystal Lake","state_name":"Iowa","lat":43.22394,"lng":-93.79794,"zip":"50432","miles_from_dt":18.2},{"city":"Wesley","state_name":"Iowa","lat":43.11174,"lng":-93.99719,"zip":"50483","miles_from_dt":18.95},{"city":"Fenton","state_name":"Iowa","lat":43.23543,"lng":-94.41849,"zip":"50539","miles_from_dt":19.19},{"city":"Armstrong","state_name":"Iowa","lat":43.41374,"lng":-94.47361,"zip":"50514","miles_from_dt":19.41},{"city":"Bricelyn","state_name":"Minnesota","lat":43.58363,"lng":-93.82568,"zip":"56014","miles_from_dt":19.52},{"city":"Scarville","state_name":"Iowa","lat":43.46402,"lng":-93.67429,"zip":"50473","miles_from_dt":21.82},{"city":"Algona","state_name":"Iowa","lat":43.07483,"lng":-94.21894,"zip":"50511","miles_from_dt":21.86},{"city":"Leland","state_name":"Iowa","lat":43.3664,"lng":-93.65258,"zip":"50453","miles_from_dt":22.11},{"city":"Kiester","state_name":"Minnesota","lat":43.53649,"lng":-93.70868,"zip":"56051","miles_from_dt":22.16},{"city":"Granada","state_name":"Minnesota","lat":43.66246,"lng":-94.32287,"zip":"56039","miles_from_dt":22.86},{"city":"Forest City","state_name":"Iowa","lat":43.26256,"lng":-93.66242,"zip":"50436","miles_from_dt":23.03},{"city":"Britt","state_name":"Iowa","lat":43.11054,"lng":-93.81244,"zip":"50423","miles_from_dt":23.19},{"city":"Ringsted","state_name":"Iowa","lat":43.30081,"lng":-94.54775,"zip":"50578","miles_from_dt":23.6},{"city":"Huntley","state_name":"Minnesota","lat":43.72276,"lng":-94.19203,"zip":"56047","miles_from_dt":24.37},{"city":"Fairmont","state_name":"Minnesota","lat":43.62246,"lng":-94.46757,"zip":"56031","miles_from_dt":25.37},{"city":"Whittemore","state_name":"Iowa","lat":43.08023,"lng":-94.41841,"zip":"50598","miles_from_dt":26.34},{"city":"Dolliver","state_name":"Iowa","lat":43.45841,"lng":-94.61417,"zip":"50531","miles_from_dt":26.9},{"city":"Easton","state_name":"Minnesota","lat":43.7516,"lng":-93.90877,"zip":"56025","miles_from_dt":27.41},{"city":"Delavan","state_name":"Minnesota","lat":43.77224,"lng":-94.01402,"zip":"56023","miles_from_dt":27.53},{"city":"Winnebago","state_name":"Minnesota","lat":43.77565,"lng":-94.18528,"zip":"56098","miles_from_dt":27.89},{"city":"Cylinder","state_name":"Iowa","lat":43.13717,"lng":-94.54023,"zip":"50528","miles_from_dt":28.07},{"city":"Ceylon","state_name":"Minnesota","lat":43.53858,"lng":-94.61051,"zip":"56121","miles_from_dt":28.38},{"city":"Corwith","state_name":"Iowa","lat":42.97734,"lng":-93.95653,"zip":"50430","miles_from_dt":28.45},{"city":"Lake Mills","state_name":"Iowa","lat":43.42045,"lng":-93.51998,"zip":"50450","miles_from_dt":28.91},{"city":"Lu Verne","state_name":"Iowa","lat":42.95581,"lng":-94.1043,"zip":"50560","miles_from_dt":29.11}],"targetCityZipCode":"50451","targetCityState":"Iowa"},"__N_SSG":true}