{"pageProps":{"stateName":"Iowa","cityName":"marble-rock","nearbyCities":[{"city":"Rockford","state_name":"Iowa","lat":43.04631,"lng":-92.95703,"zip":"50468","miles_from_dt":6.44},{"city":"Greene","state_name":"Iowa","lat":42.89439,"lng":-92.80745,"zip":"50636","miles_from_dt":6.53},{"city":"Dougherty","state_name":"Iowa","lat":42.92852,"lng":-93.04774,"zip":"50433","miles_from_dt":8.47},{"city":"Bristow","state_name":"Iowa","lat":42.8193,"lng":-92.91114,"zip":"50611","miles_from_dt":10.28},{"city":"Aredale","state_name":"Iowa","lat":42.83559,"lng":-93.03276,"zip":"50605","miles_from_dt":11.65},{"city":"Rudd","state_name":"Iowa","lat":43.16486,"lng":-92.87834,"zip":"50471","miles_from_dt":13.64},{"city":"Charles City","state_name":"Iowa","lat":43.07978,"lng":-92.66104,"zip":"50616","miles_from_dt":13.92},{"city":"Floyd","state_name":"Iowa","lat":43.15752,"lng":-92.76877,"zip":"50435","miles_from_dt":14.47},{"city":"Nora Springs","state_name":"Iowa","lat":43.15969,"lng":-93.00609,"zip":"50458","miles_from_dt":14.53},{"city":"Dumont","state_name":"Iowa","lat":42.75071,"lng":-92.98691,"zip":"50625","miles_from_dt":15.76},{"city":"Rockwell","state_name":"Iowa","lat":42.99922,"lng":-93.19767,"zip":"50469","miles_from_dt":15.78},{"city":"Allison","state_name":"Iowa","lat":42.74036,"lng":-92.80581,"zip":"50602","miles_from_dt":16.23},{"city":"Clarksville","state_name":"Iowa","lat":42.79725,"lng":-92.66266,"zip":"50619","miles_from_dt":16.44},{"city":"Sheffield","state_name":"Iowa","lat":42.87902,"lng":-93.21852,"zip":"50475","miles_from_dt":17.78},{"city":"Nashua","state_name":"Iowa","lat":42.95024,"lng":-92.53782,"zip":"50658","miles_from_dt":17.86},{"city":"Rock Falls","state_name":"Iowa","lat":43.20916,"lng":-93.06608,"zip":"50467","miles_from_dt":18.94},{"city":"Chapin","state_name":"Iowa","lat":42.83557,"lng":-93.22116,"zip":"50427","miles_from_dt":19.14},{"city":"Colwell","state_name":"Iowa","lat":43.15712,"lng":-92.5912,"zip":"50620","miles_from_dt":19.98},{"city":"Mason City","state_name":"Iowa","lat":43.15389,"lng":-93.20006,"zip":"50401","miles_from_dt":20.33},{"city":"Mason City","state_name":"Iowa","lat":43.15167,"lng":-93.20448,"zip":"50402","miles_from_dt":20.41},{"city":"Orchard","state_name":"Iowa","lat":43.2259,"lng":-92.6902,"zip":"50460","miles_from_dt":20.49},{"city":"Plainfield","state_name":"Iowa","lat":42.85995,"lng":-92.50933,"zip":"50666","miles_from_dt":20.65},{"city":"Kesley","state_name":"Iowa","lat":42.66249,"lng":-92.90973,"zip":"50649","miles_from_dt":21.07},{"city":"Plymouth","state_name":"Iowa","lat":43.25146,"lng":-93.0765,"zip":"50464","miles_from_dt":21.78},{"city":"Swaledale","state_name":"Iowa","lat":42.98743,"lng":-93.32731,"zip":"50477","miles_from_dt":22.25},{"city":"Ionia","state_name":"Iowa","lat":43.02174,"lng":-92.44952,"zip":"50645","miles_from_dt":22.6},{"city":"Hampton","state_name":"Iowa","lat":42.73938,"lng":-93.22146,"zip":"50441","miles_from_dt":23.07},{"city":"Osage","state_name":"Iowa","lat":43.29995,"lng":-92.81412,"zip":"50461","miles_from_dt":23.27},{"city":"Geneva","state_name":"Iowa","lat":42.67203,"lng":-93.12664,"zip":"50633","miles_from_dt":23.69},{"city":"Shell Rock","state_name":"Iowa","lat":42.68425,"lng":-92.61586,"zip":"50670","miles_from_dt":23.98},{"city":"Aplington","state_name":"Iowa","lat":42.60484,"lng":-92.90299,"zip":"50604","miles_from_dt":25.03},{"city":"Thornton","state_name":"Iowa","lat":42.94121,"lng":-93.4082,"zip":"50479","miles_from_dt":26.37},{"city":"Austinville","state_name":"Iowa","lat":42.58815,"lng":-92.96075,"zip":"50608","miles_from_dt":26.43},{"city":"Alta Vista","state_name":"Iowa","lat":43.18893,"lng":-92.45834,"zip":"50603","miles_from_dt":26.64},{"city":"Grafton","state_name":"Iowa","lat":43.33213,"lng":-93.06891,"zip":"50440","miles_from_dt":26.77},{"city":"Waverly","state_name":"Iowa","lat":42.76363,"lng":-92.43775,"zip":"50677","miles_from_dt":26.9},{"city":"Parkersburg","state_name":"Iowa","lat":42.58078,"lng":-92.7717,"zip":"50665","miles_from_dt":27.35},{"city":"Manly","state_name":"Iowa","lat":43.28812,"lng":-93.21579,"zip":"50456","miles_from_dt":27.62},{"city":"Clear Lake","state_name":"Iowa","lat":43.13573,"lng":-93.38815,"zip":"50428","miles_from_dt":27.8},{"city":"Latimer","state_name":"Iowa","lat":42.77969,"lng":-93.37542,"zip":"50452","miles_from_dt":27.88},{"city":"Toeterville","state_name":"Iowa","lat":43.37833,"lng":-92.91861,"zip":"50481","miles_from_dt":28.41},{"city":"Ackley","state_name":"Iowa","lat":42.56612,"lng":-93.05665,"zip":"50601","miles_from_dt":28.98},{"city":"Coulter","state_name":"Iowa","lat":42.73648,"lng":-93.36989,"zip":"50431","miles_from_dt":29.15},{"city":"Bradford","state_name":"Iowa","lat":42.63429,"lng":-93.24662,"zip":"50041","miles_from_dt":29.3},{"city":"New Hartford","state_name":"Iowa","lat":42.58099,"lng":-92.63752,"zip":"50660","miles_from_dt":29.58},{"city":"Little Cedar","state_name":"Iowa","lat":43.38505,"lng":-92.73935,"zip":"50454","miles_from_dt":29.81},{"city":"North Washington","state_name":"Iowa","lat":43.05755,"lng":-92.31272,"zip":"50661","miles_from_dt":29.86},{"city":"New Hampton","state_name":"Iowa","lat":43.08749,"lng":-92.3221,"zip":"50659","miles_from_dt":29.9},{"city":"Frederika","state_name":"Iowa","lat":42.88254,"lng":-92.30929,"zip":"50631","miles_from_dt":30}],"targetCityZipCode":"50653","targetCityState":"Iowa"},"__N_SSG":true}