{"pageProps":{"stateName":"Iowa","cityName":"marcus","nearbyCities":[{"city":"Cleghorn","state_name":"Iowa","lat":42.78428,"lng":-95.71155,"zip":"51014","miles_from_dt":4.53},{"city":"Remsen","state_name":"Iowa","lat":42.79545,"lng":-95.94772,"zip":"51050","miles_from_dt":7.55},{"city":"Meriden","state_name":"Iowa","lat":42.82567,"lng":-95.64269,"zip":"51037","miles_from_dt":8.6},{"city":"Cherokee","state_name":"Iowa","lat":42.74474,"lng":-95.56171,"zip":"51012","miles_from_dt":12.4},{"city":"Quimby","state_name":"Iowa","lat":42.63005,"lng":-95.64463,"zip":"51049","miles_from_dt":13.09},{"city":"Oyens","state_name":"Iowa","lat":42.82019,"lng":-96.05772,"zip":"51045","miles_from_dt":13.35},{"city":"Granville","state_name":"Iowa","lat":42.97819,"lng":-95.84722,"zip":"51022","miles_from_dt":13.83},{"city":"Paullina","state_name":"Iowa","lat":42.96621,"lng":-95.67949,"zip":"51046","miles_from_dt":14.19},{"city":"Pierson","state_name":"Iowa","lat":42.57963,"lng":-95.86412,"zip":"51048","miles_from_dt":14.26},{"city":"Washta","state_name":"Iowa","lat":42.57983,"lng":-95.72036,"zip":"51061","miles_from_dt":14.46},{"city":"Larrabee","state_name":"Iowa","lat":42.88549,"lng":-95.5414,"zip":"51029","miles_from_dt":15.02},{"city":"Kingsley","state_name":"Iowa","lat":42.59909,"lng":-95.99199,"zip":"51028","miles_from_dt":15.89},{"city":"Alton","state_name":"Iowa","lat":42.98355,"lng":-95.98642,"zip":"51003","miles_from_dt":16.88},{"city":"Calumet","state_name":"Iowa","lat":42.94499,"lng":-95.55142,"zip":"51009","miles_from_dt":16.98},{"city":"Le Mars","state_name":"Iowa","lat":42.80282,"lng":-96.18092,"zip":"51031","miles_from_dt":19.4},{"city":"Aurelia","state_name":"Iowa","lat":42.72044,"lng":-95.42405,"zip":"51005","miles_from_dt":19.6},{"city":"Hospers","state_name":"Iowa","lat":43.0758,"lng":-95.89071,"zip":"51238","miles_from_dt":20.87},{"city":"Correctionville","state_name":"Iowa","lat":42.46907,"lng":-95.80113,"zip":"51016","miles_from_dt":21.52},{"city":"Sutherland","state_name":"Iowa","lat":42.98367,"lng":-95.46879,"zip":"51058","miles_from_dt":21.9},{"city":"Orange City","state_name":"Iowa","lat":43.02443,"lng":-96.07701,"zip":"51041","miles_from_dt":21.9},{"city":"Archer","state_name":"Iowa","lat":43.10567,"lng":-95.74131,"zip":"51231","miles_from_dt":22.62},{"city":"Primghar","state_name":"Iowa","lat":43.07788,"lng":-95.60149,"zip":"51245","miles_from_dt":22.85},{"city":"Holstein","state_name":"Iowa","lat":42.4973,"lng":-95.55853,"zip":"51025","miles_from_dt":23.13},{"city":"Maurice","state_name":"Iowa","lat":42.97074,"lng":-96.18938,"zip":"51036","miles_from_dt":23.7},{"city":"Cushing","state_name":"Iowa","lat":42.44884,"lng":-95.67814,"zip":"51018","miles_from_dt":23.75},{"city":"Brunsville","state_name":"Iowa","lat":42.81127,"lng":-96.26724,"zip":"51008","miles_from_dt":23.82},{"city":"Peterson","state_name":"Iowa","lat":42.93523,"lng":-95.35752,"zip":"51047","miles_from_dt":24.89},{"city":"Alta","state_name":"Iowa","lat":42.69859,"lng":-95.31863,"zip":"51002","miles_from_dt":25.17},{"city":"Moville","state_name":"Iowa","lat":42.45655,"lng":-96.05381,"zip":"51039","miles_from_dt":25.84},{"city":"Hinton","state_name":"Iowa","lat":42.6201,"lng":-96.26564,"zip":"51024","miles_from_dt":26.15},{"city":"Merrill","state_name":"Iowa","lat":42.7056,"lng":-96.31569,"zip":"51038","miles_from_dt":26.72},{"city":"Galva","state_name":"Iowa","lat":42.51215,"lng":-95.41249,"zip":"51020","miles_from_dt":27.11},{"city":"Lawton","state_name":"Iowa","lat":42.49791,"lng":-96.19365,"zip":"51030","miles_from_dt":27.98},{"city":"Sheldon","state_name":"Iowa","lat":43.18331,"lng":-95.8657,"zip":"51201","miles_from_dt":27.98},{"city":"Anthon","state_name":"Iowa","lat":42.3762,"lng":-95.916,"zip":"51004","miles_from_dt":28.55},{"city":"Linn Grove","state_name":"Iowa","lat":42.91653,"lng":-95.25324,"zip":"51033","miles_from_dt":29.33},{"city":"Sioux Center","state_name":"Iowa","lat":43.08437,"lng":-96.21232,"zip":"51250","miles_from_dt":29.58},{"city":"Ireton","state_name":"Iowa","lat":42.96575,"lng":-96.32791,"zip":"51027","miles_from_dt":29.66}],"targetCityZipCode":"51035","targetCityState":"Iowa"},"__N_SSG":true}