{"pageProps":{"stateName":"Iowa","cityName":"mechanicsville","nearbyCities":[{"city":"Lisbon","state_name":"Iowa","lat":41.89713,"lng":-91.35154,"zip":"52253","miles_from_dt":5.08},{"city":"Stanwood","state_name":"Iowa","lat":41.88217,"lng":-91.14282,"zip":"52337","miles_from_dt":5.77},{"city":"Morley","state_name":"Iowa","lat":42.00617,"lng":-91.24526,"zip":"52312","miles_from_dt":7.53},{"city":"Olin","state_name":"Iowa","lat":41.99997,"lng":-91.14643,"zip":"52320","miles_from_dt":8.96},{"city":"Martelle","state_name":"Iowa","lat":42.01801,"lng":-91.34207,"zip":"52305","miles_from_dt":9.51},{"city":"Mount Vernon","state_name":"Iowa","lat":41.93439,"lng":-91.44985,"zip":"52314","miles_from_dt":10.47},{"city":"Clarence","state_name":"Iowa","lat":41.89321,"lng":-91.0431,"zip":"52216","miles_from_dt":10.83},{"city":"Tipton","state_name":"Iowa","lat":41.75006,"lng":-91.14083,"zip":"52772","miles_from_dt":11.69},{"city":"Solon","state_name":"Iowa","lat":41.80376,"lng":-91.48685,"zip":"52333","miles_from_dt":13.69},{"city":"West Branch","state_name":"Iowa","lat":41.69644,"lng":-91.32097,"zip":"52358","miles_from_dt":14.3},{"city":"Lowden","state_name":"Iowa","lat":41.86294,"lng":-90.96129,"zip":"52255","miles_from_dt":15.23},{"city":"Springville","state_name":"Iowa","lat":42.0689,"lng":-91.44111,"zip":"52336","miles_from_dt":15.3},{"city":"Anamosa","state_name":"Iowa","lat":42.11754,"lng":-91.28806,"zip":"52205","miles_from_dt":15.31},{"city":"Ely","state_name":"Iowa","lat":41.89647,"lng":-91.5626,"zip":"52227","miles_from_dt":15.97},{"city":"Oxford Junction","state_name":"Iowa","lat":41.98445,"lng":-90.95344,"zip":"52323","miles_from_dt":16.56},{"city":"Center Junction","state_name":"Iowa","lat":42.10954,"lng":-91.08929,"zip":"52212","miles_from_dt":16.9},{"city":"Wyoming","state_name":"Iowa","lat":42.05881,"lng":-91.00258,"zip":"52362","miles_from_dt":17.05},{"city":"Cedar Rapids","state_name":"Iowa","lat":41.96813,"lng":-91.57964,"zip":"52403","miles_from_dt":17.53},{"city":"Bennett","state_name":"Iowa","lat":41.75588,"lng":-90.9633,"zip":"52721","miles_from_dt":17.86},{"city":"Iowa City","state_name":"Iowa","lat":41.68504,"lng":-91.51708,"zip":"52244","miles_from_dt":20.02},{"city":"Marion","state_name":"Iowa","lat":42.0656,"lng":-91.57091,"zip":"52302","miles_from_dt":20.08},{"city":"Iowa City","state_name":"Iowa","lat":41.67071,"lng":-91.50666,"zip":"52245","miles_from_dt":20.4},{"city":"Langworthy","state_name":"Iowa","lat":42.19712,"lng":-91.22727,"zip":"52252","miles_from_dt":20.74},{"city":"Wheatland","state_name":"Iowa","lat":41.84739,"lng":-90.85529,"zip":"52777","miles_from_dt":20.8},{"city":"Cedar Rapids","state_name":"Iowa","lat":42.00587,"lng":-91.64172,"zip":"52497","miles_from_dt":21.38},{"city":"Cedar Rapids","state_name":"Iowa","lat":41.97494,"lng":-91.6551,"zip":"52499","miles_from_dt":21.41},{"city":"Cedar Rapids","state_name":"Iowa","lat":41.97584,"lng":-91.65536,"zip":"52407","miles_from_dt":21.43},{"city":"Cedar Rapids","state_name":"Iowa","lat":41.97534,"lng":-91.65871,"zip":"52401","miles_from_dt":21.59},{"city":"North Liberty","state_name":"Iowa","lat":41.76277,"lng":-91.63142,"zip":"52317","miles_from_dt":21.63},{"city":"Atalissa","state_name":"Iowa","lat":41.59064,"lng":-91.16578,"zip":"52720","miles_from_dt":21.64},{"city":"Onslow","state_name":"Iowa","lat":42.14168,"lng":-90.98307,"zip":"52321","miles_from_dt":21.85},{"city":"West Liberty","state_name":"Iowa","lat":41.5795,"lng":-91.275,"zip":"52776","miles_from_dt":21.96},{"city":"Cedar Rapids","state_name":"Iowa","lat":41.9199,"lng":-91.67799,"zip":"52406","miles_from_dt":21.97},{"city":"Iowa City","state_name":"Iowa","lat":41.66195,"lng":-91.54317,"zip":"52242","miles_from_dt":22.1},{"city":"Iowa City","state_name":"Iowa","lat":41.6566,"lng":-91.53555,"zip":"52243","miles_from_dt":22.11},{"city":"Iowa City","state_name":"Iowa","lat":41.63143,"lng":-91.49924,"zip":"52240","miles_from_dt":22.33},{"city":"Monticello","state_name":"Iowa","lat":42.21983,"lng":-91.19737,"zip":"52310","miles_from_dt":22.44},{"city":"Coralville","state_name":"Iowa","lat":41.69708,"lng":-91.59746,"zip":"52241","miles_from_dt":22.53},{"city":"Cedar Rapids","state_name":"Iowa","lat":42.02126,"lng":-91.65851,"zip":"52410","miles_from_dt":22.58},{"city":"Cedar Rapids","state_name":"Iowa","lat":41.92153,"lng":-91.69077,"zip":"52404","miles_from_dt":22.63},{"city":"Cedar Rapids","state_name":"Iowa","lat":42.02272,"lng":-91.66001,"zip":"52402","miles_from_dt":22.69},{"city":"Cedar Rapids","state_name":"Iowa","lat":42.02179,"lng":-91.66109,"zip":"52498","miles_from_dt":22.71},{"city":"New Liberty","state_name":"Iowa","lat":41.72182,"lng":-90.87274,"zip":"52765","miles_from_dt":23.07},{"city":"Moscow","state_name":"Iowa","lat":41.58255,"lng":-91.09853,"zip":"52760","miles_from_dt":23.14},{"city":"Lost Nation","state_name":"Iowa","lat":41.95232,"lng":-90.80538,"zip":"52254","miles_from_dt":23.38},{"city":"Wilton","state_name":"Iowa","lat":41.61115,"lng":-91.00066,"zip":"52778","miles_from_dt":23.66},{"city":"Swisher","state_name":"Iowa","lat":41.82904,"lng":-91.70858,"zip":"52338","miles_from_dt":23.97},{"city":"Central City","state_name":"Iowa","lat":42.19056,"lng":-91.50704,"zip":"52214","miles_from_dt":24.09},{"city":"Robins","state_name":"Iowa","lat":42.07195,"lng":-91.66641,"zip":"52328","miles_from_dt":24.47},{"city":"Monmouth","state_name":"Iowa","lat":42.12415,"lng":-90.88733,"zip":"52309","miles_from_dt":24.48},{"city":"Cedar Rapids","state_name":"Iowa","lat":41.9879,"lng":-91.71311,"zip":"52408","miles_from_dt":24.52},{"city":"Cedar Rapids","state_name":"Iowa","lat":41.98957,"lng":-91.71433,"zip":"52409","miles_from_dt":24.61},{"city":"Iowa City","state_name":"Iowa","lat":41.64903,"lng":-91.59718,"zip":"52246","miles_from_dt":24.69},{"city":"Hiawatha","state_name":"Iowa","lat":42.04934,"lng":-91.68732,"zip":"52233","miles_from_dt":24.71},{"city":"Prairieburg","state_name":"Iowa","lat":42.23758,"lng":-91.42576,"zip":"52219","miles_from_dt":25.11},{"city":"Baldwin","state_name":"Iowa","lat":42.09286,"lng":-90.83,"zip":"52207","miles_from_dt":25.62},{"city":"Tiffin","state_name":"Iowa","lat":41.70615,"lng":-91.68019,"zip":"52340","miles_from_dt":25.71},{"city":"Cedar Rapids","state_name":"Iowa","lat":41.98644,"lng":-91.74774,"zip":"52405","miles_from_dt":26.23},{"city":"Cedar Rapids","state_name":"Iowa","lat":42.05093,"lng":-91.72723,"zip":"52411","miles_from_dt":26.63},{"city":"Alburnett","state_name":"Iowa","lat":42.15836,"lng":-91.63792,"zip":"52202","miles_from_dt":26.78},{"city":"Hills","state_name":"Iowa","lat":41.57024,"lng":-91.53281,"zip":"52235","miles_from_dt":26.81},{"city":"Calamus","state_name":"Iowa","lat":41.80063,"lng":-90.74312,"zip":"52729","miles_from_dt":27.14},{"city":"Durant","state_name":"Iowa","lat":41.59758,"lng":-90.91147,"zip":"52747","miles_from_dt":27.19},{"city":"Fairfax","state_name":"Iowa","lat":41.90282,"lng":-91.79132,"zip":"52228","miles_from_dt":27.76},{"city":"Dixon","state_name":"Iowa","lat":41.71502,"lng":-90.75783,"zip":"52745","miles_from_dt":28.49},{"city":"Toddville","state_name":"Iowa","lat":42.10535,"lng":-91.7341,"zip":"52341","miles_from_dt":28.63},{"city":"Stockton","state_name":"Iowa","lat":41.60836,"lng":-90.8416,"zip":"52769","miles_from_dt":29.15},{"city":"Cascade","state_name":"Iowa","lat":42.27941,"lng":-91.00177,"zip":"52033","miles_from_dt":29.37},{"city":"Grand Mound","state_name":"Iowa","lat":41.8519,"lng":-90.68398,"zip":"52751","miles_from_dt":29.52},{"city":"Oxford","state_name":"Iowa","lat":41.69221,"lng":-91.76284,"zip":"52322","miles_from_dt":29.9},{"city":"Nichols","state_name":"Iowa","lat":41.46407,"lng":-91.30061,"zip":"52766","miles_from_dt":30}],"targetCityZipCode":"52306","targetCityState":"Iowa"},"__N_SSG":true}