{"pageProps":{"stateName":"Iowa","cityName":"pierson","nearbyCities":[{"city":"Kingsley","state_name":"Iowa","lat":42.59909,"lng":-95.99199,"zip":"51028","miles_from_dt":6.66},{"city":"Washta","state_name":"Iowa","lat":42.57983,"lng":-95.72036,"zip":"51061","miles_from_dt":7.33},{"city":"Correctionville","state_name":"Iowa","lat":42.46907,"lng":-95.80113,"zip":"51016","miles_from_dt":8.28},{"city":"Quimby","state_name":"Iowa","lat":42.63005,"lng":-95.64463,"zip":"51049","miles_from_dt":11.72},{"city":"Moville","state_name":"Iowa","lat":42.45655,"lng":-96.05381,"zip":"51039","miles_from_dt":12.88},{"city":"Cushing","state_name":"Iowa","lat":42.44884,"lng":-95.67814,"zip":"51018","miles_from_dt":13.1},{"city":"Marcus","state_name":"Iowa","lat":42.78086,"lng":-95.80054,"zip":"51035","miles_from_dt":14.26},{"city":"Anthon","state_name":"Iowa","lat":42.3762,"lng":-95.916,"zip":"51004","miles_from_dt":14.29},{"city":"Remsen","state_name":"Iowa","lat":42.79545,"lng":-95.94772,"zip":"51050","miles_from_dt":15.49},{"city":"Cleghorn","state_name":"Iowa","lat":42.78428,"lng":-95.71155,"zip":"51014","miles_from_dt":16.12},{"city":"Holstein","state_name":"Iowa","lat":42.4973,"lng":-95.55853,"zip":"51025","miles_from_dt":16.6},{"city":"Lawton","state_name":"Iowa","lat":42.49791,"lng":-96.19365,"zip":"51030","miles_from_dt":17.74},{"city":"Cherokee","state_name":"Iowa","lat":42.74474,"lng":-95.56171,"zip":"51012","miles_from_dt":19.16},{"city":"Oyens","state_name":"Iowa","lat":42.82019,"lng":-96.05772,"zip":"51045","miles_from_dt":19.31},{"city":"Oto","state_name":"Iowa","lat":42.30113,"lng":-95.91716,"zip":"51044","miles_from_dt":19.41},{"city":"Climbing Hill","state_name":"Iowa","lat":42.33936,"lng":-96.08107,"zip":"51015","miles_from_dt":19.95},{"city":"Meriden","state_name":"Iowa","lat":42.82567,"lng":-95.64269,"zip":"51037","miles_from_dt":20.38},{"city":"Bronson","state_name":"Iowa","lat":42.40225,"lng":-96.18857,"zip":"51007","miles_from_dt":20.61},{"city":"Hinton","state_name":"Iowa","lat":42.6201,"lng":-96.26564,"zip":"51024","miles_from_dt":20.67},{"city":"Le Mars","state_name":"Iowa","lat":42.80282,"lng":-96.18092,"zip":"51031","miles_from_dt":22.31},{"city":"Danbury","state_name":"Iowa","lat":42.2721,"lng":-95.72615,"zip":"51019","miles_from_dt":22.37},{"city":"Battle Creek","state_name":"Iowa","lat":42.31088,"lng":-95.61299,"zip":"51006","miles_from_dt":22.56},{"city":"Galva","state_name":"Iowa","lat":42.51215,"lng":-95.41249,"zip":"51020","miles_from_dt":23.52},{"city":"Smithland","state_name":"Iowa","lat":42.23443,"lng":-95.95391,"zip":"51056","miles_from_dt":24.27},{"city":"Aurelia","state_name":"Iowa","lat":42.72044,"lng":-95.42405,"zip":"51005","miles_from_dt":24.44},{"city":"Merrill","state_name":"Iowa","lat":42.7056,"lng":-96.31569,"zip":"51038","miles_from_dt":24.6},{"city":"Sioux City","state_name":"Iowa","lat":42.46292,"lng":-96.32,"zip":"51106","miles_from_dt":24.63},{"city":"Sioux City","state_name":"Iowa","lat":42.56625,"lng":-96.34858,"zip":"51108","miles_from_dt":24.73},{"city":"Hornick","state_name":"Iowa","lat":42.24857,"lng":-96.07592,"zip":"51026","miles_from_dt":25.29},{"city":"Brunsville","state_name":"Iowa","lat":42.81127,"lng":-96.26724,"zip":"51008","miles_from_dt":26.02},{"city":"Sioux City","state_name":"Iowa","lat":42.50808,"lng":-96.3671,"zip":"51105","miles_from_dt":26.14},{"city":"Rodney","state_name":"Iowa","lat":42.20443,"lng":-95.96988,"zip":"51051","miles_from_dt":26.46},{"city":"Sioux City","state_name":"Iowa","lat":42.41773,"lng":-96.33961,"zip":"51102","miles_from_dt":26.73},{"city":"Ida Grove","state_name":"Iowa","lat":42.32719,"lng":-95.46724,"zip":"51445","miles_from_dt":26.74},{"city":"Larrabee","state_name":"Iowa","lat":42.88549,"lng":-95.5414,"zip":"51029","miles_from_dt":26.75},{"city":"Granville","state_name":"Iowa","lat":42.97819,"lng":-95.84722,"zip":"51022","miles_from_dt":27.52},{"city":"Salix","state_name":"Iowa","lat":42.31063,"lng":-96.26343,"zip":"51052","miles_from_dt":27.59},{"city":"Sergeant Bluff","state_name":"Iowa","lat":42.37832,"lng":-96.33159,"zip":"51054","miles_from_dt":27.63},{"city":"Sioux City","state_name":"Iowa","lat":42.49413,"lng":-96.39361,"zip":"51101","miles_from_dt":27.67},{"city":"Sioux City","state_name":"Iowa","lat":42.53518,"lng":-96.40389,"zip":"51104","miles_from_dt":27.71},{"city":"Paullina","state_name":"Iowa","lat":42.96621,"lng":-95.67949,"zip":"51046","miles_from_dt":28.29},{"city":"Alton","state_name":"Iowa","lat":42.98355,"lng":-95.98642,"zip":"51003","miles_from_dt":28.57},{"city":"Alta","state_name":"Iowa","lat":42.69859,"lng":-95.31863,"zip":"51002","miles_from_dt":28.99},{"city":"Mapleton","state_name":"Iowa","lat":42.16241,"lng":-95.78947,"zip":"51034","miles_from_dt":29.05},{"city":"Sioux City","state_name":"Iowa","lat":42.41129,"lng":-96.38606,"zip":"51111","miles_from_dt":29.08},{"city":"Calumet","state_name":"Iowa","lat":42.94499,"lng":-95.55142,"zip":"51009","miles_from_dt":29.82},{"city":"Schaller","state_name":"Iowa","lat":42.4938,"lng":-95.28842,"zip":"51053","miles_from_dt":29.98},{"city":"Sioux City","state_name":"Iowa","lat":42.52173,"lng":-96.44642,"zip":"51103","miles_from_dt":29.99}],"targetCityZipCode":"51048","targetCityState":"Iowa"},"__N_SSG":true}