{"pageProps":{"stateName":"Iowa","cityName":"rock-rapids","nearbyCities":[{"city":"Steen","state_name":"Minnesota","lat":43.52505,"lng":-96.24186,"zip":"56173","miles_from_dt":7.74},{"city":"Lester","state_name":"Iowa","lat":43.43227,"lng":-96.33806,"zip":"51242","miles_from_dt":8.68},{"city":"Ellsworth","state_name":"Minnesota","lat":43.52775,"lng":-96.04327,"zip":"56129","miles_from_dt":9.25},{"city":"Alvord","state_name":"Iowa","lat":43.3562,"lng":-96.32217,"zip":"51230","miles_from_dt":9.3},{"city":"Doon","state_name":"Iowa","lat":43.29488,"lng":-96.21531,"zip":"51235","miles_from_dt":9.5},{"city":"George","state_name":"Iowa","lat":43.33885,"lng":-96.0005,"zip":"51237","miles_from_dt":10.33},{"city":"Kanaranzi","state_name":"Minnesota","lat":43.58006,"lng":-96.10343,"zip":"56146","miles_from_dt":10.98},{"city":"Hills","state_name":"Minnesota","lat":43.53279,"lng":-96.38348,"zip":"56138","miles_from_dt":13.14},{"city":"Little Rock","state_name":"Iowa","lat":43.4425,"lng":-95.90287,"zip":"51243","miles_from_dt":13.26},{"city":"Larchwood","state_name":"Iowa","lat":43.44992,"lng":-96.46001,"zip":"51241","miles_from_dt":14.89},{"city":"Magnolia","state_name":"Minnesota","lat":43.6337,"lng":-96.07465,"zip":"56158","miles_from_dt":14.94},{"city":"Hull","state_name":"Iowa","lat":43.20238,"lng":-96.14522,"zip":"51239","miles_from_dt":15.58},{"city":"Luverne","state_name":"Minnesota","lat":43.66196,"lng":-96.22466,"zip":"56156","miles_from_dt":16.45},{"city":"Inwood","state_name":"Iowa","lat":43.30986,"lng":-96.45727,"zip":"51240","miles_from_dt":16.79},{"city":"Beaver Creek","state_name":"Minnesota","lat":43.61782,"lng":-96.37893,"zip":"56116","miles_from_dt":16.95},{"city":"Matlock","state_name":"Iowa","lat":43.2443,"lng":-95.93436,"zip":"51244","miles_from_dt":17.21},{"city":"Adrian","state_name":"Minnesota","lat":43.62115,"lng":-95.94093,"zip":"56110","miles_from_dt":17.49},{"city":"Boyden","state_name":"Iowa","lat":43.19412,"lng":-96.01992,"zip":"51234","miles_from_dt":17.72},{"city":"Rock Valley","state_name":"Iowa","lat":43.19259,"lng":-96.33723,"zip":"51247","miles_from_dt":18.39},{"city":"Valley Springs","state_name":"South Dakota","lat":43.57435,"lng":-96.49361,"zip":"57068","miles_from_dt":19.34},{"city":"Ashton","state_name":"Iowa","lat":43.30097,"lng":-95.8162,"zip":"51232","miles_from_dt":19.65},{"city":"Sibley","state_name":"Iowa","lat":43.41068,"lng":-95.73203,"zip":"51249","miles_from_dt":21.85},{"city":"Rushmore","state_name":"Minnesota","lat":43.61552,"lng":-95.80358,"zip":"56168","miles_from_dt":22.34},{"city":"Sheldon","state_name":"Iowa","lat":43.18331,"lng":-95.8657,"zip":"51201","miles_from_dt":22.65},{"city":"Kenneth","state_name":"Minnesota","lat":43.75726,"lng":-96.05985,"zip":"56147","miles_from_dt":23.37},{"city":"Fairview","state_name":"South Dakota","lat":43.19461,"lng":-96.50933,"zip":"57027","miles_from_dt":23.64},{"city":"Sioux Center","state_name":"Iowa","lat":43.08437,"lng":-96.21232,"zip":"51250","miles_from_dt":23.81},{"city":"Brandon","state_name":"South Dakota","lat":43.59281,"lng":-96.58728,"zip":"57005","miles_from_dt":24.06},{"city":"Canton","state_name":"South Dakota","lat":43.28595,"lng":-96.62178,"zip":"57013","miles_from_dt":24.97},{"city":"Bigelow","state_name":"Minnesota","lat":43.52662,"lng":-95.68607,"zip":"56117","miles_from_dt":25.06},{"city":"Sioux Falls","state_name":"South Dakota","lat":43.54445,"lng":-96.63812,"zip":"57110","miles_from_dt":25.08},{"city":"Hardwick","state_name":"Minnesota","lat":43.78956,"lng":-96.23126,"zip":"56134","miles_from_dt":25.2},{"city":"Lismore","state_name":"Minnesota","lat":43.76707,"lng":-95.94117,"zip":"56155","miles_from_dt":26},{"city":"Harrisburg","state_name":"South Dakota","lat":43.42326,"lng":-96.68708,"zip":"57032","miles_from_dt":26.24},{"city":"Sioux Falls","state_name":"South Dakota","lat":43.47776,"lng":-96.70571,"zip":"57108","miles_from_dt":27.38},{"city":"Sioux Falls","state_name":"South Dakota","lat":43.538,"lng":-96.69241,"zip":"57103","miles_from_dt":27.55},{"city":"Hospers","state_name":"Iowa","lat":43.0758,"lng":-95.89071,"zip":"51238","miles_from_dt":27.97},{"city":"Garretson","state_name":"South Dakota","lat":43.73435,"lng":-96.53549,"zip":"57030","miles_from_dt":28.16},{"city":"Orange City","state_name":"Iowa","lat":43.02443,"lng":-96.07701,"zip":"51041","miles_from_dt":28.19},{"city":"Sioux Falls","state_name":"South Dakota","lat":43.55,"lng":-96.70219,"zip":"57186","miles_from_dt":28.26},{"city":"Hudson","state_name":"South Dakota","lat":43.12493,"lng":-96.54575,"zip":"57034","miles_from_dt":28.36},{"city":"Leota","state_name":"Minnesota","lat":43.83012,"lng":-96.01506,"zip":"56153","miles_from_dt":28.79},{"city":"Sioux Falls","state_name":"South Dakota","lat":43.54555,"lng":-96.72077,"zip":"57193","miles_from_dt":29.07},{"city":"Sioux Falls","state_name":"South Dakota","lat":43.52125,"lng":-96.73587,"zip":"57105","miles_from_dt":29.39},{"city":"Sioux Falls","state_name":"South Dakota","lat":43.52054,"lng":-96.73836,"zip":"57109","miles_from_dt":29.5},{"city":"Sioux Falls","state_name":"South Dakota","lat":43.52455,"lng":-96.73862,"zip":"57197","miles_from_dt":29.57},{"city":"Sioux Falls","state_name":"South Dakota","lat":43.60131,"lng":-96.70485,"zip":"57101","miles_from_dt":29.63},{"city":"Sioux Falls","state_name":"South Dakota","lat":43.6041,"lng":-96.70442,"zip":"57104","miles_from_dt":29.68},{"city":"Melvin","state_name":"Iowa","lat":43.30752,"lng":-95.59827,"zip":"51350","miles_from_dt":29.75},{"city":"Sioux Falls","state_name":"South Dakota","lat":43.60478,"lng":-96.70697,"zip":"57118","miles_from_dt":29.82},{"city":"Sanborn","state_name":"Iowa","lat":43.20445,"lng":-95.65911,"zip":"51248","miles_from_dt":29.82}],"targetCityZipCode":"51246","targetCityState":"Iowa"},"__N_SSG":true}