{"pageProps":{"stateName":"Iowa","cityName":"tingley","nearbyCities":[{"city":"Ellston","state_name":"Iowa","lat":40.85685,"lng":-94.07524,"zip":"50074","miles_from_dt":5.18},{"city":"Shannon City","state_name":"Iowa","lat":40.91163,"lng":-94.25685,"zip":"50861","miles_from_dt":6.25},{"city":"Arispe","state_name":"Iowa","lat":40.94938,"lng":-94.22341,"zip":"50831","miles_from_dt":7.54},{"city":"Diagonal","state_name":"Iowa","lat":40.81683,"lng":-94.3523,"zip":"50845","miles_from_dt":9.62},{"city":"Kellerton","state_name":"Iowa","lat":40.71592,"lng":-94.07576,"zip":"50133","miles_from_dt":10.39},{"city":"Mount Ayr","state_name":"Iowa","lat":40.69089,"lng":-94.21977,"zip":"50854","miles_from_dt":11.05},{"city":"Thayer","state_name":"Iowa","lat":40.99045,"lng":-94.06917,"zip":"50254","miles_from_dt":11.3},{"city":"Grand River","state_name":"Iowa","lat":40.82479,"lng":-93.9577,"zip":"50108","miles_from_dt":11.4},{"city":"Afton","state_name":"Iowa","lat":41.0242,"lng":-94.19037,"zip":"50830","miles_from_dt":12.26},{"city":"Benton","state_name":"Iowa","lat":40.70769,"lng":-94.3675,"zip":"50835","miles_from_dt":14.01},{"city":"Clearfield","state_name":"Iowa","lat":40.79378,"lng":-94.48413,"zip":"50840","miles_from_dt":16.71},{"city":"Murray","state_name":"Iowa","lat":41.03723,"lng":-93.96167,"zip":"50174","miles_from_dt":17.17},{"city":"Lamoni","state_name":"Iowa","lat":40.63753,"lng":-93.99198,"zip":"50140","miles_from_dt":17.3},{"city":"Redding","state_name":"Iowa","lat":40.62253,"lng":-94.34949,"zip":"50860","miles_from_dt":18.04},{"city":"Van Wert","state_name":"Iowa","lat":40.85625,"lng":-93.82091,"zip":"50262","miles_from_dt":18.47},{"city":"Decatur","state_name":"Iowa","lat":40.70452,"lng":-93.85914,"zip":"50067","miles_from_dt":19.18},{"city":"Lenox","state_name":"Iowa","lat":40.90327,"lng":-94.53637,"zip":"50851","miles_from_dt":19.42},{"city":"Creston","state_name":"Iowa","lat":41.07959,"lng":-94.39224,"zip":"50801","miles_from_dt":19.72},{"city":"Cromwell","state_name":"Iowa","lat":41.03991,"lng":-94.4618,"zip":"50842","miles_from_dt":20.13},{"city":"Lorimor","state_name":"Iowa","lat":41.1512,"lng":-94.08194,"zip":"50149","miles_from_dt":21.53},{"city":"Hatfield","state_name":"Missouri","lat":40.52246,"lng":-94.14491,"zip":"64458","miles_from_dt":22.44},{"city":"Blockton","state_name":"Iowa","lat":40.63116,"lng":-94.49689,"zip":"50836","miles_from_dt":22.59},{"city":"Leon","state_name":"Iowa","lat":40.73327,"lng":-93.73615,"zip":"50144","miles_from_dt":24.23},{"city":"Osceola","state_name":"Iowa","lat":41.03292,"lng":-93.76557,"zip":"50213","miles_from_dt":24.89},{"city":"Weldon","state_name":"Iowa","lat":40.89919,"lng":-93.70071,"zip":"50264","miles_from_dt":25.01},{"city":"Sharpsburg","state_name":"Iowa","lat":40.81304,"lng":-94.65136,"zip":"50862","miles_from_dt":25.17},{"city":"Macksburg","state_name":"Iowa","lat":41.21288,"lng":-94.19713,"zip":"50155","miles_from_dt":25.28},{"city":"Eagleville","state_name":"Missouri","lat":40.49935,"lng":-94.00645,"zip":"64442","miles_from_dt":25.54},{"city":"Allendale","state_name":"Missouri","lat":40.48645,"lng":-94.2892,"zip":"64420","miles_from_dt":25.62},{"city":"Davis City","state_name":"Iowa","lat":40.60859,"lng":-93.78089,"zip":"50065","miles_from_dt":26.36},{"city":"Grant City","state_name":"Missouri","lat":40.49433,"lng":-94.38733,"zip":"64456","miles_from_dt":26.81},{"city":"Prescott","state_name":"Iowa","lat":41.06505,"lng":-94.60027,"zip":"50859","miles_from_dt":26.94},{"city":"Orient","state_name":"Iowa","lat":41.20961,"lng":-94.40902,"zip":"50858","miles_from_dt":27.89},{"city":"Peru","state_name":"Iowa","lat":41.21701,"lng":-93.95369,"zip":"50222","miles_from_dt":27.99},{"city":"Blythedale","state_name":"Missouri","lat":40.51747,"lng":-93.86158,"zip":"64426","miles_from_dt":28.02},{"city":"Truro","state_name":"Iowa","lat":41.19092,"lng":-93.85048,"zip":"50257","miles_from_dt":29.11},{"city":"Garden Grove","state_name":"Iowa","lat":40.79292,"lng":-93.61079,"zip":"50103","miles_from_dt":29.72}],"targetCityZipCode":"50863","targetCityState":"Iowa"},"__N_SSG":true}