{"pageProps":{"stateName":"Iowa","cityName":"zwingle","nearbyCities":[{"city":"La Motte","state_name":"Iowa","lat":42.30569,"lng":-90.62811,"zip":"52054","miles_from_dt":4.82},{"city":"Bernard","state_name":"Iowa","lat":42.29006,"lng":-90.84317,"zip":"52032","miles_from_dt":6.36},{"city":"Dubuque","state_name":"Iowa","lat":42.43434,"lng":-90.67506,"zip":"52003","miles_from_dt":10.36},{"city":"Saint Donatus","state_name":"Iowa","lat":42.36245,"lng":-90.54234,"zip":"52071","miles_from_dt":10.42},{"city":"Peosta","state_name":"Iowa","lat":42.42382,"lng":-90.81128,"zip":"52068","miles_from_dt":10.51},{"city":"Andrew","state_name":"Iowa","lat":42.15322,"lng":-90.59219,"zip":"52030","miles_from_dt":11.34},{"city":"Bellevue","state_name":"Iowa","lat":42.24874,"lng":-90.48922,"zip":"52031","miles_from_dt":12.09},{"city":"Maquoketa","state_name":"Iowa","lat":42.10217,"lng":-90.67961,"zip":"52060","miles_from_dt":12.97},{"city":"Monmouth","state_name":"Iowa","lat":42.12415,"lng":-90.88733,"zip":"52309","miles_from_dt":14.22},{"city":"Cascade","state_name":"Iowa","lat":42.27941,"lng":-91.00177,"zip":"52033","miles_from_dt":14.5},{"city":"Dubuque","state_name":"Iowa","lat":42.49588,"lng":-90.66751,"zip":"52099","miles_from_dt":14.6},{"city":"Baldwin","state_name":"Iowa","lat":42.09286,"lng":-90.83,"zip":"52207","miles_from_dt":14.61},{"city":"Dubuque","state_name":"Iowa","lat":42.5001,"lng":-90.66775,"zip":"52004","miles_from_dt":14.89},{"city":"Springbrook","state_name":"Iowa","lat":42.16577,"lng":-90.47916,"zip":"52075","miles_from_dt":14.91},{"city":"East Dubuque","state_name":"Illinois","lat":42.46958,"lng":-90.55904,"zip":"61025","miles_from_dt":14.98},{"city":"Epworth","state_name":"Iowa","lat":42.45485,"lng":-90.93113,"zip":"52045","miles_from_dt":15.83},{"city":"Dubuque","state_name":"Iowa","lat":42.52481,"lng":-90.77184,"zip":"52002","miles_from_dt":16.58},{"city":"Onslow","state_name":"Iowa","lat":42.14168,"lng":-90.98307,"zip":"52321","miles_from_dt":16.89},{"city":"Spragueville","state_name":"Iowa","lat":42.10966,"lng":-90.4724,"zip":"52074","miles_from_dt":17.65},{"city":"Dubuque","state_name":"Iowa","lat":42.54819,"lng":-90.69348,"zip":"52001","miles_from_dt":18.02},{"city":"Farley","state_name":"Iowa","lat":42.44024,"lng":-91.0119,"zip":"52046","miles_from_dt":18.31},{"city":"Durango","state_name":"Iowa","lat":42.53807,"lng":-90.85745,"zip":"52039","miles_from_dt":18.67},{"city":"Galena","state_name":"Illinois","lat":42.4172,"lng":-90.39816,"zip":"61036","miles_from_dt":18.7},{"city":"Sinsinawa","state_name":"Wisconsin","lat":42.52378,"lng":-90.53785,"zip":"53824","miles_from_dt":18.74},{"city":"Hazel Green","state_name":"Wisconsin","lat":42.53576,"lng":-90.51541,"zip":"53811","miles_from_dt":20.04},{"city":"Hanover","state_name":"Illinois","lat":42.272,"lng":-90.3202,"zip":"61041","miles_from_dt":20.47},{"city":"Kieler","state_name":"Wisconsin","lat":42.5808,"lng":-90.60239,"zip":"53812","miles_from_dt":21.08},{"city":"Wyoming","state_name":"Iowa","lat":42.05881,"lng":-91.00258,"zip":"52362","miles_from_dt":21.49},{"city":"Worthington","state_name":"Iowa","lat":42.39506,"lng":-91.11534,"zip":"52078","miles_from_dt":21.6},{"city":"Preston","state_name":"Iowa","lat":42.05772,"lng":-90.4279,"zip":"52069","miles_from_dt":21.81},{"city":"Delmar","state_name":"Iowa","lat":41.96712,"lng":-90.62899,"zip":"52037","miles_from_dt":22.61},{"city":"Center Junction","state_name":"Iowa","lat":42.10954,"lng":-91.08929,"zip":"52212","miles_from_dt":22.64},{"city":"Lost Nation","state_name":"Iowa","lat":41.95232,"lng":-90.80538,"zip":"52254","miles_from_dt":23.58},{"city":"Sherrill","state_name":"Iowa","lat":42.62331,"lng":-90.82069,"zip":"52073","miles_from_dt":23.73},{"city":"Oxford Junction","state_name":"Iowa","lat":41.98445,"lng":-90.95344,"zip":"52323","miles_from_dt":24.15},{"city":"Monticello","state_name":"Iowa","lat":42.21983,"lng":-91.19737,"zip":"52310","miles_from_dt":24.97},{"city":"Dickeyville","state_name":"Wisconsin","lat":42.63745,"lng":-90.59204,"zip":"53808","miles_from_dt":24.99},{"city":"Miles","state_name":"Iowa","lat":42.08977,"lng":-90.31076,"zip":"52064","miles_from_dt":25.02},{"city":"Charlotte","state_name":"Iowa","lat":41.96637,"lng":-90.48551,"zip":"52731","miles_from_dt":25.22},{"city":"Holy Cross","state_name":"Iowa","lat":42.60656,"lng":-90.96399,"zip":"52053","miles_from_dt":25.31},{"city":"Cuba City","state_name":"Wisconsin","lat":42.61123,"lng":-90.46668,"zip":"53807","miles_from_dt":25.78},{"city":"Scales Mound","state_name":"Illinois","lat":42.46546,"lng":-90.26444,"zip":"61075","miles_from_dt":26.3},{"city":"Benton","state_name":"Wisconsin","lat":42.55915,"lng":-90.35508,"zip":"53803","miles_from_dt":26.41},{"city":"Dyersville","state_name":"Iowa","lat":42.51114,"lng":-91.13884,"zip":"52040","miles_from_dt":26.43},{"city":"Langworthy","state_name":"Iowa","lat":42.19712,"lng":-91.22727,"zip":"52252","miles_from_dt":26.8},{"city":"Welton","state_name":"Iowa","lat":41.90743,"lng":-90.59596,"zip":"52774","miles_from_dt":27.01},{"city":"Hopkinton","state_name":"Iowa","lat":42.34368,"lng":-91.25193,"zip":"52237","miles_from_dt":27.57},{"city":"Elizabeth","state_name":"Illinois","lat":42.29366,"lng":-90.16935,"zip":"61028","miles_from_dt":28.17},{"city":"Potosi","state_name":"Wisconsin","lat":42.69649,"lng":-90.70984,"zip":"53820","miles_from_dt":28.21},{"city":"New Vienna","state_name":"Iowa","lat":42.58353,"lng":-91.10202,"zip":"52065","miles_from_dt":28.28},{"city":"Luxemburg","state_name":"Iowa","lat":42.60401,"lng":-91.07257,"zip":"52056","miles_from_dt":28.34},{"city":"Sabula","state_name":"Iowa","lat":42.08146,"lng":-90.21771,"zip":"52070","miles_from_dt":29.41},{"city":"Olin","state_name":"Iowa","lat":41.99997,"lng":-91.14643,"zip":"52320","miles_from_dt":29.61},{"city":"Goose Lake","state_name":"Iowa","lat":41.933,"lng":-90.39302,"zip":"52750","miles_from_dt":29.67}],"targetCityZipCode":"52079","targetCityState":"Iowa"},"__N_SSG":true}