{"pageProps":{"stateName":"Illinois","cityName":"belvidere","nearbyCities":[{"city":"Garden Prairie","state_name":"Illinois","lat":42.26344,"lng":-88.73586,"zip":"61038","miles_from_dt":5.45},{"city":"Cherry Valley","state_name":"Illinois","lat":42.19761,"lng":-88.94704,"zip":"61016","miles_from_dt":6.44},{"city":"Rockford","state_name":"Illinois","lat":42.24193,"lng":-88.97523,"zip":"61112","miles_from_dt":6.97},{"city":"Rockford","state_name":"Illinois","lat":42.25515,"lng":-89.00236,"zip":"61108","miles_from_dt":8.38},{"city":"Rockford","state_name":"Illinois","lat":42.28344,"lng":-89.00348,"zip":"61107","miles_from_dt":8.8},{"city":"Rockford","state_name":"Illinois","lat":42.30854,"lng":-88.9892,"zip":"61114","miles_from_dt":8.81},{"city":"Rockford","state_name":"Illinois","lat":42.23736,"lng":-89.01238,"zip":"61125","miles_from_dt":8.89},{"city":"Rockford","state_name":"Illinois","lat":42.25363,"lng":-89.01795,"zip":"61126","miles_from_dt":9.17},{"city":"Loves Park","state_name":"Illinois","lat":42.32593,"lng":-89.00394,"zip":"61130","miles_from_dt":10.08},{"city":"Kirkland","state_name":"Illinois","lat":42.10091,"lng":-88.88019,"zip":"60146","miles_from_dt":10.22},{"city":"Loves Park","state_name":"Illinois","lat":42.33538,"lng":-89.00369,"zip":"61111","miles_from_dt":10.44},{"city":"Caledonia","state_name":"Illinois","lat":42.38926,"lng":-88.91266,"zip":"61011","miles_from_dt":10.59},{"city":"Loves Park","state_name":"Illinois","lat":42.35191,"lng":-88.99591,"zip":"61131","miles_from_dt":10.86},{"city":"Loves Park","state_name":"Illinois","lat":42.35218,"lng":-88.9962,"zip":"61132","miles_from_dt":10.88},{"city":"Kingston","state_name":"Illinois","lat":42.09396,"lng":-88.77719,"zip":"60145","miles_from_dt":10.96},{"city":"Marengo","state_name":"Illinois","lat":42.23882,"lng":-88.62597,"zip":"60152","miles_from_dt":10.96},{"city":"Poplar Grove","state_name":"Illinois","lat":42.40786,"lng":-88.82747,"zip":"61065","miles_from_dt":11.2},{"city":"Rockford","state_name":"Illinois","lat":42.1924,"lng":-89.05392,"zip":"61109","miles_from_dt":11.6},{"city":"Rockford","state_name":"Illinois","lat":42.27183,"lng":-89.06462,"zip":"61106","miles_from_dt":11.68},{"city":"Capron","state_name":"Illinois","lat":42.40749,"lng":-88.75446,"zip":"61012","miles_from_dt":11.98},{"city":"Rockford","state_name":"Illinois","lat":42.25186,"lng":-89.07911,"zip":"61104","miles_from_dt":12.29},{"city":"Genoa","state_name":"Illinois","lat":42.11265,"lng":-88.67867,"zip":"60135","miles_from_dt":12.35},{"city":"Monroe Center","state_name":"Illinois","lat":42.11146,"lng":-89.00011,"zip":"61052","miles_from_dt":12.41},{"city":"Rockford","state_name":"Illinois","lat":42.26748,"lng":-89.08165,"zip":"61110","miles_from_dt":12.51},{"city":"Machesney Park","state_name":"Illinois","lat":42.36365,"lng":-89.02869,"zip":"61115","miles_from_dt":12.65},{"city":"Rockford","state_name":"Illinois","lat":42.26753,"lng":-89.09836,"zip":"61105","miles_from_dt":13.36},{"city":"Rockford","state_name":"Illinois","lat":42.3453,"lng":-89.08271,"zip":"61103","miles_from_dt":14.23},{"city":"Roscoe","state_name":"Illinois","lat":42.42434,"lng":-88.99346,"zip":"61073","miles_from_dt":14.63},{"city":"Esmond","state_name":"Illinois","lat":42.02963,"lng":-88.95371,"zip":"60129","miles_from_dt":16.03},{"city":"Davis Junction","state_name":"Illinois","lat":42.11035,"lng":-89.09807,"zip":"61020","miles_from_dt":16.24},{"city":"Rockford","state_name":"Illinois","lat":42.22995,"lng":-89.15632,"zip":"61102","miles_from_dt":16.29},{"city":"Lindenwood","state_name":"Illinois","lat":42.04417,"lng":-89.00753,"zip":"61049","miles_from_dt":16.38},{"city":"Union","state_name":"Illinois","lat":42.22342,"lng":-88.52023,"zip":"60180","miles_from_dt":16.45},{"city":"Clare","state_name":"Illinois","lat":42.00721,"lng":-88.83114,"zip":"60111","miles_from_dt":16.47},{"city":"Harvard","state_name":"Illinois","lat":42.42333,"lng":-88.61104,"zip":"60033","miles_from_dt":16.94},{"city":"Rockford","state_name":"Illinois","lat":42.33727,"lng":-89.14725,"zip":"61101","miles_from_dt":16.99},{"city":"South Beloit","state_name":"Illinois","lat":42.47992,"lng":-88.98989,"zip":"61080","miles_from_dt":17.9},{"city":"Holcomb","state_name":"Illinois","lat":42.06676,"lng":-89.10499,"zip":"61043","miles_from_dt":18.4},{"city":"Sycamore","state_name":"Illinois","lat":42.00625,"lng":-88.67205,"zip":"60178","miles_from_dt":18.64},{"city":"Burlington","state_name":"Illinois","lat":42.04448,"lng":-88.56261,"zip":"60109","miles_from_dt":19.88},{"city":"Stillman Valley","state_name":"Illinois","lat":42.11843,"lng":-89.18867,"zip":"61084","miles_from_dt":19.96},{"city":"Woodstock","state_name":"Illinois","lat":42.32468,"lng":-88.45672,"zip":"60098","miles_from_dt":20.36},{"city":"Hampshire","state_name":"Illinois","lat":42.08003,"lng":-88.5086,"zip":"60140","miles_from_dt":20.48},{"city":"Sharon","state_name":"Wisconsin","lat":42.53049,"lng":-88.72056,"zip":"53585","miles_from_dt":20.57},{"city":"Beloit","state_name":"Wisconsin","lat":42.50764,"lng":-89.0322,"zip":"53512","miles_from_dt":20.59},{"city":"Clinton","state_name":"Wisconsin","lat":42.54579,"lng":-88.84907,"zip":"53525","miles_from_dt":20.71},{"city":"Rockton","state_name":"Illinois","lat":42.44661,"lng":-89.14109,"zip":"61072","miles_from_dt":20.75},{"city":"Huntley","state_name":"Illinois","lat":42.17517,"lng":-88.44486,"zip":"60142","miles_from_dt":20.83},{"city":"Winnebago","state_name":"Illinois","lat":42.26995,"lng":-89.25509,"zip":"61088","miles_from_dt":21.37},{"city":"Malta","state_name":"Illinois","lat":41.92106,"lng":-88.88982,"zip":"60150","miles_from_dt":22.56},{"city":"Creston","state_name":"Illinois","lat":41.93142,"lng":-88.96421,"zip":"60113","miles_from_dt":22.62},{"city":"Walworth","state_name":"Wisconsin","lat":42.53075,"lng":-88.60945,"zip":"53184","miles_from_dt":22.92},{"city":"Byron","state_name":"Illinois","lat":42.136,"lng":-89.26751,"zip":"61010","miles_from_dt":23.24},{"city":"Shirland","state_name":"Illinois","lat":42.44681,"lng":-89.20955,"zip":"61079","miles_from_dt":23.48},{"city":"Cortland","state_name":"Illinois","lat":41.92391,"lng":-88.68994,"zip":"60112","miles_from_dt":23.51},{"city":"Rochelle","state_name":"Illinois","lat":41.94928,"lng":-89.0652,"zip":"61068","miles_from_dt":23.52},{"city":"Dekalb","state_name":"Illinois","lat":41.90109,"lng":-88.75469,"zip":"60115","miles_from_dt":24.19},{"city":"Beloit","state_name":"Wisconsin","lat":42.54627,"lng":-89.09792,"zip":"53511","miles_from_dt":24.6},{"city":"Fontana","state_name":"Wisconsin","lat":42.54532,"lng":-88.56216,"zip":"53125","miles_from_dt":25.07},{"city":"Darien","state_name":"Wisconsin","lat":42.60721,"lng":-88.75089,"zip":"53114","miles_from_dt":25.35},{"city":"Chana","state_name":"Illinois","lat":41.99443,"lng":-89.20011,"zip":"61015","miles_from_dt":25.38},{"city":"Lake In The Hills","state_name":"Illinois","lat":42.19121,"lng":-88.34788,"zip":"60156","miles_from_dt":25.5},{"city":"Gilberts","state_name":"Illinois","lat":42.1053,"lng":-88.37808,"zip":"60136","miles_from_dt":25.6},{"city":"Zenda","state_name":"Wisconsin","lat":42.51397,"lng":-88.49016,"zip":"53195","miles_from_dt":25.73},{"city":"Hebron","state_name":"Illinois","lat":42.45869,"lng":-88.42665,"zip":"60034","miles_from_dt":25.74},{"city":"Seward","state_name":"Illinois","lat":42.24012,"lng":-89.34806,"zip":"61077","miles_from_dt":26.08},{"city":"Crystal Lake","state_name":"Illinois","lat":42.22837,"lng":-88.33123,"zip":"60039","miles_from_dt":26.1},{"city":"Crystal Lake","state_name":"Illinois","lat":42.23126,"lng":-88.32679,"zip":"60014","miles_from_dt":26.31},{"city":"Pecatonica","state_name":"Illinois","lat":42.31305,"lng":-89.34691,"zip":"61063","miles_from_dt":26.42},{"city":"Wonder Lake","state_name":"Illinois","lat":42.39343,"lng":-88.36164,"zip":"60097","miles_from_dt":26.51},{"city":"Durand","state_name":"Illinois","lat":42.43629,"lng":-89.29183,"zip":"61024","miles_from_dt":26.63},{"city":"Maple Park","state_name":"Illinois","lat":41.9172,"lng":-88.56613,"zip":"60151","miles_from_dt":26.68},{"city":"Crystal Lake","state_name":"Illinois","lat":42.27199,"lng":-88.31157,"zip":"60012","miles_from_dt":27.13},{"city":"Elgin","state_name":"Illinois","lat":42.02621,"lng":-88.39691,"zip":"60124","miles_from_dt":27.32},{"city":"Williams Bay","state_name":"Wisconsin","lat":42.5776,"lng":-88.54574,"zip":"53191","miles_from_dt":27.39},{"city":"Afton","state_name":"Wisconsin","lat":42.60484,"lng":-89.07165,"zip":"53501","miles_from_dt":27.48},{"city":"Algonquin","state_name":"Illinois","lat":42.16406,"lng":-88.30928,"zip":"60102","miles_from_dt":27.79},{"city":"Janesville","state_name":"Wisconsin","lat":42.65126,"lng":-88.94854,"zip":"53546","miles_from_dt":28.54},{"city":"Mchenry","state_name":"Illinois","lat":42.32915,"lng":-88.29363,"zip":"60050","miles_from_dt":28.56},{"city":"Avalon","state_name":"Wisconsin","lat":42.66063,"lng":-88.8176,"zip":"53505","miles_from_dt":28.66},{"city":"Dundee","state_name":"Illinois","lat":42.10793,"lng":-88.30614,"zip":"60118","miles_from_dt":28.99},{"city":"Leaf River","state_name":"Illinois","lat":42.15305,"lng":-89.39597,"zip":"61047","miles_from_dt":29.27},{"city":"Ringwood","state_name":"Illinois","lat":42.40647,"lng":-88.30637,"zip":"60072","miles_from_dt":29.47},{"city":"Delavan","state_name":"Wisconsin","lat":42.65443,"lng":-88.6713,"zip":"53115","miles_from_dt":29.49},{"city":"Carpentersville","state_name":"Illinois","lat":42.12296,"lng":-88.2883,"zip":"60110","miles_from_dt":29.54},{"city":"Lake Geneva","state_name":"Wisconsin","lat":42.57075,"lng":-88.45024,"zip":"53147","miles_from_dt":29.99}],"targetCityZipCode":"61008","targetCityState":"Illinois"},"__N_SSG":true}