{"pageProps":{"stateName":"Illinois","cityName":"browning","nearbyCities":[{"city":"Astoria","state_name":"Illinois","lat":40.22797,"lng":-90.31233,"zip":"61501","miles_from_dt":5.65},{"city":"Bath","state_name":"Illinois","lat":40.14948,"lng":-90.18109,"zip":"62617","miles_from_dt":8.67},{"city":"Beardstown","state_name":"Illinois","lat":40.00534,"lng":-90.39542,"zip":"62618","miles_from_dt":10.33},{"city":"Frederick","state_name":"Illinois","lat":40.0435,"lng":-90.48753,"zip":"62639","miles_from_dt":10.54},{"city":"Vermont","state_name":"Illinois","lat":40.29696,"lng":-90.44153,"zip":"61484","miles_from_dt":11.36},{"city":"Rushville","state_name":"Illinois","lat":40.13841,"lng":-90.55885,"zip":"62681","miles_from_dt":11.36},{"city":"Bluff Springs","state_name":"Illinois","lat":39.97786,"lng":-90.34302,"zip":"62622","miles_from_dt":11.87},{"city":"Chandlerville","state_name":"Illinois","lat":40.05425,"lng":-90.12887,"zip":"62627","miles_from_dt":13.21},{"city":"Ipava","state_name":"Illinois","lat":40.33957,"lng":-90.29336,"zip":"61441","miles_from_dt":13.36},{"city":"Virginia","state_name":"Illinois","lat":39.95731,"lng":-90.22246,"zip":"62691","miles_from_dt":14.79},{"city":"Table Grove","state_name":"Illinois","lat":40.39362,"lng":-90.40766,"zip":"61482","miles_from_dt":17.14},{"city":"Industry","state_name":"Illinois","lat":40.3079,"lng":-90.59786,"zip":"61440","miles_from_dt":17.26},{"city":"Havana","state_name":"Illinois","lat":40.28553,"lng":-90.06022,"zip":"62644","miles_from_dt":17.72},{"city":"Littleton","state_name":"Illinois","lat":40.23836,"lng":-90.66022,"zip":"61452","miles_from_dt":17.77},{"city":"Arenzville","state_name":"Illinois","lat":39.88493,"lng":-90.39984,"zip":"62611","miles_from_dt":18.52},{"city":"Kilbourne","state_name":"Illinois","lat":40.16523,"lng":-89.99515,"zip":"62655","miles_from_dt":18.54},{"city":"Adair","state_name":"Illinois","lat":40.40105,"lng":-90.50544,"zip":"61411","miles_from_dt":19.29},{"city":"Lewistown","state_name":"Illinois","lat":40.38487,"lng":-90.13402,"zip":"61542","miles_from_dt":19.67},{"city":"Oakford","state_name":"Illinois","lat":40.09586,"lng":-89.9674,"zip":"62673","miles_from_dt":20.33},{"city":"Camden","state_name":"Illinois","lat":40.15293,"lng":-90.72997,"zip":"62319","miles_from_dt":20.39},{"city":"Literberry","state_name":"Illinois","lat":39.85677,"lng":-90.19761,"zip":"62660","miles_from_dt":21.68},{"city":"Concord","state_name":"Illinois","lat":39.82531,"lng":-90.36122,"zip":"62631","miles_from_dt":22.41},{"city":"Ashland","state_name":"Illinois","lat":39.89864,"lng":-90.0683,"zip":"62612","miles_from_dt":22.71},{"city":"Versailles","state_name":"Illinois","lat":39.89602,"lng":-90.63652,"zip":"62378","miles_from_dt":23.37},{"city":"Smithfield","state_name":"Illinois","lat":40.4945,"lng":-90.31402,"zip":"61477","miles_from_dt":23.83},{"city":"Marietta","state_name":"Illinois","lat":40.50497,"lng":-90.41453,"zip":"61459","miles_from_dt":24.77},{"city":"Mount Sterling","state_name":"Illinois","lat":39.97277,"lng":-90.75735,"zip":"62353","miles_from_dt":25.06},{"city":"Meredosia","state_name":"Illinois","lat":39.81627,"lng":-90.53462,"zip":"62665","miles_from_dt":25.13},{"city":"Cuba","state_name":"Illinois","lat":40.49823,"lng":-90.19319,"zip":"61427","miles_from_dt":25.33},{"city":"Easton","state_name":"Illinois","lat":40.22577,"lng":-89.8763,"zip":"62633","miles_from_dt":25.34},{"city":"Bryant","state_name":"Illinois","lat":40.46463,"lng":-90.09309,"zip":"61519","miles_from_dt":25.46},{"city":"Huntsville","state_name":"Illinois","lat":40.1799,"lng":-90.82497,"zip":"62344","miles_from_dt":25.5},{"city":"Chapin","state_name":"Illinois","lat":39.7794,"lng":-90.40199,"zip":"62628","miles_from_dt":25.74},{"city":"Macomb","state_name":"Illinois","lat":40.44047,"lng":-90.65115,"zip":"61455","miles_from_dt":25.77},{"city":"Tallula","state_name":"Illinois","lat":39.945,"lng":-89.92415,"zip":"62688","miles_from_dt":26.41},{"city":"Bardolph","state_name":"Illinois","lat":40.49592,"lng":-90.56308,"zip":"61416","miles_from_dt":26.51},{"city":"Petersburg","state_name":"Illinois","lat":40.02109,"lng":-89.86146,"zip":"62675","miles_from_dt":27.11},{"city":"Lincolns New Salem","state_name":"Illinois","lat":40.04,"lng":-89.85219,"zip":"62659","miles_from_dt":27.18},{"city":"Topeka","state_name":"Illinois","lat":40.35077,"lng":-89.89899,"zip":"61567","miles_from_dt":27.34},{"city":"Liverpool","state_name":"Illinois","lat":40.42213,"lng":-89.96842,"zip":"61543","miles_from_dt":27.35},{"city":"Saint David","state_name":"Illinois","lat":40.4931,"lng":-90.05108,"zip":"61563","miles_from_dt":28.31},{"city":"Dunfermline","state_name":"Illinois","lat":40.49125,"lng":-90.03468,"zip":"61524","miles_from_dt":28.68},{"city":"Jacksonville","state_name":"Illinois","lat":39.73799,"lng":-90.22027,"zip":"62650","miles_from_dt":29.18},{"city":"Bushnell","state_name":"Illinois","lat":40.55084,"lng":-90.53113,"zip":"61422","miles_from_dt":29.36},{"city":"Jacksonville","state_name":"Illinois","lat":39.72757,"lng":-90.26403,"zip":"62651","miles_from_dt":29.45},{"city":"Chambersburg","state_name":"Illinois","lat":39.81306,"lng":-90.68607,"zip":"62323","miles_from_dt":29.47},{"city":"Plymouth","state_name":"Illinois","lat":40.30325,"lng":-90.86687,"zip":"62367","miles_from_dt":29.57},{"city":"Fiatt","state_name":"Illinois","lat":40.55749,"lng":-90.16866,"zip":"61433","miles_from_dt":29.62},{"city":"Timewell","state_name":"Illinois","lat":39.99782,"lng":-90.87176,"zip":"62375","miles_from_dt":29.84}],"targetCityZipCode":"62624","targetCityState":"Illinois"},"__N_SSG":true}