{"pageProps":{"stateName":"Illinois","cityName":"buckingham","nearbyCities":[{"city":"Reddick","state_name":"Illinois","lat":41.10611,"lng":-88.23098,"zip":"60961","miles_from_dt":4.6},{"city":"Cabery","state_name":"Illinois","lat":40.98753,"lng":-88.24012,"zip":"60919","miles_from_dt":4.79},{"city":"Union Hill","state_name":"Illinois","lat":41.11101,"lng":-88.14975,"zip":"60969","miles_from_dt":4.97},{"city":"Herscher","state_name":"Illinois","lat":41.03865,"lng":-88.0859,"zip":"60941","miles_from_dt":5.56},{"city":"Campus","state_name":"Illinois","lat":41.03021,"lng":-88.30378,"zip":"60920","miles_from_dt":5.96},{"city":"Essex","state_name":"Illinois","lat":41.17165,"lng":-88.16853,"zip":"60935","miles_from_dt":8.73},{"city":"Kempton","state_name":"Illinois","lat":40.91307,"lng":-88.20072,"zip":"60946","miles_from_dt":9.22},{"city":"Bonfield","state_name":"Illinois","lat":41.14835,"lng":-88.06206,"zip":"60913","miles_from_dt":9.76},{"city":"South Wilmington","state_name":"Illinois","lat":41.1765,"lng":-88.26983,"zip":"60474","miles_from_dt":9.86},{"city":"Emington","state_name":"Illinois","lat":40.96119,"lng":-88.34862,"zip":"60934","miles_from_dt":10.09},{"city":"Gardner","state_name":"Illinois","lat":41.16604,"lng":-88.32941,"zip":"60424","miles_from_dt":10.94},{"city":"Dwight","state_name":"Illinois","lat":41.08795,"lng":-88.42127,"zip":"60420","miles_from_dt":12.32},{"city":"Cullom","state_name":"Illinois","lat":40.87601,"lng":-88.29242,"zip":"60929","miles_from_dt":12.88},{"city":"Braceville","state_name":"Illinois","lat":41.23037,"lng":-88.26415,"zip":"60407","miles_from_dt":13.24},{"city":"Clifton","state_name":"Illinois","lat":40.93933,"lng":-87.96744,"zip":"60927","miles_from_dt":13.86},{"city":"Chebanse","state_name":"Illinois","lat":41.00394,"lng":-87.92184,"zip":"60922","miles_from_dt":14.41},{"city":"Braidwood","state_name":"Illinois","lat":41.26684,"lng":-88.21733,"zip":"60408","miles_from_dt":15.27},{"city":"Saunemin","state_name":"Illinois","lat":40.88106,"lng":-88.39804,"zip":"61769","miles_from_dt":15.7},{"city":"Kankakee","state_name":"Illinois","lat":41.11029,"lng":-87.90049,"zip":"60901","miles_from_dt":15.84},{"city":"Ashkum","state_name":"Illinois","lat":40.87856,"lng":-87.98059,"zip":"60911","miles_from_dt":16.01},{"city":"Wilmington","state_name":"Illinois","lat":41.28795,"lng":-88.12952,"zip":"60481","miles_from_dt":16.98},{"city":"Mazon","state_name":"Illinois","lat":41.24246,"lng":-88.40403,"zip":"60444","miles_from_dt":17.48},{"city":"Coal City","state_name":"Illinois","lat":41.29357,"lng":-88.28197,"zip":"60416","miles_from_dt":17.69},{"city":"Piper City","state_name":"Illinois","lat":40.7895,"lng":-88.1832,"zip":"60959","miles_from_dt":17.74},{"city":"Danforth","state_name":"Illinois","lat":40.83231,"lng":-88.00286,"zip":"60930","miles_from_dt":17.78},{"city":"Odell","state_name":"Illinois","lat":40.9997,"lng":-88.53393,"zip":"60460","miles_from_dt":18.17},{"city":"Bradley","state_name":"Illinois","lat":41.14758,"lng":-87.86039,"zip":"60915","miles_from_dt":18.65},{"city":"Bourbonnais","state_name":"Illinois","lat":41.18706,"lng":-87.86194,"zip":"60914","miles_from_dt":19.76},{"city":"Kinsman","state_name":"Illinois","lat":41.16168,"lng":-88.54981,"zip":"60437","miles_from_dt":20.31},{"city":"Aroma Park","state_name":"Illinois","lat":41.06426,"lng":-87.79991,"zip":"60910","miles_from_dt":20.51},{"city":"Manteno","state_name":"Illinois","lat":41.25135,"lng":-87.88494,"zip":"60950","miles_from_dt":21.36},{"city":"Verona","state_name":"Illinois","lat":41.23174,"lng":-88.52078,"zip":"60479","miles_from_dt":21.4},{"city":"Gilman","state_name":"Illinois","lat":40.77456,"lng":-87.98355,"zip":"60938","miles_from_dt":21.7},{"city":"Chatsworth","state_name":"Illinois","lat":40.73513,"lng":-88.28894,"zip":"60921","miles_from_dt":22.08},{"city":"Forrest","state_name":"Illinois","lat":40.76045,"lng":-88.40057,"zip":"61741","miles_from_dt":22.56},{"city":"Saint Anne","state_name":"Illinois","lat":41.03401,"lng":-87.7418,"zip":"60964","miles_from_dt":23.53},{"city":"Ransom","state_name":"Illinois","lat":41.16592,"lng":-88.63876,"zip":"60470","miles_from_dt":24.74},{"city":"Martinton","state_name":"Illinois","lat":40.91721,"lng":-87.74757,"zip":"60951","miles_from_dt":24.88},{"city":"Blackstone","state_name":"Illinois","lat":41.07237,"lng":-88.66993,"zip":"61313","miles_from_dt":25.04},{"city":"Pontiac","state_name":"Illinois","lat":40.88343,"lng":-88.6263,"zip":"61764","miles_from_dt":25.36},{"city":"Papineau","state_name":"Illinois","lat":40.96775,"lng":-87.7163,"zip":"60956","miles_from_dt":25.44},{"city":"Elwood","state_name":"Illinois","lat":41.40851,"lng":-88.08936,"zip":"60421","miles_from_dt":25.55},{"city":"Morris","state_name":"Illinois","lat":41.37011,"lng":-88.43417,"zip":"60450","miles_from_dt":25.66},{"city":"Channahon","state_name":"Illinois","lat":41.42119,"lng":-88.2171,"zip":"60410","miles_from_dt":25.89},{"city":"Thawville","state_name":"Illinois","lat":40.6746,"lng":-88.12049,"zip":"60968","miles_from_dt":25.93},{"city":"Onarga","state_name":"Illinois","lat":40.7004,"lng":-87.98008,"zip":"60955","miles_from_dt":26.33},{"city":"Manhattan","state_name":"Illinois","lat":41.39189,"lng":-87.96062,"zip":"60442","miles_from_dt":26.71},{"city":"Crescent City","state_name":"Illinois","lat":40.74568,"lng":-87.85078,"zip":"60928","miles_from_dt":27.38},{"city":"Fairbury","state_name":"Illinois","lat":40.73342,"lng":-88.51938,"zip":"61739","miles_from_dt":27.58},{"city":"Peotone","state_name":"Illinois","lat":41.33636,"lng":-87.80991,"zip":"60468","miles_from_dt":28.22},{"city":"Cornell","state_name":"Illinois","lat":41.01291,"lng":-88.73942,"zip":"61319","miles_from_dt":28.71},{"city":"Strawn","state_name":"Illinois","lat":40.64971,"lng":-88.37069,"zip":"61775","miles_from_dt":28.94},{"city":"Roberts","state_name":"Illinois","lat":40.62248,"lng":-88.18442,"zip":"60962","miles_from_dt":29.26},{"city":"Seneca","state_name":"Illinois","lat":41.33439,"lng":-88.60522,"zip":"61360","miles_from_dt":29.31},{"city":"Watseka","state_name":"Illinois","lat":40.79221,"lng":-87.74039,"zip":"60970","miles_from_dt":29.43}],"targetCityZipCode":"60917","targetCityState":"Illinois"},"__N_SSG":true}