{"pageProps":{"stateName":"Illinois","cityName":"burlington","nearbyCities":[{"city":"Hampshire","state_name":"Illinois","lat":42.08003,"lng":-88.5086,"zip":"60140","miles_from_dt":3.71},{"city":"Sycamore","state_name":"Illinois","lat":42.00625,"lng":-88.67205,"zip":"60178","miles_from_dt":6.22},{"city":"Genoa","state_name":"Illinois","lat":42.11265,"lng":-88.67867,"zip":"60135","miles_from_dt":7.6},{"city":"Elgin","state_name":"Illinois","lat":42.02621,"lng":-88.39691,"zip":"60124","miles_from_dt":8.62},{"city":"Maple Park","state_name":"Illinois","lat":41.9172,"lng":-88.56613,"zip":"60151","miles_from_dt":8.79},{"city":"Gilberts","state_name":"Illinois","lat":42.1053,"lng":-88.37808,"zip":"60136","miles_from_dt":10.38},{"city":"Cortland","state_name":"Illinois","lat":41.92391,"lng":-88.68994,"zip":"60112","miles_from_dt":10.59},{"city":"Wasco","state_name":"Illinois","lat":41.94019,"lng":-88.40908,"zip":"60183","miles_from_dt":10.69},{"city":"Huntley","state_name":"Illinois","lat":42.17517,"lng":-88.44486,"zip":"60142","miles_from_dt":10.86},{"city":"Saint Charles","state_name":"Illinois","lat":41.94695,"lng":-88.3913,"zip":"60175","miles_from_dt":11.1},{"city":"Kingston","state_name":"Illinois","lat":42.09396,"lng":-88.77719,"zip":"60145","miles_from_dt":11.55},{"city":"Union","state_name":"Illinois","lat":42.22342,"lng":-88.52023,"zip":"60180","miles_from_dt":12.54},{"city":"Elgin","state_name":"Illinois","lat":42.04011,"lng":-88.31166,"zip":"60123","miles_from_dt":12.91},{"city":"Lafox","state_name":"Illinois","lat":41.88416,"lng":-88.43245,"zip":"60147","miles_from_dt":12.94},{"city":"Elburn","state_name":"Illinois","lat":41.86154,"lng":-88.47702,"zip":"60119","miles_from_dt":13.37},{"city":"South Elgin","state_name":"Illinois","lat":41.98931,"lng":-88.30987,"zip":"60177","miles_from_dt":13.55},{"city":"Marengo","state_name":"Illinois","lat":42.23882,"lng":-88.62597,"zip":"60152","miles_from_dt":13.8},{"city":"Dundee","state_name":"Illinois","lat":42.10793,"lng":-88.30614,"zip":"60118","miles_from_dt":13.9},{"city":"Dekalb","state_name":"Illinois","lat":41.90109,"lng":-88.75469,"zip":"60115","miles_from_dt":13.99},{"city":"Clare","state_name":"Illinois","lat":42.00721,"lng":-88.83114,"zip":"60111","miles_from_dt":14.06},{"city":"Carol Stream","state_name":"Illinois","lat":42.03672,"lng":-88.28834,"zip":"60122","miles_from_dt":14.12},{"city":"Elgin","state_name":"Illinois","lat":42.03786,"lng":-88.27964,"zip":"60121","miles_from_dt":14.57},{"city":"Kaneville","state_name":"Illinois","lat":41.83507,"lng":-88.51984,"zip":"60144","miles_from_dt":14.62},{"city":"Lake In The Hills","state_name":"Illinois","lat":42.19121,"lng":-88.34788,"zip":"60156","miles_from_dt":14.98},{"city":"Carpentersville","state_name":"Illinois","lat":42.12296,"lng":-88.2883,"zip":"60110","miles_from_dt":15.11},{"city":"Algonquin","state_name":"Illinois","lat":42.16406,"lng":-88.30928,"zip":"60102","miles_from_dt":15.42},{"city":"Saint Charles","state_name":"Illinois","lat":41.92759,"lng":-88.29906,"zip":"60174","miles_from_dt":15.79},{"city":"Geneva","state_name":"Illinois","lat":41.8784,"lng":-88.34189,"zip":"60134","miles_from_dt":16.14},{"city":"Elgin","state_name":"Illinois","lat":42.03317,"lng":-88.2374,"zip":"60120","miles_from_dt":16.75},{"city":"Kirkland","state_name":"Illinois","lat":42.10091,"lng":-88.88019,"zip":"60146","miles_from_dt":16.79},{"city":"Wayne","state_name":"Illinois","lat":41.95208,"lng":-88.25323,"zip":"60184","miles_from_dt":17.16},{"city":"Crystal Lake","state_name":"Illinois","lat":42.22837,"lng":-88.33123,"zip":"60039","miles_from_dt":17.39},{"city":"Garden Prairie","state_name":"Illinois","lat":42.26344,"lng":-88.73586,"zip":"61038","miles_from_dt":17.54},{"city":"Hoffman Estates","state_name":"Illinois","lat":42.07971,"lng":-88.22425,"zip":"60179","miles_from_dt":17.57},{"city":"Crystal Lake","state_name":"Illinois","lat":42.23126,"lng":-88.32679,"zip":"60014","miles_from_dt":17.69},{"city":"Hinckley","state_name":"Illinois","lat":41.7826,"lng":-88.65808,"zip":"60520","miles_from_dt":18.73},{"city":"Malta","state_name":"Illinois","lat":41.92106,"lng":-88.88982,"zip":"60150","miles_from_dt":18.88},{"city":"Bartlett","state_name":"Illinois","lat":41.97816,"lng":-88.20511,"zip":"60103","miles_from_dt":18.96},{"city":"Batavia","state_name":"Illinois","lat":41.84283,"lng":-88.31189,"zip":"60510","miles_from_dt":18.99},{"city":"Sugar Grove","state_name":"Illinois","lat":41.77852,"lng":-88.45838,"zip":"60554","miles_from_dt":19.13},{"city":"Mooseheart","state_name":"Illinois","lat":41.825,"lng":-88.33529,"zip":"60539","miles_from_dt":19.15},{"city":"North Aurora","state_name":"Illinois","lat":41.80878,"lng":-88.3489,"zip":"60542","miles_from_dt":19.65},{"city":"Big Rock","state_name":"Illinois","lat":41.75778,"lng":-88.55601,"zip":"60511","miles_from_dt":19.79},{"city":"Streamwood","state_name":"Illinois","lat":42.02148,"lng":-88.1783,"zip":"60107","miles_from_dt":19.84},{"city":"Belvidere","state_name":"Illinois","lat":42.24579,"lng":-88.83949,"zip":"61008","miles_from_dt":19.88},{"city":"Woodstock","state_name":"Illinois","lat":42.32468,"lng":-88.45672,"zip":"60098","miles_from_dt":20.09},{"city":"Barrington","state_name":"Illinois","lat":42.18603,"lng":-88.22026,"zip":"60011","miles_from_dt":20.12},{"city":"Esmond","state_name":"Illinois","lat":42.02963,"lng":-88.95371,"zip":"60129","miles_from_dt":20.15},{"city":"Crystal Lake","state_name":"Illinois","lat":42.27199,"lng":-88.31157,"zip":"60012","miles_from_dt":20.32},{"city":"Hoffman Estates","state_name":"Illinois","lat":42.07265,"lng":-88.16797,"zip":"60192","miles_from_dt":20.39},{"city":"Fox River Grove","state_name":"Illinois","lat":42.19511,"lng":-88.21768,"zip":"60021","miles_from_dt":20.55},{"city":"Cary","state_name":"Illinois","lat":42.22027,"lng":-88.23568,"zip":"60013","miles_from_dt":20.72},{"city":"West Chicago","state_name":"Illinois","lat":41.89308,"lng":-88.21498,"zip":"60185","miles_from_dt":20.73},{"city":"West Chicago","state_name":"Illinois","lat":41.88491,"lng":-88.20651,"zip":"60186","miles_from_dt":21.39},{"city":"Fox Valley","state_name":"Illinois","lat":41.7721,"lng":-88.3574,"zip":"60599","miles_from_dt":21.57},{"city":"Barrington","state_name":"Illinois","lat":42.15255,"lng":-88.16519,"zip":"60010","miles_from_dt":21.75},{"city":"Aurora","state_name":"Illinois","lat":41.76176,"lng":-88.37125,"zip":"60506","miles_from_dt":21.86},{"city":"Aurora","state_name":"Illinois","lat":41.78532,"lng":-88.31845,"zip":"60507","miles_from_dt":21.87},{"city":"Hanover Park","state_name":"Illinois","lat":41.97805,"lng":-88.14291,"zip":"60133","miles_from_dt":22.08},{"city":"Creston","state_name":"Illinois","lat":41.93142,"lng":-88.96421,"zip":"60113","miles_from_dt":22.1},{"city":"Waterman","state_name":"Illinois","lat":41.76507,"lng":-88.77373,"zip":"60556","miles_from_dt":22.14},{"city":"Cherry Valley","state_name":"Illinois","lat":42.19761,"lng":-88.94704,"zip":"61016","miles_from_dt":22.4},{"city":"Schaumburg","state_name":"Illinois","lat":42.04543,"lng":-88.12663,"zip":"60168","miles_from_dt":22.43},{"city":"Lindenwood","state_name":"Illinois","lat":42.04417,"lng":-89.00753,"zip":"61049","miles_from_dt":22.89},{"city":"Aurora","state_name":"Illinois","lat":41.76606,"lng":-88.32002,"zip":"60572","miles_from_dt":22.93},{"city":"Hoffman Estates","state_name":"Illinois","lat":42.05192,"lng":-88.11656,"zip":"60169","miles_from_dt":22.95},{"city":"Monroe Center","state_name":"Illinois","lat":42.11146,"lng":-89.00011,"zip":"61052","miles_from_dt":22.97},{"city":"Schaumburg","state_name":"Illinois","lat":42.03339,"lng":-88.11125,"zip":"60194","miles_from_dt":23.23},{"city":"Aurora","state_name":"Illinois","lat":41.78911,"lng":-88.25952,"zip":"60502","miles_from_dt":23.55},{"city":"Carol Stream","state_name":"Illinois","lat":41.91446,"lng":-88.13831,"zip":"60197","miles_from_dt":23.62},{"city":"Aurora","state_name":"Illinois","lat":41.76527,"lng":-88.29576,"zip":"60505","miles_from_dt":23.68},{"city":"Carol Stream","state_name":"Illinois","lat":41.9137,"lng":-88.13383,"zip":"60116","miles_from_dt":23.85},{"city":"Aurora","state_name":"Illinois","lat":41.81211,"lng":-88.21715,"zip":"60569","miles_from_dt":23.96},{"city":"Winfield","state_name":"Illinois","lat":41.87319,"lng":-88.1576,"zip":"60190","miles_from_dt":23.98},{"city":"Carol Stream","state_name":"Illinois","lat":41.91562,"lng":-88.12958,"zip":"60188","miles_from_dt":24.01},{"city":"Mchenry","state_name":"Illinois","lat":42.32915,"lng":-88.29363,"zip":"60050","miles_from_dt":24.01},{"city":"Schaumburg","state_name":"Illinois","lat":42.01195,"lng":-88.09552,"zip":"60193","miles_from_dt":24.14},{"city":"Palatine","state_name":"Illinois","lat":42.09915,"lng":-88.09751,"zip":"60094","miles_from_dt":24.21},{"city":"Bristol","state_name":"Illinois","lat":41.70134,"lng":-88.43986,"zip":"60512","miles_from_dt":24.51},{"city":"Schaumburg","state_name":"Illinois","lat":42.06541,"lng":-88.08657,"zip":"60195","miles_from_dt":24.53},{"city":"Shabbona","state_name":"Illinois","lat":41.77708,"lng":-88.87777,"zip":"60550","miles_from_dt":24.59},{"city":"Aurora","state_name":"Illinois","lat":41.77478,"lng":-88.25068,"zip":"60598","miles_from_dt":24.6},{"city":"Warrenville","state_name":"Illinois","lat":41.82261,"lng":-88.18854,"zip":"60555","miles_from_dt":24.62},{"city":"Schaumburg","state_name":"Illinois","lat":42.03662,"lng":-88.0833,"zip":"60159","miles_from_dt":24.67},{"city":"Montgomery","state_name":"Illinois","lat":41.72165,"lng":-88.35637,"zip":"60538","miles_from_dt":24.69},{"city":"Eola","state_name":"Illinois","lat":41.77724,"lng":-88.24255,"zip":"60519","miles_from_dt":24.75},{"city":"Island Lake","state_name":"Illinois","lat":42.27913,"lng":-88.19777,"zip":"60042","miles_from_dt":24.76},{"city":"Roselle","state_name":"Illinois","lat":41.97976,"lng":-88.08937,"zip":"60172","miles_from_dt":24.76},{"city":"Aurora","state_name":"Illinois","lat":41.77339,"lng":-88.24738,"zip":"60568","miles_from_dt":24.78},{"city":"Arlington Heights","state_name":"Illinois","lat":42.13061,"lng":-88.09234,"zip":"60006","miles_from_dt":24.9},{"city":"Bloomingdale","state_name":"Illinois","lat":41.94905,"lng":-88.09232,"zip":"60108","miles_from_dt":25.09},{"city":"Carol Stream","state_name":"Illinois","lat":41.91685,"lng":-88.10577,"zip":"60128","miles_from_dt":25.12},{"city":"Rockford","state_name":"Illinois","lat":42.24193,"lng":-88.97523,"zip":"61112","miles_from_dt":25.2},{"city":"Carol Stream","state_name":"Illinois","lat":41.91612,"lng":-88.10308,"zip":"60199","miles_from_dt":25.27},{"city":"Carol Stream","state_name":"Illinois","lat":41.91951,"lng":-88.10095,"zip":"60132","miles_from_dt":25.29},{"city":"Plano","state_name":"Illinois","lat":41.67815,"lng":-88.53587,"zip":"60545","miles_from_dt":25.32},{"city":"Bloomingdale","state_name":"Illinois","lat":41.94579,"lng":-88.08482,"zip":"60117","miles_from_dt":25.52},{"city":"Palatine","state_name":"Illinois","lat":42.12521,"lng":-88.07503,"zip":"60055","miles_from_dt":25.68},{"city":"Palatine","state_name":"Illinois","lat":42.10773,"lng":-88.06478,"zip":"60067","miles_from_dt":25.97},{"city":"Wheaton","state_name":"Illinois","lat":41.87231,"lng":-88.1126,"zip":"60187","miles_from_dt":26.05},{"city":"Wonder Lake","state_name":"Illinois","lat":42.39343,"lng":-88.36164,"zip":"60097","miles_from_dt":26.2},{"city":"Schaumburg","state_name":"Illinois","lat":42.05287,"lng":-88.0526,"zip":"60173","miles_from_dt":26.24},{"city":"Harvard","state_name":"Illinois","lat":42.42333,"lng":-88.61104,"zip":"60033","miles_from_dt":26.27},{"city":"Naperville","state_name":"Illinois","lat":41.79933,"lng":-88.16884,"zip":"60563","miles_from_dt":26.42},{"city":"Glendale Heights","state_name":"Illinois","lat":41.91916,"lng":-88.07735,"zip":"60139","miles_from_dt":26.44},{"city":"Schaumburg","state_name":"Illinois","lat":42.07148,"lng":-88.04924,"zip":"60196","miles_from_dt":26.47},{"city":"Aurora","state_name":"Illinois","lat":41.74649,"lng":-88.23957,"zip":"60504","miles_from_dt":26.47},{"city":"Medinah","state_name":"Illinois","lat":41.974,"lng":-88.05476,"zip":"60157","miles_from_dt":26.59},{"city":"Rockford","state_name":"Illinois","lat":42.23736,"lng":-89.01238,"zip":"61125","miles_from_dt":26.66},{"city":"Wauconda","state_name":"Illinois","lat":42.26807,"lng":-88.13856,"zip":"60084","miles_from_dt":26.69},{"city":"Rochelle","state_name":"Illinois","lat":41.94928,"lng":-89.0652,"zip":"61068","miles_from_dt":26.7},{"city":"Lee","state_name":"Illinois","lat":41.79613,"lng":-88.95988,"zip":"60530","miles_from_dt":26.7},{"city":"Wheaton","state_name":"Illinois","lat":41.83957,"lng":-88.12128,"zip":"60189","miles_from_dt":26.78},{"city":"Rockford","state_name":"Illinois","lat":42.25515,"lng":-89.00236,"zip":"61108","miles_from_dt":26.86},{"city":"Capron","state_name":"Illinois","lat":42.40749,"lng":-88.75446,"zip":"61012","miles_from_dt":26.92},{"city":"Rockford","state_name":"Illinois","lat":42.1924,"lng":-89.05392,"zip":"61109","miles_from_dt":27.23},{"city":"Mchenry","state_name":"Illinois","lat":42.35099,"lng":-88.22412,"zip":"60051","miles_from_dt":27.37},{"city":"Somonauk","state_name":"Illinois","lat":41.66144,"lng":-88.70343,"zip":"60552","miles_from_dt":27.42},{"city":"Rockford","state_name":"Illinois","lat":42.25363,"lng":-89.01795,"zip":"61126","miles_from_dt":27.48},{"city":"Sandwich","state_name":"Illinois","lat":41.64811,"lng":-88.63471,"zip":"60548","miles_from_dt":27.61},{"city":"Rolling Meadows","state_name":"Illinois","lat":42.0739,"lng":-88.0229,"zip":"60008","miles_from_dt":27.83},{"city":"Davis Junction","state_name":"Illinois","lat":42.11035,"lng":-89.09807,"zip":"61020","miles_from_dt":27.91},{"city":"Holcomb","state_name":"Illinois","lat":42.06676,"lng":-89.10499,"zip":"61043","miles_from_dt":27.94},{"city":"Naperville","state_name":"Illinois","lat":41.78382,"lng":-88.1469,"zip":"60567","miles_from_dt":27.98},{"city":"Rockford","state_name":"Illinois","lat":42.28344,"lng":-89.00348,"zip":"61107","miles_from_dt":28.01},{"city":"Glen Ellyn","state_name":"Illinois","lat":41.87982,"lng":-88.06434,"zip":"60138","miles_from_dt":28.07},{"city":"Aurora","state_name":"Illinois","lat":41.7079,"lng":-88.25475,"zip":"60503","miles_from_dt":28.14},{"city":"Palatine","state_name":"Illinois","lat":42.13179,"lng":-88.02658,"zip":"60074","miles_from_dt":28.21},{"city":"Ringwood","state_name":"Illinois","lat":42.40647,"lng":-88.30637,"zip":"60072","miles_from_dt":28.23},{"city":"Itasca","state_name":"Illinois","lat":41.97351,"lng":-88.02071,"zip":"60143","miles_from_dt":28.32},{"city":"Steward","state_name":"Illinois","lat":41.82399,"lng":-89.02806,"zip":"60553","miles_from_dt":28.41},{"city":"Rockford","state_name":"Illinois","lat":42.30854,"lng":-88.9892,"zip":"61114","miles_from_dt":28.49},{"city":"Poplar Grove","state_name":"Illinois","lat":42.40786,"lng":-88.82747,"zip":"61065","miles_from_dt":28.52},{"city":"Palatine","state_name":"Illinois","lat":42.0966,"lng":-88.01131,"zip":"60038","miles_from_dt":28.58},{"city":"Glen Ellyn","state_name":"Illinois","lat":41.86539,"lng":-88.06225,"zip":"60137","miles_from_dt":28.59},{"city":"Palatine","state_name":"Illinois","lat":42.09808,"lng":-88.01065,"zip":"60095","miles_from_dt":28.62},{"city":"Lake Zurich","state_name":"Illinois","lat":42.20202,"lng":-88.04522,"zip":"60047","miles_from_dt":28.72},{"city":"Oswego","state_name":"Illinois","lat":41.66537,"lng":-88.32442,"zip":"60543","miles_from_dt":28.91},{"city":"Naperville","state_name":"Illinois","lat":41.76361,"lng":-88.14476,"zip":"60540","miles_from_dt":28.98},{"city":"Elk Grove Village","state_name":"Illinois","lat":42.01431,"lng":-87.99828,"zip":"60007","miles_from_dt":29.11},{"city":"Hebron","state_name":"Illinois","lat":42.45869,"lng":-88.42665,"zip":"60034","miles_from_dt":29.43},{"city":"Addison","state_name":"Illinois","lat":41.931,"lng":-88.01072,"zip":"60101","miles_from_dt":29.48},{"city":"Elk Grove Village","state_name":"Illinois","lat":42.00838,"lng":-87.99153,"zip":"60009","miles_from_dt":29.49},{"city":"Arlington Heights","state_name":"Illinois","lat":42.06518,"lng":-87.98676,"zip":"60005","miles_from_dt":29.65},{"city":"Naperville","state_name":"Illinois","lat":41.70901,"lng":-88.19961,"zip":"60564","miles_from_dt":29.78},{"city":"Caledonia","state_name":"Illinois","lat":42.38926,"lng":-88.91266,"zip":"61011","miles_from_dt":29.81},{"city":"Loves Park","state_name":"Illinois","lat":42.32593,"lng":-89.00394,"zip":"61130","miles_from_dt":29.84}],"targetCityZipCode":"60109","targetCityState":"Illinois"},"__N_SSG":true}