{"pageProps":{"stateName":"Illinois","cityName":"carbondale","nearbyCities":[{"city":"De Soto","state_name":"Illinois","lat":37.82112,"lng":-89.20448,"zip":"62924","miles_from_dt":5.6},{"city":"Cambria","state_name":"Illinois","lat":37.78413,"lng":-89.12238,"zip":"62915","miles_from_dt":5.66},{"city":"Carbondale","state_name":"Illinois","lat":37.67162,"lng":-89.27568,"zip":"62903","miles_from_dt":5.95},{"city":"Carbondale","state_name":"Illinois","lat":37.67199,"lng":-89.11509,"zip":"62902","miles_from_dt":6.98},{"city":"Hurst","state_name":"Illinois","lat":37.8278,"lng":-89.14409,"zip":"62949","miles_from_dt":7.03},{"city":"Carterville","state_name":"Illinois","lat":37.78561,"lng":-89.08641,"zip":"62918","miles_from_dt":7.43},{"city":"Murphysboro","state_name":"Illinois","lat":37.7693,"lng":-89.35198,"zip":"62966","miles_from_dt":8.06},{"city":"Colp","state_name":"Illinois","lat":37.80217,"lng":-89.08215,"zip":"62921","miles_from_dt":8.18},{"city":"Makanda","state_name":"Illinois","lat":37.60389,"lng":-89.14917,"zip":"62958","miles_from_dt":9.95},{"city":"Energy","state_name":"Illinois","lat":37.77363,"lng":-89.02003,"zip":"62933","miles_from_dt":10.63},{"city":"Elkville","state_name":"Illinois","lat":37.89878,"lng":-89.21048,"zip":"62932","miles_from_dt":10.95},{"city":"Pomona","state_name":"Illinois","lat":37.64307,"lng":-89.37274,"zip":"62975","miles_from_dt":11.17},{"city":"Herrin","state_name":"Illinois","lat":37.8204,"lng":-89.02542,"zip":"62948","miles_from_dt":11.5},{"city":"Royalton","state_name":"Illinois","lat":37.90208,"lng":-89.10883,"zip":"62983","miles_from_dt":12.46},{"city":"Cobden","state_name":"Illinois","lat":37.55095,"lng":-89.23208,"zip":"62920","miles_from_dt":13.1},{"city":"Zeigler","state_name":"Illinois","lat":37.89122,"lng":-89.05275,"zip":"62999","miles_from_dt":13.5},{"city":"Vergennes","state_name":"Illinois","lat":37.90593,"lng":-89.34664,"zip":"62994","miles_from_dt":13.68},{"city":"Gorham","state_name":"Illinois","lat":37.7292,"lng":-89.46279,"zip":"62940","miles_from_dt":13.9},{"city":"Dowell","state_name":"Illinois","lat":37.94129,"lng":-89.24837,"zip":"62927","miles_from_dt":14.04},{"city":"Alto Pass","state_name":"Illinois","lat":37.57381,"lng":-89.35867,"zip":"62905","miles_from_dt":14.08},{"city":"Freeman Spur","state_name":"Illinois","lat":37.8588,"lng":-88.99639,"zip":"62841","miles_from_dt":14.25},{"city":"Marion","state_name":"Illinois","lat":37.71442,"lng":-88.91463,"zip":"62959","miles_from_dt":16.25},{"city":"Grand Tower","state_name":"Illinois","lat":37.6348,"lng":-89.47681,"zip":"62942","miles_from_dt":16.35},{"city":"Johnston City","state_name":"Illinois","lat":37.82637,"lng":-88.92609,"zip":"62951","miles_from_dt":16.61},{"city":"Orient","state_name":"Illinois","lat":37.91767,"lng":-88.97802,"zip":"62874","miles_from_dt":17.62},{"city":"Mulkeytown","state_name":"Illinois","lat":37.97528,"lng":-89.08351,"zip":"62865","miles_from_dt":17.63},{"city":"Ava","state_name":"Illinois","lat":37.86503,"lng":-89.50009,"zip":"62907","miles_from_dt":18.09},{"city":"Goreville","state_name":"Illinois","lat":37.5489,"lng":-88.98088,"zip":"62939","miles_from_dt":18.19},{"city":"Christopher","state_name":"Illinois","lat":37.97473,"lng":-89.05358,"zip":"62822","miles_from_dt":18.29},{"city":"Du Quoin","state_name":"Illinois","lat":38.01001,"lng":-89.24969,"zip":"62832","miles_from_dt":18.75},{"city":"Jacob","state_name":"Illinois","lat":37.75184,"lng":-89.55573,"zip":"62950","miles_from_dt":18.98},{"city":"West Frankfort","state_name":"Illinois","lat":37.89287,"lng":-88.91183,"zip":"62896","miles_from_dt":19.4},{"city":"Coello","state_name":"Illinois","lat":37.99832,"lng":-89.06474,"zip":"62825","miles_from_dt":19.49},{"city":"Anna","state_name":"Illinois","lat":37.45746,"lng":-89.18899,"zip":"62906","miles_from_dt":19.52},{"city":"Buckner","state_name":"Illinois","lat":37.97507,"lng":-89.00283,"zip":"62819","miles_from_dt":19.76},{"city":"Wolf Lake","state_name":"Illinois","lat":37.51649,"lng":-89.44698,"zip":"62998","miles_from_dt":20.18},{"city":"Buncombe","state_name":"Illinois","lat":37.47598,"lng":-89.0388,"zip":"62912","miles_from_dt":20.48},{"city":"Valier","state_name":"Illinois","lat":38.01569,"lng":-89.04067,"zip":"62891","miles_from_dt":21.13},{"city":"Boles","state_name":"Illinois","lat":37.46581,"lng":-88.99636,"zip":"62909","miles_from_dt":22.23},{"city":"Frohna","state_name":"Missouri","lat":37.66912,"lng":-89.61282,"zip":"63748","miles_from_dt":22.64},{"city":"Frankfort Heights","state_name":"Illinois","lat":37.90029,"lng":-88.8408,"zip":"62840","miles_from_dt":23},{"city":"Jonesboro","state_name":"Illinois","lat":37.42065,"lng":-89.33187,"zip":"62952","miles_from_dt":23.03},{"city":"Pittsburg","state_name":"Illinois","lat":37.78158,"lng":-88.79094,"zip":"62974","miles_from_dt":23.09},{"city":"Creal Springs","state_name":"Illinois","lat":37.6215,"lng":-88.81531,"zip":"62922","miles_from_dt":23.1},{"city":"Altenburg","state_name":"Missouri","lat":37.59428,"lng":-89.59123,"zip":"63732","miles_from_dt":23.22},{"city":"Campbell Hill","state_name":"Illinois","lat":37.93722,"lng":-89.56947,"zip":"62916","miles_from_dt":23.93},{"city":"Benton","state_name":"Illinois","lat":38.00487,"lng":-88.92249,"zip":"62812","miles_from_dt":24.08},{"city":"Brazeau","state_name":"Missouri","lat":37.6593,"lng":-89.65455,"zip":"63737","miles_from_dt":25.02},{"city":"Logan","state_name":"Illinois","lat":37.95246,"lng":-88.83549,"zip":"62856","miles_from_dt":25.16},{"city":"Rockwood","state_name":"Illinois","lat":37.83179,"lng":-89.65952,"zip":"62280","miles_from_dt":25.43},{"city":"Sesser","state_name":"Illinois","lat":38.08482,"lng":-89.04196,"zip":"62884","miles_from_dt":25.48},{"city":"Ozark","state_name":"Illinois","lat":37.5419,"lng":-88.8162,"zip":"62972","miles_from_dt":25.53},{"city":"Dongola","state_name":"Illinois","lat":37.3692,"lng":-89.13589,"zip":"62926","miles_from_dt":25.89},{"city":"Pinckneyville","state_name":"Illinois","lat":38.09312,"lng":-89.40064,"zip":"62274","miles_from_dt":26.5},{"city":"Tamaroa","state_name":"Illinois","lat":38.12665,"lng":-89.22828,"zip":"62888","miles_from_dt":26.68},{"city":"Farrar","state_name":"Missouri","lat":37.70783,"lng":-89.69484,"zip":"63746","miles_from_dt":26.68},{"city":"Willisville","state_name":"Illinois","lat":37.98357,"lng":-89.59013,"zip":"62997","miles_from_dt":26.75},{"city":"New Burnside","state_name":"Illinois","lat":37.58092,"lng":-88.75089,"zip":"62967","miles_from_dt":27.43},{"city":"Cutler","state_name":"Illinois","lat":38.04499,"lng":-89.5319,"zip":"62238","miles_from_dt":27.44},{"city":"Uniontown","state_name":"Missouri","lat":37.60958,"lng":-89.6823,"zip":"63783","miles_from_dt":27.44},{"city":"Millcreek","state_name":"Illinois","lat":37.34063,"lng":-89.25378,"zip":"62961","miles_from_dt":27.65},{"city":"Thompsonville","state_name":"Illinois","lat":37.90574,"lng":-88.73944,"zip":"62890","miles_from_dt":28.14},{"city":"Vienna","state_name":"Illinois","lat":37.41945,"lng":-88.88244,"zip":"62995","miles_from_dt":28.48},{"city":"Percy","state_name":"Illinois","lat":38.00241,"lng":-89.61562,"zip":"62272","miles_from_dt":28.65},{"city":"Old Appleton","state_name":"Missouri","lat":37.59456,"lng":-89.70049,"zip":"63770","miles_from_dt":28.73},{"city":"Pocahontas","state_name":"Missouri","lat":37.49944,"lng":-89.64216,"zip":"63779","miles_from_dt":28.96},{"city":"Cypress","state_name":"Illinois","lat":37.33709,"lng":-89.03671,"zip":"62923","miles_from_dt":29.36},{"city":"Whittington","state_name":"Illinois","lat":38.09763,"lng":-88.91504,"zip":"62897","miles_from_dt":29.45},{"city":"Scheller","state_name":"Illinois","lat":38.162,"lng":-89.11192,"zip":"62883","miles_from_dt":29.59}],"targetCityZipCode":"62901","targetCityState":"Illinois"},"__N_SSG":true}