{"pageProps":{"stateName":"Illinois","cityName":"carlyle","nearbyCities":[{"city":"Huey","state_name":"Illinois","lat":38.60427,"lng":-89.29024,"zip":"62252","miles_from_dt":3.37},{"city":"Beckemeyer","state_name":"Illinois","lat":38.60371,"lng":-89.43698,"zip":"62219","miles_from_dt":6.6},{"city":"Hoffman","state_name":"Illinois","lat":38.54042,"lng":-89.26436,"zip":"62250","miles_from_dt":7.9},{"city":"Keyesport","state_name":"Illinois","lat":38.77554,"lng":-89.29738,"zip":"62253","miles_from_dt":9.21},{"city":"Breese","state_name":"Illinois","lat":38.63855,"lng":-89.52742,"zip":"62230","miles_from_dt":10.88},{"city":"Sandoval","state_name":"Illinois","lat":38.63474,"lng":-89.1197,"zip":"62882","miles_from_dt":11.2},{"city":"Bartelso","state_name":"Illinois","lat":38.52069,"lng":-89.47738,"zip":"62218","miles_from_dt":11.8},{"city":"Hoyleton","state_name":"Illinois","lat":38.45461,"lng":-89.29822,"zip":"62803","miles_from_dt":13.15},{"city":"Patoka","state_name":"Illinois","lat":38.75789,"lng":-89.12482,"zip":"62875","miles_from_dt":13.43},{"city":"Centralia","state_name":"Illinois","lat":38.51097,"lng":-89.1412,"zip":"62801","miles_from_dt":13.59},{"city":"Odin","state_name":"Illinois","lat":38.63463,"lng":-89.05063,"zip":"62870","miles_from_dt":14.93},{"city":"Germantown","state_name":"Illinois","lat":38.54783,"lng":-89.57446,"zip":"62245","miles_from_dt":14.98},{"city":"Aviston","state_name":"Illinois","lat":38.62559,"lng":-89.60313,"zip":"62216","miles_from_dt":15.02},{"city":"Smithboro","state_name":"Illinois","lat":38.86867,"lng":-89.31107,"zip":"62284","miles_from_dt":15.52},{"city":"Irvington","state_name":"Illinois","lat":38.43794,"lng":-89.16665,"zip":"62848","miles_from_dt":16.64},{"city":"Pocahontas","state_name":"Illinois","lat":38.81507,"lng":-89.54496,"zip":"62275","miles_from_dt":16.69},{"city":"Pierron","state_name":"Illinois","lat":38.78673,"lng":-89.58389,"zip":"62273","miles_from_dt":17.04},{"city":"Vernon","state_name":"Illinois","lat":38.80623,"lng":-89.0771,"zip":"62892","miles_from_dt":17.51},{"city":"Okawville","state_name":"Illinois","lat":38.44028,"lng":-89.52209,"zip":"62271","miles_from_dt":17.6},{"city":"Greenville","state_name":"Illinois","lat":38.88834,"lng":-89.42533,"zip":"62246","miles_from_dt":17.68},{"city":"Albers","state_name":"Illinois","lat":38.50672,"lng":-89.60515,"zip":"62215","miles_from_dt":17.82},{"city":"Richview","state_name":"Illinois","lat":38.38983,"lng":-89.2057,"zip":"62877","miles_from_dt":18.71},{"city":"Highland","state_name":"Illinois","lat":38.75469,"lng":-89.66436,"zip":"62249","miles_from_dt":19.8},{"city":"Walnut Hill","state_name":"Illinois","lat":38.46776,"lng":-89.03087,"zip":"62893","miles_from_dt":20.1},{"city":"Trenton","state_name":"Illinois","lat":38.61838,"lng":-89.69748,"zip":"62293","miles_from_dt":20.15},{"city":"Mulberry Grove","state_name":"Illinois","lat":38.9371,"lng":-89.26916,"zip":"62262","miles_from_dt":20.45},{"city":"Shobonier","state_name":"Illinois","lat":38.86289,"lng":-89.06286,"zip":"62885","miles_from_dt":20.75},{"city":"New Memphis","state_name":"Illinois","lat":38.47481,"lng":-89.64988,"zip":"62266","miles_from_dt":21.05},{"city":"New Baden","state_name":"Illinois","lat":38.50808,"lng":-89.67797,"zip":"62265","miles_from_dt":21.22},{"city":"Salem","state_name":"Illinois","lat":38.63544,"lng":-88.9288,"zip":"62881","miles_from_dt":21.52},{"city":"Nashville","state_name":"Illinois","lat":38.33168,"lng":-89.39706,"zip":"62263","miles_from_dt":21.88},{"city":"Alma","state_name":"Illinois","lat":38.74767,"lng":-88.93412,"zip":"62807","miles_from_dt":22.38},{"city":"Summerfield","state_name":"Illinois","lat":38.59788,"lng":-89.75096,"zip":"62289","miles_from_dt":23.19},{"city":"Addieville","state_name":"Illinois","lat":38.37682,"lng":-89.60529,"zip":"62214","miles_from_dt":23.83},{"city":"Kell","state_name":"Illinois","lat":38.51734,"lng":-88.91571,"zip":"62853","miles_from_dt":23.89},{"city":"Dix","state_name":"Illinois","lat":38.44559,"lng":-88.96424,"zip":"62830","miles_from_dt":23.92},{"city":"Vandalia","state_name":"Illinois","lat":38.95859,"lng":-89.13257,"zip":"62471","miles_from_dt":24.09},{"city":"Ashley","state_name":"Illinois","lat":38.30328,"lng":-89.1884,"zip":"62808","miles_from_dt":24.67},{"city":"Woodlawn","state_name":"Illinois","lat":38.35041,"lng":-89.06209,"zip":"62898","miles_from_dt":24.81},{"city":"Saint Jacob","state_name":"Illinois","lat":38.70405,"lng":-89.78288,"zip":"62281","miles_from_dt":25.03},{"city":"Radom","state_name":"Illinois","lat":38.27713,"lng":-89.19487,"zip":"62876","miles_from_dt":26.29},{"city":"Marine","state_name":"Illinois","lat":38.79077,"lng":-89.77624,"zip":"62061","miles_from_dt":26.33},{"city":"Donnellson","state_name":"Illinois","lat":39.01598,"lng":-89.45195,"zip":"62019","miles_from_dt":26.54},{"city":"Lebanon","state_name":"Illinois","lat":38.6098,"lng":-89.81901,"zip":"62254","miles_from_dt":26.76},{"city":"Sorento","state_name":"Illinois","lat":38.98302,"lng":-89.58556,"zip":"62086","miles_from_dt":27.25},{"city":"Mascoutah","state_name":"Illinois","lat":38.46014,"lng":-89.77287,"zip":"62258","miles_from_dt":27.31},{"city":"Oakdale","state_name":"Illinois","lat":38.27208,"lng":-89.52612,"zip":"62268","miles_from_dt":27.85},{"city":"Alhambra","state_name":"Illinois","lat":38.87971,"lng":-89.74562,"zip":"62001","miles_from_dt":27.87},{"city":"Saint Peter","state_name":"Illinois","lat":38.86751,"lng":-88.88593,"zip":"62880","miles_from_dt":28.35},{"city":"Panama","state_name":"Illinois","lat":39.03133,"lng":-89.51605,"zip":"62077","miles_from_dt":28.61},{"city":"Saint Libory","state_name":"Illinois","lat":38.35644,"lng":-89.71334,"zip":"62282","miles_from_dt":28.87},{"city":"New Douglas","state_name":"Illinois","lat":38.95594,"lng":-89.68338,"zip":"62074","miles_from_dt":28.88},{"city":"Kinmundy","state_name":"Illinois","lat":38.76458,"lng":-88.81172,"zip":"62854","miles_from_dt":29.04},{"city":"Du Bois","state_name":"Illinois","lat":38.23042,"lng":-89.22167,"zip":"62831","miles_from_dt":29.09},{"city":"Coffeen","state_name":"Illinois","lat":39.06597,"lng":-89.36945,"zip":"62017","miles_from_dt":29.2},{"city":"Scott Air Force Base","state_name":"Illinois","lat":38.54065,"lng":-89.85503,"zip":"62225","miles_from_dt":29.49},{"city":"Texico","state_name":"Illinois","lat":38.46011,"lng":-88.82893,"zip":"62889","miles_from_dt":29.78},{"city":"Troy","state_name":"Illinois","lat":38.70374,"lng":-89.87242,"zip":"62294","miles_from_dt":29.81}],"targetCityZipCode":"62231","targetCityState":"Illinois"},"__N_SSG":true}