{"pageProps":{"stateName":"Illinois","cityName":"chicago","nearbyCities":[{"city":"Chicago","state_name":"Illinois","lat":41.88648,"lng":-87.62225,"zip":"60670","miles_from_dt":0.08},{"city":"Chicago","state_name":"Illinois","lat":41.88149,"lng":-87.62412,"zip":"60685","miles_from_dt":0.28},{"city":"Chicago","state_name":"Illinois","lat":41.88177,"lng":-87.62648,"zip":"60668","miles_from_dt":0.34},{"city":"Chicago","state_name":"Illinois","lat":41.8875,"lng":-87.62881,"zip":"60673","miles_from_dt":0.38},{"city":"Chicago","state_name":"Illinois","lat":41.88304,"lng":-87.62906,"zip":"60602","miles_from_dt":0.4},{"city":"Chicago","state_name":"Illinois","lat":41.88018,"lng":-87.6274,"zip":"60603","miles_from_dt":0.45},{"city":"Chicago","state_name":"Illinois","lat":41.87858,"lng":-87.62582,"zip":"60687","miles_from_dt":0.5},{"city":"Chicago","state_name":"Illinois","lat":41.88394,"lng":-87.63173,"zip":"60678","miles_from_dt":0.51},{"city":"Chicago","state_name":"Illinois","lat":41.88215,"lng":-87.63093,"zip":"60690","miles_from_dt":0.51},{"city":"Chicago","state_name":"Illinois","lat":41.87948,"lng":-87.61559,"zip":"60697","miles_from_dt":0.52},{"city":"Chicago","state_name":"Illinois","lat":41.88065,"lng":-87.63004,"zip":"60675","miles_from_dt":0.52},{"city":"Chicago","state_name":"Illinois","lat":41.87915,"lng":-87.61293,"zip":"60693","miles_from_dt":0.63},{"city":"Chicago","state_name":"Illinois","lat":41.87799,"lng":-87.62928,"zip":"60604","miles_from_dt":0.63},{"city":"Chicago","state_name":"Illinois","lat":41.87788,"lng":-87.62969,"zip":"60694","miles_from_dt":0.65},{"city":"Chicago","state_name":"Illinois","lat":41.89483,"lng":-87.61944,"zip":"60611","miles_from_dt":0.67},{"city":"Chicago","state_name":"Illinois","lat":41.87591,"lng":-87.61472,"zip":"60691","miles_from_dt":0.75},{"city":"Chicago","state_name":"Illinois","lat":41.88178,"lng":-87.63724,"zip":"60606","miles_from_dt":0.82},{"city":"Chicago","state_name":"Illinois","lat":41.89209,"lng":-87.63673,"zip":"60654","miles_from_dt":0.89},{"city":"Chicago","state_name":"Illinois","lat":41.88161,"lng":-87.63972,"zip":"60677","miles_from_dt":0.95},{"city":"Chicago","state_name":"Illinois","lat":41.88291,"lng":-87.64409,"zip":"60661","miles_from_dt":1.15},{"city":"Chicago","state_name":"Illinois","lat":41.87,"lng":-87.63219,"zip":"60689","miles_from_dt":1.18},{"city":"Chicago","state_name":"Illinois","lat":41.86644,"lng":-87.61956,"zip":"60605","miles_from_dt":1.31},{"city":"Chicago","state_name":"Illinois","lat":41.87667,"lng":-87.64648,"zip":"60681","miles_from_dt":1.4},{"city":"Chicago","state_name":"Illinois","lat":41.87598,"lng":-87.64672,"zip":"60699","miles_from_dt":1.43},{"city":"Chicago","state_name":"Illinois","lat":41.90388,"lng":-87.63738,"zip":"60610","miles_from_dt":1.51},{"city":"Chicago","state_name":"Illinois","lat":41.87657,"lng":-87.64948,"zip":"60674","miles_from_dt":1.54},{"city":"Chicago","state_name":"Illinois","lat":41.87571,"lng":-87.65062,"zip":"60669","miles_from_dt":1.62},{"city":"Chicago","state_name":"Illinois","lat":41.87467,"lng":-87.65175,"zip":"60607","miles_from_dt":1.7},{"city":"Chicago","state_name":"Illinois","lat":41.86689,"lng":-87.64801,"zip":"60680","miles_from_dt":1.85},{"city":"Chicago","state_name":"Illinois","lat":41.87317,"lng":-87.6543,"zip":"60664","miles_from_dt":1.86},{"city":"Chicago","state_name":"Illinois","lat":41.90193,"lng":-87.65804,"zip":"60642","miles_from_dt":2.19},{"city":"Chicago","state_name":"Illinois","lat":41.87018,"lng":-87.67198,"zip":"60684","miles_from_dt":2.78},{"city":"Chicago","state_name":"Illinois","lat":41.84502,"lng":-87.62745,"zip":"60616","miles_from_dt":2.79},{"city":"Chicago","state_name":"Illinois","lat":41.85,"lng":-87.65219,"zip":"60695","miles_from_dt":2.89},{"city":"Chicago","state_name":"Illinois","lat":41.84996,"lng":-87.65223,"zip":"60686","miles_from_dt":2.89},{"city":"Chicago","state_name":"Illinois","lat":41.8483,"lng":-87.64962,"zip":"60696","miles_from_dt":2.92},{"city":"Chicago","state_name":"Illinois","lat":41.92267,"lng":-87.6506,"zip":"60614","miles_from_dt":2.97},{"city":"Chicago","state_name":"Illinois","lat":41.90267,"lng":-87.68355,"zip":"60622","miles_from_dt":3.39},{"city":"Chicago","state_name":"Illinois","lat":41.8805,"lng":-87.68783,"zip":"60612","miles_from_dt":3.41},{"city":"Chicago","state_name":"Illinois","lat":41.84887,"lng":-87.67139,"zip":"60608","miles_from_dt":3.58},{"city":"Chicago","state_name":"Illinois","lat":41.93965,"lng":-87.65495,"zip":"60657","miles_from_dt":4.12},{"city":"Chicago","state_name":"Illinois","lat":41.81924,"lng":-87.61017,"zip":"60653","miles_from_dt":4.6},{"city":"Chicago","state_name":"Illinois","lat":41.92074,"lng":-87.702,"zip":"60647","miles_from_dt":4.8},{"city":"Chicago","state_name":"Illinois","lat":41.9558,"lng":-87.65706,"zip":"60613","miles_from_dt":5.19},{"city":"Chicago","state_name":"Illinois","lat":41.88045,"lng":-87.72366,"zip":"60624","miles_from_dt":5.26},{"city":"Chicago","state_name":"Illinois","lat":41.81263,"lng":-87.65559,"zip":"60609","miles_from_dt":5.31},{"city":"Chicago","state_name":"Illinois","lat":41.84793,"lng":-87.71753,"zip":"60623","miles_from_dt":5.56},{"city":"Chicago","state_name":"Illinois","lat":41.80226,"lng":-87.60293,"zip":"60615","miles_from_dt":5.81},{"city":"Chicago","state_name":"Illinois","lat":41.94694,"lng":-87.70263,"zip":"60618","miles_from_dt":5.95},{"city":"Chicago","state_name":"Illinois","lat":41.90202,"lng":-87.74104,"zip":"60651","miles_from_dt":6.25},{"city":"Chicago","state_name":"Illinois","lat":41.97253,"lng":-87.66372,"zip":"60640","miles_from_dt":6.4},{"city":"Chicago","state_name":"Illinois","lat":41.81141,"lng":-87.71348,"zip":"60632","miles_from_dt":6.95},{"city":"Chicago","state_name":"Illinois","lat":41.88013,"lng":-87.75756,"zip":"60644","miles_from_dt":7},{"city":"Chicago","state_name":"Illinois","lat":41.78156,"lng":-87.6032,"zip":"60637","miles_from_dt":7.22},{"city":"Chicago","state_name":"Illinois","lat":41.97318,"lng":-87.69963,"zip":"60625","miles_from_dt":7.27},{"city":"Chicago","state_name":"Illinois","lat":41.9206,"lng":-87.75593,"zip":"60639","miles_from_dt":7.32},{"city":"Chicago","state_name":"Illinois","lat":41.77624,"lng":-87.63955,"zip":"60621","miles_from_dt":7.58},{"city":"Chicago","state_name":"Illinois","lat":41.99113,"lng":-87.66609,"zip":"60660","miles_from_dt":7.65},{"city":"Chicago","state_name":"Illinois","lat":41.94667,"lng":-87.74693,"zip":"60641","miles_from_dt":7.71},{"city":"Cicero","state_name":"Illinois","lat":41.84005,"lng":-87.75925,"zip":"60804","miles_from_dt":7.74},{"city":"Chicago","state_name":"Illinois","lat":41.77578,"lng":-87.66909,"zip":"60636","miles_from_dt":7.94},{"city":"Chicago","state_name":"Illinois","lat":41.98946,"lng":-87.70668,"zip":"60659","miles_from_dt":8.41},{"city":"Oak Park","state_name":"Illinois","lat":41.87249,"lng":-87.78933,"zip":"60304","miles_from_dt":8.68},{"city":"Oak Park","state_name":"Illinois","lat":41.8948,"lng":-87.78983,"zip":"60302","miles_from_dt":8.68},{"city":"Oak Park","state_name":"Illinois","lat":41.88925,"lng":-87.79085,"zip":"60303","miles_from_dt":8.71},{"city":"Chicago","state_name":"Illinois","lat":42.00904,"lng":-87.66955,"zip":"60626","miles_from_dt":8.89},{"city":"Chicago","state_name":"Illinois","lat":41.7754,"lng":-87.71239,"zip":"60629","miles_from_dt":8.9},{"city":"Oak Park","state_name":"Illinois","lat":41.88865,"lng":-87.79648,"zip":"60301","miles_from_dt":9},{"city":"Chicago","state_name":"Illinois","lat":41.97222,"lng":-87.75758,"zip":"60630","miles_from_dt":9.21},{"city":"Chicago","state_name":"Illinois","lat":41.75885,"lng":-87.56368,"zip":"60649","miles_from_dt":9.23},{"city":"Chicago","state_name":"Illinois","lat":42.00859,"lng":-87.69457,"zip":"60645","miles_from_dt":9.3},{"city":"Berwyn","state_name":"Illinois","lat":41.83237,"lng":-87.78983,"zip":"60402","miles_from_dt":9.4},{"city":"Chicago","state_name":"Illinois","lat":41.74346,"lng":-87.60532,"zip":"60619","miles_from_dt":9.82},{"city":"Elmwood Park","state_name":"Illinois","lat":41.92175,"lng":-87.80744,"zip":"60707","miles_from_dt":9.89},{"city":"Chicago","state_name":"Illinois","lat":41.86,"lng":-87.81219,"zip":"60682","miles_from_dt":9.97},{"city":"Lincolnwood","state_name":"Illinois","lat":42.00543,"lng":-87.73296,"zip":"60712","miles_from_dt":10.07},{"city":"Chicago","state_name":"Illinois","lat":41.74096,"lng":-87.65257,"zip":"60620","miles_from_dt":10.08},{"city":"Forest Park","state_name":"Illinois","lat":41.86704,"lng":-87.81795,"zip":"60130","miles_from_dt":10.19},{"city":"River Forest","state_name":"Illinois","lat":41.89501,"lng":-87.81943,"zip":"60305","miles_from_dt":10.21},{"city":"Bedford Park","state_name":"Illinois","lat":41.78232,"lng":-87.76794,"zip":"60499","miles_from_dt":10.36},{"city":"Chicago","state_name":"Illinois","lat":41.99365,"lng":-87.76128,"zip":"60646","miles_from_dt":10.37},{"city":"Chicago","state_name":"Illinois","lat":41.94627,"lng":-87.80639,"zip":"60634","miles_from_dt":10.4},{"city":"Chicago","state_name":"Illinois","lat":41.78175,"lng":-87.77057,"zip":"60638","miles_from_dt":10.48},{"city":"Evanston","state_name":"Illinois","lat":42.03043,"lng":-87.68958,"zip":"60202","miles_from_dt":10.61},{"city":"Chicago","state_name":"Illinois","lat":41.74744,"lng":-87.71445,"zip":"60652","miles_from_dt":10.64},{"city":"Riverside","state_name":"Illinois","lat":41.83834,"lng":-87.82132,"zip":"60546","miles_from_dt":10.78},{"city":"Hines","state_name":"Illinois","lat":41.85834,"lng":-87.8379,"zip":"60141","miles_from_dt":11.29},{"city":"Lyons","state_name":"Illinois","lat":41.81311,"lng":-87.82066,"zip":"60534","miles_from_dt":11.4},{"city":"Harwood Heights","state_name":"Illinois","lat":41.96384,"lng":-87.81672,"zip":"60706","miles_from_dt":11.41},{"city":"Maywood","state_name":"Illinois","lat":41.87984,"lng":-87.84389,"zip":"60153","miles_from_dt":11.45},{"city":"River Grove","state_name":"Illinois","lat":41.92504,"lng":-87.83832,"zip":"60171","miles_from_dt":11.49},{"city":"Skokie","state_name":"Illinois","lat":42.03412,"lng":-87.72943,"zip":"60076","miles_from_dt":11.67},{"city":"Evanston","state_name":"Illinois","lat":42.05457,"lng":-87.67412,"zip":"60208","miles_from_dt":11.99},{"city":"Evergreen Park","state_name":"Illinois","lat":41.72201,"lng":-87.70243,"zip":"60805","miles_from_dt":12.01},{"city":"Hometown","state_name":"Illinois","lat":41.73125,"lng":-87.73111,"zip":"60456","miles_from_dt":12.03},{"city":"Chicago","state_name":"Illinois","lat":41.97424,"lng":-87.82709,"zip":"60656","miles_from_dt":12.23},{"city":"Broadview","state_name":"Illinois","lat":41.8578,"lng":-87.85631,"zip":"60155","miles_from_dt":12.24},{"city":"Evanston","state_name":"Illinois","lat":42.04905,"lng":-87.71748,"zip":"60203","miles_from_dt":12.33},{"city":"Burbank","state_name":"Illinois","lat":41.74436,"lng":-87.76872,"zip":"60459","miles_from_dt":12.33},{"city":"Chicago","state_name":"Illinois","lat":41.71337,"lng":-87.55618,"zip":"60617","miles_from_dt":12.34},{"city":"Brookfield","state_name":"Illinois","lat":41.82459,"lng":-87.8469,"zip":"60513","miles_from_dt":12.34},{"city":"Melrose Park","state_name":"Illinois","lat":41.90403,"lng":-87.86113,"zip":"60161","miles_from_dt":12.4},{"city":"Chicago","state_name":"Illinois","lat":41.99473,"lng":-87.8131,"zip":"60631","miles_from_dt":12.41},{"city":"Melrose Park","state_name":"Illinois","lat":41.90348,"lng":-87.86176,"zip":"60160","miles_from_dt":12.43},{"city":"Evanston","state_name":"Illinois","lat":42.05665,"lng":-87.69827,"zip":"60201","miles_from_dt":12.46},{"city":"Evanston","state_name":"Illinois","lat":42.05778,"lng":-87.69537,"zip":"60204","miles_from_dt":12.49},{"city":"Skokie","state_name":"Illinois","lat":42.03617,"lng":-87.75633,"zip":"60077","miles_from_dt":12.5},{"city":"Summit Argo","state_name":"Illinois","lat":41.77979,"lng":-87.82393,"zip":"60501","miles_from_dt":12.71},{"city":"Chicago","state_name":"Illinois","lat":41.70026,"lng":-87.663,"zip":"60643","miles_from_dt":12.94},{"city":"Bellwood","state_name":"Illinois","lat":41.88256,"lng":-87.87646,"zip":"60104","miles_from_dt":13.13},{"city":"Chicago","state_name":"Illinois","lat":41.69165,"lng":-87.61828,"zip":"60628","miles_from_dt":13.36},{"city":"Stone Park","state_name":"Illinois","lat":41.90328,"lng":-87.88056,"zip":"60165","miles_from_dt":13.39},{"city":"Oak Lawn","state_name":"Illinois","lat":41.71412,"lng":-87.75278,"zip":"60453","miles_from_dt":13.61},{"city":"Schiller Park","state_name":"Illinois","lat":41.9583,"lng":-87.8697,"zip":"60176","miles_from_dt":13.73},{"city":"Bridgeview","state_name":"Illinois","lat":41.74102,"lng":-87.8068,"zip":"60455","miles_from_dt":13.79},{"city":"Chicago","state_name":"Illinois","lat":42.02939,"lng":-87.80755,"zip":"60701","miles_from_dt":13.8},{"city":"Chicago","state_name":"Illinois","lat":41.69479,"lng":-87.70374,"zip":"60655","miles_from_dt":13.81},{"city":"Morton Grove","state_name":"Illinois","lat":42.04224,"lng":-87.78895,"zip":"60053","miles_from_dt":13.83},{"city":"Niles","state_name":"Illinois","lat":42.02834,"lng":-87.81131,"zip":"60714","miles_from_dt":13.88},{"city":"Franklin Park","state_name":"Illinois","lat":41.9378,"lng":-87.88304,"zip":"60131","miles_from_dt":13.94},{"city":"La Grange Park","state_name":"Illinois","lat":41.83002,"lng":-87.8836,"zip":"60526","miles_from_dt":14.03},{"city":"Westchester","state_name":"Illinois","lat":41.84923,"lng":-87.88986,"zip":"60154","miles_from_dt":14.04},{"city":"Wilmette","state_name":"Illinois","lat":42.07693,"lng":-87.72812,"zip":"60091","miles_from_dt":14.31},{"city":"Park Ridge","state_name":"Illinois","lat":42.01276,"lng":-87.84435,"zip":"60068","miles_from_dt":14.45},{"city":"Justice","state_name":"Illinois","lat":41.74892,"lng":-87.83484,"zip":"60458","miles_from_dt":14.47},{"city":"Hillside","state_name":"Illinois","lat":41.86753,"lng":-87.90196,"zip":"60162","miles_from_dt":14.49},{"city":"La Grange","state_name":"Illinois","lat":41.78371,"lng":-87.86778,"zip":"60525","miles_from_dt":14.49},{"city":"Melrose Park","state_name":"Illinois","lat":41.91667,"lng":-87.90112,"zip":"60164","miles_from_dt":14.56},{"city":"Golf","state_name":"Illinois","lat":42.05857,"lng":-87.78496,"zip":"60029","miles_from_dt":14.61},{"city":"Berkeley","state_name":"Illinois","lat":41.88794,"lng":-87.90948,"zip":"60163","miles_from_dt":14.83},{"city":"Kenilworth","state_name":"Illinois","lat":42.08882,"lng":-87.71445,"zip":"60043","miles_from_dt":14.83},{"city":"Chicago Ridge","state_name":"Illinois","lat":41.70341,"lng":-87.77953,"zip":"60415","miles_from_dt":14.96},{"city":"Chicago","state_name":"Illinois","lat":41.97241,"lng":-87.89506,"zip":"60666","miles_from_dt":15.31},{"city":"Oak Lawn","state_name":"Illinois","lat":41.7106,"lng":-87.80534,"zip":"60454","miles_from_dt":15.33},{"city":"Chicago","state_name":"Illinois","lat":41.97148,"lng":-87.89757,"zip":"60688","miles_from_dt":15.4},{"city":"Hickory Hills","state_name":"Illinois","lat":41.72475,"lng":-87.82987,"zip":"60457","miles_from_dt":15.43},{"city":"Western Springs","state_name":"Illinois","lat":41.80207,"lng":-87.90076,"zip":"60558","miles_from_dt":15.49},{"city":"Whiting","state_name":"Indiana","lat":41.67733,"lng":-87.50279,"zip":"46394","miles_from_dt":15.62},{"city":"Chicago","state_name":"Illinois","lat":41.66315,"lng":-87.56044,"zip":"60633","miles_from_dt":15.66},{"city":"Alsip","state_name":"Illinois","lat":41.67233,"lng":-87.73652,"zip":"60803","miles_from_dt":15.84},{"city":"Des Plaines","state_name":"Illinois","lat":41.99629,"lng":-87.89846,"zip":"60018","miles_from_dt":16.18},{"city":"Blue Island","state_name":"Illinois","lat":41.65509,"lng":-87.68184,"zip":"60406","miles_from_dt":16.18},{"city":"Hinsdale","state_name":"Illinois","lat":41.83278,"lng":-87.92889,"zip":"60522","miles_from_dt":16.24},{"city":"Worth","state_name":"Illinois","lat":41.68737,"lng":-87.79239,"zip":"60482","miles_from_dt":16.25},{"city":"Riverdale","state_name":"Illinois","lat":41.64967,"lng":-87.63013,"zip":"60827","miles_from_dt":16.27},{"city":"Glenview","state_name":"Illinois","lat":42.07466,"lng":-87.81204,"zip":"60025","miles_from_dt":16.33},{"city":"Elmhurst","state_name":"Illinois","lat":41.89627,"lng":-87.94194,"zip":"60126","miles_from_dt":16.52},{"city":"Winnetka","state_name":"Illinois","lat":42.10333,"lng":-87.75826,"zip":"60093","miles_from_dt":16.61},{"city":"Palos Hills","state_name":"Illinois","lat":41.69878,"lng":-87.8267,"zip":"60465","miles_from_dt":16.66},{"city":"Hinsdale","state_name":"Illinois","lat":41.80019,"lng":-87.92883,"zip":"60521","miles_from_dt":16.89},{"city":"Bensenville","state_name":"Illinois","lat":41.95686,"lng":-87.94182,"zip":"60105","miles_from_dt":17.21},{"city":"Des Plaines","state_name":"Illinois","lat":42.02498,"lng":-87.89961,"zip":"60019","miles_from_dt":17.25},{"city":"Robbins","state_name":"Illinois","lat":41.6437,"lng":-87.70836,"zip":"60472","miles_from_dt":17.26},{"city":"Wood Dale","state_name":"Illinois","lat":41.96,"lng":-87.94219,"zip":"60399","miles_from_dt":17.29},{"city":"Bensenville","state_name":"Illinois","lat":41.9611,"lng":-87.94194,"zip":"60106","miles_from_dt":17.3},{"city":"Des Plaines","state_name":"Illinois","lat":42.02445,"lng":-87.90286,"zip":"60017","miles_from_dt":17.37},{"city":"Oak Brook","state_name":"Illinois","lat":41.83713,"lng":-87.95406,"zip":"60523","miles_from_dt":17.45},{"city":"Willow Springs","state_name":"Illinois","lat":41.71909,"lng":-87.87675,"zip":"60480","miles_from_dt":17.45},{"city":"Crestwood","state_name":"Illinois","lat":41.64568,"lng":-87.74084,"zip":"60418","miles_from_dt":17.64},{"city":"Palos Heights","state_name":"Illinois","lat":41.66084,"lng":-87.79033,"zip":"60463","miles_from_dt":17.76},{"city":"Dolton","state_name":"Illinois","lat":41.62752,"lng":-87.59871,"zip":"60419","miles_from_dt":17.83},{"city":"Hammond","state_name":"Indiana","lat":41.64048,"lng":-87.50677,"zip":"46327","miles_from_dt":17.91},{"city":"Des Plaines","state_name":"Illinois","lat":42.05232,"lng":-87.8899,"zip":"60016","miles_from_dt":17.98},{"city":"Posen","state_name":"Illinois","lat":41.62871,"lng":-87.68634,"zip":"60469","miles_from_dt":18.02},{"city":"Glenview","state_name":"Illinois","lat":42.09221,"lng":-87.83789,"zip":"60026","miles_from_dt":18.1},{"city":"Techny","state_name":"Illinois","lat":42.10815,"lng":-87.8075,"zip":"60082","miles_from_dt":18.11},{"city":"Villa Park","state_name":"Illinois","lat":41.87795,"lng":-87.97626,"zip":"60181","miles_from_dt":18.28},{"city":"Clarendon Hills","state_name":"Illinois","lat":41.79655,"lng":-87.95683,"zip":"60514","miles_from_dt":18.33},{"city":"East Chicago","state_name":"Indiana","lat":41.64705,"lng":-87.45446,"zip":"46312","miles_from_dt":18.58},{"city":"Midlothian","state_name":"Illinois","lat":41.62833,"lng":-87.73542,"zip":"60445","miles_from_dt":18.68},{"city":"Willowbrook","state_name":"Illinois","lat":41.74472,"lng":-87.93383,"zip":"60527","miles_from_dt":18.8},{"city":"Glencoe","state_name":"Illinois","lat":42.13637,"lng":-87.7664,"zip":"60022","miles_from_dt":18.86},{"city":"Harvey","state_name":"Illinois","lat":41.61026,"lng":-87.65309,"zip":"60426","miles_from_dt":19.05},{"city":"Calumet City","state_name":"Illinois","lat":41.61303,"lng":-87.55142,"zip":"60409","miles_from_dt":19.14},{"city":"Westmont","state_name":"Illinois","lat":41.79496,"lng":-87.97464,"zip":"60559","miles_from_dt":19.24},{"city":"Wood Dale","state_name":"Illinois","lat":41.9647,"lng":-87.98087,"zip":"60191","miles_from_dt":19.29},{"city":"Hammond","state_name":"Indiana","lat":41.61409,"lng":-87.51471,"zip":"46325","miles_from_dt":19.52},{"city":"Palos Park","state_name":"Illinois","lat":41.67088,"lng":-87.86869,"zip":"60464","miles_from_dt":19.53},{"city":"South Holland","state_name":"Illinois","lat":41.59733,"lng":-87.60115,"zip":"60473","miles_from_dt":19.9},{"city":"Markham","state_name":"Illinois","lat":41.5998,"lng":-87.69062,"zip":"60428","miles_from_dt":20.02},{"city":"Hammond","state_name":"Indiana","lat":41.60893,"lng":-87.49754,"zip":"46320","miles_from_dt":20.13},{"city":"Northbrook","state_name":"Illinois","lat":42.12663,"lng":-87.84235,"zip":"60062","miles_from_dt":20.15},{"city":"Addison","state_name":"Illinois","lat":41.931,"lng":-88.01072,"zip":"60101","miles_from_dt":20.29},{"city":"Oak Forest","state_name":"Illinois","lat":41.60851,"lng":-87.75434,"zip":"60452","miles_from_dt":20.29},{"city":"Mount Prospect","state_name":"Illinois","lat":42.06618,"lng":-87.93473,"zip":"60056","miles_from_dt":20.38},{"city":"Lombard","state_name":"Illinois","lat":41.87505,"lng":-88.01859,"zip":"60148","miles_from_dt":20.47},{"city":"Elk Grove Village","state_name":"Illinois","lat":42.00838,"lng":-87.99153,"zip":"60009","miles_from_dt":20.85},{"city":"Darien","state_name":"Illinois","lat":41.74518,"lng":-87.98174,"zip":"60561","miles_from_dt":20.94},{"city":"Orland Park","state_name":"Illinois","lat":41.62527,"lng":-87.83548,"zip":"60462","miles_from_dt":21.06},{"city":"Elk Grove Village","state_name":"Illinois","lat":42.01431,"lng":-87.99828,"zip":"60007","miles_from_dt":21.34},{"city":"Downers Grove","state_name":"Illinois","lat":41.80991,"lng":-88.0247,"zip":"60515","miles_from_dt":21.42},{"city":"Itasca","state_name":"Illinois","lat":41.97351,"lng":-88.02071,"zip":"60143","miles_from_dt":21.43},{"city":"Hazel Crest","state_name":"Illinois","lat":41.5737,"lng":-87.68331,"zip":"60429","miles_from_dt":21.74},{"city":"Hammond","state_name":"Indiana","lat":41.58324,"lng":-87.50155,"zip":"46324","miles_from_dt":21.75},{"city":"Prospect Heights","state_name":"Illinois","lat":42.10406,"lng":-87.92768,"zip":"60070","miles_from_dt":21.81},{"city":"Thornton","state_name":"Illinois","lat":41.5694,"lng":-87.60562,"zip":"60476","miles_from_dt":21.82},{"city":"Downers Grove","state_name":"Illinois","lat":41.76327,"lng":-88.01314,"zip":"60516","miles_from_dt":21.88},{"city":"Hammond","state_name":"Indiana","lat":41.58961,"lng":-87.45323,"zip":"46323","miles_from_dt":22.19},{"city":"Lansing","state_name":"Illinois","lat":41.56625,"lng":-87.55065,"zip":"60438","miles_from_dt":22.32},{"city":"Gary","state_name":"Indiana","lat":41.6022,"lng":-87.40804,"zip":"46406","miles_from_dt":22.45},{"city":"Arlington Heights","state_name":"Illinois","lat":42.06518,"lng":-87.98676,"zip":"60005","miles_from_dt":22.52},{"city":"Homewood","state_name":"Illinois","lat":41.5584,"lng":-87.66214,"zip":"60430","miles_from_dt":22.65},{"city":"Glen Ellyn","state_name":"Illinois","lat":41.86539,"lng":-88.06225,"zip":"60137","miles_from_dt":22.75},{"city":"Highland Park","state_name":"Illinois","lat":42.18358,"lng":-87.8106,"zip":"60035","miles_from_dt":22.76},{"city":"Glen Ellyn","state_name":"Illinois","lat":41.87982,"lng":-88.06434,"zip":"60138","miles_from_dt":22.82},{"city":"Wheeling","state_name":"Illinois","lat":42.13031,"lng":-87.92268,"zip":"60090","miles_from_dt":22.93},{"city":"Medinah","state_name":"Illinois","lat":41.974,"lng":-88.05476,"zip":"60157","miles_from_dt":23.13},{"city":"Tinley Park","state_name":"Illinois","lat":41.57347,"lng":-87.78597,"zip":"60477","miles_from_dt":23.13},{"city":"Lemont","state_name":"Illinois","lat":41.67692,"lng":-87.97623,"zip":"60439","miles_from_dt":23.27},{"city":"Palatine","state_name":"Illinois","lat":42.14196,"lng":-87.92246,"zip":"60078","miles_from_dt":23.52},{"city":"Glenwood","state_name":"Illinois","lat":41.54343,"lng":-87.61073,"zip":"60425","miles_from_dt":23.6},{"city":"Glendale Heights","state_name":"Illinois","lat":41.91916,"lng":-88.07735,"zip":"60139","miles_from_dt":23.6},{"city":"Country Club Hills","state_name":"Illinois","lat":41.55381,"lng":-87.73588,"zip":"60478","miles_from_dt":23.62},{"city":"Deerfield","state_name":"Illinois","lat":42.17239,"lng":-87.87486,"zip":"60015","miles_from_dt":23.71},{"city":"Woodridge","state_name":"Illinois","lat":41.73913,"lng":-88.04161,"zip":"60517","miles_from_dt":23.9},{"city":"Orland Park","state_name":"Illinois","lat":41.59855,"lng":-87.88848,"zip":"60467","miles_from_dt":24.11},{"city":"Munster","state_name":"Indiana","lat":41.54704,"lng":-87.50402,"zip":"46321","miles_from_dt":24.13},{"city":"Arlington Heights","state_name":"Illinois","lat":42.11206,"lng":-87.97895,"zip":"60004","miles_from_dt":24.14},{"city":"Flossmoor","state_name":"Illinois","lat":41.53861,"lng":-87.68443,"zip":"60422","miles_from_dt":24.14},{"city":"Gary","state_name":"Indiana","lat":41.61032,"lng":-87.33297,"zip":"46402","miles_from_dt":24.15},{"city":"Bloomingdale","state_name":"Illinois","lat":41.94579,"lng":-88.08482,"zip":"60117","miles_from_dt":24.22},{"city":"Highwood","state_name":"Illinois","lat":42.20652,"lng":-87.81274,"zip":"60040","miles_from_dt":24.25},{"city":"Fort Sheridan","state_name":"Illinois","lat":42.20941,"lng":-87.80657,"zip":"60037","miles_from_dt":24.3},{"city":"Gary","state_name":"Indiana","lat":41.58475,"lng":-87.37502,"zip":"46404","miles_from_dt":24.35},{"city":"Rolling Meadows","state_name":"Illinois","lat":42.0739,"lng":-88.0229,"zip":"60008","miles_from_dt":24.41},{"city":"Bloomingdale","state_name":"Illinois","lat":41.94905,"lng":-88.09232,"zip":"60108","miles_from_dt":24.64},{"city":"Highland","state_name":"Indiana","lat":41.54818,"lng":-87.45884,"zip":"46322","miles_from_dt":24.75},{"city":"Tinley Park","state_name":"Illinois","lat":41.56236,"lng":-87.83095,"zip":"60487","miles_from_dt":24.77},{"city":"Palatine","state_name":"Illinois","lat":42.0966,"lng":-88.01131,"zip":"60038","miles_from_dt":24.79},{"city":"Lisle","state_name":"Illinois","lat":41.79153,"lng":-88.08576,"zip":"60532","miles_from_dt":24.8},{"city":"Carol Stream","state_name":"Illinois","lat":41.91951,"lng":-88.10095,"zip":"60132","miles_from_dt":24.81},{"city":"Palatine","state_name":"Illinois","lat":42.09808,"lng":-88.01065,"zip":"60095","miles_from_dt":24.82},{"city":"Carol Stream","state_name":"Illinois","lat":41.91612,"lng":-88.10308,"zip":"60199","miles_from_dt":24.9},{"city":"Roselle","state_name":"Illinois","lat":41.97976,"lng":-88.08937,"zip":"60172","miles_from_dt":24.95},{"city":"Schaumburg","state_name":"Illinois","lat":42.05287,"lng":-88.0526,"zip":"60173","miles_from_dt":25.02},{"city":"Carol Stream","state_name":"Illinois","lat":41.91685,"lng":-88.10577,"zip":"60128","miles_from_dt":25.04},{"city":"Wheaton","state_name":"Illinois","lat":41.87231,"lng":-88.1126,"zip":"60187","miles_from_dt":25.32},{"city":"Schaumburg","state_name":"Illinois","lat":42.07148,"lng":-88.04924,"zip":"60196","miles_from_dt":25.48},{"city":"Olympia Fields","state_name":"Illinois","lat":41.51752,"lng":-87.69148,"zip":"60461","miles_from_dt":25.63},{"city":"Chicago Heights","state_name":"Illinois","lat":41.51083,"lng":-87.63617,"zip":"60412","miles_from_dt":25.85},{"city":"Schaumburg","state_name":"Illinois","lat":42.01195,"lng":-88.09552,"zip":"60193","miles_from_dt":25.92},{"city":"Wheaton","state_name":"Illinois","lat":41.83957,"lng":-88.12128,"zip":"60189","miles_from_dt":25.95},{"city":"Schaumburg","state_name":"Illinois","lat":42.03662,"lng":-88.0833,"zip":"60159","miles_from_dt":25.96},{"city":"Gary","state_name":"Indiana","lat":41.57844,"lng":-87.33047,"zip":"46407","miles_from_dt":25.99},{"city":"Chicago Heights","state_name":"Illinois","lat":41.50791,"lng":-87.59031,"zip":"60411","miles_from_dt":26.09},{"city":"Buffalo Grove","state_name":"Illinois","lat":42.16736,"lng":-87.96076,"zip":"60089","miles_from_dt":26.13},{"city":"Homer Glen","state_name":"Illinois","lat":41.60313,"lng":-87.9595,"zip":"60491","miles_from_dt":26.14},{"city":"Carol Stream","state_name":"Illinois","lat":41.91562,"lng":-88.12958,"zip":"60188","miles_from_dt":26.26},{"city":"Carol Stream","state_name":"Illinois","lat":41.9137,"lng":-88.13383,"zip":"60116","miles_from_dt":26.47},{"city":"Lincolnshire","state_name":"Illinois","lat":42.19588,"lng":-87.92439,"zip":"60069","miles_from_dt":26.49},{"city":"Northbrook","state_name":"Illinois","lat":42.2162,"lng":-87.88392,"zip":"60065","miles_from_dt":26.52},{"city":"Bolingbrook","state_name":"Illinois","lat":41.70125,"lng":-88.07572,"zip":"60440","miles_from_dt":26.66},{"city":"Carol Stream","state_name":"Illinois","lat":41.91446,"lng":-88.13831,"zip":"60197","miles_from_dt":26.7},{"city":"Gary","state_name":"Indiana","lat":41.54468,"lng":-87.36941,"zip":"46408","miles_from_dt":26.89},{"city":"Palatine","state_name":"Illinois","lat":42.13179,"lng":-88.02658,"zip":"60074","miles_from_dt":26.89},{"city":"Gary","state_name":"Indiana","lat":41.60636,"lng":-87.25803,"zip":"46403","miles_from_dt":26.91},{"city":"Schaumburg","state_name":"Illinois","lat":42.06541,"lng":-88.08657,"zip":"60195","miles_from_dt":26.96},{"city":"Matteson","state_name":"Illinois","lat":41.50369,"lng":-87.74637,"zip":"60443","miles_from_dt":27.11},{"city":"Griffith","state_name":"Indiana","lat":41.52217,"lng":-87.42091,"zip":"46319","miles_from_dt":27.13},{"city":"Schaumburg","state_name":"Illinois","lat":42.03339,"lng":-88.11125,"zip":"60194","miles_from_dt":27.2},{"city":"Lake Forest","state_name":"Illinois","lat":42.23807,"lng":-87.87006,"zip":"60045","miles_from_dt":27.49},{"city":"Palatine","state_name":"Illinois","lat":42.10773,"lng":-88.06478,"zip":"60067","miles_from_dt":27.49},{"city":"Hanover Park","state_name":"Illinois","lat":41.97805,"lng":-88.14291,"zip":"60133","miles_from_dt":27.6},{"city":"Winfield","state_name":"Illinois","lat":41.87319,"lng":-88.1576,"zip":"60190","miles_from_dt":27.64},{"city":"Mokena","state_name":"Illinois","lat":41.53821,"lng":-87.89396,"zip":"60448","miles_from_dt":27.78},{"city":"Naperville","state_name":"Illinois","lat":41.74494,"lng":-88.12727,"zip":"60566","miles_from_dt":27.83},{"city":"Gary","state_name":"Indiana","lat":41.54828,"lng":-87.32422,"zip":"46409","miles_from_dt":27.89},{"city":"Hoffman Estates","state_name":"Illinois","lat":42.05192,"lng":-88.11656,"zip":"60169","miles_from_dt":27.95},{"city":"Naperville","state_name":"Illinois","lat":41.78382,"lng":-88.1469,"zip":"60567","miles_from_dt":27.98},{"city":"Naperville","state_name":"Illinois","lat":41.7297,"lng":-88.12312,"zip":"60565","miles_from_dt":28.02},{"city":"Park Forest","state_name":"Illinois","lat":41.47966,"lng":-87.68276,"zip":"60466","miles_from_dt":28.17},{"city":"Schaumburg","state_name":"Illinois","lat":42.04543,"lng":-88.12663,"zip":"60168","miles_from_dt":28.25},{"city":"Naperville","state_name":"Illinois","lat":41.76361,"lng":-88.14476,"zip":"60540","miles_from_dt":28.26},{"city":"Lake Station","state_name":"Indiana","lat":41.57409,"lng":-87.26285,"zip":"46405","miles_from_dt":28.39},{"city":"Richton Park","state_name":"Illinois","lat":41.48009,"lng":-87.72981,"zip":"60471","miles_from_dt":28.51},{"city":"Steger","state_name":"Illinois","lat":41.47193,"lng":-87.6283,"zip":"60475","miles_from_dt":28.53},{"city":"Schererville","state_name":"Indiana","lat":41.49162,"lng":-87.45193,"zip":"46375","miles_from_dt":28.56},{"city":"Palatine","state_name":"Illinois","lat":42.09915,"lng":-88.09751,"zip":"60094","miles_from_dt":28.59},{"city":"Palatine","state_name":"Illinois","lat":42.12521,"lng":-88.07503,"zip":"60055","miles_from_dt":28.6},{"city":"Naperville","state_name":"Illinois","lat":41.79933,"lng":-88.16884,"zip":"60563","miles_from_dt":28.84},{"city":"Dyer","state_name":"Indiana","lat":41.46846,"lng":-87.50918,"zip":"46311","miles_from_dt":29.35},{"city":"Warrenville","state_name":"Illinois","lat":41.82261,"lng":-88.18854,"zip":"60555","miles_from_dt":29.55},{"city":"Arlington Heights","state_name":"Illinois","lat":42.13061,"lng":-88.09234,"zip":"60006","miles_from_dt":29.55},{"city":"Vernon Hills","state_name":"Illinois","lat":42.2334,"lng":-87.96046,"zip":"60061","miles_from_dt":29.67}],"targetCityZipCode":"60601","targetCityState":"Illinois"},"__N_SSG":true}