{"pageProps":{"stateName":"Illinois","cityName":"danvers","nearbyCities":[{"city":"Congerville","state_name":"Illinois","lat":40.62799,"lng":-89.22393,"zip":"61729","miles_from_dt":6.74},{"city":"Mackinaw","state_name":"Illinois","lat":40.52661,"lng":-89.33909,"zip":"61755","miles_from_dt":6.99},{"city":"Stanford","state_name":"Illinois","lat":40.42945,"lng":-89.20145,"zip":"61774","miles_from_dt":7.03},{"city":"Carlock","state_name":"Illinois","lat":40.61201,"lng":-89.11717,"zip":"61725","miles_from_dt":7.29},{"city":"Goodfield","state_name":"Illinois","lat":40.63341,"lng":-89.27322,"zip":"61742","miles_from_dt":7.88},{"city":"Minier","state_name":"Illinois","lat":40.4347,"lng":-89.32418,"zip":"61759","miles_from_dt":9.1},{"city":"Deer Creek","state_name":"Illinois","lat":40.62421,"lng":-89.33573,"zip":"61733","miles_from_dt":9.35},{"city":"Normal","state_name":"Illinois","lat":40.51729,"lng":-88.99916,"zip":"61790","miles_from_dt":10.96},{"city":"Bloomington","state_name":"Illinois","lat":40.47697,"lng":-88.99278,"zip":"61701","miles_from_dt":11.86},{"city":"Bloomington","state_name":"Illinois","lat":40.46099,"lng":-88.99981,"zip":"61705","miles_from_dt":11.92},{"city":"Shirley","state_name":"Illinois","lat":40.386,"lng":-89.06351,"zip":"61772","miles_from_dt":12.54},{"city":"Secor","state_name":"Illinois","lat":40.70725,"lng":-89.14184,"zip":"61771","miles_from_dt":12.61},{"city":"Eureka","state_name":"Illinois","lat":40.71146,"lng":-89.26287,"zip":"61530","miles_from_dt":12.78},{"city":"Hudson","state_name":"Illinois","lat":40.61483,"lng":-88.98898,"zip":"61748","miles_from_dt":12.81},{"city":"Bloomington","state_name":"Illinois","lat":40.6061,"lng":-88.98251,"zip":"61702","miles_from_dt":12.87},{"city":"Normal","state_name":"Illinois","lat":40.52503,"lng":-88.95152,"zip":"61761","miles_from_dt":13.43},{"city":"Morton","state_name":"Illinois","lat":40.61054,"lng":-89.44049,"zip":"61550","miles_from_dt":13.48},{"city":"Bloomington","state_name":"Illinois","lat":40.42847,"lng":-88.98691,"zip":"61799","miles_from_dt":13.57},{"city":"Armington","state_name":"Illinois","lat":40.35349,"lng":-89.32238,"zip":"61721","miles_from_dt":13.7},{"city":"Bloomington","state_name":"Illinois","lat":40.47427,"lng":-88.95577,"zip":"61791","miles_from_dt":13.78},{"city":"Bloomington","state_name":"Illinois","lat":40.47829,"lng":-88.95273,"zip":"61710","miles_from_dt":13.85},{"city":"Bloomington","state_name":"Illinois","lat":40.45862,"lng":-88.96112,"zip":"61709","miles_from_dt":13.86},{"city":"McLean","state_name":"Illinois","lat":40.3287,"lng":-89.15744,"zip":"61754","miles_from_dt":14.21},{"city":"Hopedale","state_name":"Illinois","lat":40.4174,"lng":-89.43295,"zip":"61747","miles_from_dt":14.29},{"city":"Tremont","state_name":"Illinois","lat":40.50484,"lng":-89.47876,"zip":"61568","miles_from_dt":14.45},{"city":"Bloomington","state_name":"Illinois","lat":40.46951,"lng":-88.94281,"zip":"61704","miles_from_dt":14.53},{"city":"Washington","state_name":"Illinois","lat":40.70506,"lng":-89.42294,"zip":"61571","miles_from_dt":16.54},{"city":"Peoria","state_name":"Illinois","lat":40.6375,"lng":-89.49684,"zip":"61650","miles_from_dt":16.94},{"city":"Groveland","state_name":"Illinois","lat":40.58578,"lng":-89.52316,"zip":"61535","miles_from_dt":17.09},{"city":"El Paso","state_name":"Illinois","lat":40.74925,"lng":-89.02821,"zip":"61738","miles_from_dt":17.72},{"city":"Towanda","state_name":"Illinois","lat":40.5713,"lng":-88.86706,"zip":"61776","miles_from_dt":18.08},{"city":"Atlanta","state_name":"Illinois","lat":40.26139,"lng":-89.26703,"zip":"61723","miles_from_dt":18.89},{"city":"Roanoke","state_name":"Illinois","lat":40.80582,"lng":-89.20475,"zip":"61561","miles_from_dt":18.95},{"city":"Heyworth","state_name":"Illinois","lat":40.32152,"lng":-88.96684,"zip":"61745","miles_from_dt":19.21},{"city":"Delavan","state_name":"Illinois","lat":40.37431,"lng":-89.52549,"zip":"61734","miles_from_dt":20},{"city":"Merna","state_name":"Illinois","lat":40.51426,"lng":-88.82616,"zip":"61758","miles_from_dt":20.06},{"city":"East Peoria","state_name":"Illinois","lat":40.7083,"lng":-89.52238,"zip":"61635","miles_from_dt":20.62},{"city":"Emden","state_name":"Illinois","lat":40.29653,"lng":-89.46573,"zip":"62635","miles_from_dt":21.19},{"city":"East Peoria","state_name":"Illinois","lat":40.71185,"lng":-89.53469,"zip":"61611","miles_from_dt":21.29},{"city":"Downs","state_name":"Illinois","lat":40.40335,"lng":-88.83804,"zip":"61736","miles_from_dt":21.33},{"city":"Pekin","state_name":"Illinois","lat":40.54441,"lng":-89.62181,"zip":"61554","miles_from_dt":21.88},{"city":"Waynesville","state_name":"Illinois","lat":40.22575,"lng":-89.09104,"zip":"61778","miles_from_dt":21.94},{"city":"Metamora","state_name":"Illinois","lat":40.80887,"lng":-89.41311,"zip":"61548","miles_from_dt":22.02},{"city":"Creve Coeur","state_name":"Illinois","lat":40.64294,"lng":-89.59882,"zip":"61610","miles_from_dt":22.03},{"city":"Lawndale","state_name":"Illinois","lat":40.21455,"lng":-89.29926,"zip":"61751","miles_from_dt":22.39},{"city":"Gridley","state_name":"Illinois","lat":40.74377,"lng":-88.88118,"zip":"61744","miles_from_dt":22.53},{"city":"Peoria","state_name":"Illinois","lat":40.70966,"lng":-89.5664,"zip":"61639","miles_from_dt":22.58},{"city":"Benson","state_name":"Illinois","lat":40.85555,"lng":-89.13197,"zip":"61516","miles_from_dt":22.72},{"city":"Peoria","state_name":"Illinois","lat":40.72414,"lng":-89.55686,"zip":"61643","miles_from_dt":22.73},{"city":"Pekin","state_name":"Illinois","lat":40.56747,"lng":-89.63825,"zip":"61558","miles_from_dt":22.86},{"city":"Peoria","state_name":"Illinois","lat":40.68166,"lng":-89.59449,"zip":"61612","miles_from_dt":22.89},{"city":"Peoria","state_name":"Illinois","lat":40.69138,"lng":-89.58871,"zip":"61634","miles_from_dt":22.94},{"city":"Peoria","state_name":"Illinois","lat":40.68366,"lng":-89.59519,"zip":"61655","miles_from_dt":22.99},{"city":"Peoria","state_name":"Illinois","lat":40.7122,"lng":-89.57465,"zip":"61603","miles_from_dt":23.04},{"city":"Pekin","state_name":"Illinois","lat":40.56675,"lng":-89.64293,"zip":"61555","miles_from_dt":23.1},{"city":"Peoria","state_name":"Illinois","lat":40.69401,"lng":-89.59085,"zip":"61601","miles_from_dt":23.12},{"city":"Lexington","state_name":"Illinois","lat":40.63568,"lng":-88.78883,"zip":"61753","miles_from_dt":23.12},{"city":"Peoria","state_name":"Illinois","lat":40.693,"lng":-89.59305,"zip":"61629","miles_from_dt":23.19},{"city":"Peoria","state_name":"Illinois","lat":40.67987,"lng":-89.60219,"zip":"61651","miles_from_dt":23.2},{"city":"Peoria","state_name":"Illinois","lat":40.67769,"lng":-89.60371,"zip":"61654","miles_from_dt":23.21},{"city":"Peoria","state_name":"Illinois","lat":40.68284,"lng":-89.60181,"zip":"61630","miles_from_dt":23.27},{"city":"Peoria","state_name":"Illinois","lat":40.69951,"lng":-89.59014,"zip":"61637","miles_from_dt":23.28},{"city":"Peoria","state_name":"Illinois","lat":40.68005,"lng":-89.60395,"zip":"61602","miles_from_dt":23.29},{"city":"Peoria","state_name":"Illinois","lat":40.68,"lng":-89.60427,"zip":"61653","miles_from_dt":23.3},{"city":"Peoria","state_name":"Illinois","lat":40.67885,"lng":-89.6076,"zip":"61652","miles_from_dt":23.43},{"city":"Peoria","state_name":"Illinois","lat":40.68351,"lng":-89.60653,"zip":"61656","miles_from_dt":23.52},{"city":"Peoria","state_name":"Illinois","lat":40.7002,"lng":-89.59859,"zip":"61636","miles_from_dt":23.69},{"city":"South Pekin","state_name":"Illinois","lat":40.49848,"lng":-89.65624,"zip":"61564","miles_from_dt":23.79},{"city":"Hartsburg","state_name":"Illinois","lat":40.24154,"lng":-89.45774,"zip":"62643","miles_from_dt":23.99},{"city":"Peoria","state_name":"Illinois","lat":40.70011,"lng":-89.61187,"zip":"61606","miles_from_dt":24.29},{"city":"Peoria Heights","state_name":"Illinois","lat":40.74682,"lng":-89.57195,"zip":"61616","miles_from_dt":24.3},{"city":"Peoria","state_name":"Illinois","lat":40.6978,"lng":-89.61455,"zip":"61625","miles_from_dt":24.34},{"city":"Wapella","state_name":"Illinois","lat":40.243,"lng":-88.93948,"zip":"61777","miles_from_dt":24.37},{"city":"Lowpoint","state_name":"Illinois","lat":40.86837,"lng":-89.35253,"zip":"61545","miles_from_dt":24.5},{"city":"Peoria","state_name":"Illinois","lat":40.6765,"lng":-89.63317,"zip":"61605","miles_from_dt":24.58},{"city":"Cooksville","state_name":"Illinois","lat":40.53262,"lng":-88.73437,"zip":"61730","miles_from_dt":24.85},{"city":"Green Valley","state_name":"Illinois","lat":40.41499,"lng":-89.66464,"zip":"61534","miles_from_dt":25.44},{"city":"Ellsworth","state_name":"Illinois","lat":40.45646,"lng":-88.73331,"zip":"61737","miles_from_dt":25.45},{"city":"Peoria","state_name":"Illinois","lat":40.62895,"lng":-89.68627,"zip":"61607","miles_from_dt":26.13},{"city":"Peoria","state_name":"Illinois","lat":40.75872,"lng":-89.60486,"zip":"61614","miles_from_dt":26.17},{"city":"Minonk","state_name":"Illinois","lat":40.88713,"lng":-89.03263,"zip":"61760","miles_from_dt":26.2},{"city":"Peoria","state_name":"Illinois","lat":40.70525,"lng":-89.65297,"zip":"61604","miles_from_dt":26.37},{"city":"Peoria","state_name":"Illinois","lat":40.65306,"lng":-89.68375,"zip":"61641","miles_from_dt":26.48},{"city":"Peoria","state_name":"Illinois","lat":40.74237,"lng":-89.62819,"zip":"61613","miles_from_dt":26.53},{"city":"Beason","state_name":"Illinois","lat":40.14601,"lng":-89.20312,"zip":"62512","miles_from_dt":26.58},{"city":"Peoria","state_name":"Illinois","lat":40.70828,"lng":-89.66265,"zip":"61633","miles_from_dt":26.92},{"city":"Le Roy","state_name":"Illinois","lat":40.33703,"lng":-88.76168,"zip":"61752","miles_from_dt":27.01},{"city":"Washburn","state_name":"Illinois","lat":40.91933,"lng":-89.31578,"zip":"61570","miles_from_dt":27.39},{"city":"Mossville","state_name":"Illinois","lat":40.82133,"lng":-89.56496,"zip":"61552","miles_from_dt":27.48},{"city":"San Jose","state_name":"Illinois","lat":40.29487,"lng":-89.63541,"zip":"62682","miles_from_dt":27.89},{"city":"Peoria","state_name":"Illinois","lat":40.78088,"lng":-89.63102,"zip":"61615","miles_from_dt":28.19},{"city":"Lincoln","state_name":"Illinois","lat":40.13948,"lng":-89.36622,"zip":"62656","miles_from_dt":28.32},{"city":"Mapleton","state_name":"Illinois","lat":40.60962,"lng":-89.73847,"zip":"61547","miles_from_dt":28.51},{"city":"Rome","state_name":"Illinois","lat":40.88102,"lng":-89.50144,"zip":"61562","miles_from_dt":28.68},{"city":"Peoria","state_name":"Illinois","lat":40.80424,"lng":-89.62971,"zip":"61638","miles_from_dt":29.14},{"city":"Clinton","state_name":"Illinois","lat":40.14701,"lng":-88.95245,"zip":"61727","miles_from_dt":29.71},{"city":"Kingston Mines","state_name":"Illinois","lat":40.55375,"lng":-89.77561,"zip":"61539","miles_from_dt":30}],"targetCityZipCode":"61732","targetCityState":"Illinois"},"__N_SSG":true}