{"pageProps":{"stateName":"Illinois","cityName":"dunlap","nearbyCities":[{"city":"Peoria","state_name":"Illinois","lat":40.80424,"lng":-89.62971,"zip":"61638","miles_from_dt":3.69},{"city":"Peoria","state_name":"Illinois","lat":40.78088,"lng":-89.63102,"zip":"61615","miles_from_dt":5.06},{"city":"Edwards","state_name":"Illinois","lat":40.7757,"lng":-89.7227,"zip":"61528","miles_from_dt":5.68},{"city":"Mossville","state_name":"Illinois","lat":40.82133,"lng":-89.56496,"zip":"61552","miles_from_dt":5.82},{"city":"Edelstein","state_name":"Illinois","lat":40.92899,"lng":-89.62599,"zip":"61526","miles_from_dt":6.07},{"city":"Peoria","state_name":"Illinois","lat":40.75872,"lng":-89.60486,"zip":"61614","miles_from_dt":7.04},{"city":"Princeville","state_name":"Illinois","lat":40.92101,"lng":-89.77438,"zip":"61559","miles_from_dt":7.43},{"city":"Peoria","state_name":"Illinois","lat":40.74237,"lng":-89.62819,"zip":"61613","miles_from_dt":7.6},{"city":"Chillicothe","state_name":"Illinois","lat":40.91751,"lng":-89.53562,"zip":"61523","miles_from_dt":8.55},{"city":"Peoria Heights","state_name":"Illinois","lat":40.74682,"lng":-89.57195,"zip":"61616","miles_from_dt":8.67},{"city":"Rome","state_name":"Illinois","lat":40.88102,"lng":-89.50144,"zip":"61562","miles_from_dt":9.15},{"city":"Peoria","state_name":"Illinois","lat":40.70828,"lng":-89.66265,"zip":"61633","miles_from_dt":9.63},{"city":"Brimfield","state_name":"Illinois","lat":40.823,"lng":-89.85155,"zip":"61517","miles_from_dt":9.64},{"city":"Peoria","state_name":"Illinois","lat":40.70525,"lng":-89.65297,"zip":"61604","miles_from_dt":9.88},{"city":"Peoria","state_name":"Illinois","lat":40.72414,"lng":-89.55686,"zip":"61643","miles_from_dt":10.41},{"city":"Peoria","state_name":"Illinois","lat":40.7122,"lng":-89.57465,"zip":"61603","miles_from_dt":10.62},{"city":"Peoria","state_name":"Illinois","lat":40.70011,"lng":-89.61187,"zip":"61606","miles_from_dt":10.64},{"city":"Peoria","state_name":"Illinois","lat":40.6978,"lng":-89.61455,"zip":"61625","miles_from_dt":10.76},{"city":"Speer","state_name":"Illinois","lat":41.00192,"lng":-89.63939,"zip":"61479","miles_from_dt":10.76},{"city":"Peoria","state_name":"Illinois","lat":40.7002,"lng":-89.59859,"zip":"61636","miles_from_dt":10.86},{"city":"Peoria","state_name":"Illinois","lat":40.70966,"lng":-89.5664,"zip":"61639","miles_from_dt":10.98},{"city":"Peoria","state_name":"Illinois","lat":40.69951,"lng":-89.59014,"zip":"61637","miles_from_dt":11.06},{"city":"Peoria","state_name":"Illinois","lat":40.69401,"lng":-89.59085,"zip":"61601","miles_from_dt":11.4},{"city":"Peoria","state_name":"Illinois","lat":40.693,"lng":-89.59305,"zip":"61629","miles_from_dt":11.43},{"city":"Peoria","state_name":"Illinois","lat":40.69138,"lng":-89.58871,"zip":"61634","miles_from_dt":11.61},{"city":"East Peoria","state_name":"Illinois","lat":40.71185,"lng":-89.53469,"zip":"61611","miles_from_dt":11.78},{"city":"Peoria","state_name":"Illinois","lat":40.68351,"lng":-89.60653,"zip":"61656","miles_from_dt":11.82},{"city":"Peoria","state_name":"Illinois","lat":40.68284,"lng":-89.60181,"zip":"61630","miles_from_dt":11.94},{"city":"Peoria","state_name":"Illinois","lat":40.6765,"lng":-89.63317,"zip":"61605","miles_from_dt":11.98},{"city":"Peoria","state_name":"Illinois","lat":40.68366,"lng":-89.59519,"zip":"61655","miles_from_dt":11.99},{"city":"Peoria","state_name":"Illinois","lat":40.68,"lng":-89.60427,"zip":"61653","miles_from_dt":12.09},{"city":"Peoria","state_name":"Illinois","lat":40.68005,"lng":-89.60395,"zip":"61602","miles_from_dt":12.09},{"city":"Peoria","state_name":"Illinois","lat":40.67885,"lng":-89.6076,"zip":"61652","miles_from_dt":12.11},{"city":"Peoria","state_name":"Illinois","lat":40.68166,"lng":-89.59449,"zip":"61612","miles_from_dt":12.13},{"city":"Peoria","state_name":"Illinois","lat":40.67987,"lng":-89.60219,"zip":"61651","miles_from_dt":12.13},{"city":"Peoria","state_name":"Illinois","lat":40.67769,"lng":-89.60371,"zip":"61654","miles_from_dt":12.25},{"city":"East Peoria","state_name":"Illinois","lat":40.7083,"lng":-89.52238,"zip":"61635","miles_from_dt":12.37},{"city":"Hanna City","state_name":"Illinois","lat":40.69051,"lng":-89.78688,"zip":"61536","miles_from_dt":12.45},{"city":"Peoria","state_name":"Illinois","lat":40.65306,"lng":-89.68375,"zip":"61641","miles_from_dt":13.45},{"city":"Metamora","state_name":"Illinois","lat":40.80887,"lng":-89.41311,"zip":"61548","miles_from_dt":13.75},{"city":"Creve Coeur","state_name":"Illinois","lat":40.64294,"lng":-89.59882,"zip":"61610","miles_from_dt":14.62},{"city":"Elmwood","state_name":"Illinois","lat":40.7809,"lng":-89.93673,"zip":"61529","miles_from_dt":14.7},{"city":"Wyoming","state_name":"Illinois","lat":41.05982,"lng":-89.72525,"zip":"61491","miles_from_dt":14.91},{"city":"Peoria","state_name":"Illinois","lat":40.62895,"lng":-89.68627,"zip":"61607","miles_from_dt":15.12},{"city":"Laura","state_name":"Illinois","lat":40.94117,"lng":-89.93555,"zip":"61451","miles_from_dt":15.3},{"city":"Sparland","state_name":"Illinois","lat":41.032,"lng":-89.50718,"zip":"61565","miles_from_dt":15.32},{"city":"Camp Grove","state_name":"Illinois","lat":41.07671,"lng":-89.63513,"zip":"61424","miles_from_dt":15.91},{"city":"Washington","state_name":"Illinois","lat":40.70506,"lng":-89.42294,"zip":"61571","miles_from_dt":16.3},{"city":"Trivoli","state_name":"Illinois","lat":40.67788,"lng":-89.89324,"zip":"61569","miles_from_dt":16.55},{"city":"Lowpoint","state_name":"Illinois","lat":40.86837,"lng":-89.35253,"zip":"61545","miles_from_dt":16.72},{"city":"Mapleton","state_name":"Illinois","lat":40.60962,"lng":-89.73847,"zip":"61547","miles_from_dt":16.82},{"city":"Peoria","state_name":"Illinois","lat":40.6375,"lng":-89.49684,"zip":"61650","miles_from_dt":17.13},{"city":"Castleton","state_name":"Illinois","lat":41.11964,"lng":-89.70601,"zip":"61426","miles_from_dt":18.85},{"city":"Washburn","state_name":"Illinois","lat":40.91933,"lng":-89.31578,"zip":"61570","miles_from_dt":19.22},{"city":"Toulon","state_name":"Illinois","lat":41.08157,"lng":-89.87186,"zip":"61483","miles_from_dt":19.27},{"city":"Yates City","state_name":"Illinois","lat":40.79768,"lng":-90.0343,"zip":"61572","miles_from_dt":19.38},{"city":"Pekin","state_name":"Illinois","lat":40.56747,"lng":-89.63825,"zip":"61558","miles_from_dt":19.41},{"city":"Pekin","state_name":"Illinois","lat":40.56675,"lng":-89.64293,"zip":"61555","miles_from_dt":19.44},{"city":"Williamsfield","state_name":"Illinois","lat":40.93462,"lng":-90.02664,"zip":"61489","miles_from_dt":19.59},{"city":"Groveland","state_name":"Illinois","lat":40.58578,"lng":-89.52316,"zip":"61535","miles_from_dt":19.66},{"city":"Lacon","state_name":"Illinois","lat":41.01856,"lng":-89.36867,"zip":"61540","miles_from_dt":19.71},{"city":"Glasford","state_name":"Illinois","lat":40.58736,"lng":-89.84029,"zip":"61533","miles_from_dt":20.06},{"city":"Morton","state_name":"Illinois","lat":40.61054,"lng":-89.44049,"zip":"61550","miles_from_dt":20.34},{"city":"Kingston Mines","state_name":"Illinois","lat":40.55375,"lng":-89.77561,"zip":"61539","miles_from_dt":21.03},{"city":"Pekin","state_name":"Illinois","lat":40.54441,"lng":-89.62181,"zip":"61554","miles_from_dt":21.09},{"city":"Henry","state_name":"Illinois","lat":41.11607,"lng":-89.47035,"zip":"61537","miles_from_dt":21.27},{"city":"Farmington","state_name":"Illinois","lat":40.68291,"lng":-90.03482,"zip":"61531","miles_from_dt":22.24},{"city":"La Fayette","state_name":"Illinois","lat":41.08926,"lng":-89.97051,"zip":"61449","miles_from_dt":22.89},{"city":"Bradford","state_name":"Illinois","lat":41.1792,"lng":-89.65083,"zip":"61421","miles_from_dt":22.89},{"city":"Eureka","state_name":"Illinois","lat":40.71146,"lng":-89.26287,"zip":"61530","miles_from_dt":23.36},{"city":"Deer Creek","state_name":"Illinois","lat":40.62421,"lng":-89.33573,"zip":"61733","miles_from_dt":23.38},{"city":"Dahinda","state_name":"Illinois","lat":40.93262,"lng":-90.10977,"zip":"61428","miles_from_dt":23.74},{"city":"South Pekin","state_name":"Illinois","lat":40.49848,"lng":-89.65624,"zip":"61564","miles_from_dt":24.11},{"city":"Norris","state_name":"Illinois","lat":40.62136,"lng":-90.02686,"zip":"61553","miles_from_dt":24.37},{"city":"La Rose","state_name":"Illinois","lat":40.98039,"lng":-89.23497,"zip":"61541","miles_from_dt":24.57},{"city":"Roanoke","state_name":"Illinois","lat":40.80582,"lng":-89.20475,"zip":"61561","miles_from_dt":24.58},{"city":"Victoria","state_name":"Illinois","lat":41.01677,"lng":-90.09764,"zip":"61485","miles_from_dt":25.21},{"city":"Goodfield","state_name":"Illinois","lat":40.63341,"lng":-89.27322,"zip":"61742","miles_from_dt":25.56},{"city":"Varna","state_name":"Illinois","lat":41.03254,"lng":-89.24688,"zip":"61375","miles_from_dt":25.57},{"city":"Tremont","state_name":"Illinois","lat":40.50484,"lng":-89.47876,"zip":"61568","miles_from_dt":25.72},{"city":"Maquon","state_name":"Illinois","lat":40.78027,"lng":-90.18107,"zip":"61458","miles_from_dt":27.17},{"city":"Putnam","state_name":"Illinois","lat":41.18581,"lng":-89.40077,"zip":"61560","miles_from_dt":27.26},{"city":"Congerville","state_name":"Illinois","lat":40.62799,"lng":-89.22393,"zip":"61729","miles_from_dt":27.92},{"city":"Canton","state_name":"Illinois","lat":40.54197,"lng":-90.02156,"zip":"61520","miles_from_dt":28.02},{"city":"Manito","state_name":"Illinois","lat":40.45212,"lng":-89.80172,"zip":"61546","miles_from_dt":28.16},{"city":"Mackinaw","state_name":"Illinois","lat":40.52661,"lng":-89.33909,"zip":"61755","miles_from_dt":28.18},{"city":"Benson","state_name":"Illinois","lat":40.85555,"lng":-89.13197,"zip":"61516","miles_from_dt":28.22},{"city":"Toluca","state_name":"Illinois","lat":40.9827,"lng":-89.15397,"zip":"61369","miles_from_dt":28.6},{"city":"Gilson","state_name":"Illinois","lat":40.86067,"lng":-90.21739,"zip":"61436","miles_from_dt":28.67},{"city":"Fairview","state_name":"Illinois","lat":40.65055,"lng":-90.16086,"zip":"61432","miles_from_dt":29.11},{"city":"Secor","state_name":"Illinois","lat":40.70725,"lng":-89.14184,"zip":"61771","miles_from_dt":29.38},{"city":"Galva","state_name":"Illinois","lat":41.17387,"lng":-90.03598,"zip":"61434","miles_from_dt":29.52},{"city":"Tiskilwa","state_name":"Illinois","lat":41.26113,"lng":-89.51981,"zip":"61368","miles_from_dt":29.59},{"city":"Magnolia","state_name":"Illinois","lat":41.1073,"lng":-89.21727,"zip":"61336","miles_from_dt":29.71},{"city":"Green Valley","state_name":"Illinois","lat":40.41499,"lng":-89.66464,"zip":"61534","miles_from_dt":29.86}],"targetCityZipCode":"61525","targetCityState":"Illinois"},"__N_SSG":true}