{"pageProps":{"stateName":"Illinois","cityName":"eddyville","nearbyCities":[{"city":"Simpson","state_name":"Illinois","lat":37.46768,"lng":-88.68933,"zip":"62985","miles_from_dt":6.78},{"city":"Golconda","state_name":"Illinois","lat":37.38249,"lng":-88.54676,"zip":"62938","miles_from_dt":6.79},{"city":"Herod","state_name":"Illinois","lat":37.55676,"lng":-88.4348,"zip":"62947","miles_from_dt":8.99},{"city":"Stonefort","state_name":"Illinois","lat":37.61114,"lng":-88.65695,"zip":"62987","miles_from_dt":10.33},{"city":"Rosiclare","state_name":"Illinois","lat":37.42808,"lng":-88.35967,"zip":"62982","miles_from_dt":11.93},{"city":"New Burnside","state_name":"Illinois","lat":37.58092,"lng":-88.75089,"zip":"62967","miles_from_dt":12.29},{"city":"Grantsburg","state_name":"Illinois","lat":37.35586,"lng":-88.74669,"zip":"62943","miles_from_dt":13.07},{"city":"Ozark","state_name":"Illinois","lat":37.5419,"lng":-88.8162,"zip":"62972","miles_from_dt":14.36},{"city":"Harrisburg","state_name":"Illinois","lat":37.7028,"lng":-88.52887,"zip":"62946","miles_from_dt":15.53},{"city":"Carrier Mills","state_name":"Illinois","lat":37.69752,"lng":-88.64882,"zip":"62917","miles_from_dt":15.69},{"city":"Hampton","state_name":"Kentucky","lat":37.30061,"lng":-88.39046,"zip":"42047","miles_from_dt":15.7},{"city":"Elizabethtown","state_name":"Illinois","lat":37.52813,"lng":-88.27953,"zip":"62931","miles_from_dt":16.13},{"city":"Creal Springs","state_name":"Illinois","lat":37.6215,"lng":-88.81531,"zip":"62922","miles_from_dt":16.79},{"city":"Vienna","state_name":"Illinois","lat":37.41945,"lng":-88.88244,"zip":"62995","miles_from_dt":17.84},{"city":"Metropolis","state_name":"Illinois","lat":37.22515,"lng":-88.71097,"zip":"62960","miles_from_dt":19.26},{"city":"Equality","state_name":"Illinois","lat":37.70876,"lng":-88.36175,"zip":"62934","miles_from_dt":19.4},{"city":"Smithland","state_name":"Kentucky","lat":37.22821,"lng":-88.40274,"zip":"42081","miles_from_dt":19.55},{"city":"Muddy","state_name":"Illinois","lat":37.76753,"lng":-88.5177,"zip":"62965","miles_from_dt":20.04},{"city":"Belknap","state_name":"Illinois","lat":37.30827,"lng":-88.86603,"zip":"62908","miles_from_dt":20.26},{"city":"Salem","state_name":"Kentucky","lat":37.28876,"lng":-88.27202,"zip":"42078","miles_from_dt":20.89},{"city":"Burna","state_name":"Kentucky","lat":37.23637,"lng":-88.33946,"zip":"42028","miles_from_dt":20.93},{"city":"Junction","state_name":"Illinois","lat":37.69462,"lng":-88.27428,"zip":"62954","miles_from_dt":21.85},{"city":"Brookport","state_name":"Illinois","lat":37.1562,"lng":-88.53075,"zip":"62910","miles_from_dt":22.39},{"city":"Goreville","state_name":"Illinois","lat":37.5489,"lng":-88.98088,"zip":"62939","miles_from_dt":23.24},{"city":"Cave In Rock","state_name":"Illinois","lat":37.52057,"lng":-88.14653,"zip":"62919","miles_from_dt":23.26},{"city":"Boles","state_name":"Illinois","lat":37.46581,"lng":-88.99636,"zip":"62909","miles_from_dt":23.63},{"city":"Pittsburg","state_name":"Illinois","lat":37.78158,"lng":-88.79094,"zip":"62974","miles_from_dt":24.18},{"city":"Joppa","state_name":"Illinois","lat":37.20684,"lng":-88.84533,"zip":"62953","miles_from_dt":24.27},{"city":"Karnak","state_name":"Illinois","lat":37.27805,"lng":-88.93127,"zip":"62956","miles_from_dt":24.4},{"city":"Marion","state_name":"Illinois","lat":37.71442,"lng":-88.91463,"zip":"62959","miles_from_dt":25.03},{"city":"Galatia","state_name":"Illinois","lat":37.84281,"lng":-88.63194,"zip":"62935","miles_from_dt":25.3},{"city":"Raleigh","state_name":"Illinois","lat":37.85179,"lng":-88.54384,"zip":"62977","miles_from_dt":25.7},{"city":"Buncombe","state_name":"Illinois","lat":37.47598,"lng":-89.0388,"zip":"62912","miles_from_dt":25.94},{"city":"Eldorado","state_name":"Illinois","lat":37.84379,"lng":-88.44139,"zip":"62930","miles_from_dt":26.04},{"city":"Tiline","state_name":"Kentucky","lat":37.16381,"lng":-88.27767,"zip":"42083","miles_from_dt":26.98},{"city":"Marion","state_name":"Kentucky","lat":37.35022,"lng":-88.09158,"zip":"42064","miles_from_dt":27.62},{"city":"Cypress","state_name":"Illinois","lat":37.33709,"lng":-89.03671,"zip":"62923","miles_from_dt":27.66},{"city":"Grand Chain","state_name":"Illinois","lat":37.24142,"lng":-88.97186,"zip":"62941","miles_from_dt":27.69},{"city":"Paducah","state_name":"Kentucky","lat":37.06855,"lng":-88.62494,"zip":"42002","miles_from_dt":28.53},{"city":"Shawneetown","state_name":"Illinois","lat":37.73152,"lng":-88.14903,"zip":"62984","miles_from_dt":28.76},{"city":"Ridgway","state_name":"Illinois","lat":37.80813,"lng":-88.2365,"zip":"62979","miles_from_dt":29.01},{"city":"West Paducah","state_name":"Kentucky","lat":37.0828,"lng":-88.76838,"zip":"42086","miles_from_dt":29.53},{"city":"Ledbetter","state_name":"Kentucky","lat":37.05329,"lng":-88.4714,"zip":"42058","miles_from_dt":29.86}],"targetCityZipCode":"62928","targetCityState":"Illinois"},"__N_SSG":true}