{"pageProps":{"stateName":"Illinois","cityName":"elwin","nearbyCities":[{"city":"Decatur","state_name":"Illinois","lat":39.81435,"lng":-88.93086,"zip":"62521","miles_from_dt":3.62},{"city":"Boody","state_name":"Illinois","lat":39.76753,"lng":-89.04508,"zip":"62514","miles_from_dt":3.63},{"city":"Decatur","state_name":"Illinois","lat":39.83282,"lng":-88.9444,"zip":"62525","miles_from_dt":4.28},{"city":"Macon","state_name":"Illinois","lat":39.70854,"lng":-88.97375,"zip":"62544","miles_from_dt":4.68},{"city":"Decatur","state_name":"Illinois","lat":39.84372,"lng":-88.95289,"zip":"62523","miles_from_dt":4.83},{"city":"Decatur","state_name":"Illinois","lat":39.83008,"lng":-89.04743,"zip":"62522","miles_from_dt":5.24},{"city":"Mt Zion","state_name":"Illinois","lat":39.76985,"lng":-88.8657,"zip":"62549","miles_from_dt":5.99},{"city":"Harristown","state_name":"Illinois","lat":39.85263,"lng":-89.09324,"zip":"62537","miles_from_dt":8.09},{"city":"Dalton City","state_name":"Illinois","lat":39.72444,"lng":-88.83548,"zip":"61925","miles_from_dt":8.38},{"city":"Decatur","state_name":"Illinois","lat":39.90322,"lng":-88.9902,"zip":"62526","miles_from_dt":8.78},{"city":"Decatur","state_name":"Illinois","lat":39.90411,"lng":-88.96666,"zip":"62524","miles_from_dt":8.84},{"city":"Blue Mound","state_name":"Illinois","lat":39.72341,"lng":-89.15296,"zip":"62513","miles_from_dt":10.02},{"city":"Forsyth","state_name":"Illinois","lat":39.92549,"lng":-88.96604,"zip":"62535","miles_from_dt":10.31},{"city":"Niantic","state_name":"Illinois","lat":39.85357,"lng":-89.15631,"zip":"62551","miles_from_dt":10.89},{"city":"Moweaqua","state_name":"Illinois","lat":39.61154,"lng":-88.99283,"zip":"62550","miles_from_dt":11.4},{"city":"Warrensburg","state_name":"Illinois","lat":39.94551,"lng":-89.07264,"zip":"62573","miles_from_dt":12.71},{"city":"Oreana","state_name":"Illinois","lat":39.94976,"lng":-88.87107,"zip":"62554","miles_from_dt":13.24},{"city":"La Place","state_name":"Illinois","lat":39.80319,"lng":-88.72684,"zip":"61936","miles_from_dt":13.49},{"city":"Argenta","state_name":"Illinois","lat":39.92973,"lng":-88.80528,"zip":"62501","miles_from_dt":14.01},{"city":"Stonington","state_name":"Illinois","lat":39.64668,"lng":-89.19082,"zip":"62567","miles_from_dt":14.45},{"city":"Mount Auburn","state_name":"Illinois","lat":39.76883,"lng":-89.24929,"zip":"62547","miles_from_dt":14.46},{"city":"Bethany","state_name":"Illinois","lat":39.63409,"lng":-88.76783,"zip":"61914","miles_from_dt":14.88},{"city":"Cerro Gordo","state_name":"Illinois","lat":39.88455,"lng":-88.71798,"zip":"61818","miles_from_dt":15.71},{"city":"Illiopolis","state_name":"Illinois","lat":39.86681,"lng":-89.24914,"zip":"62539","miles_from_dt":15.73},{"city":"Latham","state_name":"Illinois","lat":39.97084,"lng":-89.1518,"zip":"62543","miles_from_dt":16.3},{"city":"Assumption","state_name":"Illinois","lat":39.5315,"lng":-89.02706,"zip":"62510","miles_from_dt":17.09},{"city":"Lovington","state_name":"Illinois","lat":39.73872,"lng":-88.65542,"zip":"61937","miles_from_dt":17.36},{"city":"Maroa","state_name":"Illinois","lat":40.03311,"lng":-88.96368,"zip":"61756","miles_from_dt":17.73},{"city":"Hammond","state_name":"Illinois","lat":39.82338,"lng":-88.62271,"zip":"61929","miles_from_dt":19.17},{"city":"Findlay","state_name":"Illinois","lat":39.53519,"lng":-88.79603,"zip":"62534","miles_from_dt":19.25},{"city":"Milmine","state_name":"Illinois","lat":39.92438,"lng":-88.66056,"zip":"61855","miles_from_dt":19.72},{"city":"Cisco","state_name":"Illinois","lat":40.01122,"lng":-88.72926,"zip":"61830","miles_from_dt":20.91},{"city":"Mount Pulaski","state_name":"Illinois","lat":39.97849,"lng":-89.27988,"zip":"62548","miles_from_dt":21.27},{"city":"Buffalo","state_name":"Illinois","lat":39.8561,"lng":-89.36622,"zip":"62515","miles_from_dt":21.38},{"city":"Mechanicsburg","state_name":"Illinois","lat":39.7661,"lng":-89.38737,"zip":"62545","miles_from_dt":21.82},{"city":"Chestnut","state_name":"Illinois","lat":40.05154,"lng":-89.19037,"zip":"62518","miles_from_dt":22.09},{"city":"Taylorville","state_name":"Illinois","lat":39.55974,"lng":-89.29016,"zip":"62568","miles_from_dt":22.37},{"city":"Edinburg","state_name":"Illinois","lat":39.66754,"lng":-89.37395,"zip":"62531","miles_from_dt":22.4},{"city":"Kenney","state_name":"Illinois","lat":40.09209,"lng":-89.10943,"zip":"61749","miles_from_dt":22.88},{"city":"Bement","state_name":"Illinois","lat":39.90933,"lng":-88.55796,"zip":"61813","miles_from_dt":24.14},{"city":"Lake Fork","state_name":"Illinois","lat":39.95657,"lng":-89.37085,"zip":"62541","miles_from_dt":24.32},{"city":"Sullivan","state_name":"Illinois","lat":39.59118,"lng":-88.5865,"zip":"61951","miles_from_dt":24.46},{"city":"Cornland","state_name":"Illinois","lat":39.92879,"lng":-89.3953,"zip":"62519","miles_from_dt":24.57},{"city":"Lane","state_name":"Illinois","lat":40.12251,"lng":-88.8557,"zip":"61750","miles_from_dt":24.75},{"city":"Owaneco","state_name":"Illinois","lat":39.46755,"lng":-89.21982,"zip":"62555","miles_from_dt":24.91},{"city":"Clinton","state_name":"Illinois","lat":40.14701,"lng":-88.95245,"zip":"61727","miles_from_dt":25.61},{"city":"Dawson","state_name":"Illinois","lat":39.82185,"lng":-89.45904,"zip":"62520","miles_from_dt":25.8},{"city":"Weldon","state_name":"Illinois","lat":40.11203,"lng":-88.75969,"zip":"61882","miles_from_dt":25.9},{"city":"Shelbyville","state_name":"Illinois","lat":39.41334,"lng":-88.8026,"zip":"62565","miles_from_dt":26.73},{"city":"Pana","state_name":"Illinois","lat":39.39974,"lng":-89.10503,"zip":"62557","miles_from_dt":26.85},{"city":"Kincaid","state_name":"Illinois","lat":39.58496,"lng":-89.41938,"zip":"62540","miles_from_dt":26.99},{"city":"Atwood","state_name":"Illinois","lat":39.82657,"lng":-88.47156,"zip":"61913","miles_from_dt":27.16},{"city":"Tower Hill","state_name":"Illinois","lat":39.38155,"lng":-88.95998,"zip":"62571","miles_from_dt":27.25},{"city":"Monticello","state_name":"Illinois","lat":40.02838,"lng":-88.58211,"zip":"61856","miles_from_dt":27.29},{"city":"Bulpitt","state_name":"Illinois","lat":39.59365,"lng":-89.43285,"zip":"62517","miles_from_dt":27.33},{"city":"Arthur","state_name":"Illinois","lat":39.70452,"lng":-88.47068,"zip":"61911","miles_from_dt":27.46},{"city":"Rochester","state_name":"Illinois","lat":39.71675,"lng":-89.50017,"zip":"62563","miles_from_dt":28.12},{"city":"Beason","state_name":"Illinois","lat":40.14601,"lng":-89.20312,"zip":"62512","miles_from_dt":28.17},{"city":"Tovey","state_name":"Illinois","lat":39.58023,"lng":-89.45107,"zip":"62570","miles_from_dt":28.63},{"city":"Riverton","state_name":"Illinois","lat":39.86754,"lng":-89.50498,"zip":"62561","miles_from_dt":28.74},{"city":"Palmer","state_name":"Illinois","lat":39.46674,"lng":-89.37049,"zip":"62556","miles_from_dt":29.92}],"targetCityZipCode":"62532","targetCityState":"Illinois"},"__N_SSG":true}