{"pageProps":{"stateName":"Illinois","cityName":"emma","nearbyCities":[{"city":"New Haven","state_name":"Illinois","lat":37.90503,"lng":-88.10091,"zip":"62867","miles_from_dt":4.86},{"city":"Maunie","state_name":"Illinois","lat":38.03543,"lng":-88.04569,"zip":"62861","miles_from_dt":5.93},{"city":"Carmi","state_name":"Illinois","lat":38.07301,"lng":-88.13357,"zip":"62821","miles_from_dt":6.89},{"city":"Norris City","state_name":"Illinois","lat":37.96608,"lng":-88.28336,"zip":"62869","miles_from_dt":8.88},{"city":"Omaha","state_name":"Illinois","lat":37.8757,"lng":-88.26499,"zip":"62871","miles_from_dt":10.36},{"city":"Mount Vernon","state_name":"Indiana","lat":37.93284,"lng":-87.90555,"zip":"47620","miles_from_dt":12.1},{"city":"Ridgway","state_name":"Illinois","lat":37.80813,"lng":-88.2365,"zip":"62979","miles_from_dt":13.04},{"city":"Crossville","state_name":"Illinois","lat":38.16573,"lng":-88.04157,"zip":"62827","miles_from_dt":13.94},{"city":"Enfield","state_name":"Illinois","lat":38.10573,"lng":-88.32406,"zip":"62835","miles_from_dt":14.34},{"city":"New Harmony","state_name":"Indiana","lat":38.10082,"lng":-87.90967,"zip":"47631","miles_from_dt":14.49},{"city":"Shawneetown","state_name":"Illinois","lat":37.73152,"lng":-88.14903,"zip":"62984","miles_from_dt":16.77},{"city":"Uniontown","state_name":"Kentucky","lat":37.78668,"lng":-87.88807,"zip":"42461","miles_from_dt":18.12},{"city":"Mill Shoals","state_name":"Illinois","lat":38.2166,"lng":-88.29685,"zip":"62862","miles_from_dt":19.3},{"city":"Broughton","state_name":"Illinois","lat":37.9545,"lng":-88.47762,"zip":"62817","miles_from_dt":19.51},{"city":"Eldorado","state_name":"Illinois","lat":37.84379,"lng":-88.44139,"zip":"62930","miles_from_dt":19.66},{"city":"Grayville","state_name":"Illinois","lat":38.25525,"lng":-88.05018,"zip":"62844","miles_from_dt":19.81},{"city":"Springerton","state_name":"Illinois","lat":38.18478,"lng":-88.36871,"zip":"62887","miles_from_dt":19.86},{"city":"Burnt Prairie","state_name":"Illinois","lat":38.24873,"lng":-88.23561,"zip":"62820","miles_from_dt":19.98},{"city":"Wadesville","state_name":"Indiana","lat":38.06959,"lng":-87.77489,"zip":"47638","miles_from_dt":20.01},{"city":"Dale","state_name":"Illinois","lat":37.99956,"lng":-88.49061,"zip":"62829","miles_from_dt":20.25},{"city":"Junction","state_name":"Illinois","lat":37.69462,"lng":-88.27428,"zip":"62954","miles_from_dt":20.99},{"city":"Griffin","state_name":"Indiana","lat":38.23482,"lng":-87.91038,"zip":"47616","miles_from_dt":21.36},{"city":"Smith Mills","state_name":"Kentucky","lat":37.80799,"lng":-87.77136,"zip":"42457","miles_from_dt":22.27},{"city":"Equality","state_name":"Illinois","lat":37.70876,"lng":-88.36175,"zip":"62934","miles_from_dt":22.51},{"city":"Poseyville","state_name":"Indiana","lat":38.16835,"lng":-87.78736,"zip":"47633","miles_from_dt":22.62},{"city":"Waverly","state_name":"Kentucky","lat":37.74123,"lng":-87.79834,"zip":"42462","miles_from_dt":23.84},{"city":"McLeansboro","state_name":"Illinois","lat":38.07094,"lng":-88.54289,"zip":"62859","miles_from_dt":23.97},{"city":"Morganfield","state_name":"Kentucky","lat":37.66234,"lng":-87.92067,"zip":"42437","miles_from_dt":24.11},{"city":"Barnhill","state_name":"Illinois","lat":38.28023,"lng":-88.33756,"zip":"62809","miles_from_dt":24.21},{"city":"Raleigh","state_name":"Illinois","lat":37.85179,"lng":-88.54384,"zip":"62977","miles_from_dt":24.58},{"city":"Corydon","state_name":"Kentucky","lat":37.77792,"lng":-87.74496,"zip":"42406","miles_from_dt":24.6},{"city":"Evansville","state_name":"Indiana","lat":37.92869,"lng":-87.65951,"zip":"47712","miles_from_dt":25.4},{"city":"Ellery","state_name":"Illinois","lat":38.34071,"lng":-88.16355,"zip":"62833","miles_from_dt":25.42},{"city":"Muddy","state_name":"Illinois","lat":37.76753,"lng":-88.5177,"zip":"62965","miles_from_dt":25.93},{"city":"Evansville","state_name":"Indiana","lat":37.91503,"lng":-87.64879,"zip":"47721","miles_from_dt":26.11},{"city":"Evansville","state_name":"Indiana","lat":38.06065,"lng":-87.64247,"zip":"47720","miles_from_dt":26.8},{"city":"Cynthiana","state_name":"Indiana","lat":38.1946,"lng":-87.70155,"zip":"47612","miles_from_dt":27.48},{"city":"Albion","state_name":"Illinois","lat":38.38405,"lng":-88.07492,"zip":"62806","miles_from_dt":28.42},{"city":"Golden Gate","state_name":"Illinois","lat":38.3828,"lng":-88.19893,"zip":"62843","miles_from_dt":28.54},{"city":"Evansville","state_name":"Indiana","lat":37.98657,"lng":-87.59553,"zip":"47719","miles_from_dt":28.7},{"city":"Sturgis","state_name":"Kentucky","lat":37.5637,"lng":-88.01837,"zip":"42459","miles_from_dt":28.82},{"city":"Harrisburg","state_name":"Illinois","lat":37.7028,"lng":-88.52887,"zip":"62946","miles_from_dt":29.09},{"city":"Browns","state_name":"Illinois","lat":38.37772,"lng":-87.96749,"zip":"62818","miles_from_dt":29.1},{"city":"Evansville","state_name":"Indiana","lat":37.97639,"lng":-87.5855,"zip":"47740","miles_from_dt":29.24},{"city":"Galatia","state_name":"Illinois","lat":37.84281,"lng":-88.63194,"zip":"62935","miles_from_dt":29.34},{"city":"Keensburg","state_name":"Illinois","lat":38.34992,"lng":-87.86676,"zip":"62852","miles_from_dt":29.42},{"city":"Evansville","state_name":"Indiana","lat":37.97434,"lng":-87.57471,"zip":"47731","miles_from_dt":29.83},{"city":"Evansville","state_name":"Indiana","lat":37.97369,"lng":-87.57423,"zip":"47730","miles_from_dt":29.86},{"city":"Evansville","state_name":"Indiana","lat":37.97387,"lng":-87.57357,"zip":"47708","miles_from_dt":29.89},{"city":"Evansville","state_name":"Indiana","lat":37.97313,"lng":-87.57337,"zip":"47737","miles_from_dt":29.9},{"city":"Evansville","state_name":"Indiana","lat":37.97404,"lng":-87.5734,"zip":"47733","miles_from_dt":29.9},{"city":"Evansville","state_name":"Indiana","lat":38.02518,"lng":-87.57618,"zip":"47710","miles_from_dt":29.95},{"city":"Evansville","state_name":"Indiana","lat":37.97734,"lng":-87.57242,"zip":"47701","miles_from_dt":29.96},{"city":"Evansville","state_name":"Indiana","lat":37.9732,"lng":-87.57234,"zip":"47732","miles_from_dt":29.96}],"targetCityZipCode":"62834","targetCityState":"Illinois"},"__N_SSG":true}