{"pageProps":{"stateName":"Illinois","cityName":"grand-ridge","nearbyCities":[{"city":"Streator","state_name":"Illinois","lat":41.12822,"lng":-88.85097,"zip":"61364","miles_from_dt":7.79},{"city":"Marseilles","state_name":"Illinois","lat":41.34015,"lng":-88.69246,"zip":"61341","miles_from_dt":9.39},{"city":"Leonore","state_name":"Illinois","lat":41.18884,"lng":-88.98456,"zip":"61332","miles_from_dt":9.69},{"city":"Ottawa","state_name":"Illinois","lat":41.37152,"lng":-88.86157,"zip":"61350","miles_from_dt":9.69},{"city":"Ransom","state_name":"Illinois","lat":41.16592,"lng":-88.63876,"zip":"60470","miles_from_dt":10.16},{"city":"Tonica","state_name":"Illinois","lat":41.20854,"lng":-89.03476,"zip":"61370","miles_from_dt":11.88},{"city":"Oglesby","state_name":"Illinois","lat":41.2812,"lng":-89.03685,"zip":"61348","miles_from_dt":12.22},{"city":"Seneca","state_name":"Illinois","lat":41.33439,"lng":-88.60522,"zip":"61360","miles_from_dt":12.6},{"city":"Blackstone","state_name":"Illinois","lat":41.07237,"lng":-88.66993,"zip":"61313","miles_from_dt":13.48},{"city":"Ancona","state_name":"Illinois","lat":41.04018,"lng":-88.86219,"zip":"61311","miles_from_dt":13.84},{"city":"Wedron","state_name":"Illinois","lat":41.44383,"lng":-88.76654,"zip":"60557","miles_from_dt":14.47},{"city":"Kinsman","state_name":"Illinois","lat":41.16168,"lng":-88.54981,"zip":"60437","miles_from_dt":14.5},{"city":"Utica","state_name":"Illinois","lat":41.4004,"lng":-88.99456,"zip":"61373","miles_from_dt":14.83},{"city":"Verona","state_name":"Illinois","lat":41.23174,"lng":-88.52078,"zip":"60479","miles_from_dt":15.06},{"city":"Cornell","state_name":"Illinois","lat":41.01291,"lng":-88.73942,"zip":"61319","miles_from_dt":15.87},{"city":"Lostant","state_name":"Illinois","lat":41.14731,"lng":-89.09935,"zip":"61334","miles_from_dt":16.31},{"city":"Cedar Point","state_name":"Illinois","lat":41.25718,"lng":-89.12538,"zip":"61316","miles_from_dt":16.5},{"city":"Wenona","state_name":"Illinois","lat":41.05847,"lng":-89.04444,"zip":"61377","miles_from_dt":17.36},{"city":"Long Point","state_name":"Illinois","lat":40.98845,"lng":-88.88931,"zip":"61333","miles_from_dt":17.63},{"city":"La Salle","state_name":"Illinois","lat":41.39368,"lng":-89.07827,"zip":"61301","miles_from_dt":17.68},{"city":"Serena","state_name":"Illinois","lat":41.4908,"lng":-88.74251,"zip":"60549","miles_from_dt":17.88},{"city":"Peru","state_name":"Illinois","lat":41.33158,"lng":-89.14281,"zip":"61354","miles_from_dt":18.53},{"city":"Standard","state_name":"Illinois","lat":41.25425,"lng":-89.18248,"zip":"61363","miles_from_dt":19.45},{"city":"Dalzell","state_name":"Illinois","lat":41.3553,"lng":-89.17047,"zip":"61320","miles_from_dt":20.48},{"city":"Dana","state_name":"Illinois","lat":40.96754,"lng":-88.97621,"zip":"61321","miles_from_dt":20.51},{"city":"Sheridan","state_name":"Illinois","lat":41.52463,"lng":-88.68992,"zip":"60551","miles_from_dt":20.82},{"city":"Mazon","state_name":"Illinois","lat":41.24246,"lng":-88.40403,"zip":"60444","miles_from_dt":21.14},{"city":"Triumph","state_name":"Illinois","lat":41.49936,"lng":-89.01986,"zip":"61371","miles_from_dt":21.16},{"city":"Troy Grove","state_name":"Illinois","lat":41.46582,"lng":-89.08239,"zip":"61372","miles_from_dt":21.24},{"city":"Rutland","state_name":"Illinois","lat":40.98166,"lng":-89.04299,"zip":"61358","miles_from_dt":21.4},{"city":"Granville","state_name":"Illinois","lat":41.25276,"lng":-89.22083,"zip":"61326","miles_from_dt":21.44},{"city":"Morris","state_name":"Illinois","lat":41.37011,"lng":-88.43417,"zip":"60450","miles_from_dt":21.6},{"city":"Odell","state_name":"Illinois","lat":40.9997,"lng":-88.53393,"zip":"60460","miles_from_dt":21.79},{"city":"McNabb","state_name":"Illinois","lat":41.16141,"lng":-89.23228,"zip":"61335","miles_from_dt":22.63},{"city":"Dwight","state_name":"Illinois","lat":41.08795,"lng":-88.42127,"zip":"60420","miles_from_dt":22.71},{"city":"Ladd","state_name":"Illinois","lat":41.37709,"lng":-89.20791,"zip":"61329","miles_from_dt":22.87},{"city":"Magnolia","state_name":"Illinois","lat":41.1073,"lng":-89.21727,"zip":"61336","miles_from_dt":23.05},{"city":"Mark","state_name":"Illinois","lat":41.26396,"lng":-89.25123,"zip":"61340","miles_from_dt":23.07},{"city":"Spring Valley","state_name":"Illinois","lat":41.35138,"lng":-89.22819,"zip":"61362","miles_from_dt":23.17},{"city":"Flanagan","state_name":"Illinois","lat":40.88779,"lng":-88.86397,"zip":"61740","miles_from_dt":24.25},{"city":"Newark","state_name":"Illinois","lat":41.5193,"lng":-88.52552,"zip":"60541","miles_from_dt":24.46},{"city":"Cherry","state_name":"Illinois","lat":41.43201,"lng":-89.20813,"zip":"61317","miles_from_dt":24.72},{"city":"Graymont","state_name":"Illinois","lat":40.87805,"lng":-88.78142,"zip":"61743","miles_from_dt":24.8},{"city":"Millington","state_name":"Illinois","lat":41.56158,"lng":-88.60246,"zip":"60537","miles_from_dt":24.87},{"city":"Toluca","state_name":"Illinois","lat":40.9827,"lng":-89.15397,"zip":"61369","miles_from_dt":25.1},{"city":"Seatonville","state_name":"Illinois","lat":41.36341,"lng":-89.26962,"zip":"61359","miles_from_dt":25.48},{"city":"Gardner","state_name":"Illinois","lat":41.16604,"lng":-88.32941,"zip":"60424","miles_from_dt":25.5},{"city":"Arlington","state_name":"Illinois","lat":41.43403,"lng":-89.22544,"zip":"61312","miles_from_dt":25.55},{"city":"Mendota","state_name":"Illinois","lat":41.54089,"lng":-89.0938,"zip":"61342","miles_from_dt":25.66},{"city":"Earlville","state_name":"Illinois","lat":41.59997,"lng":-88.92215,"zip":"60518","miles_from_dt":25.74},{"city":"Hennepin","state_name":"Illinois","lat":41.22827,"lng":-89.30876,"zip":"61327","miles_from_dt":26},{"city":"Leland","state_name":"Illinois","lat":41.61563,"lng":-88.78639,"zip":"60531","miles_from_dt":26.18},{"city":"Pontiac","state_name":"Illinois","lat":40.88343,"lng":-88.6263,"zip":"61764","miles_from_dt":26.19},{"city":"Depue","state_name":"Illinois","lat":41.3185,"lng":-89.30566,"zip":"61322","miles_from_dt":26.43},{"city":"Minonk","state_name":"Illinois","lat":40.88713,"lng":-89.03263,"zip":"61760","miles_from_dt":26.79},{"city":"Varna","state_name":"Illinois","lat":41.03254,"lng":-89.24688,"zip":"61375","miles_from_dt":26.81},{"city":"Coal City","state_name":"Illinois","lat":41.29357,"lng":-88.28197,"zip":"60416","miles_from_dt":27.76},{"city":"Millbrook","state_name":"Illinois","lat":41.59853,"lng":-88.55212,"zip":"60536","miles_from_dt":28.33},{"city":"La Rose","state_name":"Illinois","lat":40.98039,"lng":-89.23497,"zip":"61541","miles_from_dt":28.38},{"city":"Braceville","state_name":"Illinois","lat":41.23037,"lng":-88.26415,"zip":"60407","miles_from_dt":28.42},{"city":"South Wilmington","state_name":"Illinois","lat":41.1765,"lng":-88.26983,"zip":"60474","miles_from_dt":28.44},{"city":"Bureau","state_name":"Illinois","lat":41.2865,"lng":-89.36477,"zip":"61315","miles_from_dt":29.11},{"city":"Sandwich","state_name":"Illinois","lat":41.64811,"lng":-88.63471,"zip":"60548","miles_from_dt":29.81},{"city":"Somonauk","state_name":"Illinois","lat":41.66144,"lng":-88.70343,"zip":"60552","miles_from_dt":29.82},{"city":"Malden","state_name":"Illinois","lat":41.43827,"lng":-89.3171,"zip":"61337","miles_from_dt":29.83},{"city":"Campus","state_name":"Illinois","lat":41.03021,"lng":-88.30378,"zip":"60920","miles_from_dt":30}],"targetCityZipCode":"61325","targetCityState":"Illinois"},"__N_SSG":true}