{"pageProps":{"stateName":"Illinois","cityName":"harrisburg","nearbyCities":[{"city":"Muddy","state_name":"Illinois","lat":37.76753,"lng":-88.5177,"zip":"62965","miles_from_dt":4.51},{"city":"Carrier Mills","state_name":"Illinois","lat":37.69752,"lng":-88.64882,"zip":"62917","miles_from_dt":6.58},{"city":"Equality","state_name":"Illinois","lat":37.70876,"lng":-88.36175,"zip":"62934","miles_from_dt":9.17},{"city":"Stonefort","state_name":"Illinois","lat":37.61114,"lng":-88.65695,"zip":"62987","miles_from_dt":9.45},{"city":"Raleigh","state_name":"Illinois","lat":37.85179,"lng":-88.54384,"zip":"62977","miles_from_dt":10.31},{"city":"Eldorado","state_name":"Illinois","lat":37.84379,"lng":-88.44139,"zip":"62930","miles_from_dt":10.84},{"city":"Galatia","state_name":"Illinois","lat":37.84281,"lng":-88.63194,"zip":"62935","miles_from_dt":11.18},{"city":"Herod","state_name":"Illinois","lat":37.55676,"lng":-88.4348,"zip":"62947","miles_from_dt":11.32},{"city":"Junction","state_name":"Illinois","lat":37.69462,"lng":-88.27428,"zip":"62954","miles_from_dt":13.96},{"city":"New Burnside","state_name":"Illinois","lat":37.58092,"lng":-88.75089,"zip":"62967","miles_from_dt":14.8},{"city":"Pittsburg","state_name":"Illinois","lat":37.78158,"lng":-88.79094,"zip":"62974","miles_from_dt":15.35},{"city":"Eddyville","state_name":"Illinois","lat":37.47959,"lng":-88.5668,"zip":"62928","miles_from_dt":15.53},{"city":"Creal Springs","state_name":"Illinois","lat":37.6215,"lng":-88.81531,"zip":"62922","miles_from_dt":16.68},{"city":"Broughton","state_name":"Illinois","lat":37.9545,"lng":-88.47762,"zip":"62817","miles_from_dt":17.58},{"city":"Ridgway","state_name":"Illinois","lat":37.80813,"lng":-88.2365,"zip":"62979","miles_from_dt":17.58},{"city":"Thompsonville","state_name":"Illinois","lat":37.90574,"lng":-88.73944,"zip":"62890","miles_from_dt":18.13},{"city":"Elizabethtown","state_name":"Illinois","lat":37.52813,"lng":-88.27953,"zip":"62931","miles_from_dt":18.23},{"city":"Simpson","state_name":"Illinois","lat":37.46768,"lng":-88.68933,"zip":"62985","miles_from_dt":18.45},{"city":"Omaha","state_name":"Illinois","lat":37.8757,"lng":-88.26499,"zip":"62871","miles_from_dt":18.73},{"city":"Ozark","state_name":"Illinois","lat":37.5419,"lng":-88.8162,"zip":"62972","miles_from_dt":19.28},{"city":"Dale","state_name":"Illinois","lat":37.99956,"lng":-88.49061,"zip":"62829","miles_from_dt":20.57},{"city":"Shawneetown","state_name":"Illinois","lat":37.73152,"lng":-88.14903,"zip":"62984","miles_from_dt":20.9},{"city":"Rosiclare","state_name":"Illinois","lat":37.42808,"lng":-88.35967,"zip":"62982","miles_from_dt":21.1},{"city":"Marion","state_name":"Illinois","lat":37.71442,"lng":-88.91463,"zip":"62959","miles_from_dt":21.15},{"city":"Frankfort Heights","state_name":"Illinois","lat":37.90029,"lng":-88.8408,"zip":"62840","miles_from_dt":21.84},{"city":"Golconda","state_name":"Illinois","lat":37.38249,"lng":-88.54676,"zip":"62938","miles_from_dt":22.11},{"city":"Norris City","state_name":"Illinois","lat":37.96608,"lng":-88.28336,"zip":"62869","miles_from_dt":22.58},{"city":"Johnston City","state_name":"Illinois","lat":37.82637,"lng":-88.92609,"zip":"62951","miles_from_dt":23.36},{"city":"Logan","state_name":"Illinois","lat":37.95246,"lng":-88.83549,"zip":"62856","miles_from_dt":24.04},{"city":"Cave In Rock","state_name":"Illinois","lat":37.52057,"lng":-88.14653,"zip":"62919","miles_from_dt":24.45},{"city":"West Frankfort","state_name":"Illinois","lat":37.89287,"lng":-88.91183,"zip":"62896","miles_from_dt":24.72},{"city":"McLeansboro","state_name":"Illinois","lat":38.07094,"lng":-88.54289,"zip":"62859","miles_from_dt":25.4},{"city":"Macedonia","state_name":"Illinois","lat":38.04022,"lng":-88.72921,"zip":"62860","miles_from_dt":25.72},{"city":"Grantsburg","state_name":"Illinois","lat":37.35586,"lng":-88.74669,"zip":"62943","miles_from_dt":26.75},{"city":"Goreville","state_name":"Illinois","lat":37.5489,"lng":-88.98088,"zip":"62939","miles_from_dt":26.97},{"city":"New Haven","state_name":"Illinois","lat":37.90503,"lng":-88.10091,"zip":"62867","miles_from_dt":27.26},{"city":"Energy","state_name":"Illinois","lat":37.77363,"lng":-89.02003,"zip":"62933","miles_from_dt":27.34},{"city":"Vienna","state_name":"Illinois","lat":37.41945,"lng":-88.88244,"zip":"62995","miles_from_dt":27.54},{"city":"Freeman Spur","state_name":"Illinois","lat":37.8588,"lng":-88.99639,"zip":"62841","miles_from_dt":27.76},{"city":"Herrin","state_name":"Illinois","lat":37.8204,"lng":-89.02542,"zip":"62948","miles_from_dt":28.37},{"city":"Orient","state_name":"Illinois","lat":37.91767,"lng":-88.97802,"zip":"62874","miles_from_dt":28.7},{"city":"Hampton","state_name":"Kentucky","lat":37.30061,"lng":-88.39046,"zip":"42047","miles_from_dt":28.76},{"city":"Emma","state_name":"Illinois","lat":37.97361,"lng":-88.12108,"zip":"62834","miles_from_dt":29.09},{"city":"Sturgis","state_name":"Kentucky","lat":37.5637,"lng":-88.01837,"zip":"42459","miles_from_dt":29.6},{"city":"Benton","state_name":"Illinois","lat":38.00487,"lng":-88.92249,"zip":"62812","miles_from_dt":29.96},{"city":"Enfield","state_name":"Illinois","lat":38.10573,"lng":-88.32406,"zip":"62835","miles_from_dt":29.96}],"targetCityZipCode":"62946","targetCityState":"Illinois"},"__N_SSG":true}