{"pageProps":{"stateName":"Illinois","cityName":"holcomb","nearbyCities":[{"city":"Davis Junction","state_name":"Illinois","lat":42.11035,"lng":-89.09807,"zip":"61020","miles_from_dt":3.03},{"city":"Lindenwood","state_name":"Illinois","lat":42.04417,"lng":-89.00753,"zip":"61049","miles_from_dt":5.25},{"city":"Stillman Valley","state_name":"Illinois","lat":42.11843,"lng":-89.18867,"zip":"61084","miles_from_dt":5.59},{"city":"Monroe Center","state_name":"Illinois","lat":42.11146,"lng":-89.00011,"zip":"61052","miles_from_dt":6.21},{"city":"Chana","state_name":"Illinois","lat":41.99443,"lng":-89.20011,"zip":"61015","miles_from_dt":6.99},{"city":"Esmond","state_name":"Illinois","lat":42.02963,"lng":-88.95371,"zip":"60129","miles_from_dt":8.19},{"city":"Rochelle","state_name":"Illinois","lat":41.94928,"lng":-89.0652,"zip":"61068","miles_from_dt":8.36},{"city":"Rockford","state_name":"Illinois","lat":42.1924,"lng":-89.05392,"zip":"61109","miles_from_dt":9.06},{"city":"Byron","state_name":"Illinois","lat":42.136,"lng":-89.26751,"zip":"61010","miles_from_dt":9.62},{"city":"Rockford","state_name":"Illinois","lat":42.22995,"lng":-89.15632,"zip":"61102","miles_from_dt":11.57},{"city":"Kirkland","state_name":"Illinois","lat":42.10091,"lng":-88.88019,"zip":"60146","miles_from_dt":11.8},{"city":"Creston","state_name":"Illinois","lat":41.93142,"lng":-88.96421,"zip":"60113","miles_from_dt":11.82},{"city":"Cherry Valley","state_name":"Illinois","lat":42.19761,"lng":-88.94704,"zip":"61016","miles_from_dt":12.14},{"city":"Rockford","state_name":"Illinois","lat":42.23736,"lng":-89.01238,"zip":"61125","miles_from_dt":12.7},{"city":"Rockford","state_name":"Illinois","lat":42.25186,"lng":-89.07911,"zip":"61104","miles_from_dt":12.84},{"city":"Oregon","state_name":"Illinois","lat":41.99851,"lng":-89.33819,"zip":"61061","miles_from_dt":12.89},{"city":"Rockford","state_name":"Illinois","lat":42.25363,"lng":-89.01795,"zip":"61126","miles_from_dt":13.65},{"city":"Rockford","state_name":"Illinois","lat":42.24193,"lng":-88.97523,"zip":"61112","miles_from_dt":13.81},{"city":"Rockford","state_name":"Illinois","lat":42.26753,"lng":-89.09836,"zip":"61105","miles_from_dt":13.86},{"city":"Rockford","state_name":"Illinois","lat":42.26748,"lng":-89.08165,"zip":"61110","miles_from_dt":13.91},{"city":"Rockford","state_name":"Illinois","lat":42.25515,"lng":-89.00236,"zip":"61108","miles_from_dt":14.03},{"city":"Rockford","state_name":"Illinois","lat":42.27183,"lng":-89.06462,"zip":"61106","miles_from_dt":14.3},{"city":"Clare","state_name":"Illinois","lat":42.00721,"lng":-88.83114,"zip":"60111","miles_from_dt":14.68},{"city":"Malta","state_name":"Illinois","lat":41.92106,"lng":-88.88982,"zip":"60150","miles_from_dt":14.96},{"city":"Ashton","state_name":"Illinois","lat":41.86078,"lng":-89.20836,"zip":"61006","miles_from_dt":15.18},{"city":"Rockford","state_name":"Illinois","lat":42.28344,"lng":-89.00348,"zip":"61107","miles_from_dt":15.84},{"city":"Winnebago","state_name":"Illinois","lat":42.26995,"lng":-89.25509,"zip":"61088","miles_from_dt":16},{"city":"Leaf River","state_name":"Illinois","lat":42.15305,"lng":-89.39597,"zip":"61047","miles_from_dt":16.1},{"city":"Kingston","state_name":"Illinois","lat":42.09396,"lng":-88.77719,"zip":"60145","miles_from_dt":16.96},{"city":"Steward","state_name":"Illinois","lat":41.82399,"lng":-89.02806,"zip":"60553","miles_from_dt":17.22},{"city":"Seward","state_name":"Illinois","lat":42.24012,"lng":-89.34806,"zip":"61077","miles_from_dt":17.29},{"city":"Mount Morris","state_name":"Illinois","lat":42.05573,"lng":-89.44548,"zip":"61054","miles_from_dt":17.53},{"city":"Rockford","state_name":"Illinois","lat":42.30854,"lng":-88.9892,"zip":"61114","miles_from_dt":17.71},{"city":"Belvidere","state_name":"Illinois","lat":42.24579,"lng":-88.83949,"zip":"61008","miles_from_dt":18.4},{"city":"Loves Park","state_name":"Illinois","lat":42.32593,"lng":-89.00394,"zip":"61130","miles_from_dt":18.62},{"city":"Rockford","state_name":"Illinois","lat":42.33727,"lng":-89.14725,"zip":"61101","miles_from_dt":18.8},{"city":"Rockford","state_name":"Illinois","lat":42.3453,"lng":-89.08271,"zip":"61103","miles_from_dt":19.26},{"city":"Loves Park","state_name":"Illinois","lat":42.33538,"lng":-89.00369,"zip":"61111","miles_from_dt":19.26},{"city":"Franklin Grove","state_name":"Illinois","lat":41.83263,"lng":-89.31626,"zip":"61031","miles_from_dt":19.48},{"city":"Lee","state_name":"Illinois","lat":41.79613,"lng":-88.95988,"zip":"60530","miles_from_dt":20.12},{"city":"Loves Park","state_name":"Illinois","lat":42.35191,"lng":-88.99591,"zip":"61131","miles_from_dt":20.46},{"city":"Loves Park","state_name":"Illinois","lat":42.35218,"lng":-88.9962,"zip":"61132","miles_from_dt":20.48},{"city":"Machesney Park","state_name":"Illinois","lat":42.36365,"lng":-89.02869,"zip":"61115","miles_from_dt":20.86},{"city":"Pecatonica","state_name":"Illinois","lat":42.31305,"lng":-89.34691,"zip":"61063","miles_from_dt":21.05},{"city":"German Valley","state_name":"Illinois","lat":42.20805,"lng":-89.46931,"zip":"61039","miles_from_dt":21.1},{"city":"Dekalb","state_name":"Illinois","lat":41.90109,"lng":-88.75469,"zip":"60115","miles_from_dt":21.36},{"city":"Nachusa","state_name":"Illinois","lat":41.83357,"lng":-89.38401,"zip":"61057","miles_from_dt":21.58},{"city":"Genoa","state_name":"Illinois","lat":42.11265,"lng":-88.67867,"zip":"60135","miles_from_dt":22.14},{"city":"Sycamore","state_name":"Illinois","lat":42.00625,"lng":-88.67205,"zip":"60178","miles_from_dt":22.66},{"city":"Shabbona","state_name":"Illinois","lat":41.77708,"lng":-88.87777,"zip":"60550","miles_from_dt":23.17},{"city":"Garden Prairie","state_name":"Illinois","lat":42.26344,"lng":-88.73586,"zip":"61038","miles_from_dt":23.31},{"city":"Cortland","state_name":"Illinois","lat":41.92391,"lng":-88.68994,"zip":"60112","miles_from_dt":23.53},{"city":"West Brooklyn","state_name":"Illinois","lat":41.72614,"lng":-89.158,"zip":"61378","miles_from_dt":23.67},{"city":"Lee Center","state_name":"Illinois","lat":41.74771,"lng":-89.27754,"zip":"61331","miles_from_dt":23.75},{"city":"Caledonia","state_name":"Illinois","lat":42.38926,"lng":-88.91266,"zip":"61011","miles_from_dt":24.35},{"city":"Compton","state_name":"Illinois","lat":41.71202,"lng":-89.08039,"zip":"61318","miles_from_dt":24.52},{"city":"Ridott","state_name":"Illinois","lat":42.30472,"lng":-89.47454,"zip":"61067","miles_from_dt":25.09},{"city":"Forreston","state_name":"Illinois","lat":42.11578,"lng":-89.58898,"zip":"61030","miles_from_dt":25.11},{"city":"Dixon","state_name":"Illinois","lat":41.82908,"lng":-89.47764,"zip":"61021","miles_from_dt":25.25},{"city":"Roscoe","state_name":"Illinois","lat":42.42434,"lng":-88.99346,"zip":"61073","miles_from_dt":25.33},{"city":"Polo","state_name":"Illinois","lat":41.9893,"lng":-89.5873,"zip":"61064","miles_from_dt":25.39},{"city":"Woosung","state_name":"Illinois","lat":41.90818,"lng":-89.55234,"zip":"61091","miles_from_dt":25.5},{"city":"Eldena","state_name":"Illinois","lat":41.76994,"lng":-89.4136,"zip":"61324","miles_from_dt":25.94},{"city":"Paw Paw","state_name":"Illinois","lat":41.6967,"lng":-88.99623,"zip":"61353","miles_from_dt":26.15},{"city":"Rockton","state_name":"Illinois","lat":42.44661,"lng":-89.14109,"zip":"61072","miles_from_dt":26.28},{"city":"Baileyville","state_name":"Illinois","lat":42.19941,"lng":-89.59109,"zip":"61007","miles_from_dt":26.6},{"city":"Shirland","state_name":"Illinois","lat":42.44681,"lng":-89.20955,"zip":"61079","miles_from_dt":26.77},{"city":"Waterman","state_name":"Illinois","lat":41.76507,"lng":-88.77373,"zip":"60556","miles_from_dt":26.93},{"city":"Durand","state_name":"Illinois","lat":42.43629,"lng":-89.29183,"zip":"61024","miles_from_dt":27.25},{"city":"Marengo","state_name":"Illinois","lat":42.23882,"lng":-88.62597,"zip":"60152","miles_from_dt":27.32},{"city":"Poplar Grove","state_name":"Illinois","lat":42.40786,"lng":-88.82747,"zip":"61065","miles_from_dt":27.51},{"city":"Burlington","state_name":"Illinois","lat":42.04448,"lng":-88.56261,"zip":"60109","miles_from_dt":27.94},{"city":"Amboy","state_name":"Illinois","lat":41.69815,"lng":-89.34769,"zip":"61310","miles_from_dt":28.35},{"city":"South Beloit","state_name":"Illinois","lat":42.47992,"lng":-88.98989,"zip":"61080","miles_from_dt":29.12},{"city":"Maple Park","state_name":"Illinois","lat":41.9172,"lng":-88.56613,"zip":"60151","miles_from_dt":29.6},{"city":"Capron","state_name":"Illinois","lat":42.40749,"lng":-88.75446,"zip":"61012","miles_from_dt":29.6}],"targetCityZipCode":"61043","targetCityState":"Illinois"},"__N_SSG":true}