{"pageProps":{"stateName":"Illinois","cityName":"hoopeston","nearbyCities":[{"city":"Wellington","state_name":"Illinois","lat":40.53654,"lng":-87.66265,"zip":"60973","miles_from_dt":4.81},{"city":"Rossville","state_name":"Illinois","lat":40.36848,"lng":-87.65115,"zip":"60963","miles_from_dt":6.8},{"city":"East Lynn","state_name":"Illinois","lat":40.46513,"lng":-87.80013,"zip":"60932","miles_from_dt":7.31},{"city":"Goodwine","state_name":"Illinois","lat":40.56696,"lng":-87.77714,"zip":"60939","miles_from_dt":9.22},{"city":"Ambia","state_name":"Indiana","lat":40.46881,"lng":-87.47633,"zip":"47917","miles_from_dt":9.75},{"city":"Claytonville","state_name":"Illinois","lat":40.56937,"lng":-87.81208,"zip":"60926","miles_from_dt":10.64},{"city":"Henning","state_name":"Illinois","lat":40.30694,"lng":-87.70096,"zip":"61848","miles_from_dt":11.23},{"city":"Milford","state_name":"Illinois","lat":40.62854,"lng":-87.6894,"zip":"60953","miles_from_dt":11.26},{"city":"Stockland","state_name":"Illinois","lat":40.6241,"lng":-87.58123,"zip":"60967","miles_from_dt":11.65},{"city":"Alvin","state_name":"Illinois","lat":40.29531,"lng":-87.62162,"zip":"61811","miles_from_dt":12.02},{"city":"Rankin","state_name":"Illinois","lat":40.43879,"lng":-87.89132,"zip":"60960","miles_from_dt":12.27},{"city":"Cissna Park","state_name":"Illinois","lat":40.55855,"lng":-87.88454,"zip":"60924","miles_from_dt":13.35},{"city":"Potomac","state_name":"Illinois","lat":40.30362,"lng":-87.80047,"zip":"61865","miles_from_dt":13.44},{"city":"Boswell","state_name":"Indiana","lat":40.47838,"lng":-87.37485,"zip":"47921","miles_from_dt":15.12},{"city":"Williamsport","state_name":"Indiana","lat":40.31161,"lng":-87.41603,"zip":"47993","miles_from_dt":16.8},{"city":"Bismarck","state_name":"Illinois","lat":40.23191,"lng":-87.57018,"zip":"61814","miles_from_dt":16.9},{"city":"West Lebanon","state_name":"Indiana","lat":40.28034,"lng":-87.44794,"zip":"47991","miles_from_dt":17.1},{"city":"Woodland","state_name":"Illinois","lat":40.71807,"lng":-87.73588,"zip":"60974","miles_from_dt":17.78},{"city":"Collison","state_name":"Illinois","lat":40.22623,"lng":-87.79705,"zip":"61831","miles_from_dt":18.08},{"city":"Armstrong","state_name":"Illinois","lat":40.25869,"lng":-87.88989,"zip":"61812","miles_from_dt":18.75},{"city":"Penfield","state_name":"Illinois","lat":40.30474,"lng":-87.95103,"zip":"61862","miles_from_dt":18.94},{"city":"Earl Park","state_name":"Indiana","lat":40.68791,"lng":-87.4472,"zip":"47942","miles_from_dt":18.97},{"city":"State Line","state_name":"Indiana","lat":40.19728,"lng":-87.5268,"zip":"47982","miles_from_dt":19.91},{"city":"Sheldon","state_name":"Illinois","lat":40.75144,"lng":-87.58321,"zip":"60966","miles_from_dt":20.07},{"city":"Fowler","state_name":"Indiana","lat":40.61067,"lng":-87.32804,"zip":"47944","miles_from_dt":20.16},{"city":"Danville","state_name":"Illinois","lat":40.16428,"lng":-87.64028,"zip":"61834","miles_from_dt":20.9},{"city":"Buckley","state_name":"Illinois","lat":40.59681,"lng":-88.02968,"zip":"60918","miles_from_dt":21.37},{"city":"Gifford","state_name":"Illinois","lat":40.31148,"lng":-88.01581,"zip":"61847","miles_from_dt":21.55},{"city":"Pine Village","state_name":"Indiana","lat":40.44436,"lng":-87.25348,"zip":"47975","miles_from_dt":21.55},{"city":"Crescent City","state_name":"Illinois","lat":40.74568,"lng":-87.85078,"zip":"60928","miles_from_dt":21.67},{"city":"Loda","state_name":"Illinois","lat":40.52413,"lng":-88.07698,"zip":"60948","miles_from_dt":22.25},{"city":"Oxford","state_name":"Indiana","lat":40.52946,"lng":-87.23751,"zip":"47971","miles_from_dt":22.74},{"city":"Watseka","state_name":"Illinois","lat":40.79221,"lng":-87.74039,"zip":"60970","miles_from_dt":22.84},{"city":"Danville","state_name":"Illinois","lat":40.13186,"lng":-87.63256,"zip":"61832","miles_from_dt":23.16},{"city":"Onarga","state_name":"Illinois","lat":40.7004,"lng":-87.98008,"zip":"60955","miles_from_dt":23.26},{"city":"Oakwood","state_name":"Illinois","lat":40.13166,"lng":-87.76438,"zip":"61858","miles_from_dt":23.75},{"city":"Ludlow","state_name":"Illinois","lat":40.38042,"lng":-88.10239,"zip":"60949","miles_from_dt":24.01},{"city":"Templeton","state_name":"Indiana","lat":40.51384,"lng":-87.20719,"zip":"47986","miles_from_dt":24.14},{"city":"Fithian","state_name":"Illinois","lat":40.14431,"lng":-87.8711,"zip":"61844","miles_from_dt":24.86},{"city":"Kentland","state_name":"Indiana","lat":40.79049,"lng":-87.4435,"zip":"47951","miles_from_dt":25.1},{"city":"Paxton","state_name":"Illinois","lat":40.44037,"lng":-88.13977,"zip":"60957","miles_from_dt":25.28},{"city":"Royal","state_name":"Illinois","lat":40.19118,"lng":-87.97925,"zip":"61871","miles_from_dt":25.37},{"city":"Tilton","state_name":"Illinois","lat":40.09914,"lng":-87.64718,"zip":"61833","miles_from_dt":25.38},{"city":"Iroquois","state_name":"Illinois","lat":40.8315,"lng":-87.59236,"zip":"60945","miles_from_dt":25.43},{"city":"Muncie","state_name":"Illinois","lat":40.11862,"lng":-87.84337,"zip":"61857","miles_from_dt":25.88},{"city":"Attica","state_name":"Indiana","lat":40.30388,"lng":-87.20628,"zip":"47918","miles_from_dt":26.51},{"city":"Ogden","state_name":"Illinois","lat":40.15065,"lng":-87.96163,"zip":"61859","miles_from_dt":26.97},{"city":"Covington","state_name":"Indiana","lat":40.12764,"lng":-87.40761,"zip":"47932","miles_from_dt":26.97},{"city":"Gilman","state_name":"Illinois","lat":40.77456,"lng":-87.98355,"zip":"60938","miles_from_dt":27.17},{"city":"Otterbein","state_name":"Indiana","lat":40.47423,"lng":-87.13031,"zip":"47970","miles_from_dt":27.99},{"city":"Thawville","state_name":"Illinois","lat":40.6746,"lng":-88.12049,"zip":"60968","miles_from_dt":28.09},{"city":"Rantoul","state_name":"Illinois","lat":40.31148,"lng":-88.15837,"zip":"61866","miles_from_dt":28.33},{"city":"Goodland","state_name":"Indiana","lat":40.77638,"lng":-87.28676,"zip":"47948","miles_from_dt":29.06},{"city":"Roberts","state_name":"Illinois","lat":40.62248,"lng":-88.18442,"zip":"60962","miles_from_dt":29.56},{"city":"Donovan","state_name":"Illinois","lat":40.8919,"lng":-87.58654,"zip":"60931","miles_from_dt":29.6},{"city":"Westville","state_name":"Illinois","lat":40.03494,"lng":-87.63992,"zip":"61883","miles_from_dt":29.82}],"targetCityZipCode":"60942","targetCityState":"Illinois"},"__N_SSG":true}