{"pageProps":{"stateName":"Illinois","cityName":"hooppole","nearbyCities":[{"city":"Prophetstown","state_name":"Illinois","lat":41.60425,"lng":-89.93251,"zip":"61277","miles_from_dt":5.77},{"city":"Annawan","state_name":"Illinois","lat":41.41804,"lng":-89.91947,"zip":"61234","miles_from_dt":7.17},{"city":"Tampico","state_name":"Illinois","lat":41.59094,"lng":-89.78854,"zip":"61283","miles_from_dt":8.06},{"city":"Mineral","state_name":"Illinois","lat":41.41245,"lng":-89.8344,"zip":"61344","miles_from_dt":8.61},{"city":"New Bedford","state_name":"Illinois","lat":41.50659,"lng":-89.7199,"zip":"61346","miles_from_dt":10.12},{"city":"Atkinson","state_name":"Illinois","lat":41.39972,"lng":-90.0237,"zip":"61235","miles_from_dt":10.17},{"city":"Sheffield","state_name":"Illinois","lat":41.40913,"lng":-89.76778,"zip":"61361","miles_from_dt":10.87},{"city":"Geneseo","state_name":"Illinois","lat":41.46692,"lng":-90.15551,"zip":"61254","miles_from_dt":13.09},{"city":"Manlius","state_name":"Illinois","lat":41.47014,"lng":-89.66517,"zip":"61338","miles_from_dt":13.39},{"city":"Erie","state_name":"Illinois","lat":41.65884,"lng":-90.10081,"zip":"61250","miles_from_dt":13.53},{"city":"Deer Grove","state_name":"Illinois","lat":41.61849,"lng":-89.6784,"zip":"61243","miles_from_dt":13.91},{"city":"Lyndon","state_name":"Illinois","lat":41.72928,"lng":-89.91166,"zip":"61261","miles_from_dt":14.32},{"city":"Walnut","state_name":"Illinois","lat":41.54065,"lng":-89.60726,"zip":"61376","miles_from_dt":15.96},{"city":"Fenton","state_name":"Illinois","lat":41.72909,"lng":-90.07291,"zip":"61251","miles_from_dt":16.5},{"city":"Hillsdale","state_name":"Illinois","lat":41.59025,"lng":-90.22322,"zip":"61257","miles_from_dt":16.71},{"city":"Rock Falls","state_name":"Illinois","lat":41.72599,"lng":-89.70006,"zip":"61071","miles_from_dt":17.92},{"city":"Neponset","state_name":"Illinois","lat":41.27981,"lng":-89.78878,"zip":"61345","miles_from_dt":17.93},{"city":"Kewanee","state_name":"Illinois","lat":41.25972,"lng":-89.94242,"zip":"61443","miles_from_dt":18.15},{"city":"Wyanet","state_name":"Illinois","lat":41.38144,"lng":-89.61077,"zip":"61379","miles_from_dt":18.49},{"city":"Buda","state_name":"Illinois","lat":41.29745,"lng":-89.67474,"zip":"61314","miles_from_dt":19.86},{"city":"Galt","state_name":"Illinois","lat":41.7882,"lng":-89.75978,"zip":"61037","miles_from_dt":20.04},{"city":"Port Byron","state_name":"Illinois","lat":41.60016,"lng":-90.29781,"zip":"61275","miles_from_dt":20.62},{"city":"Cambridge","state_name":"Illinois","lat":41.28727,"lng":-90.17647,"zip":"61238","miles_from_dt":21.17},{"city":"Colona","state_name":"Illinois","lat":41.48782,"lng":-90.31997,"zip":"61241","miles_from_dt":21.19},{"city":"Morrison","state_name":"Illinois","lat":41.82971,"lng":-89.9656,"zip":"61270","miles_from_dt":21.41},{"city":"Osco","state_name":"Illinois","lat":41.37031,"lng":-90.27666,"zip":"61274","miles_from_dt":21.54},{"city":"Harmon","state_name":"Illinois","lat":41.68819,"lng":-89.56015,"zip":"61042","miles_from_dt":21.63},{"city":"Albany","state_name":"Illinois","lat":41.74074,"lng":-90.21447,"zip":"61230","miles_from_dt":21.69},{"city":"Rapids City","state_name":"Illinois","lat":41.57938,"lng":-90.34138,"zip":"61278","miles_from_dt":22.51},{"city":"Cordova","state_name":"Illinois","lat":41.70363,"lng":-90.27858,"zip":"61242","miles_from_dt":22.67},{"city":"Barstow","state_name":"Illinois","lat":41.51242,"lng":-90.35586,"zip":"61236","miles_from_dt":22.93},{"city":"Kasbeer","state_name":"Illinois","lat":41.50924,"lng":-89.459,"zip":"61328","miles_from_dt":23.61},{"city":"Sterling","state_name":"Illinois","lat":41.84425,"lng":-89.73613,"zip":"61081","miles_from_dt":24.08},{"city":"Ohio","state_name":"Illinois","lat":41.55295,"lng":-89.44192,"zip":"61349","miles_from_dt":24.57},{"city":"Bishop Hill","state_name":"Illinois","lat":41.19982,"lng":-90.11751,"zip":"61419","miles_from_dt":24.61},{"city":"Fulton","state_name":"Illinois","lat":41.8435,"lng":-90.12272,"zip":"61252","miles_from_dt":24.69},{"city":"Carbon Cliff","state_name":"Illinois","lat":41.49479,"lng":-90.38966,"zip":"61239","miles_from_dt":24.75},{"city":"Galva","state_name":"Illinois","lat":41.17387,"lng":-90.03598,"zip":"61434","miles_from_dt":24.84},{"city":"East Moline","state_name":"Illinois","lat":41.52138,"lng":-90.39424,"zip":"61244","miles_from_dt":24.91},{"city":"Andover","state_name":"Illinois","lat":41.29464,"lng":-90.29129,"zip":"61233","miles_from_dt":25.1},{"city":"Hampton","state_name":"Illinois","lat":41.56017,"lng":-90.40151,"zip":"61256","miles_from_dt":25.42},{"city":"Le Claire","state_name":"Iowa","lat":41.62544,"lng":-90.38989,"zip":"52753","miles_from_dt":25.68},{"city":"Silvis","state_name":"Illinois","lat":41.49673,"lng":-90.41172,"zip":"61282","miles_from_dt":25.88},{"city":"Clinton","state_name":"Iowa","lat":41.81909,"lng":-90.23587,"zip":"52734","miles_from_dt":26.42},{"city":"Princeton","state_name":"Illinois","lat":41.38914,"lng":-89.43406,"zip":"61356","miles_from_dt":26.55},{"city":"Clinton","state_name":"Iowa","lat":41.8477,"lng":-90.18734,"zip":"52733","miles_from_dt":26.57},{"city":"Pleasant Valley","state_name":"Iowa","lat":41.57356,"lng":-90.42326,"zip":"52767","miles_from_dt":26.64},{"city":"Tiskilwa","state_name":"Illinois","lat":41.26113,"lng":-89.51981,"zip":"61368","miles_from_dt":27.26},{"city":"Bradford","state_name":"Illinois","lat":41.1792,"lng":-89.65083,"zip":"61421","miles_from_dt":27.32},{"city":"Orion","state_name":"Illinois","lat":41.36426,"lng":-90.39907,"zip":"61273","miles_from_dt":27.44},{"city":"Princeton","state_name":"Iowa","lat":41.69906,"lng":-90.38977,"zip":"52768","miles_from_dt":27.51},{"city":"Dover","state_name":"Illinois","lat":41.43544,"lng":-89.39605,"zip":"61323","miles_from_dt":27.53},{"city":"Clinton","state_name":"Iowa","lat":41.84253,"lng":-90.23168,"zip":"52736","miles_from_dt":27.57},{"city":"Coal Valley","state_name":"Illinois","lat":41.42579,"lng":-90.4325,"zip":"61240","miles_from_dt":27.72},{"city":"Camanche","state_name":"Iowa","lat":41.77366,"lng":-90.34364,"zip":"52730","miles_from_dt":28.23},{"city":"Lynn Center","state_name":"Illinois","lat":41.27799,"lng":-90.35699,"zip":"61262","miles_from_dt":28.52},{"city":"Bettendorf","state_name":"Iowa","lat":41.56633,"lng":-90.4673,"zip":"52722","miles_from_dt":28.85},{"city":"Van Orin","state_name":"Illinois","lat":41.5473,"lng":-89.35759,"zip":"61374","miles_from_dt":28.9},{"city":"Woodhull","state_name":"Illinois","lat":41.18263,"lng":-90.26518,"zip":"61490","miles_from_dt":29.69},{"city":"Castleton","state_name":"Illinois","lat":41.11964,"lng":-89.70601,"zip":"61426","miles_from_dt":29.79},{"city":"Moline","state_name":"Illinois","lat":41.48195,"lng":-90.48895,"zip":"61265","miles_from_dt":29.96},{"city":"Low Moor","state_name":"Iowa","lat":41.80337,"lng":-90.3552,"zip":"52757","miles_from_dt":29.98},{"city":"La Fayette","state_name":"Illinois","lat":41.08926,"lng":-89.97051,"zip":"61449","miles_from_dt":30}],"targetCityZipCode":"61258","targetCityState":"Illinois"},"__N_SSG":true}