{"pageProps":{"stateName":"Illinois","cityName":"jacob","nearbyCities":[{"city":"Gorham","state_name":"Illinois","lat":37.7292,"lng":-89.46279,"zip":"62940","miles_from_dt":5.32},{"city":"Frohna","state_name":"Missouri","lat":37.66912,"lng":-89.61282,"zip":"63748","miles_from_dt":6.51},{"city":"Rockwood","state_name":"Illinois","lat":37.83179,"lng":-89.65952,"zip":"62280","miles_from_dt":7.92},{"city":"Farrar","state_name":"Missouri","lat":37.70783,"lng":-89.69484,"zip":"63746","miles_from_dt":8.2},{"city":"Brazeau","state_name":"Missouri","lat":37.6593,"lng":-89.65455,"zip":"63737","miles_from_dt":8.37},{"city":"Ava","state_name":"Illinois","lat":37.86503,"lng":-89.50009,"zip":"62907","miles_from_dt":8.38},{"city":"Grand Tower","state_name":"Illinois","lat":37.6348,"lng":-89.47681,"zip":"62942","miles_from_dt":9.16},{"city":"Altenburg","state_name":"Missouri","lat":37.59428,"lng":-89.59123,"zip":"63732","miles_from_dt":11.04},{"city":"Murphysboro","state_name":"Illinois","lat":37.7693,"lng":-89.35198,"zip":"62966","miles_from_dt":11.22},{"city":"Uniontown","state_name":"Missouri","lat":37.60958,"lng":-89.6823,"zip":"63783","miles_from_dt":12.02},{"city":"Pomona","state_name":"Illinois","lat":37.64307,"lng":-89.37274,"zip":"62975","miles_from_dt":12.52},{"city":"Campbell Hill","state_name":"Illinois","lat":37.93722,"lng":-89.56947,"zip":"62916","miles_from_dt":12.81},{"city":"Old Appleton","state_name":"Missouri","lat":37.59456,"lng":-89.70049,"zip":"63770","miles_from_dt":13.44},{"city":"Vergennes","state_name":"Illinois","lat":37.90593,"lng":-89.34664,"zip":"62994","miles_from_dt":15.61},{"city":"Willisville","state_name":"Illinois","lat":37.98357,"lng":-89.59013,"zip":"62997","miles_from_dt":16.09},{"city":"Carbondale","state_name":"Illinois","lat":37.67162,"lng":-89.27568,"zip":"62903","miles_from_dt":16.31},{"city":"Alto Pass","state_name":"Illinois","lat":37.57381,"lng":-89.35867,"zip":"62905","miles_from_dt":16.35},{"city":"Wolf Lake","state_name":"Illinois","lat":37.51649,"lng":-89.44698,"zip":"62998","miles_from_dt":17.29},{"city":"Percy","state_name":"Illinois","lat":38.00241,"lng":-89.61562,"zip":"62272","miles_from_dt":17.59},{"city":"Perryville","state_name":"Missouri","lat":37.71051,"lng":-89.87919,"zip":"63775","miles_from_dt":17.95},{"city":"Chester","state_name":"Illinois","lat":37.93719,"lng":-89.78842,"zip":"62233","miles_from_dt":18.04},{"city":"Pocahontas","state_name":"Missouri","lat":37.49944,"lng":-89.64216,"zip":"63779","miles_from_dt":18.04},{"city":"Steeleville","state_name":"Illinois","lat":37.99267,"lng":-89.69106,"zip":"62288","miles_from_dt":18.18},{"city":"McBride","state_name":"Missouri","lat":37.71445,"lng":-89.89065,"zip":"63776","miles_from_dt":18.53},{"city":"Oak Ridge","state_name":"Missouri","lat":37.52312,"lng":-89.74203,"zip":"63769","miles_from_dt":18.79},{"city":"Carbondale","state_name":"Illinois","lat":37.74003,"lng":-89.20946,"zip":"62901","miles_from_dt":18.98},{"city":"Menard","state_name":"Illinois","lat":37.91019,"lng":-89.8398,"zip":"62259","miles_from_dt":18.99},{"city":"Friedheim","state_name":"Missouri","lat":37.55993,"lng":-89.81121,"zip":"63747","miles_from_dt":19.27},{"city":"De Soto","state_name":"Illinois","lat":37.82112,"lng":-89.20448,"zip":"62924","miles_from_dt":19.81},{"city":"Cutler","state_name":"Illinois","lat":38.04499,"lng":-89.5319,"zip":"62238","miles_from_dt":20.26},{"city":"Dowell","state_name":"Illinois","lat":37.94129,"lng":-89.24837,"zip":"62927","miles_from_dt":21.29},{"city":"Elkville","state_name":"Illinois","lat":37.89878,"lng":-89.21048,"zip":"62932","miles_from_dt":21.43},{"city":"Jackson","state_name":"Missouri","lat":37.44351,"lng":-89.64193,"zip":"63755","miles_from_dt":21.78},{"city":"Daisy","state_name":"Missouri","lat":37.51886,"lng":-89.83261,"zip":"63743","miles_from_dt":22.11},{"city":"Cobden","state_name":"Illinois","lat":37.55095,"lng":-89.23208,"zip":"62920","miles_from_dt":22.51},{"city":"Hurst","state_name":"Illinois","lat":37.8278,"lng":-89.14409,"zip":"62949","miles_from_dt":23.13},{"city":"Cambria","state_name":"Illinois","lat":37.78413,"lng":-89.12238,"zip":"62915","miles_from_dt":23.83},{"city":"Saint Mary","state_name":"Missouri","lat":37.83641,"lng":-89.98861,"zip":"63673","miles_from_dt":24.4},{"city":"Du Quoin","state_name":"Illinois","lat":38.01001,"lng":-89.24969,"zip":"62832","miles_from_dt":24.43},{"city":"Makanda","state_name":"Illinois","lat":37.60389,"lng":-89.14917,"zip":"62958","miles_from_dt":24.51},{"city":"Carbondale","state_name":"Illinois","lat":37.67199,"lng":-89.11509,"zip":"62902","miles_from_dt":24.76},{"city":"Walsh","state_name":"Illinois","lat":38.04938,"lng":-89.81239,"zip":"62297","miles_from_dt":24.86},{"city":"Pinckneyville","state_name":"Illinois","lat":38.09312,"lng":-89.40064,"zip":"62274","miles_from_dt":25.02},{"city":"Sedgewickville","state_name":"Missouri","lat":37.5329,"lng":-89.93078,"zip":"63781","miles_from_dt":25.52},{"city":"Ellis Grove","state_name":"Illinois","lat":38.01474,"lng":-89.88845,"zip":"62241","miles_from_dt":25.68},{"city":"Carterville","state_name":"Illinois","lat":37.78561,"lng":-89.08641,"zip":"62918","miles_from_dt":25.8},{"city":"Jonesboro","state_name":"Illinois","lat":37.42065,"lng":-89.33187,"zip":"62952","miles_from_dt":25.94},{"city":"Colp","state_name":"Illinois","lat":37.80217,"lng":-89.08215,"zip":"62921","miles_from_dt":26.16},{"city":"Royalton","state_name":"Illinois","lat":37.90208,"lng":-89.10883,"zip":"62983","miles_from_dt":26.55},{"city":"Sparta","state_name":"Illinois","lat":38.11756,"lng":-89.7154,"zip":"62286","miles_from_dt":26.69},{"city":"Millersville","state_name":"Missouri","lat":37.43558,"lng":-89.84424,"zip":"63766","miles_from_dt":26.95},{"city":"Anna","state_name":"Illinois","lat":37.45746,"lng":-89.18899,"zip":"62906","miles_from_dt":28.58},{"city":"Cape Girardeau","state_name":"Missouri","lat":37.33522,"lng":-89.58043,"zip":"63701","miles_from_dt":28.76},{"city":"Zeigler","state_name":"Illinois","lat":37.89122,"lng":-89.05275,"zip":"62999","miles_from_dt":29.15},{"city":"Energy","state_name":"Illinois","lat":37.77363,"lng":-89.02003,"zip":"62933","miles_from_dt":29.37},{"city":"Herrin","state_name":"Illinois","lat":37.8204,"lng":-89.02542,"zip":"62948","miles_from_dt":29.41}],"targetCityZipCode":"62950","targetCityState":"Illinois"},"__N_SSG":true}