{"pageProps":{"stateName":"Illinois","cityName":"maeystown","nearbyCities":[{"city":"Fults","state_name":"Illinois","lat":38.19142,"lng":-90.1965,"zip":"62244","miles_from_dt":3.07},{"city":"Valmeyer","state_name":"Illinois","lat":38.27126,"lng":-90.30895,"zip":"62295","miles_from_dt":5.23},{"city":"Waterloo","state_name":"Illinois","lat":38.30906,"lng":-90.15132,"zip":"62298","miles_from_dt":7.19},{"city":"Crystal City","state_name":"Missouri","lat":38.229,"lng":-90.37684,"zip":"63019","miles_from_dt":7.91},{"city":"Renault","state_name":"Illinois","lat":38.13796,"lng":-90.13695,"zip":"62279","miles_from_dt":7.97},{"city":"Herculaneum","state_name":"Missouri","lat":38.25924,"lng":-90.39194,"zip":"63048","miles_from_dt":9.02},{"city":"Festus","state_name":"Missouri","lat":38.14545,"lng":-90.39423,"zip":"63028","miles_from_dt":10.46},{"city":"Pevely","state_name":"Missouri","lat":38.28625,"lng":-90.41822,"zip":"63070","miles_from_dt":10.97},{"city":"Prairie Du Rocher","state_name":"Illinois","lat":38.09844,"lng":-90.11081,"zip":"62277","miles_from_dt":11},{"city":"Liguori","state_name":"Missouri","lat":38.33832,"lng":-90.39882,"zip":"63057","miles_from_dt":11.94},{"city":"Kimmswick","state_name":"Missouri","lat":38.36651,"lng":-90.36402,"zip":"63053","miles_from_dt":12.06},{"city":"Red Bud","state_name":"Illinois","lat":38.20528,"lng":-89.99116,"zip":"62278","miles_from_dt":13.16},{"city":"Bloomsdale","state_name":"Missouri","lat":38.03625,"lng":-90.25317,"zip":"63627","miles_from_dt":13.16},{"city":"Mapaville","state_name":"Missouri","lat":38.2514,"lng":-90.4858,"zip":"63065","miles_from_dt":13.94},{"city":"Barnhart","state_name":"Missouri","lat":38.33532,"lng":-90.44832,"zip":"63012","miles_from_dt":13.98},{"city":"Hecker","state_name":"Illinois","lat":38.30543,"lng":-89.99341,"zip":"62248","miles_from_dt":14.05},{"city":"Hematite","state_name":"Missouri","lat":38.1954,"lng":-90.48763,"zip":"63047","miles_from_dt":14.1},{"city":"Columbia","state_name":"Illinois","lat":38.43391,"lng":-90.21141,"zip":"62236","miles_from_dt":14.37},{"city":"Imperial","state_name":"Missouri","lat":38.38983,"lng":-90.4358,"zip":"63052","miles_from_dt":15.83},{"city":"Smithton","state_name":"Illinois","lat":38.38845,"lng":-90.00773,"zip":"62285","miles_from_dt":16.53},{"city":"Arnold","state_name":"Missouri","lat":38.42964,"lng":-90.3932,"zip":"63010","miles_from_dt":16.55},{"city":"Saint Louis","state_name":"Missouri","lat":38.45654,"lng":-90.32202,"zip":"63129","miles_from_dt":16.63},{"city":"Saint Louis","state_name":"Missouri","lat":38.4686,"lng":-90.30511,"zip":"63151","miles_from_dt":17.19},{"city":"Millstadt","state_name":"Illinois","lat":38.46097,"lng":-90.09891,"zip":"62260","miles_from_dt":17.72},{"city":"Evansville","state_name":"Illinois","lat":38.09257,"lng":-89.94339,"zip":"62242","miles_from_dt":18.2},{"city":"French Village","state_name":"Missouri","lat":37.9817,"lng":-90.372,"zip":"63036","miles_from_dt":18.52},{"city":"New Athens","state_name":"Illinois","lat":38.31612,"lng":-89.90721,"zip":"62264","miles_from_dt":18.69},{"city":"Hillsboro","state_name":"Missouri","lat":38.25977,"lng":-90.57628,"zip":"63050","miles_from_dt":18.9},{"city":"Valles Mines","state_name":"Missouri","lat":38.00888,"lng":-90.45835,"zip":"63087","miles_from_dt":19.43},{"city":"Modoc","state_name":"Illinois","lat":38.01218,"lng":-89.99774,"zip":"62261","miles_from_dt":19.5},{"city":"Saint Louis","state_name":"Missouri","lat":38.49369,"lng":-90.38306,"zip":"63128","miles_from_dt":20.2},{"city":"De Soto","state_name":"Missouri","lat":38.10706,"lng":-90.5718,"zip":"63020","miles_from_dt":20.27},{"city":"East Carondelet","state_name":"Illinois","lat":38.52084,"lng":-90.21011,"zip":"62240","miles_from_dt":20.35},{"city":"Saint Louis","state_name":"Missouri","lat":38.51867,"lng":-90.29269,"zip":"63125","miles_from_dt":20.44},{"city":"Dupo","state_name":"Illinois","lat":38.528,"lng":-90.1803,"zip":"62239","miles_from_dt":21},{"city":"Belleville","state_name":"Illinois","lat":38.46845,"lng":-89.98146,"zip":"62222","miles_from_dt":21.53},{"city":"Belleville","state_name":"Illinois","lat":38.47247,"lng":-89.98704,"zip":"62220","miles_from_dt":21.56},{"city":"Baldwin","state_name":"Illinois","lat":38.1732,"lng":-89.83954,"zip":"62217","miles_from_dt":21.65},{"city":"House Springs","state_name":"Missouri","lat":38.39886,"lng":-90.57303,"zip":"63051","miles_from_dt":22.05},{"city":"Fenton","state_name":"Missouri","lat":38.50195,"lng":-90.45995,"zip":"63026","miles_from_dt":22.71},{"city":"Freeburg","state_name":"Illinois","lat":38.41841,"lng":-89.88978,"zip":"62243","miles_from_dt":22.81},{"city":"Saint Louis","state_name":"Missouri","lat":38.54949,"lng":-90.32739,"zip":"63123","miles_from_dt":22.9},{"city":"Saint Louis","state_name":"Missouri","lat":38.55845,"lng":-90.24993,"zip":"63111","miles_from_dt":22.94},{"city":"Sainte Genevieve","state_name":"Missouri","lat":37.89667,"lng":-90.16245,"zip":"63670","miles_from_dt":23.04},{"city":"Morse Mill","state_name":"Missouri","lat":38.27805,"lng":-90.65307,"zip":"63066","miles_from_dt":23.2},{"city":"Belleville","state_name":"Illinois","lat":38.53491,"lng":-90.06027,"zip":"62223","miles_from_dt":23.23},{"city":"Saint Louis","state_name":"Missouri","lat":38.53544,"lng":-90.41297,"zip":"63127","miles_from_dt":23.49},{"city":"Saint Louis","state_name":"Missouri","lat":38.5496,"lng":-90.37868,"zip":"63126","miles_from_dt":23.69},{"city":"High Ridge","state_name":"Missouri","lat":38.47795,"lng":-90.52867,"zip":"63049","miles_from_dt":23.71},{"city":"Ellis Grove","state_name":"Illinois","lat":38.01474,"lng":-89.88845,"zip":"62241","miles_from_dt":23.71},{"city":"East Saint Louis","state_name":"Illinois","lat":38.56796,"lng":-90.16981,"zip":"62206","miles_from_dt":23.81},{"city":"Fenton","state_name":"Missouri","lat":38.53652,"lng":-90.44805,"zip":"63099","miles_from_dt":24.42},{"city":"Saint Louis","state_name":"Missouri","lat":38.57999,"lng":-90.26501,"zip":"63116","miles_from_dt":24.47},{"city":"Cedar Hill","state_name":"Missouri","lat":38.35692,"lng":-90.65014,"zip":"63016","miles_from_dt":24.48},{"city":"Belleville","state_name":"Illinois","lat":38.53634,"lng":-90.00057,"zip":"62226","miles_from_dt":24.79},{"city":"Saint Louis","state_name":"Missouri","lat":38.58483,"lng":-90.29563,"zip":"63109","miles_from_dt":24.98},{"city":"Saint Louis","state_name":"Missouri","lat":38.59237,"lng":-90.22534,"zip":"63118","miles_from_dt":25.26},{"city":"East Saint Louis","state_name":"Illinois","lat":38.58327,"lng":-90.12544,"zip":"62207","miles_from_dt":25.29},{"city":"Lenzburg","state_name":"Illinois","lat":38.31244,"lng":-89.77842,"zip":"62255","miles_from_dt":25.35},{"city":"Bonne Terre","state_name":"Missouri","lat":37.9392,"lng":-90.52466,"zip":"63628","miles_from_dt":25.44},{"city":"Saint Louis","state_name":"Missouri","lat":38.59734,"lng":-90.24218,"zip":"63163","miles_from_dt":25.6},{"city":"Saint Louis","state_name":"Missouri","lat":38.58868,"lng":-90.35104,"zip":"63119","miles_from_dt":25.83},{"city":"Walsh","state_name":"Illinois","lat":38.04938,"lng":-89.81239,"zip":"62297","miles_from_dt":25.89},{"city":"Saint Louis","state_name":"Missouri","lat":38.60459,"lng":-90.22368,"zip":"63158","miles_from_dt":26.1},{"city":"Saint Louis","state_name":"Missouri","lat":38.59772,"lng":-90.3264,"zip":"63171","miles_from_dt":26.14},{"city":"Dittmer","state_name":"Missouri","lat":38.2659,"lng":-90.71292,"zip":"63023","miles_from_dt":26.33},{"city":"Saint Louis","state_name":"Missouri","lat":38.57853,"lng":-90.42133,"zip":"63122","miles_from_dt":26.39},{"city":"Saint Louis","state_name":"Missouri","lat":38.61078,"lng":-90.21276,"zip":"63104","miles_from_dt":26.54},{"city":"Valley Park","state_name":"Missouri","lat":38.54862,"lng":-90.50111,"zip":"63088","miles_from_dt":26.62},{"city":"Saint Louis","state_name":"Missouri","lat":38.61041,"lng":-90.29191,"zip":"63139","miles_from_dt":26.7},{"city":"East Saint Louis","state_name":"Illinois","lat":38.60259,"lng":-90.11469,"zip":"62205","miles_from_dt":26.72},{"city":"Belleville","state_name":"Illinois","lat":38.51187,"lng":-89.89922,"zip":"62221","miles_from_dt":26.72},{"city":"Tiff","state_name":"Missouri","lat":38.03126,"lng":-90.65933,"zip":"63674","miles_from_dt":26.91},{"city":"Saint Louis","state_name":"Missouri","lat":38.61645,"lng":-90.21527,"zip":"63157","miles_from_dt":26.93},{"city":"Saint Louis","state_name":"Missouri","lat":38.61169,"lng":-90.32017,"zip":"63143","miles_from_dt":27.02},{"city":"East Saint Louis","state_name":"Illinois","lat":38.61664,"lng":-90.16095,"zip":"62202","miles_from_dt":27.2},{"city":"East Saint Louis","state_name":"Illinois","lat":38.60223,"lng":-90.07534,"zip":"62203","miles_from_dt":27.28},{"city":"Marissa","state_name":"Illinois","lat":38.28048,"lng":-89.73262,"zip":"62257","miles_from_dt":27.39},{"city":"Saint Louis","state_name":"Missouri","lat":38.62538,"lng":-90.26645,"zip":"63110","miles_from_dt":27.6},{"city":"Saint Louis","state_name":"Missouri","lat":38.62687,"lng":-90.20188,"zip":"63197","miles_from_dt":27.68},{"city":"Eureka","state_name":"Missouri","lat":38.4896,"lng":-90.61666,"zip":"63025","miles_from_dt":27.7},{"city":"Saint Louis","state_name":"Missouri","lat":38.62788,"lng":-90.20545,"zip":"63155","miles_from_dt":27.74},{"city":"Saint Louis","state_name":"Missouri","lat":38.62916,"lng":-90.21701,"zip":"63177","miles_from_dt":27.8},{"city":"Saint Louis","state_name":"Missouri","lat":38.62986,"lng":-90.217,"zip":"63103","miles_from_dt":27.85},{"city":"Saint Louis","state_name":"Missouri","lat":38.61943,"lng":-90.3482,"zip":"63144","miles_from_dt":27.85},{"city":"Saint Louis","state_name":"Missouri","lat":38.62919,"lng":-90.19719,"zip":"63188","miles_from_dt":27.86},{"city":"Saint Louis","state_name":"Missouri","lat":38.62992,"lng":-90.21736,"zip":"63178","miles_from_dt":27.86},{"city":"Saint Louis","state_name":"Missouri","lat":38.62908,"lng":-90.19002,"zip":"63169","miles_from_dt":27.88},{"city":"Saint Louis","state_name":"Missouri","lat":38.63044,"lng":-90.2175,"zip":"63166","miles_from_dt":27.89},{"city":"Saint Louis","state_name":"Missouri","lat":38.63067,"lng":-90.21635,"zip":"63179","miles_from_dt":27.91},{"city":"Saint Louis","state_name":"Missouri","lat":38.63127,"lng":-90.19275,"zip":"63101","miles_from_dt":28.02},{"city":"Saint Louis","state_name":"Missouri","lat":38.63242,"lng":-90.20295,"zip":"63180","miles_from_dt":28.06},{"city":"Saint Louis","state_name":"Missouri","lat":38.63263,"lng":-90.19304,"zip":"63150","miles_from_dt":28.11},{"city":"Saint Louis","state_name":"Missouri","lat":38.63462,"lng":-90.24199,"zip":"63156","miles_from_dt":28.17},{"city":"Blackwell","state_name":"Missouri","lat":38.07721,"lng":-90.71471,"zip":"63626","miles_from_dt":28.25},{"city":"Saint Louis","state_name":"Missouri","lat":38.63453,"lng":-90.18627,"zip":"63102","miles_from_dt":28.27},{"city":"Fairview Heights","state_name":"Illinois","lat":38.59641,"lng":-90.00528,"zip":"62208","miles_from_dt":28.33},{"city":"Saint Louis","state_name":"Missouri","lat":38.63622,"lng":-90.18582,"zip":"63164","miles_from_dt":28.39},{"city":"Saint Louis","state_name":"Missouri","lat":38.63077,"lng":-90.33037,"zip":"63117","miles_from_dt":28.41},{"city":"Saint Louis","state_name":"Missouri","lat":38.63756,"lng":-90.18699,"zip":"63160","miles_from_dt":28.47},{"city":"East Saint Louis","state_name":"Illinois","lat":38.63567,"lng":-90.14162,"zip":"62201","miles_from_dt":28.66},{"city":"East Saint Louis","state_name":"Illinois","lat":38.63033,"lng":-90.09642,"zip":"62204","miles_from_dt":28.82},{"city":"Saint Louis","state_name":"Missouri","lat":38.64445,"lng":-90.20795,"zip":"63106","miles_from_dt":28.88},{"city":"Saint Louis","state_name":"Missouri","lat":38.64485,"lng":-90.25337,"zip":"63108","miles_from_dt":28.9},{"city":"Fletcher","state_name":"Missouri","lat":38.14321,"lng":-90.7522,"zip":"63030","miles_from_dt":28.92},{"city":"Sparta","state_name":"Illinois","lat":38.11756,"lng":-89.7154,"zip":"62286","miles_from_dt":29.08},{"city":"Ballwin","state_name":"Missouri","lat":38.5689,"lng":-90.54564,"zip":"63021","miles_from_dt":29.14},{"city":"National Stock Yards","state_name":"Illinois","lat":38.64666,"lng":-90.1579,"zip":"62071","miles_from_dt":29.27},{"city":"Saint Louis","state_name":"Missouri","lat":38.64427,"lng":-90.32812,"zip":"63105","miles_from_dt":29.31},{"city":"Saint Louis","state_name":"Missouri","lat":38.6172,"lng":-90.44365,"zip":"63131","miles_from_dt":29.32},{"city":"Saint Louis","state_name":"Missouri","lat":38.64584,"lng":-90.33129,"zip":"63199","miles_from_dt":29.44},{"city":"Saint Louis","state_name":"Missouri","lat":38.63832,"lng":-90.38023,"zip":"63124","miles_from_dt":29.55},{"city":"Saint Libory","state_name":"Illinois","lat":38.35644,"lng":-89.71334,"zip":"62282","miles_from_dt":29.57},{"city":"Mascoutah","state_name":"Illinois","lat":38.46014,"lng":-89.77287,"zip":"62258","miles_from_dt":29.68},{"city":"Lovejoy","state_name":"Illinois","lat":38.65434,"lng":-90.17097,"zip":"62059","miles_from_dt":29.71},{"city":"Saint Louis","state_name":"Missouri","lat":38.65797,"lng":-90.2475,"zip":"63113","miles_from_dt":29.79},{"city":"Scott Air Force Base","state_name":"Illinois","lat":38.54065,"lng":-89.85503,"zip":"62225","miles_from_dt":29.8},{"city":"Tilden","state_name":"Illinois","lat":38.21299,"lng":-89.68261,"zip":"62292","miles_from_dt":29.88},{"city":"Saint Louis","state_name":"Missouri","lat":38.6516,"lng":-90.33981,"zip":"63195","miles_from_dt":29.92},{"city":"Saint Mary","state_name":"Missouri","lat":37.83641,"lng":-89.98861,"zip":"63673","miles_from_dt":29.97}],"targetCityZipCode":"62256","targetCityState":"Illinois"},"__N_SSG":true}