{"pageProps":{"stateName":"Illinois","cityName":"neoga","nearbyCities":[{"city":"Sigel","state_name":"Illinois","lat":39.23291,"lng":-88.47066,"zip":"62462","miles_from_dt":5.7},{"city":"Trilla","state_name":"Illinois","lat":39.34843,"lng":-88.33911,"zip":"62469","miles_from_dt":6.15},{"city":"Stewardson","state_name":"Illinois","lat":39.27519,"lng":-88.59683,"zip":"62463","miles_from_dt":8.57},{"city":"Toledo","state_name":"Illinois","lat":39.27779,"lng":-88.27155,"zip":"62468","miles_from_dt":9.59},{"city":"Gays","state_name":"Illinois","lat":39.45524,"lng":-88.50284,"zip":"61928","miles_from_dt":10.29},{"city":"Strasburg","state_name":"Illinois","lat":39.34614,"lng":-88.63827,"zip":"62465","miles_from_dt":10.63},{"city":"Lerna","state_name":"Illinois","lat":39.39433,"lng":-88.26325,"zip":"62440","miles_from_dt":11.21},{"city":"Montrose","state_name":"Illinois","lat":39.16687,"lng":-88.32322,"zip":"62445","miles_from_dt":12},{"city":"Mattoon","state_name":"Illinois","lat":39.48004,"lng":-88.37571,"zip":"61938","miles_from_dt":12.1},{"city":"Windsor","state_name":"Illinois","lat":39.4397,"lng":-88.60495,"zip":"61957","miles_from_dt":12.25},{"city":"Teutopolis","state_name":"Illinois","lat":39.12809,"lng":-88.43543,"zip":"62467","miles_from_dt":12.77},{"city":"Jewett","state_name":"Illinois","lat":39.18247,"lng":-88.25613,"zip":"62436","miles_from_dt":13.54},{"city":"Shumway","state_name":"Illinois","lat":39.20067,"lng":-88.6759,"zip":"62461","miles_from_dt":14.63},{"city":"Effingham","state_name":"Illinois","lat":39.11843,"lng":-88.56467,"zip":"62401","miles_from_dt":14.89},{"city":"Mode","state_name":"Illinois","lat":39.27853,"lng":-88.73474,"zip":"62444","miles_from_dt":15.74},{"city":"Greenup","state_name":"Illinois","lat":39.26396,"lng":-88.1302,"zip":"62428","miles_from_dt":17.19},{"city":"Humboldt","state_name":"Illinois","lat":39.59067,"lng":-88.35883,"zip":"61931","miles_from_dt":19.69},{"city":"Charleston","state_name":"Illinois","lat":39.50415,"lng":-88.16448,"zip":"61920","miles_from_dt":19.96},{"city":"Wheeler","state_name":"Illinois","lat":39.03731,"lng":-88.31239,"zip":"62479","miles_from_dt":20.3},{"city":"Shelbyville","state_name":"Illinois","lat":39.41334,"lng":-88.8026,"zip":"62565","miles_from_dt":20.38},{"city":"Hidalgo","state_name":"Illinois","lat":39.13353,"lng":-88.14176,"zip":"62432","miles_from_dt":20.43},{"city":"Sullivan","state_name":"Illinois","lat":39.59118,"lng":-88.5865,"zip":"61951","miles_from_dt":20.64},{"city":"Watson","state_name":"Illinois","lat":39.01986,"lng":-88.56556,"zip":"62473","miles_from_dt":21.24},{"city":"Dieterich","state_name":"Illinois","lat":38.98784,"lng":-88.42124,"zip":"62424","miles_from_dt":22.47},{"city":"Beecher City","state_name":"Illinois","lat":39.17277,"lng":-88.82611,"zip":"62414","miles_from_dt":22.64},{"city":"Altamont","state_name":"Illinois","lat":39.06865,"lng":-88.72936,"zip":"62411","miles_from_dt":22.76},{"city":"Lakewood","state_name":"Illinois","lat":39.32553,"lng":-88.87005,"zip":"62438","miles_from_dt":22.82},{"city":"Casey","state_name":"Illinois","lat":39.29065,"lng":-88.0005,"zip":"62420","miles_from_dt":23.85},{"city":"Findlay","state_name":"Illinois","lat":39.53519,"lng":-88.79603,"zip":"62534","miles_from_dt":24.26},{"city":"Cowden","state_name":"Illinois","lat":39.23327,"lng":-88.88855,"zip":"62422","miles_from_dt":24.43},{"city":"Westfield","state_name":"Illinois","lat":39.43526,"lng":-87.99462,"zip":"62474","miles_from_dt":25.52},{"city":"Arcola","state_name":"Illinois","lat":39.67283,"lng":-88.30035,"zip":"61910","miles_from_dt":25.99},{"city":"Yale","state_name":"Illinois","lat":39.12657,"lng":-88.02293,"zip":"62481","miles_from_dt":26.03},{"city":"Ashmore","state_name":"Illinois","lat":39.52825,"lng":-88.03357,"zip":"61912","miles_from_dt":26.53},{"city":"Mason","state_name":"Illinois","lat":38.95397,"lng":-88.62902,"zip":"62443","miles_from_dt":26.68},{"city":"Arthur","state_name":"Illinois","lat":39.70452,"lng":-88.47068,"zip":"61911","miles_from_dt":27.04},{"city":"Newton","state_name":"Illinois","lat":38.96741,"lng":-88.17988,"zip":"62448","miles_from_dt":27.76},{"city":"Tower Hill","state_name":"Illinois","lat":39.38155,"lng":-88.95998,"zip":"62571","miles_from_dt":28.01},{"city":"Bethany","state_name":"Illinois","lat":39.63409,"lng":-88.76783,"zip":"61914","miles_from_dt":28.09},{"city":"Saint Elmo","state_name":"Illinois","lat":39.02531,"lng":-88.85441,"zip":"62458","miles_from_dt":29.64}],"targetCityZipCode":"62447","targetCityState":"Illinois"},"__N_SSG":true}