{"pageProps":{"stateName":"Illinois","cityName":"new-memphis","nearbyCities":[{"city":"New Baden","state_name":"Illinois","lat":38.50808,"lng":-89.67797,"zip":"62265","miles_from_dt":2.75},{"city":"Albers","state_name":"Illinois","lat":38.50672,"lng":-89.60515,"zip":"62215","miles_from_dt":3.27},{"city":"Germantown","state_name":"Illinois","lat":38.54783,"lng":-89.57446,"zip":"62245","miles_from_dt":6.49},{"city":"Mascoutah","state_name":"Illinois","lat":38.46014,"lng":-89.77287,"zip":"62258","miles_from_dt":6.75},{"city":"Addieville","state_name":"Illinois","lat":38.37682,"lng":-89.60529,"zip":"62214","miles_from_dt":7.18},{"city":"Okawville","state_name":"Illinois","lat":38.44028,"lng":-89.52209,"zip":"62271","miles_from_dt":7.33},{"city":"Saint Libory","state_name":"Illinois","lat":38.35644,"lng":-89.71334,"zip":"62282","miles_from_dt":8.86},{"city":"Bartelso","state_name":"Illinois","lat":38.52069,"lng":-89.47738,"zip":"62218","miles_from_dt":9.87},{"city":"Summerfield","state_name":"Illinois","lat":38.59788,"lng":-89.75096,"zip":"62289","miles_from_dt":10.1},{"city":"Trenton","state_name":"Illinois","lat":38.61838,"lng":-89.69748,"zip":"62293","miles_from_dt":10.23},{"city":"Aviston","state_name":"Illinois","lat":38.62559,"lng":-89.60313,"zip":"62216","miles_from_dt":10.7},{"city":"Scott Air Force Base","state_name":"Illinois","lat":38.54065,"lng":-89.85503,"zip":"62225","miles_from_dt":12.01},{"city":"Lebanon","state_name":"Illinois","lat":38.6098,"lng":-89.81901,"zip":"62254","miles_from_dt":13.06},{"city":"Breese","state_name":"Illinois","lat":38.63855,"lng":-89.52742,"zip":"62230","miles_from_dt":13.1},{"city":"Lenzburg","state_name":"Illinois","lat":38.31244,"lng":-89.77842,"zip":"62255","miles_from_dt":13.2},{"city":"Freeburg","state_name":"Illinois","lat":38.41841,"lng":-89.88978,"zip":"62243","miles_from_dt":13.58},{"city":"Belleville","state_name":"Illinois","lat":38.51187,"lng":-89.89922,"zip":"62221","miles_from_dt":13.76},{"city":"Marissa","state_name":"Illinois","lat":38.28048,"lng":-89.73262,"zip":"62257","miles_from_dt":14.14},{"city":"Beckemeyer","state_name":"Illinois","lat":38.60371,"lng":-89.43698,"zip":"62219","miles_from_dt":14.56},{"city":"Oakdale","state_name":"Illinois","lat":38.27208,"lng":-89.52612,"zip":"62268","miles_from_dt":15.51},{"city":"O'Fallon","state_name":"Illinois","lat":38.59844,"lng":-89.91294,"zip":"62269","miles_from_dt":16.61},{"city":"Nashville","state_name":"Illinois","lat":38.33168,"lng":-89.39706,"zip":"62263","miles_from_dt":16.9},{"city":"Saint Jacob","state_name":"Illinois","lat":38.70405,"lng":-89.78288,"zip":"62281","miles_from_dt":17.37},{"city":"New Athens","state_name":"Illinois","lat":38.31612,"lng":-89.90721,"zip":"62264","miles_from_dt":17.75},{"city":"Belleville","state_name":"Illinois","lat":38.46845,"lng":-89.98146,"zip":"62222","miles_from_dt":17.99},{"city":"Tilden","state_name":"Illinois","lat":38.21299,"lng":-89.68261,"zip":"62292","miles_from_dt":18.15},{"city":"Belleville","state_name":"Illinois","lat":38.47247,"lng":-89.98704,"zip":"62220","miles_from_dt":18.28},{"city":"Hoyleton","state_name":"Illinois","lat":38.45461,"lng":-89.29822,"zip":"62803","miles_from_dt":19.12},{"city":"Highland","state_name":"Illinois","lat":38.75469,"lng":-89.66436,"zip":"62249","miles_from_dt":19.32},{"city":"Belleville","state_name":"Illinois","lat":38.53634,"lng":-90.00057,"zip":"62226","miles_from_dt":19.48},{"city":"Troy","state_name":"Illinois","lat":38.70374,"lng":-89.87242,"zip":"62294","miles_from_dt":19.86},{"city":"Coulterville","state_name":"Illinois","lat":38.1916,"lng":-89.57046,"zip":"62237","miles_from_dt":20},{"city":"Smithton","state_name":"Illinois","lat":38.38845,"lng":-90.00773,"zip":"62285","miles_from_dt":20.31},{"city":"Fairview Heights","state_name":"Illinois","lat":38.59641,"lng":-90.00528,"zip":"62208","miles_from_dt":21},{"city":"Carlyle","state_name":"Illinois","lat":38.64402,"lng":-89.32642,"zip":"62231","miles_from_dt":21.05},{"city":"Hoffman","state_name":"Illinois","lat":38.54042,"lng":-89.26436,"zip":"62250","miles_from_dt":21.38},{"city":"Huey","state_name":"Illinois","lat":38.60427,"lng":-89.29024,"zip":"62252","miles_from_dt":21.43},{"city":"Pierron","state_name":"Illinois","lat":38.78673,"lng":-89.58389,"zip":"62273","miles_from_dt":21.81},{"city":"Hecker","state_name":"Illinois","lat":38.30543,"lng":-89.99341,"zip":"62248","miles_from_dt":22.01},{"city":"Caseyville","state_name":"Illinois","lat":38.63266,"lng":-90.00509,"zip":"62232","miles_from_dt":22.11},{"city":"Belleville","state_name":"Illinois","lat":38.53491,"lng":-90.06027,"zip":"62223","miles_from_dt":22.63},{"city":"Marine","state_name":"Illinois","lat":38.79077,"lng":-89.77624,"zip":"62061","miles_from_dt":22.84},{"city":"Collinsville","state_name":"Illinois","lat":38.68214,"lng":-89.9815,"zip":"62234","miles_from_dt":22.95},{"city":"Baldwin","state_name":"Illinois","lat":38.1732,"lng":-89.83954,"zip":"62217","miles_from_dt":23.22},{"city":"Pocahontas","state_name":"Illinois","lat":38.81507,"lng":-89.54496,"zip":"62275","miles_from_dt":24.15},{"city":"Maryville","state_name":"Illinois","lat":38.72719,"lng":-89.96253,"zip":"62062","miles_from_dt":24.28},{"city":"Millstadt","state_name":"Illinois","lat":38.46097,"lng":-90.09891,"zip":"62260","miles_from_dt":24.37},{"city":"East Saint Louis","state_name":"Illinois","lat":38.60223,"lng":-90.07534,"zip":"62203","miles_from_dt":24.67},{"city":"Richview","state_name":"Illinois","lat":38.38983,"lng":-89.2057,"zip":"62877","miles_from_dt":24.8},{"city":"Sparta","state_name":"Illinois","lat":38.11756,"lng":-89.7154,"zip":"62286","miles_from_dt":24.9},{"city":"Glen Carbon","state_name":"Illinois","lat":38.75639,"lng":-89.96897,"zip":"62034","miles_from_dt":25.99},{"city":"Red Bud","state_name":"Illinois","lat":38.20528,"lng":-89.99116,"zip":"62278","miles_from_dt":26.25},{"city":"Irvington","state_name":"Illinois","lat":38.43794,"lng":-89.16665,"zip":"62848","miles_from_dt":26.33},{"city":"East Saint Louis","state_name":"Illinois","lat":38.63033,"lng":-90.09642,"zip":"62204","miles_from_dt":26.46},{"city":"East Saint Louis","state_name":"Illinois","lat":38.60259,"lng":-90.11469,"zip":"62205","miles_from_dt":26.68},{"city":"East Saint Louis","state_name":"Illinois","lat":38.58327,"lng":-90.12544,"zip":"62207","miles_from_dt":26.83},{"city":"Centralia","state_name":"Illinois","lat":38.51097,"lng":-89.1412,"zip":"62801","miles_from_dt":27.69},{"city":"Ashley","state_name":"Illinois","lat":38.30328,"lng":-89.1884,"zip":"62808","miles_from_dt":27.71},{"city":"Keyesport","state_name":"Illinois","lat":38.77554,"lng":-89.29738,"zip":"62253","miles_from_dt":28.18},{"city":"Radom","state_name":"Illinois","lat":38.27713,"lng":-89.19487,"zip":"62876","miles_from_dt":28.22},{"city":"Alhambra","state_name":"Illinois","lat":38.87971,"lng":-89.74562,"zip":"62001","miles_from_dt":28.4},{"city":"Du Bois","state_name":"Illinois","lat":38.23042,"lng":-89.22167,"zip":"62831","miles_from_dt":28.72},{"city":"East Saint Louis","state_name":"Illinois","lat":38.63567,"lng":-90.14162,"zip":"62201","miles_from_dt":28.85},{"city":"Edwardsville","state_name":"Illinois","lat":38.83004,"lng":-89.93298,"zip":"62025","miles_from_dt":28.89},{"city":"East Saint Louis","state_name":"Illinois","lat":38.56796,"lng":-90.16981,"zip":"62206","miles_from_dt":28.9},{"city":"Dupo","state_name":"Illinois","lat":38.528,"lng":-90.1803,"zip":"62239","miles_from_dt":28.98},{"city":"Edwardsville","state_name":"Illinois","lat":38.79062,"lng":-90.00394,"zip":"62026","miles_from_dt":29.01},{"city":"East Saint Louis","state_name":"Illinois","lat":38.61664,"lng":-90.16095,"zip":"62202","miles_from_dt":29.36},{"city":"Waterloo","state_name":"Illinois","lat":38.30906,"lng":-90.15132,"zip":"62298","miles_from_dt":29.52},{"city":"Granite City","state_name":"Illinois","lat":38.71592,"lng":-90.10078,"zip":"62040","miles_from_dt":29.54},{"city":"Pinckneyville","state_name":"Illinois","lat":38.09312,"lng":-89.40064,"zip":"62274","miles_from_dt":29.61},{"city":"National Stock Yards","state_name":"Illinois","lat":38.64666,"lng":-90.1579,"zip":"62071","miles_from_dt":29.96}],"targetCityZipCode":"62266","targetCityState":"Illinois"},"__N_SSG":true}