{"pageProps":{"stateName":"Illinois","cityName":"pesotum","nearbyCities":[{"city":"Tolono","state_name":"Illinois","lat":39.97482,"lng":-88.2458,"zip":"61880","miles_from_dt":5.14},{"city":"Sadorus","state_name":"Illinois","lat":39.93586,"lng":-88.38018,"zip":"61872","miles_from_dt":5.62},{"city":"Tuscola","state_name":"Illinois","lat":39.79803,"lng":-88.28991,"zip":"61953","miles_from_dt":7.44},{"city":"Villa Grove","state_name":"Illinois","lat":39.8537,"lng":-88.14433,"zip":"61956","miles_from_dt":8.15},{"city":"Philo","state_name":"Illinois","lat":39.97989,"lng":-88.14437,"zip":"61864","miles_from_dt":8.92},{"city":"Ivesdale","state_name":"Illinois","lat":39.96507,"lng":-88.43544,"zip":"61851","miles_from_dt":9.12},{"city":"Savoy","state_name":"Illinois","lat":40.05062,"lng":-88.26078,"zip":"61874","miles_from_dt":10.06},{"city":"Longview","state_name":"Illinois","lat":39.89951,"lng":-88.07277,"zip":"61852","miles_from_dt":11.12},{"city":"Atwood","state_name":"Illinois","lat":39.82657,"lng":-88.47156,"zip":"61913","miles_from_dt":11.47},{"city":"Camargo","state_name":"Illinois","lat":39.7789,"lng":-88.13727,"zip":"61919","miles_from_dt":11.65},{"city":"Sidney","state_name":"Illinois","lat":39.99456,"lng":-88.07764,"zip":"61877","miles_from_dt":12.46},{"city":"Murdock","state_name":"Illinois","lat":39.80457,"lng":-88.07505,"zip":"61941","miles_from_dt":13.03},{"city":"Champaign","state_name":"Illinois","lat":40.11041,"lng":-88.27611,"zip":"61821","miles_from_dt":14.12},{"city":"Champaign","state_name":"Illinois","lat":40.10879,"lng":-88.24328,"zip":"61825","miles_from_dt":14.16},{"city":"Urbana","state_name":"Illinois","lat":40.10639,"lng":-88.21405,"zip":"61803","miles_from_dt":14.3},{"city":"Champaign","state_name":"Illinois","lat":40.112,"lng":-88.24423,"zip":"61820","miles_from_dt":14.37},{"city":"Urbana","state_name":"Illinois","lat":40.10937,"lng":-88.21175,"zip":"61801","miles_from_dt":14.53},{"city":"Bement","state_name":"Illinois","lat":39.90933,"lng":-88.55796,"zip":"61813","miles_from_dt":14.67},{"city":"Broadlands","state_name":"Illinois","lat":39.92444,"lng":-88.00398,"zip":"61816","miles_from_dt":14.82},{"city":"Bondville","state_name":"Illinois","lat":40.11075,"lng":-88.3679,"zip":"61815","miles_from_dt":14.86},{"city":"Champaign","state_name":"Illinois","lat":40.12077,"lng":-88.2437,"zip":"61824","miles_from_dt":14.97},{"city":"Seymour","state_name":"Illinois","lat":40.10421,"lng":-88.42267,"zip":"61875","miles_from_dt":15.6},{"city":"Newman","state_name":"Illinois","lat":39.81515,"lng":-88.00818,"zip":"61942","miles_from_dt":15.84},{"city":"Champaign","state_name":"Illinois","lat":40.13706,"lng":-88.27853,"zip":"61826","miles_from_dt":15.96},{"city":"Champaign","state_name":"Illinois","lat":40.13693,"lng":-88.30453,"zip":"61822","miles_from_dt":15.99},{"city":"Arcola","state_name":"Illinois","lat":39.67283,"lng":-88.30035,"zip":"61910","miles_from_dt":16.1},{"city":"Urbana","state_name":"Illinois","lat":40.12288,"lng":-88.14863,"zip":"61802","miles_from_dt":16.57},{"city":"White Heath","state_name":"Illinois","lat":40.09115,"lng":-88.48266,"zip":"61884","miles_from_dt":16.65},{"city":"Arthur","state_name":"Illinois","lat":39.70452,"lng":-88.47068,"zip":"61911","miles_from_dt":17.13},{"city":"Hindsboro","state_name":"Illinois","lat":39.67935,"lng":-88.12899,"zip":"61930","miles_from_dt":17.61},{"city":"Monticello","state_name":"Illinois","lat":40.02838,"lng":-88.58211,"zip":"61856","miles_from_dt":18.04},{"city":"Homer","state_name":"Illinois","lat":40.01145,"lng":-87.96185,"zip":"61849","miles_from_dt":18.49},{"city":"Hammond","state_name":"Illinois","lat":39.82338,"lng":-88.62271,"zip":"61929","miles_from_dt":18.99},{"city":"Allerton","state_name":"Illinois","lat":39.91019,"lng":-87.91837,"zip":"61810","miles_from_dt":19.32},{"city":"Milmine","state_name":"Illinois","lat":39.92438,"lng":-88.66056,"zip":"61855","miles_from_dt":20.16},{"city":"Saint Joseph","state_name":"Illinois","lat":40.14069,"lng":-88.03817,"zip":"61873","miles_from_dt":20.73},{"city":"Oakland","state_name":"Illinois","lat":39.6608,"lng":-88.0248,"zip":"61943","miles_from_dt":21.75},{"city":"Humboldt","state_name":"Illinois","lat":39.59067,"lng":-88.35883,"zip":"61931","miles_from_dt":22.12},{"city":"Hume","state_name":"Illinois","lat":39.79968,"lng":-87.87493,"zip":"61932","miles_from_dt":22.85},{"city":"Lovington","state_name":"Illinois","lat":39.73872,"lng":-88.65542,"zip":"61937","miles_from_dt":22.97},{"city":"Mahomet","state_name":"Illinois","lat":40.22344,"lng":-88.41555,"zip":"61853","miles_from_dt":23.03},{"city":"Cerro Gordo","state_name":"Illinois","lat":39.88455,"lng":-88.71798,"zip":"61818","miles_from_dt":23.22},{"city":"Sidell","state_name":"Illinois","lat":39.90534,"lng":-87.8398,"zip":"61876","miles_from_dt":23.49},{"city":"Ogden","state_name":"Illinois","lat":40.15065,"lng":-87.96163,"zip":"61859","miles_from_dt":23.96},{"city":"Thomasboro","state_name":"Illinois","lat":40.23953,"lng":-88.14945,"zip":"61878","miles_from_dt":24.08},{"city":"Mansfield","state_name":"Illinois","lat":40.20654,"lng":-88.52129,"zip":"61854","miles_from_dt":24.33},{"city":"Brocton","state_name":"Illinois","lat":39.71746,"lng":-87.8941,"zip":"61917","miles_from_dt":24.38},{"city":"De Land","state_name":"Illinois","lat":40.13184,"lng":-88.63694,"zip":"61839","miles_from_dt":24.45},{"city":"La Place","state_name":"Illinois","lat":39.80319,"lng":-88.72684,"zip":"61936","miles_from_dt":24.69},{"city":"Cisco","state_name":"Illinois","lat":40.01122,"lng":-88.72926,"zip":"61830","miles_from_dt":24.84},{"city":"Royal","state_name":"Illinois","lat":40.19118,"lng":-87.97925,"zip":"61871","miles_from_dt":25.4},{"city":"Fairmount","state_name":"Illinois","lat":40.02775,"lng":-87.82459,"zip":"61841","miles_from_dt":25.7},{"city":"Metcalf","state_name":"Illinois","lat":39.80395,"lng":-87.81249,"zip":"61940","miles_from_dt":25.93},{"city":"Dewey","state_name":"Illinois","lat":40.29663,"lng":-88.30187,"zip":"61840","miles_from_dt":26.99},{"city":"Sullivan","state_name":"Illinois","lat":39.59118,"lng":-88.5865,"zip":"61951","miles_from_dt":27.09},{"city":"Fithian","state_name":"Illinois","lat":40.14431,"lng":-87.8711,"zip":"61844","miles_from_dt":27.31},{"city":"Muncie","state_name":"Illinois","lat":40.11862,"lng":-87.84337,"zip":"61857","miles_from_dt":27.51},{"city":"Argenta","state_name":"Illinois","lat":39.92973,"lng":-88.80528,"zip":"62501","miles_from_dt":27.85},{"city":"Redmon","state_name":"Illinois","lat":39.65753,"lng":-87.85844,"zip":"61949","miles_from_dt":28.31},{"city":"Charleston","state_name":"Illinois","lat":39.50415,"lng":-88.16448,"zip":"61920","miles_from_dt":28.4},{"city":"Indianola","state_name":"Illinois","lat":39.9301,"lng":-87.74346,"zip":"61850","miles_from_dt":28.66},{"city":"Rantoul","state_name":"Illinois","lat":40.31148,"lng":-88.15837,"zip":"61866","miles_from_dt":28.75},{"city":"Fisher","state_name":"Illinois","lat":40.31593,"lng":-88.38053,"zip":"61843","miles_from_dt":28.78},{"city":"Weldon","state_name":"Illinois","lat":40.11203,"lng":-88.75969,"zip":"61882","miles_from_dt":29.07},{"city":"Ashmore","state_name":"Illinois","lat":39.52825,"lng":-88.03357,"zip":"61912","miles_from_dt":29.21},{"city":"Mattoon","state_name":"Illinois","lat":39.48004,"lng":-88.37571,"zip":"61938","miles_from_dt":29.79}],"targetCityZipCode":"61863","targetCityState":"Illinois"},"__N_SSG":true}