{"pageProps":{"stateName":"Illinois","cityName":"plainville","nearbyCities":[{"city":"Payson","state_name":"Illinois","lat":39.81731,"lng":-91.26143,"zip":"62360","miles_from_dt":5.59},{"city":"Liberty","state_name":"Illinois","lat":39.86648,"lng":-91.08905,"zip":"62347","miles_from_dt":6.18},{"city":"Kinderhook","state_name":"Illinois","lat":39.70655,"lng":-91.12758,"zip":"62345","miles_from_dt":6.38},{"city":"Hull","state_name":"Illinois","lat":39.70275,"lng":-91.2418,"zip":"62343","miles_from_dt":7.74},{"city":"Barry","state_name":"Illinois","lat":39.71035,"lng":-91.02518,"zip":"62312","miles_from_dt":9.29},{"city":"Saverton","state_name":"Missouri","lat":39.64849,"lng":-91.26655,"zip":"63467","miles_from_dt":11.62},{"city":"Quincy","state_name":"Illinois","lat":39.93296,"lng":-91.30595,"zip":"62306","miles_from_dt":12.24},{"city":"Quincy","state_name":"Illinois","lat":39.92915,"lng":-91.34441,"zip":"62305","miles_from_dt":13.45},{"city":"New Canton","state_name":"Illinois","lat":39.60092,"lng":-91.08508,"zip":"62356","miles_from_dt":14.01},{"city":"Fowler","state_name":"Illinois","lat":39.99309,"lng":-91.23889,"zip":"62338","miles_from_dt":14.25},{"city":"Baylis","state_name":"Illinois","lat":39.76967,"lng":-90.89204,"zip":"62314","miles_from_dt":14.38},{"city":"Quincy","state_name":"Illinois","lat":39.93139,"lng":-91.38741,"zip":"62301","miles_from_dt":15.29},{"city":"Camp Point","state_name":"Illinois","lat":40.02343,"lng":-91.08295,"zip":"62320","miles_from_dt":16.25},{"city":"Paloma","state_name":"Illinois","lat":40.03239,"lng":-91.20851,"zip":"62359","miles_from_dt":16.54},{"city":"Clayton","state_name":"Illinois","lat":39.9901,"lng":-90.96302,"zip":"62324","miles_from_dt":17.03},{"city":"New Salem","state_name":"Illinois","lat":39.68671,"lng":-90.86374,"zip":"62357","miles_from_dt":17.48},{"city":"Hannibal","state_name":"Missouri","lat":39.69046,"lng":-91.45986,"zip":"63401","miles_from_dt":17.53},{"city":"Coatsburg","state_name":"Illinois","lat":40.05307,"lng":-91.16564,"zip":"62325","miles_from_dt":17.77},{"city":"New London","state_name":"Missouri","lat":39.58392,"lng":-91.3795,"zip":"63459","miles_from_dt":18.71},{"city":"Ashburn","state_name":"Missouri","lat":39.51838,"lng":-91.11816,"zip":"63433","miles_from_dt":19.26},{"city":"Taylor","state_name":"Missouri","lat":39.92511,"lng":-91.50652,"zip":"63471","miles_from_dt":20.47},{"city":"Timewell","state_name":"Illinois","lat":39.99782,"lng":-90.87176,"zip":"62375","miles_from_dt":20.73},{"city":"Rockport","state_name":"Illinois","lat":39.51818,"lng":-90.99881,"zip":"62370","miles_from_dt":20.98},{"city":"Palmyra","state_name":"Missouri","lat":39.79757,"lng":-91.55577,"zip":"63461","miles_from_dt":21.05},{"city":"Perry","state_name":"Illinois","lat":39.77618,"lng":-90.76429,"zip":"62362","miles_from_dt":21.11},{"city":"Mendon","state_name":"Illinois","lat":40.11374,"lng":-91.26751,"zip":"62351","miles_from_dt":22.68},{"city":"Frankford","state_name":"Missouri","lat":39.4766,"lng":-91.31575,"zip":"63441","miles_from_dt":23.52},{"city":"Griggsville","state_name":"Illinois","lat":39.7228,"lng":-90.72588,"zip":"62340","miles_from_dt":23.66},{"city":"Golden","state_name":"Illinois","lat":40.12898,"lng":-91.04196,"zip":"62339","miles_from_dt":23.84},{"city":"Louisiana","state_name":"Missouri","lat":39.44375,"lng":-91.12,"zip":"63353","miles_from_dt":24.37},{"city":"Mount Sterling","state_name":"Illinois","lat":39.97277,"lng":-90.75735,"zip":"62353","miles_from_dt":24.65},{"city":"Pittsfield","state_name":"Illinois","lat":39.59163,"lng":-90.7784,"zip":"62363","miles_from_dt":24.74},{"city":"Chambersburg","state_name":"Illinois","lat":39.81306,"lng":-90.68607,"zip":"62323","miles_from_dt":25.26},{"city":"Ursa","state_name":"Illinois","lat":40.1148,"lng":-91.40662,"zip":"62376","miles_from_dt":25.62},{"city":"Loraine","state_name":"Illinois","lat":40.16958,"lng":-91.19986,"zip":"62349","miles_from_dt":25.89},{"city":"La Grange","state_name":"Missouri","lat":40.02168,"lng":-91.55416,"zip":"63448","miles_from_dt":26.11},{"city":"La Prairie","state_name":"Illinois","lat":40.14367,"lng":-90.93418,"zip":"62346","miles_from_dt":26.85},{"city":"Pleasant Hill","state_name":"Illinois","lat":39.46253,"lng":-90.89402,"zip":"62366","miles_from_dt":27.01},{"city":"Maywood","state_name":"Missouri","lat":39.92389,"lng":-91.64897,"zip":"63454","miles_from_dt":27.45},{"city":"Versailles","state_name":"Illinois","lat":39.89602,"lng":-90.63652,"zip":"62378","miles_from_dt":28.7},{"city":"Center","state_name":"Missouri","lat":39.50093,"lng":-91.54524,"zip":"63436","miles_from_dt":28.9},{"city":"Lima","state_name":"Illinois","lat":40.18836,"lng":-91.37126,"zip":"62348","miles_from_dt":29.32}],"targetCityZipCode":"62365","targetCityState":"Illinois"},"__N_SSG":true}