{"pageProps":{"stateName":"Illinois","cityName":"saybrook","nearbyCities":[{"city":"Arrowsmith","state_name":"Illinois","lat":40.42018,"lng":-88.63049,"zip":"61722","miles_from_dt":5.74},{"city":"Bellflower","state_name":"Illinois","lat":40.33418,"lng":-88.52654,"zip":"61724","miles_from_dt":7.28},{"city":"Anchor","state_name":"Illinois","lat":40.55228,"lng":-88.50498,"zip":"61720","miles_from_dt":7.84},{"city":"Foosland","state_name":"Illinois","lat":40.37308,"lng":-88.40076,"zip":"61845","miles_from_dt":7.98},{"city":"Gibson City","state_name":"Illinois","lat":40.46456,"lng":-88.36103,"zip":"60936","miles_from_dt":8.79},{"city":"Colfax","state_name":"Illinois","lat":40.57546,"lng":-88.62539,"zip":"61728","miles_from_dt":10.77},{"city":"Ellsworth","state_name":"Illinois","lat":40.45646,"lng":-88.73331,"zip":"61737","miles_from_dt":11.06},{"city":"Fisher","state_name":"Illinois","lat":40.31593,"lng":-88.38053,"zip":"61843","miles_from_dt":11.43},{"city":"Sibley","state_name":"Illinois","lat":40.57209,"lng":-88.37605,"zip":"61773","miles_from_dt":12.03},{"city":"Cropsey","state_name":"Illinois","lat":40.61255,"lng":-88.48386,"zip":"61731","miles_from_dt":12.12},{"city":"Cooksville","state_name":"Illinois","lat":40.53262,"lng":-88.73437,"zip":"61730","miles_from_dt":12.78},{"city":"Elliott","state_name":"Illinois","lat":40.46258,"lng":-88.27381,"zip":"60933","miles_from_dt":13.31},{"city":"Le Roy","state_name":"Illinois","lat":40.33703,"lng":-88.76168,"zip":"61752","miles_from_dt":14.37},{"city":"Dewey","state_name":"Illinois","lat":40.29663,"lng":-88.30187,"zip":"61840","miles_from_dt":15.35},{"city":"Farmer City","state_name":"Illinois","lat":40.23889,"lng":-88.66411,"zip":"61842","miles_from_dt":15.69},{"city":"Mahomet","state_name":"Illinois","lat":40.22344,"lng":-88.41555,"zip":"61853","miles_from_dt":15.99},{"city":"Mansfield","state_name":"Illinois","lat":40.20654,"lng":-88.52129,"zip":"61854","miles_from_dt":16.08},{"city":"Strawn","state_name":"Illinois","lat":40.64971,"lng":-88.37069,"zip":"61775","miles_from_dt":16.6},{"city":"Merna","state_name":"Illinois","lat":40.51426,"lng":-88.82616,"zip":"61758","miles_from_dt":16.7},{"city":"Downs","state_name":"Illinois","lat":40.40335,"lng":-88.83804,"zip":"61736","miles_from_dt":16.72},{"city":"Melvin","state_name":"Illinois","lat":40.56373,"lng":-88.25142,"zip":"60952","miles_from_dt":16.74},{"city":"Lexington","state_name":"Illinois","lat":40.63568,"lng":-88.78883,"zip":"61753","miles_from_dt":19.4},{"city":"Towanda","state_name":"Illinois","lat":40.5713,"lng":-88.86706,"zip":"61776","miles_from_dt":20.2},{"city":"Fairbury","state_name":"Illinois","lat":40.73342,"lng":-88.51938,"zip":"61739","miles_from_dt":20.27},{"city":"Paxton","state_name":"Illinois","lat":40.44037,"lng":-88.13977,"zip":"60957","miles_from_dt":20.29},{"city":"Rantoul","state_name":"Illinois","lat":40.31148,"lng":-88.15837,"zip":"61866","miles_from_dt":21.25},{"city":"Roberts","state_name":"Illinois","lat":40.62248,"lng":-88.18442,"zip":"60962","miles_from_dt":21.91},{"city":"De Land","state_name":"Illinois","lat":40.13184,"lng":-88.63694,"zip":"61839","miles_from_dt":22.05},{"city":"Dewitt","state_name":"Illinois","lat":40.20561,"lng":-88.81072,"zip":"61735","miles_from_dt":22.12},{"city":"Bloomington","state_name":"Illinois","lat":40.46951,"lng":-88.94281,"zip":"61704","miles_from_dt":22.14},{"city":"Ludlow","state_name":"Illinois","lat":40.38042,"lng":-88.10239,"zip":"60949","miles_from_dt":22.64},{"city":"Chenoa","state_name":"Illinois","lat":40.74013,"lng":-88.70014,"zip":"61726","miles_from_dt":22.7},{"city":"Bloomington","state_name":"Illinois","lat":40.47829,"lng":-88.95273,"zip":"61710","miles_from_dt":22.72},{"city":"Bloomington","state_name":"Illinois","lat":40.47427,"lng":-88.95577,"zip":"61791","miles_from_dt":22.85},{"city":"Bloomington","state_name":"Illinois","lat":40.45862,"lng":-88.96112,"zip":"61709","miles_from_dt":23.05},{"city":"Forrest","state_name":"Illinois","lat":40.76045,"lng":-88.40057,"zip":"61741","miles_from_dt":23.08},{"city":"Normal","state_name":"Illinois","lat":40.52503,"lng":-88.95152,"zip":"61761","miles_from_dt":23.25},{"city":"Seymour","state_name":"Illinois","lat":40.10421,"lng":-88.42267,"zip":"61875","miles_from_dt":23.76},{"city":"Chatsworth","state_name":"Illinois","lat":40.73513,"lng":-88.28894,"zip":"60921","miles_from_dt":23.86},{"city":"Champaign","state_name":"Illinois","lat":40.13693,"lng":-88.30453,"zip":"61822","miles_from_dt":23.9},{"city":"Thomasboro","state_name":"Illinois","lat":40.23953,"lng":-88.14945,"zip":"61878","miles_from_dt":24.14},{"city":"White Heath","state_name":"Illinois","lat":40.09115,"lng":-88.48266,"zip":"61884","miles_from_dt":24.15},{"city":"Bondville","state_name":"Illinois","lat":40.11075,"lng":-88.3679,"zip":"61815","miles_from_dt":24.16},{"city":"Loda","state_name":"Illinois","lat":40.52413,"lng":-88.07698,"zip":"60948","miles_from_dt":24.29},{"city":"Bloomington","state_name":"Illinois","lat":40.42847,"lng":-88.98691,"zip":"61799","miles_from_dt":24.39},{"city":"Champaign","state_name":"Illinois","lat":40.13706,"lng":-88.27853,"zip":"61826","miles_from_dt":24.59},{"city":"Heyworth","state_name":"Illinois","lat":40.32152,"lng":-88.96684,"zip":"61745","miles_from_dt":24.72},{"city":"Bloomington","state_name":"Illinois","lat":40.47697,"lng":-88.99278,"zip":"61701","miles_from_dt":24.81},{"city":"Bloomington","state_name":"Illinois","lat":40.46099,"lng":-88.99981,"zip":"61705","miles_from_dt":25.09},{"city":"Normal","state_name":"Illinois","lat":40.51729,"lng":-88.99916,"zip":"61790","miles_from_dt":25.57},{"city":"Wapella","state_name":"Illinois","lat":40.243,"lng":-88.93948,"zip":"61777","miles_from_dt":25.77},{"city":"Weldon","state_name":"Illinois","lat":40.11203,"lng":-88.75969,"zip":"61882","miles_from_dt":25.79},{"city":"Champaign","state_name":"Illinois","lat":40.11041,"lng":-88.27611,"zip":"61821","miles_from_dt":26.24},{"city":"Champaign","state_name":"Illinois","lat":40.12077,"lng":-88.2437,"zip":"61824","miles_from_dt":26.54},{"city":"Bloomington","state_name":"Illinois","lat":40.6061,"lng":-88.98251,"zip":"61702","miles_from_dt":26.71},{"city":"Thawville","state_name":"Illinois","lat":40.6746,"lng":-88.12049,"zip":"60968","miles_from_dt":26.74},{"city":"Champaign","state_name":"Illinois","lat":40.112,"lng":-88.24423,"zip":"61820","miles_from_dt":27.03},{"city":"Champaign","state_name":"Illinois","lat":40.10879,"lng":-88.24328,"zip":"61825","miles_from_dt":27.24},{"city":"Hudson","state_name":"Illinois","lat":40.61483,"lng":-88.98898,"zip":"61748","miles_from_dt":27.28},{"city":"Lane","state_name":"Illinois","lat":40.12251,"lng":-88.8557,"zip":"61750","miles_from_dt":28.02},{"city":"Gridley","state_name":"Illinois","lat":40.74377,"lng":-88.88118,"zip":"61744","miles_from_dt":28.15},{"city":"Urbana","state_name":"Illinois","lat":40.10937,"lng":-88.21175,"zip":"61801","miles_from_dt":28.15},{"city":"Buckley","state_name":"Illinois","lat":40.59681,"lng":-88.02968,"zip":"60918","miles_from_dt":28.23},{"city":"Urbana","state_name":"Illinois","lat":40.10639,"lng":-88.21405,"zip":"61803","miles_from_dt":28.25},{"city":"Gifford","state_name":"Illinois","lat":40.31148,"lng":-88.01581,"zip":"61847","miles_from_dt":28.27},{"city":"Monticello","state_name":"Illinois","lat":40.02838,"lng":-88.58211,"zip":"61856","miles_from_dt":28.54},{"city":"Shirley","state_name":"Illinois","lat":40.386,"lng":-89.06351,"zip":"61772","miles_from_dt":28.66},{"city":"Urbana","state_name":"Illinois","lat":40.12288,"lng":-88.14863,"zip":"61802","miles_from_dt":29.54}],"targetCityZipCode":"61770","targetCityState":"Illinois"},"__N_SSG":true}