{"pageProps":{"stateName":"Illinois","cityName":"simpson","nearbyCities":[{"city":"Eddyville","state_name":"Illinois","lat":37.47959,"lng":-88.5668,"zip":"62928","miles_from_dt":6.78},{"city":"Grantsburg","state_name":"Illinois","lat":37.35586,"lng":-88.74669,"zip":"62943","miles_from_dt":8.33},{"city":"New Burnside","state_name":"Illinois","lat":37.58092,"lng":-88.75089,"zip":"62967","miles_from_dt":8.51},{"city":"Ozark","state_name":"Illinois","lat":37.5419,"lng":-88.8162,"zip":"62972","miles_from_dt":8.65},{"city":"Golconda","state_name":"Illinois","lat":37.38249,"lng":-88.54676,"zip":"62938","miles_from_dt":9.8},{"city":"Stonefort","state_name":"Illinois","lat":37.61114,"lng":-88.65695,"zip":"62987","miles_from_dt":10.05},{"city":"Vienna","state_name":"Illinois","lat":37.41945,"lng":-88.88244,"zip":"62995","miles_from_dt":11.13},{"city":"Creal Springs","state_name":"Illinois","lat":37.6215,"lng":-88.81531,"zip":"62922","miles_from_dt":12.66},{"city":"Belknap","state_name":"Illinois","lat":37.30827,"lng":-88.86603,"zip":"62908","miles_from_dt":14.68},{"city":"Herod","state_name":"Illinois","lat":37.55676,"lng":-88.4348,"zip":"62947","miles_from_dt":15.27},{"city":"Carrier Mills","state_name":"Illinois","lat":37.69752,"lng":-88.64882,"zip":"62917","miles_from_dt":16.01},{"city":"Metropolis","state_name":"Illinois","lat":37.22515,"lng":-88.71097,"zip":"62960","miles_from_dt":16.77},{"city":"Boles","state_name":"Illinois","lat":37.46581,"lng":-88.99636,"zip":"62909","miles_from_dt":16.88},{"city":"Goreville","state_name":"Illinois","lat":37.5489,"lng":-88.98088,"zip":"62939","miles_from_dt":16.97},{"city":"Rosiclare","state_name":"Illinois","lat":37.42808,"lng":-88.35967,"zip":"62982","miles_from_dt":18.33},{"city":"Harrisburg","state_name":"Illinois","lat":37.7028,"lng":-88.52887,"zip":"62946","miles_from_dt":18.45},{"city":"Karnak","state_name":"Illinois","lat":37.27805,"lng":-88.93127,"zip":"62956","miles_from_dt":18.66},{"city":"Buncombe","state_name":"Illinois","lat":37.47598,"lng":-89.0388,"zip":"62912","miles_from_dt":19.22},{"city":"Joppa","state_name":"Illinois","lat":37.20684,"lng":-88.84533,"zip":"62953","miles_from_dt":19.93},{"city":"Hampton","state_name":"Kentucky","lat":37.30061,"lng":-88.39046,"zip":"42047","miles_from_dt":20.08},{"city":"Marion","state_name":"Illinois","lat":37.71442,"lng":-88.91463,"zip":"62959","miles_from_dt":21.03},{"city":"Cypress","state_name":"Illinois","lat":37.33709,"lng":-89.03671,"zip":"62923","miles_from_dt":21.13},{"city":"Grand Chain","state_name":"Illinois","lat":37.24142,"lng":-88.97186,"zip":"62941","miles_from_dt":22.03},{"city":"Pittsburg","state_name":"Illinois","lat":37.78158,"lng":-88.79094,"zip":"62974","miles_from_dt":22.35},{"city":"Muddy","state_name":"Illinois","lat":37.76753,"lng":-88.5177,"zip":"62965","miles_from_dt":22.72},{"city":"Smithland","state_name":"Kentucky","lat":37.22821,"lng":-88.40274,"zip":"42081","miles_from_dt":22.84},{"city":"Elizabethtown","state_name":"Illinois","lat":37.52813,"lng":-88.27953,"zip":"62931","miles_from_dt":22.9},{"city":"Brookport","state_name":"Illinois","lat":37.1562,"lng":-88.53075,"zip":"62910","miles_from_dt":23.19},{"city":"Perks","state_name":"Illinois","lat":37.30855,"lng":-89.0797,"zip":"62973","miles_from_dt":24.12},{"city":"Equality","state_name":"Illinois","lat":37.70876,"lng":-88.36175,"zip":"62934","miles_from_dt":24.49},{"city":"Burna","state_name":"Kentucky","lat":37.23637,"lng":-88.33946,"zip":"42028","miles_from_dt":25.01},{"city":"Dongola","state_name":"Illinois","lat":37.3692,"lng":-89.13589,"zip":"62926","miles_from_dt":25.48},{"city":"Galatia","state_name":"Illinois","lat":37.84281,"lng":-88.63194,"zip":"62935","miles_from_dt":26.06},{"city":"Salem","state_name":"Kentucky","lat":37.28876,"lng":-88.27202,"zip":"42078","miles_from_dt":26.07},{"city":"Bandana","state_name":"Kentucky","lat":37.14593,"lng":-88.94553,"zip":"42022","miles_from_dt":26.3},{"city":"West Paducah","state_name":"Kentucky","lat":37.0828,"lng":-88.76838,"zip":"42086","miles_from_dt":26.9},{"city":"Makanda","state_name":"Illinois","lat":37.60389,"lng":-89.14917,"zip":"62958","miles_from_dt":26.94},{"city":"Kevil","state_name":"Kentucky","lat":37.1033,"lng":-88.87606,"zip":"42053","miles_from_dt":27.15},{"city":"Carbondale","state_name":"Illinois","lat":37.67199,"lng":-89.11509,"zip":"62902","miles_from_dt":27.29},{"city":"Anna","state_name":"Illinois","lat":37.45746,"lng":-89.18899,"zip":"62906","miles_from_dt":27.48},{"city":"Junction","state_name":"Illinois","lat":37.69462,"lng":-88.27428,"zip":"62954","miles_from_dt":27.64},{"city":"Raleigh","state_name":"Illinois","lat":37.85179,"lng":-88.54384,"zip":"62977","miles_from_dt":27.67},{"city":"Paducah","state_name":"Kentucky","lat":37.06855,"lng":-88.62494,"zip":"42002","miles_from_dt":27.75},{"city":"Energy","state_name":"Illinois","lat":37.77363,"lng":-89.02003,"zip":"62933","miles_from_dt":27.83},{"city":"Johnston City","state_name":"Illinois","lat":37.82637,"lng":-88.92609,"zip":"62951","miles_from_dt":27.94},{"city":"Olmsted","state_name":"Illinois","lat":37.21362,"lng":-89.10119,"zip":"62970","miles_from_dt":28.66},{"city":"Ullin","state_name":"Illinois","lat":37.27855,"lng":-89.1556,"zip":"62992","miles_from_dt":28.79},{"city":"Eldorado","state_name":"Illinois","lat":37.84379,"lng":-88.44139,"zip":"62930","miles_from_dt":29.29},{"city":"La Center","state_name":"Kentucky","lat":37.11088,"lng":-88.98452,"zip":"42056","miles_from_dt":29.5},{"city":"Paducah","state_name":"Kentucky","lat":37.03317,"lng":-88.7135,"zip":"42001","miles_from_dt":29.99}],"targetCityZipCode":"62985","targetCityState":"Illinois"},"__N_SSG":true}