{"pageProps":{"stateName":"Illinois","cityName":"stockton","nearbyCities":[{"city":"Kent","state_name":"Illinois","lat":42.32336,"lng":-89.9099,"zip":"61044","miles_from_dt":6.33},{"city":"Elizabeth","state_name":"Illinois","lat":42.29366,"lng":-90.16935,"zip":"61028","miles_from_dt":7.86},{"city":"Nora","state_name":"Illinois","lat":42.45465,"lng":-89.94084,"zip":"61059","miles_from_dt":8.99},{"city":"Apple River","state_name":"Illinois","lat":42.4612,"lng":-90.12226,"zip":"61001","miles_from_dt":9.42},{"city":"Warren","state_name":"Illinois","lat":42.48046,"lng":-89.99351,"zip":"61087","miles_from_dt":9.7},{"city":"Lena","state_name":"Illinois","lat":42.38524,"lng":-89.83526,"zip":"61048","miles_from_dt":10.43},{"city":"Pearl City","state_name":"Illinois","lat":42.25254,"lng":-89.84263,"zip":"61062","miles_from_dt":11.47},{"city":"Winslow","state_name":"Illinois","lat":42.47349,"lng":-89.82335,"zip":"61089","miles_from_dt":13.93},{"city":"Eleroy","state_name":"Illinois","lat":42.3333,"lng":-89.75553,"zip":"61027","miles_from_dt":14.11},{"city":"Scales Mound","state_name":"Illinois","lat":42.46546,"lng":-90.26444,"zip":"61075","miles_from_dt":14.65},{"city":"Hanover","state_name":"Illinois","lat":42.272,"lng":-90.3202,"zip":"61041","miles_from_dt":15.61},{"city":"Gratiot","state_name":"Wisconsin","lat":42.56969,"lng":-90.02963,"zip":"53541","miles_from_dt":15.67},{"city":"Savanna","state_name":"Illinois","lat":42.12615,"lng":-90.13061,"zip":"61074","miles_from_dt":15.8},{"city":"Mount Carroll","state_name":"Illinois","lat":42.11506,"lng":-89.98335,"zip":"61053","miles_from_dt":15.9},{"city":"McConnell","state_name":"Illinois","lat":42.43932,"lng":-89.7319,"zip":"61050","miles_from_dt":16.68},{"city":"South Wayne","state_name":"Wisconsin","lat":42.57736,"lng":-89.90511,"zip":"53587","miles_from_dt":17.43},{"city":"Shullsburg","state_name":"Wisconsin","lat":42.57271,"lng":-90.22702,"zip":"53586","miles_from_dt":18.78},{"city":"Browntown","state_name":"Wisconsin","lat":42.55674,"lng":-89.78983,"zip":"53522","miles_from_dt":19.24},{"city":"Galena","state_name":"Illinois","lat":42.4172,"lng":-90.39816,"zip":"61036","miles_from_dt":19.49},{"city":"Shannon","state_name":"Illinois","lat":42.16729,"lng":-89.73062,"zip":"61078","miles_from_dt":19.58},{"city":"Lanark","state_name":"Illinois","lat":42.10404,"lng":-89.81329,"zip":"61046","miles_from_dt":19.89},{"city":"Freeport","state_name":"Illinois","lat":42.31509,"lng":-89.63598,"zip":"61032","miles_from_dt":20.31},{"city":"Cedarville","state_name":"Illinois","lat":42.37544,"lng":-89.63623,"zip":"61013","miles_from_dt":20.32},{"city":"Sabula","state_name":"Iowa","lat":42.08146,"lng":-90.21771,"zip":"52070","miles_from_dt":20.42},{"city":"Benton","state_name":"Wisconsin","lat":42.55915,"lng":-90.35508,"zip":"53803","miles_from_dt":22.32},{"city":"Miles","state_name":"Iowa","lat":42.08977,"lng":-90.31076,"zip":"52064","miles_from_dt":22.61},{"city":"Woodford","state_name":"Wisconsin","lat":42.64765,"lng":-89.85986,"zip":"53599","miles_from_dt":22.79},{"city":"Orangeville","state_name":"Illinois","lat":42.47876,"lng":-89.61819,"zip":"61060","miles_from_dt":23.1},{"city":"Bellevue","state_name":"Iowa","lat":42.24874,"lng":-90.48922,"zip":"52031","miles_from_dt":24.37},{"city":"Darlington","state_name":"Wisconsin","lat":42.69356,"lng":-90.11163,"zip":"53530","miles_from_dt":24.57},{"city":"Baileyville","state_name":"Illinois","lat":42.19941,"lng":-89.59109,"zip":"61007","miles_from_dt":24.61},{"city":"Dakota","state_name":"Illinois","lat":42.41599,"lng":-89.55558,"zip":"61018","miles_from_dt":24.84},{"city":"Thomson","state_name":"Illinois","lat":41.98307,"lng":-90.0811,"zip":"61285","miles_from_dt":24.95},{"city":"Teeds Grove","state_name":"Iowa","lat":42.01958,"lng":-90.25707,"zip":"52771","miles_from_dt":25.14},{"city":"Springbrook","state_name":"Iowa","lat":42.16577,"lng":-90.47916,"zip":"52075","miles_from_dt":26.03},{"city":"Saint Donatus","state_name":"Iowa","lat":42.36245,"lng":-90.54234,"zip":"52071","miles_from_dt":26.23},{"city":"Chadwick","state_name":"Illinois","lat":41.97501,"lng":-89.8865,"zip":"61014","miles_from_dt":26.44},{"city":"Argyle","state_name":"Wisconsin","lat":42.70388,"lng":-89.85801,"zip":"53504","miles_from_dt":26.45},{"city":"Monroe","state_name":"Wisconsin","lat":42.60912,"lng":-89.64817,"zip":"53566","miles_from_dt":26.84},{"city":"Andover","state_name":"Iowa","lat":41.98198,"lng":-90.24908,"zip":"52701","miles_from_dt":27.3},{"city":"Forreston","state_name":"Illinois","lat":42.11578,"lng":-89.58898,"zip":"61030","miles_from_dt":27.55},{"city":"Spragueville","state_name":"Iowa","lat":42.10966,"lng":-90.4724,"zip":"52074","miles_from_dt":27.78},{"city":"Hazel Green","state_name":"Wisconsin","lat":42.53576,"lng":-90.51541,"zip":"53811","miles_from_dt":28.13},{"city":"Preston","state_name":"Iowa","lat":42.05772,"lng":-90.4279,"zip":"52069","miles_from_dt":28.32},{"city":"East Dubuque","state_name":"Illinois","lat":42.46958,"lng":-90.55904,"zip":"61025","miles_from_dt":28.41},{"city":"Milledgeville","state_name":"Illinois","lat":41.98289,"lng":-89.7619,"zip":"61051","miles_from_dt":28.41},{"city":"Ridott","state_name":"Illinois","lat":42.30472,"lng":-89.47454,"zip":"61067","miles_from_dt":28.61},{"city":"Sinsinawa","state_name":"Wisconsin","lat":42.52378,"lng":-90.53785,"zip":"53824","miles_from_dt":28.78},{"city":"Cuba City","state_name":"Wisconsin","lat":42.61123,"lng":-90.46668,"zip":"53807","miles_from_dt":28.98},{"city":"Rock City","state_name":"Illinois","lat":42.41571,"lng":-89.47177,"zip":"61070","miles_from_dt":29.05}],"targetCityZipCode":"61085","targetCityState":"Illinois"},"__N_SSG":true}