{"pageProps":{"stateName":"Illinois","cityName":"strasburg","nearbyCities":[{"city":"Stewardson","state_name":"Illinois","lat":39.27519,"lng":-88.59683,"zip":"62463","miles_from_dt":5.37},{"city":"Windsor","state_name":"Illinois","lat":39.4397,"lng":-88.60495,"zip":"61957","miles_from_dt":6.7},{"city":"Mode","state_name":"Illinois","lat":39.27853,"lng":-88.73474,"zip":"62444","miles_from_dt":6.96},{"city":"Shelbyville","state_name":"Illinois","lat":39.41334,"lng":-88.8026,"zip":"62565","miles_from_dt":9.94},{"city":"Shumway","state_name":"Illinois","lat":39.20067,"lng":-88.6759,"zip":"62461","miles_from_dt":10.24},{"city":"Gays","state_name":"Illinois","lat":39.45524,"lng":-88.50284,"zip":"61928","miles_from_dt":10.45},{"city":"Neoga","state_name":"Illinois","lat":39.31303,"lng":-88.44456,"zip":"62447","miles_from_dt":10.63},{"city":"Sigel","state_name":"Illinois","lat":39.23291,"lng":-88.47066,"zip":"62462","miles_from_dt":11.91},{"city":"Lakewood","state_name":"Illinois","lat":39.32553,"lng":-88.87005,"zip":"62438","miles_from_dt":12.5},{"city":"Cowden","state_name":"Illinois","lat":39.23327,"lng":-88.88855,"zip":"62422","miles_from_dt":15.51},{"city":"Findlay","state_name":"Illinois","lat":39.53519,"lng":-88.79603,"zip":"62534","miles_from_dt":15.53},{"city":"Beecher City","state_name":"Illinois","lat":39.17277,"lng":-88.82611,"zip":"62414","miles_from_dt":15.64},{"city":"Trilla","state_name":"Illinois","lat":39.34843,"lng":-88.33911,"zip":"62469","miles_from_dt":16.02},{"city":"Effingham","state_name":"Illinois","lat":39.11843,"lng":-88.56467,"zip":"62401","miles_from_dt":16.2},{"city":"Mattoon","state_name":"Illinois","lat":39.48004,"lng":-88.37571,"zip":"61938","miles_from_dt":16.81},{"city":"Sullivan","state_name":"Illinois","lat":39.59118,"lng":-88.5865,"zip":"61951","miles_from_dt":17.13},{"city":"Tower Hill","state_name":"Illinois","lat":39.38155,"lng":-88.95998,"zip":"62571","miles_from_dt":17.4},{"city":"Teutopolis","state_name":"Illinois","lat":39.12809,"lng":-88.43543,"zip":"62467","miles_from_dt":18.57},{"city":"Altamont","state_name":"Illinois","lat":39.06865,"lng":-88.72936,"zip":"62411","miles_from_dt":19.76},{"city":"Toledo","state_name":"Illinois","lat":39.27779,"lng":-88.27155,"zip":"62468","miles_from_dt":20.21},{"city":"Lerna","state_name":"Illinois","lat":39.39433,"lng":-88.26325,"zip":"62440","miles_from_dt":20.35},{"city":"Herrick","state_name":"Illinois","lat":39.22981,"lng":-88.99382,"zip":"62431","miles_from_dt":20.68},{"city":"Montrose","state_name":"Illinois","lat":39.16687,"lng":-88.32322,"zip":"62445","miles_from_dt":20.94},{"city":"Bethany","state_name":"Illinois","lat":39.63409,"lng":-88.76783,"zip":"61914","miles_from_dt":21.04},{"city":"Humboldt","state_name":"Illinois","lat":39.59067,"lng":-88.35883,"zip":"61931","miles_from_dt":22.54},{"city":"Watson","state_name":"Illinois","lat":39.01986,"lng":-88.56556,"zip":"62473","miles_from_dt":22.84},{"city":"Jewett","state_name":"Illinois","lat":39.18247,"lng":-88.25613,"zip":"62436","miles_from_dt":23.4},{"city":"Assumption","state_name":"Illinois","lat":39.5315,"lng":-89.02706,"zip":"62510","miles_from_dt":24.41},{"city":"Saint Elmo","state_name":"Illinois","lat":39.02531,"lng":-88.85441,"zip":"62458","miles_from_dt":24.99},{"city":"Pana","state_name":"Illinois","lat":39.39974,"lng":-89.10503,"zip":"62557","miles_from_dt":25.26},{"city":"Oconee","state_name":"Illinois","lat":39.27182,"lng":-89.10509,"zip":"62553","miles_from_dt":25.54},{"city":"Arthur","state_name":"Illinois","lat":39.70452,"lng":-88.47068,"zip":"61911","miles_from_dt":26.3},{"city":"Moweaqua","state_name":"Illinois","lat":39.61154,"lng":-88.99283,"zip":"62550","miles_from_dt":26.35},{"city":"Mason","state_name":"Illinois","lat":38.95397,"lng":-88.62902,"zip":"62443","miles_from_dt":27.06},{"city":"Lovington","state_name":"Illinois","lat":39.73872,"lng":-88.65542,"zip":"61937","miles_from_dt":27.1},{"city":"Dieterich","state_name":"Illinois","lat":38.98784,"lng":-88.42124,"zip":"62424","miles_from_dt":27.33},{"city":"Wheeler","state_name":"Illinois","lat":39.03731,"lng":-88.31239,"zip":"62479","miles_from_dt":27.57},{"city":"Charleston","state_name":"Illinois","lat":39.50415,"lng":-88.16448,"zip":"61920","miles_from_dt":27.59},{"city":"Greenup","state_name":"Illinois","lat":39.26396,"lng":-88.1302,"zip":"62428","miles_from_dt":27.81},{"city":"Dalton City","state_name":"Illinois","lat":39.72444,"lng":-88.83548,"zip":"61925","miles_from_dt":28.14},{"city":"Ramsey","state_name":"Illinois","lat":39.14115,"lng":-89.10569,"zip":"62080","miles_from_dt":28.79},{"city":"Brownstown","state_name":"Illinois","lat":39.02009,"lng":-88.97463,"zip":"62418","miles_from_dt":28.84},{"city":"Arcola","state_name":"Illinois","lat":39.67283,"lng":-88.30035,"zip":"61910","miles_from_dt":28.88}],"targetCityZipCode":"62465","targetCityState":"Illinois"},"__N_SSG":true}