{"pageProps":{"stateName":"Illinois","cityName":"taylorville","nearbyCities":[{"city":"Kincaid","state_name":"Illinois","lat":39.58496,"lng":-89.41938,"zip":"62540","miles_from_dt":7.12},{"city":"Owaneco","state_name":"Illinois","lat":39.46755,"lng":-89.21982,"zip":"62555","miles_from_dt":7.39},{"city":"Palmer","state_name":"Illinois","lat":39.46674,"lng":-89.37049,"zip":"62556","miles_from_dt":7.72},{"city":"Bulpitt","state_name":"Illinois","lat":39.59365,"lng":-89.43285,"zip":"62517","miles_from_dt":7.97},{"city":"Stonington","state_name":"Illinois","lat":39.64668,"lng":-89.19082,"zip":"62567","miles_from_dt":8.01},{"city":"Edinburg","state_name":"Illinois","lat":39.66754,"lng":-89.37395,"zip":"62531","miles_from_dt":8.68},{"city":"Tovey","state_name":"Illinois","lat":39.58023,"lng":-89.45107,"zip":"62570","miles_from_dt":8.71},{"city":"Morrisonville","state_name":"Illinois","lat":39.43042,"lng":-89.44281,"zip":"62546","miles_from_dt":12.09},{"city":"Blue Mound","state_name":"Illinois","lat":39.72341,"lng":-89.15296,"zip":"62513","miles_from_dt":13.46},{"city":"Pawnee","state_name":"Illinois","lat":39.58967,"lng":-89.54239,"zip":"62558","miles_from_dt":13.62},{"city":"Assumption","state_name":"Illinois","lat":39.5315,"lng":-89.02706,"zip":"62510","miles_from_dt":14.19},{"city":"Mount Auburn","state_name":"Illinois","lat":39.76883,"lng":-89.24929,"zip":"62547","miles_from_dt":14.59},{"city":"Pana","state_name":"Illinois","lat":39.39974,"lng":-89.10503,"zip":"62557","miles_from_dt":14.83},{"city":"Mechanicsburg","state_name":"Illinois","lat":39.7661,"lng":-89.38737,"zip":"62545","miles_from_dt":15.15},{"city":"Rosamond","state_name":"Illinois","lat":39.35122,"lng":-89.19842,"zip":"62083","miles_from_dt":15.2},{"city":"Ohlman","state_name":"Illinois","lat":39.34186,"lng":-89.23383,"zip":"62076","miles_from_dt":15.33},{"city":"Rochester","state_name":"Illinois","lat":39.71675,"lng":-89.50017,"zip":"62563","miles_from_dt":15.58},{"city":"Moweaqua","state_name":"Illinois","lat":39.61154,"lng":-88.99283,"zip":"62550","miles_from_dt":16.27},{"city":"Nokomis","state_name":"Illinois","lat":39.30143,"lng":-89.29676,"zip":"62075","miles_from_dt":17.82},{"city":"Harvel","state_name":"Illinois","lat":39.35631,"lng":-89.52051,"zip":"62538","miles_from_dt":18.67},{"city":"Boody","state_name":"Illinois","lat":39.76753,"lng":-89.04508,"zip":"62514","miles_from_dt":19.4},{"city":"Divernon","state_name":"Illinois","lat":39.56206,"lng":-89.65626,"zip":"62530","miles_from_dt":19.55},{"city":"Farmersville","state_name":"Illinois","lat":39.44483,"lng":-89.626,"zip":"62533","miles_from_dt":19.62},{"city":"Macon","state_name":"Illinois","lat":39.70854,"lng":-88.97375,"zip":"62544","miles_from_dt":19.76},{"city":"Glenarm","state_name":"Illinois","lat":39.63022,"lng":-89.65023,"zip":"62536","miles_from_dt":19.82},{"city":"Dawson","state_name":"Illinois","lat":39.82185,"lng":-89.45904,"zip":"62520","miles_from_dt":20.2},{"city":"Springfield","state_name":"Illinois","lat":39.74883,"lng":-89.58344,"zip":"62712","miles_from_dt":20.37},{"city":"Buffalo","state_name":"Illinois","lat":39.8561,"lng":-89.36622,"zip":"62515","miles_from_dt":20.84},{"city":"Illiopolis","state_name":"Illinois","lat":39.86681,"lng":-89.24914,"zip":"62539","miles_from_dt":21.3},{"city":"Niantic","state_name":"Illinois","lat":39.85357,"lng":-89.15631,"zip":"62551","miles_from_dt":21.49},{"city":"Tower Hill","state_name":"Illinois","lat":39.38155,"lng":-88.95998,"zip":"62571","miles_from_dt":21.51},{"city":"Springfield","state_name":"Illinois","lat":39.74815,"lng":-89.61177,"zip":"62716","miles_from_dt":21.52},{"city":"Witt","state_name":"Illinois","lat":39.2441,"lng":-89.34871,"zip":"62094","miles_from_dt":22},{"city":"Oconee","state_name":"Illinois","lat":39.27182,"lng":-89.10509,"zip":"62553","miles_from_dt":22.19},{"city":"Elwin","state_name":"Illinois","lat":39.77633,"lng":-88.97781,"zip":"62532","miles_from_dt":22.37},{"city":"Springfield","state_name":"Illinois","lat":39.77425,"lng":-89.60784,"zip":"62766","miles_from_dt":22.49},{"city":"Decatur","state_name":"Illinois","lat":39.83008,"lng":-89.04743,"zip":"62522","miles_from_dt":22.7},{"city":"Harristown","state_name":"Illinois","lat":39.85263,"lng":-89.09324,"zip":"62537","miles_from_dt":22.77},{"city":"Springfield","state_name":"Illinois","lat":39.75763,"lng":-89.63542,"zip":"62764","miles_from_dt":22.92},{"city":"Springfield","state_name":"Illinois","lat":39.76184,"lng":-89.63121,"zip":"62794","miles_from_dt":22.92},{"city":"Springfield","state_name":"Illinois","lat":39.75943,"lng":-89.63409,"zip":"62723","miles_from_dt":22.94},{"city":"Springfield","state_name":"Illinois","lat":39.76276,"lng":-89.63106,"zip":"62703","miles_from_dt":22.95},{"city":"Springfield","state_name":"Illinois","lat":39.75979,"lng":-89.63518,"zip":"62708","miles_from_dt":23},{"city":"Springfield","state_name":"Illinois","lat":39.7973,"lng":-89.62153,"zip":"62796","miles_from_dt":24.1},{"city":"Riverton","state_name":"Illinois","lat":39.86754,"lng":-89.50498,"zip":"62561","miles_from_dt":24.12},{"city":"Chatham","state_name":"Illinois","lat":39.67858,"lng":-89.71978,"zip":"62629","miles_from_dt":24.34},{"city":"Raymond","state_name":"Illinois","lat":39.3005,"lng":-89.60377,"zip":"62560","miles_from_dt":24.52},{"city":"Auburn","state_name":"Illinois","lat":39.58568,"lng":-89.75406,"zip":"62615","miles_from_dt":24.83},{"city":"Springfield","state_name":"Illinois","lat":39.78786,"lng":-89.65223,"zip":"62762","miles_from_dt":24.91},{"city":"Springfield","state_name":"Illinois","lat":39.78622,"lng":-89.65626,"zip":"62763","miles_from_dt":25},{"city":"Springfield","state_name":"Illinois","lat":39.79812,"lng":-89.64652,"zip":"62739","miles_from_dt":25.13},{"city":"Springfield","state_name":"Illinois","lat":39.79958,"lng":-89.64516,"zip":"62757","miles_from_dt":25.14},{"city":"Springfield","state_name":"Illinois","lat":39.80145,"lng":-89.64522,"zip":"62765","miles_from_dt":25.23},{"city":"Springfield","state_name":"Illinois","lat":39.79986,"lng":-89.64776,"zip":"62705","miles_from_dt":25.26},{"city":"Irving","state_name":"Illinois","lat":39.20309,"lng":-89.40244,"zip":"62051","miles_from_dt":25.33},{"city":"Springfield","state_name":"Illinois","lat":39.80063,"lng":-89.64902,"zip":"62701","miles_from_dt":25.34},{"city":"Springfield","state_name":"Illinois","lat":39.80596,"lng":-89.64322,"zip":"62769","miles_from_dt":25.35},{"city":"Springfield","state_name":"Illinois","lat":39.79722,"lng":-89.65357,"zip":"62722","miles_from_dt":25.37},{"city":"Springfield","state_name":"Illinois","lat":39.80336,"lng":-89.64681,"zip":"62715","miles_from_dt":25.38},{"city":"Springfield","state_name":"Illinois","lat":39.79736,"lng":-89.65478,"zip":"62756","miles_from_dt":25.43},{"city":"Thayer","state_name":"Illinois","lat":39.53402,"lng":-89.76555,"zip":"62689","miles_from_dt":25.45},{"city":"Springfield","state_name":"Illinois","lat":39.79789,"lng":-89.6554,"zip":"62706","miles_from_dt":25.48},{"city":"Springfield","state_name":"Illinois","lat":39.80005,"lng":-89.65425,"zip":"62777","miles_from_dt":25.53},{"city":"Springfield","state_name":"Illinois","lat":39.80155,"lng":-89.6527,"zip":"62719","miles_from_dt":25.53},{"city":"Springfield","state_name":"Illinois","lat":39.80346,"lng":-89.65193,"zip":"62736","miles_from_dt":25.59},{"city":"Springfield","state_name":"Illinois","lat":39.80218,"lng":-89.65424,"zip":"62776","miles_from_dt":25.62},{"city":"Springfield","state_name":"Illinois","lat":39.77358,"lng":-89.68503,"zip":"62704","miles_from_dt":25.71},{"city":"Springfield","state_name":"Illinois","lat":39.80519,"lng":-89.65298,"zip":"62726","miles_from_dt":25.71},{"city":"Virden","state_name":"Illinois","lat":39.50572,"lng":-89.76662,"zip":"62690","miles_from_dt":25.72},{"city":"Springfield","state_name":"Illinois","lat":39.80464,"lng":-89.65532,"zip":"62767","miles_from_dt":25.78},{"city":"Springfield","state_name":"Illinois","lat":39.80314,"lng":-89.65807,"zip":"62786","miles_from_dt":25.82},{"city":"Waggoner","state_name":"Illinois","lat":39.35908,"lng":-89.69778,"zip":"62572","miles_from_dt":25.82},{"city":"Springfield","state_name":"Illinois","lat":39.80422,"lng":-89.66064,"zip":"62761","miles_from_dt":25.97},{"city":"Decatur","state_name":"Illinois","lat":39.81435,"lng":-88.93086,"zip":"62521","miles_from_dt":25.99},{"city":"Cornland","state_name":"Illinois","lat":39.92879,"lng":-89.3953,"zip":"62519","miles_from_dt":26.07},{"city":"Springfield","state_name":"Illinois","lat":39.81084,"lng":-89.65576,"zip":"62781","miles_from_dt":26.07},{"city":"Springfield","state_name":"Illinois","lat":39.82377,"lng":-89.64286,"zip":"62702","miles_from_dt":26.18},{"city":"Decatur","state_name":"Illinois","lat":39.83282,"lng":-88.9444,"zip":"62525","miles_from_dt":26.35},{"city":"Findlay","state_name":"Illinois","lat":39.53519,"lng":-88.79603,"zip":"62534","miles_from_dt":26.45},{"city":"Decatur","state_name":"Illinois","lat":39.84372,"lng":-88.95289,"zip":"62523","miles_from_dt":26.59},{"city":"Dalton City","state_name":"Illinois","lat":39.72444,"lng":-88.83548,"zip":"61925","miles_from_dt":26.78},{"city":"Mt Zion","state_name":"Illinois","lat":39.76985,"lng":-88.8657,"zip":"62549","miles_from_dt":26.88},{"city":"Butler","state_name":"Illinois","lat":39.22011,"lng":-89.54203,"zip":"62015","miles_from_dt":27.03},{"city":"Springfield","state_name":"Illinois","lat":39.85107,"lng":-89.63185,"zip":"62791","miles_from_dt":27.12},{"city":"Springfield","state_name":"Illinois","lat":39.76662,"lng":-89.73195,"zip":"62711","miles_from_dt":27.54},{"city":"Lakewood","state_name":"Illinois","lat":39.32553,"lng":-88.87005,"zip":"62438","miles_from_dt":27.68},{"city":"Lake Fork","state_name":"Illinois","lat":39.95657,"lng":-89.37085,"zip":"62541","miles_from_dt":27.71},{"city":"Herrick","state_name":"Illinois","lat":39.22981,"lng":-88.99382,"zip":"62431","miles_from_dt":27.74},{"city":"Shelbyville","state_name":"Illinois","lat":39.41334,"lng":-88.8026,"zip":"62565","miles_from_dt":27.95},{"city":"Springfield","state_name":"Illinois","lat":39.85506,"lng":-89.64989,"zip":"62707","miles_from_dt":27.97},{"city":"Bethany","state_name":"Illinois","lat":39.63409,"lng":-88.76783,"zip":"61914","miles_from_dt":28.35},{"city":"Decatur","state_name":"Illinois","lat":39.90322,"lng":-88.9902,"zip":"62526","miles_from_dt":28.58},{"city":"Sherman","state_name":"Illinois","lat":39.91019,"lng":-89.58474,"zip":"62684","miles_from_dt":28.82},{"city":"Mount Pulaski","state_name":"Illinois","lat":39.97849,"lng":-89.27988,"zip":"62548","miles_from_dt":28.9},{"city":"Girard","state_name":"Illinois","lat":39.43183,"lng":-89.80746,"zip":"62640","miles_from_dt":29.02},{"city":"Warrensburg","state_name":"Illinois","lat":39.94551,"lng":-89.07264,"zip":"62573","miles_from_dt":29.03},{"city":"Latham","state_name":"Illinois","lat":39.97084,"lng":-89.1518,"zip":"62543","miles_from_dt":29.3},{"city":"Decatur","state_name":"Illinois","lat":39.90411,"lng":-88.96666,"zip":"62524","miles_from_dt":29.35},{"city":"Nilwood","state_name":"Illinois","lat":39.39802,"lng":-89.80444,"zip":"62672","miles_from_dt":29.67},{"city":"Lowder","state_name":"Illinois","lat":39.55309,"lng":-89.84646,"zip":"62662","miles_from_dt":29.71},{"city":"Bingham","state_name":"Illinois","lat":39.12862,"lng":-89.21755,"zip":"62011","miles_from_dt":29.99}],"targetCityZipCode":"62568","targetCityState":"Illinois"},"__N_SSG":true}