{"pageProps":{"stateName":"Illinois","cityName":"trivoli","nearbyCities":[{"city":"Hanna City","state_name":"Illinois","lat":40.69051,"lng":-89.78688,"zip":"61536","miles_from_dt":5.65},{"city":"Glasford","state_name":"Illinois","lat":40.58736,"lng":-89.84029,"zip":"61533","miles_from_dt":6.84},{"city":"Farmington","state_name":"Illinois","lat":40.68291,"lng":-90.03482,"zip":"61531","miles_from_dt":7.45},{"city":"Elmwood","state_name":"Illinois","lat":40.7809,"lng":-89.93673,"zip":"61529","miles_from_dt":7.47},{"city":"Norris","state_name":"Illinois","lat":40.62136,"lng":-90.02686,"zip":"61553","miles_from_dt":8.03},{"city":"Mapleton","state_name":"Illinois","lat":40.60962,"lng":-89.73847,"zip":"61547","miles_from_dt":9.4},{"city":"Brimfield","state_name":"Illinois","lat":40.823,"lng":-89.85155,"zip":"61517","miles_from_dt":10.25},{"city":"Kingston Mines","state_name":"Illinois","lat":40.55375,"lng":-89.77561,"zip":"61539","miles_from_dt":10.56},{"city":"Yates City","state_name":"Illinois","lat":40.79768,"lng":-90.0343,"zip":"61572","miles_from_dt":11.1},{"city":"Peoria","state_name":"Illinois","lat":40.65306,"lng":-89.68375,"zip":"61641","miles_from_dt":11.14},{"city":"Edwards","state_name":"Illinois","lat":40.7757,"lng":-89.7227,"zip":"61528","miles_from_dt":11.21},{"city":"Peoria","state_name":"Illinois","lat":40.62895,"lng":-89.68627,"zip":"61607","miles_from_dt":11.39},{"city":"Canton","state_name":"Illinois","lat":40.54197,"lng":-90.02156,"zip":"61520","miles_from_dt":11.55},{"city":"Peoria","state_name":"Illinois","lat":40.70828,"lng":-89.66265,"zip":"61633","miles_from_dt":12.29},{"city":"Peoria","state_name":"Illinois","lat":40.70525,"lng":-89.65297,"zip":"61604","miles_from_dt":12.76},{"city":"Peoria","state_name":"Illinois","lat":40.6765,"lng":-89.63317,"zip":"61605","miles_from_dt":13.66},{"city":"Fairview","state_name":"Illinois","lat":40.65055,"lng":-90.16086,"zip":"61432","miles_from_dt":14.19},{"city":"Peoria","state_name":"Illinois","lat":40.74237,"lng":-89.62819,"zip":"61613","miles_from_dt":14.61},{"city":"Peoria","state_name":"Illinois","lat":40.6978,"lng":-89.61455,"zip":"61625","miles_from_dt":14.7},{"city":"Peoria","state_name":"Illinois","lat":40.70011,"lng":-89.61187,"zip":"61606","miles_from_dt":14.86},{"city":"Dunfermline","state_name":"Illinois","lat":40.49125,"lng":-90.03468,"zip":"61524","miles_from_dt":14.87},{"city":"Peoria","state_name":"Illinois","lat":40.67885,"lng":-89.6076,"zip":"61652","miles_from_dt":15.01},{"city":"Peoria","state_name":"Illinois","lat":40.68351,"lng":-89.60653,"zip":"61656","miles_from_dt":15.07},{"city":"Peoria","state_name":"Illinois","lat":40.68,"lng":-89.60427,"zip":"61653","miles_from_dt":15.18},{"city":"Peoria","state_name":"Illinois","lat":40.68005,"lng":-89.60395,"zip":"61602","miles_from_dt":15.2},{"city":"Peoria","state_name":"Illinois","lat":40.67769,"lng":-89.60371,"zip":"61654","miles_from_dt":15.21},{"city":"Saint David","state_name":"Illinois","lat":40.4931,"lng":-90.05108,"zip":"61563","miles_from_dt":15.22},{"city":"Pekin","state_name":"Illinois","lat":40.56675,"lng":-89.64293,"zip":"61555","miles_from_dt":15.23},{"city":"Peoria","state_name":"Illinois","lat":40.67987,"lng":-89.60219,"zip":"61651","miles_from_dt":15.29},{"city":"Peoria","state_name":"Illinois","lat":40.68284,"lng":-89.60181,"zip":"61630","miles_from_dt":15.31},{"city":"Pekin","state_name":"Illinois","lat":40.56747,"lng":-89.63825,"zip":"61558","miles_from_dt":15.42},{"city":"Peoria","state_name":"Illinois","lat":40.78088,"lng":-89.63102,"zip":"61615","miles_from_dt":15.49},{"city":"Peoria","state_name":"Illinois","lat":40.7002,"lng":-89.59859,"zip":"61636","miles_from_dt":15.55},{"city":"Peoria","state_name":"Illinois","lat":40.68366,"lng":-89.59519,"zip":"61655","miles_from_dt":15.66},{"city":"Creve Coeur","state_name":"Illinois","lat":40.64294,"lng":-89.59882,"zip":"61610","miles_from_dt":15.66},{"city":"Peoria","state_name":"Illinois","lat":40.68166,"lng":-89.59449,"zip":"61612","miles_from_dt":15.7},{"city":"Peoria","state_name":"Illinois","lat":40.693,"lng":-89.59305,"zip":"61629","miles_from_dt":15.8},{"city":"Peoria","state_name":"Illinois","lat":40.69401,"lng":-89.59085,"zip":"61601","miles_from_dt":15.92},{"city":"Peoria","state_name":"Illinois","lat":40.69951,"lng":-89.59014,"zip":"61637","miles_from_dt":15.99},{"city":"Peoria","state_name":"Illinois","lat":40.69138,"lng":-89.58871,"zip":"61634","miles_from_dt":16.02},{"city":"Peoria","state_name":"Illinois","lat":40.75872,"lng":-89.60486,"zip":"61614","miles_from_dt":16.14},{"city":"Manito","state_name":"Illinois","lat":40.45212,"lng":-89.80172,"zip":"61546","miles_from_dt":16.3},{"city":"Peoria","state_name":"Illinois","lat":40.80424,"lng":-89.62971,"zip":"61638","miles_from_dt":16.35},{"city":"Dunlap","state_name":"Illinois","lat":40.84776,"lng":-89.67047,"zip":"61525","miles_from_dt":16.55},{"city":"Maquon","state_name":"Illinois","lat":40.78027,"lng":-90.18107,"zip":"61458","miles_from_dt":16.68},{"city":"Fiatt","state_name":"Illinois","lat":40.55749,"lng":-90.16866,"zip":"61433","miles_from_dt":16.7},{"city":"Peoria","state_name":"Illinois","lat":40.7122,"lng":-89.57465,"zip":"61603","miles_from_dt":16.9},{"city":"Pekin","state_name":"Illinois","lat":40.54441,"lng":-89.62181,"zip":"61554","miles_from_dt":16.99},{"city":"Peoria","state_name":"Illinois","lat":40.70966,"lng":-89.5664,"zip":"61639","miles_from_dt":17.31},{"city":"Peoria Heights","state_name":"Illinois","lat":40.74682,"lng":-89.57195,"zip":"61616","miles_from_dt":17.53},{"city":"South Pekin","state_name":"Illinois","lat":40.49848,"lng":-89.65624,"zip":"61564","miles_from_dt":17.57},{"city":"Princeville","state_name":"Illinois","lat":40.92101,"lng":-89.77438,"zip":"61559","miles_from_dt":17.9},{"city":"Peoria","state_name":"Illinois","lat":40.72414,"lng":-89.55686,"zip":"61643","miles_from_dt":17.95},{"city":"Bryant","state_name":"Illinois","lat":40.46463,"lng":-90.09309,"zip":"61519","miles_from_dt":18.09},{"city":"Liverpool","state_name":"Illinois","lat":40.42213,"lng":-89.96842,"zip":"61543","miles_from_dt":18.09},{"city":"Laura","state_name":"Illinois","lat":40.94117,"lng":-89.93555,"zip":"61451","miles_from_dt":18.3},{"city":"London Mills","state_name":"Illinois","lat":40.69753,"lng":-90.24273,"zip":"61544","miles_from_dt":18.41},{"city":"East Peoria","state_name":"Illinois","lat":40.71185,"lng":-89.53469,"zip":"61611","miles_from_dt":18.98},{"city":"Williamsfield","state_name":"Illinois","lat":40.93462,"lng":-90.02664,"zip":"61489","miles_from_dt":19.05},{"city":"East Peoria","state_name":"Illinois","lat":40.7083,"lng":-89.52238,"zip":"61635","miles_from_dt":19.59},{"city":"Mossville","state_name":"Illinois","lat":40.82133,"lng":-89.56496,"zip":"61552","miles_from_dt":19.87},{"city":"Cuba","state_name":"Illinois","lat":40.49823,"lng":-90.19319,"zip":"61427","miles_from_dt":20.07},{"city":"Groveland","state_name":"Illinois","lat":40.58578,"lng":-89.52316,"zip":"61535","miles_from_dt":20.47},{"city":"Ellisville","state_name":"Illinois","lat":40.60315,"lng":-90.2776,"zip":"61431","miles_from_dt":20.85},{"city":"Dahinda","state_name":"Illinois","lat":40.93262,"lng":-90.10977,"zip":"61428","miles_from_dt":20.93},{"city":"Peoria","state_name":"Illinois","lat":40.6375,"lng":-89.49684,"zip":"61650","miles_from_dt":21.02},{"city":"Gilson","state_name":"Illinois","lat":40.86067,"lng":-90.21739,"zip":"61436","miles_from_dt":21.17},{"city":"Green Valley","state_name":"Illinois","lat":40.41499,"lng":-89.66464,"zip":"61534","miles_from_dt":21.77},{"city":"Edelstein","state_name":"Illinois","lat":40.92899,"lng":-89.62599,"zip":"61526","miles_from_dt":22.28},{"city":"Topeka","state_name":"Illinois","lat":40.35077,"lng":-89.89899,"zip":"61567","miles_from_dt":22.57},{"city":"Forest City","state_name":"Illinois","lat":40.34851,"lng":-89.80692,"zip":"61532","miles_from_dt":23.18},{"city":"Lewistown","state_name":"Illinois","lat":40.38487,"lng":-90.13402,"zip":"61542","miles_from_dt":23.86},{"city":"Morton","state_name":"Illinois","lat":40.61054,"lng":-89.44049,"zip":"61550","miles_from_dt":24.25},{"city":"Washington","state_name":"Illinois","lat":40.70506,"lng":-89.42294,"zip":"61571","miles_from_dt":24.77},{"city":"Tremont","state_name":"Illinois","lat":40.50484,"lng":-89.47876,"zip":"61568","miles_from_dt":24.86},{"city":"Rome","state_name":"Illinois","lat":40.88102,"lng":-89.50144,"zip":"61562","miles_from_dt":24.88},{"city":"Chillicothe","state_name":"Illinois","lat":40.91751,"lng":-89.53562,"zip":"61523","miles_from_dt":25},{"city":"Knoxville","state_name":"Illinois","lat":40.93385,"lng":-90.24374,"zip":"61448","miles_from_dt":25.49},{"city":"Smithfield","state_name":"Illinois","lat":40.4945,"lng":-90.31402,"zip":"61477","miles_from_dt":25.5},{"city":"Victoria","state_name":"Illinois","lat":41.01677,"lng":-90.09764,"zip":"61485","miles_from_dt":25.72},{"city":"Speer","state_name":"Illinois","lat":41.00192,"lng":-89.63939,"zip":"61479","miles_from_dt":26.02},{"city":"Saint Augustine","state_name":"Illinois","lat":40.73419,"lng":-90.39724,"zip":"61474","miles_from_dt":26.75},{"city":"Metamora","state_name":"Illinois","lat":40.80887,"lng":-89.41311,"zip":"61548","miles_from_dt":26.77},{"city":"Wyoming","state_name":"Illinois","lat":41.05982,"lng":-89.72525,"zip":"61491","miles_from_dt":27.79},{"city":"Toulon","state_name":"Illinois","lat":41.08157,"lng":-89.87186,"zip":"61483","miles_from_dt":27.88},{"city":"Avon","state_name":"Illinois","lat":40.65425,"lng":-90.42801,"zip":"61415","miles_from_dt":28.15},{"city":"Abingdon","state_name":"Illinois","lat":40.79779,"lng":-90.40703,"zip":"61410","miles_from_dt":28.21},{"city":"Havana","state_name":"Illinois","lat":40.28553,"lng":-90.06022,"zip":"62644","miles_from_dt":28.47},{"city":"Delavan","state_name":"Illinois","lat":40.37431,"lng":-89.52549,"zip":"61734","miles_from_dt":28.52},{"city":"East Galesburg","state_name":"Illinois","lat":40.94393,"lng":-90.31135,"zip":"61430","miles_from_dt":28.59},{"city":"La Fayette","state_name":"Illinois","lat":41.08926,"lng":-89.97051,"zip":"61449","miles_from_dt":28.67},{"city":"Deer Creek","state_name":"Illinois","lat":40.62421,"lng":-89.33573,"zip":"61733","miles_from_dt":29.53},{"city":"San Jose","state_name":"Illinois","lat":40.29487,"lng":-89.63541,"zip":"62682","miles_from_dt":29.71},{"city":"Marietta","state_name":"Illinois","lat":40.50497,"lng":-90.41453,"zip":"61459","miles_from_dt":29.9}],"targetCityZipCode":"61569","targetCityState":"Illinois"},"__N_SSG":true}