{"pageProps":{"stateName":"Illinois","cityName":"willow-hill","nearbyCities":[{"city":"Oblong","state_name":"Illinois","lat":39.00419,"lng":-87.91069,"zip":"62449","miles_from_dt":4.89},{"city":"Sainte Marie","state_name":"Illinois","lat":38.92997,"lng":-88.0278,"zip":"62459","miles_from_dt":4.95},{"city":"West Liberty","state_name":"Illinois","lat":38.88441,"lng":-88.04645,"zip":"62475","miles_from_dt":8.25},{"city":"Yale","state_name":"Illinois","lat":39.12657,"lng":-88.02293,"zip":"62481","miles_from_dt":8.9},{"city":"Stoy","state_name":"Illinois","lat":38.99793,"lng":-87.82385,"zip":"62464","miles_from_dt":9.55},{"city":"Newton","state_name":"Illinois","lat":38.96741,"lng":-88.17988,"zip":"62448","miles_from_dt":9.85},{"city":"Hidalgo","state_name":"Illinois","lat":39.13353,"lng":-88.14176,"zip":"62432","miles_from_dt":11.99},{"city":"Dundas","state_name":"Illinois","lat":38.83363,"lng":-88.10383,"zip":"62425","miles_from_dt":12.65},{"city":"Annapolis","state_name":"Illinois","lat":39.14081,"lng":-87.84012,"zip":"62413","miles_from_dt":13.09},{"city":"Robinson","state_name":"Illinois","lat":38.99725,"lng":-87.75767,"zip":"62454","miles_from_dt":13.11},{"city":"Wheeler","state_name":"Illinois","lat":39.03731,"lng":-88.31239,"zip":"62479","miles_from_dt":16.95},{"city":"Claremont","state_name":"Illinois","lat":38.75219,"lng":-87.94345,"zip":"62421","miles_from_dt":17.28},{"city":"Hutsonville","state_name":"Illinois","lat":39.11276,"lng":-87.70514,"zip":"62433","miles_from_dt":17.77},{"city":"West York","state_name":"Illinois","lat":39.17874,"lng":-87.74367,"zip":"62478","miles_from_dt":18.61},{"city":"Jewett","state_name":"Illinois","lat":39.18247,"lng":-88.25613,"zip":"62436","miles_from_dt":18.67},{"city":"Greenup","state_name":"Illinois","lat":39.26396,"lng":-88.1302,"zip":"62428","miles_from_dt":19.57},{"city":"Casey","state_name":"Illinois","lat":39.29065,"lng":-88.0005,"zip":"62420","miles_from_dt":20.14},{"city":"Olney","state_name":"Illinois","lat":38.71436,"lng":-88.08777,"zip":"62450","miles_from_dt":20.16},{"city":"Flat Rock","state_name":"Illinois","lat":38.87301,"lng":-87.65891,"zip":"62427","miles_from_dt":20.38},{"city":"Sumner","state_name":"Illinois","lat":38.72707,"lng":-87.84957,"zip":"62466","miles_from_dt":20.44},{"city":"Ingraham","state_name":"Illinois","lat":38.84217,"lng":-88.3253,"zip":"62434","miles_from_dt":20.53},{"city":"Montrose","state_name":"Illinois","lat":39.16687,"lng":-88.32322,"zip":"62445","miles_from_dt":20.84},{"city":"Palestine","state_name":"Illinois","lat":38.99394,"lng":-87.6066,"zip":"62451","miles_from_dt":21.25},{"city":"Dieterich","state_name":"Illinois","lat":38.98784,"lng":-88.42124,"zip":"62424","miles_from_dt":22.62},{"city":"Martinsville","state_name":"Illinois","lat":39.31269,"lng":-87.85602,"zip":"62442","miles_from_dt":23.03},{"city":"Merom","state_name":"Indiana","lat":39.06528,"lng":-87.56658,"zip":"47861","miles_from_dt":23.84},{"city":"Bridgeport","state_name":"Illinois","lat":38.70304,"lng":-87.76779,"zip":"62417","miles_from_dt":23.97},{"city":"Toledo","state_name":"Illinois","lat":39.27779,"lng":-88.27155,"zip":"62468","miles_from_dt":24.12},{"city":"West Union","state_name":"Illinois","lat":39.23369,"lng":-87.66024,"zip":"62477","miles_from_dt":24.47},{"city":"Teutopolis","state_name":"Illinois","lat":39.12809,"lng":-88.43543,"zip":"62467","miles_from_dt":25},{"city":"Sailor Springs","state_name":"Illinois","lat":38.7651,"lng":-88.35907,"zip":"62879","miles_from_dt":25.13},{"city":"Noble","state_name":"Illinois","lat":38.68073,"lng":-88.22939,"zip":"62868","miles_from_dt":25.15},{"city":"Calhoun","state_name":"Illinois","lat":38.62201,"lng":-87.98425,"zip":"62419","miles_from_dt":26},{"city":"Lawrenceville","state_name":"Illinois","lat":38.74668,"lng":-87.63754,"zip":"62439","miles_from_dt":26.21},{"city":"Fairbanks","state_name":"Indiana","lat":39.19196,"lng":-87.56131,"zip":"47849","miles_from_dt":27.15},{"city":"Parkersburg","state_name":"Illinois","lat":38.58715,"lng":-88.01774,"zip":"62452","miles_from_dt":28.4},{"city":"Clay City","state_name":"Illinois","lat":38.67076,"lng":-88.34686,"zip":"62824","miles_from_dt":29.31},{"city":"Louisville","state_name":"Illinois","lat":38.81271,"lng":-88.49353,"zip":"62858","miles_from_dt":29.47},{"city":"Sigel","state_name":"Illinois","lat":39.23291,"lng":-88.47066,"zip":"62462","miles_from_dt":29.96}],"targetCityZipCode":"62480","targetCityState":"Illinois"},"__N_SSG":true}