{"pageProps":{"stateName":"New-york","cityName":"austerlitz","nearbyCities":[{"city":"Spencertown","state_name":"New York","lat":42.31518,"lng":-73.50756,"zip":"12165","miles_from_dt":2.6},{"city":"West Stockbridge","state_name":"Massachusetts","lat":42.30264,"lng":-73.39846,"zip":"01266","miles_from_dt":3.1},{"city":"Housatonic","state_name":"Massachusetts","lat":42.26923,"lng":-73.37999,"zip":"01236","miles_from_dt":5.03},{"city":"Chatham","state_name":"New York","lat":42.33506,"lng":-73.55714,"zip":"12037","miles_from_dt":5.33},{"city":"Glendale","state_name":"Massachusetts","lat":42.29411,"lng":-73.35227,"zip":"01229","miles_from_dt":5.54},{"city":"Canaan","state_name":"New York","lat":42.40397,"lng":-73.42466,"zip":"12029","miles_from_dt":6.39},{"city":"Richmond","state_name":"Massachusetts","lat":42.37972,"lng":-73.36608,"zip":"01254","miles_from_dt":6.47},{"city":"Stockbridge","state_name":"Massachusetts","lat":42.30433,"lng":-73.32013,"zip":"01262","miles_from_dt":7.04},{"city":"East Chatham","state_name":"New York","lat":42.41325,"lng":-73.49284,"zip":"12060","miles_from_dt":7.06},{"city":"Stockbridge","state_name":"Massachusetts","lat":42.28901,"lng":-73.31953,"zip":"01263","miles_from_dt":7.25},{"city":"Hillsdale","state_name":"New York","lat":42.21335,"lng":-73.53802,"zip":"12529","miles_from_dt":8.13},{"city":"North Egremont","state_name":"Massachusetts","lat":42.1967,"lng":-73.43628,"zip":"01252","miles_from_dt":8.2},{"city":"Ghent","state_name":"New York","lat":42.30145,"lng":-73.64046,"zip":"12075","miles_from_dt":9.45},{"city":"Old Chatham","state_name":"New York","lat":42.43249,"lng":-73.56016,"zip":"12136","miles_from_dt":9.71},{"city":"South Lee","state_name":"Massachusetts","lat":42.26663,"lng":-73.2712,"zip":"01260","miles_from_dt":10.07},{"city":"Lenox Dale","state_name":"Massachusetts","lat":42.3334,"lng":-73.24967,"zip":"01242","miles_from_dt":10.69},{"city":"Lenox","state_name":"Massachusetts","lat":42.37567,"lng":-73.26466,"zip":"01240","miles_from_dt":10.71},{"city":"Philmont","state_name":"New York","lat":42.24849,"lng":-73.64584,"zip":"12565","miles_from_dt":10.71},{"city":"Great Barrington","state_name":"Massachusetts","lat":42.18197,"lng":-73.34244,"zip":"01230","miles_from_dt":10.87},{"city":"West Lebanon","state_name":"New York","lat":42.47876,"lng":-73.46505,"zip":"12195","miles_from_dt":11.34},{"city":"Mellenville","state_name":"New York","lat":42.26129,"lng":-73.66822,"zip":"12544","miles_from_dt":11.44},{"city":"New Lebanon","state_name":"New York","lat":42.47633,"lng":-73.40394,"zip":"12125","miles_from_dt":11.49},{"city":"Lee","state_name":"Massachusetts","lat":42.30072,"lng":-73.22553,"zip":"01238","miles_from_dt":11.89},{"city":"Pittsfield","state_name":"Massachusetts","lat":42.45789,"lng":-73.32205,"zip":"01202","miles_from_dt":12.06},{"city":"Brainard","state_name":"New York","lat":42.48134,"lng":-73.53419,"zip":"12024","miles_from_dt":12.18},{"city":"Valatie","state_name":"New York","lat":42.42272,"lng":-73.65387,"zip":"12184","miles_from_dt":12.55},{"city":"Malden Bridge","state_name":"New York","lat":42.46747,"lng":-73.59338,"zip":"12115","miles_from_dt":12.66},{"city":"Copake Falls","state_name":"New York","lat":42.13392,"lng":-73.51103,"zip":"12517","miles_from_dt":12.77},{"city":"Pittsfield","state_name":"Massachusetts","lat":42.45614,"lng":-73.28114,"zip":"01201","miles_from_dt":13.28},{"city":"Niverville","state_name":"New York","lat":42.44156,"lng":-73.65835,"zip":"12130","miles_from_dt":13.54},{"city":"Pittsfield","state_name":"Massachusetts","lat":42.45319,"lng":-73.26278,"zip":"01203","miles_from_dt":13.79},{"city":"Hollowville","state_name":"New York","lat":42.20692,"lng":-73.68413,"zip":"12530","miles_from_dt":13.82},{"city":"Kinderhook","state_name":"New York","lat":42.38871,"lng":-73.71228,"zip":"12106","miles_from_dt":14.05},{"city":"Craryville","state_name":"New York","lat":42.17071,"lng":-73.65164,"zip":"12521","miles_from_dt":14.08},{"city":"North Chatham","state_name":"New York","lat":42.47102,"lng":-73.63362,"zip":"12132","miles_from_dt":14.09},{"city":"Stuyvesant Falls","state_name":"New York","lat":42.35314,"lng":-73.72802,"zip":"12174","miles_from_dt":14.14},{"city":"Tyringham","state_name":"Massachusetts","lat":42.23997,"lng":-73.19686,"zip":"01264","miles_from_dt":14.28},{"city":"Stottville","state_name":"New York","lat":42.28915,"lng":-73.73895,"zip":"12172","miles_from_dt":14.56},{"city":"Claverack","state_name":"New York","lat":42.21661,"lng":-73.71639,"zip":"12513","miles_from_dt":14.93},{"city":"East Nassau","state_name":"New York","lat":42.52871,"lng":-73.501,"zip":"12062","miles_from_dt":14.95},{"city":"Columbiaville","state_name":"New York","lat":42.31504,"lng":-73.74881,"zip":"12050","miles_from_dt":14.96},{"city":"Monterey","state_name":"Massachusetts","lat":42.19043,"lng":-73.21579,"zip":"01245","miles_from_dt":15.04},{"city":"Copake","state_name":"New York","lat":42.10722,"lng":-73.55343,"zip":"12516","miles_from_dt":15.14},{"city":"South Egremont","state_name":"Massachusetts","lat":42.09396,"lng":-73.46616,"zip":"01258","miles_from_dt":15.23},{"city":"Sheffield","state_name":"Massachusetts","lat":42.0976,"lng":-73.37241,"zip":"01257","miles_from_dt":15.59},{"city":"Nassau","state_name":"New York","lat":42.52239,"lng":-73.60636,"zip":"12123","miles_from_dt":16.26},{"city":"Hudson","state_name":"New York","lat":42.22434,"lng":-73.75427,"zip":"12534","miles_from_dt":16.47},{"city":"Stuyvesant","state_name":"New York","lat":42.39042,"lng":-73.76196,"zip":"12173","miles_from_dt":16.48},{"city":"Mill River","state_name":"Massachusetts","lat":42.10924,"lng":-73.27475,"zip":"01244","miles_from_dt":16.97},{"city":"Stephentown","state_name":"New York","lat":42.5614,"lng":-73.3751,"zip":"12168","miles_from_dt":17.54},{"city":"Becket","state_name":"Massachusetts","lat":42.31118,"lng":-73.09835,"zip":"01223","miles_from_dt":18.37},{"city":"Schodack Landing","state_name":"New York","lat":42.47764,"lng":-73.74354,"zip":"12156","miles_from_dt":18.49},{"city":"Stephentown","state_name":"New York","lat":42.58249,"lng":-73.43559,"zip":"12169","miles_from_dt":18.53},{"city":"Dalton","state_name":"Massachusetts","lat":42.4724,"lng":-73.16202,"zip":"01227","miles_from_dt":18.61},{"city":"Berkshire","state_name":"Massachusetts","lat":42.50622,"lng":-73.19841,"zip":"01224","miles_from_dt":18.7},{"city":"Ashley Falls","state_name":"Massachusetts","lat":42.06242,"lng":-73.32146,"zip":"01222","miles_from_dt":18.74},{"city":"Ancram","state_name":"New York","lat":42.08324,"lng":-73.65409,"zip":"12502","miles_from_dt":18.9},{"city":"Athens","state_name":"New York","lat":42.28315,"lng":-73.82543,"zip":"12015","miles_from_dt":19.01},{"city":"Taconic","state_name":"Connecticut","lat":42.04174,"lng":-73.39755,"zip":"06079","miles_from_dt":19.07},{"city":"New Baltimore","state_name":"New York","lat":42.44652,"lng":-73.78494,"zip":"12124","miles_from_dt":19.1},{"city":"Otis","state_name":"Massachusetts","lat":42.20751,"lng":-73.1118,"zip":"01253","miles_from_dt":19.17},{"city":"Dalton","state_name":"Massachusetts","lat":42.47954,"lng":-73.15329,"zip":"01226","miles_from_dt":19.26},{"city":"Lanesborough","state_name":"Massachusetts","lat":42.5529,"lng":-73.25373,"zip":"01237","miles_from_dt":19.46},{"city":"East Schodack","state_name":"New York","lat":42.56442,"lng":-73.63826,"zip":"12063","miles_from_dt":19.58},{"city":"West Coxsackie","state_name":"New York","lat":42.40428,"lng":-73.82136,"zip":"12192","miles_from_dt":19.66},{"city":"Coxsackie","state_name":"New York","lat":42.34493,"lng":-73.83938,"zip":"12051","miles_from_dt":19.7},{"city":"Castleton On Hudson","state_name":"New York","lat":42.53665,"lng":-73.70558,"zip":"12033","miles_from_dt":19.92},{"city":"Southfield","state_name":"Massachusetts","lat":42.07316,"lng":-73.23282,"zip":"01259","miles_from_dt":20.24},{"city":"Ancramdale","state_name":"New York","lat":42.03615,"lng":-73.58139,"zip":"12503","miles_from_dt":20.25},{"city":"Livingston","state_name":"New York","lat":42.14151,"lng":-73.7782,"zip":"12541","miles_from_dt":20.36},{"city":"Coeymans","state_name":"New York","lat":42.47974,"lng":-73.79682,"zip":"12045","miles_from_dt":20.8},{"city":"Salisbury","state_name":"Connecticut","lat":42.01404,"lng":-73.42121,"zip":"06068","miles_from_dt":20.82},{"city":"Hinsdale","state_name":"Massachusetts","lat":42.43181,"lng":-73.07336,"zip":"01235","miles_from_dt":21.23},{"city":"Canaan","state_name":"Connecticut","lat":42.02872,"lng":-73.29807,"zip":"06018","miles_from_dt":21.34},{"city":"Middlefield","state_name":"Massachusetts","lat":42.34752,"lng":-73.03467,"zip":"01243","miles_from_dt":21.74},{"city":"Elizaville","state_name":"New York","lat":42.08627,"lng":-73.75311,"zip":"12523","miles_from_dt":21.9},{"city":"Averill Park","state_name":"New York","lat":42.62926,"lng":-73.52662,"zip":"12018","miles_from_dt":22.01},{"city":"East Greenbush","state_name":"New York","lat":42.59915,"lng":-73.65658,"zip":"12061","miles_from_dt":22.14},{"city":"Sand Lake","state_name":"New York","lat":42.63606,"lng":-73.46692,"zip":"12153","miles_from_dt":22.2},{"city":"Sandisfield","state_name":"Massachusetts","lat":42.1068,"lng":-73.12213,"zip":"01255","miles_from_dt":22.37},{"city":"Cherry Plain","state_name":"New York","lat":42.63047,"lng":-73.35916,"zip":"12040","miles_from_dt":22.37},{"city":"East Otis","state_name":"Massachusetts","lat":42.19402,"lng":-73.05067,"zip":"01029","miles_from_dt":22.43},{"city":"Climax","state_name":"New York","lat":42.38185,"lng":-73.89162,"zip":"12042","miles_from_dt":22.74},{"city":"East Canaan","state_name":"Connecticut","lat":42.00812,"lng":-73.28374,"zip":"06024","miles_from_dt":22.94},{"city":"Cheshire","state_name":"Massachusetts","lat":42.56385,"lng":-73.1512,"zip":"01225","miles_from_dt":23.24},{"city":"West Sand Lake","state_name":"New York","lat":42.63149,"lng":-73.61708,"zip":"12196","miles_from_dt":23.36},{"city":"Ravena","state_name":"New York","lat":42.48525,"lng":-73.85218,"zip":"12143","miles_from_dt":23.41},{"city":"Hannacroix","state_name":"New York","lat":42.42794,"lng":-73.8931,"zip":"12087","miles_from_dt":23.66},{"city":"Earlton","state_name":"New York","lat":42.3498,"lng":-73.923,"zip":"12058","miles_from_dt":24},{"city":"Selkirk","state_name":"New York","lat":42.53927,"lng":-73.81903,"zip":"12158","miles_from_dt":24.16},{"city":"Millerton","state_name":"New York","lat":41.96627,"lng":-73.53313,"zip":"12546","miles_from_dt":24.35},{"city":"Germantown","state_name":"New York","lat":42.12236,"lng":-73.85938,"zip":"12526","miles_from_dt":24.55},{"city":"Catskill","state_name":"New York","lat":42.2211,"lng":-73.92356,"zip":"12414","miles_from_dt":24.78},{"city":"Windsor","state_name":"Massachusetts","lat":42.51297,"lng":-73.04859,"zip":"01270","miles_from_dt":24.97},{"city":"South Bethlehem","state_name":"New York","lat":42.53369,"lng":-73.84606,"zip":"12161","miles_from_dt":25},{"city":"Pine Plains","state_name":"New York","lat":41.98206,"lng":-73.65211,"zip":"12567","miles_from_dt":25.04},{"city":"Berlin","state_name":"New York","lat":42.66653,"lng":-73.33401,"zip":"12022","miles_from_dt":25.09},{"city":"Lakeville","state_name":"Connecticut","lat":41.95001,"lng":-73.44379,"zip":"06039","miles_from_dt":25.17},{"city":"Leeds","state_name":"New York","lat":42.30337,"lng":-73.94802,"zip":"12451","miles_from_dt":25.18},{"city":"Chester","state_name":"Massachusetts","lat":42.30233,"lng":-72.96448,"zip":"01011","miles_from_dt":25.24},{"city":"Glenmont","state_name":"New York","lat":42.59426,"lng":-73.7841,"zip":"12077","miles_from_dt":25.55},{"city":"Rensselaer","state_name":"New York","lat":42.63106,"lng":-73.71801,"zip":"12144","miles_from_dt":25.6},{"city":"Falls Village","state_name":"Connecticut","lat":41.95788,"lng":-73.31733,"zip":"06031","miles_from_dt":25.64},{"city":"South Cairo","state_name":"New York","lat":42.26841,"lng":-73.95587,"zip":"12482","miles_from_dt":25.77},{"city":"Poestenkill","state_name":"New York","lat":42.689,"lng":-73.56689,"zip":"12140","miles_from_dt":26.45},{"city":"Coeymans Hollow","state_name":"New York","lat":42.48864,"lng":-73.92119,"zip":"12046","miles_from_dt":26.62},{"city":"Williamstown","state_name":"Massachusetts","lat":42.66593,"lng":-73.24209,"zip":"01267","miles_from_dt":26.62},{"city":"Surprise","state_name":"New York","lat":42.38839,"lng":-73.96787,"zip":"12176","miles_from_dt":26.66},{"city":"Wynantskill","state_name":"New York","lat":42.67819,"lng":-73.63285,"zip":"12198","miles_from_dt":26.66},{"city":"Albany","state_name":"New York","lat":42.63039,"lng":-73.76198,"zip":"12241","miles_from_dt":26.8},{"city":"Worthington","state_name":"Massachusetts","lat":42.39551,"lng":-72.94315,"zip":"01098","miles_from_dt":26.88},{"city":"Albany","state_name":"New York","lat":42.63355,"lng":-73.763,"zip":"12202","miles_from_dt":27.01},{"city":"Alcove","state_name":"New York","lat":42.48889,"lng":-73.93159,"zip":"12007","miles_from_dt":27.11},{"city":"Blandford","state_name":"Massachusetts","lat":42.18234,"lng":-72.95819,"zip":"01008","miles_from_dt":27.15},{"city":"Norfolk","state_name":"Connecticut","lat":41.97186,"lng":-73.1958,"zip":"06058","miles_from_dt":27.19},{"city":"West Camp","state_name":"New York","lat":42.12355,"lng":-73.9251,"zip":"12490","miles_from_dt":27.4},{"city":"Albany","state_name":"New York","lat":42.64568,"lng":-73.75666,"zip":"12228","miles_from_dt":27.52},{"city":"Albany","state_name":"New York","lat":42.64832,"lng":-73.75161,"zip":"12201","miles_from_dt":27.53},{"city":"Adams","state_name":"Massachusetts","lat":42.62686,"lng":-73.11873,"zip":"01220","miles_from_dt":27.63},{"city":"Albany","state_name":"New York","lat":42.64924,"lng":-73.75555,"zip":"12233","miles_from_dt":27.69},{"city":"Albany","state_name":"New York","lat":42.65379,"lng":-73.74642,"zip":"12243","miles_from_dt":27.7},{"city":"Albany","state_name":"New York","lat":42.64974,"lng":-73.75606,"zip":"12235","miles_from_dt":27.73},{"city":"Albany","state_name":"New York","lat":42.6526,"lng":-73.75405,"zip":"12232","miles_from_dt":27.84},{"city":"Albany","state_name":"New York","lat":42.65149,"lng":-73.7569,"zip":"12240","miles_from_dt":27.86},{"city":"Albany","state_name":"New York","lat":42.65082,"lng":-73.75855,"zip":"12239","miles_from_dt":27.86},{"city":"Albany","state_name":"New York","lat":42.65657,"lng":-73.74749,"zip":"12207","miles_from_dt":27.89},{"city":"Albany","state_name":"New York","lat":42.65178,"lng":-73.75795,"zip":"12223","miles_from_dt":27.9},{"city":"Albany","state_name":"New York","lat":42.65188,"lng":-73.75841,"zip":"12236","miles_from_dt":27.92},{"city":"Albany","state_name":"New York","lat":42.65275,"lng":-73.75755,"zip":"12242","miles_from_dt":27.95},{"city":"Albany","state_name":"New York","lat":42.65152,"lng":-73.76117,"zip":"12244","miles_from_dt":27.98},{"city":"Albany","state_name":"New York","lat":42.65357,"lng":-73.75747,"zip":"12257","miles_from_dt":27.99},{"city":"Red Hook","state_name":"New York","lat":42.00663,"lng":-73.81152,"zip":"12571","miles_from_dt":27.99},{"city":"Albany","state_name":"New York","lat":42.65203,"lng":-73.76145,"zip":"12238","miles_from_dt":28.02},{"city":"Albany","state_name":"New York","lat":42.65398,"lng":-73.75837,"zip":"12248","miles_from_dt":28.04},{"city":"Albany","state_name":"New York","lat":42.6547,"lng":-73.75777,"zip":"12230","miles_from_dt":28.07},{"city":"Albany","state_name":"New York","lat":42.6382,"lng":-73.78976,"zip":"12209","miles_from_dt":28.08},{"city":"Albany","state_name":"New York","lat":42.65447,"lng":-73.75972,"zip":"12255","miles_from_dt":28.11},{"city":"Tivoli","state_name":"New York","lat":42.05625,"lng":-73.88014,"zip":"12583","miles_from_dt":28.11},{"city":"Albany","state_name":"New York","lat":42.65606,"lng":-73.76013,"zip":"12231","miles_from_dt":28.21},{"city":"Albany","state_name":"New York","lat":42.67181,"lng":-73.7365,"zip":"12234","miles_from_dt":28.5},{"city":"Albany","state_name":"New York","lat":42.67301,"lng":-73.73524,"zip":"12250","miles_from_dt":28.54},{"city":"Albany","state_name":"New York","lat":42.66399,"lng":-73.75985,"zip":"12210","miles_from_dt":28.66},{"city":"Albany","state_name":"New York","lat":42.64589,"lng":-73.79766,"zip":"12237","miles_from_dt":28.75},{"city":"Albany","state_name":"New York","lat":42.68227,"lng":-73.72788,"zip":"12247","miles_from_dt":28.91},{"city":"Freehold","state_name":"New York","lat":42.35877,"lng":-74.01843,"zip":"12431","miles_from_dt":28.92},{"city":"Malden On Hudson","state_name":"New York","lat":42.0929,"lng":-73.93629,"zip":"12453","miles_from_dt":28.97},{"city":"Colebrook","state_name":"Connecticut","lat":42.00152,"lng":-73.08078,"zip":"06021","miles_from_dt":28.98},{"city":"Feura Bush","state_name":"New York","lat":42.56083,"lng":-73.91663,"zip":"12067","miles_from_dt":29.01},{"city":"Cairo","state_name":"New York","lat":42.31338,"lng":-74.02628,"zip":"12413","miles_from_dt":29.17},{"city":"Delmar","state_name":"New York","lat":42.60764,"lng":-73.86864,"zip":"12054","miles_from_dt":29.19},{"city":"Albany","state_name":"New York","lat":42.68723,"lng":-73.72869,"zip":"12204","miles_from_dt":29.23},{"city":"Cummington","state_name":"Massachusetts","lat":42.46858,"lng":-72.92296,"zip":"01026","miles_from_dt":29.31},{"city":"Albany","state_name":"New York","lat":42.66939,"lng":-73.77355,"zip":"12260","miles_from_dt":29.35},{"city":"Albany","state_name":"New York","lat":42.67122,"lng":-73.7729,"zip":"12245","miles_from_dt":29.44},{"city":"Albany","state_name":"New York","lat":42.65293,"lng":-73.80835,"zip":"12208","miles_from_dt":29.46},{"city":"Round Top","state_name":"New York","lat":42.26157,"lng":-74.02827,"zip":"12473","miles_from_dt":29.51},{"city":"Petersburg","state_name":"New York","lat":42.73735,"lng":-73.37128,"zip":"12138","miles_from_dt":29.51},{"city":"Albany","state_name":"New York","lat":42.65042,"lng":-73.81441,"zip":"12229","miles_from_dt":29.52},{"city":"Savoy","state_name":"Massachusetts","lat":42.59627,"lng":-73.01958,"zip":"01256","miles_from_dt":29.62},{"city":"Huntington","state_name":"Massachusetts","lat":42.29092,"lng":-72.87526,"zip":"01050","miles_from_dt":29.84},{"city":"West Chesterfield","state_name":"Massachusetts","lat":42.38589,"lng":-72.88165,"zip":"01084","miles_from_dt":29.86},{"city":"Albany","state_name":"New York","lat":42.67415,"lng":-73.78196,"zip":"12206","miles_from_dt":29.87},{"city":"Palenville","state_name":"New York","lat":42.1895,"lng":-74.01573,"zip":"12463","miles_from_dt":29.93}],"targetCityZipCode":"12017","targetCityState":"New York"},"__N_SSG":true}