{"pageProps":{"stateName":"New-york","cityName":"cincinnatus","nearbyCities":[{"city":"Pitcher","state_name":"New York","lat":42.60368,"lng":-75.84582,"zip":"13136","miles_from_dt":5.25},{"city":"McGraw","state_name":"New York","lat":42.60211,"lng":-76.06665,"zip":"13101","miles_from_dt":7.53},{"city":"North Pitcher","state_name":"New York","lat":42.64578,"lng":-75.81718,"zip":"13124","miles_from_dt":8.25},{"city":"Willet","state_name":"New York","lat":42.44164,"lng":-75.904,"zip":"13863","miles_from_dt":8.3},{"city":"McDonough","state_name":"New York","lat":42.50327,"lng":-75.78028,"zip":"13801","miles_from_dt":8.61},{"city":"Blodgett Mills","state_name":"New York","lat":42.56236,"lng":-76.11986,"zip":"13738","miles_from_dt":9.67},{"city":"Marathon","state_name":"New York","lat":42.45787,"lng":-76.06028,"zip":"13803","miles_from_dt":9.7},{"city":"South Otselic","state_name":"New York","lat":42.65945,"lng":-75.77136,"zip":"13155","miles_from_dt":10.61},{"city":"East Pharsalia","state_name":"New York","lat":42.55502,"lng":-75.71657,"zip":"13758","miles_from_dt":10.91},{"city":"Truxton","state_name":"New York","lat":42.71603,"lng":-75.97626,"zip":"13158","miles_from_dt":11},{"city":"Smithville Flats","state_name":"New York","lat":42.41408,"lng":-75.84171,"zip":"13841","miles_from_dt":11.06},{"city":"East Homer","state_name":"New York","lat":42.67263,"lng":-76.09683,"zip":"13056","miles_from_dt":11.5},{"city":"De Ruyter","state_name":"New York","lat":42.72838,"lng":-75.86957,"zip":"13052","miles_from_dt":12.01},{"city":"Killawog","state_name":"New York","lat":42.39976,"lng":-76.02149,"zip":"13794","miles_from_dt":12.02},{"city":"South Plymouth","state_name":"New York","lat":42.60927,"lng":-75.68083,"zip":"13844","miles_from_dt":13.16},{"city":"Cortland","state_name":"New York","lat":42.58692,"lng":-76.19029,"zip":"13045","miles_from_dt":13.39},{"city":"Plymouth","state_name":"New York","lat":42.6531,"lng":-75.66286,"zip":"13832","miles_from_dt":15.06},{"city":"Little York","state_name":"New York","lat":42.69634,"lng":-76.16493,"zip":"13087","miles_from_dt":15.2},{"city":"Whitney Point","state_name":"New York","lat":42.3369,"lng":-75.9372,"zip":"13862","miles_from_dt":15.43},{"city":"Georgetown","state_name":"New York","lat":42.76243,"lng":-75.76296,"zip":"13072","miles_from_dt":16.35},{"city":"Richford","state_name":"New York","lat":42.38906,"lng":-76.16939,"zip":"13835","miles_from_dt":17},{"city":"Harford","state_name":"New York","lat":42.43542,"lng":-76.2177,"zip":"13784","miles_from_dt":17.02},{"city":"Greene","state_name":"New York","lat":42.34795,"lng":-75.75977,"zip":"13778","miles_from_dt":17.05},{"city":"Lisle","state_name":"New York","lat":42.32765,"lng":-76.04389,"zip":"13797","miles_from_dt":17.08},{"city":"Homer","state_name":"New York","lat":42.71557,"lng":-76.20089,"zip":"13077","miles_from_dt":17.46},{"city":"Oxford","state_name":"New York","lat":42.43868,"lng":-75.6295,"zip":"13830","miles_from_dt":17.51},{"city":"Smyrna","state_name":"New York","lat":42.68632,"lng":-75.61998,"zip":"13464","miles_from_dt":18.05},{"city":"Dryden","state_name":"New York","lat":42.47513,"lng":-76.26471,"zip":"13053","miles_from_dt":18.06},{"city":"McLean","state_name":"New York","lat":42.55276,"lng":-76.29253,"zip":"13102","miles_from_dt":18.49},{"city":"Chenango Bridge","state_name":"New York","lat":42.28572,"lng":-75.91077,"zip":"13745","miles_from_dt":18.98},{"city":"Apulia Station","state_name":"New York","lat":42.81646,"lng":-76.07458,"zip":"13020","miles_from_dt":19.15},{"city":"Tully","state_name":"New York","lat":42.80321,"lng":-76.11545,"zip":"13159","miles_from_dt":19.24},{"city":"Preble","state_name":"New York","lat":42.76684,"lng":-76.18616,"zip":"13141","miles_from_dt":19.32},{"city":"New Woodstock","state_name":"New York","lat":42.83857,"lng":-75.85919,"zip":"13122","miles_from_dt":19.54},{"city":"Fabius","state_name":"New York","lat":42.84429,"lng":-75.98023,"zip":"13063","miles_from_dt":19.76},{"city":"Norwich","state_name":"New York","lat":42.54712,"lng":-75.53413,"zip":"13815","miles_from_dt":20.24},{"city":"Chenango Forks","state_name":"New York","lat":42.26868,"lng":-75.82085,"zip":"13746","miles_from_dt":20.89},{"city":"North Norwich","state_name":"New York","lat":42.61655,"lng":-75.52584,"zip":"13814","miles_from_dt":20.99},{"city":"Glen Aubrey","state_name":"New York","lat":42.25894,"lng":-75.9866,"zip":"13777","miles_from_dt":21},{"city":"Berkshire","state_name":"New York","lat":42.31722,"lng":-76.19389,"zip":"13736","miles_from_dt":21.52},{"city":"Maine","state_name":"New York","lat":42.25164,"lng":-76.04207,"zip":"13802","miles_from_dt":22.06},{"city":"Castle Creek","state_name":"New York","lat":42.24078,"lng":-75.90629,"zip":"13744","miles_from_dt":22.09},{"city":"Freeville","state_name":"New York","lat":42.49905,"lng":-76.35555,"zip":"13068","miles_from_dt":22.12},{"city":"Delphi Falls","state_name":"New York","lat":42.88339,"lng":-75.91021,"zip":"13051","miles_from_dt":22.32},{"city":"Earlville","state_name":"New York","lat":42.75831,"lng":-75.57452,"zip":"13332","miles_from_dt":22.7},{"city":"Erieville","state_name":"New York","lat":42.86493,"lng":-75.75173,"zip":"13061","miles_from_dt":22.91},{"city":"Eaton","state_name":"New York","lat":42.83445,"lng":-75.65986,"zip":"13334","miles_from_dt":23.4},{"city":"Pompey","state_name":"New York","lat":42.89915,"lng":-76.01461,"zip":"13138","miles_from_dt":23.78},{"city":"Groton","state_name":"New York","lat":42.58514,"lng":-76.39832,"zip":"13073","miles_from_dt":23.94},{"city":"Etna","state_name":"New York","lat":42.48121,"lng":-76.38694,"zip":"13062","miles_from_dt":23.95},{"city":"Slaterville Springs","state_name":"New York","lat":42.4017,"lng":-76.35795,"zip":"14881","miles_from_dt":24.44},{"city":"La Fayette","state_name":"New York","lat":42.88938,"lng":-76.11314,"zip":"13084","miles_from_dt":24.55},{"city":"West Eaton","state_name":"New York","lat":42.85426,"lng":-75.65549,"zip":"13484","miles_from_dt":24.64},{"city":"Guilford","state_name":"New York","lat":42.42496,"lng":-75.48128,"zip":"13780","miles_from_dt":24.77},{"city":"Brooktondale","state_name":"New York","lat":42.36295,"lng":-76.34548,"zip":"14817","miles_from_dt":25.22},{"city":"Sherburne","state_name":"New York","lat":42.68492,"lng":-75.45572,"zip":"13460","miles_from_dt":25.67},{"city":"Tunnel","state_name":"New York","lat":42.21635,"lng":-75.72815,"zip":"13848","miles_from_dt":25.9},{"city":"Newark Valley","state_name":"New York","lat":42.23099,"lng":-76.17481,"zip":"13811","miles_from_dt":25.95},{"city":"Locke","state_name":"New York","lat":42.65145,"lng":-76.42502,"zip":"13092","miles_from_dt":26},{"city":"Binghamton","state_name":"New York","lat":42.18253,"lng":-75.88048,"zip":"13901","miles_from_dt":26.2},{"city":"Binghamton","state_name":"New York","lat":42.18086,"lng":-75.94476,"zip":"13905","miles_from_dt":26.2},{"city":"Port Crane","state_name":"New York","lat":42.19829,"lng":-75.76432,"zip":"13833","miles_from_dt":26.39},{"city":"Cazenovia","state_name":"New York","lat":42.93828,"lng":-75.82551,"zip":"13035","miles_from_dt":26.63},{"city":"Hamilton","state_name":"New York","lat":42.82093,"lng":-75.54453,"zip":"13346","miles_from_dt":26.64},{"city":"Moravia","state_name":"New York","lat":42.75226,"lng":-76.39522,"zip":"13118","miles_from_dt":27.14},{"city":"Johnson City","state_name":"New York","lat":42.16937,"lng":-75.99796,"zip":"13790","miles_from_dt":27.21},{"city":"Ithaca","state_name":"New York","lat":42.50702,"lng":-76.47113,"zip":"14852","miles_from_dt":27.85},{"city":"Manlius","state_name":"New York","lat":42.96378,"lng":-75.95523,"zip":"13104","miles_from_dt":27.88},{"city":"Harpursville","state_name":"New York","lat":42.20606,"lng":-75.66334,"zip":"13787","miles_from_dt":28.01},{"city":"Morrisville","state_name":"New York","lat":42.92205,"lng":-75.66722,"zip":"13408","miles_from_dt":28.33},{"city":"South New Berlin","state_name":"New York","lat":42.53468,"lng":-75.37584,"zip":"13843","miles_from_dt":28.35},{"city":"Jamesville","state_name":"New York","lat":42.96206,"lng":-76.06171,"zip":"13078","miles_from_dt":28.52},{"city":"Bainbridge","state_name":"New York","lat":42.30459,"lng":-75.4793,"zip":"13733","miles_from_dt":29.04},{"city":"Nedrow","state_name":"New York","lat":42.94233,"lng":-76.1695,"zip":"13120","miles_from_dt":29.04},{"city":"Marietta","state_name":"New York","lat":42.89019,"lng":-76.28507,"zip":"13110","miles_from_dt":29.06},{"city":"Ithaca","state_name":"New York","lat":42.44727,"lng":-76.48149,"zip":"14853","miles_from_dt":29.21},{"city":"Bouckville","state_name":"New York","lat":42.89055,"lng":-75.57065,"zip":"13310","miles_from_dt":29.23},{"city":"Mount Upton","state_name":"New York","lat":42.40849,"lng":-75.3914,"zip":"13809","miles_from_dt":29.46}],"targetCityZipCode":"13040","targetCityState":"New York"},"__N_SSG":true}