{"pageProps":{"stateName":"New-york","cityName":"claryville","nearbyCities":[{"city":"Grahamsville","state_name":"New York","lat":41.89499,"lng":-74.46616,"zip":"12740","miles_from_dt":6},{"city":"Neversink","state_name":"New York","lat":41.85265,"lng":-74.6281,"zip":"12765","miles_from_dt":8.29},{"city":"Big Indian","state_name":"New York","lat":42.0706,"lng":-74.45212,"zip":"12410","miles_from_dt":9.27},{"city":"Arkville","state_name":"New York","lat":42.09647,"lng":-74.56502,"zip":"12406","miles_from_dt":9.68},{"city":"Parksville","state_name":"New York","lat":41.87157,"lng":-74.71507,"zip":"12768","miles_from_dt":10.43},{"city":"Livingston Manor","state_name":"New York","lat":41.9428,"lng":-74.74942,"zip":"12758","miles_from_dt":10.43},{"city":"Woodbourne","state_name":"New York","lat":41.79552,"lng":-74.58846,"zip":"12788","miles_from_dt":11.32},{"city":"Napanoch","state_name":"New York","lat":41.82273,"lng":-74.41666,"zip":"12458","miles_from_dt":11.46},{"city":"Phoenicia","state_name":"New York","lat":42.04071,"lng":-74.34452,"zip":"12464","miles_from_dt":11.97},{"city":"West Shokan","state_name":"New York","lat":41.94857,"lng":-74.30169,"zip":"12494","miles_from_dt":12.7},{"city":"Loch Sheldrake","state_name":"New York","lat":41.78399,"lng":-74.65758,"zip":"12759","miles_from_dt":13.2},{"city":"Highmount","state_name":"New York","lat":42.1502,"lng":-74.50625,"zip":"12441","miles_from_dt":13.52},{"city":"Pine Hill","state_name":"New York","lat":42.15278,"lng":-74.46725,"zip":"12465","miles_from_dt":14.15},{"city":"Hurleyville","state_name":"New York","lat":41.76596,"lng":-74.65934,"zip":"12747","miles_from_dt":14.37},{"city":"Boiceville","state_name":"New York","lat":42.01218,"lng":-74.27698,"zip":"12412","miles_from_dt":14.47},{"city":"Margaretville","state_name":"New York","lat":42.14871,"lng":-74.66334,"zip":"12455","miles_from_dt":14.52},{"city":"Liberty","state_name":"New York","lat":41.80004,"lng":-74.73643,"zip":"12754","miles_from_dt":14.54},{"city":"Shandaken","state_name":"New York","lat":42.13803,"lng":-74.37683,"zip":"12480","miles_from_dt":15.3},{"city":"Olivebridge","state_name":"New York","lat":41.90531,"lng":-74.25246,"zip":"12461","miles_from_dt":15.64},{"city":"Fallsburg","state_name":"New York","lat":41.73378,"lng":-74.6102,"zip":"12733","miles_from_dt":15.72},{"city":"Greenfield Park","state_name":"New York","lat":41.72715,"lng":-74.51148,"zip":"12435","miles_from_dt":15.96},{"city":"Ellenville","state_name":"New York","lat":41.73817,"lng":-74.44615,"zip":"12428","miles_from_dt":15.98},{"city":"Mount Tremper","state_name":"New York","lat":42.03997,"lng":-74.24659,"zip":"12457","miles_from_dt":16.54},{"city":"Chichester","state_name":"New York","lat":42.09554,"lng":-74.28592,"zip":"12416","miles_from_dt":16.54},{"city":"Kerhonkson","state_name":"New York","lat":41.79063,"lng":-74.31655,"zip":"12446","miles_from_dt":16.55},{"city":"Shokan","state_name":"New York","lat":41.97519,"lng":-74.22718,"zip":"12481","miles_from_dt":16.57},{"city":"Woodridge","state_name":"New York","lat":41.71374,"lng":-74.57233,"zip":"12789","miles_from_dt":16.82},{"city":"Wawarsing","state_name":"New York","lat":41.75597,"lng":-74.35462,"zip":"12489","miles_from_dt":17.08},{"city":"Fleischmanns","state_name":"New York","lat":42.20306,"lng":-74.49933,"zip":"12430","miles_from_dt":17.18},{"city":"Andes","state_name":"New York","lat":42.13059,"lng":-74.7882,"zip":"13731","miles_from_dt":17.22},{"city":"Willow","state_name":"New York","lat":42.08264,"lng":-74.24563,"zip":"12495","miles_from_dt":17.82},{"city":"Halcottsville","state_name":"New York","lat":42.21251,"lng":-74.59667,"zip":"12438","miles_from_dt":17.83},{"city":"South Fallsburg","state_name":"New York","lat":41.69804,"lng":-74.62703,"zip":"12779","miles_from_dt":18.32},{"city":"Ferndale","state_name":"New York","lat":41.7354,"lng":-74.7531,"zip":"12734","miles_from_dt":18.59},{"city":"White Sulphur Springs","state_name":"New York","lat":41.7931,"lng":-74.8365,"zip":"12787","miles_from_dt":18.69},{"city":"Harris","state_name":"New York","lat":41.71796,"lng":-74.72108,"zip":"12742","miles_from_dt":18.75},{"city":"Accord","state_name":"New York","lat":41.81602,"lng":-74.23632,"zip":"12404","miles_from_dt":18.78},{"city":"Mountain Dale","state_name":"New York","lat":41.68221,"lng":-74.52205,"zip":"12763","miles_from_dt":19},{"city":"Kiamesha Lake","state_name":"New York","lat":41.69209,"lng":-74.66119,"zip":"12751","miles_from_dt":19.18},{"city":"West Kill","state_name":"New York","lat":42.18758,"lng":-74.33453,"zip":"12492","miles_from_dt":19.34},{"city":"Lake Hill","state_name":"New York","lat":42.07955,"lng":-74.20067,"zip":"12448","miles_from_dt":19.78},{"city":"Roscoe","state_name":"New York","lat":41.96486,"lng":-74.93197,"zip":"12776","miles_from_dt":19.79},{"city":"Thompsonville","state_name":"New York","lat":41.66907,"lng":-74.61485,"zip":"12784","miles_from_dt":20.16},{"city":"Youngsville","state_name":"New York","lat":41.81126,"lng":-74.88692,"zip":"12791","miles_from_dt":20.16},{"city":"Stone Ridge","state_name":"New York","lat":41.87024,"lng":-74.17338,"zip":"12484","miles_from_dt":20.21},{"city":"Denver","state_name":"New York","lat":42.2512,"lng":-74.5336,"zip":"12421","miles_from_dt":20.33},{"city":"Glenford","state_name":"New York","lat":42.00533,"lng":-74.15526,"zip":"12433","miles_from_dt":20.5},{"city":"Glen Wild","state_name":"New York","lat":41.66009,"lng":-74.59119,"zip":"12738","miles_from_dt":20.6},{"city":"Spring Glen","state_name":"New York","lat":41.66796,"lng":-74.44184,"zip":"12483","miles_from_dt":20.67},{"city":"New Kingston","state_name":"New York","lat":42.23976,"lng":-74.6805,"zip":"12459","miles_from_dt":20.68},{"city":"Bearsville","state_name":"New York","lat":42.05662,"lng":-74.16655,"zip":"12409","miles_from_dt":20.81},{"city":"Phillipsport","state_name":"New York","lat":41.65925,"lng":-74.47071,"zip":"12769","miles_from_dt":20.92},{"city":"Lanesville","state_name":"New York","lat":42.13804,"lng":-74.22176,"zip":"12450","miles_from_dt":20.93},{"city":"Swan Lake","state_name":"New York","lat":41.74026,"lng":-74.83502,"zip":"12783","miles_from_dt":21.04},{"city":"Callicoon Center","state_name":"New York","lat":41.85195,"lng":-74.93535,"zip":"12724","miles_from_dt":21.24},{"city":"Cragsmoor","state_name":"New York","lat":41.6743,"lng":-74.37769,"zip":"12420","miles_from_dt":21.39},{"city":"West Hurley","state_name":"New York","lat":41.96957,"lng":-74.13311,"zip":"12491","miles_from_dt":21.39},{"city":"Lexington","state_name":"New York","lat":42.23891,"lng":-74.34986,"zip":"12452","miles_from_dt":21.97},{"city":"Monticello","state_name":"New York","lat":41.65125,"lng":-74.6982,"zip":"12701","miles_from_dt":22.47},{"city":"Jeffersonville","state_name":"New York","lat":41.77604,"lng":-74.91845,"zip":"12748","miles_from_dt":22.82},{"city":"High Falls","state_name":"New York","lat":41.78665,"lng":-74.16338,"zip":"12440","miles_from_dt":23.05},{"city":"Rock Hill","state_name":"New York","lat":41.62266,"lng":-74.58232,"zip":"12775","miles_from_dt":23.13},{"city":"Roxbury","state_name":"New York","lat":42.29378,"lng":-74.58117,"zip":"12474","miles_from_dt":23.32},{"city":"Kauneonga Lake","state_name":"New York","lat":41.69149,"lng":-74.82768,"zip":"12749","miles_from_dt":23.32},{"city":"Woodstock","state_name":"New York","lat":42.04772,"lng":-74.11007,"zip":"12498","miles_from_dt":23.4},{"city":"Delancey","state_name":"New York","lat":42.17257,"lng":-74.90379,"zip":"13752","miles_from_dt":23.59},{"city":"Hurley","state_name":"New York","lat":41.93388,"lng":-74.08536,"zip":"12443","miles_from_dt":23.89},{"city":"Cottekill","state_name":"New York","lat":41.85948,"lng":-74.10265,"zip":"12419","miles_from_dt":23.92},{"city":"Summitville","state_name":"New York","lat":41.61448,"lng":-74.47208,"zip":"12781","miles_from_dt":23.95},{"city":"Walker Valley","state_name":"New York","lat":41.6335,"lng":-74.37718,"zip":"12588","miles_from_dt":23.99},{"city":"Jewett","state_name":"New York","lat":42.24942,"lng":-74.28993,"zip":"12444","miles_from_dt":24.16},{"city":"Bovina Center","state_name":"New York","lat":42.27535,"lng":-74.74498,"zip":"13740","miles_from_dt":24.21},{"city":"North Branch","state_name":"New York","lat":41.81408,"lng":-74.97923,"zip":"12766","miles_from_dt":24.33},{"city":"Mongaup Valley","state_name":"New York","lat":41.65582,"lng":-74.79462,"zip":"12762","miles_from_dt":24.37},{"city":"Hunter","state_name":"New York","lat":42.22275,"lng":-74.23545,"zip":"12442","miles_from_dt":24.39},{"city":"Smallwood","state_name":"New York","lat":41.66174,"lng":-74.8138,"zip":"12778","miles_from_dt":24.56},{"city":"Prattsville","state_name":"New York","lat":42.29998,"lng":-74.41375,"zip":"12468","miles_from_dt":24.67},{"city":"Obernburg","state_name":"New York","lat":41.83504,"lng":-75.00284,"zip":"12767","miles_from_dt":24.92},{"city":"Downsville","state_name":"New York","lat":42.05976,"lng":-75.01524,"zip":"13755","miles_from_dt":25.08},{"city":"Fremont Center","state_name":"New York","lat":41.85327,"lng":-75.01917,"zip":"12736","miles_from_dt":25.32},{"city":"Kingston","state_name":"New York","lat":41.93504,"lng":-74.05446,"zip":"12401","miles_from_dt":25.47},{"city":"Rosendale","state_name":"New York","lat":41.84732,"lng":-74.07447,"zip":"12472","miles_from_dt":25.55},{"city":"Wurtsboro","state_name":"New York","lat":41.5863,"lng":-74.51705,"zip":"12790","miles_from_dt":25.62},{"city":"Pine Bush","state_name":"New York","lat":41.62223,"lng":-74.33256,"zip":"12566","miles_from_dt":25.63},{"city":"Elka Park","state_name":"New York","lat":42.14771,"lng":-74.11921,"zip":"12427","miles_from_dt":25.69},{"city":"Ashland","state_name":"New York","lat":42.30075,"lng":-74.35343,"zip":"12407","miles_from_dt":25.76},{"city":"Kenoza Lake","state_name":"New York","lat":41.73595,"lng":-74.96382,"zip":"12750","miles_from_dt":26.32},{"city":"Tillson","state_name":"New York","lat":41.83438,"lng":-74.06235,"zip":"12486","miles_from_dt":26.43},{"city":"Tannersville","state_name":"New York","lat":42.20507,"lng":-74.15288,"zip":"12485","miles_from_dt":26.57},{"city":"Kingston","state_name":"New York","lat":41.93239,"lng":-74.03233,"zip":"12402","miles_from_dt":26.62},{"city":"Bloomington","state_name":"New York","lat":41.87975,"lng":-74.04094,"zip":"12411","miles_from_dt":26.67},{"city":"White Lake","state_name":"New York","lat":41.64306,"lng":-74.85393,"zip":"12786","miles_from_dt":26.81},{"city":"Burlingham","state_name":"New York","lat":41.59042,"lng":-74.3748,"zip":"12722","miles_from_dt":26.82},{"city":"Hamden","state_name":"New York","lat":42.17304,"lng":-74.9836,"zip":"13782","miles_from_dt":26.92},{"city":"Gardiner","state_name":"New York","lat":41.68115,"lng":-74.17751,"zip":"12525","miles_from_dt":26.97},{"city":"New Paltz","state_name":"New York","lat":41.75602,"lng":-74.0958,"zip":"12561","miles_from_dt":27.13},{"city":"Rifton","state_name":"New York","lat":41.83799,"lng":-74.04195,"zip":"12471","miles_from_dt":27.35},{"city":"Hortonville","state_name":"New York","lat":41.78503,"lng":-75.02633,"zip":"12745","miles_from_dt":27.38},{"city":"Bethel","state_name":"New York","lat":41.65794,"lng":-74.90029,"zip":"12720","miles_from_dt":27.5},{"city":"Bloomingburg","state_name":"New York","lat":41.56741,"lng":-74.42832,"zip":"12721","miles_from_dt":27.57},{"city":"Callicoon","state_name":"New York","lat":41.77809,"lng":-75.02751,"zip":"12723","miles_from_dt":27.64},{"city":"Hobart","state_name":"New York","lat":42.34914,"lng":-74.65658,"zip":"13788","miles_from_dt":27.65},{"city":"Ruby","state_name":"New York","lat":42.01397,"lng":-74.01332,"zip":"12475","miles_from_dt":27.81},{"city":"Thompson Ridge","state_name":"New York","lat":41.57697,"lng":-74.35782,"zip":"10985","miles_from_dt":27.99},{"city":"Grand Gorge","state_name":"New York","lat":42.36491,"lng":-74.50793,"zip":"12434","miles_from_dt":28.24},{"city":"Cochecton","state_name":"New York","lat":41.69269,"lng":-74.96902,"zip":"12726","miles_from_dt":28.37},{"city":"Hankins","state_name":"New York","lat":41.84368,"lng":-75.07816,"zip":"12741","miles_from_dt":28.43},{"city":"Lake Katrine","state_name":"New York","lat":41.99377,"lng":-73.99338,"zip":"12449","miles_from_dt":28.67},{"city":"Mount Marion","state_name":"New York","lat":42.03308,"lng":-73.99703,"zip":"12456","miles_from_dt":28.85},{"city":"East Jewett","state_name":"New York","lat":42.24689,"lng":-74.14358,"zip":"12424","miles_from_dt":28.86},{"city":"East Branch","state_name":"New York","lat":42.01025,"lng":-75.10394,"zip":"13756","miles_from_dt":28.87},{"city":"Connelly","state_name":"New York","lat":41.9073,"lng":-73.98943,"zip":"12417","miles_from_dt":28.99},{"city":"Long Eddy","state_name":"New York","lat":41.90063,"lng":-75.10559,"zip":"12760","miles_from_dt":29},{"city":"Forestburgh","state_name":"New York","lat":41.55172,"lng":-74.71067,"zip":"12777","miles_from_dt":29.19},{"city":"Windham","state_name":"New York","lat":42.32669,"lng":-74.27256,"zip":"12496","miles_from_dt":29.19},{"city":"Ulster Park","state_name":"New York","lat":41.86095,"lng":-73.99555,"zip":"12487","miles_from_dt":29.24},{"city":"Saugerties","state_name":"New York","lat":42.08528,"lng":-74.00028,"zip":"12477","miles_from_dt":29.55},{"city":"Port Ewen","state_name":"New York","lat":41.90671,"lng":-73.97826,"zip":"12466","miles_from_dt":29.56},{"city":"Lake Huntington","state_name":"New York","lat":41.68278,"lng":-74.9905,"zip":"12752","miles_from_dt":29.66},{"city":"Haines Falls","state_name":"New York","lat":42.20447,"lng":-74.0746,"zip":"12436","miles_from_dt":29.74},{"city":"Hensonville","state_name":"New York","lat":42.29674,"lng":-74.18789,"zip":"12439","miles_from_dt":29.88},{"city":"Westbrookville","state_name":"New York","lat":41.52429,"lng":-74.58051,"zip":"12785","miles_from_dt":29.9}],"targetCityZipCode":"12725","targetCityState":"New York"},"__N_SSG":true}