{"pageProps":{"stateName":"New-york","cityName":"de-peyster","nearbyCities":[{"city":"Heuvelton","state_name":"New York","lat":44.56654,"lng":-75.46067,"zip":"13654","miles_from_dt":5.95},{"city":"Richville","state_name":"New York","lat":44.42933,"lng":-75.37142,"zip":"13681","miles_from_dt":6.85},{"city":"De Kalb Junction","state_name":"New York","lat":44.49742,"lng":-75.31756,"zip":"13630","miles_from_dt":8.5},{"city":"Morristown","state_name":"New York","lat":44.58423,"lng":-75.64537,"zip":"13664","miles_from_dt":10.46},{"city":"Hammond","state_name":"New York","lat":44.44144,"lng":-75.69379,"zip":"13646","miles_from_dt":10.55},{"city":"Brier Hill","state_name":"New York","lat":44.53081,"lng":-75.69194,"zip":"13614","miles_from_dt":10.6},{"city":"Gouverneur","state_name":"New York","lat":44.3263,"lng":-75.46742,"zip":"13642","miles_from_dt":10.84},{"city":"Rensselaer Falls","state_name":"New York","lat":44.59416,"lng":-75.32814,"zip":"13680","miles_from_dt":11.04},{"city":"Ogdensburg","state_name":"New York","lat":44.65004,"lng":-75.49861,"zip":"13669","miles_from_dt":11.57},{"city":"Hailesboro","state_name":"New York","lat":44.30878,"lng":-75.44655,"zip":"13645","miles_from_dt":12.18},{"city":"Chippewa Bay","state_name":"New York","lat":44.44877,"lng":-75.75299,"zip":"13623","miles_from_dt":13.3},{"city":"Hermon","state_name":"New York","lat":44.43579,"lng":-75.21338,"zip":"13652","miles_from_dt":13.97},{"city":"Antwerp","state_name":"New York","lat":44.28431,"lng":-75.61839,"zip":"13671","miles_from_dt":15.13},{"city":"Pyrites","state_name":"New York","lat":44.5151,"lng":-75.18557,"zip":"13677","miles_from_dt":15.13},{"city":"Edwards","state_name":"New York","lat":44.29915,"lng":-75.26188,"zip":"13635","miles_from_dt":16.91},{"city":"Redwood","state_name":"New York","lat":44.32664,"lng":-75.76554,"zip":"13679","miles_from_dt":17.45},{"city":"Canton","state_name":"New York","lat":44.5789,"lng":-75.14668,"zip":"13617","miles_from_dt":18.13},{"city":"Antwerp","state_name":"New York","lat":44.23879,"lng":-75.62508,"zip":"13608","miles_from_dt":18.15},{"city":"Lisbon","state_name":"New York","lat":44.73979,"lng":-75.27756,"zip":"13658","miles_from_dt":20.58},{"city":"Plessis","state_name":"New York","lat":44.28227,"lng":-75.83872,"zip":"13675","miles_from_dt":22.19},{"city":"Theresa","state_name":"New York","lat":44.22747,"lng":-75.78208,"zip":"13691","miles_from_dt":22.85},{"city":"Fine","state_name":"New York","lat":44.2594,"lng":-75.14324,"zip":"13639","miles_from_dt":23.01},{"city":"Russell","state_name":"New York","lat":44.36577,"lng":-75.0464,"zip":"13684","miles_from_dt":23.3},{"city":"Alexandria Bay","state_name":"New York","lat":44.33233,"lng":-75.91187,"zip":"13607","miles_from_dt":23.39},{"city":"Philadelphia","state_name":"New York","lat":44.17105,"lng":-75.72133,"zip":"13673","miles_from_dt":24.42},{"city":"Harrisville","state_name":"New York","lat":44.14977,"lng":-75.29908,"zip":"13648","miles_from_dt":24.82},{"city":"Hannawa Falls","state_name":"New York","lat":44.6017,"lng":-74.99264,"zip":"13647","miles_from_dt":25.82},{"city":"Madrid","state_name":"New York","lat":44.77727,"lng":-75.15764,"zip":"13660","miles_from_dt":26.07},{"city":"Potsdam","state_name":"New York","lat":44.66372,"lng":-74.99851,"zip":"13699","miles_from_dt":27.22},{"city":"Wellesley Island","state_name":"New York","lat":44.3198,"lng":-75.99937,"zip":"13640","miles_from_dt":27.69},{"city":"Oswegatchie","state_name":"New York","lat":44.18264,"lng":-75.11635,"zip":"13670","miles_from_dt":27.72},{"city":"Colton","state_name":"New York","lat":44.5384,"lng":-74.92135,"zip":"13625","miles_from_dt":28.27},{"city":"Fishers Landing","state_name":"New York","lat":44.27341,"lng":-76.00573,"zip":"13641","miles_from_dt":29.42},{"city":"Natural Bridge","state_name":"New York","lat":44.05227,"lng":-75.44933,"zip":"13665","miles_from_dt":29.77},{"city":"Thousand Island Park","state_name":"New York","lat":44.28861,"lng":-76.0258,"zip":"13692","miles_from_dt":29.8}],"targetCityZipCode":"13633","targetCityState":"New York"},"__N_SSG":true}