{"pageProps":{"stateName":"New-york","cityName":"east-berne","nearbyCities":[{"city":"Voorheesville","state_name":"New York","lat":42.62502,"lng":-73.9737,"zip":"12186","miles_from_dt":4.37},{"city":"Knox","state_name":"New York","lat":42.66981,"lng":-74.11989,"zip":"12107","miles_from_dt":4.97},{"city":"Berne","state_name":"New York","lat":42.60656,"lng":-74.16573,"zip":"12023","miles_from_dt":5.51},{"city":"Clarksville","state_name":"New York","lat":42.55893,"lng":-73.97028,"zip":"12041","miles_from_dt":5.88},{"city":"Altamont","state_name":"New York","lat":42.69824,"lng":-74.03398,"zip":"12009","miles_from_dt":5.94},{"city":"Albany","state_name":"New York","lat":42.69718,"lng":-73.99431,"zip":"12249","miles_from_dt":6.6},{"city":"Westerlo","state_name":"New York","lat":42.51713,"lng":-74.04327,"zip":"12193","miles_from_dt":6.73},{"city":"Guilderland Center","state_name":"New York","lat":42.70043,"lng":-73.96659,"zip":"12085","miles_from_dt":7.57},{"city":"Feura Bush","state_name":"New York","lat":42.56083,"lng":-73.91663,"zip":"12067","miles_from_dt":8.1},{"city":"Rensselaerville","state_name":"New York","lat":42.51365,"lng":-74.15147,"zip":"12147","miles_from_dt":8.41},{"city":"Slingerlands","state_name":"New York","lat":42.64328,"lng":-73.88503,"zip":"12159","miles_from_dt":9.05},{"city":"Gallupville","state_name":"New York","lat":42.66207,"lng":-74.22992,"zip":"12073","miles_from_dt":9.36},{"city":"Albany","state_name":"New York","lat":42.6649,"lng":-73.88326,"zip":"12220","miles_from_dt":9.58},{"city":"Delmar","state_name":"New York","lat":42.60764,"lng":-73.86864,"zip":"12054","miles_from_dt":9.67},{"city":"Guilderland","state_name":"New York","lat":42.70411,"lng":-73.90182,"zip":"12084","miles_from_dt":10.1},{"city":"Quaker Street","state_name":"New York","lat":42.733,"lng":-74.1866,"zip":"12141","miles_from_dt":10.5},{"city":"Duanesburg","state_name":"New York","lat":42.76761,"lng":-74.0905,"zip":"12056","miles_from_dt":10.73},{"city":"Alcove","state_name":"New York","lat":42.48889,"lng":-73.93159,"zip":"12007","miles_from_dt":10.78},{"city":"Coeymans Hollow","state_name":"New York","lat":42.48864,"lng":-73.92119,"zip":"12046","miles_from_dt":11.12},{"city":"Schenectady","state_name":"New York","lat":42.74938,"lng":-73.92562,"zip":"12303","miles_from_dt":11.52},{"city":"Albany","state_name":"New York","lat":42.68138,"lng":-73.85099,"zip":"12203","miles_from_dt":11.53},{"city":"Albany","state_name":"New York","lat":42.66466,"lng":-73.84173,"zip":"12224","miles_from_dt":11.57},{"city":"Medusa","state_name":"New York","lat":42.45781,"lng":-74.1409,"zip":"12120","miles_from_dt":11.58},{"city":"Delanson","state_name":"New York","lat":42.75283,"lng":-74.18791,"zip":"12053","miles_from_dt":11.64},{"city":"Albany","state_name":"New York","lat":42.68632,"lng":-73.84693,"zip":"12214","miles_from_dt":11.86},{"city":"Albany","state_name":"New York","lat":42.68955,"lng":-73.84598,"zip":"12227","miles_from_dt":12},{"city":"Albany","state_name":"New York","lat":42.67967,"lng":-73.84011,"zip":"12212","miles_from_dt":12},{"city":"South Bethlehem","state_name":"New York","lat":42.53369,"lng":-73.84606,"zip":"12161","miles_from_dt":12.16},{"city":"Albany","state_name":"New York","lat":42.68226,"lng":-73.83811,"zip":"12225","miles_from_dt":12.16},{"city":"Albany","state_name":"New York","lat":42.65042,"lng":-73.81441,"zip":"12229","miles_from_dt":12.67},{"city":"Greenville","state_name":"New York","lat":42.43151,"lng":-74.03155,"zip":"12083","miles_from_dt":12.67},{"city":"Schoharie","state_name":"New York","lat":42.66742,"lng":-74.29892,"zip":"12157","miles_from_dt":12.81},{"city":"Albany","state_name":"New York","lat":42.68637,"lng":-73.82656,"zip":"12222","miles_from_dt":12.81},{"city":"Albany","state_name":"New York","lat":42.65293,"lng":-73.80835,"zip":"12208","miles_from_dt":13.01},{"city":"Albany","state_name":"New York","lat":42.68901,"lng":-73.82116,"zip":"12246","miles_from_dt":13.14},{"city":"Selkirk","state_name":"New York","lat":42.53927,"lng":-73.81903,"zip":"12158","miles_from_dt":13.24},{"city":"Albany","state_name":"New York","lat":42.72872,"lng":-73.84776,"zip":"12288","miles_from_dt":13.32},{"city":"Schenectady","state_name":"New York","lat":42.80686,"lng":-74.03344,"zip":"12306","miles_from_dt":13.37},{"city":"Albany","state_name":"New York","lat":42.67931,"lng":-73.80987,"zip":"12226","miles_from_dt":13.43},{"city":"Albany","state_name":"New York","lat":42.64589,"lng":-73.79766,"zip":"12237","miles_from_dt":13.46},{"city":"Albany","state_name":"New York","lat":42.71719,"lng":-73.83006,"zip":"12205","miles_from_dt":13.63},{"city":"Schenectady","state_name":"New York","lat":42.77375,"lng":-73.89742,"zip":"12304","miles_from_dt":13.73},{"city":"Ravena","state_name":"New York","lat":42.48525,"lng":-73.85218,"zip":"12143","miles_from_dt":13.76},{"city":"Albany","state_name":"New York","lat":42.6382,"lng":-73.78976,"zip":"12209","miles_from_dt":13.78},{"city":"Middleburgh","state_name":"New York","lat":42.54341,"lng":-74.31138,"zip":"12122","miles_from_dt":13.81},{"city":"Glenmont","state_name":"New York","lat":42.59426,"lng":-73.7841,"zip":"12077","miles_from_dt":14.04},{"city":"Dormansville","state_name":"New York","lat":42.43842,"lng":-74.20308,"zip":"12055","miles_from_dt":14.2},{"city":"Oak Hill","state_name":"New York","lat":42.42357,"lng":-74.16676,"zip":"12460","miles_from_dt":14.27},{"city":"Schenectady","state_name":"New York","lat":42.80507,"lng":-73.93341,"zip":"12307","miles_from_dt":14.64},{"city":"Albany","state_name":"New York","lat":42.67415,"lng":-73.78196,"zip":"12206","miles_from_dt":14.67},{"city":"Albany","state_name":"New York","lat":42.67906,"lng":-73.78299,"zip":"12261","miles_from_dt":14.72},{"city":"Schenectady","state_name":"New York","lat":42.81219,"lng":-73.95036,"zip":"12305","miles_from_dt":14.74},{"city":"Preston Hollow","state_name":"New York","lat":42.44521,"lng":-74.2421,"zip":"12469","miles_from_dt":14.97},{"city":"Albany","state_name":"New York","lat":42.66939,"lng":-73.77355,"zip":"12260","miles_from_dt":15},{"city":"Schenectady","state_name":"New York","lat":42.81324,"lng":-73.9394,"zip":"12301","miles_from_dt":15.02},{"city":"Albany","state_name":"New York","lat":42.67122,"lng":-73.7729,"zip":"12245","miles_from_dt":15.06},{"city":"Schenectady","state_name":"New York","lat":42.81417,"lng":-73.94,"zip":"12325","miles_from_dt":15.07},{"city":"Albany","state_name":"New York","lat":42.63355,"lng":-73.763,"zip":"12202","miles_from_dt":15.1},{"city":"Schenectady","state_name":"New York","lat":42.81566,"lng":-73.94232,"zip":"12345","miles_from_dt":15.11},{"city":"Albany","state_name":"New York","lat":42.63039,"lng":-73.76198,"zip":"12241","miles_from_dt":15.14},{"city":"Albany","state_name":"New York","lat":42.65152,"lng":-73.76117,"zip":"12244","miles_from_dt":15.35},{"city":"Albany","state_name":"New York","lat":42.65203,"lng":-73.76145,"zip":"12238","miles_from_dt":15.35},{"city":"Hannacroix","state_name":"New York","lat":42.42794,"lng":-73.8931,"zip":"12087","miles_from_dt":15.36},{"city":"Albany","state_name":"New York","lat":42.65606,"lng":-73.76013,"zip":"12231","miles_from_dt":15.46},{"city":"Albany","state_name":"New York","lat":42.65447,"lng":-73.75972,"zip":"12255","miles_from_dt":15.46},{"city":"Albany","state_name":"New York","lat":42.65082,"lng":-73.75855,"zip":"12239","miles_from_dt":15.48},{"city":"Albany","state_name":"New York","lat":42.65188,"lng":-73.75841,"zip":"12236","miles_from_dt":15.5},{"city":"Albany","state_name":"New York","lat":42.65398,"lng":-73.75837,"zip":"12248","miles_from_dt":15.52},{"city":"Albany","state_name":"New York","lat":42.64568,"lng":-73.75666,"zip":"12228","miles_from_dt":15.52},{"city":"Albany","state_name":"New York","lat":42.65178,"lng":-73.75795,"zip":"12223","miles_from_dt":15.52},{"city":"Albany","state_name":"New York","lat":42.65275,"lng":-73.75755,"zip":"12242","miles_from_dt":15.55},{"city":"Albany","state_name":"New York","lat":42.65357,"lng":-73.75747,"zip":"12257","miles_from_dt":15.56},{"city":"Albany","state_name":"New York","lat":42.6547,"lng":-73.75777,"zip":"12230","miles_from_dt":15.56},{"city":"Albany","state_name":"New York","lat":42.65149,"lng":-73.7569,"zip":"12240","miles_from_dt":15.57},{"city":"Albany","state_name":"New York","lat":42.64974,"lng":-73.75606,"zip":"12235","miles_from_dt":15.59},{"city":"Albany","state_name":"New York","lat":42.66399,"lng":-73.75985,"zip":"12210","miles_from_dt":15.59},{"city":"Albany","state_name":"New York","lat":42.64924,"lng":-73.75555,"zip":"12233","miles_from_dt":15.61},{"city":"Albany","state_name":"New York","lat":42.6526,"lng":-73.75405,"zip":"12232","miles_from_dt":15.72},{"city":"Albany","state_name":"New York","lat":42.64832,"lng":-73.75161,"zip":"12201","miles_from_dt":15.8},{"city":"Schenectady","state_name":"New York","lat":42.79693,"lng":-73.86785,"zip":"12309","miles_from_dt":15.91},{"city":"Schenectady","state_name":"New York","lat":42.82152,"lng":-73.92006,"zip":"12308","miles_from_dt":15.95},{"city":"Albany","state_name":"New York","lat":42.65657,"lng":-73.74749,"zip":"12207","miles_from_dt":16.1},{"city":"Albany","state_name":"New York","lat":42.65379,"lng":-73.74642,"zip":"12243","miles_from_dt":16.12},{"city":"Coeymans","state_name":"New York","lat":42.47974,"lng":-73.79682,"zip":"12045","miles_from_dt":16.24},{"city":"Surprise","state_name":"New York","lat":42.38839,"lng":-73.96787,"zip":"12176","miles_from_dt":16.24},{"city":"Albany","state_name":"New York","lat":42.7083,"lng":-73.76393,"zip":"12211","miles_from_dt":16.34},{"city":"East Durham","state_name":"New York","lat":42.37968,"lng":-74.11136,"zip":"12423","miles_from_dt":16.4},{"city":"Albany","state_name":"New York","lat":42.67181,"lng":-73.7365,"zip":"12234","miles_from_dt":16.87},{"city":"Esperance","state_name":"New York","lat":42.78011,"lng":-74.30291,"zip":"12066","miles_from_dt":16.93},{"city":"Albany","state_name":"New York","lat":42.67301,"lng":-73.73524,"zip":"12250","miles_from_dt":16.95},{"city":"Durham","state_name":"New York","lat":42.39205,"lng":-74.20232,"zip":"12422","miles_from_dt":17},{"city":"Pattersonville","state_name":"New York","lat":42.85727,"lng":-74.12922,"zip":"12137","miles_from_dt":17.18},{"city":"Latham","state_name":"New York","lat":42.75349,"lng":-73.77671,"zip":"12110","miles_from_dt":17.26},{"city":"Rensselaer","state_name":"New York","lat":42.63106,"lng":-73.71801,"zip":"12144","miles_from_dt":17.38},{"city":"Newtonville","state_name":"New York","lat":42.72445,"lng":-73.75091,"zip":"12128","miles_from_dt":17.41},{"city":"Albany","state_name":"New York","lat":42.68227,"lng":-73.72788,"zip":"12247","miles_from_dt":17.47},{"city":"Albany","state_name":"New York","lat":42.68723,"lng":-73.72869,"zip":"12204","miles_from_dt":17.53},{"city":"Freehold","state_name":"New York","lat":42.35877,"lng":-74.01843,"zip":"12431","miles_from_dt":17.74},{"city":"Howes Cave","state_name":"New York","lat":42.70396,"lng":-74.38456,"zip":"12092","miles_from_dt":17.75},{"city":"Rotterdam Junction","state_name":"New York","lat":42.87613,"lng":-74.04923,"zip":"12150","miles_from_dt":18.1},{"city":"New Baltimore","state_name":"New York","lat":42.44652,"lng":-73.78494,"zip":"12124","miles_from_dt":18.12},{"city":"Climax","state_name":"New York","lat":42.38185,"lng":-73.89162,"zip":"12042","miles_from_dt":18.14},{"city":"Central Bridge","state_name":"New York","lat":42.73453,"lng":-74.37534,"zip":"12035","miles_from_dt":18.17},{"city":"Alplaus","state_name":"New York","lat":42.85367,"lng":-73.9063,"zip":"12008","miles_from_dt":18.26},{"city":"Cornwallville","state_name":"New York","lat":42.35863,"lng":-74.1609,"zip":"12418","miles_from_dt":18.39},{"city":"Fultonham","state_name":"New York","lat":42.56971,"lng":-74.41521,"zip":"12071","miles_from_dt":18.47},{"city":"Rexford","state_name":"New York","lat":42.83361,"lng":-73.84652,"zip":"12148","miles_from_dt":18.59},{"city":"Schodack Landing","state_name":"New York","lat":42.47764,"lng":-73.74354,"zip":"12156","miles_from_dt":18.61},{"city":"Castleton On Hudson","state_name":"New York","lat":42.53665,"lng":-73.70558,"zip":"12033","miles_from_dt":18.76},{"city":"Sloansville","state_name":"New York","lat":42.76325,"lng":-74.36619,"zip":"12160","miles_from_dt":18.77},{"city":"West Coxsackie","state_name":"New York","lat":42.40428,"lng":-73.82136,"zip":"12192","miles_from_dt":18.86},{"city":"Schenectady","state_name":"New York","lat":42.88188,"lng":-73.98323,"zip":"12302","miles_from_dt":18.88},{"city":"Watervliet","state_name":"New York","lat":42.73618,"lng":-73.71688,"zip":"12189","miles_from_dt":19.32},{"city":"Earlton","state_name":"New York","lat":42.3498,"lng":-73.923,"zip":"12058","miles_from_dt":19.5},{"city":"East Greenbush","state_name":"New York","lat":42.59915,"lng":-73.65658,"zip":"12061","miles_from_dt":20.5},{"city":"Cohoes","state_name":"New York","lat":42.78396,"lng":-73.72655,"zip":"12047","miles_from_dt":20.56},{"city":"Troy","state_name":"New York","lat":42.73192,"lng":-73.6868,"zip":"12181","miles_from_dt":20.59},{"city":"Acra","state_name":"New York","lat":42.31585,"lng":-74.0989,"zip":"12405","miles_from_dt":20.69},{"city":"Troy","state_name":"New York","lat":42.74742,"lng":-73.69259,"zip":"12183","miles_from_dt":20.77},{"city":"Warnerville","state_name":"New York","lat":42.62632,"lng":-74.46537,"zip":"12187","miles_from_dt":20.78},{"city":"Cairo","state_name":"New York","lat":42.31338,"lng":-74.02628,"zip":"12413","miles_from_dt":20.82},{"city":"West Fulton","state_name":"New York","lat":42.53839,"lng":-74.45431,"zip":"12194","miles_from_dt":20.88},{"city":"Clifton Park","state_name":"New York","lat":42.85402,"lng":-73.78654,"zip":"12065","miles_from_dt":21.57},{"city":"Stuyvesant","state_name":"New York","lat":42.39042,"lng":-73.76196,"zip":"12173","miles_from_dt":21.61},{"city":"Coxsackie","state_name":"New York","lat":42.34493,"lng":-73.83938,"zip":"12051","miles_from_dt":21.68},{"city":"East Schodack","state_name":"New York","lat":42.56442,"lng":-73.63826,"zip":"12063","miles_from_dt":21.69},{"city":"Gilboa","state_name":"New York","lat":42.40868,"lng":-74.38506,"zip":"12076","miles_from_dt":21.9},{"city":"Wynantskill","state_name":"New York","lat":42.67819,"lng":-73.63285,"zip":"12198","miles_from_dt":22.12},{"city":"Leeds","state_name":"New York","lat":42.30337,"lng":-73.94802,"zip":"12451","miles_from_dt":22.17},{"city":"West Sand Lake","state_name":"New York","lat":42.63149,"lng":-73.61708,"zip":"12196","miles_from_dt":22.51},{"city":"Burnt Hills","state_name":"New York","lat":42.92122,"lng":-73.90872,"zip":"12027","miles_from_dt":22.52},{"city":"Windham","state_name":"New York","lat":42.32669,"lng":-74.27256,"zip":"12496","miles_from_dt":22.66},{"city":"Hensonville","state_name":"New York","lat":42.29674,"lng":-74.18789,"zip":"12439","miles_from_dt":22.88},{"city":"North Blenheim","state_name":"New York","lat":42.46573,"lng":-74.46249,"zip":"12131","miles_from_dt":23.04},{"city":"Maplecrest","state_name":"New York","lat":42.2869,"lng":-74.15038,"zip":"12454","miles_from_dt":23.07},{"city":"Amsterdam","state_name":"New York","lat":42.93752,"lng":-74.17287,"zip":"12010","miles_from_dt":23.08},{"city":"Carlisle","state_name":"New York","lat":42.76579,"lng":-74.46617,"zip":"12031","miles_from_dt":23.27},{"city":"Waterford","state_name":"New York","lat":42.8199,"lng":-73.69589,"zip":"12188","miles_from_dt":23.28},{"city":"Kinderhook","state_name":"New York","lat":42.38871,"lng":-73.71228,"zip":"12106","miles_from_dt":23.53},{"city":"Ballston Lake","state_name":"New York","lat":42.92993,"lng":-73.88245,"zip":"12019","miles_from_dt":23.56},{"city":"Niverville","state_name":"New York","lat":42.44156,"lng":-73.65835,"zip":"12130","miles_from_dt":23.63},{"city":"Purling","state_name":"New York","lat":42.26932,"lng":-74.05515,"zip":"12470","miles_from_dt":23.79},{"city":"North Chatham","state_name":"New York","lat":42.47102,"lng":-73.63362,"zip":"12132","miles_from_dt":23.81},{"city":"Nassau","state_name":"New York","lat":42.52239,"lng":-73.60636,"zip":"12123","miles_from_dt":23.9},{"city":"Fultonville","state_name":"New York","lat":42.88102,"lng":-74.36164,"zip":"12072","miles_from_dt":24.04},{"city":"Round Top","state_name":"New York","lat":42.26157,"lng":-74.02827,"zip":"12473","miles_from_dt":24.38},{"city":"South Cairo","state_name":"New York","lat":42.26841,"lng":-73.95587,"zip":"12482","miles_from_dt":24.42},{"city":"Valatie","state_name":"New York","lat":42.42272,"lng":-73.65387,"zip":"12184","miles_from_dt":24.5},{"city":"Cobleskill","state_name":"New York","lat":42.70357,"lng":-74.5267,"zip":"12043","miles_from_dt":24.66},{"city":"Stuyvesant Falls","state_name":"New York","lat":42.35314,"lng":-73.72802,"zip":"12174","miles_from_dt":24.67},{"city":"Troy","state_name":"New York","lat":42.80044,"lng":-73.63519,"zip":"12182","miles_from_dt":25.08},{"city":"Troy","state_name":"New York","lat":42.7516,"lng":-73.59997,"zip":"12180","miles_from_dt":25.19},{"city":"Fort Hunter","state_name":"New York","lat":42.94336,"lng":-74.28193,"zip":"12069","miles_from_dt":25.42},{"city":"Auriesville","state_name":"New York","lat":42.92878,"lng":-74.31964,"zip":"12016","miles_from_dt":25.47},{"city":"Round Lake","state_name":"New York","lat":42.92553,"lng":-73.78874,"zip":"12151","miles_from_dt":25.5},{"city":"Sprakers","state_name":"New York","lat":42.83846,"lng":-74.45644,"zip":"12166","miles_from_dt":25.51},{"city":"Poestenkill","state_name":"New York","lat":42.689,"lng":-73.56689,"zip":"12140","miles_from_dt":25.56},{"city":"East Jewett","state_name":"New York","lat":42.24689,"lng":-74.14358,"zip":"12424","miles_from_dt":25.72},{"city":"Athens","state_name":"New York","lat":42.28315,"lng":-73.82543,"zip":"12015","miles_from_dt":25.75},{"city":"Malden Bridge","state_name":"New York","lat":42.46747,"lng":-73.59338,"zip":"12115","miles_from_dt":25.79},{"city":"Richmondville","state_name":"New York","lat":42.62011,"lng":-74.56692,"zip":"12149","miles_from_dt":25.94},{"city":"Columbiaville","state_name":"New York","lat":42.31504,"lng":-73.74881,"zip":"12050","miles_from_dt":26},{"city":"Summit","state_name":"New York","lat":42.55489,"lng":-74.56161,"zip":"12175","miles_from_dt":26},{"city":"Tribes Hill","state_name":"New York","lat":42.95184,"lng":-74.28459,"zip":"12177","miles_from_dt":26.01},{"city":"Ashland","state_name":"New York","lat":42.30075,"lng":-74.35343,"zip":"12407","miles_from_dt":26.37},{"city":"Hagaman","state_name":"New York","lat":42.99684,"lng":-74.10508,"zip":"12086","miles_from_dt":26.53},{"city":"Averill Park","state_name":"New York","lat":42.62926,"lng":-73.52662,"zip":"12018","miles_from_dt":27.11},{"city":"Mechanicville","state_name":"New York","lat":42.92096,"lng":-73.72049,"zip":"12118","miles_from_dt":27.27},{"city":"Fort Johnson","state_name":"New York","lat":42.98513,"lng":-74.25441,"zip":"12070","miles_from_dt":27.49},{"city":"Stottville","state_name":"New York","lat":42.28915,"lng":-73.73895,"zip":"12172","miles_from_dt":27.73},{"city":"Jewett","state_name":"New York","lat":42.24942,"lng":-74.28993,"zip":"12444","miles_from_dt":27.82},{"city":"Catskill","state_name":"New York","lat":42.2211,"lng":-73.92356,"zip":"12414","miles_from_dt":27.98},{"city":"Melrose","state_name":"New York","lat":42.84368,"lng":-73.60398,"zip":"12121","miles_from_dt":28.02},{"city":"Brainard","state_name":"New York","lat":42.48134,"lng":-73.53419,"zip":"12024","miles_from_dt":28.26},{"city":"Haines Falls","state_name":"New York","lat":42.20447,"lng":-74.0746,"zip":"12436","miles_from_dt":28.28},{"city":"Prattsville","state_name":"New York","lat":42.29998,"lng":-74.41375,"zip":"12468","miles_from_dt":28.29},{"city":"Old Chatham","state_name":"New York","lat":42.43249,"lng":-73.56016,"zip":"12136","miles_from_dt":28.34},{"city":"Ballston Spa","state_name":"New York","lat":43.00208,"lng":-73.87401,"zip":"12020","miles_from_dt":28.37},{"city":"Hunter","state_name":"New York","lat":42.22275,"lng":-74.23545,"zip":"12442","miles_from_dt":28.49},{"city":"Tannersville","state_name":"New York","lat":42.20507,"lng":-74.15288,"zip":"12485","miles_from_dt":28.64},{"city":"Grand Gorge","state_name":"New York","lat":42.36491,"lng":-74.50793,"zip":"12434","miles_from_dt":28.7},{"city":"East Nassau","state_name":"New York","lat":42.52871,"lng":-73.501,"zip":"12062","miles_from_dt":29.03},{"city":"Palenville","state_name":"New York","lat":42.1895,"lng":-74.01573,"zip":"12463","miles_from_dt":29.38},{"city":"Sharon Springs","state_name":"New York","lat":42.77721,"lng":-74.59315,"zip":"13459","miles_from_dt":29.48},{"city":"Fonda","state_name":"New York","lat":42.95701,"lng":-74.40467,"zip":"12068","miles_from_dt":29.51},{"city":"Lexington","state_name":"New York","lat":42.23891,"lng":-74.34986,"zip":"12452","miles_from_dt":29.88}],"targetCityZipCode":"12059","targetCityState":"New York"},"__N_SSG":true}