{"pageProps":{"stateName":"New-york","cityName":"georgetown","nearbyCities":[{"city":"De Ruyter","state_name":"New York","lat":42.72838,"lng":-75.86957,"zip":"13052","miles_from_dt":5.91},{"city":"Erieville","state_name":"New York","lat":42.86493,"lng":-75.75173,"zip":"13061","miles_from_dt":7.1},{"city":"South Otselic","state_name":"New York","lat":42.65945,"lng":-75.77136,"zip":"13155","miles_from_dt":7.12},{"city":"New Woodstock","state_name":"New York","lat":42.83857,"lng":-75.85919,"zip":"13122","miles_from_dt":7.18},{"city":"Eaton","state_name":"New York","lat":42.83445,"lng":-75.65986,"zip":"13334","miles_from_dt":7.22},{"city":"West Eaton","state_name":"New York","lat":42.85426,"lng":-75.65549,"zip":"13484","miles_from_dt":8.37},{"city":"North Pitcher","state_name":"New York","lat":42.64578,"lng":-75.81718,"zip":"13124","miles_from_dt":8.51},{"city":"Smyrna","state_name":"New York","lat":42.68632,"lng":-75.61998,"zip":"13464","miles_from_dt":8.97},{"city":"Plymouth","state_name":"New York","lat":42.6531,"lng":-75.66286,"zip":"13832","miles_from_dt":9.11},{"city":"Earlville","state_name":"New York","lat":42.75831,"lng":-75.57452,"zip":"13332","miles_from_dt":9.59},{"city":"Delphi Falls","state_name":"New York","lat":42.88339,"lng":-75.91021,"zip":"13051","miles_from_dt":11.21},{"city":"Truxton","state_name":"New York","lat":42.71603,"lng":-75.97626,"zip":"13158","miles_from_dt":11.32},{"city":"South Plymouth","state_name":"New York","lat":42.60927,"lng":-75.68083,"zip":"13844","miles_from_dt":11.37},{"city":"Pitcher","state_name":"New York","lat":42.60368,"lng":-75.84582,"zip":"13136","miles_from_dt":11.74},{"city":"Hamilton","state_name":"New York","lat":42.82093,"lng":-75.54453,"zip":"13346","miles_from_dt":11.82},{"city":"Morrisville","state_name":"New York","lat":42.92205,"lng":-75.66722,"zip":"13408","miles_from_dt":12.04},{"city":"Fabius","state_name":"New York","lat":42.84429,"lng":-75.98023,"zip":"13063","miles_from_dt":12.41},{"city":"Cazenovia","state_name":"New York","lat":42.93828,"lng":-75.82551,"zip":"13035","miles_from_dt":12.55},{"city":"Bouckville","state_name":"New York","lat":42.89055,"lng":-75.57065,"zip":"13310","miles_from_dt":13.18},{"city":"East Pharsalia","state_name":"New York","lat":42.55502,"lng":-75.71657,"zip":"13758","miles_from_dt":14.51},{"city":"Peterboro","state_name":"New York","lat":42.96731,"lng":-75.68476,"zip":"13134","miles_from_dt":14.69},{"city":"North Norwich","state_name":"New York","lat":42.61655,"lng":-75.52584,"zip":"13814","miles_from_dt":15.72},{"city":"Pompey","state_name":"New York","lat":42.89915,"lng":-76.01461,"zip":"13138","miles_from_dt":15.89},{"city":"Solsville","state_name":"New York","lat":42.91064,"lng":-75.52102,"zip":"13465","miles_from_dt":15.99},{"city":"Madison","state_name":"New York","lat":42.90209,"lng":-75.50728,"zip":"13402","miles_from_dt":16.18},{"city":"Apulia Station","state_name":"New York","lat":42.81646,"lng":-76.07458,"zip":"13020","miles_from_dt":16.28},{"city":"Cincinnatus","state_name":"New York","lat":42.56033,"lng":-75.93029,"zip":"13040","miles_from_dt":16.35},{"city":"Sherburne","state_name":"New York","lat":42.68492,"lng":-75.45572,"zip":"13460","miles_from_dt":16.53},{"city":"Manlius","state_name":"New York","lat":42.96378,"lng":-75.95523,"zip":"13104","miles_from_dt":16.99},{"city":"Munnsville","state_name":"New York","lat":42.97602,"lng":-75.59131,"zip":"13409","miles_from_dt":17.13},{"city":"Hubbardsville","state_name":"New York","lat":42.80971,"lng":-75.42401,"zip":"13355","miles_from_dt":17.54},{"city":"McDonough","state_name":"New York","lat":42.50327,"lng":-75.78028,"zip":"13801","miles_from_dt":17.91},{"city":"East Homer","state_name":"New York","lat":42.67263,"lng":-76.09683,"zip":"13056","miles_from_dt":18.09},{"city":"Tully","state_name":"New York","lat":42.80321,"lng":-76.11545,"zip":"13159","miles_from_dt":18.14},{"city":"Norwich","state_name":"New York","lat":42.54712,"lng":-75.53413,"zip":"13815","miles_from_dt":18.89},{"city":"McGraw","state_name":"New York","lat":42.60211,"lng":-76.06665,"zip":"13101","miles_from_dt":19.02},{"city":"Clockville","state_name":"New York","lat":43.0398,"lng":-75.74409,"zip":"13043","miles_from_dt":19.17},{"city":"Knoxboro","state_name":"New York","lat":42.98434,"lng":-75.51901,"zip":"13362","miles_from_dt":19.7},{"city":"Oriskany Falls","state_name":"New York","lat":42.9635,"lng":-75.48675,"zip":"13425","miles_from_dt":19.73},{"city":"La Fayette","state_name":"New York","lat":42.88938,"lng":-76.11314,"zip":"13084","miles_from_dt":19.83},{"city":"North Brookfield","state_name":"New York","lat":42.84519,"lng":-75.38213,"zip":"13418","miles_from_dt":20.18},{"city":"Jamesville","state_name":"New York","lat":42.96206,"lng":-76.06171,"zip":"13078","miles_from_dt":20.49},{"city":"Little York","state_name":"New York","lat":42.69634,"lng":-76.16493,"zip":"13087","miles_from_dt":20.96},{"city":"Chittenango","state_name":"New York","lat":43.06046,"lng":-75.86521,"zip":"13037","miles_from_dt":21.22},{"city":"Preble","state_name":"New York","lat":42.76684,"lng":-76.18616,"zip":"13141","miles_from_dt":21.53},{"city":"Oneida","state_name":"New York","lat":43.06293,"lng":-75.64654,"zip":"13421","miles_from_dt":21.57},{"city":"Canastota","state_name":"New York","lat":43.07793,"lng":-75.76275,"zip":"13032","miles_from_dt":21.78},{"city":"Wampsville","state_name":"New York","lat":43.08194,"lng":-75.70841,"zip":"13163","miles_from_dt":22.23},{"city":"Fayetteville","state_name":"New York","lat":43.03297,"lng":-76.00259,"zip":"13066","miles_from_dt":22.29},{"city":"Sangerfield","state_name":"New York","lat":42.91791,"lng":-75.37655,"zip":"13455","miles_from_dt":22.37},{"city":"Homer","state_name":"New York","lat":42.71557,"lng":-76.20089,"zip":"13077","miles_from_dt":22.52},{"city":"Waterville","state_name":"New York","lat":42.91424,"lng":-75.36699,"zip":"13480","miles_from_dt":22.68},{"city":"Vernon Center","state_name":"New York","lat":43.03633,"lng":-75.51441,"zip":"13477","miles_from_dt":22.73},{"city":"West Edmeston","state_name":"New York","lat":42.7865,"lng":-75.3165,"zip":"13485","miles_from_dt":22.76},{"city":"Deansboro","state_name":"New York","lat":42.98247,"lng":-75.42836,"zip":"13328","miles_from_dt":22.79},{"city":"Blodgett Mills","state_name":"New York","lat":42.56236,"lng":-76.11986,"zip":"13738","miles_from_dt":22.83},{"city":"Sherrill","state_name":"New York","lat":43.07115,"lng":-75.59866,"zip":"13461","miles_from_dt":22.88},{"city":"Brookfield","state_name":"New York","lat":42.82476,"lng":-75.31568,"zip":"13314","miles_from_dt":23.14},{"city":"Willet","state_name":"New York","lat":42.44164,"lng":-75.904,"zip":"13863","miles_from_dt":23.28},{"city":"Oxford","state_name":"New York","lat":42.43868,"lng":-75.6295,"zip":"13830","miles_from_dt":23.36},{"city":"Nedrow","state_name":"New York","lat":42.94233,"lng":-76.1695,"zip":"13120","miles_from_dt":24.09},{"city":"Smithville Flats","state_name":"New York","lat":42.41408,"lng":-75.84171,"zip":"13841","miles_from_dt":24.38},{"city":"New Berlin","state_name":"New York","lat":42.63723,"lng":-75.30981,"zip":"13411","miles_from_dt":24.64},{"city":"Syracuse","state_name":"New York","lat":43.03865,"lng":-76.0741,"zip":"13214","miles_from_dt":24.76},{"city":"Minoa","state_name":"New York","lat":43.07449,"lng":-76.00796,"zip":"13116","miles_from_dt":24.87},{"city":"Cortland","state_name":"New York","lat":42.58692,"lng":-76.19029,"zip":"13045","miles_from_dt":24.91},{"city":"South New Berlin","state_name":"New York","lat":42.53468,"lng":-75.37584,"zip":"13843","miles_from_dt":25.22},{"city":"Kirkville","state_name":"New York","lat":43.10148,"lng":-75.95253,"zip":"13082","miles_from_dt":25.3},{"city":"Syracuse","state_name":"New York","lat":43.00474,"lng":-76.14163,"zip":"13205","miles_from_dt":25.48},{"city":"Syracuse","state_name":"New York","lat":43.02318,"lng":-76.12329,"zip":"13244","miles_from_dt":25.66},{"city":"Leonardsville","state_name":"New York","lat":42.80501,"lng":-75.26105,"zip":"13364","miles_from_dt":25.69},{"city":"Syracuse","state_name":"New York","lat":43.03892,"lng":-76.10264,"zip":"13224","miles_from_dt":25.72},{"city":"Vernon","state_name":"New York","lat":43.08728,"lng":-75.51219,"zip":"13476","miles_from_dt":25.78},{"city":"Marathon","state_name":"New York","lat":42.45787,"lng":-76.06028,"zip":"13803","miles_from_dt":25.92},{"city":"Syracuse","state_name":"New York","lat":43.03186,"lng":-76.12653,"zip":"13210","miles_from_dt":26.2},{"city":"Edmeston","state_name":"New York","lat":42.70193,"lng":-75.24847,"zip":"13335","miles_from_dt":26.51},{"city":"Franklin Springs","state_name":"New York","lat":43.03468,"lng":-75.39075,"zip":"13341","miles_from_dt":26.65},{"city":"Syracuse","state_name":"New York","lat":43.01221,"lng":-76.16354,"zip":"13207","miles_from_dt":26.66},{"city":"Bridgewater","state_name":"New York","lat":42.88715,"lng":-75.26228,"zip":"13313","miles_from_dt":26.86},{"city":"East Syracuse","state_name":"New York","lat":43.09543,"lng":-76.04014,"zip":"13057","miles_from_dt":26.95},{"city":"Syracuse","state_name":"New York","lat":43.04241,"lng":-76.13669,"zip":"13235","miles_from_dt":27.08},{"city":"Syracuse","state_name":"New York","lat":43.05184,"lng":-76.12316,"zip":"13217","miles_from_dt":27.08},{"city":"Clinton","state_name":"New York","lat":43.04198,"lng":-75.38144,"zip":"13323","miles_from_dt":27.34},{"city":"Guilford","state_name":"New York","lat":42.42496,"lng":-75.48128,"zip":"13780","miles_from_dt":27.37},{"city":"Syracuse","state_name":"New York","lat":43.04092,"lng":-76.15264,"zip":"13201","miles_from_dt":27.58},{"city":"Syracuse","state_name":"New York","lat":43.04356,"lng":-76.15065,"zip":"13202","miles_from_dt":27.63},{"city":"Syracuse","state_name":"New York","lat":43.07354,"lng":-76.10584,"zip":"13206","miles_from_dt":27.64},{"city":"Syracuse","state_name":"New York","lat":43.04708,"lng":-76.14842,"zip":"13218","miles_from_dt":27.73},{"city":"Syracuse","state_name":"New York","lat":43.0488,"lng":-76.14983,"zip":"13221","miles_from_dt":27.86},{"city":"Cassville","state_name":"New York","lat":42.92366,"lng":-75.25958,"zip":"13318","miles_from_dt":27.89},{"city":"Syracuse","state_name":"New York","lat":43.061,"lng":-76.13486,"zip":"13203","miles_from_dt":27.94},{"city":"Marietta","state_name":"New York","lat":42.89019,"lng":-76.28507,"zip":"13110","miles_from_dt":27.96},{"city":"Syracuse","state_name":"New York","lat":42.97852,"lng":-76.22979,"zip":"13215","miles_from_dt":28.01},{"city":"Syracuse","state_name":"New York","lat":43.05008,"lng":-76.15453,"zip":"13261","miles_from_dt":28.09},{"city":"Syracuse","state_name":"New York","lat":43.04858,"lng":-76.15656,"zip":"13252","miles_from_dt":28.09},{"city":"Verona","state_name":"New York","lat":43.14916,"lng":-75.58009,"zip":"13478","miles_from_dt":28.26},{"city":"Killawog","state_name":"New York","lat":42.39976,"lng":-76.02149,"zip":"13794","miles_from_dt":28.29},{"city":"Durhamville","state_name":"New York","lat":43.16947,"lng":-75.66923,"zip":"13054","miles_from_dt":28.5},{"city":"Greene","state_name":"New York","lat":42.34795,"lng":-75.75977,"zip":"13778","miles_from_dt":28.61},{"city":"Syracuse","state_name":"New York","lat":43.05204,"lng":-76.17666,"zip":"13204","miles_from_dt":28.99},{"city":"Westmoreland","state_name":"New York","lat":43.10612,"lng":-75.42991,"zip":"13490","miles_from_dt":29.12},{"city":"Bridgeport","state_name":"New York","lat":43.15962,"lng":-75.96052,"zip":"13030","miles_from_dt":29.19},{"city":"Syracuse","state_name":"New York","lat":43.07878,"lng":-76.14521,"zip":"13208","miles_from_dt":29.2},{"city":"Verona Beach","state_name":"New York","lat":43.18833,"lng":-75.71823,"zip":"13162","miles_from_dt":29.49},{"city":"Syracuse","state_name":"New York","lat":43.10333,"lng":-76.11954,"zip":"13211","miles_from_dt":29.68},{"city":"Gilbertsville","state_name":"New York","lat":42.47023,"lng":-75.33458,"zip":"13776","miles_from_dt":29.73},{"city":"Syracuse","state_name":"New York","lat":43.07132,"lng":-76.17368,"zip":"13290","miles_from_dt":29.81}],"targetCityZipCode":"13072","targetCityState":"New York"},"__N_SSG":true}