{"pageProps":{"stateName":"New-york","cityName":"lansing","nearbyCities":[{"city":"Jacksonville","state_name":"New York","lat":42.51138,"lng":-76.60874,"zip":"14854","miles_from_dt":5.23},{"city":"Genoa","state_name":"New York","lat":42.67584,"lng":-76.54252,"zip":"13071","miles_from_dt":6.71},{"city":"Ithaca","state_name":"New York","lat":42.50702,"lng":-76.47113,"zip":"14852","miles_from_dt":6.98},{"city":"King Ferry","state_name":"New York","lat":42.67364,"lng":-76.62527,"zip":"13081","miles_from_dt":7.13},{"city":"Trumansburg","state_name":"New York","lat":42.50408,"lng":-76.68836,"zip":"14886","miles_from_dt":8.17},{"city":"Groton","state_name":"New York","lat":42.58514,"lng":-76.39832,"zip":"13073","miles_from_dt":8.55},{"city":"Locke","state_name":"New York","lat":42.65145,"lng":-76.42502,"zip":"13092","miles_from_dt":8.7},{"city":"Interlaken","state_name":"New York","lat":42.6031,"lng":-76.74047,"zip":"14847","miles_from_dt":9.05},{"city":"Ithaca","state_name":"New York","lat":42.44757,"lng":-76.50319,"zip":"14851","miles_from_dt":9.69},{"city":"Ithaca","state_name":"New York","lat":42.44727,"lng":-76.48149,"zip":"14853","miles_from_dt":10.13},{"city":"Ithaca","state_name":"New York","lat":42.43249,"lng":-76.49891,"zip":"14850","miles_from_dt":10.75},{"city":"Poplar Ridge","state_name":"New York","lat":42.74057,"lng":-76.59794,"zip":"13139","miles_from_dt":11.2},{"city":"Mecklenburg","state_name":"New York","lat":42.4555,"lng":-76.71105,"zip":"14863","miles_from_dt":11.36},{"city":"Etna","state_name":"New York","lat":42.48121,"lng":-76.38694,"zip":"13062","miles_from_dt":11.4},{"city":"Freeville","state_name":"New York","lat":42.49905,"lng":-76.35555,"zip":"13068","miles_from_dt":12.1},{"city":"Aurora","state_name":"New York","lat":42.75044,"lng":-76.65968,"zip":"13026","miles_from_dt":12.69},{"city":"Scipio Center","state_name":"New York","lat":42.77336,"lng":-76.56603,"zip":"13147","miles_from_dt":13.34},{"city":"Ovid","state_name":"New York","lat":42.67639,"lng":-76.80876,"zip":"14521","miles_from_dt":14.06},{"city":"McLean","state_name":"New York","lat":42.55276,"lng":-76.29253,"zip":"13102","miles_from_dt":14.07},{"city":"Lodi","state_name":"New York","lat":42.59099,"lng":-76.84201,"zip":"14860","miles_from_dt":14.11},{"city":"Hector","state_name":"New York","lat":42.52699,"lng":-76.84249,"zip":"14841","miles_from_dt":14.59},{"city":"Moravia","state_name":"New York","lat":42.75226,"lng":-76.39522,"zip":"13118","miles_from_dt":14.72},{"city":"Burdett","state_name":"New York","lat":42.44878,"lng":-76.81688,"zip":"14818","miles_from_dt":15.7},{"city":"Slaterville Springs","state_name":"New York","lat":42.4017,"lng":-76.35795,"zip":"14881","miles_from_dt":16.26},{"city":"Newfield","state_name":"New York","lat":42.34243,"lng":-76.61461,"zip":"14867","miles_from_dt":16.59},{"city":"Dryden","state_name":"New York","lat":42.47513,"lng":-76.26471,"zip":"13053","miles_from_dt":16.99},{"city":"Willard","state_name":"New York","lat":42.67973,"lng":-76.87047,"zip":"14588","miles_from_dt":16.99},{"city":"Alpine","state_name":"New York","lat":42.3563,"lng":-76.72618,"zip":"14805","miles_from_dt":17.49},{"city":"Union Springs","state_name":"New York","lat":42.82613,"lng":-76.65157,"zip":"13160","miles_from_dt":17.54},{"city":"Odessa","state_name":"New York","lat":42.36403,"lng":-76.77052,"zip":"14869","miles_from_dt":18.22},{"city":"Romulus","state_name":"New York","lat":42.75704,"lng":-76.84403,"zip":"14541","miles_from_dt":18.71},{"city":"Brooktondale","state_name":"New York","lat":42.36295,"lng":-76.34548,"zip":"14817","miles_from_dt":18.74},{"city":"Lakemont","state_name":"New York","lat":42.51874,"lng":-76.92825,"zip":"14857","miles_from_dt":18.98},{"city":"Cortland","state_name":"New York","lat":42.58692,"lng":-76.19029,"zip":"13045","miles_from_dt":19.16},{"city":"Himrod","state_name":"New York","lat":42.59666,"lng":-76.963,"zip":"14842","miles_from_dt":20.29},{"city":"Harford","state_name":"New York","lat":42.43542,"lng":-76.2177,"zip":"13784","miles_from_dt":20.39},{"city":"Homer","state_name":"New York","lat":42.71557,"lng":-76.20089,"zip":"13077","miles_from_dt":20.81},{"city":"Fayette","state_name":"New York","lat":42.81884,"lng":-76.81577,"zip":"13065","miles_from_dt":20.82},{"city":"Montour Falls","state_name":"New York","lat":42.35091,"lng":-76.83178,"zip":"14865","miles_from_dt":20.86},{"city":"Dresden","state_name":"New York","lat":42.68608,"lng":-76.95756,"zip":"14441","miles_from_dt":21.27},{"city":"Rock Stream","state_name":"New York","lat":42.44946,"lng":-76.94401,"zip":"14878","miles_from_dt":21.32},{"city":"Willseyville","state_name":"New York","lat":42.29095,"lng":-76.39225,"zip":"13864","miles_from_dt":21.84},{"city":"Little York","state_name":"New York","lat":42.69634,"lng":-76.16493,"zip":"13087","miles_from_dt":21.95},{"city":"Reading Center","state_name":"New York","lat":42.43372,"lng":-76.95015,"zip":"14876","miles_from_dt":22.08},{"city":"Cayuta","state_name":"New York","lat":42.26875,"lng":-76.70881,"zip":"14824","miles_from_dt":22.7},{"city":"Blodgett Mills","state_name":"New York","lat":42.56236,"lng":-76.11986,"zip":"13738","miles_from_dt":22.78},{"city":"Preble","state_name":"New York","lat":42.76684,"lng":-76.18616,"zip":"13141","miles_from_dt":23.24},{"city":"Auburn","state_name":"New York","lat":42.91713,"lng":-76.5542,"zip":"13021","miles_from_dt":23.27},{"city":"Auburn","state_name":"New York","lat":42.91996,"lng":-76.55292,"zip":"13022","miles_from_dt":23.47},{"city":"Skaneateles","state_name":"New York","lat":42.89323,"lng":-76.38518,"zip":"13152","miles_from_dt":23.49},{"city":"Dundee","state_name":"New York","lat":42.49919,"lng":-77.01668,"zip":"14837","miles_from_dt":23.68},{"city":"Spencer","state_name":"New York","lat":42.24056,"lng":-76.482,"zip":"14883","miles_from_dt":23.82},{"city":"Cayuga","state_name":"New York","lat":42.91366,"lng":-76.69502,"zip":"13034","miles_from_dt":23.95},{"city":"Watkins Glen","state_name":"New York","lat":42.37823,"lng":-76.95035,"zip":"14891","miles_from_dt":24.09},{"city":"Richford","state_name":"New York","lat":42.38906,"lng":-76.16939,"zip":"13835","miles_from_dt":24.16},{"city":"Auburn","state_name":"New York","lat":42.93453,"lng":-76.57424,"zip":"13024","miles_from_dt":24.47},{"city":"East Homer","state_name":"New York","lat":42.67263,"lng":-76.09683,"zip":"13056","miles_from_dt":24.74},{"city":"Millport","state_name":"New York","lat":42.2804,"lng":-76.84205,"zip":"14864","miles_from_dt":25.05},{"city":"Van Etten","state_name":"New York","lat":42.21605,"lng":-76.58138,"zip":"14889","miles_from_dt":25.14},{"city":"McGraw","state_name":"New York","lat":42.60211,"lng":-76.06665,"zip":"13101","miles_from_dt":25.5},{"city":"Marietta","state_name":"New York","lat":42.89019,"lng":-76.28507,"zip":"13110","miles_from_dt":25.73},{"city":"Seneca Falls","state_name":"New York","lat":42.9208,"lng":-76.78106,"zip":"13148","miles_from_dt":25.94},{"city":"Bellona","state_name":"New York","lat":42.7559,"lng":-77.01643,"zip":"14415","miles_from_dt":25.97},{"city":"Penn Yan","state_name":"New York","lat":42.66764,"lng":-77.06473,"zip":"14527","miles_from_dt":26.14},{"city":"Berkshire","state_name":"New York","lat":42.31722,"lng":-76.19389,"zip":"13736","miles_from_dt":26.28},{"city":"Marathon","state_name":"New York","lat":42.45787,"lng":-76.06028,"zip":"13803","miles_from_dt":27.15},{"city":"Erin","state_name":"New York","lat":42.18951,"lng":-76.66635,"zip":"14838","miles_from_dt":27.45},{"city":"Candor","state_name":"New York","lat":42.21706,"lng":-76.33898,"zip":"13743","miles_from_dt":27.61},{"city":"Tully","state_name":"New York","lat":42.80321,"lng":-76.11545,"zip":"13159","miles_from_dt":27.62},{"city":"Breesport","state_name":"New York","lat":42.19728,"lng":-76.73161,"zip":"14816","miles_from_dt":27.75},{"city":"Waterloo","state_name":"New York","lat":42.91185,"lng":-76.87601,"zip":"13165","miles_from_dt":27.81},{"city":"Pine Valley","state_name":"New York","lat":42.24141,"lng":-76.86473,"zip":"14872","miles_from_dt":27.93},{"city":"Mottville","state_name":"New York","lat":42.97655,"lng":-76.44488,"zip":"13119","miles_from_dt":28.05},{"city":"Tyrone","state_name":"New York","lat":42.40247,"lng":-77.06989,"zip":"14887","miles_from_dt":28.52},{"city":"Keuka Park","state_name":"New York","lat":42.58011,"lng":-77.12791,"zip":"14478","miles_from_dt":28.68},{"city":"Geneva","state_name":"New York","lat":42.84584,"lng":-77.00012,"zip":"14456","miles_from_dt":28.73},{"city":"Wayne","state_name":"New York","lat":42.46952,"lng":-77.11182,"zip":"14893","miles_from_dt":28.91},{"city":"Skaneateles Falls","state_name":"New York","lat":42.9945,"lng":-76.45476,"zip":"13153","miles_from_dt":29.16},{"city":"Horseheads","state_name":"New York","lat":42.20225,"lng":-76.8334,"zip":"14845","miles_from_dt":29.46},{"city":"Beaver Dams","state_name":"New York","lat":42.29199,"lng":-76.99413,"zip":"14812","miles_from_dt":29.58},{"city":"Hall","state_name":"New York","lat":42.79539,"lng":-77.0689,"zip":"14463","miles_from_dt":29.62},{"city":"Marcellus","state_name":"New York","lat":42.97349,"lng":-76.33069,"zip":"13108","miles_from_dt":29.67},{"city":"Apulia Station","state_name":"New York","lat":42.81646,"lng":-76.07458,"zip":"13020","miles_from_dt":29.86}],"targetCityZipCode":"14882","targetCityState":"New York"},"__N_SSG":true}