{"pageProps":{"stateName":"New-york","cityName":"livingston-manor","nearbyCities":[{"city":"Parksville","state_name":"New York","lat":41.87157,"lng":-74.71507,"zip":"12768","miles_from_dt":5.23},{"city":"Neversink","state_name":"New York","lat":41.85265,"lng":-74.6281,"zip":"12765","miles_from_dt":8.82},{"city":"Roscoe","state_name":"New York","lat":41.96486,"lng":-74.93197,"zip":"12776","miles_from_dt":9.53},{"city":"Liberty","state_name":"New York","lat":41.80004,"lng":-74.73643,"zip":"12754","miles_from_dt":9.88},{"city":"Claryville","state_name":"New York","lat":41.95679,"lng":-74.54794,"zip":"12725","miles_from_dt":10.43},{"city":"White Sulphur Springs","state_name":"New York","lat":41.7931,"lng":-74.8365,"zip":"12787","miles_from_dt":11.27},{"city":"Callicoon Center","state_name":"New York","lat":41.85195,"lng":-74.93535,"zip":"12724","miles_from_dt":11.46},{"city":"Youngsville","state_name":"New York","lat":41.81126,"lng":-74.88692,"zip":"12791","miles_from_dt":11.52},{"city":"Loch Sheldrake","state_name":"New York","lat":41.78399,"lng":-74.65758,"zip":"12759","miles_from_dt":11.94},{"city":"Hurleyville","state_name":"New York","lat":41.76596,"lng":-74.65934,"zip":"12747","miles_from_dt":13.06},{"city":"Andes","state_name":"New York","lat":42.13059,"lng":-74.7882,"zip":"13731","miles_from_dt":13.11},{"city":"Woodbourne","state_name":"New York","lat":41.79552,"lng":-74.58846,"zip":"12788","miles_from_dt":13.13},{"city":"Arkville","state_name":"New York","lat":42.09647,"lng":-74.56502,"zip":"12406","miles_from_dt":14.23},{"city":"Ferndale","state_name":"New York","lat":41.7354,"lng":-74.7531,"zip":"12734","miles_from_dt":14.32},{"city":"Jeffersonville","state_name":"New York","lat":41.77604,"lng":-74.91845,"zip":"12748","miles_from_dt":14.44},{"city":"Swan Lake","state_name":"New York","lat":41.74026,"lng":-74.83502,"zip":"12783","miles_from_dt":14.66},{"city":"North Branch","state_name":"New York","lat":41.81408,"lng":-74.97923,"zip":"12766","miles_from_dt":14.81},{"city":"Margaretville","state_name":"New York","lat":42.14871,"lng":-74.66334,"zip":"12455","miles_from_dt":14.89},{"city":"Grahamsville","state_name":"New York","lat":41.89499,"lng":-74.46616,"zip":"12740","miles_from_dt":14.97},{"city":"Obernburg","state_name":"New York","lat":41.83504,"lng":-75.00284,"zip":"12767","miles_from_dt":15.04},{"city":"Fremont Center","state_name":"New York","lat":41.85327,"lng":-75.01917,"zip":"12736","miles_from_dt":15.22},{"city":"Harris","state_name":"New York","lat":41.71796,"lng":-74.72108,"zip":"12742","miles_from_dt":15.59},{"city":"Downsville","state_name":"New York","lat":42.05976,"lng":-75.01524,"zip":"13755","miles_from_dt":15.89},{"city":"Fallsburg","state_name":"New York","lat":41.73378,"lng":-74.6102,"zip":"12733","miles_from_dt":16.12},{"city":"Big Indian","state_name":"New York","lat":42.0706,"lng":-74.45212,"zip":"12410","miles_from_dt":17.66},{"city":"Delancey","state_name":"New York","lat":42.17257,"lng":-74.90379,"zip":"13752","miles_from_dt":17.74},{"city":"Kauneonga Lake","state_name":"New York","lat":41.69149,"lng":-74.82768,"zip":"12749","miles_from_dt":17.81},{"city":"Kiamesha Lake","state_name":"New York","lat":41.69209,"lng":-74.66119,"zip":"12751","miles_from_dt":17.89},{"city":"Hortonville","state_name":"New York","lat":41.78503,"lng":-75.02633,"zip":"12745","miles_from_dt":17.96},{"city":"South Fallsburg","state_name":"New York","lat":41.69804,"lng":-74.62703,"zip":"12779","miles_from_dt":18.04},{"city":"Kenoza Lake","state_name":"New York","lat":41.73595,"lng":-74.96382,"zip":"12750","miles_from_dt":18.06},{"city":"Woodridge","state_name":"New York","lat":41.71374,"lng":-74.57233,"zip":"12789","miles_from_dt":18.26},{"city":"Hankins","state_name":"New York","lat":41.84368,"lng":-75.07816,"zip":"12741","miles_from_dt":18.28},{"city":"Callicoon","state_name":"New York","lat":41.77809,"lng":-75.02751,"zip":"12723","miles_from_dt":18.31},{"city":"Long Eddy","state_name":"New York","lat":41.90063,"lng":-75.10559,"zip":"12760","miles_from_dt":18.59},{"city":"East Branch","state_name":"New York","lat":42.01025,"lng":-75.10394,"zip":"13756","miles_from_dt":18.84},{"city":"Highmount","state_name":"New York","lat":42.1502,"lng":-74.50625,"zip":"12441","miles_from_dt":19.01},{"city":"Napanoch","state_name":"New York","lat":41.82273,"lng":-74.41666,"zip":"12458","miles_from_dt":19.06},{"city":"Greenfield Park","state_name":"New York","lat":41.72715,"lng":-74.51148,"zip":"12435","miles_from_dt":19.3},{"city":"Smallwood","state_name":"New York","lat":41.66174,"lng":-74.8138,"zip":"12778","miles_from_dt":19.68},{"city":"Hamden","state_name":"New York","lat":42.17304,"lng":-74.9836,"zip":"13782","miles_from_dt":19.94},{"city":"Mongaup Valley","state_name":"New York","lat":41.65582,"lng":-74.79462,"zip":"12762","miles_from_dt":19.94},{"city":"Thompsonville","state_name":"New York","lat":41.66907,"lng":-74.61485,"zip":"12784","miles_from_dt":20.13},{"city":"Halcottsville","state_name":"New York","lat":42.21251,"lng":-74.59667,"zip":"12438","miles_from_dt":20.2},{"city":"Monticello","state_name":"New York","lat":41.65125,"lng":-74.6982,"zip":"12701","miles_from_dt":20.29},{"city":"Pine Hill","state_name":"New York","lat":42.15278,"lng":-74.46725,"zip":"12465","miles_from_dt":20.51},{"city":"Cochecton","state_name":"New York","lat":41.69269,"lng":-74.96902,"zip":"12726","miles_from_dt":20.65},{"city":"New Kingston","state_name":"New York","lat":42.23976,"lng":-74.6805,"zip":"12459","miles_from_dt":20.8},{"city":"Ellenville","state_name":"New York","lat":41.73817,"lng":-74.44615,"zip":"12428","miles_from_dt":21.08},{"city":"Bethel","state_name":"New York","lat":41.65794,"lng":-74.90029,"zip":"12720","miles_from_dt":21.15},{"city":"Glen Wild","state_name":"New York","lat":41.66009,"lng":-74.59119,"zip":"12738","miles_from_dt":21.15},{"city":"White Lake","state_name":"New York","lat":41.64306,"lng":-74.85393,"zip":"12786","miles_from_dt":21.38},{"city":"Mountain Dale","state_name":"New York","lat":41.68221,"lng":-74.52205,"zip":"12763","miles_from_dt":21.48},{"city":"Lake Huntington","state_name":"New York","lat":41.68278,"lng":-74.9905,"zip":"12752","miles_from_dt":21.84},{"city":"Fishs Eddy","state_name":"New York","lat":41.96192,"lng":-75.17283,"zip":"13774","miles_from_dt":21.85},{"city":"Phoenicia","state_name":"New York","lat":42.04071,"lng":-74.34452,"zip":"12464","miles_from_dt":21.92},{"city":"Fleischmanns","state_name":"New York","lat":42.20306,"lng":-74.49933,"zip":"12430","miles_from_dt":22.09},{"city":"Bovina Center","state_name":"New York","lat":42.27535,"lng":-74.74498,"zip":"13740","miles_from_dt":22.95},{"city":"West Shokan","state_name":"New York","lat":41.94857,"lng":-74.30169,"zip":"12494","miles_from_dt":23.07},{"city":"Damascus","state_name":"Pennsylvania","lat":41.74821,"lng":-75.11315,"zip":"18415","miles_from_dt":23.08},{"city":"Shandaken","state_name":"New York","lat":42.13803,"lng":-74.37683,"zip":"12480","miles_from_dt":23.43},{"city":"Rock Hill","state_name":"New York","lat":41.62266,"lng":-74.58232,"zip":"12775","miles_from_dt":23.72},{"city":"Cochecton","state_name":"New York","lat":41.64061,"lng":-74.96813,"zip":"12727","miles_from_dt":23.72},{"city":"Denver","state_name":"New York","lat":42.2512,"lng":-74.5336,"zip":"12421","miles_from_dt":24},{"city":"Wawarsing","state_name":"New York","lat":41.75597,"lng":-74.35462,"zip":"12489","miles_from_dt":24.11},{"city":"Phillipsport","state_name":"New York","lat":41.65925,"lng":-74.47071,"zip":"12769","miles_from_dt":24.29},{"city":"Kerhonkson","state_name":"New York","lat":41.79063,"lng":-74.31655,"zip":"12446","miles_from_dt":24.68},{"city":"Spring Glen","state_name":"New York","lat":41.66796,"lng":-74.44184,"zip":"12483","miles_from_dt":24.74},{"city":"Boiceville","state_name":"New York","lat":42.01218,"lng":-74.27698,"zip":"12412","miles_from_dt":24.8},{"city":"Equinunk","state_name":"Pennsylvania","lat":41.80705,"lng":-75.20122,"zip":"18417","miles_from_dt":25.12},{"city":"Roxbury","state_name":"New York","lat":42.29378,"lng":-74.58117,"zip":"12474","miles_from_dt":25.72},{"city":"Olivebridge","state_name":"New York","lat":41.90531,"lng":-74.25246,"zip":"12461","miles_from_dt":25.74},{"city":"Chichester","state_name":"New York","lat":42.09554,"lng":-74.28592,"zip":"12416","miles_from_dt":26.08},{"city":"Tyler Hill","state_name":"Pennsylvania","lat":41.70352,"lng":-75.14597,"zip":"18469","miles_from_dt":26.3},{"city":"Walton","state_name":"New York","lat":42.16666,"lng":-75.16633,"zip":"13856","miles_from_dt":26.43},{"city":"Cragsmoor","state_name":"New York","lat":41.6743,"lng":-74.37769,"zip":"12420","miles_from_dt":26.68},{"city":"Mount Tremper","state_name":"New York","lat":42.03997,"lng":-74.24659,"zip":"12457","miles_from_dt":26.74},{"city":"Summitville","state_name":"New York","lat":41.61448,"lng":-74.47208,"zip":"12781","miles_from_dt":26.81},{"city":"Delhi","state_name":"New York","lat":42.30873,"lng":-74.92538,"zip":"13753","miles_from_dt":26.83},{"city":"Narrowsburg","state_name":"New York","lat":41.59639,"lng":-74.98515,"zip":"12764","miles_from_dt":26.83},{"city":"Milanville","state_name":"Pennsylvania","lat":41.66262,"lng":-75.11059,"zip":"18443","miles_from_dt":26.87},{"city":"Hancock","state_name":"New York","lat":41.99037,"lng":-75.26764,"zip":"13783","miles_from_dt":26.89},{"city":"Shokan","state_name":"New York","lat":41.97519,"lng":-74.22718,"zip":"12481","miles_from_dt":27},{"city":"Forestburgh","state_name":"New York","lat":41.55172,"lng":-74.71067,"zip":"12777","miles_from_dt":27.06},{"city":"Eldred","state_name":"New York","lat":41.56075,"lng":-74.87353,"zip":"12732","miles_from_dt":27.14},{"city":"West Kill","state_name":"New York","lat":42.18758,"lng":-74.33453,"zip":"12492","miles_from_dt":27.22},{"city":"Wurtsboro","state_name":"New York","lat":41.5863,"lng":-74.51705,"zip":"12790","miles_from_dt":27.38},{"city":"Willow","state_name":"New York","lat":42.08264,"lng":-74.24563,"zip":"12495","miles_from_dt":27.67},{"city":"Accord","state_name":"New York","lat":41.81602,"lng":-74.23632,"zip":"12404","miles_from_dt":27.87},{"city":"Highland Lake","state_name":"New York","lat":41.54065,"lng":-74.84687,"zip":"12743","miles_from_dt":28.21},{"city":"Hobart","state_name":"New York","lat":42.34914,"lng":-74.65658,"zip":"13788","miles_from_dt":28.45},{"city":"Walker Valley","state_name":"New York","lat":41.6335,"lng":-74.37718,"zip":"12588","miles_from_dt":28.73},{"city":"Lexington","state_name":"New York","lat":42.23891,"lng":-74.34986,"zip":"12452","miles_from_dt":28.98},{"city":"Lake Como","state_name":"Pennsylvania","lat":41.86859,"lng":-75.30345,"zip":"18437","miles_from_dt":29.02},{"city":"Bloomville","state_name":"New York","lat":42.36614,"lng":-74.78982,"zip":"13739","miles_from_dt":29.29},{"city":"Starlight","state_name":"Pennsylvania","lat":41.92774,"lng":-75.32434,"zip":"18461","miles_from_dt":29.65},{"city":"Beach Lake","state_name":"Pennsylvania","lat":41.59792,"lng":-75.09509,"zip":"18405","miles_from_dt":29.76},{"city":"Lake Hill","state_name":"New York","lat":42.07955,"lng":-74.20067,"zip":"12448","miles_from_dt":29.78}],"targetCityZipCode":"12758","targetCityState":"New York"},"__N_SSG":true}