{"pageProps":{"stateName":"New-york","cityName":"neversink","nearbyCities":[{"city":"Woodbourne","state_name":"New York","lat":41.79552,"lng":-74.58846,"zip":"12788","miles_from_dt":4.44},{"city":"Parksville","state_name":"New York","lat":41.87157,"lng":-74.71507,"zip":"12768","miles_from_dt":4.67},{"city":"Loch Sheldrake","state_name":"New York","lat":41.78399,"lng":-74.65758,"zip":"12759","miles_from_dt":4.98},{"city":"Hurleyville","state_name":"New York","lat":41.76596,"lng":-74.65934,"zip":"12747","miles_from_dt":6.2},{"city":"Liberty","state_name":"New York","lat":41.80004,"lng":-74.73643,"zip":"12754","miles_from_dt":6.67},{"city":"Fallsburg","state_name":"New York","lat":41.73378,"lng":-74.6102,"zip":"12733","miles_from_dt":8.26},{"city":"Claryville","state_name":"New York","lat":41.95679,"lng":-74.54794,"zip":"12725","miles_from_dt":8.29},{"city":"Livingston Manor","state_name":"New York","lat":41.9428,"lng":-74.74942,"zip":"12758","miles_from_dt":8.82},{"city":"Grahamsville","state_name":"New York","lat":41.89499,"lng":-74.46616,"zip":"12740","miles_from_dt":8.85},{"city":"Woodridge","state_name":"New York","lat":41.71374,"lng":-74.57233,"zip":"12789","miles_from_dt":10.01},{"city":"Ferndale","state_name":"New York","lat":41.7354,"lng":-74.7531,"zip":"12734","miles_from_dt":10.35},{"city":"Harris","state_name":"New York","lat":41.71796,"lng":-74.72108,"zip":"12742","miles_from_dt":10.46},{"city":"Greenfield Park","state_name":"New York","lat":41.72715,"lng":-74.51148,"zip":"12435","miles_from_dt":10.55},{"city":"South Fallsburg","state_name":"New York","lat":41.69804,"lng":-74.62703,"zip":"12779","miles_from_dt":10.67},{"city":"Napanoch","state_name":"New York","lat":41.82273,"lng":-74.41666,"zip":"12458","miles_from_dt":11.11},{"city":"Kiamesha Lake","state_name":"New York","lat":41.69209,"lng":-74.66119,"zip":"12751","miles_from_dt":11.21},{"city":"White Sulphur Springs","state_name":"New York","lat":41.7931,"lng":-74.8365,"zip":"12787","miles_from_dt":11.52},{"city":"Ellenville","state_name":"New York","lat":41.73817,"lng":-74.44615,"zip":"12428","miles_from_dt":12.28},{"city":"Thompsonville","state_name":"New York","lat":41.66907,"lng":-74.61485,"zip":"12784","miles_from_dt":12.69},{"city":"Mountain Dale","state_name":"New York","lat":41.68221,"lng":-74.52205,"zip":"12763","miles_from_dt":12.98},{"city":"Swan Lake","state_name":"New York","lat":41.74026,"lng":-74.83502,"zip":"12783","miles_from_dt":13.2},{"city":"Glen Wild","state_name":"New York","lat":41.66009,"lng":-74.59119,"zip":"12738","miles_from_dt":13.43},{"city":"Youngsville","state_name":"New York","lat":41.81126,"lng":-74.88692,"zip":"12791","miles_from_dt":13.66},{"city":"Monticello","state_name":"New York","lat":41.65125,"lng":-74.6982,"zip":"12701","miles_from_dt":14.36},{"city":"Kauneonga Lake","state_name":"New York","lat":41.69149,"lng":-74.82768,"zip":"12749","miles_from_dt":15.17},{"city":"Wawarsing","state_name":"New York","lat":41.75597,"lng":-74.35462,"zip":"12489","miles_from_dt":15.62},{"city":"Phillipsport","state_name":"New York","lat":41.65925,"lng":-74.47071,"zip":"12769","miles_from_dt":15.63},{"city":"Callicoon Center","state_name":"New York","lat":41.85195,"lng":-74.93535,"zip":"12724","miles_from_dt":15.85},{"city":"Jeffersonville","state_name":"New York","lat":41.77604,"lng":-74.91845,"zip":"12748","miles_from_dt":15.9},{"city":"Spring Glen","state_name":"New York","lat":41.66796,"lng":-74.44184,"zip":"12483","miles_from_dt":15.97},{"city":"Rock Hill","state_name":"New York","lat":41.62266,"lng":-74.58232,"zip":"12775","miles_from_dt":16.05},{"city":"Mongaup Valley","state_name":"New York","lat":41.65582,"lng":-74.79462,"zip":"12762","miles_from_dt":16.08},{"city":"Smallwood","state_name":"New York","lat":41.66174,"lng":-74.8138,"zip":"12778","miles_from_dt":16.3},{"city":"Kerhonkson","state_name":"New York","lat":41.79063,"lng":-74.31655,"zip":"12446","miles_from_dt":16.64},{"city":"Arkville","state_name":"New York","lat":42.09647,"lng":-74.56502,"zip":"12406","miles_from_dt":17.14},{"city":"Roscoe","state_name":"New York","lat":41.96486,"lng":-74.93197,"zip":"12776","miles_from_dt":17.48},{"city":"Big Indian","state_name":"New York","lat":42.0706,"lng":-74.45212,"zip":"12410","miles_from_dt":17.56},{"city":"Cragsmoor","state_name":"New York","lat":41.6743,"lng":-74.37769,"zip":"12420","miles_from_dt":17.86},{"city":"West Shokan","state_name":"New York","lat":41.94857,"lng":-74.30169,"zip":"12494","miles_from_dt":18.09},{"city":"Summitville","state_name":"New York","lat":41.61448,"lng":-74.47208,"zip":"12781","miles_from_dt":18.31},{"city":"North Branch","state_name":"New York","lat":41.81408,"lng":-74.97923,"zip":"12766","miles_from_dt":18.32},{"city":"White Lake","state_name":"New York","lat":41.64306,"lng":-74.85393,"zip":"12786","miles_from_dt":18.59},{"city":"Kenoza Lake","state_name":"New York","lat":41.73595,"lng":-74.96382,"zip":"12750","miles_from_dt":19.12},{"city":"Wurtsboro","state_name":"New York","lat":41.5863,"lng":-74.51705,"zip":"12790","miles_from_dt":19.26},{"city":"Obernburg","state_name":"New York","lat":41.83504,"lng":-75.00284,"zip":"12767","miles_from_dt":19.38},{"city":"Bethel","state_name":"New York","lat":41.65794,"lng":-74.90029,"zip":"12720","miles_from_dt":19.45},{"city":"Phoenicia","state_name":"New York","lat":42.04071,"lng":-74.34452,"zip":"12464","miles_from_dt":19.54},{"city":"Olivebridge","state_name":"New York","lat":41.90531,"lng":-74.25246,"zip":"12461","miles_from_dt":19.71},{"city":"Walker Valley","state_name":"New York","lat":41.6335,"lng":-74.37718,"zip":"12588","miles_from_dt":19.92},{"city":"Fremont Center","state_name":"New York","lat":41.85327,"lng":-75.01917,"zip":"12736","miles_from_dt":20.18},{"city":"Accord","state_name":"New York","lat":41.81602,"lng":-74.23632,"zip":"12404","miles_from_dt":20.38},{"city":"Margaretville","state_name":"New York","lat":42.14871,"lng":-74.66334,"zip":"12455","miles_from_dt":20.51},{"city":"Cochecton","state_name":"New York","lat":41.69269,"lng":-74.96902,"zip":"12726","miles_from_dt":20.79},{"city":"Andes","state_name":"New York","lat":42.13059,"lng":-74.7882,"zip":"13731","miles_from_dt":20.88},{"city":"Hortonville","state_name":"New York","lat":41.78503,"lng":-75.02633,"zip":"12745","miles_from_dt":21.08},{"city":"Boiceville","state_name":"New York","lat":42.01218,"lng":-74.27698,"zip":"12412","miles_from_dt":21.18},{"city":"Forestburgh","state_name":"New York","lat":41.55172,"lng":-74.71067,"zip":"12777","miles_from_dt":21.2},{"city":"Callicoon","state_name":"New York","lat":41.77809,"lng":-75.02751,"zip":"12723","miles_from_dt":21.25},{"city":"Highmount","state_name":"New York","lat":42.1502,"lng":-74.50625,"zip":"12441","miles_from_dt":21.47},{"city":"Pine Bush","state_name":"New York","lat":41.62223,"lng":-74.33256,"zip":"12566","miles_from_dt":22.05},{"city":"Lake Huntington","state_name":"New York","lat":41.68278,"lng":-74.9905,"zip":"12752","miles_from_dt":22.09},{"city":"Bloomingburg","state_name":"New York","lat":41.56741,"lng":-74.42832,"zip":"12721","miles_from_dt":22.23},{"city":"Pine Hill","state_name":"New York","lat":42.15278,"lng":-74.46725,"zip":"12465","miles_from_dt":22.31},{"city":"Shokan","state_name":"New York","lat":41.97519,"lng":-74.22718,"zip":"12481","miles_from_dt":22.33},{"city":"Burlingham","state_name":"New York","lat":41.59042,"lng":-74.3748,"zip":"12722","miles_from_dt":22.34},{"city":"Westbrookville","state_name":"New York","lat":41.52429,"lng":-74.58051,"zip":"12785","miles_from_dt":22.79},{"city":"Cochecton","state_name":"New York","lat":41.64061,"lng":-74.96813,"zip":"12727","miles_from_dt":22.87},{"city":"Hankins","state_name":"New York","lat":41.84368,"lng":-75.07816,"zip":"12741","miles_from_dt":23.23},{"city":"Stone Ridge","state_name":"New York","lat":41.87024,"lng":-74.17338,"zip":"12484","miles_from_dt":23.49},{"city":"Mount Tremper","state_name":"New York","lat":42.03997,"lng":-74.24659,"zip":"12457","miles_from_dt":23.53},{"city":"Shandaken","state_name":"New York","lat":42.13803,"lng":-74.37683,"zip":"12480","miles_from_dt":23.56},{"city":"Thompson Ridge","state_name":"New York","lat":41.57697,"lng":-74.35782,"zip":"10985","miles_from_dt":23.61},{"city":"Eldred","state_name":"New York","lat":41.56075,"lng":-74.87353,"zip":"12732","miles_from_dt":23.81},{"city":"Chichester","state_name":"New York","lat":42.09554,"lng":-74.28592,"zip":"12416","miles_from_dt":24.32},{"city":"Highland Lake","state_name":"New York","lat":41.54065,"lng":-74.84687,"zip":"12743","miles_from_dt":24.32},{"city":"High Falls","state_name":"New York","lat":41.78665,"lng":-74.16338,"zip":"12440","miles_from_dt":24.42},{"city":"Downsville","state_name":"New York","lat":42.05976,"lng":-75.01524,"zip":"13755","miles_from_dt":24.54},{"city":"Cuddebackville","state_name":"New York","lat":41.49411,"lng":-74.61582,"zip":"12729","miles_from_dt":24.75},{"city":"Long Eddy","state_name":"New York","lat":41.90063,"lng":-75.10559,"zip":"12760","miles_from_dt":24.85},{"city":"Halcottsville","state_name":"New York","lat":42.21251,"lng":-74.59667,"zip":"12438","miles_from_dt":24.89},{"city":"Fleischmanns","state_name":"New York","lat":42.20306,"lng":-74.49933,"zip":"12430","miles_from_dt":25.08},{"city":"Willow","state_name":"New York","lat":42.08264,"lng":-74.24563,"zip":"12495","miles_from_dt":25.3},{"city":"Narrowsburg","state_name":"New York","lat":41.59639,"lng":-74.98515,"zip":"12764","miles_from_dt":25.56},{"city":"Glen Spey","state_name":"New York","lat":41.50529,"lng":-74.79941,"zip":"12737","miles_from_dt":25.56},{"city":"Circleville","state_name":"New York","lat":41.52836,"lng":-74.38327,"zip":"10919","miles_from_dt":25.72},{"city":"Bullville","state_name":"New York","lat":41.54022,"lng":-74.35714,"zip":"10915","miles_from_dt":25.72},{"city":"Damascus","state_name":"Pennsylvania","lat":41.74821,"lng":-75.11315,"zip":"18415","miles_from_dt":26.07},{"city":"Gardiner","state_name":"New York","lat":41.68115,"lng":-74.17751,"zip":"12525","miles_from_dt":26.12},{"city":"Delancey","state_name":"New York","lat":42.17257,"lng":-74.90379,"zip":"13752","miles_from_dt":26.25},{"city":"Glenford","state_name":"New York","lat":42.00533,"lng":-74.15526,"zip":"12433","miles_from_dt":26.55},{"city":"West Hurley","state_name":"New York","lat":41.96957,"lng":-74.13311,"zip":"12491","miles_from_dt":26.76},{"city":"East Branch","state_name":"New York","lat":42.01025,"lng":-75.10394,"zip":"13756","miles_from_dt":26.83},{"city":"New Kingston","state_name":"New York","lat":42.23976,"lng":-74.6805,"zip":"12459","miles_from_dt":26.85},{"city":"Howells","state_name":"New York","lat":41.482,"lng":-74.46352,"zip":"10932","miles_from_dt":26.96},{"city":"Otisville","state_name":"New York","lat":41.4669,"lng":-74.54121,"zip":"10963","miles_from_dt":27},{"city":"Lake Hill","state_name":"New York","lat":42.07955,"lng":-74.20067,"zip":"12448","miles_from_dt":27.02},{"city":"Cottekill","state_name":"New York","lat":41.85948,"lng":-74.10265,"zip":"12419","miles_from_dt":27.12},{"city":"West Kill","state_name":"New York","lat":42.18758,"lng":-74.33453,"zip":"12492","miles_from_dt":27.62},{"city":"Bearsville","state_name":"New York","lat":42.05662,"lng":-74.16655,"zip":"12409","miles_from_dt":27.63},{"city":"Huguenot","state_name":"New York","lat":41.44929,"lng":-74.65582,"zip":"12746","miles_from_dt":27.87},{"city":"Denver","state_name":"New York","lat":42.2512,"lng":-74.5336,"zip":"12421","miles_from_dt":27.93},{"city":"Milanville","state_name":"Pennsylvania","lat":41.66262,"lng":-75.11059,"zip":"18443","miles_from_dt":28.17},{"city":"New Paltz","state_name":"New York","lat":41.75602,"lng":-74.0958,"zip":"12561","miles_from_dt":28.28},{"city":"Sparrow Bush","state_name":"New York","lat":41.44514,"lng":-74.71989,"zip":"12780","miles_from_dt":28.52},{"city":"Hurley","state_name":"New York","lat":41.93388,"lng":-74.08536,"zip":"12443","miles_from_dt":28.54},{"city":"Rosendale","state_name":"New York","lat":41.84732,"lng":-74.07447,"zip":"12472","miles_from_dt":28.57},{"city":"Tyler Hill","state_name":"Pennsylvania","lat":41.70352,"lng":-75.14597,"zip":"18469","miles_from_dt":28.66},{"city":"Hamden","state_name":"New York","lat":42.17304,"lng":-74.9836,"zip":"13782","miles_from_dt":28.7},{"city":"Yulan","state_name":"New York","lat":41.51447,"lng":-74.95172,"zip":"12792","miles_from_dt":28.72},{"city":"Lanesville","state_name":"New York","lat":42.13804,"lng":-74.22176,"zip":"12450","miles_from_dt":28.73},{"city":"Wallkill","state_name":"New York","lat":41.6278,"lng":-74.15875,"zip":"12589","miles_from_dt":28.8},{"city":"Middletown","state_name":"New York","lat":41.45149,"lng":-74.46997,"zip":"10940","miles_from_dt":28.87},{"city":"Middletown","state_name":"New York","lat":41.48923,"lng":-74.34556,"zip":"10941","miles_from_dt":29.03},{"city":"Fishs Eddy","state_name":"New York","lat":41.96192,"lng":-75.17283,"zip":"13774","miles_from_dt":29.08},{"city":"Barryville","state_name":"New York","lat":41.48431,"lng":-74.90543,"zip":"12719","miles_from_dt":29.19},{"city":"Tillson","state_name":"New York","lat":41.83438,"lng":-74.06235,"zip":"12486","miles_from_dt":29.22},{"city":"Montgomery","state_name":"New York","lat":41.52957,"lng":-74.25843,"zip":"12549","miles_from_dt":29.37},{"city":"Equinunk","state_name":"Pennsylvania","lat":41.80705,"lng":-75.20122,"zip":"18417","miles_from_dt":29.75},{"city":"Bovina Center","state_name":"New York","lat":42.27535,"lng":-74.74498,"zip":"13740","miles_from_dt":29.79},{"city":"Beach Lake","state_name":"Pennsylvania","lat":41.59792,"lng":-75.09509,"zip":"18405","miles_from_dt":29.87},{"city":"Woodstock","state_name":"New York","lat":42.04772,"lng":-74.11007,"zip":"12498","miles_from_dt":29.89}],"targetCityZipCode":"12765","targetCityState":"New York"},"__N_SSG":true}