{"pageProps":{"stateName":"New-york","cityName":"verona-beach","nearbyCities":[{"city":"Sylvan Beach","state_name":"New York","lat":43.20288,"lng":-75.7254,"zip":"13157","miles_from_dt":1.07},{"city":"Durhamville","state_name":"New York","lat":43.16947,"lng":-75.66923,"zip":"13054","miles_from_dt":2.8},{"city":"North Bay","state_name":"New York","lat":43.22796,"lng":-75.75325,"zip":"13123","miles_from_dt":3.26},{"city":"Blossvale","state_name":"New York","lat":43.24865,"lng":-75.66686,"zip":"13308","miles_from_dt":4.91},{"city":"Wampsville","state_name":"New York","lat":43.08194,"lng":-75.70841,"zip":"13163","miles_from_dt":7.36},{"city":"Verona","state_name":"New York","lat":43.14916,"lng":-75.58009,"zip":"13478","miles_from_dt":7.49},{"city":"McConnellsville","state_name":"New York","lat":43.29132,"lng":-75.66852,"zip":"13401","miles_from_dt":7.54},{"city":"Canastota","state_name":"New York","lat":43.07793,"lng":-75.76275,"zip":"13032","miles_from_dt":7.95},{"city":"Cleveland","state_name":"New York","lat":43.26565,"lng":-75.85154,"zip":"13042","miles_from_dt":8.59},{"city":"Oneida","state_name":"New York","lat":43.06293,"lng":-75.64654,"zip":"13421","miles_from_dt":9.38},{"city":"Sherrill","state_name":"New York","lat":43.07115,"lng":-75.59866,"zip":"13461","miles_from_dt":10.1},{"city":"Clockville","state_name":"New York","lat":43.0398,"lng":-75.74409,"zip":"13043","miles_from_dt":10.34},{"city":"Chittenango","state_name":"New York","lat":43.06046,"lng":-75.86521,"zip":"13037","miles_from_dt":11.54},{"city":"Rome","state_name":"New York","lat":43.22549,"lng":-75.49228,"zip":"13449","miles_from_dt":11.69},{"city":"Bridgeport","state_name":"New York","lat":43.15962,"lng":-75.96052,"zip":"13030","miles_from_dt":12.4},{"city":"Vernon","state_name":"New York","lat":43.08728,"lng":-75.51219,"zip":"13476","miles_from_dt":12.54},{"city":"Bernhards Bay","state_name":"New York","lat":43.29226,"lng":-75.93107,"zip":"13028","miles_from_dt":12.92},{"city":"Rome","state_name":"New York","lat":43.21807,"lng":-75.45941,"zip":"13440","miles_from_dt":13.23},{"city":"Kirkville","state_name":"New York","lat":43.10148,"lng":-75.95253,"zip":"13082","miles_from_dt":13.27},{"city":"Rome","state_name":"New York","lat":43.21762,"lng":-75.44742,"zip":"13442","miles_from_dt":13.82},{"city":"Taberg","state_name":"New York","lat":43.37606,"lng":-75.6122,"zip":"13471","miles_from_dt":14.02},{"city":"Lee Center","state_name":"New York","lat":43.33127,"lng":-75.50984,"zip":"13363","miles_from_dt":14.42},{"city":"Vernon Center","state_name":"New York","lat":43.03633,"lng":-75.51441,"zip":"13477","miles_from_dt":14.71},{"city":"Peterboro","state_name":"New York","lat":42.96731,"lng":-75.68476,"zip":"13134","miles_from_dt":15.35},{"city":"Westdale","state_name":"New York","lat":43.40075,"lng":-75.81995,"zip":"13483","miles_from_dt":15.54},{"city":"Westmoreland","state_name":"New York","lat":43.10612,"lng":-75.42991,"zip":"13490","miles_from_dt":15.64},{"city":"Camden","state_name":"New York","lat":43.41492,"lng":-75.73963,"zip":"13316","miles_from_dt":15.68},{"city":"Rome","state_name":"New York","lat":43.22711,"lng":-75.40758,"zip":"13441","miles_from_dt":15.91},{"city":"Constantia","state_name":"New York","lat":43.2977,"lng":-75.99595,"zip":"13044","miles_from_dt":15.92},{"city":"Munnsville","state_name":"New York","lat":42.97602,"lng":-75.59131,"zip":"13409","miles_from_dt":16},{"city":"Minoa","state_name":"New York","lat":43.07449,"lng":-76.00796,"zip":"13116","miles_from_dt":16.62},{"city":"Knoxboro","state_name":"New York","lat":42.98434,"lng":-75.51901,"zip":"13362","miles_from_dt":17.32},{"city":"East Syracuse","state_name":"New York","lat":43.09543,"lng":-76.04014,"zip":"13057","miles_from_dt":17.49},{"city":"Cicero","state_name":"New York","lat":43.16678,"lng":-76.0654,"zip":"13039","miles_from_dt":17.6},{"city":"Ava","state_name":"New York","lat":43.36992,"lng":-75.46636,"zip":"13303","miles_from_dt":17.85},{"city":"Fayetteville","state_name":"New York","lat":43.03297,"lng":-76.00259,"zip":"13066","miles_from_dt":17.94},{"city":"Cazenovia","state_name":"New York","lat":42.93828,"lng":-75.82551,"zip":"13035","miles_from_dt":18.1},{"city":"Oriskany","state_name":"New York","lat":43.15228,"lng":-75.36291,"zip":"13424","miles_from_dt":18.12},{"city":"Morrisville","state_name":"New York","lat":42.92205,"lng":-75.66722,"zip":"13408","miles_from_dt":18.56},{"city":"Clark Mills","state_name":"New York","lat":43.08901,"lng":-75.37259,"zip":"13321","miles_from_dt":18.77},{"city":"Williamstown","state_name":"New York","lat":43.43162,"lng":-75.90102,"zip":"13493","miles_from_dt":19.16},{"city":"West Monroe","state_name":"New York","lat":43.3171,"lng":-76.0571,"zip":"13167","miles_from_dt":19.27},{"city":"Oriskany Falls","state_name":"New York","lat":42.9635,"lng":-75.48675,"zip":"13425","miles_from_dt":19.44},{"city":"Manlius","state_name":"New York","lat":42.96378,"lng":-75.95523,"zip":"13104","miles_from_dt":19.6},{"city":"Franklin Springs","state_name":"New York","lat":43.03468,"lng":-75.39075,"zip":"13341","miles_from_dt":19.67},{"city":"Clinton","state_name":"New York","lat":43.04198,"lng":-75.38144,"zip":"13323","miles_from_dt":19.8},{"city":"Whitesboro","state_name":"New York","lat":43.1172,"lng":-75.33023,"zip":"13492","miles_from_dt":20.22},{"city":"Deansboro","state_name":"New York","lat":42.98247,"lng":-75.42836,"zip":"13328","miles_from_dt":20.42},{"city":"Syracuse","state_name":"New York","lat":43.03865,"lng":-76.0741,"zip":"13214","miles_from_dt":20.75},{"city":"Syracuse","state_name":"New York","lat":43.10333,"lng":-76.11954,"zip":"13211","miles_from_dt":21.12},{"city":"Syracuse","state_name":"New York","lat":43.07354,"lng":-76.10584,"zip":"13206","miles_from_dt":21.14},{"city":"Syracuse","state_name":"New York","lat":43.12839,"lng":-76.12889,"zip":"13212","miles_from_dt":21.16},{"city":"Syracuse","state_name":"New York","lat":43.12549,"lng":-76.12973,"zip":"13220","miles_from_dt":21.24},{"city":"Syracuse","state_name":"New York","lat":43.12951,"lng":-76.13135,"zip":"13225","miles_from_dt":21.27},{"city":"Stittville","state_name":"New York","lat":43.22028,"lng":-75.29853,"zip":"13469","miles_from_dt":21.31},{"city":"Syracuse","state_name":"New York","lat":43.12257,"lng":-76.13287,"zip":"13250","miles_from_dt":21.44},{"city":"West Leyden","state_name":"New York","lat":43.46698,"lng":-75.52928,"zip":"13489","miles_from_dt":21.46},{"city":"Syracuse","state_name":"New York","lat":43.12374,"lng":-76.1351,"zip":"13251","miles_from_dt":21.53},{"city":"Solsville","state_name":"New York","lat":42.91064,"lng":-75.52102,"zip":"13465","miles_from_dt":21.61},{"city":"Mallory","state_name":"New York","lat":43.32652,"lng":-76.10507,"zip":"13103","miles_from_dt":21.72},{"city":"Bouckville","state_name":"New York","lat":42.89055,"lng":-75.57065,"zip":"13310","miles_from_dt":21.87},{"city":"Brewerton","state_name":"New York","lat":43.2236,"lng":-76.14993,"zip":"13029","miles_from_dt":21.94},{"city":"Syracuse","state_name":"New York","lat":43.03892,"lng":-76.10264,"zip":"13224","miles_from_dt":22.01},{"city":"New York Mills","state_name":"New York","lat":43.10002,"lng":-75.29399,"zip":"13417","miles_from_dt":22.29},{"city":"Westernville","state_name":"New York","lat":43.35707,"lng":-75.34088,"zip":"13486","miles_from_dt":22.32},{"city":"Erieville","state_name":"New York","lat":42.86493,"lng":-75.75173,"zip":"13061","miles_from_dt":22.39},{"city":"Madison","state_name":"New York","lat":42.90209,"lng":-75.50728,"zip":"13402","miles_from_dt":22.46},{"city":"Syracuse","state_name":"New York","lat":43.05184,"lng":-76.12316,"zip":"13217","miles_from_dt":22.54},{"city":"Marcy","state_name":"New York","lat":43.17041,"lng":-75.27188,"zip":"13403","miles_from_dt":22.58},{"city":"Syracuse","state_name":"New York","lat":43.061,"lng":-76.13486,"zip":"13203","miles_from_dt":22.83},{"city":"Syracuse","state_name":"New York","lat":43.07878,"lng":-76.14521,"zip":"13208","miles_from_dt":22.87},{"city":"Yorkville","state_name":"New York","lat":43.11087,"lng":-75.27744,"zip":"13495","miles_from_dt":22.91},{"city":"Holland Patent","state_name":"New York","lat":43.26612,"lng":-75.27199,"zip":"13354","miles_from_dt":23.16},{"city":"Delphi Falls","state_name":"New York","lat":42.88339,"lng":-75.91021,"zip":"13051","miles_from_dt":23.19},{"city":"West Eaton","state_name":"New York","lat":42.85426,"lng":-75.65549,"zip":"13484","miles_from_dt":23.28},{"city":"Syracuse","state_name":"New York","lat":43.03186,"lng":-76.12653,"zip":"13210","miles_from_dt":23.3},{"city":"Jamesville","state_name":"New York","lat":42.96206,"lng":-76.06171,"zip":"13078","miles_from_dt":23.37},{"city":"Syracuse","state_name":"New York","lat":43.04241,"lng":-76.13669,"zip":"13235","miles_from_dt":23.44},{"city":"Syracuse","state_name":"New York","lat":43.02318,"lng":-76.12329,"zip":"13244","miles_from_dt":23.45},{"city":"Syracuse","state_name":"New York","lat":43.04708,"lng":-76.14842,"zip":"13218","miles_from_dt":23.84},{"city":"Syracuse","state_name":"New York","lat":43.0488,"lng":-76.14983,"zip":"13221","miles_from_dt":23.86},{"city":"Syracuse","state_name":"New York","lat":43.04356,"lng":-76.15065,"zip":"13202","miles_from_dt":24.04},{"city":"Syracuse","state_name":"New York","lat":43.05008,"lng":-76.15453,"zip":"13261","miles_from_dt":24.04},{"city":"New Hartford","state_name":"New York","lat":43.0576,"lng":-75.27495,"zip":"13413","miles_from_dt":24.16},{"city":"Syracuse","state_name":"New York","lat":43.04858,"lng":-76.15656,"zip":"13252","miles_from_dt":24.17},{"city":"Clay","state_name":"New York","lat":43.19079,"lng":-76.19711,"zip":"13041","miles_from_dt":24.19},{"city":"Syracuse","state_name":"New York","lat":43.04092,"lng":-76.15264,"zip":"13201","miles_from_dt":24.21},{"city":"Washington Mills","state_name":"New York","lat":43.0566,"lng":-75.27399,"zip":"13479","miles_from_dt":24.23},{"city":"Syracuse","state_name":"New York","lat":43.07132,"lng":-76.17368,"zip":"13290","miles_from_dt":24.4},{"city":"Liverpool","state_name":"New York","lat":43.10787,"lng":-76.19096,"zip":"13088","miles_from_dt":24.53},{"city":"Eaton","state_name":"New York","lat":42.83445,"lng":-75.65986,"zip":"13334","miles_from_dt":24.61},{"city":"Altmar","state_name":"New York","lat":43.50261,"lng":-75.95044,"zip":"13302","miles_from_dt":24.65},{"city":"Hastings","state_name":"New York","lat":43.35364,"lng":-76.15182,"zip":"13076","miles_from_dt":24.67},{"city":"Central Square","state_name":"New York","lat":43.32268,"lng":-76.17402,"zip":"13036","miles_from_dt":24.8},{"city":"Parish","state_name":"New York","lat":43.41964,"lng":-76.09539,"zip":"13131","miles_from_dt":24.83},{"city":"Syracuse","state_name":"New York","lat":43.00474,"lng":-76.14163,"zip":"13205","miles_from_dt":24.89},{"city":"Pompey","state_name":"New York","lat":42.89915,"lng":-76.01461,"zip":"13138","miles_from_dt":24.97},{"city":"Syracuse","state_name":"New York","lat":43.05204,"lng":-76.17666,"zip":"13204","miles_from_dt":25.02},{"city":"Liverpool","state_name":"New York","lat":43.15162,"lng":-76.21344,"zip":"13090","miles_from_dt":25.15},{"city":"New Woodstock","state_name":"New York","lat":42.83857,"lng":-75.85919,"zip":"13122","miles_from_dt":25.18},{"city":"Utica","state_name":"New York","lat":43.10014,"lng":-75.23291,"zip":"13503","miles_from_dt":25.28},{"city":"Utica","state_name":"New York","lat":43.10041,"lng":-75.23047,"zip":"13505","miles_from_dt":25.39},{"city":"Chadwicks","state_name":"New York","lat":43.02705,"lng":-75.26593,"zip":"13319","miles_from_dt":25.44},{"city":"Sangerfield","state_name":"New York","lat":42.91791,"lng":-75.37655,"zip":"13455","miles_from_dt":25.45},{"city":"Utica","state_name":"New York","lat":43.0977,"lng":-75.22926,"zip":"13599","miles_from_dt":25.5},{"city":"Syracuse","state_name":"New York","lat":43.01221,"lng":-76.16354,"zip":"13207","miles_from_dt":25.6},{"city":"Liverpool","state_name":"New York","lat":43.13977,"lng":-76.22722,"zip":"13089","miles_from_dt":25.94},{"city":"Utica","state_name":"New York","lat":43.08138,"lng":-75.22611,"zip":"13501","miles_from_dt":25.95},{"city":"Waterville","state_name":"New York","lat":42.91424,"lng":-75.36699,"zip":"13480","miles_from_dt":25.96},{"city":"Sauquoit","state_name":"New York","lat":43.00145,"lng":-75.25855,"zip":"13456","miles_from_dt":26.59},{"city":"Hamilton","state_name":"New York","lat":42.82093,"lng":-75.54453,"zip":"13346","miles_from_dt":26.84},{"city":"Pennellville","state_name":"New York","lat":43.26547,"lng":-76.24446,"zip":"13132","miles_from_dt":27.09},{"city":"Fabius","state_name":"New York","lat":42.84429,"lng":-75.98023,"zip":"13063","miles_from_dt":27.21},{"city":"Boonville","state_name":"New York","lat":43.47398,"lng":-75.34103,"zip":"13309","miles_from_dt":27.39},{"city":"Syracuse","state_name":"New York","lat":43.08581,"lng":-76.24355,"zip":"13209","miles_from_dt":27.48},{"city":"Syracuse","state_name":"New York","lat":43.03969,"lng":-76.22277,"zip":"13219","miles_from_dt":27.5},{"city":"Utica","state_name":"New York","lat":43.08521,"lng":-75.18838,"zip":"13504","miles_from_dt":27.72},{"city":"Utica","state_name":"New York","lat":43.14121,"lng":-75.16584,"zip":"13502","miles_from_dt":28.1},{"city":"Barneveld","state_name":"New York","lat":43.23954,"lng":-75.1589,"zip":"13304","miles_from_dt":28.46},{"city":"Nedrow","state_name":"New York","lat":42.94233,"lng":-76.1695,"zip":"13120","miles_from_dt":28.46},{"city":"Redfield","state_name":"New York","lat":43.59677,"lng":-75.80383,"zip":"13437","miles_from_dt":28.52},{"city":"Maple View","state_name":"New York","lat":43.46048,"lng":-76.147,"zip":"13107","miles_from_dt":28.63},{"city":"Constableville","state_name":"New York","lat":43.58398,"lng":-75.54091,"zip":"13325","miles_from_dt":28.74},{"city":"La Fayette","state_name":"New York","lat":42.88938,"lng":-76.11314,"zip":"13084","miles_from_dt":28.74},{"city":"North Brookfield","state_name":"New York","lat":42.84519,"lng":-75.38213,"zip":"13418","miles_from_dt":29.17},{"city":"Orwell","state_name":"New York","lat":43.56057,"lng":-75.9931,"zip":"13426","miles_from_dt":29.19},{"city":"Richland","state_name":"New York","lat":43.57034,"lng":-75.97464,"zip":"13144","miles_from_dt":29.36},{"city":"Georgetown","state_name":"New York","lat":42.76243,"lng":-75.76296,"zip":"13072","miles_from_dt":29.49},{"city":"Cassville","state_name":"New York","lat":42.92366,"lng":-75.25958,"zip":"13318","miles_from_dt":29.54},{"city":"Syracuse","state_name":"New York","lat":42.97852,"lng":-76.22979,"zip":"13215","miles_from_dt":29.66},{"city":"Prospect","state_name":"New York","lat":43.30255,"lng":-75.15134,"zip":"13435","miles_from_dt":29.67}],"targetCityZipCode":"13162","targetCityState":"New York"},"__N_SSG":true}