{"pageProps":{"stateName":"New-york","cityName":"warners","nearbyCities":[{"city":"Camillus","state_name":"New York","lat":43.0448,"lng":-76.30775,"zip":"13031","miles_from_dt":3.41},{"city":"Syracuse","state_name":"New York","lat":43.08581,"lng":-76.24355,"zip":"13209","miles_from_dt":3.72},{"city":"Memphis","state_name":"New York","lat":43.10306,"lng":-76.41926,"zip":"13112","miles_from_dt":5.25},{"city":"Liverpool","state_name":"New York","lat":43.13977,"lng":-76.22722,"zip":"13089","miles_from_dt":5.51},{"city":"Baldwinsville","state_name":"New York","lat":43.16741,"lng":-76.36258,"zip":"13027","miles_from_dt":5.6},{"city":"Syracuse","state_name":"New York","lat":43.03969,"lng":-76.22277,"zip":"13219","miles_from_dt":6.03},{"city":"Liverpool","state_name":"New York","lat":43.10787,"lng":-76.19096,"zip":"13088","miles_from_dt":6.41},{"city":"Liverpool","state_name":"New York","lat":43.15162,"lng":-76.21344,"zip":"13090","miles_from_dt":6.56},{"city":"Elbridge","state_name":"New York","lat":43.02381,"lng":-76.41926,"zip":"13060","miles_from_dt":7.11},{"city":"Syracuse","state_name":"New York","lat":43.07132,"lng":-76.17368,"zip":"13290","miles_from_dt":7.38},{"city":"Syracuse","state_name":"New York","lat":43.05204,"lng":-76.17666,"zip":"13204","miles_from_dt":7.63},{"city":"Plainville","state_name":"New York","lat":43.15165,"lng":-76.446,"zip":"13137","miles_from_dt":7.68},{"city":"Jordan","state_name":"New York","lat":43.08338,"lng":-76.47776,"zip":"13080","miles_from_dt":8.2},{"city":"Marcellus","state_name":"New York","lat":42.97349,"lng":-76.33069,"zip":"13108","miles_from_dt":8.34},{"city":"Syracuse","state_name":"New York","lat":43.04858,"lng":-76.15656,"zip":"13252","miles_from_dt":8.66},{"city":"Syracuse","state_name":"New York","lat":43.05008,"lng":-76.15453,"zip":"13261","miles_from_dt":8.72},{"city":"Syracuse","state_name":"New York","lat":43.07878,"lng":-76.14521,"zip":"13208","miles_from_dt":8.72},{"city":"Syracuse","state_name":"New York","lat":43.0488,"lng":-76.14983,"zip":"13221","miles_from_dt":8.98},{"city":"Clay","state_name":"New York","lat":43.19079,"lng":-76.19711,"zip":"13041","miles_from_dt":9.01},{"city":"Syracuse","state_name":"New York","lat":43.04092,"lng":-76.15264,"zip":"13201","miles_from_dt":9.05},{"city":"Syracuse","state_name":"New York","lat":43.04356,"lng":-76.15065,"zip":"13202","miles_from_dt":9.07},{"city":"Syracuse","state_name":"New York","lat":42.97852,"lng":-76.22979,"zip":"13215","miles_from_dt":9.08},{"city":"Syracuse","state_name":"New York","lat":43.04708,"lng":-76.14842,"zip":"13218","miles_from_dt":9.09},{"city":"Syracuse","state_name":"New York","lat":43.12374,"lng":-76.1351,"zip":"13251","miles_from_dt":9.39},{"city":"Syracuse","state_name":"New York","lat":43.061,"lng":-76.13486,"zip":"13203","miles_from_dt":9.45},{"city":"Syracuse","state_name":"New York","lat":43.12257,"lng":-76.13287,"zip":"13250","miles_from_dt":9.49},{"city":"Syracuse","state_name":"New York","lat":43.01221,"lng":-76.16354,"zip":"13207","miles_from_dt":9.56},{"city":"Syracuse","state_name":"New York","lat":43.12951,"lng":-76.13135,"zip":"13225","miles_from_dt":9.67},{"city":"Syracuse","state_name":"New York","lat":43.12549,"lng":-76.12973,"zip":"13220","miles_from_dt":9.68},{"city":"Syracuse","state_name":"New York","lat":43.04241,"lng":-76.13669,"zip":"13235","miles_from_dt":9.76},{"city":"Syracuse","state_name":"New York","lat":43.12839,"lng":-76.12889,"zip":"13212","miles_from_dt":9.77},{"city":"Skaneateles Falls","state_name":"New York","lat":42.9945,"lng":-76.45476,"zip":"13153","miles_from_dt":9.8},{"city":"Syracuse","state_name":"New York","lat":43.10333,"lng":-76.11954,"zip":"13211","miles_from_dt":9.97},{"city":"Syracuse","state_name":"New York","lat":43.05184,"lng":-76.12316,"zip":"13217","miles_from_dt":10.19},{"city":"Mottville","state_name":"New York","lat":42.97655,"lng":-76.44488,"zip":"13119","miles_from_dt":10.39},{"city":"Syracuse","state_name":"New York","lat":43.03186,"lng":-76.12653,"zip":"13210","miles_from_dt":10.51},{"city":"Syracuse","state_name":"New York","lat":43.07354,"lng":-76.10584,"zip":"13206","miles_from_dt":10.74},{"city":"Syracuse","state_name":"New York","lat":43.00474,"lng":-76.14163,"zip":"13205","miles_from_dt":10.77},{"city":"Syracuse","state_name":"New York","lat":43.02318,"lng":-76.12329,"zip":"13244","miles_from_dt":10.92},{"city":"Phoenix","state_name":"New York","lat":43.25801,"lng":-76.31676,"zip":"13135","miles_from_dt":11.34},{"city":"Syracuse","state_name":"New York","lat":43.03892,"lng":-76.10264,"zip":"13224","miles_from_dt":11.46},{"city":"Meridian","state_name":"New York","lat":43.16425,"lng":-76.53488,"zip":"13113","miles_from_dt":12.08},{"city":"Weedsport","state_name":"New York","lat":43.07219,"lng":-76.5568,"zip":"13166","miles_from_dt":12.26},{"city":"Brewerton","state_name":"New York","lat":43.2236,"lng":-76.14993,"zip":"13029","miles_from_dt":12.29},{"city":"Pennellville","state_name":"New York","lat":43.26547,"lng":-76.24446,"zip":"13132","miles_from_dt":12.4},{"city":"Nedrow","state_name":"New York","lat":42.94233,"lng":-76.1695,"zip":"13120","miles_from_dt":12.83},{"city":"Syracuse","state_name":"New York","lat":43.03865,"lng":-76.0741,"zip":"13214","miles_from_dt":12.83},{"city":"Cicero","state_name":"New York","lat":43.16678,"lng":-76.0654,"zip":"13039","miles_from_dt":13.65},{"city":"East Syracuse","state_name":"New York","lat":43.09543,"lng":-76.04014,"zip":"13057","miles_from_dt":13.97},{"city":"Marietta","state_name":"New York","lat":42.89019,"lng":-76.28507,"zip":"13110","miles_from_dt":14.14},{"city":"Skaneateles","state_name":"New York","lat":42.89323,"lng":-76.38518,"zip":"13152","miles_from_dt":14.28},{"city":"Cato","state_name":"New York","lat":43.1852,"lng":-76.57044,"zip":"13033","miles_from_dt":14.32},{"city":"Minoa","state_name":"New York","lat":43.07449,"lng":-76.00796,"zip":"13116","miles_from_dt":15.66},{"city":"Jamesville","state_name":"New York","lat":42.96206,"lng":-76.06171,"zip":"13078","miles_from_dt":15.78},{"city":"Fayetteville","state_name":"New York","lat":43.03297,"lng":-76.00259,"zip":"13066","miles_from_dt":16.42},{"city":"Fulton","state_name":"New York","lat":43.33081,"lng":-76.37867,"zip":"13069","miles_from_dt":16.66},{"city":"Auburn","state_name":"New York","lat":42.91996,"lng":-76.55292,"zip":"13022","miles_from_dt":16.96},{"city":"Auburn","state_name":"New York","lat":42.93453,"lng":-76.57424,"zip":"13024","miles_from_dt":17.08},{"city":"Auburn","state_name":"New York","lat":42.91713,"lng":-76.5542,"zip":"13021","miles_from_dt":17.15},{"city":"Central Square","state_name":"New York","lat":43.32268,"lng":-76.17402,"zip":"13036","miles_from_dt":17.36},{"city":"La Fayette","state_name":"New York","lat":42.88938,"lng":-76.11314,"zip":"13084","miles_from_dt":17.46},{"city":"Port Byron","state_name":"New York","lat":43.05891,"lng":-76.65841,"zip":"13140","miles_from_dt":17.48},{"city":"Kirkville","state_name":"New York","lat":43.10148,"lng":-75.95253,"zip":"13082","miles_from_dt":18.41},{"city":"Bridgeport","state_name":"New York","lat":43.15962,"lng":-75.96052,"zip":"13030","miles_from_dt":18.55},{"city":"Hannibal","state_name":"New York","lat":43.31035,"lng":-76.54786,"zip":"13074","miles_from_dt":18.98},{"city":"Martville","state_name":"New York","lat":43.25988,"lng":-76.61858,"zip":"13111","miles_from_dt":19.1},{"city":"Mallory","state_name":"New York","lat":43.32652,"lng":-76.10507,"zip":"13103","miles_from_dt":19.28},{"city":"Hastings","state_name":"New York","lat":43.35364,"lng":-76.15182,"zip":"13076","miles_from_dt":19.77},{"city":"West Monroe","state_name":"New York","lat":43.3171,"lng":-76.0571,"zip":"13167","miles_from_dt":20.22},{"city":"Pompey","state_name":"New York","lat":42.89915,"lng":-76.01461,"zip":"13138","miles_from_dt":20.35},{"city":"Manlius","state_name":"New York","lat":42.96378,"lng":-75.95523,"zip":"13104","miles_from_dt":20.37},{"city":"Montezuma","state_name":"New York","lat":43.01007,"lng":-76.70838,"zip":"13117","miles_from_dt":20.67},{"city":"Constantia","state_name":"New York","lat":43.2977,"lng":-75.99595,"zip":"13044","miles_from_dt":21.45},{"city":"Minetto","state_name":"New York","lat":43.3937,"lng":-76.47462,"zip":"13115","miles_from_dt":22.19},{"city":"Red Creek","state_name":"New York","lat":43.23325,"lng":-76.71545,"zip":"13143","miles_from_dt":22.35},{"city":"Savannah","state_name":"New York","lat":43.09711,"lng":-76.76031,"zip":"13146","miles_from_dt":22.47},{"city":"Tully","state_name":"New York","lat":42.80321,"lng":-76.11545,"zip":"13159","miles_from_dt":22.49},{"city":"South Butler","state_name":"New York","lat":43.13378,"lng":-76.76192,"zip":"13154","miles_from_dt":22.71},{"city":"Apulia Station","state_name":"New York","lat":42.81646,"lng":-76.07458,"zip":"13020","miles_from_dt":22.73},{"city":"Cayuga","state_name":"New York","lat":42.91366,"lng":-76.69502,"zip":"13034","miles_from_dt":22.87},{"city":"Chittenango","state_name":"New York","lat":43.06046,"lng":-75.86521,"zip":"13037","miles_from_dt":22.94},{"city":"Preble","state_name":"New York","lat":42.76684,"lng":-76.18616,"zip":"13141","miles_from_dt":23.51},{"city":"Bernhards Bay","state_name":"New York","lat":43.29226,"lng":-75.93107,"zip":"13028","miles_from_dt":23.8},{"city":"Moravia","state_name":"New York","lat":42.75226,"lng":-76.39522,"zip":"13118","miles_from_dt":23.91},{"city":"Sterling","state_name":"New York","lat":43.33355,"lng":-76.66249,"zip":"13156","miles_from_dt":24.07},{"city":"Fabius","state_name":"New York","lat":42.84429,"lng":-75.98023,"zip":"13063","miles_from_dt":24.22},{"city":"Oswego","state_name":"New York","lat":43.43469,"lng":-76.46331,"zip":"13126","miles_from_dt":24.68},{"city":"Fair Haven","state_name":"New York","lat":43.31943,"lng":-76.70275,"zip":"13064","miles_from_dt":24.97},{"city":"Parish","state_name":"New York","lat":43.41964,"lng":-76.09539,"zip":"13131","miles_from_dt":25.1},{"city":"Union Springs","state_name":"New York","lat":42.82613,"lng":-76.65157,"zip":"13160","miles_from_dt":25.11},{"city":"Delphi Falls","state_name":"New York","lat":42.88339,"lng":-75.91021,"zip":"13051","miles_from_dt":25.19},{"city":"Scipio Center","state_name":"New York","lat":42.77336,"lng":-76.56603,"zip":"13147","miles_from_dt":25.49},{"city":"Mexico","state_name":"New York","lat":43.46386,"lng":-76.24328,"zip":"13114","miles_from_dt":25.81},{"city":"Cleveland","state_name":"New York","lat":43.26565,"lng":-75.85154,"zip":"13042","miles_from_dt":26.31},{"city":"Seneca Falls","state_name":"New York","lat":42.9208,"lng":-76.78106,"zip":"13148","miles_from_dt":26.4},{"city":"Maple View","state_name":"New York","lat":43.46048,"lng":-76.147,"zip":"13107","miles_from_dt":26.72},{"city":"Homer","state_name":"New York","lat":42.71557,"lng":-76.20089,"zip":"13077","miles_from_dt":26.76},{"city":"New Haven","state_name":"New York","lat":43.48491,"lng":-76.30966,"zip":"13121","miles_from_dt":27},{"city":"Cazenovia","state_name":"New York","lat":42.93828,"lng":-75.82551,"zip":"13035","miles_from_dt":27.08},{"city":"Wolcott","state_name":"New York","lat":43.24533,"lng":-76.83099,"zip":"14590","miles_from_dt":28.03},{"city":"Canastota","state_name":"New York","lat":43.07793,"lng":-75.76275,"zip":"13032","miles_from_dt":28.03},{"city":"Poplar Ridge","state_name":"New York","lat":42.74057,"lng":-76.59794,"zip":"13139","miles_from_dt":28.26},{"city":"Lycoming","state_name":"New York","lat":43.50137,"lng":-76.38857,"zip":"13093","miles_from_dt":28.37},{"city":"Clyde","state_name":"New York","lat":43.07939,"lng":-76.87779,"zip":"14433","miles_from_dt":28.43},{"city":"Little York","state_name":"New York","lat":42.69634,"lng":-76.16493,"zip":"13087","miles_from_dt":28.49},{"city":"Rose","state_name":"New York","lat":43.15306,"lng":-76.87595,"zip":"14542","miles_from_dt":28.6},{"city":"New Woodstock","state_name":"New York","lat":42.83857,"lng":-75.85919,"zip":"13122","miles_from_dt":29.11},{"city":"Clockville","state_name":"New York","lat":43.0398,"lng":-75.74409,"zip":"13043","miles_from_dt":29.2},{"city":"Aurora","state_name":"New York","lat":42.75044,"lng":-76.65968,"zip":"13026","miles_from_dt":29.41},{"city":"North Bay","state_name":"New York","lat":43.22796,"lng":-75.75325,"zip":"13123","miles_from_dt":29.92}],"targetCityZipCode":"13164","targetCityState":"New York"},"__N_SSG":true}