{"pageProps":{"stateName":"Tennessee","cityName":"atwood","nearbyCities":[{"city":"Trezevant","state_name":"Tennessee","lat":36.02094,"lng":-88.61188,"zip":"38258","miles_from_dt":4.1},{"city":"McLemoresville","state_name":"Tennessee","lat":35.99116,"lng":-88.58109,"zip":"38235","miles_from_dt":5.15},{"city":"Milan","state_name":"Tennessee","lat":35.91661,"lng":-88.75934,"zip":"38358","miles_from_dt":6.92},{"city":"Idlewild","state_name":"Tennessee","lat":36.02863,"lng":-88.8013,"zip":"38346","miles_from_dt":7.7},{"city":"Lavinia","state_name":"Tennessee","lat":35.86893,"lng":-88.65198,"zip":"38348","miles_from_dt":8.32},{"city":"Bradford","state_name":"Tennessee","lat":36.06873,"lng":-88.81547,"zip":"38316","miles_from_dt":9.71},{"city":"McKenzie","state_name":"Tennessee","lat":36.12335,"lng":-88.53131,"zip":"38201","miles_from_dt":12.23},{"city":"Gibson","state_name":"Tennessee","lat":35.87483,"lng":-88.84863,"zip":"38338","miles_from_dt":12.58},{"city":"Greenfield","state_name":"Tennessee","lat":36.15592,"lng":-88.77154,"zip":"38230","miles_from_dt":12.8},{"city":"Cedar Grove","state_name":"Tennessee","lat":35.83341,"lng":-88.53013,"zip":"38321","miles_from_dt":13.35},{"city":"Huntingdon","state_name":"Tennessee","lat":35.97716,"lng":-88.43066,"zip":"38344","miles_from_dt":13.6},{"city":"Medina","state_name":"Tennessee","lat":35.78637,"lng":-88.76942,"zip":"38355","miles_from_dt":14.94},{"city":"Spring Creek","state_name":"Tennessee","lat":35.76906,"lng":-88.66544,"zip":"38378","miles_from_dt":15.13},{"city":"Gleason","state_name":"Tennessee","lat":36.22108,"lng":-88.60939,"zip":"38229","miles_from_dt":16.44},{"city":"Trenton","state_name":"Tennessee","lat":35.96925,"lng":-88.99186,"zip":"38382","miles_from_dt":17.92},{"city":"Humboldt","state_name":"Tennessee","lat":35.82727,"lng":-88.92819,"zip":"38343","miles_from_dt":18.12},{"city":"Clarksburg","state_name":"Tennessee","lat":35.86284,"lng":-88.37933,"zip":"38324","miles_from_dt":18.6},{"city":"Oakfield","state_name":"Tennessee","lat":35.72696,"lng":-88.78508,"zip":"38362","miles_from_dt":19.09},{"city":"Rutherford","state_name":"Tennessee","lat":36.13253,"lng":-88.9652,"zip":"38369","miles_from_dt":19.14},{"city":"Yuma","state_name":"Tennessee","lat":35.83845,"lng":-88.37797,"zip":"38390","miles_from_dt":19.51},{"city":"Sharon","state_name":"Tennessee","lat":36.23954,"lng":-88.86483,"zip":"38255","miles_from_dt":20.37},{"city":"Jackson","state_name":"Tennessee","lat":35.70108,"lng":-88.76779,"zip":"38305","miles_from_dt":20.51},{"city":"Henry","state_name":"Tennessee","lat":36.21277,"lng":-88.42442,"zip":"38231","miles_from_dt":20.81},{"city":"Dyer","state_name":"Tennessee","lat":36.0675,"lng":-89.03316,"zip":"38330","miles_from_dt":20.9},{"city":"Dresden","state_name":"Tennessee","lat":36.31764,"lng":-88.67937,"zip":"38225","miles_from_dt":22.71},{"city":"Hollow Rock","state_name":"Tennessee","lat":36.10766,"lng":-88.29024,"zip":"38342","miles_from_dt":22.96},{"city":"Bruceton","state_name":"Tennessee","lat":36.05425,"lng":-88.26965,"zip":"38317","miles_from_dt":23.04},{"city":"Buena Vista","state_name":"Tennessee","lat":35.95687,"lng":-88.26189,"zip":"38318","miles_from_dt":23.14},{"city":"Gadsden","state_name":"Tennessee","lat":35.78515,"lng":-89.01149,"zip":"38337","miles_from_dt":23.6},{"city":"Westport","state_name":"Tennessee","lat":35.86573,"lng":-88.26968,"zip":"38387","miles_from_dt":24.15},{"city":"Wildersville","state_name":"Tennessee","lat":35.77672,"lng":-88.31535,"zip":"38388","miles_from_dt":24.81},{"city":"Jackson","state_name":"Tennessee","lat":35.63927,"lng":-88.82373,"zip":"38303","miles_from_dt":25.51},{"city":"Kenton","state_name":"Tennessee","lat":36.20411,"lng":-89.04622,"zip":"38233","miles_from_dt":25.64},{"city":"Eaton","state_name":"Tennessee","lat":35.97297,"lng":-89.13343,"zip":"38331","miles_from_dt":25.82},{"city":"Mansfield","state_name":"Tennessee","lat":36.17572,"lng":-88.26463,"zip":"38236","miles_from_dt":26.25},{"city":"Yorkville","state_name":"Tennessee","lat":36.10315,"lng":-89.12134,"zip":"38389","miles_from_dt":26.32},{"city":"Martin","state_name":"Tennessee","lat":36.34433,"lng":-88.85826,"zip":"38238","miles_from_dt":26.64},{"city":"Beech Bluff","state_name":"Tennessee","lat":35.60107,"lng":-88.62541,"zip":"38313","miles_from_dt":26.83},{"city":"Lexington","state_name":"Tennessee","lat":35.66324,"lng":-88.40401,"zip":"38351","miles_from_dt":27.03},{"city":"Martin","state_name":"Tennessee","lat":36.36406,"lng":-88.83162,"zip":"38237","miles_from_dt":27.38},{"city":"Como","state_name":"Tennessee","lat":36.35779,"lng":-88.4638,"zip":"38223","miles_from_dt":28.03},{"city":"Jackson","state_name":"Tennessee","lat":35.59363,"lng":-88.82053,"zip":"38308","miles_from_dt":28.45},{"city":"Fruitvale","state_name":"Tennessee","lat":35.71881,"lng":-89.06498,"zip":"38336","miles_from_dt":28.8},{"city":"Huron","state_name":"Tennessee","lat":35.59109,"lng":-88.51163,"zip":"38345","miles_from_dt":28.85},{"city":"Paris","state_name":"Tennessee","lat":36.3076,"lng":-88.33244,"zip":"38242","miles_from_dt":29.11},{"city":"Jackson","state_name":"Tennessee","lat":35.5908,"lng":-88.8531,"zip":"38301","miles_from_dt":29.22},{"city":"Jackson","state_name":"Tennessee","lat":35.59022,"lng":-88.86077,"zip":"38302","miles_from_dt":29.41},{"city":"Alamo","state_name":"Tennessee","lat":35.81323,"lng":-89.15505,"zip":"38001","miles_from_dt":29.61},{"city":"Cottage Grove","state_name":"Tennessee","lat":36.39172,"lng":-88.48774,"zip":"38224","miles_from_dt":29.68},{"city":"Crockett Mills","state_name":"Tennessee","lat":35.87042,"lng":-89.18411,"zip":"38021","miles_from_dt":29.79},{"city":"Jackson","state_name":"Tennessee","lat":35.57268,"lng":-88.8213,"zip":"38314","miles_from_dt":29.85}],"targetCityZipCode":"38220","targetCityState":"Tennessee"},"__N_SSG":true}