{"pageProps":{"stateName":"Tennessee","cityName":"celina","nearbyCities":[{"city":"Hestand","state_name":"Kentucky","lat":36.64848,"lng":-85.56058,"zip":"42151","miles_from_dt":7.46},{"city":"Moss","state_name":"Tennessee","lat":36.55848,"lng":-85.63515,"zip":"38575","miles_from_dt":8.24},{"city":"Hilham","state_name":"Tennessee","lat":36.43594,"lng":-85.46907,"zip":"38568","miles_from_dt":8.48},{"city":"Allons","state_name":"Tennessee","lat":36.52903,"lng":-85.33767,"zip":"38541","miles_from_dt":8.55},{"city":"Whitleyville","state_name":"Tennessee","lat":36.45613,"lng":-85.7189,"zip":"38588","miles_from_dt":14.7},{"city":"Tompkinsville","state_name":"Kentucky","lat":36.72432,"lng":-85.66998,"zip":"42167","miles_from_dt":15.33},{"city":"Livingston","state_name":"Tennessee","lat":36.37678,"lng":-85.31983,"zip":"38570","miles_from_dt":15.58},{"city":"Monroe","state_name":"Tennessee","lat":36.48945,"lng":-85.21931,"zip":"38573","miles_from_dt":15.63},{"city":"Burkesville","state_name":"Kentucky","lat":36.78169,"lng":-85.38331,"zip":"42717","miles_from_dt":16.46},{"city":"Gainesboro","state_name":"Tennessee","lat":36.35173,"lng":-85.65932,"zip":"38562","miles_from_dt":17.16},{"city":"Red Boiling Springs","state_name":"Tennessee","lat":36.54437,"lng":-85.81082,"zip":"37150","miles_from_dt":18.04},{"city":"Byrdstown","state_name":"Tennessee","lat":36.5617,"lng":-85.15243,"zip":"38549","miles_from_dt":18.61},{"city":"Marrowbone","state_name":"Kentucky","lat":36.82909,"lng":-85.51334,"zip":"42759","miles_from_dt":18.75},{"city":"Gamaliel","state_name":"Kentucky","lat":36.65549,"lng":-85.83108,"zip":"42140","miles_from_dt":20.27},{"city":"Rickman","state_name":"Tennessee","lat":36.27729,"lng":-85.29522,"zip":"38580","miles_from_dt":22.11},{"city":"Alpine","state_name":"Tennessee","lat":36.37514,"lng":-85.15931,"zip":"38543","miles_from_dt":22.18},{"city":"Beaumont","state_name":"Kentucky","lat":36.86534,"lng":-85.64817,"zip":"42124","miles_from_dt":23},{"city":"Cookeville","state_name":"Tennessee","lat":36.22682,"lng":-85.53841,"zip":"38501","miles_from_dt":23.02},{"city":"Albany","state_name":"Kentucky","lat":36.73201,"lng":-85.13324,"zip":"42602","miles_from_dt":23.03},{"city":"Allred","state_name":"Tennessee","lat":36.31576,"lng":-85.20113,"zip":"38542","miles_from_dt":23.08},{"city":"Mount Hermon","state_name":"Kentucky","lat":36.78872,"lng":-85.8187,"zip":"42157","miles_from_dt":24.34},{"city":"Bloomington Springs","state_name":"Tennessee","lat":36.23133,"lng":-85.65964,"zip":"38545","miles_from_dt":24.5},{"city":"Granville","state_name":"Tennessee","lat":36.27144,"lng":-85.75364,"zip":"38564","miles_from_dt":24.73},{"city":"Summer Shade","state_name":"Kentucky","lat":36.87768,"lng":-85.71503,"zip":"42166","miles_from_dt":25.42},{"city":"Cookeville","state_name":"Tennessee","lat":36.18334,"lng":-85.44246,"zip":"38506","miles_from_dt":25.95},{"city":"Cookeville","state_name":"Tennessee","lat":36.17316,"lng":-85.50559,"zip":"38505","miles_from_dt":26.56},{"city":"Pleasant Shade","state_name":"Tennessee","lat":36.38179,"lng":-85.91203,"zip":"37145","miles_from_dt":26.61},{"city":"Breeding","state_name":"Kentucky","lat":36.94352,"lng":-85.4134,"zip":"42715","miles_from_dt":26.89},{"city":"Cookeville","state_name":"Tennessee","lat":36.16333,"lng":-85.50588,"zip":"38503","miles_from_dt":27.24},{"city":"Cookeville","state_name":"Tennessee","lat":36.16105,"lng":-85.49944,"zip":"38502","miles_from_dt":27.38},{"city":"Crawford","state_name":"Tennessee","lat":36.25131,"lng":-85.16095,"zip":"38554","miles_from_dt":27.88},{"city":"Fountain Run","state_name":"Kentucky","lat":36.72248,"lng":-85.95468,"zip":"42133","miles_from_dt":28.35},{"city":"Lafayette","state_name":"Tennessee","lat":36.54357,"lng":-86.00149,"zip":"37083","miles_from_dt":28.64},{"city":"Wilder","state_name":"Tennessee","lat":36.28551,"lng":-85.07624,"zip":"38589","miles_from_dt":29.61},{"city":"Chestnut Mound","state_name":"Tennessee","lat":36.2166,"lng":-85.81195,"zip":"38552","miles_from_dt":29.71},{"city":"Eighty Eight","state_name":"Kentucky","lat":36.9224,"lng":-85.77816,"zip":"42130","miles_from_dt":29.87},{"city":"Etoile","state_name":"Kentucky","lat":36.82734,"lng":-85.90915,"zip":"42131","miles_from_dt":29.91}],"targetCityZipCode":"38551","targetCityState":"Tennessee"},"__N_SSG":true}