{"pageProps":{"stateName":"Tennessee","cityName":"charlotte","nearbyCities":[{"city":"White Bluff","state_name":"Tennessee","lat":36.1471,"lng":-87.19885,"zip":"37187","miles_from_dt":7.58},{"city":"Southside","state_name":"Tennessee","lat":36.36442,"lng":-87.30365,"zip":"37171","miles_from_dt":8.77},{"city":"Cumberland Furnace","state_name":"Tennessee","lat":36.30426,"lng":-87.41405,"zip":"37051","miles_from_dt":9.1},{"city":"Ashland City","state_name":"Tennessee","lat":36.28798,"lng":-87.08113,"zip":"37015","miles_from_dt":11.15},{"city":"Slayden","state_name":"Tennessee","lat":36.29005,"lng":-87.46943,"zip":"37165","miles_from_dt":11.57},{"city":"Cunningham","state_name":"Tennessee","lat":36.37534,"lng":-87.40095,"zip":"37052","miles_from_dt":11.8},{"city":"Vanleer","state_name":"Tennessee","lat":36.241,"lng":-87.49706,"zip":"37181","miles_from_dt":12.58},{"city":"Dickson","state_name":"Tennessee","lat":36.0768,"lng":-87.37717,"zip":"37056","miles_from_dt":12.69},{"city":"Chapmansboro","state_name":"Tennessee","lat":36.3849,"lng":-87.12602,"zip":"37035","miles_from_dt":12.9},{"city":"Kingston Springs","state_name":"Tennessee","lat":36.09717,"lng":-87.11484,"zip":"37082","miles_from_dt":13.18},{"city":"Burns","state_name":"Tennessee","lat":36.04253,"lng":-87.2678,"zip":"37029","miles_from_dt":13.6},{"city":"Dickson","state_name":"Tennessee","lat":36.07921,"lng":-87.44238,"zip":"37055","miles_from_dt":14.61},{"city":"Pegram","state_name":"Tennessee","lat":36.13137,"lng":-87.03038,"zip":"37143","miles_from_dt":15.43},{"city":"Palmyra","state_name":"Tennessee","lat":36.41164,"lng":-87.50112,"zip":"37142","miles_from_dt":17.44},{"city":"Pleasant View","state_name":"Tennessee","lat":36.4047,"lng":-87.03123,"zip":"37146","miles_from_dt":17.59},{"city":"Clarksville","state_name":"Tennessee","lat":36.49842,"lng":-87.23197,"zip":"37043","miles_from_dt":17.97},{"city":"Fairview","state_name":"Tennessee","lat":35.98833,"lng":-87.13483,"zip":"37062","miles_from_dt":18.96},{"city":"Clarksville","state_name":"Tennessee","lat":36.52408,"lng":-87.33287,"zip":"37040","miles_from_dt":19.9},{"city":"Bon Aqua","state_name":"Tennessee","lat":35.95263,"lng":-87.30855,"zip":"37025","miles_from_dt":19.91},{"city":"Clarksville","state_name":"Tennessee","lat":36.52938,"lng":-87.33763,"zip":"37044","miles_from_dt":20.3},{"city":"Nashville","state_name":"Tennessee","lat":36.15591,"lng":-86.91638,"zip":"37209","miles_from_dt":20.69},{"city":"Joelton","state_name":"Tennessee","lat":36.32901,"lng":-86.91633,"zip":"37080","miles_from_dt":20.78},{"city":"Nashville","state_name":"Tennessee","lat":36.05991,"lng":-86.97189,"zip":"37221","miles_from_dt":20.86},{"city":"Nashville","state_name":"Tennessee","lat":36.20814,"lng":-86.89158,"zip":"37218","miles_from_dt":21.35},{"city":"Erin","state_name":"Tennessee","lat":36.28918,"lng":-87.66528,"zip":"37061","miles_from_dt":22.23},{"city":"Cumberland City","state_name":"Tennessee","lat":36.3713,"lng":-87.63586,"zip":"37050","miles_from_dt":22.25},{"city":"Antioch","state_name":"Tennessee","lat":36.17252,"lng":-86.88084,"zip":"37011","miles_from_dt":22.33},{"city":"Clarksville","state_name":"Tennessee","lat":36.5612,"lng":-87.34874,"zip":"37041","miles_from_dt":22.57},{"city":"Woodlawn","state_name":"Tennessee","lat":36.50726,"lng":-87.52392,"zip":"37191","miles_from_dt":23.19},{"city":"McEwen","state_name":"Tennessee","lat":36.06625,"lng":-87.63741,"zip":"37101","miles_from_dt":23.69},{"city":"Clarksville","state_name":"Tennessee","lat":36.56894,"lng":-87.41225,"zip":"37042","miles_from_dt":24.01},{"city":"Nashville","state_name":"Tennessee","lat":36.11075,"lng":-86.87274,"zip":"37205","miles_from_dt":24.02},{"city":"Cedar Hill","state_name":"Tennessee","lat":36.52518,"lng":-87.01647,"zip":"37032","miles_from_dt":24.29},{"city":"Adams","state_name":"Tennessee","lat":36.5675,"lng":-87.10894,"zip":"37010","miles_from_dt":24.35},{"city":"Whites Creek","state_name":"Tennessee","lat":36.27875,"lng":-86.82983,"zip":"37189","miles_from_dt":24.83},{"city":"Lyles","state_name":"Tennessee","lat":35.87142,"lng":-87.31075,"zip":"37098","miles_from_dt":25.49},{"city":"Nashville","state_name":"Tennessee","lat":36.17691,"lng":-86.80901,"zip":"37208","miles_from_dt":26.22},{"city":"Nashville","state_name":"Tennessee","lat":36.19513,"lng":-86.80418,"zip":"37228","miles_from_dt":26.31},{"city":"Nashville","state_name":"Tennessee","lat":36.08197,"lng":-86.83492,"zip":"37215","miles_from_dt":26.74},{"city":"Nashville","state_name":"Tennessee","lat":36.1481,"lng":-86.80545,"zip":"37235","miles_from_dt":26.82},{"city":"Franklin","state_name":"Tennessee","lat":35.98753,"lng":-86.90664,"zip":"37069","miles_from_dt":26.83},{"city":"Nashville","state_name":"Tennessee","lat":36.15028,"lng":-86.80247,"zip":"37236","miles_from_dt":26.95},{"city":"Nashville","state_name":"Tennessee","lat":36.14338,"lng":-86.80336,"zip":"37240","miles_from_dt":27.01},{"city":"Nashville","state_name":"Tennessee","lat":36.1411,"lng":-86.8029,"zip":"37232","miles_from_dt":27.08},{"city":"Nashville","state_name":"Tennessee","lat":36.13376,"lng":-86.80167,"zip":"37212","miles_from_dt":27.28},{"city":"Nashville","state_name":"Tennessee","lat":36.15111,"lng":-86.79558,"zip":"37224","miles_from_dt":27.31},{"city":"Indian Mound","state_name":"Tennessee","lat":36.4826,"lng":-87.65939,"zip":"37079","miles_from_dt":27.34},{"city":"Nashville","state_name":"Tennessee","lat":36.14925,"lng":-86.79283,"zip":"37202","miles_from_dt":27.49},{"city":"Primm Springs","state_name":"Tennessee","lat":35.84341,"lng":-87.20984,"zip":"38476","miles_from_dt":27.55},{"city":"Nashville","state_name":"Tennessee","lat":36.15033,"lng":-86.79093,"zip":"37234","miles_from_dt":27.57},{"city":"Nashville","state_name":"Tennessee","lat":36.23278,"lng":-86.77765,"zip":"37207","miles_from_dt":27.61},{"city":"Nashville","state_name":"Tennessee","lat":36.16622,"lng":-86.78588,"zip":"37244","miles_from_dt":27.62},{"city":"Nashville","state_name":"Tennessee","lat":36.14937,"lng":-86.78986,"zip":"37203","miles_from_dt":27.65},{"city":"Nashville","state_name":"Tennessee","lat":36.16289,"lng":-86.78573,"zip":"37243","miles_from_dt":27.68},{"city":"Nashville","state_name":"Tennessee","lat":36.16628,"lng":-86.78373,"zip":"37246","miles_from_dt":27.74},{"city":"Nashville","state_name":"Tennessee","lat":36.1663,"lng":-86.78299,"zip":"37219","miles_from_dt":27.78},{"city":"Nashville","state_name":"Tennessee","lat":36.16312,"lng":-86.78334,"zip":"37242","miles_from_dt":27.8},{"city":"Nashville","state_name":"Tennessee","lat":36.16127,"lng":-86.78368,"zip":"37250","miles_from_dt":27.81},{"city":"Nashville","state_name":"Tennessee","lat":36.14871,"lng":-86.7853,"zip":"37230","miles_from_dt":27.91},{"city":"Nashville","state_name":"Tennessee","lat":36.1657,"lng":-86.77946,"zip":"37238","miles_from_dt":27.98},{"city":"Nunnelly","state_name":"Tennessee","lat":35.87912,"lng":-87.50276,"zip":"37137","miles_from_dt":28.03},{"city":"Nashville","state_name":"Tennessee","lat":36.16662,"lng":-86.77799,"zip":"37201","miles_from_dt":28.05},{"city":"Nashville","state_name":"Tennessee","lat":36.16654,"lng":-86.76731,"zip":"37213","miles_from_dt":28.64},{"city":"Greenbrier","state_name":"Tennessee","lat":36.42834,"lng":-86.81414,"zip":"37073","miles_from_dt":28.65},{"city":"Nashville","state_name":"Tennessee","lat":36.10669,"lng":-86.77463,"zip":"37204","miles_from_dt":29.27},{"city":"Tennessee Ridge","state_name":"Tennessee","lat":36.3195,"lng":-87.78694,"zip":"37178","miles_from_dt":29.28},{"city":"Fort Campbell","state_name":"Kentucky","lat":36.6381,"lng":-87.47258,"zip":"42223","miles_from_dt":29.65},{"city":"Madison","state_name":"Tennessee","lat":36.19351,"lng":-86.74341,"zip":"37116","miles_from_dt":29.69},{"city":"Franklin","state_name":"Tennessee","lat":35.88966,"lng":-86.96112,"zip":"37064","miles_from_dt":29.75},{"city":"Nashville","state_name":"Tennessee","lat":36.06759,"lng":-86.78127,"zip":"37220","miles_from_dt":29.89}],"targetCityZipCode":"37036","targetCityState":"Tennessee"},"__N_SSG":true}