{"pageProps":{"stateName":"Tennessee","cityName":"decherd","nearbyCities":[{"city":"Cowan","state_name":"Tennessee","lat":35.17879,"lng":-85.97994,"zip":"37318","miles_from_dt":5.21},{"city":"Sewanee","state_name":"Tennessee","lat":35.20984,"lng":-85.91373,"zip":"37383","miles_from_dt":5.72},{"city":"Arnold Afb","state_name":"Tennessee","lat":35.32018,"lng":-86.06745,"zip":"37389","miles_from_dt":6.01},{"city":"Estill Springs","state_name":"Tennessee","lat":35.28411,"lng":-86.12967,"zip":"37330","miles_from_dt":7.62},{"city":"Winchester","state_name":"Tennessee","lat":35.18182,"lng":-86.13808,"zip":"37398","miles_from_dt":9.19},{"city":"Hillsboro","state_name":"Tennessee","lat":35.38175,"lng":-85.94937,"zip":"37342","miles_from_dt":9.37},{"city":"Sewanee","state_name":"Tennessee","lat":35.15355,"lng":-85.88173,"zip":"37375","miles_from_dt":9.57},{"city":"Pelham","state_name":"Tennessee","lat":35.32054,"lng":-85.84224,"zip":"37366","miles_from_dt":10.1},{"city":"Monteagle","state_name":"Tennessee","lat":35.22952,"lng":-85.82393,"zip":"37356","miles_from_dt":10.11},{"city":"Tullahoma","state_name":"Tennessee","lat":35.35141,"lng":-86.19747,"zip":"37388","miles_from_dt":13.06},{"city":"Sherwood","state_name":"Tennessee","lat":35.04748,"lng":-85.95834,"zip":"37376","miles_from_dt":14.33},{"city":"Belvidere","state_name":"Tennessee","lat":35.09776,"lng":-86.18928,"zip":"37306","miles_from_dt":15.1},{"city":"Manchester","state_name":"Tennessee","lat":35.4676,"lng":-86.08333,"zip":"37349","miles_from_dt":15.55},{"city":"Tracy City","state_name":"Tennessee","lat":35.27745,"lng":-85.71427,"zip":"37387","miles_from_dt":16.27},{"city":"Altamont","state_name":"Tennessee","lat":35.42765,"lng":-85.80295,"zip":"37301","miles_from_dt":16.44},{"city":"Manchester","state_name":"Tennessee","lat":35.50843,"lng":-86.07866,"zip":"37355","miles_from_dt":18.19},{"city":"South Pittsburg","state_name":"Tennessee","lat":35.07265,"lng":-85.75754,"zip":"37380","miles_from_dt":18.52},{"city":"Coalmont","state_name":"Tennessee","lat":35.37703,"lng":-85.70245,"zip":"37313","miles_from_dt":18.9},{"city":"Normandy","state_name":"Tennessee","lat":35.44702,"lng":-86.25586,"zip":"37360","miles_from_dt":19.7},{"city":"Lynchburg","state_name":"Tennessee","lat":35.27981,"lng":-86.35417,"zip":"37352","miles_from_dt":20.09},{"city":"Huntland","state_name":"Tennessee","lat":35.0366,"lng":-86.24299,"zip":"37345","miles_from_dt":20.25},{"city":"Sequatchie","state_name":"Tennessee","lat":35.16404,"lng":-85.65818,"zip":"37374","miles_from_dt":20.3},{"city":"Summitville","state_name":"Tennessee","lat":35.55777,"lng":-85.99317,"zip":"37382","miles_from_dt":21.05},{"city":"Viola","state_name":"Tennessee","lat":35.53918,"lng":-85.86047,"zip":"37394","miles_from_dt":21.28},{"city":"Beersheba Springs","state_name":"Tennessee","lat":35.45795,"lng":-85.70195,"zip":"37305","miles_from_dt":22.02},{"city":"Gruetli Laager","state_name":"Tennessee","lat":35.37386,"lng":-85.63222,"zip":"37339","miles_from_dt":22.43},{"city":"Mulberry","state_name":"Tennessee","lat":35.19776,"lng":-86.4119,"zip":"37359","miles_from_dt":23.58},{"city":"Morrison","state_name":"Tennessee","lat":35.59454,"lng":-85.92003,"zip":"37357","miles_from_dt":24.01},{"city":"Estillfork","state_name":"Alabama","lat":34.94101,"lng":-86.20002,"zip":"35745","miles_from_dt":24.27},{"city":"Wartrace","state_name":"Tennessee","lat":35.5104,"lng":-86.30162,"zip":"37183","miles_from_dt":24.6},{"city":"Bridgeport","state_name":"Alabama","lat":34.95009,"lng":-85.75855,"zip":"35740","miles_from_dt":24.95},{"city":"Jasper","state_name":"Tennessee","lat":35.06088,"lng":-85.61894,"zip":"37347","miles_from_dt":25.32},{"city":"Stevenson","state_name":"Alabama","lat":34.89152,"lng":-85.88614,"zip":"35772","miles_from_dt":25.71},{"city":"Elora","state_name":"Tennessee","lat":35.02825,"lng":-86.36876,"zip":"37328","miles_from_dt":25.96},{"city":"Flintville","state_name":"Tennessee","lat":35.06584,"lng":-86.40548,"zip":"37335","miles_from_dt":26.29},{"city":"Kelso","state_name":"Tennessee","lat":35.11935,"lng":-86.44222,"zip":"37348","miles_from_dt":26.63},{"city":"Palmer","state_name":"Tennessee","lat":35.37287,"lng":-85.54013,"zip":"37365","miles_from_dt":27.3},{"city":"Whitwell","state_name":"Tennessee","lat":35.21046,"lng":-85.51819,"zip":"37397","miles_from_dt":27.43},{"city":"Smartt","state_name":"Tennessee","lat":35.64737,"lng":-85.83397,"zip":"37378","miles_from_dt":28.8},{"city":"Beechgrove","state_name":"Tennessee","lat":35.64255,"lng":-86.19876,"zip":"37018","miles_from_dt":29.12},{"city":"Fackler","state_name":"Alabama","lat":34.8287,"lng":-85.99868,"zip":"35746","miles_from_dt":29.22}],"targetCityZipCode":"37324","targetCityState":"Tennessee"},"__N_SSG":true}