{"pageProps":{"stateName":"Tennessee","cityName":"deer-lodge","nearbyCities":[{"city":"Clarkrange","state_name":"Tennessee","lat":36.20322,"lng":-85.00442,"zip":"38553","miles_from_dt":9.27},{"city":"Sunbright","state_name":"Tennessee","lat":36.26869,"lng":-84.68119,"zip":"37872","miles_from_dt":9.84},{"city":"Grimsley","state_name":"Tennessee","lat":36.26296,"lng":-85.00992,"zip":"38565","miles_from_dt":10.38},{"city":"Lancing","state_name":"Tennessee","lat":36.15239,"lng":-84.6418,"zip":"37770","miles_from_dt":11.58},{"city":"Rugby","state_name":"Tennessee","lat":36.35676,"lng":-84.69497,"zip":"37733","miles_from_dt":13.2},{"city":"Crossville","state_name":"Tennessee","lat":36.00532,"lng":-84.87374,"zip":"38558","miles_from_dt":13.88},{"city":"Allardt","state_name":"Tennessee","lat":36.39314,"lng":-84.73528,"zip":"38504","miles_from_dt":14.22},{"city":"Wilder","state_name":"Tennessee","lat":36.28551,"lng":-85.07624,"zip":"38589","miles_from_dt":14.4},{"city":"Crossville","state_name":"Tennessee","lat":36.0513,"lng":-85.01374,"zip":"38571","miles_from_dt":14.41},{"city":"Elgin","state_name":"Tennessee","lat":36.32792,"lng":-84.6282,"zip":"37732","miles_from_dt":14.5},{"city":"Jamestown","state_name":"Tennessee","lat":36.41016,"lng":-84.9249,"zip":"38556","miles_from_dt":14.97},{"city":"Wartburg","state_name":"Tennessee","lat":36.0772,"lng":-84.61573,"zip":"37887","miles_from_dt":15.25},{"city":"Crab Orchard","state_name":"Tennessee","lat":35.96044,"lng":-84.82171,"zip":"37723","miles_from_dt":16.86},{"city":"Robbins","state_name":"Tennessee","lat":36.32365,"lng":-84.57454,"zip":"37852","miles_from_dt":16.87},{"city":"Crossville","state_name":"Tennessee","lat":35.97897,"lng":-84.97066,"zip":"38557","miles_from_dt":17.23},{"city":"Crawford","state_name":"Tennessee","lat":36.25131,"lng":-85.16095,"zip":"38554","miles_from_dt":18.29},{"city":"Oakdale","state_name":"Tennessee","lat":36.00094,"lng":-84.61331,"zip":"37829","miles_from_dt":18.87},{"city":"Alpine","state_name":"Tennessee","lat":36.37514,"lng":-85.15931,"zip":"38543","miles_from_dt":21.42},{"city":"Allred","state_name":"Tennessee","lat":36.31576,"lng":-85.20113,"zip":"38542","miles_from_dt":21.65},{"city":"Monterey","state_name":"Tennessee","lat":36.141,"lng":-85.22498,"zip":"38574","miles_from_dt":22.04},{"city":"Helenwood","state_name":"Tennessee","lat":36.42249,"lng":-84.53166,"zip":"37755","miles_from_dt":22.78},{"city":"Petros","state_name":"Tennessee","lat":36.10369,"lng":-84.45022,"zip":"37845","miles_from_dt":22.8},{"city":"Crossville","state_name":"Tennessee","lat":35.88956,"lng":-84.97537,"zip":"38555","miles_from_dt":23.03},{"city":"Rockwood","state_name":"Tennessee","lat":35.88004,"lng":-84.71454,"zip":"37854","miles_from_dt":23.43},{"city":"Huntsville","state_name":"Tennessee","lat":36.30165,"lng":-84.40704,"zip":"37756","miles_from_dt":25.01},{"city":"Harriman","state_name":"Tennessee","lat":35.94797,"lng":-84.51413,"zip":"37748","miles_from_dt":25.36},{"city":"Pleasant Hill","state_name":"Tennessee","lat":35.98031,"lng":-85.19886,"zip":"38578","miles_from_dt":25.41},{"city":"Pall Mall","state_name":"Tennessee","lat":36.56453,"lng":-84.94651,"zip":"38577","miles_from_dt":25.53},{"city":"Rickman","state_name":"Tennessee","lat":36.27729,"lng":-85.29522,"zip":"38580","miles_from_dt":25.99},{"city":"Coalfield","state_name":"Tennessee","lat":36.02196,"lng":-84.42815,"zip":"37719","miles_from_dt":26.19},{"city":"Oneida","state_name":"Tennessee","lat":36.5088,"lng":-84.54665,"zip":"37841","miles_from_dt":26.55},{"city":"Oliver Springs","state_name":"Tennessee","lat":36.05849,"lng":-84.37047,"zip":"37840","miles_from_dt":28.06},{"city":"Grandview","state_name":"Tennessee","lat":35.78594,"lng":-84.86651,"zip":"37337","miles_from_dt":28.91},{"city":"Monroe","state_name":"Tennessee","lat":36.48945,"lng":-85.21931,"zip":"38573","miles_from_dt":28.92},{"city":"Briceville","state_name":"Tennessee","lat":36.15802,"lng":-84.3177,"zip":"37710","miles_from_dt":29.29},{"city":"Livingston","state_name":"Tennessee","lat":36.37678,"lng":-85.31983,"zip":"38570","miles_from_dt":29.37},{"city":"Crossville","state_name":"Tennessee","lat":35.84764,"lng":-85.12778,"zip":"38572","miles_from_dt":29.46}],"targetCityZipCode":"37726","targetCityState":"Tennessee"},"__N_SSG":true}