{"pageProps":{"stateName":"Tennessee","cityName":"dresden","nearbyCities":[{"city":"Gleason","state_name":"Tennessee","lat":36.22108,"lng":-88.60939,"zip":"38229","miles_from_dt":7.72},{"city":"Martin","state_name":"Tennessee","lat":36.36406,"lng":-88.83162,"zip":"38237","miles_from_dt":9.08},{"city":"Palmersville","state_name":"Tennessee","lat":36.42852,"lng":-88.58964,"zip":"38241","miles_from_dt":9.14},{"city":"Martin","state_name":"Tennessee","lat":36.34433,"lng":-88.85826,"zip":"38238","miles_from_dt":10.15},{"city":"Dukedom","state_name":"Tennessee","lat":36.47722,"lng":-88.66382,"zip":"38226","miles_from_dt":11.04},{"city":"Sharon","state_name":"Tennessee","lat":36.23954,"lng":-88.86483,"zip":"38255","miles_from_dt":11.67},{"city":"Cottage Grove","state_name":"Tennessee","lat":36.39172,"lng":-88.48774,"zip":"38224","miles_from_dt":11.85},{"city":"Greenfield","state_name":"Tennessee","lat":36.15592,"lng":-88.77154,"zip":"38230","miles_from_dt":12.28},{"city":"Como","state_name":"Tennessee","lat":36.35779,"lng":-88.4638,"zip":"38223","miles_from_dt":12.34},{"city":"South Fulton","state_name":"Tennessee","lat":36.46386,"lng":-88.88397,"zip":"38257","miles_from_dt":15.22},{"city":"McKenzie","state_name":"Tennessee","lat":36.12335,"lng":-88.53131,"zip":"38201","miles_from_dt":15.74},{"city":"Henry","state_name":"Tennessee","lat":36.21277,"lng":-88.42442,"zip":"38231","miles_from_dt":15.97},{"city":"Sedalia","state_name":"Kentucky","lat":36.55978,"lng":-88.57611,"zip":"42079","miles_from_dt":17.66},{"city":"Lynnville","state_name":"Kentucky","lat":36.55928,"lng":-88.56838,"zip":"42063","miles_from_dt":17.77},{"city":"Water Valley","state_name":"Kentucky","lat":36.56942,"lng":-88.80044,"zip":"42085","miles_from_dt":18.62},{"city":"Bradford","state_name":"Tennessee","lat":36.06873,"lng":-88.81547,"zip":"38316","miles_from_dt":18.77},{"city":"Fulton","state_name":"Kentucky","lat":36.54593,"lng":-88.87456,"zip":"42041","miles_from_dt":19.13},{"city":"Paris","state_name":"Tennessee","lat":36.3076,"lng":-88.33244,"zip":"38242","miles_from_dt":19.37},{"city":"Puryear","state_name":"Tennessee","lat":36.44636,"lng":-88.3539,"zip":"38251","miles_from_dt":20.2},{"city":"Rutherford","state_name":"Tennessee","lat":36.13253,"lng":-88.9652,"zip":"38369","miles_from_dt":20.44},{"city":"Trezevant","state_name":"Tennessee","lat":36.02094,"lng":-88.61188,"zip":"38258","miles_from_dt":20.8},{"city":"Idlewild","state_name":"Tennessee","lat":36.02863,"lng":-88.8013,"zip":"38346","miles_from_dt":21.06},{"city":"Wingo","state_name":"Kentucky","lat":36.61808,"lng":-88.75409,"zip":"42088","miles_from_dt":21.13},{"city":"Rives","state_name":"Tennessee","lat":36.29821,"lng":-89.05822,"zip":"38253","miles_from_dt":21.18},{"city":"Kenton","state_name":"Tennessee","lat":36.20411,"lng":-89.04622,"zip":"38233","miles_from_dt":21.93},{"city":"Union City","state_name":"Tennessee","lat":36.42585,"lng":-89.04984,"zip":"38281","miles_from_dt":21.96},{"city":"Atwood","state_name":"Tennessee","lat":35.98836,"lng":-88.673,"zip":"38220","miles_from_dt":22.71},{"city":"McLemoresville","state_name":"Tennessee","lat":35.99116,"lng":-88.58109,"zip":"38235","miles_from_dt":23.17},{"city":"Farmington","state_name":"Kentucky","lat":36.62454,"lng":-88.50371,"zip":"42040","miles_from_dt":23.31},{"city":"Hazel","state_name":"Kentucky","lat":36.51874,"lng":-88.31828,"zip":"42049","miles_from_dt":24.44},{"city":"Mansfield","state_name":"Tennessee","lat":36.17572,"lng":-88.26463,"zip":"38236","miles_from_dt":25.15},{"city":"Union City","state_name":"Tennessee","lat":36.43214,"lng":-89.11583,"zip":"38261","miles_from_dt":25.58},{"city":"Woodland Mills","state_name":"Tennessee","lat":36.43031,"lng":-89.123,"zip":"38271","miles_from_dt":25.93},{"city":"Hollow Rock","state_name":"Tennessee","lat":36.10766,"lng":-88.29024,"zip":"38342","miles_from_dt":26.12},{"city":"Dyer","state_name":"Tennessee","lat":36.0675,"lng":-89.03316,"zip":"38330","miles_from_dt":26.24},{"city":"Huntingdon","state_name":"Tennessee","lat":35.97716,"lng":-88.43066,"zip":"38344","miles_from_dt":27.29},{"city":"Milan","state_name":"Tennessee","lat":35.91661,"lng":-88.75934,"zip":"38358","miles_from_dt":28.01},{"city":"Mayfield","state_name":"Kentucky","lat":36.73328,"lng":-88.6403,"zip":"42066","miles_from_dt":28.74},{"city":"Yorkville","state_name":"Tennessee","lat":36.10315,"lng":-89.12134,"zip":"38389","miles_from_dt":28.78},{"city":"Bruceton","state_name":"Tennessee","lat":36.05425,"lng":-88.26965,"zip":"38317","miles_from_dt":29.23},{"city":"Trimble","state_name":"Tennessee","lat":36.20204,"lng":-89.18439,"zip":"38259","miles_from_dt":29.31},{"city":"Trenton","state_name":"Tennessee","lat":35.96925,"lng":-88.99186,"zip":"38382","miles_from_dt":29.71},{"city":"Troy","state_name":"Tennessee","lat":36.36961,"lng":-89.21128,"zip":"38260","miles_from_dt":29.89}],"targetCityZipCode":"38225","targetCityState":"Tennessee"},"__N_SSG":true}