{"pageProps":{"stateName":"Tennessee","cityName":"flag-pond","nearbyCities":[{"city":"Erwin","state_name":"Tennessee","lat":36.10416,"lng":-82.45938,"zip":"37650","miles_from_dt":8.25},{"city":"Mars Hill","state_name":"North Carolina","lat":35.87696,"lng":-82.51441,"zip":"28754","miles_from_dt":10.01},{"city":"Marshall","state_name":"North Carolina","lat":35.87181,"lng":-82.7002,"zip":"28753","miles_from_dt":12.72},{"city":"Chuckey","state_name":"Tennessee","lat":36.20015,"lng":-82.66306,"zip":"37641","miles_from_dt":13.85},{"city":"Green Mountain","state_name":"North Carolina","lat":36.04118,"lng":-82.30287,"zip":"28740","miles_from_dt":14.53},{"city":"Telford","state_name":"Tennessee","lat":36.25124,"lng":-82.55895,"zip":"37690","miles_from_dt":16.13},{"city":"Limestone","state_name":"Tennessee","lat":36.25465,"lng":-82.62672,"zip":"37681","miles_from_dt":16.78},{"city":"Greeneville","state_name":"Tennessee","lat":36.06663,"lng":-82.85659,"zip":"37743","miles_from_dt":16.92},{"city":"Burnsville","state_name":"North Carolina","lat":35.87739,"lng":-82.30714,"zip":"28714","miles_from_dt":17.17},{"city":"Greeneville","state_name":"Tennessee","lat":36.16334,"lng":-82.81243,"zip":"37744","miles_from_dt":17.32},{"city":"Afton","state_name":"Tennessee","lat":36.22619,"lng":-82.7498,"zip":"37616","miles_from_dt":17.88},{"city":"Unicoi","state_name":"Tennessee","lat":36.18456,"lng":-82.30413,"zip":"37692","miles_from_dt":18.41},{"city":"Jonesborough","state_name":"Tennessee","lat":36.28074,"lng":-82.4938,"zip":"37659","miles_from_dt":18.55},{"city":"Barnardsville","state_name":"North Carolina","lat":35.76321,"lng":-82.40428,"zip":"28709","miles_from_dt":19.59},{"city":"Weaverville","state_name":"North Carolina","lat":35.72795,"lng":-82.52306,"zip":"28787","miles_from_dt":20.06},{"city":"Micaville","state_name":"North Carolina","lat":35.90825,"lng":-82.21756,"zip":"28755","miles_from_dt":20.64},{"city":"Johnson City","state_name":"Tennessee","lat":36.29923,"lng":-82.38302,"zip":"37604","miles_from_dt":21.83},{"city":"Alexander","state_name":"North Carolina","lat":35.70558,"lng":-82.64096,"zip":"28701","miles_from_dt":21.96},{"city":"Johnson City","state_name":"Tennessee","lat":36.30567,"lng":-82.38327,"zip":"37602","miles_from_dt":22.22},{"city":"Johnson City","state_name":"Tennessee","lat":36.30097,"lng":-82.36741,"zip":"37614","miles_from_dt":22.35},{"city":"Mountain Home","state_name":"Tennessee","lat":36.3067,"lng":-82.37744,"zip":"37684","miles_from_dt":22.43},{"city":"Bakersville","state_name":"North Carolina","lat":36.04349,"lng":-82.1573,"zip":"28705","miles_from_dt":22.66},{"city":"Greeneville","state_name":"Tennessee","lat":36.2784,"lng":-82.82631,"zip":"37745","miles_from_dt":23.35},{"city":"Hot Springs","state_name":"North Carolina","lat":35.80869,"lng":-82.90114,"zip":"28743","miles_from_dt":23.91},{"city":"Milligan College","state_name":"Tennessee","lat":36.30035,"lng":-82.29169,"zip":"37682","miles_from_dt":24.64},{"city":"Johnson City","state_name":"Tennessee","lat":36.32838,"lng":-82.31974,"zip":"37601","miles_from_dt":25.33},{"city":"Asheville","state_name":"North Carolina","lat":35.64814,"lng":-82.5612,"zip":"28804","miles_from_dt":25.45},{"city":"Penland","state_name":"North Carolina","lat":35.92802,"lng":-82.11699,"zip":"28765","miles_from_dt":25.61},{"city":"Mosheim","state_name":"Tennessee","lat":36.18581,"lng":-82.97233,"zip":"37818","miles_from_dt":25.8},{"city":"Johnson City","state_name":"Tennessee","lat":36.34731,"lng":-82.33204,"zip":"37605","miles_from_dt":26.1},{"city":"Del Rio","state_name":"Tennessee","lat":35.88885,"lng":-83.00651,"zip":"37727","miles_from_dt":26.52},{"city":"Fall Branch","state_name":"Tennessee","lat":36.39997,"lng":-82.63075,"zip":"37656","miles_from_dt":26.68},{"city":"Johnson City","state_name":"Tennessee","lat":36.39771,"lng":-82.45246,"zip":"37615","miles_from_dt":26.92},{"city":"Asheville","state_name":"North Carolina","lat":35.62368,"lng":-82.55448,"zip":"28814","miles_from_dt":27.14},{"city":"Leicester","state_name":"North Carolina","lat":35.65492,"lng":-82.76032,"zip":"28748","miles_from_dt":27.38},{"city":"Parrottsville","state_name":"Tennessee","lat":36.01137,"lng":-83.04979,"zip":"37843","miles_from_dt":27.41},{"city":"Asheville","state_name":"North Carolina","lat":35.61528,"lng":-82.47923,"zip":"28805","miles_from_dt":28.09},{"city":"Midway","state_name":"Tennessee","lat":36.15431,"lng":-83.03611,"zip":"37809","miles_from_dt":28.24},{"city":"Hampton","state_name":"Tennessee","lat":36.26352,"lng":-82.1535,"zip":"37658","miles_from_dt":28.4},{"city":"Roan Mountain","state_name":"Tennessee","lat":36.18667,"lng":-82.09667,"zip":"37687","miles_from_dt":28.46},{"city":"Little Switzerland","state_name":"North Carolina","lat":35.84098,"lng":-82.09797,"zip":"28749","miles_from_dt":28.65},{"city":"Spruce Pine","state_name":"North Carolina","lat":35.90833,"lng":-82.06617,"zip":"28777","miles_from_dt":28.71},{"city":"Swannanoa","state_name":"North Carolina","lat":35.61667,"lng":-82.40768,"zip":"28778","miles_from_dt":28.92},{"city":"Asheville","state_name":"North Carolina","lat":35.59441,"lng":-82.55785,"zip":"28801","miles_from_dt":29.15},{"city":"Montreat","state_name":"North Carolina","lat":35.64781,"lng":-82.30006,"zip":"28757","miles_from_dt":29.37},{"city":"Elizabethton","state_name":"Tennessee","lat":36.3474,"lng":-82.21375,"zip":"37644","miles_from_dt":29.9},{"city":"Watauga","state_name":"Tennessee","lat":36.3849,"lng":-82.27588,"zip":"37694","miles_from_dt":29.93}],"targetCityZipCode":"37657","targetCityState":"Tennessee"},"__N_SSG":true}