{"pageProps":{"stateName":"Tennessee","cityName":"fosterville","nearbyCities":[{"city":"Christiana","state_name":"Tennessee","lat":35.70272,"lng":-86.35318,"zip":"37037","miles_from_dt":3.54},{"city":"Murfreesboro","state_name":"Tennessee","lat":35.77947,"lng":-86.32723,"zip":"37127","miles_from_dt":4.15},{"city":"Murfreesboro","state_name":"Tennessee","lat":35.80343,"lng":-86.47483,"zip":"37128","miles_from_dt":6.3},{"city":"Murfreesboro","state_name":"Tennessee","lat":35.84027,"lng":-86.39405,"zip":"37133","miles_from_dt":6.55},{"city":"Murfreesboro","state_name":"Tennessee","lat":35.84873,"lng":-86.36284,"zip":"37132","miles_from_dt":7.26},{"city":"Murfreesboro","state_name":"Tennessee","lat":35.85324,"lng":-86.39602,"zip":"37131","miles_from_dt":7.45},{"city":"Bell Buckle","state_name":"Tennessee","lat":35.62563,"lng":-86.39927,"zip":"37020","miles_from_dt":8.28},{"city":"Rockvale","state_name":"Tennessee","lat":35.7645,"lng":-86.55531,"zip":"37153","miles_from_dt":9.49},{"city":"Murfreesboro","state_name":"Tennessee","lat":35.8809,"lng":-86.33003,"zip":"37130","miles_from_dt":9.89},{"city":"Readyville","state_name":"Tennessee","lat":35.80876,"lng":-86.19311,"zip":"37149","miles_from_dt":11.79},{"city":"Murfreesboro","state_name":"Tennessee","lat":35.92556,"lng":-86.44098,"zip":"37129","miles_from_dt":12.77},{"city":"Beechgrove","state_name":"Tennessee","lat":35.64255,"lng":-86.19876,"zip":"37018","miles_from_dt":12.8},{"city":"Unionville","state_name":"Tennessee","lat":35.6189,"lng":-86.57679,"zip":"37180","miles_from_dt":13.74},{"city":"Eagleville","state_name":"Tennessee","lat":35.74924,"lng":-86.63428,"zip":"37060","miles_from_dt":13.84},{"city":"Lascassas","state_name":"Tennessee","lat":35.95308,"lng":-86.27912,"zip":"37085","miles_from_dt":15.57},{"city":"Bradyville","state_name":"Tennessee","lat":35.69578,"lng":-86.10746,"zip":"37026","miles_from_dt":16.15},{"city":"Milton","state_name":"Tennessee","lat":35.92569,"lng":-86.18903,"zip":"37118","miles_from_dt":16.71},{"city":"Wartrace","state_name":"Tennessee","lat":35.5104,"lng":-86.30162,"zip":"37183","miles_from_dt":16.92},{"city":"Smyrna","state_name":"Tennessee","lat":35.96325,"lng":-86.52922,"zip":"37167","miles_from_dt":16.98},{"city":"Arrington","state_name":"Tennessee","lat":35.8725,"lng":-86.6532,"zip":"37014","miles_from_dt":17.27},{"city":"Shelbyville","state_name":"Tennessee","lat":35.49154,"lng":-86.44599,"zip":"37162","miles_from_dt":17.81},{"city":"Shelbyville","state_name":"Tennessee","lat":35.48444,"lng":-86.46117,"zip":"37161","miles_from_dt":18.46},{"city":"Chapel Hill","state_name":"Tennessee","lat":35.63977,"lng":-86.69158,"zip":"37034","miles_from_dt":18.56},{"city":"College Grove","state_name":"Tennessee","lat":35.77995,"lng":-86.71582,"zip":"37046","miles_from_dt":18.57},{"city":"Shelbyville","state_name":"Tennessee","lat":35.46562,"lng":-86.48268,"zip":"37160","miles_from_dt":20.01},{"city":"Woodbury","state_name":"Tennessee","lat":35.82599,"lng":-86.0424,"zip":"37190","miles_from_dt":20.2},{"city":"Nolensville","state_name":"Tennessee","lat":35.93562,"lng":-86.6625,"zip":"37135","miles_from_dt":20.23},{"city":"La Vergne","state_name":"Tennessee","lat":35.99804,"lng":-86.57456,"zip":"37089","miles_from_dt":20.32},{"city":"La Vergne","state_name":"Tennessee","lat":36.02177,"lng":-86.55971,"zip":"37086","miles_from_dt":21.35},{"city":"Auburntown","state_name":"Tennessee","lat":35.96355,"lng":-86.11364,"zip":"37016","miles_from_dt":21.53},{"city":"Normandy","state_name":"Tennessee","lat":35.44702,"lng":-86.25586,"zip":"37360","miles_from_dt":21.88},{"city":"Manchester","state_name":"Tennessee","lat":35.50843,"lng":-86.07866,"zip":"37355","miles_from_dt":23.88},{"city":"Franklin","state_name":"Tennessee","lat":35.91314,"lng":-86.77461,"zip":"37067","miles_from_dt":24.59},{"city":"Antioch","state_name":"Tennessee","lat":36.04658,"lng":-86.63445,"zip":"37013","miles_from_dt":24.94},{"city":"Manchester","state_name":"Tennessee","lat":35.4676,"lng":-86.08333,"zip":"37349","miles_from_dt":25.72},{"city":"Summitville","state_name":"Tennessee","lat":35.55777,"lng":-85.99317,"zip":"37382","miles_from_dt":25.72},{"city":"Lebanon","state_name":"Tennessee","lat":36.12439,"lng":-86.29707,"zip":"37090","miles_from_dt":26.62},{"city":"Watertown","state_name":"Tennessee","lat":36.08682,"lng":-86.14524,"zip":"37184","miles_from_dt":27.19},{"city":"Lewisburg","state_name":"Tennessee","lat":35.48546,"lng":-86.76405,"zip":"37091","miles_from_dt":27.73},{"city":"Brentwood","state_name":"Tennessee","lat":35.99776,"lng":-86.78583,"zip":"37024","miles_from_dt":28.3},{"city":"Morrison","state_name":"Tennessee","lat":35.59454,"lng":-85.92003,"zip":"37357","miles_from_dt":28.31},{"city":"Brentwood","state_name":"Tennessee","lat":35.99978,"lng":-86.78439,"zip":"37027","miles_from_dt":28.32},{"city":"Franklin","state_name":"Tennessee","lat":35.9278,"lng":-86.84365,"zip":"37068","miles_from_dt":28.5},{"city":"Spring Hill","state_name":"Tennessee","lat":35.72197,"lng":-86.8995,"zip":"37174","miles_from_dt":28.79},{"city":"Nashville","state_name":"Tennessee","lat":36.06704,"lng":-86.72345,"zip":"37211","miles_from_dt":29.08},{"city":"Liberty","state_name":"Tennessee","lat":35.98295,"lng":-85.95919,"zip":"37095","miles_from_dt":29.11},{"city":"Tullahoma","state_name":"Tennessee","lat":35.35141,"lng":-86.19747,"zip":"37388","miles_from_dt":29.21},{"city":"Nashville","state_name":"Tennessee","lat":36.06888,"lng":-86.72625,"zip":"37222","miles_from_dt":29.27},{"city":"Nashville","state_name":"Tennessee","lat":36.10836,"lng":-86.66178,"zip":"37217","miles_from_dt":29.35},{"city":"Hermitage","state_name":"Tennessee","lat":36.14512,"lng":-86.57977,"zip":"37076","miles_from_dt":29.58},{"city":"Franklin","state_name":"Tennessee","lat":35.92314,"lng":-86.8698,"zip":"37065","miles_from_dt":29.69},{"city":"Nashville","state_name":"Tennessee","lat":36.10812,"lng":-86.67472,"zip":"37241","miles_from_dt":29.73},{"city":"Thompsons Station","state_name":"Tennessee","lat":35.8073,"lng":-86.91517,"zip":"37179","miles_from_dt":29.92}],"targetCityZipCode":"37063","targetCityState":"Tennessee"},"__N_SSG":true}