{"pageProps":{"stateName":"Tennessee","cityName":"henderson","nearbyCities":[{"city":"Finger","state_name":"Tennessee","lat":35.35342,"lng":-88.58977,"zip":"38334","miles_from_dt":6.14},{"city":"Pinson","state_name":"Tennessee","lat":35.47797,"lng":-88.74461,"zip":"38366","miles_from_dt":6.41},{"city":"Silerton","state_name":"Tennessee","lat":35.36219,"lng":-88.8292,"zip":"38377","miles_from_dt":8.7},{"city":"Bethel Springs","state_name":"Tennessee","lat":35.26918,"lng":-88.6241,"zip":"38315","miles_from_dt":9.61},{"city":"Jacks Creek","state_name":"Tennessee","lat":35.47632,"lng":-88.49846,"zip":"38347","miles_from_dt":11.62},{"city":"Medon","state_name":"Tennessee","lat":35.43877,"lng":-88.89029,"zip":"38356","miles_from_dt":12.04},{"city":"Luray","state_name":"Tennessee","lat":35.53037,"lng":-88.53308,"zip":"38352","miles_from_dt":12.3},{"city":"Beech Bluff","state_name":"Tennessee","lat":35.60107,"lng":-88.62541,"zip":"38313","miles_from_dt":14.21},{"city":"Jackson","state_name":"Tennessee","lat":35.57268,"lng":-88.8213,"zip":"38314","miles_from_dt":14.24},{"city":"Enville","state_name":"Tennessee","lat":35.41978,"lng":-88.42934,"zip":"38332","miles_from_dt":14.34},{"city":"Hornsby","state_name":"Tennessee","lat":35.20736,"lng":-88.80244,"zip":"38044","miles_from_dt":14.93},{"city":"Jackson","state_name":"Tennessee","lat":35.59363,"lng":-88.82053,"zip":"38308","miles_from_dt":15.45},{"city":"Toone","state_name":"Tennessee","lat":35.35144,"lng":-88.96205,"zip":"38381","miles_from_dt":16.15},{"city":"Jackson","state_name":"Tennessee","lat":35.5908,"lng":-88.8531,"zip":"38301","miles_from_dt":16.29},{"city":"Huron","state_name":"Tennessee","lat":35.59109,"lng":-88.51163,"zip":"38345","miles_from_dt":16.3},{"city":"Jackson","state_name":"Tennessee","lat":35.59022,"lng":-88.86077,"zip":"38302","miles_from_dt":16.52},{"city":"Selmer","state_name":"Tennessee","lat":35.16142,"lng":-88.58811,"zip":"38375","miles_from_dt":17.3},{"city":"Jackson","state_name":"Tennessee","lat":35.63927,"lng":-88.82373,"zip":"38303","miles_from_dt":18.31},{"city":"Adamsville","state_name":"Tennessee","lat":35.26175,"lng":-88.39832,"zip":"38310","miles_from_dt":18.67},{"city":"Milledgeville","state_name":"Tennessee","lat":35.37222,"lng":-88.35109,"zip":"38359","miles_from_dt":18.8},{"city":"Reagan","state_name":"Tennessee","lat":35.50191,"lng":-88.35659,"zip":"38368","miles_from_dt":19.66},{"city":"Denmark","state_name":"Tennessee","lat":35.55026,"lng":-88.99033,"zip":"38391","miles_from_dt":20.22},{"city":"Mercer","state_name":"Tennessee","lat":35.45908,"lng":-89.03709,"zip":"38392","miles_from_dt":20.43},{"city":"Bolivar","state_name":"Tennessee","lat":35.24455,"lng":-88.99879,"zip":"38008","miles_from_dt":20.86},{"city":"Jackson","state_name":"Tennessee","lat":35.70108,"lng":-88.76779,"zip":"38305","miles_from_dt":21.29},{"city":"Stantonville","state_name":"Tennessee","lat":35.16388,"lng":-88.42825,"zip":"38379","miles_from_dt":21.72},{"city":"Sardis","state_name":"Tennessee","lat":35.42346,"lng":-88.2967,"zip":"38371","miles_from_dt":21.82},{"city":"Morris Chapel","state_name":"Tennessee","lat":35.31897,"lng":-88.29232,"zip":"38361","miles_from_dt":22.72},{"city":"Oakfield","state_name":"Tennessee","lat":35.72696,"lng":-88.78508,"zip":"38362","miles_from_dt":23.26},{"city":"Pocahontas","state_name":"Tennessee","lat":35.06704,"lng":-88.7647,"zip":"38061","miles_from_dt":23.44},{"city":"Lexington","state_name":"Tennessee","lat":35.66324,"lng":-88.40401,"zip":"38351","miles_from_dt":23.97},{"city":"Chewalla","state_name":"Tennessee","lat":35.05464,"lng":-88.63584,"zip":"38393","miles_from_dt":23.97},{"city":"Ramer","state_name":"Tennessee","lat":35.05266,"lng":-88.62728,"zip":"38367","miles_from_dt":24.16},{"city":"Saltillo","state_name":"Tennessee","lat":35.38942,"lng":-88.2465,"zip":"38370","miles_from_dt":24.61},{"city":"Crump","state_name":"Tennessee","lat":35.22348,"lng":-88.30085,"zip":"38327","miles_from_dt":24.76},{"city":"Middleton","state_name":"Tennessee","lat":35.08574,"lng":-88.91308,"zip":"38052","miles_from_dt":25.31},{"city":"Spring Creek","state_name":"Tennessee","lat":35.76906,"lng":-88.66544,"zip":"38378","miles_from_dt":25.45},{"city":"Guys","state_name":"Tennessee","lat":35.0524,"lng":-88.5147,"zip":"38339","miles_from_dt":25.78},{"city":"Scotts Hill","state_name":"Tennessee","lat":35.51192,"lng":-88.23469,"zip":"38374","miles_from_dt":26.39},{"city":"Shiloh","state_name":"Tennessee","lat":35.12974,"lng":-88.34447,"zip":"38376","miles_from_dt":26.69},{"city":"Whiteville","state_name":"Tennessee","lat":35.37197,"lng":-89.15569,"zip":"38075","miles_from_dt":26.8},{"city":"Medina","state_name":"Tennessee","lat":35.78637,"lng":-88.76942,"zip":"38355","miles_from_dt":27.07},{"city":"Michie","state_name":"Tennessee","lat":35.04888,"lng":-88.4112,"zip":"38357","miles_from_dt":28.67},{"city":"Saulsbury","state_name":"Tennessee","lat":35.08561,"lng":-89.04804,"zip":"38067","miles_from_dt":29.97}],"targetCityZipCode":"38340","targetCityState":"Tennessee"},"__N_SSG":true}