{"pageProps":{"stateName":"Tennessee","cityName":"hickory-valley","nearbyCities":[{"city":"Saulsbury","state_name":"Tennessee","lat":35.08561,"lng":-89.04804,"zip":"38067","miles_from_dt":6.81},{"city":"Grand Junction","state_name":"Tennessee","lat":35.0571,"lng":-89.18545,"zip":"38039","miles_from_dt":6.97},{"city":"La Grange","state_name":"Tennessee","lat":35.04598,"lng":-89.24408,"zip":"38046","miles_from_dt":9.37},{"city":"Bolivar","state_name":"Tennessee","lat":35.24455,"lng":-88.99879,"zip":"38008","miles_from_dt":10.22},{"city":"Somerville","state_name":"Tennessee","lat":35.25972,"lng":-89.3349,"zip":"38068","miles_from_dt":13.42},{"city":"Middleton","state_name":"Tennessee","lat":35.08574,"lng":-88.91308,"zip":"38052","miles_from_dt":13.53},{"city":"Michigan City","state_name":"Mississippi","lat":34.95851,"lng":-89.21746,"zip":"38647","miles_from_dt":13.98},{"city":"Moscow","state_name":"Tennessee","lat":35.05381,"lng":-89.36772,"zip":"38057","miles_from_dt":14.6},{"city":"Braden","state_name":"Tennessee","lat":35.20171,"lng":-89.39514,"zip":"38010","miles_from_dt":14.95},{"city":"Whiteville","state_name":"Tennessee","lat":35.37197,"lng":-89.15569,"zip":"38075","miles_from_dt":15.29},{"city":"Laconia","state_name":"Tennessee","lat":35.29216,"lng":-89.3688,"zip":"38045","miles_from_dt":16.28},{"city":"Toone","state_name":"Tennessee","lat":35.35144,"lng":-88.96205,"zip":"38381","miles_from_dt":17.07},{"city":"Williston","state_name":"Tennessee","lat":35.12301,"lng":-89.45633,"zip":"38076","miles_from_dt":18.1},{"city":"Hornsby","state_name":"Tennessee","lat":35.20736,"lng":-88.80244,"zip":"38044","miles_from_dt":19.42},{"city":"Lamar","state_name":"Mississippi","lat":34.91861,"lng":-89.33901,"zip":"38642","miles_from_dt":19.62},{"city":"Macon","state_name":"Tennessee","lat":35.15183,"lng":-89.48949,"zip":"38048","miles_from_dt":19.87},{"city":"Falkner","state_name":"Mississippi","lat":34.86914,"lng":-88.99421,"zip":"38629","miles_from_dt":21.06},{"city":"Oakland","state_name":"Tennessee","lat":35.21214,"lng":-89.50468,"zip":"38060","miles_from_dt":21.16},{"city":"Ashland","state_name":"Mississippi","lat":34.83949,"lng":-89.14163,"zip":"38603","miles_from_dt":21.45},{"city":"Walnut","state_name":"Mississippi","lat":34.93504,"lng":-88.85997,"zip":"38683","miles_from_dt":21.68},{"city":"Pocahontas","state_name":"Tennessee","lat":35.06704,"lng":-88.7647,"zip":"38061","miles_from_dt":21.94},{"city":"Mercer","state_name":"Tennessee","lat":35.45908,"lng":-89.03709,"zip":"38392","miles_from_dt":22.03},{"city":"Silerton","state_name":"Tennessee","lat":35.36219,"lng":-88.8292,"zip":"38377","miles_from_dt":22.77},{"city":"Rossville","state_name":"Tennessee","lat":35.07421,"lng":-89.53944,"zip":"38066","miles_from_dt":23.32},{"city":"Tiplersville","state_name":"Mississippi","lat":34.8718,"lng":-88.89549,"zip":"38674","miles_from_dt":23.65},{"city":"Medon","state_name":"Tennessee","lat":35.43877,"lng":-88.89029,"zip":"38356","miles_from_dt":24.32},{"city":"Stanton","state_name":"Tennessee","lat":35.46209,"lng":-89.37151,"zip":"38069","miles_from_dt":25.19},{"city":"Victoria","state_name":"Mississippi","lat":34.88573,"lng":-89.51038,"zip":"38679","miles_from_dt":27.9},{"city":"Mason","state_name":"Tennessee","lat":35.38689,"lng":-89.544,"zip":"38049","miles_from_dt":28.13},{"city":"Eads","state_name":"Tennessee","lat":35.18486,"lng":-89.63474,"zip":"38028","miles_from_dt":28.19},{"city":"Denmark","state_name":"Tennessee","lat":35.55026,"lng":-88.99033,"zip":"38391","miles_from_dt":28.8},{"city":"Chewalla","state_name":"Tennessee","lat":35.05464,"lng":-88.63584,"zip":"38393","miles_from_dt":29.23},{"city":"Collierville","state_name":"Tennessee","lat":35.06722,"lng":-89.65347,"zip":"38017","miles_from_dt":29.73},{"city":"Ramer","state_name":"Tennessee","lat":35.05266,"lng":-88.62728,"zip":"38367","miles_from_dt":29.74},{"city":"Gallaway","state_name":"Tennessee","lat":35.32715,"lng":-89.61941,"zip":"38036","miles_from_dt":29.8},{"city":"Red Banks","state_name":"Mississippi","lat":34.89009,"lng":-89.55918,"zip":"38661","miles_from_dt":29.86}],"targetCityZipCode":"38042","targetCityState":"Tennessee"},"__N_SSG":true}