{"pageProps":{"stateName":"Tennessee","cityName":"jamestown","nearbyCities":[{"city":"Allardt","state_name":"Tennessee","lat":36.39314,"lng":-84.73528,"zip":"38504","miles_from_dt":10.63},{"city":"Pall Mall","state_name":"Tennessee","lat":36.56453,"lng":-84.94651,"zip":"38577","miles_from_dt":10.71},{"city":"Grimsley","state_name":"Tennessee","lat":36.26296,"lng":-85.00992,"zip":"38565","miles_from_dt":11.2},{"city":"Wilder","state_name":"Tennessee","lat":36.28551,"lng":-85.07624,"zip":"38589","miles_from_dt":12.05},{"city":"Alpine","state_name":"Tennessee","lat":36.37514,"lng":-85.15931,"zip":"38543","miles_from_dt":13.29},{"city":"Rugby","state_name":"Tennessee","lat":36.35676,"lng":-84.69497,"zip":"37733","miles_from_dt":13.34},{"city":"Clarkrange","state_name":"Tennessee","lat":36.20322,"lng":-85.00442,"zip":"38553","miles_from_dt":14.94},{"city":"Deer Lodge","state_name":"Tennessee","lat":36.20464,"lng":-84.8386,"zip":"37726","miles_from_dt":14.97},{"city":"Byrdstown","state_name":"Tennessee","lat":36.5617,"lng":-85.15243,"zip":"38549","miles_from_dt":16.42},{"city":"Allred","state_name":"Tennessee","lat":36.31576,"lng":-85.20113,"zip":"38542","miles_from_dt":16.72},{"city":"Sunbright","state_name":"Tennessee","lat":36.26869,"lng":-84.68119,"zip":"37872","miles_from_dt":16.73},{"city":"Crawford","state_name":"Tennessee","lat":36.25131,"lng":-85.16095,"zip":"38554","miles_from_dt":17.13},{"city":"Monroe","state_name":"Tennessee","lat":36.48945,"lng":-85.21931,"zip":"38573","miles_from_dt":17.29},{"city":"Elgin","state_name":"Tennessee","lat":36.32792,"lng":-84.6282,"zip":"37732","miles_from_dt":17.49},{"city":"Robbins","state_name":"Tennessee","lat":36.32365,"lng":-84.57454,"zip":"37852","miles_from_dt":20.43},{"city":"Helenwood","state_name":"Tennessee","lat":36.42249,"lng":-84.53166,"zip":"37755","miles_from_dt":21.93},{"city":"Oneida","state_name":"Tennessee","lat":36.5088,"lng":-84.54665,"zip":"37841","miles_from_dt":22.14},{"city":"Livingston","state_name":"Tennessee","lat":36.37678,"lng":-85.31983,"zip":"38570","miles_from_dt":22.14},{"city":"Rickman","state_name":"Tennessee","lat":36.27729,"lng":-85.29522,"zip":"38580","miles_from_dt":22.6},{"city":"Lancing","state_name":"Tennessee","lat":36.15239,"lng":-84.6418,"zip":"37770","miles_from_dt":23.78},{"city":"Allons","state_name":"Tennessee","lat":36.52903,"lng":-85.33767,"zip":"38541","miles_from_dt":24.41},{"city":"Monterey","state_name":"Tennessee","lat":36.141,"lng":-85.22498,"zip":"38574","miles_from_dt":25},{"city":"Albany","state_name":"Kentucky","lat":36.73201,"lng":-85.13324,"zip":"42602","miles_from_dt":25.04},{"city":"Crossville","state_name":"Tennessee","lat":36.0513,"lng":-85.01374,"zip":"38571","miles_from_dt":25.24},{"city":"Alpha","state_name":"Kentucky","lat":36.77875,"lng":-85.01093,"zip":"42603","miles_from_dt":25.86},{"city":"Stearns","state_name":"Kentucky","lat":36.6922,"lng":-84.61144,"zip":"42647","miles_from_dt":26.12},{"city":"Monticello","state_name":"Kentucky","lat":36.79245,"lng":-84.83155,"zip":"42633","miles_from_dt":26.87},{"city":"Crossville","state_name":"Tennessee","lat":36.00532,"lng":-84.87374,"zip":"38558","miles_from_dt":28.06},{"city":"Wartburg","state_name":"Tennessee","lat":36.0772,"lng":-84.61573,"zip":"37887","miles_from_dt":28.73},{"city":"Huntsville","state_name":"Tennessee","lat":36.30165,"lng":-84.40704,"zip":"37756","miles_from_dt":29.84},{"city":"Crossville","state_name":"Tennessee","lat":35.97897,"lng":-84.97066,"zip":"38557","miles_from_dt":29.84}],"targetCityZipCode":"38556","targetCityState":"Tennessee"},"__N_SSG":true}