{"pageProps":{"stateName":"Tennessee","cityName":"kingsport","nearbyCities":[{"city":"Kingsport","state_name":"Tennessee","lat":36.52912,"lng":-82.55612,"zip":"37669","miles_from_dt":0.96},{"city":"Kingsport","state_name":"Tennessee","lat":36.54645,"lng":-82.56383,"zip":"37662","miles_from_dt":1.29},{"city":"Kingsport","state_name":"Tennessee","lat":36.57951,"lng":-82.57304,"zip":"37665","miles_from_dt":3.46},{"city":"Kingsport","state_name":"Tennessee","lat":36.51163,"lng":-82.50729,"zip":"37664","miles_from_dt":3.88},{"city":"Mount Carmel","state_name":"Tennessee","lat":36.56275,"lng":-82.66243,"zip":"37645","miles_from_dt":5.46},{"city":"Weber City","state_name":"Virginia","lat":36.61186,"lng":-82.56688,"zip":"24290","miles_from_dt":5.7},{"city":"Kingsport","state_name":"Tennessee","lat":36.46466,"lng":-82.48525,"zip":"37663","miles_from_dt":6.63},{"city":"Church Hill","state_name":"Tennessee","lat":36.53261,"lng":-82.7267,"zip":"37642","miles_from_dt":8.53},{"city":"Gate City","state_name":"Virginia","lat":36.65807,"lng":-82.60582,"zip":"24251","miles_from_dt":9.05},{"city":"Fall Branch","state_name":"Tennessee","lat":36.39997,"lng":-82.63075,"zip":"37656","miles_from_dt":9.48},{"city":"Blountville","state_name":"Tennessee","lat":36.53155,"lng":-82.37248,"zip":"37617","miles_from_dt":11.18},{"city":"Johnson City","state_name":"Tennessee","lat":36.39771,"lng":-82.45246,"zip":"37615","miles_from_dt":11.3},{"city":"Hiltons","state_name":"Virginia","lat":36.6517,"lng":-82.41199,"zip":"24258","miles_from_dt":12.32},{"city":"Piney Flats","state_name":"Tennessee","lat":36.44175,"lng":-82.34639,"zip":"37686","miles_from_dt":14.01},{"city":"Surgoinsville","state_name":"Tennessee","lat":36.52446,"lng":-82.84754,"zip":"37873","miles_from_dt":15.26},{"city":"Fort Blackmore","state_name":"Virginia","lat":36.75752,"lng":-82.58705,"zip":"24250","miles_from_dt":15.75},{"city":"Piney Flats","state_name":"Tennessee","lat":36.41835,"lng":-82.30389,"zip":"37699","miles_from_dt":16.85},{"city":"Nickelsville","state_name":"Virginia","lat":36.74712,"lng":-82.41714,"zip":"24271","miles_from_dt":17.34},{"city":"Duffield","state_name":"Virginia","lat":36.71075,"lng":-82.79785,"zip":"24244","miles_from_dt":17.67},{"city":"Jonesborough","state_name":"Tennessee","lat":36.28074,"lng":-82.4938,"zip":"37659","miles_from_dt":17.71},{"city":"Johnson City","state_name":"Tennessee","lat":36.34731,"lng":-82.33204,"zip":"37605","miles_from_dt":18.4},{"city":"Johnson City","state_name":"Tennessee","lat":36.30567,"lng":-82.38327,"zip":"37602","miles_from_dt":18.71},{"city":"Mountain Home","state_name":"Tennessee","lat":36.3067,"lng":-82.37744,"zip":"37684","miles_from_dt":18.84},{"city":"Johnson City","state_name":"Tennessee","lat":36.29923,"lng":-82.38302,"zip":"37604","miles_from_dt":19.09},{"city":"Limestone","state_name":"Tennessee","lat":36.25465,"lng":-82.62672,"zip":"37681","miles_from_dt":19.17},{"city":"Telford","state_name":"Tennessee","lat":36.25124,"lng":-82.55895,"zip":"37690","miles_from_dt":19.19},{"city":"Watauga","state_name":"Tennessee","lat":36.3849,"lng":-82.27588,"zip":"37694","miles_from_dt":19.34},{"city":"Johnson City","state_name":"Tennessee","lat":36.30097,"lng":-82.36741,"zip":"37614","miles_from_dt":19.49},{"city":"Johnson City","state_name":"Tennessee","lat":36.32838,"lng":-82.31974,"zip":"37601","miles_from_dt":19.79},{"city":"Bluff City","state_name":"Tennessee","lat":36.46555,"lng":-82.20833,"zip":"37618","miles_from_dt":20.79},{"city":"Bristol","state_name":"Tennessee","lat":36.58053,"lng":-82.20482,"zip":"37621","miles_from_dt":20.8},{"city":"Dungannon","state_name":"Virginia","lat":36.84045,"lng":-82.51598,"zip":"24245","miles_from_dt":21.69},{"city":"Bristol","state_name":"Virginia","lat":36.59612,"lng":-82.19092,"zip":"24205","miles_from_dt":21.77},{"city":"Bristol","state_name":"Virginia","lat":36.65904,"lng":-82.21564,"zip":"24202","miles_from_dt":21.81},{"city":"Rogersville","state_name":"Tennessee","lat":36.42145,"lng":-82.94269,"zip":"37857","miles_from_dt":21.87},{"city":"Bristol","state_name":"Virginia","lat":36.59717,"lng":-82.18862,"zip":"24203","miles_from_dt":21.91},{"city":"Bristol","state_name":"Tennessee","lat":36.59399,"lng":-82.18562,"zip":"37625","miles_from_dt":22.03},{"city":"Milligan College","state_name":"Tennessee","lat":36.30035,"lng":-82.29169,"zip":"37682","miles_from_dt":22.27},{"city":"Greeneville","state_name":"Tennessee","lat":36.2784,"lng":-82.82631,"zip":"37745","miles_from_dt":22.32},{"city":"Mendota","state_name":"Virginia","lat":36.72846,"lng":-82.24693,"zip":"24270","miles_from_dt":22.75},{"city":"Afton","state_name":"Tennessee","lat":36.22619,"lng":-82.7498,"zip":"37616","miles_from_dt":23.1},{"city":"Bristol","state_name":"Virginia","lat":36.61059,"lng":-82.16971,"zip":"24201","miles_from_dt":23.14},{"city":"Bristol","state_name":"Virginia","lat":36.61241,"lng":-82.16862,"zip":"24209","miles_from_dt":23.23},{"city":"Chuckey","state_name":"Tennessee","lat":36.20015,"lng":-82.66306,"zip":"37641","miles_from_dt":23.24},{"city":"Elizabethton","state_name":"Tennessee","lat":36.3474,"lng":-82.21375,"zip":"37644","miles_from_dt":23.64},{"city":"Big Stone Gap","state_name":"Virginia","lat":36.84831,"lng":-82.74645,"zip":"24219","miles_from_dt":24},{"city":"Eidson","state_name":"Tennessee","lat":36.54383,"lng":-83.00873,"zip":"37731","miles_from_dt":24.24},{"city":"Blackwater","state_name":"Virginia","lat":36.63398,"lng":-82.9943,"zip":"24221","miles_from_dt":24.49},{"city":"East Stone Gap","state_name":"Virginia","lat":36.86609,"lng":-82.74395,"zip":"24246","miles_from_dt":25.08},{"city":"Dryden","state_name":"Virginia","lat":36.78174,"lng":-82.92083,"zip":"24243","miles_from_dt":25.99},{"city":"Bristol","state_name":"Tennessee","lat":36.55124,"lng":-82.09867,"zip":"37620","miles_from_dt":26.46},{"city":"Elizabethton","state_name":"Tennessee","lat":36.37513,"lng":-82.13729,"zip":"37643","miles_from_dt":26.52},{"city":"Kyles Ford","state_name":"Tennessee","lat":36.57219,"lng":-83.06534,"zip":"37765","miles_from_dt":27.53},{"city":"Castlewood","state_name":"Virginia","lat":36.86059,"lng":-82.28322,"zip":"24224","miles_from_dt":27.95},{"city":"Unicoi","state_name":"Tennessee","lat":36.18456,"lng":-82.30413,"zip":"37692","miles_from_dt":28.12},{"city":"Greeneville","state_name":"Tennessee","lat":36.16334,"lng":-82.81243,"zip":"37744","miles_from_dt":28.54},{"city":"Keokee","state_name":"Virginia","lat":36.83811,"lng":-82.93904,"zip":"24265","miles_from_dt":29.42},{"city":"Pennington Gap","state_name":"Virginia","lat":36.74948,"lng":-83.03037,"zip":"24277","miles_from_dt":29.58},{"city":"Hampton","state_name":"Tennessee","lat":36.26352,"lng":-82.1535,"zip":"37658","miles_from_dt":29.73},{"city":"Ben Hur","state_name":"Virginia","lat":36.75338,"lng":-83.03614,"zip":"24218","miles_from_dt":30}],"targetCityZipCode":"37660","targetCityState":"Tennessee"},"__N_SSG":true}