{"pageProps":{"stateName":"Tennessee","cityName":"kingston","nearbyCities":[{"city":"Harriman","state_name":"Tennessee","lat":35.94797,"lng":-84.51413,"zip":"37748","miles_from_dt":8.66},{"city":"Philadelphia","state_name":"Tennessee","lat":35.68008,"lng":-84.48505,"zip":"37846","miles_from_dt":9.9},{"city":"Lenoir City","state_name":"Tennessee","lat":35.8382,"lng":-84.31748,"zip":"37771","miles_from_dt":9.94},{"city":"Loudon","state_name":"Tennessee","lat":35.7317,"lng":-84.35526,"zip":"37774","miles_from_dt":10.02},{"city":"Ten Mile","state_name":"Tennessee","lat":35.7012,"lng":-84.66453,"zip":"37880","miles_from_dt":12.78},{"city":"Rockwood","state_name":"Tennessee","lat":35.88004,"lng":-84.71454,"zip":"37854","miles_from_dt":13},{"city":"Oakdale","state_name":"Tennessee","lat":36.00094,"lng":-84.61331,"zip":"37829","miles_from_dt":13.96},{"city":"Coalfield","state_name":"Tennessee","lat":36.02196,"lng":-84.42815,"zip":"37719","miles_from_dt":14.17},{"city":"Oak Ridge","state_name":"Tennessee","lat":35.96328,"lng":-84.2981,"zip":"37831","miles_from_dt":14.6},{"city":"Oak Ridge","state_name":"Tennessee","lat":35.96431,"lng":-84.29221,"zip":"37830","miles_from_dt":14.9},{"city":"Lenoir City","state_name":"Tennessee","lat":35.78775,"lng":-84.21876,"zip":"37772","miles_from_dt":15.63},{"city":"Sweetwater","state_name":"Tennessee","lat":35.59749,"lng":-84.45823,"zip":"37874","miles_from_dt":15.7},{"city":"Oliver Springs","state_name":"Tennessee","lat":36.05849,"lng":-84.37047,"zip":"37840","miles_from_dt":17.61},{"city":"Farragut","state_name":"Tennessee","lat":35.87338,"lng":-84.17882,"zip":"37934","miles_from_dt":18},{"city":"Knoxville","state_name":"Tennessee","lat":35.92273,"lng":-84.19562,"zip":"37932","miles_from_dt":18.07},{"city":"Wartburg","state_name":"Tennessee","lat":36.0772,"lng":-84.61573,"zip":"37887","miles_from_dt":18.79},{"city":"Niota","state_name":"Tennessee","lat":35.55825,"lng":-84.58984,"zip":"37826","miles_from_dt":19.07},{"city":"Petros","state_name":"Tennessee","lat":36.10369,"lng":-84.45022,"zip":"37845","miles_from_dt":19.47},{"city":"Greenback","state_name":"Tennessee","lat":35.67548,"lng":-84.18049,"zip":"37742","miles_from_dt":20.34},{"city":"Crab Orchard","state_name":"Tennessee","lat":35.96044,"lng":-84.82171,"zip":"37723","miles_from_dt":20.69},{"city":"Knoxville","state_name":"Tennessee","lat":35.86607,"lng":-84.1241,"zip":"37933","miles_from_dt":20.95},{"city":"Grandview","state_name":"Tennessee","lat":35.78594,"lng":-84.86651,"zip":"37337","miles_from_dt":21.1},{"city":"Friendsville","state_name":"Tennessee","lat":35.75778,"lng":-84.11913,"zip":"37737","miles_from_dt":21.51},{"city":"Knoxville","state_name":"Tennessee","lat":35.86124,"lng":-84.10127,"zip":"37922","miles_from_dt":22.18},{"city":"Knoxville","state_name":"Tennessee","lat":35.97611,"lng":-84.12496,"zip":"37931","miles_from_dt":23.2},{"city":"Spring City","state_name":"Tennessee","lat":35.68533,"lng":-84.8775,"zip":"37381","miles_from_dt":23.58},{"city":"Madisonville","state_name":"Tennessee","lat":35.50195,"lng":-84.34387,"zip":"37354","miles_from_dt":23.71},{"city":"Lancing","state_name":"Tennessee","lat":36.15239,"lng":-84.6418,"zip":"37770","miles_from_dt":24.15},{"city":"Knoxville","state_name":"Tennessee","lat":35.92697,"lng":-84.08076,"zip":"37923","miles_from_dt":24.24},{"city":"Knoxville","state_name":"Tennessee","lat":35.93017,"lng":-84.07751,"zip":"37930","miles_from_dt":24.48},{"city":"Crossville","state_name":"Tennessee","lat":36.00532,"lng":-84.87374,"zip":"38558","miles_from_dt":24.74},{"city":"Louisville","state_name":"Tennessee","lat":35.82742,"lng":-84.05186,"zip":"37777","miles_from_dt":24.8},{"city":"Briceville","state_name":"Tennessee","lat":36.15802,"lng":-84.3177,"zip":"37710","miles_from_dt":25.08},{"city":"Maryville","state_name":"Tennessee","lat":35.67134,"lng":-84.08453,"zip":"37801","miles_from_dt":25.27},{"city":"Clinton","state_name":"Tennessee","lat":36.09919,"lng":-84.16822,"zip":"37716","miles_from_dt":26.34},{"city":"Coker Creek","state_name":"Tennessee","lat":35.4595,"lng":-84.34362,"zip":"37314","miles_from_dt":26.47},{"city":"Athens","state_name":"Tennessee","lat":35.44315,"lng":-84.59479,"zip":"37371","miles_from_dt":26.83},{"city":"Clinton","state_name":"Tennessee","lat":36.09103,"lng":-84.13209,"zip":"37717","miles_from_dt":27.4},{"city":"Crossville","state_name":"Tennessee","lat":35.88956,"lng":-84.97537,"zip":"38555","miles_from_dt":27.42},{"city":"Athens","state_name":"Tennessee","lat":35.4403,"lng":-84.64051,"zip":"37303","miles_from_dt":27.68},{"city":"Knoxville","state_name":"Tennessee","lat":35.94469,"lng":-84.02266,"zip":"37950","miles_from_dt":27.71},{"city":"Knoxville","state_name":"Tennessee","lat":35.94716,"lng":-84.02275,"zip":"37909","miles_from_dt":27.76},{"city":"Knoxville","state_name":"Tennessee","lat":35.91586,"lng":-84.00428,"zip":"37939","miles_from_dt":28.19},{"city":"Knoxville","state_name":"Tennessee","lat":35.91429,"lng":-84.00106,"zip":"37919","miles_from_dt":28.34},{"city":"Alcoa","state_name":"Tennessee","lat":35.79393,"lng":-83.98461,"zip":"37701","miles_from_dt":28.65},{"city":"Crossville","state_name":"Tennessee","lat":35.97897,"lng":-84.97066,"zip":"38557","miles_from_dt":28.83},{"city":"Decatur","state_name":"Tennessee","lat":35.49562,"lng":-84.81512,"zip":"37322","miles_from_dt":28.95},{"city":"Knoxville","state_name":"Tennessee","lat":35.97877,"lng":-84.00028,"zip":"37921","miles_from_dt":29.67},{"city":"Maryville","state_name":"Tennessee","lat":35.75681,"lng":-83.97034,"zip":"37802","miles_from_dt":29.75},{"city":"Englewood","state_name":"Tennessee","lat":35.39201,"lng":-84.46017,"zip":"37329","miles_from_dt":29.8},{"city":"Powell","state_name":"Tennessee","lat":36.0578,"lng":-84.04476,"zip":"37849","miles_from_dt":29.9}],"targetCityZipCode":"37763","targetCityState":"Tennessee"},"__N_SSG":true}