{"pageProps":{"stateName":"Tennessee","cityName":"lascassas","nearbyCities":[{"city":"Milton","state_name":"Tennessee","lat":35.92569,"lng":-86.18903,"zip":"37118","miles_from_dt":5.39},{"city":"Murfreesboro","state_name":"Tennessee","lat":35.8809,"lng":-86.33003,"zip":"37130","miles_from_dt":5.74},{"city":"Murfreesboro","state_name":"Tennessee","lat":35.84873,"lng":-86.36284,"zip":"37132","miles_from_dt":8.59},{"city":"Murfreesboro","state_name":"Tennessee","lat":35.92556,"lng":-86.44098,"zip":"37129","miles_from_dt":9.27},{"city":"Auburntown","state_name":"Tennessee","lat":35.96355,"lng":-86.11364,"zip":"37016","miles_from_dt":9.3},{"city":"Murfreesboro","state_name":"Tennessee","lat":35.85324,"lng":-86.39602,"zip":"37131","miles_from_dt":9.51},{"city":"Murfreesboro","state_name":"Tennessee","lat":35.84027,"lng":-86.39405,"zip":"37133","miles_from_dt":10.1},{"city":"Readyville","state_name":"Tennessee","lat":35.80876,"lng":-86.19311,"zip":"37149","miles_from_dt":11.06},{"city":"Lebanon","state_name":"Tennessee","lat":36.12439,"lng":-86.29707,"zip":"37090","miles_from_dt":11.85},{"city":"Watertown","state_name":"Tennessee","lat":36.08682,"lng":-86.14524,"zip":"37184","miles_from_dt":11.89},{"city":"Murfreesboro","state_name":"Tennessee","lat":35.77947,"lng":-86.32723,"zip":"37127","miles_from_dt":12.27},{"city":"Smyrna","state_name":"Tennessee","lat":35.96325,"lng":-86.52922,"zip":"37167","miles_from_dt":14.04},{"city":"Murfreesboro","state_name":"Tennessee","lat":35.80343,"lng":-86.47483,"zip":"37128","miles_from_dt":15.07},{"city":"Fosterville","state_name":"Tennessee","lat":35.74544,"lng":-86.38811,"zip":"37063","miles_from_dt":15.57},{"city":"Woodbury","state_name":"Tennessee","lat":35.82599,"lng":-86.0424,"zip":"37190","miles_from_dt":15.91},{"city":"La Vergne","state_name":"Tennessee","lat":36.02177,"lng":-86.55971,"zip":"37086","miles_from_dt":16.42},{"city":"Gladeville","state_name":"Tennessee","lat":36.1938,"lng":-86.27952,"zip":"37071","miles_from_dt":16.6},{"city":"Norene","state_name":"Tennessee","lat":36.19554,"lng":-86.27806,"zip":"37136","miles_from_dt":16.72},{"city":"La Vergne","state_name":"Tennessee","lat":35.99804,"lng":-86.57456,"zip":"37089","miles_from_dt":16.84},{"city":"Alexandria","state_name":"Tennessee","lat":36.07112,"lng":-86.00563,"zip":"37012","miles_from_dt":17.35},{"city":"Lebanon","state_name":"Tennessee","lat":36.20811,"lng":-86.28926,"zip":"37088","miles_from_dt":17.59},{"city":"Christiana","state_name":"Tennessee","lat":35.70272,"lng":-86.35318,"zip":"37037","miles_from_dt":17.75},{"city":"Liberty","state_name":"Tennessee","lat":35.98295,"lng":-85.95919,"zip":"37095","miles_from_dt":18.05},{"city":"Mount Juliet","state_name":"Tennessee","lat":36.17791,"lng":-86.48872,"zip":"37122","miles_from_dt":19.44},{"city":"Bradyville","state_name":"Tennessee","lat":35.69578,"lng":-86.10746,"zip":"37026","miles_from_dt":20.19},{"city":"Rockvale","state_name":"Tennessee","lat":35.7645,"lng":-86.55531,"zip":"37153","miles_from_dt":20.23},{"city":"Brush Creek","state_name":"Tennessee","lat":36.14954,"lng":-86.00833,"zip":"38547","miles_from_dt":20.33},{"city":"Antioch","state_name":"Tennessee","lat":36.04658,"lng":-86.63445,"zip":"37013","miles_from_dt":20.93},{"city":"Dowelltown","state_name":"Tennessee","lat":35.98611,"lng":-85.90798,"zip":"37059","miles_from_dt":20.93},{"city":"Hermitage","state_name":"Tennessee","lat":36.14512,"lng":-86.57977,"zip":"37076","miles_from_dt":21.42},{"city":"Nolensville","state_name":"Tennessee","lat":35.93562,"lng":-86.6625,"zip":"37135","miles_from_dt":21.53},{"city":"Arrington","state_name":"Tennessee","lat":35.8725,"lng":-86.6532,"zip":"37014","miles_from_dt":21.7},{"city":"Beechgrove","state_name":"Tennessee","lat":35.64255,"lng":-86.19876,"zip":"37018","miles_from_dt":21.88},{"city":"Mount Juliet","state_name":"Tennessee","lat":36.20506,"lng":-86.52066,"zip":"37121","miles_from_dt":22.01},{"city":"Lebanon","state_name":"Tennessee","lat":36.2733,"lng":-86.27224,"zip":"37087","miles_from_dt":22.08},{"city":"Gordonsville","state_name":"Tennessee","lat":36.19658,"lng":-86.0147,"zip":"38563","miles_from_dt":22.38},{"city":"Bell Buckle","state_name":"Tennessee","lat":35.62563,"lng":-86.39927,"zip":"37020","miles_from_dt":23.56},{"city":"Hickman","state_name":"Tennessee","lat":36.13392,"lng":-85.91518,"zip":"38567","miles_from_dt":23.89},{"city":"Nashville","state_name":"Tennessee","lat":36.10836,"lng":-86.66178,"zip":"37217","miles_from_dt":23.96},{"city":"Eagleville","state_name":"Tennessee","lat":35.74924,"lng":-86.63428,"zip":"37060","miles_from_dt":24.39},{"city":"Nashville","state_name":"Tennessee","lat":36.10812,"lng":-86.67472,"zip":"37241","miles_from_dt":24.6},{"city":"Nashville","state_name":"Tennessee","lat":36.13254,"lng":-86.66944,"zip":"37227","miles_from_dt":25.12},{"city":"Nashville","state_name":"Tennessee","lat":36.16253,"lng":-86.6637,"zip":"37229","miles_from_dt":25.92},{"city":"Lancaster","state_name":"Tennessee","lat":36.10887,"lng":-85.85647,"zip":"38569","miles_from_dt":25.99},{"city":"Nashville","state_name":"Tennessee","lat":36.16789,"lng":-86.66296,"zip":"37214","miles_from_dt":26.1},{"city":"Nashville","state_name":"Tennessee","lat":36.06704,"lng":-86.72345,"zip":"37211","miles_from_dt":26.1},{"city":"Nashville","state_name":"Tennessee","lat":36.06888,"lng":-86.72625,"zip":"37222","miles_from_dt":26.29},{"city":"College Grove","state_name":"Tennessee","lat":35.77995,"lng":-86.71582,"zip":"37046","miles_from_dt":27.26},{"city":"Smithville","state_name":"Tennessee","lat":35.92444,"lng":-85.78978,"zip":"37166","miles_from_dt":27.51},{"city":"Old Hickory","state_name":"Tennessee","lat":36.24652,"lng":-86.61938,"zip":"37138","miles_from_dt":27.78},{"city":"Franklin","state_name":"Tennessee","lat":35.91314,"lng":-86.77461,"zip":"37067","miles_from_dt":27.92},{"city":"Riddleton","state_name":"Tennessee","lat":36.31288,"lng":-86.04536,"zip":"37151","miles_from_dt":28.04},{"city":"Unionville","state_name":"Tennessee","lat":35.6189,"lng":-86.57679,"zip":"37180","miles_from_dt":28.47},{"city":"Brentwood","state_name":"Tennessee","lat":35.99978,"lng":-86.78439,"zip":"37027","miles_from_dt":28.5},{"city":"Brentwood","state_name":"Tennessee","lat":35.99776,"lng":-86.78583,"zip":"37024","miles_from_dt":28.56},{"city":"Nashville","state_name":"Tennessee","lat":36.1442,"lng":-86.73374,"zip":"37210","miles_from_dt":28.66},{"city":"Carthage","state_name":"Tennessee","lat":36.27374,"lng":-85.95035,"zip":"37030","miles_from_dt":28.76},{"city":"Castalian Springs","state_name":"Tennessee","lat":36.3721,"lng":-86.30328,"zip":"37031","miles_from_dt":28.92},{"city":"Nashville","state_name":"Tennessee","lat":36.06759,"lng":-86.78127,"zip":"37220","miles_from_dt":29.22},{"city":"Nashville","state_name":"Tennessee","lat":36.10669,"lng":-86.77463,"zip":"37204","miles_from_dt":29.7},{"city":"Nashville","state_name":"Tennessee","lat":36.18085,"lng":-86.73117,"zip":"37206","miles_from_dt":29.78},{"city":"Elmwood","state_name":"Tennessee","lat":36.23458,"lng":-85.8713,"zip":"38560","miles_from_dt":29.96}],"targetCityZipCode":"37085","targetCityState":"Tennessee"},"__N_SSG":true}