{"pageProps":{"stateName":"Tennessee","cityName":"loretto","nearbyCities":[{"city":"Saint Joseph","state_name":"Tennessee","lat":35.02813,"lng":-87.48863,"zip":"38481","miles_from_dt":4.69},{"city":"Lexington","state_name":"Alabama","lat":34.95857,"lng":-87.38022,"zip":"35648","miles_from_dt":8.41},{"city":"Five Points","state_name":"Tennessee","lat":35.0297,"lng":-87.28482,"zip":"38457","miles_from_dt":8.66},{"city":"Leoma","state_name":"Tennessee","lat":35.13083,"lng":-87.29072,"zip":"38468","miles_from_dt":8.69},{"city":"Westpoint","state_name":"Tennessee","lat":35.17306,"lng":-87.54029,"zip":"38486","miles_from_dt":9.34},{"city":"Iron City","state_name":"Tennessee","lat":35.06802,"lng":-87.64494,"zip":"38463","miles_from_dt":12.32},{"city":"Killen","state_name":"Alabama","lat":34.89605,"lng":-87.4936,"zip":"35645","miles_from_dt":12.83},{"city":"Anderson","state_name":"Alabama","lat":34.95361,"lng":-87.23714,"zip":"35610","miles_from_dt":13.63},{"city":"Florence","state_name":"Alabama","lat":34.92306,"lng":-87.60738,"zip":"35634","miles_from_dt":14.57},{"city":"Lawrenceburg","state_name":"Tennessee","lat":35.29035,"lng":-87.42845,"zip":"38464","miles_from_dt":14.91},{"city":"Minor Hill","state_name":"Tennessee","lat":35.02775,"lng":-87.17057,"zip":"38473","miles_from_dt":14.92},{"city":"Goodspring","state_name":"Tennessee","lat":35.10116,"lng":-87.15937,"zip":"38460","miles_from_dt":15.32},{"city":"Rogersville","state_name":"Alabama","lat":34.84742,"lng":-87.31137,"zip":"35652","miles_from_dt":16.96},{"city":"Lester","state_name":"Alabama","lat":34.96539,"lng":-87.11933,"zip":"35647","miles_from_dt":19.02},{"city":"Ethridge","state_name":"Tennessee","lat":35.33464,"lng":-87.26559,"zip":"38456","miles_from_dt":20.17},{"city":"Cypress Inn","state_name":"Tennessee","lat":35.07898,"lng":-87.79239,"zip":"38452","miles_from_dt":20.67},{"city":"Florence","state_name":"Alabama","lat":34.82526,"lng":-87.66018,"zip":"35630","miles_from_dt":21.64},{"city":"Cloverdale","state_name":"Alabama","lat":34.93688,"lng":-87.7717,"zip":"35617","miles_from_dt":21.69},{"city":"Muscle Shoals","state_name":"Alabama","lat":34.77737,"lng":-87.56331,"zip":"35661","miles_from_dt":21.86},{"city":"Florence","state_name":"Alabama","lat":34.81056,"lng":-87.65325,"zip":"35631","miles_from_dt":22.23},{"city":"Collinwood","state_name":"Tennessee","lat":35.18523,"lng":-87.80143,"zip":"38450","miles_from_dt":22.51},{"city":"Florence","state_name":"Alabama","lat":34.80763,"lng":-87.68043,"zip":"35632","miles_from_dt":23.31},{"city":"Prospect","state_name":"Tennessee","lat":35.05075,"lng":-87.00932,"zip":"38477","miles_from_dt":23.77},{"city":"Athens","state_name":"Alabama","lat":34.86433,"lng":-87.08457,"zip":"35614","miles_from_dt":24.25},{"city":"Florence","state_name":"Alabama","lat":34.87586,"lng":-87.79645,"zip":"35633","miles_from_dt":24.99},{"city":"Summertown","state_name":"Tennessee","lat":35.43411,"lng":-87.33476,"zip":"38483","miles_from_dt":25.37},{"city":"Pulaski","state_name":"Tennessee","lat":35.21565,"lng":-87.01329,"zip":"38478","miles_from_dt":25.41},{"city":"Muscle Shoals","state_name":"Alabama","lat":34.74468,"lng":-87.6675,"zip":"35662","miles_from_dt":26.48},{"city":"Waynesboro","state_name":"Tennessee","lat":35.33281,"lng":-87.77659,"zip":"38485","miles_from_dt":26.61},{"city":"Sheffield","state_name":"Alabama","lat":34.75837,"lng":-87.69847,"zip":"35660","miles_from_dt":26.65},{"city":"Elkmont","state_name":"Alabama","lat":34.93141,"lng":-86.99086,"zip":"35620","miles_from_dt":26.66},{"city":"Lutts","state_name":"Tennessee","lat":35.0771,"lng":-87.92134,"zip":"38471","miles_from_dt":27.98},{"city":"Leighton","state_name":"Alabama","lat":34.66988,"lng":-87.53165,"zip":"35646","miles_from_dt":28.48},{"city":"Athens","state_name":"Alabama","lat":34.76554,"lng":-87.08418,"zip":"35611","miles_from_dt":28.86},{"city":"Town Creek","state_name":"Alabama","lat":34.65106,"lng":-87.40705,"zip":"35672","miles_from_dt":29.19}],"targetCityZipCode":"38469","targetCityState":"Tennessee"},"__N_SSG":true}