{"pageProps":{"stateName":"Tennessee","cityName":"new-johnsonville","nearbyCities":[{"city":"Waverly","state_name":"Tennessee","lat":36.07118,"lng":-87.8392,"zip":"37185","miles_from_dt":7.88},{"city":"Eva","state_name":"Tennessee","lat":36.12236,"lng":-87.9709,"zip":"38333","miles_from_dt":8.42},{"city":"Camden","state_name":"Tennessee","lat":36.04764,"lng":-88.1095,"zip":"38320","miles_from_dt":9.45},{"city":"Hurricane Mills","state_name":"Tennessee","lat":35.92366,"lng":-87.77138,"zip":"37078","miles_from_dt":11.39},{"city":"Holladay","state_name":"Tennessee","lat":35.87677,"lng":-88.08888,"zip":"38341","miles_from_dt":11.57},{"city":"Sugar Tree","state_name":"Tennessee","lat":35.79114,"lng":-88.03263,"zip":"38380","miles_from_dt":15.21},{"city":"Lobelville","state_name":"Tennessee","lat":35.7785,"lng":-87.8303,"zip":"37097","miles_from_dt":16.79},{"city":"Big Sandy","state_name":"Tennessee","lat":36.24552,"lng":-88.03685,"zip":"38221","miles_from_dt":17.51},{"city":"Buena Vista","state_name":"Tennessee","lat":35.95687,"lng":-88.26189,"zip":"38318","miles_from_dt":17.71},{"city":"McEwen","state_name":"Tennessee","lat":36.06625,"lng":-87.63741,"zip":"37101","miles_from_dt":18.1},{"city":"Bruceton","state_name":"Tennessee","lat":36.05425,"lng":-88.26965,"zip":"38317","miles_from_dt":18.23},{"city":"Only","state_name":"Tennessee","lat":35.86345,"lng":-87.65245,"zip":"37140","miles_from_dt":19.24},{"city":"Westport","state_name":"Tennessee","lat":35.86573,"lng":-88.26968,"zip":"38387","miles_from_dt":20.19},{"city":"Hollow Rock","state_name":"Tennessee","lat":36.10766,"lng":-88.29024,"zip":"38342","miles_from_dt":20.38},{"city":"Mansfield","state_name":"Tennessee","lat":36.17572,"lng":-88.26463,"zip":"38236","miles_from_dt":21.29},{"city":"Stewart","state_name":"Tennessee","lat":36.32349,"lng":-87.89678,"zip":"37175","miles_from_dt":22.41},{"city":"Parsons","state_name":"Tennessee","lat":35.68625,"lng":-88.11051,"zip":"38363","miles_from_dt":23.51},{"city":"Springville","state_name":"Tennessee","lat":36.31388,"lng":-88.12539,"zip":"38256","miles_from_dt":23.66},{"city":"Tennessee Ridge","state_name":"Tennessee","lat":36.3195,"lng":-87.78694,"zip":"37178","miles_from_dt":23.77},{"city":"Erin","state_name":"Tennessee","lat":36.28918,"lng":-87.66528,"zip":"37061","miles_from_dt":25.46},{"city":"Wildersville","state_name":"Tennessee","lat":35.77672,"lng":-88.31535,"zip":"38388","miles_from_dt":25.66},{"city":"Clarksburg","state_name":"Tennessee","lat":35.86284,"lng":-88.37933,"zip":"38324","miles_from_dt":25.87},{"city":"Yuma","state_name":"Tennessee","lat":35.83845,"lng":-88.37797,"zip":"38390","miles_from_dt":26.47},{"city":"Nunnelly","state_name":"Tennessee","lat":35.87912,"lng":-87.50276,"zip":"37137","miles_from_dt":26.49},{"city":"Darden","state_name":"Tennessee","lat":35.67601,"lng":-88.21222,"zip":"38328","miles_from_dt":26.81},{"city":"Huntingdon","state_name":"Tennessee","lat":35.97716,"lng":-88.43066,"zip":"38344","miles_from_dt":26.95},{"city":"Linden","state_name":"Tennessee","lat":35.60487,"lng":-87.86054,"zip":"37096","miles_from_dt":27.8},{"city":"Centerville","state_name":"Tennessee","lat":35.73493,"lng":-87.55365,"zip":"37033","miles_from_dt":28.88},{"city":"Dickson","state_name":"Tennessee","lat":36.07921,"lng":-87.44238,"zip":"37055","miles_from_dt":28.96}],"targetCityZipCode":"37134","targetCityState":"Tennessee"},"__N_SSG":true}