{"pageProps":{"stateName":"Tennessee","cityName":"pleasant-hill","nearbyCities":[{"city":"Crossville","state_name":"Tennessee","lat":35.84764,"lng":-85.12778,"zip":"38572","miles_from_dt":9.98},{"city":"Monterey","state_name":"Tennessee","lat":36.141,"lng":-85.22498,"zip":"38574","miles_from_dt":11.18},{"city":"Crossville","state_name":"Tennessee","lat":36.0513,"lng":-85.01374,"zip":"38571","miles_from_dt":11.47},{"city":"Crossville","state_name":"Tennessee","lat":35.97897,"lng":-84.97066,"zip":"38557","miles_from_dt":12.79},{"city":"Sparta","state_name":"Tennessee","lat":35.94649,"lng":-85.43781,"zip":"38583","miles_from_dt":13.59},{"city":"Crossville","state_name":"Tennessee","lat":35.88956,"lng":-84.97537,"zip":"38555","miles_from_dt":14.01},{"city":"Crossville","state_name":"Tennessee","lat":36.00532,"lng":-84.87374,"zip":"38558","miles_from_dt":18.3},{"city":"Crawford","state_name":"Tennessee","lat":36.25131,"lng":-85.16095,"zip":"38554","miles_from_dt":18.8},{"city":"Clarkrange","state_name":"Tennessee","lat":36.20322,"lng":-85.00442,"zip":"38553","miles_from_dt":18.83},{"city":"Cookeville","state_name":"Tennessee","lat":36.18334,"lng":-85.44246,"zip":"38506","miles_from_dt":19.54},{"city":"Cookeville","state_name":"Tennessee","lat":36.16105,"lng":-85.49944,"zip":"38502","miles_from_dt":20.94},{"city":"Rickman","state_name":"Tennessee","lat":36.27729,"lng":-85.29522,"zip":"38580","miles_from_dt":21.17},{"city":"Crab Orchard","state_name":"Tennessee","lat":35.96044,"lng":-84.82171,"zip":"37723","miles_from_dt":21.18},{"city":"Doyle","state_name":"Tennessee","lat":35.80692,"lng":-85.51334,"zip":"38559","miles_from_dt":21.31},{"city":"Cookeville","state_name":"Tennessee","lat":36.16333,"lng":-85.50588,"zip":"38503","miles_from_dt":21.32},{"city":"Cookeville","state_name":"Tennessee","lat":36.17316,"lng":-85.50559,"zip":"38505","miles_from_dt":21.71},{"city":"Wilder","state_name":"Tennessee","lat":36.28551,"lng":-85.07624,"zip":"38589","miles_from_dt":22.13},{"city":"Quebeck","state_name":"Tennessee","lat":35.83218,"lng":-85.54919,"zip":"38579","miles_from_dt":22.15},{"city":"Grimsley","state_name":"Tennessee","lat":36.26296,"lng":-85.00992,"zip":"38565","miles_from_dt":22.17},{"city":"Grandview","state_name":"Tennessee","lat":35.78594,"lng":-84.86651,"zip":"37337","miles_from_dt":22.96},{"city":"Allred","state_name":"Tennessee","lat":36.31576,"lng":-85.20113,"zip":"38542","miles_from_dt":23.13},{"city":"Spencer","state_name":"Tennessee","lat":35.68995,"lng":-85.42274,"zip":"38585","miles_from_dt":23.64},{"city":"Pikeville","state_name":"Tennessee","lat":35.62959,"lng":-85.21832,"zip":"37367","miles_from_dt":24.2},{"city":"Walling","state_name":"Tennessee","lat":35.8677,"lng":-85.61723,"zip":"38587","miles_from_dt":24.71},{"city":"Deer Lodge","state_name":"Tennessee","lat":36.20464,"lng":-84.8386,"zip":"37726","miles_from_dt":25.41},{"city":"Cookeville","state_name":"Tennessee","lat":36.22682,"lng":-85.53841,"zip":"38501","miles_from_dt":25.49},{"city":"Spring City","state_name":"Tennessee","lat":35.68533,"lng":-84.8775,"zip":"37381","miles_from_dt":27.19},{"city":"Alpine","state_name":"Tennessee","lat":36.37514,"lng":-85.15931,"zip":"38543","miles_from_dt":27.31},{"city":"Baxter","state_name":"Tennessee","lat":36.11605,"lng":-85.66238,"zip":"38544","miles_from_dt":27.59},{"city":"Rockwood","state_name":"Tennessee","lat":35.88004,"lng":-84.71454,"zip":"37854","miles_from_dt":28.02},{"city":"Livingston","state_name":"Tennessee","lat":36.37678,"lng":-85.31983,"zip":"38570","miles_from_dt":28.16},{"city":"Campaign","state_name":"Tennessee","lat":35.76982,"lng":-85.63268,"zip":"38550","miles_from_dt":28.34},{"city":"Rock Island","state_name":"Tennessee","lat":35.73834,"lng":-85.62141,"zip":"38581","miles_from_dt":29},{"city":"Evensville","state_name":"Tennessee","lat":35.59418,"lng":-84.96277,"zip":"37332","miles_from_dt":29.74}],"targetCityZipCode":"38578","targetCityState":"Tennessee"},"__N_SSG":true}