{"pageProps":{"stateName":"Tennessee","cityName":"puryear","nearbyCities":[{"city":"Hazel","state_name":"Kentucky","lat":36.51874,"lng":-88.31828,"zip":"42049","miles_from_dt":5.37},{"city":"Cottage Grove","state_name":"Tennessee","lat":36.39172,"lng":-88.48774,"zip":"38224","miles_from_dt":8.36},{"city":"Como","state_name":"Tennessee","lat":36.35779,"lng":-88.4638,"zip":"38223","miles_from_dt":8.65},{"city":"Paris","state_name":"Tennessee","lat":36.3076,"lng":-88.33244,"zip":"38242","miles_from_dt":9.64},{"city":"Buchanan","state_name":"Tennessee","lat":36.44512,"lng":-88.16288,"zip":"38222","miles_from_dt":10.64},{"city":"Murray","state_name":"Kentucky","lat":36.62139,"lng":-88.28291,"zip":"42071","miles_from_dt":12.7},{"city":"Palmersville","state_name":"Tennessee","lat":36.42852,"lng":-88.58964,"zip":"38241","miles_from_dt":13.19},{"city":"Lynnville","state_name":"Kentucky","lat":36.55928,"lng":-88.56838,"zip":"42063","miles_from_dt":14.25},{"city":"Sedalia","state_name":"Kentucky","lat":36.55978,"lng":-88.57611,"zip":"42079","miles_from_dt":14.63},{"city":"Farmington","state_name":"Kentucky","lat":36.62454,"lng":-88.50371,"zip":"42040","miles_from_dt":14.85},{"city":"Springville","state_name":"Tennessee","lat":36.31388,"lng":-88.12539,"zip":"38256","miles_from_dt":15.68},{"city":"New Concord","state_name":"Kentucky","lat":36.55906,"lng":-88.09473,"zip":"42076","miles_from_dt":16.39},{"city":"Henry","state_name":"Tennessee","lat":36.21277,"lng":-88.42442,"zip":"38231","miles_from_dt":16.58},{"city":"Almo","state_name":"Kentucky","lat":36.68913,"lng":-88.29145,"zip":"42020","miles_from_dt":17.1},{"city":"Dukedom","state_name":"Tennessee","lat":36.47722,"lng":-88.66382,"zip":"38226","miles_from_dt":17.39},{"city":"Kirksey","state_name":"Kentucky","lat":36.71734,"lng":-88.43149,"zip":"42054","miles_from_dt":19.18},{"city":"Mansfield","state_name":"Tennessee","lat":36.17572,"lng":-88.26463,"zip":"38236","miles_from_dt":19.31},{"city":"Dresden","state_name":"Tennessee","lat":36.31764,"lng":-88.67937,"zip":"38225","miles_from_dt":20.2},{"city":"Dexter","state_name":"Kentucky","lat":36.72246,"lng":-88.23048,"zip":"42036","miles_from_dt":20.24},{"city":"Gleason","state_name":"Tennessee","lat":36.22108,"lng":-88.60939,"zip":"38229","miles_from_dt":21.08},{"city":"Big Sandy","state_name":"Tennessee","lat":36.24552,"lng":-88.03685,"zip":"38221","miles_from_dt":22.46},{"city":"Hardin","state_name":"Kentucky","lat":36.76676,"lng":-88.23533,"zip":"42048","miles_from_dt":23.06},{"city":"Hollow Rock","state_name":"Tennessee","lat":36.10766,"lng":-88.29024,"zip":"38342","miles_from_dt":23.62},{"city":"McKenzie","state_name":"Tennessee","lat":36.12335,"lng":-88.53131,"zip":"38201","miles_from_dt":24.37},{"city":"Wingo","state_name":"Kentucky","lat":36.61808,"lng":-88.75409,"zip":"42088","miles_from_dt":25.22},{"city":"Mayfield","state_name":"Kentucky","lat":36.73328,"lng":-88.6403,"zip":"42066","miles_from_dt":25.4},{"city":"Water Valley","state_name":"Kentucky","lat":36.56942,"lng":-88.80044,"zip":"42085","miles_from_dt":26.26},{"city":"Dover","state_name":"Tennessee","lat":36.47872,"lng":-87.8807,"zip":"37058","miles_from_dt":26.45},{"city":"Stewart","state_name":"Tennessee","lat":36.32349,"lng":-87.89678,"zip":"37175","miles_from_dt":26.86},{"city":"Martin","state_name":"Tennessee","lat":36.36406,"lng":-88.83162,"zip":"38237","miles_from_dt":27.22},{"city":"Bruceton","state_name":"Tennessee","lat":36.05425,"lng":-88.26965,"zip":"38317","miles_from_dt":27.44},{"city":"Benton","state_name":"Kentucky","lat":36.85764,"lng":-88.33441,"zip":"42025","miles_from_dt":28.38},{"city":"Martin","state_name":"Tennessee","lat":36.34433,"lng":-88.85826,"zip":"38238","miles_from_dt":28.98},{"city":"South Fulton","state_name":"Tennessee","lat":36.46386,"lng":-88.88397,"zip":"38257","miles_from_dt":29.55},{"city":"Fulton","state_name":"Kentucky","lat":36.54593,"lng":-88.87456,"zip":"42041","miles_from_dt":29.79}],"targetCityZipCode":"38251","targetCityState":"Tennessee"},"__N_SSG":true}