{"pageProps":{"stateName":"Tennessee","cityName":"ridgely","nearbyCities":[{"city":"Bogota","state_name":"Tennessee","lat":36.16422,"lng":-89.43925,"zip":"38007","miles_from_dt":5.31},{"city":"Wynnburg","state_name":"Tennessee","lat":36.32852,"lng":-89.4744,"zip":"38077","miles_from_dt":9.05},{"city":"Lenox","state_name":"Tennessee","lat":36.06499,"lng":-89.55569,"zip":"38047","miles_from_dt":9.7},{"city":"Caruthersville","state_name":"Missouri","lat":36.14065,"lng":-89.6871,"zip":"63830","miles_from_dt":10.21},{"city":"Obion","state_name":"Tennessee","lat":36.25091,"lng":-89.32045,"zip":"38240","miles_from_dt":11.7},{"city":"Hayti","state_name":"Missouri","lat":36.25762,"lng":-89.72352,"zip":"63851","miles_from_dt":11.9},{"city":"Dyersburg","state_name":"Tennessee","lat":36.03743,"lng":-89.38511,"zip":"38024","miles_from_dt":13.73},{"city":"Dyersburg","state_name":"Tennessee","lat":36.03608,"lng":-89.38331,"zip":"38025","miles_from_dt":13.86},{"city":"Finley","state_name":"Tennessee","lat":35.99942,"lng":-89.59981,"zip":"38030","miles_from_dt":14.7},{"city":"Tiptonville","state_name":"Tennessee","lat":36.41378,"lng":-89.47032,"zip":"38079","miles_from_dt":14.81},{"city":"Hornbeak","state_name":"Tennessee","lat":36.34828,"lng":-89.32295,"zip":"38232","miles_from_dt":14.94},{"city":"Samburg","state_name":"Tennessee","lat":36.37444,"lng":-89.34662,"zip":"38254","miles_from_dt":15.33},{"city":"Newbern","state_name":"Tennessee","lat":36.11132,"lng":-89.24113,"zip":"38059","miles_from_dt":16.9},{"city":"Portageville","state_name":"Missouri","lat":36.42791,"lng":-89.65965,"zip":"63873","miles_from_dt":17.32},{"city":"Braggadocio","state_name":"Missouri","lat":36.18361,"lng":-89.84486,"zip":"63826","miles_from_dt":18.13},{"city":"Trimble","state_name":"Tennessee","lat":36.20204,"lng":-89.18439,"zip":"38259","miles_from_dt":18.83},{"city":"Wardell","state_name":"Missouri","lat":36.35752,"lng":-89.80945,"zip":"63879","miles_from_dt":19.29},{"city":"Cooter","state_name":"Missouri","lat":36.04748,"lng":-89.8097,"zip":"63839","miles_from_dt":19.36},{"city":"Deering","state_name":"Missouri","lat":36.19113,"lng":-89.88426,"zip":"63840","miles_from_dt":20.29},{"city":"Steele","state_name":"Missouri","lat":36.07377,"lng":-89.85118,"zip":"63877","miles_from_dt":20.48},{"city":"Troy","state_name":"Tennessee","lat":36.36961,"lng":-89.21128,"zip":"38260","miles_from_dt":20.78},{"city":"Bragg City","state_name":"Missouri","lat":36.26133,"lng":-89.89226,"zip":"63827","miles_from_dt":21.1},{"city":"Holland","state_name":"Missouri","lat":36.05834,"lng":-89.86738,"zip":"63853","miles_from_dt":21.77},{"city":"Halls","state_name":"Tennessee","lat":35.88185,"lng":-89.48065,"zip":"38040","miles_from_dt":22.26},{"city":"Marston","state_name":"Missouri","lat":36.52606,"lng":-89.60654,"zip":"63866","miles_from_dt":22.78},{"city":"Yorkville","state_name":"Tennessee","lat":36.10315,"lng":-89.12134,"zip":"38389","miles_from_dt":23.41},{"city":"Tigrett","state_name":"Tennessee","lat":35.94045,"lng":-89.24915,"zip":"38070","miles_from_dt":23.66},{"city":"Armorel","state_name":"Arkansas","lat":35.91768,"lng":-89.79886,"zip":"72310","miles_from_dt":25.06},{"city":"Friendship","state_name":"Tennessee","lat":35.91273,"lng":-89.236,"zip":"38034","miles_from_dt":25.61},{"city":"Gideon","state_name":"Missouri","lat":36.44053,"lng":-89.88219,"zip":"63848","miles_from_dt":25.95},{"city":"Kenton","state_name":"Tennessee","lat":36.20411,"lng":-89.04622,"zip":"38233","miles_from_dt":26.55},{"city":"Tallapoosa","state_name":"Missouri","lat":36.50302,"lng":-89.82234,"zip":"63878","miles_from_dt":26.64},{"city":"Rives","state_name":"Tennessee","lat":36.29821,"lng":-89.05822,"zip":"38253","miles_from_dt":26.69},{"city":"Gobler","state_name":"Missouri","lat":36.13287,"lng":-89.99109,"zip":"63849","miles_from_dt":26.7},{"city":"Eaton","state_name":"Tennessee","lat":35.97297,"lng":-89.13343,"zip":"38331","miles_from_dt":26.89},{"city":"Woodland Mills","state_name":"Tennessee","lat":36.43031,"lng":-89.123,"zip":"38271","miles_from_dt":27.2},{"city":"Union City","state_name":"Tennessee","lat":36.43214,"lng":-89.11583,"zip":"38261","miles_from_dt":27.6},{"city":"Lilbourn","state_name":"Missouri","lat":36.58974,"lng":-89.67345,"zip":"63862","miles_from_dt":27.98},{"city":"New Madrid","state_name":"Missouri","lat":36.60768,"lng":-89.48111,"zip":"63869","miles_from_dt":28},{"city":"Rives","state_name":"Missouri","lat":36.09599,"lng":-90.0148,"zip":"63875","miles_from_dt":28.56},{"city":"Dyer","state_name":"Tennessee","lat":36.0675,"lng":-89.03316,"zip":"38330","miles_from_dt":28.86},{"city":"Blytheville","state_name":"Arkansas","lat":35.92993,"lng":-89.9169,"zip":"72316","miles_from_dt":29.06},{"city":"Gates","state_name":"Tennessee","lat":35.79433,"lng":-89.39232,"zip":"38037","miles_from_dt":29.09},{"city":"Kennett","state_name":"Missouri","lat":36.22402,"lng":-90.04612,"zip":"63857","miles_from_dt":29.35},{"city":"Risco","state_name":"Missouri","lat":36.55566,"lng":-89.81645,"zip":"63874","miles_from_dt":29.36},{"city":"Whiteoak","state_name":"Missouri","lat":36.32986,"lng":-90.02585,"zip":"63880","miles_from_dt":29.49},{"city":"Hickman","state_name":"Kentucky","lat":36.54675,"lng":-89.20347,"zip":"42050","miles_from_dt":29.6},{"city":"Crockett Mills","state_name":"Tennessee","lat":35.87042,"lng":-89.18411,"zip":"38021","miles_from_dt":29.71},{"city":"Holcomb","state_name":"Missouri","lat":36.36748,"lng":-90.01435,"zip":"63852","miles_from_dt":29.76},{"city":"Blytheville","state_name":"Arkansas","lat":35.90093,"lng":-89.9029,"zip":"72315","miles_from_dt":29.83}],"targetCityZipCode":"38080","targetCityState":"Tennessee"},"__N_SSG":true}