{"pageProps":{"stateName":"Tennessee","cityName":"sale-creek","nearbyCities":[{"city":"Bakewell","state_name":"Tennessee","lat":35.38222,"lng":-85.10889,"zip":"37304","miles_from_dt":0.91},{"city":"Graysville","state_name":"Tennessee","lat":35.42356,"lng":-85.20942,"zip":"37338","miles_from_dt":6.29},{"city":"Birchwood","state_name":"Tennessee","lat":35.3476,"lng":-84.99728,"zip":"37308","miles_from_dt":6.83},{"city":"Soddy Daisy","state_name":"Tennessee","lat":35.29407,"lng":-85.17429,"zip":"37379","miles_from_dt":8},{"city":"Soddy Daisy","state_name":"Tennessee","lat":35.27505,"lng":-85.16771,"zip":"37384","miles_from_dt":9.01},{"city":"Dayton","state_name":"Tennessee","lat":35.50239,"lng":-85.00801,"zip":"37321","miles_from_dt":9.18},{"city":"Georgetown","state_name":"Tennessee","lat":35.30117,"lng":-84.93413,"zip":"37336","miles_from_dt":11.55},{"city":"Harrison","state_name":"Tennessee","lat":35.21386,"lng":-85.0834,"zip":"37341","miles_from_dt":12.52},{"city":"Evensville","state_name":"Tennessee","lat":35.59418,"lng":-84.96277,"zip":"37332","miles_from_dt":15.88},{"city":"Hixson","state_name":"Tennessee","lat":35.16904,"lng":-85.20899,"zip":"37343","miles_from_dt":16.66},{"city":"Dunlap","state_name":"Tennessee","lat":35.42251,"lng":-85.39993,"zip":"37327","miles_from_dt":16.83},{"city":"Cleveland","state_name":"Tennessee","lat":35.2286,"lng":-84.87344,"zip":"37312","miles_from_dt":17.34},{"city":"Pikeville","state_name":"Tennessee","lat":35.62959,"lng":-85.21832,"zip":"37367","miles_from_dt":17.43},{"city":"Decatur","state_name":"Tennessee","lat":35.49562,"lng":-84.81512,"zip":"37322","miles_from_dt":17.7},{"city":"Signal Mountain","state_name":"Tennessee","lat":35.21243,"lng":-85.3389,"zip":"37377","miles_from_dt":18.29},{"city":"Ooltewah","state_name":"Tennessee","lat":35.11551,"lng":-85.0549,"zip":"37363","miles_from_dt":19.45},{"city":"McDonald","state_name":"Tennessee","lat":35.12288,"lng":-84.9855,"zip":"37353","miles_from_dt":19.9},{"city":"Charleston","state_name":"Tennessee","lat":35.26237,"lng":-84.77767,"zip":"37310","miles_from_dt":20.56},{"city":"Chattanooga","state_name":"Tennessee","lat":35.09856,"lng":-85.15751,"zip":"37416","miles_from_dt":20.64},{"city":"Cleveland","state_name":"Tennessee","lat":35.15767,"lng":-84.87717,"zip":"37320","miles_from_dt":20.77},{"city":"Chattanooga","state_name":"Tennessee","lat":35.12735,"lng":-85.27932,"zip":"37415","miles_from_dt":20.94},{"city":"Calhoun","state_name":"Tennessee","lat":35.30595,"lng":-84.74453,"zip":"37309","miles_from_dt":21.19},{"city":"Lupton City","state_name":"Tennessee","lat":35.10073,"lng":-85.26135,"zip":"37351","miles_from_dt":22.14},{"city":"Cleveland","state_name":"Tennessee","lat":35.15729,"lng":-84.83553,"zip":"37364","miles_from_dt":22.31},{"city":"Chattanooga","state_name":"Tennessee","lat":35.14105,"lng":-85.34866,"zip":"37422","miles_from_dt":22.31},{"city":"Cleveland","state_name":"Tennessee","lat":35.10054,"lng":-84.92298,"zip":"37311","miles_from_dt":22.71},{"city":"Riceville","state_name":"Tennessee","lat":35.35903,"lng":-84.70064,"zip":"37370","miles_from_dt":22.89},{"city":"Chattanooga","state_name":"Tennessee","lat":35.07246,"lng":-85.24541,"zip":"37406","miles_from_dt":23.62},{"city":"Spring City","state_name":"Tennessee","lat":35.68533,"lng":-84.8775,"zip":"37381","miles_from_dt":23.74},{"city":"Collegedale","state_name":"Tennessee","lat":35.04722,"lng":-85.05158,"zip":"37315","miles_from_dt":24.14},{"city":"Palmer","state_name":"Tennessee","lat":35.37287,"lng":-85.54013,"zip":"37365","miles_from_dt":24.68},{"city":"Chattanooga","state_name":"Tennessee","lat":35.03024,"lng":-85.14847,"zip":"37424","miles_from_dt":25.26},{"city":"Chattanooga","state_name":"Tennessee","lat":35.02915,"lng":-85.153,"zip":"37421","miles_from_dt":25.36},{"city":"Chattanooga","state_name":"Tennessee","lat":35.11757,"lng":-85.40429,"zip":"37405","miles_from_dt":25.57},{"city":"Cleveland","state_name":"Tennessee","lat":35.09627,"lng":-84.81984,"zip":"37323","miles_from_dt":26.1},{"city":"Chattanooga","state_name":"Tennessee","lat":35.0476,"lng":-85.29448,"zip":"37403","miles_from_dt":26.25},{"city":"Athens","state_name":"Tennessee","lat":35.4403,"lng":-84.64051,"zip":"37303","miles_from_dt":26.33},{"city":"Chattanooga","state_name":"Tennessee","lat":35.02655,"lng":-85.23026,"zip":"37411","miles_from_dt":26.37},{"city":"Chattanooga","state_name":"Tennessee","lat":35.0262,"lng":-85.23041,"zip":"37414","miles_from_dt":26.4},{"city":"Chattanooga","state_name":"Tennessee","lat":35.04897,"lng":-85.31217,"zip":"37450","miles_from_dt":26.59},{"city":"Whitwell","state_name":"Tennessee","lat":35.21046,"lng":-85.51819,"zip":"37397","miles_from_dt":26.65},{"city":"Apison","state_name":"Tennessee","lat":35.01303,"lng":-85.01961,"zip":"37302","miles_from_dt":26.74},{"city":"Chattanooga","state_name":"Tennessee","lat":35.04672,"lng":-85.31553,"zip":"37402","miles_from_dt":26.82},{"city":"Chattanooga","state_name":"Tennessee","lat":35.02827,"lng":-85.27331,"zip":"37404","miles_from_dt":27.03},{"city":"Spencer","state_name":"Tennessee","lat":35.68995,"lng":-85.42274,"zip":"38585","miles_from_dt":27.15},{"city":"Chattanooga","state_name":"Tennessee","lat":35.03852,"lng":-85.30885,"zip":"37401","miles_from_dt":27.16},{"city":"Chattanooga","state_name":"Tennessee","lat":35.03048,"lng":-85.31237,"zip":"37408","miles_from_dt":27.75},{"city":"Chattanooga","state_name":"Tennessee","lat":34.9974,"lng":-85.22726,"zip":"37412","miles_from_dt":28.27},{"city":"Athens","state_name":"Tennessee","lat":35.44315,"lng":-84.59479,"zip":"37371","miles_from_dt":28.91},{"city":"Graysville","state_name":"Georgia","lat":34.97579,"lng":-85.13959,"zip":"30726","miles_from_dt":28.95},{"city":"Chattanooga","state_name":"Tennessee","lat":35.002,"lng":-85.28941,"zip":"37407","miles_from_dt":29.04},{"city":"Chattanooga","state_name":"Tennessee","lat":35.002,"lng":-85.31366,"zip":"37410","miles_from_dt":29.57},{"city":"Delano","state_name":"Tennessee","lat":35.24726,"lng":-84.61108,"zip":"37325","miles_from_dt":29.63},{"city":"Gruetli Laager","state_name":"Tennessee","lat":35.37386,"lng":-85.63222,"zip":"37339","miles_from_dt":29.87}],"targetCityZipCode":"37373","targetCityState":"Tennessee"},"__N_SSG":true}