{"pageProps":{"stateName":"Tennessee","cityName":"shiloh","nearbyCities":[{"city":"Stantonville","state_name":"Tennessee","lat":35.16388,"lng":-88.42825,"zip":"38379","miles_from_dt":5.3},{"city":"Michie","state_name":"Tennessee","lat":35.04888,"lng":-88.4112,"zip":"38357","miles_from_dt":6.74},{"city":"Crump","state_name":"Tennessee","lat":35.22348,"lng":-88.30085,"zip":"38327","miles_from_dt":6.92},{"city":"Counce","state_name":"Tennessee","lat":35.04419,"lng":-88.27514,"zip":"38326","miles_from_dt":7.09},{"city":"Pickwick Dam","state_name":"Tennessee","lat":35.05383,"lng":-88.23627,"zip":"38365","miles_from_dt":8.06},{"city":"Adamsville","state_name":"Tennessee","lat":35.26175,"lng":-88.39832,"zip":"38310","miles_from_dt":9.6},{"city":"Guys","state_name":"Tennessee","lat":35.0524,"lng":-88.5147,"zip":"38339","miles_from_dt":11.02},{"city":"Savannah","state_name":"Tennessee","lat":35.16516,"lng":-88.14523,"zip":"38372","miles_from_dt":11.54},{"city":"Morris Chapel","state_name":"Tennessee","lat":35.31897,"lng":-88.29232,"zip":"38361","miles_from_dt":13.37},{"city":"Selmer","state_name":"Tennessee","lat":35.16142,"lng":-88.58811,"zip":"38375","miles_from_dt":13.97},{"city":"Milledgeville","state_name":"Tennessee","lat":35.37222,"lng":-88.35109,"zip":"38359","miles_from_dt":16.72},{"city":"Corinth","state_name":"Mississippi","lat":34.93228,"lng":-88.51865,"zip":"38835","miles_from_dt":16.82},{"city":"Ramer","state_name":"Tennessee","lat":35.05266,"lng":-88.62728,"zip":"38367","miles_from_dt":16.88},{"city":"Chewalla","state_name":"Tennessee","lat":35.05464,"lng":-88.63584,"zip":"38393","miles_from_dt":17.3},{"city":"Bethel Springs","state_name":"Tennessee","lat":35.26918,"lng":-88.6241,"zip":"38315","miles_from_dt":18.51},{"city":"Saltillo","state_name":"Tennessee","lat":35.38942,"lng":-88.2465,"zip":"38370","miles_from_dt":18.74},{"city":"Corinth","state_name":"Mississippi","lat":34.91627,"lng":-88.56027,"zip":"38834","miles_from_dt":19.14},{"city":"Glen","state_name":"Mississippi","lat":34.85135,"lng":-88.39501,"zip":"38846","miles_from_dt":19.4},{"city":"Olivehill","state_name":"Tennessee","lat":35.2624,"lng":-88.02336,"zip":"38475","miles_from_dt":20.34},{"city":"Sardis","state_name":"Tennessee","lat":35.42346,"lng":-88.2967,"zip":"38371","miles_from_dt":20.43},{"city":"Enville","state_name":"Tennessee","lat":35.41978,"lng":-88.42934,"zip":"38332","miles_from_dt":20.56},{"city":"Finger","state_name":"Tennessee","lat":35.35342,"lng":-88.58977,"zip":"38334","miles_from_dt":20.74},{"city":"Iuka","state_name":"Mississippi","lat":34.84484,"lng":-88.21598,"zip":"38852","miles_from_dt":20.95},{"city":"Burnsville","state_name":"Mississippi","lat":34.82259,"lng":-88.34274,"zip":"38833","miles_from_dt":21.17},{"city":"Waterloo","state_name":"Alabama","lat":34.95367,"lng":-88.02529,"zip":"35677","miles_from_dt":21.79},{"city":"Pocahontas","state_name":"Tennessee","lat":35.06704,"lng":-88.7647,"zip":"38061","miles_from_dt":24.2},{"city":"Lutts","state_name":"Tennessee","lat":35.0771,"lng":-87.92134,"zip":"38471","miles_from_dt":24.24},{"city":"Jacks Creek","state_name":"Tennessee","lat":35.47632,"lng":-88.49846,"zip":"38347","miles_from_dt":25.43},{"city":"Bath Springs","state_name":"Tennessee","lat":35.43842,"lng":-88.09737,"zip":"38311","miles_from_dt":25.45},{"city":"Reagan","state_name":"Tennessee","lat":35.50191,"lng":-88.35659,"zip":"38368","miles_from_dt":25.67},{"city":"Hornsby","state_name":"Tennessee","lat":35.20736,"lng":-88.80244,"zip":"38044","miles_from_dt":26.47},{"city":"Henderson","state_name":"Tennessee","lat":35.40021,"lng":-88.68226,"zip":"38340","miles_from_dt":26.69},{"city":"Scotts Hill","state_name":"Tennessee","lat":35.51192,"lng":-88.23469,"zip":"38374","miles_from_dt":27.07},{"city":"Rienzi","state_name":"Mississippi","lat":34.78003,"lng":-88.58821,"zip":"38865","miles_from_dt":27.79},{"city":"Clifton","state_name":"Tennessee","lat":35.40706,"lng":-87.96588,"zip":"38425","miles_from_dt":28.7},{"city":"Luray","state_name":"Tennessee","lat":35.53037,"lng":-88.53308,"zip":"38352","miles_from_dt":29.6}],"targetCityZipCode":"38376","targetCityState":"Tennessee"},"__N_SSG":true}