{"pageProps":{"stateName":"Tennessee","cityName":"sparta","nearbyCities":[{"city":"Quebeck","state_name":"Tennessee","lat":35.83218,"lng":-85.54919,"zip":"38579","miles_from_dt":10.06},{"city":"Doyle","state_name":"Tennessee","lat":35.80692,"lng":-85.51334,"zip":"38559","miles_from_dt":10.51},{"city":"Walling","state_name":"Tennessee","lat":35.8677,"lng":-85.61723,"zip":"38587","miles_from_dt":11.44},{"city":"Pleasant Hill","state_name":"Tennessee","lat":35.98031,"lng":-85.19886,"zip":"38578","miles_from_dt":13.59},{"city":"Cookeville","state_name":"Tennessee","lat":36.16105,"lng":-85.49944,"zip":"38502","miles_from_dt":15.19},{"city":"Cookeville","state_name":"Tennessee","lat":36.16333,"lng":-85.50588,"zip":"38503","miles_from_dt":15.43},{"city":"Cookeville","state_name":"Tennessee","lat":36.17316,"lng":-85.50559,"zip":"38505","miles_from_dt":16.08},{"city":"Cookeville","state_name":"Tennessee","lat":36.18334,"lng":-85.44246,"zip":"38506","miles_from_dt":16.33},{"city":"Campaign","state_name":"Tennessee","lat":35.76982,"lng":-85.63268,"zip":"38550","miles_from_dt":16.37},{"city":"Baxter","state_name":"Tennessee","lat":36.11605,"lng":-85.66238,"zip":"38544","miles_from_dt":17.17},{"city":"Rock Island","state_name":"Tennessee","lat":35.73834,"lng":-85.62141,"zip":"38581","miles_from_dt":17.67},{"city":"Spencer","state_name":"Tennessee","lat":35.68995,"lng":-85.42274,"zip":"38585","miles_from_dt":17.71},{"city":"Monterey","state_name":"Tennessee","lat":36.141,"lng":-85.22498,"zip":"38574","miles_from_dt":17.94},{"city":"Crossville","state_name":"Tennessee","lat":35.84764,"lng":-85.12778,"zip":"38572","miles_from_dt":18.68},{"city":"Smithville","state_name":"Tennessee","lat":35.92444,"lng":-85.78978,"zip":"37166","miles_from_dt":19.79},{"city":"Cookeville","state_name":"Tennessee","lat":36.22682,"lng":-85.53841,"zip":"38501","miles_from_dt":20.13},{"city":"Silver Point","state_name":"Tennessee","lat":36.09431,"lng":-85.75382,"zip":"38582","miles_from_dt":20.42},{"city":"Bloomington Springs","state_name":"Tennessee","lat":36.23133,"lng":-85.65964,"zip":"38545","miles_from_dt":23.23},{"city":"Rickman","state_name":"Tennessee","lat":36.27729,"lng":-85.29522,"zip":"38580","miles_from_dt":24.16},{"city":"Crossville","state_name":"Tennessee","lat":36.0513,"lng":-85.01374,"zip":"38571","miles_from_dt":24.83},{"city":"Pikeville","state_name":"Tennessee","lat":35.62959,"lng":-85.21832,"zip":"37367","miles_from_dt":25.09},{"city":"Buffalo Valley","state_name":"Tennessee","lat":36.17252,"lng":-85.79197,"zip":"38548","miles_from_dt":25.22},{"city":"Lancaster","state_name":"Tennessee","lat":36.10887,"lng":-85.85647,"zip":"38569","miles_from_dt":25.98},{"city":"Mcminnville","state_name":"Tennessee","lat":35.68775,"lng":-85.77551,"zip":"37111","miles_from_dt":26.04},{"city":"Crawford","state_name":"Tennessee","lat":36.25131,"lng":-85.16095,"zip":"38554","miles_from_dt":26.11},{"city":"Crossville","state_name":"Tennessee","lat":35.88956,"lng":-84.97537,"zip":"38555","miles_from_dt":26.23},{"city":"Crossville","state_name":"Tennessee","lat":35.97897,"lng":-84.97066,"zip":"38557","miles_from_dt":26.28},{"city":"Dowelltown","state_name":"Tennessee","lat":35.98611,"lng":-85.90798,"zip":"37059","miles_from_dt":26.49},{"city":"Mcminnville","state_name":"Tennessee","lat":35.6436,"lng":-85.74314,"zip":"37110","miles_from_dt":27.02},{"city":"Chestnut Mound","state_name":"Tennessee","lat":36.2166,"lng":-85.81195,"zip":"38552","miles_from_dt":28.02},{"city":"Granville","state_name":"Tennessee","lat":36.27144,"lng":-85.75364,"zip":"38564","miles_from_dt":28.53},{"city":"Allred","state_name":"Tennessee","lat":36.31576,"lng":-85.20113,"zip":"38542","miles_from_dt":28.7},{"city":"Liberty","state_name":"Tennessee","lat":35.98295,"lng":-85.95919,"zip":"37095","miles_from_dt":29.33},{"city":"Hickman","state_name":"Tennessee","lat":36.13392,"lng":-85.91518,"zip":"38567","miles_from_dt":29.69}],"targetCityZipCode":"38583","targetCityState":"Tennessee"},"__N_SSG":true}