{"pageProps":{"stateName":"Tennessee","cityName":"spencer","nearbyCities":[{"city":"Doyle","state_name":"Tennessee","lat":35.80692,"lng":-85.51334,"zip":"38559","miles_from_dt":9.54},{"city":"Rock Island","state_name":"Tennessee","lat":35.73834,"lng":-85.62141,"zip":"38581","miles_from_dt":11.66},{"city":"Quebeck","state_name":"Tennessee","lat":35.83218,"lng":-85.54919,"zip":"38579","miles_from_dt":12.11},{"city":"Pikeville","state_name":"Tennessee","lat":35.62959,"lng":-85.21832,"zip":"37367","miles_from_dt":12.23},{"city":"Campaign","state_name":"Tennessee","lat":35.76982,"lng":-85.63268,"zip":"38550","miles_from_dt":13.02},{"city":"Walling","state_name":"Tennessee","lat":35.8677,"lng":-85.61723,"zip":"38587","miles_from_dt":16.42},{"city":"Sparta","state_name":"Tennessee","lat":35.94649,"lng":-85.43781,"zip":"38583","miles_from_dt":17.71},{"city":"Mcminnville","state_name":"Tennessee","lat":35.6436,"lng":-85.74314,"zip":"37110","miles_from_dt":18.31},{"city":"Dunlap","state_name":"Tennessee","lat":35.42251,"lng":-85.39993,"zip":"37327","miles_from_dt":18.48},{"city":"Crossville","state_name":"Tennessee","lat":35.84764,"lng":-85.12778,"zip":"38572","miles_from_dt":19.82},{"city":"Mcminnville","state_name":"Tennessee","lat":35.68775,"lng":-85.77551,"zip":"37111","miles_from_dt":19.84},{"city":"Graysville","state_name":"Tennessee","lat":35.42356,"lng":-85.20942,"zip":"37338","miles_from_dt":21.95},{"city":"Beersheba Springs","state_name":"Tennessee","lat":35.45795,"lng":-85.70195,"zip":"37305","miles_from_dt":22.43},{"city":"Palmer","state_name":"Tennessee","lat":35.37287,"lng":-85.54013,"zip":"37365","miles_from_dt":22.84},{"city":"Smartt","state_name":"Tennessee","lat":35.64737,"lng":-85.83397,"zip":"37378","miles_from_dt":23.32},{"city":"Pleasant Hill","state_name":"Tennessee","lat":35.98031,"lng":-85.19886,"zip":"38578","miles_from_dt":23.64},{"city":"Gruetli Laager","state_name":"Tennessee","lat":35.37386,"lng":-85.63222,"zip":"37339","miles_from_dt":24.78},{"city":"Smithville","state_name":"Tennessee","lat":35.92444,"lng":-85.78978,"zip":"37166","miles_from_dt":26.2},{"city":"Dayton","state_name":"Tennessee","lat":35.50239,"lng":-85.00801,"zip":"37321","miles_from_dt":26.69},{"city":"Evensville","state_name":"Tennessee","lat":35.59418,"lng":-84.96277,"zip":"37332","miles_from_dt":26.71},{"city":"Coalmont","state_name":"Tennessee","lat":35.37703,"lng":-85.70245,"zip":"37313","miles_from_dt":26.72},{"city":"Viola","state_name":"Tennessee","lat":35.53918,"lng":-85.86047,"zip":"37394","miles_from_dt":26.75},{"city":"Sale Creek","state_name":"Tennessee","lat":35.39476,"lng":-85.10373,"zip":"37373","miles_from_dt":27.15},{"city":"Bakewell","state_name":"Tennessee","lat":35.38222,"lng":-85.10889,"zip":"37304","miles_from_dt":27.62},{"city":"Altamont","state_name":"Tennessee","lat":35.42765,"lng":-85.80295,"zip":"37301","miles_from_dt":28.03},{"city":"Crossville","state_name":"Tennessee","lat":35.88956,"lng":-84.97537,"zip":"38555","miles_from_dt":28.65},{"city":"Morrison","state_name":"Tennessee","lat":35.59454,"lng":-85.92003,"zip":"37357","miles_from_dt":28.75}],"targetCityZipCode":"38585","targetCityState":"Tennessee"},"__N_SSG":true}