{"pageProps":{"stateName":"Tennessee","cityName":"ten-mile","nearbyCities":[{"city":"Philadelphia","state_name":"Tennessee","lat":35.68008,"lng":-84.48505,"zip":"37846","miles_from_dt":10.2},{"city":"Niota","state_name":"Tennessee","lat":35.55825,"lng":-84.58984,"zip":"37826","miles_from_dt":10.71},{"city":"Spring City","state_name":"Tennessee","lat":35.68533,"lng":-84.8775,"zip":"37381","miles_from_dt":12.03},{"city":"Rockwood","state_name":"Tennessee","lat":35.88004,"lng":-84.71454,"zip":"37854","miles_from_dt":12.65},{"city":"Grandview","state_name":"Tennessee","lat":35.78594,"lng":-84.86651,"zip":"37337","miles_from_dt":12.77},{"city":"Kingston","state_name":"Tennessee","lat":35.82344,"lng":-84.49356,"zip":"37763","miles_from_dt":12.78},{"city":"Sweetwater","state_name":"Tennessee","lat":35.59749,"lng":-84.45823,"zip":"37874","miles_from_dt":13.63},{"city":"Decatur","state_name":"Tennessee","lat":35.49562,"lng":-84.81512,"zip":"37322","miles_from_dt":16.52},{"city":"Loudon","state_name":"Tennessee","lat":35.7317,"lng":-84.35526,"zip":"37774","miles_from_dt":17.52},{"city":"Athens","state_name":"Tennessee","lat":35.4403,"lng":-84.64051,"zip":"37303","miles_from_dt":18.04},{"city":"Athens","state_name":"Tennessee","lat":35.44315,"lng":-84.59479,"zip":"37371","miles_from_dt":18.22},{"city":"Evensville","state_name":"Tennessee","lat":35.59418,"lng":-84.96277,"zip":"37332","miles_from_dt":18.33},{"city":"Harriman","state_name":"Tennessee","lat":35.94797,"lng":-84.51413,"zip":"37748","miles_from_dt":18.99},{"city":"Crab Orchard","state_name":"Tennessee","lat":35.96044,"lng":-84.82171,"zip":"37723","miles_from_dt":19.93},{"city":"Oakdale","state_name":"Tennessee","lat":36.00094,"lng":-84.61331,"zip":"37829","miles_from_dt":20.86},{"city":"Lenoir City","state_name":"Tennessee","lat":35.8382,"lng":-84.31748,"zip":"37771","miles_from_dt":21.67},{"city":"Crossville","state_name":"Tennessee","lat":35.88956,"lng":-84.97537,"zip":"38555","miles_from_dt":21.76},{"city":"Madisonville","state_name":"Tennessee","lat":35.50195,"lng":-84.34387,"zip":"37354","miles_from_dt":22.69},{"city":"Riceville","state_name":"Tennessee","lat":35.35903,"lng":-84.70064,"zip":"37370","miles_from_dt":23.68},{"city":"Dayton","state_name":"Tennessee","lat":35.50239,"lng":-85.00801,"zip":"37321","miles_from_dt":23.7},{"city":"Crossville","state_name":"Tennessee","lat":36.00532,"lng":-84.87374,"zip":"38558","miles_from_dt":24.03},{"city":"Englewood","state_name":"Tennessee","lat":35.39201,"lng":-84.46017,"zip":"37329","miles_from_dt":24.23},{"city":"Coker Creek","state_name":"Tennessee","lat":35.4595,"lng":-84.34362,"zip":"37314","miles_from_dt":24.58},{"city":"Crossville","state_name":"Tennessee","lat":35.97897,"lng":-84.97066,"zip":"38557","miles_from_dt":25.73},{"city":"Lenoir City","state_name":"Tennessee","lat":35.78775,"lng":-84.21876,"zip":"37772","miles_from_dt":25.76},{"city":"Coalfield","state_name":"Tennessee","lat":36.02196,"lng":-84.42815,"zip":"37719","miles_from_dt":25.79},{"city":"Wartburg","state_name":"Tennessee","lat":36.0772,"lng":-84.61573,"zip":"37887","miles_from_dt":26.07},{"city":"Greenback","state_name":"Tennessee","lat":35.67548,"lng":-84.18049,"zip":"37742","miles_from_dt":27.28},{"city":"Oak Ridge","state_name":"Tennessee","lat":35.96328,"lng":-84.2981,"zip":"37831","miles_from_dt":27.38},{"city":"Etowah","state_name":"Tennessee","lat":35.31662,"lng":-84.5336,"zip":"37331","miles_from_dt":27.52},{"city":"Calhoun","state_name":"Tennessee","lat":35.30595,"lng":-84.74453,"zip":"37309","miles_from_dt":27.62},{"city":"Oak Ridge","state_name":"Tennessee","lat":35.96431,"lng":-84.29221,"zip":"37830","miles_from_dt":27.68},{"city":"Crossville","state_name":"Tennessee","lat":35.84764,"lng":-85.12778,"zip":"38572","miles_from_dt":27.92},{"city":"Oliver Springs","state_name":"Tennessee","lat":36.05849,"lng":-84.37047,"zip":"37840","miles_from_dt":29.65},{"city":"Farragut","state_name":"Tennessee","lat":35.87338,"lng":-84.17882,"zip":"37934","miles_from_dt":29.76}],"targetCityZipCode":"37880","targetCityState":"Tennessee"},"__N_SSG":true}