{"pageProps":{"stateName":"Pennsylvania","cityName":"alexandria","nearbyCities":[{"city":"Spruce Creek","state_name":"Pennsylvania","lat":40.65595,"lng":-78.07313,"zip":"16683","miles_from_dt":6.31},{"city":"Huntingdon","state_name":"Pennsylvania","lat":40.49189,"lng":-78.02854,"zip":"16654","miles_from_dt":6.48},{"city":"McConnellstown","state_name":"Pennsylvania","lat":40.46214,"lng":-78.07009,"zip":"16660","miles_from_dt":7.44},{"city":"Huntingdon","state_name":"Pennsylvania","lat":40.51692,"lng":-77.95302,"zip":"16652","miles_from_dt":8.58},{"city":"Williamsburg","state_name":"Pennsylvania","lat":40.46519,"lng":-78.21593,"zip":"16693","miles_from_dt":9.24},{"city":"Tyrone","state_name":"Pennsylvania","lat":40.67056,"lng":-78.24102,"zip":"16686","miles_from_dt":10.21},{"city":"Tipton","state_name":"Pennsylvania","lat":40.63541,"lng":-78.29685,"zip":"16684","miles_from_dt":11.27},{"city":"Warriors Mark","state_name":"Pennsylvania","lat":40.73291,"lng":-78.06846,"zip":"16877","miles_from_dt":11.57},{"city":"Hesston","state_name":"Pennsylvania","lat":40.39514,"lng":-78.09798,"zip":"16647","miles_from_dt":11.87},{"city":"Petersburg","state_name":"Pennsylvania","lat":40.65737,"lng":-77.90675,"zip":"16669","miles_from_dt":12.01},{"city":"Bellwood","state_name":"Pennsylvania","lat":40.6036,"lng":-78.32995,"zip":"16617","miles_from_dt":12.24},{"city":"Mill Creek","state_name":"Pennsylvania","lat":40.49144,"lng":-77.88158,"zip":"17060","miles_from_dt":12.73},{"city":"Pennsylvania Furnace","state_name":"Pennsylvania","lat":40.72086,"lng":-77.96396,"zip":"16865","miles_from_dt":12.85},{"city":"Allensville","state_name":"Pennsylvania","lat":40.46463,"lng":-77.86761,"zip":"17002","miles_from_dt":14.23},{"city":"Altoona","state_name":"Pennsylvania","lat":40.55338,"lng":-78.37283,"zip":"16601","miles_from_dt":14.28},{"city":"Altoona","state_name":"Pennsylvania","lat":40.51491,"lng":-78.37052,"zip":"16602","miles_from_dt":14.58},{"city":"Hollidaysburg","state_name":"Pennsylvania","lat":40.44231,"lng":-78.33242,"zip":"16648","miles_from_dt":14.88},{"city":"Pine Grove Mills","state_name":"Pennsylvania","lat":40.72725,"lng":-77.89066,"zip":"16868","miles_from_dt":15.67},{"city":"Altoona","state_name":"Pennsylvania","lat":40.52003,"lng":-78.40017,"zip":"16603","miles_from_dt":16.02},{"city":"Port Matilda","state_name":"Pennsylvania","lat":40.80149,"lng":-78.04969,"zip":"16870","miles_from_dt":16.4},{"city":"Calvin","state_name":"Pennsylvania","lat":40.32853,"lng":-78.0692,"zip":"16622","miles_from_dt":16.56},{"city":"Entriken","state_name":"Pennsylvania","lat":40.33809,"lng":-78.2012,"zip":"16638","miles_from_dt":16.65},{"city":"James Creek","state_name":"Pennsylvania","lat":40.32486,"lng":-78.17757,"zip":"16657","miles_from_dt":17.19},{"city":"Blandburg","state_name":"Pennsylvania","lat":40.68367,"lng":-78.41591,"zip":"16619","miles_from_dt":18.35},{"city":"Mapleton Depot","state_name":"Pennsylvania","lat":40.31577,"lng":-77.98195,"zip":"17052","miles_from_dt":18.47},{"city":"Newton Hamilton","state_name":"Pennsylvania","lat":40.39372,"lng":-77.83429,"zip":"17075","miles_from_dt":18.5},{"city":"Sandy Ridge","state_name":"Pennsylvania","lat":40.81507,"lng":-78.2457,"zip":"16677","miles_from_dt":18.69},{"city":"McVeytown","state_name":"Pennsylvania","lat":40.45881,"lng":-77.77306,"zip":"17051","miles_from_dt":18.87},{"city":"Mount Union","state_name":"Pennsylvania","lat":40.35885,"lng":-77.85892,"zip":"17066","miles_from_dt":19.26},{"city":"Belleville","state_name":"Pennsylvania","lat":40.59966,"lng":-77.73278,"zip":"17004","miles_from_dt":19.56},{"city":"Todd","state_name":"Pennsylvania","lat":40.28019,"lng":-78.08063,"zip":"16685","miles_from_dt":19.84},{"city":"State College","state_name":"Pennsylvania","lat":40.80849,"lng":-77.89449,"zip":"16803","miles_from_dt":19.9},{"city":"Fallentimber","state_name":"Pennsylvania","lat":40.68566,"lng":-78.44912,"zip":"16639","miles_from_dt":19.99},{"city":"State College","state_name":"Pennsylvania","lat":40.79192,"lng":-77.86099,"zip":"16805","miles_from_dt":20.02},{"city":"State College","state_name":"Pennsylvania","lat":40.79203,"lng":-77.86109,"zip":"16804","miles_from_dt":20.03},{"city":"University Park","state_name":"Pennsylvania","lat":40.79867,"lng":-77.86481,"zip":"16802","miles_from_dt":20.26},{"city":"Smithmill","state_name":"Pennsylvania","lat":40.75149,"lng":-78.40254,"zip":"16680","miles_from_dt":20.27},{"city":"Mattawana","state_name":"Pennsylvania","lat":40.49746,"lng":-77.72764,"zip":"17054","miles_from_dt":20.29},{"city":"Cassville","state_name":"Pennsylvania","lat":40.27618,"lng":-78.04556,"zip":"16623","miles_from_dt":20.3},{"city":"State College","state_name":"Pennsylvania","lat":40.78538,"lng":-77.84214,"zip":"16801","miles_from_dt":20.33},{"city":"Morann","state_name":"Pennsylvania","lat":40.7868,"lng":-78.36707,"zip":"16663","miles_from_dt":20.57},{"city":"Glasgow","state_name":"Pennsylvania","lat":40.7094,"lng":-78.4485,"zip":"16644","miles_from_dt":20.68},{"city":"Martinsburg","state_name":"Pennsylvania","lat":40.30635,"lng":-78.29961,"zip":"16662","miles_from_dt":20.79},{"city":"Philipsburg","state_name":"Pennsylvania","lat":40.86684,"lng":-78.17163,"zip":"16866","miles_from_dt":21},{"city":"Dysart","state_name":"Pennsylvania","lat":40.60214,"lng":-78.50161,"zip":"16636","miles_from_dt":21.15},{"city":"Newry","state_name":"Pennsylvania","lat":40.38898,"lng":-78.43491,"zip":"16665","miles_from_dt":21.42},{"city":"Shirleysburg","state_name":"Pennsylvania","lat":40.2977,"lng":-77.89489,"zip":"17260","miles_from_dt":21.57},{"city":"Coupon","state_name":"Pennsylvania","lat":40.53759,"lng":-78.51316,"zip":"16629","miles_from_dt":21.73},{"city":"Boalsburg","state_name":"Pennsylvania","lat":40.76607,"lng":-77.77739,"zip":"16827","miles_from_dt":21.9},{"city":"Ramey","state_name":"Pennsylvania","lat":40.79414,"lng":-78.40203,"zip":"16671","miles_from_dt":22.21},{"city":"Houtzdale","state_name":"Pennsylvania","lat":40.82833,"lng":-78.35235,"zip":"16698","miles_from_dt":22.3},{"city":"Ashville","state_name":"Pennsylvania","lat":40.53723,"lng":-78.53214,"zip":"16613","miles_from_dt":22.73},{"city":"Duncansville","state_name":"Pennsylvania","lat":40.41621,"lng":-78.48743,"zip":"16635","miles_from_dt":22.81},{"city":"Brisbin","state_name":"Pennsylvania","lat":40.83947,"lng":-78.35259,"zip":"16620","miles_from_dt":22.93},{"city":"Beccaria","state_name":"Pennsylvania","lat":40.76832,"lng":-78.45128,"zip":"16616","miles_from_dt":23},{"city":"Lemont","state_name":"Pennsylvania","lat":40.81229,"lng":-77.80132,"zip":"16851","miles_from_dt":23.14},{"city":"Broad Top","state_name":"Pennsylvania","lat":40.22888,"lng":-78.12298,"zip":"16621","miles_from_dt":23.37},{"city":"Smokerun","state_name":"Pennsylvania","lat":40.80032,"lng":-78.42766,"zip":"16681","miles_from_dt":23.48},{"city":"Roaring Spring","state_name":"Pennsylvania","lat":40.30671,"lng":-78.39026,"zip":"16673","miles_from_dt":23.53},{"city":"Osceola Mills","state_name":"Pennsylvania","lat":40.87056,"lng":-78.31286,"zip":"16666","miles_from_dt":23.68},{"city":"Curryville","state_name":"Pennsylvania","lat":40.27141,"lng":-78.34754,"zip":"16631","miles_from_dt":24.17},{"city":"Houtzdale","state_name":"Pennsylvania","lat":40.8505,"lng":-78.37945,"zip":"16651","miles_from_dt":24.38},{"city":"Coalport","state_name":"Pennsylvania","lat":40.75272,"lng":-78.50036,"zip":"16627","miles_from_dt":24.53},{"city":"Saxton","state_name":"Pennsylvania","lat":40.2252,"lng":-78.23421,"zip":"16678","miles_from_dt":24.6},{"city":"Orbisonia","state_name":"Pennsylvania","lat":40.28368,"lng":-77.81484,"zip":"17243","miles_from_dt":24.74},{"city":"Rockhill Furnace","state_name":"Pennsylvania","lat":40.24186,"lng":-77.9002,"zip":"17249","miles_from_dt":24.85},{"city":"East Freedom","state_name":"Pennsylvania","lat":40.34214,"lng":-78.47079,"zip":"16637","miles_from_dt":24.87},{"city":"Dudley","state_name":"Pennsylvania","lat":40.2105,"lng":-78.17308,"zip":"16634","miles_from_dt":24.89},{"city":"Saltillo","state_name":"Pennsylvania","lat":40.21241,"lng":-78.00628,"zip":"17253","miles_from_dt":25},{"city":"Gallitzin","state_name":"Pennsylvania","lat":40.50774,"lng":-78.57146,"zip":"16641","miles_from_dt":25.04},{"city":"Hawk Run","state_name":"Pennsylvania","lat":40.92555,"lng":-78.20214,"zip":"16840","miles_from_dt":25.28},{"city":"Granville","state_name":"Pennsylvania","lat":40.55416,"lng":-77.62196,"zip":"17029","miles_from_dt":25.29},{"city":"Julian","state_name":"Pennsylvania","lat":40.91285,"lng":-77.93261,"zip":"16844","miles_from_dt":25.46},{"city":"Cresson","state_name":"Pennsylvania","lat":40.44736,"lng":-78.56054,"zip":"16699","miles_from_dt":25.52},{"city":"Madera","state_name":"Pennsylvania","lat":40.83058,"lng":-78.45026,"zip":"16661","miles_from_dt":25.78},{"city":"Cresson","state_name":"Pennsylvania","lat":40.46231,"lng":-78.58003,"zip":"16630","miles_from_dt":26.19},{"city":"Fleming","state_name":"Pennsylvania","lat":40.90668,"lng":-77.87731,"zip":"16835","miles_from_dt":26.23},{"city":"Robertsdale","state_name":"Pennsylvania","lat":40.1865,"lng":-78.07926,"zip":"16674","miles_from_dt":26.29},{"city":"Reedsville","state_name":"Pennsylvania","lat":40.68705,"lng":-77.62692,"zip":"17084","miles_from_dt":26.32},{"city":"Flinton","state_name":"Pennsylvania","lat":40.70657,"lng":-78.5702,"zip":"16640","miles_from_dt":26.42},{"city":"Glen Hope","state_name":"Pennsylvania","lat":40.80204,"lng":-78.49932,"zip":"16645","miles_from_dt":26.42},{"city":"Munson","state_name":"Pennsylvania","lat":40.94673,"lng":-78.17219,"zip":"16860","miles_from_dt":26.45},{"city":"Chest Springs","state_name":"Pennsylvania","lat":40.5651,"lng":-78.60664,"zip":"16624","miles_from_dt":26.55},{"city":"Lewistown","state_name":"Pennsylvania","lat":40.58236,"lng":-77.59013,"zip":"17044","miles_from_dt":26.96},{"city":"Lanse","state_name":"Pennsylvania","lat":40.95978,"lng":-78.11431,"zip":"16849","miles_from_dt":27.1},{"city":"Centre Hall","state_name":"Pennsylvania","lat":40.80704,"lng":-77.69097,"zip":"16828","miles_from_dt":27.21},{"city":"Wood","state_name":"Pennsylvania","lat":40.17259,"lng":-78.12852,"zip":"16694","miles_from_dt":27.26},{"city":"Three Springs","state_name":"Pennsylvania","lat":40.17993,"lng":-77.99331,"zip":"17264","miles_from_dt":27.33},{"city":"Allport","state_name":"Pennsylvania","lat":40.95888,"lng":-78.19875,"zip":"16821","miles_from_dt":27.5},{"city":"Sproul","state_name":"Pennsylvania","lat":40.27206,"lng":-78.4565,"zip":"16682","miles_from_dt":27.64},{"city":"Blairs Mills","state_name":"Pennsylvania","lat":40.25381,"lng":-77.77249,"zip":"17213","miles_from_dt":27.75},{"city":"Patton","state_name":"Pennsylvania","lat":40.65072,"lng":-78.61974,"zip":"16668","miles_from_dt":27.82},{"city":"Winburne","state_name":"Pennsylvania","lat":40.97116,"lng":-78.15162,"zip":"16879","miles_from_dt":28},{"city":"Loretto","state_name":"Pennsylvania","lat":40.52128,"lng":-78.63218,"zip":"15940","miles_from_dt":28.08},{"city":"East Waterford","state_name":"Pennsylvania","lat":40.33758,"lng":-77.66093,"zip":"17021","miles_from_dt":28.14},{"city":"Yeagertown","state_name":"Pennsylvania","lat":40.64535,"lng":-77.57639,"zip":"17099","miles_from_dt":28.17},{"city":"Lilly","state_name":"Pennsylvania","lat":40.42215,"lng":-78.6057,"zip":"15938","miles_from_dt":28.35},{"city":"Riddlesburg","state_name":"Pennsylvania","lat":40.16935,"lng":-78.24324,"zip":"16672","miles_from_dt":28.44},{"city":"Woodbury","state_name":"Pennsylvania","lat":40.20327,"lng":-78.35943,"zip":"16695","miles_from_dt":28.54},{"city":"Burnham","state_name":"Pennsylvania","lat":40.6359,"lng":-77.56609,"zip":"17009","miles_from_dt":28.59},{"city":"West Decatur","state_name":"Pennsylvania","lat":40.94325,"lng":-78.33609,"zip":"16878","miles_from_dt":28.71},{"city":"Six Mile Run","state_name":"Pennsylvania","lat":40.15659,"lng":-78.195,"zip":"16679","miles_from_dt":28.75},{"city":"Defiance","state_name":"Pennsylvania","lat":40.15969,"lng":-78.23259,"zip":"16633","miles_from_dt":28.95},{"city":"Claysburg","state_name":"Pennsylvania","lat":40.28482,"lng":-78.50855,"zip":"16625","miles_from_dt":28.96},{"city":"Wallaceton","state_name":"Pennsylvania","lat":40.96648,"lng":-78.29087,"zip":"16876","miles_from_dt":29.28},{"city":"Irvona","state_name":"Pennsylvania","lat":40.8066,"lng":-78.56353,"zip":"16656","miles_from_dt":29.33},{"city":"Mifflin","state_name":"Pennsylvania","lat":40.50111,"lng":-77.54792,"zip":"17058","miles_from_dt":29.53},{"city":"Honey Grove","state_name":"Pennsylvania","lat":40.41638,"lng":-77.57443,"zip":"17035","miles_from_dt":29.68}],"targetCityZipCode":"16611","targetCityState":"Pennsylvania"},"__N_SSG":true}