{"pageProps":{"stateName":"Pennsylvania","cityName":"cross-fork","nearbyCities":[{"city":"North Bend","state_name":"Pennsylvania","lat":41.3966,"lng":-77.66602,"zip":"17760","miles_from_dt":8.01},{"city":"Renovo","state_name":"Pennsylvania","lat":41.34316,"lng":-77.82735,"zip":"17764","miles_from_dt":11.59},{"city":"Galeton","state_name":"Pennsylvania","lat":41.67191,"lng":-77.70064,"zip":"16922","miles_from_dt":12.18},{"city":"Slate Run","state_name":"Pennsylvania","lat":41.49939,"lng":-77.50073,"zip":"17769","miles_from_dt":12.47},{"city":"Cedar Run","state_name":"Pennsylvania","lat":41.53904,"lng":-77.47914,"zip":"17727","miles_from_dt":13.88},{"city":"Cammal","state_name":"Pennsylvania","lat":41.43125,"lng":-77.45629,"zip":"17723","miles_from_dt":15.48},{"city":"Austin","state_name":"Pennsylvania","lat":41.5793,"lng":-78.02599,"zip":"16720","miles_from_dt":15.8},{"city":"Gaines","state_name":"Pennsylvania","lat":41.69614,"lng":-77.54654,"zip":"16921","miles_from_dt":16.99},{"city":"Jersey Mills","state_name":"Pennsylvania","lat":41.41289,"lng":-77.40156,"zip":"17739","miles_from_dt":18.58},{"city":"Westport","state_name":"Pennsylvania","lat":41.28532,"lng":-77.96477,"zip":"17778","miles_from_dt":18.72},{"city":"Lock Haven","state_name":"Pennsylvania","lat":41.28589,"lng":-77.48097,"zip":"17745","miles_from_dt":19.92},{"city":"Sinnamahoning","state_name":"Pennsylvania","lat":41.3221,"lng":-78.07246,"zip":"15861","miles_from_dt":21.07},{"city":"Morris","state_name":"Pennsylvania","lat":41.56935,"lng":-77.34487,"zip":"16938","miles_from_dt":21.13},{"city":"Coudersport","state_name":"Pennsylvania","lat":41.77481,"lng":-77.96104,"zip":"16915","miles_from_dt":22.24},{"city":"Waterville","state_name":"Pennsylvania","lat":41.41704,"lng":-77.31257,"zip":"17776","miles_from_dt":22.94},{"city":"Beech Creek","state_name":"Pennsylvania","lat":41.15813,"lng":-77.71441,"zip":"16822","miles_from_dt":23.49},{"city":"Orviston","state_name":"Pennsylvania","lat":41.15428,"lng":-77.79857,"zip":"16864","miles_from_dt":23.91},{"city":"Sabinsville","state_name":"Pennsylvania","lat":41.8406,"lng":-77.61915,"zip":"16943","miles_from_dt":24.47},{"city":"Ulysses","state_name":"Pennsylvania","lat":41.85369,"lng":-77.75683,"zip":"16948","miles_from_dt":24.56},{"city":"Driftwood","state_name":"Pennsylvania","lat":41.35301,"lng":-78.19053,"zip":"15832","miles_from_dt":25.4},{"city":"Pottersdale","state_name":"Pennsylvania","lat":41.1879,"lng":-78.03705,"zip":"16871","miles_from_dt":26.36},{"city":"Wellsboro","state_name":"Pennsylvania","lat":41.73038,"lng":-77.31841,"zip":"16901","miles_from_dt":27.14},{"city":"Woolrich","state_name":"Pennsylvania","lat":41.20551,"lng":-77.38019,"zip":"17779","miles_from_dt":27.56},{"city":"Mill Hall","state_name":"Pennsylvania","lat":41.13086,"lng":-77.53201,"zip":"17751","miles_from_dt":27.57},{"city":"Karthaus","state_name":"Pennsylvania","lat":41.15641,"lng":-78.02422,"zip":"16845","miles_from_dt":27.8},{"city":"Emporium","state_name":"Pennsylvania","lat":41.51228,"lng":-78.27811,"zip":"15834","miles_from_dt":27.88},{"city":"Roulette","state_name":"Pennsylvania","lat":41.79064,"lng":-78.13858,"zip":"16746","miles_from_dt":28.83},{"city":"Westfield","state_name":"Pennsylvania","lat":41.89816,"lng":-77.53429,"zip":"16950","miles_from_dt":29.62},{"city":"Clarence","state_name":"Pennsylvania","lat":41.08223,"lng":-77.89386,"zip":"16829","miles_from_dt":29.77}],"targetCityZipCode":"17729","targetCityState":"Pennsylvania"},"__N_SSG":true}