{"pageProps":{"stateName":"Pennsylvania","cityName":"erie","nearbyCities":[{"city":"Erie","state_name":"Pennsylvania","lat":42.12144,"lng":-80.08528,"zip":"16534","miles_from_dt":0.22},{"city":"Erie","state_name":"Pennsylvania","lat":42.12164,"lng":-80.08305,"zip":"16512","miles_from_dt":0.34},{"city":"Erie","state_name":"Pennsylvania","lat":42.1264,"lng":-80.08294,"zip":"16553","miles_from_dt":0.51},{"city":"Erie","state_name":"Pennsylvania","lat":42.12524,"lng":-80.08062,"zip":"16522","miles_from_dt":0.55},{"city":"Erie","state_name":"Pennsylvania","lat":42.12909,"lng":-80.08588,"zip":"16538","miles_from_dt":0.59},{"city":"Erie","state_name":"Pennsylvania","lat":42.13036,"lng":-80.08287,"zip":"16530","miles_from_dt":0.73},{"city":"Erie","state_name":"Pennsylvania","lat":42.13378,"lng":-80.08495,"zip":"16550","miles_from_dt":0.92},{"city":"Erie","state_name":"Pennsylvania","lat":42.11073,"lng":-80.10123,"zip":"16502","miles_from_dt":0.93},{"city":"Erie","state_name":"Pennsylvania","lat":42.1101,"lng":-80.10311,"zip":"16544","miles_from_dt":1.02},{"city":"Erie","state_name":"Pennsylvania","lat":42.13575,"lng":-80.08743,"zip":"16507","miles_from_dt":1.03},{"city":"Erie","state_name":"Pennsylvania","lat":42.12718,"lng":-80.06103,"zip":"16503","miles_from_dt":1.53},{"city":"Erie","state_name":"Pennsylvania","lat":42.09719,"lng":-80.09249,"zip":"16508","miles_from_dt":1.65},{"city":"Erie","state_name":"Pennsylvania","lat":42.10389,"lng":-80.05338,"zip":"16546","miles_from_dt":2.2},{"city":"Erie","state_name":"Pennsylvania","lat":42.10942,"lng":-80.0489,"zip":"16504","miles_from_dt":2.24},{"city":"Erie","state_name":"Pennsylvania","lat":42.11789,"lng":-80.14304,"zip":"16505","miles_from_dt":2.76},{"city":"Erie","state_name":"Pennsylvania","lat":42.10355,"lng":-80.1488,"zip":"16531","miles_from_dt":3.27},{"city":"Erie","state_name":"Pennsylvania","lat":42.11987,"lng":-80.02023,"zip":"16514","miles_from_dt":3.56},{"city":"Erie","state_name":"Pennsylvania","lat":42.11988,"lng":-80.0201,"zip":"16541","miles_from_dt":3.57},{"city":"Erie","state_name":"Pennsylvania","lat":42.06906,"lng":-80.10263,"zip":"16565","miles_from_dt":3.64},{"city":"Erie","state_name":"Pennsylvania","lat":42.05861,"lng":-80.04419,"zip":"16509","miles_from_dt":4.9},{"city":"Erie","state_name":"Pennsylvania","lat":42.06449,"lng":-80.15472,"zip":"16506","miles_from_dt":5.14},{"city":"Erie","state_name":"Pennsylvania","lat":42.11929,"lng":-79.98643,"zip":"16563","miles_from_dt":5.3},{"city":"Erie","state_name":"Pennsylvania","lat":42.16529,"lng":-79.99667,"zip":"16511","miles_from_dt":5.67},{"city":"Erie","state_name":"Pennsylvania","lat":42.1076,"lng":-79.95604,"zip":"16515","miles_from_dt":6.92},{"city":"Erie","state_name":"Pennsylvania","lat":42.11184,"lng":-79.95395,"zip":"16510","miles_from_dt":7},{"city":"Harborcreek","state_name":"Pennsylvania","lat":42.17036,"lng":-79.9351,"zip":"16421","miles_from_dt":8.64},{"city":"Fairview","state_name":"Pennsylvania","lat":42.03122,"lng":-80.22873,"zip":"16415","miles_from_dt":9.46},{"city":"McKean","state_name":"Pennsylvania","lat":41.98121,"lng":-80.13937,"zip":"16426","miles_from_dt":9.98},{"city":"Waterford","state_name":"Pennsylvania","lat":41.9554,"lng":-79.98552,"zip":"16441","miles_from_dt":12.62},{"city":"North East","state_name":"Pennsylvania","lat":42.17109,"lng":-79.82907,"zip":"16428","miles_from_dt":13.82},{"city":"Wattsburg","state_name":"Pennsylvania","lat":42.04094,"lng":-79.82631,"zip":"16442","miles_from_dt":14.62},{"city":"Lake City","state_name":"Pennsylvania","lat":42.01881,"lng":-80.34253,"zip":"16423","miles_from_dt":14.8},{"city":"Girard","state_name":"Pennsylvania","lat":41.97107,"lng":-80.31039,"zip":"16417","miles_from_dt":15.36},{"city":"Edinboro","state_name":"Pennsylvania","lat":41.88212,"lng":-80.16392,"zip":"16412","miles_from_dt":16.92},{"city":"Edinboro","state_name":"Pennsylvania","lat":41.87071,"lng":-80.12175,"zip":"16444","miles_from_dt":17.35},{"city":"Findley Lake","state_name":"New York","lat":42.13715,"lng":-79.74644,"zip":"14736","miles_from_dt":17.66},{"city":"Cranesville","state_name":"Pennsylvania","lat":41.92012,"lng":-80.30482,"zip":"16410","miles_from_dt":17.74},{"city":"Mill Village","state_name":"Pennsylvania","lat":41.87466,"lng":-79.97132,"zip":"16427","miles_from_dt":18.06},{"city":"North Springfield","state_name":"Pennsylvania","lat":42.00413,"lng":-80.41823,"zip":"16430","miles_from_dt":18.73},{"city":"Union City","state_name":"Pennsylvania","lat":41.89084,"lng":-79.84709,"zip":"16438","miles_from_dt":20.2},{"city":"East Springfield","state_name":"Pennsylvania","lat":41.97781,"lng":-80.45037,"zip":"16411","miles_from_dt":21.03},{"city":"Ripley","state_name":"New York","lat":42.23198,"lng":-79.69532,"zip":"14775","miles_from_dt":21.64},{"city":"Albion","state_name":"Pennsylvania","lat":41.87645,"lng":-80.36107,"zip":"16475","miles_from_dt":21.91},{"city":"Clymer","state_name":"New York","lat":42.05272,"lng":-79.67031,"zip":"14724","miles_from_dt":22.06},{"city":"Cambridge Springs","state_name":"Pennsylvania","lat":41.7912,"lng":-80.02017,"zip":"16403","miles_from_dt":23.04},{"city":"Venango","state_name":"Pennsylvania","lat":41.78673,"lng":-80.13088,"zip":"16440","miles_from_dt":23.17},{"city":"Albion","state_name":"Pennsylvania","lat":41.88044,"lng":-80.40395,"zip":"16401","miles_from_dt":23.18},{"city":"Elgin","state_name":"Pennsylvania","lat":41.9001,"lng":-79.74527,"zip":"16413","miles_from_dt":23.38},{"city":"West Springfield","state_name":"Pennsylvania","lat":41.93745,"lng":-80.47831,"zip":"16443","miles_from_dt":23.68},{"city":"Sherman","state_name":"New York","lat":42.16402,"lng":-79.604,"zip":"14781","miles_from_dt":25.12},{"city":"Springboro","state_name":"Pennsylvania","lat":41.81937,"lng":-80.38356,"zip":"16435","miles_from_dt":25.74},{"city":"Corry","state_name":"Pennsylvania","lat":41.91743,"lng":-79.66374,"zip":"16407","miles_from_dt":26.03},{"city":"Saegertown","state_name":"Pennsylvania","lat":41.73553,"lng":-80.14316,"zip":"16433","miles_from_dt":26.74},{"city":"Riceville","state_name":"Pennsylvania","lat":41.77923,"lng":-79.79955,"zip":"16432","miles_from_dt":27.92},{"city":"Conneautville","state_name":"Pennsylvania","lat":41.75047,"lng":-80.36273,"zip":"16406","miles_from_dt":29.19},{"city":"Conneaut","state_name":"Ohio","lat":41.8973,"lng":-80.58061,"zip":"44030","miles_from_dt":29.62},{"city":"Panama","state_name":"New York","lat":42.05344,"lng":-79.51583,"zip":"14767","miles_from_dt":29.86},{"city":"Westfield","state_name":"New York","lat":42.31342,"lng":-79.5675,"zip":"14787","miles_from_dt":29.9}],"targetCityZipCode":"16501","targetCityState":"Pennsylvania"},"__N_SSG":true}