{"pageProps":{"stateName":"Pennsylvania","cityName":"friendsville","nearbyCities":[{"city":"Little Meadows","state_name":"Pennsylvania","lat":41.95049,"lng":-76.10904,"zip":"18830","miles_from_dt":4.04},{"city":"Brackney","state_name":"Pennsylvania","lat":41.97203,"lng":-75.96822,"zip":"18812","miles_from_dt":5.78},{"city":"Warren Center","state_name":"Pennsylvania","lat":41.93677,"lng":-76.17992,"zip":"18851","miles_from_dt":6.97},{"city":"Montrose","state_name":"Pennsylvania","lat":41.82861,"lng":-75.9437,"zip":"18801","miles_from_dt":7.97},{"city":"Le Raysville","state_name":"Pennsylvania","lat":41.8395,"lng":-76.17088,"zip":"18829","miles_from_dt":8.12},{"city":"Vestal","state_name":"New York","lat":42.03593,"lng":-76.01958,"zip":"13851","miles_from_dt":8.58},{"city":"Lawton","state_name":"Pennsylvania","lat":41.79672,"lng":-76.11245,"zip":"18828","miles_from_dt":8.71},{"city":"Vestal","state_name":"New York","lat":42.04873,"lng":-76.02663,"zip":"13850","miles_from_dt":9.41},{"city":"Apalachin","state_name":"New York","lat":42.04396,"lng":-76.16772,"zip":"13732","miles_from_dt":10.9},{"city":"South Montrose","state_name":"Pennsylvania","lat":41.80446,"lng":-75.89416,"zip":"18843","miles_from_dt":10.95},{"city":"Stevensville","state_name":"Pennsylvania","lat":41.78994,"lng":-76.18454,"zip":"18845","miles_from_dt":11.04},{"city":"Bible School Park","state_name":"New York","lat":42.07838,"lng":-76.09683,"zip":"13737","miles_from_dt":11.65},{"city":"Binghamton","state_name":"New York","lat":42.04749,"lng":-75.89573,"zip":"13903","miles_from_dt":12.14},{"city":"Rome","state_name":"Pennsylvania","lat":41.91928,"lng":-76.29122,"zip":"18837","miles_from_dt":12.52},{"city":"Endicott","state_name":"New York","lat":42.09448,"lng":-76.06514,"zip":"13763","miles_from_dt":12.53},{"city":"Binghamton","state_name":"New York","lat":42.08895,"lng":-75.96891,"zip":"13902","miles_from_dt":12.79},{"city":"Endicott","state_name":"New York","lat":42.10045,"lng":-76.04884,"zip":"13761","miles_from_dt":12.91},{"city":"Hallstead","state_name":"Pennsylvania","lat":41.9482,"lng":-75.80116,"zip":"18822","miles_from_dt":12.97},{"city":"Endwell","state_name":"New York","lat":42.1072,"lng":-76.0239,"zip":"13762","miles_from_dt":13.43},{"city":"Dimock","state_name":"Pennsylvania","lat":41.73977,"lng":-75.90966,"zip":"18816","miles_from_dt":13.96},{"city":"Conklin","state_name":"New York","lat":42.03428,"lng":-75.81727,"zip":"13748","miles_from_dt":14.54},{"city":"Corbettsville","state_name":"New York","lat":42.01887,"lng":-75.79096,"zip":"13749","miles_from_dt":15.13},{"city":"Endicott","state_name":"New York","lat":42.13425,"lng":-76.08354,"zip":"13760","miles_from_dt":15.35},{"city":"Camptown","state_name":"Pennsylvania","lat":41.73112,"lng":-76.23278,"zip":"18815","miles_from_dt":15.78},{"city":"Springville","state_name":"Pennsylvania","lat":41.69247,"lng":-75.91351,"zip":"18844","miles_from_dt":16.77},{"city":"Brooklyn","state_name":"Pennsylvania","lat":41.75061,"lng":-75.80696,"zip":"18813","miles_from_dt":16.78},{"city":"Great Bend","state_name":"Pennsylvania","lat":41.98588,"lng":-75.73466,"zip":"18821","miles_from_dt":16.92},{"city":"Owego","state_name":"New York","lat":42.11178,"lng":-76.25216,"zip":"13827","miles_from_dt":17.24},{"city":"Meshoppen","state_name":"Pennsylvania","lat":41.66361,"lng":-76.02698,"zip":"18630","miles_from_dt":17.28},{"city":"Kirkwood","state_name":"New York","lat":42.05844,"lng":-75.77419,"zip":"13795","miles_from_dt":17.31},{"city":"Laceyville","state_name":"Pennsylvania","lat":41.67297,"lng":-76.14768,"zip":"18623","miles_from_dt":17.37},{"city":"Nichols","state_name":"New York","lat":42.02993,"lng":-76.35461,"zip":"13812","miles_from_dt":17.7},{"city":"Wysox","state_name":"Pennsylvania","lat":41.79532,"lng":-76.35472,"zip":"18854","miles_from_dt":17.78},{"city":"Johnson City","state_name":"New York","lat":42.16937,"lng":-75.99796,"zip":"13790","miles_from_dt":17.85},{"city":"Wyalusing","state_name":"Pennsylvania","lat":41.71654,"lng":-76.27534,"zip":"18853","miles_from_dt":17.94},{"city":"New Milford","state_name":"Pennsylvania","lat":41.84185,"lng":-75.71189,"zip":"18834","miles_from_dt":18.05},{"city":"Tioga Center","state_name":"New York","lat":42.0579,"lng":-76.35062,"zip":"13845","miles_from_dt":18.48},{"city":"Binghamton","state_name":"New York","lat":42.13072,"lng":-75.81587,"zip":"13904","miles_from_dt":19.19},{"city":"Binghamton","state_name":"New York","lat":42.18086,"lng":-75.94476,"zip":"13905","miles_from_dt":19.21},{"city":"Kingsley","state_name":"Pennsylvania","lat":41.7495,"lng":-75.74276,"zip":"18826","miles_from_dt":19.41},{"city":"Hop Bottom","state_name":"Pennsylvania","lat":41.70422,"lng":-75.786,"zip":"18824","miles_from_dt":19.8},{"city":"Binghamton","state_name":"New York","lat":42.18253,"lng":-75.88048,"zip":"13901","miles_from_dt":20.48},{"city":"Smithboro","state_name":"New York","lat":42.09884,"lng":-76.3649,"zip":"13840","miles_from_dt":20.72},{"city":"Harford","state_name":"Pennsylvania","lat":41.77415,"lng":-75.69168,"zip":"18823","miles_from_dt":20.77},{"city":"Barton","state_name":"New York","lat":42.07752,"lng":-76.40864,"zip":"13734","miles_from_dt":21.73},{"city":"Gibson","state_name":"Pennsylvania","lat":41.7779,"lng":-75.65029,"zip":"18820","miles_from_dt":22.58},{"city":"Newark Valley","state_name":"New York","lat":42.23099,"lng":-76.17481,"zip":"13811","miles_from_dt":22.86},{"city":"Ulster","state_name":"Pennsylvania","lat":41.85916,"lng":-76.49126,"zip":"18850","miles_from_dt":23.14},{"city":"Maine","state_name":"New York","lat":42.25164,"lng":-76.04207,"zip":"13802","miles_from_dt":23.35},{"city":"Athens","state_name":"Pennsylvania","lat":41.93738,"lng":-76.50181,"zip":"18810","miles_from_dt":23.43},{"city":"Sugar Run","state_name":"Pennsylvania","lat":41.60494,"lng":-76.23929,"zip":"18846","miles_from_dt":23.46},{"city":"Castle Creek","state_name":"New York","lat":42.24078,"lng":-75.90629,"zip":"13744","miles_from_dt":23.75},{"city":"Nicholson","state_name":"Pennsylvania","lat":41.64513,"lng":-75.76044,"zip":"18446","miles_from_dt":23.75},{"city":"Towanda","state_name":"Pennsylvania","lat":41.75358,"lng":-76.45615,"zip":"18848","miles_from_dt":23.76},{"city":"Windsor","state_name":"New York","lat":42.06282,"lng":-75.62879,"zip":"13865","miles_from_dt":23.94},{"city":"Lanesboro","state_name":"Pennsylvania","lat":41.95642,"lng":-75.58703,"zip":"18827","miles_from_dt":23.96},{"city":"Jackson","state_name":"Pennsylvania","lat":41.82276,"lng":-75.599,"zip":"18825","miles_from_dt":24.01},{"city":"Glen Aubrey","state_name":"New York","lat":42.25894,"lng":-75.9866,"zip":"13777","miles_from_dt":24.06},{"city":"Port Crane","state_name":"New York","lat":42.19829,"lng":-75.76432,"zip":"13833","miles_from_dt":24.5},{"city":"Susquehanna","state_name":"Pennsylvania","lat":41.93539,"lng":-75.56893,"zip":"18847","miles_from_dt":24.76},{"city":"South Gibson","state_name":"Pennsylvania","lat":41.75594,"lng":-75.61652,"zip":"18842","miles_from_dt":24.8},{"city":"Ouaquaga","state_name":"New York","lat":42.10517,"lng":-75.63701,"zip":"13826","miles_from_dt":24.97},{"city":"Sayre","state_name":"Pennsylvania","lat":41.97433,"lng":-76.52968,"zip":"18840","miles_from_dt":25.15},{"city":"Candor","state_name":"New York","lat":42.21706,"lng":-76.33898,"zip":"13743","miles_from_dt":25.74},{"city":"Waverly","state_name":"New York","lat":42.0478,"lng":-76.52804,"zip":"14892","miles_from_dt":26.38},{"city":"Factoryville","state_name":"Pennsylvania","lat":41.57858,"lng":-75.7994,"zip":"18419","miles_from_dt":26.45},{"city":"Tunnel","state_name":"New York","lat":42.21635,"lng":-75.72815,"zip":"13848","miles_from_dt":26.62},{"city":"Chenango Bridge","state_name":"New York","lat":42.28572,"lng":-75.91077,"zip":"13745","miles_from_dt":26.65},{"city":"Tunkhannock","state_name":"Pennsylvania","lat":41.52712,"lng":-75.95601,"zip":"18657","miles_from_dt":27.09},{"city":"Chenango Forks","state_name":"New York","lat":42.26868,"lng":-75.82085,"zip":"13746","miles_from_dt":27.17},{"city":"Mehoopany","state_name":"Pennsylvania","lat":41.52393,"lng":-76.13365,"zip":"18629","miles_from_dt":27.24},{"city":"Fleetville","state_name":"Pennsylvania","lat":41.60333,"lng":-75.70589,"zip":"18420","miles_from_dt":27.77},{"city":"Thompson","state_name":"Pennsylvania","lat":41.83654,"lng":-75.51811,"zip":"18465","miles_from_dt":27.86},{"city":"Lenoxville","state_name":"Pennsylvania","lat":41.65833,"lng":-75.62565,"zip":"18441","miles_from_dt":28.05},{"city":"Harpursville","state_name":"New York","lat":42.20606,"lng":-75.66334,"zip":"13787","miles_from_dt":28.29},{"city":"La Plume","state_name":"Pennsylvania","lat":41.55931,"lng":-75.76505,"zip":"18440","miles_from_dt":28.49},{"city":"Lisle","state_name":"New York","lat":42.32765,"lng":-76.04389,"zip":"13797","miles_from_dt":28.59},{"city":"Berkshire","state_name":"New York","lat":42.31722,"lng":-76.19389,"zip":"13736","miles_from_dt":28.85},{"city":"Milan","state_name":"Pennsylvania","lat":41.89356,"lng":-76.60832,"zip":"18831","miles_from_dt":28.9},{"city":"Lockwood","state_name":"New York","lat":42.12118,"lng":-76.53985,"zip":"14859","miles_from_dt":29.07},{"city":"Union Dale","state_name":"Pennsylvania","lat":41.732,"lng":-75.53502,"zip":"18470","miles_from_dt":29.31},{"city":"Lake Winola","state_name":"Pennsylvania","lat":41.51311,"lng":-75.85027,"zip":"18625","miles_from_dt":29.47},{"city":"East Smithfield","state_name":"Pennsylvania","lat":41.87431,"lng":-76.62075,"zip":"18817","miles_from_dt":29.64},{"city":"Whitney Point","state_name":"New York","lat":42.3369,"lng":-75.9372,"zip":"13862","miles_from_dt":29.78},{"city":"Burlington","state_name":"Pennsylvania","lat":41.78151,"lng":-76.60121,"zip":"18814","miles_from_dt":29.94}],"targetCityZipCode":"18818","targetCityState":"Pennsylvania"},"__N_SSG":true}