{"pageProps":{"stateName":"Pennsylvania","cityName":"harveys-lake","nearbyCities":[{"city":"Shawanese","state_name":"Pennsylvania","lat":41.35344,"lng":-76.05141,"zip":"18654","miles_from_dt":2.04},{"city":"Dallas","state_name":"Pennsylvania","lat":41.35025,"lng":-75.98207,"zip":"18612","miles_from_dt":3.23},{"city":"Noxen","state_name":"Pennsylvania","lat":41.41215,"lng":-76.08859,"zip":"18636","miles_from_dt":3.76},{"city":"Lehman","state_name":"Pennsylvania","lat":41.31559,"lng":-76.02235,"zip":"18627","miles_from_dt":4.39},{"city":"Shavertown","state_name":"Pennsylvania","lat":41.297,"lng":-75.95927,"zip":"18708","miles_from_dt":6.78},{"city":"Wyoming","state_name":"Pennsylvania","lat":41.33192,"lng":-75.87753,"zip":"18644","miles_from_dt":8.63},{"city":"Hunlock Creek","state_name":"Pennsylvania","lat":41.25441,"lng":-76.09129,"zip":"18621","miles_from_dt":9.14},{"city":"Luzerne","state_name":"Pennsylvania","lat":41.28635,"lng":-75.89674,"zip":"18709","miles_from_dt":9.47},{"city":"Sweet Valley","state_name":"Pennsylvania","lat":41.32703,"lng":-76.20442,"zip":"18656","miles_from_dt":9.69},{"city":"Plymouth","state_name":"Pennsylvania","lat":41.24748,"lng":-75.962,"zip":"18651","miles_from_dt":9.76},{"city":"Kingston","state_name":"Pennsylvania","lat":41.27676,"lng":-75.89474,"zip":"18704","miles_from_dt":10},{"city":"Pittston","state_name":"Pennsylvania","lat":41.36456,"lng":-75.8344,"zip":"18643","miles_from_dt":10.28},{"city":"Falls","state_name":"Pennsylvania","lat":41.45968,"lng":-75.85752,"zip":"18615","miles_from_dt":10.61},{"city":"Ransom","state_name":"Pennsylvania","lat":41.39399,"lng":-75.82461,"zip":"18653","miles_from_dt":10.79},{"city":"Tunkhannock","state_name":"Pennsylvania","lat":41.52712,"lng":-75.95601,"zip":"18657","miles_from_dt":10.95},{"city":"Mehoopany","state_name":"Pennsylvania","lat":41.52393,"lng":-76.13365,"zip":"18629","miles_from_dt":11.34},{"city":"Wilkes Barre","state_name":"Pennsylvania","lat":41.23731,"lng":-75.90851,"zip":"18765","miles_from_dt":11.67},{"city":"Wilkes Barre","state_name":"Pennsylvania","lat":41.24941,"lng":-75.884,"zip":"18711","miles_from_dt":11.77},{"city":"Wilkes Barre","state_name":"Pennsylvania","lat":41.24435,"lng":-75.88995,"zip":"18766","miles_from_dt":11.84},{"city":"Wilkes Barre","state_name":"Pennsylvania","lat":41.25003,"lng":-75.88002,"zip":"18710","miles_from_dt":11.87},{"city":"Wilkes Barre","state_name":"Pennsylvania","lat":41.24568,"lng":-75.8838,"zip":"18773","miles_from_dt":11.97},{"city":"Wilkes Barre","state_name":"Pennsylvania","lat":41.25387,"lng":-75.87117,"zip":"18769","miles_from_dt":11.99},{"city":"Wilkes Barre","state_name":"Pennsylvania","lat":41.23739,"lng":-75.89719,"zip":"18762","miles_from_dt":12},{"city":"Wilkes Barre","state_name":"Pennsylvania","lat":41.24995,"lng":-75.87598,"zip":"18767","miles_from_dt":12.02},{"city":"Wilkes Barre","state_name":"Pennsylvania","lat":41.2433,"lng":-75.88523,"zip":"18701","miles_from_dt":12.05},{"city":"Wilkes Barre","state_name":"Pennsylvania","lat":41.24001,"lng":-75.89002,"zip":"18703","miles_from_dt":12.08},{"city":"Wilkes Barre","state_name":"Pennsylvania","lat":41.27156,"lng":-75.84241,"zip":"18705","miles_from_dt":12.3},{"city":"Nanticoke","state_name":"Pennsylvania","lat":41.18984,"lng":-76.0218,"zip":"18634","miles_from_dt":13.05},{"city":"Lake Winola","state_name":"Pennsylvania","lat":41.51311,"lng":-75.85027,"zip":"18625","miles_from_dt":13.2},{"city":"Duryea","state_name":"Pennsylvania","lat":41.35359,"lng":-75.77681,"zip":"18642","miles_from_dt":13.34},{"city":"Wilkes Barre","state_name":"Pennsylvania","lat":41.20432,"lng":-75.91231,"zip":"18706","miles_from_dt":13.54},{"city":"Glen Lyon","state_name":"Pennsylvania","lat":41.17149,"lng":-76.07707,"zip":"18617","miles_from_dt":14.51},{"city":"Old Forge","state_name":"Pennsylvania","lat":41.37495,"lng":-75.73963,"zip":"18518","miles_from_dt":15.16},{"city":"Lopez","state_name":"Pennsylvania","lat":41.41474,"lng":-76.32047,"zip":"18628","miles_from_dt":15.23},{"city":"Clarks Summit","state_name":"Pennsylvania","lat":41.45655,"lng":-75.74295,"zip":"18411","miles_from_dt":15.91},{"city":"Pittston","state_name":"Pennsylvania","lat":41.33644,"lng":-75.73007,"zip":"18641","miles_from_dt":15.93},{"city":"Shickshinny","state_name":"Pennsylvania","lat":41.18327,"lng":-76.19619,"zip":"18655","miles_from_dt":15.99},{"city":"Pittston","state_name":"Pennsylvania","lat":41.29724,"lng":-75.74024,"zip":"18640","miles_from_dt":16.15},{"city":"Taylor","state_name":"Pennsylvania","lat":41.39524,"lng":-75.71461,"zip":"18517","miles_from_dt":16.5},{"city":"Wilkes Barre","state_name":"Pennsylvania","lat":41.21828,"lng":-75.7946,"zip":"18764","miles_from_dt":16.57},{"city":"Scranton","state_name":"Pennsylvania","lat":41.42375,"lng":-75.70581,"zip":"18504","miles_from_dt":17.19},{"city":"Huntington Mills","state_name":"Pennsylvania","lat":41.20228,"lng":-76.27348,"zip":"18622","miles_from_dt":17.53},{"city":"Wilkes Barre","state_name":"Pennsylvania","lat":41.21406,"lng":-75.76925,"zip":"18702","miles_from_dt":17.76},{"city":"Mountain Top","state_name":"Pennsylvania","lat":41.13325,"lng":-75.9228,"zip":"18707","miles_from_dt":17.86},{"city":"Scranton","state_name":"Pennsylvania","lat":41.36996,"lng":-75.68022,"zip":"18502","miles_from_dt":18.26},{"city":"Scranton","state_name":"Pennsylvania","lat":41.37,"lng":-75.68003,"zip":"18501","miles_from_dt":18.27},{"city":"Factoryville","state_name":"Pennsylvania","lat":41.57858,"lng":-75.7994,"zip":"18419","miles_from_dt":18.3},{"city":"Moosic","state_name":"Pennsylvania","lat":41.35541,"lng":-75.68016,"zip":"18507","miles_from_dt":18.33},{"city":"Dushore","state_name":"Pennsylvania","lat":41.48373,"lng":-76.35768,"zip":"18614","miles_from_dt":18.43},{"city":"La Plume","state_name":"Pennsylvania","lat":41.55931,"lng":-75.76505,"zip":"18440","miles_from_dt":18.6},{"city":"Dalton","state_name":"Pennsylvania","lat":41.53893,"lng":-75.7427,"zip":"18414","miles_from_dt":18.62},{"city":"Mildred","state_name":"Pennsylvania","lat":41.46769,"lng":-76.3764,"zip":"18632","miles_from_dt":18.95},{"city":"Sugar Run","state_name":"Pennsylvania","lat":41.60494,"lng":-76.23929,"zip":"18846","miles_from_dt":18.97},{"city":"Cambra","state_name":"Pennsylvania","lat":41.19675,"lng":-76.30463,"zip":"18611","miles_from_dt":18.98},{"city":"Scranton","state_name":"Pennsylvania","lat":41.41007,"lng":-75.66767,"zip":"18503","miles_from_dt":19.02},{"city":"Chinchilla","state_name":"Pennsylvania","lat":41.48207,"lng":-75.68976,"zip":"18410","miles_from_dt":19.12},{"city":"Wapwallopen","state_name":"Pennsylvania","lat":41.10195,"lng":-76.06196,"zip":"18660","miles_from_dt":19.17},{"city":"Scranton","state_name":"Pennsylvania","lat":41.37228,"lng":-75.6578,"zip":"18540","miles_from_dt":19.42},{"city":"Benton","state_name":"Pennsylvania","lat":41.26885,"lng":-76.3751,"zip":"17814","miles_from_dt":19.43},{"city":"Bear Creek","state_name":"Pennsylvania","lat":41.18749,"lng":-75.75526,"zip":"18602","miles_from_dt":19.51},{"city":"Meshoppen","state_name":"Pennsylvania","lat":41.66361,"lng":-76.02698,"zip":"18630","miles_from_dt":19.65},{"city":"Scranton","state_name":"Pennsylvania","lat":41.44954,"lng":-75.66412,"zip":"18515","miles_from_dt":19.69},{"city":"Scranton","state_name":"Pennsylvania","lat":41.38874,"lng":-75.65109,"zip":"18505","miles_from_dt":19.77},{"city":"Scranton","state_name":"Pennsylvania","lat":41.45503,"lng":-75.65827,"zip":"18508","miles_from_dt":20.08},{"city":"Waverly","state_name":"Pennsylvania","lat":41.5291,"lng":-75.69807,"zip":"18471","miles_from_dt":20.17},{"city":"Scranton","state_name":"Pennsylvania","lat":41.40735,"lng":-75.64376,"zip":"18510","miles_from_dt":20.24},{"city":"Scranton","state_name":"Pennsylvania","lat":41.43062,"lng":-75.64321,"zip":"18509","miles_from_dt":20.48},{"city":"Stillwater","state_name":"Pennsylvania","lat":41.1721,"lng":-76.32364,"zip":"17878","miles_from_dt":20.86},{"city":"Laceyville","state_name":"Pennsylvania","lat":41.67297,"lng":-76.14768,"zip":"18623","miles_from_dt":21.18},{"city":"Scranton","state_name":"Pennsylvania","lat":41.46207,"lng":-75.63062,"zip":"18519","miles_from_dt":21.59},{"city":"Scranton","state_name":"Pennsylvania","lat":41.42109,"lng":-75.60282,"zip":"18577","miles_from_dt":22.45},{"city":"Springville","state_name":"Pennsylvania","lat":41.69247,"lng":-75.91351,"zip":"18844","miles_from_dt":22.49},{"city":"Laporte","state_name":"Pennsylvania","lat":41.41136,"lng":-76.4635,"zip":"18626","miles_from_dt":22.57},{"city":"Beach Haven","state_name":"Pennsylvania","lat":41.06766,"lng":-76.17644,"zip":"18601","miles_from_dt":22.77},{"city":"Fleetville","state_name":"Pennsylvania","lat":41.60333,"lng":-75.70589,"zip":"18420","miles_from_dt":22.92},{"city":"Scranton","state_name":"Pennsylvania","lat":41.42648,"lng":-75.5912,"zip":"18512","miles_from_dt":23.1},{"city":"Nicholson","state_name":"Pennsylvania","lat":41.64513,"lng":-75.76044,"zip":"18446","miles_from_dt":23.13},{"city":"Berwick","state_name":"Pennsylvania","lat":41.08506,"lng":-76.24591,"zip":"18603","miles_from_dt":23.15},{"city":"Olyphant","state_name":"Pennsylvania","lat":41.5132,"lng":-75.61684,"zip":"18447","miles_from_dt":23.43},{"city":"Drums","state_name":"Pennsylvania","lat":41.03569,"lng":-76.00097,"zip":"18222","miles_from_dt":23.73},{"city":"Olyphant","state_name":"Pennsylvania","lat":41.45199,"lng":-75.58021,"zip":"18448","miles_from_dt":23.97},{"city":"Peckville","state_name":"Pennsylvania","lat":41.48387,"lng":-75.58951,"zip":"18452","miles_from_dt":24.06},{"city":"Saint Johns","state_name":"Pennsylvania","lat":41.02812,"lng":-76.00687,"zip":"18247","miles_from_dt":24.24},{"city":"White Haven","state_name":"Pennsylvania","lat":41.08435,"lng":-75.75666,"zip":"18661","miles_from_dt":24.85},{"city":"Elmhurst","state_name":"Pennsylvania","lat":41.37341,"lng":-75.54863,"zip":"18416","miles_from_dt":25.09},{"city":"Moscow","state_name":"Pennsylvania","lat":41.33912,"lng":-75.54667,"zip":"18444","miles_from_dt":25.35},{"city":"Freeland","state_name":"Pennsylvania","lat":41.02499,"lng":-75.88728,"zip":"18224","miles_from_dt":25.55},{"city":"Dimock","state_name":"Pennsylvania","lat":41.73977,"lng":-75.90966,"zip":"18816","miles_from_dt":25.69},{"city":"Jessup","state_name":"Pennsylvania","lat":41.46014,"lng":-75.54823,"zip":"18434","miles_from_dt":25.71},{"city":"Nescopeck","state_name":"Pennsylvania","lat":41.02961,"lng":-76.20598,"zip":"18635","miles_from_dt":25.76},{"city":"Hop Bottom","state_name":"Pennsylvania","lat":41.70422,"lng":-75.786,"zip":"18824","miles_from_dt":25.81},{"city":"Sybertsville","state_name":"Pennsylvania","lat":41.00234,"lng":-76.08054,"zip":"18251","miles_from_dt":26.11},{"city":"Orangeville","state_name":"Pennsylvania","lat":41.11821,"lng":-76.39498,"zip":"17859","miles_from_dt":26.12},{"city":"Camptown","state_name":"Pennsylvania","lat":41.73112,"lng":-76.23278,"zip":"18815","miles_from_dt":26.46},{"city":"Wyalusing","state_name":"Pennsylvania","lat":41.71654,"lng":-76.27534,"zip":"18853","miles_from_dt":26.52},{"city":"Drifton","state_name":"Pennsylvania","lat":41.00152,"lng":-75.919,"zip":"18221","miles_from_dt":26.69},{"city":"Jermyn","state_name":"Pennsylvania","lat":41.57107,"lng":-75.58452,"zip":"18433","miles_from_dt":26.72},{"city":"Conyngham","state_name":"Pennsylvania","lat":40.99105,"lng":-76.05824,"zip":"18219","miles_from_dt":26.8},{"city":"Lattimer Mines","state_name":"Pennsylvania","lat":40.99259,"lng":-75.96468,"zip":"18234","miles_from_dt":26.88},{"city":"Milnesville","state_name":"Pennsylvania","lat":40.98962,"lng":-75.98154,"zip":"18239","miles_from_dt":26.98},{"city":"New Albany","state_name":"Pennsylvania","lat":41.59433,"lng":-76.46515,"zip":"18833","miles_from_dt":26.98},{"city":"Muncy Valley","state_name":"Pennsylvania","lat":41.35234,"lng":-76.55155,"zip":"17758","miles_from_dt":27.11},{"city":"Archbald","state_name":"Pennsylvania","lat":41.50495,"lng":-75.53529,"zip":"18403","miles_from_dt":27.19},{"city":"Sugarloaf","state_name":"Pennsylvania","lat":40.98457,"lng":-76.1206,"zip":"18249","miles_from_dt":27.6},{"city":"Harleigh","state_name":"Pennsylvania","lat":40.98137,"lng":-75.97111,"zip":"18225","miles_from_dt":27.61},{"city":"Ebervale","state_name":"Pennsylvania","lat":40.98221,"lng":-75.95011,"zip":"18223","miles_from_dt":27.7},{"city":"Mifflinville","state_name":"Pennsylvania","lat":41.03079,"lng":-76.30233,"zip":"18631","miles_from_dt":27.86},{"city":"Unityville","state_name":"Pennsylvania","lat":41.24782,"lng":-76.5416,"zip":"17774","miles_from_dt":28.05},{"city":"Gouldsboro","state_name":"Pennsylvania","lat":41.24267,"lng":-75.52234,"zip":"18424","miles_from_dt":28.1},{"city":"Brooklyn","state_name":"Pennsylvania","lat":41.75061,"lng":-75.80696,"zip":"18813","miles_from_dt":28.17},{"city":"Eagles Mere","state_name":"Pennsylvania","lat":41.42713,"lng":-76.57293,"zip":"17731","miles_from_dt":28.34},{"city":"Lenoxville","state_name":"Pennsylvania","lat":41.65833,"lng":-75.62565,"zip":"18441","miles_from_dt":28.54},{"city":"Lawton","state_name":"Pennsylvania","lat":41.79672,"lng":-76.11245,"zip":"18828","miles_from_dt":29.14},{"city":"Stevensville","state_name":"Pennsylvania","lat":41.78994,"lng":-76.18454,"zip":"18845","miles_from_dt":29.46},{"city":"Kingsley","state_name":"Pennsylvania","lat":41.7495,"lng":-75.74276,"zip":"18826","miles_from_dt":29.63},{"city":"Hazleton","state_name":"Pennsylvania","lat":40.94874,"lng":-76.0483,"zip":"18202","miles_from_dt":29.69},{"city":"Hazleton","state_name":"Pennsylvania","lat":40.95198,"lng":-75.95395,"zip":"18201","miles_from_dt":29.73},{"city":"Millville","state_name":"Pennsylvania","lat":41.14647,"lng":-76.51681,"zip":"17846","miles_from_dt":29.94}],"targetCityZipCode":"18618","targetCityState":"Pennsylvania"},"__N_SSG":true}