{"pageProps":{"stateName":"Pennsylvania","cityName":"mansfield","nearbyCities":[{"city":"Covington","state_name":"Pennsylvania","lat":41.723,"lng":-77.05519,"zip":"16917","miles_from_dt":6.66},{"city":"Mainesburg","state_name":"Pennsylvania","lat":41.77574,"lng":-76.94017,"zip":"16932","miles_from_dt":7.21},{"city":"Tioga","state_name":"Pennsylvania","lat":41.91422,"lng":-77.13999,"zip":"16946","miles_from_dt":7.57},{"city":"Morris Run","state_name":"Pennsylvania","lat":41.68097,"lng":-77.0141,"zip":"16939","miles_from_dt":9.92},{"city":"Arnot","state_name":"Pennsylvania","lat":41.67787,"lng":-77.10392,"zip":"16911","miles_from_dt":9.93},{"city":"Millerton","state_name":"Pennsylvania","lat":41.94318,"lng":-76.95837,"zip":"16936","miles_from_dt":10.24},{"city":"Blossburg","state_name":"Pennsylvania","lat":41.66803,"lng":-77.05845,"zip":"16912","miles_from_dt":10.43},{"city":"Sylvania","state_name":"Pennsylvania","lat":41.80546,"lng":-76.85648,"zip":"16945","miles_from_dt":10.92},{"city":"Lawrenceville","state_name":"Pennsylvania","lat":41.97352,"lng":-77.15028,"zip":"16929","miles_from_dt":11.49},{"city":"Middlebury Center","state_name":"Pennsylvania","lat":41.87032,"lng":-77.32404,"zip":"16935","miles_from_dt":13.72},{"city":"Nelson","state_name":"Pennsylvania","lat":41.97752,"lng":-77.23373,"zip":"16940","miles_from_dt":13.91},{"city":"Wellsboro","state_name":"Pennsylvania","lat":41.73038,"lng":-77.31841,"zip":"16901","miles_from_dt":14.35},{"city":"Troy","state_name":"Pennsylvania","lat":41.76969,"lng":-76.79519,"zip":"16947","miles_from_dt":14.45},{"city":"Alba","state_name":"Pennsylvania","lat":41.70477,"lng":-76.83124,"zip":"16910","miles_from_dt":14.52},{"city":"Lindley","state_name":"New York","lat":42.02909,"lng":-77.13315,"zip":"14858","miles_from_dt":14.89},{"city":"Columbia Cross Roads","state_name":"Pennsylvania","lat":41.8618,"lng":-76.77687,"zip":"16914","miles_from_dt":15.27},{"city":"Elkland","state_name":"Pennsylvania","lat":41.98218,"lng":-77.28851,"zip":"16920","miles_from_dt":16.03},{"city":"Gillett","state_name":"Pennsylvania","lat":41.95319,"lng":-76.78997,"zip":"16925","miles_from_dt":17.03},{"city":"Liberty","state_name":"Pennsylvania","lat":41.57693,"lng":-77.14021,"zip":"16930","miles_from_dt":17.13},{"city":"Pine City","state_name":"New York","lat":42.03838,"lng":-76.91093,"zip":"14871","miles_from_dt":17.15},{"city":"Grover","state_name":"Pennsylvania","lat":41.61486,"lng":-76.86716,"zip":"17735","miles_from_dt":17.48},{"city":"Roaring Branch","state_name":"Pennsylvania","lat":41.57591,"lng":-76.97168,"zip":"17765","miles_from_dt":17.49},{"city":"Osceola","state_name":"Pennsylvania","lat":41.9654,"lng":-77.35414,"zip":"16942","miles_from_dt":17.92},{"city":"Canton","state_name":"Pennsylvania","lat":41.63827,"lng":-76.80034,"zip":"17724","miles_from_dt":18.6},{"city":"Granville Summit","state_name":"Pennsylvania","lat":41.71506,"lng":-76.70485,"zip":"16926","miles_from_dt":20.05},{"city":"Wellsburg","state_name":"New York","lat":42.02442,"lng":-76.77185,"zip":"14894","miles_from_dt":20.8},{"city":"Knoxville","state_name":"Pennsylvania","lat":41.95203,"lng":-77.43371,"zip":"16928","miles_from_dt":21.01},{"city":"Corning","state_name":"New York","lat":42.12927,"lng":-77.02783,"zip":"14830","miles_from_dt":21.51},{"city":"Elmira","state_name":"New York","lat":42.08692,"lng":-76.84284,"zip":"14905","miles_from_dt":21.8},{"city":"Elmira","state_name":"New York","lat":42.07007,"lng":-76.80798,"zip":"14904","miles_from_dt":21.87},{"city":"Addison","state_name":"New York","lat":42.09718,"lng":-77.28461,"zip":"14801","miles_from_dt":22.23},{"city":"Morris","state_name":"Pennsylvania","lat":41.56935,"lng":-77.34487,"zip":"16938","miles_from_dt":22.43},{"city":"Corning","state_name":"New York","lat":42.14715,"lng":-77.05647,"zip":"14831","miles_from_dt":22.65},{"city":"Ralston","state_name":"Pennsylvania","lat":41.50999,"lng":-76.91388,"zip":"17763","miles_from_dt":22.76},{"city":"Elmira","state_name":"New York","lat":42.12372,"lng":-76.87771,"zip":"14903","miles_from_dt":23.18},{"city":"East Smithfield","state_name":"Pennsylvania","lat":41.87431,"lng":-76.62075,"zip":"18817","miles_from_dt":23.35},{"city":"Elmira","state_name":"New York","lat":42.10412,"lng":-76.81218,"zip":"14902","miles_from_dt":23.66},{"city":"Big Flats","state_name":"New York","lat":42.15525,"lng":-76.95148,"zip":"14814","miles_from_dt":23.96},{"city":"Burlington","state_name":"Pennsylvania","lat":41.78151,"lng":-76.60121,"zip":"18814","miles_from_dt":24.2},{"city":"Milan","state_name":"Pennsylvania","lat":41.89356,"lng":-76.60832,"zip":"18831","miles_from_dt":24.23},{"city":"Elmira","state_name":"New York","lat":42.07363,"lng":-76.74137,"zip":"14901","miles_from_dt":24.3},{"city":"Painted Post","state_name":"New York","lat":42.16816,"lng":-77.13234,"zip":"14870","miles_from_dt":24.33},{"city":"Westfield","state_name":"Pennsylvania","lat":41.89816,"lng":-77.53429,"zip":"16950","miles_from_dt":24.71},{"city":"Shunk","state_name":"Pennsylvania","lat":41.54632,"lng":-76.7477,"zip":"17768","miles_from_dt":25.05},{"city":"Woodhull","state_name":"New York","lat":42.05729,"lng":-77.43482,"zip":"14898","miles_from_dt":25.09},{"city":"Coopers Plains","state_name":"New York","lat":42.18069,"lng":-77.14292,"zip":"14827","miles_from_dt":25.26},{"city":"Gaines","state_name":"Pennsylvania","lat":41.69614,"lng":-77.54654,"zip":"16921","miles_from_dt":26.18},{"city":"Trout Run","state_name":"Pennsylvania","lat":41.43137,"lng":-77.04524,"zip":"17771","miles_from_dt":26.78},{"city":"Lowman","state_name":"New York","lat":42.0914,"lng":-76.6888,"zip":"14861","miles_from_dt":27.08},{"city":"Monroeton","state_name":"Pennsylvania","lat":41.67625,"lng":-76.55639,"zip":"18832","miles_from_dt":28.18},{"city":"Chemung","state_name":"New York","lat":42.05564,"lng":-76.62116,"zip":"14825","miles_from_dt":28.19},{"city":"Sabinsville","state_name":"Pennsylvania","lat":41.8406,"lng":-77.61915,"zip":"16943","miles_from_dt":28.53},{"city":"Cedar Run","state_name":"Pennsylvania","lat":41.53904,"lng":-77.47914,"zip":"17727","miles_from_dt":28.77},{"city":"Horseheads","state_name":"New York","lat":42.20225,"lng":-76.8334,"zip":"14845","miles_from_dt":29.06},{"city":"Cameron Mills","state_name":"New York","lat":42.18629,"lng":-77.36258,"zip":"14820","miles_from_dt":29.56},{"city":"Sayre","state_name":"Pennsylvania","lat":41.97433,"lng":-76.52968,"zip":"18840","miles_from_dt":29.71},{"city":"Campbell","state_name":"New York","lat":42.23541,"lng":-77.21623,"zip":"14821","miles_from_dt":29.74},{"city":"Ulster","state_name":"Pennsylvania","lat":41.85916,"lng":-76.49126,"zip":"18850","miles_from_dt":29.85}],"targetCityZipCode":"16933","targetCityState":"Pennsylvania"},"__N_SSG":true}