{"pageProps":{"stateName":"Pennsylvania","cityName":"middletown","nearbyCities":[{"city":"Highspire","state_name":"Pennsylvania","lat":40.20831,"lng":-76.78489,"zip":"17034","miles_from_dt":3.23},{"city":"Etters","state_name":"Pennsylvania","lat":40.1585,"lng":-76.79468,"zip":"17319","miles_from_dt":4.37},{"city":"Harrisburg","state_name":"Pennsylvania","lat":40.23032,"lng":-76.82083,"zip":"17113","miles_from_dt":5.57},{"city":"Harrisburg","state_name":"Pennsylvania","lat":40.27041,"lng":-76.78265,"zip":"17111","miles_from_dt":6.03},{"city":"York Haven","state_name":"Pennsylvania","lat":40.1174,"lng":-76.78124,"zip":"17370","miles_from_dt":6.05},{"city":"Harrisburg","state_name":"Pennsylvania","lat":40.25965,"lng":-76.80772,"zip":"17140","miles_from_dt":6.22},{"city":"Hummelstown","state_name":"Pennsylvania","lat":40.28579,"lng":-76.69611,"zip":"17036","miles_from_dt":6.51},{"city":"Elizabethtown","state_name":"Pennsylvania","lat":40.16677,"lng":-76.60823,"zip":"17022","miles_from_dt":6.55},{"city":"Bainbridge","state_name":"Pennsylvania","lat":40.10081,"lng":-76.66732,"zip":"17502","miles_from_dt":7.18},{"city":"Harrisburg","state_name":"Pennsylvania","lat":40.23901,"lng":-76.84985,"zip":"17104","miles_from_dt":7.21},{"city":"New Cumberland","state_name":"Pennsylvania","lat":40.20217,"lng":-76.86377,"zip":"17070","miles_from_dt":7.28},{"city":"Hershey","state_name":"Pennsylvania","lat":40.26829,"lng":-76.62754,"zip":"17033","miles_from_dt":7.31},{"city":"Manchester","state_name":"Pennsylvania","lat":40.07929,"lng":-76.72812,"zip":"17345","miles_from_dt":7.94},{"city":"Harrisburg","state_name":"Pennsylvania","lat":40.29036,"lng":-76.81259,"zip":"17177","miles_from_dt":8.03},{"city":"Harrisburg","state_name":"Pennsylvania","lat":40.28986,"lng":-76.82414,"zip":"17109","miles_from_dt":8.37},{"city":"Harrisburg","state_name":"Pennsylvania","lat":40.27499,"lng":-76.86326,"zip":"17103","miles_from_dt":9.12},{"city":"Harrisburg","state_name":"Pennsylvania","lat":40.26258,"lng":-76.87617,"zip":"17105","miles_from_dt":9.2},{"city":"Lewisberry","state_name":"Pennsylvania","lat":40.13438,"lng":-76.88188,"zip":"17339","miles_from_dt":9.2},{"city":"Harrisburg","state_name":"Pennsylvania","lat":40.26328,"lng":-76.87698,"zip":"17127","miles_from_dt":9.27},{"city":"Harrisburg","state_name":"Pennsylvania","lat":40.26177,"lng":-76.8799,"zip":"17126","miles_from_dt":9.35},{"city":"Harrisburg","state_name":"Pennsylvania","lat":40.26109,"lng":-76.88275,"zip":"17108","miles_from_dt":9.45},{"city":"Harrisburg","state_name":"Pennsylvania","lat":40.26329,"lng":-76.8816,"zip":"17122","miles_from_dt":9.48},{"city":"Harrisburg","state_name":"Pennsylvania","lat":40.26319,"lng":-76.88269,"zip":"17129","miles_from_dt":9.52},{"city":"Harrisburg","state_name":"Pennsylvania","lat":40.26596,"lng":-76.88045,"zip":"17123","miles_from_dt":9.52},{"city":"Rheems","state_name":"Pennsylvania","lat":40.12574,"lng":-76.57035,"zip":"17570","miles_from_dt":9.53},{"city":"Campbelltown","state_name":"Pennsylvania","lat":40.27809,"lng":-76.58335,"zip":"17010","miles_from_dt":9.53},{"city":"Harrisburg","state_name":"Pennsylvania","lat":40.26617,"lng":-76.88091,"zip":"17125","miles_from_dt":9.55},{"city":"Harrisburg","state_name":"Pennsylvania","lat":40.26601,"lng":-76.88167,"zip":"17124","miles_from_dt":9.58},{"city":"Harrisburg","state_name":"Pennsylvania","lat":40.26393,"lng":-76.8834,"zip":"17128","miles_from_dt":9.58},{"city":"Harrisburg","state_name":"Pennsylvania","lat":40.26511,"lng":-76.88281,"zip":"17120","miles_from_dt":9.6},{"city":"Harrisburg","state_name":"Pennsylvania","lat":40.2595,"lng":-76.88705,"zip":"17101","miles_from_dt":9.6},{"city":"Harrisburg","state_name":"Pennsylvania","lat":40.26844,"lng":-76.88326,"zip":"17121","miles_from_dt":9.73},{"city":"Lemoyne","state_name":"Pennsylvania","lat":40.24679,"lng":-76.90033,"zip":"17043","miles_from_dt":9.88},{"city":"Palmyra","state_name":"Pennsylvania","lat":40.28952,"lng":-76.58484,"zip":"17078","miles_from_dt":9.96},{"city":"Lawn","state_name":"Pennsylvania","lat":40.21667,"lng":-76.5395,"zip":"17041","miles_from_dt":10.02},{"city":"Harrisburg","state_name":"Pennsylvania","lat":40.27314,"lng":-76.88885,"zip":"17130","miles_from_dt":10.16},{"city":"Mount Wolf","state_name":"Pennsylvania","lat":40.04927,"lng":-76.68247,"zip":"17347","miles_from_dt":10.28},{"city":"Harrisburg","state_name":"Pennsylvania","lat":40.27119,"lng":-76.89686,"zip":"17102","miles_from_dt":10.45},{"city":"Harrisburg","state_name":"Pennsylvania","lat":40.29648,"lng":-76.87461,"zip":"17107","miles_from_dt":10.53},{"city":"Harrisburg","state_name":"Pennsylvania","lat":40.29406,"lng":-76.87783,"zip":"17106","miles_from_dt":10.55},{"city":"Camp Hill","state_name":"Pennsylvania","lat":40.24001,"lng":-76.92002,"zip":"17001","miles_from_dt":10.7},{"city":"Camp Hill","state_name":"Pennsylvania","lat":40.23508,"lng":-76.92931,"zip":"17011","miles_from_dt":11.08},{"city":"Maytown","state_name":"Pennsylvania","lat":40.07492,"lng":-76.58339,"zip":"17550","miles_from_dt":11.2},{"city":"Camp Hill","state_name":"Pennsylvania","lat":40.25388,"lng":-76.92733,"zip":"17089","miles_from_dt":11.38},{"city":"Marietta","state_name":"Pennsylvania","lat":40.07056,"lng":-76.58436,"zip":"17547","miles_from_dt":11.39},{"city":"Harrisburg","state_name":"Pennsylvania","lat":40.31776,"lng":-76.88354,"zip":"17110","miles_from_dt":11.89},{"city":"Emigsville","state_name":"Pennsylvania","lat":40.01847,"lng":-76.7265,"zip":"17318","miles_from_dt":12.14},{"city":"Harrisburg","state_name":"Pennsylvania","lat":40.37497,"lng":-76.77163,"zip":"17112","miles_from_dt":12.69},{"city":"Mount Joy","state_name":"Pennsylvania","lat":40.10935,"lng":-76.51174,"zip":"17552","miles_from_dt":12.8},{"city":"York","state_name":"Pennsylvania","lat":40.00496,"lng":-76.77217,"zip":"17404","miles_from_dt":13.29},{"city":"Summerdale","state_name":"Pennsylvania","lat":40.30998,"lng":-76.92817,"zip":"17093","miles_from_dt":13.31},{"city":"York","state_name":"Pennsylvania","lat":40.01224,"lng":-76.64249,"zip":"17406","miles_from_dt":13.33},{"city":"Rossville","state_name":"Pennsylvania","lat":40.06587,"lng":-76.92031,"zip":"17358","miles_from_dt":13.56},{"city":"Mount Gretna","state_name":"Pennsylvania","lat":40.24135,"lng":-76.47553,"zip":"17064","miles_from_dt":13.67},{"city":"Dover","state_name":"Pennsylvania","lat":40.01859,"lng":-76.8685,"zip":"17315","miles_from_dt":14.27},{"city":"Grantham","state_name":"Pennsylvania","lat":40.15653,"lng":-76.99316,"zip":"17027","miles_from_dt":14.35},{"city":"Mechanicsburg","state_name":"Pennsylvania","lat":40.17756,"lng":-76.99789,"zip":"17055","miles_from_dt":14.4},{"city":"Annville","state_name":"Pennsylvania","lat":40.35735,"lng":-76.55528,"zip":"17003","miles_from_dt":14.44},{"city":"Wellsville","state_name":"Pennsylvania","lat":40.05696,"lng":-76.9392,"zip":"17365","miles_from_dt":14.72},{"city":"Grantville","state_name":"Pennsylvania","lat":40.4033,"lng":-76.65073,"zip":"17028","miles_from_dt":14.96},{"city":"Enola","state_name":"Pennsylvania","lat":40.29506,"lng":-76.97731,"zip":"17025","miles_from_dt":14.97},{"city":"Manheim","state_name":"Pennsylvania","lat":40.17307,"lng":-76.42792,"zip":"17545","miles_from_dt":15.87},{"city":"York","state_name":"Pennsylvania","lat":39.96008,"lng":-76.7301,"zip":"17405","miles_from_dt":16.17},{"city":"York","state_name":"Pennsylvania","lat":39.95893,"lng":-76.73359,"zip":"17401","miles_from_dt":16.25},{"city":"Mechanicsburg","state_name":"Pennsylvania","lat":40.24907,"lng":-77.03005,"zip":"17050","miles_from_dt":16.49},{"city":"Dauphin","state_name":"Pennsylvania","lat":40.40246,"lng":-76.88117,"zip":"17018","miles_from_dt":16.52},{"city":"Quentin","state_name":"Pennsylvania","lat":40.33791,"lng":-76.47433,"zip":"17083","miles_from_dt":16.61},{"city":"Columbia","state_name":"Pennsylvania","lat":40.04,"lng":-76.48558,"zip":"17512","miles_from_dt":16.63},{"city":"York","state_name":"Pennsylvania","lat":39.95799,"lng":-76.66045,"zip":"17402","miles_from_dt":16.68},{"city":"Dillsburg","state_name":"Pennsylvania","lat":40.09078,"lng":-77.02462,"zip":"17019","miles_from_dt":17.32},{"city":"Lebanon","state_name":"Pennsylvania","lat":40.29488,"lng":-76.42271,"zip":"17042","miles_from_dt":17.5},{"city":"Ono","state_name":"Pennsylvania","lat":40.40232,"lng":-76.53651,"zip":"17077","miles_from_dt":17.51},{"city":"Cornwall","state_name":"Pennsylvania","lat":40.27322,"lng":-76.40705,"zip":"17016","miles_from_dt":17.75},{"city":"Silver Spring","state_name":"Pennsylvania","lat":40.06372,"lng":-76.43579,"zip":"17575","miles_from_dt":17.85},{"city":"Franklintown","state_name":"Pennsylvania","lat":40.07523,"lng":-77.02669,"zip":"17323","miles_from_dt":17.89},{"city":"Landisville","state_name":"Pennsylvania","lat":40.08804,"lng":-76.41528,"zip":"17538","miles_from_dt":18.04},{"city":"Wrightsville","state_name":"Pennsylvania","lat":39.98463,"lng":-76.51966,"zip":"17368","miles_from_dt":18.16},{"city":"York","state_name":"Pennsylvania","lat":39.93451,"lng":-76.80203,"zip":"17408","miles_from_dt":18.37},{"city":"Marysville","state_name":"Pennsylvania","lat":40.3255,"lng":-77.03256,"zip":"17053","miles_from_dt":18.53},{"city":"East Prospect","state_name":"Pennsylvania","lat":39.97136,"lng":-76.52267,"zip":"17317","miles_from_dt":18.8},{"city":"York","state_name":"Pennsylvania","lat":39.92142,"lng":-76.71277,"zip":"17403","miles_from_dt":18.85},{"city":"Penryn","state_name":"Pennsylvania","lat":40.20546,"lng":-76.37044,"zip":"17564","miles_from_dt":18.86},{"city":"New Kingstown","state_name":"Pennsylvania","lat":40.23385,"lng":-77.08178,"zip":"17072","miles_from_dt":18.98},{"city":"Rexmont","state_name":"Pennsylvania","lat":40.27885,"lng":-76.3832,"zip":"17085","miles_from_dt":19.07},{"city":"Mountville","state_name":"Pennsylvania","lat":40.03923,"lng":-76.42584,"zip":"17554","miles_from_dt":19.19},{"city":"Elm","state_name":"Pennsylvania","lat":40.20369,"lng":-76.34792,"zip":"17521","miles_from_dt":20.04},{"city":"Windsor","state_name":"Pennsylvania","lat":39.93184,"lng":-76.55585,"zip":"17366","miles_from_dt":20.25},{"city":"Lebanon","state_name":"Pennsylvania","lat":40.38242,"lng":-76.4306,"zip":"17046","miles_from_dt":20.32},{"city":"York New Salem","state_name":"Pennsylvania","lat":39.90258,"lng":-76.78797,"zip":"17371","miles_from_dt":20.39},{"city":"Thomasville","state_name":"Pennsylvania","lat":39.92985,"lng":-76.90049,"zip":"17364","miles_from_dt":20.45},{"city":"Washington Boro","state_name":"Pennsylvania","lat":39.98928,"lng":-76.44756,"zip":"17582","miles_from_dt":20.47},{"city":"Craley","state_name":"Pennsylvania","lat":39.94623,"lng":-76.50513,"zip":"17312","miles_from_dt":20.76},{"city":"Jonestown","state_name":"Pennsylvania","lat":40.46787,"lng":-76.54895,"zip":"17038","miles_from_dt":21.07},{"city":"East Petersburg","state_name":"Pennsylvania","lat":40.09813,"lng":-76.34897,"zip":"17520","miles_from_dt":21.07},{"city":"Boiling Springs","state_name":"Pennsylvania","lat":40.13428,"lng":-77.11801,"zip":"17007","miles_from_dt":21.13},{"city":"Halifax","state_name":"Pennsylvania","lat":40.49448,"lng":-76.81788,"zip":"17032","miles_from_dt":21.26},{"city":"York","state_name":"Pennsylvania","lat":39.8855,"lng":-76.71244,"zip":"17407","miles_from_dt":21.32},{"city":"East Berlin","state_name":"Pennsylvania","lat":39.96721,"lng":-77.00226,"zip":"17316","miles_from_dt":21.43},{"city":"Dallastown","state_name":"Pennsylvania","lat":39.88472,"lng":-76.65719,"zip":"17313","miles_from_dt":21.68},{"city":"Red Lion","state_name":"Pennsylvania","lat":39.89834,"lng":-76.58366,"zip":"17356","miles_from_dt":21.79},{"city":"Lancaster","state_name":"Pennsylvania","lat":40.05004,"lng":-76.36006,"zip":"17607","miles_from_dt":21.82},{"city":"Duncannon","state_name":"Pennsylvania","lat":40.41014,"lng":-77.04367,"zip":"17020","miles_from_dt":22.41},{"city":"New Buffalo","state_name":"Pennsylvania","lat":40.45722,"lng":-76.97921,"zip":"17069","miles_from_dt":22.51},{"city":"Lititz","state_name":"Pennsylvania","lat":40.18217,"lng":-76.30038,"zip":"17543","miles_from_dt":22.57},{"city":"Lancaster","state_name":"Pennsylvania","lat":40.0577,"lng":-76.33731,"zip":"17604","miles_from_dt":22.67},{"city":"Lancaster","state_name":"Pennsylvania","lat":40.01,"lng":-76.37219,"zip":"17611","miles_from_dt":22.68},{"city":"Lancaster","state_name":"Pennsylvania","lat":40.11174,"lng":-76.30401,"zip":"17606","miles_from_dt":23.09},{"city":"Lancaster","state_name":"Pennsylvania","lat":40.07296,"lng":-76.31457,"zip":"17601","miles_from_dt":23.37},{"city":"Lancaster","state_name":"Pennsylvania","lat":40.0127,"lng":-76.35287,"zip":"17603","miles_from_dt":23.43},{"city":"Loganville","state_name":"Pennsylvania","lat":39.85275,"lng":-76.70756,"zip":"17342","miles_from_dt":23.59},{"city":"Seven Valleys","state_name":"Pennsylvania","lat":39.85196,"lng":-76.75377,"zip":"17360","miles_from_dt":23.67},{"city":"Millersville","state_name":"Pennsylvania","lat":39.97911,"lng":-76.37608,"zip":"17551","miles_from_dt":23.78},{"city":"Tower City","state_name":"Pennsylvania","lat":40.531,"lng":-76.62065,"zip":"17980","miles_from_dt":23.89},{"city":"Schaefferstown","state_name":"Pennsylvania","lat":40.30046,"lng":-76.295,"zip":"17088","miles_from_dt":23.96},{"city":"Bausman","state_name":"Pennsylvania","lat":40.02448,"lng":-76.32855,"zip":"17504","miles_from_dt":24.13},{"city":"York Springs","state_name":"Pennsylvania","lat":40.00037,"lng":-77.10633,"zip":"17372","miles_from_dt":24.17},{"city":"Fredericksburg","state_name":"Pennsylvania","lat":40.46734,"lng":-76.43626,"zip":"17026","miles_from_dt":24.28},{"city":"Lancaster","state_name":"Pennsylvania","lat":40.04,"lng":-76.31219,"zip":"17622","miles_from_dt":24.4},{"city":"Hopeland","state_name":"Pennsylvania","lat":40.23452,"lng":-76.26784,"zip":"17533","miles_from_dt":24.42},{"city":"Lancaster","state_name":"Pennsylvania","lat":40.04002,"lng":-76.31005,"zip":"17608","miles_from_dt":24.5},{"city":"Spring Grove","state_name":"Pennsylvania","lat":39.85088,"lng":-76.86872,"zip":"17362","miles_from_dt":24.87},{"city":"Carlisle","state_name":"Pennsylvania","lat":40.241,"lng":-77.19286,"zip":"17013","miles_from_dt":24.87},{"city":"Abbottstown","state_name":"Pennsylvania","lat":39.89119,"lng":-76.9815,"zip":"17301","miles_from_dt":24.91},{"city":"Lancaster","state_name":"Pennsylvania","lat":40.04187,"lng":-76.30012,"zip":"17699","miles_from_dt":24.92},{"city":"Conestoga","state_name":"Pennsylvania","lat":39.93773,"lng":-76.38703,"zip":"17516","miles_from_dt":25.25},{"city":"Felton","state_name":"Pennsylvania","lat":39.85548,"lng":-76.53513,"zip":"17322","miles_from_dt":25.49},{"city":"Myerstown","state_name":"Pennsylvania","lat":40.38848,"lng":-76.31583,"zip":"17067","miles_from_dt":25.5},{"city":"Newmanstown","state_name":"Pennsylvania","lat":40.30047,"lng":-76.25924,"zip":"17073","miles_from_dt":25.77},{"city":"Shermans Dale","state_name":"Pennsylvania","lat":40.32953,"lng":-77.18302,"zip":"17090","miles_from_dt":25.87},{"city":"Mount Holly Springs","state_name":"Pennsylvania","lat":40.09837,"lng":-77.20527,"zip":"17065","miles_from_dt":26.2},{"city":"Wiconisco","state_name":"Pennsylvania","lat":40.57414,"lng":-76.67704,"zip":"17097","miles_from_dt":26.33},{"city":"Kleinfeltersville","state_name":"Pennsylvania","lat":40.2928,"lng":-76.24077,"zip":"17039","miles_from_dt":26.57},{"city":"Brogue","state_name":"Pennsylvania","lat":39.87351,"lng":-76.44894,"zip":"17309","miles_from_dt":26.59},{"city":"Codorus","state_name":"Pennsylvania","lat":39.81709,"lng":-76.84191,"zip":"17311","miles_from_dt":26.74},{"city":"Carlisle","state_name":"Pennsylvania","lat":40.18392,"lng":-77.23234,"zip":"17015","miles_from_dt":26.77},{"city":"Elizabethville","state_name":"Pennsylvania","lat":40.5813,"lng":-76.81169,"zip":"17023","miles_from_dt":27.07},{"city":"Lancaster","state_name":"Pennsylvania","lat":40.05,"lng":-76.25005,"zip":"17605","miles_from_dt":27.14},{"city":"Millersburg","state_name":"Pennsylvania","lat":40.56542,"lng":-76.90046,"zip":"17061","miles_from_dt":27.2},{"city":"Mount Aetna","state_name":"Pennsylvania","lat":40.41669,"lng":-76.29619,"zip":"19544","miles_from_dt":27.43},{"city":"Brownstown","state_name":"Pennsylvania","lat":40.12455,"lng":-76.21394,"zip":"17508","miles_from_dt":27.56},{"city":"Akron","state_name":"Pennsylvania","lat":40.15697,"lng":-76.20532,"zip":"17501","miles_from_dt":27.71},{"city":"Talmage","state_name":"Pennsylvania","lat":40.11651,"lng":-76.21281,"zip":"17580","miles_from_dt":27.73},{"city":"Williamstown","state_name":"Pennsylvania","lat":40.58998,"lng":-76.63071,"zip":"17098","miles_from_dt":27.76},{"city":"New Bloomfield","state_name":"Pennsylvania","lat":40.40685,"lng":-77.17795,"zip":"17068","miles_from_dt":27.99},{"city":"New Oxford","state_name":"Pennsylvania","lat":39.88918,"lng":-77.07896,"zip":"17350","miles_from_dt":28.15},{"city":"Idaville","state_name":"Pennsylvania","lat":40.0132,"lng":-77.20289,"zip":"17337","miles_from_dt":28.16},{"city":"Lancaster","state_name":"Pennsylvania","lat":40.01486,"lng":-76.24632,"zip":"17602","miles_from_dt":28.3},{"city":"Lykens","state_name":"Pennsylvania","lat":40.60554,"lng":-76.72669,"zip":"17048","miles_from_dt":28.37},{"city":"Richland","state_name":"Pennsylvania","lat":40.40523,"lng":-76.26356,"zip":"17087","miles_from_dt":28.46},{"city":"Berrysburg","state_name":"Pennsylvania","lat":40.60304,"lng":-76.81065,"zip":"17005","miles_from_dt":28.54},{"city":"Gratz","state_name":"Pennsylvania","lat":40.60833,"lng":-76.74417,"zip":"17030","miles_from_dt":28.58},{"city":"Glen Rock","state_name":"Pennsylvania","lat":39.77934,"lng":-76.75373,"zip":"17327","miles_from_dt":28.67},{"city":"Gardners","state_name":"Pennsylvania","lat":40.03616,"lng":-77.22772,"zip":"17324","miles_from_dt":28.7},{"city":"Hanover","state_name":"Pennsylvania","lat":39.82421,"lng":-76.9907,"zip":"17333","miles_from_dt":29.13},{"city":"Witmer","state_name":"Pennsylvania","lat":40.04718,"lng":-76.21116,"zip":"17585","miles_from_dt":29.13},{"city":"Leola","state_name":"Pennsylvania","lat":40.09877,"lng":-76.1888,"zip":"17540","miles_from_dt":29.23},{"city":"Willow Street","state_name":"Pennsylvania","lat":39.95981,"lng":-76.26463,"zip":"17584","miles_from_dt":29.35},{"city":"Spring Glen","state_name":"Pennsylvania","lat":40.6165,"lng":-76.65219,"zip":"17978","miles_from_dt":29.39},{"city":"Plainfield","state_name":"Pennsylvania","lat":40.20121,"lng":-77.28322,"zip":"17081","miles_from_dt":29.45},{"city":"Ephrata","state_name":"Pennsylvania","lat":40.17499,"lng":-76.17009,"zip":"17522","miles_from_dt":29.48},{"city":"Lampeter","state_name":"Pennsylvania","lat":39.98673,"lng":-76.23869,"zip":"17537","miles_from_dt":29.56},{"city":"Newport","state_name":"Pennsylvania","lat":40.47983,"lng":-77.14456,"zip":"17074","miles_from_dt":29.58},{"city":"Pequea","state_name":"Pennsylvania","lat":39.89191,"lng":-76.32994,"zip":"17565","miles_from_dt":29.63},{"city":"Hanover","state_name":"Pennsylvania","lat":39.80769,"lng":-76.97011,"zip":"17335","miles_from_dt":29.64},{"city":"Shrewsbury","state_name":"Pennsylvania","lat":39.76617,"lng":-76.67702,"zip":"17361","miles_from_dt":29.66},{"city":"Muir","state_name":"Pennsylvania","lat":40.59359,"lng":-76.51651,"zip":"17957","miles_from_dt":29.69},{"city":"Stevens","state_name":"Pennsylvania","lat":40.22397,"lng":-76.16405,"zip":"17578","miles_from_dt":29.83},{"city":"Bird In Hand","state_name":"Pennsylvania","lat":40.05915,"lng":-76.18999,"zip":"17505","miles_from_dt":29.91}],"targetCityZipCode":"17057","targetCityState":"Pennsylvania"},"__N_SSG":true}