{"pageProps":{"stateName":"Pennsylvania","cityName":"new-bloomfield","nearbyCities":[{"city":"Newport","state_name":"Pennsylvania","lat":40.47983,"lng":-77.14456,"zip":"17074","miles_from_dt":5.33},{"city":"Shermans Dale","state_name":"Pennsylvania","lat":40.32953,"lng":-77.18302,"zip":"17090","miles_from_dt":5.34},{"city":"Elliottsburg","state_name":"Pennsylvania","lat":40.40992,"lng":-77.30854,"zip":"17024","miles_from_dt":6.89},{"city":"Duncannon","state_name":"Pennsylvania","lat":40.41014,"lng":-77.04367,"zip":"17020","miles_from_dt":7.09},{"city":"Marysville","state_name":"Pennsylvania","lat":40.3255,"lng":-77.03256,"zip":"17053","miles_from_dt":9.51},{"city":"Millerstown","state_name":"Pennsylvania","lat":40.55153,"lng":-77.16813,"zip":"17062","miles_from_dt":10},{"city":"Landisburg","state_name":"Pennsylvania","lat":40.31558,"lng":-77.32571,"zip":"17040","miles_from_dt":10.02},{"city":"New Buffalo","state_name":"Pennsylvania","lat":40.45722,"lng":-76.97921,"zip":"17069","miles_from_dt":11.04},{"city":"Carlisle","state_name":"Pennsylvania","lat":40.241,"lng":-77.19286,"zip":"17013","miles_from_dt":11.47},{"city":"Thompsontown","state_name":"Pennsylvania","lat":40.58414,"lng":-77.2168,"zip":"17094","miles_from_dt":12.4},{"city":"Loysville","state_name":"Pennsylvania","lat":40.37098,"lng":-77.41426,"zip":"17047","miles_from_dt":12.71},{"city":"Mexico","state_name":"Pennsylvania","lat":40.53349,"lng":-77.35585,"zip":"17056","miles_from_dt":12.82},{"city":"New Kingstown","state_name":"Pennsylvania","lat":40.23385,"lng":-77.08178,"zip":"17072","miles_from_dt":12.97},{"city":"Enola","state_name":"Pennsylvania","lat":40.29506,"lng":-76.97731,"zip":"17025","miles_from_dt":13.1},{"city":"Ickesburg","state_name":"Pennsylvania","lat":40.43329,"lng":-77.42872,"zip":"17037","miles_from_dt":13.35},{"city":"Mechanicsburg","state_name":"Pennsylvania","lat":40.24907,"lng":-77.03005,"zip":"17050","miles_from_dt":13.4},{"city":"Port Royal","state_name":"Pennsylvania","lat":40.49762,"lng":-77.42579,"zip":"17082","miles_from_dt":14.49},{"city":"Summerdale","state_name":"Pennsylvania","lat":40.30998,"lng":-76.92817,"zip":"17093","miles_from_dt":14.78},{"city":"Plainfield","state_name":"Pennsylvania","lat":40.20121,"lng":-77.28322,"zip":"17081","miles_from_dt":15.24},{"city":"Liverpool","state_name":"Pennsylvania","lat":40.58841,"lng":-77.00389,"zip":"17045","miles_from_dt":15.52},{"city":"Carlisle","state_name":"Pennsylvania","lat":40.18392,"lng":-77.23234,"zip":"17015","miles_from_dt":15.65},{"city":"Dauphin","state_name":"Pennsylvania","lat":40.40246,"lng":-76.88117,"zip":"17018","miles_from_dt":15.66},{"city":"Oakland Mills","state_name":"Pennsylvania","lat":40.62084,"lng":-77.30758,"zip":"17076","miles_from_dt":16.27},{"city":"Mifflintown","state_name":"Pennsylvania","lat":40.59241,"lng":-77.38165,"zip":"17059","miles_from_dt":16.7},{"city":"Harrisburg","state_name":"Pennsylvania","lat":40.31776,"lng":-76.88354,"zip":"17110","miles_from_dt":16.71},{"city":"Camp Hill","state_name":"Pennsylvania","lat":40.25388,"lng":-76.92733,"zip":"17089","miles_from_dt":16.93},{"city":"McAlisterville","state_name":"Pennsylvania","lat":40.65172,"lng":-77.25948,"zip":"17049","miles_from_dt":17.43},{"city":"Cocolamus","state_name":"Pennsylvania","lat":40.6596,"lng":-77.19358,"zip":"17014","miles_from_dt":17.46},{"city":"Harrisburg","state_name":"Pennsylvania","lat":40.27119,"lng":-76.89686,"zip":"17102","miles_from_dt":17.55},{"city":"Harrisburg","state_name":"Pennsylvania","lat":40.29406,"lng":-76.87783,"zip":"17106","miles_from_dt":17.65},{"city":"Camp Hill","state_name":"Pennsylvania","lat":40.23508,"lng":-76.92931,"zip":"17011","miles_from_dt":17.69},{"city":"Harrisburg","state_name":"Pennsylvania","lat":40.29648,"lng":-76.87461,"zip":"17107","miles_from_dt":17.73},{"city":"Camp Hill","state_name":"Pennsylvania","lat":40.24001,"lng":-76.92002,"zip":"17001","miles_from_dt":17.83},{"city":"Harrisburg","state_name":"Pennsylvania","lat":40.27314,"lng":-76.88885,"zip":"17130","miles_from_dt":17.84},{"city":"Millersburg","state_name":"Pennsylvania","lat":40.56542,"lng":-76.90046,"zip":"17061","miles_from_dt":18.26},{"city":"Harrisburg","state_name":"Pennsylvania","lat":40.26844,"lng":-76.88326,"zip":"17121","miles_from_dt":18.26},{"city":"Lemoyne","state_name":"Pennsylvania","lat":40.24679,"lng":-76.90033,"zip":"17043","miles_from_dt":18.35},{"city":"Harrisburg","state_name":"Pennsylvania","lat":40.26511,"lng":-76.88281,"zip":"17120","miles_from_dt":18.4},{"city":"Harrisburg","state_name":"Pennsylvania","lat":40.26393,"lng":-76.8834,"zip":"17128","miles_from_dt":18.42},{"city":"Harrisburg","state_name":"Pennsylvania","lat":40.26601,"lng":-76.88167,"zip":"17124","miles_from_dt":18.42},{"city":"Harrisburg","state_name":"Pennsylvania","lat":40.2595,"lng":-76.88705,"zip":"17101","miles_from_dt":18.42},{"city":"Harrisburg","state_name":"Pennsylvania","lat":40.26617,"lng":-76.88091,"zip":"17125","miles_from_dt":18.44},{"city":"Mechanicsburg","state_name":"Pennsylvania","lat":40.17756,"lng":-76.99789,"zip":"17055","miles_from_dt":18.46},{"city":"Harrisburg","state_name":"Pennsylvania","lat":40.26596,"lng":-76.88045,"zip":"17123","miles_from_dt":18.47},{"city":"Harrisburg","state_name":"Pennsylvania","lat":40.26319,"lng":-76.88269,"zip":"17129","miles_from_dt":18.47},{"city":"Harrisburg","state_name":"Pennsylvania","lat":40.26329,"lng":-76.8816,"zip":"17122","miles_from_dt":18.52},{"city":"Harrisburg","state_name":"Pennsylvania","lat":40.26109,"lng":-76.88275,"zip":"17108","miles_from_dt":18.55},{"city":"Harrisburg","state_name":"Pennsylvania","lat":40.26177,"lng":-76.8799,"zip":"17126","miles_from_dt":18.65},{"city":"Harrisburg","state_name":"Pennsylvania","lat":40.26328,"lng":-76.87698,"zip":"17127","miles_from_dt":18.73},{"city":"Harrisburg","state_name":"Pennsylvania","lat":40.26258,"lng":-76.87617,"zip":"17105","miles_from_dt":18.79},{"city":"Harrisburg","state_name":"Pennsylvania","lat":40.27499,"lng":-76.86326,"zip":"17103","miles_from_dt":18.94},{"city":"Boiling Springs","state_name":"Pennsylvania","lat":40.13428,"lng":-77.11801,"zip":"17007","miles_from_dt":19.07},{"city":"Newville","state_name":"Pennsylvania","lat":40.17793,"lng":-77.40326,"zip":"17241","miles_from_dt":19.78},{"city":"Richfield","state_name":"Pennsylvania","lat":40.69067,"lng":-77.12502,"zip":"17086","miles_from_dt":19.78},{"city":"Grantham","state_name":"Pennsylvania","lat":40.15653,"lng":-76.99316,"zip":"17027","miles_from_dt":19.84},{"city":"Halifax","state_name":"Pennsylvania","lat":40.49448,"lng":-76.81788,"zip":"17032","miles_from_dt":19.92},{"city":"Harrisburg","state_name":"Pennsylvania","lat":40.28986,"lng":-76.82414,"zip":"17109","miles_from_dt":20.35},{"city":"Mifflin","state_name":"Pennsylvania","lat":40.50111,"lng":-77.54792,"zip":"17058","miles_from_dt":20.56},{"city":"Harrisburg","state_name":"Pennsylvania","lat":40.23901,"lng":-76.84985,"zip":"17104","miles_from_dt":20.84},{"city":"Harrisburg","state_name":"Pennsylvania","lat":40.29036,"lng":-76.81259,"zip":"17177","miles_from_dt":20.9},{"city":"Honey Grove","state_name":"Pennsylvania","lat":40.41638,"lng":-77.57443,"zip":"17035","miles_from_dt":20.92},{"city":"Blain","state_name":"Pennsylvania","lat":40.28495,"lng":-77.54364,"zip":"17006","miles_from_dt":21.06},{"city":"Dalmatia","state_name":"Pennsylvania","lat":40.6275,"lng":-76.89854,"zip":"17017","miles_from_dt":21.17},{"city":"Mount Holly Springs","state_name":"Pennsylvania","lat":40.09837,"lng":-77.20527,"zip":"17065","miles_from_dt":21.33},{"city":"Mount Pleasant Mills","state_name":"Pennsylvania","lat":40.69212,"lng":-77.01254,"zip":"17853","miles_from_dt":21.52},{"city":"Harrisburg","state_name":"Pennsylvania","lat":40.37497,"lng":-76.77163,"zip":"17112","miles_from_dt":21.55},{"city":"New Cumberland","state_name":"Pennsylvania","lat":40.20217,"lng":-76.86377,"zip":"17070","miles_from_dt":21.79},{"city":"Harrisburg","state_name":"Pennsylvania","lat":40.25965,"lng":-76.80772,"zip":"17140","miles_from_dt":22.03},{"city":"Harrisburg","state_name":"Pennsylvania","lat":40.23032,"lng":-76.82083,"zip":"17113","miles_from_dt":22.45},{"city":"Elizabethville","state_name":"Pennsylvania","lat":40.5813,"lng":-76.81169,"zip":"17023","miles_from_dt":22.74},{"city":"Harrisburg","state_name":"Pennsylvania","lat":40.27041,"lng":-76.78265,"zip":"17111","miles_from_dt":22.9},{"city":"New Germantown","state_name":"Pennsylvania","lat":40.30061,"lng":-77.58928,"zip":"17071","miles_from_dt":22.92},{"city":"Beaver Springs","state_name":"Pennsylvania","lat":40.73626,"lng":-77.23641,"zip":"17812","miles_from_dt":22.94},{"city":"Dillsburg","state_name":"Pennsylvania","lat":40.09078,"lng":-77.02462,"zip":"17019","miles_from_dt":23.27},{"city":"Berrysburg","state_name":"Pennsylvania","lat":40.60304,"lng":-76.81065,"zip":"17005","miles_from_dt":23.61},{"city":"McClure","state_name":"Pennsylvania","lat":40.72455,"lng":-77.35888,"zip":"17841","miles_from_dt":23.9},{"city":"Franklintown","state_name":"Pennsylvania","lat":40.07523,"lng":-77.02669,"zip":"17323","miles_from_dt":24.24},{"city":"Lewisberry","state_name":"Pennsylvania","lat":40.13438,"lng":-76.88188,"zip":"17339","miles_from_dt":24.46},{"city":"Beaver Springs","state_name":"Pennsylvania","lat":40.76172,"lng":-77.25674,"zip":"17843","miles_from_dt":24.83},{"city":"Lewistown","state_name":"Pennsylvania","lat":40.58236,"lng":-77.59013,"zip":"17044","miles_from_dt":24.86},{"city":"Highspire","state_name":"Pennsylvania","lat":40.20831,"lng":-76.78489,"zip":"17034","miles_from_dt":24.87},{"city":"Port Trevorton","state_name":"Pennsylvania","lat":40.70294,"lng":-76.90687,"zip":"17864","miles_from_dt":24.92},{"city":"Walnut Bottom","state_name":"Pennsylvania","lat":40.08745,"lng":-77.412,"zip":"17266","miles_from_dt":25.27},{"city":"Pillow","state_name":"Pennsylvania","lat":40.64057,"lng":-76.80299,"zip":"17080","miles_from_dt":25.49},{"city":"Granville","state_name":"Pennsylvania","lat":40.55416,"lng":-77.62196,"zip":"17029","miles_from_dt":25.51},{"city":"Gardners","state_name":"Pennsylvania","lat":40.03616,"lng":-77.22772,"zip":"17324","miles_from_dt":25.71},{"city":"Paxtonville","state_name":"Pennsylvania","lat":40.77361,"lng":-77.0788,"zip":"17861","miles_from_dt":25.84},{"city":"Burnham","state_name":"Pennsylvania","lat":40.6359,"lng":-77.56609,"zip":"17009","miles_from_dt":25.84},{"city":"East Waterford","state_name":"Pennsylvania","lat":40.33758,"lng":-77.66093,"zip":"17021","miles_from_dt":25.93},{"city":"Beavertown","state_name":"Pennsylvania","lat":40.78505,"lng":-77.1772,"zip":"17813","miles_from_dt":26.1},{"city":"Etters","state_name":"Pennsylvania","lat":40.1585,"lng":-76.79468,"zip":"17319","miles_from_dt":26.53},{"city":"Freeburg","state_name":"Pennsylvania","lat":40.75482,"lng":-76.96133,"zip":"17827","miles_from_dt":26.58},{"city":"Yeagertown","state_name":"Pennsylvania","lat":40.64535,"lng":-77.57639,"zip":"17099","miles_from_dt":26.66},{"city":"Gratz","state_name":"Pennsylvania","lat":40.60833,"lng":-76.74417,"zip":"17030","miles_from_dt":26.74},{"city":"Hummelstown","state_name":"Pennsylvania","lat":40.28579,"lng":-76.69611,"zip":"17036","miles_from_dt":26.77},{"city":"Rossville","state_name":"Pennsylvania","lat":40.06587,"lng":-76.92031,"zip":"17358","miles_from_dt":27.19},{"city":"Idaville","state_name":"Pennsylvania","lat":40.0132,"lng":-77.20289,"zip":"17337","miles_from_dt":27.19},{"city":"Wellsville","state_name":"Pennsylvania","lat":40.05696,"lng":-76.9392,"zip":"17365","miles_from_dt":27.24},{"city":"Troxelville","state_name":"Pennsylvania","lat":40.80301,"lng":-77.20565,"zip":"17882","miles_from_dt":27.37},{"city":"Lykens","state_name":"Pennsylvania","lat":40.60554,"lng":-76.72669,"zip":"17048","miles_from_dt":27.44},{"city":"Newburg","state_name":"Pennsylvania","lat":40.15411,"lng":-77.58227,"zip":"17240","miles_from_dt":27.58},{"city":"Grantville","state_name":"Pennsylvania","lat":40.4033,"lng":-76.65073,"zip":"17028","miles_from_dt":27.81},{"city":"Middletown","state_name":"Pennsylvania","lat":40.19437,"lng":-76.72659,"zip":"17057","miles_from_dt":27.99},{"city":"Herndon","state_name":"Pennsylvania","lat":40.68791,"lng":-76.79449,"zip":"17830","miles_from_dt":27.99},{"city":"York Springs","state_name":"Pennsylvania","lat":40.00037,"lng":-77.10633,"zip":"17372","miles_from_dt":28.3},{"city":"Middleburg","state_name":"Pennsylvania","lat":40.80389,"lng":-77.04329,"zip":"17842","miles_from_dt":28.3},{"city":"Wiconisco","state_name":"Pennsylvania","lat":40.57414,"lng":-76.67704,"zip":"17097","miles_from_dt":28.8},{"city":"York Haven","state_name":"Pennsylvania","lat":40.1174,"lng":-76.78124,"zip":"17370","miles_from_dt":28.96},{"city":"Milroy","state_name":"Pennsylvania","lat":40.76274,"lng":-77.47343,"zip":"17063","miles_from_dt":29.06},{"city":"Bendersville","state_name":"Pennsylvania","lat":39.98383,"lng":-77.24966,"zip":"17306","miles_from_dt":29.43},{"city":"Kreamer","state_name":"Pennsylvania","lat":40.80255,"lng":-76.96631,"zip":"17833","miles_from_dt":29.49},{"city":"Amberson","state_name":"Pennsylvania","lat":40.18989,"lng":-77.661,"zip":"17210","miles_from_dt":29.59},{"city":"Shippensburg","state_name":"Pennsylvania","lat":40.0508,"lng":-77.49027,"zip":"17257","miles_from_dt":29.6},{"city":"Mattawana","state_name":"Pennsylvania","lat":40.49746,"lng":-77.72764,"zip":"17054","miles_from_dt":29.64},{"city":"Aspers","state_name":"Pennsylvania","lat":39.97696,"lng":-77.23099,"zip":"17304","miles_from_dt":29.79}],"targetCityZipCode":"17068","targetCityState":"Pennsylvania"},"__N_SSG":true}