{"pageProps":{"stateName":"Pennsylvania","cityName":"rimersburg","nearbyCities":[{"city":"Widnoon","state_name":"Pennsylvania","lat":40.96428,"lng":-79.46983,"zip":"16261","miles_from_dt":5.13},{"city":"Sligo","state_name":"Pennsylvania","lat":41.1267,"lng":-79.46809,"zip":"16255","miles_from_dt":6.65},{"city":"Callensburg","state_name":"Pennsylvania","lat":41.12556,"lng":-79.55831,"zip":"16213","miles_from_dt":6.93},{"city":"Templeton","state_name":"Pennsylvania","lat":40.92699,"lng":-79.45692,"zip":"16259","miles_from_dt":7.78},{"city":"New Bethlehem","state_name":"Pennsylvania","lat":41.0031,"lng":-79.35479,"zip":"16242","miles_from_dt":8.06},{"city":"Distant","state_name":"Pennsylvania","lat":40.98701,"lng":-79.35381,"zip":"16223","miles_from_dt":8.47},{"city":"Cowansville","state_name":"Pennsylvania","lat":40.92705,"lng":-79.59325,"zip":"16218","miles_from_dt":8.75},{"city":"East Brady","state_name":"Pennsylvania","lat":40.95684,"lng":-79.63985,"zip":"16028","miles_from_dt":8.9},{"city":"Adrian","state_name":"Pennsylvania","lat":40.89697,"lng":-79.519,"zip":"16210","miles_from_dt":9.5},{"city":"Parker","state_name":"Pennsylvania","lat":41.09622,"lng":-79.67258,"zip":"16049","miles_from_dt":9.82},{"city":"Seminole","state_name":"Pennsylvania","lat":40.954,"lng":-79.34106,"zip":"16253","miles_from_dt":10.13},{"city":"Foxburg","state_name":"Pennsylvania","lat":41.13519,"lng":-79.66948,"zip":"16036","miles_from_dt":11.12},{"city":"Karns City","state_name":"Pennsylvania","lat":41.00693,"lng":-79.71395,"zip":"16041","miles_from_dt":11.16},{"city":"Fairmount City","state_name":"Pennsylvania","lat":41.06314,"lng":-79.29245,"zip":"16224","miles_from_dt":11.2},{"city":"Oak Ridge","state_name":"Pennsylvania","lat":41.00153,"lng":-79.29311,"zip":"16245","miles_from_dt":11.22},{"city":"Saint Petersburg","state_name":"Pennsylvania","lat":41.15651,"lng":-79.65711,"zip":"16054","miles_from_dt":11.65},{"city":"Hawthorn","state_name":"Pennsylvania","lat":41.02099,"lng":-79.27817,"zip":"16230","miles_from_dt":11.81},{"city":"Turkey City","state_name":"Pennsylvania","lat":41.18794,"lng":-79.61358,"zip":"16058","miles_from_dt":12.07},{"city":"Bruin","state_name":"Pennsylvania","lat":41.05461,"lng":-79.7333,"zip":"16022","miles_from_dt":12.09},{"city":"Limestone","state_name":"Pennsylvania","lat":41.13621,"lng":-79.29577,"zip":"16234","miles_from_dt":12.93},{"city":"Knox","state_name":"Pennsylvania","lat":41.22197,"lng":-79.54923,"zip":"16232","miles_from_dt":13.18},{"city":"Clarion","state_name":"Pennsylvania","lat":41.2008,"lng":-79.36046,"zip":"16214","miles_from_dt":13.71},{"city":"Petrolia","state_name":"Pennsylvania","lat":41.04362,"lng":-79.77379,"zip":"16050","miles_from_dt":14.14},{"city":"Mayport","state_name":"Pennsylvania","lat":41.03316,"lng":-79.22432,"zip":"16240","miles_from_dt":14.59},{"city":"Lamartine","state_name":"Pennsylvania","lat":41.22191,"lng":-79.63543,"zip":"16375","miles_from_dt":14.67},{"city":"Chicora","state_name":"Pennsylvania","lat":40.94464,"lng":-79.75841,"zip":"16025","miles_from_dt":14.69},{"city":"Kittanning","state_name":"Pennsylvania","lat":40.80984,"lng":-79.47204,"zip":"16201","miles_from_dt":15.56},{"city":"Worthington","state_name":"Pennsylvania","lat":40.8377,"lng":-79.65266,"zip":"16262","miles_from_dt":15.64},{"city":"Emlenton","state_name":"Pennsylvania","lat":41.20786,"lng":-79.69796,"zip":"16373","miles_from_dt":15.71},{"city":"North Washington","state_name":"Pennsylvania","lat":41.05217,"lng":-79.80349,"zip":"16048","miles_from_dt":15.72},{"city":"Shippenville","state_name":"Pennsylvania","lat":41.26557,"lng":-79.45259,"zip":"16254","miles_from_dt":16.19},{"city":"Timblin","state_name":"Pennsylvania","lat":40.96728,"lng":-79.19901,"zip":"15778","miles_from_dt":16.57},{"city":"Summerville","state_name":"Pennsylvania","lat":41.09911,"lng":-79.19532,"zip":"15864","miles_from_dt":16.71},{"city":"Fenelton","state_name":"Pennsylvania","lat":40.86051,"lng":-79.7288,"zip":"16034","miles_from_dt":16.81},{"city":"Eau Claire","state_name":"Pennsylvania","lat":41.13619,"lng":-79.79699,"zip":"16030","miles_from_dt":16.87},{"city":"Manorville","state_name":"Pennsylvania","lat":40.78778,"lng":-79.52036,"zip":"16238","miles_from_dt":17.02},{"city":"Dayton","state_name":"Pennsylvania","lat":40.87171,"lng":-79.25719,"zip":"16222","miles_from_dt":17.08},{"city":"McGrann","state_name":"Pennsylvania","lat":40.78119,"lng":-79.52376,"zip":"16236","miles_from_dt":17.49},{"city":"Kossuth","state_name":"Pennsylvania","lat":41.29047,"lng":-79.56435,"zip":"16331","miles_from_dt":17.97},{"city":"Strattanville","state_name":"Pennsylvania","lat":41.2307,"lng":-79.27217,"zip":"16258","miles_from_dt":18.16},{"city":"Yatesboro","state_name":"Pennsylvania","lat":40.80118,"lng":-79.34108,"zip":"16263","miles_from_dt":18.18},{"city":"Ringgold","state_name":"Pennsylvania","lat":40.99528,"lng":-79.15747,"zip":"15770","miles_from_dt":18.28},{"city":"Hilliards","state_name":"Pennsylvania","lat":41.09399,"lng":-79.84537,"zip":"16040","miles_from_dt":18.33},{"city":"Marble","state_name":"Pennsylvania","lat":41.29749,"lng":-79.44968,"zip":"16334","miles_from_dt":18.39},{"city":"Corsica","state_name":"Pennsylvania","lat":41.17337,"lng":-79.19324,"zip":"15829","miles_from_dt":18.83},{"city":"Ford Cliff","state_name":"Pennsylvania","lat":40.76076,"lng":-79.5358,"zip":"16228","miles_from_dt":18.94},{"city":"Worthville","state_name":"Pennsylvania","lat":41.02449,"lng":-79.13937,"zip":"15784","miles_from_dt":19.04},{"city":"Nu Mine","state_name":"Pennsylvania","lat":40.80499,"lng":-79.27905,"zip":"16244","miles_from_dt":19.7},{"city":"Cadogan","state_name":"Pennsylvania","lat":40.75239,"lng":-79.57795,"zip":"16212","miles_from_dt":19.83},{"city":"West Sunbury","state_name":"Pennsylvania","lat":41.00866,"lng":-79.88687,"zip":"16061","miles_from_dt":20.11},{"city":"Sprankle Mills","state_name":"Pennsylvania","lat":41.01348,"lng":-79.11442,"zip":"15776","miles_from_dt":20.38},{"city":"Boyers","state_name":"Pennsylvania","lat":41.08995,"lng":-79.89008,"zip":"16018","miles_from_dt":20.56},{"city":"Fisher","state_name":"Pennsylvania","lat":41.26606,"lng":-79.25198,"zip":"16225","miles_from_dt":20.69},{"city":"East Butler","state_name":"Pennsylvania","lat":40.87996,"lng":-79.84602,"zip":"16029","miles_from_dt":20.84},{"city":"Cranberry","state_name":"Pennsylvania","lat":41.3216,"lng":-79.62942,"zip":"16319","miles_from_dt":20.9},{"city":"Rural Valley","state_name":"Pennsylvania","lat":40.76209,"lng":-79.32163,"zip":"16249","miles_from_dt":21.05},{"city":"Boyers","state_name":"Pennsylvania","lat":41.10648,"lng":-79.89705,"zip":"16016","miles_from_dt":21.15},{"city":"Lucinda","state_name":"Pennsylvania","lat":41.31759,"lng":-79.34943,"zip":"16235","miles_from_dt":21.15},{"city":"Boyers","state_name":"Pennsylvania","lat":41.11651,"lng":-79.89648,"zip":"16020","miles_from_dt":21.3},{"city":"Herman","state_name":"Pennsylvania","lat":40.83052,"lng":-79.81135,"zip":"16039","miles_from_dt":21.38},{"city":"Cabot","state_name":"Pennsylvania","lat":40.78495,"lng":-79.74921,"zip":"16023","miles_from_dt":21.47},{"city":"Boyers","state_name":"Pennsylvania","lat":41.09144,"lng":-79.90777,"zip":"16017","miles_from_dt":21.48},{"city":"Northpoint","state_name":"Pennsylvania","lat":40.90718,"lng":-79.12795,"zip":"15763","miles_from_dt":21.51},{"city":"Snydersburg","state_name":"Pennsylvania","lat":41.3342,"lng":-79.35791,"zip":"16257","miles_from_dt":22.05},{"city":"Coolspring","state_name":"Pennsylvania","lat":41.02749,"lng":-79.07921,"zip":"15730","miles_from_dt":22.17},{"city":"Ford City","state_name":"Pennsylvania","lat":40.71139,"lng":-79.48608,"zip":"16226","miles_from_dt":22.29},{"city":"Kennerdell","state_name":"Pennsylvania","lat":41.26136,"lng":-79.81066,"zip":"16374","miles_from_dt":22.42},{"city":"Smicksburg","state_name":"Pennsylvania","lat":40.8661,"lng":-79.13611,"zip":"16256","miles_from_dt":22.45},{"city":"Clintonville","state_name":"Pennsylvania","lat":41.20121,"lng":-79.87406,"zip":"16372","miles_from_dt":22.52},{"city":"Sagamore","state_name":"Pennsylvania","lat":40.77566,"lng":-79.23782,"zip":"16250","miles_from_dt":22.62},{"city":"Venus","state_name":"Pennsylvania","lat":41.36379,"lng":-79.51517,"zip":"16364","miles_from_dt":22.76},{"city":"Beyer","state_name":"Pennsylvania","lat":40.79436,"lng":-79.2023,"zip":"16211","miles_from_dt":22.85},{"city":"Freeport","state_name":"Pennsylvania","lat":40.71624,"lng":-79.64567,"zip":"16229","miles_from_dt":23.16},{"city":"Fryburg","state_name":"Pennsylvania","lat":41.36733,"lng":-79.43182,"zip":"16326","miles_from_dt":23.3},{"city":"Lickingville","state_name":"Pennsylvania","lat":41.36096,"lng":-79.36873,"zip":"16332","miles_from_dt":23.62},{"city":"Plumville","state_name":"Pennsylvania","lat":40.79167,"lng":-79.18215,"zip":"16246","miles_from_dt":23.72},{"city":"Butler","state_name":"Pennsylvania","lat":40.85806,"lng":-79.89528,"zip":"16003","miles_from_dt":23.83},{"city":"Butler","state_name":"Pennsylvania","lat":40.81568,"lng":-79.85638,"zip":"16002","miles_from_dt":23.84},{"city":"Hamilton","state_name":"Pennsylvania","lat":40.91722,"lng":-79.07119,"zip":"15744","miles_from_dt":24},{"city":"Elderton","state_name":"Pennsylvania","lat":40.69945,"lng":-79.36946,"zip":"15736","miles_from_dt":24.14},{"city":"Butler","state_name":"Pennsylvania","lat":40.91049,"lng":-79.94376,"zip":"16001","miles_from_dt":24.56},{"city":"Valier","state_name":"Pennsylvania","lat":40.91628,"lng":-79.05606,"zip":"15780","miles_from_dt":24.77},{"city":"Harrisville","state_name":"Pennsylvania","lat":41.15967,"lng":-79.95042,"zip":"16038","miles_from_dt":24.89},{"city":"Lyndora","state_name":"Pennsylvania","lat":40.85277,"lng":-79.91626,"zip":"16045","miles_from_dt":24.96},{"city":"Oliveburg","state_name":"Pennsylvania","lat":40.99423,"lng":-79.02773,"zip":"15764","miles_from_dt":25.02},{"city":"Knox Dale","state_name":"Pennsylvania","lat":41.08614,"lng":-79.02948,"zip":"15847","miles_from_dt":25.02},{"city":"Schenley","state_name":"Pennsylvania","lat":40.68301,"lng":-79.63696,"zip":"15682","miles_from_dt":25.22},{"city":"Branchton","state_name":"Pennsylvania","lat":41.07019,"lng":-79.98605,"zip":"16021","miles_from_dt":25.33},{"city":"Seneca","state_name":"Pennsylvania","lat":41.37845,"lng":-79.6727,"zip":"16346","miles_from_dt":25.35},{"city":"Sarver","state_name":"Pennsylvania","lat":40.7157,"lng":-79.74753,"zip":"16055","miles_from_dt":25.42},{"city":"Leeper","state_name":"Pennsylvania","lat":41.36162,"lng":-79.27588,"zip":"16233","miles_from_dt":25.52},{"city":"Tylersburg","state_name":"Pennsylvania","lat":41.38597,"lng":-79.3422,"zip":"16361","miles_from_dt":25.69},{"city":"Brookville","state_name":"Pennsylvania","lat":41.17005,"lng":-79.03885,"zip":"15825","miles_from_dt":26},{"city":"Creekside","state_name":"Pennsylvania","lat":40.72829,"lng":-79.21336,"zip":"15732","miles_from_dt":26},{"city":"Home","state_name":"Pennsylvania","lat":40.76533,"lng":-79.14562,"zip":"15747","miles_from_dt":26.36},{"city":"Marchand","state_name":"Pennsylvania","lat":40.87431,"lng":-79.04554,"zip":"15758","miles_from_dt":26.37},{"city":"Vandergrift","state_name":"Pennsylvania","lat":40.6455,"lng":-79.54243,"zip":"15690","miles_from_dt":26.89},{"city":"Forestville","state_name":"Pennsylvania","lat":41.10779,"lng":-80.01659,"zip":"16035","miles_from_dt":27.27},{"city":"Walston","state_name":"Pennsylvania","lat":40.96375,"lng":-78.98679,"zip":"15781","miles_from_dt":27.45},{"city":"Cooksburg","state_name":"Pennsylvania","lat":41.34908,"lng":-79.18095,"zip":"16217","miles_from_dt":27.48},{"city":"Shelocta","state_name":"Pennsylvania","lat":40.65729,"lng":-79.32508,"zip":"15774","miles_from_dt":27.63},{"city":"Saxonburg","state_name":"Pennsylvania","lat":40.72301,"lng":-79.83911,"zip":"16056","miles_from_dt":27.75},{"city":"Leechburg","state_name":"Pennsylvania","lat":40.64114,"lng":-79.61981,"zip":"15656","miles_from_dt":27.79},{"city":"Hyde Park","state_name":"Pennsylvania","lat":40.63151,"lng":-79.58909,"zip":"15641","miles_from_dt":28.14},{"city":"Anita","state_name":"Pennsylvania","lat":41.00926,"lng":-78.96235,"zip":"15711","miles_from_dt":28.33},{"city":"Punxsutawney","state_name":"Pennsylvania","lat":40.95859,"lng":-78.96974,"zip":"15767","miles_from_dt":28.39},{"city":"De Lancey","state_name":"Pennsylvania","lat":40.9869,"lng":-78.96072,"zip":"15733","miles_from_dt":28.56},{"city":"Spring Church","state_name":"Pennsylvania","lat":40.61802,"lng":-79.43635,"zip":"15686","miles_from_dt":28.93},{"city":"Clarington","state_name":"Pennsylvania","lat":41.35104,"lng":-79.13906,"zip":"15828","miles_from_dt":28.97},{"city":"Slippery Rock","state_name":"Pennsylvania","lat":41.03427,"lng":-80.0579,"zip":"16057","miles_from_dt":28.97},{"city":"Crown","state_name":"Pennsylvania","lat":41.41817,"lng":-79.26659,"zip":"16220","miles_from_dt":29.24},{"city":"Chambersville","state_name":"Pennsylvania","lat":40.70066,"lng":-79.1582,"zip":"15723","miles_from_dt":29.27},{"city":"Renfrew","state_name":"Pennsylvania","lat":40.81194,"lng":-79.9826,"zip":"16053","miles_from_dt":29.39},{"city":"Natrona Heights","state_name":"Pennsylvania","lat":40.64192,"lng":-79.72766,"zip":"15065","miles_from_dt":29.5},{"city":"Vowinckel","state_name":"Pennsylvania","lat":41.41102,"lng":-79.23092,"zip":"16260","miles_from_dt":29.63},{"city":"Polk","state_name":"Pennsylvania","lat":41.31995,"lng":-79.9294,"zip":"16342","miles_from_dt":29.7},{"city":"Reno","state_name":"Pennsylvania","lat":41.42204,"lng":-79.75233,"zip":"16343","miles_from_dt":29.74}],"targetCityZipCode":"16248","targetCityState":"Pennsylvania"},"__N_SSG":true}