{"pageProps":{"stateName":"Pennsylvania","cityName":"russell","nearbyCities":[{"city":"Frewsburg","state_name":"New York","lat":42.04539,"lng":-79.05926,"zip":"14738","miles_from_dt":6.58},{"city":"Warren","state_name":"Pennsylvania","lat":41.84876,"lng":-79.14668,"zip":"16368","miles_from_dt":7.94},{"city":"Warren","state_name":"Pennsylvania","lat":41.84749,"lng":-79.14589,"zip":"16369","miles_from_dt":8},{"city":"Warren","state_name":"Pennsylvania","lat":41.84644,"lng":-79.14642,"zip":"16367","miles_from_dt":8.08},{"city":"Warren","state_name":"Pennsylvania","lat":41.84396,"lng":-79.1411,"zip":"16366","miles_from_dt":8.12},{"city":"Warren","state_name":"Pennsylvania","lat":41.83943,"lng":-79.15324,"zip":"16365","miles_from_dt":8.67},{"city":"Steamburg","state_name":"New York","lat":42.06014,"lng":-78.91816,"zip":"14783","miles_from_dt":11.07},{"city":"Chandlers Valley","state_name":"Pennsylvania","lat":41.93218,"lng":-79.30324,"zip":"16312","miles_from_dt":11.81},{"city":"Jamestown","state_name":"New York","lat":42.08091,"lng":-79.25502,"zip":"14701","miles_from_dt":12.88},{"city":"Tiona","state_name":"Pennsylvania","lat":41.76615,"lng":-79.03644,"zip":"16352","miles_from_dt":12.91},{"city":"Jamestown","state_name":"New York","lat":42.0966,"lng":-79.23498,"zip":"14702","miles_from_dt":12.98},{"city":"Sugar Grove","state_name":"Pennsylvania","lat":41.96323,"lng":-79.3322,"zip":"16350","miles_from_dt":13.25},{"city":"Youngsville","state_name":"Pennsylvania","lat":41.86751,"lng":-79.3187,"zip":"16371","miles_from_dt":13.8},{"city":"Kennedy","state_name":"New York","lat":42.15346,"lng":-79.09061,"zip":"14747","miles_from_dt":14.01},{"city":"Irvine","state_name":"Pennsylvania","lat":41.80642,"lng":-79.27684,"zip":"16329","miles_from_dt":14.4},{"city":"Falconer","state_name":"New York","lat":42.14996,"lng":-79.17499,"zip":"14733","miles_from_dt":14.66},{"city":"Celoron","state_name":"New York","lat":42.10857,"lng":-79.27997,"zip":"14720","miles_from_dt":15.14},{"city":"Randolph","state_name":"New York","lat":42.15383,"lng":-78.95086,"zip":"14772","miles_from_dt":15.41},{"city":"Lakewood","state_name":"New York","lat":42.07939,"lng":-79.32752,"zip":"14750","miles_from_dt":15.72},{"city":"Ludlow","state_name":"Pennsylvania","lat":41.74922,"lng":-78.9323,"zip":"16333","miles_from_dt":15.76},{"city":"Bradford","state_name":"Pennsylvania","lat":41.91105,"lng":-78.77385,"zip":"16701","miles_from_dt":15.79},{"city":"Clarendon","state_name":"Pennsylvania","lat":41.72294,"lng":-79.13884,"zip":"16313","miles_from_dt":16.07},{"city":"East Randolph","state_name":"New York","lat":42.17125,"lng":-78.94814,"zip":"14730","miles_from_dt":16.56},{"city":"Greenhurst","state_name":"New York","lat":42.11934,"lng":-79.30878,"zip":"14742","miles_from_dt":16.71},{"city":"Ellington","state_name":"New York","lat":42.2188,"lng":-79.10696,"zip":"14732","miles_from_dt":18.56},{"city":"Salamanca","state_name":"New York","lat":42.10703,"lng":-78.76977,"zip":"14779","miles_from_dt":19.07},{"city":"Gerry","state_name":"New York","lat":42.21962,"lng":-79.18053,"zip":"14740","miles_from_dt":19.32},{"city":"Niobe","state_name":"New York","lat":42.01142,"lng":-79.45041,"zip":"14758","miles_from_dt":19.75},{"city":"Lewis Run","state_name":"Pennsylvania","lat":41.80511,"lng":-78.73929,"zip":"16738","miles_from_dt":20.05},{"city":"Ashville","state_name":"New York","lat":42.08957,"lng":-79.42306,"zip":"14710","miles_from_dt":20.29},{"city":"Pittsfield","state_name":"Pennsylvania","lat":41.79864,"lng":-79.41749,"zip":"16340","miles_from_dt":20.53},{"city":"Bear Lake","state_name":"Pennsylvania","lat":41.96459,"lng":-79.48076,"zip":"16402","miles_from_dt":20.9},{"city":"Sheffield","state_name":"Pennsylvania","lat":41.64671,"lng":-79.06481,"zip":"16347","miles_from_dt":21},{"city":"Conewango Valley","state_name":"New York","lat":42.25255,"lng":-79.02221,"zip":"14726","miles_from_dt":21},{"city":"Custer City","state_name":"Pennsylvania","lat":41.89881,"lng":-78.66328,"zip":"16725","miles_from_dt":21.55},{"city":"Bemus Point","state_name":"New York","lat":42.18163,"lng":-79.36812,"zip":"14712","miles_from_dt":21.91},{"city":"Stow","state_name":"New York","lat":42.15572,"lng":-79.40337,"zip":"14785","miles_from_dt":22.01},{"city":"Garland","state_name":"Pennsylvania","lat":41.82606,"lng":-79.47311,"zip":"16416","miles_from_dt":22.24},{"city":"Spring Creek","state_name":"Pennsylvania","lat":41.85563,"lng":-79.49889,"zip":"16436","miles_from_dt":22.8},{"city":"Limestone","state_name":"New York","lat":42.03899,"lng":-78.63516,"zip":"14753","miles_from_dt":23.47},{"city":"Columbus","state_name":"Pennsylvania","lat":41.938,"lng":-79.5335,"zip":"16405","miles_from_dt":23.62},{"city":"Sinclairville","state_name":"New York","lat":42.2665,"lng":-79.2559,"zip":"14782","miles_from_dt":23.68},{"city":"Panama","state_name":"New York","lat":42.05344,"lng":-79.51583,"zip":"14767","miles_from_dt":23.75},{"city":"Little Valley","state_name":"New York","lat":42.23477,"lng":-78.81398,"zip":"14755","miles_from_dt":23.76},{"city":"Leon","state_name":"New York","lat":42.29368,"lng":-79.01798,"zip":"14751","miles_from_dt":23.85},{"city":"Tidioute","state_name":"Pennsylvania","lat":41.67583,"lng":-79.37285,"zip":"16351","miles_from_dt":24.41},{"city":"Maple Springs","state_name":"New York","lat":42.19708,"lng":-79.42373,"zip":"14756","miles_from_dt":24.69},{"city":"Gifford","state_name":"Pennsylvania","lat":41.85921,"lng":-78.60843,"zip":"16732","miles_from_dt":24.9},{"city":"Cherry Creek","state_name":"New York","lat":42.3101,"lng":-79.13489,"zip":"14723","miles_from_dt":24.98},{"city":"James City","state_name":"Pennsylvania","lat":41.61806,"lng":-78.84418,"zip":"16734","miles_from_dt":25.89},{"city":"Kane","state_name":"Pennsylvania","lat":41.63045,"lng":-78.81,"zip":"16735","miles_from_dt":26.02},{"city":"Kill Buck","state_name":"New York","lat":42.1392,"lng":-78.63636,"zip":"14748","miles_from_dt":26.06},{"city":"Rew","state_name":"Pennsylvania","lat":41.87567,"lng":-78.56941,"zip":"16744","miles_from_dt":26.6},{"city":"Chautauqua","state_name":"New York","lat":42.20961,"lng":-79.46882,"zip":"14722","miles_from_dt":26.98},{"city":"De Young","state_name":"Pennsylvania","lat":41.57439,"lng":-78.91211,"zip":"16728","miles_from_dt":27.32},{"city":"Cyclone","state_name":"Pennsylvania","lat":41.80456,"lng":-78.57787,"zip":"16726","miles_from_dt":27.58},{"city":"Dewittville","state_name":"New York","lat":42.2648,"lng":-79.41689,"zip":"14728","miles_from_dt":27.88},{"city":"Derrick City","state_name":"Pennsylvania","lat":41.98501,"lng":-78.5338,"zip":"16727","miles_from_dt":28},{"city":"Endeavor","state_name":"Pennsylvania","lat":41.60567,"lng":-79.38428,"zip":"16322","miles_from_dt":28.67},{"city":"Cattaraugus","state_name":"New York","lat":42.34323,"lng":-78.87198,"zip":"14719","miles_from_dt":29.03},{"city":"Cassadaga","state_name":"New York","lat":42.34417,"lng":-79.28813,"zip":"14718","miles_from_dt":29.26},{"city":"South Dayton","state_name":"New York","lat":42.37497,"lng":-79.05376,"zip":"14138","miles_from_dt":29.29},{"city":"Stockton","state_name":"New York","lat":42.31445,"lng":-79.38028,"zip":"14784","miles_from_dt":29.58},{"city":"Mayville","state_name":"New York","lat":42.23944,"lng":-79.50457,"zip":"14757","miles_from_dt":29.72}],"targetCityZipCode":"16345","targetCityState":"Pennsylvania"},"__N_SSG":true}