{"pageProps":{"stateName":"Pennsylvania","cityName":"sheffield","nearbyCities":[{"city":"Clarendon","state_name":"Pennsylvania","lat":41.72294,"lng":-79.13884,"zip":"16313","miles_from_dt":6.51},{"city":"Tiona","state_name":"Pennsylvania","lat":41.76615,"lng":-79.03644,"zip":"16352","miles_from_dt":8.37},{"city":"De Young","state_name":"Pennsylvania","lat":41.57439,"lng":-78.91211,"zip":"16728","miles_from_dt":9.35},{"city":"Ludlow","state_name":"Pennsylvania","lat":41.74922,"lng":-78.9323,"zip":"16333","miles_from_dt":9.85},{"city":"Marienville","state_name":"Pennsylvania","lat":41.49507,"lng":-79.1297,"zip":"16239","miles_from_dt":10.99},{"city":"James City","state_name":"Pennsylvania","lat":41.61806,"lng":-78.84418,"zip":"16734","miles_from_dt":11.59},{"city":"Kane","state_name":"Pennsylvania","lat":41.63045,"lng":-78.81,"zip":"16735","miles_from_dt":13.24},{"city":"Warren","state_name":"Pennsylvania","lat":41.83943,"lng":-79.15324,"zip":"16365","miles_from_dt":14.06},{"city":"Warren","state_name":"Pennsylvania","lat":41.84396,"lng":-79.1411,"zip":"16366","miles_from_dt":14.17},{"city":"Warren","state_name":"Pennsylvania","lat":41.84644,"lng":-79.14642,"zip":"16367","miles_from_dt":14.42},{"city":"Warren","state_name":"Pennsylvania","lat":41.84749,"lng":-79.14589,"zip":"16369","miles_from_dt":14.48},{"city":"Warren","state_name":"Pennsylvania","lat":41.84876,"lng":-79.14668,"zip":"16368","miles_from_dt":14.57},{"city":"Irvine","state_name":"Pennsylvania","lat":41.80642,"lng":-79.27684,"zip":"16329","miles_from_dt":15.55},{"city":"Tidioute","state_name":"Pennsylvania","lat":41.67583,"lng":-79.37285,"zip":"16351","miles_from_dt":16.07},{"city":"Endeavor","state_name":"Pennsylvania","lat":41.60567,"lng":-79.38428,"zip":"16322","miles_from_dt":16.78},{"city":"East Hickory","state_name":"Pennsylvania","lat":41.56835,"lng":-79.40084,"zip":"16321","miles_from_dt":18.23},{"city":"Vowinckel","state_name":"Pennsylvania","lat":41.41102,"lng":-79.23092,"zip":"16260","miles_from_dt":18.41},{"city":"Crown","state_name":"Pennsylvania","lat":41.41817,"lng":-79.26659,"zip":"16220","miles_from_dt":18.93},{"city":"Tionesta","state_name":"Pennsylvania","lat":41.49359,"lng":-79.38839,"zip":"16353","miles_from_dt":19.82},{"city":"Lewis Run","state_name":"Pennsylvania","lat":41.80511,"lng":-78.73929,"zip":"16738","miles_from_dt":20.07},{"city":"Youngsville","state_name":"Pennsylvania","lat":41.86751,"lng":-79.3187,"zip":"16371","miles_from_dt":20.11},{"city":"West Hickory","state_name":"Pennsylvania","lat":41.56586,"lng":-79.44796,"zip":"16370","miles_from_dt":20.62},{"city":"Clarington","state_name":"Pennsylvania","lat":41.35104,"lng":-79.13906,"zip":"15828","miles_from_dt":20.77},{"city":"Sigel","state_name":"Pennsylvania","lat":41.3435,"lng":-79.04697,"zip":"15860","miles_from_dt":20.95},{"city":"Russell","state_name":"Pennsylvania","lat":41.95085,"lng":-79.07548,"zip":"16345","miles_from_dt":21},{"city":"Pittsfield","state_name":"Pennsylvania","lat":41.79864,"lng":-79.41749,"zip":"16340","miles_from_dt":21.03},{"city":"Cooksburg","state_name":"Pennsylvania","lat":41.34908,"lng":-79.18095,"zip":"16217","miles_from_dt":21.41},{"city":"Johnsonburg","state_name":"Pennsylvania","lat":41.50714,"lng":-78.69066,"zip":"15845","miles_from_dt":21.65},{"city":"Ridgway","state_name":"Pennsylvania","lat":41.39253,"lng":-78.79357,"zip":"15853","miles_from_dt":22.49},{"city":"Leeper","state_name":"Pennsylvania","lat":41.36162,"lng":-79.27588,"zip":"16233","miles_from_dt":22.52},{"city":"Tylersburg","state_name":"Pennsylvania","lat":41.38597,"lng":-79.3422,"zip":"16361","miles_from_dt":23.04},{"city":"Chandlers Valley","state_name":"Pennsylvania","lat":41.93218,"lng":-79.30324,"zip":"16312","miles_from_dt":23.23},{"city":"Bradford","state_name":"Pennsylvania","lat":41.91105,"lng":-78.77385,"zip":"16701","miles_from_dt":23.64},{"city":"Garland","state_name":"Pennsylvania","lat":41.82606,"lng":-79.47311,"zip":"16416","miles_from_dt":24.47},{"city":"Hazel Hurst","state_name":"Pennsylvania","lat":41.70303,"lng":-78.59514,"zip":"16733","miles_from_dt":24.61},{"city":"Grand Valley","state_name":"Pennsylvania","lat":41.69481,"lng":-79.54544,"zip":"16420","miles_from_dt":25.09},{"city":"Lickingville","state_name":"Pennsylvania","lat":41.36096,"lng":-79.36873,"zip":"16332","miles_from_dt":25.25},{"city":"Wilcox","state_name":"Pennsylvania","lat":41.58116,"lng":-78.57935,"zip":"15870","miles_from_dt":25.55},{"city":"Pleasantville","state_name":"Pennsylvania","lat":41.56288,"lng":-79.54703,"zip":"16341","miles_from_dt":25.64},{"city":"Sugar Grove","state_name":"Pennsylvania","lat":41.96323,"lng":-79.3322,"zip":"16350","miles_from_dt":25.84},{"city":"Snydersburg","state_name":"Pennsylvania","lat":41.3342,"lng":-79.35791,"zip":"16257","miles_from_dt":26.39},{"city":"Spring Creek","state_name":"Pennsylvania","lat":41.85563,"lng":-79.49889,"zip":"16436","miles_from_dt":26.67},{"city":"Mount Jewett","state_name":"Pennsylvania","lat":41.69255,"lng":-78.54998,"zip":"16740","miles_from_dt":26.83},{"city":"Custer City","state_name":"Pennsylvania","lat":41.89881,"lng":-78.66328,"zip":"16725","miles_from_dt":27.07},{"city":"Lucinda","state_name":"Pennsylvania","lat":41.31759,"lng":-79.34943,"zip":"16235","miles_from_dt":27.09},{"city":"Fryburg","state_name":"Pennsylvania","lat":41.36733,"lng":-79.43182,"zip":"16326","miles_from_dt":27.1},{"city":"Cyclone","state_name":"Pennsylvania","lat":41.80456,"lng":-78.57787,"zip":"16726","miles_from_dt":27.43},{"city":"Frewsburg","state_name":"New York","lat":42.04539,"lng":-79.05926,"zip":"14738","miles_from_dt":27.52},{"city":"Gifford","state_name":"Pennsylvania","lat":41.85921,"lng":-78.60843,"zip":"16732","miles_from_dt":27.77},{"city":"Fisher","state_name":"Pennsylvania","lat":41.26606,"lng":-79.25198,"zip":"16225","miles_from_dt":28.01},{"city":"Steamburg","state_name":"New York","lat":42.06014,"lng":-78.91816,"zip":"14783","miles_from_dt":29.52},{"city":"Brockway","state_name":"Pennsylvania","lat":41.24831,"lng":-78.83828,"zip":"15824","miles_from_dt":29.9},{"city":"Brandy Camp","state_name":"Pennsylvania","lat":41.31891,"lng":-78.68736,"zip":"15822","miles_from_dt":29.92}],"targetCityZipCode":"16347","targetCityState":"Pennsylvania"},"__N_SSG":true}