{"pageProps":{"stateName":"Pennsylvania","cityName":"slippery-rock","nearbyCities":[{"city":"Branchton","state_name":"Pennsylvania","lat":41.07019,"lng":-79.98605,"zip":"16021","miles_from_dt":4.5},{"city":"Forestville","state_name":"Pennsylvania","lat":41.10779,"lng":-80.01659,"zip":"16035","miles_from_dt":5.51},{"city":"Portersville","state_name":"Pennsylvania","lat":40.94459,"lng":-80.14152,"zip":"16051","miles_from_dt":7.58},{"city":"Boyers","state_name":"Pennsylvania","lat":41.09144,"lng":-79.90777,"zip":"16017","miles_from_dt":8.78},{"city":"Prospect","state_name":"Pennsylvania","lat":40.90579,"lng":-80.06154,"zip":"16052","miles_from_dt":8.87},{"city":"West Sunbury","state_name":"Pennsylvania","lat":41.00866,"lng":-79.88687,"zip":"16061","miles_from_dt":9.11},{"city":"Volant","state_name":"Pennsylvania","lat":41.09702,"lng":-80.21943,"zip":"16156","miles_from_dt":9.48},{"city":"Boyers","state_name":"Pennsylvania","lat":41.08995,"lng":-79.89008,"zip":"16018","miles_from_dt":9.57},{"city":"Grove City","state_name":"Pennsylvania","lat":41.17433,"lng":-80.07002,"zip":"16127","miles_from_dt":9.69},{"city":"Boyers","state_name":"Pennsylvania","lat":41.10648,"lng":-79.89705,"zip":"16016","miles_from_dt":9.77},{"city":"Boyers","state_name":"Pennsylvania","lat":41.11651,"lng":-79.89648,"zip":"16020","miles_from_dt":10.16},{"city":"Harrisville","state_name":"Pennsylvania","lat":41.15967,"lng":-79.95042,"zip":"16038","miles_from_dt":10.31},{"city":"Butler","state_name":"Pennsylvania","lat":40.91049,"lng":-79.94376,"zip":"16001","miles_from_dt":10.42},{"city":"Hilliards","state_name":"Pennsylvania","lat":41.09399,"lng":-79.84537,"zip":"16040","miles_from_dt":11.84},{"city":"New Castle","state_name":"Pennsylvania","lat":40.98776,"lng":-80.28814,"zip":"16101","miles_from_dt":12.46},{"city":"New Castle","state_name":"Pennsylvania","lat":40.98826,"lng":-80.29541,"zip":"16108","miles_from_dt":12.81},{"city":"Curllsville","state_name":"Pennsylvania","lat":40.98826,"lng":-80.29541,"zip":"16221","miles_from_dt":12.81},{"city":"Harmony","state_name":"Pennsylvania","lat":40.85103,"lng":-80.12592,"zip":"16037","miles_from_dt":13.14},{"city":"North Washington","state_name":"Pennsylvania","lat":41.05217,"lng":-79.80349,"zip":"16048","miles_from_dt":13.35},{"city":"Lyndora","state_name":"Pennsylvania","lat":40.85277,"lng":-79.91626,"zip":"16045","miles_from_dt":14.55},{"city":"New Castle","state_name":"Pennsylvania","lat":41.05285,"lng":-80.33918,"zip":"16105","miles_from_dt":14.75},{"city":"Butler","state_name":"Pennsylvania","lat":40.85806,"lng":-79.89528,"zip":"16003","miles_from_dt":14.84},{"city":"Petrolia","state_name":"Pennsylvania","lat":41.04362,"lng":-79.77379,"zip":"16050","miles_from_dt":14.86},{"city":"Clintonville","state_name":"Pennsylvania","lat":41.20121,"lng":-79.87406,"zip":"16372","miles_from_dt":14.99},{"city":"Connoquenessing","state_name":"Pennsylvania","lat":40.81822,"lng":-80.01531,"zip":"16027","miles_from_dt":15.07},{"city":"Ellwood City","state_name":"Pennsylvania","lat":40.8743,"lng":-80.2568,"zip":"16117","miles_from_dt":15.17},{"city":"Eau Claire","state_name":"Pennsylvania","lat":41.13619,"lng":-79.79699,"zip":"16030","miles_from_dt":15.33},{"city":"East Butler","state_name":"Pennsylvania","lat":40.87996,"lng":-79.84602,"zip":"16029","miles_from_dt":15.37},{"city":"New Wilmington","state_name":"Pennsylvania","lat":41.1177,"lng":-80.33105,"zip":"16172","miles_from_dt":15.38},{"city":"New Castle","state_name":"Pennsylvania","lat":40.99983,"lng":-80.35011,"zip":"16103","miles_from_dt":15.46},{"city":"New Castle","state_name":"Pennsylvania","lat":40.99992,"lng":-80.35011,"zip":"16107","miles_from_dt":15.46},{"city":"Renfrew","state_name":"Pennsylvania","lat":40.81194,"lng":-79.9826,"zip":"16053","miles_from_dt":15.84},{"city":"Fombell","state_name":"Pennsylvania","lat":40.82389,"lng":-80.19844,"zip":"16123","miles_from_dt":16.27},{"city":"New Wilmington","state_name":"Pennsylvania","lat":41.13908,"lng":-80.34084,"zip":"16142","miles_from_dt":16.45},{"city":"Jackson Center","state_name":"Pennsylvania","lat":41.27101,"lng":-80.11562,"zip":"16133","miles_from_dt":16.61},{"city":"Evans City","state_name":"Pennsylvania","lat":40.79355,"lng":-80.04618,"zip":"16033","miles_from_dt":16.62},{"city":"Mercer","state_name":"Pennsylvania","lat":41.23219,"lng":-80.2397,"zip":"16137","miles_from_dt":16.63},{"city":"Chicora","state_name":"Pennsylvania","lat":40.94464,"lng":-79.75841,"zip":"16025","miles_from_dt":16.84},{"city":"Bruin","state_name":"Pennsylvania","lat":41.05461,"lng":-79.7333,"zip":"16022","miles_from_dt":17.02},{"city":"West Pittsburg","state_name":"Pennsylvania","lat":40.9283,"lng":-80.36235,"zip":"16160","miles_from_dt":17.52},{"city":"Wampum","state_name":"Pennsylvania","lat":40.88902,"lng":-80.33509,"zip":"16157","miles_from_dt":17.63},{"city":"Karns City","state_name":"Pennsylvania","lat":41.00693,"lng":-79.71395,"zip":"16041","miles_from_dt":18.07},{"city":"Butler","state_name":"Pennsylvania","lat":40.81568,"lng":-79.85638,"zip":"16002","miles_from_dt":18.41},{"city":"Zelienople","state_name":"Pennsylvania","lat":40.76352,"lng":-80.12773,"zip":"16063","miles_from_dt":19.04},{"city":"Herman","state_name":"Pennsylvania","lat":40.83052,"lng":-79.81135,"zip":"16039","miles_from_dt":19.08},{"city":"New Castle","state_name":"Pennsylvania","lat":40.96173,"lng":-80.41616,"zip":"16102","miles_from_dt":19.39},{"city":"Koppel","state_name":"Pennsylvania","lat":40.83425,"lng":-80.32369,"zip":"16136","miles_from_dt":19.6},{"city":"Stoneboro","state_name":"Pennsylvania","lat":41.31845,"lng":-80.08122,"zip":"16153","miles_from_dt":19.65},{"city":"Kennerdell","state_name":"Pennsylvania","lat":41.26136,"lng":-79.81066,"zip":"16374","miles_from_dt":20.3},{"city":"Callery","state_name":"Pennsylvania","lat":40.73961,"lng":-80.03719,"zip":"16024","miles_from_dt":20.36},{"city":"Parker","state_name":"Pennsylvania","lat":41.09622,"lng":-79.67258,"zip":"16049","miles_from_dt":20.57},{"city":"Edinburg","state_name":"Pennsylvania","lat":41.03744,"lng":-80.45212,"zip":"16116","miles_from_dt":20.6},{"city":"Polk","state_name":"Pennsylvania","lat":41.31995,"lng":-79.9294,"zip":"16342","miles_from_dt":20.82},{"city":"New Galilee","state_name":"Pennsylvania","lat":40.87237,"lng":-80.3968,"zip":"16141","miles_from_dt":20.96},{"city":"Fenelton","state_name":"Pennsylvania","lat":40.86051,"lng":-79.7288,"zip":"16034","miles_from_dt":20.98},{"city":"Pulaski","state_name":"Pennsylvania","lat":41.10528,"lng":-80.45434,"zip":"16143","miles_from_dt":21.28},{"city":"Foxburg","state_name":"Pennsylvania","lat":41.13519,"lng":-79.66948,"zip":"16036","miles_from_dt":21.44},{"city":"New Brighton","state_name":"Pennsylvania","lat":40.75119,"lng":-80.25269,"zip":"15066","miles_from_dt":22.04},{"city":"Emlenton","state_name":"Pennsylvania","lat":41.20786,"lng":-79.69796,"zip":"16373","miles_from_dt":22.28},{"city":"Cranberry Township","state_name":"Pennsylvania","lat":40.71114,"lng":-80.10606,"zip":"16066","miles_from_dt":22.44},{"city":"East Brady","state_name":"Pennsylvania","lat":40.95684,"lng":-79.63985,"zip":"16028","miles_from_dt":22.5},{"city":"Saint Petersburg","state_name":"Pennsylvania","lat":41.15651,"lng":-79.65711,"zip":"16054","miles_from_dt":22.56},{"city":"Rochester","state_name":"Pennsylvania","lat":40.72837,"lng":-80.21937,"zip":"15074","miles_from_dt":22.74},{"city":"Mars","state_name":"Pennsylvania","lat":40.70192,"lng":-80.02866,"zip":"16046","miles_from_dt":22.98},{"city":"West Middlesex","state_name":"Pennsylvania","lat":41.15967,"lng":-80.46858,"zip":"16159","miles_from_dt":23.12},{"city":"Fredonia","state_name":"Pennsylvania","lat":41.33336,"lng":-80.26486,"zip":"16124","miles_from_dt":23.29},{"city":"Hillsville","state_name":"Pennsylvania","lat":41.00603,"lng":-80.50449,"zip":"16132","miles_from_dt":23.42},{"city":"Cabot","state_name":"Pennsylvania","lat":40.78495,"lng":-79.74921,"zip":"16023","miles_from_dt":23.6},{"city":"Bessemer","state_name":"Pennsylvania","lat":40.96812,"lng":-80.50099,"zip":"16112","miles_from_dt":23.61},{"city":"Villa Maria","state_name":"Pennsylvania","lat":41.06771,"lng":-80.51073,"zip":"16155","miles_from_dt":23.77},{"city":"Valencia","state_name":"Pennsylvania","lat":40.70425,"lng":-79.92812,"zip":"16059","miles_from_dt":23.77},{"city":"Hermitage","state_name":"Pennsylvania","lat":41.23147,"lng":-80.43199,"zip":"16148","miles_from_dt":23.79},{"city":"Enon Valley","state_name":"Pennsylvania","lat":40.892,"lng":-80.47344,"zip":"16120","miles_from_dt":23.85},{"city":"New Bedford","state_name":"Pennsylvania","lat":41.09355,"lng":-80.51078,"zip":"16140","miles_from_dt":24},{"city":"Beaver Falls","state_name":"Pennsylvania","lat":40.76829,"lng":-80.35873,"zip":"15010","miles_from_dt":24.19},{"city":"Sandy Lake","state_name":"Pennsylvania","lat":41.38574,"lng":-80.07422,"zip":"16145","miles_from_dt":24.27},{"city":"Saxonburg","state_name":"Pennsylvania","lat":40.72301,"lng":-79.83911,"zip":"16056","miles_from_dt":24.34},{"city":"Freedom","state_name":"Pennsylvania","lat":40.68786,"lng":-80.20411,"zip":"15042","miles_from_dt":25.1},{"city":"Warrendale","state_name":"Pennsylvania","lat":40.67161,"lng":-80.10344,"zip":"15096","miles_from_dt":25.14},{"city":"Worthington","state_name":"Pennsylvania","lat":40.8377,"lng":-79.65266,"zip":"16262","miles_from_dt":25.17},{"city":"Lowellville","state_name":"Ohio","lat":41.05775,"lng":-80.54241,"zip":"44436","miles_from_dt":25.36},{"city":"Cowansville","state_name":"Pennsylvania","lat":40.92705,"lng":-79.59325,"zip":"16218","miles_from_dt":25.4},{"city":"Wheatland","state_name":"Pennsylvania","lat":41.20232,"lng":-80.49282,"zip":"16161","miles_from_dt":25.49},{"city":"Turkey City","state_name":"Pennsylvania","lat":41.18794,"lng":-79.61358,"zip":"16058","miles_from_dt":25.5},{"city":"Lamartine","state_name":"Pennsylvania","lat":41.22191,"lng":-79.63543,"zip":"16375","miles_from_dt":25.57},{"city":"Warrendale","state_name":"Pennsylvania","lat":40.664,"lng":-80.09593,"zip":"15086","miles_from_dt":25.63},{"city":"Clark","state_name":"Pennsylvania","lat":41.2828,"lng":-80.42569,"zip":"16113","miles_from_dt":25.73},{"city":"Farrell","state_name":"Pennsylvania","lat":41.21121,"lng":-80.49696,"zip":"16121","miles_from_dt":25.96},{"city":"New Middletown","state_name":"Ohio","lat":40.96591,"lng":-80.54963,"zip":"44442","miles_from_dt":26.14},{"city":"Petersburg","state_name":"Ohio","lat":40.9197,"lng":-80.53976,"zip":"44454","miles_from_dt":26.41},{"city":"Clarks Mills","state_name":"Pennsylvania","lat":41.40432,"lng":-80.18766,"zip":"16114","miles_from_dt":26.42},{"city":"Sharpsville","state_name":"Pennsylvania","lat":41.28687,"lng":-80.44509,"zip":"16150","miles_from_dt":26.68},{"city":"Callensburg","state_name":"Pennsylvania","lat":41.12556,"lng":-79.55831,"zip":"16213","miles_from_dt":26.84},{"city":"Sharon","state_name":"Pennsylvania","lat":41.23478,"lng":-80.49932,"zip":"16146","miles_from_dt":26.87},{"city":"Darlington","state_name":"Pennsylvania","lat":40.79433,"lng":-80.46289,"zip":"16115","miles_from_dt":26.9},{"city":"Conway","state_name":"Pennsylvania","lat":40.66706,"lng":-80.23988,"zip":"15027","miles_from_dt":27.07},{"city":"Warrendale","state_name":"Pennsylvania","lat":40.6433,"lng":-80.10951,"zip":"15095","miles_from_dt":27.11},{"city":"Bakerstown","state_name":"Pennsylvania","lat":40.65128,"lng":-79.93173,"zip":"15007","miles_from_dt":27.24},{"city":"Sarver","state_name":"Pennsylvania","lat":40.7157,"lng":-79.74753,"zip":"16055","miles_from_dt":27.34},{"city":"Bradfordwoods","state_name":"Pennsylvania","lat":40.63622,"lng":-80.08164,"zip":"15015","miles_from_dt":27.5},{"city":"Transfer","state_name":"Pennsylvania","lat":41.32539,"lng":-80.42111,"zip":"16154","miles_from_dt":27.61},{"city":"Baden","state_name":"Pennsylvania","lat":40.64431,"lng":-80.17607,"zip":"15005","miles_from_dt":27.61},{"city":"Gibsonia","state_name":"Pennsylvania","lat":40.64009,"lng":-79.9492,"zip":"15044","miles_from_dt":27.79},{"city":"Struthers","state_name":"Ohio","lat":41.04793,"lng":-80.58973,"zip":"44471","miles_from_dt":27.8},{"city":"Campbell","state_name":"Ohio","lat":41.07787,"lng":-80.59136,"zip":"44405","miles_from_dt":28.03},{"city":"Beaver","state_name":"Pennsylvania","lat":40.69933,"lng":-80.36464,"zip":"15009","miles_from_dt":28.15},{"city":"Wexford","state_name":"Pennsylvania","lat":40.62587,"lng":-80.06766,"zip":"15090","miles_from_dt":28.19},{"city":"Hubbard","state_name":"Ohio","lat":41.17022,"lng":-80.57395,"zip":"44425","miles_from_dt":28.52},{"city":"Franklin","state_name":"Pennsylvania","lat":41.41286,"lng":-79.83047,"zip":"16323","miles_from_dt":28.69},{"city":"Masury","state_name":"Ohio","lat":41.24252,"lng":-80.5345,"zip":"44438","miles_from_dt":28.72},{"city":"Youngstown","state_name":"Ohio","lat":40.99838,"lng":-80.60868,"zip":"44514","miles_from_dt":28.89},{"city":"Rimersburg","state_name":"Pennsylvania","lat":41.03412,"lng":-79.50348,"zip":"16248","miles_from_dt":28.97},{"city":"East Palestine","state_name":"Ohio","lat":40.84803,"lng":-80.5549,"zip":"44413","miles_from_dt":29.01},{"city":"Monaca","state_name":"Pennsylvania","lat":40.66013,"lng":-80.31082,"zip":"15061","miles_from_dt":29.02},{"city":"New Springfield","state_name":"Ohio","lat":40.92351,"lng":-80.59473,"zip":"44443","miles_from_dt":29.1},{"city":"Utica","state_name":"Pennsylvania","lat":41.45032,"lng":-79.96284,"zip":"16362","miles_from_dt":29.13},{"city":"Carlton","state_name":"Pennsylvania","lat":41.45706,"lng":-80.03477,"zip":"16311","miles_from_dt":29.2},{"city":"Sheakleyville","state_name":"Pennsylvania","lat":41.4428,"lng":-80.2056,"zip":"16151","miles_from_dt":29.22},{"city":"Bairdford","state_name":"Pennsylvania","lat":40.63351,"lng":-79.87678,"zip":"15006","miles_from_dt":29.24},{"city":"Curtisville","state_name":"Pennsylvania","lat":40.6407,"lng":-79.85029,"zip":"15032","miles_from_dt":29.26},{"city":"Hadley","state_name":"Pennsylvania","lat":41.44315,"lng":-80.21668,"zip":"16130","miles_from_dt":29.4},{"city":"Knox","state_name":"Pennsylvania","lat":41.22197,"lng":-79.54923,"zip":"16232","miles_from_dt":29.53},{"city":"Adrian","state_name":"Pennsylvania","lat":40.89697,"lng":-79.519,"zip":"16210","miles_from_dt":29.74},{"city":"Cranberry","state_name":"Pennsylvania","lat":41.3216,"lng":-79.62942,"zip":"16319","miles_from_dt":29.87},{"city":"Youngstown","state_name":"Ohio","lat":41.12735,"lng":-80.61687,"zip":"44505","miles_from_dt":29.89},{"city":"Youngstown","state_name":"Ohio","lat":41.09356,"lng":-80.62583,"zip":"44506","miles_from_dt":29.94}],"targetCityZipCode":"16057","targetCityState":"Pennsylvania"},"__N_SSG":true}