{"pageProps":{"stateName":"Pennsylvania","cityName":"tionesta","nearbyCities":[{"city":"East Hickory","state_name":"Pennsylvania","lat":41.56835,"lng":-79.40084,"zip":"16321","miles_from_dt":5.2},{"city":"West Hickory","state_name":"Pennsylvania","lat":41.56586,"lng":-79.44796,"zip":"16370","miles_from_dt":5.87},{"city":"Endeavor","state_name":"Pennsylvania","lat":41.60567,"lng":-79.38428,"zip":"16322","miles_from_dt":7.74},{"city":"Tylersburg","state_name":"Pennsylvania","lat":41.38597,"lng":-79.3422,"zip":"16361","miles_from_dt":7.8},{"city":"Crown","state_name":"Pennsylvania","lat":41.41817,"lng":-79.26659,"zip":"16220","miles_from_dt":8.19},{"city":"Fryburg","state_name":"Pennsylvania","lat":41.36733,"lng":-79.43182,"zip":"16326","miles_from_dt":9},{"city":"Lickingville","state_name":"Pennsylvania","lat":41.36096,"lng":-79.36873,"zip":"16332","miles_from_dt":9.21},{"city":"Pleasantville","state_name":"Pennsylvania","lat":41.56288,"lng":-79.54703,"zip":"16341","miles_from_dt":9.52},{"city":"Vowinckel","state_name":"Pennsylvania","lat":41.41102,"lng":-79.23092,"zip":"16260","miles_from_dt":9.97},{"city":"Leeper","state_name":"Pennsylvania","lat":41.36162,"lng":-79.27588,"zip":"16233","miles_from_dt":10.82},{"city":"Snydersburg","state_name":"Pennsylvania","lat":41.3342,"lng":-79.35791,"zip":"16257","miles_from_dt":11.11},{"city":"Venus","state_name":"Pennsylvania","lat":41.36379,"lng":-79.51517,"zip":"16364","miles_from_dt":11.12},{"city":"Lucinda","state_name":"Pennsylvania","lat":41.31759,"lng":-79.34943,"zip":"16235","miles_from_dt":12.31},{"city":"Tidioute","state_name":"Pennsylvania","lat":41.67583,"lng":-79.37285,"zip":"16351","miles_from_dt":12.6},{"city":"Marienville","state_name":"Pennsylvania","lat":41.49507,"lng":-79.1297,"zip":"16239","miles_from_dt":13.42},{"city":"Oil City","state_name":"Pennsylvania","lat":41.45596,"lng":-79.64946,"zip":"16301","miles_from_dt":13.8},{"city":"Marble","state_name":"Pennsylvania","lat":41.29749,"lng":-79.44968,"zip":"16334","miles_from_dt":13.9},{"city":"Cooksburg","state_name":"Pennsylvania","lat":41.34908,"lng":-79.18095,"zip":"16217","miles_from_dt":14.68},{"city":"Rouseville","state_name":"Pennsylvania","lat":41.47045,"lng":-79.684,"zip":"16344","miles_from_dt":15.42},{"city":"Shippenville","state_name":"Pennsylvania","lat":41.26557,"lng":-79.45259,"zip":"16254","miles_from_dt":16.09},{"city":"Grand Valley","state_name":"Pennsylvania","lat":41.69481,"lng":-79.54544,"zip":"16420","miles_from_dt":16.09},{"city":"Clarington","state_name":"Pennsylvania","lat":41.35104,"lng":-79.13906,"zip":"15828","miles_from_dt":16.26},{"city":"Kossuth","state_name":"Pennsylvania","lat":41.29047,"lng":-79.56435,"zip":"16331","miles_from_dt":16.74},{"city":"Seneca","state_name":"Pennsylvania","lat":41.37845,"lng":-79.6727,"zip":"16346","miles_from_dt":16.77},{"city":"Fisher","state_name":"Pennsylvania","lat":41.26606,"lng":-79.25198,"zip":"16225","miles_from_dt":17.23},{"city":"Cranberry","state_name":"Pennsylvania","lat":41.3216,"lng":-79.62942,"zip":"16319","miles_from_dt":17.25},{"city":"Titusville","state_name":"Pennsylvania","lat":41.61476,"lng":-79.70637,"zip":"16354","miles_from_dt":18.48},{"city":"Strattanville","state_name":"Pennsylvania","lat":41.2307,"lng":-79.27217,"zip":"16258","miles_from_dt":19.12},{"city":"Reno","state_name":"Pennsylvania","lat":41.42204,"lng":-79.75233,"zip":"16343","miles_from_dt":19.53},{"city":"Sheffield","state_name":"Pennsylvania","lat":41.64671,"lng":-79.06481,"zip":"16347","miles_from_dt":19.82},{"city":"Clarion","state_name":"Pennsylvania","lat":41.2008,"lng":-79.36046,"zip":"16214","miles_from_dt":20.26},{"city":"Clarendon","state_name":"Pennsylvania","lat":41.72294,"lng":-79.13884,"zip":"16313","miles_from_dt":20.44},{"city":"Knox","state_name":"Pennsylvania","lat":41.22197,"lng":-79.54923,"zip":"16232","miles_from_dt":20.53},{"city":"Sigel","state_name":"Pennsylvania","lat":41.3435,"lng":-79.04697,"zip":"15860","miles_from_dt":20.54},{"city":"Hydetown","state_name":"Pennsylvania","lat":41.651,"lng":-79.72716,"zip":"16328","miles_from_dt":20.65},{"city":"Pittsfield","state_name":"Pennsylvania","lat":41.79864,"lng":-79.41749,"zip":"16340","miles_from_dt":21.11},{"city":"Irvine","state_name":"Pennsylvania","lat":41.80642,"lng":-79.27684,"zip":"16329","miles_from_dt":22.35},{"city":"Lamartine","state_name":"Pennsylvania","lat":41.22191,"lng":-79.63543,"zip":"16375","miles_from_dt":22.73},{"city":"Garland","state_name":"Pennsylvania","lat":41.82606,"lng":-79.47311,"zip":"16416","miles_from_dt":23.36},{"city":"Franklin","state_name":"Pennsylvania","lat":41.41286,"lng":-79.83047,"zip":"16323","miles_from_dt":23.62},{"city":"Turkey City","state_name":"Pennsylvania","lat":41.18794,"lng":-79.61358,"zip":"16058","miles_from_dt":24.13},{"city":"Cooperstown","state_name":"Pennsylvania","lat":41.53232,"lng":-79.85258,"zip":"16317","miles_from_dt":24.23},{"city":"Corsica","state_name":"Pennsylvania","lat":41.17337,"lng":-79.19324,"zip":"15829","miles_from_dt":24.32},{"city":"Limestone","state_name":"Pennsylvania","lat":41.13621,"lng":-79.29577,"zip":"16234","miles_from_dt":25.13},{"city":"Spartansburg","state_name":"Pennsylvania","lat":41.79442,"lng":-79.66765,"zip":"16434","miles_from_dt":25.3},{"city":"De Young","state_name":"Pennsylvania","lat":41.57439,"lng":-78.91211,"zip":"16728","miles_from_dt":25.32},{"city":"Emlenton","state_name":"Pennsylvania","lat":41.20786,"lng":-79.69796,"zip":"16373","miles_from_dt":25.45},{"city":"Spring Creek","state_name":"Pennsylvania","lat":41.85563,"lng":-79.49889,"zip":"16436","miles_from_dt":25.63},{"city":"Sligo","state_name":"Pennsylvania","lat":41.1267,"lng":-79.46809,"zip":"16255","miles_from_dt":25.66},{"city":"Youngsville","state_name":"Pennsylvania","lat":41.86751,"lng":-79.3187,"zip":"16371","miles_from_dt":26.06},{"city":"Tiona","state_name":"Pennsylvania","lat":41.76615,"lng":-79.03644,"zip":"16352","miles_from_dt":26.19},{"city":"Centerville","state_name":"Pennsylvania","lat":41.72483,"lng":-79.79018,"zip":"16404","miles_from_dt":26.23},{"city":"Warren","state_name":"Pennsylvania","lat":41.83943,"lng":-79.15324,"zip":"16365","miles_from_dt":26.79},{"city":"Callensburg","state_name":"Pennsylvania","lat":41.12556,"lng":-79.55831,"zip":"16213","miles_from_dt":26.89},{"city":"Saint Petersburg","state_name":"Pennsylvania","lat":41.15651,"lng":-79.65711,"zip":"16054","miles_from_dt":27.14},{"city":"Kennerdell","state_name":"Pennsylvania","lat":41.26136,"lng":-79.81066,"zip":"16374","miles_from_dt":27.18},{"city":"Warren","state_name":"Pennsylvania","lat":41.84396,"lng":-79.1411,"zip":"16366","miles_from_dt":27.36},{"city":"Warren","state_name":"Pennsylvania","lat":41.84644,"lng":-79.14642,"zip":"16367","miles_from_dt":27.38},{"city":"Warren","state_name":"Pennsylvania","lat":41.84749,"lng":-79.14589,"zip":"16369","miles_from_dt":27.46},{"city":"Warren","state_name":"Pennsylvania","lat":41.84876,"lng":-79.14668,"zip":"16368","miles_from_dt":27.52},{"city":"Foxburg","state_name":"Pennsylvania","lat":41.13519,"lng":-79.66948,"zip":"16036","miles_from_dt":28.73},{"city":"Brookville","state_name":"Pennsylvania","lat":41.17005,"lng":-79.03885,"zip":"15825","miles_from_dt":28.79},{"city":"Riceville","state_name":"Pennsylvania","lat":41.77923,"lng":-79.79955,"zip":"16432","miles_from_dt":29.01},{"city":"Summerville","state_name":"Pennsylvania","lat":41.09911,"lng":-79.19532,"zip":"15864","miles_from_dt":29.02},{"city":"Townville","state_name":"Pennsylvania","lat":41.68167,"lng":-79.89028,"zip":"16360","miles_from_dt":29.06},{"city":"Ludlow","state_name":"Pennsylvania","lat":41.74922,"lng":-78.9323,"zip":"16333","miles_from_dt":29.48},{"city":"James City","state_name":"Pennsylvania","lat":41.61806,"lng":-78.84418,"zip":"16734","miles_from_dt":29.49},{"city":"Utica","state_name":"Pennsylvania","lat":41.45032,"lng":-79.96284,"zip":"16362","miles_from_dt":29.97}],"targetCityZipCode":"16353","targetCityState":"Pennsylvania"},"__N_SSG":true}