{"pageProps":{"stateName":"Pennsylvania","cityName":"waterford","nearbyCities":[{"city":"Mill Village","state_name":"Pennsylvania","lat":41.87466,"lng":-79.97132,"zip":"16427","miles_from_dt":5.62},{"city":"Erie","state_name":"Pennsylvania","lat":42.05861,"lng":-80.04419,"zip":"16509","miles_from_dt":7.74},{"city":"McKean","state_name":"Pennsylvania","lat":41.98121,"lng":-80.13937,"zip":"16426","miles_from_dt":8.12},{"city":"Union City","state_name":"Pennsylvania","lat":41.89084,"lng":-79.84709,"zip":"16438","miles_from_dt":8.41},{"city":"Edinboro","state_name":"Pennsylvania","lat":41.87071,"lng":-80.12175,"zip":"16444","miles_from_dt":9.14},{"city":"Erie","state_name":"Pennsylvania","lat":42.06906,"lng":-80.10263,"zip":"16565","miles_from_dt":9.89},{"city":"Wattsburg","state_name":"Pennsylvania","lat":42.04094,"lng":-79.82631,"zip":"16442","miles_from_dt":10.1},{"city":"Edinboro","state_name":"Pennsylvania","lat":41.88212,"lng":-80.16392,"zip":"16412","miles_from_dt":10.49},{"city":"Erie","state_name":"Pennsylvania","lat":42.1076,"lng":-79.95604,"zip":"16515","miles_from_dt":10.61},{"city":"Erie","state_name":"Pennsylvania","lat":42.10389,"lng":-80.05338,"zip":"16546","miles_from_dt":10.83},{"city":"Erie","state_name":"Pennsylvania","lat":42.11184,"lng":-79.95395,"zip":"16510","miles_from_dt":10.92},{"city":"Erie","state_name":"Pennsylvania","lat":42.10942,"lng":-80.0489,"zip":"16504","miles_from_dt":11.12},{"city":"Erie","state_name":"Pennsylvania","lat":42.09719,"lng":-80.09249,"zip":"16508","miles_from_dt":11.23},{"city":"Erie","state_name":"Pennsylvania","lat":42.11929,"lng":-79.98643,"zip":"16563","miles_from_dt":11.31},{"city":"Cambridge Springs","state_name":"Pennsylvania","lat":41.7912,"lng":-80.02017,"zip":"16403","miles_from_dt":11.47},{"city":"Erie","state_name":"Pennsylvania","lat":42.11987,"lng":-80.02023,"zip":"16514","miles_from_dt":11.49},{"city":"Erie","state_name":"Pennsylvania","lat":42.11988,"lng":-80.0201,"zip":"16541","miles_from_dt":11.49},{"city":"Erie","state_name":"Pennsylvania","lat":42.06449,"lng":-80.15472,"zip":"16506","miles_from_dt":11.51},{"city":"Erie","state_name":"Pennsylvania","lat":42.11073,"lng":-80.10123,"zip":"16502","miles_from_dt":12.26},{"city":"Erie","state_name":"Pennsylvania","lat":42.1101,"lng":-80.10311,"zip":"16544","miles_from_dt":12.27},{"city":"Erie","state_name":"Pennsylvania","lat":42.12718,"lng":-80.06103,"zip":"16503","miles_from_dt":12.48},{"city":"Erie","state_name":"Pennsylvania","lat":42.12164,"lng":-80.08305,"zip":"16512","miles_from_dt":12.52},{"city":"Erie","state_name":"Pennsylvania","lat":42.12144,"lng":-80.08528,"zip":"16534","miles_from_dt":12.56},{"city":"Erie","state_name":"Pennsylvania","lat":42.12096,"lng":-80.08958,"zip":"16501","miles_from_dt":12.62},{"city":"Erie","state_name":"Pennsylvania","lat":42.12524,"lng":-80.08062,"zip":"16522","miles_from_dt":12.7},{"city":"Erie","state_name":"Pennsylvania","lat":42.1264,"lng":-80.08294,"zip":"16553","miles_from_dt":12.82},{"city":"Elgin","state_name":"Pennsylvania","lat":41.9001,"lng":-79.74527,"zip":"16413","miles_from_dt":12.96},{"city":"Erie","state_name":"Pennsylvania","lat":42.12909,"lng":-80.08588,"zip":"16538","miles_from_dt":13.05},{"city":"Erie","state_name":"Pennsylvania","lat":42.13036,"lng":-80.08287,"zip":"16530","miles_from_dt":13.07},{"city":"Erie","state_name":"Pennsylvania","lat":42.10355,"lng":-80.1488,"zip":"16531","miles_from_dt":13.23},{"city":"Erie","state_name":"Pennsylvania","lat":42.13378,"lng":-80.08495,"zip":"16550","miles_from_dt":13.33},{"city":"Erie","state_name":"Pennsylvania","lat":42.13575,"lng":-80.08743,"zip":"16507","miles_from_dt":13.51},{"city":"Fairview","state_name":"Pennsylvania","lat":42.03122,"lng":-80.22873,"zip":"16415","miles_from_dt":13.57},{"city":"Erie","state_name":"Pennsylvania","lat":42.11789,"lng":-80.14304,"zip":"16505","miles_from_dt":13.84},{"city":"Venango","state_name":"Pennsylvania","lat":41.78673,"lng":-80.13088,"zip":"16440","miles_from_dt":13.85},{"city":"Erie","state_name":"Pennsylvania","lat":42.16529,"lng":-79.99667,"zip":"16511","miles_from_dt":14.5},{"city":"Harborcreek","state_name":"Pennsylvania","lat":42.17036,"lng":-79.9351,"zip":"16421","miles_from_dt":15.06},{"city":"Riceville","state_name":"Pennsylvania","lat":41.77923,"lng":-79.79955,"zip":"16432","miles_from_dt":15.49},{"city":"Cranesville","state_name":"Pennsylvania","lat":41.92012,"lng":-80.30482,"zip":"16410","miles_from_dt":16.63},{"city":"Girard","state_name":"Pennsylvania","lat":41.97107,"lng":-80.31039,"zip":"16417","miles_from_dt":16.77},{"city":"Corry","state_name":"Pennsylvania","lat":41.91743,"lng":-79.66374,"zip":"16407","miles_from_dt":16.79},{"city":"North East","state_name":"Pennsylvania","lat":42.17109,"lng":-79.82907,"zip":"16428","miles_from_dt":16.92},{"city":"Saegertown","state_name":"Pennsylvania","lat":41.73553,"lng":-80.14316,"zip":"16433","miles_from_dt":17.22},{"city":"Clymer","state_name":"New York","lat":42.05272,"lng":-79.67031,"zip":"14724","miles_from_dt":17.56},{"city":"Findley Lake","state_name":"New York","lat":42.13715,"lng":-79.74644,"zip":"14736","miles_from_dt":17.57},{"city":"Centerville","state_name":"Pennsylvania","lat":41.72483,"lng":-79.79018,"zip":"16404","miles_from_dt":18.84},{"city":"Lake City","state_name":"Pennsylvania","lat":42.01881,"lng":-80.34253,"zip":"16423","miles_from_dt":18.9},{"city":"Townville","state_name":"Pennsylvania","lat":41.68167,"lng":-79.89028,"zip":"16360","miles_from_dt":19.52},{"city":"Spartansburg","state_name":"Pennsylvania","lat":41.79442,"lng":-79.66765,"zip":"16434","miles_from_dt":19.81},{"city":"Albion","state_name":"Pennsylvania","lat":41.87645,"lng":-80.36107,"zip":"16475","miles_from_dt":20.11},{"city":"Albion","state_name":"Pennsylvania","lat":41.88044,"lng":-80.40395,"zip":"16401","miles_from_dt":22.18},{"city":"Guys Mills","state_name":"Pennsylvania","lat":41.6323,"lng":-79.95878,"zip":"16327","miles_from_dt":22.34},{"city":"North Springfield","state_name":"Pennsylvania","lat":42.00413,"lng":-80.41823,"zip":"16430","miles_from_dt":22.54},{"city":"Springboro","state_name":"Pennsylvania","lat":41.81937,"lng":-80.38356,"zip":"16435","miles_from_dt":22.57},{"city":"Meadville","state_name":"Pennsylvania","lat":41.64896,"lng":-80.14727,"zip":"16388","miles_from_dt":22.74},{"city":"Columbus","state_name":"Pennsylvania","lat":41.938,"lng":-79.5335,"zip":"16405","miles_from_dt":23.32},{"city":"East Springfield","state_name":"Pennsylvania","lat":41.97781,"lng":-80.45037,"zip":"16411","miles_from_dt":23.99},{"city":"Meadville","state_name":"Pennsylvania","lat":41.63143,"lng":-80.15378,"zip":"16335","miles_from_dt":23.99},{"city":"Conneautville","state_name":"Pennsylvania","lat":41.75047,"lng":-80.36273,"zip":"16406","miles_from_dt":24.06},{"city":"Ripley","state_name":"New York","lat":42.23198,"lng":-79.69532,"zip":"14775","miles_from_dt":24.23},{"city":"Sherman","state_name":"New York","lat":42.16402,"lng":-79.604,"zip":"14781","miles_from_dt":24.34},{"city":"Hydetown","state_name":"Pennsylvania","lat":41.651,"lng":-79.72716,"zip":"16328","miles_from_dt":24.89},{"city":"Panama","state_name":"New York","lat":42.05344,"lng":-79.51583,"zip":"14767","miles_from_dt":25.11},{"city":"West Springfield","state_name":"Pennsylvania","lat":41.93745,"lng":-80.47831,"zip":"16443","miles_from_dt":25.42},{"city":"Bear Lake","state_name":"Pennsylvania","lat":41.96459,"lng":-79.48076,"zip":"16402","miles_from_dt":26.01},{"city":"Spring Creek","state_name":"Pennsylvania","lat":41.85563,"lng":-79.49889,"zip":"16436","miles_from_dt":26.02},{"city":"Harmonsburg","state_name":"Pennsylvania","lat":41.66555,"lng":-80.31447,"zip":"16422","miles_from_dt":26.24},{"city":"Titusville","state_name":"Pennsylvania","lat":41.61476,"lng":-79.70637,"zip":"16354","miles_from_dt":27.58},{"city":"Niobe","state_name":"New York","lat":42.01142,"lng":-79.45041,"zip":"14758","miles_from_dt":27.83},{"city":"Garland","state_name":"Pennsylvania","lat":41.82606,"lng":-79.47311,"zip":"16416","miles_from_dt":27.89},{"city":"Grand Valley","state_name":"Pennsylvania","lat":41.69481,"lng":-79.54544,"zip":"16420","miles_from_dt":28.97},{"city":"Conneaut Lake","state_name":"Pennsylvania","lat":41.6012,"lng":-80.29958,"zip":"16316","miles_from_dt":29.34},{"city":"Cooperstown","state_name":"Pennsylvania","lat":41.53232,"lng":-79.85258,"zip":"16317","miles_from_dt":30}],"targetCityZipCode":"16441","targetCityState":"Pennsylvania"},"__N_SSG":true}