{"pageProps":{"stateName":"Pennsylvania","cityName":"wysox","nearbyCities":[{"city":"Towanda","state_name":"Pennsylvania","lat":41.75358,"lng":-76.45615,"zip":"18848","miles_from_dt":5.98},{"city":"Wyalusing","state_name":"Pennsylvania","lat":41.71654,"lng":-76.27534,"zip":"18853","miles_from_dt":6.81},{"city":"Camptown","state_name":"Pennsylvania","lat":41.73112,"lng":-76.23278,"zip":"18815","miles_from_dt":7.7},{"city":"Ulster","state_name":"Pennsylvania","lat":41.85916,"lng":-76.49126,"zip":"18850","miles_from_dt":8.31},{"city":"Stevensville","state_name":"Pennsylvania","lat":41.78994,"lng":-76.18454,"zip":"18845","miles_from_dt":8.8},{"city":"Rome","state_name":"Pennsylvania","lat":41.91928,"lng":-76.29122,"zip":"18837","miles_from_dt":9.16},{"city":"Le Raysville","state_name":"Pennsylvania","lat":41.8395,"lng":-76.17088,"zip":"18829","miles_from_dt":9.97},{"city":"Athens","state_name":"Pennsylvania","lat":41.93738,"lng":-76.50181,"zip":"18810","miles_from_dt":12.4},{"city":"Lawton","state_name":"Pennsylvania","lat":41.79672,"lng":-76.11245,"zip":"18828","miles_from_dt":12.51},{"city":"Burlington","state_name":"Pennsylvania","lat":41.78151,"lng":-76.60121,"zip":"18814","miles_from_dt":12.77},{"city":"Monroeton","state_name":"Pennsylvania","lat":41.67625,"lng":-76.55639,"zip":"18832","miles_from_dt":13.27},{"city":"Warren Center","state_name":"Pennsylvania","lat":41.93677,"lng":-76.17992,"zip":"18851","miles_from_dt":13.29},{"city":"Laceyville","state_name":"Pennsylvania","lat":41.67297,"lng":-76.14768,"zip":"18623","miles_from_dt":13.63},{"city":"Sugar Run","state_name":"Pennsylvania","lat":41.60494,"lng":-76.23929,"zip":"18846","miles_from_dt":14.43},{"city":"Milan","state_name":"Pennsylvania","lat":41.89356,"lng":-76.60832,"zip":"18831","miles_from_dt":14.74},{"city":"East Smithfield","state_name":"Pennsylvania","lat":41.87431,"lng":-76.62075,"zip":"18817","miles_from_dt":14.77},{"city":"New Albany","state_name":"Pennsylvania","lat":41.59433,"lng":-76.46515,"zip":"18833","miles_from_dt":15},{"city":"Sayre","state_name":"Pennsylvania","lat":41.97433,"lng":-76.52968,"zip":"18840","miles_from_dt":15.3},{"city":"Nichols","state_name":"New York","lat":42.02993,"lng":-76.35461,"zip":"13812","miles_from_dt":16.19},{"city":"Little Meadows","state_name":"Pennsylvania","lat":41.95049,"lng":-76.10904,"zip":"18830","miles_from_dt":16.59},{"city":"Friendsville","state_name":"Pennsylvania","lat":41.91343,"lng":-76.04843,"zip":"18818","miles_from_dt":17.78},{"city":"Tioga Center","state_name":"New York","lat":42.0579,"lng":-76.35062,"zip":"13845","miles_from_dt":18.12},{"city":"Granville Summit","state_name":"Pennsylvania","lat":41.71506,"lng":-76.70485,"zip":"16926","miles_from_dt":18.92},{"city":"Meshoppen","state_name":"Pennsylvania","lat":41.66361,"lng":-76.02698,"zip":"18630","miles_from_dt":19.23},{"city":"Waverly","state_name":"New York","lat":42.0478,"lng":-76.52804,"zip":"14892","miles_from_dt":19.58},{"city":"Barton","state_name":"New York","lat":42.07752,"lng":-76.40864,"zip":"13734","miles_from_dt":19.67},{"city":"Apalachin","state_name":"New York","lat":42.04396,"lng":-76.16772,"zip":"13732","miles_from_dt":19.68},{"city":"Smithboro","state_name":"New York","lat":42.09884,"lng":-76.3649,"zip":"13840","miles_from_dt":20.95},{"city":"Montrose","state_name":"Pennsylvania","lat":41.82861,"lng":-75.9437,"zip":"18801","miles_from_dt":21.35},{"city":"Dushore","state_name":"Pennsylvania","lat":41.48373,"lng":-76.35768,"zip":"18614","miles_from_dt":21.5},{"city":"Mehoopany","state_name":"Pennsylvania","lat":41.52393,"lng":-76.13365,"zip":"18629","miles_from_dt":21.95},{"city":"Columbia Cross Roads","state_name":"Pennsylvania","lat":41.8618,"lng":-76.77687,"zip":"16914","miles_from_dt":22.27},{"city":"Owego","state_name":"New York","lat":42.11178,"lng":-76.25216,"zip":"13827","miles_from_dt":22.47},{"city":"Chemung","state_name":"New York","lat":42.05564,"lng":-76.62116,"zip":"14825","miles_from_dt":22.61},{"city":"Mildred","state_name":"Pennsylvania","lat":41.46769,"lng":-76.3764,"zip":"18632","miles_from_dt":22.64},{"city":"Troy","state_name":"Pennsylvania","lat":41.76969,"lng":-76.79519,"zip":"16947","miles_from_dt":22.82},{"city":"Dimock","state_name":"Pennsylvania","lat":41.73977,"lng":-75.90966,"zip":"18816","miles_from_dt":23.31},{"city":"Brackney","state_name":"Pennsylvania","lat":41.97203,"lng":-75.96822,"zip":"18812","miles_from_dt":23.37},{"city":"Bible School Park","state_name":"New York","lat":42.07838,"lng":-76.09683,"zip":"13737","miles_from_dt":23.63},{"city":"South Montrose","state_name":"Pennsylvania","lat":41.80446,"lng":-75.89416,"zip":"18843","miles_from_dt":23.79},{"city":"Springville","state_name":"Pennsylvania","lat":41.69247,"lng":-75.91351,"zip":"18844","miles_from_dt":23.88},{"city":"Vestal","state_name":"New York","lat":42.03593,"lng":-76.01958,"zip":"13851","miles_from_dt":23.96},{"city":"Forksville","state_name":"Pennsylvania","lat":41.51907,"lng":-76.63954,"zip":"18616","miles_from_dt":24.1},{"city":"Vestal","state_name":"New York","lat":42.04873,"lng":-76.02663,"zip":"13850","miles_from_dt":24.33},{"city":"Lockwood","state_name":"New York","lat":42.12118,"lng":-76.53985,"zip":"14859","miles_from_dt":24.43},{"city":"Gillett","state_name":"Pennsylvania","lat":41.95319,"lng":-76.78997,"zip":"16925","miles_from_dt":24.96},{"city":"Alba","state_name":"Pennsylvania","lat":41.70477,"lng":-76.83124,"zip":"16910","miles_from_dt":25.41},{"city":"Canton","state_name":"Pennsylvania","lat":41.63827,"lng":-76.80034,"zip":"17724","miles_from_dt":25.46},{"city":"Endicott","state_name":"New York","lat":42.09448,"lng":-76.06514,"zip":"13763","miles_from_dt":25.47},{"city":"Sylvania","state_name":"Pennsylvania","lat":41.80546,"lng":-76.85648,"zip":"16945","miles_from_dt":25.92},{"city":"Endicott","state_name":"New York","lat":42.10045,"lng":-76.04884,"zip":"13761","miles_from_dt":26.3},{"city":"Lopez","state_name":"Pennsylvania","lat":41.41474,"lng":-76.32047,"zip":"18628","miles_from_dt":26.32},{"city":"Shunk","state_name":"Pennsylvania","lat":41.54632,"lng":-76.7477,"zip":"17768","miles_from_dt":26.62},{"city":"Wellsburg","state_name":"New York","lat":42.02442,"lng":-76.77185,"zip":"14894","miles_from_dt":26.69},{"city":"Lowman","state_name":"New York","lat":42.0914,"lng":-76.6888,"zip":"14861","miles_from_dt":26.72},{"city":"Laporte","state_name":"Pennsylvania","lat":41.41136,"lng":-76.4635,"zip":"18626","miles_from_dt":27.09},{"city":"Endicott","state_name":"New York","lat":42.13425,"lng":-76.08354,"zip":"13760","miles_from_dt":27.25},{"city":"Endwell","state_name":"New York","lat":42.1072,"lng":-76.0239,"zip":"13762","miles_from_dt":27.46},{"city":"Elmira","state_name":"New York","lat":42.07363,"lng":-76.74137,"zip":"14901","miles_from_dt":27.68},{"city":"Tunkhannock","state_name":"Pennsylvania","lat":41.52712,"lng":-75.95601,"zip":"18657","miles_from_dt":27.72},{"city":"Eagles Mere","state_name":"Pennsylvania","lat":41.42713,"lng":-76.57293,"zip":"17731","miles_from_dt":27.81},{"city":"Binghamton","state_name":"New York","lat":42.08895,"lng":-75.96891,"zip":"13902","miles_from_dt":28.39},{"city":"Brooklyn","state_name":"Pennsylvania","lat":41.75061,"lng":-75.80696,"zip":"18813","miles_from_dt":28.47},{"city":"Candor","state_name":"New York","lat":42.21706,"lng":-76.33898,"zip":"13743","miles_from_dt":29.12},{"city":"Grover","state_name":"Pennsylvania","lat":41.61486,"lng":-76.86716,"zip":"17735","miles_from_dt":29.28},{"city":"Binghamton","state_name":"New York","lat":42.04749,"lng":-75.89573,"zip":"13903","miles_from_dt":29.37},{"city":"Noxen","state_name":"Pennsylvania","lat":41.41215,"lng":-76.08859,"zip":"18636","miles_from_dt":29.82}],"targetCityZipCode":"18854","targetCityState":"Pennsylvania"},"__N_SSG":true}