{"pageProps":{"stateName":"Idaho","cityName":"bancroft","nearbyCities":[{"city":"Lava Hot Springs","state_name":"Idaho","lat":42.60616,"lng":-112.03051,"zip":"83246","miles_from_dt":12.63},{"city":"Inkom","state_name":"Idaho","lat":42.82286,"lng":-112.21713,"zip":"83245","miles_from_dt":14.68},{"city":"Mccammon","state_name":"Idaho","lat":42.67228,"lng":-112.20865,"zip":"83250","miles_from_dt":15.61},{"city":"Grace","state_name":"Idaho","lat":42.51527,"lng":-111.76214,"zip":"83241","miles_from_dt":20},{"city":"Pocatello","state_name":"Idaho","lat":42.88949,"lng":-112.38324,"zip":"83201","miles_from_dt":24.07},{"city":"Arimo","state_name":"Idaho","lat":42.54495,"lng":-112.29362,"zip":"83214","miles_from_dt":24.2},{"city":"Pocatello","state_name":"Idaho","lat":42.97057,"lng":-112.34734,"zip":"83202","miles_from_dt":24.88},{"city":"Soda Springs","state_name":"Idaho","lat":42.75942,"lng":-111.44451,"zip":"83276","miles_from_dt":25},{"city":"Pocatello","state_name":"Idaho","lat":42.85782,"lng":-112.42619,"zip":"83209","miles_from_dt":25.57},{"city":"Downey","state_name":"Idaho","lat":42.41661,"lng":-112.09482,"zip":"83234","miles_from_dt":26.05},{"city":"Pocatello","state_name":"Idaho","lat":42.86382,"lng":-112.45309,"zip":"83206","miles_from_dt":27},{"city":"Pocatello","state_name":"Idaho","lat":42.84349,"lng":-112.46617,"zip":"83205","miles_from_dt":27.37},{"city":"Pocatello","state_name":"Idaho","lat":42.79219,"lng":-112.51877,"zip":"83204","miles_from_dt":29.67}],"targetCityZipCode":"83217","targetCityState":"Idaho"},"__N_SSG":true}