{"pageProps":{"stateName":"Idaho","cityName":"bovill","nearbyCities":[{"city":"Deary","state_name":"Idaho","lat":46.80554,"lng":-116.51934,"zip":"83823","miles_from_dt":8.83},{"city":"Clarkia","state_name":"Idaho","lat":47.00311,"lng":-116.28295,"zip":"83812","miles_from_dt":9.31},{"city":"Elk River","state_name":"Idaho","lat":46.78035,"lng":-116.17469,"zip":"83827","miles_from_dt":11.65},{"city":"Fernwood","state_name":"Idaho","lat":47.07651,"lng":-116.35272,"zip":"83830","miles_from_dt":13.43},{"city":"Harvard","state_name":"Idaho","lat":46.97566,"lng":-116.67484,"zip":"83834","miles_from_dt":15.78},{"city":"Santa","state_name":"Idaho","lat":47.14286,"lng":-116.43995,"zip":"83866","miles_from_dt":18.29},{"city":"Kendrick","state_name":"Idaho","lat":46.62877,"lng":-116.52348,"zip":"83537","miles_from_dt":18.97},{"city":"Troy","state_name":"Idaho","lat":46.74589,"lng":-116.73865,"zip":"83871","miles_from_dt":19.85},{"city":"Princeton","state_name":"Idaho","lat":46.8895,"lng":-116.79776,"zip":"83857","miles_from_dt":20.25},{"city":"Ahsahka","state_name":"Idaho","lat":46.53936,"lng":-116.32366,"zip":"83520","miles_from_dt":23.8},{"city":"Potlatch","state_name":"Idaho","lat":46.97188,"lng":-116.92464,"zip":"83855","miles_from_dt":26.95},{"city":"Saint Maries","state_name":"Idaho","lat":47.2488,"lng":-116.57821,"zip":"83861","miles_from_dt":27.14},{"city":"Lenore","state_name":"Idaho","lat":46.49297,"lng":-116.50156,"zip":"83541","miles_from_dt":27.61},{"city":"Viola","state_name":"Idaho","lat":46.85772,"lng":-116.97251,"zip":"83872","miles_from_dt":28.58},{"city":"Orofino","state_name":"Idaho","lat":46.49365,"lng":-116.1525,"zip":"83544","miles_from_dt":28.78},{"city":"Tensed","state_name":"Idaho","lat":47.13862,"lng":-116.85372,"zip":"83870","miles_from_dt":28.89},{"city":"Juliaetta","state_name":"Idaho","lat":46.54011,"lng":-116.72599,"zip":"83535","miles_from_dt":29.06},{"city":"Moscow","state_name":"Idaho","lat":46.72257,"lng":-116.94132,"zip":"83843","miles_from_dt":29.25}],"targetCityZipCode":"83806","targetCityState":"Idaho"},"__N_SSG":true}