{"pageProps":{"stateName":"Idaho","cityName":"coeur-d-alene","nearbyCities":[{"city":"Coeur D Alene","state_name":"Idaho","lat":47.66727,"lng":-116.77906,"zip":"83816","miles_from_dt":2.3},{"city":"Coeur D Alene","state_name":"Idaho","lat":47.72498,"lng":-116.78732,"zip":"83815","miles_from_dt":6.22},{"city":"Harrison","state_name":"Idaho","lat":47.51484,"lng":-116.73284,"zip":"83833","miles_from_dt":8.53},{"city":"Post Falls","state_name":"Idaho","lat":47.71486,"lng":-116.94554,"zip":"83877","miles_from_dt":10.26},{"city":"Hayden","state_name":"Idaho","lat":47.79557,"lng":-116.66843,"zip":"83835","miles_from_dt":11.71},{"city":"Post Falls","state_name":"Idaho","lat":47.7267,"lng":-116.97511,"zip":"83854","miles_from_dt":11.86},{"city":"Liberty Lake","state_name":"Washington","lat":47.64222,"lng":-117.07688,"zip":"99019","miles_from_dt":14.89},{"city":"Worley","state_name":"Idaho","lat":47.44842,"lng":-116.93161,"zip":"83876","miles_from_dt":15.36},{"city":"Cataldo","state_name":"Idaho","lat":47.54326,"lng":-116.45525,"zip":"83810","miles_from_dt":15.57},{"city":"Rathdrum","state_name":"Idaho","lat":47.85245,"lng":-116.90173,"zip":"83858","miles_from_dt":16.31},{"city":"Medimont","state_name":"Idaho","lat":47.44046,"lng":-116.55056,"zip":"83842","miles_from_dt":16.7},{"city":"Otis Orchards","state_name":"Washington","lat":47.71107,"lng":-117.12795,"zip":"99027","miles_from_dt":18},{"city":"Greenacres","state_name":"Washington","lat":47.6217,"lng":-117.14623,"zip":"99016","miles_from_dt":18.16},{"city":"Newman Lake","state_name":"Washington","lat":47.78963,"lng":-117.08751,"zip":"99025","miles_from_dt":18.62},{"city":"Mica","state_name":"Washington","lat":47.56474,"lng":-117.14466,"zip":"99023","miles_from_dt":18.74},{"city":"Rockford","state_name":"Washington","lat":47.47782,"lng":-117.11302,"zip":"99030","miles_from_dt":19.92},{"city":"Veradale","state_name":"Washington","lat":47.63734,"lng":-117.19756,"zip":"99037","miles_from_dt":20.52},{"city":"Spokane","state_name":"Washington","lat":47.68142,"lng":-117.20826,"zip":"99216","miles_from_dt":21.23},{"city":"Spokane","state_name":"Washington","lat":47.69087,"lng":-117.20983,"zip":"99215","miles_from_dt":21.41},{"city":"Spokane","state_name":"Washington","lat":47.71139,"lng":-117.20677,"zip":"99214","miles_from_dt":21.55},{"city":"Athol","state_name":"Idaho","lat":47.95631,"lng":-116.6434,"zip":"83801","miles_from_dt":22.69},{"city":"Spokane","state_name":"Washington","lat":47.62755,"lng":-117.25448,"zip":"99206","miles_from_dt":23.19},{"city":"Plummer","state_name":"Idaho","lat":47.29899,"lng":-116.90513,"zip":"83851","miles_from_dt":24.36},{"city":"Spirit Lake","state_name":"Idaho","lat":47.98095,"lng":-116.89239,"zip":"83869","miles_from_dt":24.56},{"city":"Spokane","state_name":"Washington","lat":47.7406,"lng":-117.26241,"zip":"99217","miles_from_dt":24.59},{"city":"Mead","state_name":"Washington","lat":47.84951,"lng":-117.18721,"zip":"99021","miles_from_dt":24.8},{"city":"Spokane","state_name":"Washington","lat":47.65658,"lng":-117.2911,"zip":"99213","miles_from_dt":24.92},{"city":"Valleyford","state_name":"Washington","lat":47.52005,"lng":-117.27197,"zip":"99036","miles_from_dt":25.35},{"city":"Spokane","state_name":"Washington","lat":47.66504,"lng":-117.30914,"zip":"99212","miles_from_dt":25.79},{"city":"Spokane","state_name":"Washington","lat":47.6653,"lng":-117.31012,"zip":"99211","miles_from_dt":25.84},{"city":"Fairfield","state_name":"Washington","lat":47.38137,"lng":-117.19145,"zip":"99012","miles_from_dt":26.9},{"city":"Kingston","state_name":"Idaho","lat":47.61647,"lng":-116.17949,"zip":"83839","miles_from_dt":27.06},{"city":"Spokane","state_name":"Washington","lat":47.58876,"lng":-117.334,"zip":"99223","miles_from_dt":27.11},{"city":"Smelterville","state_name":"Idaho","lat":47.52441,"lng":-116.18439,"zip":"83868","miles_from_dt":27.93},{"city":"Saint Maries","state_name":"Idaho","lat":47.2488,"lng":-116.57821,"zip":"83861","miles_from_dt":28.12},{"city":"Spokane","state_name":"Washington","lat":47.65726,"lng":-117.37767,"zip":"99252","miles_from_dt":28.96},{"city":"Spokane","state_name":"Washington","lat":47.65709,"lng":-117.37854,"zip":"99202","miles_from_dt":29},{"city":"Pinehurst","state_name":"Idaho","lat":47.4421,"lng":-116.20674,"zip":"83850","miles_from_dt":29.1},{"city":"Blanchard","state_name":"Idaho","lat":48.03714,"lng":-116.97315,"zip":"83804","miles_from_dt":29.39},{"city":"Spokane","state_name":"Washington","lat":47.68941,"lng":-117.38911,"zip":"99207","miles_from_dt":29.67}],"targetCityZipCode":"83814","targetCityState":"Idaho"},"__N_SSG":true}