{"pageProps":{"stateName":"Idaho","cityName":"geneva","nearbyCities":[{"city":"Montpelier","state_name":"Idaho","lat":42.36403,"lng":-111.2655,"zip":"83254","miles_from_dt":8.24},{"city":"Bern","state_name":"Idaho","lat":42.34465,"lng":-111.38008,"zip":"83220","miles_from_dt":14.24},{"city":"Georgetown","state_name":"Idaho","lat":42.53167,"lng":-111.36528,"zip":"83239","miles_from_dt":16.92},{"city":"Dingle","state_name":"Idaho","lat":42.15664,"lng":-111.25256,"zip":"83233","miles_from_dt":17.12},{"city":"Smoot","state_name":"Wyoming","lat":42.58697,"lng":-110.90916,"zip":"83126","miles_from_dt":17.5},{"city":"Paris","state_name":"Idaho","lat":42.22112,"lng":-111.40661,"zip":"83261","miles_from_dt":18.89},{"city":"Fairview","state_name":"Wyoming","lat":42.64394,"lng":-110.98828,"zip":"83119","miles_from_dt":19.22},{"city":"Bloomington","state_name":"Idaho","lat":42.18249,"lng":-111.40327,"zip":"83223","miles_from_dt":20.42},{"city":"Cokeville","state_name":"Wyoming","lat":42.09736,"lng":-110.956,"zip":"83114","miles_from_dt":20.93},{"city":"Saint Charles","state_name":"Idaho","lat":42.09156,"lng":-111.36835,"zip":"83272","miles_from_dt":24},{"city":"Afton","state_name":"Wyoming","lat":42.72421,"lng":-110.90108,"zip":"83110","miles_from_dt":25.99},{"city":"Thatcher","state_name":"Idaho","lat":42.35709,"lng":-111.66445,"zip":"83283","miles_from_dt":28.63},{"city":"Fish Haven","state_name":"Idaho","lat":42.03671,"lng":-111.45894,"zip":"83287","miles_from_dt":29.79}],"targetCityZipCode":"83238","targetCityState":"Idaho"},"__N_SSG":true}