{"pageProps":{"stateName":"Idaho","cityName":"heyburn","nearbyCities":[{"city":"Burley","state_name":"Idaho","lat":42.43434,"lng":-113.82007,"zip":"83318","miles_from_dt":8.85},{"city":"Paul","state_name":"Idaho","lat":42.73812,"lng":-113.87705,"zip":"83347","miles_from_dt":12.5},{"city":"Hazelton","state_name":"Idaho","lat":42.58726,"lng":-114.07347,"zip":"83335","miles_from_dt":13.19},{"city":"Rupert","state_name":"Idaho","lat":42.70996,"lng":-113.59812,"zip":"83350","miles_from_dt":15.1},{"city":"Albion","state_name":"Idaho","lat":42.40396,"lng":-113.55864,"zip":"83311","miles_from_dt":17.15},{"city":"Murtaugh","state_name":"Idaho","lat":42.40437,"lng":-114.11768,"zip":"83344","miles_from_dt":18.85},{"city":"Minidoka","state_name":"Idaho","lat":42.75389,"lng":-113.48944,"zip":"83343","miles_from_dt":21.28},{"city":"Eden","state_name":"Idaho","lat":42.58675,"lng":-114.24282,"zip":"83325","miles_from_dt":21.79},{"city":"Declo","state_name":"Idaho","lat":42.46902,"lng":-113.4081,"zip":"83323","miles_from_dt":21.86},{"city":"Oakley","state_name":"Idaho","lat":42.19491,"lng":-113.9046,"zip":"83346","miles_from_dt":25.77},{"city":"Hansen","state_name":"Idaho","lat":42.4243,"lng":-114.29126,"zip":"83334","miles_from_dt":26.04},{"city":"Kimberly","state_name":"Idaho","lat":42.42875,"lng":-114.37052,"zip":"83341","miles_from_dt":29.75}],"targetCityZipCode":"83336","targetCityState":"Idaho"},"__N_SSG":true}