{"pageProps":{"stateName":"Idaho","cityName":"jerome","nearbyCities":[{"city":"Twin Falls","state_name":"Idaho","lat":42.56085,"lng":-114.46482,"zip":"83303","miles_from_dt":11.45},{"city":"Eden","state_name":"Idaho","lat":42.58675,"lng":-114.24282,"zip":"83325","miles_from_dt":13.59},{"city":"Dietrich","state_name":"Idaho","lat":42.87725,"lng":-114.2615,"zip":"83324","miles_from_dt":13.65},{"city":"Filer","state_name":"Idaho","lat":42.56962,"lng":-114.61665,"zip":"83328","miles_from_dt":14.24},{"city":"Wendell","state_name":"Idaho","lat":42.75515,"lng":-114.72676,"zip":"83355","miles_from_dt":15.1},{"city":"Gooding","state_name":"Idaho","lat":42.94207,"lng":-114.69291,"zip":"83330","miles_from_dt":19.98},{"city":"Hazelton","state_name":"Idaho","lat":42.58726,"lng":-114.07347,"zip":"83335","miles_from_dt":20.63},{"city":"Kimberly","state_name":"Idaho","lat":42.42875,"lng":-114.37052,"zip":"83341","miles_from_dt":20.69},{"city":"Hansen","state_name":"Idaho","lat":42.4243,"lng":-114.29126,"zip":"83334","miles_from_dt":21.98},{"city":"Shoshone","state_name":"Idaho","lat":43.05133,"lng":-114.40584,"zip":"83352","miles_from_dt":22.57},{"city":"Twin Falls","state_name":"Idaho","lat":42.39472,"lng":-114.52203,"zip":"83301","miles_from_dt":23.25},{"city":"Buhl","state_name":"Idaho","lat":42.60622,"lng":-114.88507,"zip":"83316","miles_from_dt":24.46},{"city":"Hagerman","state_name":"Idaho","lat":42.79758,"lng":-114.92962,"zip":"83332","miles_from_dt":25.76},{"city":"Murtaugh","state_name":"Idaho","lat":42.40437,"lng":-114.11768,"zip":"83344","miles_from_dt":27.35},{"city":"Paul","state_name":"Idaho","lat":42.73812,"lng":-113.87705,"zip":"83347","miles_from_dt":28.29},{"city":"Richfield","state_name":"Idaho","lat":43.10148,"lng":-114.17784,"zip":"83349","miles_from_dt":29.03}],"targetCityZipCode":"83338","targetCityState":"Idaho"},"__N_SSG":true}