{"pageProps":{"stateName":"Idaho","cityName":"juliaetta","nearbyCities":[{"city":"Genesee","state_name":"Idaho","lat":46.55223,"lng":-116.90666,"zip":"83832","miles_from_dt":8.65},{"city":"Lenore","state_name":"Idaho","lat":46.49297,"lng":-116.50156,"zip":"83541","miles_from_dt":11.19},{"city":"Kendrick","state_name":"Idaho","lat":46.62877,"lng":-116.52348,"zip":"83537","miles_from_dt":11.42},{"city":"Culdesac","state_name":"Idaho","lat":46.3586,"lng":-116.65439,"zip":"83524","miles_from_dt":12.99},{"city":"Lapwai","state_name":"Idaho","lat":46.34649,"lng":-116.78273,"zip":"83540","miles_from_dt":13.65},{"city":"Troy","state_name":"Idaho","lat":46.74589,"lng":-116.73865,"zip":"83871","miles_from_dt":14.23},{"city":"Moscow","state_name":"Idaho","lat":46.72257,"lng":-116.94132,"zip":"83843","miles_from_dt":16.24},{"city":"Peck","state_name":"Idaho","lat":46.42664,"lng":-116.4213,"zip":"83545","miles_from_dt":16.52},{"city":"Reubens","state_name":"Idaho","lat":46.34878,"lng":-116.50843,"zip":"83548","miles_from_dt":16.81},{"city":"Uniontown","state_name":"Washington","lat":46.49239,"lng":-117.10762,"zip":"99179","miles_from_dt":18.49},{"city":"Moscow","state_name":"Idaho","lat":46.72823,"lng":-117.01946,"zip":"83844","miles_from_dt":19.07},{"city":"Ahsahka","state_name":"Idaho","lat":46.53936,"lng":-116.32366,"zip":"83520","miles_from_dt":19.18},{"city":"Deary","state_name":"Idaho","lat":46.80554,"lng":-116.51934,"zip":"83823","miles_from_dt":20.8},{"city":"Colton","state_name":"Washington","lat":46.58628,"lng":-117.1935,"zip":"99113","miles_from_dt":22.5},{"city":"Lewiston","state_name":"Idaho","lat":46.2283,"lng":-116.90608,"zip":"83501","miles_from_dt":23.19},{"city":"Pullman","state_name":"Washington","lat":46.72889,"lng":-117.15574,"zip":"99164","miles_from_dt":24.25},{"city":"Princeton","state_name":"Idaho","lat":46.8895,"lng":-116.79776,"zip":"83857","miles_from_dt":24.37},{"city":"Craigmont","state_name":"Idaho","lat":46.22939,"lng":-116.47224,"zip":"83523","miles_from_dt":24.65},{"city":"Viola","state_name":"Idaho","lat":46.85772,"lng":-116.97251,"zip":"83872","miles_from_dt":24.87},{"city":"Pullman","state_name":"Washington","lat":46.72798,"lng":-117.21654,"zip":"99163","miles_from_dt":26.71},{"city":"Orofino","state_name":"Idaho","lat":46.49365,"lng":-116.1525,"zip":"83544","miles_from_dt":27.53},{"city":"Clarkston","state_name":"Washington","lat":46.38114,"lng":-117.25974,"zip":"99403","miles_from_dt":27.74},{"city":"Bovill","state_name":"Idaho","lat":46.88243,"lng":-116.37038,"zip":"83806","miles_from_dt":29.06},{"city":"Nezperce","state_name":"Idaho","lat":46.27358,"lng":-116.23815,"zip":"83543","miles_from_dt":29.7}],"targetCityZipCode":"83535","targetCityState":"Idaho"},"__N_SSG":true}