{"pageProps":{"stateName":"Idaho","cityName":"kuna","nearbyCities":[{"city":"Boise","state_name":"Idaho","lat":43.54601,"lng":-116.2866,"zip":"83719","miles_from_dt":7.14},{"city":"Boise","state_name":"Idaho","lat":43.54684,"lng":-116.2885,"zip":"83732","miles_from_dt":7.16},{"city":"Boise","state_name":"Idaho","lat":43.55212,"lng":-116.28847,"zip":"83709","miles_from_dt":7.51},{"city":"Meridian","state_name":"Idaho","lat":43.57334,"lng":-116.40116,"zip":"83642","miles_from_dt":9.29},{"city":"Boise","state_name":"Idaho","lat":43.55609,"lng":-116.22002,"zip":"83705","miles_from_dt":9.36},{"city":"Boise","state_name":"Idaho","lat":43.56098,"lng":-116.21825,"zip":"83715","miles_from_dt":9.68},{"city":"Meridian","state_name":"Idaho","lat":43.60773,"lng":-116.40073,"zip":"83680","miles_from_dt":11.53},{"city":"Boise","state_name":"Idaho","lat":43.62234,"lng":-116.32207,"zip":"83701","miles_from_dt":12.03},{"city":"Boise","state_name":"Idaho","lat":43.59108,"lng":-116.19427,"zip":"83706","miles_from_dt":12.07},{"city":"Boise","state_name":"Idaho","lat":43.60484,"lng":-116.20569,"zip":"83725","miles_from_dt":12.56},{"city":"Boise","state_name":"Idaho","lat":43.62765,"lng":-116.28716,"zip":"83704","miles_from_dt":12.6},{"city":"Boise","state_name":"Idaho","lat":43.61113,"lng":-116.21552,"zip":"83756","miles_from_dt":12.7},{"city":"Boise","state_name":"Idaho","lat":43.61084,"lng":-116.21318,"zip":"83708","miles_from_dt":12.73},{"city":"Boise","state_name":"Idaho","lat":43.61433,"lng":-116.21625,"zip":"83722","miles_from_dt":12.88},{"city":"Boise","state_name":"Idaho","lat":43.61015,"lng":-116.20385,"zip":"83717","miles_from_dt":12.92},{"city":"Boise","state_name":"Idaho","lat":43.60594,"lng":-116.1933,"zip":"83729","miles_from_dt":12.95},{"city":"Boise","state_name":"Idaho","lat":43.61074,"lng":-116.19941,"zip":"83735","miles_from_dt":13.07},{"city":"Boise","state_name":"Idaho","lat":43.63897,"lng":-116.33464,"zip":"83713","miles_from_dt":13.17},{"city":"Boise","state_name":"Idaho","lat":43.61391,"lng":-116.20092,"zip":"83799","miles_from_dt":13.22},{"city":"Boise","state_name":"Idaho","lat":43.61813,"lng":-116.20274,"zip":"83728","miles_from_dt":13.43},{"city":"Boise","state_name":"Idaho","lat":43.61771,"lng":-116.19973,"zip":"83720","miles_from_dt":13.48},{"city":"Boise","state_name":"Idaho","lat":43.61831,"lng":-116.19554,"zip":"83724","miles_from_dt":13.62},{"city":"Boise","state_name":"Idaho","lat":43.65323,"lng":-116.28112,"zip":"83711","miles_from_dt":14.39},{"city":"Nampa","state_name":"Idaho","lat":43.49643,"lng":-116.61207,"zip":"83686","miles_from_dt":14.43},{"city":"Meridian","state_name":"Idaho","lat":43.65,"lng":-116.43247,"zip":"83646","miles_from_dt":14.8},{"city":"Nampa","state_name":"Idaho","lat":43.60998,"lng":-116.52997,"zip":"83687","miles_from_dt":14.92},{"city":"Nampa","state_name":"Idaho","lat":43.63473,"lng":-116.49808,"zip":"83653","miles_from_dt":15.32},{"city":"Boise","state_name":"Idaho","lat":43.66189,"lng":-116.23906,"zip":"83703","miles_from_dt":15.48},{"city":"Boise","state_name":"Idaho","lat":43.61663,"lng":-116.11766,"zip":"83712","miles_from_dt":15.87},{"city":"Boise","state_name":"Idaho","lat":43.43556,"lng":-116.00429,"zip":"83726","miles_from_dt":16.55},{"city":"Melba","state_name":"Idaho","lat":43.35079,"lng":-116.6357,"zip":"83641","miles_from_dt":16.66},{"city":"Boise","state_name":"Idaho","lat":43.65938,"lng":-116.16662,"zip":"83707","miles_from_dt":16.8},{"city":"Boise","state_name":"Idaho","lat":43.66821,"lng":-116.16493,"zip":"83702","miles_from_dt":17.37},{"city":"Nampa","state_name":"Idaho","lat":43.58438,"lng":-116.62884,"zip":"83651","miles_from_dt":17.59},{"city":"Garden City","state_name":"Idaho","lat":43.72444,"lng":-116.27017,"zip":"83714","miles_from_dt":19.33},{"city":"Star","state_name":"Idaho","lat":43.71899,"lng":-116.50147,"zip":"83669","miles_from_dt":20.52},{"city":"Caldwell","state_name":"Idaho","lat":43.66442,"lng":-116.65171,"zip":"83605","miles_from_dt":21.89},{"city":"Eagle","state_name":"Idaho","lat":43.77667,"lng":-116.38977,"zip":"83616","miles_from_dt":22.85},{"city":"Nampa","state_name":"Idaho","lat":43.70733,"lng":-116.6213,"zip":"83652","miles_from_dt":23.01},{"city":"Middleton","state_name":"Idaho","lat":43.74823,"lng":-116.58455,"zip":"83644","miles_from_dt":24.26},{"city":"Huston","state_name":"Idaho","lat":43.59485,"lng":-116.78142,"zip":"83630","miles_from_dt":24.7},{"city":"Caldwell","state_name":"Idaho","lat":43.7116,"lng":-116.74362,"zip":"83607","miles_from_dt":27.49},{"city":"Caldwell","state_name":"Idaho","lat":43.71764,"lng":-116.74241,"zip":"83606","miles_from_dt":27.72},{"city":"Greenleaf","state_name":"Idaho","lat":43.66876,"lng":-116.82815,"zip":"83626","miles_from_dt":29.16}],"targetCityZipCode":"83634","targetCityState":"Idaho"},"__N_SSG":true}