{"pageProps":{"stateName":"Idaho","cityName":"pocatello","nearbyCities":[{"city":"Pocatello","state_name":"Idaho","lat":42.85782,"lng":-112.42619,"zip":"83209","miles_from_dt":3.09},{"city":"Pocatello","state_name":"Idaho","lat":42.86382,"lng":-112.45309,"zip":"83206","miles_from_dt":3.96},{"city":"Pocatello","state_name":"Idaho","lat":42.84349,"lng":-112.46617,"zip":"83205","miles_from_dt":5.27},{"city":"Pocatello","state_name":"Idaho","lat":42.97057,"lng":-112.34734,"zip":"83202","miles_from_dt":5.89},{"city":"Inkom","state_name":"Idaho","lat":42.82286,"lng":-112.21713,"zip":"83245","miles_from_dt":9.61},{"city":"Pocatello","state_name":"Idaho","lat":42.79219,"lng":-112.51877,"zip":"83204","miles_from_dt":9.62},{"city":"Fort Hall","state_name":"Idaho","lat":43.0252,"lng":-112.42813,"zip":"83203","miles_from_dt":9.64},{"city":"Mccammon","state_name":"Idaho","lat":42.67228,"lng":-112.20865,"zip":"83250","miles_from_dt":17.42},{"city":"Springfield","state_name":"Idaho","lat":43.07429,"lng":-112.68127,"zip":"83277","miles_from_dt":19.77},{"city":"Moreland","state_name":"Idaho","lat":43.22452,"lng":-112.44283,"zip":"83256","miles_from_dt":23.32},{"city":"Bancroft","state_name":"Idaho","lat":42.77525,"lng":-111.93559,"zip":"83217","miles_from_dt":24.07},{"city":"Arimo","state_name":"Idaho","lat":42.54495,"lng":-112.29362,"zip":"83214","miles_from_dt":24.22},{"city":"Aberdeen","state_name":"Idaho","lat":43.02069,"lng":-112.86048,"zip":"83210","miles_from_dt":25.84},{"city":"Lava Hot Springs","state_name":"Idaho","lat":42.60616,"lng":-112.03051,"zip":"83246","miles_from_dt":26.54},{"city":"Arbon","state_name":"Idaho","lat":42.50847,"lng":-112.54828,"zip":"83212","miles_from_dt":27.61},{"city":"Pingree","state_name":"Idaho","lat":43.18419,"lng":-112.7658,"zip":"83262","miles_from_dt":28.09},{"city":"Blackfoot","state_name":"Idaho","lat":43.30874,"lng":-112.53217,"zip":"83221","miles_from_dt":29.91}],"targetCityZipCode":"83201","targetCityState":"Idaho"},"__N_SSG":true}