{"pageProps":{"stateName":"Idaho","cityName":"soda-springs","nearbyCities":[{"city":"Georgetown","state_name":"Idaho","lat":42.53167,"lng":-111.36528,"zip":"83239","miles_from_dt":16.23},{"city":"Wayan","state_name":"Idaho","lat":43.061,"lng":-111.37199,"zip":"83285","miles_from_dt":21.14},{"city":"Auburn","state_name":"Wyoming","lat":42.819,"lng":-111.01143,"zip":"83111","miles_from_dt":22.4},{"city":"Grace","state_name":"Idaho","lat":42.51527,"lng":-111.76214,"zip":"83241","miles_from_dt":23.37},{"city":"Fairview","state_name":"Wyoming","lat":42.64394,"lng":-110.98828,"zip":"83119","miles_from_dt":24.56},{"city":"Bancroft","state_name":"Idaho","lat":42.77525,"lng":-111.93559,"zip":"83217","miles_from_dt":25},{"city":"Grover","state_name":"Wyoming","lat":42.82175,"lng":-110.95843,"zip":"83122","miles_from_dt":25.08},{"city":"Thayne","state_name":"Wyoming","lat":42.91815,"lng":-110.99756,"zip":"83127","miles_from_dt":25.21},{"city":"Freedom","state_name":"Wyoming","lat":43.06595,"lng":-111.13529,"zip":"83120","miles_from_dt":26.34},{"city":"Afton","state_name":"Wyoming","lat":42.72421,"lng":-110.90108,"zip":"83110","miles_from_dt":27.76},{"city":"Montpelier","state_name":"Idaho","lat":42.36403,"lng":-111.2655,"zip":"83254","miles_from_dt":28.78},{"city":"Bern","state_name":"Idaho","lat":42.34465,"lng":-111.38008,"zip":"83220","miles_from_dt":28.82},{"city":"Bedford","state_name":"Wyoming","lat":42.88191,"lng":-110.8833,"zip":"83112","miles_from_dt":29.74},{"city":"Smoot","state_name":"Wyoming","lat":42.58697,"lng":-110.90916,"zip":"83126","miles_from_dt":29.75},{"city":"Thatcher","state_name":"Idaho","lat":42.35709,"lng":-111.66445,"zip":"83283","miles_from_dt":29.95}],"targetCityZipCode":"83276","targetCityState":"Idaho"},"__N_SSG":true}