{"pageProps":{"stateName":"Oklahoma","cityName":"barnsdall","nearbyCities":[{"city":"Avant","state_name":"Oklahoma","lat":36.48857,"lng":-96.0625,"zip":"74001","miles_from_dt":6.81},{"city":"Ochelata","state_name":"Oklahoma","lat":36.61412,"lng":-95.96532,"zip":"74051","miles_from_dt":10.65},{"city":"Wynona","state_name":"Oklahoma","lat":36.52849,"lng":-96.33325,"zip":"74084","miles_from_dt":10.7},{"city":"Bartlesville","state_name":"Oklahoma","lat":36.73107,"lng":-96.06675,"zip":"74003","miles_from_dt":12.49},{"city":"Skiatook","state_name":"Oklahoma","lat":36.3881,"lng":-96.07253,"zip":"74070","miles_from_dt":12.61},{"city":"Ramona","state_name":"Oklahoma","lat":36.53814,"lng":-95.89974,"zip":"74061","miles_from_dt":13.75},{"city":"Bartlesville","state_name":"Oklahoma","lat":36.7485,"lng":-95.9807,"zip":"74005","miles_from_dt":15.82},{"city":"Bartlesville","state_name":"Oklahoma","lat":36.73976,"lng":-95.94863,"zip":"74004","miles_from_dt":16.46},{"city":"Vera","state_name":"Oklahoma","lat":36.44889,"lng":-95.88091,"zip":"74082","miles_from_dt":16.63},{"city":"Hominy","state_name":"Oklahoma","lat":36.40368,"lng":-96.37607,"zip":"74035","miles_from_dt":16.83},{"city":"Bartlesville","state_name":"Oklahoma","lat":36.71507,"lng":-95.89391,"zip":"74006","miles_from_dt":17.54},{"city":"Pawhuska","state_name":"Oklahoma","lat":36.79706,"lng":-96.33873,"zip":"74056","miles_from_dt":19.49},{"city":"Sperry","state_name":"Oklahoma","lat":36.29818,"lng":-96.01326,"zip":"74073","miles_from_dt":19.58},{"city":"Collinsville","state_name":"Oklahoma","lat":36.37915,"lng":-95.84758,"zip":"74021","miles_from_dt":20.8},{"city":"Osage","state_name":"Oklahoma","lat":36.27299,"lng":-96.32962,"zip":"74054","miles_from_dt":22.38},{"city":"Prue","state_name":"Oklahoma","lat":36.2472,"lng":-96.25434,"zip":"74060","miles_from_dt":22.49},{"city":"Talala","state_name":"Oklahoma","lat":36.52849,"lng":-95.74192,"zip":"74080","miles_from_dt":22.56},{"city":"Tulsa","state_name":"Oklahoma","lat":36.2461,"lng":-95.99701,"zip":"74156","miles_from_dt":23.25},{"city":"Tulsa","state_name":"Oklahoma","lat":36.23502,"lng":-96.0331,"zip":"74126","miles_from_dt":23.35},{"city":"Dewey","state_name":"Oklahoma","lat":36.82558,"lng":-95.88172,"zip":"74029","miles_from_dt":23.37},{"city":"Tulsa","state_name":"Oklahoma","lat":36.24172,"lng":-95.95536,"zip":"74130","miles_from_dt":24.45},{"city":"Oologah","state_name":"Oklahoma","lat":36.43419,"lng":-95.73282,"zip":"74053","miles_from_dt":24.58},{"city":"Tulsa","state_name":"Oklahoma","lat":36.24146,"lng":-95.89854,"zip":"74117","miles_from_dt":25.99},{"city":"Cleveland","state_name":"Oklahoma","lat":36.24562,"lng":-96.41934,"zip":"74020","miles_from_dt":26.59},{"city":"Owasso","state_name":"Oklahoma","lat":36.27735,"lng":-95.81998,"zip":"74055","miles_from_dt":26.68},{"city":"Tulsa","state_name":"Oklahoma","lat":36.19011,"lng":-96.0049,"zip":"74148","miles_from_dt":26.76},{"city":"Tulsa","state_name":"Oklahoma","lat":36.19191,"lng":-95.98416,"zip":"74106","miles_from_dt":27.01},{"city":"Copan","state_name":"Oklahoma","lat":36.93055,"lng":-95.98054,"zip":"74022","miles_from_dt":27.05},{"city":"Tulsa","state_name":"Oklahoma","lat":36.17462,"lng":-96.04511,"zip":"74127","miles_from_dt":27.24},{"city":"Tulsa","state_name":"Oklahoma","lat":36.18856,"lng":-95.95377,"zip":"74110","miles_from_dt":27.83},{"city":"Tulsa","state_name":"Oklahoma","lat":36.24411,"lng":-95.82807,"zip":"74102","miles_from_dt":28.12},{"city":"Sand Springs","state_name":"Oklahoma","lat":36.15201,"lng":-96.19206,"zip":"74063","miles_from_dt":28.34},{"city":"Tulsa","state_name":"Oklahoma","lat":36.15894,"lng":-96.03279,"zip":"74149","miles_from_dt":28.44},{"city":"Tulsa","state_name":"Oklahoma","lat":36.1923,"lng":-95.90903,"zip":"74115","miles_from_dt":28.65},{"city":"Nowata","state_name":"Oklahoma","lat":36.69265,"lng":-95.65192,"zip":"74048","miles_from_dt":28.88},{"city":"Tulsa","state_name":"Oklahoma","lat":36.15617,"lng":-95.9957,"zip":"74103","miles_from_dt":29.15},{"city":"Tulsa","state_name":"Oklahoma","lat":36.1541,"lng":-95.9949,"zip":"74182","miles_from_dt":29.3},{"city":"Tulsa","state_name":"Oklahoma","lat":36.15359,"lng":-95.99561,"zip":"74192","miles_from_dt":29.33},{"city":"Tulsa","state_name":"Oklahoma","lat":36.15216,"lng":-95.995,"zip":"74186","miles_from_dt":29.43},{"city":"Tulsa","state_name":"Oklahoma","lat":36.16085,"lng":-95.95618,"zip":"74150","miles_from_dt":29.56},{"city":"Tulsa","state_name":"Oklahoma","lat":36.14792,"lng":-95.99433,"zip":"74187","miles_from_dt":29.72},{"city":"Tulsa","state_name":"Oklahoma","lat":36.1504,"lng":-95.97689,"zip":"74120","miles_from_dt":29.85},{"city":"Tulsa","state_name":"Oklahoma","lat":36.14869,"lng":-95.98033,"zip":"74121","miles_from_dt":29.9},{"city":"Fairfax","state_name":"Oklahoma","lat":36.59083,"lng":-96.68172,"zip":"74637","miles_from_dt":29.9},{"city":"Tulsa","state_name":"Oklahoma","lat":36.15046,"lng":-95.97272,"zip":"74172","miles_from_dt":29.92},{"city":"Tulsa","state_name":"Oklahoma","lat":36.16781,"lng":-95.91838,"zip":"74158","miles_from_dt":29.94}],"targetCityZipCode":"74002","targetCityState":"Oklahoma"},"__N_SSG":true}