{"pageProps":{"stateName":"Oklahoma","cityName":"broken-bow","nearbyCities":[{"city":"Golden","state_name":"Oklahoma","lat":34.0311,"lng":-94.8995,"zip":"74737","miles_from_dt":9.64},{"city":"Wright City","state_name":"Oklahoma","lat":34.08597,"lng":-94.97271,"zip":"74766","miles_from_dt":9.96},{"city":"Bethel","state_name":"Oklahoma","lat":34.33926,"lng":-94.85833,"zip":"74724","miles_from_dt":12.95},{"city":"Valliant","state_name":"Oklahoma","lat":34.09405,"lng":-95.05512,"zip":"74764","miles_from_dt":14.12},{"city":"Millerton","state_name":"Oklahoma","lat":33.98514,"lng":-95.01175,"zip":"74750","miles_from_dt":16.03},{"city":"Eagletown","state_name":"Oklahoma","lat":34.0888,"lng":-94.54786,"zip":"74734","miles_from_dt":16.21},{"city":"Battiest","state_name":"Oklahoma","lat":34.38938,"lng":-94.91671,"zip":"74722","miles_from_dt":17.14},{"city":"Ringold","state_name":"Oklahoma","lat":34.19367,"lng":-95.12231,"zip":"74754","miles_from_dt":17.56},{"city":"Garvin","state_name":"Oklahoma","lat":33.92436,"lng":-94.98772,"zip":"74736","miles_from_dt":18.54},{"city":"Rufe","state_name":"Oklahoma","lat":34.11799,"lng":-95.14196,"zip":"74755","miles_from_dt":18.64},{"city":"Pickens","state_name":"Oklahoma","lat":34.39499,"lng":-95.01219,"zip":"74752","miles_from_dt":19.93},{"city":"Idabel","state_name":"Oklahoma","lat":33.86017,"lng":-94.81319,"zip":"74745","miles_from_dt":20.26},{"city":"Watson","state_name":"Oklahoma","lat":34.41424,"lng":-94.56322,"zip":"74963","miles_from_dt":23.17},{"city":"Swink","state_name":"Oklahoma","lat":34.00938,"lng":-95.20134,"zip":"74761","miles_from_dt":24.06},{"city":"Fort Towson","state_name":"Oklahoma","lat":34.10142,"lng":-95.25595,"zip":"74735","miles_from_dt":25.27},{"city":"Gillham","state_name":"Arkansas","lat":34.1639,"lng":-94.34718,"zip":"71841","miles_from_dt":27.08},{"city":"Smithville","state_name":"Oklahoma","lat":34.52522,"lng":-94.65558,"zip":"74957","miles_from_dt":27.24},{"city":"Haworth","state_name":"Oklahoma","lat":33.7938,"lng":-94.59614,"zip":"74740","miles_from_dt":27.95},{"city":"De Queen","state_name":"Arkansas","lat":34.0397,"lng":-94.34791,"zip":"71832","miles_from_dt":28.17},{"city":"Grannis","state_name":"Arkansas","lat":34.23922,"lng":-94.32517,"zip":"71944","miles_from_dt":28.92},{"city":"Rattan","state_name":"Oklahoma","lat":34.29683,"lng":-95.29637,"zip":"74562","miles_from_dt":29.02},{"city":"Honobia","state_name":"Oklahoma","lat":34.57483,"lng":-94.90993,"zip":"74549","miles_from_dt":29.46}],"targetCityZipCode":"74728","targetCityState":"Oklahoma"},"__N_SSG":true}