{"pageProps":{"stateName":"Oklahoma","cityName":"fairfax","nearbyCities":[{"city":"Ralston","state_name":"Oklahoma","lat":36.47993,"lng":-96.72282,"zip":"74650","miles_from_dt":7.98},{"city":"Burbank","state_name":"Oklahoma","lat":36.70478,"lng":-96.79216,"zip":"74633","miles_from_dt":9.97},{"city":"Pawnee","state_name":"Oklahoma","lat":36.35499,"lng":-96.75909,"zip":"74058","miles_from_dt":16.82},{"city":"Ponca City","state_name":"Oklahoma","lat":36.69672,"lng":-96.98132,"zip":"74604","miles_from_dt":18.18},{"city":"Shidler","state_name":"Oklahoma","lat":36.85639,"lng":-96.65438,"zip":"74652","miles_from_dt":18.37},{"city":"Kaw City","state_name":"Oklahoma","lat":36.8181,"lng":-96.85709,"zip":"74641","miles_from_dt":18.45},{"city":"Wynona","state_name":"Oklahoma","lat":36.52849,"lng":-96.33325,"zip":"74084","miles_from_dt":19.86},{"city":"Hominy","state_name":"Oklahoma","lat":36.40368,"lng":-96.37607,"zip":"74035","miles_from_dt":21.36},{"city":"Marland","state_name":"Oklahoma","lat":36.55713,"lng":-97.09768,"zip":"74644","miles_from_dt":23.25},{"city":"Pawhuska","state_name":"Oklahoma","lat":36.79706,"lng":-96.33873,"zip":"74056","miles_from_dt":23.77},{"city":"Ponca City","state_name":"Oklahoma","lat":36.72046,"lng":-97.08019,"zip":"74602","miles_from_dt":23.87},{"city":"Morrison","state_name":"Oklahoma","lat":36.34904,"lng":-97.01765,"zip":"73061","miles_from_dt":25.06},{"city":"Maramec","state_name":"Oklahoma","lat":36.22153,"lng":-96.70049,"zip":"74045","miles_from_dt":25.49},{"city":"Hallett","state_name":"Oklahoma","lat":36.23266,"lng":-96.56288,"zip":"74034","miles_from_dt":25.57},{"city":"Ponca City","state_name":"Oklahoma","lat":36.70436,"lng":-97.14604,"zip":"74601","miles_from_dt":26.96},{"city":"Cleveland","state_name":"Oklahoma","lat":36.24562,"lng":-96.41934,"zip":"74020","miles_from_dt":27.94},{"city":"Red Rock","state_name":"Oklahoma","lat":36.46985,"lng":-97.17197,"zip":"74651","miles_from_dt":28.53},{"city":"Newkirk","state_name":"Oklahoma","lat":36.91601,"lng":-97.00272,"zip":"74647","miles_from_dt":28.64},{"city":"Glencoe","state_name":"Oklahoma","lat":36.2115,"lng":-96.90402,"zip":"74032","miles_from_dt":28.94},{"city":"Osage","state_name":"Oklahoma","lat":36.27299,"lng":-96.32962,"zip":"74054","miles_from_dt":29.41},{"city":"Barnsdall","state_name":"Oklahoma","lat":36.5613,"lng":-96.14528,"zip":"74002","miles_from_dt":29.9}],"targetCityZipCode":"74637","targetCityState":"Oklahoma"},"__N_SSG":true}