{"pageProps":{"stateName":"Oklahoma","cityName":"lamar","nearbyCities":[{"city":"Dustin","state_name":"Oklahoma","lat":35.2413,"lng":-96.04642,"zip":"74839","miles_from_dt":9.28},{"city":"Wetumka","state_name":"Oklahoma","lat":35.22766,"lng":-96.24346,"zip":"74883","miles_from_dt":11.79},{"city":"Holdenville","state_name":"Oklahoma","lat":35.08197,"lng":-96.34804,"zip":"74848","miles_from_dt":14.74},{"city":"Hanna","state_name":"Oklahoma","lat":35.25856,"lng":-95.88302,"zip":"74845","miles_from_dt":15.5},{"city":"Indianola","state_name":"Oklahoma","lat":35.12983,"lng":-95.8151,"zip":"74442","miles_from_dt":15.65},{"city":"Stuart","state_name":"Oklahoma","lat":34.86574,"lng":-96.10432,"zip":"74570","miles_from_dt":16.97},{"city":"Calvin","state_name":"Oklahoma","lat":34.8777,"lng":-96.24035,"zip":"74531","miles_from_dt":18.23},{"city":"Atwood","state_name":"Oklahoma","lat":34.94101,"lng":-96.34208,"zip":"74827","miles_from_dt":18.49},{"city":"Weleetka","state_name":"Oklahoma","lat":35.38039,"lng":-96.1212,"zip":"74880","miles_from_dt":18.61},{"city":"Mcalester","state_name":"Oklahoma","lat":34.98501,"lng":-95.78597,"zip":"74501","miles_from_dt":19.34},{"city":"Mcalester","state_name":"Oklahoma","lat":34.93022,"lng":-95.76661,"zip":"74502","miles_from_dt":22.22},{"city":"Krebs","state_name":"Oklahoma","lat":34.92552,"lng":-95.7203,"zip":"74554","miles_from_dt":24.6},{"city":"Henryetta","state_name":"Oklahoma","lat":35.44825,"lng":-95.94417,"zip":"74437","miles_from_dt":24.63},{"city":"Savanna","state_name":"Oklahoma","lat":34.82222,"lng":-95.83301,"zip":"74565","miles_from_dt":24.73},{"city":"Wewoka","state_name":"Oklahoma","lat":35.18635,"lng":-96.51882,"zip":"74884","miles_from_dt":24.79},{"city":"Crowder","state_name":"Oklahoma","lat":35.13175,"lng":-95.64826,"zip":"74430","miles_from_dt":25.08},{"city":"Dewar","state_name":"Oklahoma","lat":35.45743,"lng":-95.93934,"zip":"74431","miles_from_dt":25.32},{"city":"Cromwell","state_name":"Oklahoma","lat":35.34321,"lng":-96.4561,"zip":"74837","miles_from_dt":26.13},{"city":"Canadian","state_name":"Oklahoma","lat":35.17184,"lng":-95.62299,"zip":"74425","miles_from_dt":26.79},{"city":"Okemah","state_name":"Oklahoma","lat":35.46237,"lng":-96.31792,"zip":"74859","miles_from_dt":27.38},{"city":"Allen","state_name":"Oklahoma","lat":34.80591,"lng":-96.4028,"zip":"74825","miles_from_dt":27.54},{"city":"Eufaula","state_name":"Oklahoma","lat":35.28371,"lng":-95.64911,"zip":"74432","miles_from_dt":27.65},{"city":"Sasakwa","state_name":"Oklahoma","lat":34.96335,"lng":-96.54663,"zip":"74867","miles_from_dt":27.81},{"city":"Schulter","state_name":"Oklahoma","lat":35.50473,"lng":-95.96452,"zip":"74460","miles_from_dt":28.01},{"city":"Alderson","state_name":"Oklahoma","lat":34.88253,"lng":-95.6767,"zip":"74522","miles_from_dt":28.29},{"city":"Stidham","state_name":"Oklahoma","lat":35.38673,"lng":-95.70851,"zip":"74461","miles_from_dt":28.74},{"city":"Kiowa","state_name":"Oklahoma","lat":34.70808,"lng":-95.91859,"zip":"74553","miles_from_dt":29.48},{"city":"Blocker","state_name":"Oklahoma","lat":35.06501,"lng":-95.56909,"zip":"74529","miles_from_dt":29.72}],"targetCityZipCode":"74850","targetCityState":"Oklahoma"},"__N_SSG":true}