{"pageProps":{"stateName":"Oklahoma","cityName":"mountain-view","nearbyCities":[{"city":"Gotebo","state_name":"Oklahoma","lat":35.03594,"lng":-98.88064,"zip":"73041","miles_from_dt":8.28},{"city":"Carnegie","state_name":"Oklahoma","lat":35.07648,"lng":-98.59016,"zip":"73015","miles_from_dt":8.82},{"city":"Fort Cobb","state_name":"Oklahoma","lat":35.1214,"lng":-98.44306,"zip":"73038","miles_from_dt":17.71},{"city":"Rocky","state_name":"Oklahoma","lat":35.17033,"lng":-99.0176,"zip":"73661","miles_from_dt":18.74},{"city":"Hobart","state_name":"Oklahoma","lat":35.02479,"lng":-99.06957,"zip":"73651","miles_from_dt":18.99},{"city":"Meers","state_name":"Oklahoma","lat":34.78294,"lng":-98.57782,"zip":"73558","miles_from_dt":19.18},{"city":"Cordell","state_name":"Oklahoma","lat":35.27036,"lng":-98.90853,"zip":"73632","miles_from_dt":19.31},{"city":"Roosevelt","state_name":"Oklahoma","lat":34.84444,"lng":-99.00729,"zip":"73564","miles_from_dt":20.04},{"city":"Apache","state_name":"Oklahoma","lat":34.90587,"lng":-98.40583,"zip":"73006","miles_from_dt":20.51},{"city":"Colony","state_name":"Oklahoma","lat":35.33802,"lng":-98.67007,"zip":"73021","miles_from_dt":21.6},{"city":"Eakly","state_name":"Oklahoma","lat":35.30709,"lng":-98.55502,"zip":"73033","miles_from_dt":21.69},{"city":"Albert","state_name":"Oklahoma","lat":35.2262,"lng":-98.41654,"zip":"73001","miles_from_dt":22.56},{"city":"Lawton","state_name":"Oklahoma","lat":34.74802,"lng":-98.50201,"zip":"73507","miles_from_dt":23.47},{"city":"Mountain Park","state_name":"Oklahoma","lat":34.73473,"lng":-98.94317,"zip":"73559","miles_from_dt":23.5},{"city":"Corn","state_name":"Oklahoma","lat":35.36608,"lng":-98.81508,"zip":"73024","miles_from_dt":23.66},{"city":"Medicine Park","state_name":"Oklahoma","lat":34.73072,"lng":-98.50022,"zip":"73557","miles_from_dt":24.52},{"city":"Binger","state_name":"Oklahoma","lat":35.28544,"lng":-98.37016,"zip":"73009","miles_from_dt":27.17},{"city":"Indiahoma","state_name":"Oklahoma","lat":34.62709,"lng":-98.75631,"zip":"73552","miles_from_dt":27.75},{"city":"Fort Sill","state_name":"Oklahoma","lat":34.67348,"lng":-98.49649,"zip":"73503","miles_from_dt":28.02},{"city":"Anadarko","state_name":"Oklahoma","lat":35.05439,"lng":-98.23762,"zip":"73005","miles_from_dt":28.24},{"city":"Lookeba","state_name":"Oklahoma","lat":35.36248,"lng":-98.41841,"zip":"73053","miles_from_dt":29.12},{"city":"Bessie","state_name":"Oklahoma","lat":35.39518,"lng":-98.99791,"zip":"73622","miles_from_dt":29.29},{"city":"Lone Wolf","state_name":"Oklahoma","lat":34.98189,"lng":-99.25267,"zip":"73655","miles_from_dt":29.56}],"targetCityZipCode":"73062","targetCityState":"Oklahoma"},"__N_SSG":true}