{"pageProps":{"stateName":"Oklahoma","cityName":"newalla","nearbyCities":[{"city":"Oklahoma City","state_name":"Oklahoma","lat":35.40059,"lng":-97.33214,"zip":"73150","miles_from_dt":8.72},{"city":"Choctaw","state_name":"Oklahoma","lat":35.45588,"lng":-97.2619,"zip":"73020","miles_from_dt":8.74},{"city":"Norman","state_name":"Oklahoma","lat":35.23433,"lng":-97.2791,"zip":"73026","miles_from_dt":8.75},{"city":"Mcloud","state_name":"Oklahoma","lat":35.42653,"lng":-97.08072,"zip":"74851","miles_from_dt":8.76},{"city":"Oklahoma City","state_name":"Oklahoma","lat":35.34181,"lng":-97.36138,"zip":"73165","miles_from_dt":9.36},{"city":"Oklahoma City","state_name":"Oklahoma","lat":35.45879,"lng":-97.34586,"zip":"73130","miles_from_dt":11.72},{"city":"Harrah","state_name":"Oklahoma","lat":35.51201,"lng":-97.1414,"zip":"73045","miles_from_dt":12.16},{"city":"Shawnee","state_name":"Oklahoma","lat":35.31749,"lng":-96.96824,"zip":"74801","miles_from_dt":12.96},{"city":"Nicoma Park","state_name":"Oklahoma","lat":35.50167,"lng":-97.32832,"zip":"73066","miles_from_dt":13.35},{"city":"Oklahoma City","state_name":"Oklahoma","lat":35.44808,"lng":-97.3945,"zip":"73110","miles_from_dt":13.42},{"city":"Oklahoma City","state_name":"Oklahoma","lat":35.46405,"lng":-97.3836,"zip":"73140","miles_from_dt":13.56},{"city":"Oklahoma City","state_name":"Oklahoma","lat":35.42427,"lng":-97.41403,"zip":"73145","miles_from_dt":13.59},{"city":"Oklahoma City","state_name":"Oklahoma","lat":35.39644,"lng":-97.42692,"zip":"73135","miles_from_dt":13.6},{"city":"Oklahoma City","state_name":"Oklahoma","lat":35.46052,"lng":-97.39884,"zip":"73196","miles_from_dt":14.1},{"city":"Norman","state_name":"Oklahoma","lat":35.23728,"lng":-97.4131,"zip":"73071","miles_from_dt":14.23},{"city":"Oklahoma City","state_name":"Oklahoma","lat":35.41856,"lng":-97.43522,"zip":"73155","miles_from_dt":14.53},{"city":"Tecumseh","state_name":"Oklahoma","lat":35.22396,"lng":-96.97975,"zip":"74873","miles_from_dt":14.65},{"city":"Noble","state_name":"Oklahoma","lat":35.1384,"lng":-97.28264,"zip":"73068","miles_from_dt":14.83},{"city":"Norman","state_name":"Oklahoma","lat":35.22763,"lng":-97.42729,"zip":"73070","miles_from_dt":15.25},{"city":"Spencer","state_name":"Oklahoma","lat":35.52567,"lng":-97.34645,"zip":"73084","miles_from_dt":15.29},{"city":"Shawnee","state_name":"Oklahoma","lat":35.32536,"lng":-96.92224,"zip":"74802","miles_from_dt":15.49},{"city":"Oklahoma City","state_name":"Oklahoma","lat":35.44232,"lng":-97.44153,"zip":"73115","miles_from_dt":15.52},{"city":"Shawnee","state_name":"Oklahoma","lat":35.39358,"lng":-96.92399,"zip":"74804","miles_from_dt":15.76},{"city":"Oklahoma City","state_name":"Oklahoma","lat":35.33574,"lng":-97.47651,"zip":"73160","miles_from_dt":15.86},{"city":"Norman","state_name":"Oklahoma","lat":35.25028,"lng":-97.4633,"zip":"73069","miles_from_dt":16.37},{"city":"Oklahoma City","state_name":"Oklahoma","lat":35.51702,"lng":-97.39876,"zip":"73141","miles_from_dt":16.67},{"city":"Norman","state_name":"Oklahoma","lat":35.20681,"lng":-97.44213,"zip":"73019","miles_from_dt":16.73},{"city":"Oklahoma City","state_name":"Oklahoma","lat":35.33501,"lng":-97.49275,"zip":"73153","miles_from_dt":16.78},{"city":"Oklahoma City","state_name":"Oklahoma","lat":35.3892,"lng":-97.48908,"zip":"73149","miles_from_dt":16.89},{"city":"Oklahoma City","state_name":"Oklahoma","lat":35.43165,"lng":-97.48433,"zip":"73129","miles_from_dt":17.44},{"city":"Oklahoma City","state_name":"Oklahoma","lat":35.47474,"lng":-97.45961,"zip":"73117","miles_from_dt":17.5},{"city":"Jones","state_name":"Oklahoma","lat":35.58617,"lng":-97.29695,"zip":"73049","miles_from_dt":17.82},{"city":"Macomb","state_name":"Oklahoma","lat":35.12844,"lng":-97.01301,"zip":"74852","miles_from_dt":17.95},{"city":"Oklahoma City","state_name":"Oklahoma","lat":35.45718,"lng":-97.49078,"zip":"73126","miles_from_dt":18.47},{"city":"Oklahoma City","state_name":"Oklahoma","lat":35.52181,"lng":-97.44236,"zip":"73121","miles_from_dt":18.67},{"city":"Oklahoma City","state_name":"Oklahoma","lat":35.38457,"lng":-97.52572,"zip":"73139","miles_from_dt":18.87},{"city":"Oklahoma City","state_name":"Oklahoma","lat":35.43279,"lng":-97.52452,"zip":"73109","miles_from_dt":19.6},{"city":"Oklahoma City","state_name":"Oklahoma","lat":35.43192,"lng":-97.52531,"zip":"73124","miles_from_dt":19.63},{"city":"Norman","state_name":"Oklahoma","lat":35.21106,"lng":-97.50518,"zip":"73072","miles_from_dt":19.66},{"city":"Oklahoma City","state_name":"Oklahoma","lat":35.47508,"lng":-97.5038,"zip":"73104","miles_from_dt":19.68},{"city":"Oklahoma City","state_name":"Oklahoma","lat":35.56783,"lng":-97.41049,"zip":"73151","miles_from_dt":19.76},{"city":"Oklahoma City","state_name":"Oklahoma","lat":35.43507,"lng":-97.5267,"zip":"73143","miles_from_dt":19.77},{"city":"Oklahoma City","state_name":"Oklahoma","lat":35.45846,"lng":-97.51659,"zip":"73190","miles_from_dt":19.83},{"city":"Oklahoma City","state_name":"Oklahoma","lat":35.51889,"lng":-97.47722,"zip":"73111","miles_from_dt":20.05},{"city":"Oklahoma City","state_name":"Oklahoma","lat":35.32743,"lng":-97.55068,"zip":"73170","miles_from_dt":20.07},{"city":"Oklahoma City","state_name":"Oklahoma","lat":35.46095,"lng":-97.52064,"zip":"73167","miles_from_dt":20.11},{"city":"Oklahoma City","state_name":"Oklahoma","lat":35.47065,"lng":-97.5191,"zip":"73102","miles_from_dt":20.31},{"city":"Oklahoma City","state_name":"Oklahoma","lat":35.45622,"lng":-97.52869,"zip":"73125","miles_from_dt":20.39},{"city":"Oklahoma City","state_name":"Oklahoma","lat":35.472,"lng":-97.52035,"zip":"73164","miles_from_dt":20.42},{"city":"Oklahoma City","state_name":"Oklahoma","lat":35.472,"lng":-97.52035,"zip":"73163","miles_from_dt":20.42},{"city":"Meeker","state_name":"Oklahoma","lat":35.51911,"lng":-96.90376,"zip":"74855","miles_from_dt":20.54},{"city":"Oklahoma City","state_name":"Oklahoma","lat":35.48906,"lng":-97.51897,"zip":"73103","miles_from_dt":20.89},{"city":"Oklahoma City","state_name":"Oklahoma","lat":35.41117,"lng":-97.55698,"zip":"73144","miles_from_dt":20.96},{"city":"Oklahoma City","state_name":"Oklahoma","lat":35.51741,"lng":-97.5038,"zip":"73194","miles_from_dt":21.2},{"city":"Oklahoma City","state_name":"Oklahoma","lat":35.51919,"lng":-97.50331,"zip":"73105","miles_from_dt":21.25},{"city":"Oklahoma City","state_name":"Oklahoma","lat":35.51868,"lng":-97.50508,"zip":"73152","miles_from_dt":21.31},{"city":"Oklahoma City","state_name":"Oklahoma","lat":35.45294,"lng":-97.55196,"zip":"73148","miles_from_dt":21.53},{"city":"Lexington","state_name":"Oklahoma","lat":35.03175,"lng":-97.24629,"zip":"73051","miles_from_dt":21.53},{"city":"Oklahoma City","state_name":"Oklahoma","lat":35.4823,"lng":-97.53662,"zip":"73106","miles_from_dt":21.55},{"city":"Oklahoma City","state_name":"Oklahoma","lat":35.49427,"lng":-97.53068,"zip":"73146","miles_from_dt":21.64},{"city":"Oklahoma City","state_name":"Oklahoma","lat":35.41942,"lng":-97.56945,"zip":"73172","miles_from_dt":21.77},{"city":"Oklahoma City","state_name":"Oklahoma","lat":35.4215,"lng":-97.56896,"zip":"73119","miles_from_dt":21.78},{"city":"Oklahoma City","state_name":"Oklahoma","lat":35.42329,"lng":-97.56961,"zip":"73157","miles_from_dt":21.85},{"city":"Oklahoma City","state_name":"Oklahoma","lat":35.38563,"lng":-97.5794,"zip":"73159","miles_from_dt":21.88},{"city":"Oklahoma City","state_name":"Oklahoma","lat":35.39581,"lng":-97.57875,"zip":"73189","miles_from_dt":21.95},{"city":"Oklahoma City","state_name":"Oklahoma","lat":35.57653,"lng":-97.46465,"zip":"73131","miles_from_dt":22.2},{"city":"Oklahoma City","state_name":"Oklahoma","lat":35.45034,"lng":-97.56774,"zip":"73108","miles_from_dt":22.3},{"city":"Oklahoma City","state_name":"Oklahoma","lat":35.51788,"lng":-97.53007,"zip":"73118","miles_from_dt":22.45},{"city":"Oklahoma City","state_name":"Oklahoma","lat":35.52199,"lng":-97.52756,"zip":"73154","miles_from_dt":22.49},{"city":"Oklahoma City","state_name":"Oklahoma","lat":35.5897,"lng":-97.45624,"zip":"73136","miles_from_dt":22.56},{"city":"Oklahoma City","state_name":"Oklahoma","lat":35.49044,"lng":-97.56015,"zip":"73101","miles_from_dt":22.99},{"city":"Luther","state_name":"Oklahoma","lat":35.67508,"lng":-97.19487,"zip":"73054","miles_from_dt":23.01},{"city":"Oklahoma City","state_name":"Oklahoma","lat":35.40197,"lng":-97.59695,"zip":"73195","miles_from_dt":23.04},{"city":"Oklahoma City","state_name":"Oklahoma","lat":35.56408,"lng":-97.50149,"zip":"73113","miles_from_dt":23.09},{"city":"Oklahoma City","state_name":"Oklahoma","lat":35.48201,"lng":-97.5744,"zip":"73107","miles_from_dt":23.47},{"city":"Washington","state_name":"Oklahoma","lat":35.10321,"lng":-97.4966,"zip":"73093","miles_from_dt":23.64},{"city":"Oklahoma City","state_name":"Oklahoma","lat":35.48357,"lng":-97.58201,"zip":"73147","miles_from_dt":23.9},{"city":"Wanette","state_name":"Oklahoma","lat":35.00768,"lng":-97.06999,"zip":"74878","miles_from_dt":24.08},{"city":"Oklahoma City","state_name":"Oklahoma","lat":35.34033,"lng":-97.62463,"zip":"73173","miles_from_dt":24.23},{"city":"Newcastle","state_name":"Oklahoma","lat":35.25008,"lng":-97.61209,"zip":"73065","miles_from_dt":24.36},{"city":"Earlsboro","state_name":"Oklahoma","lat":35.30488,"lng":-96.7665,"zip":"74840","miles_from_dt":24.38},{"city":"Oklahoma City","state_name":"Oklahoma","lat":35.57916,"lng":-97.51784,"zip":"73114","miles_from_dt":24.47},{"city":"Oklahoma City","state_name":"Oklahoma","lat":35.51823,"lng":-97.5745,"zip":"73112","miles_from_dt":24.61},{"city":"Oklahoma City","state_name":"Oklahoma","lat":35.53549,"lng":-97.56757,"zip":"73178","miles_from_dt":24.88},{"city":"Arcadia","state_name":"Oklahoma","lat":35.69001,"lng":-97.32009,"zip":"73007","miles_from_dt":25.04},{"city":"Oklahoma City","state_name":"Oklahoma","lat":35.54684,"lng":-97.56519,"zip":"73116","miles_from_dt":25.2},{"city":"Oklahoma City","state_name":"Oklahoma","lat":35.56699,"lng":-97.5504,"zip":"73156","miles_from_dt":25.34},{"city":"Oklahoma City","state_name":"Oklahoma","lat":35.3815,"lng":-97.64538,"zip":"73169","miles_from_dt":25.54},{"city":"Wheatland","state_name":"Oklahoma","lat":35.39893,"lng":-97.64501,"zip":"73097","miles_from_dt":25.68},{"city":"Edmond","state_name":"Oklahoma","lat":35.62149,"lng":-97.49614,"zip":"73013","miles_from_dt":25.69},{"city":"Oklahoma City","state_name":"Oklahoma","lat":35.4231,"lng":-97.64521,"zip":"73179","miles_from_dt":25.99},{"city":"Oklahoma City","state_name":"Oklahoma","lat":35.44899,"lng":-97.64595,"zip":"73128","miles_from_dt":26.47},{"city":"Oklahoma City","state_name":"Oklahoma","lat":35.48101,"lng":-97.63361,"zip":"73137","miles_from_dt":26.52},{"city":"Oklahoma City","state_name":"Oklahoma","lat":35.5202,"lng":-97.61391,"zip":"73122","miles_from_dt":26.62},{"city":"Oklahoma City","state_name":"Oklahoma","lat":35.58049,"lng":-97.57248,"zip":"73120","miles_from_dt":26.9},{"city":"Wellston","state_name":"Oklahoma","lat":35.72136,"lng":-97.08264,"zip":"74881","miles_from_dt":26.96},{"city":"Purcell","state_name":"Oklahoma","lat":35.00725,"lng":-97.452,"zip":"73080","miles_from_dt":27.22},{"city":"Oklahoma City","state_name":"Oklahoma","lat":35.47785,"lng":-97.64836,"zip":"73127","miles_from_dt":27.22},{"city":"Saint Louis","state_name":"Oklahoma","lat":35.06647,"lng":-96.84691,"zip":"74866","miles_from_dt":27.36},{"city":"Oklahoma City","state_name":"Oklahoma","lat":35.5376,"lng":-97.62104,"zip":"73123","miles_from_dt":27.55},{"city":"Asher","state_name":"Oklahoma","lat":35.01735,"lng":-96.90606,"zip":"74826","miles_from_dt":27.71},{"city":"Edmond","state_name":"Oklahoma","lat":35.69877,"lng":-97.42665,"zip":"73034","miles_from_dt":27.87},{"city":"Bethany","state_name":"Oklahoma","lat":35.51383,"lng":-97.64536,"zip":"73008","miles_from_dt":28.02},{"city":"Edmond","state_name":"Oklahoma","lat":35.66952,"lng":-97.49693,"zip":"73003","miles_from_dt":28.29},{"city":"Oklahoma City","state_name":"Oklahoma","lat":35.6151,"lng":-97.56935,"zip":"73134","miles_from_dt":28.29},{"city":"Oklahoma City","state_name":"Oklahoma","lat":35.62083,"lng":-97.57144,"zip":"73184","miles_from_dt":28.64},{"city":"Oklahoma City","state_name":"Oklahoma","lat":35.54984,"lng":-97.64074,"zip":"73132","miles_from_dt":28.93},{"city":"Maud","state_name":"Oklahoma","lat":35.11527,"lng":-96.762,"zip":"74854","miles_from_dt":29.07},{"city":"Prague","state_name":"Oklahoma","lat":35.4921,"lng":-96.70269,"zip":"74864","miles_from_dt":29.7}],"targetCityZipCode":"74857","targetCityState":"Oklahoma"},"__N_SSG":true}