{"pageProps":{"stateName":"Oklahoma","cityName":"noble","nearbyCities":[{"city":"Norman","state_name":"Oklahoma","lat":35.23433,"lng":-97.2791,"zip":"73026","miles_from_dt":6.62},{"city":"Lexington","state_name":"Oklahoma","lat":35.03175,"lng":-97.24629,"zip":"73051","miles_from_dt":7.64},{"city":"Norman","state_name":"Oklahoma","lat":35.23728,"lng":-97.4131,"zip":"73071","miles_from_dt":10.05},{"city":"Norman","state_name":"Oklahoma","lat":35.20681,"lng":-97.44213,"zip":"73019","miles_from_dt":10.19},{"city":"Norman","state_name":"Oklahoma","lat":35.22763,"lng":-97.42729,"zip":"73070","miles_from_dt":10.24},{"city":"Washington","state_name":"Oklahoma","lat":35.10321,"lng":-97.4966,"zip":"73093","miles_from_dt":12.36},{"city":"Norman","state_name":"Oklahoma","lat":35.25028,"lng":-97.4633,"zip":"73069","miles_from_dt":12.81},{"city":"Purcell","state_name":"Oklahoma","lat":35.00725,"lng":-97.452,"zip":"73080","miles_from_dt":13.19},{"city":"Norman","state_name":"Oklahoma","lat":35.21106,"lng":-97.50518,"zip":"73072","miles_from_dt":13.56},{"city":"Oklahoma City","state_name":"Oklahoma","lat":35.34181,"lng":-97.36138,"zip":"73165","miles_from_dt":14.71},{"city":"Newalla","state_name":"Oklahoma","lat":35.34132,"lng":-97.19576,"zip":"74857","miles_from_dt":14.83},{"city":"Wanette","state_name":"Oklahoma","lat":35.00768,"lng":-97.06999,"zip":"74878","miles_from_dt":15.05},{"city":"Macomb","state_name":"Oklahoma","lat":35.12844,"lng":-97.01301,"zip":"74852","miles_from_dt":15.29},{"city":"Wayne","state_name":"Oklahoma","lat":34.90677,"lng":-97.28423,"zip":"73095","miles_from_dt":15.97},{"city":"Oklahoma City","state_name":"Oklahoma","lat":35.33574,"lng":-97.47651,"zip":"73160","miles_from_dt":17.47},{"city":"Oklahoma City","state_name":"Oklahoma","lat":35.33501,"lng":-97.49275,"zip":"73153","miles_from_dt":18.03},{"city":"Tecumseh","state_name":"Oklahoma","lat":35.22396,"lng":-96.97975,"zip":"74873","miles_from_dt":18.13},{"city":"Oklahoma City","state_name":"Oklahoma","lat":35.40059,"lng":-97.33214,"zip":"73150","miles_from_dt":18.29},{"city":"Oklahoma City","state_name":"Oklahoma","lat":35.39644,"lng":-97.42692,"zip":"73135","miles_from_dt":19.57},{"city":"Oklahoma City","state_name":"Oklahoma","lat":35.32743,"lng":-97.55068,"zip":"73170","miles_from_dt":19.99},{"city":"Newcastle","state_name":"Oklahoma","lat":35.25008,"lng":-97.61209,"zip":"73065","miles_from_dt":20.17},{"city":"Oklahoma City","state_name":"Oklahoma","lat":35.3892,"lng":-97.48908,"zip":"73149","miles_from_dt":20.86},{"city":"Dibble","state_name":"Oklahoma","lat":35.03376,"lng":-97.63139,"zip":"73031","miles_from_dt":21.04},{"city":"Oklahoma City","state_name":"Oklahoma","lat":35.42427,"lng":-97.41403,"zip":"73145","miles_from_dt":21.06},{"city":"Paoli","state_name":"Oklahoma","lat":34.83269,"lng":-97.27917,"zip":"73074","miles_from_dt":21.08},{"city":"Oklahoma City","state_name":"Oklahoma","lat":35.41856,"lng":-97.43522,"zip":"73155","miles_from_dt":21.15},{"city":"Byars","state_name":"Oklahoma","lat":34.89841,"lng":-97.04298,"zip":"74831","miles_from_dt":21.41},{"city":"Shawnee","state_name":"Oklahoma","lat":35.31749,"lng":-96.96824,"zip":"74801","miles_from_dt":21.65},{"city":"Oklahoma City","state_name":"Oklahoma","lat":35.38457,"lng":-97.52572,"zip":"73139","miles_from_dt":21.84},{"city":"Choctaw","state_name":"Oklahoma","lat":35.45588,"lng":-97.2619,"zip":"73020","miles_from_dt":21.92},{"city":"Blanchard","state_name":"Oklahoma","lat":35.09989,"lng":-97.67197,"zip":"73010","miles_from_dt":22.21},{"city":"Oklahoma City","state_name":"Oklahoma","lat":35.44808,"lng":-97.3945,"zip":"73110","miles_from_dt":22.27},{"city":"Oklahoma City","state_name":"Oklahoma","lat":35.45879,"lng":-97.34586,"zip":"73130","miles_from_dt":22.37},{"city":"Oklahoma City","state_name":"Oklahoma","lat":35.44232,"lng":-97.44153,"zip":"73115","miles_from_dt":22.8},{"city":"Maysville","state_name":"Oklahoma","lat":34.82998,"lng":-97.43176,"zip":"73057","miles_from_dt":22.88},{"city":"Asher","state_name":"Oklahoma","lat":35.01735,"lng":-96.90606,"zip":"74826","miles_from_dt":22.91},{"city":"Mcloud","state_name":"Oklahoma","lat":35.42653,"lng":-97.08072,"zip":"74851","miles_from_dt":22.91},{"city":"Oklahoma City","state_name":"Oklahoma","lat":35.46405,"lng":-97.3836,"zip":"73140","miles_from_dt":23.16},{"city":"Oklahoma City","state_name":"Oklahoma","lat":35.46052,"lng":-97.39884,"zip":"73196","miles_from_dt":23.16},{"city":"Oklahoma City","state_name":"Oklahoma","lat":35.43165,"lng":-97.48433,"zip":"73129","miles_from_dt":23.21},{"city":"Oklahoma City","state_name":"Oklahoma","lat":35.34033,"lng":-97.62463,"zip":"73173","miles_from_dt":23.83},{"city":"Oklahoma City","state_name":"Oklahoma","lat":35.38563,"lng":-97.5794,"zip":"73159","miles_from_dt":23.92},{"city":"Shawnee","state_name":"Oklahoma","lat":35.32536,"lng":-96.92224,"zip":"74802","miles_from_dt":24.12},{"city":"Oklahoma City","state_name":"Oklahoma","lat":35.41117,"lng":-97.55698,"zip":"73144","miles_from_dt":24.38},{"city":"Oklahoma City","state_name":"Oklahoma","lat":35.39581,"lng":-97.57875,"zip":"73189","miles_from_dt":24.4},{"city":"Oklahoma City","state_name":"Oklahoma","lat":35.43192,"lng":-97.52531,"zip":"73124","miles_from_dt":24.45},{"city":"Oklahoma City","state_name":"Oklahoma","lat":35.43279,"lng":-97.52452,"zip":"73109","miles_from_dt":24.47},{"city":"Oklahoma City","state_name":"Oklahoma","lat":35.43507,"lng":-97.5267,"zip":"73143","miles_from_dt":24.67},{"city":"Oklahoma City","state_name":"Oklahoma","lat":35.45718,"lng":-97.49078,"zip":"73126","miles_from_dt":24.93},{"city":"Saint Louis","state_name":"Oklahoma","lat":35.06647,"lng":-96.84691,"zip":"74866","miles_from_dt":25.18},{"city":"Nicoma Park","state_name":"Oklahoma","lat":35.50167,"lng":-97.32832,"zip":"73066","miles_from_dt":25.18},{"city":"Oklahoma City","state_name":"Oklahoma","lat":35.47474,"lng":-97.45961,"zip":"73117","miles_from_dt":25.25},{"city":"Oklahoma City","state_name":"Oklahoma","lat":35.41942,"lng":-97.56945,"zip":"73172","miles_from_dt":25.26},{"city":"Oklahoma City","state_name":"Oklahoma","lat":35.4215,"lng":-97.56896,"zip":"73119","miles_from_dt":25.35},{"city":"Oklahoma City","state_name":"Oklahoma","lat":35.40197,"lng":-97.59695,"zip":"73195","miles_from_dt":25.42},{"city":"Oklahoma City","state_name":"Oklahoma","lat":35.42329,"lng":-97.56961,"zip":"73157","miles_from_dt":25.47},{"city":"Oklahoma City","state_name":"Oklahoma","lat":35.45846,"lng":-97.51659,"zip":"73190","miles_from_dt":25.72},{"city":"Oklahoma City","state_name":"Oklahoma","lat":35.45622,"lng":-97.52869,"zip":"73125","miles_from_dt":25.95},{"city":"Oklahoma City","state_name":"Oklahoma","lat":35.46095,"lng":-97.52064,"zip":"73167","miles_from_dt":25.99},{"city":"Oklahoma City","state_name":"Oklahoma","lat":35.47508,"lng":-97.5038,"zip":"73104","miles_from_dt":26.36},{"city":"Oklahoma City","state_name":"Oklahoma","lat":35.45294,"lng":-97.55196,"zip":"73148","miles_from_dt":26.49},{"city":"Oklahoma City","state_name":"Oklahoma","lat":35.3815,"lng":-97.64538,"zip":"73169","miles_from_dt":26.49},{"city":"Oklahoma City","state_name":"Oklahoma","lat":35.47065,"lng":-97.5191,"zip":"73102","miles_from_dt":26.52},{"city":"Oklahoma City","state_name":"Oklahoma","lat":35.472,"lng":-97.52035,"zip":"73163","miles_from_dt":26.63},{"city":"Oklahoma City","state_name":"Oklahoma","lat":35.472,"lng":-97.52035,"zip":"73164","miles_from_dt":26.63},{"city":"Pauls Valley","state_name":"Oklahoma","lat":34.75187,"lng":-97.23428,"zip":"73075","miles_from_dt":26.79},{"city":"Shawnee","state_name":"Oklahoma","lat":35.39358,"lng":-96.92399,"zip":"74804","miles_from_dt":26.85},{"city":"Oklahoma City","state_name":"Oklahoma","lat":35.45034,"lng":-97.56774,"zip":"73108","miles_from_dt":26.87},{"city":"Oklahoma City","state_name":"Oklahoma","lat":35.51702,"lng":-97.39876,"zip":"73141","miles_from_dt":26.91},{"city":"Spencer","state_name":"Oklahoma","lat":35.52567,"lng":-97.34645,"zip":"73084","miles_from_dt":26.94},{"city":"Harrah","state_name":"Oklahoma","lat":35.51201,"lng":-97.1414,"zip":"73045","miles_from_dt":26.96},{"city":"Wheatland","state_name":"Oklahoma","lat":35.39893,"lng":-97.64501,"zip":"73097","miles_from_dt":27.25},{"city":"Lindsay","state_name":"Oklahoma","lat":34.83359,"lng":-97.59526,"zip":"73052","miles_from_dt":27.5},{"city":"Oklahoma City","state_name":"Oklahoma","lat":35.48906,"lng":-97.51897,"zip":"73103","miles_from_dt":27.62},{"city":"Oklahoma City","state_name":"Oklahoma","lat":35.4823,"lng":-97.53662,"zip":"73106","miles_from_dt":27.71},{"city":"Oklahoma City","state_name":"Oklahoma","lat":35.52181,"lng":-97.44236,"zip":"73121","miles_from_dt":27.93},{"city":"Alex","state_name":"Oklahoma","lat":34.96402,"lng":-97.73237,"zip":"73002","miles_from_dt":28.19},{"city":"Oklahoma City","state_name":"Oklahoma","lat":35.49427,"lng":-97.53068,"zip":"73146","miles_from_dt":28.25},{"city":"Oklahoma City","state_name":"Oklahoma","lat":35.4231,"lng":-97.64521,"zip":"73179","miles_from_dt":28.38},{"city":"Oklahoma City","state_name":"Oklahoma","lat":35.51889,"lng":-97.47722,"zip":"73111","miles_from_dt":28.44},{"city":"Oklahoma City","state_name":"Oklahoma","lat":35.48201,"lng":-97.5744,"zip":"73107","miles_from_dt":28.86},{"city":"Oklahoma City","state_name":"Oklahoma","lat":35.49044,"lng":-97.56015,"zip":"73101","miles_from_dt":28.89},{"city":"Oklahoma City","state_name":"Oklahoma","lat":35.51741,"lng":-97.5038,"zip":"73194","miles_from_dt":28.96},{"city":"Oklahoma City","state_name":"Oklahoma","lat":35.51919,"lng":-97.50331,"zip":"73105","miles_from_dt":29.06},{"city":"Oklahoma City","state_name":"Oklahoma","lat":35.51868,"lng":-97.50508,"zip":"73152","miles_from_dt":29.07},{"city":"Oklahoma City","state_name":"Oklahoma","lat":35.48357,"lng":-97.58201,"zip":"73147","miles_from_dt":29.2},{"city":"Maud","state_name":"Oklahoma","lat":35.11527,"lng":-96.762,"zip":"74854","miles_from_dt":29.53},{"city":"Oklahoma City","state_name":"Oklahoma","lat":35.51788,"lng":-97.53007,"zip":"73118","miles_from_dt":29.66},{"city":"Oklahoma City","state_name":"Oklahoma","lat":35.44899,"lng":-97.64595,"zip":"73128","miles_from_dt":29.67},{"city":"Oklahoma City","state_name":"Oklahoma","lat":35.52199,"lng":-97.52756,"zip":"73154","miles_from_dt":29.85}],"targetCityZipCode":"73068","targetCityState":"Oklahoma"},"__N_SSG":true}