{"pageProps":{"stateName":"Oklahoma","cityName":"thackerville","nearbyCities":[{"city":"Gainesville","state_name":"Texas","lat":33.65654,"lng":-97.17766,"zip":"76240","miles_from_dt":8.44},{"city":"Gainesville","state_name":"Texas","lat":33.64542,"lng":-97.17628,"zip":"76241","miles_from_dt":9.17},{"city":"Lindsay","state_name":"Texas","lat":33.63006,"lng":-97.24237,"zip":"76250","miles_from_dt":11.56},{"city":"Whitesboro","state_name":"Texas","lat":33.74794,"lng":-96.93935,"zip":"76273","miles_from_dt":11.82},{"city":"Marietta","state_name":"Oklahoma","lat":33.94813,"lng":-97.10581,"zip":"73448","miles_from_dt":12.09},{"city":"Myra","state_name":"Texas","lat":33.62516,"lng":-97.31327,"zip":"76253","miles_from_dt":14.29},{"city":"Muenster","state_name":"Texas","lat":33.67788,"lng":-97.38695,"zip":"76252","miles_from_dt":15.62},{"city":"Burneyville","state_name":"Oklahoma","lat":33.91,"lng":-97.36106,"zip":"73430","miles_from_dt":15.64},{"city":"Gordonville","state_name":"Texas","lat":33.82885,"lng":-96.85422,"zip":"76245","miles_from_dt":16.97},{"city":"Sadler","state_name":"Texas","lat":33.74172,"lng":-96.83509,"zip":"76264","miles_from_dt":17.83},{"city":"Leon","state_name":"Oklahoma","lat":33.8674,"lng":-97.44021,"zip":"73441","miles_from_dt":18.28},{"city":"Lebanon","state_name":"Oklahoma","lat":33.95163,"lng":-96.89635,"zip":"73440","miles_from_dt":18.64},{"city":"Overbrook","state_name":"Oklahoma","lat":34.03473,"lng":-97.27046,"zip":"73453","miles_from_dt":19.34},{"city":"Valley View","state_name":"Texas","lat":33.46421,"lng":-97.12721,"zip":"76272","miles_from_dt":21.46},{"city":"Collinsville","state_name":"Texas","lat":33.54025,"lng":-96.89696,"zip":"76233","miles_from_dt":21.5},{"city":"Saint Jo","state_name":"Texas","lat":33.74079,"lng":-97.53922,"zip":"76265","miles_from_dt":22.98},{"city":"Era","state_name":"Texas","lat":33.4861,"lng":-97.34148,"zip":"76238","miles_from_dt":23.01},{"city":"Southmayd","state_name":"Texas","lat":33.62785,"lng":-96.76539,"zip":"76268","miles_from_dt":23.96},{"city":"Pottsboro","state_name":"Texas","lat":33.79608,"lng":-96.71913,"zip":"75076","miles_from_dt":24.39},{"city":"Tioga","state_name":"Texas","lat":33.46953,"lng":-96.91412,"zip":"76271","miles_from_dt":24.84},{"city":"Rosston","state_name":"Texas","lat":33.50435,"lng":-97.43735,"zip":"76263","miles_from_dt":25.27},{"city":"Kingston","state_name":"Oklahoma","lat":33.93643,"lng":-96.74708,"zip":"73439","miles_from_dt":25.28},{"city":"Sherman","state_name":"Texas","lat":33.64869,"lng":-96.70011,"zip":"75092","miles_from_dt":26.91},{"city":"Ardmore","state_name":"Oklahoma","lat":34.16695,"lng":-97.10557,"zip":"73402","miles_from_dt":27.07},{"city":"Ardmore","state_name":"Oklahoma","lat":34.17286,"lng":-97.14441,"zip":"73403","miles_from_dt":27.4},{"city":"Lone Grove","state_name":"Oklahoma","lat":34.16258,"lng":-97.29081,"zip":"73443","miles_from_dt":28.02},{"city":"Sanger","state_name":"Texas","lat":33.36818,"lng":-97.21513,"zip":"76266","miles_from_dt":28.38},{"city":"Wilson","state_name":"Oklahoma","lat":34.11584,"lng":-97.42905,"zip":"73463","miles_from_dt":28.68}],"targetCityZipCode":"73459","targetCityState":"Oklahoma"},"__N_SSG":true}