{"pageProps":{"stateName":"Oklahoma","cityName":"woodward","nearbyCities":[{"city":"Woodward","state_name":"Oklahoma","lat":36.42207,"lng":-99.38836,"zip":"73802","miles_from_dt":4.25},{"city":"Fort Supply","state_name":"Oklahoma","lat":36.54799,"lng":-99.61924,"zip":"73841","miles_from_dt":11.69},{"city":"Fargo","state_name":"Oklahoma","lat":36.39436,"lng":-99.64581,"zip":"73840","miles_from_dt":13.16},{"city":"Sharon","state_name":"Oklahoma","lat":36.27223,"lng":-99.33235,"zip":"73857","miles_from_dt":14.91},{"city":"Mooreland","state_name":"Oklahoma","lat":36.4873,"lng":-99.10798,"zip":"73852","miles_from_dt":18},{"city":"May","state_name":"Oklahoma","lat":36.57298,"lng":-99.78406,"zip":"73851","miles_from_dt":20.83},{"city":"Mutual","state_name":"Oklahoma","lat":36.24333,"lng":-99.15664,"zip":"73853","miles_from_dt":22.02},{"city":"Gage","state_name":"Oklahoma","lat":36.39805,"lng":-99.83566,"zip":"73843","miles_from_dt":23.15},{"city":"Vici","state_name":"Oklahoma","lat":36.13309,"lng":-99.2797,"zip":"73859","miles_from_dt":24.93},{"city":"Freedom","state_name":"Oklahoma","lat":36.8212,"lng":-99.21452,"zip":"73842","miles_from_dt":26.83},{"city":"Buffalo","state_name":"Oklahoma","lat":36.84807,"lng":-99.57156,"zip":"73834","miles_from_dt":27}],"targetCityZipCode":"73801","targetCityState":"Oklahoma"},"__N_SSG":true}