{"pageProps":{"stateName":"North-carolina","cityName":"blounts-creek","nearbyCities":[{"city":"Edward","state_name":"North Carolina","lat":35.3237,"lng":-76.87392,"zip":"27821","miles_from_dt":5.19},{"city":"Ernul","state_name":"North Carolina","lat":35.26396,"lng":-77.01568,"zip":"28527","miles_from_dt":9.2},{"city":"Chocowinity","state_name":"North Carolina","lat":35.4506,"lng":-77.0825,"zip":"27817","miles_from_dt":9.64},{"city":"Aurora","state_name":"North Carolina","lat":35.29713,"lng":-76.76264,"zip":"27806","miles_from_dt":11.29},{"city":"Bath","state_name":"North Carolina","lat":35.47228,"lng":-76.76494,"zip":"27808","miles_from_dt":11.52},{"city":"Vanceboro","state_name":"North Carolina","lat":35.31884,"lng":-77.16602,"zip":"28586","miles_from_dt":13.7},{"city":"Washington","state_name":"North Carolina","lat":35.58909,"lng":-77.02386,"zip":"27889","miles_from_dt":15.27},{"city":"Pinetown","state_name":"North Carolina","lat":35.60588,"lng":-76.83244,"zip":"27865","miles_from_dt":16.62},{"city":"New Bern","state_name":"North Carolina","lat":35.13821,"lng":-77.00635,"zip":"28563","miles_from_dt":17.14},{"city":"New Bern","state_name":"North Carolina","lat":35.13354,"lng":-76.97575,"zip":"28560","miles_from_dt":17.14},{"city":"Alliance","state_name":"North Carolina","lat":35.14524,"lng":-76.80662,"zip":"28509","miles_from_dt":17.73},{"city":"Bridgeton","state_name":"North Carolina","lat":35.1268,"lng":-77.01477,"zip":"28519","miles_from_dt":18.02},{"city":"Grimesland","state_name":"North Carolina","lat":35.51606,"lng":-77.20892,"zip":"27837","miles_from_dt":18.08},{"city":"Grantsboro","state_name":"North Carolina","lat":35.12237,"lng":-76.86848,"zip":"28529","miles_from_dt":18.15},{"city":"Bayboro","state_name":"North Carolina","lat":35.19285,"lng":-76.70263,"zip":"28515","miles_from_dt":18.41},{"city":"Stonewall","state_name":"North Carolina","lat":35.13746,"lng":-76.73862,"zip":"28583","miles_from_dt":20.07},{"city":"Vandemere","state_name":"North Carolina","lat":35.18714,"lng":-76.66783,"zip":"28587","miles_from_dt":20.12},{"city":"New Bern","state_name":"North Carolina","lat":35.10113,"lng":-77.07703,"zip":"28561","miles_from_dt":20.82},{"city":"New Bern","state_name":"North Carolina","lat":35.07483,"lng":-77.02219,"zip":"28564","miles_from_dt":21.6},{"city":"Lowland","state_name":"North Carolina","lat":35.29281,"lng":-76.54382,"zip":"28552","miles_from_dt":22.91},{"city":"Hobucken","state_name":"North Carolina","lat":35.25558,"lng":-76.55912,"zip":"28537","miles_from_dt":22.91},{"city":"Greenville","state_name":"North Carolina","lat":35.53229,"lng":-77.29709,"zip":"27858","miles_from_dt":22.96},{"city":"New Bern","state_name":"North Carolina","lat":35.08105,"lng":-77.12486,"zip":"28562","miles_from_dt":23.23},{"city":"Merritt","state_name":"North Carolina","lat":35.12233,"lng":-76.66904,"zip":"28556","miles_from_dt":23.27},{"city":"Cove City","state_name":"North Carolina","lat":35.20662,"lng":-77.29541,"zip":"28523","miles_from_dt":23.61},{"city":"Simpson","state_name":"North Carolina","lat":35.57456,"lng":-77.27968,"zip":"27879","miles_from_dt":23.62},{"city":"Oriental","state_name":"North Carolina","lat":35.05679,"lng":-76.72311,"zip":"28571","miles_from_dt":25.3},{"city":"Scranton","state_name":"North Carolina","lat":35.45623,"lng":-76.48532,"zip":"27875","miles_from_dt":25.92},{"city":"Ayden","state_name":"North Carolina","lat":35.44276,"lng":-77.3897,"zip":"28513","miles_from_dt":26.02},{"city":"Pantego","state_name":"North Carolina","lat":35.67693,"lng":-76.65001,"zip":"27860","miles_from_dt":26.03},{"city":"Jamesville","state_name":"North Carolina","lat":35.76519,"lng":-76.89191,"zip":"27846","miles_from_dt":26.68},{"city":"Arapahoe","state_name":"North Carolina","lat":35.00516,"lng":-76.81171,"zip":"28510","miles_from_dt":26.76},{"city":"Grifton","state_name":"North Carolina","lat":35.372,"lng":-77.41579,"zip":"28530","miles_from_dt":27.14},{"city":"Dover","state_name":"North Carolina","lat":35.24439,"lng":-77.40447,"zip":"28526","miles_from_dt":28.12},{"city":"Greenville","state_name":"North Carolina","lat":35.60328,"lng":-77.35948,"zip":"27836","miles_from_dt":28.45},{"city":"Belhaven","state_name":"North Carolina","lat":35.58637,"lng":-76.49706,"zip":"27810","miles_from_dt":28.51},{"city":"Winterville","state_name":"North Carolina","lat":35.52046,"lng":-77.41651,"zip":"28590","miles_from_dt":28.83},{"city":"Greenville","state_name":"North Carolina","lat":35.59701,"lng":-77.3758,"zip":"27833","miles_from_dt":29.01},{"city":"Greenville","state_name":"North Carolina","lat":35.607,"lng":-77.37177,"zip":"27835","miles_from_dt":29.18},{"city":"Stokes","state_name":"North Carolina","lat":35.70771,"lng":-77.27176,"zip":"27884","miles_from_dt":29.51},{"city":"Plymouth","state_name":"North Carolina","lat":35.78437,"lng":-76.75026,"zip":"27962","miles_from_dt":29.77}],"targetCityZipCode":"27814","targetCityState":"North Carolina"},"__N_SSG":true}