{"pageProps":{"stateName":"North-carolina","cityName":"bryson-city","nearbyCities":[{"city":"Almond","state_name":"North Carolina","lat":35.39346,"lng":-83.62906,"zip":"28702","miles_from_dt":7.16},{"city":"Whittier","state_name":"North Carolina","lat":35.4077,"lng":-83.31727,"zip":"28789","miles_from_dt":10.95},{"city":"Cherokee","state_name":"North Carolina","lat":35.53223,"lng":-83.47056,"zip":"28719","miles_from_dt":11.38},{"city":"Topton","state_name":"North Carolina","lat":35.21417,"lng":-83.63877,"zip":"28781","miles_from_dt":13.1},{"city":"Dillsboro","state_name":"North Carolina","lat":35.37631,"lng":-83.26411,"zip":"28725","miles_from_dt":13.64},{"city":"Franklin","state_name":"North Carolina","lat":35.1825,"lng":-83.42599,"zip":"28734","miles_from_dt":13.67},{"city":"Franklin","state_name":"North Carolina","lat":35.18074,"lng":-83.38166,"zip":"28744","miles_from_dt":14.79},{"city":"Webster","state_name":"North Carolina","lat":35.35044,"lng":-83.22266,"zip":"28788","miles_from_dt":16.03},{"city":"Fontana Dam","state_name":"North Carolina","lat":35.43536,"lng":-83.78403,"zip":"28733","miles_from_dt":16.36},{"city":"Sylva","state_name":"North Carolina","lat":35.3558,"lng":-83.20962,"zip":"28779","miles_from_dt":16.74},{"city":"Robbinsville","state_name":"North Carolina","lat":35.34245,"lng":-83.8567,"zip":"28771","miles_from_dt":19.92},{"city":"Andrews","state_name":"North Carolina","lat":35.20127,"lng":-83.80506,"zip":"28901","miles_from_dt":20.53},{"city":"Gatlinburg","state_name":"Tennessee","lat":35.67125,"lng":-83.47641,"zip":"37738","miles_from_dt":20.85},{"city":"Cullowhee","state_name":"North Carolina","lat":35.27776,"lng":-83.12195,"zip":"28723","miles_from_dt":22.58},{"city":"Otto","state_name":"North Carolina","lat":35.03796,"lng":-83.43215,"zip":"28763","miles_from_dt":23.24},{"city":"Maggie Valley","state_name":"North Carolina","lat":35.50547,"lng":-83.11955,"zip":"28751","miles_from_dt":23.71},{"city":"Townsend","state_name":"Tennessee","lat":35.60335,"lng":-83.82118,"zip":"37882","miles_from_dt":24},{"city":"Hayesville","state_name":"North Carolina","lat":35.06185,"lng":-83.73041,"zip":"28904","miles_from_dt":24.74},{"city":"Balsam","state_name":"North Carolina","lat":35.39873,"lng":-83.0662,"zip":"28707","miles_from_dt":24.89},{"city":"Scaly Mountain","state_name":"North Carolina","lat":35.01916,"lng":-83.32186,"zip":"28775","miles_from_dt":26.31},{"city":"Highlands","state_name":"North Carolina","lat":35.06614,"lng":-83.21053,"zip":"28741","miles_from_dt":26.77},{"city":"Glenville","state_name":"North Carolina","lat":35.18039,"lng":-83.0838,"zip":"28736","miles_from_dt":27.18},{"city":"Pigeon Forge","state_name":"Tennessee","lat":35.77561,"lng":-83.53784,"zip":"37868","miles_from_dt":28.04},{"city":"Marble","state_name":"North Carolina","lat":35.1631,"lng":-83.9409,"zip":"28905","miles_from_dt":28.44},{"city":"Tuckasegee","state_name":"North Carolina","lat":35.24906,"lng":-83.02,"zip":"28783","miles_from_dt":28.67},{"city":"Dillard","state_name":"Georgia","lat":34.97855,"lng":-83.32975,"zip":"30537","miles_from_dt":28.74},{"city":"Pigeon Forge","state_name":"Tennessee","lat":35.7864,"lng":-83.56367,"zip":"37863","miles_from_dt":28.91},{"city":"Sevierville","state_name":"Tennessee","lat":35.78314,"lng":-83.61232,"zip":"37862","miles_from_dt":29.13},{"city":"Rabun Gap","state_name":"Georgia","lat":34.95348,"lng":-83.41218,"zip":"30568","miles_from_dt":29.18},{"city":"Hazelwood","state_name":"North Carolina","lat":35.47679,"lng":-83.00293,"zip":"28738","miles_from_dt":29.31},{"city":"Waynesville","state_name":"North Carolina","lat":35.46272,"lng":-82.99294,"zip":"28786","miles_from_dt":29.63}],"targetCityZipCode":"28713","targetCityState":"North Carolina"},"__N_SSG":true}