{"pageProps":{"stateName":"North-carolina","cityName":"efland","nearbyCities":[{"city":"Mebane","state_name":"North Carolina","lat":36.13749,"lng":-79.2647,"zip":"27302","miles_from_dt":5.67},{"city":"Hillsborough","state_name":"North Carolina","lat":36.08673,"lng":-79.08778,"zip":"27278","miles_from_dt":6},{"city":"Haw River","state_name":"North Carolina","lat":36.03401,"lng":-79.32623,"zip":"27258","miles_from_dt":7.98},{"city":"Cedar Grove","state_name":"North Carolina","lat":36.20455,"lng":-79.17268,"zip":"27231","miles_from_dt":8.8},{"city":"Swepsonville","state_name":"North Carolina","lat":36.03414,"lng":-79.36838,"zip":"27359","miles_from_dt":10.2},{"city":"Saxapahaw","state_name":"North Carolina","lat":35.94557,"lng":-79.31141,"zip":"27340","miles_from_dt":11.25},{"city":"Chapel Hill","state_name":"North Carolina","lat":35.96776,"lng":-79.04406,"zip":"27514","miles_from_dt":11.36},{"city":"Graham","state_name":"North Carolina","lat":35.96239,"lng":-79.34581,"zip":"27253","miles_from_dt":11.64},{"city":"Chapel Hill","state_name":"North Carolina","lat":35.91239,"lng":-79.15156,"zip":"27516","miles_from_dt":11.68},{"city":"Burlington","state_name":"North Carolina","lat":36.08169,"lng":-79.4127,"zip":"27216","miles_from_dt":12.21},{"city":"Durham","state_name":"North Carolina","lat":36.0259,"lng":-78.98046,"zip":"27705","miles_from_dt":12.51},{"city":"Carrboro","state_name":"North Carolina","lat":35.91147,"lng":-79.08211,"zip":"27510","miles_from_dt":13.11},{"city":"Burlington","state_name":"North Carolina","lat":36.19221,"lng":-79.38404,"zip":"27217","miles_from_dt":13.2},{"city":"Durham","state_name":"North Carolina","lat":36.01368,"lng":-78.95914,"zip":"27715","miles_from_dt":13.91},{"city":"Chapel Hill","state_name":"North Carolina","lat":35.91022,"lng":-79.05461,"zip":"27515","miles_from_dt":13.99},{"city":"Hurdle Mills","state_name":"North Carolina","lat":36.26176,"lng":-79.0866,"zip":"27541","miles_from_dt":14.02},{"city":"Chapel Hill","state_name":"North Carolina","lat":35.90394,"lng":-79.05234,"zip":"27599","miles_from_dt":14.42},{"city":"Prospect Hill","state_name":"North Carolina","lat":36.29072,"lng":-79.18594,"zip":"27314","miles_from_dt":14.66},{"city":"Durham","state_name":"North Carolina","lat":36.00009,"lng":-78.94305,"zip":"27708","miles_from_dt":15.08},{"city":"Durham","state_name":"North Carolina","lat":36.00177,"lng":-78.94072,"zip":"27710","miles_from_dt":15.16},{"city":"Durham","state_name":"North Carolina","lat":35.99683,"lng":-78.93799,"zip":"27706","miles_from_dt":15.42},{"city":"Durham","state_name":"North Carolina","lat":35.95463,"lng":-78.95451,"zip":"27707","miles_from_dt":15.92},{"city":"Durham","state_name":"North Carolina","lat":35.95623,"lng":-78.95163,"zip":"27717","miles_from_dt":15.99},{"city":"Durham","state_name":"North Carolina","lat":36.09606,"lng":-78.90481,"zip":"27712","miles_from_dt":16.26},{"city":"Alamance","state_name":"North Carolina","lat":36.03258,"lng":-79.48418,"zip":"27201","miles_from_dt":16.52},{"city":"Burlington","state_name":"North Carolina","lat":36.03055,"lng":-79.48729,"zip":"27215","miles_from_dt":16.72},{"city":"Snow Camp","state_name":"North Carolina","lat":35.89845,"lng":-79.41202,"zip":"27349","miles_from_dt":17.38},{"city":"Durham","state_name":"North Carolina","lat":35.99697,"lng":-78.89956,"zip":"27722","miles_from_dt":17.44},{"city":"Durham","state_name":"North Carolina","lat":35.99858,"lng":-78.89872,"zip":"27701","miles_from_dt":17.45},{"city":"Durham","state_name":"North Carolina","lat":36.05251,"lng":-78.87949,"zip":"27702","miles_from_dt":17.72},{"city":"Chapel Hill","state_name":"North Carolina","lat":35.84389,"lng":-79.03186,"zip":"27517","miles_from_dt":18.55},{"city":"Bahama","state_name":"North Carolina","lat":36.15832,"lng":-78.87757,"zip":"27503","miles_from_dt":18.57},{"city":"Elon","state_name":"North Carolina","lat":36.21402,"lng":-79.48747,"zip":"27244","miles_from_dt":18.87},{"city":"Altamahaw","state_name":"North Carolina","lat":36.18565,"lng":-79.50594,"zip":"27202","miles_from_dt":18.93},{"city":"Durham","state_name":"North Carolina","lat":35.88401,"lng":-78.936,"zip":"27713","miles_from_dt":19.73},{"city":"Durham","state_name":"North Carolina","lat":36.04088,"lng":-78.83007,"zip":"27704","miles_from_dt":20.56},{"city":"Timberlake","state_name":"North Carolina","lat":36.29723,"lng":-78.93153,"zip":"27583","miles_from_dt":21.07},{"city":"Rougemont","state_name":"North Carolina","lat":36.24872,"lng":-78.88045,"zip":"27572","miles_from_dt":21.13},{"city":"Bynum","state_name":"North Carolina","lat":35.77262,"lng":-79.13782,"zip":"27228","miles_from_dt":21.31},{"city":"Durham","state_name":"North Carolina","lat":35.9162,"lng":-78.86747,"zip":"27711","miles_from_dt":21.46},{"city":"Durham","state_name":"North Carolina","lat":35.91441,"lng":-78.86666,"zip":"27709","miles_from_dt":21.56},{"city":"Yanceyville","state_name":"North Carolina","lat":36.37653,"lng":-79.34653,"zip":"27379","miles_from_dt":22.25},{"city":"Pittsboro","state_name":"North Carolina","lat":35.75446,"lng":-79.19648,"zip":"27312","miles_from_dt":22.32},{"city":"Leasburg","state_name":"North Carolina","lat":36.40173,"lng":-79.16679,"zip":"27291","miles_from_dt":22.36},{"city":"Gibsonville","state_name":"North Carolina","lat":36.16014,"lng":-79.58134,"zip":"27249","miles_from_dt":22.37},{"city":"Whitsett","state_name":"North Carolina","lat":36.03728,"lng":-79.60221,"zip":"27377","miles_from_dt":23},{"city":"Durham","state_name":"North Carolina","lat":35.96299,"lng":-78.80452,"zip":"27703","miles_from_dt":23.24},{"city":"Butner","state_name":"North Carolina","lat":36.12889,"lng":-78.77604,"zip":"27509","miles_from_dt":23.67},{"city":"Sedalia","state_name":"North Carolina","lat":36.06641,"lng":-79.6186,"zip":"27342","miles_from_dt":23.75},{"city":"Liberty","state_name":"North Carolina","lat":35.88563,"lng":-79.56816,"zip":"27298","miles_from_dt":24.79},{"city":"Apex","state_name":"North Carolina","lat":35.77102,"lng":-78.95367,"zip":"27523","miles_from_dt":25.12},{"city":"Roxboro","state_name":"North Carolina","lat":36.3978,"lng":-78.97476,"zip":"27573","miles_from_dt":25.22},{"city":"Greensboro","state_name":"North Carolina","lat":36.07893,"lng":-79.64581,"zip":"27415","miles_from_dt":25.26},{"city":"Cary","state_name":"North Carolina","lat":35.80815,"lng":-78.88711,"zip":"27519","miles_from_dt":25.37},{"city":"Morrisville","state_name":"North Carolina","lat":35.85845,"lng":-78.82544,"zip":"27560","miles_from_dt":25.64},{"city":"Julian","state_name":"North Carolina","lat":35.95293,"lng":-79.63621,"zip":"27283","miles_from_dt":26.21},{"city":"Raleigh","state_name":"North Carolina","lat":35.90723,"lng":-78.77221,"zip":"27617","miles_from_dt":26.44},{"city":"McLeansville","state_name":"North Carolina","lat":36.11512,"lng":-79.66755,"zip":"27301","miles_from_dt":26.59},{"city":"Blanch","state_name":"North Carolina","lat":36.46207,"lng":-79.27976,"zip":"27212","miles_from_dt":26.89},{"city":"Stem","state_name":"North Carolina","lat":36.20155,"lng":-78.73355,"zip":"27581","miles_from_dt":27.15},{"city":"Raleigh","state_name":"North Carolina","lat":35.85907,"lng":-78.79023,"zip":"27623","miles_from_dt":27.23},{"city":"Siler City","state_name":"North Carolina","lat":35.7289,"lng":-79.43366,"zip":"27344","miles_from_dt":27.57},{"city":"Raleigh","state_name":"North Carolina","lat":35.90434,"lng":-78.74241,"zip":"27675","miles_from_dt":28.02},{"city":"Roxboro","state_name":"North Carolina","lat":36.43166,"lng":-78.94147,"zip":"27574","miles_from_dt":28.17},{"city":"Browns Summit","state_name":"North Carolina","lat":36.21407,"lng":-79.68283,"zip":"27214","miles_from_dt":28.87},{"city":"Staley","state_name":"North Carolina","lat":35.78859,"lng":-79.5678,"zip":"27355","miles_from_dt":28.93},{"city":"Raleigh","state_name":"North Carolina","lat":35.92633,"lng":-78.71183,"zip":"27613","miles_from_dt":29},{"city":"Creedmoor","state_name":"North Carolina","lat":36.10565,"lng":-78.67676,"zip":"27522","miles_from_dt":29.03},{"city":"Cary","state_name":"North Carolina","lat":35.80269,"lng":-78.80159,"zip":"27513","miles_from_dt":29.09},{"city":"Apex","state_name":"North Carolina","lat":35.72123,"lng":-78.90828,"zip":"27502","miles_from_dt":29.39},{"city":"Greensboro","state_name":"North Carolina","lat":35.97913,"lng":-79.70883,"zip":"27419","miles_from_dt":29.6},{"city":"Semora","state_name":"North Carolina","lat":36.50229,"lng":-79.08892,"zip":"27343","miles_from_dt":29.83}],"targetCityZipCode":"27243","targetCityState":"North Carolina"},"__N_SSG":true}