{"pageProps":{"stateName":"North-carolina","cityName":"gulf","nearbyCities":[{"city":"Cumnock","state_name":"North Carolina","lat":35.55472,"lng":-79.23806,"zip":"27237","miles_from_dt":1.98},{"city":"Goldston","state_name":"North Carolina","lat":35.56033,"lng":-79.35563,"zip":"27252","miles_from_dt":4.68},{"city":"Sanford","state_name":"North Carolina","lat":35.51624,"lng":-79.18394,"zip":"27330","miles_from_dt":5.85},{"city":"Bear Creek","state_name":"North Carolina","lat":35.6064,"lng":-79.38893,"zip":"27207","miles_from_dt":7.28},{"city":"Sanford","state_name":"North Carolina","lat":35.47494,"lng":-79.18258,"zip":"27331","miles_from_dt":7.78},{"city":"Bonlee","state_name":"North Carolina","lat":35.6473,"lng":-79.40454,"zip":"27213","miles_from_dt":9.54},{"city":"Moncure","state_name":"North Carolina","lat":35.6299,"lng":-79.0973,"zip":"27559","miles_from_dt":10.96},{"city":"Lemon Springs","state_name":"North Carolina","lat":35.39053,"lng":-79.19514,"zip":"28355","miles_from_dt":12.51},{"city":"Pittsboro","state_name":"North Carolina","lat":35.75446,"lng":-79.19648,"zip":"27312","miles_from_dt":14.03},{"city":"Siler City","state_name":"North Carolina","lat":35.7289,"lng":-79.43366,"zip":"27344","miles_from_dt":14.73},{"city":"Sanford","state_name":"North Carolina","lat":35.37836,"lng":-79.13599,"zip":"27332","miles_from_dt":14.73},{"city":"Highfalls","state_name":"North Carolina","lat":35.49149,"lng":-79.52624,"zip":"27259","miles_from_dt":15.07},{"city":"Bennett","state_name":"North Carolina","lat":35.56246,"lng":-79.54231,"zip":"27208","miles_from_dt":15.2},{"city":"Olivia","state_name":"North Carolina","lat":35.36942,"lng":-79.11331,"zip":"28368","miles_from_dt":15.95},{"city":"Carthage","state_name":"North Carolina","lat":35.35759,"lng":-79.42333,"zip":"28327","miles_from_dt":16.38},{"city":"Bynum","state_name":"North Carolina","lat":35.77262,"lng":-79.13782,"zip":"27228","miles_from_dt":16.47},{"city":"New Hill","state_name":"North Carolina","lat":35.64157,"lng":-78.98141,"zip":"27562","miles_from_dt":17.32},{"city":"Robbins","state_name":"North Carolina","lat":35.46236,"lng":-79.57249,"zip":"27325","miles_from_dt":18.22},{"city":"Broadway","state_name":"North Carolina","lat":35.414,"lng":-79.00198,"zip":"27505","miles_from_dt":18.3},{"city":"Cameron","state_name":"North Carolina","lat":35.27938,"lng":-79.16989,"zip":"28326","miles_from_dt":20.23},{"city":"Mamers","state_name":"North Carolina","lat":35.42006,"lng":-78.93433,"zip":"27552","miles_from_dt":21.39},{"city":"Lakeview","state_name":"North Carolina","lat":35.2488,"lng":-79.32064,"zip":"28350","miles_from_dt":21.67},{"city":"Ramseur","state_name":"North Carolina","lat":35.68996,"lng":-79.62366,"zip":"27316","miles_from_dt":21.69},{"city":"Holly Springs","state_name":"North Carolina","lat":35.6103,"lng":-78.87332,"zip":"27540","miles_from_dt":22.74},{"city":"Staley","state_name":"North Carolina","lat":35.78859,"lng":-79.5678,"zip":"27355","miles_from_dt":22.87},{"city":"Apex","state_name":"North Carolina","lat":35.77102,"lng":-78.95367,"zip":"27523","miles_from_dt":23.07},{"city":"Apex","state_name":"North Carolina","lat":35.72123,"lng":-78.90828,"zip":"27502","miles_from_dt":23.3},{"city":"Chapel Hill","state_name":"North Carolina","lat":35.84389,"lng":-79.03186,"zip":"27517","miles_from_dt":23.76},{"city":"Vass","state_name":"North Carolina","lat":35.21652,"lng":-79.23777,"zip":"28394","miles_from_dt":23.8},{"city":"Seagrove","state_name":"North Carolina","lat":35.52467,"lng":-79.70014,"zip":"27341","miles_from_dt":24.22},{"city":"Snow Camp","state_name":"North Carolina","lat":35.89845,"lng":-79.41202,"zip":"27349","miles_from_dt":24.58},{"city":"Fuquay Varina","state_name":"North Carolina","lat":35.54179,"lng":-78.8274,"zip":"27526","miles_from_dt":25.11},{"city":"Chapel Hill","state_name":"North Carolina","lat":35.91239,"lng":-79.15156,"zip":"27516","miles_from_dt":25.19},{"city":"West End","state_name":"North Carolina","lat":35.25607,"lng":-79.53184,"zip":"27376","miles_from_dt":25.59},{"city":"Eagle Springs","state_name":"North Carolina","lat":35.33645,"lng":-79.63761,"zip":"27242","miles_from_dt":25.75},{"city":"Lillington","state_name":"North Carolina","lat":35.38458,"lng":-78.86626,"zip":"27546","miles_from_dt":25.92},{"city":"Kipling","state_name":"North Carolina","lat":35.48105,"lng":-78.82165,"zip":"27543","miles_from_dt":26},{"city":"Carrboro","state_name":"North Carolina","lat":35.91147,"lng":-79.08211,"zip":"27510","miles_from_dt":26.45},{"city":"Saxapahaw","state_name":"North Carolina","lat":35.94557,"lng":-79.31141,"zip":"27340","miles_from_dt":26.63},{"city":"Chapel Hill","state_name":"North Carolina","lat":35.90394,"lng":-79.05234,"zip":"27599","miles_from_dt":26.71},{"city":"Southern Pines","state_name":"North Carolina","lat":35.18059,"lng":-79.37566,"zip":"28387","miles_from_dt":26.84},{"city":"Chapel Hill","state_name":"North Carolina","lat":35.91022,"lng":-79.05461,"zip":"27515","miles_from_dt":27.04},{"city":"Apex","state_name":"North Carolina","lat":35.67713,"lng":-78.81269,"zip":"27539","miles_from_dt":27.1},{"city":"Southern Pines","state_name":"North Carolina","lat":35.18181,"lng":-79.4019,"zip":"28388","miles_from_dt":27.12},{"city":"Pinehurst","state_name":"North Carolina","lat":35.19705,"lng":-79.46009,"zip":"28374","miles_from_dt":27.21},{"city":"Cary","state_name":"North Carolina","lat":35.80815,"lng":-78.88711,"zip":"27519","miles_from_dt":27.59},{"city":"Liberty","state_name":"North Carolina","lat":35.88563,"lng":-79.56816,"zip":"27298","miles_from_dt":27.9},{"city":"Graham","state_name":"North Carolina","lat":35.96239,"lng":-79.34581,"zip":"27253","miles_from_dt":28.01},{"city":"Pinehurst","state_name":"North Carolina","lat":35.18208,"lng":-79.46043,"zip":"28370","miles_from_dt":28.17},{"city":"Cedar Falls","state_name":"North Carolina","lat":35.75286,"lng":-79.73163,"zip":"27230","miles_from_dt":29.04},{"city":"Franklinville","state_name":"North Carolina","lat":35.78916,"lng":-79.70953,"zip":"27248","miles_from_dt":29.2},{"city":"Durham","state_name":"North Carolina","lat":35.88401,"lng":-78.936,"zip":"27713","miles_from_dt":29.24},{"city":"Spring Lake","state_name":"North Carolina","lat":35.21783,"lng":-78.95488,"zip":"28390","miles_from_dt":29.66},{"city":"Ether","state_name":"North Carolina","lat":35.46096,"lng":-79.78784,"zip":"27247","miles_from_dt":29.85},{"city":"Bunnlevel","state_name":"North Carolina","lat":35.31192,"lng":-78.83842,"zip":"28323","miles_from_dt":29.89}],"targetCityZipCode":"27256","targetCityState":"North Carolina"},"__N_SSG":true}