{"pageProps":{"stateName":"North-carolina","cityName":"harrisburg","nearbyCities":[{"city":"Charlotte","state_name":"North Carolina","lat":35.24854,"lng":-80.69571,"zip":"28215","miles_from_dt":4.87},{"city":"Charlotte","state_name":"North Carolina","lat":35.30824,"lng":-80.73282,"zip":"28223","miles_from_dt":5.3},{"city":"Charlotte","state_name":"North Carolina","lat":35.28318,"lng":-80.73065,"zip":"28256","miles_from_dt":5.32},{"city":"Charlotte","state_name":"North Carolina","lat":35.28459,"lng":-80.73339,"zip":"28213","miles_from_dt":5.45},{"city":"Newell","state_name":"North Carolina","lat":35.27594,"lng":-80.73661,"zip":"28126","miles_from_dt":5.79},{"city":"Charlotte","state_name":"North Carolina","lat":35.32609,"lng":-80.74234,"zip":"28262","miles_from_dt":6.06},{"city":"Charlotte","state_name":"North Carolina","lat":35.21,"lng":-80.69219,"zip":"28263","miles_from_dt":7.01},{"city":"Midland","state_name":"North Carolina","lat":35.24992,"lng":-80.52115,"zip":"28107","miles_from_dt":7.58},{"city":"Concord","state_name":"North Carolina","lat":35.40879,"lng":-80.67524,"zip":"28027","miles_from_dt":7.64},{"city":"Charlotte","state_name":"North Carolina","lat":35.18851,"lng":-80.6507,"zip":"28227","miles_from_dt":7.84},{"city":"Concord","state_name":"North Carolina","lat":35.37613,"lng":-80.53368,"zip":"28026","miles_from_dt":7.86},{"city":"Charlotte","state_name":"North Carolina","lat":35.32365,"lng":-80.78218,"zip":"28253","miles_from_dt":8.21},{"city":"Charlotte","state_name":"North Carolina","lat":35.36857,"lng":-80.76013,"zip":"28221","miles_from_dt":8.23},{"city":"Concord","state_name":"North Carolina","lat":35.38095,"lng":-80.52719,"zip":"28025","miles_from_dt":8.35},{"city":"Charlotte","state_name":"North Carolina","lat":35.33747,"lng":-80.8026,"zip":"28269","miles_from_dt":9.55},{"city":"Charlotte","state_name":"North Carolina","lat":35.18882,"lng":-80.74363,"zip":"28229","miles_from_dt":9.78},{"city":"Charlotte","state_name":"North Carolina","lat":35.1896,"lng":-80.74519,"zip":"28212","miles_from_dt":9.79},{"city":"Charlotte","state_name":"North Carolina","lat":35.22199,"lng":-80.78827,"zip":"28218","miles_from_dt":10.07},{"city":"Charlotte","state_name":"North Carolina","lat":35.22019,"lng":-80.78737,"zip":"28205","miles_from_dt":10.09},{"city":"Charlotte","state_name":"North Carolina","lat":35.25631,"lng":-80.82144,"zip":"28206","miles_from_dt":10.77},{"city":"Charlotte","state_name":"North Carolina","lat":35.21847,"lng":-80.81163,"zip":"28299","miles_from_dt":11.32},{"city":"Charlotte","state_name":"North Carolina","lat":35.19126,"lng":-80.8042,"zip":"28222","miles_from_dt":12.05},{"city":"Charlotte","state_name":"North Carolina","lat":35.21628,"lng":-80.82682,"zip":"28232","miles_from_dt":12.14},{"city":"Charlotte","state_name":"North Carolina","lat":35.21451,"lng":-80.82569,"zip":"28235","miles_from_dt":12.14},{"city":"Charlotte","state_name":"North Carolina","lat":35.21469,"lng":-80.82677,"zip":"28204","miles_from_dt":12.19},{"city":"Charlotte","state_name":"North Carolina","lat":35.21625,"lng":-80.82817,"zip":"28237","miles_from_dt":12.2},{"city":"Charlotte","state_name":"North Carolina","lat":35.21302,"lng":-80.82737,"zip":"28296","miles_from_dt":12.27},{"city":"Kannapolis","state_name":"North Carolina","lat":35.47954,"lng":-80.62662,"zip":"28082","miles_from_dt":12.27},{"city":"Charlotte","state_name":"North Carolina","lat":35.21304,"lng":-80.82771,"zip":"28233","miles_from_dt":12.29},{"city":"Charlotte","state_name":"North Carolina","lat":35.27797,"lng":-80.85526,"zip":"28297","miles_from_dt":12.32},{"city":"Charlotte","state_name":"North Carolina","lat":35.21261,"lng":-80.8282,"zip":"28230","miles_from_dt":12.33},{"city":"Charlotte","state_name":"North Carolina","lat":35.22989,"lng":-80.84082,"zip":"28284","miles_from_dt":12.43},{"city":"Charlotte","state_name":"North Carolina","lat":35.22917,"lng":-80.84114,"zip":"28288","miles_from_dt":12.47},{"city":"Charlotte","state_name":"North Carolina","lat":35.23,"lng":-80.84219,"zip":"28271","miles_from_dt":12.5},{"city":"Charlotte","state_name":"North Carolina","lat":35.22143,"lng":-80.83763,"zip":"28243","miles_from_dt":12.51},{"city":"Charlotte","state_name":"North Carolina","lat":35.22852,"lng":-80.84211,"zip":"28265","miles_from_dt":12.53},{"city":"Charlotte","state_name":"North Carolina","lat":35.22671,"lng":-80.84182,"zip":"28281","miles_from_dt":12.57},{"city":"Charlotte","state_name":"North Carolina","lat":35.23132,"lng":-80.84452,"zip":"28266","miles_from_dt":12.58},{"city":"Charlotte","state_name":"North Carolina","lat":35.22589,"lng":-80.84168,"zip":"28289","miles_from_dt":12.59},{"city":"Charlotte","state_name":"North Carolina","lat":35.2313,"lng":-80.84485,"zip":"28260","miles_from_dt":12.6},{"city":"Charlotte","state_name":"North Carolina","lat":35.22687,"lng":-80.84293,"zip":"28275","miles_from_dt":12.62},{"city":"Charlotte","state_name":"North Carolina","lat":35.22766,"lng":-80.84358,"zip":"28241","miles_from_dt":12.63},{"city":"Charlotte","state_name":"North Carolina","lat":35.22971,"lng":-80.84476,"zip":"28272","miles_from_dt":12.64},{"city":"Charlotte","state_name":"North Carolina","lat":35.22633,"lng":-80.84309,"zip":"28280","miles_from_dt":12.65},{"city":"Charlotte","state_name":"North Carolina","lat":35.22773,"lng":-80.8447,"zip":"28202","miles_from_dt":12.69},{"city":"Charlotte","state_name":"North Carolina","lat":35.2246,"lng":-80.8431,"zip":"28244","miles_from_dt":12.7},{"city":"Charlotte","state_name":"North Carolina","lat":35.19619,"lng":-80.82436,"zip":"28231","miles_from_dt":12.75},{"city":"Charlotte","state_name":"North Carolina","lat":35.22886,"lng":-80.84673,"zip":"28285","miles_from_dt":12.76},{"city":"Charlotte","state_name":"North Carolina","lat":35.16816,"lng":-80.79604,"zip":"28211","miles_from_dt":12.79},{"city":"Charlotte","state_name":"North Carolina","lat":35.22541,"lng":-80.84528,"zip":"28246","miles_from_dt":12.79},{"city":"Charlotte","state_name":"North Carolina","lat":35.22481,"lng":-80.84529,"zip":"28282","miles_from_dt":12.8},{"city":"Charlotte","state_name":"North Carolina","lat":35.19512,"lng":-80.82606,"zip":"28207","miles_from_dt":12.88},{"city":"Charlotte","state_name":"North Carolina","lat":35.19296,"lng":-80.82631,"zip":"28201","miles_from_dt":12.97},{"city":"Matthews","state_name":"North Carolina","lat":35.12345,"lng":-80.7136,"zip":"28106","miles_from_dt":13},{"city":"Indian Trail","state_name":"North Carolina","lat":35.1132,"lng":-80.60183,"zip":"28079","miles_from_dt":13.18},{"city":"Matthews","state_name":"North Carolina","lat":35.11914,"lng":-80.71116,"zip":"28105","miles_from_dt":13.24},{"city":"Kannapolis","state_name":"North Carolina","lat":35.49108,"lng":-80.58092,"zip":"28083","miles_from_dt":13.45},{"city":"Charlotte","state_name":"North Carolina","lat":35.18909,"lng":-80.83384,"zip":"28274","miles_from_dt":13.47},{"city":"Stanfield","state_name":"North Carolina","lat":35.20702,"lng":-80.4285,"zip":"28163","miles_from_dt":13.6},{"city":"Kannapolis","state_name":"North Carolina","lat":35.50199,"lng":-80.67024,"zip":"28081","miles_from_dt":13.9},{"city":"Locust","state_name":"North Carolina","lat":35.29675,"lng":-80.39327,"zip":"28097","miles_from_dt":13.91},{"city":"Charlotte","state_name":"North Carolina","lat":35.20832,"lng":-80.8577,"zip":"28203","miles_from_dt":13.93},{"city":"Huntersville","state_name":"North Carolina","lat":35.4168,"lng":-80.84249,"zip":"28070","miles_from_dt":13.94},{"city":"Charlotte","state_name":"North Carolina","lat":35.21185,"lng":-80.86176,"zip":"28242","miles_from_dt":14.03},{"city":"Charlotte","state_name":"North Carolina","lat":35.31039,"lng":-80.8883,"zip":"28216","miles_from_dt":14.08},{"city":"Charlotte","state_name":"North Carolina","lat":35.19914,"lng":-80.85646,"zip":"28234","miles_from_dt":14.18},{"city":"Charlotte","state_name":"North Carolina","lat":35.21119,"lng":-80.86511,"zip":"28255","miles_from_dt":14.22},{"city":"Huntersville","state_name":"North Carolina","lat":35.40545,"lng":-80.86633,"zip":"28078","miles_from_dt":14.68},{"city":"Charlotte","state_name":"North Carolina","lat":35.1778,"lng":-80.85102,"zip":"28220","miles_from_dt":14.72},{"city":"Charlotte","state_name":"North Carolina","lat":35.17878,"lng":-80.85418,"zip":"28209","miles_from_dt":14.82},{"city":"Charlotte","state_name":"North Carolina","lat":35.10963,"lng":-80.76005,"zip":"28270","miles_from_dt":14.91},{"city":"Mount Pleasant","state_name":"North Carolina","lat":35.40136,"lng":-80.40406,"zip":"28124","miles_from_dt":14.95},{"city":"Davidson","state_name":"North Carolina","lat":35.48586,"lng":-80.79375,"zip":"28036","miles_from_dt":15.39},{"city":"Charlotte","state_name":"North Carolina","lat":35.0996,"lng":-80.77142,"zip":"28228","miles_from_dt":15.82},{"city":"Charlotte","state_name":"North Carolina","lat":35.23153,"lng":-80.90611,"zip":"28208","miles_from_dt":15.85},{"city":"Charlotte","state_name":"North Carolina","lat":35.23498,"lng":-80.9138,"zip":"28290","miles_from_dt":16.19},{"city":"Paw Creek","state_name":"North Carolina","lat":35.29085,"lng":-80.9293,"zip":"28130","miles_from_dt":16.41},{"city":"Landis","state_name":"North Carolina","lat":35.54437,"lng":-80.61463,"zip":"28088","miles_from_dt":16.77},{"city":"Charlotte","state_name":"North Carolina","lat":35.10767,"lng":-80.81837,"zip":"28226","miles_from_dt":16.79},{"city":"Charlotte","state_name":"North Carolina","lat":35.15106,"lng":-80.87343,"zip":"28224","miles_from_dt":16.84},{"city":"Charlotte","state_name":"North Carolina","lat":35.13018,"lng":-80.85368,"zip":"28287","miles_from_dt":16.95},{"city":"Matthews","state_name":"North Carolina","lat":35.06017,"lng":-80.69666,"zip":"28104","miles_from_dt":16.98},{"city":"Charlotte","state_name":"North Carolina","lat":35.12969,"lng":-80.8548,"zip":"28210","miles_from_dt":17.02},{"city":"Charlotte","state_name":"North Carolina","lat":35.10593,"lng":-80.82252,"zip":"28247","miles_from_dt":17.03},{"city":"Charlotte","state_name":"North Carolina","lat":35.22143,"lng":-80.92875,"zip":"28254","miles_from_dt":17.28},{"city":"Charlotte","state_name":"North Carolina","lat":35.223,"lng":-80.93036,"zip":"28258","miles_from_dt":17.33},{"city":"Monroe","state_name":"North Carolina","lat":35.06552,"lng":-80.52781,"zip":"28110","miles_from_dt":17.48},{"city":"Charlotte","state_name":"North Carolina","lat":35.17146,"lng":-80.9077,"zip":"28217","miles_from_dt":17.65},{"city":"Davidson","state_name":"North Carolina","lat":35.50603,"lng":-80.84164,"zip":"28035","miles_from_dt":18.12},{"city":"Oakboro","state_name":"North Carolina","lat":35.23224,"lng":-80.32737,"zip":"28129","miles_from_dt":18.28},{"city":"Charlotte","state_name":"North Carolina","lat":35.2069,"lng":-80.94164,"zip":"28219","miles_from_dt":18.31},{"city":"China Grove","state_name":"North Carolina","lat":35.56922,"lng":-80.60321,"zip":"28023","miles_from_dt":18.54},{"city":"Cornelius","state_name":"North Carolina","lat":35.47539,"lng":-80.89344,"zip":"28031","miles_from_dt":18.68},{"city":"Charlotte","state_name":"North Carolina","lat":35.27177,"lng":-80.96847,"zip":"28214","miles_from_dt":18.72},{"city":"Rockwell","state_name":"North Carolina","lat":35.52121,"lng":-80.44193,"zip":"28138","miles_from_dt":18.78},{"city":"Charlotte","state_name":"North Carolina","lat":35.05212,"lng":-80.81622,"zip":"28277","miles_from_dt":19.92},{"city":"Mount Mourne","state_name":"North Carolina","lat":35.54398,"lng":-80.84655,"zip":"28123","miles_from_dt":20.38},{"city":"Mooresville","state_name":"North Carolina","lat":35.58001,"lng":-80.77477,"zip":"28115","miles_from_dt":20.64},{"city":"Pineville","state_name":"North Carolina","lat":35.08364,"lng":-80.89125,"zip":"28134","miles_from_dt":20.73},{"city":"Charlotte","state_name":"North Carolina","lat":35.12624,"lng":-80.94469,"zip":"28273","miles_from_dt":21.1},{"city":"Charlotte","state_name":"North Carolina","lat":35.2901,"lng":-81.0131,"zip":"28236","miles_from_dt":21.14},{"city":"Mount Holly","state_name":"North Carolina","lat":35.33305,"lng":-81.02692,"zip":"28120","miles_from_dt":22.01},{"city":"Faith","state_name":"North Carolina","lat":35.58747,"lng":-80.46249,"zip":"28041","miles_from_dt":22.07},{"city":"Monroe","state_name":"North Carolina","lat":34.98367,"lng":-80.54919,"zip":"28111","miles_from_dt":22.52},{"city":"Gold Hill","state_name":"North Carolina","lat":35.51859,"lng":-80.32175,"zip":"28071","miles_from_dt":23.33},{"city":"Stanley","state_name":"North Carolina","lat":35.39091,"lng":-81.03846,"zip":"28164","miles_from_dt":23.37},{"city":"Belmont","state_name":"North Carolina","lat":35.21054,"lng":-81.04077,"zip":"28012","miles_from_dt":23.56},{"city":"Misenheimer","state_name":"North Carolina","lat":35.48609,"lng":-80.28628,"zip":"28109","miles_from_dt":23.63},{"city":"Mooresville","state_name":"North Carolina","lat":35.57405,"lng":-80.89658,"zip":"28117","miles_from_dt":23.72},{"city":"Charlotte","state_name":"North Carolina","lat":35.13063,"lng":-81.00753,"zip":"28278","miles_from_dt":23.95},{"city":"Granite Quarry","state_name":"North Carolina","lat":35.61326,"lng":-80.44241,"zip":"28072","miles_from_dt":24.17},{"city":"Albemarle","state_name":"North Carolina","lat":35.33594,"lng":-80.20419,"zip":"28001","miles_from_dt":24.7},{"city":"McAdenville","state_name":"North Carolina","lat":35.25703,"lng":-81.07572,"zip":"28101","miles_from_dt":24.86},{"city":"Mount Ulla","state_name":"North Carolina","lat":35.66061,"lng":-80.69949,"zip":"28125","miles_from_dt":24.96},{"city":"Fort Mill","state_name":"South Carolina","lat":34.98148,"lng":-80.85669,"zip":"29707","miles_from_dt":25.29},{"city":"Cramerton","state_name":"North Carolina","lat":35.23354,"lng":-81.07925,"zip":"28032","miles_from_dt":25.32},{"city":"Albemarle","state_name":"North Carolina","lat":35.35439,"lng":-80.19363,"zip":"28002","miles_from_dt":25.44},{"city":"Mineral Springs","state_name":"North Carolina","lat":34.93411,"lng":-80.67975,"zip":"28108","miles_from_dt":25.46},{"city":"Richfield","state_name":"North Carolina","lat":35.50009,"lng":-80.25783,"zip":"28137","miles_from_dt":25.5},{"city":"Denver","state_name":"North Carolina","lat":35.5064,"lng":-81.01712,"zip":"28037","miles_from_dt":25.56},{"city":"Wingate","state_name":"North Carolina","lat":34.96959,"lng":-80.4382,"zip":"28174","miles_from_dt":25.58},{"city":"Fort Mill","state_name":"South Carolina","lat":35.01028,"lng":-80.92752,"zip":"29715","miles_from_dt":25.89},{"city":"Salisbury","state_name":"North Carolina","lat":35.62194,"lng":-80.39563,"zip":"28146","miles_from_dt":25.99},{"city":"Lowell","state_name":"North Carolina","lat":35.27057,"lng":-81.09749,"zip":"28098","miles_from_dt":25.99},{"city":"Marshville","state_name":"North Carolina","lat":35.0037,"lng":-80.35316,"zip":"28103","miles_from_dt":26.17},{"city":"Fort Mill","state_name":"South Carolina","lat":35.04655,"lng":-80.98604,"zip":"29708","miles_from_dt":26.37},{"city":"Salisbury","state_name":"North Carolina","lat":35.67997,"lng":-80.56275,"zip":"28147","miles_from_dt":26.42},{"city":"Alexis","state_name":"North Carolina","lat":35.40664,"lng":-81.0926,"zip":"28006","miles_from_dt":26.6},{"city":"Fort Mill","state_name":"South Carolina","lat":35.00695,"lng":-80.94234,"zip":"29716","miles_from_dt":26.61},{"city":"Terrell","state_name":"North Carolina","lat":35.5838,"lng":-80.96369,"zip":"28682","miles_from_dt":26.69},{"city":"Salisbury","state_name":"North Carolina","lat":35.66126,"lng":-80.44721,"zip":"28145","miles_from_dt":27.04},{"city":"Waxhaw","state_name":"North Carolina","lat":34.91532,"lng":-80.73021,"zip":"28173","miles_from_dt":27.14},{"city":"Norwood","state_name":"North Carolina","lat":35.21476,"lng":-80.15862,"zip":"28128","miles_from_dt":27.84},{"city":"Gastonia","state_name":"North Carolina","lat":35.21768,"lng":-81.12503,"zip":"28056","miles_from_dt":28.07},{"city":"East Spencer","state_name":"North Carolina","lat":35.6803,"lng":-80.43626,"zip":"28039","miles_from_dt":28.49},{"city":"Iron Station","state_name":"North Carolina","lat":35.45269,"lng":-81.10995,"zip":"28080","miles_from_dt":28.53},{"city":"New London","state_name":"North Carolina","lat":35.44978,"lng":-80.16552,"zip":"28127","miles_from_dt":28.63},{"city":"Monroe","state_name":"North Carolina","lat":34.89355,"lng":-80.54113,"zip":"28112","miles_from_dt":28.7},{"city":"Gastonia","state_name":"North Carolina","lat":35.26128,"lng":-81.15072,"zip":"28054","miles_from_dt":29.05},{"city":"Sherrills Ford","state_name":"North Carolina","lat":35.60704,"lng":-80.99817,"zip":"28673","miles_from_dt":29.19},{"city":"Troutman","state_name":"North Carolina","lat":35.68025,"lng":-80.87528,"zip":"28166","miles_from_dt":29.28},{"city":"Spencer","state_name":"North Carolina","lat":35.69411,"lng":-80.43528,"zip":"28159","miles_from_dt":29.38},{"city":"Salisbury","state_name":"North Carolina","lat":35.70645,"lng":-80.46341,"zip":"28144","miles_from_dt":29.6}],"targetCityZipCode":"28075","targetCityState":"North Carolina"},"__N_SSG":true}