{"pageProps":{"stateName":"North-carolina","cityName":"king","nearbyCities":[{"city":"Rural Hall","state_name":"North Carolina","lat":36.23678,"lng":-80.29703,"zip":"27094","miles_from_dt":6.1},{"city":"Germanton","state_name":"North Carolina","lat":36.28604,"lng":-80.23548,"zip":"27019","miles_from_dt":6.18},{"city":"Rural Hall","state_name":"North Carolina","lat":36.23482,"lng":-80.29614,"zip":"27045","miles_from_dt":6.24},{"city":"Pinnacle","state_name":"North Carolina","lat":36.33709,"lng":-80.44917,"zip":"27043","miles_from_dt":6.3},{"city":"Rural Hall","state_name":"North Carolina","lat":36.22923,"lng":-80.3045,"zip":"27098","miles_from_dt":6.45},{"city":"Rural Hall","state_name":"North Carolina","lat":36.22858,"lng":-80.3032,"zip":"27099","miles_from_dt":6.51},{"city":"Tobaccoville","state_name":"North Carolina","lat":36.23608,"lng":-80.40116,"zip":"27050","miles_from_dt":6.68},{"city":"Pilot Mountain","state_name":"North Carolina","lat":36.41539,"lng":-80.48465,"zip":"27041","miles_from_dt":10.53},{"city":"Bethania","state_name":"North Carolina","lat":36.16581,"lng":-80.3695,"zip":"27010","miles_from_dt":10.67},{"city":"Westfield","state_name":"North Carolina","lat":36.47317,"lng":-80.34989,"zip":"27053","miles_from_dt":10.68},{"city":"Pfafftown","state_name":"North Carolina","lat":36.16869,"lng":-80.38969,"zip":"27040","miles_from_dt":10.72},{"city":"Walnut Cove","state_name":"North Carolina","lat":36.32259,"lng":-80.14552,"zip":"27052","miles_from_dt":10.78},{"city":"Danbury","state_name":"North Carolina","lat":36.44318,"lng":-80.2219,"zip":"27016","miles_from_dt":10.78},{"city":"Winston Salem","state_name":"North Carolina","lat":36.14255,"lng":-80.3228,"zip":"27106","miles_from_dt":12.17},{"city":"Winston Salem","state_name":"North Carolina","lat":36.16294,"lng":-80.23521,"zip":"27105","miles_from_dt":12.19},{"city":"East Bend","state_name":"North Carolina","lat":36.1978,"lng":-80.52096,"zip":"27018","miles_from_dt":13.16},{"city":"Winston Salem","state_name":"North Carolina","lat":36.13371,"lng":-80.27539,"zip":"27109","miles_from_dt":13.23},{"city":"Siloam","state_name":"North Carolina","lat":36.31178,"lng":-80.57786,"zip":"27047","miles_from_dt":13.36},{"city":"Walkertown","state_name":"North Carolina","lat":36.18728,"lng":-80.16012,"zip":"27051","miles_from_dt":13.47},{"city":"Ararat","state_name":"North Carolina","lat":36.38799,"lng":-80.59144,"zip":"27007","miles_from_dt":14.89},{"city":"Lawsonville","state_name":"North Carolina","lat":36.51409,"lng":-80.21739,"zip":"27022","miles_from_dt":15.08},{"city":"Winston Salem","state_name":"North Carolina","lat":36.09465,"lng":-80.32501,"zip":"27104","miles_from_dt":15.46},{"city":"Winston Salem","state_name":"North Carolina","lat":36.10789,"lng":-80.24059,"zip":"27120","miles_from_dt":15.53},{"city":"Belews Creek","state_name":"North Carolina","lat":36.23089,"lng":-80.07927,"zip":"27009","miles_from_dt":15.69},{"city":"Winston Salem","state_name":"North Carolina","lat":36.10324,"lng":-80.24369,"zip":"27114","miles_from_dt":15.77},{"city":"Winston Salem","state_name":"North Carolina","lat":36.10192,"lng":-80.24726,"zip":"27113","miles_from_dt":15.79},{"city":"Winston Salem","state_name":"North Carolina","lat":36.09941,"lng":-80.24996,"zip":"27115","miles_from_dt":15.9},{"city":"Winston Salem","state_name":"North Carolina","lat":36.0992,"lng":-80.24932,"zip":"27199","miles_from_dt":15.93},{"city":"Pine Hall","state_name":"North Carolina","lat":36.34177,"lng":-80.05434,"zip":"27042","miles_from_dt":15.94},{"city":"Winston Salem","state_name":"North Carolina","lat":36.10511,"lng":-80.2257,"zip":"27198","miles_from_dt":16.01},{"city":"Winston Salem","state_name":"North Carolina","lat":36.09889,"lng":-80.24389,"zip":"27111","miles_from_dt":16.05},{"city":"Winston Salem","state_name":"North Carolina","lat":36.09787,"lng":-80.24455,"zip":"27116","miles_from_dt":16.1},{"city":"Winston Salem","state_name":"North Carolina","lat":36.11089,"lng":-80.20288,"zip":"27102","miles_from_dt":16.2},{"city":"Winston Salem","state_name":"North Carolina","lat":36.11204,"lng":-80.19889,"zip":"27101","miles_from_dt":16.24},{"city":"Winston Salem","state_name":"North Carolina","lat":36.09083,"lng":-80.24794,"zip":"27108","miles_from_dt":16.5},{"city":"Winston Salem","state_name":"North Carolina","lat":36.10441,"lng":-80.20645,"zip":"27152","miles_from_dt":16.51},{"city":"Winston Salem","state_name":"North Carolina","lat":36.10368,"lng":-80.20772,"zip":"27150","miles_from_dt":16.52},{"city":"Winston Salem","state_name":"North Carolina","lat":36.10513,"lng":-80.2019,"zip":"27155","miles_from_dt":16.58},{"city":"Lewisville","state_name":"North Carolina","lat":36.09103,"lng":-80.45101,"zip":"27023","miles_from_dt":16.9},{"city":"Winston Salem","state_name":"North Carolina","lat":36.08919,"lng":-80.225,"zip":"27110","miles_from_dt":17.04},{"city":"Winston Salem","state_name":"North Carolina","lat":36.07783,"lng":-80.23874,"zip":"27117","miles_from_dt":17.51},{"city":"Winston Salem","state_name":"North Carolina","lat":36.0594,"lng":-80.32198,"zip":"27157","miles_from_dt":17.89},{"city":"Winston Salem","state_name":"North Carolina","lat":36.05822,"lng":-80.32125,"zip":"27103","miles_from_dt":17.98},{"city":"Winston Salem","state_name":"North Carolina","lat":36.05696,"lng":-80.32072,"zip":"27130","miles_from_dt":18.07},{"city":"Sandy Ridge","state_name":"North Carolina","lat":36.49228,"lng":-80.09223,"zip":"27046","miles_from_dt":18.22},{"city":"Mount Airy","state_name":"North Carolina","lat":36.44556,"lng":-80.63361,"zip":"27031","miles_from_dt":18.63},{"city":"Claudville","state_name":"Virginia","lat":36.59704,"lng":-80.42116,"zip":"24076","miles_from_dt":19.74},{"city":"Mount Airy","state_name":"North Carolina","lat":36.48836,"lng":-80.63013,"zip":"27030","miles_from_dt":20.03},{"city":"Kernersville","state_name":"North Carolina","lat":36.11818,"lng":-80.07794,"zip":"27284","miles_from_dt":20.08},{"city":"Kernersville","state_name":"North Carolina","lat":36.11372,"lng":-80.07706,"zip":"27285","miles_from_dt":20.32},{"city":"Toast","state_name":"North Carolina","lat":36.49624,"lng":-80.63293,"zip":"27049","miles_from_dt":20.47},{"city":"Stokesdale","state_name":"North Carolina","lat":36.26844,"lng":-79.97641,"zip":"27357","miles_from_dt":20.51},{"city":"Winston Salem","state_name":"North Carolina","lat":36.02028,"lng":-80.27847,"zip":"27127","miles_from_dt":20.84},{"city":"Madison","state_name":"North Carolina","lat":36.3771,"lng":-79.97148,"zip":"27025","miles_from_dt":20.87},{"city":"Boonville","state_name":"North Carolina","lat":36.21649,"lng":-80.69728,"zip":"27011","miles_from_dt":21.23},{"city":"Mayodan","state_name":"North Carolina","lat":36.4456,"lng":-79.98883,"zip":"27027","miles_from_dt":21.38},{"city":"Clemmons","state_name":"North Carolina","lat":36.00434,"lng":-80.37547,"zip":"27012","miles_from_dt":21.76},{"city":"Yadkinville","state_name":"North Carolina","lat":36.11382,"lng":-80.63586,"zip":"27055","miles_from_dt":21.8},{"city":"Oak Ridge","state_name":"North Carolina","lat":36.17294,"lng":-79.99159,"zip":"27310","miles_from_dt":21.83},{"city":"Winston Salem","state_name":"North Carolina","lat":36.01488,"lng":-80.17819,"zip":"27107","miles_from_dt":22.78},{"city":"Ararat","state_name":"Virginia","lat":36.60999,"lng":-80.53283,"zip":"24053","miles_from_dt":22.82},{"city":"Wallburg","state_name":"North Carolina","lat":36.01277,"lng":-80.1392,"zip":"27373","miles_from_dt":23.85},{"city":"Dobson","state_name":"North Carolina","lat":36.38141,"lng":-80.76052,"zip":"27017","miles_from_dt":23.93},{"city":"Colfax","state_name":"North Carolina","lat":36.09734,"lng":-80.00871,"zip":"27235","miles_from_dt":23.93},{"city":"Spencer","state_name":"Virginia","lat":36.58368,"lng":-80.05319,"zip":"24165","miles_from_dt":24.23},{"city":"Critz","state_name":"Virginia","lat":36.62923,"lng":-80.13204,"zip":"24082","miles_from_dt":24.31},{"city":"Stuart","state_name":"Virginia","lat":36.67095,"lng":-80.23835,"zip":"24171","miles_from_dt":24.93},{"city":"Greensboro","state_name":"North Carolina","lat":36.12729,"lng":-79.94276,"zip":"27425","miles_from_dt":25.75},{"city":"Stoneville","state_name":"North Carolina","lat":36.47611,"lng":-79.91295,"zip":"27048","miles_from_dt":26.09},{"city":"Summerfield","state_name":"North Carolina","lat":36.22723,"lng":-79.88124,"zip":"27358","miles_from_dt":26.3},{"city":"Advance","state_name":"North Carolina","lat":35.94352,"lng":-80.43673,"zip":"27006","miles_from_dt":26.44},{"city":"Cana","state_name":"Virginia","lat":36.60138,"lng":-80.66876,"zip":"24317","miles_from_dt":26.8},{"city":"Greensboro","state_name":"North Carolina","lat":36.09242,"lng":-79.94431,"zip":"27409","miles_from_dt":26.99},{"city":"Greensboro","state_name":"North Carolina","lat":36.0786,"lng":-79.95644,"zip":"27497","miles_from_dt":27.02},{"city":"Patrick Springs","state_name":"Virginia","lat":36.67563,"lng":-80.12794,"zip":"24133","miles_from_dt":27.27},{"city":"High Point","state_name":"North Carolina","lat":36.00947,"lng":-80.03272,"zip":"27265","miles_from_dt":27.33},{"city":"Jonesville","state_name":"North Carolina","lat":36.22433,"lng":-80.81628,"zip":"28642","miles_from_dt":27.45},{"city":"Greensboro","state_name":"North Carolina","lat":36.06759,"lng":-79.95265,"zip":"27417","miles_from_dt":27.65},{"city":"Elkin","state_name":"North Carolina","lat":36.30863,"lng":-80.83612,"zip":"28621","miles_from_dt":27.77},{"city":"Meadows Of Dan","state_name":"Virginia","lat":36.71891,"lng":-80.41277,"zip":"24120","miles_from_dt":27.91},{"city":"Welcome","state_name":"North Carolina","lat":35.91752,"lng":-80.25777,"zip":"27374","miles_from_dt":28.02},{"city":"Vesta","state_name":"Virginia","lat":36.72266,"lng":-80.40026,"zip":"24177","miles_from_dt":28.07},{"city":"Greensboro","state_name":"North Carolina","lat":36.11826,"lng":-79.89223,"zip":"27410","miles_from_dt":28.51},{"city":"State Road","state_name":"North Carolina","lat":36.3283,"lng":-80.85722,"zip":"28676","miles_from_dt":28.94},{"city":"Laurel Fork","state_name":"Virginia","lat":36.71547,"lng":-80.53437,"zip":"24352","miles_from_dt":29.46},{"city":"High Point","state_name":"North Carolina","lat":35.96191,"lng":-80.03845,"zip":"27262","miles_from_dt":29.78},{"city":"Lambsburg","state_name":"Virginia","lat":36.58081,"lng":-80.76591,"zip":"24351","miles_from_dt":29.89}],"targetCityZipCode":"27021","targetCityState":"North Carolina"},"__N_SSG":true}