{"pageProps":{"stateName":"North-carolina","cityName":"laurinburg","nearbyCities":[{"city":"Laurinburg","state_name":"North Carolina","lat":34.77702,"lng":-79.46508,"zip":"28353","miles_from_dt":0.94},{"city":"Gibson","state_name":"North Carolina","lat":34.76454,"lng":-79.58129,"zip":"28343","miles_from_dt":7.29},{"city":"Laurel Hill","state_name":"North Carolina","lat":34.84098,"lng":-79.56102,"zip":"28351","miles_from_dt":7.95},{"city":"Maxton","state_name":"North Carolina","lat":34.71447,"lng":-79.32759,"zip":"28364","miles_from_dt":8.03},{"city":"McColl","state_name":"South Carolina","lat":34.67495,"lng":-79.5624,"zip":"29570","miles_from_dt":8.91},{"city":"Tatum","state_name":"South Carolina","lat":34.64017,"lng":-79.57728,"zip":"29594","miles_from_dt":11.27},{"city":"Wagram","state_name":"North Carolina","lat":34.93948,"lng":-79.40971,"zip":"28396","miles_from_dt":12.1},{"city":"Marston","state_name":"North Carolina","lat":34.95772,"lng":-79.53384,"zip":"28363","miles_from_dt":13.88},{"city":"Clio","state_name":"South Carolina","lat":34.5722,"lng":-79.53327,"zip":"29525","miles_from_dt":14.22},{"city":"Red Springs","state_name":"North Carolina","lat":34.83526,"lng":-79.21282,"zip":"28377","miles_from_dt":14.44},{"city":"Hamlet","state_name":"North Carolina","lat":34.87464,"lng":-79.6716,"zip":"28345","miles_from_dt":14.44},{"city":"Little Rock","state_name":"South Carolina","lat":34.55325,"lng":-79.42649,"zip":"29567","miles_from_dt":14.85},{"city":"Pembroke","state_name":"North Carolina","lat":34.69991,"lng":-79.1786,"zip":"28372","miles_from_dt":16.31},{"city":"Rowland","state_name":"North Carolina","lat":34.57553,"lng":-79.26856,"zip":"28383","miles_from_dt":16.91},{"city":"Bennettsville","state_name":"South Carolina","lat":34.62733,"lng":-79.71091,"zip":"29512","miles_from_dt":17.57},{"city":"Shannon","state_name":"North Carolina","lat":34.85889,"lng":-79.12984,"zip":"28386","miles_from_dt":19.43},{"city":"Hoffman","state_name":"North Carolina","lat":35.04652,"lng":-79.56203,"zip":"28347","miles_from_dt":20.19},{"city":"Hamer","state_name":"South Carolina","lat":34.48684,"lng":-79.33243,"zip":"29547","miles_from_dt":20.54},{"city":"Rockingham","state_name":"North Carolina","lat":34.94305,"lng":-79.76084,"zip":"28380","miles_from_dt":21.26},{"city":"Rockingham","state_name":"North Carolina","lat":34.93073,"lng":-79.78252,"zip":"28379","miles_from_dt":21.83},{"city":"Wallace","state_name":"South Carolina","lat":34.74456,"lng":-79.83978,"zip":"29596","miles_from_dt":22.05},{"city":"Pinebluff","state_name":"North Carolina","lat":35.09079,"lng":-79.48522,"zip":"28373","miles_from_dt":22.35},{"city":"Lumberton","state_name":"North Carolina","lat":34.67588,"lng":-79.07582,"zip":"28360","miles_from_dt":22.39},{"city":"Lumber Bridge","state_name":"North Carolina","lat":34.90606,"lng":-79.08688,"zip":"28357","miles_from_dt":22.9},{"city":"Cordova","state_name":"North Carolina","lat":34.91077,"lng":-79.82332,"zip":"28330","miles_from_dt":23.23},{"city":"Raeford","state_name":"North Carolina","lat":35.052,"lng":-79.23342,"zip":"28376","miles_from_dt":23.24},{"city":"Rex","state_name":"North Carolina","lat":34.85872,"lng":-79.0506,"zip":"28378","miles_from_dt":23.74},{"city":"Aberdeen","state_name":"North Carolina","lat":35.1122,"lng":-79.44452,"zip":"28315","miles_from_dt":23.76},{"city":"Blenheim","state_name":"South Carolina","lat":34.44323,"lng":-79.62414,"zip":"29516","miles_from_dt":24.39},{"city":"Dillon","state_name":"South Carolina","lat":34.41911,"lng":-79.37241,"zip":"29536","miles_from_dt":24.46},{"city":"Lumberton","state_name":"North Carolina","lat":34.58686,"lng":-79.05475,"zip":"28359","miles_from_dt":25.89},{"city":"Fairmont","state_name":"North Carolina","lat":34.47136,"lng":-79.1403,"zip":"28340","miles_from_dt":27.11},{"city":"Cheraw","state_name":"South Carolina","lat":34.68083,"lng":-79.92601,"zip":"29520","miles_from_dt":27.57},{"city":"Parkton","state_name":"North Carolina","lat":34.9079,"lng":-78.99018,"zip":"28371","miles_from_dt":28.04},{"city":"Latta","state_name":"South Carolina","lat":34.35841,"lng":-79.50457,"zip":"29565","miles_from_dt":28.36},{"city":"Ellerbe","state_name":"North Carolina","lat":35.09644,"lng":-79.75506,"zip":"28338","miles_from_dt":28.42},{"city":"Pinehurst","state_name":"North Carolina","lat":35.18208,"lng":-79.46043,"zip":"28370","miles_from_dt":28.57},{"city":"Saint Pauls","state_name":"North Carolina","lat":34.79687,"lng":-78.95035,"zip":"28384","miles_from_dt":28.67},{"city":"Southern Pines","state_name":"North Carolina","lat":35.18181,"lng":-79.4019,"zip":"28388","miles_from_dt":28.7},{"city":"Southern Pines","state_name":"North Carolina","lat":35.18059,"lng":-79.37566,"zip":"28387","miles_from_dt":28.81},{"city":"Society Hill","state_name":"South Carolina","lat":34.49462,"lng":-79.85429,"zip":"29593","miles_from_dt":29.6},{"city":"Pinehurst","state_name":"North Carolina","lat":35.19705,"lng":-79.46009,"zip":"28374","miles_from_dt":29.61},{"city":"McFarlan","state_name":"North Carolina","lat":34.81482,"lng":-79.97663,"zip":"28102","miles_from_dt":29.94}],"targetCityZipCode":"28352","targetCityState":"North Carolina"},"__N_SSG":true}