{"pageProps":{"stateName":"North-carolina","cityName":"liberty","nearbyCities":[{"city":"Julian","state_name":"North Carolina","lat":35.95293,"lng":-79.63621,"zip":"27283","miles_from_dt":6.01},{"city":"Staley","state_name":"North Carolina","lat":35.78859,"lng":-79.5678,"zip":"27355","miles_from_dt":6.69},{"city":"Climax","state_name":"North Carolina","lat":35.8882,"lng":-79.6988,"zip":"27233","miles_from_dt":7.33},{"city":"Snow Camp","state_name":"North Carolina","lat":35.89845,"lng":-79.41202,"zip":"27349","miles_from_dt":8.8},{"city":"Greensboro","state_name":"North Carolina","lat":35.97913,"lng":-79.70883,"zip":"27419","miles_from_dt":10.19},{"city":"Franklinville","state_name":"North Carolina","lat":35.78916,"lng":-79.70953,"zip":"27248","miles_from_dt":10.35},{"city":"Whitsett","state_name":"North Carolina","lat":36.03728,"lng":-79.60221,"zip":"27377","miles_from_dt":10.63},{"city":"Pleasant Garden","state_name":"North Carolina","lat":35.92892,"lng":-79.75142,"zip":"27313","miles_from_dt":10.7},{"city":"Burlington","state_name":"North Carolina","lat":36.03055,"lng":-79.48729,"zip":"27215","miles_from_dt":10.97},{"city":"Alamance","state_name":"North Carolina","lat":36.03258,"lng":-79.48418,"zip":"27201","miles_from_dt":11.17},{"city":"Sedalia","state_name":"North Carolina","lat":36.06641,"lng":-79.6186,"zip":"27342","miles_from_dt":12.78},{"city":"Cedar Falls","state_name":"North Carolina","lat":35.75286,"lng":-79.73163,"zip":"27230","miles_from_dt":12.96},{"city":"Siler City","state_name":"North Carolina","lat":35.7289,"lng":-79.43366,"zip":"27344","miles_from_dt":13.18},{"city":"Graham","state_name":"North Carolina","lat":35.96239,"lng":-79.34581,"zip":"27253","miles_from_dt":13.55},{"city":"Greensboro","state_name":"North Carolina","lat":35.9982,"lng":-79.76686,"zip":"27406","miles_from_dt":13.58},{"city":"Greensboro","state_name":"North Carolina","lat":36.00231,"lng":-79.76409,"zip":"27416","miles_from_dt":13.62},{"city":"Randleman","state_name":"North Carolina","lat":35.83809,"lng":-79.80376,"zip":"27317","miles_from_dt":13.62},{"city":"Ramseur","state_name":"North Carolina","lat":35.68996,"lng":-79.62366,"zip":"27316","miles_from_dt":13.85},{"city":"Greensboro","state_name":"North Carolina","lat":36.07893,"lng":-79.64581,"zip":"27415","miles_from_dt":14.02},{"city":"Saxapahaw","state_name":"North Carolina","lat":35.94557,"lng":-79.31141,"zip":"27340","miles_from_dt":14.98},{"city":"Swepsonville","state_name":"North Carolina","lat":36.03414,"lng":-79.36838,"zip":"27359","miles_from_dt":15.17},{"city":"Burlington","state_name":"North Carolina","lat":36.08169,"lng":-79.4127,"zip":"27216","miles_from_dt":16.08},{"city":"Asheboro","state_name":"North Carolina","lat":35.73253,"lng":-79.78857,"zip":"27203","miles_from_dt":16.27},{"city":"McLeansville","state_name":"North Carolina","lat":36.11512,"lng":-79.66755,"zip":"27301","miles_from_dt":16.77},{"city":"Greensboro","state_name":"North Carolina","lat":36.0689,"lng":-79.76662,"zip":"27427","miles_from_dt":16.83},{"city":"Greensboro","state_name":"North Carolina","lat":36.07058,"lng":-79.76615,"zip":"27499","miles_from_dt":16.9},{"city":"Greensboro","state_name":"North Carolina","lat":36.06995,"lng":-79.76724,"zip":"27401","miles_from_dt":16.91},{"city":"Haw River","state_name":"North Carolina","lat":36.03401,"lng":-79.32623,"zip":"27258","miles_from_dt":16.99},{"city":"Greensboro","state_name":"North Carolina","lat":36.072,"lng":-79.76791,"zip":"27498","miles_from_dt":17.04},{"city":"Greensboro","state_name":"North Carolina","lat":36.07665,"lng":-79.77157,"zip":"27411","miles_from_dt":17.42},{"city":"Greensboro","state_name":"North Carolina","lat":36.05575,"lng":-79.80426,"zip":"27438","miles_from_dt":17.68},{"city":"Greensboro","state_name":"North Carolina","lat":36.07176,"lng":-79.79103,"zip":"27402","miles_from_dt":17.91},{"city":"Greensboro","state_name":"North Carolina","lat":36.10862,"lng":-79.73791,"zip":"27495","miles_from_dt":18.08},{"city":"Greensboro","state_name":"North Carolina","lat":36.11373,"lng":-79.73463,"zip":"27405","miles_from_dt":18.28},{"city":"Greensboro","state_name":"North Carolina","lat":36.06873,"lng":-79.81028,"zip":"27413","miles_from_dt":18.53},{"city":"Greensboro","state_name":"North Carolina","lat":36.06903,"lng":-79.81062,"zip":"27412","miles_from_dt":18.56},{"city":"Bonlee","state_name":"North Carolina","lat":35.6473,"lng":-79.40454,"zip":"27213","miles_from_dt":18.83},{"city":"Sophia","state_name":"North Carolina","lat":35.80631,"lng":-79.88917,"zip":"27350","miles_from_dt":18.83},{"city":"Gibsonville","state_name":"North Carolina","lat":36.16014,"lng":-79.58134,"zip":"27249","miles_from_dt":18.94},{"city":"Greensboro","state_name":"North Carolina","lat":36.06406,"lng":-79.82538,"zip":"27403","miles_from_dt":18.95},{"city":"Greensboro","state_name":"North Carolina","lat":36.06452,"lng":-79.82698,"zip":"27435","miles_from_dt":19.04},{"city":"Greensboro","state_name":"North Carolina","lat":36.01124,"lng":-79.87588,"zip":"27407","miles_from_dt":19.3},{"city":"Greensboro","state_name":"North Carolina","lat":36.06467,"lng":-79.84391,"zip":"27420","miles_from_dt":19.78},{"city":"Greensboro","state_name":"North Carolina","lat":36.09345,"lng":-79.81275,"zip":"27429","miles_from_dt":19.83},{"city":"Asheboro","state_name":"North Carolina","lat":35.66844,"lng":-79.80847,"zip":"27204","miles_from_dt":20.16},{"city":"Greensboro","state_name":"North Carolina","lat":36.08483,"lng":-79.83277,"zip":"27404","miles_from_dt":20.21},{"city":"Greensboro","state_name":"North Carolina","lat":36.10321,"lng":-79.81411,"zip":"27408","miles_from_dt":20.37},{"city":"High Point","state_name":"North Carolina","lat":35.90931,"lng":-79.93829,"zip":"27263","miles_from_dt":20.83},{"city":"Altamahaw","state_name":"North Carolina","lat":36.18565,"lng":-79.50594,"zip":"27202","miles_from_dt":20.98},{"city":"Jamestown","state_name":"North Carolina","lat":35.99656,"lng":-79.92869,"zip":"27282","miles_from_dt":21.61},{"city":"Bear Creek","state_name":"North Carolina","lat":35.6064,"lng":-79.38893,"zip":"27207","miles_from_dt":21.73},{"city":"Bennett","state_name":"North Carolina","lat":35.56246,"lng":-79.54231,"zip":"27208","miles_from_dt":22.33},{"city":"Pittsboro","state_name":"North Carolina","lat":35.75446,"lng":-79.19648,"zip":"27312","miles_from_dt":22.75},{"city":"Elon","state_name":"North Carolina","lat":36.21402,"lng":-79.48747,"zip":"27244","miles_from_dt":23.09},{"city":"Asheboro","state_name":"North Carolina","lat":35.6399,"lng":-79.85094,"zip":"27205","miles_from_dt":23.23},{"city":"Chapel Hill","state_name":"North Carolina","lat":35.91239,"lng":-79.15156,"zip":"27516","miles_from_dt":23.44},{"city":"Burlington","state_name":"North Carolina","lat":36.19221,"lng":-79.38404,"zip":"27217","miles_from_dt":23.52},{"city":"Browns Summit","state_name":"North Carolina","lat":36.21407,"lng":-79.68283,"zip":"27214","miles_from_dt":23.54},{"city":"High Point","state_name":"North Carolina","lat":35.95473,"lng":-79.98697,"zip":"27260","miles_from_dt":23.97},{"city":"Greensboro","state_name":"North Carolina","lat":36.11826,"lng":-79.89223,"zip":"27410","miles_from_dt":24.23},{"city":"Mebane","state_name":"North Carolina","lat":36.13749,"lng":-79.2647,"zip":"27302","miles_from_dt":24.3},{"city":"Trinity","state_name":"North Carolina","lat":35.8116,"lng":-79.99133,"zip":"27370","miles_from_dt":24.3},{"city":"Greensboro","state_name":"North Carolina","lat":36.18283,"lng":-79.80794,"zip":"27455","miles_from_dt":24.5},{"city":"High Point","state_name":"North Carolina","lat":35.97139,"lng":-79.99471,"zip":"27268","miles_from_dt":24.64},{"city":"Efland","state_name":"North Carolina","lat":36.07821,"lng":-79.1945,"zip":"27243","miles_from_dt":24.79},{"city":"High Point","state_name":"North Carolina","lat":35.98051,"lng":-79.99583,"zip":"27264","miles_from_dt":24.86},{"city":"Greensboro","state_name":"North Carolina","lat":36.06759,"lng":-79.95265,"zip":"27417","miles_from_dt":24.93},{"city":"High Point","state_name":"North Carolina","lat":35.97534,"lng":-79.99949,"zip":"27261","miles_from_dt":24.96},{"city":"Bynum","state_name":"North Carolina","lat":35.77262,"lng":-79.13782,"zip":"27228","miles_from_dt":25.39},{"city":"Goldston","state_name":"North Carolina","lat":35.56033,"lng":-79.35563,"zip":"27252","miles_from_dt":25.41},{"city":"Greensboro","state_name":"North Carolina","lat":36.09242,"lng":-79.94431,"zip":"27409","miles_from_dt":25.45},{"city":"Greensboro","state_name":"North Carolina","lat":36.0786,"lng":-79.95644,"zip":"27497","miles_from_dt":25.5},{"city":"Seagrove","state_name":"North Carolina","lat":35.52467,"lng":-79.70014,"zip":"27341","miles_from_dt":25.97},{"city":"Greensboro","state_name":"North Carolina","lat":36.12729,"lng":-79.94276,"zip":"27425","miles_from_dt":26.8},{"city":"High Point","state_name":"North Carolina","lat":35.96191,"lng":-80.03845,"zip":"27262","miles_from_dt":26.89},{"city":"Highfalls","state_name":"North Carolina","lat":35.49149,"lng":-79.52624,"zip":"27259","miles_from_dt":27.28},{"city":"Carrboro","state_name":"North Carolina","lat":35.91147,"lng":-79.08211,"zip":"27510","miles_from_dt":27.32},{"city":"High Point","state_name":"North Carolina","lat":36.00947,"lng":-80.03272,"zip":"27265","miles_from_dt":27.41},{"city":"Gulf","state_name":"North Carolina","lat":35.56058,"lng":-79.2725,"zip":"27256","miles_from_dt":27.9},{"city":"Colfax","state_name":"North Carolina","lat":36.09734,"lng":-80.00871,"zip":"27235","miles_from_dt":28.68},{"city":"Chapel Hill","state_name":"North Carolina","lat":35.91022,"lng":-79.05461,"zip":"27515","miles_from_dt":28.86},{"city":"Chapel Hill","state_name":"North Carolina","lat":35.90394,"lng":-79.05234,"zip":"27599","miles_from_dt":28.96},{"city":"Robbins","state_name":"North Carolina","lat":35.46236,"lng":-79.57249,"zip":"27325","miles_from_dt":29.18},{"city":"Summerfield","state_name":"North Carolina","lat":36.22723,"lng":-79.88124,"zip":"27358","miles_from_dt":29.36},{"city":"Cumnock","state_name":"North Carolina","lat":35.55472,"lng":-79.23806,"zip":"27237","miles_from_dt":29.41},{"city":"Thomasville","state_name":"North Carolina","lat":35.87601,"lng":-80.09968,"zip":"27361","miles_from_dt":29.83},{"city":"Thomasville","state_name":"North Carolina","lat":35.85684,"lng":-80.09987,"zip":"27360","miles_from_dt":29.9},{"city":"Chapel Hill","state_name":"North Carolina","lat":35.96776,"lng":-79.04406,"zip":"27514","miles_from_dt":29.93}],"targetCityZipCode":"27298","targetCityState":"North Carolina"},"__N_SSG":true}