{"pageProps":{"stateName":"North-carolina","cityName":"lumberton","nearbyCities":[{"city":"Lumberton","state_name":"North Carolina","lat":34.58686,"lng":-79.05475,"zip":"28359","miles_from_dt":6.61},{"city":"Lumberton","state_name":"North Carolina","lat":34.67588,"lng":-79.07582,"zip":"28360","miles_from_dt":9.09},{"city":"Bladenboro","state_name":"North Carolina","lat":34.55378,"lng":-78.77456,"zip":"28320","miles_from_dt":10.13},{"city":"Proctorville","state_name":"North Carolina","lat":34.47723,"lng":-79.04337,"zip":"28375","miles_from_dt":10.58},{"city":"Tar Heel","state_name":"North Carolina","lat":34.73467,"lng":-78.79465,"zip":"28392","miles_from_dt":12.21},{"city":"Evergreen","state_name":"North Carolina","lat":34.4166,"lng":-78.92221,"zip":"28438","miles_from_dt":13.05},{"city":"Saint Pauls","state_name":"North Carolina","lat":34.79687,"lng":-78.95035,"zip":"28384","miles_from_dt":13.22},{"city":"Orrum","state_name":"North Carolina","lat":34.42184,"lng":-79.02901,"zip":"28369","miles_from_dt":13.61},{"city":"Dublin","state_name":"North Carolina","lat":34.65808,"lng":-78.70971,"zip":"28332","miles_from_dt":13.67},{"city":"Fairmont","state_name":"North Carolina","lat":34.47136,"lng":-79.1403,"zip":"28340","miles_from_dt":14.64},{"city":"Pembroke","state_name":"North Carolina","lat":34.69991,"lng":-79.1786,"zip":"28372","miles_from_dt":15.03},{"city":"Barnesville","state_name":"North Carolina","lat":34.38429,"lng":-79.06613,"zip":"28319","miles_from_dt":16.82},{"city":"White Oak","state_name":"North Carolina","lat":34.77885,"lng":-78.72953,"zip":"28399","miles_from_dt":16.97},{"city":"Rex","state_name":"North Carolina","lat":34.85872,"lng":-79.0506,"zip":"28378","miles_from_dt":18.55},{"city":"Rowland","state_name":"North Carolina","lat":34.57553,"lng":-79.26856,"zip":"28383","miles_from_dt":18.79},{"city":"Marietta","state_name":"North Carolina","lat":34.36961,"lng":-79.12882,"zip":"28362","miles_from_dt":19.46},{"city":"Clarkton","state_name":"North Carolina","lat":34.48979,"lng":-78.62598,"zip":"28433","miles_from_dt":19.65},{"city":"Shannon","state_name":"North Carolina","lat":34.85889,"lng":-79.12984,"zip":"28386","miles_from_dt":20.52},{"city":"Chadbourn","state_name":"North Carolina","lat":34.31661,"lng":-78.84397,"zip":"28431","miles_from_dt":20.65},{"city":"Parkton","state_name":"North Carolina","lat":34.9079,"lng":-78.99018,"zip":"28371","miles_from_dt":21.05},{"city":"Elizabethtown","state_name":"North Carolina","lat":34.66094,"lng":-78.57733,"zip":"28337","miles_from_dt":21.07},{"city":"Fair Bluff","state_name":"North Carolina","lat":34.29411,"lng":-79.00947,"zip":"28439","miles_from_dt":21.8},{"city":"Cerro Gordo","state_name":"North Carolina","lat":34.28419,"lng":-78.93333,"zip":"28430","miles_from_dt":22.14},{"city":"Red Springs","state_name":"North Carolina","lat":34.83526,"lng":-79.21282,"zip":"28377","miles_from_dt":22.15},{"city":"Hope Mills","state_name":"North Carolina","lat":34.92691,"lng":-78.91313,"zip":"28348","miles_from_dt":22.23},{"city":"Lumber Bridge","state_name":"North Carolina","lat":34.90606,"lng":-79.08688,"zip":"28357","miles_from_dt":22.33},{"city":"Lake View","state_name":"South Carolina","lat":34.35301,"lng":-79.2044,"zip":"29563","miles_from_dt":22.99},{"city":"Maxton","state_name":"North Carolina","lat":34.71447,"lng":-79.32759,"zip":"28364","miles_from_dt":23.27},{"city":"Hamer","state_name":"South Carolina","lat":34.48684,"lng":-79.33243,"zip":"29547","miles_from_dt":23.77},{"city":"Fayetteville","state_name":"North Carolina","lat":34.9582,"lng":-78.89487,"zip":"28306","miles_from_dt":24.47},{"city":"Brunswick","state_name":"North Carolina","lat":34.29032,"lng":-78.69971,"zip":"28424","miles_from_dt":25.71},{"city":"Whiteville","state_name":"North Carolina","lat":34.29707,"lng":-78.68452,"zip":"28472","miles_from_dt":25.8},{"city":"Fayetteville","state_name":"North Carolina","lat":34.94713,"lng":-78.73225,"zip":"28312","miles_from_dt":26.39},{"city":"Dillon","state_name":"South Carolina","lat":34.41911,"lng":-79.37241,"zip":"29536","miles_from_dt":27.76},{"city":"Little Rock","state_name":"South Carolina","lat":34.55325,"lng":-79.42649,"zip":"29567","miles_from_dt":27.91},{"city":"Hallsboro","state_name":"North Carolina","lat":34.31023,"lng":-78.60106,"zip":"28442","miles_from_dt":28.11},{"city":"Council","state_name":"North Carolina","lat":34.47154,"lng":-78.47479,"zip":"28434","miles_from_dt":28.14},{"city":"Fork","state_name":"South Carolina","lat":34.28759,"lng":-79.26591,"zip":"29543","miles_from_dt":28.7},{"city":"Fayetteville","state_name":"North Carolina","lat":35.02498,"lng":-78.99072,"zip":"28304","miles_from_dt":29.07},{"city":"Fayetteville","state_name":"North Carolina","lat":35.03326,"lng":-78.92904,"zip":"28302","miles_from_dt":29.51},{"city":"Nichols","state_name":"South Carolina","lat":34.19864,"lng":-79.11295,"zip":"29581","miles_from_dt":29.7}],"targetCityZipCode":"28358","targetCityState":"North Carolina"},"__N_SSG":true}