{"pageProps":{"stateName":"North-carolina","cityName":"mars-hill","nearbyCities":[{"city":"Barnardsville","state_name":"North Carolina","lat":35.76321,"lng":-82.40428,"zip":"28709","miles_from_dt":9.99},{"city":"Flag Pond","state_name":"Tennessee","lat":36.01725,"lng":-82.56057,"zip":"37657","miles_from_dt":10.01},{"city":"Weaverville","state_name":"North Carolina","lat":35.72795,"lng":-82.52306,"zip":"28787","miles_from_dt":10.28},{"city":"Marshall","state_name":"North Carolina","lat":35.87181,"lng":-82.7002,"zip":"28753","miles_from_dt":10.43},{"city":"Burnsville","state_name":"North Carolina","lat":35.87739,"lng":-82.30714,"zip":"28714","miles_from_dt":11.63},{"city":"Alexander","state_name":"North Carolina","lat":35.70558,"lng":-82.64096,"zip":"28701","miles_from_dt":13.79},{"city":"Erwin","state_name":"Tennessee","lat":36.10416,"lng":-82.45938,"zip":"37650","miles_from_dt":15.97},{"city":"Asheville","state_name":"North Carolina","lat":35.64814,"lng":-82.5612,"zip":"28804","miles_from_dt":15.99},{"city":"Green Mountain","state_name":"North Carolina","lat":36.04118,"lng":-82.30287,"zip":"28740","miles_from_dt":16.4},{"city":"Micaville","state_name":"North Carolina","lat":35.90825,"lng":-82.21756,"zip":"28755","miles_from_dt":16.79},{"city":"Asheville","state_name":"North Carolina","lat":35.62368,"lng":-82.55448,"zip":"28814","miles_from_dt":17.61},{"city":"Asheville","state_name":"North Carolina","lat":35.61528,"lng":-82.47923,"zip":"28805","miles_from_dt":18.15},{"city":"Swannanoa","state_name":"North Carolina","lat":35.61667,"lng":-82.40768,"zip":"28778","miles_from_dt":18.92},{"city":"Asheville","state_name":"North Carolina","lat":35.59441,"lng":-82.55785,"zip":"28801","miles_from_dt":19.63},{"city":"Montreat","state_name":"North Carolina","lat":35.64781,"lng":-82.30006,"zip":"28757","miles_from_dt":19.87},{"city":"Leicester","state_name":"North Carolina","lat":35.65492,"lng":-82.76032,"zip":"28748","miles_from_dt":20.62},{"city":"Asheville","state_name":"North Carolina","lat":35.57562,"lng":-82.54563,"zip":"28815","miles_from_dt":20.85},{"city":"Asheville","state_name":"North Carolina","lat":35.58178,"lng":-82.60141,"zip":"28816","miles_from_dt":20.93},{"city":"Asheville","state_name":"North Carolina","lat":35.57154,"lng":-82.61386,"zip":"28806","miles_from_dt":21.79},{"city":"Ridgecrest","state_name":"North Carolina","lat":35.62104,"lng":-82.2782,"zip":"28770","miles_from_dt":22.08},{"city":"Asheville","state_name":"North Carolina","lat":35.56733,"lng":-82.61473,"zip":"28810","miles_from_dt":22.08},{"city":"Hot Springs","state_name":"North Carolina","lat":35.80869,"lng":-82.90114,"zip":"28743","miles_from_dt":22.21},{"city":"Asheville","state_name":"North Carolina","lat":35.55447,"lng":-82.51072,"zip":"28813","miles_from_dt":22.23},{"city":"Penland","state_name":"North Carolina","lat":35.92802,"lng":-82.11699,"zip":"28765","miles_from_dt":22.57},{"city":"Bakersville","state_name":"North Carolina","lat":36.04349,"lng":-82.1573,"zip":"28705","miles_from_dt":23.08},{"city":"Black Mountain","state_name":"North Carolina","lat":35.59666,"lng":-82.28767,"zip":"28711","miles_from_dt":23.15},{"city":"Greeneville","state_name":"Tennessee","lat":36.06663,"lng":-82.85659,"zip":"37743","miles_from_dt":23.21},{"city":"Little Switzerland","state_name":"North Carolina","lat":35.84098,"lng":-82.09797,"zip":"28749","miles_from_dt":23.5},{"city":"Chuckey","state_name":"Tennessee","lat":36.20015,"lng":-82.66306,"zip":"37641","miles_from_dt":23.79},{"city":"Asheville","state_name":"North Carolina","lat":35.52949,"lng":-82.52007,"zip":"28803","miles_from_dt":23.96},{"city":"Enka","state_name":"North Carolina","lat":35.54141,"lng":-82.64364,"zip":"28728","miles_from_dt":24.25},{"city":"Unicoi","state_name":"Tennessee","lat":36.18456,"lng":-82.30413,"zip":"37692","miles_from_dt":24.26},{"city":"Old Fort","state_name":"North Carolina","lat":35.63517,"lng":-82.18929,"zip":"28762","miles_from_dt":24.73},{"city":"Spruce Pine","state_name":"North Carolina","lat":35.90833,"lng":-82.06617,"zip":"28777","miles_from_dt":25.24},{"city":"Fairview","state_name":"North Carolina","lat":35.52792,"lng":-82.37588,"zip":"28730","miles_from_dt":25.29},{"city":"Greeneville","state_name":"Tennessee","lat":36.16334,"lng":-82.81243,"zip":"37744","miles_from_dt":25.86},{"city":"Telford","state_name":"Tennessee","lat":36.25124,"lng":-82.55895,"zip":"37690","miles_from_dt":25.93},{"city":"Asheville","state_name":"North Carolina","lat":35.49867,"lng":-82.5384,"zip":"28802","miles_from_dt":26.12},{"city":"Limestone","state_name":"Tennessee","lat":36.25465,"lng":-82.62672,"zip":"37681","miles_from_dt":26.79},{"city":"Skyland","state_name":"North Carolina","lat":35.48201,"lng":-82.52391,"zip":"28776","miles_from_dt":27.23},{"city":"Afton","state_name":"Tennessee","lat":36.22619,"lng":-82.7498,"zip":"37616","miles_from_dt":27.45},{"city":"Candler","state_name":"North Carolina","lat":35.51247,"lng":-82.71196,"zip":"28715","miles_from_dt":27.48},{"city":"Del Rio","state_name":"Tennessee","lat":35.88885,"lng":-83.00651,"zip":"37727","miles_from_dt":27.62},{"city":"Jonesborough","state_name":"Tennessee","lat":36.28074,"lng":-82.4938,"zip":"37659","miles_from_dt":27.86},{"city":"Arden","state_name":"North Carolina","lat":35.46305,"lng":-82.57142,"zip":"28704","miles_from_dt":28.72},{"city":"Clyde","state_name":"North Carolina","lat":35.63378,"lng":-82.93081,"zip":"28721","miles_from_dt":28.79},{"city":"Marion","state_name":"North Carolina","lat":35.71124,"lng":-82.03631,"zip":"28752","miles_from_dt":29.18},{"city":"Gerton","state_name":"North Carolina","lat":35.47544,"lng":-82.3485,"zip":"28735","miles_from_dt":29.21},{"city":"Fletcher","state_name":"North Carolina","lat":35.44667,"lng":-82.46577,"zip":"28732","miles_from_dt":29.79}],"targetCityZipCode":"28754","targetCityState":"North Carolina"},"__N_SSG":true}