{"pageProps":{"stateName":"North-carolina","cityName":"mount-pleasant","nearbyCities":[{"city":"Concord","state_name":"North Carolina","lat":35.38095,"lng":-80.52719,"zip":"28025","miles_from_dt":7.09},{"city":"Locust","state_name":"North Carolina","lat":35.29675,"lng":-80.39327,"zip":"28097","miles_from_dt":7.24},{"city":"Concord","state_name":"North Carolina","lat":35.37613,"lng":-80.53368,"zip":"28026","miles_from_dt":7.52},{"city":"Rockwell","state_name":"North Carolina","lat":35.52121,"lng":-80.44193,"zip":"28138","miles_from_dt":8.53},{"city":"Misenheimer","state_name":"North Carolina","lat":35.48609,"lng":-80.28628,"zip":"28109","miles_from_dt":8.85},{"city":"Gold Hill","state_name":"North Carolina","lat":35.51859,"lng":-80.32175,"zip":"28071","miles_from_dt":9.32},{"city":"Richfield","state_name":"North Carolina","lat":35.50009,"lng":-80.25783,"zip":"28137","miles_from_dt":10.69},{"city":"Kannapolis","state_name":"North Carolina","lat":35.49108,"lng":-80.58092,"zip":"28083","miles_from_dt":11.74},{"city":"Albemarle","state_name":"North Carolina","lat":35.33594,"lng":-80.20419,"zip":"28001","miles_from_dt":12.15},{"city":"Albemarle","state_name":"North Carolina","lat":35.35439,"lng":-80.19363,"zip":"28002","miles_from_dt":12.31},{"city":"Midland","state_name":"North Carolina","lat":35.24992,"lng":-80.52115,"zip":"28107","miles_from_dt":12.36},{"city":"Oakboro","state_name":"North Carolina","lat":35.23224,"lng":-80.32737,"zip":"28129","miles_from_dt":12.44},{"city":"Faith","state_name":"North Carolina","lat":35.58747,"lng":-80.46249,"zip":"28041","miles_from_dt":13.25},{"city":"Stanfield","state_name":"North Carolina","lat":35.20702,"lng":-80.4285,"zip":"28163","miles_from_dt":13.47},{"city":"Kannapolis","state_name":"North Carolina","lat":35.47954,"lng":-80.62662,"zip":"28082","miles_from_dt":13.66},{"city":"New London","state_name":"North Carolina","lat":35.44978,"lng":-80.16552,"zip":"28127","miles_from_dt":13.87},{"city":"Granite Quarry","state_name":"North Carolina","lat":35.61326,"lng":-80.44241,"zip":"28072","miles_from_dt":14.77},{"city":"Harrisburg","state_name":"North Carolina","lat":35.30192,"lng":-80.63929,"zip":"28075","miles_from_dt":14.95},{"city":"Salisbury","state_name":"North Carolina","lat":35.62194,"lng":-80.39563,"zip":"28146","miles_from_dt":15.21},{"city":"Concord","state_name":"North Carolina","lat":35.40879,"lng":-80.67524,"zip":"28027","miles_from_dt":15.31},{"city":"Landis","state_name":"North Carolina","lat":35.54437,"lng":-80.61463,"zip":"28088","miles_from_dt":15.43},{"city":"China Grove","state_name":"North Carolina","lat":35.56922,"lng":-80.60321,"zip":"28023","miles_from_dt":16.13},{"city":"Kannapolis","state_name":"North Carolina","lat":35.50199,"lng":-80.67024,"zip":"28081","miles_from_dt":16.54},{"city":"Badin","state_name":"North Carolina","lat":35.40826,"lng":-80.10743,"zip":"28009","miles_from_dt":16.75},{"city":"Salisbury","state_name":"North Carolina","lat":35.66126,"lng":-80.44721,"zip":"28145","miles_from_dt":18.08},{"city":"Norwood","state_name":"North Carolina","lat":35.21476,"lng":-80.15862,"zip":"28128","miles_from_dt":18.92},{"city":"East Spencer","state_name":"North Carolina","lat":35.6803,"lng":-80.43626,"zip":"28039","miles_from_dt":19.32},{"city":"Southmont","state_name":"North Carolina","lat":35.65976,"lng":-80.26786,"zip":"27351","miles_from_dt":19.4},{"city":"Charlotte","state_name":"North Carolina","lat":35.24854,"lng":-80.69571,"zip":"28215","miles_from_dt":19.56},{"city":"Charlotte","state_name":"North Carolina","lat":35.30824,"lng":-80.73282,"zip":"28223","miles_from_dt":19.65},{"city":"Charlotte","state_name":"North Carolina","lat":35.32609,"lng":-80.74234,"zip":"28262","miles_from_dt":19.8},{"city":"Charlotte","state_name":"North Carolina","lat":35.28318,"lng":-80.73065,"zip":"28256","miles_from_dt":20.17},{"city":"Charlotte","state_name":"North Carolina","lat":35.36857,"lng":-80.76013,"zip":"28221","miles_from_dt":20.23},{"city":"Charlotte","state_name":"North Carolina","lat":35.18851,"lng":-80.6507,"zip":"28227","miles_from_dt":20.24},{"city":"Spencer","state_name":"North Carolina","lat":35.69411,"lng":-80.43528,"zip":"28159","miles_from_dt":20.26},{"city":"Charlotte","state_name":"North Carolina","lat":35.28459,"lng":-80.73339,"zip":"28213","miles_from_dt":20.27},{"city":"Newell","state_name":"North Carolina","lat":35.27594,"lng":-80.73661,"zip":"28126","miles_from_dt":20.68},{"city":"Charlotte","state_name":"North Carolina","lat":35.21,"lng":-80.69219,"zip":"28263","miles_from_dt":20.96},{"city":"Salisbury","state_name":"North Carolina","lat":35.67997,"lng":-80.56275,"zip":"28147","miles_from_dt":21.19},{"city":"Salisbury","state_name":"North Carolina","lat":35.70645,"lng":-80.46341,"zip":"28144","miles_from_dt":21.3},{"city":"Charlotte","state_name":"North Carolina","lat":35.32365,"lng":-80.78218,"zip":"28253","miles_from_dt":22.02},{"city":"Denton","state_name":"North Carolina","lat":35.60566,"lng":-80.09024,"zip":"27239","miles_from_dt":22.61},{"city":"Davidson","state_name":"North Carolina","lat":35.48586,"lng":-80.79375,"zip":"28036","miles_from_dt":22.74},{"city":"Indian Trail","state_name":"North Carolina","lat":35.1132,"lng":-80.60183,"zip":"28079","miles_from_dt":22.8},{"city":"Charlotte","state_name":"North Carolina","lat":35.33747,"lng":-80.8026,"zip":"28269","miles_from_dt":22.93},{"city":"Charlotte","state_name":"North Carolina","lat":35.18882,"lng":-80.74363,"zip":"28229","miles_from_dt":24.15},{"city":"Linwood","state_name":"North Carolina","lat":35.75131,"lng":-80.38402,"zip":"27299","miles_from_dt":24.15},{"city":"Charlotte","state_name":"North Carolina","lat":35.1896,"lng":-80.74519,"zip":"28212","miles_from_dt":24.18},{"city":"Monroe","state_name":"North Carolina","lat":35.06552,"lng":-80.52781,"zip":"28110","miles_from_dt":24.19},{"city":"Mooresville","state_name":"North Carolina","lat":35.58001,"lng":-80.77477,"zip":"28115","miles_from_dt":24.26},{"city":"Mount Ulla","state_name":"North Carolina","lat":35.66061,"lng":-80.69949,"zip":"28125","miles_from_dt":24.43},{"city":"Ansonville","state_name":"North Carolina","lat":35.12169,"lng":-80.13052,"zip":"28007","miles_from_dt":24.72},{"city":"Huntersville","state_name":"North Carolina","lat":35.4168,"lng":-80.84249,"zip":"28070","miles_from_dt":24.77},{"city":"Charlotte","state_name":"North Carolina","lat":35.22199,"lng":-80.78827,"zip":"28218","miles_from_dt":24.99},{"city":"Charlotte","state_name":"North Carolina","lat":35.22019,"lng":-80.78737,"zip":"28205","miles_from_dt":25},{"city":"Lexington","state_name":"North Carolina","lat":35.73469,"lng":-80.20845,"zip":"27292","miles_from_dt":25.49},{"city":"Charlotte","state_name":"North Carolina","lat":35.25631,"lng":-80.82144,"zip":"28206","miles_from_dt":25.61},{"city":"Davidson","state_name":"North Carolina","lat":35.50603,"lng":-80.84164,"zip":"28035","miles_from_dt":25.72},{"city":"Troy","state_name":"North Carolina","lat":35.42489,"lng":-79.94912,"zip":"27371","miles_from_dt":25.73},{"city":"Matthews","state_name":"North Carolina","lat":35.12345,"lng":-80.7136,"zip":"28106","miles_from_dt":25.95},{"city":"Matthews","state_name":"North Carolina","lat":35.11914,"lng":-80.71116,"zip":"28105","miles_from_dt":26.08},{"city":"Huntersville","state_name":"North Carolina","lat":35.40545,"lng":-80.86633,"zip":"28078","miles_from_dt":26.09},{"city":"Charlotte","state_name":"North Carolina","lat":35.21847,"lng":-80.81163,"zip":"28299","miles_from_dt":26.26},{"city":"Mount Mourne","state_name":"North Carolina","lat":35.54398,"lng":-80.84655,"zip":"28123","miles_from_dt":26.82},{"city":"Charlotte","state_name":"North Carolina","lat":35.19126,"lng":-80.8042,"zip":"28222","miles_from_dt":26.86},{"city":"Charlotte","state_name":"North Carolina","lat":35.27797,"lng":-80.85526,"zip":"28297","miles_from_dt":26.87},{"city":"Charlotte","state_name":"North Carolina","lat":35.21628,"lng":-80.82682,"zip":"28232","miles_from_dt":27.08},{"city":"Charlotte","state_name":"North Carolina","lat":35.21451,"lng":-80.82569,"zip":"28235","miles_from_dt":27.09},{"city":"Charlotte","state_name":"North Carolina","lat":35.21469,"lng":-80.82677,"zip":"28204","miles_from_dt":27.13},{"city":"Charlotte","state_name":"North Carolina","lat":35.21625,"lng":-80.82817,"zip":"28237","miles_from_dt":27.15},{"city":"Mount Gilead","state_name":"North Carolina","lat":35.22098,"lng":-79.97685,"zip":"27306","miles_from_dt":27.16},{"city":"Charlotte","state_name":"North Carolina","lat":35.21302,"lng":-80.82737,"zip":"28296","miles_from_dt":27.22},{"city":"Charlotte","state_name":"North Carolina","lat":35.21304,"lng":-80.82771,"zip":"28233","miles_from_dt":27.23},{"city":"Charlotte","state_name":"North Carolina","lat":35.21261,"lng":-80.8282,"zip":"28230","miles_from_dt":27.27},{"city":"Charlotte","state_name":"North Carolina","lat":35.22989,"lng":-80.84082,"zip":"28284","miles_from_dt":27.36},{"city":"Charlotte","state_name":"North Carolina","lat":35.16816,"lng":-80.79604,"zip":"28211","miles_from_dt":27.38},{"city":"Charlotte","state_name":"North Carolina","lat":35.22917,"lng":-80.84114,"zip":"28288","miles_from_dt":27.4},{"city":"Polkton","state_name":"North Carolina","lat":35.03547,"lng":-80.21412,"zip":"28135","miles_from_dt":27.42},{"city":"Charlotte","state_name":"North Carolina","lat":35.23,"lng":-80.84219,"zip":"28271","miles_from_dt":27.43},{"city":"Charlotte","state_name":"North Carolina","lat":35.22143,"lng":-80.83763,"zip":"28243","miles_from_dt":27.46},{"city":"Charlotte","state_name":"North Carolina","lat":35.22852,"lng":-80.84211,"zip":"28265","miles_from_dt":27.47},{"city":"Charlotte","state_name":"North Carolina","lat":35.22671,"lng":-80.84182,"zip":"28281","miles_from_dt":27.51},{"city":"Charlotte","state_name":"North Carolina","lat":35.23132,"lng":-80.84452,"zip":"28266","miles_from_dt":27.51},{"city":"Charlotte","state_name":"North Carolina","lat":35.2313,"lng":-80.84485,"zip":"28260","miles_from_dt":27.53},{"city":"Charlotte","state_name":"North Carolina","lat":35.22589,"lng":-80.84168,"zip":"28289","miles_from_dt":27.53},{"city":"Marshville","state_name":"North Carolina","lat":35.0037,"lng":-80.35316,"zip":"28103","miles_from_dt":27.56},{"city":"Charlotte","state_name":"North Carolina","lat":35.22687,"lng":-80.84293,"zip":"28275","miles_from_dt":27.56},{"city":"Charlotte","state_name":"North Carolina","lat":35.22971,"lng":-80.84476,"zip":"28272","miles_from_dt":27.57},{"city":"Charlotte","state_name":"North Carolina","lat":35.22766,"lng":-80.84358,"zip":"28241","miles_from_dt":27.57},{"city":"Charlotte","state_name":"North Carolina","lat":35.22633,"lng":-80.84309,"zip":"28280","miles_from_dt":27.59},{"city":"Charlotte","state_name":"North Carolina","lat":35.22773,"lng":-80.8447,"zip":"28202","miles_from_dt":27.63},{"city":"Charlotte","state_name":"North Carolina","lat":35.2246,"lng":-80.8431,"zip":"28244","miles_from_dt":27.64},{"city":"Charlotte","state_name":"North Carolina","lat":35.19619,"lng":-80.82436,"zip":"28231","miles_from_dt":27.65},{"city":"Charlotte","state_name":"North Carolina","lat":35.22886,"lng":-80.84673,"zip":"28285","miles_from_dt":27.7},{"city":"Charlotte","state_name":"North Carolina","lat":35.22541,"lng":-80.84528,"zip":"28246","miles_from_dt":27.73},{"city":"Charlotte","state_name":"North Carolina","lat":35.22481,"lng":-80.84529,"zip":"28282","miles_from_dt":27.74},{"city":"Charlotte","state_name":"North Carolina","lat":35.19512,"lng":-80.82606,"zip":"28207","miles_from_dt":27.77},{"city":"Charlotte","state_name":"North Carolina","lat":35.19296,"lng":-80.82631,"zip":"28201","miles_from_dt":27.86},{"city":"Charlotte","state_name":"North Carolina","lat":35.31039,"lng":-80.8883,"zip":"28216","miles_from_dt":28.06},{"city":"Cornelius","state_name":"North Carolina","lat":35.47539,"lng":-80.89344,"zip":"28031","miles_from_dt":28.08},{"city":"Charlotte","state_name":"North Carolina","lat":35.18909,"lng":-80.83384,"zip":"28274","miles_from_dt":28.36},{"city":"Charlotte","state_name":"North Carolina","lat":35.10963,"lng":-80.76005,"zip":"28270","miles_from_dt":28.45},{"city":"Matthews","state_name":"North Carolina","lat":35.06017,"lng":-80.69666,"zip":"28104","miles_from_dt":28.76},{"city":"Charlotte","state_name":"North Carolina","lat":35.20832,"lng":-80.8577,"zip":"28203","miles_from_dt":28.88},{"city":"Charlotte","state_name":"North Carolina","lat":35.21185,"lng":-80.86176,"zip":"28242","miles_from_dt":28.98},{"city":"Charlotte","state_name":"North Carolina","lat":35.19914,"lng":-80.85646,"zip":"28234","miles_from_dt":29.12},{"city":"Woodleaf","state_name":"North Carolina","lat":35.79304,"lng":-80.59833,"zip":"27054","miles_from_dt":29.13},{"city":"Charlotte","state_name":"North Carolina","lat":35.21119,"lng":-80.86511,"zip":"28255","miles_from_dt":29.17},{"city":"Charlotte","state_name":"North Carolina","lat":35.0996,"lng":-80.77142,"zip":"28228","miles_from_dt":29.4},{"city":"Cooleemee","state_name":"North Carolina","lat":35.8121,"lng":-80.55508,"zip":"27014","miles_from_dt":29.57},{"city":"Charlotte","state_name":"North Carolina","lat":35.1778,"lng":-80.85102,"zip":"28220","miles_from_dt":29.59},{"city":"Cleveland","state_name":"North Carolina","lat":35.75633,"lng":-80.70235,"zip":"27013","miles_from_dt":29.68},{"city":"Charlotte","state_name":"North Carolina","lat":35.17878,"lng":-80.85418,"zip":"28209","miles_from_dt":29.71},{"city":"Wingate","state_name":"North Carolina","lat":34.96959,"lng":-80.4382,"zip":"28174","miles_from_dt":29.83},{"city":"Monroe","state_name":"North Carolina","lat":34.98367,"lng":-80.54919,"zip":"28111","miles_from_dt":29.94}],"targetCityZipCode":"28124","targetCityState":"North Carolina"},"__N_SSG":true}