{"pageProps":{"stateName":"North-carolina","cityName":"pittsboro","nearbyCities":[{"city":"Bynum","state_name":"North Carolina","lat":35.77262,"lng":-79.13782,"zip":"27228","miles_from_dt":3.53},{"city":"Moncure","state_name":"North Carolina","lat":35.6299,"lng":-79.0973,"zip":"27559","miles_from_dt":10.24},{"city":"Chapel Hill","state_name":"North Carolina","lat":35.84389,"lng":-79.03186,"zip":"27517","miles_from_dt":11.11},{"city":"Chapel Hill","state_name":"North Carolina","lat":35.91239,"lng":-79.15156,"zip":"27516","miles_from_dt":11.18},{"city":"Carrboro","state_name":"North Carolina","lat":35.91147,"lng":-79.08211,"zip":"27510","miles_from_dt":12.59},{"city":"Chapel Hill","state_name":"North Carolina","lat":35.90394,"lng":-79.05234,"zip":"27599","miles_from_dt":13.1},{"city":"Chapel Hill","state_name":"North Carolina","lat":35.91022,"lng":-79.05461,"zip":"27515","miles_from_dt":13.37},{"city":"Siler City","state_name":"North Carolina","lat":35.7289,"lng":-79.43366,"zip":"27344","miles_from_dt":13.45},{"city":"Apex","state_name":"North Carolina","lat":35.77102,"lng":-78.95367,"zip":"27523","miles_from_dt":13.69},{"city":"Bonlee","state_name":"North Carolina","lat":35.6473,"lng":-79.40454,"zip":"27213","miles_from_dt":13.84},{"city":"Cumnock","state_name":"North Carolina","lat":35.55472,"lng":-79.23806,"zip":"27237","miles_from_dt":13.97},{"city":"Gulf","state_name":"North Carolina","lat":35.56058,"lng":-79.2725,"zip":"27256","miles_from_dt":14.03},{"city":"New Hill","state_name":"North Carolina","lat":35.64157,"lng":-78.98141,"zip":"27562","miles_from_dt":14.38},{"city":"Saxapahaw","state_name":"North Carolina","lat":35.94557,"lng":-79.31141,"zip":"27340","miles_from_dt":14.67},{"city":"Bear Creek","state_name":"North Carolina","lat":35.6064,"lng":-79.38893,"zip":"27207","miles_from_dt":14.88},{"city":"Snow Camp","state_name":"North Carolina","lat":35.89845,"lng":-79.41202,"zip":"27349","miles_from_dt":15.65},{"city":"Goldston","state_name":"North Carolina","lat":35.56033,"lng":-79.35563,"zip":"27252","miles_from_dt":16.1},{"city":"Apex","state_name":"North Carolina","lat":35.72123,"lng":-78.90828,"zip":"27502","miles_from_dt":16.36},{"city":"Sanford","state_name":"North Carolina","lat":35.51624,"lng":-79.18394,"zip":"27330","miles_from_dt":16.44},{"city":"Graham","state_name":"North Carolina","lat":35.96239,"lng":-79.34581,"zip":"27253","miles_from_dt":16.61},{"city":"Chapel Hill","state_name":"North Carolina","lat":35.96776,"lng":-79.04406,"zip":"27514","miles_from_dt":17.01},{"city":"Durham","state_name":"North Carolina","lat":35.88401,"lng":-78.936,"zip":"27713","miles_from_dt":17.14},{"city":"Cary","state_name":"North Carolina","lat":35.80815,"lng":-78.88711,"zip":"27519","miles_from_dt":17.77},{"city":"Sanford","state_name":"North Carolina","lat":35.47494,"lng":-79.18258,"zip":"27331","miles_from_dt":19.29},{"city":"Durham","state_name":"North Carolina","lat":35.95463,"lng":-78.95451,"zip":"27707","miles_from_dt":19.36},{"city":"Durham","state_name":"North Carolina","lat":35.95623,"lng":-78.95163,"zip":"27717","miles_from_dt":19.55},{"city":"Haw River","state_name":"North Carolina","lat":36.03401,"lng":-79.32623,"zip":"27258","miles_from_dt":20.6},{"city":"Holly Springs","state_name":"North Carolina","lat":35.6103,"lng":-78.87332,"zip":"27540","miles_from_dt":20.72},{"city":"Staley","state_name":"North Carolina","lat":35.78859,"lng":-79.5678,"zip":"27355","miles_from_dt":21},{"city":"Durham","state_name":"North Carolina","lat":35.91441,"lng":-78.86666,"zip":"27709","miles_from_dt":21.55},{"city":"Swepsonville","state_name":"North Carolina","lat":36.03414,"lng":-79.36838,"zip":"27359","miles_from_dt":21.56},{"city":"Durham","state_name":"North Carolina","lat":35.9162,"lng":-78.86747,"zip":"27711","miles_from_dt":21.58},{"city":"Morrisville","state_name":"North Carolina","lat":35.85845,"lng":-78.82544,"zip":"27560","miles_from_dt":22.04},{"city":"Durham","state_name":"North Carolina","lat":36.00009,"lng":-78.94305,"zip":"27708","miles_from_dt":22.11},{"city":"Durham","state_name":"North Carolina","lat":35.99683,"lng":-78.93799,"zip":"27706","miles_from_dt":22.13},{"city":"Apex","state_name":"North Carolina","lat":35.67713,"lng":-78.81269,"zip":"27539","miles_from_dt":22.23},{"city":"Durham","state_name":"North Carolina","lat":36.00177,"lng":-78.94072,"zip":"27710","miles_from_dt":22.29},{"city":"Durham","state_name":"North Carolina","lat":36.01368,"lng":-78.95914,"zip":"27715","miles_from_dt":22.29},{"city":"Durham","state_name":"North Carolina","lat":36.0259,"lng":-78.98046,"zip":"27705","miles_from_dt":22.3},{"city":"Efland","state_name":"North Carolina","lat":36.07821,"lng":-79.1945,"zip":"27243","miles_from_dt":22.32},{"city":"Cary","state_name":"North Carolina","lat":35.76797,"lng":-78.79898,"zip":"27512","miles_from_dt":22.36},{"city":"Cary","state_name":"North Carolina","lat":35.80269,"lng":-78.80159,"zip":"27513","miles_from_dt":22.43},{"city":"Liberty","state_name":"North Carolina","lat":35.88563,"lng":-79.56816,"zip":"27298","miles_from_dt":22.75},{"city":"Cary","state_name":"North Carolina","lat":35.76324,"lng":-78.78437,"zip":"27511","miles_from_dt":23.17},{"city":"Bennett","state_name":"North Carolina","lat":35.56246,"lng":-79.54231,"zip":"27208","miles_from_dt":23.53},{"city":"Durham","state_name":"North Carolina","lat":35.99697,"lng":-78.89956,"zip":"27722","miles_from_dt":23.6},{"city":"Hillsborough","state_name":"North Carolina","lat":36.08673,"lng":-79.08778,"zip":"27278","miles_from_dt":23.71},{"city":"Durham","state_name":"North Carolina","lat":35.99858,"lng":-78.89872,"zip":"27701","miles_from_dt":23.72},{"city":"Cary","state_name":"North Carolina","lat":35.72927,"lng":-78.7736,"zip":"27518","miles_from_dt":23.83},{"city":"Raleigh","state_name":"North Carolina","lat":35.85907,"lng":-78.79023,"zip":"27623","miles_from_dt":23.93},{"city":"Ramseur","state_name":"North Carolina","lat":35.68996,"lng":-79.62366,"zip":"27316","miles_from_dt":24.42},{"city":"Alamance","state_name":"North Carolina","lat":36.03258,"lng":-79.48418,"zip":"27201","miles_from_dt":25.06},{"city":"Burlington","state_name":"North Carolina","lat":36.03055,"lng":-79.48729,"zip":"27215","miles_from_dt":25.07},{"city":"Lemon Springs","state_name":"North Carolina","lat":35.39053,"lng":-79.19514,"zip":"28355","miles_from_dt":25.09},{"city":"Fuquay Varina","state_name":"North Carolina","lat":35.54179,"lng":-78.8274,"zip":"27526","miles_from_dt":25.42},{"city":"Burlington","state_name":"North Carolina","lat":36.08169,"lng":-79.4127,"zip":"27216","miles_from_dt":25.61},{"city":"Broadway","state_name":"North Carolina","lat":35.414,"lng":-79.00198,"zip":"27505","miles_from_dt":25.9},{"city":"Highfalls","state_name":"North Carolina","lat":35.49149,"lng":-79.52624,"zip":"27259","miles_from_dt":25.95},{"city":"Raleigh","state_name":"North Carolina","lat":35.90723,"lng":-78.77221,"zip":"27617","miles_from_dt":26.05},{"city":"Raleigh","state_name":"North Carolina","lat":35.72026,"lng":-78.73381,"zip":"27611","miles_from_dt":26.11},{"city":"Sanford","state_name":"North Carolina","lat":35.37836,"lng":-79.13599,"zip":"27332","miles_from_dt":26.15},{"city":"Durham","state_name":"North Carolina","lat":35.96299,"lng":-78.80452,"zip":"27703","miles_from_dt":26.28},{"city":"Mebane","state_name":"North Carolina","lat":36.13749,"lng":-79.2647,"zip":"27302","miles_from_dt":26.68},{"city":"Raleigh","state_name":"North Carolina","lat":35.82145,"lng":-78.72697,"zip":"27607","miles_from_dt":26.78},{"city":"Raleigh","state_name":"North Carolina","lat":35.73991,"lng":-78.71833,"zip":"27606","miles_from_dt":26.89},{"city":"Olivia","state_name":"North Carolina","lat":35.36942,"lng":-79.11331,"zip":"28368","miles_from_dt":26.96},{"city":"Raleigh","state_name":"North Carolina","lat":35.77201,"lng":-78.71378,"zip":"27627","miles_from_dt":27.15},{"city":"Durham","state_name":"North Carolina","lat":36.05251,"lng":-78.87949,"zip":"27702","miles_from_dt":27.17},{"city":"Mamers","state_name":"North Carolina","lat":35.42006,"lng":-78.93433,"zip":"27552","miles_from_dt":27.38},{"city":"Raleigh","state_name":"North Carolina","lat":35.90434,"lng":-78.74241,"zip":"27675","miles_from_dt":27.51},{"city":"Julian","state_name":"North Carolina","lat":35.95293,"lng":-79.63621,"zip":"27283","miles_from_dt":28.22},{"city":"Kipling","state_name":"North Carolina","lat":35.48105,"lng":-78.82165,"zip":"27543","miles_from_dt":28.29},{"city":"Raleigh","state_name":"North Carolina","lat":35.85034,"lng":-78.70387,"zip":"27612","miles_from_dt":28.45},{"city":"Durham","state_name":"North Carolina","lat":36.04088,"lng":-78.83007,"zip":"27704","miles_from_dt":28.5},{"city":"Raleigh","state_name":"North Carolina","lat":35.79269,"lng":-78.69105,"zip":"27636","miles_from_dt":28.52},{"city":"Durham","state_name":"North Carolina","lat":36.09606,"lng":-78.90481,"zip":"27712","miles_from_dt":28.67},{"city":"Franklinville","state_name":"North Carolina","lat":35.78916,"lng":-79.70953,"zip":"27248","miles_from_dt":28.93},{"city":"Raleigh","state_name":"North Carolina","lat":35.85068,"lng":-78.69267,"zip":"27622","miles_from_dt":29.06},{"city":"Raleigh","state_name":"North Carolina","lat":35.8488,"lng":-78.69226,"zip":"27656","miles_from_dt":29.06},{"city":"Raleigh","state_name":"North Carolina","lat":35.78558,"lng":-78.679,"zip":"27695","miles_from_dt":29.15},{"city":"Robbins","state_name":"North Carolina","lat":35.46236,"lng":-79.57249,"zip":"27325","miles_from_dt":29.22},{"city":"Climax","state_name":"North Carolina","lat":35.8882,"lng":-79.6988,"zip":"27233","miles_from_dt":29.67},{"city":"Raleigh","state_name":"North Carolina","lat":35.92633,"lng":-78.71183,"zip":"27613","miles_from_dt":29.68},{"city":"Whitsett","state_name":"North Carolina","lat":36.03728,"lng":-79.60221,"zip":"27377","miles_from_dt":29.97}],"targetCityZipCode":"27312","targetCityState":"North Carolina"},"__N_SSG":true}