{"pageProps":{"stateName":"North-carolina","cityName":"pleasant-garden","nearbyCities":[{"city":"Climax","state_name":"North Carolina","lat":35.8882,"lng":-79.6988,"zip":"27233","miles_from_dt":4.07},{"city":"Greensboro","state_name":"North Carolina","lat":35.97913,"lng":-79.70883,"zip":"27419","miles_from_dt":4.21},{"city":"Greensboro","state_name":"North Carolina","lat":35.9982,"lng":-79.76686,"zip":"27406","miles_from_dt":4.85},{"city":"Greensboro","state_name":"North Carolina","lat":36.00231,"lng":-79.76409,"zip":"27416","miles_from_dt":5.11},{"city":"Julian","state_name":"North Carolina","lat":35.95293,"lng":-79.63621,"zip":"27283","miles_from_dt":6.67},{"city":"Randleman","state_name":"North Carolina","lat":35.83809,"lng":-79.80376,"zip":"27317","miles_from_dt":6.92},{"city":"Greensboro","state_name":"North Carolina","lat":36.01124,"lng":-79.87588,"zip":"27407","miles_from_dt":8.99},{"city":"Greensboro","state_name":"North Carolina","lat":36.05575,"lng":-79.80426,"zip":"27438","miles_from_dt":9.23},{"city":"Greensboro","state_name":"North Carolina","lat":36.0689,"lng":-79.76662,"zip":"27427","miles_from_dt":9.69},{"city":"Greensboro","state_name":"North Carolina","lat":36.06995,"lng":-79.76724,"zip":"27401","miles_from_dt":9.76},{"city":"Greensboro","state_name":"North Carolina","lat":36.07058,"lng":-79.76615,"zip":"27499","miles_from_dt":9.8},{"city":"Greensboro","state_name":"North Carolina","lat":36.072,"lng":-79.76791,"zip":"27498","miles_from_dt":9.91},{"city":"Franklinville","state_name":"North Carolina","lat":35.78916,"lng":-79.70953,"zip":"27248","miles_from_dt":9.92},{"city":"Greensboro","state_name":"North Carolina","lat":36.07176,"lng":-79.79103,"zip":"27402","miles_from_dt":10.1},{"city":"Greensboro","state_name":"North Carolina","lat":36.06873,"lng":-79.81028,"zip":"27413","miles_from_dt":10.19},{"city":"Greensboro","state_name":"North Carolina","lat":36.06406,"lng":-79.82538,"zip":"27403","miles_from_dt":10.2},{"city":"Greensboro","state_name":"North Carolina","lat":36.06903,"lng":-79.81062,"zip":"27412","miles_from_dt":10.21},{"city":"Greensboro","state_name":"North Carolina","lat":36.07665,"lng":-79.77157,"zip":"27411","miles_from_dt":10.25},{"city":"Greensboro","state_name":"North Carolina","lat":36.06452,"lng":-79.82698,"zip":"27435","miles_from_dt":10.26},{"city":"High Point","state_name":"North Carolina","lat":35.90931,"lng":-79.93829,"zip":"27263","miles_from_dt":10.57},{"city":"Liberty","state_name":"North Carolina","lat":35.88563,"lng":-79.56816,"zip":"27298","miles_from_dt":10.7},{"city":"Greensboro","state_name":"North Carolina","lat":36.06467,"lng":-79.84391,"zip":"27420","miles_from_dt":10.7},{"city":"Jamestown","state_name":"North Carolina","lat":35.99656,"lng":-79.92869,"zip":"27282","miles_from_dt":10.98},{"city":"Whitsett","state_name":"North Carolina","lat":36.03728,"lng":-79.60221,"zip":"27377","miles_from_dt":11.21},{"city":"Sophia","state_name":"North Carolina","lat":35.80631,"lng":-79.88917,"zip":"27350","miles_from_dt":11.46},{"city":"Greensboro","state_name":"North Carolina","lat":36.08483,"lng":-79.83277,"zip":"27404","miles_from_dt":11.68},{"city":"Greensboro","state_name":"North Carolina","lat":36.09345,"lng":-79.81275,"zip":"27429","miles_from_dt":11.85},{"city":"Greensboro","state_name":"North Carolina","lat":36.07893,"lng":-79.64581,"zip":"27415","miles_from_dt":11.92},{"city":"Sedalia","state_name":"North Carolina","lat":36.06641,"lng":-79.6186,"zip":"27342","miles_from_dt":12.05},{"city":"Cedar Falls","state_name":"North Carolina","lat":35.75286,"lng":-79.73163,"zip":"27230","miles_from_dt":12.19},{"city":"Greensboro","state_name":"North Carolina","lat":36.10862,"lng":-79.73791,"zip":"27495","miles_from_dt":12.41},{"city":"Greensboro","state_name":"North Carolina","lat":36.10321,"lng":-79.81411,"zip":"27408","miles_from_dt":12.52},{"city":"Greensboro","state_name":"North Carolina","lat":36.11373,"lng":-79.73463,"zip":"27405","miles_from_dt":12.78},{"city":"High Point","state_name":"North Carolina","lat":35.95473,"lng":-79.98697,"zip":"27260","miles_from_dt":13.33},{"city":"McLeansville","state_name":"North Carolina","lat":36.11512,"lng":-79.66755,"zip":"27301","miles_from_dt":13.67},{"city":"Asheboro","state_name":"North Carolina","lat":35.73253,"lng":-79.78857,"zip":"27203","miles_from_dt":13.7},{"city":"High Point","state_name":"North Carolina","lat":35.97139,"lng":-79.99471,"zip":"27268","miles_from_dt":13.95},{"city":"Staley","state_name":"North Carolina","lat":35.78859,"lng":-79.5678,"zip":"27355","miles_from_dt":14.14},{"city":"High Point","state_name":"North Carolina","lat":35.98051,"lng":-79.99583,"zip":"27264","miles_from_dt":14.16},{"city":"High Point","state_name":"North Carolina","lat":35.97534,"lng":-79.99949,"zip":"27261","miles_from_dt":14.27},{"city":"Greensboro","state_name":"North Carolina","lat":36.06759,"lng":-79.95265,"zip":"27417","miles_from_dt":14.78},{"city":"Greensboro","state_name":"North Carolina","lat":36.11826,"lng":-79.89223,"zip":"27410","miles_from_dt":15.25},{"city":"Greensboro","state_name":"North Carolina","lat":36.0786,"lng":-79.95644,"zip":"27497","miles_from_dt":15.44},{"city":"Greensboro","state_name":"North Carolina","lat":36.09242,"lng":-79.94431,"zip":"27409","miles_from_dt":15.62},{"city":"Trinity","state_name":"North Carolina","lat":35.8116,"lng":-79.99133,"zip":"27370","miles_from_dt":15.71},{"city":"High Point","state_name":"North Carolina","lat":35.96191,"lng":-80.03845,"zip":"27262","miles_from_dt":16.25},{"city":"Burlington","state_name":"North Carolina","lat":36.03055,"lng":-79.48729,"zip":"27215","miles_from_dt":16.38},{"city":"Alamance","state_name":"North Carolina","lat":36.03258,"lng":-79.48418,"zip":"27201","miles_from_dt":16.59},{"city":"High Point","state_name":"North Carolina","lat":36.00947,"lng":-80.03272,"zip":"27265","miles_from_dt":16.72},{"city":"Greensboro","state_name":"North Carolina","lat":36.12729,"lng":-79.94276,"zip":"27425","miles_from_dt":17.38},{"city":"Greensboro","state_name":"North Carolina","lat":36.18283,"lng":-79.80794,"zip":"27455","miles_from_dt":17.79},{"city":"Ramseur","state_name":"North Carolina","lat":35.68996,"lng":-79.62366,"zip":"27316","miles_from_dt":17.97},{"city":"Asheboro","state_name":"North Carolina","lat":35.66844,"lng":-79.80847,"zip":"27204","miles_from_dt":18.24},{"city":"Colfax","state_name":"North Carolina","lat":36.09734,"lng":-80.00871,"zip":"27235","miles_from_dt":18.51},{"city":"Gibsonville","state_name":"North Carolina","lat":36.16014,"lng":-79.58134,"zip":"27249","miles_from_dt":18.57},{"city":"Snow Camp","state_name":"North Carolina","lat":35.89845,"lng":-79.41202,"zip":"27349","miles_from_dt":19.15},{"city":"Thomasville","state_name":"North Carolina","lat":35.87601,"lng":-80.09968,"zip":"27361","miles_from_dt":19.87},{"city":"Browns Summit","state_name":"North Carolina","lat":36.21407,"lng":-79.68283,"zip":"27214","miles_from_dt":20.03},{"city":"Thomasville","state_name":"North Carolina","lat":35.85684,"lng":-80.09987,"zip":"27360","miles_from_dt":20.17},{"city":"Asheboro","state_name":"North Carolina","lat":35.6399,"lng":-79.85094,"zip":"27205","miles_from_dt":20.7},{"city":"Oak Ridge","state_name":"North Carolina","lat":36.17294,"lng":-79.99159,"zip":"27310","miles_from_dt":21.54},{"city":"Burlington","state_name":"North Carolina","lat":36.08169,"lng":-79.4127,"zip":"27216","miles_from_dt":21.7},{"city":"Summerfield","state_name":"North Carolina","lat":36.22723,"lng":-79.88124,"zip":"27358","miles_from_dt":21.81},{"city":"Kernersville","state_name":"North Carolina","lat":36.11372,"lng":-80.07706,"zip":"27285","miles_from_dt":22.25},{"city":"Altamahaw","state_name":"North Carolina","lat":36.18565,"lng":-79.50594,"zip":"27202","miles_from_dt":22.41},{"city":"Kernersville","state_name":"North Carolina","lat":36.11818,"lng":-80.07794,"zip":"27284","miles_from_dt":22.47},{"city":"Wallburg","state_name":"North Carolina","lat":36.01277,"lng":-80.1392,"zip":"27373","miles_from_dt":22.49},{"city":"Siler City","state_name":"North Carolina","lat":35.7289,"lng":-79.43366,"zip":"27344","miles_from_dt":22.55},{"city":"Swepsonville","state_name":"North Carolina","lat":36.03414,"lng":-79.36838,"zip":"27359","miles_from_dt":22.66},{"city":"Graham","state_name":"North Carolina","lat":35.96239,"lng":-79.34581,"zip":"27253","miles_from_dt":22.86},{"city":"Elon","state_name":"North Carolina","lat":36.21402,"lng":-79.48747,"zip":"27244","miles_from_dt":24.59},{"city":"Winston Salem","state_name":"North Carolina","lat":36.01488,"lng":-80.17819,"zip":"27107","miles_from_dt":24.64},{"city":"Saxapahaw","state_name":"North Carolina","lat":35.94557,"lng":-79.31141,"zip":"27340","miles_from_dt":24.7},{"city":"Haw River","state_name":"North Carolina","lat":36.03401,"lng":-79.32623,"zip":"27258","miles_from_dt":24.9},{"city":"Stokesdale","state_name":"North Carolina","lat":36.26844,"lng":-79.97641,"zip":"27357","miles_from_dt":26.58},{"city":"Reidsville","state_name":"North Carolina","lat":36.31599,"lng":-79.65855,"zip":"27323","miles_from_dt":27.19},{"city":"Burlington","state_name":"North Carolina","lat":36.19221,"lng":-79.38404,"zip":"27217","miles_from_dt":27.43},{"city":"Bonlee","state_name":"North Carolina","lat":35.6473,"lng":-79.40454,"zip":"27213","miles_from_dt":27.51},{"city":"Belews Creek","state_name":"North Carolina","lat":36.23089,"lng":-80.07927,"zip":"27009","miles_from_dt":27.75},{"city":"Bennett","state_name":"North Carolina","lat":35.56246,"lng":-79.54231,"zip":"27208","miles_from_dt":27.86},{"city":"Winston Salem","state_name":"North Carolina","lat":36.10513,"lng":-80.2019,"zip":"27155","miles_from_dt":28.01},{"city":"Seagrove","state_name":"North Carolina","lat":35.52467,"lng":-79.70014,"zip":"27341","miles_from_dt":28.02},{"city":"Winston Salem","state_name":"North Carolina","lat":36.11204,"lng":-80.19889,"zip":"27101","miles_from_dt":28.06},{"city":"Winston Salem","state_name":"North Carolina","lat":36.10441,"lng":-80.20645,"zip":"27152","miles_from_dt":28.21},{"city":"Winston Salem","state_name":"North Carolina","lat":36.11089,"lng":-80.20288,"zip":"27102","miles_from_dt":28.23},{"city":"Winston Salem","state_name":"North Carolina","lat":36.10368,"lng":-80.20772,"zip":"27150","miles_from_dt":28.26},{"city":"Welcome","state_name":"North Carolina","lat":35.91752,"lng":-80.25777,"zip":"27374","miles_from_dt":28.41},{"city":"Wentworth","state_name":"North Carolina","lat":36.33612,"lng":-79.65301,"zip":"27375","miles_from_dt":28.61},{"city":"Winston Salem","state_name":"North Carolina","lat":36.08919,"lng":-80.225,"zip":"27110","miles_from_dt":28.74},{"city":"Lexington","state_name":"North Carolina","lat":35.85926,"lng":-80.25786,"zip":"27293","miles_from_dt":28.81},{"city":"Lexington","state_name":"North Carolina","lat":35.73469,"lng":-80.20845,"zip":"27292","miles_from_dt":28.94},{"city":"Lexington","state_name":"North Carolina","lat":35.82116,"lng":-80.25058,"zip":"27294","miles_from_dt":28.98},{"city":"Walkertown","state_name":"North Carolina","lat":36.18728,"lng":-80.16012,"zip":"27051","miles_from_dt":29},{"city":"Reidsville","state_name":"North Carolina","lat":36.3434,"lng":-79.6599,"zip":"27320","miles_from_dt":29.03},{"city":"Winston Salem","state_name":"North Carolina","lat":36.07783,"lng":-80.23874,"zip":"27117","miles_from_dt":29.17},{"city":"Winston Salem","state_name":"North Carolina","lat":36.10511,"lng":-80.2257,"zip":"27198","miles_from_dt":29.21},{"city":"Denton","state_name":"North Carolina","lat":35.60566,"lng":-80.09024,"zip":"27239","miles_from_dt":29.31},{"city":"Winston Salem","state_name":"North Carolina","lat":36.09083,"lng":-80.24794,"zip":"27108","miles_from_dt":29.97},{"city":"Winston Salem","state_name":"North Carolina","lat":36.09889,"lng":-80.24389,"zip":"27111","miles_from_dt":29.97},{"city":"Winston Salem","state_name":"North Carolina","lat":36.09787,"lng":-80.24455,"zip":"27116","miles_from_dt":29.98}],"targetCityZipCode":"27313","targetCityState":"North Carolina"},"__N_SSG":true}