{"pageProps":{"stateName":"North-carolina","cityName":"providence","nearbyCities":[{"city":"Pelham","state_name":"North Carolina","lat":36.48137,"lng":-79.47577,"zip":"27311","miles_from_dt":4.98},{"city":"Blanch","state_name":"North Carolina","lat":36.46207,"lng":-79.27976,"zip":"27212","miles_from_dt":6.94},{"city":"Danville","state_name":"Virginia","lat":36.59072,"lng":-79.51572,"zip":"24541","miles_from_dt":9.03},{"city":"Ringgold","state_name":"Virginia","lat":36.60776,"lng":-79.2828,"zip":"24586","miles_from_dt":9.26},{"city":"Yanceyville","state_name":"North Carolina","lat":36.37653,"lng":-79.34653,"zip":"27379","miles_from_dt":9.28},{"city":"Milton","state_name":"North Carolina","lat":36.52029,"lng":-79.22553,"zip":"27305","miles_from_dt":9.3},{"city":"Danville","state_name":"Virginia","lat":36.64235,"lng":-79.42473,"zip":"24540","miles_from_dt":9.57},{"city":"Ruffin","state_name":"North Carolina","lat":36.45542,"lng":-79.55867,"zip":"27326","miles_from_dt":9.93},{"city":"Leasburg","state_name":"North Carolina","lat":36.40173,"lng":-79.16679,"zip":"27291","miles_from_dt":14.45},{"city":"Cascade","state_name":"Virginia","lat":36.58376,"lng":-79.63779,"zip":"24069","miles_from_dt":14.7},{"city":"Sutherlin","state_name":"Virginia","lat":36.64217,"lng":-79.18504,"zip":"24594","miles_from_dt":14.84},{"city":"Dry Fork","state_name":"Virginia","lat":36.71584,"lng":-79.50632,"zip":"24549","miles_from_dt":15.8},{"city":"Blairs","state_name":"Virginia","lat":36.7324,"lng":-79.34577,"zip":"24527","miles_from_dt":15.81},{"city":"Semora","state_name":"North Carolina","lat":36.50229,"lng":-79.08892,"zip":"27343","miles_from_dt":16.86},{"city":"Keeling","state_name":"Virginia","lat":36.72747,"lng":-79.25069,"zip":"24566","miles_from_dt":17.16},{"city":"Reidsville","state_name":"North Carolina","lat":36.3434,"lng":-79.6599,"zip":"27320","miles_from_dt":18.69},{"city":"Wentworth","state_name":"North Carolina","lat":36.33612,"lng":-79.65301,"zip":"27375","miles_from_dt":18.69},{"city":"Prospect Hill","state_name":"North Carolina","lat":36.29072,"lng":-79.18594,"zip":"27314","miles_from_dt":18.77},{"city":"Eden","state_name":"North Carolina","lat":36.50439,"lng":-79.74127,"zip":"27289","miles_from_dt":19.46},{"city":"Eden","state_name":"North Carolina","lat":36.49812,"lng":-79.74587,"zip":"27288","miles_from_dt":19.72},{"city":"Reidsville","state_name":"North Carolina","lat":36.31599,"lng":-79.65855,"zip":"27323","miles_from_dt":19.82},{"city":"Alton","state_name":"Virginia","lat":36.58486,"lng":-79.03752,"zip":"24520","miles_from_dt":20.44},{"city":"Danville","state_name":"Virginia","lat":36.58543,"lng":-79.03308,"zip":"24543","miles_from_dt":20.69},{"city":"Cluster Springs","state_name":"Virginia","lat":36.58543,"lng":-79.03308,"zip":"24535","miles_from_dt":20.69},{"city":"Elon","state_name":"North Carolina","lat":36.21402,"lng":-79.48747,"zip":"27244","miles_from_dt":20.84},{"city":"Axton","state_name":"Virginia","lat":36.67806,"lng":-79.70396,"zip":"24054","miles_from_dt":21.02},{"city":"Burlington","state_name":"North Carolina","lat":36.19221,"lng":-79.38404,"zip":"27217","miles_from_dt":21.65},{"city":"Altamahaw","state_name":"North Carolina","lat":36.18565,"lng":-79.50594,"zip":"27202","miles_from_dt":23},{"city":"Chatham","state_name":"Virginia","lat":36.83922,"lng":-79.44332,"zip":"24531","miles_from_dt":23.15},{"city":"Hurdle Mills","state_name":"North Carolina","lat":36.26176,"lng":-79.0866,"zip":"27541","miles_from_dt":23.94},{"city":"Callands","state_name":"Virginia","lat":36.80785,"lng":-79.61044,"zip":"24530","miles_from_dt":24.09},{"city":"Cedar Grove","state_name":"North Carolina","lat":36.20455,"lng":-79.17268,"zip":"27231","miles_from_dt":24.12},{"city":"Roxboro","state_name":"North Carolina","lat":36.3978,"lng":-78.97476,"zip":"27573","miles_from_dt":24.4},{"city":"Vernon Hill","state_name":"Virginia","lat":36.78553,"lng":-79.1095,"zip":"24597","miles_from_dt":24.84},{"city":"Roxboro","state_name":"North Carolina","lat":36.43166,"lng":-78.94147,"zip":"27574","miles_from_dt":25.6},{"city":"Browns Summit","state_name":"North Carolina","lat":36.21407,"lng":-79.68283,"zip":"27214","miles_from_dt":25.87},{"city":"Gibsonville","state_name":"North Carolina","lat":36.16014,"lng":-79.58134,"zip":"27249","miles_from_dt":26.1},{"city":"Mebane","state_name":"North Carolina","lat":36.13749,"lng":-79.2647,"zip":"27302","miles_from_dt":26.39},{"city":"Java","state_name":"Virginia","lat":36.85259,"lng":-79.18588,"zip":"24565","miles_from_dt":26.48},{"city":"South Boston","state_name":"Virginia","lat":36.67808,"lng":-78.95474,"zip":"24592","miles_from_dt":27.04},{"city":"Ridgeway","state_name":"Virginia","lat":36.58156,"lng":-79.87231,"zip":"24148","miles_from_dt":27.24},{"city":"Martinsville","state_name":"Virginia","lat":36.68267,"lng":-79.85038,"zip":"24113","miles_from_dt":28.26},{"city":"Martinsville","state_name":"Virginia","lat":36.68797,"lng":-79.85866,"zip":"24115","miles_from_dt":28.83},{"city":"Martinsville","state_name":"Virginia","lat":36.68389,"lng":-79.86412,"zip":"24114","miles_from_dt":28.98},{"city":"Stoneville","state_name":"North Carolina","lat":36.47611,"lng":-79.91295,"zip":"27048","miles_from_dt":29.09},{"city":"Burlington","state_name":"North Carolina","lat":36.08169,"lng":-79.4127,"zip":"27216","miles_from_dt":29.29},{"city":"Timberlake","state_name":"North Carolina","lat":36.29723,"lng":-78.93153,"zip":"27583","miles_from_dt":29.42},{"city":"Martinsville","state_name":"Virginia","lat":36.72378,"lng":-79.84921,"zip":"24112","miles_from_dt":29.53}],"targetCityZipCode":"27315","targetCityState":"North Carolina"},"__N_SSG":true}