{"pageProps":{"stateName":"North-carolina","cityName":"shannon","nearbyCities":[{"city":"Lumber Bridge","state_name":"North Carolina","lat":34.90606,"lng":-79.08688,"zip":"28357","miles_from_dt":4.07},{"city":"Rex","state_name":"North Carolina","lat":34.85872,"lng":-79.0506,"zip":"28378","miles_from_dt":4.5},{"city":"Red Springs","state_name":"North Carolina","lat":34.83526,"lng":-79.21282,"zip":"28377","miles_from_dt":4.99},{"city":"Parkton","state_name":"North Carolina","lat":34.9079,"lng":-78.99018,"zip":"28371","miles_from_dt":8.62},{"city":"Saint Pauls","state_name":"North Carolina","lat":34.79687,"lng":-78.95035,"zip":"28384","miles_from_dt":11.06},{"city":"Pembroke","state_name":"North Carolina","lat":34.69991,"lng":-79.1786,"zip":"28372","miles_from_dt":11.3},{"city":"Lumberton","state_name":"North Carolina","lat":34.67588,"lng":-79.07582,"zip":"28360","miles_from_dt":12.98},{"city":"Hope Mills","state_name":"North Carolina","lat":34.92691,"lng":-78.91313,"zip":"28348","miles_from_dt":13.17},{"city":"Fayetteville","state_name":"North Carolina","lat":35.02498,"lng":-78.99072,"zip":"28304","miles_from_dt":13.91},{"city":"Raeford","state_name":"North Carolina","lat":35.052,"lng":-79.23342,"zip":"28376","miles_from_dt":14.55},{"city":"Fayetteville","state_name":"North Carolina","lat":34.9582,"lng":-78.89487,"zip":"28306","miles_from_dt":15},{"city":"Fayetteville","state_name":"North Carolina","lat":35.0557,"lng":-79.01678,"zip":"28314","miles_from_dt":15.01},{"city":"Maxton","state_name":"North Carolina","lat":34.71447,"lng":-79.32759,"zip":"28364","miles_from_dt":15.02},{"city":"Fayetteville","state_name":"North Carolina","lat":35.03326,"lng":-78.92904,"zip":"28302","miles_from_dt":16.56},{"city":"Wagram","state_name":"North Carolina","lat":34.93948,"lng":-79.40971,"zip":"28396","miles_from_dt":16.84},{"city":"Fayetteville","state_name":"North Carolina","lat":35.0852,"lng":-78.95815,"zip":"28303","miles_from_dt":18.39},{"city":"Fayetteville","state_name":"North Carolina","lat":35.05321,"lng":-78.90687,"zip":"28305","miles_from_dt":18.43},{"city":"Fort Bragg","state_name":"North Carolina","lat":35.12946,"lng":-79.0523,"zip":"28310","miles_from_dt":19.16},{"city":"Lumberton","state_name":"North Carolina","lat":34.58686,"lng":-79.05475,"zip":"28359","miles_from_dt":19.23},{"city":"Laurinburg","state_name":"North Carolina","lat":34.76762,"lng":-79.45321,"zip":"28352","miles_from_dt":19.43},{"city":"Fayetteville","state_name":"North Carolina","lat":35.07188,"lng":-78.89907,"zip":"28309","miles_from_dt":19.67},{"city":"Laurinburg","state_name":"North Carolina","lat":34.77702,"lng":-79.46508,"zip":"28353","miles_from_dt":19.88},{"city":"Fayetteville","state_name":"North Carolina","lat":35.07442,"lng":-78.88376,"zip":"28301","miles_from_dt":20.39},{"city":"Lumberton","state_name":"North Carolina","lat":34.60527,"lng":-78.94097,"zip":"28358","miles_from_dt":20.52},{"city":"Tar Heel","state_name":"North Carolina","lat":34.73467,"lng":-78.79465,"zip":"28392","miles_from_dt":20.9},{"city":"Fort Bragg","state_name":"North Carolina","lat":35.14154,"lng":-78.99447,"zip":"28307","miles_from_dt":20.94},{"city":"Rowland","state_name":"North Carolina","lat":34.57553,"lng":-79.26856,"zip":"28383","miles_from_dt":21.07},{"city":"Pope Army Airfield","state_name":"North Carolina","lat":35.17206,"lng":-79.0149,"zip":"28308","miles_from_dt":22.55},{"city":"Fayetteville","state_name":"North Carolina","lat":34.94713,"lng":-78.73225,"zip":"28312","miles_from_dt":23.38},{"city":"White Oak","state_name":"North Carolina","lat":34.77885,"lng":-78.72953,"zip":"28399","miles_from_dt":23.42},{"city":"Marston","state_name":"North Carolina","lat":34.95772,"lng":-79.53384,"zip":"28363","miles_from_dt":23.93},{"city":"Laurel Hill","state_name":"North Carolina","lat":34.84098,"lng":-79.56102,"zip":"28351","miles_from_dt":24.53},{"city":"Aberdeen","state_name":"North Carolina","lat":35.1122,"lng":-79.44452,"zip":"28315","miles_from_dt":24.97},{"city":"Vass","state_name":"North Carolina","lat":35.21652,"lng":-79.23777,"zip":"28394","miles_from_dt":25.4},{"city":"Fayetteville","state_name":"North Carolina","lat":35.17033,"lng":-78.88223,"zip":"28311","miles_from_dt":25.65},{"city":"Pinebluff","state_name":"North Carolina","lat":35.09079,"lng":-79.48522,"zip":"28373","miles_from_dt":25.73},{"city":"Southern Pines","state_name":"North Carolina","lat":35.18059,"lng":-79.37566,"zip":"28387","miles_from_dt":26.19},{"city":"Gibson","state_name":"North Carolina","lat":34.76454,"lng":-79.58129,"zip":"28343","miles_from_dt":26.48},{"city":"Spring Lake","state_name":"North Carolina","lat":35.21783,"lng":-78.95488,"zip":"28390","miles_from_dt":26.66},{"city":"Fairmont","state_name":"North Carolina","lat":34.47136,"lng":-79.1403,"zip":"28340","miles_from_dt":26.72},{"city":"Proctorville","state_name":"North Carolina","lat":34.47723,"lng":-79.04337,"zip":"28375","miles_from_dt":26.77},{"city":"Little Rock","state_name":"South Carolina","lat":34.55325,"lng":-79.42649,"zip":"29567","miles_from_dt":27},{"city":"Southern Pines","state_name":"North Carolina","lat":35.18181,"lng":-79.4019,"zip":"28388","miles_from_dt":27.08},{"city":"Stedman","state_name":"North Carolina","lat":35.03045,"lng":-78.70009,"zip":"28391","miles_from_dt":27.11},{"city":"Dublin","state_name":"North Carolina","lat":34.65808,"lng":-78.70971,"zip":"28332","miles_from_dt":27.62},{"city":"McColl","state_name":"South Carolina","lat":34.67495,"lng":-79.5624,"zip":"29570","miles_from_dt":27.68},{"city":"Hoffman","state_name":"North Carolina","lat":35.04652,"lng":-79.56203,"zip":"28347","miles_from_dt":27.73},{"city":"Hamer","state_name":"South Carolina","lat":34.48684,"lng":-79.33243,"zip":"29547","miles_from_dt":28.12},{"city":"Lakeview","state_name":"North Carolina","lat":35.2488,"lng":-79.32064,"zip":"28350","miles_from_dt":28.97},{"city":"Cameron","state_name":"North Carolina","lat":35.27938,"lng":-79.16989,"zip":"28326","miles_from_dt":29.08},{"city":"Pinehurst","state_name":"North Carolina","lat":35.18208,"lng":-79.46043,"zip":"28370","miles_from_dt":29.12},{"city":"Bladenboro","state_name":"North Carolina","lat":34.55378,"lng":-78.77456,"zip":"28320","miles_from_dt":29.18},{"city":"Wade","state_name":"North Carolina","lat":35.13643,"lng":-78.73855,"zip":"28395","miles_from_dt":29.3},{"city":"Tatum","state_name":"South Carolina","lat":34.64017,"lng":-79.57728,"zip":"29594","miles_from_dt":29.59},{"city":"Pinehurst","state_name":"North Carolina","lat":35.19705,"lng":-79.46009,"zip":"28374","miles_from_dt":29.9}],"targetCityZipCode":"28386","targetCityState":"North Carolina"},"__N_SSG":true}