{"pageProps":{"stateName":"North-carolina","cityName":"thurmond","nearbyCities":[{"city":"Roaring Gap","state_name":"North Carolina","lat":36.40698,"lng":-80.99024,"zip":"28668","miles_from_dt":4.54},{"city":"State Road","state_name":"North Carolina","lat":36.3283,"lng":-80.85722,"zip":"28676","miles_from_dt":5.15},{"city":"Elkin","state_name":"North Carolina","lat":36.30863,"lng":-80.83612,"zip":"28621","miles_from_dt":6.94},{"city":"Glade Valley","state_name":"North Carolina","lat":36.4528,"lng":-81.01294,"zip":"28627","miles_from_dt":7.16},{"city":"Traphill","state_name":"North Carolina","lat":36.34729,"lng":-81.04097,"zip":"28685","miles_from_dt":7.72},{"city":"Dobson","state_name":"North Carolina","lat":36.38141,"lng":-80.76052,"zip":"27017","miles_from_dt":8.47},{"city":"Lowgap","state_name":"North Carolina","lat":36.52399,"lng":-80.84027,"zip":"27024","miles_from_dt":10.17},{"city":"Ennice","state_name":"North Carolina","lat":36.53088,"lng":-80.97185,"zip":"28623","miles_from_dt":10.37},{"city":"Roaring River","state_name":"North Carolina","lat":36.22538,"lng":-80.99443,"zip":"28669","miles_from_dt":12.14},{"city":"Jonesville","state_name":"North Carolina","lat":36.22433,"lng":-80.81628,"zip":"28642","miles_from_dt":12.51},{"city":"Hays","state_name":"North Carolina","lat":36.33297,"lng":-81.12603,"zip":"28635","miles_from_dt":12.52},{"city":"Ronda","state_name":"North Carolina","lat":36.19508,"lng":-80.92282,"zip":"28670","miles_from_dt":13.34},{"city":"Sparta","state_name":"North Carolina","lat":36.50642,"lng":-81.13546,"zip":"28675","miles_from_dt":14.87},{"city":"Lambsburg","state_name":"Virginia","lat":36.58081,"lng":-80.76591,"zip":"24351","miles_from_dt":15.57},{"city":"North Wilkesboro","state_name":"North Carolina","lat":36.20329,"lng":-81.07659,"zip":"28656","miles_from_dt":15.72},{"city":"Mount Airy","state_name":"North Carolina","lat":36.44556,"lng":-80.63361,"zip":"27031","miles_from_dt":16.02},{"city":"McGrady","state_name":"North Carolina","lat":36.33198,"lng":-81.20326,"zip":"28649","miles_from_dt":16.69},{"city":"Boonville","state_name":"North Carolina","lat":36.21649,"lng":-80.69728,"zip":"27011","miles_from_dt":16.86},{"city":"Mount Airy","state_name":"North Carolina","lat":36.48836,"lng":-80.63013,"zip":"27030","miles_from_dt":17.16},{"city":"Toast","state_name":"North Carolina","lat":36.49624,"lng":-80.63293,"zip":"27049","miles_from_dt":17.24},{"city":"Galax","state_name":"Virginia","lat":36.64057,"lng":-80.92921,"zip":"24333","miles_from_dt":17.42},{"city":"Ararat","state_name":"North Carolina","lat":36.38799,"lng":-80.59144,"zip":"27007","miles_from_dt":17.88},{"city":"North Wilkesboro","state_name":"North Carolina","lat":36.16647,"lng":-81.07913,"zip":"28659","miles_from_dt":17.91},{"city":"Siloam","state_name":"North Carolina","lat":36.31178,"lng":-80.57786,"zip":"27047","miles_from_dt":19.38},{"city":"Cana","state_name":"Virginia","lat":36.60138,"lng":-80.66876,"zip":"24317","miles_from_dt":19.99},{"city":"Laurel Springs","state_name":"North Carolina","lat":36.43134,"lng":-81.26758,"zip":"28644","miles_from_dt":20.03},{"city":"Hamptonville","state_name":"North Carolina","lat":36.1047,"lng":-80.81272,"zip":"27020","miles_from_dt":20.33},{"city":"Millers Creek","state_name":"North Carolina","lat":36.27241,"lng":-81.28496,"zip":"28651","miles_from_dt":22.28},{"city":"Wilkesboro","state_name":"North Carolina","lat":36.13666,"lng":-81.16317,"zip":"28697","miles_from_dt":22.31},{"city":"Fancy Gap","state_name":"Virginia","lat":36.66185,"lng":-80.69382,"zip":"24328","miles_from_dt":22.44},{"city":"Independence","state_name":"Virginia","lat":36.63897,"lng":-81.17392,"zip":"24348","miles_from_dt":22.6},{"city":"Woodlawn","state_name":"Virginia","lat":36.72453,"lng":-80.83924,"zip":"24381","miles_from_dt":23.53},{"city":"Union Grove","state_name":"North Carolina","lat":36.04319,"lng":-80.93345,"zip":"28689","miles_from_dt":23.83},{"city":"Piney Creek","state_name":"North Carolina","lat":36.53477,"lng":-81.30063,"zip":"28663","miles_from_dt":23.87},{"city":"Pilot Mountain","state_name":"North Carolina","lat":36.41539,"lng":-80.48465,"zip":"27041","miles_from_dt":23.9},{"city":"Fries","state_name":"Virginia","lat":36.72375,"lng":-81.02471,"zip":"24330","miles_from_dt":23.96},{"city":"Scottville","state_name":"North Carolina","lat":36.48381,"lng":-81.32735,"zip":"28672","miles_from_dt":24.05},{"city":"Yadkinville","state_name":"North Carolina","lat":36.11382,"lng":-80.63586,"zip":"27055","miles_from_dt":24.42},{"city":"Glendale Springs","state_name":"North Carolina","lat":36.34196,"lng":-81.36423,"zip":"28629","miles_from_dt":25.41},{"city":"East Bend","state_name":"North Carolina","lat":36.1978,"lng":-80.52096,"zip":"27018","miles_from_dt":25.49},{"city":"Moravian Falls","state_name":"North Carolina","lat":36.06338,"lng":-81.15003,"zip":"28654","miles_from_dt":26.05},{"city":"Pinnacle","state_name":"North Carolina","lat":36.33709,"lng":-80.44917,"zip":"27043","miles_from_dt":26.06},{"city":"Ararat","state_name":"Virginia","lat":36.60999,"lng":-80.53283,"zip":"24053","miles_from_dt":26.07},{"city":"Crumpler","state_name":"North Carolina","lat":36.48433,"lng":-81.38264,"zip":"28617","miles_from_dt":27.03},{"city":"Jefferson","state_name":"North Carolina","lat":36.40385,"lng":-81.40751,"zip":"28640","miles_from_dt":27.63},{"city":"Elk Creek","state_name":"Virginia","lat":36.72771,"lng":-81.19625,"zip":"24326","miles_from_dt":28.24},{"city":"Purlear","state_name":"North Carolina","lat":36.20969,"lng":-81.37392,"zip":"28665","miles_from_dt":28.56},{"city":"Hillsville","state_name":"Virginia","lat":36.76612,"lng":-80.70045,"zip":"24343","miles_from_dt":28.59},{"city":"Olin","state_name":"North Carolina","lat":35.9689,"lng":-80.85785,"zip":"28660","miles_from_dt":29.08},{"city":"Ivanhoe","state_name":"Virginia","lat":36.81109,"lng":-81.01757,"zip":"24350","miles_from_dt":29.73},{"city":"Grassy Creek","state_name":"North Carolina","lat":36.55218,"lng":-81.40994,"zip":"28631","miles_from_dt":29.93}],"targetCityZipCode":"28683","targetCityState":"North Carolina"},"__N_SSG":true}