{"pageProps":{"stateName":"North-carolina","cityName":"toast","nearbyCities":[{"city":"Mount Airy","state_name":"North Carolina","lat":36.48836,"lng":-80.63013,"zip":"27030","miles_from_dt":0.57},{"city":"Mount Airy","state_name":"North Carolina","lat":36.44556,"lng":-80.63361,"zip":"27031","miles_from_dt":3.49},{"city":"Cana","state_name":"Virginia","lat":36.60138,"lng":-80.66876,"zip":"24317","miles_from_dt":7.52},{"city":"Ararat","state_name":"North Carolina","lat":36.38799,"lng":-80.59144,"zip":"27007","miles_from_dt":7.81},{"city":"Lambsburg","state_name":"Virginia","lat":36.58081,"lng":-80.76591,"zip":"24351","miles_from_dt":9.42},{"city":"Ararat","state_name":"Virginia","lat":36.60999,"lng":-80.53283,"zip":"24053","miles_from_dt":9.62},{"city":"Pilot Mountain","state_name":"North Carolina","lat":36.41539,"lng":-80.48465,"zip":"27041","miles_from_dt":9.96},{"city":"Dobson","state_name":"North Carolina","lat":36.38141,"lng":-80.76052,"zip":"27017","miles_from_dt":10.64},{"city":"Lowgap","state_name":"North Carolina","lat":36.52399,"lng":-80.84027,"zip":"27024","miles_from_dt":11.7},{"city":"Fancy Gap","state_name":"Virginia","lat":36.66185,"lng":-80.69382,"zip":"24328","miles_from_dt":11.91},{"city":"Siloam","state_name":"North Carolina","lat":36.31178,"lng":-80.57786,"zip":"27047","miles_from_dt":13.08},{"city":"Claudville","state_name":"Virginia","lat":36.59704,"lng":-80.42116,"zip":"24076","miles_from_dt":13.68},{"city":"Pinnacle","state_name":"North Carolina","lat":36.33709,"lng":-80.44917,"zip":"27043","miles_from_dt":15.01},{"city":"Westfield","state_name":"North Carolina","lat":36.47317,"lng":-80.34989,"zip":"27053","miles_from_dt":15.84},{"city":"Laurel Fork","state_name":"Virginia","lat":36.71547,"lng":-80.53437,"zip":"24352","miles_from_dt":16.08},{"city":"State Road","state_name":"North Carolina","lat":36.3283,"lng":-80.85722,"zip":"28676","miles_from_dt":17.04},{"city":"Elkin","state_name":"North Carolina","lat":36.30863,"lng":-80.83612,"zip":"28621","miles_from_dt":17.19},{"city":"Thurmond","state_name":"North Carolina","lat":36.38835,"lng":-80.91219,"zip":"28683","miles_from_dt":17.24},{"city":"Hillsville","state_name":"Virginia","lat":36.76612,"lng":-80.70045,"zip":"24343","miles_from_dt":18.98},{"city":"Ennice","state_name":"North Carolina","lat":36.53088,"lng":-80.97185,"zip":"28623","miles_from_dt":19.01},{"city":"Galax","state_name":"Virginia","lat":36.64057,"lng":-80.92921,"zip":"24333","miles_from_dt":19.25},{"city":"Woodlawn","state_name":"Virginia","lat":36.72453,"lng":-80.83924,"zip":"24381","miles_from_dt":19.48},{"city":"Boonville","state_name":"North Carolina","lat":36.21649,"lng":-80.69728,"zip":"27011","miles_from_dt":19.62},{"city":"Meadows Of Dan","state_name":"Virginia","lat":36.71891,"lng":-80.41277,"zip":"24120","miles_from_dt":19.64},{"city":"Vesta","state_name":"Virginia","lat":36.72266,"lng":-80.40026,"zip":"24177","miles_from_dt":20.27},{"city":"King","state_name":"North Carolina","lat":36.31859,"lng":-80.3386,"zip":"27021","miles_from_dt":20.47},{"city":"Roaring Gap","state_name":"North Carolina","lat":36.40698,"lng":-80.99024,"zip":"28668","miles_from_dt":20.83},{"city":"Jonesville","state_name":"North Carolina","lat":36.22433,"lng":-80.81628,"zip":"28642","miles_from_dt":21.36},{"city":"Glade Valley","state_name":"North Carolina","lat":36.4528,"lng":-81.01294,"zip":"28627","miles_from_dt":21.37},{"city":"East Bend","state_name":"North Carolina","lat":36.1978,"lng":-80.52096,"zip":"27018","miles_from_dt":21.5},{"city":"Dugspur","state_name":"Virginia","lat":36.80918,"lng":-80.60608,"zip":"24325","miles_from_dt":21.63},{"city":"Tobaccoville","state_name":"North Carolina","lat":36.23608,"lng":-80.40116,"zip":"27050","miles_from_dt":22.11},{"city":"Lawsonville","state_name":"North Carolina","lat":36.51409,"lng":-80.21739,"zip":"27022","miles_from_dt":23.16},{"city":"Danbury","state_name":"North Carolina","lat":36.44318,"lng":-80.2219,"zip":"27016","miles_from_dt":23.18},{"city":"Traphill","state_name":"North Carolina","lat":36.34729,"lng":-81.04097,"zip":"28685","miles_from_dt":24.95},{"city":"Stuart","state_name":"Virginia","lat":36.67095,"lng":-80.23835,"zip":"24171","miles_from_dt":25.03},{"city":"Rural Hall","state_name":"North Carolina","lat":36.23678,"lng":-80.29703,"zip":"27094","miles_from_dt":25.9},{"city":"Willis","state_name":"Virginia","lat":36.85672,"lng":-80.50183,"zip":"24380","miles_from_dt":25.9},{"city":"Rural Hall","state_name":"North Carolina","lat":36.22923,"lng":-80.3045,"zip":"27098","miles_from_dt":25.97},{"city":"Rural Hall","state_name":"North Carolina","lat":36.23482,"lng":-80.29614,"zip":"27045","miles_from_dt":26.03},{"city":"Rural Hall","state_name":"North Carolina","lat":36.22858,"lng":-80.3032,"zip":"27099","miles_from_dt":26.05},{"city":"Ronda","state_name":"North Carolina","lat":36.19508,"lng":-80.92282,"zip":"28670","miles_from_dt":26.32},{"city":"Pfafftown","state_name":"North Carolina","lat":36.16869,"lng":-80.38969,"zip":"27040","miles_from_dt":26.35},{"city":"Yadkinville","state_name":"North Carolina","lat":36.11382,"lng":-80.63586,"zip":"27055","miles_from_dt":26.37},{"city":"Germanton","state_name":"North Carolina","lat":36.28604,"lng":-80.23548,"zip":"27019","miles_from_dt":26.48},{"city":"Austinville","state_name":"Virginia","lat":36.83117,"lng":-80.86897,"zip":"24312","miles_from_dt":26.56},{"city":"Fries","state_name":"Virginia","lat":36.72375,"lng":-81.02471,"zip":"24330","miles_from_dt":26.84},{"city":"Bethania","state_name":"North Carolina","lat":36.16581,"lng":-80.3695,"zip":"27010","miles_from_dt":27.11},{"city":"Roaring River","state_name":"North Carolina","lat":36.22538,"lng":-80.99443,"zip":"28669","miles_from_dt":27.48},{"city":"Sparta","state_name":"North Carolina","lat":36.50642,"lng":-81.13546,"zip":"28675","miles_from_dt":27.98},{"city":"Indian Valley","state_name":"Virginia","lat":36.90278,"lng":-80.60127,"zip":"24105","miles_from_dt":28.09},{"city":"Hamptonville","state_name":"North Carolina","lat":36.1047,"lng":-80.81272,"zip":"27020","miles_from_dt":28.8},{"city":"Woolwine","state_name":"Virginia","lat":36.80868,"lng":-80.27557,"zip":"24185","miles_from_dt":29.3},{"city":"Critz","state_name":"Virginia","lat":36.62923,"lng":-80.13204,"zip":"24082","miles_from_dt":29.33},{"city":"Walnut Cove","state_name":"North Carolina","lat":36.32259,"lng":-80.14552,"zip":"27052","miles_from_dt":29.69},{"city":"Hays","state_name":"North Carolina","lat":36.33297,"lng":-81.12603,"zip":"28635","miles_from_dt":29.7},{"city":"Lewisville","state_name":"North Carolina","lat":36.09103,"lng":-80.45101,"zip":"27023","miles_from_dt":29.73},{"city":"Winston Salem","state_name":"North Carolina","lat":36.14255,"lng":-80.3228,"zip":"27106","miles_from_dt":29.9}],"targetCityZipCode":"27049","targetCityState":"North Carolina"},"__N_SSG":true}