{"pageProps":{"stateName":"North-carolina","cityName":"trenton","nearbyCities":[{"city":"Comfort","state_name":"North Carolina","lat":35.00339,"lng":-77.52227,"zip":"28522","miles_from_dt":6.97},{"city":"Cove City","state_name":"North Carolina","lat":35.20662,"lng":-77.29541,"zip":"28523","miles_from_dt":12.59},{"city":"Dover","state_name":"North Carolina","lat":35.24439,"lng":-77.40447,"zip":"28526","miles_from_dt":13.23},{"city":"Pollocksville","state_name":"North Carolina","lat":34.97997,"lng":-77.19794,"zip":"28573","miles_from_dt":13.29},{"city":"Kinston","state_name":"North Carolina","lat":35.23838,"lng":-77.52658,"zip":"28501","miles_from_dt":14.28},{"city":"Jacksonville","state_name":"North Carolina","lat":34.83461,"lng":-77.38818,"zip":"28546","miles_from_dt":15.11},{"city":"Richlands","state_name":"North Carolina","lat":34.87716,"lng":-77.59212,"zip":"28574","miles_from_dt":15.73},{"city":"Maysville","state_name":"North Carolina","lat":34.86982,"lng":-77.24543,"zip":"28555","miles_from_dt":15.86},{"city":"Deep Run","state_name":"North Carolina","lat":35.1241,"lng":-77.68987,"zip":"28525","miles_from_dt":16.34},{"city":"New Bern","state_name":"North Carolina","lat":35.08105,"lng":-77.12486,"zip":"28562","miles_from_dt":16.56},{"city":"Kinston","state_name":"North Carolina","lat":35.26168,"lng":-77.57793,"zip":"28502","miles_from_dt":17.11},{"city":"Kinston","state_name":"North Carolina","lat":35.22755,"lng":-77.63566,"zip":"28504","miles_from_dt":17.37},{"city":"Pink Hill","state_name":"North Carolina","lat":35.02256,"lng":-77.72637,"zip":"28572","miles_from_dt":17.78},{"city":"Kinston","state_name":"North Carolina","lat":35.28006,"lng":-77.5829,"zip":"28503","miles_from_dt":18.33},{"city":"New Bern","state_name":"North Carolina","lat":35.10113,"lng":-77.07703,"zip":"28561","miles_from_dt":19.44},{"city":"Jacksonville","state_name":"North Carolina","lat":34.76496,"lng":-77.4039,"zip":"28541","miles_from_dt":19.84},{"city":"Jacksonville","state_name":"North Carolina","lat":34.74361,"lng":-77.49833,"zip":"28540","miles_from_dt":21.82},{"city":"Grifton","state_name":"North Carolina","lat":35.372,"lng":-77.41579,"zip":"28530","miles_from_dt":22.02},{"city":"Tarawa Terrace","state_name":"North Carolina","lat":34.73263,"lng":-77.39825,"zip":"28543","miles_from_dt":22.08},{"city":"Beulaville","state_name":"North Carolina","lat":34.89678,"lng":-77.75569,"zip":"28518","miles_from_dt":22.12},{"city":"New Bern","state_name":"North Carolina","lat":35.07483,"lng":-77.02219,"zip":"28564","miles_from_dt":22.32},{"city":"Camp Lejeune","state_name":"North Carolina","lat":34.72992,"lng":-77.46198,"zip":"28542","miles_from_dt":22.41},{"city":"Vanceboro","state_name":"North Carolina","lat":35.31884,"lng":-77.16602,"zip":"28586","miles_from_dt":23.14},{"city":"Bridgeton","state_name":"North Carolina","lat":35.1268,"lng":-77.01477,"zip":"28519","miles_from_dt":23.25},{"city":"Albertson","state_name":"North Carolina","lat":35.09684,"lng":-77.82789,"zip":"28508","miles_from_dt":23.6},{"city":"New Bern","state_name":"North Carolina","lat":35.13821,"lng":-77.00635,"zip":"28563","miles_from_dt":23.89},{"city":"Chinquapin","state_name":"North Carolina","lat":34.82136,"lng":-77.73684,"zip":"28521","miles_from_dt":24.25},{"city":"Midway Park","state_name":"North Carolina","lat":34.70853,"lng":-77.31562,"zip":"28544","miles_from_dt":24.38},{"city":"Stella","state_name":"North Carolina","lat":34.7613,"lng":-77.14507,"zip":"28582","miles_from_dt":25.26},{"city":"New Bern","state_name":"North Carolina","lat":35.13354,"lng":-76.97575,"zip":"28560","miles_from_dt":25.5},{"city":"Mccutcheon Field","state_name":"North Carolina","lat":34.68375,"lng":-77.34191,"zip":"28545","miles_from_dt":25.77},{"city":"Hookerton","state_name":"North Carolina","lat":35.41769,"lng":-77.56366,"zip":"28538","miles_from_dt":26.53},{"city":"Ernul","state_name":"North Carolina","lat":35.26396,"lng":-77.01568,"zip":"28527","miles_from_dt":26.89},{"city":"Ayden","state_name":"North Carolina","lat":35.44276,"lng":-77.3897,"zip":"28513","miles_from_dt":26.93},{"city":"Hubert","state_name":"North Carolina","lat":34.6891,"lng":-77.23615,"zip":"28539","miles_from_dt":27.04},{"city":"Seven Springs","state_name":"North Carolina","lat":35.20017,"lng":-77.86332,"zip":"28578","miles_from_dt":27.35},{"city":"La Grange","state_name":"North Carolina","lat":35.32204,"lng":-77.78087,"zip":"28551","miles_from_dt":27.82},{"city":"Swansboro","state_name":"North Carolina","lat":34.72632,"lng":-77.10002,"zip":"28584","miles_from_dt":28.74},{"city":"Kenansville","state_name":"North Carolina","lat":34.98206,"lng":-77.92033,"zip":"28349","miles_from_dt":29.07},{"city":"Camp Lejeune","state_name":"North Carolina","lat":34.62518,"lng":-77.36307,"zip":"28547","miles_from_dt":29.61},{"city":"Maple Hill","state_name":"North Carolina","lat":34.6703,"lng":-77.65393,"zip":"28454","miles_from_dt":29.65}],"targetCityZipCode":"28585","targetCityState":"North Carolina"},"__N_SSG":true}