{"pageProps":{"stateName":"Maryland","cityName":"hancock","nearbyCities":[{"city":"Warfordsburg","state_name":"Pennsylvania","lat":39.80389,"lng":-78.23958,"zip":"17267","miles_from_dt":8.19},{"city":"Berkeley Springs","state_name":"West Virginia","lat":39.55497,"lng":-78.22004,"zip":"25411","miles_from_dt":9.12},{"city":"Little Orleans","state_name":"Maryland","lat":39.65928,"lng":-78.39859,"zip":"21766","miles_from_dt":10.08},{"city":"Big Pool","state_name":"Maryland","lat":39.66808,"lng":-78.01247,"zip":"21711","miles_from_dt":10.76},{"city":"Big Cove Tannery","state_name":"Pennsylvania","lat":39.81,"lng":-78.07073,"zip":"17212","miles_from_dt":11.37},{"city":"Artemas","state_name":"Pennsylvania","lat":39.75191,"lng":-78.41457,"zip":"17211","miles_from_dt":11.64},{"city":"Great Cacapon","state_name":"West Virginia","lat":39.55812,"lng":-78.35887,"zip":"25422","miles_from_dt":11.82},{"city":"Needmore","state_name":"Pennsylvania","lat":39.8612,"lng":-78.13003,"zip":"17238","miles_from_dt":12.8},{"city":"Hedgesville","state_name":"West Virginia","lat":39.52608,"lng":-78.09098,"zip":"25427","miles_from_dt":12.87},{"city":"Clearville","state_name":"Pennsylvania","lat":39.826,"lng":-78.45001,"zip":"15535","miles_from_dt":15.86},{"city":"Clear Spring","state_name":"Maryland","lat":39.66575,"lng":-77.91457,"zip":"21722","miles_from_dt":15.97},{"city":"Mercersburg","state_name":"Pennsylvania","lat":39.79997,"lng":-77.94305,"zip":"17236","miles_from_dt":16.35},{"city":"Flintstone","state_name":"Maryland","lat":39.68878,"lng":-78.54138,"zip":"21530","miles_from_dt":17.51},{"city":"Martinsburg","state_name":"West Virginia","lat":39.4842,"lng":-78.00725,"zip":"25403","miles_from_dt":17.78},{"city":"Crystal Spring","state_name":"Pennsylvania","lat":39.94956,"lng":-78.2109,"zip":"15536","miles_from_dt":18.12},{"city":"Falling Waters","state_name":"West Virginia","lat":39.58286,"lng":-77.88493,"zip":"25419","miles_from_dt":18.91},{"city":"Oldtown","state_name":"Maryland","lat":39.58777,"lng":-78.55685,"zip":"21555","miles_from_dt":19.58},{"city":"Martinsburg","state_name":"West Virginia","lat":39.46145,"lng":-77.96982,"zip":"25402","miles_from_dt":20.26},{"city":"Paw Paw","state_name":"West Virginia","lat":39.45797,"lng":-78.45038,"zip":"25434","miles_from_dt":20.26},{"city":"Martinsburg","state_name":"West Virginia","lat":39.45642,"lng":-77.97267,"zip":"25401","miles_from_dt":20.43},{"city":"Breezewood","state_name":"Pennsylvania","lat":39.98585,"lng":-78.24566,"zip":"15533","miles_from_dt":20.69},{"city":"McConnellsburg","state_name":"Pennsylvania","lat":39.95118,"lng":-78.00406,"zip":"17233","miles_from_dt":21.35},{"city":"Glengary","state_name":"West Virginia","lat":39.37821,"lng":-78.16384,"zip":"25421","miles_from_dt":21.46},{"city":"Gerrardstown","state_name":"West Virginia","lat":39.38095,"lng":-78.11969,"zip":"25420","miles_from_dt":21.69},{"city":"Martinsburg","state_name":"West Virginia","lat":39.48631,"lng":-77.89782,"zip":"25404","miles_from_dt":21.78},{"city":"Williamsport","state_name":"Maryland","lat":39.582,"lng":-77.82733,"zip":"21795","miles_from_dt":21.81},{"city":"Harrisonville","state_name":"Pennsylvania","lat":39.99512,"lng":-78.09831,"zip":"17228","miles_from_dt":22.12},{"city":"Cross Junction","state_name":"Virginia","lat":39.37397,"lng":-78.31172,"zip":"22625","miles_from_dt":22.23},{"city":"Lemasters","state_name":"Pennsylvania","lat":39.86021,"lng":-77.85934,"zip":"17231","miles_from_dt":22.3},{"city":"Everett","state_name":"Pennsylvania","lat":39.9981,"lng":-78.36506,"zip":"15537","miles_from_dt":22.94},{"city":"Martinsburg","state_name":"West Virginia","lat":39.40892,"lng":-77.96235,"zip":"25405","miles_from_dt":23.39},{"city":"Levels","state_name":"West Virginia","lat":39.48682,"lng":-78.57279,"zip":"25431","miles_from_dt":23.66},{"city":"Inwood","state_name":"West Virginia","lat":39.37407,"lng":-78.02729,"zip":"25428","miles_from_dt":23.76},{"city":"Slanesville","state_name":"West Virginia","lat":39.43543,"lng":-78.52081,"zip":"25444","miles_from_dt":23.91},{"city":"Bloomery","state_name":"West Virginia","lat":39.35957,"lng":-78.39067,"zip":"26817","miles_from_dt":24.5},{"city":"Maugansville","state_name":"Maryland","lat":39.69773,"lng":-77.74638,"zip":"21767","miles_from_dt":24.88},{"city":"Hagerstown","state_name":"Maryland","lat":39.63447,"lng":-77.74596,"zip":"21747","miles_from_dt":25.16},{"city":"Hagerstown","state_name":"Maryland","lat":39.63737,"lng":-77.74454,"zip":"21749","miles_from_dt":25.21},{"city":"Greencastle","state_name":"Pennsylvania","lat":39.78706,"lng":-77.75709,"zip":"17225","miles_from_dt":25.24},{"city":"Saint James","state_name":"Maryland","lat":39.57123,"lng":-77.75981,"zip":"21781","miles_from_dt":25.46},{"city":"Bedford","state_name":"Pennsylvania","lat":39.94931,"lng":-78.55173,"zip":"15522","miles_from_dt":25.54},{"city":"Hagerstown","state_name":"Maryland","lat":39.63233,"lng":-77.73902,"zip":"21740","miles_from_dt":25.55},{"city":"Green Spring","state_name":"West Virginia","lat":39.49774,"lng":-78.63463,"zip":"26722","miles_from_dt":26.02},{"city":"Fairplay","state_name":"Maryland","lat":39.55004,"lng":-77.75838,"zip":"21733","miles_from_dt":26.03},{"city":"Fort Loudon","state_name":"Pennsylvania","lat":39.9723,"lng":-77.89195,"zip":"17224","miles_from_dt":26.06},{"city":"Saint Thomas","state_name":"Pennsylvania","lat":39.91317,"lng":-77.81695,"zip":"17252","miles_from_dt":26.22},{"city":"Hagerstown","state_name":"Maryland","lat":39.64139,"lng":-77.71879,"zip":"21741","miles_from_dt":26.53},{"city":"State Line","state_name":"Pennsylvania","lat":39.72409,"lng":-77.71727,"zip":"17263","miles_from_dt":26.54},{"city":"Points","state_name":"West Virginia","lat":39.4225,"lng":-78.57623,"zip":"25437","miles_from_dt":26.63},{"city":"Bunker Hill","state_name":"West Virginia","lat":39.31632,"lng":-78.053,"zip":"25413","miles_from_dt":26.96},{"city":"Wells Tannery","state_name":"Pennsylvania","lat":40.07744,"lng":-78.1473,"zip":"16691","miles_from_dt":27.16},{"city":"Shepherdstown","state_name":"West Virginia","lat":39.43835,"lng":-77.81477,"zip":"25443","miles_from_dt":27.32},{"city":"Spring Gap","state_name":"Maryland","lat":39.56508,"lng":-78.70632,"zip":"21560","miles_from_dt":27.63},{"city":"Funkstown","state_name":"Maryland","lat":39.60583,"lng":-77.70382,"zip":"21734","miles_from_dt":27.72},{"city":"Hagerstown","state_name":"Maryland","lat":39.56591,"lng":-77.71409,"zip":"21746","miles_from_dt":27.89},{"city":"Ridgeway","state_name":"West Virginia","lat":39.29801,"lng":-78.07101,"zip":"25440","miles_from_dt":27.89},{"city":"Winchester","state_name":"Virginia","lat":39.28153,"lng":-78.2056,"zip":"22603","miles_from_dt":27.97},{"city":"Kearneysville","state_name":"West Virginia","lat":39.34024,"lng":-77.93899,"zip":"25430","miles_from_dt":28.04},{"city":"Cumberland","state_name":"Maryland","lat":39.66077,"lng":-78.74317,"zip":"21504","miles_from_dt":28.33},{"city":"Cumberland","state_name":"Maryland","lat":39.65805,"lng":-78.74626,"zip":"21505","miles_from_dt":28.51},{"city":"Sharpsburg","state_name":"Maryland","lat":39.4552,"lng":-77.75995,"zip":"21782","miles_from_dt":28.99},{"city":"Hustontown","state_name":"Pennsylvania","lat":40.07853,"lng":-78.01144,"zip":"17229","miles_from_dt":29.06},{"city":"Cumberland","state_name":"Maryland","lat":39.64143,"lng":-78.75609,"zip":"21502","miles_from_dt":29.13},{"city":"Cumberland","state_name":"Maryland","lat":39.64968,"lng":-78.75776,"zip":"21501","miles_from_dt":29.16},{"city":"Cumberland","state_name":"Maryland","lat":39.64708,"lng":-78.75968,"zip":"21503","miles_from_dt":29.28},{"city":"Springfield","state_name":"West Virginia","lat":39.4789,"lng":-78.69316,"zip":"26763","miles_from_dt":29.38},{"city":"Wiley Ford","state_name":"West Virginia","lat":39.61581,"lng":-78.75674,"zip":"26767","miles_from_dt":29.42},{"city":"Buffalo Mills","state_name":"Pennsylvania","lat":39.89712,"lng":-78.69589,"zip":"15534","miles_from_dt":29.51},{"city":"Hagerstown","state_name":"Maryland","lat":39.67363,"lng":-77.65928,"zip":"21742","miles_from_dt":29.53},{"city":"Waterfall","state_name":"Pennsylvania","lat":40.10737,"lng":-78.10028,"zip":"16689","miles_from_dt":29.61},{"city":"Shady Grove","state_name":"Pennsylvania","lat":39.77776,"lng":-77.66873,"zip":"17256","miles_from_dt":29.66},{"city":"Clear Brook","state_name":"Virginia","lat":39.26535,"lng":-78.09507,"zip":"22624","miles_from_dt":29.76},{"city":"Shenandoah Junction","state_name":"West Virginia","lat":39.37157,"lng":-77.83181,"zip":"25442","miles_from_dt":29.8},{"city":"Marion","state_name":"Pennsylvania","lat":39.85699,"lng":-77.69743,"zip":"17235","miles_from_dt":29.84},{"city":"Capon Bridge","state_name":"West Virginia","lat":39.30301,"lng":-78.47073,"zip":"26711","miles_from_dt":29.86},{"city":"Fort Littleton","state_name":"Pennsylvania","lat":40.06521,"lng":-77.9389,"zip":"17223","miles_from_dt":29.88},{"city":"Hopewell","state_name":"Pennsylvania","lat":40.11592,"lng":-78.29237,"zip":"16650","miles_from_dt":29.89}],"targetCityZipCode":"21750","targetCityState":"Maryland"},"__N_SSG":true}