{"pageProps":{"stateName":"Louisiana","cityName":"arnaudville","nearbyCities":[{"city":"Leonville","state_name":"Louisiana","lat":30.46675,"lng":-91.98028,"zip":"70551","miles_from_dt":5.01},{"city":"Cecilia","state_name":"Louisiana","lat":30.33629,"lng":-91.848,"zip":"70521","miles_from_dt":6.96},{"city":"Grand Coteau","state_name":"Louisiana","lat":30.42062,"lng":-92.0426,"zip":"70541","miles_from_dt":7.14},{"city":"Carencro","state_name":"Louisiana","lat":30.33265,"lng":-92.03619,"zip":"70520","miles_from_dt":8.73},{"city":"Krotz Springs","state_name":"Louisiana","lat":30.46433,"lng":-91.7865,"zip":"70750","miles_from_dt":8.89},{"city":"Port Barre","state_name":"Louisiana","lat":30.54848,"lng":-91.92018,"zip":"70577","miles_from_dt":9.31},{"city":"Sunset","state_name":"Louisiana","lat":30.38856,"lng":-92.10193,"zip":"70584","miles_from_dt":10.8},{"city":"Lafayette","state_name":"Louisiana","lat":30.28293,"lng":-92.02825,"zip":"70507","miles_from_dt":10.95},{"city":"Breaux Bridge","state_name":"Louisiana","lat":30.28421,"lng":-91.79615,"zip":"70517","miles_from_dt":11.7},{"city":"Opelousas","state_name":"Louisiana","lat":30.53454,"lng":-92.08015,"zip":"70571","miles_from_dt":12.54},{"city":"Lafayette","state_name":"Louisiana","lat":30.2391,"lng":-91.99122,"zip":"70501","miles_from_dt":12.67},{"city":"Lafayette","state_name":"Louisiana","lat":30.23593,"lng":-92.00615,"zip":"70509","miles_from_dt":13.18},{"city":"Opelousas","state_name":"Louisiana","lat":30.5315,"lng":-92.10852,"zip":"70570","miles_from_dt":13.72},{"city":"Lafayette","state_name":"Louisiana","lat":30.22411,"lng":-92.0226,"zip":"70502","miles_from_dt":14.32},{"city":"Lafayette","state_name":"Louisiana","lat":30.22032,"lng":-92.01705,"zip":"70596","miles_from_dt":14.43},{"city":"Lafayette","state_name":"Louisiana","lat":30.22616,"lng":-92.04407,"zip":"70505","miles_from_dt":14.77},{"city":"Lafayette","state_name":"Louisiana","lat":30.21431,"lng":-92.02859,"zip":"70593","miles_from_dt":15.08},{"city":"Scott","state_name":"Louisiana","lat":30.25846,"lng":-92.12204,"zip":"70583","miles_from_dt":15.96},{"city":"Lafayette","state_name":"Louisiana","lat":30.19022,"lng":-92.03711,"zip":"70504","miles_from_dt":16.81},{"city":"Lafayette","state_name":"Louisiana","lat":30.17595,"lng":-92.00999,"zip":"70598","miles_from_dt":17.15},{"city":"Lawtell","state_name":"Louisiana","lat":30.5157,"lng":-92.18966,"zip":"70550","miles_from_dt":17.38},{"city":"Church Point","state_name":"Louisiana","lat":30.40765,"lng":-92.21761,"zip":"70525","miles_from_dt":17.57},{"city":"Lafayette","state_name":"Louisiana","lat":30.19586,"lng":-92.08075,"zip":"70506","miles_from_dt":17.69},{"city":"Lafayette","state_name":"Louisiana","lat":30.17353,"lng":-92.05901,"zip":"70503","miles_from_dt":18.4},{"city":"Lottie","state_name":"Louisiana","lat":30.53256,"lng":-91.64705,"zip":"70756","miles_from_dt":18.42},{"city":"Lafayette","state_name":"Louisiana","lat":30.15627,"lng":-92.02913,"zip":"70508","miles_from_dt":18.8},{"city":"Broussard","state_name":"Louisiana","lat":30.13503,"lng":-91.92922,"zip":"70518","miles_from_dt":19.17},{"city":"Saint Martinville","state_name":"Louisiana","lat":30.15961,"lng":-91.7854,"zip":"70582","miles_from_dt":19.33},{"city":"Melville","state_name":"Louisiana","lat":30.67949,"lng":-91.79664,"zip":"71353","miles_from_dt":19.83},{"city":"Washington","state_name":"Louisiana","lat":30.68584,"lng":-92.04098,"zip":"70589","miles_from_dt":20.04},{"city":"Duson","state_name":"Louisiana","lat":30.19593,"lng":-92.16327,"zip":"70529","miles_from_dt":20.73},{"city":"Palmetto","state_name":"Louisiana","lat":30.72631,"lng":-91.87553,"zip":"71358","miles_from_dt":21.75},{"city":"Lebeau","state_name":"Louisiana","lat":30.72867,"lng":-91.97531,"zip":"71345","miles_from_dt":21.94},{"city":"Cade","state_name":"Louisiana","lat":30.08178,"lng":-91.90705,"zip":"70519","miles_from_dt":22.86},{"city":"Branch","state_name":"Louisiana","lat":30.3674,"lng":-92.30289,"zip":"70516","miles_from_dt":22.88},{"city":"Maringouin","state_name":"Louisiana","lat":30.37204,"lng":-91.53468,"zip":"70757","miles_from_dt":23.38},{"city":"Milton","state_name":"Louisiana","lat":30.10042,"lng":-92.07573,"zip":"70558","miles_from_dt":23.4},{"city":"Youngsville","state_name":"Louisiana","lat":30.08024,"lng":-92.01338,"zip":"70592","miles_from_dt":23.57},{"city":"Rayne","state_name":"Louisiana","lat":30.2291,"lng":-92.26261,"zip":"70578","miles_from_dt":23.92},{"city":"Fordoche","state_name":"Louisiana","lat":30.6322,"lng":-91.60678,"zip":"70732","miles_from_dt":24.16},{"city":"Chataignier","state_name":"Louisiana","lat":30.55737,"lng":-92.31859,"zip":"70524","miles_from_dt":25.58},{"city":"Maurice","state_name":"Louisiana","lat":30.08188,"lng":-92.14123,"zip":"70555","miles_from_dt":26.29},{"city":"Livonia","state_name":"Louisiana","lat":30.59473,"lng":-91.52981,"zip":"70755","miles_from_dt":26.59},{"city":"Rosedale","state_name":"Louisiana","lat":30.43748,"lng":-91.46484,"zip":"70772","miles_from_dt":27.42},{"city":"Loreauville","state_name":"Louisiana","lat":30.0617,"lng":-91.66641,"zip":"70552","miles_from_dt":28.69},{"city":"Morganza","state_name":"Louisiana","lat":30.71346,"lng":-91.58762,"zip":"70759","miles_from_dt":28.78},{"city":"New Iberia","state_name":"Louisiana","lat":30.02454,"lng":-91.73053,"zip":"70563","miles_from_dt":29.16},{"city":"Lettsworth","state_name":"Louisiana","lat":30.7999,"lng":-91.72106,"zip":"70753","miles_from_dt":29.23},{"city":"Oscar","state_name":"Louisiana","lat":30.57843,"lng":-91.46695,"zip":"70762","miles_from_dt":29.51},{"city":"Morrow","state_name":"Louisiana","lat":30.83423,"lng":-92.02988,"zip":"71356","miles_from_dt":29.68},{"city":"Grosse Tete","state_name":"Louisiana","lat":30.33777,"lng":-91.43311,"zip":"70740","miles_from_dt":29.74},{"city":"New Iberia","state_name":"Louisiana","lat":29.99052,"lng":-91.81723,"zip":"70562","miles_from_dt":29.81},{"city":"Crowley","state_name":"Louisiana","lat":30.23174,"lng":-92.37891,"zip":"70527","miles_from_dt":29.96}],"targetCityZipCode":"70512","targetCityState":"Louisiana"},"__N_SSG":true}