{"pageProps":{"stateName":"Louisiana","cityName":"baldwin","nearbyCities":[{"city":"Charenton","state_name":"Louisiana","lat":29.87383,"lng":-91.52956,"zip":"70523","miles_from_dt":2.42},{"city":"Franklin","state_name":"Louisiana","lat":29.74051,"lng":-91.54092,"zip":"70538","miles_from_dt":7.25},{"city":"Garden City","state_name":"Louisiana","lat":29.76571,"lng":-91.4674,"zip":"70540","miles_from_dt":7.51},{"city":"Jeanerette","state_name":"Louisiana","lat":29.9059,"lng":-91.6575,"zip":"70544","miles_from_dt":7.54},{"city":"Centerville","state_name":"Louisiana","lat":29.74949,"lng":-91.43287,"zip":"70522","miles_from_dt":9.77},{"city":"Lydia","state_name":"Louisiana","lat":29.92602,"lng":-91.78256,"zip":"70569","miles_from_dt":14.86},{"city":"New Iberia","state_name":"Louisiana","lat":30.02454,"lng":-91.73053,"zip":"70563","miles_from_dt":16.31},{"city":"Loreauville","state_name":"Louisiana","lat":30.0617,"lng":-91.66641,"zip":"70552","miles_from_dt":16.39},{"city":"Patterson","state_name":"Louisiana","lat":29.69847,"lng":-91.32164,"zip":"70392","miles_from_dt":17.19},{"city":"New Iberia","state_name":"Louisiana","lat":29.99052,"lng":-91.81723,"zip":"70562","miles_from_dt":18.75},{"city":"New Iberia","state_name":"Louisiana","lat":29.93965,"lng":-91.8642,"zip":"70560","miles_from_dt":19.78},{"city":"Avery Island","state_name":"Louisiana","lat":29.90272,"lng":-91.90106,"zip":"70513","miles_from_dt":21.27},{"city":"Berwick","state_name":"Louisiana","lat":29.69486,"lng":-91.23772,"zip":"70342","miles_from_dt":21.59},{"city":"Pierre Part","state_name":"Louisiana","lat":29.92987,"lng":-91.18357,"zip":"70339","miles_from_dt":22.93},{"city":"Morgan City","state_name":"Louisiana","lat":29.69724,"lng":-91.19509,"zip":"70381","miles_from_dt":23.8},{"city":"Delcambre","state_name":"Louisiana","lat":29.89766,"lng":-91.96692,"zip":"70528","miles_from_dt":25.11},{"city":"Saint Martinville","state_name":"Louisiana","lat":30.15961,"lng":-91.7854,"zip":"70582","miles_from_dt":25.75},{"city":"Cade","state_name":"Louisiana","lat":30.08178,"lng":-91.90705,"zip":"70519","miles_from_dt":26.77},{"city":"Morgan City","state_name":"Louisiana","lat":29.71944,"lng":-91.12634,"zip":"70380","miles_from_dt":27.06},{"city":"Erath","state_name":"Louisiana","lat":29.90439,"lng":-92.03536,"zip":"70533","miles_from_dt":29.24},{"city":"Amelia","state_name":"Louisiana","lat":29.66974,"lng":-91.1043,"zip":"70340","miles_from_dt":29.55}],"targetCityZipCode":"70514","targetCityState":"Louisiana"},"__N_SSG":true}