{"pageProps":{"stateName":"Louisiana","cityName":"belcher","nearbyCities":[{"city":"Gilliam","state_name":"Louisiana","lat":32.83733,"lng":-93.83446,"zip":"71029","miles_from_dt":6.58},{"city":"Oil City","state_name":"Louisiana","lat":32.75342,"lng":-93.97742,"zip":"71061","miles_from_dt":6.96},{"city":"Vivian","state_name":"Louisiana","lat":32.84389,"lng":-93.97763,"zip":"71082","miles_from_dt":9.77},{"city":"Hosston","state_name":"Louisiana","lat":32.88789,"lng":-93.88906,"zip":"71043","miles_from_dt":10.07},{"city":"Shreveport","state_name":"Louisiana","lat":32.59509,"lng":-93.85909,"zip":"71107","miles_from_dt":10.26},{"city":"Mooringsport","state_name":"Louisiana","lat":32.63933,"lng":-93.987,"zip":"71060","miles_from_dt":10.4},{"city":"Shreveport","state_name":"Louisiana","lat":32.593,"lng":-93.85411,"zip":"71137","miles_from_dt":10.41},{"city":"Blanchard","state_name":"Louisiana","lat":32.57793,"lng":-93.89185,"zip":"71009","miles_from_dt":11.61},{"city":"Benton","state_name":"Louisiana","lat":32.72871,"lng":-93.63511,"zip":"71006","miles_from_dt":13.05},{"city":"Bossier City","state_name":"Louisiana","lat":32.57904,"lng":-93.70379,"zip":"71111","miles_from_dt":14.51},{"city":"Plain Dealing","state_name":"Louisiana","lat":32.91356,"lng":-93.68761,"zip":"71064","miles_from_dt":15.34},{"city":"Ida","state_name":"Louisiana","lat":32.96662,"lng":-93.88083,"zip":"71044","miles_from_dt":15.39},{"city":"Shreveport","state_name":"Louisiana","lat":32.51535,"lng":-93.74993,"zip":"71153","miles_from_dt":16.98},{"city":"Shreveport","state_name":"Louisiana","lat":32.51461,"lng":-93.74727,"zip":"71151","miles_from_dt":17.09},{"city":"Shreveport","state_name":"Louisiana","lat":32.51134,"lng":-93.74808,"zip":"71156","miles_from_dt":17.28},{"city":"Rodessa","state_name":"Louisiana","lat":32.9726,"lng":-93.9887,"zip":"71069","miles_from_dt":17.48},{"city":"Bossier City","state_name":"Louisiana","lat":32.51385,"lng":-93.73108,"zip":"71171","miles_from_dt":17.51},{"city":"Shreveport","state_name":"Louisiana","lat":32.50781,"lng":-93.74489,"zip":"71163","miles_from_dt":17.57},{"city":"Shreveport","state_name":"Louisiana","lat":32.5062,"lng":-93.74822,"zip":"71101","miles_from_dt":17.6},{"city":"Shreveport","state_name":"Louisiana","lat":32.50808,"lng":-93.74124,"zip":"71149","miles_from_dt":17.64},{"city":"Shreveport","state_name":"Louisiana","lat":32.50441,"lng":-93.74469,"zip":"71120","miles_from_dt":17.79},{"city":"Shreveport","state_name":"Louisiana","lat":32.50525,"lng":-93.7412,"zip":"71166","miles_from_dt":17.82},{"city":"Shreveport","state_name":"Louisiana","lat":32.5042,"lng":-93.74365,"zip":"71164","miles_from_dt":17.83},{"city":"Shreveport","state_name":"Louisiana","lat":32.50244,"lng":-93.74385,"zip":"71165","miles_from_dt":17.94},{"city":"Shreveport","state_name":"Louisiana","lat":32.50305,"lng":-93.74103,"zip":"71162","miles_from_dt":17.96},{"city":"Shreveport","state_name":"Louisiana","lat":32.49334,"lng":-93.77152,"zip":"71102","miles_from_dt":18},{"city":"Shreveport","state_name":"Louisiana","lat":32.49798,"lng":-93.75199,"zip":"71161","miles_from_dt":18.06},{"city":"Shreveport","state_name":"Louisiana","lat":32.49291,"lng":-93.76637,"zip":"71154","miles_from_dt":18.12},{"city":"Shreveport","state_name":"Louisiana","lat":32.49154,"lng":-93.7717,"zip":"71103","miles_from_dt":18.12},{"city":"Shreveport","state_name":"Louisiana","lat":32.49105,"lng":-93.7693,"zip":"71130","miles_from_dt":18.19},{"city":"Shreveport","state_name":"Louisiana","lat":32.48542,"lng":-93.92296,"zip":"71119","miles_from_dt":18.21},{"city":"Shreveport","state_name":"Louisiana","lat":32.48871,"lng":-93.76813,"zip":"71133","miles_from_dt":18.36},{"city":"Karnack","state_name":"Texas","lat":32.63908,"lng":-94.15655,"zip":"75661","miles_from_dt":18.82},{"city":"Bossier City","state_name":"Louisiana","lat":32.53032,"lng":-93.65261,"zip":"71172","miles_from_dt":19},{"city":"McLeod","state_name":"Texas","lat":32.95202,"lng":-94.07527,"zip":"75565","miles_from_dt":19.09},{"city":"Shreveport","state_name":"Louisiana","lat":32.46859,"lng":-93.814,"zip":"71109","miles_from_dt":19.16},{"city":"Shreveport","state_name":"Louisiana","lat":32.48525,"lng":-93.73171,"zip":"71104","miles_from_dt":19.3},{"city":"Shreveport","state_name":"Louisiana","lat":32.47863,"lng":-93.73523,"zip":"71134","miles_from_dt":19.65},{"city":"Bossier City","state_name":"Louisiana","lat":32.4964,"lng":-93.6874,"zip":"71113","miles_from_dt":19.76},{"city":"Shreveport","state_name":"Louisiana","lat":32.4572,"lng":-93.77776,"zip":"71148","miles_from_dt":20.32},{"city":"Shreveport","state_name":"Louisiana","lat":32.44236,"lng":-93.78881,"zip":"71108","miles_from_dt":21.18},{"city":"Jonesville","state_name":"Texas","lat":32.50725,"lng":-94.09249,"zip":"75659","miles_from_dt":21.27},{"city":"Shreveport","state_name":"Louisiana","lat":32.44092,"lng":-93.78844,"zip":"71152","miles_from_dt":21.28},{"city":"Barksdale Afb","state_name":"Louisiana","lat":32.50289,"lng":-93.63027,"zip":"71110","miles_from_dt":21.29},{"city":"Bivins","state_name":"Texas","lat":32.94564,"lng":-94.13696,"zip":"75555","miles_from_dt":21.34},{"city":"Shreveport","state_name":"Louisiana","lat":32.45512,"lng":-93.71012,"zip":"71105","miles_from_dt":21.71},{"city":"Greenwood","state_name":"Louisiana","lat":32.44121,"lng":-94.00364,"zip":"71033","miles_from_dt":22.52},{"city":"Shreveport","state_name":"Louisiana","lat":32.442,"lng":-93.70774,"zip":"71135","miles_from_dt":22.59},{"city":"Haughton","state_name":"Louisiana","lat":32.56359,"lng":-93.52804,"zip":"71037","miles_from_dt":22.92},{"city":"Shreveport","state_name":"Louisiana","lat":32.41873,"lng":-93.7609,"zip":"71136","miles_from_dt":23.13},{"city":"Shreveport","state_name":"Louisiana","lat":32.40577,"lng":-93.79601,"zip":"71138","miles_from_dt":23.59},{"city":"Princeton","state_name":"Louisiana","lat":32.59836,"lng":-93.49118,"zip":"71067","miles_from_dt":23.64},{"city":"Waskom","state_name":"Texas","lat":32.4718,"lng":-94.11936,"zip":"75692","miles_from_dt":24.16},{"city":"Bossier City","state_name":"Louisiana","lat":32.44373,"lng":-93.63874,"zip":"71112","miles_from_dt":24.34},{"city":"Shreveport","state_name":"Louisiana","lat":32.39262,"lng":-93.80498,"zip":"71118","miles_from_dt":24.42},{"city":"Lodi","state_name":"Texas","lat":32.88784,"lng":-94.24962,"zip":"75564","miles_from_dt":24.83},{"city":"Shreveport","state_name":"Louisiana","lat":32.38697,"lng":-93.92685,"zip":"71129","miles_from_dt":24.93},{"city":"Shreveport","state_name":"Louisiana","lat":32.386,"lng":-93.93019,"zip":"71150","miles_from_dt":25.02},{"city":"Bradley","state_name":"Arkansas","lat":33.08994,"lng":-93.72536,"zip":"71826","miles_from_dt":25.06},{"city":"Cotton Valley","state_name":"Louisiana","lat":32.82178,"lng":-93.42972,"zip":"71018","miles_from_dt":25.52},{"city":"Shreveport","state_name":"Louisiana","lat":32.38507,"lng":-93.73558,"zip":"71106","miles_from_dt":25.75},{"city":"Jefferson","state_name":"Texas","lat":32.79437,"lng":-94.30498,"zip":"75657","miles_from_dt":26.23},{"city":"Doddridge","state_name":"Arkansas","lat":33.11552,"lng":-93.9577,"zip":"71834","miles_from_dt":26.24},{"city":"Kildare","state_name":"Texas","lat":32.93588,"lng":-94.25302,"zip":"75562","miles_from_dt":26.49},{"city":"Sarepta","state_name":"Louisiana","lat":32.91747,"lng":-93.45099,"zip":"71071","miles_from_dt":26.55},{"city":"Scottsville","state_name":"Texas","lat":32.53417,"lng":-94.24071,"zip":"75688","miles_from_dt":26.57},{"city":"Bethany","state_name":"Louisiana","lat":32.36854,"lng":-94.00502,"zip":"71007","miles_from_dt":27.25},{"city":"Springhill","state_name":"Louisiana","lat":32.99349,"lng":-93.49199,"zip":"71075","miles_from_dt":27.38},{"city":"Cullen","state_name":"Louisiana","lat":32.96721,"lng":-93.44597,"zip":"71021","miles_from_dt":28.5},{"city":"Woodlawn","state_name":"Texas","lat":32.6383,"lng":-94.34442,"zip":"75694","miles_from_dt":29.24}],"targetCityZipCode":"71004","targetCityState":"Louisiana"},"__N_SSG":true}