{"pageProps":{"stateName":"Louisiana","cityName":"bush","nearbyCities":[{"city":"Sun","state_name":"Louisiana","lat":30.6551,"lng":-89.90162,"zip":"70463","miles_from_dt":5.14},{"city":"Talisheek","state_name":"Louisiana","lat":30.54416,"lng":-89.89221,"zip":"70464","miles_from_dt":6.68},{"city":"Covington","state_name":"Louisiana","lat":30.55955,"lng":-90.101,"zip":"70435","miles_from_dt":8.49},{"city":"Abita Springs","state_name":"Louisiana","lat":30.48767,"lng":-89.95907,"zip":"70420","miles_from_dt":8.61},{"city":"Bogalusa","state_name":"Louisiana","lat":30.74587,"lng":-89.9125,"zip":"70427","miles_from_dt":9.88},{"city":"Saint Benedict","state_name":"Louisiana","lat":30.52743,"lng":-90.11332,"zip":"70457","miles_from_dt":10.24},{"city":"Covington","state_name":"Louisiana","lat":30.46636,"lng":-90.09263,"zip":"70434","miles_from_dt":12.35},{"city":"Folsom","state_name":"Louisiana","lat":30.60909,"lng":-90.20928,"zip":"70437","miles_from_dt":14.13},{"city":"Bogalusa","state_name":"Louisiana","lat":30.78778,"lng":-89.84833,"zip":"70429","miles_from_dt":14.17},{"city":"Covington","state_name":"Louisiana","lat":30.46184,"lng":-90.13796,"zip":"70433","miles_from_dt":14.31},{"city":"Mandeville","state_name":"Louisiana","lat":30.407,"lng":-90.06346,"zip":"70471","miles_from_dt":15.14},{"city":"Mandeville","state_name":"Louisiana","lat":30.38819,"lng":-90.08131,"zip":"70470","miles_from_dt":16.74},{"city":"Lacombe","state_name":"Louisiana","lat":30.36352,"lng":-89.91265,"zip":"70445","miles_from_dt":17.49},{"city":"Mandeville","state_name":"Louisiana","lat":30.36278,"lng":-90.03943,"zip":"70448","miles_from_dt":17.64},{"city":"Franklinton","state_name":"Louisiana","lat":30.84139,"lng":-90.11186,"zip":"70438","miles_from_dt":17.85},{"city":"Pearl River","state_name":"Louisiana","lat":30.41424,"lng":-89.76048,"zip":"70452","miles_from_dt":18.58},{"city":"Carriere","state_name":"Mississippi","lat":30.65375,"lng":-89.65709,"zip":"39426","miles_from_dt":18.99},{"city":"Madisonville","state_name":"Louisiana","lat":30.42144,"lng":-90.20257,"zip":"70447","miles_from_dt":19.01},{"city":"Nicholson","state_name":"Mississippi","lat":30.55766,"lng":-89.64431,"zip":"39463","miles_from_dt":19.9},{"city":"McNeill","state_name":"Mississippi","lat":30.66848,"lng":-89.63896,"zip":"39457","miles_from_dt":20.22},{"city":"Picayune","state_name":"Mississippi","lat":30.53328,"lng":-89.63424,"zip":"39466","miles_from_dt":20.86},{"city":"Varnado","state_name":"Louisiana","lat":30.89361,"lng":-89.82944,"zip":"70467","miles_from_dt":21.17},{"city":"Robert","state_name":"Louisiana","lat":30.52438,"lng":-90.31883,"zip":"70455","miles_from_dt":21.53},{"city":"Husser","state_name":"Louisiana","lat":30.70307,"lng":-90.33433,"zip":"70442","miles_from_dt":22.46},{"city":"Loranger","state_name":"Louisiana","lat":30.63612,"lng":-90.35159,"zip":"70446","miles_from_dt":22.67},{"city":"Angie","state_name":"Louisiana","lat":30.93142,"lng":-89.85807,"zip":"70426","miles_from_dt":23.02},{"city":"Slidell","state_name":"Louisiana","lat":30.29925,"lng":-89.83455,"zip":"70460","miles_from_dt":23.06},{"city":"Slidell","state_name":"Louisiana","lat":30.28635,"lng":-89.77264,"zip":"70459","miles_from_dt":25.4},{"city":"Slidell","state_name":"Louisiana","lat":30.28026,"lng":-89.77657,"zip":"70469","miles_from_dt":25.67},{"city":"Slidell","state_name":"Louisiana","lat":30.25864,"lng":-89.79441,"zip":"70458","miles_from_dt":26.56},{"city":"Stennis Space Center","state_name":"Mississippi","lat":30.37734,"lng":-89.60211,"zip":"39529","miles_from_dt":27.36},{"city":"Poplarville","state_name":"Mississippi","lat":30.81602,"lng":-89.57581,"zip":"39470","miles_from_dt":27.46},{"city":"Akers","state_name":"Louisiana","lat":30.39704,"lng":-90.36853,"zip":"70421","miles_from_dt":27.9},{"city":"Ponchatoula","state_name":"Louisiana","lat":30.39525,"lng":-90.3682,"zip":"70454","miles_from_dt":27.95},{"city":"Mount Hermon","state_name":"Louisiana","lat":30.93667,"lng":-90.26755,"zip":"70450","miles_from_dt":28.44},{"city":"Hammond","state_name":"Louisiana","lat":30.5281,"lng":-90.45472,"zip":"70401","miles_from_dt":29.34},{"city":"Hammond","state_name":"Louisiana","lat":30.51227,"lng":-90.45631,"zip":"70404","miles_from_dt":29.67}],"targetCityZipCode":"70431","targetCityState":"Louisiana"},"__N_SSG":true}