{"pageProps":{"stateName":"Louisiana","cityName":"collinston","nearbyCities":[{"city":"Oak Ridge","state_name":"Louisiana","lat":32.6029,"lng":-91.7734,"zip":"71264","miles_from_dt":7.34},{"city":"Monroe","state_name":"Louisiana","lat":32.58398,"lng":-92.01351,"zip":"71203","miles_from_dt":7.96},{"city":"Swartz","state_name":"Louisiana","lat":32.59535,"lng":-92.02099,"zip":"71281","miles_from_dt":8.03},{"city":"Bastrop","state_name":"Louisiana","lat":32.75636,"lng":-91.87619,"zip":"71221","miles_from_dt":8.25},{"city":"Fairbanks","state_name":"Louisiana","lat":32.64322,"lng":-92.03588,"zip":"71240","miles_from_dt":8.37},{"city":"Start","state_name":"Louisiana","lat":32.48667,"lng":-91.85671,"zip":"71279","miles_from_dt":10.59},{"city":"Monroe","state_name":"Louisiana","lat":32.6996,"lng":-92.07359,"zip":"71211","miles_from_dt":11.39},{"city":"Monroe","state_name":"Louisiana","lat":32.53036,"lng":-92.07206,"zip":"71209","miles_from_dt":12.81},{"city":"Monroe","state_name":"Louisiana","lat":32.52725,"lng":-92.0734,"zip":"71212","miles_from_dt":13},{"city":"Sterlington","state_name":"Louisiana","lat":32.72344,"lng":-92.10389,"zip":"71280","miles_from_dt":13.67},{"city":"Monroe","state_name":"Louisiana","lat":32.53915,"lng":-92.1069,"zip":"71201","miles_from_dt":14.22},{"city":"Rayville","state_name":"Louisiana","lat":32.44592,"lng":-91.78718,"zip":"71269","miles_from_dt":14.56},{"city":"Mer Rouge","state_name":"Louisiana","lat":32.77802,"lng":-91.69515,"zip":"71261","miles_from_dt":15.04},{"city":"Monroe","state_name":"Louisiana","lat":32.50494,"lng":-92.10361,"zip":"71210","miles_from_dt":15.33},{"city":"Monroe","state_name":"Louisiana","lat":32.51584,"lng":-92.11561,"zip":"71207","miles_from_dt":15.48},{"city":"Bastrop","state_name":"Louisiana","lat":32.8622,"lng":-91.91236,"zip":"71220","miles_from_dt":15.53},{"city":"Monroe","state_name":"Louisiana","lat":32.50965,"lng":-92.11905,"zip":"71213","miles_from_dt":15.88},{"city":"Monroe","state_name":"Louisiana","lat":32.49,"lng":-92.10219,"zip":"71217","miles_from_dt":15.9},{"city":"West Monroe","state_name":"Louisiana","lat":32.56977,"lng":-92.18277,"zip":"71291","miles_from_dt":17.56},{"city":"West Monroe","state_name":"Louisiana","lat":32.51108,"lng":-92.18203,"zip":"71294","miles_from_dt":19},{"city":"Monroe","state_name":"Louisiana","lat":32.39549,"lng":-92.05663,"zip":"71202","miles_from_dt":19.23},{"city":"Archibald","state_name":"Louisiana","lat":32.35081,"lng":-91.78739,"zip":"71218","miles_from_dt":20.68},{"city":"Bonita","state_name":"Louisiana","lat":32.90084,"lng":-91.67443,"zip":"71223","miles_from_dt":22.15},{"city":"Pioneer","state_name":"Louisiana","lat":32.70359,"lng":-91.48362,"zip":"71266","miles_from_dt":24.26},{"city":"Epps","state_name":"Louisiana","lat":32.58413,"lng":-91.48024,"zip":"71237","miles_from_dt":24.32},{"city":"Baskin","state_name":"Louisiana","lat":32.32344,"lng":-91.6842,"zip":"71219","miles_from_dt":24.82},{"city":"West Monroe","state_name":"Louisiana","lat":32.40147,"lng":-92.21569,"zip":"71292","miles_from_dt":24.91},{"city":"Mangham","state_name":"Louisiana","lat":32.2713,"lng":-91.84558,"zip":"71259","miles_from_dt":25.38},{"city":"Downsville","state_name":"Louisiana","lat":32.64306,"lng":-92.33954,"zip":"71234","miles_from_dt":26.07},{"city":"Marion","state_name":"Louisiana","lat":32.90615,"lng":-92.23793,"zip":"71260","miles_from_dt":27.34},{"city":"Delhi","state_name":"Louisiana","lat":32.41554,"lng":-91.493,"zip":"71232","miles_from_dt":27.89},{"city":"Calhoun","state_name":"Louisiana","lat":32.50784,"lng":-92.3477,"zip":"71225","miles_from_dt":28.02},{"city":"Jones","state_name":"Louisiana","lat":32.95983,"lng":-91.57327,"zip":"71250","miles_from_dt":28.96},{"city":"Farmerville","state_name":"Louisiana","lat":32.77107,"lng":-92.36531,"zip":"71241","miles_from_dt":29.05},{"city":"Forest","state_name":"Louisiana","lat":32.79223,"lng":-91.41291,"zip":"71242","miles_from_dt":29.91}],"targetCityZipCode":"71229","targetCityState":"Louisiana"},"__N_SSG":true}