{"pageProps":{"stateName":"Louisiana","cityName":"deville","nearbyCities":[{"city":"Center Point","state_name":"Louisiana","lat":31.26656,"lng":-92.21037,"zip":"71323","miles_from_dt":6.05},{"city":"Effie","state_name":"Louisiana","lat":31.2578,"lng":-92.07969,"zip":"71331","miles_from_dt":9.28},{"city":"Pineville","state_name":"Louisiana","lat":31.31597,"lng":-92.34593,"zip":"71360","miles_from_dt":9.51},{"city":"Ruby","state_name":"Louisiana","lat":31.18984,"lng":-92.24637,"zip":"71365","miles_from_dt":11.69},{"city":"Pineville","state_name":"Louisiana","lat":31.35643,"lng":-92.40665,"zip":"71361","miles_from_dt":12.75},{"city":"Ball","state_name":"Louisiana","lat":31.40971,"lng":-92.39771,"zip":"71405","miles_from_dt":12.83},{"city":"Pineville","state_name":"Louisiana","lat":31.32468,"lng":-92.4264,"zip":"71359","miles_from_dt":14.06},{"city":"Alexandria","state_name":"Louisiana","lat":31.2053,"lng":-92.36667,"zip":"71302","miles_from_dt":14.54},{"city":"Tioga","state_name":"Louisiana","lat":31.39442,"lng":-92.43482,"zip":"71477","miles_from_dt":14.7},{"city":"Libuse","state_name":"Louisiana","lat":31.26357,"lng":-92.42474,"zip":"71348","miles_from_dt":15.13},{"city":"Alexandria","state_name":"Louisiana","lat":31.28488,"lng":-92.45227,"zip":"71307","miles_from_dt":16.15},{"city":"Echo","state_name":"Louisiana","lat":31.11002,"lng":-92.24145,"zip":"71330","miles_from_dt":16.99},{"city":"Alexandria","state_name":"Louisiana","lat":31.27446,"lng":-92.46864,"zip":"71301","miles_from_dt":17.29},{"city":"Jena","state_name":"Louisiana","lat":31.60042,"lng":-92.1403,"zip":"71342","miles_from_dt":17.32},{"city":"Alexandria","state_name":"Louisiana","lat":31.25573,"lng":-92.47057,"zip":"71309","miles_from_dt":17.84},{"city":"Alexandria","state_name":"Louisiana","lat":31.25506,"lng":-92.47176,"zip":"71315","miles_from_dt":17.92},{"city":"Marksville","state_name":"Louisiana","lat":31.17227,"lng":-91.9604,"zip":"71351","miles_from_dt":18.46},{"city":"Pollock","state_name":"Louisiana","lat":31.55789,"lng":-92.39338,"zip":"71467","miles_from_dt":18.51},{"city":"Lecompte","state_name":"Louisiana","lat":31.11686,"lng":-92.38446,"zip":"71346","miles_from_dt":19.88},{"city":"Jonesville","state_name":"Louisiana","lat":31.51117,"lng":-91.90723,"zip":"71343","miles_from_dt":20},{"city":"Hessmer","state_name":"Louisiana","lat":31.05969,"lng":-92.16267,"zip":"71341","miles_from_dt":20.26},{"city":"Bentley","state_name":"Louisiana","lat":31.51837,"lng":-92.48402,"zip":"71407","miles_from_dt":20.73},{"city":"Mansura","state_name":"Louisiana","lat":31.06871,"lng":-92.06053,"zip":"71350","miles_from_dt":21.04},{"city":"Alexandria","state_name":"Louisiana","lat":31.28081,"lng":-92.54308,"zip":"71303","miles_from_dt":21.41},{"city":"Rhinehart","state_name":"Louisiana","lat":31.63397,"lng":-91.99885,"zip":"71363","miles_from_dt":22.45},{"city":"Trout","state_name":"Louisiana","lat":31.67542,"lng":-92.2587,"zip":"71371","miles_from_dt":22.59},{"city":"Woodworth","state_name":"Louisiana","lat":31.17811,"lng":-92.53186,"zip":"71485","miles_from_dt":23.49},{"city":"Cheneyville","state_name":"Louisiana","lat":31.01153,"lng":-92.32434,"zip":"71325","miles_from_dt":24.8},{"city":"Acme","state_name":"Louisiana","lat":31.27665,"lng":-91.76231,"zip":"71316","miles_from_dt":25.89},{"city":"Monterey","state_name":"Louisiana","lat":31.38364,"lng":-91.73548,"zip":"71354","miles_from_dt":27.01},{"city":"Cottonport","state_name":"Louisiana","lat":30.97895,"lng":-92.03863,"zip":"71327","miles_from_dt":27.29},{"city":"Moreauville","state_name":"Louisiana","lat":31.05257,"lng":-91.88531,"zip":"71355","miles_from_dt":27.48},{"city":"Dry Prong","state_name":"Louisiana","lat":31.60012,"lng":-92.56341,"zip":"71423","miles_from_dt":27.82},{"city":"Forest Hill","state_name":"Louisiana","lat":31.06764,"lng":-92.53135,"zip":"71430","miles_from_dt":28.14},{"city":"Hamburg","state_name":"Louisiana","lat":31.0058,"lng":-91.93637,"zip":"71339","miles_from_dt":28.26},{"city":"Colfax","state_name":"Louisiana","lat":31.51611,"lng":-92.65361,"zip":"71417","miles_from_dt":29.56}],"targetCityZipCode":"71328","targetCityState":"Louisiana"},"__N_SSG":true}