{"pageProps":{"stateName":"Louisiana","cityName":"french-settlement","nearbyCities":[{"city":"Saint Amant","state_name":"Louisiana","lat":30.22741,"lng":-90.78815,"zip":"70774","miles_from_dt":5.32},{"city":"Livingston","state_name":"Louisiana","lat":30.40542,"lng":-90.74462,"zip":"70754","miles_from_dt":7.58},{"city":"Gonzales","state_name":"Louisiana","lat":30.23169,"lng":-90.90539,"zip":"70707","miles_from_dt":8.29},{"city":"Maurepas","state_name":"Louisiana","lat":30.26363,"lng":-90.66345,"zip":"70449","miles_from_dt":8.34},{"city":"Prairieville","state_name":"Louisiana","lat":30.30802,"lng":-90.93967,"zip":"70769","miles_from_dt":8.66},{"city":"Brittany","state_name":"Louisiana","lat":30.20867,"lng":-90.89167,"zip":"70718","miles_from_dt":8.77},{"city":"Duplessis","state_name":"Louisiana","lat":30.27277,"lng":-90.94394,"zip":"70728","miles_from_dt":9.17},{"city":"Gonzales","state_name":"Louisiana","lat":30.22587,"lng":-90.92271,"zip":"70737","miles_from_dt":9.36},{"city":"Sorrento","state_name":"Louisiana","lat":30.16085,"lng":-90.81777,"zip":"70778","miles_from_dt":9.98},{"city":"Denham Springs","state_name":"Louisiana","lat":30.42994,"lng":-90.90361,"zip":"70726","miles_from_dt":10.82},{"city":"Baton Rouge","state_name":"Louisiana","lat":30.37558,"lng":-90.98026,"zip":"70817","miles_from_dt":12.11},{"city":"Baton Rouge","state_name":"Louisiana","lat":30.37501,"lng":-90.98083,"zip":"70879","miles_from_dt":12.13},{"city":"Springfield","state_name":"Louisiana","lat":30.3656,"lng":-90.58368,"zip":"70462","miles_from_dt":13.31},{"city":"Burnside","state_name":"Louisiana","lat":30.14074,"lng":-90.92423,"zip":"70738","miles_from_dt":13.67},{"city":"Geismar","state_name":"Louisiana","lat":30.20812,"lng":-91.00095,"zip":"70734","miles_from_dt":13.99},{"city":"Denham Springs","state_name":"Louisiana","lat":30.44986,"lng":-90.9678,"zip":"70727","miles_from_dt":14.39},{"city":"Baton Rouge","state_name":"Louisiana","lat":30.36767,"lng":-91.03668,"zip":"70896","miles_from_dt":15.09},{"city":"Darrow","state_name":"Louisiana","lat":30.13652,"lng":-90.97255,"zip":"70725","miles_from_dt":15.71},{"city":"Baton Rouge","state_name":"Louisiana","lat":30.4288,"lng":-91.02144,"zip":"70816","miles_from_dt":16.02},{"city":"Baton Rouge","state_name":"Louisiana","lat":30.4284,"lng":-91.02494,"zip":"70835","miles_from_dt":16.18},{"city":"Convent","state_name":"Louisiana","lat":30.06379,"lng":-90.84111,"zip":"70723","miles_from_dt":16.8},{"city":"Baton Rouge","state_name":"Louisiana","lat":30.47133,"lng":-91.00748,"zip":"70819","miles_from_dt":17.13},{"city":"Baton Rouge","state_name":"Louisiana","lat":30.34637,"lng":-91.07998,"zip":"70810","miles_from_dt":17.28},{"city":"Gramercy","state_name":"Louisiana","lat":30.07103,"lng":-90.68731,"zip":"70052","miles_from_dt":17.31},{"city":"Walker","state_name":"Louisiana","lat":30.55621,"lng":-90.81858,"zip":"70785","miles_from_dt":17.41},{"city":"Baton Rouge","state_name":"Louisiana","lat":30.39408,"lng":-91.07063,"zip":"70809","miles_from_dt":17.6},{"city":"Saint Gabriel","state_name":"Louisiana","lat":30.26051,"lng":-91.08923,"zip":"70776","miles_from_dt":17.86},{"city":"Paulina","state_name":"Louisiana","lat":30.04929,"lng":-90.73736,"zip":"70763","miles_from_dt":17.9},{"city":"Baton Rouge","state_name":"Louisiana","lat":30.40116,"lng":-91.07715,"zip":"70826","miles_from_dt":18.13},{"city":"Baton Rouge","state_name":"Louisiana","lat":30.38758,"lng":-91.08357,"zip":"70836","miles_from_dt":18.18},{"city":"Lutcher","state_name":"Louisiana","lat":30.05123,"lng":-90.70291,"zip":"70071","miles_from_dt":18.28},{"city":"Garyville","state_name":"Louisiana","lat":30.07356,"lng":-90.63999,"zip":"70051","miles_from_dt":18.4},{"city":"Baton Rouge","state_name":"Louisiana","lat":30.37726,"lng":-91.09601,"zip":"70884","miles_from_dt":18.68},{"city":"Carville","state_name":"Louisiana","lat":30.21639,"lng":-91.09301,"zip":"70721","miles_from_dt":18.83},{"city":"Holden","state_name":"Louisiana","lat":30.56173,"lng":-90.67689,"zip":"70744","miles_from_dt":19.08},{"city":"Donaldsonville","state_name":"Louisiana","lat":30.10774,"lng":-91.02061,"zip":"70346","miles_from_dt":19.13},{"city":"Hester","state_name":"Louisiana","lat":30.02655,"lng":-90.7729,"zip":"70743","miles_from_dt":19.18},{"city":"Baton Rouge","state_name":"Louisiana","lat":30.45537,"lng":-91.06648,"zip":"70815","miles_from_dt":19.27},{"city":"Albany","state_name":"Louisiana","lat":30.53065,"lng":-90.60229,"zip":"70711","miles_from_dt":19.37},{"city":"Uncle Sam","state_name":"Louisiana","lat":30.02348,"lng":-90.77791,"zip":"70792","miles_from_dt":19.37},{"city":"Baton Rouge","state_name":"Louisiana","lat":30.43431,"lng":-91.0829,"zip":"70827","miles_from_dt":19.39},{"city":"Baton Rouge","state_name":"Louisiana","lat":30.45586,"lng":-91.07544,"zip":"70895","miles_from_dt":19.74},{"city":"Saint James","state_name":"Louisiana","lat":30.02628,"lng":-90.88198,"zip":"70086","miles_from_dt":19.85},{"city":"Mount Airy","state_name":"Louisiana","lat":30.04945,"lng":-90.63678,"zip":"70076","miles_from_dt":19.95},{"city":"Baton Rouge","state_name":"Louisiana","lat":30.48502,"lng":-91.06164,"zip":"70814","miles_from_dt":20.21},{"city":"Reserve","state_name":"Louisiana","lat":30.07242,"lng":-90.57251,"zip":"70084","miles_from_dt":20.79},{"city":"Watson","state_name":"Louisiana","lat":30.58236,"lng":-90.95429,"zip":"70786","miles_from_dt":21.38},{"city":"Baton Rouge","state_name":"Louisiana","lat":30.4057,"lng":-91.14236,"zip":"70808","miles_from_dt":21.9},{"city":"Baton Rouge","state_name":"Louisiana","lat":30.40746,"lng":-91.14291,"zip":"70833","miles_from_dt":21.97},{"city":"Hammond","state_name":"Louisiana","lat":30.47989,"lng":-90.48639,"zip":"70403","miles_from_dt":22.03},{"city":"Baton Rouge","state_name":"Louisiana","lat":30.41842,"lng":-91.13952,"zip":"70898","miles_from_dt":22.04},{"city":"Baton Rouge","state_name":"Louisiana","lat":30.44879,"lng":-91.1247,"zip":"70806","miles_from_dt":22.07},{"city":"Denham Springs","state_name":"Louisiana","lat":30.61453,"lng":-90.90086,"zip":"70706","miles_from_dt":22.28},{"city":"Baton Rouge","state_name":"Louisiana","lat":30.45729,"lng":-91.12488,"zip":"70821","miles_from_dt":22.35},{"city":"Baton Rouge","state_name":"Louisiana","lat":30.4503,"lng":-91.12932,"zip":"70822","miles_from_dt":22.36},{"city":"Baton Rouge","state_name":"Louisiana","lat":30.54233,"lng":-91.05006,"zip":"70818","miles_from_dt":22.38},{"city":"Sunshine","state_name":"Louisiana","lat":30.29538,"lng":-91.16993,"zip":"70780","miles_from_dt":22.43},{"city":"Greenwell Springs","state_name":"Louisiana","lat":30.60107,"lng":-90.9684,"zip":"70739","miles_from_dt":22.91},{"city":"Baton Rouge","state_name":"Louisiana","lat":30.50018,"lng":-91.11051,"zip":"70812","miles_from_dt":23.18},{"city":"Edgard","state_name":"Louisiana","lat":30.03062,"lng":-90.55911,"zip":"70049","miles_from_dt":23.55},{"city":"Baton Rouge","state_name":"Louisiana","lat":30.36812,"lng":-91.18279,"zip":"70820","miles_from_dt":23.59},{"city":"Baton Rouge","state_name":"Louisiana","lat":30.44714,"lng":-91.15674,"zip":"70892","miles_from_dt":23.75},{"city":"Baton Rouge","state_name":"Louisiana","lat":30.4122,"lng":-91.17251,"zip":"70893","miles_from_dt":23.75},{"city":"Vacherie","state_name":"Louisiana","lat":29.96725,"lng":-90.6934,"zip":"70090","miles_from_dt":24},{"city":"Baton Rouge","state_name":"Louisiana","lat":30.41165,"lng":-91.17783,"zip":"70803","miles_from_dt":24.04},{"city":"Baton Rouge","state_name":"Louisiana","lat":30.41585,"lng":-91.17747,"zip":"70894","miles_from_dt":24.11},{"city":"La Place","state_name":"Louisiana","lat":30.14113,"lng":-90.43502,"zip":"70068","miles_from_dt":24.29},{"city":"Hammond","state_name":"Louisiana","lat":30.51652,"lng":-90.46932,"zip":"70402","miles_from_dt":24.32},{"city":"Plattenville","state_name":"Louisiana","lat":29.9959,"lng":-90.99897,"zip":"70393","miles_from_dt":24.51},{"city":"Baton Rouge","state_name":"Louisiana","lat":30.53122,"lng":-91.11617,"zip":"70811","miles_from_dt":24.74},{"city":"Baton Rouge","state_name":"Louisiana","lat":30.44924,"lng":-91.17405,"zip":"70804","miles_from_dt":24.75},{"city":"Hammond","state_name":"Louisiana","lat":30.51227,"lng":-90.45631,"zip":"70404","miles_from_dt":24.77},{"city":"Baton Rouge","state_name":"Louisiana","lat":30.44691,"lng":-91.17554,"zip":"70802","miles_from_dt":24.77},{"city":"La Place","state_name":"Louisiana","lat":30.06438,"lng":-90.48252,"zip":"70069","miles_from_dt":24.95},{"city":"Baton Rouge","state_name":"Louisiana","lat":30.48831,"lng":-91.15951,"zip":"70805","miles_from_dt":25.19},{"city":"Baton Rouge","state_name":"Louisiana","lat":30.45,"lng":-91.18219,"zip":"70891","miles_from_dt":25.21},{"city":"Natalbany","state_name":"Louisiana","lat":30.54964,"lng":-90.48111,"zip":"70451","miles_from_dt":25.22},{"city":"Tickfaw","state_name":"Louisiana","lat":30.5685,"lng":-90.50195,"zip":"70466","miles_from_dt":25.23},{"city":"Baton Rouge","state_name":"Louisiana","lat":30.44336,"lng":-91.18698,"zip":"70873","miles_from_dt":25.3},{"city":"Baton Rouge","state_name":"Louisiana","lat":30.44336,"lng":-91.18698,"zip":"70874","miles_from_dt":25.3},{"city":"Baton Rouge","state_name":"Louisiana","lat":30.44889,"lng":-91.18596,"zip":"70831","miles_from_dt":25.39},{"city":"Baton Rouge","state_name":"Louisiana","lat":30.44954,"lng":-91.18608,"zip":"70801","miles_from_dt":25.42},{"city":"Baton Rouge","state_name":"Louisiana","lat":30.44578,"lng":-91.18923,"zip":"70823","miles_from_dt":25.49},{"city":"Hammond","state_name":"Louisiana","lat":30.5281,"lng":-90.45472,"zip":"70401","miles_from_dt":25.49},{"city":"Baton Rouge","state_name":"Louisiana","lat":30.45197,"lng":-91.18776,"zip":"70825","miles_from_dt":25.57},{"city":"White Castle","state_name":"Louisiana","lat":30.13618,"lng":-91.17939,"zip":"70788","miles_from_dt":25.76},{"city":"Belle Rose","state_name":"Louisiana","lat":30.02579,"lng":-91.08267,"zip":"70341","miles_from_dt":25.79},{"city":"Plaquemine","state_name":"Louisiana","lat":30.28825,"lng":-91.23356,"zip":"70765","miles_from_dt":26.25},{"city":"Ponchatoula","state_name":"Louisiana","lat":30.39525,"lng":-90.3682,"zip":"70454","miles_from_dt":26.25},{"city":"Akers","state_name":"Louisiana","lat":30.39704,"lng":-90.36853,"zip":"70421","miles_from_dt":26.26},{"city":"Paincourtville","state_name":"Louisiana","lat":29.99516,"lng":-91.06029,"zip":"70391","miles_from_dt":26.57},{"city":"Pride","state_name":"Louisiana","lat":30.65134,"lng":-90.99316,"zip":"70770","miles_from_dt":26.67},{"city":"Pine Grove","state_name":"Louisiana","lat":30.69385,"lng":-90.76918,"zip":"70453","miles_from_dt":26.87},{"city":"Independence","state_name":"Louisiana","lat":30.62885,"lng":-90.54257,"zip":"70443","miles_from_dt":26.95},{"city":"Baker","state_name":"Louisiana","lat":30.58634,"lng":-91.12812,"zip":"70714","miles_from_dt":27.8},{"city":"Addis","state_name":"Louisiana","lat":30.3559,"lng":-91.26773,"zip":"70710","miles_from_dt":28.48},{"city":"Baton Rouge","state_name":"Louisiana","lat":30.52777,"lng":-91.19742,"zip":"70813","miles_from_dt":28.54},{"city":"Baker","state_name":"Louisiana","lat":30.58368,"lng":-91.15428,"zip":"70704","miles_from_dt":28.82},{"city":"Baton Rouge","state_name":"Louisiana","lat":30.5425,"lng":-91.2068,"zip":"70807","miles_from_dt":29.56},{"city":"Baton Rouge","state_name":"Louisiana","lat":30.55077,"lng":-91.2036,"zip":"70837","miles_from_dt":29.72}],"targetCityZipCode":"70733","targetCityState":"Louisiana"},"__N_SSG":true}