{"pageProps":{"stateName":"Louisiana","cityName":"gretna","nearbyCities":[{"city":"Gretna","state_name":"Louisiana","lat":29.91237,"lng":-90.05459,"zip":"70054","miles_from_dt":0.17},{"city":"New Orleans","state_name":"Louisiana","lat":29.92294,"lng":-90.06866,"zip":"70158","miles_from_dt":1.09},{"city":"Harvey","state_name":"Louisiana","lat":29.90404,"lng":-90.07937,"zip":"70059","miles_from_dt":1.73},{"city":"New Orleans","state_name":"Louisiana","lat":29.93367,"lng":-90.0725,"zip":"70176","miles_from_dt":1.75},{"city":"New Orleans","state_name":"Louisiana","lat":29.93671,"lng":-90.06949,"zip":"70130","miles_from_dt":1.81},{"city":"New Orleans","state_name":"Louisiana","lat":29.93704,"lng":-90.0321,"zip":"70114","miles_from_dt":2},{"city":"New Orleans","state_name":"Louisiana","lat":29.94024,"lng":-90.06938,"zip":"70190","miles_from_dt":2.02},{"city":"Gretna","state_name":"Louisiana","lat":29.88848,"lng":-90.03028,"zip":"70056","miles_from_dt":2.26},{"city":"New Orleans","state_name":"Louisiana","lat":29.92663,"lng":-90.01742,"zip":"70174","miles_from_dt":2.3},{"city":"New Orleans","state_name":"Louisiana","lat":29.94469,"lng":-90.0716,"zip":"70165","miles_from_dt":2.35},{"city":"New Orleans","state_name":"Louisiana","lat":29.94112,"lng":-90.08045,"zip":"70161","miles_from_dt":2.45},{"city":"New Orleans","state_name":"Louisiana","lat":29.94042,"lng":-90.08496,"zip":"70160","miles_from_dt":2.61},{"city":"New Orleans","state_name":"Louisiana","lat":29.9422,"lng":-90.08382,"zip":"70113","miles_from_dt":2.65},{"city":"New Orleans","state_name":"Louisiana","lat":29.94863,"lng":-90.07374,"zip":"70166","miles_from_dt":2.65},{"city":"New Orleans","state_name":"Louisiana","lat":29.94734,"lng":-90.03016,"zip":"70142","miles_from_dt":2.65},{"city":"New Orleans","state_name":"Louisiana","lat":29.94197,"lng":-90.08446,"zip":"70152","miles_from_dt":2.66},{"city":"New Orleans","state_name":"Louisiana","lat":29.92068,"lng":-90.09701,"zip":"70154","miles_from_dt":2.66},{"city":"New Orleans","state_name":"Louisiana","lat":29.95023,"lng":-90.071,"zip":"70139","miles_from_dt":2.68},{"city":"New Orleans","state_name":"Louisiana","lat":29.94137,"lng":-90.08566,"zip":"70153","miles_from_dt":2.68},{"city":"New Orleans","state_name":"Louisiana","lat":29.94487,"lng":-90.08204,"zip":"70157","miles_from_dt":2.71},{"city":"New Orleans","state_name":"Louisiana","lat":29.95163,"lng":-90.07163,"zip":"70170","miles_from_dt":2.78},{"city":"New Orleans","state_name":"Louisiana","lat":29.94998,"lng":-90.07546,"zip":"70163","miles_from_dt":2.78},{"city":"New Orleans","state_name":"Louisiana","lat":29.94456,"lng":-90.08495,"zip":"70150","miles_from_dt":2.81},{"city":"New Orleans","state_name":"Louisiana","lat":29.94427,"lng":-90.0857,"zip":"70156","miles_from_dt":2.83},{"city":"New Orleans","state_name":"Louisiana","lat":29.94606,"lng":-90.08336,"zip":"70151","miles_from_dt":2.83},{"city":"New Orleans","state_name":"Louisiana","lat":29.95329,"lng":-90.07167,"zip":"70195","miles_from_dt":2.89},{"city":"New Orleans","state_name":"Louisiana","lat":29.92375,"lng":-90.10219,"zip":"70115","miles_from_dt":3.01},{"city":"New Orleans","state_name":"Louisiana","lat":29.95555,"lng":-90.07269,"zip":"70172","miles_from_dt":3.06},{"city":"New Orleans","state_name":"Louisiana","lat":29.92477,"lng":-90.10406,"zip":"70175","miles_from_dt":3.13},{"city":"Harvey","state_name":"Louisiana","lat":29.8701,"lng":-90.06708,"zip":"70058","miles_from_dt":3.17},{"city":"New Orleans","state_name":"Louisiana","lat":29.95608,"lng":-90.07733,"zip":"70112","miles_from_dt":3.21},{"city":"New Orleans","state_name":"Louisiana","lat":29.95885,"lng":-90.07491,"zip":"70162","miles_from_dt":3.32},{"city":"Metairie","state_name":"Louisiana","lat":29.86777,"lng":-90.06865,"zip":"70060","miles_from_dt":3.35},{"city":"New Orleans","state_name":"Louisiana","lat":29.96115,"lng":-90.03541,"zip":"70145","miles_from_dt":3.38},{"city":"New Orleans","state_name":"Louisiana","lat":29.96385,"lng":-90.0671,"zip":"70181","miles_from_dt":3.5},{"city":"New Orleans","state_name":"Louisiana","lat":29.96697,"lng":-90.06448,"zip":"70116","miles_from_dt":3.67},{"city":"New Orleans","state_name":"Louisiana","lat":29.9648,"lng":-90.08483,"zip":"70167","miles_from_dt":3.95},{"city":"New Orleans","state_name":"Louisiana","lat":29.95202,"lng":-90.10338,"zip":"70125","miles_from_dt":3.97},{"city":"New Orleans","state_name":"Louisiana","lat":29.9685,"lng":-90.03004,"zip":"70117","miles_from_dt":3.97},{"city":"New Orleans","state_name":"Louisiana","lat":29.95243,"lng":-90.10437,"zip":"70185","miles_from_dt":4.03},{"city":"New Orleans","state_name":"Louisiana","lat":29.96951,"lng":-90.02843,"zip":"70159","miles_from_dt":4.07},{"city":"Arabi","state_name":"Louisiana","lat":29.95128,"lng":-89.9958,"zip":"70032","miles_from_dt":4.27},{"city":"New Orleans","state_name":"Louisiana","lat":29.9745,"lng":-90.08715,"zip":"70179","miles_from_dt":4.6},{"city":"New Orleans","state_name":"Louisiana","lat":29.94426,"lng":-90.12277,"zip":"70178","miles_from_dt":4.65},{"city":"New Orleans","state_name":"Louisiana","lat":29.97567,"lng":-90.08729,"zip":"70119","miles_from_dt":4.68},{"city":"New Orleans","state_name":"Louisiana","lat":29.9451,"lng":-90.1257,"zip":"70118","miles_from_dt":4.83},{"city":"Marrero","state_name":"Louisiana","lat":29.86229,"lng":-90.11926,"zip":"70073","miles_from_dt":5.36},{"city":"Westwego","state_name":"Louisiana","lat":29.90525,"lng":-90.14271,"zip":"70096","miles_from_dt":5.41},{"city":"New Orleans","state_name":"Louisiana","lat":29.98138,"lng":-90.00317,"zip":"70177","miles_from_dt":5.49},{"city":"New Orleans","state_name":"Louisiana","lat":29.9081,"lng":-89.96044,"zip":"70131","miles_from_dt":5.58},{"city":"Belle Chasse","state_name":"Louisiana","lat":29.85,"lng":-89.99219,"zip":"70093","miles_from_dt":5.76},{"city":"Chalmette","state_name":"Louisiana","lat":29.9571,"lng":-89.96481,"zip":"70043","miles_from_dt":6.06},{"city":"Chalmette","state_name":"Louisiana","lat":29.95179,"lng":-89.95936,"zip":"70044","miles_from_dt":6.19},{"city":"New Orleans","state_name":"Louisiana","lat":30.00835,"lng":-90.06467,"zip":"70122","miles_from_dt":6.5},{"city":"New Orleans","state_name":"Louisiana","lat":30.01152,"lng":-90.06278,"zip":"70182","miles_from_dt":6.7},{"city":"New Orleans","state_name":"Louisiana","lat":29.82229,"lng":-90.01192,"zip":"70143","miles_from_dt":6.82},{"city":"New Orleans","state_name":"Louisiana","lat":30.0036,"lng":-90.00273,"zip":"70164","miles_from_dt":6.84},{"city":"New Orleans","state_name":"Louisiana","lat":30.00415,"lng":-90.00137,"zip":"70186","miles_from_dt":6.91},{"city":"New Orleans","state_name":"Louisiana","lat":30.00747,"lng":-90.10378,"zip":"70124","miles_from_dt":7.08},{"city":"New Orleans","state_name":"Louisiana","lat":29.9608,"lng":-90.15881,"zip":"70121","miles_from_dt":7.09},{"city":"New Orleans","state_name":"Louisiana","lat":30.0062,"lng":-90.10728,"zip":"70184","miles_from_dt":7.1},{"city":"Marrero","state_name":"Louisiana","lat":29.83012,"lng":-90.12724,"zip":"70072","miles_from_dt":7.32},{"city":"New Orleans","state_name":"Louisiana","lat":30.01948,"lng":-90.01739,"zip":"70126","miles_from_dt":7.54},{"city":"Metairie","state_name":"Louisiana","lat":29.99897,"lng":-90.13424,"zip":"70055","miles_from_dt":7.58},{"city":"Metairie","state_name":"Louisiana","lat":30.00024,"lng":-90.13422,"zip":"70005","miles_from_dt":7.65},{"city":"New Orleans","state_name":"Louisiana","lat":30.0287,"lng":-90.06753,"zip":"70148","miles_from_dt":7.91},{"city":"Meraux","state_name":"Louisiana","lat":29.93158,"lng":-89.92081,"zip":"70075","miles_from_dt":8.03},{"city":"New Orleans","state_name":"Louisiana","lat":30.03361,"lng":-90.04144,"zip":"70146","miles_from_dt":8.23},{"city":"Metairie","state_name":"Louisiana","lat":29.98272,"lng":-90.16881,"zip":"70001","miles_from_dt":8.38},{"city":"Metairie","state_name":"Louisiana","lat":30.00959,"lng":-90.15533,"zip":"70011","miles_from_dt":8.97},{"city":"New Orleans","state_name":"Louisiana","lat":30.02625,"lng":-89.97342,"zip":"70187","miles_from_dt":9.06},{"city":"Belle Chasse","state_name":"Louisiana","lat":29.78669,"lng":-90.01523,"zip":"70037","miles_from_dt":9.1},{"city":"New Orleans","state_name":"Louisiana","lat":30.02966,"lng":-89.9761,"zip":"70127","miles_from_dt":9.18},{"city":"Metairie","state_name":"Louisiana","lat":30.01012,"lng":-90.16172,"zip":"70010","miles_from_dt":9.26},{"city":"Metairie","state_name":"Louisiana","lat":30.00863,"lng":-90.16379,"zip":"70009","miles_from_dt":9.27},{"city":"Metairie","state_name":"Louisiana","lat":30.0102,"lng":-90.16241,"zip":"70002","miles_from_dt":9.29},{"city":"Westwego","state_name":"Louisiana","lat":29.91162,"lng":-90.20876,"zip":"70094","miles_from_dt":9.34},{"city":"New Orleans","state_name":"Louisiana","lat":29.951,"lng":-90.20501,"zip":"70123","miles_from_dt":9.45},{"city":"Violet","state_name":"Louisiana","lat":29.90026,"lng":-89.89598,"zip":"70092","miles_from_dt":9.48},{"city":"New Orleans","state_name":"Louisiana","lat":29.95422,"lng":-90.20467,"zip":"70183","miles_from_dt":9.49},{"city":"Metairie","state_name":"Louisiana","lat":29.99944,"lng":-90.17957,"zip":"70004","miles_from_dt":9.57},{"city":"Metairie","state_name":"Louisiana","lat":30.01393,"lng":-90.19171,"zip":"70006","miles_from_dt":10.76},{"city":"New Orleans","state_name":"Louisiana","lat":30.04896,"lng":-89.95398,"zip":"70128","miles_from_dt":11},{"city":"Metairie","state_name":"Louisiana","lat":29.99758,"lng":-90.21359,"zip":"70033","miles_from_dt":11.19},{"city":"Metairie","state_name":"Louisiana","lat":29.99874,"lng":-90.21418,"zip":"70003","miles_from_dt":11.26},{"city":"Kenner","state_name":"Louisiana","lat":29.99296,"lng":-90.25363,"zip":"70063","miles_from_dt":13.18},{"city":"Kenner","state_name":"Louisiana","lat":29.98924,"lng":-90.25579,"zip":"70062","miles_from_dt":13.2},{"city":"New Orleans","state_name":"Louisiana","lat":29.99056,"lng":-90.25534,"zip":"70141","miles_from_dt":13.21},{"city":"Braithwaite","state_name":"Louisiana","lat":29.75806,"lng":-89.92327,"zip":"70040","miles_from_dt":13.31},{"city":"Lafitte","state_name":"Louisiana","lat":29.72008,"lng":-90.10383,"zip":"70067","miles_from_dt":13.74},{"city":"Kenner","state_name":"Louisiana","lat":30.03,"lng":-90.24219,"zip":"70097","miles_from_dt":13.85},{"city":"Kenner","state_name":"Louisiana","lat":30.0232,"lng":-90.25198,"zip":"70064","miles_from_dt":14.08},{"city":"Kenner","state_name":"Louisiana","lat":30.02767,"lng":-90.25405,"zip":"70065","miles_from_dt":14.35},{"city":"Ama","state_name":"Louisiana","lat":29.94401,"lng":-90.29666,"zip":"70031","miles_from_dt":14.75},{"city":"Barataria","state_name":"Louisiana","lat":29.69855,"lng":-90.12667,"zip":"70036","miles_from_dt":15.52},{"city":"Luling","state_name":"Louisiana","lat":29.83302,"lng":-90.3052,"zip":"70070","miles_from_dt":16.14},{"city":"Saint Rose","state_name":"Louisiana","lat":29.98092,"lng":-90.31264,"zip":"70087","miles_from_dt":16.22},{"city":"New Orleans","state_name":"Louisiana","lat":30.07334,"lng":-89.8173,"zip":"70189","miles_from_dt":17.88},{"city":"New Orleans","state_name":"Louisiana","lat":30.08239,"lng":-89.81617,"zip":"70129","miles_from_dt":18.32},{"city":"Saint Bernard","state_name":"Louisiana","lat":29.81629,"lng":-89.76127,"zip":"70085","miles_from_dt":18.79},{"city":"Destrehan","state_name":"Louisiana","lat":29.96686,"lng":-90.36552,"zip":"70047","miles_from_dt":19.08},{"city":"Boutte","state_name":"Louisiana","lat":29.88274,"lng":-90.37925,"zip":"70039","miles_from_dt":19.69},{"city":"New Sarpy","state_name":"Louisiana","lat":29.98685,"lng":-90.38657,"zip":"70078","miles_from_dt":20.61},{"city":"Norco","state_name":"Louisiana","lat":30.00172,"lng":-90.41218,"zip":"70079","miles_from_dt":22.35},{"city":"Paradis","state_name":"Louisiana","lat":29.8743,"lng":-90.43227,"zip":"70080","miles_from_dt":22.92},{"city":"Des Allemands","state_name":"Louisiana","lat":29.81635,"lng":-90.43526,"zip":"70030","miles_from_dt":23.91},{"city":"Hahnville","state_name":"Louisiana","lat":29.95949,"lng":-90.45897,"zip":"70057","miles_from_dt":24.54},{"city":"Larose","state_name":"Louisiana","lat":29.61335,"lng":-90.31919,"zip":"70373","miles_from_dt":26.19},{"city":"Gheens","state_name":"Louisiana","lat":29.69491,"lng":-90.42916,"zip":"70355","miles_from_dt":27.18},{"city":"La Place","state_name":"Louisiana","lat":30.14113,"lng":-90.43502,"zip":"70068","miles_from_dt":27.7},{"city":"La Place","state_name":"Louisiana","lat":30.06438,"lng":-90.48252,"zip":"70069","miles_from_dt":27.73},{"city":"Slidell","state_name":"Louisiana","lat":30.25864,"lng":-89.79441,"zip":"70458","miles_from_dt":28.32},{"city":"Cut Off","state_name":"Louisiana","lat":29.51815,"lng":-90.23763,"zip":"70345","miles_from_dt":29.47},{"city":"Port Sulphur","state_name":"Louisiana","lat":29.52342,"lng":-89.85211,"zip":"70083","miles_from_dt":29.53},{"city":"Slidell","state_name":"Louisiana","lat":30.29925,"lng":-89.83455,"zip":"70460","miles_from_dt":29.56},{"city":"Pointe A La Hache","state_name":"Louisiana","lat":29.5658,"lng":-89.75677,"zip":"70082","miles_from_dt":29.91}],"targetCityZipCode":"70053","targetCityState":"Louisiana"},"__N_SSG":true}