{"pageProps":{"stateName":"Louisiana","cityName":"kentwood","nearbyCities":[{"city":"Tangipahoa","state_name":"Louisiana","lat":30.87577,"lng":-90.51384,"zip":"70465","miles_from_dt":2.75},{"city":"Fluker","state_name":"Louisiana","lat":30.83057,"lng":-90.53315,"zip":"70436","miles_from_dt":6.02},{"city":"Roseland","state_name":"Louisiana","lat":30.79332,"lng":-90.50702,"zip":"70456","miles_from_dt":8.01},{"city":"Osyka","state_name":"Mississippi","lat":31.02727,"lng":-90.50334,"zip":"39657","miles_from_dt":8.25},{"city":"Amite","state_name":"Louisiana","lat":30.73699,"lng":-90.491,"zip":"70422","miles_from_dt":11.81},{"city":"Mount Hermon","state_name":"Louisiana","lat":30.93667,"lng":-90.26755,"zip":"70450","miles_from_dt":13.18},{"city":"Magnolia","state_name":"Mississippi","lat":31.11034,"lng":-90.46701,"zip":"39652","miles_from_dt":13.97},{"city":"Greensburg","state_name":"Louisiana","lat":30.85987,"lng":-90.7489,"zip":"70441","miles_from_dt":15.91},{"city":"Husser","state_name":"Louisiana","lat":30.70307,"lng":-90.33433,"zip":"70442","miles_from_dt":16.81},{"city":"Chatawa","state_name":"Mississippi","lat":31.16979,"lng":-90.47385,"zip":"39632","miles_from_dt":18.03},{"city":"Fernwood","state_name":"Mississippi","lat":31.18432,"lng":-90.44859,"zip":"39635","miles_from_dt":19.15},{"city":"Independence","state_name":"Louisiana","lat":30.62885,"lng":-90.54257,"zip":"70443","miles_from_dt":19.53},{"city":"Mccomb","state_name":"Mississippi","lat":31.18611,"lng":-90.38804,"zip":"39648","miles_from_dt":20.02},{"city":"Loranger","state_name":"Louisiana","lat":30.63612,"lng":-90.35159,"zip":"70446","miles_from_dt":20.41},{"city":"Pine Grove","state_name":"Louisiana","lat":30.69385,"lng":-90.76918,"zip":"70453","miles_from_dt":22.35},{"city":"Franklinton","state_name":"Louisiana","lat":30.84139,"lng":-90.11186,"zip":"70438","miles_from_dt":22.77},{"city":"Mccomb","state_name":"Mississippi","lat":31.24374,"lng":-90.45592,"zip":"39649","miles_from_dt":23.18},{"city":"Tickfaw","state_name":"Louisiana","lat":30.5685,"lng":-90.50195,"zip":"70466","miles_from_dt":23.43},{"city":"Liberty","state_name":"Mississippi","lat":31.1485,"lng":-90.79399,"zip":"39645","miles_from_dt":24.6},{"city":"Natalbany","state_name":"Louisiana","lat":30.54964,"lng":-90.48111,"zip":"70451","miles_from_dt":24.71},{"city":"Summit","state_name":"Mississippi","lat":31.2853,"lng":-90.48857,"zip":"39666","miles_from_dt":25.97},{"city":"Hammond","state_name":"Louisiana","lat":30.5281,"lng":-90.45472,"zip":"70401","miles_from_dt":26.26},{"city":"Tylertown","state_name":"Mississippi","lat":31.1298,"lng":-90.12656,"zip":"39667","miles_from_dt":26.27},{"city":"Holden","state_name":"Louisiana","lat":30.56173,"lng":-90.67689,"zip":"70744","miles_from_dt":26.41},{"city":"Folsom","state_name":"Louisiana","lat":30.60909,"lng":-90.20928,"zip":"70437","miles_from_dt":26.42},{"city":"Clinton","state_name":"Louisiana","lat":30.84337,"lng":-90.93244,"zip":"70722","miles_from_dt":26.84},{"city":"Albany","state_name":"Louisiana","lat":30.53065,"lng":-90.60229,"zip":"70711","miles_from_dt":26.91},{"city":"Hammond","state_name":"Louisiana","lat":30.51652,"lng":-90.46932,"zip":"70402","miles_from_dt":27.01},{"city":"Hammond","state_name":"Louisiana","lat":30.51227,"lng":-90.45631,"zip":"70404","miles_from_dt":27.35},{"city":"Robert","state_name":"Louisiana","lat":30.52438,"lng":-90.31883,"zip":"70455","miles_from_dt":28.28},{"city":"Hammond","state_name":"Louisiana","lat":30.47989,"lng":-90.48639,"zip":"70403","miles_from_dt":29.51}],"targetCityZipCode":"70444","targetCityState":"Louisiana"},"__N_SSG":true}