{"pageProps":{"stateName":"Louisiana","cityName":"olla","nearbyCities":[{"city":"Urania","state_name":"Louisiana","lat":31.86661,"lng":-92.28415,"zip":"71480","miles_from_dt":5.3},{"city":"Kelly","state_name":"Louisiana","lat":31.94706,"lng":-92.13805,"zip":"71441","miles_from_dt":6.54},{"city":"Tullos","state_name":"Louisiana","lat":31.85129,"lng":-92.36106,"zip":"71479","miles_from_dt":9.86},{"city":"Grayson","state_name":"Louisiana","lat":32.02456,"lng":-92.1539,"zip":"71435","miles_from_dt":11.25},{"city":"Clarks","state_name":"Louisiana","lat":32.0253,"lng":-92.14241,"zip":"71415","miles_from_dt":11.46},{"city":"Trout","state_name":"Louisiana","lat":31.67542,"lng":-92.2587,"zip":"71371","miles_from_dt":13.6},{"city":"Aimwell","state_name":"Louisiana","lat":31.79477,"lng":-91.94461,"zip":"71401","miles_from_dt":15.45},{"city":"Enterprise","state_name":"Louisiana","lat":31.89017,"lng":-91.89786,"zip":"71425","miles_from_dt":17.5},{"city":"Georgetown","state_name":"Louisiana","lat":31.75368,"lng":-92.47435,"zip":"71432","miles_from_dt":18.19},{"city":"Jena","state_name":"Louisiana","lat":31.60042,"lng":-92.1403,"zip":"71342","miles_from_dt":18.5},{"city":"Rhinehart","state_name":"Louisiana","lat":31.63397,"lng":-91.99885,"zip":"71363","miles_from_dt":19.63},{"city":"Sikes","state_name":"Louisiana","lat":32.06989,"lng":-92.42748,"zip":"71473","miles_from_dt":19.68},{"city":"Columbia","state_name":"Louisiana","lat":32.13405,"lng":-92.04589,"zip":"71418","miles_from_dt":20.48},{"city":"Fort Necessity","state_name":"Louisiana","lat":31.96055,"lng":-91.80745,"zip":"71243","miles_from_dt":23.66},{"city":"Harrisonburg","state_name":"Louisiana","lat":31.7553,"lng":-91.80696,"zip":"71340","miles_from_dt":24},{"city":"Pollock","state_name":"Louisiana","lat":31.55789,"lng":-92.39338,"zip":"71467","miles_from_dt":24.2},{"city":"Joyce","state_name":"Louisiana","lat":31.94043,"lng":-92.59994,"zip":"71440","miles_from_dt":24.42},{"city":"Winnfield","state_name":"Louisiana","lat":31.89482,"lng":-92.66373,"zip":"71483","miles_from_dt":27.69},{"city":"Dry Prong","state_name":"Louisiana","lat":31.60012,"lng":-92.56341,"zip":"71423","miles_from_dt":28.39},{"city":"Jigger","state_name":"Louisiana","lat":32.03433,"lng":-91.74656,"zip":"71249","miles_from_dt":28.76},{"city":"Wisner","state_name":"Louisiana","lat":31.95481,"lng":-91.71211,"zip":"71378","miles_from_dt":28.99},{"city":"Bentley","state_name":"Louisiana","lat":31.51837,"lng":-92.48402,"zip":"71407","miles_from_dt":29.36},{"city":"Jonesville","state_name":"Louisiana","lat":31.51117,"lng":-91.90723,"zip":"71343","miles_from_dt":29.66},{"city":"Wildsville","state_name":"Louisiana","lat":31.61489,"lng":-91.78157,"zip":"71377","miles_from_dt":29.78},{"city":"Sicily Island","state_name":"Louisiana","lat":31.86392,"lng":-91.68494,"zip":"71368","miles_from_dt":29.94}],"targetCityZipCode":"71465","targetCityState":"Louisiana"},"__N_SSG":true}