{"pageProps":{"stateName":"Louisiana","cityName":"saint-amant","nearbyCities":[{"city":"Sorrento","state_name":"Louisiana","lat":30.16085,"lng":-90.81777,"zip":"70778","miles_from_dt":4.92},{"city":"French Settlement","state_name":"Louisiana","lat":30.30437,"lng":-90.79487,"zip":"70733","miles_from_dt":5.32},{"city":"Brittany","state_name":"Louisiana","lat":30.20867,"lng":-90.89167,"zip":"70718","miles_from_dt":6.33},{"city":"Gonzales","state_name":"Louisiana","lat":30.23169,"lng":-90.90539,"zip":"70707","miles_from_dt":7.02},{"city":"Maurepas","state_name":"Louisiana","lat":30.26363,"lng":-90.66345,"zip":"70449","miles_from_dt":7.86},{"city":"Gonzales","state_name":"Louisiana","lat":30.22587,"lng":-90.92271,"zip":"70737","miles_from_dt":8.05},{"city":"Duplessis","state_name":"Louisiana","lat":30.27277,"lng":-90.94394,"zip":"70728","miles_from_dt":9.83},{"city":"Burnside","state_name":"Louisiana","lat":30.14074,"lng":-90.92423,"zip":"70738","miles_from_dt":10.1},{"city":"Prairieville","state_name":"Louisiana","lat":30.30802,"lng":-90.93967,"zip":"70769","miles_from_dt":10.63},{"city":"Convent","state_name":"Louisiana","lat":30.06379,"lng":-90.84111,"zip":"70723","miles_from_dt":11.71},{"city":"Gramercy","state_name":"Louisiana","lat":30.07103,"lng":-90.68731,"zip":"70052","miles_from_dt":12.35},{"city":"Livingston","state_name":"Louisiana","lat":30.40542,"lng":-90.74462,"zip":"70754","miles_from_dt":12.53},{"city":"Paulina","state_name":"Louisiana","lat":30.04929,"lng":-90.73736,"zip":"70763","miles_from_dt":12.64},{"city":"Darrow","state_name":"Louisiana","lat":30.13652,"lng":-90.97255,"zip":"70725","miles_from_dt":12.69},{"city":"Geismar","state_name":"Louisiana","lat":30.20812,"lng":-91.00095,"zip":"70734","miles_from_dt":12.8},{"city":"Lutcher","state_name":"Louisiana","lat":30.05123,"lng":-90.70291,"zip":"70071","miles_from_dt":13.16},{"city":"Garyville","state_name":"Louisiana","lat":30.07356,"lng":-90.63999,"zip":"70051","miles_from_dt":13.82},{"city":"Hester","state_name":"Louisiana","lat":30.02655,"lng":-90.7729,"zip":"70743","miles_from_dt":13.87},{"city":"Uncle Sam","state_name":"Louisiana","lat":30.02348,"lng":-90.77791,"zip":"70792","miles_from_dt":14.06},{"city":"Saint James","state_name":"Louisiana","lat":30.02628,"lng":-90.88198,"zip":"70086","miles_from_dt":14.95},{"city":"Mount Airy","state_name":"Louisiana","lat":30.04945,"lng":-90.63678,"zip":"70076","miles_from_dt":15.24},{"city":"Baton Rouge","state_name":"Louisiana","lat":30.37501,"lng":-90.98083,"zip":"70879","miles_from_dt":15.36},{"city":"Baton Rouge","state_name":"Louisiana","lat":30.37558,"lng":-90.98026,"zip":"70817","miles_from_dt":15.36},{"city":"Springfield","state_name":"Louisiana","lat":30.3656,"lng":-90.58368,"zip":"70462","miles_from_dt":15.49},{"city":"Denham Springs","state_name":"Louisiana","lat":30.42994,"lng":-90.90361,"zip":"70726","miles_from_dt":15.56},{"city":"Donaldsonville","state_name":"Louisiana","lat":30.10774,"lng":-91.02061,"zip":"70346","miles_from_dt":16.17},{"city":"Reserve","state_name":"Louisiana","lat":30.07242,"lng":-90.57251,"zip":"70084","miles_from_dt":16.75},{"city":"Baton Rouge","state_name":"Louisiana","lat":30.36767,"lng":-91.03668,"zip":"70896","miles_from_dt":17.72},{"city":"Saint Gabriel","state_name":"Louisiana","lat":30.26051,"lng":-91.08923,"zip":"70776","miles_from_dt":18.15},{"city":"Carville","state_name":"Louisiana","lat":30.21639,"lng":-91.09301,"zip":"70721","miles_from_dt":18.25},{"city":"Denham Springs","state_name":"Louisiana","lat":30.44986,"lng":-90.9678,"zip":"70727","miles_from_dt":18.71},{"city":"Vacherie","state_name":"Louisiana","lat":29.96725,"lng":-90.6934,"zip":"70090","miles_from_dt":18.8},{"city":"Baton Rouge","state_name":"Louisiana","lat":30.34637,"lng":-91.07998,"zip":"70810","miles_from_dt":19.27},{"city":"Edgard","state_name":"Louisiana","lat":30.03062,"lng":-90.55911,"zip":"70049","miles_from_dt":19.28},{"city":"Baton Rouge","state_name":"Louisiana","lat":30.4288,"lng":-91.02144,"zip":"70816","miles_from_dt":19.67},{"city":"Baton Rouge","state_name":"Louisiana","lat":30.4284,"lng":-91.02494,"zip":"70835","miles_from_dt":19.8},{"city":"Plattenville","state_name":"Louisiana","lat":29.9959,"lng":-90.99897,"zip":"70393","miles_from_dt":20.34},{"city":"Baton Rouge","state_name":"Louisiana","lat":30.39408,"lng":-91.07063,"zip":"70809","miles_from_dt":20.42},{"city":"Baton Rouge","state_name":"Louisiana","lat":30.38758,"lng":-91.08357,"zip":"70836","miles_from_dt":20.82},{"city":"Baton Rouge","state_name":"Louisiana","lat":30.40116,"lng":-91.07715,"zip":"70826","miles_from_dt":21.01},{"city":"Baton Rouge","state_name":"Louisiana","lat":30.37726,"lng":-91.09601,"zip":"70884","miles_from_dt":21.1},{"city":"Baton Rouge","state_name":"Louisiana","lat":30.47133,"lng":-91.00748,"zip":"70819","miles_from_dt":21.31},{"city":"La Place","state_name":"Louisiana","lat":30.06438,"lng":-90.48252,"zip":"70069","miles_from_dt":21.47},{"city":"La Place","state_name":"Louisiana","lat":30.14113,"lng":-90.43502,"zip":"70068","miles_from_dt":21.95},{"city":"Belle Rose","state_name":"Louisiana","lat":30.02579,"lng":-91.08267,"zip":"70341","miles_from_dt":22.45},{"city":"Baton Rouge","state_name":"Louisiana","lat":30.43431,"lng":-91.0829,"zip":"70827","miles_from_dt":22.66},{"city":"Walker","state_name":"Louisiana","lat":30.55621,"lng":-90.81858,"zip":"70785","miles_from_dt":22.72},{"city":"Paincourtville","state_name":"Louisiana","lat":29.99516,"lng":-91.06029,"zip":"70391","miles_from_dt":22.84},{"city":"Baton Rouge","state_name":"Louisiana","lat":30.45537,"lng":-91.06648,"zip":"70815","miles_from_dt":22.87},{"city":"Baton Rouge","state_name":"Louisiana","lat":30.45586,"lng":-91.07544,"zip":"70895","miles_from_dt":23.29},{"city":"Sunshine","state_name":"Louisiana","lat":30.29538,"lng":-91.16993,"zip":"70780","miles_from_dt":23.3},{"city":"Albany","state_name":"Louisiana","lat":30.53065,"lng":-90.60229,"zip":"70711","miles_from_dt":23.65},{"city":"Holden","state_name":"Louisiana","lat":30.56173,"lng":-90.67689,"zip":"70744","miles_from_dt":23.97},{"city":"Baton Rouge","state_name":"Louisiana","lat":30.48502,"lng":-91.06164,"zip":"70814","miles_from_dt":24.12},{"city":"White Castle","state_name":"Louisiana","lat":30.13618,"lng":-91.17939,"zip":"70788","miles_from_dt":24.24},{"city":"Baton Rouge","state_name":"Louisiana","lat":30.4057,"lng":-91.14236,"zip":"70808","miles_from_dt":24.47},{"city":"Baton Rouge","state_name":"Louisiana","lat":30.40746,"lng":-91.14291,"zip":"70833","miles_from_dt":24.56},{"city":"Baton Rouge","state_name":"Louisiana","lat":30.41842,"lng":-91.13952,"zip":"70898","miles_from_dt":24.78},{"city":"Hammond","state_name":"Louisiana","lat":30.47989,"lng":-90.48639,"zip":"70403","miles_from_dt":25.05},{"city":"Baton Rouge","state_name":"Louisiana","lat":30.44879,"lng":-91.1247,"zip":"70806","miles_from_dt":25.24},{"city":"Baton Rouge","state_name":"Louisiana","lat":30.36812,"lng":-91.18279,"zip":"70820","miles_from_dt":25.5},{"city":"Baton Rouge","state_name":"Louisiana","lat":30.4503,"lng":-91.12932,"zip":"70822","miles_from_dt":25.52},{"city":"Baton Rouge","state_name":"Louisiana","lat":30.45729,"lng":-91.12488,"zip":"70821","miles_from_dt":25.6},{"city":"Baton Rouge","state_name":"Louisiana","lat":30.4122,"lng":-91.17251,"zip":"70893","miles_from_dt":26.26},{"city":"Watson","state_name":"Louisiana","lat":30.58236,"lng":-90.95429,"zip":"70786","miles_from_dt":26.39},{"city":"Baton Rouge","state_name":"Louisiana","lat":30.41165,"lng":-91.17783,"zip":"70803","miles_from_dt":26.52},{"city":"Baton Rouge","state_name":"Louisiana","lat":30.41585,"lng":-91.17747,"zip":"70894","miles_from_dt":26.64},{"city":"Baton Rouge","state_name":"Louisiana","lat":30.44714,"lng":-91.15674,"zip":"70892","miles_from_dt":26.72},{"city":"Baton Rouge","state_name":"Louisiana","lat":30.54233,"lng":-91.05006,"zip":"70818","miles_from_dt":26.74},{"city":"Baton Rouge","state_name":"Louisiana","lat":30.50018,"lng":-91.11051,"zip":"70812","miles_from_dt":26.9},{"city":"Plaquemine","state_name":"Louisiana","lat":30.28825,"lng":-91.23356,"zip":"70765","miles_from_dt":26.96},{"city":"Hahnville","state_name":"Louisiana","lat":29.95949,"lng":-90.45897,"zip":"70057","miles_from_dt":27.01},{"city":"Kraemer","state_name":"Louisiana","lat":29.86756,"lng":-90.59812,"zip":"70371","miles_from_dt":27.28},{"city":"Norco","state_name":"Louisiana","lat":30.00172,"lng":-90.41218,"zip":"70079","miles_from_dt":27.36},{"city":"Denham Springs","state_name":"Louisiana","lat":30.61453,"lng":-90.90086,"zip":"70706","miles_from_dt":27.5},{"city":"Hammond","state_name":"Louisiana","lat":30.51652,"lng":-90.46932,"zip":"70402","miles_from_dt":27.55},{"city":"Napoleonville","state_name":"Louisiana","lat":29.89068,"lng":-91.03616,"zip":"70390","miles_from_dt":27.55},{"city":"Ponchatoula","state_name":"Louisiana","lat":30.39525,"lng":-90.3682,"zip":"70454","miles_from_dt":27.63},{"city":"Baton Rouge","state_name":"Louisiana","lat":30.44691,"lng":-91.17554,"zip":"70802","miles_from_dt":27.65},{"city":"Baton Rouge","state_name":"Louisiana","lat":30.44924,"lng":-91.17405,"zip":"70804","miles_from_dt":27.66},{"city":"Akers","state_name":"Louisiana","lat":30.39704,"lng":-90.36853,"zip":"70421","miles_from_dt":27.67},{"city":"Hammond","state_name":"Louisiana","lat":30.51227,"lng":-90.45631,"zip":"70404","miles_from_dt":27.89},{"city":"Greenwell Springs","state_name":"Louisiana","lat":30.60107,"lng":-90.9684,"zip":"70739","miles_from_dt":27.9},{"city":"Baton Rouge","state_name":"Louisiana","lat":30.44336,"lng":-91.18698,"zip":"70873","miles_from_dt":28.09},{"city":"Baton Rouge","state_name":"Louisiana","lat":30.44336,"lng":-91.18698,"zip":"70874","miles_from_dt":28.09},{"city":"Baton Rouge","state_name":"Louisiana","lat":30.45,"lng":-91.18219,"zip":"70891","miles_from_dt":28.1},{"city":"Baton Rouge","state_name":"Louisiana","lat":30.44889,"lng":-91.18596,"zip":"70831","miles_from_dt":28.24},{"city":"Baton Rouge","state_name":"Louisiana","lat":30.44954,"lng":-91.18608,"zip":"70801","miles_from_dt":28.27},{"city":"Baton Rouge","state_name":"Louisiana","lat":30.44578,"lng":-91.18923,"zip":"70823","miles_from_dt":28.29},{"city":"Baton Rouge","state_name":"Louisiana","lat":30.45197,"lng":-91.18776,"zip":"70825","miles_from_dt":28.45},{"city":"Baton Rouge","state_name":"Louisiana","lat":30.48831,"lng":-91.15951,"zip":"70805","miles_from_dt":28.55},{"city":"Thibodaux","state_name":"Louisiana","lat":29.81431,"lng":-90.7411,"zip":"70301","miles_from_dt":28.59},{"city":"Baton Rouge","state_name":"Louisiana","lat":30.53122,"lng":-91.11617,"zip":"70811","miles_from_dt":28.67},{"city":"Hammond","state_name":"Louisiana","lat":30.5281,"lng":-90.45472,"zip":"70401","miles_from_dt":28.73},{"city":"Natalbany","state_name":"Louisiana","lat":30.54964,"lng":-90.48111,"zip":"70451","miles_from_dt":28.79},{"city":"Tickfaw","state_name":"Louisiana","lat":30.5685,"lng":-90.50195,"zip":"70466","miles_from_dt":29.05},{"city":"New Sarpy","state_name":"Louisiana","lat":29.98685,"lng":-90.38657,"zip":"70078","miles_from_dt":29.21},{"city":"Thibodaux","state_name":"Louisiana","lat":29.80337,"lng":-90.83045,"zip":"70302","miles_from_dt":29.32}],"targetCityZipCode":"70774","targetCityState":"Louisiana"},"__N_SSG":true}