{"pageProps":{"stateName":"Louisiana","cityName":"simmesport","nearbyCities":[{"city":"Dupont","state_name":"Louisiana","lat":30.93021,"lng":-91.94733,"zip":"71329","miles_from_dt":5.42},{"city":"Plaucheville","state_name":"Louisiana","lat":30.88839,"lng":-91.95225,"zip":"71362","miles_from_dt":6.38},{"city":"Hamburg","state_name":"Louisiana","lat":31.0058,"lng":-91.93637,"zip":"71339","miles_from_dt":7.1},{"city":"Moreauville","state_name":"Louisiana","lat":31.05257,"lng":-91.88531,"zip":"71355","miles_from_dt":8.66},{"city":"Innis","state_name":"Louisiana","lat":30.87291,"lng":-91.68245,"zip":"70747","miles_from_dt":11.02},{"city":"Cottonport","state_name":"Louisiana","lat":30.97895,"lng":-92.03863,"zip":"71327","miles_from_dt":11.36},{"city":"Lettsworth","state_name":"Louisiana","lat":30.7999,"lng":-91.72106,"zip":"70753","miles_from_dt":12},{"city":"Morrow","state_name":"Louisiana","lat":30.83423,"lng":-92.02988,"zip":"71356","miles_from_dt":12.24},{"city":"Bordelonville","state_name":"Louisiana","lat":31.09114,"lng":-91.76985,"zip":"71320","miles_from_dt":12.25},{"city":"Evergreen","state_name":"Louisiana","lat":30.90315,"lng":-92.0754,"zip":"71333","miles_from_dt":13.15},{"city":"Palmetto","state_name":"Louisiana","lat":30.72631,"lng":-91.87553,"zip":"71358","miles_from_dt":14.04},{"city":"Batchelor","state_name":"Louisiana","lat":30.81204,"lng":-91.66262,"zip":"70715","miles_from_dt":14.06},{"city":"Mansura","state_name":"Louisiana","lat":31.06871,"lng":-92.06053,"zip":"71350","miles_from_dt":15.47},{"city":"Lebeau","state_name":"Louisiana","lat":30.72867,"lng":-91.97531,"zip":"71345","miles_from_dt":15.55},{"city":"Angola","state_name":"Louisiana","lat":30.96574,"lng":-91.58573,"zip":"70712","miles_from_dt":16.24},{"city":"Melville","state_name":"Louisiana","lat":30.67949,"lng":-91.79664,"zip":"71353","miles_from_dt":17.58},{"city":"Marksville","state_name":"Louisiana","lat":31.17227,"lng":-91.9604,"zip":"71351","miles_from_dt":17.83},{"city":"Bunkie","state_name":"Louisiana","lat":30.86731,"lng":-92.15188,"zip":"71322","miles_from_dt":18.09},{"city":"Washington","state_name":"Louisiana","lat":30.68584,"lng":-92.04098,"zip":"70589","miles_from_dt":20.07},{"city":"Tunica","state_name":"Louisiana","lat":30.94378,"lng":-91.51856,"zip":"70782","miles_from_dt":20.07},{"city":"Hessmer","state_name":"Louisiana","lat":31.05969,"lng":-92.16267,"zip":"71341","miles_from_dt":20.29},{"city":"Morganza","state_name":"Louisiana","lat":30.71346,"lng":-91.58762,"zip":"70759","miles_from_dt":21.82},{"city":"Acme","state_name":"Louisiana","lat":31.27665,"lng":-91.76231,"zip":"71316","miles_from_dt":24.55},{"city":"Weyanoke","state_name":"Louisiana","lat":30.9629,"lng":-91.44342,"zip":"70787","miles_from_dt":24.61},{"city":"Fordoche","state_name":"Louisiana","lat":30.6322,"lng":-91.60678,"zip":"70732","miles_from_dt":25.28},{"city":"Echo","state_name":"Louisiana","lat":31.11002,"lng":-92.24145,"zip":"71330","miles_from_dt":26.03},{"city":"Saint Landry","state_name":"Louisiana","lat":30.88784,"lng":-92.29426,"zip":"71367","miles_from_dt":26.19},{"city":"Effie","state_name":"Louisiana","lat":31.2578,"lng":-92.07969,"zip":"71331","miles_from_dt":26.22},{"city":"Port Barre","state_name":"Louisiana","lat":30.54848,"lng":-91.92018,"zip":"70577","miles_from_dt":26.52},{"city":"New Roads","state_name":"Louisiana","lat":30.69839,"lng":-91.48085,"zip":"70760","miles_from_dt":27.41},{"city":"Cheneyville","state_name":"Louisiana","lat":31.01153,"lng":-92.32434,"zip":"71325","miles_from_dt":28.37},{"city":"Ruby","state_name":"Louisiana","lat":31.18984,"lng":-92.24637,"zip":"71365","miles_from_dt":29.28},{"city":"Saint Francisville","state_name":"Louisiana","lat":30.85982,"lng":-91.36847,"zip":"70775","miles_from_dt":29.36}],"targetCityZipCode":"71369","targetCityState":"Louisiana"},"__N_SSG":true}