{"pageProps":{"stateName":"Louisiana","cityName":"transylvania","nearbyCities":[{"city":"Sondheimer","state_name":"Louisiana","lat":32.57727,"lng":-91.16277,"zip":"71276","miles_from_dt":6.64},{"city":"Lake Providence","state_name":"Louisiana","lat":32.79429,"lng":-91.23914,"zip":"71254","miles_from_dt":9.78},{"city":"Forest","state_name":"Louisiana","lat":32.79223,"lng":-91.41291,"zip":"71242","miles_from_dt":14.19},{"city":"Pioneer","state_name":"Louisiana","lat":32.70359,"lng":-91.48362,"zip":"71266","miles_from_dt":14.97},{"city":"Epps","state_name":"Louisiana","lat":32.58413,"lng":-91.48024,"zip":"71237","miles_from_dt":15.11},{"city":"Mayersville","state_name":"Mississippi","lat":32.82707,"lng":-91.06476,"zip":"39113","miles_from_dt":15.55},{"city":"Tallulah","state_name":"Louisiana","lat":32.4066,"lng":-91.18632,"zip":"71284","miles_from_dt":17.17},{"city":"Oak Grove","state_name":"Louisiana","lat":32.87497,"lng":-91.428,"zip":"71263","miles_from_dt":19.05},{"city":"Cary","state_name":"Mississippi","lat":32.79855,"lng":-90.93525,"zip":"39054","miles_from_dt":20.1},{"city":"Tallulah","state_name":"Louisiana","lat":32.35662,"lng":-91.20042,"zip":"71282","miles_from_dt":20.48},{"city":"Rolling Fork","state_name":"Mississippi","lat":32.82894,"lng":-90.92476,"zip":"39159","miles_from_dt":21.73},{"city":"Delhi","state_name":"Louisiana","lat":32.41554,"lng":-91.493,"zip":"71232","miles_from_dt":22.25},{"city":"Valley Park","state_name":"Mississippi","lat":32.61286,"lng":-90.84546,"zip":"39177","miles_from_dt":22.82},{"city":"Kilbourne","state_name":"Louisiana","lat":32.99597,"lng":-91.31576,"zip":"71253","miles_from_dt":24.15},{"city":"Grace","state_name":"Mississippi","lat":32.98592,"lng":-91.00499,"zip":"38745","miles_from_dt":26.56},{"city":"Vicksburg","state_name":"Mississippi","lat":32.4554,"lng":-90.83307,"zip":"39183","miles_from_dt":27.05},{"city":"Glen Allan","state_name":"Mississippi","lat":33.03066,"lng":-91.05371,"zip":"38744","miles_from_dt":28.09},{"city":"Redwood","state_name":"Mississippi","lat":32.53901,"lng":-90.77056,"zip":"39156","miles_from_dt":28.14},{"city":"Mer Rouge","state_name":"Louisiana","lat":32.77802,"lng":-91.69515,"zip":"71261","miles_from_dt":28.23},{"city":"Holly Bluff","state_name":"Mississippi","lat":32.73287,"lng":-90.7545,"zip":"39088","miles_from_dt":28.48},{"city":"Delta","state_name":"Louisiana","lat":32.32509,"lng":-90.93177,"zip":"71233","miles_from_dt":28.64},{"city":"Jones","state_name":"Louisiana","lat":32.95983,"lng":-91.57327,"zip":"71250","miles_from_dt":28.96},{"city":"Vicksburg","state_name":"Mississippi","lat":32.35085,"lng":-90.87854,"zip":"39182","miles_from_dt":29.37}],"targetCityZipCode":"71286","targetCityState":"Louisiana"},"__N_SSG":true}