{"pageProps":{"stateName":"Louisiana","cityName":"youngsville","nearbyCities":[{"city":"Milton","state_name":"Louisiana","lat":30.10042,"lng":-92.07573,"zip":"70558","miles_from_dt":3.99},{"city":"Lafayette","state_name":"Louisiana","lat":30.15627,"lng":-92.02913,"zip":"70508","miles_from_dt":5.32},{"city":"Broussard","state_name":"Louisiana","lat":30.13503,"lng":-91.92922,"zip":"70518","miles_from_dt":6.3},{"city":"Cade","state_name":"Louisiana","lat":30.08178,"lng":-91.90705,"zip":"70519","miles_from_dt":6.37},{"city":"Lafayette","state_name":"Louisiana","lat":30.17595,"lng":-92.00999,"zip":"70598","miles_from_dt":6.6},{"city":"Lafayette","state_name":"Louisiana","lat":30.17353,"lng":-92.05901,"zip":"70503","miles_from_dt":6.98},{"city":"Maurice","state_name":"Louisiana","lat":30.08188,"lng":-92.14123,"zip":"70555","miles_from_dt":7.66},{"city":"Lafayette","state_name":"Louisiana","lat":30.19022,"lng":-92.03711,"zip":"70504","miles_from_dt":7.71},{"city":"Lafayette","state_name":"Louisiana","lat":30.19586,"lng":-92.08075,"zip":"70506","miles_from_dt":8.93},{"city":"Lafayette","state_name":"Louisiana","lat":30.21431,"lng":-92.02859,"zip":"70593","miles_from_dt":9.28},{"city":"Lafayette","state_name":"Louisiana","lat":30.22032,"lng":-92.01705,"zip":"70596","miles_from_dt":9.65},{"city":"Lafayette","state_name":"Louisiana","lat":30.22411,"lng":-92.0226,"zip":"70502","miles_from_dt":9.93},{"city":"Lafayette","state_name":"Louisiana","lat":30.22616,"lng":-92.04407,"zip":"70505","miles_from_dt":10.22},{"city":"Abbeville","state_name":"Louisiana","lat":29.96968,"lng":-92.13184,"zip":"70511","miles_from_dt":10.41},{"city":"Lafayette","state_name":"Louisiana","lat":30.23593,"lng":-92.00615,"zip":"70509","miles_from_dt":10.73},{"city":"Lafayette","state_name":"Louisiana","lat":30.2391,"lng":-91.99122,"zip":"70501","miles_from_dt":11.02},{"city":"Duson","state_name":"Louisiana","lat":30.19593,"lng":-92.16327,"zip":"70529","miles_from_dt":12},{"city":"Erath","state_name":"Louisiana","lat":29.90439,"lng":-92.03536,"zip":"70533","miles_from_dt":12.18},{"city":"Perry","state_name":"Louisiana","lat":29.94892,"lng":-92.15808,"zip":"70575","miles_from_dt":12.53},{"city":"Delcambre","state_name":"Louisiana","lat":29.89766,"lng":-91.96692,"zip":"70528","miles_from_dt":12.88},{"city":"New Iberia","state_name":"Louisiana","lat":29.93965,"lng":-91.8642,"zip":"70560","miles_from_dt":13.18},{"city":"New Iberia","state_name":"Louisiana","lat":29.99052,"lng":-91.81723,"zip":"70562","miles_from_dt":13.28},{"city":"Scott","state_name":"Louisiana","lat":30.25846,"lng":-92.12204,"zip":"70583","miles_from_dt":13.89},{"city":"Avery Island","state_name":"Louisiana","lat":29.90272,"lng":-91.90106,"zip":"70513","miles_from_dt":13.96},{"city":"Lafayette","state_name":"Louisiana","lat":30.28293,"lng":-92.02825,"zip":"70507","miles_from_dt":13.99},{"city":"Saint Martinville","state_name":"Louisiana","lat":30.15961,"lng":-91.7854,"zip":"70582","miles_from_dt":14.71},{"city":"Abbeville","state_name":"Louisiana","lat":29.89493,"lng":-92.19569,"zip":"70510","miles_from_dt":16.81},{"city":"New Iberia","state_name":"Louisiana","lat":30.02454,"lng":-91.73053,"zip":"70563","miles_from_dt":17.38},{"city":"Carencro","state_name":"Louisiana","lat":30.33265,"lng":-92.03619,"zip":"70520","miles_from_dt":17.44},{"city":"Lydia","state_name":"Louisiana","lat":29.92602,"lng":-91.78256,"zip":"70569","miles_from_dt":17.45},{"city":"Rayne","state_name":"Louisiana","lat":30.2291,"lng":-92.26261,"zip":"70578","miles_from_dt":18.1},{"city":"Breaux Bridge","state_name":"Louisiana","lat":30.28421,"lng":-91.79615,"zip":"70517","miles_from_dt":19.14},{"city":"Cecilia","state_name":"Louisiana","lat":30.33629,"lng":-91.848,"zip":"70521","miles_from_dt":20.22},{"city":"Loreauville","state_name":"Louisiana","lat":30.0617,"lng":-91.66641,"zip":"70552","miles_from_dt":20.83},{"city":"Sunset","state_name":"Louisiana","lat":30.38856,"lng":-92.10193,"zip":"70584","miles_from_dt":21.89},{"city":"Grand Coteau","state_name":"Louisiana","lat":30.42062,"lng":-92.0426,"zip":"70541","miles_from_dt":23.51},{"city":"Arnaudville","state_name":"Louisiana","lat":30.41333,"lng":-91.92337,"zip":"70512","miles_from_dt":23.57},{"city":"Crowley","state_name":"Louisiana","lat":30.21051,"lng":-92.37951,"zip":"70526","miles_from_dt":23.68},{"city":"Crowley","state_name":"Louisiana","lat":30.23174,"lng":-92.37891,"zip":"70527","miles_from_dt":24.24},{"city":"Jeanerette","state_name":"Louisiana","lat":29.9059,"lng":-91.6575,"zip":"70544","miles_from_dt":24.48},{"city":"Church Point","state_name":"Louisiana","lat":30.40765,"lng":-92.21761,"zip":"70525","miles_from_dt":25.65},{"city":"Branch","state_name":"Louisiana","lat":30.3674,"lng":-92.30289,"zip":"70516","miles_from_dt":26.29},{"city":"Leonville","state_name":"Louisiana","lat":30.46675,"lng":-91.98028,"zip":"70551","miles_from_dt":26.7},{"city":"Estherwood","state_name":"Louisiana","lat":30.16564,"lng":-92.45499,"zip":"70534","miles_from_dt":27.09},{"city":"Krotz Springs","state_name":"Louisiana","lat":30.46433,"lng":-91.7865,"zip":"70750","miles_from_dt":29.73},{"city":"Morse","state_name":"Louisiana","lat":30.12876,"lng":-92.50903,"zip":"70559","miles_from_dt":29.87}],"targetCityZipCode":"70592","targetCityState":"Louisiana"},"__N_SSG":true}