{"pageProps":{"stateName":"North-dakota","cityName":"hamilton","nearbyCities":[{"city":"Glasston","state_name":"North Dakota","lat":48.71848,"lng":-97.50479,"zip":"58236","miles_from_dt":6.45},{"city":"Bathgate","state_name":"North Dakota","lat":48.87937,"lng":-97.4429,"zip":"58216","miles_from_dt":7.2},{"city":"Pembina","state_name":"North Dakota","lat":48.90905,"lng":-97.28932,"zip":"58271","miles_from_dt":10.23},{"city":"Saint Thomas","state_name":"North Dakota","lat":48.62239,"lng":-97.45675,"zip":"58276","miles_from_dt":11.19},{"city":"Drayton","state_name":"North Dakota","lat":48.61208,"lng":-97.21753,"zip":"58225","miles_from_dt":14.21},{"city":"Hensel","state_name":"North Dakota","lat":48.70442,"lng":-97.69772,"zip":"58241","miles_from_dt":14.65},{"city":"Neche","state_name":"North Dakota","lat":48.95321,"lng":-97.5959,"zip":"58265","miles_from_dt":15.02},{"city":"Cavalier","state_name":"North Dakota","lat":48.79446,"lng":-97.73789,"zip":"58220","miles_from_dt":15.56},{"city":"Crystal","state_name":"North Dakota","lat":48.61853,"lng":-97.68221,"zip":"58222","miles_from_dt":17.11},{"city":"Humboldt","state_name":"Minnesota","lat":48.90771,"lng":-97.07475,"zip":"56731","miles_from_dt":17.2},{"city":"Noyes","state_name":"Minnesota","lat":48.97759,"lng":-97.14234,"zip":"56740","miles_from_dt":17.97},{"city":"Saint Vincent","state_name":"Minnesota","lat":48.97141,"lng":-97.1152,"zip":"56755","miles_from_dt":18.49},{"city":"Hallock","state_name":"Minnesota","lat":48.78736,"lng":-96.99149,"zip":"56728","miles_from_dt":18.57},{"city":"Hoople","state_name":"North Dakota","lat":48.51423,"lng":-97.67956,"zip":"58243","miles_from_dt":22.41},{"city":"Mountain","state_name":"North Dakota","lat":48.681,"lng":-97.87759,"zip":"58262","miles_from_dt":22.96},{"city":"Grafton","state_name":"North Dakota","lat":48.41522,"lng":-97.40086,"zip":"58237","miles_from_dt":25.17},{"city":"Kennedy","state_name":"Minnesota","lat":48.63342,"lng":-96.89149,"zip":"56733","miles_from_dt":25.27},{"city":"Walhalla","state_name":"North Dakota","lat":48.90897,"lng":-97.93252,"zip":"58282","miles_from_dt":25.97},{"city":"Donaldson","state_name":"Minnesota","lat":48.56788,"lng":-96.90632,"zip":"56720","miles_from_dt":26.83},{"city":"Edinburg","state_name":"North Dakota","lat":48.55247,"lng":-97.90549,"zip":"58227","miles_from_dt":28.03}],"targetCityZipCode":"58238","targetCityState":"North Dakota"},"__N_SSG":true}