{"pageProps":{"stateName":"North-dakota","cityName":"kensal","nearbyCities":[{"city":"Courtenay","state_name":"North Dakota","lat":47.21972,"lng":-98.58075,"zip":"58426","miles_from_dt":8.86},{"city":"Glenfield","state_name":"North Dakota","lat":47.46374,"lng":-98.67239,"zip":"58443","miles_from_dt":11.53},{"city":"Sutton","state_name":"North Dakota","lat":47.37821,"lng":-98.4687,"zip":"58484","miles_from_dt":13.24},{"city":"Pingree","state_name":"North Dakota","lat":47.19398,"lng":-99.00263,"zip":"58476","miles_from_dt":14.94},{"city":"Wimbledon","state_name":"North Dakota","lat":47.15793,"lng":-98.43787,"zip":"58492","miles_from_dt":16.8},{"city":"Buchanan","state_name":"North Dakota","lat":47.06072,"lng":-98.86734,"zip":"58420","miles_from_dt":17.87},{"city":"Carrington","state_name":"North Dakota","lat":47.43974,"lng":-99.06968,"zip":"58421","miles_from_dt":18.74},{"city":"Grace City","state_name":"North Dakota","lat":47.57036,"lng":-98.78869,"zip":"58445","miles_from_dt":18.84},{"city":"Mchenry","state_name":"North Dakota","lat":47.60786,"lng":-98.58849,"zip":"58464","miles_from_dt":22.17},{"city":"Hannaford","state_name":"North Dakota","lat":47.30944,"lng":-98.21451,"zip":"58448","miles_from_dt":24.07},{"city":"Binford","state_name":"North Dakota","lat":47.54767,"lng":-98.35694,"zip":"58416","miles_from_dt":24.31},{"city":"Jamestown","state_name":"North Dakota","lat":46.91454,"lng":-98.69673,"zip":"58405","miles_from_dt":26.73},{"city":"Dazey","state_name":"North Dakota","lat":47.18768,"lng":-98.16282,"zip":"58429","miles_from_dt":27.66},{"city":"Jessie","state_name":"North Dakota","lat":47.54019,"lng":-98.22911,"zip":"58452","miles_from_dt":28.59},{"city":"Rogers","state_name":"North Dakota","lat":47.09254,"lng":-98.19948,"zip":"58479","miles_from_dt":28.7},{"city":"Spiritwood","state_name":"North Dakota","lat":46.9346,"lng":-98.42814,"zip":"58481","miles_from_dt":28.96},{"city":"Jamestown","state_name":"North Dakota","lat":46.88191,"lng":-98.68755,"zip":"58402","miles_from_dt":29.01},{"city":"Jamestown","state_name":"North Dakota","lat":46.88145,"lng":-98.76883,"zip":"58401","miles_from_dt":29.05},{"city":"Woodworth","state_name":"North Dakota","lat":47.14063,"lng":-99.30794,"zip":"58496","miles_from_dt":29.51}],"targetCityZipCode":"58455","targetCityState":"North Dakota"},"__N_SSG":true}