{"pageProps":{"stateName":"North-dakota","cityName":"mapleton","nearbyCities":[{"city":"Casselton","state_name":"North Dakota","lat":46.93639,"lng":-97.16113,"zip":"58012","miles_from_dt":7.08},{"city":"Davenport","state_name":"North Dakota","lat":46.73837,"lng":-97.08102,"zip":"58021","miles_from_dt":7.12},{"city":"West Fargo","state_name":"North Dakota","lat":46.86276,"lng":-96.93125,"zip":"58078","miles_from_dt":9.02},{"city":"Wheatland","state_name":"North Dakota","lat":46.86816,"lng":-97.34827,"zip":"58079","miles_from_dt":11.1},{"city":"Harwood","state_name":"North Dakota","lat":46.96952,"lng":-96.95719,"zip":"58042","miles_from_dt":11.84},{"city":"Fargo","state_name":"North Dakota","lat":46.86511,"lng":-96.86189,"zip":"58121","miles_from_dt":12.28},{"city":"Fargo","state_name":"North Dakota","lat":46.80819,"lng":-96.86228,"zip":"58109","miles_from_dt":12.31},{"city":"Fargo","state_name":"North Dakota","lat":46.82583,"lng":-96.84863,"zip":"58107","miles_from_dt":12.8},{"city":"Fargo","state_name":"North Dakota","lat":46.79371,"lng":-96.83838,"zip":"58104","miles_from_dt":13.62},{"city":"Fargo","state_name":"North Dakota","lat":46.85283,"lng":-96.82335,"zip":"58106","miles_from_dt":14.01},{"city":"Fargo","state_name":"North Dakota","lat":46.85639,"lng":-96.82234,"zip":"58103","miles_from_dt":14.07},{"city":"Horace","state_name":"North Dakota","lat":46.7159,"lng":-96.87946,"zip":"58047","miles_from_dt":14.13},{"city":"Kindred","state_name":"North Dakota","lat":46.63952,"lng":-97.0302,"zip":"58051","miles_from_dt":14.35},{"city":"Fargo","state_name":"North Dakota","lat":46.87977,"lng":-96.8149,"zip":"58125","miles_from_dt":14.65},{"city":"Fargo","state_name":"North Dakota","lat":46.9207,"lng":-96.83175,"zip":"58102","miles_from_dt":14.71},{"city":"Amenia","state_name":"North Dakota","lat":47.02713,"lng":-97.26212,"zip":"58004","miles_from_dt":14.72},{"city":"Fargo","state_name":"North Dakota","lat":46.85177,"lng":-96.80081,"zip":"58108","miles_from_dt":15.07},{"city":"Fargo","state_name":"North Dakota","lat":46.89586,"lng":-96.80363,"zip":"58105","miles_from_dt":15.42},{"city":"Fargo","state_name":"North Dakota","lat":46.8739,"lng":-96.78661,"zip":"58124","miles_from_dt":15.9},{"city":"Leonard","state_name":"North Dakota","lat":46.63552,"lng":-97.28011,"zip":"58052","miles_from_dt":15.98},{"city":"Fargo","state_name":"North Dakota","lat":46.87489,"lng":-96.78449,"zip":"58126","miles_from_dt":16.01},{"city":"Fargo","state_name":"North Dakota","lat":46.88156,"lng":-96.78471,"zip":"58122","miles_from_dt":16.08},{"city":"Moorhead","state_name":"Minnesota","lat":46.86458,"lng":-96.77021,"zip":"56562","miles_from_dt":16.59},{"city":"Absaraka","state_name":"North Dakota","lat":46.97562,"lng":-97.40785,"zip":"58002","miles_from_dt":16.68},{"city":"Argusville","state_name":"North Dakota","lat":47.05261,"lng":-96.951,"zip":"58005","miles_from_dt":16.79},{"city":"Moorhead","state_name":"Minnesota","lat":46.8668,"lng":-96.75522,"zip":"56563","miles_from_dt":17.31},{"city":"Moorhead","state_name":"Minnesota","lat":46.83637,"lng":-96.73467,"zip":"56560","miles_from_dt":18.18},{"city":"Arthur","state_name":"North Dakota","lat":47.09682,"lng":-97.20359,"zip":"58006","miles_from_dt":18.31},{"city":"Moorhead","state_name":"Minnesota","lat":46.92675,"lng":-96.71527,"zip":"56561","miles_from_dt":20.04},{"city":"Dilworth","state_name":"Minnesota","lat":46.88027,"lng":-96.69754,"zip":"56529","miles_from_dt":20.14},{"city":"Ayr","state_name":"North Dakota","lat":47.02519,"lng":-97.45724,"zip":"58007","miles_from_dt":20.6},{"city":"Comstock","state_name":"Minnesota","lat":46.6716,"lng":-96.75195,"zip":"56525","miles_from_dt":20.85},{"city":"Buffalo","state_name":"North Dakota","lat":46.92711,"lng":-97.54465,"zip":"58011","miles_from_dt":21.11},{"city":"Christine","state_name":"North Dakota","lat":46.59225,"lng":-96.81544,"zip":"58015","miles_from_dt":22.26},{"city":"Walcott","state_name":"North Dakota","lat":46.52457,"lng":-96.97593,"zip":"58077","miles_from_dt":22.7},{"city":"Gardner","state_name":"North Dakota","lat":47.15463,"lng":-96.96318,"zip":"58036","miles_from_dt":23.05},{"city":"Erie","state_name":"North Dakota","lat":47.11726,"lng":-97.39001,"zip":"58029","miles_from_dt":23.17},{"city":"Sheldon","state_name":"North Dakota","lat":46.54619,"lng":-97.40896,"zip":"58068","miles_from_dt":24.46},{"city":"Sabin","state_name":"Minnesota","lat":46.73944,"lng":-96.61004,"zip":"56580","miles_from_dt":25.05},{"city":"Hunter","state_name":"North Dakota","lat":47.19882,"lng":-97.22742,"zip":"58048","miles_from_dt":25.44},{"city":"Georgetown","state_name":"Minnesota","lat":47.10107,"lng":-96.73038,"zip":"56546","miles_from_dt":25.8},{"city":"Fingal","state_name":"North Dakota","lat":46.76222,"lng":-97.6686,"zip":"58031","miles_from_dt":26.63},{"city":"Glyndon","state_name":"Minnesota","lat":46.89068,"lng":-96.55043,"zip":"56547","miles_from_dt":27.14},{"city":"Enderlin","state_name":"North Dakota","lat":46.63217,"lng":-97.61816,"zip":"58027","miles_from_dt":27.69},{"city":"Tower City","state_name":"North Dakota","lat":46.9436,"lng":-97.68278,"zip":"58071","miles_from_dt":27.71},{"city":"Grandin","state_name":"North Dakota","lat":47.24505,"lng":-96.99484,"zip":"58038","miles_from_dt":28.7},{"city":"Mcleod","state_name":"North Dakota","lat":46.42548,"lng":-97.26747,"zip":"58057","miles_from_dt":29.38},{"city":"Colfax","state_name":"North Dakota","lat":46.43458,"lng":-96.8887,"zip":"58018","miles_from_dt":29.94}],"targetCityZipCode":"58059","targetCityState":"North Dakota"},"__N_SSG":true}