{"pageProps":{"stateName":"North-dakota","cityName":"plaza","nearbyCities":[{"city":"Makoti","state_name":"North Dakota","lat":47.96746,"lng":-101.81431,"zip":"58756","miles_from_dt":11.45},{"city":"Berthold","state_name":"North Dakota","lat":48.31128,"lng":-101.82989,"zip":"58718","miles_from_dt":17.07},{"city":"Parshall","state_name":"North Dakota","lat":47.86531,"lng":-102.16251,"zip":"58770","miles_from_dt":17.39},{"city":"Palermo","state_name":"North Dakota","lat":48.30082,"lng":-102.22721,"zip":"58769","miles_from_dt":18.52},{"city":"Des Lacs","state_name":"North Dakota","lat":48.16911,"lng":-101.59463,"zip":"58733","miles_from_dt":18.94},{"city":"Ryder","state_name":"North Dakota","lat":47.85507,"lng":-101.7621,"zip":"58779","miles_from_dt":19.09},{"city":"Burlington","state_name":"North Dakota","lat":48.25238,"lng":-101.50079,"zip":"58722","miles_from_dt":25.14},{"city":"Roseglen","state_name":"North Dakota","lat":47.71424,"lng":-101.85203,"zip":"58775","miles_from_dt":26.5},{"city":"Douglas","state_name":"North Dakota","lat":47.87771,"lng":-101.48366,"zip":"58735","miles_from_dt":27.4},{"city":"Stanley","state_name":"North Dakota","lat":48.36212,"lng":-102.42273,"zip":"58784","miles_from_dt":27.73},{"city":"New Town","state_name":"North Dakota","lat":47.98362,"lng":-102.58401,"zip":"58763","miles_from_dt":28.65},{"city":"Donnybrook","state_name":"North Dakota","lat":48.51508,"lng":-101.95757,"zip":"58734","miles_from_dt":29.6}],"targetCityZipCode":"58771","targetCityState":"North Dakota"},"__N_SSG":true}