{"pageProps":{"stateName":"North-dakota","cityName":"white-earth","nearbyCities":[{"city":"Ross","state_name":"North Dakota","lat":48.25079,"lng":-102.61543,"zip":"58776","miles_from_dt":7.01},{"city":"Tioga","state_name":"North Dakota","lat":48.38037,"lng":-102.93276,"zip":"58852","miles_from_dt":11.34},{"city":"Stanley","state_name":"North Dakota","lat":48.36212,"lng":-102.42273,"zip":"58784","miles_from_dt":17.38},{"city":"Ray","state_name":"North Dakota","lat":48.30906,"lng":-103.15697,"zip":"58849","miles_from_dt":18.32},{"city":"New Town","state_name":"North Dakota","lat":47.98362,"lng":-102.58401,"zip":"58763","miles_from_dt":20.83},{"city":"Powers Lake","state_name":"North Dakota","lat":48.58631,"lng":-102.66852,"zip":"58773","miles_from_dt":23.05},{"city":"Palermo","state_name":"North Dakota","lat":48.30082,"lng":-102.22721,"zip":"58769","miles_from_dt":25.05},{"city":"Keene","state_name":"North Dakota","lat":47.89012,"lng":-102.90094,"zip":"58847","miles_from_dt":26.24},{"city":"Mcgregor","state_name":"North Dakota","lat":48.62857,"lng":-102.94666,"zip":"58755","miles_from_dt":26.83},{"city":"Epping","state_name":"North Dakota","lat":48.23141,"lng":-103.38142,"zip":"58843","miles_from_dt":28.43}],"targetCityZipCode":"58794","targetCityState":"North Dakota"},"__N_SSG":true}