{"pageProps":{"stateName":"Kansas","cityName":"anthony","nearbyCities":[{"city":"Waldron","state_name":"Kansas","lat":37.03207,"lng":-98.20187,"zip":"67150","miles_from_dt":9.4},{"city":"Bluff City","state_name":"Kansas","lat":37.07108,"lng":-97.85872,"zip":"67018","miles_from_dt":11.62},{"city":"Manchester","state_name":"Oklahoma","lat":36.93239,"lng":-98.0875,"zip":"73758","miles_from_dt":12.38},{"city":"Freeport","state_name":"Kansas","lat":37.17059,"lng":-97.84646,"zip":"67049","miles_from_dt":12.65},{"city":"Attica","state_name":"Kansas","lat":37.22153,"lng":-98.26369,"zip":"67009","miles_from_dt":13.44},{"city":"Harper","state_name":"Kansas","lat":37.32006,"lng":-98.06493,"zip":"67058","miles_from_dt":14.42},{"city":"Amorita","state_name":"Oklahoma","lat":36.96026,"lng":-98.26746,"zip":"73719","miles_from_dt":15.34},{"city":"Danville","state_name":"Kansas","lat":37.28987,"lng":-97.88262,"zip":"67036","miles_from_dt":15.86},{"city":"Wakita","state_name":"Oklahoma","lat":36.87533,"lng":-97.95653,"zip":"73771","miles_from_dt":17.28},{"city":"Hazelton","state_name":"Kansas","lat":37.08593,"lng":-98.37673,"zip":"67061","miles_from_dt":17.4},{"city":"Argonia","state_name":"Kansas","lat":37.28317,"lng":-97.76401,"zip":"67004","miles_from_dt":20.34},{"city":"Burlington","state_name":"Oklahoma","lat":36.90196,"lng":-98.36445,"zip":"73722","miles_from_dt":22.03},{"city":"Sharon","state_name":"Kansas","lat":37.25996,"lng":-98.41858,"zip":"67138","miles_from_dt":22.14},{"city":"Milan","state_name":"Kansas","lat":37.22001,"lng":-97.67825,"zip":"67105","miles_from_dt":22.54},{"city":"Caldwell","state_name":"Kansas","lat":37.07352,"lng":-97.63347,"zip":"67022","miles_from_dt":23.88},{"city":"Spivey","state_name":"Kansas","lat":37.45655,"lng":-98.1094,"zip":"67142","miles_from_dt":23.97},{"city":"Zenda","state_name":"Kansas","lat":37.42053,"lng":-98.30948,"zip":"67159","miles_from_dt":25.3},{"city":"Medford","state_name":"Oklahoma","lat":36.85815,"lng":-97.71362,"zip":"73759","miles_from_dt":26.03},{"city":"Kiowa","state_name":"Kansas","lat":37.0696,"lng":-98.53204,"zip":"67070","miles_from_dt":26.06},{"city":"Norwich","state_name":"Kansas","lat":37.47829,"lng":-97.8605,"zip":"67118","miles_from_dt":27.69},{"city":"Jet","state_name":"Oklahoma","lat":36.70566,"lng":-98.16283,"zip":"73749","miles_from_dt":28.48},{"city":"Nash","state_name":"Oklahoma","lat":36.68452,"lng":-98.03647,"zip":"73761","miles_from_dt":29.44},{"city":"Milton","state_name":"Kansas","lat":37.46335,"lng":-97.75804,"zip":"67106","miles_from_dt":29.55},{"city":"Mayfield","state_name":"Kansas","lat":37.26439,"lng":-97.55977,"zip":"67103","miles_from_dt":29.72}],"targetCityZipCode":"67003","targetCityState":"Kansas"},"__N_SSG":true}