{"pageProps":{"stateName":"Kansas","cityName":"chautauqua","nearbyCities":[{"city":"Peru","state_name":"Kansas","lat":37.05148,"lng":-96.09702,"zip":"67360","miles_from_dt":4.83},{"city":"Sedan","state_name":"Kansas","lat":37.13733,"lng":-96.21714,"zip":"67361","miles_from_dt":8.11},{"city":"Niotaze","state_name":"Kansas","lat":37.03275,"lng":-96.00974,"zip":"67355","miles_from_dt":9.29},{"city":"Copan","state_name":"Oklahoma","lat":36.93055,"lng":-95.98054,"zip":"74022","miles_from_dt":12.66},{"city":"Havana","state_name":"Kansas","lat":37.12559,"lng":-95.95188,"zip":"67347","miles_from_dt":14.29},{"city":"Caney","state_name":"Kansas","lat":37.04695,"lng":-95.87253,"zip":"67333","miles_from_dt":16.93},{"city":"Pawhuska","state_name":"Oklahoma","lat":36.79706,"lng":-96.33873,"zip":"74056","miles_from_dt":18.03},{"city":"Cedar Vale","state_name":"Kansas","lat":37.11397,"lng":-96.49164,"zip":"67024","miles_from_dt":18.44},{"city":"Tyro","state_name":"Kansas","lat":37.03683,"lng":-95.82184,"zip":"67364","miles_from_dt":19.68},{"city":"Bartlesville","state_name":"Oklahoma","lat":36.73107,"lng":-96.06675,"zip":"74003","miles_from_dt":21.12},{"city":"Moline","state_name":"Kansas","lat":37.31371,"lng":-96.31151,"zip":"67353","miles_from_dt":21.3},{"city":"Dewey","state_name":"Oklahoma","lat":36.82558,"lng":-95.88172,"zip":"74029","miles_from_dt":21.34},{"city":"Bartlesville","state_name":"Oklahoma","lat":36.7485,"lng":-95.9807,"zip":"74005","miles_from_dt":21.91},{"city":"Elk City","state_name":"Kansas","lat":37.28875,"lng":-95.9514,"zip":"67344","miles_from_dt":22.1},{"city":"Bartlesville","state_name":"Oklahoma","lat":36.73976,"lng":-95.94863,"zip":"74004","miles_from_dt":23.34},{"city":"Longton","state_name":"Kansas","lat":37.3574,"lng":-96.08154,"zip":"67352","miles_from_dt":23.58},{"city":"Wann","state_name":"Oklahoma","lat":36.91504,"lng":-95.77093,"zip":"74083","miles_from_dt":23.71},{"city":"Elk Falls","state_name":"Kansas","lat":37.37122,"lng":-96.20075,"zip":"67345","miles_from_dt":23.97},{"city":"Grenola","state_name":"Kansas","lat":37.31774,"lng":-96.44511,"zip":"67346","miles_from_dt":25.07},{"city":"Dearing","state_name":"Kansas","lat":37.05948,"lng":-95.71207,"zip":"67340","miles_from_dt":25.84},{"city":"Bartlesville","state_name":"Oklahoma","lat":36.71507,"lng":-95.89391,"zip":"74006","miles_from_dt":26.47},{"city":"Independence","state_name":"Kansas","lat":37.21092,"lng":-95.75224,"zip":"67301","miles_from_dt":26.78},{"city":"Shidler","state_name":"Oklahoma","lat":36.85639,"lng":-96.65438,"zip":"74652","miles_from_dt":28.83}],"targetCityZipCode":"67334","targetCityState":"Kansas"},"__N_SSG":true}