{"pageProps":{"stateName":"Kansas","cityName":"cimarron","nearbyCities":[{"city":"Ingalls","state_name":"Kansas","lat":37.88416,"lng":-100.51616,"zip":"67853","miles_from_dt":12.73},{"city":"Jetmore","state_name":"Kansas","lat":38.09034,"lng":-100.0023,"zip":"67854","miles_from_dt":18.78},{"city":"Dodge City","state_name":"Kansas","lat":37.72961,"lng":-100.05406,"zip":"67801","miles_from_dt":22.53},{"city":"Pierceville","state_name":"Kansas","lat":37.82028,"lng":-100.71029,"zip":"67868","miles_from_dt":24.15},{"city":"Ensign","state_name":"Kansas","lat":37.62997,"lng":-100.22878,"zip":"67841","miles_from_dt":24.67},{"city":"Garden City","state_name":"Kansas","lat":38.02311,"lng":-100.77756,"zip":"67846","miles_from_dt":25.28},{"city":"Wright","state_name":"Kansas","lat":37.8019,"lng":-99.88505,"zip":"67882","miles_from_dt":26.66},{"city":"Fort Dodge","state_name":"Kansas","lat":37.73027,"lng":-99.93728,"zip":"67843","miles_from_dt":27.03},{"city":"Montezuma","state_name":"Kansas","lat":37.56812,"lng":-100.45804,"zip":"67867","miles_from_dt":29.48}],"targetCityZipCode":"67835","targetCityState":"Kansas"},"__N_SSG":true}