{"pageProps":{"stateName":"Kansas","cityName":"cummings","nearbyCities":[{"city":"Nortonville","state_name":"Kansas","lat":39.41866,"lng":-95.3325,"zip":"66060","miles_from_dt":6.47},{"city":"Atchison","state_name":"Kansas","lat":39.5488,"lng":-95.13881,"zip":"66002","miles_from_dt":7.34},{"city":"Effingham","state_name":"Kansas","lat":39.51375,"lng":-95.40005,"zip":"66023","miles_from_dt":9.49},{"city":"Lancaster","state_name":"Kansas","lat":39.59618,"lng":-95.30623,"zip":"66041","miles_from_dt":9.55},{"city":"Winchester","state_name":"Kansas","lat":39.32966,"lng":-95.23992,"zip":"66097","miles_from_dt":9.72},{"city":"Easton","state_name":"Kansas","lat":39.34142,"lng":-95.10779,"zip":"66020","miles_from_dt":11.09},{"city":"Rushville","state_name":"Missouri","lat":39.55638,"lng":-95.01974,"zip":"64484","miles_from_dt":12.78},{"city":"Valley Falls","state_name":"Kansas","lat":39.3416,"lng":-95.4563,"zip":"66088","miles_from_dt":14.95},{"city":"Muscotah","state_name":"Kansas","lat":39.54018,"lng":-95.51894,"zip":"66058","miles_from_dt":16.09},{"city":"Denton","state_name":"Kansas","lat":39.70599,"lng":-95.27591,"zip":"66017","miles_from_dt":16.43},{"city":"Everest","state_name":"Kansas","lat":39.67789,"lng":-95.40072,"zip":"66424","miles_from_dt":16.93},{"city":"Bendena","state_name":"Kansas","lat":39.71283,"lng":-95.17564,"zip":"66008","miles_from_dt":16.99},{"city":"Weston","state_name":"Missouri","lat":39.45661,"lng":-94.89456,"zip":"64098","miles_from_dt":18.05},{"city":"De Kalb","state_name":"Missouri","lat":39.57849,"lng":-94.91841,"zip":"64440","miles_from_dt":18.32},{"city":"Fort Leavenworth","state_name":"Kansas","lat":39.36454,"lng":-94.91708,"zip":"66027","miles_from_dt":18.34},{"city":"McLouth","state_name":"Kansas","lat":39.2055,"lng":-95.19518,"zip":"66054","miles_from_dt":18.38},{"city":"Leavenworth","state_name":"Kansas","lat":39.27891,"lng":-94.98527,"zip":"66048","miles_from_dt":18.67},{"city":"Oskaloosa","state_name":"Kansas","lat":39.20359,"lng":-95.33142,"zip":"66066","miles_from_dt":19.17},{"city":"Horton","state_name":"Kansas","lat":39.65518,"lng":-95.54327,"zip":"66439","miles_from_dt":20.97},{"city":"Denison","state_name":"Kansas","lat":39.35643,"lng":-95.59908,"zip":"66419","miles_from_dt":21.18},{"city":"Ozawkie","state_name":"Kansas","lat":39.21135,"lng":-95.45132,"zip":"66070","miles_from_dt":21.4},{"city":"Whiting","state_name":"Kansas","lat":39.58736,"lng":-95.621,"zip":"66552","miles_from_dt":22.31},{"city":"Saint Joseph","state_name":"Missouri","lat":39.68605,"lng":-94.91264,"zip":"64504","miles_from_dt":22.61},{"city":"Lansing","state_name":"Kansas","lat":39.24967,"lng":-94.90193,"zip":"66043","miles_from_dt":23.31},{"city":"Troy","state_name":"Kansas","lat":39.80641,"lng":-95.1378,"zip":"66087","miles_from_dt":23.72},{"city":"Faucett","state_name":"Missouri","lat":39.60258,"lng":-94.81856,"zip":"64448","miles_from_dt":23.87},{"city":"Platte City","state_name":"Missouri","lat":39.36267,"lng":-94.79351,"zip":"64079","miles_from_dt":24.59},{"city":"Farley","state_name":"Missouri","lat":39.29658,"lng":-94.82153,"zip":"64028","miles_from_dt":25.01},{"city":"Meriden","state_name":"Kansas","lat":39.20255,"lng":-95.54701,"zip":"66512","miles_from_dt":25.04},{"city":"Holton","state_name":"Kansas","lat":39.4655,"lng":-95.70278,"zip":"66436","miles_from_dt":25.2},{"city":"Wathena","state_name":"Kansas","lat":39.78391,"lng":-94.97041,"zip":"66090","miles_from_dt":25.73},{"city":"Robinson","state_name":"Kansas","lat":39.82656,"lng":-95.37597,"zip":"66532","miles_from_dt":25.75},{"city":"Tonganoxie","state_name":"Kansas","lat":39.11578,"lng":-95.08043,"zip":"66086","miles_from_dt":25.77},{"city":"Dearborn","state_name":"Missouri","lat":39.52371,"lng":-94.74986,"zip":"64439","miles_from_dt":26.01},{"city":"Camden Point","state_name":"Missouri","lat":39.45052,"lng":-94.73329,"zip":"64018","miles_from_dt":26.68},{"city":"Perry","state_name":"Kansas","lat":39.09208,"lng":-95.38144,"zip":"66073","miles_from_dt":27.31},{"city":"Basehor","state_name":"Kansas","lat":39.1405,"lng":-94.94548,"zip":"66007","miles_from_dt":27.44},{"city":"Elwood","state_name":"Kansas","lat":39.76211,"lng":-94.87719,"zip":"66024","miles_from_dt":27.62},{"city":"Hoyt","state_name":"Kansas","lat":39.26326,"lng":-95.68168,"zip":"66440","miles_from_dt":28.02},{"city":"Netawaka","state_name":"Kansas","lat":39.62193,"lng":-95.7195,"zip":"66516","miles_from_dt":28.08},{"city":"Highland","state_name":"Kansas","lat":39.87693,"lng":-95.26054,"zip":"66035","miles_from_dt":28.09},{"city":"Saint Joseph","state_name":"Missouri","lat":39.74973,"lng":-94.84545,"zip":"64503","miles_from_dt":28.21},{"city":"Waldron","state_name":"Missouri","lat":39.22248,"lng":-94.8088,"zip":"64092","miles_from_dt":28.38},{"city":"Saint Joseph","state_name":"Missouri","lat":39.76361,"lng":-94.84998,"zip":"64502","miles_from_dt":28.7},{"city":"Saint Joseph","state_name":"Missouri","lat":39.76584,"lng":-94.84448,"zip":"64501","miles_from_dt":29.02},{"city":"Agency","state_name":"Missouri","lat":39.63452,"lng":-94.71522,"zip":"64401","miles_from_dt":29.81},{"city":"Kansas City","state_name":"Missouri","lat":39.27999,"lng":-94.73148,"zip":"64153","miles_from_dt":29.82},{"city":"Kansas City","state_name":"Missouri","lat":39.30204,"lng":-94.71838,"zip":"64195","miles_from_dt":29.83}],"targetCityZipCode":"66016","targetCityState":"Kansas"},"__N_SSG":true}