{"pageProps":{"stateName":"Kansas","cityName":"ford","nearbyCities":[{"city":"Bucklin","state_name":"Kansas","lat":37.53174,"lng":-99.61886,"zip":"67834","miles_from_dt":8.45},{"city":"Minneola","state_name":"Kansas","lat":37.4368,"lng":-99.96506,"zip":"67865","miles_from_dt":13.1},{"city":"Fort Dodge","state_name":"Kansas","lat":37.73027,"lng":-99.93728,"zip":"67843","miles_from_dt":15.54},{"city":"Mullinville","state_name":"Kansas","lat":37.56448,"lng":-99.47914,"zip":"67109","miles_from_dt":16.09},{"city":"Wright","state_name":"Kansas","lat":37.8019,"lng":-99.88505,"zip":"67882","miles_from_dt":18.61},{"city":"Dodge City","state_name":"Kansas","lat":37.72961,"lng":-100.05406,"zip":"67801","miles_from_dt":19.95},{"city":"Spearville","state_name":"Kansas","lat":37.86154,"lng":-99.73654,"zip":"67876","miles_from_dt":21.73},{"city":"Offerle","state_name":"Kansas","lat":37.84627,"lng":-99.55931,"zip":"67563","miles_from_dt":23.65},{"city":"Greensburg","state_name":"Kansas","lat":37.57658,"lng":-99.31884,"zip":"67054","miles_from_dt":24.92},{"city":"Ashland","state_name":"Kansas","lat":37.17956,"lng":-99.8018,"zip":"67831","miles_from_dt":25.44},{"city":"Ensign","state_name":"Kansas","lat":37.62997,"lng":-100.22878,"zip":"67841","miles_from_dt":25.74},{"city":"Fowler","state_name":"Kansas","lat":37.37798,"lng":-100.19562,"zip":"67844","miles_from_dt":26.09}],"targetCityZipCode":"67842","targetCityState":"Kansas"},"__N_SSG":true}