{"pageProps":{"stateName":"Kansas","cityName":"grenola","nearbyCities":[{"city":"Moline","state_name":"Kansas","lat":37.31371,"lng":-96.31151,"zip":"67353","miles_from_dt":7.36},{"city":"Cambridge","state_name":"Kansas","lat":37.33467,"lng":-96.61288,"zip":"67023","miles_from_dt":9.31},{"city":"Elk Falls","state_name":"Kansas","lat":37.37122,"lng":-96.20075,"zip":"67345","miles_from_dt":13.95},{"city":"Cedar Vale","state_name":"Kansas","lat":37.11397,"lng":-96.49164,"zip":"67024","miles_from_dt":14.28},{"city":"Howard","state_name":"Kansas","lat":37.48811,"lng":-96.28066,"zip":"67349","miles_from_dt":14.83},{"city":"Sedan","state_name":"Kansas","lat":37.13733,"lng":-96.21714,"zip":"67361","miles_from_dt":17.69},{"city":"Latham","state_name":"Kansas","lat":37.5445,"lng":-96.61632,"zip":"67072","miles_from_dt":18.25},{"city":"Burden","state_name":"Kansas","lat":37.31225,"lng":-96.78174,"zip":"67019","miles_from_dt":18.55},{"city":"Dexter","state_name":"Kansas","lat":37.11702,"lng":-96.70905,"zip":"67038","miles_from_dt":20.09},{"city":"Longton","state_name":"Kansas","lat":37.3574,"lng":-96.08154,"zip":"67352","miles_from_dt":20.21},{"city":"Piedmont","state_name":"Kansas","lat":37.62015,"lng":-96.42392,"zip":"67122","miles_from_dt":20.89},{"city":"Atlanta","state_name":"Kansas","lat":37.47796,"lng":-96.76983,"zip":"67008","miles_from_dt":21.01},{"city":"Beaumont","state_name":"Kansas","lat":37.66175,"lng":-96.54701,"zip":"67012","miles_from_dt":24.38},{"city":"Severy","state_name":"Kansas","lat":37.63145,"lng":-96.22196,"zip":"67137","miles_from_dt":24.87},{"city":"Chautauqua","state_name":"Kansas","lat":37.0241,"lng":-96.17736,"zip":"67334","miles_from_dt":25.07},{"city":"Peru","state_name":"Kansas","lat":37.05148,"lng":-96.09702,"zip":"67360","miles_from_dt":26.57},{"city":"Maple City","state_name":"Kansas","lat":37.03857,"lng":-96.78839,"zip":"67102","miles_from_dt":27.01},{"city":"Elk City","state_name":"Kansas","lat":37.28875,"lng":-95.9514,"zip":"67344","miles_from_dt":27.27},{"city":"Rock","state_name":"Kansas","lat":37.43261,"lng":-96.94958,"zip":"67131","miles_from_dt":28.87},{"city":"Leon","state_name":"Kansas","lat":37.67038,"lng":-96.72945,"zip":"67074","miles_from_dt":28.91},{"city":"Winfield","state_name":"Kansas","lat":37.25099,"lng":-96.96503,"zip":"67156","miles_from_dt":29.02}],"targetCityZipCode":"67346","targetCityState":"Kansas"},"__N_SSG":true}