{"pageProps":{"stateName":"Kansas","cityName":"holton","nearbyCities":[{"city":"Denison","state_name":"Kansas","lat":39.35643,"lng":-95.59908,"zip":"66419","miles_from_dt":9.35},{"city":"Whiting","state_name":"Kansas","lat":39.58736,"lng":-95.621,"zip":"66552","miles_from_dt":9.47},{"city":"Circleville","state_name":"Kansas","lat":39.52944,"lng":-95.86353,"zip":"66416","miles_from_dt":9.66},{"city":"Mayetta","state_name":"Kansas","lat":39.33239,"lng":-95.78097,"zip":"66509","miles_from_dt":10.09},{"city":"Netawaka","state_name":"Kansas","lat":39.62193,"lng":-95.7195,"zip":"66516","miles_from_dt":10.83},{"city":"Muscotah","state_name":"Kansas","lat":39.54018,"lng":-95.51894,"zip":"66058","miles_from_dt":11.09},{"city":"Hoyt","state_name":"Kansas","lat":39.26326,"lng":-95.68168,"zip":"66440","miles_from_dt":14},{"city":"Soldier","state_name":"Kansas","lat":39.48484,"lng":-95.97332,"zip":"66540","miles_from_dt":14.53},{"city":"Wetmore","state_name":"Kansas","lat":39.65537,"lng":-95.82113,"zip":"66550","miles_from_dt":14.54},{"city":"Horton","state_name":"Kansas","lat":39.65518,"lng":-95.54327,"zip":"66439","miles_from_dt":15.61},{"city":"Valley Falls","state_name":"Kansas","lat":39.3416,"lng":-95.4563,"zip":"66088","miles_from_dt":15.72},{"city":"Effingham","state_name":"Kansas","lat":39.51375,"lng":-95.40005,"zip":"66023","miles_from_dt":16.52},{"city":"Delia","state_name":"Kansas","lat":39.28861,"lng":-95.93528,"zip":"66418","miles_from_dt":17.43},{"city":"Goff","state_name":"Kansas","lat":39.67687,"lng":-95.92504,"zip":"66428","miles_from_dt":18.8},{"city":"Powhattan","state_name":"Kansas","lat":39.74499,"lng":-95.67744,"zip":"66527","miles_from_dt":19.33},{"city":"Havensville","state_name":"Kansas","lat":39.48768,"lng":-96.07348,"zip":"66432","miles_from_dt":19.88},{"city":"Meriden","state_name":"Kansas","lat":39.20255,"lng":-95.54701,"zip":"66512","miles_from_dt":19.97},{"city":"Nortonville","state_name":"Kansas","lat":39.41866,"lng":-95.3325,"zip":"66060","miles_from_dt":20.07},{"city":"Everest","state_name":"Kansas","lat":39.67789,"lng":-95.40072,"zip":"66424","miles_from_dt":21.79},{"city":"Ozawkie","state_name":"Kansas","lat":39.21135,"lng":-95.45132,"zip":"66070","miles_from_dt":22.11},{"city":"Corning","state_name":"Kansas","lat":39.65524,"lng":-96.03824,"zip":"66417","miles_from_dt":22.19},{"city":"Emmett","state_name":"Kansas","lat":39.33317,"lng":-96.08496,"zip":"66422","miles_from_dt":22.4},{"city":"Topeka","state_name":"Kansas","lat":39.14188,"lng":-95.74997,"zip":"66618","miles_from_dt":22.47},{"city":"Topeka","state_name":"Kansas","lat":39.13876,"lng":-95.625,"zip":"66617","miles_from_dt":22.92},{"city":"Lancaster","state_name":"Kansas","lat":39.59618,"lng":-95.30623,"zip":"66041","miles_from_dt":23.02},{"city":"Silver Lake","state_name":"Kansas","lat":39.14937,"lng":-95.84707,"zip":"66539","miles_from_dt":23.14},{"city":"Fairview","state_name":"Kansas","lat":39.81099,"lng":-95.72225,"zip":"66425","miles_from_dt":23.86},{"city":"Rossville","state_name":"Kansas","lat":39.16097,"lng":-95.95045,"zip":"66533","miles_from_dt":24.85},{"city":"Cummings","state_name":"Kansas","lat":39.47038,"lng":-95.23158,"zip":"66016","miles_from_dt":25.2},{"city":"Saint Marys","state_name":"Kansas","lat":39.2247,"lng":-96.07396,"zip":"66536","miles_from_dt":25.91},{"city":"Winchester","state_name":"Kansas","lat":39.32966,"lng":-95.23992,"zip":"66097","miles_from_dt":26.49},{"city":"Topeka","state_name":"Kansas","lat":39.07984,"lng":-95.66708,"zip":"66608","miles_from_dt":26.67},{"city":"Grantville","state_name":"Kansas","lat":39.0989,"lng":-95.53725,"zip":"66429","miles_from_dt":26.8},{"city":"Oskaloosa","state_name":"Kansas","lat":39.20359,"lng":-95.33142,"zip":"66066","miles_from_dt":26.87},{"city":"Topeka","state_name":"Kansas","lat":39.06888,"lng":-95.66674,"zip":"66675","miles_from_dt":27.43},{"city":"Topeka","state_name":"Kansas","lat":39.06845,"lng":-95.62388,"zip":"66616","miles_from_dt":27.72},{"city":"Onaga","state_name":"Kansas","lat":39.47668,"lng":-96.22128,"zip":"66521","miles_from_dt":27.73},{"city":"Topeka","state_name":"Kansas","lat":39.06191,"lng":-95.72296,"zip":"66606","miles_from_dt":27.86},{"city":"Topeka","state_name":"Kansas","lat":39.05742,"lng":-95.67539,"zip":"66603","miles_from_dt":28.19},{"city":"Denton","state_name":"Kansas","lat":39.70599,"lng":-95.27591,"zip":"66017","miles_from_dt":28.19},{"city":"Topeka","state_name":"Kansas","lat":39.05711,"lng":-95.67655,"zip":"66601","miles_from_dt":28.21},{"city":"Centralia","state_name":"Kansas","lat":39.69193,"lng":-96.14381,"zip":"66415","miles_from_dt":28.26},{"city":"Topeka","state_name":"Kansas","lat":39.05634,"lng":-95.67566,"zip":"66636","miles_from_dt":28.26},{"city":"Topeka","state_name":"Kansas","lat":39.05585,"lng":-95.67322,"zip":"66683","miles_from_dt":28.3},{"city":"Topeka","state_name":"Kansas","lat":39.0535,"lng":-95.67307,"zip":"66699","miles_from_dt":28.47},{"city":"Topeka","state_name":"Kansas","lat":39.04806,"lng":-95.68262,"zip":"66629","miles_from_dt":28.82},{"city":"Topeka","state_name":"Kansas","lat":39.04781,"lng":-95.68325,"zip":"66625","miles_from_dt":28.83},{"city":"Topeka","state_name":"Kansas","lat":39.04725,"lng":-95.68282,"zip":"66626","miles_from_dt":28.87},{"city":"Hiawatha","state_name":"Kansas","lat":39.86731,"lng":-95.54679,"zip":"66434","miles_from_dt":28.94},{"city":"Topeka","state_name":"Kansas","lat":39.04185,"lng":-95.72735,"zip":"66667","miles_from_dt":29.26},{"city":"Sabetha","state_name":"Kansas","lat":39.87782,"lng":-95.83635,"zip":"66534","miles_from_dt":29.32},{"city":"Topeka","state_name":"Kansas","lat":39.04026,"lng":-95.68037,"zip":"66612","miles_from_dt":29.36},{"city":"Topeka","state_name":"Kansas","lat":39.0422,"lng":-95.63502,"zip":"66607","miles_from_dt":29.43},{"city":"Topeka","state_name":"Kansas","lat":39.03883,"lng":-95.72523,"zip":"66647","miles_from_dt":29.46},{"city":"Topeka","state_name":"Kansas","lat":39.03875,"lng":-95.72623,"zip":"66604","miles_from_dt":29.47},{"city":"Topeka","state_name":"Kansas","lat":39.03313,"lng":-95.70237,"zip":"66621","miles_from_dt":29.83}],"targetCityZipCode":"66436","targetCityState":"Kansas"},"__N_SSG":true}