{"pageProps":{"stateName":"Kansas","cityName":"hutchinson","nearbyCities":[{"city":"Hutchinson","state_name":"Kansas","lat":38.02534,"lng":-97.9365,"zip":"67504","miles_from_dt":3.15},{"city":"South Hutchinson","state_name":"Kansas","lat":38.02855,"lng":-97.94333,"zip":"67505","miles_from_dt":3.42},{"city":"Yoder","state_name":"Kansas","lat":37.94311,"lng":-97.86858,"zip":"67585","miles_from_dt":4.24},{"city":"Partridge","state_name":"Kansas","lat":37.944,"lng":-98.09938,"zip":"67566","miles_from_dt":9.53},{"city":"Hutchinson","state_name":"Kansas","lat":38.12146,"lng":-97.92673,"zip":"67502","miles_from_dt":9.77},{"city":"Haven","state_name":"Kansas","lat":37.88346,"lng":-97.79511,"zip":"67543","miles_from_dt":9.96},{"city":"Nickerson","state_name":"Kansas","lat":38.10427,"lng":-98.09921,"zip":"67561","miles_from_dt":12.56},{"city":"Pretty Prairie","state_name":"Kansas","lat":37.78686,"lng":-97.968,"zip":"67570","miles_from_dt":13.47},{"city":"Buhler","state_name":"Kansas","lat":38.12294,"lng":-97.74608,"zip":"67522","miles_from_dt":14.1},{"city":"Burrton","state_name":"Kansas","lat":38.00881,"lng":-97.66903,"zip":"67020","miles_from_dt":14.43},{"city":"Abbyville","state_name":"Kansas","lat":37.99839,"lng":-98.21127,"zip":"67510","miles_from_dt":15.36},{"city":"Arlington","state_name":"Kansas","lat":37.86278,"lng":-98.19714,"zip":"67514","miles_from_dt":16.64},{"city":"Mount Hope","state_name":"Kansas","lat":37.81428,"lng":-97.68621,"zip":"67108","miles_from_dt":17.59},{"city":"Inman","state_name":"Kansas","lat":38.22811,"lng":-97.82116,"zip":"67546","miles_from_dt":18.13},{"city":"Sterling","state_name":"Kansas","lat":38.18615,"lng":-98.20861,"zip":"67579","miles_from_dt":20.77},{"city":"Plevna","state_name":"Kansas","lat":38.01729,"lng":-98.30888,"zip":"67568","miles_from_dt":20.79},{"city":"Andale","state_name":"Kansas","lat":37.76069,"lng":-97.62953,"zip":"67001","miles_from_dt":22.36},{"city":"Halstead","state_name":"Kansas","lat":38.01936,"lng":-97.52345,"zip":"67056","miles_from_dt":22.4},{"city":"Bentley","state_name":"Kansas","lat":37.88882,"lng":-97.51812,"zip":"67016","miles_from_dt":23.41},{"city":"Cheney","state_name":"Kansas","lat":37.64146,"lng":-97.78789,"zip":"67025","miles_from_dt":24.62},{"city":"Colwich","state_name":"Kansas","lat":37.78548,"lng":-97.54661,"zip":"67030","miles_from_dt":24.92},{"city":"Murdock","state_name":"Kansas","lat":37.6151,"lng":-97.93453,"zip":"67111","miles_from_dt":25.16},{"city":"Garden Plain","state_name":"Kansas","lat":37.675,"lng":-97.6769,"zip":"67050","miles_from_dt":25.2},{"city":"Moundridge","state_name":"Kansas","lat":38.19496,"lng":-97.53911,"zip":"67107","miles_from_dt":26},{"city":"Sedgwick","state_name":"Kansas","lat":37.91362,"lng":-97.45942,"zip":"67135","miles_from_dt":26.15},{"city":"Sylvia","state_name":"Kansas","lat":37.99316,"lng":-98.41068,"zip":"67581","miles_from_dt":26.21},{"city":"Kingman","state_name":"Kansas","lat":37.61991,"lng":-98.11473,"zip":"67068","miles_from_dt":26.79},{"city":"Alden","state_name":"Kansas","lat":38.23289,"lng":-98.32645,"zip":"67512","miles_from_dt":27.73},{"city":"Windom","state_name":"Kansas","lat":38.38837,"lng":-97.90051,"zip":"67491","miles_from_dt":28.22},{"city":"Little River","state_name":"Kansas","lat":38.38746,"lng":-97.99143,"zip":"67457","miles_from_dt":28.3},{"city":"Wichita","state_name":"Kansas","lat":37.74195,"lng":-97.49797,"zip":"67223","miles_from_dt":28.8},{"city":"Maize","state_name":"Kansas","lat":37.78489,"lng":-97.46356,"zip":"67101","miles_from_dt":28.87},{"city":"Hesston","state_name":"Kansas","lat":38.1431,"lng":-97.43296,"zip":"67062","miles_from_dt":29.39},{"city":"Goddard","state_name":"Kansas","lat":37.65812,"lng":-97.57357,"zip":"67052","miles_from_dt":29.57}],"targetCityZipCode":"67501","targetCityState":"Kansas"},"__N_SSG":true}