{"pageProps":{"stateName":"Kansas","cityName":"iuka","nearbyCities":[{"city":"Byers","state_name":"Kansas","lat":37.77615,"lng":-98.91045,"zip":"67021","miles_from_dt":8.35},{"city":"Pratt","state_name":"Kansas","lat":37.63644,"lng":-98.77236,"zip":"67124","miles_from_dt":9.5},{"city":"Macksville","state_name":"Kansas","lat":37.91557,"lng":-98.96678,"zip":"67557","miles_from_dt":15.04},{"city":"Turon","state_name":"Kansas","lat":37.79997,"lng":-98.4714,"zip":"67583","miles_from_dt":15.79},{"city":"Stafford","state_name":"Kansas","lat":37.96922,"lng":-98.59105,"zip":"67578","miles_from_dt":16.28},{"city":"St John","state_name":"Kansas","lat":38.03228,"lng":-98.79343,"zip":"67576","miles_from_dt":17.94},{"city":"Sawyer","state_name":"Kansas","lat":37.48474,"lng":-98.6824,"zip":"67134","miles_from_dt":20.36},{"city":"Haviland","state_name":"Kansas","lat":37.65102,"lng":-99.10046,"zip":"67059","miles_from_dt":20.58},{"city":"Cunningham","state_name":"Kansas","lat":37.64845,"lng":-98.39338,"zip":"67035","miles_from_dt":21.77},{"city":"Belpre","state_name":"Kansas","lat":37.93573,"lng":-99.10292,"zip":"67519","miles_from_dt":21.92},{"city":"Isabel","state_name":"Kansas","lat":37.48295,"lng":-98.52989,"zip":"67065","miles_from_dt":23.64},{"city":"Coats","state_name":"Kansas","lat":37.47226,"lng":-98.96561,"zip":"67028","miles_from_dt":23.71},{"city":"Sylvia","state_name":"Kansas","lat":37.99316,"lng":-98.41068,"zip":"67581","miles_from_dt":24.28},{"city":"Lewis","state_name":"Kansas","lat":37.8606,"lng":-99.23651,"zip":"67552","miles_from_dt":26.86},{"city":"Hudson","state_name":"Kansas","lat":38.17644,"lng":-98.6417,"zip":"67545","miles_from_dt":28.49},{"city":"Nashville","state_name":"Kansas","lat":37.44915,"lng":-98.41941,"zip":"67112","miles_from_dt":29.09},{"city":"Plevna","state_name":"Kansas","lat":38.01729,"lng":-98.30888,"zip":"67568","miles_from_dt":29.74}],"targetCityZipCode":"67066","targetCityState":"Kansas"},"__N_SSG":true}