{"pageProps":{"stateName":"Kansas","cityName":"lecompton","nearbyCities":[{"city":"Lawrence","state_name":"Kansas","lat":38.97773,"lng":-95.34729,"zip":"66049","miles_from_dt":5.63},{"city":"Tecumseh","state_name":"Kansas","lat":39.01273,"lng":-95.54442,"zip":"66542","miles_from_dt":5.8},{"city":"Perry","state_name":"Kansas","lat":39.09208,"lng":-95.38144,"zip":"66073","miles_from_dt":5.82},{"city":"Grantville","state_name":"Kansas","lat":39.0989,"lng":-95.53725,"zip":"66429","miles_from_dt":7.68},{"city":"Berryton","state_name":"Kansas","lat":38.92508,"lng":-95.55589,"zip":"66409","miles_from_dt":9.14},{"city":"Lawrence","state_name":"Kansas","lat":38.88484,"lng":-95.35096,"zip":"66047","miles_from_dt":10.39},{"city":"Lawrence","state_name":"Kansas","lat":38.95408,"lng":-95.26078,"zip":"66045","miles_from_dt":10.51},{"city":"Topeka","state_name":"Kansas","lat":39.01167,"lng":-95.63283,"zip":"66605","miles_from_dt":10.55},{"city":"Topeka","state_name":"Kansas","lat":39.06845,"lng":-95.62388,"zip":"66616","miles_from_dt":10.6},{"city":"Topeka","state_name":"Kansas","lat":39.0422,"lng":-95.63502,"zip":"66607","miles_from_dt":10.77},{"city":"Lawrence","state_name":"Kansas","lat":39.03187,"lng":-95.20991,"zip":"66044","miles_from_dt":12.25},{"city":"Topeka","state_name":"Kansas","lat":39.01635,"lng":-95.67207,"zip":"66624","miles_from_dt":12.65},{"city":"Topeka","state_name":"Kansas","lat":38.98193,"lng":-95.66974,"zip":"66609","miles_from_dt":12.8},{"city":"Topeka","state_name":"Kansas","lat":39.06888,"lng":-95.66674,"zip":"66675","miles_from_dt":12.82},{"city":"Topeka","state_name":"Kansas","lat":39.0535,"lng":-95.67307,"zip":"66699","miles_from_dt":12.92},{"city":"Topeka","state_name":"Kansas","lat":39.05585,"lng":-95.67322,"zip":"66683","miles_from_dt":12.95},{"city":"Topeka","state_name":"Kansas","lat":39.13876,"lng":-95.625,"zip":"66617","miles_from_dt":13.03},{"city":"Topeka","state_name":"Kansas","lat":39.07984,"lng":-95.66708,"zip":"66608","miles_from_dt":13.06},{"city":"Topeka","state_name":"Kansas","lat":39.05742,"lng":-95.67539,"zip":"66603","miles_from_dt":13.09},{"city":"Topeka","state_name":"Kansas","lat":39.05634,"lng":-95.67566,"zip":"66636","miles_from_dt":13.09},{"city":"Topeka","state_name":"Kansas","lat":39.05711,"lng":-95.67655,"zip":"66601","miles_from_dt":13.15},{"city":"Topeka","state_name":"Kansas","lat":39.04026,"lng":-95.68037,"zip":"66612","miles_from_dt":13.17},{"city":"Ozawkie","state_name":"Kansas","lat":39.21135,"lng":-95.45132,"zip":"66070","miles_from_dt":13.25},{"city":"Topeka","state_name":"Kansas","lat":39.04725,"lng":-95.68282,"zip":"66626","miles_from_dt":13.36},{"city":"Topeka","state_name":"Kansas","lat":39.04806,"lng":-95.68262,"zip":"66629","miles_from_dt":13.36},{"city":"Topeka","state_name":"Kansas","lat":39.04781,"lng":-95.68325,"zip":"66625","miles_from_dt":13.39},{"city":"Oskaloosa","state_name":"Kansas","lat":39.20359,"lng":-95.33142,"zip":"66066","miles_from_dt":13.9},{"city":"Topeka","state_name":"Kansas","lat":39.01526,"lng":-95.69601,"zip":"66611","miles_from_dt":13.94},{"city":"Meriden","state_name":"Kansas","lat":39.20255,"lng":-95.54701,"zip":"66512","miles_from_dt":13.94},{"city":"Topeka","state_name":"Kansas","lat":39.03313,"lng":-95.70237,"zip":"66621","miles_from_dt":14.31},{"city":"Lawrence","state_name":"Kansas","lat":38.909,"lng":-95.21061,"zip":"66046","miles_from_dt":14.38},{"city":"Topeka","state_name":"Kansas","lat":38.94661,"lng":-95.68993,"zip":"66619","miles_from_dt":14.52},{"city":"Topeka","state_name":"Kansas","lat":39.02631,"lng":-95.72231,"zip":"66622","miles_from_dt":15.36},{"city":"Topeka","state_name":"Kansas","lat":39.03883,"lng":-95.72523,"zip":"66647","miles_from_dt":15.57},{"city":"Topeka","state_name":"Kansas","lat":39.03875,"lng":-95.72623,"zip":"66604","miles_from_dt":15.62},{"city":"Topeka","state_name":"Kansas","lat":39.06191,"lng":-95.72296,"zip":"66606","miles_from_dt":15.66},{"city":"Topeka","state_name":"Kansas","lat":39.04185,"lng":-95.72735,"zip":"66667","miles_from_dt":15.7},{"city":"Topeka","state_name":"Kansas","lat":38.94662,"lng":-95.71574,"zip":"66620","miles_from_dt":15.83},{"city":"Overbrook","state_name":"Kansas","lat":38.78948,"lng":-95.50695,"zip":"66524","miles_from_dt":16.32},{"city":"Wakarusa","state_name":"Kansas","lat":38.8941,"lng":-95.72589,"zip":"66546","miles_from_dt":17.81},{"city":"McLouth","state_name":"Kansas","lat":39.2055,"lng":-95.19518,"zip":"66054","miles_from_dt":18.26},{"city":"Topeka","state_name":"Kansas","lat":39.14188,"lng":-95.74997,"zip":"66618","miles_from_dt":18.82},{"city":"Baldwin City","state_name":"Kansas","lat":38.79433,"lng":-95.23936,"zip":"66006","miles_from_dt":18.84},{"city":"Carbondale","state_name":"Kansas","lat":38.82631,"lng":-95.68563,"zip":"66414","miles_from_dt":18.9},{"city":"Tonganoxie","state_name":"Kansas","lat":39.11578,"lng":-95.08043,"zip":"66086","miles_from_dt":20.29},{"city":"Linwood","state_name":"Kansas","lat":39.00998,"lng":-95.04678,"zip":"66052","miles_from_dt":21.01},{"city":"Eudora","state_name":"Kansas","lat":38.89824,"lng":-95.07863,"zip":"66025","miles_from_dt":21.04},{"city":"Hoyt","state_name":"Kansas","lat":39.26326,"lng":-95.68168,"zip":"66440","miles_from_dt":21.34},{"city":"Topeka","state_name":"Kansas","lat":39.01362,"lng":-95.84115,"zip":"66614","miles_from_dt":21.75},{"city":"Topeka","state_name":"Kansas","lat":39.01324,"lng":-95.84812,"zip":"66630","miles_from_dt":22.13},{"city":"Valley Falls","state_name":"Kansas","lat":39.3416,"lng":-95.4563,"zip":"66088","miles_from_dt":22.24},{"city":"Topeka","state_name":"Kansas","lat":38.97277,"lng":-95.84718,"zip":"66610","miles_from_dt":22.32},{"city":"Auburn","state_name":"Kansas","lat":38.91782,"lng":-95.84926,"zip":"66402","miles_from_dt":23.29},{"city":"Silver Lake","state_name":"Kansas","lat":39.14937,"lng":-95.84707,"zip":"66539","miles_from_dt":23.8},{"city":"Winchester","state_name":"Kansas","lat":39.32966,"lng":-95.23992,"zip":"66097","miles_from_dt":23.86},{"city":"Scranton","state_name":"Kansas","lat":38.75118,"lng":-95.72255,"zip":"66537","miles_from_dt":24.08},{"city":"Topeka","state_name":"Kansas","lat":39.05214,"lng":-95.89491,"zip":"66615","miles_from_dt":24.74},{"city":"Denison","state_name":"Kansas","lat":39.35643,"lng":-95.59908,"zip":"66419","miles_from_dt":24.81},{"city":"De Soto","state_name":"Kansas","lat":38.96524,"lng":-94.97232,"zip":"66018","miles_from_dt":25.29},{"city":"Dover","state_name":"Kansas","lat":38.97046,"lng":-95.93279,"zip":"66420","miles_from_dt":26.9},{"city":"Pomona","state_name":"Kansas","lat":38.62811,"lng":-95.43917,"zip":"66076","miles_from_dt":27.01},{"city":"Vassar","state_name":"Kansas","lat":38.64175,"lng":-95.60029,"zip":"66543","miles_from_dt":27.51},{"city":"Basehor","state_name":"Kansas","lat":39.1405,"lng":-94.94548,"zip":"66007","miles_from_dt":27.71},{"city":"Nortonville","state_name":"Kansas","lat":39.41866,"lng":-95.3325,"zip":"66060","miles_from_dt":28.09},{"city":"Bonner Springs","state_name":"Kansas","lat":39.06091,"lng":-94.91658,"zip":"66012","miles_from_dt":28.14},{"city":"Easton","state_name":"Kansas","lat":39.34142,"lng":-95.10779,"zip":"66020","miles_from_dt":28.38},{"city":"Mayetta","state_name":"Kansas","lat":39.33239,"lng":-95.78097,"zip":"66509","miles_from_dt":28.4},{"city":"Wellsville","state_name":"Kansas","lat":38.69305,"lng":-95.10548,"zip":"66092","miles_from_dt":28.76},{"city":"Ottawa","state_name":"Kansas","lat":38.61877,"lng":-95.27566,"zip":"66067","miles_from_dt":28.99},{"city":"Rossville","state_name":"Kansas","lat":39.16097,"lng":-95.95045,"zip":"66533","miles_from_dt":29.28},{"city":"Edgerton","state_name":"Kansas","lat":38.75939,"lng":-95.00692,"zip":"66021","miles_from_dt":29.32},{"city":"Burlingame","state_name":"Kansas","lat":38.77375,"lng":-95.88305,"zip":"66413","miles_from_dt":29.43},{"city":"Quenemo","state_name":"Kansas","lat":38.59711,"lng":-95.5344,"zip":"66528","miles_from_dt":29.61}],"targetCityZipCode":"66050","targetCityState":"Kansas"},"__N_SSG":true}