{"pageProps":{"stateName":"Kansas","cityName":"mulvane","nearbyCities":[{"city":"Derby","state_name":"Kansas","lat":37.56646,"lng":-97.22095,"zip":"67037","miles_from_dt":6.64},{"city":"Belle Plaine","state_name":"Kansas","lat":37.37904,"lng":-97.27378,"zip":"67013","miles_from_dt":6.85},{"city":"Peck","state_name":"Kansas","lat":37.46591,"lng":-97.37592,"zip":"67120","miles_from_dt":8.34},{"city":"Udall","state_name":"Kansas","lat":37.39016,"lng":-97.10398,"zip":"67146","miles_from_dt":8.62},{"city":"Haysville","state_name":"Kansas","lat":37.54601,"lng":-97.35952,"zip":"67060","miles_from_dt":9.09},{"city":"Rose Hill","state_name":"Kansas","lat":37.57677,"lng":-97.10451,"zip":"67133","miles_from_dt":9.86},{"city":"Wichita","state_name":"Kansas","lat":37.6089,"lng":-97.3143,"zip":"67216","miles_from_dt":10.77},{"city":"Wichita","state_name":"Kansas","lat":37.62944,"lng":-97.24604,"zip":"67210","miles_from_dt":11.05},{"city":"Mcconnell Afb","state_name":"Kansas","lat":37.63544,"lng":-97.25819,"zip":"67221","miles_from_dt":11.55},{"city":"Wichita","state_name":"Kansas","lat":37.6368,"lng":-97.16802,"zip":"67232","miles_from_dt":11.9},{"city":"Wichita","state_name":"Kansas","lat":37.61535,"lng":-97.36239,"zip":"67217","miles_from_dt":12.56},{"city":"Wichita","state_name":"Kansas","lat":37.66567,"lng":-97.22923,"zip":"67207","miles_from_dt":13.48},{"city":"Wichita","state_name":"Kansas","lat":37.66851,"lng":-97.28039,"zip":"67218","miles_from_dt":14.02},{"city":"Douglass","state_name":"Kansas","lat":37.52163,"lng":-96.97322,"zip":"67039","miles_from_dt":14.24},{"city":"Wichita","state_name":"Kansas","lat":37.66708,"lng":-97.31706,"zip":"67211","miles_from_dt":14.5},{"city":"Clearwater","state_name":"Kansas","lat":37.51047,"lng":-97.49239,"zip":"67026","miles_from_dt":14.99},{"city":"Wichita","state_name":"Kansas","lat":37.61637,"lng":-97.42707,"zip":"67215","miles_from_dt":15.02},{"city":"Wichita","state_name":"Kansas","lat":37.68655,"lng":-97.17087,"zip":"67230","miles_from_dt":15.2},{"city":"Rock","state_name":"Kansas","lat":37.43261,"lng":-96.94958,"zip":"67131","miles_from_dt":15.32},{"city":"Wichita","state_name":"Kansas","lat":37.66722,"lng":-97.36498,"zip":"67213","miles_from_dt":15.63},{"city":"Oxford","state_name":"Kansas","lat":37.24202,"lng":-97.18152,"zip":"67119","miles_from_dt":15.91},{"city":"Wichita","state_name":"Kansas","lat":37.70363,"lng":-97.22461,"zip":"67206","miles_from_dt":16.1},{"city":"Wichita","state_name":"Kansas","lat":37.68668,"lng":-97.33521,"zip":"67202","miles_from_dt":16.12},{"city":"Wichita","state_name":"Kansas","lat":37.68821,"lng":-97.343,"zip":"67201","miles_from_dt":16.39},{"city":"Wichita","state_name":"Kansas","lat":37.70449,"lng":-97.27928,"zip":"67208","miles_from_dt":16.44},{"city":"Wichita","state_name":"Kansas","lat":37.69302,"lng":-97.3372,"zip":"67278","miles_from_dt":16.57},{"city":"Wichita","state_name":"Kansas","lat":37.66021,"lng":-97.41561,"zip":"67276","miles_from_dt":16.79},{"city":"Andover","state_name":"Kansas","lat":37.69575,"lng":-97.10725,"zip":"67002","miles_from_dt":16.83},{"city":"Wichita","state_name":"Kansas","lat":37.70661,"lng":-97.31755,"zip":"67214","miles_from_dt":17.09},{"city":"Wichita","state_name":"Kansas","lat":37.66244,"lng":-97.42889,"zip":"67277","miles_from_dt":17.38},{"city":"Wichita","state_name":"Kansas","lat":37.71931,"lng":-97.2935,"zip":"67260","miles_from_dt":17.59},{"city":"Wellington","state_name":"Kansas","lat":37.2623,"lng":-97.41104,"zip":"67152","miles_from_dt":17.64},{"city":"Wichita","state_name":"Kansas","lat":37.6639,"lng":-97.43463,"zip":"67209","miles_from_dt":17.66},{"city":"Wichita","state_name":"Kansas","lat":37.70402,"lng":-97.36497,"zip":"67203","miles_from_dt":17.88},{"city":"Wichita","state_name":"Kansas","lat":37.67498,"lng":-97.44515,"zip":"67275","miles_from_dt":18.61},{"city":"Wichita","state_name":"Kansas","lat":37.62693,"lng":-97.50109,"zip":"67227","miles_from_dt":18.65},{"city":"Augusta","state_name":"Kansas","lat":37.66099,"lng":-96.97388,"zip":"67010","miles_from_dt":19.03},{"city":"Wichita","state_name":"Kansas","lat":37.75191,"lng":-97.27909,"zip":"67220","miles_from_dt":19.66},{"city":"Wichita","state_name":"Kansas","lat":37.70247,"lng":-97.43658,"zip":"67212","miles_from_dt":19.81},{"city":"Wichita","state_name":"Kansas","lat":37.76898,"lng":-97.21915,"zip":"67226","miles_from_dt":20.61},{"city":"Winfield","state_name":"Kansas","lat":37.25099,"lng":-96.96503,"zip":"67156","miles_from_dt":20.79},{"city":"Wichita","state_name":"Kansas","lat":37.76931,"lng":-97.31643,"zip":"67219","miles_from_dt":21.24},{"city":"Wichita","state_name":"Kansas","lat":37.68951,"lng":-97.49929,"zip":"67235","miles_from_dt":21.37},{"city":"Wichita","state_name":"Kansas","lat":37.77749,"lng":-97.17274,"zip":"67228","miles_from_dt":21.38},{"city":"Greenwich","state_name":"Kansas","lat":37.78325,"lng":-97.2037,"zip":"67055","miles_from_dt":21.62},{"city":"Wichita","state_name":"Kansas","lat":37.77167,"lng":-97.36341,"zip":"67204","miles_from_dt":22.15},{"city":"Wichita","state_name":"Kansas","lat":37.75012,"lng":-97.42317,"zip":"67205","miles_from_dt":22.17},{"city":"Kechi","state_name":"Kansas","lat":37.7951,"lng":-97.27044,"zip":"67067","miles_from_dt":22.55},{"city":"Viola","state_name":"Kansas","lat":37.54243,"lng":-97.62915,"zip":"67149","miles_from_dt":22.8},{"city":"Goddard","state_name":"Kansas","lat":37.65812,"lng":-97.57357,"zip":"67052","miles_from_dt":23.14},{"city":"Conway Springs","state_name":"Kansas","lat":37.40444,"lng":-97.63848,"zip":"67031","miles_from_dt":23.23},{"city":"Mayfield","state_name":"Kansas","lat":37.26439,"lng":-97.55977,"zip":"67103","miles_from_dt":23.29},{"city":"Wichita","state_name":"Kansas","lat":37.74195,"lng":-97.49797,"zip":"67223","miles_from_dt":24.02},{"city":"Atlanta","state_name":"Kansas","lat":37.47796,"lng":-96.76983,"zip":"67008","miles_from_dt":24.98},{"city":"Maize","state_name":"Kansas","lat":37.78489,"lng":-97.46356,"zip":"67101","miles_from_dt":25.36},{"city":"Benton","state_name":"Kansas","lat":37.82778,"lng":-97.11165,"zip":"67017","miles_from_dt":25.42},{"city":"Geuda Springs","state_name":"Kansas","lat":37.08932,"lng":-97.19399,"zip":"67051","miles_from_dt":26.32},{"city":"Burden","state_name":"Kansas","lat":37.31225,"lng":-96.78174,"zip":"67019","miles_from_dt":26.67},{"city":"Towanda","state_name":"Kansas","lat":37.81673,"lng":-97.00539,"zip":"67144","miles_from_dt":26.74},{"city":"Valley Center","state_name":"Kansas","lat":37.86062,"lng":-97.3058,"zip":"67147","miles_from_dt":27.29},{"city":"South Haven","state_name":"Kansas","lat":37.07992,"lng":-97.35748,"zip":"67140","miles_from_dt":27.9},{"city":"Colwich","state_name":"Kansas","lat":37.78548,"lng":-97.54661,"zip":"67030","miles_from_dt":28.02},{"city":"Garden Plain","state_name":"Kansas","lat":37.675,"lng":-97.6769,"zip":"67050","miles_from_dt":28.58},{"city":"Milton","state_name":"Kansas","lat":37.46335,"lng":-97.75804,"zip":"67106","miles_from_dt":29.35},{"city":"Andale","state_name":"Kansas","lat":37.76069,"lng":-97.62953,"zip":"67001","miles_from_dt":29.93}],"targetCityZipCode":"67110","targetCityState":"Kansas"},"__N_SSG":true}