{"pageProps":{"stateName":"Kansas","cityName":"rosalia","nearbyCities":[{"city":"El Dorado","state_name":"Kansas","lat":37.84868,"lng":-96.79809,"zip":"67042","miles_from_dt":11.72},{"city":"Cassoday","state_name":"Kansas","lat":38.0236,"lng":-96.65836,"zip":"66842","miles_from_dt":12.62},{"city":"Beaumont","state_name":"Kansas","lat":37.66175,"lng":-96.54701,"zip":"67012","miles_from_dt":13.17},{"city":"Eureka","state_name":"Kansas","lat":37.85131,"lng":-96.33863,"zip":"67045","miles_from_dt":13.41},{"city":"Leon","state_name":"Kansas","lat":37.67038,"lng":-96.72945,"zip":"67074","miles_from_dt":14.75},{"city":"Piedmont","state_name":"Kansas","lat":37.62015,"lng":-96.42392,"zip":"67122","miles_from_dt":18.14},{"city":"Matfield Green","state_name":"Kansas","lat":38.15532,"lng":-96.55403,"zip":"66862","miles_from_dt":21.09},{"city":"Latham","state_name":"Kansas","lat":37.5445,"lng":-96.61632,"zip":"67072","miles_from_dt":21.17},{"city":"Hamilton","state_name":"Kansas","lat":38.00653,"lng":-96.24232,"zip":"66853","miles_from_dt":21.54},{"city":"Burns","state_name":"Kansas","lat":38.07283,"lng":-96.8719,"zip":"66840","miles_from_dt":21.97},{"city":"Towanda","state_name":"Kansas","lat":37.81673,"lng":-97.00539,"zip":"67144","miles_from_dt":23.17},{"city":"Potwin","state_name":"Kansas","lat":37.94676,"lng":-96.99352,"zip":"67123","miles_from_dt":23.35},{"city":"Severy","state_name":"Kansas","lat":37.63145,"lng":-96.22196,"zip":"67137","miles_from_dt":24.92},{"city":"Augusta","state_name":"Kansas","lat":37.66099,"lng":-96.97388,"zip":"67010","miles_from_dt":25.04},{"city":"Cedar Point","state_name":"Kansas","lat":38.22846,"lng":-96.74329,"zip":"66843","miles_from_dt":27.49},{"city":"Atlanta","state_name":"Kansas","lat":37.47796,"lng":-96.76983,"zip":"67008","miles_from_dt":27.64},{"city":"Neal","state_name":"Kansas","lat":37.83368,"lng":-96.07633,"zip":"66863","miles_from_dt":27.78},{"city":"Benton","state_name":"Kansas","lat":37.82778,"lng":-97.11165,"zip":"67017","miles_from_dt":28.91},{"city":"Madison","state_name":"Kansas","lat":38.12775,"lng":-96.1652,"zip":"66860","miles_from_dt":29.8}],"targetCityZipCode":"67132","targetCityState":"Kansas"},"__N_SSG":true}