{"pageProps":{"stateName":"Kansas","cityName":"walker","nearbyCities":[{"city":"Gorham","state_name":"Kansas","lat":38.89853,"lng":-99.04925,"zip":"67640","miles_from_dt":2.42},{"city":"Victoria","state_name":"Kansas","lat":38.87559,"lng":-99.14432,"zip":"67671","miles_from_dt":3.36},{"city":"Catharine","state_name":"Kansas","lat":38.92224,"lng":-99.21343,"zip":"67627","miles_from_dt":7.82},{"city":"Russell","state_name":"Kansas","lat":38.847,"lng":-98.88022,"zip":"67665","miles_from_dt":11.04},{"city":"Pfeifer","state_name":"Kansas","lat":38.71752,"lng":-99.14806,"zip":"67660","miles_from_dt":11.4},{"city":"Hays","state_name":"Kansas","lat":38.873,"lng":-99.34032,"zip":"67601","miles_from_dt":13.93},{"city":"Schoenchen","state_name":"Kansas","lat":38.71304,"lng":-99.33249,"zip":"67667","miles_from_dt":17.52},{"city":"Paradise","state_name":"Kansas","lat":39.11524,"lng":-98.92786,"zip":"67658","miles_from_dt":18.57},{"city":"Otis","state_name":"Kansas","lat":38.60428,"lng":-99.04439,"zip":"67565","miles_from_dt":18.75},{"city":"Liebenthal","state_name":"Kansas","lat":38.65444,"lng":-99.32017,"zip":"67553","miles_from_dt":19.9},{"city":"Bunker Hill","state_name":"Kansas","lat":38.88375,"lng":-98.70808,"zip":"67626","miles_from_dt":20.17},{"city":"Bison","state_name":"Kansas","lat":38.58781,"lng":-99.18302,"zip":"67520","miles_from_dt":20.51},{"city":"Natoma","state_name":"Kansas","lat":39.20926,"lng":-99.03969,"zip":"67651","miles_from_dt":23.21},{"city":"La Crosse","state_name":"Kansas","lat":38.59299,"lng":-99.33579,"zip":"67548","miles_from_dt":23.77},{"city":"Waldo","state_name":"Kansas","lat":39.14708,"lng":-98.80714,"zip":"67673","miles_from_dt":23.93},{"city":"Olmitz","state_name":"Kansas","lat":38.52855,"lng":-98.92845,"zip":"67564","miles_from_dt":25.26},{"city":"Dorrance","state_name":"Kansas","lat":38.82654,"lng":-98.6073,"zip":"67634","miles_from_dt":25.82},{"city":"Plainville","state_name":"Kansas","lat":39.20597,"lng":-99.34222,"zip":"67663","miles_from_dt":26.81},{"city":"Hoisington","state_name":"Kansas","lat":38.57584,"lng":-98.75456,"zip":"67544","miles_from_dt":27.15},{"city":"Luray","state_name":"Kansas","lat":39.13404,"lng":-98.69232,"zip":"67649","miles_from_dt":27.58},{"city":"Ellis","state_name":"Kansas","lat":38.94008,"lng":-99.59197,"zip":"67637","miles_from_dt":27.86}],"targetCityZipCode":"67674","targetCityState":"Kansas"},"__N_SSG":true}