{"pageProps":{"stateName":"Florida","cityName":"bristol","nearbyCities":[{"city":"Blountstown","state_name":"Florida","lat":30.38901,"lng":-85.08232,"zip":"32424","miles_from_dt":10.37},{"city":"Telogia","state_name":"Florida","lat":30.36506,"lng":-84.81238,"zip":"32360","miles_from_dt":12.73},{"city":"Wewahitchka","state_name":"Florida","lat":30.27611,"lng":-85.20607,"zip":"32449","miles_from_dt":13.01},{"city":"Hosford","state_name":"Florida","lat":30.2612,"lng":-84.75835,"zip":"32334","miles_from_dt":13.8},{"city":"Sumatra","state_name":"Florida","lat":30.0232,"lng":-84.97941,"zip":"32335","miles_from_dt":16.46},{"city":"Clarksville","state_name":"Florida","lat":30.41872,"lng":-85.22562,"zip":"32430","miles_from_dt":17.78},{"city":"Wewahitchka","state_name":"Florida","lat":30.00239,"lng":-85.18615,"zip":"32465","miles_from_dt":21.42},{"city":"Altha","state_name":"Florida","lat":30.52973,"lng":-85.19308,"zip":"32421","miles_from_dt":22.1},{"city":"Quincy","state_name":"Florida","lat":30.52358,"lng":-84.68362,"zip":"32351","miles_from_dt":25.64},{"city":"Greensboro","state_name":"Florida","lat":30.57859,"lng":-84.74799,"zip":"32330","miles_from_dt":26.13},{"city":"Sopchoppy","state_name":"Florida","lat":30.09535,"lng":-84.54468,"zip":"32358","miles_from_dt":28.97},{"city":"Eastpoint","state_name":"Florida","lat":29.8463,"lng":-84.90991,"zip":"32328","miles_from_dt":29.02},{"city":"Grand Ridge","state_name":"Florida","lat":30.68531,"lng":-85.00829,"zip":"32442","miles_from_dt":29.19},{"city":"Chattahoochee","state_name":"Florida","lat":30.65635,"lng":-84.79126,"zip":"32324","miles_from_dt":29.62},{"city":"Youngstown","state_name":"Florida","lat":30.38618,"lng":-85.464,"zip":"32466","miles_from_dt":29.64}],"targetCityZipCode":"32321","targetCityState":"Florida"},"__N_SSG":true}