{"pageProps":{"stateName":"Florida","cityName":"dade-city","nearbyCities":[{"city":"Dade City","state_name":"Florida","lat":28.40695,"lng":-82.19033,"zip":"33526","miles_from_dt":4.59},{"city":"Trilby","state_name":"Florida","lat":28.45861,"lng":-82.19591,"zip":"33593","miles_from_dt":5.04},{"city":"Saint Leo","state_name":"Florida","lat":28.33811,"lng":-82.257,"zip":"33574","miles_from_dt":5.51},{"city":"Brooksville","state_name":"Florida","lat":28.50252,"lng":-82.28007,"zip":"34602","miles_from_dt":5.9},{"city":"Lacoochee","state_name":"Florida","lat":28.46664,"lng":-82.17676,"zip":"33537","miles_from_dt":6.32},{"city":"San Antonio","state_name":"Florida","lat":28.32472,"lng":-82.31682,"zip":"33576","miles_from_dt":7.16},{"city":"Dade City","state_name":"Florida","lat":28.33503,"lng":-82.18383,"zip":"33525","miles_from_dt":7.54},{"city":"Wesley Chapel","state_name":"Florida","lat":28.26578,"lng":-82.28832,"zip":"33545","miles_from_dt":10.57},{"city":"Brooksville","state_name":"Florida","lat":28.4781,"lng":-82.43322,"zip":"34604","miles_from_dt":11.06},{"city":"Zephyrhills","state_name":"Florida","lat":28.24985,"lng":-82.30023,"zip":"33539","miles_from_dt":11.77},{"city":"Brooksville","state_name":"Florida","lat":28.55221,"lng":-82.39106,"zip":"34603","miles_from_dt":12.03},{"city":"Brooksville","state_name":"Florida","lat":28.49696,"lng":-82.45256,"zip":"34605","miles_from_dt":12.66},{"city":"Wesley Chapel","state_name":"Florida","lat":28.25132,"lng":-82.37039,"zip":"33544","miles_from_dt":13.15},{"city":"Zephyrhills","state_name":"Florida","lat":28.23029,"lng":-82.22073,"zip":"33541","miles_from_dt":13.19},{"city":"Webster","state_name":"Florida","lat":28.52675,"lng":-82.08613,"zip":"33597","miles_from_dt":13.2},{"city":"Brooksville","state_name":"Florida","lat":28.5892,"lng":-82.36857,"zip":"34601","miles_from_dt":13.38},{"city":"Zephyrhills","state_name":"Florida","lat":28.23562,"lng":-82.17708,"zip":"33542","miles_from_dt":13.64},{"city":"Nobleton","state_name":"Florida","lat":28.62108,"lng":-82.26507,"zip":"34661","miles_from_dt":13.99},{"city":"Spring Hill","state_name":"Florida","lat":28.38339,"lng":-82.50058,"zip":"34610","miles_from_dt":14.55},{"city":"Land O'Lakes","state_name":"Florida","lat":28.29589,"lng":-82.46368,"zip":"34637","miles_from_dt":14.74},{"city":"Wesley Chapel","state_name":"Florida","lat":28.20279,"lng":-82.30503,"zip":"33543","miles_from_dt":15.01},{"city":"Zephyrhills","state_name":"Florida","lat":28.21936,"lng":-82.14866,"zip":"33540","miles_from_dt":15.39},{"city":"Land O'Lakes","state_name":"Florida","lat":28.24456,"lng":-82.42475,"zip":"34639","miles_from_dt":15.41},{"city":"Spring Hill","state_name":"Florida","lat":28.4792,"lng":-82.50818,"zip":"34609","miles_from_dt":15.41},{"city":"Istachatta","state_name":"Florida","lat":28.65891,"lng":-82.27302,"zip":"34636","miles_from_dt":16.61},{"city":"Crystal Springs","state_name":"Florida","lat":28.18259,"lng":-82.15872,"zip":"33524","miles_from_dt":17.44},{"city":"Kathleen","state_name":"Florida","lat":28.21613,"lng":-82.07414,"zip":"33849","miles_from_dt":18.11},{"city":"Spring Hill","state_name":"Florida","lat":28.48258,"lng":-82.5532,"zip":"34608","miles_from_dt":18.11},{"city":"Bushnell","state_name":"Florida","lat":28.66849,"lng":-82.17143,"zip":"33513","miles_from_dt":18.17},{"city":"Spring Hill","state_name":"Florida","lat":28.48206,"lng":-82.56109,"zip":"34611","miles_from_dt":18.57},{"city":"Land O'Lakes","state_name":"Florida","lat":28.26035,"lng":-82.52036,"zip":"34638","miles_from_dt":18.98},{"city":"Brooksville","state_name":"Florida","lat":28.56183,"lng":-82.53803,"zip":"34613","miles_from_dt":19.36},{"city":"Lutz","state_name":"Florida","lat":28.15788,"lng":-82.41007,"zip":"33559","miles_from_dt":19.97},{"city":"Tampa","state_name":"Florida","lat":28.13401,"lng":-82.36017,"zip":"33647","miles_from_dt":20.39},{"city":"Spring Hill","state_name":"Florida","lat":28.46961,"lng":-82.59759,"zip":"34606","miles_from_dt":20.57},{"city":"Floral City","state_name":"Florida","lat":28.72672,"lng":-82.29134,"zip":"34436","miles_from_dt":21.33},{"city":"Hudson","state_name":"Florida","lat":28.3577,"lng":-82.61476,"zip":"34669","miles_from_dt":21.71},{"city":"Brooksville","state_name":"Florida","lat":28.64627,"lng":-82.51324,"zip":"34614","miles_from_dt":21.81},{"city":"Thonotosassa","state_name":"Florida","lat":28.10087,"lng":-82.28698,"zip":"33592","miles_from_dt":21.87},{"city":"Lutz","state_name":"Florida","lat":28.1392,"lng":-82.44624,"zip":"33549","miles_from_dt":22.15},{"city":"Center Hill","state_name":"Florida","lat":28.65771,"lng":-81.99886,"zip":"33514","miles_from_dt":23.11},{"city":"Lutz","state_name":"Florida","lat":28.13788,"lng":-82.48184,"zip":"33548","miles_from_dt":23.39},{"city":"Lakeland","state_name":"Florida","lat":28.20291,"lng":-81.96597,"zip":"33809","miles_from_dt":23.47},{"city":"Lutz","state_name":"Florida","lat":28.15871,"lng":-82.51597,"zip":"33558","miles_from_dt":23.52},{"city":"Plant City","state_name":"Florida","lat":28.08858,"lng":-82.15595,"zip":"33565","miles_from_dt":23.63},{"city":"New Port Richey","state_name":"Florida","lat":28.29757,"lng":-82.62904,"zip":"34654","miles_from_dt":23.69},{"city":"Hudson","state_name":"Florida","lat":28.38926,"lng":-82.65654,"zip":"34667","miles_from_dt":23.94},{"city":"Lakeland","state_name":"Florida","lat":28.13027,"lng":-82.03989,"zip":"33810","miles_from_dt":24.09},{"city":"Tampa","state_name":"Florida","lat":28.11902,"lng":-82.4715,"zip":"33675","miles_from_dt":24.13},{"city":"Spring Hill","state_name":"Florida","lat":28.57528,"lng":-82.62715,"zip":"34607","miles_from_dt":24.57},{"city":"Inverness","state_name":"Florida","lat":28.76231,"lng":-82.37986,"zip":"34452","miles_from_dt":24.73},{"city":"Aripeka","state_name":"Florida","lat":28.42226,"lng":-82.67716,"zip":"34679","miles_from_dt":25.11},{"city":"Mascotte","state_name":"Florida","lat":28.58684,"lng":-81.89624,"zip":"34753","miles_from_dt":25.26},{"city":"Groveland","state_name":"Florida","lat":28.57883,"lng":-81.88844,"zip":"34736","miles_from_dt":25.44},{"city":"Tampa","state_name":"Florida","lat":28.08344,"lng":-82.44873,"zip":"33613","miles_from_dt":25.62},{"city":"Tampa","state_name":"Florida","lat":28.06112,"lng":-82.41172,"zip":"33620","miles_from_dt":26.15},{"city":"Tampa","state_name":"Florida","lat":28.04715,"lng":-82.36118,"zip":"33637","miles_from_dt":26.2},{"city":"Odessa","state_name":"Florida","lat":28.17029,"lng":-82.59264,"zip":"33556","miles_from_dt":26.27},{"city":"Sumterville","state_name":"Florida","lat":28.74089,"lng":-82.03347,"zip":"33585","miles_from_dt":26.32},{"city":"Hudson","state_name":"Florida","lat":28.35772,"lng":-82.69869,"zip":"34674","miles_from_dt":26.75},{"city":"Tampa","state_name":"Florida","lat":28.03893,"lng":-82.39327,"zip":"33617","miles_from_dt":27.25},{"city":"Tampa","state_name":"Florida","lat":28.03597,"lng":-82.39098,"zip":"33687","miles_from_dt":27.4},{"city":"Tampa","state_name":"Florida","lat":28.05591,"lng":-82.45906,"zip":"33682","miles_from_dt":27.6},{"city":"Tampa","state_name":"Florida","lat":28.07313,"lng":-82.49781,"zip":"33618","miles_from_dt":27.67},{"city":"Polk City","state_name":"Florida","lat":28.25882,"lng":-81.84769,"zip":"33868","miles_from_dt":27.67},{"city":"New Port Richey","state_name":"Florida","lat":28.21201,"lng":-82.65516,"zip":"34655","miles_from_dt":27.69},{"city":"Homosassa","state_name":"Florida","lat":28.74904,"lng":-82.52344,"zip":"34446","miles_from_dt":27.7},{"city":"Tampa","state_name":"Florida","lat":28.05071,"lng":-82.451,"zip":"33612","miles_from_dt":27.72},{"city":"Tampa","state_name":"Florida","lat":28.06931,"lng":-82.4972,"zip":"33694","miles_from_dt":27.88},{"city":"Port Richey","state_name":"Florida","lat":28.30176,"lng":-82.70516,"zip":"34668","miles_from_dt":27.99},{"city":"Inverness","state_name":"Florida","lat":28.82699,"lng":-82.25767,"zip":"34450","miles_from_dt":28.18},{"city":"Clermont","state_name":"Florida","lat":28.40406,"lng":-81.80132,"zip":"34714","miles_from_dt":28.23},{"city":"Tampa","state_name":"Florida","lat":28.07903,"lng":-82.52608,"zip":"33624","miles_from_dt":28.26},{"city":"Seffner","state_name":"Florida","lat":28.00637,"lng":-82.28959,"zip":"33584","miles_from_dt":28.38},{"city":"Coleman","state_name":"Florida","lat":28.79788,"lng":-82.0752,"zip":"33521","miles_from_dt":28.59},{"city":"Tampa","state_name":"Florida","lat":28.06161,"lng":-82.50555,"zip":"33688","miles_from_dt":28.59},{"city":"New Port Richey","state_name":"Florida","lat":28.24266,"lng":-82.69308,"zip":"34653","miles_from_dt":28.75},{"city":"Seffner","state_name":"Florida","lat":27.99987,"lng":-82.27766,"zip":"33583","miles_from_dt":28.8},{"city":"Plant City","state_name":"Florida","lat":28.01694,"lng":-82.12544,"zip":"33563","miles_from_dt":28.89},{"city":"Inverness","state_name":"Florida","lat":28.83848,"lng":-82.33157,"zip":"34451","miles_from_dt":29.25},{"city":"Plant City","state_name":"Florida","lat":28.01923,"lng":-82.09795,"zip":"33564","miles_from_dt":29.28},{"city":"Port Richey","state_name":"Florida","lat":28.27516,"lng":-82.72017,"zip":"34673","miles_from_dt":29.43},{"city":"New Port Richey","state_name":"Florida","lat":28.24361,"lng":-82.70907,"zip":"34656","miles_from_dt":29.61},{"city":"Tampa","state_name":"Florida","lat":28.00275,"lng":-82.40093,"zip":"33680","miles_from_dt":29.77},{"city":"Tampa","state_name":"Florida","lat":27.9972,"lng":-82.38015,"zip":"33610","miles_from_dt":29.81},{"city":"Tampa","state_name":"Florida","lat":28.01875,"lng":-82.45789,"zip":"33674","miles_from_dt":29.9},{"city":"Lake Panasoffkee","state_name":"Florida","lat":28.84679,"lng":-82.18218,"zip":"33538","miles_from_dt":29.96},{"city":"Tampa","state_name":"Florida","lat":28.01686,"lng":-82.45519,"zip":"33604","miles_from_dt":29.96}],"targetCityZipCode":"33523","targetCityState":"Florida"},"__N_SSG":true}