{"pageProps":{"stateName":"Florida","cityName":"estero","nearbyCities":[{"city":"Bonita Springs","state_name":"Florida","lat":26.38799,"lng":-81.70952,"zip":"34136","miles_from_dt":3.27},{"city":"Bonita Springs","state_name":"Florida","lat":26.382,"lng":-81.71025,"zip":"34133","miles_from_dt":3.68},{"city":"Fort Myers","state_name":"Florida","lat":26.46126,"lng":-81.76862,"zip":"33965","miles_from_dt":4.04},{"city":"Bonita Springs","state_name":"Florida","lat":26.36923,"lng":-81.73303,"zip":"34135","miles_from_dt":4.78},{"city":"Estero","state_name":"Florida","lat":26.44114,"lng":-81.79066,"zip":"33929","miles_from_dt":5.01},{"city":"Fort Myers","state_name":"Florida","lat":26.51718,"lng":-81.69712,"zip":"33913","miles_from_dt":5.68},{"city":"Fort Myers","state_name":"Florida","lat":26.47226,"lng":-81.81231,"zip":"33967","miles_from_dt":6.83},{"city":"Bonita Springs","state_name":"Florida","lat":26.36634,"lng":-81.83503,"zip":"34134","miles_from_dt":9.09},{"city":"Fort Myers","state_name":"Florida","lat":26.53288,"lng":-81.82502,"zip":"33912","miles_from_dt":9.79},{"city":"Naples","state_name":"Florida","lat":26.29619,"lng":-81.78505,"zip":"34110","miles_from_dt":10.66},{"city":"Lehigh Acres","state_name":"Florida","lat":26.59128,"lng":-81.68543,"zip":"33976","miles_from_dt":10.84},{"city":"Lehigh Acres","state_name":"Florida","lat":26.56205,"lng":-81.60271,"zip":"33974","miles_from_dt":10.96},{"city":"Naples","state_name":"Florida","lat":26.31382,"lng":-81.58344,"zip":"34120","miles_from_dt":11.48},{"city":"Lehigh Acres","state_name":"Florida","lat":26.6014,"lng":-81.73012,"zip":"33973","miles_from_dt":11.49},{"city":"Naples","state_name":"Florida","lat":26.26658,"lng":-81.71493,"zip":"34119","miles_from_dt":11.63},{"city":"Lehigh Acres","state_name":"Florida","lat":26.60644,"lng":-81.66584,"zip":"33970","miles_from_dt":12.09},{"city":"Fort Myers Beach","state_name":"Florida","lat":26.44036,"lng":-81.90974,"zip":"33931","miles_from_dt":12.38},{"city":"Naples","state_name":"Florida","lat":26.2696,"lng":-81.79167,"zip":"34107","miles_from_dt":12.49},{"city":"Fort Myers","state_name":"Florida","lat":26.58234,"lng":-81.83206,"zip":"33966","miles_from_dt":12.63},{"city":"Fort Myers","state_name":"Florida","lat":26.48857,"lng":-81.91319,"zip":"33908","miles_from_dt":13.11},{"city":"Fort Myers","state_name":"Florida","lat":26.56447,"lng":-81.87171,"zip":"33907","miles_from_dt":13.39},{"city":"Naples","state_name":"Florida","lat":26.24073,"lng":-81.76365,"zip":"34109","miles_from_dt":13.81},{"city":"Fort Myers Beach","state_name":"Florida","lat":26.44907,"lng":-81.93245,"zip":"33932","miles_from_dt":13.82},{"city":"Lehigh Acres","state_name":"Florida","lat":26.63856,"lng":-81.69948,"zip":"33971","miles_from_dt":14},{"city":"Fort Myers","state_name":"Florida","lat":26.59268,"lng":-81.85716,"zip":"33906","miles_from_dt":14.15},{"city":"Naples","state_name":"Florida","lat":26.24533,"lng":-81.80694,"zip":"34108","miles_from_dt":14.4},{"city":"Fort Myers","state_name":"Florida","lat":26.55607,"lng":-81.90388,"zip":"33919","miles_from_dt":14.6},{"city":"Fort Myers","state_name":"Florida","lat":26.60473,"lng":-81.8638,"zip":"33902","miles_from_dt":15.05},{"city":"Lehigh Acres","state_name":"Florida","lat":26.64954,"lng":-81.61721,"zip":"33972","miles_from_dt":15.82},{"city":"Fort Myers","state_name":"Florida","lat":26.63041,"lng":-81.85222,"zip":"33994","miles_from_dt":16.05},{"city":"Lehigh Acres","state_name":"Florida","lat":26.6292,"lng":-81.5602,"zip":"33936","miles_from_dt":16.25},{"city":"Fort Myers","state_name":"Florida","lat":26.63998,"lng":-81.84104,"zip":"33916","miles_from_dt":16.25},{"city":"Fort Myers","state_name":"Florida","lat":26.66873,"lng":-81.76166,"zip":"33905","miles_from_dt":16.38},{"city":"Fort Myers","state_name":"Florida","lat":26.62304,"lng":-81.88228,"zip":"33901","miles_from_dt":16.75},{"city":"Naples","state_name":"Florida","lat":26.18816,"lng":-81.71058,"zip":"34116","miles_from_dt":17.02},{"city":"Immokalee","state_name":"Florida","lat":26.42948,"lng":-81.43348,"zip":"34143","miles_from_dt":17.15},{"city":"Naples","state_name":"Florida","lat":26.18938,"lng":-81.7626,"zip":"34105","miles_from_dt":17.25},{"city":"Cape Coral","state_name":"Florida","lat":26.57601,"lng":-81.94536,"zip":"33904","miles_from_dt":17.5},{"city":"Naples","state_name":"Florida","lat":26.19197,"lng":-81.80207,"zip":"34103","miles_from_dt":17.71},{"city":"Naples","state_name":"Florida","lat":26.15321,"lng":-81.74214,"zip":"34104","miles_from_dt":19.53},{"city":"Cape Coral","state_name":"Florida","lat":26.62875,"lng":-81.94602,"zip":"33990","miles_from_dt":19.77},{"city":"North Fort Myers","state_name":"Florida","lat":26.67696,"lng":-81.8927,"zip":"33918","miles_from_dt":20.11},{"city":"Alva","state_name":"Florida","lat":26.72903,"lng":-81.6529,"zip":"33920","miles_from_dt":20.52},{"city":"Cape Coral","state_name":"Florida","lat":26.55145,"lng":-82.02011,"zip":"33910","miles_from_dt":20.8},{"city":"North Fort Myers","state_name":"Florida","lat":26.68217,"lng":-81.90688,"zip":"33903","miles_from_dt":20.91},{"city":"Felda","state_name":"Florida","lat":26.55916,"lng":-81.40069,"zip":"33930","miles_from_dt":20.97},{"city":"Naples","state_name":"Florida","lat":26.13927,"lng":-81.79794,"zip":"34106","miles_from_dt":21.11},{"city":"Naples","state_name":"Florida","lat":26.13783,"lng":-81.79654,"zip":"34102","miles_from_dt":21.18},{"city":"Cape Coral","state_name":"Florida","lat":26.57052,"lng":-82.01944,"zip":"33914","miles_from_dt":21.3},{"city":"Naples","state_name":"Florida","lat":26.12053,"lng":-81.73908,"zip":"34112","miles_from_dt":21.75},{"city":"Fort Myers","state_name":"Florida","lat":26.62825,"lng":-81.99393,"zip":"33911","miles_from_dt":22.03},{"city":"Cape Coral","state_name":"Florida","lat":26.63074,"lng":-82.01065,"zip":"33991","miles_from_dt":22.96},{"city":"North Fort Myers","state_name":"Florida","lat":26.75403,"lng":-81.84779,"zip":"33917","miles_from_dt":23.53},{"city":"Naples","state_name":"Florida","lat":26.11864,"lng":-81.548,"zip":"34117","miles_from_dt":24.02},{"city":"Cape Coral","state_name":"Florida","lat":26.66918,"lng":-82.00387,"zip":"33915","miles_from_dt":24.29},{"city":"Sanibel","state_name":"Florida","lat":26.4534,"lng":-82.10228,"zip":"33957","miles_from_dt":24.34},{"city":"Saint James City","state_name":"Florida","lat":26.54622,"lng":-82.09589,"zip":"33956","miles_from_dt":25.09},{"city":"Cape Coral","state_name":"Florida","lat":26.72032,"lng":-81.96443,"zip":"33909","miles_from_dt":25.15},{"city":"Naples","state_name":"Florida","lat":26.05685,"lng":-81.73523,"zip":"34113","miles_from_dt":26.11},{"city":"Cape Coral","state_name":"Florida","lat":26.67194,"lng":-82.04522,"zip":"33993","miles_from_dt":26.38},{"city":"Naples","state_name":"Florida","lat":26.05694,"lng":-81.78056,"zip":"34101","miles_from_dt":26.42},{"city":"Immokalee","state_name":"Florida","lat":26.31392,"lng":-81.28601,"zip":"34142","miles_from_dt":27.59},{"city":"Labelle","state_name":"Florida","lat":26.75882,"lng":-81.44101,"zip":"33975","miles_from_dt":27.8},{"city":"Labelle","state_name":"Florida","lat":26.75692,"lng":-81.41966,"zip":"33935","miles_from_dt":28.51}],"targetCityZipCode":"33928","targetCityState":"Florida"},"__N_SSG":true}