{"pageProps":{"stateName":"Florida","cityName":"geneva","nearbyCities":[{"city":"Osteen","state_name":"Florida","lat":28.83883,"lng":-81.07239,"zip":"32764","miles_from_dt":6.73},{"city":"Oviedo","state_name":"Florida","lat":28.64761,"lng":-81.08124,"zip":"32766","miles_from_dt":6.91},{"city":"Oviedo","state_name":"Florida","lat":28.65829,"lng":-81.1813,"zip":"32762","miles_from_dt":7.57},{"city":"Oviedo","state_name":"Florida","lat":28.66732,"lng":-81.20033,"zip":"32765","miles_from_dt":7.88},{"city":"Sanford","state_name":"Florida","lat":28.75264,"lng":-81.24659,"zip":"32773","miles_from_dt":8.57},{"city":"Sanford","state_name":"Florida","lat":28.76754,"lng":-81.24685,"zip":"32772","miles_from_dt":8.7},{"city":"Winter Springs","state_name":"Florida","lat":28.68751,"lng":-81.27086,"zip":"32708","miles_from_dt":10.8},{"city":"Orlando","state_name":"Florida","lat":28.58493,"lng":-81.12127,"zip":"32820","miles_from_dt":11.11},{"city":"Winter Springs","state_name":"Florida","lat":28.68368,"lng":-81.2764,"zip":"32719","miles_from_dt":11.21},{"city":"Orlando","state_name":"Florida","lat":28.60075,"lng":-81.19511,"zip":"32816","miles_from_dt":11.36},{"city":"Deltona","state_name":"Florida","lat":28.87149,"lng":-81.23827,"zip":"32728","miles_from_dt":11.83},{"city":"Mims","state_name":"Florida","lat":28.68565,"lng":-80.9208,"zip":"32754","miles_from_dt":11.96},{"city":"Orlando","state_name":"Florida","lat":28.58543,"lng":-81.18263,"zip":"32826","miles_from_dt":11.98},{"city":"Deltona","state_name":"Florida","lat":28.90755,"lng":-81.18862,"zip":"32738","miles_from_dt":12.23},{"city":"Goldenrod","state_name":"Florida","lat":28.62365,"lng":-81.26414,"zip":"32733","miles_from_dt":12.78},{"city":"Deltona","state_name":"Florida","lat":28.91003,"lng":-81.20728,"zip":"32739","miles_from_dt":12.89},{"city":"Deltona","state_name":"Florida","lat":28.88368,"lng":-81.25061,"zip":"32725","miles_from_dt":12.95},{"city":"Orlando","state_name":"Florida","lat":28.59002,"lng":-81.2445,"zip":"32817","miles_from_dt":13.64},{"city":"Sanford","state_name":"Florida","lat":28.81496,"lng":-81.31751,"zip":"32771","miles_from_dt":13.71},{"city":"Lake Mary","state_name":"Florida","lat":28.75885,"lng":-81.3319,"zip":"32795","miles_from_dt":13.76},{"city":"Oak Hill","state_name":"Florida","lat":28.84004,"lng":-80.9034,"zip":"32759","miles_from_dt":13.88},{"city":"Casselberry","state_name":"Florida","lat":28.66255,"lng":-81.31403,"zip":"32707","miles_from_dt":13.89},{"city":"Orlando","state_name":"Florida","lat":28.56358,"lng":-81.20696,"zip":"32834","miles_from_dt":13.97},{"city":"Scottsmoor","state_name":"Florida","lat":28.76704,"lng":-80.8767,"zip":"32775","miles_from_dt":13.97},{"city":"Lake Monroe","state_name":"Florida","lat":28.82221,"lng":-81.31974,"zip":"32747","miles_from_dt":14.02},{"city":"Casselberry","state_name":"Florida","lat":28.66326,"lng":-81.32477,"zip":"32718","miles_from_dt":14.46},{"city":"Winter Park","state_name":"Florida","lat":28.61066,"lng":-81.29923,"zip":"32792","miles_from_dt":14.99},{"city":"Longwood","state_name":"Florida","lat":28.7074,"lng":-81.34955,"zip":"32750","miles_from_dt":15.04},{"city":"Lake Mary","state_name":"Florida","lat":28.76297,"lng":-81.35499,"zip":"32746","miles_from_dt":15.18},{"city":"Orlando","state_name":"Florida","lat":28.56731,"lng":-81.2555,"zip":"32867","miles_from_dt":15.29},{"city":"Orlando","state_name":"Florida","lat":28.53052,"lng":-81.17022,"zip":"32828","miles_from_dt":15.33},{"city":"Debary","state_name":"Florida","lat":28.88,"lng":-81.31219,"zip":"32753","miles_from_dt":15.57},{"city":"Orlando","state_name":"Florida","lat":28.52629,"lng":-81.17088,"zip":"32878","miles_from_dt":15.62},{"city":"Casselberry","state_name":"Florida","lat":28.65242,"lng":-81.34301,"zip":"32730","miles_from_dt":15.78},{"city":"Debary","state_name":"Florida","lat":28.8816,"lng":-81.3238,"zip":"32713","miles_from_dt":16.21},{"city":"Altamonte Springs","state_name":"Florida","lat":28.66674,"lng":-81.35961,"zip":"32715","miles_from_dt":16.35},{"city":"Orlando","state_name":"Florida","lat":28.53681,"lng":-81.24243,"zip":"32825","miles_from_dt":16.61},{"city":"New Smyrna Beach","state_name":"Florida","lat":28.98214,"lng":-81.03721,"zip":"32168","miles_from_dt":16.81},{"city":"Altamonte Springs","state_name":"Florida","lat":28.66509,"lng":-81.36916,"zip":"32701","miles_from_dt":16.94},{"city":"Mid Florida","state_name":"Florida","lat":28.63023,"lng":-81.35494,"zip":"32799","miles_from_dt":17.1},{"city":"Cassadaga","state_name":"Florida","lat":28.9672,"lng":-81.23631,"zip":"32706","miles_from_dt":17.19},{"city":"Orlando","state_name":"Florida","lat":28.56054,"lng":-81.29671,"zip":"32857","miles_from_dt":17.24},{"city":"Orlando","state_name":"Florida","lat":28.4948,"lng":-81.081,"zip":"32833","miles_from_dt":17.34},{"city":"Winter Park","state_name":"Florida","lat":28.5894,"lng":-81.33044,"zip":"32790","miles_from_dt":17.38},{"city":"Edgewater","state_name":"Florida","lat":28.92322,"lng":-80.90196,"zip":"32141","miles_from_dt":17.38},{"city":"Longwood","state_name":"Florida","lat":28.71215,"lng":-81.39151,"zip":"32752","miles_from_dt":17.51},{"city":"Maitland","state_name":"Florida","lat":28.631,"lng":-81.36457,"zip":"32751","miles_from_dt":17.6},{"city":"Maitland","state_name":"Florida","lat":28.62762,"lng":-81.36562,"zip":"32794","miles_from_dt":17.76},{"city":"Lake Helen","state_name":"Florida","lat":28.98497,"lng":-81.21899,"zip":"32744","miles_from_dt":17.86},{"city":"Orlando","state_name":"Florida","lat":28.55245,"lng":-81.30165,"zip":"32807","miles_from_dt":17.86},{"city":"Winter Park","state_name":"Florida","lat":28.59977,"lng":-81.35235,"zip":"32789","miles_from_dt":18.04},{"city":"Orlando","state_name":"Florida","lat":28.57002,"lng":-81.32663,"zip":"32814","miles_from_dt":18.07},{"city":"Titusville","state_name":"Florida","lat":28.62591,"lng":-80.84051,"zip":"32796","miles_from_dt":18.09},{"city":"Orange City","state_name":"Florida","lat":28.94291,"lng":-81.30593,"zip":"32763","miles_from_dt":18.22},{"city":"Orange City","state_name":"Florida","lat":28.95128,"lng":-81.29927,"zip":"32774","miles_from_dt":18.4},{"city":"Longwood","state_name":"Florida","lat":28.71632,"lng":-81.41343,"zip":"32779","miles_from_dt":18.79},{"city":"Christmas","state_name":"Florida","lat":28.49266,"lng":-80.98801,"zip":"32709","miles_from_dt":18.83},{"city":"Orlando","state_name":"Florida","lat":28.47439,"lng":-81.14729,"zip":"32831","miles_from_dt":18.85},{"city":"Altamonte Springs","state_name":"Florida","lat":28.66381,"lng":-81.40321,"zip":"32716","miles_from_dt":18.93},{"city":"Longwood","state_name":"Florida","lat":28.70331,"lng":-81.41995,"zip":"32791","miles_from_dt":19.3},{"city":"Edgewater","state_name":"Florida","lat":28.97731,"lng":-80.92345,"zip":"32132","miles_from_dt":19.4},{"city":"Altamonte Springs","state_name":"Florida","lat":28.66237,"lng":-81.4115,"zip":"32714","miles_from_dt":19.44},{"city":"Orlando","state_name":"Florida","lat":28.55725,"lng":-81.34913,"zip":"32853","miles_from_dt":19.68},{"city":"Orlando","state_name":"Florida","lat":28.55592,"lng":-81.34895,"zip":"32803","miles_from_dt":19.73},{"city":"Orlando","state_name":"Florida","lat":28.5566,"lng":-81.34959,"zip":"32891","miles_from_dt":19.73},{"city":"Orlando","state_name":"Florida","lat":28.47639,"lng":-81.22478,"zip":"32829","miles_from_dt":19.91},{"city":"Titusville","state_name":"Florida","lat":28.54312,"lng":-80.85553,"zip":"32783","miles_from_dt":20.63},{"city":"Orlando","state_name":"Florida","lat":28.49001,"lng":-81.29056,"zip":"32822","miles_from_dt":20.89},{"city":"Orlando","state_name":"Florida","lat":28.56832,"lng":-81.38626,"zip":"32854","miles_from_dt":20.97},{"city":"Orlando","state_name":"Florida","lat":28.57688,"lng":-81.39748,"zip":"32804","miles_from_dt":21.2},{"city":"Orlando","state_name":"Florida","lat":28.6248,"lng":-81.42959,"zip":"32860","miles_from_dt":21.36},{"city":"New Smyrna Beach","state_name":"Florida","lat":28.97934,"lng":-80.87386,"zip":"32169","miles_from_dt":21.36},{"city":"Orlando","state_name":"Florida","lat":28.62113,"lng":-81.42863,"zip":"32810","miles_from_dt":21.41},{"city":"Orlando","state_name":"Florida","lat":28.542,"lng":-81.37343,"zip":"32801","miles_from_dt":21.48},{"city":"Orlando","state_name":"Florida","lat":28.54464,"lng":-81.3761,"zip":"32877","miles_from_dt":21.49},{"city":"Orlando","state_name":"Florida","lat":28.53994,"lng":-81.3726,"zip":"32872","miles_from_dt":21.53},{"city":"Orlando","state_name":"Florida","lat":28.54381,"lng":-81.37715,"zip":"32802","miles_from_dt":21.57},{"city":"Orlando","state_name":"Florida","lat":28.53874,"lng":-81.37714,"zip":"32862","miles_from_dt":21.8},{"city":"Orlando","state_name":"Florida","lat":28.54124,"lng":-81.38082,"zip":"32886","miles_from_dt":21.86},{"city":"Orlando","state_name":"Florida","lat":28.53896,"lng":-81.37906,"zip":"32897","miles_from_dt":21.88},{"city":"Orlando","state_name":"Florida","lat":28.54,"lng":-81.38219,"zip":"32885","miles_from_dt":21.97},{"city":"Orlando","state_name":"Florida","lat":28.5123,"lng":-81.36031,"zip":"32806","miles_from_dt":22.31},{"city":"Deland","state_name":"Florida","lat":29.0506,"lng":-81.23284,"zip":"32724","miles_from_dt":22.37},{"city":"Orlando","state_name":"Florida","lat":28.4848,"lng":-81.32767,"zip":"32812","miles_from_dt":22.47},{"city":"Deland","state_name":"Florida","lat":29.02719,"lng":-81.29561,"zip":"32721","miles_from_dt":22.55},{"city":"Orlando","state_name":"Florida","lat":28.51315,"lng":-81.37171,"zip":"32856","miles_from_dt":22.75},{"city":"New Smyrna Beach","state_name":"Florida","lat":29.03483,"lng":-80.91854,"zip":"32170","miles_from_dt":22.92},{"city":"Titusville","state_name":"Florida","lat":28.53531,"lng":-80.81243,"zip":"32781","miles_from_dt":22.96},{"city":"Deland","state_name":"Florida","lat":29.03454,"lng":-81.30452,"zip":"32723","miles_from_dt":23.26},{"city":"Orlando","state_name":"Florida","lat":28.57932,"lng":-81.44342,"zip":"32808","miles_from_dt":23.5},{"city":"Orlando","state_name":"Florida","lat":28.52981,"lng":-81.40614,"zip":"32805","miles_from_dt":23.54},{"city":"Sorrento","state_name":"Florida","lat":28.81033,"lng":-81.4872,"zip":"32776","miles_from_dt":23.58},{"city":"Winter Park","state_name":"Florida","lat":28.662,"lng":-81.48316,"zip":"32793","miles_from_dt":23.64},{"city":"Orlando","state_name":"Florida","lat":28.50935,"lng":-81.39011,"zip":"32855","miles_from_dt":23.74},{"city":"Titusville","state_name":"Florida","lat":28.54672,"lng":-80.7841,"zip":"32780","miles_from_dt":23.86},{"city":"Port Orange","state_name":"Florida","lat":29.09773,"lng":-81.07467,"zip":"32128","miles_from_dt":24.32},{"city":"Orlando","state_name":"Florida","lat":28.39843,"lng":-81.18407,"zip":"32832","miles_from_dt":24.38},{"city":"Orlando","state_name":"Florida","lat":28.5542,"lng":-81.44979,"zip":"32858","miles_from_dt":24.72},{"city":"Deland","state_name":"Florida","lat":29.01775,"lng":-81.37802,"zip":"32720","miles_from_dt":24.98},{"city":"Orlando","state_name":"Florida","lat":28.41399,"lng":-81.29032,"zip":"32827","miles_from_dt":25.45},{"city":"Clarcona","state_name":"Florida","lat":28.61094,"lng":-81.49633,"zip":"32710","miles_from_dt":25.48},{"city":"Orlando","state_name":"Florida","lat":28.48833,"lng":-81.40689,"zip":"32839","miles_from_dt":25.48},{"city":"Apopka","state_name":"Florida","lat":28.61159,"lng":-81.49858,"zip":"32704","miles_from_dt":25.59},{"city":"Orlando","state_name":"Florida","lat":28.58518,"lng":-81.48716,"zip":"32818","miles_from_dt":25.67},{"city":"Eustis","state_name":"Florida","lat":28.89831,"lng":-81.49317,"zip":"32736","miles_from_dt":25.75},{"city":"Orlando","state_name":"Florida","lat":28.59124,"lng":-81.49269,"zip":"32869","miles_from_dt":25.8},{"city":"Orlando","state_name":"Florida","lat":28.46301,"lng":-81.38428,"zip":"32809","miles_from_dt":25.8},{"city":"Orlando","state_name":"Florida","lat":28.59018,"lng":-81.49363,"zip":"32868","miles_from_dt":25.88},{"city":"Orlando","state_name":"Florida","lat":28.46212,"lng":-81.38529,"zip":"32859","miles_from_dt":25.89},{"city":"Orlando","state_name":"Florida","lat":28.51616,"lng":-81.44405,"zip":"32861","miles_from_dt":25.93},{"city":"Orlando","state_name":"Florida","lat":28.51624,"lng":-81.44516,"zip":"32811","miles_from_dt":25.98},{"city":"Apopka","state_name":"Florida","lat":28.65579,"lng":-81.52139,"zip":"32703","miles_from_dt":25.99},{"city":"Port Orange","state_name":"Florida","lat":29.10866,"lng":-80.97907,"zip":"32127","miles_from_dt":26.15},{"city":"Apopka","state_name":"Florida","lat":28.72917,"lng":-81.54103,"zip":"32712","miles_from_dt":26.45},{"city":"Cocoa","state_name":"Florida","lat":28.46372,"lng":-80.80709,"zip":"32927","miles_from_dt":26.57},{"city":"Port Orange","state_name":"Florida","lat":29.13721,"lng":-81.02381,"zip":"32129","miles_from_dt":27.42},{"city":"Glenwood","state_name":"Florida","lat":29.07924,"lng":-81.35296,"zip":"32722","miles_from_dt":27.43},{"city":"Plymouth","state_name":"Florida","lat":28.69577,"lng":-81.55795,"zip":"32768","miles_from_dt":27.67},{"city":"Orlando","state_name":"Florida","lat":28.52182,"lng":-81.48473,"zip":"32835","miles_from_dt":27.72},{"city":"Daytona Beach","state_name":"Florida","lat":29.14535,"lng":-81.02937,"zip":"32122","miles_from_dt":27.91},{"city":"Port Orange","state_name":"Florida","lat":29.14953,"lng":-81.03118,"zip":"32123","miles_from_dt":28.18},{"city":"Ocoee","state_name":"Florida","lat":28.57975,"lng":-81.53386,"zip":"34761","miles_from_dt":28.41},{"city":"Orlando","state_name":"Florida","lat":28.38991,"lng":-81.34471,"zip":"32824","miles_from_dt":28.49},{"city":"Daytona Beach","state_name":"Florida","lat":29.15802,"lng":-81.15732,"zip":"32124","miles_from_dt":28.57},{"city":"Daytona Beach","state_name":"Florida","lat":29.16001,"lng":-81.02707,"zip":"32119","miles_from_dt":28.93},{"city":"Gotha","state_name":"Florida","lat":28.5376,"lng":-81.52204,"zip":"34734","miles_from_dt":29.07},{"city":"Zellwood","state_name":"Florida","lat":28.72647,"lng":-81.58648,"zip":"32798","miles_from_dt":29.22},{"city":"Orlando","state_name":"Florida","lat":28.59229,"lng":-80.65606,"zip":"32815","miles_from_dt":29.28},{"city":"Sharpes","state_name":"Florida","lat":28.44513,"lng":-80.7637,"zip":"32959","miles_from_dt":29.33},{"city":"Orlando","state_name":"Florida","lat":28.45565,"lng":-81.472,"zip":"32819","miles_from_dt":29.91}],"targetCityZipCode":"32732","targetCityState":"Florida"},"__N_SSG":true}