{"pageProps":{"stateName":"Florida","cityName":"hernando","nearbyCities":[{"city":"Inverness","state_name":"Florida","lat":28.89276,"lng":-82.33663,"zip":"34453","miles_from_dt":2.4},{"city":"Hernando","state_name":"Florida","lat":28.93084,"lng":-82.39122,"zip":"34442","miles_from_dt":2.41},{"city":"Inverness","state_name":"Florida","lat":28.83848,"lng":-82.33157,"zip":"34451","miles_from_dt":4.93},{"city":"Beverly Hills","state_name":"Florida","lat":28.91299,"lng":-82.46318,"zip":"34464","miles_from_dt":5.4},{"city":"Holder","state_name":"Florida","lat":28.97143,"lng":-82.42414,"zip":"34445","miles_from_dt":5.81},{"city":"Beverly Hills","state_name":"Florida","lat":28.92869,"lng":-82.49092,"zip":"34465","miles_from_dt":7.29},{"city":"Lecanto","state_name":"Florida","lat":28.93117,"lng":-82.49137,"zip":"34460","miles_from_dt":7.36},{"city":"Dunnellon","state_name":"Florida","lat":28.99535,"lng":-82.43775,"zip":"34434","miles_from_dt":7.65},{"city":"Lecanto","state_name":"Florida","lat":28.81544,"lng":-82.48029,"zip":"34461","miles_from_dt":8.55},{"city":"Inverness","state_name":"Florida","lat":28.82699,"lng":-82.25767,"zip":"34450","miles_from_dt":8.69},{"city":"Inverness","state_name":"Florida","lat":28.76231,"lng":-82.37986,"zip":"34452","miles_from_dt":9.39},{"city":"Dunnellon","state_name":"Florida","lat":29.05306,"lng":-82.37846,"zip":"34430","miles_from_dt":10.64},{"city":"Dunnellon","state_name":"Florida","lat":28.996,"lng":-82.52383,"zip":"34433","miles_from_dt":11.21},{"city":"Dunnellon","state_name":"Florida","lat":29.06588,"lng":-82.36353,"zip":"34432","miles_from_dt":11.54},{"city":"Crystal River","state_name":"Florida","lat":28.86279,"lng":-82.57233,"zip":"34423","miles_from_dt":12.18},{"city":"Lake Panasoffkee","state_name":"Florida","lat":28.84679,"lng":-82.18218,"zip":"33538","miles_from_dt":12.26},{"city":"Homosassa Springs","state_name":"Florida","lat":28.79655,"lng":-82.55023,"zip":"34447","miles_from_dt":12.71},{"city":"Floral City","state_name":"Florida","lat":28.72672,"lng":-82.29134,"zip":"34436","miles_from_dt":12.9},{"city":"Ocala","state_name":"Florida","lat":29.00506,"lng":-82.18833,"zip":"34473","miles_from_dt":13.51},{"city":"Homosassa","state_name":"Florida","lat":28.74904,"lng":-82.52344,"zip":"34446","miles_from_dt":13.66},{"city":"Ocala","state_name":"Florida","lat":29.11902,"lng":-82.30769,"zip":"34481","miles_from_dt":15.72},{"city":"Crystal River","state_name":"Florida","lat":28.9608,"lng":-82.63421,"zip":"34428","miles_from_dt":16.24},{"city":"Homosassa","state_name":"Florida","lat":28.78148,"lng":-82.61272,"zip":"34487","miles_from_dt":16.49},{"city":"Homosassa","state_name":"Florida","lat":28.77009,"lng":-82.61201,"zip":"34448","miles_from_dt":16.85},{"city":"Crystal River","state_name":"Florida","lat":28.85737,"lng":-82.65152,"zip":"34429","miles_from_dt":16.96},{"city":"Ocala","state_name":"Florida","lat":29.08579,"lng":-82.19279,"zip":"34476","miles_from_dt":16.99},{"city":"Oxford","state_name":"Florida","lat":28.93417,"lng":-82.08867,"zip":"34484","miles_from_dt":17.56},{"city":"Istachatta","state_name":"Florida","lat":28.65891,"lng":-82.27302,"zip":"34636","miles_from_dt":17.64},{"city":"Dunnellon","state_name":"Florida","lat":29.1339,"lng":-82.52963,"zip":"34431","miles_from_dt":18.69},{"city":"Brooksville","state_name":"Florida","lat":28.64627,"lng":-82.51324,"zip":"34614","miles_from_dt":19.28},{"city":"Wildwood","state_name":"Florida","lat":28.84516,"lng":-82.06065,"zip":"34785","miles_from_dt":19.45},{"city":"Coleman","state_name":"Florida","lat":28.79788,"lng":-82.0752,"zip":"33521","miles_from_dt":19.49},{"city":"Bushnell","state_name":"Florida","lat":28.66849,"lng":-82.17143,"zip":"33513","miles_from_dt":20.12},{"city":"Nobleton","state_name":"Florida","lat":28.62108,"lng":-82.26507,"zip":"34661","miles_from_dt":20.26},{"city":"Ocala","state_name":"Florida","lat":29.15515,"lng":-82.21106,"zip":"34474","miles_from_dt":20.28},{"city":"Candler","state_name":"Florida","lat":29.16484,"lng":-82.21748,"zip":"32111","miles_from_dt":20.68},{"city":"Summerfield","state_name":"Florida","lat":28.99634,"lng":-82.04665,"zip":"34491","miles_from_dt":21.03},{"city":"Brooksville","state_name":"Florida","lat":28.5892,"lng":-82.36857,"zip":"34601","miles_from_dt":21.31},{"city":"Ocala","state_name":"Florida","lat":29.10178,"lng":-82.09975,"zip":"34480","miles_from_dt":21.79},{"city":"Belleview","state_name":"Florida","lat":29.05359,"lng":-82.04008,"zip":"34420","miles_from_dt":22.95},{"city":"Belleview","state_name":"Florida","lat":29.04924,"lng":-82.03642,"zip":"34421","miles_from_dt":23.01},{"city":"The Villages","state_name":"Florida","lat":28.91629,"lng":-81.99374,"zip":"32162","miles_from_dt":23.17},{"city":"Sumterville","state_name":"Florida","lat":28.74089,"lng":-82.03347,"zip":"33585","miles_from_dt":23.42},{"city":"Ocala","state_name":"Florida","lat":29.16054,"lng":-82.12786,"zip":"34471","miles_from_dt":23.46},{"city":"Inglis","state_name":"Florida","lat":29.10451,"lng":-82.68694,"zip":"34449","miles_from_dt":23.59},{"city":"Yankeetown","state_name":"Florida","lat":29.03299,"lng":-82.734,"zip":"34498","miles_from_dt":23.6},{"city":"Brooksville","state_name":"Florida","lat":28.55221,"lng":-82.39106,"zip":"34603","miles_from_dt":23.88},{"city":"The Villages","state_name":"Florida","lat":28.81878,"lng":-81.98663,"zip":"32163","miles_from_dt":24.22},{"city":"Ocala","state_name":"Florida","lat":29.18547,"lng":-82.1418,"zip":"34478","miles_from_dt":24.3},{"city":"Ocala","state_name":"Florida","lat":29.18624,"lng":-82.13865,"zip":"34483","miles_from_dt":24.45},{"city":"Ocala","state_name":"Florida","lat":29.18771,"lng":-82.12902,"zip":"34477","miles_from_dt":24.88},{"city":"Ocala","state_name":"Florida","lat":29.24984,"lng":-82.27702,"zip":"34482","miles_from_dt":24.91},{"city":"Brooksville","state_name":"Florida","lat":28.56183,"lng":-82.53803,"zip":"34613","miles_from_dt":25.2},{"city":"Morriston","state_name":"Florida","lat":29.26327,"lng":-82.50321,"zip":"32668","miles_from_dt":26.27},{"city":"Spring Hill","state_name":"Florida","lat":28.57528,"lng":-82.62715,"zip":"34607","miles_from_dt":27},{"city":"Lady Lake","state_name":"Florida","lat":28.92727,"lng":-81.92696,"zip":"32158","miles_from_dt":27.26},{"city":"Ocala","state_name":"Florida","lat":29.11187,"lng":-81.99625,"zip":"34472","miles_from_dt":27.26},{"city":"Ocala","state_name":"Florida","lat":29.20098,"lng":-82.08262,"zip":"34470","miles_from_dt":27.35},{"city":"Ocala","state_name":"Florida","lat":29.25282,"lng":-82.16065,"zip":"34475","miles_from_dt":27.64},{"city":"Brooksville","state_name":"Florida","lat":28.50252,"lng":-82.28007,"zip":"34602","miles_from_dt":27.89},{"city":"Brooksville","state_name":"Florida","lat":28.49696,"lng":-82.45256,"zip":"34605","miles_from_dt":28.05},{"city":"Center Hill","state_name":"Florida","lat":28.65771,"lng":-81.99886,"zip":"33514","miles_from_dt":28.25},{"city":"Lady Lake","state_name":"Florida","lat":28.92456,"lng":-81.90528,"zip":"32159","miles_from_dt":28.56},{"city":"Eastlake Weir","state_name":"Florida","lat":29.01061,"lng":-81.92036,"zip":"32133","miles_from_dt":28.63},{"city":"Ocklawaha","state_name":"Florida","lat":29.04323,"lng":-81.92937,"zip":"32183","miles_from_dt":28.8},{"city":"Fruitland Park","state_name":"Florida","lat":28.86788,"lng":-81.89638,"zip":"34731","miles_from_dt":29.13},{"city":"Brooksville","state_name":"Florida","lat":28.4781,"lng":-82.43322,"zip":"34604","miles_from_dt":29.17},{"city":"Ocala","state_name":"Florida","lat":29.25285,"lng":-82.10945,"zip":"34479","miles_from_dt":29.23},{"city":"Weirsdale","state_name":"Florida","lat":28.9854,"lng":-81.89814,"zip":"32195","miles_from_dt":29.54},{"city":"Okahumpka","state_name":"Florida","lat":28.75772,"lng":-81.9152,"zip":"34762","miles_from_dt":29.56},{"city":"Spring Hill","state_name":"Florida","lat":28.4792,"lng":-82.50818,"zip":"34609","miles_from_dt":29.99}],"targetCityZipCode":"34441","targetCityState":"Florida"},"__N_SSG":true}