{"pageProps":{"stateName":"Florida","cityName":"holt","nearbyCities":[{"city":"Milligan","state_name":"Florida","lat":30.76092,"lng":-86.60592,"zip":"32537","miles_from_dt":11.05},{"city":"Crestview","state_name":"Florida","lat":30.75399,"lng":-86.59491,"zip":"32536","miles_from_dt":11.6},{"city":"Baker","state_name":"Florida","lat":30.88513,"lng":-86.696,"zip":"32531","miles_from_dt":12.14},{"city":"Milton","state_name":"Florida","lat":30.80022,"lng":-86.98158,"zip":"32570","miles_from_dt":12.58},{"city":"Milton","state_name":"Florida","lat":30.60084,"lng":-86.97513,"zip":"32583","miles_from_dt":14.18},{"city":"Eglin Afb","state_name":"Florida","lat":30.58743,"lng":-86.59296,"zip":"32542","miles_from_dt":15.08},{"city":"Bagdad","state_name":"Florida","lat":30.5926,"lng":-87.02344,"zip":"32530","miles_from_dt":16.85},{"city":"Milton","state_name":"Florida","lat":30.6278,"lng":-87.04861,"zip":"32572","miles_from_dt":17},{"city":"Crestview","state_name":"Florida","lat":30.78128,"lng":-86.46646,"zip":"32539","miles_from_dt":19.46},{"city":"Fort Walton Beach","state_name":"Florida","lat":30.46649,"lng":-86.65513,"zip":"32547","miles_from_dt":19.64},{"city":"Hurlburt Field","state_name":"Florida","lat":30.42801,"lng":-86.70441,"zip":"32544","miles_from_dt":21.22},{"city":"Navarre","state_name":"Florida","lat":30.4253,"lng":-86.8843,"zip":"32566","miles_from_dt":21.61},{"city":"Mary Esther","state_name":"Florida","lat":30.40666,"lng":-86.72962,"zip":"32569","miles_from_dt":22.37},{"city":"Wing","state_name":"Alabama","lat":31.04273,"lng":-86.68494,"zip":"36483","miles_from_dt":22.55},{"city":"Valparaiso","state_name":"Florida","lat":30.50337,"lng":-86.50942,"zip":"32580","miles_from_dt":22.65},{"city":"Shalimar","state_name":"Florida","lat":30.44553,"lng":-86.57401,"zip":"32579","miles_from_dt":23.22},{"city":"Niceville","state_name":"Florida","lat":30.5245,"lng":-86.47491,"zip":"32588","miles_from_dt":23.29},{"city":"Fort Walton Beach","state_name":"Florida","lat":30.4094,"lng":-86.6494,"zip":"32548","miles_from_dt":23.41},{"city":"Jay","state_name":"Florida","lat":30.89241,"lng":-87.14071,"zip":"32565","miles_from_dt":23.88},{"city":"Fort Walton Beach","state_name":"Florida","lat":30.4103,"lng":-86.61457,"zip":"32549","miles_from_dt":24.16},{"city":"Milton","state_name":"Florida","lat":30.67162,"lng":-87.20004,"zip":"32571","miles_from_dt":24.86},{"city":"Laurel Hill","state_name":"Florida","lat":30.92207,"lng":-86.43396,"zip":"32567","miles_from_dt":24.93},{"city":"Niceville","state_name":"Florida","lat":30.50871,"lng":-86.4535,"zip":"32578","miles_from_dt":24.96},{"city":"Gulf Breeze","state_name":"Florida","lat":30.38782,"lng":-87.0331,"zip":"32563","miles_from_dt":27.61},{"city":"Mossy Head","state_name":"Florida","lat":30.74234,"lng":-86.31461,"zip":"32434","miles_from_dt":28.16},{"city":"Pensacola","state_name":"Florida","lat":30.53209,"lng":-87.22235,"zip":"32514","miles_from_dt":29.2},{"city":"Pensacola","state_name":"Florida","lat":30.48541,"lng":-87.19025,"zip":"32524","miles_from_dt":29.23},{"city":"Pensacola","state_name":"Florida","lat":30.48495,"lng":-87.19093,"zip":"32504","miles_from_dt":29.28},{"city":"Destin","state_name":"Florida","lat":30.39284,"lng":-86.48182,"zip":"32540","miles_from_dt":29.39},{"city":"Destin","state_name":"Florida","lat":30.39666,"lng":-86.47486,"zip":"32541","miles_from_dt":29.44},{"city":"Pensacola","state_name":"Florida","lat":30.51664,"lng":-87.21885,"zip":"32523","miles_from_dt":29.52}],"targetCityZipCode":"32564","targetCityState":"Florida"},"__N_SSG":true}