{"pageProps":{"stateName":"Florida","cityName":"jacksonville","nearbyCities":[{"city":"Jacksonville","state_name":"Florida","lat":30.34164,"lng":-81.73549,"zip":"32254","miles_from_dt":2.17},{"city":"Jacksonville","state_name":"Florida","lat":30.30605,"lng":-81.72997,"zip":"32236","miles_from_dt":3.15},{"city":"Jacksonville","state_name":"Florida","lat":30.30275,"lng":-81.72257,"zip":"32205","miles_from_dt":3.64},{"city":"Jacksonville","state_name":"Florida","lat":30.27561,"lng":-81.76425,"zip":"32201","miles_from_dt":4.11},{"city":"Jacksonville","state_name":"Florida","lat":30.36141,"lng":-81.69573,"zip":"32209","miles_from_dt":4.85},{"city":"Jacksonville","state_name":"Florida","lat":30.33693,"lng":-81.85335,"zip":"32220","miles_from_dt":4.93},{"city":"Jacksonville","state_name":"Florida","lat":30.26491,"lng":-81.74746,"zip":"32210","miles_from_dt":5.02},{"city":"Jacksonville","state_name":"Florida","lat":30.31636,"lng":-81.68095,"zip":"32204","miles_from_dt":5.53},{"city":"Jacksonville","state_name":"Florida","lat":30.33702,"lng":-81.67129,"zip":"32203","miles_from_dt":5.95},{"city":"Jacksonville","state_name":"Florida","lat":30.41815,"lng":-81.81367,"zip":"32219","miles_from_dt":6.28},{"city":"Jacksonville","state_name":"Florida","lat":30.39351,"lng":-81.68245,"zip":"32208","miles_from_dt":6.65},{"city":"Jacksonville","state_name":"Florida","lat":30.32505,"lng":-81.64786,"zip":"32202","miles_from_dt":7.38},{"city":"Jacksonville","state_name":"Florida","lat":30.26043,"lng":-81.86764,"zip":"32221","miles_from_dt":7.73},{"city":"Jacksonville","state_name":"Florida","lat":30.22145,"lng":-81.76301,"zip":"32238","miles_from_dt":7.83},{"city":"Jacksonville","state_name":"Florida","lat":30.35069,"lng":-81.63865,"zip":"32206","miles_from_dt":7.98},{"city":"Jacksonville","state_name":"Florida","lat":30.2171,"lng":-81.75384,"zip":"32244","miles_from_dt":8.18},{"city":"Jacksonville","state_name":"Florida","lat":30.29,"lng":-81.64018,"zip":"32207","miles_from_dt":8.4},{"city":"Jacksonville","state_name":"Florida","lat":30.29708,"lng":-81.63501,"zip":"32247","miles_from_dt":8.53},{"city":"Jacksonville","state_name":"Florida","lat":30.29256,"lng":-81.63531,"zip":"32232","miles_from_dt":8.61},{"city":"Jacksonville","state_name":"Florida","lat":30.29405,"lng":-81.63478,"zip":"32235","miles_from_dt":8.61},{"city":"Jacksonville","state_name":"Florida","lat":30.28999,"lng":-81.63345,"zip":"32231","miles_from_dt":8.78},{"city":"Jacksonville","state_name":"Florida","lat":30.21651,"lng":-81.8293,"zip":"32222","miles_from_dt":8.87},{"city":"Jacksonville","state_name":"Florida","lat":30.21916,"lng":-81.67869,"zip":"32212","miles_from_dt":9.7},{"city":"Jacksonville","state_name":"Florida","lat":30.20749,"lng":-81.68334,"zip":"32214","miles_from_dt":10.22},{"city":"Jacksonville","state_name":"Florida","lat":30.2394,"lng":-81.62722,"zip":"32217","miles_from_dt":10.82},{"city":"Jacksonville","state_name":"Florida","lat":30.3728,"lng":-81.59465,"zip":"32277","miles_from_dt":10.85},{"city":"Jacksonville","state_name":"Florida","lat":30.33276,"lng":-81.58428,"zip":"32211","miles_from_dt":11.15},{"city":"Jacksonville","state_name":"Florida","lat":30.33099,"lng":-81.57791,"zip":"32239","miles_from_dt":11.54},{"city":"Orange Park","state_name":"Florida","lat":30.16766,"lng":-81.74069,"zip":"32073","miles_from_dt":11.66},{"city":"Jacksonville","state_name":"Florida","lat":30.27891,"lng":-81.58305,"zip":"32216","miles_from_dt":11.87},{"city":"Jacksonville","state_name":"Florida","lat":30.48673,"lng":-81.66959,"zip":"32218","miles_from_dt":12.08},{"city":"Jacksonville","state_name":"Florida","lat":30.40837,"lng":-81.57952,"zip":"32229","miles_from_dt":12.5},{"city":"Orange Park","state_name":"Florida","lat":30.15613,"lng":-81.81762,"zip":"32065","miles_from_dt":12.63},{"city":"Bryceville","state_name":"Florida","lat":30.42078,"lng":-81.97252,"zip":"32009","miles_from_dt":13.41},{"city":"Jacksonville","state_name":"Florida","lat":30.19515,"lng":-81.6123,"zip":"32257","miles_from_dt":13.52},{"city":"Jacksonville","state_name":"Florida","lat":30.2802,"lng":-81.54639,"zip":"32255","miles_from_dt":13.94},{"city":"Jacksonville","state_name":"Florida","lat":30.16829,"lng":-81.62911,"zip":"32241","miles_from_dt":14.27},{"city":"Jacksonville","state_name":"Florida","lat":30.1549,"lng":-81.64821,"zip":"32223","miles_from_dt":14.41},{"city":"Jacksonville","state_name":"Florida","lat":30.24787,"lng":-81.54931,"zip":"32245","miles_from_dt":14.54},{"city":"Jacksonville","state_name":"Florida","lat":30.29422,"lng":-81.51782,"zip":"32246","miles_from_dt":15.38},{"city":"Fleming Island","state_name":"Florida","lat":30.11013,"lng":-81.72218,"zip":"32006","miles_from_dt":15.76},{"city":"Doctors Inlet","state_name":"Florida","lat":30.10501,"lng":-81.78051,"zip":"32030","miles_from_dt":15.85},{"city":"Jacksonville","state_name":"Florida","lat":30.35768,"lng":-81.50592,"zip":"32225","miles_from_dt":15.91},{"city":"Fleming Island","state_name":"Florida","lat":30.09813,"lng":-81.71255,"zip":"32003","miles_from_dt":16.68},{"city":"Callahan","state_name":"Florida","lat":30.56985,"lng":-81.83975,"zip":"32011","miles_from_dt":16.7},{"city":"Jacksonville","state_name":"Florida","lat":30.20784,"lng":-82.01096,"zip":"32234","miles_from_dt":16.81},{"city":"Jacksonville","state_name":"Florida","lat":30.46444,"lng":-81.50999,"zip":"32226","miles_from_dt":17.95},{"city":"Middleburg","state_name":"Florida","lat":30.08218,"lng":-81.88245,"zip":"32068","miles_from_dt":18.64},{"city":"Jacksonville","state_name":"Florida","lat":30.1929,"lng":-81.50309,"zip":"32256","miles_from_dt":18.77},{"city":"Middleburg","state_name":"Florida","lat":30.07206,"lng":-81.86142,"zip":"32050","miles_from_dt":18.9},{"city":"Jacksonville","state_name":"Florida","lat":30.26815,"lng":-81.4642,"zip":"32224","miles_from_dt":18.9},{"city":"Jacksonville","state_name":"Florida","lat":30.13874,"lng":-81.54941,"zip":"32258","miles_from_dt":18.93},{"city":"Saint Johns","state_name":"Florida","lat":30.07109,"lng":-81.6029,"zip":"32259","miles_from_dt":20.77},{"city":"Orange Park","state_name":"Florida","lat":30.03256,"lng":-81.79199,"zip":"32067","miles_from_dt":20.87},{"city":"Atlantic Beach","state_name":"Florida","lat":30.35943,"lng":-81.42098,"zip":"32233","miles_from_dt":20.97},{"city":"Jacksonville","state_name":"Florida","lat":30.0775,"lng":-81.58084,"zip":"32260","miles_from_dt":21.07},{"city":"Macclenny","state_name":"Florida","lat":30.27045,"lng":-82.11974,"zip":"32063","miles_from_dt":21.32},{"city":"Neptune Beach","state_name":"Florida","lat":30.31648,"lng":-81.41177,"zip":"32266","miles_from_dt":21.5},{"city":"Jacksonville Beach","state_name":"Florida","lat":30.27824,"lng":-81.41168,"zip":"32240","miles_from_dt":21.82},{"city":"Jacksonville Beach","state_name":"Florida","lat":30.27846,"lng":-81.41035,"zip":"32250","miles_from_dt":21.9},{"city":"Jacksonville","state_name":"Florida","lat":30.38792,"lng":-81.40571,"zip":"32227","miles_from_dt":22.12},{"city":"Saint George","state_name":"Georgia","lat":30.47778,"lng":-82.10755,"zip":"31562","miles_from_dt":22.38},{"city":"Jacksonville","state_name":"Florida","lat":30.39158,"lng":-81.40022,"zip":"32228","miles_from_dt":22.48},{"city":"Yulee","state_name":"Florida","lat":30.65851,"lng":-81.64478,"zip":"32097","miles_from_dt":23.53},{"city":"Yulee","state_name":"Florida","lat":30.63597,"lng":-81.57312,"zip":"32041","miles_from_dt":23.86},{"city":"Ponte Vedra Beach","state_name":"Florida","lat":30.24158,"lng":-81.38343,"zip":"32004","miles_from_dt":24.04},{"city":"Penney Farms","state_name":"Florida","lat":29.97814,"lng":-81.80563,"zip":"32079","miles_from_dt":24.66},{"city":"Ponte Vedra","state_name":"Florida","lat":30.12143,"lng":-81.42089,"zip":"32081","miles_from_dt":25.59},{"city":"Fernandina Beach","state_name":"Florida","lat":30.624,"lng":-81.49392,"zip":"32034","miles_from_dt":25.88},{"city":"Lawtey","state_name":"Florida","lat":30.07988,"lng":-82.10743,"zip":"32058","miles_from_dt":26.72},{"city":"Hilliard","state_name":"Florida","lat":30.70253,"lng":-81.91718,"zip":"32046","miles_from_dt":26.78},{"city":"Green Cove Springs","state_name":"Florida","lat":29.92991,"lng":-81.74304,"zip":"32043","miles_from_dt":27.95},{"city":"Ponte Vedra Beach","state_name":"Florida","lat":30.12488,"lng":-81.36577,"zip":"32082","miles_from_dt":28.22},{"city":"Glen Saint Mary","state_name":"Florida","lat":30.24696,"lng":-82.23531,"zip":"32040","miles_from_dt":28.41},{"city":"Fernandina Beach","state_name":"Florida","lat":30.6705,"lng":-81.46203,"zip":"32035","miles_from_dt":29.56}],"targetCityZipCode":"32099","targetCityState":"Florida"},"__N_SSG":true}