{"pageProps":{"stateName":"Florida","cityName":"laurel-hill","nearbyCities":[{"city":"Lockhart","state_name":"Alabama","lat":31.01212,"lng":-86.35321,"zip":"36455","miles_from_dt":7.84},{"city":"Paxton","state_name":"Florida","lat":30.97737,"lng":-86.3124,"zip":"32538","miles_from_dt":8.16},{"city":"Crestview","state_name":"Florida","lat":30.78128,"lng":-86.46646,"zip":"32539","miles_from_dt":9.89},{"city":"Florala","state_name":"Alabama","lat":31.07312,"lng":-86.36355,"zip":"36442","miles_from_dt":11.21},{"city":"Mossy Head","state_name":"Florida","lat":30.74234,"lng":-86.31461,"zip":"32434","miles_from_dt":14.27},{"city":"Defuniak Springs","state_name":"Florida","lat":30.84848,"lng":-86.19822,"zip":"32433","miles_from_dt":14.9},{"city":"Crestview","state_name":"Florida","lat":30.75399,"lng":-86.59491,"zip":"32536","miles_from_dt":15.02},{"city":"Milligan","state_name":"Florida","lat":30.76092,"lng":-86.60592,"zip":"32537","miles_from_dt":15.09},{"city":"Baker","state_name":"Florida","lat":30.88513,"lng":-86.696,"zip":"32531","miles_from_dt":15.77},{"city":"Wing","state_name":"Alabama","lat":31.04273,"lng":-86.68494,"zip":"36483","miles_from_dt":17.06},{"city":"Andalusia","state_name":"Alabama","lat":31.18092,"lng":-86.57618,"zip":"36420","miles_from_dt":19.73},{"city":"Argyle","state_name":"Florida","lat":30.74956,"lng":-86.07287,"zip":"32422","miles_from_dt":24.54},{"city":"Eglin Afb","state_name":"Florida","lat":30.58743,"lng":-86.59296,"zip":"32542","miles_from_dt":24.92},{"city":"Holt","state_name":"Florida","lat":30.72755,"lng":-86.7875,"zip":"32564","miles_from_dt":24.93},{"city":"Samson","state_name":"Alabama","lat":31.08741,"lng":-86.05407,"zip":"36477","miles_from_dt":25.26},{"city":"Kinston","state_name":"Alabama","lat":31.19788,"lng":-86.14726,"zip":"36453","miles_from_dt":25.5},{"city":"Defuniak Springs","state_name":"Florida","lat":30.65367,"lng":-86.11597,"zip":"32435","miles_from_dt":26.45},{"city":"Opp","state_name":"Alabama","lat":31.2795,"lng":-86.25579,"zip":"36467","miles_from_dt":26.79},{"city":"Niceville","state_name":"Florida","lat":30.5245,"lng":-86.47491,"zip":"32588","miles_from_dt":27.5},{"city":"Andalusia","state_name":"Alabama","lat":31.32769,"lng":-86.50903,"zip":"36421","miles_from_dt":28.3},{"city":"Westville","state_name":"Florida","lat":30.89687,"lng":-85.95592,"zip":"32464","miles_from_dt":28.45},{"city":"Niceville","state_name":"Florida","lat":30.50871,"lng":-86.4535,"zip":"32578","miles_from_dt":28.5},{"city":"Valparaiso","state_name":"Florida","lat":30.50337,"lng":-86.50942,"zip":"32580","miles_from_dt":29.19}],"targetCityZipCode":"32567","targetCityState":"Florida"},"__N_SSG":true}