{"pageProps":{"stateName":"Florida","cityName":"laurel","nearbyCities":[{"city":"Nokomis","state_name":"Florida","lat":27.13507,"lng":-82.45455,"zip":"34274","miles_from_dt":0.45},{"city":"Nokomis","state_name":"Florida","lat":27.15203,"lng":-82.41966,"zip":"34275","miles_from_dt":2.04},{"city":"Venice","state_name":"Florida","lat":27.0918,"lng":-82.43408,"zip":"34285","miles_from_dt":3.14},{"city":"Osprey","state_name":"Florida","lat":27.19159,"lng":-82.48309,"zip":"34229","miles_from_dt":4.43},{"city":"Venice","state_name":"Florida","lat":27.04794,"lng":-82.40721,"zip":"34284","miles_from_dt":6.53},{"city":"Sarasota","state_name":"Florida","lat":27.23049,"lng":-82.4687,"zip":"34238","miles_from_dt":6.65},{"city":"Venice","state_name":"Florida","lat":27.10308,"lng":-82.33496,"zip":"34292","miles_from_dt":7.28},{"city":"Venice","state_name":"Florida","lat":27.04642,"lng":-82.35595,"zip":"34293","miles_from_dt":8.34},{"city":"Sarasota","state_name":"Florida","lat":27.24944,"lng":-82.37305,"zip":"34241","miles_from_dt":9.06},{"city":"Sarasota","state_name":"Florida","lat":27.26651,"lng":-82.51626,"zip":"34231","miles_from_dt":9.95},{"city":"Sarasota","state_name":"Florida","lat":27.2836,"lng":-82.47311,"zip":"34233","miles_from_dt":10.3},{"city":"Sarasota","state_name":"Florida","lat":27.26237,"lng":-82.53997,"zip":"34242","miles_from_dt":10.42},{"city":"Englewood","state_name":"Florida","lat":26.97963,"lng":-82.33257,"zip":"34223","miles_from_dt":12.87},{"city":"Sarasota","state_name":"Florida","lat":27.31094,"lng":-82.52179,"zip":"34239","miles_from_dt":12.9},{"city":"Sarasota","state_name":"Florida","lat":27.32601,"lng":-82.47239,"zip":"34232","miles_from_dt":13.19},{"city":"North Port","state_name":"Florida","lat":27.05735,"lng":-82.24677,"zip":"34287","miles_from_dt":13.49},{"city":"North Port","state_name":"Florida","lat":27.11494,"lng":-82.21722,"zip":"34291","miles_from_dt":14.25},{"city":"North Port","state_name":"Florida","lat":27.04,"lng":-82.24219,"zip":"34290","miles_from_dt":14.26},{"city":"Sarasota","state_name":"Florida","lat":27.33761,"lng":-82.51409,"zip":"34237","miles_from_dt":14.49},{"city":"Sarasota","state_name":"Florida","lat":27.32964,"lng":-82.55874,"zip":"34236","miles_from_dt":15.01},{"city":"Sarasota","state_name":"Florida","lat":27.33676,"lng":-82.5469,"zip":"34276","miles_from_dt":15.13},{"city":"Sarasota","state_name":"Florida","lat":27.35361,"lng":-82.48663,"zip":"34230","miles_from_dt":15.19},{"city":"Sarasota","state_name":"Florida","lat":27.34218,"lng":-82.35177,"zip":"34240","miles_from_dt":15.38},{"city":"Sarasota","state_name":"Florida","lat":27.33608,"lng":-82.32478,"zip":"34277","miles_from_dt":15.72},{"city":"Sarasota","state_name":"Florida","lat":27.36673,"lng":-82.47724,"zip":"34235","miles_from_dt":16.01},{"city":"Sarasota","state_name":"Florida","lat":27.3412,"lng":-82.60391,"zip":"34249","miles_from_dt":17.11},{"city":"Port Charlotte","state_name":"Florida","lat":26.99991,"lng":-82.21222,"zip":"33953","miles_from_dt":17.25},{"city":"Englewood","state_name":"Florida","lat":26.91902,"lng":-82.30581,"zip":"34224","miles_from_dt":17.29},{"city":"Englewood","state_name":"Florida","lat":26.93015,"lng":-82.28376,"zip":"34295","miles_from_dt":17.38},{"city":"Sarasota","state_name":"Florida","lat":27.36934,"lng":-82.5574,"zip":"34234","miles_from_dt":17.45},{"city":"Bradenton","state_name":"Florida","lat":27.4029,"lng":-82.46784,"zip":"34201","miles_from_dt":18.43},{"city":"El Jobean","state_name":"Florida","lat":26.97664,"lng":-82.20233,"zip":"33927","miles_from_dt":18.66},{"city":"Bradenton","state_name":"Florida","lat":27.40722,"lng":-82.39254,"zip":"34202","miles_from_dt":18.99},{"city":"Sarasota","state_name":"Florida","lat":27.40264,"lng":-82.52809,"zip":"34243","miles_from_dt":19.03},{"city":"North Port","state_name":"Florida","lat":27.09099,"lng":-82.14147,"zip":"34286","miles_from_dt":19.09},{"city":"Tallevast","state_name":"Florida","lat":27.40267,"lng":-82.54109,"zip":"34270","miles_from_dt":19.26},{"city":"North Port","state_name":"Florida","lat":27.08587,"lng":-82.13664,"zip":"34289","miles_from_dt":19.45},{"city":"Murdock","state_name":"Florida","lat":27.01099,"lng":-82.16236,"zip":"33938","miles_from_dt":19.55},{"city":"Rotonda West","state_name":"Florida","lat":26.89015,"lng":-82.27184,"zip":"33947","miles_from_dt":20.08},{"city":"Sarasota","state_name":"Florida","lat":27.42146,"lng":-82.53987,"zip":"34260","miles_from_dt":20.48},{"city":"Port Charlotte","state_name":"Florida","lat":26.98411,"lng":-82.15126,"zip":"33948","miles_from_dt":21.03},{"city":"Longboat Key","state_name":"Florida","lat":27.39258,"lng":-82.63407,"zip":"34228","miles_from_dt":21.09},{"city":"North Port","state_name":"Florida","lat":27.05385,"lng":-82.11161,"zip":"34288","miles_from_dt":21.44},{"city":"Bradenton","state_name":"Florida","lat":27.44262,"lng":-82.50755,"zip":"34204","miles_from_dt":21.45},{"city":"Port Charlotte","state_name":"Florida","lat":27.02506,"lng":-82.12167,"zip":"33954","miles_from_dt":21.47},{"city":"Bradenton","state_name":"Florida","lat":27.44319,"lng":-82.50834,"zip":"34203","miles_from_dt":21.49},{"city":"Oneco","state_name":"Florida","lat":27.44535,"lng":-82.53688,"zip":"34264","miles_from_dt":22.01},{"city":"Bradenton","state_name":"Florida","lat":27.44944,"lng":-82.37738,"zip":"34211","miles_from_dt":22.02},{"city":"Bradenton","state_name":"Florida","lat":27.43762,"lng":-82.57993,"zip":"34207","miles_from_dt":22.33},{"city":"Placida","state_name":"Florida","lat":26.853,"lng":-82.26958,"zip":"33946","miles_from_dt":22.34},{"city":"Bradenton","state_name":"Florida","lat":27.4421,"lng":-82.58252,"zip":"34282","miles_from_dt":22.67},{"city":"Port Charlotte","state_name":"Florida","lat":26.87544,"lng":-82.21047,"zip":"33981","miles_from_dt":23.12},{"city":"Bradenton","state_name":"Florida","lat":27.43897,"lng":-82.63117,"zip":"34210","miles_from_dt":23.74},{"city":"Myakka City","state_name":"Florida","lat":27.37819,"lng":-82.17152,"zip":"34251","miles_from_dt":23.8},{"city":"Port Charlotte","state_name":"Florida","lat":26.99008,"lng":-82.0972,"zip":"33952","miles_from_dt":23.8},{"city":"Bradenton","state_name":"Florida","lat":27.48693,"lng":-82.51404,"zip":"34208","miles_from_dt":24.52},{"city":"Port Charlotte","state_name":"Florida","lat":26.97582,"lng":-82.0908,"zip":"33949","miles_from_dt":24.58},{"city":"Bradenton","state_name":"Florida","lat":27.49559,"lng":-82.40528,"zip":"34212","miles_from_dt":24.91},{"city":"Bradenton","state_name":"Florida","lat":27.48418,"lng":-82.5835,"zip":"34205","miles_from_dt":25.41},{"city":"Bradenton","state_name":"Florida","lat":27.48956,"lng":-82.57961,"zip":"34281","miles_from_dt":25.68},{"city":"Bradenton","state_name":"Florida","lat":27.49177,"lng":-82.5729,"zip":"34206","miles_from_dt":25.7},{"city":"Punta Gorda","state_name":"Florida","lat":26.98062,"lng":-82.05206,"zip":"33980","miles_from_dt":26.6},{"city":"Boca Grande","state_name":"Florida","lat":26.77919,"lng":-82.25386,"zip":"33921","miles_from_dt":27.3},{"city":"Cortez","state_name":"Florida","lat":27.47444,"lng":-82.68409,"zip":"34215","miles_from_dt":27.49},{"city":"Bradenton","state_name":"Florida","lat":27.49489,"lng":-82.6433,"zip":"34209","miles_from_dt":27.51},{"city":"Bradenton","state_name":"Florida","lat":27.49884,"lng":-82.63614,"zip":"34280","miles_from_dt":27.56},{"city":"Ellenton","state_name":"Florida","lat":27.53474,"lng":-82.50699,"zip":"34222","miles_from_dt":27.71},{"city":"Palmetto","state_name":"Florida","lat":27.52221,"lng":-82.57874,"zip":"34220","miles_from_dt":27.81},{"city":"Punta Gorda","state_name":"Florida","lat":27.00712,"lng":-82.01508,"zip":"33983","miles_from_dt":28.07},{"city":"Bradenton Beach","state_name":"Florida","lat":27.48916,"lng":-82.7044,"zip":"34217","miles_from_dt":29.02},{"city":"Punta Gorda","state_name":"Florida","lat":26.91166,"lng":-82.04009,"zip":"33950","miles_from_dt":29.47},{"city":"Holmes Beach","state_name":"Florida","lat":27.50154,"lng":-82.70982,"zip":"34218","miles_from_dt":29.91},{"city":"Arcadia","state_name":"Florida","lat":27.08865,"lng":-81.9639,"zip":"34269","miles_from_dt":29.96}],"targetCityZipCode":"34272","targetCityState":"Florida"},"__N_SSG":true}