{"pageProps":{"stateName":"Florida","cityName":"lee","nearbyCities":[{"city":"Madison","state_name":"Florida","lat":30.46973,"lng":-83.41748,"zip":"32341","miles_from_dt":10.46},{"city":"Madison","state_name":"Florida","lat":30.45651,"lng":-83.42667,"zip":"32340","miles_from_dt":10.48},{"city":"Day","state_name":"Florida","lat":30.19366,"lng":-83.29116,"zip":"32013","miles_from_dt":13.36},{"city":"Pinetta","state_name":"Florida","lat":30.58662,"lng":-83.32242,"zip":"32350","miles_from_dt":14.11},{"city":"Jennings","state_name":"Florida","lat":30.56417,"lng":-83.1519,"zip":"32053","miles_from_dt":14.13},{"city":"Live Oak","state_name":"Florida","lat":30.27554,"lng":-83.04935,"zip":"32060","miles_from_dt":15.28},{"city":"Live Oak","state_name":"Florida","lat":30.28907,"lng":-83.02375,"zip":"32064","miles_from_dt":16.21},{"city":"Jasper","state_name":"Florida","lat":30.48683,"lng":-82.94499,"zip":"32052","miles_from_dt":20.63},{"city":"Greenville","state_name":"Florida","lat":30.45851,"lng":-83.6294,"zip":"32331","miles_from_dt":21.98},{"city":"Shady Grove","state_name":"Florida","lat":30.28538,"lng":-83.62931,"zip":"32357","miles_from_dt":22.54},{"city":"Mayo","state_name":"Florida","lat":30.04423,"lng":-83.22495,"zip":"32066","miles_from_dt":23.75},{"city":"McAlpin","state_name":"Florida","lat":30.13276,"lng":-82.9754,"zip":"32062","miles_from_dt":24.85},{"city":"Valdosta","state_name":"Georgia","lat":30.74772,"lng":-83.33968,"zip":"31601","miles_from_dt":25.21},{"city":"Lake Park","state_name":"Georgia","lat":30.7337,"lng":-83.1096,"zip":"31636","miles_from_dt":25.76},{"city":"Statenville","state_name":"Georgia","lat":30.70834,"lng":-83.00838,"zip":"31648","miles_from_dt":27.12},{"city":"Perry","state_name":"Florida","lat":30.14416,"lng":-83.64268,"zip":"32347","miles_from_dt":27.82},{"city":"Valdosta","state_name":"Georgia","lat":30.7963,"lng":-83.18647,"zip":"31606","miles_from_dt":28.66},{"city":"Wellborn","state_name":"Florida","lat":30.19797,"lng":-82.82767,"zip":"32094","miles_from_dt":29.5}],"targetCityZipCode":"32059","targetCityState":"Florida"},"__N_SSG":true}