{"pageProps":{"stateName":"Florida","cityName":"lynn-haven","nearbyCities":[{"city":"Panama City","state_name":"Florida","lat":30.20002,"lng":-85.66869,"zip":"32405","miles_from_dt":2.84},{"city":"Panama City","state_name":"Florida","lat":30.19055,"lng":-85.67348,"zip":"32402","miles_from_dt":3.55},{"city":"Panama City","state_name":"Florida","lat":30.15629,"lng":-85.64865,"zip":"32412","miles_from_dt":5.67},{"city":"Panama City","state_name":"Florida","lat":30.14477,"lng":-85.67448,"zip":"32401","miles_from_dt":6.6},{"city":"Panama City","state_name":"Florida","lat":30.33447,"lng":-85.70516,"zip":"32409","miles_from_dt":7.34},{"city":"Panama City","state_name":"Florida","lat":30.14916,"lng":-85.72975,"zip":"32411","miles_from_dt":7.72},{"city":"Panama City","state_name":"Florida","lat":30.15271,"lng":-85.73731,"zip":"32406","miles_from_dt":7.82},{"city":"Panama City","state_name":"Florida","lat":30.1593,"lng":-85.75324,"zip":"32408","miles_from_dt":8.16},{"city":"Panama City Beach","state_name":"Florida","lat":30.20276,"lng":-85.7912,"zip":"32407","miles_from_dt":8.69},{"city":"Panama City","state_name":"Florida","lat":30.19075,"lng":-85.51122,"zip":"32404","miles_from_dt":9.03},{"city":"Panama City","state_name":"Florida","lat":30.1843,"lng":-85.81116,"zip":"32417","miles_from_dt":10.24},{"city":"Panama City","state_name":"Florida","lat":30.05337,"lng":-85.55679,"zip":"32403","miles_from_dt":13.97},{"city":"Panama City Beach","state_name":"Florida","lat":30.30975,"lng":-85.88745,"zip":"32413","miles_from_dt":14.92},{"city":"Youngstown","state_name":"Florida","lat":30.38618,"lng":-85.464,"zip":"32466","miles_from_dt":15.15},{"city":"Ebro","state_name":"Florida","lat":30.43315,"lng":-85.90694,"zip":"32437","miles_from_dt":20.3},{"city":"Inlet Beach","state_name":"Florida","lat":30.30905,"lng":-86.03508,"zip":"32461","miles_from_dt":23.42},{"city":"Fountain","state_name":"Florida","lat":30.51251,"lng":-85.41744,"zip":"32438","miles_from_dt":23.5},{"city":"Mexico Beach","state_name":"Florida","lat":29.94805,"lng":-85.41812,"zip":"32410","miles_from_dt":24.42},{"city":"Vernon","state_name":"Florida","lat":30.55753,"lng":-85.83241,"zip":"32462","miles_from_dt":24.48},{"city":"Chipley","state_name":"Florida","lat":30.61797,"lng":-85.57154,"zip":"32428","miles_from_dt":26.57},{"city":"Wewahitchka","state_name":"Florida","lat":30.27611,"lng":-85.20607,"zip":"32449","miles_from_dt":26.78},{"city":"Wausau","state_name":"Florida","lat":30.6279,"lng":-85.58728,"zip":"32463","miles_from_dt":27.1},{"city":"Clarksville","state_name":"Florida","lat":30.41872,"lng":-85.22562,"zip":"32430","miles_from_dt":28.33}],"targetCityZipCode":"32444","targetCityState":"Florida"},"__N_SSG":true}