{"pageProps":{"stateName":"Florida","cityName":"mary-esther","nearbyCities":[{"city":"Hurlburt Field","state_name":"Florida","lat":30.42801,"lng":-86.70441,"zip":"32544","miles_from_dt":2.1},{"city":"Fort Walton Beach","state_name":"Florida","lat":30.4094,"lng":-86.6494,"zip":"32548","miles_from_dt":4.79},{"city":"Fort Walton Beach","state_name":"Florida","lat":30.46649,"lng":-86.65513,"zip":"32547","miles_from_dt":6.06},{"city":"Fort Walton Beach","state_name":"Florida","lat":30.4103,"lng":-86.61457,"zip":"32549","miles_from_dt":6.87},{"city":"Navarre","state_name":"Florida","lat":30.4253,"lng":-86.8843,"zip":"32566","miles_from_dt":9.32},{"city":"Shalimar","state_name":"Florida","lat":30.44553,"lng":-86.57401,"zip":"32579","miles_from_dt":9.67},{"city":"Valparaiso","state_name":"Florida","lat":30.50337,"lng":-86.50942,"zip":"32580","miles_from_dt":14.73},{"city":"Destin","state_name":"Florida","lat":30.39284,"lng":-86.48182,"zip":"32540","miles_from_dt":14.83},{"city":"Eglin Afb","state_name":"Florida","lat":30.58743,"lng":-86.59296,"zip":"32542","miles_from_dt":14.88},{"city":"Destin","state_name":"Florida","lat":30.39666,"lng":-86.47486,"zip":"32541","miles_from_dt":15.23},{"city":"Niceville","state_name":"Florida","lat":30.5245,"lng":-86.47491,"zip":"32588","miles_from_dt":17.23},{"city":"Niceville","state_name":"Florida","lat":30.50871,"lng":-86.4535,"zip":"32578","miles_from_dt":17.91},{"city":"Gulf Breeze","state_name":"Florida","lat":30.38782,"lng":-87.0331,"zip":"32563","miles_from_dt":18.17},{"city":"Milton","state_name":"Florida","lat":30.60084,"lng":-86.97513,"zip":"32583","miles_from_dt":19.83},{"city":"Bagdad","state_name":"Florida","lat":30.5926,"lng":-87.02344,"zip":"32530","miles_from_dt":21.71},{"city":"Holt","state_name":"Florida","lat":30.72755,"lng":-86.7875,"zip":"32564","miles_from_dt":22.37},{"city":"Gulf Breeze","state_name":"Florida","lat":30.35165,"lng":-87.10906,"zip":"32561","miles_from_dt":22.98},{"city":"Miramar Beach","state_name":"Florida","lat":30.38541,"lng":-86.34438,"zip":"32550","miles_from_dt":23.05},{"city":"Milton","state_name":"Florida","lat":30.6278,"lng":-87.04861,"zip":"32572","miles_from_dt":24.37},{"city":"Crestview","state_name":"Florida","lat":30.75399,"lng":-86.59491,"zip":"32536","miles_from_dt":25.24},{"city":"Milligan","state_name":"Florida","lat":30.76092,"lng":-86.60592,"zip":"32537","miles_from_dt":25.49},{"city":"Gulf Breeze","state_name":"Florida","lat":30.37154,"lng":-87.17393,"zip":"32562","miles_from_dt":26.64},{"city":"Pensacola","state_name":"Florida","lat":30.48541,"lng":-87.19025,"zip":"32524","miles_from_dt":28.02},{"city":"Pensacola","state_name":"Florida","lat":30.48495,"lng":-87.19093,"zip":"32504","miles_from_dt":28.06},{"city":"Pensacola","state_name":"Florida","lat":30.46022,"lng":-87.21372,"zip":"32503","miles_from_dt":29.13},{"city":"Pensacola","state_name":"Florida","lat":30.46023,"lng":-87.21506,"zip":"32513","miles_from_dt":29.21},{"city":"Pensacola","state_name":"Florida","lat":30.42826,"lng":-87.22277,"zip":"32501","miles_from_dt":29.48},{"city":"Pensacola","state_name":"Florida","lat":30.42279,"lng":-87.22324,"zip":"32522","miles_from_dt":29.49},{"city":"Pensacola","state_name":"Florida","lat":30.41781,"lng":-87.22537,"zip":"32591","miles_from_dt":29.61},{"city":"Pensacola","state_name":"Florida","lat":30.40928,"lng":-87.22636,"zip":"32502","miles_from_dt":29.66}],"targetCityZipCode":"32569","targetCityState":"Florida"},"__N_SSG":true}