{"pageProps":{"stateName":"Florida","cityName":"micanopy","nearbyCities":[{"city":"Evinston","state_name":"Florida","lat":29.48379,"lng":-82.22285,"zip":"32633","miles_from_dt":5.36},{"city":"McIntosh","state_name":"Florida","lat":29.44986,"lng":-82.22187,"zip":"32664","miles_from_dt":6.19},{"city":"Orange Lake","state_name":"Florida","lat":29.42694,"lng":-82.21527,"zip":"32681","miles_from_dt":7.42},{"city":"Gainesville","state_name":"Florida","lat":29.59271,"lng":-82.3935,"zip":"32608","miles_from_dt":8.38},{"city":"Gainesville","state_name":"Florida","lat":29.61071,"lng":-82.37519,"zip":"32614","miles_from_dt":8.87},{"city":"Reddick","state_name":"Florida","lat":29.36214,"lng":-82.26236,"zip":"32686","miles_from_dt":9.6},{"city":"Fairfield","state_name":"Florida","lat":29.3646,"lng":-82.25419,"zip":"32634","miles_from_dt":9.6},{"city":"Gainesville","state_name":"Florida","lat":29.64077,"lng":-82.34326,"zip":"32610","miles_from_dt":10.24},{"city":"Gainesville","state_name":"Florida","lat":29.64635,"lng":-82.3282,"zip":"32627","miles_from_dt":10.49},{"city":"Gainesville","state_name":"Florida","lat":29.64344,"lng":-82.34964,"zip":"32611","miles_from_dt":10.5},{"city":"Gainesville","state_name":"Florida","lat":29.62956,"lng":-82.22557,"zip":"32641","miles_from_dt":10.6},{"city":"Gainesville","state_name":"Florida","lat":29.64469,"lng":-82.35307,"zip":"32612","miles_from_dt":10.63},{"city":"Gainesville","state_name":"Florida","lat":29.64886,"lng":-82.32506,"zip":"32601","miles_from_dt":10.64},{"city":"Gainesville","state_name":"Florida","lat":29.6504,"lng":-82.32525,"zip":"32635","miles_from_dt":10.75},{"city":"Gainesville","state_name":"Florida","lat":29.64983,"lng":-82.34589,"zip":"32604","miles_from_dt":10.88},{"city":"Gainesville","state_name":"Florida","lat":29.65305,"lng":-82.35054,"zip":"32603","miles_from_dt":11.16},{"city":"Williston","state_name":"Florida","lat":29.39544,"lng":-82.46728,"zip":"32696","miles_from_dt":11.65},{"city":"Gainesville","state_name":"Florida","lat":29.64524,"lng":-82.41923,"zip":"32607","miles_from_dt":12.24},{"city":"Lochloosa","state_name":"Florida","lat":29.51144,"lng":-82.099,"zip":"32662","miles_from_dt":12.81},{"city":"Island Grove","state_name":"Florida","lat":29.59009,"lng":-82.12737,"zip":"32654","miles_from_dt":12.85},{"city":"Lowell","state_name":"Florida","lat":29.33268,"lng":-82.19855,"zip":"32663","miles_from_dt":13.06},{"city":"Gainesville","state_name":"Florida","lat":29.67659,"lng":-82.37351,"zip":"32605","miles_from_dt":13.07},{"city":"Archer","state_name":"Florida","lat":29.53789,"lng":-82.52295,"zip":"32618","miles_from_dt":13.12},{"city":"Gainesville","state_name":"Florida","lat":29.66333,"lng":-82.4501,"zip":"32602","miles_from_dt":14.32},{"city":"Hawthorne","state_name":"Florida","lat":29.56889,"lng":-82.08021,"zip":"32640","miles_from_dt":14.8},{"city":"Gainesville","state_name":"Florida","lat":29.68169,"lng":-82.44391,"zip":"32606","miles_from_dt":15.16},{"city":"Citra","state_name":"Florida","lat":29.39836,"lng":-82.08127,"zip":"32113","miles_from_dt":15.35},{"city":"Sparr","state_name":"Florida","lat":29.35005,"lng":-82.11109,"zip":"32192","miles_from_dt":15.64},{"city":"Ocala","state_name":"Florida","lat":29.24984,"lng":-82.27702,"zip":"34482","miles_from_dt":17},{"city":"Gainesville","state_name":"Florida","lat":29.74506,"lng":-82.40546,"zip":"32653","miles_from_dt":18.15},{"city":"Gainesville","state_name":"Florida","lat":29.76296,"lng":-82.27978,"zip":"32609","miles_from_dt":18.56},{"city":"Ocala","state_name":"Florida","lat":29.25282,"lng":-82.16065,"zip":"34475","miles_from_dt":18.97},{"city":"Anthony","state_name":"Florida","lat":29.30659,"lng":-82.07553,"zip":"32617","miles_from_dt":19.22},{"city":"Morriston","state_name":"Florida","lat":29.26327,"lng":-82.50321,"zip":"32668","miles_from_dt":19.72},{"city":"Bronson","state_name":"Florida","lat":29.426,"lng":-82.62936,"zip":"32621","miles_from_dt":19.78},{"city":"Earleton","state_name":"Florida","lat":29.71719,"lng":-82.10225,"zip":"32631","miles_from_dt":19.8},{"city":"Newberry","state_name":"Florida","lat":29.63666,"lng":-82.60015,"zip":"32669","miles_from_dt":19.97},{"city":"Ocala","state_name":"Florida","lat":29.25285,"lng":-82.10945,"zip":"34479","miles_from_dt":20.62},{"city":"Orange Springs","state_name":"Florida","lat":29.50926,"lng":-81.94113,"zip":"32182","miles_from_dt":22.3},{"city":"Waldo","state_name":"Florida","lat":29.79086,"lng":-82.15367,"zip":"32694","miles_from_dt":22.48},{"city":"Alachua","state_name":"Florida","lat":29.78205,"lng":-82.49933,"zip":"32616","miles_from_dt":22.8},{"city":"Candler","state_name":"Florida","lat":29.16484,"lng":-82.21748,"zip":"32111","miles_from_dt":23.42},{"city":"Ocala","state_name":"Florida","lat":29.18547,"lng":-82.1418,"zip":"34478","miles_from_dt":23.62},{"city":"Ocala","state_name":"Florida","lat":29.18624,"lng":-82.13865,"zip":"34483","miles_from_dt":23.66},{"city":"Ocala","state_name":"Florida","lat":29.18771,"lng":-82.12902,"zip":"34477","miles_from_dt":23.83},{"city":"Ocala","state_name":"Florida","lat":29.15515,"lng":-82.21106,"zip":"34474","miles_from_dt":24.16},{"city":"Ocala","state_name":"Florida","lat":29.20098,"lng":-82.08262,"zip":"34470","miles_from_dt":24.48},{"city":"Alachua","state_name":"Florida","lat":29.81706,"lng":-82.49065,"zip":"32615","miles_from_dt":24.69},{"city":"Melrose","state_name":"Florida","lat":29.72301,"lng":-81.99145,"zip":"32666","miles_from_dt":24.83},{"city":"La Crosse","state_name":"Florida","lat":29.84817,"lng":-82.41214,"zip":"32658","miles_from_dt":25.09},{"city":"Ocala","state_name":"Florida","lat":29.16054,"lng":-82.12786,"zip":"34471","miles_from_dt":25.54},{"city":"Ocala","state_name":"Florida","lat":29.11902,"lng":-82.30769,"zip":"34481","miles_from_dt":25.88},{"city":"Hampton","state_name":"Florida","lat":29.85344,"lng":-82.16425,"zip":"32044","miles_from_dt":26.23},{"city":"Interlachen","state_name":"Florida","lat":29.61934,"lng":-81.89793,"zip":"32149","miles_from_dt":26.3},{"city":"Lake Geneva","state_name":"Florida","lat":29.77303,"lng":-82.01018,"zip":"32160","miles_from_dt":26.35},{"city":"Putnam Hall","state_name":"Florida","lat":29.73095,"lng":-81.95736,"zip":"32185","miles_from_dt":26.78},{"city":"Interlachen","state_name":"Florida","lat":29.60088,"lng":-81.88191,"zip":"32148","miles_from_dt":26.84},{"city":"Brooker","state_name":"Florida","lat":29.89914,"lng":-82.31216,"zip":"32622","miles_from_dt":27.85},{"city":"Dunnellon","state_name":"Florida","lat":29.1339,"lng":-82.52963,"zip":"34431","miles_from_dt":28.15},{"city":"High Springs","state_name":"Florida","lat":29.82253,"lng":-82.59081,"zip":"32655","miles_from_dt":28.16},{"city":"Grandin","state_name":"Florida","lat":29.72432,"lng":-81.91968,"zip":"32138","miles_from_dt":28.36},{"city":"Summerfield","state_name":"Florida","lat":29.22688,"lng":-81.94807,"zip":"34492","miles_from_dt":28.63},{"city":"Silver Springs","state_name":"Florida","lat":29.22688,"lng":-81.94807,"zip":"34489","miles_from_dt":28.63},{"city":"Ocala","state_name":"Florida","lat":29.08579,"lng":-82.19279,"zip":"34476","miles_from_dt":29.06},{"city":"Silver Springs","state_name":"Florida","lat":29.22584,"lng":-81.93226,"zip":"34488","miles_from_dt":29.41},{"city":"Dunnellon","state_name":"Florida","lat":29.06588,"lng":-82.36353,"zip":"34432","miles_from_dt":29.71},{"city":"High Springs","state_name":"Florida","lat":29.81845,"lng":-82.64155,"zip":"32643","miles_from_dt":29.88},{"city":"Ocala","state_name":"Florida","lat":29.10178,"lng":-82.09975,"zip":"34480","miles_from_dt":29.92}],"targetCityZipCode":"32667","targetCityState":"Florida"},"__N_SSG":true}