{"pageProps":{"stateName":"Florida","cityName":"newberry","nearbyCities":[{"city":"Archer","state_name":"Florida","lat":29.53789,"lng":-82.52295,"zip":"32618","miles_from_dt":8.24},{"city":"Gainesville","state_name":"Florida","lat":29.66333,"lng":-82.4501,"zip":"32602","miles_from_dt":9.21},{"city":"Gainesville","state_name":"Florida","lat":29.68169,"lng":-82.44391,"zip":"32606","miles_from_dt":9.9},{"city":"Gainesville","state_name":"Florida","lat":29.64524,"lng":-82.41923,"zip":"32607","miles_from_dt":10.9},{"city":"Alachua","state_name":"Florida","lat":29.78205,"lng":-82.49933,"zip":"32616","miles_from_dt":11.71},{"city":"Trenton","state_name":"Florida","lat":29.62814,"lng":-82.79446,"zip":"32693","miles_from_dt":11.71},{"city":"High Springs","state_name":"Florida","lat":29.81845,"lng":-82.64155,"zip":"32643","miles_from_dt":12.77},{"city":"Gainesville","state_name":"Florida","lat":29.59271,"lng":-82.3935,"zip":"32608","miles_from_dt":12.8},{"city":"High Springs","state_name":"Florida","lat":29.82253,"lng":-82.59081,"zip":"32655","miles_from_dt":12.81},{"city":"Gainesville","state_name":"Florida","lat":29.61071,"lng":-82.37519,"zip":"32614","miles_from_dt":13.66},{"city":"Gainesville","state_name":"Florida","lat":29.74506,"lng":-82.40546,"zip":"32653","miles_from_dt":13.89},{"city":"Gainesville","state_name":"Florida","lat":29.67659,"lng":-82.37351,"zip":"32605","miles_from_dt":13.91},{"city":"Alachua","state_name":"Florida","lat":29.81706,"lng":-82.49065,"zip":"32615","miles_from_dt":14.06},{"city":"Bronson","state_name":"Florida","lat":29.426,"lng":-82.62936,"zip":"32621","miles_from_dt":14.62},{"city":"Gainesville","state_name":"Florida","lat":29.64469,"lng":-82.35307,"zip":"32612","miles_from_dt":14.88},{"city":"Gainesville","state_name":"Florida","lat":29.65305,"lng":-82.35054,"zip":"32603","miles_from_dt":15.06},{"city":"Gainesville","state_name":"Florida","lat":29.64344,"lng":-82.34964,"zip":"32611","miles_from_dt":15.08},{"city":"Gainesville","state_name":"Florida","lat":29.64983,"lng":-82.34589,"zip":"32604","miles_from_dt":15.32},{"city":"Gainesville","state_name":"Florida","lat":29.64077,"lng":-82.34326,"zip":"32610","miles_from_dt":15.46},{"city":"Gainesville","state_name":"Florida","lat":29.64635,"lng":-82.3282,"zip":"32627","miles_from_dt":16.38},{"city":"Gainesville","state_name":"Florida","lat":29.64886,"lng":-82.32506,"zip":"32601","miles_from_dt":16.57},{"city":"Gainesville","state_name":"Florida","lat":29.6504,"lng":-82.32525,"zip":"32635","miles_from_dt":16.57},{"city":"Bell","state_name":"Florida","lat":29.75661,"lng":-82.86668,"zip":"32619","miles_from_dt":18.03},{"city":"La Crosse","state_name":"Florida","lat":29.84817,"lng":-82.41214,"zip":"32658","miles_from_dt":18.44},{"city":"Williston","state_name":"Florida","lat":29.39544,"lng":-82.46728,"zip":"32696","miles_from_dt":18.44},{"city":"Chiefland","state_name":"Florida","lat":29.47838,"lng":-82.85834,"zip":"32644","miles_from_dt":18.99},{"city":"Micanopy","state_name":"Florida","lat":29.49484,"lng":-82.31084,"zip":"32667","miles_from_dt":19.97},{"city":"Gainesville","state_name":"Florida","lat":29.76296,"lng":-82.27978,"zip":"32609","miles_from_dt":21.14},{"city":"Fort White","state_name":"Florida","lat":29.93617,"lng":-82.69924,"zip":"32038","miles_from_dt":21.47},{"city":"Gainesville","state_name":"Florida","lat":29.62956,"lng":-82.22557,"zip":"32641","miles_from_dt":22.54},{"city":"Worthington Springs","state_name":"Florida","lat":29.92831,"lng":-82.42538,"zip":"32697","miles_from_dt":22.67},{"city":"Chiefland","state_name":"Florida","lat":29.42146,"lng":-82.89464,"zip":"32626","miles_from_dt":23.12},{"city":"Brooker","state_name":"Florida","lat":29.89914,"lng":-82.31216,"zip":"32622","miles_from_dt":25.03},{"city":"Evinston","state_name":"Florida","lat":29.48379,"lng":-82.22285,"zip":"32633","miles_from_dt":25.04},{"city":"Otter Creek","state_name":"Florida","lat":29.29519,"lng":-82.76743,"zip":"32683","miles_from_dt":25.59},{"city":"Branford","state_name":"Florida","lat":29.90351,"lng":-82.90311,"zip":"32008","miles_from_dt":25.87},{"city":"McIntosh","state_name":"Florida","lat":29.44986,"lng":-82.22187,"zip":"32664","miles_from_dt":26.16},{"city":"Morriston","state_name":"Florida","lat":29.26327,"lng":-82.50321,"zip":"32668","miles_from_dt":26.37},{"city":"Orange Lake","state_name":"Florida","lat":29.42694,"lng":-82.21527,"zip":"32681","miles_from_dt":27.31},{"city":"Reddick","state_name":"Florida","lat":29.36214,"lng":-82.26236,"zip":"32686","miles_from_dt":27.78},{"city":"Fairfield","state_name":"Florida","lat":29.3646,"lng":-82.25419,"zip":"32634","miles_from_dt":28.03},{"city":"Island Grove","state_name":"Florida","lat":29.59009,"lng":-82.12737,"zip":"32654","miles_from_dt":28.63},{"city":"Gulf Hammock","state_name":"Florida","lat":29.23092,"lng":-82.72007,"zip":"32639","miles_from_dt":28.87},{"city":"Waldo","state_name":"Florida","lat":29.79086,"lng":-82.15367,"zip":"32694","miles_from_dt":28.87},{"city":"Old Town","state_name":"Florida","lat":29.58144,"lng":-83.08041,"zip":"32680","miles_from_dt":29.15},{"city":"Lake Butler","state_name":"Florida","lat":30.0281,"lng":-82.39143,"zip":"32054","miles_from_dt":29.73}],"targetCityZipCode":"32669","targetCityState":"Florida"},"__N_SSG":true}