{"pageProps":{"stateName":"Florida","cityName":"palm-coast","nearbyCities":[{"city":"Palm Coast","state_name":"Florida","lat":29.58057,"lng":-81.22455,"zip":"32137","miles_from_dt":2.4},{"city":"Palm Coast","state_name":"Florida","lat":29.58446,"lng":-81.21006,"zip":"32143","miles_from_dt":2.83},{"city":"Palm Coast","state_name":"Florida","lat":29.48316,"lng":-81.2174,"zip":"32164","miles_from_dt":4.34},{"city":"Palm Coast","state_name":"Florida","lat":29.48014,"lng":-81.21635,"zip":"32142","miles_from_dt":4.56},{"city":"Flagler Beach","state_name":"Florida","lat":29.45252,"lng":-81.14025,"zip":"32136","miles_from_dt":8.24},{"city":"Bunnell","state_name":"Florida","lat":29.44456,"lng":-81.36131,"zip":"32110","miles_from_dt":10.73},{"city":"Hastings","state_name":"Florida","lat":29.67899,"lng":-81.41973,"zip":"32145","miles_from_dt":14.84},{"city":"Saint Augustine","state_name":"Florida","lat":29.75656,"lng":-81.30282,"zip":"32086","miles_from_dt":15.24},{"city":"Ormond Beach","state_name":"Florida","lat":29.33216,"lng":-81.06327,"zip":"32176","miles_from_dt":17.68},{"city":"Ormond Beach","state_name":"Florida","lat":29.28928,"lng":-81.16446,"zip":"32174","miles_from_dt":18.05},{"city":"Ormond Beach","state_name":"Florida","lat":29.29057,"lng":-81.09457,"zip":"32173","miles_from_dt":19.28},{"city":"Saint Augustine","state_name":"Florida","lat":29.82453,"lng":-81.27412,"zip":"32080","miles_from_dt":19.42},{"city":"San Mateo","state_name":"Florida","lat":29.57827,"lng":-81.55392,"zip":"32187","miles_from_dt":19.88},{"city":"Ormond Beach","state_name":"Florida","lat":29.28668,"lng":-81.05578,"zip":"32175","miles_from_dt":20.58},{"city":"Elkton","state_name":"Florida","lat":29.78851,"lng":-81.44263,"zip":"32033","miles_from_dt":21.2},{"city":"Crescent City","state_name":"Florida","lat":29.42664,"lng":-81.55649,"zip":"32112","miles_from_dt":21.54},{"city":"Seville","state_name":"Florida","lat":29.33289,"lng":-81.49056,"zip":"32190","miles_from_dt":21.67},{"city":"Lake Como","state_name":"Florida","lat":29.46296,"lng":-81.58165,"zip":"32157","miles_from_dt":22.18},{"city":"East Palatka","state_name":"Florida","lat":29.67803,"lng":-81.56785,"zip":"32131","miles_from_dt":22.5},{"city":"Pomona Park","state_name":"Florida","lat":29.50658,"lng":-81.60126,"zip":"32181","miles_from_dt":22.77},{"city":"Daytona Beach","state_name":"Florida","lat":29.23351,"lng":-81.06727,"zip":"32117","miles_from_dt":23.54},{"city":"Daytona Beach","state_name":"Florida","lat":29.23498,"lng":-81.0554,"zip":"32125","miles_from_dt":23.75},{"city":"Saint Augustine","state_name":"Florida","lat":29.88685,"lng":-81.34372,"zip":"32085","miles_from_dt":24.54},{"city":"Pierson","state_name":"Florida","lat":29.23437,"lng":-81.44521,"zip":"32180","miles_from_dt":25.2},{"city":"Satsuma","state_name":"Florida","lat":29.54991,"lng":-81.64819,"zip":"32189","miles_from_dt":25.43},{"city":"Daytona Beach","state_name":"Florida","lat":29.22594,"lng":-81.00648,"zip":"32126","miles_from_dt":25.7},{"city":"Palatka","state_name":"Florida","lat":29.64632,"lng":-81.6395,"zip":"32178","miles_from_dt":25.84},{"city":"Daytona Beach","state_name":"Florida","lat":29.21321,"lng":-81.02377,"zip":"32115","miles_from_dt":25.95},{"city":"Georgetown","state_name":"Florida","lat":29.37693,"lng":-81.61431,"zip":"32139","miles_from_dt":26.14},{"city":"Daytona Beach","state_name":"Florida","lat":29.19551,"lng":-81.05224,"zip":"32198","miles_from_dt":26.3},{"city":"Daytona Beach","state_name":"Florida","lat":29.19593,"lng":-81.04901,"zip":"32120","miles_from_dt":26.35},{"city":"Daytona Beach","state_name":"Florida","lat":29.19377,"lng":-81.05392,"zip":"32121","miles_from_dt":26.37},{"city":"Daytona Beach","state_name":"Florida","lat":29.21251,"lng":-81.00874,"zip":"32116","miles_from_dt":26.43},{"city":"Daytona Beach","state_name":"Florida","lat":29.19312,"lng":-81.04915,"zip":"32114","miles_from_dt":26.53},{"city":"Daytona Beach","state_name":"Florida","lat":29.21035,"lng":-81.00425,"zip":"32118","miles_from_dt":26.69},{"city":"Saint Augustine","state_name":"Florida","lat":29.91412,"lng":-81.36417,"zip":"32084","miles_from_dt":26.7},{"city":"Welaka","state_name":"Florida","lat":29.47605,"lng":-81.6647,"zip":"32193","miles_from_dt":26.87},{"city":"Daytona Beach","state_name":"Florida","lat":29.15802,"lng":-81.15732,"zip":"32124","miles_from_dt":27.02},{"city":"Barberville","state_name":"Florida","lat":29.18895,"lng":-81.41884,"zip":"32105","miles_from_dt":27.19},{"city":"De Leon Springs","state_name":"Florida","lat":29.15704,"lng":-81.34501,"zip":"32130","miles_from_dt":27.72},{"city":"Daytona Beach","state_name":"Florida","lat":29.16001,"lng":-81.02707,"zip":"32119","miles_from_dt":29.15},{"city":"Bostwick","state_name":"Florida","lat":29.7744,"lng":-81.64022,"zip":"32007","miles_from_dt":29.48},{"city":"Port Orange","state_name":"Florida","lat":29.14953,"lng":-81.03118,"zip":"32123","miles_from_dt":29.71}],"targetCityZipCode":"32135","targetCityState":"Florida"},"__N_SSG":true}