{"pageProps":{"stateName":"Florida","cityName":"pompano-beach","nearbyCities":[{"city":"Pompano Beach","state_name":"Florida","lat":26.23652,"lng":-80.12061,"zip":"33061","miles_from_dt":0.1},{"city":"Pompano Beach","state_name":"Florida","lat":26.239,"lng":-80.12415,"zip":"33074","miles_from_dt":0.34},{"city":"Coconut Creek","state_name":"Florida","lat":26.2358,"lng":-80.13363,"zip":"33097","miles_from_dt":0.8},{"city":"Pompano Beach","state_name":"Florida","lat":26.23307,"lng":-80.09421,"zip":"33072","miles_from_dt":1.66},{"city":"Pompano Beach","state_name":"Florida","lat":26.24101,"lng":-80.09399,"zip":"33062","miles_from_dt":1.72},{"city":"Pompano Beach","state_name":"Florida","lat":26.23565,"lng":-80.15808,"zip":"33069","miles_from_dt":2.31},{"city":"Fort Lauderdale","state_name":"Florida","lat":26.19888,"lng":-80.09511,"zip":"33303","miles_from_dt":2.96},{"city":"Pompano Beach","state_name":"Florida","lat":26.27806,"lng":-80.11524,"zip":"33064","miles_from_dt":2.98},{"city":"Fort Lauderdale","state_name":"Florida","lat":26.18952,"lng":-80.10859,"zip":"33308","miles_from_dt":3.23},{"city":"Fort Lauderdale","state_name":"Florida","lat":26.18732,"lng":-80.10885,"zip":"33348","miles_from_dt":3.37},{"city":"Fort Lauderdale","state_name":"Florida","lat":26.18316,"lng":-80.13456,"zip":"33334","miles_from_dt":3.68},{"city":"Pompano Beach","state_name":"Florida","lat":26.25347,"lng":-80.17753,"zip":"33066","miles_from_dt":3.74},{"city":"Fort Lauderdale","state_name":"Florida","lat":26.18177,"lng":-80.13857,"zip":"33335","miles_from_dt":3.83},{"city":"Fort Lauderdale","state_name":"Florida","lat":26.17194,"lng":-80.13222,"zip":"33310","miles_from_dt":4.41},{"city":"Fort Lauderdale","state_name":"Florida","lat":26.18793,"lng":-80.17385,"zip":"33309","miles_from_dt":4.63},{"city":"Fort Lauderdale","state_name":"Florida","lat":26.16548,"lng":-80.11404,"zip":"33306","miles_from_dt":4.81},{"city":"Fort Lauderdale","state_name":"Florida","lat":26.16384,"lng":-80.11387,"zip":"33339","miles_from_dt":4.93},{"city":"Deerfield Beach","state_name":"Florida","lat":26.31012,"lng":-80.14503,"zip":"33442","miles_from_dt":5.38},{"city":"Deerfield Beach","state_name":"Florida","lat":26.31096,"lng":-80.09885,"zip":"33441","miles_from_dt":5.4},{"city":"Fort Lauderdale","state_name":"Florida","lat":26.15375,"lng":-80.123,"zip":"33305","miles_from_dt":5.6},{"city":"Margate","state_name":"Florida","lat":26.25272,"lng":-80.20952,"zip":"33093","miles_from_dt":5.64},{"city":"Pompano Beach","state_name":"Florida","lat":26.25138,"lng":-80.21014,"zip":"33063","miles_from_dt":5.66},{"city":"Pompano Beach","state_name":"Florida","lat":26.29818,"lng":-80.1827,"zip":"33073","miles_from_dt":5.8},{"city":"Pompano Beach","state_name":"Florida","lat":26.21644,"lng":-80.21535,"zip":"33068","miles_from_dt":6.01},{"city":"Deerfield Beach","state_name":"Florida","lat":26.3247,"lng":-80.12051,"zip":"33443","miles_from_dt":6.17},{"city":"Fort Lauderdale","state_name":"Florida","lat":26.14395,"lng":-80.14133,"zip":"33320","miles_from_dt":6.4},{"city":"Fort Lauderdale","state_name":"Florida","lat":26.14255,"lng":-80.1395,"zip":"33336","miles_from_dt":6.48},{"city":"Fort Lauderdale","state_name":"Florida","lat":26.14043,"lng":-80.12529,"zip":"33338","miles_from_dt":6.53},{"city":"Fort Lauderdale","state_name":"Florida","lat":26.13845,"lng":-80.12166,"zip":"33304","miles_from_dt":6.66},{"city":"Fort Lauderdale","state_name":"Florida","lat":26.14412,"lng":-80.17319,"zip":"33311","miles_from_dt":7.06},{"city":"Fort Lauderdale","state_name":"Florida","lat":26.14361,"lng":-80.17352,"zip":"33340","miles_from_dt":7.1},{"city":"Fort Lauderdale","state_name":"Florida","lat":26.1826,"lng":-80.22641,"zip":"33319","miles_from_dt":7.49},{"city":"Fort Lauderdale","state_name":"Florida","lat":26.18128,"lng":-80.22618,"zip":"33349","miles_from_dt":7.52},{"city":"Fort Lauderdale","state_name":"Florida","lat":26.17937,"lng":-80.227,"zip":"33359","miles_from_dt":7.63},{"city":"Boca Raton","state_name":"Florida","lat":26.34729,"lng":-80.11449,"zip":"33486","miles_from_dt":7.73},{"city":"Fort Lauderdale","state_name":"Florida","lat":26.12384,"lng":-80.14233,"zip":"33346","miles_from_dt":7.78},{"city":"Fort Lauderdale","state_name":"Florida","lat":26.12128,"lng":-80.12745,"zip":"33301","miles_from_dt":7.85},{"city":"Fort Lauderdale","state_name":"Florida","lat":26.12115,"lng":-80.1399,"zip":"33394","miles_from_dt":7.94},{"city":"Boca Raton","state_name":"Florida","lat":26.34546,"lng":-80.0838,"zip":"33432","miles_from_dt":7.94},{"city":"Boca Raton","state_name":"Florida","lat":26.34605,"lng":-80.08201,"zip":"33427","miles_from_dt":8.01},{"city":"Boca Raton","state_name":"Florida","lat":26.34706,"lng":-80.15919,"zip":"33433","miles_from_dt":8.06},{"city":"Pompano Beach","state_name":"Florida","lat":26.307,"lng":-80.2257,"zip":"33067","miles_from_dt":8.18},{"city":"Boca Raton","state_name":"Florida","lat":26.34939,"lng":-80.08201,"zip":"33429","miles_from_dt":8.23},{"city":"Fort Lauderdale","state_name":"Florida","lat":26.15069,"lng":-80.22634,"zip":"33313","miles_from_dt":8.76},{"city":"Hollywood","state_name":"Florida","lat":26.14869,"lng":-80.22483,"zip":"33083","miles_from_dt":8.78},{"city":"Coral Springs","state_name":"Florida","lat":26.24464,"lng":-80.26276,"zip":"33075","miles_from_dt":8.84},{"city":"Boca Raton","state_name":"Florida","lat":26.35591,"lng":-80.1716,"zip":"33488","miles_from_dt":8.89},{"city":"Pompano Beach","state_name":"Florida","lat":26.24644,"lng":-80.26393,"zip":"33077","miles_from_dt":8.92},{"city":"Coral Springs","state_name":"Florida","lat":26.27318,"lng":-80.26029,"zip":"33065","miles_from_dt":9.04},{"city":"Coral Springs","state_name":"Florida","lat":26.24395,"lng":-80.26627,"zip":"33071","miles_from_dt":9.05},{"city":"Fort Lauderdale","state_name":"Florida","lat":26.09913,"lng":-80.12398,"zip":"33316","miles_from_dt":9.36},{"city":"Fort Lauderdale","state_name":"Florida","lat":26.2121,"lng":-80.2697,"zip":"33321","miles_from_dt":9.38},{"city":"Boca Raton","state_name":"Florida","lat":26.37996,"lng":-80.1028,"zip":"33431","miles_from_dt":10.03},{"city":"Boca Raton","state_name":"Florida","lat":26.37993,"lng":-80.10129,"zip":"33481","miles_from_dt":10.04},{"city":"Fort Lauderdale","state_name":"Florida","lat":26.17938,"lng":-80.27463,"zip":"33351","miles_from_dt":10.29},{"city":"Boca Raton","state_name":"Florida","lat":26.35054,"lng":-80.22792,"zip":"33428","miles_from_dt":10.36},{"city":"Fort Lauderdale","state_name":"Florida","lat":26.08703,"lng":-80.15297,"zip":"33315","miles_from_dt":10.39},{"city":"Fort Lauderdale","state_name":"Florida","lat":26.18119,"lng":-80.27795,"zip":"33307","miles_from_dt":10.44},{"city":"Boca Raton","state_name":"Florida","lat":26.3497,"lng":-80.23142,"zip":"33497","miles_from_dt":10.45},{"city":"Boca Raton","state_name":"Florida","lat":26.38139,"lng":-80.16913,"zip":"33434","miles_from_dt":10.51},{"city":"Fort Lauderdale","state_name":"Florida","lat":26.17831,"lng":-80.2784,"zip":"33345","miles_from_dt":10.54},{"city":"Fort Lauderdale","state_name":"Florida","lat":26.11268,"lng":-80.22607,"zip":"33317","miles_from_dt":10.67},{"city":"Fort Lauderdale","state_name":"Florida","lat":26.08835,"lng":-80.18166,"zip":"33312","miles_from_dt":10.79},{"city":"Pompano Beach","state_name":"Florida","lat":26.31788,"lng":-80.27431,"zip":"33076","miles_from_dt":11.1},{"city":"Fort Lauderdale","state_name":"Florida","lat":26.14997,"lng":-80.27429,"zip":"33322","miles_from_dt":11.19},{"city":"Fort Lauderdale","state_name":"Florida","lat":26.11832,"lng":-80.25127,"zip":"33318","miles_from_dt":11.42},{"city":"Plantation","state_name":"Florida","lat":26.11715,"lng":-80.25409,"zip":"33388","miles_from_dt":11.6},{"city":"Boca Raton","state_name":"Florida","lat":26.40961,"lng":-80.10631,"zip":"33499","miles_from_dt":12.05},{"city":"Dania","state_name":"Florida","lat":26.05939,"lng":-80.13637,"zip":"33004","miles_from_dt":12.14},{"city":"Boca Raton","state_name":"Florida","lat":26.40991,"lng":-80.09169,"zip":"33487","miles_from_dt":12.17},{"city":"Boca Raton","state_name":"Florida","lat":26.40887,"lng":-80.16139,"zip":"33496","miles_from_dt":12.22},{"city":"Boca Raton","state_name":"Florida","lat":26.39529,"lng":-80.21982,"zip":"33498","miles_from_dt":12.62},{"city":"Fort Lauderdale","state_name":"Florida","lat":26.11205,"lng":-80.27469,"zip":"33324","miles_from_dt":12.77},{"city":"Fort Lauderdale","state_name":"Florida","lat":26.11089,"lng":-80.2741,"zip":"33337","miles_from_dt":12.8},{"city":"Fort Lauderdale","state_name":"Florida","lat":26.11117,"lng":-80.2746,"zip":"33329","miles_from_dt":12.81},{"city":"Fort Lauderdale","state_name":"Florida","lat":26.06822,"lng":-80.22391,"zip":"33314","miles_from_dt":13.15},{"city":"Fort Lauderdale","state_name":"Florida","lat":26.14988,"lng":-80.32222,"zip":"33323","miles_from_dt":13.82},{"city":"Fort Lauderdale","state_name":"Florida","lat":26.11279,"lng":-80.30369,"zip":"33355","miles_from_dt":14.14},{"city":"Fort Lauderdale","state_name":"Florida","lat":26.03617,"lng":-80.19679,"zip":"33302","miles_from_dt":14.49},{"city":"Hollywood","state_name":"Florida","lat":26.02346,"lng":-80.1236,"zip":"33019","miles_from_dt":14.57},{"city":"Fort Lauderdale","state_name":"Florida","lat":26.06673,"lng":-80.27301,"zip":"33328","miles_from_dt":14.96},{"city":"Hollywood","state_name":"Florida","lat":26.01911,"lng":-80.15251,"zip":"33020","miles_from_dt":15},{"city":"Delray Beach","state_name":"Florida","lat":26.45432,"lng":-80.13434,"zip":"33484","miles_from_dt":15.11},{"city":"Delray Beach","state_name":"Florida","lat":26.4548,"lng":-80.1063,"zip":"33445","miles_from_dt":15.15},{"city":"Hollywood","state_name":"Florida","lat":26.02277,"lng":-80.18742,"zip":"33021","miles_from_dt":15.19},{"city":"Fort Lauderdale","state_name":"Florida","lat":26.11032,"lng":-80.32261,"zip":"33325","miles_from_dt":15.2},{"city":"Delray Beach","state_name":"Florida","lat":26.45395,"lng":-80.08712,"zip":"33482","miles_from_dt":15.21},{"city":"Hollywood","state_name":"Florida","lat":26.01385,"lng":-80.14407,"zip":"33022","miles_from_dt":15.3},{"city":"Delray Beach","state_name":"Florida","lat":26.45781,"lng":-80.08002,"zip":"33444","miles_from_dt":15.54},{"city":"Delray Beach","state_name":"Florida","lat":26.45444,"lng":-80.18353,"zip":"33446","miles_from_dt":15.59},{"city":"Hollywood","state_name":"Florida","lat":26.01727,"lng":-80.19999,"zip":"33081","miles_from_dt":15.78},{"city":"Delray Beach","state_name":"Florida","lat":26.46111,"lng":-80.07306,"zip":"33448","miles_from_dt":15.84},{"city":"Delray Beach","state_name":"Florida","lat":26.46157,"lng":-80.0638,"zip":"33483","miles_from_dt":15.99},{"city":"Pembroke Pines","state_name":"Florida","lat":26.01347,"lng":-80.20352,"zip":"33082","miles_from_dt":16.1},{"city":"Hollywood","state_name":"Florida","lat":26.02586,"lng":-80.24346,"zip":"33084","miles_from_dt":16.3},{"city":"Hollywood","state_name":"Florida","lat":26.02501,"lng":-80.24475,"zip":"33024","miles_from_dt":16.39},{"city":"Fort Lauderdale","state_name":"Florida","lat":26.24429,"lng":-80.39267,"zip":"33327","miles_from_dt":16.89},{"city":"Hallandale","state_name":"Florida","lat":25.98695,"lng":-80.14054,"zip":"33008","miles_from_dt":17.13},{"city":"Hallandale","state_name":"Florida","lat":25.98531,"lng":-80.1466,"zip":"33009","miles_from_dt":17.27},{"city":"Fort Lauderdale","state_name":"Florida","lat":26.06034,"lng":-80.32333,"zip":"33330","miles_from_dt":17.41},{"city":"Fort Lauderdale","state_name":"Florida","lat":26.11033,"lng":-80.37403,"zip":"33326","miles_from_dt":17.92},{"city":"Hollywood","state_name":"Florida","lat":25.98812,"lng":-80.21263,"zip":"33023","miles_from_dt":17.94},{"city":"Hollywood","state_name":"Florida","lat":26.02575,"lng":-80.29625,"zip":"33026","miles_from_dt":18.07},{"city":"Miami","state_name":"Florida","lat":25.9646,"lng":-80.14218,"zip":"33163","miles_from_dt":18.67},{"city":"Miami","state_name":"Florida","lat":25.96145,"lng":-80.1415,"zip":"33180","miles_from_dt":18.88},{"city":"Boynton Beach","state_name":"Florida","lat":26.50328,"lng":-80.19225,"zip":"33473","miles_from_dt":18.98},{"city":"Boynton Beach","state_name":"Florida","lat":26.51164,"lng":-80.14917,"zip":"33437","miles_from_dt":19.12},{"city":"Boynton Beach","state_name":"Florida","lat":26.51651,"lng":-80.12786,"zip":"33425","miles_from_dt":19.38},{"city":"Miami","state_name":"Florida","lat":25.95821,"lng":-80.17981,"zip":"33179","miles_from_dt":19.41},{"city":"Boynton Beach","state_name":"Florida","lat":26.51918,"lng":-80.10814,"zip":"33424","miles_from_dt":19.57},{"city":"Fort Lauderdale","state_name":"Florida","lat":26.0587,"lng":-80.36989,"zip":"33331","miles_from_dt":19.67},{"city":"Hollywood","state_name":"Florida","lat":25.98737,"lng":-80.28134,"zip":"33025","miles_from_dt":19.76},{"city":"Boynton Beach","state_name":"Florida","lat":26.52423,"lng":-80.10758,"zip":"33436","miles_from_dt":19.92},{"city":"Boynton Beach","state_name":"Florida","lat":26.52656,"lng":-80.08212,"zip":"33474","miles_from_dt":20.21},{"city":"Boynton Beach","state_name":"Florida","lat":26.52565,"lng":-80.06297,"zip":"33435","miles_from_dt":20.32},{"city":"Pembroke Pines","state_name":"Florida","lat":26.01852,"lng":-80.34488,"zip":"33028","miles_from_dt":20.4},{"city":"Boynton Beach","state_name":"Florida","lat":26.53359,"lng":-80.08295,"zip":"33426","miles_from_dt":20.68},{"city":"Miami","state_name":"Florida","lat":25.94476,"lng":-80.21399,"zip":"33269","miles_from_dt":20.81},{"city":"North Miami Beach","state_name":"Florida","lat":25.93234,"lng":-80.13583,"zip":"33160","miles_from_dt":20.87},{"city":"Miami","state_name":"Florida","lat":25.93202,"lng":-80.13642,"zip":"33280","miles_from_dt":20.89},{"city":"Miami","state_name":"Florida","lat":25.94298,"lng":-80.2147,"zip":"33169","miles_from_dt":20.94},{"city":"Miami Gardens","state_name":"Florida","lat":25.94922,"lng":-80.24562,"zip":"33056","miles_from_dt":21.16},{"city":"Miami","state_name":"Florida","lat":25.92933,"lng":-80.17676,"zip":"33164","miles_from_dt":21.34},{"city":"Boynton Beach","state_name":"Florida","lat":26.53974,"lng":-80.18903,"zip":"33472","miles_from_dt":21.39},{"city":"Miami","state_name":"Florida","lat":25.92845,"lng":-80.17844,"zip":"33162","miles_from_dt":21.41},{"city":"Opa Locka","state_name":"Florida","lat":25.94812,"lng":-80.27809,"zip":"33055","miles_from_dt":22.04},{"city":"Hollywood","state_name":"Florida","lat":25.98245,"lng":-80.34359,"zip":"33027","miles_from_dt":22.23},{"city":"Miami","state_name":"Florida","lat":25.89717,"lng":-80.1531,"zip":"33181","miles_from_dt":23.35},{"city":"Hialeah","state_name":"Florida","lat":25.94339,"lng":-80.31821,"zip":"33017","miles_from_dt":23.53},{"city":"Lake Worth","state_name":"Florida","lat":26.57632,"lng":-80.08722,"zip":"33465","miles_from_dt":23.58},{"city":"Hialeah","state_name":"Florida","lat":25.94116,"lng":-80.31761,"zip":"33015","miles_from_dt":23.65},{"city":"Miami","state_name":"Florida","lat":25.89357,"lng":-80.18285,"zip":"33161","miles_from_dt":23.83},{"city":"Lake Worth","state_name":"Florida","lat":26.58027,"lng":-80.07337,"zip":"33462","miles_from_dt":23.94},{"city":"Miami","state_name":"Florida","lat":25.89121,"lng":-80.18118,"zip":"33261","miles_from_dt":23.97},{"city":"Miami Beach","state_name":"Florida","lat":25.88609,"lng":-80.13332,"zip":"33154","miles_from_dt":24.04},{"city":"Opa Locka","state_name":"Florida","lat":25.90775,"lng":-80.25753,"zip":"33054","miles_from_dt":24.09},{"city":"Miami","state_name":"Florida","lat":25.89318,"lng":-80.2093,"zip":"33168","miles_from_dt":24.17},{"city":"Fort Lauderdale","state_name":"Florida","lat":26.03825,"lng":-80.44352,"zip":"33332","miles_from_dt":24.2},{"city":"Boca Raton","state_name":"Florida","lat":26.58413,"lng":-80.04906,"zip":"33464","miles_from_dt":24.44},{"city":"Hollywood","state_name":"Florida","lat":25.99184,"lng":-80.40794,"zip":"33029","miles_from_dt":24.47},{"city":"Lake Worth","state_name":"Florida","lat":26.59508,"lng":-80.12968,"zip":"33463","miles_from_dt":24.79},{"city":"Lake Worth","state_name":"Florida","lat":26.59472,"lng":-80.17567,"zip":"33467","miles_from_dt":24.99},{"city":"Miami","state_name":"Florida","lat":25.8848,"lng":-80.23631,"zip":"33167","miles_from_dt":25.16},{"city":"Greenacres","state_name":"Florida","lat":26.59477,"lng":-80.2007,"zip":"33454","miles_from_dt":25.25},{"city":"Hialeah","state_name":"Florida","lat":25.90332,"lng":-80.30173,"zip":"33014","miles_from_dt":25.46},{"city":"Lake Worth","state_name":"Florida","lat":26.59272,"lng":-80.2339,"zip":"33449","miles_from_dt":25.6},{"city":"Hialeah","state_name":"Florida","lat":25.90195,"lng":-80.30503,"zip":"33002","miles_from_dt":25.64},{"city":"Miami","state_name":"Florida","lat":25.86357,"lng":-80.19255,"zip":"33153","miles_from_dt":25.96},{"city":"Miami Beach","state_name":"Florida","lat":25.85116,"lng":-80.14147,"zip":"33141","miles_from_dt":26.46},{"city":"Miami","state_name":"Florida","lat":25.85473,"lng":-80.18249,"zip":"33238","miles_from_dt":26.47},{"city":"Miami","state_name":"Florida","lat":25.85388,"lng":-80.17846,"zip":"33138","miles_from_dt":26.49},{"city":"Lake Worth","state_name":"Florida","lat":26.61936,"lng":-80.09048,"zip":"33461","miles_from_dt":26.52},{"city":"Lake Worth","state_name":"Florida","lat":26.61742,"lng":-80.0601,"zip":"33466","miles_from_dt":26.59},{"city":"Lake Worth Beach","state_name":"Florida","lat":26.61872,"lng":-80.05527,"zip":"33460","miles_from_dt":26.72},{"city":"Hialeah","state_name":"Florida","lat":25.89361,"lng":-80.33186,"zip":"33016","miles_from_dt":26.92},{"city":"Miami","state_name":"Florida","lat":25.85196,"lng":-80.20702,"zip":"33150","miles_from_dt":26.92},{"city":"Hialeah","state_name":"Florida","lat":25.86209,"lng":-80.27032,"zip":"33013","miles_from_dt":27.31},{"city":"Miami","state_name":"Florida","lat":25.85231,"lng":-80.23951,"zip":"33247","miles_from_dt":27.37},{"city":"Miami","state_name":"Florida","lat":25.85104,"lng":-80.23861,"zip":"33147","miles_from_dt":27.44},{"city":"Hialeah","state_name":"Florida","lat":25.92,"lng":-80.39274,"zip":"33018","miles_from_dt":27.5},{"city":"Hialeah","state_name":"Florida","lat":25.86583,"lng":-80.30247,"zip":"33012","miles_from_dt":27.82},{"city":"Miami","state_name":"Florida","lat":25.83187,"lng":-80.20951,"zip":"33151","miles_from_dt":28.3},{"city":"Miami Beach","state_name":"Florida","lat":25.81606,"lng":-80.13895,"zip":"33140","miles_from_dt":28.87},{"city":"Miami","state_name":"Florida","lat":25.81538,"lng":-80.17798,"zip":"33137","miles_from_dt":29.11},{"city":"Miami","state_name":"Florida","lat":25.87517,"lng":-80.36906,"zip":"33198","miles_from_dt":29.19},{"city":"West Palm Beach","state_name":"Florida","lat":26.66002,"lng":-80.12742,"zip":"33415","miles_from_dt":29.25},{"city":"Hialeah","state_name":"Florida","lat":25.83309,"lng":-80.27902,"zip":"33010","miles_from_dt":29.37},{"city":"Miami","state_name":"Florida","lat":25.81307,"lng":-80.20553,"zip":"33127","miles_from_dt":29.53},{"city":"Wellington","state_name":"Florida","lat":26.64829,"lng":-80.24943,"zip":"33414","miles_from_dt":29.54},{"city":"West Palm Beach","state_name":"Florida","lat":26.66419,"lng":-80.09067,"zip":"33416","miles_from_dt":29.6},{"city":"West Palm Beach","state_name":"Florida","lat":26.66397,"lng":-80.1553,"zip":"33413","miles_from_dt":29.6},{"city":"West Palm Beach","state_name":"Florida","lat":26.66503,"lng":-80.09093,"zip":"33406","miles_from_dt":29.65},{"city":"Miami","state_name":"Florida","lat":25.81473,"lng":-80.24037,"zip":"33188","miles_from_dt":29.88},{"city":"Miami","state_name":"Florida","lat":25.81176,"lng":-80.23433,"zip":"33242","miles_from_dt":29.99}],"targetCityZipCode":"33060","targetCityState":"Florida"},"__N_SSG":true}