{"pageProps":{"stateName":"Florida","cityName":"port-richey","nearbyCities":[{"city":"Port Richey","state_name":"Florida","lat":28.27516,"lng":-82.72017,"zip":"34673","miles_from_dt":2.05},{"city":"Hudson","state_name":"Florida","lat":28.35772,"lng":-82.69869,"zip":"34674","miles_from_dt":3.87},{"city":"New Port Richey","state_name":"Florida","lat":28.24361,"lng":-82.70907,"zip":"34656","miles_from_dt":4.01},{"city":"New Port Richey","state_name":"Florida","lat":28.24266,"lng":-82.69308,"zip":"34653","miles_from_dt":4.14},{"city":"New Port Richey","state_name":"Florida","lat":28.29757,"lng":-82.62904,"zip":"34654","miles_from_dt":4.65},{"city":"New Port Richey","state_name":"Florida","lat":28.2368,"lng":-82.73661,"zip":"34652","miles_from_dt":4.87},{"city":"Elfers","state_name":"Florida","lat":28.2103,"lng":-82.71165,"zip":"34680","miles_from_dt":6.31},{"city":"Hudson","state_name":"Florida","lat":28.38926,"lng":-82.65654,"zip":"34667","miles_from_dt":6.71},{"city":"Hudson","state_name":"Florida","lat":28.3577,"lng":-82.61476,"zip":"34669","miles_from_dt":6.72},{"city":"New Port Richey","state_name":"Florida","lat":28.21201,"lng":-82.65516,"zip":"34655","miles_from_dt":6.89},{"city":"Holiday","state_name":"Florida","lat":28.19228,"lng":-82.72726,"zip":"34690","miles_from_dt":7.66},{"city":"Holiday","state_name":"Florida","lat":28.19,"lng":-82.74219,"zip":"34692","miles_from_dt":8.02},{"city":"Aripeka","state_name":"Florida","lat":28.42226,"lng":-82.67716,"zip":"34679","miles_from_dt":8.47},{"city":"Holiday","state_name":"Florida","lat":28.19042,"lng":-82.76603,"zip":"34691","miles_from_dt":8.52},{"city":"Tarpon Springs","state_name":"Florida","lat":28.14445,"lng":-82.68543,"zip":"34688","miles_from_dt":10.9},{"city":"Tarpon Springs","state_name":"Florida","lat":28.14971,"lng":-82.75956,"zip":"34689","miles_from_dt":10.98},{"city":"Odessa","state_name":"Florida","lat":28.17029,"lng":-82.59264,"zip":"33556","miles_from_dt":11.36},{"city":"Land O'Lakes","state_name":"Florida","lat":28.26035,"lng":-82.52036,"zip":"34638","miles_from_dt":11.62},{"city":"Spring Hill","state_name":"Florida","lat":28.46961,"lng":-82.59759,"zip":"34606","miles_from_dt":13.29},{"city":"Spring Hill","state_name":"Florida","lat":28.38339,"lng":-82.50058,"zip":"34610","miles_from_dt":13.67},{"city":"Palm Harbor","state_name":"Florida","lat":28.09995,"lng":-82.68851,"zip":"34685","miles_from_dt":13.93},{"city":"Land O'Lakes","state_name":"Florida","lat":28.29589,"lng":-82.46368,"zip":"34637","miles_from_dt":14.72},{"city":"Lutz","state_name":"Florida","lat":28.15871,"lng":-82.51597,"zip":"33558","miles_from_dt":15.17},{"city":"Spring Hill","state_name":"Florida","lat":28.48206,"lng":-82.56109,"zip":"34611","miles_from_dt":15.2},{"city":"Crystal Beach","state_name":"Florida","lat":28.0903,"lng":-82.77801,"zip":"34681","miles_from_dt":15.22},{"city":"Palm Harbor","state_name":"Florida","lat":28.08626,"lng":-82.76025,"zip":"34683","miles_from_dt":15.22},{"city":"Palm Harbor","state_name":"Florida","lat":28.08122,"lng":-82.72779,"zip":"34684","miles_from_dt":15.25},{"city":"Spring Hill","state_name":"Florida","lat":28.48258,"lng":-82.5532,"zip":"34608","miles_from_dt":15.51},{"city":"Palm Harbor","state_name":"Florida","lat":28.07705,"lng":-82.76142,"zip":"34682","miles_from_dt":15.85},{"city":"Ozona","state_name":"Florida","lat":28.06657,"lng":-82.77773,"zip":"34660","miles_from_dt":16.79},{"city":"Spring Hill","state_name":"Florida","lat":28.4792,"lng":-82.50818,"zip":"34609","miles_from_dt":17.12},{"city":"Oldsmar","state_name":"Florida","lat":28.05293,"lng":-82.67549,"zip":"34677","miles_from_dt":17.23},{"city":"Tampa","state_name":"Florida","lat":28.06256,"lng":-82.61526,"zip":"33626","miles_from_dt":17.36},{"city":"Land O'Lakes","state_name":"Florida","lat":28.24456,"lng":-82.42475,"zip":"34639","miles_from_dt":17.54},{"city":"Lutz","state_name":"Florida","lat":28.13788,"lng":-82.48184,"zip":"33548","miles_from_dt":17.69},{"city":"Tampa","state_name":"Florida","lat":28.06807,"lng":-82.56016,"zip":"33625","miles_from_dt":18.36},{"city":"Clearwater","state_name":"Florida","lat":28.03103,"lng":-82.72511,"zip":"33761","miles_from_dt":18.68},{"city":"Clearwater","state_name":"Florida","lat":28.03006,"lng":-82.71991,"zip":"33766","miles_from_dt":18.73},{"city":"Tampa","state_name":"Florida","lat":28.07903,"lng":-82.52608,"zip":"33624","miles_from_dt":18.83},{"city":"Tampa","state_name":"Florida","lat":28.11902,"lng":-82.4715,"zip":"33675","miles_from_dt":19.01},{"city":"Dunedin","state_name":"Florida","lat":28.03204,"lng":-82.78433,"zip":"34698","miles_from_dt":19.19},{"city":"Dunedin","state_name":"Florida","lat":28.02655,"lng":-82.76426,"zip":"34697","miles_from_dt":19.29},{"city":"Lutz","state_name":"Florida","lat":28.1392,"lng":-82.44624,"zip":"33549","miles_from_dt":19.36},{"city":"Spring Hill","state_name":"Florida","lat":28.57528,"lng":-82.62715,"zip":"34607","miles_from_dt":19.43},{"city":"Tampa","state_name":"Florida","lat":28.02408,"lng":-82.61882,"zip":"33635","miles_from_dt":19.83},{"city":"Safety Harbor","state_name":"Florida","lat":28.00927,"lng":-82.69673,"zip":"34695","miles_from_dt":20.15},{"city":"Tampa","state_name":"Florida","lat":28.07313,"lng":-82.49781,"zip":"33618","miles_from_dt":20.2},{"city":"Tampa","state_name":"Florida","lat":28.06931,"lng":-82.4972,"zip":"33694","miles_from_dt":20.43},{"city":"Brooksville","state_name":"Florida","lat":28.49696,"lng":-82.45256,"zip":"34605","miles_from_dt":20.43},{"city":"Tampa","state_name":"Florida","lat":28.06161,"lng":-82.50555,"zip":"33688","miles_from_dt":20.54},{"city":"Lutz","state_name":"Florida","lat":28.15788,"lng":-82.41007,"zip":"33559","miles_from_dt":20.54},{"city":"Brooksville","state_name":"Florida","lat":28.4781,"lng":-82.43322,"zip":"34604","miles_from_dt":20.54},{"city":"Brooksville","state_name":"Florida","lat":28.56183,"lng":-82.53803,"zip":"34613","miles_from_dt":20.6},{"city":"Wesley Chapel","state_name":"Florida","lat":28.25132,"lng":-82.37039,"zip":"33544","miles_from_dt":20.7},{"city":"Clearwater","state_name":"Florida","lat":28.00298,"lng":-82.74347,"zip":"33763","miles_from_dt":20.71},{"city":"Tampa","state_name":"Florida","lat":28.08344,"lng":-82.44873,"zip":"33613","miles_from_dt":21.7},{"city":"Tampa","state_name":"Florida","lat":28.00546,"lng":-82.58144,"zip":"33615","miles_from_dt":21.76},{"city":"Tampa","state_name":"Florida","lat":28.00008,"lng":-82.58349,"zip":"33685","miles_from_dt":22.06},{"city":"Clearwater","state_name":"Florida","lat":27.98095,"lng":-82.7145,"zip":"33759","miles_from_dt":22.1},{"city":"Tampa","state_name":"Florida","lat":28.00769,"lng":-82.54614,"zip":"33634","miles_from_dt":22.46},{"city":"Tampa","state_name":"Florida","lat":28.05591,"lng":-82.45906,"zip":"33682","miles_from_dt":22.63},{"city":"Clearwater","state_name":"Florida","lat":27.98002,"lng":-82.7809,"zip":"33757","miles_from_dt":22.63},{"city":"Clearwater","state_name":"Florida","lat":27.97452,"lng":-82.74419,"zip":"33765","miles_from_dt":22.66},{"city":"Clearwater","state_name":"Florida","lat":27.9793,"lng":-82.78007,"zip":"33755","miles_from_dt":22.67},{"city":"Clearwater","state_name":"Florida","lat":27.97426,"lng":-82.7497,"zip":"33758","miles_from_dt":22.72},{"city":"Tampa","state_name":"Florida","lat":28.05071,"lng":-82.451,"zip":"33612","miles_from_dt":23.22},{"city":"Clearwater","state_name":"Florida","lat":27.96885,"lng":-82.80321,"zip":"33769","miles_from_dt":23.69},{"city":"Tampa","state_name":"Florida","lat":28.00619,"lng":-82.50598,"zip":"33614","miles_from_dt":23.71},{"city":"San Antonio","state_name":"Florida","lat":28.32472,"lng":-82.31682,"zip":"33576","miles_from_dt":23.72},{"city":"Clearwater Beach","state_name":"Florida","lat":27.97022,"lng":-82.82329,"zip":"33767","miles_from_dt":23.94},{"city":"Tampa","state_name":"Florida","lat":28.13401,"lng":-82.36017,"zip":"33647","miles_from_dt":24.01},{"city":"Tampa","state_name":"Florida","lat":28.06112,"lng":-82.41172,"zip":"33620","miles_from_dt":24.4},{"city":"Tampa","state_name":"Florida","lat":27.99551,"lng":-82.49671,"zip":"33684","miles_from_dt":24.63},{"city":"Tampa","state_name":"Florida","lat":28.01875,"lng":-82.45789,"zip":"33674","miles_from_dt":24.65},{"city":"Tampa","state_name":"Florida","lat":28.01686,"lng":-82.45519,"zip":"33604","miles_from_dt":24.85},{"city":"Zephyrhills","state_name":"Florida","lat":28.24985,"lng":-82.30023,"zip":"33539","miles_from_dt":24.94},{"city":"Clearwater","state_name":"Florida","lat":27.94421,"lng":-82.79216,"zip":"33756","miles_from_dt":25.19},{"city":"Clearwater","state_name":"Florida","lat":27.93679,"lng":-82.7424,"zip":"33764","miles_from_dt":25.23},{"city":"Wesley Chapel","state_name":"Florida","lat":28.20279,"lng":-82.30503,"zip":"33543","miles_from_dt":25.33},{"city":"Wesley Chapel","state_name":"Florida","lat":28.26578,"lng":-82.28832,"zip":"33545","miles_from_dt":25.53},{"city":"Tampa","state_name":"Florida","lat":27.96837,"lng":-82.51983,"zip":"33630","miles_from_dt":25.59},{"city":"Tampa","state_name":"Florida","lat":27.96269,"lng":-82.53349,"zip":"33631","miles_from_dt":25.59},{"city":"Tampa","state_name":"Florida","lat":27.96881,"lng":-82.51842,"zip":"33650","miles_from_dt":25.6},{"city":"Tampa","state_name":"Florida","lat":27.96776,"lng":-82.51825,"zip":"33664","miles_from_dt":25.67},{"city":"Tampa","state_name":"Florida","lat":27.96624,"lng":-82.52019,"zip":"33677","miles_from_dt":25.72},{"city":"Brooksville","state_name":"Florida","lat":28.55221,"lng":-82.39106,"zip":"34603","miles_from_dt":25.75},{"city":"Tampa","state_name":"Florida","lat":27.9971,"lng":-82.45998,"zip":"33673","miles_from_dt":25.77},{"city":"Tampa","state_name":"Florida","lat":27.96677,"lng":-82.51408,"zip":"33607","miles_from_dt":25.85},{"city":"Tampa","state_name":"Florida","lat":27.97788,"lng":-82.48708,"zip":"33633","miles_from_dt":25.97},{"city":"Tampa","state_name":"Florida","lat":28.03893,"lng":-82.39327,"zip":"33617","miles_from_dt":26.26},{"city":"Tampa","state_name":"Florida","lat":27.98526,"lng":-82.46458,"zip":"33603","miles_from_dt":26.28},{"city":"Brooksville","state_name":"Florida","lat":28.64627,"lng":-82.51324,"zip":"34614","miles_from_dt":26.44},{"city":"Tampa","state_name":"Florida","lat":28.03597,"lng":-82.39098,"zip":"33687","miles_from_dt":26.51},{"city":"Tampa","state_name":"Florida","lat":27.95279,"lng":-82.50822,"zip":"33679","miles_from_dt":26.87},{"city":"Largo","state_name":"Florida","lat":27.91035,"lng":-82.76012,"zip":"33779","miles_from_dt":27.16},{"city":"Belleair Beach","state_name":"Florida","lat":27.92385,"lng":-82.83635,"zip":"33786","miles_from_dt":27.23},{"city":"Clearwater","state_name":"Florida","lat":27.90535,"lng":-82.71389,"zip":"33760","miles_from_dt":27.3},{"city":"Largo","state_name":"Florida","lat":27.91477,"lng":-82.8035,"zip":"33770","miles_from_dt":27.32},{"city":"Tampa","state_name":"Florida","lat":28.04715,"lng":-82.36118,"zip":"33637","miles_from_dt":27.35},{"city":"Tampa","state_name":"Florida","lat":27.94307,"lng":-82.51108,"zip":"33609","miles_from_dt":27.39},{"city":"Saint Leo","state_name":"Florida","lat":28.33811,"lng":-82.257,"zip":"33574","miles_from_dt":27.42},{"city":"Largo","state_name":"Florida","lat":27.90585,"lng":-82.7583,"zip":"33771","miles_from_dt":27.46},{"city":"Tampa","state_name":"Florida","lat":28.00275,"lng":-82.40093,"zip":"33680","miles_from_dt":27.73},{"city":"Clearwater","state_name":"Florida","lat":27.89685,"lng":-82.67946,"zip":"33762","miles_from_dt":27.93},{"city":"Dade City","state_name":"Florida","lat":28.41787,"lng":-82.26476,"zip":"33523","miles_from_dt":27.99},{"city":"Tampa","state_name":"Florida","lat":27.95413,"lng":-82.45872,"zip":"33623","miles_from_dt":28.27},{"city":"Tampa","state_name":"Florida","lat":27.95587,"lng":-82.45499,"zip":"33672","miles_from_dt":28.29},{"city":"Tampa","state_name":"Florida","lat":27.95452,"lng":-82.4571,"zip":"33622","miles_from_dt":28.3},{"city":"Tampa","state_name":"Florida","lat":27.95371,"lng":-82.45675,"zip":"33602","miles_from_dt":28.36},{"city":"Tampa","state_name":"Florida","lat":27.95,"lng":-82.46219,"zip":"33646","miles_from_dt":28.4},{"city":"Tampa","state_name":"Florida","lat":27.95039,"lng":-82.45966,"zip":"33689","miles_from_dt":28.46},{"city":"Brooksville","state_name":"Florida","lat":28.5892,"lng":-82.36857,"zip":"34601","miles_from_dt":28.49},{"city":"Tampa","state_name":"Florida","lat":27.94881,"lng":-82.45558,"zip":"33655","miles_from_dt":28.69},{"city":"Tampa","state_name":"Florida","lat":27.92181,"lng":-82.51007,"zip":"33629","miles_from_dt":28.75},{"city":"Tampa","state_name":"Florida","lat":27.9972,"lng":-82.38015,"zip":"33610","miles_from_dt":28.87},{"city":"Thonotosassa","state_name":"Florida","lat":28.10087,"lng":-82.28698,"zip":"33592","miles_from_dt":29.02},{"city":"Largo","state_name":"Florida","lat":27.88156,"lng":-82.75594,"zip":"33773","miles_from_dt":29.1},{"city":"Saint Petersburg","state_name":"Florida","lat":27.87838,"lng":-82.66908,"zip":"33729","miles_from_dt":29.24},{"city":"Brooksville","state_name":"Florida","lat":28.50252,"lng":-82.28007,"zip":"34602","miles_from_dt":29.34},{"city":"Tampa","state_name":"Florida","lat":27.93209,"lng":-82.46493,"zip":"33606","miles_from_dt":29.38},{"city":"Saint Petersburg","state_name":"Florida","lat":27.8774,"lng":-82.65119,"zip":"33716","miles_from_dt":29.41},{"city":"Largo","state_name":"Florida","lat":27.88266,"lng":-82.79843,"zip":"33778","miles_from_dt":29.42},{"city":"Tampa","state_name":"Florida","lat":27.95121,"lng":-82.42924,"zip":"33605","miles_from_dt":29.44},{"city":"Largo","state_name":"Florida","lat":27.88275,"lng":-82.8278,"zip":"33774","miles_from_dt":29.81},{"city":"Indian Rocks Beach","state_name":"Florida","lat":27.88559,"lng":-82.84425,"zip":"33785","miles_from_dt":29.89},{"city":"Zephyrhills","state_name":"Florida","lat":28.23029,"lng":-82.22073,"zip":"33541","miles_from_dt":29.94}],"targetCityZipCode":"34668","targetCityState":"Florida"},"__N_SSG":true}