{"pageProps":{"stateName":"Florida","cityName":"tallahassee","nearbyCities":[{"city":"Tallahassee","state_name":"Florida","lat":30.42173,"lng":-84.28686,"zip":"32307","miles_from_dt":1.76},{"city":"Tallahassee","state_name":"Florida","lat":30.44376,"lng":-84.28357,"zip":"32302","miles_from_dt":1.91},{"city":"Tallahassee","state_name":"Florida","lat":30.40162,"lng":-84.24426,"zip":"32399","miles_from_dt":1.93},{"city":"Tallahassee","state_name":"Florida","lat":30.44227,"lng":-84.29455,"zip":"32306","miles_from_dt":2.42},{"city":"Tallahassee","state_name":"Florida","lat":30.44168,"lng":-84.30287,"zip":"32313","miles_from_dt":2.86},{"city":"Tallahassee","state_name":"Florida","lat":30.46169,"lng":-84.28764,"zip":"32315","miles_from_dt":2.97},{"city":"Tallahassee","state_name":"Florida","lat":30.4781,"lng":-84.21968,"zip":"32308","miles_from_dt":4.2},{"city":"Tallahassee","state_name":"Florida","lat":30.44556,"lng":-84.32787,"zip":"32316","miles_from_dt":4.36},{"city":"Tallahassee","state_name":"Florida","lat":30.44035,"lng":-84.3347,"zip":"32314","miles_from_dt":4.67},{"city":"Tallahassee","state_name":"Florida","lat":30.39647,"lng":-84.16843,"zip":"32311","miles_from_dt":5.75},{"city":"Tallahassee","state_name":"Florida","lat":30.45346,"lng":-84.35314,"zip":"32304","miles_from_dt":5.96},{"city":"Tallahassee","state_name":"Florida","lat":30.3337,"lng":-84.26977,"zip":"32305","miles_from_dt":6.47},{"city":"Woodville","state_name":"Florida","lat":30.31465,"lng":-84.26436,"zip":"32362","miles_from_dt":7.75},{"city":"Tallahassee","state_name":"Florida","lat":30.51237,"lng":-84.34386,"zip":"32303","miles_from_dt":7.8},{"city":"Tallahassee","state_name":"Florida","lat":30.46746,"lng":-84.11442,"zip":"32317","miles_from_dt":9.01},{"city":"Tallahassee","state_name":"Florida","lat":30.56,"lng":-84.18219,"zip":"32318","miles_from_dt":10.22},{"city":"Tallahassee","state_name":"Florida","lat":30.60421,"lng":-84.23996,"zip":"32312","miles_from_dt":12.25},{"city":"Midway","state_name":"Florida","lat":30.48515,"lng":-84.47652,"zip":"32343","miles_from_dt":13.64},{"city":"Tallahassee","state_name":"Florida","lat":30.57174,"lng":-84.10128,"zip":"32309","miles_from_dt":13.67},{"city":"Lloyd","state_name":"Florida","lat":30.48307,"lng":-84.02104,"zip":"32337","miles_from_dt":14.66},{"city":"Tallahassee","state_name":"Florida","lat":30.39924,"lng":-84.50694,"zip":"32310","miles_from_dt":14.99},{"city":"Havana","state_name":"Florida","lat":30.60677,"lng":-84.41249,"zip":"32333","miles_from_dt":15.44},{"city":"Crawfordville","state_name":"Florida","lat":30.18705,"lng":-84.30472,"zip":"32327","miles_from_dt":16.76},{"city":"Wacissa","state_name":"Florida","lat":30.35765,"lng":-83.98865,"zip":"32361","miles_from_dt":16.78},{"city":"Saint Marks","state_name":"Florida","lat":30.1695,"lng":-84.21002,"zip":"32355","miles_from_dt":17.97},{"city":"Crawfordville","state_name":"Florida","lat":30.17267,"lng":-84.37563,"zip":"32326","miles_from_dt":18.88},{"city":"Monticello","state_name":"Florida","lat":30.44645,"lng":-83.91902,"zip":"32344","miles_from_dt":20.28},{"city":"Calvary","state_name":"Georgia","lat":30.72646,"lng":-84.34621,"zip":"39829","miles_from_dt":21.29},{"city":"Quincy","state_name":"Florida","lat":30.57899,"lng":-84.5928,"zip":"32353","miles_from_dt":22.55},{"city":"Monticello","state_name":"Florida","lat":30.54402,"lng":-83.87248,"zip":"32345","miles_from_dt":24.37},{"city":"Quincy","state_name":"Florida","lat":30.6499,"lng":-84.58535,"zip":"32352","miles_from_dt":24.83},{"city":"Cairo","state_name":"Georgia","lat":30.79741,"lng":-84.22444,"zip":"39828","miles_from_dt":25.59},{"city":"Attapulgus","state_name":"Georgia","lat":30.74138,"lng":-84.4935,"zip":"39815","miles_from_dt":25.81},{"city":"Lamont","state_name":"Florida","lat":30.26371,"lng":-83.86319,"zip":"32336","miles_from_dt":26.13},{"city":"Quincy","state_name":"Florida","lat":30.52358,"lng":-84.68362,"zip":"32351","miles_from_dt":26.25},{"city":"Thomasville","state_name":"Georgia","lat":30.77079,"lng":-84.04238,"zip":"31792","miles_from_dt":26.94},{"city":"Gretna","state_name":"Florida","lat":30.61168,"lng":-84.6657,"zip":"32332","miles_from_dt":27.44},{"city":"Sopchoppy","state_name":"Florida","lat":30.09535,"lng":-84.54468,"zip":"32358","miles_from_dt":28.56}],"targetCityZipCode":"32301","targetCityState":"Florida"},"__N_SSG":true}