{"pageProps":{"stateName":"Florida","cityName":"yalaha","nearbyCities":[{"city":"Howey In The Hills","state_name":"Florida","lat":28.69638,"lng":-81.80243,"zip":"34737","miles_from_dt":2.84},{"city":"Leesburg","state_name":"Florida","lat":28.77366,"lng":-81.88552,"zip":"34748","miles_from_dt":4.87},{"city":"Tavares","state_name":"Florida","lat":28.77554,"lng":-81.72884,"zip":"32778","miles_from_dt":6.09},{"city":"Okahumpka","state_name":"Florida","lat":28.75772,"lng":-81.9152,"zip":"34762","miles_from_dt":6.09},{"city":"Leesburg","state_name":"Florida","lat":28.80786,"lng":-81.87595,"zip":"34749","miles_from_dt":6.11},{"city":"Leesburg","state_name":"Florida","lat":28.80956,"lng":-81.88247,"zip":"34789","miles_from_dt":6.44},{"city":"Astatula","state_name":"Florida","lat":28.69367,"lng":-81.71138,"zip":"34705","miles_from_dt":7.08},{"city":"Mid Florida","state_name":"Florida","lat":28.75,"lng":-81.67219,"zip":"32745","miles_from_dt":8.92},{"city":"Clermont","state_name":"Florida","lat":28.6242,"lng":-81.73019,"zip":"34715","miles_from_dt":9.32},{"city":"Fruitland Park","state_name":"Florida","lat":28.86788,"lng":-81.89638,"zip":"34731","miles_from_dt":10.3},{"city":"Leesburg","state_name":"Florida","lat":28.88542,"lng":-81.79678,"zip":"34788","miles_from_dt":10.43},{"city":"Ferndale","state_name":"Florida","lat":28.61764,"lng":-81.69901,"zip":"34729","miles_from_dt":10.86},{"city":"Mascotte","state_name":"Florida","lat":28.58684,"lng":-81.89624,"zip":"34753","miles_from_dt":11.26},{"city":"Mount Dora","state_name":"Florida","lat":28.77954,"lng":-81.637,"zip":"32757","miles_from_dt":11.41},{"city":"Groveland","state_name":"Florida","lat":28.57883,"lng":-81.88844,"zip":"34736","miles_from_dt":11.58},{"city":"Mount Dora","state_name":"Florida","lat":28.80471,"lng":-81.64415,"zip":"32756","miles_from_dt":11.59},{"city":"Minneola","state_name":"Florida","lat":28.57756,"lng":-81.74927,"zip":"34755","miles_from_dt":11.63},{"city":"Eustis","state_name":"Florida","lat":28.8541,"lng":-81.68,"zip":"32726","miles_from_dt":11.72},{"city":"The Villages","state_name":"Florida","lat":28.81878,"lng":-81.98663,"zip":"32163","miles_from_dt":11.73},{"city":"Grand Island","state_name":"Florida","lat":28.89099,"lng":-81.73718,"zip":"32735","miles_from_dt":11.8},{"city":"Eustis","state_name":"Florida","lat":28.83138,"lng":-81.65691,"zip":"32727","miles_from_dt":11.81},{"city":"Tangerine","state_name":"Florida","lat":28.76081,"lng":-81.62564,"zip":"32777","miles_from_dt":11.82},{"city":"Center Hill","state_name":"Florida","lat":28.65771,"lng":-81.99886,"zip":"33514","miles_from_dt":12.2},{"city":"Clermont","state_name":"Florida","lat":28.5532,"lng":-81.75755,"zip":"34712","miles_from_dt":13.06},{"city":"Sumterville","state_name":"Florida","lat":28.74089,"lng":-82.03347,"zip":"33585","miles_from_dt":13.08},{"city":"Montverde","state_name":"Florida","lat":28.58651,"lng":-81.68214,"zip":"34756","miles_from_dt":13.15},{"city":"Clermont","state_name":"Florida","lat":28.54731,"lng":-81.77043,"zip":"34713","miles_from_dt":13.26},{"city":"Zellwood","state_name":"Florida","lat":28.72647,"lng":-81.58648,"zip":"32798","miles_from_dt":14.07},{"city":"Lady Lake","state_name":"Florida","lat":28.92456,"lng":-81.90528,"zip":"32159","miles_from_dt":14.07},{"city":"Lady Lake","state_name":"Florida","lat":28.92727,"lng":-81.92696,"zip":"32158","miles_from_dt":14.78},{"city":"Clermont","state_name":"Florida","lat":28.52724,"lng":-81.75349,"zip":"34711","miles_from_dt":14.85},{"city":"Plymouth","state_name":"Florida","lat":28.69577,"lng":-81.55795,"zip":"32768","miles_from_dt":16.03},{"city":"Coleman","state_name":"Florida","lat":28.79788,"lng":-82.0752,"zip":"33521","miles_from_dt":16.19},{"city":"The Villages","state_name":"Florida","lat":28.91629,"lng":-81.99374,"zip":"32162","miles_from_dt":16.4},{"city":"Wildwood","state_name":"Florida","lat":28.84516,"lng":-82.06065,"zip":"34785","miles_from_dt":16.55},{"city":"Killarney","state_name":"Florida","lat":28.54503,"lng":-81.64884,"zip":"34740","miles_from_dt":16.65},{"city":"Oakland","state_name":"Florida","lat":28.55694,"lng":-81.62916,"zip":"34760","miles_from_dt":16.81},{"city":"Apopka","state_name":"Florida","lat":28.72917,"lng":-81.54103,"zip":"32712","miles_from_dt":16.83},{"city":"Umatilla","state_name":"Florida","lat":28.97626,"lng":-81.7232,"zip":"32784","miles_from_dt":17.57},{"city":"Weirsdale","state_name":"Florida","lat":28.9854,"lng":-81.89814,"zip":"32195","miles_from_dt":17.9},{"city":"Apopka","state_name":"Florida","lat":28.65579,"lng":-81.52139,"zip":"32703","miles_from_dt":18.83},{"city":"Eastlake Weir","state_name":"Florida","lat":29.01061,"lng":-81.92036,"zip":"32133","miles_from_dt":19.96},{"city":"Ocoee","state_name":"Florida","lat":28.57975,"lng":-81.53386,"zip":"34761","miles_from_dt":20.32},{"city":"Winter Garden","state_name":"Florida","lat":28.49729,"lng":-81.61598,"zip":"34778","miles_from_dt":20.48},{"city":"Sorrento","state_name":"Florida","lat":28.81033,"lng":-81.4872,"zip":"32776","miles_from_dt":20.74},{"city":"Winter Garden","state_name":"Florida","lat":28.48309,"lng":-81.62833,"zip":"34787","miles_from_dt":20.84},{"city":"Winter Park","state_name":"Florida","lat":28.662,"lng":-81.48316,"zip":"32793","miles_from_dt":20.95},{"city":"Apopka","state_name":"Florida","lat":28.61159,"lng":-81.49858,"zip":"32704","miles_from_dt":21.19},{"city":"Clarcona","state_name":"Florida","lat":28.61094,"lng":-81.49633,"zip":"32710","miles_from_dt":21.34},{"city":"Oxford","state_name":"Florida","lat":28.93417,"lng":-82.08867,"zip":"34484","miles_from_dt":21.38},{"city":"Winter Garden","state_name":"Florida","lat":28.48645,"lng":-81.60663,"zip":"34777","miles_from_dt":21.41},{"city":"Webster","state_name":"Florida","lat":28.52675,"lng":-82.08613,"zip":"33597","miles_from_dt":21.71},{"city":"Bushnell","state_name":"Florida","lat":28.66849,"lng":-82.17143,"zip":"33513","miles_from_dt":21.94},{"city":"Orlando","state_name":"Florida","lat":28.59018,"lng":-81.49363,"zip":"32868","miles_from_dt":22.1},{"city":"Orlando","state_name":"Florida","lat":28.59124,"lng":-81.49269,"zip":"32869","miles_from_dt":22.11},{"city":"Ocklawaha","state_name":"Florida","lat":29.04323,"lng":-81.92937,"zip":"32183","miles_from_dt":22.26},{"city":"Gotha","state_name":"Florida","lat":28.5376,"lng":-81.52204,"zip":"34734","miles_from_dt":22.56},{"city":"Orlando","state_name":"Florida","lat":28.58518,"lng":-81.48716,"zip":"32818","miles_from_dt":22.6},{"city":"Eustis","state_name":"Florida","lat":28.89831,"lng":-81.49317,"zip":"32736","miles_from_dt":22.69},{"city":"Summerfield","state_name":"Florida","lat":28.99634,"lng":-82.04665,"zip":"34491","miles_from_dt":22.7},{"city":"Clermont","state_name":"Florida","lat":28.40406,"lng":-81.80132,"zip":"34714","miles_from_dt":22.83},{"city":"Lake Panasoffkee","state_name":"Florida","lat":28.84679,"lng":-82.18218,"zip":"33538","miles_from_dt":23.39},{"city":"Windermere","state_name":"Florida","lat":28.48161,"lng":-81.55501,"zip":"34786","miles_from_dt":23.68},{"city":"Longwood","state_name":"Florida","lat":28.70331,"lng":-81.41995,"zip":"32791","miles_from_dt":24.27},{"city":"Altoona","state_name":"Florida","lat":29.04642,"lng":-81.6259,"zip":"32702","miles_from_dt":24.4},{"city":"Longwood","state_name":"Florida","lat":28.71632,"lng":-81.41343,"zip":"32779","miles_from_dt":24.6},{"city":"Orlando","state_name":"Florida","lat":28.6248,"lng":-81.42959,"zip":"32860","miles_from_dt":24.79},{"city":"Orlando","state_name":"Florida","lat":28.62113,"lng":-81.42863,"zip":"32810","miles_from_dt":24.92},{"city":"Orlando","state_name":"Florida","lat":28.52182,"lng":-81.48473,"zip":"32835","miles_from_dt":25.02},{"city":"Orlando","state_name":"Florida","lat":28.57932,"lng":-81.44342,"zip":"32808","miles_from_dt":25.17},{"city":"Altamonte Springs","state_name":"Florida","lat":28.66237,"lng":-81.4115,"zip":"32714","miles_from_dt":25.19},{"city":"Ocklawaha","state_name":"Florida","lat":29.09631,"lng":-81.89686,"zip":"32179","miles_from_dt":25.32},{"city":"Belleview","state_name":"Florida","lat":29.04924,"lng":-82.03642,"zip":"34421","miles_from_dt":25.36},{"city":"Orlando","state_name":"Florida","lat":28.5542,"lng":-81.44979,"zip":"32858","miles_from_dt":25.61},{"city":"Altamonte Springs","state_name":"Florida","lat":28.66381,"lng":-81.40321,"zip":"32716","miles_from_dt":25.67},{"city":"Belleview","state_name":"Florida","lat":29.05359,"lng":-82.04008,"zip":"34420","miles_from_dt":25.73},{"city":"Longwood","state_name":"Florida","lat":28.71215,"lng":-81.39151,"zip":"32752","miles_from_dt":25.95},{"city":"Paisley","state_name":"Florida","lat":29.01957,"lng":-81.52065,"zip":"32767","miles_from_dt":26.62},{"city":"Orlando","state_name":"Florida","lat":28.51624,"lng":-81.44516,"zip":"32811","miles_from_dt":27.22},{"city":"Orlando","state_name":"Florida","lat":28.51616,"lng":-81.44405,"zip":"32861","miles_from_dt":27.28},{"city":"Inverness","state_name":"Florida","lat":28.82699,"lng":-82.25767,"zip":"34450","miles_from_dt":27.41},{"city":"Altamonte Springs","state_name":"Florida","lat":28.66509,"lng":-81.36916,"zip":"32701","miles_from_dt":27.69},{"city":"Orlando","state_name":"Florida","lat":28.57688,"lng":-81.39748,"zip":"32804","miles_from_dt":27.78},{"city":"Ocala","state_name":"Florida","lat":29.11187,"lng":-81.99625,"zip":"34472","miles_from_dt":28.1},{"city":"Istachatta","state_name":"Florida","lat":28.65891,"lng":-82.27302,"zip":"34636","miles_from_dt":28.12},{"city":"Lake Mary","state_name":"Florida","lat":28.76297,"lng":-81.35499,"zip":"32746","miles_from_dt":28.17},{"city":"Altamonte Springs","state_name":"Florida","lat":28.66674,"lng":-81.35961,"zip":"32715","miles_from_dt":28.24},{"city":"Nobleton","state_name":"Florida","lat":28.62108,"lng":-82.26507,"zip":"34661","miles_from_dt":28.26},{"city":"Orlando","state_name":"Florida","lat":28.38643,"lng":-81.56732,"zip":"32830","miles_from_dt":28.45},{"city":"Maitland","state_name":"Florida","lat":28.631,"lng":-81.36457,"zip":"32751","miles_from_dt":28.46},{"city":"Maitland","state_name":"Florida","lat":28.62762,"lng":-81.36562,"zip":"32794","miles_from_dt":28.46},{"city":"Longwood","state_name":"Florida","lat":28.7074,"lng":-81.34955,"zip":"32750","miles_from_dt":28.51},{"city":"Orlando","state_name":"Florida","lat":28.45565,"lng":-81.472,"zip":"32819","miles_from_dt":28.52},{"city":"Lacoochee","state_name":"Florida","lat":28.46664,"lng":-82.17676,"zip":"33537","miles_from_dt":28.58},{"city":"Orlando","state_name":"Florida","lat":28.41734,"lng":-81.51536,"zip":"32836","miles_from_dt":28.6},{"city":"Orlando","state_name":"Florida","lat":28.56832,"lng":-81.38626,"zip":"32854","miles_from_dt":28.64},{"city":"Floral City","state_name":"Florida","lat":28.72672,"lng":-82.29134,"zip":"34436","miles_from_dt":28.73},{"city":"Orlando","state_name":"Florida","lat":28.52981,"lng":-81.40614,"zip":"32805","miles_from_dt":28.75},{"city":"Mid Florida","state_name":"Florida","lat":28.63023,"lng":-81.35494,"zip":"32799","miles_from_dt":29.04},{"city":"Ocala","state_name":"Florida","lat":29.00506,"lng":-82.18833,"zip":"34473","miles_from_dt":29.14},{"city":"Casselberry","state_name":"Florida","lat":28.65242,"lng":-81.34301,"zip":"32730","miles_from_dt":29.41},{"city":"Lake Mary","state_name":"Florida","lat":28.75885,"lng":-81.3319,"zip":"32795","miles_from_dt":29.56},{"city":"Orlando","state_name":"Florida","lat":28.54,"lng":-81.38219,"zip":"32885","miles_from_dt":29.7},{"city":"Orlando","state_name":"Florida","lat":28.54124,"lng":-81.38082,"zip":"32886","miles_from_dt":29.74},{"city":"Winter Park","state_name":"Florida","lat":28.59977,"lng":-81.35235,"zip":"32789","miles_from_dt":29.79},{"city":"Trilby","state_name":"Florida","lat":28.45861,"lng":-82.19591,"zip":"33593","miles_from_dt":29.83},{"city":"Orlando","state_name":"Florida","lat":28.54381,"lng":-81.37715,"zip":"32802","miles_from_dt":29.86},{"city":"Orlando","state_name":"Florida","lat":28.54464,"lng":-81.3761,"zip":"32877","miles_from_dt":29.89},{"city":"Orlando","state_name":"Florida","lat":28.53896,"lng":-81.37906,"zip":"32897","miles_from_dt":29.9}],"targetCityZipCode":"34797","targetCityState":"Florida"},"__N_SSG":true}