{"pageProps":{"stateName":"Connecticut","cityName":"north-westchester","nearbyCities":[{"city":"Amston","state_name":"Connecticut","lat":41.62512,"lng":-72.37055,"zip":"06231","miles_from_dt":2.92},{"city":"Colchester","state_name":"Connecticut","lat":41.55563,"lng":-72.34694,"zip":"06415","miles_from_dt":3.46},{"city":"Marlborough","state_name":"Connecticut","lat":41.63309,"lng":-72.45472,"zip":"06447","miles_from_dt":4.28},{"city":"East Hampton","state_name":"Connecticut","lat":41.5588,"lng":-72.50452,"zip":"06424","miles_from_dt":5.89},{"city":"Moodus","state_name":"Connecticut","lat":41.50757,"lng":-72.44924,"zip":"06469","miles_from_dt":6.17},{"city":"Hebron","state_name":"Connecticut","lat":41.68468,"lng":-72.40523,"zip":"06248","miles_from_dt":6.67},{"city":"Cobalt","state_name":"Connecticut","lat":41.57702,"lng":-72.55231,"zip":"06414","miles_from_dt":8.04},{"city":"East Haddam","state_name":"Connecticut","lat":41.46654,"lng":-72.39054,"zip":"06423","miles_from_dt":8.4},{"city":"Middle Haddam","state_name":"Connecticut","lat":41.541,"lng":-72.5483,"zip":"06456","miles_from_dt":8.45},{"city":"Columbia","state_name":"Connecticut","lat":41.69387,"lng":-72.30722,"zip":"06237","miles_from_dt":8.67},{"city":"Lebanon","state_name":"Connecticut","lat":41.63128,"lng":-72.24019,"zip":"06249","miles_from_dt":8.69},{"city":"Salem","state_name":"Connecticut","lat":41.48492,"lng":-72.26733,"zip":"06420","miles_from_dt":9.83},{"city":"Portland","state_name":"Connecticut","lat":41.59885,"lng":-72.5893,"zip":"06480","miles_from_dt":9.95},{"city":"South Glastonbury","state_name":"Connecticut","lat":41.65753,"lng":-72.56742,"zip":"06073","miles_from_dt":10},{"city":"East Glastonbury","state_name":"Connecticut","lat":41.69089,"lng":-72.53492,"zip":"06025","miles_from_dt":10.03},{"city":"Andover","state_name":"Connecticut","lat":41.73309,"lng":-72.37603,"zip":"06232","miles_from_dt":10.07},{"city":"Gilman","state_name":"Connecticut","lat":41.57934,"lng":-72.19505,"zip":"06336","miles_from_dt":10.52},{"city":"Haddam","state_name":"Connecticut","lat":41.45516,"lng":-72.50701,"zip":"06438","miles_from_dt":10.78},{"city":"Glastonbury","state_name":"Connecticut","lat":41.70593,"lng":-72.53915,"zip":"06033","miles_from_dt":10.94},{"city":"Hadlyme","state_name":"Connecticut","lat":41.41573,"lng":-72.39964,"zip":"06439","miles_from_dt":11.9},{"city":"Bozrah","state_name":"Connecticut","lat":41.54431,"lng":-72.17424,"zip":"06334","miles_from_dt":11.98},{"city":"Bolton","state_name":"Connecticut","lat":41.76647,"lng":-72.43903,"zip":"06043","miles_from_dt":12.49},{"city":"Higganum","state_name":"Connecticut","lat":41.46674,"lng":-72.58038,"zip":"06441","miles_from_dt":12.64},{"city":"Willimantic","state_name":"Connecticut","lat":41.70816,"lng":-72.20731,"zip":"06226","miles_from_dt":12.88},{"city":"South Windham","state_name":"Connecticut","lat":41.67136,"lng":-72.17048,"zip":"06266","miles_from_dt":13.1},{"city":"North Franklin","state_name":"Connecticut","lat":41.61585,"lng":-72.14313,"zip":"06254","miles_from_dt":13.33},{"city":"Chester","state_name":"Connecticut","lat":41.40594,"lng":-72.48319,"zip":"06412","miles_from_dt":13.33},{"city":"Manchester","state_name":"Connecticut","lat":41.7616,"lng":-72.52247,"zip":"06040","miles_from_dt":13.6},{"city":"Middletown","state_name":"Connecticut","lat":41.54759,"lng":-72.65484,"zip":"06457","miles_from_dt":13.61},{"city":"Coventry","state_name":"Connecticut","lat":41.78281,"lng":-72.33941,"zip":"06238","miles_from_dt":13.77},{"city":"Middletown","state_name":"Connecticut","lat":41.5516,"lng":-72.66017,"zip":"06459","miles_from_dt":13.83},{"city":"Oakdale","state_name":"Connecticut","lat":41.46541,"lng":-72.18659,"zip":"06370","miles_from_dt":13.85},{"city":"Cromwell","state_name":"Connecticut","lat":41.61218,"lng":-72.66382,"zip":"06416","miles_from_dt":13.88},{"city":"Yantic","state_name":"Connecticut","lat":41.56036,"lng":-72.12338,"zip":"06389","miles_from_dt":14.35},{"city":"Manchester","state_name":"Connecticut","lat":41.77495,"lng":-72.52156,"zip":"06041","miles_from_dt":14.39},{"city":"Manchester","state_name":"Connecticut","lat":41.77573,"lng":-72.5232,"zip":"06045","miles_from_dt":14.48},{"city":"Rocky Hill","state_name":"Connecticut","lat":41.6574,"lng":-72.66259,"zip":"06067","miles_from_dt":14.52},{"city":"Windham","state_name":"Connecticut","lat":41.69237,"lng":-72.13829,"zip":"06280","miles_from_dt":15.24},{"city":"Deep River","state_name":"Connecticut","lat":41.36894,"lng":-72.46227,"zip":"06417","miles_from_dt":15.49},{"city":"East Hartford","state_name":"Connecticut","lat":41.74871,"lng":-72.60976,"zip":"06118","miles_from_dt":15.59},{"city":"Wethersfield","state_name":"Connecticut","lat":41.70859,"lng":-72.65977,"zip":"06129","miles_from_dt":15.9},{"city":"Manchester","state_name":"Connecticut","lat":41.79743,"lng":-72.52704,"zip":"06042","miles_from_dt":15.91},{"city":"Old Lyme","state_name":"Connecticut","lat":41.36361,"lng":-72.32582,"zip":"06371","miles_from_dt":15.94},{"city":"Hartford","state_name":"Connecticut","lat":41.70107,"lng":-72.66746,"zip":"06161","miles_from_dt":15.99},{"city":"East Lyme","state_name":"Connecticut","lat":41.38602,"lng":-72.24527,"zip":"06333","miles_from_dt":16.04},{"city":"Wethersfield","state_name":"Connecticut","lat":41.70131,"lng":-72.67035,"zip":"06109","miles_from_dt":16.12},{"city":"Rockfall","state_name":"Connecticut","lat":41.53435,"lng":-72.70067,"zip":"06481","miles_from_dt":16.13},{"city":"North Windham","state_name":"Connecticut","lat":41.73699,"lng":-72.15723,"zip":"06256","miles_from_dt":16.14},{"city":"Essex","state_name":"Connecticut","lat":41.35346,"lng":-72.39791,"zip":"06426","miles_from_dt":16.2},{"city":"Montville","state_name":"Connecticut","lat":41.45612,"lng":-72.13928,"zip":"06353","miles_from_dt":16.21},{"city":"Norwich","state_name":"Connecticut","lat":41.54883,"lng":-72.08914,"zip":"06360","miles_from_dt":16.23},{"city":"East Hartford","state_name":"Connecticut","lat":41.76168,"lng":-72.61261,"zip":"06138","miles_from_dt":16.34},{"city":"Centerbrook","state_name":"Connecticut","lat":41.35169,"lng":-72.42056,"zip":"06409","miles_from_dt":16.36},{"city":"Storrs Mansfield","state_name":"Connecticut","lat":41.79852,"lng":-72.24843,"zip":"06268","miles_from_dt":16.45},{"city":"Mansfield Center","state_name":"Connecticut","lat":41.77434,"lng":-72.19669,"zip":"06250","miles_from_dt":16.53},{"city":"Mansfield Depot","state_name":"Connecticut","lat":41.81589,"lng":-72.286,"zip":"06251","miles_from_dt":16.75},{"city":"East Berlin","state_name":"Connecticut","lat":41.61355,"lng":-72.72072,"zip":"06023","miles_from_dt":16.82},{"city":"Uncasville","state_name":"Connecticut","lat":41.46137,"lng":-72.11762,"zip":"06382","miles_from_dt":16.96},{"city":"Scotland","state_name":"Connecticut","lat":41.69869,"lng":-72.10487,"zip":"06264","miles_from_dt":16.98},{"city":"Storrs Mansfield","state_name":"Connecticut","lat":41.80998,"lng":-72.25283,"zip":"06269","miles_from_dt":17.05},{"city":"Baltic","state_name":"Connecticut","lat":41.64199,"lng":-72.07541,"zip":"06330","miles_from_dt":17.11},{"city":"Ivoryton","state_name":"Connecticut","lat":41.34261,"lng":-72.44429,"zip":"06442","miles_from_dt":17.12},{"city":"Durham","state_name":"Connecticut","lat":41.46221,"lng":-72.68285,"zip":"06422","miles_from_dt":17.15},{"city":"Killingworth","state_name":"Connecticut","lat":41.37923,"lng":-72.57847,"zip":"06419","miles_from_dt":17.2},{"city":"Middlefield","state_name":"Connecticut","lat":41.51468,"lng":-72.71732,"zip":"06455","miles_from_dt":17.32},{"city":"Vernon Rockville","state_name":"Connecticut","lat":41.83641,"lng":-72.46063,"zip":"06066","miles_from_dt":17.44},{"city":"Hartford","state_name":"Connecticut","lat":41.7394,"lng":-72.66949,"zip":"06114","miles_from_dt":17.51},{"city":"Hanover","state_name":"Connecticut","lat":41.64829,"lng":-72.0693,"zip":"06350","miles_from_dt":17.51},{"city":"East Hartford","state_name":"Connecticut","lat":41.78078,"lng":-72.62165,"zip":"06108","miles_from_dt":17.63},{"city":"East Hartford","state_name":"Connecticut","lat":41.78177,"lng":-72.62246,"zip":"06128","miles_from_dt":17.71},{"city":"Taftville","state_name":"Connecticut","lat":41.56533,"lng":-72.05308,"zip":"06380","miles_from_dt":17.93},{"city":"Versailles","state_name":"Connecticut","lat":41.60059,"lng":-72.04304,"zip":"06383","miles_from_dt":18.4},{"city":"Hartford","state_name":"Connecticut","lat":41.68815,"lng":-72.72886,"zip":"06153","miles_from_dt":18.48},{"city":"Newington","state_name":"Connecticut","lat":41.68677,"lng":-72.73057,"zip":"06111","miles_from_dt":18.52},{"city":"Newington","state_name":"Connecticut","lat":41.68869,"lng":-72.72981,"zip":"06131","miles_from_dt":18.53},{"city":"Hartford","state_name":"Connecticut","lat":41.76056,"lng":-72.67405,"zip":"06115","miles_from_dt":18.6},{"city":"Hartford","state_name":"Connecticut","lat":41.76477,"lng":-72.67012,"zip":"06103","miles_from_dt":18.63},{"city":"Hartford","state_name":"Connecticut","lat":41.76595,"lng":-72.67006,"zip":"06102","miles_from_dt":18.68},{"city":"Hartford","state_name":"Connecticut","lat":41.76841,"lng":-72.66918,"zip":"06176","miles_from_dt":18.76},{"city":"Hartford","state_name":"Connecticut","lat":41.7663,"lng":-72.67312,"zip":"06151","miles_from_dt":18.82},{"city":"Hartford","state_name":"Connecticut","lat":41.76567,"lng":-72.67516,"zip":"06150","miles_from_dt":18.87},{"city":"Quaker Hill","state_name":"Connecticut","lat":41.40544,"lng":-72.12554,"zip":"06375","miles_from_dt":18.94},{"city":"Hartford","state_name":"Connecticut","lat":41.74818,"lng":-72.69683,"zip":"06106","miles_from_dt":19.01},{"city":"Hartford","state_name":"Connecticut","lat":41.75706,"lng":-72.68864,"zip":"06152","miles_from_dt":19.03},{"city":"South Willington","state_name":"Connecticut","lat":41.85452,"lng":-72.30189,"zip":"06265","miles_from_dt":19.04},{"city":"Hartford","state_name":"Connecticut","lat":41.76651,"lng":-72.67999,"zip":"06126","miles_from_dt":19.1},{"city":"West Hartford","state_name":"Connecticut","lat":41.76671,"lng":-72.68228,"zip":"06127","miles_from_dt":19.19},{"city":"Hartford","state_name":"Connecticut","lat":41.76646,"lng":-72.6827,"zip":"06134","miles_from_dt":19.2},{"city":"Hartford","state_name":"Connecticut","lat":41.76401,"lng":-72.68595,"zip":"06183","miles_from_dt":19.22},{"city":"Hartford","state_name":"Connecticut","lat":41.76832,"lng":-72.68292,"zip":"06167","miles_from_dt":19.29},{"city":"Hartford","state_name":"Connecticut","lat":41.76565,"lng":-72.68609,"zip":"06123","miles_from_dt":19.3},{"city":"South Windsor","state_name":"Connecticut","lat":41.83528,"lng":-72.57332,"zip":"06074","miles_from_dt":19.32},{"city":"Hartford","state_name":"Connecticut","lat":41.7687,"lng":-72.68351,"zip":"06132","miles_from_dt":19.33},{"city":"West Hartford","state_name":"Connecticut","lat":41.75322,"lng":-72.70404,"zip":"06133","miles_from_dt":19.51},{"city":"Hartford","state_name":"Connecticut","lat":41.78822,"lng":-72.66567,"zip":"06101","miles_from_dt":19.56},{"city":"Hartford","state_name":"Connecticut","lat":41.78857,"lng":-72.66512,"zip":"06146","miles_from_dt":19.56},{"city":"Hartford","state_name":"Connecticut","lat":41.78982,"lng":-72.6637,"zip":"06140","miles_from_dt":19.57},{"city":"Hartford","state_name":"Connecticut","lat":41.7889,"lng":-72.66525,"zip":"06104","miles_from_dt":19.58},{"city":"Hartford","state_name":"Connecticut","lat":41.78944,"lng":-72.66523,"zip":"06120","miles_from_dt":19.6},{"city":"Berlin","state_name":"Connecticut","lat":41.61148,"lng":-72.7775,"zip":"06037","miles_from_dt":19.73},{"city":"Westbrook","state_name":"Connecticut","lat":41.30688,"lng":-72.46652,"zip":"06498","miles_from_dt":19.74},{"city":"Hartford","state_name":"Connecticut","lat":41.79222,"lng":-72.66532,"zip":"06141","miles_from_dt":19.74},{"city":"Old Saybrook","state_name":"Connecticut","lat":41.30174,"lng":-72.38569,"zip":"06475","miles_from_dt":19.78},{"city":"Hartford","state_name":"Connecticut","lat":41.79111,"lng":-72.66868,"zip":"06147","miles_from_dt":19.81},{"city":"Hartford","state_name":"Connecticut","lat":41.79084,"lng":-72.66892,"zip":"06143","miles_from_dt":19.81},{"city":"Hartford","state_name":"Connecticut","lat":41.79182,"lng":-72.66828,"zip":"06145","miles_from_dt":19.83},{"city":"Hartford","state_name":"Connecticut","lat":41.79073,"lng":-72.66999,"zip":"06144","miles_from_dt":19.84},{"city":"Meriden","state_name":"Connecticut","lat":41.53332,"lng":-72.77399,"zip":"06450","miles_from_dt":19.86},{"city":"Chaplin","state_name":"Connecticut","lat":41.79292,"lng":-72.1275,"zip":"06235","miles_from_dt":19.88},{"city":"New Britain","state_name":"Connecticut","lat":41.66519,"lng":-72.76983,"zip":"06051","miles_from_dt":19.98},{"city":"West Hartford","state_name":"Connecticut","lat":41.73247,"lng":-72.73378,"zip":"06110","miles_from_dt":20.04},{"city":"Tolland","state_name":"Connecticut","lat":41.87917,"lng":-72.36443,"zip":"06084","miles_from_dt":20.16},{"city":"Hartford","state_name":"Connecticut","lat":41.776,"lng":-72.69747,"zip":"06142","miles_from_dt":20.21},{"city":"Waterford","state_name":"Connecticut","lat":41.35735,"lng":-72.15581,"zip":"06385","miles_from_dt":20.29},{"city":"Hartford","state_name":"Connecticut","lat":41.77322,"lng":-72.70442,"zip":"06105","miles_from_dt":20.36},{"city":"Niantic","state_name":"Connecticut","lat":41.32711,"lng":-72.21478,"zip":"06357","miles_from_dt":20.37},{"city":"Hartford","state_name":"Connecticut","lat":41.77149,"lng":-72.70781,"zip":"06160","miles_from_dt":20.43},{"city":"Hartford","state_name":"Connecticut","lat":41.77312,"lng":-72.70705,"zip":"06154","miles_from_dt":20.47},{"city":"Groton","state_name":"Connecticut","lat":41.40194,"lng":-72.08928,"zip":"06349","miles_from_dt":20.53},{"city":"Gales Ferry","state_name":"Connecticut","lat":41.42943,"lng":-72.06247,"zip":"06335","miles_from_dt":20.56},{"city":"New Britain","state_name":"Connecticut","lat":41.67363,"lng":-72.77882,"zip":"06050","miles_from_dt":20.59},{"city":"Madison","state_name":"Connecticut","lat":41.33976,"lng":-72.62783,"zip":"06443","miles_from_dt":20.89},{"city":"West Hartford","state_name":"Connecticut","lat":41.76351,"lng":-72.72711,"zip":"06119","miles_from_dt":20.9},{"city":"Hartford","state_name":"Connecticut","lat":41.75895,"lng":-72.73209,"zip":"06156","miles_from_dt":20.93},{"city":"Hartford","state_name":"Connecticut","lat":41.79317,"lng":-72.69741,"zip":"06112","miles_from_dt":20.98},{"city":"Preston","state_name":"Connecticut","lat":41.52281,"lng":-72.00072,"zip":"06365","miles_from_dt":21.07},{"city":"Clinton","state_name":"Connecticut","lat":41.29801,"lng":-72.53003,"zip":"06413","miles_from_dt":21.17},{"city":"Hampton","state_name":"Connecticut","lat":41.76829,"lng":-72.06548,"zip":"06247","miles_from_dt":21.22},{"city":"Hartford","state_name":"Connecticut","lat":41.75716,"lng":-72.74358,"zip":"06155","miles_from_dt":21.36},{"city":"South Lyme","state_name":"Connecticut","lat":41.29461,"lng":-72.2528,"zip":"06376","miles_from_dt":21.61},{"city":"New Britain","state_name":"Connecticut","lat":41.65736,"lng":-72.80506,"zip":"06052","miles_from_dt":21.62},{"city":"New Britain","state_name":"Connecticut","lat":41.68874,"lng":-72.7941,"zip":"06053","miles_from_dt":21.66},{"city":"East Windsor Hill","state_name":"Connecticut","lat":41.86415,"lng":-72.5999,"zip":"06028","miles_from_dt":21.72},{"city":"Canterbury","state_name":"Connecticut","lat":41.69717,"lng":-72.00109,"zip":"06331","miles_from_dt":21.87},{"city":"West Hartford","state_name":"Connecticut","lat":41.75375,"lng":-72.75966,"zip":"06107","miles_from_dt":21.94},{"city":"Willington","state_name":"Connecticut","lat":41.88959,"lng":-72.25933,"zip":"06279","miles_from_dt":22},{"city":"Hartford","state_name":"Connecticut","lat":41.75757,"lng":-72.76472,"zip":"06180","miles_from_dt":22.3},{"city":"Meriden","state_name":"Connecticut","lat":41.54203,"lng":-72.82364,"zip":"06451","miles_from_dt":22.3},{"city":"Windsor","state_name":"Connecticut","lat":41.85424,"lng":-72.64405,"zip":"06006","miles_from_dt":22.34},{"city":"New London","state_name":"Connecticut","lat":41.35026,"lng":-72.10225,"zip":"06320","miles_from_dt":22.47},{"city":"Ellington","state_name":"Connecticut","lat":41.91439,"lng":-72.4535,"zip":"06029","miles_from_dt":22.7},{"city":"Wallingford","state_name":"Connecticut","lat":41.46,"lng":-72.80219,"zip":"06495","miles_from_dt":22.76},{"city":"Wallingford","state_name":"Connecticut","lat":41.45927,"lng":-72.80473,"zip":"06492","miles_from_dt":22.9},{"city":"Ledyard","state_name":"Connecticut","lat":41.44408,"lng":-71.99851,"zip":"06339","miles_from_dt":22.98},{"city":"Broad Brook","state_name":"Connecticut","lat":41.90417,"lng":-72.54438,"zip":"06016","miles_from_dt":23.09},{"city":"Wallingford","state_name":"Connecticut","lat":41.4868,"lng":-72.82276,"zip":"06493","miles_from_dt":23.12},{"city":"Wallingford","state_name":"Connecticut","lat":41.46962,"lng":-72.81805,"zip":"06494","miles_from_dt":23.28},{"city":"Jewett City","state_name":"Connecticut","lat":41.58873,"lng":-71.94854,"zip":"06351","miles_from_dt":23.28},{"city":"West Hartford","state_name":"Connecticut","lat":41.7875,"lng":-72.76203,"zip":"06117","miles_from_dt":23.33},{"city":"Guilford","state_name":"Connecticut","lat":41.33444,"lng":-72.70051,"zip":"06437","miles_from_dt":23.53},{"city":"Mashantucket","state_name":"Connecticut","lat":41.46473,"lng":-71.97281,"zip":"06338","miles_from_dt":23.63},{"city":"Ashford","state_name":"Connecticut","lat":41.89126,"lng":-72.17003,"zip":"06278","miles_from_dt":24},{"city":"East Windsor","state_name":"Connecticut","lat":41.9058,"lng":-72.59646,"zip":"06088","miles_from_dt":24.21},{"city":"West Hartford","state_name":"Connecticut","lat":41.58449,"lng":-72.86534,"zip":"06137","miles_from_dt":24.22},{"city":"Windsor","state_name":"Connecticut","lat":41.87229,"lng":-72.67348,"zip":"06095","miles_from_dt":24.24},{"city":"Northford","state_name":"Connecticut","lat":41.38416,"lng":-72.77911,"zip":"06472","miles_from_dt":24.28},{"city":"Groton","state_name":"Connecticut","lat":41.35643,"lng":-72.04477,"zip":"06340","miles_from_dt":24.32},{"city":"Farmington","state_name":"Connecticut","lat":41.72528,"lng":-72.83147,"zip":"06032","miles_from_dt":24.36},{"city":"Farmington","state_name":"Connecticut","lat":41.71177,"lng":-72.83934,"zip":"06030","miles_from_dt":24.39},{"city":"Southington","state_name":"Connecticut","lat":41.61312,"lng":-72.87233,"zip":"06489","miles_from_dt":24.64},{"city":"Plainville","state_name":"Connecticut","lat":41.67338,"lng":-72.86079,"zip":"06062","miles_from_dt":24.68},{"city":"Bloomfield","state_name":"Connecticut","lat":41.84286,"lng":-72.73714,"zip":"06002","miles_from_dt":24.84},{"city":"Plainfield","state_name":"Connecticut","lat":41.6798,"lng":-71.91441,"zip":"06374","miles_from_dt":25.82},{"city":"Farmington","state_name":"Connecticut","lat":41.70891,"lng":-72.87348,"zip":"06034","miles_from_dt":25.99},{"city":"Milldale","state_name":"Connecticut","lat":41.56548,"lng":-72.90022,"zip":"06467","miles_from_dt":26.08},{"city":"Eastford","state_name":"Connecticut","lat":41.89326,"lng":-72.09706,"zip":"06242","miles_from_dt":26.17},{"city":"North Branford","state_name":"Connecticut","lat":41.33454,"lng":-72.77372,"zip":"06471","miles_from_dt":26.21},{"city":"Plantsville","state_name":"Connecticut","lat":41.57799,"lng":-72.90398,"zip":"06479","miles_from_dt":26.24},{"city":"Old Mystic","state_name":"Connecticut","lat":41.39059,"lng":-71.96288,"zip":"06372","miles_from_dt":26.37},{"city":"Poquonock","state_name":"Connecticut","lat":41.90596,"lng":-72.68268,"zip":"06064","miles_from_dt":26.42},{"city":"Abington","state_name":"Connecticut","lat":41.84652,"lng":-72.01367,"zip":"06230","miles_from_dt":26.69},{"city":"Mystic","state_name":"Connecticut","lat":41.36857,"lng":-71.97426,"zip":"06355","miles_from_dt":26.7},{"city":"Cheshire","state_name":"Connecticut","lat":41.51183,"lng":-72.90441,"zip":"06410","miles_from_dt":26.79},{"city":"Cheshire","state_name":"Connecticut","lat":41.49889,"lng":-72.90111,"zip":"06408","miles_from_dt":26.81},{"city":"Cheshire","state_name":"Connecticut","lat":41.4997,"lng":-72.90181,"zip":"06411","miles_from_dt":26.83},{"city":"Windsor Locks","state_name":"Connecticut","lat":41.92671,"lng":-72.65443,"zip":"06096","miles_from_dt":26.87},{"city":"Hartford","state_name":"Connecticut","lat":41.92683,"lng":-72.65442,"zip":"06199","miles_from_dt":26.87},{"city":"Brooklyn","state_name":"Connecticut","lat":41.78938,"lng":-71.95266,"zip":"06234","miles_from_dt":26.89},{"city":"Central Village","state_name":"Connecticut","lat":41.72845,"lng":-71.91008,"zip":"06332","miles_from_dt":27.04},{"city":"West Mystic","state_name":"Connecticut","lat":41.35056,"lng":-71.9825,"zip":"06388","miles_from_dt":27.09},{"city":"Avon","state_name":"Connecticut","lat":41.79185,"lng":-72.85107,"zip":"06001","miles_from_dt":27.34},{"city":"Wauregan","state_name":"Connecticut","lat":41.74418,"lng":-71.90981,"zip":"06387","miles_from_dt":27.45},{"city":"Marion","state_name":"Connecticut","lat":41.5634,"lng":-72.93038,"zip":"06444","miles_from_dt":27.65},{"city":"Unionville","state_name":"Connecticut","lat":41.74717,"lng":-72.88883,"zip":"06085","miles_from_dt":27.68},{"city":"North Haven","state_name":"Connecticut","lat":41.38069,"lng":-72.85598,"zip":"06473","miles_from_dt":27.75},{"city":"Somersville","state_name":"Connecticut","lat":41.98465,"lng":-72.4876,"zip":"06072","miles_from_dt":27.75},{"city":"Suffield","state_name":"Connecticut","lat":41.95044,"lng":-72.63519,"zip":"06080","miles_from_dt":27.85},{"city":"Weatogue","state_name":"Connecticut","lat":41.83801,"lng":-72.82343,"zip":"06089","miles_from_dt":27.96},{"city":"Stafford","state_name":"Connecticut","lat":41.98793,"lng":-72.28708,"zip":"06075","miles_from_dt":28.18},{"city":"Somers","state_name":"Connecticut","lat":41.99489,"lng":-72.45213,"zip":"06071","miles_from_dt":28.21},{"city":"North Stonington","state_name":"Connecticut","lat":41.46966,"lng":-71.87546,"zip":"06359","miles_from_dt":28.3},{"city":"Enfield","state_name":"Connecticut","lat":41.98393,"lng":-72.55475,"zip":"06082","miles_from_dt":28.49},{"city":"Stafford Springs","state_name":"Connecticut","lat":41.98906,"lng":-72.26224,"zip":"06076","miles_from_dt":28.54},{"city":"Pomfret Center","state_name":"Connecticut","lat":41.8703,"lng":-71.99248,"zip":"06259","miles_from_dt":28.61},{"city":"New Haven","state_name":"Connecticut","lat":41.43221,"lng":-72.90928,"zip":"06538","miles_from_dt":28.63},{"city":"New Haven","state_name":"Connecticut","lat":41.43143,"lng":-72.91048,"zip":"06537","miles_from_dt":28.71},{"city":"Bristol","state_name":"Connecticut","lat":41.681,"lng":-72.94065,"zip":"06010","miles_from_dt":28.83},{"city":"Stonington","state_name":"Connecticut","lat":41.38039,"lng":-71.91376,"zip":"06378","miles_from_dt":28.92},{"city":"Hamden","state_name":"Connecticut","lat":41.42744,"lng":-72.91339,"zip":"06518","miles_from_dt":28.95},{"city":"Staffordville","state_name":"Connecticut","lat":41.99494,"lng":-72.26029,"zip":"06077","miles_from_dt":28.96},{"city":"Bristol","state_name":"Connecticut","lat":41.67746,"lng":-72.94628,"zip":"06011","miles_from_dt":29.06},{"city":"Tariffville","state_name":"Connecticut","lat":41.90708,"lng":-72.76839,"zip":"06081","miles_from_dt":29.18},{"city":"Moosup","state_name":"Connecticut","lat":41.69836,"lng":-71.85016,"zip":"06354","miles_from_dt":29.35},{"city":"Voluntown","state_name":"Connecticut","lat":41.58188,"lng":-71.83139,"zip":"06384","miles_from_dt":29.35},{"city":"Simsbury","state_name":"Connecticut","lat":41.87674,"lng":-72.81626,"zip":"06070","miles_from_dt":29.4},{"city":"Branford","state_name":"Connecticut","lat":41.28405,"lng":-72.79809,"zip":"06405","miles_from_dt":29.54},{"city":"Woodstock Valley","state_name":"Connecticut","lat":41.94556,"lng":-72.07928,"zip":"06282","miles_from_dt":29.65},{"city":"Enfield","state_name":"Connecticut","lat":41.99818,"lng":-72.57639,"zip":"06083","miles_from_dt":29.76},{"city":"Wolcott","state_name":"Connecticut","lat":41.60102,"lng":-72.97325,"zip":"06716","miles_from_dt":29.82}],"targetCityZipCode":"06474","targetCityState":"Connecticut"},"__N_SSG":true}