{"pageProps":{"stateName":"Connecticut","cityName":"norwalk","nearbyCities":[{"city":"Norwalk","state_name":"Connecticut","lat":41.13047,"lng":-73.44044,"zip":"06858","miles_from_dt":0.32},{"city":"Norwalk","state_name":"Connecticut","lat":41.11103,"lng":-73.42261,"zip":"06856","miles_from_dt":1.5},{"city":"Norwalk","state_name":"Connecticut","lat":41.09475,"lng":-73.43407,"zip":"06857","miles_from_dt":2.23},{"city":"Norwalk","state_name":"Connecticut","lat":41.13948,"lng":-73.40387,"zip":"06851","miles_from_dt":2.24},{"city":"Norwalk","state_name":"Connecticut","lat":41.09148,"lng":-73.42972,"zip":"06854","miles_from_dt":2.5},{"city":"Norwalk","state_name":"Connecticut","lat":41.0936,"lng":-73.41726,"zip":"06852","miles_from_dt":2.63},{"city":"Norwalk","state_name":"Connecticut","lat":41.0864,"lng":-73.47559,"zip":"06860","miles_from_dt":3.23},{"city":"Norwalk","state_name":"Connecticut","lat":41.08922,"lng":-73.39615,"zip":"06855","miles_from_dt":3.55},{"city":"New Canaan","state_name":"Connecticut","lat":41.15925,"lng":-73.49916,"zip":"06840","miles_from_dt":3.7},{"city":"Darien","state_name":"Connecticut","lat":41.07983,"lng":-73.48242,"zip":"06820","miles_from_dt":3.81},{"city":"Norwalk","state_name":"Connecticut","lat":41.06962,"lng":-73.43775,"zip":"06853","miles_from_dt":3.92},{"city":"Westport","state_name":"Connecticut","lat":41.13776,"lng":-73.36503,"zip":"06881","miles_from_dt":4.15},{"city":"Stamford","state_name":"Connecticut","lat":41.1021,"lng":-73.52033,"zip":"06907","miles_from_dt":4.36},{"city":"Westport","state_name":"Connecticut","lat":41.14237,"lng":-73.36012,"zip":"06889","miles_from_dt":4.47},{"city":"Westport","state_name":"Connecticut","lat":41.12005,"lng":-73.34642,"zip":"06888","miles_from_dt":5.07},{"city":"Westport","state_name":"Connecticut","lat":41.14379,"lng":-73.34698,"zip":"06880","miles_from_dt":5.16},{"city":"Stamford","state_name":"Connecticut","lat":41.07244,"lng":-73.52217,"zip":"06906","miles_from_dt":5.55},{"city":"Wilton","state_name":"Connecticut","lat":41.20705,"lng":-73.44009,"zip":"06897","miles_from_dt":5.57},{"city":"Stamford","state_name":"Connecticut","lat":41.08792,"lng":-73.54351,"zip":"06905","miles_from_dt":5.87},{"city":"Stamford","state_name":"Connecticut","lat":41.09997,"lng":-73.55154,"zip":"06914","miles_from_dt":5.94},{"city":"Greens Farms","state_name":"Connecticut","lat":41.12294,"lng":-73.31809,"zip":"06838","miles_from_dt":6.53},{"city":"Stamford","state_name":"Connecticut","lat":41.13571,"lng":-73.57207,"zip":"06903","miles_from_dt":6.76},{"city":"Stamford","state_name":"Connecticut","lat":41.05512,"lng":-73.54068,"zip":"06912","miles_from_dt":7.07},{"city":"Stamford","state_name":"Connecticut","lat":41.05349,"lng":-73.53845,"zip":"06901","miles_from_dt":7.07},{"city":"Stamford","state_name":"Connecticut","lat":41.05949,"lng":-73.54751,"zip":"06902","miles_from_dt":7.14},{"city":"Stamford","state_name":"Connecticut","lat":41.05007,"lng":-73.53897,"zip":"06913","miles_from_dt":7.26},{"city":"Stamford","state_name":"Connecticut","lat":41.05114,"lng":-73.54054,"zip":"06904","miles_from_dt":7.26},{"city":"Stamford","state_name":"Connecticut","lat":41.04383,"lng":-73.54811,"zip":"06927","miles_from_dt":7.9},{"city":"Stamford","state_name":"Connecticut","lat":41.04444,"lng":-73.54963,"zip":"06910","miles_from_dt":7.93},{"city":"Weston","state_name":"Connecticut","lat":41.22842,"lng":-73.37256,"zip":"06883","miles_from_dt":7.95},{"city":"Stamford","state_name":"Connecticut","lat":41.04026,"lng":-73.54805,"zip":"06926","miles_from_dt":8.08},{"city":"Southport","state_name":"Connecticut","lat":41.14639,"lng":-73.28944,"zip":"06890","miles_from_dt":8.14},{"city":"Stamford","state_name":"Connecticut","lat":41.04136,"lng":-73.56248,"zip":"06911","miles_from_dt":8.55},{"city":"Cos Cob","state_name":"Connecticut","lat":41.0611,"lng":-73.59215,"zip":"06807","miles_from_dt":8.99},{"city":"Pound Ridge","state_name":"New York","lat":41.21323,"lng":-73.57289,"zip":"10576","miles_from_dt":9.04},{"city":"Georgetown","state_name":"Connecticut","lat":41.25759,"lng":-73.43245,"zip":"06829","miles_from_dt":9.08},{"city":"Fairfield","state_name":"Connecticut","lat":41.17571,"lng":-73.28111,"zip":"06824","miles_from_dt":9.11},{"city":"Old Greenwich","state_name":"Connecticut","lat":41.02881,"lng":-73.56964,"zip":"06870","miles_from_dt":9.43},{"city":"Riverside","state_name":"Connecticut","lat":41.03191,"lng":-73.58283,"zip":"06878","miles_from_dt":9.78},{"city":"South Salem","state_name":"New York","lat":41.25421,"lng":-73.53719,"zip":"10590","miles_from_dt":10.1},{"city":"Ridgefield","state_name":"Connecticut","lat":41.27254,"lng":-73.49702,"zip":"06879","miles_from_dt":10.47},{"city":"Bedford","state_name":"New York","lat":41.1889,"lng":-73.63411,"zip":"10506","miles_from_dt":10.86},{"city":"Greenwich","state_name":"Connecticut","lat":41.048,"lng":-73.624,"zip":"06830","miles_from_dt":10.88},{"city":"Fairfield","state_name":"Connecticut","lat":41.19685,"lng":-73.24221,"zip":"06825","miles_from_dt":11.56},{"city":"Greenwich","state_name":"Connecticut","lat":41.08782,"lng":-73.66078,"zip":"06831","miles_from_dt":11.66},{"city":"Fairfield","state_name":"Connecticut","lat":41.21827,"lng":-73.25276,"zip":"06828","miles_from_dt":11.78},{"city":"Greenwich","state_name":"Connecticut","lat":41.02276,"lng":-73.62845,"zip":"06836","miles_from_dt":12.03},{"city":"Bridgeport","state_name":"Connecticut","lat":41.16348,"lng":-73.21763,"zip":"06605","miles_from_dt":12.04},{"city":"Easton","state_name":"Connecticut","lat":41.26493,"lng":-73.30006,"zip":"06612","miles_from_dt":12.13},{"city":"Redding","state_name":"Connecticut","lat":41.3051,"lng":-73.39139,"zip":"06896","miles_from_dt":12.63},{"city":"Cross River","state_name":"New York","lat":41.26787,"lng":-73.60073,"zip":"10518","miles_from_dt":12.76},{"city":"Ridgefield","state_name":"Connecticut","lat":41.30642,"lng":-73.50216,"zip":"06877","miles_from_dt":12.8},{"city":"Bridgeport","state_name":"Connecticut","lat":41.17645,"lng":-73.20293,"zip":"06601","miles_from_dt":13},{"city":"Bridgeport","state_name":"Connecticut","lat":41.17365,"lng":-73.20047,"zip":"06602","miles_from_dt":13.07},{"city":"Bridgeport","state_name":"Connecticut","lat":41.17684,"lng":-73.20027,"zip":"06604","miles_from_dt":13.14},{"city":"Bridgeport","state_name":"Connecticut","lat":41.21218,"lng":-73.20829,"zip":"06606","miles_from_dt":13.61},{"city":"Armonk","state_name":"New York","lat":41.13065,"lng":-73.70629,"zip":"10504","miles_from_dt":13.73},{"city":"Waccabuc","state_name":"New York","lat":41.29423,"lng":-73.59703,"zip":"10597","miles_from_dt":14.09},{"city":"Redding Ridge","state_name":"Connecticut","lat":41.31964,"lng":-73.35588,"zip":"06876","miles_from_dt":14.1},{"city":"Redding Center","state_name":"Connecticut","lat":41.32404,"lng":-73.37014,"zip":"06875","miles_from_dt":14.17},{"city":"Bridgeport","state_name":"Connecticut","lat":41.18675,"lng":-73.1809,"zip":"06608","miles_from_dt":14.3},{"city":"Port Chester","state_name":"New York","lat":41.01676,"lng":-73.67735,"zip":"10573","miles_from_dt":14.38},{"city":"Bedford Hills","state_name":"New York","lat":41.22879,"lng":-73.6878,"zip":"10507","miles_from_dt":14.58},{"city":"Bridgeport","state_name":"Connecticut","lat":41.1736,"lng":-73.16696,"zip":"06607","miles_from_dt":14.77},{"city":"Bridgeport","state_name":"Connecticut","lat":41.20457,"lng":-73.16933,"zip":"06610","miles_from_dt":15.27},{"city":"Mount Kisco","state_name":"New York","lat":41.19981,"lng":-73.72028,"zip":"10549","miles_from_dt":15.32},{"city":"Trumbull","state_name":"Connecticut","lat":41.26009,"lng":-73.20823,"zip":"06611","miles_from_dt":15.34},{"city":"Purchase","state_name":"New York","lat":41.03755,"lng":-73.71349,"zip":"10577","miles_from_dt":15.39},{"city":"Bridgeport","state_name":"Connecticut","lat":41.18427,"lng":-73.14814,"zip":"06673","miles_from_dt":15.9},{"city":"Northport","state_name":"New York","lat":40.91052,"lng":-73.32611,"zip":"11768","miles_from_dt":16.1},{"city":"West Harrison","state_name":"New York","lat":41.06013,"lng":-73.73955,"zip":"10604","miles_from_dt":16.13},{"city":"Katonah","state_name":"New York","lat":41.26971,"lng":-73.68943,"zip":"10536","miles_from_dt":16.21},{"city":"Goldens Bridge","state_name":"New York","lat":41.29388,"lng":-73.66171,"zip":"10526","miles_from_dt":16.23},{"city":"Bayville","state_name":"New York","lat":40.90665,"lng":-73.56005,"zip":"11709","miles_from_dt":16.34},{"city":"Stratford","state_name":"Connecticut","lat":41.17082,"lng":-73.13477,"zip":"06615","miles_from_dt":16.38},{"city":"Centerport","state_name":"New York","lat":40.89362,"lng":-73.37009,"zip":"11721","miles_from_dt":16.5},{"city":"North Salem","state_name":"New York","lat":41.33303,"lng":-73.60264,"zip":"10560","miles_from_dt":16.51},{"city":"Bridgeport","state_name":"Connecticut","lat":41.19116,"lng":-73.13801,"zip":"06699","miles_from_dt":16.53},{"city":"Rye","state_name":"New York","lat":40.97854,"lng":-73.69258,"zip":"10580","miles_from_dt":16.54},{"city":"Huntington","state_name":"New York","lat":40.88018,"lng":-73.4266,"zip":"11743","miles_from_dt":17.01},{"city":"Thornwood","state_name":"New York","lat":41.11579,"lng":-73.771,"zip":"10594","miles_from_dt":17.12},{"city":"Danbury","state_name":"Connecticut","lat":41.37627,"lng":-73.45904,"zip":"06810","miles_from_dt":17.27},{"city":"Bethel","state_name":"Connecticut","lat":41.37468,"lng":-73.39275,"zip":"06801","miles_from_dt":17.34},{"city":"Chappaqua","state_name":"New York","lat":41.17331,"lng":-73.77071,"zip":"10514","miles_from_dt":17.39},{"city":"White Plains","state_name":"New York","lat":41.0095,"lng":-73.74518,"zip":"10605","miles_from_dt":17.71},{"city":"Harrison","state_name":"New York","lat":40.97819,"lng":-73.72306,"zip":"10528","miles_from_dt":17.84},{"city":"Valhalla","state_name":"New York","lat":41.08626,"lng":-73.78097,"zip":"10595","miles_from_dt":17.85},{"city":"Purdys","state_name":"New York","lat":41.31815,"lng":-73.673,"zip":"10578","miles_from_dt":17.85},{"city":"Mill Neck","state_name":"New York","lat":40.88249,"lng":-73.55862,"zip":"11765","miles_from_dt":17.87},{"city":"Stratford","state_name":"Connecticut","lat":41.22989,"lng":-73.12785,"zip":"06614","miles_from_dt":17.93},{"city":"White Plains","state_name":"New York","lat":41.03288,"lng":-73.7648,"zip":"10601","miles_from_dt":17.99},{"city":"Cold Spring Harbor","state_name":"New York","lat":40.86522,"lng":-73.45288,"zip":"11724","miles_from_dt":18.02},{"city":"White Plains","state_name":"New York","lat":41.03221,"lng":-73.76525,"zip":"10602","miles_from_dt":18.03},{"city":"Pleasantville","state_name":"New York","lat":41.12854,"lng":-73.78917,"zip":"10570","miles_from_dt":18.05},{"city":"White Plains","state_name":"New York","lat":41.05364,"lng":-73.78014,"zip":"10603","miles_from_dt":18.29},{"city":"Oyster Bay","state_name":"New York","lat":40.8674,"lng":-73.52651,"zip":"11771","miles_from_dt":18.39},{"city":"Monroe","state_name":"Connecticut","lat":41.33791,"lng":-73.22499,"zip":"06468","miles_from_dt":18.5},{"city":"Greenlawn","state_name":"New York","lat":40.86536,"lng":-73.36118,"zip":"11740","miles_from_dt":18.51},{"city":"Locust Valley","state_name":"New York","lat":40.88068,"lng":-73.59057,"zip":"11560","miles_from_dt":18.62},{"city":"Danbury","state_name":"Connecticut","lat":41.39777,"lng":-73.45523,"zip":"06813","miles_from_dt":18.74},{"city":"Hawthorne","state_name":"New York","lat":41.09873,"lng":-73.80066,"zip":"10532","miles_from_dt":18.75},{"city":"White Plains","state_name":"New York","lat":41.02065,"lng":-73.77588,"zip":"10606","miles_from_dt":18.84},{"city":"Croton Falls","state_name":"New York","lat":41.34701,"lng":-73.66196,"zip":"10519","miles_from_dt":19.02},{"city":"Millwood","state_name":"New York","lat":41.19472,"lng":-73.8002,"zip":"10546","miles_from_dt":19.21},{"city":"Somers","state_name":"New York","lat":41.33178,"lng":-73.6933,"zip":"10589","miles_from_dt":19.26},{"city":"East Northport","state_name":"New York","lat":40.86262,"lng":-73.31703,"zip":"11731","miles_from_dt":19.35},{"city":"Kings Park","state_name":"New York","lat":40.88771,"lng":-73.24738,"zip":"11754","miles_from_dt":19.39},{"city":"Mamaroneck","state_name":"New York","lat":40.95274,"lng":-73.73645,"zip":"10543","miles_from_dt":19.45},{"city":"Newtown","state_name":"Connecticut","lat":41.3943,"lng":-73.31918,"zip":"06470","miles_from_dt":19.59},{"city":"Glen Cove","state_name":"New York","lat":40.87073,"lng":-73.62879,"zip":"11542","miles_from_dt":20.13},{"city":"Elmsford","state_name":"New York","lat":41.06005,"lng":-73.81859,"zip":"10523","miles_from_dt":20.13},{"city":"Shelton","state_name":"Connecticut","lat":41.30601,"lng":-73.13828,"zip":"06484","miles_from_dt":20.15},{"city":"White Plains","state_name":"New York","lat":41.03949,"lng":-73.81214,"zip":"10607","miles_from_dt":20.18},{"city":"Botsford","state_name":"Connecticut","lat":41.36182,"lng":-73.21362,"zip":"06404","miles_from_dt":20.18},{"city":"East Norwich","state_name":"New York","lat":40.84245,"lng":-73.53916,"zip":"11732","miles_from_dt":20.22},{"city":"Lincolndale","state_name":"New York","lat":41.32575,"lng":-73.72745,"zip":"10540","miles_from_dt":20.22},{"city":"Amawalk","state_name":"New York","lat":41.2954,"lng":-73.76006,"zip":"10501","miles_from_dt":20.22},{"city":"Hartsdale","state_name":"New York","lat":41.02304,"lng":-73.80764,"zip":"10530","miles_from_dt":20.32},{"city":"Briarcliff Manor","state_name":"New York","lat":41.14152,"lng":-73.83411,"zip":"10510","miles_from_dt":20.42},{"city":"White Plains","state_name":"New York","lat":41.02248,"lng":-73.81261,"zip":"10610","miles_from_dt":20.58},{"city":"Shenorock","state_name":"New York","lat":41.32713,"lng":-73.73674,"zip":"10587","miles_from_dt":20.64},{"city":"Scarsdale","state_name":"New York","lat":40.98916,"lng":-73.79443,"zip":"10583","miles_from_dt":20.64},{"city":"Danbury","state_name":"Connecticut","lat":41.42427,"lng":-73.4821,"zip":"06811","miles_from_dt":20.66},{"city":"Milford","state_name":"Connecticut","lat":41.23937,"lng":-73.0752,"zip":"06461","miles_from_dt":20.71},{"city":"Ossining","state_name":"New York","lat":41.19295,"lng":-73.8305,"zip":"10562","miles_from_dt":20.72},{"city":"Maryknoll","state_name":"New York","lat":41.17861,"lng":-73.83547,"zip":"10545","miles_from_dt":20.78},{"city":"Syosset","state_name":"New York","lat":40.82819,"lng":-73.50282,"zip":"11791","miles_from_dt":20.81},{"city":"Melville","state_name":"New York","lat":40.82821,"lng":-73.50362,"zip":"11773","miles_from_dt":20.81},{"city":"Larchmont","state_name":"New York","lat":40.9376,"lng":-73.75707,"zip":"10538","miles_from_dt":20.94},{"city":"Brewster","state_name":"New York","lat":41.41205,"lng":-73.5937,"zip":"10509","miles_from_dt":21.22},{"city":"Tarrytown","state_name":"New York","lat":41.08436,"lng":-73.84653,"zip":"10591","miles_from_dt":21.25},{"city":"Yorktown Heights","state_name":"New York","lat":41.28309,"lng":-73.79516,"zip":"10598","miles_from_dt":21.3},{"city":"Milford","state_name":"Connecticut","lat":41.21505,"lng":-73.05129,"zip":"06460","miles_from_dt":21.33},{"city":"Woodbury","state_name":"New York","lat":40.81739,"lng":-73.47004,"zip":"11797","miles_from_dt":21.36},{"city":"Granite Springs","state_name":"New York","lat":41.3195,"lng":-73.76502,"zip":"10527","miles_from_dt":21.42},{"city":"Commack","state_name":"New York","lat":40.84056,"lng":-73.28085,"zip":"11725","miles_from_dt":21.47},{"city":"Saint James","state_name":"New York","lat":40.89249,"lng":-73.16973,"zip":"11780","miles_from_dt":21.55},{"city":"Hawleyville","state_name":"Connecticut","lat":41.43302,"lng":-73.35369,"zip":"06440","miles_from_dt":21.67},{"city":"New Rochelle","state_name":"New York","lat":40.94914,"lng":-73.78629,"zip":"10804","miles_from_dt":21.7},{"city":"Baldwin Place","state_name":"New York","lat":41.34207,"lng":-73.74791,"zip":"10505","miles_from_dt":21.77},{"city":"Stony Brook","state_name":"New York","lat":40.91915,"lng":-73.12475,"zip":"11794","miles_from_dt":21.94},{"city":"Sandy Hook","state_name":"Connecticut","lat":41.4067,"lng":-73.24474,"zip":"06482","miles_from_dt":21.94},{"city":"East Setauket","state_name":"New York","lat":40.93742,"lng":-73.10544,"zip":"11733","miles_from_dt":21.94},{"city":"Huntington Station","state_name":"New York","lat":40.81421,"lng":-73.3608,"zip":"11746","miles_from_dt":21.96},{"city":"Glen Head","state_name":"New York","lat":40.82685,"lng":-73.58853,"zip":"11545","miles_from_dt":22.02},{"city":"Stevenson","state_name":"Connecticut","lat":41.3814,"lng":-73.18774,"zip":"06491","miles_from_dt":22.06},{"city":"Sea Cliff","state_name":"New York","lat":40.84406,"lng":-73.64426,"zip":"11579","miles_from_dt":22.13},{"city":"Ardsley","state_name":"New York","lat":41.01126,"lng":-73.8409,"zip":"10502","miles_from_dt":22.24},{"city":"Stony Brook","state_name":"New York","lat":40.90719,"lng":-73.12777,"zip":"11790","miles_from_dt":22.37},{"city":"Irvington","state_name":"New York","lat":41.03826,"lng":-73.8556,"zip":"10533","miles_from_dt":22.38},{"city":"Smithtown","state_name":"New York","lat":40.85338,"lng":-73.21089,"zip":"11787","miles_from_dt":22.41},{"city":"Eastchester","state_name":"New York","lat":40.95337,"lng":-73.80885,"zip":"10709","miles_from_dt":22.53},{"city":"New Rochelle","state_name":"New York","lat":40.91751,"lng":-73.78396,"zip":"10801","miles_from_dt":22.91},{"city":"Tuckahoe","state_name":"New York","lat":40.95961,"lng":-73.82291,"zip":"10707","miles_from_dt":22.93},{"city":"New Rochelle","state_name":"New York","lat":40.91314,"lng":-73.77973,"zip":"10802","miles_from_dt":22.93},{"city":"Melville","state_name":"New York","lat":40.79318,"lng":-73.41794,"zip":"11775","miles_from_dt":23.02},{"city":"Glenwood Landing","state_name":"New York","lat":40.82881,"lng":-73.64505,"zip":"11547","miles_from_dt":23.08},{"city":"Port Jefferson","state_name":"New York","lat":40.95171,"lng":-73.0645,"zip":"11777","miles_from_dt":23.16},{"city":"Greenvale","state_name":"New York","lat":40.81414,"lng":-73.6097,"zip":"11548","miles_from_dt":23.24},{"city":"Derby","state_name":"Connecticut","lat":41.32647,"lng":-73.08324,"zip":"06418","miles_from_dt":23.29},{"city":"Dobbs Ferry","state_name":"New York","lat":41.01221,"lng":-73.8646,"zip":"10522","miles_from_dt":23.38},{"city":"Croton On Hudson","state_name":"New York","lat":41.22183,"lng":-73.87348,"zip":"10520","miles_from_dt":23.39},{"city":"Jefferson Valley","state_name":"New York","lat":41.33536,"lng":-73.79965,"zip":"10535","miles_from_dt":23.52},{"city":"Ardsley On Hudson","state_name":"New York","lat":41.02654,"lng":-73.8753,"zip":"10503","miles_from_dt":23.59},{"city":"Port Washington","state_name":"New York","lat":40.84103,"lng":-73.69405,"zip":"11051","miles_from_dt":23.66},{"city":"Mahopac","state_name":"New York","lat":41.37855,"lng":-73.75122,"zip":"10541","miles_from_dt":23.67},{"city":"Brookfield","state_name":"Connecticut","lat":41.46731,"lng":-73.39232,"zip":"06804","miles_from_dt":23.68},{"city":"Port Washington","state_name":"New York","lat":40.84441,"lng":-73.70193,"zip":"11052","miles_from_dt":23.7},{"city":"Melville","state_name":"New York","lat":40.78372,"lng":-73.40931,"zip":"11747","miles_from_dt":23.71},{"city":"New Rochelle","state_name":"New York","lat":40.89593,"lng":-73.78028,"zip":"10805","miles_from_dt":23.73},{"city":"Port Washington","state_name":"New York","lat":40.83815,"lng":-73.69113,"zip":"11050","miles_from_dt":23.74},{"city":"Mahopac Falls","state_name":"New York","lat":41.37115,"lng":-73.76436,"zip":"10542","miles_from_dt":23.78},{"city":"Jericho","state_name":"New York","lat":40.78976,"lng":-73.5411,"zip":"11753","miles_from_dt":23.78},{"city":"Yonkers","state_name":"New York","lat":40.96732,"lng":-73.84739,"zip":"10710","miles_from_dt":23.8},{"city":"Plainview","state_name":"New York","lat":40.78177,"lng":-73.4733,"zip":"11803","miles_from_dt":23.83},{"city":"Port Washington","state_name":"New York","lat":40.83134,"lng":-73.68331,"zip":"11054","miles_from_dt":23.92},{"city":"Port Washington","state_name":"New York","lat":40.84089,"lng":-73.70491,"zip":"11055","miles_from_dt":23.98},{"city":"Jericho","state_name":"New York","lat":40.78657,"lng":-73.5422,"zip":"11853","miles_from_dt":24.01},{"city":"Port Washington","state_name":"New York","lat":40.83919,"lng":-73.70326,"zip":"11053","miles_from_dt":24.03},{"city":"Bronxville","state_name":"New York","lat":40.9379,"lng":-73.83167,"zip":"10708","miles_from_dt":24.11},{"city":"Hastings On Hudson","state_name":"New York","lat":40.99047,"lng":-73.86951,"zip":"10706","miles_from_dt":24.16},{"city":"Orange","state_name":"Connecticut","lat":41.2827,"lng":-73.0272,"zip":"06477","miles_from_dt":24.22},{"city":"Mount Vernon","state_name":"New York","lat":40.92376,"lng":-73.82497,"zip":"10552","miles_from_dt":24.36},{"city":"Hauppauge","state_name":"New York","lat":40.81808,"lng":-73.21318,"zip":"11788","miles_from_dt":24.43},{"city":"Shrub Oak","state_name":"New York","lat":41.33222,"lng":-73.82624,"zip":"10588","miles_from_dt":24.5},{"city":"Pelham","state_name":"New York","lat":40.89978,"lng":-73.80619,"zip":"10803","miles_from_dt":24.58},{"city":"Melville","state_name":"New York","lat":40.81603,"lng":-73.21201,"zip":"11760","miles_from_dt":24.59},{"city":"Mohegan Lake","state_name":"New York","lat":41.31178,"lng":-73.84637,"zip":"10547","miles_from_dt":24.6},{"city":"Ansonia","state_name":"Connecticut","lat":41.34424,"lng":-73.06896,"zip":"06401","miles_from_dt":24.62},{"city":"Crompond","state_name":"New York","lat":41.29837,"lng":-73.86013,"zip":"10517","miles_from_dt":24.76},{"city":"Old Westbury","state_name":"New York","lat":40.78659,"lng":-73.59719,"zip":"11568","miles_from_dt":24.79},{"city":"Mount Vernon","state_name":"New York","lat":40.90858,"lng":-73.82161,"zip":"10553","miles_from_dt":24.84},{"city":"Nesconset","state_name":"New York","lat":40.84438,"lng":-73.14535,"zip":"11767","miles_from_dt":24.92},{"city":"Hicksville","state_name":"New York","lat":40.76832,"lng":-73.51415,"zip":"11815","miles_from_dt":24.98},{"city":"Roslyn","state_name":"New York","lat":40.79791,"lng":-73.64711,"zip":"11576","miles_from_dt":25.05},{"city":"New Fairfield","state_name":"Connecticut","lat":41.48796,"lng":-73.48827,"zip":"06812","miles_from_dt":25.07},{"city":"Lake Grove","state_name":"New York","lat":40.8583,"lng":-73.11748,"zip":"11755","miles_from_dt":25.14},{"city":"Mount Vernon","state_name":"New York","lat":40.90173,"lng":-73.82394,"zip":"10551","miles_from_dt":25.22},{"city":"Nyack","state_name":"New York","lat":41.08892,"lng":-73.92642,"zip":"10960","miles_from_dt":25.35},{"city":"Hicksville","state_name":"New York","lat":40.76432,"lng":-73.53162,"zip":"11802","miles_from_dt":25.4},{"city":"Old Bethpage","state_name":"New York","lat":40.75829,"lng":-73.45706,"zip":"11804","miles_from_dt":25.4},{"city":"Port Jefferson Station","state_name":"New York","lat":40.91345,"lng":-73.04567,"zip":"11776","miles_from_dt":25.44},{"city":"Hicksville","state_name":"New York","lat":40.76256,"lng":-73.52383,"zip":"11801","miles_from_dt":25.45},{"city":"Mount Vernon","state_name":"New York","lat":40.90627,"lng":-73.8351,"zip":"10550","miles_from_dt":25.5},{"city":"Piermont","state_name":"New York","lat":41.03976,"lng":-73.91804,"zip":"10968","miles_from_dt":25.5},{"city":"Seymour","state_name":"Connecticut","lat":41.381,"lng":-73.08726,"zip":"06483","miles_from_dt":25.54},{"city":"Brentwood","state_name":"New York","lat":40.78405,"lng":-73.25223,"zip":"11717","miles_from_dt":25.64},{"city":"Yonkers","state_name":"New York","lat":40.95765,"lng":-73.88114,"zip":"10703","miles_from_dt":25.67},{"city":"South Britain","state_name":"Connecticut","lat":41.46967,"lng":-73.25173,"zip":"06487","miles_from_dt":25.7},{"city":"Valley Cottage","state_name":"New York","lat":41.12479,"lng":-73.93632,"zip":"10989","miles_from_dt":25.73},{"city":"Palisades","state_name":"New York","lat":41.01642,"lng":-73.91431,"zip":"10964","miles_from_dt":25.75},{"city":"Bronx","state_name":"New York","lat":40.86821,"lng":-73.80044,"zip":"10464","miles_from_dt":25.81},{"city":"Roslyn Heights","state_name":"New York","lat":40.78288,"lng":-73.6391,"zip":"11577","miles_from_dt":25.82},{"city":"Centereach","state_name":"New York","lat":40.87025,"lng":-73.08202,"zip":"11720","miles_from_dt":25.86},{"city":"Mount Sinai","state_name":"New York","lat":40.93602,"lng":-73.01645,"zip":"11766","miles_from_dt":25.88},{"city":"Deer Park","state_name":"New York","lat":40.76249,"lng":-73.32161,"zip":"11729","miles_from_dt":25.9},{"city":"Congers","state_name":"New York","lat":41.15477,"lng":-73.9393,"zip":"10920","miles_from_dt":25.96},{"city":"Yonkers","state_name":"New York","lat":40.94702,"lng":-73.88034,"zip":"10701","miles_from_dt":25.98},{"city":"Wyandanch","state_name":"New York","lat":40.752,"lng":-73.37497,"zip":"11798","miles_from_dt":26.07},{"city":"Sparkill","state_name":"New York","lat":41.02871,"lng":-73.92594,"zip":"10976","miles_from_dt":26.09},{"city":"Yonkers","state_name":"New York","lat":40.91911,"lng":-73.86187,"zip":"10704","miles_from_dt":26.14},{"city":"Cortlandt Manor","state_name":"New York","lat":41.28922,"lng":-73.89633,"zip":"10567","miles_from_dt":26.16},{"city":"Croton On Hudson","state_name":"New York","lat":41.23452,"lng":-73.92434,"zip":"10521","miles_from_dt":26.17},{"city":"Carmel","state_name":"New York","lat":41.4483,"lng":-73.71054,"zip":"10512","miles_from_dt":26.22},{"city":"Islandia","state_name":"New York","lat":40.80674,"lng":-73.1708,"zip":"11749","miles_from_dt":26.25},{"city":"Manhasset","state_name":"New York","lat":40.79293,"lng":-73.68868,"zip":"11030","miles_from_dt":26.35},{"city":"Southbury","state_name":"Connecticut","lat":41.47451,"lng":-73.23288,"zip":"06488","miles_from_dt":26.4},{"city":"Oxford","state_name":"Connecticut","lat":41.43133,"lng":-73.13499,"zip":"06478","miles_from_dt":26.47},{"city":"Great Neck","state_name":"New York","lat":40.81642,"lng":-73.74205,"zip":"11024","miles_from_dt":26.49},{"city":"Westbury","state_name":"New York","lat":40.75541,"lng":-73.57463,"zip":"11590","miles_from_dt":26.5},{"city":"Patterson","state_name":"New York","lat":41.49417,"lng":-73.5891,"zip":"12563","miles_from_dt":26.5},{"city":"Bronx","state_name":"New York","lat":40.87528,"lng":-73.82702,"zip":"10475","miles_from_dt":26.51},{"city":"Bethpage","state_name":"New York","lat":40.74267,"lng":-73.48615,"zip":"11714","miles_from_dt":26.57},{"city":"Bronx","state_name":"New York","lat":40.89104,"lng":-73.8461,"zip":"10466","miles_from_dt":26.59},{"city":"West Haven","state_name":"Connecticut","lat":41.27393,"lng":-72.96718,"zip":"06516","miles_from_dt":26.82},{"city":"Albertson","state_name":"New York","lat":40.77082,"lng":-73.6521,"zip":"11507","miles_from_dt":26.86},{"city":"Central Islip","state_name":"New York","lat":40.78358,"lng":-73.19657,"zip":"11722","miles_from_dt":26.94},{"city":"Farmingdale","state_name":"New York","lat":40.73491,"lng":-73.4456,"zip":"11737","miles_from_dt":27.01},{"city":"Montrose","state_name":"New York","lat":41.24599,"lng":-73.93643,"zip":"10548","miles_from_dt":27.01},{"city":"Blauvelt","state_name":"New York","lat":41.06845,"lng":-73.95574,"zip":"10913","miles_from_dt":27.05},{"city":"Great Neck","state_name":"New York","lat":40.7994,"lng":-73.73282,"zip":"11023","miles_from_dt":27.17},{"city":"Peekskill","state_name":"New York","lat":41.28924,"lng":-73.91837,"zip":"10566","miles_from_dt":27.2},{"city":"Sound Beach","state_name":"New York","lat":40.95759,"lng":-72.97214,"zip":"11789","miles_from_dt":27.22},{"city":"Farmingdale","state_name":"New York","lat":40.73177,"lng":-73.43284,"zip":"11735","miles_from_dt":27.23},{"city":"Tappan","state_name":"New York","lat":41.02747,"lng":-73.94826,"zip":"10983","miles_from_dt":27.24},{"city":"Lake Peekskill","state_name":"New York","lat":41.33784,"lng":-73.88528,"zip":"10537","miles_from_dt":27.27},{"city":"Bronx","state_name":"New York","lat":40.89598,"lng":-73.86805,"zip":"10470","miles_from_dt":27.31},{"city":"Yonkers","state_name":"New York","lat":40.91929,"lng":-73.88928,"zip":"10705","miles_from_dt":27.34},{"city":"Williston Park","state_name":"New York","lat":40.75968,"lng":-73.6422,"zip":"11596","miles_from_dt":27.36},{"city":"Northvale","state_name":"New Jersey","lat":41.00674,"lng":-73.94255,"zip":"07647","miles_from_dt":27.36},{"city":"Alpine","state_name":"New Jersey","lat":40.96165,"lng":-73.91983,"zip":"07620","miles_from_dt":27.37},{"city":"Great Neck","state_name":"New York","lat":40.79821,"lng":-73.73829,"zip":"11027","miles_from_dt":27.4},{"city":"New Haven","state_name":"Connecticut","lat":41.29164,"lng":-72.96429,"zip":"06504","miles_from_dt":27.44},{"city":"Yonkers","state_name":"New York","lat":40.93258,"lng":-73.90225,"zip":"10702","miles_from_dt":27.46},{"city":"Carle Place","state_name":"New York","lat":40.74979,"lng":-73.61298,"zip":"11514","miles_from_dt":27.46},{"city":"Selden","state_name":"New York","lat":40.86855,"lng":-73.0422,"zip":"11784","miles_from_dt":27.49},{"city":"Great Neck","state_name":"New York","lat":40.79162,"lng":-73.72967,"zip":"11026","miles_from_dt":27.53},{"city":"Orangeburg","state_name":"New York","lat":41.04857,"lng":-73.96057,"zip":"10962","miles_from_dt":27.54},{"city":"Bridgewater","state_name":"Connecticut","lat":41.52082,"lng":-73.35965,"zip":"06752","miles_from_dt":27.57},{"city":"Bronx","state_name":"New York","lat":40.86851,"lng":-73.84666,"zip":"10469","miles_from_dt":27.59},{"city":"Woodbridge","state_name":"Connecticut","lat":41.35662,"lng":-73.01017,"zip":"06525","miles_from_dt":27.59},{"city":"Ronkonkoma","state_name":"New York","lat":40.8127,"lng":-73.1156,"zip":"11779","miles_from_dt":27.6},{"city":"Putnam Valley","state_name":"New York","lat":41.39651,"lng":-73.83384,"zip":"10579","miles_from_dt":27.6},{"city":"Haverstraw","state_name":"New York","lat":41.19263,"lng":-73.96735,"zip":"10927","miles_from_dt":27.72},{"city":"West Nyack","state_name":"New York","lat":41.09702,"lng":-73.97322,"zip":"10994","miles_from_dt":27.74},{"city":"Buchanan","state_name":"New York","lat":41.26302,"lng":-73.94391,"zip":"10511","miles_from_dt":27.75},{"city":"Miller Place","state_name":"New York","lat":40.93585,"lng":-72.97544,"zip":"11764","miles_from_dt":27.75},{"city":"North Babylon","state_name":"New York","lat":40.73325,"lng":-73.32533,"zip":"11703","miles_from_dt":27.81},{"city":"Great Neck","state_name":"New York","lat":40.78644,"lng":-73.7289,"zip":"11021","miles_from_dt":27.81},{"city":"Great Neck","state_name":"New York","lat":40.78769,"lng":-73.73186,"zip":"11022","miles_from_dt":27.82},{"city":"Levittown","state_name":"New York","lat":40.72545,"lng":-73.51656,"zip":"11756","miles_from_dt":27.93},{"city":"Norwood","state_name":"New Jersey","lat":40.99335,"lng":-73.95103,"zip":"07648","miles_from_dt":28.07},{"city":"Mineola","state_name":"New York","lat":40.74629,"lng":-73.63921,"zip":"11501","miles_from_dt":28.16},{"city":"Great Neck","state_name":"New York","lat":40.77098,"lng":-73.71293,"zip":"11020","miles_from_dt":28.29},{"city":"Verplanck","state_name":"New York","lat":41.25552,"lng":-73.95854,"zip":"10596","miles_from_dt":28.31},{"city":"New Haven","state_name":"Connecticut","lat":41.32794,"lng":-72.96954,"zip":"06515","miles_from_dt":28.33},{"city":"Bronx","state_name":"New York","lat":40.87522,"lng":-73.872,"zip":"10467","miles_from_dt":28.33},{"city":"Bronx","state_name":"New York","lat":40.84671,"lng":-73.84079,"zip":"10461","miles_from_dt":28.36},{"city":"West Haverstraw","state_name":"New York","lat":41.21011,"lng":-73.97565,"zip":"10993","miles_from_dt":28.36},{"city":"Bronx","state_name":"New York","lat":40.8286,"lng":-73.82179,"zip":"10465","miles_from_dt":28.53},{"city":"Coram","state_name":"New York","lat":40.88019,"lng":-73.00368,"zip":"11727","miles_from_dt":28.57},{"city":"West Babylon","state_name":"New York","lat":40.71623,"lng":-73.35908,"zip":"11704","miles_from_dt":28.64},{"city":"New Hyde Park","state_name":"New York","lat":40.75854,"lng":-73.6975,"zip":"11042","miles_from_dt":28.66},{"city":"East Meadow","state_name":"New York","lat":40.71974,"lng":-73.56044,"zip":"11554","miles_from_dt":28.72},{"city":"New City","state_name":"New York","lat":41.15562,"lng":-73.99314,"zip":"10956","miles_from_dt":28.76},{"city":"Bronx","state_name":"New York","lat":40.90002,"lng":-73.9067,"zip":"10471","miles_from_dt":28.82},{"city":"New Haven","state_name":"Connecticut","lat":41.29597,"lng":-72.93764,"zip":"06519","miles_from_dt":28.83},{"city":"Bronx","state_name":"New York","lat":40.88841,"lng":-73.89905,"zip":"10463","miles_from_dt":28.94},{"city":"Bayside","state_name":"New York","lat":40.79147,"lng":-73.77662,"zip":"11359","miles_from_dt":28.95},{"city":"Uniondale","state_name":"New York","lat":40.71997,"lng":-73.58327,"zip":"11556","miles_from_dt":28.98},{"city":"Closter","state_name":"New Jersey","lat":40.97329,"lng":-73.96044,"zip":"07624","miles_from_dt":29.01},{"city":"New Hyde Park","state_name":"New York","lat":40.74572,"lng":-73.67979,"zip":"11040","miles_from_dt":29.03},{"city":"Islip Terrace","state_name":"New York","lat":40.75791,"lng":-73.17359,"zip":"11752","miles_from_dt":29.07},{"city":"Farmingville","state_name":"New York","lat":40.83779,"lng":-73.03761,"zip":"11738","miles_from_dt":29.09},{"city":"Little Neck","state_name":"New York","lat":40.77251,"lng":-73.74708,"zip":"11363","miles_from_dt":29.13},{"city":"Floral Park","state_name":"New York","lat":40.75661,"lng":-73.71424,"zip":"11005","miles_from_dt":29.19},{"city":"Bronx","state_name":"New York","lat":40.84297,"lng":-73.85873,"zip":"10462","miles_from_dt":29.23},{"city":"Hempstead","state_name":"New York","lat":40.71896,"lng":-73.59973,"zip":"11549","miles_from_dt":29.28},{"city":"Demarest","state_name":"New Jersey","lat":40.95504,"lng":-73.95678,"zip":"07627","miles_from_dt":29.32},{"city":"Garden City","state_name":"New York","lat":40.72716,"lng":-73.63654,"zip":"11530","miles_from_dt":29.34},{"city":"Garden City","state_name":"New York","lat":40.72485,"lng":-73.63256,"zip":"11599","miles_from_dt":29.42},{"city":"Bronx","state_name":"New York","lat":40.86249,"lng":-73.88643,"zip":"10458","miles_from_dt":29.47},{"city":"Beacon Falls","state_name":"Connecticut","lat":41.43902,"lng":-73.05679,"zip":"06403","miles_from_dt":29.5},{"city":"Garnerville","state_name":"New York","lat":41.20265,"lng":-74.00031,"zip":"10923","miles_from_dt":29.53},{"city":"Bohemia","state_name":"New York","lat":40.77131,"lng":-73.12729,"zip":"11716","miles_from_dt":29.55},{"city":"Harrington Park","state_name":"New Jersey","lat":40.9899,"lng":-73.98037,"zip":"07640","miles_from_dt":29.6},{"city":"Rocky Point","state_name":"New York","lat":40.94312,"lng":-72.93073,"zip":"11778","miles_from_dt":29.61},{"city":"Little Neck","state_name":"New York","lat":40.75899,"lng":-73.73583,"zip":"11362","miles_from_dt":29.61},{"city":"Garden City","state_name":"New York","lat":40.72159,"lng":-73.63244,"zip":"11531","miles_from_dt":29.63},{"city":"Brightwaters","state_name":"New York","lat":40.71891,"lng":-73.26391,"zip":"11718","miles_from_dt":29.64},{"city":"New Haven","state_name":"Connecticut","lat":41.3062,"lng":-72.92652,"zip":"06510","miles_from_dt":29.65},{"city":"New Haven","state_name":"Connecticut","lat":41.30937,"lng":-72.92819,"zip":"06503","miles_from_dt":29.66},{"city":"Bayside","state_name":"New York","lat":40.7805,"lng":-73.78159,"zip":"11360","miles_from_dt":29.71},{"city":"New Haven","state_name":"Connecticut","lat":41.30863,"lng":-72.92578,"zip":"06520","miles_from_dt":29.75},{"city":"Glen Oaks","state_name":"New York","lat":40.74621,"lng":-73.71147,"zip":"11004","miles_from_dt":29.75},{"city":"New Haven","state_name":"Connecticut","lat":41.30998,"lng":-72.9264,"zip":"06521","miles_from_dt":29.76},{"city":"New Haven","state_name":"Connecticut","lat":41.31008,"lng":-72.92631,"zip":"06501","miles_from_dt":29.77},{"city":"New Haven","state_name":"Connecticut","lat":41.31432,"lng":-72.92901,"zip":"06535","miles_from_dt":29.77},{"city":"Nanuet","state_name":"New York","lat":41.09969,"lng":-74.01269,"zip":"10954","miles_from_dt":29.78},{"city":"Bronx","state_name":"New York","lat":40.8681,"lng":-73.89985,"zip":"10468","miles_from_dt":29.79},{"city":"New Haven","state_name":"Connecticut","lat":41.30947,"lng":-72.92532,"zip":"06506","miles_from_dt":29.8},{"city":"New Haven","state_name":"Connecticut","lat":41.30552,"lng":-72.92283,"zip":"06507","miles_from_dt":29.8},{"city":"New Haven","state_name":"Connecticut","lat":41.30703,"lng":-72.92335,"zip":"06508","miles_from_dt":29.82},{"city":"New Haven","state_name":"Connecticut","lat":41.30868,"lng":-72.92444,"zip":"06502","miles_from_dt":29.82},{"city":"West Islip","state_name":"New York","lat":40.70803,"lng":-73.29827,"zip":"11795","miles_from_dt":29.84},{"city":"Islip","state_name":"New York","lat":40.72999,"lng":-73.21424,"zip":"11751","miles_from_dt":29.86},{"city":"New Haven","state_name":"Connecticut","lat":41.31819,"lng":-72.92949,"zip":"06531","miles_from_dt":29.86},{"city":"New Haven","state_name":"Connecticut","lat":41.31773,"lng":-72.92921,"zip":"06533","miles_from_dt":29.86},{"city":"New Haven","state_name":"Connecticut","lat":41.30781,"lng":-72.92306,"zip":"06505","miles_from_dt":29.86},{"city":"Cresskill","state_name":"New Jersey","lat":40.94054,"lng":-73.9596,"zip":"07626","miles_from_dt":29.88},{"city":"New Haven","state_name":"Connecticut","lat":41.31858,"lng":-72.92751,"zip":"06534","miles_from_dt":29.96},{"city":"New Haven","state_name":"Connecticut","lat":41.31739,"lng":-72.92672,"zip":"06536","miles_from_dt":29.97},{"city":"New Haven","state_name":"Connecticut","lat":41.31663,"lng":-72.92587,"zip":"06511","miles_from_dt":29.98},{"city":"New Haven","state_name":"Connecticut","lat":41.31001,"lng":-72.92146,"zip":"06540","miles_from_dt":29.99},{"city":"New Haven","state_name":"Connecticut","lat":41.319,"lng":-72.92712,"zip":"06509","miles_from_dt":30}],"targetCityZipCode":"06850","targetCityState":"Connecticut"},"__N_SSG":true}