{"pageProps":{"stateName":"Virginia","cityName":"chesapeake","nearbyCities":[{"city":"Chesapeake","state_name":"Virginia","lat":36.73939,"lng":-76.23,"zip":"23327","miles_from_dt":1.1},{"city":"Chesapeake","state_name":"Virginia","lat":36.73187,"lng":-76.23036,"zip":"23328","miles_from_dt":1.55},{"city":"Chesapeake","state_name":"Virginia","lat":36.76368,"lng":-76.25213,"zip":"23326","miles_from_dt":2.05},{"city":"Virginia Beach","state_name":"Virginia","lat":36.79732,"lng":-76.17899,"zip":"23464","miles_from_dt":3.8},{"city":"Virginia Beach","state_name":"Virginia","lat":36.798,"lng":-76.17648,"zip":"23465","miles_from_dt":3.92},{"city":"Virginia Beach","state_name":"Virginia","lat":36.80158,"lng":-76.17645,"zip":"23463","miles_from_dt":4.12},{"city":"Virginia Beach","state_name":"Virginia","lat":36.80171,"lng":-76.17422,"zip":"23467","miles_from_dt":4.2},{"city":"Chesapeake","state_name":"Virginia","lat":36.81507,"lng":-76.239,"zip":"23325","miles_from_dt":4.5},{"city":"Chesapeake","state_name":"Virginia","lat":36.79996,"lng":-76.27517,"zip":"23324","miles_from_dt":4.58},{"city":"Norfolk","state_name":"Virginia","lat":36.83254,"lng":-76.27199,"zip":"23523","miles_from_dt":6.3},{"city":"Portsmouth","state_name":"Virginia","lat":36.81685,"lng":-76.29846,"zip":"23709","miles_from_dt":6.31},{"city":"Virginia Beach","state_name":"Virginia","lat":36.8366,"lng":-76.15105,"zip":"23462","miles_from_dt":6.91},{"city":"Virginia Beach","state_name":"Virginia","lat":36.83836,"lng":-76.15322,"zip":"23466","miles_from_dt":6.95},{"city":"Portsmouth","state_name":"Virginia","lat":36.80292,"lng":-76.32679,"zip":"23702","miles_from_dt":6.98},{"city":"Norfolk","state_name":"Virginia","lat":36.85695,"lng":-76.21197,"zip":"23506","miles_from_dt":7.24},{"city":"Norfolk","state_name":"Virginia","lat":36.85787,"lng":-76.21143,"zip":"23541","miles_from_dt":7.3},{"city":"Portsmouth","state_name":"Virginia","lat":36.82603,"lng":-76.3123,"zip":"23704","miles_from_dt":7.3},{"city":"Norfolk","state_name":"Virginia","lat":36.86274,"lng":-76.20983,"zip":"23502","miles_from_dt":7.64},{"city":"Norfolk","state_name":"Virginia","lat":36.85677,"lng":-76.26568,"zip":"23504","miles_from_dt":7.69},{"city":"Norfolk","state_name":"Virginia","lat":36.8518,"lng":-76.29154,"zip":"23510","miles_from_dt":7.99},{"city":"Norfolk","state_name":"Virginia","lat":36.85192,"lng":-76.29226,"zip":"23514","miles_from_dt":8.02},{"city":"Virginia Beach","state_name":"Virginia","lat":36.785,"lng":-76.07679,"zip":"23453","miles_from_dt":8.16},{"city":"Portsmouth","state_name":"Virginia","lat":36.84804,"lng":-76.30646,"zip":"23708","miles_from_dt":8.23},{"city":"Portsmouth","state_name":"Virginia","lat":36.83846,"lng":-76.34001,"zip":"23705","miles_from_dt":9.01},{"city":"Norfolk","state_name":"Virginia","lat":36.8642,"lng":-76.30304,"zip":"23507","miles_from_dt":9.05},{"city":"Norfolk","state_name":"Virginia","lat":36.86927,"lng":-76.29198,"zip":"23517","miles_from_dt":9.06},{"city":"Chesapeake","state_name":"Virginia","lat":36.62703,"lng":-76.26929,"zip":"23322","miles_from_dt":9.08},{"city":"Portsmouth","state_name":"Virginia","lat":36.84255,"lng":-76.34002,"zip":"23707","miles_from_dt":9.2},{"city":"Norfolk","state_name":"Virginia","lat":36.88215,"lng":-76.26203,"zip":"23509","miles_from_dt":9.29},{"city":"Portsmouth","state_name":"Virginia","lat":36.81158,"lng":-76.36986,"zip":"23701","miles_from_dt":9.37},{"city":"Virginia Beach","state_name":"Virginia","lat":36.84403,"lng":-76.09308,"zip":"23450","miles_from_dt":9.39},{"city":"Chesapeake","state_name":"Virginia","lat":36.70785,"lng":-76.37949,"zip":"23323","miles_from_dt":9.46},{"city":"Virginia Beach","state_name":"Virginia","lat":36.84604,"lng":-76.09197,"zip":"23452","miles_from_dt":9.53},{"city":"Norfolk","state_name":"Virginia","lat":36.88948,"lng":-76.23831,"zip":"23513","miles_from_dt":9.54},{"city":"Virginia Beach","state_name":"Virginia","lat":36.84616,"lng":-76.09203,"zip":"23479","miles_from_dt":9.54},{"city":"Norfolk","state_name":"Virginia","lat":36.89908,"lng":-76.20645,"zip":"23501","miles_from_dt":10.16},{"city":"Virginia Beach","state_name":"Virginia","lat":36.73435,"lng":-76.03492,"zip":"23456","miles_from_dt":10.24},{"city":"Virginia Beach","state_name":"Virginia","lat":36.88974,"lng":-76.1441,"zip":"23455","miles_from_dt":10.34},{"city":"Norfolk","state_name":"Virginia","lat":36.8844,"lng":-76.30898,"zip":"23508","miles_from_dt":10.42},{"city":"Norfolk","state_name":"Virginia","lat":36.88472,"lng":-76.31106,"zip":"23529","miles_from_dt":10.5},{"city":"Virginia Beach","state_name":"Virginia","lat":36.89395,"lng":-76.14745,"zip":"23471","miles_from_dt":10.54},{"city":"Virginia Beach","state_name":"Virginia","lat":36.81848,"lng":-76.03161,"zip":"23460","miles_from_dt":11.31},{"city":"Norfolk","state_name":"Virginia","lat":36.91638,"lng":-76.21586,"zip":"23518","miles_from_dt":11.33},{"city":"Virginia Beach","state_name":"Virginia","lat":36.91607,"lng":-76.17043,"zip":"23459","miles_from_dt":11.61},{"city":"Chesapeake","state_name":"Virginia","lat":36.80067,"lng":-76.42189,"zip":"23321","miles_from_dt":11.79},{"city":"Norfolk","state_name":"Virginia","lat":36.91418,"lng":-76.29081,"zip":"23505","miles_from_dt":11.88},{"city":"Norfolk","state_name":"Virginia","lat":36.92341,"lng":-76.18782,"zip":"23519","miles_from_dt":11.93},{"city":"Virginia Beach","state_name":"Virginia","lat":36.83216,"lng":-76.02616,"zip":"23454","miles_from_dt":11.99},{"city":"Norfolk","state_name":"Virginia","lat":36.9156,"lng":-76.304,"zip":"23515","miles_from_dt":12.24},{"city":"Portsmouth","state_name":"Virginia","lat":36.88039,"lng":-76.37101,"zip":"23703","miles_from_dt":12.25},{"city":"Norfolk","state_name":"Virginia","lat":36.92359,"lng":-76.29238,"zip":"23551","miles_from_dt":12.52},{"city":"Norfolk","state_name":"Virginia","lat":36.94727,"lng":-76.26223,"zip":"23503","miles_from_dt":13.68},{"city":"Norfolk","state_name":"Virginia","lat":36.94,"lng":-76.30055,"zip":"23511","miles_from_dt":13.74},{"city":"Virginia Beach","state_name":"Virginia","lat":36.77244,"lng":-75.96172,"zip":"23461","miles_from_dt":14.29},{"city":"Virginia Beach","state_name":"Virginia","lat":36.87175,"lng":-76.00689,"zip":"23451","miles_from_dt":14.32},{"city":"Virginia Beach","state_name":"Virginia","lat":36.61686,"lng":-76.01576,"zip":"23457","miles_from_dt":14.6},{"city":"Virginia Beach","state_name":"Virginia","lat":36.85334,"lng":-75.97566,"zip":"23458","miles_from_dt":15.15},{"city":"Suffolk","state_name":"Virginia","lat":36.83751,"lng":-76.4803,"zip":"23435","miles_from_dt":15.69},{"city":"Fort Monroe","state_name":"Virginia","lat":37.0099,"lng":-76.30451,"zip":"23651","miles_from_dt":18.41},{"city":"Moyock","state_name":"North Carolina","lat":36.48971,"lng":-76.15378,"zip":"27958","miles_from_dt":18.44},{"city":"Suffolk","state_name":"Virginia","lat":36.90763,"lng":-76.49183,"zip":"23433","miles_from_dt":18.58},{"city":"Suffolk","state_name":"Virginia","lat":36.89516,"lng":-76.50873,"zip":"23436","miles_from_dt":18.89},{"city":"Newport News","state_name":"Virginia","lat":36.97696,"lng":-76.42856,"zip":"23609","miles_from_dt":19.4},{"city":"Hampton","state_name":"Virginia","lat":37.02081,"lng":-76.33093,"zip":"23667","miles_from_dt":19.56},{"city":"Hampton","state_name":"Virginia","lat":37.02034,"lng":-76.33839,"zip":"23668","miles_from_dt":19.66},{"city":"Knotts Island","state_name":"North Carolina","lat":36.52599,"lng":-76.00081,"zip":"27950","miles_from_dt":19.72},{"city":"Newport News","state_name":"Virginia","lat":36.98753,"lng":-76.42235,"zip":"23607","miles_from_dt":19.79},{"city":"South Mills","state_name":"North Carolina","lat":36.48185,"lng":-76.34005,"zip":"27976","miles_from_dt":19.83},{"city":"Hampton","state_name":"Virginia","lat":37.00804,"lng":-76.38631,"zip":"23661","miles_from_dt":19.96},{"city":"Hampton","state_name":"Virginia","lat":37.03216,"lng":-76.31589,"zip":"23663","miles_from_dt":20.06},{"city":"Hampton","state_name":"Virginia","lat":36.99988,"lng":-76.41073,"zip":"23630","miles_from_dt":20.15},{"city":"Suffolk","state_name":"Virginia","lat":36.87099,"lng":-76.55097,"zip":"23432","miles_from_dt":20.2},{"city":"Suffolk","state_name":"Virginia","lat":36.70163,"lng":-76.59074,"zip":"23434","miles_from_dt":20.98},{"city":"Hampton","state_name":"Virginia","lat":37.05052,"lng":-76.33952,"zip":"23669","miles_from_dt":21.65},{"city":"Newport News","state_name":"Virginia","lat":37.01754,"lng":-76.43527,"zip":"23605","miles_from_dt":21.91},{"city":"Carrollton","state_name":"Virginia","lat":36.95054,"lng":-76.53625,"zip":"23314","miles_from_dt":22.32},{"city":"Hampton","state_name":"Virginia","lat":37.07467,"lng":-76.2925,"zip":"23664","miles_from_dt":22.62},{"city":"Rescue","state_name":"Virginia","lat":36.95433,"lng":-76.54589,"zip":"23424","miles_from_dt":22.9},{"city":"Suffolk","state_name":"Virginia","lat":36.70089,"lng":-76.63725,"zip":"23439","miles_from_dt":23.53},{"city":"Hampton","state_name":"Virginia","lat":37.05627,"lng":-76.41239,"zip":"23670","miles_from_dt":23.58},{"city":"Hampton","state_name":"Virginia","lat":37.05818,"lng":-76.40817,"zip":"23666","miles_from_dt":23.59},{"city":"Hampton","state_name":"Virginia","lat":37.08963,"lng":-76.36302,"zip":"23665","miles_from_dt":24.62},{"city":"Currituck","state_name":"North Carolina","lat":36.42407,"lng":-76.02534,"zip":"27929","miles_from_dt":25.03},{"city":"Newport News","state_name":"Virginia","lat":37.05862,"lng":-76.46414,"zip":"23601","miles_from_dt":25.15},{"city":"Hampton","state_name":"Virginia","lat":37.09697,"lng":-76.38389,"zip":"23681","miles_from_dt":25.49},{"city":"Battery Park","state_name":"Virginia","lat":36.99586,"lng":-76.56993,"zip":"23304","miles_from_dt":25.74},{"city":"Newport News","state_name":"Virginia","lat":37.0688,"lng":-76.49493,"zip":"23612","miles_from_dt":26.68},{"city":"Corapeake","state_name":"North Carolina","lat":36.51687,"lng":-76.60288,"zip":"27926","miles_from_dt":26.84},{"city":"Maple","state_name":"North Carolina","lat":36.39999,"lng":-76.00115,"zip":"27956","miles_from_dt":27.11},{"city":"Newport News","state_name":"Virginia","lat":37.07847,"lng":-76.49557,"zip":"23606","miles_from_dt":27.25},{"city":"Smithfield","state_name":"Virginia","lat":36.9837,"lng":-76.61676,"zip":"23431","miles_from_dt":27.26},{"city":"Poquoson","state_name":"Virginia","lat":37.13178,"lng":-76.35678,"zip":"23662","miles_from_dt":27.29},{"city":"Shawboro","state_name":"North Carolina","lat":36.36448,"lng":-76.07058,"zip":"27973","miles_from_dt":27.96},{"city":"Camden","state_name":"North Carolina","lat":36.3446,"lng":-76.15512,"zip":"27921","miles_from_dt":28.31},{"city":"Sunbury","state_name":"North Carolina","lat":36.44072,"lng":-76.56243,"zip":"27979","miles_from_dt":28.77},{"city":"Jenkins Bridge","state_name":"Virginia","lat":36.85302,"lng":-76.72141,"zip":"23399","miles_from_dt":28.77},{"city":"Isle Of Wight","state_name":"Virginia","lat":36.85302,"lng":-76.72141,"zip":"23397","miles_from_dt":28.77},{"city":"Yorktown","state_name":"Virginia","lat":37.12669,"lng":-76.44755,"zip":"23693","miles_from_dt":28.79},{"city":"Windsor","state_name":"Virginia","lat":36.85197,"lng":-76.72303,"zip":"23487","miles_from_dt":28.84},{"city":"Suffolk","state_name":"Virginia","lat":36.58116,"lng":-76.69749,"zip":"23438","miles_from_dt":29.12},{"city":"Smithfield","state_name":"Virginia","lat":36.98615,"lng":-76.66337,"zip":"23430","miles_from_dt":29.48},{"city":"Coinjock","state_name":"North Carolina","lat":36.38852,"lng":-75.93562,"zip":"27923","miles_from_dt":29.58},{"city":"Barco","state_name":"North Carolina","lat":36.36071,"lng":-75.99071,"zip":"27917","miles_from_dt":29.8},{"city":"Newport News","state_name":"Virginia","lat":37.11511,"lng":-76.51625,"zip":"23602","miles_from_dt":29.99}],"targetCityZipCode":"23320","targetCityState":"Virginia"},"__N_SSG":true}