{"pageProps":{"stateName":"Virginia","cityName":"copper-hill","nearbyCities":[{"city":"Check","state_name":"Virginia","lat":37.03809,"lng":-80.23113,"zip":"24072","miles_from_dt":4.39},{"city":"Callaway","state_name":"Virginia","lat":37.03737,"lng":-80.06884,"zip":"24067","miles_from_dt":4.85},{"city":"Bent Mountain","state_name":"Virginia","lat":37.15577,"lng":-80.13159,"zip":"24059","miles_from_dt":7.13},{"city":"Shawsville","state_name":"Virginia","lat":37.13735,"lng":-80.25828,"zip":"24162","miles_from_dt":8.14},{"city":"Pilot","state_name":"Virginia","lat":37.05052,"lng":-80.31684,"zip":"24138","miles_from_dt":8.99},{"city":"Boones Mill","state_name":"Virginia","lat":37.11814,"lng":-79.96453,"zip":"24065","miles_from_dt":11.38},{"city":"Ferrum","state_name":"Virginia","lat":36.89492,"lng":-80.0798,"zip":"24088","miles_from_dt":11.71},{"city":"Roanoke","state_name":"Virginia","lat":37.21238,"lng":-80.04261,"zip":"24018","miles_from_dt":12.55},{"city":"Elliston","state_name":"Virginia","lat":37.22594,"lng":-80.24748,"zip":"24087","miles_from_dt":12.93},{"city":"Floyd","state_name":"Virginia","lat":36.92131,"lng":-80.32264,"zip":"24091","miles_from_dt":13.06},{"city":"Christiansburg","state_name":"Virginia","lat":37.14246,"lng":-80.40079,"zip":"24068","miles_from_dt":14.93},{"city":"Riner","state_name":"Virginia","lat":37.02277,"lng":-80.43424,"zip":"24149","miles_from_dt":15.63},{"city":"Christiansburg","state_name":"Virginia","lat":37.13053,"lng":-80.4225,"zip":"24073","miles_from_dt":15.74},{"city":"Salem","state_name":"Virginia","lat":37.29674,"lng":-80.11609,"zip":"24153","miles_from_dt":16.88},{"city":"Roanoke","state_name":"Virginia","lat":37.25588,"lng":-79.97979,"zip":"24015","miles_from_dt":16.93},{"city":"Roanoke","state_name":"Virginia","lat":37.29,"lng":-80.06219,"zip":"24155","miles_from_dt":17.05},{"city":"Henry","state_name":"Virginia","lat":36.83994,"lng":-79.99891,"zip":"24102","miles_from_dt":17.07},{"city":"Roanoke","state_name":"Virginia","lat":37.29241,"lng":-80.06396,"zip":"24157","miles_from_dt":17.18},{"city":"Rocky Mount","state_name":"Virginia","lat":36.95827,"lng":-79.86457,"zip":"24151","miles_from_dt":17.32},{"city":"Roanoke","state_name":"Virginia","lat":37.22427,"lng":-79.91282,"zip":"24014","miles_from_dt":17.76},{"city":"Woolwine","state_name":"Virginia","lat":36.80868,"lng":-80.27557,"zip":"24185","miles_from_dt":18.2},{"city":"Roanoke","state_name":"Virginia","lat":37.27169,"lng":-79.95629,"zip":"24038","miles_from_dt":18.57},{"city":"Roanoke","state_name":"Virginia","lat":37.27096,"lng":-79.95433,"zip":"24030","miles_from_dt":18.59},{"city":"Roanoke","state_name":"Virginia","lat":37.27219,"lng":-79.95606,"zip":"24031","miles_from_dt":18.61},{"city":"Roanoke","state_name":"Virginia","lat":37.26997,"lng":-79.9517,"zip":"24023","miles_from_dt":18.63},{"city":"Roanoke","state_name":"Virginia","lat":37.27208,"lng":-79.95468,"zip":"24016","miles_from_dt":18.64},{"city":"Roanoke","state_name":"Virginia","lat":37.27342,"lng":-79.95596,"zip":"24033","miles_from_dt":18.68},{"city":"Roanoke","state_name":"Virginia","lat":37.27159,"lng":-79.9527,"zip":"24029","miles_from_dt":18.68},{"city":"Roanoke","state_name":"Virginia","lat":37.27362,"lng":-79.95503,"zip":"24027","miles_from_dt":18.72},{"city":"Roanoke","state_name":"Virginia","lat":37.27292,"lng":-79.95282,"zip":"24025","miles_from_dt":18.75},{"city":"Roanoke","state_name":"Virginia","lat":37.27224,"lng":-79.95112,"zip":"24026","miles_from_dt":18.77},{"city":"Blacksburg","state_name":"Virginia","lat":37.22844,"lng":-80.41562,"zip":"24062","miles_from_dt":18.79},{"city":"Blacksburg","state_name":"Virginia","lat":37.22884,"lng":-80.41576,"zip":"24063","miles_from_dt":18.82},{"city":"Roanoke","state_name":"Virginia","lat":37.27019,"lng":-79.94467,"zip":"24004","miles_from_dt":18.87},{"city":"Roanoke","state_name":"Virginia","lat":37.29472,"lng":-79.99183,"zip":"24017","miles_from_dt":18.87},{"city":"Roanoke","state_name":"Virginia","lat":37.27791,"lng":-79.95694,"zip":"24002","miles_from_dt":18.9},{"city":"Roanoke","state_name":"Virginia","lat":37.27134,"lng":-79.94435,"zip":"24008","miles_from_dt":18.95},{"city":"Roanoke","state_name":"Virginia","lat":37.27048,"lng":-79.94128,"zip":"24011","miles_from_dt":19},{"city":"Roanoke","state_name":"Virginia","lat":37.2706,"lng":-79.9415,"zip":"24007","miles_from_dt":19},{"city":"Roanoke","state_name":"Virginia","lat":37.2715,"lng":-79.94234,"zip":"24010","miles_from_dt":19.02},{"city":"Roanoke","state_name":"Virginia","lat":37.27119,"lng":-79.94097,"zip":"24005","miles_from_dt":19.05},{"city":"Roanoke","state_name":"Virginia","lat":37.27307,"lng":-79.94332,"zip":"24006","miles_from_dt":19.08},{"city":"Roanoke","state_name":"Virginia","lat":37.27076,"lng":-79.93933,"zip":"24001","miles_from_dt":19.09},{"city":"Roanoke","state_name":"Virginia","lat":37.27066,"lng":-79.93851,"zip":"24009","miles_from_dt":19.11},{"city":"Blacksburg","state_name":"Virginia","lat":37.22539,"lng":-80.42658,"zip":"24061","miles_from_dt":19.13},{"city":"Roanoke","state_name":"Virginia","lat":37.27347,"lng":-79.9421,"zip":"24003","miles_from_dt":19.14},{"city":"Roanoke","state_name":"Virginia","lat":37.27587,"lng":-79.94159,"zip":"24042","miles_from_dt":19.29},{"city":"Roanoke","state_name":"Virginia","lat":37.26691,"lng":-79.92219,"zip":"24013","miles_from_dt":19.49},{"city":"Roanoke","state_name":"Virginia","lat":37.27579,"lng":-79.93424,"zip":"24024","miles_from_dt":19.53},{"city":"Roanoke","state_name":"Virginia","lat":37.28178,"lng":-79.94288,"zip":"24028","miles_from_dt":19.57},{"city":"Roanoke","state_name":"Virginia","lat":37.2771,"lng":-79.93464,"zip":"24040","miles_from_dt":19.59},{"city":"Roanoke","state_name":"Virginia","lat":37.27689,"lng":-79.93429,"zip":"24022","miles_from_dt":19.59},{"city":"Roanoke","state_name":"Virginia","lat":37.28012,"lng":-79.93826,"zip":"24034","miles_from_dt":19.63},{"city":"Roanoke","state_name":"Virginia","lat":37.27828,"lng":-79.9353,"zip":"24032","miles_from_dt":19.63},{"city":"Roanoke","state_name":"Virginia","lat":37.27017,"lng":-79.92206,"zip":"24043","miles_from_dt":19.66},{"city":"Roanoke","state_name":"Virginia","lat":37.28023,"lng":-79.9357,"zip":"24037","miles_from_dt":19.72},{"city":"Roanoke","state_name":"Virginia","lat":37.27891,"lng":-79.93298,"zip":"24036","miles_from_dt":19.74},{"city":"Roanoke","state_name":"Virginia","lat":37.2824,"lng":-79.92859,"zip":"24035","miles_from_dt":20.08},{"city":"Blacksburg","state_name":"Virginia","lat":37.25772,"lng":-80.41961,"zip":"24060","miles_from_dt":20.3},{"city":"McCoy","state_name":"Virginia","lat":37.25889,"lng":-80.42978,"zip":"24111","miles_from_dt":20.77},{"city":"Wirtz","state_name":"Virginia","lat":37.0881,"lng":-79.77642,"zip":"24184","miles_from_dt":21.01},{"city":"Hardy","state_name":"Virginia","lat":37.17702,"lng":-79.80111,"zip":"24101","miles_from_dt":21.27},{"city":"Redwood","state_name":"Virginia","lat":37.00792,"lng":-79.77025,"zip":"24146","miles_from_dt":21.46},{"city":"Bassett","state_name":"Virginia","lat":36.76333,"lng":-79.99741,"zip":"24055","miles_from_dt":21.84},{"city":"Glade Hill","state_name":"Virginia","lat":37.00158,"lng":-79.76306,"zip":"24092","miles_from_dt":21.92},{"city":"Catawba","state_name":"Virginia","lat":37.37316,"lng":-80.21238,"zip":"24070","miles_from_dt":22.25},{"city":"Radford","state_name":"Virginia","lat":37.13833,"lng":-80.55084,"zip":"24142","miles_from_dt":22.67},{"city":"Roanoke","state_name":"Virginia","lat":37.3446,"lng":-79.95564,"zip":"24019","miles_from_dt":22.84},{"city":"Roanoke","state_name":"Virginia","lat":37.34622,"lng":-79.95718,"zip":"24050","miles_from_dt":22.9},{"city":"Roanoke","state_name":"Virginia","lat":37.31585,"lng":-79.89833,"zip":"24012","miles_from_dt":22.93},{"city":"Radford","state_name":"Virginia","lat":37.10105,"lng":-80.56677,"zip":"24141","miles_from_dt":23.03},{"city":"Willis","state_name":"Virginia","lat":36.85672,"lng":-80.50183,"zip":"24380","miles_from_dt":23.56},{"city":"Radford","state_name":"Virginia","lat":37.12589,"lng":-80.57524,"zip":"24143","miles_from_dt":23.78},{"city":"Roanoke","state_name":"Virginia","lat":37.35739,"lng":-79.94279,"zip":"24020","miles_from_dt":23.96},{"city":"Stanleytown","state_name":"Virginia","lat":36.73613,"lng":-79.94876,"zip":"24168","miles_from_dt":24.69},{"city":"New River","state_name":"Virginia","lat":37.13947,"lng":-80.5918,"zip":"24129","miles_from_dt":24.88},{"city":"Vinton","state_name":"Virginia","lat":37.2855,"lng":-79.79963,"zip":"24179","miles_from_dt":25.26},{"city":"Cloverdale","state_name":"Virginia","lat":37.36337,"lng":-79.90278,"zip":"24077","miles_from_dt":25.45},{"city":"Union Hall","state_name":"Virginia","lat":37.00937,"lng":-79.69193,"zip":"24176","miles_from_dt":25.74},{"city":"Goodview","state_name":"Virginia","lat":37.22304,"lng":-79.73787,"zip":"24095","miles_from_dt":25.77},{"city":"Patrick Springs","state_name":"Virginia","lat":36.67563,"lng":-80.12794,"zip":"24133","miles_from_dt":26.12},{"city":"Collinsville","state_name":"Virginia","lat":36.72376,"lng":-79.91303,"zip":"24078","miles_from_dt":26.39},{"city":"Fieldale","state_name":"Virginia","lat":36.70392,"lng":-79.96078,"zip":"24089","miles_from_dt":26.4},{"city":"Newport","state_name":"Virginia","lat":37.3426,"lng":-80.47196,"zip":"24128","miles_from_dt":26.53},{"city":"Vesta","state_name":"Virginia","lat":36.72266,"lng":-80.40026,"zip":"24177","miles_from_dt":26.6},{"city":"Stuart","state_name":"Virginia","lat":36.67095,"lng":-80.23835,"zip":"24171","miles_from_dt":26.82},{"city":"Indian Valley","state_name":"Virginia","lat":36.90278,"lng":-80.60127,"zip":"24105","miles_from_dt":26.84},{"city":"Belspring","state_name":"Virginia","lat":37.18257,"lng":-80.61637,"zip":"24058","miles_from_dt":27.02},{"city":"Meadows Of Dan","state_name":"Virginia","lat":36.71891,"lng":-80.41277,"zip":"24120","miles_from_dt":27.18},{"city":"Daleville","state_name":"Virginia","lat":37.40614,"lng":-79.92031,"zip":"24083","miles_from_dt":27.5},{"city":"Newbern","state_name":"Virginia","lat":37.09119,"lng":-80.65566,"zip":"24126","miles_from_dt":27.83},{"city":"Troutville","state_name":"Virginia","lat":37.42589,"lng":-79.93788,"zip":"24175","miles_from_dt":28.29},{"city":"Martinsville","state_name":"Virginia","lat":36.72378,"lng":-79.84921,"zip":"24112","miles_from_dt":28.35},{"city":"Hiwassee","state_name":"Virginia","lat":36.95958,"lng":-80.65598,"zip":"24347","miles_from_dt":28.5},{"city":"Penhook","state_name":"Virginia","lat":36.92587,"lng":-79.65456,"zip":"24137","miles_from_dt":29.01},{"city":"Parrott","state_name":"Virginia","lat":37.20534,"lng":-80.64707,"zip":"24132","miles_from_dt":29.15},{"city":"Critz","state_name":"Virginia","lat":36.62923,"lng":-80.13204,"zip":"24082","miles_from_dt":29.31},{"city":"New Castle","state_name":"Virginia","lat":37.47949,"lng":-80.19468,"zip":"24127","miles_from_dt":29.43},{"city":"Moneta","state_name":"Virginia","lat":37.1709,"lng":-79.64141,"zip":"24121","miles_from_dt":29.45}],"targetCityZipCode":"24079","targetCityState":"Virginia"},"__N_SSG":true}