{"pageProps":{"stateName":"Virginia","cityName":"meredithville","nearbyCities":[{"city":"Alberta","state_name":"Virginia","lat":36.876,"lng":-77.91794,"zip":"23821","miles_from_dt":5.33},{"city":"Brodnax","state_name":"Virginia","lat":36.72452,"lng":-77.97266,"zip":"23920","miles_from_dt":5.64},{"city":"Dundas","state_name":"Virginia","lat":36.90541,"lng":-78.00464,"zip":"23938","miles_from_dt":7.39},{"city":"Dolphin","state_name":"Virginia","lat":36.84988,"lng":-77.8109,"zip":"23843","miles_from_dt":8.67},{"city":"Lawrenceville","state_name":"Virginia","lat":36.70991,"lng":-77.8038,"zip":"23868","miles_from_dt":10.75},{"city":"Kenbridge","state_name":"Virginia","lat":36.9056,"lng":-78.13319,"zip":"23944","miles_from_dt":11.96},{"city":"La Crosse","state_name":"Virginia","lat":36.66005,"lng":-78.07699,"zip":"23950","miles_from_dt":12.03},{"city":"Rawlings","state_name":"Virginia","lat":36.95635,"lng":-77.83343,"zip":"23876","miles_from_dt":12.46},{"city":"White Plains","state_name":"Virginia","lat":36.6244,"lng":-77.93658,"zip":"23893","miles_from_dt":12.53},{"city":"South Hill","state_name":"Virginia","lat":36.74818,"lng":-78.18637,"zip":"23970","miles_from_dt":13.31},{"city":"Warfield","state_name":"Virginia","lat":36.8972,"lng":-77.74395,"zip":"23889","miles_from_dt":13.4},{"city":"Freeman","state_name":"Virginia","lat":36.78735,"lng":-77.70291,"zip":"23856","miles_from_dt":14.15},{"city":"Gasburg","state_name":"Virginia","lat":36.58389,"lng":-77.88588,"zip":"23857","miles_from_dt":15.77},{"city":"Ebony","state_name":"Virginia","lat":36.57048,"lng":-77.99322,"zip":"23845","miles_from_dt":16.32},{"city":"Bracey","state_name":"Virginia","lat":36.59103,"lng":-78.13305,"zip":"23919","miles_from_dt":17.72},{"city":"McKenney","state_name":"Virginia","lat":36.98351,"lng":-77.72629,"zip":"23872","miles_from_dt":17.73},{"city":"Valentines","state_name":"Virginia","lat":36.56762,"lng":-77.81658,"zip":"23887","miles_from_dt":18.15},{"city":"Lunenburg","state_name":"Virginia","lat":36.91786,"lng":-78.27886,"zip":"23952","miles_from_dt":19.44},{"city":"Blackstone","state_name":"Virginia","lat":37.08767,"lng":-77.95749,"zip":"23824","miles_from_dt":19.47},{"city":"Baskerville","state_name":"Virginia","lat":36.70668,"lng":-78.28627,"zip":"23915","miles_from_dt":19.49},{"city":"Victoria","state_name":"Virginia","lat":36.97323,"lng":-78.24549,"zip":"23974","miles_from_dt":19.73},{"city":"Henrico","state_name":"North Carolina","lat":36.52458,"lng":-77.85593,"zip":"27842","miles_from_dt":20.16},{"city":"Nottoway","state_name":"Virginia","lat":37.10816,"lng":-78.06556,"zip":"23955","miles_from_dt":21.73},{"city":"Dewitt","state_name":"Virginia","lat":37.05638,"lng":-77.67076,"zip":"23840","miles_from_dt":23.47},{"city":"Gaston","state_name":"North Carolina","lat":36.51262,"lng":-77.72178,"zip":"27832","miles_from_dt":24.05},{"city":"Wilsons","state_name":"Virginia","lat":37.13867,"lng":-77.82404,"zip":"23894","miles_from_dt":24.14},{"city":"Emporia","state_name":"Virginia","lat":36.668,"lng":-77.54972,"zip":"23847","miles_from_dt":24.51},{"city":"Boydton","state_name":"Virginia","lat":36.62378,"lng":-78.34144,"zip":"23917","miles_from_dt":24.74},{"city":"Skippers","state_name":"Virginia","lat":36.59224,"lng":-77.59547,"zip":"23879","miles_from_dt":24.88},{"city":"Jarratt","state_name":"Virginia","lat":36.75241,"lng":-77.50016,"zip":"23870","miles_from_dt":25.61},{"city":"Wise","state_name":"North Carolina","lat":36.47294,"lng":-78.16622,"zip":"27594","miles_from_dt":25.7},{"city":"Jarratt","state_name":"Virginia","lat":36.82063,"lng":-77.4878,"zip":"23867","miles_from_dt":26.04},{"city":"Macon","state_name":"North Carolina","lat":36.43339,"lng":-78.05231,"zip":"27551","miles_from_dt":26.19},{"city":"Vaughan","state_name":"North Carolina","lat":36.42679,"lng":-78.00429,"zip":"27586","miles_from_dt":26.23},{"city":"Chase City","state_name":"Virginia","lat":36.80919,"lng":-78.43396,"zip":"23924","miles_from_dt":26.44},{"city":"Crewe","state_name":"Virginia","lat":37.17468,"lng":-78.09608,"zip":"23930","miles_from_dt":26.6},{"city":"Ford","state_name":"Virginia","lat":37.16276,"lng":-77.7434,"zip":"23850","miles_from_dt":27.34},{"city":"Littleton","state_name":"North Carolina","lat":36.40202,"lng":-77.88141,"zip":"27850","miles_from_dt":28.13},{"city":"Dinwiddie","state_name":"Virginia","lat":37.05421,"lng":-77.55305,"zip":"23841","miles_from_dt":28.19},{"city":"Roanoke Rapids","state_name":"North Carolina","lat":36.43053,"lng":-77.71828,"zip":"27870","miles_from_dt":29.05},{"city":"Burkeville","state_name":"Virginia","lat":37.17987,"lng":-78.21219,"zip":"23922","miles_from_dt":29.43},{"city":"Green Bay","state_name":"Virginia","lat":37.13241,"lng":-78.30138,"zip":"23942","miles_from_dt":29.52},{"city":"Manson","state_name":"North Carolina","lat":36.48047,"lng":-78.30643,"zip":"27553","miles_from_dt":29.64},{"city":"Ridgeway","state_name":"North Carolina","lat":36.43861,"lng":-78.23662,"zip":"27570","miles_from_dt":29.68}],"targetCityZipCode":"23873","targetCityState":"Virginia"},"__N_SSG":true}