{"pageProps":{"stateName":"Virginia","cityName":"rescue","nearbyCities":[{"city":"Carrollton","state_name":"Virginia","lat":36.95054,"lng":-76.53625,"zip":"23314","miles_from_dt":0.59},{"city":"Battery Park","state_name":"Virginia","lat":36.99586,"lng":-76.56993,"zip":"23304","miles_from_dt":3.16},{"city":"Suffolk","state_name":"Virginia","lat":36.90763,"lng":-76.49183,"zip":"23433","miles_from_dt":4.4},{"city":"Smithfield","state_name":"Virginia","lat":36.9837,"lng":-76.61676,"zip":"23431","miles_from_dt":4.41},{"city":"Suffolk","state_name":"Virginia","lat":36.89516,"lng":-76.50873,"zip":"23436","miles_from_dt":4.57},{"city":"Suffolk","state_name":"Virginia","lat":36.87099,"lng":-76.55097,"zip":"23432","miles_from_dt":5.75},{"city":"Newport News","state_name":"Virginia","lat":36.97696,"lng":-76.42856,"zip":"23609","miles_from_dt":6.68},{"city":"Smithfield","state_name":"Virginia","lat":36.98615,"lng":-76.66337,"zip":"23430","miles_from_dt":6.86},{"city":"Newport News","state_name":"Virginia","lat":36.98753,"lng":-76.42235,"zip":"23607","miles_from_dt":7.21},{"city":"Newport News","state_name":"Virginia","lat":37.01754,"lng":-76.43527,"zip":"23605","miles_from_dt":7.51},{"city":"Hampton","state_name":"Virginia","lat":36.99988,"lng":-76.41073,"zip":"23630","miles_from_dt":8.11},{"city":"Newport News","state_name":"Virginia","lat":37.0688,"lng":-76.49493,"zip":"23612","miles_from_dt":8.38},{"city":"Newport News","state_name":"Virginia","lat":37.05862,"lng":-76.46414,"zip":"23601","miles_from_dt":8.49},{"city":"Suffolk","state_name":"Virginia","lat":36.83751,"lng":-76.4803,"zip":"23435","miles_from_dt":8.84},{"city":"Newport News","state_name":"Virginia","lat":37.07847,"lng":-76.49557,"zip":"23606","miles_from_dt":9},{"city":"Hampton","state_name":"Virginia","lat":37.00804,"lng":-76.38631,"zip":"23661","miles_from_dt":9.57},{"city":"Hampton","state_name":"Virginia","lat":37.05627,"lng":-76.41239,"zip":"23670","miles_from_dt":10.19},{"city":"Hampton","state_name":"Virginia","lat":37.05818,"lng":-76.40817,"zip":"23666","miles_from_dt":10.45},{"city":"Portsmouth","state_name":"Virginia","lat":36.88039,"lng":-76.37101,"zip":"23703","miles_from_dt":10.94},{"city":"Newport News","state_name":"Virginia","lat":37.11511,"lng":-76.51625,"zip":"23602","miles_from_dt":11.21},{"city":"Jenkins Bridge","state_name":"Virginia","lat":36.85302,"lng":-76.72141,"zip":"23399","miles_from_dt":11.97},{"city":"Isle Of Wight","state_name":"Virginia","lat":36.85302,"lng":-76.72141,"zip":"23397","miles_from_dt":11.97},{"city":"Windsor","state_name":"Virginia","lat":36.85197,"lng":-76.72303,"zip":"23487","miles_from_dt":12.09},{"city":"Hampton","state_name":"Virginia","lat":37.02034,"lng":-76.33839,"zip":"23668","miles_from_dt":12.35},{"city":"Fort Eustis","state_name":"Virginia","lat":37.13195,"lng":-76.58902,"zip":"23604","miles_from_dt":12.48},{"city":"Chesapeake","state_name":"Virginia","lat":36.80067,"lng":-76.42189,"zip":"23321","miles_from_dt":12.63},{"city":"Hampton","state_name":"Virginia","lat":37.02081,"lng":-76.33093,"zip":"23667","miles_from_dt":12.74},{"city":"Yorktown","state_name":"Virginia","lat":37.12669,"lng":-76.44755,"zip":"23693","miles_from_dt":13.07},{"city":"Hampton","state_name":"Virginia","lat":37.05052,"lng":-76.33952,"zip":"23669","miles_from_dt":13.2},{"city":"Hampton","state_name":"Virginia","lat":37.09697,"lng":-76.38389,"zip":"23681","miles_from_dt":13.3},{"city":"Newport News","state_name":"Virginia","lat":37.14606,"lng":-76.57812,"zip":"23628","miles_from_dt":13.34},{"city":"Newport News","state_name":"Virginia","lat":37.15093,"lng":-76.54343,"zip":"23608","miles_from_dt":13.56},{"city":"Norfolk","state_name":"Virginia","lat":36.94,"lng":-76.30055,"zip":"23511","miles_from_dt":13.61},{"city":"Norfolk","state_name":"Virginia","lat":36.9156,"lng":-76.304,"zip":"23515","miles_from_dt":13.65},{"city":"Hampton","state_name":"Virginia","lat":37.08963,"lng":-76.36302,"zip":"23665","miles_from_dt":13.76},{"city":"Portsmouth","state_name":"Virginia","lat":36.84255,"lng":-76.34002,"zip":"23707","miles_from_dt":13.76},{"city":"Hampton","state_name":"Virginia","lat":37.03216,"lng":-76.31589,"zip":"23663","miles_from_dt":13.81},{"city":"Portsmouth","state_name":"Virginia","lat":36.81158,"lng":-76.36986,"zip":"23701","miles_from_dt":13.86},{"city":"Norfolk","state_name":"Virginia","lat":36.88472,"lng":-76.31106,"zip":"23529","miles_from_dt":13.86},{"city":"Fort Monroe","state_name":"Virginia","lat":37.0099,"lng":-76.30451,"zip":"23651","miles_from_dt":13.89},{"city":"Portsmouth","state_name":"Virginia","lat":36.83846,"lng":-76.34001,"zip":"23705","miles_from_dt":13.92},{"city":"Norfolk","state_name":"Virginia","lat":36.8844,"lng":-76.30898,"zip":"23508","miles_from_dt":13.98},{"city":"Norfolk","state_name":"Virginia","lat":36.92359,"lng":-76.29238,"zip":"23551","miles_from_dt":14.19},{"city":"Norfolk","state_name":"Virginia","lat":36.91418,"lng":-76.29081,"zip":"23505","miles_from_dt":14.39},{"city":"Norfolk","state_name":"Virginia","lat":36.8642,"lng":-76.30304,"zip":"23507","miles_from_dt":14.81},{"city":"Portsmouth","state_name":"Virginia","lat":36.84804,"lng":-76.30646,"zip":"23708","miles_from_dt":15.15},{"city":"Norfolk","state_name":"Virginia","lat":36.86927,"lng":-76.29198,"zip":"23517","miles_from_dt":15.23},{"city":"Portsmouth","state_name":"Virginia","lat":36.82603,"lng":-76.3123,"zip":"23704","miles_from_dt":15.67},{"city":"Norfolk","state_name":"Virginia","lat":36.94727,"lng":-76.26223,"zip":"23503","miles_from_dt":15.71},{"city":"Norfolk","state_name":"Virginia","lat":36.85192,"lng":-76.29226,"zip":"23514","miles_from_dt":15.72},{"city":"Norfolk","state_name":"Virginia","lat":36.8518,"lng":-76.29154,"zip":"23510","miles_from_dt":15.76},{"city":"Portsmouth","state_name":"Virginia","lat":36.80292,"lng":-76.32679,"zip":"23702","miles_from_dt":16.01},{"city":"Poquoson","state_name":"Virginia","lat":37.13178,"lng":-76.35678,"zip":"23662","miles_from_dt":16.09},{"city":"Hampton","state_name":"Virginia","lat":37.07467,"lng":-76.2925,"zip":"23664","miles_from_dt":16.29},{"city":"Surry","state_name":"Virginia","lat":37.12546,"lng":-76.7502,"zip":"23883","miles_from_dt":16.33},{"city":"Yorktown","state_name":"Virginia","lat":37.18107,"lng":-76.45868,"zip":"23692","miles_from_dt":16.36},{"city":"Newport News","state_name":"Virginia","lat":37.19188,"lng":-76.56563,"zip":"23603","miles_from_dt":16.42},{"city":"Norfolk","state_name":"Virginia","lat":36.88215,"lng":-76.26203,"zip":"23509","miles_from_dt":16.49},{"city":"Portsmouth","state_name":"Virginia","lat":36.81685,"lng":-76.29846,"zip":"23709","miles_from_dt":16.66},{"city":"Norfolk","state_name":"Virginia","lat":36.85677,"lng":-76.26568,"zip":"23504","miles_from_dt":16.91},{"city":"Norfolk","state_name":"Virginia","lat":36.83254,"lng":-76.27199,"zip":"23523","miles_from_dt":17.34},{"city":"Elberon","state_name":"Virginia","lat":37.05947,"lng":-76.83224,"zip":"23846","miles_from_dt":17.42},{"city":"Suffolk","state_name":"Virginia","lat":36.70163,"lng":-76.59074,"zip":"23434","miles_from_dt":17.6},{"city":"Norfolk","state_name":"Virginia","lat":36.88948,"lng":-76.23831,"zip":"23513","miles_from_dt":17.61},{"city":"Seaford","state_name":"Virginia","lat":37.19249,"lng":-76.42589,"zip":"23696","miles_from_dt":17.71},{"city":"Ivor","state_name":"Virginia","lat":36.92012,"lng":-76.86693,"zip":"23866","miles_from_dt":17.93},{"city":"Suffolk","state_name":"Virginia","lat":36.70089,"lng":-76.63725,"zip":"23439","miles_from_dt":18.2},{"city":"Yorktown","state_name":"Virginia","lat":37.21829,"lng":-76.52371,"zip":"23690","miles_from_dt":18.24},{"city":"Chesapeake","state_name":"Virginia","lat":36.79996,"lng":-76.27517,"zip":"23324","miles_from_dt":18.39},{"city":"Norfolk","state_name":"Virginia","lat":36.91638,"lng":-76.21586,"zip":"23518","miles_from_dt":18.46},{"city":"Lackey","state_name":"Virginia","lat":37.22937,"lng":-76.54661,"zip":"23694","miles_from_dt":18.97},{"city":"Norfolk","state_name":"Virginia","lat":36.89908,"lng":-76.20645,"zip":"23501","miles_from_dt":19.17},{"city":"Zuni","state_name":"Virginia","lat":36.82737,"lng":-76.85662,"zip":"23898","miles_from_dt":19.31},{"city":"Chesapeake","state_name":"Virginia","lat":36.70785,"lng":-76.37949,"zip":"23323","miles_from_dt":19.34},{"city":"Chesapeake","state_name":"Virginia","lat":36.81507,"lng":-76.239,"zip":"23325","miles_from_dt":19.52},{"city":"Norfolk","state_name":"Virginia","lat":36.86274,"lng":-76.20983,"zip":"23502","miles_from_dt":19.65},{"city":"Norfolk","state_name":"Virginia","lat":36.85695,"lng":-76.21197,"zip":"23506","miles_from_dt":19.67},{"city":"Norfolk","state_name":"Virginia","lat":36.85787,"lng":-76.21143,"zip":"23541","miles_from_dt":19.68},{"city":"Norfolk","state_name":"Virginia","lat":36.92341,"lng":-76.18782,"zip":"23519","miles_from_dt":19.93},{"city":"Chesapeake","state_name":"Virginia","lat":36.76368,"lng":-76.25213,"zip":"23326","miles_from_dt":20.92},{"city":"Virginia Beach","state_name":"Virginia","lat":36.91607,"lng":-76.17043,"zip":"23459","miles_from_dt":20.95},{"city":"Yorktown","state_name":"Virginia","lat":37.25906,"lng":-76.57322,"zip":"23691","miles_from_dt":21.07},{"city":"Gloucester Point","state_name":"Virginia","lat":37.258,"lng":-76.50404,"zip":"23062","miles_from_dt":21.07},{"city":"Jamestown","state_name":"Virginia","lat":37.20758,"lng":-76.7617,"zip":"23081","miles_from_dt":21.15},{"city":"Williamsburg","state_name":"Virginia","lat":37.24927,"lng":-76.68702,"zip":"23185","miles_from_dt":21.78},{"city":"Carrsville","state_name":"Virginia","lat":36.73861,"lng":-76.84289,"zip":"23315","miles_from_dt":22.19},{"city":"Bena","state_name":"Virginia","lat":37.27008,"lng":-76.45852,"zip":"23018","miles_from_dt":22.3},{"city":"Virginia Beach","state_name":"Virginia","lat":36.89395,"lng":-76.14745,"zip":"23471","miles_from_dt":22.45},{"city":"Dendron","state_name":"Virginia","lat":37.08718,"lng":-76.91895,"zip":"23839","miles_from_dt":22.57},{"city":"Virginia Beach","state_name":"Virginia","lat":36.88974,"lng":-76.1441,"zip":"23455","miles_from_dt":22.69},{"city":"Chesapeake","state_name":"Virginia","lat":36.75208,"lng":-76.21807,"zip":"23320","miles_from_dt":22.9},{"city":"Chesapeake","state_name":"Virginia","lat":36.73939,"lng":-76.23,"zip":"23327","miles_from_dt":22.94},{"city":"Virginia Beach","state_name":"Virginia","lat":36.80158,"lng":-76.17645,"zip":"23463","miles_from_dt":23.02},{"city":"Virginia Beach","state_name":"Virginia","lat":36.79732,"lng":-76.17899,"zip":"23464","miles_from_dt":23.03},{"city":"Virginia Beach","state_name":"Virginia","lat":36.80171,"lng":-76.17422,"zip":"23467","miles_from_dt":23.12},{"city":"Virginia Beach","state_name":"Virginia","lat":36.798,"lng":-76.17648,"zip":"23465","miles_from_dt":23.13},{"city":"Virginia Beach","state_name":"Virginia","lat":36.83836,"lng":-76.15322,"zip":"23466","miles_from_dt":23.17},{"city":"Williamsburg","state_name":"Virginia","lat":37.27259,"lng":-76.68252,"zip":"23186","miles_from_dt":23.21},{"city":"Chesapeake","state_name":"Virginia","lat":36.73187,"lng":-76.23036,"zip":"23328","miles_from_dt":23.26},{"city":"Achilles","state_name":"Virginia","lat":37.28116,"lng":-76.44096,"zip":"23001","miles_from_dt":23.27},{"city":"Virginia Beach","state_name":"Virginia","lat":36.8366,"lng":-76.15105,"zip":"23462","miles_from_dt":23.33},{"city":"Wicomico","state_name":"Virginia","lat":37.2921,"lng":-76.50995,"zip":"23184","miles_from_dt":23.38},{"city":"Williamsburg","state_name":"Virginia","lat":37.26824,"lng":-76.71008,"zip":"23187","miles_from_dt":23.47},{"city":"Maryus","state_name":"Virginia","lat":37.27815,"lng":-76.40353,"zip":"23107","miles_from_dt":23.67},{"city":"Hayes","state_name":"Virginia","lat":37.29543,"lng":-76.48148,"zip":"23072","miles_from_dt":23.79},{"city":"Wakefield","state_name":"Virginia","lat":36.95383,"lng":-76.97802,"zip":"23888","miles_from_dt":23.92},{"city":"Severn","state_name":"Virginia","lat":37.29473,"lng":-76.41639,"zip":"23155","miles_from_dt":24.54},{"city":"Ordinary","state_name":"Virginia","lat":37.31482,"lng":-76.51491,"zip":"23131","miles_from_dt":24.92},{"city":"Suffolk","state_name":"Virginia","lat":36.63533,"lng":-76.80256,"zip":"23437","miles_from_dt":26.2},{"city":"Virginia Beach","state_name":"Virginia","lat":36.84403,"lng":-76.09308,"zip":"23450","miles_from_dt":26.21},{"city":"Virginia Beach","state_name":"Virginia","lat":36.84604,"lng":-76.09197,"zip":"23452","miles_from_dt":26.22},{"city":"Virginia Beach","state_name":"Virginia","lat":36.84616,"lng":-76.09203,"zip":"23479","miles_from_dt":26.22},{"city":"White Marsh","state_name":"Virginia","lat":37.34182,"lng":-76.52008,"zip":"23183","miles_from_dt":26.76},{"city":"Suffolk","state_name":"Virginia","lat":36.58116,"lng":-76.69749,"zip":"23438","miles_from_dt":27.07},{"city":"Chesapeake","state_name":"Virginia","lat":36.62703,"lng":-76.26929,"zip":"23322","miles_from_dt":27.29},{"city":"Lightfoot","state_name":"Virginia","lat":37.32319,"lng":-76.73899,"zip":"23090","miles_from_dt":27.58},{"city":"Sedley","state_name":"Virginia","lat":36.8291,"lng":-77.02065,"zip":"23878","miles_from_dt":27.68},{"city":"Virginia Beach","state_name":"Virginia","lat":36.785,"lng":-76.07679,"zip":"23453","miles_from_dt":28.49},{"city":"Williamsburg","state_name":"Virginia","lat":37.33849,"lng":-76.74925,"zip":"23188","miles_from_dt":28.77},{"city":"Spring Grove","state_name":"Virginia","lat":37.1917,"lng":-76.98588,"zip":"23881","miles_from_dt":29.31},{"city":"Virginia Beach","state_name":"Virginia","lat":36.81848,"lng":-76.03161,"zip":"23460","miles_from_dt":29.99},{"city":"Virginia Beach","state_name":"Virginia","lat":36.83216,"lng":-76.02616,"zip":"23454","miles_from_dt":29.99}],"targetCityZipCode":"23424","targetCityState":"Virginia"},"__N_SSG":true}