{"pageProps":{"stateName":"Virginia","cityName":"rileyville","nearbyCities":[{"city":"Bentonville","state_name":"Virginia","lat":38.81803,"lng":-78.28102,"zip":"22610","miles_from_dt":5.83},{"city":"Fort Valley","state_name":"Virginia","lat":38.83921,"lng":-78.42894,"zip":"22652","miles_from_dt":6.73},{"city":"Luray","state_name":"Virginia","lat":38.67199,"lng":-78.4548,"zip":"22835","miles_from_dt":7.95},{"city":"Sperryville","state_name":"Virginia","lat":38.63805,"lng":-78.26163,"zip":"22740","miles_from_dt":9.84},{"city":"Washington","state_name":"Virginia","lat":38.7122,"lng":-78.16768,"zip":"22747","miles_from_dt":10.78},{"city":"Huntly","state_name":"Virginia","lat":38.80737,"lng":-78.13302,"zip":"22640","miles_from_dt":12.61},{"city":"Flint Hill","state_name":"Virginia","lat":38.76554,"lng":-78.11371,"zip":"22627","miles_from_dt":13.21},{"city":"Woodstock","state_name":"Virginia","lat":38.8944,"lng":-78.53119,"zip":"22664","miles_from_dt":13.21},{"city":"Woodville","state_name":"Virginia","lat":38.61945,"lng":-78.18394,"zip":"22749","miles_from_dt":13.46},{"city":"Chester Gap","state_name":"Virginia","lat":38.85158,"lng":-78.13734,"zip":"22623","miles_from_dt":13.52},{"city":"Toms Brook","state_name":"Virginia","lat":38.95628,"lng":-78.4383,"zip":"22660","miles_from_dt":14.28},{"city":"Front Royal","state_name":"Virginia","lat":38.92909,"lng":-78.18052,"zip":"22630","miles_from_dt":15.15},{"city":"Fishers Hill","state_name":"Virginia","lat":38.97919,"lng":-78.40502,"zip":"22626","miles_from_dt":15.4},{"city":"Edinburg","state_name":"Virginia","lat":38.84743,"lng":-78.6278,"zip":"22824","miles_from_dt":15.78},{"city":"Stanley","state_name":"Virginia","lat":38.56061,"lng":-78.51061,"zip":"22851","miles_from_dt":15.97},{"city":"Syria","state_name":"Virginia","lat":38.52477,"lng":-78.37132,"zip":"22743","miles_from_dt":16.17},{"city":"Castleton","state_name":"Virginia","lat":38.62596,"lng":-78.10794,"zip":"22716","miles_from_dt":16.34},{"city":"Etlan","state_name":"Virginia","lat":38.52888,"lng":-78.28337,"zip":"22719","miles_from_dt":16.38},{"city":"Strasburg","state_name":"Virginia","lat":39.00155,"lng":-78.36755,"zip":"22657","miles_from_dt":16.74},{"city":"Maurertown","state_name":"Virginia","lat":38.96362,"lng":-78.5314,"zip":"22644","miles_from_dt":16.93},{"city":"New Market","state_name":"Virginia","lat":38.65886,"lng":-78.66038,"zip":"22844","miles_from_dt":17.73},{"city":"Middletown","state_name":"Virginia","lat":39.00518,"lng":-78.25833,"zip":"22649","miles_from_dt":17.82},{"city":"Hume","state_name":"Virginia","lat":38.82625,"lng":-78.0321,"zip":"22639","miles_from_dt":18.2},{"city":"Mount Jackson","state_name":"Virginia","lat":38.77191,"lng":-78.6992,"zip":"22842","miles_from_dt":18.44},{"city":"Middletown","state_name":"Virginia","lat":39.02152,"lng":-78.27457,"zip":"22645","miles_from_dt":18.67},{"city":"Linden","state_name":"Virginia","lat":38.91532,"lng":-78.06538,"zip":"22642","miles_from_dt":19.13},{"city":"Quicksburg","state_name":"Virginia","lat":38.71792,"lng":-78.70972,"zip":"22847","miles_from_dt":19.2},{"city":"Amissville","state_name":"Virginia","lat":38.6871,"lng":-78.0133,"zip":"20106","miles_from_dt":19.28},{"city":"Boston","state_name":"Virginia","lat":38.54123,"lng":-78.13204,"zip":"22713","miles_from_dt":19.37},{"city":"Viewtown","state_name":"Virginia","lat":38.62922,"lng":-78.0195,"zip":"22746","miles_from_dt":20.38},{"city":"Banco","state_name":"Virginia","lat":38.46239,"lng":-78.27634,"zip":"22711","miles_from_dt":20.93},{"city":"Markham","state_name":"Virginia","lat":38.9034,"lng":-78.00801,"zip":"22643","miles_from_dt":21.36},{"city":"Orlean","state_name":"Virginia","lat":38.74958,"lng":-77.96246,"zip":"20128","miles_from_dt":21.38},{"city":"Reva","state_name":"Virginia","lat":38.47941,"lng":-78.18336,"zip":"22735","miles_from_dt":21.48},{"city":"Haywood","state_name":"Virginia","lat":38.46304,"lng":-78.22645,"zip":"22722","miles_from_dt":21.62},{"city":"Shenandoah","state_name":"Virginia","lat":38.5256,"lng":-78.6253,"zip":"22849","miles_from_dt":21.63},{"city":"Star Tannery","state_name":"Virginia","lat":39.06863,"lng":-78.4586,"zip":"22654","miles_from_dt":22.04},{"city":"Strasburg","state_name":"Virginia","lat":39.07795,"lng":-78.38588,"zip":"22641","miles_from_dt":22.06},{"city":"Stephens City","state_name":"Virginia","lat":39.06443,"lng":-78.21425,"zip":"22655","miles_from_dt":22.46},{"city":"Rixeyville","state_name":"Virginia","lat":38.59024,"lng":-78.00205,"zip":"22737","miles_from_dt":22.5},{"city":"Timberville","state_name":"Virginia","lat":38.65156,"lng":-78.76406,"zip":"22853","miles_from_dt":23.15},{"city":"Basye","state_name":"Virginia","lat":38.84466,"lng":-78.78554,"zip":"22810","miles_from_dt":23.81},{"city":"White Post","state_name":"Virginia","lat":39.05,"lng":-78.11716,"zip":"22663","miles_from_dt":23.91},{"city":"Leon","state_name":"Virginia","lat":38.44029,"lng":-78.1527,"zip":"22725","miles_from_dt":24.63},{"city":"Wardensville","state_name":"West Virginia","lat":39.04801,"lng":-78.62878,"zip":"26851","miles_from_dt":24.71},{"city":"Lacey Spring","state_name":"Virginia","lat":38.54906,"lng":-78.73505,"zip":"22833","miles_from_dt":25},{"city":"Madison","state_name":"Virginia","lat":38.39626,"lng":-78.30058,"zip":"22727","miles_from_dt":25.21},{"city":"Marshall","state_name":"Virginia","lat":38.82138,"lng":-77.89764,"zip":"20115","miles_from_dt":25.23},{"city":"Delaplane","state_name":"Virginia","lat":38.92117,"lng":-77.93759,"zip":"20144","miles_from_dt":25.3},{"city":"Brightwood","state_name":"Virginia","lat":38.41032,"lng":-78.18541,"zip":"22715","miles_from_dt":25.8},{"city":"Broadway","state_name":"Virginia","lat":38.63469,"lng":-78.80939,"zip":"22815","miles_from_dt":25.85},{"city":"Jeffersonton","state_name":"Virginia","lat":38.63286,"lng":-77.90752,"zip":"22724","miles_from_dt":25.87},{"city":"Lost City","state_name":"West Virginia","lat":38.97721,"lng":-78.74853,"zip":"26810","miles_from_dt":25.88},{"city":"Orkney Springs","state_name":"Virginia","lat":38.77991,"lng":-78.8375,"zip":"22845","miles_from_dt":25.92},{"city":"Capon Springs","state_name":"West Virginia","lat":39.13033,"lng":-78.51139,"zip":"26823","miles_from_dt":26.92},{"city":"Millwood","state_name":"Virginia","lat":39.07019,"lng":-78.04803,"zip":"22646","miles_from_dt":27.21},{"city":"Boyce","state_name":"Virginia","lat":39.06417,"lng":-78.03317,"zip":"22620","miles_from_dt":27.39},{"city":"Winchester","state_name":"Virginia","lat":39.1508,"lng":-78.26555,"zip":"22602","miles_from_dt":27.49},{"city":"Wolftown","state_name":"Virginia","lat":38.35812,"lng":-78.3482,"zip":"22748","miles_from_dt":27.65},{"city":"Warrenton","state_name":"Virginia","lat":38.69045,"lng":-77.843,"zip":"20186","miles_from_dt":28.24},{"city":"Warrenton","state_name":"Virginia","lat":38.70589,"lng":-77.83937,"zip":"20188","miles_from_dt":28.27},{"city":"Marshall","state_name":"Virginia","lat":38.86836,"lng":-77.85245,"zip":"20116","miles_from_dt":28.32},{"city":"Oakpark","state_name":"Virginia","lat":38.36782,"lng":-78.16635,"zip":"22730","miles_from_dt":28.91},{"city":"Elkton","state_name":"Virginia","lat":38.3903,"lng":-78.6131,"zip":"22827","miles_from_dt":28.93},{"city":"Rectortown","state_name":"Virginia","lat":38.92037,"lng":-77.86292,"zip":"20140","miles_from_dt":28.95},{"city":"Paris","state_name":"Virginia","lat":39.02756,"lng":-77.94243,"zip":"20130","miles_from_dt":29.08},{"city":"Pratts","state_name":"Virginia","lat":38.34413,"lng":-78.26151,"zip":"22731","miles_from_dt":29.09},{"city":"Hood","state_name":"Virginia","lat":38.33789,"lng":-78.38821,"zip":"22723","miles_from_dt":29.09},{"city":"Mathias","state_name":"West Virginia","lat":38.88184,"lng":-78.87688,"zip":"26812","miles_from_dt":29.25},{"city":"Culpeper","state_name":"Virginia","lat":38.44038,"lng":-77.99633,"zip":"22701","miles_from_dt":29.43},{"city":"Stanardsville","state_name":"Virginia","lat":38.33588,"lng":-78.46915,"zip":"22973","miles_from_dt":29.79},{"city":"Keezletown","state_name":"Virginia","lat":38.45778,"lng":-78.75692,"zip":"22832","miles_from_dt":29.95}],"targetCityZipCode":"22650","targetCityState":"Virginia"},"__N_SSG":true}