{"pageProps":{"stateName":"Wyoming","cityName":"banner","nearbyCities":[{"city":"Story","state_name":"Wyoming","lat":44.57143,"lng":-106.93956,"zip":"82842","miles_from_dt":9.37},{"city":"Wyarno","state_name":"Wyoming","lat":44.76416,"lng":-106.70382,"zip":"82845","miles_from_dt":11.96},{"city":"Sheridan","state_name":"Wyoming","lat":44.83618,"lng":-106.89258,"zip":"82801","miles_from_dt":18.07},{"city":"Saddlestring","state_name":"Wyoming","lat":44.34404,"lng":-106.62011,"zip":"82840","miles_from_dt":18.48},{"city":"Big Horn","state_name":"Wyoming","lat":44.61601,"lng":-107.12966,"zip":"82833","miles_from_dt":18.67},{"city":"Clearmont","state_name":"Wyoming","lat":44.75856,"lng":-106.36918,"zip":"82835","miles_from_dt":22.02},{"city":"Buffalo","state_name":"Wyoming","lat":44.25386,"lng":-106.74481,"zip":"82834","miles_from_dt":23.52},{"city":"Leiter","state_name":"Wyoming","lat":44.72549,"lng":-106.28169,"zip":"82837","miles_from_dt":24.9},{"city":"Wolf","state_name":"Wyoming","lat":44.80405,"lng":-107.19965,"zip":"82844","miles_from_dt":26.36}],"targetCityZipCode":"82832","targetCityState":"Wyoming"},"__N_SSG":true}