{"pageProps":{"stateName":"Wyoming","cityName":"fairview","nearbyCities":[{"city":"Smoot","state_name":"Wyoming","lat":42.58697,"lng":-110.90916,"zip":"83126","miles_from_dt":5.63},{"city":"Afton","state_name":"Wyoming","lat":42.72421,"lng":-110.90108,"zip":"83110","miles_from_dt":7.1},{"city":"Auburn","state_name":"Wyoming","lat":42.819,"lng":-111.01143,"zip":"83111","miles_from_dt":12.14},{"city":"Grover","state_name":"Wyoming","lat":42.82175,"lng":-110.95843,"zip":"83122","miles_from_dt":12.37},{"city":"Bedford","state_name":"Wyoming","lat":42.88191,"lng":-110.8833,"zip":"83112","miles_from_dt":17.27},{"city":"Thayne","state_name":"Wyoming","lat":42.91815,"lng":-110.99756,"zip":"83127","miles_from_dt":18.93},{"city":"Geneva","state_name":"Idaho","lat":42.37942,"lng":-111.10593,"zip":"83238","miles_from_dt":19.22},{"city":"Georgetown","state_name":"Idaho","lat":42.53167,"lng":-111.36528,"zip":"83239","miles_from_dt":20.73},{"city":"Montpelier","state_name":"Idaho","lat":42.36403,"lng":-111.2655,"zip":"83254","miles_from_dt":23.95},{"city":"Soda Springs","state_name":"Idaho","lat":42.75942,"lng":-111.44451,"zip":"83276","miles_from_dt":24.56},{"city":"Bern","state_name":"Idaho","lat":42.34465,"lng":-111.38008,"zip":"83220","miles_from_dt":28.76},{"city":"Etna","state_name":"Wyoming","lat":43.06638,"lng":-110.9246,"zip":"83118","miles_from_dt":29.34}],"targetCityZipCode":"83119","targetCityState":"Wyoming"},"__N_SSG":true}