{"pageProps":{"stateName":"Wyoming","cityName":"guernsey","nearbyCities":[{"city":"Hartville","state_name":"Wyoming","lat":42.39738,"lng":-104.71507,"zip":"82215","miles_from_dt":9.37},{"city":"Fort Laramie","state_name":"Wyoming","lat":42.26126,"lng":-104.51995,"zip":"82212","miles_from_dt":11.85},{"city":"Jay Em","state_name":"Wyoming","lat":42.4973,"lng":-104.50627,"zip":"82219","miles_from_dt":20.39},{"city":"Glendo","state_name":"Wyoming","lat":42.50216,"lng":-105.00672,"zip":"82213","miles_from_dt":21},{"city":"Lingle","state_name":"Wyoming","lat":42.12035,"lng":-104.38503,"zip":"82223","miles_from_dt":21.25},{"city":"Veteran","state_name":"Wyoming","lat":41.99442,"lng":-104.41451,"zip":"82243","miles_from_dt":25.41},{"city":"Wheatland","state_name":"Wyoming","lat":42.01049,"lng":-105.11328,"zip":"82201","miles_from_dt":25.55},{"city":"Torrington","state_name":"Wyoming","lat":42.23064,"lng":-104.17824,"zip":"82240","miles_from_dt":29.47}],"targetCityZipCode":"82214","targetCityState":"Wyoming"},"__N_SSG":true}