{"pageProps":{"stateName":"Massachusetts","cityName":"hinsdale","nearbyCities":[{"city":"Dalton","state_name":"Massachusetts","lat":42.47954,"lng":-73.15329,"zip":"01226","miles_from_dt":5.25},{"city":"Dalton","state_name":"Massachusetts","lat":42.4724,"lng":-73.16202,"zip":"01227","miles_from_dt":5.33},{"city":"Windsor","state_name":"Massachusetts","lat":42.51297,"lng":-73.04859,"zip":"01270","miles_from_dt":5.74},{"city":"Middlefield","state_name":"Massachusetts","lat":42.34752,"lng":-73.03467,"zip":"01243","miles_from_dt":6.15},{"city":"Worthington","state_name":"Massachusetts","lat":42.39551,"lng":-72.94315,"zip":"01098","miles_from_dt":7.12},{"city":"Cummington","state_name":"Massachusetts","lat":42.46858,"lng":-72.92296,"zip":"01026","miles_from_dt":8.1},{"city":"Berkshire","state_name":"Massachusetts","lat":42.50622,"lng":-73.19841,"zip":"01224","miles_from_dt":8.2},{"city":"Becket","state_name":"Massachusetts","lat":42.31118,"lng":-73.09835,"zip":"01223","miles_from_dt":8.42},{"city":"Plainfield","state_name":"Massachusetts","lat":42.51958,"lng":-72.92504,"zip":"01070","miles_from_dt":9.7},{"city":"Pittsfield","state_name":"Massachusetts","lat":42.45319,"lng":-73.26278,"zip":"01203","miles_from_dt":9.8},{"city":"Cheshire","state_name":"Massachusetts","lat":42.56385,"lng":-73.1512,"zip":"01225","miles_from_dt":9.94},{"city":"West Chesterfield","state_name":"Massachusetts","lat":42.38589,"lng":-72.88165,"zip":"01084","miles_from_dt":10.31},{"city":"Lenox","state_name":"Massachusetts","lat":42.37567,"lng":-73.26466,"zip":"01240","miles_from_dt":10.53},{"city":"Chester","state_name":"Massachusetts","lat":42.30233,"lng":-72.96448,"zip":"01011","miles_from_dt":10.53},{"city":"Pittsfield","state_name":"Massachusetts","lat":42.45614,"lng":-73.28114,"zip":"01201","miles_from_dt":10.75},{"city":"Lenox Dale","state_name":"Massachusetts","lat":42.3334,"lng":-73.24967,"zip":"01242","miles_from_dt":11.29},{"city":"Savoy","state_name":"Massachusetts","lat":42.59627,"lng":-73.01958,"zip":"01256","miles_from_dt":11.68},{"city":"Lee","state_name":"Massachusetts","lat":42.30072,"lng":-73.22553,"zip":"01238","miles_from_dt":11.94},{"city":"Chesterfield","state_name":"Massachusetts","lat":42.38495,"lng":-72.84675,"zip":"01012","miles_from_dt":12.03},{"city":"Lanesborough","state_name":"Massachusetts","lat":42.5529,"lng":-73.25373,"zip":"01237","miles_from_dt":12.44},{"city":"Pittsfield","state_name":"Massachusetts","lat":42.45789,"lng":-73.32205,"zip":"01202","miles_from_dt":12.84},{"city":"Goshen","state_name":"Massachusetts","lat":42.45313,"lng":-72.81965,"zip":"01032","miles_from_dt":13.05},{"city":"Adams","state_name":"Massachusetts","lat":42.62686,"lng":-73.11873,"zip":"01220","miles_from_dt":13.66},{"city":"Huntington","state_name":"Massachusetts","lat":42.29092,"lng":-72.87526,"zip":"01050","miles_from_dt":14.05},{"city":"Ashfield","state_name":"Massachusetts","lat":42.51772,"lng":-72.81556,"zip":"01330","miles_from_dt":14.45},{"city":"Tyringham","state_name":"Massachusetts","lat":42.23997,"lng":-73.19686,"zip":"01264","miles_from_dt":14.67},{"city":"South Lee","state_name":"Massachusetts","lat":42.26663,"lng":-73.2712,"zip":"01260","miles_from_dt":15.25},{"city":"Stockbridge","state_name":"Massachusetts","lat":42.30433,"lng":-73.32013,"zip":"01262","miles_from_dt":15.39},{"city":"Richmond","state_name":"Massachusetts","lat":42.37972,"lng":-73.36608,"zip":"01254","miles_from_dt":15.4},{"city":"Williamsburg","state_name":"Massachusetts","lat":42.40968,"lng":-72.77213,"zip":"01096","miles_from_dt":15.48},{"city":"Charlemont","state_name":"Massachusetts","lat":42.61099,"lng":-72.88846,"zip":"01339","miles_from_dt":15.56},{"city":"Otis","state_name":"Massachusetts","lat":42.20751,"lng":-73.1118,"zip":"01253","miles_from_dt":15.61},{"city":"Stockbridge","state_name":"Massachusetts","lat":42.28901,"lng":-73.31953,"zip":"01263","miles_from_dt":16},{"city":"East Otis","state_name":"Massachusetts","lat":42.19402,"lng":-73.05067,"zip":"01029","miles_from_dt":16.45},{"city":"Drury","state_name":"Massachusetts","lat":42.66766,"lng":-72.98822,"zip":"01343","miles_from_dt":16.85},{"city":"Glendale","state_name":"Massachusetts","lat":42.29411,"lng":-73.35227,"zip":"01229","miles_from_dt":17.15},{"city":"New Lebanon","state_name":"New York","lat":42.47633,"lng":-73.40394,"zip":"12125","miles_from_dt":17.17},{"city":"Buckland","state_name":"Massachusetts","lat":42.5814,"lng":-72.80309,"zip":"01338","miles_from_dt":17.24},{"city":"Stephentown","state_name":"New York","lat":42.5614,"lng":-73.3751,"zip":"12168","miles_from_dt":17.82},{"city":"Canaan","state_name":"New York","lat":42.40397,"lng":-73.42466,"zip":"12029","miles_from_dt":18.07},{"city":"Monterey","state_name":"Massachusetts","lat":42.19043,"lng":-73.21579,"zip":"01245","miles_from_dt":18.19},{"city":"Blandford","state_name":"Massachusetts","lat":42.18234,"lng":-72.95819,"zip":"01008","miles_from_dt":18.2},{"city":"Williamstown","state_name":"Massachusetts","lat":42.66593,"lng":-73.24209,"zip":"01267","miles_from_dt":18.31},{"city":"North Adams","state_name":"Massachusetts","lat":42.69813,"lng":-73.09264,"zip":"01247","miles_from_dt":18.41},{"city":"West Stockbridge","state_name":"Massachusetts","lat":42.30264,"lng":-73.39846,"zip":"01266","miles_from_dt":18.88},{"city":"Housatonic","state_name":"Massachusetts","lat":42.26923,"lng":-73.37999,"zip":"01236","miles_from_dt":19.3},{"city":"Easthampton","state_name":"Massachusetts","lat":42.29506,"lng":-72.74303,"zip":"01027","miles_from_dt":19.36},{"city":"Leeds","state_name":"Massachusetts","lat":42.35205,"lng":-72.71032,"zip":"01053","miles_from_dt":19.37},{"city":"Haydenville","state_name":"Massachusetts","lat":42.41049,"lng":-72.69188,"zip":"01039","miles_from_dt":19.56},{"city":"Conway","state_name":"Massachusetts","lat":42.50734,"lng":-72.70221,"zip":"01341","miles_from_dt":19.67},{"city":"Rowe","state_name":"Massachusetts","lat":42.69674,"lng":-72.91387,"zip":"01367","miles_from_dt":20.02},{"city":"Cherry Plain","state_name":"New York","lat":42.63047,"lng":-73.35916,"zip":"12040","miles_from_dt":20.02},{"city":"West Lebanon","state_name":"New York","lat":42.47876,"lng":-73.46505,"zip":"12195","miles_from_dt":20.28},{"city":"Monroe Bridge","state_name":"Massachusetts","lat":42.72259,"lng":-72.98291,"zip":"01350","miles_from_dt":20.59},{"city":"Shelburne Falls","state_name":"Massachusetts","lat":42.59607,"lng":-72.72915,"zip":"01370","miles_from_dt":20.92},{"city":"Florence","state_name":"Massachusetts","lat":42.32146,"lng":-72.69244,"zip":"01062","miles_from_dt":20.93},{"city":"Berlin","state_name":"New York","lat":42.66653,"lng":-73.33401,"zip":"12022","miles_from_dt":20.96},{"city":"Northampton","state_name":"Massachusetts","lat":42.32334,"lng":-72.69035,"zip":"01061","miles_from_dt":20.98},{"city":"Heath","state_name":"Massachusetts","lat":42.6706,"lng":-72.81323,"zip":"01346","miles_from_dt":21.16},{"city":"Stephentown","state_name":"New York","lat":42.58249,"lng":-73.43559,"zip":"12169","miles_from_dt":21.22},{"city":"Austerlitz","state_name":"New York","lat":42.31453,"lng":-73.45682,"zip":"12017","miles_from_dt":21.23},{"city":"Woronoco","state_name":"Massachusetts","lat":42.17722,"lng":-72.83175,"zip":"01097","miles_from_dt":21.49},{"city":"East Chatham","state_name":"New York","lat":42.41325,"lng":-73.49284,"zip":"12060","miles_from_dt":21.49},{"city":"Whately","state_name":"Massachusetts","lat":42.44335,"lng":-72.65099,"zip":"01093","miles_from_dt":21.61},{"city":"Russell","state_name":"Massachusetts","lat":42.16029,"lng":-72.8598,"zip":"01071","miles_from_dt":21.7},{"city":"West Hatfield","state_name":"Massachusetts","lat":42.38981,"lng":-72.6465,"zip":"01088","miles_from_dt":22.02},{"city":"Southampton","state_name":"Massachusetts","lat":42.23084,"lng":-72.73856,"zip":"01073","miles_from_dt":22.05},{"city":"Great Barrington","state_name":"Massachusetts","lat":42.18197,"lng":-73.34244,"zip":"01230","miles_from_dt":22.08},{"city":"North Hatfield","state_name":"Massachusetts","lat":42.40742,"lng":-72.64032,"zip":"01066","miles_from_dt":22.21},{"city":"Sandisfield","state_name":"Massachusetts","lat":42.1068,"lng":-73.12213,"zip":"01255","miles_from_dt":22.57},{"city":"East Nassau","state_name":"New York","lat":42.52871,"lng":-73.501,"zip":"12062","miles_from_dt":22.85},{"city":"Northampton","state_name":"Massachusetts","lat":42.31962,"lng":-72.63951,"zip":"01063","miles_from_dt":23.51},{"city":"South Deerfield","state_name":"Massachusetts","lat":42.47292,"lng":-72.61516,"zip":"01373","miles_from_dt":23.59},{"city":"Spencertown","state_name":"New York","lat":42.31518,"lng":-73.50756,"zip":"12165","miles_from_dt":23.64},{"city":"Brainard","state_name":"New York","lat":42.48134,"lng":-73.53419,"zip":"12024","miles_from_dt":23.8},{"city":"Northampton","state_name":"Massachusetts","lat":42.32218,"lng":-72.63126,"zip":"01060","miles_from_dt":23.86},{"city":"Hatfield","state_name":"Massachusetts","lat":42.38466,"lng":-72.60559,"zip":"01038","miles_from_dt":24.15},{"city":"Sand Lake","state_name":"New York","lat":42.63606,"lng":-73.46692,"zip":"12153","miles_from_dt":24.54},{"city":"Mill River","state_name":"Massachusetts","lat":42.10924,"lng":-73.27475,"zip":"01244","miles_from_dt":24.54},{"city":"Stamford","state_name":"Vermont","lat":42.78796,"lng":-73.07862,"zip":"05352","miles_from_dt":24.58},{"city":"North Egremont","state_name":"Massachusetts","lat":42.1967,"lng":-73.43628,"zip":"01252","miles_from_dt":24.68},{"city":"Westfield","state_name":"Massachusetts","lat":42.15375,"lng":-72.76961,"zip":"01085","miles_from_dt":24.71},{"city":"Pownal","state_name":"Vermont","lat":42.77516,"lng":-73.21273,"zip":"05261","miles_from_dt":24.74},{"city":"Colrain","state_name":"Massachusetts","lat":42.68805,"lng":-72.73205,"zip":"01340","miles_from_dt":24.82},{"city":"Granville","state_name":"Massachusetts","lat":42.0826,"lng":-72.95611,"zip":"01034","miles_from_dt":24.84},{"city":"Old Chatham","state_name":"New York","lat":42.43249,"lng":-73.56016,"zip":"12136","miles_from_dt":24.89},{"city":"Deerfield","state_name":"Massachusetts","lat":42.54384,"lng":-72.6058,"zip":"01342","miles_from_dt":25.11},{"city":"Chatham","state_name":"New York","lat":42.33506,"lng":-73.55714,"zip":"12037","miles_from_dt":25.64},{"city":"Readsboro","state_name":"Vermont","lat":42.79879,"lng":-72.97187,"zip":"05350","miles_from_dt":25.85},{"city":"Westfield","state_name":"Massachusetts","lat":42.14018,"lng":-72.75607,"zip":"01086","miles_from_dt":25.88},{"city":"Petersburg","state_name":"New York","lat":42.73735,"lng":-73.37128,"zip":"12138","miles_from_dt":25.99},{"city":"Whitingham","state_name":"Vermont","lat":42.78021,"lng":-72.87935,"zip":"05361","miles_from_dt":26},{"city":"Southfield","state_name":"Massachusetts","lat":42.07316,"lng":-73.23282,"zip":"01259","miles_from_dt":26.07},{"city":"Hadley","state_name":"Massachusetts","lat":42.35563,"lng":-72.5692,"zip":"01035","miles_from_dt":26.32},{"city":"Sunderland","state_name":"Massachusetts","lat":42.46475,"lng":-72.55489,"zip":"01375","miles_from_dt":26.6},{"city":"Malden Bridge","state_name":"New York","lat":42.46747,"lng":-73.59338,"zip":"12115","miles_from_dt":26.7},{"city":"Holyoke","state_name":"Massachusetts","lat":42.21251,"lng":-72.64109,"zip":"01040","miles_from_dt":26.82},{"city":"Averill Park","state_name":"New York","lat":42.62926,"lng":-73.52662,"zip":"12018","miles_from_dt":26.85},{"city":"Greenfield","state_name":"Massachusetts","lat":42.62375,"lng":-72.60379,"zip":"01301","miles_from_dt":27.39},{"city":"Jacksonville","state_name":"Vermont","lat":42.77468,"lng":-72.80015,"zip":"05342","miles_from_dt":27.46},{"city":"Sheffield","state_name":"Massachusetts","lat":42.0976,"lng":-73.37241,"zip":"01257","miles_from_dt":27.7},{"city":"North Amherst","state_name":"Massachusetts","lat":42.41329,"lng":-72.53051,"zip":"01059","miles_from_dt":27.79},{"city":"Nassau","state_name":"New York","lat":42.52239,"lng":-73.60636,"zip":"12123","miles_from_dt":27.94},{"city":"South Hadley","state_name":"Massachusetts","lat":42.25672,"lng":-72.57928,"zip":"01075","miles_from_dt":28.04},{"city":"Greenfield","state_name":"Massachusetts","lat":42.65202,"lng":-72.60965,"zip":"01302","miles_from_dt":28.13},{"city":"Hillsdale","state_name":"New York","lat":42.21335,"lng":-73.53802,"zip":"12529","miles_from_dt":28.17},{"city":"North Pownal","state_name":"Vermont","lat":42.81594,"lng":-73.26173,"zip":"05260","miles_from_dt":28.2},{"city":"Holyoke","state_name":"Massachusetts","lat":42.20746,"lng":-72.61142,"zip":"01041","miles_from_dt":28.28},{"city":"Amherst","state_name":"Massachusetts","lat":42.37633,"lng":-72.52327,"zip":"01003","miles_from_dt":28.4},{"city":"Ashley Falls","state_name":"Massachusetts","lat":42.06242,"lng":-73.32146,"zip":"01222","miles_from_dt":28.49},{"city":"North Chatham","state_name":"New York","lat":42.47102,"lng":-73.63362,"zip":"12132","miles_from_dt":28.77},{"city":"Amherst","state_name":"Massachusetts","lat":42.38394,"lng":-72.51183,"zip":"01004","miles_from_dt":28.91},{"city":"Turners Falls","state_name":"Massachusetts","lat":42.59273,"lng":-72.54591,"zip":"01376","miles_from_dt":29.14},{"city":"Montague","state_name":"Massachusetts","lat":42.54162,"lng":-72.52069,"zip":"01351","miles_from_dt":29.23},{"city":"West Hartland","state_name":"Connecticut","lat":42.01419,"lng":-72.97423,"zip":"06091","miles_from_dt":29.27},{"city":"West Halifax","state_name":"Vermont","lat":42.77396,"lng":-72.73164,"zip":"05358","miles_from_dt":29.35},{"city":"Valatie","state_name":"New York","lat":42.42272,"lng":-73.65387,"zip":"12184","miles_from_dt":29.69},{"city":"Colebrook","state_name":"Connecticut","lat":42.00152,"lng":-73.08078,"zip":"06021","miles_from_dt":29.7},{"city":"Niverville","state_name":"New York","lat":42.44156,"lng":-73.65835,"zip":"12130","miles_from_dt":29.92},{"city":"Lake Pleasant","state_name":"Massachusetts","lat":42.56027,"lng":-72.51321,"zip":"01347","miles_from_dt":29.95}],"targetCityZipCode":"01235","targetCityState":"Massachusetts"},"__N_SSG":true}