{"pageProps":{"stateName":"Massachusetts","cityName":"waltham","nearbyCities":[{"city":"Waltham","state_name":"Massachusetts","lat":42.378,"lng":-71.23988,"zip":"02454","miles_from_dt":1.68},{"city":"North Waltham","state_name":"Massachusetts","lat":42.39,"lng":-71.22219,"zip":"02455","miles_from_dt":1.89},{"city":"Waltham","state_name":"Massachusetts","lat":42.39365,"lng":-71.2202,"zip":"02452","miles_from_dt":1.93},{"city":"Waltham","state_name":"Massachusetts","lat":42.36918,"lng":-71.24101,"zip":"02453","miles_from_dt":2.19},{"city":"Lexington","state_name":"Massachusetts","lat":42.438,"lng":-71.23922,"zip":"02421","miles_from_dt":2.87},{"city":"Lincoln","state_name":"Massachusetts","lat":42.42572,"lng":-71.31013,"zip":"01773","miles_from_dt":3.29},{"city":"Weston","state_name":"Massachusetts","lat":42.35893,"lng":-71.30009,"zip":"02493","miles_from_dt":3.51},{"city":"Waverley","state_name":"Massachusetts","lat":42.38898,"lng":-71.18776,"zip":"02479","miles_from_dt":3.62},{"city":"Auburndale","state_name":"Massachusetts","lat":42.34541,"lng":-71.24759,"zip":"02466","miles_from_dt":3.7},{"city":"West Newton","state_name":"Massachusetts","lat":42.34969,"lng":-71.22646,"zip":"02465","miles_from_dt":3.73},{"city":"Belmont","state_name":"Massachusetts","lat":42.39602,"lng":-71.17955,"zip":"02478","miles_from_dt":3.98},{"city":"Newtonville","state_name":"Massachusetts","lat":42.35206,"lng":-71.20835,"zip":"02460","miles_from_dt":4.07},{"city":"Arlington Heights","state_name":"Massachusetts","lat":42.42025,"lng":-71.18094,"zip":"02475","miles_from_dt":4.18},{"city":"Arlington","state_name":"Massachusetts","lat":42.41597,"lng":-71.17437,"zip":"02476","miles_from_dt":4.41},{"city":"Watertown","state_name":"Massachusetts","lat":42.37,"lng":-71.17713,"zip":"02472","miles_from_dt":4.55},{"city":"Lexington","state_name":"Massachusetts","lat":42.45821,"lng":-71.21762,"zip":"02420","miles_from_dt":4.59},{"city":"Watertown","state_name":"Massachusetts","lat":42.36984,"lng":-71.17499,"zip":"02471","miles_from_dt":4.66},{"city":"Newton Lower Falls","state_name":"Massachusetts","lat":42.33102,"lng":-71.25599,"zip":"02462","miles_from_dt":4.66},{"city":"Hanscom Afb","state_name":"Massachusetts","lat":42.46422,"lng":-71.28202,"zip":"01731","miles_from_dt":4.7},{"city":"Newton","state_name":"Massachusetts","lat":42.35294,"lng":-71.18763,"zip":"02458","miles_from_dt":4.76},{"city":"Waban","state_name":"Massachusetts","lat":42.32777,"lng":-71.23142,"zip":"02468","miles_from_dt":5.06},{"city":"New Town","state_name":"Massachusetts","lat":42.33357,"lng":-71.20411,"zip":"02456","miles_from_dt":5.25},{"city":"Nonantum","state_name":"Massachusetts","lat":42.33205,"lng":-71.20748,"zip":"02495","miles_from_dt":5.25},{"city":"Arlington","state_name":"Massachusetts","lat":42.42053,"lng":-71.15666,"zip":"02474","miles_from_dt":5.37},{"city":"Watertown","state_name":"Massachusetts","lat":42.3772,"lng":-71.15371,"zip":"02477","miles_from_dt":5.5},{"city":"Wayland","state_name":"Massachusetts","lat":42.3583,"lng":-71.35895,"zip":"01778","miles_from_dt":5.9},{"city":"Newton Highlands","state_name":"Massachusetts","lat":42.31693,"lng":-71.20875,"zip":"02461","miles_from_dt":6.16},{"city":"Wellesley Hills","state_name":"Massachusetts","lat":42.31064,"lng":-71.27779,"zip":"02481","miles_from_dt":6.16},{"city":"Newton Upper Falls","state_name":"Massachusetts","lat":42.31274,"lng":-71.21981,"zip":"02464","miles_from_dt":6.23},{"city":"Brighton","state_name":"Massachusetts","lat":42.34989,"lng":-71.15417,"zip":"02135","miles_from_dt":6.26},{"city":"Cambridge","state_name":"Massachusetts","lat":42.39332,"lng":-71.13342,"zip":"02140","miles_from_dt":6.35},{"city":"Cambridge","state_name":"Massachusetts","lat":42.37997,"lng":-71.13446,"zip":"02138","miles_from_dt":6.42},{"city":"West Medford","state_name":"Massachusetts","lat":42.42433,"lng":-71.13227,"zip":"02156","miles_from_dt":6.64},{"city":"Newton Center","state_name":"Massachusetts","lat":42.31515,"lng":-71.19174,"zip":"02459","miles_from_dt":6.67},{"city":"Winchester","state_name":"Massachusetts","lat":42.45177,"lng":-71.14628,"zip":"01890","miles_from_dt":6.76},{"city":"Somerville","state_name":"Massachusetts","lat":42.40088,"lng":-71.122,"zip":"02144","miles_from_dt":6.92},{"city":"Needham Heights","state_name":"Massachusetts","lat":42.29959,"lng":-71.2317,"zip":"02494","miles_from_dt":6.96},{"city":"Babson Park","state_name":"Massachusetts","lat":42.29777,"lng":-71.26887,"zip":"02457","miles_from_dt":6.98},{"city":"Bedford","state_name":"Massachusetts","lat":42.4995,"lng":-71.27799,"zip":"01730","miles_from_dt":7.04},{"city":"Concord","state_name":"Massachusetts","lat":42.46221,"lng":-71.36504,"zip":"01742","miles_from_dt":7.05},{"city":"Boston","state_name":"Massachusetts","lat":42.36717,"lng":-71.12509,"zip":"02163","miles_from_dt":7.1},{"city":"Allston","state_name":"Massachusetts","lat":42.35855,"lng":-71.12931,"zip":"02134","miles_from_dt":7.11},{"city":"Cambridge","state_name":"Massachusetts","lat":42.37407,"lng":-71.11714,"zip":"02238","miles_from_dt":7.37},{"city":"Chestnut Hill","state_name":"Massachusetts","lat":42.31725,"lng":-71.16096,"zip":"02467","miles_from_dt":7.47},{"city":"Wellesley","state_name":"Massachusetts","lat":42.29455,"lng":-71.29859,"zip":"02482","miles_from_dt":7.49},{"city":"Medford","state_name":"Massachusetts","lat":42.41902,"lng":-71.10986,"zip":"02153","miles_from_dt":7.67},{"city":"Burlington","state_name":"Massachusetts","lat":42.5028,"lng":-71.20147,"zip":"01803","miles_from_dt":7.74},{"city":"Medford","state_name":"Massachusetts","lat":42.42324,"lng":-71.10878,"zip":"02155","miles_from_dt":7.78},{"city":"Woburn","state_name":"Massachusetts","lat":42.48616,"lng":-71.15808,"zip":"01888","miles_from_dt":7.89},{"city":"Brookline","state_name":"Massachusetts","lat":42.3435,"lng":-71.12179,"zip":"02446","miles_from_dt":7.91},{"city":"Burlington","state_name":"Massachusetts","lat":42.50635,"lng":-71.19824,"zip":"01805","miles_from_dt":8.03},{"city":"Woburn","state_name":"Massachusetts","lat":42.48694,"lng":-71.15415,"zip":"01801","miles_from_dt":8.06},{"city":"Brookline","state_name":"Massachusetts","lat":42.32581,"lng":-71.13319,"zip":"02445","miles_from_dt":8.1},{"city":"Somerville","state_name":"Massachusetts","lat":42.38142,"lng":-71.09677,"zip":"02143","miles_from_dt":8.3},{"city":"Cambridge","state_name":"Massachusetts","lat":42.36224,"lng":-71.10253,"zip":"02139","miles_from_dt":8.31},{"city":"Brookline Village","state_name":"Massachusetts","lat":42.33355,"lng":-71.11875,"zip":"02447","miles_from_dt":8.39},{"city":"Needham","state_name":"Massachusetts","lat":42.27615,"lng":-71.24387,"zip":"02492","miles_from_dt":8.48},{"city":"Sudbury","state_name":"Massachusetts","lat":42.38456,"lng":-71.42316,"zip":"01776","miles_from_dt":8.54},{"city":"Somerville","state_name":"Massachusetts","lat":42.39206,"lng":-71.0895,"zip":"02145","miles_from_dt":8.6},{"city":"Boston","state_name":"Massachusetts","lat":42.34741,"lng":-71.10276,"zip":"02215","miles_from_dt":8.66},{"city":"Pinehurst","state_name":"Massachusetts","lat":42.52539,"lng":-71.22794,"zip":"01866","miles_from_dt":8.88},{"city":"Cambridge","state_name":"Massachusetts","lat":42.37041,"lng":-71.08218,"zip":"02141","miles_from_dt":9.17},{"city":"Natick","state_name":"Massachusetts","lat":42.28436,"lng":-71.34966,"zip":"01760","miles_from_dt":9.19},{"city":"Boston","state_name":"Massachusetts","lat":42.34046,"lng":-71.09481,"zip":"02115","miles_from_dt":9.23},{"city":"Cambridge","state_name":"Massachusetts","lat":42.36295,"lng":-71.08189,"zip":"02142","miles_from_dt":9.31},{"city":"Nutting Lake","state_name":"Massachusetts","lat":42.53471,"lng":-71.26916,"zip":"01865","miles_from_dt":9.41},{"city":"Roxbury Crossing","state_name":"Massachusetts","lat":42.33212,"lng":-71.09654,"zip":"02120","miles_from_dt":9.42},{"city":"Boston","state_name":"Massachusetts","lat":42.34394,"lng":-71.08527,"zip":"02123","miles_from_dt":9.58},{"city":"Jamaica Plain","state_name":"Massachusetts","lat":42.30823,"lng":-71.11515,"zip":"02130","miles_from_dt":9.58},{"city":"West Roxbury","state_name":"Massachusetts","lat":42.27931,"lng":-71.16072,"zip":"02132","miles_from_dt":9.6},{"city":"Boston","state_name":"Massachusetts","lat":42.34748,"lng":-71.08199,"zip":"02199","miles_from_dt":9.64},{"city":"Boston","state_name":"Massachusetts","lat":42.34,"lng":-71.08502,"zip":"02298","miles_from_dt":9.7},{"city":"Stoneham","state_name":"Massachusetts","lat":42.47396,"lng":-71.09705,"zip":"02180","miles_from_dt":9.71},{"city":"Boston","state_name":"Massachusetts","lat":42.35105,"lng":-71.07638,"zip":"02116","miles_from_dt":9.82},{"city":"Billerica","state_name":"Massachusetts","lat":42.54127,"lng":-71.26288,"zip":"01822","miles_from_dt":9.85},{"city":"Woburn","state_name":"Massachusetts","lat":42.50588,"lng":-71.12715,"zip":"01815","miles_from_dt":9.95},{"city":"Boston","state_name":"Massachusetts","lat":42.36337,"lng":-71.06686,"zip":"02114","miles_from_dt":10.04},{"city":"Boston","state_name":"Massachusetts","lat":42.34853,"lng":-71.07299,"zip":"02217","miles_from_dt":10.05},{"city":"Charlestown","state_name":"Massachusetts","lat":42.37975,"lng":-71.06167,"zip":"02129","miles_from_dt":10.09},{"city":"Boston","state_name":"Massachusetts","lat":42.36237,"lng":-71.06619,"zip":"02222","miles_from_dt":10.09},{"city":"Boston","state_name":"Massachusetts","lat":42.34217,"lng":-71.0733,"zip":"02117","miles_from_dt":10.19},{"city":"Roxbury","state_name":"Massachusetts","lat":42.32405,"lng":-71.08522,"zip":"02119","miles_from_dt":10.2},{"city":"Woburn","state_name":"Massachusetts","lat":42.50824,"lng":-71.1234,"zip":"01813","miles_from_dt":10.2},{"city":"Boston","state_name":"Massachusetts","lat":42.35657,"lng":-71.06516,"zip":"02108","miles_from_dt":10.25},{"city":"Carlisle","state_name":"Massachusetts","lat":42.53001,"lng":-71.35128,"zip":"01741","miles_from_dt":10.26},{"city":"Boston","state_name":"Massachusetts","lat":42.35838,"lng":-71.06383,"zip":"02133","miles_from_dt":10.28},{"city":"Maynard","state_name":"Massachusetts","lat":42.4264,"lng":-71.45607,"zip":"01754","miles_from_dt":10.35},{"city":"Everett","state_name":"Massachusetts","lat":42.40643,"lng":-71.05446,"zip":"02149","miles_from_dt":10.39},{"city":"Boston","state_name":"Massachusetts","lat":42.3582,"lng":-71.06109,"zip":"02293","miles_from_dt":10.42},{"city":"Roslindale","state_name":"Massachusetts","lat":42.28392,"lng":-71.12468,"zip":"02131","miles_from_dt":10.43},{"city":"Boston","state_name":"Massachusetts","lat":42.33806,"lng":-71.07057,"zip":"02118","miles_from_dt":10.43},{"city":"Boston","state_name":"Massachusetts","lat":42.36144,"lng":-71.05945,"zip":"02203","miles_from_dt":10.44},{"city":"Malden","state_name":"Massachusetts","lat":42.43048,"lng":-71.05762,"zip":"02148","miles_from_dt":10.45},{"city":"Billerica","state_name":"Massachusetts","lat":42.54999,"lng":-71.25206,"zip":"01821","miles_from_dt":10.45},{"city":"Boston","state_name":"Massachusetts","lat":42.35936,"lng":-71.05953,"zip":"02201","miles_from_dt":10.48},{"city":"Boston","state_name":"Massachusetts","lat":42.3513,"lng":-71.06086,"zip":"02196","miles_from_dt":10.57},{"city":"Boston","state_name":"Massachusetts","lat":42.39503,"lng":-71.05027,"zip":"02204","miles_from_dt":10.59},{"city":"Boston","state_name":"Massachusetts","lat":42.36526,"lng":-71.05524,"zip":"02113","miles_from_dt":10.59},{"city":"Boston","state_name":"Massachusetts","lat":42.35067,"lng":-71.06054,"zip":"02111","miles_from_dt":10.6},{"city":"Boston","state_name":"Massachusetts","lat":42.35768,"lng":-71.05763,"zip":"02112","miles_from_dt":10.6},{"city":"Boston","state_name":"Massachusetts","lat":42.35863,"lng":-71.0567,"zip":"02297","miles_from_dt":10.63},{"city":"Boston","state_name":"Massachusetts","lat":42.35807,"lng":-71.05671,"zip":"02211","miles_from_dt":10.64},{"city":"Framingham","state_name":"Massachusetts","lat":42.32195,"lng":-71.43796,"zip":"01701","miles_from_dt":10.65},{"city":"Boston","state_name":"Massachusetts","lat":42.35486,"lng":-71.05727,"zip":"02241","miles_from_dt":10.67},{"city":"Boston","state_name":"Massachusetts","lat":42.36498,"lng":-71.05277,"zip":"02109","miles_from_dt":10.72},{"city":"Boston","state_name":"Massachusetts","lat":42.35572,"lng":-71.05577,"zip":"02212","miles_from_dt":10.73},{"city":"Boston","state_name":"Massachusetts","lat":42.35114,"lng":-71.05706,"zip":"02284","miles_from_dt":10.76},{"city":"Framingham","state_name":"Massachusetts","lat":42.32025,"lng":-71.43949,"zip":"01705","miles_from_dt":10.78},{"city":"Framingham","state_name":"Massachusetts","lat":42.32301,"lng":-71.44179,"zip":"01703","miles_from_dt":10.79},{"city":"Boston","state_name":"Massachusetts","lat":42.34875,"lng":-71.05672,"zip":"02283","miles_from_dt":10.83},{"city":"Dorchester","state_name":"Massachusetts","lat":42.3057,"lng":-71.08693,"zip":"02121","miles_from_dt":10.83},{"city":"Boston","state_name":"Massachusetts","lat":42.34935,"lng":-71.05564,"zip":"02205","miles_from_dt":10.87},{"city":"Melrose","state_name":"Massachusetts","lat":42.45561,"lng":-71.05901,"zip":"02176","miles_from_dt":10.88},{"city":"Boston","state_name":"Massachusetts","lat":42.35797,"lng":-71.05189,"zip":"02110","miles_from_dt":10.88},{"city":"Acton","state_name":"Massachusetts","lat":42.48397,"lng":-71.43809,"zip":"01720","miles_from_dt":10.96},{"city":"Framingham","state_name":"Massachusetts","lat":42.31823,"lng":-71.44266,"zip":"01704","miles_from_dt":10.99},{"city":"Dedham","state_name":"Massachusetts","lat":42.24664,"lng":-71.17992,"zip":"02027","miles_from_dt":11.21},{"city":"Dedham","state_name":"Massachusetts","lat":42.24665,"lng":-71.1777,"zip":"02026","miles_from_dt":11.25},{"city":"Dover","state_name":"Massachusetts","lat":42.2366,"lng":-71.28421,"zip":"02030","miles_from_dt":11.27},{"city":"Chelsea","state_name":"Massachusetts","lat":42.39587,"lng":-71.03251,"zip":"02150","miles_from_dt":11.5},{"city":"Boston","state_name":"Massachusetts","lat":42.34445,"lng":-71.04217,"zip":"02206","miles_from_dt":11.63},{"city":"Boston","state_name":"Massachusetts","lat":42.34815,"lng":-71.03942,"zip":"02210","miles_from_dt":11.68},{"city":"Dorchester","state_name":"Massachusetts","lat":42.31578,"lng":-71.0562,"zip":"02125","miles_from_dt":11.78},{"city":"Hyde Park","state_name":"Massachusetts","lat":42.25505,"lng":-71.12662,"zip":"02136","miles_from_dt":11.96},{"city":"Mattapan","state_name":"Massachusetts","lat":42.27588,"lng":-71.0918,"zip":"02126","miles_from_dt":11.98},{"city":"South Boston","state_name":"Massachusetts","lat":42.33455,"lng":-71.03875,"zip":"02127","miles_from_dt":12.03},{"city":"Framingham","state_name":"Massachusetts","lat":42.28242,"lng":-71.43428,"zip":"01702","miles_from_dt":12.1},{"city":"Wilmington","state_name":"Massachusetts","lat":42.56091,"lng":-71.16541,"zip":"01887","miles_from_dt":12.15},{"city":"Wakefield","state_name":"Massachusetts","lat":42.50348,"lng":-71.06559,"zip":"01880","miles_from_dt":12.18},{"city":"Reading","state_name":"Massachusetts","lat":42.53505,"lng":-71.1055,"zip":"01867","miles_from_dt":12.2},{"city":"Acton","state_name":"Massachusetts","lat":42.52165,"lng":-71.42983,"zip":"01718","miles_from_dt":12.24},{"city":"North Billerica","state_name":"Massachusetts","lat":42.57427,"lng":-71.29437,"zip":"01862","miles_from_dt":12.27},{"city":"Dorchester Center","state_name":"Massachusetts","lat":42.28583,"lng":-71.07114,"zip":"02124","miles_from_dt":12.31},{"city":"East Boston","state_name":"Massachusetts","lat":42.37324,"lng":-71.01616,"zip":"02128","miles_from_dt":12.46},{"city":"Westwood","state_name":"Massachusetts","lat":42.22024,"lng":-71.21057,"zip":"02090","miles_from_dt":12.54},{"city":"Dorchester","state_name":"Massachusetts","lat":42.29427,"lng":-71.05185,"zip":"02122","miles_from_dt":12.75},{"city":"Sherborn","state_name":"Massachusetts","lat":42.23416,"lng":-71.37532,"zip":"01770","miles_from_dt":12.86},{"city":"Readville","state_name":"Massachusetts","lat":42.23508,"lng":-71.13447,"zip":"02137","miles_from_dt":12.92},{"city":"Revere","state_name":"Massachusetts","lat":42.41887,"lng":-71.004,"zip":"02151","miles_from_dt":13.03},{"city":"Stow","state_name":"Massachusetts","lat":42.42983,"lng":-71.51146,"zip":"01775","miles_from_dt":13.18},{"city":"Milton Village","state_name":"Massachusetts","lat":42.26069,"lng":-71.07867,"zip":"02187","miles_from_dt":13.2},{"city":"Saugus","state_name":"Massachusetts","lat":42.46922,"lng":-71.01299,"zip":"01906","miles_from_dt":13.41},{"city":"North Reading","state_name":"Massachusetts","lat":42.57201,"lng":-71.11123,"zip":"01889","miles_from_dt":14.11},{"city":"Quincy","state_name":"Massachusetts","lat":42.28709,"lng":-71.02604,"zip":"02171","miles_from_dt":14.12},{"city":"Milton","state_name":"Massachusetts","lat":42.23854,"lng":-71.08464,"zip":"02186","miles_from_dt":14.15},{"city":"Winthrop","state_name":"Massachusetts","lat":42.37724,"lng":-70.98115,"zip":"02152","miles_from_dt":14.21},{"city":"Chelmsford","state_name":"Massachusetts","lat":42.59156,"lng":-71.35553,"zip":"01824","miles_from_dt":14.23},{"city":"Fayville","state_name":"Massachusetts","lat":42.29155,"lng":-71.50101,"zip":"01745","miles_from_dt":14.5},{"city":"Ashland","state_name":"Massachusetts","lat":42.25726,"lng":-71.46867,"zip":"01721","miles_from_dt":14.57},{"city":"Boxborough","state_name":"Massachusetts","lat":42.48837,"lng":-71.51779,"zip":"01719","miles_from_dt":14.69},{"city":"Lynnfield","state_name":"Massachusetts","lat":42.53523,"lng":-71.03695,"zip":"01940","miles_from_dt":14.69},{"city":"Tewksbury","state_name":"Massachusetts","lat":42.61206,"lng":-71.22733,"zip":"01876","miles_from_dt":14.81},{"city":"Hudson","state_name":"Massachusetts","lat":42.38868,"lng":-71.54648,"zip":"01749","miles_from_dt":14.81},{"city":"North Scituate","state_name":"Massachusetts","lat":42.18687,"lng":-71.20406,"zip":"02060","miles_from_dt":14.87},{"city":"Medfield","state_name":"Massachusetts","lat":42.1848,"lng":-71.30501,"zip":"02052","miles_from_dt":14.96},{"city":"Norwood","state_name":"Massachusetts","lat":42.18563,"lng":-71.19464,"zip":"02062","miles_from_dt":15.05},{"city":"Littleton","state_name":"Massachusetts","lat":42.53503,"lng":-71.4891,"zip":"01460","miles_from_dt":15.13},{"city":"Marlborough","state_name":"Massachusetts","lat":42.3494,"lng":-71.54681,"zip":"01752","miles_from_dt":15.2},{"city":"Lynn","state_name":"Massachusetts","lat":42.46355,"lng":-70.9733,"zip":"01905","miles_from_dt":15.2},{"city":"North Reading","state_name":"Massachusetts","lat":42.58156,"lng":-71.08759,"zip":"01864","miles_from_dt":15.32},{"city":"Quincy","state_name":"Massachusetts","lat":42.26644,"lng":-71.01621,"zip":"02170","miles_from_dt":15.35},{"city":"Southborough","state_name":"Massachusetts","lat":42.30144,"lng":-71.5304,"zip":"01772","miles_from_dt":15.51},{"city":"Lynn","state_name":"Massachusetts","lat":42.49151,"lng":-70.97166,"zip":"01904","miles_from_dt":15.95},{"city":"Westford","state_name":"Massachusetts","lat":42.58642,"lng":-71.44008,"zip":"01886","miles_from_dt":15.98},{"city":"Lynn","state_name":"Massachusetts","lat":42.47333,"lng":-70.96131,"zip":"01910","miles_from_dt":15.99},{"city":"Lowell","state_name":"Massachusetts","lat":42.63231,"lng":-71.29538,"zip":"01852","miles_from_dt":16.25},{"city":"Lynn","state_name":"Massachusetts","lat":42.46619,"lng":-70.94973,"zip":"01903","miles_from_dt":16.4},{"city":"Lowell","state_name":"Massachusetts","lat":42.62915,"lng":-71.33674,"zip":"01851","miles_from_dt":16.42},{"city":"Quincy","state_name":"Massachusetts","lat":42.23971,"lng":-71.01802,"zip":"02169","miles_from_dt":16.45},{"city":"Quincy","state_name":"Massachusetts","lat":42.25139,"lng":-71.00394,"zip":"02269","miles_from_dt":16.48},{"city":"Lynn","state_name":"Massachusetts","lat":42.46125,"lng":-70.94639,"zip":"01901","miles_from_dt":16.48},{"city":"Millis","state_name":"Massachusetts","lat":42.1693,"lng":-71.36261,"zip":"02054","miles_from_dt":16.72},{"city":"Canton","state_name":"Massachusetts","lat":42.17504,"lng":-71.12645,"zip":"02021","miles_from_dt":16.82},{"city":"Holliston","state_name":"Massachusetts","lat":42.19775,"lng":-71.44499,"zip":"01746","miles_from_dt":16.87},{"city":"East Walpole","state_name":"Massachusetts","lat":42.15489,"lng":-71.2155,"zip":"02032","miles_from_dt":16.96},{"city":"Lynn","state_name":"Massachusetts","lat":42.4712,"lng":-70.93983,"zip":"01902","miles_from_dt":16.99},{"city":"Nahant","state_name":"Massachusetts","lat":42.42856,"lng":-70.92614,"zip":"01908","miles_from_dt":17.06},{"city":"Peabody","state_name":"Massachusetts","lat":42.53374,"lng":-70.97222,"zip":"01960","miles_from_dt":17.3},{"city":"Walpole","state_name":"Massachusetts","lat":42.14689,"lng":-71.25916,"zip":"02081","miles_from_dt":17.37},{"city":"Peabody","state_name":"Massachusetts","lat":42.53456,"lng":-70.96824,"zip":"01961","miles_from_dt":17.5},{"city":"North Chelmsford","state_name":"Massachusetts","lat":42.63274,"lng":-71.39132,"zip":"01863","miles_from_dt":17.55},{"city":"Andover","state_name":"Massachusetts","lat":42.64859,"lng":-71.18254,"zip":"01812","miles_from_dt":17.67},{"city":"Andover","state_name":"Massachusetts","lat":42.64669,"lng":-71.16517,"zip":"01810","miles_from_dt":17.76},{"city":"Andover","state_name":"Massachusetts","lat":42.65037,"lng":-71.18456,"zip":"01899","miles_from_dt":17.77},{"city":"Harvard","state_name":"Massachusetts","lat":42.50005,"lng":-71.57754,"zip":"01451","miles_from_dt":17.8},{"city":"Lowell","state_name":"Massachusetts","lat":42.65569,"lng":-71.30292,"zip":"01850","miles_from_dt":17.9},{"city":"Andover","state_name":"Massachusetts","lat":42.65227,"lng":-71.1835,"zip":"05501","miles_from_dt":17.91},{"city":"Lowell","state_name":"Massachusetts","lat":42.64939,"lng":-71.34827,"zip":"01854","miles_from_dt":17.92},{"city":"Bolton","state_name":"Massachusetts","lat":42.43616,"lng":-71.60728,"zip":"01740","miles_from_dt":18.09},{"city":"Lowell","state_name":"Massachusetts","lat":42.65859,"lng":-71.30522,"zip":"01853","miles_from_dt":18.11},{"city":"Hopkinton","state_name":"Massachusetts","lat":42.2255,"lng":-71.53781,"zip":"01748","miles_from_dt":18.69},{"city":"Swampscott","state_name":"Massachusetts","lat":42.47572,"lng":-70.90684,"zip":"01907","miles_from_dt":18.69},{"city":"Randolph","state_name":"Massachusetts","lat":42.17506,"lng":-71.05011,"zip":"02368","miles_from_dt":18.73},{"city":"Braintree","state_name":"Massachusetts","lat":42.20386,"lng":-71.0022,"zip":"02184","miles_from_dt":18.75},{"city":"Braintree","state_name":"Massachusetts","lat":42.20118,"lng":-71.00511,"zip":"02185","miles_from_dt":18.78},{"city":"Middleton","state_name":"Massachusetts","lat":42.6043,"lng":-71.01641,"zip":"01949","miles_from_dt":18.79},{"city":"Hathorne","state_name":"Massachusetts","lat":42.58579,"lng":-70.98406,"zip":"01937","miles_from_dt":19.02},{"city":"Medway","state_name":"Massachusetts","lat":42.15352,"lng":-71.42906,"zip":"02053","miles_from_dt":19.07},{"city":"North Weymouth","state_name":"Massachusetts","lat":42.24434,"lng":-70.94378,"zip":"02191","miles_from_dt":19.27},{"city":"Woodville","state_name":"Massachusetts","lat":42.23233,"lng":-71.55963,"zip":"01784","miles_from_dt":19.28},{"city":"Berlin","state_name":"Massachusetts","lat":42.38378,"lng":-71.63552,"zip":"01503","miles_from_dt":19.38},{"city":"Still River","state_name":"Massachusetts","lat":42.48365,"lng":-71.62161,"zip":"01467","miles_from_dt":19.53},{"city":"Ayer","state_name":"Massachusetts","lat":42.56351,"lng":-71.57059,"zip":"01432","miles_from_dt":19.64},{"city":"Dracut","state_name":"Massachusetts","lat":42.68323,"lng":-71.30063,"zip":"01826","miles_from_dt":19.77},{"city":"Salem","state_name":"Massachusetts","lat":42.51298,"lng":-70.90266,"zip":"01970","miles_from_dt":19.77},{"city":"Norfolk","state_name":"Massachusetts","lat":42.11632,"lng":-71.32952,"zip":"02056","miles_from_dt":19.83},{"city":"Danvers","state_name":"Massachusetts","lat":42.57398,"lng":-70.94923,"zip":"01923","miles_from_dt":19.86},{"city":"Weymouth","state_name":"Massachusetts","lat":42.20724,"lng":-70.95764,"zip":"02188","miles_from_dt":20.25},{"city":"South Walpole","state_name":"Massachusetts","lat":42.10392,"lng":-71.27002,"zip":"02071","miles_from_dt":20.35},{"city":"Westborough","state_name":"Massachusetts","lat":42.26815,"lng":-71.61402,"zip":"01581","miles_from_dt":20.37},{"city":"Sharon","state_name":"Massachusetts","lat":42.10778,"lng":-71.18183,"zip":"02067","miles_from_dt":20.44},{"city":"Tyngsboro","state_name":"Massachusetts","lat":42.66626,"lng":-71.42911,"zip":"01879","miles_from_dt":20.45},{"city":"Devens","state_name":"Massachusetts","lat":42.53149,"lng":-71.61663,"zip":"01434","miles_from_dt":20.53},{"city":"Northborough","state_name":"Massachusetts","lat":42.32314,"lng":-71.64621,"zip":"01532","miles_from_dt":20.58},{"city":"Lawrence","state_name":"Massachusetts","lat":42.68985,"lng":-71.16095,"zip":"01843","miles_from_dt":20.7},{"city":"North Andover","state_name":"Massachusetts","lat":42.67132,"lng":-71.08669,"zip":"01845","miles_from_dt":20.74},{"city":"Hull","state_name":"Massachusetts","lat":42.28437,"lng":-70.88266,"zip":"02045","miles_from_dt":20.74},{"city":"Stoughton","state_name":"Massachusetts","lat":42.1192,"lng":-71.10189,"zip":"02072","miles_from_dt":20.87},{"city":"East Weymouth","state_name":"Massachusetts","lat":42.2111,"lng":-70.93135,"zip":"02189","miles_from_dt":21.13},{"city":"Marblehead","state_name":"Massachusetts","lat":42.49924,"lng":-70.86348,"zip":"01945","miles_from_dt":21.3},{"city":"Milford","state_name":"Massachusetts","lat":42.15723,"lng":-71.51978,"zip":"01757","miles_from_dt":21.41},{"city":"Groton","state_name":"Massachusetts","lat":42.61368,"lng":-71.56139,"zip":"01450","miles_from_dt":21.48},{"city":"Hingham","state_name":"Massachusetts","lat":42.24248,"lng":-70.89288,"zip":"02044","miles_from_dt":21.55},{"city":"Avon","state_name":"Massachusetts","lat":42.12666,"lng":-71.04922,"zip":"02322","miles_from_dt":21.59},{"city":"Groton","state_name":"Massachusetts","lat":42.60785,"lng":-71.57233,"zip":"01471","miles_from_dt":21.62},{"city":"Holbrook","state_name":"Massachusetts","lat":42.14733,"lng":-71.00484,"zip":"02343","miles_from_dt":21.64},{"city":"Lawrence","state_name":"Massachusetts","lat":42.70548,"lng":-71.15997,"zip":"01842","miles_from_dt":21.76},{"city":"Salem","state_name":"Massachusetts","lat":42.52757,"lng":-70.86839,"zip":"01971","miles_from_dt":21.78},{"city":"Lawrence","state_name":"Massachusetts","lat":42.70695,"lng":-71.16014,"zip":"01840","miles_from_dt":21.85},{"city":"Lawrence","state_name":"Massachusetts","lat":42.71077,"lng":-71.16494,"zip":"01841","miles_from_dt":22.06},{"city":"Clinton","state_name":"Massachusetts","lat":42.4119,"lng":-71.68883,"zip":"01510","miles_from_dt":22.09},{"city":"South Lancaster","state_name":"Massachusetts","lat":42.44581,"lng":-71.68845,"zip":"01561","miles_from_dt":22.29},{"city":"South Weymouth","state_name":"Massachusetts","lat":42.16625,"lng":-70.95253,"zip":"02190","miles_from_dt":22.39},{"city":"Lancaster","state_name":"Massachusetts","lat":42.48176,"lng":-71.68079,"zip":"01523","miles_from_dt":22.4},{"city":"Hingham","state_name":"Massachusetts","lat":42.21678,"lng":-70.88494,"zip":"02043","miles_from_dt":22.83},{"city":"Dunstable","state_name":"Massachusetts","lat":42.67643,"lng":-71.50052,"zip":"01827","miles_from_dt":22.85},{"city":"Franklin","state_name":"Massachusetts","lat":42.08622,"lng":-71.41126,"zip":"02038","miles_from_dt":22.96},{"city":"Boxford","state_name":"Massachusetts","lat":42.6815,"lng":-71.01887,"zip":"01921","miles_from_dt":23.01},{"city":"Topsfield","state_name":"Massachusetts","lat":42.63728,"lng":-70.94251,"zip":"01983","miles_from_dt":23.02},{"city":"Foxboro","state_name":"Massachusetts","lat":42.06266,"lng":-71.24613,"zip":"02035","miles_from_dt":23.19},{"city":"Beverly","state_name":"Massachusetts","lat":42.56841,"lng":-70.8647,"zip":"01915","miles_from_dt":23.23},{"city":"Shirley","state_name":"Massachusetts","lat":42.57411,"lng":-71.6475,"zip":"01464","miles_from_dt":23.33},{"city":"Pelham","state_name":"New Hampshire","lat":42.73354,"lng":-71.324,"zip":"03076","miles_from_dt":23.37},{"city":"Methuen","state_name":"Massachusetts","lat":42.73426,"lng":-71.18858,"zip":"01844","miles_from_dt":23.43},{"city":"Upton","state_name":"Massachusetts","lat":42.17694,"lng":-71.60516,"zip":"01568","miles_from_dt":23.49},{"city":"Hopedale","state_name":"Massachusetts","lat":42.12477,"lng":-71.535,"zip":"01747","miles_from_dt":23.66},{"city":"Wenham","state_name":"Massachusetts","lat":42.60078,"lng":-70.8826,"zip":"01984","miles_from_dt":23.69},{"city":"West Boxford","state_name":"Massachusetts","lat":42.70948,"lng":-71.05848,"zip":"01885","miles_from_dt":23.74},{"city":"West Groton","state_name":"Massachusetts","lat":42.60663,"lng":-71.62914,"zip":"01472","miles_from_dt":23.81},{"city":"Boylston","state_name":"Massachusetts","lat":42.35633,"lng":-71.72123,"zip":"01505","miles_from_dt":23.92},{"city":"Accord","state_name":"Massachusetts","lat":42.17568,"lng":-70.88691,"zip":"02018","miles_from_dt":24.43},{"city":"Wrentham","state_name":"Massachusetts","lat":42.05129,"lng":-71.35522,"zip":"02093","miles_from_dt":24.49},{"city":"Prides Crossing","state_name":"Massachusetts","lat":42.56294,"lng":-70.82996,"zip":"01965","miles_from_dt":24.6},{"city":"Abington","state_name":"Massachusetts","lat":42.11805,"lng":-70.95905,"zip":"02351","miles_from_dt":24.67},{"city":"North Easton","state_name":"Massachusetts","lat":42.05519,"lng":-71.12071,"zip":"02356","miles_from_dt":24.72},{"city":"Brockton","state_name":"Massachusetts","lat":42.07791,"lng":-71.04223,"zip":"02301","miles_from_dt":24.73},{"city":"Shrewsbury","state_name":"Massachusetts","lat":42.28419,"lng":-71.71558,"zip":"01545","miles_from_dt":24.76},{"city":"Bellingham","state_name":"Massachusetts","lat":42.0777,"lng":-71.47407,"zip":"02019","miles_from_dt":24.78},{"city":"Brockton","state_name":"Massachusetts","lat":42.08318,"lng":-71.02462,"zip":"02305","miles_from_dt":24.83},{"city":"Brockton","state_name":"Massachusetts","lat":42.08167,"lng":-71.02597,"zip":"02304","miles_from_dt":24.88},{"city":"Brockton","state_name":"Massachusetts","lat":42.08476,"lng":-71.01516,"zip":"02303","miles_from_dt":24.97},{"city":"North Easton","state_name":"Massachusetts","lat":42.06224,"lng":-71.07751,"zip":"02357","miles_from_dt":24.98},{"city":"North Grafton","state_name":"Massachusetts","lat":42.23189,"lng":-71.69219,"zip":"01536","miles_from_dt":25.07},{"city":"Cohasset","state_name":"Massachusetts","lat":42.23603,"lng":-70.81906,"zip":"02025","miles_from_dt":25.1},{"city":"Brockton","state_name":"Massachusetts","lat":42.08792,"lng":-70.99864,"zip":"02302","miles_from_dt":25.21},{"city":"Nashua","state_name":"New Hampshire","lat":42.72212,"lng":-71.49556,"zip":"03062","miles_from_dt":25.43},{"city":"Grafton","state_name":"Massachusetts","lat":42.20077,"lng":-71.67892,"zip":"01519","miles_from_dt":25.56},{"city":"Rockland","state_name":"Massachusetts","lat":42.1295,"lng":-70.91002,"zip":"02370","miles_from_dt":25.73},{"city":"South Hamilton","state_name":"Massachusetts","lat":42.62669,"lng":-70.85789,"zip":"01982","miles_from_dt":25.77},{"city":"Nashua","state_name":"New Hampshire","lat":42.74135,"lng":-71.45936,"zip":"03060","miles_from_dt":25.81},{"city":"Pepperell","state_name":"Massachusetts","lat":42.67126,"lng":-71.60429,"zip":"01463","miles_from_dt":25.85},{"city":"Mendon","state_name":"Massachusetts","lat":42.09301,"lng":-71.55146,"zip":"01756","miles_from_dt":25.93},{"city":"Sheldonville","state_name":"Massachusetts","lat":42.0348,"lng":-71.386,"zip":"02070","miles_from_dt":25.96},{"city":"Haverhill","state_name":"Massachusetts","lat":42.75292,"lng":-71.08602,"zip":"01835","miles_from_dt":25.97},{"city":"Shrewsbury","state_name":"Massachusetts","lat":42.29182,"lng":-71.74599,"zip":"01546","miles_from_dt":26.08},{"city":"Hamilton","state_name":"Massachusetts","lat":42.63792,"lng":-70.8594,"zip":"01936","miles_from_dt":26.19},{"city":"Hudson","state_name":"New Hampshire","lat":42.76394,"lng":-71.40716,"zip":"03051","miles_from_dt":26.35},{"city":"Mansfield","state_name":"Massachusetts","lat":42.01626,"lng":-71.21868,"zip":"02048","miles_from_dt":26.46},{"city":"Georgetown","state_name":"Massachusetts","lat":42.72409,"lng":-70.9821,"zip":"01833","miles_from_dt":26.49},{"city":"South Grafton","state_name":"Massachusetts","lat":42.17496,"lng":-71.67762,"zip":"01560","miles_from_dt":26.5},{"city":"Sterling","state_name":"Massachusetts","lat":42.44124,"lng":-71.77297,"zip":"01564","miles_from_dt":26.54},{"city":"Northbridge","state_name":"Massachusetts","lat":42.13991,"lng":-71.64433,"zip":"01534","miles_from_dt":26.69},{"city":"Easton","state_name":"Massachusetts","lat":42.02385,"lng":-71.12922,"zip":"02334","miles_from_dt":26.69},{"city":"Plainville","state_name":"Massachusetts","lat":42.01409,"lng":-71.33642,"zip":"02762","miles_from_dt":26.85},{"city":"Nashua","state_name":"New Hampshire","lat":42.74654,"lng":-71.493,"zip":"03061","miles_from_dt":26.86},{"city":"West Boylston","state_name":"Massachusetts","lat":42.37034,"lng":-71.78502,"zip":"01583","miles_from_dt":27.07},{"city":"Lunenburg","state_name":"Massachusetts","lat":42.58994,"lng":-71.72036,"zip":"01462","miles_from_dt":27.09},{"city":"Salem","state_name":"New Hampshire","lat":42.79023,"lng":-71.22024,"zip":"03079","miles_from_dt":27.1},{"city":"Worcester","state_name":"Massachusetts","lat":42.27687,"lng":-71.76122,"zip":"01655","miles_from_dt":27.14},{"city":"Leominster","state_name":"Massachusetts","lat":42.51961,"lng":-71.76583,"zip":"01453","miles_from_dt":27.3},{"city":"South Easton","state_name":"Massachusetts","lat":42.01954,"lng":-71.10381,"zip":"02375","miles_from_dt":27.32},{"city":"Groveland","state_name":"Massachusetts","lat":42.75198,"lng":-71.01486,"zip":"01834","miles_from_dt":27.35},{"city":"Whitman","state_name":"Massachusetts","lat":42.08,"lng":-70.93993,"zip":"02382","miles_from_dt":27.36},{"city":"West Millbury","state_name":"Massachusetts","lat":42.12631,"lng":-71.64613,"zip":"01586","miles_from_dt":27.4},{"city":"Minot","state_name":"Massachusetts","lat":42.23883,"lng":-70.76158,"zip":"02055","miles_from_dt":27.68},{"city":"Worcester","state_name":"Massachusetts","lat":42.2927,"lng":-71.77904,"zip":"01653","miles_from_dt":27.7},{"city":"Haverhill","state_name":"Massachusetts","lat":42.79099,"lng":-71.13133,"zip":"01832","miles_from_dt":27.84},{"city":"Norwell","state_name":"Massachusetts","lat":42.16075,"lng":-70.81772,"zip":"02061","miles_from_dt":27.88},{"city":"Manchester","state_name":"Massachusetts","lat":42.58154,"lng":-70.76825,"zip":"01944","miles_from_dt":27.99},{"city":"Hanover","state_name":"Massachusetts","lat":42.12241,"lng":-70.85665,"zip":"02339","miles_from_dt":28.02},{"city":"Worcester","state_name":"Massachusetts","lat":42.25085,"lng":-71.7683,"zip":"01604","miles_from_dt":28.09},{"city":"Haverhill","state_name":"Massachusetts","lat":42.78576,"lng":-71.08467,"zip":"01831","miles_from_dt":28.14},{"city":"Worcester","state_name":"Massachusetts","lat":42.28979,"lng":-71.78802,"zip":"01605","miles_from_dt":28.19},{"city":"Worcester","state_name":"Massachusetts","lat":42.31367,"lng":-71.79614,"zip":"01606","miles_from_dt":28.2},{"city":"Windham","state_name":"New Hampshire","lat":42.80758,"lng":-71.29945,"zip":"03087","miles_from_dt":28.31},{"city":"Blackstone","state_name":"Massachusetts","lat":42.0399,"lng":-71.53125,"zip":"01504","miles_from_dt":28.47},{"city":"Nashua","state_name":"New Hampshire","lat":42.77886,"lng":-71.47466,"zip":"03064","miles_from_dt":28.49},{"city":"West Bridgewater","state_name":"Massachusetts","lat":42.02139,"lng":-71.0267,"zip":"02379","miles_from_dt":28.6},{"city":"Linwood","state_name":"Massachusetts","lat":42.09899,"lng":-71.64296,"zip":"01525","miles_from_dt":28.61},{"city":"Whitinsville","state_name":"Massachusetts","lat":42.11837,"lng":-71.66836,"zip":"01588","miles_from_dt":28.61},{"city":"Townsend","state_name":"Massachusetts","lat":42.66514,"lng":-71.69161,"zip":"01469","miles_from_dt":28.81},{"city":"Scituate","state_name":"Massachusetts","lat":42.20129,"lng":-70.76155,"zip":"02066","miles_from_dt":28.82},{"city":"North Uxbridge","state_name":"Massachusetts","lat":42.09026,"lng":-71.63989,"zip":"01538","miles_from_dt":28.95},{"city":"Worcester","state_name":"Massachusetts","lat":42.26574,"lng":-71.79653,"zip":"01613","miles_from_dt":29.1},{"city":"Ipswich","state_name":"Massachusetts","lat":42.68568,"lng":-70.83989,"zip":"01938","miles_from_dt":29.1},{"city":"North Attleboro","state_name":"Massachusetts","lat":41.9793,"lng":-71.33143,"zip":"02761","miles_from_dt":29.19},{"city":"Rowley","state_name":"Massachusetts","lat":42.72235,"lng":-70.88832,"zip":"01969","miles_from_dt":29.22},{"city":"Haverhill","state_name":"Massachusetts","lat":42.7959,"lng":-71.05323,"zip":"01830","miles_from_dt":29.33},{"city":"Worcester","state_name":"Massachusetts","lat":42.26092,"lng":-71.79949,"zip":"01614","miles_from_dt":29.35},{"city":"Hollis","state_name":"New Hampshire","lat":42.7494,"lng":-71.58338,"zip":"03049","miles_from_dt":29.38},{"city":"Worcester","state_name":"Massachusetts","lat":42.2621,"lng":-71.80145,"zip":"01608","miles_from_dt":29.42},{"city":"Essex","state_name":"Massachusetts","lat":42.63478,"lng":-70.77684,"zip":"01929","miles_from_dt":29.46},{"city":"Nashua","state_name":"New Hampshire","lat":42.7795,"lng":-71.51939,"zip":"03063","miles_from_dt":29.5},{"city":"Worcester","state_name":"Massachusetts","lat":42.27022,"lng":-71.80933,"zip":"01615","miles_from_dt":29.63},{"city":"Worcester","state_name":"Massachusetts","lat":42.2711,"lng":-71.80974,"zip":"01601","miles_from_dt":29.63},{"city":"Millville","state_name":"Massachusetts","lat":42.03906,"lng":-71.57767,"zip":"01529","miles_from_dt":29.76},{"city":"Worcester","state_name":"Massachusetts","lat":42.22684,"lng":-71.79037,"zip":"01607","miles_from_dt":29.77},{"city":"Chartley","state_name":"Massachusetts","lat":41.96733,"lng":-71.24163,"zip":"02712","miles_from_dt":29.78},{"city":"East Bridgewater","state_name":"Massachusetts","lat":42.03521,"lng":-70.94235,"zip":"02333","miles_from_dt":29.84},{"city":"North Attleboro","state_name":"Massachusetts","lat":41.97004,"lng":-71.33586,"zip":"02760","miles_from_dt":29.85},{"city":"Attleboro Falls","state_name":"Massachusetts","lat":41.96666,"lng":-71.30743,"zip":"02763","miles_from_dt":29.92}],"targetCityZipCode":"02451","targetCityState":"Massachusetts"},"__N_SSG":true}