{"pageProps":{"stateName":"Indiana","cityName":"centerpoint","nearbyCities":[{"city":"Bowling Green","state_name":"Indiana","lat":39.35841,"lng":-86.97773,"zip":"47833","miles_from_dt":5.58},{"city":"Cory","state_name":"Indiana","lat":39.36601,"lng":-87.20041,"zip":"47846","miles_from_dt":8.1},{"city":"Knightsville","state_name":"Indiana","lat":39.52403,"lng":-87.09111,"zip":"47857","miles_from_dt":8.14},{"city":"Patricksburg","state_name":"Indiana","lat":39.31271,"lng":-86.95672,"zip":"47455","miles_from_dt":8.6},{"city":"Poland","state_name":"Indiana","lat":39.40892,"lng":-86.89822,"zip":"47868","miles_from_dt":8.62},{"city":"Brazil","state_name":"Indiana","lat":39.52423,"lng":-87.12276,"zip":"47834","miles_from_dt":8.67},{"city":"Staunton","state_name":"Indiana","lat":39.48722,"lng":-87.19029,"zip":"47881","miles_from_dt":8.86},{"city":"Harmony","state_name":"Indiana","lat":39.53757,"lng":-87.07277,"zip":"47853","miles_from_dt":8.92},{"city":"Clay City","state_name":"Indiana","lat":39.27764,"lng":-87.11492,"zip":"47841","miles_from_dt":9.51},{"city":"Reelsville","state_name":"Indiana","lat":39.53527,"lng":-86.96815,"zip":"46171","miles_from_dt":10.01},{"city":"Coal City","state_name":"Indiana","lat":39.23915,"lng":-87.01266,"zip":"47427","miles_from_dt":11.96},{"city":"Seelyville","state_name":"Indiana","lat":39.49516,"lng":-87.26368,"zip":"47878","miles_from_dt":12.45},{"city":"Riley","state_name":"Indiana","lat":39.38978,"lng":-87.30026,"zip":"47871","miles_from_dt":12.96},{"city":"Lewis","state_name":"Indiana","lat":39.26268,"lng":-87.22868,"zip":"47858","miles_from_dt":13.55},{"city":"Terre Haute","state_name":"Indiana","lat":39.46433,"lng":-87.30855,"zip":"47803","miles_from_dt":13.87},{"city":"Freedom","state_name":"Indiana","lat":39.24052,"lng":-86.90655,"zip":"47431","miles_from_dt":14.2},{"city":"Fontanet","state_name":"Indiana","lat":39.5736,"lng":-87.24594,"zip":"47851","miles_from_dt":15.13},{"city":"Putnamville","state_name":"Indiana","lat":39.57164,"lng":-86.86277,"zip":"46170","miles_from_dt":15.39},{"city":"Carbon","state_name":"Indiana","lat":39.62929,"lng":-87.11281,"zip":"47837","miles_from_dt":15.49},{"city":"Cloverdale","state_name":"Indiana","lat":39.51252,"lng":-86.78711,"zip":"46120","miles_from_dt":16.23},{"city":"Pimento","state_name":"Indiana","lat":39.28302,"lng":-87.3247,"zip":"47866","miles_from_dt":16.65},{"city":"Spencer","state_name":"Indiana","lat":39.28153,"lng":-86.78951,"zip":"47460","miles_from_dt":16.91},{"city":"Terre Haute","state_name":"Indiana","lat":39.51273,"lng":-87.35199,"zip":"47808","miles_from_dt":17.22},{"city":"Terre Haute","state_name":"Indiana","lat":39.54768,"lng":-87.32739,"zip":"47805","miles_from_dt":17.24},{"city":"Coalmont","state_name":"Indiana","lat":39.1936,"lng":-87.23386,"zip":"47845","miles_from_dt":17.54},{"city":"Bridgeton","state_name":"Indiana","lat":39.64924,"lng":-87.17221,"zip":"47836","miles_from_dt":17.66},{"city":"Jasonville","state_name":"Indiana","lat":39.1582,"lng":-87.18237,"zip":"47438","miles_from_dt":18.49},{"city":"Worthington","state_name":"Indiana","lat":39.14253,"lng":-86.99788,"zip":"47471","miles_from_dt":18.65},{"city":"Terre Haute","state_name":"Indiana","lat":39.49756,"lng":-87.39031,"zip":"47804","miles_from_dt":18.73},{"city":"Terre Haute","state_name":"Indiana","lat":39.47061,"lng":-87.40262,"zip":"47807","miles_from_dt":18.85},{"city":"Rosedale","state_name":"Indiana","lat":39.62913,"lng":-87.27792,"zip":"47874","miles_from_dt":19.18},{"city":"Terre Haute","state_name":"Indiana","lat":39.46712,"lng":-87.41014,"zip":"47801","miles_from_dt":19.19},{"city":"Terre Haute","state_name":"Indiana","lat":39.35153,"lng":-87.4106,"zip":"47802","miles_from_dt":19.21},{"city":"Terre Haute","state_name":"Indiana","lat":39.47136,"lng":-87.40986,"zip":"47809","miles_from_dt":19.24},{"city":"Greencastle","state_name":"Indiana","lat":39.65909,"lng":-86.89107,"zip":"46135","miles_from_dt":19.48},{"city":"Quincy","state_name":"Indiana","lat":39.46314,"lng":-86.69781,"zip":"47456","miles_from_dt":19.7},{"city":"Hymera","state_name":"Indiana","lat":39.18844,"lng":-87.30216,"zip":"47855","miles_from_dt":20},{"city":"Midland","state_name":"Indiana","lat":39.11289,"lng":-87.18944,"zip":"47445","miles_from_dt":21.56},{"city":"Gosport","state_name":"Indiana","lat":39.35569,"lng":-86.655,"zip":"47433","miles_from_dt":21.95},{"city":"Prairieton","state_name":"Indiana","lat":39.37016,"lng":-87.47353,"zip":"47870","miles_from_dt":22.33},{"city":"Saint Mary Of The Woods","state_name":"Indiana","lat":39.50996,"lng":-87.46113,"zip":"47876","miles_from_dt":22.59},{"city":"Shelburn","state_name":"Indiana","lat":39.18863,"lng":-87.37619,"zip":"47879","miles_from_dt":22.78},{"city":"Stinesville","state_name":"Indiana","lat":39.29995,"lng":-86.64979,"zip":"47464","miles_from_dt":23.18},{"city":"Farmersburg","state_name":"Indiana","lat":39.24441,"lng":-87.43763,"zip":"47850","miles_from_dt":23.22},{"city":"Shepardsville","state_name":"Indiana","lat":39.59976,"lng":-87.41885,"zip":"47880","miles_from_dt":23.3},{"city":"West Terre Haute","state_name":"Indiana","lat":39.50872,"lng":-87.47679,"zip":"47885","miles_from_dt":23.37},{"city":"Eminence","state_name":"Indiana","lat":39.52188,"lng":-86.64179,"zip":"46125","miles_from_dt":23.66},{"city":"Fillmore","state_name":"Indiana","lat":39.65634,"lng":-86.74312,"zip":"46128","miles_from_dt":24.03},{"city":"New Goshen","state_name":"Indiana","lat":39.57848,"lng":-87.45921,"zip":"47863","miles_from_dt":24.37},{"city":"Rockville","state_name":"Indiana","lat":39.75331,"lng":-87.16271,"zip":"47872","miles_from_dt":24.41},{"city":"Switz City","state_name":"Indiana","lat":39.05474,"lng":-87.04338,"zip":"47465","miles_from_dt":24.43},{"city":"Prairie Creek","state_name":"Indiana","lat":39.2751,"lng":-87.49658,"zip":"47869","miles_from_dt":25.17},{"city":"Paragon","state_name":"Indiana","lat":39.42686,"lng":-86.58755,"zip":"46166","miles_from_dt":25.28},{"city":"Ellettsville","state_name":"Indiana","lat":39.27581,"lng":-86.61444,"zip":"47429","miles_from_dt":25.53},{"city":"Universal","state_name":"Indiana","lat":39.62308,"lng":-87.45362,"zip":"47884","miles_from_dt":25.74},{"city":"Mecca","state_name":"Indiana","lat":39.72215,"lng":-87.33013,"zip":"47860","miles_from_dt":26.02},{"city":"Linton","state_name":"Indiana","lat":39.03976,"lng":-87.1743,"zip":"47441","miles_from_dt":26.18},{"city":"Solsberry","state_name":"Indiana","lat":39.11167,"lng":-86.75125,"zip":"47459","miles_from_dt":26.32},{"city":"Stilesville","state_name":"Indiana","lat":39.59652,"lng":-86.61801,"zip":"46180","miles_from_dt":26.91},{"city":"Dugger","state_name":"Indiana","lat":39.04159,"lng":-87.26108,"zip":"47848","miles_from_dt":27.54},{"city":"Coatesville","state_name":"Indiana","lat":39.67776,"lng":-86.67345,"zip":"46121","miles_from_dt":27.74},{"city":"Bainbridge","state_name":"Indiana","lat":39.76388,"lng":-86.81487,"zip":"46105","miles_from_dt":27.77},{"city":"Dennison","state_name":"Illinois","lat":39.46208,"lng":-87.5819,"zip":"62423","miles_from_dt":28.2},{"city":"Bloomington","state_name":"Indiana","lat":39.22064,"lng":-86.5896,"zip":"47404","miles_from_dt":28.32},{"city":"Clinton","state_name":"Indiana","lat":39.67569,"lng":-87.462,"zip":"47842","miles_from_dt":28.32},{"city":"Bloomfield","state_name":"Indiana","lat":39.01918,"lng":-86.86998,"zip":"47424","miles_from_dt":28.72},{"city":"Russellville","state_name":"Indiana","lat":39.82199,"lng":-86.97292,"zip":"46175","miles_from_dt":28.89},{"city":"Graysville","state_name":"Indiana","lat":39.10601,"lng":-87.43379,"zip":"47852","miles_from_dt":28.97},{"city":"Sullivan","state_name":"Indiana","lat":39.09034,"lng":-87.41186,"zip":"47882","miles_from_dt":28.98},{"city":"Montezuma","state_name":"Indiana","lat":39.77184,"lng":-87.34527,"zip":"47862","miles_from_dt":29.34}],"targetCityZipCode":"47840","targetCityState":"Indiana"},"__N_SSG":true}