{"pageProps":{"stateName":"Indiana","cityName":"frankfort","nearbyCities":[{"city":"Michigantown","state_name":"Indiana","lat":40.33796,"lng":-86.37801,"zip":"46057","miles_from_dt":6.66},{"city":"Sedalia","state_name":"Indiana","lat":40.41598,"lng":-86.51539,"zip":"46067","miles_from_dt":8.3},{"city":"Mulberry","state_name":"Indiana","lat":40.35981,"lng":-86.64777,"zip":"46058","miles_from_dt":9.29},{"city":"Kirklin","state_name":"Indiana","lat":40.20515,"lng":-86.34629,"zip":"46050","miles_from_dt":9.98},{"city":"Rossville","state_name":"Indiana","lat":40.42318,"lng":-86.60992,"zip":"46065","miles_from_dt":10.7},{"city":"Forest","state_name":"Indiana","lat":40.37022,"lng":-86.31173,"zip":"46039","miles_from_dt":10.79},{"city":"Cutler","state_name":"Indiana","lat":40.46459,"lng":-86.49502,"zip":"46920","miles_from_dt":11.57},{"city":"Colfax","state_name":"Indiana","lat":40.18925,"lng":-86.67902,"zip":"46035","miles_from_dt":12.36},{"city":"Thorntown","state_name":"Indiana","lat":40.11941,"lng":-86.60549,"zip":"46071","miles_from_dt":13.64},{"city":"Burlington","state_name":"Indiana","lat":40.47832,"lng":-86.38636,"zip":"46915","miles_from_dt":13.7},{"city":"Clarks Hill","state_name":"Indiana","lat":40.23764,"lng":-86.74137,"zip":"47930","miles_from_dt":13.79},{"city":"Bringhurst","state_name":"Indiana","lat":40.50364,"lng":-86.49739,"zip":"46913","miles_from_dt":14.26},{"city":"Kempton","state_name":"Indiana","lat":40.29757,"lng":-86.22165,"zip":"46049","miles_from_dt":14.29},{"city":"Russiaville","state_name":"Indiana","lat":40.42759,"lng":-86.27737,"zip":"46979","miles_from_dt":14.48},{"city":"Stockwell","state_name":"Indiana","lat":40.28633,"lng":-86.77345,"zip":"47983","miles_from_dt":14.88},{"city":"Dayton","state_name":"Indiana","lat":40.37539,"lng":-86.77128,"zip":"47941","miles_from_dt":15.7},{"city":"Lafayette","state_name":"Indiana","lat":40.4218,"lng":-86.76418,"zip":"47905","miles_from_dt":16.74},{"city":"Flora","state_name":"Indiana","lat":40.54802,"lng":-86.47411,"zip":"46929","miles_from_dt":17.35},{"city":"Lebanon","state_name":"Indiana","lat":40.04448,"lng":-86.46086,"zip":"46052","miles_from_dt":17.5},{"city":"West Middleton","state_name":"Indiana","lat":40.43948,"lng":-86.21765,"zip":"46995","miles_from_dt":17.51},{"city":"Sheridan","state_name":"Indiana","lat":40.13829,"lng":-86.23144,"zip":"46069","miles_from_dt":17.61},{"city":"Goldsmith","state_name":"Indiana","lat":40.2898,"lng":-86.14832,"zip":"46045","miles_from_dt":18.17},{"city":"Darlington","state_name":"Indiana","lat":40.11749,"lng":-86.7447,"zip":"47940","miles_from_dt":18.22},{"city":"Buck Creek","state_name":"Indiana","lat":40.48991,"lng":-86.75759,"zip":"47924","miles_from_dt":19.32},{"city":"Whitestown","state_name":"Indiana","lat":40.02637,"lng":-86.3346,"zip":"46075","miles_from_dt":20.45},{"city":"Young America","state_name":"Indiana","lat":40.57536,"lng":-86.35081,"zip":"46998","miles_from_dt":20.6},{"city":"Lafayette","state_name":"Indiana","lat":40.41638,"lng":-86.85129,"zip":"47902","miles_from_dt":20.67},{"city":"Sharpsville","state_name":"Indiana","lat":40.37511,"lng":-86.1112,"zip":"46068","miles_from_dt":20.83},{"city":"Lafayette","state_name":"Indiana","lat":40.41733,"lng":-86.85522,"zip":"47903","miles_from_dt":20.89},{"city":"Linden","state_name":"Indiana","lat":40.1954,"lng":-86.86513,"zip":"47955","miles_from_dt":20.93},{"city":"Lafayette","state_name":"Indiana","lat":40.32357,"lng":-86.89933,"zip":"47909","miles_from_dt":21.59},{"city":"Advance","state_name":"Indiana","lat":39.99556,"lng":-86.61993,"zip":"46102","miles_from_dt":21.87},{"city":"Oakford","state_name":"Indiana","lat":40.41601,"lng":-86.10183,"zip":"46965","miles_from_dt":22.18},{"city":"Camden","state_name":"Indiana","lat":40.62071,"lng":-86.46893,"zip":"46917","miles_from_dt":22.37},{"city":"Tipton","state_name":"Indiana","lat":40.28526,"lng":-86.06891,"zip":"46072","miles_from_dt":22.38},{"city":"Lafayette","state_name":"Indiana","lat":40.43835,"lng":-86.87609,"zip":"47904","miles_from_dt":22.49},{"city":"Lafayette","state_name":"Indiana","lat":40.4178,"lng":-86.88995,"zip":"47901","miles_from_dt":22.59},{"city":"Kokomo","state_name":"Indiana","lat":40.47505,"lng":-86.13183,"zip":"46903","miles_from_dt":22.64},{"city":"Delphi","state_name":"Indiana","lat":40.606,"lng":-86.64568,"zip":"46923","miles_from_dt":22.81},{"city":"Kokomo","state_name":"Indiana","lat":40.43743,"lng":-86.09111,"zip":"46902","miles_from_dt":23.28},{"city":"Romney","state_name":"Indiana","lat":40.24599,"lng":-86.93128,"zip":"47981","miles_from_dt":23.47},{"city":"Jamestown","state_name":"Indiana","lat":39.96988,"lng":-86.62693,"zip":"46147","miles_from_dt":23.67},{"city":"Kokomo","state_name":"Indiana","lat":40.52487,"lng":-86.15639,"zip":"46901","miles_from_dt":23.68},{"city":"Galveston","state_name":"Indiana","lat":40.59675,"lng":-86.26243,"zip":"46932","miles_from_dt":23.97},{"city":"West Lafayette","state_name":"Indiana","lat":40.42474,"lng":-86.91665,"zip":"47907","miles_from_dt":24.08},{"city":"Rockfield","state_name":"Indiana","lat":40.64147,"lng":-86.5733,"zip":"46977","miles_from_dt":24.15},{"city":"Zionsville","state_name":"Indiana","lat":39.98281,"lng":-86.28346,"zip":"46077","miles_from_dt":24.33},{"city":"West Lafayette","state_name":"Indiana","lat":40.44384,"lng":-86.91141,"zip":"47996","miles_from_dt":24.34},{"city":"Battle Ground","state_name":"Indiana","lat":40.54712,"lng":-86.8195,"zip":"47920","miles_from_dt":24.41},{"city":"Westfield","state_name":"Indiana","lat":40.03651,"lng":-86.17289,"zip":"46074","miles_from_dt":24.67},{"city":"Hemlock","state_name":"Indiana","lat":40.41523,"lng":-86.03693,"zip":"46937","miles_from_dt":25.38},{"city":"Burrows","state_name":"Indiana","lat":40.67483,"lng":-86.50602,"zip":"46916","miles_from_dt":26.08},{"city":"Atlanta","state_name":"Indiana","lat":40.20935,"lng":-86.01018,"zip":"46031","miles_from_dt":26.19},{"city":"Arcadia","state_name":"Indiana","lat":40.17031,"lng":-86.02118,"zip":"46030","miles_from_dt":26.39},{"city":"Cicero","state_name":"Indiana","lat":40.13291,"lng":-86.04128,"zip":"46034","miles_from_dt":26.4},{"city":"New Ross","state_name":"Indiana","lat":39.96209,"lng":-86.74542,"zip":"47968","miles_from_dt":26.71},{"city":"New Richmond","state_name":"Indiana","lat":40.1942,"lng":-86.99899,"zip":"47967","miles_from_dt":27.72},{"city":"Crawfordsville","state_name":"Indiana","lat":40.03728,"lng":-86.90234,"zip":"47933","miles_from_dt":28.15},{"city":"Noblesville","state_name":"Indiana","lat":40.06146,"lng":-86.05523,"zip":"46062","miles_from_dt":28.26},{"city":"Kokomo","state_name":"Indiana","lat":40.65921,"lng":-86.23954,"zip":"46904","miles_from_dt":28.32},{"city":"Yeoman","state_name":"Indiana","lat":40.66769,"lng":-86.72379,"zip":"47997","miles_from_dt":28.34},{"city":"Walton","state_name":"Indiana","lat":40.66661,"lng":-86.25766,"zip":"46994","miles_from_dt":28.34},{"city":"Carmel","state_name":"Indiana","lat":39.96535,"lng":-86.17104,"zip":"46032","miles_from_dt":28.51},{"city":"Lizton","state_name":"Indiana","lat":39.88545,"lng":-86.55758,"zip":"46149","miles_from_dt":28.6},{"city":"Hobbs","state_name":"Indiana","lat":40.28418,"lng":-85.94739,"zip":"46047","miles_from_dt":28.8},{"city":"Pittsboro","state_name":"Indiana","lat":39.87675,"lng":-86.46981,"zip":"46167","miles_from_dt":29.02},{"city":"West Lafayette","state_name":"Indiana","lat":40.48541,"lng":-86.98584,"zip":"47906","miles_from_dt":29.11},{"city":"Noblesville","state_name":"Indiana","lat":40.05761,"lng":-86.03172,"zip":"46061","miles_from_dt":29.44},{"city":"Carmel","state_name":"Indiana","lat":39.9798,"lng":-86.11924,"zip":"46082","miles_from_dt":29.48},{"city":"Miami","state_name":"Indiana","lat":40.61272,"lng":-86.11245,"zip":"46959","miles_from_dt":29.58},{"city":"Westpoint","state_name":"Indiana","lat":40.31933,"lng":-87.0519,"zip":"47992","miles_from_dt":29.61},{"city":"Windfall","state_name":"Indiana","lat":40.36318,"lng":-85.9374,"zip":"46076","miles_from_dt":29.65},{"city":"Indianapolis","state_name":"Indiana","lat":39.89389,"lng":-86.29606,"zip":"46278","miles_from_dt":29.69}],"targetCityZipCode":"46041","targetCityState":"Indiana"},"__N_SSG":true}