{"pageProps":{"stateName":"Indiana","cityName":"mellott","nearbyCities":[{"city":"Newtown","state_name":"Indiana","lat":40.20355,"lng":-87.14892,"zip":"47969","miles_from_dt":2.69},{"city":"Wingate","state_name":"Indiana","lat":40.18233,"lng":-87.08231,"zip":"47994","miles_from_dt":3.72},{"city":"Veedersburg","state_name":"Indiana","lat":40.11916,"lng":-87.23428,"zip":"47987","miles_from_dt":5.51},{"city":"Hillsboro","state_name":"Indiana","lat":40.06288,"lng":-87.13504,"zip":"47949","miles_from_dt":7.05},{"city":"New Richmond","state_name":"Indiana","lat":40.1942,"lng":-86.99899,"zip":"47967","miles_from_dt":8.18},{"city":"Waynetown","state_name":"Indiana","lat":40.06118,"lng":-87.05952,"zip":"47990","miles_from_dt":8.55},{"city":"Attica","state_name":"Indiana","lat":40.30388,"lng":-87.20628,"zip":"47918","miles_from_dt":10.09},{"city":"Westpoint","state_name":"Indiana","lat":40.31933,"lng":-87.0519,"zip":"47992","miles_from_dt":11.84},{"city":"Wallace","state_name":"Indiana","lat":39.98897,"lng":-87.14678,"zip":"47988","miles_from_dt":12.11},{"city":"Romney","state_name":"Indiana","lat":40.24599,"lng":-86.93128,"zip":"47981","miles_from_dt":12.8},{"city":"Alamo","state_name":"Indiana","lat":39.98343,"lng":-87.05524,"zip":"47916","miles_from_dt":13.44},{"city":"Covington","state_name":"Indiana","lat":40.12764,"lng":-87.40761,"zip":"47932","miles_from_dt":13.95},{"city":"Linden","state_name":"Indiana","lat":40.1954,"lng":-86.86513,"zip":"47955","miles_from_dt":15.15},{"city":"Crawfordsville","state_name":"Indiana","lat":40.03728,"lng":-86.90234,"zip":"47933","miles_from_dt":15.73},{"city":"Kingman","state_name":"Indiana","lat":39.96186,"lng":-87.30049,"zip":"47952","miles_from_dt":16.13},{"city":"Lafayette","state_name":"Indiana","lat":40.32357,"lng":-86.89933,"zip":"47909","miles_from_dt":17.15},{"city":"Williamsport","state_name":"Indiana","lat":40.31161,"lng":-87.41603,"zip":"47993","miles_from_dt":17.4},{"city":"West Lebanon","state_name":"Indiana","lat":40.28034,"lng":-87.44794,"zip":"47991","miles_from_dt":17.73},{"city":"New Market","state_name":"Indiana","lat":39.95452,"lng":-86.91996,"zip":"47965","miles_from_dt":18.89},{"city":"Perrysville","state_name":"Indiana","lat":40.04297,"lng":-87.47356,"zip":"47974","miles_from_dt":19.15},{"city":"Marshall","state_name":"Indiana","lat":39.88595,"lng":-87.16999,"zip":"47859","miles_from_dt":19.25},{"city":"Waveland","state_name":"Indiana","lat":39.88871,"lng":-87.05243,"zip":"47989","miles_from_dt":19.7},{"city":"Pine Village","state_name":"Indiana","lat":40.44436,"lng":-87.25348,"zip":"47975","miles_from_dt":20.09},{"city":"State Line","state_name":"Indiana","lat":40.19728,"lng":-87.5268,"zip":"47982","miles_from_dt":20.14},{"city":"Bloomingdale","state_name":"Indiana","lat":39.87879,"lng":-87.25463,"zip":"47832","miles_from_dt":20.5},{"city":"Otterbein","state_name":"Indiana","lat":40.47423,"lng":-87.13031,"zip":"47970","miles_from_dt":21.39},{"city":"Stockwell","state_name":"Indiana","lat":40.28633,"lng":-86.77345,"zip":"47983","miles_from_dt":21.55},{"city":"Darlington","state_name":"Indiana","lat":40.11749,"lng":-86.7447,"zip":"47940","miles_from_dt":21.63},{"city":"West Lafayette","state_name":"Indiana","lat":40.42474,"lng":-86.91665,"zip":"47907","miles_from_dt":21.74},{"city":"Clarks Hill","state_name":"Indiana","lat":40.23764,"lng":-86.74137,"zip":"47930","miles_from_dt":22.13},{"city":"Lafayette","state_name":"Indiana","lat":40.4178,"lng":-86.88995,"zip":"47901","miles_from_dt":22.19},{"city":"Montmorenci","state_name":"Indiana","lat":40.47418,"lng":-87.03001,"zip":"47962","miles_from_dt":22.27},{"city":"Bismarck","state_name":"Illinois","lat":40.23191,"lng":-87.57018,"zip":"61814","miles_from_dt":22.78},{"city":"West Lafayette","state_name":"Indiana","lat":40.44384,"lng":-86.91141,"zip":"47996","miles_from_dt":22.99},{"city":"Cayuga","state_name":"Indiana","lat":39.93237,"lng":-87.46501,"zip":"47928","miles_from_dt":23.19},{"city":"Lafayette","state_name":"Indiana","lat":40.41733,"lng":-86.85522,"zip":"47903","miles_from_dt":23.34},{"city":"Lafayette","state_name":"Indiana","lat":40.41638,"lng":-86.85129,"zip":"47902","miles_from_dt":23.43},{"city":"Newport","state_name":"Indiana","lat":39.88843,"lng":-87.41433,"zip":"47966","miles_from_dt":23.7},{"city":"West Lafayette","state_name":"Indiana","lat":40.48541,"lng":-86.98584,"zip":"47906","miles_from_dt":23.75},{"city":"Lafayette","state_name":"Indiana","lat":40.43835,"lng":-86.87609,"zip":"47904","miles_from_dt":23.75},{"city":"Templeton","state_name":"Indiana","lat":40.51384,"lng":-87.20719,"zip":"47986","miles_from_dt":24.3},{"city":"Dayton","state_name":"Indiana","lat":40.37539,"lng":-86.77128,"zip":"47941","miles_from_dt":24.69},{"city":"Boswell","state_name":"Indiana","lat":40.47838,"lng":-87.37485,"zip":"47921","miles_from_dt":24.73},{"city":"Colfax","state_name":"Indiana","lat":40.18925,"lng":-86.67902,"zip":"46035","miles_from_dt":24.91},{"city":"Ladoga","state_name":"Indiana","lat":39.90048,"lng":-86.8178,"zip":"47954","miles_from_dt":25.29},{"city":"Russellville","state_name":"Indiana","lat":39.82199,"lng":-86.97292,"zip":"46175","miles_from_dt":25.41},{"city":"New Ross","state_name":"Indiana","lat":39.96209,"lng":-86.74542,"zip":"47968","miles_from_dt":25.53},{"city":"Oxford","state_name":"Indiana","lat":40.52946,"lng":-87.23751,"zip":"47971","miles_from_dt":25.61},{"city":"Danville","state_name":"Illinois","lat":40.13186,"lng":-87.63256,"zip":"61832","miles_from_dt":25.72},{"city":"Danville","state_name":"Illinois","lat":40.16428,"lng":-87.64028,"zip":"61834","miles_from_dt":26.03},{"city":"Alvin","state_name":"Illinois","lat":40.29531,"lng":-87.62162,"zip":"61811","miles_from_dt":26.59},{"city":"Tilton","state_name":"Illinois","lat":40.09914,"lng":-87.64718,"zip":"61833","miles_from_dt":26.79},{"city":"Lafayette","state_name":"Indiana","lat":40.4218,"lng":-86.76418,"zip":"47905","miles_from_dt":26.98},{"city":"Ambia","state_name":"Indiana","lat":40.46881,"lng":-87.47633,"zip":"47917","miles_from_dt":27.21},{"city":"Westville","state_name":"Illinois","lat":40.03494,"lng":-87.63992,"zip":"61883","miles_from_dt":27.52},{"city":"Georgetown","state_name":"Illinois","lat":39.97601,"lng":-87.61222,"zip":"61846","miles_from_dt":27.8},{"city":"Hillsdale","state_name":"Indiana","lat":39.80874,"lng":-87.41299,"zip":"47854","miles_from_dt":28.27},{"city":"Rockville","state_name":"Indiana","lat":39.75331,"lng":-87.16271,"zip":"47872","miles_from_dt":28.38},{"city":"Thorntown","state_name":"Indiana","lat":40.11941,"lng":-86.60549,"zip":"46071","miles_from_dt":28.93},{"city":"Montezuma","state_name":"Indiana","lat":39.77184,"lng":-87.34527,"zip":"47862","miles_from_dt":29.03},{"city":"Roachdale","state_name":"Indiana","lat":39.82725,"lng":-86.8144,"zip":"46172","miles_from_dt":29.26},{"city":"Dana","state_name":"Indiana","lat":39.82293,"lng":-87.48865,"zip":"47847","miles_from_dt":29.68},{"city":"Mulberry","state_name":"Indiana","lat":40.35981,"lng":-86.64777,"zip":"46058","miles_from_dt":29.71}],"targetCityZipCode":"47958","targetCityState":"Indiana"},"__N_SSG":true}