{"pageProps":{"stateName":"Indiana","cityName":"norman","nearbyCities":[{"city":"Kurtz","state_name":"Indiana","lat":38.95637,"lng":-86.20423,"zip":"47249","miles_from_dt":3.22},{"city":"Heltonville","state_name":"Indiana","lat":38.9598,"lng":-86.38358,"zip":"47436","miles_from_dt":6.49},{"city":"Freetown","state_name":"Indiana","lat":39.01385,"lng":-86.14046,"zip":"47235","miles_from_dt":7.43},{"city":"Medora","state_name":"Indiana","lat":38.83596,"lng":-86.19909,"zip":"47260","miles_from_dt":9.5},{"city":"Bedford","state_name":"Indiana","lat":38.86415,"lng":-86.45122,"zip":"47421","miles_from_dt":12.27},{"city":"Brownstown","state_name":"Indiana","lat":38.87786,"lng":-86.05471,"zip":"47220","miles_from_dt":12.72},{"city":"Bloomington","state_name":"Indiana","lat":39.08613,"lng":-86.45138,"zip":"47401","miles_from_dt":13.16},{"city":"Clear Creek","state_name":"Indiana","lat":39.09473,"lng":-86.46233,"zip":"47426","miles_from_dt":13.99},{"city":"Cortland","state_name":"Indiana","lat":38.98594,"lng":-86.00395,"zip":"47228","miles_from_dt":14.04},{"city":"Tunnelton","state_name":"Indiana","lat":38.76776,"lng":-86.34463,"zip":"47467","miles_from_dt":14.25},{"city":"Bloomington","state_name":"Indiana","lat":39.09555,"lng":-86.47274,"zip":"47402","miles_from_dt":14.46},{"city":"Nashville","state_name":"Indiana","lat":39.17531,"lng":-86.24481,"zip":"47448","miles_from_dt":14.59},{"city":"Oolitic","state_name":"Indiana","lat":38.89176,"lng":-86.52536,"zip":"47451","miles_from_dt":14.99},{"city":"Smithville","state_name":"Indiana","lat":39.07044,"lng":-86.50712,"zip":"47458","miles_from_dt":15.03},{"city":"Vallonia","state_name":"Indiana","lat":38.78563,"lng":-86.10324,"zip":"47281","miles_from_dt":15.04},{"city":"Harrodsburg","state_name":"Indiana","lat":39.01277,"lng":-86.54569,"zip":"47434","miles_from_dt":15.57},{"city":"Avoca","state_name":"Indiana","lat":38.91903,"lng":-86.54933,"zip":"47420","miles_from_dt":15.73},{"city":"Seymour","state_name":"Indiana","lat":38.96261,"lng":-85.92877,"zip":"47274","miles_from_dt":18.01},{"city":"Bloomington","state_name":"Indiana","lat":39.17004,"lng":-86.49501,"zip":"47407","miles_from_dt":18.89},{"city":"Columbus","state_name":"Indiana","lat":39.15074,"lng":-85.99432,"zip":"47201","miles_from_dt":19.35},{"city":"Bloomington","state_name":"Indiana","lat":39.16761,"lng":-86.5211,"zip":"47405","miles_from_dt":19.72},{"city":"Bloomington","state_name":"Indiana","lat":39.17501,"lng":-86.51516,"zip":"47406","miles_from_dt":19.87},{"city":"Bloomington","state_name":"Indiana","lat":39.08635,"lng":-86.61082,"zip":"47403","miles_from_dt":20.51},{"city":"Springville","state_name":"Indiana","lat":38.95755,"lng":-86.64815,"zip":"47462","miles_from_dt":20.74},{"city":"Helmsburg","state_name":"Indiana","lat":39.26576,"lng":-86.29516,"zip":"47435","miles_from_dt":20.86},{"city":"Mitchell","state_name":"Indiana","lat":38.73818,"lng":-86.52031,"zip":"47446","miles_from_dt":20.88},{"city":"Bloomington","state_name":"Indiana","lat":39.2283,"lng":-86.46452,"zip":"47408","miles_from_dt":21.18},{"city":"Jonesville","state_name":"Indiana","lat":39.05993,"lng":-85.88783,"zip":"47247","miles_from_dt":21.25},{"city":"Campbellsburg","state_name":"Indiana","lat":38.6455,"lng":-86.25725,"zip":"47108","miles_from_dt":22},{"city":"Unionville","state_name":"Indiana","lat":39.27801,"lng":-86.40482,"zip":"47468","miles_from_dt":22.94},{"city":"Williams","state_name":"Indiana","lat":38.81623,"lng":-86.64799,"zip":"47470","miles_from_dt":23.13},{"city":"Stanford","state_name":"Indiana","lat":39.09524,"lng":-86.66408,"zip":"47463","miles_from_dt":23.39},{"city":"Orleans","state_name":"Indiana","lat":38.6422,"lng":-86.41901,"zip":"47452","miles_from_dt":23.76},{"city":"Crothersville","state_name":"Indiana","lat":38.80289,"lng":-85.86688,"zip":"47229","miles_from_dt":24.09},{"city":"Nineveh","state_name":"Indiana","lat":39.3036,"lng":-86.12301,"zip":"46164","miles_from_dt":24.58},{"city":"Bloomington","state_name":"Indiana","lat":39.22064,"lng":-86.5896,"zip":"47404","miles_from_dt":24.91},{"city":"Columbus","state_name":"Indiana","lat":39.20731,"lng":-85.9181,"zip":"47202","miles_from_dt":25},{"city":"Salem","state_name":"Indiana","lat":38.6077,"lng":-86.09047,"zip":"47167","miles_from_dt":26.31},{"city":"Morgantown","state_name":"Indiana","lat":39.35429,"lng":-86.26753,"zip":"46160","miles_from_dt":26.9},{"city":"Elizabethtown","state_name":"Indiana","lat":39.11297,"lng":-85.79428,"zip":"47232","miles_from_dt":27.23},{"city":"Owensburg","state_name":"Indiana","lat":38.93472,"lng":-86.76773,"zip":"47453","miles_from_dt":27.26},{"city":"Hayden","state_name":"Indiana","lat":38.98393,"lng":-85.74116,"zip":"47245","miles_from_dt":28.14},{"city":"Solsberry","state_name":"Indiana","lat":39.11167,"lng":-86.75125,"zip":"47459","miles_from_dt":28.16},{"city":"Huron","state_name":"Indiana","lat":38.7135,"lng":-86.6769,"zip":"47437","miles_from_dt":28.24},{"city":"Taylorsville","state_name":"Indiana","lat":39.29655,"lng":-85.95047,"zip":"47280","miles_from_dt":28.41},{"city":"Ellettsville","state_name":"Indiana","lat":39.27581,"lng":-86.61444,"zip":"47429","miles_from_dt":28.6},{"city":"Austin","state_name":"Indiana","lat":38.75745,"lng":-85.7951,"zip":"47102","miles_from_dt":29},{"city":"Trafalgar","state_name":"Indiana","lat":39.38044,"lng":-86.16119,"zip":"46181","miles_from_dt":29.22},{"city":"Scipio","state_name":"Indiana","lat":39.07472,"lng":-85.7359,"zip":"47273","miles_from_dt":29.38},{"city":"Scottsburg","state_name":"Indiana","lat":38.68734,"lng":-85.84667,"zip":"47170","miles_from_dt":29.5},{"city":"Columbus","state_name":"Indiana","lat":39.23189,"lng":-85.83281,"zip":"47203","miles_from_dt":29.59},{"city":"Crane","state_name":"Indiana","lat":38.88545,"lng":-86.80543,"zip":"47522","miles_from_dt":29.72}],"targetCityZipCode":"47264","targetCityState":"Indiana"},"__N_SSG":true}