{"pageProps":{"stateName":"Indiana","cityName":"preble","nearbyCities":[{"city":"Decatur","state_name":"Indiana","lat":40.83033,"lng":-84.94023,"zip":"46733","miles_from_dt":3.88},{"city":"Craigville","state_name":"Indiana","lat":40.79751,"lng":-85.10267,"zip":"46731","miles_from_dt":5.27},{"city":"Ossian","state_name":"Indiana","lat":40.87248,"lng":-85.15236,"zip":"46777","miles_from_dt":7.72},{"city":"Hoagland","state_name":"Indiana","lat":40.95194,"lng":-85.00887,"zip":"46745","miles_from_dt":8.16},{"city":"Monroe","state_name":"Indiana","lat":40.7221,"lng":-84.91153,"zip":"46772","miles_from_dt":9.4},{"city":"Pleasant Mills","state_name":"Indiana","lat":40.77402,"lng":-84.84163,"zip":"46780","miles_from_dt":9.94},{"city":"Fort Wayne","state_name":"Indiana","lat":40.96409,"lng":-85.13256,"zip":"46819","miles_from_dt":10.93},{"city":"Bluffton","state_name":"Indiana","lat":40.71774,"lng":-85.17319,"zip":"46714","miles_from_dt":11.56},{"city":"Fort Wayne","state_name":"Indiana","lat":41.00396,"lng":-85.04169,"zip":"46816","miles_from_dt":11.84},{"city":"Uniondale","state_name":"Indiana","lat":40.83699,"lng":-85.24325,"zip":"46791","miles_from_dt":12.01},{"city":"Fort Wayne","state_name":"Indiana","lat":41.00772,"lng":-85.06932,"zip":"46896","miles_from_dt":12.35},{"city":"Monroeville","state_name":"Indiana","lat":40.98401,"lng":-84.8759,"zip":"46773","miles_from_dt":12.65},{"city":"Berne","state_name":"Indiana","lat":40.6635,"lng":-84.92398,"zip":"46711","miles_from_dt":12.66},{"city":"Wren","state_name":"Ohio","lat":40.80088,"lng":-84.77491,"zip":"45899","miles_from_dt":12.75},{"city":"Linn Grove","state_name":"Indiana","lat":40.64445,"lng":-85.03123,"zip":"46769","miles_from_dt":13.09},{"city":"Yoder","state_name":"Indiana","lat":40.94256,"lng":-85.22113,"zip":"46798","miles_from_dt":13.19},{"city":"Willshire","state_name":"Ohio","lat":40.73617,"lng":-84.76429,"zip":"45898","miles_from_dt":14.73},{"city":"Zanesville","state_name":"Indiana","lat":40.91592,"lng":-85.27923,"zip":"46799","miles_from_dt":15},{"city":"Fort Wayne","state_name":"Indiana","lat":41.04649,"lng":-85.09224,"zip":"46806","miles_from_dt":15.24},{"city":"Fort Wayne","state_name":"Indiana","lat":41.00088,"lng":-85.2102,"zip":"46809","miles_from_dt":15.44},{"city":"Markle","state_name":"Indiana","lat":40.8298,"lng":-85.31873,"zip":"46770","miles_from_dt":15.96},{"city":"Convoy","state_name":"Ohio","lat":40.92779,"lng":-84.7336,"zip":"45832","miles_from_dt":16.07},{"city":"Geneva","state_name":"Indiana","lat":40.60298,"lng":-84.9638,"zip":"46740","miles_from_dt":16.14},{"city":"Fort Wayne","state_name":"Indiana","lat":41.04489,"lng":-85.14763,"zip":"46807","miles_from_dt":16.16},{"city":"Fort Wayne","state_name":"Indiana","lat":40.99862,"lng":-85.23438,"zip":"46899","miles_from_dt":16.2},{"city":"Fort Wayne","state_name":"Indiana","lat":41.06972,"lng":-85.08532,"zip":"46803","miles_from_dt":16.71},{"city":"Liberty Center","state_name":"Indiana","lat":40.70984,"lng":-85.29424,"zip":"46766","miles_from_dt":17},{"city":"Petroleum","state_name":"Indiana","lat":40.61055,"lng":-85.15491,"zip":"46778","miles_from_dt":17.08},{"city":"Fort Wayne","state_name":"Indiana","lat":41.06602,"lng":-85.16517,"zip":"46856","miles_from_dt":17.87},{"city":"Fort Wayne","state_name":"Indiana","lat":41.06561,"lng":-85.16653,"zip":"46865","miles_from_dt":17.88},{"city":"New Haven","state_name":"Indiana","lat":41.09103,"lng":-84.96955,"zip":"46774","miles_from_dt":17.91},{"city":"Ohio City","state_name":"Ohio","lat":40.78765,"lng":-84.67777,"zip":"45874","miles_from_dt":17.92},{"city":"Fort Wayne","state_name":"Indiana","lat":41.06787,"lng":-85.16299,"zip":"46802","miles_from_dt":17.94},{"city":"Fort Wayne","state_name":"Indiana","lat":41.0674,"lng":-85.16558,"zip":"46853","miles_from_dt":17.97},{"city":"Fort Wayne","state_name":"Indiana","lat":41.06646,"lng":-85.1688,"zip":"46850","miles_from_dt":17.98},{"city":"Fort Wayne","state_name":"Indiana","lat":41.06922,"lng":-85.16147,"zip":"46897","miles_from_dt":17.99},{"city":"Fort Wayne","state_name":"Indiana","lat":41.06772,"lng":-85.16591,"zip":"46851","miles_from_dt":17.99},{"city":"Fort Wayne","state_name":"Indiana","lat":41.06769,"lng":-85.16637,"zip":"46864","miles_from_dt":18},{"city":"Fort Wayne","state_name":"Indiana","lat":41.068,"lng":-85.16637,"zip":"46858","miles_from_dt":18.02},{"city":"Fort Wayne","state_name":"Indiana","lat":41.06925,"lng":-85.16335,"zip":"46861","miles_from_dt":18.03},{"city":"Fort Wayne","state_name":"Indiana","lat":41.06789,"lng":-85.16768,"zip":"46801","miles_from_dt":18.05},{"city":"Fort Wayne","state_name":"Indiana","lat":41.06907,"lng":-85.16586,"zip":"46867","miles_from_dt":18.08},{"city":"Fort Wayne","state_name":"Indiana","lat":41.06853,"lng":-85.1674,"zip":"46855","miles_from_dt":18.08},{"city":"Fort Wayne","state_name":"Indiana","lat":41.06924,"lng":-85.16703,"zip":"46863","miles_from_dt":18.11},{"city":"Fort Wayne","state_name":"Indiana","lat":41.06848,"lng":-85.16935,"zip":"46869","miles_from_dt":18.12},{"city":"Fort Wayne","state_name":"Indiana","lat":41.06897,"lng":-85.16786,"zip":"46862","miles_from_dt":18.12},{"city":"Fort Wayne","state_name":"Indiana","lat":41.07114,"lng":-85.16254,"zip":"46860","miles_from_dt":18.13},{"city":"Fort Wayne","state_name":"Indiana","lat":41.06987,"lng":-85.16665,"zip":"46868","miles_from_dt":18.14},{"city":"Fort Wayne","state_name":"Indiana","lat":41.07095,"lng":-85.16382,"zip":"46866","miles_from_dt":18.15},{"city":"Fort Wayne","state_name":"Indiana","lat":41.06924,"lng":-85.16896,"zip":"46852","miles_from_dt":18.16},{"city":"Fort Wayne","state_name":"Indiana","lat":41.07089,"lng":-85.16484,"zip":"46859","miles_from_dt":18.17},{"city":"Fort Wayne","state_name":"Indiana","lat":41.07291,"lng":-85.16652,"zip":"46857","miles_from_dt":18.33},{"city":"Keystone","state_name":"Indiana","lat":40.59855,"lng":-85.18299,"zip":"46759","miles_from_dt":18.49},{"city":"Fort Wayne","state_name":"Indiana","lat":41.1034,"lng":-85.05913,"zip":"46815","miles_from_dt":18.76},{"city":"Fort Wayne","state_name":"Indiana","lat":41.09918,"lng":-85.11762,"zip":"46805","miles_from_dt":19.1},{"city":"Fort Wayne","state_name":"Indiana","lat":41.05421,"lng":-85.23913,"zip":"46804","miles_from_dt":19.24},{"city":"Poneto","state_name":"Indiana","lat":40.63659,"lng":-85.27339,"zip":"46781","miles_from_dt":19.24},{"city":"Fort Wayne","state_name":"Indiana","lat":41.1048,"lng":-85.11692,"zip":"46895","miles_from_dt":19.46},{"city":"Bryant","state_name":"Indiana","lat":40.54597,"lng":-84.97018,"zip":"47326","miles_from_dt":19.99},{"city":"Fort Wayne","state_name":"Indiana","lat":41.09887,"lng":-85.17619,"zip":"46808","miles_from_dt":20.16},{"city":"Roanoke","state_name":"Indiana","lat":40.97399,"lng":-85.35578,"zip":"46783","miles_from_dt":20.34},{"city":"Rockford","state_name":"Ohio","lat":40.67823,"lng":-84.6754,"zip":"45882","miles_from_dt":20.76},{"city":"Fort Wayne","state_name":"Indiana","lat":41.13586,"lng":-85.03368,"zip":"46885","miles_from_dt":20.87},{"city":"Fort Wayne","state_name":"Indiana","lat":41.04616,"lng":-85.30805,"zip":"46814","miles_from_dt":21.25},{"city":"Payne","state_name":"Ohio","lat":41.0662,"lng":-84.73782,"zip":"45880","miles_from_dt":21.6},{"city":"Woodburn","state_name":"Indiana","lat":41.12749,"lng":-84.86046,"zip":"46797","miles_from_dt":21.81},{"city":"Fort Wayne","state_name":"Indiana","lat":41.15086,"lng":-85.04536,"zip":"46835","miles_from_dt":21.95},{"city":"Fort Wayne","state_name":"Indiana","lat":41.149,"lng":-85.07375,"zip":"46854","miles_from_dt":21.98},{"city":"Fort Wayne","state_name":"Indiana","lat":41.15397,"lng":-85.12425,"zip":"46825","miles_from_dt":22.84},{"city":"Van Wert","state_name":"Ohio","lat":40.8748,"lng":-84.57785,"zip":"45891","miles_from_dt":23.04},{"city":"Pennville","state_name":"Indiana","lat":40.50714,"lng":-85.14715,"zip":"47369","miles_from_dt":23.59},{"city":"Arcola","state_name":"Indiana","lat":41.10371,"lng":-85.29242,"zip":"46704","miles_from_dt":23.64},{"city":"Scott","state_name":"Ohio","lat":40.99083,"lng":-84.61062,"zip":"45886","miles_from_dt":23.75},{"city":"Montpelier","state_name":"Indiana","lat":40.55203,"lng":-85.28642,"zip":"47359","miles_from_dt":24.13},{"city":"Warren","state_name":"Indiana","lat":40.68472,"lng":-85.43798,"zip":"46792","miles_from_dt":24.5},{"city":"Fort Wayne","state_name":"Indiana","lat":41.14698,"lng":-85.25111,"zip":"46818","miles_from_dt":24.92},{"city":"Huntington","state_name":"Indiana","lat":40.87677,"lng":-85.49674,"zip":"46750","miles_from_dt":25.46},{"city":"Haviland","state_name":"Ohio","lat":41.03267,"lng":-84.60289,"zip":"45851","miles_from_dt":25.53},{"city":"Fort Wayne","state_name":"Indiana","lat":41.2051,"lng":-85.10789,"zip":"46845","miles_from_dt":26.09},{"city":"Grabill","state_name":"Indiana","lat":41.21161,"lng":-84.95176,"zip":"46741","miles_from_dt":26.28},{"city":"Leo","state_name":"Indiana","lat":41.23361,"lng":-85.04047,"zip":"46765","miles_from_dt":27.63},{"city":"Harlan","state_name":"Indiana","lat":41.21511,"lng":-84.85321,"zip":"46743","miles_from_dt":27.63},{"city":"Latty","state_name":"Ohio","lat":41.08819,"lng":-84.5835,"zip":"45855","miles_from_dt":28.56},{"city":"Mendon","state_name":"Ohio","lat":40.67079,"lng":-84.51356,"zip":"45862","miles_from_dt":28.57},{"city":"Antwerp","state_name":"Ohio","lat":41.18914,"lng":-84.73031,"zip":"45813","miles_from_dt":28.67},{"city":"Portland","state_name":"Indiana","lat":40.41874,"lng":-84.95896,"zip":"47371","miles_from_dt":28.78},{"city":"Elgin","state_name":"Ohio","lat":40.74041,"lng":-84.47781,"zip":"45838","miles_from_dt":28.86},{"city":"Venedocia","state_name":"Ohio","lat":40.76252,"lng":-84.4684,"zip":"45894","miles_from_dt":29.04},{"city":"Celina","state_name":"Ohio","lat":40.55266,"lng":-84.59664,"zip":"45822","miles_from_dt":29.27},{"city":"Fort Wayne","state_name":"Indiana","lat":41.19754,"lng":-85.3053,"zip":"46898","miles_from_dt":29.36},{"city":"Van Buren","state_name":"Indiana","lat":40.63034,"lng":-85.50642,"zip":"46991","miles_from_dt":29.4},{"city":"Middle Point","state_name":"Ohio","lat":40.9041,"lng":-84.45477,"zip":"45863","miles_from_dt":29.7},{"city":"Huntertown","state_name":"Indiana","lat":41.24829,"lng":-85.16727,"zip":"46748","miles_from_dt":29.71},{"city":"Coldwater","state_name":"Ohio","lat":40.48672,"lng":-84.67677,"zip":"45828","miles_from_dt":29.79}],"targetCityZipCode":"46782","targetCityState":"Indiana"},"__N_SSG":true}