{"pageProps":{"stateName":"Indiana","cityName":"riley","nearbyCities":[{"city":"Terre Haute","state_name":"Indiana","lat":39.46433,"lng":-87.30855,"zip":"47803","miles_from_dt":5.16},{"city":"Cory","state_name":"Indiana","lat":39.36601,"lng":-87.20041,"zip":"47846","miles_from_dt":5.59},{"city":"Terre Haute","state_name":"Indiana","lat":39.35153,"lng":-87.4106,"zip":"47802","miles_from_dt":6.47},{"city":"Pimento","state_name":"Indiana","lat":39.28302,"lng":-87.3247,"zip":"47866","miles_from_dt":7.48},{"city":"Seelyville","state_name":"Indiana","lat":39.49516,"lng":-87.26368,"zip":"47878","miles_from_dt":7.53},{"city":"Terre Haute","state_name":"Indiana","lat":39.47061,"lng":-87.40262,"zip":"47807","miles_from_dt":7.82},{"city":"Terre Haute","state_name":"Indiana","lat":39.46712,"lng":-87.41014,"zip":"47801","miles_from_dt":7.94},{"city":"Terre Haute","state_name":"Indiana","lat":39.47136,"lng":-87.40986,"zip":"47809","miles_from_dt":8.13},{"city":"Terre Haute","state_name":"Indiana","lat":39.49756,"lng":-87.39031,"zip":"47804","miles_from_dt":8.86},{"city":"Terre Haute","state_name":"Indiana","lat":39.51273,"lng":-87.35199,"zip":"47808","miles_from_dt":8.92},{"city":"Staunton","state_name":"Indiana","lat":39.48722,"lng":-87.19029,"zip":"47881","miles_from_dt":8.93},{"city":"Prairieton","state_name":"Indiana","lat":39.37016,"lng":-87.47353,"zip":"47870","miles_from_dt":9.37},{"city":"Lewis","state_name":"Indiana","lat":39.26268,"lng":-87.22868,"zip":"47858","miles_from_dt":9.57},{"city":"Terre Haute","state_name":"Indiana","lat":39.54768,"lng":-87.32739,"zip":"47805","miles_from_dt":10.99},{"city":"Saint Mary Of The Woods","state_name":"Indiana","lat":39.50996,"lng":-87.46113,"zip":"47876","miles_from_dt":11.95},{"city":"Farmersburg","state_name":"Indiana","lat":39.24441,"lng":-87.43763,"zip":"47850","miles_from_dt":12.44},{"city":"West Terre Haute","state_name":"Indiana","lat":39.50872,"lng":-87.47679,"zip":"47885","miles_from_dt":12.51},{"city":"Clay City","state_name":"Indiana","lat":39.27764,"lng":-87.11492,"zip":"47841","miles_from_dt":12.59},{"city":"Centerpoint","state_name":"Indiana","lat":39.40863,"lng":-87.05937,"zip":"47840","miles_from_dt":12.96},{"city":"Fontanet","state_name":"Indiana","lat":39.5736,"lng":-87.24594,"zip":"47851","miles_from_dt":13.01},{"city":"Prairie Creek","state_name":"Indiana","lat":39.2751,"lng":-87.49658,"zip":"47869","miles_from_dt":13.16},{"city":"Brazil","state_name":"Indiana","lat":39.52423,"lng":-87.12276,"zip":"47834","miles_from_dt":13.27},{"city":"Hymera","state_name":"Indiana","lat":39.18844,"lng":-87.30216,"zip":"47855","miles_from_dt":13.89},{"city":"Coalmont","state_name":"Indiana","lat":39.1936,"lng":-87.23386,"zip":"47845","miles_from_dt":13.99},{"city":"Shelburn","state_name":"Indiana","lat":39.18863,"lng":-87.37619,"zip":"47879","miles_from_dt":14.46},{"city":"Knightsville","state_name":"Indiana","lat":39.52403,"lng":-87.09111,"zip":"47857","miles_from_dt":14.52},{"city":"New Goshen","state_name":"Indiana","lat":39.57848,"lng":-87.45921,"zip":"47863","miles_from_dt":15.55},{"city":"Shepardsville","state_name":"Indiana","lat":39.59976,"lng":-87.41885,"zip":"47880","miles_from_dt":15.81},{"city":"Dennison","state_name":"Illinois","lat":39.46208,"lng":-87.5819,"zip":"62423","miles_from_dt":15.87},{"city":"Harmony","state_name":"Indiana","lat":39.53757,"lng":-87.07277,"zip":"47853","miles_from_dt":15.87},{"city":"Rosedale","state_name":"Indiana","lat":39.62913,"lng":-87.27792,"zip":"47874","miles_from_dt":16.56},{"city":"Jasonville","state_name":"Indiana","lat":39.1582,"lng":-87.18237,"zip":"47438","miles_from_dt":17.18},{"city":"Bowling Green","state_name":"Indiana","lat":39.35841,"lng":-86.97773,"zip":"47833","miles_from_dt":17.4},{"city":"Universal","state_name":"Indiana","lat":39.62308,"lng":-87.45362,"zip":"47884","miles_from_dt":18.06},{"city":"Coal City","state_name":"Indiana","lat":39.23915,"lng":-87.01266,"zip":"47427","miles_from_dt":18.59},{"city":"Patricksburg","state_name":"Indiana","lat":39.31271,"lng":-86.95672,"zip":"47455","miles_from_dt":19.15},{"city":"Bridgeton","state_name":"Indiana","lat":39.64924,"lng":-87.17221,"zip":"47836","miles_from_dt":19.16},{"city":"Carbon","state_name":"Indiana","lat":39.62929,"lng":-87.11281,"zip":"47837","miles_from_dt":19.32},{"city":"Fairbanks","state_name":"Indiana","lat":39.19196,"lng":-87.56131,"zip":"47849","miles_from_dt":19.55},{"city":"Midland","state_name":"Indiana","lat":39.11289,"lng":-87.18944,"zip":"47445","miles_from_dt":20},{"city":"Vermilion","state_name":"Illinois","lat":39.58162,"lng":-87.5875,"zip":"61955","miles_from_dt":20.27},{"city":"Reelsville","state_name":"Indiana","lat":39.53527,"lng":-86.96815,"zip":"46171","miles_from_dt":20.4},{"city":"Graysville","state_name":"Indiana","lat":39.10601,"lng":-87.43379,"zip":"47852","miles_from_dt":20.84},{"city":"Marshall","state_name":"Illinois","lat":39.39392,"lng":-87.69795,"zip":"62441","miles_from_dt":21.29},{"city":"Sullivan","state_name":"Indiana","lat":39.09034,"lng":-87.41186,"zip":"47882","miles_from_dt":21.51},{"city":"Clinton","state_name":"Indiana","lat":39.67569,"lng":-87.462,"zip":"47842","miles_from_dt":21.53},{"city":"Poland","state_name":"Indiana","lat":39.40892,"lng":-86.89822,"zip":"47868","miles_from_dt":21.56},{"city":"West Union","state_name":"Illinois","lat":39.23369,"lng":-87.66024,"zip":"62477","miles_from_dt":22.09},{"city":"Blanford","state_name":"Indiana","lat":39.66549,"lng":-87.52177,"zip":"47831","miles_from_dt":22.4},{"city":"Mecca","state_name":"Indiana","lat":39.72215,"lng":-87.33013,"zip":"47860","miles_from_dt":22.99},{"city":"Freedom","state_name":"Indiana","lat":39.24052,"lng":-86.90655,"zip":"47431","miles_from_dt":23.48},{"city":"Worthington","state_name":"Indiana","lat":39.14253,"lng":-86.99788,"zip":"47471","miles_from_dt":23.53},{"city":"Dugger","state_name":"Indiana","lat":39.04159,"lng":-87.26108,"zip":"47848","miles_from_dt":24.11},{"city":"Linton","state_name":"Indiana","lat":39.03976,"lng":-87.1743,"zip":"47441","miles_from_dt":25.07},{"city":"Saint Bernice","state_name":"Indiana","lat":39.71447,"lng":-87.52222,"zip":"47875","miles_from_dt":25.34},{"city":"Paris","state_name":"Illinois","lat":39.59969,"lng":-87.70146,"zip":"61944","miles_from_dt":25.88},{"city":"Paxton","state_name":"Indiana","lat":39.01908,"lng":-87.39259,"zip":"47865","miles_from_dt":26.05},{"city":"Rockville","state_name":"Indiana","lat":39.75331,"lng":-87.16271,"zip":"47872","miles_from_dt":26.13},{"city":"Montezuma","state_name":"Indiana","lat":39.77184,"lng":-87.34527,"zip":"47862","miles_from_dt":26.47},{"city":"Putnamville","state_name":"Indiana","lat":39.57164,"lng":-86.86277,"zip":"46170","miles_from_dt":26.54},{"city":"Merom","state_name":"Indiana","lat":39.06528,"lng":-87.56658,"zip":"47861","miles_from_dt":26.56},{"city":"Switz City","state_name":"Indiana","lat":39.05474,"lng":-87.04338,"zip":"47465","miles_from_dt":26.91},{"city":"West York","state_name":"Illinois","lat":39.17874,"lng":-87.74367,"zip":"62478","miles_from_dt":27.88},{"city":"Spencer","state_name":"Indiana","lat":39.28153,"lng":-86.78951,"zip":"47460","miles_from_dt":28.36},{"city":"Greencastle","state_name":"Indiana","lat":39.65909,"lng":-86.89107,"zip":"46135","miles_from_dt":28.69},{"city":"Cloverdale","state_name":"Indiana","lat":39.51252,"lng":-86.78711,"zip":"46120","miles_from_dt":28.72},{"city":"Hutsonville","state_name":"Illinois","lat":39.11276,"lng":-87.70514,"zip":"62433","miles_from_dt":28.93},{"city":"Hillsdale","state_name":"Indiana","lat":39.80874,"lng":-87.41299,"zip":"47854","miles_from_dt":29.52}],"targetCityZipCode":"47871","targetCityState":"Indiana"},"__N_SSG":true}