{"pageProps":{"stateName":"Indiana","cityName":"shirley","nearbyCities":[{"city":"Kennard","state_name":"Indiana","lat":39.90442,"lng":-85.52001,"zip":"47351","miles_from_dt":1.89},{"city":"Wilkinson","state_name":"Indiana","lat":39.89126,"lng":-85.64264,"zip":"46186","miles_from_dt":4.98},{"city":"Markleville","state_name":"Indiana","lat":39.97351,"lng":-85.6105,"zip":"46056","miles_from_dt":5.12},{"city":"Greensboro","state_name":"Indiana","lat":39.87857,"lng":-85.464,"zip":"47344","miles_from_dt":5.34},{"city":"Knightstown","state_name":"Indiana","lat":39.80906,"lng":-85.51296,"zip":"46148","miles_from_dt":7.53},{"city":"Charlottesville","state_name":"Indiana","lat":39.81507,"lng":-85.61763,"zip":"46117","miles_from_dt":7.61},{"city":"Spiceland","state_name":"Indiana","lat":39.83194,"lng":-85.44825,"zip":"47385","miles_from_dt":7.94},{"city":"Middletown","state_name":"Indiana","lat":40.03079,"lng":-85.50415,"zip":"47356","miles_from_dt":8.5},{"city":"Sulphur Springs","state_name":"Indiana","lat":40.0056,"lng":-85.44352,"zip":"47388","miles_from_dt":8.62},{"city":"New Castle","state_name":"Indiana","lat":39.93186,"lng":-85.36998,"zip":"47362","miles_from_dt":9.83},{"city":"Dunreith","state_name":"Indiana","lat":39.80286,"lng":-85.43736,"zip":"47337","miles_from_dt":9.83},{"city":"Mount Summit","state_name":"Indiana","lat":40.00415,"lng":-85.38492,"zip":"47361","miles_from_dt":10.91},{"city":"Pendleton","state_name":"Indiana","lat":39.98473,"lng":-85.74701,"zip":"46064","miles_from_dt":11.38},{"city":"Anderson","state_name":"Indiana","lat":40.07358,"lng":-85.60687,"zip":"46017","miles_from_dt":11.39},{"city":"Anderson","state_name":"Indiana","lat":40.05021,"lng":-85.67829,"zip":"46013","miles_from_dt":11.52},{"city":"Carthage","state_name":"Indiana","lat":39.7375,"lng":-85.56623,"zip":"46115","miles_from_dt":12.17},{"city":"Maxwell","state_name":"Indiana","lat":39.85639,"lng":-85.77038,"zip":"46154","miles_from_dt":12.18},{"city":"Lewisville","state_name":"Indiana","lat":39.79597,"lng":-85.3637,"zip":"47352","miles_from_dt":12.95},{"city":"Springport","state_name":"Indiana","lat":40.05277,"lng":-85.38305,"zip":"47386","miles_from_dt":13.19},{"city":"Mays","state_name":"Indiana","lat":39.74355,"lng":-85.42966,"zip":"46155","miles_from_dt":13.46},{"city":"Anderson","state_name":"Indiana","lat":40.08703,"lng":-85.67633,"zip":"46014","miles_from_dt":13.62},{"city":"Ingalls","state_name":"Indiana","lat":39.9543,"lng":-85.80755,"zip":"46048","miles_from_dt":13.78},{"city":"Greenfield","state_name":"Indiana","lat":39.80358,"lng":-85.77049,"zip":"46140","miles_from_dt":13.81},{"city":"Daleville","state_name":"Indiana","lat":40.11267,"lng":-85.52357,"zip":"47334","miles_from_dt":13.82},{"city":"Anderson","state_name":"Indiana","lat":40.09334,"lng":-85.6854,"zip":"46018","miles_from_dt":14.24},{"city":"Anderson","state_name":"Indiana","lat":40.09781,"lng":-85.68152,"zip":"46016","miles_from_dt":14.41},{"city":"Oakville","state_name":"Indiana","lat":40.08366,"lng":-85.39207,"zip":"47367","miles_from_dt":14.53},{"city":"Straughn","state_name":"Indiana","lat":39.83677,"lng":-85.2945,"zip":"47387","miles_from_dt":14.76},{"city":"Anderson","state_name":"Indiana","lat":40.1086,"lng":-85.67518,"zip":"46015","miles_from_dt":14.92},{"city":"Fortville","state_name":"Indiana","lat":39.92773,"lng":-85.83424,"zip":"46040","miles_from_dt":14.94},{"city":"New Lisbon","state_name":"Indiana","lat":39.86127,"lng":-85.26068,"zip":"47366","miles_from_dt":15.98},{"city":"Anderson","state_name":"Indiana","lat":40.1492,"lng":-85.62552,"zip":"46012","miles_from_dt":16.69},{"city":"Mooreland","state_name":"Indiana","lat":40.01677,"lng":-85.2614,"zip":"47360","miles_from_dt":17.06},{"city":"Muncie","state_name":"Indiana","lat":40.13032,"lng":-85.37925,"zip":"47308","miles_from_dt":17.58},{"city":"Arlington","state_name":"Indiana","lat":39.66041,"lng":-85.59545,"zip":"46104","miles_from_dt":17.61},{"city":"Muncie","state_name":"Indiana","lat":40.12992,"lng":-85.37553,"zip":"47302","miles_from_dt":17.66},{"city":"Gwynneville","state_name":"Indiana","lat":39.66586,"lng":-85.64706,"zip":"46144","miles_from_dt":17.81},{"city":"Lapel","state_name":"Indiana","lat":40.05855,"lng":-85.83794,"zip":"46051","miles_from_dt":18.11},{"city":"Morristown","state_name":"Indiana","lat":39.66959,"lng":-85.69395,"zip":"46161","miles_from_dt":18.42},{"city":"Anderson","state_name":"Indiana","lat":40.12759,"lng":-85.76178,"zip":"46011","miles_from_dt":18.44},{"city":"Falmouth","state_name":"Indiana","lat":39.71766,"lng":-85.3158,"zip":"46127","miles_from_dt":18.51},{"city":"Mccordsville","state_name":"Indiana","lat":39.88627,"lng":-85.90404,"zip":"46055","miles_from_dt":18.72},{"city":"Yorktown","state_name":"Indiana","lat":40.18661,"lng":-85.51632,"zip":"47396","miles_from_dt":18.94},{"city":"Dublin","state_name":"Indiana","lat":39.81171,"lng":-85.20675,"zip":"47335","miles_from_dt":19.73},{"city":"Muncie","state_name":"Indiana","lat":40.17769,"lng":-85.39506,"zip":"47307","miles_from_dt":20.06},{"city":"Bentonville","state_name":"Indiana","lat":39.74849,"lng":-85.2418,"zip":"47322","miles_from_dt":20.12},{"city":"Finly","state_name":"Indiana","lat":39.70578,"lng":-85.82339,"zip":"46129","miles_from_dt":20.29},{"city":"Hagerstown","state_name":"Indiana","lat":39.93442,"lng":-85.16306,"zip":"47346","miles_from_dt":20.79},{"city":"Losantville","state_name":"Indiana","lat":40.04628,"lng":-85.19933,"zip":"47354","miles_from_dt":20.91},{"city":"Cambridge City","state_name":"Indiana","lat":39.8318,"lng":-85.17314,"zip":"47327","miles_from_dt":20.99},{"city":"Fishers","state_name":"Indiana","lat":39.96077,"lng":-85.94446,"zip":"46037","miles_from_dt":21.02},{"city":"Muncie","state_name":"Indiana","lat":40.19387,"lng":-85.38556,"zip":"47305","miles_from_dt":21.29},{"city":"Muncie","state_name":"Indiana","lat":40.20542,"lng":-85.40726,"zip":"47306","miles_from_dt":21.57},{"city":"Indianapolis","state_name":"Indiana","lat":39.89132,"lng":-85.96766,"zip":"46236","miles_from_dt":22.06},{"city":"Fountaintown","state_name":"Indiana","lat":39.67464,"lng":-85.83571,"zip":"46130","miles_from_dt":22.3},{"city":"Selma","state_name":"Indiana","lat":40.15123,"lng":-85.26399,"zip":"47383","miles_from_dt":22.46},{"city":"Rushville","state_name":"Indiana","lat":39.60294,"lng":-85.42677,"zip":"46173","miles_from_dt":22.47},{"city":"New Palestine","state_name":"Indiana","lat":39.7287,"lng":-85.90435,"zip":"46163","miles_from_dt":22.61},{"city":"Muncie","state_name":"Indiana","lat":40.23398,"lng":-85.45973,"zip":"47304","miles_from_dt":22.65},{"city":"Noblesville","state_name":"Indiana","lat":40.06616,"lng":-85.93137,"zip":"46060","miles_from_dt":22.65},{"city":"Homer","state_name":"Indiana","lat":39.57968,"lng":-85.56972,"zip":"46146","miles_from_dt":23.06},{"city":"Indianapolis","state_name":"Indiana","lat":39.83784,"lng":-85.97651,"zip":"46235","miles_from_dt":23.09},{"city":"Pershing","state_name":"Indiana","lat":39.81281,"lng":-85.13779,"zip":"47370","miles_from_dt":23.17},{"city":"Frankton","state_name":"Indiana","lat":40.2085,"lng":-85.79026,"zip":"46044","miles_from_dt":23.9},{"city":"Alexandria","state_name":"Indiana","lat":40.25141,"lng":-85.65838,"zip":"46001","miles_from_dt":23.96},{"city":"Milton","state_name":"Indiana","lat":39.75773,"lng":-85.14795,"zip":"47357","miles_from_dt":24.1},{"city":"Indianapolis","state_name":"Indiana","lat":39.862,"lng":-86.00204,"zip":"46249","miles_from_dt":24.1},{"city":"Indianapolis","state_name":"Indiana","lat":39.78852,"lng":-85.978,"zip":"46229","miles_from_dt":24.17},{"city":"Indianapolis","state_name":"Indiana","lat":39.90682,"lng":-86.01152,"zip":"46256","miles_from_dt":24.34},{"city":"Indianapolis","state_name":"Indiana","lat":39.86593,"lng":-86.00929,"zip":"46216","miles_from_dt":24.45},{"city":"Fishers","state_name":"Indiana","lat":39.96,"lng":-86.01219,"zip":"46085","miles_from_dt":24.57},{"city":"Economy","state_name":"Indiana","lat":39.96337,"lng":-85.09471,"zip":"47339","miles_from_dt":24.61},{"city":"Fishers","state_name":"Indiana","lat":39.96722,"lng":-86.01712,"zip":"46038","miles_from_dt":24.9},{"city":"Modoc","state_name":"Indiana","lat":40.05488,"lng":-85.11204,"zip":"47358","miles_from_dt":25.38},{"city":"Manilla","state_name":"Indiana","lat":39.54695,"lng":-85.60232,"zip":"46150","miles_from_dt":25.43},{"city":"Glenwood","state_name":"Indiana","lat":39.58945,"lng":-85.30044,"zip":"46133","miles_from_dt":26.11},{"city":"Parker City","state_name":"Indiana","lat":40.18082,"lng":-85.20025,"zip":"47368","miles_from_dt":26.28},{"city":"Orestes","state_name":"Indiana","lat":40.27184,"lng":-85.72389,"zip":"46063","miles_from_dt":26.31},{"city":"Muncie","state_name":"Indiana","lat":40.27108,"lng":-85.37648,"zip":"47303","miles_from_dt":26.38},{"city":"Fairland","state_name":"Indiana","lat":39.62053,"lng":-85.88694,"zip":"46126","miles_from_dt":26.91},{"city":"Greens Fork","state_name":"Indiana","lat":39.892,"lng":-85.04765,"zip":"47345","miles_from_dt":26.92},{"city":"Indianapolis","state_name":"Indiana","lat":39.83968,"lng":-86.05117,"zip":"46226","miles_from_dt":26.94},{"city":"Indianapolis","state_name":"Indiana","lat":39.72311,"lng":-86.0004,"zip":"46239","miles_from_dt":27.17},{"city":"Noblesville","state_name":"Indiana","lat":40.05761,"lng":-86.03172,"zip":"46061","miles_from_dt":27.25},{"city":"Indianapolis","state_name":"Indiana","lat":39.90399,"lng":-86.06864,"zip":"46250","miles_from_dt":27.38},{"city":"Indianapolis","state_name":"Indiana","lat":39.78314,"lng":-86.04444,"zip":"46219","miles_from_dt":27.62},{"city":"Gaston","state_name":"Indiana","lat":40.32184,"lng":-85.5105,"zip":"47342","miles_from_dt":28.26},{"city":"Connersville","state_name":"Indiana","lat":39.63086,"lng":-85.16313,"zip":"47331","miles_from_dt":28.51},{"city":"Noblesville","state_name":"Indiana","lat":40.06146,"lng":-86.05523,"zip":"46062","miles_from_dt":28.51},{"city":"Carmel","state_name":"Indiana","lat":39.97975,"lng":-86.08595,"zip":"46033","miles_from_dt":28.64},{"city":"Farmland","state_name":"Indiana","lat":40.181,"lng":-85.1318,"zip":"47340","miles_from_dt":28.99},{"city":"Shelbyville","state_name":"Indiana","lat":39.52684,"lng":-85.77297,"zip":"46176","miles_from_dt":29.13},{"city":"Indianapolis","state_name":"Indiana","lat":39.65078,"lng":-85.98692,"zip":"46259","miles_from_dt":29.34},{"city":"Albany","state_name":"Indiana","lat":40.2787,"lng":-85.2672,"zip":"47320","miles_from_dt":29.4},{"city":"Williamsburg","state_name":"Indiana","lat":39.96559,"lng":-85.00325,"zip":"47393","miles_from_dt":29.44},{"city":"Centerville","state_name":"Indiana","lat":39.78792,"lng":-85.02226,"zip":"47330","miles_from_dt":29.55},{"city":"Indianapolis","state_name":"Indiana","lat":39.8676,"lng":-86.10818,"zip":"46220","miles_from_dt":29.65},{"city":"Indianapolis","state_name":"Indiana","lat":39.86675,"lng":-86.10915,"zip":"46230","miles_from_dt":29.71},{"city":"Milroy","state_name":"Indiana","lat":39.48451,"lng":-85.4806,"zip":"46156","miles_from_dt":29.86},{"city":"Indianapolis","state_name":"Indiana","lat":39.80713,"lng":-86.09958,"zip":"46218","miles_from_dt":29.95},{"city":"Cicero","state_name":"Indiana","lat":40.13291,"lng":-86.04128,"zip":"46034","miles_from_dt":29.97}],"targetCityZipCode":"47384","targetCityState":"Indiana"},"__N_SSG":true}