{"pageProps":{"stateName":"Indiana","cityName":"tefft","nearbyCities":[{"city":"San Pierre","state_name":"Indiana","lat":41.20616,"lng":-86.895,"zip":"46374","miles_from_dt":4.06},{"city":"Wheatfield","state_name":"Indiana","lat":41.18509,"lng":-87.04948,"zip":"46392","miles_from_dt":4.14},{"city":"Kouts","state_name":"Indiana","lat":41.30502,"lng":-87.00859,"zip":"46347","miles_from_dt":7.55},{"city":"Medaryville","state_name":"Indiana","lat":41.08937,"lng":-86.8772,"zip":"47957","miles_from_dt":9.05},{"city":"La Crosse","state_name":"Indiana","lat":41.30981,"lng":-86.86244,"zip":"46348","miles_from_dt":9.55},{"city":"North Judson","state_name":"Indiana","lat":41.21443,"lng":-86.76922,"zip":"46366","miles_from_dt":10.64},{"city":"Demotte","state_name":"Indiana","lat":41.18205,"lng":-87.23088,"zip":"46310","miles_from_dt":13.53},{"city":"Boone Grove","state_name":"Indiana","lat":41.3604,"lng":-87.12645,"zip":"46302","miles_from_dt":13.73},{"city":"Hebron","state_name":"Indiana","lat":41.30666,"lng":-87.21962,"zip":"46341","miles_from_dt":14.87},{"city":"Francesville","state_name":"Indiana","lat":40.98427,"lng":-86.87014,"zip":"47946","miles_from_dt":15.75},{"city":"Wanatah","state_name":"Indiana","lat":41.41677,"lng":-86.8742,"zip":"46390","miles_from_dt":15.87},{"city":"Hanna","state_name":"Indiana","lat":41.38339,"lng":-86.76846,"zip":"46340","miles_from_dt":16.57},{"city":"Rensselaer","state_name":"Indiana","lat":40.97991,"lng":-87.1163,"zip":"47978","miles_from_dt":16.89},{"city":"Valparaiso","state_name":"Indiana","lat":41.45838,"lng":-87.00156,"zip":"46383","miles_from_dt":17.96},{"city":"Roselawn","state_name":"Indiana","lat":41.14211,"lng":-87.31024,"zip":"46372","miles_from_dt":18.05},{"city":"Fair Oaks","state_name":"Indiana","lat":41.0594,"lng":-87.28006,"zip":"47943","miles_from_dt":18.73},{"city":"Winamac","state_name":"Indiana","lat":41.0626,"lng":-86.65906,"zip":"46996","miles_from_dt":18.86},{"city":"Thayer","state_name":"Indiana","lat":41.17635,"lng":-87.33436,"zip":"46381","miles_from_dt":18.94},{"city":"Leroy","state_name":"Indiana","lat":41.36397,"lng":-87.26721,"zip":"46355","miles_from_dt":19.11},{"city":"Knox","state_name":"Indiana","lat":41.28561,"lng":-86.61878,"zip":"46534","miles_from_dt":19.36},{"city":"Shelby","state_name":"Indiana","lat":41.19432,"lng":-87.34777,"zip":"46377","miles_from_dt":19.57},{"city":"Valparaiso","state_name":"Indiana","lat":41.46395,"lng":-87.12396,"zip":"46385","miles_from_dt":19.91},{"city":"Valparaiso","state_name":"Indiana","lat":41.49362,"lng":-87.05475,"zip":"46384","miles_from_dt":20.78},{"city":"Union Mills","state_name":"Indiana","lat":41.46868,"lng":-86.76212,"zip":"46382","miles_from_dt":21.58},{"city":"Ora","state_name":"Indiana","lat":41.17049,"lng":-86.55179,"zip":"46968","miles_from_dt":22.01},{"city":"Crown Point","state_name":"Indiana","lat":41.40215,"lng":-87.32693,"zip":"46307","miles_from_dt":23.17},{"city":"Monon","state_name":"Indiana","lat":40.86603,"lng":-86.89786,"zip":"47959","miles_from_dt":23.31},{"city":"Monterey","state_name":"Indiana","lat":41.15735,"lng":-86.52397,"zip":"46960","miles_from_dt":23.55},{"city":"Lowell","state_name":"Indiana","lat":41.26117,"lng":-87.41863,"zip":"46356","miles_from_dt":23.64},{"city":"Hamlet","state_name":"Indiana","lat":41.41762,"lng":-86.62119,"zip":"46532","miles_from_dt":23.69},{"city":"Wheeler","state_name":"Indiana","lat":41.5139,"lng":-87.16801,"zip":"46393","miles_from_dt":23.99},{"city":"Sumava Resorts","state_name":"Indiana","lat":41.15682,"lng":-87.4302,"zip":"46379","miles_from_dt":24.05},{"city":"Westville","state_name":"Indiana","lat":41.5455,"lng":-86.91446,"zip":"46391","miles_from_dt":24.1},{"city":"Kingsford Heights","state_name":"Indiana","lat":41.47816,"lng":-86.69332,"zip":"46346","miles_from_dt":24.12},{"city":"Mount Ayr","state_name":"Indiana","lat":40.9523,"lng":-87.2996,"zip":"47964","miles_from_dt":24.13},{"city":"Gary","state_name":"Indiana","lat":41.46091,"lng":-87.28537,"zip":"46401","miles_from_dt":24.33},{"city":"Lake Village","state_name":"Indiana","lat":41.10899,"lng":-87.42359,"zip":"46349","miles_from_dt":24.34},{"city":"Buffalo","state_name":"Indiana","lat":40.88205,"lng":-86.74477,"zip":"47925","miles_from_dt":24.9},{"city":"Crown Point","state_name":"Indiana","lat":41.41715,"lng":-87.36393,"zip":"46308","miles_from_dt":25.33},{"city":"Hobart","state_name":"Indiana","lat":41.51761,"lng":-87.24468,"zip":"46342","miles_from_dt":26.15},{"city":"Grovertown","state_name":"Indiana","lat":41.35686,"lng":-86.51558,"zip":"46531","miles_from_dt":26.15},{"city":"Schneider","state_name":"Indiana","lat":41.1838,"lng":-87.47603,"zip":"46376","miles_from_dt":26.28},{"city":"Star City","state_name":"Indiana","lat":40.95485,"lng":-86.58225,"zip":"46985","miles_from_dt":26.43},{"city":"Kingsbury","state_name":"Indiana","lat":41.53032,"lng":-86.69995,"zip":"46345","miles_from_dt":26.89},{"city":"Merrillville","state_name":"Indiana","lat":41.48083,"lng":-87.33293,"zip":"46410","miles_from_dt":27.02},{"city":"Merrillville","state_name":"Indiana","lat":41.47137,"lng":-87.37635,"zip":"46411","miles_from_dt":28.19},{"city":"Culver","state_name":"Indiana","lat":41.22182,"lng":-86.42889,"zip":"46511","miles_from_dt":28.36},{"city":"Portage","state_name":"Indiana","lat":41.5848,"lng":-87.17937,"zip":"46368","miles_from_dt":28.71},{"city":"Cedar Lake","state_name":"Indiana","lat":41.37198,"lng":-87.4765,"zip":"46303","miles_from_dt":28.83},{"city":"Chesterton","state_name":"Indiana","lat":41.61311,"lng":-87.04905,"zip":"46304","miles_from_dt":28.85},{"city":"Delong","state_name":"Indiana","lat":41.13993,"lng":-86.42197,"zip":"46922","miles_from_dt":28.99},{"city":"Morocco","state_name":"Indiana","lat":40.96811,"lng":-87.44371,"zip":"47963","miles_from_dt":29.32},{"city":"Donaldson","state_name":"Indiana","lat":41.3629,"lng":-86.44816,"zip":"46513","miles_from_dt":29.54},{"city":"Brook","state_name":"Indiana","lat":40.8762,"lng":-87.35369,"zip":"47922","miles_from_dt":29.89},{"city":"Lake Station","state_name":"Indiana","lat":41.57409,"lng":-87.26285,"zip":"46405","miles_from_dt":29.97}],"targetCityZipCode":"46380","targetCityState":"Indiana"},"__N_SSG":true}