{"pageProps":{"stateName":"Indiana","cityName":"wawaka","nearbyCities":[{"city":"Rome City","state_name":"Indiana","lat":41.49797,"lng":-85.38797,"zip":"46784","miles_from_dt":4.3},{"city":"Ligonier","state_name":"Indiana","lat":41.46487,"lng":-85.5764,"zip":"46767","miles_from_dt":6.07},{"city":"Albion","state_name":"Indiana","lat":41.35846,"lng":-85.43034,"zip":"46701","miles_from_dt":7.61},{"city":"Topeka","state_name":"Indiana","lat":41.56795,"lng":-85.54667,"zip":"46571","miles_from_dt":8.33},{"city":"Wolcottville","state_name":"Indiana","lat":41.55116,"lng":-85.33941,"zip":"46795","miles_from_dt":8.54},{"city":"Wolflake","state_name":"Indiana","lat":41.3367,"lng":-85.49583,"zip":"46796","miles_from_dt":9.16},{"city":"Kendallville","state_name":"Indiana","lat":41.45119,"lng":-85.27209,"zip":"46755","miles_from_dt":9.78},{"city":"Kimmell","state_name":"Indiana","lat":41.34441,"lng":-85.55654,"zip":"46760","miles_from_dt":9.82},{"city":"Cromwell","state_name":"Indiana","lat":41.37697,"lng":-85.62169,"zip":"46732","miles_from_dt":10.45},{"city":"South Milford","state_name":"Indiana","lat":41.53156,"lng":-85.27269,"zip":"46786","miles_from_dt":10.68},{"city":"Millersburg","state_name":"Indiana","lat":41.53341,"lng":-85.67119,"zip":"46543","miles_from_dt":11.91},{"city":"Lagrange","state_name":"Indiana","lat":41.63576,"lng":-85.37127,"zip":"46761","miles_from_dt":12.54},{"city":"Avilla","state_name":"Indiana","lat":41.35167,"lng":-85.25168,"zip":"46710","miles_from_dt":13.39},{"city":"Syracuse","state_name":"Indiana","lat":41.41473,"lng":-85.73044,"zip":"46567","miles_from_dt":14.52},{"city":"North Webster","state_name":"Indiana","lat":41.32858,"lng":-85.68833,"zip":"46555","miles_from_dt":15.23},{"city":"Stroh","state_name":"Indiana","lat":41.58274,"lng":-85.19742,"zip":"46789","miles_from_dt":15.78},{"city":"Corunna","state_name":"Indiana","lat":41.454,"lng":-85.15504,"zip":"46730","miles_from_dt":15.83},{"city":"Laotto","state_name":"Indiana","lat":41.29418,"lng":-85.2415,"zip":"46763","miles_from_dt":16.43},{"city":"Shipshewana","state_name":"Indiana","lat":41.69285,"lng":-85.5831,"zip":"46565","miles_from_dt":16.88},{"city":"Hudson","state_name":"Indiana","lat":41.56042,"lng":-85.15349,"zip":"46747","miles_from_dt":17.14},{"city":"Churubusco","state_name":"Indiana","lat":41.23828,"lng":-85.32441,"zip":"46723","miles_from_dt":17.25},{"city":"Mongo","state_name":"Indiana","lat":41.69272,"lng":-85.29639,"zip":"46771","miles_from_dt":17.75},{"city":"Howe","state_name":"Indiana","lat":41.72257,"lng":-85.34914,"zip":"46746","miles_from_dt":18.57},{"city":"Middlebury","state_name":"Indiana","lat":41.67571,"lng":-85.69768,"zip":"46540","miles_from_dt":18.99},{"city":"Larwill","state_name":"Indiana","lat":41.2176,"lng":-85.62376,"zip":"46764","miles_from_dt":19.19},{"city":"Garrett","state_name":"Indiana","lat":41.32189,"lng":-85.13731,"zip":"46738","miles_from_dt":19.49},{"city":"Goshen","state_name":"Indiana","lat":41.60698,"lng":-85.786,"zip":"46528","miles_from_dt":19.51},{"city":"Fort Wayne","state_name":"Indiana","lat":41.19754,"lng":-85.3053,"zip":"46898","miles_from_dt":20.22},{"city":"New Paris","state_name":"Indiana","lat":41.48004,"lng":-85.85095,"zip":"46553","miles_from_dt":20.34},{"city":"Ashley","state_name":"Indiana","lat":41.51816,"lng":-85.06029,"zip":"46705","miles_from_dt":21.02},{"city":"Leesburg","state_name":"Indiana","lat":41.32829,"lng":-85.82703,"zip":"46538","miles_from_dt":21.35},{"city":"Huntertown","state_name":"Indiana","lat":41.24829,"lng":-85.16727,"zip":"46748","miles_from_dt":21.39},{"city":"Goshen","state_name":"Indiana","lat":41.58871,"lng":-85.84344,"zip":"46527","miles_from_dt":21.62},{"city":"Pierceton","state_name":"Indiana","lat":41.20947,"lng":-85.69757,"zip":"46562","miles_from_dt":21.64},{"city":"Columbia City","state_name":"Indiana","lat":41.1518,"lng":-85.47655,"zip":"46725","miles_from_dt":21.74},{"city":"Milford","state_name":"Indiana","lat":41.39303,"lng":-85.87448,"zip":"46542","miles_from_dt":22.14},{"city":"Goshen","state_name":"Indiana","lat":41.55307,"lng":-85.88448,"zip":"46526","miles_from_dt":22.84},{"city":"Waterloo","state_name":"Indiana","lat":41.46106,"lng":-85.01928,"zip":"46793","miles_from_dt":22.85},{"city":"Pleasant Lake","state_name":"Indiana","lat":41.5725,"lng":-85.03094,"zip":"46779","miles_from_dt":23.4},{"city":"Auburn","state_name":"Indiana","lat":41.34242,"lng":-85.03922,"zip":"46706","miles_from_dt":23.45},{"city":"Orland","state_name":"Indiana","lat":41.72793,"lng":-85.16878,"zip":"46776","miles_from_dt":23.5},{"city":"Warsaw","state_name":"Indiana","lat":41.28323,"lng":-85.85235,"zip":"46582","miles_from_dt":24.02},{"city":"Fort Wayne","state_name":"Indiana","lat":41.14698,"lng":-85.25111,"zip":"46818","miles_from_dt":24.57},{"city":"Sturgis","state_name":"Michigan","lat":41.82509,"lng":-85.44627,"zip":"49091","miles_from_dt":24.75},{"city":"White Pigeon","state_name":"Michigan","lat":41.79139,"lng":-85.67437,"zip":"49099","miles_from_dt":25.03},{"city":"Winona Lake","state_name":"Indiana","lat":41.21612,"lng":-85.80862,"zip":"46590","miles_from_dt":25.07},{"city":"Bristol","state_name":"Indiana","lat":41.72138,"lng":-85.81571,"zip":"46507","miles_from_dt":25.49},{"city":"Fort Wayne","state_name":"Indiana","lat":41.2051,"lng":-85.10789,"zip":"46845","miles_from_dt":25.69},{"city":"Warsaw","state_name":"Indiana","lat":41.23711,"lng":-85.85823,"zip":"46581","miles_from_dt":26.09},{"city":"Arcola","state_name":"Indiana","lat":41.10371,"lng":-85.29242,"zip":"46704","miles_from_dt":26.51},{"city":"Angola","state_name":"Indiana","lat":41.65305,"lng":-85.00976,"zip":"46703","miles_from_dt":26.63},{"city":"Leo","state_name":"Indiana","lat":41.23361,"lng":-85.04047,"zip":"46765","miles_from_dt":27.08},{"city":"Burr Oak","state_name":"Michigan","lat":41.85529,"lng":-85.33129,"zip":"49030","miles_from_dt":27.64},{"city":"Fort Wayne","state_name":"Indiana","lat":41.15397,"lng":-85.12425,"zip":"46825","miles_from_dt":27.74},{"city":"Warsaw","state_name":"Indiana","lat":41.20884,"lng":-85.87212,"zip":"46580","miles_from_dt":27.87},{"city":"Nappanee","state_name":"Indiana","lat":41.44701,"lng":-86.00028,"zip":"46550","miles_from_dt":28.11},{"city":"South Whitley","state_name":"Indiana","lat":41.06598,"lng":-85.62085,"zip":"46787","miles_from_dt":28.89},{"city":"Elkhart","state_name":"Indiana","lat":41.6756,"lng":-85.94584,"zip":"46516","miles_from_dt":29.04},{"city":"Constantine","state_name":"Michigan","lat":41.85665,"lng":-85.67142,"zip":"49042","miles_from_dt":29.07},{"city":"Fort Wayne","state_name":"Indiana","lat":41.09887,"lng":-85.17619,"zip":"46808","miles_from_dt":29.35},{"city":"Fort Wayne","state_name":"Indiana","lat":41.149,"lng":-85.07375,"zip":"46854","miles_from_dt":29.72},{"city":"Bronson","state_name":"Michigan","lat":41.84438,"lng":-85.1837,"zip":"49028","miles_from_dt":29.73},{"city":"Elkhart","state_name":"Indiana","lat":41.62429,"lng":-85.99675,"zip":"46517","miles_from_dt":29.91}],"targetCityZipCode":"46794","targetCityState":"Indiana"},"__N_SSG":true}