{"pageProps":{"stateName":"Hawaii","cityName":"keaau","nearbyCities":[{"city":"Kurtistown","state_name":"Hawaii","lat":19.55234,"lng":-155.05483,"zip":"96760","miles_from_dt":5.23},{"city":"Hilo","state_name":"Hawaii","lat":19.53217,"lng":-154.95548,"zip":"96721","miles_from_dt":6.2},{"city":"Mountain View","state_name":"Hawaii","lat":19.53348,"lng":-155.13573,"zip":"96771","miles_from_dt":10.15},{"city":"Pahoa","state_name":"Hawaii","lat":19.45221,"lng":-154.98624,"zip":"96778","miles_from_dt":10.93},{"city":"Hilo","state_name":"Hawaii","lat":19.67022,"lng":-155.21718,"zip":"96720","miles_from_dt":14.57},{"city":"Volcano","state_name":"Hawaii","lat":19.47818,"lng":-155.23017,"zip":"96785","miles_from_dt":17.39},{"city":"Pepeekeo","state_name":"Hawaii","lat":19.84293,"lng":-155.1074,"zip":"96783","miles_from_dt":17.39},{"city":"Papaikou","state_name":"Hawaii","lat":19.80066,"lng":-155.18194,"zip":"96781","miles_from_dt":17.54},{"city":"Honomu","state_name":"Hawaii","lat":19.85991,"lng":-155.13339,"zip":"96728","miles_from_dt":19.16},{"city":"Hakalau","state_name":"Hawaii","lat":19.85516,"lng":-155.21784,"zip":"96710","miles_from_dt":21.9},{"city":"Hawaii National Park","state_name":"Hawaii","lat":19.41052,"lng":-155.27465,"zip":"96718","miles_from_dt":22.43},{"city":"Ninole","state_name":"Hawaii","lat":19.90677,"lng":-155.25218,"zip":"96773","miles_from_dt":26.07},{"city":"Papaaloa","state_name":"Hawaii","lat":19.96592,"lng":-155.225,"zip":"96780","miles_from_dt":28.42},{"city":"Laupahoehoe","state_name":"Hawaii","lat":19.97766,"lng":-155.23985,"zip":"96764","miles_from_dt":29.61}],"targetCityZipCode":"96749","targetCityState":"Hawaii"},"__N_SSG":true}