{"pageProps":{"stateName":"Vermont","cityName":"arlington","nearbyCities":[{"city":"Shushan","state_name":"New York","lat":43.1185,"lng":-73.30682,"zip":"12873","miles_from_dt":5.74},{"city":"Manchester","state_name":"Vermont","lat":43.15937,"lng":-73.06911,"zip":"05254","miles_from_dt":6.83},{"city":"Manchester Center","state_name":"Vermont","lat":43.16696,"lng":-73.06685,"zip":"05255","miles_from_dt":7.16},{"city":"East Arlington","state_name":"Vermont","lat":43.06642,"lng":-73.06132,"zip":"05252","miles_from_dt":7.65},{"city":"West Rupert","state_name":"Vermont","lat":43.24494,"lng":-73.20392,"zip":"05776","miles_from_dt":8.61},{"city":"Salem","state_name":"New York","lat":43.21225,"lng":-73.34191,"zip":"12865","miles_from_dt":9.82},{"city":"Shaftsbury","state_name":"Vermont","lat":42.97935,"lng":-73.12066,"zip":"05262","miles_from_dt":10.41},{"city":"Cambridge","state_name":"New York","lat":43.05085,"lng":-73.37829,"zip":"12816","miles_from_dt":10.52},{"city":"North Bennington","state_name":"Vermont","lat":42.96538,"lng":-73.25156,"zip":"05257","miles_from_dt":11.1},{"city":"Dorset","state_name":"Vermont","lat":43.26189,"lng":-73.08269,"zip":"05251","miles_from_dt":11.25},{"city":"Cossayuna","state_name":"New York","lat":43.17945,"lng":-73.40628,"zip":"12823","miles_from_dt":11.51},{"city":"Rupert","state_name":"Vermont","lat":43.29846,"lng":-73.22168,"zip":"05768","miles_from_dt":12.37},{"city":"Eagle Bridge","state_name":"New York","lat":42.97316,"lng":-73.34335,"zip":"12057","miles_from_dt":12.69},{"city":"East Dorset","state_name":"Vermont","lat":43.25235,"lng":-72.99913,"zip":"05253","miles_from_dt":13.38},{"city":"Bondville","state_name":"Vermont","lat":43.16215,"lng":-72.93486,"zip":"05340","miles_from_dt":13.38},{"city":"West Wardsboro","state_name":"Vermont","lat":43.02778,"lng":-72.94378,"zip":"05360","miles_from_dt":14.16},{"city":"North Hoosick","state_name":"New York","lat":42.92452,"lng":-73.3457,"zip":"12133","miles_from_dt":15.57},{"city":"Greenwich","state_name":"New York","lat":43.09706,"lng":-73.50423,"zip":"12834","miles_from_dt":15.81},{"city":"Pawlet","state_name":"Vermont","lat":43.34786,"lng":-73.14855,"zip":"05761","miles_from_dt":15.86},{"city":"Argyle","state_name":"New York","lat":43.24097,"lng":-73.4624,"zip":"12809","miles_from_dt":15.93},{"city":"West Pawlet","state_name":"Vermont","lat":43.35437,"lng":-73.22804,"zip":"05775","miles_from_dt":16.24},{"city":"Peru","state_name":"Vermont","lat":43.251,"lng":-72.92008,"zip":"05152","miles_from_dt":16.49},{"city":"Middle Falls","state_name":"New York","lat":43.10241,"lng":-73.52636,"zip":"12848","miles_from_dt":16.89},{"city":"Bennington","state_name":"Vermont","lat":42.87652,"lng":-73.1426,"zip":"05201","miles_from_dt":17.04},{"city":"Buskirk","state_name":"New York","lat":42.94545,"lng":-73.44213,"zip":"12028","miles_from_dt":17.45},{"city":"Danby","state_name":"Vermont","lat":43.34488,"lng":-73.0295,"zip":"05739","miles_from_dt":17.56},{"city":"Granville","state_name":"New York","lat":43.36813,"lng":-73.31716,"zip":"12832","miles_from_dt":18.2},{"city":"Hoosick Falls","state_name":"New York","lat":42.88073,"lng":-73.35624,"zip":"12090","miles_from_dt":18.49},{"city":"Hartford","state_name":"New York","lat":43.34354,"lng":-73.40756,"zip":"12838","miles_from_dt":18.81},{"city":"Hoosick","state_name":"New York","lat":42.86431,"lng":-73.32714,"zip":"12089","miles_from_dt":18.94},{"city":"South Londonderry","state_name":"Vermont","lat":43.17717,"lng":-72.8228,"zip":"05155","miles_from_dt":19.13},{"city":"Jamaica","state_name":"Vermont","lat":43.09744,"lng":-72.80105,"zip":"05343","miles_from_dt":19.91},{"city":"West Dover","state_name":"Vermont","lat":42.95423,"lng":-72.86952,"zip":"05356","miles_from_dt":20.02},{"city":"Victory Mills","state_name":"New York","lat":43.08855,"lng":-73.5921,"zip":"12884","miles_from_dt":20.29},{"city":"Wardsboro","state_name":"Vermont","lat":43.02079,"lng":-72.80645,"zip":"05355","miles_from_dt":20.76},{"city":"Londonderry","state_name":"Vermont","lat":43.24503,"lng":-72.81224,"zip":"05148","miles_from_dt":21.09},{"city":"Fort Edward","state_name":"New York","lat":43.25534,"lng":-73.56841,"zip":"12828","miles_from_dt":21.11},{"city":"Wells","state_name":"Vermont","lat":43.42708,"lng":-73.17435,"zip":"05774","miles_from_dt":21.19},{"city":"Schuylerville","state_name":"New York","lat":43.09249,"lng":-73.61196,"zip":"12871","miles_from_dt":21.26},{"city":"North Pownal","state_name":"Vermont","lat":42.81594,"lng":-73.26173,"zip":"05260","miles_from_dt":21.31},{"city":"Johnsonville","state_name":"New York","lat":42.89091,"lng":-73.48737,"zip":"12094","miles_from_dt":21.75},{"city":"Wilmington","state_name":"Vermont","lat":42.88301,"lng":-72.89554,"zip":"05363","miles_from_dt":22.28},{"city":"East Dover","state_name":"Vermont","lat":42.96407,"lng":-72.7972,"zip":"05341","miles_from_dt":22.78},{"city":"Wallingford","state_name":"Vermont","lat":43.40902,"lng":-72.96858,"zip":"05773","miles_from_dt":22.92},{"city":"Valley Falls","state_name":"New York","lat":42.90102,"lng":-73.53507,"zip":"12185","miles_from_dt":23},{"city":"Middle Granville","state_name":"New York","lat":43.44812,"lng":-73.2985,"zip":"12849","miles_from_dt":23.23},{"city":"Stamford","state_name":"Vermont","lat":42.78796,"lng":-73.07862,"zip":"05352","miles_from_dt":23.68},{"city":"North Granville","state_name":"New York","lat":43.45019,"lng":-73.32767,"zip":"12854","miles_from_dt":23.75},{"city":"Weston","state_name":"Vermont","lat":43.3166,"lng":-72.8067,"zip":"05161","miles_from_dt":23.76},{"city":"Hudson Falls","state_name":"New York","lat":43.34496,"lng":-73.55058,"zip":"12839","miles_from_dt":23.77},{"city":"Pownal","state_name":"Vermont","lat":42.77516,"lng":-73.21273,"zip":"05261","miles_from_dt":23.86},{"city":"West Townshend","state_name":"Vermont","lat":43.15184,"lng":-72.72121,"zip":"05359","miles_from_dt":23.97},{"city":"Schaghticoke","state_name":"New York","lat":42.93713,"lng":-73.60124,"zip":"12154","miles_from_dt":24.23},{"city":"Readsboro","state_name":"Vermont","lat":42.79879,"lng":-72.97187,"zip":"05350","miles_from_dt":24.88},{"city":"South Glens Falls","state_name":"New York","lat":43.28891,"lng":-73.63024,"zip":"12803","miles_from_dt":24.94},{"city":"Stillwater","state_name":"New York","lat":42.99936,"lng":-73.66234,"zip":"12170","miles_from_dt":25.17},{"city":"Middletown Springs","state_name":"Vermont","lat":43.48279,"lng":-73.12325,"zip":"05757","miles_from_dt":25.26},{"city":"Gansevoort","state_name":"New York","lat":43.19533,"lng":-73.68791,"zip":"12831","miles_from_dt":25.52},{"city":"Comstock","state_name":"New York","lat":43.45866,"lng":-73.41332,"zip":"12821","miles_from_dt":25.85},{"city":"East Wallingford","state_name":"Vermont","lat":43.43685,"lng":-72.9045,"zip":"05742","miles_from_dt":26.25},{"city":"Glens Falls","state_name":"New York","lat":43.31097,"lng":-73.64545,"zip":"12801","miles_from_dt":26.34},{"city":"South Newfane","state_name":"Vermont","lat":42.92867,"lng":-72.73728,"zip":"05351","miles_from_dt":26.63},{"city":"Townshend","state_name":"Vermont","lat":43.06501,"lng":-72.66484,"zip":"05353","miles_from_dt":27.01},{"city":"Hampton","state_name":"New York","lat":43.50842,"lng":-73.26651,"zip":"12837","miles_from_dt":27.03},{"city":"Belmont","state_name":"Vermont","lat":43.40262,"lng":-72.81508,"zip":"05730","miles_from_dt":27.27},{"city":"Grafton","state_name":"New York","lat":42.76998,"lng":-73.44672,"zip":"12082","miles_from_dt":27.39},{"city":"Fort Ann","state_name":"New York","lat":43.44917,"lng":-73.51241,"zip":"12827","miles_from_dt":27.82},{"city":"Saratoga Springs","state_name":"New York","lat":43.07537,"lng":-73.7401,"zip":"12866","miles_from_dt":27.83},{"city":"Petersburg","state_name":"New York","lat":42.73735,"lng":-73.37128,"zip":"12138","miles_from_dt":27.94},{"city":"Newfane","state_name":"Vermont","lat":42.99516,"lng":-72.66747,"zip":"05345","miles_from_dt":27.99},{"city":"East Poultney","state_name":"Vermont","lat":43.5271,"lng":-73.2064,"zip":"05741","miles_from_dt":28.08},{"city":"Poultney","state_name":"Vermont","lat":43.52854,"lng":-73.19401,"zip":"05764","miles_from_dt":28.17},{"city":"Melrose","state_name":"New York","lat":42.84368,"lng":-73.60398,"zip":"12121","miles_from_dt":28.25},{"city":"Whitingham","state_name":"Vermont","lat":42.78021,"lng":-72.87935,"zip":"05361","miles_from_dt":28.38},{"city":"Williamsville","state_name":"Vermont","lat":42.94609,"lng":-72.6816,"zip":"05362","miles_from_dt":28.58},{"city":"Queensbury","state_name":"New York","lat":43.3375,"lng":-73.68307,"zip":"12804","miles_from_dt":28.9},{"city":"Cropseyville","state_name":"New York","lat":42.75767,"lng":-73.47847,"zip":"12052","miles_from_dt":28.92},{"city":"Grafton","state_name":"Vermont","lat":43.17867,"lng":-72.62307,"zip":"05146","miles_from_dt":29.1},{"city":"Monroe Bridge","state_name":"Massachusetts","lat":42.72259,"lng":-72.98291,"zip":"01350","miles_from_dt":29.47},{"city":"North Adams","state_name":"Massachusetts","lat":42.69813,"lng":-73.09264,"zip":"01247","miles_from_dt":29.6}],"targetCityZipCode":"05250","targetCityState":"Vermont"},"__N_SSG":true}