{"pageProps":{"stateName":"Vermont","cityName":"lowell","nearbyCities":[{"city":"Albany","state_name":"Vermont","lat":44.74862,"lng":-72.37351,"zip":"05820","miles_from_dt":5.06},{"city":"Westfield","state_name":"Vermont","lat":44.87546,"lng":-72.46172,"zip":"05874","miles_from_dt":5.79},{"city":"Eden Mills","state_name":"Vermont","lat":44.70141,"lng":-72.49275,"zip":"05653","miles_from_dt":6.48},{"city":"Irasburg","state_name":"Vermont","lat":44.79146,"lng":-72.30699,"zip":"05845","miles_from_dt":7.37},{"city":"Eden","state_name":"Vermont","lat":44.72824,"lng":-72.58674,"zip":"05652","miles_from_dt":7.75},{"city":"Montgomery Center","state_name":"Vermont","lat":44.85739,"lng":-72.58942,"zip":"05471","miles_from_dt":7.94},{"city":"Craftsbury Common","state_name":"Vermont","lat":44.68135,"lng":-72.36198,"zip":"05827","miles_from_dt":8.93},{"city":"Troy","state_name":"Vermont","lat":44.91881,"lng":-72.3675,"zip":"05868","miles_from_dt":9.81},{"city":"Craftsbury","state_name":"Vermont","lat":44.6444,"lng":-72.40404,"zip":"05826","miles_from_dt":10.49},{"city":"North Hyde Park","state_name":"Vermont","lat":44.67179,"lng":-72.59897,"zip":"05665","miles_from_dt":10.84},{"city":"Barton","state_name":"Vermont","lat":44.70947,"lng":-72.26753,"zip":"05875","miles_from_dt":10.91},{"city":"Coventry","state_name":"Vermont","lat":44.86019,"lng":-72.25664,"zip":"05825","miles_from_dt":10.92},{"city":"Belvidere Center","state_name":"Vermont","lat":44.76164,"lng":-72.68043,"zip":"05442","miles_from_dt":11.19},{"city":"North Troy","state_name":"Vermont","lat":44.95987,"lng":-72.43833,"zip":"05859","miles_from_dt":11.65},{"city":"Montgomery","state_name":"Vermont","lat":44.90159,"lng":-72.64012,"zip":"05470","miles_from_dt":11.78},{"city":"Newport Center","state_name":"Vermont","lat":44.93381,"lng":-72.3092,"zip":"05857","miles_from_dt":12.2},{"city":"Hyde Park","state_name":"Vermont","lat":44.62461,"lng":-72.56462,"zip":"05655","miles_from_dt":12.7},{"city":"Glover","state_name":"Vermont","lat":44.67342,"lng":-72.21171,"zip":"05839","miles_from_dt":14.57},{"city":"Greensboro","state_name":"Vermont","lat":44.60794,"lng":-72.30232,"zip":"05841","miles_from_dt":14.79},{"city":"Richford","state_name":"Vermont","lat":44.96055,"lng":-72.6457,"zip":"05476","miles_from_dt":14.9},{"city":"Johnson","state_name":"Vermont","lat":44.64898,"lng":-72.68825,"zip":"05656","miles_from_dt":15.06},{"city":"Barton","state_name":"Vermont","lat":44.75555,"lng":-72.15478,"zip":"05822","miles_from_dt":15.06},{"city":"East Berkshire","state_name":"Vermont","lat":44.93615,"lng":-72.70447,"zip":"05447","miles_from_dt":15.73},{"city":"Waterville","state_name":"Vermont","lat":44.71324,"lng":-72.75853,"zip":"05492","miles_from_dt":15.8},{"city":"Newport","state_name":"Vermont","lat":44.92829,"lng":-72.1943,"zip":"05855","miles_from_dt":15.98},{"city":"Bakersfield","state_name":"Vermont","lat":44.7686,"lng":-72.78669,"zip":"05441","miles_from_dt":16.3},{"city":"Orleans","state_name":"Vermont","lat":44.80018,"lng":-72.10353,"zip":"05860","miles_from_dt":17.38},{"city":"Lake Elmore","state_name":"Vermont","lat":44.54436,"lng":-72.52862,"zip":"05657","miles_from_dt":17.44},{"city":"Wolcott","state_name":"Vermont","lat":44.53785,"lng":-72.46838,"zip":"05680","miles_from_dt":17.53},{"city":"Enosburg Falls","state_name":"Vermont","lat":44.89075,"lng":-72.79074,"zip":"05450","miles_from_dt":17.78},{"city":"Greensboro Bend","state_name":"Vermont","lat":44.57966,"lng":-72.24453,"zip":"05842","miles_from_dt":17.99},{"city":"Morrisville","state_name":"Vermont","lat":44.53743,"lng":-72.61724,"zip":"05661","miles_from_dt":19.25},{"city":"Sheffield","state_name":"Vermont","lat":44.63863,"lng":-72.12699,"zip":"05866","miles_from_dt":19.37},{"city":"Jeffersonville","state_name":"Vermont","lat":44.65469,"lng":-72.81897,"zip":"05464","miles_from_dt":20.18},{"city":"Hardwick","state_name":"Vermont","lat":44.50355,"lng":-72.33366,"zip":"05843","miles_from_dt":20.8},{"city":"West Charleston","state_name":"Vermont","lat":44.86059,"lng":-72.03473,"zip":"05872","miles_from_dt":21.28},{"city":"East Hardwick","state_name":"Vermont","lat":44.5196,"lng":-72.25173,"zip":"05836","miles_from_dt":21.33},{"city":"East Fairfield","state_name":"Vermont","lat":44.75374,"lng":-72.8872,"zip":"05448","miles_from_dt":21.33},{"city":"Beebe Plain","state_name":"Vermont","lat":45.00543,"lng":-72.14316,"zip":"05823","miles_from_dt":21.33},{"city":"Derby","state_name":"Vermont","lat":44.95349,"lng":-72.0759,"zip":"05829","miles_from_dt":21.79},{"city":"Sutton","state_name":"Vermont","lat":44.66505,"lng":-72.04366,"zip":"05867","miles_from_dt":22.14},{"city":"Woodbury","state_name":"Vermont","lat":44.45377,"lng":-72.38016,"zip":"05681","miles_from_dt":23.63},{"city":"Cambridge","state_name":"Vermont","lat":44.62628,"lng":-72.88242,"zip":"05444","miles_from_dt":23.87},{"city":"East Charleston","state_name":"Vermont","lat":44.83182,"lng":-71.96965,"zip":"05833","miles_from_dt":24.1},{"city":"Fairfield","state_name":"Vermont","lat":44.80352,"lng":-72.96568,"zip":"05455","miles_from_dt":25.03},{"city":"Stowe","state_name":"Vermont","lat":44.48151,"lng":-72.72174,"zip":"05672","miles_from_dt":25.08},{"city":"Morgan","state_name":"Vermont","lat":44.89499,"lng":-71.96167,"zip":"05853","miles_from_dt":25.35},{"city":"Lyndonville","state_name":"Vermont","lat":44.55297,"lng":-72.05732,"zip":"05851","miles_from_dt":25.67},{"city":"Franklin","state_name":"Vermont","lat":44.97294,"lng":-72.91832,"zip":"05457","miles_from_dt":25.89},{"city":"West Burke","state_name":"Vermont","lat":44.68367,"lng":-71.95193,"zip":"05871","miles_from_dt":25.94},{"city":"Lyndon Center","state_name":"Vermont","lat":44.55955,"lng":-72.03417,"zip":"05850","miles_from_dt":26.28},{"city":"Derby Line","state_name":"Vermont","lat":44.97717,"lng":-71.98278,"zip":"05830","miles_from_dt":26.56},{"city":"Sheldon Springs","state_name":"Vermont","lat":44.90405,"lng":-72.97567,"zip":"05485","miles_from_dt":26.64},{"city":"Sheldon","state_name":"Vermont","lat":44.88322,"lng":-72.98484,"zip":"05483","miles_from_dt":26.7},{"city":"East Calais","state_name":"Vermont","lat":44.4002,"lng":-72.44235,"zip":"05650","miles_from_dt":27.04},{"city":"Moscow","state_name":"Vermont","lat":44.44194,"lng":-72.71724,"zip":"05662","miles_from_dt":27.35},{"city":"Worcester","state_name":"Vermont","lat":44.40354,"lng":-72.57219,"zip":"05682","miles_from_dt":27.4},{"city":"Underhill","state_name":"Vermont","lat":44.5458,"lng":-72.89471,"zip":"05489","miles_from_dt":27.46},{"city":"Cabot","state_name":"Vermont","lat":44.41001,"lng":-72.29126,"zip":"05647","miles_from_dt":27.59},{"city":"Calais","state_name":"Vermont","lat":44.38372,"lng":-72.49355,"zip":"05648","miles_from_dt":28.23},{"city":"Underhill Center","state_name":"Vermont","lat":44.52797,"lng":-72.89695,"zip":"05490","miles_from_dt":28.32},{"city":"Fairfax","state_name":"Vermont","lat":44.7056,"lng":-73.02294,"zip":"05454","miles_from_dt":28.49},{"city":"Lyndon","state_name":"Vermont","lat":44.53289,"lng":-72.00029,"zip":"05849","miles_from_dt":28.73},{"city":"West Danville","state_name":"Vermont","lat":44.40619,"lng":-72.21841,"zip":"05873","miles_from_dt":29.1},{"city":"Danville","state_name":"Vermont","lat":44.43748,"lng":-72.12334,"zip":"05828","miles_from_dt":29.47},{"city":"Highgate Center","state_name":"Vermont","lat":44.95568,"lng":-73.01861,"zip":"05459","miles_from_dt":29.82}],"targetCityZipCode":"05847","targetCityState":"Vermont"},"__N_SSG":true}