{"pageProps":{"stateName":"Vermont","cityName":"morrisville","nearbyCities":[{"city":"Lake Elmore","state_name":"Vermont","lat":44.54436,"lng":-72.52862,"zip":"05657","miles_from_dt":4.4},{"city":"Stowe","state_name":"Vermont","lat":44.48151,"lng":-72.72174,"zip":"05672","miles_from_dt":6.45},{"city":"Hyde Park","state_name":"Vermont","lat":44.62461,"lng":-72.56462,"zip":"05655","miles_from_dt":6.56},{"city":"Wolcott","state_name":"Vermont","lat":44.53785,"lng":-72.46838,"zip":"05680","miles_from_dt":7.35},{"city":"Moscow","state_name":"Vermont","lat":44.44194,"lng":-72.71724,"zip":"05662","miles_from_dt":8.24},{"city":"Johnson","state_name":"Vermont","lat":44.64898,"lng":-72.68825,"zip":"05656","miles_from_dt":8.46},{"city":"North Hyde Park","state_name":"Vermont","lat":44.67179,"lng":-72.59897,"zip":"05665","miles_from_dt":9.32},{"city":"Worcester","state_name":"Vermont","lat":44.40354,"lng":-72.57219,"zip":"05682","miles_from_dt":9.51},{"city":"Waterbury Center","state_name":"Vermont","lat":44.39194,"lng":-72.70841,"zip":"05677","miles_from_dt":11.01},{"city":"Calais","state_name":"Vermont","lat":44.38372,"lng":-72.49355,"zip":"05648","miles_from_dt":12.25},{"city":"Jeffersonville","state_name":"Vermont","lat":44.65469,"lng":-72.81897,"zip":"05464","miles_from_dt":12.83},{"city":"East Calais","state_name":"Vermont","lat":44.4002,"lng":-72.44235,"zip":"05650","miles_from_dt":12.83},{"city":"Craftsbury","state_name":"Vermont","lat":44.6444,"lng":-72.40404,"zip":"05826","miles_from_dt":12.85},{"city":"Eden Mills","state_name":"Vermont","lat":44.70141,"lng":-72.49275,"zip":"05653","miles_from_dt":12.88},{"city":"Woodbury","state_name":"Vermont","lat":44.45377,"lng":-72.38016,"zip":"05681","miles_from_dt":13.06},{"city":"Eden","state_name":"Vermont","lat":44.72824,"lng":-72.58674,"zip":"05652","miles_from_dt":13.26},{"city":"Underhill","state_name":"Vermont","lat":44.5458,"lng":-72.89471,"zip":"05489","miles_from_dt":13.71},{"city":"Underhill Center","state_name":"Vermont","lat":44.52797,"lng":-72.89695,"zip":"05490","miles_from_dt":13.83},{"city":"Waterville","state_name":"Vermont","lat":44.71324,"lng":-72.75853,"zip":"05492","miles_from_dt":14},{"city":"Hardwick","state_name":"Vermont","lat":44.50355,"lng":-72.33366,"zip":"05843","miles_from_dt":14.2},{"city":"Adamant","state_name":"Vermont","lat":44.34734,"lng":-72.49675,"zip":"05640","miles_from_dt":14.42},{"city":"Cambridge","state_name":"Vermont","lat":44.62628,"lng":-72.88242,"zip":"05444","miles_from_dt":14.45},{"city":"Waterbury","state_name":"Vermont","lat":44.34129,"lng":-72.75854,"zip":"05671","miles_from_dt":15.24},{"city":"Belvidere Center","state_name":"Vermont","lat":44.76164,"lng":-72.68043,"zip":"05442","miles_from_dt":15.79},{"city":"Craftsbury Common","state_name":"Vermont","lat":44.68135,"lng":-72.36198,"zip":"05827","miles_from_dt":16.04},{"city":"Waterbury","state_name":"Vermont","lat":44.34825,"lng":-72.80984,"zip":"05676","miles_from_dt":16.17},{"city":"North Montpelier","state_name":"Vermont","lat":44.34125,"lng":-72.43873,"zip":"05666","miles_from_dt":16.17},{"city":"Greensboro","state_name":"Vermont","lat":44.60794,"lng":-72.30232,"zip":"05841","miles_from_dt":16.29},{"city":"Jericho","state_name":"Vermont","lat":44.45882,"lng":-72.93058,"zip":"05465","miles_from_dt":16.41},{"city":"Montpelier","state_name":"Vermont","lat":44.28742,"lng":-72.60006,"zip":"05609","miles_from_dt":17.28},{"city":"Montpelier","state_name":"Vermont","lat":44.2848,"lng":-72.61498,"zip":"05602","miles_from_dt":17.44},{"city":"Marshfield","state_name":"Vermont","lat":44.35921,"lng":-72.35399,"zip":"05658","miles_from_dt":17.92},{"city":"Bakersfield","state_name":"Vermont","lat":44.7686,"lng":-72.78669,"zip":"05441","miles_from_dt":18.02},{"city":"East Hardwick","state_name":"Vermont","lat":44.5196,"lng":-72.25173,"zip":"05836","miles_from_dt":18.1},{"city":"Cabot","state_name":"Vermont","lat":44.41001,"lng":-72.29126,"zip":"05647","miles_from_dt":18.36},{"city":"Greensboro Bend","state_name":"Vermont","lat":44.57966,"lng":-72.24453,"zip":"05842","miles_from_dt":18.63},{"city":"Albany","state_name":"Vermont","lat":44.74862,"lng":-72.37351,"zip":"05820","miles_from_dt":18.89},{"city":"East Montpelier","state_name":"Vermont","lat":44.27777,"lng":-72.49246,"zip":"05651","miles_from_dt":18.96},{"city":"Montpelier","state_name":"Vermont","lat":44.26268,"lng":-72.58391,"zip":"05620","miles_from_dt":19.04},{"city":"Montpelier","state_name":"Vermont","lat":44.26213,"lng":-72.58436,"zip":"05603","miles_from_dt":19.08},{"city":"Lowell","state_name":"Vermont","lat":44.79165,"lng":-72.45679,"zip":"05847","miles_from_dt":19.25},{"city":"Montpelier","state_name":"Vermont","lat":44.25908,"lng":-72.58055,"zip":"05633","miles_from_dt":19.3},{"city":"Montpelier","state_name":"Vermont","lat":44.25706,"lng":-72.58779,"zip":"05604","miles_from_dt":19.41},{"city":"East Fairfield","state_name":"Vermont","lat":44.75374,"lng":-72.8872,"zip":"05448","miles_from_dt":20},{"city":"Westford","state_name":"Vermont","lat":44.60472,"lng":-73.01523,"zip":"05494","miles_from_dt":20.19},{"city":"Plainfield","state_name":"Vermont","lat":44.28122,"lng":-72.3986,"zip":"05667","miles_from_dt":20.74},{"city":"Barton","state_name":"Vermont","lat":44.70947,"lng":-72.26753,"zip":"05875","miles_from_dt":20.94},{"city":"Richmond","state_name":"Vermont","lat":44.3936,"lng":-72.99152,"zip":"05477","miles_from_dt":21},{"city":"Moretown","state_name":"Vermont","lat":44.24733,"lng":-72.76808,"zip":"05660","miles_from_dt":21.38},{"city":"West Danville","state_name":"Vermont","lat":44.40619,"lng":-72.21841,"zip":"05873","miles_from_dt":21.7},{"city":"Glover","state_name":"Vermont","lat":44.67342,"lng":-72.21171,"zip":"05839","miles_from_dt":22.1},{"city":"Essex Junction","state_name":"Vermont","lat":44.5238,"lng":-73.06479,"zip":"05452","miles_from_dt":22.13},{"city":"Montgomery Center","state_name":"Vermont","lat":44.85739,"lng":-72.58942,"zip":"05471","miles_from_dt":22.14},{"city":"Essex","state_name":"Vermont","lat":44.5075,"lng":-73.06948,"zip":"05451","miles_from_dt":22.44},{"city":"Fairfax","state_name":"Vermont","lat":44.7056,"lng":-73.02294,"zip":"05454","miles_from_dt":23.13},{"city":"Essex Junction","state_name":"Vermont","lat":44.4929,"lng":-73.08159,"zip":"05453","miles_from_dt":23.15},{"city":"Montpelier","state_name":"Vermont","lat":44.20424,"lng":-72.5551,"zip":"05601","miles_from_dt":23.21},{"city":"Irasburg","state_name":"Vermont","lat":44.79146,"lng":-72.30699,"zip":"05845","miles_from_dt":23.27},{"city":"Huntington","state_name":"Vermont","lat":44.29909,"lng":-72.95228,"zip":"05462","miles_from_dt":23.36},{"city":"Peacham","state_name":"Vermont","lat":44.31971,"lng":-72.23133,"zip":"05862","miles_from_dt":24.3},{"city":"Westfield","state_name":"Vermont","lat":44.87546,"lng":-72.46172,"zip":"05874","miles_from_dt":24.57},{"city":"Williston","state_name":"Vermont","lat":44.42901,"lng":-73.09197,"zip":"05495","miles_from_dt":24.63},{"city":"Fairfield","state_name":"Vermont","lat":44.80352,"lng":-72.96568,"zip":"05455","miles_from_dt":25.15},{"city":"Montgomery","state_name":"Vermont","lat":44.90159,"lng":-72.64012,"zip":"05470","miles_from_dt":25.17},{"city":"Sheffield","state_name":"Vermont","lat":44.63863,"lng":-72.12699,"zip":"05866","miles_from_dt":25.18},{"city":"Burlington","state_name":"Vermont","lat":44.5057,"lng":-73.12665,"zip":"05402","miles_from_dt":25.26},{"city":"Danville","state_name":"Vermont","lat":44.43748,"lng":-72.12334,"zip":"05828","miles_from_dt":25.37},{"city":"South Barre","state_name":"Vermont","lat":44.17799,"lng":-72.50558,"zip":"05670","miles_from_dt":25.43},{"city":"Barre","state_name":"Vermont","lat":44.18602,"lng":-72.45108,"zip":"05641","miles_from_dt":25.62},{"city":"Northfield Falls","state_name":"Vermont","lat":44.16718,"lng":-72.65316,"zip":"05664","miles_from_dt":25.63},{"city":"Enosburg Falls","state_name":"Vermont","lat":44.89075,"lng":-72.79074,"zip":"05450","miles_from_dt":25.85},{"city":"Colchester","state_name":"Vermont","lat":44.54505,"lng":-73.14596,"zip":"05449","miles_from_dt":26.11},{"city":"Waitsfield","state_name":"Vermont","lat":44.19371,"lng":-72.84356,"zip":"05673","miles_from_dt":26.25},{"city":"Northfield","state_name":"Vermont","lat":44.14946,"lng":-72.67239,"zip":"05663","miles_from_dt":26.93},{"city":"Colchester","state_name":"Vermont","lat":44.49573,"lng":-73.16524,"zip":"05439","miles_from_dt":27.23},{"city":"Websterville","state_name":"Vermont","lat":44.15577,"lng":-72.47445,"zip":"05678","miles_from_dt":27.29},{"city":"Barton","state_name":"Vermont","lat":44.75555,"lng":-72.15478,"zip":"05822","miles_from_dt":27.32},{"city":"Groton","state_name":"Vermont","lat":44.23864,"lng":-72.25024,"zip":"05046","miles_from_dt":27.49},{"city":"Milton","state_name":"Vermont","lat":44.65378,"lng":-73.15343,"zip":"05468","miles_from_dt":27.65},{"city":"Lyndonville","state_name":"Vermont","lat":44.55297,"lng":-72.05732,"zip":"05851","miles_from_dt":27.67},{"city":"Hinesburg","state_name":"Vermont","lat":44.32094,"lng":-73.09176,"zip":"05461","miles_from_dt":27.83},{"city":"East Berkshire","state_name":"Vermont","lat":44.93615,"lng":-72.70447,"zip":"05447","miles_from_dt":27.86},{"city":"South Burlington","state_name":"Vermont","lat":44.447,"lng":-73.17229,"zip":"05403","miles_from_dt":28.13},{"city":"Winooski","state_name":"Vermont","lat":44.49483,"lng":-73.18467,"zip":"05404","miles_from_dt":28.19},{"city":"Graniteville","state_name":"Vermont","lat":44.14053,"lng":-72.48092,"zip":"05654","miles_from_dt":28.22},{"city":"South Burlington","state_name":"Vermont","lat":44.44635,"lng":-73.17568,"zip":"05407","miles_from_dt":28.31},{"city":"Coventry","state_name":"Vermont","lat":44.86019,"lng":-72.25664,"zip":"05825","miles_from_dt":28.5},{"city":"Starksboro","state_name":"Vermont","lat":44.23082,"lng":-73.01096,"zip":"05487","miles_from_dt":28.78},{"city":"Lyndon Center","state_name":"Vermont","lat":44.55955,"lng":-72.03417,"zip":"05850","miles_from_dt":28.83},{"city":"Burlington","state_name":"Vermont","lat":44.47475,"lng":-73.19649,"zip":"05405","miles_from_dt":28.95},{"city":"Troy","state_name":"Vermont","lat":44.91881,"lng":-72.3675,"zip":"05868","miles_from_dt":29.06},{"city":"Jonesville","state_name":"Vermont","lat":44.54068,"lng":-73.20958,"zip":"05466","miles_from_dt":29.25},{"city":"Richford","state_name":"Vermont","lat":44.96055,"lng":-72.6457,"zip":"05476","miles_from_dt":29.25},{"city":"Barnet","state_name":"Vermont","lat":44.3175,"lng":-72.10866,"zip":"05821","miles_from_dt":29.39},{"city":"Colchester","state_name":"Vermont","lat":44.5541,"lng":-73.21647,"zip":"05446","miles_from_dt":29.61},{"city":"Sutton","state_name":"Vermont","lat":44.66505,"lng":-72.04366,"zip":"05867","miles_from_dt":29.64},{"city":"Essex Junction","state_name":"Vermont","lat":44.81206,"lng":-73.08276,"zip":"05479","miles_from_dt":29.76},{"city":"Sheldon","state_name":"Vermont","lat":44.88322,"lng":-72.98484,"zip":"05483","miles_from_dt":29.96},{"city":"Williamstown","state_name":"Vermont","lat":44.10677,"lng":-72.54052,"zip":"05679","miles_from_dt":29.98},{"city":"Burlington","state_name":"Vermont","lat":44.47484,"lng":-73.21758,"zip":"05401","miles_from_dt":29.98}],"targetCityZipCode":"05661","targetCityState":"Vermont"},"__N_SSG":true}