{"pageProps":{"stateName":"New-hampshire","cityName":"amherst","nearbyCities":[{"city":"Mont Vernon","state_name":"New Hampshire","lat":42.90265,"lng":-71.6861,"zip":"03057","miles_from_dt":4.59},{"city":"Merrimack","state_name":"New Hampshire","lat":42.85471,"lng":-71.51878,"zip":"03054","miles_from_dt":4.6},{"city":"Milford","state_name":"New Hampshire","lat":42.81783,"lng":-71.67361,"zip":"03055","miles_from_dt":4.98},{"city":"Bedford","state_name":"New Hampshire","lat":42.94065,"lng":-71.53023,"zip":"03110","miles_from_dt":6.21},{"city":"Nashua","state_name":"New Hampshire","lat":42.7795,"lng":-71.51939,"zip":"03063","miles_from_dt":7.7},{"city":"Litchfield","state_name":"New Hampshire","lat":42.84302,"lng":-71.455,"zip":"03052","miles_from_dt":7.94},{"city":"New Boston","state_name":"New Hampshire","lat":42.97702,"lng":-71.68664,"zip":"03070","miles_from_dt":8.39},{"city":"Hollis","state_name":"New Hampshire","lat":42.7494,"lng":-71.58338,"zip":"03049","miles_from_dt":8.45},{"city":"Wilton","state_name":"New Hampshire","lat":42.82741,"lng":-71.76967,"zip":"03086","miles_from_dt":8.79},{"city":"Lyndeborough","state_name":"New Hampshire","lat":42.90197,"lng":-71.77545,"zip":"03082","miles_from_dt":8.83},{"city":"Manchester","state_name":"New Hampshire","lat":42.93782,"lng":-71.45382,"zip":"03111","miles_from_dt":9.05},{"city":"Brookline","state_name":"New Hampshire","lat":42.74643,"lng":-71.67054,"zip":"03033","miles_from_dt":9.16},{"city":"Nashua","state_name":"New Hampshire","lat":42.77886,"lng":-71.47466,"zip":"03064","miles_from_dt":9.23},{"city":"Manchester","state_name":"New Hampshire","lat":42.94621,"lng":-71.43905,"zip":"03108","miles_from_dt":9.99},{"city":"Manchester","state_name":"New Hampshire","lat":42.95536,"lng":-71.44463,"zip":"03103","miles_from_dt":10.1},{"city":"Nashua","state_name":"New Hampshire","lat":42.74654,"lng":-71.493,"zip":"03061","miles_from_dt":10.33},{"city":"Goffstown","state_name":"New Hampshire","lat":43.01994,"lng":-71.57035,"zip":"03045","miles_from_dt":10.48},{"city":"Manchester","state_name":"New Hampshire","lat":42.98881,"lng":-71.4659,"zip":"03101","miles_from_dt":10.85},{"city":"Manchester","state_name":"New Hampshire","lat":43.00797,"lng":-71.49134,"zip":"03102","miles_from_dt":11.15},{"city":"Londonderry","state_name":"New Hampshire","lat":42.87927,"lng":-71.38702,"zip":"03053","miles_from_dt":11.18},{"city":"Nashua","state_name":"New Hampshire","lat":42.74135,"lng":-71.45936,"zip":"03060","miles_from_dt":11.65},{"city":"Greenville","state_name":"New Hampshire","lat":42.74668,"lng":-71.76268,"zip":"03048","miles_from_dt":11.66},{"city":"Nashua","state_name":"New Hampshire","lat":42.72212,"lng":-71.49556,"zip":"03062","miles_from_dt":11.7},{"city":"Manchester","state_name":"New Hampshire","lat":42.96766,"lng":-71.41748,"zip":"03105","miles_from_dt":11.71},{"city":"Manchester","state_name":"New Hampshire","lat":42.96594,"lng":-71.40167,"zip":"03109","miles_from_dt":12.32},{"city":"Hudson","state_name":"New Hampshire","lat":42.76394,"lng":-71.40716,"zip":"03051","miles_from_dt":12.53},{"city":"Manchester","state_name":"New Hampshire","lat":43.00926,"lng":-71.4411,"zip":"03104","miles_from_dt":12.74},{"city":"Temple","state_name":"New Hampshire","lat":42.82856,"lng":-71.85495,"zip":"03084","miles_from_dt":12.93},{"city":"Francestown","state_name":"New Hampshire","lat":42.99581,"lng":-71.81514,"zip":"03043","miles_from_dt":13.65},{"city":"Pepperell","state_name":"Massachusetts","lat":42.67126,"lng":-71.60429,"zip":"01463","miles_from_dt":13.76},{"city":"Greenfield","state_name":"New Hampshire","lat":42.94029,"lng":-71.87053,"zip":"03047","miles_from_dt":14.22},{"city":"Dunstable","state_name":"Massachusetts","lat":42.67643,"lng":-71.50052,"zip":"01827","miles_from_dt":14.45},{"city":"Townsend","state_name":"Massachusetts","lat":42.66514,"lng":-71.69161,"zip":"01469","miles_from_dt":14.82},{"city":"West Townsend","state_name":"Massachusetts","lat":42.67088,"lng":-71.7508,"zip":"01474","miles_from_dt":15.61},{"city":"Weare","state_name":"New Hampshire","lat":43.08126,"lng":-71.72189,"zip":"03281","miles_from_dt":15.67},{"city":"Auburn","state_name":"New Hampshire","lat":42.99063,"lng":-71.34383,"zip":"03032","miles_from_dt":15.71},{"city":"East Derry","state_name":"New Hampshire","lat":42.88964,"lng":-71.29713,"zip":"03041","miles_from_dt":15.78},{"city":"Dunbarton","state_name":"New Hampshire","lat":43.10178,"lng":-71.60548,"zip":"03046","miles_from_dt":15.96},{"city":"New Ipswich","state_name":"New Hampshire","lat":42.74892,"lng":-71.8747,"zip":"03071","miles_from_dt":16},{"city":"Windham","state_name":"New Hampshire","lat":42.80758,"lng":-71.29945,"zip":"03087","miles_from_dt":16.21},{"city":"Hooksett","state_name":"New Hampshire","lat":43.07097,"lng":-71.43651,"zip":"03106","miles_from_dt":16.31},{"city":"Derry","state_name":"New Hampshire","lat":42.88867,"lng":-71.27932,"zip":"03038","miles_from_dt":16.67},{"city":"Tyngsboro","state_name":"Massachusetts","lat":42.66626,"lng":-71.42911,"zip":"01879","miles_from_dt":16.75},{"city":"Peterborough","state_name":"New Hampshire","lat":42.86906,"lng":-71.93797,"zip":"03458","miles_from_dt":16.81},{"city":"Pelham","state_name":"New Hampshire","lat":42.73354,"lng":-71.324,"zip":"03076","miles_from_dt":17.21},{"city":"Ashby","state_name":"Massachusetts","lat":42.67652,"lng":-71.82322,"zip":"01431","miles_from_dt":17.33},{"city":"Groton","state_name":"Massachusetts","lat":42.61368,"lng":-71.56139,"zip":"01450","miles_from_dt":17.88},{"city":"Bennington","state_name":"New Hampshire","lat":43.01268,"lng":-71.90781,"zip":"03442","miles_from_dt":18.14},{"city":"Groton","state_name":"Massachusetts","lat":42.60785,"lng":-71.57233,"zip":"01471","miles_from_dt":18.22},{"city":"West Groton","state_name":"Massachusetts","lat":42.60663,"lng":-71.62914,"zip":"01472","miles_from_dt":18.25},{"city":"Bow","state_name":"New Hampshire","lat":43.13078,"lng":-71.53066,"zip":"03304","miles_from_dt":18.37},{"city":"West Peterborough","state_name":"New Hampshire","lat":42.87174,"lng":-71.96971,"zip":"03468","miles_from_dt":18.42},{"city":"Chester","state_name":"New Hampshire","lat":42.96719,"lng":-71.25083,"zip":"03036","miles_from_dt":19.25},{"city":"North Salem","state_name":"New Hampshire","lat":42.83502,"lng":-71.22425,"zip":"03073","miles_from_dt":19.58},{"city":"North Chelmsford","state_name":"Massachusetts","lat":42.63274,"lng":-71.39132,"zip":"01863","miles_from_dt":19.74},{"city":"Candia","state_name":"New Hampshire","lat":43.06269,"lng":-71.31106,"zip":"03034","miles_from_dt":20.02},{"city":"Lowell","state_name":"Massachusetts","lat":42.64939,"lng":-71.34827,"zip":"01854","miles_from_dt":20.15},{"city":"Lunenburg","state_name":"Massachusetts","lat":42.58994,"lng":-71.72036,"zip":"01462","miles_from_dt":20.21},{"city":"Dracut","state_name":"Massachusetts","lat":42.68323,"lng":-71.30063,"zip":"01826","miles_from_dt":20.24},{"city":"Salem","state_name":"New Hampshire","lat":42.79023,"lng":-71.22024,"zip":"03079","miles_from_dt":20.41},{"city":"Shirley","state_name":"Massachusetts","lat":42.57411,"lng":-71.6475,"zip":"01464","miles_from_dt":20.57},{"city":"Lowell","state_name":"Massachusetts","lat":42.65859,"lng":-71.30522,"zip":"01853","miles_from_dt":21.2},{"city":"Ayer","state_name":"Massachusetts","lat":42.56351,"lng":-71.57059,"zip":"01432","miles_from_dt":21.27},{"city":"Westford","state_name":"Massachusetts","lat":42.58642,"lng":-71.44008,"zip":"01886","miles_from_dt":21.37},{"city":"Hancock","state_name":"New Hampshire","lat":42.98222,"lng":-72.00037,"zip":"03449","miles_from_dt":21.4},{"city":"Lowell","state_name":"Massachusetts","lat":42.65569,"lng":-71.30292,"zip":"01850","miles_from_dt":21.42},{"city":"Lowell","state_name":"Massachusetts","lat":42.62915,"lng":-71.33674,"zip":"01851","miles_from_dt":21.6},{"city":"Ashburnham","state_name":"Massachusetts","lat":42.66069,"lng":-71.9232,"zip":"01430","miles_from_dt":21.65},{"city":"Hampstead","state_name":"New Hampshire","lat":42.88148,"lng":-71.17856,"zip":"03841","miles_from_dt":21.76},{"city":"East Candia","state_name":"New Hampshire","lat":43.04548,"lng":-71.24706,"zip":"03040","miles_from_dt":21.88},{"city":"Sandown","state_name":"New Hampshire","lat":42.93321,"lng":-71.1833,"zip":"03873","miles_from_dt":21.92},{"city":"Rindge","state_name":"New Hampshire","lat":42.75234,"lng":-72.01071,"zip":"03461","miles_from_dt":22.09},{"city":"Suncook","state_name":"New Hampshire","lat":43.15999,"lng":-71.41794,"zip":"03275","miles_from_dt":22.15},{"city":"Fitchburg","state_name":"Massachusetts","lat":42.58559,"lng":-71.81693,"zip":"01420","miles_from_dt":22.39},{"city":"Antrim","state_name":"New Hampshire","lat":43.06023,"lng":-71.97446,"zip":"03440","miles_from_dt":22.78},{"city":"Atkinson","state_name":"New Hampshire","lat":42.83693,"lng":-71.16042,"zip":"03811","miles_from_dt":22.79},{"city":"Lowell","state_name":"Massachusetts","lat":42.63231,"lng":-71.29538,"zip":"01852","miles_from_dt":22.84},{"city":"Contoocook","state_name":"New Hampshire","lat":43.19792,"lng":-71.69677,"zip":"03229","miles_from_dt":23.05},{"city":"Chelmsford","state_name":"Massachusetts","lat":42.59156,"lng":-71.35553,"zip":"01824","miles_from_dt":23.12},{"city":"Jaffrey","state_name":"New Hampshire","lat":42.82922,"lng":-72.05962,"zip":"03452","miles_from_dt":23.17},{"city":"Methuen","state_name":"Massachusetts","lat":42.73426,"lng":-71.18858,"zip":"01844","miles_from_dt":23.25},{"city":"Hillsborough","state_name":"New Hampshire","lat":43.11822,"lng":-71.9192,"zip":"03244","miles_from_dt":23.3},{"city":"Devens","state_name":"Massachusetts","lat":42.53149,"lng":-71.61663,"zip":"01434","miles_from_dt":23.41},{"city":"Concord","state_name":"New Hampshire","lat":43.20612,"lng":-71.53906,"zip":"03305","miles_from_dt":23.42},{"city":"Raymond","state_name":"New Hampshire","lat":43.03219,"lng":-71.19945,"zip":"03077","miles_from_dt":23.48},{"city":"Henniker","state_name":"New Hampshire","lat":43.17365,"lng":-71.8224,"zip":"03242","miles_from_dt":23.6},{"city":"Dublin","state_name":"New Hampshire","lat":42.89403,"lng":-72.07178,"zip":"03444","miles_from_dt":23.66},{"city":"Littleton","state_name":"Massachusetts","lat":42.53503,"lng":-71.4891,"zip":"01460","miles_from_dt":23.92},{"city":"East Hampstead","state_name":"New Hampshire","lat":42.88878,"lng":-71.12881,"zip":"03826","miles_from_dt":24.3},{"city":"Concord","state_name":"New Hampshire","lat":43.22423,"lng":-71.54342,"zip":"03301","miles_from_dt":24.62},{"city":"Haverhill","state_name":"Massachusetts","lat":42.79099,"lng":-71.13133,"zip":"01832","miles_from_dt":24.77},{"city":"Danville","state_name":"New Hampshire","lat":42.93012,"lng":-71.12197,"zip":"03819","miles_from_dt":24.95},{"city":"Lawrence","state_name":"Massachusetts","lat":42.71077,"lng":-71.16494,"zip":"01841","miles_from_dt":25.03},{"city":"Harrisville","state_name":"New Hampshire","lat":42.94157,"lng":-72.09107,"zip":"03450","miles_from_dt":25.06},{"city":"Concord","state_name":"New Hampshire","lat":43.23387,"lng":-71.55967,"zip":"03302","miles_from_dt":25.19},{"city":"Lawrence","state_name":"Massachusetts","lat":42.70695,"lng":-71.16014,"zip":"01840","miles_from_dt":25.36},{"city":"Lawrence","state_name":"Massachusetts","lat":42.70548,"lng":-71.15997,"zip":"01842","miles_from_dt":25.42},{"city":"Leominster","state_name":"Massachusetts","lat":42.51961,"lng":-71.76583,"zip":"01453","miles_from_dt":25.54},{"city":"Harvard","state_name":"Massachusetts","lat":42.50005,"lng":-71.57754,"zip":"01451","miles_from_dt":25.62},{"city":"Acton","state_name":"Massachusetts","lat":42.52165,"lng":-71.42983,"zip":"01718","miles_from_dt":25.71},{"city":"Fremont","state_name":"New Hampshire","lat":42.98899,"lng":-71.12494,"zip":"03044","miles_from_dt":25.77},{"city":"Deerfield","state_name":"New Hampshire","lat":43.1395,"lng":-71.2535,"zip":"03037","miles_from_dt":25.79},{"city":"Lawrence","state_name":"Massachusetts","lat":42.68985,"lng":-71.16095,"zip":"01843","miles_from_dt":25.88},{"city":"North Billerica","state_name":"Massachusetts","lat":42.57427,"lng":-71.29437,"zip":"01862","miles_from_dt":25.91},{"city":"Plaistow","state_name":"New Hampshire","lat":42.84032,"lng":-71.09603,"zip":"03865","miles_from_dt":26.03},{"city":"Andover","state_name":"Massachusetts","lat":42.65227,"lng":-71.1835,"zip":"05501","miles_from_dt":26.28},{"city":"Tewksbury","state_name":"Massachusetts","lat":42.61206,"lng":-71.22733,"zip":"01876","miles_from_dt":26.29},{"city":"Andover","state_name":"Massachusetts","lat":42.65037,"lng":-71.18456,"zip":"01899","miles_from_dt":26.31},{"city":"Andover","state_name":"Massachusetts","lat":42.64859,"lng":-71.18254,"zip":"01812","miles_from_dt":26.47},{"city":"Winchendon","state_name":"Massachusetts","lat":42.66675,"lng":-72.04902,"zip":"01475","miles_from_dt":26.53},{"city":"Westminster","state_name":"Massachusetts","lat":42.55122,"lng":-71.90266,"zip":"01473","miles_from_dt":26.7},{"city":"Still River","state_name":"Massachusetts","lat":42.48365,"lng":-71.62161,"zip":"01467","miles_from_dt":26.72},{"city":"Boxborough","state_name":"Massachusetts","lat":42.48837,"lng":-71.51779,"zip":"01719","miles_from_dt":26.77},{"city":"Carlisle","state_name":"Massachusetts","lat":42.53001,"lng":-71.35128,"zip":"01741","miles_from_dt":26.87},{"city":"Lancaster","state_name":"Massachusetts","lat":42.48176,"lng":-71.68079,"zip":"01523","miles_from_dt":27.1},{"city":"Haverhill","state_name":"Massachusetts","lat":42.78576,"lng":-71.08467,"zip":"01831","miles_from_dt":27.17},{"city":"Andover","state_name":"Massachusetts","lat":42.64669,"lng":-71.16517,"zip":"01810","miles_from_dt":27.27},{"city":"Epsom","state_name":"New Hampshire","lat":43.21484,"lng":-71.33914,"zip":"03234","miles_from_dt":27.36},{"city":"Gardner","state_name":"Massachusetts","lat":42.58797,"lng":-71.98649,"zip":"01440","miles_from_dt":27.45},{"city":"Newton Junction","state_name":"New Hampshire","lat":42.86721,"lng":-71.06599,"zip":"03859","miles_from_dt":27.46},{"city":"Kingston","state_name":"New Hampshire","lat":42.91562,"lng":-71.06647,"zip":"03848","miles_from_dt":27.6},{"city":"Haverhill","state_name":"Massachusetts","lat":42.75292,"lng":-71.08602,"zip":"01835","miles_from_dt":27.69},{"city":"Acton","state_name":"Massachusetts","lat":42.48397,"lng":-71.43809,"zip":"01720","miles_from_dt":28.03},{"city":"Nelson","state_name":"New Hampshire","lat":43.00282,"lng":-72.12933,"zip":"03457","miles_from_dt":28.03},{"city":"Westminster","state_name":"Massachusetts","lat":42.57362,"lng":-71.99464,"zip":"01441","miles_from_dt":28.45},{"city":"Fitzwilliam","state_name":"New Hampshire","lat":42.7592,"lng":-72.14794,"zip":"03447","miles_from_dt":28.55},{"city":"Billerica","state_name":"Massachusetts","lat":42.54999,"lng":-71.25206,"zip":"01821","miles_from_dt":28.56},{"city":"Haverhill","state_name":"Massachusetts","lat":42.7959,"lng":-71.05323,"zip":"01830","miles_from_dt":28.59},{"city":"Newton","state_name":"New Hampshire","lat":42.86839,"lng":-71.04357,"zip":"03858","miles_from_dt":28.6},{"city":"Chichester","state_name":"New Hampshire","lat":43.25744,"lng":-71.39956,"zip":"03258","miles_from_dt":28.69},{"city":"Billerica","state_name":"Massachusetts","lat":42.54127,"lng":-71.26288,"zip":"01822","miles_from_dt":28.69},{"city":"Nutting Lake","state_name":"Massachusetts","lat":42.53471,"lng":-71.26916,"zip":"01865","miles_from_dt":28.86},{"city":"Marlborough","state_name":"New Hampshire","lat":42.89816,"lng":-72.18308,"zip":"03455","miles_from_dt":29.31},{"city":"Stoddard","state_name":"New Hampshire","lat":43.08256,"lng":-72.11085,"zip":"03464","miles_from_dt":29.44},{"city":"South Lancaster","state_name":"Massachusetts","lat":42.44581,"lng":-71.68845,"zip":"01561","miles_from_dt":29.61},{"city":"Epping","state_name":"New Hampshire","lat":43.05009,"lng":-71.07467,"zip":"03042","miles_from_dt":29.69},{"city":"Concord","state_name":"New Hampshire","lat":43.29819,"lng":-71.67186,"zip":"03303","miles_from_dt":29.7},{"city":"Troy","state_name":"New Hampshire","lat":42.82677,"lng":-72.18988,"zip":"03465","miles_from_dt":29.77},{"city":"North Andover","state_name":"Massachusetts","lat":42.67132,"lng":-71.08669,"zip":"01845","miles_from_dt":29.81},{"city":"Bolton","state_name":"Massachusetts","lat":42.43616,"lng":-71.60728,"zip":"01740","miles_from_dt":29.98}],"targetCityZipCode":"03031","targetCityState":"New Hampshire"},"__N_SSG":true}