{"pageProps":{"stateName":"New-hampshire","cityName":"georges-mills","nearbyCities":[{"city":"Sunapee","state_name":"New Hampshire","lat":43.38962,"lng":-72.09149,"zip":"03782","miles_from_dt":3.75},{"city":"Springfield","state_name":"New Hampshire","lat":43.49361,"lng":-72.03057,"zip":"03284","miles_from_dt":4.37},{"city":"New London","state_name":"New Hampshire","lat":43.41768,"lng":-71.99101,"zip":"03257","miles_from_dt":5.01},{"city":"Guild","state_name":"New Hampshire","lat":43.37638,"lng":-72.13297,"zip":"03754","miles_from_dt":5.26},{"city":"Grantham","state_name":"New Hampshire","lat":43.51534,"lng":-72.14798,"zip":"03753","miles_from_dt":5.91},{"city":"Newport","state_name":"New Hampshire","lat":43.38484,"lng":-72.19898,"zip":"03773","miles_from_dt":7.07},{"city":"Elkins","state_name":"New Hampshire","lat":43.42325,"lng":-71.93322,"zip":"03233","miles_from_dt":7.71},{"city":"Wilmot","state_name":"New Hampshire","lat":43.45168,"lng":-71.91795,"zip":"03287","miles_from_dt":8.37},{"city":"Newbury","state_name":"New Hampshire","lat":43.3149,"lng":-72.02795,"zip":"03255","miles_from_dt":9.32},{"city":"North Sutton","state_name":"New Hampshire","lat":43.36016,"lng":-71.92457,"zip":"03260","miles_from_dt":9.88},{"city":"Enfield Center","state_name":"New Hampshire","lat":43.58921,"lng":-72.11043,"zip":"03749","miles_from_dt":10.14},{"city":"Cornish Flat","state_name":"New Hampshire","lat":43.49657,"lng":-72.27997,"zip":"03746","miles_from_dt":10.51},{"city":"Grafton","state_name":"New Hampshire","lat":43.57599,"lng":-71.97221,"zip":"03240","miles_from_dt":10.72},{"city":"Goshen","state_name":"New Hampshire","lat":43.28909,"lng":-72.11489,"zip":"03752","miles_from_dt":10.78},{"city":"Meriden","state_name":"New Hampshire","lat":43.5336,"lng":-72.26469,"zip":"03770","miles_from_dt":11.01},{"city":"Enfield","state_name":"New Hampshire","lat":43.60207,"lng":-72.11713,"zip":"03748","miles_from_dt":11.06},{"city":"South Newbury","state_name":"New Hampshire","lat":43.29639,"lng":-71.99564,"zip":"03272","miles_from_dt":11.09},{"city":"Cornish","state_name":"New Hampshire","lat":43.47407,"lng":-72.32001,"zip":"03745","miles_from_dt":12.06},{"city":"Danbury","state_name":"New Hampshire","lat":43.52685,"lng":-71.8622,"zip":"03230","miles_from_dt":12.54},{"city":"Plainfield","state_name":"New Hampshire","lat":43.5526,"lng":-72.28399,"zip":"03781","miles_from_dt":12.56},{"city":"South Sutton","state_name":"New Hampshire","lat":43.30337,"lng":-71.92413,"zip":"03273","miles_from_dt":12.59},{"city":"Claremont","state_name":"New Hampshire","lat":43.36026,"lng":-72.32489,"zip":"03743","miles_from_dt":13.42},{"city":"Bradford","state_name":"New Hampshire","lat":43.25482,"lng":-71.96122,"zip":"03221","miles_from_dt":14.43},{"city":"Andover","state_name":"New Hampshire","lat":43.44656,"lng":-71.79374,"zip":"03216","miles_from_dt":14.6},{"city":"Lebanon","state_name":"New Hampshire","lat":43.63491,"lng":-72.23819,"zip":"03766","miles_from_dt":15.31},{"city":"Lempster","state_name":"New Hampshire","lat":43.22815,"lng":-72.18032,"zip":"03605","miles_from_dt":15.65},{"city":"Lebanon","state_name":"New Hampshire","lat":43.63701,"lng":-72.25238,"zip":"03756","miles_from_dt":15.8},{"city":"Canaan","state_name":"New Hampshire","lat":43.67134,"lng":-72.01559,"zip":"03741","miles_from_dt":16.09},{"city":"Warner","state_name":"New Hampshire","lat":43.29313,"lng":-71.82934,"zip":"03278","miles_from_dt":16.5},{"city":"East Andover","state_name":"New Hampshire","lat":43.45555,"lng":-71.75551,"zip":"03231","miles_from_dt":16.54},{"city":"Ascutney","state_name":"Vermont","lat":43.39989,"lng":-72.40981,"zip":"05030","miles_from_dt":16.67},{"city":"Salisbury","state_name":"New Hampshire","lat":43.38505,"lng":-71.7574,"zip":"03268","miles_from_dt":16.92},{"city":"Hill","state_name":"New Hampshire","lat":43.5276,"lng":-71.7644,"zip":"03243","miles_from_dt":17.08},{"city":"West Lebanon","state_name":"New Hampshire","lat":43.63675,"lng":-72.30608,"zip":"03784","miles_from_dt":17.38},{"city":"North Hartland","state_name":"Vermont","lat":43.6008,"lng":-72.35698,"zip":"05052","miles_from_dt":17.49},{"city":"Acworth","state_name":"New Hampshire","lat":43.23933,"lng":-72.29855,"zip":"03601","miles_from_dt":17.77},{"city":"Washington","state_name":"New Hampshire","lat":43.18339,"lng":-72.08979,"zip":"03280","miles_from_dt":17.97},{"city":"Hartland Four Corners","state_name":"Vermont","lat":43.54474,"lng":-72.42772,"zip":"05049","miles_from_dt":18.63},{"city":"Windsor","state_name":"Vermont","lat":43.49686,"lng":-72.4515,"zip":"05089","miles_from_dt":18.84},{"city":"Etna","state_name":"New Hampshire","lat":43.70681,"lng":-72.19308,"zip":"03750","miles_from_dt":18.98},{"city":"White River Junction","state_name":"Vermont","lat":43.64769,"lng":-72.34395,"zip":"05009","miles_from_dt":19.21},{"city":"South Acworth","state_name":"New Hampshire","lat":43.19698,"lng":-72.26084,"zip":"03607","miles_from_dt":19.22},{"city":"Wilder","state_name":"Vermont","lat":43.67332,"lng":-72.30726,"zip":"05088","miles_from_dt":19.42},{"city":"Hartford","state_name":"Vermont","lat":43.65859,"lng":-72.33788,"zip":"05047","miles_from_dt":19.57},{"city":"Hartland","state_name":"Vermont","lat":43.5798,"lng":-72.42692,"zip":"05048","miles_from_dt":19.63},{"city":"Bristol","state_name":"New Hampshire","lat":43.62895,"lng":-71.78234,"zip":"03222","miles_from_dt":19.83},{"city":"Charlestown","state_name":"New Hampshire","lat":43.25339,"lng":-72.38059,"zip":"03603","miles_from_dt":19.9},{"city":"Brownsville","state_name":"Vermont","lat":43.46033,"lng":-72.48371,"zip":"05037","miles_from_dt":20.14},{"city":"Hanover","state_name":"New Hampshire","lat":43.72377,"lng":-72.19563,"zip":"03755","miles_from_dt":20.14},{"city":"Franklin","state_name":"New Hampshire","lat":43.44831,"lng":-71.67208,"zip":"03235","miles_from_dt":20.72},{"city":"Perkinsville","state_name":"Vermont","lat":43.39374,"lng":-72.49566,"zip":"05151","miles_from_dt":21},{"city":"Springfield","state_name":"Vermont","lat":43.30719,"lng":-72.46928,"zip":"05156","miles_from_dt":21.57},{"city":"White River Junction","state_name":"Vermont","lat":43.67309,"lng":-72.37943,"zip":"05001","miles_from_dt":21.7},{"city":"Quechee","state_name":"Vermont","lat":43.64233,"lng":-72.43061,"zip":"05059","miles_from_dt":22.16},{"city":"Marlow","state_name":"New Hampshire","lat":43.13092,"lng":-72.21505,"zip":"03456","miles_from_dt":22.58},{"city":"Hebron","state_name":"New Hampshire","lat":43.71149,"lng":-71.81915,"zip":"03241","miles_from_dt":22.77},{"city":"Henniker","state_name":"New Hampshire","lat":43.17365,"lng":-71.8224,"zip":"03242","miles_from_dt":22.83},{"city":"Taftsville","state_name":"Vermont","lat":43.62901,"lng":-72.46108,"zip":"05073","miles_from_dt":22.86},{"city":"Concord","state_name":"New Hampshire","lat":43.29819,"lng":-71.67186,"zip":"03303","miles_from_dt":23.05},{"city":"North Springfield","state_name":"Vermont","lat":43.33653,"lng":-72.52727,"zip":"05150","miles_from_dt":23.51},{"city":"Hillsborough","state_name":"New Hampshire","lat":43.11822,"lng":-71.9192,"zip":"03244","miles_from_dt":23.95},{"city":"Lyme Center","state_name":"New Hampshire","lat":43.79468,"lng":-72.06561,"zip":"03769","miles_from_dt":24.25},{"city":"Norwich","state_name":"Vermont","lat":43.75481,"lng":-72.31145,"zip":"05055","miles_from_dt":24.33},{"city":"Alstead","state_name":"New Hampshire","lat":43.13751,"lng":-72.32938,"zip":"03602","miles_from_dt":24.49},{"city":"Sanbornton","state_name":"New Hampshire","lat":43.53,"lng":-71.60219,"zip":"03269","miles_from_dt":24.94},{"city":"Stoddard","state_name":"New Hampshire","lat":43.08256,"lng":-72.11085,"zip":"03464","miles_from_dt":24.96},{"city":"Lyme","state_name":"New Hampshire","lat":43.80529,"lng":-72.11573,"zip":"03768","miles_from_dt":25.02},{"city":"Cavendish","state_name":"Vermont","lat":43.40454,"lng":-72.58457,"zip":"05142","miles_from_dt":25.33},{"city":"Reading","state_name":"Vermont","lat":43.5012,"lng":-72.58358,"zip":"05062","miles_from_dt":25.43},{"city":"Tilton","state_name":"New Hampshire","lat":43.42783,"lng":-71.57514,"zip":"03276","miles_from_dt":25.62},{"city":"South Woodstock","state_name":"Vermont","lat":43.56461,"lng":-72.56842,"zip":"05071","miles_from_dt":25.74},{"city":"New Hampton","state_name":"New Hampshire","lat":43.62425,"lng":-71.63514,"zip":"03256","miles_from_dt":25.76},{"city":"Contoocook","state_name":"New Hampshire","lat":43.19792,"lng":-71.69677,"zip":"03229","miles_from_dt":25.86},{"city":"East Thetford","state_name":"Vermont","lat":43.80658,"lng":-72.21194,"zip":"05043","miles_from_dt":25.87},{"city":"Rumney","state_name":"New Hampshire","lat":43.79407,"lng":-71.89035,"zip":"03266","miles_from_dt":26.07},{"city":"Drewsville","state_name":"New Hampshire","lat":43.13232,"lng":-72.38984,"zip":"03604","miles_from_dt":26.45},{"city":"Thetford","state_name":"Vermont","lat":43.81917,"lng":-72.22825,"zip":"05074","miles_from_dt":26.92},{"city":"West Hartford","state_name":"Vermont","lat":43.72791,"lng":-72.45177,"zip":"05084","miles_from_dt":26.94},{"city":"Antrim","state_name":"New Hampshire","lat":43.06023,"lng":-71.97446,"zip":"03440","miles_from_dt":27.04},{"city":"Plymouth","state_name":"New Hampshire","lat":43.72967,"lng":-71.71159,"zip":"03264","miles_from_dt":27.19},{"city":"Bellows Falls","state_name":"Vermont","lat":43.1783,"lng":-72.48333,"zip":"05101","miles_from_dt":27.22},{"city":"Woodstock","state_name":"Vermont","lat":43.64707,"lng":-72.55165,"zip":"05091","miles_from_dt":27.37},{"city":"Lochmere","state_name":"New Hampshire","lat":43.47134,"lng":-71.53854,"zip":"03252","miles_from_dt":27.49},{"city":"North Walpole","state_name":"New Hampshire","lat":43.1441,"lng":-72.44512,"zip":"03609","miles_from_dt":27.55},{"city":"North Pomfret","state_name":"Vermont","lat":43.71799,"lng":-72.48362,"zip":"05053","miles_from_dt":27.59},{"city":"Proctorsville","state_name":"Vermont","lat":43.42885,"lng":-72.63487,"zip":"05153","miles_from_dt":27.73},{"city":"Canterbury","state_name":"New Hampshire","lat":43.35171,"lng":-71.54691,"zip":"03224","miles_from_dt":27.77},{"city":"North Thetford","state_name":"Vermont","lat":43.84231,"lng":-72.1838,"zip":"05054","miles_from_dt":27.98},{"city":"Winnisquam","state_name":"New Hampshire","lat":43.48801,"lng":-71.52721,"zip":"03289","miles_from_dt":28.16},{"city":"South Pomfret","state_name":"Vermont","lat":43.69162,"lng":-72.53944,"zip":"05067","miles_from_dt":28.56},{"city":"Bridgewater","state_name":"Vermont","lat":43.58921,"lng":-72.62178,"zip":"05034","miles_from_dt":28.83},{"city":"Sharon","state_name":"Vermont","lat":43.79079,"lng":-72.41617,"zip":"05065","miles_from_dt":29.19},{"city":"Gilsum","state_name":"New Hampshire","lat":43.03996,"lng":-72.26448,"zip":"03448","miles_from_dt":29.32},{"city":"Thetford Center","state_name":"Vermont","lat":43.84356,"lng":-72.28255,"zip":"05075","miles_from_dt":29.35},{"city":"Ashland","state_name":"New Hampshire","lat":43.71492,"lng":-71.63033,"zip":"03217","miles_from_dt":29.48},{"city":"Wentworth","state_name":"New Hampshire","lat":43.86006,"lng":-71.9295,"zip":"03282","miles_from_dt":29.77}],"targetCityZipCode":"03751","targetCityState":"New Hampshire"},"__N_SSG":true}