{"pageProps":{"stateName":"New-hampshire","cityName":"newport","nearbyCities":[{"city":"Guild","state_name":"New Hampshire","lat":43.37638,"lng":-72.13297,"zip":"03754","miles_from_dt":3.37},{"city":"Sunapee","state_name":"New Hampshire","lat":43.38962,"lng":-72.09149,"zip":"03782","miles_from_dt":5.42},{"city":"Claremont","state_name":"New Hampshire","lat":43.36026,"lng":-72.32489,"zip":"03743","miles_from_dt":6.56},{"city":"Georges Mills","state_name":"New Hampshire","lat":43.44363,"lng":-72.08394,"zip":"03751","miles_from_dt":7.07},{"city":"Goshen","state_name":"New Hampshire","lat":43.28909,"lng":-72.11489,"zip":"03752","miles_from_dt":7.85},{"city":"Cornish","state_name":"New Hampshire","lat":43.47407,"lng":-72.32001,"zip":"03745","miles_from_dt":8.66},{"city":"Cornish Flat","state_name":"New Hampshire","lat":43.49657,"lng":-72.27997,"zip":"03746","miles_from_dt":8.72},{"city":"Grantham","state_name":"New Hampshire","lat":43.51534,"lng":-72.14798,"zip":"03753","miles_from_dt":9.37},{"city":"Newbury","state_name":"New Hampshire","lat":43.3149,"lng":-72.02795,"zip":"03255","miles_from_dt":9.88},{"city":"Ascutney","state_name":"Vermont","lat":43.39989,"lng":-72.40981,"zip":"05030","miles_from_dt":10.66},{"city":"New London","state_name":"New Hampshire","lat":43.41768,"lng":-71.99101,"zip":"03257","miles_from_dt":10.71},{"city":"Meriden","state_name":"New Hampshire","lat":43.5336,"lng":-72.26469,"zip":"03770","miles_from_dt":10.79},{"city":"Lempster","state_name":"New Hampshire","lat":43.22815,"lng":-72.18032,"zip":"03605","miles_from_dt":10.86},{"city":"Acworth","state_name":"New Hampshire","lat":43.23933,"lng":-72.29855,"zip":"03601","miles_from_dt":11.23},{"city":"Springfield","state_name":"New Hampshire","lat":43.49361,"lng":-72.03057,"zip":"03284","miles_from_dt":11.32},{"city":"South Newbury","state_name":"New Hampshire","lat":43.29639,"lng":-71.99564,"zip":"03272","miles_from_dt":11.93},{"city":"Plainfield","state_name":"New Hampshire","lat":43.5526,"lng":-72.28399,"zip":"03781","miles_from_dt":12.34},{"city":"Charlestown","state_name":"New Hampshire","lat":43.25339,"lng":-72.38059,"zip":"03603","miles_from_dt":12.89},{"city":"South Acworth","state_name":"New Hampshire","lat":43.19698,"lng":-72.26084,"zip":"03607","miles_from_dt":13.34},{"city":"Elkins","state_name":"New Hampshire","lat":43.42325,"lng":-71.93322,"zip":"03233","miles_from_dt":13.64},{"city":"North Sutton","state_name":"New Hampshire","lat":43.36016,"lng":-71.92457,"zip":"03260","miles_from_dt":13.92},{"city":"Springfield","state_name":"Vermont","lat":43.30719,"lng":-72.46928,"zip":"05156","miles_from_dt":14.64},{"city":"Enfield Center","state_name":"New Hampshire","lat":43.58921,"lng":-72.11043,"zip":"03749","miles_from_dt":14.79},{"city":"Windsor","state_name":"Vermont","lat":43.49686,"lng":-72.4515,"zip":"05089","miles_from_dt":14.87},{"city":"Wilmot","state_name":"New Hampshire","lat":43.45168,"lng":-71.91795,"zip":"03287","miles_from_dt":14.88},{"city":"South Sutton","state_name":"New Hampshire","lat":43.30337,"lng":-71.92413,"zip":"03273","miles_from_dt":14.95},{"city":"Perkinsville","state_name":"Vermont","lat":43.39374,"lng":-72.49566,"zip":"05151","miles_from_dt":14.95},{"city":"Washington","state_name":"New Hampshire","lat":43.18339,"lng":-72.08979,"zip":"03280","miles_from_dt":14.96},{"city":"Bradford","state_name":"New Hampshire","lat":43.25482,"lng":-71.96122,"zip":"03221","miles_from_dt":14.97},{"city":"Brownsville","state_name":"Vermont","lat":43.46033,"lng":-72.48371,"zip":"05037","miles_from_dt":15.25},{"city":"Enfield","state_name":"New Hampshire","lat":43.60207,"lng":-72.11713,"zip":"03748","miles_from_dt":15.55},{"city":"Hartland Four Corners","state_name":"Vermont","lat":43.54474,"lng":-72.42772,"zip":"05049","miles_from_dt":15.94},{"city":"North Springfield","state_name":"Vermont","lat":43.33653,"lng":-72.52727,"zip":"05150","miles_from_dt":16.87},{"city":"North Hartland","state_name":"Vermont","lat":43.6008,"lng":-72.35698,"zip":"05052","miles_from_dt":16.89},{"city":"Lebanon","state_name":"New Hampshire","lat":43.63491,"lng":-72.23819,"zip":"03766","miles_from_dt":17.38},{"city":"Grafton","state_name":"New Hampshire","lat":43.57599,"lng":-71.97221,"zip":"03240","miles_from_dt":17.44},{"city":"Marlow","state_name":"New Hampshire","lat":43.13092,"lng":-72.21505,"zip":"03456","miles_from_dt":17.55},{"city":"Lebanon","state_name":"New Hampshire","lat":43.63701,"lng":-72.25238,"zip":"03756","miles_from_dt":17.61},{"city":"Hartland","state_name":"Vermont","lat":43.5798,"lng":-72.42692,"zip":"05048","miles_from_dt":17.68},{"city":"West Lebanon","state_name":"New Hampshire","lat":43.63675,"lng":-72.30608,"zip":"03784","miles_from_dt":18.2},{"city":"Alstead","state_name":"New Hampshire","lat":43.13751,"lng":-72.32938,"zip":"03602","miles_from_dt":18.3},{"city":"Cavendish","state_name":"Vermont","lat":43.40454,"lng":-72.58457,"zip":"05142","miles_from_dt":19.46},{"city":"White River Junction","state_name":"Vermont","lat":43.64769,"lng":-72.34395,"zip":"05009","miles_from_dt":19.55},{"city":"Danbury","state_name":"New Hampshire","lat":43.52685,"lng":-71.8622,"zip":"03230","miles_from_dt":19.57},{"city":"Warner","state_name":"New Hampshire","lat":43.29313,"lng":-71.82934,"zip":"03278","miles_from_dt":19.67},{"city":"Drewsville","state_name":"New Hampshire","lat":43.13232,"lng":-72.38984,"zip":"03604","miles_from_dt":19.92},{"city":"Hartford","state_name":"Vermont","lat":43.65859,"lng":-72.33788,"zip":"05047","miles_from_dt":20.15},{"city":"Bellows Falls","state_name":"Vermont","lat":43.1783,"lng":-72.48333,"zip":"05101","miles_from_dt":20.22},{"city":"Wilder","state_name":"Vermont","lat":43.67332,"lng":-72.30726,"zip":"05088","miles_from_dt":20.64},{"city":"North Walpole","state_name":"New Hampshire","lat":43.1441,"lng":-72.44512,"zip":"03609","miles_from_dt":20.75},{"city":"Andover","state_name":"New Hampshire","lat":43.44656,"lng":-71.79374,"zip":"03216","miles_from_dt":20.83},{"city":"Reading","state_name":"Vermont","lat":43.5012,"lng":-72.58358,"zip":"05062","miles_from_dt":20.95},{"city":"Quechee","state_name":"Vermont","lat":43.64233,"lng":-72.43061,"zip":"05059","miles_from_dt":21.25},{"city":"Stoddard","state_name":"New Hampshire","lat":43.08256,"lng":-72.11085,"zip":"03464","miles_from_dt":21.34},{"city":"Taftsville","state_name":"Vermont","lat":43.62901,"lng":-72.46108,"zip":"05073","miles_from_dt":21.39},{"city":"Canaan","state_name":"New Hampshire","lat":43.67134,"lng":-72.01559,"zip":"03741","miles_from_dt":21.82},{"city":"White River Junction","state_name":"Vermont","lat":43.67309,"lng":-72.37943,"zip":"05001","miles_from_dt":21.87},{"city":"Proctorsville","state_name":"Vermont","lat":43.42885,"lng":-72.63487,"zip":"05153","miles_from_dt":22.15},{"city":"Salisbury","state_name":"New Hampshire","lat":43.38505,"lng":-71.7574,"zip":"03268","miles_from_dt":22.23},{"city":"Etna","state_name":"New Hampshire","lat":43.70681,"lng":-72.19308,"zip":"03750","miles_from_dt":22.23},{"city":"South Woodstock","state_name":"Vermont","lat":43.56461,"lng":-72.56842,"zip":"05071","miles_from_dt":22.34},{"city":"East Andover","state_name":"New Hampshire","lat":43.45555,"lng":-71.75551,"zip":"03231","miles_from_dt":22.84},{"city":"Hillsborough","state_name":"New Hampshire","lat":43.11822,"lng":-71.9192,"zip":"03244","miles_from_dt":23.2},{"city":"Chester","state_name":"Vermont","lat":43.26267,"lng":-72.63095,"zip":"05143","miles_from_dt":23.35},{"city":"Hanover","state_name":"New Hampshire","lat":43.72377,"lng":-72.19563,"zip":"03755","miles_from_dt":23.4},{"city":"Westminster","state_name":"Vermont","lat":43.10299,"lng":-72.47296,"zip":"05158","miles_from_dt":23.87},{"city":"Henniker","state_name":"New Hampshire","lat":43.17365,"lng":-71.8224,"zip":"03242","miles_from_dt":23.94},{"city":"Hill","state_name":"New Hampshire","lat":43.5276,"lng":-71.7644,"zip":"03243","miles_from_dt":23.97},{"city":"Westminster Station","state_name":"Vermont","lat":43.08598,"lng":-72.44073,"zip":"05159","miles_from_dt":23.97},{"city":"Gilsum","state_name":"New Hampshire","lat":43.03996,"lng":-72.26448,"zip":"03448","miles_from_dt":24.04},{"city":"Walpole","state_name":"New Hampshire","lat":43.07128,"lng":-72.40604,"zip":"03608","miles_from_dt":24.04},{"city":"Cambridgeport","state_name":"Vermont","lat":43.15615,"lng":-72.55929,"zip":"05141","miles_from_dt":24.07},{"city":"Saxtons River","state_name":"Vermont","lat":43.13558,"lng":-72.53424,"zip":"05154","miles_from_dt":24.13},{"city":"Antrim","state_name":"New Hampshire","lat":43.06023,"lng":-71.97446,"zip":"03440","miles_from_dt":25.11},{"city":"Woodstock","state_name":"Vermont","lat":43.64707,"lng":-72.55165,"zip":"05091","miles_from_dt":25.33},{"city":"Ludlow","state_name":"Vermont","lat":43.40368,"lng":-72.7029,"zip":"05149","miles_from_dt":25.4},{"city":"Sullivan","state_name":"New Hampshire","lat":43.01555,"lng":-72.2137,"zip":"03445","miles_from_dt":25.5},{"city":"Bridgewater","state_name":"Vermont","lat":43.58921,"lng":-72.62178,"zip":"05034","miles_from_dt":25.51},{"city":"Grafton","state_name":"Vermont","lat":43.17867,"lng":-72.62307,"zip":"05146","miles_from_dt":25.69},{"city":"Norwich","state_name":"Vermont","lat":43.75481,"lng":-72.31145,"zip":"05055","miles_from_dt":26.16},{"city":"Nelson","state_name":"New Hampshire","lat":43.00282,"lng":-72.12933,"zip":"03457","miles_from_dt":26.61},{"city":"West Hartford","state_name":"Vermont","lat":43.72791,"lng":-72.45177,"zip":"05084","miles_from_dt":26.87},{"city":"Franklin","state_name":"New Hampshire","lat":43.44831,"lng":-71.67208,"zip":"03235","miles_from_dt":26.88},{"city":"Bristol","state_name":"New Hampshire","lat":43.62895,"lng":-71.78234,"zip":"03222","miles_from_dt":26.88},{"city":"North Pomfret","state_name":"Vermont","lat":43.71799,"lng":-72.48362,"zip":"05053","miles_from_dt":27.08},{"city":"Concord","state_name":"New Hampshire","lat":43.29819,"lng":-71.67186,"zip":"03303","miles_from_dt":27.22},{"city":"South Pomfret","state_name":"Vermont","lat":43.69162,"lng":-72.53944,"zip":"05067","miles_from_dt":27.22},{"city":"Plymouth","state_name":"Vermont","lat":43.52895,"lng":-72.72397,"zip":"05056","miles_from_dt":28.21},{"city":"Contoocook","state_name":"New Hampshire","lat":43.19792,"lng":-71.69677,"zip":"03229","miles_from_dt":28.42},{"city":"Bridgewater Corners","state_name":"Vermont","lat":43.61723,"lng":-72.67998,"zip":"05035","miles_from_dt":29.01},{"city":"Lyme Center","state_name":"New Hampshire","lat":43.79468,"lng":-72.06561,"zip":"03769","miles_from_dt":29.07},{"city":"East Thetford","state_name":"Vermont","lat":43.80658,"lng":-72.21194,"zip":"05043","miles_from_dt":29.12},{"city":"Keene","state_name":"New Hampshire","lat":42.96785,"lng":-72.29862,"zip":"03431","miles_from_dt":29.22},{"city":"Lyme","state_name":"New Hampshire","lat":43.80529,"lng":-72.11573,"zip":"03768","miles_from_dt":29.33},{"city":"Hebron","state_name":"New Hampshire","lat":43.71149,"lng":-71.81915,"zip":"03241","miles_from_dt":29.53},{"city":"Hancock","state_name":"New Hampshire","lat":42.98222,"lng":-72.00037,"zip":"03449","miles_from_dt":29.55},{"city":"Bennington","state_name":"New Hampshire","lat":43.01268,"lng":-71.90781,"zip":"03442","miles_from_dt":29.6},{"city":"Mount Holly","state_name":"Vermont","lat":43.44797,"lng":-72.78386,"zip":"05758","miles_from_dt":29.75}],"targetCityZipCode":"03773","targetCityState":"New Hampshire"},"__N_SSG":true}