{"pageProps":{"stateName":"New-hampshire","cityName":"stoddard","nearbyCities":[{"city":"Nelson","state_name":"New Hampshire","lat":43.00282,"lng":-72.12933,"zip":"03457","miles_from_dt":5.58},{"city":"Marlow","state_name":"New Hampshire","lat":43.13092,"lng":-72.21505,"zip":"03456","miles_from_dt":6.24},{"city":"Sullivan","state_name":"New Hampshire","lat":43.01555,"lng":-72.2137,"zip":"03445","miles_from_dt":6.96},{"city":"Washington","state_name":"New Hampshire","lat":43.18339,"lng":-72.08979,"zip":"03280","miles_from_dt":7.04},{"city":"Antrim","state_name":"New Hampshire","lat":43.06023,"lng":-71.97446,"zip":"03440","miles_from_dt":7.07},{"city":"Gilsum","state_name":"New Hampshire","lat":43.03996,"lng":-72.26448,"zip":"03448","miles_from_dt":8.31},{"city":"Hancock","state_name":"New Hampshire","lat":42.98222,"lng":-72.00037,"zip":"03449","miles_from_dt":8.9},{"city":"Harrisville","state_name":"New Hampshire","lat":42.94157,"lng":-72.09107,"zip":"03450","miles_from_dt":9.78},{"city":"Hillsborough","state_name":"New Hampshire","lat":43.11822,"lng":-71.9192,"zip":"03244","miles_from_dt":10},{"city":"Lempster","state_name":"New Hampshire","lat":43.22815,"lng":-72.18032,"zip":"03605","miles_from_dt":10.65},{"city":"South Acworth","state_name":"New Hampshire","lat":43.19698,"lng":-72.26084,"zip":"03607","miles_from_dt":10.95},{"city":"Bennington","state_name":"New Hampshire","lat":43.01268,"lng":-71.90781,"zip":"03442","miles_from_dt":11.36},{"city":"Alstead","state_name":"New Hampshire","lat":43.13751,"lng":-72.32938,"zip":"03602","miles_from_dt":11.69},{"city":"Keene","state_name":"New Hampshire","lat":42.96785,"lng":-72.29862,"zip":"03431","miles_from_dt":12.37},{"city":"Dublin","state_name":"New Hampshire","lat":42.89403,"lng":-72.07178,"zip":"03444","miles_from_dt":13.16},{"city":"Marlborough","state_name":"New Hampshire","lat":42.89816,"lng":-72.18308,"zip":"03455","miles_from_dt":13.24},{"city":"Keene","state_name":"New Hampshire","lat":42.92567,"lng":-72.27635,"zip":"03435","miles_from_dt":13.7},{"city":"Bradford","state_name":"New Hampshire","lat":43.25482,"lng":-71.96122,"zip":"03221","miles_from_dt":14.09},{"city":"Goshen","state_name":"New Hampshire","lat":43.28909,"lng":-72.11489,"zip":"03752","miles_from_dt":14.26},{"city":"Acworth","state_name":"New Hampshire","lat":43.23933,"lng":-72.29855,"zip":"03601","miles_from_dt":14.39},{"city":"Drewsville","state_name":"New Hampshire","lat":43.13232,"lng":-72.38984,"zip":"03604","miles_from_dt":14.52},{"city":"Walpole","state_name":"New Hampshire","lat":43.07128,"lng":-72.40604,"zip":"03608","miles_from_dt":14.96},{"city":"Greenfield","state_name":"New Hampshire","lat":42.94029,"lng":-71.87053,"zip":"03047","miles_from_dt":15.64},{"city":"South Newbury","state_name":"New Hampshire","lat":43.29639,"lng":-71.99564,"zip":"03272","miles_from_dt":15.87},{"city":"Henniker","state_name":"New Hampshire","lat":43.17365,"lng":-71.8224,"zip":"03242","miles_from_dt":15.88},{"city":"Francestown","state_name":"New Hampshire","lat":42.99581,"lng":-71.81514,"zip":"03043","miles_from_dt":16.13},{"city":"West Peterborough","state_name":"New Hampshire","lat":42.87174,"lng":-71.96971,"zip":"03468","miles_from_dt":16.22},{"city":"Newbury","state_name":"New Hampshire","lat":43.3149,"lng":-72.02795,"zip":"03255","miles_from_dt":16.58},{"city":"Westminster Station","state_name":"Vermont","lat":43.08598,"lng":-72.44073,"zip":"05159","miles_from_dt":16.69},{"city":"Peterborough","state_name":"New Hampshire","lat":42.86906,"lng":-71.93797,"zip":"03458","miles_from_dt":17.15},{"city":"North Walpole","state_name":"New Hampshire","lat":43.1441,"lng":-72.44512,"zip":"03609","miles_from_dt":17.43},{"city":"Jaffrey","state_name":"New Hampshire","lat":42.82922,"lng":-72.05962,"zip":"03452","miles_from_dt":17.68},{"city":"Swanzey","state_name":"New Hampshire","lat":42.86163,"lng":-72.29639,"zip":"03446","miles_from_dt":17.92},{"city":"South Sutton","state_name":"New Hampshire","lat":43.30337,"lng":-71.92413,"zip":"03273","miles_from_dt":17.92},{"city":"Charlestown","state_name":"New Hampshire","lat":43.25339,"lng":-72.38059,"zip":"03603","miles_from_dt":18.02},{"city":"Westmoreland","state_name":"New Hampshire","lat":42.96894,"lng":-72.43203,"zip":"03467","miles_from_dt":18.06},{"city":"Troy","state_name":"New Hampshire","lat":42.82677,"lng":-72.18988,"zip":"03465","miles_from_dt":18.11},{"city":"Westminster","state_name":"Vermont","lat":43.10299,"lng":-72.47296,"zip":"05158","miles_from_dt":18.37},{"city":"West Swanzey","state_name":"New Hampshire","lat":42.86416,"lng":-72.32806,"zip":"03469","miles_from_dt":18.67},{"city":"Weare","state_name":"New Hampshire","lat":43.08126,"lng":-71.72189,"zip":"03281","miles_from_dt":19.68},{"city":"Spofford","state_name":"New Hampshire","lat":42.8949,"lng":-72.40507,"zip":"03462","miles_from_dt":19.75},{"city":"Bellows Falls","state_name":"Vermont","lat":43.1783,"lng":-72.48333,"zip":"05101","miles_from_dt":19.96},{"city":"Guild","state_name":"New Hampshire","lat":43.37638,"lng":-72.13297,"zip":"03754","miles_from_dt":20.31},{"city":"Warner","state_name":"New Hampshire","lat":43.29313,"lng":-71.82934,"zip":"03278","miles_from_dt":20.33},{"city":"Lyndeborough","state_name":"New Hampshire","lat":42.90197,"lng":-71.77545,"zip":"03082","miles_from_dt":21.08},{"city":"Sunapee","state_name":"New Hampshire","lat":43.38962,"lng":-72.09149,"zip":"03782","miles_from_dt":21.22},{"city":"Newport","state_name":"New Hampshire","lat":43.38484,"lng":-72.19898,"zip":"03773","miles_from_dt":21.34},{"city":"North Sutton","state_name":"New Hampshire","lat":43.36016,"lng":-71.92457,"zip":"03260","miles_from_dt":21.35},{"city":"Putney","state_name":"Vermont","lat":43.02337,"lng":-72.53043,"zip":"05346","miles_from_dt":21.63},{"city":"Saxtons River","state_name":"Vermont","lat":43.13558,"lng":-72.53424,"zip":"05154","miles_from_dt":21.72},{"city":"Temple","state_name":"New Hampshire","lat":42.82856,"lng":-71.85495,"zip":"03084","miles_from_dt":21.81},{"city":"Claremont","state_name":"New Hampshire","lat":43.36026,"lng":-72.32489,"zip":"03743","miles_from_dt":22.01},{"city":"Fitzwilliam","state_name":"New Hampshire","lat":42.7592,"lng":-72.14794,"zip":"03447","miles_from_dt":22.4},{"city":"Contoocook","state_name":"New Hampshire","lat":43.19792,"lng":-71.69677,"zip":"03229","miles_from_dt":22.4},{"city":"New Boston","state_name":"New Hampshire","lat":42.97702,"lng":-71.68664,"zip":"03070","miles_from_dt":22.68},{"city":"Chesterfield","state_name":"New Hampshire","lat":42.8767,"lng":-72.46148,"zip":"03443","miles_from_dt":22.75},{"city":"Cambridgeport","state_name":"Vermont","lat":43.15615,"lng":-72.55929,"zip":"05141","miles_from_dt":23.24},{"city":"Rindge","state_name":"New Hampshire","lat":42.75234,"lng":-72.01071,"zip":"03461","miles_from_dt":23.35},{"city":"Springfield","state_name":"Vermont","lat":43.30719,"lng":-72.46928,"zip":"05156","miles_from_dt":23.84},{"city":"New London","state_name":"New Hampshire","lat":43.41768,"lng":-71.99101,"zip":"03257","miles_from_dt":23.91},{"city":"West Chesterfield","state_name":"New Hampshire","lat":42.89525,"lng":-72.50964,"zip":"03466","miles_from_dt":23.99},{"city":"Winchester","state_name":"New Hampshire","lat":42.77869,"lng":-72.34413,"zip":"03470","miles_from_dt":24.08},{"city":"Wilton","state_name":"New Hampshire","lat":42.82741,"lng":-71.76967,"zip":"03086","miles_from_dt":24.69},{"city":"Mont Vernon","state_name":"New Hampshire","lat":42.90265,"lng":-71.6861,"zip":"03057","miles_from_dt":24.85},{"city":"Georges Mills","state_name":"New Hampshire","lat":43.44363,"lng":-72.08394,"zip":"03751","miles_from_dt":24.96},{"city":"Elkins","state_name":"New Hampshire","lat":43.42325,"lng":-71.93322,"zip":"03233","miles_from_dt":25.17},{"city":"Dunbarton","state_name":"New Hampshire","lat":43.10178,"lng":-71.60548,"zip":"03046","miles_from_dt":25.6},{"city":"New Ipswich","state_name":"New Hampshire","lat":42.74892,"lng":-71.8747,"zip":"03071","miles_from_dt":25.96},{"city":"Brattleboro","state_name":"Vermont","lat":42.88523,"lng":-72.55873,"zip":"05304","miles_from_dt":26.47},{"city":"Ascutney","state_name":"Vermont","lat":43.39989,"lng":-72.40981,"zip":"05030","miles_from_dt":26.6},{"city":"Concord","state_name":"New Hampshire","lat":43.29819,"lng":-71.67186,"zip":"03303","miles_from_dt":26.71},{"city":"Grafton","state_name":"Vermont","lat":43.17867,"lng":-72.62307,"zip":"05146","miles_from_dt":26.73},{"city":"Ashuelot","state_name":"New Hampshire","lat":42.77737,"lng":-72.44263,"zip":"03441","miles_from_dt":26.96},{"city":"Wilmot","state_name":"New Hampshire","lat":43.45168,"lng":-71.91795,"zip":"03287","miles_from_dt":27.28},{"city":"Hinsdale","state_name":"New Hampshire","lat":42.80907,"lng":-72.50029,"zip":"03451","miles_from_dt":27.32},{"city":"North Springfield","state_name":"Vermont","lat":43.33653,"lng":-72.52727,"zip":"05150","miles_from_dt":27.38},{"city":"Salisbury","state_name":"New Hampshire","lat":43.38505,"lng":-71.7574,"zip":"03268","miles_from_dt":27.46},{"city":"Brattleboro","state_name":"Vermont","lat":42.85464,"lng":-72.55862,"zip":"05303","miles_from_dt":27.62},{"city":"West Dummerston","state_name":"Vermont","lat":42.92821,"lng":-72.61405,"zip":"05357","miles_from_dt":27.63},{"city":"Goffstown","state_name":"New Hampshire","lat":43.01994,"lng":-71.57035,"zip":"03045","miles_from_dt":27.7},{"city":"Townshend","state_name":"Vermont","lat":43.06501,"lng":-72.66484,"zip":"05353","miles_from_dt":28.06},{"city":"Royalston","state_name":"Massachusetts","lat":42.67815,"lng":-72.18557,"zip":"01368","miles_from_dt":28.17},{"city":"Springfield","state_name":"New Hampshire","lat":43.49361,"lng":-72.03057,"zip":"03284","miles_from_dt":28.66},{"city":"Milford","state_name":"New Hampshire","lat":42.81783,"lng":-71.67361,"zip":"03055","miles_from_dt":28.73},{"city":"Newfane","state_name":"Vermont","lat":42.99516,"lng":-72.66747,"zip":"05345","miles_from_dt":28.82},{"city":"Winchendon","state_name":"Massachusetts","lat":42.66675,"lng":-72.04902,"zip":"01475","miles_from_dt":28.87},{"city":"Perkinsville","state_name":"Vermont","lat":43.39374,"lng":-72.49566,"zip":"05151","miles_from_dt":28.96},{"city":"Cornish","state_name":"New Hampshire","lat":43.47407,"lng":-72.32001,"zip":"03745","miles_from_dt":29.01},{"city":"Chester","state_name":"Vermont","lat":43.26267,"lng":-72.63095,"zip":"05143","miles_from_dt":29.07},{"city":"Greenville","state_name":"New Hampshire","lat":42.74668,"lng":-71.76268,"zip":"03048","miles_from_dt":29.15},{"city":"Amherst","state_name":"New Hampshire","lat":42.87056,"lng":-71.60683,"zip":"03031","miles_from_dt":29.44},{"city":"Bow","state_name":"New Hampshire","lat":43.13078,"lng":-71.53066,"zip":"03304","miles_from_dt":29.53},{"city":"Concord","state_name":"New Hampshire","lat":43.23387,"lng":-71.55967,"zip":"03302","miles_from_dt":29.75},{"city":"Andover","state_name":"New Hampshire","lat":43.44656,"lng":-71.79374,"zip":"03216","miles_from_dt":29.79},{"city":"Cornish Flat","state_name":"New Hampshire","lat":43.49657,"lng":-72.27997,"zip":"03746","miles_from_dt":29.83},{"city":"Grantham","state_name":"New Hampshire","lat":43.51534,"lng":-72.14798,"zip":"03753","miles_from_dt":29.93}],"targetCityZipCode":"03464","targetCityState":"New Hampshire"},"__N_SSG":true}