{"pageProps":{"stateName":"New-hampshire","cityName":"west-swanzey","nearbyCities":[{"city":"Swanzey","state_name":"New Hampshire","lat":42.86163,"lng":-72.29639,"zip":"03446","miles_from_dt":1.62},{"city":"Spofford","state_name":"New Hampshire","lat":42.8949,"lng":-72.40507,"zip":"03462","miles_from_dt":4.45},{"city":"Keene","state_name":"New Hampshire","lat":42.92567,"lng":-72.27635,"zip":"03435","miles_from_dt":4.99},{"city":"Winchester","state_name":"New Hampshire","lat":42.77869,"lng":-72.34413,"zip":"03470","miles_from_dt":5.96},{"city":"Chesterfield","state_name":"New Hampshire","lat":42.8767,"lng":-72.46148,"zip":"03443","miles_from_dt":6.83},{"city":"Keene","state_name":"New Hampshire","lat":42.96785,"lng":-72.29862,"zip":"03431","miles_from_dt":7.31},{"city":"Troy","state_name":"New Hampshire","lat":42.82677,"lng":-72.18988,"zip":"03465","miles_from_dt":7.48},{"city":"Marlborough","state_name":"New Hampshire","lat":42.89816,"lng":-72.18308,"zip":"03455","miles_from_dt":7.73},{"city":"Ashuelot","state_name":"New Hampshire","lat":42.77737,"lng":-72.44263,"zip":"03441","miles_from_dt":8.35},{"city":"Westmoreland","state_name":"New Hampshire","lat":42.96894,"lng":-72.43203,"zip":"03467","miles_from_dt":8.95},{"city":"West Chesterfield","state_name":"New Hampshire","lat":42.89525,"lng":-72.50964,"zip":"03466","miles_from_dt":9.46},{"city":"Hinsdale","state_name":"New Hampshire","lat":42.80907,"lng":-72.50029,"zip":"03451","miles_from_dt":9.54},{"city":"Fitzwilliam","state_name":"New Hampshire","lat":42.7592,"lng":-72.14794,"zip":"03447","miles_from_dt":11.67},{"city":"Brattleboro","state_name":"Vermont","lat":42.85464,"lng":-72.55862,"zip":"05303","miles_from_dt":11.73},{"city":"Brattleboro","state_name":"Vermont","lat":42.88523,"lng":-72.55873,"zip":"05304","miles_from_dt":11.8},{"city":"Sullivan","state_name":"New Hampshire","lat":43.01555,"lng":-72.2137,"zip":"03445","miles_from_dt":11.95},{"city":"Vernon","state_name":"Vermont","lat":42.76211,"lng":-72.52553,"zip":"05354","miles_from_dt":12.26},{"city":"Gilsum","state_name":"New Hampshire","lat":43.03996,"lng":-72.26448,"zip":"03448","miles_from_dt":12.56},{"city":"Warwick","state_name":"Massachusetts","lat":42.67711,"lng":-72.34057,"zip":"01378","miles_from_dt":12.93},{"city":"Harrisville","state_name":"New Hampshire","lat":42.94157,"lng":-72.09107,"zip":"03450","miles_from_dt":13.16},{"city":"Dublin","state_name":"New Hampshire","lat":42.89403,"lng":-72.07178,"zip":"03444","miles_from_dt":13.17},{"city":"Jaffrey","state_name":"New Hampshire","lat":42.82922,"lng":-72.05962,"zip":"03452","miles_from_dt":13.85},{"city":"Nelson","state_name":"New Hampshire","lat":43.00282,"lng":-72.12933,"zip":"03457","miles_from_dt":13.9},{"city":"Northfield","state_name":"Massachusetts","lat":42.67575,"lng":-72.446,"zip":"01360","miles_from_dt":14.32},{"city":"Royalston","state_name":"Massachusetts","lat":42.67815,"lng":-72.18557,"zip":"01368","miles_from_dt":14.74},{"city":"Walpole","state_name":"New Hampshire","lat":43.07128,"lng":-72.40604,"zip":"03608","miles_from_dt":14.83},{"city":"Putney","state_name":"Vermont","lat":43.02337,"lng":-72.53043,"zip":"05346","miles_from_dt":15.04},{"city":"West Dummerston","state_name":"Vermont","lat":42.92821,"lng":-72.61405,"zip":"05357","miles_from_dt":15.17},{"city":"Westminster Station","state_name":"Vermont","lat":43.08598,"lng":-72.44073,"zip":"05159","miles_from_dt":16.34},{"city":"Brattleboro","state_name":"Vermont","lat":42.85531,"lng":-72.65619,"zip":"05302","miles_from_dt":16.67},{"city":"Brattleboro","state_name":"Vermont","lat":42.84346,"lng":-72.65901,"zip":"05301","miles_from_dt":16.87},{"city":"Bernardston","state_name":"Massachusetts","lat":42.69512,"lng":-72.57731,"zip":"01337","miles_from_dt":17.23},{"city":"Rindge","state_name":"New Hampshire","lat":42.75234,"lng":-72.01071,"zip":"03461","miles_from_dt":17.88},{"city":"Orange","state_name":"Massachusetts","lat":42.60449,"lng":-72.29263,"zip":"01364","miles_from_dt":18.01},{"city":"Westminster","state_name":"Vermont","lat":43.10299,"lng":-72.47296,"zip":"05158","miles_from_dt":18.05},{"city":"West Peterborough","state_name":"New Hampshire","lat":42.87174,"lng":-71.96971,"zip":"03468","miles_from_dt":18.2},{"city":"Erving","state_name":"Massachusetts","lat":42.60756,"lng":-72.42916,"zip":"01344","miles_from_dt":18.44},{"city":"Gill","state_name":"Massachusetts","lat":42.63282,"lng":-72.51136,"zip":"01354","miles_from_dt":18.49},{"city":"Hancock","state_name":"New Hampshire","lat":42.98222,"lng":-72.00037,"zip":"03449","miles_from_dt":18.51},{"city":"Stoddard","state_name":"New Hampshire","lat":43.08256,"lng":-72.11085,"zip":"03464","miles_from_dt":18.67},{"city":"Drewsville","state_name":"New Hampshire","lat":43.13232,"lng":-72.38984,"zip":"03604","miles_from_dt":18.77},{"city":"Williamsville","state_name":"Vermont","lat":42.94609,"lng":-72.6816,"zip":"05362","miles_from_dt":18.81},{"city":"Alstead","state_name":"New Hampshire","lat":43.13751,"lng":-72.32938,"zip":"03602","miles_from_dt":18.87},{"city":"Marlow","state_name":"New Hampshire","lat":43.13092,"lng":-72.21505,"zip":"03456","miles_from_dt":19.28},{"city":"Newfane","state_name":"Vermont","lat":42.99516,"lng":-72.66747,"zip":"05345","miles_from_dt":19.45},{"city":"Wendell Depot","state_name":"Massachusetts","lat":42.58675,"lng":-72.40264,"zip":"01380","miles_from_dt":19.52},{"city":"Winchendon","state_name":"Massachusetts","lat":42.66675,"lng":-72.04902,"zip":"01475","miles_from_dt":19.67},{"city":"Peterborough","state_name":"New Hampshire","lat":42.86906,"lng":-71.93797,"zip":"03458","miles_from_dt":19.81},{"city":"North Walpole","state_name":"New Hampshire","lat":43.1441,"lng":-72.44512,"zip":"03609","miles_from_dt":20.21},{"city":"Greenfield","state_name":"Massachusetts","lat":42.65202,"lng":-72.60965,"zip":"01302","miles_from_dt":20.48},{"city":"Marlboro","state_name":"Vermont","lat":42.83896,"lng":-72.73257,"zip":"05344","miles_from_dt":20.62},{"city":"South Newfane","state_name":"Vermont","lat":42.92867,"lng":-72.73728,"zip":"05351","miles_from_dt":21.24},{"city":"West Halifax","state_name":"Vermont","lat":42.77396,"lng":-72.73164,"zip":"05358","miles_from_dt":21.43},{"city":"Saxtons River","state_name":"Vermont","lat":43.13558,"lng":-72.53424,"zip":"05154","miles_from_dt":21.45},{"city":"Baldwinville","state_name":"Massachusetts","lat":42.60579,"lng":-72.08958,"zip":"01436","miles_from_dt":21.57},{"city":"Greenfield","state_name":"Massachusetts","lat":42.62375,"lng":-72.60379,"zip":"01301","miles_from_dt":21.73},{"city":"Athol","state_name":"Massachusetts","lat":42.56793,"lng":-72.18324,"zip":"01331","miles_from_dt":21.74},{"city":"Turners Falls","state_name":"Massachusetts","lat":42.59273,"lng":-72.54591,"zip":"01376","miles_from_dt":21.77},{"city":"Millers Falls","state_name":"Massachusetts","lat":42.56656,"lng":-72.47045,"zip":"01349","miles_from_dt":21.78},{"city":"Townshend","state_name":"Vermont","lat":43.06501,"lng":-72.66484,"zip":"05353","miles_from_dt":21.99},{"city":"Antrim","state_name":"New Hampshire","lat":43.06023,"lng":-71.97446,"zip":"03440","miles_from_dt":22.46},{"city":"Wendell","state_name":"Massachusetts","lat":42.54149,"lng":-72.3989,"zip":"01379","miles_from_dt":22.56},{"city":"Lake Pleasant","state_name":"Massachusetts","lat":42.56027,"lng":-72.51321,"zip":"01347","miles_from_dt":23},{"city":"Bellows Falls","state_name":"Vermont","lat":43.1783,"lng":-72.48333,"zip":"05101","miles_from_dt":23.07},{"city":"South Acworth","state_name":"New Hampshire","lat":43.19698,"lng":-72.26084,"zip":"03607","miles_from_dt":23.23},{"city":"Cambridgeport","state_name":"Vermont","lat":43.15615,"lng":-72.55929,"zip":"05141","miles_from_dt":23.31},{"city":"Bennington","state_name":"New Hampshire","lat":43.01268,"lng":-71.90781,"zip":"03442","miles_from_dt":23.65},{"city":"Greenfield","state_name":"New Hampshire","lat":42.94029,"lng":-71.87053,"zip":"03047","miles_from_dt":23.81},{"city":"Colrain","state_name":"Massachusetts","lat":42.68805,"lng":-72.73205,"zip":"01340","miles_from_dt":23.87},{"city":"Temple","state_name":"New Hampshire","lat":42.82856,"lng":-71.85495,"zip":"03084","miles_from_dt":24.16},{"city":"Montague","state_name":"Massachusetts","lat":42.54162,"lng":-72.52069,"zip":"01351","miles_from_dt":24.33},{"city":"New Ipswich","state_name":"New Hampshire","lat":42.74892,"lng":-71.8747,"zip":"03071","miles_from_dt":24.38},{"city":"Jacksonville","state_name":"Vermont","lat":42.77468,"lng":-72.80015,"zip":"05342","miles_from_dt":24.77},{"city":"East Dover","state_name":"Vermont","lat":42.96407,"lng":-72.7972,"zip":"05341","miles_from_dt":24.78},{"city":"Ashburnham","state_name":"Massachusetts","lat":42.66069,"lng":-71.9232,"zip":"01430","miles_from_dt":24.93},{"city":"Washington","state_name":"New Hampshire","lat":43.18339,"lng":-72.08979,"zip":"03280","miles_from_dt":25.12},{"city":"Templeton","state_name":"Massachusetts","lat":42.55324,"lng":-72.06879,"zip":"01468","miles_from_dt":25.2},{"city":"East Templeton","state_name":"Massachusetts","lat":42.56028,"lng":-72.03583,"zip":"01438","miles_from_dt":25.71},{"city":"Gardner","state_name":"Massachusetts","lat":42.58797,"lng":-71.98649,"zip":"01440","miles_from_dt":25.8},{"city":"Acworth","state_name":"New Hampshire","lat":43.23933,"lng":-72.29855,"zip":"03601","miles_from_dt":25.94},{"city":"Lempster","state_name":"New Hampshire","lat":43.22815,"lng":-72.18032,"zip":"03605","miles_from_dt":26.22},{"city":"Deerfield","state_name":"Massachusetts","lat":42.54384,"lng":-72.6058,"zip":"01342","miles_from_dt":26.25},{"city":"Westminster","state_name":"Massachusetts","lat":42.57362,"lng":-71.99464,"zip":"01441","miles_from_dt":26.27},{"city":"Grafton","state_name":"Vermont","lat":43.17867,"lng":-72.62307,"zip":"05146","miles_from_dt":26.36},{"city":"Wardsboro","state_name":"Vermont","lat":43.02079,"lng":-72.80645,"zip":"05355","miles_from_dt":26.56},{"city":"Petersham","state_name":"Massachusetts","lat":42.48858,"lng":-72.18564,"zip":"01366","miles_from_dt":26.92},{"city":"Charlestown","state_name":"New Hampshire","lat":43.25339,"lng":-72.38059,"zip":"03603","miles_from_dt":27},{"city":"Hillsborough","state_name":"New Hampshire","lat":43.11822,"lng":-71.9192,"zip":"03244","miles_from_dt":27.14},{"city":"Shelburne Falls","state_name":"Massachusetts","lat":42.59607,"lng":-72.72915,"zip":"01370","miles_from_dt":27.55},{"city":"Francestown","state_name":"New Hampshire","lat":42.99581,"lng":-71.81514,"zip":"03043","miles_from_dt":27.56},{"city":"Heath","state_name":"Massachusetts","lat":42.6706,"lng":-72.81323,"zip":"01346","miles_from_dt":28.06},{"city":"Shutesbury","state_name":"Massachusetts","lat":42.46327,"lng":-72.41893,"zip":"01072","miles_from_dt":28.06},{"city":"West Townshend","state_name":"Vermont","lat":43.15184,"lng":-72.72121,"zip":"05359","miles_from_dt":28.13},{"city":"Leverett","state_name":"Massachusetts","lat":42.47381,"lng":-72.48768,"zip":"01054","miles_from_dt":28.14},{"city":"West Dover","state_name":"Vermont","lat":42.95423,"lng":-72.86952,"zip":"05356","miles_from_dt":28.17},{"city":"Lyndeborough","state_name":"New Hampshire","lat":42.90197,"lng":-71.77545,"zip":"03082","miles_from_dt":28.17},{"city":"Wilton","state_name":"New Hampshire","lat":42.82741,"lng":-71.76967,"zip":"03086","miles_from_dt":28.48},{"city":"New Salem","state_name":"Massachusetts","lat":42.45101,"lng":-72.33141,"zip":"01355","miles_from_dt":28.52},{"city":"Whitingham","state_name":"Vermont","lat":42.78021,"lng":-72.87935,"zip":"05361","miles_from_dt":28.61},{"city":"Ashby","state_name":"Massachusetts","lat":42.67652,"lng":-71.82322,"zip":"01431","miles_from_dt":28.76},{"city":"Wilmington","state_name":"Vermont","lat":42.88301,"lng":-72.89554,"zip":"05363","miles_from_dt":28.84},{"city":"Jamaica","state_name":"Vermont","lat":43.09744,"lng":-72.80105,"zip":"05343","miles_from_dt":28.88},{"city":"Greenville","state_name":"New Hampshire","lat":42.74668,"lng":-71.76268,"zip":"03048","miles_from_dt":29.86},{"city":"Sunderland","state_name":"Massachusetts","lat":42.46475,"lng":-72.55489,"zip":"01375","miles_from_dt":29.89}],"targetCityZipCode":"03469","targetCityState":"New Hampshire"},"__N_SSG":true}