{"pageProps":{"stateName":"Massachusetts","cityName":"woodville","nearbyCities":[{"city":"Hopkinton","state_name":"Massachusetts","lat":42.2255,"lng":-71.53781,"zip":"01748","miles_from_dt":1.21},{"city":"Westborough","state_name":"Massachusetts","lat":42.26815,"lng":-71.61402,"zip":"01581","miles_from_dt":3.73},{"city":"Upton","state_name":"Massachusetts","lat":42.17694,"lng":-71.60516,"zip":"01568","miles_from_dt":4.48},{"city":"Ashland","state_name":"Massachusetts","lat":42.25726,"lng":-71.46867,"zip":"01721","miles_from_dt":4.97},{"city":"Southborough","state_name":"Massachusetts","lat":42.30144,"lng":-71.5304,"zip":"01772","miles_from_dt":5},{"city":"Fayville","state_name":"Massachusetts","lat":42.29155,"lng":-71.50101,"zip":"01745","miles_from_dt":5.07},{"city":"Milford","state_name":"Massachusetts","lat":42.15723,"lng":-71.51978,"zip":"01757","miles_from_dt":5.57},{"city":"Holliston","state_name":"Massachusetts","lat":42.19775,"lng":-71.44499,"zip":"01746","miles_from_dt":6.35},{"city":"Grafton","state_name":"Massachusetts","lat":42.20077,"lng":-71.67892,"zip":"01519","miles_from_dt":6.5},{"city":"North Grafton","state_name":"Massachusetts","lat":42.23189,"lng":-71.69219,"zip":"01536","miles_from_dt":6.8},{"city":"South Grafton","state_name":"Massachusetts","lat":42.17496,"lng":-71.67762,"zip":"01560","miles_from_dt":7.23},{"city":"Framingham","state_name":"Massachusetts","lat":42.28242,"lng":-71.43428,"zip":"01702","miles_from_dt":7.3},{"city":"Hopedale","state_name":"Massachusetts","lat":42.12477,"lng":-71.535,"zip":"01747","miles_from_dt":7.53},{"city":"Northborough","state_name":"Massachusetts","lat":42.32314,"lng":-71.64621,"zip":"01532","miles_from_dt":7.68},{"city":"Northbridge","state_name":"Massachusetts","lat":42.13991,"lng":-71.64433,"zip":"01534","miles_from_dt":7.72},{"city":"Marlborough","state_name":"Massachusetts","lat":42.3494,"lng":-71.54681,"zip":"01752","miles_from_dt":8.11},{"city":"Framingham","state_name":"Massachusetts","lat":42.31823,"lng":-71.44266,"zip":"01704","miles_from_dt":8.43},{"city":"West Millbury","state_name":"Massachusetts","lat":42.12631,"lng":-71.64613,"zip":"01586","miles_from_dt":8.56},{"city":"Medway","state_name":"Massachusetts","lat":42.15352,"lng":-71.42906,"zip":"02053","miles_from_dt":8.63},{"city":"Framingham","state_name":"Massachusetts","lat":42.32025,"lng":-71.43949,"zip":"01705","miles_from_dt":8.65},{"city":"Framingham","state_name":"Massachusetts","lat":42.32301,"lng":-71.44179,"zip":"01703","miles_from_dt":8.7},{"city":"Shrewsbury","state_name":"Massachusetts","lat":42.28419,"lng":-71.71558,"zip":"01545","miles_from_dt":8.76},{"city":"Framingham","state_name":"Massachusetts","lat":42.32195,"lng":-71.43796,"zip":"01701","miles_from_dt":8.78},{"city":"Sherborn","state_name":"Massachusetts","lat":42.23416,"lng":-71.37532,"zip":"01770","miles_from_dt":9.45},{"city":"Mendon","state_name":"Massachusetts","lat":42.09301,"lng":-71.55146,"zip":"01756","miles_from_dt":9.62},{"city":"Whitinsville","state_name":"Massachusetts","lat":42.11837,"lng":-71.66836,"zip":"01588","miles_from_dt":9.65},{"city":"Linwood","state_name":"Massachusetts","lat":42.09899,"lng":-71.64296,"zip":"01525","miles_from_dt":10.15},{"city":"Shrewsbury","state_name":"Massachusetts","lat":42.29182,"lng":-71.74599,"zip":"01546","miles_from_dt":10.4},{"city":"North Uxbridge","state_name":"Massachusetts","lat":42.09026,"lng":-71.63989,"zip":"01538","miles_from_dt":10.64},{"city":"Worcester","state_name":"Massachusetts","lat":42.25085,"lng":-71.7683,"zip":"01604","miles_from_dt":10.78},{"city":"Worcester","state_name":"Massachusetts","lat":42.27687,"lng":-71.76122,"zip":"01655","miles_from_dt":10.78},{"city":"Hudson","state_name":"Massachusetts","lat":42.38868,"lng":-71.54648,"zip":"01749","miles_from_dt":10.81},{"city":"Millis","state_name":"Massachusetts","lat":42.1693,"lng":-71.36261,"zip":"02054","miles_from_dt":11.01},{"city":"Berlin","state_name":"Massachusetts","lat":42.38378,"lng":-71.63552,"zip":"01503","miles_from_dt":11.15},{"city":"Millbury","state_name":"Massachusetts","lat":42.19228,"lng":-71.77397,"zip":"01527","miles_from_dt":11.34},{"city":"Natick","state_name":"Massachusetts","lat":42.28436,"lng":-71.34966,"zip":"01760","miles_from_dt":11.35},{"city":"Bellingham","state_name":"Massachusetts","lat":42.0777,"lng":-71.47407,"zip":"02019","miles_from_dt":11.54},{"city":"Worcester","state_name":"Massachusetts","lat":42.22684,"lng":-71.79037,"zip":"01607","miles_from_dt":11.84},{"city":"Boylston","state_name":"Massachusetts","lat":42.35633,"lng":-71.72123,"zip":"01505","miles_from_dt":11.91},{"city":"Sutton","state_name":"Massachusetts","lat":42.13387,"lng":-71.75179,"zip":"01590","miles_from_dt":11.98},{"city":"Worcester","state_name":"Massachusetts","lat":42.2927,"lng":-71.77904,"zip":"01653","miles_from_dt":12},{"city":"Worcester","state_name":"Massachusetts","lat":42.28979,"lng":-71.78802,"zip":"01605","miles_from_dt":12.36},{"city":"Worcester","state_name":"Massachusetts","lat":42.26574,"lng":-71.79653,"zip":"01613","miles_from_dt":12.37},{"city":"Worcester","state_name":"Massachusetts","lat":42.26092,"lng":-71.79949,"zip":"01614","miles_from_dt":12.46},{"city":"Worcester","state_name":"Massachusetts","lat":42.2621,"lng":-71.80145,"zip":"01608","miles_from_dt":12.57},{"city":"Sudbury","state_name":"Massachusetts","lat":42.38456,"lng":-71.42316,"zip":"01776","miles_from_dt":12.62},{"city":"Uxbridge","state_name":"Massachusetts","lat":42.05895,"lng":-71.63741,"zip":"01569","miles_from_dt":12.62},{"city":"Franklin","state_name":"Massachusetts","lat":42.08622,"lng":-71.41126,"zip":"02038","miles_from_dt":12.64},{"city":"Worcester","state_name":"Massachusetts","lat":42.24645,"lng":-71.80968,"zip":"01610","miles_from_dt":12.86},{"city":"Worcester","state_name":"Massachusetts","lat":42.27022,"lng":-71.80933,"zip":"01615","miles_from_dt":13.07},{"city":"Worcester","state_name":"Massachusetts","lat":42.2711,"lng":-71.80974,"zip":"01601","miles_from_dt":13.1},{"city":"Worcester","state_name":"Massachusetts","lat":42.31367,"lng":-71.79614,"zip":"01606","miles_from_dt":13.36},{"city":"Blackstone","state_name":"Massachusetts","lat":42.0399,"lng":-71.53125,"zip":"01504","miles_from_dt":13.36},{"city":"Millville","state_name":"Massachusetts","lat":42.03906,"lng":-71.57767,"zip":"01529","miles_from_dt":13.37},{"city":"Medfield","state_name":"Massachusetts","lat":42.1848,"lng":-71.30501,"zip":"02052","miles_from_dt":13.47},{"city":"Wayland","state_name":"Massachusetts","lat":42.3583,"lng":-71.35895,"zip":"01778","miles_from_dt":13.47},{"city":"Manchaug","state_name":"Massachusetts","lat":42.08955,"lng":-71.74667,"zip":"01526","miles_from_dt":13.76},{"city":"Stow","state_name":"Massachusetts","lat":42.42983,"lng":-71.51146,"zip":"01775","miles_from_dt":13.85},{"city":"Clinton","state_name":"Massachusetts","lat":42.4119,"lng":-71.68883,"zip":"01510","miles_from_dt":14.05},{"city":"Wellesley","state_name":"Massachusetts","lat":42.29455,"lng":-71.29859,"zip":"02482","miles_from_dt":14.06},{"city":"Dover","state_name":"Massachusetts","lat":42.2366,"lng":-71.28421,"zip":"02030","miles_from_dt":14.13},{"city":"Worcester","state_name":"Massachusetts","lat":42.28592,"lng":-71.82853,"zip":"01609","miles_from_dt":14.27},{"city":"Norfolk","state_name":"Massachusetts","lat":42.11632,"lng":-71.32952,"zip":"02056","miles_from_dt":14.27},{"city":"Bolton","state_name":"Massachusetts","lat":42.43616,"lng":-71.60728,"zip":"01740","miles_from_dt":14.28},{"city":"Maynard","state_name":"Massachusetts","lat":42.4264,"lng":-71.45607,"zip":"01754","miles_from_dt":14.41},{"city":"Worcester","state_name":"Massachusetts","lat":42.24373,"lng":-71.84429,"zip":"01603","miles_from_dt":14.62},{"city":"Auburn","state_name":"Massachusetts","lat":42.19689,"lng":-71.84549,"zip":"01501","miles_from_dt":14.87},{"city":"West Boylston","state_name":"Massachusetts","lat":42.37034,"lng":-71.78502,"zip":"01583","miles_from_dt":14.97},{"city":"Worcester","state_name":"Massachusetts","lat":42.27219,"lng":-71.84946,"zip":"01602","miles_from_dt":15.11},{"city":"Wellesley Hills","state_name":"Massachusetts","lat":42.31064,"lng":-71.27779,"zip":"02481","miles_from_dt":15.43},{"city":"Babson Park","state_name":"Massachusetts","lat":42.29777,"lng":-71.26887,"zip":"02457","miles_from_dt":15.58},{"city":"Douglas","state_name":"Massachusetts","lat":42.0528,"lng":-71.75106,"zip":"01516","miles_from_dt":15.82},{"city":"Weston","state_name":"Massachusetts","lat":42.35893,"lng":-71.30009,"zip":"02493","miles_from_dt":15.91},{"city":"Forestdale","state_name":"Rhode Island","lat":41.99934,"lng":-71.56322,"zip":"02824","miles_from_dt":16.08},{"city":"South Lancaster","state_name":"Massachusetts","lat":42.44581,"lng":-71.68845,"zip":"01561","miles_from_dt":16.14},{"city":"Slatersville","state_name":"Rhode Island","lat":41.99801,"lng":-71.58301,"zip":"02876","miles_from_dt":16.22},{"city":"Woonsocket","state_name":"Rhode Island","lat":42.00103,"lng":-71.49923,"zip":"02895","miles_from_dt":16.26},{"city":"Cherry Valley","state_name":"Massachusetts","lat":42.23945,"lng":-71.87702,"zip":"01611","miles_from_dt":16.29},{"city":"Sheldonville","state_name":"Massachusetts","lat":42.0348,"lng":-71.386,"zip":"02070","miles_from_dt":16.29},{"city":"Wrentham","state_name":"Massachusetts","lat":42.05129,"lng":-71.35522,"zip":"02093","miles_from_dt":16.32},{"city":"Needham","state_name":"Massachusetts","lat":42.27615,"lng":-71.24387,"zip":"02492","miles_from_dt":16.47},{"city":"Walpole","state_name":"Massachusetts","lat":42.14689,"lng":-71.25916,"zip":"02081","miles_from_dt":16.51},{"city":"Holden","state_name":"Massachusetts","lat":42.33685,"lng":-71.85181,"zip":"01520","miles_from_dt":16.62},{"city":"Newton Lower Falls","state_name":"Massachusetts","lat":42.33102,"lng":-71.25599,"zip":"02462","miles_from_dt":16.99},{"city":"Oxford","state_name":"Massachusetts","lat":42.11649,"lng":-71.85819,"zip":"01540","miles_from_dt":17.29},{"city":"South Walpole","state_name":"Massachusetts","lat":42.10392,"lng":-71.27002,"zip":"02071","miles_from_dt":17.31},{"city":"Needham Heights","state_name":"Massachusetts","lat":42.29959,"lng":-71.2317,"zip":"02494","miles_from_dt":17.44},{"city":"Still River","state_name":"Massachusetts","lat":42.48365,"lng":-71.62161,"zip":"01467","miles_from_dt":17.63},{"city":"North Oxford","state_name":"Massachusetts","lat":42.16177,"lng":-71.89217,"zip":"01537","miles_from_dt":17.75},{"city":"Auburndale","state_name":"Massachusetts","lat":42.34541,"lng":-71.24759,"zip":"02466","miles_from_dt":17.79},{"city":"Boxborough","state_name":"Massachusetts","lat":42.48837,"lng":-71.51779,"zip":"01719","miles_from_dt":17.8},{"city":"Glendale","state_name":"Rhode Island","lat":41.98248,"lng":-71.64539,"zip":"02826","miles_from_dt":17.8},{"city":"North Smithfield","state_name":"Rhode Island","lat":41.97285,"lng":-71.55027,"zip":"02896","miles_from_dt":17.92},{"city":"Westwood","state_name":"Massachusetts","lat":42.22024,"lng":-71.21057,"zip":"02090","miles_from_dt":17.93},{"city":"Harrisville","state_name":"Rhode Island","lat":41.98016,"lng":-71.6484,"zip":"02830","miles_from_dt":17.99},{"city":"Waban","state_name":"Massachusetts","lat":42.32777,"lng":-71.23142,"zip":"02468","miles_from_dt":18.07},{"city":"Sterling","state_name":"Massachusetts","lat":42.44124,"lng":-71.77297,"zip":"01564","miles_from_dt":18.09},{"city":"Rochdale","state_name":"Massachusetts","lat":42.20241,"lng":-71.90995,"zip":"01542","miles_from_dt":18.09},{"city":"Newton Upper Falls","state_name":"Massachusetts","lat":42.31274,"lng":-71.21981,"zip":"02464","miles_from_dt":18.28},{"city":"Lancaster","state_name":"Massachusetts","lat":42.48176,"lng":-71.68079,"zip":"01523","miles_from_dt":18.3},{"city":"Acton","state_name":"Massachusetts","lat":42.48397,"lng":-71.43809,"zip":"01720","miles_from_dt":18.45},{"city":"East Walpole","state_name":"Massachusetts","lat":42.15489,"lng":-71.2155,"zip":"02032","miles_from_dt":18.45},{"city":"Lincoln","state_name":"Massachusetts","lat":42.42572,"lng":-71.31013,"zip":"01773","miles_from_dt":18.48},{"city":"Harvard","state_name":"Massachusetts","lat":42.50005,"lng":-71.57754,"zip":"01451","miles_from_dt":18.5},{"city":"North Scituate","state_name":"Massachusetts","lat":42.18687,"lng":-71.20406,"zip":"02060","miles_from_dt":18.51},{"city":"Leicester","state_name":"Massachusetts","lat":42.24919,"lng":-71.91989,"zip":"01524","miles_from_dt":18.51},{"city":"Concord","state_name":"Massachusetts","lat":42.46221,"lng":-71.36504,"zip":"01742","miles_from_dt":18.74},{"city":"Waltham","state_name":"Massachusetts","lat":42.36918,"lng":-71.24101,"zip":"02453","miles_from_dt":18.86},{"city":"West Newton","state_name":"Massachusetts","lat":42.34969,"lng":-71.22646,"zip":"02465","miles_from_dt":18.9},{"city":"Manville","state_name":"Rhode Island","lat":41.96552,"lng":-71.47628,"zip":"02838","miles_from_dt":18.91},{"city":"Newton Highlands","state_name":"Massachusetts","lat":42.31693,"lng":-71.20875,"zip":"02461","miles_from_dt":18.91},{"city":"Plainville","state_name":"Massachusetts","lat":42.01409,"lng":-71.33642,"zip":"02762","miles_from_dt":18.93},{"city":"Jefferson","state_name":"Massachusetts","lat":42.38142,"lng":-71.87111,"zip":"01522","miles_from_dt":18.99},{"city":"Norwood","state_name":"Massachusetts","lat":42.18563,"lng":-71.19464,"zip":"02062","miles_from_dt":19},{"city":"Oakland","state_name":"Rhode Island","lat":41.96354,"lng":-71.64893,"zip":"02858","miles_from_dt":19.11},{"city":"Waltham","state_name":"Massachusetts","lat":42.378,"lng":-71.23988,"zip":"02454","miles_from_dt":19.22},{"city":"Waltham","state_name":"Massachusetts","lat":42.39859,"lng":-71.2573,"zip":"02451","miles_from_dt":19.28},{"city":"Nonantum","state_name":"Massachusetts","lat":42.33205,"lng":-71.20748,"zip":"02495","miles_from_dt":19.32},{"city":"Webster","state_name":"Massachusetts","lat":42.05206,"lng":-71.8485,"zip":"01570","miles_from_dt":19.36},{"city":"Cumberland","state_name":"Rhode Island","lat":41.97025,"lng":-71.41978,"zip":"02864","miles_from_dt":19.46},{"city":"Dedham","state_name":"Massachusetts","lat":42.24664,"lng":-71.17992,"zip":"02027","miles_from_dt":19.5},{"city":"New Town","state_name":"Massachusetts","lat":42.33357,"lng":-71.20411,"zip":"02456","miles_from_dt":19.52},{"city":"Dedham","state_name":"Massachusetts","lat":42.24665,"lng":-71.1777,"zip":"02026","miles_from_dt":19.61},{"city":"Newton Center","state_name":"Massachusetts","lat":42.31515,"lng":-71.19174,"zip":"02459","miles_from_dt":19.71},{"city":"Paxton","state_name":"Massachusetts","lat":42.31037,"lng":-71.93095,"zip":"01612","miles_from_dt":19.78},{"city":"Newtonville","state_name":"Massachusetts","lat":42.35206,"lng":-71.20835,"zip":"02460","miles_from_dt":19.81},{"city":"Foxboro","state_name":"Massachusetts","lat":42.06266,"lng":-71.24613,"zip":"02035","miles_from_dt":19.91},{"city":"Albion","state_name":"Rhode Island","lat":41.95221,"lng":-71.4559,"zip":"02802","miles_from_dt":20.06},{"city":"North Waltham","state_name":"Massachusetts","lat":42.39,"lng":-71.22219,"zip":"02455","miles_from_dt":20.43},{"city":"Mapleville","state_name":"Rhode Island","lat":41.9433,"lng":-71.64581,"zip":"02839","miles_from_dt":20.43},{"city":"Waltham","state_name":"Massachusetts","lat":42.39365,"lng":-71.2202,"zip":"02452","miles_from_dt":20.65},{"city":"West Roxbury","state_name":"Massachusetts","lat":42.27931,"lng":-71.16072,"zip":"02132","miles_from_dt":20.71},{"city":"Pascoag","state_name":"Rhode Island","lat":41.9665,"lng":-71.7464,"zip":"02859","miles_from_dt":20.71},{"city":"Newton","state_name":"Massachusetts","lat":42.35294,"lng":-71.18763,"zip":"02458","miles_from_dt":20.8},{"city":"Devens","state_name":"Massachusetts","lat":42.53149,"lng":-71.61663,"zip":"01434","miles_from_dt":20.85},{"city":"North Attleboro","state_name":"Massachusetts","lat":41.9793,"lng":-71.33143,"zip":"02761","miles_from_dt":21.04},{"city":"Acton","state_name":"Massachusetts","lat":42.52165,"lng":-71.42983,"zip":"01718","miles_from_dt":21.05},{"city":"Littleton","state_name":"Massachusetts","lat":42.53503,"lng":-71.4891,"zip":"01460","miles_from_dt":21.2},{"city":"Sharon","state_name":"Massachusetts","lat":42.10778,"lng":-71.18183,"zip":"02067","miles_from_dt":21.22},{"city":"Chestnut Hill","state_name":"Massachusetts","lat":42.31725,"lng":-71.16096,"zip":"02467","miles_from_dt":21.26},{"city":"Hanscom Afb","state_name":"Massachusetts","lat":42.46422,"lng":-71.28202,"zip":"01731","miles_from_dt":21.41},{"city":"North Attleboro","state_name":"Massachusetts","lat":41.97004,"lng":-71.33586,"zip":"02760","miles_from_dt":21.45},{"city":"Lexington","state_name":"Massachusetts","lat":42.438,"lng":-71.23922,"zip":"02421","miles_from_dt":21.7},{"city":"Charlton Depot","state_name":"Massachusetts","lat":42.173,"lng":-71.97562,"zip":"01509","miles_from_dt":21.74},{"city":"Watertown","state_name":"Massachusetts","lat":42.37,"lng":-71.17713,"zip":"02472","miles_from_dt":21.78},{"city":"Readville","state_name":"Massachusetts","lat":42.23508,"lng":-71.13447,"zip":"02137","miles_from_dt":21.81},{"city":"Watertown","state_name":"Massachusetts","lat":42.36984,"lng":-71.17499,"zip":"02471","miles_from_dt":21.87},{"city":"Waverley","state_name":"Massachusetts","lat":42.38898,"lng":-71.18776,"zip":"02479","miles_from_dt":21.91},{"city":"Charlton","state_name":"Massachusetts","lat":42.13509,"lng":-71.96803,"zip":"01507","miles_from_dt":22.01},{"city":"Spencer","state_name":"Massachusetts","lat":42.24715,"lng":-71.99189,"zip":"01562","miles_from_dt":22.19},{"city":"Hyde Park","state_name":"Massachusetts","lat":42.25505,"lng":-71.12662,"zip":"02136","miles_from_dt":22.26},{"city":"Brighton","state_name":"Massachusetts","lat":42.34989,"lng":-71.15417,"zip":"02135","miles_from_dt":22.31},{"city":"Leominster","state_name":"Massachusetts","lat":42.51961,"lng":-71.76583,"zip":"01453","miles_from_dt":22.46},{"city":"Attleboro Falls","state_name":"Massachusetts","lat":41.96666,"lng":-71.30743,"zip":"02763","miles_from_dt":22.46},{"city":"Belmont","state_name":"Massachusetts","lat":42.39602,"lng":-71.17955,"zip":"02478","miles_from_dt":22.51},{"city":"Canton","state_name":"Massachusetts","lat":42.17504,"lng":-71.12645,"zip":"02021","miles_from_dt":22.58},{"city":"Roslindale","state_name":"Massachusetts","lat":42.28392,"lng":-71.12468,"zip":"02131","miles_from_dt":22.58},{"city":"Smithfield","state_name":"Rhode Island","lat":41.90615,"lng":-71.52365,"zip":"02917","miles_from_dt":22.59},{"city":"Princeton","state_name":"Massachusetts","lat":42.45649,"lng":-71.88128,"zip":"01541","miles_from_dt":22.6},{"city":"Charlton City","state_name":"Massachusetts","lat":42.15139,"lng":-71.9896,"zip":"01508","miles_from_dt":22.76},{"city":"Brookline","state_name":"Massachusetts","lat":42.32581,"lng":-71.13319,"zip":"02445","miles_from_dt":22.79},{"city":"Lincoln","state_name":"Rhode Island","lat":41.91251,"lng":-71.44822,"zip":"02865","miles_from_dt":22.8},{"city":"Dudley","state_name":"Massachusetts","lat":42.05501,"lng":-71.93519,"zip":"01571","miles_from_dt":22.85},{"city":"Ayer","state_name":"Massachusetts","lat":42.56351,"lng":-71.57059,"zip":"01432","miles_from_dt":22.87},{"city":"Mansfield","state_name":"Massachusetts","lat":42.01626,"lng":-71.21868,"zip":"02048","miles_from_dt":23.01},{"city":"Watertown","state_name":"Massachusetts","lat":42.3772,"lng":-71.15371,"zip":"02477","miles_from_dt":23.08},{"city":"Carlisle","state_name":"Massachusetts","lat":42.53001,"lng":-71.35128,"zip":"01741","miles_from_dt":23.15},{"city":"Thompson","state_name":"Connecticut","lat":41.96895,"lng":-71.83927,"zip":"06277","miles_from_dt":23.17},{"city":"Arlington Heights","state_name":"Massachusetts","lat":42.42025,"lng":-71.18094,"zip":"02475","miles_from_dt":23.33},{"city":"Jamaica Plain","state_name":"Massachusetts","lat":42.30823,"lng":-71.11515,"zip":"02130","miles_from_dt":23.38},{"city":"Rutland","state_name":"Massachusetts","lat":42.38482,"lng":-71.96726,"zip":"01543","miles_from_dt":23.39},{"city":"Bedford","state_name":"Massachusetts","lat":42.4995,"lng":-71.27799,"zip":"01730","miles_from_dt":23.41},{"city":"Harmony","state_name":"Rhode Island","lat":41.89377,"lng":-71.59129,"zip":"02829","miles_from_dt":23.42},{"city":"Arlington","state_name":"Massachusetts","lat":42.41597,"lng":-71.17437,"zip":"02476","miles_from_dt":23.45},{"city":"Lexington","state_name":"Massachusetts","lat":42.45821,"lng":-71.21762,"zip":"02420","miles_from_dt":23.45},{"city":"Brookline Village","state_name":"Massachusetts","lat":42.33355,"lng":-71.11875,"zip":"02447","miles_from_dt":23.65},{"city":"Allston","state_name":"Massachusetts","lat":42.35855,"lng":-71.12931,"zip":"02134","miles_from_dt":23.71},{"city":"Brookline","state_name":"Massachusetts","lat":42.3435,"lng":-71.12179,"zip":"02446","miles_from_dt":23.71},{"city":"Shirley","state_name":"Massachusetts","lat":42.57411,"lng":-71.6475,"zip":"01464","miles_from_dt":24.01},{"city":"Cambridge","state_name":"Massachusetts","lat":42.37997,"lng":-71.13446,"zip":"02138","miles_from_dt":24.05},{"city":"Chepachet","state_name":"Rhode Island","lat":41.89959,"lng":-71.69888,"zip":"02814","miles_from_dt":24.06},{"city":"Boston","state_name":"Massachusetts","lat":42.36717,"lng":-71.12509,"zip":"02163","miles_from_dt":24.13},{"city":"Mattapan","state_name":"Massachusetts","lat":42.27588,"lng":-71.0918,"zip":"02126","miles_from_dt":24.18},{"city":"Milton","state_name":"Massachusetts","lat":42.23854,"lng":-71.08464,"zip":"02186","miles_from_dt":24.37},{"city":"Arlington","state_name":"Massachusetts","lat":42.42053,"lng":-71.15666,"zip":"02474","miles_from_dt":24.39},{"city":"North Grosvenordale","state_name":"Connecticut","lat":41.98791,"lng":-71.90299,"zip":"06255","miles_from_dt":24.41},{"city":"Cambridge","state_name":"Massachusetts","lat":42.39332,"lng":-71.13342,"zip":"02140","miles_from_dt":24.5},{"city":"Chartley","state_name":"Massachusetts","lat":41.96733,"lng":-71.24163,"zip":"02712","miles_from_dt":24.53},{"city":"Greenville","state_name":"Rhode Island","lat":41.87672,"lng":-71.56065,"zip":"02828","miles_from_dt":24.54},{"city":"Fabyan","state_name":"Connecticut","lat":42.01424,"lng":-71.93716,"zip":"06245","miles_from_dt":24.55},{"city":"Cambridge","state_name":"Massachusetts","lat":42.37407,"lng":-71.11714,"zip":"02238","miles_from_dt":24.69},{"city":"Roxbury Crossing","state_name":"Massachusetts","lat":42.33212,"lng":-71.09654,"zip":"02120","miles_from_dt":24.71},{"city":"Boston","state_name":"Massachusetts","lat":42.34741,"lng":-71.10276,"zip":"02215","miles_from_dt":24.72},{"city":"Milton Village","state_name":"Massachusetts","lat":42.26069,"lng":-71.07867,"zip":"02187","miles_from_dt":24.74},{"city":"Dorchester","state_name":"Massachusetts","lat":42.3057,"lng":-71.08693,"zip":"02121","miles_from_dt":24.76},{"city":"Stoughton","state_name":"Massachusetts","lat":42.1192,"lng":-71.10189,"zip":"02072","miles_from_dt":24.76},{"city":"Attleboro","state_name":"Massachusetts","lat":41.93108,"lng":-71.29499,"zip":"02703","miles_from_dt":24.85},{"city":"Quinebaug","state_name":"Connecticut","lat":42.01871,"lng":-71.94959,"zip":"06262","miles_from_dt":24.88},{"city":"Boston","state_name":"Massachusetts","lat":42.34046,"lng":-71.09481,"zip":"02115","miles_from_dt":24.96},{"city":"Grosvenor Dale","state_name":"Connecticut","lat":41.96956,"lng":-71.8943,"zip":"06246","miles_from_dt":25},{"city":"East Brookfield","state_name":"Massachusetts","lat":42.20328,"lng":-72.04669,"zip":"01515","miles_from_dt":25.07},{"city":"Cambridge","state_name":"Massachusetts","lat":42.36224,"lng":-71.10253,"zip":"02139","miles_from_dt":25.08},{"city":"Central Falls","state_name":"Rhode Island","lat":41.89005,"lng":-71.39336,"zip":"02863","miles_from_dt":25.12},{"city":"Roxbury","state_name":"Massachusetts","lat":42.32405,"lng":-71.08522,"zip":"02119","miles_from_dt":25.13},{"city":"Westford","state_name":"Massachusetts","lat":42.58642,"lng":-71.44008,"zip":"01886","miles_from_dt":25.19},{"city":"Somerville","state_name":"Massachusetts","lat":42.40088,"lng":-71.122,"zip":"02144","miles_from_dt":25.26},{"city":"Dorchester Center","state_name":"Massachusetts","lat":42.28583,"lng":-71.07114,"zip":"02124","miles_from_dt":25.32},{"city":"Boston","state_name":"Massachusetts","lat":42.34,"lng":-71.08502,"zip":"02298","miles_from_dt":25.43},{"city":"Boston","state_name":"Massachusetts","lat":42.34394,"lng":-71.08527,"zip":"02123","miles_from_dt":25.5},{"city":"West Medford","state_name":"Massachusetts","lat":42.42433,"lng":-71.13227,"zip":"02156","miles_from_dt":25.59},{"city":"Nutting Lake","state_name":"Massachusetts","lat":42.53471,"lng":-71.26916,"zip":"01865","miles_from_dt":25.62},{"city":"North Easton","state_name":"Massachusetts","lat":42.05519,"lng":-71.12071,"zip":"02356","miles_from_dt":25.65},{"city":"Boston","state_name":"Massachusetts","lat":42.34748,"lng":-71.08199,"zip":"02199","miles_from_dt":25.74},{"city":"Somerville","state_name":"Massachusetts","lat":42.38142,"lng":-71.09677,"zip":"02143","miles_from_dt":25.85},{"city":"Groton","state_name":"Massachusetts","lat":42.60785,"lng":-71.57233,"zip":"01471","miles_from_dt":25.93},{"city":"Lunenburg","state_name":"Massachusetts","lat":42.58994,"lng":-71.72036,"zip":"01462","miles_from_dt":26.02},{"city":"Winchester","state_name":"Massachusetts","lat":42.45177,"lng":-71.14628,"zip":"01890","miles_from_dt":26.03},{"city":"Boston","state_name":"Massachusetts","lat":42.34217,"lng":-71.0733,"zip":"02117","miles_from_dt":26.05},{"city":"West Groton","state_name":"Massachusetts","lat":42.60663,"lng":-71.62914,"zip":"01472","miles_from_dt":26.08},{"city":"Boston","state_name":"Massachusetts","lat":42.35105,"lng":-71.07638,"zip":"02116","miles_from_dt":26.08},{"city":"Cambridge","state_name":"Massachusetts","lat":42.36295,"lng":-71.08189,"zip":"02142","miles_from_dt":26.09},{"city":"Boston","state_name":"Massachusetts","lat":42.33806,"lng":-71.07057,"zip":"02118","miles_from_dt":26.11},{"city":"Burlington","state_name":"Massachusetts","lat":42.5028,"lng":-71.20147,"zip":"01803","miles_from_dt":26.16},{"city":"Billerica","state_name":"Massachusetts","lat":42.54127,"lng":-71.26288,"zip":"01822","miles_from_dt":26.18},{"city":"Boston","state_name":"Massachusetts","lat":42.34853,"lng":-71.07299,"zip":"02217","miles_from_dt":26.2},{"city":"Cambridge","state_name":"Massachusetts","lat":42.37041,"lng":-71.08218,"zip":"02141","miles_from_dt":26.25},{"city":"Groton","state_name":"Massachusetts","lat":42.61368,"lng":-71.56139,"zip":"01450","miles_from_dt":26.32},{"city":"Oakham","state_name":"Massachusetts","lat":42.35125,"lng":-72.04776,"zip":"01068","miles_from_dt":26.33},{"city":"Easton","state_name":"Massachusetts","lat":42.02385,"lng":-71.12922,"zip":"02334","miles_from_dt":26.38},{"city":"Dorchester","state_name":"Massachusetts","lat":42.29427,"lng":-71.05185,"zip":"02122","miles_from_dt":26.38},{"city":"Medford","state_name":"Massachusetts","lat":42.41902,"lng":-71.10986,"zip":"02153","miles_from_dt":26.4},{"city":"Pinehurst","state_name":"Massachusetts","lat":42.52539,"lng":-71.22794,"zip":"01866","miles_from_dt":26.41},{"city":"North Providence","state_name":"Rhode Island","lat":41.85467,"lng":-71.47325,"zip":"02911","miles_from_dt":26.44},{"city":"Randolph","state_name":"Massachusetts","lat":42.17506,"lng":-71.05011,"zip":"02368","miles_from_dt":26.44},{"city":"Dorchester","state_name":"Massachusetts","lat":42.31578,"lng":-71.0562,"zip":"02125","miles_from_dt":26.44},{"city":"Providence","state_name":"Rhode Island","lat":41.86058,"lng":-71.43539,"zip":"02904","miles_from_dt":26.44},{"city":"Burlington","state_name":"Massachusetts","lat":42.50635,"lng":-71.19824,"zip":"01805","miles_from_dt":26.45},{"city":"Pawtucket","state_name":"Rhode Island","lat":41.87036,"lng":-71.38855,"zip":"02860","miles_from_dt":26.49},{"city":"Somerville","state_name":"Massachusetts","lat":42.39206,"lng":-71.0895,"zip":"02145","miles_from_dt":26.49},{"city":"Medford","state_name":"Massachusetts","lat":42.42324,"lng":-71.10878,"zip":"02155","miles_from_dt":26.59},{"city":"Pawtucket","state_name":"Rhode Island","lat":41.87863,"lng":-71.35228,"zip":"02861","miles_from_dt":26.64},{"city":"Pawtucket","state_name":"Rhode Island","lat":41.87112,"lng":-71.37567,"zip":"02862","miles_from_dt":26.67},{"city":"North Brookfield","state_name":"Massachusetts","lat":42.2695,"lng":-72.07794,"zip":"01535","miles_from_dt":26.7},{"city":"Boston","state_name":"Massachusetts","lat":42.35657,"lng":-71.06516,"zip":"02108","miles_from_dt":26.75},{"city":"Norton","state_name":"Massachusetts","lat":41.96402,"lng":-71.18418,"zip":"02766","miles_from_dt":26.75},{"city":"Boston","state_name":"Massachusetts","lat":42.36337,"lng":-71.06686,"zip":"02114","miles_from_dt":26.82},{"city":"Boston","state_name":"Massachusetts","lat":42.36237,"lng":-71.06619,"zip":"02222","miles_from_dt":26.83},{"city":"Boston","state_name":"Massachusetts","lat":42.35838,"lng":-71.06383,"zip":"02133","miles_from_dt":26.85},{"city":"Boston","state_name":"Massachusetts","lat":42.35067,"lng":-71.06054,"zip":"02111","miles_from_dt":26.85},{"city":"Boston","state_name":"Massachusetts","lat":42.3513,"lng":-71.06086,"zip":"02196","miles_from_dt":26.85},{"city":"Chelmsford","state_name":"Massachusetts","lat":42.59156,"lng":-71.35553,"zip":"01824","miles_from_dt":26.9},{"city":"Boston","state_name":"Massachusetts","lat":42.3582,"lng":-71.06109,"zip":"02293","miles_from_dt":26.98},{"city":"Billerica","state_name":"Massachusetts","lat":42.54999,"lng":-71.25206,"zip":"01821","miles_from_dt":26.99},{"city":"Boston","state_name":"Massachusetts","lat":42.34875,"lng":-71.05672,"zip":"02283","miles_from_dt":27},{"city":"Woburn","state_name":"Massachusetts","lat":42.48616,"lng":-71.15808,"zip":"01888","miles_from_dt":27.01},{"city":"Boston","state_name":"Massachusetts","lat":42.35114,"lng":-71.05706,"zip":"02284","miles_from_dt":27.03},{"city":"Boston","state_name":"Massachusetts","lat":42.34935,"lng":-71.05564,"zip":"02205","miles_from_dt":27.06},{"city":"Boston","state_name":"Massachusetts","lat":42.35936,"lng":-71.05953,"zip":"02201","miles_from_dt":27.08},{"city":"Southbridge","state_name":"Massachusetts","lat":42.06039,"lng":-72.03377,"zip":"01550","miles_from_dt":27.09},{"city":"Boston","state_name":"Massachusetts","lat":42.35486,"lng":-71.05727,"zip":"02241","miles_from_dt":27.1},{"city":"Boston","state_name":"Massachusetts","lat":42.36144,"lng":-71.05945,"zip":"02203","miles_from_dt":27.13},{"city":"Boston","state_name":"Massachusetts","lat":42.35768,"lng":-71.05763,"zip":"02112","miles_from_dt":27.14},{"city":"Boston","state_name":"Massachusetts","lat":42.35807,"lng":-71.05671,"zip":"02211","miles_from_dt":27.19},{"city":"Boston","state_name":"Massachusetts","lat":42.35572,"lng":-71.05577,"zip":"02212","miles_from_dt":27.19},{"city":"Avon","state_name":"Massachusetts","lat":42.12666,"lng":-71.04922,"zip":"02322","miles_from_dt":27.2},{"city":"Woburn","state_name":"Massachusetts","lat":42.48694,"lng":-71.15415,"zip":"01801","miles_from_dt":27.2},{"city":"Boston","state_name":"Massachusetts","lat":42.35863,"lng":-71.0567,"zip":"02297","miles_from_dt":27.21},{"city":"North Billerica","state_name":"Massachusetts","lat":42.57427,"lng":-71.29437,"zip":"01862","miles_from_dt":27.22},{"city":"East Woodstock","state_name":"Connecticut","lat":41.98632,"lng":-71.97448,"zip":"06244","miles_from_dt":27.26},{"city":"North Easton","state_name":"Massachusetts","lat":42.06224,"lng":-71.07751,"zip":"02357","miles_from_dt":27.4},{"city":"Boston","state_name":"Massachusetts","lat":42.36526,"lng":-71.05524,"zip":"02113","miles_from_dt":27.42},{"city":"Boston","state_name":"Massachusetts","lat":42.35797,"lng":-71.05189,"zip":"02110","miles_from_dt":27.42},{"city":"Charlestown","state_name":"Massachusetts","lat":42.37975,"lng":-71.06167,"zip":"02129","miles_from_dt":27.47},{"city":"Putnam","state_name":"Connecticut","lat":41.90898,"lng":-71.87181,"zip":"06260","miles_from_dt":27.49},{"city":"Boston","state_name":"Massachusetts","lat":42.36498,"lng":-71.05277,"zip":"02109","miles_from_dt":27.54},{"city":"Providence","state_name":"Rhode Island","lat":41.84386,"lng":-71.43499,"zip":"02918","miles_from_dt":27.57},{"city":"South Boston","state_name":"Massachusetts","lat":42.33455,"lng":-71.03875,"zip":"02127","miles_from_dt":27.61},{"city":"Quincy","state_name":"Massachusetts","lat":42.28709,"lng":-71.02604,"zip":"02171","miles_from_dt":27.62},{"city":"Boston","state_name":"Massachusetts","lat":42.34445,"lng":-71.04217,"zip":"02206","miles_from_dt":27.62},{"city":"South Easton","state_name":"Massachusetts","lat":42.01954,"lng":-71.10381,"zip":"02375","miles_from_dt":27.64},{"city":"Fitchburg","state_name":"Massachusetts","lat":42.58559,"lng":-71.81693,"zip":"01420","miles_from_dt":27.71},{"city":"Quincy","state_name":"Massachusetts","lat":42.23971,"lng":-71.01802,"zip":"02169","miles_from_dt":27.78},{"city":"Boston","state_name":"Massachusetts","lat":42.34815,"lng":-71.03942,"zip":"02210","miles_from_dt":27.83},{"city":"Providence","state_name":"Rhode Island","lat":41.83877,"lng":-71.43926,"zip":"02908","miles_from_dt":27.86},{"city":"Quincy","state_name":"Massachusetts","lat":42.26644,"lng":-71.01621,"zip":"02170","miles_from_dt":27.97},{"city":"Sturbridge","state_name":"Massachusetts","lat":42.1047,"lng":-72.07745,"zip":"01566","miles_from_dt":28.01},{"city":"Johnston","state_name":"Rhode Island","lat":41.82733,"lng":-71.52002,"zip":"02919","miles_from_dt":28.03},{"city":"Brookfield","state_name":"Massachusetts","lat":42.19364,"lng":-72.10441,"zip":"01506","miles_from_dt":28.08},{"city":"Westminster","state_name":"Massachusetts","lat":42.55122,"lng":-71.90266,"zip":"01473","miles_from_dt":28.15},{"city":"North Scituate","state_name":"Rhode Island","lat":41.82705,"lng":-71.63083,"zip":"02857","miles_from_dt":28.21},{"city":"Boston","state_name":"Massachusetts","lat":42.39503,"lng":-71.05027,"zip":"02204","miles_from_dt":28.41},{"city":"Providence","state_name":"Rhode Island","lat":41.83964,"lng":-71.38963,"zip":"02906","miles_from_dt":28.48},{"city":"Quincy","state_name":"Massachusetts","lat":42.25139,"lng":-71.00394,"zip":"02269","miles_from_dt":28.53},{"city":"Braintree","state_name":"Massachusetts","lat":42.20118,"lng":-71.00511,"zip":"02185","miles_from_dt":28.53},{"city":"Everett","state_name":"Massachusetts","lat":42.40643,"lng":-71.05446,"zip":"02149","miles_from_dt":28.53},{"city":"Brockton","state_name":"Massachusetts","lat":42.07791,"lng":-71.04223,"zip":"02301","miles_from_dt":28.63},{"city":"Hubbardston","state_name":"Massachusetts","lat":42.48378,"lng":-72.00514,"zip":"01452","miles_from_dt":28.66},{"city":"Braintree","state_name":"Massachusetts","lat":42.20386,"lng":-71.0022,"zip":"02184","miles_from_dt":28.67},{"city":"Rumford","state_name":"Rhode Island","lat":41.84438,"lng":-71.35258,"zip":"02916","miles_from_dt":28.82},{"city":"North Chelmsford","state_name":"Massachusetts","lat":42.63274,"lng":-71.39132,"zip":"01863","miles_from_dt":28.95},{"city":"Stoneham","state_name":"Massachusetts","lat":42.47396,"lng":-71.09705,"zip":"02180","miles_from_dt":28.97},{"city":"Providence","state_name":"Rhode Island","lat":41.82682,"lng":-71.408,"zip":"02901","miles_from_dt":29.05},{"city":"Holbrook","state_name":"Massachusetts","lat":42.14733,"lng":-71.00484,"zip":"02343","miles_from_dt":29.07},{"city":"Woburn","state_name":"Massachusetts","lat":42.50588,"lng":-71.12715,"zip":"01815","miles_from_dt":29.09},{"city":"Providence","state_name":"Rhode Island","lat":41.82783,"lng":-71.39959,"zip":"02912","miles_from_dt":29.11},{"city":"Malden","state_name":"Massachusetts","lat":42.43048,"lng":-71.05762,"zip":"02148","miles_from_dt":29.12},{"city":"Providence","state_name":"Rhode Island","lat":41.81825,"lng":-71.45078,"zip":"02909","miles_from_dt":29.12},{"city":"Providence","state_name":"Rhode Island","lat":41.82272,"lng":-71.42064,"zip":"02940","miles_from_dt":29.16},{"city":"Providence","state_name":"Rhode Island","lat":41.82468,"lng":-71.41079,"zip":"02902","miles_from_dt":29.16},{"city":"South Woodstock","state_name":"Connecticut","lat":41.9302,"lng":-71.95897,"zip":"06267","miles_from_dt":29.26},{"city":"Chelsea","state_name":"Massachusetts","lat":42.39587,"lng":-71.03251,"zip":"02150","miles_from_dt":29.27},{"city":"Ballouville","state_name":"Connecticut","lat":41.87311,"lng":-71.8635,"zip":"06233","miles_from_dt":29.31},{"city":"Brockton","state_name":"Massachusetts","lat":42.08167,"lng":-71.02597,"zip":"02304","miles_from_dt":29.31},{"city":"Brockton","state_name":"Massachusetts","lat":42.08318,"lng":-71.02462,"zip":"02305","miles_from_dt":29.34},{"city":"Woburn","state_name":"Massachusetts","lat":42.50824,"lng":-71.1234,"zip":"01813","miles_from_dt":29.35},{"city":"East Killingly","state_name":"Connecticut","lat":41.84743,"lng":-71.80701,"zip":"06243","miles_from_dt":29.46},{"city":"Woodstock","state_name":"Connecticut","lat":41.97253,"lng":-72.01458,"zip":"06281","miles_from_dt":29.47},{"city":"East Boston","state_name":"Massachusetts","lat":42.37324,"lng":-71.01616,"zip":"02128","miles_from_dt":29.49},{"city":"Providence","state_name":"Rhode Island","lat":41.81902,"lng":-71.41003,"zip":"02903","miles_from_dt":29.55},{"city":"South Barre","state_name":"Massachusetts","lat":42.3837,"lng":-72.10021,"zip":"01074","miles_from_dt":29.6},{"city":"Lowell","state_name":"Massachusetts","lat":42.62915,"lng":-71.33674,"zip":"01851","miles_from_dt":29.67},{"city":"Fiskdale","state_name":"Massachusetts","lat":42.11342,"lng":-72.11632,"zip":"01518","miles_from_dt":29.74},{"city":"New Braintree","state_name":"Massachusetts","lat":42.31929,"lng":-72.12794,"zip":"01531","miles_from_dt":29.74},{"city":"Brockton","state_name":"Massachusetts","lat":42.08476,"lng":-71.01516,"zip":"02303","miles_from_dt":29.76},{"city":"Melrose","state_name":"Massachusetts","lat":42.45561,"lng":-71.05901,"zip":"02176","miles_from_dt":29.91},{"city":"Dayville","state_name":"Connecticut","lat":41.85635,"lng":-71.84904,"zip":"06241","miles_from_dt":29.92},{"city":"Seekonk","state_name":"Massachusetts","lat":41.83787,"lng":-71.31736,"zip":"02771","miles_from_dt":29.94}],"targetCityZipCode":"01784","targetCityState":"Massachusetts"},"__N_SSG":true}