{"pageProps":{"stateName":"Colorado","cityName":"almont","nearbyCities":[{"city":"Ohio City","state_name":"Colorado","lat":38.62842,"lng":-106.59108,"zip":"81237","miles_from_dt":13.25},{"city":"Pitkin","state_name":"Colorado","lat":38.62675,"lng":-106.48848,"zip":"81241","miles_from_dt":15.1},{"city":"Crested Butte","state_name":"Colorado","lat":38.87985,"lng":-106.90957,"zip":"81224","miles_from_dt":16.06},{"city":"Aspen","state_name":"Colorado","lat":39.05048,"lng":-106.82335,"zip":"81612","miles_from_dt":19.3},{"city":"Parlin","state_name":"Colorado","lat":38.53667,"lng":-106.60825,"zip":"81239","miles_from_dt":19.49},{"city":"Buena Vista","state_name":"Colorado","lat":38.89548,"lng":-106.24128,"zip":"81211","miles_from_dt":21.21},{"city":"Nathrop","state_name":"Colorado","lat":38.6955,"lng":-106.25424,"zip":"81236","miles_from_dt":21.62},{"city":"Crested Butte","state_name":"Colorado","lat":38.94115,"lng":-107.00664,"zip":"81225","miles_from_dt":22.38},{"city":"Aspen","state_name":"Colorado","lat":39.14561,"lng":-106.74885,"zip":"81611","miles_from_dt":23.54},{"city":"Granite","state_name":"Colorado","lat":39.03402,"lng":-106.27723,"zip":"81228","miles_from_dt":23.78},{"city":"Twin Lakes","state_name":"Colorado","lat":39.13482,"lng":-106.43723,"zip":"81251","miles_from_dt":23.96},{"city":"Gunnison","state_name":"Colorado","lat":38.54864,"lng":-106.91861,"zip":"81231","miles_from_dt":24.59},{"city":"Monarch","state_name":"Colorado","lat":38.54934,"lng":-106.29009,"zip":"81227","miles_from_dt":25.85}],"targetCityZipCode":"81210","targetCityState":"Colorado"},"__N_SSG":true}