{"pageProps":{"stateName":"Colorado","cityName":"blanca","nearbyCities":[{"city":"Fort Garland","state_name":"Colorado","lat":37.44964,"lng":-105.32747,"zip":"81133","miles_from_dt":13.47},{"city":"Sanford","state_name":"Colorado","lat":37.23376,"lng":-105.71506,"zip":"81151","miles_from_dt":14.37},{"city":"Alamosa","state_name":"Colorado","lat":37.47197,"lng":-105.85243,"zip":"81101","miles_from_dt":16.43},{"city":"Alamosa","state_name":"Colorado","lat":37.47193,"lng":-105.86112,"zip":"81102","miles_from_dt":16.88},{"city":"Mosca","state_name":"Colorado","lat":37.64616,"lng":-105.6776,"zip":"81146","miles_from_dt":17.75},{"city":"Chama","state_name":"Colorado","lat":37.16146,"lng":-105.34724,"zip":"81126","miles_from_dt":20.65},{"city":"San Luis","state_name":"Colorado","lat":37.12609,"lng":-105.39411,"zip":"81152","miles_from_dt":21.42},{"city":"Manassa","state_name":"Colorado","lat":37.16256,"lng":-105.89507,"zip":"81141","miles_from_dt":24.65},{"city":"Jaroso","state_name":"Colorado","lat":37.02302,"lng":-105.62737,"zip":"81138","miles_from_dt":26.54},{"city":"Hooper","state_name":"Colorado","lat":37.72672,"lng":-105.85355,"zip":"81136","miles_from_dt":27.25},{"city":"La Veta","state_name":"Colorado","lat":37.47727,"lng":-105.06635,"zip":"81055","miles_from_dt":27.92},{"city":"Romeo","state_name":"Colorado","lat":37.17183,"lng":-105.98542,"zip":"81148","miles_from_dt":28.15}],"targetCityZipCode":"81123","targetCityState":"Colorado"},"__N_SSG":true}