{"pageProps":{"stateName":"Colorado","cityName":"coaldale","nearbyCities":[{"city":"Howard","state_name":"Colorado","lat":38.49244,"lng":-105.81369,"zip":"81233","miles_from_dt":9.49},{"city":"Cotopaxi","state_name":"Colorado","lat":38.39372,"lng":-105.6031,"zip":"81223","miles_from_dt":11.87},{"city":"Hillside","state_name":"Colorado","lat":38.27535,"lng":-105.60895,"zip":"81232","miles_from_dt":12.52},{"city":"Moffat","state_name":"Colorado","lat":38.14477,"lng":-105.87112,"zip":"81143","miles_from_dt":14.8},{"city":"Poncha Springs","state_name":"Colorado","lat":38.47181,"lng":-106.07288,"zip":"81242","miles_from_dt":16.1},{"city":"Villa Grove","state_name":"Colorado","lat":38.26671,"lng":-106.09603,"zip":"81155","miles_from_dt":16.38},{"city":"Salida","state_name":"Colorado","lat":38.55129,"lng":-106.08157,"zip":"81201","miles_from_dt":19.77},{"city":"Canon City","state_name":"Colorado","lat":38.54409,"lng":-105.42498,"zip":"81212","miles_from_dt":24.91},{"city":"Westcliffe","state_name":"Colorado","lat":38.10891,"lng":-105.42143,"zip":"81252","miles_from_dt":27.37},{"city":"Monarch","state_name":"Colorado","lat":38.54934,"lng":-106.29009,"zip":"81227","miles_from_dt":29}],"targetCityZipCode":"81222","targetCityState":"Colorado"},"__N_SSG":true}