{"pageProps":{"stateName":"Colorado","cityName":"eckert","nearbyCities":[{"city":"Austin","state_name":"Colorado","lat":38.81261,"lng":-107.97595,"zip":"81410","miles_from_dt":7.71},{"city":"Cory","state_name":"Colorado","lat":38.78836,"lng":-107.98654,"zip":"81414","miles_from_dt":8.88},{"city":"Cedaredge","state_name":"Colorado","lat":38.97171,"lng":-107.90845,"zip":"81413","miles_from_dt":9.23},{"city":"Molina","state_name":"Colorado","lat":39.10875,"lng":-107.99199,"zip":"81646","miles_from_dt":14.5},{"city":"Mesa","state_name":"Colorado","lat":39.11968,"lng":-108.15001,"zip":"81643","miles_from_dt":15.65},{"city":"Hotchkiss","state_name":"Colorado","lat":38.86332,"lng":-107.74872,"zip":"81419","miles_from_dt":16.86},{"city":"Lazear","state_name":"Colorado","lat":38.7768,"lng":-107.78189,"zip":"81420","miles_from_dt":17.26},{"city":"Delta","state_name":"Colorado","lat":38.66482,"lng":-108.20403,"zip":"81416","miles_from_dt":18.36},{"city":"Palisade","state_name":"Colorado","lat":39.07741,"lng":-108.33056,"zip":"81526","miles_from_dt":18.94},{"city":"Grand Junction","state_name":"Colorado","lat":39.03094,"lng":-108.48682,"zip":"81503","miles_from_dt":24.73},{"city":"Clifton","state_name":"Colorado","lat":39.10962,"lng":-108.43561,"zip":"81520","miles_from_dt":24.8},{"city":"Paonia","state_name":"Colorado","lat":38.95928,"lng":-107.59899,"zip":"81428","miles_from_dt":24.95},{"city":"Whitewater","state_name":"Colorado","lat":38.75758,"lng":-108.52466,"zip":"81527","miles_from_dt":27.21},{"city":"Grand Junction","state_name":"Colorado","lat":39.1198,"lng":-108.49542,"zip":"81504","miles_from_dt":27.88},{"city":"Collbran","state_name":"Colorado","lat":39.24611,"lng":-107.77259,"zip":"81624","miles_from_dt":28.07},{"city":"Olathe","state_name":"Colorado","lat":38.49363,"lng":-108.10469,"zip":"81425","miles_from_dt":28.48},{"city":"Grand Junction","state_name":"Colorado","lat":39.07174,"lng":-108.54569,"zip":"81501","miles_from_dt":28.73},{"city":"Crawford","state_name":"Colorado","lat":38.64027,"lng":-107.6368,"zip":"81415","miles_from_dt":29.11}],"targetCityZipCode":"81418","targetCityState":"Colorado"},"__N_SSG":true}