{"pageProps":{"stateName":"Colorado","cityName":"gardner","nearbyCities":[{"city":"Rye","state_name":"Colorado","lat":37.88998,"lng":-104.88951,"zip":"81069","miles_from_dt":20.79},{"city":"Crestone","state_name":"Colorado","lat":37.87706,"lng":-105.66651,"zip":"81131","miles_from_dt":23.55},{"city":"Westcliffe","state_name":"Colorado","lat":38.10891,"lng":-105.42143,"zip":"81252","miles_from_dt":23.74},{"city":"La Veta","state_name":"Colorado","lat":37.47727,"lng":-105.06635,"zip":"81055","miles_from_dt":23.96},{"city":"Fort Garland","state_name":"Colorado","lat":37.44964,"lng":-105.32747,"zip":"81133","miles_from_dt":24.05},{"city":"Colorado City","state_name":"Colorado","lat":37.94152,"lng":-104.83714,"zip":"81019","miles_from_dt":24.76},{"city":"Mosca","state_name":"Colorado","lat":37.64616,"lng":-105.6776,"zip":"81146","miles_from_dt":25.55},{"city":"Beulah","state_name":"Colorado","lat":38.06352,"lng":-104.92966,"zip":"81023","miles_from_dt":25.56},{"city":"Wetmore","state_name":"Colorado","lat":38.18763,"lng":-105.07497,"zip":"81253","miles_from_dt":28.84}],"targetCityZipCode":"81040","targetCityState":"Colorado"},"__N_SSG":true}