{"pageProps":{"stateName":"Colorado","cityName":"henderson","nearbyCities":[{"city":"Dupont","state_name":"Colorado","lat":39.84403,"lng":-104.91842,"zip":"80024","miles_from_dt":3.45},{"city":"Denver","state_name":"Colorado","lat":39.89937,"lng":-104.94697,"zip":"80233","miles_from_dt":3.58},{"city":"Denver","state_name":"Colorado","lat":39.85472,"lng":-104.95867,"zip":"80229","miles_from_dt":4.59},{"city":"Thornton","state_name":"Colorado","lat":39.92876,"lng":-104.95492,"zip":"80241","miles_from_dt":4.9},{"city":"Commerce City","state_name":"Colorado","lat":39.8193,"lng":-104.91678,"zip":"80037","miles_from_dt":4.92},{"city":"Commerce City","state_name":"Colorado","lat":39.86448,"lng":-104.78868,"zip":"80022","miles_from_dt":5.17},{"city":"Eastlake","state_name":"Colorado","lat":39.93363,"lng":-104.9582,"zip":"80614","miles_from_dt":5.24},{"city":"Brighton","state_name":"Colorado","lat":39.96369,"lng":-104.90661,"zip":"80602","miles_from_dt":5.56},{"city":"Brighton","state_name":"Colorado","lat":39.96288,"lng":-104.80777,"zip":"80601","miles_from_dt":6.65},{"city":"Denver","state_name":"Colorado","lat":39.79002,"lng":-104.90021,"zip":"80266","miles_from_dt":6.65},{"city":"Denver","state_name":"Colorado","lat":39.86705,"lng":-105.00569,"zip":"80260","miles_from_dt":6.69},{"city":"Denver","state_name":"Colorado","lat":39.91208,"lng":-105.00526,"zip":"80234","miles_from_dt":6.8},{"city":"Denver","state_name":"Colorado","lat":39.78801,"lng":-104.8333,"zip":"80239","miles_from_dt":7.2},{"city":"Denver","state_name":"Colorado","lat":39.77722,"lng":-104.8808,"zip":"80238","miles_from_dt":7.46},{"city":"Denver","state_name":"Colorado","lat":39.83248,"lng":-105.00748,"zip":"80263","miles_from_dt":7.6},{"city":"Denver","state_name":"Colorado","lat":39.78659,"lng":-104.96187,"zip":"80216","miles_from_dt":8.03},{"city":"Denver","state_name":"Colorado","lat":39.768,"lng":-104.873,"zip":"80256","miles_from_dt":8.11},{"city":"Denver","state_name":"Colorado","lat":39.81555,"lng":-105.0103,"zip":"80221","miles_from_dt":8.35},{"city":"Westminster","state_name":"Colorado","lat":39.85985,"lng":-105.03731,"zip":"80036","miles_from_dt":8.44},{"city":"Westminster","state_name":"Colorado","lat":39.87522,"lng":-105.04039,"zip":"80031","miles_from_dt":8.45},{"city":"Westminster","state_name":"Colorado","lat":39.86205,"lng":-105.03979,"zip":"80035","miles_from_dt":8.54},{"city":"Denver","state_name":"Colorado","lat":39.76137,"lng":-104.91674,"zip":"80207","miles_from_dt":8.75},{"city":"Westminster","state_name":"Colorado","lat":39.83006,"lng":-105.03695,"zip":"80030","miles_from_dt":9.08},{"city":"Broomfield","state_name":"Colorado","lat":39.97407,"lng":-105.01011,"zip":"80023","miles_from_dt":9.15},{"city":"Denver","state_name":"Colorado","lat":39.75891,"lng":-104.96353,"zip":"80205","miles_from_dt":9.74},{"city":"Aurora","state_name":"Colorado","lat":39.74989,"lng":-104.82707,"zip":"80044","miles_from_dt":9.79},{"city":"Aurora","state_name":"Colorado","lat":39.74702,"lng":-104.83843,"zip":"80045","miles_from_dt":9.82},{"city":"Brighton","state_name":"Colorado","lat":39.9845,"lng":-104.74539,"zip":"80603","miles_from_dt":9.97},{"city":"Aurora","state_name":"Colorado","lat":39.73979,"lng":-104.86193,"zip":"80010","miles_from_dt":10.1},{"city":"Denver","state_name":"Colorado","lat":39.84964,"lng":-104.69496,"zip":"80249","miles_from_dt":10.25},{"city":"Arvada","state_name":"Colorado","lat":39.827,"lng":-105.06412,"zip":"80003","miles_from_dt":10.49},{"city":"Denver","state_name":"Colorado","lat":39.73375,"lng":-104.91648,"zip":"80220","miles_from_dt":10.62},{"city":"Broomfield","state_name":"Colorado","lat":39.93121,"lng":-105.07407,"zip":"80020","miles_from_dt":10.68},{"city":"Aurora","state_name":"Colorado","lat":39.73908,"lng":-104.80936,"zip":"80042","miles_from_dt":10.81},{"city":"Arvada","state_name":"Colorado","lat":39.8444,"lng":-105.07851,"zip":"80006","miles_from_dt":10.82},{"city":"Aurora","state_name":"Colorado","lat":39.74393,"lng":-104.78994,"zip":"80011","miles_from_dt":10.92},{"city":"Denver","state_name":"Colorado","lat":39.76715,"lng":-105.02006,"zip":"80211","miles_from_dt":10.97},{"city":"Denver","state_name":"Colorado","lat":39.74979,"lng":-104.98971,"zip":"80294","miles_from_dt":10.97},{"city":"Denver","state_name":"Colorado","lat":39.74974,"lng":-104.991,"zip":"80244","miles_from_dt":11.01},{"city":"Broomfield","state_name":"Colorado","lat":39.91955,"lng":-105.08557,"zip":"80038","miles_from_dt":11.07},{"city":"Denver","state_name":"Colorado","lat":39.75073,"lng":-104.99544,"zip":"80265","miles_from_dt":11.08},{"city":"Denver","state_name":"Colorado","lat":39.75156,"lng":-104.99768,"zip":"80202","miles_from_dt":11.09},{"city":"Denver","state_name":"Colorado","lat":39.75114,"lng":-104.99699,"zip":"80217","miles_from_dt":11.1},{"city":"Denver","state_name":"Colorado","lat":39.75109,"lng":-104.9995,"zip":"80257","miles_from_dt":11.17},{"city":"Denver","state_name":"Colorado","lat":39.74608,"lng":-104.98972,"zip":"80293","miles_from_dt":11.19},{"city":"Denver","state_name":"Colorado","lat":39.74411,"lng":-104.98675,"zip":"80290","miles_from_dt":11.23},{"city":"Denver","state_name":"Colorado","lat":39.74687,"lng":-104.99312,"zip":"80299","miles_from_dt":11.24},{"city":"Denver","state_name":"Colorado","lat":39.74321,"lng":-104.98588,"zip":"80291","miles_from_dt":11.26},{"city":"Denver","state_name":"Colorado","lat":39.74422,"lng":-104.98891,"zip":"80281","miles_from_dt":11.28},{"city":"Denver","state_name":"Colorado","lat":39.74456,"lng":-104.99007,"zip":"80271","miles_from_dt":11.29},{"city":"Denver","state_name":"Colorado","lat":39.74248,"lng":-104.98548,"zip":"80264","miles_from_dt":11.29},{"city":"Denver","state_name":"Colorado","lat":39.73041,"lng":-104.95258,"zip":"80206","miles_from_dt":11.33},{"city":"Denver","state_name":"Colorado","lat":39.74846,"lng":-104.99973,"zip":"80248","miles_from_dt":11.33},{"city":"Denver","state_name":"Colorado","lat":39.72032,"lng":-104.88933,"zip":"80230","miles_from_dt":11.39},{"city":"Denver","state_name":"Colorado","lat":39.74232,"lng":-104.98951,"zip":"80274","miles_from_dt":11.41},{"city":"Denver","state_name":"Colorado","lat":39.74032,"lng":-104.98758,"zip":"80259","miles_from_dt":11.47},{"city":"Denver","state_name":"Colorado","lat":39.73119,"lng":-104.97073,"zip":"80218","miles_from_dt":11.64},{"city":"Denver","state_name":"Colorado","lat":39.77174,"lng":-105.04819,"zip":"80212","miles_from_dt":11.81},{"city":"Denver","state_name":"Colorado","lat":39.73142,"lng":-104.98274,"zip":"80203","miles_from_dt":11.9},{"city":"Aurora","state_name":"Colorado","lat":39.78653,"lng":-104.6972,"zip":"80019","miles_from_dt":11.96},{"city":"Denver","state_name":"Colorado","lat":39.72758,"lng":-104.98829,"zip":"80273","miles_from_dt":12.27},{"city":"Arvada","state_name":"Colorado","lat":39.80198,"lng":-105.08715,"zip":"80001","miles_from_dt":12.33},{"city":"Broomfield","state_name":"Colorado","lat":39.89105,"lng":-105.11448,"zip":"80021","miles_from_dt":12.36},{"city":"Aurora","state_name":"Colorado","lat":39.7237,"lng":-104.76732,"zip":"80040","miles_from_dt":12.71},{"city":"Denver","state_name":"Colorado","lat":39.70461,"lng":-104.9314,"zip":"80246","miles_from_dt":12.74},{"city":"Denver","state_name":"Colorado","lat":39.73476,"lng":-105.0207,"zip":"80204","miles_from_dt":12.74},{"city":"Aurora","state_name":"Colorado","lat":39.70088,"lng":-104.83657,"zip":"80041","miles_from_dt":12.96},{"city":"Wheat Ridge","state_name":"Colorado","lat":39.77737,"lng":-105.08169,"zip":"80034","miles_from_dt":12.97},{"city":"Denver","state_name":"Colorado","lat":39.69684,"lng":-104.88127,"zip":"80247","miles_from_dt":13.01},{"city":"Aurora","state_name":"Colorado","lat":39.69976,"lng":-104.83784,"zip":"80012","miles_from_dt":13.02},{"city":"Denver","state_name":"Colorado","lat":39.70608,"lng":-104.9656,"zip":"80209","miles_from_dt":13.14},{"city":"Dacono","state_name":"Colorado","lat":40.07152,"lng":-104.95401,"zip":"80514","miles_from_dt":13.4},{"city":"Arvada","state_name":"Colorado","lat":39.85053,"lng":-105.13031,"zip":"80005","miles_from_dt":13.42},{"city":"Arvada","state_name":"Colorado","lat":39.79405,"lng":-105.10845,"zip":"80002","miles_from_dt":13.59},{"city":"Erie","state_name":"Colorado","lat":40.05333,"lng":-105.01869,"zip":"80516","miles_from_dt":13.67},{"city":"Denver","state_name":"Colorado","lat":39.68803,"lng":-104.91161,"zip":"80224","miles_from_dt":13.7},{"city":"Arvada","state_name":"Colorado","lat":39.81443,"lng":-105.12293,"zip":"80004","miles_from_dt":13.71},{"city":"Wheat Ridge","state_name":"Colorado","lat":39.77315,"lng":-105.10222,"zip":"80033","miles_from_dt":14.04},{"city":"Aurora","state_name":"Colorado","lat":39.69914,"lng":-104.7735,"zip":"80017","miles_from_dt":14.09},{"city":"Denver","state_name":"Colorado","lat":39.74205,"lng":-105.07123,"zip":"80214","miles_from_dt":14.11},{"city":"Aurora","state_name":"Colorado","lat":39.69891,"lng":-104.7651,"zip":"80047","miles_from_dt":14.29},{"city":"Denver","state_name":"Colorado","lat":39.68635,"lng":-104.96195,"zip":"80243","miles_from_dt":14.37},{"city":"Lafayette","state_name":"Colorado","lat":40.01188,"lng":-105.0985,"zip":"80026","miles_from_dt":14.43},{"city":"Denver","state_name":"Colorado","lat":39.69121,"lng":-104.98462,"zip":"80261","miles_from_dt":14.47},{"city":"Denver","state_name":"Colorado","lat":39.69646,"lng":-105.00216,"zip":"80223","miles_from_dt":14.52},{"city":"Denver","state_name":"Colorado","lat":39.6791,"lng":-104.94469,"zip":"80250","miles_from_dt":14.62},{"city":"Denver","state_name":"Colorado","lat":39.68048,"lng":-104.963,"zip":"80208","miles_from_dt":14.78},{"city":"Denver","state_name":"Colorado","lat":39.67123,"lng":-104.88787,"zip":"80231","miles_from_dt":14.78},{"city":"Denver","state_name":"Colorado","lat":39.6781,"lng":-104.96275,"zip":"80210","miles_from_dt":14.93},{"city":"Denver","state_name":"Colorado","lat":39.6713,"lng":-104.92828,"zip":"80222","miles_from_dt":14.97},{"city":"Frederick","state_name":"Colorado","lat":40.10153,"lng":-104.92302,"zip":"80530","miles_from_dt":15.07},{"city":"Denver","state_name":"Colorado","lat":39.69496,"lng":-105.03432,"zip":"80219","miles_from_dt":15.44},{"city":"Aurora","state_name":"Colorado","lat":39.66353,"lng":-104.83781,"zip":"80014","miles_from_dt":15.48},{"city":"Louisville","state_name":"Colorado","lat":39.9508,"lng":-105.16354,"zip":"80027","miles_from_dt":15.62},{"city":"Denver","state_name":"Colorado","lat":39.74412,"lng":-105.1158,"zip":"80215","miles_from_dt":15.8},{"city":"Fort Lupton","state_name":"Colorado","lat":40.10732,"lng":-104.79841,"zip":"80621","miles_from_dt":15.94},{"city":"Firestone","state_name":"Colorado","lat":40.11387,"lng":-104.93347,"zip":"80520","miles_from_dt":16},{"city":"Denver","state_name":"Colorado","lat":39.71081,"lng":-105.09155,"zip":"80226","miles_from_dt":16.41},{"city":"Denver","state_name":"Colorado","lat":39.72428,"lng":-105.11017,"zip":"80225","miles_from_dt":16.46},{"city":"Aurora","state_name":"Colorado","lat":39.66145,"lng":-104.76577,"zip":"80013","miles_from_dt":16.64},{"city":"Arvada","state_name":"Colorado","lat":39.8665,"lng":-105.19875,"zip":"80007","miles_from_dt":16.89},{"city":"Denver","state_name":"Colorado","lat":39.6955,"lng":-105.08411,"zip":"80201","miles_from_dt":16.95},{"city":"Denver","state_name":"Colorado","lat":39.63996,"lng":-104.90178,"zip":"80237","miles_from_dt":16.96},{"city":"Aurora","state_name":"Colorado","lat":39.69071,"lng":-104.68096,"zip":"80018","miles_from_dt":17.17},{"city":"Englewood","state_name":"Colorado","lat":39.64224,"lng":-104.96189,"zip":"80113","miles_from_dt":17.3},{"city":"Denver","state_name":"Colorado","lat":39.68892,"lng":-105.08983,"zip":"80232","miles_from_dt":17.49},{"city":"Englewood","state_name":"Colorado","lat":39.64394,"lng":-104.9843,"zip":"80151","miles_from_dt":17.52},{"city":"Englewood","state_name":"Colorado","lat":39.64321,"lng":-104.98544,"zip":"80150","miles_from_dt":17.59},{"city":"Englewood","state_name":"Colorado","lat":39.64612,"lng":-105.00928,"zip":"80110","miles_from_dt":17.84},{"city":"Denver","state_name":"Colorado","lat":39.65169,"lng":-105.03966,"zip":"80236","miles_from_dt":18.17},{"city":"Hudson","state_name":"Colorado","lat":40.05353,"lng":-104.61565,"zip":"80642","miles_from_dt":18.29},{"city":"Aurora","state_name":"Colorado","lat":39.62803,"lng":-104.7987,"zip":"80046","miles_from_dt":18.3},{"city":"Aurora","state_name":"Colorado","lat":39.62737,"lng":-104.79497,"zip":"80015","miles_from_dt":18.39},{"city":"Boulder","state_name":"Colorado","lat":39.97422,"lng":-105.21206,"zip":"80303","miles_from_dt":18.57},{"city":"Englewood","state_name":"Colorado","lat":39.6124,"lng":-104.88025,"zip":"80111","miles_from_dt":18.83},{"city":"Littleton","state_name":"Colorado","lat":39.61045,"lng":-104.95421,"zip":"80121","miles_from_dt":19.35},{"city":"Denver","state_name":"Colorado","lat":39.66331,"lng":-105.10536,"zip":"80227","miles_from_dt":19.39},{"city":"Watkins","state_name":"Colorado","lat":39.70901,"lng":-104.59235,"zip":"80137","miles_from_dt":19.64},{"city":"Denver","state_name":"Colorado","lat":39.69186,"lng":-105.15726,"zip":"80228","miles_from_dt":19.82},{"city":"Denver","state_name":"Colorado","lat":39.64615,"lng":-105.08909,"zip":"80235","miles_from_dt":19.85},{"city":"Golden","state_name":"Colorado","lat":39.75645,"lng":-105.21693,"zip":"80402","miles_from_dt":19.91},{"city":"Boulder","state_name":"Colorado","lat":39.98547,"lng":-105.23586,"zip":"80307","miles_from_dt":20.02},{"city":"Littleton","state_name":"Colorado","lat":39.61297,"lng":-105.01652,"zip":"80160","miles_from_dt":20.11},{"city":"Golden","state_name":"Colorado","lat":39.7284,"lng":-105.20239,"zip":"80419","miles_from_dt":20.2},{"city":"Boulder","state_name":"Colorado","lat":40.04795,"lng":-105.19876,"zip":"80301","miles_from_dt":20.21},{"city":"Englewood","state_name":"Colorado","lat":39.59134,"lng":-104.87695,"zip":"80155","miles_from_dt":20.29},{"city":"Littleton","state_name":"Colorado","lat":39.59694,"lng":-104.96163,"zip":"80161","miles_from_dt":20.35},{"city":"Boulder","state_name":"Colorado","lat":39.97733,"lng":-105.24877,"zip":"80305","miles_from_dt":20.49},{"city":"Longmont","state_name":"Colorado","lat":40.16523,"lng":-105.03029,"zip":"80504","miles_from_dt":20.85},{"city":"Littleton","state_name":"Colorado","lat":39.59588,"lng":-105.00826,"zip":"80165","miles_from_dt":21.07},{"city":"Littleton","state_name":"Colorado","lat":39.61578,"lng":-105.0692,"zip":"80123","miles_from_dt":21.1},{"city":"Littleton","state_name":"Colorado","lat":39.59403,"lng":-105.0098,"zip":"80166","miles_from_dt":21.22},{"city":"Littleton","state_name":"Colorado","lat":39.5929,"lng":-105.00949,"zip":"80120","miles_from_dt":21.29},{"city":"Littleton","state_name":"Colorado","lat":39.5806,"lng":-104.95573,"zip":"80122","miles_from_dt":21.39},{"city":"Niwot","state_name":"Colorado","lat":40.10305,"lng":-105.17178,"zip":"80544","miles_from_dt":21.49},{"city":"Englewood","state_name":"Colorado","lat":39.57288,"lng":-104.85854,"zip":"80112","miles_from_dt":21.59},{"city":"Boulder","state_name":"Colorado","lat":40.00465,"lng":-105.26254,"zip":"80310","miles_from_dt":21.82},{"city":"Aurora","state_name":"Colorado","lat":39.59391,"lng":-104.72311,"zip":"80016","miles_from_dt":21.82},{"city":"Boulder","state_name":"Colorado","lat":40.08778,"lng":-105.19941,"zip":"80314","miles_from_dt":21.88},{"city":"Eldorado Springs","state_name":"Colorado","lat":39.92444,"lng":-105.29226,"zip":"80025","miles_from_dt":21.96},{"city":"Golden","state_name":"Colorado","lat":39.71672,"lng":-105.23286,"zip":"80401","miles_from_dt":22},{"city":"Boulder","state_name":"Colorado","lat":40.00944,"lng":-105.26992,"zip":"80309","miles_from_dt":22.31},{"city":"Longmont","state_name":"Colorado","lat":40.16479,"lng":-105.10208,"zip":"80501","miles_from_dt":22.54},{"city":"Littleton","state_name":"Colorado","lat":39.59935,"lng":-105.10662,"zip":"80162","miles_from_dt":23.07},{"city":"Golden","state_name":"Colorado","lat":39.83229,"lng":-105.32013,"zip":"80403","miles_from_dt":23.58},{"city":"Littleton","state_name":"Colorado","lat":39.54588,"lng":-104.97441,"zip":"80163","miles_from_dt":23.93},{"city":"Longmont","state_name":"Colorado","lat":40.02728,"lng":-105.29667,"zip":"80502","miles_from_dt":24.1},{"city":"Littleton","state_name":"Colorado","lat":39.54127,"lng":-104.96251,"zip":"80126","miles_from_dt":24.12},{"city":"Boulder","state_name":"Colorado","lat":40.04557,"lng":-105.29006,"zip":"80304","miles_from_dt":24.32},{"city":"Lone Tree","state_name":"Colorado","lat":39.53197,"lng":-104.89173,"zip":"80124","miles_from_dt":24.39},{"city":"Littleton","state_name":"Colorado","lat":39.54521,"lng":-105.01203,"zip":"80129","miles_from_dt":24.47},{"city":"Idledale","state_name":"Colorado","lat":39.66477,"lng":-105.24285,"zip":"80453","miles_from_dt":24.51},{"city":"Platteville","state_name":"Colorado","lat":40.23717,"lng":-104.81409,"zip":"80651","miles_from_dt":24.54},{"city":"Littleton","state_name":"Colorado","lat":39.52918,"lng":-104.92448,"zip":"80130","miles_from_dt":24.68},{"city":"Littleton","state_name":"Colorado","lat":39.56167,"lng":-105.07914,"zip":"80128","miles_from_dt":24.68},{"city":"Mead","state_name":"Colorado","lat":40.23431,"lng":-104.99882,"zip":"80542","miles_from_dt":24.86},{"city":"Boulder","state_name":"Colorado","lat":40.04032,"lng":-105.30845,"zip":"80306","miles_from_dt":25.04},{"city":"Bennett","state_name":"Colorado","lat":39.73237,"lng":-104.43874,"zip":"80102","miles_from_dt":25.84},{"city":"Longmont","state_name":"Colorado","lat":40.16922,"lng":-105.20725,"zip":"80503","miles_from_dt":26.1},{"city":"Morrison","state_name":"Colorado","lat":39.60437,"lng":-105.21521,"zip":"80465","miles_from_dt":26.28},{"city":"Indian Hills","state_name":"Colorado","lat":39.63109,"lng":-105.25204,"zip":"80454","miles_from_dt":26.38},{"city":"Keenesburg","state_name":"Colorado","lat":40.11186,"lng":-104.47164,"zip":"80643","miles_from_dt":26.8},{"city":"Boulder","state_name":"Colorado","lat":40.0306,"lng":-105.35542,"zip":"80302","miles_from_dt":27.06},{"city":"Hygiene","state_name":"Colorado","lat":40.19954,"lng":-105.18805,"zip":"80533","miles_from_dt":27.08},{"city":"Kittredge","state_name":"Colorado","lat":39.65091,"lng":-105.29972,"zip":"80457","miles_from_dt":27.5},{"city":"Parker","state_name":"Colorado","lat":39.51649,"lng":-104.67114,"zip":"80138","miles_from_dt":27.82},{"city":"Gilcrest","state_name":"Colorado","lat":40.28531,"lng":-104.78253,"zip":"80623","miles_from_dt":28.09},{"city":"Parker","state_name":"Colorado","lat":39.48282,"lng":-104.77957,"zip":"80134","miles_from_dt":28.3},{"city":"Pinecliffe","state_name":"Colorado","lat":39.93507,"lng":-105.42048,"zip":"80471","miles_from_dt":28.81},{"city":"Louviers","state_name":"Colorado","lat":39.47627,"lng":-105.00899,"zip":"80131","miles_from_dt":29.02},{"city":"Littleton","state_name":"Colorado","lat":39.52249,"lng":-105.15773,"zip":"80127","miles_from_dt":29.03},{"city":"Littleton","state_name":"Colorado","lat":39.48546,"lng":-105.05737,"zip":"80125","miles_from_dt":29.13},{"city":"Evergreen","state_name":"Colorado","lat":39.63559,"lng":-105.34079,"zip":"80437","miles_from_dt":29.89}],"targetCityZipCode":"80640","targetCityState":"Colorado"},"__N_SSG":true}