{"pageProps":{"stateName":"Colorado","cityName":"las-animas","nearbyCities":[{"city":"Fort Lyon","state_name":"Colorado","lat":37.91096,"lng":-103.09811,"zip":"81038","miles_from_dt":5.57},{"city":"Hasty","state_name":"Colorado","lat":37.90328,"lng":-102.93628,"zip":"81044","miles_from_dt":14.19},{"city":"La Junta","state_name":"Colorado","lat":37.92266,"lng":-103.51528,"zip":"81050","miles_from_dt":17.69},{"city":"Cheraw","state_name":"Colorado","lat":38.10322,"lng":-103.51876,"zip":"81030","miles_from_dt":23.18},{"city":"McClave","state_name":"Colorado","lat":38.12525,"lng":-102.89675,"zip":"81057","miles_from_dt":23.18},{"city":"Swink","state_name":"Colorado","lat":38.01374,"lng":-103.60985,"zip":"81077","miles_from_dt":24.32},{"city":"Wiley","state_name":"Colorado","lat":38.20283,"lng":-102.86779,"zip":"81092","miles_from_dt":28.22},{"city":"Lamar","state_name":"Colorado","lat":37.94242,"lng":-102.65625,"zip":"81052","miles_from_dt":29.69}],"targetCityZipCode":"81054","targetCityState":"Colorado"},"__N_SSG":true}