{"pageProps":{"stateName":"Colorado","cityName":"nunn","nearbyCities":[{"city":"Pierce","state_name":"Colorado","lat":40.6484,"lng":-104.77666,"zip":"80650","miles_from_dt":8.48},{"city":"Ault","state_name":"Colorado","lat":40.66996,"lng":-104.58269,"zip":"80610","miles_from_dt":10.09},{"city":"Carr","state_name":"Colorado","lat":40.89924,"lng":-104.82287,"zip":"80612","miles_from_dt":10.47},{"city":"Eaton","state_name":"Colorado","lat":40.5444,"lng":-104.64236,"zip":"80615","miles_from_dt":15.91},{"city":"Fort Collins","state_name":"Colorado","lat":40.64814,"lng":-105.02155,"zip":"80524","miles_from_dt":17.41},{"city":"Severance","state_name":"Colorado","lat":40.52415,"lng":-104.84986,"zip":"80546","miles_from_dt":17.85},{"city":"Wellington","state_name":"Colorado","lat":40.84341,"lng":-105.05499,"zip":"80549","miles_from_dt":17.96},{"city":"Lucerne","state_name":"Colorado","lat":40.47537,"lng":-104.69761,"zip":"80646","miles_from_dt":20.09},{"city":"Timnath","state_name":"Colorado","lat":40.52948,"lng":-104.96347,"zip":"80547","miles_from_dt":20.45},{"city":"Cheyenne","state_name":"Wyoming","lat":41.06231,"lng":-104.75591,"zip":"82007","miles_from_dt":20.53},{"city":"Galeton","state_name":"Colorado","lat":40.54235,"lng":-104.44732,"zip":"80622","miles_from_dt":21.33},{"city":"Windsor","state_name":"Colorado","lat":40.48213,"lng":-104.90223,"zip":"80550","miles_from_dt":21.59},{"city":"Fort Collins","state_name":"Colorado","lat":40.56532,"lng":-105.04545,"zip":"80553","miles_from_dt":21.65},{"city":"Windsor","state_name":"Colorado","lat":40.4775,"lng":-104.90083,"zip":"80551","miles_from_dt":21.85},{"city":"Greeley","state_name":"Colorado","lat":40.44216,"lng":-104.67809,"zip":"80631","miles_from_dt":22.47},{"city":"Fort Collins","state_name":"Colorado","lat":40.57224,"lng":-105.08609,"zip":"80523","miles_from_dt":23.06},{"city":"Fort Collins","state_name":"Colorado","lat":40.52795,"lng":-105.04249,"zip":"80525","miles_from_dt":23.28},{"city":"Cheyenne","state_name":"Wyoming","lat":41.10391,"lng":-104.78312,"zip":"82010","miles_from_dt":23.52},{"city":"Fort Collins","state_name":"Colorado","lat":40.49343,"lng":-105.00075,"zip":"80528","miles_from_dt":23.62},{"city":"Greeley","state_name":"Colorado","lat":40.42383,"lng":-104.69538,"zip":"80633","miles_from_dt":23.64},{"city":"Greeley","state_name":"Colorado","lat":40.42299,"lng":-104.69801,"zip":"80632","miles_from_dt":23.69},{"city":"Greeley","state_name":"Colorado","lat":40.42176,"lng":-104.74404,"zip":"80638","miles_from_dt":23.74},{"city":"Fort Collins","state_name":"Colorado","lat":40.59372,"lng":-105.1268,"zip":"80521","miles_from_dt":24.07},{"city":"Fort Collins","state_name":"Colorado","lat":40.59454,"lng":-105.1274,"zip":"80522","miles_from_dt":24.07},{"city":"Fort Collins","state_name":"Colorado","lat":40.53323,"lng":-105.07119,"zip":"80527","miles_from_dt":24.13},{"city":"Laporte","state_name":"Colorado","lat":40.73718,"lng":-105.19292,"zip":"80535","miles_from_dt":24.47},{"city":"Cheyenne","state_name":"Wyoming","lat":41.095,"lng":-104.93265,"zip":"82001","miles_from_dt":25.12},{"city":"Greeley","state_name":"Colorado","lat":40.4012,"lng":-104.70136,"zip":"80639","miles_from_dt":25.18},{"city":"Greeley","state_name":"Colorado","lat":40.40075,"lng":-104.79222,"zip":"80634","miles_from_dt":25.4},{"city":"Gill","state_name":"Colorado","lat":40.45683,"lng":-104.45635,"zip":"80624","miles_from_dt":25.66},{"city":"Cheyenne","state_name":"Wyoming","lat":41.14224,"lng":-104.82284,"zip":"82002","miles_from_dt":26.46},{"city":"Hereford","state_name":"Colorado","lat":40.9884,"lng":-104.30525,"zip":"80732","miles_from_dt":26.96},{"city":"Evans","state_name":"Colorado","lat":40.37425,"lng":-104.71337,"zip":"80620","miles_from_dt":27.01},{"city":"Briggsdale","state_name":"Colorado","lat":40.62015,"lng":-104.24964,"zip":"80611","miles_from_dt":27.06},{"city":"Fe Warren Afb","state_name":"Wyoming","lat":41.14631,"lng":-104.86787,"zip":"82005","miles_from_dt":27.27},{"city":"Fort Collins","state_name":"Colorado","lat":40.5174,"lng":-105.13262,"zip":"80526","miles_from_dt":27.3},{"city":"Grover","state_name":"Colorado","lat":40.87439,"lng":-104.22632,"zip":"80729","miles_from_dt":27.36},{"city":"Cheyenne","state_name":"Wyoming","lat":41.16632,"lng":-104.78824,"zip":"82003","miles_from_dt":27.83},{"city":"Carpenter","state_name":"Wyoming","lat":41.0647,"lng":-104.35899,"zip":"82054","miles_from_dt":28.27},{"city":"Milliken","state_name":"Colorado","lat":40.34645,"lng":-104.8532,"zip":"80543","miles_from_dt":29.66}],"targetCityZipCode":"80648","targetCityState":"Colorado"},"__N_SSG":true}