{"pageProps":{"stateName":"Colorado","cityName":"parlin","nearbyCities":[{"city":"Ohio City","state_name":"Colorado","lat":38.62842,"lng":-106.59108,"zip":"81237","miles_from_dt":6.4},{"city":"Pitkin","state_name":"Colorado","lat":38.62675,"lng":-106.48848,"zip":"81241","miles_from_dt":8.98},{"city":"Sargents","state_name":"Colorado","lat":38.3991,"lng":-106.47763,"zip":"81248","miles_from_dt":11.84},{"city":"Gunnison","state_name":"Colorado","lat":38.54864,"lng":-106.91861,"zip":"81231","miles_from_dt":16.83},{"city":"Monarch","state_name":"Colorado","lat":38.54934,"lng":-106.29009,"zip":"81227","miles_from_dt":17.26},{"city":"Almont","state_name":"Colorado","lat":38.81898,"lng":-106.62219,"zip":"81210","miles_from_dt":19.49},{"city":"Nathrop","state_name":"Colorado","lat":38.6955,"lng":-106.25424,"zip":"81236","miles_from_dt":22.07},{"city":"Gunnison","state_name":"Colorado","lat":38.40752,"lng":-106.98372,"zip":"81230","miles_from_dt":22.22},{"city":"Salida","state_name":"Colorado","lat":38.55129,"lng":-106.08157,"zip":"81201","miles_from_dt":28.55},{"city":"Crested Butte","state_name":"Colorado","lat":38.87985,"lng":-106.90957,"zip":"81224","miles_from_dt":28.73},{"city":"Poncha Springs","state_name":"Colorado","lat":38.47181,"lng":-106.07288,"zip":"81242","miles_from_dt":29.36}],"targetCityZipCode":"81239","targetCityState":"Colorado"},"__N_SSG":true}