{"pageProps":{"stateName":"Colorado","cityName":"strasburg","nearbyCities":[{"city":"Bennett","state_name":"Colorado","lat":39.73237,"lng":-104.43874,"zip":"80102","miles_from_dt":9.18},{"city":"Byers","state_name":"Colorado","lat":39.78035,"lng":-104.09576,"zip":"80103","miles_from_dt":10.82},{"city":"Watkins","state_name":"Colorado","lat":39.70901,"lng":-104.59235,"zip":"80137","miles_from_dt":17.17},{"city":"Roggen","state_name":"Colorado","lat":40.11048,"lng":-104.2751,"zip":"80652","miles_from_dt":20.95},{"city":"Aurora","state_name":"Colorado","lat":39.78653,"lng":-104.6972,"zip":"80019","miles_from_dt":21.39},{"city":"Denver","state_name":"Colorado","lat":39.84964,"lng":-104.69496,"zip":"80249","miles_from_dt":21.42},{"city":"Deer Trail","state_name":"Colorado","lat":39.62679,"lng":-103.96078,"zip":"80105","miles_from_dt":21.78},{"city":"Aurora","state_name":"Colorado","lat":39.69071,"lng":-104.68096,"zip":"80018","miles_from_dt":22.02},{"city":"Keenesburg","state_name":"Colorado","lat":40.11186,"lng":-104.47164,"zip":"80643","miles_from_dt":22.99},{"city":"Hudson","state_name":"Colorado","lat":40.05353,"lng":-104.61565,"zip":"80642","miles_from_dt":24.01},{"city":"Wiggins","state_name":"Colorado","lat":40.13501,"lng":-104.07642,"zip":"80654","miles_from_dt":25.44},{"city":"Aurora","state_name":"Colorado","lat":39.7237,"lng":-104.76732,"zip":"80040","miles_from_dt":25.74},{"city":"Aurora","state_name":"Colorado","lat":39.69891,"lng":-104.7651,"zip":"80047","miles_from_dt":26.07},{"city":"Commerce City","state_name":"Colorado","lat":39.86448,"lng":-104.78868,"zip":"80022","miles_from_dt":26.49},{"city":"Aurora","state_name":"Colorado","lat":39.69914,"lng":-104.7735,"zip":"80017","miles_from_dt":26.49},{"city":"Aurora","state_name":"Colorado","lat":39.74393,"lng":-104.78994,"zip":"80011","miles_from_dt":26.65},{"city":"Brighton","state_name":"Colorado","lat":39.9845,"lng":-104.74539,"zip":"80603","miles_from_dt":26.82},{"city":"Aurora","state_name":"Colorado","lat":39.66145,"lng":-104.76577,"zip":"80013","miles_from_dt":26.96},{"city":"Aurora","state_name":"Colorado","lat":39.59391,"lng":-104.72311,"zip":"80016","miles_from_dt":27.1},{"city":"Aurora","state_name":"Colorado","lat":39.73908,"lng":-104.80936,"zip":"80042","miles_from_dt":27.72},{"city":"Parker","state_name":"Colorado","lat":39.51649,"lng":-104.67114,"zip":"80138","miles_from_dt":28.33},{"city":"Aurora","state_name":"Colorado","lat":39.74989,"lng":-104.82707,"zip":"80044","miles_from_dt":28.54},{"city":"Denver","state_name":"Colorado","lat":39.78801,"lng":-104.8333,"zip":"80239","miles_from_dt":28.62},{"city":"Aurora","state_name":"Colorado","lat":39.74702,"lng":-104.83843,"zip":"80045","miles_from_dt":29.17},{"city":"Brighton","state_name":"Colorado","lat":39.96288,"lng":-104.80777,"zip":"80601","miles_from_dt":29.24},{"city":"Aurora","state_name":"Colorado","lat":39.62737,"lng":-104.79497,"zip":"80015","miles_from_dt":29.33},{"city":"Aurora","state_name":"Colorado","lat":39.62803,"lng":-104.7987,"zip":"80046","miles_from_dt":29.49},{"city":"Aurora","state_name":"Colorado","lat":39.70088,"lng":-104.83657,"zip":"80041","miles_from_dt":29.7},{"city":"Aurora","state_name":"Colorado","lat":39.69976,"lng":-104.83784,"zip":"80012","miles_from_dt":29.79}],"targetCityZipCode":"80136","targetCityState":"Colorado"},"__N_SSG":true}