{"pageProps":{"stateName":"Indiana","cityName":"albany","nearbyCities":[{"city":"Muncie","state_name":"Indiana","lat":40.27108,"lng":-85.37648,"zip":"47303","miles_from_dt":5.8},{"city":"Eaton","state_name":"Indiana","lat":40.34363,"lng":-85.33977,"zip":"47338","miles_from_dt":5.9},{"city":"Redkey","state_name":"Indiana","lat":40.33863,"lng":-85.15356,"zip":"47373","miles_from_dt":7.29},{"city":"Parker City","state_name":"Indiana","lat":40.18082,"lng":-85.20025,"zip":"47368","miles_from_dt":7.63},{"city":"Muncie","state_name":"Indiana","lat":40.19387,"lng":-85.38556,"zip":"47305","miles_from_dt":8.57},{"city":"Dunkirk","state_name":"Indiana","lat":40.39694,"lng":-85.20821,"zip":"47336","miles_from_dt":8.73},{"city":"Selma","state_name":"Indiana","lat":40.15123,"lng":-85.26399,"zip":"47383","miles_from_dt":8.8},{"city":"Muncie","state_name":"Indiana","lat":40.20542,"lng":-85.40726,"zip":"47306","miles_from_dt":8.97},{"city":"Muncie","state_name":"Indiana","lat":40.17769,"lng":-85.39506,"zip":"47307","miles_from_dt":9.71},{"city":"Farmland","state_name":"Indiana","lat":40.181,"lng":-85.1318,"zip":"47340","miles_from_dt":9.83},{"city":"Muncie","state_name":"Indiana","lat":40.23398,"lng":-85.45973,"zip":"47304","miles_from_dt":10.64},{"city":"Muncie","state_name":"Indiana","lat":40.12992,"lng":-85.37553,"zip":"47302","miles_from_dt":11.76},{"city":"Muncie","state_name":"Indiana","lat":40.13032,"lng":-85.37925,"zip":"47308","miles_from_dt":11.83},{"city":"Ridgeville","state_name":"Indiana","lat":40.28553,"lng":-85.03439,"zip":"47380","miles_from_dt":12.31},{"city":"Hartford City","state_name":"Indiana","lat":40.45725,"lng":-85.34855,"zip":"47348","miles_from_dt":13.05},{"city":"Gaston","state_name":"Indiana","lat":40.32184,"lng":-85.5105,"zip":"47342","miles_from_dt":13.19},{"city":"Matthews","state_name":"Indiana","lat":40.38866,"lng":-85.49917,"zip":"46957","miles_from_dt":14.41},{"city":"Yorktown","state_name":"Indiana","lat":40.18661,"lng":-85.51632,"zip":"47396","miles_from_dt":14.63},{"city":"Oakville","state_name":"Indiana","lat":40.08366,"lng":-85.39207,"zip":"47367","miles_from_dt":14.99},{"city":"Upland","state_name":"Indiana","lat":40.45056,"lng":-85.48115,"zip":"46989","miles_from_dt":16.37},{"city":"Losantville","state_name":"Indiana","lat":40.04628,"lng":-85.19933,"zip":"47354","miles_from_dt":16.43},{"city":"Winchester","state_name":"Indiana","lat":40.1679,"lng":-84.98667,"zip":"47394","miles_from_dt":16.69},{"city":"Springport","state_name":"Indiana","lat":40.05277,"lng":-85.38305,"zip":"47386","miles_from_dt":16.75},{"city":"Pennville","state_name":"Indiana","lat":40.50714,"lng":-85.14715,"zip":"47369","miles_from_dt":16.99},{"city":"Modoc","state_name":"Indiana","lat":40.05488,"lng":-85.11204,"zip":"47358","miles_from_dt":17.49},{"city":"Daleville","state_name":"Indiana","lat":40.11267,"lng":-85.52357,"zip":"47334","miles_from_dt":17.75},{"city":"Mooreland","state_name":"Indiana","lat":40.01677,"lng":-85.2614,"zip":"47360","miles_from_dt":18.07},{"city":"Fowlerton","state_name":"Indiana","lat":40.40946,"lng":-85.57261,"zip":"46930","miles_from_dt":18.48},{"city":"Saratoga","state_name":"Indiana","lat":40.23692,"lng":-84.91845,"zip":"47382","miles_from_dt":18.66},{"city":"Montpelier","state_name":"Indiana","lat":40.55203,"lng":-85.28642,"zip":"47359","miles_from_dt":18.89},{"city":"Portland","state_name":"Indiana","lat":40.41874,"lng":-84.95896,"zip":"47371","miles_from_dt":18.92},{"city":"Mount Summit","state_name":"Indiana","lat":40.00415,"lng":-85.38492,"zip":"47361","miles_from_dt":19.94},{"city":"Alexandria","state_name":"Indiana","lat":40.25141,"lng":-85.65838,"zip":"46001","miles_from_dt":20.76},{"city":"Anderson","state_name":"Indiana","lat":40.1492,"lng":-85.62552,"zip":"46012","miles_from_dt":20.95},{"city":"Sulphur Springs","state_name":"Indiana","lat":40.0056,"lng":-85.44352,"zip":"47388","miles_from_dt":21.03},{"city":"Summitville","state_name":"Indiana","lat":40.34315,"lng":-85.65928,"zip":"46070","miles_from_dt":21.18},{"city":"Middletown","state_name":"Indiana","lat":40.03079,"lng":-85.50415,"zip":"47356","miles_from_dt":21.21},{"city":"Gas City","state_name":"Indiana","lat":40.47887,"lng":-85.58091,"zip":"46933","miles_from_dt":21.56},{"city":"Keystone","state_name":"Indiana","lat":40.59855,"lng":-85.18299,"zip":"46759","miles_from_dt":22.51},{"city":"Salamonia","state_name":"Indiana","lat":40.38665,"lng":-84.86465,"zip":"47381","miles_from_dt":22.52},{"city":"Union City","state_name":"Indiana","lat":40.20625,"lng":-84.84671,"zip":"47390","miles_from_dt":22.79},{"city":"Anderson","state_name":"Indiana","lat":40.07358,"lng":-85.60687,"zip":"46017","miles_from_dt":22.88},{"city":"Jonesboro","state_name":"Indiana","lat":40.4482,"lng":-85.64892,"zip":"46938","miles_from_dt":23.3},{"city":"Economy","state_name":"Indiana","lat":39.96337,"lng":-85.09471,"zip":"47339","miles_from_dt":23.6},{"city":"Petroleum","state_name":"Indiana","lat":40.61055,"lng":-85.15491,"zip":"46778","miles_from_dt":23.65},{"city":"Fairmount","state_name":"Indiana","lat":40.40763,"lng":-85.68618,"zip":"46928","miles_from_dt":23.84},{"city":"Orestes","state_name":"Indiana","lat":40.27184,"lng":-85.72389,"zip":"46063","miles_from_dt":24.14},{"city":"Bryant","state_name":"Indiana","lat":40.54597,"lng":-84.97018,"zip":"47326","miles_from_dt":24.2},{"city":"Lynn","state_name":"Indiana","lat":40.04376,"lng":-84.9258,"zip":"47355","miles_from_dt":24.28},{"city":"Hagerstown","state_name":"Indiana","lat":39.93442,"lng":-85.16306,"zip":"47346","miles_from_dt":24.39},{"city":"New Castle","state_name":"Indiana","lat":39.93186,"lng":-85.36998,"zip":"47362","miles_from_dt":24.54},{"city":"Anderson","state_name":"Indiana","lat":40.1086,"lng":-85.67518,"zip":"46015","miles_from_dt":24.57},{"city":"Poneto","state_name":"Indiana","lat":40.63659,"lng":-85.27339,"zip":"46781","miles_from_dt":24.7},{"city":"Anderson","state_name":"Indiana","lat":40.09781,"lng":-85.68152,"zip":"46016","miles_from_dt":25.23},{"city":"Anderson","state_name":"Indiana","lat":40.08703,"lng":-85.67633,"zip":"46014","miles_from_dt":25.37},{"city":"Anderson","state_name":"Indiana","lat":40.09334,"lng":-85.6854,"zip":"46018","miles_from_dt":25.56},{"city":"Williamsburg","state_name":"Indiana","lat":39.96559,"lng":-85.00325,"zip":"47393","miles_from_dt":25.73},{"city":"Marion","state_name":"Indiana","lat":40.51928,"lng":-85.643,"zip":"46953","miles_from_dt":25.86},{"city":"Union City","state_name":"Ohio","lat":40.21894,"lng":-84.76778,"zip":"45390","miles_from_dt":26.72},{"city":"Anderson","state_name":"Indiana","lat":40.05021,"lng":-85.67829,"zip":"46013","miles_from_dt":26.87},{"city":"Van Buren","state_name":"Indiana","lat":40.63034,"lng":-85.50642,"zip":"46991","miles_from_dt":27.34},{"city":"Geneva","state_name":"Indiana","lat":40.60298,"lng":-84.9638,"zip":"46740","miles_from_dt":27.5},{"city":"Markleville","state_name":"Indiana","lat":39.97351,"lng":-85.6105,"zip":"46056","miles_from_dt":27.82},{"city":"Frankton","state_name":"Indiana","lat":40.2085,"lng":-85.79026,"zip":"46044","miles_from_dt":28.08},{"city":"Linn Grove","state_name":"Indiana","lat":40.64445,"lng":-85.03123,"zip":"46769","miles_from_dt":28.13},{"city":"Anderson","state_name":"Indiana","lat":40.12759,"lng":-85.76178,"zip":"46011","miles_from_dt":28.17},{"city":"New Lisbon","state_name":"Indiana","lat":39.86127,"lng":-85.26068,"zip":"47366","miles_from_dt":28.8},{"city":"Fountain City","state_name":"Indiana","lat":39.9741,"lng":-84.89361,"zip":"47341","miles_from_dt":28.86},{"city":"Fort Recovery","state_name":"Ohio","lat":40.40986,"lng":-84.74644,"zip":"45846","miles_from_dt":28.94},{"city":"Kennard","state_name":"Indiana","lat":39.90442,"lng":-85.52001,"zip":"47351","miles_from_dt":29.09},{"city":"Greens Fork","state_name":"Indiana","lat":39.892,"lng":-85.04765,"zip":"47345","miles_from_dt":29.11},{"city":"Marion","state_name":"Indiana","lat":40.59882,"lng":-85.63249,"zip":"46952","miles_from_dt":29.3},{"city":"Shirley","state_name":"Indiana","lat":39.91365,"lng":-85.55352,"zip":"47384","miles_from_dt":29.4},{"city":"Warren","state_name":"Indiana","lat":40.68472,"lng":-85.43798,"zip":"46792","miles_from_dt":29.42},{"city":"Greensboro","state_name":"Indiana","lat":39.87857,"lng":-85.464,"zip":"47344","miles_from_dt":29.51},{"city":"Liberty Center","state_name":"Indiana","lat":40.70984,"lng":-85.29424,"zip":"46766","miles_from_dt":29.78},{"city":"Elwood","state_name":"Indiana","lat":40.29689,"lng":-85.83289,"zip":"46036","miles_from_dt":29.92}],"targetCityZipCode":"47320","targetCityState":"Indiana"},"__N_SSG":true}