{"pageProps":{"stateName":"Indiana","cityName":"boswell","nearbyCities":[{"city":"Ambia","state_name":"Indiana","lat":40.46881,"lng":-87.47633,"zip":"47917","miles_from_dt":5.39},{"city":"Pine Village","state_name":"Indiana","lat":40.44436,"lng":-87.25348,"zip":"47975","miles_from_dt":6.81},{"city":"Oxford","state_name":"Indiana","lat":40.52946,"lng":-87.23751,"zip":"47971","miles_from_dt":8.05},{"city":"Templeton","state_name":"Indiana","lat":40.51384,"lng":-87.20719,"zip":"47986","miles_from_dt":9.16},{"city":"Fowler","state_name":"Indiana","lat":40.61067,"lng":-87.32804,"zip":"47944","miles_from_dt":9.45},{"city":"Williamsport","state_name":"Indiana","lat":40.31161,"lng":-87.41603,"zip":"47993","miles_from_dt":11.71},{"city":"Otterbein","state_name":"Indiana","lat":40.47423,"lng":-87.13031,"zip":"47970","miles_from_dt":12.89},{"city":"West Lebanon","state_name":"Indiana","lat":40.28034,"lng":-87.44794,"zip":"47991","miles_from_dt":14.2},{"city":"Stockland","state_name":"Illinois","lat":40.6241,"lng":-87.58123,"zip":"60967","miles_from_dt":14.8},{"city":"Earl Park","state_name":"Indiana","lat":40.68791,"lng":-87.4472,"zip":"47942","miles_from_dt":14.95},{"city":"Attica","state_name":"Indiana","lat":40.30388,"lng":-87.20628,"zip":"47918","miles_from_dt":14.97},{"city":"Hoopeston","state_name":"Illinois","lat":40.46678,"lng":-87.66134,"zip":"60942","miles_from_dt":15.12},{"city":"Wellington","state_name":"Illinois","lat":40.53654,"lng":-87.66265,"zip":"60973","miles_from_dt":15.68},{"city":"Rossville","state_name":"Illinois","lat":40.36848,"lng":-87.65115,"zip":"60963","miles_from_dt":16.43},{"city":"Alvin","state_name":"Illinois","lat":40.29531,"lng":-87.62162,"zip":"61811","miles_from_dt":18.14},{"city":"Montmorenci","state_name":"Indiana","lat":40.47418,"lng":-87.03001,"zip":"47962","miles_from_dt":18.17},{"city":"Milford","state_name":"Illinois","lat":40.62854,"lng":-87.6894,"zip":"60953","miles_from_dt":19.53},{"city":"Bismarck","state_name":"Illinois","lat":40.23191,"lng":-87.57018,"zip":"61814","miles_from_dt":19.89},{"city":"Westpoint","state_name":"Indiana","lat":40.31933,"lng":-87.0519,"zip":"47992","miles_from_dt":20.26},{"city":"West Lafayette","state_name":"Indiana","lat":40.48541,"lng":-86.98584,"zip":"47906","miles_from_dt":20.5},{"city":"Henning","state_name":"Illinois","lat":40.30694,"lng":-87.70096,"zip":"61848","miles_from_dt":20.88},{"city":"State Line","state_name":"Indiana","lat":40.19728,"lng":-87.5268,"zip":"47982","miles_from_dt":20.99},{"city":"Goodland","state_name":"Indiana","lat":40.77638,"lng":-87.28676,"zip":"47948","miles_from_dt":21.08},{"city":"Sheldon","state_name":"Illinois","lat":40.75144,"lng":-87.58321,"zip":"60966","miles_from_dt":21.8},{"city":"Kentland","state_name":"Indiana","lat":40.79049,"lng":-87.4435,"zip":"47951","miles_from_dt":21.84},{"city":"Goodwine","state_name":"Illinois","lat":40.56696,"lng":-87.77714,"zip":"60939","miles_from_dt":22.05},{"city":"Newtown","state_name":"Indiana","lat":40.20355,"lng":-87.14892,"zip":"47969","miles_from_dt":22.4},{"city":"East Lynn","state_name":"Illinois","lat":40.46513,"lng":-87.80013,"zip":"60932","miles_from_dt":22.43},{"city":"Remington","state_name":"Indiana","lat":40.76132,"lng":-87.15786,"zip":"47977","miles_from_dt":22.61},{"city":"Claytonville","state_name":"Illinois","lat":40.56937,"lng":-87.81208,"zip":"60926","miles_from_dt":23.86},{"city":"Covington","state_name":"Indiana","lat":40.12764,"lng":-87.40761,"zip":"47932","miles_from_dt":24.26},{"city":"West Lafayette","state_name":"Indiana","lat":40.42474,"lng":-86.91665,"zip":"47907","miles_from_dt":24.43},{"city":"West Lafayette","state_name":"Indiana","lat":40.44384,"lng":-86.91141,"zip":"47996","miles_from_dt":24.54},{"city":"Mellott","state_name":"Indiana","lat":40.16452,"lng":-87.14862,"zip":"47958","miles_from_dt":24.73},{"city":"Woodland","state_name":"Illinois","lat":40.71807,"lng":-87.73588,"zip":"60974","miles_from_dt":25.18},{"city":"Brookston","state_name":"Indiana","lat":40.61015,"lng":-86.92667,"zip":"47923","miles_from_dt":25.28},{"city":"Potomac","state_name":"Illinois","lat":40.30362,"lng":-87.80047,"zip":"61865","miles_from_dt":25.49},{"city":"Wingate","state_name":"Indiana","lat":40.18233,"lng":-87.08231,"zip":"47994","miles_from_dt":25.61},{"city":"Danville","state_name":"Illinois","lat":40.16428,"lng":-87.64028,"zip":"61834","miles_from_dt":25.81},{"city":"Veedersburg","state_name":"Indiana","lat":40.11916,"lng":-87.23428,"zip":"47987","miles_from_dt":25.87},{"city":"Lafayette","state_name":"Indiana","lat":40.4178,"lng":-86.88995,"zip":"47901","miles_from_dt":25.9},{"city":"Wolcott","state_name":"Indiana","lat":40.75861,"lng":-87.0329,"zip":"47995","miles_from_dt":26.4},{"city":"Lafayette","state_name":"Indiana","lat":40.43835,"lng":-86.87609,"zip":"47904","miles_from_dt":26.43},{"city":"Iroquois","state_name":"Illinois","lat":40.8315,"lng":-87.59236,"zip":"60945","miles_from_dt":26.91},{"city":"Lafayette","state_name":"Indiana","lat":40.32357,"lng":-86.89933,"zip":"47909","miles_from_dt":27.26},{"city":"Rankin","state_name":"Illinois","lat":40.43879,"lng":-87.89132,"zip":"60960","miles_from_dt":27.36},{"city":"Cissna Park","state_name":"Illinois","lat":40.55855,"lng":-87.88454,"zip":"60924","miles_from_dt":27.4},{"city":"Brook","state_name":"Indiana","lat":40.8762,"lng":-87.35369,"zip":"47922","miles_from_dt":27.47},{"city":"Danville","state_name":"Illinois","lat":40.13186,"lng":-87.63256,"zip":"61832","miles_from_dt":27.51},{"city":"Chalmers","state_name":"Indiana","lat":40.67587,"lng":-86.9185,"zip":"47929","miles_from_dt":27.61},{"city":"Lafayette","state_name":"Indiana","lat":40.41733,"lng":-86.85522,"zip":"47903","miles_from_dt":27.71},{"city":"New Richmond","state_name":"Indiana","lat":40.1942,"lng":-86.99899,"zip":"47967","miles_from_dt":27.9},{"city":"Lafayette","state_name":"Indiana","lat":40.41638,"lng":-86.85129,"zip":"47902","miles_from_dt":27.93},{"city":"Collison","state_name":"Illinois","lat":40.22623,"lng":-87.79705,"zip":"61831","miles_from_dt":28.27},{"city":"Romney","state_name":"Indiana","lat":40.24599,"lng":-86.93128,"zip":"47981","miles_from_dt":28.38},{"city":"Watseka","state_name":"Illinois","lat":40.79221,"lng":-87.74039,"zip":"60970","miles_from_dt":28.95},{"city":"Battle Ground","state_name":"Indiana","lat":40.54712,"lng":-86.8195,"zip":"47920","miles_from_dt":29.63},{"city":"Tilton","state_name":"Illinois","lat":40.09914,"lng":-87.64718,"zip":"61833","miles_from_dt":29.86}],"targetCityZipCode":"47921","targetCityState":"Indiana"},"__N_SSG":true}