{"pageProps":{"stateName":"Indiana","cityName":"commiskey","nearbyCities":[{"city":"Paris Crossing","state_name":"Indiana","lat":38.8397,"lng":-85.71913,"zip":"47270","miles_from_dt":4.15},{"city":"Deputy","state_name":"Indiana","lat":38.7946,"lng":-85.63139,"zip":"47230","miles_from_dt":5.72},{"city":"Vernon","state_name":"Indiana","lat":38.98538,"lng":-85.6101,"zip":"47282","miles_from_dt":8.01},{"city":"Dupont","state_name":"Indiana","lat":38.89792,"lng":-85.4996,"zip":"47231","miles_from_dt":8.62},{"city":"Hayden","state_name":"Indiana","lat":38.98393,"lng":-85.74116,"zip":"47245","miles_from_dt":8.78},{"city":"North Vernon","state_name":"Indiana","lat":39.00818,"lng":-85.62685,"zip":"47265","miles_from_dt":9.32},{"city":"Austin","state_name":"Indiana","lat":38.75745,"lng":-85.7951,"zip":"47102","miles_from_dt":11.02},{"city":"Crothersville","state_name":"Indiana","lat":38.80289,"lng":-85.86688,"zip":"47229","miles_from_dt":12.38},{"city":"Lexington","state_name":"Indiana","lat":38.68215,"lng":-85.59759,"zip":"47138","miles_from_dt":13.69},{"city":"Scipio","state_name":"Indiana","lat":39.07472,"lng":-85.7359,"zip":"47273","miles_from_dt":14.42},{"city":"Butlerville","state_name":"Indiana","lat":39.0555,"lng":-85.48218,"zip":"47223","miles_from_dt":15.6},{"city":"Seymour","state_name":"Indiana","lat":38.96261,"lng":-85.92877,"zip":"47274","miles_from_dt":15.85},{"city":"Scottsburg","state_name":"Indiana","lat":38.68734,"lng":-85.84667,"zip":"47170","miles_from_dt":16.52},{"city":"Madison","state_name":"Indiana","lat":38.81867,"lng":-85.3552,"zip":"47250","miles_from_dt":16.73},{"city":"Hanover","state_name":"Indiana","lat":38.67214,"lng":-85.48177,"zip":"47243","miles_from_dt":16.89},{"city":"Jonesville","state_name":"Indiana","lat":39.05993,"lng":-85.88783,"zip":"47247","miles_from_dt":17.82},{"city":"Elizabethtown","state_name":"Indiana","lat":39.11297,"lng":-85.79428,"zip":"47232","miles_from_dt":18},{"city":"Grammer","state_name":"Indiana","lat":39.15181,"lng":-85.72536,"zip":"47236","miles_from_dt":19.44},{"city":"Underwood","state_name":"Indiana","lat":38.59947,"lng":-85.78197,"zip":"47177","miles_from_dt":20.18},{"city":"Cortland","state_name":"Indiana","lat":38.98594,"lng":-86.00395,"zip":"47228","miles_from_dt":20.21},{"city":"Nabb","state_name":"Indiana","lat":38.5942,"lng":-85.53866,"zip":"47147","miles_from_dt":20.4},{"city":"Holton","state_name":"Indiana","lat":39.07255,"lng":-85.37467,"zip":"47023","miles_from_dt":20.4},{"city":"Milton","state_name":"Kentucky","lat":38.69376,"lng":-85.35641,"zip":"40045","miles_from_dt":20.48},{"city":"Westport","state_name":"Indiana","lat":39.16978,"lng":-85.58647,"zip":"47283","miles_from_dt":20.68},{"city":"Brownstown","state_name":"Indiana","lat":38.87786,"lng":-86.05471,"zip":"47220","miles_from_dt":21.46},{"city":"Marysville","state_name":"Indiana","lat":38.54925,"lng":-85.60841,"zip":"47141","miles_from_dt":22.63},{"city":"Otisco","state_name":"Indiana","lat":38.54101,"lng":-85.67928,"zip":"47163","miles_from_dt":23.07},{"city":"Canaan","state_name":"Indiana","lat":38.88816,"lng":-85.22474,"zip":"47224","miles_from_dt":23.31},{"city":"Henryville","state_name":"Indiana","lat":38.54979,"lng":-85.77844,"zip":"47126","miles_from_dt":23.38},{"city":"Versailles","state_name":"Indiana","lat":39.01247,"lng":-85.25484,"zip":"47042","miles_from_dt":23.64},{"city":"Hartsville","state_name":"Indiana","lat":39.21802,"lng":-85.70232,"zip":"47244","miles_from_dt":23.78},{"city":"New Washington","state_name":"Indiana","lat":38.55477,"lng":-85.48873,"zip":"47162","miles_from_dt":23.89},{"city":"Vallonia","state_name":"Indiana","lat":38.78563,"lng":-86.10324,"zip":"47281","miles_from_dt":24.87},{"city":"Bethlehem","state_name":"Indiana","lat":38.54568,"lng":-85.43665,"zip":"47104","miles_from_dt":25.65},{"city":"Bedford","state_name":"Kentucky","lat":38.59626,"lng":-85.32861,"zip":"40006","miles_from_dt":26.16},{"city":"Cross Plains","state_name":"Indiana","lat":38.93745,"lng":-85.17713,"zip":"47017","miles_from_dt":26.21},{"city":"Columbus","state_name":"Indiana","lat":39.15074,"lng":-85.99432,"zip":"47201","miles_from_dt":26.3},{"city":"Columbus","state_name":"Indiana","lat":39.23189,"lng":-85.83281,"zip":"47203","miles_from_dt":26.37},{"city":"Columbus","state_name":"Indiana","lat":39.20731,"lng":-85.9181,"zip":"47202","miles_from_dt":26.89},{"city":"Osgood","state_name":"Indiana","lat":39.16431,"lng":-85.31908,"zip":"47037","miles_from_dt":26.99},{"city":"Freetown","state_name":"Indiana","lat":39.01385,"lng":-86.14046,"zip":"47235","miles_from_dt":27.76},{"city":"Friendship","state_name":"Indiana","lat":38.97015,"lng":-85.14855,"zip":"47021","miles_from_dt":28.16},{"city":"Charlestown","state_name":"Indiana","lat":38.46604,"lng":-85.63271,"zip":"47111","miles_from_dt":28.24},{"city":"Westport","state_name":"Kentucky","lat":38.49996,"lng":-85.43768,"zip":"40077","miles_from_dt":28.46},{"city":"Pierceville","state_name":"Indiana","lat":39.11281,"lng":-85.22152,"zip":"47039","miles_from_dt":28.6},{"city":"Memphis","state_name":"Indiana","lat":38.46877,"lng":-85.77314,"zip":"47143","miles_from_dt":28.72},{"city":"Napoleon","state_name":"Indiana","lat":39.20428,"lng":-85.32739,"zip":"47034","miles_from_dt":28.81},{"city":"Medora","state_name":"Indiana","lat":38.83596,"lng":-86.19909,"zip":"47260","miles_from_dt":29.37},{"city":"Hope","state_name":"Indiana","lat":39.29804,"lng":-85.76606,"zip":"47246","miles_from_dt":29.76},{"city":"Salem","state_name":"Indiana","lat":38.6077,"lng":-86.09047,"zip":"47167","miles_from_dt":29.82}],"targetCityZipCode":"47227","targetCityState":"Indiana"},"__N_SSG":true}