{"pageProps":{"stateName":"Indiana","cityName":"cromwell","nearbyCities":[{"city":"Kimmell","state_name":"Indiana","lat":41.34441,"lng":-85.55654,"zip":"46760","miles_from_dt":4.06},{"city":"North Webster","state_name":"Indiana","lat":41.32858,"lng":-85.68833,"zip":"46555","miles_from_dt":4.81},{"city":"Syracuse","state_name":"Indiana","lat":41.41473,"lng":-85.73044,"zip":"46567","miles_from_dt":6.22},{"city":"Ligonier","state_name":"Indiana","lat":41.46487,"lng":-85.5764,"zip":"46767","miles_from_dt":6.51},{"city":"Wolflake","state_name":"Indiana","lat":41.3367,"lng":-85.49583,"zip":"46796","miles_from_dt":7.11},{"city":"Albion","state_name":"Indiana","lat":41.35846,"lng":-85.43034,"zip":"46701","miles_from_dt":10.03},{"city":"Wawaka","state_name":"Indiana","lat":41.46654,"lng":-85.45946,"zip":"46794","miles_from_dt":10.45},{"city":"Larwill","state_name":"Indiana","lat":41.2176,"lng":-85.62376,"zip":"46764","miles_from_dt":11},{"city":"Millersburg","state_name":"Indiana","lat":41.53341,"lng":-85.67119,"zip":"46543","miles_from_dt":11.1},{"city":"Leesburg","state_name":"Indiana","lat":41.32829,"lng":-85.82703,"zip":"46538","miles_from_dt":11.19},{"city":"Pierceton","state_name":"Indiana","lat":41.20947,"lng":-85.69757,"zip":"46562","miles_from_dt":12.22},{"city":"Milford","state_name":"Indiana","lat":41.39303,"lng":-85.87448,"zip":"46542","miles_from_dt":13.19},{"city":"Warsaw","state_name":"Indiana","lat":41.28323,"lng":-85.85235,"zip":"46582","miles_from_dt":13.63},{"city":"Topeka","state_name":"Indiana","lat":41.56795,"lng":-85.54667,"zip":"46571","miles_from_dt":13.74},{"city":"New Paris","state_name":"Indiana","lat":41.48004,"lng":-85.85095,"zip":"46553","miles_from_dt":13.87},{"city":"Rome City","state_name":"Indiana","lat":41.49797,"lng":-85.38797,"zip":"46784","miles_from_dt":14.73},{"city":"Winona Lake","state_name":"Indiana","lat":41.21612,"lng":-85.80862,"zip":"46590","miles_from_dt":14.76},{"city":"Warsaw","state_name":"Indiana","lat":41.23711,"lng":-85.85823,"zip":"46581","miles_from_dt":15.64},{"city":"Columbia City","state_name":"Indiana","lat":41.1518,"lng":-85.47655,"zip":"46725","miles_from_dt":17.28},{"city":"Warsaw","state_name":"Indiana","lat":41.20884,"lng":-85.87212,"zip":"46580","miles_from_dt":17.45},{"city":"Goshen","state_name":"Indiana","lat":41.60698,"lng":-85.786,"zip":"46528","miles_from_dt":18.02},{"city":"Churubusco","state_name":"Indiana","lat":41.23828,"lng":-85.32441,"zip":"46723","miles_from_dt":18.19},{"city":"Goshen","state_name":"Indiana","lat":41.55307,"lng":-85.88448,"zip":"46526","miles_from_dt":18.27},{"city":"Goshen","state_name":"Indiana","lat":41.58871,"lng":-85.84344,"zip":"46527","miles_from_dt":18.6},{"city":"Kendallville","state_name":"Indiana","lat":41.45119,"lng":-85.27209,"zip":"46755","miles_from_dt":18.87},{"city":"Wolcottville","state_name":"Indiana","lat":41.55116,"lng":-85.33941,"zip":"46795","miles_from_dt":18.95},{"city":"Avilla","state_name":"Indiana","lat":41.35167,"lng":-85.25168,"zip":"46710","miles_from_dt":19.32},{"city":"Atwood","state_name":"Indiana","lat":41.26099,"lng":-85.97699,"zip":"46502","miles_from_dt":20.14},{"city":"Nappanee","state_name":"Indiana","lat":41.44701,"lng":-86.00028,"zip":"46550","miles_from_dt":20.25},{"city":"Laotto","state_name":"Indiana","lat":41.29418,"lng":-85.2415,"zip":"46763","miles_from_dt":20.58},{"city":"Fort Wayne","state_name":"Indiana","lat":41.19754,"lng":-85.3053,"zip":"46898","miles_from_dt":20.6},{"city":"Middlebury","state_name":"Indiana","lat":41.67571,"lng":-85.69768,"zip":"46540","miles_from_dt":20.99},{"city":"South Milford","state_name":"Indiana","lat":41.53156,"lng":-85.27269,"zip":"46786","miles_from_dt":21.03},{"city":"South Whitley","state_name":"Indiana","lat":41.06598,"lng":-85.62085,"zip":"46787","miles_from_dt":21.46},{"city":"Etna Green","state_name":"Indiana","lat":41.2979,"lng":-86.02143,"zip":"46524","miles_from_dt":21.5},{"city":"Shipshewana","state_name":"Indiana","lat":41.69285,"lng":-85.5831,"zip":"46565","miles_from_dt":21.89},{"city":"Claypool","state_name":"Indiana","lat":41.12068,"lng":-85.874,"zip":"46510","miles_from_dt":22.03},{"city":"Lagrange","state_name":"Indiana","lat":41.63576,"lng":-85.37127,"zip":"46761","miles_from_dt":22.08},{"city":"Burket","state_name":"Indiana","lat":41.15499,"lng":-85.96904,"zip":"46508","miles_from_dt":23.7},{"city":"Liberty Mills","state_name":"Indiana","lat":41.03932,"lng":-85.73019,"zip":"46946","miles_from_dt":23.98},{"city":"Corunna","state_name":"Indiana","lat":41.454,"lng":-85.15504,"zip":"46730","miles_from_dt":24.82},{"city":"Fort Wayne","state_name":"Indiana","lat":41.14698,"lng":-85.25111,"zip":"46818","miles_from_dt":24.99},{"city":"Huntertown","state_name":"Indiana","lat":41.24829,"lng":-85.16727,"zip":"46748","miles_from_dt":25.26},{"city":"Wakarusa","state_name":"Indiana","lat":41.53941,"lng":-86.06054,"zip":"46573","miles_from_dt":25.39},{"city":"Garrett","state_name":"Indiana","lat":41.32189,"lng":-85.13731,"zip":"46738","miles_from_dt":25.47},{"city":"Arcola","state_name":"Indiana","lat":41.10371,"lng":-85.29242,"zip":"46704","miles_from_dt":25.49},{"city":"Mentone","state_name":"Indiana","lat":41.16579,"lng":-86.02545,"zip":"46539","miles_from_dt":25.58},{"city":"Bristol","state_name":"Indiana","lat":41.72138,"lng":-85.81571,"zip":"46507","miles_from_dt":25.81},{"city":"Elkhart","state_name":"Indiana","lat":41.62429,"lng":-85.99675,"zip":"46517","miles_from_dt":25.88},{"city":"Bourbon","state_name":"Indiana","lat":41.30057,"lng":-86.11204,"zip":"46504","miles_from_dt":26.04},{"city":"Silver Lake","state_name":"Indiana","lat":41.05717,"lng":-85.8882,"zip":"46982","miles_from_dt":26.07},{"city":"Stroh","state_name":"Indiana","lat":41.58274,"lng":-85.19742,"zip":"46789","miles_from_dt":26.2},{"city":"Elkhart","state_name":"Indiana","lat":41.6756,"lng":-85.94584,"zip":"46516","miles_from_dt":26.6},{"city":"Hudson","state_name":"Indiana","lat":41.56042,"lng":-85.15349,"zip":"46747","miles_from_dt":27.4},{"city":"Mongo","state_name":"Indiana","lat":41.69272,"lng":-85.29639,"zip":"46771","miles_from_dt":27.56},{"city":"Howe","state_name":"Indiana","lat":41.72257,"lng":-85.34914,"zip":"46746","miles_from_dt":27.72},{"city":"Elkhart","state_name":"Indiana","lat":41.68421,"lng":-85.96953,"zip":"46515","miles_from_dt":27.84},{"city":"North Manchester","state_name":"Indiana","lat":40.98774,"lng":-85.76675,"zip":"46962","miles_from_dt":27.9},{"city":"Fort Wayne","state_name":"Indiana","lat":41.04616,"lng":-85.30805,"zip":"46814","miles_from_dt":28.08},{"city":"Tippecanoe","state_name":"Indiana","lat":41.20766,"lng":-86.1207,"zip":"46570","miles_from_dt":28.48},{"city":"White Pigeon","state_name":"Michigan","lat":41.79139,"lng":-85.67437,"zip":"49099","miles_from_dt":28.73},{"city":"Bremen","state_name":"Indiana","lat":41.46316,"lng":-86.16915,"zip":"46506","miles_from_dt":29.05},{"city":"Fort Wayne","state_name":"Indiana","lat":41.2051,"lng":-85.10789,"zip":"46845","miles_from_dt":29.25},{"city":"Servia","state_name":"Indiana","lat":40.95598,"lng":-85.74155,"zip":"46980","miles_from_dt":29.72},{"city":"Fort Wayne","state_name":"Indiana","lat":41.05421,"lng":-85.23913,"zip":"46804","miles_from_dt":29.89},{"city":"Bippus","state_name":"Indiana","lat":40.94341,"lng":-85.61975,"zip":"46713","miles_from_dt":29.92},{"city":"Wyatt","state_name":"Indiana","lat":41.52633,"lng":-86.16367,"zip":"46595","miles_from_dt":29.97}],"targetCityZipCode":"46732","targetCityState":"Indiana"},"__N_SSG":true}