{"pageProps":{"stateName":"Indiana","cityName":"francisco","nearbyCities":[{"city":"Somerville","state_name":"Indiana","lat":38.27696,"lng":-87.37744,"zip":"47683","miles_from_dt":6.41},{"city":"Princeton","state_name":"Indiana","lat":38.34355,"lng":-87.57797,"zip":"47670","miles_from_dt":7.09},{"city":"Oakland City","state_name":"Indiana","lat":38.29712,"lng":-87.33191,"zip":"47660","miles_from_dt":7.33},{"city":"Mackey","state_name":"Indiana","lat":38.2534,"lng":-87.391,"zip":"47654","miles_from_dt":7.44},{"city":"Buckskin","state_name":"Indiana","lat":38.22958,"lng":-87.44517,"zip":"47647","miles_from_dt":8.41},{"city":"Hazleton","state_name":"Indiana","lat":38.47708,"lng":-87.49301,"zip":"47640","miles_from_dt":9},{"city":"Fort Branch","state_name":"Indiana","lat":38.24611,"lng":-87.54851,"zip":"47648","miles_from_dt":9.1},{"city":"Patoka","state_name":"Indiana","lat":38.41922,"lng":-87.60042,"zip":"47666","miles_from_dt":9.51},{"city":"Petersburg","state_name":"Indiana","lat":38.46954,"lng":-87.30554,"zip":"47567","miles_from_dt":11.22},{"city":"Spurgeon","state_name":"Indiana","lat":38.25111,"lng":-87.25797,"zip":"47584","miles_from_dt":12.43},{"city":"Decker","state_name":"Indiana","lat":38.48312,"lng":-87.61733,"zip":"47524","miles_from_dt":12.92},{"city":"Winslow","state_name":"Indiana","lat":38.3875,"lng":-87.20711,"zip":"47598","miles_from_dt":13.31},{"city":"Lynnville","state_name":"Indiana","lat":38.1924,"lng":-87.30742,"zip":"47619","miles_from_dt":13.37},{"city":"Haubstadt","state_name":"Indiana","lat":38.18228,"lng":-87.57132,"zip":"47639","miles_from_dt":13.47},{"city":"Elberfeld","state_name":"Indiana","lat":38.15413,"lng":-87.42062,"zip":"47613","miles_from_dt":13.7},{"city":"Owensville","state_name":"Indiana","lat":38.28016,"lng":-87.72738,"zip":"47665","miles_from_dt":15.97},{"city":"Monroe City","state_name":"Indiana","lat":38.57005,"lng":-87.34132,"zip":"47557","miles_from_dt":16.14},{"city":"Stendal","state_name":"Indiana","lat":38.26787,"lng":-87.16617,"zip":"47585","miles_from_dt":16.36},{"city":"Evansville","state_name":"Indiana","lat":38.10721,"lng":-87.52855,"zip":"47725","miles_from_dt":17.41},{"city":"Cynthiana","state_name":"Indiana","lat":38.1946,"lng":-87.70155,"zip":"47612","miles_from_dt":17.53},{"city":"Inglefield","state_name":"Indiana","lat":38.11074,"lng":-87.56024,"zip":"47618","miles_from_dt":17.7},{"city":"Velpen","state_name":"Indiana","lat":38.35314,"lng":-87.10113,"zip":"47590","miles_from_dt":18.83},{"city":"Vincennes","state_name":"Indiana","lat":38.62136,"lng":-87.50594,"zip":"47591","miles_from_dt":18.88},{"city":"Allendale","state_name":"Illinois","lat":38.53254,"lng":-87.72783,"zip":"62410","miles_from_dt":19.66},{"city":"Chandler","state_name":"Indiana","lat":38.06041,"lng":-87.39988,"zip":"47610","miles_from_dt":20.25},{"city":"Otwell","state_name":"Indiana","lat":38.48166,"lng":-87.09566,"zip":"47564","miles_from_dt":21.11},{"city":"Tennyson","state_name":"Indiana","lat":38.13679,"lng":-87.15865,"zip":"47637","miles_from_dt":21.61},{"city":"Wheatland","state_name":"Indiana","lat":38.64745,"lng":-87.29802,"zip":"47597","miles_from_dt":21.97},{"city":"Saint Francisville","state_name":"Illinois","lat":38.60661,"lng":-87.69639,"zip":"62460","miles_from_dt":22.16},{"city":"Poseyville","state_name":"Indiana","lat":38.16835,"lng":-87.78736,"zip":"47633","miles_from_dt":22.37},{"city":"Mount Carmel","state_name":"Illinois","lat":38.41575,"lng":-87.85526,"zip":"62863","miles_from_dt":22.56},{"city":"Evansville","state_name":"Indiana","lat":38.06065,"lng":-87.64247,"zip":"47720","miles_from_dt":22.69},{"city":"Keensburg","state_name":"Illinois","lat":38.34992,"lng":-87.86676,"zip":"62852","miles_from_dt":22.75},{"city":"Boonville","state_name":"Indiana","lat":38.05301,"lng":-87.25526,"zip":"47601","miles_from_dt":23.11},{"city":"Holland","state_name":"Indiana","lat":38.23777,"lng":-87.04673,"zip":"47541","miles_from_dt":23.17},{"city":"Evansville","state_name":"Indiana","lat":38.02518,"lng":-87.57618,"zip":"47710","miles_from_dt":23.57},{"city":"Evansville","state_name":"Indiana","lat":38.0157,"lng":-87.53606,"zip":"47711","miles_from_dt":23.66},{"city":"Bellmont","state_name":"Illinois","lat":38.38739,"lng":-87.90361,"zip":"62811","miles_from_dt":24.87},{"city":"Evansville","state_name":"Indiana","lat":38.00031,"lng":-87.57163,"zip":"47724","miles_from_dt":25.14},{"city":"Dale","state_name":"Indiana","lat":38.17354,"lng":-87.02934,"zip":"47523","miles_from_dt":25.86},{"city":"Washington","state_name":"Indiana","lat":38.66139,"lng":-87.17479,"zip":"47501","miles_from_dt":26},{"city":"Evansville","state_name":"Indiana","lat":37.97229,"lng":-87.48097,"zip":"47715","miles_from_dt":26.22},{"city":"Evansville","state_name":"Indiana","lat":37.98227,"lng":-87.5679,"zip":"47747","miles_from_dt":26.29},{"city":"Wadesville","state_name":"Indiana","lat":38.06959,"lng":-87.77489,"zip":"47638","miles_from_dt":26.36},{"city":"Huntingburg","state_name":"Indiana","lat":38.29928,"lng":-86.96712,"zip":"47542","miles_from_dt":26.37},{"city":"Griffin","state_name":"Indiana","lat":38.23482,"lng":-87.91038,"zip":"47616","miles_from_dt":26.4},{"city":"Evansville","state_name":"Indiana","lat":37.98657,"lng":-87.59553,"zip":"47719","miles_from_dt":26.43},{"city":"Evansville","state_name":"Indiana","lat":37.97424,"lng":-87.53563,"zip":"47722","miles_from_dt":26.46},{"city":"Gentryville","state_name":"Indiana","lat":38.10971,"lng":-87.06888,"zip":"47537","miles_from_dt":26.52},{"city":"Evansville","state_name":"Indiana","lat":37.97734,"lng":-87.57242,"zip":"47701","miles_from_dt":26.69},{"city":"Jasper","state_name":"Indiana","lat":38.42053,"lng":-86.9632,"zip":"47547","miles_from_dt":26.74},{"city":"Ireland","state_name":"Indiana","lat":38.29126,"lng":-86.96086,"zip":"47545","miles_from_dt":26.79},{"city":"Evansville","state_name":"Indiana","lat":37.97415,"lng":-87.57111,"zip":"47735","miles_from_dt":26.88},{"city":"Jasper","state_name":"Indiana","lat":38.39225,"lng":-86.95538,"zip":"47549","miles_from_dt":26.89},{"city":"Evansville","state_name":"Indiana","lat":37.97434,"lng":-87.57471,"zip":"47731","miles_from_dt":26.92},{"city":"Evansville","state_name":"Indiana","lat":37.97404,"lng":-87.5734,"zip":"47733","miles_from_dt":26.92},{"city":"Evansville","state_name":"Indiana","lat":37.97387,"lng":-87.57357,"zip":"47708","miles_from_dt":26.93},{"city":"Evansville","state_name":"Indiana","lat":37.97639,"lng":-87.5855,"zip":"47740","miles_from_dt":26.94},{"city":"Evansville","state_name":"Indiana","lat":37.97369,"lng":-87.57423,"zip":"47730","miles_from_dt":26.95},{"city":"Evansville","state_name":"Indiana","lat":37.9732,"lng":-87.57234,"zip":"47732","miles_from_dt":26.96},{"city":"Evansville","state_name":"Indiana","lat":37.97283,"lng":-87.57106,"zip":"47734","miles_from_dt":26.97},{"city":"Evansville","state_name":"Indiana","lat":37.97313,"lng":-87.57337,"zip":"47737","miles_from_dt":26.98},{"city":"Evansville","state_name":"Indiana","lat":37.96182,"lng":-87.49233,"zip":"47716","miles_from_dt":26.99},{"city":"Evansville","state_name":"Indiana","lat":37.96158,"lng":-87.50859,"zip":"47750","miles_from_dt":27.1},{"city":"Newburgh","state_name":"Indiana","lat":37.95602,"lng":-87.40157,"zip":"47629","miles_from_dt":27.4},{"city":"Evansville","state_name":"Indiana","lat":37.95768,"lng":-87.52102,"zip":"47714","miles_from_dt":27.46},{"city":"Newburgh","state_name":"Indiana","lat":37.95615,"lng":-87.35569,"zip":"47630","miles_from_dt":27.73},{"city":"Evansville","state_name":"Indiana","lat":37.95693,"lng":-87.55867,"zip":"47706","miles_from_dt":27.88},{"city":"Evansville","state_name":"Indiana","lat":37.95697,"lng":-87.55987,"zip":"47704","miles_from_dt":27.89},{"city":"Ragsdale","state_name":"Indiana","lat":38.74418,"lng":-87.322,"zip":"47573","miles_from_dt":27.93},{"city":"Evansville","state_name":"Indiana","lat":37.95513,"lng":-87.55821,"zip":"47705","miles_from_dt":27.99},{"city":"Evansville","state_name":"Indiana","lat":37.95452,"lng":-87.55955,"zip":"47703","miles_from_dt":28.05},{"city":"Evansville","state_name":"Indiana","lat":37.9543,"lng":-87.55878,"zip":"47702","miles_from_dt":28.06},{"city":"Evansville","state_name":"Indiana","lat":37.95332,"lng":-87.56182,"zip":"47736","miles_from_dt":28.16},{"city":"Jasper","state_name":"Indiana","lat":38.42071,"lng":-86.93469,"zip":"47546","miles_from_dt":28.27},{"city":"Evansville","state_name":"Indiana","lat":37.94651,"lng":-87.52733,"zip":"47728","miles_from_dt":28.27},{"city":"Browns","state_name":"Illinois","lat":38.37772,"lng":-87.96749,"zip":"62818","miles_from_dt":28.28},{"city":"Evansville","state_name":"Indiana","lat":37.9475,"lng":-87.55432,"zip":"47713","miles_from_dt":28.46},{"city":"Bruceville","state_name":"Indiana","lat":38.7645,"lng":-87.41857,"zip":"47516","miles_from_dt":28.53},{"city":"Lawrenceville","state_name":"Illinois","lat":38.74668,"lng":-87.63754,"zip":"62439","miles_from_dt":29.13},{"city":"Montgomery","state_name":"Indiana","lat":38.64506,"lng":-87.04578,"zip":"47558","miles_from_dt":29.75},{"city":"Lincoln City","state_name":"Indiana","lat":38.10862,"lng":-86.99527,"zip":"47552","miles_from_dt":29.78},{"city":"Bridgeport","state_name":"Illinois","lat":38.70304,"lng":-87.76779,"zip":"62417","miles_from_dt":29.8}],"targetCityZipCode":"47649","targetCityState":"Indiana"},"__N_SSG":true}