{"pageProps":{"stateName":"Indiana","cityName":"jasper","nearbyCities":[{"city":"Jasper","state_name":"Indiana","lat":38.42053,"lng":-86.9632,"zip":"47547","miles_from_dt":1.55},{"city":"Jasper","state_name":"Indiana","lat":38.39225,"lng":-86.95538,"zip":"47549","miles_from_dt":2.26},{"city":"Huntingburg","state_name":"Indiana","lat":38.29928,"lng":-86.96712,"zip":"47542","miles_from_dt":8.56},{"city":"Ireland","state_name":"Indiana","lat":38.29126,"lng":-86.96086,"zip":"47545","miles_from_dt":9.04},{"city":"Dubois","state_name":"Indiana","lat":38.47232,"lng":-86.77772,"zip":"47527","miles_from_dt":9.23},{"city":"Saint Anthony","state_name":"Indiana","lat":38.32314,"lng":-86.81128,"zip":"47575","miles_from_dt":9.5},{"city":"Otwell","state_name":"Indiana","lat":38.48166,"lng":-87.09566,"zip":"47564","miles_from_dt":9.69},{"city":"Schnellville","state_name":"Indiana","lat":38.35355,"lng":-86.77008,"zip":"47580","miles_from_dt":10.07},{"city":"Velpen","state_name":"Indiana","lat":38.35314,"lng":-87.10113,"zip":"47590","miles_from_dt":10.17},{"city":"Celestine","state_name":"Indiana","lat":38.39238,"lng":-86.72941,"zip":"47521","miles_from_dt":11.31},{"city":"Cannelburg","state_name":"Indiana","lat":38.5976,"lng":-86.98793,"zip":"47519","miles_from_dt":12.54},{"city":"Holland","state_name":"Indiana","lat":38.23777,"lng":-87.04673,"zip":"47541","miles_from_dt":14.01},{"city":"Ferdinand","state_name":"Indiana","lat":38.2198,"lng":-86.86036,"zip":"47532","miles_from_dt":14.43},{"city":"Winslow","state_name":"Indiana","lat":38.3875,"lng":-87.20711,"zip":"47598","miles_from_dt":14.96},{"city":"Birdseye","state_name":"Indiana","lat":38.30405,"lng":-86.6995,"zip":"47513","miles_from_dt":15.1},{"city":"Loogootee","state_name":"Indiana","lat":38.65398,"lng":-86.91108,"zip":"47553","miles_from_dt":16.14},{"city":"Stendal","state_name":"Indiana","lat":38.26787,"lng":-87.16617,"zip":"47585","miles_from_dt":16.41},{"city":"Montgomery","state_name":"Indiana","lat":38.64506,"lng":-87.04578,"zip":"47558","miles_from_dt":16.6},{"city":"French Lick","state_name":"Indiana","lat":38.49268,"lng":-86.63942,"zip":"47432","miles_from_dt":16.77},{"city":"Dale","state_name":"Indiana","lat":38.17354,"lng":-87.02934,"zip":"47523","miles_from_dt":17.81},{"city":"Eckerty","state_name":"Indiana","lat":38.32521,"lng":-86.61668,"zip":"47116","miles_from_dt":18.48},{"city":"Shoals","state_name":"Indiana","lat":38.65972,"lng":-86.76908,"zip":"47581","miles_from_dt":18.77},{"city":"Saint Meinrad","state_name":"Indiana","lat":38.15004,"lng":-86.80766,"zip":"47577","miles_from_dt":19.91},{"city":"Fulda","state_name":"Indiana","lat":38.1379,"lng":-86.85112,"zip":"47536","miles_from_dt":20.03},{"city":"Mariah Hill","state_name":"Indiana","lat":38.13606,"lng":-86.84936,"zip":"47556","miles_from_dt":20.17},{"city":"Petersburg","state_name":"Indiana","lat":38.46954,"lng":-87.30554,"zip":"47567","miles_from_dt":20.4},{"city":"Bristow","state_name":"Indiana","lat":38.17769,"lng":-86.70226,"zip":"47515","miles_from_dt":20.99},{"city":"Washington","state_name":"Indiana","lat":38.66139,"lng":-87.17479,"zip":"47501","miles_from_dt":21.09},{"city":"Spurgeon","state_name":"Indiana","lat":38.25111,"lng":-87.25797,"zip":"47584","miles_from_dt":21.1},{"city":"Taswell","state_name":"Indiana","lat":38.35902,"lng":-86.55236,"zip":"47175","miles_from_dt":21.19},{"city":"Santa Claus","state_name":"Indiana","lat":38.11149,"lng":-86.91322,"zip":"47579","miles_from_dt":21.36},{"city":"Lincoln City","state_name":"Indiana","lat":38.10862,"lng":-86.99527,"zip":"47552","miles_from_dt":21.78},{"city":"West Baden Springs","state_name":"Indiana","lat":38.61892,"lng":-86.61172,"zip":"47469","miles_from_dt":22.21},{"city":"Gentryville","state_name":"Indiana","lat":38.10971,"lng":-87.06888,"zip":"47537","miles_from_dt":22.66},{"city":"Tennyson","state_name":"Indiana","lat":38.13679,"lng":-87.15865,"zip":"47637","miles_from_dt":23.06},{"city":"Oakland City","state_name":"Indiana","lat":38.29712,"lng":-87.33191,"zip":"47660","miles_from_dt":23.2},{"city":"Monroe City","state_name":"Indiana","lat":38.57005,"lng":-87.34132,"zip":"47557","miles_from_dt":24.33},{"city":"Huron","state_name":"Indiana","lat":38.7135,"lng":-86.6769,"zip":"47437","miles_from_dt":24.55},{"city":"Saint Croix","state_name":"Indiana","lat":38.19089,"lng":-86.58936,"zip":"47576","miles_from_dt":24.57},{"city":"Lamar","state_name":"Indiana","lat":38.06213,"lng":-86.92877,"zip":"47550","miles_from_dt":24.73},{"city":"Wheatland","state_name":"Indiana","lat":38.64745,"lng":-87.29802,"zip":"47597","miles_from_dt":25.14},{"city":"Lynnville","state_name":"Indiana","lat":38.1924,"lng":-87.30742,"zip":"47619","miles_from_dt":25.66},{"city":"Troy","state_name":"Indiana","lat":38.06959,"lng":-86.77826,"zip":"47588","miles_from_dt":25.67},{"city":"English","state_name":"Indiana","lat":38.29788,"lng":-86.48449,"zip":"47118","miles_from_dt":25.88},{"city":"Somerville","state_name":"Indiana","lat":38.27696,"lng":-87.37744,"zip":"47683","miles_from_dt":26.01},{"city":"Branchville","state_name":"Indiana","lat":38.14861,"lng":-86.59403,"zip":"47514","miles_from_dt":26.37},{"city":"Evanston","state_name":"Indiana","lat":38.04161,"lng":-86.84867,"zip":"47531","miles_from_dt":26.56},{"city":"Paoli","state_name":"Indiana","lat":38.51596,"lng":-86.45989,"zip":"47454","miles_from_dt":26.57},{"city":"Grantsburg","state_name":"Indiana","lat":38.2856,"lng":-86.47181,"zip":"47123","miles_from_dt":26.81},{"city":"Mackey","state_name":"Indiana","lat":38.2534,"lng":-87.391,"zip":"47654","miles_from_dt":27.34},{"city":"Plainville","state_name":"Indiana","lat":38.79121,"lng":-87.13654,"zip":"47568","miles_from_dt":27.79},{"city":"Sulphur","state_name":"Indiana","lat":38.22716,"lng":-86.482,"zip":"47174","miles_from_dt":27.99},{"city":"Chrisney","state_name":"Indiana","lat":38.02474,"lng":-87.05812,"zip":"47611","miles_from_dt":28.12},{"city":"Francisco","state_name":"Indiana","lat":38.35154,"lng":-87.44786,"zip":"47649","miles_from_dt":28.27},{"city":"Odon","state_name":"Indiana","lat":38.83493,"lng":-86.98268,"zip":"47562","miles_from_dt":28.69},{"city":"Leopold","state_name":"Indiana","lat":38.12153,"lng":-86.56353,"zip":"47551","miles_from_dt":28.86},{"city":"Tell City","state_name":"Indiana","lat":38.03684,"lng":-86.69297,"zip":"47586","miles_from_dt":29.56}],"targetCityZipCode":"47546","targetCityState":"Indiana"},"__N_SSG":true}