{"pageProps":{"stateName":"Indiana","cityName":"kouts","nearbyCities":[{"city":"Boone Grove","state_name":"Indiana","lat":41.3604,"lng":-87.12645,"zip":"46302","miles_from_dt":7.22},{"city":"Tefft","state_name":"Indiana","lat":41.19904,"lng":-86.9723,"zip":"46380","miles_from_dt":7.55},{"city":"La Crosse","state_name":"Indiana","lat":41.30981,"lng":-86.86244,"zip":"46348","miles_from_dt":7.61},{"city":"Wheatfield","state_name":"Indiana","lat":41.18509,"lng":-87.04948,"zip":"46392","miles_from_dt":8.55},{"city":"San Pierre","state_name":"Indiana","lat":41.20616,"lng":-86.895,"zip":"46374","miles_from_dt":9.03},{"city":"Wanatah","state_name":"Indiana","lat":41.41677,"lng":-86.8742,"zip":"46390","miles_from_dt":10.41},{"city":"Valparaiso","state_name":"Indiana","lat":41.45838,"lng":-87.00156,"zip":"46383","miles_from_dt":10.59},{"city":"Hebron","state_name":"Indiana","lat":41.30666,"lng":-87.21962,"zip":"46341","miles_from_dt":10.98},{"city":"Valparaiso","state_name":"Indiana","lat":41.46395,"lng":-87.12396,"zip":"46385","miles_from_dt":12.5},{"city":"Valparaiso","state_name":"Indiana","lat":41.49362,"lng":-87.05475,"zip":"46384","miles_from_dt":13.23},{"city":"Hanna","state_name":"Indiana","lat":41.38339,"lng":-86.76846,"zip":"46340","miles_from_dt":13.61},{"city":"North Judson","state_name":"Indiana","lat":41.21443,"lng":-86.76922,"zip":"46366","miles_from_dt":13.94},{"city":"Leroy","state_name":"Indiana","lat":41.36397,"lng":-87.26721,"zip":"46355","miles_from_dt":14.05},{"city":"Demotte","state_name":"Indiana","lat":41.18205,"lng":-87.23088,"zip":"46310","miles_from_dt":14.36},{"city":"Medaryville","state_name":"Indiana","lat":41.08937,"lng":-86.8772,"zip":"47957","miles_from_dt":16.38},{"city":"Wheeler","state_name":"Indiana","lat":41.5139,"lng":-87.16801,"zip":"46393","miles_from_dt":16.63},{"city":"Union Mills","state_name":"Indiana","lat":41.46868,"lng":-86.76212,"zip":"46382","miles_from_dt":17.08},{"city":"Westville","state_name":"Indiana","lat":41.5455,"lng":-86.91446,"zip":"46391","miles_from_dt":17.3},{"city":"Crown Point","state_name":"Indiana","lat":41.40215,"lng":-87.32693,"zip":"46307","miles_from_dt":17.86},{"city":"Gary","state_name":"Indiana","lat":41.46091,"lng":-87.28537,"zip":"46401","miles_from_dt":17.96},{"city":"Hobart","state_name":"Indiana","lat":41.51761,"lng":-87.24468,"zip":"46342","miles_from_dt":19.12},{"city":"Thayer","state_name":"Indiana","lat":41.17635,"lng":-87.33436,"zip":"46381","miles_from_dt":19.15},{"city":"Shelby","state_name":"Indiana","lat":41.19432,"lng":-87.34777,"zip":"46377","miles_from_dt":19.25},{"city":"Roselawn","state_name":"Indiana","lat":41.14211,"lng":-87.31024,"zip":"46372","miles_from_dt":19.32},{"city":"Crown Point","state_name":"Indiana","lat":41.41715,"lng":-87.36393,"zip":"46308","miles_from_dt":20.03},{"city":"Kingsford Heights","state_name":"Indiana","lat":41.47816,"lng":-86.69332,"zip":"46346","miles_from_dt":20.28},{"city":"Knox","state_name":"Indiana","lat":41.28561,"lng":-86.61878,"zip":"46534","miles_from_dt":20.33},{"city":"Merrillville","state_name":"Indiana","lat":41.48083,"lng":-87.33293,"zip":"46410","miles_from_dt":20.77},{"city":"Portage","state_name":"Indiana","lat":41.5848,"lng":-87.17937,"zip":"46368","miles_from_dt":21.25},{"city":"Chesterton","state_name":"Indiana","lat":41.61311,"lng":-87.04905,"zip":"46304","miles_from_dt":21.37},{"city":"Lowell","state_name":"Indiana","lat":41.26117,"lng":-87.41863,"zip":"46356","miles_from_dt":21.56},{"city":"Hamlet","state_name":"Indiana","lat":41.41762,"lng":-86.62119,"zip":"46532","miles_from_dt":21.59},{"city":"Fair Oaks","state_name":"Indiana","lat":41.0594,"lng":-87.28006,"zip":"47943","miles_from_dt":22.08},{"city":"Merrillville","state_name":"Indiana","lat":41.47137,"lng":-87.37635,"zip":"46411","miles_from_dt":22.3},{"city":"Kingsbury","state_name":"Indiana","lat":41.53032,"lng":-86.69995,"zip":"46345","miles_from_dt":22.33},{"city":"Lake Station","state_name":"Indiana","lat":41.57409,"lng":-87.26285,"zip":"46405","miles_from_dt":22.78},{"city":"Rensselaer","state_name":"Indiana","lat":40.97991,"lng":-87.1163,"zip":"47978","miles_from_dt":23.13},{"city":"Francesville","state_name":"Indiana","lat":40.98427,"lng":-86.87014,"zip":"47946","miles_from_dt":23.28},{"city":"Gary","state_name":"Indiana","lat":41.54828,"lng":-87.32422,"zip":"46409","miles_from_dt":23.46},{"city":"Sumava Resorts","state_name":"Indiana","lat":41.15682,"lng":-87.4302,"zip":"46379","miles_from_dt":24.23},{"city":"Gary","state_name":"Indiana","lat":41.60636,"lng":-87.25803,"zip":"46403","miles_from_dt":24.5},{"city":"Winamac","state_name":"Indiana","lat":41.0626,"lng":-86.65906,"zip":"46996","miles_from_dt":24.74},{"city":"Cedar Lake","state_name":"Indiana","lat":41.37198,"lng":-87.4765,"zip":"46303","miles_from_dt":24.77},{"city":"Gary","state_name":"Indiana","lat":41.54468,"lng":-87.36941,"zip":"46408","miles_from_dt":25},{"city":"Gary","state_name":"Indiana","lat":41.57844,"lng":-87.33047,"zip":"46407","miles_from_dt":25.21},{"city":"Lake Village","state_name":"Indiana","lat":41.10899,"lng":-87.42359,"zip":"46349","miles_from_dt":25.51},{"city":"Ora","state_name":"Indiana","lat":41.17049,"lng":-86.55179,"zip":"46968","miles_from_dt":25.54},{"city":"La Porte","state_name":"Indiana","lat":41.60697,"lng":-86.72157,"zip":"46350","miles_from_dt":25.62},{"city":"Schneider","state_name":"Indiana","lat":41.1838,"lng":-87.47603,"zip":"46376","miles_from_dt":25.74},{"city":"Saint John","state_name":"Indiana","lat":41.44578,"lng":-87.46954,"zip":"46373","miles_from_dt":25.85},{"city":"Grovertown","state_name":"Indiana","lat":41.35686,"lng":-86.51558,"zip":"46531","miles_from_dt":25.89},{"city":"Griffith","state_name":"Indiana","lat":41.52217,"lng":-87.42091,"zip":"46319","miles_from_dt":26.14},{"city":"Schererville","state_name":"Indiana","lat":41.49162,"lng":-87.45193,"zip":"46375","miles_from_dt":26.39},{"city":"Beverly Shores","state_name":"Indiana","lat":41.68687,"lng":-86.97438,"zip":"46301","miles_from_dt":26.41},{"city":"Gary","state_name":"Indiana","lat":41.61032,"lng":-87.33297,"zip":"46402","miles_from_dt":26.97},{"city":"Gary","state_name":"Indiana","lat":41.58475,"lng":-87.37502,"zip":"46404","miles_from_dt":27.11},{"city":"Monterey","state_name":"Indiana","lat":41.15735,"lng":-86.52397,"zip":"46960","miles_from_dt":27.23},{"city":"La Porte","state_name":"Indiana","lat":41.62198,"lng":-86.69539,"zip":"46352","miles_from_dt":27.25},{"city":"Michigan City","state_name":"Indiana","lat":41.68739,"lng":-86.86464,"zip":"46360","miles_from_dt":27.42},{"city":"Dyer","state_name":"Indiana","lat":41.46846,"lng":-87.50918,"zip":"46311","miles_from_dt":28.36},{"city":"Mount Ayr","state_name":"Indiana","lat":40.9523,"lng":-87.2996,"zip":"47964","miles_from_dt":28.69},{"city":"Highland","state_name":"Indiana","lat":41.54818,"lng":-87.45884,"zip":"46322","miles_from_dt":28.78},{"city":"Michigan City","state_name":"Indiana","lat":41.71963,"lng":-86.90291,"zip":"46361","miles_from_dt":29.13},{"city":"Gary","state_name":"Indiana","lat":41.6022,"lng":-87.40804,"zip":"46406","miles_from_dt":29.17},{"city":"Donaldson","state_name":"Indiana","lat":41.3629,"lng":-86.44816,"zip":"46513","miles_from_dt":29.42},{"city":"Walkerton","state_name":"Indiana","lat":41.47327,"lng":-86.48829,"zip":"46574","miles_from_dt":29.43}],"targetCityZipCode":"46347","targetCityState":"Indiana"},"__N_SSG":true}