{"pageProps":{"stateName":"Indiana","cityName":"leavenworth","nearbyCities":[{"city":"Sulphur","state_name":"Indiana","lat":38.22716,"lng":-86.482,"zip":"47174","miles_from_dt":6.33},{"city":"Battletown","state_name":"Kentucky","lat":38.09012,"lng":-86.34053,"zip":"40104","miles_from_dt":7.09},{"city":"Grantsburg","state_name":"Indiana","lat":38.2856,"lng":-86.47181,"zip":"47123","miles_from_dt":8.45},{"city":"English","state_name":"Indiana","lat":38.29788,"lng":-86.48449,"zip":"47118","miles_from_dt":9.54},{"city":"Milltown","state_name":"Indiana","lat":38.33454,"lng":-86.30115,"zip":"47145","miles_from_dt":10.84},{"city":"Leopold","state_name":"Indiana","lat":38.12153,"lng":-86.56353,"zip":"47551","miles_from_dt":11.21},{"city":"Central","state_name":"Indiana","lat":38.09541,"lng":-86.2077,"zip":"47110","miles_from_dt":11.22},{"city":"Payneville","state_name":"Kentucky","lat":38.02111,"lng":-86.37694,"zip":"40157","miles_from_dt":11.58},{"city":"Saint Croix","state_name":"Indiana","lat":38.19089,"lng":-86.58936,"zip":"47576","miles_from_dt":11.6},{"city":"Branchville","state_name":"Indiana","lat":38.14861,"lng":-86.59403,"zip":"47514","miles_from_dt":12.18},{"city":"Mauckport","state_name":"Indiana","lat":38.0684,"lng":-86.21042,"zip":"47142","miles_from_dt":12.28},{"city":"Corydon","state_name":"Indiana","lat":38.19235,"lng":-86.14512,"zip":"47112","miles_from_dt":12.58},{"city":"Rhodelia","state_name":"Kentucky","lat":38.00422,"lng":-86.39887,"zip":"40161","miles_from_dt":12.8},{"city":"Marengo","state_name":"Indiana","lat":38.38063,"lng":-86.36892,"zip":"47140","miles_from_dt":13.22},{"city":"Depauw","state_name":"Indiana","lat":38.34465,"lng":-86.21655,"zip":"47115","miles_from_dt":13.81},{"city":"Ramsey","state_name":"Indiana","lat":38.30668,"lng":-86.16901,"zip":"47166","miles_from_dt":13.89},{"city":"Derby","state_name":"Indiana","lat":38.02856,"lng":-86.55359,"zip":"47525","miles_from_dt":14.69},{"city":"Taswell","state_name":"Indiana","lat":38.35902,"lng":-86.55236,"zip":"47175","miles_from_dt":15.14},{"city":"Union Star","state_name":"Kentucky","lat":37.96435,"lng":-86.43577,"zip":"40171","miles_from_dt":15.83},{"city":"Eckerty","state_name":"Indiana","lat":38.32521,"lng":-86.61668,"zip":"47116","miles_from_dt":16.1},{"city":"Stephensport","state_name":"Kentucky","lat":37.96479,"lng":-86.49607,"zip":"40170","miles_from_dt":16.79},{"city":"New Salisbury","state_name":"Indiana","lat":38.32281,"lng":-86.10366,"zip":"47161","miles_from_dt":17.46},{"city":"Bristow","state_name":"Indiana","lat":38.17769,"lng":-86.70226,"zip":"47515","miles_from_dt":17.76},{"city":"Crandall","state_name":"Indiana","lat":38.28754,"lng":-86.07335,"zip":"47114","miles_from_dt":17.83},{"city":"Cannelton","state_name":"Indiana","lat":37.99351,"lng":-86.5902,"zip":"47520","miles_from_dt":17.83},{"city":"New Middletown","state_name":"Indiana","lat":38.14817,"lng":-86.04711,"zip":"47160","miles_from_dt":18.14},{"city":"Webster","state_name":"Kentucky","lat":37.92377,"lng":-86.34652,"zip":"40176","miles_from_dt":18.36},{"city":"Brandenburg","state_name":"Kentucky","lat":37.96964,"lng":-86.16791,"zip":"40108","miles_from_dt":18.92},{"city":"Rome","state_name":"Indiana","lat":37.95265,"lng":-86.56323,"zip":"47574","miles_from_dt":19.23},{"city":"Birdseye","state_name":"Indiana","lat":38.30405,"lng":-86.6995,"zip":"47513","miles_from_dt":19.29},{"city":"Hardinsburg","state_name":"Indiana","lat":38.46341,"lng":-86.30825,"zip":"47125","miles_from_dt":19.29},{"city":"Laconia","state_name":"Indiana","lat":38.04108,"lng":-86.0744,"zip":"47135","miles_from_dt":19.36},{"city":"Tell City","state_name":"Indiana","lat":38.03684,"lng":-86.69297,"zip":"47586","miles_from_dt":20.2},{"city":"Bradford","state_name":"Indiana","lat":38.36703,"lng":-86.06377,"zip":"47107","miles_from_dt":20.96},{"city":"Fredericksburg","state_name":"Indiana","lat":38.45568,"lng":-86.19075,"zip":"47120","miles_from_dt":20.98},{"city":"Palmyra","state_name":"Indiana","lat":38.40462,"lng":-86.09079,"zip":"47164","miles_from_dt":21.49},{"city":"Guston","state_name":"Kentucky","lat":37.88898,"lng":-86.21095,"zip":"40142","miles_from_dt":22.57},{"city":"Elizabeth","state_name":"Indiana","lat":38.10505,"lng":-85.97275,"zip":"47117","miles_from_dt":22.73},{"city":"Lanesville","state_name":"Indiana","lat":38.23511,"lng":-85.96194,"zip":"47136","miles_from_dt":22.77},{"city":"Georgetown","state_name":"Indiana","lat":38.3041,"lng":-85.98303,"zip":"47122","miles_from_dt":22.82},{"city":"Paoli","state_name":"Indiana","lat":38.51596,"lng":-86.45989,"zip":"47454","miles_from_dt":23.01},{"city":"Troy","state_name":"Indiana","lat":38.06959,"lng":-86.77826,"zip":"47588","miles_from_dt":23.4},{"city":"Greenville","state_name":"Indiana","lat":38.36591,"lng":-86.00523,"zip":"47124","miles_from_dt":23.58},{"city":"Saint Meinrad","state_name":"Indiana","lat":38.15004,"lng":-86.80766,"zip":"47577","miles_from_dt":23.64},{"city":"Celestine","state_name":"Indiana","lat":38.39238,"lng":-86.72941,"zip":"47521","miles_from_dt":23.78},{"city":"Irvington","state_name":"Kentucky","lat":37.84622,"lng":-86.31954,"zip":"40146","miles_from_dt":23.84},{"city":"Ekron","state_name":"Kentucky","lat":37.89919,"lng":-86.1247,"zip":"40117","miles_from_dt":24.24},{"city":"Schnellville","state_name":"Indiana","lat":38.35355,"lng":-86.77008,"zip":"47580","miles_from_dt":24.24},{"city":"French Lick","state_name":"Indiana","lat":38.49268,"lng":-86.63942,"zip":"47432","miles_from_dt":25.36},{"city":"Saint Anthony","state_name":"Indiana","lat":38.32314,"lng":-86.81128,"zip":"47575","miles_from_dt":25.4},{"city":"Mariah Hill","state_name":"Indiana","lat":38.13606,"lng":-86.84936,"zip":"47556","miles_from_dt":26.02},{"city":"Fulda","state_name":"Indiana","lat":38.1379,"lng":-86.85112,"zip":"47536","miles_from_dt":26.1},{"city":"Ferdinand","state_name":"Indiana","lat":38.2198,"lng":-86.86036,"zip":"47532","miles_from_dt":26.43},{"city":"Muldraugh","state_name":"Kentucky","lat":37.94684,"lng":-85.99303,"zip":"40155","miles_from_dt":26.75},{"city":"Mount Saint Francis","state_name":"Indiana","lat":38.31823,"lng":-85.9118,"zip":"47146","miles_from_dt":26.79},{"city":"Louisville","state_name":"Kentucky","lat":38.14514,"lng":-85.87253,"zip":"40258","miles_from_dt":27.6},{"city":"Evanston","state_name":"Indiana","lat":38.04161,"lng":-86.84867,"zip":"47531","miles_from_dt":27.68},{"city":"Louisville","state_name":"Kentucky","lat":38.14688,"lng":-85.87068,"zip":"40268","miles_from_dt":27.68},{"city":"West Point","state_name":"Kentucky","lat":38.0009,"lng":-85.92502,"zip":"40177","miles_from_dt":27.81},{"city":"Louisville","state_name":"Kentucky","lat":38.14598,"lng":-85.86708,"zip":"40281","miles_from_dt":27.88},{"city":"Hardinsburg","state_name":"Kentucky","lat":37.78541,"lng":-86.50507,"zip":"40143","miles_from_dt":28.71},{"city":"Dubois","state_name":"Indiana","lat":38.47232,"lng":-86.77772,"zip":"47527","miles_from_dt":29.29},{"city":"Louisville","state_name":"Kentucky","lat":38.18707,"lng":-85.83738,"zip":"40216","miles_from_dt":29.34},{"city":"Fort Knox","state_name":"Kentucky","lat":37.92614,"lng":-85.95292,"zip":"40121","miles_from_dt":29.35},{"city":"Louisville","state_name":"Kentucky","lat":38.08291,"lng":-85.85315,"zip":"40272","miles_from_dt":29.42},{"city":"Pekin","state_name":"Indiana","lat":38.50152,"lng":-86.00508,"zip":"47165","miles_from_dt":29.52},{"city":"Floyds Knobs","state_name":"Indiana","lat":38.36699,"lng":-85.88217,"zip":"47119","miles_from_dt":29.54},{"city":"New Albany","state_name":"Indiana","lat":38.28831,"lng":-85.84775,"zip":"47150","miles_from_dt":29.56},{"city":"Harned","state_name":"Kentucky","lat":37.75899,"lng":-86.37732,"zip":"40144","miles_from_dt":29.66},{"city":"Santa Claus","state_name":"Indiana","lat":38.11149,"lng":-86.91322,"zip":"47579","miles_from_dt":29.73}],"targetCityZipCode":"47137","targetCityState":"Indiana"},"__N_SSG":true}