{"pageProps":{"stateName":"Indiana","cityName":"lynn","nearbyCities":[{"city":"Fountain City","state_name":"Indiana","lat":39.9741,"lng":-84.89361,"zip":"47341","miles_from_dt":5.1},{"city":"Williamsburg","state_name":"Indiana","lat":39.96559,"lng":-85.00325,"zip":"47393","miles_from_dt":6.78},{"city":"Hollansburg","state_name":"Ohio","lat":39.99967,"lng":-84.78776,"zip":"45332","miles_from_dt":7.93},{"city":"Winchester","state_name":"Indiana","lat":40.1679,"lng":-84.98667,"zip":"47394","miles_from_dt":9.15},{"city":"Webster","state_name":"Indiana","lat":39.91005,"lng":-84.94394,"zip":"47392","miles_from_dt":9.28},{"city":"Palestine","state_name":"Ohio","lat":40.05006,"lng":-84.74432,"zip":"45352","miles_from_dt":9.63},{"city":"Modoc","state_name":"Indiana","lat":40.05488,"lng":-85.11204,"zip":"47358","miles_from_dt":9.9},{"city":"Economy","state_name":"Indiana","lat":39.96337,"lng":-85.09471,"zip":"47339","miles_from_dt":10.54},{"city":"Union City","state_name":"Indiana","lat":40.20625,"lng":-84.84671,"zip":"47390","miles_from_dt":11.97},{"city":"Greens Fork","state_name":"Indiana","lat":39.892,"lng":-85.04765,"zip":"47345","miles_from_dt":12.31},{"city":"New Madison","state_name":"Ohio","lat":39.97934,"lng":-84.70911,"zip":"45346","miles_from_dt":12.33},{"city":"Saratoga","state_name":"Indiana","lat":40.23692,"lng":-84.91845,"zip":"47382","miles_from_dt":13.33},{"city":"New Paris","state_name":"Ohio","lat":39.88378,"lng":-84.76208,"zip":"45347","miles_from_dt":14.05},{"city":"Farmland","state_name":"Indiana","lat":40.181,"lng":-85.1318,"zip":"47340","miles_from_dt":14.45},{"city":"Losantville","state_name":"Indiana","lat":40.04628,"lng":-85.19933,"zip":"47354","miles_from_dt":14.51},{"city":"Richmond","state_name":"Indiana","lat":39.83376,"lng":-84.88997,"zip":"47374","miles_from_dt":14.61},{"city":"Hagerstown","state_name":"Indiana","lat":39.93442,"lng":-85.16306,"zip":"47346","miles_from_dt":14.68},{"city":"Union City","state_name":"Ohio","lat":40.21894,"lng":-84.76778,"zip":"45390","miles_from_dt":14.7},{"city":"Richmond","state_name":"Indiana","lat":39.8307,"lng":-84.89418,"zip":"47375","miles_from_dt":14.8},{"city":"Greenville","state_name":"Ohio","lat":40.09729,"lng":-84.64616,"zip":"45331","miles_from_dt":15.28},{"city":"Parker City","state_name":"Indiana","lat":40.18082,"lng":-85.20025,"zip":"47368","miles_from_dt":17.34},{"city":"Ridgeville","state_name":"Indiana","lat":40.28553,"lng":-85.03439,"zip":"47380","miles_from_dt":17.64},{"city":"Eldorado","state_name":"Ohio","lat":39.87134,"lng":-84.67775,"zip":"45321","miles_from_dt":17.75},{"city":"Mooreland","state_name":"Indiana","lat":40.01677,"lng":-85.2614,"zip":"47360","miles_from_dt":17.9},{"city":"Centerville","state_name":"Indiana","lat":39.78792,"lng":-85.02226,"zip":"47330","miles_from_dt":18.38},{"city":"Ansonia","state_name":"Ohio","lat":40.2146,"lng":-84.65627,"zip":"45303","miles_from_dt":18.51},{"city":"West Manchester","state_name":"Ohio","lat":39.89621,"lng":-84.61626,"zip":"45382","miles_from_dt":19.33},{"city":"Selma","state_name":"Indiana","lat":40.15123,"lng":-85.26399,"zip":"47383","miles_from_dt":19.39},{"city":"Pershing","state_name":"Indiana","lat":39.81281,"lng":-85.13779,"zip":"47370","miles_from_dt":19.51},{"city":"Cambridge City","state_name":"Indiana","lat":39.8318,"lng":-85.17314,"zip":"47327","miles_from_dt":19.66},{"city":"Boston","state_name":"Indiana","lat":39.74119,"lng":-84.85172,"zip":"47324","miles_from_dt":21.24},{"city":"Arcanum","state_name":"Ohio","lat":39.98756,"lng":-84.53145,"zip":"45304","miles_from_dt":21.28},{"city":"New Lisbon","state_name":"Indiana","lat":39.86127,"lng":-85.26068,"zip":"47366","miles_from_dt":21.79},{"city":"Dublin","state_name":"Indiana","lat":39.81171,"lng":-85.20675,"zip":"47335","miles_from_dt":21.89},{"city":"Rossburg","state_name":"Ohio","lat":40.28684,"lng":-84.63368,"zip":"45362","miles_from_dt":22.81},{"city":"Milton","state_name":"Indiana","lat":39.75773,"lng":-85.14795,"zip":"47357","miles_from_dt":23},{"city":"Gettysburg","state_name":"Ohio","lat":40.11621,"lng":-84.49676,"zip":"45328","miles_from_dt":23.28},{"city":"Pitsburg","state_name":"Ohio","lat":39.98724,"lng":-84.48796,"zip":"45358","miles_from_dt":23.55},{"city":"Redkey","state_name":"Indiana","lat":40.33863,"lng":-85.15356,"zip":"47373","miles_from_dt":23.65},{"city":"Salamonia","state_name":"Indiana","lat":40.38665,"lng":-84.86465,"zip":"47381","miles_from_dt":23.88},{"city":"Eaton","state_name":"Ohio","lat":39.74673,"lng":-84.68932,"zip":"45320","miles_from_dt":24.04},{"city":"Lewisburg","state_name":"Ohio","lat":39.85147,"lng":-84.54417,"zip":"45338","miles_from_dt":24.22},{"city":"Straughn","state_name":"Indiana","lat":39.83677,"lng":-85.2945,"zip":"47387","miles_from_dt":24.24},{"city":"New Weston","state_name":"Ohio","lat":40.32663,"lng":-84.65404,"zip":"45348","miles_from_dt":24.24},{"city":"Springport","state_name":"Indiana","lat":40.05277,"lng":-85.38305,"zip":"47386","miles_from_dt":24.25},{"city":"Albany","state_name":"Indiana","lat":40.2787,"lng":-85.2672,"zip":"47320","miles_from_dt":24.28},{"city":"Mount Summit","state_name":"Indiana","lat":40.00415,"lng":-85.38492,"zip":"47361","miles_from_dt":24.51},{"city":"Muncie","state_name":"Indiana","lat":40.12992,"lng":-85.37553,"zip":"47302","miles_from_dt":24.56},{"city":"Brownsville","state_name":"Indiana","lat":39.69395,"lng":-85.01834,"zip":"47325","miles_from_dt":24.63},{"city":"Muncie","state_name":"Indiana","lat":40.13032,"lng":-85.37925,"zip":"47308","miles_from_dt":24.76},{"city":"New Castle","state_name":"Indiana","lat":39.93186,"lng":-85.36998,"zip":"47362","miles_from_dt":24.8},{"city":"Oakville","state_name":"Indiana","lat":40.08366,"lng":-85.39207,"zip":"47367","miles_from_dt":24.87},{"city":"Verona","state_name":"Ohio","lat":39.90291,"lng":-84.48781,"zip":"45378","miles_from_dt":25.2},{"city":"Bradford","state_name":"Ohio","lat":40.12535,"lng":-84.45699,"zip":"45308","miles_from_dt":25.47},{"city":"Versailles","state_name":"Ohio","lat":40.24511,"lng":-84.51314,"zip":"45380","miles_from_dt":25.89},{"city":"Portland","state_name":"Indiana","lat":40.41874,"lng":-84.95896,"zip":"47371","miles_from_dt":25.93},{"city":"Burkettsville","state_name":"Ohio","lat":40.35299,"lng":-84.64264,"zip":"45310","miles_from_dt":26.07},{"city":"Bentonville","state_name":"Indiana","lat":39.74849,"lng":-85.2418,"zip":"47322","miles_from_dt":26.4},{"city":"Muncie","state_name":"Indiana","lat":40.19387,"lng":-85.38556,"zip":"47305","miles_from_dt":26.46},{"city":"Muncie","state_name":"Indiana","lat":40.17769,"lng":-85.39506,"zip":"47307","miles_from_dt":26.52},{"city":"North Star","state_name":"Ohio","lat":40.32472,"lng":-84.57359,"zip":"45350","miles_from_dt":26.89},{"city":"Fort Recovery","state_name":"Ohio","lat":40.40986,"lng":-84.74644,"zip":"45846","miles_from_dt":26.98},{"city":"Laura","state_name":"Ohio","lat":39.98019,"lng":-84.42095,"zip":"45337","miles_from_dt":27.14},{"city":"Sulphur Springs","state_name":"Indiana","lat":40.0056,"lng":-85.44352,"zip":"47388","miles_from_dt":27.59},{"city":"Potsdam","state_name":"Ohio","lat":39.96374,"lng":-84.41484,"zip":"45361","miles_from_dt":27.67},{"city":"Muncie","state_name":"Indiana","lat":40.20542,"lng":-85.40726,"zip":"47306","miles_from_dt":27.83},{"city":"Muncie","state_name":"Indiana","lat":40.27108,"lng":-85.37648,"zip":"47303","miles_from_dt":28.55},{"city":"Dunkirk","state_name":"Indiana","lat":40.39694,"lng":-85.20821,"zip":"47336","miles_from_dt":28.58},{"city":"Liberty","state_name":"Indiana","lat":39.62757,"lng":-84.92057,"zip":"47353","miles_from_dt":28.72},{"city":"Lewisville","state_name":"Indiana","lat":39.79597,"lng":-85.3637,"zip":"47352","miles_from_dt":28.87},{"city":"Phillipsburg","state_name":"Ohio","lat":39.91033,"lng":-84.39983,"zip":"45354","miles_from_dt":29.4},{"city":"Saint Henry","state_name":"Ohio","lat":40.40574,"lng":-84.62791,"zip":"45883","miles_from_dt":29.53}],"targetCityZipCode":"47355","targetCityState":"Indiana"},"__N_SSG":true}