{"pageProps":{"stateName":"Indiana","cityName":"marengo","nearbyCities":[{"city":"Milltown","state_name":"Indiana","lat":38.33454,"lng":-86.30115,"zip":"47145","miles_from_dt":4.86},{"city":"Hardinsburg","state_name":"Indiana","lat":38.46341,"lng":-86.30825,"zip":"47125","miles_from_dt":6.59},{"city":"English","state_name":"Indiana","lat":38.29788,"lng":-86.48449,"zip":"47118","miles_from_dt":8.48},{"city":"Grantsburg","state_name":"Indiana","lat":38.2856,"lng":-86.47181,"zip":"47123","miles_from_dt":8.61},{"city":"Depauw","state_name":"Indiana","lat":38.34465,"lng":-86.21655,"zip":"47115","miles_from_dt":8.64},{"city":"Taswell","state_name":"Indiana","lat":38.35902,"lng":-86.55236,"zip":"47175","miles_from_dt":10.07},{"city":"Paoli","state_name":"Indiana","lat":38.51596,"lng":-86.45989,"zip":"47454","miles_from_dt":10.56},{"city":"Fredericksburg","state_name":"Indiana","lat":38.45568,"lng":-86.19075,"zip":"47120","miles_from_dt":10.97},{"city":"Ramsey","state_name":"Indiana","lat":38.30668,"lng":-86.16901,"zip":"47166","miles_from_dt":12},{"city":"Sulphur","state_name":"Indiana","lat":38.22716,"lng":-86.482,"zip":"47174","miles_from_dt":12.24},{"city":"Leavenworth","state_name":"Indiana","lat":38.18899,"lng":-86.37626,"zip":"47137","miles_from_dt":13.22},{"city":"Eckerty","state_name":"Indiana","lat":38.32521,"lng":-86.61668,"zip":"47116","miles_from_dt":13.99},{"city":"New Salisbury","state_name":"Indiana","lat":38.32281,"lng":-86.10366,"zip":"47161","miles_from_dt":14.95},{"city":"Palmyra","state_name":"Indiana","lat":38.40462,"lng":-86.09079,"zip":"47164","miles_from_dt":15.19},{"city":"French Lick","state_name":"Indiana","lat":38.49268,"lng":-86.63942,"zip":"47432","miles_from_dt":16.59},{"city":"Bradford","state_name":"Indiana","lat":38.36703,"lng":-86.06377,"zip":"47107","miles_from_dt":16.6},{"city":"Crandall","state_name":"Indiana","lat":38.28754,"lng":-86.07335,"zip":"47114","miles_from_dt":17.29},{"city":"Saint Croix","state_name":"Indiana","lat":38.19089,"lng":-86.58936,"zip":"47576","miles_from_dt":17.75},{"city":"Corydon","state_name":"Indiana","lat":38.19235,"lng":-86.14512,"zip":"47112","miles_from_dt":17.8},{"city":"Orleans","state_name":"Indiana","lat":38.6422,"lng":-86.41901,"zip":"47452","miles_from_dt":18.25},{"city":"Birdseye","state_name":"Indiana","lat":38.30405,"lng":-86.6995,"zip":"47513","miles_from_dt":18.72},{"city":"Campbellsburg","state_name":"Indiana","lat":38.6455,"lng":-86.25725,"zip":"47108","miles_from_dt":19.25},{"city":"Celestine","state_name":"Indiana","lat":38.39238,"lng":-86.72941,"zip":"47521","miles_from_dt":19.59},{"city":"Greenville","state_name":"Indiana","lat":38.36591,"lng":-86.00523,"zip":"47124","miles_from_dt":19.77},{"city":"Battletown","state_name":"Kentucky","lat":38.09012,"lng":-86.34053,"zip":"40104","miles_from_dt":20.1},{"city":"Branchville","state_name":"Indiana","lat":38.14861,"lng":-86.59403,"zip":"47514","miles_from_dt":20.15},{"city":"Leopold","state_name":"Indiana","lat":38.12153,"lng":-86.56353,"zip":"47551","miles_from_dt":20.77},{"city":"West Baden Springs","state_name":"Indiana","lat":38.61892,"lng":-86.61172,"zip":"47469","miles_from_dt":21.06},{"city":"Pekin","state_name":"Indiana","lat":38.50152,"lng":-86.00508,"zip":"47165","miles_from_dt":21.43},{"city":"Central","state_name":"Indiana","lat":38.09541,"lng":-86.2077,"zip":"47110","miles_from_dt":21.54},{"city":"Georgetown","state_name":"Indiana","lat":38.3041,"lng":-85.98303,"zip":"47122","miles_from_dt":21.62},{"city":"Salem","state_name":"Indiana","lat":38.6077,"lng":-86.09047,"zip":"47167","miles_from_dt":21.75},{"city":"Schnellville","state_name":"Indiana","lat":38.35355,"lng":-86.77008,"zip":"47580","miles_from_dt":21.86},{"city":"Bristow","state_name":"Indiana","lat":38.17769,"lng":-86.70226,"zip":"47515","miles_from_dt":22.9},{"city":"Dubois","state_name":"Indiana","lat":38.47232,"lng":-86.77772,"zip":"47527","miles_from_dt":23.07},{"city":"Mauckport","state_name":"Indiana","lat":38.0684,"lng":-86.21042,"zip":"47142","miles_from_dt":23.2},{"city":"New Middletown","state_name":"Indiana","lat":38.14817,"lng":-86.04711,"zip":"47160","miles_from_dt":23.73},{"city":"Lanesville","state_name":"Indiana","lat":38.23511,"lng":-85.96194,"zip":"47136","miles_from_dt":24.29},{"city":"Saint Anthony","state_name":"Indiana","lat":38.32314,"lng":-86.81128,"zip":"47575","miles_from_dt":24.35},{"city":"Payneville","state_name":"Kentucky","lat":38.02111,"lng":-86.37694,"zip":"40157","miles_from_dt":24.8},{"city":"Mount Saint Francis","state_name":"Indiana","lat":38.31823,"lng":-85.9118,"zip":"47146","miles_from_dt":25.2},{"city":"Borden","state_name":"Indiana","lat":38.46071,"lng":-85.90326,"zip":"47106","miles_from_dt":25.86},{"city":"Mitchell","state_name":"Indiana","lat":38.73818,"lng":-86.52031,"zip":"47446","miles_from_dt":25.99},{"city":"Rhodelia","state_name":"Kentucky","lat":38.00422,"lng":-86.39887,"zip":"40161","miles_from_dt":26.01},{"city":"Derby","state_name":"Indiana","lat":38.02856,"lng":-86.55359,"zip":"47525","miles_from_dt":26.28},{"city":"Floyds Knobs","state_name":"Indiana","lat":38.36699,"lng":-85.88217,"zip":"47119","miles_from_dt":26.45},{"city":"Tunnelton","state_name":"Indiana","lat":38.76776,"lng":-86.34463,"zip":"47467","miles_from_dt":26.74},{"city":"Laconia","state_name":"Indiana","lat":38.04108,"lng":-86.0744,"zip":"47135","miles_from_dt":28.38},{"city":"Huron","state_name":"Indiana","lat":38.7135,"lng":-86.6769,"zip":"47437","miles_from_dt":28.38},{"city":"Saint Meinrad","state_name":"Indiana","lat":38.15004,"lng":-86.80766,"zip":"47577","miles_from_dt":28.67},{"city":"Elizabeth","state_name":"Indiana","lat":38.10505,"lng":-85.97275,"zip":"47117","miles_from_dt":28.73},{"city":"Ferdinand","state_name":"Indiana","lat":38.2198,"lng":-86.86036,"zip":"47532","miles_from_dt":28.92},{"city":"Union Star","state_name":"Kentucky","lat":37.96435,"lng":-86.43577,"zip":"40171","miles_from_dt":28.94},{"city":"Shoals","state_name":"Indiana","lat":38.65972,"lng":-86.76908,"zip":"47581","miles_from_dt":29},{"city":"New Albany","state_name":"Indiana","lat":38.28831,"lng":-85.84775,"zip":"47150","miles_from_dt":29.02},{"city":"Cannelton","state_name":"Indiana","lat":37.99351,"lng":-86.5902,"zip":"47520","miles_from_dt":29.29},{"city":"Stephensport","state_name":"Kentucky","lat":37.96479,"lng":-86.49607,"zip":"40170","miles_from_dt":29.51},{"city":"Tell City","state_name":"Indiana","lat":38.03684,"lng":-86.69297,"zip":"47586","miles_from_dt":29.55}],"targetCityZipCode":"47140","targetCityState":"Indiana"},"__N_SSG":true}