{"pageProps":{"stateName":"Indiana","cityName":"monon","nearbyCities":[{"city":"Reynolds","state_name":"Indiana","lat":40.75393,"lng":-86.90131,"zip":"47980","miles_from_dt":7.74},{"city":"Buffalo","state_name":"Indiana","lat":40.88205,"lng":-86.74477,"zip":"47925","miles_from_dt":8.09},{"city":"Francesville","state_name":"Indiana","lat":40.98427,"lng":-86.87014,"zip":"47946","miles_from_dt":8.29},{"city":"Monticello","state_name":"Indiana","lat":40.78261,"lng":-86.74938,"zip":"47960","miles_from_dt":9.68},{"city":"Wolcott","state_name":"Indiana","lat":40.75861,"lng":-87.0329,"zip":"47995","miles_from_dt":10.25},{"city":"Chalmers","state_name":"Indiana","lat":40.67587,"lng":-86.9185,"zip":"47929","miles_from_dt":13.17},{"city":"Idaville","state_name":"Indiana","lat":40.80175,"lng":-86.65355,"zip":"47950","miles_from_dt":13.55},{"city":"Rensselaer","state_name":"Indiana","lat":40.97991,"lng":-87.1163,"zip":"47978","miles_from_dt":13.87},{"city":"Remington","state_name":"Indiana","lat":40.76132,"lng":-87.15786,"zip":"47977","miles_from_dt":15.43},{"city":"Medaryville","state_name":"Indiana","lat":41.08937,"lng":-86.8772,"zip":"47957","miles_from_dt":15.45},{"city":"Yeoman","state_name":"Indiana","lat":40.66769,"lng":-86.72379,"zip":"47997","miles_from_dt":16.45},{"city":"Burnettsville","state_name":"Indiana","lat":40.77789,"lng":-86.59707,"zip":"47926","miles_from_dt":16.9},{"city":"Star City","state_name":"Indiana","lat":40.95485,"lng":-86.58225,"zip":"46985","miles_from_dt":17.62},{"city":"Brookston","state_name":"Indiana","lat":40.61015,"lng":-86.92667,"zip":"47923","miles_from_dt":17.72},{"city":"Winamac","state_name":"Indiana","lat":41.0626,"lng":-86.65906,"zip":"46996","miles_from_dt":18.44},{"city":"Lake Cicott","state_name":"Indiana","lat":40.76499,"lng":-86.53928,"zip":"46942","miles_from_dt":20.05},{"city":"Royal Center","state_name":"Indiana","lat":40.8587,"lng":-86.51113,"zip":"46978","miles_from_dt":20.27},{"city":"Goodland","state_name":"Indiana","lat":40.77638,"lng":-87.28676,"zip":"47948","miles_from_dt":21.3},{"city":"Mount Ayr","state_name":"Indiana","lat":40.9523,"lng":-87.2996,"zip":"47964","miles_from_dt":21.86},{"city":"Delphi","state_name":"Indiana","lat":40.606,"lng":-86.64568,"zip":"46923","miles_from_dt":22.3},{"city":"Battle Ground","state_name":"Indiana","lat":40.54712,"lng":-86.8195,"zip":"47920","miles_from_dt":22.39},{"city":"Rockfield","state_name":"Indiana","lat":40.64147,"lng":-86.5733,"zip":"46977","miles_from_dt":23.02},{"city":"Tefft","state_name":"Indiana","lat":41.19904,"lng":-86.9723,"zip":"46380","miles_from_dt":23.31},{"city":"Wheatfield","state_name":"Indiana","lat":41.18509,"lng":-87.04948,"zip":"46392","miles_from_dt":23.4},{"city":"San Pierre","state_name":"Indiana","lat":41.20616,"lng":-86.895,"zip":"46374","miles_from_dt":23.47},{"city":"Brook","state_name":"Indiana","lat":40.8762,"lng":-87.35369,"zip":"47922","miles_from_dt":23.89},{"city":"Fair Oaks","state_name":"Indiana","lat":41.0594,"lng":-87.28006,"zip":"47943","miles_from_dt":24.04},{"city":"Burrows","state_name":"Indiana","lat":40.67483,"lng":-86.50602,"zip":"46916","miles_from_dt":24.43},{"city":"North Judson","state_name":"Indiana","lat":41.21443,"lng":-86.76922,"zip":"46366","miles_from_dt":24.96},{"city":"West Lafayette","state_name":"Indiana","lat":40.48541,"lng":-86.98584,"zip":"47906","miles_from_dt":26.67},{"city":"Buck Creek","state_name":"Indiana","lat":40.48991,"lng":-86.75759,"zip":"47924","miles_from_dt":26.98},{"city":"Kewanna","state_name":"Indiana","lat":40.99337,"lng":-86.40359,"zip":"46939","miles_from_dt":27.32},{"city":"Grass Creek","state_name":"Indiana","lat":41.01861,"lng":-86.41333,"zip":"46935","miles_from_dt":27.45},{"city":"Lucerne","state_name":"Indiana","lat":40.88391,"lng":-86.37162,"zip":"46950","miles_from_dt":27.59},{"city":"Ora","state_name":"Indiana","lat":41.17049,"lng":-86.55179,"zip":"46968","miles_from_dt":27.72},{"city":"Demotte","state_name":"Indiana","lat":41.18205,"lng":-87.23088,"zip":"46310","miles_from_dt":27.9},{"city":"Montmorenci","state_name":"Indiana","lat":40.47418,"lng":-87.03001,"zip":"47962","miles_from_dt":27.92},{"city":"Monterey","state_name":"Indiana","lat":41.15735,"lng":-86.52397,"zip":"46960","miles_from_dt":28.04},{"city":"Camden","state_name":"Indiana","lat":40.62071,"lng":-86.46893,"zip":"46917","miles_from_dt":28.17},{"city":"Logansport","state_name":"Indiana","lat":40.76044,"lng":-86.37303,"zip":"46947","miles_from_dt":28.46},{"city":"Fowler","state_name":"Indiana","lat":40.61067,"lng":-87.32804,"zip":"47944","miles_from_dt":28.64},{"city":"Roselawn","state_name":"Indiana","lat":41.14211,"lng":-87.31024,"zip":"46372","miles_from_dt":28.77},{"city":"Kentland","state_name":"Indiana","lat":40.79049,"lng":-87.4435,"zip":"47951","miles_from_dt":29.07},{"city":"West Lafayette","state_name":"Indiana","lat":40.44384,"lng":-86.91141,"zip":"47996","miles_from_dt":29.14},{"city":"Templeton","state_name":"Indiana","lat":40.51384,"lng":-87.20719,"zip":"47986","miles_from_dt":29.23},{"city":"Oxford","state_name":"Indiana","lat":40.52946,"lng":-87.23751,"zip":"47971","miles_from_dt":29.28},{"city":"Morocco","state_name":"Indiana","lat":40.96811,"lng":-87.44371,"zip":"47963","miles_from_dt":29.43},{"city":"Lafayette","state_name":"Indiana","lat":40.43835,"lng":-86.87609,"zip":"47904","miles_from_dt":29.53},{"city":"Otterbein","state_name":"Indiana","lat":40.47423,"lng":-87.13031,"zip":"47970","miles_from_dt":29.67}],"targetCityZipCode":"47959","targetCityState":"Indiana"},"__N_SSG":true}