{"pageProps":{"stateName":"Indiana","cityName":"monterey","nearbyCities":[{"city":"Ora","state_name":"Indiana","lat":41.17049,"lng":-86.55179,"zip":"46968","miles_from_dt":1.71},{"city":"Delong","state_name":"Indiana","lat":41.13993,"lng":-86.42197,"zip":"46922","miles_from_dt":5.45},{"city":"Culver","state_name":"Indiana","lat":41.22182,"lng":-86.42889,"zip":"46511","miles_from_dt":6.66},{"city":"Leiters Ford","state_name":"Indiana","lat":41.1211,"lng":-86.38516,"zip":"46945","miles_from_dt":7.66},{"city":"Winamac","state_name":"Indiana","lat":41.0626,"lng":-86.65906,"zip":"46996","miles_from_dt":9.62},{"city":"Knox","state_name":"Indiana","lat":41.28561,"lng":-86.61878,"zip":"46534","miles_from_dt":10.14},{"city":"Grass Creek","state_name":"Indiana","lat":41.01861,"lng":-86.41333,"zip":"46935","miles_from_dt":11.18},{"city":"Kewanna","state_name":"Indiana","lat":40.99337,"lng":-86.40359,"zip":"46939","miles_from_dt":12.94},{"city":"North Judson","state_name":"Indiana","lat":41.21443,"lng":-86.76922,"zip":"46366","miles_from_dt":13.38},{"city":"Grovertown","state_name":"Indiana","lat":41.35686,"lng":-86.51558,"zip":"46531","miles_from_dt":13.77},{"city":"Star City","state_name":"Indiana","lat":40.95485,"lng":-86.58225,"zip":"46985","miles_from_dt":14.3},{"city":"Donaldson","state_name":"Indiana","lat":41.3629,"lng":-86.44816,"zip":"46513","miles_from_dt":14.72},{"city":"Argos","state_name":"Indiana","lat":41.22327,"lng":-86.24868,"zip":"46501","miles_from_dt":15.05},{"city":"Rochester","state_name":"Indiana","lat":41.0718,"lng":-86.25177,"zip":"46975","miles_from_dt":15.38},{"city":"Plymouth","state_name":"Indiana","lat":41.35541,"lng":-86.32612,"zip":"46563","miles_from_dt":17.12},{"city":"Tyner","state_name":"Indiana","lat":41.40804,"lng":-86.393,"zip":"46572","miles_from_dt":18.59},{"city":"Hamlet","state_name":"Indiana","lat":41.41762,"lng":-86.62119,"zip":"46532","miles_from_dt":18.66},{"city":"Medaryville","state_name":"Indiana","lat":41.08937,"lng":-86.8772,"zip":"47957","miles_from_dt":19.02},{"city":"San Pierre","state_name":"Indiana","lat":41.20616,"lng":-86.895,"zip":"46374","miles_from_dt":19.63},{"city":"Fulton","state_name":"Indiana","lat":40.94693,"lng":-86.26456,"zip":"46931","miles_from_dt":19.86},{"city":"Hanna","state_name":"Indiana","lat":41.38339,"lng":-86.76846,"zip":"46340","miles_from_dt":20.13},{"city":"Lucerne","state_name":"Indiana","lat":40.88391,"lng":-86.37162,"zip":"46950","miles_from_dt":20.48},{"city":"La Crosse","state_name":"Indiana","lat":41.30981,"lng":-86.86244,"zip":"46348","miles_from_dt":20.53},{"city":"Royal Center","state_name":"Indiana","lat":40.8587,"lng":-86.51113,"zip":"46978","miles_from_dt":20.62},{"city":"Tippecanoe","state_name":"Indiana","lat":41.20766,"lng":-86.1207,"zip":"46570","miles_from_dt":21.31},{"city":"Francesville","state_name":"Indiana","lat":40.98427,"lng":-86.87014,"zip":"47946","miles_from_dt":21.67},{"city":"Walkerton","state_name":"Indiana","lat":41.47327,"lng":-86.48829,"zip":"46574","miles_from_dt":21.88},{"city":"Athens","state_name":"Indiana","lat":41.05506,"lng":-86.1254,"zip":"46912","miles_from_dt":21.97},{"city":"Buffalo","state_name":"Indiana","lat":40.88205,"lng":-86.74477,"zip":"47925","miles_from_dt":22.23},{"city":"Tefft","state_name":"Indiana","lat":41.19904,"lng":-86.9723,"zip":"46380","miles_from_dt":23.55},{"city":"Lapaz","state_name":"Indiana","lat":41.45724,"lng":-86.30669,"zip":"46537","miles_from_dt":23.58},{"city":"Bourbon","state_name":"Indiana","lat":41.30057,"lng":-86.11204,"zip":"46504","miles_from_dt":23.63},{"city":"Kingsford Heights","state_name":"Indiana","lat":41.47816,"lng":-86.69332,"zip":"46346","miles_from_dt":23.83},{"city":"Twelve Mile","state_name":"Indiana","lat":40.8802,"lng":-86.23451,"zip":"46988","miles_from_dt":24.39},{"city":"Union Mills","state_name":"Indiana","lat":41.46868,"lng":-86.76212,"zip":"46382","miles_from_dt":24.8},{"city":"Idaville","state_name":"Indiana","lat":40.80175,"lng":-86.65355,"zip":"47950","miles_from_dt":25.46},{"city":"Wanatah","state_name":"Indiana","lat":41.41677,"lng":-86.8742,"zip":"46390","miles_from_dt":25.55},{"city":"Mentone","state_name":"Indiana","lat":41.16579,"lng":-86.02545,"zip":"46539","miles_from_dt":26},{"city":"Macy","state_name":"Indiana","lat":40.94616,"lng":-86.10528,"zip":"46951","miles_from_dt":26.28},{"city":"Akron","state_name":"Indiana","lat":41.04537,"lng":-86.04151,"zip":"46910","miles_from_dt":26.34},{"city":"Burnettsville","state_name":"Indiana","lat":40.77789,"lng":-86.59707,"zip":"47926","miles_from_dt":26.46},{"city":"Lake Cicott","state_name":"Indiana","lat":40.76499,"lng":-86.53928,"zip":"46942","miles_from_dt":27.09},{"city":"Kouts","state_name":"Indiana","lat":41.30502,"lng":-87.00859,"zip":"46347","miles_from_dt":27.23},{"city":"Kingsbury","state_name":"Indiana","lat":41.53032,"lng":-86.69995,"zip":"46345","miles_from_dt":27.32},{"city":"Wheatfield","state_name":"Indiana","lat":41.18509,"lng":-87.04948,"zip":"46392","miles_from_dt":27.47},{"city":"Lakeville","state_name":"Indiana","lat":41.51913,"lng":-86.2867,"zip":"46536","miles_from_dt":27.85},{"city":"Deedsville","state_name":"Indiana","lat":40.91011,"lng":-86.1018,"zip":"46921","miles_from_dt":27.89},{"city":"Etna Green","state_name":"Indiana","lat":41.2979,"lng":-86.02143,"zip":"46524","miles_from_dt":27.92},{"city":"Monon","state_name":"Indiana","lat":40.86603,"lng":-86.89786,"zip":"47959","miles_from_dt":28.04},{"city":"Bremen","state_name":"Indiana","lat":41.46316,"lng":-86.16915,"zip":"46506","miles_from_dt":28.04},{"city":"Monticello","state_name":"Indiana","lat":40.78261,"lng":-86.74938,"zip":"47960","miles_from_dt":28.42},{"city":"North Liberty","state_name":"Indiana","lat":41.56252,"lng":-86.41947,"zip":"46554","miles_from_dt":28.48},{"city":"Logansport","state_name":"Indiana","lat":40.76044,"lng":-86.37303,"zip":"46947","miles_from_dt":28.5},{"city":"Burket","state_name":"Indiana","lat":41.15499,"lng":-85.96904,"zip":"46508","miles_from_dt":28.94},{"city":"Atwood","state_name":"Indiana","lat":41.26099,"lng":-85.97699,"zip":"46502","miles_from_dt":29.39}],"targetCityZipCode":"46960","targetCityState":"Indiana"},"__N_SSG":true}