{"pageProps":{"stateName":"Indiana","cityName":"morristown","nearbyCities":[{"city":"Gwynneville","state_name":"Indiana","lat":39.66586,"lng":-85.64706,"zip":"46144","miles_from_dt":2.51},{"city":"Arlington","state_name":"Indiana","lat":39.66041,"lng":-85.59545,"zip":"46104","miles_from_dt":5.29},{"city":"Finly","state_name":"Indiana","lat":39.70578,"lng":-85.82339,"zip":"46129","miles_from_dt":7.34},{"city":"Fountaintown","state_name":"Indiana","lat":39.67464,"lng":-85.83571,"zip":"46130","miles_from_dt":7.57},{"city":"Carthage","state_name":"Indiana","lat":39.7375,"lng":-85.56623,"zip":"46115","miles_from_dt":8.26},{"city":"Homer","state_name":"Indiana","lat":39.57968,"lng":-85.56972,"zip":"46146","miles_from_dt":9.08},{"city":"Manilla","state_name":"Indiana","lat":39.54695,"lng":-85.60232,"zip":"46150","miles_from_dt":9.77},{"city":"Greenfield","state_name":"Indiana","lat":39.80358,"lng":-85.77049,"zip":"46140","miles_from_dt":10.1},{"city":"Shelbyville","state_name":"Indiana","lat":39.52684,"lng":-85.77297,"zip":"46176","miles_from_dt":10.71},{"city":"Charlottesville","state_name":"Indiana","lat":39.81507,"lng":-85.61763,"zip":"46117","miles_from_dt":10.83},{"city":"Fairland","state_name":"Indiana","lat":39.62053,"lng":-85.88694,"zip":"46126","miles_from_dt":10.84},{"city":"New Palestine","state_name":"Indiana","lat":39.7287,"lng":-85.90435,"zip":"46163","miles_from_dt":11.93},{"city":"Maxwell","state_name":"Indiana","lat":39.85639,"lng":-85.77038,"zip":"46154","miles_from_dt":13.51},{"city":"Knightstown","state_name":"Indiana","lat":39.80906,"lng":-85.51296,"zip":"46148","miles_from_dt":13.62},{"city":"Boggstown","state_name":"Indiana","lat":39.56021,"lng":-85.91333,"zip":"46110","miles_from_dt":13.93},{"city":"Waldron","state_name":"Indiana","lat":39.46157,"lng":-85.67005,"zip":"46182","miles_from_dt":14.41},{"city":"Mays","state_name":"Indiana","lat":39.74355,"lng":-85.42966,"zip":"46155","miles_from_dt":14.98},{"city":"Rushville","state_name":"Indiana","lat":39.60294,"lng":-85.42677,"zip":"46173","miles_from_dt":14.98},{"city":"Wilkinson","state_name":"Indiana","lat":39.89126,"lng":-85.64264,"zip":"46186","miles_from_dt":15.54},{"city":"Indianapolis","state_name":"Indiana","lat":39.65078,"lng":-85.98692,"zip":"46259","miles_from_dt":15.68},{"city":"Needham","state_name":"Indiana","lat":39.55021,"lng":-85.95242,"zip":"46162","miles_from_dt":16.06},{"city":"Dunreith","state_name":"Indiana","lat":39.80286,"lng":-85.43736,"zip":"47337","miles_from_dt":16.47},{"city":"Indianapolis","state_name":"Indiana","lat":39.72311,"lng":-86.0004,"zip":"46239","miles_from_dt":16.74},{"city":"Milroy","state_name":"Indiana","lat":39.48451,"lng":-85.4806,"zip":"46156","miles_from_dt":17.11},{"city":"Indianapolis","state_name":"Indiana","lat":39.78852,"lng":-85.978,"zip":"46229","miles_from_dt":17.21},{"city":"Spiceland","state_name":"Indiana","lat":39.83194,"lng":-85.44825,"zip":"47385","miles_from_dt":17.22},{"city":"Saint Paul","state_name":"Indiana","lat":39.41519,"lng":-85.61942,"zip":"47272","miles_from_dt":18},{"city":"Shirley","state_name":"Indiana","lat":39.91365,"lng":-85.55352,"zip":"47384","miles_from_dt":18.42},{"city":"Kennard","state_name":"Indiana","lat":39.90442,"lng":-85.52001,"zip":"47351","miles_from_dt":18.66},{"city":"Mccordsville","state_name":"Indiana","lat":39.88627,"lng":-85.90404,"zip":"46055","miles_from_dt":18.67},{"city":"Greensboro","state_name":"Indiana","lat":39.87857,"lng":-85.464,"zip":"47344","miles_from_dt":18.91},{"city":"Indianapolis","state_name":"Indiana","lat":39.83784,"lng":-85.97651,"zip":"46235","miles_from_dt":19},{"city":"Fortville","state_name":"Indiana","lat":39.92773,"lng":-85.83424,"zip":"46040","miles_from_dt":19.31},{"city":"Lewisville","state_name":"Indiana","lat":39.79597,"lng":-85.3637,"zip":"47352","miles_from_dt":19.63},{"city":"Indianapolis","state_name":"Indiana","lat":39.78314,"lng":-86.04444,"zip":"46219","miles_from_dt":20.25},{"city":"Indianapolis","state_name":"Indiana","lat":39.67247,"lng":-86.0759,"zip":"46237","miles_from_dt":20.36},{"city":"Falmouth","state_name":"Indiana","lat":39.71766,"lng":-85.3158,"zip":"46127","miles_from_dt":20.43},{"city":"Ingalls","state_name":"Indiana","lat":39.9543,"lng":-85.80755,"zip":"46048","miles_from_dt":20.55},{"city":"Flat Rock","state_name":"Indiana","lat":39.37611,"lng":-85.76837,"zip":"47234","miles_from_dt":20.63},{"city":"Indianapolis","state_name":"Indiana","lat":39.862,"lng":-86.00204,"zip":"46249","miles_from_dt":21.1},{"city":"Indianapolis","state_name":"Indiana","lat":39.89132,"lng":-85.96766,"zip":"46236","miles_from_dt":21.13},{"city":"Markleville","state_name":"Indiana","lat":39.97351,"lng":-85.6105,"zip":"46056","miles_from_dt":21.43},{"city":"Beech Grove","state_name":"Indiana","lat":39.71661,"lng":-86.09161,"zip":"46107","miles_from_dt":21.44},{"city":"Indianapolis","state_name":"Indiana","lat":39.86593,"lng":-86.00929,"zip":"46216","miles_from_dt":21.57},{"city":"Whiteland","state_name":"Indiana","lat":39.55967,"lng":-86.07361,"zip":"46184","miles_from_dt":21.63},{"city":"Glenwood","state_name":"Indiana","lat":39.58945,"lng":-85.30044,"zip":"46133","miles_from_dt":21.71},{"city":"Indianapolis","state_name":"Indiana","lat":39.7368,"lng":-86.09586,"zip":"46203","miles_from_dt":21.91},{"city":"Pendleton","state_name":"Indiana","lat":39.98473,"lng":-85.74701,"zip":"46064","miles_from_dt":21.92},{"city":"Indianapolis","state_name":"Indiana","lat":39.83968,"lng":-86.05117,"zip":"46226","miles_from_dt":22.35},{"city":"Greenwood","state_name":"Indiana","lat":39.59484,"lng":-86.11323,"zip":"46143","miles_from_dt":22.95},{"city":"Franklin","state_name":"Indiana","lat":39.47196,"lng":-86.04233,"zip":"46131","miles_from_dt":23.06},{"city":"Indianapolis","state_name":"Indiana","lat":39.67554,"lng":-86.12938,"zip":"46247","miles_from_dt":23.22},{"city":"Indianapolis","state_name":"Indiana","lat":39.77369,"lng":-86.10949,"zip":"46201","miles_from_dt":23.27},{"city":"Indianapolis","state_name":"Indiana","lat":39.67607,"lng":-86.13145,"zip":"46227","miles_from_dt":23.33},{"city":"Indianapolis","state_name":"Indiana","lat":39.77728,"lng":-86.11179,"zip":"46283","miles_from_dt":23.47},{"city":"Indianapolis","state_name":"Indiana","lat":39.90682,"lng":-86.01152,"zip":"46256","miles_from_dt":23.53},{"city":"Indianapolis","state_name":"Indiana","lat":39.80713,"lng":-86.09958,"zip":"46218","miles_from_dt":23.6},{"city":"Fishers","state_name":"Indiana","lat":39.96077,"lng":-85.94446,"zip":"46037","miles_from_dt":24.11},{"city":"Straughn","state_name":"Indiana","lat":39.83677,"lng":-85.2945,"zip":"47387","miles_from_dt":24.2},{"city":"Clarksburg","state_name":"Indiana","lat":39.43554,"lng":-85.34424,"zip":"47225","miles_from_dt":24.69},{"city":"Bentonville","state_name":"Indiana","lat":39.74849,"lng":-85.2418,"zip":"47322","miles_from_dt":24.7},{"city":"Edinburgh","state_name":"Indiana","lat":39.36914,"lng":-85.94551,"zip":"46124","miles_from_dt":24.7},{"city":"New Castle","state_name":"Indiana","lat":39.93186,"lng":-85.36998,"zip":"47362","miles_from_dt":24.99},{"city":"Indianapolis","state_name":"Indiana","lat":39.7771,"lng":-86.1458,"zip":"46288","miles_from_dt":25.19},{"city":"Indianapolis","state_name":"Indiana","lat":39.745,"lng":-86.15861,"zip":"46209","miles_from_dt":25.3},{"city":"Indianapolis","state_name":"Indiana","lat":39.74062,"lng":-86.16294,"zip":"46225","miles_from_dt":25.47},{"city":"Indianapolis","state_name":"Indiana","lat":39.74301,"lng":-86.16281,"zip":"46285","miles_from_dt":25.49},{"city":"Indianapolis","state_name":"Indiana","lat":39.74224,"lng":-86.1643,"zip":"46207","miles_from_dt":25.56},{"city":"Indianapolis","state_name":"Indiana","lat":39.77203,"lng":-86.15502,"zip":"46277","miles_from_dt":25.56},{"city":"Indianapolis","state_name":"Indiana","lat":39.76798,"lng":-86.15809,"zip":"46262","miles_from_dt":25.64},{"city":"Indianapolis","state_name":"Indiana","lat":39.77134,"lng":-86.15703,"zip":"46204","miles_from_dt":25.65},{"city":"Indianapolis","state_name":"Indiana","lat":39.76027,"lng":-86.16107,"zip":"46206","miles_from_dt":25.66},{"city":"Indianapolis","state_name":"Indiana","lat":39.90399,"lng":-86.06864,"zip":"46250","miles_from_dt":25.68},{"city":"Indianapolis","state_name":"Indiana","lat":39.76938,"lng":-86.16017,"zip":"46282","miles_from_dt":25.78},{"city":"Indianapolis","state_name":"Indiana","lat":39.77438,"lng":-86.15879,"zip":"46244","miles_from_dt":25.8},{"city":"Indianapolis","state_name":"Indiana","lat":39.82813,"lng":-86.13499,"zip":"46205","miles_from_dt":25.91},{"city":"Hope","state_name":"Indiana","lat":39.29804,"lng":-85.76606,"zip":"47246","miles_from_dt":25.92},{"city":"Indianapolis","state_name":"Indiana","lat":39.76674,"lng":-86.16397,"zip":"46255","miles_from_dt":25.92},{"city":"Indianapolis","state_name":"Indiana","lat":39.8676,"lng":-86.10818,"zip":"46220","miles_from_dt":25.94},{"city":"Indianapolis","state_name":"Indiana","lat":39.86675,"lng":-86.10915,"zip":"46230","miles_from_dt":25.96},{"city":"Greenwood","state_name":"Indiana","lat":39.62029,"lng":-86.1764,"zip":"46142","miles_from_dt":25.96},{"city":"Indianapolis","state_name":"Indiana","lat":39.78363,"lng":-86.16187,"zip":"46202","miles_from_dt":26.14},{"city":"Fishers","state_name":"Indiana","lat":39.96,"lng":-86.01219,"zip":"46085","miles_from_dt":26.23},{"city":"Anderson","state_name":"Indiana","lat":40.05021,"lng":-85.67829,"zip":"46013","miles_from_dt":26.27},{"city":"Greensburg","state_name":"Indiana","lat":39.32394,"lng":-85.48028,"zip":"47240","miles_from_dt":26.44},{"city":"New Lisbon","state_name":"Indiana","lat":39.86127,"lng":-85.26068,"zip":"47366","miles_from_dt":26.59},{"city":"Indianapolis","state_name":"Indiana","lat":39.67254,"lng":-86.19338,"zip":"46217","miles_from_dt":26.63},{"city":"Sulphur Springs","state_name":"Indiana","lat":40.0056,"lng":-85.44352,"zip":"47388","miles_from_dt":26.74},{"city":"Fishers","state_name":"Indiana","lat":39.96722,"lng":-86.01712,"zip":"46038","miles_from_dt":26.78},{"city":"Middletown","state_name":"Indiana","lat":40.03079,"lng":-85.50415,"zip":"47356","miles_from_dt":26.89},{"city":"Indianapolis","state_name":"Indiana","lat":39.82307,"lng":-86.17307,"zip":"46208","miles_from_dt":27.63},{"city":"Dublin","state_name":"Indiana","lat":39.81171,"lng":-85.20675,"zip":"47335","miles_from_dt":27.74},{"city":"Lapel","state_name":"Indiana","lat":40.05855,"lng":-85.83794,"zip":"46051","miles_from_dt":27.91},{"city":"Indianapolis","state_name":"Indiana","lat":39.90697,"lng":-86.12367,"zip":"46240","miles_from_dt":28.13},{"city":"Anderson","state_name":"Indiana","lat":40.07358,"lng":-85.60687,"zip":"46017","miles_from_dt":28.25},{"city":"Clifford","state_name":"Indiana","lat":39.28266,"lng":-85.86907,"zip":"47226","miles_from_dt":28.29},{"city":"Mount Summit","state_name":"Indiana","lat":40.00415,"lng":-85.38492,"zip":"47361","miles_from_dt":28.34},{"city":"Connersville","state_name":"Indiana","lat":39.63086,"lng":-85.16313,"zip":"47331","miles_from_dt":28.43},{"city":"Anderson","state_name":"Indiana","lat":40.08703,"lng":-85.67633,"zip":"46014","miles_from_dt":28.82},{"city":"Indianapolis","state_name":"Indiana","lat":39.69288,"lng":-86.23664,"zip":"46221","miles_from_dt":28.97},{"city":"Indianapolis","state_name":"Indiana","lat":39.79088,"lng":-86.21477,"zip":"46222","miles_from_dt":28.98},{"city":"Indianapolis","state_name":"Indiana","lat":39.93714,"lng":-86.11786,"zip":"46280","miles_from_dt":29.15},{"city":"Taylorsville","state_name":"Indiana","lat":39.29655,"lng":-85.95047,"zip":"47280","miles_from_dt":29.16},{"city":"Anderson","state_name":"Indiana","lat":40.09334,"lng":-85.6854,"zip":"46018","miles_from_dt":29.24},{"city":"Bargersville","state_name":"Indiana","lat":39.51555,"lng":-86.20524,"zip":"46106","miles_from_dt":29.29},{"city":"Anderson","state_name":"Indiana","lat":40.09781,"lng":-85.68152,"zip":"46016","miles_from_dt":29.55},{"city":"Indianapolis","state_name":"Indiana","lat":39.8487,"lng":-86.20045,"zip":"46228","miles_from_dt":29.67},{"city":"Laurel","state_name":"Indiana","lat":39.47611,"lng":-85.19724,"zip":"47024","miles_from_dt":29.69},{"city":"Milton","state_name":"Indiana","lat":39.75773,"lng":-85.14795,"zip":"47357","miles_from_dt":29.72},{"city":"Carmel","state_name":"Indiana","lat":39.97975,"lng":-86.08595,"zip":"46033","miles_from_dt":29.88},{"city":"Cambridge City","state_name":"Indiana","lat":39.8318,"lng":-85.17314,"zip":"47327","miles_from_dt":29.91}],"targetCityZipCode":"46161","targetCityState":"Indiana"},"__N_SSG":true}