{"pageProps":{"stateName":"Indiana","cityName":"napoleon","nearbyCities":[{"city":"Osgood","state_name":"Indiana","lat":39.16431,"lng":-85.31908,"zip":"47037","miles_from_dt":2.79},{"city":"New Point","state_name":"Indiana","lat":39.30864,"lng":-85.32832,"zip":"47263","miles_from_dt":7.2},{"city":"Pierceville","state_name":"Indiana","lat":39.11281,"lng":-85.22152,"zip":"47039","miles_from_dt":8.49},{"city":"Batesville","state_name":"Indiana","lat":39.29141,"lng":-85.21365,"zip":"47006","miles_from_dt":8.56},{"city":"Holton","state_name":"Indiana","lat":39.07255,"lng":-85.37467,"zip":"47023","miles_from_dt":9.44},{"city":"Morris","state_name":"Indiana","lat":39.28127,"lng":-85.17232,"zip":"47033","miles_from_dt":9.87},{"city":"Milan","state_name":"Indiana","lat":39.12872,"lng":-85.15333,"zip":"47031","miles_from_dt":10.7},{"city":"Greensburg","state_name":"Indiana","lat":39.32394,"lng":-85.48028,"zip":"47240","miles_from_dt":11.63},{"city":"Butlerville","state_name":"Indiana","lat":39.0555,"lng":-85.48218,"zip":"47223","miles_from_dt":13.21},{"city":"Oldenburg","state_name":"Indiana","lat":39.38563,"lng":-85.23972,"zip":"47036","miles_from_dt":13.36},{"city":"Sunman","state_name":"Indiana","lat":39.23432,"lng":-85.0797,"zip":"47041","miles_from_dt":13.45},{"city":"Versailles","state_name":"Indiana","lat":39.01247,"lng":-85.25484,"zip":"47042","miles_from_dt":13.79},{"city":"Westport","state_name":"Indiana","lat":39.16978,"lng":-85.58647,"zip":"47283","miles_from_dt":14.11},{"city":"Clarksburg","state_name":"Indiana","lat":39.43554,"lng":-85.34424,"zip":"47225","miles_from_dt":15.98},{"city":"Moores Hill","state_name":"Indiana","lat":39.08109,"lng":-85.05503,"zip":"47032","miles_from_dt":16.92},{"city":"Metamora","state_name":"Indiana","lat":39.42686,"lng":-85.13319,"zip":"47030","miles_from_dt":18.55},{"city":"Friendship","state_name":"Indiana","lat":38.97015,"lng":-85.14855,"zip":"47021","miles_from_dt":18.8},{"city":"Dillsboro","state_name":"Indiana","lat":38.98684,"lng":-85.0866,"zip":"47018","miles_from_dt":19.81},{"city":"Laurel","state_name":"Indiana","lat":39.47611,"lng":-85.19724,"zip":"47024","miles_from_dt":20.01},{"city":"Cross Plains","state_name":"Indiana","lat":38.93745,"lng":-85.17713,"zip":"47017","miles_from_dt":20.1},{"city":"Hartsville","state_name":"Indiana","lat":39.21802,"lng":-85.70232,"zip":"47244","miles_from_dt":20.14},{"city":"Guilford","state_name":"Indiana","lat":39.20722,"lng":-84.95089,"zip":"47022","miles_from_dt":20.21},{"city":"Milroy","state_name":"Indiana","lat":39.48451,"lng":-85.4806,"zip":"46156","miles_from_dt":21},{"city":"North Vernon","state_name":"Indiana","lat":39.00818,"lng":-85.62685,"zip":"47265","miles_from_dt":21.02},{"city":"Saint Paul","state_name":"Indiana","lat":39.41519,"lng":-85.61942,"zip":"47272","miles_from_dt":21.37},{"city":"Vernon","state_name":"Indiana","lat":38.98538,"lng":-85.6101,"zip":"47282","miles_from_dt":21.42},{"city":"Grammer","state_name":"Indiana","lat":39.15181,"lng":-85.72536,"zip":"47236","miles_from_dt":21.67},{"city":"Aurora","state_name":"Indiana","lat":39.0579,"lng":-84.95689,"zip":"47001","miles_from_dt":22.32},{"city":"Canaan","state_name":"Indiana","lat":38.88816,"lng":-85.22474,"zip":"47224","miles_from_dt":22.49},{"city":"Dupont","state_name":"Indiana","lat":38.89792,"lng":-85.4996,"zip":"47231","miles_from_dt":23.07},{"city":"Scipio","state_name":"Indiana","lat":39.07472,"lng":-85.7359,"zip":"47273","miles_from_dt":23.7},{"city":"Brookville","state_name":"Indiana","lat":39.41892,"lng":-84.97944,"zip":"47012","miles_from_dt":23.81},{"city":"New Trenton","state_name":"Indiana","lat":39.31016,"lng":-84.90394,"zip":"47035","miles_from_dt":23.86},{"city":"Hope","state_name":"Indiana","lat":39.29804,"lng":-85.76606,"zip":"47246","miles_from_dt":24.4},{"city":"Lawrenceburg","state_name":"Indiana","lat":39.15415,"lng":-84.87461,"zip":"47025","miles_from_dt":24.55},{"city":"West Harrison","state_name":"Indiana","lat":39.29828,"lng":-84.8788,"zip":"47060","miles_from_dt":24.92},{"city":"Waldron","state_name":"Indiana","lat":39.46157,"lng":-85.67005,"zip":"46182","miles_from_dt":25.54},{"city":"Elizabethtown","state_name":"Indiana","lat":39.11297,"lng":-85.79428,"zip":"47232","miles_from_dt":25.85},{"city":"Cedar Grove","state_name":"Indiana","lat":39.37414,"lng":-84.89484,"zip":"47016","miles_from_dt":25.98},{"city":"Flat Rock","state_name":"Indiana","lat":39.37611,"lng":-85.76837,"zip":"47234","miles_from_dt":26.44},{"city":"Glenwood","state_name":"Indiana","lat":39.58945,"lng":-85.30044,"zip":"46133","miles_from_dt":26.61},{"city":"Madison","state_name":"Indiana","lat":38.81867,"lng":-85.3552,"zip":"47250","miles_from_dt":26.64},{"city":"Bennington","state_name":"Indiana","lat":38.8724,"lng":-85.06887,"zip":"47011","miles_from_dt":26.79},{"city":"Hayden","state_name":"Indiana","lat":38.98393,"lng":-85.74116,"zip":"47245","miles_from_dt":26.94},{"city":"Columbus","state_name":"Indiana","lat":39.23189,"lng":-85.83281,"zip":"47203","miles_from_dt":27.19},{"city":"Manilla","state_name":"Indiana","lat":39.54695,"lng":-85.60232,"zip":"46150","miles_from_dt":27.85},{"city":"Rushville","state_name":"Indiana","lat":39.60294,"lng":-85.42677,"zip":"46173","miles_from_dt":28.01},{"city":"Commiskey","state_name":"Indiana","lat":38.87506,"lng":-85.65678,"zip":"47227","miles_from_dt":28.81},{"city":"Petersburg","state_name":"Kentucky","lat":39.0493,"lng":-84.82938,"zip":"41080","miles_from_dt":28.82},{"city":"Homer","state_name":"Indiana","lat":39.57968,"lng":-85.56972,"zip":"46146","miles_from_dt":28.96},{"city":"Rising Sun","state_name":"Indiana","lat":38.91703,"lng":-84.92809,"zip":"47040","miles_from_dt":29.22},{"city":"East Enterprise","state_name":"Indiana","lat":38.87222,"lng":-84.98891,"zip":"47019","miles_from_dt":29.26},{"city":"Clifford","state_name":"Indiana","lat":39.28266,"lng":-85.86907,"zip":"47226","miles_from_dt":29.56},{"city":"North Bend","state_name":"Ohio","lat":39.14505,"lng":-84.77849,"zip":"45052","miles_from_dt":29.75}],"targetCityZipCode":"47034","targetCityState":"Indiana"},"__N_SSG":true}