{"pageProps":{"stateName":"Indiana","cityName":"newport","nearbyCities":[{"city":"Cayuga","state_name":"Indiana","lat":39.93237,"lng":-87.46501,"zip":"47928","miles_from_dt":4.05},{"city":"Hillsdale","state_name":"Indiana","lat":39.80874,"lng":-87.41299,"zip":"47854","miles_from_dt":5.5},{"city":"Dana","state_name":"Indiana","lat":39.82293,"lng":-87.48865,"zip":"47847","miles_from_dt":6},{"city":"Kingman","state_name":"Indiana","lat":39.96186,"lng":-87.30049,"zip":"47952","miles_from_dt":7.89},{"city":"Bloomingdale","state_name":"Indiana","lat":39.87879,"lng":-87.25463,"zip":"47832","miles_from_dt":8.51},{"city":"Montezuma","state_name":"Indiana","lat":39.77184,"lng":-87.34527,"zip":"47862","miles_from_dt":8.84},{"city":"Ridge Farm","state_name":"Illinois","lat":39.90325,"lng":-87.61562,"zip":"61870","miles_from_dt":10.75},{"city":"Perrysville","state_name":"Indiana","lat":40.04297,"lng":-87.47356,"zip":"47974","miles_from_dt":11.12},{"city":"Georgetown","state_name":"Illinois","lat":39.97601,"lng":-87.61222,"zip":"61846","miles_from_dt":12.12},{"city":"Mecca","state_name":"Indiana","lat":39.72215,"lng":-87.33013,"zip":"47860","miles_from_dt":12.32},{"city":"Marshall","state_name":"Indiana","lat":39.88595,"lng":-87.16999,"zip":"47859","miles_from_dt":12.99},{"city":"Saint Bernice","state_name":"Indiana","lat":39.71447,"lng":-87.52222,"zip":"47875","miles_from_dt":13.3},{"city":"Chrisman","state_name":"Illinois","lat":39.79269,"lng":-87.6506,"zip":"61924","miles_from_dt":14.2},{"city":"Clinton","state_name":"Indiana","lat":39.67569,"lng":-87.462,"zip":"47842","miles_from_dt":14.89},{"city":"Westville","state_name":"Illinois","lat":40.03494,"lng":-87.63992,"zip":"61883","miles_from_dt":15.67},{"city":"Wallace","state_name":"Indiana","lat":39.98897,"lng":-87.14678,"zip":"47988","miles_from_dt":15.81},{"city":"Rockville","state_name":"Indiana","lat":39.75331,"lng":-87.16271,"zip":"47872","miles_from_dt":16.31},{"city":"Blanford","state_name":"Indiana","lat":39.66549,"lng":-87.52177,"zip":"47831","miles_from_dt":16.41},{"city":"Covington","state_name":"Indiana","lat":40.12764,"lng":-87.40761,"zip":"47932","miles_from_dt":16.51},{"city":"Indianola","state_name":"Illinois","lat":39.9301,"lng":-87.74346,"zip":"61850","miles_from_dt":17.72},{"city":"Universal","state_name":"Indiana","lat":39.62308,"lng":-87.45362,"zip":"47884","miles_from_dt":18.43},{"city":"Veedersburg","state_name":"Indiana","lat":40.11916,"lng":-87.23428,"zip":"47987","miles_from_dt":18.57},{"city":"Catlin","state_name":"Illinois","lat":40.03088,"lng":-87.71991,"zip":"61817","miles_from_dt":18.97},{"city":"Tilton","state_name":"Illinois","lat":40.09914,"lng":-87.64718,"zip":"61833","miles_from_dt":19.08},{"city":"Hillsboro","state_name":"Indiana","lat":40.06288,"lng":-87.13504,"zip":"47949","miles_from_dt":19.1},{"city":"Waveland","state_name":"Indiana","lat":39.88871,"lng":-87.05243,"zip":"47989","miles_from_dt":19.23},{"city":"Rosedale","state_name":"Indiana","lat":39.62913,"lng":-87.27792,"zip":"47874","miles_from_dt":19.31},{"city":"Shepardsville","state_name":"Indiana","lat":39.59976,"lng":-87.41885,"zip":"47880","miles_from_dt":19.92},{"city":"Alamo","state_name":"Indiana","lat":39.98343,"lng":-87.05524,"zip":"47916","miles_from_dt":20.17},{"city":"Danville","state_name":"Illinois","lat":40.13186,"lng":-87.63256,"zip":"61832","miles_from_dt":20.4},{"city":"Bridgeton","state_name":"Indiana","lat":39.64924,"lng":-87.17221,"zip":"47836","miles_from_dt":20.94},{"city":"New Goshen","state_name":"Indiana","lat":39.57848,"lng":-87.45921,"zip":"47863","miles_from_dt":21.52},{"city":"Metcalf","state_name":"Illinois","lat":39.80395,"lng":-87.81249,"zip":"61940","miles_from_dt":21.96},{"city":"State Line","state_name":"Indiana","lat":40.19728,"lng":-87.5268,"zip":"47982","miles_from_dt":22.13},{"city":"Waynetown","state_name":"Indiana","lat":40.06118,"lng":-87.05952,"zip":"47990","miles_from_dt":22.29},{"city":"Danville","state_name":"Illinois","lat":40.16428,"lng":-87.64028,"zip":"61834","miles_from_dt":22.49},{"city":"Sidell","state_name":"Illinois","lat":39.90534,"lng":-87.8398,"zip":"61876","miles_from_dt":22.64},{"city":"Vermilion","state_name":"Illinois","lat":39.58162,"lng":-87.5875,"zip":"61955","miles_from_dt":23.09},{"city":"Fontanet","state_name":"Indiana","lat":39.5736,"lng":-87.24594,"zip":"47851","miles_from_dt":23.5},{"city":"Mellott","state_name":"Indiana","lat":40.16452,"lng":-87.14862,"zip":"47958","miles_from_dt":23.7},{"city":"Fairmount","state_name":"Illinois","lat":40.02775,"lng":-87.82459,"zip":"61841","miles_from_dt":23.81},{"city":"Russellville","state_name":"Indiana","lat":39.82199,"lng":-86.97292,"zip":"46175","miles_from_dt":23.91},{"city":"Terre Haute","state_name":"Indiana","lat":39.54768,"lng":-87.32739,"zip":"47805","miles_from_dt":23.96},{"city":"Carbon","state_name":"Indiana","lat":39.62929,"lng":-87.11281,"zip":"47837","miles_from_dt":24.03},{"city":"Oakwood","state_name":"Illinois","lat":40.13166,"lng":-87.76438,"zip":"61858","miles_from_dt":25.03},{"city":"Bismarck","state_name":"Illinois","lat":40.23191,"lng":-87.57018,"zip":"61814","miles_from_dt":25.1},{"city":"Paris","state_name":"Illinois","lat":39.59969,"lng":-87.70146,"zip":"61944","miles_from_dt":25.11},{"city":"Hume","state_name":"Illinois","lat":39.79968,"lng":-87.87493,"zip":"61932","miles_from_dt":25.25},{"city":"Newtown","state_name":"Indiana","lat":40.20355,"lng":-87.14892,"zip":"47969","miles_from_dt":25.9},{"city":"Terre Haute","state_name":"Indiana","lat":39.51273,"lng":-87.35199,"zip":"47808","miles_from_dt":26.13},{"city":"Saint Mary Of The Woods","state_name":"Indiana","lat":39.50996,"lng":-87.46113,"zip":"47876","miles_from_dt":26.23},{"city":"West Terre Haute","state_name":"Indiana","lat":39.50872,"lng":-87.47679,"zip":"47885","miles_from_dt":26.41},{"city":"New Market","state_name":"Indiana","lat":39.95452,"lng":-86.91996,"zip":"47965","miles_from_dt":26.65},{"city":"Allerton","state_name":"Illinois","lat":39.91019,"lng":-87.91837,"zip":"61810","miles_from_dt":26.83},{"city":"Wingate","state_name":"Indiana","lat":40.18233,"lng":-87.08231,"zip":"47994","miles_from_dt":26.86},{"city":"Terre Haute","state_name":"Indiana","lat":39.49756,"lng":-87.39031,"zip":"47804","miles_from_dt":27},{"city":"West Lebanon","state_name":"Indiana","lat":40.28034,"lng":-87.44794,"zip":"47991","miles_from_dt":27.1},{"city":"Muncie","state_name":"Illinois","lat":40.11862,"lng":-87.84337,"zip":"61857","miles_from_dt":27.76},{"city":"Brocton","state_name":"Illinois","lat":39.71746,"lng":-87.8941,"zip":"61917","miles_from_dt":28.12},{"city":"Seelyville","state_name":"Indiana","lat":39.49516,"lng":-87.26368,"zip":"47878","miles_from_dt":28.29},{"city":"Redmon","state_name":"Illinois","lat":39.65753,"lng":-87.85844,"zip":"61949","miles_from_dt":28.51},{"city":"Terre Haute","state_name":"Indiana","lat":39.47136,"lng":-87.40986,"zip":"47809","miles_from_dt":28.77},{"city":"Terre Haute","state_name":"Indiana","lat":39.47061,"lng":-87.40262,"zip":"47807","miles_from_dt":28.83},{"city":"Crawfordsville","state_name":"Indiana","lat":40.03728,"lng":-86.90234,"zip":"47933","miles_from_dt":29.06},{"city":"Terre Haute","state_name":"Indiana","lat":39.46712,"lng":-87.41014,"zip":"47801","miles_from_dt":29.07},{"city":"Williamsport","state_name":"Indiana","lat":40.31161,"lng":-87.41603,"zip":"47993","miles_from_dt":29.2},{"city":"Brazil","state_name":"Indiana","lat":39.52423,"lng":-87.12276,"zip":"47834","miles_from_dt":29.54},{"city":"Terre Haute","state_name":"Indiana","lat":39.46433,"lng":-87.30855,"zip":"47803","miles_from_dt":29.8},{"city":"Fithian","state_name":"Illinois","lat":40.14431,"lng":-87.8711,"zip":"61844","miles_from_dt":29.98}],"targetCityZipCode":"47966","targetCityState":"Indiana"},"__N_SSG":true}