{"pageProps":{"stateName":"Indiana","cityName":"noblesville","nearbyCities":[{"city":"Lapel","state_name":"Indiana","lat":40.05855,"lng":-85.83794,"zip":"46051","miles_from_dt":4.98},{"city":"Noblesville","state_name":"Indiana","lat":40.05761,"lng":-86.03172,"zip":"46061","miles_from_dt":5.35},{"city":"Noblesville","state_name":"Indiana","lat":40.06146,"lng":-86.05523,"zip":"46062","miles_from_dt":6.57},{"city":"Fishers","state_name":"Indiana","lat":39.96077,"lng":-85.94446,"zip":"46037","miles_from_dt":7.3},{"city":"Cicero","state_name":"Indiana","lat":40.13291,"lng":-86.04128,"zip":"46034","miles_from_dt":7.42},{"city":"Fishers","state_name":"Indiana","lat":39.96722,"lng":-86.01712,"zip":"46038","miles_from_dt":8.2},{"city":"Fishers","state_name":"Indiana","lat":39.96,"lng":-86.01219,"zip":"46085","miles_from_dt":8.49},{"city":"Arcadia","state_name":"Indiana","lat":40.17031,"lng":-86.02118,"zip":"46030","miles_from_dt":8.62},{"city":"Anderson","state_name":"Indiana","lat":40.12759,"lng":-85.76178,"zip":"46011","miles_from_dt":9.94},{"city":"Ingalls","state_name":"Indiana","lat":39.9543,"lng":-85.80755,"zip":"46048","miles_from_dt":10.13},{"city":"Carmel","state_name":"Indiana","lat":39.97975,"lng":-86.08595,"zip":"46033","miles_from_dt":10.14},{"city":"Atlanta","state_name":"Indiana","lat":40.20935,"lng":-86.01018,"zip":"46031","miles_from_dt":10.72},{"city":"Fortville","state_name":"Indiana","lat":39.92773,"lng":-85.83424,"zip":"46040","miles_from_dt":10.85},{"city":"Pendleton","state_name":"Indiana","lat":39.98473,"lng":-85.74701,"zip":"46064","miles_from_dt":11.28},{"city":"Carmel","state_name":"Indiana","lat":39.9798,"lng":-86.11924,"zip":"46082","miles_from_dt":11.61},{"city":"Indianapolis","state_name":"Indiana","lat":39.90682,"lng":-86.01152,"zip":"46256","miles_from_dt":11.79},{"city":"Indianapolis","state_name":"Indiana","lat":39.89132,"lng":-85.96766,"zip":"46236","miles_from_dt":12.22},{"city":"Frankton","state_name":"Indiana","lat":40.2085,"lng":-85.79026,"zip":"46044","miles_from_dt":12.34},{"city":"Mccordsville","state_name":"Indiana","lat":39.88627,"lng":-85.90404,"zip":"46055","miles_from_dt":12.5},{"city":"Westfield","state_name":"Indiana","lat":40.03651,"lng":-86.17289,"zip":"46074","miles_from_dt":12.97},{"city":"Anderson","state_name":"Indiana","lat":40.09334,"lng":-85.6854,"zip":"46018","miles_from_dt":13.17},{"city":"Indianapolis","state_name":"Indiana","lat":39.93714,"lng":-86.11786,"zip":"46280","miles_from_dt":13.31},{"city":"Indianapolis","state_name":"Indiana","lat":39.90399,"lng":-86.06864,"zip":"46250","miles_from_dt":13.35},{"city":"Anderson","state_name":"Indiana","lat":40.09781,"lng":-85.68152,"zip":"46016","miles_from_dt":13.42},{"city":"Anderson","state_name":"Indiana","lat":40.05021,"lng":-85.67829,"zip":"46013","miles_from_dt":13.46},{"city":"Anderson","state_name":"Indiana","lat":40.08703,"lng":-85.67633,"zip":"46014","miles_from_dt":13.59},{"city":"Anderson","state_name":"Indiana","lat":40.1086,"lng":-85.67518,"zip":"46015","miles_from_dt":13.89},{"city":"Indianapolis","state_name":"Indiana","lat":39.86593,"lng":-86.00929,"zip":"46216","miles_from_dt":14.42},{"city":"Carmel","state_name":"Indiana","lat":39.96535,"lng":-86.17104,"zip":"46032","miles_from_dt":14.49},{"city":"Indianapolis","state_name":"Indiana","lat":39.862,"lng":-86.00204,"zip":"46249","miles_from_dt":14.58},{"city":"Indianapolis","state_name":"Indiana","lat":39.90697,"lng":-86.12367,"zip":"46240","miles_from_dt":14.99},{"city":"Hobbs","state_name":"Indiana","lat":40.28418,"lng":-85.94739,"zip":"46047","miles_from_dt":15.07},{"city":"Indianapolis","state_name":"Indiana","lat":39.93376,"lng":-86.16256,"zip":"46290","miles_from_dt":15.29},{"city":"Indianapolis","state_name":"Indiana","lat":39.83784,"lng":-85.97651,"zip":"46235","miles_from_dt":15.93},{"city":"Indianapolis","state_name":"Indiana","lat":39.8676,"lng":-86.10818,"zip":"46220","miles_from_dt":16.61},{"city":"Sheridan","state_name":"Indiana","lat":40.13829,"lng":-86.23144,"zip":"46069","miles_from_dt":16.66},{"city":"Indianapolis","state_name":"Indiana","lat":39.86675,"lng":-86.10915,"zip":"46230","miles_from_dt":16.68},{"city":"Elwood","state_name":"Indiana","lat":40.29689,"lng":-85.83289,"zip":"46036","miles_from_dt":16.75},{"city":"Tipton","state_name":"Indiana","lat":40.28526,"lng":-86.06891,"zip":"46072","miles_from_dt":16.78},{"city":"Maxwell","state_name":"Indiana","lat":39.85639,"lng":-85.77038,"zip":"46154","miles_from_dt":16.81},{"city":"Indianapolis","state_name":"Indiana","lat":39.83968,"lng":-86.05117,"zip":"46226","miles_from_dt":16.87},{"city":"Anderson","state_name":"Indiana","lat":40.1492,"lng":-85.62552,"zip":"46012","miles_from_dt":17.19},{"city":"Anderson","state_name":"Indiana","lat":40.07358,"lng":-85.60687,"zip":"46017","miles_from_dt":17.21},{"city":"Indianapolis","state_name":"Indiana","lat":39.89744,"lng":-86.17927,"zip":"46260","miles_from_dt":17.57},{"city":"Orestes","state_name":"Indiana","lat":40.27184,"lng":-85.72389,"zip":"46063","miles_from_dt":17.94},{"city":"Markleville","state_name":"Indiana","lat":39.97351,"lng":-85.6105,"zip":"46056","miles_from_dt":18.18},{"city":"Goldsmith","state_name":"Indiana","lat":40.2898,"lng":-86.14832,"zip":"46045","miles_from_dt":19.23},{"city":"Alexandria","state_name":"Indiana","lat":40.25141,"lng":-85.65838,"zip":"46001","miles_from_dt":19.29},{"city":"Indianapolis","state_name":"Indiana","lat":39.78852,"lng":-85.978,"zip":"46229","miles_from_dt":19.31},{"city":"Wilkinson","state_name":"Indiana","lat":39.89126,"lng":-85.64264,"zip":"46186","miles_from_dt":19.51},{"city":"Zionsville","state_name":"Indiana","lat":39.98281,"lng":-86.28346,"zip":"46077","miles_from_dt":19.54},{"city":"Indianapolis","state_name":"Indiana","lat":39.82813,"lng":-86.13499,"zip":"46205","miles_from_dt":19.66},{"city":"Indianapolis","state_name":"Indiana","lat":39.89769,"lng":-86.23253,"zip":"46268","miles_from_dt":19.76},{"city":"Indianapolis","state_name":"Indiana","lat":39.89393,"lng":-86.22994,"zip":"46298","miles_from_dt":19.81},{"city":"Indianapolis","state_name":"Indiana","lat":39.80713,"lng":-86.09958,"zip":"46218","miles_from_dt":19.98},{"city":"Greenfield","state_name":"Indiana","lat":39.80358,"lng":-85.77049,"zip":"46140","miles_from_dt":20.03},{"city":"Indianapolis","state_name":"Indiana","lat":39.78314,"lng":-86.04444,"zip":"46219","miles_from_dt":20.43},{"city":"Windfall","state_name":"Indiana","lat":40.36318,"lng":-85.9374,"zip":"46076","miles_from_dt":20.5},{"city":"Indianapolis","state_name":"Indiana","lat":39.8487,"lng":-86.20045,"zip":"46228","miles_from_dt":20.72},{"city":"Indianapolis","state_name":"Indiana","lat":39.82307,"lng":-86.17307,"zip":"46208","miles_from_dt":21.12},{"city":"Whitestown","state_name":"Indiana","lat":40.02637,"lng":-86.3346,"zip":"46075","miles_from_dt":21.56},{"city":"Daleville","state_name":"Indiana","lat":40.11267,"lng":-85.52357,"zip":"47334","miles_from_dt":21.85},{"city":"Indianapolis","state_name":"Indiana","lat":39.77728,"lng":-86.11179,"zip":"46283","miles_from_dt":22.12},{"city":"Kempton","state_name":"Indiana","lat":40.29757,"lng":-86.22165,"zip":"46049","miles_from_dt":22.16},{"city":"Indianapolis","state_name":"Indiana","lat":39.77369,"lng":-86.10949,"zip":"46201","miles_from_dt":22.29},{"city":"Shirley","state_name":"Indiana","lat":39.91365,"lng":-85.55352,"zip":"47384","miles_from_dt":22.65},{"city":"Indianapolis","state_name":"Indiana","lat":39.89389,"lng":-86.29606,"zip":"46278","miles_from_dt":22.71},{"city":"Middletown","state_name":"Indiana","lat":40.03079,"lng":-85.50415,"zip":"47356","miles_from_dt":22.78},{"city":"Indianapolis","state_name":"Indiana","lat":39.7771,"lng":-86.1458,"zip":"46288","miles_from_dt":22.97},{"city":"Indianapolis","state_name":"Indiana","lat":39.78363,"lng":-86.16187,"zip":"46202","miles_from_dt":23.02},{"city":"New Palestine","state_name":"Indiana","lat":39.7287,"lng":-85.90435,"zip":"46163","miles_from_dt":23.33},{"city":"Sharpsville","state_name":"Indiana","lat":40.37511,"lng":-86.1112,"zip":"46068","miles_from_dt":23.34},{"city":"Indianapolis","state_name":"Indiana","lat":39.84796,"lng":-86.26936,"zip":"46254","miles_from_dt":23.42},{"city":"Indianapolis","state_name":"Indiana","lat":39.77438,"lng":-86.15879,"zip":"46244","miles_from_dt":23.48},{"city":"Yorktown","state_name":"Indiana","lat":40.18661,"lng":-85.51632,"zip":"47396","miles_from_dt":23.5},{"city":"Indianapolis","state_name":"Indiana","lat":39.77203,"lng":-86.15502,"zip":"46277","miles_from_dt":23.52},{"city":"Indianapolis","state_name":"Indiana","lat":39.77134,"lng":-86.15703,"zip":"46204","miles_from_dt":23.61},{"city":"Indianapolis","state_name":"Indiana","lat":39.76938,"lng":-86.16017,"zip":"46282","miles_from_dt":23.81},{"city":"Indianapolis","state_name":"Indiana","lat":39.76798,"lng":-86.15809,"zip":"46262","miles_from_dt":23.84},{"city":"Summitville","state_name":"Indiana","lat":40.34315,"lng":-85.65928,"zip":"46070","miles_from_dt":23.93},{"city":"Indianapolis","state_name":"Indiana","lat":39.72311,"lng":-86.0004,"zip":"46239","miles_from_dt":23.95},{"city":"Kirklin","state_name":"Indiana","lat":40.20515,"lng":-86.34629,"zip":"46050","miles_from_dt":23.97},{"city":"Charlottesville","state_name":"Indiana","lat":39.81507,"lng":-85.61763,"zip":"46117","miles_from_dt":24.04},{"city":"Indianapolis","state_name":"Indiana","lat":39.76674,"lng":-86.16397,"zip":"46255","miles_from_dt":24.07},{"city":"Indianapolis","state_name":"Indiana","lat":39.79088,"lng":-86.21477,"zip":"46222","miles_from_dt":24.23},{"city":"Indianapolis","state_name":"Indiana","lat":39.7368,"lng":-86.09586,"zip":"46203","miles_from_dt":24.35},{"city":"Indianapolis","state_name":"Indiana","lat":39.76027,"lng":-86.16107,"zip":"46206","miles_from_dt":24.38},{"city":"Indianapolis","state_name":"Indiana","lat":39.82687,"lng":-86.27078,"zip":"46253","miles_from_dt":24.44},{"city":"Kennard","state_name":"Indiana","lat":39.90442,"lng":-85.52001,"zip":"47351","miles_from_dt":24.52},{"city":"Hemlock","state_name":"Indiana","lat":40.41523,"lng":-86.03693,"zip":"46937","miles_from_dt":24.72},{"city":"Indianapolis","state_name":"Indiana","lat":39.745,"lng":-86.15861,"zip":"46209","miles_from_dt":25.23},{"city":"Indianapolis","state_name":"Indiana","lat":39.79537,"lng":-86.25624,"zip":"46224","miles_from_dt":25.43},{"city":"Indianapolis","state_name":"Indiana","lat":39.74301,"lng":-86.16281,"zip":"46285","miles_from_dt":25.46},{"city":"Finly","state_name":"Indiana","lat":39.70578,"lng":-85.82339,"zip":"46129","miles_from_dt":25.52},{"city":"Indianapolis","state_name":"Indiana","lat":39.74224,"lng":-86.1643,"zip":"46207","miles_from_dt":25.55},{"city":"Beech Grove","state_name":"Indiana","lat":39.71661,"lng":-86.09161,"zip":"46107","miles_from_dt":25.58},{"city":"Indianapolis","state_name":"Indiana","lat":39.74062,"lng":-86.16294,"zip":"46225","miles_from_dt":25.61},{"city":"Oakford","state_name":"Indiana","lat":40.41601,"lng":-86.10183,"zip":"46965","miles_from_dt":25.77},{"city":"Sulphur Springs","state_name":"Indiana","lat":40.0056,"lng":-85.44352,"zip":"47388","miles_from_dt":26.21},{"city":"Indianapolis","state_name":"Indiana","lat":39.7917,"lng":-86.29009,"zip":"46214","miles_from_dt":26.86},{"city":"Fairmount","state_name":"Indiana","lat":40.40763,"lng":-85.68618,"zip":"46928","miles_from_dt":26.89},{"city":"Kokomo","state_name":"Indiana","lat":40.43743,"lng":-86.09111,"zip":"46902","miles_from_dt":26.97},{"city":"Indianapolis","state_name":"Indiana","lat":39.81077,"lng":-86.32665,"zip":"46234","miles_from_dt":27.41},{"city":"Fountaintown","state_name":"Indiana","lat":39.67464,"lng":-85.83571,"zip":"46130","miles_from_dt":27.49},{"city":"Muncie","state_name":"Indiana","lat":40.23398,"lng":-85.45973,"zip":"47304","miles_from_dt":27.52},{"city":"Brownsburg","state_name":"Indiana","lat":39.86561,"lng":-86.38215,"zip":"46112","miles_from_dt":27.64},{"city":"Greensboro","state_name":"Indiana","lat":39.87857,"lng":-85.464,"zip":"47344","miles_from_dt":27.98},{"city":"Lebanon","state_name":"Indiana","lat":40.04448,"lng":-86.46086,"zip":"46052","miles_from_dt":28.11},{"city":"Indianapolis","state_name":"Indiana","lat":39.67247,"lng":-86.0759,"zip":"46237","miles_from_dt":28.23},{"city":"Gaston","state_name":"Indiana","lat":40.32184,"lng":-85.5105,"zip":"47342","miles_from_dt":28.41},{"city":"Knightstown","state_name":"Indiana","lat":39.80906,"lng":-85.51296,"zip":"46148","miles_from_dt":28.43},{"city":"Greentown","state_name":"Indiana","lat":40.47942,"lng":-85.93102,"zip":"46936","miles_from_dt":28.51},{"city":"Oakville","state_name":"Indiana","lat":40.08366,"lng":-85.39207,"zip":"47367","miles_from_dt":28.61},{"city":"Indianapolis","state_name":"Indiana","lat":39.65078,"lng":-85.98692,"zip":"46259","miles_from_dt":28.81},{"city":"Indianapolis","state_name":"Indiana","lat":39.67554,"lng":-86.12938,"zip":"46247","miles_from_dt":28.93},{"city":"Indianapolis","state_name":"Indiana","lat":39.67607,"lng":-86.13145,"zip":"46227","miles_from_dt":28.94},{"city":"Forest","state_name":"Indiana","lat":40.37022,"lng":-86.31173,"zip":"46039","miles_from_dt":29.07},{"city":"Springport","state_name":"Indiana","lat":40.05277,"lng":-85.38305,"zip":"47386","miles_from_dt":29.08},{"city":"Mount Summit","state_name":"Indiana","lat":40.00415,"lng":-85.38492,"zip":"47361","miles_from_dt":29.29},{"city":"Muncie","state_name":"Indiana","lat":40.20542,"lng":-85.40726,"zip":"47306","miles_from_dt":29.37},{"city":"Muncie","state_name":"Indiana","lat":40.17769,"lng":-85.39506,"zip":"47307","miles_from_dt":29.43},{"city":"Muncie","state_name":"Indiana","lat":40.13032,"lng":-85.37925,"zip":"47308","miles_from_dt":29.59},{"city":"Indianapolis","state_name":"Indiana","lat":39.72389,"lng":-86.26842,"zip":"46241","miles_from_dt":29.64},{"city":"Indianapolis","state_name":"Indiana","lat":39.72413,"lng":-86.26979,"zip":"46251","miles_from_dt":29.67},{"city":"Muncie","state_name":"Indiana","lat":40.12992,"lng":-85.37553,"zip":"47302","miles_from_dt":29.78},{"city":"Carthage","state_name":"Indiana","lat":39.7375,"lng":-85.56623,"zip":"46115","miles_from_dt":29.84},{"city":"West Middleton","state_name":"Indiana","lat":40.43948,"lng":-86.21765,"zip":"46995","miles_from_dt":29.87}],"targetCityZipCode":"46060","targetCityState":"Indiana"},"__N_SSG":true}