{"pageProps":{"stateName":"Indiana","cityName":"odon","nearbyCities":[{"city":"Elnora","state_name":"Indiana","lat":38.86386,"lng":-87.07804,"zip":"47529","miles_from_dt":5.52},{"city":"Newberry","state_name":"Indiana","lat":38.92672,"lng":-86.9894,"zip":"47449","miles_from_dt":6.34},{"city":"Scotland","state_name":"Indiana","lat":38.91183,"lng":-86.9047,"zip":"47457","miles_from_dt":6.77},{"city":"Plainville","state_name":"Indiana","lat":38.79121,"lng":-87.13654,"zip":"47568","miles_from_dt":8.83},{"city":"Crane","state_name":"Indiana","lat":38.88545,"lng":-86.80543,"zip":"47522","miles_from_dt":10.17},{"city":"Lyons","state_name":"Indiana","lat":38.96651,"lng":-87.09059,"zip":"47443","miles_from_dt":10.78},{"city":"Sandborn","state_name":"Indiana","lat":38.89288,"lng":-87.19055,"zip":"47578","miles_from_dt":11.9},{"city":"Loogootee","state_name":"Indiana","lat":38.65398,"lng":-86.91108,"zip":"47553","miles_from_dt":13.07},{"city":"Owensburg","state_name":"Indiana","lat":38.93472,"lng":-86.76773,"zip":"47453","miles_from_dt":13.48},{"city":"Montgomery","state_name":"Indiana","lat":38.64506,"lng":-87.04578,"zip":"47558","miles_from_dt":13.53},{"city":"Westphalia","state_name":"Indiana","lat":38.86318,"lng":-87.23382,"zip":"47596","miles_from_dt":13.69},{"city":"Bloomfield","state_name":"Indiana","lat":39.01918,"lng":-86.86998,"zip":"47424","miles_from_dt":14.09},{"city":"Edwardsport","state_name":"Indiana","lat":38.84447,"lng":-87.26806,"zip":"47528","miles_from_dt":15.41},{"city":"Switz City","state_name":"Indiana","lat":39.05474,"lng":-87.04338,"zip":"47465","miles_from_dt":15.51},{"city":"Washington","state_name":"Indiana","lat":38.66139,"lng":-87.17479,"zip":"47501","miles_from_dt":15.84},{"city":"Cannelburg","state_name":"Indiana","lat":38.5976,"lng":-86.98793,"zip":"47519","miles_from_dt":16.37},{"city":"Shoals","state_name":"Indiana","lat":38.65972,"lng":-86.76908,"zip":"47581","miles_from_dt":16.71},{"city":"Linton","state_name":"Indiana","lat":39.03976,"lng":-87.1743,"zip":"47441","miles_from_dt":17.5},{"city":"Freelandville","state_name":"Indiana","lat":38.86265,"lng":-87.31285,"zip":"47535","miles_from_dt":17.91},{"city":"Williams","state_name":"Indiana","lat":38.81623,"lng":-86.64799,"zip":"47470","miles_from_dt":18.11},{"city":"Huron","state_name":"Indiana","lat":38.7135,"lng":-86.6769,"zip":"47437","miles_from_dt":18.51},{"city":"Bicknell","state_name":"Indiana","lat":38.779,"lng":-87.31809,"zip":"47512","miles_from_dt":18.51},{"city":"Ragsdale","state_name":"Indiana","lat":38.74418,"lng":-87.322,"zip":"47573","miles_from_dt":19.36},{"city":"Springville","state_name":"Indiana","lat":38.95755,"lng":-86.64815,"zip":"47462","miles_from_dt":19.92},{"city":"Dugger","state_name":"Indiana","lat":39.04159,"lng":-87.26108,"zip":"47848","miles_from_dt":20.69},{"city":"Worthington","state_name":"Indiana","lat":39.14253,"lng":-86.99788,"zip":"47471","miles_from_dt":21.23},{"city":"Wheatland","state_name":"Indiana","lat":38.64745,"lng":-87.29802,"zip":"47597","miles_from_dt":21.39},{"city":"Midland","state_name":"Indiana","lat":39.11289,"lng":-87.18944,"zip":"47445","miles_from_dt":22.17},{"city":"Solsberry","state_name":"Indiana","lat":39.11167,"lng":-86.75125,"zip":"47459","miles_from_dt":22.8},{"city":"Carlisle","state_name":"Indiana","lat":38.95679,"lng":-87.37812,"zip":"47838","miles_from_dt":22.91},{"city":"Bruceville","state_name":"Indiana","lat":38.7645,"lng":-87.41857,"zip":"47516","miles_from_dt":24.03},{"city":"Avoca","state_name":"Indiana","lat":38.91903,"lng":-86.54933,"zip":"47420","miles_from_dt":24.08},{"city":"Oaktown","state_name":"Indiana","lat":38.85705,"lng":-87.43611,"zip":"47561","miles_from_dt":24.51},{"city":"Jasonville","state_name":"Indiana","lat":39.1582,"lng":-87.18237,"zip":"47438","miles_from_dt":24.76},{"city":"Stanford","state_name":"Indiana","lat":39.09524,"lng":-86.66408,"zip":"47463","miles_from_dt":24.84},{"city":"Oolitic","state_name":"Indiana","lat":38.89176,"lng":-86.52536,"zip":"47451","miles_from_dt":24.97},{"city":"West Baden Springs","state_name":"Indiana","lat":38.61892,"lng":-86.61172,"zip":"47469","miles_from_dt":24.98},{"city":"Otwell","state_name":"Indiana","lat":38.48166,"lng":-87.09566,"zip":"47564","miles_from_dt":25.12},{"city":"Paxton","state_name":"Indiana","lat":39.01908,"lng":-87.39259,"zip":"47865","miles_from_dt":25.48},{"city":"Mitchell","state_name":"Indiana","lat":38.73818,"lng":-86.52031,"zip":"47446","miles_from_dt":25.84},{"city":"Bloomington","state_name":"Indiana","lat":39.08635,"lng":-86.61082,"zip":"47403","miles_from_dt":26.49},{"city":"Harrodsburg","state_name":"Indiana","lat":39.01277,"lng":-86.54569,"zip":"47434","miles_from_dt":26.55},{"city":"Monroe City","state_name":"Indiana","lat":38.57005,"lng":-87.34132,"zip":"47557","miles_from_dt":26.64},{"city":"Dubois","state_name":"Indiana","lat":38.47232,"lng":-86.77772,"zip":"47527","miles_from_dt":27.36},{"city":"Coal City","state_name":"Indiana","lat":39.23915,"lng":-87.01266,"zip":"47427","miles_from_dt":27.93},{"city":"Coalmont","state_name":"Indiana","lat":39.1936,"lng":-87.23386,"zip":"47845","miles_from_dt":28.19},{"city":"Freedom","state_name":"Indiana","lat":39.24052,"lng":-86.90655,"zip":"47431","miles_from_dt":28.28},{"city":"Jasper","state_name":"Indiana","lat":38.42053,"lng":-86.9632,"zip":"47547","miles_from_dt":28.6},{"city":"Jasper","state_name":"Indiana","lat":38.42071,"lng":-86.93469,"zip":"47546","miles_from_dt":28.69},{"city":"Bedford","state_name":"Indiana","lat":38.86415,"lng":-86.45122,"zip":"47421","miles_from_dt":28.74},{"city":"Sullivan","state_name":"Indiana","lat":39.09034,"lng":-87.41186,"zip":"47882","miles_from_dt":29.06},{"city":"Hymera","state_name":"Indiana","lat":39.18844,"lng":-87.30216,"zip":"47855","miles_from_dt":29.84}],"targetCityZipCode":"47562","targetCityState":"Indiana"},"__N_SSG":true}