{"pageProps":{"stateName":"Indiana","cityName":"orestes","nearbyCities":[{"city":"Alexandria","state_name":"Indiana","lat":40.25141,"lng":-85.65838,"zip":"46001","miles_from_dt":3.74},{"city":"Frankton","state_name":"Indiana","lat":40.2085,"lng":-85.79026,"zip":"46044","miles_from_dt":5.6},{"city":"Summitville","state_name":"Indiana","lat":40.34315,"lng":-85.65928,"zip":"46070","miles_from_dt":5.99},{"city":"Elwood","state_name":"Indiana","lat":40.29689,"lng":-85.83289,"zip":"46036","miles_from_dt":6.01},{"city":"Fairmount","state_name":"Indiana","lat":40.40763,"lng":-85.68618,"zip":"46928","miles_from_dt":9.58},{"city":"Anderson","state_name":"Indiana","lat":40.1492,"lng":-85.62552,"zip":"46012","miles_from_dt":9.93},{"city":"Anderson","state_name":"Indiana","lat":40.12759,"lng":-85.76178,"zip":"46011","miles_from_dt":10.15},{"city":"Anderson","state_name":"Indiana","lat":40.1086,"lng":-85.67518,"zip":"46015","miles_from_dt":11.55},{"city":"Gaston","state_name":"Indiana","lat":40.32184,"lng":-85.5105,"zip":"47342","miles_from_dt":11.79},{"city":"Hobbs","state_name":"Indiana","lat":40.28418,"lng":-85.94739,"zip":"46047","miles_from_dt":11.84},{"city":"Anderson","state_name":"Indiana","lat":40.09781,"lng":-85.68152,"zip":"46016","miles_from_dt":12.21},{"city":"Fowlerton","state_name":"Indiana","lat":40.40946,"lng":-85.57261,"zip":"46930","miles_from_dt":12.41},{"city":"Yorktown","state_name":"Indiana","lat":40.18661,"lng":-85.51632,"zip":"47396","miles_from_dt":12.45},{"city":"Anderson","state_name":"Indiana","lat":40.09334,"lng":-85.6854,"zip":"46018","miles_from_dt":12.48},{"city":"Jonesboro","state_name":"Indiana","lat":40.4482,"lng":-85.64892,"zip":"46938","miles_from_dt":12.8},{"city":"Windfall","state_name":"Indiana","lat":40.36318,"lng":-85.9374,"zip":"46076","miles_from_dt":12.92},{"city":"Anderson","state_name":"Indiana","lat":40.08703,"lng":-85.67633,"zip":"46014","miles_from_dt":13},{"city":"Muncie","state_name":"Indiana","lat":40.23398,"lng":-85.45973,"zip":"47304","miles_from_dt":14.21},{"city":"Matthews","state_name":"Indiana","lat":40.38866,"lng":-85.49917,"zip":"46957","miles_from_dt":14.34},{"city":"Anderson","state_name":"Indiana","lat":40.07358,"lng":-85.60687,"zip":"46017","miles_from_dt":15.02},{"city":"Daleville","state_name":"Indiana","lat":40.11267,"lng":-85.52357,"zip":"47334","miles_from_dt":15.26},{"city":"Anderson","state_name":"Indiana","lat":40.05021,"lng":-85.67829,"zip":"46013","miles_from_dt":15.48},{"city":"Atlanta","state_name":"Indiana","lat":40.20935,"lng":-86.01018,"zip":"46031","miles_from_dt":15.74},{"city":"Lapel","state_name":"Indiana","lat":40.05855,"lng":-85.83794,"zip":"46051","miles_from_dt":15.91},{"city":"Gas City","state_name":"Indiana","lat":40.47887,"lng":-85.58091,"zip":"46933","miles_from_dt":16.15},{"city":"Swayzee","state_name":"Indiana","lat":40.49481,"lng":-85.81929,"zip":"46986","miles_from_dt":16.19},{"city":"Arcadia","state_name":"Indiana","lat":40.17031,"lng":-86.02118,"zip":"46030","miles_from_dt":17.21},{"city":"Muncie","state_name":"Indiana","lat":40.20542,"lng":-85.40726,"zip":"47306","miles_from_dt":17.36},{"city":"Marion","state_name":"Indiana","lat":40.51928,"lng":-85.643,"zip":"46953","miles_from_dt":17.6},{"city":"Upland","state_name":"Indiana","lat":40.45056,"lng":-85.48115,"zip":"46989","miles_from_dt":17.78},{"city":"Noblesville","state_name":"Indiana","lat":40.06616,"lng":-85.93137,"zip":"46060","miles_from_dt":17.94},{"city":"Greentown","state_name":"Indiana","lat":40.47942,"lng":-85.93102,"zip":"46936","miles_from_dt":18.02},{"city":"Tipton","state_name":"Indiana","lat":40.28526,"lng":-86.06891,"zip":"46072","miles_from_dt":18.26},{"city":"Muncie","state_name":"Indiana","lat":40.27108,"lng":-85.37648,"zip":"47303","miles_from_dt":18.36},{"city":"Muncie","state_name":"Indiana","lat":40.17769,"lng":-85.39506,"zip":"47307","miles_from_dt":18.56},{"city":"Muncie","state_name":"Indiana","lat":40.19387,"lng":-85.38556,"zip":"47305","miles_from_dt":18.68},{"city":"Hemlock","state_name":"Indiana","lat":40.41523,"lng":-86.03693,"zip":"46937","miles_from_dt":19.26},{"city":"Cicero","state_name":"Indiana","lat":40.13291,"lng":-86.04128,"zip":"46034","miles_from_dt":19.33},{"city":"Pendleton","state_name":"Indiana","lat":39.98473,"lng":-85.74701,"zip":"46064","miles_from_dt":19.85},{"city":"Middletown","state_name":"Indiana","lat":40.03079,"lng":-85.50415,"zip":"47356","miles_from_dt":20.3},{"city":"Sweetser","state_name":"Indiana","lat":40.56847,"lng":-85.76722,"zip":"46987","miles_from_dt":20.59},{"city":"Muncie","state_name":"Indiana","lat":40.13032,"lng":-85.37925,"zip":"47308","miles_from_dt":20.68},{"city":"Muncie","state_name":"Indiana","lat":40.12992,"lng":-85.37553,"zip":"47302","miles_from_dt":20.87},{"city":"Eaton","state_name":"Indiana","lat":40.34363,"lng":-85.33977,"zip":"47338","miles_from_dt":20.89},{"city":"Markleville","state_name":"Indiana","lat":39.97351,"lng":-85.6105,"zip":"46056","miles_from_dt":21.44},{"city":"Sharpsville","state_name":"Indiana","lat":40.37511,"lng":-86.1112,"zip":"46068","miles_from_dt":21.66},{"city":"Oakville","state_name":"Indiana","lat":40.08366,"lng":-85.39207,"zip":"47367","miles_from_dt":21.84},{"city":"Noblesville","state_name":"Indiana","lat":40.05761,"lng":-86.03172,"zip":"46061","miles_from_dt":22},{"city":"Oakford","state_name":"Indiana","lat":40.41601,"lng":-86.10183,"zip":"46965","miles_from_dt":22.3},{"city":"Ingalls","state_name":"Indiana","lat":39.9543,"lng":-85.80755,"zip":"46048","miles_from_dt":22.35},{"city":"Goldsmith","state_name":"Indiana","lat":40.2898,"lng":-86.14832,"zip":"46045","miles_from_dt":22.46},{"city":"Kokomo","state_name":"Indiana","lat":40.43743,"lng":-86.09111,"zip":"46902","miles_from_dt":22.5},{"city":"Noblesville","state_name":"Indiana","lat":40.06146,"lng":-86.05523,"zip":"46062","miles_from_dt":22.77},{"city":"Marion","state_name":"Indiana","lat":40.59882,"lng":-85.63249,"zip":"46952","miles_from_dt":23.07},{"city":"Converse","state_name":"Indiana","lat":40.58826,"lng":-85.8706,"zip":"46919","miles_from_dt":23.16},{"city":"Springport","state_name":"Indiana","lat":40.05277,"lng":-85.38305,"zip":"47386","miles_from_dt":23.54},{"city":"Hartford City","state_name":"Indiana","lat":40.45725,"lng":-85.34855,"zip":"47348","miles_from_dt":23.58},{"city":"Sulphur Springs","state_name":"Indiana","lat":40.0056,"lng":-85.44352,"zip":"47388","miles_from_dt":23.62},{"city":"Albany","state_name":"Indiana","lat":40.2787,"lng":-85.2672,"zip":"47320","miles_from_dt":24.14},{"city":"Fishers","state_name":"Indiana","lat":39.96077,"lng":-85.94446,"zip":"46037","miles_from_dt":24.44},{"city":"Fortville","state_name":"Indiana","lat":39.92773,"lng":-85.83424,"zip":"46040","miles_from_dt":24.45},{"city":"Kokomo","state_name":"Indiana","lat":40.47505,"lng":-86.13183,"zip":"46903","miles_from_dt":25.69},{"city":"Selma","state_name":"Indiana","lat":40.15123,"lng":-85.26399,"zip":"47383","miles_from_dt":25.71},{"city":"Mount Summit","state_name":"Indiana","lat":40.00415,"lng":-85.38492,"zip":"47361","miles_from_dt":25.75},{"city":"Fishers","state_name":"Indiana","lat":39.96722,"lng":-86.01712,"zip":"46038","miles_from_dt":26.13},{"city":"Shirley","state_name":"Indiana","lat":39.91365,"lng":-85.55352,"zip":"47384","miles_from_dt":26.31},{"city":"Kempton","state_name":"Indiana","lat":40.29757,"lng":-86.22165,"zip":"46049","miles_from_dt":26.36},{"city":"Fishers","state_name":"Indiana","lat":39.96,"lng":-86.01219,"zip":"46085","miles_from_dt":26.38},{"city":"Wilkinson","state_name":"Indiana","lat":39.89126,"lng":-85.64264,"zip":"46186","miles_from_dt":26.61},{"city":"Van Buren","state_name":"Indiana","lat":40.63034,"lng":-85.50642,"zip":"46991","miles_from_dt":27.26},{"city":"Amboy","state_name":"Indiana","lat":40.62859,"lng":-85.94673,"zip":"46911","miles_from_dt":27.27},{"city":"Kennard","state_name":"Indiana","lat":39.90442,"lng":-85.52001,"zip":"47351","miles_from_dt":27.56},{"city":"Carmel","state_name":"Indiana","lat":39.97975,"lng":-86.08595,"zip":"46033","miles_from_dt":27.82},{"city":"Somerset","state_name":"Indiana","lat":40.66777,"lng":-85.82975,"zip":"46984","miles_from_dt":27.88},{"city":"Mccordsville","state_name":"Indiana","lat":39.88627,"lng":-85.90404,"zip":"46055","miles_from_dt":28.26},{"city":"Sheridan","state_name":"Indiana","lat":40.13829,"lng":-86.23144,"zip":"46069","miles_from_dt":28.39},{"city":"Parker City","state_name":"Indiana","lat":40.18082,"lng":-85.20025,"zip":"47368","miles_from_dt":28.4},{"city":"West Middleton","state_name":"Indiana","lat":40.43948,"lng":-86.21765,"zip":"46995","miles_from_dt":28.51},{"city":"Dunkirk","state_name":"Indiana","lat":40.39694,"lng":-85.20821,"zip":"47336","miles_from_dt":28.56},{"city":"Kokomo","state_name":"Indiana","lat":40.52487,"lng":-86.15639,"zip":"46901","miles_from_dt":28.73},{"city":"La Fontaine","state_name":"Indiana","lat":40.6882,"lng":-85.69857,"zip":"46940","miles_from_dt":28.76},{"city":"Maxwell","state_name":"Indiana","lat":39.85639,"lng":-85.77038,"zip":"46154","miles_from_dt":28.77},{"city":"Westfield","state_name":"Indiana","lat":40.03651,"lng":-86.17289,"zip":"46074","miles_from_dt":28.79},{"city":"Carmel","state_name":"Indiana","lat":39.9798,"lng":-86.11924,"zip":"46082","miles_from_dt":29.06},{"city":"Indianapolis","state_name":"Indiana","lat":39.89132,"lng":-85.96766,"zip":"46236","miles_from_dt":29.26},{"city":"Indianapolis","state_name":"Indiana","lat":39.90682,"lng":-86.01152,"zip":"46256","miles_from_dt":29.44}],"targetCityZipCode":"46063","targetCityState":"Indiana"},"__N_SSG":true}