{"pageProps":{"stateName":"Indiana","cityName":"orland","nearbyCities":[{"city":"Mongo","state_name":"Indiana","lat":41.69272,"lng":-85.29639,"zip":"46771","miles_from_dt":7.03},{"city":"Bronson","state_name":"Michigan","lat":41.84438,"lng":-85.1837,"zip":"49028","miles_from_dt":8.07},{"city":"Howe","state_name":"Indiana","lat":41.72257,"lng":-85.34914,"zip":"46746","miles_from_dt":9.33},{"city":"Angola","state_name":"Indiana","lat":41.65305,"lng":-85.00976,"zip":"46703","miles_from_dt":9.71},{"city":"Stroh","state_name":"Indiana","lat":41.58274,"lng":-85.19742,"zip":"46789","miles_from_dt":10.13},{"city":"Hudson","state_name":"Indiana","lat":41.56042,"lng":-85.15349,"zip":"46747","miles_from_dt":11.59},{"city":"Burr Oak","state_name":"Michigan","lat":41.85529,"lng":-85.33129,"zip":"49030","miles_from_dt":12.15},{"city":"Lagrange","state_name":"Indiana","lat":41.63576,"lng":-85.37127,"zip":"46761","miles_from_dt":12.26},{"city":"Fremont","state_name":"Indiana","lat":41.72209,"lng":-84.92233,"zip":"46737","miles_from_dt":12.75},{"city":"Pleasant Lake","state_name":"Indiana","lat":41.5725,"lng":-85.03094,"zip":"46779","miles_from_dt":12.88},{"city":"Coldwater","state_name":"Michigan","lat":41.90565,"lng":-85.02391,"zip":"49036","miles_from_dt":14.37},{"city":"South Milford","state_name":"Indiana","lat":41.53156,"lng":-85.27269,"zip":"46786","miles_from_dt":14.58},{"city":"Wolcottville","state_name":"Indiana","lat":41.55116,"lng":-85.33941,"zip":"46795","miles_from_dt":15.06},{"city":"Ashley","state_name":"Indiana","lat":41.51816,"lng":-85.06029,"zip":"46705","miles_from_dt":15.53},{"city":"Sturgis","state_name":"Michigan","lat":41.82509,"lng":-85.44627,"zip":"49091","miles_from_dt":15.83},{"city":"Montgomery","state_name":"Michigan","lat":41.77152,"lng":-84.85499,"zip":"49255","miles_from_dt":16.49},{"city":"Colon","state_name":"Michigan","lat":41.96847,"lng":-85.32398,"zip":"49040","miles_from_dt":18.43},{"city":"Corunna","state_name":"Indiana","lat":41.454,"lng":-85.15504,"zip":"46730","miles_from_dt":18.92},{"city":"Sherwood","state_name":"Michigan","lat":42.00181,"lng":-85.23113,"zip":"49089","miles_from_dt":19.17},{"city":"Hamilton","state_name":"Indiana","lat":41.54919,"lng":-84.87892,"zip":"46742","miles_from_dt":19.43},{"city":"Rome City","state_name":"Indiana","lat":41.49797,"lng":-85.38797,"zip":"46784","miles_from_dt":19.51},{"city":"Nottawa","state_name":"Michigan","lat":41.91783,"lng":-85.44899,"zip":"49075","miles_from_dt":19.52},{"city":"Kendallville","state_name":"Indiana","lat":41.45119,"lng":-85.27209,"zip":"46755","miles_from_dt":19.83},{"city":"Waterloo","state_name":"Indiana","lat":41.46106,"lng":-85.01928,"zip":"46793","miles_from_dt":19.98},{"city":"Quincy","state_name":"Michigan","lat":41.94257,"lng":-84.876,"zip":"49082","miles_from_dt":21.16},{"city":"Shipshewana","state_name":"Indiana","lat":41.69285,"lng":-85.5831,"zip":"46565","miles_from_dt":21.56},{"city":"Centreville","state_name":"Michigan","lat":41.91779,"lng":-85.50767,"zip":"49032","miles_from_dt":21.86},{"city":"Union City","state_name":"Michigan","lat":42.04696,"lng":-85.11752,"zip":"49094","miles_from_dt":22.18},{"city":"Reading","state_name":"Michigan","lat":41.83689,"lng":-84.76419,"zip":"49274","miles_from_dt":22.21},{"city":"Topeka","state_name":"Indiana","lat":41.56795,"lng":-85.54667,"zip":"46571","miles_from_dt":22.46},{"city":"Leonidas","state_name":"Michigan","lat":42.03319,"lng":-85.35007,"zip":"49066","miles_from_dt":23.05},{"city":"Wawaka","state_name":"Indiana","lat":41.46654,"lng":-85.45946,"zip":"46794","miles_from_dt":23.5},{"city":"Edon","state_name":"Ohio","lat":41.58977,"lng":-84.75385,"zip":"43518","miles_from_dt":23.5},{"city":"Mendon","state_name":"Michigan","lat":42.01295,"lng":-85.45825,"zip":"49072","miles_from_dt":24.7},{"city":"Allen","state_name":"Michigan","lat":41.9498,"lng":-84.77036,"zip":"49227","miles_from_dt":25.64},{"city":"Camden","state_name":"Michigan","lat":41.74049,"lng":-84.66858,"zip":"49232","miles_from_dt":25.87},{"city":"Butler","state_name":"Indiana","lat":41.4237,"lng":-84.87425,"zip":"46721","miles_from_dt":25.96},{"city":"Athens","state_name":"Michigan","lat":42.10288,"lng":-85.22285,"zip":"49011","miles_from_dt":26.03},{"city":"Avilla","state_name":"Indiana","lat":41.35167,"lng":-85.25168,"zip":"46710","miles_from_dt":26.32},{"city":"White Pigeon","state_name":"Michigan","lat":41.79139,"lng":-85.67437,"zip":"49099","miles_from_dt":26.49},{"city":"Blakeslee","state_name":"Ohio","lat":41.52429,"lng":-84.73101,"zip":"43505","miles_from_dt":26.67},{"city":"Constantine","state_name":"Michigan","lat":41.85665,"lng":-85.67142,"zip":"49042","miles_from_dt":27.44},{"city":"Auburn","state_name":"Indiana","lat":41.34242,"lng":-85.03922,"zip":"46706","miles_from_dt":27.44},{"city":"Tekonsha","state_name":"Michigan","lat":42.09822,"lng":-84.97335,"zip":"49092","miles_from_dt":27.47},{"city":"Middlebury","state_name":"Indiana","lat":41.67571,"lng":-85.69768,"zip":"46540","miles_from_dt":27.59},{"city":"Fulton","state_name":"Michigan","lat":42.11538,"lng":-85.31936,"zip":"49052","miles_from_dt":27.84},{"city":"Ligonier","state_name":"Indiana","lat":41.46487,"lng":-85.5764,"zip":"46767","miles_from_dt":27.85},{"city":"Garrett","state_name":"Indiana","lat":41.32189,"lng":-85.13731,"zip":"46738","miles_from_dt":28.07},{"city":"Frontier","state_name":"Michigan","lat":41.79389,"lng":-84.62312,"zip":"49239","miles_from_dt":28.56},{"city":"Albion","state_name":"Indiana","lat":41.35846,"lng":-85.43034,"zip":"46701","miles_from_dt":28.88},{"city":"Burlington","state_name":"Michigan","lat":42.1423,"lng":-85.09107,"zip":"49029","miles_from_dt":28.88},{"city":"Montpelier","state_name":"Ohio","lat":41.60575,"lng":-84.6338,"zip":"43543","miles_from_dt":28.94},{"city":"Millersburg","state_name":"Indiana","lat":41.53341,"lng":-85.67119,"zip":"46543","miles_from_dt":29.27},{"city":"Litchfield","state_name":"Michigan","lat":42.03853,"lng":-84.76683,"zip":"49252","miles_from_dt":29.82},{"city":"Three Rivers","state_name":"Michigan","lat":41.97375,"lng":-85.64665,"zip":"49093","miles_from_dt":29.93}],"targetCityZipCode":"46776","targetCityState":"Indiana"},"__N_SSG":true}