{"pageProps":{"stateName":"Indiana","cityName":"plainville","nearbyCities":[{"city":"Elnora","state_name":"Indiana","lat":38.86386,"lng":-87.07804,"zip":"47529","miles_from_dt":5.92},{"city":"Westphalia","state_name":"Indiana","lat":38.86318,"lng":-87.23382,"zip":"47596","miles_from_dt":7.22},{"city":"Sandborn","state_name":"Indiana","lat":38.89288,"lng":-87.19055,"zip":"47578","miles_from_dt":7.59},{"city":"Edwardsport","state_name":"Indiana","lat":38.84447,"lng":-87.26806,"zip":"47528","miles_from_dt":7.99},{"city":"Odon","state_name":"Indiana","lat":38.83493,"lng":-86.98268,"zip":"47562","miles_from_dt":8.83},{"city":"Washington","state_name":"Indiana","lat":38.66139,"lng":-87.17479,"zip":"47501","miles_from_dt":9.19},{"city":"Bicknell","state_name":"Indiana","lat":38.779,"lng":-87.31809,"zip":"47512","miles_from_dt":9.84},{"city":"Ragsdale","state_name":"Indiana","lat":38.74418,"lng":-87.322,"zip":"47573","miles_from_dt":10.53},{"city":"Freelandville","state_name":"Indiana","lat":38.86265,"lng":-87.31285,"zip":"47535","miles_from_dt":10.71},{"city":"Montgomery","state_name":"Indiana","lat":38.64506,"lng":-87.04578,"zip":"47558","miles_from_dt":11.21},{"city":"Newberry","state_name":"Indiana","lat":38.92672,"lng":-86.9894,"zip":"47449","miles_from_dt":12.26},{"city":"Lyons","state_name":"Indiana","lat":38.96651,"lng":-87.09059,"zip":"47443","miles_from_dt":12.34},{"city":"Wheatland","state_name":"Indiana","lat":38.64745,"lng":-87.29802,"zip":"47597","miles_from_dt":13.21},{"city":"Scotland","state_name":"Indiana","lat":38.91183,"lng":-86.9047,"zip":"47457","miles_from_dt":15.02},{"city":"Bruceville","state_name":"Indiana","lat":38.7645,"lng":-87.41857,"zip":"47516","miles_from_dt":15.34},{"city":"Loogootee","state_name":"Indiana","lat":38.65398,"lng":-86.91108,"zip":"47553","miles_from_dt":15.43},{"city":"Cannelburg","state_name":"Indiana","lat":38.5976,"lng":-86.98793,"zip":"47519","miles_from_dt":15.58},{"city":"Oaktown","state_name":"Indiana","lat":38.85705,"lng":-87.43611,"zip":"47561","miles_from_dt":16.79},{"city":"Linton","state_name":"Indiana","lat":39.03976,"lng":-87.1743,"zip":"47441","miles_from_dt":17.27},{"city":"Carlisle","state_name":"Indiana","lat":38.95679,"lng":-87.37812,"zip":"47838","miles_from_dt":17.32},{"city":"Dugger","state_name":"Indiana","lat":39.04159,"lng":-87.26108,"zip":"47848","miles_from_dt":18.53},{"city":"Monroe City","state_name":"Indiana","lat":38.57005,"lng":-87.34132,"zip":"47557","miles_from_dt":18.85},{"city":"Switz City","state_name":"Indiana","lat":39.05474,"lng":-87.04338,"zip":"47465","miles_from_dt":18.86},{"city":"Crane","state_name":"Indiana","lat":38.88545,"lng":-86.80543,"zip":"47522","miles_from_dt":19.01},{"city":"Paxton","state_name":"Indiana","lat":39.01908,"lng":-87.39259,"zip":"47865","miles_from_dt":20.92},{"city":"Bloomfield","state_name":"Indiana","lat":39.01918,"lng":-86.86998,"zip":"47424","miles_from_dt":21.3},{"city":"Otwell","state_name":"Indiana","lat":38.48166,"lng":-87.09566,"zip":"47564","miles_from_dt":21.47},{"city":"Shoals","state_name":"Indiana","lat":38.65972,"lng":-86.76908,"zip":"47581","miles_from_dt":21.83},{"city":"Owensburg","state_name":"Indiana","lat":38.93472,"lng":-86.76773,"zip":"47453","miles_from_dt":22.22},{"city":"Midland","state_name":"Indiana","lat":39.11289,"lng":-87.18944,"zip":"47445","miles_from_dt":22.37},{"city":"Vincennes","state_name":"Indiana","lat":38.62136,"lng":-87.50594,"zip":"47591","miles_from_dt":23.15},{"city":"Petersburg","state_name":"Indiana","lat":38.46954,"lng":-87.30554,"zip":"47567","miles_from_dt":24},{"city":"Worthington","state_name":"Indiana","lat":39.14253,"lng":-86.99788,"zip":"47471","miles_from_dt":25.36},{"city":"Huron","state_name":"Indiana","lat":38.7135,"lng":-86.6769,"zip":"47437","miles_from_dt":25.4},{"city":"Sullivan","state_name":"Indiana","lat":39.09034,"lng":-87.41186,"zip":"47882","miles_from_dt":25.41},{"city":"Jasonville","state_name":"Indiana","lat":39.1582,"lng":-87.18237,"zip":"47438","miles_from_dt":25.44},{"city":"Williams","state_name":"Indiana","lat":38.81623,"lng":-86.64799,"zip":"47470","miles_from_dt":26.43},{"city":"Graysville","state_name":"Indiana","lat":39.10601,"lng":-87.43379,"zip":"47852","miles_from_dt":26.98},{"city":"Lawrenceville","state_name":"Illinois","lat":38.74668,"lng":-87.63754,"zip":"62439","miles_from_dt":27.23},{"city":"Jasper","state_name":"Indiana","lat":38.42053,"lng":-86.9632,"zip":"47547","miles_from_dt":27.24},{"city":"Jasper","state_name":"Indiana","lat":38.42071,"lng":-86.93469,"zip":"47546","miles_from_dt":27.79},{"city":"Winslow","state_name":"Indiana","lat":38.3875,"lng":-87.20711,"zip":"47598","miles_from_dt":28.11},{"city":"Coalmont","state_name":"Indiana","lat":39.1936,"lng":-87.23386,"zip":"47845","miles_from_dt":28.25},{"city":"Springville","state_name":"Indiana","lat":38.95755,"lng":-86.64815,"zip":"47462","miles_from_dt":28.73},{"city":"Flat Rock","state_name":"Illinois","lat":38.87301,"lng":-87.65891,"zip":"62427","miles_from_dt":28.74},{"city":"Hymera","state_name":"Indiana","lat":39.18844,"lng":-87.30216,"zip":"47855","miles_from_dt":28.82},{"city":"Palestine","state_name":"Illinois","lat":38.99394,"lng":-87.6066,"zip":"62451","miles_from_dt":28.94},{"city":"Hazleton","state_name":"Indiana","lat":38.47708,"lng":-87.49301,"zip":"47640","miles_from_dt":29.01},{"city":"Jasper","state_name":"Indiana","lat":38.39225,"lng":-86.95538,"zip":"47549","miles_from_dt":29.21},{"city":"Dubois","state_name":"Indiana","lat":38.47232,"lng":-86.77772,"zip":"47527","miles_from_dt":29.34},{"city":"Merom","state_name":"Indiana","lat":39.06528,"lng":-87.56658,"zip":"47861","miles_from_dt":29.91}],"targetCityZipCode":"47568","targetCityState":"Indiana"},"__N_SSG":true}