{"pageProps":{"stateName":"Indiana","cityName":"reelsville","nearbyCities":[{"city":"Harmony","state_name":"Indiana","lat":39.53757,"lng":-87.07277,"zip":"47853","miles_from_dt":5.59},{"city":"Putnamville","state_name":"Indiana","lat":39.57164,"lng":-86.86277,"zip":"46170","miles_from_dt":6.16},{"city":"Knightsville","state_name":"Indiana","lat":39.52403,"lng":-87.09111,"zip":"47857","miles_from_dt":6.61},{"city":"Brazil","state_name":"Indiana","lat":39.52423,"lng":-87.12276,"zip":"47834","miles_from_dt":8.29},{"city":"Greencastle","state_name":"Indiana","lat":39.65909,"lng":-86.89107,"zip":"46135","miles_from_dt":9.48},{"city":"Poland","state_name":"Indiana","lat":39.40892,"lng":-86.89822,"zip":"47868","miles_from_dt":9.48},{"city":"Cloverdale","state_name":"Indiana","lat":39.51252,"lng":-86.78711,"zip":"46120","miles_from_dt":9.8},{"city":"Centerpoint","state_name":"Indiana","lat":39.40863,"lng":-87.05937,"zip":"47840","miles_from_dt":10.01},{"city":"Carbon","state_name":"Indiana","lat":39.62929,"lng":-87.11281,"zip":"47837","miles_from_dt":10.09},{"city":"Bowling Green","state_name":"Indiana","lat":39.35841,"lng":-86.97773,"zip":"47833","miles_from_dt":12.21},{"city":"Staunton","state_name":"Indiana","lat":39.48722,"lng":-87.19029,"zip":"47881","miles_from_dt":12.32},{"city":"Bridgeton","state_name":"Indiana","lat":39.64924,"lng":-87.17221,"zip":"47836","miles_from_dt":13.43},{"city":"Fillmore","state_name":"Indiana","lat":39.65634,"lng":-86.74312,"zip":"46128","miles_from_dt":14.63},{"city":"Fontanet","state_name":"Indiana","lat":39.5736,"lng":-87.24594,"zip":"47851","miles_from_dt":15.07},{"city":"Quincy","state_name":"Indiana","lat":39.46314,"lng":-86.69781,"zip":"47456","miles_from_dt":15.28},{"city":"Patricksburg","state_name":"Indiana","lat":39.31271,"lng":-86.95672,"zip":"47455","miles_from_dt":15.37},{"city":"Seelyville","state_name":"Indiana","lat":39.49516,"lng":-87.26368,"zip":"47878","miles_from_dt":16.03},{"city":"Cory","state_name":"Indiana","lat":39.36601,"lng":-87.20041,"zip":"47846","miles_from_dt":17.05},{"city":"Eminence","state_name":"Indiana","lat":39.52188,"lng":-86.64179,"zip":"46125","miles_from_dt":17.46},{"city":"Rosedale","state_name":"Indiana","lat":39.62913,"lng":-87.27792,"zip":"47874","miles_from_dt":17.76},{"city":"Bainbridge","state_name":"Indiana","lat":39.76388,"lng":-86.81487,"zip":"46105","miles_from_dt":17.76},{"city":"Rockville","state_name":"Indiana","lat":39.75331,"lng":-87.16271,"zip":"47872","miles_from_dt":18.27},{"city":"Coatesville","state_name":"Indiana","lat":39.67776,"lng":-86.67345,"zip":"46121","miles_from_dt":18.55},{"city":"Terre Haute","state_name":"Indiana","lat":39.46433,"lng":-87.30855,"zip":"47803","miles_from_dt":18.84},{"city":"Stilesville","state_name":"Indiana","lat":39.59652,"lng":-86.61801,"zip":"46180","miles_from_dt":19.17},{"city":"Terre Haute","state_name":"Indiana","lat":39.54768,"lng":-87.32739,"zip":"47805","miles_from_dt":19.21},{"city":"Clay City","state_name":"Indiana","lat":39.27764,"lng":-87.11492,"zip":"47841","miles_from_dt":19.43},{"city":"Russellville","state_name":"Indiana","lat":39.82199,"lng":-86.97292,"zip":"46175","miles_from_dt":19.78},{"city":"Spencer","state_name":"Indiana","lat":39.28153,"lng":-86.78951,"zip":"47460","miles_from_dt":19.95},{"city":"Riley","state_name":"Indiana","lat":39.38978,"lng":-87.30026,"zip":"47871","miles_from_dt":20.4},{"city":"Coal City","state_name":"Indiana","lat":39.23915,"lng":-87.01266,"zip":"47427","miles_from_dt":20.57},{"city":"Terre Haute","state_name":"Indiana","lat":39.51273,"lng":-87.35199,"zip":"47808","miles_from_dt":20.57},{"city":"Freedom","state_name":"Indiana","lat":39.24052,"lng":-86.90655,"zip":"47431","miles_from_dt":20.6},{"city":"Gosport","state_name":"Indiana","lat":39.35569,"lng":-86.655,"zip":"47433","miles_from_dt":20.83},{"city":"Paragon","state_name":"Indiana","lat":39.42686,"lng":-86.58755,"zip":"46166","miles_from_dt":21.68},{"city":"Amo","state_name":"Indiana","lat":39.6896,"lng":-86.61384,"zip":"46103","miles_from_dt":21.7},{"city":"Roachdale","state_name":"Indiana","lat":39.82725,"lng":-86.8144,"zip":"46172","miles_from_dt":21.75},{"city":"Terre Haute","state_name":"Indiana","lat":39.49756,"lng":-87.39031,"zip":"47804","miles_from_dt":22.71},{"city":"Mecca","state_name":"Indiana","lat":39.72215,"lng":-87.33013,"zip":"47860","miles_from_dt":23.22},{"city":"Lewis","state_name":"Indiana","lat":39.26268,"lng":-87.22868,"zip":"47858","miles_from_dt":23.41},{"city":"Stinesville","state_name":"Indiana","lat":39.29995,"lng":-86.64979,"zip":"47464","miles_from_dt":23.53},{"city":"Monrovia","state_name":"Indiana","lat":39.55623,"lng":-86.52741,"zip":"46157","miles_from_dt":23.58},{"city":"Terre Haute","state_name":"Indiana","lat":39.47061,"lng":-87.40262,"zip":"47807","miles_from_dt":23.64},{"city":"Terre Haute","state_name":"Indiana","lat":39.47136,"lng":-87.40986,"zip":"47809","miles_from_dt":24.01},{"city":"Terre Haute","state_name":"Indiana","lat":39.46712,"lng":-87.41014,"zip":"47801","miles_from_dt":24.09},{"city":"Shepardsville","state_name":"Indiana","lat":39.59976,"lng":-87.41885,"zip":"47880","miles_from_dt":24.47},{"city":"Waveland","state_name":"Indiana","lat":39.88871,"lng":-87.05243,"zip":"47989","miles_from_dt":24.79},{"city":"Clayton","state_name":"Indiana","lat":39.65317,"lng":-86.52394,"zip":"46118","miles_from_dt":25.07},{"city":"Pimento","state_name":"Indiana","lat":39.28302,"lng":-87.3247,"zip":"47866","miles_from_dt":25.82},{"city":"Montezuma","state_name":"Indiana","lat":39.77184,"lng":-87.34527,"zip":"47862","miles_from_dt":25.9},{"city":"Ellettsville","state_name":"Indiana","lat":39.27581,"lng":-86.61444,"zip":"47429","miles_from_dt":26.05},{"city":"New Goshen","state_name":"Indiana","lat":39.57848,"lng":-87.45921,"zip":"47863","miles_from_dt":26.39},{"city":"Saint Mary Of The Woods","state_name":"Indiana","lat":39.50996,"lng":-87.46113,"zip":"47876","miles_from_dt":26.4},{"city":"Ladoga","state_name":"Indiana","lat":39.90048,"lng":-86.8178,"zip":"47954","miles_from_dt":26.44},{"city":"Marshall","state_name":"Indiana","lat":39.88595,"lng":-87.16999,"zip":"47859","miles_from_dt":26.48},{"city":"Universal","state_name":"Indiana","lat":39.62308,"lng":-87.45362,"zip":"47884","miles_from_dt":26.62},{"city":"Terre Haute","state_name":"Indiana","lat":39.35153,"lng":-87.4106,"zip":"47802","miles_from_dt":26.85},{"city":"Worthington","state_name":"Indiana","lat":39.14253,"lng":-86.99788,"zip":"47471","miles_from_dt":27.14},{"city":"West Terre Haute","state_name":"Indiana","lat":39.50872,"lng":-87.47679,"zip":"47885","miles_from_dt":27.24},{"city":"North Salem","state_name":"Indiana","lat":39.84522,"lng":-86.64716,"zip":"46165","miles_from_dt":27.39},{"city":"Coalmont","state_name":"Indiana","lat":39.1936,"lng":-87.23386,"zip":"47845","miles_from_dt":27.53},{"city":"Danville","state_name":"Indiana","lat":39.76822,"lng":-86.5475,"zip":"46122","miles_from_dt":27.6},{"city":"Clinton","state_name":"Indiana","lat":39.67569,"lng":-87.462,"zip":"47842","miles_from_dt":28.08},{"city":"Bloomingdale","state_name":"Indiana","lat":39.87879,"lng":-87.25463,"zip":"47832","miles_from_dt":28.19},{"city":"Jasonville","state_name":"Indiana","lat":39.1582,"lng":-87.18237,"zip":"47438","miles_from_dt":28.43},{"city":"New Market","state_name":"Indiana","lat":39.95452,"lng":-86.91996,"zip":"47965","miles_from_dt":29.04},{"city":"Prairieton","state_name":"Indiana","lat":39.37016,"lng":-87.47353,"zip":"47870","miles_from_dt":29.33},{"city":"Martinsville","state_name":"Indiana","lat":39.44783,"lng":-86.4275,"zip":"46151","miles_from_dt":29.52},{"city":"Bloomington","state_name":"Indiana","lat":39.22064,"lng":-86.5896,"zip":"47404","miles_from_dt":29.7},{"city":"Hymera","state_name":"Indiana","lat":39.18844,"lng":-87.30216,"zip":"47855","miles_from_dt":29.87}],"targetCityZipCode":"46171","targetCityState":"Indiana"},"__N_SSG":true}