{"pageProps":{"stateName":"Indiana","cityName":"russellville","nearbyCities":[{"city":"Waveland","state_name":"Indiana","lat":39.88871,"lng":-87.05243,"zip":"47989","miles_from_dt":6.25},{"city":"Roachdale","state_name":"Indiana","lat":39.82725,"lng":-86.8144,"zip":"46172","miles_from_dt":8.44},{"city":"Bainbridge","state_name":"Indiana","lat":39.76388,"lng":-86.81487,"zip":"46105","miles_from_dt":9.32},{"city":"New Market","state_name":"Indiana","lat":39.95452,"lng":-86.91996,"zip":"47965","miles_from_dt":9.57},{"city":"Ladoga","state_name":"Indiana","lat":39.90048,"lng":-86.8178,"zip":"47954","miles_from_dt":9.87},{"city":"Rockville","state_name":"Indiana","lat":39.75331,"lng":-87.16271,"zip":"47872","miles_from_dt":11.16},{"city":"Marshall","state_name":"Indiana","lat":39.88595,"lng":-87.16999,"zip":"47859","miles_from_dt":11.37},{"city":"Alamo","state_name":"Indiana","lat":39.98343,"lng":-87.05524,"zip":"47916","miles_from_dt":11.97},{"city":"Greencastle","state_name":"Indiana","lat":39.65909,"lng":-86.89107,"zip":"46135","miles_from_dt":12.05},{"city":"Wallace","state_name":"Indiana","lat":39.98897,"lng":-87.14678,"zip":"47988","miles_from_dt":14.77},{"city":"Carbon","state_name":"Indiana","lat":39.62929,"lng":-87.11281,"zip":"47837","miles_from_dt":15.24},{"city":"Crawfordsville","state_name":"Indiana","lat":40.03728,"lng":-86.90234,"zip":"47933","miles_from_dt":15.32},{"city":"New Ross","state_name":"Indiana","lat":39.96209,"lng":-86.74542,"zip":"47968","miles_from_dt":15.48},{"city":"Bloomingdale","state_name":"Indiana","lat":39.87879,"lng":-87.25463,"zip":"47832","miles_from_dt":15.48},{"city":"Bridgeton","state_name":"Indiana","lat":39.64924,"lng":-87.17221,"zip":"47836","miles_from_dt":15.96},{"city":"Fillmore","state_name":"Indiana","lat":39.65634,"lng":-86.74312,"zip":"46128","miles_from_dt":16.75},{"city":"Waynetown","state_name":"Indiana","lat":40.06118,"lng":-87.05952,"zip":"47990","miles_from_dt":17.13},{"city":"North Salem","state_name":"Indiana","lat":39.84522,"lng":-86.64716,"zip":"46165","miles_from_dt":17.4},{"city":"Putnamville","state_name":"Indiana","lat":39.57164,"lng":-86.86277,"zip":"46170","miles_from_dt":18.24},{"city":"Hillsboro","state_name":"Indiana","lat":40.06288,"lng":-87.13504,"zip":"47949","miles_from_dt":18.72},{"city":"Coatesville","state_name":"Indiana","lat":39.67776,"lng":-86.67345,"zip":"46121","miles_from_dt":18.8},{"city":"Reelsville","state_name":"Indiana","lat":39.53527,"lng":-86.96815,"zip":"46171","miles_from_dt":19.78},{"city":"Kingman","state_name":"Indiana","lat":39.96186,"lng":-87.30049,"zip":"47952","miles_from_dt":19.9},{"city":"Montezuma","state_name":"Indiana","lat":39.77184,"lng":-87.34527,"zip":"47862","miles_from_dt":20.12},{"city":"Mecca","state_name":"Indiana","lat":39.72215,"lng":-87.33013,"zip":"47860","miles_from_dt":20.23},{"city":"Harmony","state_name":"Indiana","lat":39.53757,"lng":-87.07277,"zip":"47853","miles_from_dt":20.33},{"city":"Rosedale","state_name":"Indiana","lat":39.62913,"lng":-87.27792,"zip":"47874","miles_from_dt":21},{"city":"Jamestown","state_name":"Indiana","lat":39.96988,"lng":-86.62693,"zip":"46147","miles_from_dt":21.03},{"city":"Amo","state_name":"Indiana","lat":39.6896,"lng":-86.61384,"zip":"46103","miles_from_dt":21.19},{"city":"Knightsville","state_name":"Indiana","lat":39.52403,"lng":-87.09111,"zip":"47857","miles_from_dt":21.5},{"city":"Brazil","state_name":"Indiana","lat":39.52423,"lng":-87.12276,"zip":"47834","miles_from_dt":22.04},{"city":"Advance","state_name":"Indiana","lat":39.99556,"lng":-86.61993,"zip":"46102","miles_from_dt":22.25},{"city":"Fontanet","state_name":"Indiana","lat":39.5736,"lng":-87.24594,"zip":"47851","miles_from_dt":22.48},{"city":"Lizton","state_name":"Indiana","lat":39.88545,"lng":-86.55758,"zip":"46149","miles_from_dt":22.52},{"city":"Danville","state_name":"Indiana","lat":39.76822,"lng":-86.5475,"zip":"46122","miles_from_dt":22.94},{"city":"Hillsdale","state_name":"Indiana","lat":39.80874,"lng":-87.41299,"zip":"47854","miles_from_dt":23.43},{"city":"Cloverdale","state_name":"Indiana","lat":39.51252,"lng":-86.78711,"zip":"46120","miles_from_dt":23.54},{"city":"Darlington","state_name":"Indiana","lat":40.11749,"lng":-86.7447,"zip":"47940","miles_from_dt":23.72},{"city":"Newport","state_name":"Indiana","lat":39.88843,"lng":-87.41433,"zip":"47966","miles_from_dt":23.91},{"city":"Stilesville","state_name":"Indiana","lat":39.59652,"lng":-86.61801,"zip":"46180","miles_from_dt":24.49},{"city":"Veedersburg","state_name":"Indiana","lat":40.11916,"lng":-87.23428,"zip":"47987","miles_from_dt":24.76},{"city":"Mellott","state_name":"Indiana","lat":40.16452,"lng":-87.14862,"zip":"47958","miles_from_dt":25.41},{"city":"Wingate","state_name":"Indiana","lat":40.18233,"lng":-87.08231,"zip":"47994","miles_from_dt":25.53},{"city":"New Richmond","state_name":"Indiana","lat":40.1942,"lng":-86.99899,"zip":"47967","miles_from_dt":25.72},{"city":"Staunton","state_name":"Indiana","lat":39.48722,"lng":-87.19029,"zip":"47881","miles_from_dt":25.84},{"city":"Linden","state_name":"Indiana","lat":40.1954,"lng":-86.86513,"zip":"47955","miles_from_dt":26.39},{"city":"Clayton","state_name":"Indiana","lat":39.65317,"lng":-86.52394,"zip":"46118","miles_from_dt":26.6},{"city":"Terre Haute","state_name":"Indiana","lat":39.54768,"lng":-87.32739,"zip":"47805","miles_from_dt":26.74},{"city":"Pittsboro","state_name":"Indiana","lat":39.87675,"lng":-86.46981,"zip":"46167","miles_from_dt":27.02},{"city":"Eminence","state_name":"Indiana","lat":39.52188,"lng":-86.64179,"zip":"46125","miles_from_dt":27.21},{"city":"Cayuga","state_name":"Indiana","lat":39.93237,"lng":-87.46501,"zip":"47928","miles_from_dt":27.24},{"city":"Seelyville","state_name":"Indiana","lat":39.49516,"lng":-87.26368,"zip":"47878","miles_from_dt":27.36},{"city":"Dana","state_name":"Indiana","lat":39.82293,"lng":-87.48865,"zip":"47847","miles_from_dt":27.44},{"city":"Clinton","state_name":"Indiana","lat":39.67569,"lng":-87.462,"zip":"47842","miles_from_dt":27.93},{"city":"Newtown","state_name":"Indiana","lat":40.20355,"lng":-87.14892,"zip":"47969","miles_from_dt":27.93},{"city":"Shepardsville","state_name":"Indiana","lat":39.59976,"lng":-87.41885,"zip":"47880","miles_from_dt":28.28},{"city":"Thorntown","state_name":"Indiana","lat":40.11941,"lng":-86.60549,"zip":"46071","miles_from_dt":28.31},{"city":"Poland","state_name":"Indiana","lat":39.40892,"lng":-86.89822,"zip":"47868","miles_from_dt":28.77},{"city":"Quincy","state_name":"Indiana","lat":39.46314,"lng":-86.69781,"zip":"47456","miles_from_dt":28.78},{"city":"Centerpoint","state_name":"Indiana","lat":39.40863,"lng":-87.05937,"zip":"47840","miles_from_dt":28.89},{"city":"Universal","state_name":"Indiana","lat":39.62308,"lng":-87.45362,"zip":"47884","miles_from_dt":29.05},{"city":"Romney","state_name":"Indiana","lat":40.24599,"lng":-86.93128,"zip":"47981","miles_from_dt":29.34},{"city":"Terre Haute","state_name":"Indiana","lat":39.51273,"lng":-87.35199,"zip":"47808","miles_from_dt":29.39},{"city":"Colfax","state_name":"Indiana","lat":40.18925,"lng":-86.67902,"zip":"46035","miles_from_dt":29.75}],"targetCityZipCode":"46175","targetCityState":"Indiana"},"__N_SSG":true}