{"pageProps":{"stateName":"Indiana","cityName":"stanford","nearbyCities":[{"city":"Bloomington","state_name":"Indiana","lat":39.08635,"lng":-86.61082,"zip":"47403","miles_from_dt":2.93},{"city":"Solsberry","state_name":"Indiana","lat":39.11167,"lng":-86.75125,"zip":"47459","miles_from_dt":4.82},{"city":"Harrodsburg","state_name":"Indiana","lat":39.01277,"lng":-86.54569,"zip":"47434","miles_from_dt":8.54},{"city":"Smithville","state_name":"Indiana","lat":39.07044,"lng":-86.50712,"zip":"47458","miles_from_dt":8.61},{"city":"Bloomington","state_name":"Indiana","lat":39.16761,"lng":-86.5211,"zip":"47405","miles_from_dt":9.16},{"city":"Bloomington","state_name":"Indiana","lat":39.22064,"lng":-86.5896,"zip":"47404","miles_from_dt":9.53},{"city":"Springville","state_name":"Indiana","lat":38.95755,"lng":-86.64815,"zip":"47462","miles_from_dt":9.54},{"city":"Bloomington","state_name":"Indiana","lat":39.17501,"lng":-86.51516,"zip":"47406","miles_from_dt":9.71},{"city":"Bloomington","state_name":"Indiana","lat":39.09555,"lng":-86.47274,"zip":"47402","miles_from_dt":10.29},{"city":"Bloomington","state_name":"Indiana","lat":39.17004,"lng":-86.49501,"zip":"47407","miles_from_dt":10.45},{"city":"Clear Creek","state_name":"Indiana","lat":39.09473,"lng":-86.46233,"zip":"47426","miles_from_dt":10.85},{"city":"Bloomington","state_name":"Indiana","lat":39.08613,"lng":-86.45138,"zip":"47401","miles_from_dt":11.45},{"city":"Bloomfield","state_name":"Indiana","lat":39.01918,"lng":-86.86998,"zip":"47424","miles_from_dt":12.25},{"city":"Owensburg","state_name":"Indiana","lat":38.93472,"lng":-86.76773,"zip":"47453","miles_from_dt":12.4},{"city":"Ellettsville","state_name":"Indiana","lat":39.27581,"lng":-86.61444,"zip":"47429","miles_from_dt":12.74},{"city":"Avoca","state_name":"Indiana","lat":38.91903,"lng":-86.54933,"zip":"47420","miles_from_dt":13.63},{"city":"Bloomington","state_name":"Indiana","lat":39.2283,"lng":-86.46452,"zip":"47408","miles_from_dt":14.11},{"city":"Stinesville","state_name":"Indiana","lat":39.29995,"lng":-86.64979,"zip":"47464","miles_from_dt":14.14},{"city":"Spencer","state_name":"Indiana","lat":39.28153,"lng":-86.78951,"zip":"47460","miles_from_dt":14.51},{"city":"Oolitic","state_name":"Indiana","lat":38.89176,"lng":-86.52536,"zip":"47451","miles_from_dt":15.9},{"city":"Crane","state_name":"Indiana","lat":38.88545,"lng":-86.80543,"zip":"47522","miles_from_dt":16.35},{"city":"Freedom","state_name":"Indiana","lat":39.24052,"lng":-86.90655,"zip":"47431","miles_from_dt":16.43},{"city":"Heltonville","state_name":"Indiana","lat":38.9598,"lng":-86.38358,"zip":"47436","miles_from_dt":17.75},{"city":"Gosport","state_name":"Indiana","lat":39.35569,"lng":-86.655,"zip":"47433","miles_from_dt":17.97},{"city":"Scotland","state_name":"Indiana","lat":38.91183,"lng":-86.9047,"zip":"47457","miles_from_dt":18.11},{"city":"Worthington","state_name":"Indiana","lat":39.14253,"lng":-86.99788,"zip":"47471","miles_from_dt":18.23},{"city":"Unionville","state_name":"Indiana","lat":39.27801,"lng":-86.40482,"zip":"47468","miles_from_dt":18.78},{"city":"Williams","state_name":"Indiana","lat":38.81623,"lng":-86.64799,"zip":"47470","miles_from_dt":19.27},{"city":"Bedford","state_name":"Indiana","lat":38.86415,"lng":-86.45122,"zip":"47421","miles_from_dt":19.63},{"city":"Switz City","state_name":"Indiana","lat":39.05474,"lng":-87.04338,"zip":"47465","miles_from_dt":20.59},{"city":"Newberry","state_name":"Indiana","lat":38.92672,"lng":-86.9894,"zip":"47449","miles_from_dt":21.02},{"city":"Coal City","state_name":"Indiana","lat":39.23915,"lng":-87.01266,"zip":"47427","miles_from_dt":21.19},{"city":"Patricksburg","state_name":"Indiana","lat":39.31271,"lng":-86.95672,"zip":"47455","miles_from_dt":21.72},{"city":"Helmsburg","state_name":"Indiana","lat":39.26576,"lng":-86.29516,"zip":"47435","miles_from_dt":23.04},{"city":"Nashville","state_name":"Indiana","lat":39.17531,"lng":-86.24481,"zip":"47448","miles_from_dt":23.19},{"city":"Paragon","state_name":"Indiana","lat":39.42686,"lng":-86.58755,"zip":"46166","miles_from_dt":23.24},{"city":"Norman","state_name":"Indiana","lat":38.96434,"lng":-86.26313,"zip":"47264","miles_from_dt":23.39},{"city":"Lyons","state_name":"Indiana","lat":38.96651,"lng":-87.09059,"zip":"47443","miles_from_dt":24.61},{"city":"Bowling Green","state_name":"Indiana","lat":39.35841,"lng":-86.97773,"zip":"47833","miles_from_dt":24.75},{"city":"Odon","state_name":"Indiana","lat":38.83493,"lng":-86.98268,"zip":"47562","miles_from_dt":24.84},{"city":"Poland","state_name":"Indiana","lat":39.40892,"lng":-86.89822,"zip":"47868","miles_from_dt":25.02},{"city":"Quincy","state_name":"Indiana","lat":39.46314,"lng":-86.69781,"zip":"47456","miles_from_dt":25.44},{"city":"Mitchell","state_name":"Indiana","lat":38.73818,"lng":-86.52031,"zip":"47446","miles_from_dt":25.82},{"city":"Huron","state_name":"Indiana","lat":38.7135,"lng":-86.6769,"zip":"47437","miles_from_dt":26.34},{"city":"Kurtz","state_name":"Indiana","lat":38.95637,"lng":-86.20423,"zip":"47249","miles_from_dt":26.53},{"city":"Clay City","state_name":"Indiana","lat":39.27764,"lng":-87.11492,"zip":"47841","miles_from_dt":27.28},{"city":"Elnora","state_name":"Indiana","lat":38.86386,"lng":-87.07804,"zip":"47529","miles_from_dt":27.41},{"city":"Martinsville","state_name":"Indiana","lat":39.44783,"lng":-86.4275,"zip":"46151","miles_from_dt":27.43},{"city":"Linton","state_name":"Indiana","lat":39.03976,"lng":-87.1743,"zip":"47441","miles_from_dt":27.7},{"city":"Morgantown","state_name":"Indiana","lat":39.35429,"lng":-86.26753,"zip":"46160","miles_from_dt":27.79},{"city":"Jasonville","state_name":"Indiana","lat":39.1582,"lng":-87.18237,"zip":"47438","miles_from_dt":28.18},{"city":"Midland","state_name":"Indiana","lat":39.11289,"lng":-87.18944,"zip":"47445","miles_from_dt":28.26},{"city":"Tunnelton","state_name":"Indiana","lat":38.76776,"lng":-86.34463,"zip":"47467","miles_from_dt":28.4},{"city":"Freetown","state_name":"Indiana","lat":39.01385,"lng":-86.14046,"zip":"47235","miles_from_dt":28.72},{"city":"Eminence","state_name":"Indiana","lat":39.52188,"lng":-86.64179,"zip":"46125","miles_from_dt":29.46},{"city":"Cloverdale","state_name":"Indiana","lat":39.51252,"lng":-86.78711,"zip":"46120","miles_from_dt":29.53}],"targetCityZipCode":"47463","targetCityState":"Indiana"},"__N_SSG":true}