{"pageProps":{"stateName":"Indiana","cityName":"star-city","nearbyCities":[{"city":"Royal Center","state_name":"Indiana","lat":40.8587,"lng":-86.51113,"zip":"46978","miles_from_dt":7.61},{"city":"Winamac","state_name":"Indiana","lat":41.0626,"lng":-86.65906,"zip":"46996","miles_from_dt":8.45},{"city":"Kewanna","state_name":"Indiana","lat":40.99337,"lng":-86.40359,"zip":"46939","miles_from_dt":9.71},{"city":"Grass Creek","state_name":"Indiana","lat":41.01861,"lng":-86.41333,"zip":"46935","miles_from_dt":9.87},{"city":"Buffalo","state_name":"Indiana","lat":40.88205,"lng":-86.74477,"zip":"47925","miles_from_dt":9.88},{"city":"Idaville","state_name":"Indiana","lat":40.80175,"lng":-86.65355,"zip":"47950","miles_from_dt":11.21},{"city":"Lucerne","state_name":"Indiana","lat":40.88391,"lng":-86.37162,"zip":"46950","miles_from_dt":12.06},{"city":"Burnettsville","state_name":"Indiana","lat":40.77789,"lng":-86.59707,"zip":"47926","miles_from_dt":12.24},{"city":"Lake Cicott","state_name":"Indiana","lat":40.76499,"lng":-86.53928,"zip":"46942","miles_from_dt":13.29},{"city":"Monterey","state_name":"Indiana","lat":41.15735,"lng":-86.52397,"zip":"46960","miles_from_dt":14.3},{"city":"Monticello","state_name":"Indiana","lat":40.78261,"lng":-86.74938,"zip":"47960","miles_from_dt":14.76},{"city":"Ora","state_name":"Indiana","lat":41.17049,"lng":-86.55179,"zip":"46968","miles_from_dt":14.97},{"city":"Francesville","state_name":"Indiana","lat":40.98427,"lng":-86.87014,"zip":"47946","miles_from_dt":15.19},{"city":"Delong","state_name":"Indiana","lat":41.13993,"lng":-86.42197,"zip":"46922","miles_from_dt":15.27},{"city":"Leiters Ford","state_name":"Indiana","lat":41.1211,"lng":-86.38516,"zip":"46945","miles_from_dt":15.42},{"city":"Fulton","state_name":"Indiana","lat":40.94693,"lng":-86.26456,"zip":"46931","miles_from_dt":16.63},{"city":"Logansport","state_name":"Indiana","lat":40.76044,"lng":-86.37303,"zip":"46947","miles_from_dt":17.32},{"city":"Monon","state_name":"Indiana","lat":40.86603,"lng":-86.89786,"zip":"47959","miles_from_dt":17.62},{"city":"Medaryville","state_name":"Indiana","lat":41.08937,"lng":-86.8772,"zip":"47957","miles_from_dt":17.99},{"city":"Twelve Mile","state_name":"Indiana","lat":40.8802,"lng":-86.23451,"zip":"46988","miles_from_dt":18.92},{"city":"Rochester","state_name":"Indiana","lat":41.0718,"lng":-86.25177,"zip":"46975","miles_from_dt":19.07},{"city":"Burrows","state_name":"Indiana","lat":40.67483,"lng":-86.50602,"zip":"46916","miles_from_dt":19.73},{"city":"Culver","state_name":"Indiana","lat":41.22182,"lng":-86.42889,"zip":"46511","miles_from_dt":20.09},{"city":"North Judson","state_name":"Indiana","lat":41.21443,"lng":-86.76922,"zip":"46366","miles_from_dt":20.4},{"city":"Yeoman","state_name":"Indiana","lat":40.66769,"lng":-86.72379,"zip":"47997","miles_from_dt":21.16},{"city":"Rockfield","state_name":"Indiana","lat":40.64147,"lng":-86.5733,"zip":"46977","miles_from_dt":21.63},{"city":"Reynolds","state_name":"Indiana","lat":40.75393,"lng":-86.90131,"zip":"47980","miles_from_dt":21.72},{"city":"Knox","state_name":"Indiana","lat":41.28561,"lng":-86.61878,"zip":"46534","miles_from_dt":22.9},{"city":"Camden","state_name":"Indiana","lat":40.62071,"lng":-86.46893,"zip":"46917","miles_from_dt":23.81},{"city":"San Pierre","state_name":"Indiana","lat":41.20616,"lng":-86.895,"zip":"46374","miles_from_dt":23.82},{"city":"Delphi","state_name":"Indiana","lat":40.606,"lng":-86.64568,"zip":"46923","miles_from_dt":24.3},{"city":"New Waverly","state_name":"Indiana","lat":40.76573,"lng":-86.18786,"zip":"46961","miles_from_dt":24.44},{"city":"Athens","state_name":"Indiana","lat":41.05506,"lng":-86.1254,"zip":"46912","miles_from_dt":24.86},{"city":"Macy","state_name":"Indiana","lat":40.94616,"lng":-86.10528,"zip":"46951","miles_from_dt":24.96},{"city":"Deedsville","state_name":"Indiana","lat":40.91011,"lng":-86.1018,"zip":"46921","miles_from_dt":25.33},{"city":"Argos","state_name":"Indiana","lat":41.22327,"lng":-86.24868,"zip":"46501","miles_from_dt":25.42},{"city":"Mexico","state_name":"Indiana","lat":40.81817,"lng":-86.12107,"zip":"46958","miles_from_dt":25.93},{"city":"Chalmers","state_name":"Indiana","lat":40.67587,"lng":-86.9185,"zip":"47929","miles_from_dt":26.1},{"city":"Walton","state_name":"Indiana","lat":40.66661,"lng":-86.25766,"zip":"46994","miles_from_dt":26.18},{"city":"Tefft","state_name":"Indiana","lat":41.19904,"lng":-86.9723,"zip":"46380","miles_from_dt":26.43},{"city":"Onward","state_name":"Indiana","lat":40.69504,"lng":-86.19483,"zip":"46967","miles_from_dt":27.09},{"city":"Kokomo","state_name":"Indiana","lat":40.65921,"lng":-86.23954,"zip":"46904","miles_from_dt":27.19},{"city":"Wolcott","state_name":"Indiana","lat":40.75861,"lng":-87.0329,"zip":"47995","miles_from_dt":27.22},{"city":"Grovertown","state_name":"Indiana","lat":41.35686,"lng":-86.51558,"zip":"46531","miles_from_dt":27.96},{"city":"Rensselaer","state_name":"Indiana","lat":40.97991,"lng":-87.1163,"zip":"47978","miles_from_dt":27.99},{"city":"Denver","state_name":"Indiana","lat":40.88283,"lng":-86.04945,"zip":"46926","miles_from_dt":28.33},{"city":"La Crosse","state_name":"Indiana","lat":41.30981,"lng":-86.86244,"zip":"46348","miles_from_dt":28.53},{"city":"Flora","state_name":"Indiana","lat":40.54802,"lng":-86.47411,"zip":"46929","miles_from_dt":28.64},{"city":"Young America","state_name":"Indiana","lat":40.57536,"lng":-86.35081,"zip":"46998","miles_from_dt":28.86},{"city":"Akron","state_name":"Indiana","lat":41.04537,"lng":-86.04151,"zip":"46910","miles_from_dt":28.95},{"city":"Donaldson","state_name":"Indiana","lat":41.3629,"lng":-86.44816,"zip":"46513","miles_from_dt":29.01},{"city":"Wheatfield","state_name":"Indiana","lat":41.18509,"lng":-87.04948,"zip":"46392","miles_from_dt":29.12},{"city":"Tippecanoe","state_name":"Indiana","lat":41.20766,"lng":-86.1207,"zip":"46570","miles_from_dt":29.75},{"city":"Galveston","state_name":"Indiana","lat":40.59675,"lng":-86.26243,"zip":"46932","miles_from_dt":29.87},{"city":"Brookston","state_name":"Indiana","lat":40.61015,"lng":-86.92667,"zip":"47923","miles_from_dt":29.87},{"city":"Grissom Arb","state_name":"Indiana","lat":40.6606,"lng":-86.16168,"zip":"46971","miles_from_dt":29.97}],"targetCityZipCode":"46985","targetCityState":"Indiana"},"__N_SSG":true}