{"pageProps":{"stateName":"Indiana","cityName":"union-city","nearbyCities":[{"city":"Union City","state_name":"Ohio","lat":40.21894,"lng":-84.76778,"zip":"45390","miles_from_dt":4.27},{"city":"Saratoga","state_name":"Indiana","lat":40.23692,"lng":-84.91845,"zip":"47382","miles_from_dt":4.34},{"city":"Winchester","state_name":"Indiana","lat":40.1679,"lng":-84.98667,"zip":"47394","miles_from_dt":7.86},{"city":"Ansonia","state_name":"Ohio","lat":40.2146,"lng":-84.65627,"zip":"45303","miles_from_dt":10.09},{"city":"Ridgeville","state_name":"Indiana","lat":40.28553,"lng":-85.03439,"zip":"47380","miles_from_dt":11.33},{"city":"Lynn","state_name":"Indiana","lat":40.04376,"lng":-84.9258,"zip":"47355","miles_from_dt":11.97},{"city":"Palestine","state_name":"Ohio","lat":40.05006,"lng":-84.74432,"zip":"45352","miles_from_dt":12.06},{"city":"Salamonia","state_name":"Indiana","lat":40.38665,"lng":-84.86465,"zip":"47381","miles_from_dt":12.48},{"city":"Rossburg","state_name":"Ohio","lat":40.28684,"lng":-84.63368,"zip":"45362","miles_from_dt":12.56},{"city":"Greenville","state_name":"Ohio","lat":40.09729,"lng":-84.64616,"zip":"45331","miles_from_dt":13.01},{"city":"New Weston","state_name":"Ohio","lat":40.32663,"lng":-84.65404,"zip":"45348","miles_from_dt":13.14},{"city":"Hollansburg","state_name":"Ohio","lat":39.99967,"lng":-84.78776,"zip":"45332","miles_from_dt":14.59},{"city":"Burkettsville","state_name":"Ohio","lat":40.35299,"lng":-84.64264,"zip":"45310","miles_from_dt":14.79},{"city":"Fort Recovery","state_name":"Ohio","lat":40.40986,"lng":-84.74644,"zip":"45846","miles_from_dt":15.01},{"city":"Farmland","state_name":"Indiana","lat":40.181,"lng":-85.1318,"zip":"47340","miles_from_dt":15.18},{"city":"Portland","state_name":"Indiana","lat":40.41874,"lng":-84.95896,"zip":"47371","miles_from_dt":15.81},{"city":"Fountain City","state_name":"Indiana","lat":39.9741,"lng":-84.89361,"zip":"47341","miles_from_dt":16.21},{"city":"North Star","state_name":"Ohio","lat":40.32472,"lng":-84.57359,"zip":"45350","miles_from_dt":16.59},{"city":"New Madison","state_name":"Ohio","lat":39.97934,"lng":-84.70911,"zip":"45346","miles_from_dt":17.27},{"city":"Modoc","state_name":"Indiana","lat":40.05488,"lng":-85.11204,"zip":"47358","miles_from_dt":17.51},{"city":"Versailles","state_name":"Ohio","lat":40.24511,"lng":-84.51314,"zip":"45380","miles_from_dt":17.84},{"city":"Saint Henry","state_name":"Ohio","lat":40.40574,"lng":-84.62791,"zip":"45883","miles_from_dt":17.97},{"city":"Williamsburg","state_name":"Indiana","lat":39.96559,"lng":-85.00325,"zip":"47393","miles_from_dt":18.56},{"city":"Redkey","state_name":"Indiana","lat":40.33863,"lng":-85.15356,"zip":"47373","miles_from_dt":18.61},{"city":"Parker City","state_name":"Indiana","lat":40.18082,"lng":-85.20025,"zip":"47368","miles_from_dt":18.79},{"city":"Gettysburg","state_name":"Ohio","lat":40.11621,"lng":-84.49676,"zip":"45328","miles_from_dt":19.54},{"city":"Osgood","state_name":"Ohio","lat":40.33954,"lng":-84.49574,"zip":"45351","miles_from_dt":20.7},{"city":"Webster","state_name":"Indiana","lat":39.91005,"lng":-84.94394,"zip":"47392","miles_from_dt":21.08},{"city":"Yorkshire","state_name":"Ohio","lat":40.32799,"lng":-84.47901,"zip":"45388","miles_from_dt":21.17},{"city":"Economy","state_name":"Indiana","lat":39.96337,"lng":-85.09471,"zip":"47339","miles_from_dt":21.3},{"city":"Coldwater","state_name":"Ohio","lat":40.48672,"lng":-84.67677,"zip":"45828","miles_from_dt":21.33},{"city":"Bradford","state_name":"Ohio","lat":40.12535,"lng":-84.45699,"zip":"45308","miles_from_dt":21.37},{"city":"Losantville","state_name":"Indiana","lat":40.04628,"lng":-85.19933,"zip":"47354","miles_from_dt":21.69},{"city":"Maria Stein","state_name":"Ohio","lat":40.39365,"lng":-84.51566,"zip":"45860","miles_from_dt":21.75},{"city":"Selma","state_name":"Indiana","lat":40.15123,"lng":-85.26399,"zip":"47383","miles_from_dt":22.41},{"city":"Arcanum","state_name":"Ohio","lat":39.98756,"lng":-84.53145,"zip":"45304","miles_from_dt":22.51},{"city":"New Paris","state_name":"Ohio","lat":39.88378,"lng":-84.76208,"zip":"45347","miles_from_dt":22.7},{"city":"Albany","state_name":"Indiana","lat":40.2787,"lng":-85.2672,"zip":"47320","miles_from_dt":22.79},{"city":"Dunkirk","state_name":"Indiana","lat":40.39694,"lng":-85.20821,"zip":"47336","miles_from_dt":23.19},{"city":"Russia","state_name":"Ohio","lat":40.23925,"lng":-84.39841,"zip":"45363","miles_from_dt":23.82},{"city":"Greens Fork","state_name":"Indiana","lat":39.892,"lng":-85.04765,"zip":"47345","miles_from_dt":24.16},{"city":"Pitsburg","state_name":"Ohio","lat":39.98724,"lng":-84.48796,"zip":"45358","miles_from_dt":24.28},{"city":"Bryant","state_name":"Indiana","lat":40.54597,"lng":-84.97018,"zip":"47326","miles_from_dt":24.33},{"city":"Chickasaw","state_name":"Ohio","lat":40.43658,"lng":-84.49368,"zip":"45826","miles_from_dt":24.5},{"city":"West Manchester","state_name":"Ohio","lat":39.89621,"lng":-84.61626,"zip":"45382","miles_from_dt":24.63},{"city":"Eldorado","state_name":"Ohio","lat":39.87134,"lng":-84.67775,"zip":"45321","miles_from_dt":24.78},{"city":"Montezuma","state_name":"Ohio","lat":40.48905,"lng":-84.54969,"zip":"45866","miles_from_dt":25.03},{"city":"Hagerstown","state_name":"Indiana","lat":39.93442,"lng":-85.16306,"zip":"47346","miles_from_dt":25.16},{"city":"Mooreland","state_name":"Indiana","lat":40.01677,"lng":-85.2614,"zip":"47360","miles_from_dt":25.56},{"city":"Richmond","state_name":"Indiana","lat":39.83376,"lng":-84.88997,"zip":"47374","miles_from_dt":25.8},{"city":"Richmond","state_name":"Indiana","lat":39.8307,"lng":-84.89418,"zip":"47375","miles_from_dt":26.03},{"city":"Pennville","state_name":"Indiana","lat":40.50714,"lng":-85.14715,"zip":"47369","miles_from_dt":26.12},{"city":"Fort Loramie","state_name":"Ohio","lat":40.32995,"lng":-84.37806,"zip":"45845","miles_from_dt":26.2},{"city":"Covington","state_name":"Ohio","lat":40.12745,"lng":-84.35391,"zip":"45318","miles_from_dt":26.65},{"city":"Celina","state_name":"Ohio","lat":40.55266,"lng":-84.59664,"zip":"45822","miles_from_dt":27.3},{"city":"Houston","state_name":"Ohio","lat":40.2481,"lng":-84.33209,"zip":"45333","miles_from_dt":27.37},{"city":"Laura","state_name":"Ohio","lat":39.98019,"lng":-84.42095,"zip":"45337","miles_from_dt":27.43},{"city":"Eaton","state_name":"Indiana","lat":40.34363,"lng":-85.33977,"zip":"47338","miles_from_dt":27.73},{"city":"Geneva","state_name":"Indiana","lat":40.60298,"lng":-84.9638,"zip":"46740","miles_from_dt":28.06},{"city":"Minster","state_name":"Ohio","lat":40.39379,"lng":-84.37219,"zip":"45865","miles_from_dt":28.21},{"city":"Verona","state_name":"Ohio","lat":39.90291,"lng":-84.48781,"zip":"45378","miles_from_dt":28.29},{"city":"Potsdam","state_name":"Ohio","lat":39.96374,"lng":-84.41484,"zip":"45361","miles_from_dt":28.35},{"city":"Pleasant Hill","state_name":"Ohio","lat":40.05067,"lng":-84.3511,"zip":"45359","miles_from_dt":28.36},{"city":"Muncie","state_name":"Indiana","lat":40.27108,"lng":-85.37648,"zip":"47303","miles_from_dt":28.37},{"city":"Muncie","state_name":"Indiana","lat":40.12992,"lng":-85.37553,"zip":"47302","miles_from_dt":28.48},{"city":"Muncie","state_name":"Indiana","lat":40.19387,"lng":-85.38556,"zip":"47305","miles_from_dt":28.52},{"city":"Muncie","state_name":"Indiana","lat":40.13032,"lng":-85.37925,"zip":"47308","miles_from_dt":28.67},{"city":"Muncie","state_name":"Indiana","lat":40.17769,"lng":-85.39506,"zip":"47307","miles_from_dt":29.08},{"city":"Lewisburg","state_name":"Ohio","lat":39.85147,"lng":-84.54417,"zip":"45338","miles_from_dt":29.27},{"city":"New Bremen","state_name":"Ohio","lat":40.4573,"lng":-84.39432,"zip":"45869","miles_from_dt":29.51},{"city":"Muncie","state_name":"Indiana","lat":40.20542,"lng":-85.40726,"zip":"47306","miles_from_dt":29.65},{"city":"Ludlow Falls","state_name":"Ohio","lat":40.00826,"lng":-84.34315,"zip":"45339","miles_from_dt":29.97}],"targetCityZipCode":"47390","targetCityState":"Indiana"},"__N_SSG":true}