{"pageProps":{"stateName":"Indiana","cityName":"walton","nearbyCities":[{"city":"Kokomo","state_name":"Indiana","lat":40.65921,"lng":-86.23954,"zip":"46904","miles_from_dt":1.08},{"city":"Onward","state_name":"Indiana","lat":40.69504,"lng":-86.19483,"zip":"46967","miles_from_dt":3.84},{"city":"Galveston","state_name":"Indiana","lat":40.59675,"lng":-86.26243,"zip":"46932","miles_from_dt":4.83},{"city":"Grissom Arb","state_name":"Indiana","lat":40.6606,"lng":-86.16168,"zip":"46971","miles_from_dt":5.06},{"city":"New Waverly","state_name":"Indiana","lat":40.76573,"lng":-86.18786,"zip":"46961","miles_from_dt":7.76},{"city":"Young America","state_name":"Indiana","lat":40.57536,"lng":-86.35081,"zip":"46998","miles_from_dt":7.98},{"city":"Miami","state_name":"Indiana","lat":40.61272,"lng":-86.11245,"zip":"46959","miles_from_dt":8.49},{"city":"Logansport","state_name":"Indiana","lat":40.76044,"lng":-86.37303,"zip":"46947","miles_from_dt":8.87},{"city":"Bunker Hill","state_name":"Indiana","lat":40.63068,"lng":-86.09515,"zip":"46914","miles_from_dt":8.89},{"city":"Kokomo","state_name":"Indiana","lat":40.52487,"lng":-86.15639,"zip":"46901","miles_from_dt":11.14},{"city":"Camden","state_name":"Indiana","lat":40.62071,"lng":-86.46893,"zip":"46917","miles_from_dt":11.55},{"city":"Peru","state_name":"Indiana","lat":40.75827,"lng":-86.0614,"zip":"46970","miles_from_dt":12.09},{"city":"Mexico","state_name":"Indiana","lat":40.81817,"lng":-86.12107,"zip":"46958","miles_from_dt":12.68},{"city":"Burrows","state_name":"Indiana","lat":40.67483,"lng":-86.50602,"zip":"46916","miles_from_dt":13.06},{"city":"Flora","state_name":"Indiana","lat":40.54802,"lng":-86.47411,"zip":"46929","miles_from_dt":14.02},{"city":"Burlington","state_name":"Indiana","lat":40.47832,"lng":-86.38636,"zip":"46915","miles_from_dt":14.65},{"city":"Kokomo","state_name":"Indiana","lat":40.47505,"lng":-86.13183,"zip":"46903","miles_from_dt":14.78},{"city":"Twelve Mile","state_name":"Indiana","lat":40.8802,"lng":-86.23451,"zip":"46988","miles_from_dt":14.79},{"city":"West Middleton","state_name":"Indiana","lat":40.43948,"lng":-86.21765,"zip":"46995","miles_from_dt":15.81},{"city":"Lucerne","state_name":"Indiana","lat":40.88391,"lng":-86.37162,"zip":"46950","miles_from_dt":16.14},{"city":"Lake Cicott","state_name":"Indiana","lat":40.76499,"lng":-86.53928,"zip":"46942","miles_from_dt":16.27},{"city":"Russiaville","state_name":"Indiana","lat":40.42759,"lng":-86.27737,"zip":"46979","miles_from_dt":16.53},{"city":"Amboy","state_name":"Indiana","lat":40.62859,"lng":-85.94673,"zip":"46911","miles_from_dt":16.55},{"city":"Rockfield","state_name":"Indiana","lat":40.64147,"lng":-86.5733,"zip":"46977","miles_from_dt":16.68},{"city":"Bringhurst","state_name":"Indiana","lat":40.50364,"lng":-86.49739,"zip":"46913","miles_from_dt":16.9},{"city":"Kokomo","state_name":"Indiana","lat":40.43743,"lng":-86.09111,"zip":"46902","miles_from_dt":18.08},{"city":"Denver","state_name":"Indiana","lat":40.88283,"lng":-86.04945,"zip":"46926","miles_from_dt":18.49},{"city":"Deedsville","state_name":"Indiana","lat":40.91011,"lng":-86.1018,"zip":"46921","miles_from_dt":18.69},{"city":"Cutler","state_name":"Indiana","lat":40.46459,"lng":-86.49502,"zip":"46920","miles_from_dt":18.72},{"city":"Royal Center","state_name":"Indiana","lat":40.8587,"lng":-86.51113,"zip":"46978","miles_from_dt":18.78},{"city":"Oakford","state_name":"Indiana","lat":40.41601,"lng":-86.10183,"zip":"46965","miles_from_dt":19.14},{"city":"Fulton","state_name":"Indiana","lat":40.94693,"lng":-86.26456,"zip":"46931","miles_from_dt":19.35},{"city":"Burnettsville","state_name":"Indiana","lat":40.77789,"lng":-86.59707,"zip":"47926","miles_from_dt":19.4},{"city":"Forest","state_name":"Indiana","lat":40.37022,"lng":-86.31173,"zip":"46039","miles_from_dt":20.65},{"city":"Delphi","state_name":"Indiana","lat":40.606,"lng":-86.64568,"zip":"46923","miles_from_dt":20.82},{"city":"Macy","state_name":"Indiana","lat":40.94616,"lng":-86.10528,"zip":"46951","miles_from_dt":20.88},{"city":"Hemlock","state_name":"Indiana","lat":40.41523,"lng":-86.03693,"zip":"46937","miles_from_dt":20.88},{"city":"Converse","state_name":"Indiana","lat":40.58826,"lng":-85.8706,"zip":"46919","miles_from_dt":21.05},{"city":"Greentown","state_name":"Indiana","lat":40.47942,"lng":-85.93102,"zip":"46936","miles_from_dt":21.5},{"city":"Sharpsville","state_name":"Indiana","lat":40.37511,"lng":-86.1112,"zip":"46068","miles_from_dt":21.54},{"city":"Sedalia","state_name":"Indiana","lat":40.41598,"lng":-86.51539,"zip":"46067","miles_from_dt":21.98},{"city":"Somerset","state_name":"Indiana","lat":40.66777,"lng":-85.82975,"zip":"46984","miles_from_dt":22.48},{"city":"Idaville","state_name":"Indiana","lat":40.80175,"lng":-86.65355,"zip":"47950","miles_from_dt":22.78},{"city":"Michigantown","state_name":"Indiana","lat":40.33796,"lng":-86.37801,"zip":"46057","miles_from_dt":23.55},{"city":"Kewanna","state_name":"Indiana","lat":40.99337,"lng":-86.40359,"zip":"46939","miles_from_dt":23.81},{"city":"Wabash","state_name":"Indiana","lat":40.78509,"lng":-85.82961,"zip":"46992","miles_from_dt":23.91},{"city":"Yeoman","state_name":"Indiana","lat":40.66769,"lng":-86.72379,"zip":"47997","miles_from_dt":24.49},{"city":"Rossville","state_name":"Indiana","lat":40.42318,"lng":-86.60992,"zip":"46065","miles_from_dt":25.02},{"city":"Kempton","state_name":"Indiana","lat":40.29757,"lng":-86.22165,"zip":"46049","miles_from_dt":25.53},{"city":"Grass Creek","state_name":"Indiana","lat":41.01861,"lng":-86.41333,"zip":"46935","miles_from_dt":25.62},{"city":"Swayzee","state_name":"Indiana","lat":40.49481,"lng":-85.81929,"zip":"46986","miles_from_dt":25.93},{"city":"Roann","state_name":"Indiana","lat":40.94839,"lng":-85.93041,"zip":"46974","miles_from_dt":25.93},{"city":"Star City","state_name":"Indiana","lat":40.95485,"lng":-86.58225,"zip":"46985","miles_from_dt":26.18},{"city":"Goldsmith","state_name":"Indiana","lat":40.2898,"lng":-86.14832,"zip":"46045","miles_from_dt":26.63},{"city":"Sweetser","state_name":"Indiana","lat":40.56847,"lng":-85.76722,"zip":"46987","miles_from_dt":26.66},{"city":"Windfall","state_name":"Indiana","lat":40.36318,"lng":-85.9374,"zip":"46076","miles_from_dt":26.88},{"city":"Monticello","state_name":"Indiana","lat":40.78261,"lng":-86.74938,"zip":"47960","miles_from_dt":27.03},{"city":"Athens","state_name":"Indiana","lat":41.05506,"lng":-86.1254,"zip":"46912","miles_from_dt":27.69},{"city":"Rochester","state_name":"Indiana","lat":41.0718,"lng":-86.25177,"zip":"46975","miles_from_dt":27.96},{"city":"Tipton","state_name":"Indiana","lat":40.28526,"lng":-86.06891,"zip":"46072","miles_from_dt":28.13},{"city":"Frankfort","state_name":"Indiana","lat":40.29695,"lng":-86.49216,"zip":"46041","miles_from_dt":28.34},{"city":"Akron","state_name":"Indiana","lat":41.04537,"lng":-86.04151,"zip":"46910","miles_from_dt":28.48},{"city":"Buck Creek","state_name":"Indiana","lat":40.48991,"lng":-86.75759,"zip":"47924","miles_from_dt":28.99},{"city":"La Fontaine","state_name":"Indiana","lat":40.6882,"lng":-85.69857,"zip":"46940","miles_from_dt":29.41},{"city":"Mulberry","state_name":"Indiana","lat":40.35981,"lng":-86.64777,"zip":"46058","miles_from_dt":29.5},{"city":"Buffalo","state_name":"Indiana","lat":40.88205,"lng":-86.74477,"zip":"47925","miles_from_dt":29.56}],"targetCityZipCode":"46994","targetCityState":"Indiana"},"__N_SSG":true}