{"pageProps":{"stateName":"Indiana","cityName":"westfield","nearbyCities":[{"city":"Carmel","state_name":"Indiana","lat":39.9798,"lng":-86.11924,"zip":"46082","miles_from_dt":4.84},{"city":"Carmel","state_name":"Indiana","lat":39.96535,"lng":-86.17104,"zip":"46032","miles_from_dt":4.91},{"city":"Carmel","state_name":"Indiana","lat":39.97975,"lng":-86.08595,"zip":"46033","miles_from_dt":6.05},{"city":"Noblesville","state_name":"Indiana","lat":40.06146,"lng":-86.05523,"zip":"46062","miles_from_dt":6.47},{"city":"Zionsville","state_name":"Indiana","lat":39.98281,"lng":-86.28346,"zip":"46077","miles_from_dt":6.94},{"city":"Indianapolis","state_name":"Indiana","lat":39.93376,"lng":-86.16256,"zip":"46290","miles_from_dt":7.11},{"city":"Indianapolis","state_name":"Indiana","lat":39.93714,"lng":-86.11786,"zip":"46280","miles_from_dt":7.45},{"city":"Noblesville","state_name":"Indiana","lat":40.05761,"lng":-86.03172,"zip":"46061","miles_from_dt":7.63},{"city":"Sheridan","state_name":"Indiana","lat":40.13829,"lng":-86.23144,"zip":"46069","miles_from_dt":7.68},{"city":"Whitestown","state_name":"Indiana","lat":40.02637,"lng":-86.3346,"zip":"46075","miles_from_dt":8.61},{"city":"Indianapolis","state_name":"Indiana","lat":39.90697,"lng":-86.12367,"zip":"46240","miles_from_dt":9.31},{"city":"Fishers","state_name":"Indiana","lat":39.96722,"lng":-86.01712,"zip":"46038","miles_from_dt":9.55},{"city":"Indianapolis","state_name":"Indiana","lat":39.89744,"lng":-86.17927,"zip":"46260","miles_from_dt":9.6},{"city":"Cicero","state_name":"Indiana","lat":40.13291,"lng":-86.04128,"zip":"46034","miles_from_dt":9.64},{"city":"Fishers","state_name":"Indiana","lat":39.96,"lng":-86.01219,"zip":"46085","miles_from_dt":10.03},{"city":"Indianapolis","state_name":"Indiana","lat":39.89769,"lng":-86.23253,"zip":"46268","miles_from_dt":10.09},{"city":"Indianapolis","state_name":"Indiana","lat":39.89393,"lng":-86.22994,"zip":"46298","miles_from_dt":10.29},{"city":"Indianapolis","state_name":"Indiana","lat":39.90399,"lng":-86.06864,"zip":"46250","miles_from_dt":10.69},{"city":"Indianapolis","state_name":"Indiana","lat":39.89389,"lng":-86.29606,"zip":"46278","miles_from_dt":11.81},{"city":"Indianapolis","state_name":"Indiana","lat":39.8676,"lng":-86.10818,"zip":"46220","miles_from_dt":12.15},{"city":"Indianapolis","state_name":"Indiana","lat":39.86675,"lng":-86.10915,"zip":"46230","miles_from_dt":12.19},{"city":"Arcadia","state_name":"Indiana","lat":40.17031,"lng":-86.02118,"zip":"46030","miles_from_dt":12.24},{"city":"Indianapolis","state_name":"Indiana","lat":39.90682,"lng":-86.01152,"zip":"46256","miles_from_dt":12.39},{"city":"Noblesville","state_name":"Indiana","lat":40.06616,"lng":-85.93137,"zip":"46060","miles_from_dt":12.97},{"city":"Indianapolis","state_name":"Indiana","lat":39.8487,"lng":-86.20045,"zip":"46228","miles_from_dt":13.04},{"city":"Fishers","state_name":"Indiana","lat":39.96077,"lng":-85.94446,"zip":"46037","miles_from_dt":13.2},{"city":"Indianapolis","state_name":"Indiana","lat":39.84796,"lng":-86.26936,"zip":"46254","miles_from_dt":13.98},{"city":"Indianapolis","state_name":"Indiana","lat":39.82813,"lng":-86.13499,"zip":"46205","miles_from_dt":14.52},{"city":"Indianapolis","state_name":"Indiana","lat":39.86593,"lng":-86.00929,"zip":"46216","miles_from_dt":14.63},{"city":"Atlanta","state_name":"Indiana","lat":40.20935,"lng":-86.01018,"zip":"46031","miles_from_dt":14.71},{"city":"Indianapolis","state_name":"Indiana","lat":39.82307,"lng":-86.17307,"zip":"46208","miles_from_dt":14.73},{"city":"Indianapolis","state_name":"Indiana","lat":39.89132,"lng":-85.96766,"zip":"46236","miles_from_dt":14.8},{"city":"Kirklin","state_name":"Indiana","lat":40.20515,"lng":-86.34629,"zip":"46050","miles_from_dt":14.82},{"city":"Indianapolis","state_name":"Indiana","lat":39.83968,"lng":-86.05117,"zip":"46226","miles_from_dt":15.04},{"city":"Indianapolis","state_name":"Indiana","lat":39.862,"lng":-86.00204,"zip":"46249","miles_from_dt":15.08},{"city":"Lebanon","state_name":"Indiana","lat":40.04448,"lng":-86.46086,"zip":"46052","miles_from_dt":15.28},{"city":"Indianapolis","state_name":"Indiana","lat":39.82687,"lng":-86.27078,"zip":"46253","miles_from_dt":15.37},{"city":"Brownsburg","state_name":"Indiana","lat":39.86561,"lng":-86.38215,"zip":"46112","miles_from_dt":16.2},{"city":"Indianapolis","state_name":"Indiana","lat":39.80713,"lng":-86.09958,"zip":"46218","miles_from_dt":16.3},{"city":"Indianapolis","state_name":"Indiana","lat":39.79088,"lng":-86.21477,"zip":"46222","miles_from_dt":17.09},{"city":"Indianapolis","state_name":"Indiana","lat":39.79537,"lng":-86.25624,"zip":"46224","miles_from_dt":17.22},{"city":"Indianapolis","state_name":"Indiana","lat":39.83784,"lng":-85.97651,"zip":"46235","miles_from_dt":17.22},{"city":"Indianapolis","state_name":"Indiana","lat":39.78363,"lng":-86.16187,"zip":"46202","miles_from_dt":17.46},{"city":"Goldsmith","state_name":"Indiana","lat":40.2898,"lng":-86.14832,"zip":"46045","miles_from_dt":17.52},{"city":"Indianapolis","state_name":"Indiana","lat":39.81077,"lng":-86.32665,"zip":"46234","miles_from_dt":17.59},{"city":"Mccordsville","state_name":"Indiana","lat":39.88627,"lng":-85.90404,"zip":"46055","miles_from_dt":17.64},{"city":"Lapel","state_name":"Indiana","lat":40.05855,"lng":-85.83794,"zip":"46051","miles_from_dt":17.83},{"city":"Indianapolis","state_name":"Indiana","lat":39.7771,"lng":-86.1458,"zip":"46288","miles_from_dt":17.96},{"city":"Indianapolis","state_name":"Indiana","lat":39.7917,"lng":-86.29009,"zip":"46214","miles_from_dt":18},{"city":"Tipton","state_name":"Indiana","lat":40.28526,"lng":-86.06891,"zip":"46072","miles_from_dt":18.02},{"city":"Indianapolis","state_name":"Indiana","lat":39.77438,"lng":-86.15879,"zip":"46244","miles_from_dt":18.1},{"city":"Indianapolis","state_name":"Indiana","lat":39.77728,"lng":-86.11179,"zip":"46283","miles_from_dt":18.18},{"city":"Kempton","state_name":"Indiana","lat":40.29757,"lng":-86.22165,"zip":"46049","miles_from_dt":18.2},{"city":"Indianapolis","state_name":"Indiana","lat":39.77203,"lng":-86.15502,"zip":"46277","miles_from_dt":18.27},{"city":"Indianapolis","state_name":"Indiana","lat":39.77134,"lng":-86.15703,"zip":"46204","miles_from_dt":18.31},{"city":"Indianapolis","state_name":"Indiana","lat":39.77369,"lng":-86.10949,"zip":"46201","miles_from_dt":18.44},{"city":"Indianapolis","state_name":"Indiana","lat":39.76938,"lng":-86.16017,"zip":"46282","miles_from_dt":18.44},{"city":"Indianapolis","state_name":"Indiana","lat":39.76798,"lng":-86.15809,"zip":"46262","miles_from_dt":18.54},{"city":"Indianapolis","state_name":"Indiana","lat":39.76674,"lng":-86.16397,"zip":"46255","miles_from_dt":18.62},{"city":"Indianapolis","state_name":"Indiana","lat":39.78314,"lng":-86.04444,"zip":"46219","miles_from_dt":18.77},{"city":"Indianapolis","state_name":"Indiana","lat":39.76027,"lng":-86.16107,"zip":"46206","miles_from_dt":19.07},{"city":"Pittsboro","state_name":"Indiana","lat":39.87675,"lng":-86.46981,"zip":"46167","miles_from_dt":19.24},{"city":"Fortville","state_name":"Indiana","lat":39.92773,"lng":-85.83424,"zip":"46040","miles_from_dt":19.48},{"city":"Indianapolis","state_name":"Indiana","lat":39.78852,"lng":-85.978,"zip":"46229","miles_from_dt":20},{"city":"Indianapolis","state_name":"Indiana","lat":39.745,"lng":-86.15861,"zip":"46209","miles_from_dt":20.13},{"city":"Ingalls","state_name":"Indiana","lat":39.9543,"lng":-85.80755,"zip":"46048","miles_from_dt":20.2},{"city":"Indianapolis","state_name":"Indiana","lat":39.74301,"lng":-86.16281,"zip":"46285","miles_from_dt":20.26},{"city":"Indianapolis","state_name":"Indiana","lat":39.74224,"lng":-86.1643,"zip":"46207","miles_from_dt":20.31},{"city":"Indianapolis","state_name":"Indiana","lat":39.74062,"lng":-86.16294,"zip":"46225","miles_from_dt":20.42},{"city":"Hobbs","state_name":"Indiana","lat":40.28418,"lng":-85.94739,"zip":"46047","miles_from_dt":20.84},{"city":"Indianapolis","state_name":"Indiana","lat":39.7368,"lng":-86.09586,"zip":"46203","miles_from_dt":21.08},{"city":"Indianapolis","state_name":"Indiana","lat":39.72389,"lng":-86.26842,"zip":"46241","miles_from_dt":22.16},{"city":"Indianapolis","state_name":"Indiana","lat":39.72413,"lng":-86.26979,"zip":"46251","miles_from_dt":22.16},{"city":"Avon","state_name":"Indiana","lat":39.76502,"lng":-86.40015,"zip":"46123","miles_from_dt":22.29},{"city":"Indianapolis","state_name":"Indiana","lat":39.7645,"lng":-86.40268,"zip":"46213","miles_from_dt":22.39},{"city":"Beech Grove","state_name":"Indiana","lat":39.71661,"lng":-86.09161,"zip":"46107","miles_from_dt":22.49},{"city":"Anderson","state_name":"Indiana","lat":40.12759,"lng":-85.76178,"zip":"46011","miles_from_dt":22.68},{"city":"Pendleton","state_name":"Indiana","lat":39.98473,"lng":-85.74701,"zip":"46064","miles_from_dt":22.87},{"city":"Lizton","state_name":"Indiana","lat":39.88545,"lng":-86.55758,"zip":"46149","miles_from_dt":22.93},{"city":"Indianapolis","state_name":"Indiana","lat":39.72086,"lng":-86.32712,"zip":"46231","miles_from_dt":23.27},{"city":"Michigantown","state_name":"Indiana","lat":40.33796,"lng":-86.37801,"zip":"46057","miles_from_dt":23.46},{"city":"Frankton","state_name":"Indiana","lat":40.2085,"lng":-85.79026,"zip":"46044","miles_from_dt":23.48},{"city":"Indianapolis","state_name":"Indiana","lat":39.72311,"lng":-86.0004,"zip":"46239","miles_from_dt":23.49},{"city":"Indianapolis","state_name":"Indiana","lat":39.70131,"lng":-86.25737,"zip":"46242","miles_from_dt":23.56},{"city":"Sharpsville","state_name":"Indiana","lat":40.37511,"lng":-86.1112,"zip":"46068","miles_from_dt":23.59},{"city":"Thorntown","state_name":"Indiana","lat":40.11941,"lng":-86.60549,"zip":"46071","miles_from_dt":23.63},{"city":"Advance","state_name":"Indiana","lat":39.99556,"lng":-86.61993,"zip":"46102","miles_from_dt":23.88},{"city":"Indianapolis","state_name":"Indiana","lat":39.69288,"lng":-86.23664,"zip":"46221","miles_from_dt":23.95},{"city":"Forest","state_name":"Indiana","lat":40.37022,"lng":-86.31173,"zip":"46039","miles_from_dt":24.17},{"city":"Jamestown","state_name":"Indiana","lat":39.96988,"lng":-86.62693,"zip":"46147","miles_from_dt":24.53},{"city":"Frankfort","state_name":"Indiana","lat":40.29695,"lng":-86.49216,"zip":"46041","miles_from_dt":24.67},{"city":"Maxwell","state_name":"Indiana","lat":39.85639,"lng":-85.77038,"zip":"46154","miles_from_dt":24.72},{"city":"Indianapolis","state_name":"Indiana","lat":39.67607,"lng":-86.13145,"zip":"46227","miles_from_dt":24.96},{"city":"Indianapolis","state_name":"Indiana","lat":39.67554,"lng":-86.12938,"zip":"46247","miles_from_dt":25.01},{"city":"Indianapolis","state_name":"Indiana","lat":39.67254,"lng":-86.19338,"zip":"46217","miles_from_dt":25.13},{"city":"Elwood","state_name":"Indiana","lat":40.29689,"lng":-85.83289,"zip":"46036","miles_from_dt":25.43},{"city":"New Palestine","state_name":"Indiana","lat":39.7287,"lng":-85.90435,"zip":"46163","miles_from_dt":25.59},{"city":"Indianapolis","state_name":"Indiana","lat":39.67247,"lng":-86.0759,"zip":"46237","miles_from_dt":25.64},{"city":"Windfall","state_name":"Indiana","lat":40.36318,"lng":-85.9374,"zip":"46076","miles_from_dt":25.75},{"city":"Anderson","state_name":"Indiana","lat":40.09334,"lng":-85.6854,"zip":"46018","miles_from_dt":26.14},{"city":"Anderson","state_name":"Indiana","lat":40.05021,"lng":-85.67829,"zip":"46013","miles_from_dt":26.24},{"city":"Anderson","state_name":"Indiana","lat":40.09781,"lng":-85.68152,"zip":"46016","miles_from_dt":26.39},{"city":"Oakford","state_name":"Indiana","lat":40.41601,"lng":-86.10183,"zip":"46965","miles_from_dt":26.45},{"city":"Anderson","state_name":"Indiana","lat":40.08703,"lng":-85.67633,"zip":"46014","miles_from_dt":26.55},{"city":"Plainfield","state_name":"Indiana","lat":39.68985,"lng":-86.39262,"zip":"46168","miles_from_dt":26.62},{"city":"Greenfield","state_name":"Indiana","lat":39.80358,"lng":-85.77049,"zip":"46140","miles_from_dt":26.74},{"city":"Anderson","state_name":"Indiana","lat":40.1086,"lng":-85.67518,"zip":"46015","miles_from_dt":26.85},{"city":"West Newton","state_name":"Indiana","lat":39.65397,"lng":-86.28121,"zip":"46183","miles_from_dt":27.01},{"city":"Hemlock","state_name":"Indiana","lat":40.41523,"lng":-86.03693,"zip":"46937","miles_from_dt":27.1},{"city":"Danville","state_name":"Indiana","lat":39.76822,"lng":-86.5475,"zip":"46122","miles_from_dt":27.18},{"city":"Russiaville","state_name":"Indiana","lat":40.42759,"lng":-86.27737,"zip":"46979","miles_from_dt":27.54},{"city":"West Middleton","state_name":"Indiana","lat":40.43948,"lng":-86.21765,"zip":"46995","miles_from_dt":27.9},{"city":"Kokomo","state_name":"Indiana","lat":40.43743,"lng":-86.09111,"zip":"46902","miles_from_dt":28},{"city":"Indianapolis","state_name":"Indiana","lat":39.65078,"lng":-85.98692,"zip":"46259","miles_from_dt":28.39},{"city":"North Salem","state_name":"Indiana","lat":39.84522,"lng":-86.64716,"zip":"46165","miles_from_dt":28.44},{"city":"Camby","state_name":"Indiana","lat":39.635,"lng":-86.30548,"zip":"46113","miles_from_dt":28.58},{"city":"Greenwood","state_name":"Indiana","lat":39.62029,"lng":-86.1764,"zip":"46142","miles_from_dt":28.72},{"city":"Orestes","state_name":"Indiana","lat":40.27184,"lng":-85.72389,"zip":"46063","miles_from_dt":28.79},{"city":"Colfax","state_name":"Indiana","lat":40.18925,"lng":-86.67902,"zip":"46035","miles_from_dt":28.81},{"city":"Finly","state_name":"Indiana","lat":39.70578,"lng":-85.82339,"zip":"46129","miles_from_dt":29.43},{"city":"Wilkinson","state_name":"Indiana","lat":39.89126,"lng":-85.64264,"zip":"46186","miles_from_dt":29.88}],"targetCityZipCode":"46074","targetCityState":"Indiana"},"__N_SSG":true}