{"pageProps":{"stateName":"Texas","cityName":"alba","nearbyCities":[{"city":"Golden","state_name":"Texas","lat":32.77721,"lng":-95.58866,"zip":"75444","miles_from_dt":3},{"city":"Emory","state_name":"Texas","lat":32.87507,"lng":-95.75262,"zip":"75440","miles_from_dt":8.83},{"city":"Yantis","state_name":"Texas","lat":32.92098,"lng":-95.5764,"zip":"75497","miles_from_dt":9.56},{"city":"Grand Saline","state_name":"Texas","lat":32.64485,"lng":-95.68854,"zip":"75140","miles_from_dt":10.58},{"city":"Fruitvale","state_name":"Texas","lat":32.6926,"lng":-95.79262,"zip":"75127","miles_from_dt":11.36},{"city":"Quitman","state_name":"Texas","lat":32.82227,"lng":-95.42386,"zip":"75783","miles_from_dt":12.58},{"city":"Mineola","state_name":"Texas","lat":32.67969,"lng":-95.44654,"zip":"75773","miles_from_dt":13.53},{"city":"Edgewood","state_name":"Texas","lat":32.71005,"lng":-95.85268,"zip":"75117","miles_from_dt":13.77},{"city":"Point","state_name":"Texas","lat":32.89177,"lng":-95.87239,"zip":"75472","miles_from_dt":15.32},{"city":"Como","state_name":"Texas","lat":33.0073,"lng":-95.4628,"zip":"75431","miles_from_dt":17.96},{"city":"Van","state_name":"Texas","lat":32.52749,"lng":-95.64255,"zip":"75790","miles_from_dt":18.24},{"city":"Brashear","state_name":"Texas","lat":33.05782,"lng":-95.72503,"zip":"75420","miles_from_dt":19.01},{"city":"Lindale","state_name":"Texas","lat":32.53542,"lng":-95.43006,"zip":"75771","miles_from_dt":21.41},{"city":"Wills Point","state_name":"Texas","lat":32.70335,"lng":-95.99754,"zip":"75169","miles_from_dt":21.87},{"city":"Lone Oak","state_name":"Texas","lat":33.00025,"lng":-95.92817,"zip":"75453","miles_from_dt":22.19},{"city":"Pickton","state_name":"Texas","lat":33.04431,"lng":-95.38883,"zip":"75471","miles_from_dt":22.59},{"city":"Winnsboro","state_name":"Texas","lat":32.90898,"lng":-95.26126,"zip":"75494","miles_from_dt":23.3},{"city":"Cumby","state_name":"Texas","lat":33.10883,"lng":-95.80571,"zip":"75433","miles_from_dt":23.93},{"city":"Canton","state_name":"Texas","lat":32.51201,"lng":-95.88363,"zip":"75103","miles_from_dt":24.07},{"city":"Sulphur Springs","state_name":"Texas","lat":33.14222,"lng":-95.59786,"zip":"75483","miles_from_dt":24.23},{"city":"Ben Wheeler","state_name":"Texas","lat":32.42431,"lng":-95.66462,"zip":"75754","miles_from_dt":25.39},{"city":"Hawkins","state_name":"Texas","lat":32.64119,"lng":-95.2359,"zip":"75765","miles_from_dt":25.58},{"city":"Sulphur Springs","state_name":"Texas","lat":33.16929,"lng":-95.60946,"zip":"75482","miles_from_dt":26.04},{"city":"Quinlan","state_name":"Texas","lat":32.91709,"lng":-96.10611,"zip":"75474","miles_from_dt":28.61},{"city":"Tyler","state_name":"Texas","lat":32.40616,"lng":-95.4407,"zip":"75704","miles_from_dt":28.96},{"city":"Campbell","state_name":"Texas","lat":33.13889,"lng":-95.93059,"zip":"75422","miles_from_dt":29.36},{"city":"Tyler","state_name":"Texas","lat":32.46822,"lng":-95.30402,"zip":"75706","miles_from_dt":29.58}],"targetCityZipCode":"75410","targetCityState":"Texas"},"__N_SSG":true}