{"pageProps":{"stateName":"Texas","cityName":"big-sandy","nearbyCities":[{"city":"Big Sandy","state_name":"Texas","lat":32.583,"lng":-95.106,"zip":"75797","miles_from_dt":3.58},{"city":"Hawkins","state_name":"Texas","lat":32.64119,"lng":-95.2359,"zip":"75765","miles_from_dt":8.73},{"city":"Gladewater","state_name":"Texas","lat":32.5167,"lng":-94.96429,"zip":"75647","miles_from_dt":10.7},{"city":"Winona","state_name":"Texas","lat":32.4679,"lng":-95.10623,"zip":"75792","miles_from_dt":11.39},{"city":"Gilmer","state_name":"Texas","lat":32.79171,"lng":-94.99498,"zip":"75644","miles_from_dt":12.21},{"city":"Gilmer","state_name":"Texas","lat":32.68375,"lng":-94.87317,"zip":"75645","miles_from_dt":12.94},{"city":"White Oak","state_name":"Texas","lat":32.53364,"lng":-94.86083,"zip":"75693","miles_from_dt":14.83},{"city":"Tyler","state_name":"Texas","lat":32.41436,"lng":-95.20717,"zip":"75708","miles_from_dt":16.59},{"city":"Tyler","state_name":"Texas","lat":32.46822,"lng":-95.30402,"zip":"75706","miles_from_dt":17},{"city":"Longview","state_name":"Texas","lat":32.51374,"lng":-94.82919,"zip":"75604","miles_from_dt":17.1},{"city":"Longview","state_name":"Texas","lat":32.55609,"lng":-94.80149,"zip":"75608","miles_from_dt":17.44},{"city":"Longview","state_name":"Texas","lat":32.57841,"lng":-94.77928,"zip":"75607","miles_from_dt":18.31},{"city":"Tyler","state_name":"Texas","lat":32.35905,"lng":-95.10149,"zip":"75705","miles_from_dt":18.85},{"city":"Judson","state_name":"Texas","lat":32.58563,"lng":-94.75618,"zip":"75660","miles_from_dt":19.54},{"city":"Lindale","state_name":"Texas","lat":32.53542,"lng":-95.43006,"zip":"75771","miles_from_dt":21.12},{"city":"Mineola","state_name":"Texas","lat":32.67969,"lng":-95.44654,"zip":"75773","miles_from_dt":21.23},{"city":"Kilgore","state_name":"Texas","lat":32.38076,"lng":-94.87503,"zip":"75662","miles_from_dt":21.29},{"city":"Winnsboro","state_name":"Texas","lat":32.90898,"lng":-95.26126,"zip":"75494","miles_from_dt":21.6},{"city":"Longview","state_name":"Texas","lat":32.58385,"lng":-94.71554,"zip":"75605","miles_from_dt":21.9},{"city":"Laird Hill","state_name":"Texas","lat":32.35487,"lng":-94.90302,"zip":"75666","miles_from_dt":21.92},{"city":"Kilgore","state_name":"Texas","lat":32.37523,"lng":-94.86534,"zip":"75663","miles_from_dt":21.93},{"city":"Longview","state_name":"Texas","lat":32.49574,"lng":-94.73846,"zip":"75606","miles_from_dt":22.39},{"city":"Tyler","state_name":"Texas","lat":32.36403,"lng":-95.31207,"zip":"75702","miles_from_dt":22.7},{"city":"Longview","state_name":"Texas","lat":32.5086,"lng":-94.72414,"zip":"75601","miles_from_dt":22.8},{"city":"Leesburg","state_name":"Texas","lat":32.96247,"lng":-95.11835,"zip":"75451","miles_from_dt":22.82},{"city":"Tyler","state_name":"Texas","lat":32.36482,"lng":-95.31767,"zip":"75710","miles_from_dt":22.85},{"city":"Tyler","state_name":"Texas","lat":32.30479,"lng":-95.171,"zip":"75707","miles_from_dt":23.1},{"city":"Tyler","state_name":"Texas","lat":32.33698,"lng":-95.28382,"zip":"75711","miles_from_dt":23.39},{"city":"Tyler","state_name":"Texas","lat":32.33448,"lng":-95.28552,"zip":"75798","miles_from_dt":23.59},{"city":"Quitman","state_name":"Texas","lat":32.82227,"lng":-95.42386,"zip":"75783","miles_from_dt":23.6},{"city":"Longview","state_name":"Texas","lat":32.46434,"lng":-94.72847,"zip":"75615","miles_from_dt":23.9},{"city":"Ore City","state_name":"Texas","lat":32.82182,"lng":-94.74035,"zip":"75683","miles_from_dt":24.03},{"city":"Diana","state_name":"Texas","lat":32.7152,"lng":-94.68133,"zip":"75640","miles_from_dt":24.3},{"city":"Tyler","state_name":"Texas","lat":32.3241,"lng":-95.29374,"zip":"75713","miles_from_dt":24.44},{"city":"Tyler","state_name":"Texas","lat":32.32364,"lng":-95.29306,"zip":"75712","miles_from_dt":24.45},{"city":"Tyler","state_name":"Texas","lat":32.32849,"lng":-95.30378,"zip":"75799","miles_from_dt":24.48},{"city":"Pittsburg","state_name":"Texas","lat":32.96921,"lng":-94.94697,"zip":"75686","miles_from_dt":24.59},{"city":"Tyler","state_name":"Texas","lat":32.32297,"lng":-95.29679,"zip":"75701","miles_from_dt":24.6},{"city":"Arp","state_name":"Texas","lat":32.27222,"lng":-95.07124,"zip":"75750","miles_from_dt":24.83},{"city":"Tyler","state_name":"Texas","lat":32.40616,"lng":-95.4407,"zip":"75704","miles_from_dt":25.89},{"city":"Overton","state_name":"Texas","lat":32.27085,"lng":-94.93147,"zip":"75684","miles_from_dt":26.51},{"city":"Longview","state_name":"Texas","lat":32.40448,"lng":-94.71754,"zip":"75603","miles_from_dt":26.66},{"city":"New London","state_name":"Texas","lat":32.25152,"lng":-94.94713,"zip":"75682","miles_from_dt":27.48},{"city":"Scroggins","state_name":"Texas","lat":33.02129,"lng":-95.19159,"zip":"75480","miles_from_dt":27.49},{"city":"Longview","state_name":"Texas","lat":32.45803,"lng":-94.65712,"zip":"75602","miles_from_dt":27.8},{"city":"Tyler","state_name":"Texas","lat":32.31323,"lng":-95.38904,"zip":"75709","miles_from_dt":28.21},{"city":"Whitehouse","state_name":"Texas","lat":32.22214,"lng":-95.22103,"zip":"75791","miles_from_dt":29.34}],"targetCityZipCode":"75755","targetCityState":"Texas"},"__N_SSG":true}