{"pageProps":{"stateName":"Texas","cityName":"christine","nearbyCities":[{"city":"Jourdanton","state_name":"Texas","lat":28.75573,"lng":-98.54754,"zip":"78026","miles_from_dt":5.57},{"city":"Pleasanton","state_name":"Texas","lat":28.9206,"lng":-98.4249,"zip":"78064","miles_from_dt":11.36},{"city":"Campbellton","state_name":"Texas","lat":28.72478,"lng":-98.25911,"zip":"78008","miles_from_dt":12.15},{"city":"Peggy","state_name":"Texas","lat":28.74599,"lng":-98.19711,"zip":"78062","miles_from_dt":15.72},{"city":"Whitsett","state_name":"Texas","lat":28.58862,"lng":-98.26823,"zip":"78075","miles_from_dt":16.3},{"city":"Charlotte","state_name":"Texas","lat":28.80267,"lng":-98.73441,"zip":"78011","miles_from_dt":17.18},{"city":"Calliham","state_name":"Texas","lat":28.48212,"lng":-98.40373,"zip":"78007","miles_from_dt":19.25},{"city":"Leming","state_name":"Texas","lat":29.08924,"lng":-98.50258,"zip":"78050","miles_from_dt":22.99},{"city":"Falls City","state_name":"Texas","lat":28.94563,"lng":-98.13611,"zip":"78113","miles_from_dt":23.3},{"city":"Three Rivers","state_name":"Texas","lat":28.47756,"lng":-98.19733,"zip":"78071","miles_from_dt":24.89},{"city":"Poteet","state_name":"Texas","lat":29.08152,"lng":-98.64437,"zip":"78065","miles_from_dt":25.04},{"city":"Oakville","state_name":"Texas","lat":28.46,"lng":-98.18222,"zip":"78060","miles_from_dt":26.41},{"city":"Bigfoot","state_name":"Texas","lat":28.92848,"lng":-98.84668,"zip":"78005","miles_from_dt":26.45},{"city":"Pawnee","state_name":"Texas","lat":28.64539,"lng":-97.99248,"zip":"78145","miles_from_dt":29.18},{"city":"Floresville","state_name":"Texas","lat":29.12124,"lng":-98.19708,"zip":"78114","miles_from_dt":29.52}],"targetCityZipCode":"78012","targetCityState":"Texas"},"__N_SSG":true}