{"pageProps":{"stateName":"Texas","cityName":"coldspring","nearbyCities":[{"city":"Pointblank","state_name":"Texas","lat":30.76592,"lng":-95.22168,"zip":"77364","miles_from_dt":10.45},{"city":"Oakhurst","state_name":"Texas","lat":30.76262,"lng":-95.30441,"zip":"77359","miles_from_dt":12.45},{"city":"Shepherd","state_name":"Texas","lat":30.49376,"lng":-94.98146,"zip":"77371","miles_from_dt":14.52},{"city":"Cleveland","state_name":"Texas","lat":30.40767,"lng":-95.18888,"zip":"77328","miles_from_dt":14.59},{"city":"Goodrich","state_name":"Texas","lat":30.58901,"lng":-94.92353,"zip":"77335","miles_from_dt":15.25},{"city":"Dodge","state_name":"Texas","lat":30.77996,"lng":-95.36465,"zip":"77334","miles_from_dt":15.72},{"city":"Livingston","state_name":"Texas","lat":30.71309,"lng":-94.93541,"zip":"77399","miles_from_dt":15.77},{"city":"Onalaska","state_name":"Texas","lat":30.8471,"lng":-95.11394,"zip":"77360","miles_from_dt":16.14},{"city":"Willis","state_name":"Texas","lat":30.45873,"lng":-95.37454,"zip":"77378","miles_from_dt":16.15},{"city":"New Waverly","state_name":"Texas","lat":30.55061,"lng":-95.45419,"zip":"77358","miles_from_dt":17.18},{"city":"Riverside","state_name":"Texas","lat":30.8504,"lng":-95.39147,"zip":"77367","miles_from_dt":20.4},{"city":"Conroe","state_name":"Texas","lat":30.37569,"lng":-95.37937,"zip":"77303","miles_from_dt":20.67},{"city":"Leggett","state_name":"Texas","lat":30.81432,"lng":-94.90086,"zip":"77350","miles_from_dt":21.23},{"city":"Huntsville","state_name":"Texas","lat":30.64601,"lng":-95.53441,"zip":"77340","miles_from_dt":21.37},{"city":"Livingston","state_name":"Texas","lat":30.70411,"lng":-94.81682,"zip":"77351","miles_from_dt":22.23},{"city":"Ace","state_name":"Texas","lat":30.50445,"lng":-94.81661,"zip":"77326","miles_from_dt":22.9},{"city":"Romayor","state_name":"Texas","lat":30.45114,"lng":-94.8407,"zip":"77368","miles_from_dt":23.16},{"city":"Huntsville","state_name":"Texas","lat":30.7228,"lng":-95.54872,"zip":"77343","miles_from_dt":23.25},{"city":"Huntsville","state_name":"Texas","lat":30.72181,"lng":-95.55114,"zip":"77349","miles_from_dt":23.37},{"city":"Huntsville","state_name":"Texas","lat":30.69818,"lng":-95.55886,"zip":"77341","miles_from_dt":23.38},{"city":"Huntsville","state_name":"Texas","lat":30.72204,"lng":-95.55279,"zip":"77344","miles_from_dt":23.47},{"city":"Huntsville","state_name":"Texas","lat":30.72286,"lng":-95.55333,"zip":"77348","miles_from_dt":23.51},{"city":"Huntsville","state_name":"Texas","lat":30.73877,"lng":-95.55911,"zip":"77342","miles_from_dt":24.19},{"city":"Conroe","state_name":"Texas","lat":30.2799,"lng":-95.31337,"zip":"77306","miles_from_dt":24.75},{"city":"Willis","state_name":"Texas","lat":30.44709,"lng":-95.54364,"zip":"77318","miles_from_dt":24.87},{"city":"Trinity","state_name":"Texas","lat":30.96193,"lng":-95.32951,"zip":"75862","miles_from_dt":25.29},{"city":"Cleveland","state_name":"Texas","lat":30.3262,"lng":-94.91826,"zip":"77327","miles_from_dt":25.42},{"city":"Splendora","state_name":"Texas","lat":30.24472,"lng":-95.18281,"zip":"77372","miles_from_dt":25.8},{"city":"Huntsville","state_name":"Texas","lat":30.80672,"lng":-95.55687,"zip":"77320","miles_from_dt":26.03},{"city":"Conroe","state_name":"Texas","lat":30.30897,"lng":-95.43281,"zip":"77301","miles_from_dt":26.26},{"city":"Conroe","state_name":"Texas","lat":30.32201,"lng":-95.46219,"zip":"77305","miles_from_dt":26.62},{"city":"Moscow","state_name":"Texas","lat":30.90372,"lng":-94.8618,"zip":"75960","miles_from_dt":27.12},{"city":"Rye","state_name":"Texas","lat":30.44296,"lng":-94.75084,"zip":"77369","miles_from_dt":28.17},{"city":"Conroe","state_name":"Texas","lat":30.33097,"lng":-95.51538,"zip":"77304","miles_from_dt":28.32},{"city":"Conroe","state_name":"Texas","lat":30.22626,"lng":-95.36014,"zip":"77302","miles_from_dt":29.2}],"targetCityZipCode":"77331","targetCityState":"Texas"},"__N_SSG":true}