{"pageProps":{"stateName":"Texas","cityName":"corrigan","nearbyCities":[{"city":"Moscow","state_name":"Texas","lat":30.90372,"lng":-94.8618,"zip":"75960","miles_from_dt":8.37},{"city":"Camden","state_name":"Texas","lat":30.89688,"lng":-94.75153,"zip":"75934","miles_from_dt":8.73},{"city":"Woodlake","state_name":"Texas","lat":31.05808,"lng":-94.96228,"zip":"75865","miles_from_dt":9.79},{"city":"Diboll","state_name":"Texas","lat":31.18078,"lng":-94.76219,"zip":"75941","miles_from_dt":11.7},{"city":"Chester","state_name":"Texas","lat":30.95147,"lng":-94.58883,"zip":"75936","miles_from_dt":13.56},{"city":"Leggett","state_name":"Texas","lat":30.81432,"lng":-94.90086,"zip":"77350","miles_from_dt":14.95},{"city":"Groveton","state_name":"Texas","lat":31.09488,"lng":-95.08707,"zip":"75845","miles_from_dt":17.61},{"city":"Apple Springs","state_name":"Texas","lat":31.23281,"lng":-94.96944,"zip":"75926","miles_from_dt":17.89},{"city":"Lufkin","state_name":"Texas","lat":31.3228,"lng":-94.80107,"zip":"75902","miles_from_dt":21.21},{"city":"Livingston","state_name":"Texas","lat":30.70411,"lng":-94.81682,"zip":"77351","miles_from_dt":21.43},{"city":"Onalaska","state_name":"Texas","lat":30.8471,"lng":-95.11394,"zip":"77360","miles_from_dt":21.69},{"city":"Lufkin","state_name":"Texas","lat":31.30264,"lng":-94.65481,"zip":"75901","miles_from_dt":21.73},{"city":"Centralia","state_name":"Texas","lat":31.25837,"lng":-95.04062,"zip":"75834","miles_from_dt":21.82},{"city":"Livingston","state_name":"Texas","lat":30.71309,"lng":-94.93541,"zip":"77399","miles_from_dt":22.19},{"city":"Lufkin","state_name":"Texas","lat":31.33872,"lng":-94.83467,"zip":"75904","miles_from_dt":22.37},{"city":"Huntington","state_name":"Texas","lat":31.22907,"lng":-94.51782,"zip":"75949","miles_from_dt":22.52},{"city":"Lufkin","state_name":"Texas","lat":31.33528,"lng":-94.72871,"zip":"75915","miles_from_dt":22.53},{"city":"Lufkin","state_name":"Texas","lat":31.37428,"lng":-94.74796,"zip":"75903","miles_from_dt":24.98},{"city":"Doucette","state_name":"Texas","lat":30.82567,"lng":-94.41657,"zip":"75942","miles_from_dt":26.5},{"city":"Colmesneil","state_name":"Texas","lat":30.93436,"lng":-94.35605,"zip":"75938","miles_from_dt":27.22},{"city":"Woodville","state_name":"Texas","lat":30.77396,"lng":-94.42353,"zip":"75990","miles_from_dt":28.09},{"city":"Zavalla","state_name":"Texas","lat":31.12387,"lng":-94.34703,"zip":"75980","miles_from_dt":28.18},{"city":"Dallardsville","state_name":"Texas","lat":30.6262,"lng":-94.63094,"zip":"77332","miles_from_dt":28.71},{"city":"Woodville","state_name":"Texas","lat":30.77477,"lng":-94.4026,"zip":"75979","miles_from_dt":29.07},{"city":"Pennington","state_name":"Texas","lat":31.20138,"lng":-95.2537,"zip":"75856","miles_from_dt":29.54}],"targetCityZipCode":"75939","targetCityState":"Texas"},"__N_SSG":true}