{"pageProps":{"stateName":"Texas","cityName":"crosby","nearbyCities":[{"city":"Highlands","state_name":"Texas","lat":29.82917,"lng":-95.05473,"zip":"77562","miles_from_dt":7.07},{"city":"Houston","state_name":"Texas","lat":29.89808,"lng":-95.17685,"zip":"77044","miles_from_dt":7.61},{"city":"Humble","state_name":"Texas","lat":29.99027,"lng":-95.17777,"zip":"77346","miles_from_dt":8.34},{"city":"Houston","state_name":"Texas","lat":29.83417,"lng":-95.14827,"zip":"77049","miles_from_dt":8.71},{"city":"Huffman","state_name":"Texas","lat":30.06842,"lng":-95.10306,"zip":"77336","miles_from_dt":9.83},{"city":"Baytown","state_name":"Texas","lat":29.81298,"lng":-94.96233,"zip":"77521","miles_from_dt":9.93},{"city":"Channelview","state_name":"Texas","lat":29.78948,"lng":-95.11159,"zip":"77530","miles_from_dt":10.35},{"city":"Kingwood","state_name":"Texas","lat":30.05392,"lng":-95.15884,"zip":"77345","miles_from_dt":10.43},{"city":"Mont Belvieu","state_name":"Texas","lat":29.85706,"lng":-94.88081,"zip":"77580","miles_from_dt":11.71},{"city":"Dayton","state_name":"Texas","lat":30.05129,"lng":-94.91569,"zip":"77535","miles_from_dt":11.77},{"city":"Humble","state_name":"Texas","lat":29.94778,"lng":-95.26129,"zip":"77396","miles_from_dt":12.36},{"city":"Humble","state_name":"Texas","lat":29.99145,"lng":-95.25165,"zip":"77347","miles_from_dt":12.43},{"city":"Kingwood","state_name":"Texas","lat":30.04788,"lng":-95.22139,"zip":"77339","miles_from_dt":12.74},{"city":"Houston","state_name":"Texas","lat":29.87466,"lng":-95.2604,"zip":"77228","miles_from_dt":12.88},{"city":"Houston","state_name":"Texas","lat":29.8529,"lng":-95.25089,"zip":"77078","miles_from_dt":12.9},{"city":"Houston","state_name":"Texas","lat":29.90286,"lng":-95.27013,"zip":"77050","miles_from_dt":13},{"city":"Baytown","state_name":"Texas","lat":29.74599,"lng":-95.00388,"zip":"77520","miles_from_dt":13.17},{"city":"Baytown","state_name":"Texas","lat":29.75639,"lng":-94.96837,"zip":"77522","miles_from_dt":13.18},{"city":"Kingwood","state_name":"Texas","lat":30.06828,"lng":-95.21628,"zip":"77325","miles_from_dt":13.44},{"city":"Houston","state_name":"Texas","lat":29.76485,"lng":-95.17216,"zip":"77015","miles_from_dt":13.45},{"city":"Houston","state_name":"Texas","lat":29.79516,"lng":-95.23895,"zip":"77013","miles_from_dt":14.46},{"city":"Houston","state_name":"Texas","lat":29.7947,"lng":-95.24067,"zip":"77213","miles_from_dt":14.56},{"city":"Humble","state_name":"Texas","lat":30.00858,"lng":-95.28351,"zip":"77338","miles_from_dt":14.63},{"city":"Houston","state_name":"Texas","lat":29.86147,"lng":-95.29951,"zip":"77016","miles_from_dt":15.39},{"city":"North Houston","state_name":"Texas","lat":29.92936,"lng":-95.31746,"zip":"77315","miles_from_dt":15.69},{"city":"Houston","state_name":"Texas","lat":29.82471,"lng":-95.28668,"zip":"77028","miles_from_dt":15.69},{"city":"Baytown","state_name":"Texas","lat":29.77598,"lng":-94.8632,"zip":"77523","miles_from_dt":15.79},{"city":"La Porte","state_name":"Texas","lat":29.69287,"lng":-95.06012,"zip":"77571","miles_from_dt":16.46},{"city":"Pasadena","state_name":"Texas","lat":29.71786,"lng":-95.19018,"zip":"77506","miles_from_dt":16.79},{"city":"Houston","state_name":"Texas","lat":29.9551,"lng":-95.33574,"zip":"77205","miles_from_dt":16.86},{"city":"Houston","state_name":"Texas","lat":29.76382,"lng":-95.26326,"zip":"77029","miles_from_dt":16.99},{"city":"Deer Park","state_name":"Texas","lat":29.69021,"lng":-95.11891,"zip":"77536","miles_from_dt":17.06},{"city":"Galena Park","state_name":"Texas","lat":29.74018,"lng":-95.23836,"zip":"77547","miles_from_dt":17.15},{"city":"Houston","state_name":"Texas","lat":29.96523,"lng":-95.34004,"zip":"77032","miles_from_dt":17.19},{"city":"Houston","state_name":"Texas","lat":29.90923,"lng":-95.34137,"zip":"77039","miles_from_dt":17.19},{"city":"Houston","state_name":"Texas","lat":29.76496,"lng":-95.26943,"zip":"77229","miles_from_dt":17.21},{"city":"New Caney","state_name":"Texas","lat":30.15694,"lng":-95.18173,"zip":"77357","miles_from_dt":17.24},{"city":"Houston","state_name":"Texas","lat":29.72039,"lng":-95.22206,"zip":"77001","miles_from_dt":17.65},{"city":"Pasadena","state_name":"Texas","lat":29.69078,"lng":-95.15781,"zip":"77503","miles_from_dt":17.69},{"city":"Houston","state_name":"Texas","lat":29.8623,"lng":-95.34097,"zip":"77093","miles_from_dt":17.76},{"city":"Houston","state_name":"Texas","lat":29.86152,"lng":-95.34395,"zip":"77293","miles_from_dt":17.95},{"city":"Porter","state_name":"Texas","lat":30.11638,"lng":-95.2747,"zip":"77365","miles_from_dt":18.26},{"city":"Pasadena","state_name":"Texas","lat":29.68446,"lng":-95.1698,"zip":"77501","miles_from_dt":18.35},{"city":"Houston","state_name":"Texas","lat":29.80161,"lng":-95.32886,"zip":"77226","miles_from_dt":18.67},{"city":"La Porte","state_name":"Texas","lat":29.66426,"lng":-95.00409,"zip":"77572","miles_from_dt":18.69},{"city":"Houston","state_name":"Texas","lat":29.80013,"lng":-95.32934,"zip":"77026","miles_from_dt":18.75},{"city":"Houston","state_name":"Texas","lat":29.76842,"lng":-95.30878,"zip":"77020","miles_from_dt":18.89},{"city":"Houston","state_name":"Texas","lat":29.77237,"lng":-95.31509,"zip":"77220","miles_from_dt":19.04},{"city":"Pasadena","state_name":"Texas","lat":29.66381,"lng":-95.14818,"zip":"77508","miles_from_dt":19.27},{"city":"Pasadena","state_name":"Texas","lat":29.67984,"lng":-95.19953,"zip":"77502","miles_from_dt":19.38},{"city":"Houston","state_name":"Texas","lat":29.72315,"lng":-95.27893,"zip":"77262","miles_from_dt":19.64},{"city":"Houston","state_name":"Texas","lat":29.71904,"lng":-95.27449,"zip":"77012","miles_from_dt":19.67},{"city":"Houston","state_name":"Texas","lat":29.743,"lng":-95.30785,"zip":"77011","miles_from_dt":19.94},{"city":"Pasadena","state_name":"Texas","lat":29.64895,"lng":-95.14284,"zip":"77505","miles_from_dt":20.17},{"city":"Houston","state_name":"Texas","lat":29.70206,"lng":-95.26623,"zip":"77217","miles_from_dt":20.24},{"city":"Houston","state_name":"Texas","lat":29.82964,"lng":-95.37223,"zip":"77222","miles_from_dt":20.24},{"city":"Houston","state_name":"Texas","lat":29.86002,"lng":-95.38328,"zip":"77076","miles_from_dt":20.25},{"city":"Houston","state_name":"Texas","lat":29.69153,"lng":-95.25093,"zip":"77017","miles_from_dt":20.27},{"city":"Houston","state_name":"Texas","lat":29.93567,"lng":-95.39697,"zip":"77060","miles_from_dt":20.46},{"city":"Houston","state_name":"Texas","lat":29.8306,"lng":-95.3768,"zip":"77022","miles_from_dt":20.48},{"city":"Houston","state_name":"Texas","lat":29.8918,"lng":-95.39438,"zip":"77037","miles_from_dt":20.49},{"city":"Houston","state_name":"Texas","lat":29.79499,"lng":-95.36758,"zip":"77009","miles_from_dt":20.94},{"city":"Houston","state_name":"Texas","lat":29.67567,"lng":-95.24441,"zip":"77261","miles_from_dt":20.96},{"city":"Houston","state_name":"Texas","lat":29.99849,"lng":-95.39804,"zip":"77073","miles_from_dt":21.02},{"city":"Houston","state_name":"Texas","lat":30.00088,"lng":-95.39827,"zip":"77273","miles_from_dt":21.07},{"city":"Houston","state_name":"Texas","lat":29.80463,"lng":-95.37562,"zip":"77249","miles_from_dt":21.09},{"city":"Houston","state_name":"Texas","lat":29.6745,"lng":-95.24757,"zip":"77287","miles_from_dt":21.13},{"city":"Pasadena","state_name":"Texas","lat":29.64766,"lng":-95.19007,"zip":"77504","miles_from_dt":21.16},{"city":"Pasadena","state_name":"Texas","lat":29.62332,"lng":-95.06582,"zip":"77507","miles_from_dt":21.25},{"city":"Houston","state_name":"Texas","lat":29.72716,"lng":-95.32093,"zip":"77223","miles_from_dt":21.25},{"city":"South Houston","state_name":"Texas","lat":29.66117,"lng":-95.22865,"zip":"77587","miles_from_dt":21.33},{"city":"Houston","state_name":"Texas","lat":29.7216,"lng":-95.31827,"zip":"77023","miles_from_dt":21.39},{"city":"Houston","state_name":"Texas","lat":29.74961,"lng":-95.34521,"zip":"77003","miles_from_dt":21.42},{"city":"Spring","state_name":"Texas","lat":30.10153,"lng":-95.3561,"zip":"77386","miles_from_dt":21.45},{"city":"Spring","state_name":"Texas","lat":30.0619,"lng":-95.3838,"zip":"77393","miles_from_dt":21.6},{"city":"Spring","state_name":"Texas","lat":30.06143,"lng":-95.38423,"zip":"77373","miles_from_dt":21.61},{"city":"Liberty","state_name":"Texas","lat":30.07738,"lng":-94.73666,"zip":"77575","miles_from_dt":21.61},{"city":"Houston","state_name":"Texas","lat":29.76393,"lng":-95.36375,"zip":"77201","miles_from_dt":21.8},{"city":"Houston","state_name":"Texas","lat":29.75693,"lng":-95.35896,"zip":"77052","miles_from_dt":21.82},{"city":"Houston","state_name":"Texas","lat":29.76257,"lng":-95.36414,"zip":"77297","miles_from_dt":21.87},{"city":"Houston","state_name":"Texas","lat":29.76374,"lng":-95.3653,"zip":"77212","miles_from_dt":21.88},{"city":"Houston","state_name":"Texas","lat":29.87229,"lng":-95.41591,"zip":"77291","miles_from_dt":21.98},{"city":"Houston","state_name":"Texas","lat":29.75368,"lng":-95.35987,"zip":"77010","miles_from_dt":21.99},{"city":"Houston","state_name":"Texas","lat":29.75774,"lng":-95.36388,"zip":"77210","miles_from_dt":22.03},{"city":"Houston","state_name":"Texas","lat":29.75897,"lng":-95.36594,"zip":"77208","miles_from_dt":22.09},{"city":"Houston","state_name":"Texas","lat":29.75807,"lng":-95.36555,"zip":"77202","miles_from_dt":22.1},{"city":"Houston","state_name":"Texas","lat":29.759,"lng":-95.3669,"zip":"77252","miles_from_dt":22.14},{"city":"Houston","state_name":"Texas","lat":29.75635,"lng":-95.36538,"zip":"77002","miles_from_dt":22.16},{"city":"Houston","state_name":"Texas","lat":29.75894,"lng":-95.36773,"zip":"77203","miles_from_dt":22.18},{"city":"Houston","state_name":"Texas","lat":29.75745,"lng":-95.36678,"zip":"77275","miles_from_dt":22.19},{"city":"Houston","state_name":"Texas","lat":29.75617,"lng":-95.3682,"zip":"77253","miles_from_dt":22.31},{"city":"Houston","state_name":"Texas","lat":29.75546,"lng":-95.36787,"zip":"77284","miles_from_dt":22.32},{"city":"Houston","state_name":"Texas","lat":29.68782,"lng":-95.30109,"zip":"77207","miles_from_dt":22.34},{"city":"Houston","state_name":"Texas","lat":29.68631,"lng":-95.3034,"zip":"77087","miles_from_dt":22.51},{"city":"Houston","state_name":"Texas","lat":29.72168,"lng":-95.34356,"zip":"77204","miles_from_dt":22.53},{"city":"Houston","state_name":"Texas","lat":29.60929,"lng":-95.12417,"zip":"77059","miles_from_dt":22.59},{"city":"Wallisville","state_name":"Texas","lat":29.82811,"lng":-94.69521,"zip":"77597","miles_from_dt":22.8},{"city":"Houston","state_name":"Texas","lat":29.60632,"lng":-95.12847,"zip":"77289","miles_from_dt":22.84},{"city":"Splendora","state_name":"Texas","lat":30.24472,"lng":-95.18281,"zip":"77372","miles_from_dt":22.86},{"city":"Houston","state_name":"Texas","lat":29.62007,"lng":-95.19002,"zip":"77209","miles_from_dt":22.93},{"city":"Houston","state_name":"Texas","lat":29.6182,"lng":-95.19113,"zip":"77234","miles_from_dt":23.07},{"city":"Houston","state_name":"Texas","lat":29.91906,"lng":-95.44121,"zip":"77038","miles_from_dt":23.13},{"city":"Houston","state_name":"Texas","lat":29.72697,"lng":-95.36171,"zip":"77288","miles_from_dt":23.15},{"city":"Houston","state_name":"Texas","lat":29.92098,"lng":-95.44315,"zip":"77238","miles_from_dt":23.24},{"city":"Houston","state_name":"Texas","lat":29.61522,"lng":-95.19237,"zip":"77034","miles_from_dt":23.29},{"city":"Houston","state_name":"Texas","lat":29.82703,"lng":-95.42571,"zip":"77018","miles_from_dt":23.33},{"city":"Houston","state_name":"Texas","lat":29.82713,"lng":-95.42625,"zip":"77206","miles_from_dt":23.36},{"city":"Houston","state_name":"Texas","lat":29.95395,"lng":-95.44486,"zip":"77267","miles_from_dt":23.38},{"city":"Houston","state_name":"Texas","lat":29.72477,"lng":-95.36498,"zip":"77004","miles_from_dt":23.4},{"city":"Houston","state_name":"Texas","lat":29.79992,"lng":-95.41731,"zip":"77248","miles_from_dt":23.51},{"city":"Houston","state_name":"Texas","lat":29.95283,"lng":-95.44719,"zip":"77067","miles_from_dt":23.51},{"city":"Houston","state_name":"Texas","lat":29.82618,"lng":-95.42877,"zip":"77292","miles_from_dt":23.53},{"city":"Houston","state_name":"Texas","lat":29.65436,"lng":-95.28481,"zip":"77061","miles_from_dt":23.54},{"city":"Houston","state_name":"Texas","lat":29.79856,"lng":-95.41766,"zip":"77008","miles_from_dt":23.57},{"city":"Houston","state_name":"Texas","lat":29.85382,"lng":-95.43969,"zip":"77091","miles_from_dt":23.64},{"city":"Houston","state_name":"Texas","lat":29.79845,"lng":-95.41901,"zip":"77270","miles_from_dt":23.65},{"city":"Hardin","state_name":"Texas","lat":30.13459,"lng":-94.73551,"zip":"77561","miles_from_dt":23.75},{"city":"Houston","state_name":"Texas","lat":30.00845,"lng":-95.44317,"zip":"77090","miles_from_dt":23.81},{"city":"Houston","state_name":"Texas","lat":29.61573,"lng":-95.21652,"zip":"77216","miles_from_dt":23.81},{"city":"Houston","state_name":"Texas","lat":29.74663,"lng":-95.3915,"zip":"77266","miles_from_dt":23.84},{"city":"Houston","state_name":"Texas","lat":29.70156,"lng":-95.35251,"zip":"77221","miles_from_dt":23.84},{"city":"Spring","state_name":"Texas","lat":30.0771,"lng":-95.41774,"zip":"77387","miles_from_dt":23.88},{"city":"Houston","state_name":"Texas","lat":29.77152,"lng":-95.40919,"zip":"77007","miles_from_dt":23.91},{"city":"Houston","state_name":"Texas","lat":29.74086,"lng":-95.39126,"zip":"77006","miles_from_dt":24.05},{"city":"Houston","state_name":"Texas","lat":29.88148,"lng":-95.45316,"zip":"77088","miles_from_dt":24.08},{"city":"Seabrook","state_name":"Texas","lat":29.58267,"lng":-95.03391,"zip":"77586","miles_from_dt":24.08},{"city":"Spring","state_name":"Texas","lat":30.07429,"lng":-95.42279,"zip":"77383","miles_from_dt":24.08},{"city":"Houston","state_name":"Texas","lat":29.77063,"lng":-95.41482,"zip":"77299","miles_from_dt":24.23},{"city":"Houston","state_name":"Texas","lat":29.69713,"lng":-95.35751,"zip":"77021","miles_from_dt":24.27},{"city":"Houston","state_name":"Texas","lat":29.75716,"lng":-95.41196,"zip":"77219","miles_from_dt":24.52},{"city":"Houston","state_name":"Texas","lat":29.75318,"lng":-95.41212,"zip":"77019","miles_from_dt":24.67},{"city":"Houston","state_name":"Texas","lat":29.98025,"lng":-95.46363,"zip":"77014","miles_from_dt":24.68},{"city":"Raywood","state_name":"Texas","lat":30.01371,"lng":-94.65497,"zip":"77582","miles_from_dt":24.7},{"city":"Houston","state_name":"Texas","lat":29.66801,"lng":-95.33801,"zip":"77033","miles_from_dt":24.84},{"city":"Houston","state_name":"Texas","lat":29.57112,"lng":-95.07924,"zip":"77258","miles_from_dt":24.88},{"city":"Houston","state_name":"Texas","lat":29.62119,"lng":-95.26749,"zip":"77075","miles_from_dt":24.88},{"city":"Houston","state_name":"Texas","lat":29.98453,"lng":-95.46663,"zip":"77290","miles_from_dt":24.89},{"city":"Houston","state_name":"Texas","lat":29.57584,"lng":-95.13406,"zip":"77062","miles_from_dt":24.96},{"city":"Houston","state_name":"Texas","lat":29.57435,"lng":-95.14109,"zip":"77259","miles_from_dt":25.14},{"city":"Houston","state_name":"Texas","lat":29.69808,"lng":-95.38416,"zip":"77230","miles_from_dt":25.45},{"city":"Houston","state_name":"Texas","lat":29.73482,"lng":-95.41526,"zip":"77098","miles_from_dt":25.48},{"city":"Houston","state_name":"Texas","lat":29.56297,"lng":-95.09303,"zip":"77058","miles_from_dt":25.5},{"city":"Houston","state_name":"Texas","lat":29.73222,"lng":-95.41387,"zip":"77254","miles_from_dt":25.51},{"city":"Houston","state_name":"Texas","lat":29.58698,"lng":-95.2257,"zip":"77089","miles_from_dt":25.85},{"city":"Houston","state_name":"Texas","lat":29.70597,"lng":-95.40253,"zip":"77030","miles_from_dt":25.98},{"city":"Houston","state_name":"Texas","lat":29.9186,"lng":-95.49064,"zip":"77086","miles_from_dt":26.09},{"city":"Houston","state_name":"Texas","lat":29.83153,"lng":-95.47521,"zip":"77092","miles_from_dt":26.09},{"city":"Spring","state_name":"Texas","lat":30.05957,"lng":-95.46764,"zip":"77388","miles_from_dt":26.2},{"city":"Houston","state_name":"Texas","lat":29.65506,"lng":-95.35822,"zip":"77233","miles_from_dt":26.32},{"city":"Houston","state_name":"Texas","lat":30.00628,"lng":-95.48694,"zip":"77068","miles_from_dt":26.35},{"city":"Houston","state_name":"Texas","lat":30.00715,"lng":-95.4867,"zip":"77268","miles_from_dt":26.35},{"city":"Houston","state_name":"Texas","lat":29.73438,"lng":-95.43301,"zip":"77046","miles_from_dt":26.41},{"city":"Houston","state_name":"Texas","lat":29.73833,"lng":-95.43631,"zip":"77256","miles_from_dt":26.44},{"city":"Houston","state_name":"Texas","lat":29.71824,"lng":-95.42413,"zip":"77005","miles_from_dt":26.55},{"city":"Houston","state_name":"Texas","lat":29.71673,"lng":-95.42814,"zip":"77277","miles_from_dt":26.81},{"city":"Houston","state_name":"Texas","lat":29.71984,"lng":-95.43081,"zip":"77265","miles_from_dt":26.83},{"city":"Houston","state_name":"Texas","lat":29.95714,"lng":-95.50277,"zip":"77066","miles_from_dt":26.86},{"city":"Houston","state_name":"Texas","lat":29.73919,"lng":-95.44609,"zip":"77027","miles_from_dt":26.92},{"city":"Houston","state_name":"Texas","lat":29.62154,"lng":-95.32986,"zip":"77048","miles_from_dt":26.97},{"city":"Houston","state_name":"Texas","lat":29.73698,"lng":-95.44727,"zip":"77227","miles_from_dt":27.06},{"city":"Kemah","state_name":"Texas","lat":29.53925,"lng":-95.03229,"zip":"77565","miles_from_dt":27.07},{"city":"Houston","state_name":"Texas","lat":29.68102,"lng":-95.40424,"zip":"77054","miles_from_dt":27.13},{"city":"Houston","state_name":"Texas","lat":29.69311,"lng":-95.41646,"zip":"77225","miles_from_dt":27.18},{"city":"Houston","state_name":"Texas","lat":29.65586,"lng":-95.38023,"zip":"77051","miles_from_dt":27.21},{"city":"Conroe","state_name":"Texas","lat":30.22626,"lng":-95.36014,"zip":"77302","miles_from_dt":27.27},{"city":"Webster","state_name":"Texas","lat":29.53766,"lng":-95.13714,"zip":"77598","miles_from_dt":27.58},{"city":"Houston","state_name":"Texas","lat":29.79679,"lng":-95.49197,"zip":"77243","miles_from_dt":27.77},{"city":"Houston","state_name":"Texas","lat":29.74849,"lng":-95.46806,"zip":"77056","miles_from_dt":27.78},{"city":"Houston","state_name":"Texas","lat":29.79757,"lng":-95.4928,"zip":"77055","miles_from_dt":27.8},{"city":"Houston","state_name":"Texas","lat":29.8044,"lng":-95.49623,"zip":"77255","miles_from_dt":27.85},{"city":"Hankamer","state_name":"Texas","lat":29.86399,"lng":-94.59643,"zip":"77560","miles_from_dt":27.97},{"city":"Conroe","state_name":"Texas","lat":30.1894,"lng":-95.42264,"zip":"77385","miles_from_dt":28.24},{"city":"Houston","state_name":"Texas","lat":29.98631,"lng":-95.52398,"zip":"77069","miles_from_dt":28.32},{"city":"Houston","state_name":"Texas","lat":29.68584,"lng":-95.43512,"zip":"77025","miles_from_dt":28.38},{"city":"Cleveland","state_name":"Texas","lat":30.3262,"lng":-94.91826,"zip":"77327","miles_from_dt":28.39},{"city":"Houston","state_name":"Texas","lat":29.87631,"lng":-95.52535,"zip":"77240","miles_from_dt":28.42},{"city":"Spring","state_name":"Texas","lat":30.1365,"lng":-95.46863,"zip":"77380","miles_from_dt":28.47},{"city":"Conroe","state_name":"Texas","lat":30.2799,"lng":-95.31337,"zip":"77306","miles_from_dt":28.51},{"city":"Houston","state_name":"Texas","lat":29.87539,"lng":-95.52861,"zip":"77040","miles_from_dt":28.63},{"city":"Pearland","state_name":"Texas","lat":29.5624,"lng":-95.27982,"zip":"77581","miles_from_dt":28.78},{"city":"League City","state_name":"Texas","lat":29.51313,"lng":-95.0581,"zip":"77574","miles_from_dt":28.84},{"city":"Houston","state_name":"Texas","lat":29.74458,"lng":-95.48617,"zip":"77257","miles_from_dt":28.87},{"city":"Bellaire","state_name":"Texas","lat":29.70398,"lng":-95.46192,"zip":"77401","miles_from_dt":28.99},{"city":"Houston","state_name":"Texas","lat":29.74522,"lng":-95.48885,"zip":"77057","miles_from_dt":28.99},{"city":"Friendswood","state_name":"Texas","lat":29.53035,"lng":-95.20173,"zip":"77549","miles_from_dt":29},{"city":"Houston","state_name":"Texas","lat":29.81662,"lng":-95.52375,"zip":"77080","miles_from_dt":29.18},{"city":"Pearland","state_name":"Texas","lat":29.55315,"lng":-95.27377,"zip":"77588","miles_from_dt":29.18},{"city":"Houston","state_name":"Texas","lat":29.85884,"lng":-95.53705,"zip":"77241","miles_from_dt":29.3},{"city":"Houston","state_name":"Texas","lat":29.77073,"lng":-95.50869,"zip":"77024","miles_from_dt":29.36},{"city":"Houston","state_name":"Texas","lat":29.92279,"lng":-95.5467,"zip":"77064","miles_from_dt":29.45},{"city":"Houston","state_name":"Texas","lat":29.76812,"lng":-95.51034,"zip":"77279","miles_from_dt":29.52},{"city":"Spring","state_name":"Texas","lat":30.03966,"lng":-95.53305,"zip":"77379","miles_from_dt":29.55},{"city":"Bellaire","state_name":"Texas","lat":29.70662,"lng":-95.47534,"zip":"77402","miles_from_dt":29.58},{"city":"Texas City","state_name":"Texas","lat":29.50875,"lng":-95.14528,"zip":"77592","miles_from_dt":29.63},{"city":"Houston","state_name":"Texas","lat":29.71219,"lng":-95.48026,"zip":"77081","miles_from_dt":29.63},{"city":"League City","state_name":"Texas","lat":29.50213,"lng":-95.08636,"zip":"77573","miles_from_dt":29.65},{"city":"Bacliff","state_name":"Texas","lat":29.50544,"lng":-94.98664,"zip":"77518","miles_from_dt":29.66},{"city":"Daisetta","state_name":"Texas","lat":30.09139,"lng":-94.59488,"zip":"77533","miles_from_dt":29.75},{"city":"Houston","state_name":"Texas","lat":29.77159,"lng":-95.51682,"zip":"77224","miles_from_dt":29.79},{"city":"Houston","state_name":"Texas","lat":29.60843,"lng":-95.38662,"zip":"77047","miles_from_dt":29.84},{"city":"Spring","state_name":"Texas","lat":30.11509,"lng":-95.50752,"zip":"77389","miles_from_dt":29.86},{"city":"Houston","state_name":"Texas","lat":29.7341,"lng":-95.49864,"zip":"77237","miles_from_dt":29.87},{"city":"Friendswood","state_name":"Texas","lat":29.5132,"lng":-95.19352,"zip":"77546","miles_from_dt":29.99}],"targetCityZipCode":"77532","targetCityState":"Texas"},"__N_SSG":true}