{"pageProps":{"stateName":"Texas","cityName":"danbury","nearbyCities":[{"city":"Liverpool","state_name":"Texas","lat":29.25966,"lng":-95.26731,"zip":"77577","miles_from_dt":3.88},{"city":"Angleton","state_name":"Texas","lat":29.16884,"lng":-95.43136,"zip":"77516","miles_from_dt":8.29},{"city":"Angleton","state_name":"Texas","lat":29.17604,"lng":-95.44955,"zip":"77515","miles_from_dt":9.17},{"city":"Alvin","state_name":"Texas","lat":29.38638,"lng":-95.23769,"zip":"77511","miles_from_dt":12.57},{"city":"Clute","state_name":"Texas","lat":29.03895,"lng":-95.40071,"zip":"77531","miles_from_dt":13.36},{"city":"Freeport","state_name":"Texas","lat":29.01496,"lng":-95.32667,"zip":"77541","miles_from_dt":13.73},{"city":"Santa Fe","state_name":"Texas","lat":29.36253,"lng":-95.1369,"zip":"77517","miles_from_dt":14.39},{"city":"Rosharon","state_name":"Texas","lat":29.37763,"lng":-95.4585,"zip":"77583","miles_from_dt":14.67},{"city":"Alvin","state_name":"Texas","lat":29.42173,"lng":-95.24786,"zip":"77512","miles_from_dt":14.74},{"city":"Lake Jackson","state_name":"Texas","lat":29.04971,"lng":-95.47511,"zip":"77566","miles_from_dt":15.3},{"city":"Santa Fe","state_name":"Texas","lat":29.34788,"lng":-95.09089,"zip":"77510","miles_from_dt":15.85},{"city":"Freeport","state_name":"Texas","lat":28.95116,"lng":-95.36328,"zip":"77542","miles_from_dt":18.41},{"city":"Hitchcock","state_name":"Texas","lat":29.31123,"lng":-95.01822,"zip":"77563","miles_from_dt":18.52},{"city":"Manvel","state_name":"Texas","lat":29.47794,"lng":-95.36757,"zip":"77578","miles_from_dt":18.62},{"city":"Damon","state_name":"Texas","lat":29.26487,"lng":-95.65616,"zip":"77430","miles_from_dt":21.57},{"city":"Friendswood","state_name":"Texas","lat":29.5132,"lng":-95.19352,"zip":"77546","miles_from_dt":21.7},{"city":"La Marque","state_name":"Texas","lat":29.36653,"lng":-94.98773,"zip":"77568","miles_from_dt":21.81},{"city":"Galveston","state_name":"Texas","lat":29.21399,"lng":-94.93406,"zip":"77553","miles_from_dt":22.34},{"city":"Texas City","state_name":"Texas","lat":29.39971,"lng":-95.00074,"zip":"77591","miles_from_dt":22.35},{"city":"Texas City","state_name":"Texas","lat":29.50875,"lng":-95.14528,"zip":"77592","miles_from_dt":22.48},{"city":"Friendswood","state_name":"Texas","lat":29.53035,"lng":-95.20173,"zip":"77549","miles_from_dt":22.69},{"city":"Galveston","state_name":"Texas","lat":29.23187,"lng":-94.92544,"zip":"77554","miles_from_dt":22.9},{"city":"Pearland","state_name":"Texas","lat":29.54577,"lng":-95.35013,"zip":"77584","miles_from_dt":23.06},{"city":"West Columbia","state_name":"Texas","lat":29.15495,"lng":-95.6805,"zip":"77486","miles_from_dt":23.12},{"city":"Pearland","state_name":"Texas","lat":29.55315,"lng":-95.27377,"zip":"77588","miles_from_dt":23.47},{"city":"Brazoria","state_name":"Texas","lat":28.96492,"lng":-95.57268,"zip":"77422","miles_from_dt":23.6},{"city":"Dickinson","state_name":"Texas","lat":29.45578,"lng":-95.02723,"zip":"77539","miles_from_dt":23.61},{"city":"League City","state_name":"Texas","lat":29.50213,"lng":-95.08636,"zip":"77573","miles_from_dt":23.83},{"city":"Thompsons","state_name":"Texas","lat":29.47053,"lng":-95.56975,"zip":"77481","miles_from_dt":23.9},{"city":"Pearland","state_name":"Texas","lat":29.5624,"lng":-95.27982,"zip":"77581","miles_from_dt":24.08},{"city":"Webster","state_name":"Texas","lat":29.53766,"lng":-95.13714,"zip":"77598","miles_from_dt":24.5},{"city":"Fresno","state_name":"Texas","lat":29.53729,"lng":-95.47242,"zip":"77545","miles_from_dt":24.52},{"city":"League City","state_name":"Texas","lat":29.51313,"lng":-95.0581,"zip":"77574","miles_from_dt":25.42},{"city":"Missouri City","state_name":"Texas","lat":29.52691,"lng":-95.53407,"zip":"77459","miles_from_dt":25.68},{"city":"Texas City","state_name":"Texas","lat":29.3804,"lng":-94.91759,"zip":"77590","miles_from_dt":26},{"city":"Houston","state_name":"Texas","lat":29.58698,"lng":-95.2257,"zip":"77089","miles_from_dt":26.16},{"city":"Houston","state_name":"Texas","lat":29.57435,"lng":-95.14109,"zip":"77259","miles_from_dt":26.73},{"city":"Houston","state_name":"Texas","lat":29.57584,"lng":-95.13406,"zip":"77062","miles_from_dt":26.99},{"city":"Houston","state_name":"Texas","lat":29.56297,"lng":-95.09303,"zip":"77058","miles_from_dt":27.23},{"city":"Houston","state_name":"Texas","lat":29.58549,"lng":-95.45991,"zip":"77053","miles_from_dt":27.3},{"city":"Houston","state_name":"Texas","lat":29.60843,"lng":-95.38662,"zip":"77047","miles_from_dt":27.66},{"city":"Bacliff","state_name":"Texas","lat":29.50544,"lng":-94.98664,"zip":"77518","miles_from_dt":27.77},{"city":"Kemah","state_name":"Texas","lat":29.53925,"lng":-95.03229,"zip":"77565","miles_from_dt":27.79},{"city":"Houston","state_name":"Texas","lat":29.57112,"lng":-95.07924,"zip":"77258","miles_from_dt":28.12},{"city":"Houston","state_name":"Texas","lat":29.62154,"lng":-95.32986,"zip":"77048","miles_from_dt":28.16},{"city":"Houston","state_name":"Texas","lat":29.62119,"lng":-95.26749,"zip":"77075","miles_from_dt":28.18},{"city":"Houston","state_name":"Texas","lat":29.61573,"lng":-95.21652,"zip":"77216","miles_from_dt":28.21},{"city":"Old Ocean","state_name":"Texas","lat":29.07739,"lng":-95.74824,"zip":"77463","miles_from_dt":28.45},{"city":"Houston","state_name":"Texas","lat":29.61522,"lng":-95.19237,"zip":"77034","miles_from_dt":28.48},{"city":"Galveston","state_name":"Texas","lat":29.27903,"lng":-94.83502,"zip":"77551","miles_from_dt":28.68},{"city":"Houston","state_name":"Texas","lat":29.6182,"lng":-95.19113,"zip":"77234","miles_from_dt":28.7},{"city":"Houston","state_name":"Texas","lat":29.62007,"lng":-95.19002,"zip":"77209","miles_from_dt":28.84},{"city":"Houston","state_name":"Texas","lat":29.60632,"lng":-95.12847,"zip":"77289","miles_from_dt":29.06},{"city":"Sweeny","state_name":"Texas","lat":29.09388,"lng":-95.76692,"zip":"77480","miles_from_dt":29.18},{"city":"Guy","state_name":"Texas","lat":29.29641,"lng":-95.77794,"zip":"77444","miles_from_dt":29.2},{"city":"Houston","state_name":"Texas","lat":29.60929,"lng":-95.12417,"zip":"77059","miles_from_dt":29.34},{"city":"Missouri City","state_name":"Texas","lat":29.60068,"lng":-95.51605,"zip":"77489","miles_from_dt":29.59},{"city":"Galveston","state_name":"Texas","lat":29.28099,"lng":-94.81544,"zip":"77552","miles_from_dt":29.87}],"targetCityZipCode":"77534","targetCityState":"Texas"},"__N_SSG":true}