{"pageProps":{"stateName":"Texas","cityName":"de-kalb","nearbyCities":[{"city":"Avery","state_name":"Texas","lat":33.58534,"lng":-94.78563,"zip":"75554","miles_from_dt":10.32},{"city":"New Boston","state_name":"Texas","lat":33.4649,"lng":-94.4389,"zip":"75570","miles_from_dt":11.81},{"city":"Simms","state_name":"Texas","lat":33.32892,"lng":-94.55229,"zip":"75574","miles_from_dt":12.77},{"city":"Annona","state_name":"Texas","lat":33.49966,"lng":-94.88454,"zip":"75550","miles_from_dt":14.16},{"city":"Foreman","state_name":"Arkansas","lat":33.71297,"lng":-94.39584,"zip":"71836","miles_from_dt":20.35},{"city":"Haworth","state_name":"Oklahoma","lat":33.7938,"lng":-94.59614,"zip":"74740","miles_from_dt":20.45},{"city":"Hooks","state_name":"Texas","lat":33.517,"lng":-94.27855,"zip":"75561","miles_from_dt":20.86},{"city":"Naples","state_name":"Texas","lat":33.19607,"lng":-94.59362,"zip":"75568","miles_from_dt":21.06},{"city":"Cookville","state_name":"Texas","lat":33.25017,"lng":-94.85564,"zip":"75558","miles_from_dt":21.24},{"city":"Omaha","state_name":"Texas","lat":33.20704,"lng":-94.76407,"zip":"75571","miles_from_dt":21.39},{"city":"Maud","state_name":"Texas","lat":33.31688,"lng":-94.31935,"zip":"75567","miles_from_dt":22.36},{"city":"Texarkana","state_name":"Texas","lat":33.39638,"lng":-94.25052,"zip":"75505","miles_from_dt":23.56},{"city":"Clarksville","state_name":"Texas","lat":33.65608,"lng":-95.01093,"zip":"75426","miles_from_dt":24.01},{"city":"Marietta","state_name":"Texas","lat":33.15256,"lng":-94.49018,"zip":"75566","miles_from_dt":25.41},{"city":"Douglassville","state_name":"Texas","lat":33.1957,"lng":-94.36699,"zip":"75560","miles_from_dt":26.19},{"city":"Texarkana","state_name":"Texas","lat":33.35468,"lng":-94.21932,"zip":"75507","miles_from_dt":26.24},{"city":"Redwater","state_name":"Texas","lat":33.34214,"lng":-94.22454,"zip":"75573","miles_from_dt":26.3},{"city":"Texarkana","state_name":"Texas","lat":33.35273,"lng":-94.21872,"zip":"75504","miles_from_dt":26.32},{"city":"Idabel","state_name":"Oklahoma","lat":33.86017,"lng":-94.81319,"zip":"74745","miles_from_dt":26.81},{"city":"Mount Pleasant","state_name":"Texas","lat":33.21725,"lng":-94.98022,"zip":"75455","miles_from_dt":27.69},{"city":"Bogata","state_name":"Texas","lat":33.43827,"lng":-95.13114,"zip":"75417","miles_from_dt":28.72},{"city":"Texarkana","state_name":"Texas","lat":33.51345,"lng":-94.13038,"zip":"75503","miles_from_dt":29.4},{"city":"Winthrop","state_name":"Arkansas","lat":33.86738,"lng":-94.38042,"zip":"71866","miles_from_dt":29.43}],"targetCityZipCode":"75559","targetCityState":"Texas"},"__N_SSG":true}