{"pageProps":{"stateName":"Texas","cityName":"elmendorf","nearbyCities":[{"city":"San Antonio","state_name":"Texas","lat":29.31102,"lng":-98.38675,"zip":"78223","miles_from_dt":6.77},{"city":"San Antonio","state_name":"Texas","lat":29.28097,"lng":-98.47529,"zip":"78221","miles_from_dt":7.75},{"city":"San Antonio","state_name":"Texas","lat":29.19868,"lng":-98.50534,"zip":"78264","miles_from_dt":8.08},{"city":"San Antonio","state_name":"Texas","lat":29.34244,"lng":-98.43934,"zip":"78235","miles_from_dt":9.75},{"city":"San Antonio","state_name":"Texas","lat":29.35084,"lng":-98.31219,"zip":"78263","miles_from_dt":10.14},{"city":"San Antonio","state_name":"Texas","lat":29.3679,"lng":-98.38334,"zip":"78222","miles_from_dt":10.65},{"city":"San Antonio","state_name":"Texas","lat":29.34944,"lng":-98.47971,"zip":"78214","miles_from_dt":11.38},{"city":"Leming","state_name":"Texas","lat":29.08924,"lng":-98.50258,"zip":"78050","miles_from_dt":11.62},{"city":"San Antonio","state_name":"Texas","lat":29.30831,"lng":-98.53751,"zip":"78224","miles_from_dt":11.91},{"city":"Adkins","state_name":"Texas","lat":29.34444,"lng":-98.23316,"zip":"78101","miles_from_dt":12.34},{"city":"Floresville","state_name":"Texas","lat":29.12124,"lng":-98.19708,"zip":"78114","miles_from_dt":12.37},{"city":"San Antonio","state_name":"Texas","lat":29.39597,"lng":-98.46433,"zip":"78210","miles_from_dt":13.73},{"city":"San Antonio","state_name":"Texas","lat":29.41308,"lng":-98.40152,"zip":"78220","miles_from_dt":13.85},{"city":"San Antonio","state_name":"Texas","lat":29.34644,"lng":-98.56327,"zip":"78211","miles_from_dt":14.71},{"city":"San Antonio","state_name":"Texas","lat":29.41513,"lng":-98.4593,"zip":"78203","miles_from_dt":14.84},{"city":"San Antonio","state_name":"Texas","lat":29.38795,"lng":-98.52586,"zip":"78225","miles_from_dt":15.16},{"city":"Von Ormy","state_name":"Texas","lat":29.24569,"lng":-98.6213,"zip":"78073","miles_from_dt":15.18},{"city":"San Antonio","state_name":"Texas","lat":29.40327,"lng":-98.50368,"zip":"78204","miles_from_dt":15.28},{"city":"San Antonio","state_name":"Texas","lat":29.37681,"lng":-98.54663,"zip":"78241","miles_from_dt":15.39},{"city":"San Antonio","state_name":"Texas","lat":29.42821,"lng":-98.46078,"zip":"78202","miles_from_dt":15.71},{"city":"San Antonio","state_name":"Texas","lat":29.44137,"lng":-98.38459,"zip":"78219","miles_from_dt":15.71},{"city":"San Antonio","state_name":"Texas","lat":29.41111,"lng":-98.50367,"zip":"78283","miles_from_dt":15.74},{"city":"San Antonio","state_name":"Texas","lat":29.41681,"lng":-98.49853,"zip":"78206","miles_from_dt":15.93},{"city":"San Antonio","state_name":"Texas","lat":29.42364,"lng":-98.48647,"zip":"78205","miles_from_dt":16.02},{"city":"San Antonio","state_name":"Texas","lat":29.42555,"lng":-98.48575,"zip":"78292","miles_from_dt":16.12},{"city":"San Antonio","state_name":"Texas","lat":29.42537,"lng":-98.48673,"zip":"78293","miles_from_dt":16.13},{"city":"San Antonio","state_name":"Texas","lat":29.42541,"lng":-98.48637,"zip":"78297","miles_from_dt":16.13},{"city":"San Antonio","state_name":"Texas","lat":29.42543,"lng":-98.48693,"zip":"78299","miles_from_dt":16.14},{"city":"San Antonio","state_name":"Texas","lat":29.42552,"lng":-98.48827,"zip":"78291","miles_from_dt":16.18},{"city":"San Antonio","state_name":"Texas","lat":29.42712,"lng":-98.48605,"zip":"78294","miles_from_dt":16.22},{"city":"San Antonio","state_name":"Texas","lat":29.42583,"lng":-98.49159,"zip":"78288","miles_from_dt":16.29},{"city":"San Antonio","state_name":"Texas","lat":29.42752,"lng":-98.48758,"zip":"78296","miles_from_dt":16.29},{"city":"San Antonio","state_name":"Texas","lat":29.42818,"lng":-98.48831,"zip":"78295","miles_from_dt":16.35},{"city":"San Antonio","state_name":"Texas","lat":29.4399,"lng":-98.45823,"zip":"78208","miles_from_dt":16.42},{"city":"San Antonio","state_name":"Texas","lat":29.38442,"lng":-98.56885,"zip":"78226","miles_from_dt":16.7},{"city":"San Antonio","state_name":"Texas","lat":29.4404,"lng":-98.48031,"zip":"78215","miles_from_dt":16.92},{"city":"San Antonio","state_name":"Texas","lat":29.35067,"lng":-98.60751,"zip":"78242","miles_from_dt":17.04},{"city":"San Antonio","state_name":"Texas","lat":29.42226,"lng":-98.52558,"zip":"78285","miles_from_dt":17.08},{"city":"San Antonio","state_name":"Texas","lat":29.42223,"lng":-98.52545,"zip":"78207","miles_from_dt":17.08},{"city":"San Antonio","state_name":"Texas","lat":29.37213,"lng":-98.59349,"zip":"78243","miles_from_dt":17.24},{"city":"Jbsa Ft Sam Houston","state_name":"Texas","lat":29.46108,"lng":-98.43715,"zip":"78234","miles_from_dt":17.49},{"city":"Saint Hedwig","state_name":"Texas","lat":29.43046,"lng":-98.20171,"zip":"78152","miles_from_dt":18.16},{"city":"San Antonio","state_name":"Texas","lat":29.47702,"lng":-98.35075,"zip":"78244","miles_from_dt":18.2},{"city":"San Antonio","state_name":"Texas","lat":29.45735,"lng":-98.50199,"zip":"78298","miles_from_dt":18.52},{"city":"San Antonio","state_name":"Texas","lat":29.42079,"lng":-98.56832,"zip":"78237","miles_from_dt":18.53},{"city":"Somerset","state_name":"Texas","lat":29.18973,"lng":-98.68045,"zip":"78069","miles_from_dt":18.67},{"city":"San Antonio","state_name":"Texas","lat":29.46447,"lng":-98.49222,"zip":"78212","miles_from_dt":18.73},{"city":"Poteet","state_name":"Texas","lat":29.08152,"lng":-98.64437,"zip":"78065","miles_from_dt":18.78},{"city":"La Vernia","state_name":"Texas","lat":29.35118,"lng":-98.10241,"zip":"78121","miles_from_dt":18.87},{"city":"Converse","state_name":"Texas","lat":29.47977,"lng":-98.29295,"zip":"78109","miles_from_dt":18.96},{"city":"Jbsa Lackland","state_name":"Texas","lat":29.3859,"lng":-98.62256,"zip":"78236","miles_from_dt":19.2},{"city":"San Antonio","state_name":"Texas","lat":29.49354,"lng":-98.39948,"zip":"78218","miles_from_dt":19.35},{"city":"San Antonio","state_name":"Texas","lat":29.48899,"lng":-98.45675,"zip":"78209","miles_from_dt":19.64},{"city":"San Antonio","state_name":"Texas","lat":29.47246,"lng":-98.51899,"zip":"78284","miles_from_dt":19.9},{"city":"San Antonio","state_name":"Texas","lat":29.46901,"lng":-98.52861,"zip":"78201","miles_from_dt":19.95},{"city":"Sutherland Springs","state_name":"Texas","lat":29.28741,"lng":-98.05012,"zip":"78161","miles_from_dt":20.13},{"city":"Poth","state_name":"Texas","lat":29.07375,"lng":-98.08017,"zip":"78147","miles_from_dt":20.13},{"city":"Pleasanton","state_name":"Texas","lat":28.9206,"lng":-98.4249,"zip":"78064","miles_from_dt":20.42},{"city":"San Antonio","state_name":"Texas","lat":29.39654,"lng":-98.64019,"zip":"78227","miles_from_dt":20.49},{"city":"Macdona","state_name":"Texas","lat":29.32401,"lng":-98.69356,"zip":"78054","miles_from_dt":20.82},{"city":"San Antonio","state_name":"Texas","lat":29.46072,"lng":-98.57201,"zip":"78228","miles_from_dt":20.85},{"city":"San Antonio","state_name":"Texas","lat":29.51664,"lng":-98.3625,"zip":"78239","miles_from_dt":20.89},{"city":"San Antonio","state_name":"Texas","lat":29.34167,"lng":-98.69682,"zip":"78252","miles_from_dt":21.47},{"city":"San Antonio","state_name":"Texas","lat":29.53225,"lng":-98.41228,"zip":"78289","miles_from_dt":22.08},{"city":"San Antonio","state_name":"Texas","lat":29.53696,"lng":-98.42118,"zip":"78265","miles_from_dt":22.47},{"city":"Atascosa","state_name":"Texas","lat":29.28305,"lng":-98.73652,"zip":"78002","miles_from_dt":22.49},{"city":"San Antonio","state_name":"Texas","lat":29.54073,"lng":-98.42097,"zip":"78217","miles_from_dt":22.72},{"city":"San Antonio","state_name":"Texas","lat":29.51745,"lng":-98.52358,"zip":"78213","miles_from_dt":22.83},{"city":"Jbsa Randolph","state_name":"Texas","lat":29.5381,"lng":-98.2815,"zip":"78150","miles_from_dt":23.02},{"city":"San Antonio","state_name":"Texas","lat":29.47028,"lng":-98.61717,"zip":"78268","miles_from_dt":23.03},{"city":"San Antonio","state_name":"Texas","lat":29.47088,"lng":-98.61925,"zip":"78238","miles_from_dt":23.14},{"city":"San Antonio","state_name":"Texas","lat":29.53321,"lng":-98.49101,"zip":"78279","miles_from_dt":23.15},{"city":"Universal City","state_name":"Texas","lat":29.54331,"lng":-98.29609,"zip":"78148","miles_from_dt":23.18},{"city":"San Antonio","state_name":"Texas","lat":29.53529,"lng":-98.4862,"zip":"78246","miles_from_dt":23.2},{"city":"San Antonio","state_name":"Texas","lat":29.53641,"lng":-98.48999,"zip":"78216","miles_from_dt":23.34},{"city":"Falls City","state_name":"Texas","lat":28.94563,"lng":-98.13611,"zip":"78113","miles_from_dt":23.35},{"city":"San Antonio","state_name":"Texas","lat":29.5056,"lng":-98.57261,"zip":"78229","miles_from_dt":23.46},{"city":"San Antonio","state_name":"Texas","lat":29.55483,"lng":-98.36323,"zip":"78233","miles_from_dt":23.51},{"city":"Schertz","state_name":"Texas","lat":29.54774,"lng":-98.26574,"zip":"78154","miles_from_dt":23.9},{"city":"San Antonio","state_name":"Texas","lat":29.56173,"lng":-98.35589,"zip":"78280","miles_from_dt":24},{"city":"Lytle","state_name":"Texas","lat":29.20582,"lng":-98.77427,"zip":"78052","miles_from_dt":24.27},{"city":"San Antonio","state_name":"Texas","lat":29.46292,"lng":-98.67763,"zip":"78251","miles_from_dt":25.17},{"city":"San Antonio","state_name":"Texas","lat":29.58005,"lng":-98.41196,"zip":"78247","miles_from_dt":25.35},{"city":"San Antonio","state_name":"Texas","lat":29.5455,"lng":-98.55571,"zip":"78230","miles_from_dt":25.39},{"city":"San Antonio","state_name":"Texas","lat":29.40106,"lng":-98.73549,"zip":"78245","miles_from_dt":25.43},{"city":"San Antonio","state_name":"Texas","lat":29.5244,"lng":-98.60813,"zip":"78240","miles_from_dt":25.69},{"city":"Cibolo","state_name":"Texas","lat":29.57354,"lng":-98.22068,"zip":"78108","miles_from_dt":26.44},{"city":"San Antonio","state_name":"Texas","lat":29.58792,"lng":-98.47503,"zip":"78232","miles_from_dt":26.51},{"city":"San Antonio","state_name":"Texas","lat":29.58838,"lng":-98.47357,"zip":"78270","miles_from_dt":26.53},{"city":"San Antonio","state_name":"Texas","lat":29.56299,"lng":-98.56227,"zip":"78278","miles_from_dt":26.65},{"city":"San Antonio","state_name":"Texas","lat":29.50341,"lng":-98.66668,"zip":"78250","miles_from_dt":26.71},{"city":"Stockdale","state_name":"Texas","lat":29.24182,"lng":-97.9285,"zip":"78160","miles_from_dt":26.9},{"city":"Marion","state_name":"Texas","lat":29.5585,"lng":-98.15176,"zip":"78124","miles_from_dt":27.24},{"city":"San Antonio","state_name":"Texas","lat":29.57978,"lng":-98.54504,"zip":"78231","miles_from_dt":27.28},{"city":"San Antonio","state_name":"Texas","lat":29.59022,"lng":-98.52553,"zip":"78248","miles_from_dt":27.53},{"city":"La Coste","state_name":"Texas","lat":29.31324,"lng":-98.82528,"zip":"78039","miles_from_dt":28.18},{"city":"Natalia","state_name":"Texas","lat":29.19236,"lng":-98.84143,"zip":"78059","miles_from_dt":28.36},{"city":"San Antonio","state_name":"Texas","lat":29.56752,"lng":-98.614,"zip":"78249","miles_from_dt":28.4},{"city":"San Antonio","state_name":"Texas","lat":29.56752,"lng":-98.61548,"zip":"78269","miles_from_dt":28.44},{"city":"San Antonio","state_name":"Texas","lat":29.62512,"lng":-98.42031,"zip":"78259","miles_from_dt":28.49},{"city":"San Antonio","state_name":"Texas","lat":29.63574,"lng":-98.49282,"zip":"78258","miles_from_dt":29.97}],"targetCityZipCode":"78112","targetCityState":"Texas"},"__N_SSG":true}