{"pageProps":{"stateName":"Texas","cityName":"frost","nearbyCities":[{"city":"Irene","state_name":"Texas","lat":31.98994,"lng":-96.86678,"zip":"76650","miles_from_dt":5.74},{"city":"Mertens","state_name":"Texas","lat":32.04653,"lng":-96.89178,"zip":"76666","miles_from_dt":6.16},{"city":"Blooming Grove","state_name":"Texas","lat":32.10522,"lng":-96.71615,"zip":"76626","miles_from_dt":6.21},{"city":"Barry","state_name":"Texas","lat":32.08274,"lng":-96.63999,"zip":"75102","miles_from_dt":9.16},{"city":"Malone","state_name":"Texas","lat":31.93015,"lng":-96.89331,"zip":"76660","miles_from_dt":9.72},{"city":"Brandon","state_name":"Texas","lat":32.03007,"lng":-96.97179,"zip":"76628","miles_from_dt":10.85},{"city":"Bynum","state_name":"Texas","lat":31.97905,"lng":-96.96277,"zip":"76631","miles_from_dt":11.09},{"city":"Italy","state_name":"Texas","lat":32.18313,"lng":-96.87158,"zip":"76651","miles_from_dt":11.13},{"city":"Avalon","state_name":"Texas","lat":32.219,"lng":-96.78879,"zip":"76623","miles_from_dt":12.44},{"city":"Purdon","state_name":"Texas","lat":31.94557,"lng":-96.59358,"zip":"76679","miles_from_dt":13.05},{"city":"Hubbard","state_name":"Texas","lat":31.84942,"lng":-96.80659,"zip":"76648","miles_from_dt":13.08},{"city":"Milford","state_name":"Texas","lat":32.12887,"lng":-96.98836,"zip":"76670","miles_from_dt":13.34},{"city":"Dawson","state_name":"Texas","lat":31.87254,"lng":-96.65551,"zip":"76639","miles_from_dt":13.81},{"city":"Forreston","state_name":"Texas","lat":32.23911,"lng":-96.85724,"zip":"76041","miles_from_dt":14.42},{"city":"Penelope","state_name":"Texas","lat":31.87169,"lng":-96.95847,"zip":"76676","miles_from_dt":15.27},{"city":"Corsicana","state_name":"Texas","lat":32.0539,"lng":-96.52343,"zip":"75151","miles_from_dt":15.52},{"city":"Corsicana","state_name":"Texas","lat":32.08071,"lng":-96.52344,"zip":"75110","miles_from_dt":15.75},{"city":"Bardwell","state_name":"Texas","lat":32.27003,"lng":-96.70239,"zip":"75101","miles_from_dt":16.71},{"city":"Waxahachie","state_name":"Texas","lat":32.30535,"lng":-96.7691,"zip":"75168","miles_from_dt":18.42},{"city":"Hillsboro","state_name":"Texas","lat":32.01224,"lng":-97.12816,"zip":"76645","miles_from_dt":20.09},{"city":"Mount Calm","state_name":"Texas","lat":31.75371,"lng":-96.89105,"zip":"76673","miles_from_dt":20.55},{"city":"Abbott","state_name":"Texas","lat":31.87789,"lng":-97.08891,"zip":"76621","miles_from_dt":20.89},{"city":"Richland","state_name":"Texas","lat":31.91071,"lng":-96.44006,"zip":"76681","miles_from_dt":22.21},{"city":"Coolidge","state_name":"Texas","lat":31.72956,"lng":-96.66483,"zip":"76635","miles_from_dt":22.47},{"city":"Rice","state_name":"Texas","lat":32.2232,"lng":-96.46906,"zip":"75155","miles_from_dt":22.58},{"city":"Waxahachie","state_name":"Texas","lat":32.36687,"lng":-96.79677,"zip":"75165","miles_from_dt":22.64},{"city":"Ennis","state_name":"Texas","lat":32.32293,"lng":-96.59107,"zip":"75119","miles_from_dt":22.72},{"city":"Itasca","state_name":"Texas","lat":32.1596,"lng":-97.14812,"zip":"76055","miles_from_dt":22.75},{"city":"Maypearl","state_name":"Texas","lat":32.30757,"lng":-97.03225,"zip":"76064","miles_from_dt":23.45},{"city":"Waxahachie","state_name":"Texas","lat":32.36123,"lng":-96.91547,"zip":"75167","miles_from_dt":23.47},{"city":"Ennis","state_name":"Texas","lat":32.35419,"lng":-96.62592,"zip":"75120","miles_from_dt":23.72},{"city":"Tehuacana","state_name":"Texas","lat":31.74178,"lng":-96.54464,"zip":"76686","miles_from_dt":24.92},{"city":"Leroy","state_name":"Texas","lat":31.72708,"lng":-97.01346,"zip":"76654","miles_from_dt":25.24},{"city":"Corsicana","state_name":"Texas","lat":32.04246,"lng":-96.35622,"zip":"75109","miles_from_dt":25.3},{"city":"West","state_name":"Texas","lat":31.77564,"lng":-97.09721,"zip":"76691","miles_from_dt":25.69},{"city":"Wortham","state_name":"Texas","lat":31.80977,"lng":-96.43843,"zip":"76693","miles_from_dt":25.85},{"city":"Prairie Hill","state_name":"Texas","lat":31.65009,"lng":-96.75087,"zip":"76678","miles_from_dt":26.84},{"city":"Powell","state_name":"Texas","lat":32.17149,"lng":-96.35331,"zip":"75153","miles_from_dt":27.05},{"city":"Grandview","state_name":"Texas","lat":32.27262,"lng":-97.16326,"zip":"76050","miles_from_dt":27.32},{"city":"Axtell","state_name":"Texas","lat":31.66671,"lng":-96.95099,"zip":"76624","miles_from_dt":27.36},{"city":"Palmer","state_name":"Texas","lat":32.43598,"lng":-96.67444,"zip":"75152","miles_from_dt":28.18},{"city":"Chatfield","state_name":"Texas","lat":32.26717,"lng":-96.36682,"zip":"75105","miles_from_dt":29.25},{"city":"Elm Mott","state_name":"Texas","lat":31.69029,"lng":-97.07323,"zip":"76640","miles_from_dt":29.3}],"targetCityZipCode":"76641","targetCityState":"Texas"},"__N_SSG":true}