{"pageProps":{"stateName":"Texas","cityName":"georgetown","nearbyCities":[{"city":"Weir","state_name":"Texas","lat":30.67213,"lng":-97.59653,"zip":"78674","miles_from_dt":0.4},{"city":"Georgetown","state_name":"Texas","lat":30.63698,"lng":-97.67465,"zip":"78627","miles_from_dt":4.96},{"city":"Walburg","state_name":"Texas","lat":30.73653,"lng":-97.5776,"zip":"78673","miles_from_dt":4.98},{"city":"Hutto","state_name":"Texas","lat":30.56,"lng":-97.54404,"zip":"78634","miles_from_dt":8.04},{"city":"Round Rock","state_name":"Texas","lat":30.55038,"lng":-97.63681,"zip":"78665","miles_from_dt":8.32},{"city":"Georgetown","state_name":"Texas","lat":30.63981,"lng":-97.74636,"zip":"78628","miles_from_dt":8.98},{"city":"Jarrell","state_name":"Texas","lat":30.81779,"lng":-97.60645,"zip":"76537","miles_from_dt":10.42},{"city":"Georgetown","state_name":"Texas","lat":30.73803,"lng":-97.75465,"zip":"78633","miles_from_dt":10.5},{"city":"Granger","state_name":"Texas","lat":30.71357,"lng":-97.42434,"zip":"76530","miles_from_dt":10.88},{"city":"Round Rock","state_name":"Texas","lat":30.51511,"lng":-97.67271,"zip":"78682","miles_from_dt":11.33},{"city":"Round Rock","state_name":"Texas","lat":30.50461,"lng":-97.64583,"zip":"78664","miles_from_dt":11.51},{"city":"Round Rock","state_name":"Texas","lat":30.5355,"lng":-97.71981,"zip":"78681","miles_from_dt":11.56},{"city":"Round Rock","state_name":"Texas","lat":30.50936,"lng":-97.67625,"zip":"78683","miles_from_dt":11.78},{"city":"Schwertner","state_name":"Texas","lat":30.81864,"lng":-97.50226,"zip":"76573","miles_from_dt":11.94},{"city":"Taylor","state_name":"Texas","lat":30.58297,"lng":-97.38967,"zip":"76574","miles_from_dt":13.73},{"city":"Bartlett","state_name":"Texas","lat":30.79955,"lng":-97.42293,"zip":"76511","miles_from_dt":13.9},{"city":"Austin","state_name":"Texas","lat":30.48988,"lng":-97.75393,"zip":"78717","miles_from_dt":15.29},{"city":"Pflugerville","state_name":"Texas","lat":30.44361,"lng":-97.59558,"zip":"78660","miles_from_dt":15.36},{"city":"Austin","state_name":"Texas","lat":30.45537,"lng":-97.68948,"zip":"78728","miles_from_dt":15.53},{"city":"Austin","state_name":"Texas","lat":30.44682,"lng":-97.65976,"zip":"78764","miles_from_dt":15.57},{"city":"Pflugerville","state_name":"Texas","lat":30.44069,"lng":-97.62143,"zip":"78691","miles_from_dt":15.62},{"city":"Round Rock","state_name":"Texas","lat":30.44628,"lng":-97.66813,"zip":"78680","miles_from_dt":15.73},{"city":"Leander","state_name":"Texas","lat":30.57956,"lng":-97.84926,"zip":"78646","miles_from_dt":16.08},{"city":"McNeil","state_name":"Texas","lat":30.45269,"lng":-97.72316,"zip":"78651","miles_from_dt":16.5},{"city":"Florence","state_name":"Texas","lat":30.8379,"lng":-97.79531,"zip":"76527","miles_from_dt":16.61},{"city":"Cedar Park","state_name":"Texas","lat":30.50683,"lng":-97.81939,"zip":"78613","miles_from_dt":17.15},{"city":"Austin","state_name":"Texas","lat":30.45738,"lng":-97.75516,"zip":"78729","miles_from_dt":17.17},{"city":"Cedar Park","state_name":"Texas","lat":30.50417,"lng":-97.82014,"zip":"78630","miles_from_dt":17.3},{"city":"Austin","state_name":"Texas","lat":30.42894,"lng":-97.71736,"zip":"78727","miles_from_dt":17.84},{"city":"Salado","state_name":"Texas","lat":30.93305,"lng":-97.58448,"zip":"76571","miles_from_dt":18.37},{"city":"Coupland","state_name":"Texas","lat":30.46426,"lng":-97.39061,"zip":"78615","miles_from_dt":18.66},{"city":"Austin","state_name":"Texas","lat":30.38353,"lng":-97.67335,"zip":"78753","miles_from_dt":20},{"city":"Austin","state_name":"Texas","lat":30.39033,"lng":-97.70619,"zip":"78718","miles_from_dt":20.08},{"city":"Holland","state_name":"Texas","lat":30.88225,"lng":-97.36952,"zip":"76534","miles_from_dt":20.16},{"city":"Leander","state_name":"Texas","lat":30.55851,"lng":-97.91473,"zip":"78641","miles_from_dt":20.25},{"city":"Austin","state_name":"Texas","lat":30.38768,"lng":-97.70665,"zip":"78758","miles_from_dt":20.26},{"city":"Austin","state_name":"Texas","lat":30.38531,"lng":-97.70525,"zip":"78708","miles_from_dt":20.39},{"city":"Austin","state_name":"Texas","lat":30.40185,"lng":-97.75413,"zip":"78720","miles_from_dt":20.46},{"city":"Liberty Hill","state_name":"Texas","lat":30.6946,"lng":-97.94087,"zip":"78642","miles_from_dt":20.46},{"city":"Austin","state_name":"Texas","lat":30.4027,"lng":-97.76093,"zip":"78759","miles_from_dt":20.59},{"city":"Austin","state_name":"Texas","lat":30.41685,"lng":-97.80223,"zip":"78750","miles_from_dt":21.05},{"city":"Davilla","state_name":"Texas","lat":30.80366,"lng":-97.27795,"zip":"76523","miles_from_dt":21.3},{"city":"Austin","state_name":"Texas","lat":30.35633,"lng":-97.63925,"zip":"78754","miles_from_dt":21.51},{"city":"Austin","state_name":"Texas","lat":30.35342,"lng":-97.65676,"zip":"78710","miles_from_dt":21.85},{"city":"Austin","state_name":"Texas","lat":30.42898,"lng":-97.84254,"zip":"78726","miles_from_dt":21.89},{"city":"Austin","state_name":"Texas","lat":30.3421,"lng":-97.68189,"zip":"78761","miles_from_dt":22.9},{"city":"Austin","state_name":"Texas","lat":30.35215,"lng":-97.72972,"zip":"78766","miles_from_dt":23.03},{"city":"Austin","state_name":"Texas","lat":30.35164,"lng":-97.73267,"zip":"78757","miles_from_dt":23.12},{"city":"Manor","state_name":"Texas","lat":30.33783,"lng":-97.52006,"zip":"78653","miles_from_dt":23.13},{"city":"Thrall","state_name":"Texas","lat":30.53488,"lng":-97.24092,"zip":"76578","miles_from_dt":23.18},{"city":"Austin","state_name":"Texas","lat":30.35984,"lng":-97.76093,"zip":"78755","miles_from_dt":23.24},{"city":"Austin","state_name":"Texas","lat":30.33141,"lng":-97.70364,"zip":"78752","miles_from_dt":23.92},{"city":"Austin","state_name":"Texas","lat":30.33109,"lng":-97.70651,"zip":"78773","miles_from_dt":23.99},{"city":"Austin","state_name":"Texas","lat":30.34809,"lng":-97.76826,"zip":"78779","miles_from_dt":24.16},{"city":"Austin","state_name":"Texas","lat":30.34766,"lng":-97.7687,"zip":"78731","miles_from_dt":24.2},{"city":"Killeen","state_name":"Texas","lat":31.00062,"lng":-97.7274,"zip":"76542","miles_from_dt":24.24},{"city":"Austin","state_name":"Texas","lat":30.32219,"lng":-97.7402,"zip":"78756","miles_from_dt":25.18},{"city":"Thorndale","state_name":"Texas","lat":30.62128,"lng":-97.1787,"zip":"76577","miles_from_dt":25.22},{"city":"Austin","state_name":"Texas","lat":30.36322,"lng":-97.83847,"zip":"78730","miles_from_dt":25.32},{"city":"Little River Academy","state_name":"Texas","lat":30.97583,"lng":-97.3677,"zip":"76554","miles_from_dt":25.35},{"city":"Austin","state_name":"Texas","lat":30.30423,"lng":-97.68578,"zip":"78723","miles_from_dt":25.5},{"city":"Austin","state_name":"Texas","lat":30.3108,"lng":-97.72278,"zip":"78751","miles_from_dt":25.6},{"city":"Austin","state_name":"Texas","lat":30.29474,"lng":-97.61439,"zip":"78724","miles_from_dt":25.64},{"city":"Austin","state_name":"Texas","lat":30.30828,"lng":-97.72892,"zip":"78765","miles_from_dt":25.88},{"city":"Austin","state_name":"Texas","lat":30.3802,"lng":-97.89291,"zip":"78732","miles_from_dt":26.4},{"city":"Leander","state_name":"Texas","lat":30.4502,"lng":-97.96934,"zip":"78645","miles_from_dt":26.65},{"city":"Harker Heights","state_name":"Texas","lat":31.05299,"lng":-97.64613,"zip":"76548","miles_from_dt":26.76},{"city":"Elgin","state_name":"Texas","lat":30.33737,"lng":-97.36053,"zip":"78621","miles_from_dt":26.77},{"city":"Austin","state_name":"Texas","lat":30.29005,"lng":-97.71458,"zip":"78722","miles_from_dt":26.85},{"city":"Austin","state_name":"Texas","lat":30.2947,"lng":-97.739,"zip":"78705","miles_from_dt":26.95},{"city":"Briggs","state_name":"Texas","lat":30.9341,"lng":-97.93255,"zip":"78608","miles_from_dt":27.08},{"city":"Austin","state_name":"Texas","lat":30.29711,"lng":-97.76685,"zip":"78763","miles_from_dt":27.36},{"city":"Belton","state_name":"Texas","lat":31.05777,"lng":-97.50369,"zip":"76513","miles_from_dt":27.53},{"city":"Austin","state_name":"Texas","lat":30.29385,"lng":-97.76554,"zip":"78703","miles_from_dt":27.54},{"city":"Austin","state_name":"Texas","lat":30.28393,"lng":-97.73294,"zip":"78712","miles_from_dt":27.55},{"city":"Killeen","state_name":"Texas","lat":31.01583,"lng":-97.82546,"zip":"76549","miles_from_dt":27.57},{"city":"Bertram","state_name":"Texas","lat":30.77366,"lng":-98.04663,"zip":"78605","miles_from_dt":27.66},{"city":"Austin","state_name":"Texas","lat":30.27127,"lng":-97.68345,"zip":"78721","miles_from_dt":27.7},{"city":"Austin","state_name":"Texas","lat":30.28392,"lng":-97.74132,"zip":"78713","miles_from_dt":27.7},{"city":"Austin","state_name":"Texas","lat":30.27968,"lng":-97.7381,"zip":"78711","miles_from_dt":27.92},{"city":"Austin","state_name":"Texas","lat":30.27986,"lng":-97.73918,"zip":"78774","miles_from_dt":27.93},{"city":"Austin","state_name":"Texas","lat":30.27621,"lng":-97.73962,"zip":"78778","miles_from_dt":28.18},{"city":"Austin","state_name":"Texas","lat":30.29759,"lng":-97.81136,"zip":"78746","miles_from_dt":28.41},{"city":"Austin","state_name":"Texas","lat":30.27282,"lng":-97.74283,"zip":"78767","miles_from_dt":28.46},{"city":"Austin","state_name":"Texas","lat":30.32289,"lng":-97.86404,"zip":"78716","miles_from_dt":28.48},{"city":"Nolanville","state_name":"Texas","lat":31.07987,"lng":-97.61079,"zip":"76559","miles_from_dt":28.48},{"city":"Austin","state_name":"Texas","lat":30.38079,"lng":-97.94676,"zip":"78734","miles_from_dt":28.61},{"city":"Austin","state_name":"Texas","lat":30.27022,"lng":-97.74248,"zip":"78701","miles_from_dt":28.62},{"city":"Austin","state_name":"Texas","lat":30.26339,"lng":-97.7144,"zip":"78702","miles_from_dt":28.62},{"city":"Austin","state_name":"Texas","lat":30.27046,"lng":-97.74407,"zip":"78768","miles_from_dt":28.63},{"city":"Austin","state_name":"Texas","lat":30.26884,"lng":-97.74122,"zip":"78714","miles_from_dt":28.69},{"city":"Austin","state_name":"Texas","lat":30.32338,"lng":-97.87762,"zip":"78733","miles_from_dt":28.91},{"city":"Austin","state_name":"Texas","lat":30.26043,"lng":-97.72295,"zip":"78762","miles_from_dt":28.95},{"city":"Austin","state_name":"Texas","lat":30.251,"lng":-97.685,"zip":"78799","miles_from_dt":29.09},{"city":"Rogers","state_name":"Texas","lat":30.93873,"lng":-97.21904,"zip":"76569","miles_from_dt":29.35},{"city":"Austin","state_name":"Texas","lat":30.24375,"lng":-97.65869,"zip":"78742","miles_from_dt":29.35},{"city":"Austin","state_name":"Texas","lat":30.23554,"lng":-97.60859,"zip":"78725","miles_from_dt":29.7}],"targetCityZipCode":"78626","targetCityState":"Texas"},"__N_SSG":true}