{"pageProps":{"stateName":"Texas","cityName":"hamilton","nearbyCities":[{"city":"Pottsville","state_name":"Texas","lat":31.64508,"lng":-98.3492,"zip":"76565","miles_from_dt":9.73},{"city":"Carlton","state_name":"Texas","lat":31.87404,"lng":-98.22271,"zip":"76436","miles_from_dt":13.21},{"city":"Energy","state_name":"Texas","lat":31.77119,"lng":-98.39198,"zip":"76452","miles_from_dt":13.29},{"city":"Gustine","state_name":"Texas","lat":31.82142,"lng":-98.36676,"zip":"76455","miles_from_dt":14.03},{"city":"Evant","state_name":"Texas","lat":31.47643,"lng":-98.17321,"zip":"76525","miles_from_dt":14.35},{"city":"Purmela","state_name":"Texas","lat":31.51664,"lng":-97.99881,"zip":"76566","miles_from_dt":16.16},{"city":"Jonesboro","state_name":"Texas","lat":31.64261,"lng":-97.8896,"zip":"76538","miles_from_dt":17.97},{"city":"Star","state_name":"Texas","lat":31.44491,"lng":-98.3151,"zip":"76880","miles_from_dt":18.05},{"city":"Hico","state_name":"Texas","lat":31.94968,"lng":-98.02773,"zip":"76457","miles_from_dt":20.65},{"city":"Priddy","state_name":"Texas","lat":31.60386,"lng":-98.53151,"zip":"76870","miles_from_dt":20.84},{"city":"Cranfills Gap","state_name":"Texas","lat":31.76631,"lng":-97.81817,"zip":"76637","miles_from_dt":22.65},{"city":"Goldthwaite","state_name":"Texas","lat":31.44387,"lng":-98.49348,"zip":"76844","miles_from_dt":24.36},{"city":"Proctor","state_name":"Texas","lat":31.98549,"lng":-98.43027,"zip":"76468","miles_from_dt":25.09},{"city":"Iredell","state_name":"Texas","lat":32.00132,"lng":-97.87816,"zip":"76649","miles_from_dt":28.55},{"city":"Comanche","state_name":"Texas","lat":31.89015,"lng":-98.61242,"zip":"76442","miles_from_dt":28.59},{"city":"Dublin","state_name":"Texas","lat":32.07572,"lng":-98.35311,"zip":"76446","miles_from_dt":28.62},{"city":"Gatesville","state_name":"Texas","lat":31.43589,"lng":-97.7844,"zip":"76528","miles_from_dt":29.44}],"targetCityZipCode":"76531","targetCityState":"Texas"},"__N_SSG":true}