{"pageProps":{"stateName":"Texas","cityName":"hemphill","nearbyCities":[{"city":"Pineland","state_name":"Texas","lat":31.25882,"lng":-93.95924,"zip":"75968","miles_from_dt":11.12},{"city":"Milam","state_name":"Texas","lat":31.51021,"lng":-93.83994,"zip":"75959","miles_from_dt":15.38},{"city":"Bronson","state_name":"Texas","lat":31.33641,"lng":-94.03522,"zip":"75930","miles_from_dt":15.63},{"city":"Wiergate","state_name":"Texas","lat":31.05997,"lng":-93.78455,"zip":"75977","miles_from_dt":16.12},{"city":"Negreet","state_name":"Louisiana","lat":31.47149,"lng":-93.57269,"zip":"71460","miles_from_dt":17.14},{"city":"Brookeland","state_name":"Texas","lat":31.09978,"lng":-93.98953,"zip":"75931","miles_from_dt":18.42},{"city":"Burkeville","state_name":"Texas","lat":31.0551,"lng":-93.61396,"zip":"75932","miles_from_dt":19.04},{"city":"Many","state_name":"Louisiana","lat":31.5153,"lng":-93.54383,"zip":"71449","miles_from_dt":20.51},{"city":"Anacoco","state_name":"Louisiana","lat":31.21047,"lng":-93.44061,"zip":"71403","miles_from_dt":20.65},{"city":"Florien","state_name":"Louisiana","lat":31.39843,"lng":-93.43218,"zip":"71429","miles_from_dt":21.55},{"city":"Fisher","state_name":"Louisiana","lat":31.49182,"lng":-93.46165,"zip":"71426","miles_from_dt":23.03},{"city":"Zwolle","state_name":"Louisiana","lat":31.62679,"lng":-93.65876,"zip":"71486","miles_from_dt":23.95},{"city":"Hornbeck","state_name":"Louisiana","lat":31.33707,"lng":-93.36597,"zip":"71439","miles_from_dt":24.42},{"city":"San Augustine","state_name":"Texas","lat":31.49407,"lng":-94.12173,"zip":"75972","miles_from_dt":24.66},{"city":"Broaddus","state_name":"Texas","lat":31.23579,"lng":-94.19735,"zip":"75929","miles_from_dt":25.27},{"city":"Noble","state_name":"Louisiana","lat":31.66625,"lng":-93.7324,"zip":"71462","miles_from_dt":25.78},{"city":"Evans","state_name":"Louisiana","lat":30.98235,"lng":-93.49793,"zip":"70639","miles_from_dt":27.05}],"targetCityZipCode":"75948","targetCityState":"Texas"},"__N_SSG":true}