{"pageProps":{"stateName":"Texas","cityName":"hobson","nearbyCities":[{"city":"Panna Maria","state_name":"Texas","lat":28.95506,"lng":-97.88795,"zip":"78144","miles_from_dt":4.21},{"city":"Karnes City","state_name":"Texas","lat":28.87574,"lng":-97.94729,"zip":"78118","miles_from_dt":5.21},{"city":"Falls City","state_name":"Texas","lat":28.94563,"lng":-98.13611,"zip":"78113","miles_from_dt":10.83},{"city":"Poth","state_name":"Texas","lat":29.07375,"lng":-98.08017,"zip":"78147","miles_from_dt":11.26},{"city":"Ecleto","state_name":"Texas","lat":29.03696,"lng":-97.74074,"zip":"78111","miles_from_dt":14.39},{"city":"Runge","state_name":"Texas","lat":28.86788,"lng":-97.70986,"zip":"78151","miles_from_dt":16.05},{"city":"Kenedy","state_name":"Texas","lat":28.71739,"lng":-97.91187,"zip":"78119","miles_from_dt":16.32},{"city":"Gillett","state_name":"Texas","lat":29.11275,"lng":-97.75677,"zip":"78116","miles_from_dt":16.48},{"city":"Floresville","state_name":"Texas","lat":29.12124,"lng":-98.19708,"zip":"78114","miles_from_dt":18.66},{"city":"Stockdale","state_name":"Texas","lat":29.24182,"lng":-97.9285,"zip":"78160","miles_from_dt":20.11},{"city":"Peggy","state_name":"Texas","lat":28.74599,"lng":-98.19711,"zip":"78062","miles_from_dt":20.26},{"city":"Nordheim","state_name":"Texas","lat":28.90484,"lng":-97.62365,"zip":"78141","miles_from_dt":20.47},{"city":"Pawnee","state_name":"Texas","lat":28.64539,"lng":-97.99248,"zip":"78145","miles_from_dt":21.15},{"city":"Pandora","state_name":"Texas","lat":29.26267,"lng":-97.86085,"zip":"78143","miles_from_dt":22.25},{"city":"Sutherland Springs","state_name":"Texas","lat":29.28741,"lng":-98.05012,"zip":"78161","miles_from_dt":23.84},{"city":"Campbellton","state_name":"Texas","lat":28.72478,"lng":-98.25911,"zip":"78008","miles_from_dt":24.03},{"city":"Pettus","state_name":"Texas","lat":28.6038,"lng":-97.83989,"zip":"78146","miles_from_dt":24.95},{"city":"Yorktown","state_name":"Texas","lat":28.9792,"lng":-97.5188,"zip":"78164","miles_from_dt":26.63},{"city":"Nixon","state_name":"Texas","lat":29.30758,"lng":-97.7619,"zip":"78140","miles_from_dt":27.26},{"city":"Tuleta","state_name":"Texas","lat":28.57816,"lng":-97.79447,"zip":"78162","miles_from_dt":27.51},{"city":"Pleasanton","state_name":"Texas","lat":28.9206,"lng":-98.4249,"zip":"78064","miles_from_dt":28.4},{"city":"Mineral","state_name":"Texas","lat":28.53184,"lng":-97.96656,"zip":"78125","miles_from_dt":28.87},{"city":"La Vernia","state_name":"Texas","lat":29.35118,"lng":-98.10241,"zip":"78121","miles_from_dt":28.93},{"city":"Smiley","state_name":"Texas","lat":29.23031,"lng":-97.58247,"zip":"78159","miles_from_dt":29.74},{"city":"Normanna","state_name":"Texas","lat":28.53632,"lng":-97.81297,"zip":"78142","miles_from_dt":29.87}],"targetCityZipCode":"78117","targetCityState":"Texas"},"__N_SSG":true}