{"pageProps":{"stateName":"Texas","cityName":"huntsville","nearbyCities":[{"city":"Huntsville","state_name":"Texas","lat":30.73877,"lng":-95.55911,"zip":"77342","miles_from_dt":4.68},{"city":"Huntsville","state_name":"Texas","lat":30.72286,"lng":-95.55333,"zip":"77348","miles_from_dt":5.78},{"city":"Huntsville","state_name":"Texas","lat":30.7228,"lng":-95.54872,"zip":"77343","miles_from_dt":5.8},{"city":"Huntsville","state_name":"Texas","lat":30.72204,"lng":-95.55279,"zip":"77344","miles_from_dt":5.84},{"city":"Huntsville","state_name":"Texas","lat":30.72181,"lng":-95.55114,"zip":"77349","miles_from_dt":5.86},{"city":"Huntsville","state_name":"Texas","lat":30.69818,"lng":-95.55886,"zip":"77341","miles_from_dt":7.48},{"city":"Riverside","state_name":"Texas","lat":30.8504,"lng":-95.39147,"zip":"77367","miles_from_dt":10.28},{"city":"Huntsville","state_name":"Texas","lat":30.64601,"lng":-95.53441,"zip":"77340","miles_from_dt":11.15},{"city":"Dodge","state_name":"Texas","lat":30.77996,"lng":-95.36465,"zip":"77334","miles_from_dt":11.58},{"city":"Oakhurst","state_name":"Texas","lat":30.76262,"lng":-95.30441,"zip":"77359","miles_from_dt":15.32},{"city":"Midway","state_name":"Texas","lat":30.98723,"lng":-95.72023,"zip":"75852","miles_from_dt":15.77},{"city":"Trinity","state_name":"Texas","lat":30.96193,"lng":-95.32951,"zip":"75862","miles_from_dt":17.23},{"city":"New Waverly","state_name":"Texas","lat":30.55061,"lng":-95.45419,"zip":"77358","miles_from_dt":18.67},{"city":"Pointblank","state_name":"Texas","lat":30.76592,"lng":-95.22168,"zip":"77364","miles_from_dt":20.13},{"city":"Lovelady","state_name":"Texas","lat":31.09458,"lng":-95.49555,"zip":"75851","miles_from_dt":20.16},{"city":"Richards","state_name":"Texas","lat":30.57489,"lng":-95.79934,"zip":"77873","miles_from_dt":21.53},{"city":"Bedias","state_name":"Texas","lat":30.73144,"lng":-95.90933,"zip":"77831","miles_from_dt":21.6},{"city":"Madisonville","state_name":"Texas","lat":30.96087,"lng":-95.89297,"zip":"77864","miles_from_dt":22.62},{"city":"Shiro","state_name":"Texas","lat":30.60369,"lng":-95.85656,"zip":"77876","miles_from_dt":22.67},{"city":"Willis","state_name":"Texas","lat":30.44709,"lng":-95.54364,"zip":"77318","miles_from_dt":24.79},{"city":"Coldspring","state_name":"Texas","lat":30.61928,"lng":-95.17706,"zip":"77331","miles_from_dt":26.03},{"city":"Montgomery","state_name":"Texas","lat":30.44807,"lng":-95.70358,"zip":"77356","miles_from_dt":26.21},{"city":"Willis","state_name":"Texas","lat":30.45873,"lng":-95.37454,"zip":"77378","miles_from_dt":26.32},{"city":"Onalaska","state_name":"Texas","lat":30.8471,"lng":-95.11394,"zip":"77360","miles_from_dt":26.48},{"city":"Roans Prairie","state_name":"Texas","lat":30.58119,"lng":-95.94675,"zip":"77875","miles_from_dt":27.93}],"targetCityZipCode":"77320","targetCityState":"Texas"},"__N_SSG":true}