{"pageProps":{"stateName":"Texas","cityName":"hye","nearbyCities":[{"city":"Stonewall","state_name":"Texas","lat":30.20409,"lng":-98.63275,"zip":"78671","miles_from_dt":5.05},{"city":"Blanco","state_name":"Texas","lat":30.09213,"lng":-98.45789,"zip":"78606","miles_from_dt":9.66},{"city":"Johnson City","state_name":"Texas","lat":30.31649,"lng":-98.42376,"zip":"78636","miles_from_dt":10.55},{"city":"Kendalia","state_name":"Texas","lat":29.98193,"lng":-98.53868,"zip":"78027","miles_from_dt":15.6},{"city":"Willow City","state_name":"Texas","lat":30.4585,"lng":-98.70534,"zip":"78675","miles_from_dt":19.62},{"city":"Round Mountain","state_name":"Texas","lat":30.41582,"lng":-98.31144,"zip":"78663","miles_from_dt":20.13},{"city":"Fredericksburg","state_name":"Texas","lat":30.29227,"lng":-98.87141,"zip":"78624","miles_from_dt":20.16},{"city":"Spring Branch","state_name":"Texas","lat":29.89291,"lng":-98.40732,"zip":"78070","miles_from_dt":23.31},{"city":"Waring","state_name":"Texas","lat":29.94234,"lng":-98.79214,"zip":"78074","miles_from_dt":23.42},{"city":"Bergheim","state_name":"Texas","lat":29.85767,"lng":-98.53773,"zip":"78004","miles_from_dt":24.16},{"city":"Horseshoe Bay","state_name":"Texas","lat":30.53328,"lng":-98.37906,"zip":"78657","miles_from_dt":24.57},{"city":"Dripping Springs","state_name":"Texas","lat":30.22214,"lng":-98.13491,"zip":"78620","miles_from_dt":24.76},{"city":"Boerne","state_name":"Texas","lat":29.86869,"lng":-98.71368,"zip":"78006","miles_from_dt":25.4},{"city":"Fischer","state_name":"Texas","lat":29.95973,"lng":-98.21933,"zip":"78623","miles_from_dt":26.11},{"city":"Wimberley","state_name":"Texas","lat":30.04141,"lng":-98.15051,"zip":"78676","miles_from_dt":26.46},{"city":"Comfort","state_name":"Texas","lat":29.97798,"lng":-98.90647,"zip":"78013","miles_from_dt":26.67},{"city":"Canyon Lake","state_name":"Texas","lat":29.88119,"lng":-98.24624,"zip":"78133","miles_from_dt":28.91},{"city":"Spicewood","state_name":"Texas","lat":30.4347,"lng":-98.13066,"zip":"78669","miles_from_dt":29.44}],"targetCityZipCode":"78635","targetCityState":"Texas"},"__N_SSG":true}