{"pageProps":{"stateName":"Texas","cityName":"karnack","nearbyCities":[{"city":"Scottsville","state_name":"Texas","lat":32.53417,"lng":-94.24071,"zip":"75688","miles_from_dt":8.74},{"city":"Jonesville","state_name":"Texas","lat":32.50725,"lng":-94.09249,"zip":"75659","miles_from_dt":9.82},{"city":"Mooringsport","state_name":"Louisiana","lat":32.63933,"lng":-93.987,"zip":"71060","miles_from_dt":9.89},{"city":"Woodlawn","state_name":"Texas","lat":32.6383,"lng":-94.34442,"zip":"75694","miles_from_dt":10.95},{"city":"Waskom","state_name":"Texas","lat":32.4718,"lng":-94.11936,"zip":"75692","miles_from_dt":11.73},{"city":"Oil City","state_name":"Louisiana","lat":32.75342,"lng":-93.97742,"zip":"71061","miles_from_dt":13.08},{"city":"Jefferson","state_name":"Texas","lat":32.79437,"lng":-94.30498,"zip":"75657","miles_from_dt":13.76},{"city":"Marshall","state_name":"Texas","lat":32.48907,"lng":-94.31494,"zip":"75671","miles_from_dt":13.87},{"city":"Marshall","state_name":"Texas","lat":32.47076,"lng":-94.29353,"zip":"75672","miles_from_dt":14.09},{"city":"Blanchard","state_name":"Louisiana","lat":32.57793,"lng":-93.89185,"zip":"71009","miles_from_dt":16},{"city":"Greenwood","state_name":"Louisiana","lat":32.44121,"lng":-94.00364,"zip":"71033","miles_from_dt":16.3},{"city":"Marshall","state_name":"Texas","lat":32.56456,"lng":-94.42326,"zip":"75670","miles_from_dt":16.38},{"city":"Shreveport","state_name":"Louisiana","lat":32.48542,"lng":-93.92296,"zip":"71119","miles_from_dt":17.26},{"city":"Vivian","state_name":"Louisiana","lat":32.84389,"lng":-93.97763,"zip":"71082","miles_from_dt":17.54},{"city":"Shreveport","state_name":"Louisiana","lat":32.59509,"lng":-93.85909,"zip":"71107","miles_from_dt":17.61},{"city":"Shreveport","state_name":"Louisiana","lat":32.593,"lng":-93.85411,"zip":"71137","miles_from_dt":17.92},{"city":"Lodi","state_name":"Texas","lat":32.88784,"lng":-94.24962,"zip":"75564","miles_from_dt":17.98},{"city":"Belcher","state_name":"Louisiana","lat":32.74403,"lng":-93.85843,"zip":"71004","miles_from_dt":18.82},{"city":"Panola","state_name":"Texas","lat":32.36033,"lng":-94.11072,"zip":"75685","miles_from_dt":19.39},{"city":"Elysian Fields","state_name":"Texas","lat":32.35818,"lng":-94.17821,"zip":"75642","miles_from_dt":19.4},{"city":"Bethany","state_name":"Louisiana","lat":32.36854,"lng":-94.00502,"zip":"71007","miles_from_dt":20.64},{"city":"Bivins","state_name":"Texas","lat":32.94564,"lng":-94.13696,"zip":"75555","miles_from_dt":21.16},{"city":"Kildare","state_name":"Texas","lat":32.93588,"lng":-94.25302,"zip":"75562","miles_from_dt":21.21},{"city":"Shreveport","state_name":"Louisiana","lat":32.386,"lng":-93.93019,"zip":"71150","miles_from_dt":21.88},{"city":"Harleton","state_name":"Texas","lat":32.67061,"lng":-94.53064,"zip":"75651","miles_from_dt":21.92},{"city":"Shreveport","state_name":"Louisiana","lat":32.38697,"lng":-93.92685,"zip":"71129","miles_from_dt":21.95},{"city":"McLeod","state_name":"Texas","lat":32.95202,"lng":-94.07527,"zip":"75565","miles_from_dt":22.08},{"city":"Hosston","state_name":"Louisiana","lat":32.88789,"lng":-93.88906,"zip":"71043","miles_from_dt":23.16},{"city":"Shreveport","state_name":"Louisiana","lat":32.46859,"lng":-93.814,"zip":"71109","miles_from_dt":23.19},{"city":"Gilliam","state_name":"Louisiana","lat":32.83733,"lng":-93.83446,"zip":"71029","miles_from_dt":23.21},{"city":"De Berry","state_name":"Texas","lat":32.28441,"lng":-94.16897,"zip":"75639","miles_from_dt":24.45},{"city":"Shreveport","state_name":"Louisiana","lat":32.49334,"lng":-93.77152,"zip":"71102","miles_from_dt":24.61},{"city":"Shreveport","state_name":"Louisiana","lat":32.49154,"lng":-93.7717,"zip":"71103","miles_from_dt":24.65},{"city":"Hallsville","state_name":"Texas","lat":32.51529,"lng":-94.55358,"zip":"75650","miles_from_dt":24.69},{"city":"Shreveport","state_name":"Louisiana","lat":32.49105,"lng":-93.7693,"zip":"71130","miles_from_dt":24.79},{"city":"Shreveport","state_name":"Louisiana","lat":32.49291,"lng":-93.76637,"zip":"71154","miles_from_dt":24.9},{"city":"Shreveport","state_name":"Louisiana","lat":32.48871,"lng":-93.76813,"zip":"71133","miles_from_dt":24.92},{"city":"Rodessa","state_name":"Louisiana","lat":32.9726,"lng":-93.9887,"zip":"71069","miles_from_dt":24.97},{"city":"Shreveport","state_name":"Louisiana","lat":32.51535,"lng":-93.74993,"zip":"71153","miles_from_dt":25.21},{"city":"Shreveport","state_name":"Louisiana","lat":32.51461,"lng":-93.74727,"zip":"71151","miles_from_dt":25.37},{"city":"Shreveport","state_name":"Louisiana","lat":32.44236,"lng":-93.78881,"zip":"71108","miles_from_dt":25.39},{"city":"Shreveport","state_name":"Louisiana","lat":32.4572,"lng":-93.77776,"zip":"71148","miles_from_dt":25.41},{"city":"Shreveport","state_name":"Louisiana","lat":32.51134,"lng":-93.74808,"zip":"71156","miles_from_dt":25.41},{"city":"Shreveport","state_name":"Louisiana","lat":32.44092,"lng":-93.78844,"zip":"71152","miles_from_dt":25.46},{"city":"Shreveport","state_name":"Louisiana","lat":32.5062,"lng":-93.74822,"zip":"71101","miles_from_dt":25.52},{"city":"Shreveport","state_name":"Louisiana","lat":32.49798,"lng":-93.75199,"zip":"71161","miles_from_dt":25.53},{"city":"Shreveport","state_name":"Louisiana","lat":32.50781,"lng":-93.74489,"zip":"71163","miles_from_dt":25.67},{"city":"Shreveport","state_name":"Louisiana","lat":32.50441,"lng":-93.74469,"zip":"71120","miles_from_dt":25.76},{"city":"Shreveport","state_name":"Louisiana","lat":32.5042,"lng":-93.74365,"zip":"71164","miles_from_dt":25.82},{"city":"Shreveport","state_name":"Louisiana","lat":32.50244,"lng":-93.74385,"zip":"71165","miles_from_dt":25.86},{"city":"Shreveport","state_name":"Louisiana","lat":32.50808,"lng":-93.74124,"zip":"71149","miles_from_dt":25.86},{"city":"Shreveport","state_name":"Louisiana","lat":32.50525,"lng":-93.7412,"zip":"71166","miles_from_dt":25.93},{"city":"Shreveport","state_name":"Louisiana","lat":32.50305,"lng":-93.74103,"zip":"71162","miles_from_dt":25.99},{"city":"Bossier City","state_name":"Louisiana","lat":32.51385,"lng":-93.73108,"zip":"71171","miles_from_dt":26.28},{"city":"Shreveport","state_name":"Louisiana","lat":32.40577,"lng":-93.79601,"zip":"71138","miles_from_dt":26.49},{"city":"Shreveport","state_name":"Louisiana","lat":32.39262,"lng":-93.80498,"zip":"71118","miles_from_dt":26.64},{"city":"Bossier City","state_name":"Louisiana","lat":32.57904,"lng":-93.70379,"zip":"71111","miles_from_dt":26.73},{"city":"Shreveport","state_name":"Louisiana","lat":32.47863,"lng":-93.73523,"zip":"71134","miles_from_dt":26.96},{"city":"Shreveport","state_name":"Louisiana","lat":32.48525,"lng":-93.73171,"zip":"71104","miles_from_dt":26.96},{"city":"Keithville","state_name":"Louisiana","lat":32.29972,"lng":-93.91673,"zip":"71047","miles_from_dt":27.26},{"city":"Shreveport","state_name":"Louisiana","lat":32.41873,"lng":-93.7609,"zip":"71136","miles_from_dt":27.64},{"city":"Ida","state_name":"Louisiana","lat":32.96662,"lng":-93.88083,"zip":"71044","miles_from_dt":27.69},{"city":"Avinger","state_name":"Texas","lat":32.87588,"lng":-94.5572,"zip":"75630","miles_from_dt":28.47},{"city":"Shreveport","state_name":"Louisiana","lat":32.45512,"lng":-93.71012,"zip":"71105","miles_from_dt":28.98},{"city":"Bossier City","state_name":"Louisiana","lat":32.4964,"lng":-93.6874,"zip":"71113","miles_from_dt":29.09},{"city":"Linden","state_name":"Texas","lat":33.01835,"lng":-94.38871,"zip":"75563","miles_from_dt":29.42},{"city":"Shreveport","state_name":"Louisiana","lat":32.442,"lng":-93.70774,"zip":"71135","miles_from_dt":29.51}],"targetCityZipCode":"75661","targetCityState":"Texas"},"__N_SSG":true}