{"pageProps":{"stateName":"Texas","cityName":"luling","nearbyCities":[{"city":"Prairie Lea","state_name":"Texas","lat":29.72925,"lng":-97.74212,"zip":"78661","miles_from_dt":6.65},{"city":"Ottine","state_name":"Texas","lat":29.59339,"lng":-97.62661,"zip":"78658","miles_from_dt":7.1},{"city":"Kingsbury","state_name":"Texas","lat":29.65821,"lng":-97.79595,"zip":"78638","miles_from_dt":9.83},{"city":"Fentress","state_name":"Texas","lat":29.77225,"lng":-97.78229,"zip":"78622","miles_from_dt":10.13},{"city":"Harwood","state_name":"Texas","lat":29.68866,"lng":-97.46858,"zip":"78632","miles_from_dt":10.22},{"city":"Belmont","state_name":"Texas","lat":29.52393,"lng":-97.68192,"zip":"78604","miles_from_dt":12.14},{"city":"Lockhart","state_name":"Texas","lat":29.87111,"lng":-97.67292,"zip":"78644","miles_from_dt":12.24},{"city":"Staples","state_name":"Texas","lat":29.76267,"lng":-97.84608,"zip":"78670","miles_from_dt":13.31},{"city":"Martindale","state_name":"Texas","lat":29.82346,"lng":-97.83517,"zip":"78655","miles_from_dt":14.74},{"city":"Dale","state_name":"Texas","lat":29.92687,"lng":-97.55655,"zip":"78616","miles_from_dt":16.65},{"city":"Maxwell","state_name":"Texas","lat":29.90275,"lng":-97.8089,"zip":"78656","miles_from_dt":17.55},{"city":"Leesville","state_name":"Texas","lat":29.44512,"lng":-97.72212,"zip":"78122","miles_from_dt":18},{"city":"Gonzales","state_name":"Texas","lat":29.47762,"lng":-97.45093,"zip":"78629","miles_from_dt":18.8},{"city":"Cost","state_name":"Texas","lat":29.41314,"lng":-97.59429,"zip":"78614","miles_from_dt":19.66},{"city":"Seguin","state_name":"Texas","lat":29.56732,"lng":-97.93086,"zip":"78156","miles_from_dt":19.71},{"city":"Waelder","state_name":"Texas","lat":29.69877,"lng":-97.30153,"zip":"78959","miles_from_dt":20.25},{"city":"Rosanky","state_name":"Texas","lat":29.85552,"lng":-97.35214,"zip":"78953","miles_from_dt":20.41},{"city":"Red Rock","state_name":"Texas","lat":29.94316,"lng":-97.44231,"zip":"78662","miles_from_dt":20.7},{"city":"Seguin","state_name":"Texas","lat":29.53305,"lng":-97.93832,"zip":"78155","miles_from_dt":21.26},{"city":"San Marcos","state_name":"Texas","lat":29.85831,"lng":-97.94297,"zip":"78667","miles_from_dt":21.45},{"city":"Kyle","state_name":"Texas","lat":29.99619,"lng":-97.82355,"zip":"78640","miles_from_dt":23.48},{"city":"Geronimo","state_name":"Texas","lat":29.61024,"lng":-98.02557,"zip":"78115","miles_from_dt":24.04},{"city":"San Marcos","state_name":"Texas","lat":29.8826,"lng":-97.97974,"zip":"78666","miles_from_dt":24.21},{"city":"Wrightsboro","state_name":"Texas","lat":29.34174,"lng":-97.59335,"zip":"78677","miles_from_dt":24.55},{"city":"McQueeney","state_name":"Texas","lat":29.60056,"lng":-98.04236,"zip":"78123","miles_from_dt":25.18},{"city":"New Braunfels","state_name":"Texas","lat":29.69224,"lng":-98.06877,"zip":"78130","miles_from_dt":25.89},{"city":"Nixon","state_name":"Texas","lat":29.30758,"lng":-97.7619,"zip":"78140","miles_from_dt":27.77},{"city":"Cedar Creek","state_name":"Texas","lat":30.09301,"lng":-97.49017,"zip":"78612","miles_from_dt":28.76},{"city":"New Braunfels","state_name":"Texas","lat":29.70387,"lng":-98.11752,"zip":"78135","miles_from_dt":28.82},{"city":"Buda","state_name":"Texas","lat":30.07962,"lng":-97.84047,"zip":"78610","miles_from_dt":29.08},{"city":"Flatonia","state_name":"Texas","lat":29.74201,"lng":-97.1561,"zip":"78941","miles_from_dt":29.16}],"targetCityZipCode":"78648","targetCityState":"Texas"},"__N_SSG":true}