{"pageProps":{"stateName":"Texas","cityName":"mcgregor","nearbyCities":[{"city":"Oglesby","state_name":"Texas","lat":31.42531,"lng":-97.54098,"zip":"76561","miles_from_dt":8.39},{"city":"Crawford","state_name":"Texas","lat":31.55487,"lng":-97.446,"zip":"76638","miles_from_dt":8.47},{"city":"Moody","state_name":"Texas","lat":31.29075,"lng":-97.39814,"zip":"76557","miles_from_dt":10.18},{"city":"Woodway","state_name":"Texas","lat":31.52411,"lng":-97.25514,"zip":"76712","miles_from_dt":10.38},{"city":"Hewitt","state_name":"Texas","lat":31.45011,"lng":-97.19732,"zip":"76643","miles_from_dt":11.98},{"city":"Bruceville","state_name":"Texas","lat":31.33993,"lng":-97.22405,"zip":"76630","miles_from_dt":12.41},{"city":"Flat","state_name":"Texas","lat":31.31204,"lng":-97.57222,"zip":"76526","miles_from_dt":13.41},{"city":"Mound","state_name":"Texas","lat":31.308,"lng":-97.56967,"zip":"76558","miles_from_dt":13.48},{"city":"Waco","state_name":"Texas","lat":31.52853,"lng":-97.19454,"zip":"76714","miles_from_dt":13.61},{"city":"Lorena","state_name":"Texas","lat":31.39295,"lng":-97.1728,"zip":"76655","miles_from_dt":13.77},{"city":"Waco","state_name":"Texas","lat":31.53127,"lng":-97.19223,"zip":"76799","miles_from_dt":13.82},{"city":"Waco","state_name":"Texas","lat":31.5387,"lng":-97.19554,"zip":"76710","miles_from_dt":13.89},{"city":"Waco","state_name":"Texas","lat":31.53245,"lng":-97.19022,"zip":"76797","miles_from_dt":13.96},{"city":"Waco","state_name":"Texas","lat":31.51422,"lng":-97.15374,"zip":"76711","miles_from_dt":15.43},{"city":"Eddy","state_name":"Texas","lat":31.27445,"lng":-97.20736,"zip":"76524","miles_from_dt":16.03},{"city":"Waco","state_name":"Texas","lat":31.55365,"lng":-97.15829,"zip":"76707","miles_from_dt":16.31},{"city":"Waco","state_name":"Texas","lat":31.54497,"lng":-97.14263,"zip":"76702","miles_from_dt":16.86},{"city":"Valley Mills","state_name":"Texas","lat":31.66624,"lng":-97.50471,"zip":"76689","miles_from_dt":16.87},{"city":"Waco","state_name":"Texas","lat":31.62749,"lng":-97.21186,"zip":"76708","miles_from_dt":17.1},{"city":"Waco","state_name":"Texas","lat":31.55201,"lng":-97.13852,"zip":"76701","miles_from_dt":17.29},{"city":"China Spring","state_name":"Texas","lat":31.6857,"lng":-97.32503,"zip":"76633","miles_from_dt":17.59},{"city":"Waco","state_name":"Texas","lat":31.45699,"lng":-97.09666,"zip":"76716","miles_from_dt":17.94},{"city":"Waco","state_name":"Texas","lat":31.54606,"lng":-97.12085,"zip":"76798","miles_from_dt":18.05},{"city":"Waco","state_name":"Texas","lat":31.55812,"lng":-97.12751,"zip":"76703","miles_from_dt":18.06},{"city":"Waco","state_name":"Texas","lat":31.465,"lng":-97.09131,"zip":"76706","miles_from_dt":18.31},{"city":"Troy","state_name":"Texas","lat":31.19894,"lng":-97.26046,"zip":"76579","miles_from_dt":18.45},{"city":"Gatesville","state_name":"Texas","lat":31.48446,"lng":-97.70983,"zip":"76597","miles_from_dt":18.59},{"city":"Waco","state_name":"Texas","lat":31.57558,"lng":-97.12417,"zip":"76704","miles_from_dt":18.81},{"city":"Gatesville","state_name":"Texas","lat":31.47626,"lng":-97.72696,"zip":"76596","miles_from_dt":19.5},{"city":"Temple","state_name":"Texas","lat":31.15517,"lng":-97.4413,"zip":"76503","miles_from_dt":19.67},{"city":"Gatesville","state_name":"Texas","lat":31.47092,"lng":-97.73361,"zip":"76599","miles_from_dt":19.85},{"city":"Gatesville","state_name":"Texas","lat":31.47543,"lng":-97.73488,"zip":"76598","miles_from_dt":19.96},{"city":"Temple","state_name":"Texas","lat":31.14135,"lng":-97.37748,"zip":"76504","miles_from_dt":20.51},{"city":"Pendleton","state_name":"Texas","lat":31.15637,"lng":-97.25561,"zip":"76564","miles_from_dt":21.22},{"city":"Waco","state_name":"Texas","lat":31.60305,"lng":-97.08132,"zip":"76715","miles_from_dt":21.95},{"city":"Chilton","state_name":"Texas","lat":31.29602,"lng":-97.06158,"zip":"76632","miles_from_dt":22.27},{"city":"Waco","state_name":"Texas","lat":31.62448,"lng":-97.08814,"zip":"76705","miles_from_dt":22.41},{"city":"Gatesville","state_name":"Texas","lat":31.43589,"lng":-97.7844,"zip":"76528","miles_from_dt":22.72},{"city":"Temple","state_name":"Texas","lat":31.09388,"lng":-97.41082,"zip":"76502","miles_from_dt":23.75},{"city":"Ross","state_name":"Texas","lat":31.66937,"lng":-97.10063,"zip":"76684","miles_from_dt":23.76},{"city":"Satin","state_name":"Texas","lat":31.34973,"lng":-97.0101,"zip":"76685","miles_from_dt":23.82},{"city":"Temple","state_name":"Texas","lat":31.09289,"lng":-97.36482,"zip":"76508","miles_from_dt":23.9},{"city":"Heidenheimer","state_name":"Texas","lat":31.08037,"lng":-97.32376,"zip":"76533","miles_from_dt":25.08},{"city":"Fort Hood","state_name":"Texas","lat":31.23134,"lng":-97.75867,"zip":"76544","miles_from_dt":25.58},{"city":"Elm Mott","state_name":"Texas","lat":31.69029,"lng":-97.07323,"zip":"76640","miles_from_dt":25.92},{"city":"Killeen","state_name":"Texas","lat":31.12343,"lng":-97.64077,"zip":"76543","miles_from_dt":25.97},{"city":"Temple","state_name":"Texas","lat":31.07555,"lng":-97.25469,"zip":"76501","miles_from_dt":26.44},{"city":"Lott","state_name":"Texas","lat":31.18555,"lng":-97.06161,"zip":"76656","miles_from_dt":26.53},{"city":"Belton","state_name":"Texas","lat":31.05777,"lng":-97.50369,"zip":"76513","miles_from_dt":26.94},{"city":"Clifton","state_name":"Texas","lat":31.80953,"lng":-97.56866,"zip":"76634","miles_from_dt":27.43},{"city":"Nolanville","state_name":"Texas","lat":31.07987,"lng":-97.61079,"zip":"76559","miles_from_dt":27.69},{"city":"Aquilla","state_name":"Texas","lat":31.82032,"lng":-97.24942,"zip":"76622","miles_from_dt":27.76},{"city":"Killeen","state_name":"Texas","lat":31.12162,"lng":-97.72045,"zip":"76540","miles_from_dt":28.93},{"city":"Laguna Park","state_name":"Texas","lat":31.85888,"lng":-97.37682,"zip":"76644","miles_from_dt":28.99},{"city":"Riesel","state_name":"Texas","lat":31.45235,"lng":-96.90825,"zip":"76682","miles_from_dt":29.04},{"city":"West","state_name":"Texas","lat":31.77564,"lng":-97.09721,"zip":"76691","miles_from_dt":29.29},{"city":"Killeen","state_name":"Texas","lat":31.11894,"lng":-97.7266,"zip":"76547","miles_from_dt":29.31},{"city":"Killeen","state_name":"Texas","lat":31.11447,"lng":-97.72922,"zip":"76541","miles_from_dt":29.64}],"targetCityZipCode":"76657","targetCityState":"Texas"},"__N_SSG":true}