{"pageProps":{"stateName":"Texas","cityName":"moscow","nearbyCities":[{"city":"Camden","state_name":"Texas","lat":30.89688,"lng":-94.75153,"zip":"75934","miles_from_dt":6.57},{"city":"Leggett","state_name":"Texas","lat":30.81432,"lng":-94.90086,"zip":"77350","miles_from_dt":6.58},{"city":"Corrigan","state_name":"Texas","lat":31.01496,"lng":-94.80501,"zip":"75939","miles_from_dt":8.37},{"city":"Woodlake","state_name":"Texas","lat":31.05808,"lng":-94.96228,"zip":"75865","miles_from_dt":12.19},{"city":"Livingston","state_name":"Texas","lat":30.71309,"lng":-94.93541,"zip":"77399","miles_from_dt":13.84},{"city":"Livingston","state_name":"Texas","lat":30.70411,"lng":-94.81682,"zip":"77351","miles_from_dt":14.01},{"city":"Onalaska","state_name":"Texas","lat":30.8471,"lng":-95.11394,"zip":"77360","miles_from_dt":15.48},{"city":"Chester","state_name":"Texas","lat":30.95147,"lng":-94.58883,"zip":"75936","miles_from_dt":16.54},{"city":"Groveton","state_name":"Texas","lat":31.09488,"lng":-95.08707,"zip":"75845","miles_from_dt":18.77},{"city":"Diboll","state_name":"Texas","lat":31.18078,"lng":-94.76219,"zip":"75941","miles_from_dt":19.98},{"city":"Goodrich","state_name":"Texas","lat":30.58901,"lng":-94.92353,"zip":"77335","miles_from_dt":21.99},{"city":"Pointblank","state_name":"Texas","lat":30.76592,"lng":-95.22168,"zip":"77364","miles_from_dt":23.4},{"city":"Dallardsville","state_name":"Texas","lat":30.6262,"lng":-94.63094,"zip":"77332","miles_from_dt":23.54},{"city":"Apple Springs","state_name":"Texas","lat":31.23281,"lng":-94.96944,"zip":"75926","miles_from_dt":23.55},{"city":"Centralia","state_name":"Texas","lat":31.25837,"lng":-95.04062,"zip":"75834","miles_from_dt":26.63},{"city":"Doucette","state_name":"Texas","lat":30.82567,"lng":-94.41657,"zip":"75942","miles_from_dt":27},{"city":"Coldspring","state_name":"Texas","lat":30.61928,"lng":-95.17706,"zip":"77331","miles_from_dt":27.12},{"city":"Woodville","state_name":"Texas","lat":30.77396,"lng":-94.42353,"zip":"75990","miles_from_dt":27.54},{"city":"Ace","state_name":"Texas","lat":30.50445,"lng":-94.81661,"zip":"77326","miles_from_dt":27.64},{"city":"Oakhurst","state_name":"Texas","lat":30.76262,"lng":-95.30441,"zip":"77359","miles_from_dt":28.05},{"city":"Trinity","state_name":"Texas","lat":30.96193,"lng":-95.32951,"zip":"75862","miles_from_dt":28.06},{"city":"Woodville","state_name":"Texas","lat":30.77477,"lng":-94.4026,"zip":"75979","miles_from_dt":28.71},{"city":"Lufkin","state_name":"Texas","lat":31.3228,"lng":-94.80107,"zip":"75902","miles_from_dt":29.09},{"city":"Shepherd","state_name":"Texas","lat":30.49376,"lng":-94.98146,"zip":"77371","miles_from_dt":29.13}],"targetCityZipCode":"75960","targetCityState":"Texas"},"__N_SSG":true}