{"pageProps":{"stateName":"Texas","cityName":"mount-enterprise","nearbyCities":[{"city":"Minden","state_name":"Texas","lat":32.01035,"lng":-94.71824,"zip":"75680","miles_from_dt":5.48},{"city":"Laneville","state_name":"Texas","lat":31.988,"lng":-94.83729,"zip":"75667","miles_from_dt":9.64},{"city":"Long Branch","state_name":"Texas","lat":32.03348,"lng":-94.55678,"zip":"75669","miles_from_dt":10.09},{"city":"Garrison","state_name":"Texas","lat":31.81372,"lng":-94.52392,"zip":"75946","miles_from_dt":12.67},{"city":"Henderson","state_name":"Texas","lat":32.08299,"lng":-94.82961,"zip":"75654","miles_from_dt":13.22},{"city":"Cushing","state_name":"Texas","lat":31.80738,"lng":-94.85758,"zip":"75760","miles_from_dt":13.47},{"city":"Nacogdoches","state_name":"Texas","lat":31.7284,"lng":-94.62629,"zip":"75965","miles_from_dt":14.71},{"city":"Sacul","state_name":"Texas","lat":31.82252,"lng":-94.91617,"zip":"75788","miles_from_dt":15.68},{"city":"Timpson","state_name":"Texas","lat":31.89535,"lng":-94.4122,"zip":"75975","miles_from_dt":16.27},{"city":"Clayton","state_name":"Texas","lat":32.10086,"lng":-94.47273,"zip":"75637","miles_from_dt":16.86},{"city":"Reklaw","state_name":"Texas","lat":31.87344,"lng":-94.96234,"zip":"75784","miles_from_dt":16.86},{"city":"Henderson","state_name":"Texas","lat":32.16182,"lng":-94.80568,"zip":"75653","miles_from_dt":17.1},{"city":"Gary","state_name":"Texas","lat":32.01041,"lng":-94.35518,"zip":"75643","miles_from_dt":20.04},{"city":"Price","state_name":"Texas","lat":32.10575,"lng":-94.96352,"zip":"75687","miles_from_dt":20.1},{"city":"Henderson","state_name":"Texas","lat":32.2301,"lng":-94.7281,"zip":"75652","miles_from_dt":20.42},{"city":"Joinerville","state_name":"Texas","lat":32.17545,"lng":-94.90362,"zip":"75658","miles_from_dt":20.9},{"city":"Nacogdoches","state_name":"Texas","lat":31.6321,"lng":-94.63732,"zip":"75963","miles_from_dt":21.12},{"city":"Nacogdoches","state_name":"Texas","lat":31.63334,"lng":-94.75057,"zip":"75964","miles_from_dt":21.21},{"city":"Nacogdoches","state_name":"Texas","lat":31.61981,"lng":-94.6484,"zip":"75962","miles_from_dt":21.89},{"city":"Douglass","state_name":"Texas","lat":31.65451,"lng":-94.88935,"zip":"75943","miles_from_dt":22.82},{"city":"Selman City","state_name":"Texas","lat":32.18196,"lng":-94.95771,"zip":"75689","miles_from_dt":23.31},{"city":"New Summerfield","state_name":"Texas","lat":31.98905,"lng":-95.09122,"zip":"75780","miles_from_dt":24.14},{"city":"Martinsville","state_name":"Texas","lat":31.64171,"lng":-94.41327,"zip":"75958","miles_from_dt":25.82},{"city":"Beckville","state_name":"Texas","lat":32.25343,"lng":-94.44957,"zip":"75631","miles_from_dt":25.87},{"city":"Tenaha","state_name":"Texas","lat":31.95674,"lng":-94.23713,"zip":"75974","miles_from_dt":26.35},{"city":"New London","state_name":"Texas","lat":32.25152,"lng":-94.94713,"zip":"75682","miles_from_dt":26.63},{"city":"Tatum","state_name":"Texas","lat":32.31108,"lng":-94.55725,"zip":"75691","miles_from_dt":26.91},{"city":"Troup","state_name":"Texas","lat":32.1126,"lng":-95.09405,"zip":"75789","miles_from_dt":26.92},{"city":"Gallatin","state_name":"Texas","lat":31.89522,"lng":-95.14369,"zip":"75764","miles_from_dt":27.1},{"city":"Carthage","state_name":"Texas","lat":32.12788,"lng":-94.28109,"zip":"75633","miles_from_dt":27.15},{"city":"Overton","state_name":"Texas","lat":32.27085,"lng":-94.93147,"zip":"75684","miles_from_dt":27.23},{"city":"Nacogdoches","state_name":"Texas","lat":31.5576,"lng":-94.51098,"zip":"75961","miles_from_dt":28.01}],"targetCityZipCode":"75681","targetCityState":"Texas"},"__N_SSG":true}