{"pageProps":{"stateName":"Texas","cityName":"nada","nearbyCities":[{"city":"Garwood","state_name":"Texas","lat":29.43708,"lng":-96.49757,"zip":"77442","miles_from_dt":7.34},{"city":"Egypt","state_name":"Texas","lat":29.38874,"lng":-96.23832,"zip":"77436","miles_from_dt":8.84},{"city":"Eagle Lake","state_name":"Texas","lat":29.52577,"lng":-96.31983,"zip":"77434","miles_from_dt":9.66},{"city":"Glen Flora","state_name":"Texas","lat":29.35835,"lng":-96.18255,"zip":"77443","miles_from_dt":12.48},{"city":"Altair","state_name":"Texas","lat":29.56693,"lng":-96.46031,"zip":"77412","miles_from_dt":12.54},{"city":"Rock Island","state_name":"Texas","lat":29.52775,"lng":-96.55305,"zip":"77470","miles_from_dt":13.56},{"city":"Lissie","state_name":"Texas","lat":29.54304,"lng":-96.23044,"zip":"77454","miles_from_dt":13.67},{"city":"El Campo","state_name":"Texas","lat":29.20452,"lng":-96.27328,"zip":"77437","miles_from_dt":14.89},{"city":"Pierce","state_name":"Texas","lat":29.23345,"lng":-96.18563,"zip":"77467","miles_from_dt":16.48},{"city":"East Bernard","state_name":"Texas","lat":29.51111,"lng":-96.12395,"zip":"77435","miles_from_dt":17.55},{"city":"Hungerford","state_name":"Texas","lat":29.4147,"lng":-96.08746,"zip":"77448","miles_from_dt":17.95},{"city":"Louise","state_name":"Texas","lat":29.14017,"lng":-96.43782,"zip":"77455","miles_from_dt":18.01},{"city":"Sheridan","state_name":"Texas","lat":29.50419,"lng":-96.66026,"zip":"77475","miles_from_dt":18.18},{"city":"Wharton","state_name":"Texas","lat":29.29833,"lng":-96.09821,"zip":"77488","miles_from_dt":18.58},{"city":"Alleyton","state_name":"Texas","lat":29.68797,"lng":-96.43006,"zip":"78935","miles_from_dt":20.2},{"city":"Kendleton","state_name":"Texas","lat":29.46173,"lng":-96.02688,"zip":"77451","miles_from_dt":22.01},{"city":"Columbus","state_name":"Texas","lat":29.7023,"lng":-96.56741,"zip":"78934","miles_from_dt":23.71},{"city":"Glidden","state_name":"Texas","lat":29.69721,"lng":-96.59538,"zip":"78943","miles_from_dt":24.24},{"city":"Lane City","state_name":"Texas","lat":29.23303,"lng":-96.01802,"zip":"77453","miles_from_dt":24.85},{"city":"Sublime","state_name":"Texas","lat":29.47661,"lng":-96.79607,"zip":"77986","miles_from_dt":25.4},{"city":"Danevang","state_name":"Texas","lat":29.05808,"lng":-96.21608,"zip":"77432","miles_from_dt":25.49},{"city":"Wallis","state_name":"Texas","lat":29.64118,"lng":-96.06236,"zip":"77485","miles_from_dt":25.66},{"city":"Beasley","state_name":"Texas","lat":29.46633,"lng":-95.9621,"zip":"77417","miles_from_dt":25.91},{"city":"Cat Spring","state_name":"Texas","lat":29.77209,"lng":-96.33829,"zip":"78933","miles_from_dt":25.95},{"city":"Ganado","state_name":"Texas","lat":29.03253,"lng":-96.5023,"zip":"77962","miles_from_dt":26.12},{"city":"Hallettsville","state_name":"Texas","lat":29.38023,"lng":-96.84301,"zip":"77964","miles_from_dt":27.68},{"city":"Weimar","state_name":"Texas","lat":29.66951,"lng":-96.73815,"zip":"78962","miles_from_dt":28.37},{"city":"Sealy","state_name":"Texas","lat":29.77583,"lng":-96.18518,"zip":"77474","miles_from_dt":28.69}],"targetCityZipCode":"77460","targetCityState":"Texas"},"__N_SSG":true}