{"pageProps":{"stateName":"Texas","cityName":"pottsville","nearbyCities":[{"city":"Energy","state_name":"Texas","lat":31.77119,"lng":-98.39198,"zip":"76452","miles_from_dt":9.05},{"city":"Hamilton","state_name":"Texas","lat":31.68423,"lng":-98.19058,"zip":"76531","miles_from_dt":9.73},{"city":"Priddy","state_name":"Texas","lat":31.60386,"lng":-98.53151,"zip":"76870","miles_from_dt":11.12},{"city":"Gustine","state_name":"Texas","lat":31.82142,"lng":-98.36676,"zip":"76455","miles_from_dt":12.19},{"city":"Star","state_name":"Texas","lat":31.44491,"lng":-98.3151,"zip":"76880","miles_from_dt":13.94},{"city":"Evant","state_name":"Texas","lat":31.47643,"lng":-98.17321,"zip":"76525","miles_from_dt":15.58},{"city":"Goldthwaite","state_name":"Texas","lat":31.44387,"lng":-98.49348,"zip":"76844","miles_from_dt":16.27},{"city":"Carlton","state_name":"Texas","lat":31.87404,"lng":-98.22271,"zip":"76436","miles_from_dt":17.44},{"city":"Purmela","state_name":"Texas","lat":31.51664,"lng":-97.99881,"zip":"76566","miles_from_dt":22.48},{"city":"Comanche","state_name":"Texas","lat":31.89015,"lng":-98.61242,"zip":"76442","miles_from_dt":22.92},{"city":"Mullin","state_name":"Texas","lat":31.54561,"lng":-98.73637,"zip":"76864","miles_from_dt":23.84},{"city":"Proctor","state_name":"Texas","lat":31.98549,"lng":-98.43027,"zip":"76468","miles_from_dt":23.93},{"city":"Zephyr","state_name":"Texas","lat":31.69229,"lng":-98.7649,"zip":"76890","miles_from_dt":24.71},{"city":"Jonesboro","state_name":"Texas","lat":31.64261,"lng":-97.8896,"zip":"76538","miles_from_dt":27.09},{"city":"Lometa","state_name":"Texas","lat":31.24774,"lng":-98.39047,"zip":"76853","miles_from_dt":27.48},{"city":"Hico","state_name":"Texas","lat":31.94968,"lng":-98.02773,"zip":"76457","miles_from_dt":28.25},{"city":"Blanket","state_name":"Texas","lat":31.83945,"lng":-98.78705,"zip":"76432","miles_from_dt":29.05},{"city":"Dublin","state_name":"Texas","lat":32.07572,"lng":-98.35311,"zip":"76446","miles_from_dt":29.67}],"targetCityZipCode":"76565","targetCityState":"Texas"},"__N_SSG":true}