{"pageProps":{"stateName":"Texas","cityName":"proctor","nearbyCities":[{"city":"Dublin","state_name":"Texas","lat":32.07572,"lng":-98.35311,"zip":"76446","miles_from_dt":7.69},{"city":"Gustine","state_name":"Texas","lat":31.82142,"lng":-98.36676,"zip":"76455","miles_from_dt":11.9},{"city":"De Leon","state_name":"Texas","lat":32.11781,"lng":-98.5672,"zip":"76444","miles_from_dt":12.15},{"city":"Comanche","state_name":"Texas","lat":31.89015,"lng":-98.61242,"zip":"76442","miles_from_dt":12.56},{"city":"Carlton","state_name":"Texas","lat":31.87404,"lng":-98.22271,"zip":"76436","miles_from_dt":14.41},{"city":"Energy","state_name":"Texas","lat":31.77119,"lng":-98.39198,"zip":"76452","miles_from_dt":14.94},{"city":"Lingleville","state_name":"Texas","lat":32.24457,"lng":-98.37528,"zip":"76461","miles_from_dt":18.14},{"city":"Stephenville","state_name":"Texas","lat":32.21728,"lng":-98.21702,"zip":"76402","miles_from_dt":20.29},{"city":"Sidney","state_name":"Texas","lat":31.97036,"lng":-98.79142,"zip":"76474","miles_from_dt":21.24},{"city":"Desdemona","state_name":"Texas","lat":32.30318,"lng":-98.53829,"zip":"76445","miles_from_dt":22.79},{"city":"Gorman","state_name":"Texas","lat":32.22983,"lng":-98.69621,"zip":"76454","miles_from_dt":22.95},{"city":"Blanket","state_name":"Texas","lat":31.83945,"lng":-98.78705,"zip":"76432","miles_from_dt":23.26},{"city":"Hico","state_name":"Texas","lat":31.94968,"lng":-98.02773,"zip":"76457","miles_from_dt":23.77},{"city":"Pottsville","state_name":"Texas","lat":31.64508,"lng":-98.3492,"zip":"76565","miles_from_dt":23.93},{"city":"Stephenville","state_name":"Texas","lat":32.27918,"lng":-98.19994,"zip":"76401","miles_from_dt":24.33},{"city":"Hamilton","state_name":"Texas","lat":31.68423,"lng":-98.19058,"zip":"76531","miles_from_dt":25.09},{"city":"Priddy","state_name":"Texas","lat":31.60386,"lng":-98.53151,"zip":"76870","miles_from_dt":26.96},{"city":"Zephyr","state_name":"Texas","lat":31.69229,"lng":-98.7649,"zip":"76890","miles_from_dt":28.2},{"city":"Carbon","state_name":"Texas","lat":32.21754,"lng":-98.85349,"zip":"76435","miles_from_dt":29.53},{"city":"May","state_name":"Texas","lat":31.93361,"lng":-98.93313,"zip":"76857","miles_from_dt":29.75}],"targetCityZipCode":"76468","targetCityState":"Texas"},"__N_SSG":true}