{"pageProps":{"stateName":"Texas","cityName":"reklaw","nearbyCities":[{"city":"Sacul","state_name":"Texas","lat":31.82252,"lng":-94.91617,"zip":"75788","miles_from_dt":4.44},{"city":"Cushing","state_name":"Texas","lat":31.80738,"lng":-94.85758,"zip":"75760","miles_from_dt":7.66},{"city":"Gallatin","state_name":"Texas","lat":31.89522,"lng":-95.14369,"zip":"75764","miles_from_dt":10.77},{"city":"Laneville","state_name":"Texas","lat":31.988,"lng":-94.83729,"zip":"75667","miles_from_dt":10.78},{"city":"New Summerfield","state_name":"Texas","lat":31.98905,"lng":-95.09122,"zip":"75780","miles_from_dt":10.99},{"city":"Rusk","state_name":"Texas","lat":31.76641,"lng":-95.17446,"zip":"75785","miles_from_dt":14.5},{"city":"Douglass","state_name":"Texas","lat":31.65451,"lng":-94.88935,"zip":"75943","miles_from_dt":15.68},{"city":"Price","state_name":"Texas","lat":32.10575,"lng":-94.96352,"zip":"75687","miles_from_dt":16.01},{"city":"Henderson","state_name":"Texas","lat":32.08299,"lng":-94.82961,"zip":"75654","miles_from_dt":16.41},{"city":"Mount Enterprise","state_name":"Texas","lat":31.93597,"lng":-94.685,"zip":"75681","miles_from_dt":16.86},{"city":"Minden","state_name":"Texas","lat":32.01035,"lng":-94.71824,"zip":"75680","miles_from_dt":17.17},{"city":"Jacksonville","state_name":"Texas","lat":31.94592,"lng":-95.25181,"zip":"75766","miles_from_dt":17.73},{"city":"Troup","state_name":"Texas","lat":32.1126,"lng":-95.09405,"zip":"75789","miles_from_dt":18.2},{"city":"Alto","state_name":"Texas","lat":31.61018,"lng":-95.05327,"zip":"75925","miles_from_dt":18.91},{"city":"Maydelle","state_name":"Texas","lat":31.8008,"lng":-95.30384,"zip":"75772","miles_from_dt":20.7},{"city":"Nacogdoches","state_name":"Texas","lat":31.63334,"lng":-94.75057,"zip":"75964","miles_from_dt":20.71},{"city":"Joinerville","state_name":"Texas","lat":32.17545,"lng":-94.90362,"zip":"75658","miles_from_dt":21.09},{"city":"Selman City","state_name":"Texas","lat":32.18196,"lng":-94.95771,"zip":"75689","miles_from_dt":21.26},{"city":"Henderson","state_name":"Texas","lat":32.16182,"lng":-94.80568,"zip":"75653","miles_from_dt":21.9},{"city":"Nacogdoches","state_name":"Texas","lat":31.7284,"lng":-94.62629,"zip":"75965","miles_from_dt":22.16},{"city":"Wells","state_name":"Texas","lat":31.51546,"lng":-94.93863,"zip":"75976","miles_from_dt":24.7},{"city":"Nacogdoches","state_name":"Texas","lat":31.6321,"lng":-94.63732,"zip":"75963","miles_from_dt":25.35},{"city":"Nacogdoches","state_name":"Texas","lat":31.61981,"lng":-94.6484,"zip":"75962","miles_from_dt":25.44},{"city":"New London","state_name":"Texas","lat":32.25152,"lng":-94.94713,"zip":"75682","miles_from_dt":26.07},{"city":"Garrison","state_name":"Texas","lat":31.81372,"lng":-94.52392,"zip":"75946","miles_from_dt":26.11},{"city":"Long Branch","state_name":"Texas","lat":32.03348,"lng":-94.55678,"zip":"75669","miles_from_dt":26.25},{"city":"Overton","state_name":"Texas","lat":32.27085,"lng":-94.93147,"zip":"75684","miles_from_dt":27.44},{"city":"Henderson","state_name":"Texas","lat":32.2301,"lng":-94.7281,"zip":"75652","miles_from_dt":28.16},{"city":"Bullard","state_name":"Texas","lat":32.11584,"lng":-95.34933,"zip":"75757","miles_from_dt":28.2},{"city":"Arp","state_name":"Texas","lat":32.27222,"lng":-95.07124,"zip":"75750","miles_from_dt":28.21},{"city":"Whitehouse","state_name":"Texas","lat":32.22214,"lng":-95.22103,"zip":"75791","miles_from_dt":28.42},{"city":"Cuney","state_name":"Texas","lat":32.03617,"lng":-95.41573,"zip":"75759","miles_from_dt":28.9},{"city":"Pollok","state_name":"Texas","lat":31.44765,"lng":-94.89758,"zip":"75969","miles_from_dt":29.58}],"targetCityZipCode":"75784","targetCityState":"Texas"},"__N_SSG":true}