{"pageProps":{"stateName":"Texas","cityName":"rye","nearbyCities":[{"city":"Votaw","state_name":"Texas","lat":30.44422,"lng":-94.6779,"zip":"77376","miles_from_dt":4.35},{"city":"Romayor","state_name":"Texas","lat":30.45114,"lng":-94.8407,"zip":"77368","miles_from_dt":5.39},{"city":"Ace","state_name":"Texas","lat":30.50445,"lng":-94.81661,"zip":"77326","miles_from_dt":5.77},{"city":"Thicket","state_name":"Texas","lat":30.38226,"lng":-94.63069,"zip":"77374","miles_from_dt":8.3},{"city":"Cleveland","state_name":"Texas","lat":30.3262,"lng":-94.91826,"zip":"77327","miles_from_dt":12.83},{"city":"Shepherd","state_name":"Texas","lat":30.49376,"lng":-94.98146,"zip":"77371","miles_from_dt":14.2},{"city":"Goodrich","state_name":"Texas","lat":30.58901,"lng":-94.92353,"zip":"77335","miles_from_dt":14.4},{"city":"Dallardsville","state_name":"Texas","lat":30.6262,"lng":-94.63094,"zip":"77332","miles_from_dt":14.51},{"city":"Hull","state_name":"Texas","lat":30.21811,"lng":-94.65989,"zip":"77564","miles_from_dt":16.41},{"city":"Saratoga","state_name":"Texas","lat":30.29949,"lng":-94.5294,"zip":"77585","miles_from_dt":16.51},{"city":"Livingston","state_name":"Texas","lat":30.70411,"lng":-94.81682,"zip":"77351","miles_from_dt":18.41},{"city":"Batson","state_name":"Texas","lat":30.21124,"lng":-94.58596,"zip":"77519","miles_from_dt":18.76},{"city":"Village Mills","state_name":"Texas","lat":30.51033,"lng":-94.4052,"zip":"77663","miles_from_dt":21.14},{"city":"Hardin","state_name":"Texas","lat":30.13459,"lng":-94.73551,"zip":"77561","miles_from_dt":21.26},{"city":"Livingston","state_name":"Texas","lat":30.71309,"lng":-94.93541,"zip":"77399","miles_from_dt":21.62},{"city":"Kountze","state_name":"Texas","lat":30.37032,"lng":-94.3923,"zip":"77625","miles_from_dt":21.98},{"city":"Warren","state_name":"Texas","lat":30.58901,"lng":-94.39529,"zip":"77664","miles_from_dt":23.47},{"city":"Liberty","state_name":"Texas","lat":30.07738,"lng":-94.73666,"zip":"77575","miles_from_dt":25.2},{"city":"Daisetta","state_name":"Texas","lat":30.09139,"lng":-94.59488,"zip":"77533","miles_from_dt":25.95},{"city":"Cleveland","state_name":"Texas","lat":30.40767,"lng":-95.18888,"zip":"77328","miles_from_dt":26.26},{"city":"Leggett","state_name":"Texas","lat":30.81432,"lng":-94.90086,"zip":"77350","miles_from_dt":27.1},{"city":"Sour Lake","state_name":"Texas","lat":30.15775,"lng":-94.43279,"zip":"77659","miles_from_dt":27.34},{"city":"Coldspring","state_name":"Texas","lat":30.61928,"lng":-95.17706,"zip":"77331","miles_from_dt":28.17},{"city":"Dayton","state_name":"Texas","lat":30.05129,"lng":-94.91569,"zip":"77535","miles_from_dt":28.72},{"city":"Splendora","state_name":"Texas","lat":30.24472,"lng":-95.18281,"zip":"77372","miles_from_dt":29.2}],"targetCityZipCode":"77369","targetCityState":"Texas"},"__N_SSG":true}