{"pageProps":{"stateName":"Texas","cityName":"scotland","nearbyCities":[{"city":"Wichita Falls","state_name":"Texas","lat":33.81115,"lng":-98.51178,"zip":"76310","miles_from_dt":9.92},{"city":"Windthorst","state_name":"Texas","lat":33.49713,"lng":-98.47568,"zip":"76389","miles_from_dt":11.95},{"city":"Wichita Falls","state_name":"Texas","lat":33.85684,"lng":-98.5378,"zip":"76308","miles_from_dt":13.34},{"city":"Wichita Falls","state_name":"Texas","lat":33.86607,"lng":-98.48487,"zip":"76302","miles_from_dt":13.49},{"city":"Bluegrove","state_name":"Texas","lat":33.67614,"lng":-98.22958,"zip":"76352","miles_from_dt":14.12},{"city":"Archer City","state_name":"Texas","lat":33.55553,"lng":-98.71145,"zip":"76351","miles_from_dt":15.8},{"city":"Wichita Falls","state_name":"Texas","lat":33.89551,"lng":-98.544,"zip":"76309","miles_from_dt":16.01},{"city":"Wichita Falls","state_name":"Texas","lat":33.90507,"lng":-98.48043,"zip":"76301","miles_from_dt":16.16},{"city":"Henrietta","state_name":"Texas","lat":33.754,"lng":-98.2076,"zip":"76365","miles_from_dt":16.41},{"city":"Wichita Falls","state_name":"Texas","lat":33.90869,"lng":-98.49267,"zip":"76307","miles_from_dt":16.44},{"city":"Holliday","state_name":"Texas","lat":33.71439,"lng":-98.77436,"zip":"76366","miles_from_dt":17.54},{"city":"Wichita Falls","state_name":"Texas","lat":33.95237,"lng":-98.52745,"zip":"76306","miles_from_dt":19.66},{"city":"Sheppard Afb","state_name":"Texas","lat":33.97324,"lng":-98.50823,"zip":"76311","miles_from_dt":20.95},{"city":"Wichita Falls","state_name":"Texas","lat":33.99979,"lng":-98.3909,"zip":"76305","miles_from_dt":23.19},{"city":"Kamay","state_name":"Texas","lat":33.86669,"lng":-98.80192,"zip":"76369","miles_from_dt":23.19},{"city":"Bellevue","state_name":"Texas","lat":33.61438,"lng":-98.06305,"zip":"76228","miles_from_dt":24.03},{"city":"Loving","state_name":"Texas","lat":33.30796,"lng":-98.49798,"zip":"76460","miles_from_dt":25.03},{"city":"Iowa Park","state_name":"Texas","lat":33.97361,"lng":-98.7168,"zip":"76367","miles_from_dt":25.11},{"city":"Petrolia","state_name":"Texas","lat":34.0101,"lng":-98.24191,"zip":"76377","miles_from_dt":26.95},{"city":"Jermyn","state_name":"Texas","lat":33.27395,"lng":-98.38972,"zip":"76459","miles_from_dt":27.77},{"city":"Olney","state_name":"Texas","lat":33.34823,"lng":-98.7648,"zip":"76374","miles_from_dt":27.83},{"city":"Megargel","state_name":"Texas","lat":33.45624,"lng":-98.89407,"zip":"76370","miles_from_dt":28.36}],"targetCityZipCode":"76379","targetCityState":"Texas"},"__N_SSG":true}