{"pageProps":{"stateName":"Texas","cityName":"sunnyvale","nearbyCities":[{"city":"Mesquite","state_name":"Texas","lat":32.77041,"lng":-96.61405,"zip":"75187","miles_from_dt":4.05},{"city":"Mesquite","state_name":"Texas","lat":32.76994,"lng":-96.6151,"zip":"75149","miles_from_dt":4.11},{"city":"Mesquite","state_name":"Texas","lat":32.77161,"lng":-96.61649,"zip":"75185","miles_from_dt":4.13},{"city":"Garland","state_name":"Texas","lat":32.8571,"lng":-96.57986,"zip":"75043","miles_from_dt":4.19},{"city":"Mesquite","state_name":"Texas","lat":32.81545,"lng":-96.6308,"zip":"75150","miles_from_dt":4.58},{"city":"Garland","state_name":"Texas","lat":32.85894,"lng":-96.60296,"zip":"75049","miles_from_dt":4.93},{"city":"Mesquite","state_name":"Texas","lat":32.72696,"lng":-96.555,"zip":"75181","miles_from_dt":5.06},{"city":"Rowlett","state_name":"Texas","lat":32.89368,"lng":-96.53929,"zip":"75088","miles_from_dt":6.49},{"city":"Balch Springs","state_name":"Texas","lat":32.71937,"lng":-96.61841,"zip":"75180","miles_from_dt":6.71},{"city":"Rowlett","state_name":"Texas","lat":32.89992,"lng":-96.56373,"zip":"75030","miles_from_dt":6.88},{"city":"Forney","state_name":"Texas","lat":32.74361,"lng":-96.45289,"zip":"75126","miles_from_dt":7.08},{"city":"Dallas","state_name":"Texas","lat":32.82493,"lng":-96.67888,"zip":"75357","miles_from_dt":7.45},{"city":"Garland","state_name":"Texas","lat":32.87625,"lng":-96.64711,"zip":"75047","miles_from_dt":7.52},{"city":"Dallas","state_name":"Texas","lat":32.82456,"lng":-96.6805,"zip":"75228","miles_from_dt":7.53},{"city":"Garland","state_name":"Texas","lat":32.88101,"lng":-96.65149,"zip":"75041","miles_from_dt":7.93},{"city":"Dallas","state_name":"Texas","lat":32.77046,"lng":-96.68748,"zip":"75389","miles_from_dt":8.02},{"city":"Dallas","state_name":"Texas","lat":32.77044,"lng":-96.68831,"zip":"75227","miles_from_dt":8.07},{"city":"Rockwall","state_name":"Texas","lat":32.85756,"lng":-96.42858,"zip":"75032","miles_from_dt":8.31},{"city":"Dallas","state_name":"Texas","lat":32.83089,"lng":-96.70619,"zip":"75394","miles_from_dt":9.09},{"city":"Rowlett","state_name":"Texas","lat":32.93195,"lng":-96.54435,"zip":"75089","miles_from_dt":9.09},{"city":"Dallas","state_name":"Texas","lat":32.84136,"lng":-96.70357,"zip":"75218","miles_from_dt":9.14},{"city":"Dallas","state_name":"Texas","lat":32.67278,"lng":-96.61171,"zip":"75253","miles_from_dt":9.4},{"city":"Dallas","state_name":"Texas","lat":32.67456,"lng":-96.61981,"zip":"75336","miles_from_dt":9.47},{"city":"Dallas","state_name":"Texas","lat":32.71291,"lng":-96.68243,"zip":"75217","miles_from_dt":9.59},{"city":"Garland","state_name":"Texas","lat":32.92797,"lng":-96.62006,"zip":"75040","miles_from_dt":9.59},{"city":"Garland","state_name":"Texas","lat":32.9187,"lng":-96.64435,"zip":"75046","miles_from_dt":9.7},{"city":"Dallas","state_name":"Texas","lat":32.88011,"lng":-96.70511,"zip":"75355","miles_from_dt":10.36},{"city":"Dallas","state_name":"Texas","lat":32.87855,"lng":-96.70785,"zip":"75238","miles_from_dt":10.44},{"city":"Garland","state_name":"Texas","lat":32.91401,"lng":-96.67466,"zip":"75042","miles_from_dt":10.51},{"city":"Dallas","state_name":"Texas","lat":32.79255,"lng":-96.74556,"zip":"75223","miles_from_dt":11.15},{"city":"Dallas","state_name":"Texas","lat":32.82899,"lng":-96.74348,"zip":"75214","miles_from_dt":11.19},{"city":"Dallas","state_name":"Texas","lat":32.77141,"lng":-96.74618,"zip":"75210","miles_from_dt":11.35},{"city":"Dallas","state_name":"Texas","lat":32.81282,"lng":-96.75656,"zip":"75359","miles_from_dt":11.8},{"city":"Sachse","state_name":"Texas","lat":32.9704,"lng":-96.58139,"zip":"75048","miles_from_dt":11.83},{"city":"Dallas","state_name":"Texas","lat":32.7384,"lng":-96.74637,"zip":"75277","miles_from_dt":11.97},{"city":"Rockwall","state_name":"Texas","lat":32.94581,"lng":-96.44136,"zip":"75087","miles_from_dt":11.98},{"city":"Dallas","state_name":"Texas","lat":32.75259,"lng":-96.76075,"zip":"75215","miles_from_dt":12.46},{"city":"Garland","state_name":"Texas","lat":32.94585,"lng":-96.68293,"zip":"75045","miles_from_dt":12.51},{"city":"Dallas","state_name":"Texas","lat":32.87695,"lng":-96.74967,"zip":"75231","miles_from_dt":12.53},{"city":"Dallas","state_name":"Texas","lat":32.87873,"lng":-96.74985,"zip":"75382","miles_from_dt":12.6},{"city":"Garland","state_name":"Texas","lat":32.96299,"lng":-96.6531,"zip":"75044","miles_from_dt":12.6},{"city":"Dallas","state_name":"Texas","lat":32.7705,"lng":-96.76912,"zip":"75315","miles_from_dt":12.68},{"city":"Dallas","state_name":"Texas","lat":32.79162,"lng":-96.77262,"zip":"75371","miles_from_dt":12.72},{"city":"Dallas","state_name":"Texas","lat":32.79296,"lng":-96.77322,"zip":"75246","miles_from_dt":12.75},{"city":"Dallas","state_name":"Texas","lat":32.83161,"lng":-96.77032,"zip":"75206","miles_from_dt":12.76},{"city":"Dallas","state_name":"Texas","lat":32.78037,"lng":-96.77601,"zip":"75303","miles_from_dt":12.98},{"city":"Dallas","state_name":"Texas","lat":32.78315,"lng":-96.77654,"zip":"75226","miles_from_dt":12.99},{"city":"Dallas","state_name":"Texas","lat":32.91295,"lng":-96.73463,"zip":"75374","miles_from_dt":13.05},{"city":"Dallas","state_name":"Texas","lat":32.83953,"lng":-96.77384,"zip":"75372","miles_from_dt":13.06},{"city":"Dallas","state_name":"Texas","lat":32.91232,"lng":-96.73633,"zip":"75243","miles_from_dt":13.1},{"city":"Seagoville","state_name":"Texas","lat":32.60652,"lng":-96.53939,"zip":"75159","miles_from_dt":13.38},{"city":"Dallas","state_name":"Texas","lat":32.80216,"lng":-96.78885,"zip":"75204","miles_from_dt":13.65},{"city":"Richardson","state_name":"Texas","lat":32.95291,"lng":-96.70384,"zip":"75085","miles_from_dt":13.65},{"city":"Richardson","state_name":"Texas","lat":32.94969,"lng":-96.70899,"zip":"75081","miles_from_dt":13.67},{"city":"Hutchins","state_name":"Texas","lat":32.63984,"lng":-96.69257,"zip":"75141","miles_from_dt":13.68},{"city":"Dallas","state_name":"Texas","lat":32.84362,"lng":-96.78395,"zip":"75275","miles_from_dt":13.69},{"city":"Dallas","state_name":"Texas","lat":32.80137,"lng":-96.79049,"zip":"75393","miles_from_dt":13.75},{"city":"Fate","state_name":"Texas","lat":32.93865,"lng":-96.38046,"zip":"75132","miles_from_dt":13.89},{"city":"Dallas","state_name":"Texas","lat":32.83657,"lng":-96.79617,"zip":"75205","miles_from_dt":14.3},{"city":"Dallas","state_name":"Texas","lat":32.78826,"lng":-96.79953,"zip":"75201","miles_from_dt":14.3},{"city":"Dallas","state_name":"Texas","lat":32.77784,"lng":-96.79863,"zip":"75320","miles_from_dt":14.31},{"city":"Dallas","state_name":"Texas","lat":32.7856,"lng":-96.79985,"zip":"75313","miles_from_dt":14.33},{"city":"Dallas","state_name":"Texas","lat":32.78296,"lng":-96.80016,"zip":"75250","miles_from_dt":14.36},{"city":"Dallas","state_name":"Texas","lat":32.78126,"lng":-96.80192,"zip":"75270","miles_from_dt":14.48},{"city":"Dallas","state_name":"Texas","lat":32.86511,"lng":-96.79109,"zip":"75225","miles_from_dt":14.48},{"city":"Dallas","state_name":"Texas","lat":32.71643,"lng":-96.78307,"zip":"75339","miles_from_dt":14.52},{"city":"Dallas","state_name":"Texas","lat":32.77843,"lng":-96.8037,"zip":"75202","miles_from_dt":14.6},{"city":"Dallas","state_name":"Texas","lat":32.77596,"lng":-96.80374,"zip":"75242","miles_from_dt":14.62},{"city":"Dallas","state_name":"Texas","lat":32.71158,"lng":-96.78256,"zip":"75216","miles_from_dt":14.63},{"city":"Richardson","state_name":"Texas","lat":32.99208,"lng":-96.66536,"zip":"75082","miles_from_dt":14.71},{"city":"Crandall","state_name":"Texas","lat":32.60769,"lng":-96.44322,"zip":"75114","miles_from_dt":14.77},{"city":"Wylie","state_name":"Texas","lat":33.01432,"lng":-96.53531,"zip":"75098","miles_from_dt":14.79},{"city":"Dallas","state_name":"Texas","lat":32.74439,"lng":-96.80206,"zip":"75203","miles_from_dt":14.93},{"city":"Dallas","state_name":"Texas","lat":32.667,"lng":-96.75903,"zip":"75241","miles_from_dt":15.06},{"city":"Dallas","state_name":"Texas","lat":32.81087,"lng":-96.81315,"zip":"75219","miles_from_dt":15.08},{"city":"Terrell","state_name":"Texas","lat":32.76466,"lng":-96.29835,"zip":"75160","miles_from_dt":15.1},{"city":"Dallas","state_name":"Texas","lat":32.91984,"lng":-96.77308,"zip":"75251","miles_from_dt":15.16},{"city":"Wilmer","state_name":"Texas","lat":32.60369,"lng":-96.67458,"zip":"75172","miles_from_dt":15.26},{"city":"Plano","state_name":"Texas","lat":33.01871,"lng":-96.61481,"zip":"75094","miles_from_dt":15.46},{"city":"Dallas","state_name":"Texas","lat":32.90202,"lng":-96.79226,"zip":"75230","miles_from_dt":15.52},{"city":"Dallas","state_name":"Texas","lat":32.90216,"lng":-96.79276,"zip":"75367","miles_from_dt":15.55},{"city":"Dallas","state_name":"Texas","lat":32.78693,"lng":-96.82181,"zip":"75207","miles_from_dt":15.6},{"city":"Dallas","state_name":"Texas","lat":32.76886,"lng":-96.82491,"zip":"75392","miles_from_dt":15.9},{"city":"Dallas","state_name":"Texas","lat":32.7724,"lng":-96.82576,"zip":"75260","miles_from_dt":15.92},{"city":"Dallas","state_name":"Texas","lat":32.7693,"lng":-96.82701,"zip":"75312","miles_from_dt":16.02},{"city":"Dallas","state_name":"Texas","lat":32.76866,"lng":-96.82709,"zip":"75284","miles_from_dt":16.03},{"city":"Dallas","state_name":"Texas","lat":32.78384,"lng":-96.82912,"zip":"75373","miles_from_dt":16.04},{"city":"Dallas","state_name":"Texas","lat":32.76794,"lng":-96.82793,"zip":"75285","miles_from_dt":16.09},{"city":"Lavon","state_name":"Texas","lat":33.01671,"lng":-96.4495,"zip":"75166","miles_from_dt":16.11},{"city":"Dallas","state_name":"Texas","lat":32.8487,"lng":-96.8257,"zip":"75209","miles_from_dt":16.14},{"city":"Dallas","state_name":"Texas","lat":32.76725,"lng":-96.82909,"zip":"75397","miles_from_dt":16.16},{"city":"Richardson","state_name":"Texas","lat":32.97382,"lng":-96.7416,"zip":"75080","miles_from_dt":16.17},{"city":"Dallas","state_name":"Texas","lat":32.76823,"lng":-96.83032,"zip":"75283","miles_from_dt":16.22},{"city":"Richardson","state_name":"Texas","lat":32.97328,"lng":-96.74527,"zip":"75083","miles_from_dt":16.29},{"city":"Dallas","state_name":"Texas","lat":32.93194,"lng":-96.78924,"zip":"75240","miles_from_dt":16.4},{"city":"Dallas","state_name":"Texas","lat":32.814,"lng":-96.84283,"zip":"75390","miles_from_dt":16.82},{"city":"Dallas","state_name":"Texas","lat":32.93979,"lng":-96.79282,"zip":"75360","miles_from_dt":16.88},{"city":"Dallas","state_name":"Texas","lat":32.75409,"lng":-96.83943,"zip":"75208","miles_from_dt":16.9},{"city":"Dallas","state_name":"Texas","lat":32.75461,"lng":-96.84088,"zip":"75222","miles_from_dt":16.98},{"city":"Dallas","state_name":"Texas","lat":32.74972,"lng":-96.84125,"zip":"75262","miles_from_dt":17.07},{"city":"Dallas","state_name":"Texas","lat":32.75473,"lng":-96.84239,"zip":"75264","miles_from_dt":17.07},{"city":"Dallas","state_name":"Texas","lat":32.75272,"lng":-96.8424,"zip":"75263","miles_from_dt":17.09},{"city":"Dallas","state_name":"Texas","lat":32.75369,"lng":-96.84295,"zip":"75267","miles_from_dt":17.11},{"city":"Dallas","state_name":"Texas","lat":32.83219,"lng":-96.84798,"zip":"75235","miles_from_dt":17.23},{"city":"Dallas","state_name":"Texas","lat":32.69181,"lng":-96.82438,"zip":"75221","miles_from_dt":17.42},{"city":"Plano","state_name":"Texas","lat":33.03298,"lng":-96.67304,"zip":"75074","miles_from_dt":17.46},{"city":"Dallas","state_name":"Texas","lat":32.94571,"lng":-96.80127,"zip":"75254","miles_from_dt":17.51},{"city":"Royse City","state_name":"Texas","lat":32.94821,"lng":-96.30941,"zip":"75189","miles_from_dt":17.51},{"city":"Plano","state_name":"Texas","lat":33.02597,"lng":-96.69903,"zip":"75086","miles_from_dt":17.68},{"city":"Dallas","state_name":"Texas","lat":32.71157,"lng":-96.83922,"zip":"75376","miles_from_dt":17.68},{"city":"Dallas","state_name":"Texas","lat":32.71117,"lng":-96.83953,"zip":"75224","miles_from_dt":17.71},{"city":"Dallas","state_name":"Texas","lat":32.93169,"lng":-96.81595,"zip":"75380","miles_from_dt":17.71},{"city":"Dallas","state_name":"Texas","lat":32.70894,"lng":-96.83894,"zip":"75395","miles_from_dt":17.73},{"city":"Dallas","state_name":"Texas","lat":32.76579,"lng":-96.85689,"zip":"75398","miles_from_dt":17.78},{"city":"Dallas","state_name":"Texas","lat":32.826,"lng":-96.86,"zip":"75358","miles_from_dt":17.88},{"city":"Lancaster","state_name":"Texas","lat":32.62308,"lng":-96.78007,"zip":"75134","miles_from_dt":17.95},{"city":"Dallas","state_name":"Texas","lat":32.77,"lng":-96.86352,"zip":"75342","miles_from_dt":18.12},{"city":"Dallas","state_name":"Texas","lat":32.96957,"lng":-96.79542,"zip":"75248","miles_from_dt":18.24},{"city":"Dallas","state_name":"Texas","lat":32.92544,"lng":-96.83671,"zip":"75244","miles_from_dt":18.55},{"city":"Plano","state_name":"Texas","lat":33.02163,"lng":-96.74043,"zip":"75075","miles_from_dt":18.7},{"city":"Dallas","state_name":"Texas","lat":32.81515,"lng":-96.877,"zip":"75356","miles_from_dt":18.81},{"city":"Dallas","state_name":"Texas","lat":32.94923,"lng":-96.82552,"zip":"75391","miles_from_dt":18.82},{"city":"Dallas","state_name":"Texas","lat":32.81417,"lng":-96.87803,"zip":"75247","miles_from_dt":18.87},{"city":"Dallas","state_name":"Texas","lat":32.78203,"lng":-96.87853,"zip":"75212","miles_from_dt":18.92},{"city":"Ferris","state_name":"Texas","lat":32.52983,"lng":-96.61563,"zip":"75125","miles_from_dt":18.98},{"city":"Dallas","state_name":"Texas","lat":32.78098,"lng":-96.88177,"zip":"75266","miles_from_dt":19.11},{"city":"Dallas","state_name":"Texas","lat":32.8939,"lng":-96.86517,"zip":"75229","miles_from_dt":19.2},{"city":"Lancaster","state_name":"Texas","lat":32.57608,"lng":-96.75137,"zip":"75146","miles_from_dt":19.25},{"city":"Dallas","state_name":"Texas","lat":32.86692,"lng":-96.87571,"zip":"75220","miles_from_dt":19.26},{"city":"Dallas","state_name":"Texas","lat":32.99696,"lng":-96.78983,"zip":"75252","miles_from_dt":19.27},{"city":"Dallas","state_name":"Texas","lat":32.65878,"lng":-96.83968,"zip":"75232","miles_from_dt":19.28},{"city":"Plano","state_name":"Texas","lat":33.03933,"lng":-96.73328,"zip":"75026","miles_from_dt":19.48},{"city":"Dallas","state_name":"Texas","lat":32.99132,"lng":-96.80301,"zip":"75379","miles_from_dt":19.55},{"city":"Dallas","state_name":"Texas","lat":32.89209,"lng":-96.87325,"zip":"75378","miles_from_dt":19.6},{"city":"Dallas","state_name":"Texas","lat":32.70444,"lng":-96.87271,"zip":"75233","miles_from_dt":19.69},{"city":"Dallas","state_name":"Texas","lat":32.86385,"lng":-96.8861,"zip":"75354","miles_from_dt":19.8},{"city":"Addison","state_name":"Texas","lat":32.96015,"lng":-96.83808,"zip":"75001","miles_from_dt":19.84},{"city":"Allen","state_name":"Texas","lat":33.08946,"lng":-96.60639,"zip":"75002","miles_from_dt":20.15},{"city":"Nevada","state_name":"Texas","lat":33.05986,"lng":-96.38673,"zip":"75173","miles_from_dt":20.36},{"city":"Plano","state_name":"Texas","lat":33.05657,"lng":-96.73286,"zip":"75023","miles_from_dt":20.48},{"city":"Dallas","state_name":"Texas","lat":32.73649,"lng":-96.90214,"zip":"75211","miles_from_dt":20.73},{"city":"Dallas","state_name":"Texas","lat":32.66489,"lng":-96.87238,"zip":"75237","miles_from_dt":20.75},{"city":"Dallas","state_name":"Texas","lat":32.92423,"lng":-96.88904,"zip":"75234","miles_from_dt":21.26},{"city":"Elmo","state_name":"Texas","lat":32.68509,"lng":-96.21459,"zip":"75118","miles_from_dt":21.32},{"city":"Dallas","state_name":"Texas","lat":32.66151,"lng":-96.88539,"zip":"75301","miles_from_dt":21.53},{"city":"Dallas","state_name":"Texas","lat":33.00015,"lng":-96.84075,"zip":"75287","miles_from_dt":21.61},{"city":"Dallas","state_name":"Texas","lat":32.99979,"lng":-96.8417,"zip":"75370","miles_from_dt":21.64},{"city":"Dallas","state_name":"Texas","lat":32.94476,"lng":-96.88846,"zip":"75381","miles_from_dt":21.84},{"city":"Plano","state_name":"Texas","lat":33.03521,"lng":-96.80943,"zip":"75093","miles_from_dt":21.95},{"city":"Carrollton","state_name":"Texas","lat":32.95442,"lng":-96.88958,"zip":"75011","miles_from_dt":22.2},{"city":"Terrell","state_name":"Texas","lat":32.73609,"lng":-96.17129,"zip":"75161","miles_from_dt":22.73},{"city":"Plano","state_name":"Texas","lat":33.09057,"lng":-96.74061,"zip":"75025","miles_from_dt":22.74},{"city":"Desoto","state_name":"Texas","lat":32.59831,"lng":-96.86433,"zip":"75115","miles_from_dt":22.81},{"city":"Duncanville","state_name":"Texas","lat":32.67415,"lng":-96.91672,"zip":"75138","miles_from_dt":22.83},{"city":"Carrollton","state_name":"Texas","lat":32.96165,"lng":-96.89717,"zip":"75006","miles_from_dt":22.83},{"city":"Irving","state_name":"Texas","lat":32.81197,"lng":-96.94711,"zip":"75017","miles_from_dt":22.88},{"city":"Desoto","state_name":"Texas","lat":32.58835,"lng":-96.86032,"zip":"75123","miles_from_dt":23.05},{"city":"Duncanville","state_name":"Texas","lat":32.66013,"lng":-96.91402,"zip":"75116","miles_from_dt":23.07},{"city":"Allen","state_name":"Texas","lat":33.11463,"lng":-96.69413,"zip":"75013","miles_from_dt":23.13},{"city":"Irving","state_name":"Texas","lat":32.79774,"lng":-96.95295,"zip":"75060","miles_from_dt":23.21},{"city":"Irving","state_name":"Texas","lat":32.88592,"lng":-96.94042,"zip":"75039","miles_from_dt":23.23},{"city":"Irving","state_name":"Texas","lat":32.814,"lng":-96.955,"zip":"75059","miles_from_dt":23.34},{"city":"Dallas","state_name":"Texas","lat":32.6866,"lng":-96.93455,"zip":"75236","miles_from_dt":23.49},{"city":"Josephine","state_name":"Texas","lat":33.06963,"lng":-96.3041,"zip":"75164","miles_from_dt":23.57},{"city":"Irving","state_name":"Texas","lat":32.847,"lng":-96.95813,"zip":"75062","miles_from_dt":23.72},{"city":"Duncanville","state_name":"Texas","lat":32.63421,"lng":-96.91224,"zip":"75137","miles_from_dt":23.79},{"city":"Kaufman","state_name":"Texas","lat":32.57004,"lng":-96.24637,"zip":"75142","miles_from_dt":23.95},{"city":"Irving","state_name":"Texas","lat":32.82607,"lng":-96.96563,"zip":"75061","miles_from_dt":24},{"city":"Plano","state_name":"Texas","lat":33.07712,"lng":-96.80826,"zip":"75024","miles_from_dt":24.12},{"city":"Rosser","state_name":"Texas","lat":32.46168,"lng":-96.44914,"zip":"75157","miles_from_dt":24.13},{"city":"Red Oak","state_name":"Texas","lat":32.52319,"lng":-96.80885,"zip":"75154","miles_from_dt":24.19},{"city":"Carrollton","state_name":"Texas","lat":33.00498,"lng":-96.8959,"zip":"75007","miles_from_dt":24.36},{"city":"Irving","state_name":"Texas","lat":32.84208,"lng":-96.97023,"zip":"75014","miles_from_dt":24.37},{"city":"Princeton","state_name":"Texas","lat":33.1512,"lng":-96.48808,"zip":"75407","miles_from_dt":24.48},{"city":"Scurry","state_name":"Texas","lat":32.46694,"lng":-96.39315,"zip":"75158","miles_from_dt":24.82},{"city":"Irving","state_name":"Texas","lat":32.87231,"lng":-96.97946,"zip":"75038","miles_from_dt":25.23},{"city":"Irving","state_name":"Texas","lat":32.89557,"lng":-96.97372,"zip":"75015","miles_from_dt":25.27},{"city":"Dallas","state_name":"Texas","lat":32.86763,"lng":-96.9824,"zip":"75326","miles_from_dt":25.34},{"city":"Mckinney","state_name":"Texas","lat":33.16805,"lng":-96.59671,"zip":"75069","miles_from_dt":25.46},{"city":"Irving","state_name":"Texas","lat":32.9019,"lng":-96.97814,"zip":"75016","miles_from_dt":25.63},{"city":"Carrollton","state_name":"Texas","lat":33.03058,"lng":-96.90148,"zip":"75010","miles_from_dt":25.67},{"city":"Dallas","state_name":"Texas","lat":32.92079,"lng":-96.97494,"zip":"75368","miles_from_dt":25.84},{"city":"Mckinney","state_name":"Texas","lat":33.15587,"lng":-96.69742,"zip":"75070","miles_from_dt":25.87},{"city":"Palmer","state_name":"Texas","lat":32.43598,"lng":-96.67444,"zip":"75152","miles_from_dt":26.07},{"city":"Grand Prairie","state_name":"Texas","lat":32.72635,"lng":-96.99375,"zip":"75051","miles_from_dt":26.09},{"city":"Dallas","state_name":"Texas","lat":32.6449,"lng":-96.96257,"zip":"75249","miles_from_dt":26.09},{"city":"Grand Prairie","state_name":"Texas","lat":32.77428,"lng":-97.0037,"zip":"75050","miles_from_dt":26.22},{"city":"Dallas","state_name":"Texas","lat":32.74323,"lng":-97.00109,"zip":"75265","miles_from_dt":26.31},{"city":"Caddo Mills","state_name":"Texas","lat":33.06666,"lng":-96.22567,"zip":"75135","miles_from_dt":26.48},{"city":"Irving","state_name":"Texas","lat":32.90797,"lng":-96.9961,"zip":"75063","miles_from_dt":26.75},{"city":"Quinlan","state_name":"Texas","lat":32.91709,"lng":-96.10611,"zip":"75474","miles_from_dt":27.28},{"city":"Coppell","state_name":"Texas","lat":32.96183,"lng":-96.984,"zip":"75019","miles_from_dt":27.35},{"city":"Frisco","state_name":"Texas","lat":33.12084,"lng":-96.83778,"zip":"75034","miles_from_dt":27.55},{"city":"Grand Prairie","state_name":"Texas","lat":32.75269,"lng":-97.02499,"zip":"75053","miles_from_dt":27.6},{"city":"Cedar Hill","state_name":"Texas","lat":32.58772,"lng":-96.95615,"zip":"75106","miles_from_dt":27.62},{"city":"Copeville","state_name":"Texas","lat":33.17163,"lng":-96.37204,"zip":"75121","miles_from_dt":27.69},{"city":"Frisco","state_name":"Texas","lat":33.15814,"lng":-96.7734,"zip":"75035","miles_from_dt":27.75},{"city":"Mckinney","state_name":"Texas","lat":33.1875,"lng":-96.70099,"zip":"75072","miles_from_dt":28.01},{"city":"The Colony","state_name":"Texas","lat":33.07541,"lng":-96.90978,"zip":"75056","miles_from_dt":28.04},{"city":"Cedar Hill","state_name":"Texas","lat":32.58295,"lng":-96.96712,"zip":"75104","miles_from_dt":28.34},{"city":"Farmersville","state_name":"Texas","lat":33.17717,"lng":-96.35035,"zip":"75442","miles_from_dt":28.54},{"city":"Coppell","state_name":"Texas","lat":32.95443,"lng":-97.01521,"zip":"75099","miles_from_dt":28.83},{"city":"Fort Worth","state_name":"Texas","lat":32.82404,"lng":-97.04911,"zip":"76155","miles_from_dt":28.84},{"city":"Grand Prairie","state_name":"Texas","lat":32.66455,"lng":-97.02809,"zip":"75052","miles_from_dt":29.14},{"city":"Dallas","state_name":"Texas","lat":32.88568,"lng":-97.05419,"zip":"75261","miles_from_dt":29.67},{"city":"Lewisville","state_name":"Texas","lat":33.01416,"lng":-97.00268,"zip":"75067","miles_from_dt":29.94}],"targetCityZipCode":"75182","targetCityState":"Texas"},"__N_SSG":true}