{"pageProps":{"stateName":"Texas","cityName":"tatum","nearbyCities":[{"city":"Easton","state_name":"Texas","lat":32.3846,"lng":-94.5757,"zip":"75641","miles_from_dt":5.18},{"city":"Beckville","state_name":"Texas","lat":32.25343,"lng":-94.44957,"zip":"75631","miles_from_dt":7.45},{"city":"Longview","state_name":"Texas","lat":32.40448,"lng":-94.71754,"zip":"75603","miles_from_dt":11.37},{"city":"Henderson","state_name":"Texas","lat":32.2301,"lng":-94.7281,"zip":"75652","miles_from_dt":11.45},{"city":"Longview","state_name":"Texas","lat":32.45803,"lng":-94.65712,"zip":"75602","miles_from_dt":11.69},{"city":"Hallsville","state_name":"Texas","lat":32.51529,"lng":-94.55358,"zip":"75650","miles_from_dt":14.07},{"city":"Longview","state_name":"Texas","lat":32.46434,"lng":-94.72847,"zip":"75615","miles_from_dt":14.55},{"city":"Clayton","state_name":"Texas","lat":32.10086,"lng":-94.47273,"zip":"75637","miles_from_dt":15.31},{"city":"Longview","state_name":"Texas","lat":32.49574,"lng":-94.73846,"zip":"75606","miles_from_dt":16.56},{"city":"Longview","state_name":"Texas","lat":32.5086,"lng":-94.72414,"zip":"75601","miles_from_dt":16.75},{"city":"Henderson","state_name":"Texas","lat":32.16182,"lng":-94.80568,"zip":"75653","miles_from_dt":17.82},{"city":"Kilgore","state_name":"Texas","lat":32.37523,"lng":-94.86534,"zip":"75663","miles_from_dt":18.56},{"city":"Marshall","state_name":"Texas","lat":32.48907,"lng":-94.31494,"zip":"75671","miles_from_dt":18.74},{"city":"Marshall","state_name":"Texas","lat":32.47076,"lng":-94.29353,"zip":"75672","miles_from_dt":18.94},{"city":"Long Branch","state_name":"Texas","lat":32.03348,"lng":-94.55678,"zip":"75669","miles_from_dt":19.13},{"city":"Marshall","state_name":"Texas","lat":32.56456,"lng":-94.42326,"zip":"75670","miles_from_dt":19.14},{"city":"Kilgore","state_name":"Texas","lat":32.38076,"lng":-94.87503,"zip":"75662","miles_from_dt":19.2},{"city":"Laird Hill","state_name":"Texas","lat":32.35487,"lng":-94.90302,"zip":"75666","miles_from_dt":20.45},{"city":"Carthage","state_name":"Texas","lat":32.12788,"lng":-94.28109,"zip":"75633","miles_from_dt":20.52},{"city":"Longview","state_name":"Texas","lat":32.58385,"lng":-94.71554,"zip":"75605","miles_from_dt":20.95},{"city":"Longview","state_name":"Texas","lat":32.51374,"lng":-94.82919,"zip":"75604","miles_from_dt":21.16},{"city":"Overton","state_name":"Texas","lat":32.27085,"lng":-94.93147,"zip":"75684","miles_from_dt":22.08},{"city":"Longview","state_name":"Texas","lat":32.55609,"lng":-94.80149,"zip":"75608","miles_from_dt":22.11},{"city":"Judson","state_name":"Texas","lat":32.58563,"lng":-94.75618,"zip":"75660","miles_from_dt":22.2},{"city":"Joinerville","state_name":"Texas","lat":32.17545,"lng":-94.90362,"zip":"75658","miles_from_dt":22.33},{"city":"Henderson","state_name":"Texas","lat":32.08299,"lng":-94.82961,"zip":"75654","miles_from_dt":22.4},{"city":"Elysian Fields","state_name":"Texas","lat":32.35818,"lng":-94.17821,"zip":"75642","miles_from_dt":22.41},{"city":"Longview","state_name":"Texas","lat":32.57841,"lng":-94.77928,"zip":"75607","miles_from_dt":22.53},{"city":"Minden","state_name":"Texas","lat":32.01035,"lng":-94.71824,"zip":"75680","miles_from_dt":22.77},{"city":"De Berry","state_name":"Texas","lat":32.28441,"lng":-94.16897,"zip":"75639","miles_from_dt":22.8},{"city":"New London","state_name":"Texas","lat":32.25152,"lng":-94.94713,"zip":"75682","miles_from_dt":23.19},{"city":"White Oak","state_name":"Texas","lat":32.53364,"lng":-94.86083,"zip":"75693","miles_from_dt":23.45},{"city":"Gary","state_name":"Texas","lat":32.01041,"lng":-94.35518,"zip":"75643","miles_from_dt":23.86},{"city":"Scottsville","state_name":"Texas","lat":32.53417,"lng":-94.24071,"zip":"75688","miles_from_dt":24.05},{"city":"Harleton","state_name":"Texas","lat":32.67061,"lng":-94.53064,"zip":"75651","miles_from_dt":24.82},{"city":"Selman City","state_name":"Texas","lat":32.18196,"lng":-94.95771,"zip":"75689","miles_from_dt":25.08},{"city":"Woodlawn","state_name":"Texas","lat":32.6383,"lng":-94.34442,"zip":"75694","miles_from_dt":25.75},{"city":"Panola","state_name":"Texas","lat":32.36033,"lng":-94.11072,"zip":"75685","miles_from_dt":26.34},{"city":"Mount Enterprise","state_name":"Texas","lat":31.93597,"lng":-94.685,"zip":"75681","miles_from_dt":26.91},{"city":"Laneville","state_name":"Texas","lat":31.988,"lng":-94.83729,"zip":"75667","miles_from_dt":27.66},{"city":"Price","state_name":"Texas","lat":32.10575,"lng":-94.96352,"zip":"75687","miles_from_dt":27.69},{"city":"Gladewater","state_name":"Texas","lat":32.5167,"lng":-94.96429,"zip":"75647","miles_from_dt":27.69},{"city":"Waskom","state_name":"Texas","lat":32.4718,"lng":-94.11936,"zip":"75692","miles_from_dt":27.89},{"city":"Diana","state_name":"Texas","lat":32.7152,"lng":-94.68133,"zip":"75640","miles_from_dt":28.77},{"city":"Timpson","state_name":"Texas","lat":31.89535,"lng":-94.4122,"zip":"75975","miles_from_dt":29.88}],"targetCityZipCode":"75691","targetCityState":"Texas"},"__N_SSG":true}