{"pageProps":{"stateName":"Texas","cityName":"thornton","nearbyCities":[{"city":"Kosse","state_name":"Texas","lat":31.29963,"lng":-96.60536,"zip":"76653","miles_from_dt":8.49},{"city":"Groesbeck","state_name":"Texas","lat":31.50442,"lng":-96.53271,"zip":"76642","miles_from_dt":9.7},{"city":"Donie","state_name":"Texas","lat":31.47956,"lng":-96.22844,"zip":"75838","miles_from_dt":17.06},{"city":"Bremond","state_name":"Texas","lat":31.15114,"lng":-96.65499,"zip":"76629","miles_from_dt":18.01},{"city":"Jewett","state_name":"Texas","lat":31.34683,"lng":-96.18118,"zip":"75846","miles_from_dt":18.14},{"city":"Marquez","state_name":"Texas","lat":31.22275,"lng":-96.22553,"zip":"77865","miles_from_dt":18.46},{"city":"Mexia","state_name":"Texas","lat":31.65668,"lng":-96.46511,"zip":"76667","miles_from_dt":19.85},{"city":"Franklin","state_name":"Texas","lat":31.07714,"lng":-96.41499,"zip":"77856","miles_from_dt":20.56},{"city":"Marlin","state_name":"Texas","lat":31.30785,"lng":-96.84584,"zip":"76661","miles_from_dt":21.64},{"city":"New Baden","state_name":"Texas","lat":31.04901,"lng":-96.42561,"zip":"77870","miles_from_dt":22.35},{"city":"Reagan","state_name":"Texas","lat":31.18798,"lng":-96.80383,"zip":"76680","miles_from_dt":22.53},{"city":"Mart","state_name":"Texas","lat":31.56202,"lng":-96.79552,"zip":"76664","miles_from_dt":22.55},{"city":"Teague","state_name":"Texas","lat":31.62342,"lng":-96.24615,"zip":"75860","miles_from_dt":22.56},{"city":"Concord","state_name":"Texas","lat":31.25732,"lng":-96.11709,"zip":"77850","miles_from_dt":23.19},{"city":"Prairie Hill","state_name":"Texas","lat":31.65009,"lng":-96.75087,"zip":"76678","miles_from_dt":24.85},{"city":"Riesel","state_name":"Texas","lat":31.45235,"lng":-96.90825,"zip":"76682","miles_from_dt":25.55},{"city":"Tehuacana","state_name":"Texas","lat":31.74178,"lng":-96.54464,"zip":"76686","miles_from_dt":25.9},{"city":"Flynn","state_name":"Texas","lat":31.14741,"lng":-96.11217,"zip":"77855","miles_from_dt":26.93},{"city":"Coolidge","state_name":"Texas","lat":31.72956,"lng":-96.66483,"zip":"76635","miles_from_dt":26.96},{"city":"Calvert","state_name":"Texas","lat":31.00704,"lng":-96.67718,"zip":"77837","miles_from_dt":27.37},{"city":"Buffalo","state_name":"Texas","lat":31.45745,"lng":-96.02275,"zip":"75831","miles_from_dt":28.09},{"city":"Kirvin","state_name":"Texas","lat":31.77281,"lng":-96.33408,"zip":"75848","miles_from_dt":29.24}],"targetCityZipCode":"76687","targetCityState":"Texas"},"__N_SSG":true}