{"pageProps":{"stateName":"Texas","cityName":"tuleta","nearbyCities":[{"city":"Normanna","state_name":"Texas","lat":28.53632,"lng":-97.81297,"zip":"78142","miles_from_dt":3.09},{"city":"Pettus","state_name":"Texas","lat":28.6038,"lng":-97.83989,"zip":"78146","miles_from_dt":3.28},{"city":"Beeville","state_name":"Texas","lat":28.52361,"lng":-97.76197,"zip":"78104","miles_from_dt":4.24},{"city":"Mineral","state_name":"Texas","lat":28.53184,"lng":-97.96656,"zip":"78125","miles_from_dt":10.94},{"city":"Kenedy","state_name":"Texas","lat":28.71739,"lng":-97.91187,"zip":"78119","miles_from_dt":11.95},{"city":"Berclair","state_name":"Texas","lat":28.57827,"lng":-97.59484,"zip":"78107","miles_from_dt":12.14},{"city":"Beeville","state_name":"Texas","lat":28.4094,"lng":-97.71733,"zip":"78102","miles_from_dt":12.53},{"city":"Pawnee","state_name":"Texas","lat":28.64539,"lng":-97.99248,"zip":"78145","miles_from_dt":12.89},{"city":"Runge","state_name":"Texas","lat":28.86788,"lng":-97.70986,"zip":"78151","miles_from_dt":20.6},{"city":"Karnes City","state_name":"Texas","lat":28.87574,"lng":-97.94729,"zip":"78118","miles_from_dt":22.5},{"city":"Skidmore","state_name":"Texas","lat":28.244,"lng":-97.66619,"zip":"78389","miles_from_dt":24.3},{"city":"Goliad","state_name":"Texas","lat":28.65589,"lng":-97.40093,"zip":"77963","miles_from_dt":24.51},{"city":"Nordheim","state_name":"Texas","lat":28.90484,"lng":-97.62365,"zip":"78141","miles_from_dt":24.77},{"city":"Oakville","state_name":"Texas","lat":28.46,"lng":-98.18222,"zip":"78060","miles_from_dt":24.95},{"city":"Three Rivers","state_name":"Texas","lat":28.47756,"lng":-98.19733,"zip":"78071","miles_from_dt":25.46},{"city":"Dinero","state_name":"Texas","lat":28.2261,"lng":-97.96128,"zip":"78350","miles_from_dt":26.29},{"city":"Panna Maria","state_name":"Texas","lat":28.95506,"lng":-97.88795,"zip":"78144","miles_from_dt":26.57},{"city":"Peggy","state_name":"Texas","lat":28.74599,"lng":-98.19711,"zip":"78062","miles_from_dt":27.05},{"city":"Hobson","state_name":"Texas","lat":28.95092,"lng":-97.95736,"zip":"78117","miles_from_dt":27.51},{"city":"Tynan","state_name":"Texas","lat":28.18297,"lng":-97.72743,"zip":"78391","miles_from_dt":27.52},{"city":"Whitsett","state_name":"Texas","lat":28.58862,"lng":-98.26823,"zip":"78075","miles_from_dt":28.81},{"city":"Weesatche","state_name":"Texas","lat":28.85158,"lng":-97.433,"zip":"77993","miles_from_dt":28.92},{"city":"Campbellton","state_name":"Texas","lat":28.72478,"lng":-98.25911,"zip":"78008","miles_from_dt":29.98}],"targetCityZipCode":"78162","targetCityState":"Texas"},"__N_SSG":true}