{"pageProps":{"stateName":"Texas","cityName":"turkey","nearbyCities":[{"city":"Quitaque","state_name":"Texas","lat":34.36113,"lng":-101.04924,"zip":"79255","miles_from_dt":12.18},{"city":"Lakeview","state_name":"Texas","lat":34.64837,"lng":-100.77015,"zip":"79239","miles_from_dt":14.45},{"city":"Flomot","state_name":"Texas","lat":34.22108,"lng":-100.95509,"zip":"79234","miles_from_dt":16.88},{"city":"Estelline","state_name":"Texas","lat":34.50195,"lng":-100.49165,"zip":"79233","miles_from_dt":21.77},{"city":"Tell","state_name":"Texas","lat":34.36243,"lng":-100.45594,"zip":"79259","miles_from_dt":24.44},{"city":"Silverton","state_name":"Texas","lat":34.44868,"lng":-101.2995,"zip":"79257","miles_from_dt":24.6},{"city":"Cee Vee","state_name":"Texas","lat":34.2317,"lng":-100.48085,"zip":"79223","miles_from_dt":27.01},{"city":"Memphis","state_name":"Texas","lat":34.68001,"lng":-100.47552,"zip":"79245","miles_from_dt":27.25},{"city":"South Plains","state_name":"Texas","lat":34.24344,"lng":-101.29647,"zip":"79258","miles_from_dt":28.48},{"city":"Matador","state_name":"Texas","lat":34.0383,"lng":-100.8059,"zip":"79244","miles_from_dt":28.96},{"city":"Hedley","state_name":"Texas","lat":34.85566,"lng":-100.66588,"zip":"79237","miles_from_dt":29.92}],"targetCityZipCode":"79261","targetCityState":"Texas"},"__N_SSG":true}