{"pageProps":{"stateName":"Texas","cityName":"wilmer","nearbyCities":[{"city":"Hutchins","state_name":"Texas","lat":32.63984,"lng":-96.69257,"zip":"75141","miles_from_dt":2.7},{"city":"Lancaster","state_name":"Texas","lat":32.57608,"lng":-96.75137,"zip":"75146","miles_from_dt":4.87},{"city":"Dallas","state_name":"Texas","lat":32.67456,"lng":-96.61981,"zip":"75336","miles_from_dt":5.83},{"city":"Dallas","state_name":"Texas","lat":32.67278,"lng":-96.61171,"zip":"75253","miles_from_dt":6.01},{"city":"Ferris","state_name":"Texas","lat":32.52983,"lng":-96.61563,"zip":"75125","miles_from_dt":6.14},{"city":"Lancaster","state_name":"Texas","lat":32.62308,"lng":-96.78007,"zip":"75134","miles_from_dt":6.3},{"city":"Dallas","state_name":"Texas","lat":32.667,"lng":-96.75903,"zip":"75241","miles_from_dt":6.58},{"city":"Dallas","state_name":"Texas","lat":32.71291,"lng":-96.68243,"zip":"75217","miles_from_dt":7.54},{"city":"Seagoville","state_name":"Texas","lat":32.60652,"lng":-96.53939,"zip":"75159","miles_from_dt":7.89},{"city":"Balch Springs","state_name":"Texas","lat":32.71937,"lng":-96.61841,"zip":"75180","miles_from_dt":8.62},{"city":"Red Oak","state_name":"Texas","lat":32.52319,"lng":-96.80885,"zip":"75154","miles_from_dt":9.6},{"city":"Dallas","state_name":"Texas","lat":32.71158,"lng":-96.78256,"zip":"75216","miles_from_dt":9.74},{"city":"Dallas","state_name":"Texas","lat":32.71643,"lng":-96.78307,"zip":"75339","miles_from_dt":10.02},{"city":"Dallas","state_name":"Texas","lat":32.7384,"lng":-96.74637,"zip":"75277","miles_from_dt":10.18},{"city":"Dallas","state_name":"Texas","lat":32.65878,"lng":-96.83968,"zip":"75232","miles_from_dt":10.35},{"city":"Dallas","state_name":"Texas","lat":32.69181,"lng":-96.82438,"zip":"75221","miles_from_dt":10.64},{"city":"Desoto","state_name":"Texas","lat":32.58835,"lng":-96.86032,"zip":"75123","miles_from_dt":10.89},{"city":"Mesquite","state_name":"Texas","lat":32.72696,"lng":-96.555,"zip":"75181","miles_from_dt":10.99},{"city":"Desoto","state_name":"Texas","lat":32.59831,"lng":-96.86433,"zip":"75115","miles_from_dt":11.07},{"city":"Dallas","state_name":"Texas","lat":32.75259,"lng":-96.76075,"zip":"75215","miles_from_dt":11.42},{"city":"Dallas","state_name":"Texas","lat":32.77044,"lng":-96.68831,"zip":"75227","miles_from_dt":11.52},{"city":"Dallas","state_name":"Texas","lat":32.77046,"lng":-96.68748,"zip":"75389","miles_from_dt":11.52},{"city":"Palmer","state_name":"Texas","lat":32.43598,"lng":-96.67444,"zip":"75152","miles_from_dt":11.56},{"city":"Mesquite","state_name":"Texas","lat":32.76994,"lng":-96.6151,"zip":"75149","miles_from_dt":11.97},{"city":"Mesquite","state_name":"Texas","lat":32.77041,"lng":-96.61405,"zip":"75187","miles_from_dt":12.02},{"city":"Dallas","state_name":"Texas","lat":32.70894,"lng":-96.83894,"zip":"75395","miles_from_dt":12.02},{"city":"Mesquite","state_name":"Texas","lat":32.77161,"lng":-96.61649,"zip":"75185","miles_from_dt":12.06},{"city":"Dallas","state_name":"Texas","lat":32.71157,"lng":-96.83922,"zip":"75376","miles_from_dt":12.14},{"city":"Dallas","state_name":"Texas","lat":32.71117,"lng":-96.83953,"zip":"75224","miles_from_dt":12.14},{"city":"Dallas","state_name":"Texas","lat":32.74439,"lng":-96.80206,"zip":"75203","miles_from_dt":12.21},{"city":"Dallas","state_name":"Texas","lat":32.66489,"lng":-96.87238,"zip":"75237","miles_from_dt":12.28},{"city":"Dallas","state_name":"Texas","lat":32.77141,"lng":-96.74618,"zip":"75210","miles_from_dt":12.29},{"city":"Dallas","state_name":"Texas","lat":32.7705,"lng":-96.76912,"zip":"75315","miles_from_dt":12.75},{"city":"Dallas","state_name":"Texas","lat":32.66151,"lng":-96.88539,"zip":"75301","miles_from_dt":12.92},{"city":"Dallas","state_name":"Texas","lat":32.70444,"lng":-96.87271,"zip":"75233","miles_from_dt":13.48},{"city":"Crandall","state_name":"Texas","lat":32.60769,"lng":-96.44322,"zip":"75114","miles_from_dt":13.5},{"city":"Dallas","state_name":"Texas","lat":32.78037,"lng":-96.77601,"zip":"75303","miles_from_dt":13.53},{"city":"Dallas","state_name":"Texas","lat":32.79255,"lng":-96.74556,"zip":"75223","miles_from_dt":13.66},{"city":"Dallas","state_name":"Texas","lat":32.78315,"lng":-96.77654,"zip":"75226","miles_from_dt":13.72},{"city":"Dallas","state_name":"Texas","lat":32.74972,"lng":-96.84125,"zip":"75262","miles_from_dt":13.99},{"city":"Dallas","state_name":"Texas","lat":32.77784,"lng":-96.79863,"zip":"75320","miles_from_dt":14.01},{"city":"Duncanville","state_name":"Texas","lat":32.63421,"lng":-96.91224,"zip":"75137","miles_from_dt":14.02},{"city":"Dallas","state_name":"Texas","lat":32.77596,"lng":-96.80374,"zip":"75242","miles_from_dt":14.06},{"city":"Dallas","state_name":"Texas","lat":32.75409,"lng":-96.83943,"zip":"75208","miles_from_dt":14.13},{"city":"Dallas","state_name":"Texas","lat":32.79162,"lng":-96.77262,"zip":"75371","miles_from_dt":14.15},{"city":"Dallas","state_name":"Texas","lat":32.75272,"lng":-96.8424,"zip":"75263","miles_from_dt":14.18},{"city":"Dallas","state_name":"Texas","lat":32.77843,"lng":-96.8037,"zip":"75202","miles_from_dt":14.2},{"city":"Dallas","state_name":"Texas","lat":32.75461,"lng":-96.84088,"zip":"75222","miles_from_dt":14.22},{"city":"Dallas","state_name":"Texas","lat":32.79296,"lng":-96.77322,"zip":"75246","miles_from_dt":14.25},{"city":"Dallas","state_name":"Texas","lat":32.75369,"lng":-96.84295,"zip":"75267","miles_from_dt":14.25},{"city":"Dallas","state_name":"Texas","lat":32.75473,"lng":-96.84239,"zip":"75264","miles_from_dt":14.28},{"city":"Dallas","state_name":"Texas","lat":32.78126,"lng":-96.80192,"zip":"75270","miles_from_dt":14.31},{"city":"Dallas","state_name":"Texas","lat":32.76886,"lng":-96.82491,"zip":"75392","miles_from_dt":14.36},{"city":"Dallas","state_name":"Texas","lat":32.78296,"lng":-96.80016,"zip":"75250","miles_from_dt":14.36},{"city":"Dallas","state_name":"Texas","lat":32.76794,"lng":-96.82793,"zip":"75285","miles_from_dt":14.42},{"city":"Dallas","state_name":"Texas","lat":32.76866,"lng":-96.82709,"zip":"75284","miles_from_dt":14.43},{"city":"Dallas","state_name":"Texas","lat":32.76725,"lng":-96.82909,"zip":"75397","miles_from_dt":14.43},{"city":"Dallas","state_name":"Texas","lat":32.7693,"lng":-96.82701,"zip":"75312","miles_from_dt":14.46},{"city":"Duncanville","state_name":"Texas","lat":32.66013,"lng":-96.91402,"zip":"75116","miles_from_dt":14.49},{"city":"Dallas","state_name":"Texas","lat":32.7856,"lng":-96.79985,"zip":"75313","miles_from_dt":14.51},{"city":"Dallas","state_name":"Texas","lat":32.76823,"lng":-96.83032,"zip":"75283","miles_from_dt":14.52},{"city":"Dallas","state_name":"Texas","lat":32.7724,"lng":-96.82576,"zip":"75260","miles_from_dt":14.59},{"city":"Dallas","state_name":"Texas","lat":32.78826,"lng":-96.79953,"zip":"75201","miles_from_dt":14.66},{"city":"Mesquite","state_name":"Texas","lat":32.81545,"lng":-96.6308,"zip":"75150","miles_from_dt":14.81},{"city":"Duncanville","state_name":"Texas","lat":32.67415,"lng":-96.91672,"zip":"75138","miles_from_dt":14.93},{"city":"Dallas","state_name":"Texas","lat":32.81282,"lng":-96.75656,"zip":"75359","miles_from_dt":15.18},{"city":"Dallas","state_name":"Texas","lat":32.80137,"lng":-96.79049,"zip":"75393","miles_from_dt":15.2},{"city":"Dallas","state_name":"Texas","lat":32.80216,"lng":-96.78885,"zip":"75204","miles_from_dt":15.21},{"city":"Dallas","state_name":"Texas","lat":32.82456,"lng":-96.6805,"zip":"75228","miles_from_dt":15.22},{"city":"Dallas","state_name":"Texas","lat":32.82493,"lng":-96.67888,"zip":"75357","miles_from_dt":15.25},{"city":"Sunnyvale","state_name":"Texas","lat":32.80033,"lng":-96.55425,"zip":"75182","miles_from_dt":15.26},{"city":"Dallas","state_name":"Texas","lat":32.78693,"lng":-96.82181,"zip":"75207","miles_from_dt":15.27},{"city":"Dallas","state_name":"Texas","lat":32.78384,"lng":-96.82912,"zip":"75373","miles_from_dt":15.34},{"city":"Dallas","state_name":"Texas","lat":32.76579,"lng":-96.85689,"zip":"75398","miles_from_dt":15.42},{"city":"Dallas","state_name":"Texas","lat":32.83089,"lng":-96.70619,"zip":"75394","miles_from_dt":15.76},{"city":"Dallas","state_name":"Texas","lat":32.77,"lng":-96.86352,"zip":"75342","miles_from_dt":15.89},{"city":"Dallas","state_name":"Texas","lat":32.82899,"lng":-96.74348,"zip":"75214","miles_from_dt":16.04},{"city":"Dallas","state_name":"Texas","lat":32.73649,"lng":-96.90214,"zip":"75211","miles_from_dt":16.11},{"city":"Forney","state_name":"Texas","lat":32.74361,"lng":-96.45289,"zip":"75126","miles_from_dt":16.12},{"city":"Dallas","state_name":"Texas","lat":32.6866,"lng":-96.93455,"zip":"75236","miles_from_dt":16.2},{"city":"Dallas","state_name":"Texas","lat":32.81087,"lng":-96.81315,"zip":"75219","miles_from_dt":16.4},{"city":"Rosser","state_name":"Texas","lat":32.46168,"lng":-96.44914,"zip":"75157","miles_from_dt":16.4},{"city":"Dallas","state_name":"Texas","lat":32.84136,"lng":-96.70357,"zip":"75218","miles_from_dt":16.46},{"city":"Cedar Hill","state_name":"Texas","lat":32.58772,"lng":-96.95615,"zip":"75106","miles_from_dt":16.46},{"city":"Dallas","state_name":"Texas","lat":32.83161,"lng":-96.77032,"zip":"75206","miles_from_dt":16.67},{"city":"Dallas","state_name":"Texas","lat":32.6449,"lng":-96.96257,"zip":"75249","miles_from_dt":17.03},{"city":"Dallas","state_name":"Texas","lat":32.78203,"lng":-96.87853,"zip":"75212","miles_from_dt":17.1},{"city":"Cedar Hill","state_name":"Texas","lat":32.58295,"lng":-96.96712,"zip":"75104","miles_from_dt":17.12},{"city":"Dallas","state_name":"Texas","lat":32.78098,"lng":-96.88177,"zip":"75266","miles_from_dt":17.18},{"city":"Dallas","state_name":"Texas","lat":32.83953,"lng":-96.77384,"zip":"75372","miles_from_dt":17.25},{"city":"Ennis","state_name":"Texas","lat":32.35419,"lng":-96.62592,"zip":"75120","miles_from_dt":17.43},{"city":"Dallas","state_name":"Texas","lat":32.814,"lng":-96.84283,"zip":"75390","miles_from_dt":17.5},{"city":"Dallas","state_name":"Texas","lat":32.83657,"lng":-96.79617,"zip":"75205","miles_from_dt":17.54},{"city":"Dallas","state_name":"Texas","lat":32.84362,"lng":-96.78395,"zip":"75275","miles_from_dt":17.72},{"city":"Waxahachie","state_name":"Texas","lat":32.36687,"lng":-96.79677,"zip":"75165","miles_from_dt":17.81},{"city":"Garland","state_name":"Texas","lat":32.85894,"lng":-96.60296,"zip":"75049","miles_from_dt":18.08},{"city":"Garland","state_name":"Texas","lat":32.8571,"lng":-96.57986,"zip":"75043","miles_from_dt":18.31},{"city":"Dallas","state_name":"Texas","lat":32.83219,"lng":-96.84798,"zip":"75235","miles_from_dt":18.71},{"city":"Dallas","state_name":"Texas","lat":32.81417,"lng":-96.87803,"zip":"75247","miles_from_dt":18.73},{"city":"Dallas","state_name":"Texas","lat":32.826,"lng":-96.86,"zip":"75358","miles_from_dt":18.74},{"city":"Dallas","state_name":"Texas","lat":32.81515,"lng":-96.877,"zip":"75356","miles_from_dt":18.75},{"city":"Garland","state_name":"Texas","lat":32.87625,"lng":-96.64711,"zip":"75047","miles_from_dt":18.85},{"city":"Scurry","state_name":"Texas","lat":32.46694,"lng":-96.39315,"zip":"75158","miles_from_dt":18.94},{"city":"Dallas","state_name":"Texas","lat":32.8487,"lng":-96.8257,"zip":"75209","miles_from_dt":19.04},{"city":"Dallas","state_name":"Texas","lat":32.87855,"lng":-96.70785,"zip":"75238","miles_from_dt":19.04},{"city":"Dallas","state_name":"Texas","lat":32.88011,"lng":-96.70511,"zip":"75355","miles_from_dt":19.13},{"city":"Garland","state_name":"Texas","lat":32.88101,"lng":-96.65149,"zip":"75041","miles_from_dt":19.16},{"city":"Dallas","state_name":"Texas","lat":32.86511,"lng":-96.79109,"zip":"75225","miles_from_dt":19.25},{"city":"Dallas","state_name":"Texas","lat":32.87695,"lng":-96.74967,"zip":"75231","miles_from_dt":19.33},{"city":"Dallas","state_name":"Texas","lat":32.87873,"lng":-96.74985,"zip":"75382","miles_from_dt":19.45},{"city":"Ennis","state_name":"Texas","lat":32.32293,"lng":-96.59107,"zip":"75119","miles_from_dt":19.95},{"city":"Grand Prairie","state_name":"Texas","lat":32.72635,"lng":-96.99375,"zip":"75051","miles_from_dt":20.43},{"city":"Midlothian","state_name":"Texas","lat":32.47042,"lng":-96.98861,"zip":"76065","miles_from_dt":20.5},{"city":"Grand Prairie","state_name":"Texas","lat":32.60036,"lng":-97.03409,"zip":"75054","miles_from_dt":20.97},{"city":"Irving","state_name":"Texas","lat":32.79774,"lng":-96.95295,"zip":"75060","miles_from_dt":21.02},{"city":"Grand Prairie","state_name":"Texas","lat":32.66455,"lng":-97.02809,"zip":"75052","miles_from_dt":21.03},{"city":"Waxahachie","state_name":"Texas","lat":32.30535,"lng":-96.7691,"zip":"75168","miles_from_dt":21.29},{"city":"Dallas","state_name":"Texas","lat":32.74323,"lng":-97.00109,"zip":"75265","miles_from_dt":21.32},{"city":"Garland","state_name":"Texas","lat":32.91401,"lng":-96.67466,"zip":"75042","miles_from_dt":21.38},{"city":"Irving","state_name":"Texas","lat":32.81197,"lng":-96.94711,"zip":"75017","miles_from_dt":21.4},{"city":"Rowlett","state_name":"Texas","lat":32.89992,"lng":-96.56373,"zip":"75030","miles_from_dt":21.41},{"city":"Rowlett","state_name":"Texas","lat":32.89368,"lng":-96.53929,"zip":"75088","miles_from_dt":21.48},{"city":"Dallas","state_name":"Texas","lat":32.91232,"lng":-96.73633,"zip":"75243","miles_from_dt":21.57},{"city":"Dallas","state_name":"Texas","lat":32.86692,"lng":-96.87571,"zip":"75220","miles_from_dt":21.59},{"city":"Dallas","state_name":"Texas","lat":32.91295,"lng":-96.73463,"zip":"75374","miles_from_dt":21.6},{"city":"Dallas","state_name":"Texas","lat":32.90202,"lng":-96.79226,"zip":"75230","miles_from_dt":21.67},{"city":"Dallas","state_name":"Texas","lat":32.90216,"lng":-96.79276,"zip":"75367","miles_from_dt":21.69},{"city":"Dallas","state_name":"Texas","lat":32.86385,"lng":-96.8861,"zip":"75354","miles_from_dt":21.75},{"city":"Garland","state_name":"Texas","lat":32.9187,"lng":-96.64435,"zip":"75046","miles_from_dt":21.78},{"city":"Waxahachie","state_name":"Texas","lat":32.36123,"lng":-96.91547,"zip":"75167","miles_from_dt":21.84},{"city":"Irving","state_name":"Texas","lat":32.814,"lng":-96.955,"zip":"75059","miles_from_dt":21.84},{"city":"Grand Prairie","state_name":"Texas","lat":32.77428,"lng":-97.0037,"zip":"75050","miles_from_dt":22.49},{"city":"Dallas","state_name":"Texas","lat":32.91984,"lng":-96.77308,"zip":"75251","miles_from_dt":22.53},{"city":"Garland","state_name":"Texas","lat":32.92797,"lng":-96.62006,"zip":"75040","miles_from_dt":22.57},{"city":"Rockwall","state_name":"Texas","lat":32.85756,"lng":-96.42858,"zip":"75032","miles_from_dt":22.61},{"city":"Irving","state_name":"Texas","lat":32.82607,"lng":-96.96563,"zip":"75061","miles_from_dt":22.85},{"city":"Grand Prairie","state_name":"Texas","lat":32.75269,"lng":-97.02499,"zip":"75053","miles_from_dt":22.86},{"city":"Dallas","state_name":"Texas","lat":32.8939,"lng":-96.86517,"zip":"75229","miles_from_dt":22.87},{"city":"Dallas","state_name":"Texas","lat":32.89209,"lng":-96.87325,"zip":"75378","miles_from_dt":23},{"city":"Bardwell","state_name":"Texas","lat":32.27003,"lng":-96.70239,"zip":"75101","miles_from_dt":23.05},{"city":"Irving","state_name":"Texas","lat":32.847,"lng":-96.95813,"zip":"75062","miles_from_dt":23.54},{"city":"Dallas","state_name":"Texas","lat":32.93194,"lng":-96.78924,"zip":"75240","miles_from_dt":23.58},{"city":"Garland","state_name":"Texas","lat":32.94585,"lng":-96.68293,"zip":"75045","miles_from_dt":23.58},{"city":"Irving","state_name":"Texas","lat":32.84208,"lng":-96.97023,"zip":"75014","miles_from_dt":23.8},{"city":"Rowlett","state_name":"Texas","lat":32.93195,"lng":-96.54435,"zip":"75089","miles_from_dt":23.86},{"city":"Richardson","state_name":"Texas","lat":32.94969,"lng":-96.70899,"zip":"75081","miles_from_dt":23.93},{"city":"Dallas","state_name":"Texas","lat":32.93169,"lng":-96.81595,"zip":"75380","miles_from_dt":24.05},{"city":"Dallas","state_name":"Texas","lat":32.92544,"lng":-96.83671,"zip":"75244","miles_from_dt":24.1},{"city":"Richardson","state_name":"Texas","lat":32.95291,"lng":-96.70384,"zip":"75085","miles_from_dt":24.13},{"city":"Dallas","state_name":"Texas","lat":32.93979,"lng":-96.79282,"zip":"75360","miles_from_dt":24.16},{"city":"Arlington","state_name":"Texas","lat":32.62233,"lng":-97.09265,"zip":"76002","miles_from_dt":24.42},{"city":"Arlington","state_name":"Texas","lat":32.66074,"lng":-97.08967,"zip":"76018","miles_from_dt":24.52},{"city":"Terrell","state_name":"Texas","lat":32.76466,"lng":-96.29835,"zip":"75160","miles_from_dt":24.57},{"city":"Dallas","state_name":"Texas","lat":32.94571,"lng":-96.80127,"zip":"75254","miles_from_dt":24.7},{"city":"Arlington","state_name":"Texas","lat":32.67212,"lng":-97.09101,"zip":"76096","miles_from_dt":24.73},{"city":"Garland","state_name":"Texas","lat":32.96299,"lng":-96.6531,"zip":"75044","miles_from_dt":24.79},{"city":"Irving","state_name":"Texas","lat":32.88592,"lng":-96.94042,"zip":"75039","miles_from_dt":24.86},{"city":"Arlington","state_name":"Texas","lat":32.69201,"lng":-97.08814,"zip":"76014","miles_from_dt":24.87},{"city":"Arlington","state_name":"Texas","lat":32.72271,"lng":-97.08065,"zip":"76010","miles_from_dt":25.05},{"city":"Kaufman","state_name":"Texas","lat":32.57004,"lng":-96.24637,"zip":"75142","miles_from_dt":25.09},{"city":"Arlington","state_name":"Texas","lat":32.72138,"lng":-97.08191,"zip":"76007","miles_from_dt":25.09},{"city":"Dallas","state_name":"Texas","lat":32.92423,"lng":-96.88904,"zip":"75234","miles_from_dt":25.37},{"city":"Dallas","state_name":"Texas","lat":32.94923,"lng":-96.82552,"zip":"75391","miles_from_dt":25.38},{"city":"Dallas","state_name":"Texas","lat":32.86763,"lng":-96.9824,"zip":"75326","miles_from_dt":25.54},{"city":"Irving","state_name":"Texas","lat":32.87231,"lng":-96.97946,"zip":"75038","miles_from_dt":25.65},{"city":"Richardson","state_name":"Texas","lat":32.97328,"lng":-96.74527,"zip":"75083","miles_from_dt":25.8},{"city":"Richardson","state_name":"Texas","lat":32.97382,"lng":-96.7416,"zip":"75080","miles_from_dt":25.8},{"city":"Sachse","state_name":"Texas","lat":32.9704,"lng":-96.58139,"zip":"75048","miles_from_dt":25.85},{"city":"Arlington","state_name":"Texas","lat":32.7543,"lng":-97.08223,"zip":"76011","miles_from_dt":25.93},{"city":"Dallas","state_name":"Texas","lat":32.96957,"lng":-96.79542,"zip":"75248","miles_from_dt":26.18},{"city":"Addison","state_name":"Texas","lat":32.96015,"lng":-96.83808,"zip":"75001","miles_from_dt":26.34},{"city":"Fort Worth","state_name":"Texas","lat":32.82404,"lng":-97.04911,"zip":"76155","miles_from_dt":26.58},{"city":"Dallas","state_name":"Texas","lat":32.94476,"lng":-96.88846,"zip":"75381","miles_from_dt":26.6},{"city":"Irving","state_name":"Texas","lat":32.89557,"lng":-96.97372,"zip":"75015","miles_from_dt":26.61},{"city":"Richardson","state_name":"Texas","lat":32.99208,"lng":-96.66536,"zip":"75082","miles_from_dt":26.77},{"city":"Arlington","state_name":"Texas","lat":32.73549,"lng":-97.10676,"zip":"76004","miles_from_dt":26.78},{"city":"Venus","state_name":"Texas","lat":32.43258,"lng":-97.0888,"zip":"76084","miles_from_dt":26.9},{"city":"Arlington","state_name":"Texas","lat":32.7282,"lng":-97.1126,"zip":"76019","miles_from_dt":26.93},{"city":"Irving","state_name":"Texas","lat":32.9019,"lng":-96.97814,"zip":"75016","miles_from_dt":27.11},{"city":"Rockwall","state_name":"Texas","lat":32.94581,"lng":-96.44136,"zip":"75087","miles_from_dt":27.21},{"city":"Carrollton","state_name":"Texas","lat":32.95442,"lng":-96.88958,"zip":"75011","miles_from_dt":27.22},{"city":"Arlington","state_name":"Texas","lat":32.80057,"lng":-97.08001,"zip":"76005","miles_from_dt":27.24},{"city":"Forreston","state_name":"Texas","lat":32.23911,"lng":-96.85724,"zip":"76041","miles_from_dt":27.3},{"city":"Avalon","state_name":"Texas","lat":32.219,"lng":-96.78879,"zip":"76623","miles_from_dt":27.34},{"city":"Elmo","state_name":"Texas","lat":32.68509,"lng":-96.21459,"zip":"75118","miles_from_dt":27.4},{"city":"Arlington","state_name":"Texas","lat":32.69204,"lng":-97.13341,"zip":"76015","miles_from_dt":27.43},{"city":"Mansfield","state_name":"Texas","lat":32.56913,"lng":-97.14376,"zip":"76063","miles_from_dt":27.47},{"city":"Dallas","state_name":"Texas","lat":32.99132,"lng":-96.80301,"zip":"75379","miles_from_dt":27.74},{"city":"Arlington","state_name":"Texas","lat":32.78511,"lng":-97.10019,"zip":"76006","miles_from_dt":27.77},{"city":"Carrollton","state_name":"Texas","lat":32.96165,"lng":-96.89717,"zip":"75006","miles_from_dt":27.86},{"city":"Dallas","state_name":"Texas","lat":32.99696,"lng":-96.78983,"zip":"75252","miles_from_dt":27.92},{"city":"Dallas","state_name":"Texas","lat":32.92079,"lng":-96.97494,"zip":"75368","miles_from_dt":27.99},{"city":"Arlington","state_name":"Texas","lat":32.63076,"lng":-97.15408,"zip":"76001","miles_from_dt":28.03},{"city":"Irving","state_name":"Texas","lat":32.90797,"lng":-96.9961,"zip":"75063","miles_from_dt":28.11},{"city":"Arlington","state_name":"Texas","lat":32.66223,"lng":-97.16237,"zip":"76017","miles_from_dt":28.73},{"city":"Fate","state_name":"Texas","lat":32.93865,"lng":-96.38046,"zip":"75132","miles_from_dt":28.74},{"city":"Plano","state_name":"Texas","lat":33.01871,"lng":-96.61481,"zip":"75094","miles_from_dt":28.81},{"city":"Rice","state_name":"Texas","lat":32.2232,"lng":-96.46906,"zip":"75155","miles_from_dt":28.84},{"city":"Arlington","state_name":"Texas","lat":32.72409,"lng":-97.15073,"zip":"76094","miles_from_dt":28.97},{"city":"Dallas","state_name":"Texas","lat":33.00015,"lng":-96.84075,"zip":"75287","miles_from_dt":28.98},{"city":"Dallas","state_name":"Texas","lat":32.99979,"lng":-96.8417,"zip":"75370","miles_from_dt":28.98},{"city":"Arlington","state_name":"Texas","lat":32.75459,"lng":-97.13901,"zip":"76012","miles_from_dt":28.99},{"city":"Plano","state_name":"Texas","lat":33.02163,"lng":-96.74043,"zip":"75075","miles_from_dt":29.05},{"city":"Plano","state_name":"Texas","lat":33.02597,"lng":-96.69903,"zip":"75086","miles_from_dt":29.13},{"city":"Euless","state_name":"Texas","lat":32.82133,"lng":-97.10488,"zip":"76040","miles_from_dt":29.21},{"city":"Maypearl","state_name":"Texas","lat":32.30757,"lng":-97.03225,"zip":"76064","miles_from_dt":29.21},{"city":"Arlington","state_name":"Texas","lat":32.72027,"lng":-97.15652,"zip":"76013","miles_from_dt":29.22},{"city":"Chatfield","state_name":"Texas","lat":32.26717,"lng":-96.36682,"zip":"75105","miles_from_dt":29.35},{"city":"Arlington","state_name":"Texas","lat":32.65469,"lng":-97.17554,"zip":"76003","miles_from_dt":29.42},{"city":"Wylie","state_name":"Texas","lat":33.01432,"lng":-96.53531,"zip":"75098","miles_from_dt":29.43},{"city":"Dallas","state_name":"Texas","lat":32.88568,"lng":-97.05419,"zip":"75261","miles_from_dt":29.43},{"city":"Plano","state_name":"Texas","lat":33.03298,"lng":-96.67304,"zip":"75074","miles_from_dt":29.58},{"city":"Euless","state_name":"Texas","lat":32.8592,"lng":-97.08422,"zip":"76039","miles_from_dt":29.65},{"city":"Kemp","state_name":"Texas","lat":32.36334,"lng":-96.24929,"zip":"75143","miles_from_dt":29.85}],"targetCityZipCode":"75172","targetCityState":"Texas"},"__N_SSG":true}