{"pageProps":{"stateName":"Montana","cityName":"belt","nearbyCities":[{"city":"Raynesford","state_name":"Montana","lat":47.19087,"lng":-110.68378,"zip":"59469","miles_from_dt":12.97},{"city":"Stockett","state_name":"Montana","lat":47.22696,"lng":-111.12013,"zip":"59480","miles_from_dt":13.33},{"city":"Sand Coulee","state_name":"Montana","lat":47.37939,"lng":-111.17095,"zip":"59472","miles_from_dt":14.33},{"city":"Great Falls","state_name":"Montana","lat":47.28102,"lng":-111.25937,"zip":"59405","miles_from_dt":18.26},{"city":"Monarch","state_name":"Montana","lat":47.0489,"lng":-110.86668,"zip":"59463","miles_from_dt":19.1},{"city":"Malmstrom Afb","state_name":"Montana","lat":47.50937,"lng":-111.19456,"zip":"59402","miles_from_dt":19.61},{"city":"Geyser","state_name":"Montana","lat":47.28116,"lng":-110.45955,"zip":"59447","miles_from_dt":19.82},{"city":"Highwood","state_name":"Montana","lat":47.5992,"lng":-110.73923,"zip":"59450","miles_from_dt":19.98},{"city":"Great Falls","state_name":"Montana","lat":47.48105,"lng":-111.2534,"zip":"59406","miles_from_dt":20.7},{"city":"Great Falls","state_name":"Montana","lat":47.51083,"lng":-111.27691,"zip":"59401","miles_from_dt":22.74},{"city":"Black Eagle","state_name":"Montana","lat":47.5276,"lng":-111.26871,"zip":"59414","miles_from_dt":23.1},{"city":"Neihart","state_name":"Montana","lat":46.93777,"lng":-110.70788,"zip":"59465","miles_from_dt":27.93}],"targetCityZipCode":"59412","targetCityState":"Montana"},"__N_SSG":true}