{"pageProps":{"stateName":"Montana","cityName":"elmo","nearbyCities":[{"city":"Dayton","state_name":"Montana","lat":47.86878,"lng":-114.29546,"zip":"59914","miles_from_dt":6.34},{"city":"Proctor","state_name":"Montana","lat":47.92365,"lng":-114.40272,"zip":"59929","miles_from_dt":7.15},{"city":"Big Arm","state_name":"Montana","lat":47.82409,"lng":-114.23271,"zip":"59910","miles_from_dt":8.31},{"city":"Rollins","state_name":"Montana","lat":47.9208,"lng":-114.25486,"zip":"59931","miles_from_dt":10.06},{"city":"Hot Springs","state_name":"Montana","lat":47.65892,"lng":-114.54734,"zip":"59845","miles_from_dt":12.82},{"city":"Polson","state_name":"Montana","lat":47.71314,"lng":-114.17832,"zip":"59860","miles_from_dt":13.13},{"city":"Lonepine","state_name":"Montana","lat":47.71526,"lng":-114.68162,"zip":"59848","miles_from_dt":14.53},{"city":"Lakeside","state_name":"Montana","lat":47.99962,"lng":-114.22227,"zip":"59922","miles_from_dt":15.19},{"city":"Somers","state_name":"Montana","lat":48.0502,"lng":-114.24624,"zip":"59932","miles_from_dt":17.64},{"city":"Kila","state_name":"Montana","lat":48.06412,"lng":-114.53464,"zip":"59920","miles_from_dt":17.8},{"city":"Pablo","state_name":"Montana","lat":47.60032,"lng":-114.11787,"zip":"59855","miles_from_dt":20.44},{"city":"Ronan","state_name":"Montana","lat":47.53324,"lng":-114.11741,"zip":"59864","miles_from_dt":24.11},{"city":"Bigfork","state_name":"Montana","lat":47.86041,"lng":-113.88552,"zip":"59911","miles_from_dt":24.61},{"city":"Marion","state_name":"Montana","lat":48.04732,"lng":-114.83045,"zip":"59925","miles_from_dt":25},{"city":"Kalispell","state_name":"Montana","lat":48.19303,"lng":-114.35788,"zip":"59903","miles_from_dt":25.87},{"city":"Kalispell","state_name":"Montana","lat":48.19452,"lng":-114.31226,"zip":"59904","miles_from_dt":26.26},{"city":"Plains","state_name":"Montana","lat":47.5205,"lng":-114.80396,"zip":"59859","miles_from_dt":27.65},{"city":"Kalispell","state_name":"Montana","lat":48.22873,"lng":-114.40564,"zip":"59901","miles_from_dt":28.22},{"city":"Charlo","state_name":"Montana","lat":47.41817,"lng":-114.20362,"zip":"59824","miles_from_dt":29.42}],"targetCityZipCode":"59915","targetCityState":"Montana"},"__N_SSG":true}