{"pageProps":{"stateName":"Montana","cityName":"harlowton","nearbyCities":[{"city":"Two Dot","state_name":"Montana","lat":46.36172,"lng":-110.14019,"zip":"59085","miles_from_dt":13.94},{"city":"Judith Gap","state_name":"Montana","lat":46.65903,"lng":-109.66996,"zip":"59453","miles_from_dt":16.97},{"city":"Shawmut","state_name":"Montana","lat":46.32585,"lng":-109.5442,"zip":"59078","miles_from_dt":19.17},{"city":"Buffalo","state_name":"Montana","lat":46.80258,"lng":-109.87849,"zip":"59418","miles_from_dt":23.25},{"city":"Melville","state_name":"Montana","lat":46.10282,"lng":-109.78662,"zip":"59055","miles_from_dt":25.58},{"city":"Martinsdale","state_name":"Montana","lat":46.45713,"lng":-110.43492,"zip":"59053","miles_from_dt":26},{"city":"Ryegate","state_name":"Montana","lat":46.36062,"lng":-109.30181,"zip":"59074","miles_from_dt":29.04},{"city":"Hobson","state_name":"Montana","lat":46.86946,"lng":-110.09831,"zip":"59452","miles_from_dt":29.57}],"targetCityZipCode":"59036","targetCityState":"Montana"},"__N_SSG":true}