{"pageProps":{"stateName":"Montana","cityName":"livingston","nearbyCities":[{"city":"Bozeman","state_name":"Montana","lat":45.6928,"lng":-110.9065,"zip":"59715","miles_from_dt":19.21},{"city":"McLeod","state_name":"Montana","lat":45.43651,"lng":-110.18676,"zip":"59052","miles_from_dt":19.93},{"city":"Clyde Park","state_name":"Montana","lat":45.85791,"lng":-110.62326,"zip":"59018","miles_from_dt":20.28},{"city":"Pray","state_name":"Montana","lat":45.26883,"lng":-110.6784,"zip":"59065","miles_from_dt":21.59},{"city":"Springdale","state_name":"Montana","lat":45.84041,"lng":-110.29227,"zip":"59082","miles_from_dt":22.59},{"city":"Bozeman","state_name":"Montana","lat":45.67818,"lng":-111.03658,"zip":"59719","miles_from_dt":24.69},{"city":"Bozeman","state_name":"Montana","lat":45.66196,"lng":-111.05994,"zip":"59717","miles_from_dt":25.46},{"city":"Emigrant","state_name":"Montana","lat":45.26118,"lng":-110.90674,"zip":"59027","miles_from_dt":27.36},{"city":"Bozeman","state_name":"Montana","lat":45.66142,"lng":-111.11399,"zip":"59772","miles_from_dt":28},{"city":"Bozeman","state_name":"Montana","lat":45.68001,"lng":-111.14623,"zip":"59771","miles_from_dt":29.82}],"targetCityZipCode":"59047","targetCityState":"Montana"},"__N_SSG":true}