{"pageProps":{"stateName":"Montana","cityName":"medicine-lake","nearbyCities":[{"city":"Homestead","state_name":"Montana","lat":48.4387,"lng":-104.55787,"zip":"59242","miles_from_dt":5.75},{"city":"Reserve","state_name":"Montana","lat":48.57025,"lng":-104.735,"zip":"59258","miles_from_dt":10.4},{"city":"Froid","state_name":"Montana","lat":48.34283,"lng":-104.51545,"zip":"59226","miles_from_dt":12.14},{"city":"Antelope","state_name":"Montana","lat":48.69582,"lng":-104.35493,"zip":"59211","miles_from_dt":14.45},{"city":"Plentywood","state_name":"Montana","lat":48.75753,"lng":-104.61123,"zip":"59254","miles_from_dt":17.01},{"city":"Dagmar","state_name":"Montana","lat":48.5579,"lng":-104.15541,"zip":"59219","miles_from_dt":17.04},{"city":"Redstone","state_name":"Montana","lat":48.75364,"lng":-104.94239,"zip":"59257","miles_from_dt":25.19},{"city":"Raymond","state_name":"Montana","lat":48.91919,"lng":-104.54965,"zip":"59256","miles_from_dt":27.72},{"city":"Bainville","state_name":"Montana","lat":48.19231,"lng":-104.16968,"zip":"59212","miles_from_dt":27.77},{"city":"Brockton","state_name":"Montana","lat":48.17553,"lng":-104.85612,"zip":"59213","miles_from_dt":28.25},{"city":"Grenora","state_name":"North Dakota","lat":48.63928,"lng":-103.92207,"zip":"58845","miles_from_dt":28.75},{"city":"Culbertson","state_name":"Montana","lat":48.09993,"lng":-104.52361,"zip":"59218","miles_from_dt":28.92},{"city":"Westby","state_name":"Montana","lat":48.87415,"lng":-104.17865,"zip":"59275","miles_from_dt":29.17}],"targetCityZipCode":"59247","targetCityState":"Montana"},"__N_SSG":true}