{"pageProps":{"stateName":"Montana","cityName":"park-city","nearbyCities":[{"city":"Joliet","state_name":"Montana","lat":45.50239,"lng":-108.9663,"zip":"59041","miles_from_dt":10.25},{"city":"Laurel","state_name":"Montana","lat":45.64251,"lng":-108.74975,"zip":"59044","miles_from_dt":10.7},{"city":"Columbus","state_name":"Montana","lat":45.62995,"lng":-109.24208,"zip":"59019","miles_from_dt":13.25},{"city":"Molt","state_name":"Montana","lat":45.85358,"lng":-108.95377,"zip":"59057","miles_from_dt":14.03},{"city":"Boyd","state_name":"Montana","lat":45.46131,"lng":-109.08054,"zip":"59013","miles_from_dt":14.14},{"city":"Edgar","state_name":"Montana","lat":45.46385,"lng":-108.78392,"zip":"59026","miles_from_dt":15.76},{"city":"Billings","state_name":"Montana","lat":45.80637,"lng":-108.6948,"zip":"59106","miles_from_dt":17.12},{"city":"Fromberg","state_name":"Montana","lat":45.4085,"lng":-108.80467,"zip":"59029","miles_from_dt":18.56},{"city":"Billings","state_name":"Montana","lat":45.76707,"lng":-108.58167,"zip":"59116","miles_from_dt":20.45},{"city":"Billings","state_name":"Montana","lat":45.77209,"lng":-108.58108,"zip":"59104","miles_from_dt":20.61},{"city":"Billings","state_name":"Montana","lat":45.77512,"lng":-108.58266,"zip":"59108","miles_from_dt":20.63},{"city":"Billings","state_name":"Montana","lat":45.77479,"lng":-108.58133,"zip":"59102","miles_from_dt":20.68},{"city":"Roberts","state_name":"Montana","lat":45.36289,"lng":-109.17961,"zip":"59070","miles_from_dt":22.33},{"city":"Billings","state_name":"Montana","lat":45.79163,"lng":-108.53979,"zip":"59112","miles_from_dt":22.98},{"city":"Billings","state_name":"Montana","lat":45.78591,"lng":-108.5088,"zip":"59115","miles_from_dt":24.2},{"city":"Billings","state_name":"Montana","lat":45.78361,"lng":-108.50514,"zip":"59117","miles_from_dt":24.3},{"city":"Billings","state_name":"Montana","lat":45.81387,"lng":-108.50578,"zip":"59107","miles_from_dt":25.13},{"city":"Rapelje","state_name":"Montana","lat":45.96827,"lng":-109.23433,"zip":"59067","miles_from_dt":25.37},{"city":"Billings","state_name":"Montana","lat":45.87708,"lng":-108.50145,"zip":"59105","miles_from_dt":27.53},{"city":"Billings","state_name":"Montana","lat":45.64179,"lng":-108.39879,"zip":"59114","miles_from_dt":27.69},{"city":"Acton","state_name":"Montana","lat":45.99832,"lng":-108.6649,"zip":"59002","miles_from_dt":28.17},{"city":"Absarokee","state_name":"Montana","lat":45.52952,"lng":-109.54022,"zip":"59001","miles_from_dt":28.88},{"city":"Billings","state_name":"Montana","lat":45.63013,"lng":-108.36445,"zip":"59101","miles_from_dt":29.38},{"city":"Billings","state_name":"Montana","lat":45.63794,"lng":-108.36133,"zip":"59103","miles_from_dt":29.51},{"city":"Billings","state_name":"Montana","lat":45.63416,"lng":-108.36105,"zip":"59111","miles_from_dt":29.53},{"city":"Reed Point","state_name":"Montana","lat":45.72204,"lng":-109.57945,"zip":"59069","miles_from_dt":29.89}],"targetCityZipCode":"59063","targetCityState":"Montana"},"__N_SSG":true}