{"pageProps":{"stateName":"Montana","cityName":"ravalli","nearbyCities":[{"city":"Saint Ignatius","state_name":"Montana","lat":47.33184,"lng":-114.0045,"zip":"59865","miles_from_dt":8.49},{"city":"Charlo","state_name":"Montana","lat":47.41817,"lng":-114.20362,"zip":"59824","miles_from_dt":8.67},{"city":"Dixon","state_name":"Montana","lat":47.27732,"lng":-114.36296,"zip":"59831","miles_from_dt":8.85},{"city":"Arlee","state_name":"Montana","lat":47.17603,"lng":-114.00431,"zip":"59821","miles_from_dt":11.49},{"city":"Frenchtown","state_name":"Montana","lat":47.06979,"lng":-114.2221,"zip":"59834","miles_from_dt":15.64},{"city":"Ronan","state_name":"Montana","lat":47.53324,"lng":-114.11741,"zip":"59864","miles_from_dt":16.76},{"city":"Huson","state_name":"Montana","lat":47.14899,"lng":-114.50615,"zip":"59846","miles_from_dt":18.47},{"city":"Pablo","state_name":"Montana","lat":47.60032,"lng":-114.11787,"zip":"59855","miles_from_dt":21.34},{"city":"Missoula","state_name":"Montana","lat":46.97984,"lng":-114.064,"zip":"59808","miles_from_dt":22.34},{"city":"Missoula","state_name":"Montana","lat":46.96867,"lng":-113.96746,"zip":"59807","miles_from_dt":24.54},{"city":"Condon","state_name":"Montana","lat":47.46339,"lng":-113.69827,"zip":"59826","miles_from_dt":25.3},{"city":"Missoula","state_name":"Montana","lat":46.91629,"lng":-114.15201,"zip":"59806","miles_from_dt":26.12},{"city":"Paradise","state_name":"Montana","lat":47.38237,"lng":-114.73627,"zip":"59856","miles_from_dt":26.99},{"city":"Missoula","state_name":"Montana","lat":46.90084,"lng":-114.25066,"zip":"59804","miles_from_dt":27.38},{"city":"Polson","state_name":"Montana","lat":47.71314,"lng":-114.17832,"zip":"59860","miles_from_dt":28.96},{"city":"Missoula","state_name":"Montana","lat":46.90569,"lng":-113.92077,"zip":"59802","miles_from_dt":29.41}],"targetCityZipCode":"59863","targetCityState":"Montana"},"__N_SSG":true}