{"pageProps":{"stateName":"Washington","cityName":"arlington","nearbyCities":[{"city":"Lake Stevens","state_name":"Washington","lat":48.03252,"lng":-122.07762,"zip":"98258","miles_from_dt":13.59},{"city":"Mount Vernon","state_name":"Washington","lat":48.36013,"lng":-122.14346,"zip":"98274","miles_from_dt":13.66},{"city":"Marysville","state_name":"Washington","lat":48.05952,"lng":-122.1443,"zip":"98270","miles_from_dt":13.71},{"city":"Silvana","state_name":"Washington","lat":48.19051,"lng":-122.25032,"zip":"98287","miles_from_dt":13.9},{"city":"Granite Falls","state_name":"Washington","lat":48.06173,"lng":-121.70939,"zip":"98252","miles_from_dt":15.15},{"city":"Marysville","state_name":"Washington","lat":48.09373,"lng":-122.23559,"zip":"98271","miles_from_dt":15.42},{"city":"Stanwood","state_name":"Washington","lat":48.22455,"lng":-122.3032,"zip":"98292","miles_from_dt":16.3},{"city":"North Lakewood","state_name":"Washington","lat":48.16499,"lng":-122.2992,"zip":"98259","miles_from_dt":16.39},{"city":"Snohomish","state_name":"Washington","lat":47.95141,"lng":-121.98421,"zip":"98290","miles_from_dt":17.93},{"city":"Everett","state_name":"Washington","lat":47.99373,"lng":-122.18563,"zip":"98201","miles_from_dt":18.47},{"city":"Everett","state_name":"Washington","lat":47.98793,"lng":-122.2229,"zip":"98207","miles_from_dt":19.85},{"city":"Conway","state_name":"Washington","lat":48.33563,"lng":-122.34444,"zip":"98238","miles_from_dt":20.13},{"city":"Everett","state_name":"Washington","lat":47.976,"lng":-122.21,"zip":"98213","miles_from_dt":20.13},{"city":"Snohomish","state_name":"Washington","lat":47.92897,"lng":-122.09989,"zip":"98291","miles_from_dt":20.6},{"city":"Clearlake","state_name":"Washington","lat":48.4602,"lng":-122.22846,"zip":"98235","miles_from_dt":21.51},{"city":"Hamilton","state_name":"Washington","lat":48.52353,"lng":-121.99203,"zip":"98255","miles_from_dt":21.75},{"city":"Everett","state_name":"Washington","lat":48.01447,"lng":-122.32201,"zip":"98206","miles_from_dt":21.85},{"city":"Lyman","state_name":"Washington","lat":48.52281,"lng":-122.0657,"zip":"98263","miles_from_dt":22.26},{"city":"Everett","state_name":"Washington","lat":47.94236,"lng":-122.23651,"zip":"98203","miles_from_dt":22.73},{"city":"Mount Vernon","state_name":"Washington","lat":48.40522,"lng":-122.36841,"zip":"98273","miles_from_dt":23.51},{"city":"Camano Island","state_name":"Washington","lat":48.18719,"lng":-122.46966,"zip":"98282","miles_from_dt":24.02},{"city":"Everett","state_name":"Washington","lat":47.90072,"lng":-122.18852,"zip":"98208","miles_from_dt":24.03},{"city":"Monroe","state_name":"Washington","lat":47.85834,"lng":-121.88457,"zip":"98272","miles_from_dt":24.49},{"city":"Sedro Woolley","state_name":"Washington","lat":48.55211,"lng":-122.11763,"zip":"98284","miles_from_dt":24.86},{"city":"Concrete","state_name":"Washington","lat":48.53272,"lng":-121.69748,"zip":"98237","miles_from_dt":25.17},{"city":"Startup","state_name":"Washington","lat":47.87181,"lng":-121.74655,"zip":"98293","miles_from_dt":25.21},{"city":"Everett","state_name":"Washington","lat":47.90105,"lng":-122.2586,"zip":"98204","miles_from_dt":25.67},{"city":"Langley","state_name":"Washington","lat":48.03074,"lng":-122.45106,"zip":"98260","miles_from_dt":26.25},{"city":"Mukilteo","state_name":"Washington","lat":47.90994,"lng":-122.30113,"zip":"98275","miles_from_dt":26.32},{"city":"Snohomish","state_name":"Washington","lat":47.84266,"lng":-122.10199,"zip":"98296","miles_from_dt":26.33},{"city":"Sultan","state_name":"Washington","lat":47.84431,"lng":-121.75822,"zip":"98294","miles_from_dt":26.79},{"city":"Clinton","state_name":"Washington","lat":47.95804,"lng":-122.40468,"zip":"98236","miles_from_dt":27.28},{"city":"Burlington","state_name":"Washington","lat":48.50309,"lng":-122.35102,"zip":"98233","miles_from_dt":27.38},{"city":"Mill Creek","state_name":"Washington","lat":47.85524,"lng":-122.22102,"zip":"98082","miles_from_dt":27.52},{"city":"Bothell","state_name":"Washington","lat":47.84205,"lng":-122.19813,"zip":"98012","miles_from_dt":27.88},{"city":"Lynnwood","state_name":"Washington","lat":47.8624,"lng":-122.2664,"zip":"98087","miles_from_dt":28.11},{"city":"Gold Bar","state_name":"Washington","lat":47.89812,"lng":-121.55752,"zip":"98251","miles_from_dt":28.21},{"city":"Darrington","state_name":"Washington","lat":48.21425,"lng":-121.33219,"zip":"98241","miles_from_dt":28.57},{"city":"La Conner","state_name":"Washington","lat":48.415,"lng":-122.50879,"zip":"98257","miles_from_dt":29.36},{"city":"Lynnwood","state_name":"Washington","lat":47.83873,"lng":-122.28463,"zip":"98037","miles_from_dt":29.95}],"targetCityZipCode":"98223","targetCityState":"Washington"},"__N_SSG":true}