{"pageProps":{"stateName":"Washington","cityName":"bucoda","nearbyCities":[{"city":"Tenino","state_name":"Washington","lat":46.84133,"lng":-122.82087,"zip":"98589","miles_from_dt":3.35},{"city":"Centralia","state_name":"Washington","lat":46.73646,"lng":-122.91364,"zip":"98531","miles_from_dt":5.22},{"city":"Galvin","state_name":"Washington","lat":46.73912,"lng":-123.02712,"zip":"98544","miles_from_dt":8.82},{"city":"Rainier","state_name":"Washington","lat":46.84417,"lng":-122.64687,"zip":"98576","miles_from_dt":10.83},{"city":"East Olympia","state_name":"Washington","lat":46.96339,"lng":-122.82376,"zip":"98540","miles_from_dt":11.13},{"city":"Rochester","state_name":"Washington","lat":46.79406,"lng":-123.11952,"zip":"98579","miles_from_dt":11.95},{"city":"Olympia","state_name":"Washington","lat":46.9783,"lng":-122.86989,"zip":"98501","miles_from_dt":11.96},{"city":"Tumwater","state_name":"Washington","lat":46.986,"lng":-122.906,"zip":"98511","miles_from_dt":12.62},{"city":"Olympia","state_name":"Washington","lat":46.95326,"lng":-123.04259,"zip":"98512","miles_from_dt":13.15},{"city":"Olympia","state_name":"Washington","lat":46.99733,"lng":-122.87474,"zip":"98599","miles_from_dt":13.28},{"city":"Littlerock","state_name":"Washington","lat":46.88565,"lng":-123.1409,"zip":"98556","miles_from_dt":14.08},{"city":"Chehalis","state_name":"Washington","lat":46.63628,"lng":-123.03444,"zip":"98532","miles_from_dt":14.09},{"city":"Olympia","state_name":"Washington","lat":46.99074,"lng":-122.73298,"zip":"98513","miles_from_dt":14.32},{"city":"Olympia","state_name":"Washington","lat":47.02112,"lng":-122.86804,"zip":"98504","miles_from_dt":14.92},{"city":"Lacey","state_name":"Washington","lat":47.02528,"lng":-122.799,"zip":"98503","miles_from_dt":15.55},{"city":"Olympia","state_name":"Washington","lat":47.03146,"lng":-122.87048,"zip":"98507","miles_from_dt":15.63},{"city":"Napavine","state_name":"Washington","lat":46.57838,"lng":-122.90693,"zip":"98565","miles_from_dt":15.78},{"city":"Onalaska","state_name":"Washington","lat":46.63556,"lng":-122.63534,"zip":"98570","miles_from_dt":16.11},{"city":"Lacey","state_name":"Washington","lat":47.03624,"lng":-122.81069,"zip":"98509","miles_from_dt":16.19},{"city":"Olympia","state_name":"Washington","lat":47.03552,"lng":-122.93659,"zip":"98508","miles_from_dt":16.24},{"city":"Mckenna","state_name":"Washington","lat":46.93579,"lng":-122.55998,"zip":"98558","miles_from_dt":17.16},{"city":"Yelm","state_name":"Washington","lat":46.85241,"lng":-122.49212,"zip":"98597","miles_from_dt":18.12},{"city":"Olympia","state_name":"Washington","lat":47.07321,"lng":-122.97358,"zip":"98505","miles_from_dt":19.18},{"city":"Ethel","state_name":"Washington","lat":46.5293,"lng":-122.73155,"zip":"98542","miles_from_dt":20.13},{"city":"Olympia","state_name":"Washington","lat":47.09647,"lng":-122.78265,"zip":"98516","miles_from_dt":20.52},{"city":"Olympia","state_name":"Washington","lat":47.10286,"lng":-122.87307,"zip":"98506","miles_from_dt":20.56},{"city":"Olympia","state_name":"Washington","lat":47.08466,"lng":-123.02958,"zip":"98502","miles_from_dt":20.76},{"city":"Oakville","state_name":"Washington","lat":46.86467,"lng":-123.30235,"zip":"98568","miles_from_dt":20.99},{"city":"Roy","state_name":"Washington","lat":46.9918,"lng":-122.50101,"zip":"98580","miles_from_dt":21.64},{"city":"Winlock","state_name":"Washington","lat":46.49556,"lng":-122.95364,"zip":"98596","miles_from_dt":21.77},{"city":"Doty","state_name":"Washington","lat":46.63772,"lng":-123.27315,"zip":"98539","miles_from_dt":22.45},{"city":"Cinebar","state_name":"Washington","lat":46.67304,"lng":-122.43115,"zip":"98533","miles_from_dt":22.67},{"city":"Dupont","state_name":"Washington","lat":47.10203,"lng":-122.66061,"zip":"98327","miles_from_dt":22.73},{"city":"Tacoma","state_name":"Washington","lat":47.05336,"lng":-122.55124,"zip":"98493","miles_from_dt":22.77},{"city":"Tacoma","state_name":"Washington","lat":47.05551,"lng":-122.55208,"zip":"98431","miles_from_dt":22.86},{"city":"Salkum","state_name":"Washington","lat":46.51686,"lng":-122.62693,"zip":"98582","miles_from_dt":22.98},{"city":"Tacoma","state_name":"Washington","lat":47.09121,"lng":-122.60772,"zip":"98433","miles_from_dt":23.28},{"city":"Malone","state_name":"Washington","lat":46.95884,"lng":-123.32749,"zip":"98559","miles_from_dt":24.21},{"city":"Silver Creek","state_name":"Washington","lat":46.55436,"lng":-122.5022,"zip":"98585","miles_from_dt":24.55},{"city":"Mccleary","state_name":"Washington","lat":47.04332,"lng":-123.2681,"zip":"98557","miles_from_dt":25.08},{"city":"Anderson Island","state_name":"Washington","lat":47.15783,"lng":-122.70387,"zip":"98303","miles_from_dt":25.57},{"city":"Toledo","state_name":"Washington","lat":46.44224,"lng":-122.74671,"zip":"98591","miles_from_dt":25.73},{"city":"Camp Murray","state_name":"Washington","lat":47.11733,"lng":-122.56896,"zip":"98430","miles_from_dt":25.79},{"city":"Adna","state_name":"Washington","lat":46.57414,"lng":-123.29683,"zip":"98522","miles_from_dt":25.89},{"city":"Curtis","state_name":"Washington","lat":46.47422,"lng":-123.15884,"zip":"98538","miles_from_dt":26.72},{"city":"Pe Ell","state_name":"Washington","lat":46.55256,"lng":-123.32429,"zip":"98572","miles_from_dt":27.84},{"city":"Longbranch","state_name":"Washington","lat":47.20353,"lng":-122.76773,"zip":"98351","miles_from_dt":27.92},{"city":"La Grande","state_name":"Washington","lat":46.81989,"lng":-122.27713,"zip":"98348","miles_from_dt":28.04},{"city":"Vader","state_name":"Washington","lat":46.40767,"lng":-123.00807,"zip":"98593","miles_from_dt":28.26},{"city":"Spanaway","state_name":"Washington","lat":47.0562,"lng":-122.39111,"zip":"98387","miles_from_dt":28.46},{"city":"Lakewood","state_name":"Washington","lat":47.16001,"lng":-122.55971,"zip":"98498","miles_from_dt":28.52},{"city":"Lakewood","state_name":"Washington","lat":47.13164,"lng":-122.49603,"zip":"98439","miles_from_dt":28.6},{"city":"Steilacoom","state_name":"Washington","lat":47.19892,"lng":-122.66268,"zip":"98388","miles_from_dt":28.88},{"city":"Mcchord Afb","state_name":"Washington","lat":47.13514,"lng":-122.49211,"zip":"98438","miles_from_dt":28.9},{"city":"Lakewood","state_name":"Washington","lat":47.17794,"lng":-122.54722,"zip":"98497","miles_from_dt":29.88}],"targetCityZipCode":"98530","targetCityState":"Washington"},"__N_SSG":true}