{"pageProps":{"stateName":"Washington","cityName":"curlew","nearbyCities":[{"city":"Malo","state_name":"Washington","lat":48.80622,"lng":-118.61071,"zip":"99150","miles_from_dt":6.43},{"city":"Danville","state_name":"Washington","lat":48.94382,"lng":-118.45568,"zip":"99121","miles_from_dt":8.9},{"city":"Wauconda","state_name":"Washington","lat":48.81181,"lng":-118.90871,"zip":"98859","miles_from_dt":13.69},{"city":"Orient","state_name":"Washington","lat":48.86895,"lng":-118.30122,"zip":"99160","miles_from_dt":15.47},{"city":"Laurier","state_name":"Washington","lat":48.95766,"lng":-118.29768,"zip":"99146","miles_from_dt":16.04},{"city":"Republic","state_name":"Washington","lat":48.61033,"lng":-118.6715,"zip":"99166","miles_from_dt":19.9},{"city":"Kettle Falls","state_name":"Washington","lat":48.72571,"lng":-118.17509,"zip":"99141","miles_from_dt":24.23},{"city":"Oroville","state_name":"Washington","lat":48.91618,"lng":-119.24767,"zip":"98844","miles_from_dt":27.8}],"targetCityZipCode":"99118","targetCityState":"Washington"},"__N_SSG":true}