{"pageProps":{"stateName":"Washington","cityName":"everson","nearbyCities":[{"city":"Nooksack","state_name":"Washington","lat":48.92765,"lng":-122.32096,"zip":"98276","miles_from_dt":1.6},{"city":"Sumas","state_name":"Washington","lat":48.97163,"lng":-122.2213,"zip":"98295","miles_from_dt":6.37},{"city":"Lynden","state_name":"Washington","lat":48.94972,"lng":-122.45672,"zip":"98264","miles_from_dt":7.07},{"city":"Bellingham","state_name":"Washington","lat":48.80007,"lng":-122.40786,"zip":"98227","miles_from_dt":8.32},{"city":"Bellingham","state_name":"Washington","lat":48.80064,"lng":-122.42299,"zip":"98226","miles_from_dt":8.65},{"city":"Maple Falls","state_name":"Washington","lat":48.9576,"lng":-122.06189,"zip":"98266","miles_from_dt":12.19},{"city":"Bellingham","state_name":"Washington","lat":48.74372,"lng":-122.46766,"zip":"98228","miles_from_dt":13.06},{"city":"Bellingham","state_name":"Washington","lat":48.75461,"lng":-122.50307,"zip":"98225","miles_from_dt":13.39},{"city":"Custer","state_name":"Washington","lat":48.94711,"lng":-122.62061,"zip":"98240","miles_from_dt":14.12},{"city":"Ferndale","state_name":"Washington","lat":48.86494,"lng":-122.62211,"zip":"98248","miles_from_dt":14.16},{"city":"Bellingham","state_name":"Washington","lat":48.69615,"lng":-122.40979,"zip":"98229","miles_from_dt":15.01},{"city":"Acme","state_name":"Washington","lat":48.68526,"lng":-122.19678,"zip":"98220","miles_from_dt":16.12},{"city":"Blaine","state_name":"Washington","lat":48.95688,"lng":-122.7084,"zip":"98230","miles_from_dt":18.17},{"city":"Deming","state_name":"Washington","lat":48.79423,"lng":-121.93557,"zip":"98244","miles_from_dt":19.01},{"city":"Blaine","state_name":"Washington","lat":48.98996,"lng":-122.7612,"zip":"98231","miles_from_dt":21.05},{"city":"Lummi Island","state_name":"Washington","lat":48.69317,"lng":-122.66406,"zip":"98262","miles_from_dt":21.54},{"city":"Bow","state_name":"Washington","lat":48.56531,"lng":-122.41498,"zip":"98232","miles_from_dt":23.87},{"city":"Sedro Woolley","state_name":"Washington","lat":48.55211,"lng":-122.11763,"zip":"98284","miles_from_dt":26.01},{"city":"Burlington","state_name":"Washington","lat":48.50309,"lng":-122.35102,"zip":"98233","miles_from_dt":27.79},{"city":"Olga","state_name":"Washington","lat":48.64474,"lng":-122.80602,"zip":"98279","miles_from_dt":28.65},{"city":"Lyman","state_name":"Washington","lat":48.52281,"lng":-122.0657,"zip":"98263","miles_from_dt":28.78}],"targetCityZipCode":"98247","targetCityState":"Washington"},"__N_SSG":true}