{"pageProps":{"stateName":"Washington","cityName":"marshall","nearbyCities":[{"city":"Four Lakes","state_name":"Washington","lat":47.56111,"lng":-117.59666,"zip":"99014","miles_from_dt":4.66},{"city":"Spokane","state_name":"Washington","lat":47.62975,"lng":-117.54236,"zip":"99219","miles_from_dt":5.07},{"city":"Spokane","state_name":"Washington","lat":47.64729,"lng":-117.53552,"zip":"99224","miles_from_dt":6.09},{"city":"Spokane","state_name":"Washington","lat":47.62945,"lng":-117.40291,"zip":"99203","miles_from_dt":6.35},{"city":"Airway Heights","state_name":"Washington","lat":47.63874,"lng":-117.58582,"zip":"99001","miles_from_dt":6.67},{"city":"Spokane","state_name":"Washington","lat":47.64726,"lng":-117.42665,"zip":"99204","miles_from_dt":6.68},{"city":"Spokane","state_name":"Washington","lat":47.65088,"lng":-117.42189,"zip":"99210","miles_from_dt":7},{"city":"Spokane","state_name":"Washington","lat":47.64887,"lng":-117.41245,"zip":"99220","miles_from_dt":7.12},{"city":"Spokane","state_name":"Washington","lat":47.66271,"lng":-117.43609,"zip":"99201","miles_from_dt":7.44},{"city":"Spokane","state_name":"Washington","lat":47.66255,"lng":-117.42316,"zip":"99256","miles_from_dt":7.69},{"city":"Spokane","state_name":"Washington","lat":47.66346,"lng":-117.42294,"zip":"99260","miles_from_dt":7.75},{"city":"Spokane","state_name":"Washington","lat":47.58876,"lng":-117.334,"zip":"99223","miles_from_dt":7.82},{"city":"Fairchild Air Force Base","state_name":"Washington","lat":47.61867,"lng":-117.64839,"zip":"99011","miles_from_dt":8.05},{"city":"Spokane","state_name":"Washington","lat":47.66612,"lng":-117.40246,"zip":"99258","miles_from_dt":8.37},{"city":"Spokane","state_name":"Washington","lat":47.65709,"lng":-117.37854,"zip":"99202","miles_from_dt":8.53},{"city":"Spokane","state_name":"Washington","lat":47.65726,"lng":-117.37767,"zip":"99252","miles_from_dt":8.57},{"city":"Spokane","state_name":"Washington","lat":47.69657,"lng":-117.44609,"zip":"99205","miles_from_dt":9.52},{"city":"Spokane","state_name":"Washington","lat":47.69904,"lng":-117.44508,"zip":"99209","miles_from_dt":9.7},{"city":"Spokane","state_name":"Washington","lat":47.68941,"lng":-117.38911,"zip":"99207","miles_from_dt":10.07},{"city":"Medical Lake","state_name":"Washington","lat":47.60084,"lng":-117.70869,"zip":"99022","miles_from_dt":10.23},{"city":"Valleyford","state_name":"Washington","lat":47.52005,"lng":-117.27197,"zip":"99036","miles_from_dt":10.94},{"city":"Spokane","state_name":"Washington","lat":47.6653,"lng":-117.31012,"zip":"99211","miles_from_dt":11.23},{"city":"Spokane","state_name":"Washington","lat":47.66504,"lng":-117.30914,"zip":"99212","miles_from_dt":11.25},{"city":"Spokane","state_name":"Washington","lat":47.65658,"lng":-117.2911,"zip":"99213","miles_from_dt":11.59},{"city":"Spangle","state_name":"Washington","lat":47.41973,"lng":-117.35991,"zip":"99031","miles_from_dt":11.81},{"city":"Spokane","state_name":"Washington","lat":47.62755,"lng":-117.25448,"zip":"99206","miles_from_dt":12.18},{"city":"Cheney","state_name":"Washington","lat":47.40869,"lng":-117.63575,"zip":"99004","miles_from_dt":12.49},{"city":"Spokane","state_name":"Washington","lat":47.75385,"lng":-117.41797,"zip":"99251","miles_from_dt":13.68},{"city":"Spokane","state_name":"Washington","lat":47.75894,"lng":-117.4087,"zip":"99218","miles_from_dt":14.14},{"city":"Veradale","state_name":"Washington","lat":47.63734,"lng":-117.19756,"zip":"99037","miles_from_dt":14.9},{"city":"Spokane","state_name":"Washington","lat":47.78071,"lng":-117.46135,"zip":"99208","miles_from_dt":15.12},{"city":"Spokane","state_name":"Washington","lat":47.68142,"lng":-117.20826,"zip":"99216","miles_from_dt":15.77},{"city":"Spokane","state_name":"Washington","lat":47.69087,"lng":-117.20983,"zip":"99215","miles_from_dt":16.06},{"city":"Spokane","state_name":"Washington","lat":47.7406,"lng":-117.26241,"zip":"99217","miles_from_dt":16.44},{"city":"Mica","state_name":"Washington","lat":47.56474,"lng":-117.14466,"zip":"99023","miles_from_dt":16.48},{"city":"Greenacres","state_name":"Washington","lat":47.6217,"lng":-117.14623,"zip":"99016","miles_from_dt":16.89},{"city":"Spokane","state_name":"Washington","lat":47.71139,"lng":-117.20677,"zip":"99214","miles_from_dt":16.99},{"city":"Spokane","state_name":"Washington","lat":47.79976,"lng":-117.38468,"zip":"99228","miles_from_dt":17.17},{"city":"Nine Mile Falls","state_name":"Washington","lat":47.80375,"lng":-117.625,"zip":"99026","miles_from_dt":17.66},{"city":"Reardan","state_name":"Washington","lat":47.70639,"lng":-117.82406,"zip":"99029","miles_from_dt":18.2},{"city":"Rockford","state_name":"Washington","lat":47.47782,"lng":-117.11302,"zip":"99030","miles_from_dt":18.91},{"city":"Fairfield","state_name":"Washington","lat":47.38137,"lng":-117.19145,"zip":"99012","miles_from_dt":19.04},{"city":"Waverly","state_name":"Washington","lat":47.33808,"lng":-117.23131,"zip":"99039","miles_from_dt":19.92},{"city":"Otis Orchards","state_name":"Washington","lat":47.71107,"lng":-117.12795,"zip":"99027","miles_from_dt":20.04},{"city":"Colbert","state_name":"Washington","lat":47.84405,"lng":-117.36346,"zip":"99005","miles_from_dt":20.38},{"city":"Liberty Lake","state_name":"Washington","lat":47.64222,"lng":-117.07688,"zip":"99019","miles_from_dt":20.38},{"city":"Edwall","state_name":"Washington","lat":47.50449,"lng":-117.93533,"zip":"99008","miles_from_dt":20.9},{"city":"Rosalia","state_name":"Washington","lat":47.25132,"lng":-117.40203,"zip":"99170","miles_from_dt":22},{"city":"Malden","state_name":"Washington","lat":47.225,"lng":-117.46794,"zip":"99149","miles_from_dt":23.4},{"city":"Mead","state_name":"Washington","lat":47.84951,"lng":-117.18721,"zip":"99021","miles_from_dt":24.5},{"city":"Newman Lake","state_name":"Washington","lat":47.78963,"lng":-117.08751,"zip":"99025","miles_from_dt":24.7},{"city":"Latah","state_name":"Washington","lat":47.2917,"lng":-117.15212,"zip":"99018","miles_from_dt":24.76},{"city":"Tumtum","state_name":"Washington","lat":47.8862,"lng":-117.76245,"zip":"99034","miles_from_dt":25.52},{"city":"Chattaroy","state_name":"Washington","lat":47.91997,"lng":-117.27608,"zip":"99003","miles_from_dt":26.72},{"city":"Post Falls","state_name":"Idaho","lat":47.7267,"lng":-116.97511,"zip":"83854","miles_from_dt":26.86},{"city":"Deer Park","state_name":"Washington","lat":47.95208,"lng":-117.51016,"zip":"99006","miles_from_dt":26.88},{"city":"Ford","state_name":"Washington","lat":47.88498,"lng":-117.83495,"zip":"99013","miles_from_dt":27.25},{"city":"Worley","state_name":"Idaho","lat":47.44842,"lng":-116.93161,"zip":"83876","miles_from_dt":27.63},{"city":"Post Falls","state_name":"Idaho","lat":47.71486,"lng":-116.94554,"zip":"83877","miles_from_dt":27.8},{"city":"Tekoa","state_name":"Washington","lat":47.23061,"lng":-117.09782,"zip":"99033","miles_from_dt":29.64}],"targetCityZipCode":"99020","targetCityState":"Washington"},"__N_SSG":true}