{"pageProps":{"stateName":"Washington","cityName":"medina","nearbyCities":[{"city":"Bellevue","state_name":"Washington","lat":47.62002,"lng":-122.20499,"zip":"98015","miles_from_dt":1.85},{"city":"Bellevue","state_name":"Washington","lat":47.61865,"lng":-122.20548,"zip":"98004","miles_from_dt":1.88},{"city":"Bellevue","state_name":"Washington","lat":47.61802,"lng":-122.20183,"zip":"98009","miles_from_dt":2.05},{"city":"Seattle","state_name":"Washington","lat":47.63242,"lng":-122.28732,"zip":"98112","miles_from_dt":2.23},{"city":"Seattle","state_name":"Washington","lat":47.66094,"lng":-122.28321,"zip":"98105","miles_from_dt":2.8},{"city":"Seattle","state_name":"Washington","lat":47.60985,"lng":-122.29569,"zip":"98122","miles_from_dt":3.07},{"city":"Seattle","state_name":"Washington","lat":47.66528,"lng":-122.29198,"zip":"98185","miles_from_dt":3.3},{"city":"Seattle","state_name":"Washington","lat":47.65466,"lng":-122.30752,"zip":"98195","miles_from_dt":3.5},{"city":"Bellevue","state_name":"Washington","lat":47.61494,"lng":-122.16814,"zip":"98005","miles_from_dt":3.57},{"city":"Kirkland","state_name":"Washington","lat":47.67616,"lng":-122.19267,"zip":"98033","miles_from_dt":3.7},{"city":"Seattle","state_name":"Washington","lat":47.65861,"lng":-122.31248,"zip":"98145","miles_from_dt":3.83},{"city":"Seattle","state_name":"Washington","lat":47.63627,"lng":-122.32337,"zip":"98102","miles_from_dt":3.92},{"city":"Seattle","state_name":"Washington","lat":47.58582,"lng":-122.29205,"zip":"98144","miles_from_dt":4.08},{"city":"Kirkland","state_name":"Washington","lat":47.68257,"lng":-122.19107,"zip":"98083","miles_from_dt":4.1},{"city":"Seattle","state_name":"Washington","lat":47.68547,"lng":-122.28234,"zip":"98115","miles_from_dt":4.13},{"city":"Seattle","state_name":"Washington","lat":47.60639,"lng":-122.33083,"zip":"98127","miles_from_dt":4.64},{"city":"Mercer Island","state_name":"Washington","lat":47.56611,"lng":-122.232,"zip":"98040","miles_from_dt":4.64},{"city":"Seattle","state_name":"Washington","lat":47.61361,"lng":-122.33502,"zip":"98191","miles_from_dt":4.65},{"city":"Seattle","state_name":"Washington","lat":47.60356,"lng":-122.32944,"zip":"98175","miles_from_dt":4.66},{"city":"Seattle","state_name":"Washington","lat":47.60356,"lng":-122.32944,"zip":"98165","miles_from_dt":4.66},{"city":"Bellevue","state_name":"Washington","lat":47.61392,"lng":-122.14378,"zip":"98007","miles_from_dt":4.67},{"city":"Seattle","state_name":"Washington","lat":47.61119,"lng":-122.33454,"zip":"98101","miles_from_dt":4.68},{"city":"Seattle","state_name":"Washington","lat":47.60596,"lng":-122.33203,"zip":"98164","miles_from_dt":4.71},{"city":"Seattle","state_name":"Washington","lat":47.61024,"lng":-122.3347,"zip":"98111","miles_from_dt":4.71},{"city":"Seattle","state_name":"Washington","lat":47.61511,"lng":-122.33819,"zip":"98129","miles_from_dt":4.77},{"city":"Seattle","state_name":"Washington","lat":47.60621,"lng":-122.33379,"zip":"98154","miles_from_dt":4.77},{"city":"Seattle","state_name":"Washington","lat":47.60044,"lng":-122.33004,"zip":"98104","miles_from_dt":4.79},{"city":"Seattle","state_name":"Washington","lat":47.609,"lng":-122.337,"zip":"98141","miles_from_dt":4.84},{"city":"Seattle","state_name":"Washington","lat":47.60955,"lng":-122.33761,"zip":"98161","miles_from_dt":4.86},{"city":"Seattle","state_name":"Washington","lat":47.60477,"lng":-122.33528,"zip":"98174","miles_from_dt":4.88},{"city":"Seattle","state_name":"Washington","lat":47.61,"lng":-122.339,"zip":"98170","miles_from_dt":4.91},{"city":"Seattle","state_name":"Washington","lat":47.63128,"lng":-122.34486,"zip":"98109","miles_from_dt":4.92},{"city":"Seattle","state_name":"Washington","lat":47.599,"lng":-122.334,"zip":"98194","miles_from_dt":5},{"city":"Seattle","state_name":"Washington","lat":47.61073,"lng":-122.3414,"zip":"98181","miles_from_dt":5},{"city":"Seattle","state_name":"Washington","lat":47.58006,"lng":-122.31255,"zip":"98114","miles_from_dt":5},{"city":"Seattle","state_name":"Washington","lat":47.61548,"lng":-122.34668,"zip":"98121","miles_from_dt":5.15},{"city":"Seattle","state_name":"Washington","lat":47.6732,"lng":-122.34258,"zip":"98103","miles_from_dt":5.55},{"city":"Seattle","state_name":"Washington","lat":47.67513,"lng":-122.34416,"zip":"98113","miles_from_dt":5.68},{"city":"Seattle","state_name":"Washington","lat":47.57722,"lng":-122.33354,"zip":"98124","miles_from_dt":5.84},{"city":"Kirkland","state_name":"Washington","lat":47.71612,"lng":-122.21332,"zip":"98034","miles_from_dt":5.87},{"city":"Seattle","state_name":"Washington","lat":47.57691,"lng":-122.33686,"zip":"98134","miles_from_dt":5.97},{"city":"Seattle","state_name":"Washington","lat":47.63943,"lng":-122.36932,"zip":"98119","miles_from_dt":6.07},{"city":"Bellevue","state_name":"Washington","lat":47.60551,"lng":-122.11219,"zip":"98008","miles_from_dt":6.25},{"city":"Seattle","state_name":"Washington","lat":47.54235,"lng":-122.26872,"zip":"98118","miles_from_dt":6.41},{"city":"Seattle","state_name":"Washington","lat":47.71706,"lng":-122.29969,"zip":"98125","miles_from_dt":6.44},{"city":"Redmond","state_name":"Washington","lat":47.68148,"lng":-122.1203,"zip":"98052","miles_from_dt":6.5},{"city":"Redmond","state_name":"Washington","lat":47.67656,"lng":-122.11487,"zip":"98073","miles_from_dt":6.55},{"city":"Bellevue","state_name":"Washington","lat":47.55772,"lng":-122.14957,"zip":"98006","miles_from_dt":6.69},{"city":"Seattle","state_name":"Washington","lat":47.66757,"lng":-122.37789,"zip":"98107","miles_from_dt":6.88},{"city":"Seattle","state_name":"Washington","lat":47.54113,"lng":-122.3126,"zip":"98108","miles_from_dt":7.21},{"city":"Seattle","state_name":"Washington","lat":47.64,"lng":-122.398,"zip":"98139","miles_from_dt":7.41},{"city":"Seattle","state_name":"Washington","lat":47.6882,"lng":-122.38157,"zip":"98117","miles_from_dt":7.64},{"city":"Seattle","state_name":"Washington","lat":47.65139,"lng":-122.40223,"zip":"98199","miles_from_dt":7.7},{"city":"Seattle","state_name":"Washington","lat":47.54339,"lng":-122.35366,"zip":"98106","miles_from_dt":8.17},{"city":"Kenmore","state_name":"Washington","lat":47.75162,"lng":-122.24892,"zip":"98028","miles_from_dt":8.2},{"city":"Seattle","state_name":"Washington","lat":47.57399,"lng":-122.39503,"zip":"98116","miles_from_dt":8.33},{"city":"Bothell","state_name":"Washington","lat":47.75402,"lng":-122.21613,"zip":"98041","miles_from_dt":8.43},{"city":"Renton","state_name":"Washington","lat":47.51281,"lng":-122.18923,"zip":"98056","miles_from_dt":8.64},{"city":"Seattle","state_name":"Washington","lat":47.54732,"lng":-122.37454,"zip":"98126","miles_from_dt":8.65},{"city":"Bothell","state_name":"Washington","lat":47.75736,"lng":-122.19871,"zip":"98011","miles_from_dt":8.8},{"city":"Seattle","state_name":"Washington","lat":47.7399,"lng":-122.34432,"zip":"98133","miles_from_dt":8.85},{"city":"Seattle","state_name":"Washington","lat":47.75609,"lng":-122.30039,"zip":"98155","miles_from_dt":8.96},{"city":"Sammamish","state_name":"Washington","lat":47.62206,"lng":-122.04437,"zip":"98074","miles_from_dt":9.15},{"city":"Seattle","state_name":"Washington","lat":47.49921,"lng":-122.24735,"zip":"98178","miles_from_dt":9.26},{"city":"Seattle","state_name":"Washington","lat":47.50389,"lng":-122.29497,"zip":"98190","miles_from_dt":9.29},{"city":"Seattle","state_name":"Washington","lat":47.53686,"lng":-122.38992,"zip":"98136","miles_from_dt":9.67},{"city":"Seattle","state_name":"Washington","lat":47.74237,"lng":-122.37085,"zip":"98177","miles_from_dt":9.72},{"city":"Sammamish","state_name":"Washington","lat":47.58683,"lng":-122.03796,"zip":"98075","miles_from_dt":9.95},{"city":"Woodinville","state_name":"Washington","lat":47.76151,"lng":-122.13153,"zip":"98072","miles_from_dt":10.21},{"city":"Seattle","state_name":"Washington","lat":47.48898,"lng":-122.30175,"zip":"98168","miles_from_dt":10.37},{"city":"Redmond","state_name":"Washington","lat":47.66491,"lng":-122.02071,"zip":"98053","miles_from_dt":10.45},{"city":"Seattle","state_name":"Washington","lat":47.50008,"lng":-122.35768,"zip":"98146","miles_from_dt":10.72},{"city":"Renton","state_name":"Washington","lat":47.49563,"lng":-122.12474,"zip":"98059","miles_from_dt":10.91},{"city":"Seattle","state_name":"Washington","lat":47.47417,"lng":-122.25972,"zip":"98138","miles_from_dt":11.02},{"city":"Bothell","state_name":"Washington","lat":47.79257,"lng":-122.20846,"zip":"98021","miles_from_dt":11.11},{"city":"Renton","state_name":"Washington","lat":47.47188,"lng":-122.21961,"zip":"98057","miles_from_dt":11.18},{"city":"Mountlake Terrace","state_name":"Washington","lat":47.7921,"lng":-122.30758,"zip":"98043","miles_from_dt":11.43},{"city":"Seattle","state_name":"Washington","lat":47.46859,"lng":-122.29188,"zip":"98131","miles_from_dt":11.62},{"city":"Seattle","state_name":"Washington","lat":47.77112,"lng":-122.38237,"zip":"98160","miles_from_dt":11.63},{"city":"Woodinville","state_name":"Washington","lat":47.75263,"lng":-122.05754,"zip":"98077","miles_from_dt":11.85},{"city":"Issaquah","state_name":"Washington","lat":47.5576,"lng":-122.0091,"zip":"98029","miles_from_dt":11.97},{"city":"Lynnwood","state_name":"Washington","lat":47.81094,"lng":-122.28155,"zip":"98036","miles_from_dt":12.44},{"city":"Seahurst","state_name":"Washington","lat":47.46914,"lng":-122.36002,"zip":"98062","miles_from_dt":12.65},{"city":"Renton","state_name":"Washington","lat":47.44775,"lng":-122.20205,"zip":"98055","miles_from_dt":12.92},{"city":"Seattle","state_name":"Washington","lat":47.44754,"lng":-122.27398,"zip":"98188","miles_from_dt":12.92},{"city":"Seattle","state_name":"Washington","lat":47.45043,"lng":-122.30805,"zip":"98158","miles_from_dt":13.02},{"city":"Edmonds","state_name":"Washington","lat":47.80015,"lng":-122.37267,"zip":"98020","miles_from_dt":13.1},{"city":"Seattle","state_name":"Washington","lat":47.45256,"lng":-122.34978,"zip":"98166","miles_from_dt":13.49},{"city":"Manchester","state_name":"Washington","lat":47.53885,"lng":-122.49294,"zip":"98353","miles_from_dt":13.51},{"city":"Seattle","state_name":"Washington","lat":47.44494,"lng":-122.32587,"zip":"98148","miles_from_dt":13.61},{"city":"Lynnwood","state_name":"Washington","lat":47.83017,"lng":-122.30401,"zip":"98046","miles_from_dt":13.94},{"city":"Bainbridge Island","state_name":"Washington","lat":47.64389,"lng":-122.54335,"zip":"98110","miles_from_dt":14.2},{"city":"Issaquah","state_name":"Washington","lat":47.50387,"lng":-122.00176,"zip":"98027","miles_from_dt":14.26},{"city":"Renton","state_name":"Washington","lat":47.44082,"lng":-122.12503,"zip":"98058","miles_from_dt":14.32},{"city":"Lynnwood","state_name":"Washington","lat":47.83873,"lng":-122.28463,"zip":"98037","miles_from_dt":14.36},{"city":"Rollingbay","state_name":"Washington","lat":47.65218,"lng":-122.54899,"zip":"98061","miles_from_dt":14.5},{"city":"Bothell","state_name":"Washington","lat":47.84205,"lng":-122.19813,"zip":"98012","miles_from_dt":14.57},{"city":"Edmonds","state_name":"Washington","lat":47.83555,"lng":-122.3316,"zip":"98026","miles_from_dt":14.63},{"city":"Southworth","state_name":"Washington","lat":47.50945,"lng":-122.50156,"zip":"98386","miles_from_dt":14.93},{"city":"Preston","state_name":"Washington","lat":47.54764,"lng":-121.93663,"zip":"98050","miles_from_dt":15.34},{"city":"Mill Creek","state_name":"Washington","lat":47.85524,"lng":-122.22102,"zip":"98082","miles_from_dt":15.37},{"city":"Indianola","state_name":"Washington","lat":47.75475,"lng":-122.51952,"zip":"98342","miles_from_dt":15.53},{"city":"Snohomish","state_name":"Washington","lat":47.84266,"lng":-122.10199,"zip":"98296","miles_from_dt":15.84},{"city":"Kent","state_name":"Washington","lat":47.4055,"lng":-122.1943,"zip":"98031","miles_from_dt":15.86},{"city":"Lynnwood","state_name":"Washington","lat":47.8624,"lng":-122.2664,"zip":"98087","miles_from_dt":15.89},{"city":"South Colby","state_name":"Washington","lat":47.51947,"lng":-122.53895,"zip":"98384","miles_from_dt":16.04},{"city":"Duvall","state_name":"Washington","lat":47.74083,"lng":-121.93494,"zip":"98019","miles_from_dt":16.05},{"city":"Fall City","state_name":"Washington","lat":47.57301,"lng":-121.90219,"zip":"98024","miles_from_dt":16.3},{"city":"Kent","state_name":"Washington","lat":47.3959,"lng":-122.2392,"zip":"98064","miles_from_dt":16.39},{"city":"Suquamish","state_name":"Washington","lat":47.73425,"lng":-122.5631,"zip":"98392","miles_from_dt":16.63},{"city":"Kent","state_name":"Washington","lat":47.3922,"lng":-122.25819,"zip":"98032","miles_from_dt":16.66},{"city":"Seattle","state_name":"Washington","lat":47.39469,"lng":-122.31111,"zip":"98198","miles_from_dt":16.81},{"city":"Kent","state_name":"Washington","lat":47.387,"lng":-122.198,"zip":"98089","miles_from_dt":17.11},{"city":"Kent","state_name":"Washington","lat":47.38564,"lng":-122.20189,"zip":"98035","miles_from_dt":17.19},{"city":"Port Orchard","state_name":"Washington","lat":47.53732,"lng":-122.58647,"zip":"98366","miles_from_dt":17.51},{"city":"Bremerton","state_name":"Washington","lat":47.58939,"lng":-122.6175,"zip":"98310","miles_from_dt":17.91},{"city":"Kent","state_name":"Washington","lat":47.36817,"lng":-122.19749,"zip":"98030","miles_from_dt":18.41},{"city":"Keyport","state_name":"Washington","lat":47.69972,"lng":-122.62366,"zip":"98345","miles_from_dt":18.5},{"city":"Everett","state_name":"Washington","lat":47.90105,"lng":-122.2586,"zip":"98204","miles_from_dt":18.53},{"city":"Bremerton","state_name":"Washington","lat":47.62829,"lng":-122.63793,"zip":"98311","miles_from_dt":18.6},{"city":"Everett","state_name":"Washington","lat":47.90072,"lng":-122.18852,"zip":"98208","miles_from_dt":18.64},{"city":"Retsil","state_name":"Washington","lat":47.54489,"lng":-122.618,"zip":"98378","miles_from_dt":18.7},{"city":"Vashon","state_name":"Washington","lat":47.41219,"lng":-122.4726,"zip":"98070","miles_from_dt":18.75},{"city":"Kingston","state_name":"Washington","lat":47.82005,"lng":-122.53399,"zip":"98346","miles_from_dt":18.84},{"city":"Bremerton","state_name":"Washington","lat":47.56345,"lng":-122.63405,"zip":"98337","miles_from_dt":19.05},{"city":"Carnation","state_name":"Washington","lat":47.69664,"lng":-121.84024,"zip":"98014","miles_from_dt":19.15},{"city":"Hobart","state_name":"Washington","lat":47.43441,"lng":-121.9524,"zip":"98025","miles_from_dt":19.21},{"city":"Tracyton","state_name":"Washington","lat":47.62011,"lng":-122.65127,"zip":"98393","miles_from_dt":19.25},{"city":"Bremerton","state_name":"Washington","lat":47.56243,"lng":-122.63893,"zip":"98314","miles_from_dt":19.29},{"city":"Mukilteo","state_name":"Washington","lat":47.90994,"lng":-122.30113,"zip":"98275","miles_from_dt":19.34},{"city":"Kent","state_name":"Washington","lat":47.36508,"lng":-122.11623,"zip":"98042","miles_from_dt":19.4},{"city":"Poulsbo","state_name":"Washington","lat":47.75114,"lng":-122.62373,"zip":"98370","miles_from_dt":19.69},{"city":"Burton","state_name":"Washington","lat":47.38908,"lng":-122.4594,"zip":"98013","miles_from_dt":19.75},{"city":"Maple Valley","state_name":"Washington","lat":47.41861,"lng":-121.95589,"zip":"98038","miles_from_dt":19.9},{"city":"Olalla","state_name":"Washington","lat":47.43047,"lng":-122.57631,"zip":"98359","miles_from_dt":21.07},{"city":"Snoqualmie","state_name":"Washington","lat":47.59234,"lng":-121.78931,"zip":"98065","miles_from_dt":21.22},{"city":"Everett","state_name":"Washington","lat":47.94236,"lng":-122.23651,"zip":"98203","miles_from_dt":21.37},{"city":"Snohomish","state_name":"Washington","lat":47.92897,"lng":-122.09989,"zip":"98291","miles_from_dt":21.45},{"city":"Port Gamble","state_name":"Washington","lat":47.85455,"lng":-122.58638,"zip":"98364","miles_from_dt":22.25},{"city":"Silverdale","state_name":"Washington","lat":47.66212,"lng":-122.71652,"zip":"98383","miles_from_dt":22.35},{"city":"Auburn","state_name":"Washington","lat":47.30919,"lng":-122.26426,"zip":"98001","miles_from_dt":22.41},{"city":"Auburn","state_name":"Washington","lat":47.3082,"lng":-122.21567,"zip":"98002","miles_from_dt":22.47},{"city":"Monroe","state_name":"Washington","lat":47.85834,"lng":-121.88457,"zip":"98272","miles_from_dt":22.71},{"city":"Federal Way","state_name":"Washington","lat":47.30596,"lng":-122.31465,"zip":"98003","miles_from_dt":22.87},{"city":"Federal Way","state_name":"Washington","lat":47.30555,"lng":-122.3209,"zip":"98063","miles_from_dt":22.95},{"city":"Silverdale","state_name":"Washington","lat":47.72263,"lng":-122.71444,"zip":"98315","miles_from_dt":23},{"city":"Federal Way","state_name":"Washington","lat":47.30881,"lng":-122.36198,"zip":"98023","miles_from_dt":23.12},{"city":"Federal Way","state_name":"Washington","lat":47.30195,"lng":-122.35883,"zip":"98093","miles_from_dt":23.55},{"city":"Port Orchard","state_name":"Washington","lat":47.46141,"lng":-122.67662,"zip":"98367","miles_from_dt":23.63},{"city":"Clinton","state_name":"Washington","lat":47.95804,"lng":-122.40468,"zip":"98236","miles_from_dt":23.73},{"city":"Everett","state_name":"Washington","lat":47.976,"lng":-122.21,"zip":"98213","miles_from_dt":23.73},{"city":"Burley","state_name":"Washington","lat":47.41229,"lng":-122.62983,"zip":"98322","miles_from_dt":23.79},{"city":"Hansville","state_name":"Washington","lat":47.90622,"lng":-122.56406,"zip":"98340","miles_from_dt":24.17},{"city":"Auburn","state_name":"Washington","lat":47.28851,"lng":-122.13123,"zip":"98092","miles_from_dt":24.34},{"city":"Everett","state_name":"Washington","lat":47.98793,"lng":-122.2229,"zip":"98207","miles_from_dt":24.53},{"city":"Bremerton","state_name":"Washington","lat":47.56435,"lng":-122.75706,"zip":"98312","miles_from_dt":24.64},{"city":"Tacoma","state_name":"Washington","lat":47.28907,"lng":-122.39123,"zip":"98422","miles_from_dt":24.8},{"city":"Black Diamond","state_name":"Washington","lat":47.31173,"lng":-122.00326,"zip":"98010","miles_from_dt":24.81},{"city":"Snohomish","state_name":"Washington","lat":47.95141,"lng":-121.98421,"zip":"98290","miles_from_dt":25},{"city":"Gig Harbor","state_name":"Washington","lat":47.36514,"lng":-122.59858,"zip":"98332","miles_from_dt":25},{"city":"Everett","state_name":"Washington","lat":47.99373,"lng":-122.18563,"zip":"98201","miles_from_dt":25.04},{"city":"Pacific","state_name":"Washington","lat":47.26079,"lng":-122.24822,"zip":"98047","miles_from_dt":25.72},{"city":"Ravensdale","state_name":"Washington","lat":47.3396,"lng":-121.89049,"zip":"98051","miles_from_dt":26.05},{"city":"Everett","state_name":"Washington","lat":48.01447,"lng":-122.32201,"zip":"98206","miles_from_dt":26.63},{"city":"Milton","state_name":"Washington","lat":47.25113,"lng":-122.31557,"zip":"98354","miles_from_dt":26.63},{"city":"Sultan","state_name":"Washington","lat":47.84431,"lng":-121.75822,"zip":"98294","miles_from_dt":26.76},{"city":"Tacoma","state_name":"Washington","lat":47.28889,"lng":-122.5111,"zip":"98407","miles_from_dt":26.97},{"city":"Tacoma","state_name":"Washington","lat":47.25819,"lng":-122.40107,"zip":"98421","miles_from_dt":26.98},{"city":"Auburn","state_name":"Washington","lat":47.24877,"lng":-122.11685,"zip":"98071","miles_from_dt":27.17},{"city":"Tacoma","state_name":"Washington","lat":47.26581,"lng":-122.45921,"zip":"98403","miles_from_dt":27.38},{"city":"Tacoma","state_name":"Washington","lat":47.25587,"lng":-122.44165,"zip":"98401","miles_from_dt":27.73},{"city":"Tacoma","state_name":"Washington","lat":47.26271,"lng":-122.48196,"zip":"98416","miles_from_dt":27.99},{"city":"Fife","state_name":"Washington","lat":47.2343,"lng":-122.3523,"zip":"98424","miles_from_dt":28.05},{"city":"Tacoma","state_name":"Washington","lat":47.25021,"lng":-122.44056,"zip":"98402","miles_from_dt":28.08},{"city":"Port Ludlow","state_name":"Washington","lat":47.89545,"lng":-122.70271,"zip":"98365","miles_from_dt":28.18},{"city":"Tacoma","state_name":"Washington","lat":47.25028,"lng":-122.44876,"zip":"98415","miles_from_dt":28.2},{"city":"Startup","state_name":"Washington","lat":47.87181,"lng":-121.74655,"zip":"98293","miles_from_dt":28.28},{"city":"Wauna","state_name":"Washington","lat":47.36328,"lng":-122.70006,"zip":"98395","miles_from_dt":28.5},{"city":"Tacoma","state_name":"Washington","lat":47.26283,"lng":-122.50857,"zip":"98406","miles_from_dt":28.51},{"city":"Tacoma","state_name":"Washington","lat":47.25251,"lng":-122.47648,"zip":"98471","miles_from_dt":28.54},{"city":"Lake Stevens","state_name":"Washington","lat":48.03252,"lng":-122.07762,"zip":"98258","miles_from_dt":28.61},{"city":"Gig Harbor","state_name":"Washington","lat":47.37731,"lng":-122.72523,"zip":"98329","miles_from_dt":28.79},{"city":"Tacoma","state_name":"Washington","lat":47.24599,"lng":-122.47222,"zip":"98405","miles_from_dt":28.88},{"city":"Sumner","state_name":"Washington","lat":47.21195,"lng":-122.22894,"zip":"98390","miles_from_dt":29.1},{"city":"Gig Harbor","state_name":"Washington","lat":47.29909,"lng":-122.61911,"zip":"98335","miles_from_dt":29.13},{"city":"North Bend","state_name":"Washington","lat":47.48276,"lng":-121.65678,"zip":"98045","miles_from_dt":29.17},{"city":"Langley","state_name":"Washington","lat":48.03074,"lng":-122.45106,"zip":"98260","miles_from_dt":29.18},{"city":"Puyallup","state_name":"Washington","lat":47.2064,"lng":-122.26689,"zip":"98372","miles_from_dt":29.5},{"city":"Marysville","state_name":"Washington","lat":48.05952,"lng":-122.1443,"zip":"98270","miles_from_dt":29.79},{"city":"Tacoma","state_name":"Washington","lat":47.24868,"lng":-122.53043,"zip":"98465","miles_from_dt":29.85},{"city":"Tacoma","state_name":"Washington","lat":47.22325,"lng":-122.44642,"zip":"98418","miles_from_dt":29.93}],"targetCityZipCode":"98039","targetCityState":"Washington"},"__N_SSG":true}