{"pageProps":{"stateName":"Washington","cityName":"packwood","nearbyCities":[{"city":"Paradise Inn","state_name":"Washington","lat":46.78268,"lng":-121.74271,"zip":"98398","miles_from_dt":13.66},{"city":"Longmire","state_name":"Washington","lat":46.75076,"lng":-121.812,"zip":"98397","miles_from_dt":14.53},{"city":"Randle","state_name":"Washington","lat":46.50586,"lng":-121.81912,"zip":"98377","miles_from_dt":14.8},{"city":"Ashford","state_name":"Washington","lat":46.87036,"lng":-121.73985,"zip":"98304","miles_from_dt":18.72},{"city":"Naches","state_name":"Washington","lat":46.77523,"lng":-121.17808,"zip":"98937","miles_from_dt":20.97},{"city":"Mineral","state_name":"Washington","lat":46.69179,"lng":-122.03978,"zip":"98355","miles_from_dt":23.06},{"city":"Glenoma","state_name":"Washington","lat":46.56382,"lng":-122.10939,"zip":"98336","miles_from_dt":26.35},{"city":"Elbe","state_name":"Washington","lat":46.75874,"lng":-122.15894,"zip":"98330","miles_from_dt":29.69}],"targetCityZipCode":"98361","targetCityState":"Washington"},"__N_SSG":true}