{"pageProps":{"stateName":"Washington","cityName":"rainier","nearbyCities":[{"city":"Yelm","state_name":"Washington","lat":46.85241,"lng":-122.49212,"zip":"98597","miles_from_dt":7.36},{"city":"Mckenna","state_name":"Washington","lat":46.93579,"lng":-122.55998,"zip":"98558","miles_from_dt":7.55},{"city":"Tenino","state_name":"Washington","lat":46.84133,"lng":-122.82087,"zip":"98589","miles_from_dt":8.25},{"city":"Bucoda","state_name":"Washington","lat":46.80519,"lng":-122.86804,"zip":"98530","miles_from_dt":10.83},{"city":"Olympia","state_name":"Washington","lat":46.99074,"lng":-122.73298,"zip":"98513","miles_from_dt":10.91},{"city":"East Olympia","state_name":"Washington","lat":46.96339,"lng":-122.82376,"zip":"98540","miles_from_dt":11.75},{"city":"Roy","state_name":"Washington","lat":46.9918,"lng":-122.50101,"zip":"98580","miles_from_dt":12.31},{"city":"Olympia","state_name":"Washington","lat":46.9783,"lng":-122.86989,"zip":"98501","miles_from_dt":14.05},{"city":"Onalaska","state_name":"Washington","lat":46.63556,"lng":-122.63534,"zip":"98570","miles_from_dt":14.42},{"city":"Lacey","state_name":"Washington","lat":47.02528,"lng":-122.799,"zip":"98503","miles_from_dt":14.43},{"city":"Centralia","state_name":"Washington","lat":46.73646,"lng":-122.91364,"zip":"98531","miles_from_dt":14.68},{"city":"Olympia","state_name":"Washington","lat":46.99733,"lng":-122.87474,"zip":"98599","miles_from_dt":15.11},{"city":"Tacoma","state_name":"Washington","lat":47.05336,"lng":-122.55124,"zip":"98493","miles_from_dt":15.14},{"city":"Tacoma","state_name":"Washington","lat":47.05551,"lng":-122.55208,"zip":"98431","miles_from_dt":15.27},{"city":"Lacey","state_name":"Washington","lat":47.03624,"lng":-122.81069,"zip":"98509","miles_from_dt":15.37},{"city":"Cinebar","state_name":"Washington","lat":46.67304,"lng":-122.43115,"zip":"98533","miles_from_dt":15.64},{"city":"Tumwater","state_name":"Washington","lat":46.986,"lng":-122.906,"zip":"98511","miles_from_dt":15.7},{"city":"Olympia","state_name":"Washington","lat":47.02112,"lng":-122.86804,"zip":"98504","miles_from_dt":16.09},{"city":"Olympia","state_name":"Washington","lat":47.03146,"lng":-122.87048,"zip":"98507","miles_from_dt":16.71},{"city":"Tacoma","state_name":"Washington","lat":47.09121,"lng":-122.60772,"zip":"98433","miles_from_dt":17.17},{"city":"La Grande","state_name":"Washington","lat":46.81989,"lng":-122.27713,"zip":"98348","miles_from_dt":17.61},{"city":"Dupont","state_name":"Washington","lat":47.10203,"lng":-122.66061,"zip":"98327","miles_from_dt":17.82},{"city":"Olympia","state_name":"Washington","lat":47.09647,"lng":-122.78265,"zip":"98516","miles_from_dt":18.57},{"city":"Spanaway","state_name":"Washington","lat":47.0562,"lng":-122.39111,"zip":"98387","miles_from_dt":19},{"city":"Olympia","state_name":"Washington","lat":47.03552,"lng":-122.93659,"zip":"98508","miles_from_dt":19.04},{"city":"Camp Murray","state_name":"Washington","lat":47.11733,"lng":-122.56896,"zip":"98430","miles_from_dt":19.23},{"city":"Galvin","state_name":"Washington","lat":46.73912,"lng":-123.02712,"zip":"98544","miles_from_dt":19.44},{"city":"Olympia","state_name":"Washington","lat":46.95326,"lng":-123.04259,"zip":"98512","miles_from_dt":20.2},{"city":"Olympia","state_name":"Washington","lat":47.10286,"lng":-122.87307,"zip":"98506","miles_from_dt":20.83},{"city":"Graham","state_name":"Washington","lat":47.01927,"lng":-122.28347,"zip":"98338","miles_from_dt":21.02},{"city":"Lakewood","state_name":"Washington","lat":47.13164,"lng":-122.49603,"zip":"98439","miles_from_dt":21.1},{"city":"Silver Creek","state_name":"Washington","lat":46.55436,"lng":-122.5022,"zip":"98585","miles_from_dt":21.17},{"city":"Mcchord Afb","state_name":"Washington","lat":47.13514,"lng":-122.49211,"zip":"98438","miles_from_dt":21.39},{"city":"Anderson Island","state_name":"Washington","lat":47.15783,"lng":-122.70387,"zip":"98303","miles_from_dt":21.83},{"city":"Ethel","state_name":"Washington","lat":46.5293,"lng":-122.73155,"zip":"98542","miles_from_dt":22.12},{"city":"Olympia","state_name":"Washington","lat":47.07321,"lng":-122.97358,"zip":"98505","miles_from_dt":22.12},{"city":"Napavine","state_name":"Washington","lat":46.57838,"lng":-122.90693,"zip":"98565","miles_from_dt":22.13},{"city":"Kapowsin","state_name":"Washington","lat":46.98672,"lng":-122.22783,"zip":"98344","miles_from_dt":22.14},{"city":"Lakewood","state_name":"Washington","lat":47.16001,"lng":-122.55971,"zip":"98498","miles_from_dt":22.2},{"city":"Eatonville","state_name":"Washington","lat":46.86055,"lng":-122.17227,"zip":"98328","miles_from_dt":22.52},{"city":"Salkum","state_name":"Washington","lat":46.51686,"lng":-122.62693,"zip":"98582","miles_from_dt":22.63},{"city":"Rochester","state_name":"Washington","lat":46.79406,"lng":-123.11952,"zip":"98579","miles_from_dt":22.68},{"city":"Tacoma","state_name":"Washington","lat":47.14531,"lng":-122.44392,"zip":"98447","miles_from_dt":22.91},{"city":"Lakewood","state_name":"Washington","lat":47.167,"lng":-122.509,"zip":"98496","miles_from_dt":23.23},{"city":"Lakewood","state_name":"Washington","lat":47.16662,"lng":-122.50624,"zip":"98499","miles_from_dt":23.24},{"city":"Tacoma","state_name":"Washington","lat":47.15228,"lng":-122.44887,"zip":"98444","miles_from_dt":23.25},{"city":"Tacoma","state_name":"Washington","lat":47.13985,"lng":-122.40965,"zip":"98445","miles_from_dt":23.3},{"city":"Chehalis","state_name":"Washington","lat":46.63628,"lng":-123.03444,"zip":"98532","miles_from_dt":23.34},{"city":"Lakewood","state_name":"Washington","lat":47.17794,"lng":-122.54722,"zip":"98497","miles_from_dt":23.53},{"city":"Tacoma","state_name":"Washington","lat":47.12935,"lng":-122.37424,"zip":"98446","miles_from_dt":23.54},{"city":"Puyallup","state_name":"Washington","lat":47.10394,"lng":-122.32383,"zip":"98375","miles_from_dt":23.56},{"city":"Littlerock","state_name":"Washington","lat":46.88565,"lng":-123.1409,"zip":"98556","miles_from_dt":23.58},{"city":"Elbe","state_name":"Washington","lat":46.75874,"lng":-122.15894,"zip":"98330","miles_from_dt":23.88},{"city":"Steilacoom","state_name":"Washington","lat":47.19892,"lng":-122.66268,"zip":"98388","miles_from_dt":24.52},{"city":"Olympia","state_name":"Washington","lat":47.08466,"lng":-123.02958,"zip":"98502","miles_from_dt":24.57},{"city":"Tacoma","state_name":"Washington","lat":47.17453,"lng":-122.44152,"zip":"98412","miles_from_dt":24.8},{"city":"University Place","state_name":"Washington","lat":47.2038,"lng":-122.5447,"zip":"98467","miles_from_dt":25.31},{"city":"Longbranch","state_name":"Washington","lat":47.20353,"lng":-122.76773,"zip":"98351","miles_from_dt":25.47},{"city":"Morton","state_name":"Washington","lat":46.57943,"lng":-122.26913,"zip":"98356","miles_from_dt":25.62},{"city":"Puyallup","state_name":"Washington","lat":47.14761,"lng":-122.32506,"zip":"98373","miles_from_dt":25.9},{"city":"Tacoma","state_name":"Washington","lat":47.19811,"lng":-122.44638,"zip":"98408","miles_from_dt":26.22},{"city":"Tacoma","state_name":"Washington","lat":47.20848,"lng":-122.48047,"zip":"98413","miles_from_dt":26.36},{"city":"Tacoma","state_name":"Washington","lat":47.21084,"lng":-122.48197,"zip":"98409","miles_from_dt":26.5},{"city":"Orting","state_name":"Washington","lat":47.03246,"lng":-122.1575,"zip":"98360","miles_from_dt":26.56},{"city":"Puyallup","state_name":"Washington","lat":47.12904,"lng":-122.26156,"zip":"98374","miles_from_dt":26.81},{"city":"Tacoma","state_name":"Washington","lat":47.22545,"lng":-122.53731,"zip":"98464","miles_from_dt":26.84},{"city":"Tacoma","state_name":"Washington","lat":47.22842,"lng":-122.53479,"zip":"98466","miles_from_dt":27.07},{"city":"Tacoma","state_name":"Washington","lat":47.21956,"lng":-122.47405,"zip":"98411","miles_from_dt":27.19},{"city":"Tacoma","state_name":"Washington","lat":47.221,"lng":-122.474,"zip":"98448","miles_from_dt":27.28},{"city":"Tacoma","state_name":"Washington","lat":47.221,"lng":-122.474,"zip":"98490","miles_from_dt":27.28},{"city":"Tacoma","state_name":"Washington","lat":47.221,"lng":-122.474,"zip":"98419","miles_from_dt":27.28},{"city":"Tacoma","state_name":"Washington","lat":47.221,"lng":-122.474,"zip":"98417","miles_from_dt":27.28},{"city":"Tacoma","state_name":"Washington","lat":47.22282,"lng":-122.47211,"zip":"98481","miles_from_dt":27.43},{"city":"Tacoma","state_name":"Washington","lat":47.20927,"lng":-122.41139,"zip":"98404","miles_from_dt":27.56},{"city":"Tacoma","state_name":"Washington","lat":47.22325,"lng":-122.44642,"zip":"98418","miles_from_dt":27.85},{"city":"Fox Island","state_name":"Washington","lat":47.24771,"lng":-122.62561,"zip":"98333","miles_from_dt":27.89},{"city":"Tacoma","state_name":"Washington","lat":47.20522,"lng":-122.37592,"zip":"98443","miles_from_dt":28.03},{"city":"Winlock","state_name":"Washington","lat":46.49556,"lng":-122.95364,"zip":"98596","miles_from_dt":28.15},{"city":"Toledo","state_name":"Washington","lat":46.44224,"lng":-122.74671,"zip":"98591","miles_from_dt":28.17},{"city":"Tacoma","state_name":"Washington","lat":47.24868,"lng":-122.53043,"zip":"98465","miles_from_dt":28.48},{"city":"Mossyrock","state_name":"Washington","lat":46.45666,"lng":-122.43627,"zip":"98564","miles_from_dt":28.58},{"city":"Puyallup","state_name":"Washington","lat":47.19957,"lng":-122.32191,"zip":"98371","miles_from_dt":28.95},{"city":"Tacoma","state_name":"Washington","lat":47.24599,"lng":-122.47222,"zip":"98405","miles_from_dt":28.96},{"city":"Sumner","state_name":"Washington","lat":47.16432,"lng":-122.24237,"zip":"98352","miles_from_dt":29.23},{"city":"Tacoma","state_name":"Washington","lat":47.25251,"lng":-122.47648,"zip":"98471","miles_from_dt":29.33},{"city":"Tacoma","state_name":"Washington","lat":47.25028,"lng":-122.44876,"zip":"98415","miles_from_dt":29.57},{"city":"Tacoma","state_name":"Washington","lat":47.26283,"lng":-122.50857,"zip":"98406","miles_from_dt":29.65},{"city":"Tacoma","state_name":"Washington","lat":47.25021,"lng":-122.44056,"zip":"98402","miles_from_dt":29.69},{"city":"Lakebay","state_name":"Washington","lat":47.26583,"lng":-122.77366,"zip":"98349","miles_from_dt":29.74},{"city":"Tacoma","state_name":"Washington","lat":47.26271,"lng":-122.48196,"zip":"98416","miles_from_dt":29.94}],"targetCityZipCode":"98576","targetCityState":"Washington"},"__N_SSG":true}