{"pageProps":{"stateName":"Washington","cityName":"washougal","nearbyCities":[{"city":"Bridal Veil","state_name":"Oregon","lat":45.55828,"lng":-122.17538,"zip":"97010","miles_from_dt":5.14},{"city":"Camas","state_name":"Washington","lat":45.64395,"lng":-122.38242,"zip":"98607","miles_from_dt":6.82},{"city":"Troutdale","state_name":"Oregon","lat":45.5342,"lng":-122.36989,"zip":"97060","miles_from_dt":7.91},{"city":"Corbett","state_name":"Oregon","lat":45.494,"lng":-122.18885,"zip":"97019","miles_from_dt":8.63},{"city":"Fairview","state_name":"Oregon","lat":45.54576,"lng":-122.44142,"zip":"97024","miles_from_dt":10.35},{"city":"Gresham","state_name":"Oregon","lat":45.50896,"lng":-122.43135,"zip":"97030","miles_from_dt":11.31},{"city":"Gresham","state_name":"Oregon","lat":45.47848,"lng":-122.39001,"zip":"97080","miles_from_dt":11.44},{"city":"Vancouver","state_name":"Washington","lat":45.67296,"lng":-122.48327,"zip":"98682","miles_from_dt":12.09},{"city":"Vancouver","state_name":"Washington","lat":45.6027,"lng":-122.50984,"zip":"98683","miles_from_dt":12.63},{"city":"Brush Prairie","state_name":"Washington","lat":45.72921,"lng":-122.45615,"zip":"98606","miles_from_dt":12.89},{"city":"Portland","state_name":"Oregon","lat":45.54231,"lng":-122.49685,"zip":"97294","miles_from_dt":12.91},{"city":"Portland","state_name":"Oregon","lat":45.5582,"lng":-122.506,"zip":"97230","miles_from_dt":12.97},{"city":"Vancouver","state_name":"Washington","lat":45.6308,"lng":-122.51615,"zip":"98684","miles_from_dt":12.99},{"city":"Vancouver","state_name":"Washington","lat":45.62919,"lng":-122.51754,"zip":"98687","miles_from_dt":13.05},{"city":"Boring","state_name":"Oregon","lat":45.42409,"lng":-122.33962,"zip":"97009","miles_from_dt":13.66},{"city":"Portland","state_name":"Oregon","lat":45.51391,"lng":-122.49887,"zip":"97233","miles_from_dt":13.84},{"city":"North Bonneville","state_name":"Washington","lat":45.64364,"lng":-121.96288,"zip":"98639","miles_from_dt":14.07},{"city":"Portland","state_name":"Oregon","lat":45.48474,"lng":-122.51055,"zip":"97236","miles_from_dt":15.39},{"city":"Portland","state_name":"Oregon","lat":45.55107,"lng":-122.55915,"zip":"97220","miles_from_dt":15.58},{"city":"Vancouver","state_name":"Washington","lat":45.61966,"lng":-122.57738,"zip":"98664","miles_from_dt":15.9},{"city":"Damascus","state_name":"Oregon","lat":45.4256,"lng":-122.44342,"zip":"97089","miles_from_dt":15.92},{"city":"Stevenson","state_name":"Washington","lat":45.70563,"lng":-121.9489,"zip":"98648","miles_from_dt":15.95},{"city":"Carson","state_name":"Washington","lat":45.77765,"lng":-122.01401,"zip":"98610","miles_from_dt":16.18},{"city":"Portland","state_name":"Oregon","lat":45.51543,"lng":-122.55544,"zip":"97292","miles_from_dt":16.25},{"city":"Portland","state_name":"Oregon","lat":45.51393,"lng":-122.5585,"zip":"97216","miles_from_dt":16.43},{"city":"Vancouver","state_name":"Washington","lat":45.68911,"lng":-122.57742,"zip":"98662","miles_from_dt":16.76},{"city":"Portland","state_name":"Oregon","lat":45.5759,"lng":-122.60023,"zip":"97218","miles_from_dt":17.18},{"city":"Portland","state_name":"Oregon","lat":45.57644,"lng":-122.60045,"zip":"97238","miles_from_dt":17.18},{"city":"Portland","state_name":"Oregon","lat":45.48268,"lng":-122.55838,"zip":"97266","miles_from_dt":17.43},{"city":"Portland","state_name":"Oregon","lat":45.53776,"lng":-122.59957,"zip":"97213","miles_from_dt":17.72},{"city":"Happy Valley","state_name":"Oregon","lat":45.44531,"lng":-122.52793,"zip":"97086","miles_from_dt":17.73},{"city":"Yacolt","state_name":"Washington","lat":45.86349,"lng":-122.33104,"zip":"98675","miles_from_dt":17.85},{"city":"Battle Ground","state_name":"Washington","lat":45.80013,"lng":-122.5054,"zip":"98604","miles_from_dt":17.98},{"city":"Sandy","state_name":"Oregon","lat":45.35975,"lng":-122.15396,"zip":"97055","miles_from_dt":17.99},{"city":"Cascade Locks","state_name":"Oregon","lat":45.61354,"lng":-121.87405,"zip":"97014","miles_from_dt":18.2},{"city":"Vancouver","state_name":"Washington","lat":45.71241,"lng":-122.59705,"zip":"98666","miles_from_dt":18.22},{"city":"Portland","state_name":"Oregon","lat":45.51436,"lng":-122.59923,"zip":"97215","miles_from_dt":18.24},{"city":"Vancouver","state_name":"Washington","lat":45.63935,"lng":-122.62586,"zip":"98661","miles_from_dt":18.34},{"city":"Brightwood","state_name":"Oregon","lat":45.38738,"lng":-122.03671,"zip":"97011","miles_from_dt":18.61},{"city":"Heisson","state_name":"Washington","lat":45.82505,"lng":-122.48582,"zip":"98622","miles_from_dt":18.66},{"city":"Eagle Creek","state_name":"Oregon","lat":45.34562,"lng":-122.3306,"zip":"97022","miles_from_dt":18.77},{"city":"Portland","state_name":"Oregon","lat":45.58174,"lng":-122.63548,"zip":"97211","miles_from_dt":18.82},{"city":"Portland","state_name":"Oregon","lat":45.48173,"lng":-122.5988,"zip":"97206","miles_from_dt":19.17},{"city":"Portland","state_name":"Oregon","lat":45.47983,"lng":-122.59789,"zip":"97286","miles_from_dt":19.19},{"city":"Portland","state_name":"Oregon","lat":45.57414,"lng":-122.64332,"zip":"97290","miles_from_dt":19.26},{"city":"Clackamas","state_name":"Oregon","lat":45.41477,"lng":-122.53767,"zip":"97015","miles_from_dt":19.5},{"city":"Portland","state_name":"Oregon","lat":45.54428,"lng":-122.64322,"zip":"97212","miles_from_dt":19.65},{"city":"Vancouver","state_name":"Washington","lat":45.7239,"lng":-122.62305,"zip":"98686","miles_from_dt":19.68},{"city":"Portland","state_name":"Oregon","lat":45.5292,"lng":-122.64376,"zip":"97232","miles_from_dt":19.95},{"city":"Vancouver","state_name":"Washington","lat":45.72107,"lng":-122.63074,"zip":"98668","miles_from_dt":19.95},{"city":"Vancouver","state_name":"Washington","lat":45.68155,"lng":-122.65417,"zip":"98665","miles_from_dt":20.19},{"city":"Vancouver","state_name":"Washington","lat":45.65449,"lng":-122.66228,"zip":"98663","miles_from_dt":20.22},{"city":"Portland","state_name":"Oregon","lat":45.51122,"lng":-122.64134,"zip":"97293","miles_from_dt":20.23},{"city":"Portland","state_name":"Oregon","lat":45.53788,"lng":-122.65452,"zip":"97283","miles_from_dt":20.29},{"city":"Portland","state_name":"Oregon","lat":45.51395,"lng":-122.64424,"zip":"97214","miles_from_dt":20.3},{"city":"Portland","state_name":"Oregon","lat":45.48326,"lng":-122.63843,"zip":"97242","miles_from_dt":20.84},{"city":"Portland","state_name":"Oregon","lat":45.48165,"lng":-122.63928,"zip":"97282","miles_from_dt":20.93},{"city":"Portland","state_name":"Oregon","lat":45.48232,"lng":-122.64365,"zip":"97202","miles_from_dt":21.1},{"city":"Portland","state_name":"Oregon","lat":45.50242,"lng":-122.65644,"zip":"97240","miles_from_dt":21.13},{"city":"Portland","state_name":"Oregon","lat":45.43845,"lng":-122.61132,"zip":"97269","miles_from_dt":21.24},{"city":"Portland","state_name":"Oregon","lat":45.54432,"lng":-122.67721,"zip":"97227","miles_from_dt":21.25},{"city":"Portland","state_name":"Oregon","lat":45.44114,"lng":-122.61682,"zip":"97222","miles_from_dt":21.36},{"city":"Portland","state_name":"Oregon","lat":45.5199,"lng":-122.672,"zip":"97251","miles_from_dt":21.45},{"city":"Portland","state_name":"Oregon","lat":45.5183,"lng":-122.67378,"zip":"97204","miles_from_dt":21.56},{"city":"Portland","state_name":"Oregon","lat":45.52866,"lng":-122.67898,"zip":"97208","miles_from_dt":21.6},{"city":"Portland","state_name":"Oregon","lat":45.5216,"lng":-122.677,"zip":"97253","miles_from_dt":21.64},{"city":"Portland","state_name":"Oregon","lat":45.59686,"lng":-122.69717,"zip":"97217","miles_from_dt":21.72},{"city":"Portland","state_name":"Oregon","lat":45.52991,"lng":-122.68258,"zip":"97228","miles_from_dt":21.75},{"city":"Portland","state_name":"Oregon","lat":45.512,"lng":-122.676,"zip":"97252","miles_from_dt":21.8},{"city":"Portland","state_name":"Oregon","lat":45.512,"lng":-122.676,"zip":"97250","miles_from_dt":21.8},{"city":"Portland","state_name":"Oregon","lat":45.53093,"lng":-122.68429,"zip":"97209","miles_from_dt":21.81},{"city":"Portland","state_name":"Oregon","lat":45.51599,"lng":-122.68094,"zip":"97256","miles_from_dt":21.94},{"city":"Portland","state_name":"Oregon","lat":45.52289,"lng":-122.68452,"zip":"97207","miles_from_dt":21.97},{"city":"Portland","state_name":"Oregon","lat":45.50796,"lng":-122.68959,"zip":"97201","miles_from_dt":22.51},{"city":"Vancouver","state_name":"Washington","lat":45.71596,"lng":-122.69105,"zip":"98685","miles_from_dt":22.57},{"city":"Portland","state_name":"Oregon","lat":45.40744,"lng":-122.61472,"zip":"97267","miles_from_dt":22.65},{"city":"Gladstone","state_name":"Oregon","lat":45.38697,"lng":-122.59271,"zip":"97027","miles_from_dt":22.76},{"city":"Portland","state_name":"Oregon","lat":45.51924,"lng":-122.70127,"zip":"97205","miles_from_dt":22.82},{"city":"Portland","state_name":"Oregon","lat":45.5418,"lng":-122.711,"zip":"97254","miles_from_dt":22.89},{"city":"Portland","state_name":"Oregon","lat":45.48893,"lng":-122.69053,"zip":"97239","miles_from_dt":23.01},{"city":"Portland","state_name":"Oregon","lat":45.41694,"lng":-122.63889,"zip":"97268","miles_from_dt":23.19},{"city":"Portland","state_name":"Oregon","lat":45.54738,"lng":-122.72617,"zip":"97291","miles_from_dt":23.53},{"city":"Oregon City","state_name":"Oregon","lat":45.32834,"lng":-122.53058,"zip":"97045","miles_from_dt":23.85},{"city":"Vancouver","state_name":"Washington","lat":45.6866,"lng":-122.73152,"zip":"98660","miles_from_dt":23.92},{"city":"Portland","state_name":"Oregon","lat":45.54954,"lng":-122.73549,"zip":"97210","miles_from_dt":23.95},{"city":"Amboy","state_name":"Washington","lat":45.93439,"lng":-122.43857,"zip":"98601","miles_from_dt":24.1},{"city":"Portland","state_name":"Oregon","lat":45.60764,"lng":-122.74923,"zip":"97203","miles_from_dt":24.22},{"city":"Portland","state_name":"Oregon","lat":45.45354,"lng":-122.69884,"zip":"97280","miles_from_dt":24.38},{"city":"Marylhurst","state_name":"Oregon","lat":45.39711,"lng":-122.64846,"zip":"97036","miles_from_dt":24.38},{"city":"Portland","state_name":"Oregon","lat":45.45413,"lng":-122.69972,"zip":"97219","miles_from_dt":24.4},{"city":"Portland","state_name":"Oregon","lat":45.49799,"lng":-122.72749,"zip":"97221","miles_from_dt":24.48},{"city":"Welches","state_name":"Oregon","lat":45.31302,"lng":-121.97733,"zip":"97067","miles_from_dt":24.49},{"city":"Lake Oswego","state_name":"Oregon","lat":45.4095,"lng":-122.68467,"zip":"97034","miles_from_dt":25.32},{"city":"Rhododendron","state_name":"Oregon","lat":45.35931,"lng":-121.86829,"zip":"97049","miles_from_dt":25.42},{"city":"Ridgefield","state_name":"Washington","lat":45.80262,"lng":-122.7019,"zip":"98642","miles_from_dt":25.56},{"city":"La Center","state_name":"Washington","lat":45.88109,"lng":-122.6148,"zip":"98629","miles_from_dt":25.67},{"city":"Portland","state_name":"Oregon","lat":45.532,"lng":-122.77341,"zip":"97296","miles_from_dt":25.99},{"city":"Portland","state_name":"Oregon","lat":45.502,"lng":-122.76994,"zip":"97225","miles_from_dt":26.35},{"city":"Portland","state_name":"Oregon","lat":45.50195,"lng":-122.77304,"zip":"97298","miles_from_dt":26.5},{"city":"Beavercreek","state_name":"Oregon","lat":45.25068,"lng":-122.45399,"zip":"97004","miles_from_dt":26.82},{"city":"Lake Oswego","state_name":"Oregon","lat":45.41291,"lng":-122.72616,"zip":"97035","miles_from_dt":26.9},{"city":"West Linn","state_name":"Oregon","lat":45.35195,"lng":-122.66876,"zip":"97068","miles_from_dt":27.13},{"city":"Portland","state_name":"Oregon","lat":45.55032,"lng":-122.81026,"zip":"97229","miles_from_dt":27.52},{"city":"Beaverton","state_name":"Oregon","lat":45.485,"lng":-122.796,"zip":"97079","miles_from_dt":27.92},{"city":"Beaverton","state_name":"Oregon","lat":45.49361,"lng":-122.8003,"zip":"97077","miles_from_dt":27.93},{"city":"Beaverton","state_name":"Oregon","lat":45.48934,"lng":-122.79982,"zip":"97076","miles_from_dt":28},{"city":"Beaverton","state_name":"Oregon","lat":45.49144,"lng":-122.80397,"zip":"97005","miles_from_dt":28.15},{"city":"Beaverton","state_name":"Oregon","lat":45.49249,"lng":-122.80465,"zip":"97075","miles_from_dt":28.16},{"city":"Portland","state_name":"Oregon","lat":45.44023,"lng":-122.77838,"zip":"97223","miles_from_dt":28.26},{"city":"Portland","state_name":"Oregon","lat":45.44112,"lng":-122.77933,"zip":"97281","miles_from_dt":28.28},{"city":"Portland","state_name":"Oregon","lat":45.68197,"lng":-122.82687,"zip":"97231","miles_from_dt":28.39},{"city":"Beaverton","state_name":"Oregon","lat":45.46044,"lng":-122.80252,"zip":"97008","miles_from_dt":28.79},{"city":"Estacada","state_name":"Oregon","lat":45.19147,"lng":-122.20501,"zip":"97023","miles_from_dt":29.08},{"city":"Beaverton","state_name":"Oregon","lat":45.52598,"lng":-122.85591,"zip":"97006","miles_from_dt":30}],"targetCityZipCode":"98671","targetCityState":"Washington"},"__N_SSG":true}