{"pageProps":{"stateName":"Colorado","cityName":"briggsdale","nearbyCities":[{"city":"Galeton","state_name":"Colorado","lat":40.54235,"lng":-104.44732,"zip":"80622","miles_from_dt":11.7},{"city":"Gill","state_name":"Colorado","lat":40.45683,"lng":-104.45635,"zip":"80624","miles_from_dt":15.67},{"city":"Orchard","state_name":"Colorado","lat":40.37924,"lng":-104.17595,"zip":"80649","miles_from_dt":17.07},{"city":"Grover","state_name":"Colorado","lat":40.87439,"lng":-104.22632,"zip":"80729","miles_from_dt":17.59},{"city":"Ault","state_name":"Colorado","lat":40.66996,"lng":-104.58269,"zip":"80610","miles_from_dt":17.84},{"city":"Weldona","state_name":"Colorado","lat":40.3931,"lng":-103.97685,"zip":"80653","miles_from_dt":21.26},{"city":"Eaton","state_name":"Colorado","lat":40.5444,"lng":-104.64236,"zip":"80615","miles_from_dt":21.31},{"city":"Kersey","state_name":"Colorado","lat":40.3371,"lng":-104.43866,"zip":"80644","miles_from_dt":21.92},{"city":"New Raymer","state_name":"Colorado","lat":40.74855,"lng":-103.81371,"zip":"80742","miles_from_dt":24.55},{"city":"Hereford","state_name":"Colorado","lat":40.9884,"lng":-104.30525,"zip":"80732","miles_from_dt":25.58},{"city":"Lucerne","state_name":"Colorado","lat":40.47537,"lng":-104.69761,"zip":"80646","miles_from_dt":25.61},{"city":"Greeley","state_name":"Colorado","lat":40.44216,"lng":-104.67809,"zip":"80631","miles_from_dt":25.68},{"city":"Nunn","state_name":"Colorado","lat":40.76559,"lng":-104.72816,"zip":"80648","miles_from_dt":27.06},{"city":"Greeley","state_name":"Colorado","lat":40.42383,"lng":-104.69538,"zip":"80633","miles_from_dt":27.1},{"city":"Greeley","state_name":"Colorado","lat":40.42299,"lng":-104.69801,"zip":"80632","miles_from_dt":27.25},{"city":"Pierce","state_name":"Colorado","lat":40.6484,"lng":-104.77666,"zip":"80650","miles_from_dt":27.77},{"city":"Greeley","state_name":"Colorado","lat":40.4012,"lng":-104.70136,"zip":"80639","miles_from_dt":28.18},{"city":"Greeley","state_name":"Colorado","lat":40.42176,"lng":-104.74404,"zip":"80638","miles_from_dt":29.41},{"city":"Evans","state_name":"Colorado","lat":40.37425,"lng":-104.71337,"zip":"80620","miles_from_dt":29.74}],"targetCityZipCode":"80611","targetCityState":"Colorado"},"__N_SSG":true}