{"pageProps":{"stateName":"Colorado","cityName":"carbondale","nearbyCities":[{"city":"Snowmass","state_name":"Colorado","lat":39.21462,"lng":-107.02597,"zip":"81654","miles_from_dt":10.05},{"city":"Snowmass Village","state_name":"Colorado","lat":39.21437,"lng":-106.94172,"zip":"81615","miles_from_dt":14.51},{"city":"Glenwood Springs","state_name":"Colorado","lat":39.49418,"lng":-107.32825,"zip":"81602","miles_from_dt":18.33},{"city":"Basalt","state_name":"Colorado","lat":39.37803,"lng":-106.8772,"zip":"81621","miles_from_dt":20.02},{"city":"Somerset","state_name":"Colorado","lat":38.95384,"lng":-107.35954,"zip":"81434","miles_from_dt":21.66},{"city":"Woody Creek","state_name":"Colorado","lat":39.27948,"lng":-106.78711,"zip":"81656","miles_from_dt":22.76},{"city":"Crested Butte","state_name":"Colorado","lat":38.94115,"lng":-107.00664,"zip":"81225","miles_from_dt":23.63},{"city":"Aspen","state_name":"Colorado","lat":39.05048,"lng":-106.82335,"zip":"81612","miles_from_dt":24.69},{"city":"Glenwood Springs","state_name":"Colorado","lat":39.59357,"lng":-107.32815,"zip":"81601","miles_from_dt":24.87},{"city":"Aspen","state_name":"Colorado","lat":39.14561,"lng":-106.74885,"zip":"81611","miles_from_dt":25.65},{"city":"Paonia","state_name":"Colorado","lat":38.95928,"lng":-107.59899,"zip":"81428","miles_from_dt":28.77},{"city":"New Castle","state_name":"Colorado","lat":39.57972,"lng":-107.5364,"zip":"81647","miles_from_dt":28.97},{"city":"Silt","state_name":"Colorado","lat":39.472,"lng":-107.67082,"zip":"81652","miles_from_dt":29.26},{"city":"Crested Butte","state_name":"Colorado","lat":38.87985,"lng":-106.90957,"zip":"81224","miles_from_dt":29.91}],"targetCityZipCode":"81623","targetCityState":"Colorado"},"__N_SSG":true}