{"pageProps":{"stateName":"Colorado","cityName":"granite","nearbyCities":[{"city":"Buena Vista","state_name":"Colorado","lat":38.89548,"lng":-106.24128,"zip":"81211","miles_from_dt":9.75},{"city":"Twin Lakes","state_name":"Colorado","lat":39.13482,"lng":-106.43723,"zip":"81251","miles_from_dt":11.06},{"city":"Leadville","state_name":"Colorado","lat":39.24244,"lng":-106.29016,"zip":"80461","miles_from_dt":14.39},{"city":"Fairplay","state_name":"Colorado","lat":39.13412,"lng":-106.04137,"zip":"80440","miles_from_dt":14.44},{"city":"Climax","state_name":"Colorado","lat":39.32658,"lng":-106.23408,"zip":"80429","miles_from_dt":20.31},{"city":"Alma","state_name":"Colorado","lat":39.31451,"lng":-106.10553,"zip":"80420","miles_from_dt":21.43},{"city":"Nathrop","state_name":"Colorado","lat":38.6955,"lng":-106.25424,"zip":"81236","miles_from_dt":23.38},{"city":"Almont","state_name":"Colorado","lat":38.81898,"lng":-106.62219,"zip":"81210","miles_from_dt":23.78},{"city":"Meredith","state_name":"Colorado","lat":39.31202,"lng":-106.58448,"zip":"81642","miles_from_dt":25.3},{"city":"Aspen","state_name":"Colorado","lat":39.14561,"lng":-106.74885,"zip":"81611","miles_from_dt":26.5},{"city":"Hartsel","state_name":"Colorado","lat":38.93059,"lng":-105.79169,"zip":"80449","miles_from_dt":27.1},{"city":"Como","state_name":"Colorado","lat":39.22256,"lng":-105.82969,"zip":"80432","miles_from_dt":27.34},{"city":"Aspen","state_name":"Colorado","lat":39.05048,"lng":-106.82335,"zip":"81612","miles_from_dt":29.4},{"city":"Red Cliff","state_name":"Colorado","lat":39.46433,"lng":-106.31954,"zip":"81649","miles_from_dt":29.77}],"targetCityZipCode":"81228","targetCityState":"Colorado"},"__N_SSG":true}