{"pageProps":{"stateName":"Colorado","cityName":"guffey","nearbyCities":[{"city":"Florissant","state_name":"Colorado","lat":38.85162,"lng":-105.31591,"zip":"80816","miles_from_dt":14.43},{"city":"Hartsel","state_name":"Colorado","lat":38.93059,"lng":-105.79169,"zip":"80449","miles_from_dt":16.1},{"city":"Canon City","state_name":"Colorado","lat":38.54409,"lng":-105.42498,"zip":"81212","miles_from_dt":17.84},{"city":"Lake George","state_name":"Colorado","lat":39.05821,"lng":-105.46272,"zip":"80827","miles_from_dt":20.13},{"city":"Howard","state_name":"Colorado","lat":38.49244,"lng":-105.81369,"zip":"81233","miles_from_dt":23.81},{"city":"Divide","state_name":"Colorado","lat":38.94731,"lng":-105.17604,"zip":"80814","miles_from_dt":24.07},{"city":"Cripple Creek","state_name":"Colorado","lat":38.76307,"lng":-105.09278,"zip":"80813","miles_from_dt":25.58},{"city":"Victor","state_name":"Colorado","lat":38.69307,"lng":-105.09876,"zip":"80860","miles_from_dt":25.92},{"city":"Cotopaxi","state_name":"Colorado","lat":38.39372,"lng":-105.6031,"zip":"81223","miles_from_dt":26.57},{"city":"Canon City","state_name":"Colorado","lat":38.44769,"lng":-105.22289,"zip":"81215","miles_from_dt":29.39}],"targetCityZipCode":"80820","targetCityState":"Colorado"},"__N_SSG":true}