{"pageProps":{"stateName":"Colorado","cityName":"lamar","nearbyCities":[{"city":"Hasty","state_name":"Colorado","lat":37.90328,"lng":-102.93628,"zip":"81044","miles_from_dt":15.54},{"city":"Granada","state_name":"Colorado","lat":37.844,"lng":-102.3839,"zip":"81041","miles_from_dt":16.36},{"city":"McClave","state_name":"Colorado","lat":38.12525,"lng":-102.89675,"zip":"81057","miles_from_dt":18.2},{"city":"Wiley","state_name":"Colorado","lat":38.20283,"lng":-102.86779,"zip":"81092","miles_from_dt":21.35},{"city":"Fort Lyon","state_name":"Colorado","lat":37.91096,"lng":-103.09811,"zip":"81038","miles_from_dt":24.24},{"city":"Holly","state_name":"Colorado","lat":38.03226,"lng":-102.19206,"zip":"81047","miles_from_dt":26.08},{"city":"Hartman","state_name":"Colorado","lat":38.11982,"lng":-102.22312,"zip":"81043","miles_from_dt":26.61},{"city":"Two Buttes","state_name":"Colorado","lat":37.57031,"lng":-102.41929,"zip":"81084","miles_from_dt":28.76},{"city":"Las Animas","state_name":"Colorado","lat":37.88583,"lng":-103.19493,"zip":"81054","miles_from_dt":29.69}],"targetCityZipCode":"81052","targetCityState":"Colorado"},"__N_SSG":true}