{"pageProps":{"stateName":"Colorado","cityName":"mancos","nearbyCities":[{"city":"Mesa Verde National Park","state_name":"Colorado","lat":37.23484,"lng":-108.47828,"zip":"81330","miles_from_dt":10.32},{"city":"Hesperus","state_name":"Colorado","lat":37.14635,"lng":-108.11525,"zip":"81326","miles_from_dt":15.12},{"city":"Marvel","state_name":"Colorado","lat":37.11328,"lng":-108.12464,"zip":"81329","miles_from_dt":16.47},{"city":"Towaoc","state_name":"Colorado","lat":37.11594,"lng":-108.63674,"zip":"81334","miles_from_dt":22.06},{"city":"Durango","state_name":"Colorado","lat":37.31381,"lng":-107.87723,"zip":"81302","miles_from_dt":23.86},{"city":"Dolores","state_name":"Colorado","lat":37.64874,"lng":-108.27823,"zip":"81323","miles_from_dt":24.08},{"city":"Lewis","state_name":"Colorado","lat":37.5155,"lng":-108.66488,"zip":"81327","miles_from_dt":24.51},{"city":"Cortez","state_name":"Colorado","lat":37.31826,"lng":-108.76267,"zip":"81321","miles_from_dt":24.96},{"city":"La Plata","state_name":"New Mexico","lat":36.94938,"lng":-108.14728,"zip":"87418","miles_from_dt":25.83},{"city":"Durango","state_name":"Colorado","lat":37.12903,"lng":-107.85677,"zip":"81303","miles_from_dt":27.66},{"city":"Yellow Jacket","state_name":"Colorado","lat":37.54381,"lng":-108.71978,"zip":"81335","miles_from_dt":28.09}],"targetCityZipCode":"81328","targetCityState":"Colorado"},"__N_SSG":true}