{"pageProps":{"stateName":"Colorado","cityName":"molina","nearbyCities":[{"city":"Mesa","state_name":"Colorado","lat":39.11968,"lng":-108.15001,"zip":"81643","miles_from_dt":8.53},{"city":"Cedaredge","state_name":"Colorado","lat":38.97171,"lng":-107.90845,"zip":"81413","miles_from_dt":10.47},{"city":"Eckert","state_name":"Colorado","lat":38.90479,"lng":-108.05687,"zip":"81418","miles_from_dt":14.5},{"city":"Collbran","state_name":"Colorado","lat":39.24611,"lng":-107.77259,"zip":"81624","miles_from_dt":15.12},{"city":"Palisade","state_name":"Colorado","lat":39.07741,"lng":-108.33056,"zip":"81526","miles_from_dt":18.33},{"city":"Austin","state_name":"Colorado","lat":38.81261,"lng":-107.97595,"zip":"81410","miles_from_dt":20.45},{"city":"Hotchkiss","state_name":"Colorado","lat":38.86332,"lng":-107.74872,"zip":"81419","miles_from_dt":21.4},{"city":"Cory","state_name":"Colorado","lat":38.78836,"lng":-107.98654,"zip":"81414","miles_from_dt":22.1},{"city":"Battlement Mesa","state_name":"Colorado","lat":39.43865,"lng":-108.0255,"zip":"81636","miles_from_dt":22.83},{"city":"Paonia","state_name":"Colorado","lat":38.95928,"lng":-107.59899,"zip":"81428","miles_from_dt":23.52},{"city":"Clifton","state_name":"Colorado","lat":39.10962,"lng":-108.43561,"zip":"81520","miles_from_dt":23.84},{"city":"Lazear","state_name":"Colorado","lat":38.7768,"lng":-107.78189,"zip":"81420","miles_from_dt":25.54},{"city":"Grand Junction","state_name":"Colorado","lat":39.1198,"lng":-108.49542,"zip":"81504","miles_from_dt":27.07},{"city":"Grand Junction","state_name":"Colorado","lat":39.03094,"lng":-108.48682,"zip":"81503","miles_from_dt":27.15},{"city":"Grand Junction","state_name":"Colorado","lat":39.15785,"lng":-108.53454,"zip":"81506","miles_from_dt":29.35},{"city":"Parachute","state_name":"Colorado","lat":39.53722,"lng":-108.06022,"zip":"81635","miles_from_dt":29.78},{"city":"Grand Junction","state_name":"Colorado","lat":39.07174,"lng":-108.54569,"zip":"81501","miles_from_dt":29.88}],"targetCityZipCode":"81646","targetCityState":"Colorado"},"__N_SSG":true}