{"pageProps":{"stateName":"Colorado","cityName":"red-cliff","nearbyCities":[{"city":"Minturn","state_name":"Colorado","lat":39.47634,"lng":-106.46779,"zip":"81645","miles_from_dt":7.97},{"city":"Frisco","state_name":"Colorado","lat":39.50165,"lng":-106.16673,"zip":"80443","miles_from_dt":8.57},{"city":"Climax","state_name":"Colorado","lat":39.32658,"lng":-106.23408,"zip":"80429","miles_from_dt":10.55},{"city":"Vail","state_name":"Colorado","lat":39.64864,"lng":-106.32608,"zip":"81657","miles_from_dt":12.72},{"city":"Avon","state_name":"Colorado","lat":39.61485,"lng":-106.50555,"zip":"81620","miles_from_dt":14.37},{"city":"Vail","state_name":"Colorado","lat":39.62187,"lng":-106.50024,"zip":"81658","miles_from_dt":14.54},{"city":"Leadville","state_name":"Colorado","lat":39.24244,"lng":-106.29016,"zip":"80461","miles_from_dt":15.39},{"city":"Alma","state_name":"Colorado","lat":39.31451,"lng":-106.10553,"zip":"80420","miles_from_dt":15.43},{"city":"Breckenridge","state_name":"Colorado","lat":39.47089,"lng":-106.01685,"zip":"80424","miles_from_dt":16.19},{"city":"Meredith","state_name":"Colorado","lat":39.31202,"lng":-106.58448,"zip":"81642","miles_from_dt":17.65},{"city":"Silverthorne","state_name":"Colorado","lat":39.64055,"lng":-106.06212,"zip":"80497","miles_from_dt":18.35},{"city":"Edwards","state_name":"Colorado","lat":39.62015,"lng":-106.61132,"zip":"81632","miles_from_dt":18.93},{"city":"Silverthorne","state_name":"Colorado","lat":39.7794,"lng":-106.22338,"zip":"80498","miles_from_dt":22.33},{"city":"Dillon","state_name":"Colorado","lat":39.60161,"lng":-105.92452,"zip":"80435","miles_from_dt":23.13},{"city":"Twin Lakes","state_name":"Colorado","lat":39.13482,"lng":-106.43723,"zip":"81251","miles_from_dt":23.59},{"city":"Eagle","state_name":"Colorado","lat":39.63116,"lng":-106.77136,"zip":"81631","miles_from_dt":26.74},{"city":"Fairplay","state_name":"Colorado","lat":39.13412,"lng":-106.04137,"zip":"80440","miles_from_dt":27.23},{"city":"Wolcott","state_name":"Colorado","lat":39.7477,"lng":-106.67821,"zip":"81655","miles_from_dt":27.36},{"city":"Woody Creek","state_name":"Colorado","lat":39.27948,"lng":-106.78711,"zip":"81656","miles_from_dt":28.1},{"city":"Bond","state_name":"Colorado","lat":39.84776,"lng":-106.55359,"zip":"80423","miles_from_dt":29.25},{"city":"Granite","state_name":"Colorado","lat":39.03402,"lng":-106.27723,"zip":"81228","miles_from_dt":29.77}],"targetCityZipCode":"81649","targetCityState":"Colorado"},"__N_SSG":true}