{"pageProps":{"stateName":"Colorado","cityName":"yampa","nearbyCities":[{"city":"Phippsburg","state_name":"Colorado","lat":40.21448,"lng":-106.96797,"zip":"80469","miles_from_dt":6.66},{"city":"Toponas","state_name":"Colorado","lat":40.02078,"lng":-106.86356,"zip":"80479","miles_from_dt":7.8},{"city":"Oak Creek","state_name":"Colorado","lat":40.25692,"lng":-106.87326,"zip":"80467","miles_from_dt":9.46},{"city":"McCoy","state_name":"Colorado","lat":39.95523,"lng":-106.73888,"zip":"80463","miles_from_dt":15.18},{"city":"Burns","state_name":"Colorado","lat":39.87393,"lng":-106.98452,"zip":"80426","miles_from_dt":17.63},{"city":"Steamboat Springs","state_name":"Colorado","lat":40.47628,"lng":-106.85039,"zip":"80488","miles_from_dt":24.54},{"city":"Steamboat Springs","state_name":"Colorado","lat":40.47741,"lng":-106.84547,"zip":"80477","miles_from_dt":24.65},{"city":"Gypsum","state_name":"Colorado","lat":39.77162,"lng":-107.10065,"zip":"81637","miles_from_dt":26.16},{"city":"Kremmling","state_name":"Colorado","lat":40.1843,"lng":-106.41877,"zip":"80459","miles_from_dt":26.92},{"city":"Bond","state_name":"Colorado","lat":39.84776,"lng":-106.55359,"zip":"80423","miles_from_dt":27.31},{"city":"Wolcott","state_name":"Colorado","lat":39.7477,"lng":-106.67821,"zip":"81655","miles_from_dt":29.04}],"targetCityZipCode":"80483","targetCityState":"Colorado"},"__N_SSG":true}