{"pageProps":{"stateName":"New-mexico","cityName":"cebolla","nearbyCities":[{"city":"Tierra Amarilla","state_name":"New Mexico","lat":36.64203,"lng":-106.59341,"zip":"87575","miles_from_dt":9.41},{"city":"Canjilon","state_name":"New Mexico","lat":36.56257,"lng":-106.3696,"zip":"87515","miles_from_dt":10.23},{"city":"Abiquiu","state_name":"New Mexico","lat":36.35906,"lng":-106.48312,"zip":"87510","miles_from_dt":11.05},{"city":"Los Ojos","state_name":"New Mexico","lat":36.6925,"lng":-106.66872,"zip":"87551","miles_from_dt":14.29},{"city":"Gallina","state_name":"New Mexico","lat":36.30624,"lng":-106.73759,"zip":"87017","miles_from_dt":17.88},{"city":"Vallecitos","state_name":"New Mexico","lat":36.51531,"lng":-106.16017,"zip":"87581","miles_from_dt":21.27},{"city":"El Rito","state_name":"New Mexico","lat":36.34088,"lng":-106.20198,"zip":"87530","miles_from_dt":22.34},{"city":"Youngsville","state_name":"New Mexico","lat":36.1849,"lng":-106.53923,"zip":"87064","miles_from_dt":22.55},{"city":"Canones","state_name":"New Mexico","lat":36.18116,"lng":-106.46149,"zip":"87516","miles_from_dt":23.25},{"city":"Chama","state_name":"New Mexico","lat":36.88419,"lng":-106.63552,"zip":"87520","miles_from_dt":26.18},{"city":"Regina","state_name":"New Mexico","lat":36.27773,"lng":-106.91643,"zip":"87046","miles_from_dt":26.38},{"city":"Petaca","state_name":"New Mexico","lat":36.54573,"lng":-106.0633,"zip":"87554","miles_from_dt":26.76},{"city":"Dulce","state_name":"New Mexico","lat":36.79432,"lng":-106.87989,"zip":"87528","miles_from_dt":27.03},{"city":"Coyote","state_name":"New Mexico","lat":36.13341,"lng":-106.67312,"zip":"87012","miles_from_dt":27.1},{"city":"Lindrith","state_name":"New Mexico","lat":36.39394,"lng":-107.03949,"zip":"87029","miles_from_dt":28.86},{"city":"La Madera","state_name":"New Mexico","lat":36.41192,"lng":-106.02393,"zip":"87539","miles_from_dt":29.69}],"targetCityZipCode":"87518","targetCityState":"New Mexico"},"__N_SSG":true}