{"pageProps":{"stateName":"New-mexico","cityName":"monument","nearbyCities":[{"city":"Hobbs","state_name":"New Mexico","lat":32.67285,"lng":-103.43454,"zip":"88240","miles_from_dt":7.98},{"city":"Eunice","state_name":"New Mexico","lat":32.42376,"lng":-103.26873,"zip":"88231","miles_from_dt":11.95},{"city":"Hobbs","state_name":"New Mexico","lat":32.76412,"lng":-103.22498,"zip":"88244","miles_from_dt":14.28},{"city":"Hobbs","state_name":"New Mexico","lat":32.75214,"lng":-103.16483,"zip":"88241","miles_from_dt":15.68},{"city":"Hobbs","state_name":"New Mexico","lat":32.81654,"lng":-103.16014,"zip":"88242","miles_from_dt":19.34},{"city":"Lovington","state_name":"New Mexico","lat":32.98698,"lng":-103.39801,"zip":"88260","miles_from_dt":27.92},{"city":"Maljamar","state_name":"New Mexico","lat":32.86351,"lng":-103.70089,"zip":"88264","miles_from_dt":28.23},{"city":"Jal","state_name":"New Mexico","lat":32.16345,"lng":-103.39452,"zip":"88252","miles_from_dt":29.13}],"targetCityZipCode":"88265","targetCityState":"New Mexico"},"__N_SSG":true}