{"pageProps":{"stateName":"New-mexico","cityName":"moriarty","nearbyCities":[{"city":"Mcintosh","state_name":"New Mexico","lat":34.86786,"lng":-106.04201,"zip":"87032","miles_from_dt":9.77},{"city":"Clines Corners","state_name":"New Mexico","lat":35.02255,"lng":-105.74037,"zip":"87070","miles_from_dt":10.44},{"city":"Stanley","state_name":"New Mexico","lat":35.16197,"lng":-105.89566,"zip":"87056","miles_from_dt":14.54},{"city":"Estancia","state_name":"New Mexico","lat":34.75117,"lng":-106.01074,"zip":"87016","miles_from_dt":15.09},{"city":"Edgewood","state_name":"New Mexico","lat":35.07535,"lng":-106.19123,"zip":"87015","miles_from_dt":18.47},{"city":"Tijeras","state_name":"New Mexico","lat":34.99647,"lng":-106.29764,"zip":"87059","miles_from_dt":22.62},{"city":"Albuquerque","state_name":"New Mexico","lat":34.99958,"lng":-106.33821,"zip":"87176","miles_from_dt":24.93},{"city":"Encino","state_name":"New Mexico","lat":34.76815,"lng":-105.45564,"zip":"88321","miles_from_dt":28.36},{"city":"Sandia Park","state_name":"New Mexico","lat":35.24866,"lng":-106.27629,"zip":"87047","miles_from_dt":29.47},{"city":"Ribera","state_name":"New Mexico","lat":35.22567,"lng":-105.50185,"zip":"87560","miles_from_dt":29.56}],"targetCityZipCode":"87035","targetCityState":"New Mexico"},"__N_SSG":true}