{"pageProps":{"stateName":"New-mexico","cityName":"san-acacia","nearbyCities":[{"city":"Polvadera","state_name":"New Mexico","lat":34.20567,"lng":-106.92056,"zip":"87828","miles_from_dt":5.66},{"city":"La Joya","state_name":"New Mexico","lat":34.35076,"lng":-106.78789,"zip":"87028","miles_from_dt":7.35},{"city":"Lemitar","state_name":"New Mexico","lat":34.18348,"lng":-106.95901,"zip":"87823","miles_from_dt":8},{"city":"Bosque","state_name":"New Mexico","lat":34.48616,"lng":-106.84202,"zip":"87006","miles_from_dt":14.24},{"city":"Veguita","state_name":"New Mexico","lat":34.46187,"lng":-106.69719,"zip":"87062","miles_from_dt":16.43},{"city":"Socorro","state_name":"New Mexico","lat":34.04824,"lng":-106.96668,"zip":"87801","miles_from_dt":16.81},{"city":"Jarales","state_name":"New Mexico","lat":34.59583,"lng":-106.7633,"zip":"87023","miles_from_dt":22.69},{"city":"Belen","state_name":"New Mexico","lat":34.63619,"lng":-106.82517,"zip":"87002","miles_from_dt":24.6}],"targetCityZipCode":"87831","targetCityState":"New Mexico"},"__N_SSG":true}