{"pageProps":{"stateName":"New-mexico","cityName":"texico","nearbyCities":[{"city":"Clovis","state_name":"New Mexico","lat":34.50114,"lng":-103.26616,"zip":"88101","miles_from_dt":11.32},{"city":"Bovina","state_name":"Texas","lat":34.53016,"lng":-102.88533,"zip":"79009","miles_from_dt":11.44},{"city":"Farwell","state_name":"Texas","lat":34.40798,"lng":-102.93821,"zip":"79325","miles_from_dt":13.44},{"city":"Clovis","state_name":"New Mexico","lat":34.39256,"lng":-103.21577,"zip":"88102","miles_from_dt":13.97},{"city":"Cannon Afb","state_name":"New Mexico","lat":34.38418,"lng":-103.31551,"zip":"88103","miles_from_dt":18.12},{"city":"Friona","state_name":"Texas","lat":34.68301,"lng":-102.78573,"zip":"79035","miles_from_dt":18.82},{"city":"Saint Vrain","state_name":"New Mexico","lat":34.48502,"lng":-103.4568,"zip":"88133","miles_from_dt":22.03},{"city":"Broadview","state_name":"New Mexico","lat":34.91023,"lng":-103.15863,"zip":"88112","miles_from_dt":24.38}],"targetCityZipCode":"88135","targetCityState":"New Mexico"},"__N_SSG":true}