{"pageProps":{"stateName":"New-mexico","cityName":"torreon","nearbyCities":[{"city":"Peralta","state_name":"New Mexico","lat":34.82827,"lng":-106.68619,"zip":"87042","miles_from_dt":19.31},{"city":"Bosque Farms","state_name":"New Mexico","lat":34.90354,"lng":-106.64321,"zip":"87068","miles_from_dt":20.22},{"city":"Los Lunas","state_name":"New Mexico","lat":34.78007,"lng":-106.72649,"zip":"87031","miles_from_dt":20.3},{"city":"Tome","state_name":"New Mexico","lat":34.74292,"lng":-106.73571,"zip":"87060","miles_from_dt":20.33},{"city":"Albuquerque","state_name":"New Mexico","lat":34.99958,"lng":-106.33821,"zip":"87176","miles_from_dt":20.45},{"city":"Tijeras","state_name":"New Mexico","lat":34.99647,"lng":-106.29764,"zip":"87059","miles_from_dt":20.65},{"city":"Albuquerque","state_name":"New Mexico","lat":34.98276,"lng":-106.51798,"zip":"87115","miles_from_dt":20.66},{"city":"Albuquerque","state_name":"New Mexico","lat":34.98375,"lng":-106.51606,"zip":"87185","miles_from_dt":20.68},{"city":"Estancia","state_name":"New Mexico","lat":34.75117,"lng":-106.01074,"zip":"87016","miles_from_dt":21.34},{"city":"Kirtland Afb","state_name":"New Mexico","lat":34.99486,"lng":-106.51697,"zip":"87117","miles_from_dt":21.41},{"city":"Mcintosh","state_name":"New Mexico","lat":34.86786,"lng":-106.04201,"zip":"87032","miles_from_dt":22.33},{"city":"Isleta","state_name":"New Mexico","lat":34.90986,"lng":-106.69501,"zip":"87022","miles_from_dt":22.74},{"city":"Jarales","state_name":"New Mexico","lat":34.59583,"lng":-106.7633,"zip":"87023","miles_from_dt":23.02},{"city":"Veguita","state_name":"New Mexico","lat":34.46187,"lng":-106.69719,"zip":"87062","miles_from_dt":24.59},{"city":"Albuquerque","state_name":"New Mexico","lat":35.00818,"lng":-106.61185,"zip":"87106","miles_from_dt":24.66},{"city":"Albuquerque","state_name":"New Mexico","lat":35.06206,"lng":-106.46991,"zip":"87123","miles_from_dt":25.12},{"city":"Mountainair","state_name":"New Mexico","lat":34.35591,"lng":-106.24227,"zip":"87036","miles_from_dt":25.34},{"city":"Belen","state_name":"New Mexico","lat":34.63619,"lng":-106.82517,"zip":"87002","miles_from_dt":25.71},{"city":"Albuquerque","state_name":"New Mexico","lat":35.06641,"lng":-106.50342,"zip":"87153","miles_from_dt":25.86},{"city":"Albuquerque","state_name":"New Mexico","lat":35.05056,"lng":-106.56028,"zip":"87116","miles_from_dt":25.9},{"city":"Albuquerque","state_name":"New Mexico","lat":34.99512,"lng":-106.68644,"zip":"87105","miles_from_dt":26.46},{"city":"Albuquerque","state_name":"New Mexico","lat":35.05507,"lng":-106.6195,"zip":"87119","miles_from_dt":27.66},{"city":"Albuquerque","state_name":"New Mexico","lat":35.07235,"lng":-106.57835,"zip":"87108","miles_from_dt":27.68},{"city":"Edgewood","state_name":"New Mexico","lat":35.07535,"lng":-106.19123,"zip":"87015","miles_from_dt":27.72},{"city":"Albuquerque","state_name":"New Mexico","lat":35.10093,"lng":-106.51622,"zip":"87112","miles_from_dt":28.35},{"city":"Albuquerque","state_name":"New Mexico","lat":35.10278,"lng":-106.51274,"zip":"87192","miles_from_dt":28.42},{"city":"Albuquerque","state_name":"New Mexico","lat":35.10523,"lng":-106.51407,"zip":"87181","miles_from_dt":28.6},{"city":"Albuquerque","state_name":"New Mexico","lat":35.08284,"lng":-106.61909,"zip":"87196","miles_from_dt":29.34},{"city":"Albuquerque","state_name":"New Mexico","lat":35.08942,"lng":-106.61982,"zip":"87131","miles_from_dt":29.76},{"city":"Albuquerque","state_name":"New Mexico","lat":35.06466,"lng":-106.67541,"zip":"87195","miles_from_dt":29.89},{"city":"Albuquerque","state_name":"New Mexico","lat":35.10812,"lng":-106.57816,"zip":"87110","miles_from_dt":29.95},{"city":"Albuquerque","state_name":"New Mexico","lat":35.08116,"lng":-106.64636,"zip":"87102","miles_from_dt":29.98}],"targetCityZipCode":"87061","targetCityState":"New Mexico"},"__N_SSG":true}