{"pageProps":{"stateName":"New-mexico","cityName":"medanales","nearbyCities":[{"city":"Hernandez","state_name":"New Mexico","lat":36.1043,"lng":-106.2454,"zip":"87537","miles_from_dt":5.97},{"city":"Ojo Caliente","state_name":"New Mexico","lat":36.23237,"lng":-106.0568,"zip":"87549","miles_from_dt":8.16},{"city":"Ohkay Owingeh","state_name":"New Mexico","lat":36.07242,"lng":-106.07185,"zip":"87566","miles_from_dt":9.52},{"city":"Velarde","state_name":"New Mexico","lat":36.15323,"lng":-106.00246,"zip":"87582","miles_from_dt":10.32},{"city":"El Rito","state_name":"New Mexico","lat":36.34088,"lng":-106.20198,"zip":"87530","miles_from_dt":11.44},{"city":"Alcalde","state_name":"New Mexico","lat":36.08905,"lng":-105.96448,"zip":"87511","miles_from_dt":13.7},{"city":"Espanola","state_name":"New Mexico","lat":35.99112,"lng":-106.08,"zip":"87533","miles_from_dt":14.01},{"city":"Espanola","state_name":"New Mexico","lat":35.97965,"lng":-106.1048,"zip":"87532","miles_from_dt":14.23},{"city":"Canones","state_name":"New Mexico","lat":36.18116,"lng":-106.46149,"zip":"87516","miles_from_dt":15.47},{"city":"Santa Cruz","state_name":"New Mexico","lat":35.99401,"lng":-106.01872,"zip":"87567","miles_from_dt":15.6},{"city":"Dixon","state_name":"New Mexico","lat":36.16875,"lng":-105.86352,"zip":"87527","miles_from_dt":17.97},{"city":"La Madera","state_name":"New Mexico","lat":36.41192,"lng":-106.02393,"zip":"87539","miles_from_dt":18.61},{"city":"Embudo","state_name":"New Mexico","lat":36.25326,"lng":-105.84584,"zip":"87531","miles_from_dt":19.69},{"city":"Youngsville","state_name":"New Mexico","lat":36.1849,"lng":-106.53923,"zip":"87064","miles_from_dt":19.82},{"city":"Los Alamos","state_name":"New Mexico","lat":35.89354,"lng":-106.28505,"zip":"87545","miles_from_dt":20.24},{"city":"Abiquiu","state_name":"New Mexico","lat":36.35906,"lng":-106.48312,"zip":"87510","miles_from_dt":20.91},{"city":"Cordova","state_name":"New Mexico","lat":36.01115,"lng":-105.86273,"zip":"87523","miles_from_dt":21.3},{"city":"Vallecitos","state_name":"New Mexico","lat":36.51531,"lng":-106.16017,"zip":"87581","miles_from_dt":23.46},{"city":"Chimayo","state_name":"New Mexico","lat":35.96889,"lng":-105.84639,"zip":"87522","miles_from_dt":23.71},{"city":"Truchas","state_name":"New Mexico","lat":36.04392,"lng":-105.78539,"zip":"87578","miles_from_dt":24.13},{"city":"White Rock","state_name":"New Mexico","lat":35.81046,"lng":-106.20579,"zip":"87547","miles_from_dt":25.2},{"city":"Penasco","state_name":"New Mexico","lat":36.20389,"lng":-105.72094,"zip":"87553","miles_from_dt":26},{"city":"Petaca","state_name":"New Mexico","lat":36.54573,"lng":-106.0633,"zip":"87554","miles_from_dt":26.41},{"city":"Carson","state_name":"New Mexico","lat":36.39035,"lng":-105.79269,"zip":"87517","miles_from_dt":26.43},{"city":"Santa Fe","state_name":"New Mexico","lat":35.82119,"lng":-105.96802,"zip":"87506","miles_from_dt":27.29},{"city":"Coyote","state_name":"New Mexico","lat":36.13341,"lng":-106.67312,"zip":"87012","miles_from_dt":27.45},{"city":"Chamisal","state_name":"New Mexico","lat":36.08506,"lng":-105.70477,"zip":"87521","miles_from_dt":27.57},{"city":"Santa Fe","state_name":"New Mexico","lat":35.81016,"lng":-105.98409,"zip":"87504","miles_from_dt":27.59},{"city":"Los Alamos","state_name":"New Mexico","lat":35.7869,"lng":-106.31914,"zip":"87544","miles_from_dt":27.84},{"city":"Santa Fe","state_name":"New Mexico","lat":35.79483,"lng":-105.99355,"zip":"87592","miles_from_dt":28.36},{"city":"Santa Fe","state_name":"New Mexico","lat":35.79313,"lng":-105.99364,"zip":"87594","miles_from_dt":28.46},{"city":"Canjilon","state_name":"New Mexico","lat":36.56257,"lng":-106.3696,"zip":"87515","miles_from_dt":28.6},{"city":"Tesuque","state_name":"New Mexico","lat":35.80615,"lng":-105.91527,"zip":"87574","miles_from_dt":29.62},{"city":"Llano","state_name":"New Mexico","lat":36.10399,"lng":-105.65781,"zip":"87543","miles_from_dt":29.89}],"targetCityZipCode":"87548","targetCityState":"New Mexico"},"__N_SSG":true}