{"pageProps":{"stateName":"New-mexico","cityName":"mentmore","nearbyCities":[{"city":"Gallup","state_name":"New Mexico","lat":35.52153,"lng":-108.76524,"zip":"87301","miles_from_dt":10.45},{"city":"Lupton","state_name":"Arizona","lat":35.35086,"lng":-109.08737,"zip":"86508","miles_from_dt":11.94},{"city":"Gallup","state_name":"New Mexico","lat":35.4312,"lng":-108.72851,"zip":"87302","miles_from_dt":12.47},{"city":"Gamerco","state_name":"New Mexico","lat":35.58024,"lng":-108.75244,"zip":"87317","miles_from_dt":12.86},{"city":"Gallup","state_name":"New Mexico","lat":35.40327,"lng":-108.73151,"zip":"87305","miles_from_dt":12.93},{"city":"Vanderwagen","state_name":"New Mexico","lat":35.27223,"lng":-108.88765,"zip":"87326","miles_from_dt":14.44},{"city":"Yatahey","state_name":"New Mexico","lat":35.66114,"lng":-108.79477,"zip":"87375","miles_from_dt":15.18},{"city":"Rehoboth","state_name":"New Mexico","lat":35.48531,"lng":-108.66253,"zip":"87322","miles_from_dt":15.79},{"city":"Window Rock","state_name":"Arizona","lat":35.70301,"lng":-108.99057,"zip":"86515","miles_from_dt":15.82},{"city":"Houck","state_name":"Arizona","lat":35.35206,"lng":-109.25868,"zip":"86506","miles_from_dt":19.82},{"city":"Saint Michaels","state_name":"Arizona","lat":35.66536,"lng":-109.26397,"zip":"86511","miles_from_dt":22.29},{"city":"Fort Wingate","state_name":"New Mexico","lat":35.48684,"lng":-108.53328,"zip":"87316","miles_from_dt":23.08},{"city":"Mexican Springs","state_name":"New Mexico","lat":35.80762,"lng":-108.87136,"zip":"87320","miles_from_dt":23.15},{"city":"Church Rock","state_name":"New Mexico","lat":35.60501,"lng":-108.50061,"zip":"87311","miles_from_dt":26.41},{"city":"Brimhall","state_name":"New Mexico","lat":35.75365,"lng":-108.60267,"zip":"87310","miles_from_dt":27.01},{"city":"Jamestown","state_name":"New Mexico","lat":35.38502,"lng":-108.47052,"zip":"87347","miles_from_dt":27.36},{"city":"Fort Defiance","state_name":"Arizona","lat":35.86087,"lng":-109.13995,"zip":"86504","miles_from_dt":28.71},{"city":"Zuni","state_name":"New Mexico","lat":35.06529,"lng":-108.77813,"zip":"87327","miles_from_dt":29.86}],"targetCityZipCode":"87319","targetCityState":"New Mexico"},"__N_SSG":true}