{"pageProps":{"stateName":"New-mexico","cityName":"tesuque","nearbyCities":[{"city":"Santa Fe","state_name":"New Mexico","lat":35.82119,"lng":-105.96802,"zip":"87506","miles_from_dt":3.14},{"city":"Santa Fe","state_name":"New Mexico","lat":35.81016,"lng":-105.98409,"zip":"87504","miles_from_dt":3.87},{"city":"Santa Fe","state_name":"New Mexico","lat":35.79483,"lng":-105.99355,"zip":"87592","miles_from_dt":4.47},{"city":"Santa Fe","state_name":"New Mexico","lat":35.79313,"lng":-105.99364,"zip":"87594","miles_from_dt":4.49},{"city":"Santa Fe","state_name":"New Mexico","lat":35.71273,"lng":-105.86523,"zip":"87501","miles_from_dt":7.03},{"city":"Santa Fe","state_name":"New Mexico","lat":35.68368,"lng":-105.93889,"zip":"87503","miles_from_dt":8.55},{"city":"Santa Fe","state_name":"New Mexico","lat":35.67319,"lng":-105.95444,"zip":"87509","miles_from_dt":9.43},{"city":"Santa Fe","state_name":"New Mexico","lat":35.66283,"lng":-105.98017,"zip":"87502","miles_from_dt":10.53},{"city":"Chimayo","state_name":"New Mexico","lat":35.96889,"lng":-105.84639,"zip":"87522","miles_from_dt":11.87},{"city":"Tererro","state_name":"New Mexico","lat":35.77176,"lng":-105.70715,"zip":"87573","miles_from_dt":11.93},{"city":"Santa Fe","state_name":"New Mexico","lat":35.62307,"lng":-105.86891,"zip":"87505","miles_from_dt":12.89},{"city":"Santa Cruz","state_name":"New Mexico","lat":35.99401,"lng":-106.01872,"zip":"87567","miles_from_dt":14.19},{"city":"Cordova","state_name":"New Mexico","lat":36.01115,"lng":-105.86273,"zip":"87523","miles_from_dt":14.44},{"city":"Espanola","state_name":"New Mexico","lat":35.99112,"lng":-106.08,"zip":"87533","miles_from_dt":15.75},{"city":"Espanola","state_name":"New Mexico","lat":35.97965,"lng":-106.1048,"zip":"87532","miles_from_dt":16},{"city":"White Rock","state_name":"New Mexico","lat":35.81046,"lng":-106.20579,"zip":"87547","miles_from_dt":16.32},{"city":"Santa Fe","state_name":"New Mexico","lat":35.621,"lng":-106.11061,"zip":"87507","miles_from_dt":16.84},{"city":"Truchas","state_name":"New Mexico","lat":36.04392,"lng":-105.78539,"zip":"87578","miles_from_dt":17.94},{"city":"Glorieta","state_name":"New Mexico","lat":35.56675,"lng":-105.74719,"zip":"87535","miles_from_dt":19.02},{"city":"Pecos","state_name":"New Mexico","lat":35.67026,"lng":-105.61382,"zip":"87552","miles_from_dt":19.36},{"city":"Alcalde","state_name":"New Mexico","lat":36.08905,"lng":-105.96448,"zip":"87511","miles_from_dt":19.7},{"city":"Santa Fe","state_name":"New Mexico","lat":35.52064,"lng":-105.94593,"zip":"87508","miles_from_dt":19.76},{"city":"Ohkay Owingeh","state_name":"New Mexico","lat":36.07242,"lng":-106.07185,"zip":"87566","miles_from_dt":20.35},{"city":"Los Alamos","state_name":"New Mexico","lat":35.89354,"lng":-106.28505,"zip":"87545","miles_from_dt":21.61},{"city":"Chamisal","state_name":"New Mexico","lat":36.08506,"lng":-105.70477,"zip":"87521","miles_from_dt":22.56},{"city":"Los Alamos","state_name":"New Mexico","lat":35.7869,"lng":-106.31914,"zip":"87544","miles_from_dt":22.72},{"city":"Velarde","state_name":"New Mexico","lat":36.15323,"lng":-106.00246,"zip":"87582","miles_from_dt":24.42},{"city":"Llano","state_name":"New Mexico","lat":36.10399,"lng":-105.65781,"zip":"87543","miles_from_dt":25.1},{"city":"Dixon","state_name":"New Mexico","lat":36.16875,"lng":-105.86352,"zip":"87527","miles_from_dt":25.17},{"city":"Pena Blanca","state_name":"New Mexico","lat":35.60202,"lng":-106.31054,"zip":"87041","miles_from_dt":26.31},{"city":"Mora","state_name":"New Mexico","lat":35.942,"lng":-105.47009,"zip":"87732","miles_from_dt":26.68},{"city":"Rociada","state_name":"New Mexico","lat":35.87161,"lng":-105.44427,"zip":"87742","miles_from_dt":26.82},{"city":"Cochiti Lake","state_name":"New Mexico","lat":35.64496,"lng":-106.36366,"zip":"87083","miles_from_dt":27.55},{"city":"Hernandez","state_name":"New Mexico","lat":36.1043,"lng":-106.2454,"zip":"87537","miles_from_dt":27.66},{"city":"Lamy","state_name":"New Mexico","lat":35.39987,"lng":-105.8759,"zip":"87540","miles_from_dt":28.1},{"city":"Trampas","state_name":"New Mexico","lat":36.15321,"lng":-105.62299,"zip":"87576","miles_from_dt":29},{"city":"Penasco","state_name":"New Mexico","lat":36.20389,"lng":-105.72094,"zip":"87553","miles_from_dt":29.5},{"city":"Vadito","state_name":"New Mexico","lat":36.12885,"lng":-105.56729,"zip":"87579","miles_from_dt":29.59},{"city":"Medanales","state_name":"New Mexico","lat":36.1756,"lng":-106.18491,"zip":"87548","miles_from_dt":29.62},{"city":"Montezuma","state_name":"New Mexico","lat":35.70411,"lng":-105.39881,"zip":"87731","miles_from_dt":29.86}],"targetCityZipCode":"87574","targetCityState":"New Mexico"},"__N_SSG":true}