{"pageProps":{"stateName":"Alabama","cityName":"ariton","nearbyCities":[{"city":"Brundidge","state_name":"Alabama","lat":31.66751,"lng":-85.81439,"zip":"36010","miles_from_dt":8.97},{"city":"Clio","state_name":"Alabama","lat":31.68142,"lng":-85.55411,"zip":"36017","miles_from_dt":9.44},{"city":"Ozark","state_name":"Alabama","lat":31.46648,"lng":-85.61641,"zip":"36360","miles_from_dt":10.08},{"city":"Ozark","state_name":"Alabama","lat":31.45446,"lng":-85.64796,"zip":"36361","miles_from_dt":10.31},{"city":"Skipperville","state_name":"Alabama","lat":31.5723,"lng":-85.48956,"zip":"36374","miles_from_dt":11.62},{"city":"Louisville","state_name":"Alabama","lat":31.79011,"lng":-85.59066,"zip":"36048","miles_from_dt":14.14},{"city":"Jack","state_name":"Alabama","lat":31.55783,"lng":-85.9331,"zip":"36346","miles_from_dt":15.01},{"city":"Fort Rucker","state_name":"Alabama","lat":31.35072,"lng":-85.69027,"zip":"36362","miles_from_dt":17.24},{"city":"Clopton","state_name":"Alabama","lat":31.63532,"lng":-85.38748,"zip":"36317","miles_from_dt":17.63},{"city":"New Brockton","state_name":"Alabama","lat":31.41469,"lng":-85.90596,"zip":"36351","miles_from_dt":18.35},{"city":"Banks","state_name":"Alabama","lat":31.88137,"lng":-85.72802,"zip":"36005","miles_from_dt":19.5},{"city":"Newville","state_name":"Alabama","lat":31.4817,"lng":-85.36208,"zip":"36353","miles_from_dt":20.68},{"city":"Midland City","state_name":"Alabama","lat":31.3435,"lng":-85.49669,"zip":"36350","miles_from_dt":20.89},{"city":"Pinckard","state_name":"Alabama","lat":31.3208,"lng":-85.54738,"zip":"36371","miles_from_dt":20.91},{"city":"Troy","state_name":"Alabama","lat":31.80271,"lng":-85.95514,"zip":"36082","miles_from_dt":21.19},{"city":"Enterprise","state_name":"Alabama","lat":31.32606,"lng":-85.85431,"zip":"36331","miles_from_dt":21.45},{"city":"Troy","state_name":"Alabama","lat":31.76605,"lng":-86.01206,"zip":"36079","miles_from_dt":22.44},{"city":"Clayton","state_name":"Alabama","lat":31.84562,"lng":-85.4255,"zip":"36016","miles_from_dt":22.7},{"city":"Enterprise","state_name":"Alabama","lat":31.30743,"lng":-85.85854,"zip":"36330","miles_from_dt":22.7},{"city":"Daleville","state_name":"Alabama","lat":31.25575,"lng":-85.73249,"zip":"36322","miles_from_dt":23.95},{"city":"Newton","state_name":"Alabama","lat":31.25682,"lng":-85.61629,"zip":"36352","miles_from_dt":24.04},{"city":"Troy","state_name":"Alabama","lat":31.90663,"lng":-85.89804,"zip":"36081","miles_from_dt":24.55},{"city":"Glenwood","state_name":"Alabama","lat":31.62308,"lng":-86.11155,"zip":"36034","miles_from_dt":25.27},{"city":"Elba","state_name":"Alabama","lat":31.42702,"lng":-86.07221,"zip":"36323","miles_from_dt":25.87},{"city":"Headland","state_name":"Alabama","lat":31.3741,"lng":-85.31,"zip":"36345","miles_from_dt":27.04},{"city":"Perote","state_name":"Alabama","lat":31.9919,"lng":-85.75116,"zip":"36061","miles_from_dt":27.23},{"city":"Abbeville","state_name":"Alabama","lat":31.60296,"lng":-85.21229,"zip":"36310","miles_from_dt":27.8},{"city":"Dothan","state_name":"Alabama","lat":31.26389,"lng":-85.39213,"zip":"36303","miles_from_dt":28.91},{"city":"Goshen","state_name":"Alabama","lat":31.79285,"lng":-86.12415,"zip":"36035","miles_from_dt":29.12},{"city":"Dothan","state_name":"Alabama","lat":31.20229,"lng":-85.49798,"zip":"36305","miles_from_dt":29.58},{"city":"Bellwood","state_name":"Alabama","lat":31.18024,"lng":-85.79368,"zip":"36313","miles_from_dt":29.7}],"targetCityZipCode":"36311","targetCityState":"Alabama"},"__N_SSG":true}