{"pageProps":{"stateName":"Alabama","cityName":"ashland","nearbyCities":[{"city":"Millerville","state_name":"Alabama","lat":33.19513,"lng":-85.94659,"zip":"36267","miles_from_dt":5.28},{"city":"Cragford","state_name":"Alabama","lat":33.18094,"lng":-85.73933,"zip":"36255","miles_from_dt":8.04},{"city":"Lineville","state_name":"Alabama","lat":33.35338,"lng":-85.75062,"zip":"36266","miles_from_dt":10.79},{"city":"Goodwater","state_name":"Alabama","lat":33.08985,"lng":-86.06057,"zip":"35072","miles_from_dt":14.88},{"city":"Daviston","state_name":"Alabama","lat":33.04181,"lng":-85.70775,"zip":"36256","miles_from_dt":15.86},{"city":"Talladega","state_name":"Alabama","lat":33.36898,"lng":-86.1005,"zip":"35160","miles_from_dt":16.64},{"city":"Hollins","state_name":"Alabama","lat":33.1563,"lng":-86.15456,"zip":"35082","miles_from_dt":17.51},{"city":"Wadley","state_name":"Alabama","lat":33.12644,"lng":-85.57772,"zip":"36276","miles_from_dt":18.13},{"city":"Munford","state_name":"Alabama","lat":33.49469,"lng":-85.94016,"zip":"36268","miles_from_dt":18.75},{"city":"Delta","state_name":"Alabama","lat":33.47795,"lng":-85.716,"zip":"36258","miles_from_dt":19.15},{"city":"Sycamore","state_name":"Alabama","lat":33.24378,"lng":-86.20709,"zip":"35149","miles_from_dt":19.82},{"city":"Talladega","state_name":"Alabama","lat":33.43765,"lng":-86.10313,"zip":"35161","miles_from_dt":19.85},{"city":"Wedowee","state_name":"Alabama","lat":33.31885,"lng":-85.5253,"zip":"36278","miles_from_dt":20.61},{"city":"Alexander City","state_name":"Alabama","lat":32.91433,"lng":-85.93816,"zip":"35010","miles_from_dt":22.16},{"city":"Sylacauga","state_name":"Alabama","lat":33.18581,"lng":-86.24454,"zip":"35150","miles_from_dt":22.18},{"city":"Kellyton","state_name":"Alabama","lat":32.9426,"lng":-86.07457,"zip":"35089","miles_from_dt":23.23},{"city":"Jacksons Gap","state_name":"Alabama","lat":32.88585,"lng":-85.83232,"zip":"36861","miles_from_dt":23.79},{"city":"Oxford","state_name":"Alabama","lat":33.58205,"lng":-85.83312,"zip":"36203","miles_from_dt":24.34},{"city":"Alpine","state_name":"Alabama","lat":33.36097,"lng":-86.25909,"zip":"35014","miles_from_dt":24.51},{"city":"Eastaboga","state_name":"Alabama","lat":33.58662,"lng":-86.00025,"zip":"36260","miles_from_dt":25.79},{"city":"Bynum","state_name":"Alabama","lat":33.60249,"lng":-85.96263,"zip":"36253","miles_from_dt":26.28},{"city":"Bon Air","state_name":"Alabama","lat":33.26321,"lng":-86.33408,"zip":"35032","miles_from_dt":27.24},{"city":"De Armanville","state_name":"Alabama","lat":33.62852,"lng":-85.74325,"zip":"36257","miles_from_dt":28.36},{"city":"Childersburg","state_name":"Alabama","lat":33.26859,"lng":-86.36324,"zip":"35044","miles_from_dt":28.95},{"city":"Anniston","state_name":"Alabama","lat":33.65082,"lng":-85.88264,"zip":"36201","miles_from_dt":29.02},{"city":"Roanoke","state_name":"Alabama","lat":33.17687,"lng":-85.36283,"zip":"36274","miles_from_dt":29.34},{"city":"Woodland","state_name":"Alabama","lat":33.38427,"lng":-85.3891,"zip":"36280","miles_from_dt":29.54},{"city":"Dadeville","state_name":"Alabama","lat":32.80557,"lng":-85.76809,"zip":"36853","miles_from_dt":29.79}],"targetCityZipCode":"36251","targetCityState":"Alabama"},"__N_SSG":true}