{"pageProps":{"stateName":"Alabama","cityName":"bryant","nearbyCities":[{"city":"Higdon","state_name":"Alabama","lat":34.82994,"lng":-85.6125,"zip":"35979","miles_from_dt":6.38},{"city":"Trenton","state_name":"Georgia","lat":34.91136,"lng":-85.53079,"zip":"30752","miles_from_dt":6.63},{"city":"Bridgeport","state_name":"Alabama","lat":34.95009,"lng":-85.75855,"zip":"35740","miles_from_dt":6.69},{"city":"Flat Rock","state_name":"Alabama","lat":34.79696,"lng":-85.68833,"zip":"35966","miles_from_dt":8.66},{"city":"Guild","state_name":"Tennessee","lat":35.02085,"lng":-85.53179,"zip":"37340","miles_from_dt":9.66},{"city":"Jasper","state_name":"Tennessee","lat":35.06088,"lng":-85.61894,"zip":"37347","miles_from_dt":9.98},{"city":"Whiteside","state_name":"Tennessee","lat":35.00198,"lng":-85.50353,"zip":"37396","miles_from_dt":10.01},{"city":"Wildwood","state_name":"Georgia","lat":34.94164,"lng":-85.4324,"zip":"30757","miles_from_dt":12.31},{"city":"South Pittsburg","state_name":"Tennessee","lat":35.07265,"lng":-85.75754,"zip":"37380","miles_from_dt":12.36},{"city":"Rising Fawn","state_name":"Georgia","lat":34.79534,"lng":-85.47846,"zip":"30738","miles_from_dt":12.79},{"city":"Ider","state_name":"Alabama","lat":34.72218,"lng":-85.64072,"zip":"35981","miles_from_dt":13.5},{"city":"Stevenson","state_name":"Alabama","lat":34.89152,"lng":-85.88614,"zip":"35772","miles_from_dt":13.68},{"city":"Lookout Mountain","state_name":"Georgia","lat":34.93681,"lng":-85.3882,"zip":"30750","miles_from_dt":14.77},{"city":"Chattanooga","state_name":"Tennessee","lat":35.04052,"lng":-85.41734,"zip":"37419","miles_from_dt":15.54},{"city":"Flintstone","state_name":"Georgia","lat":34.92443,"lng":-85.35359,"zip":"30725","miles_from_dt":16.68},{"city":"Sequatchie","state_name":"Tennessee","lat":35.16404,"lng":-85.65818,"zip":"37374","miles_from_dt":16.97},{"city":"Lookout Mountain","state_name":"Tennessee","lat":34.99445,"lng":-85.3516,"zip":"37350","miles_from_dt":17.59},{"city":"Chattanooga","state_name":"Tennessee","lat":35.0012,"lng":-85.34466,"zip":"37409","miles_from_dt":18.11},{"city":"Pisgah","state_name":"Alabama","lat":34.69393,"lng":-85.82423,"zip":"35765","miles_from_dt":18.43},{"city":"Chickamauga","state_name":"Georgia","lat":34.77943,"lng":-85.36028,"zip":"30707","miles_from_dt":18.9},{"city":"Chattanooga","state_name":"Tennessee","lat":35.11757,"lng":-85.40429,"zip":"37405","miles_from_dt":19.48},{"city":"Henagar","state_name":"Alabama","lat":34.64239,"lng":-85.72983,"zip":"35978","miles_from_dt":19.57},{"city":"Sherwood","state_name":"Tennessee","lat":35.04748,"lng":-85.95834,"zip":"37376","miles_from_dt":19.78},{"city":"Chattanooga","state_name":"Tennessee","lat":35.002,"lng":-85.31366,"zip":"37410","miles_from_dt":19.8},{"city":"Chattanooga","state_name":"Tennessee","lat":35.03048,"lng":-85.31237,"zip":"37408","miles_from_dt":20.53},{"city":"Hollywood","state_name":"Alabama","lat":34.75593,"lng":-85.95119,"zip":"35752","miles_from_dt":20.57},{"city":"Chattanooga","state_name":"Tennessee","lat":35.04672,"lng":-85.31553,"zip":"37402","miles_from_dt":20.81},{"city":"Rossville","state_name":"Georgia","lat":34.95168,"lng":-85.28213,"zip":"30741","miles_from_dt":20.86},{"city":"Fackler","state_name":"Alabama","lat":34.8287,"lng":-85.99868,"zip":"35746","miles_from_dt":20.89},{"city":"Chattanooga","state_name":"Tennessee","lat":35.03852,"lng":-85.30885,"zip":"37401","miles_from_dt":20.93},{"city":"Sewanee","state_name":"Tennessee","lat":35.15355,"lng":-85.88173,"zip":"37375","miles_from_dt":20.99},{"city":"Chattanooga","state_name":"Tennessee","lat":35.04897,"lng":-85.31217,"zip":"37450","miles_from_dt":21.05},{"city":"Chattanooga","state_name":"Tennessee","lat":35.002,"lng":-85.28941,"zip":"37407","miles_from_dt":21.12},{"city":"Valley Head","state_name":"Alabama","lat":34.60858,"lng":-85.63162,"zip":"35989","miles_from_dt":21.35},{"city":"Whitwell","state_name":"Tennessee","lat":35.21046,"lng":-85.51819,"zip":"37397","miles_from_dt":21.45},{"city":"Chattanooga","state_name":"Tennessee","lat":35.0476,"lng":-85.29448,"zip":"37403","miles_from_dt":21.92},{"city":"Chattanooga","state_name":"Tennessee","lat":35.02827,"lng":-85.27331,"zip":"37404","miles_from_dt":22.54},{"city":"Chattanooga","state_name":"Tennessee","lat":35.14105,"lng":-85.34866,"zip":"37422","miles_from_dt":22.88},{"city":"Fort Oglethorpe","state_name":"Georgia","lat":34.93566,"lng":-85.24482,"zip":"30742","miles_from_dt":22.88},{"city":"Monteagle","state_name":"Tennessee","lat":35.22952,"lng":-85.82393,"zip":"37356","miles_from_dt":23.7},{"city":"Chattanooga","state_name":"Tennessee","lat":34.9974,"lng":-85.22726,"zip":"37412","miles_from_dt":24.46},{"city":"Chattanooga","state_name":"Tennessee","lat":35.0262,"lng":-85.23041,"zip":"37414","miles_from_dt":24.81},{"city":"Chattanooga","state_name":"Tennessee","lat":35.02655,"lng":-85.23026,"zip":"37411","miles_from_dt":24.82},{"city":"Menlo","state_name":"Georgia","lat":34.58317,"lng":-85.47894,"zip":"30731","miles_from_dt":24.99},{"city":"Tracy City","state_name":"Tennessee","lat":35.27745,"lng":-85.71427,"zip":"37387","miles_from_dt":25.07},{"city":"Chattanooga","state_name":"Tennessee","lat":35.07246,"lng":-85.24541,"zip":"37406","miles_from_dt":25.16},{"city":"Sewanee","state_name":"Tennessee","lat":35.20984,"lng":-85.91373,"zip":"37383","miles_from_dt":25.16},{"city":"Lupton City","state_name":"Tennessee","lat":35.10073,"lng":-85.26135,"zip":"37351","miles_from_dt":25.26},{"city":"Chattanooga","state_name":"Tennessee","lat":35.12735,"lng":-85.27932,"zip":"37415","miles_from_dt":25.37},{"city":"Dutton","state_name":"Alabama","lat":34.61435,"lng":-85.90603,"zip":"35744","miles_from_dt":25.59},{"city":"Rock Spring","state_name":"Georgia","lat":34.80345,"lng":-85.21515,"zip":"30739","miles_from_dt":25.79},{"city":"Cowan","state_name":"Tennessee","lat":35.17879,"lng":-85.97994,"zip":"37318","miles_from_dt":26.06},{"city":"Sylvania","state_name":"Alabama","lat":34.5589,"lng":-85.79994,"zip":"35988","miles_from_dt":26.23},{"city":"Signal Mountain","state_name":"Tennessee","lat":35.21243,"lng":-85.3389,"zip":"37377","miles_from_dt":26.79},{"city":"Mentone","state_name":"Alabama","lat":34.52781,"lng":-85.56594,"zip":"35984","miles_from_dt":27.29},{"city":"Scottsboro","state_name":"Alabama","lat":34.77852,"lng":-86.10383,"zip":"35768","miles_from_dt":27.67},{"city":"La Fayette","state_name":"Georgia","lat":34.68015,"lng":-85.23417,"zip":"30728","miles_from_dt":28.65},{"city":"Chattanooga","state_name":"Tennessee","lat":35.02915,"lng":-85.153,"zip":"37421","miles_from_dt":29.08},{"city":"Graysville","state_name":"Georgia","lat":34.97579,"lng":-85.13959,"zip":"30726","miles_from_dt":29.09},{"city":"Ringgold","state_name":"Georgia","lat":34.90244,"lng":-85.13306,"zip":"30736","miles_from_dt":29.22},{"city":"Chattanooga","state_name":"Tennessee","lat":35.03024,"lng":-85.14847,"zip":"37424","miles_from_dt":29.34},{"city":"Pelham","state_name":"Tennessee","lat":35.32054,"lng":-85.84224,"zip":"37366","miles_from_dt":29.87}],"targetCityZipCode":"35958","targetCityState":"Alabama"},"__N_SSG":true}