{"pageProps":{"stateName":"Alabama","cityName":"bucks","nearbyCities":[{"city":"Axis","state_name":"Alabama","lat":30.94978,"lng":-88.0225,"zip":"36505","miles_from_dt":3.76},{"city":"Mount Vernon","state_name":"Alabama","lat":31.08553,"lng":-88.04991,"zip":"36560","miles_from_dt":6.14},{"city":"Creola","state_name":"Alabama","lat":30.8898,"lng":-88.02329,"zip":"36525","miles_from_dt":7.86},{"city":"Calvert","state_name":"Alabama","lat":31.15516,"lng":-87.99021,"zip":"36513","miles_from_dt":10.53},{"city":"Satsuma","state_name":"Alabama","lat":30.85617,"lng":-88.05956,"zip":"36572","miles_from_dt":10.55},{"city":"Chunchula","state_name":"Alabama","lat":30.96241,"lng":-88.18526,"zip":"36521","miles_from_dt":10.76},{"city":"Saraland","state_name":"Alabama","lat":30.85055,"lng":-88.10415,"zip":"36571","miles_from_dt":11.91},{"city":"Malcolm","state_name":"Alabama","lat":31.20649,"lng":-87.97127,"zip":"36556","miles_from_dt":14.19},{"city":"Stockton","state_name":"Alabama","lat":31.11395,"lng":-87.78616,"zip":"36579","miles_from_dt":15.32},{"city":"McIntosh","state_name":"Alabama","lat":31.22852,"lng":-88.08658,"zip":"36553","miles_from_dt":16.16},{"city":"Mobile","state_name":"Alabama","lat":30.77528,"lng":-88.08106,"zip":"36671","miles_from_dt":16.26},{"city":"Mobile","state_name":"Alabama","lat":30.7702,"lng":-88.07747,"zip":"36611","miles_from_dt":16.55},{"city":"Eight Mile","state_name":"Alabama","lat":30.81175,"lng":-88.18176,"zip":"36613","miles_from_dt":16.67},{"city":"Citronelle","state_name":"Alabama","lat":31.08296,"lng":-88.27795,"zip":"36522","miles_from_dt":16.8},{"city":"Mobile","state_name":"Alabama","lat":30.75283,"lng":-88.11285,"zip":"36612","miles_from_dt":18.3},{"city":"Mobile","state_name":"Alabama","lat":30.73721,"lng":-88.07389,"zip":"36610","miles_from_dt":18.72},{"city":"Bay Minette","state_name":"Alabama","lat":30.85893,"lng":-87.74188,"zip":"36507","miles_from_dt":18.78},{"city":"Mobile","state_name":"Alabama","lat":30.73683,"lng":-88.10896,"zip":"36663","miles_from_dt":19.27},{"city":"Mobile","state_name":"Alabama","lat":30.71544,"lng":-88.09518,"zip":"36617","miles_from_dt":20.46},{"city":"Perdido","state_name":"Alabama","lat":31.03738,"lng":-87.66274,"zip":"36562","miles_from_dt":20.75},{"city":"Mobile","state_name":"Alabama","lat":30.73612,"lng":-88.17333,"zip":"36618","miles_from_dt":20.8},{"city":"Mobile","state_name":"Alabama","lat":30.69834,"lng":-88.03815,"zip":"36602","miles_from_dt":21.07},{"city":"Mobile","state_name":"Alabama","lat":30.69745,"lng":-88.04988,"zip":"36601","miles_from_dt":21.2},{"city":"Mobile","state_name":"Alabama","lat":30.69555,"lng":-88.04694,"zip":"36675","miles_from_dt":21.31},{"city":"Mobile","state_name":"Alabama","lat":30.6943,"lng":-88.04192,"zip":"36644","miles_from_dt":21.37},{"city":"Mobile","state_name":"Alabama","lat":30.69385,"lng":-88.04518,"zip":"36628","miles_from_dt":21.42},{"city":"Mobile","state_name":"Alabama","lat":30.69586,"lng":-88.0803,"zip":"36652","miles_from_dt":21.58},{"city":"Mobile","state_name":"Alabama","lat":30.6912,"lng":-88.04205,"zip":"36691","miles_from_dt":21.58},{"city":"Mobile","state_name":"Alabama","lat":30.70005,"lng":-88.10812,"zip":"36670","miles_from_dt":21.68},{"city":"Mobile","state_name":"Alabama","lat":30.699,"lng":-88.10552,"zip":"36607","miles_from_dt":21.71},{"city":"Mobile","state_name":"Alabama","lat":30.68426,"lng":-88.05273,"zip":"36603","miles_from_dt":22.12},{"city":"Mobile","state_name":"Alabama","lat":30.6827,"lng":-88.06879,"zip":"36641","miles_from_dt":22.36},{"city":"Mobile","state_name":"Alabama","lat":30.68229,"lng":-88.06837,"zip":"36604","miles_from_dt":22.38},{"city":"Mobile","state_name":"Alabama","lat":30.68127,"lng":-88.06783,"zip":"36640","miles_from_dt":22.45},{"city":"Semmes","state_name":"Alabama","lat":30.76825,"lng":-88.27276,"zip":"36575","miles_from_dt":22.48},{"city":"Daphne","state_name":"Alabama","lat":30.69679,"lng":-87.87734,"zip":"36527","miles_from_dt":22.54},{"city":"Stapleton","state_name":"Alabama","lat":30.73867,"lng":-87.77275,"zip":"36578","miles_from_dt":23.05},{"city":"Mobile","state_name":"Alabama","lat":30.6743,"lng":-88.08773,"zip":"36660","miles_from_dt":23.13},{"city":"Wilmer","state_name":"Alabama","lat":30.83599,"lng":-88.35006,"zip":"36587","miles_from_dt":23.24},{"city":"Little River","state_name":"Alabama","lat":31.25212,"lng":-87.74294,"zip":"36550","miles_from_dt":23.34},{"city":"Mobile","state_name":"Alabama","lat":30.67088,"lng":-88.10617,"zip":"36606","miles_from_dt":23.6},{"city":"Mobile","state_name":"Alabama","lat":30.67081,"lng":-88.10647,"zip":"36633","miles_from_dt":23.61},{"city":"Mobile","state_name":"Alabama","lat":30.68864,"lng":-88.16983,"zip":"36689","miles_from_dt":23.66},{"city":"Mobile","state_name":"Alabama","lat":30.69559,"lng":-88.18783,"zip":"36688","miles_from_dt":23.68},{"city":"Spanish Fort","state_name":"Alabama","lat":30.67444,"lng":-87.88415,"zip":"36577","miles_from_dt":23.86},{"city":"Mobile","state_name":"Alabama","lat":30.6674,"lng":-88.12781,"zip":"36616","miles_from_dt":24.17},{"city":"Sunflower","state_name":"Alabama","lat":31.36645,"lng":-88.0098,"zip":"36581","miles_from_dt":25.02},{"city":"Wagarville","state_name":"Alabama","lat":31.36985,"lng":-88.02338,"zip":"36585","miles_from_dt":25.27},{"city":"Mobile","state_name":"Alabama","lat":30.66086,"lng":-88.16378,"zip":"36609","miles_from_dt":25.29},{"city":"Deer Park","state_name":"Alabama","lat":31.29279,"lng":-88.27281,"zip":"36529","miles_from_dt":25.3},{"city":"Mobile","state_name":"Alabama","lat":30.63563,"lng":-88.06717,"zip":"36615","miles_from_dt":25.55},{"city":"Vinegar Bend","state_name":"Alabama","lat":31.19579,"lng":-88.38385,"zip":"36584","miles_from_dt":25.82},{"city":"Tibbie","state_name":"Alabama","lat":31.36677,"lng":-88.1869,"zip":"36583","miles_from_dt":27.14},{"city":"Mobile","state_name":"Alabama","lat":30.62676,"lng":-88.14989,"zip":"36693","miles_from_dt":27.23},{"city":"Mobile","state_name":"Alabama","lat":30.69017,"lng":-88.29752,"zip":"36685","miles_from_dt":27.51},{"city":"Mobile","state_name":"Alabama","lat":30.60649,"lng":-88.09064,"zip":"36605","miles_from_dt":27.75},{"city":"Mobile","state_name":"Alabama","lat":30.68115,"lng":-88.29593,"zip":"36608","miles_from_dt":27.94},{"city":"Daphne","state_name":"Alabama","lat":30.61187,"lng":-87.86151,"zip":"36526","miles_from_dt":28.38},{"city":"Loxley","state_name":"Alabama","lat":30.63982,"lng":-87.7504,"zip":"36551","miles_from_dt":29.42}],"targetCityZipCode":"36512","targetCityState":"Alabama"},"__N_SSG":true}