{"pageProps":{"stateName":"Alabama","cityName":"chatom","nearbyCities":[{"city":"Tibbie","state_name":"Alabama","lat":31.36677,"lng":-88.1869,"zip":"36583","miles_from_dt":8.88},{"city":"Millry","state_name":"Alabama","lat":31.61606,"lng":-88.33034,"zip":"36558","miles_from_dt":10.52},{"city":"Fruitdale","state_name":"Alabama","lat":31.3475,"lng":-88.39358,"zip":"36539","miles_from_dt":11},{"city":"Deer Park","state_name":"Alabama","lat":31.29279,"lng":-88.27281,"zip":"36529","miles_from_dt":12.27},{"city":"Saint Stephens","state_name":"Alabama","lat":31.54418,"lng":-88.07907,"zip":"36569","miles_from_dt":12.65},{"city":"Frankville","state_name":"Alabama","lat":31.65948,"lng":-88.13836,"zip":"36538","miles_from_dt":15.31},{"city":"Wagarville","state_name":"Alabama","lat":31.36985,"lng":-88.02338,"zip":"36585","miles_from_dt":16.44},{"city":"State Line","state_name":"Mississippi","lat":31.39326,"lng":-88.53988,"zip":"39362","miles_from_dt":16.51},{"city":"Buckatunna","state_name":"Mississippi","lat":31.58344,"lng":-88.53203,"zip":"39322","miles_from_dt":17.01},{"city":"Sunflower","state_name":"Alabama","lat":31.36645,"lng":-88.0098,"zip":"36581","miles_from_dt":17.26},{"city":"Leroy","state_name":"Alabama","lat":31.48326,"lng":-87.97226,"zip":"36548","miles_from_dt":17.92},{"city":"Vinegar Bend","state_name":"Alabama","lat":31.19579,"lng":-88.38385,"zip":"36584","miles_from_dt":20},{"city":"McIntosh","state_name":"Alabama","lat":31.22852,"lng":-88.08658,"zip":"36553","miles_from_dt":20.08},{"city":"Silas","state_name":"Alabama","lat":31.76765,"lng":-88.2894,"zip":"36919","miles_from_dt":20.47},{"city":"Jackson","state_name":"Alabama","lat":31.48767,"lng":-87.87424,"zip":"36545","miles_from_dt":23.72},{"city":"Malcolm","state_name":"Alabama","lat":31.20649,"lng":-87.97127,"zip":"36556","miles_from_dt":25.6},{"city":"Clara","state_name":"Mississippi","lat":31.58032,"lng":-88.69755,"zip":"39324","miles_from_dt":26.03},{"city":"Citronelle","state_name":"Alabama","lat":31.08296,"lng":-88.27795,"zip":"36522","miles_from_dt":26.72},{"city":"Waynesboro","state_name":"Mississippi","lat":31.68219,"lng":-88.6644,"zip":"39367","miles_from_dt":27.17},{"city":"Calvert","state_name":"Alabama","lat":31.15516,"lng":-87.99021,"zip":"36513","miles_from_dt":27.52},{"city":"Coffeeville","state_name":"Alabama","lat":31.80868,"lng":-88.0203,"zip":"36524","miles_from_dt":27.71},{"city":"Leakesville","state_name":"Mississippi","lat":31.16722,"lng":-88.61757,"zip":"39451","miles_from_dt":29.1},{"city":"Gilbertown","state_name":"Alabama","lat":31.89818,"lng":-88.30807,"zip":"36908","miles_from_dt":29.51},{"city":"Mount Vernon","state_name":"Alabama","lat":31.08553,"lng":-88.04991,"zip":"36560","miles_from_dt":29.71}],"targetCityZipCode":"36518","targetCityState":"Alabama"},"__N_SSG":true}