{"pageProps":{"stateName":"Alabama","cityName":"cherokee","nearbyCities":[{"city":"Iuka","state_name":"Mississippi","lat":34.84484,"lng":-88.21598,"zip":"38852","miles_from_dt":13.4},{"city":"Tishomingo","state_name":"Mississippi","lat":34.66169,"lng":-88.25141,"zip":"38873","miles_from_dt":14.25},{"city":"Waterloo","state_name":"Alabama","lat":34.95367,"lng":-88.02529,"zip":"35677","miles_from_dt":14.86},{"city":"Tuscumbia","state_name":"Alabama","lat":34.66343,"lng":-87.75996,"zip":"35674","miles_from_dt":15.62},{"city":"Florence","state_name":"Alabama","lat":34.87586,"lng":-87.79645,"zip":"35633","miles_from_dt":15.81},{"city":"Russellville","state_name":"Alabama","lat":34.53131,"lng":-87.86974,"zip":"35653","miles_from_dt":16.6},{"city":"Belmont","state_name":"Mississippi","lat":34.53,"lng":-88.20244,"zip":"38827","miles_from_dt":17.76},{"city":"Red Bay","state_name":"Alabama","lat":34.48577,"lng":-88.09536,"zip":"35582","miles_from_dt":17.94},{"city":"Sheffield","state_name":"Alabama","lat":34.75837,"lng":-87.69847,"zip":"35660","miles_from_dt":18.28},{"city":"Burnsville","state_name":"Mississippi","lat":34.82259,"lng":-88.34274,"zip":"38833","miles_from_dt":19.32},{"city":"Dennis","state_name":"Mississippi","lat":34.5448,"lng":-88.2643,"zip":"38838","miles_from_dt":19.32},{"city":"Cloverdale","state_name":"Alabama","lat":34.93688,"lng":-87.7717,"zip":"35617","miles_from_dt":19.62},{"city":"Florence","state_name":"Alabama","lat":34.80763,"lng":-87.68043,"zip":"35632","miles_from_dt":19.84},{"city":"Muscle Shoals","state_name":"Alabama","lat":34.74468,"lng":-87.6675,"zip":"35662","miles_from_dt":20},{"city":"Florence","state_name":"Alabama","lat":34.82526,"lng":-87.66018,"zip":"35630","miles_from_dt":21.27},{"city":"Florence","state_name":"Alabama","lat":34.81056,"lng":-87.65325,"zip":"35631","miles_from_dt":21.39},{"city":"Glen","state_name":"Mississippi","lat":34.85135,"lng":-88.39501,"zip":"38846","miles_from_dt":22.77},{"city":"Lutts","state_name":"Tennessee","lat":35.0771,"lng":-87.92134,"zip":"38471","miles_from_dt":24.01},{"city":"Spruce Pine","state_name":"Alabama","lat":34.41868,"lng":-87.82008,"zip":"35585","miles_from_dt":24.77},{"city":"New Site","state_name":"Mississippi","lat":34.52865,"lng":-88.37548,"zip":"38859","miles_from_dt":24.93},{"city":"Pickwick Dam","state_name":"Tennessee","lat":35.05383,"lng":-88.23627,"zip":"38365","miles_from_dt":25.02},{"city":"Counce","state_name":"Tennessee","lat":35.04419,"lng":-88.27514,"zip":"38326","miles_from_dt":25.63},{"city":"Muscle Shoals","state_name":"Alabama","lat":34.77737,"lng":-87.56331,"zip":"35661","miles_from_dt":26.06},{"city":"Golden","state_name":"Mississippi","lat":34.40772,"lng":-88.24074,"zip":"38847","miles_from_dt":26.06},{"city":"Vina","state_name":"Alabama","lat":34.35721,"lng":-88.07328,"zip":"35593","miles_from_dt":26.44},{"city":"Florence","state_name":"Alabama","lat":34.92306,"lng":-87.60738,"zip":"35634","miles_from_dt":26.64},{"city":"Cypress Inn","state_name":"Tennessee","lat":35.07898,"lng":-87.79239,"zip":"38452","miles_from_dt":26.78},{"city":"Hodges","state_name":"Alabama","lat":34.35153,"lng":-87.94672,"zip":"35571","miles_from_dt":26.97},{"city":"Russellville","state_name":"Alabama","lat":34.49971,"lng":-87.62,"zip":"35654","miles_from_dt":28.05},{"city":"Leighton","state_name":"Alabama","lat":34.66988,"lng":-87.53165,"zip":"35646","miles_from_dt":28.13}],"targetCityZipCode":"35616","targetCityState":"Alabama"},"__N_SSG":true}