{"pageProps":{"stateName":"Alabama","cityName":"coden","nearbyCities":[{"city":"Bayou La Batre","state_name":"Alabama","lat":30.4077,"lng":-88.24726,"zip":"36509","miles_from_dt":5.29},{"city":"Irvington","state_name":"Alabama","lat":30.47436,"lng":-88.234,"zip":"36544","miles_from_dt":7.77},{"city":"Dauphin Island","state_name":"Alabama","lat":30.25253,"lng":-88.14381,"zip":"36528","miles_from_dt":8.77},{"city":"Theodore","state_name":"Alabama","lat":30.51616,"lng":-88.17719,"zip":"36582","miles_from_dt":9.51},{"city":"Theodore","state_name":"Alabama","lat":30.53346,"lng":-88.18469,"zip":"36590","miles_from_dt":10.74},{"city":"Saint Elmo","state_name":"Alabama","lat":30.51291,"lng":-88.27067,"zip":"36568","miles_from_dt":11.19},{"city":"Grand Bay","state_name":"Alabama","lat":30.49084,"lng":-88.34384,"zip":"36541","miles_from_dt":13.17},{"city":"Mobile","state_name":"Alabama","lat":30.59488,"lng":-88.19302,"zip":"36619","miles_from_dt":15},{"city":"Point Clear","state_name":"Alabama","lat":30.46983,"lng":-87.91467,"zip":"36564","miles_from_dt":16.23},{"city":"Mobile","state_name":"Alabama","lat":30.60649,"lng":-88.09064,"zip":"36605","miles_from_dt":16.32},{"city":"Mobile","state_name":"Alabama","lat":30.62676,"lng":-88.14989,"zip":"36693","miles_from_dt":17.13},{"city":"Mobile","state_name":"Alabama","lat":30.6309,"lng":-88.27775,"zip":"36695","miles_from_dt":18.63},{"city":"Mobile","state_name":"Alabama","lat":30.63563,"lng":-88.06717,"zip":"36615","miles_from_dt":18.65},{"city":"Mobile","state_name":"Alabama","lat":30.66086,"lng":-88.16378,"zip":"36609","miles_from_dt":19.45},{"city":"Fairhope","state_name":"Alabama","lat":30.48197,"lng":-87.86207,"zip":"36532","miles_from_dt":19.46},{"city":"Pascagoula","state_name":"Mississippi","lat":30.35048,"lng":-88.49324,"zip":"39581","miles_from_dt":19.68},{"city":"Mobile","state_name":"Alabama","lat":30.6674,"lng":-88.12781,"zip":"36616","miles_from_dt":20.03},{"city":"Fairhope","state_name":"Alabama","lat":30.49152,"lng":-87.85555,"zip":"36533","miles_from_dt":20.06},{"city":"Montrose","state_name":"Alabama","lat":30.56894,"lng":-87.90393,"zip":"36559","miles_from_dt":20.38},{"city":"Mobile","state_name":"Alabama","lat":30.67081,"lng":-88.10647,"zip":"36633","miles_from_dt":20.44},{"city":"Mobile","state_name":"Alabama","lat":30.67088,"lng":-88.10617,"zip":"36606","miles_from_dt":20.45},{"city":"Mobile","state_name":"Alabama","lat":30.6743,"lng":-88.08773,"zip":"36660","miles_from_dt":20.89},{"city":"Mobile","state_name":"Alabama","lat":30.68864,"lng":-88.16983,"zip":"36689","miles_from_dt":21.36},{"city":"Pascagoula","state_name":"Mississippi","lat":30.36952,"lng":-88.52394,"zip":"39568","miles_from_dt":21.43},{"city":"Mobile","state_name":"Alabama","lat":30.68127,"lng":-88.06783,"zip":"36640","miles_from_dt":21.65},{"city":"Mobile","state_name":"Alabama","lat":30.68229,"lng":-88.06837,"zip":"36604","miles_from_dt":21.71},{"city":"Mobile","state_name":"Alabama","lat":30.6827,"lng":-88.06879,"zip":"36641","miles_from_dt":21.73},{"city":"Moss Point","state_name":"Mississippi","lat":30.42449,"lng":-88.52601,"zip":"39563","miles_from_dt":21.77},{"city":"Mobile","state_name":"Alabama","lat":30.69559,"lng":-88.18783,"zip":"36688","miles_from_dt":21.88},{"city":"Mobile","state_name":"Alabama","lat":30.68426,"lng":-88.05273,"zip":"36603","miles_from_dt":22.11},{"city":"Mobile","state_name":"Alabama","lat":30.68115,"lng":-88.29593,"zip":"36608","miles_from_dt":22.25},{"city":"Mobile","state_name":"Alabama","lat":30.699,"lng":-88.10552,"zip":"36607","miles_from_dt":22.36},{"city":"Mobile","state_name":"Alabama","lat":30.70005,"lng":-88.10812,"zip":"36670","miles_from_dt":22.41},{"city":"Mobile","state_name":"Alabama","lat":30.69586,"lng":-88.0803,"zip":"36652","miles_from_dt":22.44},{"city":"Moss Point","state_name":"Mississippi","lat":30.54573,"lng":-88.49039,"zip":"39562","miles_from_dt":22.56},{"city":"Mobile","state_name":"Alabama","lat":30.6912,"lng":-88.04205,"zip":"36691","miles_from_dt":22.76},{"city":"Mobile","state_name":"Alabama","lat":30.69017,"lng":-88.29752,"zip":"36685","miles_from_dt":22.87},{"city":"Mobile","state_name":"Alabama","lat":30.69385,"lng":-88.04518,"zip":"36628","miles_from_dt":22.87},{"city":"Mobile","state_name":"Alabama","lat":30.69555,"lng":-88.04694,"zip":"36675","miles_from_dt":22.95},{"city":"Mobile","state_name":"Alabama","lat":30.6943,"lng":-88.04192,"zip":"36644","miles_from_dt":22.96},{"city":"Escatawpa","state_name":"Mississippi","lat":30.45048,"lng":-88.54096,"zip":"39552","miles_from_dt":22.97},{"city":"Mobile","state_name":"Alabama","lat":30.69745,"lng":-88.04988,"zip":"36601","miles_from_dt":23.02},{"city":"Pascagoula","state_name":"Mississippi","lat":30.36192,"lng":-88.55254,"zip":"39567","miles_from_dt":23.15},{"city":"Mobile","state_name":"Alabama","lat":30.69834,"lng":-88.03815,"zip":"36602","miles_from_dt":23.3},{"city":"Magnolia Springs","state_name":"Alabama","lat":30.40006,"lng":-87.77312,"zip":"36555","miles_from_dt":23.47},{"city":"Pascagoula","state_name":"Mississippi","lat":30.36909,"lng":-88.55809,"zip":"39569","miles_from_dt":23.47},{"city":"Mobile","state_name":"Alabama","lat":30.71544,"lng":-88.09518,"zip":"36617","miles_from_dt":23.58},{"city":"Daphne","state_name":"Alabama","lat":30.61187,"lng":-87.86151,"zip":"36526","miles_from_dt":24.23},{"city":"Mobile","state_name":"Alabama","lat":30.73612,"lng":-88.17333,"zip":"36618","miles_from_dt":24.64},{"city":"Pascagoula","state_name":"Mississippi","lat":30.33448,"lng":-88.57587,"zip":"39595","miles_from_dt":24.71},{"city":"Mobile","state_name":"Alabama","lat":30.73683,"lng":-88.10896,"zip":"36663","miles_from_dt":24.91},{"city":"Mobile","state_name":"Alabama","lat":30.73721,"lng":-88.07389,"zip":"36610","miles_from_dt":25.3},{"city":"Bon Secour","state_name":"Alabama","lat":30.31173,"lng":-87.74259,"zip":"36511","miles_from_dt":25.67},{"city":"Silverhill","state_name":"Alabama","lat":30.52654,"lng":-87.76654,"zip":"36576","miles_from_dt":25.89},{"city":"Mobile","state_name":"Alabama","lat":30.75283,"lng":-88.11285,"zip":"36612","miles_from_dt":25.97},{"city":"Foley","state_name":"Alabama","lat":30.38562,"lng":-87.72514,"zip":"36535","miles_from_dt":26.3},{"city":"Spanish Fort","state_name":"Alabama","lat":30.67444,"lng":-87.88415,"zip":"36577","miles_from_dt":26.4},{"city":"Gulf Shores","state_name":"Alabama","lat":30.27683,"lng":-87.73867,"zip":"36542","miles_from_dt":26.44},{"city":"Mobile","state_name":"Alabama","lat":30.7702,"lng":-88.07747,"zip":"36611","miles_from_dt":27.49},{"city":"Semmes","state_name":"Alabama","lat":30.76825,"lng":-88.27276,"zip":"36575","miles_from_dt":27.6},{"city":"Mobile","state_name":"Alabama","lat":30.77528,"lng":-88.08106,"zip":"36671","miles_from_dt":27.79},{"city":"Daphne","state_name":"Alabama","lat":30.69679,"lng":-87.87734,"zip":"36527","miles_from_dt":27.85},{"city":"Hurley","state_name":"Mississippi","lat":30.67476,"lng":-88.48587,"zip":"39555","miles_from_dt":27.96},{"city":"Summerdale","state_name":"Alabama","lat":30.48085,"lng":-87.70321,"zip":"36580","miles_from_dt":28.47},{"city":"Gautier","state_name":"Mississippi","lat":30.41625,"lng":-88.64848,"zip":"39553","miles_from_dt":28.97},{"city":"Eight Mile","state_name":"Alabama","lat":30.81175,"lng":-88.18176,"zip":"36613","miles_from_dt":29.86}],"targetCityZipCode":"36523","targetCityState":"Alabama"},"__N_SSG":true}