{"pageProps":{"stateName":"Alabama","cityName":"cottonton","nearbyCities":[{"city":"Holy Trinity","state_name":"Alabama","lat":32.17073,"lng":-85.12872,"zip":"36859","miles_from_dt":3.13},{"city":"Pittsview","state_name":"Alabama","lat":32.17455,"lng":-85.14892,"zip":"36871","miles_from_dt":4.32},{"city":"Omaha","state_name":"Georgia","lat":32.14048,"lng":-84.97083,"zip":"31821","miles_from_dt":6.49},{"city":"Fort Mitchell","state_name":"Alabama","lat":32.26897,"lng":-84.99757,"zip":"36856","miles_from_dt":9.52},{"city":"Seale","state_name":"Alabama","lat":32.32632,"lng":-85.16295,"zip":"36875","miles_from_dt":13.04},{"city":"Louvale","state_name":"Georgia","lat":32.20531,"lng":-84.8614,"zip":"31814","miles_from_dt":13.41},{"city":"Lumpkin","state_name":"Georgia","lat":32.04117,"lng":-84.85407,"zip":"31815","miles_from_dt":15.29},{"city":"Hatchechubbee","state_name":"Alabama","lat":32.30061,"lng":-85.30138,"zip":"36858","miles_from_dt":16.55},{"city":"Eufaula","state_name":"Alabama","lat":31.93307,"lng":-85.20968,"zip":"36027","miles_from_dt":16.77},{"city":"Eufaula","state_name":"Alabama","lat":31.88909,"lng":-85.14373,"zip":"36072","miles_from_dt":18.38},{"city":"Phenix City","state_name":"Alabama","lat":32.41891,"lng":-85.0779,"zip":"36869","miles_from_dt":18.5},{"city":"Georgetown","state_name":"Georgia","lat":31.86713,"lng":-85.04881,"zip":"39854","miles_from_dt":19.61},{"city":"Columbus","state_name":"Georgia","lat":32.41484,"lng":-84.95321,"zip":"31903","miles_from_dt":19.7},{"city":"Fort Benning","state_name":"Georgia","lat":32.37304,"lng":-84.84331,"zip":"31905","miles_from_dt":20.71},{"city":"Phenix City","state_name":"Alabama","lat":32.45032,"lng":-85.00886,"zip":"36868","miles_from_dt":21.09},{"city":"Cusseta","state_name":"Georgia","lat":32.26621,"lng":-84.74612,"zip":"31805","miles_from_dt":21.18},{"city":"Hurtsboro","state_name":"Alabama","lat":32.26118,"lng":-85.42064,"zip":"36860","miles_from_dt":21.31},{"city":"Columbus","state_name":"Georgia","lat":32.45788,"lng":-84.98834,"zip":"31999","miles_from_dt":21.87},{"city":"Columbus","state_name":"Georgia","lat":32.46461,"lng":-84.97986,"zip":"31901","miles_from_dt":22.44},{"city":"Midway","state_name":"Alabama","lat":32.03514,"lng":-85.43945,"zip":"36053","miles_from_dt":22.48},{"city":"Morris","state_name":"Georgia","lat":31.84076,"lng":-84.93684,"zip":"39867","miles_from_dt":22.95},{"city":"Phenix City","state_name":"Alabama","lat":32.48308,"lng":-85.11942,"zip":"36870","miles_from_dt":23.03},{"city":"Columbus","state_name":"Georgia","lat":32.46815,"lng":-84.94963,"zip":"31906","miles_from_dt":23.2},{"city":"Columbus","state_name":"Georgia","lat":32.46827,"lng":-84.94928,"zip":"31998","miles_from_dt":23.22},{"city":"Columbus","state_name":"Georgia","lat":32.4817,"lng":-84.97603,"zip":"31993","miles_from_dt":23.64},{"city":"Phenix City","state_name":"Alabama","lat":32.49823,"lng":-85.02304,"zip":"36867","miles_from_dt":24.21},{"city":"Fort Benning","state_name":"Georgia","lat":32.48992,"lng":-84.96954,"zip":"31995","miles_from_dt":24.29},{"city":"Richland","state_name":"Georgia","lat":32.1081,"lng":-84.6693,"zip":"31825","miles_from_dt":24.31},{"city":"Columbus","state_name":"Georgia","lat":32.50015,"lng":-84.97383,"zip":"31902","miles_from_dt":24.9},{"city":"Columbus","state_name":"Georgia","lat":32.48388,"lng":-84.89976,"zip":"31907","miles_from_dt":25.31},{"city":"Columbus","state_name":"Georgia","lat":32.48408,"lng":-84.82897,"zip":"31917","miles_from_dt":27.31},{"city":"Columbus","state_name":"Georgia","lat":32.48527,"lng":-84.83087,"zip":"31997","miles_from_dt":27.32},{"city":"Columbus","state_name":"Georgia","lat":32.53113,"lng":-84.93805,"zip":"31908","miles_from_dt":27.53},{"city":"Smiths Station","state_name":"Alabama","lat":32.55465,"lng":-85.0974,"zip":"36877","miles_from_dt":27.87},{"city":"Columbus","state_name":"Georgia","lat":32.55189,"lng":-85.00009,"zip":"31904","miles_from_dt":28.07},{"city":"Columbus","state_name":"Georgia","lat":32.5562,"lng":-85.00556,"zip":"31914","miles_from_dt":28.31},{"city":"Columbus","state_name":"Georgia","lat":32.54517,"lng":-84.92385,"zip":"31909","miles_from_dt":28.71},{"city":"Clayton","state_name":"Alabama","lat":31.84562,"lng":-85.4255,"zip":"36016","miles_from_dt":29.16},{"city":"Salem","state_name":"Alabama","lat":32.56603,"lng":-85.20322,"zip":"36874","miles_from_dt":29.52}],"targetCityZipCode":"36851","targetCityState":"Alabama"},"__N_SSG":true}