{"pageProps":{"stateName":"Alabama","cityName":"duncanville","nearbyCities":[{"city":"Cottondale","state_name":"Alabama","lat":33.16176,"lng":-87.387,"zip":"35453","miles_from_dt":7.77},{"city":"Tuscaloosa","state_name":"Alabama","lat":33.12087,"lng":-87.55082,"zip":"35405","miles_from_dt":8.04},{"city":"Coaling","state_name":"Alabama","lat":33.15728,"lng":-87.33867,"zip":"35449","miles_from_dt":8.92},{"city":"Tuscaloosa","state_name":"Alabama","lat":33.16648,"lng":-87.52225,"zip":"35407","miles_from_dt":9.11},{"city":"Tuscaloosa","state_name":"Alabama","lat":33.2041,"lng":-87.52365,"zip":"35403","miles_from_dt":11.39},{"city":"Tuscaloosa","state_name":"Alabama","lat":33.21661,"lng":-87.48655,"zip":"35404","miles_from_dt":11.43},{"city":"Moundville","state_name":"Alabama","lat":32.93679,"lng":-87.57226,"zip":"35474","miles_from_dt":11.47},{"city":"Tuscaloosa","state_name":"Alabama","lat":33.14849,"lng":-87.60966,"zip":"35402","miles_from_dt":11.94},{"city":"Tuscaloosa","state_name":"Alabama","lat":33.20674,"lng":-87.53919,"zip":"35486","miles_from_dt":11.98},{"city":"Peterson","state_name":"Alabama","lat":33.2343,"lng":-87.42347,"zip":"35478","miles_from_dt":12.27},{"city":"Tuscaloosa","state_name":"Alabama","lat":33.21426,"lng":-87.54782,"zip":"35487","miles_from_dt":12.68},{"city":"Tuscaloosa","state_name":"Alabama","lat":33.179,"lng":-87.61586,"zip":"35401","miles_from_dt":13.46},{"city":"Brent","state_name":"Alabama","lat":32.9016,"lng":-87.26948,"zip":"35034","miles_from_dt":14.37},{"city":"Fosters","state_name":"Alabama","lat":33.0563,"lng":-87.68687,"zip":"35463","miles_from_dt":14.61},{"city":"Northport","state_name":"Alabama","lat":33.2271,"lng":-87.60464,"zip":"35476","miles_from_dt":15.32},{"city":"Vance","state_name":"Alabama","lat":33.21607,"lng":-87.24546,"zip":"35490","miles_from_dt":15.55},{"city":"Northport","state_name":"Alabama","lat":33.27236,"lng":-87.58481,"zip":"35473","miles_from_dt":17.22},{"city":"Woodstock","state_name":"Alabama","lat":33.18326,"lng":-87.17322,"zip":"35188","miles_from_dt":17.52},{"city":"West Blocton","state_name":"Alabama","lat":33.1152,"lng":-87.13931,"zip":"35184","miles_from_dt":17.63},{"city":"Tuscaloosa","state_name":"Alabama","lat":33.33194,"lng":-87.4683,"zip":"35406","miles_from_dt":19.08},{"city":"Centreville","state_name":"Alabama","lat":32.93297,"lng":-87.12542,"zip":"35042","miles_from_dt":19.9},{"city":"Brookwood","state_name":"Alabama","lat":33.33474,"lng":-87.30387,"zip":"35444","miles_from_dt":20.63},{"city":"Buhl","state_name":"Alabama","lat":33.21642,"lng":-87.74833,"zip":"35446","miles_from_dt":21.24},{"city":"Abernant","state_name":"Alabama","lat":33.29256,"lng":-87.19789,"zip":"35440","miles_from_dt":21.3},{"city":"Coker","state_name":"Alabama","lat":33.28349,"lng":-87.6854,"zip":"35452","miles_from_dt":21.33},{"city":"Green Pond","state_name":"Alabama","lat":33.22235,"lng":-87.12415,"zip":"35074","miles_from_dt":21.35},{"city":"Knoxville","state_name":"Alabama","lat":33.01447,"lng":-87.80578,"zip":"35469","miles_from_dt":21.71},{"city":"Ralph","state_name":"Alabama","lat":33.09794,"lng":-87.80734,"zip":"35480","miles_from_dt":21.78},{"city":"Akron","state_name":"Alabama","lat":32.85616,"lng":-87.73114,"zip":"35441","miles_from_dt":22.05},{"city":"McCalla","state_name":"Alabama","lat":33.28309,"lng":-87.09002,"zip":"35111","miles_from_dt":25.38},{"city":"Echola","state_name":"Alabama","lat":33.29891,"lng":-87.77229,"zip":"35457","miles_from_dt":25.71},{"city":"Marion","state_name":"Alabama","lat":32.69327,"lng":-87.29873,"zip":"36756","miles_from_dt":26.26},{"city":"Greensboro","state_name":"Alabama","lat":32.69178,"lng":-87.59845,"zip":"36744","miles_from_dt":26.87},{"city":"Brierfield","state_name":"Alabama","lat":33.04423,"lng":-86.97149,"zip":"35035","miles_from_dt":26.92},{"city":"Northport","state_name":"Alabama","lat":33.42792,"lng":-87.5854,"zip":"35475","miles_from_dt":27.03},{"city":"Sawyerville","state_name":"Alabama","lat":32.74513,"lng":-87.74488,"zip":"36776","miles_from_dt":28.01},{"city":"Adger","state_name":"Alabama","lat":33.43159,"lng":-87.19961,"zip":"35006","miles_from_dt":29.23},{"city":"Lawley","state_name":"Alabama","lat":32.8292,"lng":-87.00947,"zip":"36793","miles_from_dt":29.28}],"targetCityZipCode":"35456","targetCityState":"Alabama"},"__N_SSG":true}