{"pageProps":{"stateName":"Alabama","cityName":"eutaw","nearbyCities":[{"city":"Clinton","state_name":"Alabama","lat":32.91571,"lng":-87.99193,"zip":"35448","miles_from_dt":3.17},{"city":"West Greene","state_name":"Alabama","lat":32.93665,"lng":-88.09774,"zip":"35491","miles_from_dt":9.06},{"city":"Knoxville","state_name":"Alabama","lat":33.01447,"lng":-87.80578,"zip":"35469","miles_from_dt":9.66},{"city":"Boligee","state_name":"Alabama","lat":32.76538,"lng":-88.01908,"zip":"35443","miles_from_dt":12.45},{"city":"Akron","state_name":"Alabama","lat":32.85616,"lng":-87.73114,"zip":"35441","miles_from_dt":13.37},{"city":"Ralph","state_name":"Alabama","lat":33.09794,"lng":-87.80734,"zip":"35480","miles_from_dt":13.74},{"city":"Gainesville","state_name":"Alabama","lat":32.78369,"lng":-88.14383,"zip":"35464","miles_from_dt":15.66},{"city":"Panola","state_name":"Alabama","lat":32.96304,"lng":-88.23121,"zip":"35477","miles_from_dt":16.93},{"city":"Fosters","state_name":"Alabama","lat":33.0563,"lng":-87.68687,"zip":"35463","miles_from_dt":17.04},{"city":"Sawyerville","state_name":"Alabama","lat":32.74513,"lng":-87.74488,"zip":"36776","miles_from_dt":17.33},{"city":"Aliceville","state_name":"Alabama","lat":33.06016,"lng":-88.20159,"zip":"35442","miles_from_dt":17.41},{"city":"Epes","state_name":"Alabama","lat":32.71882,"lng":-88.19452,"zip":"35460","miles_from_dt":20.88},{"city":"Moundville","state_name":"Alabama","lat":32.93679,"lng":-87.57226,"zip":"35474","miles_from_dt":21.48},{"city":"Forkland","state_name":"Alabama","lat":32.62421,"lng":-87.83209,"zip":"36740","miles_from_dt":22.28},{"city":"Gordo","state_name":"Alabama","lat":33.25904,"lng":-87.91554,"zip":"35466","miles_from_dt":22.46},{"city":"Buhl","state_name":"Alabama","lat":33.21642,"lng":-87.74833,"zip":"35446","miles_from_dt":22.48},{"city":"Emelle","state_name":"Alabama","lat":32.79337,"lng":-88.3003,"zip":"35459","miles_from_dt":22.99},{"city":"Tuscaloosa","state_name":"Alabama","lat":33.14849,"lng":-87.60966,"zip":"35402","miles_from_dt":24.3},{"city":"Tuscaloosa","state_name":"Alabama","lat":33.179,"lng":-87.61586,"zip":"35401","miles_from_dt":25.36},{"city":"Carrollton","state_name":"Alabama","lat":33.25701,"lng":-88.15716,"zip":"35447","miles_from_dt":25.53},{"city":"Greensboro","state_name":"Alabama","lat":32.69178,"lng":-87.59845,"zip":"36744","miles_from_dt":26.03},{"city":"Tuscaloosa","state_name":"Alabama","lat":33.12087,"lng":-87.55082,"zip":"35405","miles_from_dt":26.1},{"city":"Livingston","state_name":"Alabama","lat":32.56801,"lng":-88.09894,"zip":"35470","miles_from_dt":26.82},{"city":"Echola","state_name":"Alabama","lat":33.29891,"lng":-87.77229,"zip":"35457","miles_from_dt":27.01},{"city":"Northport","state_name":"Alabama","lat":33.2271,"lng":-87.60464,"zip":"35476","miles_from_dt":28.12},{"city":"Coker","state_name":"Alabama","lat":33.28349,"lng":-87.6854,"zip":"35452","miles_from_dt":28.31},{"city":"Tuscaloosa","state_name":"Alabama","lat":33.16648,"lng":-87.52225,"zip":"35407","miles_from_dt":29.15},{"city":"Tuscaloosa","state_name":"Alabama","lat":33.21426,"lng":-87.54782,"zip":"35487","miles_from_dt":29.93},{"city":"Tuscaloosa","state_name":"Alabama","lat":33.20674,"lng":-87.53919,"zip":"35486","miles_from_dt":29.99}],"targetCityZipCode":"35462","targetCityState":"Alabama"},"__N_SSG":true}