{"pageProps":{"stateName":"Alabama","cityName":"gainesville","nearbyCities":[{"city":"Epes","state_name":"Alabama","lat":32.71882,"lng":-88.19452,"zip":"35460","miles_from_dt":5.36},{"city":"Boligee","state_name":"Alabama","lat":32.76538,"lng":-88.01908,"zip":"35443","miles_from_dt":7.37},{"city":"Emelle","state_name":"Alabama","lat":32.79337,"lng":-88.3003,"zip":"35459","miles_from_dt":9.13},{"city":"West Greene","state_name":"Alabama","lat":32.93665,"lng":-88.09774,"zip":"35491","miles_from_dt":10.88},{"city":"Clinton","state_name":"Alabama","lat":32.91571,"lng":-87.99193,"zip":"35448","miles_from_dt":12.68},{"city":"Panola","state_name":"Alabama","lat":32.96304,"lng":-88.23121,"zip":"35477","miles_from_dt":13.36},{"city":"Livingston","state_name":"Alabama","lat":32.56801,"lng":-88.09894,"zip":"35470","miles_from_dt":15.09},{"city":"Eutaw","state_name":"Alabama","lat":32.93389,"lng":-87.94183,"zip":"35462","miles_from_dt":15.66},{"city":"Scooba","state_name":"Mississippi","lat":32.83317,"lng":-88.45605,"zip":"39358","miles_from_dt":18.49},{"city":"Aliceville","state_name":"Alabama","lat":33.06016,"lng":-88.20159,"zip":"35442","miles_from_dt":19.35},{"city":"Porterville","state_name":"Mississippi","lat":32.66834,"lng":-88.47808,"zip":"39352","miles_from_dt":21.03},{"city":"Forkland","state_name":"Alabama","lat":32.62421,"lng":-87.83209,"zip":"36740","miles_from_dt":21.23},{"city":"Sawyerville","state_name":"Alabama","lat":32.74513,"lng":-87.74488,"zip":"36776","miles_from_dt":23.38},{"city":"York","state_name":"Alabama","lat":32.43468,"lng":-88.1791,"zip":"36925","miles_from_dt":24.14},{"city":"Akron","state_name":"Alabama","lat":32.85616,"lng":-87.73114,"zip":"35441","miles_from_dt":24.53},{"city":"Bellamy","state_name":"Alabama","lat":32.42284,"lng":-88.1465,"zip":"36901","miles_from_dt":24.87},{"city":"Knoxville","state_name":"Alabama","lat":33.01447,"lng":-87.80578,"zip":"35469","miles_from_dt":25.28},{"city":"Cuba","state_name":"Alabama","lat":32.43895,"lng":-88.34797,"zip":"36907","miles_from_dt":26.57},{"city":"Lauderdale","state_name":"Mississippi","lat":32.53214,"lng":-88.49263,"zip":"39335","miles_from_dt":26.72},{"city":"Demopolis","state_name":"Alabama","lat":32.41638,"lng":-87.91367,"zip":"36732","miles_from_dt":28.65},{"city":"Ralph","state_name":"Alabama","lat":33.09794,"lng":-87.80734,"zip":"35480","miles_from_dt":29.18},{"city":"Meridian","state_name":"Mississippi","lat":32.55417,"lng":-88.57422,"zip":"39309","miles_from_dt":29.65}],"targetCityZipCode":"35464","targetCityState":"Alabama"},"__N_SSG":true}