{"pageProps":{"stateName":"Alabama","cityName":"geneva","nearbyCities":[{"city":"Black","state_name":"Alabama","lat":31.02141,"lng":-85.77645,"zip":"36314","miles_from_dt":7.19},{"city":"Chancellor","state_name":"Alabama","lat":31.17835,"lng":-85.86496,"zip":"36316","miles_from_dt":8.72},{"city":"Coffee Springs","state_name":"Alabama","lat":31.17612,"lng":-85.95653,"zip":"36318","miles_from_dt":9.26},{"city":"Samson","state_name":"Alabama","lat":31.08741,"lng":-86.05407,"zip":"36477","miles_from_dt":9.91},{"city":"Bellwood","state_name":"Alabama","lat":31.18024,"lng":-85.79368,"zip":"36313","miles_from_dt":10.46},{"city":"Hartford","state_name":"Alabama","lat":31.1007,"lng":-85.70931,"zip":"36344","miles_from_dt":11.28},{"city":"Westville","state_name":"Florida","lat":30.89687,"lng":-85.95592,"zip":"32464","miles_from_dt":11.47},{"city":"Daleville","state_name":"Alabama","lat":31.25575,"lng":-85.73249,"zip":"36322","miles_from_dt":16.8},{"city":"Bonifay","state_name":"Florida","lat":30.85538,"lng":-85.72225,"zip":"32425","miles_from_dt":16.97},{"city":"Noma","state_name":"Florida","lat":30.9806,"lng":-85.61508,"zip":"32452","miles_from_dt":17.16},{"city":"Malvern","state_name":"Alabama","lat":31.10349,"lng":-85.60298,"zip":"36349","miles_from_dt":17.45},{"city":"Enterprise","state_name":"Alabama","lat":31.30743,"lng":-85.85854,"zip":"36330","miles_from_dt":17.57},{"city":"Kinston","state_name":"Alabama","lat":31.19788,"lng":-86.14726,"zip":"36453","miles_from_dt":18.11},{"city":"Enterprise","state_name":"Alabama","lat":31.32606,"lng":-85.85431,"zip":"36331","miles_from_dt":18.88},{"city":"Slocomb","state_name":"Alabama","lat":31.07681,"lng":-85.54111,"zip":"36375","miles_from_dt":20.84},{"city":"Newton","state_name":"Alabama","lat":31.25682,"lng":-85.61629,"zip":"36352","miles_from_dt":21.48},{"city":"Defuniak Springs","state_name":"Florida","lat":30.84848,"lng":-86.19822,"zip":"32433","miles_from_dt":23.06},{"city":"Argyle","state_name":"Florida","lat":30.74956,"lng":-86.07287,"zip":"32422","miles_from_dt":23.57},{"city":"Graceville","state_name":"Florida","lat":30.92025,"lng":-85.52588,"zip":"32440","miles_from_dt":23.58},{"city":"Fort Rucker","state_name":"Alabama","lat":31.35072,"lng":-85.69027,"zip":"36362","miles_from_dt":23.67},{"city":"Caryville","state_name":"Florida","lat":30.71587,"lng":-85.79311,"zip":"32427","miles_from_dt":24.01},{"city":"New Brockton","state_name":"Alabama","lat":31.41469,"lng":-85.90596,"zip":"36351","miles_from_dt":24.87},{"city":"Dothan","state_name":"Alabama","lat":31.20229,"lng":-85.49798,"zip":"36305","miles_from_dt":25.47},{"city":"Paxton","state_name":"Florida","lat":30.97737,"lng":-86.3124,"zip":"32538","miles_from_dt":25.52},{"city":"Opp","state_name":"Alabama","lat":31.2795,"lng":-86.25579,"zip":"36467","miles_from_dt":26.59},{"city":"Pinckard","state_name":"Alabama","lat":31.3208,"lng":-85.54738,"zip":"36371","miles_from_dt":27.45},{"city":"Lockhart","state_name":"Alabama","lat":31.01212,"lng":-86.35321,"zip":"36455","miles_from_dt":27.54},{"city":"Elba","state_name":"Alabama","lat":31.42702,"lng":-86.07221,"zip":"36323","miles_from_dt":27.84},{"city":"Florala","state_name":"Alabama","lat":31.07312,"lng":-86.36355,"zip":"36442","miles_from_dt":28.02},{"city":"Ponce De Leon","state_name":"Florida","lat":30.63831,"lng":-85.96395,"zip":"32455","miles_from_dt":28.95},{"city":"Dothan","state_name":"Alabama","lat":31.14387,"lng":-85.40321,"zip":"36301","miles_from_dt":29.61}],"targetCityZipCode":"36340","targetCityState":"Alabama"},"__N_SSG":true}