{"pageProps":{"stateName":"Alabama","cityName":"grady","nearbyCities":[{"city":"Ramer","state_name":"Alabama","lat":32.0905,"lng":-86.16008,"zip":"36069","miles_from_dt":7.93},{"city":"Pine Level","state_name":"Alabama","lat":32.07003,"lng":-86.05701,"zip":"36065","miles_from_dt":8.92},{"city":"Petrey","state_name":"Alabama","lat":31.84819,"lng":-86.20728,"zip":"36062","miles_from_dt":9.18},{"city":"Highland Home","state_name":"Alabama","lat":31.92361,"lng":-86.32172,"zip":"36041","miles_from_dt":10.11},{"city":"Lapine","state_name":"Alabama","lat":31.9994,"lng":-86.33948,"zip":"36046","miles_from_dt":10.63},{"city":"Goshen","state_name":"Alabama","lat":31.79285,"lng":-86.12415,"zip":"36035","miles_from_dt":12.76},{"city":"Mathews","state_name":"Alabama","lat":32.17935,"lng":-86.04309,"zip":"36052","miles_from_dt":15.65},{"city":"Luverne","state_name":"Alabama","lat":31.76612,"lng":-86.28092,"zip":"36049","miles_from_dt":16.06},{"city":"Troy","state_name":"Alabama","lat":31.90663,"lng":-85.89804,"zip":"36081","miles_from_dt":16.14},{"city":"Troy","state_name":"Alabama","lat":31.76605,"lng":-86.01206,"zip":"36079","miles_from_dt":16.86},{"city":"Troy","state_name":"Alabama","lat":31.80271,"lng":-85.95514,"zip":"36082","miles_from_dt":16.96},{"city":"Montgomery","state_name":"Alabama","lat":32.21808,"lng":-86.28778,"zip":"36105","miles_from_dt":18.31},{"city":"Honoraville","state_name":"Alabama","lat":31.86655,"lng":-86.44897,"zip":"36042","miles_from_dt":18.53},{"city":"Fitzpatrick","state_name":"Alabama","lat":32.18479,"lng":-85.92953,"zip":"36029","miles_from_dt":19.8},{"city":"Montgomery","state_name":"Alabama","lat":32.27312,"lng":-86.21765,"zip":"36116","miles_from_dt":20.78},{"city":"Hope Hull","state_name":"Alabama","lat":32.1939,"lng":-86.42811,"zip":"36043","miles_from_dt":21.74},{"city":"Letohatchee","state_name":"Alabama","lat":32.07868,"lng":-86.52474,"zip":"36047","miles_from_dt":22.53},{"city":"Pike Road","state_name":"Alabama","lat":32.3008,"lng":-86.08186,"zip":"36064","miles_from_dt":22.89},{"city":"Rutledge","state_name":"Alabama","lat":31.70534,"lng":-86.39815,"zip":"36071","miles_from_dt":23.27},{"city":"Montgomery","state_name":"Alabama","lat":32.31285,"lng":-86.23456,"zip":"36120","miles_from_dt":23.65},{"city":"Perote","state_name":"Alabama","lat":31.9919,"lng":-85.75116,"zip":"36061","miles_from_dt":24.07},{"city":"Fort Deposit","state_name":"Alabama","lat":31.99857,"lng":-86.57179,"zip":"36032","miles_from_dt":24.2},{"city":"Glenwood","state_name":"Alabama","lat":31.62308,"lng":-86.11155,"zip":"36034","miles_from_dt":24.45},{"city":"Cecil","state_name":"Alabama","lat":32.2976,"lng":-85.97959,"zip":"36013","miles_from_dt":24.61},{"city":"Montgomery","state_name":"Alabama","lat":32.31304,"lng":-86.31813,"zip":"36125","miles_from_dt":25.03},{"city":"Montgomery","state_name":"Alabama","lat":32.32654,"lng":-86.27662,"zip":"36191","miles_from_dt":25.13},{"city":"Montgomery","state_name":"Alabama","lat":32.33755,"lng":-86.27154,"zip":"36111","miles_from_dt":25.79},{"city":"Banks","state_name":"Alabama","lat":31.88137,"lng":-85.72802,"zip":"36005","miles_from_dt":26.23},{"city":"Montgomery","state_name":"Alabama","lat":32.35264,"lng":-86.25793,"zip":"36106","miles_from_dt":26.61},{"city":"Montgomery","state_name":"Alabama","lat":32.37831,"lng":-86.14627,"zip":"36117","miles_from_dt":27.77},{"city":"Mount Meigs","state_name":"Alabama","lat":32.37464,"lng":-86.08461,"zip":"36057","miles_from_dt":27.87},{"city":"Montgomery","state_name":"Alabama","lat":32.3801,"lng":-86.18188,"zip":"36132","miles_from_dt":27.91},{"city":"Montgomery","state_name":"Alabama","lat":32.36493,"lng":-86.29847,"zip":"36123","miles_from_dt":28.03},{"city":"Montgomery","state_name":"Alabama","lat":32.38287,"lng":-86.14671,"zip":"36140","miles_from_dt":28.09},{"city":"Brantley","state_name":"Alabama","lat":31.58395,"lng":-86.30531,"zip":"36009","miles_from_dt":28.28},{"city":"Montgomery","state_name":"Alabama","lat":32.38609,"lng":-86.14699,"zip":"36121","miles_from_dt":28.31},{"city":"Montgomery","state_name":"Alabama","lat":32.38691,"lng":-86.14808,"zip":"36141","miles_from_dt":28.36},{"city":"Montgomery","state_name":"Alabama","lat":32.38793,"lng":-86.15103,"zip":"36135","miles_from_dt":28.43},{"city":"Montgomery","state_name":"Alabama","lat":32.38682,"lng":-86.24052,"zip":"36109","miles_from_dt":28.73},{"city":"Montgomery","state_name":"Alabama","lat":32.39363,"lng":-86.17574,"zip":"36124","miles_from_dt":28.83},{"city":"Montgomery","state_name":"Alabama","lat":32.37778,"lng":-86.29926,"zip":"36130","miles_from_dt":28.89},{"city":"Montgomery","state_name":"Alabama","lat":32.33956,"lng":-86.40602,"zip":"36108","miles_from_dt":28.92},{"city":"Montgomery","state_name":"Alabama","lat":32.37935,"lng":-86.2985,"zip":"36131","miles_from_dt":28.98},{"city":"Montgomery","state_name":"Alabama","lat":32.38434,"lng":-86.2795,"zip":"36107","miles_from_dt":29.03},{"city":"Montgomery","state_name":"Alabama","lat":32.37897,"lng":-86.30372,"zip":"36177","miles_from_dt":29.04},{"city":"Hardaway","state_name":"Alabama","lat":32.28939,"lng":-85.82789,"zip":"36039","miles_from_dt":29.13},{"city":"Montgomery","state_name":"Alabama","lat":32.38177,"lng":-86.29763,"zip":"36101","miles_from_dt":29.13},{"city":"Montgomery","state_name":"Alabama","lat":32.38105,"lng":-86.31045,"zip":"36142","miles_from_dt":29.3},{"city":"Brundidge","state_name":"Alabama","lat":31.66751,"lng":-85.81439,"zip":"36010","miles_from_dt":29.41},{"city":"Union Springs","state_name":"Alabama","lat":32.15745,"lng":-85.69872,"zip":"36089","miles_from_dt":29.86},{"city":"Montgomery","state_name":"Alabama","lat":32.38146,"lng":-86.34172,"zip":"36113","miles_from_dt":29.92},{"city":"Greenville","state_name":"Alabama","lat":31.79384,"lng":-86.62356,"zip":"36037","miles_from_dt":29.95}],"targetCityZipCode":"36036","targetCityState":"Alabama"},"__N_SSG":true}