{"pageProps":{"stateName":"Alabama","cityName":"livingston","nearbyCities":[{"city":"York","state_name":"Alabama","lat":32.43468,"lng":-88.1791,"zip":"36925","miles_from_dt":10.31},{"city":"Bellamy","state_name":"Alabama","lat":32.42284,"lng":-88.1465,"zip":"36901","miles_from_dt":10.38},{"city":"Epes","state_name":"Alabama","lat":32.71882,"lng":-88.19452,"zip":"35460","miles_from_dt":11.79},{"city":"Boligee","state_name":"Alabama","lat":32.76538,"lng":-88.01908,"zip":"35443","miles_from_dt":14.38},{"city":"Demopolis","state_name":"Alabama","lat":32.41638,"lng":-87.91367,"zip":"36732","miles_from_dt":15.04},{"city":"Gainesville","state_name":"Alabama","lat":32.78369,"lng":-88.14383,"zip":"35464","miles_from_dt":15.09},{"city":"Forkland","state_name":"Alabama","lat":32.62421,"lng":-87.83209,"zip":"36740","miles_from_dt":16.04},{"city":"Jefferson","state_name":"Alabama","lat":32.38754,"lng":-87.90205,"zip":"36745","miles_from_dt":16.94},{"city":"Cuba","state_name":"Alabama","lat":32.43895,"lng":-88.34797,"zip":"36907","miles_from_dt":17.05},{"city":"Ward","state_name":"Alabama","lat":32.30061,"lng":-88.15068,"zip":"36922","miles_from_dt":18.67},{"city":"Emelle","state_name":"Alabama","lat":32.79337,"lng":-88.3003,"zip":"35459","miles_from_dt":19.46},{"city":"Gallion","state_name":"Alabama","lat":32.45836,"lng":-87.74215,"zip":"36742","miles_from_dt":22.16},{"city":"Myrtlewood","state_name":"Alabama","lat":32.26184,"lng":-87.96509,"zip":"36763","miles_from_dt":22.5},{"city":"Pennington","state_name":"Alabama","lat":32.23788,"lng":-88.04143,"zip":"36916","miles_from_dt":23},{"city":"Lauderdale","state_name":"Mississippi","lat":32.53214,"lng":-88.49263,"zip":"39335","miles_from_dt":23.11},{"city":"Porterville","state_name":"Mississippi","lat":32.66834,"lng":-88.47808,"zip":"39352","miles_from_dt":23.17},{"city":"Jachin","state_name":"Alabama","lat":32.23078,"lng":-88.15928,"zip":"36910","miles_from_dt":23.5},{"city":"Sawyerville","state_name":"Alabama","lat":32.74513,"lng":-87.74488,"zip":"36776","miles_from_dt":23.98},{"city":"Clinton","state_name":"Alabama","lat":32.91571,"lng":-87.99193,"zip":"35448","miles_from_dt":24.76},{"city":"West Greene","state_name":"Alabama","lat":32.93665,"lng":-88.09774,"zip":"35491","miles_from_dt":25.4},{"city":"Lisman","state_name":"Alabama","lat":32.23825,"lng":-88.30369,"zip":"36912","miles_from_dt":25.68},{"city":"Toomsuba","state_name":"Mississippi","lat":32.40597,"lng":-88.49617,"zip":"39364","miles_from_dt":25.75},{"city":"Eutaw","state_name":"Alabama","lat":32.93389,"lng":-87.94183,"zip":"35462","miles_from_dt":26.82},{"city":"Scooba","state_name":"Mississippi","lat":32.83317,"lng":-88.45605,"zip":"39358","miles_from_dt":27.69},{"city":"Meridian","state_name":"Mississippi","lat":32.55417,"lng":-88.57422,"zip":"39309","miles_from_dt":27.75},{"city":"Linden","state_name":"Alabama","lat":32.27084,"lng":-87.77728,"zip":"36748","miles_from_dt":27.8},{"city":"Panola","state_name":"Alabama","lat":32.96304,"lng":-88.23121,"zip":"35477","miles_from_dt":28.29},{"city":"Faunsdale","state_name":"Alabama","lat":32.43421,"lng":-87.62481,"zip":"36738","miles_from_dt":29.18},{"city":"Akron","state_name":"Alabama","lat":32.85616,"lng":-87.73114,"zip":"35441","miles_from_dt":29.21}],"targetCityZipCode":"35470","targetCityState":"Alabama"},"__N_SSG":true}