{"pageProps":{"stateName":"Alabama","cityName":"mount-olive","nearbyCities":[{"city":"Brookside","state_name":"Alabama","lat":33.64095,"lng":-86.91601,"zip":"35036","miles_from_dt":2.34},{"city":"Watson","state_name":"Alabama","lat":33.62647,"lng":-86.87999,"zip":"35181","miles_from_dt":3.21},{"city":"Gardendale","state_name":"Alabama","lat":33.70376,"lng":-86.84286,"zip":"35071","miles_from_dt":3.85},{"city":"Graysville","state_name":"Alabama","lat":33.65377,"lng":-86.98051,"zip":"35073","miles_from_dt":4.97},{"city":"Sayre","state_name":"Alabama","lat":33.71459,"lng":-86.97521,"zip":"35139","miles_from_dt":5.43},{"city":"Fultondale","state_name":"Alabama","lat":33.60933,"lng":-86.83174,"zip":"35068","miles_from_dt":5.66},{"city":"Birmingham","state_name":"Alabama","lat":33.57322,"lng":-86.89081,"zip":"35214","miles_from_dt":6.74},{"city":"New Castle","state_name":"Alabama","lat":33.63809,"lng":-86.77864,"zip":"35119","miles_from_dt":7.17},{"city":"Birmingham","state_name":"Alabama","lat":33.56523,"lng":-86.89276,"zip":"35231","miles_from_dt":7.28},{"city":"Adamsville","state_name":"Alabama","lat":33.59215,"lng":-86.99833,"zip":"35005","miles_from_dt":7.98},{"city":"Docena","state_name":"Alabama","lat":33.55768,"lng":-86.92822,"zip":"35060","miles_from_dt":8.01},{"city":"Birmingham","state_name":"Alabama","lat":33.5682,"lng":-86.8223,"zip":"35207","miles_from_dt":8.28},{"city":"Morris","state_name":"Alabama","lat":33.73167,"lng":-86.76819,"zip":"35116","miles_from_dt":8.51},{"city":"Dora","state_name":"Alabama","lat":33.72862,"lng":-87.02775,"zip":"35062","miles_from_dt":8.53},{"city":"Birmingham","state_name":"Alabama","lat":33.60711,"lng":-86.7613,"zip":"35217","miles_from_dt":8.96},{"city":"Kimberly","state_name":"Alabama","lat":33.78344,"lng":-86.78963,"zip":"35091","miles_from_dt":9.91},{"city":"Birmingham","state_name":"Alabama","lat":33.52965,"lng":-86.94518,"zip":"35224","miles_from_dt":10.12},{"city":"Birmingham","state_name":"Alabama","lat":33.54198,"lng":-86.80361,"zip":"35285","miles_from_dt":10.38},{"city":"Sumiton","state_name":"Alabama","lat":33.75643,"lng":-87.04556,"zip":"35148","miles_from_dt":10.4},{"city":"Birmingham","state_name":"Alabama","lat":33.54005,"lng":-86.80382,"zip":"35234","miles_from_dt":10.49},{"city":"Birmingham","state_name":"Alabama","lat":33.52203,"lng":-86.84067,"zip":"35204","miles_from_dt":10.76},{"city":"Warrior","state_name":"Alabama","lat":33.82388,"lng":-86.83987,"zip":"35180","miles_from_dt":11.04},{"city":"Birmingham","state_name":"Alabama","lat":33.51375,"lng":-86.85282,"zip":"35254","miles_from_dt":11.12},{"city":"Birmingham","state_name":"Alabama","lat":33.64911,"lng":-86.70435,"zip":"35215","miles_from_dt":11.19},{"city":"Birmingham","state_name":"Alabama","lat":33.50771,"lng":-86.89388,"zip":"35218","miles_from_dt":11.24},{"city":"Birmingham","state_name":"Alabama","lat":33.51989,"lng":-86.80775,"zip":"35237","miles_from_dt":11.6},{"city":"Birmingham","state_name":"Alabama","lat":33.51847,"lng":-86.80999,"zip":"35203","miles_from_dt":11.63},{"city":"Birmingham","state_name":"Alabama","lat":33.51856,"lng":-86.80842,"zip":"35201","miles_from_dt":11.67},{"city":"Birmingham","state_name":"Alabama","lat":33.52056,"lng":-86.8025,"zip":"35259","miles_from_dt":11.7},{"city":"Birmingham","state_name":"Alabama","lat":33.51749,"lng":-86.80948,"zip":"35283","miles_from_dt":11.71},{"city":"Birmingham","state_name":"Alabama","lat":33.51952,"lng":-86.80188,"zip":"35246","miles_from_dt":11.78},{"city":"Birmingham","state_name":"Alabama","lat":33.51809,"lng":-86.8023,"zip":"35238","miles_from_dt":11.85},{"city":"Birmingham","state_name":"Alabama","lat":33.51635,"lng":-86.80581,"zip":"35202","miles_from_dt":11.87},{"city":"Birmingham","state_name":"Alabama","lat":33.54765,"lng":-86.75272,"zip":"35212","miles_from_dt":11.88},{"city":"Birmingham","state_name":"Alabama","lat":33.5139,"lng":-86.80737,"zip":"35287","miles_from_dt":11.98},{"city":"Birmingham","state_name":"Alabama","lat":33.49717,"lng":-86.87909,"zip":"35208","miles_from_dt":12.01},{"city":"Birmingham","state_name":"Alabama","lat":33.51309,"lng":-86.80643,"zip":"35291","miles_from_dt":12.06},{"city":"Birmingham","state_name":"Alabama","lat":33.5125,"lng":-86.80502,"zip":"35292","miles_from_dt":12.13},{"city":"Birmingham","state_name":"Alabama","lat":33.51135,"lng":-86.80484,"zip":"35295","miles_from_dt":12.2},{"city":"Birmingham","state_name":"Alabama","lat":33.51011,"lng":-86.80787,"zip":"35294","miles_from_dt":12.21},{"city":"Empire","state_name":"Alabama","lat":33.8221,"lng":-87.00765,"zip":"35063","miles_from_dt":12.22},{"city":"Birmingham","state_name":"Alabama","lat":33.55009,"lng":-86.74132,"zip":"35290","miles_from_dt":12.23},{"city":"Birmingham","state_name":"Alabama","lat":33.53589,"lng":-86.75836,"zip":"35232","miles_from_dt":12.26},{"city":"Birmingham","state_name":"Alabama","lat":33.51077,"lng":-86.79809,"zip":"35270","miles_from_dt":12.41},{"city":"Birmingham","state_name":"Alabama","lat":33.50916,"lng":-86.80132,"zip":"35233","miles_from_dt":12.43},{"city":"Birmingham","state_name":"Alabama","lat":33.57331,"lng":-86.71532,"zip":"35261","miles_from_dt":12.44},{"city":"Birmingham","state_name":"Alabama","lat":33.52378,"lng":-86.76994,"zip":"35222","miles_from_dt":12.5},{"city":"Birmingham","state_name":"Alabama","lat":33.50657,"lng":-86.80316,"zip":"35249","miles_from_dt":12.54},{"city":"Birmingham","state_name":"Alabama","lat":33.57024,"lng":-86.71328,"zip":"35206","miles_from_dt":12.65},{"city":"Mulga","state_name":"Alabama","lat":33.53916,"lng":-87.05212,"zip":"35118","miles_from_dt":12.75},{"city":"Birmingham","state_name":"Alabama","lat":33.49949,"lng":-86.80079,"zip":"35298","miles_from_dt":13.04},{"city":"Birmingham","state_name":"Alabama","lat":33.49509,"lng":-86.8084,"zip":"35205","miles_from_dt":13.14},{"city":"Pleasant Grove","state_name":"Alabama","lat":33.49118,"lng":-86.97581,"zip":"35127","miles_from_dt":13.2},{"city":"Birmingham","state_name":"Alabama","lat":33.49351,"lng":-86.8103,"zip":"35255","miles_from_dt":13.2},{"city":"Birmingham","state_name":"Alabama","lat":33.49562,"lng":-86.79434,"zip":"35282","miles_from_dt":13.44},{"city":"Fairfield","state_name":"Alabama","lat":33.47474,"lng":-86.91964,"zip":"35064","miles_from_dt":13.58},{"city":"Dolomite","state_name":"Alabama","lat":33.47529,"lng":-86.9469,"zip":"35061","miles_from_dt":13.78},{"city":"Quinton","state_name":"Alabama","lat":33.63235,"lng":-87.13313,"zip":"35130","miles_from_dt":13.88},{"city":"Birmingham","state_name":"Alabama","lat":33.49321,"lng":-86.78175,"zip":"35297","miles_from_dt":13.93},{"city":"Birmingham","state_name":"Alabama","lat":33.47366,"lng":-86.82588,"zip":"35219","miles_from_dt":14.19},{"city":"Birmingham","state_name":"Alabama","lat":33.50659,"lng":-86.74241,"zip":"35213","miles_from_dt":14.4},{"city":"Pinson","state_name":"Alabama","lat":33.73071,"lng":-86.65385,"zip":"35126","miles_from_dt":14.59},{"city":"Birmingham","state_name":"Alabama","lat":33.61723,"lng":-86.65008,"zip":"35235","miles_from_dt":14.69},{"city":"Birmingham","state_name":"Alabama","lat":33.45606,"lng":-86.92165,"zip":"35228","miles_from_dt":14.87},{"city":"Birmingham","state_name":"Alabama","lat":33.46386,"lng":-86.82303,"zip":"35293","miles_from_dt":14.89},{"city":"Birmingham","state_name":"Alabama","lat":33.46507,"lng":-86.81107,"zip":"35209","miles_from_dt":15.02},{"city":"Sipsey","state_name":"Alabama","lat":33.82161,"lng":-87.08692,"zip":"35584","miles_from_dt":15.09},{"city":"Birmingham","state_name":"Alabama","lat":33.45262,"lng":-86.87046,"zip":"35211","miles_from_dt":15.12},{"city":"Birmingham","state_name":"Alabama","lat":33.4497,"lng":-86.89901,"zip":"35221","miles_from_dt":15.24},{"city":"Birmingham","state_name":"Alabama","lat":33.46434,"lng":-86.79399,"zip":"35229","miles_from_dt":15.42},{"city":"Palmerdale","state_name":"Alabama","lat":33.74773,"lng":-86.64506,"zip":"35123","miles_from_dt":15.44},{"city":"Birmingham","state_name":"Alabama","lat":33.48622,"lng":-86.74039,"zip":"35253","miles_from_dt":15.6},{"city":"Birmingham","state_name":"Alabama","lat":33.48777,"lng":-86.73605,"zip":"35223","miles_from_dt":15.66},{"city":"Birmingham","state_name":"Alabama","lat":33.44167,"lng":-86.9058,"zip":"35220","miles_from_dt":15.8},{"city":"Birmingham","state_name":"Alabama","lat":33.5431,"lng":-86.6661,"zip":"35210","miles_from_dt":15.95},{"city":"Birmingham","state_name":"Alabama","lat":33.46311,"lng":-86.76941,"zip":"35288","miles_from_dt":16.09},{"city":"Alton","state_name":"Alabama","lat":33.57976,"lng":-86.63904,"zip":"35015","miles_from_dt":16.13},{"city":"Cordova","state_name":"Alabama","lat":33.74249,"lng":-87.16534,"zip":"35550","miles_from_dt":16.24},{"city":"Bessemer","state_name":"Alabama","lat":33.43429,"lng":-86.90605,"zip":"35021","miles_from_dt":16.31},{"city":"Trafford","state_name":"Alabama","lat":33.84389,"lng":-86.69788,"zip":"35172","miles_from_dt":16.53},{"city":"Birmingham","state_name":"Alabama","lat":33.44685,"lng":-86.79016,"zip":"35266","miles_from_dt":16.62},{"city":"Bessemer","state_name":"Alabama","lat":33.46674,"lng":-87.08891,"zip":"35023","miles_from_dt":17.91},{"city":"Birmingham","state_name":"Alabama","lat":33.44185,"lng":-86.74055,"zip":"35243","miles_from_dt":18.18},{"city":"Birmingham","state_name":"Alabama","lat":33.41491,"lng":-86.80948,"zip":"35296","miles_from_dt":18.34},{"city":"Birmingham","state_name":"Alabama","lat":33.41995,"lng":-86.78746,"zip":"35216","miles_from_dt":18.41},{"city":"Shannon","state_name":"Alabama","lat":33.40351,"lng":-86.8743,"zip":"35142","miles_from_dt":18.47},{"city":"Bessemer","state_name":"Alabama","lat":33.40502,"lng":-86.95436,"zip":"35020","miles_from_dt":18.62},{"city":"Birmingham","state_name":"Alabama","lat":33.39977,"lng":-86.83895,"zip":"35260","miles_from_dt":18.98},{"city":"Birmingham","state_name":"Alabama","lat":33.39823,"lng":-86.84421,"zip":"35226","miles_from_dt":19.03},{"city":"Trussville","state_name":"Alabama","lat":33.65284,"lng":-86.56337,"zip":"35173","miles_from_dt":19.26},{"city":"Goodsprings","state_name":"Alabama","lat":33.666,"lng":-87.23106,"zip":"35560","miles_from_dt":19.27},{"city":"Clay","state_name":"Alabama","lat":33.73566,"lng":-86.57021,"zip":"35048","miles_from_dt":19.33},{"city":"Remlap","state_name":"Alabama","lat":33.81969,"lng":-86.59878,"zip":"35133","miles_from_dt":19.99},{"city":"Bremen","state_name":"Alabama","lat":33.94517,"lng":-87.02904,"zip":"35033","miles_from_dt":20.38},{"city":"Hayden","state_name":"Alabama","lat":33.94118,"lng":-86.75261,"zip":"35079","miles_from_dt":20.39},{"city":"Birmingham","state_name":"Alabama","lat":33.42371,"lng":-86.67073,"zip":"35242","miles_from_dt":21.45},{"city":"Parrish","state_name":"Alabama","lat":33.7011,"lng":-87.27331,"zip":"35580","miles_from_dt":21.79},{"city":"Jasper","state_name":"Alabama","lat":33.89311,"lng":-87.16672,"zip":"35504","miles_from_dt":21.82},{"city":"Leeds","state_name":"Alabama","lat":33.52057,"lng":-86.56127,"zip":"35094","miles_from_dt":21.95},{"city":"Birmingham","state_name":"Alabama","lat":33.35661,"lng":-86.8174,"zip":"35236","miles_from_dt":22.14},{"city":"Locust Fork","state_name":"Alabama","lat":33.89871,"lng":-86.62526,"zip":"35097","miles_from_dt":22.15},{"city":"Birmingham","state_name":"Alabama","lat":33.35205,"lng":-86.8267,"zip":"35244","miles_from_dt":22.34},{"city":"Bessemer","state_name":"Alabama","lat":33.33107,"lng":-86.95959,"zip":"35022","miles_from_dt":23.7},{"city":"Moody","state_name":"Alabama","lat":33.60369,"lng":-86.49333,"zip":"35004","miles_from_dt":23.71},{"city":"Adger","state_name":"Alabama","lat":33.43159,"lng":-87.19961,"zip":"35006","miles_from_dt":24.03},{"city":"Hanceville","state_name":"Alabama","lat":34.01984,"lng":-86.83108,"zip":"35077","miles_from_dt":24.35},{"city":"Jasper","state_name":"Alabama","lat":33.82849,"lng":-87.27735,"zip":"35502","miles_from_dt":24.46},{"city":"Margaret","state_name":"Alabama","lat":33.69374,"lng":-86.47248,"zip":"35112","miles_from_dt":24.5},{"city":"Jasper","state_name":"Alabama","lat":33.82145,"lng":-87.29544,"zip":"35501","miles_from_dt":25.19},{"city":"Garden City","state_name":"Alabama","lat":34.01394,"lng":-86.74443,"zip":"35070","miles_from_dt":25.22},{"city":"Pelham","state_name":"Alabama","lat":33.31368,"lng":-86.76194,"zip":"35124","miles_from_dt":25.82},{"city":"Oakman","state_name":"Alabama","lat":33.63069,"lng":-87.34441,"zip":"35579","miles_from_dt":25.95},{"city":"Cleveland","state_name":"Alabama","lat":33.95674,"lng":-86.59904,"zip":"35049","miles_from_dt":26.11},{"city":"Vandiver","state_name":"Alabama","lat":33.4817,"lng":-86.50221,"zip":"35176","miles_from_dt":26.23},{"city":"Allgood","state_name":"Alabama","lat":33.90166,"lng":-86.51785,"zip":"35013","miles_from_dt":26.99},{"city":"Odenville","state_name":"Alabama","lat":33.66777,"lng":-86.42064,"zip":"35120","miles_from_dt":27.44},{"city":"Sterrett","state_name":"Alabama","lat":33.41233,"lng":-86.53164,"zip":"35147","miles_from_dt":27.6},{"city":"Springville","state_name":"Alabama","lat":33.79275,"lng":-86.43258,"zip":"35146","miles_from_dt":28.02},{"city":"Crane Hill","state_name":"Alabama","lat":34.05495,"lng":-87.06527,"zip":"35053","miles_from_dt":28.19},{"city":"Chelsea","state_name":"Alabama","lat":33.30926,"lng":-86.66028,"zip":"35043","miles_from_dt":28.42},{"city":"Helena","state_name":"Alabama","lat":33.25508,"lng":-86.91894,"zip":"35080","miles_from_dt":28.68},{"city":"Cook Springs","state_name":"Alabama","lat":33.59228,"lng":-86.40771,"zip":"35052","miles_from_dt":28.71},{"city":"McCalla","state_name":"Alabama","lat":33.28309,"lng":-87.09002,"zip":"35111","miles_from_dt":28.96},{"city":"Burnwell","state_name":"Alabama","lat":33.90639,"lng":-87.31633,"zip":"35038","miles_from_dt":29.09},{"city":"Jasper","state_name":"Alabama","lat":33.93664,"lng":-87.30147,"zip":"35503","miles_from_dt":29.63}],"targetCityZipCode":"35117","targetCityState":"Alabama"},"__N_SSG":true}