{"pageProps":{"stateName":"Alabama","cityName":"oak-hill","nearbyCities":[{"city":"Furman","state_name":"Alabama","lat":32.02198,"lng":-87.02594,"zip":"36741","miles_from_dt":5.83},{"city":"Pine Apple","state_name":"Alabama","lat":31.8837,"lng":-87.01186,"zip":"36768","miles_from_dt":6.6},{"city":"McWilliams","state_name":"Alabama","lat":31.83698,"lng":-87.10762,"zip":"36753","miles_from_dt":8.23},{"city":"Minter","state_name":"Alabama","lat":32.07872,"lng":-86.97602,"zip":"36761","miles_from_dt":10.71},{"city":"Camden","state_name":"Alabama","lat":31.97043,"lng":-87.27532,"zip":"36726","miles_from_dt":11.13},{"city":"Boykin","state_name":"Alabama","lat":32.06633,"lng":-87.2907,"zip":"36723","miles_from_dt":14.22},{"city":"Forest Home","state_name":"Alabama","lat":31.86044,"lng":-86.85697,"zip":"36030","miles_from_dt":14.99},{"city":"Beatrice","state_name":"Alabama","lat":31.75884,"lng":-87.19731,"zip":"36425","miles_from_dt":15},{"city":"Sardis","state_name":"Alabama","lat":32.20066,"lng":-86.95487,"zip":"36775","miles_from_dt":18.61},{"city":"Alberta","state_name":"Alabama","lat":32.16493,"lng":-87.34684,"zip":"36720","miles_from_dt":21.03},{"city":"Vredenburgh","state_name":"Alabama","lat":31.77356,"lng":-87.37553,"zip":"36481","miles_from_dt":21.09},{"city":"Orrville","state_name":"Alabama","lat":32.25083,"lng":-87.21042,"zip":"36767","miles_from_dt":21.63},{"city":"Coy","state_name":"Alabama","lat":31.87889,"lng":-87.45564,"zip":"36435","miles_from_dt":22.31},{"city":"Peterman","state_name":"Alabama","lat":31.62616,"lng":-87.22861,"zip":"36471","miles_from_dt":24.15},{"city":"Tyler","state_name":"Alabama","lat":32.27615,"lng":-86.82683,"zip":"36785","miles_from_dt":26.86},{"city":"Georgiana","state_name":"Alabama","lat":31.66983,"lng":-86.771,"zip":"36033","miles_from_dt":27.04},{"city":"Pine Hill","state_name":"Alabama","lat":31.99306,"lng":-87.55049,"zip":"36769","miles_from_dt":27.37},{"city":"Catherine","state_name":"Alabama","lat":32.16625,"lng":-87.48416,"zip":"36728","miles_from_dt":27.49},{"city":"Safford","state_name":"Alabama","lat":32.28252,"lng":-87.38607,"zip":"36773","miles_from_dt":28.59},{"city":"Hayneville","state_name":"Alabama","lat":32.17795,"lng":-86.66972,"zip":"36040","miles_from_dt":28.89},{"city":"Lower Peach Tree","state_name":"Alabama","lat":31.80808,"lng":-87.54865,"zip":"36751","miles_from_dt":28.99},{"city":"Greenville","state_name":"Alabama","lat":31.79384,"lng":-86.62356,"zip":"36037","miles_from_dt":29.41}],"targetCityZipCode":"36766","targetCityState":"Alabama"},"__N_SSG":true}