{"pageProps":{"stateName":"Alabama","cityName":"oakman","nearbyCities":[{"city":"Parrish","state_name":"Alabama","lat":33.7011,"lng":-87.27331,"zip":"35580","miles_from_dt":6.35},{"city":"Goodsprings","state_name":"Alabama","lat":33.666,"lng":-87.23106,"zip":"35560","miles_from_dt":6.97},{"city":"Berry","state_name":"Alabama","lat":33.60555,"lng":-87.54763,"zip":"35546","miles_from_dt":11.85},{"city":"Quinton","state_name":"Alabama","lat":33.63235,"lng":-87.13313,"zip":"35130","miles_from_dt":12.18},{"city":"Cordova","state_name":"Alabama","lat":33.74249,"lng":-87.16534,"zip":"35550","miles_from_dt":12.88},{"city":"Townley","state_name":"Alabama","lat":33.80071,"lng":-87.4521,"zip":"35587","miles_from_dt":13.26},{"city":"Jasper","state_name":"Alabama","lat":33.82145,"lng":-87.29544,"zip":"35501","miles_from_dt":13.45},{"city":"Jasper","state_name":"Alabama","lat":33.82849,"lng":-87.27735,"zip":"35502","miles_from_dt":14.17},{"city":"Adger","state_name":"Alabama","lat":33.43159,"lng":-87.19961,"zip":"35006","miles_from_dt":16.07},{"city":"Mulga","state_name":"Alabama","lat":33.53916,"lng":-87.05212,"zip":"35118","miles_from_dt":18},{"city":"Carbon Hill","state_name":"Alabama","lat":33.83474,"lng":-87.55001,"zip":"35549","miles_from_dt":18.38},{"city":"Bessemer","state_name":"Alabama","lat":33.46674,"lng":-87.08891,"zip":"35023","miles_from_dt":18.58},{"city":"Burnwell","state_name":"Alabama","lat":33.90639,"lng":-87.31633,"zip":"35038","miles_from_dt":19.07},{"city":"Sumiton","state_name":"Alabama","lat":33.75643,"lng":-87.04556,"zip":"35148","miles_from_dt":19.27},{"city":"Dora","state_name":"Alabama","lat":33.72862,"lng":-87.02775,"zip":"35062","miles_from_dt":19.45},{"city":"Northport","state_name":"Alabama","lat":33.42792,"lng":-87.5854,"zip":"35475","miles_from_dt":19.72},{"city":"Sipsey","state_name":"Alabama","lat":33.82161,"lng":-87.08692,"zip":"35584","miles_from_dt":19.82},{"city":"Adamsville","state_name":"Alabama","lat":33.59215,"lng":-86.99833,"zip":"35005","miles_from_dt":20.13},{"city":"Bankston","state_name":"Alabama","lat":33.7083,"lng":-87.68161,"zip":"35542","miles_from_dt":20.15},{"city":"Brookwood","state_name":"Alabama","lat":33.33474,"lng":-87.30387,"zip":"35444","miles_from_dt":20.53},{"city":"Jasper","state_name":"Alabama","lat":33.89311,"lng":-87.16672,"zip":"35504","miles_from_dt":20.78},{"city":"Graysville","state_name":"Alabama","lat":33.65377,"lng":-86.98051,"zip":"35073","miles_from_dt":21.04},{"city":"Jasper","state_name":"Alabama","lat":33.93664,"lng":-87.30147,"zip":"35503","miles_from_dt":21.23},{"city":"Tuscaloosa","state_name":"Alabama","lat":33.33194,"lng":-87.4683,"zip":"35406","miles_from_dt":21.8},{"city":"Sayre","state_name":"Alabama","lat":33.71459,"lng":-86.97521,"zip":"35139","miles_from_dt":22.05},{"city":"Kansas","state_name":"Alabama","lat":33.90137,"lng":-87.54999,"zip":"35573","miles_from_dt":22.09},{"city":"Samantha","state_name":"Alabama","lat":33.45656,"lng":-87.67047,"zip":"35482","miles_from_dt":22.32},{"city":"Pleasant Grove","state_name":"Alabama","lat":33.49118,"lng":-86.97581,"zip":"35127","miles_from_dt":23.34},{"city":"Empire","state_name":"Alabama","lat":33.8221,"lng":-87.00765,"zip":"35063","miles_from_dt":23.46},{"city":"Birmingham","state_name":"Alabama","lat":33.52965,"lng":-86.94518,"zip":"35224","miles_from_dt":24.06},{"city":"Docena","state_name":"Alabama","lat":33.55768,"lng":-86.92822,"zip":"35060","miles_from_dt":24.53},{"city":"Brookside","state_name":"Alabama","lat":33.64095,"lng":-86.91601,"zip":"35036","miles_from_dt":24.71},{"city":"Abernant","state_name":"Alabama","lat":33.29256,"lng":-87.19789,"zip":"35440","miles_from_dt":24.79},{"city":"Nauvoo","state_name":"Alabama","lat":33.982,"lng":-87.46638,"zip":"35578","miles_from_dt":25.21},{"city":"Dolomite","state_name":"Alabama","lat":33.47529,"lng":-86.9469,"zip":"35061","miles_from_dt":25.32},{"city":"Eldridge","state_name":"Alabama","lat":33.89745,"lng":-87.65593,"zip":"35554","miles_from_dt":25.68},{"city":"Mount Olive","state_name":"Alabama","lat":33.67085,"lng":-86.89678,"zip":"35117","miles_from_dt":25.95},{"city":"Birmingham","state_name":"Alabama","lat":33.56523,"lng":-86.89276,"zip":"35231","miles_from_dt":26.44},{"city":"Birmingham","state_name":"Alabama","lat":33.57322,"lng":-86.89081,"zip":"35214","miles_from_dt":26.46},{"city":"Fairfield","state_name":"Alabama","lat":33.47474,"lng":-86.91964,"zip":"35064","miles_from_dt":26.76},{"city":"Watson","state_name":"Alabama","lat":33.62647,"lng":-86.87999,"zip":"35181","miles_from_dt":26.78},{"city":"Birmingham","state_name":"Alabama","lat":33.45606,"lng":-86.92165,"zip":"35228","miles_from_dt":27.2},{"city":"Birmingham","state_name":"Alabama","lat":33.50771,"lng":-86.89388,"zip":"35218","miles_from_dt":27.34},{"city":"Bessemer","state_name":"Alabama","lat":33.40502,"lng":-86.95436,"zip":"35020","miles_from_dt":27.37},{"city":"Peterson","state_name":"Alabama","lat":33.2343,"lng":-87.42347,"zip":"35478","miles_from_dt":27.7},{"city":"Fayette","state_name":"Alabama","lat":33.66829,"lng":-87.82309,"zip":"35555","miles_from_dt":27.71},{"city":"McCalla","state_name":"Alabama","lat":33.28309,"lng":-87.09002,"zip":"35111","miles_from_dt":28.1},{"city":"Bremen","state_name":"Alabama","lat":33.94517,"lng":-87.02904,"zip":"35033","miles_from_dt":28.27},{"city":"Northport","state_name":"Alabama","lat":33.27236,"lng":-87.58481,"zip":"35473","miles_from_dt":28.33},{"city":"Birmingham","state_name":"Alabama","lat":33.49717,"lng":-86.87909,"zip":"35208","miles_from_dt":28.38},{"city":"Birmingham","state_name":"Alabama","lat":33.44167,"lng":-86.9058,"zip":"35220","miles_from_dt":28.47},{"city":"Birmingham","state_name":"Alabama","lat":33.4497,"lng":-86.89901,"zip":"35221","miles_from_dt":28.57},{"city":"Bessemer","state_name":"Alabama","lat":33.43429,"lng":-86.90605,"zip":"35021","miles_from_dt":28.69},{"city":"Vance","state_name":"Alabama","lat":33.21607,"lng":-87.24546,"zip":"35490","miles_from_dt":29.14},{"city":"Gardendale","state_name":"Alabama","lat":33.70376,"lng":-86.84286,"zip":"35071","miles_from_dt":29.34},{"city":"Birmingham","state_name":"Alabama","lat":33.51375,"lng":-86.85282,"zip":"35254","miles_from_dt":29.48},{"city":"Fultondale","state_name":"Alabama","lat":33.60933,"lng":-86.83174,"zip":"35068","miles_from_dt":29.6},{"city":"Glen Allen","state_name":"Alabama","lat":33.91166,"lng":-87.73537,"zip":"35559","miles_from_dt":29.69},{"city":"Tuscaloosa","state_name":"Alabama","lat":33.21661,"lng":-87.48655,"zip":"35404","miles_from_dt":29.7},{"city":"Birmingham","state_name":"Alabama","lat":33.45262,"lng":-86.87046,"zip":"35211","miles_from_dt":29.98}],"targetCityZipCode":"35579","targetCityState":"Alabama"},"__N_SSG":true}