{"pageProps":{"stateName":"Alabama","cityName":"peterman","nearbyCities":[{"city":"Monroeville","state_name":"Alabama","lat":31.52679,"lng":-87.30786,"zip":"36460","miles_from_dt":8.29},{"city":"Monroeville","state_name":"Alabama","lat":31.52018,"lng":-87.32072,"zip":"36461","miles_from_dt":9.1},{"city":"Beatrice","state_name":"Alabama","lat":31.75884,"lng":-87.19731,"zip":"36425","miles_from_dt":9.33},{"city":"Vredenburgh","state_name":"Alabama","lat":31.77356,"lng":-87.37553,"zip":"36481","miles_from_dt":13.34},{"city":"Franklin","state_name":"Alabama","lat":31.65935,"lng":-87.4651,"zip":"36444","miles_from_dt":14.13},{"city":"Excel","state_name":"Alabama","lat":31.42252,"lng":-87.34512,"zip":"36439","miles_from_dt":15.62},{"city":"McWilliams","state_name":"Alabama","lat":31.83698,"lng":-87.10762,"zip":"36753","miles_from_dt":16.18},{"city":"Repton","state_name":"Alabama","lat":31.38511,"lng":-87.22717,"zip":"36475","miles_from_dt":16.61},{"city":"Frisco City","state_name":"Alabama","lat":31.44397,"lng":-87.44982,"zip":"36445","miles_from_dt":18.11},{"city":"Mexia","state_name":"Alabama","lat":31.39438,"lng":-87.41633,"zip":"36458","miles_from_dt":19.44},{"city":"Lenox","state_name":"Alabama","lat":31.34368,"lng":-87.20185,"zip":"36454","miles_from_dt":19.53},{"city":"Megargel","state_name":"Alabama","lat":31.39438,"lng":-87.41943,"zip":"36457","miles_from_dt":19.54},{"city":"Evergreen","state_name":"Alabama","lat":31.47123,"lng":-86.94928,"zip":"36401","miles_from_dt":19.64},{"city":"Perdue Hill","state_name":"Alabama","lat":31.51602,"lng":-87.55518,"zip":"36470","miles_from_dt":20.7},{"city":"Brooklyn","state_name":"Alabama","lat":31.49498,"lng":-86.91226,"zip":"36429","miles_from_dt":20.74},{"city":"Range","state_name":"Alabama","lat":31.32009,"lng":-87.21967,"zip":"36473","miles_from_dt":21.09},{"city":"Pine Apple","state_name":"Alabama","lat":31.8837,"lng":-87.01186,"zip":"36768","miles_from_dt":21.86},{"city":"Coy","state_name":"Alabama","lat":31.87889,"lng":-87.45564,"zip":"36435","miles_from_dt":21.95},{"city":"Lower Peach Tree","state_name":"Alabama","lat":31.80808,"lng":-87.54865,"zip":"36751","miles_from_dt":22.64},{"city":"Uriah","state_name":"Alabama","lat":31.33662,"lng":-87.42582,"zip":"36449","miles_from_dt":23.1},{"city":"Camden","state_name":"Alabama","lat":31.97043,"lng":-87.27532,"zip":"36726","miles_from_dt":23.88},{"city":"Whatley","state_name":"Alabama","lat":31.6223,"lng":-87.63424,"zip":"36482","miles_from_dt":23.91},{"city":"McKenzie","state_name":"Alabama","lat":31.57103,"lng":-86.82556,"zip":"36456","miles_from_dt":24.07},{"city":"Oak Hill","state_name":"Alabama","lat":31.95505,"lng":-87.08668,"zip":"36766","miles_from_dt":24.15},{"city":"Castleberry","state_name":"Alabama","lat":31.30055,"lng":-87.03888,"zip":"36432","miles_from_dt":25.08},{"city":"Georgiana","state_name":"Alabama","lat":31.66983,"lng":-86.771,"zip":"36033","miles_from_dt":27.14},{"city":"Forest Home","state_name":"Alabama","lat":31.86044,"lng":-86.85697,"zip":"36030","miles_from_dt":27.19},{"city":"Dickinson","state_name":"Alabama","lat":31.76636,"lng":-87.6614,"zip":"36436","miles_from_dt":27.26},{"city":"Gainestown","state_name":"Alabama","lat":31.44702,"lng":-87.66487,"zip":"36540","miles_from_dt":28.55},{"city":"Furman","state_name":"Alabama","lat":32.02198,"lng":-87.02594,"zip":"36741","miles_from_dt":29.76}],"targetCityZipCode":"36471","targetCityState":"Alabama"},"__N_SSG":true}