{"pageProps":{"stateName":"Alabama","cityName":"stevenson","nearbyCities":[{"city":"Fackler","state_name":"Alabama","lat":34.8287,"lng":-85.99868,"zip":"35746","miles_from_dt":7.72},{"city":"Bridgeport","state_name":"Alabama","lat":34.95009,"lng":-85.75855,"zip":"35740","miles_from_dt":8.29},{"city":"Hollywood","state_name":"Alabama","lat":34.75593,"lng":-85.95119,"zip":"35752","miles_from_dt":10.05},{"city":"Sherwood","state_name":"Tennessee","lat":35.04748,"lng":-85.95834,"zip":"37376","miles_from_dt":11.51},{"city":"Flat Rock","state_name":"Alabama","lat":34.79696,"lng":-85.68833,"zip":"35966","miles_from_dt":12.99},{"city":"Bryant","state_name":"Alabama","lat":34.91796,"lng":-85.64731,"zip":"35958","miles_from_dt":13.68},{"city":"Pisgah","state_name":"Alabama","lat":34.69393,"lng":-85.82423,"zip":"35765","miles_from_dt":14.07},{"city":"South Pittsburg","state_name":"Tennessee","lat":35.07265,"lng":-85.75754,"zip":"37380","miles_from_dt":14.46},{"city":"Scottsboro","state_name":"Alabama","lat":34.77852,"lng":-86.10383,"zip":"35768","miles_from_dt":14.62},{"city":"Higdon","state_name":"Alabama","lat":34.82994,"lng":-85.6125,"zip":"35979","miles_from_dt":16.12},{"city":"Sewanee","state_name":"Tennessee","lat":35.15355,"lng":-85.88173,"zip":"37375","miles_from_dt":18.06},{"city":"Estillfork","state_name":"Alabama","lat":34.94101,"lng":-86.20002,"zip":"35745","miles_from_dt":18.15},{"city":"Ider","state_name":"Alabama","lat":34.72218,"lng":-85.64072,"zip":"35981","miles_from_dt":18.19},{"city":"Dutton","state_name":"Alabama","lat":34.61435,"lng":-85.90603,"zip":"35744","miles_from_dt":19.14},{"city":"Jasper","state_name":"Tennessee","lat":35.06088,"lng":-85.61894,"zip":"37347","miles_from_dt":19.14},{"city":"Henagar","state_name":"Alabama","lat":34.64239,"lng":-85.72983,"zip":"35978","miles_from_dt":19.34},{"city":"Trenton","state_name":"Georgia","lat":34.91136,"lng":-85.53079,"zip":"30752","miles_from_dt":20.23},{"city":"Cowan","state_name":"Tennessee","lat":35.17879,"lng":-85.97994,"zip":"37318","miles_from_dt":20.5},{"city":"Trenton","state_name":"Alabama","lat":34.7611,"lng":-86.22805,"zip":"35774","miles_from_dt":21.41},{"city":"Guild","state_name":"Tennessee","lat":35.02085,"lng":-85.53179,"zip":"37340","miles_from_dt":22},{"city":"Sewanee","state_name":"Tennessee","lat":35.20984,"lng":-85.91373,"zip":"37383","miles_from_dt":22},{"city":"Princeton","state_name":"Alabama","lat":34.87342,"lng":-86.27661,"zip":"35766","miles_from_dt":22.22},{"city":"Belvidere","state_name":"Tennessee","lat":35.09776,"lng":-86.18928,"zip":"37306","miles_from_dt":22.31},{"city":"Huntland","state_name":"Tennessee","lat":35.0366,"lng":-86.24299,"zip":"37345","miles_from_dt":22.59},{"city":"Sequatchie","state_name":"Tennessee","lat":35.16404,"lng":-85.65818,"zip":"37374","miles_from_dt":22.8},{"city":"Whiteside","state_name":"Tennessee","lat":35.00198,"lng":-85.50353,"zip":"37396","miles_from_dt":23.01},{"city":"Hollytree","state_name":"Alabama","lat":34.81066,"lng":-86.27931,"zip":"35751","miles_from_dt":23.03},{"city":"Sylvania","state_name":"Alabama","lat":34.5589,"lng":-85.79994,"zip":"35988","miles_from_dt":23.45},{"city":"Monteagle","state_name":"Tennessee","lat":35.22952,"lng":-85.82393,"zip":"37356","miles_from_dt":23.57},{"city":"Scottsboro","state_name":"Alabama","lat":34.59255,"lng":-86.09472,"zip":"35769","miles_from_dt":23.78},{"city":"Rising Fawn","state_name":"Georgia","lat":34.79534,"lng":-85.47846,"zip":"30738","miles_from_dt":24.1},{"city":"Valley Head","state_name":"Alabama","lat":34.60858,"lng":-85.63162,"zip":"35989","miles_from_dt":24.29},{"city":"Winchester","state_name":"Tennessee","lat":35.18182,"lng":-86.13808,"zip":"37398","miles_from_dt":24.59},{"city":"Section","state_name":"Alabama","lat":34.53635,"lng":-85.99843,"zip":"35771","miles_from_dt":25.3},{"city":"Decherd","state_name":"Tennessee","lat":35.25251,"lng":-86.00044,"zip":"37324","miles_from_dt":25.71},{"city":"Woodville","state_name":"Alabama","lat":34.66083,"lng":-86.24338,"zip":"35776","miles_from_dt":25.8},{"city":"Wildwood","state_name":"Georgia","lat":34.94164,"lng":-85.4324,"zip":"30757","miles_from_dt":25.99},{"city":"Paint Rock","state_name":"Alabama","lat":34.73102,"lng":-86.31381,"zip":"35764","miles_from_dt":26.71},{"city":"Rainsville","state_name":"Alabama","lat":34.50524,"lng":-85.84012,"zip":"35986","miles_from_dt":26.76},{"city":"Tracy City","state_name":"Tennessee","lat":35.27745,"lng":-85.71427,"zip":"37387","miles_from_dt":28.33},{"city":"Lookout Mountain","state_name":"Georgia","lat":34.93681,"lng":-85.3882,"zip":"30750","miles_from_dt":28.45},{"city":"Chattanooga","state_name":"Tennessee","lat":35.04052,"lng":-85.41734,"zip":"37419","miles_from_dt":28.52},{"city":"Elora","state_name":"Tennessee","lat":35.02825,"lng":-86.36876,"zip":"37328","miles_from_dt":28.97},{"city":"Fort Payne","state_name":"Alabama","lat":34.48095,"lng":-85.77232,"zip":"35968","miles_from_dt":29.03},{"city":"Pelham","state_name":"Tennessee","lat":35.32054,"lng":-85.84224,"zip":"37366","miles_from_dt":29.68},{"city":"New Market","state_name":"Alabama","lat":34.914,"lng":-86.41001,"zip":"35761","miles_from_dt":29.79},{"city":"Langston","state_name":"Alabama","lat":34.50676,"lng":-86.12609,"zip":"35755","miles_from_dt":29.83}],"targetCityZipCode":"35772","targetCityState":"Alabama"},"__N_SSG":true}