{"pageProps":{"stateName":"Alabama","cityName":"tanner","nearbyCities":[{"city":"Belle Mina","state_name":"Alabama","lat":34.66229,"lng":-86.87596,"zip":"35615","miles_from_dt":4.33},{"city":"Mooresville","state_name":"Alabama","lat":34.62091,"lng":-86.87965,"zip":"35649","miles_from_dt":5.16},{"city":"Decatur","state_name":"Alabama","lat":34.60616,"lng":-87.00795,"zip":"35601","miles_from_dt":5.22},{"city":"Decatur","state_name":"Alabama","lat":34.61249,"lng":-87.02212,"zip":"35609","miles_from_dt":5.44},{"city":"Decatur","state_name":"Alabama","lat":34.60769,"lng":-87.0213,"zip":"35699","miles_from_dt":5.64},{"city":"Madison","state_name":"Alabama","lat":34.64287,"lng":-86.82114,"zip":"35756","miles_from_dt":7.62},{"city":"Decatur","state_name":"Alabama","lat":34.54408,"lng":-86.96337,"zip":"35602","miles_from_dt":8.43},{"city":"Decatur","state_name":"Alabama","lat":34.53712,"lng":-86.96717,"zip":"35603","miles_from_dt":8.93},{"city":"Athens","state_name":"Alabama","lat":34.79532,"lng":-87.00861,"zip":"35612","miles_from_dt":9.48},{"city":"Athens","state_name":"Alabama","lat":34.76554,"lng":-87.08418,"zip":"35611","miles_from_dt":10.18},{"city":"Huntsville","state_name":"Alabama","lat":34.6467,"lng":-86.7545,"zip":"35894","miles_from_dt":11.32},{"city":"Huntsville","state_name":"Alabama","lat":34.64458,"lng":-86.75193,"zip":"35824","miles_from_dt":11.49},{"city":"Huntsville","state_name":"Alabama","lat":34.64561,"lng":-86.75053,"zip":"35813","miles_from_dt":11.56},{"city":"Athens","state_name":"Alabama","lat":34.82336,"lng":-86.88001,"zip":"35613","miles_from_dt":11.59},{"city":"Trinity","state_name":"Alabama","lat":34.58601,"lng":-87.13166,"zip":"35673","miles_from_dt":11.63},{"city":"Madison","state_name":"Alabama","lat":34.71417,"lng":-86.74707,"zip":"35758","miles_from_dt":12.13},{"city":"Capshaw","state_name":"Alabama","lat":34.80485,"lng":-86.78195,"zip":"35742","miles_from_dt":13.6},{"city":"Madison","state_name":"Alabama","lat":34.78426,"lng":-86.74419,"zip":"35757","miles_from_dt":14.36},{"city":"Hillsboro","state_name":"Alabama","lat":34.66882,"lng":-87.20707,"zip":"35643","miles_from_dt":14.53},{"city":"Hartselle","state_name":"Alabama","lat":34.4414,"lng":-86.94315,"zip":"35640","miles_from_dt":15.49},{"city":"Harvest","state_name":"Alabama","lat":34.82314,"lng":-86.75662,"zip":"35749","miles_from_dt":15.51},{"city":"Athens","state_name":"Alabama","lat":34.86433,"lng":-87.08457,"zip":"35614","miles_from_dt":15.61},{"city":"Valhermoso Springs","state_name":"Alabama","lat":34.5477,"lng":-86.69623,"zip":"35775","miles_from_dt":16.7},{"city":"Huntsville","state_name":"Alabama","lat":34.76615,"lng":-86.68324,"zip":"35806","miles_from_dt":16.78},{"city":"Huntsville","state_name":"Alabama","lat":34.63236,"lng":-86.65579,"zip":"35808","miles_from_dt":17.03},{"city":"Huntsville","state_name":"Alabama","lat":34.63249,"lng":-86.65273,"zip":"35812","miles_from_dt":17.2},{"city":"Huntsville","state_name":"Alabama","lat":34.71411,"lng":-86.65353,"zip":"35807","miles_from_dt":17.31},{"city":"Huntsville","state_name":"Alabama","lat":34.62894,"lng":-86.65113,"zip":"35898","miles_from_dt":17.32},{"city":"Huntsville","state_name":"Alabama","lat":34.75318,"lng":-86.65213,"zip":"35896","miles_from_dt":18.09},{"city":"Elkmont","state_name":"Alabama","lat":34.93141,"lng":-86.99086,"zip":"35620","miles_from_dt":18.42},{"city":"Huntsville","state_name":"Alabama","lat":34.71674,"lng":-86.63118,"zip":"35897","miles_from_dt":18.59},{"city":"Huntsville","state_name":"Alabama","lat":34.70875,"lng":-86.6219,"zip":"35805","miles_from_dt":19.02},{"city":"Huntsville","state_name":"Alabama","lat":34.73923,"lng":-86.62985,"zip":"35816","miles_from_dt":19.02},{"city":"Huntsville","state_name":"Alabama","lat":34.74054,"lng":-86.62928,"zip":"35899","miles_from_dt":19.07},{"city":"Somerville","state_name":"Alabama","lat":34.46318,"lng":-86.72356,"zip":"35670","miles_from_dt":19.11},{"city":"Huntsville","state_name":"Alabama","lat":34.7084,"lng":-86.61731,"zip":"35814","miles_from_dt":19.27},{"city":"Courtland","state_name":"Alabama","lat":34.64334,"lng":-87.30552,"zip":"35618","miles_from_dt":20.2},{"city":"Toney","state_name":"Alabama","lat":34.89431,"lng":-86.71282,"zip":"35773","miles_from_dt":20.8},{"city":"Huntsville","state_name":"Alabama","lat":34.73141,"lng":-86.58977,"zip":"35895","miles_from_dt":21.1},{"city":"Huntsville","state_name":"Alabama","lat":34.73028,"lng":-86.58611,"zip":"35809","miles_from_dt":21.29},{"city":"Huntsville","state_name":"Alabama","lat":34.72998,"lng":-86.5859,"zip":"35804","miles_from_dt":21.3},{"city":"Huntsville","state_name":"Alabama","lat":34.73244,"lng":-86.58459,"zip":"35893","miles_from_dt":21.41},{"city":"Laceys Spring","state_name":"Alabama","lat":34.51819,"lng":-86.61099,"zip":"35754","miles_from_dt":21.94},{"city":"Huntsville","state_name":"Alabama","lat":34.80183,"lng":-86.60264,"zip":"35810","miles_from_dt":21.97},{"city":"Huntsville","state_name":"Alabama","lat":34.6405,"lng":-86.56479,"zip":"35815","miles_from_dt":22.12},{"city":"Danville","state_name":"Alabama","lat":34.38606,"lng":-87.14545,"zip":"35619","miles_from_dt":22.24},{"city":"Falkville","state_name":"Alabama","lat":34.34491,"lng":-86.89535,"zip":"35622","miles_from_dt":22.37},{"city":"Huntsville","state_name":"Alabama","lat":34.72497,"lng":-86.56304,"zip":"35801","miles_from_dt":22.51},{"city":"Huntsville","state_name":"Alabama","lat":34.67398,"lng":-86.55449,"zip":"35802","miles_from_dt":22.64},{"city":"Ardmore","state_name":"Alabama","lat":34.96914,"lng":-86.79501,"zip":"35739","miles_from_dt":22.72},{"city":"Lester","state_name":"Alabama","lat":34.96539,"lng":-87.11933,"zip":"35647","miles_from_dt":22.72},{"city":"Normal","state_name":"Alabama","lat":34.79291,"lng":-86.569,"zip":"35762","miles_from_dt":23.48},{"city":"Rogersville","state_name":"Alabama","lat":34.84742,"lng":-87.31137,"zip":"35652","miles_from_dt":23.97},{"city":"Moulton","state_name":"Alabama","lat":34.45176,"lng":-87.30289,"zip":"35650","miles_from_dt":24.88},{"city":"Eva","state_name":"Alabama","lat":34.34967,"lng":-86.7239,"zip":"35621","miles_from_dt":25.4},{"city":"Huntsville","state_name":"Alabama","lat":34.56476,"lng":-86.52185,"zip":"35803","miles_from_dt":25.48},{"city":"Anderson","state_name":"Alabama","lat":34.95361,"lng":-87.23714,"zip":"35610","miles_from_dt":25.61},{"city":"Town Creek","state_name":"Alabama","lat":34.65106,"lng":-87.40705,"zip":"35672","miles_from_dt":25.94},{"city":"Meridianville","state_name":"Alabama","lat":34.86856,"lng":-86.55262,"zip":"35759","miles_from_dt":26.66},{"city":"Prospect","state_name":"Tennessee","lat":35.05075,"lng":-87.00932,"zip":"38477","miles_from_dt":26.72},{"city":"Huntsville","state_name":"Alabama","lat":34.79925,"lng":-86.50386,"zip":"35811","miles_from_dt":27.1},{"city":"Brownsboro","state_name":"Alabama","lat":34.7242,"lng":-86.47745,"zip":"35741","miles_from_dt":27.31},{"city":"Vinemont","state_name":"Alabama","lat":34.27004,"lng":-86.96847,"zip":"35179","miles_from_dt":27.31},{"city":"Elkton","state_name":"Tennessee","lat":35.06199,"lng":-86.89366,"zip":"38455","miles_from_dt":27.49},{"city":"Ardmore","state_name":"Tennessee","lat":35.05231,"lng":-86.82954,"zip":"38449","miles_from_dt":27.52},{"city":"Ryland","state_name":"Alabama","lat":34.7704,"lng":-86.48172,"zip":"35767","miles_from_dt":27.71},{"city":"Owens Cross Roads","state_name":"Alabama","lat":34.62022,"lng":-86.46615,"zip":"35763","miles_from_dt":27.85},{"city":"Minor Hill","state_name":"Tennessee","lat":35.02775,"lng":-87.17057,"zip":"38473","miles_from_dt":27.86},{"city":"Hazel Green","state_name":"Alabama","lat":34.95407,"lng":-86.5951,"zip":"35750","miles_from_dt":28.38},{"city":"Union Grove","state_name":"Alabama","lat":34.43731,"lng":-86.51673,"zip":"35175","miles_from_dt":29.4},{"city":"Taft","state_name":"Tennessee","lat":35.03906,"lng":-86.68569,"zip":"38488","miles_from_dt":29.83}],"targetCityZipCode":"35671","targetCityState":"Alabama"},"__N_SSG":true}