{"pageProps":{"stateName":"Alabama","cityName":"trinity","nearbyCities":[{"city":"Decatur","state_name":"Alabama","lat":34.60769,"lng":-87.0213,"zip":"35699","miles_from_dt":6.47},{"city":"Decatur","state_name":"Alabama","lat":34.61249,"lng":-87.02212,"zip":"35609","miles_from_dt":6.51},{"city":"Hillsboro","state_name":"Alabama","lat":34.66882,"lng":-87.20707,"zip":"35643","miles_from_dt":7.14},{"city":"Decatur","state_name":"Alabama","lat":34.60616,"lng":-87.00795,"zip":"35601","miles_from_dt":7.19},{"city":"Decatur","state_name":"Alabama","lat":34.53712,"lng":-86.96717,"zip":"35603","miles_from_dt":9.97},{"city":"Decatur","state_name":"Alabama","lat":34.54408,"lng":-86.96337,"zip":"35602","miles_from_dt":10.02},{"city":"Courtland","state_name":"Alabama","lat":34.64334,"lng":-87.30552,"zip":"35618","miles_from_dt":10.67},{"city":"Tanner","state_name":"Alabama","lat":34.66607,"lng":-86.95191,"zip":"35671","miles_from_dt":11.63},{"city":"Athens","state_name":"Alabama","lat":34.76554,"lng":-87.08418,"zip":"35611","miles_from_dt":12.67},{"city":"Moulton","state_name":"Alabama","lat":34.45176,"lng":-87.30289,"zip":"35650","miles_from_dt":13.46},{"city":"Danville","state_name":"Alabama","lat":34.38606,"lng":-87.14545,"zip":"35619","miles_from_dt":13.8},{"city":"Mooresville","state_name":"Alabama","lat":34.62091,"lng":-86.87965,"zip":"35649","miles_from_dt":14.56},{"city":"Hartselle","state_name":"Alabama","lat":34.4414,"lng":-86.94315,"zip":"35640","miles_from_dt":14.66},{"city":"Belle Mina","state_name":"Alabama","lat":34.66229,"lng":-86.87596,"zip":"35615","miles_from_dt":15.49},{"city":"Athens","state_name":"Alabama","lat":34.79532,"lng":-87.00861,"zip":"35612","miles_from_dt":16.04},{"city":"Town Creek","state_name":"Alabama","lat":34.65106,"lng":-87.40705,"zip":"35672","miles_from_dt":16.32},{"city":"Madison","state_name":"Alabama","lat":34.64287,"lng":-86.82114,"zip":"35756","miles_from_dt":18.12},{"city":"Athens","state_name":"Alabama","lat":34.86433,"lng":-87.08457,"zip":"35614","miles_from_dt":19.37},{"city":"Rogersville","state_name":"Alabama","lat":34.84742,"lng":-87.31137,"zip":"35652","miles_from_dt":20.72},{"city":"Falkville","state_name":"Alabama","lat":34.34491,"lng":-86.89535,"zip":"35622","miles_from_dt":21.41},{"city":"Mount Hope","state_name":"Alabama","lat":34.46254,"lng":-87.48044,"zip":"35651","miles_from_dt":21.64},{"city":"Athens","state_name":"Alabama","lat":34.82336,"lng":-86.88001,"zip":"35613","miles_from_dt":21.75},{"city":"Huntsville","state_name":"Alabama","lat":34.6467,"lng":-86.7545,"zip":"35894","miles_from_dt":21.9},{"city":"Huntsville","state_name":"Alabama","lat":34.64458,"lng":-86.75193,"zip":"35824","miles_from_dt":22.01},{"city":"Huntsville","state_name":"Alabama","lat":34.64561,"lng":-86.75053,"zip":"35813","miles_from_dt":22.1},{"city":"Leighton","state_name":"Alabama","lat":34.66988,"lng":-87.53165,"zip":"35646","miles_from_dt":23.51},{"city":"Madison","state_name":"Alabama","lat":34.71417,"lng":-86.74707,"zip":"35758","miles_from_dt":23.62},{"city":"Vinemont","state_name":"Alabama","lat":34.27004,"lng":-86.96847,"zip":"35179","miles_from_dt":23.69},{"city":"Addison","state_name":"Alabama","lat":34.23066,"lng":-87.18374,"zip":"35540","miles_from_dt":24.67},{"city":"Somerville","state_name":"Alabama","lat":34.46318,"lng":-86.72356,"zip":"35670","miles_from_dt":24.77},{"city":"Valhermoso Springs","state_name":"Alabama","lat":34.5477,"lng":-86.69623,"zip":"35775","miles_from_dt":24.97},{"city":"Capshaw","state_name":"Alabama","lat":34.80485,"lng":-86.78195,"zip":"35742","miles_from_dt":24.98},{"city":"Elkmont","state_name":"Alabama","lat":34.93141,"lng":-86.99086,"zip":"35620","miles_from_dt":25.12},{"city":"Madison","state_name":"Alabama","lat":34.78426,"lng":-86.74419,"zip":"35757","miles_from_dt":25.95},{"city":"Anderson","state_name":"Alabama","lat":34.95361,"lng":-87.23714,"zip":"35610","miles_from_dt":26.04},{"city":"Lester","state_name":"Alabama","lat":34.96539,"lng":-87.11933,"zip":"35647","miles_from_dt":26.16},{"city":"Harvest","state_name":"Alabama","lat":34.82314,"lng":-86.75662,"zip":"35749","miles_from_dt":26.89},{"city":"Huntsville","state_name":"Alabama","lat":34.63236,"lng":-86.65579,"zip":"35808","miles_from_dt":27.31},{"city":"Huntsville","state_name":"Alabama","lat":34.63249,"lng":-86.65273,"zip":"35812","miles_from_dt":27.48},{"city":"Huntsville","state_name":"Alabama","lat":34.62894,"lng":-86.65113,"zip":"35898","miles_from_dt":27.55},{"city":"Houston","state_name":"Alabama","lat":34.20672,"lng":-87.29447,"zip":"35572","miles_from_dt":27.75},{"city":"Muscle Shoals","state_name":"Alabama","lat":34.77737,"lng":-87.56331,"zip":"35661","miles_from_dt":27.9},{"city":"Huntsville","state_name":"Alabama","lat":34.76615,"lng":-86.68324,"zip":"35806","miles_from_dt":28.39},{"city":"Eva","state_name":"Alabama","lat":34.34967,"lng":-86.7239,"zip":"35621","miles_from_dt":28.41},{"city":"Russellville","state_name":"Alabama","lat":34.49971,"lng":-87.62,"zip":"35654","miles_from_dt":28.48},{"city":"Huntsville","state_name":"Alabama","lat":34.71411,"lng":-86.65353,"zip":"35807","miles_from_dt":28.63},{"city":"Lexington","state_name":"Alabama","lat":34.95857,"lng":-87.38022,"zip":"35648","miles_from_dt":29.32},{"city":"Huntsville","state_name":"Alabama","lat":34.75318,"lng":-86.65213,"zip":"35896","miles_from_dt":29.64},{"city":"Killen","state_name":"Alabama","lat":34.89605,"lng":-87.4936,"zip":"35645","miles_from_dt":29.68},{"city":"Huntsville","state_name":"Alabama","lat":34.71674,"lng":-86.63118,"zip":"35897","miles_from_dt":29.9}],"targetCityZipCode":"35673","targetCityState":"Alabama"},"__N_SSG":true}