{"pageProps":{"stateName":"Alabama","cityName":"tyler","nearbyCities":[{"city":"Sardis","state_name":"Alabama","lat":32.20066,"lng":-86.95487,"zip":"36775","miles_from_dt":9.13},{"city":"Hayneville","state_name":"Alabama","lat":32.17795,"lng":-86.66972,"zip":"36040","miles_from_dt":11.42},{"city":"Selma","state_name":"Alabama","lat":32.43387,"lng":-86.91118,"zip":"36703","miles_from_dt":11.94},{"city":"Lowndesboro","state_name":"Alabama","lat":32.30628,"lng":-86.62544,"zip":"36752","miles_from_dt":11.97},{"city":"Autaugaville","state_name":"Alabama","lat":32.44651,"lng":-86.72536,"zip":"36003","miles_from_dt":13.15},{"city":"Selma","state_name":"Alabama","lat":32.40624,"lng":-87.02243,"zip":"36702","miles_from_dt":14.54},{"city":"Minter","state_name":"Alabama","lat":32.07872,"lng":-86.97602,"zip":"36761","miles_from_dt":16.17},{"city":"Jones","state_name":"Alabama","lat":32.54759,"lng":-86.85303,"zip":"36749","miles_from_dt":18.77},{"city":"Selma","state_name":"Alabama","lat":32.49672,"lng":-87.0568,"zip":"36701","miles_from_dt":20.29},{"city":"Furman","state_name":"Alabama","lat":32.02198,"lng":-87.02594,"zip":"36741","miles_from_dt":21.05},{"city":"Booth","state_name":"Alabama","lat":32.49747,"lng":-86.56416,"zip":"36008","miles_from_dt":21.64},{"city":"Prattville","state_name":"Alabama","lat":32.51134,"lng":-86.57084,"zip":"36067","miles_from_dt":22.06},{"city":"Letohatchee","state_name":"Alabama","lat":32.07868,"lng":-86.52474,"zip":"36047","miles_from_dt":22.33},{"city":"Orrville","state_name":"Alabama","lat":32.25083,"lng":-87.21042,"zip":"36767","miles_from_dt":22.53},{"city":"Hope Hull","state_name":"Alabama","lat":32.1939,"lng":-86.42811,"zip":"36043","miles_from_dt":24.03},{"city":"Fort Deposit","state_name":"Alabama","lat":31.99857,"lng":-86.57179,"zip":"36032","miles_from_dt":24.28},{"city":"Montgomery","state_name":"Alabama","lat":32.33956,"lng":-86.40602,"zip":"36108","miles_from_dt":25.01},{"city":"Billingsley","state_name":"Alabama","lat":32.63831,"lng":-86.72531,"zip":"36006","miles_from_dt":25.65},{"city":"Prattville","state_name":"Alabama","lat":32.46122,"lng":-86.44463,"zip":"36068","miles_from_dt":25.73},{"city":"Plantersville","state_name":"Alabama","lat":32.6491,"lng":-86.89975,"zip":"36758","miles_from_dt":26.05},{"city":"Oak Hill","state_name":"Alabama","lat":31.95505,"lng":-87.08668,"zip":"36766","miles_from_dt":26.86},{"city":"Prattville","state_name":"Alabama","lat":32.48216,"lng":-86.42431,"zip":"36066","miles_from_dt":27.49},{"city":"Montgomery","state_name":"Alabama","lat":32.38343,"lng":-86.36,"zip":"36112","miles_from_dt":28.29},{"city":"Forest Home","state_name":"Alabama","lat":31.86044,"lng":-86.85697,"zip":"36030","miles_from_dt":28.7},{"city":"Marion Junction","state_name":"Alabama","lat":32.42977,"lng":-87.28722,"zip":"36759","miles_from_dt":28.93},{"city":"Pine Apple","state_name":"Alabama","lat":31.8837,"lng":-87.01186,"zip":"36768","miles_from_dt":29.14},{"city":"Montgomery","state_name":"Alabama","lat":32.38146,"lng":-86.34172,"zip":"36113","miles_from_dt":29.29},{"city":"Montgomery","state_name":"Alabama","lat":32.31304,"lng":-86.31813,"zip":"36125","miles_from_dt":29.88}],"targetCityZipCode":"36785","targetCityState":"Alabama"},"__N_SSG":true}