{"pageProps":{"stateName":"Alabama","cityName":"woodland","nearbyCities":[{"city":"Graham","state_name":"Alabama","lat":33.46727,"lng":-85.36016,"zip":"36263","miles_from_dt":5.96},{"city":"Wedowee","state_name":"Alabama","lat":33.31885,"lng":-85.5253,"zip":"36278","miles_from_dt":9.08},{"city":"Ranburne","state_name":"Alabama","lat":33.53904,"lng":-85.37742,"zip":"36273","miles_from_dt":10.69},{"city":"Bowdon","state_name":"Georgia","lat":33.53172,"lng":-85.26242,"zip":"30108","miles_from_dt":12.52},{"city":"Roopville","state_name":"Georgia","lat":33.43065,"lng":-85.16821,"zip":"30170","miles_from_dt":13.16},{"city":"Roanoke","state_name":"Alabama","lat":33.17687,"lng":-85.36283,"zip":"36274","miles_from_dt":14.37},{"city":"Franklin","state_name":"Georgia","lat":33.28671,"lng":-85.13309,"zip":"30217","miles_from_dt":16.26},{"city":"Heflin","state_name":"Alabama","lat":33.59305,"lng":-85.53817,"zip":"36264","miles_from_dt":16.77},{"city":"Delta","state_name":"Alabama","lat":33.47795,"lng":-85.716,"zip":"36258","miles_from_dt":19.96},{"city":"Carrollton","state_name":"Georgia","lat":33.58113,"lng":-85.13197,"zip":"30117","miles_from_dt":20.11},{"city":"Mount Zion","state_name":"Georgia","lat":33.62591,"lng":-85.18526,"zip":"30150","miles_from_dt":20.39},{"city":"Waco","state_name":"Georgia","lat":33.65603,"lng":-85.24628,"zip":"30182","miles_from_dt":20.46},{"city":"Carrollton","state_name":"Georgia","lat":33.58913,"lng":-85.13233,"zip":"30119","miles_from_dt":20.47},{"city":"Wadley","state_name":"Alabama","lat":33.12644,"lng":-85.57772,"zip":"36276","miles_from_dt":20.86},{"city":"Lineville","state_name":"Alabama","lat":33.35338,"lng":-85.75062,"zip":"36266","miles_from_dt":21.01},{"city":"Carrollton","state_name":"Georgia","lat":33.57288,"lng":-85.09938,"zip":"30118","miles_from_dt":21.19},{"city":"Bowdon Junction","state_name":"Georgia","lat":33.56744,"lng":-85.08147,"zip":"30109","miles_from_dt":21.8},{"city":"Carrollton","state_name":"Georgia","lat":33.58,"lng":-85.08219,"zip":"30112","miles_from_dt":22.27},{"city":"Edwardsville","state_name":"Alabama","lat":33.7074,"lng":-85.50936,"zip":"36261","miles_from_dt":23.33},{"city":"Muscadine","state_name":"Alabama","lat":33.73569,"lng":-85.38314,"zip":"36269","miles_from_dt":24.22},{"city":"Five Points","state_name":"Alabama","lat":33.03709,"lng":-85.30516,"zip":"36855","miles_from_dt":24.42},{"city":"Carrollton","state_name":"Georgia","lat":33.55224,"lng":-85.01298,"zip":"30116","miles_from_dt":24.62},{"city":"Cragford","state_name":"Alabama","lat":33.18094,"lng":-85.73933,"zip":"36255","miles_from_dt":24.64},{"city":"Choccolocco","state_name":"Alabama","lat":33.65793,"lng":-85.6992,"zip":"36254","miles_from_dt":26},{"city":"De Armanville","state_name":"Alabama","lat":33.62852,"lng":-85.74325,"zip":"36257","miles_from_dt":26.48},{"city":"Tallapoosa","state_name":"Georgia","lat":33.76972,"lng":-85.30398,"zip":"30176","miles_from_dt":27.01},{"city":"Anniston","state_name":"Alabama","lat":33.68196,"lng":-85.71356,"zip":"36207","miles_from_dt":27.78},{"city":"Lagrange","state_name":"Georgia","lat":33.03757,"lng":-85.12222,"zip":"30240","miles_from_dt":28.46},{"city":"Bremen","state_name":"Georgia","lat":33.74071,"lng":-85.137,"zip":"30110","miles_from_dt":28.55},{"city":"Fruithurst","state_name":"Alabama","lat":33.7965,"lng":-85.46741,"zip":"36262","miles_from_dt":28.77},{"city":"Oxford","state_name":"Alabama","lat":33.58205,"lng":-85.83312,"zip":"36203","miles_from_dt":29.04},{"city":"Whitesburg","state_name":"Georgia","lat":33.51975,"lng":-84.90879,"zip":"30185","miles_from_dt":29.28},{"city":"Ashland","state_name":"Alabama","lat":33.22996,"lng":-85.86532,"zip":"36251","miles_from_dt":29.54},{"city":"Daviston","state_name":"Alabama","lat":33.04181,"lng":-85.70775,"zip":"36256","miles_from_dt":29.96}],"targetCityZipCode":"36280","targetCityState":"Alabama"},"__N_SSG":true}