{"pageProps":{"stateName":"Virginia","cityName":"achilles","nearbyCities":[{"city":"Bena","state_name":"Virginia","lat":37.27008,"lng":-76.45852,"zip":"23018","miles_from_dt":1.23},{"city":"Severn","state_name":"Virginia","lat":37.29473,"lng":-76.41639,"zip":"23155","miles_from_dt":1.65},{"city":"Maryus","state_name":"Virginia","lat":37.27815,"lng":-76.40353,"zip":"23107","miles_from_dt":2.07},{"city":"Hayes","state_name":"Virginia","lat":37.29543,"lng":-76.48148,"zip":"23072","miles_from_dt":2.44},{"city":"Gloucester Point","state_name":"Virginia","lat":37.258,"lng":-76.50404,"zip":"23062","miles_from_dt":3.83},{"city":"Wicomico","state_name":"Virginia","lat":37.2921,"lng":-76.50995,"zip":"23184","miles_from_dt":3.88},{"city":"Ordinary","state_name":"Virginia","lat":37.31482,"lng":-76.51491,"zip":"23131","miles_from_dt":4.69},{"city":"White Marsh","state_name":"Virginia","lat":37.34182,"lng":-76.52008,"zip":"23183","miles_from_dt":6.04},{"city":"Seaford","state_name":"Virginia","lat":37.19249,"lng":-76.42589,"zip":"23696","miles_from_dt":6.17},{"city":"Yorktown","state_name":"Virginia","lat":37.21829,"lng":-76.52371,"zip":"23690","miles_from_dt":6.29},{"city":"Lackey","state_name":"Virginia","lat":37.22937,"lng":-76.54661,"zip":"23694","miles_from_dt":6.83},{"city":"Yorktown","state_name":"Virginia","lat":37.18107,"lng":-76.45868,"zip":"23692","miles_from_dt":6.97},{"city":"Yorktown","state_name":"Virginia","lat":37.25906,"lng":-76.57322,"zip":"23691","miles_from_dt":7.45},{"city":"Schley","state_name":"Virginia","lat":37.38995,"lng":-76.45819,"zip":"23154","miles_from_dt":7.56},{"city":"Ware Neck","state_name":"Virginia","lat":37.40177,"lng":-76.45575,"zip":"23178","miles_from_dt":8.36},{"city":"Bohannon","state_name":"Virginia","lat":37.40102,"lng":-76.37187,"zip":"23021","miles_from_dt":9.1},{"city":"Newport News","state_name":"Virginia","lat":37.19188,"lng":-76.56563,"zip":"23603","miles_from_dt":9.23},{"city":"Susan","state_name":"Virginia","lat":37.3572,"lng":-76.29765,"zip":"23163","miles_from_dt":9.48},{"city":"Port Haywood","state_name":"Virginia","lat":37.36245,"lng":-76.30062,"zip":"23138","miles_from_dt":9.55},{"city":"Foster","state_name":"Virginia","lat":37.41809,"lng":-76.38724,"zip":"23056","miles_from_dt":9.9},{"city":"New Point","state_name":"Virginia","lat":37.3496,"lng":-76.2798,"zip":"23125","miles_from_dt":10.05},{"city":"Cardinal","state_name":"Virginia","lat":37.41447,"lng":-76.36204,"zip":"23025","miles_from_dt":10.17},{"city":"Newport News","state_name":"Virginia","lat":37.15093,"lng":-76.54343,"zip":"23608","miles_from_dt":10.61},{"city":"Yorktown","state_name":"Virginia","lat":37.12669,"lng":-76.44755,"zip":"23693","miles_from_dt":10.66},{"city":"Poquoson","state_name":"Virginia","lat":37.13178,"lng":-76.35678,"zip":"23662","miles_from_dt":11.3},{"city":"North","state_name":"Virginia","lat":37.4514,"lng":-76.43216,"zip":"23128","miles_from_dt":11.75},{"city":"Newport News","state_name":"Virginia","lat":37.14606,"lng":-76.57812,"zip":"23628","miles_from_dt":12},{"city":"Gloucester","state_name":"Virginia","lat":37.4331,"lng":-76.55019,"zip":"23061","miles_from_dt":12.08},{"city":"Newport News","state_name":"Virginia","lat":37.11511,"lng":-76.51625,"zip":"23602","miles_from_dt":12.18},{"city":"Mathews","state_name":"Virginia","lat":37.43263,"lng":-76.32445,"zip":"23109","miles_from_dt":12.26},{"city":"Onemo","state_name":"Virginia","lat":37.39048,"lng":-76.26494,"zip":"23130","miles_from_dt":12.28},{"city":"Hampton","state_name":"Virginia","lat":37.09697,"lng":-76.38389,"zip":"23681","miles_from_dt":13.09},{"city":"Fort Eustis","state_name":"Virginia","lat":37.13195,"lng":-76.58902,"zip":"23604","miles_from_dt":13.14},{"city":"Ark","state_name":"Virginia","lat":37.43857,"lng":-76.57822,"zip":"23003","miles_from_dt":13.23},{"city":"Williamsburg","state_name":"Virginia","lat":37.27259,"lng":-76.68252,"zip":"23186","miles_from_dt":13.33},{"city":"Williamsburg","state_name":"Virginia","lat":37.24927,"lng":-76.68702,"zip":"23185","miles_from_dt":13.74},{"city":"Diggs","state_name":"Virginia","lat":37.42937,"lng":-76.27069,"zip":"23045","miles_from_dt":13.87},{"city":"Hampton","state_name":"Virginia","lat":37.08963,"lng":-76.36302,"zip":"23665","miles_from_dt":13.89},{"city":"Newport News","state_name":"Virginia","lat":37.07847,"lng":-76.49557,"zip":"23606","miles_from_dt":14.3},{"city":"Dutton","state_name":"Virginia","lat":37.48918,"lng":-76.41986,"zip":"23050","miles_from_dt":14.39},{"city":"Moon","state_name":"Virginia","lat":37.45139,"lng":-76.27978,"zip":"23119","miles_from_dt":14.71},{"city":"Williamsburg","state_name":"Virginia","lat":37.26824,"lng":-76.71008,"zip":"23187","miles_from_dt":14.86},{"city":"Newport News","state_name":"Virginia","lat":37.0688,"lng":-76.49493,"zip":"23612","miles_from_dt":14.94},{"city":"Hudgins","state_name":"Virginia","lat":37.47328,"lng":-76.30499,"zip":"23076","miles_from_dt":15.22},{"city":"Cobbs Creek","state_name":"Virginia","lat":37.49809,"lng":-76.37679,"zip":"23035","miles_from_dt":15.37},{"city":"Newport News","state_name":"Virginia","lat":37.05862,"lng":-76.46414,"zip":"23601","miles_from_dt":15.4},{"city":"Hampton","state_name":"Virginia","lat":37.05818,"lng":-76.40817,"zip":"23666","miles_from_dt":15.48},{"city":"Hampton","state_name":"Virginia","lat":37.05627,"lng":-76.41239,"zip":"23670","miles_from_dt":15.59},{"city":"Hallieford","state_name":"Virginia","lat":37.49511,"lng":-76.33727,"zip":"23068","miles_from_dt":15.82},{"city":"Hampton","state_name":"Virginia","lat":37.07467,"lng":-76.2925,"zip":"23664","miles_from_dt":16.43},{"city":"Lightfoot","state_name":"Virginia","lat":37.32319,"lng":-76.73899,"zip":"23090","miles_from_dt":16.67},{"city":"Grimstead","state_name":"Virginia","lat":37.49893,"lng":-76.30446,"zip":"23064","miles_from_dt":16.79},{"city":"Hampton","state_name":"Virginia","lat":37.05052,"lng":-76.33952,"zip":"23669","miles_from_dt":16.86},{"city":"Woods Cross Roads","state_name":"Virginia","lat":37.48354,"lng":-76.62069,"zip":"23190","miles_from_dt":17.11},{"city":"Gwynn","state_name":"Virginia","lat":37.49836,"lng":-76.28831,"zip":"23066","miles_from_dt":17.17},{"city":"Williamsburg","state_name":"Virginia","lat":37.33849,"lng":-76.74925,"zip":"23188","miles_from_dt":17.44},{"city":"Hartfield","state_name":"Virginia","lat":37.54326,"lng":-76.45228,"zip":"23071","miles_from_dt":18.09},{"city":"Newport News","state_name":"Virginia","lat":37.01754,"lng":-76.43527,"zip":"23605","miles_from_dt":18.18},{"city":"Jamestown","state_name":"Virginia","lat":37.20758,"lng":-76.7617,"zip":"23081","miles_from_dt":18.4},{"city":"Hampton","state_name":"Virginia","lat":37.03216,"lng":-76.31589,"zip":"23663","miles_from_dt":18.51},{"city":"Hardyville","state_name":"Virginia","lat":37.55065,"lng":-76.38528,"zip":"23070","miles_from_dt":18.84},{"city":"Hampton","state_name":"Virginia","lat":37.02034,"lng":-76.33839,"zip":"23668","miles_from_dt":18.86},{"city":"Hampton","state_name":"Virginia","lat":37.02081,"lng":-76.33093,"zip":"23667","miles_from_dt":18.95},{"city":"Hampton","state_name":"Virginia","lat":37.00804,"lng":-76.38631,"zip":"23661","miles_from_dt":19.07},{"city":"Norge","state_name":"Virginia","lat":37.36421,"lng":-76.77181,"zip":"23127","miles_from_dt":19.1},{"city":"Hampton","state_name":"Virginia","lat":36.99988,"lng":-76.41073,"zip":"23630","miles_from_dt":19.47},{"city":"Deltaville","state_name":"Virginia","lat":37.55519,"lng":-76.34357,"zip":"23043","miles_from_dt":19.64},{"city":"Wake","state_name":"Virginia","lat":37.56934,"lng":-76.41991,"zip":"23176","miles_from_dt":19.91},{"city":"Surry","state_name":"Virginia","lat":37.12546,"lng":-76.7502,"zip":"23883","miles_from_dt":20.16},{"city":"Fort Monroe","state_name":"Virginia","lat":37.0099,"lng":-76.30451,"zip":"23651","miles_from_dt":20.17},{"city":"Newport News","state_name":"Virginia","lat":36.98753,"lng":-76.42235,"zip":"23607","miles_from_dt":20.27},{"city":"Battery Park","state_name":"Virginia","lat":36.99586,"lng":-76.56993,"zip":"23304","miles_from_dt":20.92},{"city":"Newport News","state_name":"Virginia","lat":36.97696,"lng":-76.42856,"zip":"23609","miles_from_dt":20.99},{"city":"Topping","state_name":"Virginia","lat":37.58945,"lng":-76.46225,"zip":"23169","miles_from_dt":21.29},{"city":"Christchurch","state_name":"Virginia","lat":37.59774,"lng":-76.45003,"zip":"23031","miles_from_dt":21.84},{"city":"Locust Hill","state_name":"Virginia","lat":37.59402,"lng":-76.50755,"zip":"23092","miles_from_dt":21.88},{"city":"Saluda","state_name":"Virginia","lat":37.56794,"lng":-76.61599,"zip":"23149","miles_from_dt":22},{"city":"Shacklefords","state_name":"Virginia","lat":37.5244,"lng":-76.71106,"zip":"23156","miles_from_dt":22.41},{"city":"Smithfield","state_name":"Virginia","lat":36.9837,"lng":-76.61676,"zip":"23431","miles_from_dt":22.69},{"city":"Toano","state_name":"Virginia","lat":37.3942,"lng":-76.832,"zip":"23168","miles_from_dt":22.9},{"city":"Rescue","state_name":"Virginia","lat":36.95433,"lng":-76.54589,"zip":"23424","miles_from_dt":23.27},{"city":"Carrollton","state_name":"Virginia","lat":36.95054,"lng":-76.53625,"zip":"23314","miles_from_dt":23.4},{"city":"Smithfield","state_name":"Virginia","lat":36.98615,"lng":-76.66337,"zip":"23430","miles_from_dt":23.76},{"city":"Barhamsville","state_name":"Virginia","lat":37.47562,"lng":-76.80691,"zip":"23011","miles_from_dt":24.2},{"city":"Norfolk","state_name":"Virginia","lat":36.94,"lng":-76.30055,"zip":"23511","miles_from_dt":24.77},{"city":"Norfolk","state_name":"Virginia","lat":36.94727,"lng":-76.26223,"zip":"23503","miles_from_dt":25.05},{"city":"White Stone","state_name":"Virginia","lat":37.65063,"lng":-76.36268,"zip":"22578","miles_from_dt":25.84},{"city":"Suffolk","state_name":"Virginia","lat":36.90763,"lng":-76.49183,"zip":"23433","miles_from_dt":25.91},{"city":"Norfolk","state_name":"Virginia","lat":36.92359,"lng":-76.29238,"zip":"23551","miles_from_dt":25.99},{"city":"Cheriton","state_name":"Virginia","lat":37.29517,"lng":-75.96635,"zip":"23316","miles_from_dt":26.17},{"city":"Capeville","state_name":"Virginia","lat":37.20404,"lng":-75.97585,"zip":"23313","miles_from_dt":26.19},{"city":"Norfolk","state_name":"Virginia","lat":36.9156,"lng":-76.304,"zip":"23515","miles_from_dt":26.32},{"city":"Elberon","state_name":"Virginia","lat":37.05947,"lng":-76.83224,"zip":"23846","miles_from_dt":26.46},{"city":"Townsend","state_name":"Virginia","lat":37.2802,"lng":-75.95865,"zip":"23443","miles_from_dt":26.58},{"city":"Irvington","state_name":"Virginia","lat":37.66631,"lng":-76.41498,"zip":"22480","miles_from_dt":26.6},{"city":"Eastville","state_name":"Virginia","lat":37.36026,"lng":-75.96798,"zip":"23347","miles_from_dt":26.61},{"city":"Norfolk","state_name":"Virginia","lat":36.91418,"lng":-76.29081,"zip":"23505","miles_from_dt":26.63},{"city":"Seaview","state_name":"Virginia","lat":37.27619,"lng":-75.95735,"zip":"23429","miles_from_dt":26.65},{"city":"Cape Charles","state_name":"Virginia","lat":37.26407,"lng":-75.95676,"zip":"23310","miles_from_dt":26.71},{"city":"Suffolk","state_name":"Virginia","lat":36.89516,"lng":-76.50873,"zip":"23436","miles_from_dt":26.88},{"city":"Mattaponi","state_name":"Virginia","lat":37.58338,"lng":-76.76578,"zip":"23110","miles_from_dt":27.45},{"city":"Urbanna","state_name":"Virginia","lat":37.65343,"lng":-76.62407,"zip":"23175","miles_from_dt":27.58},{"city":"Portsmouth","state_name":"Virginia","lat":36.88039,"lng":-76.37101,"zip":"23703","miles_from_dt":27.91},{"city":"Norfolk","state_name":"Virginia","lat":36.91638,"lng":-76.21586,"zip":"23518","miles_from_dt":28.06},{"city":"Norfolk","state_name":"Virginia","lat":36.88472,"lng":-76.31106,"zip":"23529","miles_from_dt":28.26},{"city":"Norfolk","state_name":"Virginia","lat":36.8844,"lng":-76.30898,"zip":"23508","miles_from_dt":28.32},{"city":"Norfolk","state_name":"Virginia","lat":36.92341,"lng":-76.18782,"zip":"23519","miles_from_dt":28.36},{"city":"Weems","state_name":"Virginia","lat":37.69398,"lng":-76.43277,"zip":"22576","miles_from_dt":28.47},{"city":"Oyster","state_name":"Virginia","lat":37.28457,"lng":-75.92413,"zip":"23419","miles_from_dt":28.48},{"city":"Suffolk","state_name":"Virginia","lat":36.87099,"lng":-76.55097,"zip":"23432","miles_from_dt":28.93},{"city":"Church View","state_name":"Virginia","lat":37.65552,"lng":-76.68199,"zip":"23032","miles_from_dt":29.02},{"city":"Claremont","state_name":"Virginia","lat":37.23079,"lng":-76.96562,"zip":"23899","miles_from_dt":29.13},{"city":"Lanexa","state_name":"Virginia","lat":37.47593,"lng":-76.91212,"zip":"23089","miles_from_dt":29.2},{"city":"Norfolk","state_name":"Virginia","lat":36.88948,"lng":-76.23831,"zip":"23513","miles_from_dt":29.24},{"city":"Norfolk","state_name":"Virginia","lat":36.88215,"lng":-76.26203,"zip":"23509","miles_from_dt":29.24},{"city":"Virginia Beach","state_name":"Virginia","lat":36.91607,"lng":-76.17043,"zip":"23459","miles_from_dt":29.28},{"city":"Norfolk","state_name":"Virginia","lat":36.89908,"lng":-76.20645,"zip":"23501","miles_from_dt":29.36},{"city":"Dendron","state_name":"Virginia","lat":37.08718,"lng":-76.91895,"zip":"23839","miles_from_dt":29.57},{"city":"Norfolk","state_name":"Virginia","lat":36.86927,"lng":-76.29198,"zip":"23517","miles_from_dt":29.57},{"city":"Norfolk","state_name":"Virginia","lat":36.8642,"lng":-76.30304,"zip":"23507","miles_from_dt":29.75}],"targetCityZipCode":"23001","targetCityState":"Virginia"},"__N_SSG":true}