{"pageProps":{"stateName":"Virginia","cityName":"afton","nearbyCities":[{"city":"Greenwood","state_name":"Virginia","lat":38.04508,"lng":-78.78369,"zip":"22943","miles_from_dt":5.22},{"city":"Batesville","state_name":"Virginia","lat":37.99565,"lng":-78.72021,"zip":"22924","miles_from_dt":5.29},{"city":"Nellysford","state_name":"Virginia","lat":37.8983,"lng":-78.89611,"zip":"22958","miles_from_dt":6.87},{"city":"Covesville","state_name":"Virginia","lat":37.90374,"lng":-78.71696,"zip":"22931","miles_from_dt":7.08},{"city":"Faber","state_name":"Virginia","lat":37.86256,"lng":-78.78248,"zip":"22938","miles_from_dt":7.79},{"city":"Lyndhurst","state_name":"Virginia","lat":37.95836,"lng":-78.97136,"zip":"22952","miles_from_dt":8.72},{"city":"North Garden","state_name":"Virginia","lat":37.93758,"lng":-78.64794,"zip":"22959","miles_from_dt":9.33},{"city":"Waynesboro","state_name":"Virginia","lat":38.09588,"lng":-78.88585,"zip":"22980","miles_from_dt":9.37},{"city":"Charlottesville","state_name":"Virginia","lat":38.01239,"lng":-78.60159,"zip":"22903","miles_from_dt":11.84},{"city":"Charlottesville","state_name":"Virginia","lat":38.02167,"lng":-78.59871,"zip":"22910","miles_from_dt":12.16},{"city":"Fishersville","state_name":"Virginia","lat":38.10575,"lng":-78.97288,"zip":"22939","miles_from_dt":12.66},{"city":"Stuarts Draft","state_name":"Virginia","lat":38.00416,"lng":-79.04374,"zip":"24477","miles_from_dt":12.79},{"city":"White Hall","state_name":"Virginia","lat":38.11941,"lng":-78.6607,"zip":"22987","miles_from_dt":13.07},{"city":"Ivy","state_name":"Virginia","lat":38.05725,"lng":-78.59772,"zip":"22945","miles_from_dt":13.1},{"city":"Lovingston","state_name":"Virginia","lat":37.788,"lng":-78.88257,"zip":"22949","miles_from_dt":13.31},{"city":"Crimora","state_name":"Virginia","lat":38.16897,"lng":-78.83924,"zip":"24431","miles_from_dt":13.6},{"city":"Crozet","state_name":"Virginia","lat":38.15037,"lng":-78.69743,"zip":"22932","miles_from_dt":13.76},{"city":"Schuyler","state_name":"Virginia","lat":37.79699,"lng":-78.69367,"zip":"22969","miles_from_dt":13.77},{"city":"Tyro","state_name":"Virginia","lat":37.84555,"lng":-79.04036,"zip":"22976","miles_from_dt":15.23},{"city":"Shipman","state_name":"Virginia","lat":37.75019,"lng":-78.80299,"zip":"22971","miles_from_dt":15.37},{"city":"Esmont","state_name":"Virginia","lat":37.81297,"lng":-78.60891,"zip":"22937","miles_from_dt":15.68},{"city":"Charlottesville","state_name":"Virginia","lat":38.08874,"lng":-78.55569,"zip":"22901","miles_from_dt":16.14},{"city":"Keene","state_name":"Virginia","lat":37.84789,"lng":-78.56053,"zip":"22946","miles_from_dt":16.26},{"city":"Roseland","state_name":"Virginia","lat":37.79945,"lng":-79.0192,"zip":"22967","miles_from_dt":16.45},{"city":"New Hope","state_name":"Virginia","lat":38.20099,"lng":-78.90828,"zip":"24469","miles_from_dt":16.57},{"city":"Charlottesville","state_name":"Virginia","lat":38.03492,"lng":-78.51161,"zip":"22904","miles_from_dt":16.98},{"city":"Charlottesville","state_name":"Virginia","lat":37.95245,"lng":-78.49291,"zip":"22907","miles_from_dt":17.52},{"city":"Mint Spring","state_name":"Virginia","lat":38.06358,"lng":-79.11379,"zip":"24463","miles_from_dt":17.57},{"city":"Grottoes","state_name":"Virginia","lat":38.22823,"lng":-78.8109,"zip":"24441","miles_from_dt":17.61},{"city":"Montebello","state_name":"Virginia","lat":37.86082,"lng":-79.10398,"zip":"24464","miles_from_dt":17.69},{"city":"Fort Defiance","state_name":"Virginia","lat":38.2116,"lng":-78.933,"zip":"24437","miles_from_dt":17.72},{"city":"Charlottesville","state_name":"Virginia","lat":38.03103,"lng":-78.49639,"zip":"22908","miles_from_dt":17.72},{"city":"Charlottesville","state_name":"Virginia","lat":38.02319,"lng":-78.48987,"zip":"22905","miles_from_dt":17.96},{"city":"Staunton","state_name":"Virginia","lat":38.13257,"lng":-79.08846,"zip":"24401","miles_from_dt":18.64},{"city":"Charlottesville","state_name":"Virginia","lat":38.03018,"lng":-78.47555,"zip":"22906","miles_from_dt":18.82},{"city":"Charlottesville","state_name":"Virginia","lat":37.95566,"lng":-78.46883,"zip":"22902","miles_from_dt":18.82},{"city":"Verona","state_name":"Virginia","lat":38.20502,"lng":-78.99706,"zip":"24482","miles_from_dt":18.9},{"city":"Staunton","state_name":"Virginia","lat":38.16322,"lng":-79.06689,"zip":"24402","miles_from_dt":19.09},{"city":"Charlottesville","state_name":"Virginia","lat":38.04321,"lng":-78.47404,"zip":"22909","miles_from_dt":19.11},{"city":"Greenville","state_name":"Virginia","lat":37.99595,"lng":-79.16574,"zip":"24440","miles_from_dt":19.33},{"city":"Free Union","state_name":"Virginia","lat":38.20559,"lng":-78.59705,"zip":"22940","miles_from_dt":19.89},{"city":"Piney River","state_name":"Virginia","lat":37.71722,"lng":-78.98861,"zip":"22964","miles_from_dt":20.09},{"city":"Arrington","state_name":"Virginia","lat":37.68621,"lng":-78.92511,"zip":"22922","miles_from_dt":20.71},{"city":"Howardsville","state_name":"Virginia","lat":37.70577,"lng":-78.62241,"zip":"24562","miles_from_dt":21.16},{"city":"Mount Sidney","state_name":"Virginia","lat":38.2592,"lng":-78.97249,"zip":"24467","miles_from_dt":21.58},{"city":"Earlysville","state_name":"Virginia","lat":38.1671,"lng":-78.49974,"zip":"22936","miles_from_dt":21.69},{"city":"Norwood","state_name":"Virginia","lat":37.65692,"lng":-78.8098,"zip":"24581","miles_from_dt":21.8},{"city":"Scottsville","state_name":"Virginia","lat":37.79353,"lng":-78.47767,"zip":"24590","miles_from_dt":22.1},{"city":"Steeles Tavern","state_name":"Virginia","lat":37.97231,"lng":-79.22,"zip":"24476","miles_from_dt":22.23},{"city":"Raphine","state_name":"Virginia","lat":37.93833,"lng":-79.22194,"zip":"24472","miles_from_dt":22.47},{"city":"Weyers Cave","state_name":"Virginia","lat":38.29366,"lng":-78.92925,"zip":"24486","miles_from_dt":23.01},{"city":"Port Republic","state_name":"Virginia","lat":38.30837,"lng":-78.79645,"zip":"24471","miles_from_dt":23.15},{"city":"Charlottesville","state_name":"Virginia","lat":38.09522,"lng":-78.4078,"zip":"22911","miles_from_dt":23.65},{"city":"Wingina","state_name":"Virginia","lat":37.63289,"lng":-78.72452,"zip":"24599","miles_from_dt":23.94},{"city":"Dyke","state_name":"Virginia","lat":38.25785,"lng":-78.55474,"zip":"22935","miles_from_dt":24.16},{"city":"Vesuvius","state_name":"Virginia","lat":37.81484,"lng":-79.2256,"zip":"24483","miles_from_dt":25.06},{"city":"Mount Crawford","state_name":"Virginia","lat":38.33887,"lng":-78.89417,"zip":"22841","miles_from_dt":25.63},{"city":"Middlebrook","state_name":"Virginia","lat":38.02955,"lng":-79.28621,"zip":"24459","miles_from_dt":26.13},{"city":"Swoope","state_name":"Virginia","lat":38.15353,"lng":-79.23992,"zip":"24479","miles_from_dt":26.41},{"city":"Clifford","state_name":"Virginia","lat":37.63588,"lng":-79.06243,"zip":"24533","miles_from_dt":26.96},{"city":"Keswick","state_name":"Virginia","lat":38.04326,"lng":-78.32624,"zip":"22947","miles_from_dt":26.99},{"city":"Brownsburg","state_name":"Virginia","lat":37.91099,"lng":-79.31126,"zip":"24415","miles_from_dt":27.56},{"city":"Amherst","state_name":"Virginia","lat":37.63672,"lng":-79.09539,"zip":"24521","miles_from_dt":27.87},{"city":"Fairfield","state_name":"Virginia","lat":37.86716,"lng":-79.30663,"zip":"24435","miles_from_dt":27.95},{"city":"Buckingham","state_name":"Virginia","lat":37.59143,"lng":-78.61413,"zip":"23921","miles_from_dt":28.47},{"city":"Penn Laird","state_name":"Virginia","lat":38.38791,"lng":-78.79239,"zip":"22846","miles_from_dt":28.64},{"city":"Pleasant Valley","state_name":"Virginia","lat":38.38432,"lng":-78.90002,"zip":"22848","miles_from_dt":28.77},{"city":"McGaheysville","state_name":"Virginia","lat":38.38642,"lng":-78.73845,"zip":"22840","miles_from_dt":28.8},{"city":"Churchville","state_name":"Virginia","lat":38.26389,"lng":-79.20019,"zip":"24421","miles_from_dt":29.13},{"city":"Gladstone","state_name":"Virginia","lat":37.54845,"lng":-78.81907,"zip":"24553","miles_from_dt":29.28},{"city":"Troy","state_name":"Virginia","lat":37.96207,"lng":-78.2753,"zip":"22974","miles_from_dt":29.36},{"city":"Ruckersville","state_name":"Virginia","lat":38.24111,"lng":-78.39407,"zip":"22968","miles_from_dt":29.37},{"city":"Quinque","state_name":"Virginia","lat":38.27941,"lng":-78.43045,"zip":"22965","miles_from_dt":29.68},{"city":"Craigsville","state_name":"Virginia","lat":38.076,"lng":-79.34181,"zip":"24430","miles_from_dt":29.73},{"city":"Arvonia","state_name":"Virginia","lat":37.68307,"lng":-78.40567,"zip":"23004","miles_from_dt":29.93},{"city":"Augusta Springs","state_name":"Virginia","lat":38.11784,"lng":-79.33052,"zip":"24411","miles_from_dt":29.96}],"targetCityZipCode":"22920","targetCityState":"Virginia"},"__N_SSG":true}