{"pageProps":{"stateName":"Virginia","cityName":"barren-springs","nearbyCities":[{"city":"Draper","state_name":"Virginia","lat":36.97461,"lng":-80.78836,"zip":"24324","miles_from_dt":4.45},{"city":"Max Meadows","state_name":"Virginia","lat":36.93917,"lng":-80.9023,"zip":"24360","miles_from_dt":6.1},{"city":"Austinville","state_name":"Virginia","lat":36.83117,"lng":-80.86897,"zip":"24312","miles_from_dt":6.74},{"city":"Hiwassee","state_name":"Virginia","lat":36.95958,"lng":-80.65598,"zip":"24347","miles_from_dt":8.56},{"city":"Pulaski","state_name":"Virginia","lat":37.06319,"lng":-80.79735,"zip":"24301","miles_from_dt":10.53},{"city":"Indian Valley","state_name":"Virginia","lat":36.90278,"lng":-80.60127,"zip":"24105","miles_from_dt":10.91},{"city":"Hillsville","state_name":"Virginia","lat":36.76612,"lng":-80.70045,"zip":"24343","miles_from_dt":11.33},{"city":"Dugspur","state_name":"Virginia","lat":36.80918,"lng":-80.60608,"zip":"24325","miles_from_dt":12.73},{"city":"Woodlawn","state_name":"Virginia","lat":36.72453,"lng":-80.83924,"zip":"24381","miles_from_dt":13.03},{"city":"Ivanhoe","state_name":"Virginia","lat":36.81109,"lng":-81.01757,"zip":"24350","miles_from_dt":13.96},{"city":"Dublin","state_name":"Virginia","lat":37.11468,"lng":-80.79088,"zip":"24084","miles_from_dt":14.09},{"city":"Newbern","state_name":"Virginia","lat":37.09119,"lng":-80.65566,"zip":"24126","miles_from_dt":14.74},{"city":"Willis","state_name":"Virginia","lat":36.85672,"lng":-80.50183,"zip":"24380","miles_from_dt":16.82},{"city":"Wytheville","state_name":"Virginia","lat":36.95702,"lng":-81.10652,"zip":"24382","miles_from_dt":17.37},{"city":"Fries","state_name":"Virginia","lat":36.72375,"lng":-81.02471,"zip":"24330","miles_from_dt":17.99},{"city":"Fancy Gap","state_name":"Virginia","lat":36.66185,"lng":-80.69382,"zip":"24328","miles_from_dt":18.09},{"city":"Radford","state_name":"Virginia","lat":37.10105,"lng":-80.56677,"zip":"24141","miles_from_dt":18.34},{"city":"Cripple Creek","state_name":"Virginia","lat":36.80534,"lng":-81.1195,"zip":"24322","miles_from_dt":19.23},{"city":"Radford","state_name":"Virginia","lat":37.12589,"lng":-80.57524,"zip":"24143","miles_from_dt":19.3},{"city":"New River","state_name":"Virginia","lat":37.13947,"lng":-80.5918,"zip":"24129","miles_from_dt":19.48},{"city":"Laurel Fork","state_name":"Virginia","lat":36.71547,"lng":-80.53437,"zip":"24352","miles_from_dt":19.86},{"city":"Galax","state_name":"Virginia","lat":36.64057,"lng":-80.92921,"zip":"24333","miles_from_dt":19.98},{"city":"Radford","state_name":"Virginia","lat":37.13833,"lng":-80.55084,"zip":"24142","miles_from_dt":20.82},{"city":"Bland","state_name":"Virginia","lat":37.1393,"lng":-81.0534,"zip":"24315","miles_from_dt":21.17},{"city":"Belspring","state_name":"Virginia","lat":37.18257,"lng":-80.61637,"zip":"24058","miles_from_dt":21.28},{"city":"Riner","state_name":"Virginia","lat":37.02277,"lng":-80.43424,"zip":"24149","miles_from_dt":21.57},{"city":"Parrott","state_name":"Virginia","lat":37.20534,"lng":-80.64707,"zip":"24132","miles_from_dt":21.98},{"city":"Crockett","state_name":"Virginia","lat":36.86513,"lng":-81.1997,"zip":"24323","miles_from_dt":22.47},{"city":"Cana","state_name":"Virginia","lat":36.60138,"lng":-80.66876,"zip":"24317","miles_from_dt":22.49},{"city":"Lambsburg","state_name":"Virginia","lat":36.58081,"lng":-80.76591,"zip":"24351","miles_from_dt":22.8},{"city":"Pearisburg","state_name":"Virginia","lat":37.24595,"lng":-80.77901,"zip":"24134","miles_from_dt":23.16},{"city":"Staffordsville","state_name":"Virginia","lat":37.24718,"lng":-80.7345,"zip":"24167","miles_from_dt":23.48},{"city":"Speedwell","state_name":"Virginia","lat":36.79129,"lng":-81.20178,"zip":"24374","miles_from_dt":23.84},{"city":"Meadows Of Dan","state_name":"Virginia","lat":36.71891,"lng":-80.41277,"zip":"24120","miles_from_dt":25.12},{"city":"Ararat","state_name":"Virginia","lat":36.60999,"lng":-80.53283,"zip":"24053","miles_from_dt":25.42},{"city":"Elk Creek","state_name":"Virginia","lat":36.72771,"lng":-81.19625,"zip":"24326","miles_from_dt":25.42},{"city":"Vesta","state_name":"Virginia","lat":36.72266,"lng":-80.40026,"zip":"24177","miles_from_dt":25.58},{"city":"Christiansburg","state_name":"Virginia","lat":37.13053,"lng":-80.4225,"zip":"24073","miles_from_dt":25.72},{"city":"Floyd","state_name":"Virginia","lat":36.92131,"lng":-80.32264,"zip":"24091","miles_from_dt":26.33},{"city":"Eggleston","state_name":"Virginia","lat":37.27268,"lng":-80.63585,"zip":"24086","miles_from_dt":26.53},{"city":"Lowgap","state_name":"North Carolina","lat":36.52399,"lng":-80.84027,"zip":"27024","miles_from_dt":26.75},{"city":"Christiansburg","state_name":"Virginia","lat":37.14246,"lng":-80.40079,"zip":"24068","miles_from_dt":27.17},{"city":"Narrows","state_name":"Virginia","lat":37.30996,"lng":-80.86774,"zip":"24124","miles_from_dt":27.81},{"city":"Rural Retreat","state_name":"Virginia","lat":36.89283,"lng":-81.30003,"zip":"24368","miles_from_dt":27.83},{"city":"Ennice","state_name":"North Carolina","lat":36.53088,"lng":-80.97185,"zip":"28623","miles_from_dt":27.9},{"city":"Independence","state_name":"Virginia","lat":36.63897,"lng":-81.17392,"zip":"24348","miles_from_dt":28.02},{"city":"Pilot","state_name":"Virginia","lat":37.05052,"lng":-80.31684,"zip":"24138","miles_from_dt":28.32},{"city":"Bastian","state_name":"Virginia","lat":37.17166,"lng":-81.20728,"zip":"24314","miles_from_dt":28.92},{"city":"Rocky Gap","state_name":"Virginia","lat":37.26426,"lng":-81.10315,"zip":"24366","miles_from_dt":29.65},{"city":"Woolwine","state_name":"Virginia","lat":36.80868,"lng":-80.27557,"zip":"24185","miles_from_dt":29.79},{"city":"Blacksburg","state_name":"Virginia","lat":37.22539,"lng":-80.42658,"zip":"24061","miles_from_dt":29.88}],"targetCityZipCode":"24313","targetCityState":"Virginia"},"__N_SSG":true}