{"pageProps":{"stateName":"Virginia","cityName":"big-island","nearbyCities":[{"city":"Natural Bridge Station","state_name":"Virginia","lat":37.58763,"lng":-79.50483,"zip":"24579","miles_from_dt":6.1},{"city":"Coleman Falls","state_name":"Virginia","lat":37.48996,"lng":-79.32097,"zip":"24536","miles_from_dt":6.28},{"city":"Monroe","state_name":"Virginia","lat":37.57589,"lng":-79.24714,"zip":"24574","miles_from_dt":8.61},{"city":"Glasgow","state_name":"Virginia","lat":37.6678,"lng":-79.47007,"zip":"24555","miles_from_dt":8.67},{"city":"Lynchburg","state_name":"Virginia","lat":37.45272,"lng":-79.24286,"zip":"24503","miles_from_dt":11.2},{"city":"Natural Bridge","state_name":"Virginia","lat":37.66269,"lng":-79.55693,"zip":"24578","miles_from_dt":11.32},{"city":"Goode","state_name":"Virginia","lat":37.38093,"lng":-79.4021,"zip":"24556","miles_from_dt":11.97},{"city":"Buena Vista","state_name":"Virginia","lat":37.72892,"lng":-79.35534,"zip":"24416","miles_from_dt":12.29},{"city":"Forest","state_name":"Virginia","lat":37.36655,"lng":-79.3268,"zip":"24551","miles_from_dt":13.6},{"city":"Lowry","state_name":"Virginia","lat":37.3486,"lng":-79.4272,"zip":"24570","miles_from_dt":14.27},{"city":"Buchanan","state_name":"Virginia","lat":37.5382,"lng":-79.67822,"zip":"24066","miles_from_dt":15.23},{"city":"Lynchburg","state_name":"Virginia","lat":37.40369,"lng":-79.18986,"zip":"24513","miles_from_dt":15.61},{"city":"Bedford","state_name":"Virginia","lat":37.3364,"lng":-79.52347,"zip":"24523","miles_from_dt":16.47},{"city":"Lynchburg","state_name":"Virginia","lat":37.36583,"lng":-79.21529,"zip":"24514","miles_from_dt":16.56},{"city":"Lynchburg","state_name":"Virginia","lat":37.35624,"lng":-79.2194,"zip":"24502","miles_from_dt":16.95},{"city":"Lynchburg","state_name":"Virginia","lat":37.41625,"lng":-79.14179,"zip":"24505","miles_from_dt":17.17},{"city":"Lexington","state_name":"Virginia","lat":37.77883,"lng":-79.53888,"zip":"24450","miles_from_dt":17.2},{"city":"Sweet Briar","state_name":"Virginia","lat":37.55904,"lng":-79.08421,"zip":"24595","miles_from_dt":17.43},{"city":"Amherst","state_name":"Virginia","lat":37.63672,"lng":-79.09539,"zip":"24521","miles_from_dt":17.74},{"city":"Madison Heights","state_name":"Virginia","lat":37.46514,"lng":-79.09628,"zip":"24572","miles_from_dt":17.87},{"city":"Montvale","state_name":"Virginia","lat":37.4212,"lng":-79.69372,"zip":"24122","miles_from_dt":18.5},{"city":"Lynchburg","state_name":"Virginia","lat":37.35261,"lng":-79.17827,"zip":"24515","miles_from_dt":18.57},{"city":"Lynchburg","state_name":"Virginia","lat":37.35591,"lng":-79.16674,"zip":"24506","miles_from_dt":18.83},{"city":"Villamont","state_name":"Virginia","lat":37.42527,"lng":-79.70855,"zip":"24178","miles_from_dt":19.07},{"city":"Lynchburg","state_name":"Virginia","lat":37.35565,"lng":-79.15608,"zip":"24501","miles_from_dt":19.25},{"city":"Clifford","state_name":"Virginia","lat":37.63588,"lng":-79.06243,"zip":"24533","miles_from_dt":19.44},{"city":"Thaxton","state_name":"Virginia","lat":37.35087,"lng":-79.66762,"zip":"24174","miles_from_dt":20.27},{"city":"Vesuvius","state_name":"Virginia","lat":37.81484,"lng":-79.2256,"zip":"24483","miles_from_dt":20.38},{"city":"Fairfield","state_name":"Virginia","lat":37.86716,"lng":-79.30663,"zip":"24435","miles_from_dt":22.18},{"city":"Evington","state_name":"Virginia","lat":37.23493,"lng":-79.26898,"zip":"24550","miles_from_dt":23.22},{"city":"Lynchburg","state_name":"Virginia","lat":37.36673,"lng":-79.04953,"zip":"24504","miles_from_dt":23.29},{"city":"Blue Ridge","state_name":"Virginia","lat":37.37237,"lng":-79.7759,"zip":"24064","miles_from_dt":24.1},{"city":"Rockbridge Baths","state_name":"Virginia","lat":37.9129,"lng":-79.41052,"zip":"24473","miles_from_dt":24.72},{"city":"Oriskany","state_name":"Virginia","lat":37.66188,"lng":-79.83496,"zip":"24130","miles_from_dt":24.9},{"city":"Brownsburg","state_name":"Virginia","lat":37.91099,"lng":-79.31126,"zip":"24415","miles_from_dt":25.08},{"city":"Eagle Rock","state_name":"Virginia","lat":37.67539,"lng":-79.83639,"zip":"24085","miles_from_dt":25.26},{"city":"Piney River","state_name":"Virginia","lat":37.71722,"lng":-78.98861,"zip":"22964","miles_from_dt":25.28},{"city":"Rustburg","state_name":"Virginia","lat":37.26408,"lng":-79.09997,"zip":"24588","miles_from_dt":26.01},{"city":"Glen Wilton","state_name":"Virginia","lat":37.75338,"lng":-79.81662,"zip":"24438","miles_from_dt":26.57},{"city":"Montebello","state_name":"Virginia","lat":37.86082,"lng":-79.10398,"zip":"24464","miles_from_dt":26.69},{"city":"Fincastle","state_name":"Virginia","lat":37.52633,"lng":-79.88921,"zip":"24090","miles_from_dt":26.84},{"city":"Roseland","state_name":"Virginia","lat":37.79945,"lng":-79.0192,"zip":"22967","miles_from_dt":26.92},{"city":"Clifton Forge","state_name":"Virginia","lat":37.83041,"lng":-79.75128,"zip":"24422","miles_from_dt":27},{"city":"Iron Gate","state_name":"Virginia","lat":37.79836,"lng":-79.79002,"zip":"24448","miles_from_dt":27.13},{"city":"Arrington","state_name":"Virginia","lat":37.68621,"lng":-78.92511,"zip":"22922","miles_from_dt":27.68},{"city":"Tyro","state_name":"Virginia","lat":37.84555,"lng":-79.04036,"zip":"22976","miles_from_dt":28.19},{"city":"Raphine","state_name":"Virginia","lat":37.93833,"lng":-79.22194,"zip":"24472","miles_from_dt":28.24},{"city":"Vinton","state_name":"Virginia","lat":37.2855,"lng":-79.79963,"zip":"24179","miles_from_dt":28.69},{"city":"Lynch Station","state_name":"Virginia","lat":37.13671,"lng":-79.37983,"zip":"24571","miles_from_dt":28.84},{"city":"Concord","state_name":"Virginia","lat":37.32908,"lng":-78.95367,"zip":"24538","miles_from_dt":29.13},{"city":"Huddleston","state_name":"Virginia","lat":37.13546,"lng":-79.48773,"zip":"24104","miles_from_dt":29.29},{"city":"Goodview","state_name":"Virginia","lat":37.22304,"lng":-79.73787,"zip":"24095","miles_from_dt":29.41},{"city":"Moneta","state_name":"Virginia","lat":37.1709,"lng":-79.64141,"zip":"24121","miles_from_dt":29.56},{"city":"Altavista","state_name":"Virginia","lat":37.14532,"lng":-79.23258,"zip":"24517","miles_from_dt":29.72},{"city":"Selma","state_name":"Virginia","lat":37.80504,"lng":-79.84731,"zip":"24474","miles_from_dt":29.92}],"targetCityZipCode":"24526","targetCityState":"Virginia"},"__N_SSG":true}