{"pageProps":{"stateName":"Virginia","cityName":"bland","nearbyCities":[{"city":"Bastian","state_name":"Virginia","lat":37.17166,"lng":-81.20728,"zip":"24314","miles_from_dt":8.78},{"city":"Rocky Gap","state_name":"Virginia","lat":37.26426,"lng":-81.10315,"zip":"24366","miles_from_dt":9.04},{"city":"Wytheville","state_name":"Virginia","lat":36.95702,"lng":-81.10652,"zip":"24382","miles_from_dt":12.91},{"city":"Bluefield","state_name":"West Virginia","lat":37.29929,"lng":-81.2065,"zip":"24701","miles_from_dt":13.89},{"city":"Dublin","state_name":"Virginia","lat":37.11468,"lng":-80.79088,"zip":"24084","miles_from_dt":14.59},{"city":"Pulaski","state_name":"Virginia","lat":37.06319,"lng":-80.79735,"zip":"24301","miles_from_dt":15.09},{"city":"Kellysville","state_name":"West Virginia","lat":37.3417,"lng":-80.92781,"zip":"24732","miles_from_dt":15.58},{"city":"Narrows","state_name":"Virginia","lat":37.30996,"lng":-80.86774,"zip":"24124","miles_from_dt":15.6},{"city":"Princeton","state_name":"West Virginia","lat":37.36784,"lng":-80.9949,"zip":"24739","miles_from_dt":16.09},{"city":"Max Meadows","state_name":"Virginia","lat":36.93917,"lng":-80.9023,"zip":"24360","miles_from_dt":16.13},{"city":"Pearisburg","state_name":"Virginia","lat":37.24595,"lng":-80.77901,"zip":"24134","miles_from_dt":16.83},{"city":"Falls Mills","state_name":"Virginia","lat":37.262,"lng":-81.3385,"zip":"24613","miles_from_dt":17.86},{"city":"Bluefield","state_name":"Virginia","lat":37.24093,"lng":-81.36123,"zip":"24605","miles_from_dt":18.37},{"city":"Princeton","state_name":"West Virginia","lat":37.4042,"lng":-81.10205,"zip":"24740","miles_from_dt":18.46},{"city":"Montcalm","state_name":"West Virginia","lat":37.35042,"lng":-81.26055,"zip":"24737","miles_from_dt":18.5},{"city":"Draper","state_name":"Virginia","lat":36.97461,"lng":-80.78836,"zip":"24324","miles_from_dt":18.54},{"city":"Nemours","state_name":"West Virginia","lat":37.3032,"lng":-81.32013,"zip":"24738","miles_from_dt":18.55},{"city":"Kegley","state_name":"West Virginia","lat":37.39733,"lng":-81.15162,"zip":"24731","miles_from_dt":18.6},{"city":"Staffordsville","state_name":"Virginia","lat":37.24718,"lng":-80.7345,"zip":"24167","miles_from_dt":19.1},{"city":"Wolfe","state_name":"West Virginia","lat":37.30996,"lng":-81.33,"zip":"24751","miles_from_dt":19.27},{"city":"Freeman","state_name":"West Virginia","lat":37.33603,"lng":-81.31579,"zip":"24724","miles_from_dt":19.83},{"city":"Pocahontas","state_name":"Virginia","lat":37.30683,"lng":-81.34962,"zip":"24635","miles_from_dt":20.01},{"city":"Glen Lyn","state_name":"Virginia","lat":37.38784,"lng":-80.85657,"zip":"24093","miles_from_dt":20.28},{"city":"Bramwell","state_name":"West Virginia","lat":37.33408,"lng":-81.32933,"zip":"24715","miles_from_dt":20.3},{"city":"Rock","state_name":"West Virginia","lat":37.40182,"lng":-81.2273,"zip":"24747","miles_from_dt":20.48},{"city":"Crockett","state_name":"Virginia","lat":36.86513,"lng":-81.1997,"zip":"24323","miles_from_dt":20.57},{"city":"Ceres","state_name":"Virginia","lat":37.00047,"lng":-81.38658,"zip":"24318","miles_from_dt":20.75},{"city":"Barren Springs","state_name":"Virginia","lat":36.9105,"lng":-80.79805,"zip":"24313","miles_from_dt":21.17},{"city":"Boissevain","state_name":"Virginia","lat":37.28814,"lng":-81.39183,"zip":"24606","miles_from_dt":21.3},{"city":"Rural Retreat","state_name":"Virginia","lat":36.89283,"lng":-81.30003,"zip":"24368","miles_from_dt":21.79},{"city":"Rich Creek","state_name":"Virginia","lat":37.40178,"lng":-80.82815,"zip":"24147","miles_from_dt":21.95},{"city":"Newbern","state_name":"Virginia","lat":37.09119,"lng":-80.65566,"zip":"24126","miles_from_dt":22.21},{"city":"Ivanhoe","state_name":"Virginia","lat":36.81109,"lng":-81.01757,"zip":"24350","miles_from_dt":22.72},{"city":"Athens","state_name":"West Virginia","lat":37.46903,"lng":-81.02029,"zip":"24712","miles_from_dt":22.81},{"city":"Parrott","state_name":"Virginia","lat":37.20534,"lng":-80.64707,"zip":"24132","miles_from_dt":22.88},{"city":"Lashmeet","state_name":"West Virginia","lat":37.44986,"lng":-81.20094,"zip":"24733","miles_from_dt":22.91},{"city":"Maybeury","state_name":"West Virginia","lat":37.36182,"lng":-81.36525,"zip":"24861","miles_from_dt":23.04},{"city":"Spanishburg","state_name":"West Virginia","lat":37.47147,"lng":-81.09966,"zip":"25922","miles_from_dt":23.05},{"city":"Jenkinjones","state_name":"West Virginia","lat":37.28206,"lng":-81.43413,"zip":"24848","miles_from_dt":23.19},{"city":"Cripple Creek","state_name":"Virginia","lat":36.80534,"lng":-81.1195,"zip":"24322","miles_from_dt":23.32},{"city":"North Tazewell","state_name":"Virginia","lat":37.17292,"lng":-81.4782,"zip":"24630","miles_from_dt":23.56},{"city":"Austinville","state_name":"Virginia","lat":36.83117,"lng":-80.86897,"zip":"24312","miles_from_dt":23.57},{"city":"Anawalt","state_name":"West Virginia","lat":37.33142,"lng":-81.41048,"zip":"24808","miles_from_dt":23.73},{"city":"Hiawatha","state_name":"West Virginia","lat":37.44759,"lng":-81.24699,"zip":"24729","miles_from_dt":23.79},{"city":"Lerona","state_name":"West Virginia","lat":37.48001,"lng":-80.97821,"zip":"25971","miles_from_dt":23.86},{"city":"Belspring","state_name":"Virginia","lat":37.18257,"lng":-80.61637,"zip":"24058","miles_from_dt":24.3},{"city":"Beeson","state_name":"West Virginia","lat":37.47627,"lng":-81.18352,"zip":"24714","miles_from_dt":24.32},{"city":"Switchback","state_name":"West Virginia","lat":37.37808,"lng":-81.38664,"zip":"24887","miles_from_dt":24.67},{"city":"Eggleston","state_name":"Virginia","lat":37.27268,"lng":-80.63585,"zip":"24086","miles_from_dt":24.8},{"city":"Tazewell","state_name":"Virginia","lat":37.07732,"lng":-81.50054,"zip":"24651","miles_from_dt":25.06},{"city":"Hiwassee","state_name":"Virginia","lat":36.95958,"lng":-80.65598,"zip":"24347","miles_from_dt":25.22},{"city":"Matoaka","state_name":"West Virginia","lat":37.45045,"lng":-81.29589,"zip":"24736","miles_from_dt":25.28},{"city":"Speedwell","state_name":"Virginia","lat":36.79129,"lng":-81.20178,"zip":"24374","miles_from_dt":25.36},{"city":"New River","state_name":"Virginia","lat":37.13947,"lng":-80.5918,"zip":"24129","miles_from_dt":25.48},{"city":"Peterstown","state_name":"West Virginia","lat":37.43743,"lng":-80.77617,"zip":"24963","miles_from_dt":25.61},{"city":"Camp Creek","state_name":"West Virginia","lat":37.50812,"lng":-81.13549,"zip":"25820","miles_from_dt":25.83},{"city":"Burkes Garden","state_name":"Virginia","lat":37.116,"lng":-81.52534,"zip":"24608","miles_from_dt":26.11},{"city":"Horsepen","state_name":"Virginia","lat":37.22745,"lng":-81.51732,"zip":"24619","miles_from_dt":26.31},{"city":"Radford","state_name":"Virginia","lat":37.12589,"lng":-80.57524,"zip":"24143","miles_from_dt":26.42},{"city":"Atkins","state_name":"Virginia","lat":36.87292,"lng":-81.40161,"zip":"24311","miles_from_dt":26.61},{"city":"Pageton","state_name":"West Virginia","lat":37.31693,"lng":-81.48552,"zip":"24871","miles_from_dt":26.79},{"city":"Pipestem","state_name":"West Virginia","lat":37.5126,"lng":-80.91736,"zip":"25979","miles_from_dt":26.81},{"city":"Radford","state_name":"Virginia","lat":37.10105,"lng":-80.56677,"zip":"24141","miles_from_dt":27},{"city":"Elkhorn","state_name":"West Virginia","lat":37.38943,"lng":-81.44085,"zip":"24831","miles_from_dt":27.45},{"city":"Northfork","state_name":"West Virginia","lat":37.42412,"lng":-81.40259,"zip":"24868","miles_from_dt":27.5},{"city":"Bishop","state_name":"Virginia","lat":37.21088,"lng":-81.54378,"zip":"24604","miles_from_dt":27.51},{"city":"Pembroke","state_name":"Virginia","lat":37.31927,"lng":-80.60686,"zip":"24136","miles_from_dt":27.57},{"city":"Kyle","state_name":"West Virginia","lat":37.40882,"lng":-81.42499,"zip":"24855","miles_from_dt":27.66},{"city":"Radford","state_name":"Virginia","lat":37.13833,"lng":-80.55084,"zip":"24142","miles_from_dt":27.75},{"city":"Covel","state_name":"West Virginia","lat":37.48722,"lng":-81.32652,"zip":"24719","miles_from_dt":28.32},{"city":"Thorpe","state_name":"West Virginia","lat":37.36195,"lng":-81.48876,"zip":"24888","miles_from_dt":28.49},{"city":"Flat Top","state_name":"West Virginia","lat":37.55325,"lng":-81.09061,"zip":"25841","miles_from_dt":28.62},{"city":"Fries","state_name":"Virginia","lat":36.72375,"lng":-81.02471,"zip":"24330","miles_from_dt":28.7},{"city":"Squire","state_name":"West Virginia","lat":37.27943,"lng":-81.55048,"zip":"24884","miles_from_dt":29.07},{"city":"Elk Creek","state_name":"Virginia","lat":36.72771,"lng":-81.19625,"zip":"24326","miles_from_dt":29.46},{"city":"Indian Valley","state_name":"Virginia","lat":36.90278,"lng":-80.60127,"zip":"24105","miles_from_dt":29.85}],"targetCityZipCode":"24315","targetCityState":"Virginia"},"__N_SSG":true}