{"pageProps":{"stateName":"Virginia","cityName":"bristow","nearbyCities":[{"city":"Nokesville","state_name":"Virginia","lat":38.70021,"lng":-77.57907,"zip":"20182","miles_from_dt":2.88},{"city":"Manassas","state_name":"Virginia","lat":38.7464,"lng":-77.48699,"zip":"20110","miles_from_dt":3.71},{"city":"Manassas","state_name":"Virginia","lat":38.74594,"lng":-77.48577,"zip":"20108","miles_from_dt":3.77},{"city":"Manassas","state_name":"Virginia","lat":38.79472,"lng":-77.53105,"zip":"20109","miles_from_dt":4.16},{"city":"Nokesville","state_name":"Virginia","lat":38.66687,"lng":-77.55374,"zip":"20181","miles_from_dt":4.87},{"city":"Gainesville","state_name":"Virginia","lat":38.79195,"lng":-77.62537,"zip":"20156","miles_from_dt":5.36},{"city":"Gainesville","state_name":"Virginia","lat":38.80646,"lng":-77.62145,"zip":"20155","miles_from_dt":5.97},{"city":"Manassas","state_name":"Virginia","lat":38.78674,"lng":-77.45575,"zip":"20113","miles_from_dt":6.34},{"city":"Haymarket","state_name":"Virginia","lat":38.81099,"lng":-77.63563,"zip":"20168","miles_from_dt":6.7},{"city":"Manassas","state_name":"Virginia","lat":38.74907,"lng":-77.43039,"zip":"20111","miles_from_dt":6.77},{"city":"Centreville","state_name":"Virginia","lat":38.8175,"lng":-77.46015,"zip":"20121","miles_from_dt":7.52},{"city":"Manassas","state_name":"Virginia","lat":38.67274,"lng":-77.42901,"zip":"20112","miles_from_dt":8.13},{"city":"Catharpin","state_name":"Virginia","lat":38.86421,"lng":-77.56792,"zip":"20143","miles_from_dt":8.78},{"city":"Catlett","state_name":"Virginia","lat":38.62159,"lng":-77.62819,"zip":"20119","miles_from_dt":8.92},{"city":"Centreville","state_name":"Virginia","lat":38.85576,"lng":-77.47987,"zip":"20120","miles_from_dt":9.11},{"city":"Centreville","state_name":"Virginia","lat":38.85594,"lng":-77.47862,"zip":"20122","miles_from_dt":9.15},{"city":"Clifton","state_name":"Virginia","lat":38.78059,"lng":-77.39085,"zip":"20124","miles_from_dt":9.34},{"city":"Calverton","state_name":"Virginia","lat":38.6314,"lng":-77.67255,"zip":"20138","miles_from_dt":9.7},{"city":"Casanova","state_name":"Virginia","lat":38.66039,"lng":-77.71584,"zip":"20139","miles_from_dt":10.2},{"city":"Warrenton","state_name":"Virginia","lat":38.71846,"lng":-77.74275,"zip":"20187","miles_from_dt":10.24},{"city":"Haymarket","state_name":"Virginia","lat":38.87172,"lng":-77.64627,"zip":"20169","miles_from_dt":10.5},{"city":"Broad Run","state_name":"Virginia","lat":38.80682,"lng":-77.72992,"zip":"20137","miles_from_dt":10.6},{"city":"Chantilly","state_name":"Virginia","lat":38.8998,"lng":-77.51917,"zip":"20152","miles_from_dt":11.37},{"city":"Chantilly","state_name":"Virginia","lat":38.88759,"lng":-77.44142,"zip":"20153","miles_from_dt":12.03},{"city":"Fairfax","state_name":"Virginia","lat":38.83082,"lng":-77.36294,"zip":"22038","miles_from_dt":12.2},{"city":"Chantilly","state_name":"Virginia","lat":38.89583,"lng":-77.44453,"zip":"20151","miles_from_dt":12.44},{"city":"Woodbridge","state_name":"Virginia","lat":38.64233,"lng":-77.34881,"zip":"22193","miles_from_dt":12.92},{"city":"Fairfax Station","state_name":"Virginia","lat":38.74992,"lng":-77.31536,"zip":"22039","miles_from_dt":12.96},{"city":"Midland","state_name":"Virginia","lat":38.57773,"lng":-77.68639,"zip":"22728","miles_from_dt":13.12},{"city":"Fairfax","state_name":"Virginia","lat":38.85628,"lng":-77.36269,"zip":"22035","miles_from_dt":13.22},{"city":"Fairfax","state_name":"Virginia","lat":38.87564,"lng":-77.38419,"zip":"22033","miles_from_dt":13.25},{"city":"Woodbridge","state_name":"Virginia","lat":38.68358,"lng":-77.31821,"zip":"22192","miles_from_dt":13.31},{"city":"Fairfax","state_name":"Virginia","lat":38.83891,"lng":-77.34188,"zip":"22030","miles_from_dt":13.46},{"city":"Merrifield","state_name":"Virginia","lat":38.83936,"lng":-77.33663,"zip":"22118","miles_from_dt":13.72},{"city":"Triangle","state_name":"Virginia","lat":38.5742,"lng":-77.3895,"zip":"22172","miles_from_dt":14.37},{"city":"Washington","state_name":"District of Columbia","lat":38.94,"lng":-77.47751,"zip":"20041","miles_from_dt":14.58},{"city":"The Plains","state_name":"Virginia","lat":38.87523,"lng":-77.76128,"zip":"20198","miles_from_dt":14.65},{"city":"Dumfries","state_name":"Virginia","lat":38.59874,"lng":-77.3491,"zip":"22025","miles_from_dt":14.67},{"city":"Somerville","state_name":"Virginia","lat":38.52399,"lng":-77.61049,"zip":"22739","miles_from_dt":15.03},{"city":"Burke","state_name":"Virginia","lat":38.78784,"lng":-77.28136,"zip":"22015","miles_from_dt":15.17},{"city":"Fairfax","state_name":"Virginia","lat":38.82012,"lng":-77.29032,"zip":"22032","miles_from_dt":15.37},{"city":"Herndon","state_name":"Virginia","lat":38.9246,"lng":-77.39824,"zip":"20171","miles_from_dt":15.43},{"city":"Warrenton","state_name":"Virginia","lat":38.70589,"lng":-77.83937,"zip":"20188","miles_from_dt":15.53},{"city":"Reston","state_name":"Virginia","lat":38.92613,"lng":-77.39669,"zip":"20196","miles_from_dt":15.56},{"city":"Aldie","state_name":"Virginia","lat":38.95949,"lng":-77.60829,"zip":"20105","miles_from_dt":15.59},{"city":"Burke","state_name":"Virginia","lat":38.79333,"lng":-77.27194,"zip":"22009","miles_from_dt":15.75},{"city":"Fairfax","state_name":"Virginia","lat":38.85344,"lng":-77.30039,"zip":"22037","miles_from_dt":15.89},{"city":"Warrenton","state_name":"Virginia","lat":38.69045,"lng":-77.843,"zip":"20186","miles_from_dt":15.91},{"city":"Oakton","state_name":"Virginia","lat":38.8909,"lng":-77.33025,"zip":"22124","miles_from_dt":16.09},{"city":"Dulles","state_name":"Virginia","lat":38.95656,"lng":-77.45032,"zip":"20102","miles_from_dt":16.13},{"city":"Ruby","state_name":"Virginia","lat":38.50435,"lng":-77.51768,"zip":"22545","miles_from_dt":16.2},{"city":"Quantico","state_name":"Virginia","lat":38.53186,"lng":-77.409,"zip":"22134","miles_from_dt":16.22},{"city":"Occoquan","state_name":"Virginia","lat":38.68217,"lng":-77.26073,"zip":"22125","miles_from_dt":16.34},{"city":"Dulles","state_name":"Virginia","lat":38.96242,"lng":-77.45563,"zip":"20189","miles_from_dt":16.42},{"city":"Bealeton","state_name":"Virginia","lat":38.55632,"lng":-77.75884,"zip":"22712","miles_from_dt":16.67},{"city":"Sterling","state_name":"Virginia","lat":38.97146,"lng":-77.4637,"zip":"20166","miles_from_dt":16.88},{"city":"Springfield","state_name":"Virginia","lat":38.81226,"lng":-77.25641,"zip":"22158","miles_from_dt":16.92},{"city":"Woodbridge","state_name":"Virginia","lat":38.6249,"lng":-77.26849,"zip":"22191","miles_from_dt":17.31},{"city":"Springfield","state_name":"Virginia","lat":38.74443,"lng":-77.23451,"zip":"22153","miles_from_dt":17.31},{"city":"Woodbridge","state_name":"Virginia","lat":38.65844,"lng":-77.24958,"zip":"22195","miles_from_dt":17.37},{"city":"Woodbridge","state_name":"Virginia","lat":38.63496,"lng":-77.25982,"zip":"22194","miles_from_dt":17.44},{"city":"Reston","state_name":"Virginia","lat":38.93438,"lng":-77.35184,"zip":"20191","miles_from_dt":17.45},{"city":"Stafford","state_name":"Virginia","lat":38.48624,"lng":-77.513,"zip":"22556","miles_from_dt":17.47},{"city":"Ashburn","state_name":"Virginia","lat":38.99062,"lng":-77.53284,"zip":"20148","miles_from_dt":17.51},{"city":"Springfield","state_name":"Virginia","lat":38.77564,"lng":-77.23149,"zip":"22152","miles_from_dt":17.66},{"city":"Lorton","state_name":"Virginia","lat":38.70199,"lng":-77.23036,"zip":"22199","miles_from_dt":17.7},{"city":"Herndon","state_name":"Virginia","lat":38.94635,"lng":-77.36314,"zip":"20192","miles_from_dt":17.74},{"city":"Fairfax","state_name":"Virginia","lat":38.85596,"lng":-77.2602,"zip":"22034","miles_from_dt":17.88},{"city":"Fairfax","state_name":"Virginia","lat":38.85954,"lng":-77.2599,"zip":"22031","miles_from_dt":18.01},{"city":"Fairfax","state_name":"Virginia","lat":38.85798,"lng":-77.25866,"zip":"22036","miles_from_dt":18.02},{"city":"Garrisonville","state_name":"Virginia","lat":38.47914,"lng":-77.49634,"zip":"22463","miles_from_dt":18.09},{"city":"Dulles","state_name":"Virginia","lat":38.98835,"lng":-77.45192,"zip":"20101","miles_from_dt":18.18},{"city":"Merrifield","state_name":"Virginia","lat":38.86135,"lng":-77.25745,"zip":"22116","miles_from_dt":18.18},{"city":"Sterling","state_name":"Virginia","lat":38.98799,"lng":-77.45013,"zip":"20163","miles_from_dt":18.18},{"city":"Vienna","state_name":"Virginia","lat":38.9053,"lng":-77.29466,"zip":"22181","miles_from_dt":18.2},{"city":"Herndon","state_name":"Virginia","lat":38.96894,"lng":-77.3887,"zip":"22095","miles_from_dt":18.31},{"city":"Dumfries","state_name":"Virginia","lat":38.56717,"lng":-77.29476,"zip":"22026","miles_from_dt":18.32},{"city":"Goldvein","state_name":"Virginia","lat":38.48044,"lng":-77.6468,"zip":"22720","miles_from_dt":18.41},{"city":"Marshall","state_name":"Virginia","lat":38.86836,"lng":-77.85245,"zip":"20116","miles_from_dt":18.43},{"city":"Herndon","state_name":"Virginia","lat":38.96932,"lng":-77.38325,"zip":"20172","miles_from_dt":18.48},{"city":"Reston","state_name":"Virginia","lat":38.94986,"lng":-77.34433,"zip":"22096","miles_from_dt":18.54},{"city":"Dulles","state_name":"Virginia","lat":38.99793,"lng":-77.46975,"zip":"20104","miles_from_dt":18.55},{"city":"Middleburg","state_name":"Virginia","lat":38.96752,"lng":-77.73428,"zip":"20118","miles_from_dt":18.59},{"city":"Springfield","state_name":"Virginia","lat":38.81129,"lng":-77.22119,"zip":"22160","miles_from_dt":18.72},{"city":"Dulles","state_name":"Virginia","lat":38.99738,"lng":-77.45148,"zip":"20103","miles_from_dt":18.78},{"city":"Reston","state_name":"Virginia","lat":38.94889,"lng":-77.32678,"zip":"20195","miles_from_dt":19.08},{"city":"Springfield","state_name":"Virginia","lat":38.80283,"lng":-77.2096,"zip":"22151","miles_from_dt":19.18},{"city":"Herndon","state_name":"Virginia","lat":38.98075,"lng":-77.38042,"zip":"20170","miles_from_dt":19.24},{"city":"Reston","state_name":"Virginia","lat":38.95968,"lng":-77.33806,"zip":"20190","miles_from_dt":19.28},{"city":"Lorton","state_name":"Virginia","lat":38.67998,"lng":-77.2055,"zip":"22079","miles_from_dt":19.29},{"city":"Marshall","state_name":"Virginia","lat":38.82138,"lng":-77.89764,"zip":"20115","miles_from_dt":19.4},{"city":"Vienna","state_name":"Virginia","lat":38.89929,"lng":-77.26033,"zip":"22185","miles_from_dt":19.42},{"city":"Annandale","state_name":"Virginia","lat":38.8308,"lng":-77.21402,"zip":"22003","miles_from_dt":19.49},{"city":"Merrifield","state_name":"Virginia","lat":38.87267,"lng":-77.2373,"zip":"22082","miles_from_dt":19.51},{"city":"Vienna","state_name":"Virginia","lat":38.89619,"lng":-77.25426,"zip":"22180","miles_from_dt":19.57},{"city":"Merrifield","state_name":"Virginia","lat":38.87338,"lng":-77.23598,"zip":"22081","miles_from_dt":19.6},{"city":"Vienna","state_name":"Virginia","lat":38.89745,"lng":-77.25434,"zip":"22183","miles_from_dt":19.61},{"city":"Merrifield","state_name":"Virginia","lat":38.87685,"lng":-77.23574,"zip":"22119","miles_from_dt":19.72},{"city":"Remington","state_name":"Virginia","lat":38.52757,"lng":-77.81119,"zip":"22734","miles_from_dt":20.05},{"city":"Springfield","state_name":"Virginia","lat":38.77198,"lng":-77.18605,"zip":"22150","miles_from_dt":20.06},{"city":"Springfield","state_name":"Virginia","lat":38.7765,"lng":-77.1864,"zip":"22156","miles_from_dt":20.08},{"city":"Ashburn","state_name":"Virginia","lat":39.01905,"lng":-77.46099,"zip":"20146","miles_from_dt":20.08},{"city":"Springfield","state_name":"Virginia","lat":38.78786,"lng":-77.18722,"zip":"22161","miles_from_dt":20.15},{"city":"Newington","state_name":"Virginia","lat":38.73902,"lng":-77.18032,"zip":"22122","miles_from_dt":20.23},{"city":"Reston","state_name":"Virginia","lat":38.97998,"lng":-77.34354,"zip":"20194","miles_from_dt":20.24},{"city":"Middleburg","state_name":"Virginia","lat":38.99473,"lng":-77.73851,"zip":"20117","miles_from_dt":20.33},{"city":"Jeffersonton","state_name":"Virginia","lat":38.63286,"lng":-77.90752,"zip":"22724","miles_from_dt":20.39},{"city":"Vienna","state_name":"Virginia","lat":38.93611,"lng":-77.2736,"zip":"22182","miles_from_dt":20.44},{"city":"Springfield","state_name":"Virginia","lat":38.8017,"lng":-77.18227,"zip":"22159","miles_from_dt":20.6},{"city":"Quantico","state_name":"Virginia","lat":38.52118,"lng":-77.28805,"zip":"22135","miles_from_dt":20.75},{"city":"Sterling","state_name":"Virginia","lat":39.01244,"lng":-77.39586,"zip":"20164","miles_from_dt":20.82},{"city":"Rectortown","state_name":"Virginia","lat":38.92037,"lng":-77.86292,"zip":"20140","miles_from_dt":20.88},{"city":"Alexandria","state_name":"Virginia","lat":38.77218,"lng":-77.17049,"zip":"22313","miles_from_dt":20.89},{"city":"Dunn Loring","state_name":"Virginia","lat":38.89411,"lng":-77.22159,"zip":"22027","miles_from_dt":20.98},{"city":"Sumerduck","state_name":"Virginia","lat":38.4589,"lng":-77.71179,"zip":"22742","miles_from_dt":21.01},{"city":"Sterling","state_name":"Virginia","lat":39.01703,"lng":-77.39409,"zip":"20167","miles_from_dt":21.14},{"city":"Falls Church","state_name":"Virginia","lat":38.86463,"lng":-77.19406,"zip":"22042","miles_from_dt":21.35},{"city":"Ashburn","state_name":"Virginia","lat":39.04151,"lng":-77.47958,"zip":"20147","miles_from_dt":21.37},{"city":"Ashburn","state_name":"Virginia","lat":39.04362,"lng":-77.48161,"zip":"20149","miles_from_dt":21.49},{"city":"Fort Belvoir","state_name":"Virginia","lat":38.70525,"lng":-77.15636,"zip":"22060","miles_from_dt":21.64},{"city":"Alexandria","state_name":"Virginia","lat":38.75735,"lng":-77.14803,"zip":"22315","miles_from_dt":22.01},{"city":"Orlean","state_name":"Virginia","lat":38.74958,"lng":-77.96246,"zip":"20128","miles_from_dt":22.04},{"city":"Falls Church","state_name":"Virginia","lat":38.90076,"lng":-77.19746,"zip":"22043","miles_from_dt":22.33},{"city":"Alexandria","state_name":"Virginia","lat":38.81685,"lng":-77.15372,"zip":"22312","miles_from_dt":22.34},{"city":"Leesburg","state_name":"Virginia","lat":39.0641,"lng":-77.59939,"zip":"20175","miles_from_dt":22.66},{"city":"Falls Church","state_name":"Virginia","lat":38.88696,"lng":-77.18025,"zip":"22046","miles_from_dt":22.69},{"city":"West Mclean","state_name":"Virginia","lat":38.94777,"lng":-77.22795,"zip":"22103","miles_from_dt":22.83},{"city":"McLean","state_name":"Virginia","lat":38.95199,"lng":-77.22901,"zip":"22102","miles_from_dt":22.97},{"city":"Falls Church","state_name":"Virginia","lat":38.88569,"lng":-77.17123,"zip":"22040","miles_from_dt":23.09},{"city":"Falls Church","state_name":"Virginia","lat":38.85957,"lng":-77.15627,"zip":"22044","miles_from_dt":23.1},{"city":"Hartwood","state_name":"Virginia","lat":38.40242,"lng":-77.58067,"zip":"22471","miles_from_dt":23.15},{"city":"Great Falls","state_name":"Virginia","lat":39.01032,"lng":-77.30258,"zip":"22066","miles_from_dt":23.22},{"city":"Stafford","state_name":"Virginia","lat":38.42026,"lng":-77.40955,"zip":"22555","miles_from_dt":23.24},{"city":"Fredericksburg","state_name":"Virginia","lat":38.39964,"lng":-77.55596,"zip":"22406","miles_from_dt":23.3},{"city":"Elkwood","state_name":"Virginia","lat":38.47076,"lng":-77.82026,"zip":"22718","miles_from_dt":23.34},{"city":"Sterling","state_name":"Virginia","lat":39.05058,"lng":-77.38854,"zip":"20165","miles_from_dt":23.39},{"city":"Falls Church","state_name":"Virginia","lat":38.8485,"lng":-77.14212,"zip":"22041","miles_from_dt":23.56},{"city":"Alexandria","state_name":"Virginia","lat":38.78447,"lng":-77.12231,"zip":"22310","miles_from_dt":23.58},{"city":"Stafford","state_name":"Virginia","lat":38.42285,"lng":-77.3835,"zip":"22554","miles_from_dt":23.59},{"city":"Brandy Station","state_name":"Virginia","lat":38.52068,"lng":-77.89363,"zip":"22714","miles_from_dt":23.66},{"city":"Arlington","state_name":"Virginia","lat":38.89459,"lng":-77.16239,"zip":"22213","miles_from_dt":23.79},{"city":"McLean","state_name":"Virginia","lat":38.93,"lng":-77.18219,"zip":"22107","miles_from_dt":24.09},{"city":"McLean","state_name":"Virginia","lat":38.93,"lng":-77.18219,"zip":"22108","miles_from_dt":24.09},{"city":"McLean","state_name":"Virginia","lat":38.93368,"lng":-77.18439,"zip":"22109","miles_from_dt":24.14},{"city":"Mount Vernon","state_name":"Virginia","lat":38.7167,"lng":-77.10823,"zip":"22121","miles_from_dt":24.17},{"city":"Alexandria","state_name":"Virginia","lat":38.71931,"lng":-77.10724,"zip":"22309","miles_from_dt":24.21},{"city":"Delaplane","state_name":"Virginia","lat":38.92117,"lng":-77.93759,"zip":"20144","miles_from_dt":24.24},{"city":"Alexandria","state_name":"Virginia","lat":38.83442,"lng":-77.12313,"zip":"22311","miles_from_dt":24.24},{"city":"Philomont","state_name":"Virginia","lat":39.05815,"lng":-77.74061,"zip":"20131","miles_from_dt":24.29},{"city":"Marbury","state_name":"Maryland","lat":38.56973,"lng":-77.15958,"zip":"20658","miles_from_dt":24.3},{"city":"Alexandria","state_name":"Virginia","lat":38.81361,"lng":-77.11498,"zip":"22304","miles_from_dt":24.32},{"city":"Alexandria","state_name":"Virginia","lat":38.81507,"lng":-77.11364,"zip":"22333","miles_from_dt":24.41},{"city":"Indian Head","state_name":"Maryland","lat":38.55408,"lng":-77.1657,"zip":"20640","miles_from_dt":24.55},{"city":"Arlington","state_name":"Virginia","lat":38.88337,"lng":-77.13948,"zip":"22205","miles_from_dt":24.57},{"city":"Richardsville","state_name":"Virginia","lat":38.39633,"lng":-77.69673,"zip":"22736","miles_from_dt":24.75},{"city":"McLean","state_name":"Virginia","lat":38.94084,"lng":-77.17614,"zip":"22106","miles_from_dt":24.78},{"city":"Alexandria","state_name":"Virginia","lat":38.75655,"lng":-77.09254,"zip":"22306","miles_from_dt":25},{"city":"Upperville","state_name":"Virginia","lat":38.9945,"lng":-77.88181,"zip":"20185","miles_from_dt":25.01},{"city":"Amissville","state_name":"Virginia","lat":38.6871,"lng":-78.0133,"zip":"20106","miles_from_dt":25.02},{"city":"McLean","state_name":"Virginia","lat":38.9386,"lng":-77.16513,"zip":"22101","miles_from_dt":25.19},{"city":"Upperville","state_name":"Virginia","lat":39.00143,"lng":-77.87874,"zip":"20184","miles_from_dt":25.24},{"city":"Greenway","state_name":"Virginia","lat":38.94062,"lng":-77.16512,"zip":"22067","miles_from_dt":25.26},{"city":"Arlington","state_name":"Virginia","lat":38.87006,"lng":-77.11668,"zip":"22230","miles_from_dt":25.35},{"city":"Arlington","state_name":"Virginia","lat":38.87377,"lng":-77.1164,"zip":"22203","miles_from_dt":25.46},{"city":"Leesburg","state_name":"Virginia","lat":39.10694,"lng":-77.56527,"zip":"20177","miles_from_dt":25.5},{"city":"Alexandria","state_name":"Virginia","lat":38.794,"lng":-77.08175,"zip":"22303","miles_from_dt":25.84},{"city":"Bryans Road","state_name":"Maryland","lat":38.65443,"lng":-77.08848,"zip":"20616","miles_from_dt":25.85},{"city":"Arlington","state_name":"Virginia","lat":38.90665,"lng":-77.12384,"zip":"22207","miles_from_dt":26.02},{"city":"Arlington","state_name":"Virginia","lat":38.86076,"lng":-77.09894,"zip":"22204","miles_from_dt":26.03},{"city":"Alexandria","state_name":"Virginia","lat":38.82799,"lng":-77.08432,"zip":"22302","miles_from_dt":26.16},{"city":"Viewtown","state_name":"Virginia","lat":38.62922,"lng":-78.0195,"zip":"22746","miles_from_dt":26.21},{"city":"Arlington","state_name":"Virginia","lat":38.8442,"lng":-77.0886,"zip":"22206","miles_from_dt":26.22},{"city":"Arlington","state_name":"Virginia","lat":38.85566,"lng":-77.093,"zip":"22217","miles_from_dt":26.23},{"city":"Rixeyville","state_name":"Virginia","lat":38.59024,"lng":-78.00205,"zip":"22737","miles_from_dt":26.23},{"city":"Leesburg","state_name":"Virginia","lat":39.11878,"lng":-77.56645,"zip":"20178","miles_from_dt":26.32},{"city":"Stevensburg","state_name":"Virginia","lat":38.44541,"lng":-77.86819,"zip":"22741","miles_from_dt":26.34},{"city":"Dhs","state_name":"Virginia","lat":38.80111,"lng":-77.07257,"zip":"20598","miles_from_dt":26.41},{"city":"Arlington","state_name":"Virginia","lat":38.85843,"lng":-77.08967,"zip":"22212","miles_from_dt":26.46},{"city":"Hume","state_name":"Virginia","lat":38.82625,"lng":-78.0321,"zip":"22639","miles_from_dt":26.49},{"city":"Cabin John","state_name":"Maryland","lat":38.97347,"lng":-77.16188,"zip":"20818","miles_from_dt":26.72},{"city":"Alexandria","state_name":"Virginia","lat":38.72957,"lng":-77.05876,"zip":"22308","miles_from_dt":26.8},{"city":"Arlington","state_name":"Virginia","lat":38.88388,"lng":-77.09428,"zip":"22226","miles_from_dt":26.83},{"city":"Brooke","state_name":"Virginia","lat":38.37879,"lng":-77.36252,"zip":"22430","miles_from_dt":26.84},{"city":"Arlington","state_name":"Virginia","lat":38.88684,"lng":-77.09501,"zip":"22201","miles_from_dt":26.87},{"city":"Arlington","state_name":"Virginia","lat":38.88728,"lng":-77.09394,"zip":"22210","miles_from_dt":26.93},{"city":"Fredericksburg","state_name":"Virginia","lat":38.35086,"lng":-77.47736,"zip":"22403","miles_from_dt":26.99},{"city":"Alexandria","state_name":"Virginia","lat":38.7708,"lng":-77.05694,"zip":"22307","miles_from_dt":26.99},{"city":"Markham","state_name":"Virginia","lat":38.9034,"lng":-78.00801,"zip":"22643","miles_from_dt":27.01},{"city":"Poolesville","state_name":"Maryland","lat":39.11208,"lng":-77.40823,"zip":"20837","miles_from_dt":27.02},{"city":"Alexandria","state_name":"Virginia","lat":38.80459,"lng":-77.05927,"zip":"22332","miles_from_dt":27.15},{"city":"Alexandria","state_name":"Virginia","lat":38.80318,"lng":-77.05868,"zip":"22334","miles_from_dt":27.17},{"city":"Lincoln","state_name":"Virginia","lat":39.1162,"lng":-77.69397,"zip":"20160","miles_from_dt":27.19},{"city":"Lignum","state_name":"Virginia","lat":38.40179,"lng":-77.81796,"zip":"22726","miles_from_dt":27.19},{"city":"Potomac","state_name":"Maryland","lat":39.03413,"lng":-77.22149,"zip":"20854","miles_from_dt":27.23},{"city":"Glen Echo","state_name":"Maryland","lat":38.96677,"lng":-77.14357,"zip":"20812","miles_from_dt":27.24},{"city":"Alexandria","state_name":"Virginia","lat":38.80663,"lng":-77.05806,"zip":"22331","miles_from_dt":27.24},{"city":"Alexandria","state_name":"Virginia","lat":38.80536,"lng":-77.05642,"zip":"22320","miles_from_dt":27.31},{"city":"Alexandria","state_name":"Virginia","lat":38.80732,"lng":-77.0563,"zip":"22314","miles_from_dt":27.34},{"city":"Ironsides","state_name":"Maryland","lat":38.49143,"lng":-77.15828,"zip":"20643","miles_from_dt":27.35},{"city":"Alexandria","state_name":"Virginia","lat":38.81995,"lng":-77.05934,"zip":"22301","miles_from_dt":27.35},{"city":"Alexandria","state_name":"Virginia","lat":38.83655,"lng":-77.06234,"zip":"22305","miles_from_dt":27.45},{"city":"Arlington","state_name":"Virginia","lat":38.89162,"lng":-77.08532,"zip":"22216","miles_from_dt":27.48},{"city":"Potomac","state_name":"Maryland","lat":39.02296,"lng":-77.19925,"zip":"20859","miles_from_dt":27.48},{"city":"Fort Myer","state_name":"Virginia","lat":38.88011,"lng":-77.07482,"zip":"22211","miles_from_dt":27.71},{"city":"Bethesda","state_name":"Maryland","lat":38.95612,"lng":-77.11873,"zip":"20816","miles_from_dt":27.94},{"city":"Arlington","state_name":"Virginia","lat":38.85661,"lng":-77.05938,"zip":"22225","miles_from_dt":27.98},{"city":"Hamilton","state_name":"Virginia","lat":39.13425,"lng":-77.66495,"zip":"20159","miles_from_dt":28.01},{"city":"Arlington","state_name":"Virginia","lat":38.89123,"lng":-77.07307,"zip":"22219","miles_from_dt":28.08},{"city":"Arlington","state_name":"Virginia","lat":38.87499,"lng":-77.06501,"zip":"22214","miles_from_dt":28.08},{"city":"Arlington","state_name":"Virginia","lat":38.89413,"lng":-77.07309,"zip":"22209","miles_from_dt":28.15},{"city":"Arlington","state_name":"Virginia","lat":38.85408,"lng":-77.0549,"zip":"22227","miles_from_dt":28.16},{"city":"Arlington","state_name":"Virginia","lat":38.85302,"lng":-77.05415,"zip":"22240","miles_from_dt":28.17},{"city":"Arlington","state_name":"Virginia","lat":38.8587,"lng":-77.05635,"zip":"22241","miles_from_dt":28.17},{"city":"Alexandria","state_name":"Virginia","lat":38.864,"lng":-77.05664,"zip":"22350","miles_from_dt":28.27},{"city":"Arlington","state_name":"Virginia","lat":38.85207,"lng":-77.05149,"zip":"22245","miles_from_dt":28.29},{"city":"Bethesda","state_name":"Maryland","lat":38.99809,"lng":-77.14919,"zip":"20817","miles_from_dt":28.31},{"city":"Arlington","state_name":"Virginia","lat":38.85762,"lng":-77.05308,"zip":"22246","miles_from_dt":28.32},{"city":"Arlington","state_name":"Virginia","lat":38.8569,"lng":-77.05175,"zip":"22202","miles_from_dt":28.37},{"city":"Hamilton","state_name":"Virginia","lat":39.14126,"lng":-77.65514,"zip":"20158","miles_from_dt":28.38},{"city":"Arlington","state_name":"Virginia","lat":38.85629,"lng":-77.05089,"zip":"22242","miles_from_dt":28.41},{"city":"Arlington","state_name":"Virginia","lat":38.85512,"lng":-77.05026,"zip":"22244","miles_from_dt":28.42},{"city":"Arlington","state_name":"Virginia","lat":38.86103,"lng":-77.05257,"zip":"22243","miles_from_dt":28.42},{"city":"Nanjemoy","state_name":"Maryland","lat":38.43359,"lng":-77.19972,"zip":"20662","miles_from_dt":28.44},{"city":"Washington","state_name":"District of Columbia","lat":38.91259,"lng":-77.07756,"zip":"20007","miles_from_dt":28.44},{"city":"Washington","state_name":"District of Columbia","lat":38.90892,"lng":-77.07511,"zip":"20057","miles_from_dt":28.46},{"city":"Washington","state_name":"District of Columbia","lat":38.9164,"lng":-77.07787,"zip":"20435","miles_from_dt":28.54},{"city":"Arlington","state_name":"Virginia","lat":38.85846,"lng":-77.04896,"zip":"22215","miles_from_dt":28.55},{"city":"Washington","state_name":"District of Columbia","lat":38.93822,"lng":-77.09139,"zip":"20016","miles_from_dt":28.58},{"city":"Bethesda","state_name":"Maryland","lat":39.01371,"lng":-77.15874,"zip":"20827","miles_from_dt":28.62},{"city":"Washington","state_name":"District of Columbia","lat":38.94137,"lng":-77.08984,"zip":"20375","miles_from_dt":28.76},{"city":"Washington","state_name":"District of Columbia","lat":38.94167,"lng":-77.08741,"zip":"20394","miles_from_dt":28.88},{"city":"Paris","state_name":"Virginia","lat":39.02756,"lng":-77.94243,"zip":"20130","miles_from_dt":28.94},{"city":"Accokeek","state_name":"Maryland","lat":38.67161,"lng":-77.02478,"zip":"20607","miles_from_dt":29},{"city":"Washington","state_name":"District of Columbia","lat":38.89213,"lng":-77.0535,"zip":"20037","miles_from_dt":29.08},{"city":"Washington","state_name":"District of Columbia","lat":38.89667,"lng":-77.05536,"zip":"20566","miles_from_dt":29.1},{"city":"Round Hill","state_name":"Virginia","lat":39.11675,"lng":-77.79159,"zip":"20141","miles_from_dt":29.11},{"city":"Washington","state_name":"District of Columbia","lat":38.89473,"lng":-77.05271,"zip":"20241","miles_from_dt":29.18},{"city":"Washington","state_name":"District of Columbia","lat":38.94357,"lng":-77.08243,"zip":"20393","miles_from_dt":29.18},{"city":"Purcellville","state_name":"Virginia","lat":39.14233,"lng":-77.71139,"zip":"20134","miles_from_dt":29.18},{"city":"Washington","state_name":"District of Columbia","lat":38.89376,"lng":-77.05064,"zip":"20522","miles_from_dt":29.26},{"city":"Washington","state_name":"District of Columbia","lat":38.91415,"lng":-77.06096,"zip":"20406","miles_from_dt":29.3},{"city":"Washington","state_name":"District of Columbia","lat":38.8928,"lng":-77.04776,"zip":"20418","miles_from_dt":29.38},{"city":"Washington","state_name":"District of Columbia","lat":38.89959,"lng":-77.05111,"zip":"20521","miles_from_dt":29.39},{"city":"Washington","state_name":"District of Columbia","lat":38.8947,"lng":-77.04848,"zip":"20520","miles_from_dt":29.4},{"city":"Washington","state_name":"District of Columbia","lat":38.90074,"lng":-77.05016,"zip":"20372","miles_from_dt":29.47},{"city":"Washington","state_name":"District of Columbia","lat":38.89443,"lng":-77.04668,"zip":"20451","miles_from_dt":29.48},{"city":"Washington","state_name":"District of Columbia","lat":38.8928,"lng":-77.0458,"zip":"20551","miles_from_dt":29.48},{"city":"Washington","state_name":"District of Columbia","lat":38.89121,"lng":-77.04491,"zip":"20581","miles_from_dt":29.49},{"city":"Washington","state_name":"District of Columbia","lat":38.89671,"lng":-77.04701,"zip":"20523","miles_from_dt":29.52},{"city":"Washington","state_name":"District of Columbia","lat":38.89358,"lng":-77.04503,"zip":"20245","miles_from_dt":29.54},{"city":"Washington","state_name":"District of Columbia","lat":38.89884,"lng":-77.04779,"zip":"20052","miles_from_dt":29.54},{"city":"Washington","state_name":"District of Columbia","lat":38.90187,"lng":-77.04895,"zip":"20437","miles_from_dt":29.56},{"city":"Washington","state_name":"District of Columbia","lat":38.89499,"lng":-77.04491,"zip":"20013","miles_from_dt":29.58},{"city":"Bethesda","state_name":"Maryland","lat":38.98,"lng":-77.10219,"zip":"20810","miles_from_dt":29.59},{"city":"Washington","state_name":"District of Columbia","lat":38.89494,"lng":-77.0442,"zip":"20415","miles_from_dt":29.62},{"city":"Washington","state_name":"District of Columbia","lat":38.90207,"lng":-77.04755,"zip":"20427","miles_from_dt":29.63},{"city":"Washington","state_name":"District of Columbia","lat":38.90105,"lng":-77.04674,"zip":"20068","miles_from_dt":29.65},{"city":"Bluemont","state_name":"Virginia","lat":39.08602,"lng":-77.87659,"zip":"20135","miles_from_dt":29.65},{"city":"Washington","state_name":"District of Columbia","lat":38.89446,"lng":-77.04261,"zip":"20240","miles_from_dt":29.68},{"city":"Washington","state_name":"District of Columbia","lat":38.90067,"lng":-77.04558,"zip":"20526","miles_from_dt":29.69},{"city":"Washington","state_name":"District of Columbia","lat":38.89845,"lng":-77.04444,"zip":"20456","miles_from_dt":29.69},{"city":"Paeonian Springs","state_name":"Virginia","lat":39.16673,"lng":-77.59404,"zip":"20129","miles_from_dt":29.69},{"city":"Washington","state_name":"District of Columbia","lat":38.89145,"lng":-77.04079,"zip":"20429","miles_from_dt":29.7},{"city":"Washington","state_name":"District of Columbia","lat":38.89895,"lng":-77.04419,"zip":"20431","miles_from_dt":29.72},{"city":"Washington","state_name":"District of Columbia","lat":38.89521,"lng":-77.04199,"zip":"20469","miles_from_dt":29.73},{"city":"Washington","state_name":"District of Columbia","lat":38.90504,"lng":-77.04704,"zip":"20586","miles_from_dt":29.74},{"city":"Washington","state_name":"District of Columbia","lat":38.90143,"lng":-77.0449,"zip":"20579","miles_from_dt":29.75},{"city":"Washington","state_name":"District of Columbia","lat":38.89773,"lng":-77.04287,"zip":"20504","miles_from_dt":29.75},{"city":"Washington","state_name":"District of Columbia","lat":38.89846,"lng":-77.04329,"zip":"20067","miles_from_dt":29.75},{"city":"Bethesda","state_name":"Maryland","lat":38.98204,"lng":-77.09981,"zip":"20811","miles_from_dt":29.78},{"city":"Washington Navy Yard","state_name":"District of Columbia","lat":38.82891,"lng":-77.0155,"zip":"20374","miles_from_dt":29.79},{"city":"Washington","state_name":"District of Columbia","lat":38.89639,"lng":-77.04156,"zip":"20505","miles_from_dt":29.79},{"city":"Washington","state_name":"District of Columbia","lat":38.90415,"lng":-77.04535,"zip":"20238","miles_from_dt":29.8},{"city":"Fort Washington","state_name":"Maryland","lat":38.73353,"lng":-77.00301,"zip":"20749","miles_from_dt":29.81},{"city":"Washington","state_name":"District of Columbia","lat":38.89645,"lng":-77.04107,"zip":"20555","miles_from_dt":29.81},{"city":"Washington","state_name":"District of Columbia","lat":38.90454,"lng":-77.04504,"zip":"20203","miles_from_dt":29.82},{"city":"Round Hill","state_name":"Virginia","lat":39.13504,"lng":-77.77179,"zip":"20142","miles_from_dt":29.82},{"city":"Washington","state_name":"District of Columbia","lat":38.90321,"lng":-77.04439,"zip":"20063","miles_from_dt":29.82},{"city":"Washington","state_name":"District of Columbia","lat":38.89294,"lng":-77.03893,"zip":"20434","miles_from_dt":29.83},{"city":"Washington","state_name":"District of Columbia","lat":38.89798,"lng":-77.04153,"zip":"20570","miles_from_dt":29.83},{"city":"Washington","state_name":"District of Columbia","lat":38.87959,"lng":-77.03246,"zip":"20239","miles_from_dt":29.85},{"city":"Washington","state_name":"District of Columbia","lat":38.9,"lng":-77.04219,"zip":"20509","miles_from_dt":29.85},{"city":"Washington","state_name":"District of Columbia","lat":38.83142,"lng":-77.01514,"zip":"20032","miles_from_dt":29.85},{"city":"Washington","state_name":"District of Columbia","lat":38.9,"lng":-77.04219,"zip":"20355","miles_from_dt":29.85},{"city":"Parcel Return Service","state_name":"District of Columbia","lat":38.9,"lng":-77.04219,"zip":"56901","miles_from_dt":29.85},{"city":"Washington","state_name":"District of Columbia","lat":38.89847,"lng":-77.04119,"zip":"20006","miles_from_dt":29.86},{"city":"Washington","state_name":"District of Columbia","lat":38.90646,"lng":-77.04493,"zip":"20433","miles_from_dt":29.88},{"city":"Washington","state_name":"District of Columbia","lat":38.89944,"lng":-77.04118,"zip":"20575","miles_from_dt":29.88},{"city":"Parcel Return Service","state_name":"District of Columbia","lat":38.8951,"lng":-77.03875,"zip":"56904","miles_from_dt":29.89},{"city":"Parcel Return Service","state_name":"District of Columbia","lat":38.8951,"lng":-77.03875,"zip":"56972","miles_from_dt":29.89},{"city":"Parcel Return Service","state_name":"District of Columbia","lat":38.8951,"lng":-77.03875,"zip":"56998","miles_from_dt":29.89},{"city":"Parcel Return Service","state_name":"District of Columbia","lat":38.8951,"lng":-77.03875,"zip":"56915","miles_from_dt":29.89},{"city":"Parcel Return Service","state_name":"District of Columbia","lat":38.8951,"lng":-77.03875,"zip":"56920","miles_from_dt":29.89},{"city":"Parcel Return Service","state_name":"District of Columbia","lat":38.8951,"lng":-77.03875,"zip":"56933","miles_from_dt":29.89},{"city":"Parcel Return Service","state_name":"District of Columbia","lat":38.8951,"lng":-77.03875,"zip":"56935","miles_from_dt":29.89},{"city":"Parcel Return Service","state_name":"District of Columbia","lat":38.8951,"lng":-77.03875,"zip":"56944","miles_from_dt":29.89},{"city":"Parcel Return Service","state_name":"District of Columbia","lat":38.8951,"lng":-77.03875,"zip":"56945","miles_from_dt":29.89},{"city":"Parcel Return Service","state_name":"District of Columbia","lat":38.8951,"lng":-77.03875,"zip":"56950","miles_from_dt":29.89},{"city":"Parcel Return Service","state_name":"District of Columbia","lat":38.8951,"lng":-77.03875,"zip":"56965","miles_from_dt":29.89},{"city":"Parcel Return Service","state_name":"District of Columbia","lat":38.8951,"lng":-77.03875,"zip":"56967","miles_from_dt":29.89},{"city":"Parcel Return Service","state_name":"District of Columbia","lat":38.8951,"lng":-77.03875,"zip":"56999","miles_from_dt":29.89},{"city":"Parcel Return Service","state_name":"District of Columbia","lat":38.8951,"lng":-77.03875,"zip":"56902","miles_from_dt":29.89},{"city":"Parcel Return Service","state_name":"District of Columbia","lat":38.8951,"lng":-77.03875,"zip":"56908","miles_from_dt":29.89},{"city":"Washington","state_name":"District of Columbia","lat":38.87517,"lng":-77.0295,"zip":"20024","miles_from_dt":29.9},{"city":"Washington","state_name":"District of Columbia","lat":38.89929,"lng":-77.04034,"zip":"20508","miles_from_dt":29.92},{"city":"Washington","state_name":"District of Columbia","lat":38.9335,"lng":-77.06003,"zip":"20392","miles_from_dt":29.92},{"city":"Washington","state_name":"District of Columbia","lat":38.89278,"lng":-77.03685,"zip":"20470","miles_from_dt":29.93},{"city":"Washington","state_name":"District of Columbia","lat":38.90371,"lng":-77.04214,"zip":"20507","miles_from_dt":29.95},{"city":"Washington","state_name":"District of Columbia","lat":38.89434,"lng":-77.03699,"zip":"20223","miles_from_dt":29.96},{"city":"Washington","state_name":"District of Columbia","lat":38.88556,"lng":-77.03276,"zip":"20250","miles_from_dt":29.97},{"city":"Washington","state_name":"District of Columbia","lat":38.9119,"lng":-77.04586,"zip":"20235","miles_from_dt":29.98},{"city":"Washington","state_name":"District of Columbia","lat":38.89967,"lng":-77.03934,"zip":"20506","miles_from_dt":29.98}],"targetCityZipCode":"20136","targetCityState":"Virginia"},"__N_SSG":true}