{"pageProps":{"stateName":"Virginia","cityName":"bruington","nearbyCities":[{"city":"Millers Tavern","state_name":"Virginia","lat":37.82909,"lng":-76.94601,"zip":"23115","miles_from_dt":3.36},{"city":"Walkerton","state_name":"Virginia","lat":37.73088,"lng":-77.00295,"zip":"23177","miles_from_dt":4.12},{"city":"Stevensville","state_name":"Virginia","lat":37.72152,"lng":-76.93037,"zip":"23161","miles_from_dt":4.66},{"city":"Saint Stephens Church","state_name":"Virginia","lat":37.84262,"lng":-77.06223,"zip":"23148","miles_from_dt":6.69},{"city":"Dunnsville","state_name":"Virginia","lat":37.83599,"lng":-76.85032,"zip":"22454","miles_from_dt":7.3},{"city":"Center Cross","state_name":"Virginia","lat":37.7764,"lng":-76.8156,"zip":"22437","miles_from_dt":8.24},{"city":"King And Queen Court House","state_name":"Virginia","lat":37.70623,"lng":-76.84205,"zip":"23085","miles_from_dt":8.6},{"city":"Tappahannock","state_name":"Virginia","lat":37.91289,"lng":-76.96196,"zip":"22560","miles_from_dt":8.97},{"city":"King William","state_name":"Virginia","lat":37.66296,"lng":-77.05394,"zip":"23086","miles_from_dt":9.58},{"city":"Aylett","state_name":"Virginia","lat":37.81038,"lng":-77.18717,"zip":"23009","miles_from_dt":12.26},{"city":"Little Plymouth","state_name":"Virginia","lat":37.64647,"lng":-76.80167,"zip":"23091","miles_from_dt":13.02},{"city":"Laneview","state_name":"Virginia","lat":37.76346,"lng":-76.72675,"zip":"22504","miles_from_dt":13.16},{"city":"West Point","state_name":"Virginia","lat":37.59809,"lng":-76.889,"zip":"23181","miles_from_dt":13.43},{"city":"Newtown","state_name":"Virginia","lat":37.92285,"lng":-77.1448,"zip":"23126","miles_from_dt":13.74},{"city":"Manquin","state_name":"Virginia","lat":37.71524,"lng":-77.2062,"zip":"23106","miles_from_dt":13.96},{"city":"Sharps","state_name":"Virginia","lat":37.82929,"lng":-76.69256,"zip":"22548","miles_from_dt":15.29},{"city":"Mascot","state_name":"Virginia","lat":37.65523,"lng":-76.73015,"zip":"23108","miles_from_dt":15.63},{"city":"Jamaica","state_name":"Virginia","lat":37.7248,"lng":-76.68941,"zip":"23079","miles_from_dt":15.66},{"city":"New Kent","state_name":"Virginia","lat":37.55271,"lng":-77.05949,"zip":"23124","miles_from_dt":16.69},{"city":"Warsaw","state_name":"Virginia","lat":37.97552,"lng":-76.77495,"zip":"22572","miles_from_dt":16.89},{"city":"Mattaponi","state_name":"Virginia","lat":37.58338,"lng":-76.76578,"zip":"23110","miles_from_dt":17.6},{"city":"Champlain","state_name":"Virginia","lat":38.03788,"lng":-76.99971,"zip":"22438","miles_from_dt":17.68},{"city":"Church View","state_name":"Virginia","lat":37.65552,"lng":-76.68199,"zip":"23032","miles_from_dt":17.86},{"city":"Morattico","state_name":"Virginia","lat":37.78866,"lng":-76.63003,"zip":"22523","miles_from_dt":18.39},{"city":"Hustle","state_name":"Virginia","lat":38.03807,"lng":-77.06872,"zip":"22476","miles_from_dt":18.47},{"city":"Caret","state_name":"Virginia","lat":38.04698,"lng":-77.07471,"zip":"22436","miles_from_dt":19.16},{"city":"Studley","state_name":"Virginia","lat":37.67531,"lng":-77.29021,"zip":"23162","miles_from_dt":19.25},{"city":"Mechanicsville","state_name":"Virginia","lat":37.6112,"lng":-77.24697,"zip":"23111","miles_from_dt":19.43},{"city":"Water View","state_name":"Virginia","lat":37.69977,"lng":-76.62045,"zip":"23180","miles_from_dt":19.77},{"city":"Hanover","state_name":"Virginia","lat":37.76924,"lng":-77.32874,"zip":"23069","miles_from_dt":19.89},{"city":"Milford","state_name":"Virginia","lat":37.9724,"lng":-77.24471,"zip":"22514","miles_from_dt":20.08},{"city":"Haynesville","state_name":"Virginia","lat":37.95897,"lng":-76.67257,"zip":"22472","miles_from_dt":20.11},{"city":"Sparta","state_name":"Virginia","lat":37.9913,"lng":-77.22889,"zip":"22552","miles_from_dt":20.33},{"city":"Quinton","state_name":"Virginia","lat":37.53042,"lng":-77.15791,"zip":"23141","miles_from_dt":20.35},{"city":"Farnham","state_name":"Virginia","lat":37.87612,"lng":-76.60692,"zip":"22460","miles_from_dt":20.66},{"city":"Urbanna","state_name":"Virginia","lat":37.65343,"lng":-76.62407,"zip":"23175","miles_from_dt":20.75},{"city":"Lanexa","state_name":"Virginia","lat":37.47593,"lng":-76.91212,"zip":"23089","miles_from_dt":21.38},{"city":"Mechanicsville","state_name":"Virginia","lat":37.67152,"lng":-77.33458,"zip":"23116","miles_from_dt":21.61},{"city":"Oldhams","state_name":"Virginia","lat":38.01036,"lng":-76.67942,"zip":"22529","miles_from_dt":22.16},{"city":"Shacklefords","state_name":"Virginia","lat":37.5244,"lng":-76.71106,"zip":"23156","miles_from_dt":22.65},{"city":"Nuttsville","state_name":"Virginia","lat":37.79008,"lng":-76.55182,"zip":"22528","miles_from_dt":22.67},{"city":"Village","state_name":"Virginia","lat":37.9484,"lng":-76.60462,"zip":"22570","miles_from_dt":22.81},{"city":"Barhamsville","state_name":"Virginia","lat":37.47562,"lng":-76.80691,"zip":"23011","miles_from_dt":22.92},{"city":"Loretto","state_name":"Virginia","lat":38.10642,"lng":-77.06669,"zip":"22509","miles_from_dt":22.98},{"city":"Providence Forge","state_name":"Virginia","lat":37.43852,"lng":-77.04818,"zip":"23140","miles_from_dt":24.18},{"city":"Saluda","state_name":"Virginia","lat":37.56794,"lng":-76.61599,"zip":"23149","miles_from_dt":24.24},{"city":"Montross","state_name":"Virginia","lat":38.11651,"lng":-76.80634,"zip":"22520","miles_from_dt":24.6},{"city":"Mollusk","state_name":"Virginia","lat":37.77585,"lng":-76.51487,"zip":"22517","miles_from_dt":24.69},{"city":"Lively","state_name":"Virginia","lat":37.77585,"lng":-76.51487,"zip":"22507","miles_from_dt":24.69},{"city":"Merry Point","state_name":"Virginia","lat":37.77585,"lng":-76.51487,"zip":"22513","miles_from_dt":24.69},{"city":"Sandston","state_name":"Virginia","lat":37.50718,"lng":-77.25402,"zip":"23150","miles_from_dt":24.73},{"city":"Henrico","state_name":"Virginia","lat":37.54938,"lng":-77.31591,"zip":"23075","miles_from_dt":25.05},{"city":"Callao","state_name":"Virginia","lat":37.97216,"lng":-76.57288,"zip":"22435","miles_from_dt":25.14},{"city":"Zacata","state_name":"Virginia","lat":38.1197,"lng":-76.785,"zip":"22581","miles_from_dt":25.24},{"city":"Lancaster","state_name":"Virginia","lat":37.7624,"lng":-76.50432,"zip":"22503","miles_from_dt":25.31},{"city":"Stratford","state_name":"Virginia","lat":38.14647,"lng":-76.84229,"zip":"22558","miles_from_dt":25.97},{"city":"Hague","state_name":"Virginia","lat":38.0667,"lng":-76.64749,"zip":"22469","miles_from_dt":26.18},{"city":"Bowling Green","state_name":"Virginia","lat":38.07177,"lng":-77.28624,"zip":"22427","miles_from_dt":26.52},{"city":"Port Royal","state_name":"Virginia","lat":38.12314,"lng":-77.19619,"zip":"22535","miles_from_dt":26.62},{"city":"Richmond","state_name":"Virginia","lat":37.50517,"lng":-77.32098,"zip":"23250","miles_from_dt":27.32},{"city":"Colonial Beach","state_name":"Virginia","lat":38.18078,"lng":-76.99776,"zip":"22443","miles_from_dt":27.49},{"city":"Richmond","state_name":"Virginia","lat":37.55595,"lng":-77.37927,"zip":"23223","miles_from_dt":27.54},{"city":"Kinsale","state_name":"Virginia","lat":38.04986,"lng":-76.58796,"zip":"22488","miles_from_dt":27.66},{"city":"Bowling Green","state_name":"Virginia","lat":38.04738,"lng":-77.34812,"zip":"22428","miles_from_dt":27.73},{"city":"Toano","state_name":"Virginia","lat":37.3942,"lng":-76.832,"zip":"23168","miles_from_dt":27.8},{"city":"Woods Cross Roads","state_name":"Virginia","lat":37.48354,"lng":-76.62069,"zip":"23190","miles_from_dt":28.01},{"city":"Rollins Fork","state_name":"Virginia","lat":38.18562,"lng":-77.06584,"zip":"22544","miles_from_dt":28.3},{"city":"Locust Hill","state_name":"Virginia","lat":37.59402,"lng":-76.50755,"zip":"23092","miles_from_dt":28.3},{"city":"Ashland","state_name":"Virginia","lat":37.75982,"lng":-77.4826,"zip":"23005","miles_from_dt":28.33},{"city":"Richmond","state_name":"Virginia","lat":37.58265,"lng":-77.41894,"zip":"23222","miles_from_dt":28.42},{"city":"Richmond","state_name":"Virginia","lat":37.58508,"lng":-77.42068,"zip":"23241","miles_from_dt":28.42},{"city":"Ruther Glen","state_name":"Virginia","lat":37.94342,"lng":-77.44565,"zip":"22546","miles_from_dt":28.47},{"city":"Richmond","state_name":"Virginia","lat":37.61486,"lng":-77.44234,"zip":"23227","miles_from_dt":28.57},{"city":"Ruthville","state_name":"Virginia","lat":37.36965,"lng":-77.0391,"zip":"23147","miles_from_dt":28.78},{"city":"Lottsburg","state_name":"Virginia","lat":37.98352,"lng":-76.50323,"zip":"22511","miles_from_dt":28.83},{"city":"Doswell","state_name":"Virginia","lat":37.84765,"lng":-77.48973,"zip":"23047","miles_from_dt":29.01},{"city":"Mount Holly","state_name":"Virginia","lat":38.13575,"lng":-76.66166,"zip":"22524","miles_from_dt":29.46},{"city":"Sandy Point","state_name":"Virginia","lat":38.0653,"lng":-76.55916,"zip":"22577","miles_from_dt":29.55},{"city":"Glen Allen","state_name":"Virginia","lat":37.66202,"lng":-77.48435,"zip":"23058","miles_from_dt":29.6},{"city":"Weems","state_name":"Virginia","lat":37.69398,"lng":-76.43277,"zip":"22576","miles_from_dt":29.83}],"targetCityZipCode":"23023","targetCityState":"Virginia"},"__N_SSG":true}