{"pageProps":{"stateName":"Virginia","cityName":"carrsville","nearbyCities":[{"city":"Zuni","state_name":"Virginia","lat":36.82737,"lng":-76.85662,"zip":"23898","miles_from_dt":6.17},{"city":"Suffolk","state_name":"Virginia","lat":36.63533,"lng":-76.80256,"zip":"23437","miles_from_dt":7.47},{"city":"Franklin","state_name":"Virginia","lat":36.6521,"lng":-76.95776,"zip":"23851","miles_from_dt":8.73},{"city":"Windsor","state_name":"Virginia","lat":36.85197,"lng":-76.72303,"zip":"23487","miles_from_dt":10.26},{"city":"Isle Of Wight","state_name":"Virginia","lat":36.85302,"lng":-76.72141,"zip":"23397","miles_from_dt":10.37},{"city":"Jenkins Bridge","state_name":"Virginia","lat":36.85302,"lng":-76.72141,"zip":"23399","miles_from_dt":10.37},{"city":"Sedley","state_name":"Virginia","lat":36.8291,"lng":-77.02065,"zip":"23878","miles_from_dt":11.67},{"city":"Suffolk","state_name":"Virginia","lat":36.70089,"lng":-76.63725,"zip":"23439","miles_from_dt":11.71},{"city":"Ivor","state_name":"Virginia","lat":36.92012,"lng":-76.86693,"zip":"23866","miles_from_dt":12.59},{"city":"Suffolk","state_name":"Virginia","lat":36.58116,"lng":-76.69749,"zip":"23438","miles_from_dt":13.53},{"city":"Courtland","state_name":"Virginia","lat":36.75816,"lng":-77.08753,"zip":"23837","miles_from_dt":13.64},{"city":"Suffolk","state_name":"Virginia","lat":36.70163,"lng":-76.59074,"zip":"23434","miles_from_dt":14.23},{"city":"Gates","state_name":"North Carolina","lat":36.50453,"lng":-76.77726,"zip":"27937","miles_from_dt":16.55},{"city":"Wakefield","state_name":"Virginia","lat":36.95383,"lng":-76.97802,"zip":"23888","miles_from_dt":16.62},{"city":"Newsoms","state_name":"Virginia","lat":36.60761,"lng":-77.09803,"zip":"23874","miles_from_dt":16.81},{"city":"Suffolk","state_name":"Virginia","lat":36.87099,"lng":-76.55097,"zip":"23432","miles_from_dt":18.58},{"city":"Como","state_name":"North Carolina","lat":36.50275,"lng":-77.01394,"zip":"27818","miles_from_dt":18.84},{"city":"Roduco","state_name":"North Carolina","lat":36.4633,"lng":-76.80259,"zip":"27969","miles_from_dt":19.12},{"city":"Smithfield","state_name":"Virginia","lat":36.98615,"lng":-76.66337,"zip":"23430","miles_from_dt":19.76},{"city":"Corapeake","state_name":"North Carolina","lat":36.51687,"lng":-76.60288,"zip":"27926","miles_from_dt":20.29},{"city":"Smithfield","state_name":"Virginia","lat":36.9837,"lng":-76.61676,"zip":"23431","miles_from_dt":21.04},{"city":"Capron","state_name":"Virginia","lat":36.73393,"lng":-77.22525,"zip":"23829","miles_from_dt":21.22},{"city":"Suffolk","state_name":"Virginia","lat":36.83751,"lng":-76.4803,"zip":"23435","miles_from_dt":21.23},{"city":"Eure","state_name":"North Carolina","lat":36.43026,"lng":-76.85962,"zip":"27935","miles_from_dt":21.28},{"city":"Suffolk","state_name":"Virginia","lat":36.89516,"lng":-76.50873,"zip":"23436","miles_from_dt":21.44},{"city":"Boykins","state_name":"Virginia","lat":36.61491,"lng":-77.20724,"zip":"23827","miles_from_dt":21.96},{"city":"Elberon","state_name":"Virginia","lat":37.05947,"lng":-76.83224,"zip":"23846","miles_from_dt":22.13},{"city":"Rescue","state_name":"Virginia","lat":36.95433,"lng":-76.54589,"zip":"23424","miles_from_dt":22.19},{"city":"Carrollton","state_name":"Virginia","lat":36.95054,"lng":-76.53625,"zip":"23314","miles_from_dt":22.41},{"city":"Suffolk","state_name":"Virginia","lat":36.90763,"lng":-76.49183,"zip":"23433","miles_from_dt":22.68},{"city":"Battery Park","state_name":"Virginia","lat":36.99586,"lng":-76.56993,"zip":"23304","miles_from_dt":23.31},{"city":"Chesapeake","state_name":"Virginia","lat":36.80067,"lng":-76.42189,"zip":"23321","miles_from_dt":23.74},{"city":"Waverly","state_name":"Virginia","lat":37.00755,"lng":-77.11837,"zip":"23890","miles_from_dt":24.02},{"city":"Dendron","state_name":"Virginia","lat":37.08718,"lng":-76.91895,"zip":"23839","miles_from_dt":24.4},{"city":"Winton","state_name":"North Carolina","lat":36.3891,"lng":-76.92816,"zip":"27986","miles_from_dt":24.56},{"city":"Severn","state_name":"North Carolina","lat":36.51883,"lng":-77.19219,"zip":"27877","miles_from_dt":24.63},{"city":"Yale","state_name":"Virginia","lat":36.83399,"lng":-77.28234,"zip":"23897","miles_from_dt":25.25},{"city":"Gatesville","state_name":"North Carolina","lat":36.38422,"lng":-76.71628,"zip":"27938","miles_from_dt":25.43},{"city":"Pendleton","state_name":"North Carolina","lat":36.49264,"lng":-77.18906,"zip":"27862","miles_from_dt":25.65},{"city":"Murfreesboro","state_name":"North Carolina","lat":36.42171,"lng":-77.08432,"zip":"27855","miles_from_dt":25.65},{"city":"Sunbury","state_name":"North Carolina","lat":36.44072,"lng":-76.56243,"zip":"27979","miles_from_dt":25.79},{"city":"Chesapeake","state_name":"Virginia","lat":36.70785,"lng":-76.37949,"zip":"23323","miles_from_dt":25.81},{"city":"Portsmouth","state_name":"Virginia","lat":36.81158,"lng":-76.36986,"zip":"23701","miles_from_dt":26.72},{"city":"Branchville","state_name":"Virginia","lat":36.58693,"lng":-77.28557,"zip":"23828","miles_from_dt":26.72},{"city":"Surry","state_name":"Virginia","lat":37.12546,"lng":-76.7502,"zip":"23883","miles_from_dt":27.17},{"city":"Sussex","state_name":"Virginia","lat":36.91733,"lng":-77.28011,"zip":"23884","miles_from_dt":27.19},{"city":"Drewryville","state_name":"Virginia","lat":36.67032,"lng":-77.3358,"zip":"23844","miles_from_dt":27.77},{"city":"Portsmouth","state_name":"Virginia","lat":36.88039,"lng":-76.37101,"zip":"23703","miles_from_dt":27.93},{"city":"Newport News","state_name":"Virginia","lat":36.97696,"lng":-76.42856,"zip":"23609","miles_from_dt":28.24},{"city":"Portsmouth","state_name":"Virginia","lat":36.83846,"lng":-76.34001,"zip":"23705","miles_from_dt":28.73},{"city":"Cofield","state_name":"North Carolina","lat":36.32118,"lng":-76.84837,"zip":"27922","miles_from_dt":28.78},{"city":"Portsmouth","state_name":"Virginia","lat":36.84255,"lng":-76.34002,"zip":"23707","miles_from_dt":28.8},{"city":"Newport News","state_name":"Virginia","lat":36.98753,"lng":-76.42235,"zip":"23607","miles_from_dt":28.94},{"city":"Portsmouth","state_name":"Virginia","lat":36.80292,"lng":-76.32679,"zip":"23702","miles_from_dt":28.97},{"city":"Waverly","state_name":"Virginia","lat":37.04752,"lng":-77.20367,"zip":"23891","miles_from_dt":29.21},{"city":"Hobbsville","state_name":"North Carolina","lat":36.35901,"lng":-76.59648,"zip":"27946","miles_from_dt":29.55},{"city":"Newport News","state_name":"Virginia","lat":37.01754,"lng":-76.43527,"zip":"23605","miles_from_dt":29.66},{"city":"Newport News","state_name":"Virginia","lat":37.0688,"lng":-76.49493,"zip":"23612","miles_from_dt":29.83},{"city":"Margarettsville","state_name":"North Carolina","lat":36.51716,"lng":-77.30488,"zip":"27853","miles_from_dt":29.87},{"city":"Hampton","state_name":"Virginia","lat":36.99988,"lng":-76.41073,"zip":"23630","miles_from_dt":29.96}],"targetCityZipCode":"23315","targetCityState":"Virginia"},"__N_SSG":true}