{"pageProps":{"stateName":"Virginia","cityName":"clifton-forge","nearbyCities":[{"city":"Iron Gate","state_name":"Virginia","lat":37.79836,"lng":-79.79002,"zip":"24448","miles_from_dt":3.06},{"city":"Selma","state_name":"Virginia","lat":37.80504,"lng":-79.84731,"zip":"24474","miles_from_dt":5.54},{"city":"Glen Wilton","state_name":"Virginia","lat":37.75338,"lng":-79.81662,"zip":"24438","miles_from_dt":6.4},{"city":"Low Moor","state_name":"Virginia","lat":37.79379,"lng":-79.87014,"zip":"24457","miles_from_dt":6.98},{"city":"Eagle Rock","state_name":"Virginia","lat":37.67539,"lng":-79.83639,"zip":"24085","miles_from_dt":11.66},{"city":"Hot Springs","state_name":"Virginia","lat":37.96615,"lng":-79.88013,"zip":"24445","miles_from_dt":11.71},{"city":"Lexington","state_name":"Virginia","lat":37.77883,"lng":-79.53888,"zip":"24450","miles_from_dt":12.15},{"city":"Oriskany","state_name":"Virginia","lat":37.66188,"lng":-79.83496,"zip":"24130","miles_from_dt":12.49},{"city":"Millboro","state_name":"Virginia","lat":38.02237,"lng":-79.65048,"zip":"24460","miles_from_dt":14.34},{"city":"Natural Bridge","state_name":"Virginia","lat":37.66269,"lng":-79.55693,"zip":"24578","miles_from_dt":15.72},{"city":"Bacova","state_name":"Virginia","lat":38.05774,"lng":-79.83096,"zip":"24412","miles_from_dt":16.27},{"city":"Covington","state_name":"Virginia","lat":37.76589,"lng":-80.06927,"zip":"24426","miles_from_dt":17.96},{"city":"Glasgow","state_name":"Virginia","lat":37.6678,"lng":-79.47007,"zip":"24555","miles_from_dt":19.05},{"city":"Rockbridge Baths","state_name":"Virginia","lat":37.9129,"lng":-79.41052,"zip":"24473","miles_from_dt":19.48},{"city":"Goshen","state_name":"Virginia","lat":38.01151,"lng":-79.47359,"zip":"24439","miles_from_dt":19.65},{"city":"Buchanan","state_name":"Virginia","lat":37.5382,"lng":-79.67822,"zip":"24066","miles_from_dt":20.55},{"city":"Natural Bridge Station","state_name":"Virginia","lat":37.58763,"lng":-79.50483,"zip":"24579","miles_from_dt":21.51},{"city":"Warm Springs","state_name":"Virginia","lat":38.1448,"lng":-79.82013,"zip":"24484","miles_from_dt":22.01},{"city":"Fincastle","state_name":"Virginia","lat":37.52633,"lng":-79.88921,"zip":"24090","miles_from_dt":22.29},{"city":"Buena Vista","state_name":"Virginia","lat":37.72892,"lng":-79.35534,"zip":"24416","miles_from_dt":22.78},{"city":"Fairfield","state_name":"Virginia","lat":37.86716,"lng":-79.30663,"zip":"24435","miles_from_dt":24.45},{"city":"Brownsburg","state_name":"Virginia","lat":37.91099,"lng":-79.31126,"zip":"24415","miles_from_dt":24.69},{"city":"White Sulphur Springs","state_name":"West Virginia","lat":37.91189,"lng":-80.19455,"zip":"24986","miles_from_dt":24.88},{"city":"Big Island","state_name":"Virginia","lat":37.55452,"lng":-79.40169,"zip":"24526","miles_from_dt":27},{"city":"Williamsville","state_name":"Virginia","lat":38.20099,"lng":-79.58105,"zip":"24487","miles_from_dt":27.19},{"city":"Villamont","state_name":"Virginia","lat":37.42527,"lng":-79.70855,"zip":"24178","miles_from_dt":28.04},{"city":"Craigsville","state_name":"Virginia","lat":38.076,"lng":-79.34181,"zip":"24430","miles_from_dt":28.05},{"city":"Montvale","state_name":"Virginia","lat":37.4212,"lng":-79.69372,"zip":"24122","miles_from_dt":28.4},{"city":"Vesuvius","state_name":"Virginia","lat":37.81484,"lng":-79.2256,"zip":"24483","miles_from_dt":28.78},{"city":"Middlebrook","state_name":"Virginia","lat":38.02955,"lng":-79.28621,"zip":"24459","miles_from_dt":28.88},{"city":"Deerfield","state_name":"Virginia","lat":38.17639,"lng":-79.43845,"zip":"24432","miles_from_dt":29.34},{"city":"Troutville","state_name":"Virginia","lat":37.42589,"lng":-79.93788,"zip":"24175","miles_from_dt":29.72},{"city":"Raphine","state_name":"Virginia","lat":37.93833,"lng":-79.22194,"zip":"24472","miles_from_dt":29.88}],"targetCityZipCode":"24422","targetCityState":"Virginia"},"__N_SSG":true}