{"pageProps":{"stateName":"Virginia","cityName":"clinchco","nearbyCities":[{"city":"McClure","state_name":"Virginia","lat":37.0803,"lng":-82.37894,"zip":"24269","miles_from_dt":4.94},{"city":"Birchleaf","state_name":"Virginia","lat":37.11957,"lng":-82.22641,"zip":"24220","miles_from_dt":6.13},{"city":"Haysi","state_name":"Virginia","lat":37.22344,"lng":-82.28503,"zip":"24256","miles_from_dt":6.21},{"city":"Clintwood","state_name":"Virginia","lat":37.17047,"lng":-82.44963,"zip":"24228","miles_from_dt":6.68},{"city":"Mavisdale","state_name":"Virginia","lat":37.18299,"lng":-82.21519,"zip":"24627","miles_from_dt":7.13},{"city":"Nora","state_name":"Virginia","lat":37.0302,"lng":-82.33401,"zip":"24272","miles_from_dt":7.73},{"city":"Dante","state_name":"Virginia","lat":37.03939,"lng":-82.26424,"zip":"24237","miles_from_dt":8.07},{"city":"Bee","state_name":"Virginia","lat":37.1014,"lng":-82.17783,"zip":"24217","miles_from_dt":9.06},{"city":"Davenport","state_name":"Virginia","lat":37.1136,"lng":-82.14577,"zip":"24239","miles_from_dt":10.57},{"city":"Ashcamp","state_name":"Kentucky","lat":37.25251,"lng":-82.47772,"zip":"41512","miles_from_dt":10.99},{"city":"Breaks","state_name":"Virginia","lat":37.29498,"lng":-82.26533,"zip":"24607","miles_from_dt":11.19},{"city":"Vansant","state_name":"Virginia","lat":37.1743,"lng":-82.12364,"zip":"24656","miles_from_dt":11.81},{"city":"Elkhorn City","state_name":"Kentucky","lat":37.31644,"lng":-82.40088,"zip":"41522","miles_from_dt":12.57},{"city":"Shelby Gap","state_name":"Kentucky","lat":37.22628,"lng":-82.53694,"zip":"41563","miles_from_dt":12.62},{"city":"Hellier","state_name":"Kentucky","lat":37.27748,"lng":-82.49644,"zip":"41534","miles_from_dt":12.94},{"city":"Coeburn","state_name":"Virginia","lat":36.96928,"lng":-82.45449,"zip":"24230","miles_from_dt":13.66},{"city":"Saint Paul","state_name":"Virginia","lat":36.94155,"lng":-82.34554,"zip":"24283","miles_from_dt":13.85},{"city":"Lookout","state_name":"Kentucky","lat":37.31592,"lng":-82.47079,"zip":"41542","miles_from_dt":14.16},{"city":"Maxie","state_name":"Virginia","lat":37.30347,"lng":-82.17337,"zip":"24628","miles_from_dt":14.21},{"city":"Rockhouse","state_name":"Kentucky","lat":37.32691,"lng":-82.45338,"zip":"41561","miles_from_dt":14.34},{"city":"Belcher","state_name":"Kentucky","lat":37.35282,"lng":-82.34329,"zip":"41513","miles_from_dt":14.53},{"city":"Burdine","state_name":"Kentucky","lat":37.18919,"lng":-82.60026,"zip":"41517","miles_from_dt":15.06},{"city":"Andover","state_name":"Virginia","lat":36.99383,"lng":-82.53593,"zip":"24215","miles_from_dt":15.15},{"city":"Cleveland","state_name":"Virginia","lat":36.97543,"lng":-82.14115,"zip":"24225","miles_from_dt":15.68},{"city":"Wise","state_name":"Virginia","lat":37.00559,"lng":-82.56458,"zip":"24293","miles_from_dt":15.85},{"city":"Pound","state_name":"Virginia","lat":37.10383,"lng":-82.61909,"zip":"24279","miles_from_dt":15.97},{"city":"Dorton","state_name":"Kentucky","lat":37.27655,"lng":-82.58176,"zip":"41520","miles_from_dt":16.52},{"city":"Jenkins","state_name":"Kentucky","lat":37.22221,"lng":-82.61619,"zip":"41537","miles_from_dt":16.53},{"city":"Regina","state_name":"Kentucky","lat":37.37997,"lng":-82.39017,"zip":"41559","miles_from_dt":16.69},{"city":"Big Rock","state_name":"Virginia","lat":37.35607,"lng":-82.1914,"zip":"24603","miles_from_dt":16.71},{"city":"Rowe","state_name":"Virginia","lat":37.13751,"lng":-82.02976,"zip":"24646","miles_from_dt":16.79},{"city":"Mouthcard","state_name":"Kentucky","lat":37.37847,"lng":-82.25372,"zip":"41548","miles_from_dt":16.88},{"city":"Lick Creek","state_name":"Kentucky","lat":37.39013,"lng":-82.32318,"zip":"41540","miles_from_dt":17.11},{"city":"Myra","state_name":"Kentucky","lat":37.2935,"lng":-82.59021,"zip":"41549","miles_from_dt":17.57},{"city":"Jonancy","state_name":"Kentucky","lat":37.30338,"lng":-82.58891,"zip":"41538","miles_from_dt":17.93},{"city":"Grundy","state_name":"Virginia","lat":37.31466,"lng":-82.07181,"zip":"24614","miles_from_dt":18.71},{"city":"Cromona","state_name":"Kentucky","lat":37.18492,"lng":-82.67278,"zip":"41810","miles_from_dt":18.94},{"city":"McRoberts","state_name":"Kentucky","lat":37.21196,"lng":-82.67114,"zip":"41835","miles_from_dt":19.22},{"city":"Shelbiana","state_name":"Kentucky","lat":37.3991,"lng":-82.47052,"zip":"41562","miles_from_dt":19.25},{"city":"Oakwood","state_name":"Virginia","lat":37.2202,"lng":-81.99714,"zip":"24631","miles_from_dt":19.34},{"city":"Keen Mountain","state_name":"Virginia","lat":37.20438,"lng":-81.98706,"zip":"24624","miles_from_dt":19.61},{"city":"Castlewood","state_name":"Virginia","lat":36.86059,"lng":-82.28322,"zip":"24224","miles_from_dt":19.62},{"city":"Steele","state_name":"Kentucky","lat":37.40836,"lng":-82.1922,"zip":"41566","miles_from_dt":19.94},{"city":"Honaker","state_name":"Virginia","lat":37.02291,"lng":-82.00059,"zip":"24260","miles_from_dt":20.17},{"city":"Phyllis","state_name":"Kentucky","lat":37.43919,"lng":-82.32446,"zip":"41554","miles_from_dt":20.49},{"city":"Virgie","state_name":"Kentucky","lat":37.31342,"lng":-82.64368,"zip":"41572","miles_from_dt":20.77},{"city":"Fedscreek","state_name":"Kentucky","lat":37.43345,"lng":-82.23444,"zip":"41524","miles_from_dt":20.82},{"city":"Neon","state_name":"Kentucky","lat":37.19962,"lng":-82.71813,"zip":"41840","miles_from_dt":21.57},{"city":"Jackhorn","state_name":"Kentucky","lat":37.23323,"lng":-82.70854,"zip":"41825","miles_from_dt":21.6},{"city":"Norton","state_name":"Virginia","lat":36.96142,"lng":-82.65632,"zip":"24273","miles_from_dt":21.75},{"city":"Robinson Creek","state_name":"Kentucky","lat":37.39423,"lng":-82.57875,"zip":"41560","miles_from_dt":22},{"city":"Seco","state_name":"Kentucky","lat":37.1744,"lng":-82.73251,"zip":"41849","miles_from_dt":22.12},{"city":"Fords Branch","state_name":"Kentucky","lat":37.43372,"lng":-82.51256,"zip":"41526","miles_from_dt":22.38},{"city":"Lebanon","state_name":"Virginia","lat":36.8671,"lng":-82.10523,"zip":"24266","miles_from_dt":22.8},{"city":"Swords Creek","state_name":"Virginia","lat":37.08303,"lng":-81.92198,"zip":"24649","miles_from_dt":23.11},{"city":"Dungannon","state_name":"Virginia","lat":36.84045,"lng":-82.51598,"zip":"24245","miles_from_dt":23.12},{"city":"Mayking","state_name":"Kentucky","lat":37.1215,"lng":-82.75231,"zip":"41837","miles_from_dt":23.15},{"city":"Weeksbury","state_name":"Kentucky","lat":37.31138,"lng":-82.69881,"zip":"41667","miles_from_dt":23.26},{"city":"Millstone","state_name":"Kentucky","lat":37.19677,"lng":-82.75144,"zip":"41838","miles_from_dt":23.35},{"city":"Deane","state_name":"Kentucky","lat":37.2473,"lng":-82.74445,"zip":"41812","miles_from_dt":23.78},{"city":"Raven","state_name":"Virginia","lat":37.17357,"lng":-81.90461,"zip":"24639","miles_from_dt":23.79},{"city":"Wolford","state_name":"Virginia","lat":37.35254,"lng":-81.99172,"zip":"24658","miles_from_dt":23.79},{"city":"Melvin","state_name":"Kentucky","lat":37.34722,"lng":-82.68166,"zip":"41650","miles_from_dt":23.82},{"city":"Raccoon","state_name":"Kentucky","lat":37.48189,"lng":-82.41548,"zip":"41557","miles_from_dt":23.85},{"city":"Wheelwright","state_name":"Kentucky","lat":37.33375,"lng":-82.71469,"zip":"41669","miles_from_dt":24.81},{"city":"Kimper","state_name":"Kentucky","lat":37.50265,"lng":-82.32231,"zip":"41539","miles_from_dt":24.86},{"city":"Thornton","state_name":"Kentucky","lat":37.18874,"lng":-82.78496,"zip":"41855","miles_from_dt":25.1},{"city":"Beaver","state_name":"Kentucky","lat":37.38986,"lng":-82.66782,"zip":"41604","miles_from_dt":25.11},{"city":"Teaberry","state_name":"Kentucky","lat":37.41341,"lng":-82.63846,"zip":"41660","miles_from_dt":25.13},{"city":"Rosedale","state_name":"Virginia","lat":36.95575,"lng":-81.94167,"zip":"24280","miles_from_dt":25.2},{"city":"Phelps","state_name":"Kentucky","lat":37.48057,"lng":-82.16025,"zip":"41553","miles_from_dt":25.22},{"city":"Eolia","state_name":"Kentucky","lat":37.05637,"lng":-82.7783,"zip":"40826","miles_from_dt":25.25},{"city":"Pikeville","state_name":"Kentucky","lat":37.47966,"lng":-82.51877,"zip":"41502","miles_from_dt":25.4},{"city":"Shortt Gap","state_name":"Virginia","lat":37.15848,"lng":-81.87377,"zip":"24647","miles_from_dt":25.42},{"city":"Pilgrims Knob","state_name":"Virginia","lat":37.27411,"lng":-81.90253,"zip":"24634","miles_from_dt":25.47},{"city":"Ermine","state_name":"Kentucky","lat":37.15821,"lng":-82.79799,"zip":"41815","miles_from_dt":25.64},{"city":"Bypro","state_name":"Kentucky","lat":37.35451,"lng":-82.72233,"zip":"41612","miles_from_dt":25.94},{"city":"Red Ash","state_name":"Virginia","lat":37.10647,"lng":-81.86272,"zip":"24640","miles_from_dt":26.13},{"city":"Bevinsville","state_name":"Kentucky","lat":37.34594,"lng":-82.7375,"zip":"41606","miles_from_dt":26.32},{"city":"Hurley","state_name":"Virginia","lat":37.43335,"lng":-82.01932,"zip":"24620","miles_from_dt":26.52},{"city":"Kite","state_name":"Kentucky","lat":37.2971,"lng":-82.78444,"zip":"41828","miles_from_dt":27.05},{"city":"Pikeville","state_name":"Kentucky","lat":37.50805,"lng":-82.5154,"zip":"41501","miles_from_dt":27.14},{"city":"Doran","state_name":"Virginia","lat":37.09728,"lng":-81.84461,"zip":"24612","miles_from_dt":27.19},{"city":"Whitewood","state_name":"Virginia","lat":37.22363,"lng":-81.84737,"zip":"24657","miles_from_dt":27.42},{"city":"Pinsonfork","state_name":"Kentucky","lat":37.53816,"lng":-82.2589,"zip":"41555","miles_from_dt":27.61},{"city":"Nickelsville","state_name":"Virginia","lat":36.74712,"lng":-82.41714,"zip":"24271","miles_from_dt":27.63},{"city":"Hi Hat","state_name":"Kentucky","lat":37.39772,"lng":-82.73087,"zip":"41636","miles_from_dt":28.09},{"city":"McAndrews","state_name":"Kentucky","lat":37.54837,"lng":-82.28226,"zip":"41543","miles_from_dt":28.15},{"city":"Ransom","state_name":"Kentucky","lat":37.53953,"lng":-82.20819,"zip":"41558","miles_from_dt":28.26},{"city":"Whitesburg","state_name":"Kentucky","lat":37.1454,"lng":-82.84697,"zip":"41858","miles_from_dt":28.33},{"city":"Harold","state_name":"Kentucky","lat":37.48009,"lng":-82.62831,"zip":"41635","miles_from_dt":28.39},{"city":"Grethel","state_name":"Kentucky","lat":37.46801,"lng":-82.65365,"zip":"41631","miles_from_dt":28.55},{"city":"Topmost","state_name":"Kentucky","lat":37.34971,"lng":-82.78929,"zip":"41862","miles_from_dt":28.9},{"city":"Mendota","state_name":"Virginia","lat":36.72846,"lng":-82.24693,"zip":"24270","miles_from_dt":28.94},{"city":"Appalachia","state_name":"Virginia","lat":36.94237,"lng":-82.79571,"zip":"24216","miles_from_dt":29.01},{"city":"McDowell","state_name":"Kentucky","lat":37.43056,"lng":-82.71737,"zip":"41647","miles_from_dt":29.02},{"city":"Richlands","state_name":"Virginia","lat":37.11797,"lng":-81.80802,"zip":"24641","miles_from_dt":29.08},{"city":"Stopover","state_name":"Kentucky","lat":37.50369,"lng":-82.05896,"zip":"41568","miles_from_dt":29.16},{"city":"Paynesville","state_name":"West Virginia","lat":37.35734,"lng":-81.87415,"zip":"24873","miles_from_dt":29.36},{"city":"Stone","state_name":"Kentucky","lat":37.56897,"lng":-82.28621,"zip":"41567","miles_from_dt":29.55},{"city":"Jolo","state_name":"West Virginia","lat":37.37807,"lng":-81.88516,"zip":"24850","miles_from_dt":29.6},{"city":"East Stone Gap","state_name":"Virginia","lat":36.86609,"lng":-82.74395,"zip":"24246","miles_from_dt":29.62}],"targetCityZipCode":"24226","targetCityState":"Virginia"},"__N_SSG":true}