{"pageProps":{"stateName":"Virginia","cityName":"concord","nearbyCities":[{"city":"Spout Spring","state_name":"Virginia","lat":37.32651,"lng":-78.91342,"zip":"24593","miles_from_dt":2.22},{"city":"Lynchburg","state_name":"Virginia","lat":37.36673,"lng":-79.04953,"zip":"24504","miles_from_dt":5.88},{"city":"Rustburg","state_name":"Virginia","lat":37.26408,"lng":-79.09997,"zip":"24588","miles_from_dt":9.22},{"city":"Appomattox","state_name":"Virginia","lat":37.37324,"lng":-78.78591,"zip":"24522","miles_from_dt":9.72},{"city":"Evergreen","state_name":"Virginia","lat":37.32039,"lng":-78.7642,"zip":"23939","miles_from_dt":10.45},{"city":"Lynchburg","state_name":"Virginia","lat":37.35565,"lng":-79.15608,"zip":"24501","miles_from_dt":11.29},{"city":"Lynchburg","state_name":"Virginia","lat":37.35591,"lng":-79.16674,"zip":"24506","miles_from_dt":11.88},{"city":"Lynchburg","state_name":"Virginia","lat":37.41625,"lng":-79.14179,"zip":"24505","miles_from_dt":11.97},{"city":"Madison Heights","state_name":"Virginia","lat":37.46514,"lng":-79.09628,"zip":"24572","miles_from_dt":12.23},{"city":"Lynchburg","state_name":"Virginia","lat":37.35261,"lng":-79.17827,"zip":"24515","miles_from_dt":12.47},{"city":"Red House","state_name":"Virginia","lat":37.195,"lng":-78.80168,"zip":"23963","miles_from_dt":12.48},{"city":"Lynchburg","state_name":"Virginia","lat":37.40369,"lng":-79.18986,"zip":"24513","miles_from_dt":13.98},{"city":"Lynchburg","state_name":"Virginia","lat":37.36583,"lng":-79.21529,"zip":"24514","miles_from_dt":14.63},{"city":"Gladys","state_name":"Virginia","lat":37.13674,"lng":-79.06639,"zip":"24554","miles_from_dt":14.65},{"city":"Lynchburg","state_name":"Virginia","lat":37.35624,"lng":-79.2194,"zip":"24502","miles_from_dt":14.75},{"city":"Naruna","state_name":"Virginia","lat":37.09347,"lng":-78.90219,"zip":"24576","miles_from_dt":16.49},{"city":"Gladstone","state_name":"Virginia","lat":37.54845,"lng":-78.81907,"zip":"24553","miles_from_dt":16.84},{"city":"Pamplin","state_name":"Virginia","lat":37.26848,"lng":-78.65581,"zip":"23958","miles_from_dt":16.93},{"city":"Sweet Briar","state_name":"Virginia","lat":37.55904,"lng":-79.08421,"zip":"24595","miles_from_dt":17.41},{"city":"Phenix","state_name":"Virginia","lat":37.10472,"lng":-78.79654,"zip":"23959","miles_from_dt":17.73},{"city":"Brookneal","state_name":"Virginia","lat":37.07733,"lng":-78.8777,"zip":"24528","miles_from_dt":17.86},{"city":"Lynchburg","state_name":"Virginia","lat":37.45272,"lng":-79.24286,"zip":"24503","miles_from_dt":18.05},{"city":"Evington","state_name":"Virginia","lat":37.23493,"lng":-79.26898,"zip":"24550","miles_from_dt":18.55},{"city":"Altavista","state_name":"Virginia","lat":37.14532,"lng":-79.23258,"zip":"24517","miles_from_dt":19.93},{"city":"Forest","state_name":"Virginia","lat":37.36655,"lng":-79.3268,"zip":"24551","miles_from_dt":20.71},{"city":"Cullen","state_name":"Virginia","lat":37.17613,"lng":-78.62373,"zip":"23934","miles_from_dt":21.03},{"city":"Long Island","state_name":"Virginia","lat":37.0463,"lng":-79.12129,"zip":"24569","miles_from_dt":21.58},{"city":"Prospect","state_name":"Virginia","lat":37.31531,"lng":-78.5579,"zip":"23960","miles_from_dt":21.82},{"city":"Clifford","state_name":"Virginia","lat":37.63588,"lng":-79.06243,"zip":"24533","miles_from_dt":21.99},{"city":"Amherst","state_name":"Virginia","lat":37.63672,"lng":-79.09539,"zip":"24521","miles_from_dt":22.6},{"city":"Coleman Falls","state_name":"Virginia","lat":37.48996,"lng":-79.32097,"zip":"24536","miles_from_dt":23.05},{"city":"Monroe","state_name":"Virginia","lat":37.57589,"lng":-79.24714,"zip":"24574","miles_from_dt":23.45},{"city":"Charlotte Court House","state_name":"Virginia","lat":37.09316,"lng":-78.64627,"zip":"23923","miles_from_dt":23.5},{"city":"Norwood","state_name":"Virginia","lat":37.65692,"lng":-78.8098,"zip":"24581","miles_from_dt":23.95},{"city":"Wingina","state_name":"Virginia","lat":37.63289,"lng":-78.72452,"zip":"24599","miles_from_dt":24.45},{"city":"Arrington","state_name":"Virginia","lat":37.68621,"lng":-78.92511,"zip":"22922","miles_from_dt":24.68},{"city":"Goode","state_name":"Virginia","lat":37.38093,"lng":-79.4021,"zip":"24556","miles_from_dt":24.94},{"city":"Hurt","state_name":"Virginia","lat":37.06106,"lng":-79.27385,"zip":"24563","miles_from_dt":25.57},{"city":"Buckingham","state_name":"Virginia","lat":37.59143,"lng":-78.61413,"zip":"23921","miles_from_dt":26},{"city":"Lowry","state_name":"Virginia","lat":37.3486,"lng":-79.4272,"zip":"24570","miles_from_dt":26.11},{"city":"Piney River","state_name":"Virginia","lat":37.71722,"lng":-78.98861,"zip":"22964","miles_from_dt":26.84},{"city":"Lynch Station","state_name":"Virginia","lat":37.13671,"lng":-79.37983,"zip":"24571","miles_from_dt":26.98},{"city":"Nathalie","state_name":"Virginia","lat":36.93762,"lng":-78.97553,"zip":"24577","miles_from_dt":27.02},{"city":"Hampden Sydney","state_name":"Virginia","lat":37.24181,"lng":-78.46041,"zip":"23943","miles_from_dt":27.84},{"city":"Big Island","state_name":"Virginia","lat":37.55452,"lng":-79.40169,"zip":"24526","miles_from_dt":29.13},{"city":"Dillwyn","state_name":"Virginia","lat":37.52494,"lng":-78.4819,"zip":"23936","miles_from_dt":29.25},{"city":"Farmville","state_name":"Virginia","lat":37.32309,"lng":-78.41186,"zip":"23901","miles_from_dt":29.84}],"targetCityZipCode":"24538","targetCityState":"Virginia"},"__N_SSG":true}