{"pageProps":{"stateName":"Virginia","cityName":"dublin","nearbyCities":[{"city":"Pulaski","state_name":"Virginia","lat":37.06319,"lng":-80.79735,"zip":"24301","miles_from_dt":3.57},{"city":"Newbern","state_name":"Virginia","lat":37.09119,"lng":-80.65566,"zip":"24126","miles_from_dt":7.64},{"city":"Pearisburg","state_name":"Virginia","lat":37.24595,"lng":-80.77901,"zip":"24134","miles_from_dt":9.08},{"city":"Staffordsville","state_name":"Virginia","lat":37.24718,"lng":-80.7345,"zip":"24167","miles_from_dt":9.65},{"city":"Draper","state_name":"Virginia","lat":36.97461,"lng":-80.78836,"zip":"24324","miles_from_dt":9.66},{"city":"Parrott","state_name":"Virginia","lat":37.20534,"lng":-80.64707,"zip":"24132","miles_from_dt":10.1},{"city":"Belspring","state_name":"Virginia","lat":37.18257,"lng":-80.61637,"zip":"24058","miles_from_dt":10.71},{"city":"New River","state_name":"Virginia","lat":37.13947,"lng":-80.5918,"zip":"24129","miles_from_dt":11.12},{"city":"Radford","state_name":"Virginia","lat":37.12589,"lng":-80.57524,"zip":"24143","miles_from_dt":11.93},{"city":"Radford","state_name":"Virginia","lat":37.10105,"lng":-80.56677,"zip":"24141","miles_from_dt":12.41},{"city":"Hiwassee","state_name":"Virginia","lat":36.95958,"lng":-80.65598,"zip":"24347","miles_from_dt":13.04},{"city":"Radford","state_name":"Virginia","lat":37.13833,"lng":-80.55084,"zip":"24142","miles_from_dt":13.35},{"city":"Max Meadows","state_name":"Virginia","lat":36.93917,"lng":-80.9023,"zip":"24360","miles_from_dt":13.58},{"city":"Eggleston","state_name":"Virginia","lat":37.27268,"lng":-80.63585,"zip":"24086","miles_from_dt":13.85},{"city":"Barren Springs","state_name":"Virginia","lat":36.9105,"lng":-80.79805,"zip":"24313","miles_from_dt":14.09},{"city":"Narrows","state_name":"Virginia","lat":37.30996,"lng":-80.86774,"zip":"24124","miles_from_dt":14.12},{"city":"Bland","state_name":"Virginia","lat":37.1393,"lng":-81.0534,"zip":"24315","miles_from_dt":14.59},{"city":"Kellysville","state_name":"West Virginia","lat":37.3417,"lng":-80.92781,"zip":"24732","miles_from_dt":17.38},{"city":"Pembroke","state_name":"Virginia","lat":37.31927,"lng":-80.60686,"zip":"24136","miles_from_dt":17.38},{"city":"Indian Valley","state_name":"Virginia","lat":36.90278,"lng":-80.60127,"zip":"24105","miles_from_dt":17.99},{"city":"Glen Lyn","state_name":"Virginia","lat":37.38784,"lng":-80.85657,"zip":"24093","miles_from_dt":19.18},{"city":"Rich Creek","state_name":"Virginia","lat":37.40178,"lng":-80.82815,"zip":"24147","miles_from_dt":19.91},{"city":"Austinville","state_name":"Virginia","lat":36.83117,"lng":-80.86897,"zip":"24312","miles_from_dt":20.02},{"city":"Rocky Gap","state_name":"Virginia","lat":37.26426,"lng":-81.10315,"zip":"24366","miles_from_dt":20.08},{"city":"Christiansburg","state_name":"Virginia","lat":37.13053,"lng":-80.4225,"zip":"24073","miles_from_dt":20.37},{"city":"Wytheville","state_name":"Virginia","lat":36.95702,"lng":-81.10652,"zip":"24382","miles_from_dt":20.56},{"city":"Riner","state_name":"Virginia","lat":37.02277,"lng":-80.43424,"zip":"24149","miles_from_dt":20.7},{"city":"Princeton","state_name":"West Virginia","lat":37.36784,"lng":-80.9949,"zip":"24739","miles_from_dt":20.77},{"city":"Blacksburg","state_name":"Virginia","lat":37.22539,"lng":-80.42658,"zip":"24061","miles_from_dt":21.51},{"city":"Christiansburg","state_name":"Virginia","lat":37.14246,"lng":-80.40079,"zip":"24068","miles_from_dt":21.62},{"city":"Blacksburg","state_name":"Virginia","lat":37.22844,"lng":-80.41562,"zip":"24062","miles_from_dt":22.14},{"city":"Blacksburg","state_name":"Virginia","lat":37.22884,"lng":-80.41576,"zip":"24063","miles_from_dt":22.15},{"city":"Peterstown","state_name":"West Virginia","lat":37.43743,"lng":-80.77617,"zip":"24963","miles_from_dt":22.27},{"city":"McCoy","state_name":"Virginia","lat":37.25889,"lng":-80.42978,"zip":"24111","miles_from_dt":22.27},{"city":"Ripplemead","state_name":"Virginia","lat":37.40229,"lng":-80.59694,"zip":"24150","miles_from_dt":22.53},{"city":"Blacksburg","state_name":"Virginia","lat":37.25772,"lng":-80.41961,"zip":"24060","miles_from_dt":22.74},{"city":"Bastian","state_name":"Virginia","lat":37.17166,"lng":-81.20728,"zip":"24314","miles_from_dt":23.32},{"city":"Dugspur","state_name":"Virginia","lat":36.80918,"lng":-80.60608,"zip":"24325","miles_from_dt":23.42},{"city":"Newport","state_name":"Virginia","lat":37.3426,"lng":-80.47196,"zip":"24128","miles_from_dt":23.59},{"city":"Willis","state_name":"Virginia","lat":36.85672,"lng":-80.50183,"zip":"24380","miles_from_dt":23.92},{"city":"Ivanhoe","state_name":"Virginia","lat":36.81109,"lng":-81.01757,"zip":"24350","miles_from_dt":24.41},{"city":"Hillsville","state_name":"Virginia","lat":36.76612,"lng":-80.70045,"zip":"24343","miles_from_dt":24.55},{"city":"Bluefield","state_name":"West Virginia","lat":37.29929,"lng":-81.2065,"zip":"24701","miles_from_dt":26.22},{"city":"Princeton","state_name":"West Virginia","lat":37.4042,"lng":-81.10205,"zip":"24740","miles_from_dt":26.32},{"city":"Pilot","state_name":"Virginia","lat":37.05052,"lng":-80.31684,"zip":"24138","miles_from_dt":26.56},{"city":"Lindside","state_name":"West Virginia","lat":37.48358,"lng":-80.63103,"zip":"24951","miles_from_dt":26.92},{"city":"Woodlawn","state_name":"Virginia","lat":36.72453,"lng":-80.83924,"zip":"24381","miles_from_dt":27.04},{"city":"Lerona","state_name":"West Virginia","lat":37.48001,"lng":-80.97821,"zip":"25971","miles_from_dt":27.23},{"city":"Athens","state_name":"West Virginia","lat":37.46903,"lng":-81.02029,"zip":"24712","miles_from_dt":27.51},{"city":"Kegley","state_name":"West Virginia","lat":37.39733,"lng":-81.15162,"zip":"24731","miles_from_dt":27.85},{"city":"Ballard","state_name":"West Virginia","lat":37.51793,"lng":-80.75461,"zip":"24918","miles_from_dt":27.88},{"city":"Cripple Creek","state_name":"Virginia","lat":36.80534,"lng":-81.1195,"zip":"24322","miles_from_dt":28.03},{"city":"Pipestem","state_name":"West Virginia","lat":37.5126,"lng":-80.91736,"zip":"25979","miles_from_dt":28.31},{"city":"Crockett","state_name":"Virginia","lat":36.86513,"lng":-81.1997,"zip":"24323","miles_from_dt":28.42},{"city":"Floyd","state_name":"Virginia","lat":36.92131,"lng":-80.32264,"zip":"24091","miles_from_dt":29.12},{"city":"Shawsville","state_name":"Virginia","lat":37.13735,"lng":-80.25828,"zip":"24162","miles_from_dt":29.45},{"city":"Spanishburg","state_name":"West Virginia","lat":37.47147,"lng":-81.09966,"zip":"25922","miles_from_dt":29.91},{"city":"Fries","state_name":"Virginia","lat":36.72375,"lng":-81.02471,"zip":"24330","miles_from_dt":29.91},{"city":"Greenville","state_name":"West Virginia","lat":37.54113,"lng":-80.68795,"zip":"24945","miles_from_dt":29.95}],"targetCityZipCode":"24084","targetCityState":"Virginia"},"__N_SSG":true}