{"pageProps":{"stateName":"Virginia","cityName":"dunnsville","nearbyCities":[{"city":"Center Cross","state_name":"Virginia","lat":37.7764,"lng":-76.8156,"zip":"22437","miles_from_dt":4.53},{"city":"Millers Tavern","state_name":"Virginia","lat":37.82909,"lng":-76.94601,"zip":"23115","miles_from_dt":5.26},{"city":"Bruington","state_name":"Virginia","lat":37.78293,"lng":-76.96586,"zip":"23023","miles_from_dt":7.3},{"city":"Tappahannock","state_name":"Virginia","lat":37.91289,"lng":-76.96196,"zip":"22560","miles_from_dt":8.09},{"city":"Laneview","state_name":"Virginia","lat":37.76346,"lng":-76.72675,"zip":"22504","miles_from_dt":8.41},{"city":"Sharps","state_name":"Virginia","lat":37.82929,"lng":-76.69256,"zip":"22548","miles_from_dt":8.64},{"city":"King And Queen Court House","state_name":"Virginia","lat":37.70623,"lng":-76.84205,"zip":"23085","miles_from_dt":8.96},{"city":"Stevensville","state_name":"Virginia","lat":37.72152,"lng":-76.93037,"zip":"23161","miles_from_dt":9.03},{"city":"Warsaw","state_name":"Virginia","lat":37.97552,"lng":-76.77495,"zip":"22572","miles_from_dt":10.47},{"city":"Walkerton","state_name":"Virginia","lat":37.73088,"lng":-77.00295,"zip":"23177","miles_from_dt":11.06},{"city":"Saint Stephens Church","state_name":"Virginia","lat":37.84262,"lng":-77.06223,"zip":"23148","miles_from_dt":11.6},{"city":"Jamaica","state_name":"Virginia","lat":37.7248,"lng":-76.68941,"zip":"23079","miles_from_dt":11.68},{"city":"Morattico","state_name":"Virginia","lat":37.78866,"lng":-76.63003,"zip":"22523","miles_from_dt":12.49},{"city":"Haynesville","state_name":"Virginia","lat":37.95897,"lng":-76.67257,"zip":"22472","miles_from_dt":12.9},{"city":"Little Plymouth","state_name":"Virginia","lat":37.64647,"lng":-76.80167,"zip":"23091","miles_from_dt":13.34},{"city":"Farnham","state_name":"Virginia","lat":37.87612,"lng":-76.60692,"zip":"22460","miles_from_dt":13.59},{"city":"Mascot","state_name":"Virginia","lat":37.65523,"lng":-76.73015,"zip":"23108","miles_from_dt":14.1},{"city":"Oldhams","state_name":"Virginia","lat":38.01036,"lng":-76.67942,"zip":"22529","miles_from_dt":15.23},{"city":"Church View","state_name":"Virginia","lat":37.65552,"lng":-76.68199,"zip":"23032","miles_from_dt":15.49},{"city":"Village","state_name":"Virginia","lat":37.9484,"lng":-76.60462,"zip":"22570","miles_from_dt":15.51},{"city":"Water View","state_name":"Virginia","lat":37.69977,"lng":-76.62045,"zip":"23180","miles_from_dt":15.7},{"city":"Champlain","state_name":"Virginia","lat":38.03788,"lng":-76.99971,"zip":"22438","miles_from_dt":16.14},{"city":"King William","state_name":"Virginia","lat":37.66296,"lng":-77.05394,"zip":"23086","miles_from_dt":16.33},{"city":"West Point","state_name":"Virginia","lat":37.59809,"lng":-76.889,"zip":"23181","miles_from_dt":16.54},{"city":"Nuttsville","state_name":"Virginia","lat":37.79008,"lng":-76.55182,"zip":"22528","miles_from_dt":16.64},{"city":"Newtown","state_name":"Virginia","lat":37.92285,"lng":-77.1448,"zip":"23126","miles_from_dt":17.18},{"city":"Urbanna","state_name":"Virginia","lat":37.65343,"lng":-76.62407,"zip":"23175","miles_from_dt":17.66},{"city":"Callao","state_name":"Virginia","lat":37.97216,"lng":-76.57288,"zip":"22435","miles_from_dt":17.83},{"city":"Mattaponi","state_name":"Virginia","lat":37.58338,"lng":-76.76578,"zip":"23110","miles_from_dt":18.03},{"city":"Hustle","state_name":"Virginia","lat":38.03807,"lng":-77.06872,"zip":"22476","miles_from_dt":18.35},{"city":"Aylett","state_name":"Virginia","lat":37.81038,"lng":-77.18717,"zip":"23009","miles_from_dt":18.51},{"city":"Lively","state_name":"Virginia","lat":37.77585,"lng":-76.51487,"zip":"22507","miles_from_dt":18.82},{"city":"Mollusk","state_name":"Virginia","lat":37.77585,"lng":-76.51487,"zip":"22517","miles_from_dt":18.82},{"city":"Merry Point","state_name":"Virginia","lat":37.77585,"lng":-76.51487,"zip":"22513","miles_from_dt":18.82},{"city":"Caret","state_name":"Virginia","lat":38.04698,"lng":-77.07471,"zip":"22436","miles_from_dt":19.03},{"city":"Hague","state_name":"Virginia","lat":38.0667,"lng":-76.64749,"zip":"22469","miles_from_dt":19.39},{"city":"Montross","state_name":"Virginia","lat":38.11651,"lng":-76.80634,"zip":"22520","miles_from_dt":19.5},{"city":"Lancaster","state_name":"Virginia","lat":37.7624,"lng":-76.50432,"zip":"22503","miles_from_dt":19.6},{"city":"Zacata","state_name":"Virginia","lat":38.1197,"lng":-76.785,"zip":"22581","miles_from_dt":19.89},{"city":"Kinsale","state_name":"Virginia","lat":38.04986,"lng":-76.58796,"zip":"22488","miles_from_dt":20.56},{"city":"Manquin","state_name":"Virginia","lat":37.71524,"lng":-77.2062,"zip":"23106","miles_from_dt":21.19},{"city":"Stratford","state_name":"Virginia","lat":38.14647,"lng":-76.84229,"zip":"22558","miles_from_dt":21.42},{"city":"Lottsburg","state_name":"Virginia","lat":37.98352,"lng":-76.50323,"zip":"22511","miles_from_dt":21.52},{"city":"Loretto","state_name":"Virginia","lat":38.10642,"lng":-77.06669,"zip":"22509","miles_from_dt":22.08},{"city":"Sandy Point","state_name":"Virginia","lat":38.0653,"lng":-76.55916,"zip":"22577","miles_from_dt":22.43},{"city":"Saluda","state_name":"Virginia","lat":37.56794,"lng":-76.61599,"zip":"23149","miles_from_dt":22.51},{"city":"New Kent","state_name":"Virginia","lat":37.55271,"lng":-77.05949,"zip":"23124","miles_from_dt":22.65},{"city":"Shacklefords","state_name":"Virginia","lat":37.5244,"lng":-76.71106,"zip":"23156","miles_from_dt":22.8},{"city":"Mount Holly","state_name":"Virginia","lat":38.13575,"lng":-76.66166,"zip":"22524","miles_from_dt":23.1},{"city":"Sparta","state_name":"Virginia","lat":37.9913,"lng":-77.22889,"zip":"22552","miles_from_dt":23.29},{"city":"Milford","state_name":"Virginia","lat":37.9724,"lng":-77.24471,"zip":"22514","miles_from_dt":23.52},{"city":"Heathsville","state_name":"Virginia","lat":37.88316,"lng":-76.41386,"zip":"22473","miles_from_dt":24.09},{"city":"Coles Point","state_name":"Virginia","lat":38.14623,"lng":-76.63382,"zip":"22442","miles_from_dt":24.44},{"city":"Weems","state_name":"Virginia","lat":37.69398,"lng":-76.43277,"zip":"22576","miles_from_dt":24.87},{"city":"Barhamsville","state_name":"Virginia","lat":37.47562,"lng":-76.80691,"zip":"23011","miles_from_dt":24.97},{"city":"Lanexa","state_name":"Virginia","lat":37.47593,"lng":-76.91212,"zip":"23089","miles_from_dt":25.06},{"city":"Colonial Beach","state_name":"Virginia","lat":38.18078,"lng":-76.99776,"zip":"22443","miles_from_dt":25.1},{"city":"Locust Hill","state_name":"Virginia","lat":37.59402,"lng":-76.50755,"zip":"23092","miles_from_dt":25.12},{"city":"Studley","state_name":"Virginia","lat":37.67531,"lng":-77.29021,"zip":"23162","miles_from_dt":26.51},{"city":"Irvington","state_name":"Virginia","lat":37.66631,"lng":-76.41498,"zip":"22480","miles_from_dt":26.56},{"city":"Hanover","state_name":"Virginia","lat":37.76924,"lng":-77.32874,"zip":"23069","miles_from_dt":26.58},{"city":"Mechanicsville","state_name":"Virginia","lat":37.6112,"lng":-77.24697,"zip":"23111","miles_from_dt":26.69},{"city":"Rollins Fork","state_name":"Virginia","lat":38.18562,"lng":-77.06584,"zip":"22544","miles_from_dt":26.83},{"city":"Edwardsville","state_name":"Virginia","lat":37.90854,"lng":-76.36714,"zip":"22456","miles_from_dt":26.89},{"city":"Quinton","state_name":"Virginia","lat":37.53042,"lng":-77.15791,"zip":"23141","miles_from_dt":26.99},{"city":"Wicomico Church","state_name":"Virginia","lat":37.78895,"lng":-76.36013,"zip":"22579","miles_from_dt":27.02},{"city":"Topping","state_name":"Virginia","lat":37.58945,"lng":-76.46225,"zip":"23169","miles_from_dt":27.22},{"city":"Port Royal","state_name":"Virginia","lat":38.12314,"lng":-77.19619,"zip":"22535","miles_from_dt":27.36},{"city":"Woods Cross Roads","state_name":"Virginia","lat":37.48354,"lng":-76.62069,"zip":"23190","miles_from_dt":27.37},{"city":"Christchurch","state_name":"Virginia","lat":37.59774,"lng":-76.45003,"zip":"23031","miles_from_dt":27.4},{"city":"Burgess","state_name":"Virginia","lat":37.8637,"lng":-76.35043,"zip":"22432","miles_from_dt":27.4},{"city":"Coltons Point","state_name":"Maryland","lat":38.23256,"lng":-76.76404,"zip":"20626","miles_from_dt":27.75},{"city":"Piney Point","state_name":"Maryland","lat":38.13307,"lng":-76.50019,"zip":"20674","miles_from_dt":28.02},{"city":"Kilmarnock","state_name":"Virginia","lat":37.73723,"lng":-76.35245,"zip":"22482","miles_from_dt":28.09},{"city":"Tall Timbers","state_name":"Maryland","lat":38.15916,"lng":-76.52631,"zip":"20690","miles_from_dt":28.45},{"city":"Bowling Green","state_name":"Virginia","lat":38.07177,"lng":-77.28624,"zip":"22427","miles_from_dt":28.83},{"city":"Mechanicsville","state_name":"Virginia","lat":37.67152,"lng":-77.33458,"zip":"23116","miles_from_dt":28.84},{"city":"Cobb Island","state_name":"Maryland","lat":38.26212,"lng":-76.84877,"zip":"20625","miles_from_dt":29.39},{"city":"Abell","state_name":"Maryland","lat":38.25412,"lng":-76.73878,"zip":"20606","miles_from_dt":29.47},{"city":"Providence Forge","state_name":"Virginia","lat":37.43852,"lng":-77.04818,"zip":"23140","miles_from_dt":29.48},{"city":"Mount Victoria","state_name":"Maryland","lat":38.26474,"lng":-76.84473,"zip":"20661","miles_from_dt":29.57},{"city":"White Stone","state_name":"Virginia","lat":37.65063,"lng":-76.36268,"zip":"22578","miles_from_dt":29.61},{"city":"Hartfield","state_name":"Virginia","lat":37.54326,"lng":-76.45228,"zip":"23071","miles_from_dt":29.72},{"city":"Wake","state_name":"Virginia","lat":37.56934,"lng":-76.41991,"zip":"23176","miles_from_dt":29.91}],"targetCityZipCode":"22454","targetCityState":"Virginia"},"__N_SSG":true}