{"pageProps":{"stateName":"Virginia","cityName":"fork-union","nearbyCities":[{"city":"Bremo Bluff","state_name":"Virginia","lat":37.7353,"lng":-78.26432,"zip":"23022","miles_from_dt":3.5},{"city":"Columbia","state_name":"Virginia","lat":37.75627,"lng":-78.14552,"zip":"23038","miles_from_dt":4.12},{"city":"Palmyra","state_name":"Virginia","lat":37.84793,"lng":-78.28524,"zip":"22963","miles_from_dt":6.46},{"city":"New Canton","state_name":"Virginia","lat":37.65238,"lng":-78.3031,"zip":"23123","miles_from_dt":9.38},{"city":"Cartersville","state_name":"Virginia","lat":37.64551,"lng":-78.13183,"zip":"23027","miles_from_dt":9.85},{"city":"Kents Store","state_name":"Virginia","lat":37.8864,"lng":-78.11162,"zip":"23084","miles_from_dt":9.9},{"city":"Hadensville","state_name":"Virginia","lat":37.81371,"lng":-78.01301,"zip":"23067","miles_from_dt":11.63},{"city":"Arvonia","state_name":"Virginia","lat":37.68307,"lng":-78.40567,"zip":"23004","miles_from_dt":11.9},{"city":"Goochland","state_name":"Virginia","lat":37.71694,"lng":-77.99882,"zip":"23063","miles_from_dt":12.59},{"city":"Troy","state_name":"Virginia","lat":37.96207,"lng":-78.2753,"zip":"22974","miles_from_dt":13.57},{"city":"Scottsville","state_name":"Virginia","lat":37.79353,"lng":-78.47767,"zip":"24590","miles_from_dt":14.27},{"city":"Sandy Hook","state_name":"Virginia","lat":37.77641,"lng":-77.95719,"zip":"23153","miles_from_dt":14.31},{"city":"Gum Spring","state_name":"Virginia","lat":37.8016,"lng":-77.92979,"zip":"23065","miles_from_dt":15.95},{"city":"Cumberland","state_name":"Virginia","lat":37.51017,"lng":-78.24919,"zip":"23040","miles_from_dt":18.04},{"city":"Charlottesville","state_name":"Virginia","lat":37.95566,"lng":-78.46883,"zip":"22902","miles_from_dt":18.71},{"city":"Louisa","state_name":"Virginia","lat":38.00153,"lng":-78.03595,"zip":"23093","miles_from_dt":18.8},{"city":"Beaumont","state_name":"Virginia","lat":37.67773,"lng":-77.89517,"zip":"23014","miles_from_dt":18.84},{"city":"Keene","state_name":"Virginia","lat":37.84789,"lng":-78.56053,"zip":"22946","miles_from_dt":19.46},{"city":"Charlottesville","state_name":"Virginia","lat":37.95245,"lng":-78.49291,"zip":"22907","miles_from_dt":19.56},{"city":"Keswick","state_name":"Virginia","lat":38.04326,"lng":-78.32624,"zip":"22947","miles_from_dt":19.7},{"city":"Trevilians","state_name":"Virginia","lat":38.05374,"lng":-78.07248,"zip":"23170","miles_from_dt":21.1},{"city":"Maidens","state_name":"Virginia","lat":37.71053,"lng":-77.83325,"zip":"23102","miles_from_dt":21.5},{"city":"Esmont","state_name":"Virginia","lat":37.81297,"lng":-78.60891,"zip":"22937","miles_from_dt":21.57},{"city":"Powhatan","state_name":"Virginia","lat":37.54999,"lng":-77.93507,"zip":"23139","miles_from_dt":21.75},{"city":"Dillwyn","state_name":"Virginia","lat":37.52494,"lng":-78.4819,"zip":"23936","miles_from_dt":22.26},{"city":"Howardsville","state_name":"Virginia","lat":37.70577,"lng":-78.62241,"zip":"24562","miles_from_dt":22.57},{"city":"Charlottesville","state_name":"Virginia","lat":38.03018,"lng":-78.47555,"zip":"22906","miles_from_dt":22.76},{"city":"Charlottesville","state_name":"Virginia","lat":38.02319,"lng":-78.48987,"zip":"22905","miles_from_dt":22.88},{"city":"State Farm","state_name":"Virginia","lat":37.62757,"lng":-77.84028,"zip":"23160","miles_from_dt":22.95},{"city":"Gordonsville","state_name":"Virginia","lat":38.10397,"lng":-78.19684,"zip":"22942","miles_from_dt":23.02},{"city":"Charlottesville","state_name":"Virginia","lat":38.04321,"lng":-78.47404,"zip":"22909","miles_from_dt":23.42},{"city":"Charlottesville","state_name":"Virginia","lat":38.03103,"lng":-78.49639,"zip":"22908","miles_from_dt":23.52},{"city":"Mineral","state_name":"Virginia","lat":37.97736,"lng":-77.87365,"zip":"23117","miles_from_dt":23.64},{"city":"Crozier","state_name":"Virginia","lat":37.65503,"lng":-77.80596,"zip":"23039","miles_from_dt":23.97},{"city":"Charlottesville","state_name":"Virginia","lat":38.03492,"lng":-78.51161,"zip":"22904","miles_from_dt":24.27},{"city":"Oilville","state_name":"Virginia","lat":37.705,"lng":-77.78261,"zip":"23129","miles_from_dt":24.3},{"city":"Charlottesville","state_name":"Virginia","lat":38.09522,"lng":-78.4078,"zip":"22911","miles_from_dt":24.66},{"city":"Buckingham","state_name":"Virginia","lat":37.59143,"lng":-78.61413,"zip":"23921","miles_from_dt":24.96},{"city":"Schuyler","state_name":"Virginia","lat":37.79699,"lng":-78.69367,"zip":"22969","miles_from_dt":26.07},{"city":"North Garden","state_name":"Virginia","lat":37.93758,"lng":-78.64794,"zip":"22959","miles_from_dt":26.15},{"city":"Bumpass","state_name":"Virginia","lat":37.92448,"lng":-77.77554,"zip":"23024","miles_from_dt":26.45},{"city":"Charlottesville","state_name":"Virginia","lat":38.01239,"lng":-78.60159,"zip":"22903","miles_from_dt":26.77},{"city":"Charlottesville","state_name":"Virginia","lat":38.02167,"lng":-78.59871,"zip":"22910","miles_from_dt":27.05},{"city":"Rockville","state_name":"Virginia","lat":37.7273,"lng":-77.70928,"zip":"23146","miles_from_dt":28.05},{"city":"Manakin Sabot","state_name":"Virginia","lat":37.6506,"lng":-77.72754,"zip":"23103","miles_from_dt":28.15},{"city":"Ivy","state_name":"Virginia","lat":38.05725,"lng":-78.59772,"zip":"22945","miles_from_dt":28.64},{"city":"Charlottesville","state_name":"Virginia","lat":38.08874,"lng":-78.55569,"zip":"22901","miles_from_dt":28.65},{"city":"Covesville","state_name":"Virginia","lat":37.90374,"lng":-78.71696,"zip":"22931","miles_from_dt":28.77},{"city":"Barboursville","state_name":"Virginia","lat":38.18671,"lng":-78.32405,"zip":"22923","miles_from_dt":29.27},{"city":"Wingina","state_name":"Virginia","lat":37.63289,"lng":-78.72452,"zip":"24599","miles_from_dt":29.31},{"city":"Montpelier","state_name":"Virginia","lat":37.81732,"lng":-77.68209,"zip":"23192","miles_from_dt":29.53}],"targetCityZipCode":"23055","targetCityState":"Virginia"},"__N_SSG":true}