{"pageProps":{"stateName":"Virginia","cityName":"henrico","nearbyCities":[{"city":"Richmond","state_name":"Virginia","lat":37.50517,"lng":-77.32098,"zip":"23250","miles_from_dt":3.06},{"city":"Richmond","state_name":"Virginia","lat":37.55595,"lng":-77.37927,"zip":"23223","miles_from_dt":3.51},{"city":"Sandston","state_name":"Virginia","lat":37.50718,"lng":-77.25402,"zip":"23150","miles_from_dt":4.47},{"city":"Mechanicsville","state_name":"Virginia","lat":37.6112,"lng":-77.24697,"zip":"23111","miles_from_dt":5.7},{"city":"Richmond","state_name":"Virginia","lat":37.58265,"lng":-77.41894,"zip":"23222","miles_from_dt":6.1},{"city":"Richmond","state_name":"Virginia","lat":37.5416,"lng":-77.42954,"zip":"23298","miles_from_dt":6.26},{"city":"Richmond","state_name":"Virginia","lat":37.58508,"lng":-77.42068,"zip":"23241","miles_from_dt":6.26},{"city":"Richmond","state_name":"Virginia","lat":37.54226,"lng":-77.43402,"zip":"23289","miles_from_dt":6.5},{"city":"Richmond","state_name":"Virginia","lat":37.54076,"lng":-77.43484,"zip":"23219","miles_from_dt":6.56},{"city":"Richmond","state_name":"Virginia","lat":37.53833,"lng":-77.43582,"zip":"23285","miles_from_dt":6.63},{"city":"Richmond","state_name":"Virginia","lat":37.53827,"lng":-77.43911,"zip":"23218","miles_from_dt":6.81},{"city":"Richmond","state_name":"Virginia","lat":37.55867,"lng":-77.44303,"zip":"23278","miles_from_dt":7.01},{"city":"Richmond","state_name":"Virginia","lat":37.54258,"lng":-77.44472,"zip":"23292","miles_from_dt":7.09},{"city":"Richmond","state_name":"Virginia","lat":37.54471,"lng":-77.44518,"zip":"23291","miles_from_dt":7.11},{"city":"Richmond","state_name":"Virginia","lat":37.54274,"lng":-77.44657,"zip":"23274","miles_from_dt":7.19},{"city":"Richmond","state_name":"Virginia","lat":37.55974,"lng":-77.44674,"zip":"23276","miles_from_dt":7.22},{"city":"Richmond","state_name":"Virginia","lat":37.5574,"lng":-77.44754,"zip":"23286","miles_from_dt":7.25},{"city":"Richmond","state_name":"Virginia","lat":37.56025,"lng":-77.44742,"zip":"23232","miles_from_dt":7.26},{"city":"Henrico","state_name":"Virginia","lat":37.44219,"lng":-77.31903,"zip":"23231","miles_from_dt":7.39},{"city":"Richmond","state_name":"Virginia","lat":37.44133,"lng":-77.32276,"zip":"23293","miles_from_dt":7.46},{"city":"Richmond","state_name":"Virginia","lat":37.54759,"lng":-77.45273,"zip":"23284","miles_from_dt":7.51},{"city":"Richmond","state_name":"Virginia","lat":37.54864,"lng":-77.45841,"zip":"23261","miles_from_dt":7.82},{"city":"Richmond","state_name":"Virginia","lat":37.54946,"lng":-77.45936,"zip":"23260","miles_from_dt":7.88},{"city":"Richmond","state_name":"Virginia","lat":37.54923,"lng":-77.46012,"zip":"23220","miles_from_dt":7.92},{"city":"Richmond","state_name":"Virginia","lat":37.55,"lng":-77.46219,"zip":"23295","miles_from_dt":8.03},{"city":"Richmond","state_name":"Virginia","lat":37.61486,"lng":-77.44234,"zip":"23227","miles_from_dt":8.28},{"city":"Richmond","state_name":"Virginia","lat":37.5579,"lng":-77.46764,"zip":"23269","miles_from_dt":8.35},{"city":"Mechanicsville","state_name":"Virginia","lat":37.67152,"lng":-77.33458,"zip":"23116","miles_from_dt":8.49},{"city":"Richmond","state_name":"Virginia","lat":37.55045,"lng":-77.47371,"zip":"23290","miles_from_dt":8.66},{"city":"Quinton","state_name":"Virginia","lat":37.53042,"lng":-77.15791,"zip":"23141","miles_from_dt":8.77},{"city":"Studley","state_name":"Virginia","lat":37.67531,"lng":-77.29021,"zip":"23162","miles_from_dt":8.8},{"city":"Richmond","state_name":"Virginia","lat":37.4985,"lng":-77.46563,"zip":"23224","miles_from_dt":8.94},{"city":"Richmond","state_name":"Virginia","lat":37.56936,"lng":-77.47809,"zip":"23282","miles_from_dt":9.01},{"city":"Richmond","state_name":"Virginia","lat":37.49463,"lng":-77.46764,"zip":"23249","miles_from_dt":9.15},{"city":"Richmond","state_name":"Virginia","lat":37.5533,"lng":-77.49056,"zip":"23221","miles_from_dt":9.59},{"city":"Richmond","state_name":"Virginia","lat":37.58335,"lng":-77.49181,"zip":"23279","miles_from_dt":9.94},{"city":"Richmond","state_name":"Virginia","lat":37.587,"lng":-77.49153,"zip":"23230","miles_from_dt":9.98},{"city":"Henrico","state_name":"Virginia","lat":37.58722,"lng":-77.49501,"zip":"23273","miles_from_dt":10.17},{"city":"Richmond","state_name":"Virginia","lat":37.45293,"lng":-77.46752,"zip":"23234","miles_from_dt":10.66},{"city":"Richmond","state_name":"Virginia","lat":37.51872,"lng":-77.51044,"zip":"23225","miles_from_dt":10.89},{"city":"Henrico","state_name":"Virginia","lat":37.62588,"lng":-77.49125,"zip":"23228","miles_from_dt":10.97},{"city":"Richmond","state_name":"Virginia","lat":37.57774,"lng":-77.5198,"zip":"23226","miles_from_dt":11.36},{"city":"Glen Allen","state_name":"Virginia","lat":37.66202,"lng":-77.48435,"zip":"23058","miles_from_dt":12.07},{"city":"Richmond","state_name":"Virginia","lat":37.57677,"lng":-77.54069,"zip":"23173","miles_from_dt":12.48},{"city":"Richmond","state_name":"Virginia","lat":37.40173,"lng":-77.45433,"zip":"23237","miles_from_dt":12.71},{"city":"Manquin","state_name":"Virginia","lat":37.71524,"lng":-77.2062,"zip":"23106","miles_from_dt":12.92},{"city":"Richmond","state_name":"Virginia","lat":37.39971,"lng":-77.45739,"zip":"23297","miles_from_dt":12.92},{"city":"Henrico","state_name":"Virginia","lat":37.60192,"lng":-77.54695,"zip":"23288","miles_from_dt":13.19},{"city":"Henrico","state_name":"Virginia","lat":37.63048,"lng":-77.54205,"zip":"23294","miles_from_dt":13.61},{"city":"Chester","state_name":"Virginia","lat":37.35087,"lng":-77.33253,"zip":"23836","miles_from_dt":13.72},{"city":"Richmond","state_name":"Virginia","lat":37.51314,"lng":-77.56426,"zip":"23235","miles_from_dt":13.87},{"city":"New Kent","state_name":"Virginia","lat":37.55271,"lng":-77.05949,"zip":"23124","miles_from_dt":14.08},{"city":"Henrico","state_name":"Virginia","lat":37.58872,"lng":-77.56783,"zip":"23255","miles_from_dt":14.09},{"city":"Henrico","state_name":"Virginia","lat":37.58785,"lng":-77.56973,"zip":"23229","miles_from_dt":14.18},{"city":"Glen Allen","state_name":"Virginia","lat":37.65981,"lng":-77.53427,"zip":"23060","miles_from_dt":14.2},{"city":"Hanover","state_name":"Virginia","lat":37.76924,"lng":-77.32874,"zip":"23069","miles_from_dt":15.18},{"city":"Richmond","state_name":"Virginia","lat":37.47438,"lng":-77.58634,"zip":"23236","miles_from_dt":15.73},{"city":"Chester","state_name":"Virginia","lat":37.34437,"lng":-77.44998,"zip":"23831","miles_from_dt":15.94},{"city":"King William","state_name":"Virginia","lat":37.66296,"lng":-77.05394,"zip":"23086","miles_from_dt":16.37},{"city":"Providence Forge","state_name":"Virginia","lat":37.43852,"lng":-77.04818,"zip":"23140","miles_from_dt":16.58},{"city":"Henrico","state_name":"Virginia","lat":37.61982,"lng":-77.61398,"zip":"23242","miles_from_dt":17.07},{"city":"Ashland","state_name":"Virginia","lat":37.75982,"lng":-77.4826,"zip":"23005","miles_from_dt":17.15},{"city":"Glen Allen","state_name":"Virginia","lat":37.70424,"lng":-77.56539,"zip":"23059","miles_from_dt":17.36},{"city":"Henrico","state_name":"Virginia","lat":37.59595,"lng":-77.64138,"zip":"23238","miles_from_dt":18.15},{"city":"Henrico","state_name":"Virginia","lat":37.64461,"lng":-77.62828,"zip":"23233","miles_from_dt":18.36},{"city":"Colonial Heights","state_name":"Virginia","lat":37.28911,"lng":-77.40063,"zip":"23834","miles_from_dt":18.54},{"city":"Chesterfield","state_name":"Virginia","lat":37.39436,"lng":-77.59491,"zip":"23832","miles_from_dt":18.69},{"city":"Hopewell","state_name":"Virginia","lat":37.28267,"lng":-77.22267,"zip":"23860","miles_from_dt":19.09},{"city":"Aylett","state_name":"Virginia","lat":37.81038,"lng":-77.18717,"zip":"23009","miles_from_dt":19.33},{"city":"Midlothian","state_name":"Virginia","lat":37.48317,"lng":-77.66054,"zip":"23114","miles_from_dt":19.47},{"city":"Ruthville","state_name":"Virginia","lat":37.36965,"lng":-77.0391,"zip":"23147","miles_from_dt":19.63},{"city":"Charles City","state_name":"Virginia","lat":37.34652,"lng":-77.05962,"zip":"23030","miles_from_dt":19.86},{"city":"Midlothian","state_name":"Virginia","lat":37.53935,"lng":-77.68093,"zip":"23113","miles_from_dt":20.06},{"city":"Midlothian","state_name":"Virginia","lat":37.43738,"lng":-77.66394,"zip":"23112","miles_from_dt":20.63},{"city":"Walkerton","state_name":"Virginia","lat":37.73088,"lng":-77.00295,"zip":"23177","miles_from_dt":21.24},{"city":"Fort Lee","state_name":"Virginia","lat":37.23618,"lng":-77.33582,"zip":"23801","miles_from_dt":21.63},{"city":"Prince George","state_name":"Virginia","lat":37.22941,"lng":-77.25845,"zip":"23875","miles_from_dt":22.29},{"city":"Petersburg","state_name":"Virginia","lat":37.22906,"lng":-77.40367,"zip":"23804","miles_from_dt":22.61},{"city":"Doswell","state_name":"Virginia","lat":37.84765,"lng":-77.48973,"zip":"23047","miles_from_dt":22.67},{"city":"Lanexa","state_name":"Virginia","lat":37.47593,"lng":-76.91212,"zip":"23089","miles_from_dt":22.75},{"city":"Virginia State University","state_name":"Virginia","lat":37.22638,"lng":-77.40309,"zip":"23806","miles_from_dt":22.79},{"city":"Chesterfield","state_name":"Virginia","lat":37.31772,"lng":-77.63288,"zip":"23838","miles_from_dt":23.64},{"city":"Manakin Sabot","state_name":"Virginia","lat":37.6506,"lng":-77.72754,"zip":"23103","miles_from_dt":23.64},{"city":"West Point","state_name":"Virginia","lat":37.59809,"lng":-76.889,"zip":"23181","miles_from_dt":23.67},{"city":"Stevensville","state_name":"Virginia","lat":37.72152,"lng":-76.93037,"zip":"23161","miles_from_dt":24.25},{"city":"Saint Stephens Church","state_name":"Virginia","lat":37.84262,"lng":-77.06223,"zip":"23148","miles_from_dt":24.54},{"city":"Rockville","state_name":"Virginia","lat":37.7273,"lng":-77.70928,"zip":"23146","miles_from_dt":24.82},{"city":"Petersburg","state_name":"Virginia","lat":37.21183,"lng":-77.48028,"zip":"23803","miles_from_dt":24.97},{"city":"Bruington","state_name":"Virginia","lat":37.78293,"lng":-76.96586,"zip":"23023","miles_from_dt":25.05},{"city":"Montpelier","state_name":"Virginia","lat":37.81732,"lng":-77.68209,"zip":"23192","miles_from_dt":27.28},{"city":"Newtown","state_name":"Virginia","lat":37.92285,"lng":-77.1448,"zip":"23126","miles_from_dt":27.41},{"city":"Moseley","state_name":"Virginia","lat":37.40872,"lng":-77.78468,"zip":"23120","miles_from_dt":27.53},{"city":"Oilville","state_name":"Virginia","lat":37.705,"lng":-77.78261,"zip":"23129","miles_from_dt":27.76},{"city":"Crozier","state_name":"Virginia","lat":37.65503,"lng":-77.80596,"zip":"23039","miles_from_dt":27.86},{"city":"Millers Tavern","state_name":"Virginia","lat":37.82909,"lng":-76.94601,"zip":"23115","miles_from_dt":27.98},{"city":"Ruther Glen","state_name":"Virginia","lat":37.94342,"lng":-77.44565,"zip":"22546","miles_from_dt":28.09},{"city":"King And Queen Court House","state_name":"Virginia","lat":37.70623,"lng":-76.84205,"zip":"23085","miles_from_dt":28.15},{"city":"Barhamsville","state_name":"Virginia","lat":37.47562,"lng":-76.80691,"zip":"23011","miles_from_dt":28.42},{"city":"Toano","state_name":"Virginia","lat":37.3942,"lng":-76.832,"zip":"23168","miles_from_dt":28.67},{"city":"Disputanta","state_name":"Virginia","lat":37.13625,"lng":-77.22086,"zip":"23842","miles_from_dt":28.97},{"city":"Sutherland","state_name":"Virginia","lat":37.18521,"lng":-77.57834,"zip":"23885","miles_from_dt":28.97},{"city":"Little Plymouth","state_name":"Virginia","lat":37.64647,"lng":-76.80167,"zip":"23091","miles_from_dt":29},{"city":"Claremont","state_name":"Virginia","lat":37.23079,"lng":-76.96562,"zip":"23899","miles_from_dt":29.23},{"city":"State Farm","state_name":"Virginia","lat":37.62757,"lng":-77.84028,"zip":"23160","miles_from_dt":29.28},{"city":"Petersburg","state_name":"Virginia","lat":37.12922,"lng":-77.3953,"zip":"23805","miles_from_dt":29.3},{"city":"Milford","state_name":"Virginia","lat":37.9724,"lng":-77.24471,"zip":"22514","miles_from_dt":29.43}],"targetCityZipCode":"23075","targetCityState":"Virginia"},"__N_SSG":true}