{"pageProps":{"stateName":"Virginia","cityName":"jamaica","nearbyCities":[{"city":"Laneview","state_name":"Virginia","lat":37.76346,"lng":-76.72675,"zip":"22504","miles_from_dt":3.36},{"city":"Water View","state_name":"Virginia","lat":37.69977,"lng":-76.62045,"zip":"23180","miles_from_dt":4.15},{"city":"Church View","state_name":"Virginia","lat":37.65552,"lng":-76.68199,"zip":"23032","miles_from_dt":4.8},{"city":"Mascot","state_name":"Virginia","lat":37.65523,"lng":-76.73015,"zip":"23108","miles_from_dt":5.29},{"city":"Morattico","state_name":"Virginia","lat":37.78866,"lng":-76.63003,"zip":"22523","miles_from_dt":5.47},{"city":"Urbanna","state_name":"Virginia","lat":37.65343,"lng":-76.62407,"zip":"23175","miles_from_dt":6.09},{"city":"Sharps","state_name":"Virginia","lat":37.82929,"lng":-76.69256,"zip":"22548","miles_from_dt":7.21},{"city":"Center Cross","state_name":"Virginia","lat":37.7764,"lng":-76.8156,"zip":"22437","miles_from_dt":7.77},{"city":"Little Plymouth","state_name":"Virginia","lat":37.64647,"lng":-76.80167,"zip":"23091","miles_from_dt":8.19},{"city":"King And Queen Court House","state_name":"Virginia","lat":37.70623,"lng":-76.84205,"zip":"23085","miles_from_dt":8.46},{"city":"Nuttsville","state_name":"Virginia","lat":37.79008,"lng":-76.55182,"zip":"22528","miles_from_dt":8.78},{"city":"Lively","state_name":"Virginia","lat":37.77585,"lng":-76.51487,"zip":"22507","miles_from_dt":10.19},{"city":"Mollusk","state_name":"Virginia","lat":37.77585,"lng":-76.51487,"zip":"22517","miles_from_dt":10.19},{"city":"Merry Point","state_name":"Virginia","lat":37.77585,"lng":-76.51487,"zip":"22513","miles_from_dt":10.19},{"city":"Lancaster","state_name":"Virginia","lat":37.7624,"lng":-76.50432,"zip":"22503","miles_from_dt":10.46},{"city":"Mattaponi","state_name":"Virginia","lat":37.58338,"lng":-76.76578,"zip":"23110","miles_from_dt":10.61},{"city":"Farnham","state_name":"Virginia","lat":37.87612,"lng":-76.60692,"zip":"22460","miles_from_dt":11.37},{"city":"Saluda","state_name":"Virginia","lat":37.56794,"lng":-76.61599,"zip":"23149","miles_from_dt":11.54},{"city":"Dunnsville","state_name":"Virginia","lat":37.83599,"lng":-76.85032,"zip":"22454","miles_from_dt":11.68},{"city":"Stevensville","state_name":"Virginia","lat":37.72152,"lng":-76.93037,"zip":"23161","miles_from_dt":13.2},{"city":"Locust Hill","state_name":"Virginia","lat":37.59402,"lng":-76.50755,"zip":"23092","miles_from_dt":13.45},{"city":"Shacklefords","state_name":"Virginia","lat":37.5244,"lng":-76.71106,"zip":"23156","miles_from_dt":13.87},{"city":"West Point","state_name":"Virginia","lat":37.59809,"lng":-76.889,"zip":"23181","miles_from_dt":14},{"city":"Weems","state_name":"Virginia","lat":37.69398,"lng":-76.43277,"zip":"22576","miles_from_dt":14.22},{"city":"Topping","state_name":"Virginia","lat":37.58945,"lng":-76.46225,"zip":"23169","miles_from_dt":15.56},{"city":"Irvington","state_name":"Virginia","lat":37.66631,"lng":-76.41498,"zip":"22480","miles_from_dt":15.57},{"city":"Bruington","state_name":"Virginia","lat":37.78293,"lng":-76.96586,"zip":"23023","miles_from_dt":15.66},{"city":"Christchurch","state_name":"Virginia","lat":37.59774,"lng":-76.45003,"zip":"23031","miles_from_dt":15.78},{"city":"Millers Tavern","state_name":"Virginia","lat":37.82909,"lng":-76.94601,"zip":"23115","miles_from_dt":15.78},{"city":"Village","state_name":"Virginia","lat":37.9484,"lng":-76.60462,"zip":"22570","miles_from_dt":16.1},{"city":"Haynesville","state_name":"Virginia","lat":37.95897,"lng":-76.67257,"zip":"22472","miles_from_dt":16.18},{"city":"Woods Cross Roads","state_name":"Virginia","lat":37.48354,"lng":-76.62069,"zip":"23190","miles_from_dt":17.06},{"city":"Walkerton","state_name":"Virginia","lat":37.73088,"lng":-77.00295,"zip":"23177","miles_from_dt":17.18},{"city":"Warsaw","state_name":"Virginia","lat":37.97552,"lng":-76.77495,"zip":"22572","miles_from_dt":17.91},{"city":"Hartfield","state_name":"Virginia","lat":37.54326,"lng":-76.45228,"zip":"23071","miles_from_dt":18.05},{"city":"Callao","state_name":"Virginia","lat":37.97216,"lng":-76.57288,"zip":"22435","miles_from_dt":18.21},{"city":"Wake","state_name":"Virginia","lat":37.56934,"lng":-76.41991,"zip":"23176","miles_from_dt":18.26},{"city":"Barhamsville","state_name":"Virginia","lat":37.47562,"lng":-76.80691,"zip":"23011","miles_from_dt":18.35},{"city":"Kilmarnock","state_name":"Virginia","lat":37.73723,"lng":-76.35245,"zip":"22482","miles_from_dt":18.48},{"city":"Wicomico Church","state_name":"Virginia","lat":37.78895,"lng":-76.36013,"zip":"22579","miles_from_dt":18.57},{"city":"White Stone","state_name":"Virginia","lat":37.65063,"lng":-76.36268,"zip":"22578","miles_from_dt":18.62},{"city":"Heathsville","state_name":"Virginia","lat":37.88316,"lng":-76.41386,"zip":"22473","miles_from_dt":18.62},{"city":"Oldhams","state_name":"Virginia","lat":38.01036,"lng":-76.67942,"zip":"22529","miles_from_dt":19.7},{"city":"Tappahannock","state_name":"Virginia","lat":37.91289,"lng":-76.96196,"zip":"22560","miles_from_dt":19.76},{"city":"King William","state_name":"Virginia","lat":37.66296,"lng":-77.05394,"zip":"23086","miles_from_dt":20.43},{"city":"Lottsburg","state_name":"Virginia","lat":37.98352,"lng":-76.50323,"zip":"22511","miles_from_dt":20.54},{"city":"Hardyville","state_name":"Virginia","lat":37.55065,"lng":-76.38528,"zip":"23070","miles_from_dt":20.55},{"city":"Ark","state_name":"Virginia","lat":37.43857,"lng":-76.57822,"zip":"23003","miles_from_dt":20.66},{"city":"Burgess","state_name":"Virginia","lat":37.8637,"lng":-76.35043,"zip":"22432","miles_from_dt":20.88},{"city":"Lanexa","state_name":"Virginia","lat":37.47593,"lng":-76.91212,"zip":"23089","miles_from_dt":21.07},{"city":"Gloucester","state_name":"Virginia","lat":37.4331,"lng":-76.55019,"zip":"23061","miles_from_dt":21.52},{"city":"Edwardsville","state_name":"Virginia","lat":37.90854,"lng":-76.36714,"zip":"22456","miles_from_dt":21.71},{"city":"Dutton","state_name":"Virginia","lat":37.48918,"lng":-76.41986,"zip":"23050","miles_from_dt":21.97},{"city":"Saint Stephens Church","state_name":"Virginia","lat":37.84262,"lng":-77.06223,"zip":"23148","miles_from_dt":21.97},{"city":"Deltaville","state_name":"Virginia","lat":37.55519,"lng":-76.34357,"zip":"23043","miles_from_dt":22.28},{"city":"Kinsale","state_name":"Virginia","lat":38.04986,"lng":-76.58796,"zip":"22488","miles_from_dt":23.09},{"city":"Cobbs Creek","state_name":"Virginia","lat":37.49809,"lng":-76.37679,"zip":"23035","miles_from_dt":23.21},{"city":"New Kent","state_name":"Virginia","lat":37.55271,"lng":-77.05949,"zip":"23124","miles_from_dt":23.51},{"city":"North","state_name":"Virginia","lat":37.4514,"lng":-76.43216,"zip":"23128","miles_from_dt":23.55},{"city":"Hague","state_name":"Virginia","lat":38.0667,"lng":-76.64749,"zip":"22469","miles_from_dt":23.69},{"city":"Reedville","state_name":"Virginia","lat":37.85865,"lng":-76.28731,"zip":"22539","miles_from_dt":23.86},{"city":"Toano","state_name":"Virginia","lat":37.3942,"lng":-76.832,"zip":"23168","miles_from_dt":24.11},{"city":"Sandy Point","state_name":"Virginia","lat":38.0653,"lng":-76.55916,"zip":"22577","miles_from_dt":24.54},{"city":"Hallieford","state_name":"Virginia","lat":37.49511,"lng":-76.33727,"zip":"23068","miles_from_dt":24.98},{"city":"Norge","state_name":"Virginia","lat":37.36421,"lng":-76.77181,"zip":"23127","miles_from_dt":25.28},{"city":"Ophelia","state_name":"Virginia","lat":37.91247,"lng":-76.28359,"zip":"22530","miles_from_dt":25.7},{"city":"Ware Neck","state_name":"Virginia","lat":37.40177,"lng":-76.45575,"zip":"23178","miles_from_dt":25.71},{"city":"Grimstead","state_name":"Virginia","lat":37.49893,"lng":-76.30446,"zip":"23064","miles_from_dt":26.24},{"city":"Schley","state_name":"Virginia","lat":37.38995,"lng":-76.45819,"zip":"23154","miles_from_dt":26.35},{"city":"Williamsburg","state_name":"Virginia","lat":37.33849,"lng":-76.74925,"zip":"23188","miles_from_dt":26.84},{"city":"Foster","state_name":"Virginia","lat":37.41809,"lng":-76.38724,"zip":"23056","miles_from_dt":26.88},{"city":"Gwynn","state_name":"Virginia","lat":37.49836,"lng":-76.28831,"zip":"23066","miles_from_dt":26.98},{"city":"Hudgins","state_name":"Virginia","lat":37.47328,"lng":-76.30499,"zip":"23076","miles_from_dt":27.31},{"city":"Champlain","state_name":"Virginia","lat":38.03788,"lng":-76.99971,"zip":"22438","miles_from_dt":27.46},{"city":"Zacata","state_name":"Virginia","lat":38.1197,"lng":-76.785,"zip":"22581","miles_from_dt":27.73},{"city":"Montross","state_name":"Virginia","lat":38.11651,"lng":-76.80634,"zip":"22520","miles_from_dt":27.76},{"city":"Lightfoot","state_name":"Virginia","lat":37.32319,"lng":-76.73899,"zip":"23090","miles_from_dt":27.83},{"city":"Aylett","state_name":"Virginia","lat":37.81038,"lng":-77.18717,"zip":"23009","miles_from_dt":27.88},{"city":"Providence Forge","state_name":"Virginia","lat":37.43852,"lng":-77.04818,"zip":"23140","miles_from_dt":27.88},{"city":"Cardinal","state_name":"Virginia","lat":37.41447,"lng":-76.36204,"zip":"23025","miles_from_dt":27.95},{"city":"White Marsh","state_name":"Virginia","lat":37.34182,"lng":-76.52008,"zip":"23183","miles_from_dt":28},{"city":"Manquin","state_name":"Virginia","lat":37.71524,"lng":-77.2062,"zip":"23106","miles_from_dt":28.32},{"city":"Bohannon","state_name":"Virginia","lat":37.40102,"lng":-76.37187,"zip":"23021","miles_from_dt":28.33},{"city":"Mount Holly","state_name":"Virginia","lat":38.13575,"lng":-76.66166,"zip":"22524","miles_from_dt":28.38},{"city":"Newtown","state_name":"Virginia","lat":37.92285,"lng":-77.1448,"zip":"23126","miles_from_dt":28.41},{"city":"Mathews","state_name":"Virginia","lat":37.43263,"lng":-76.32445,"zip":"23109","miles_from_dt":28.41},{"city":"Quinton","state_name":"Virginia","lat":37.53042,"lng":-77.15791,"zip":"23141","miles_from_dt":28.98},{"city":"Coles Point","state_name":"Virginia","lat":38.14623,"lng":-76.63382,"zip":"22442","miles_from_dt":29.22},{"city":"Moon","state_name":"Virginia","lat":37.45139,"lng":-76.27978,"zip":"23119","miles_from_dt":29.34},{"city":"Ordinary","state_name":"Virginia","lat":37.31482,"lng":-76.51491,"zip":"23131","miles_from_dt":29.85},{"city":"Hustle","state_name":"Virginia","lat":38.03807,"lng":-77.06872,"zip":"22476","miles_from_dt":29.95},{"city":"Piney Point","state_name":"Maryland","lat":38.13307,"lng":-76.50019,"zip":"20674","miles_from_dt":30}],"targetCityZipCode":"23079","targetCityState":"Virginia"},"__N_SSG":true}