{"pageProps":{"stateName":"Virginia","cityName":"keen-mountain","nearbyCities":[{"city":"Oakwood","state_name":"Virginia","lat":37.2202,"lng":-81.99714,"zip":"24631","miles_from_dt":1.22},{"city":"Raven","state_name":"Virginia","lat":37.17357,"lng":-81.90461,"zip":"24639","miles_from_dt":5.02},{"city":"Rowe","state_name":"Virginia","lat":37.13751,"lng":-82.02976,"zip":"24646","miles_from_dt":5.18},{"city":"Pilgrims Knob","state_name":"Virginia","lat":37.27411,"lng":-81.90253,"zip":"24634","miles_from_dt":6.7},{"city":"Shortt Gap","state_name":"Virginia","lat":37.15848,"lng":-81.87377,"zip":"24647","miles_from_dt":7.01},{"city":"Vansant","state_name":"Virginia","lat":37.1743,"lng":-82.12364,"zip":"24656","miles_from_dt":7.82},{"city":"Whitewood","state_name":"Virginia","lat":37.22363,"lng":-81.84737,"zip":"24657","miles_from_dt":7.82},{"city":"Grundy","state_name":"Virginia","lat":37.31466,"lng":-82.07181,"zip":"24614","miles_from_dt":8.93},{"city":"Swords Creek","state_name":"Virginia","lat":37.08303,"lng":-81.92198,"zip":"24649","miles_from_dt":9.11},{"city":"Red Ash","state_name":"Virginia","lat":37.10647,"lng":-81.86272,"zip":"24640","miles_from_dt":9.63},{"city":"Wolford","state_name":"Virginia","lat":37.35254,"lng":-81.99172,"zip":"24658","miles_from_dt":10.22},{"city":"Jewell Ridge","state_name":"Virginia","lat":37.22005,"lng":-81.79638,"zip":"24622","miles_from_dt":10.57},{"city":"Davenport","state_name":"Virginia","lat":37.1136,"lng":-82.14577,"zip":"24239","miles_from_dt":10.77},{"city":"Doran","state_name":"Virginia","lat":37.09728,"lng":-81.84461,"zip":"24612","miles_from_dt":10.79},{"city":"Richlands","state_name":"Virginia","lat":37.11797,"lng":-81.80802,"zip":"24641","miles_from_dt":11.54},{"city":"Paynesville","state_name":"West Virginia","lat":37.35734,"lng":-81.87415,"zip":"24873","miles_from_dt":12.25},{"city":"Maxie","state_name":"Virginia","lat":37.30347,"lng":-82.17337,"zip":"24628","miles_from_dt":12.34},{"city":"Honaker","state_name":"Virginia","lat":37.02291,"lng":-82.00059,"zip":"24260","miles_from_dt":12.54},{"city":"Mavisdale","state_name":"Virginia","lat":37.18299,"lng":-82.21519,"zip":"24627","miles_from_dt":12.67},{"city":"Bee","state_name":"Virginia","lat":37.1014,"lng":-82.17783,"zip":"24217","miles_from_dt":12.7},{"city":"Jolo","state_name":"West Virginia","lat":37.37807,"lng":-81.88516,"zip":"24850","miles_from_dt":13.23},{"city":"Bradshaw","state_name":"West Virginia","lat":37.34206,"lng":-81.81721,"zip":"24817","miles_from_dt":13.33},{"city":"Raysal","state_name":"West Virginia","lat":37.31639,"lng":-81.76725,"zip":"24879","miles_from_dt":14.37},{"city":"Birchleaf","state_name":"Virginia","lat":37.11957,"lng":-82.22641,"zip":"24220","miles_from_dt":14.45},{"city":"Big Rock","state_name":"Virginia","lat":37.35607,"lng":-82.1914,"zip":"24603","miles_from_dt":15.37},{"city":"Hurley","state_name":"Virginia","lat":37.43335,"lng":-82.01932,"zip":"24620","miles_from_dt":15.89},{"city":"Cedar Bluff","state_name":"Virginia","lat":37.02955,"lng":-81.795,"zip":"24609","miles_from_dt":16.06},{"city":"Haysi","state_name":"Virginia","lat":37.22344,"lng":-82.28503,"zip":"24256","miles_from_dt":16.49},{"city":"Breaks","state_name":"Virginia","lat":37.29498,"lng":-82.26533,"zip":"24607","miles_from_dt":16.56},{"city":"Warriormine","state_name":"West Virginia","lat":37.25186,"lng":-81.69052,"zip":"24894","miles_from_dt":16.68},{"city":"Rosedale","state_name":"Virginia","lat":36.95575,"lng":-81.94167,"zip":"24280","miles_from_dt":17.33},{"city":"Panther","state_name":"West Virginia","lat":37.44986,"lng":-81.8932,"zip":"24872","miles_from_dt":17.7},{"city":"War","state_name":"West Virginia","lat":37.31691,"lng":-81.69699,"zip":"24892","miles_from_dt":17.77},{"city":"Cleveland","state_name":"Virginia","lat":36.97543,"lng":-82.14115,"zip":"24225","miles_from_dt":17.94},{"city":"Bartley","state_name":"West Virginia","lat":37.35954,"lng":-81.72489,"zip":"24813","miles_from_dt":17.98},{"city":"Steele","state_name":"Kentucky","lat":37.40836,"lng":-82.1922,"zip":"41566","miles_from_dt":18.04},{"city":"Bandy","state_name":"Virginia","lat":37.18383,"lng":-81.65762,"zip":"24602","miles_from_dt":18.23},{"city":"Pounding Mill","state_name":"Virginia","lat":37.05258,"lng":-81.70981,"zip":"24637","miles_from_dt":18.55},{"city":"Mouthcard","state_name":"Kentucky","lat":37.37847,"lng":-82.25372,"zip":"41548","miles_from_dt":18.97},{"city":"Mohawk","state_name":"West Virginia","lat":37.47905,"lng":-81.9489,"zip":"24862","miles_from_dt":19.06},{"city":"Dante","state_name":"Virginia","lat":37.03939,"lng":-82.26424,"zip":"24237","miles_from_dt":19.07},{"city":"Avondale","state_name":"West Virginia","lat":37.40881,"lng":-81.75381,"zip":"24811","miles_from_dt":19.07},{"city":"Amonate","state_name":"Virginia","lat":37.19068,"lng":-81.64049,"zip":"24601","miles_from_dt":19.14},{"city":"Clinchco","state_name":"Virginia","lat":37.14223,"lng":-82.33384,"zip":"24226","miles_from_dt":19.61},{"city":"Berwind","state_name":"West Virginia","lat":37.22036,"lng":-81.63026,"zip":"24815","miles_from_dt":19.71},{"city":"Fedscreek","state_name":"Kentucky","lat":37.43345,"lng":-82.23444,"zip":"41524","miles_from_dt":20.86},{"city":"Cucumber","state_name":"West Virginia","lat":37.29212,"lng":-81.62411,"zip":"24826","miles_from_dt":20.9},{"city":"Stopover","state_name":"Kentucky","lat":37.50369,"lng":-82.05896,"zip":"41568","miles_from_dt":21.02},{"city":"Phelps","state_name":"Kentucky","lat":37.48057,"lng":-82.16025,"zip":"41553","miles_from_dt":21.3},{"city":"Newhall","state_name":"West Virginia","lat":37.25216,"lng":-81.59925,"zip":"24866","miles_from_dt":21.64},{"city":"Belcher","state_name":"Kentucky","lat":37.35282,"lng":-82.34329,"zip":"41513","miles_from_dt":22.14},{"city":"Iaeger","state_name":"West Virginia","lat":37.48554,"lng":-81.78703,"zip":"24844","miles_from_dt":22.3},{"city":"Lick Creek","state_name":"Kentucky","lat":37.39013,"lng":-82.32318,"zip":"41540","miles_from_dt":22.52},{"city":"Nora","state_name":"Virginia","lat":37.0302,"lng":-82.33401,"zip":"24272","miles_from_dt":22.61},{"city":"Isaban","state_name":"West Virginia","lat":37.52611,"lng":-81.89175,"zip":"24846","miles_from_dt":22.8},{"city":"McClure","state_name":"Virginia","lat":37.0803,"lng":-82.37894,"zip":"24269","miles_from_dt":23.26},{"city":"Roderfield","state_name":"West Virginia","lat":37.44435,"lng":-81.68785,"zip":"24881","miles_from_dt":23.35},{"city":"Big Sandy","state_name":"West Virginia","lat":37.46139,"lng":-81.70516,"zip":"24816","miles_from_dt":23.56},{"city":"Majestic","state_name":"Kentucky","lat":37.53821,"lng":-82.09437,"zip":"41547","miles_from_dt":23.77},{"city":"Elkhorn City","state_name":"Kentucky","lat":37.31644,"lng":-82.40088,"zip":"41522","miles_from_dt":24.08},{"city":"Lebanon","state_name":"Virginia","lat":36.8671,"lng":-82.10523,"zip":"24266","miles_from_dt":24.16},{"city":"Bishop","state_name":"Virginia","lat":37.21088,"lng":-81.54378,"zip":"24604","miles_from_dt":24.45},{"city":"Ikes Fork","state_name":"West Virginia","lat":37.52643,"lng":-81.80041,"zip":"24845","miles_from_dt":24.47},{"city":"Hensley","state_name":"West Virginia","lat":37.48378,"lng":-81.70923,"zip":"24843","miles_from_dt":24.6},{"city":"Broadford","state_name":"Virginia","lat":36.95277,"lng":-81.67145,"zip":"24316","miles_from_dt":24.6},{"city":"Squire","state_name":"West Virginia","lat":37.27943,"lng":-81.55048,"zip":"24884","miles_from_dt":24.62},{"city":"Phyllis","state_name":"Kentucky","lat":37.43919,"lng":-82.32446,"zip":"41554","miles_from_dt":24.65},{"city":"Premier","state_name":"West Virginia","lat":37.4321,"lng":-81.63086,"zip":"24878","miles_from_dt":25.13},{"city":"Elbert","state_name":"West Virginia","lat":37.33399,"lng":-81.55799,"zip":"24830","miles_from_dt":25.28},{"city":"Regina","state_name":"Kentucky","lat":37.37997,"lng":-82.39017,"zip":"41559","miles_from_dt":25.3},{"city":"Wilcoe","state_name":"West Virginia","lat":37.37718,"lng":-81.58208,"zip":"24895","miles_from_dt":25.3},{"city":"Wharncliffe","state_name":"West Virginia","lat":37.57142,"lng":-81.9662,"zip":"25651","miles_from_dt":25.34},{"city":"Freeburn","state_name":"Kentucky","lat":37.55458,"lng":-82.13984,"zip":"41528","miles_from_dt":25.57},{"city":"Clintwood","state_name":"Virginia","lat":37.17047,"lng":-82.44963,"zip":"24228","miles_from_dt":25.63},{"city":"Saltville","state_name":"Virginia","lat":36.91345,"lng":-81.69107,"zip":"24370","miles_from_dt":25.89},{"city":"Horsepen","state_name":"Virginia","lat":37.22745,"lng":-81.51732,"zip":"24619","miles_from_dt":25.96},{"city":"Edgarton","state_name":"West Virginia","lat":37.57017,"lng":-82.10044,"zip":"25672","miles_from_dt":25.99},{"city":"Baisden","state_name":"West Virginia","lat":37.57512,"lng":-81.89165,"zip":"25608","miles_from_dt":26.1},{"city":"Ransom","state_name":"Kentucky","lat":37.53953,"lng":-82.20819,"zip":"41558","miles_from_dt":26.12},{"city":"Burkes Garden","state_name":"Virginia","lat":37.116,"lng":-81.52534,"zip":"24608","miles_from_dt":26.2},{"city":"North Spring","state_name":"West Virginia","lat":37.56133,"lng":-81.82315,"zip":"24869","miles_from_dt":26.22},{"city":"Gary","state_name":"West Virginia","lat":37.36846,"lng":-81.54908,"zip":"24836","miles_from_dt":26.65},{"city":"Saint Paul","state_name":"Virginia","lat":36.94155,"lng":-82.34554,"zip":"24283","miles_from_dt":26.85},{"city":"Tannersville","state_name":"Virginia","lat":37.00206,"lng":-81.56961,"zip":"24377","miles_from_dt":26.95},{"city":"Rockhouse","state_name":"Kentucky","lat":37.32691,"lng":-82.45338,"zip":"41561","miles_from_dt":27.06},{"city":"Eckman","state_name":"West Virginia","lat":37.44285,"lng":-81.59544,"zip":"24829","miles_from_dt":27.12},{"city":"Ashcamp","state_name":"Kentucky","lat":37.25251,"lng":-82.47772,"zip":"41512","miles_from_dt":27.26},{"city":"Davy","state_name":"West Virginia","lat":37.49975,"lng":-81.6553,"zip":"24828","miles_from_dt":27.36},{"city":"Pinsonfork","state_name":"Kentucky","lat":37.53816,"lng":-82.2589,"zip":"41555","miles_from_dt":27.45},{"city":"Matewan","state_name":"West Virginia","lat":37.59564,"lng":-82.08187,"zip":"25678","miles_from_dt":27.48},{"city":"Kimper","state_name":"Kentucky","lat":37.50265,"lng":-82.32231,"zip":"41539","miles_from_dt":27.64},{"city":"Lookout","state_name":"Kentucky","lat":37.31592,"lng":-82.47079,"zip":"41542","miles_from_dt":27.75},{"city":"North Tazewell","state_name":"Virginia","lat":37.17292,"lng":-81.4782,"zip":"24630","miles_from_dt":28.16},{"city":"Tazewell","state_name":"Virginia","lat":37.07732,"lng":-81.50054,"zip":"24651","miles_from_dt":28.25},{"city":"Justice","state_name":"West Virginia","lat":37.59922,"lng":-81.83805,"zip":"24851","miles_from_dt":28.44},{"city":"Hellier","state_name":"Kentucky","lat":37.27748,"lng":-82.49644,"zip":"41534","miles_from_dt":28.53},{"city":"Pageton","state_name":"West Virginia","lat":37.31693,"lng":-81.48552,"zip":"24871","miles_from_dt":28.71},{"city":"McAndrews","state_name":"Kentucky","lat":37.54837,"lng":-82.28226,"zip":"41543","miles_from_dt":28.75},{"city":"Hanover","state_name":"West Virginia","lat":37.58216,"lng":-81.76504,"zip":"24839","miles_from_dt":28.77},{"city":"Castlewood","state_name":"Virginia","lat":36.86059,"lng":-82.28322,"zip":"24224","miles_from_dt":28.81},{"city":"McCarr","state_name":"Kentucky","lat":37.59602,"lng":-82.17368,"zip":"41544","miles_from_dt":28.89},{"city":"Red Jacket","state_name":"West Virginia","lat":37.61804,"lng":-82.07375,"zip":"25692","miles_from_dt":28.92},{"city":"Fanrock","state_name":"West Virginia","lat":37.54313,"lng":-81.66093,"zip":"24834","miles_from_dt":29.46},{"city":"Thorpe","state_name":"West Virginia","lat":37.36195,"lng":-81.48876,"zip":"24888","miles_from_dt":29.53},{"city":"Shelbiana","state_name":"Kentucky","lat":37.3991,"lng":-82.47052,"zip":"41562","miles_from_dt":29.83},{"city":"Abingdon","state_name":"Virginia","lat":36.77231,"lng":-82.02244,"zip":"24210","miles_from_dt":29.86},{"city":"Gilbert","state_name":"West Virginia","lat":37.63149,"lng":-81.89643,"zip":"25621","miles_from_dt":29.87},{"city":"Welch","state_name":"West Virginia","lat":37.46841,"lng":-81.55544,"zip":"24801","miles_from_dt":29.94}],"targetCityZipCode":"24624","targetCityState":"Virginia"},"__N_SSG":true}