{"pageProps":{"stateName":"Virginia","cityName":"leesburg","nearbyCities":[{"city":"Leesburg","state_name":"Virginia","lat":39.10694,"lng":-77.56527,"zip":"20177","miles_from_dt":3.48},{"city":"Leesburg","state_name":"Virginia","lat":39.11878,"lng":-77.56645,"zip":"20178","miles_from_dt":4.17},{"city":"Hamilton","state_name":"Virginia","lat":39.13425,"lng":-77.66495,"zip":"20159","miles_from_dt":5.99},{"city":"Hamilton","state_name":"Virginia","lat":39.14126,"lng":-77.65514,"zip":"20158","miles_from_dt":6.11},{"city":"Ashburn","state_name":"Virginia","lat":38.99062,"lng":-77.53284,"zip":"20148","miles_from_dt":6.21},{"city":"Lincoln","state_name":"Virginia","lat":39.1162,"lng":-77.69397,"zip":"20160","miles_from_dt":6.23},{"city":"Ashburn","state_name":"Virginia","lat":39.04362,"lng":-77.48161,"zip":"20149","miles_from_dt":6.49},{"city":"Ashburn","state_name":"Virginia","lat":39.04151,"lng":-77.47958,"zip":"20147","miles_from_dt":6.63},{"city":"Paeonian Springs","state_name":"Virginia","lat":39.16673,"lng":-77.59404,"zip":"20129","miles_from_dt":7.09},{"city":"Aldie","state_name":"Virginia","lat":38.95949,"lng":-77.60829,"zip":"20105","miles_from_dt":7.23},{"city":"Philomont","state_name":"Virginia","lat":39.05815,"lng":-77.74061,"zip":"20131","miles_from_dt":7.61},{"city":"Ashburn","state_name":"Virginia","lat":39.01905,"lng":-77.46099,"zip":"20146","miles_from_dt":8.07},{"city":"Purcellville","state_name":"Virginia","lat":39.14233,"lng":-77.71139,"zip":"20134","miles_from_dt":8.08},{"city":"Dulles","state_name":"Virginia","lat":38.99793,"lng":-77.46975,"zip":"20104","miles_from_dt":8.34},{"city":"Leesburg","state_name":"Virginia","lat":39.18147,"lng":-77.5345,"zip":"20176","miles_from_dt":8.82},{"city":"Middleburg","state_name":"Virginia","lat":38.99473,"lng":-77.73851,"zip":"20117","miles_from_dt":8.88},{"city":"Waterford","state_name":"Virginia","lat":39.19379,"lng":-77.62252,"zip":"20197","miles_from_dt":9.03},{"city":"Dulles","state_name":"Virginia","lat":38.99738,"lng":-77.45148,"zip":"20103","miles_from_dt":9.19},{"city":"Dulles","state_name":"Virginia","lat":38.98835,"lng":-77.45192,"zip":"20101","miles_from_dt":9.5},{"city":"Sterling","state_name":"Virginia","lat":38.98799,"lng":-77.45013,"zip":"20163","miles_from_dt":9.6},{"city":"Sterling","state_name":"Virginia","lat":38.97146,"lng":-77.4637,"zip":"20166","miles_from_dt":9.7},{"city":"Middleburg","state_name":"Virginia","lat":38.96752,"lng":-77.73428,"zip":"20118","miles_from_dt":9.85},{"city":"Purcellville","state_name":"Virginia","lat":39.16648,"lng":-77.72748,"zip":"20132","miles_from_dt":9.86},{"city":"Dulles","state_name":"Virginia","lat":38.96242,"lng":-77.45563,"zip":"20189","miles_from_dt":10.44},{"city":"Round Hill","state_name":"Virginia","lat":39.13504,"lng":-77.77179,"zip":"20142","miles_from_dt":10.48},{"city":"Washington","state_name":"District of Columbia","lat":38.94,"lng":-77.47751,"zip":"20041","miles_from_dt":10.79},{"city":"Poolesville","state_name":"Maryland","lat":39.11208,"lng":-77.40823,"zip":"20837","miles_from_dt":10.8},{"city":"Dulles","state_name":"Virginia","lat":38.95656,"lng":-77.45032,"zip":"20102","miles_from_dt":10.93},{"city":"Round Hill","state_name":"Virginia","lat":39.11675,"lng":-77.79159,"zip":"20141","miles_from_dt":10.95},{"city":"Sterling","state_name":"Virginia","lat":39.05058,"lng":-77.38854,"zip":"20165","miles_from_dt":11.38},{"city":"Sterling","state_name":"Virginia","lat":39.01244,"lng":-77.39586,"zip":"20164","miles_from_dt":11.51},{"city":"Sterling","state_name":"Virginia","lat":39.01703,"lng":-77.39409,"zip":"20167","miles_from_dt":11.51},{"city":"Chantilly","state_name":"Virginia","lat":38.8998,"lng":-77.51917,"zip":"20152","miles_from_dt":12.13},{"city":"Beallsville","state_name":"Maryland","lat":39.17909,"lng":-77.41438,"zip":"20839","miles_from_dt":12.72},{"city":"Herndon","state_name":"Virginia","lat":38.96894,"lng":-77.3887,"zip":"22095","miles_from_dt":13.1},{"city":"Herndon","state_name":"Virginia","lat":38.98075,"lng":-77.38042,"zip":"20170","miles_from_dt":13.11},{"city":"Herndon","state_name":"Virginia","lat":38.96932,"lng":-77.38325,"zip":"20172","miles_from_dt":13.34},{"city":"Haymarket","state_name":"Virginia","lat":38.87172,"lng":-77.64627,"zip":"20169","miles_from_dt":13.51},{"city":"Dickerson","state_name":"Maryland","lat":39.20831,"lng":-77.42473,"zip":"20842","miles_from_dt":13.68},{"city":"Catharpin","state_name":"Virginia","lat":38.86421,"lng":-77.56792,"zip":"20143","miles_from_dt":13.89},{"city":"Lovettsville","state_name":"Virginia","lat":39.26775,"lng":-77.63804,"zip":"20180","miles_from_dt":14.2},{"city":"Chantilly","state_name":"Virginia","lat":38.89583,"lng":-77.44453,"zip":"20151","miles_from_dt":14.29},{"city":"Reston","state_name":"Virginia","lat":38.92613,"lng":-77.39669,"zip":"20196","miles_from_dt":14.48},{"city":"Herndon","state_name":"Virginia","lat":38.9246,"lng":-77.39824,"zip":"20171","miles_from_dt":14.49},{"city":"Tuscarora","state_name":"Maryland","lat":39.25908,"lng":-77.49559,"zip":"21790","miles_from_dt":14.56},{"city":"Chantilly","state_name":"Virginia","lat":38.88759,"lng":-77.44142,"zip":"20153","miles_from_dt":14.85},{"city":"Reston","state_name":"Virginia","lat":38.97998,"lng":-77.34354,"zip":"20194","miles_from_dt":14.94},{"city":"Bluemont","state_name":"Virginia","lat":39.08602,"lng":-77.87659,"zip":"20135","miles_from_dt":14.98},{"city":"Herndon","state_name":"Virginia","lat":38.94635,"lng":-77.36314,"zip":"20192","miles_from_dt":15.09},{"city":"Point Of Rocks","state_name":"Maryland","lat":39.27918,"lng":-77.5287,"zip":"21777","miles_from_dt":15.31},{"city":"Upperville","state_name":"Virginia","lat":39.00143,"lng":-77.87874,"zip":"20184","miles_from_dt":15.64},{"city":"The Plains","state_name":"Virginia","lat":38.87523,"lng":-77.76128,"zip":"20198","miles_from_dt":15.68},{"city":"Centreville","state_name":"Virginia","lat":38.85576,"lng":-77.47987,"zip":"20120","miles_from_dt":15.75},{"city":"Centreville","state_name":"Virginia","lat":38.85594,"lng":-77.47862,"zip":"20122","miles_from_dt":15.76},{"city":"Reston","state_name":"Virginia","lat":38.95968,"lng":-77.33806,"zip":"20190","miles_from_dt":15.8},{"city":"Reston","state_name":"Virginia","lat":38.94986,"lng":-77.34433,"zip":"22096","miles_from_dt":15.83},{"city":"Upperville","state_name":"Virginia","lat":38.9945,"lng":-77.88181,"zip":"20185","miles_from_dt":15.94},{"city":"Reston","state_name":"Virginia","lat":38.93438,"lng":-77.35184,"zip":"20191","miles_from_dt":16.05},{"city":"Great Falls","state_name":"Virginia","lat":39.01032,"lng":-77.30258,"zip":"22066","miles_from_dt":16.39},{"city":"Barnesville","state_name":"Maryland","lat":39.22341,"lng":-77.37223,"zip":"20838","miles_from_dt":16.42},{"city":"Reston","state_name":"Virginia","lat":38.94889,"lng":-77.32678,"zip":"20195","miles_from_dt":16.69},{"city":"Germantown","state_name":"Maryland","lat":39.1291,"lng":-77.29721,"zip":"20874","miles_from_dt":16.85},{"city":"Boyds","state_name":"Maryland","lat":39.1858,"lng":-77.32581,"zip":"20841","miles_from_dt":16.93},{"city":"Rectortown","state_name":"Virginia","lat":38.92037,"lng":-77.86292,"zip":"20140","miles_from_dt":17.31},{"city":"Fairfax","state_name":"Virginia","lat":38.87564,"lng":-77.38419,"zip":"22033","miles_from_dt":17.42},{"city":"Haymarket","state_name":"Virginia","lat":38.81099,"lng":-77.63563,"zip":"20168","miles_from_dt":17.57},{"city":"Brunswick","state_name":"Maryland","lat":39.31798,"lng":-77.6262,"zip":"21716","miles_from_dt":17.57},{"city":"Gainesville","state_name":"Virginia","lat":38.80646,"lng":-77.62145,"zip":"20155","miles_from_dt":17.81},{"city":"Harpers Ferry","state_name":"West Virginia","lat":39.27613,"lng":-77.79184,"zip":"25425","miles_from_dt":17.91},{"city":"Adamstown","state_name":"Maryland","lat":39.29652,"lng":-77.44941,"zip":"21710","miles_from_dt":17.94},{"city":"Centreville","state_name":"Virginia","lat":38.8175,"lng":-77.46015,"zip":"20121","miles_from_dt":18.59},{"city":"Paris","state_name":"Virginia","lat":39.02756,"lng":-77.94243,"zip":"20130","miles_from_dt":18.62},{"city":"Oakton","state_name":"Virginia","lat":38.8909,"lng":-77.33025,"zip":"22124","miles_from_dt":18.78},{"city":"Gainesville","state_name":"Virginia","lat":38.79195,"lng":-77.62537,"zip":"20156","miles_from_dt":18.83},{"city":"Millville","state_name":"West Virginia","lat":39.29562,"lng":-77.78663,"zip":"25432","miles_from_dt":18.87},{"city":"Manassas","state_name":"Virginia","lat":38.79472,"lng":-77.53105,"zip":"20109","miles_from_dt":18.94},{"city":"Broad Run","state_name":"Virginia","lat":38.80682,"lng":-77.72992,"zip":"20137","miles_from_dt":19.09},{"city":"Fairfax","state_name":"Virginia","lat":38.85628,"lng":-77.36269,"zip":"22035","miles_from_dt":19.18},{"city":"Marshall","state_name":"Virginia","lat":38.86836,"lng":-77.85245,"zip":"20116","miles_from_dt":19.18},{"city":"Gaithersburg","state_name":"Maryland","lat":39.11376,"lng":-77.24781,"zip":"20878","miles_from_dt":19.21},{"city":"Charles Town","state_name":"West Virginia","lat":39.25273,"lng":-77.87055,"zip":"25414","miles_from_dt":19.53},{"city":"Vienna","state_name":"Virginia","lat":38.93611,"lng":-77.2736,"zip":"22182","miles_from_dt":19.63},{"city":"Germantown","state_name":"Maryland","lat":39.17643,"lng":-77.26251,"zip":"20875","miles_from_dt":19.69},{"city":"Knoxville","state_name":"Maryland","lat":39.34567,"lng":-77.66265,"zip":"21758","miles_from_dt":19.72},{"city":"Vienna","state_name":"Virginia","lat":38.9053,"lng":-77.29466,"zip":"22181","miles_from_dt":19.73},{"city":"Halltown","state_name":"West Virginia","lat":39.31449,"lng":-77.79823,"zip":"25423","miles_from_dt":20.31},{"city":"Potomac","state_name":"Maryland","lat":39.03413,"lng":-77.22149,"zip":"20854","miles_from_dt":20.43},{"city":"Gaithersburg","state_name":"Maryland","lat":39.13349,"lng":-77.22906,"zip":"20885","miles_from_dt":20.47},{"city":"Fairfax","state_name":"Virginia","lat":38.83082,"lng":-77.36294,"zip":"22038","miles_from_dt":20.52},{"city":"Jefferson","state_name":"Maryland","lat":39.36101,"lng":-77.56887,"zip":"21755","miles_from_dt":20.55},{"city":"Bakerton","state_name":"West Virginia","lat":39.32699,"lng":-77.78005,"zip":"25410","miles_from_dt":20.57},{"city":"Manassas","state_name":"Virginia","lat":38.78674,"lng":-77.45575,"zip":"20113","miles_from_dt":20.64},{"city":"Delaplane","state_name":"Virginia","lat":38.92117,"lng":-77.93759,"zip":"20144","miles_from_dt":20.7},{"city":"Rippon","state_name":"West Virginia","lat":39.2282,"lng":-77.92222,"zip":"25441","miles_from_dt":20.71},{"city":"Fairfax","state_name":"Virginia","lat":38.83891,"lng":-77.34188,"zip":"22030","miles_from_dt":20.83},{"city":"Buckeystown","state_name":"Maryland","lat":39.33865,"lng":-77.43147,"zip":"21717","miles_from_dt":20.97},{"city":"Merrifield","state_name":"Virginia","lat":38.83936,"lng":-77.33663,"zip":"22118","miles_from_dt":20.99},{"city":"Gaithersburg","state_name":"Maryland","lat":39.14442,"lng":-77.21621,"zip":"20899","miles_from_dt":21.33},{"city":"McLean","state_name":"Virginia","lat":38.95199,"lng":-77.22901,"zip":"22102","miles_from_dt":21.38},{"city":"Vienna","state_name":"Virginia","lat":38.89929,"lng":-77.26033,"zip":"22185","miles_from_dt":21.51},{"city":"West Mclean","state_name":"Virginia","lat":38.94777,"lng":-77.22795,"zip":"22103","miles_from_dt":21.54},{"city":"Fairfax","state_name":"Virginia","lat":38.85344,"lng":-77.30039,"zip":"22037","miles_from_dt":21.69},{"city":"Potomac","state_name":"Maryland","lat":39.02296,"lng":-77.19925,"zip":"20859","miles_from_dt":21.71},{"city":"Clarksburg","state_name":"Maryland","lat":39.2592,"lng":-77.28187,"zip":"20871","miles_from_dt":21.72},{"city":"Berryville","state_name":"Virginia","lat":39.16374,"lng":-77.98512,"zip":"22611","miles_from_dt":21.84},{"city":"Vienna","state_name":"Virginia","lat":38.89745,"lng":-77.25434,"zip":"22183","miles_from_dt":21.85},{"city":"Vienna","state_name":"Virginia","lat":38.89619,"lng":-77.25426,"zip":"22180","miles_from_dt":21.9},{"city":"Brownsville","state_name":"Maryland","lat":39.37879,"lng":-77.66063,"zip":"21715","miles_from_dt":21.96},{"city":"Gaithersburg","state_name":"Maryland","lat":39.14289,"lng":-77.20282,"zip":"20898","miles_from_dt":22},{"city":"Germantown","state_name":"Maryland","lat":39.20706,"lng":-77.23284,"zip":"20876","miles_from_dt":22.02},{"city":"Frederick","state_name":"Maryland","lat":39.36961,"lng":-77.47088,"zip":"21703","miles_from_dt":22.17},{"city":"Gaithersburg","state_name":"Maryland","lat":39.14269,"lng":-77.19508,"zip":"20884","miles_from_dt":22.4},{"city":"Clifton","state_name":"Virginia","lat":38.78059,"lng":-77.39085,"zip":"20124","miles_from_dt":22.56},{"city":"Rockville","state_name":"Maryland","lat":39.0908,"lng":-77.1809,"zip":"20850","miles_from_dt":22.58},{"city":"Ranson","state_name":"West Virginia","lat":39.31853,"lng":-77.86448,"zip":"25438","miles_from_dt":22.6},{"city":"Bristow","state_name":"Virginia","lat":38.7374,"lng":-77.55473,"zip":"20136","miles_from_dt":22.66},{"city":"Gaithersburg","state_name":"Maryland","lat":39.14068,"lng":-77.18865,"zip":"20877","miles_from_dt":22.7},{"city":"Summit Point","state_name":"West Virginia","lat":39.24013,"lng":-77.95705,"zip":"25446","miles_from_dt":22.73},{"city":"Manassas","state_name":"Virginia","lat":38.7464,"lng":-77.48699,"zip":"20110","miles_from_dt":22.74},{"city":"Burkittsville","state_name":"Maryland","lat":39.39343,"lng":-77.62734,"zip":"21718","miles_from_dt":22.77},{"city":"Manassas","state_name":"Virginia","lat":38.74594,"lng":-77.48577,"zip":"20108","miles_from_dt":22.79},{"city":"Montgomery Village","state_name":"Maryland","lat":39.17952,"lng":-77.197,"zip":"20886","miles_from_dt":23.04},{"city":"Gaithersburg","state_name":"Maryland","lat":39.17,"lng":-77.19219,"zip":"20883","miles_from_dt":23.07},{"city":"Fairfax","state_name":"Virginia","lat":38.85954,"lng":-77.2599,"zip":"22031","miles_from_dt":23.1},{"city":"Merrifield","state_name":"Virginia","lat":38.86135,"lng":-77.25745,"zip":"22116","miles_from_dt":23.12},{"city":"Frederick","state_name":"Maryland","lat":39.3506,"lng":-77.3735,"zip":"21704","miles_from_dt":23.19},{"city":"Fairfax","state_name":"Virginia","lat":38.85798,"lng":-77.25866,"zip":"22036","miles_from_dt":23.21},{"city":"Marshall","state_name":"Virginia","lat":38.82138,"lng":-77.89764,"zip":"20115","miles_from_dt":23.21},{"city":"Fairfax","state_name":"Virginia","lat":38.85596,"lng":-77.2602,"zip":"22034","miles_from_dt":23.23},{"city":"Boyce","state_name":"Virginia","lat":39.06417,"lng":-78.03317,"zip":"22620","miles_from_dt":23.33},{"city":"Washington Grove","state_name":"Maryland","lat":39.14077,"lng":-77.17456,"zip":"20880","miles_from_dt":23.44},{"city":"Merrifield","state_name":"Virginia","lat":38.87685,"lng":-77.23574,"zip":"22119","miles_from_dt":23.46},{"city":"Dunn Loring","state_name":"Virginia","lat":38.89411,"lng":-77.22159,"zip":"22027","miles_from_dt":23.48},{"city":"Merrifield","state_name":"Virginia","lat":38.87267,"lng":-77.2373,"zip":"22082","miles_from_dt":23.55},{"city":"Manassas","state_name":"Virginia","lat":38.74907,"lng":-77.43039,"zip":"20111","miles_from_dt":23.56},{"city":"Merrifield","state_name":"Virginia","lat":38.87338,"lng":-77.23598,"zip":"22081","miles_from_dt":23.58},{"city":"Fairfax","state_name":"Virginia","lat":38.82012,"lng":-77.29032,"zip":"22032","miles_from_dt":23.67},{"city":"Rockville","state_name":"Maryland","lat":39.07935,"lng":-77.1564,"zip":"20857","miles_from_dt":23.84},{"city":"Bethesda","state_name":"Maryland","lat":39.01371,"lng":-77.15874,"zip":"20827","miles_from_dt":23.96},{"city":"Gaithersburg","state_name":"Maryland","lat":39.16992,"lng":-77.17416,"zip":"20879","miles_from_dt":23.99},{"city":"Rockville","state_name":"Maryland","lat":39.08242,"lng":-77.15282,"zip":"20849","miles_from_dt":24.05},{"city":"McLean","state_name":"Virginia","lat":38.93368,"lng":-77.18439,"zip":"22109","miles_from_dt":24.08},{"city":"Rockville","state_name":"Maryland","lat":39.08448,"lng":-77.15186,"zip":"20847","miles_from_dt":24.11},{"city":"Millwood","state_name":"Virginia","lat":39.07019,"lng":-78.04803,"zip":"22646","miles_from_dt":24.13},{"city":"McLean","state_name":"Virginia","lat":38.93,"lng":-77.18219,"zip":"22108","miles_from_dt":24.29},{"city":"McLean","state_name":"Virginia","lat":38.93,"lng":-77.18219,"zip":"22107","miles_from_dt":24.29},{"city":"McLean","state_name":"Virginia","lat":38.94084,"lng":-77.17614,"zip":"22106","miles_from_dt":24.32},{"city":"Ijamsville","state_name":"Maryland","lat":39.33684,"lng":-77.31131,"zip":"21754","miles_from_dt":24.35},{"city":"Cabin John","state_name":"Maryland","lat":38.97347,"lng":-77.16188,"zip":"20818","miles_from_dt":24.36},{"city":"Braddock Heights","state_name":"Maryland","lat":39.41059,"lng":-77.51003,"zip":"21714","miles_from_dt":24.38},{"city":"Falls Church","state_name":"Virginia","lat":38.90076,"lng":-77.19746,"zip":"22043","miles_from_dt":24.4},{"city":"Shenandoah Junction","state_name":"West Virginia","lat":39.37157,"lng":-77.83181,"zip":"25442","miles_from_dt":24.61},{"city":"Markham","state_name":"Virginia","lat":38.9034,"lng":-78.00801,"zip":"22643","miles_from_dt":24.63},{"city":"Bethesda","state_name":"Maryland","lat":38.99809,"lng":-77.14919,"zip":"20817","miles_from_dt":24.65},{"city":"Greenway","state_name":"Virginia","lat":38.94062,"lng":-77.16512,"zip":"22067","miles_from_dt":24.88},{"city":"McLean","state_name":"Virginia","lat":38.9386,"lng":-77.16513,"zip":"22101","miles_from_dt":24.93},{"city":"Rohrersville","state_name":"Maryland","lat":39.42447,"lng":-77.65398,"zip":"21779","miles_from_dt":25.03},{"city":"Warrenton","state_name":"Virginia","lat":38.71846,"lng":-77.74275,"zip":"20187","miles_from_dt":25.06},{"city":"Nokesville","state_name":"Virginia","lat":38.70021,"lng":-77.57907,"zip":"20182","miles_from_dt":25.13},{"city":"Springfield","state_name":"Virginia","lat":38.81226,"lng":-77.25641,"zip":"22158","miles_from_dt":25.36},{"city":"Glen Echo","state_name":"Maryland","lat":38.96677,"lng":-77.14357,"zip":"20812","miles_from_dt":25.43},{"city":"Rockville","state_name":"Maryland","lat":39.05134,"lng":-77.12507,"zip":"20852","miles_from_dt":25.53},{"city":"Derwood","state_name":"Maryland","lat":39.13702,"lng":-77.13197,"zip":"20855","miles_from_dt":25.62},{"city":"Burke","state_name":"Virginia","lat":38.78784,"lng":-77.28136,"zip":"22015","miles_from_dt":25.63},{"city":"Falls Church","state_name":"Virginia","lat":38.88696,"lng":-77.18025,"zip":"22046","miles_from_dt":25.66},{"city":"Burke","state_name":"Virginia","lat":38.79333,"lng":-77.27194,"zip":"22009","miles_from_dt":25.69},{"city":"Rockville","state_name":"Maryland","lat":39.07767,"lng":-77.12089,"zip":"20851","miles_from_dt":25.75},{"city":"Falls Church","state_name":"Virginia","lat":38.86463,"lng":-77.19406,"zip":"22042","miles_from_dt":25.8},{"city":"Frederick","state_name":"Maryland","lat":39.40887,"lng":-77.41002,"zip":"21705","miles_from_dt":25.86},{"city":"Damascus","state_name":"Maryland","lat":39.29142,"lng":-77.21619,"zip":"20872","miles_from_dt":25.87},{"city":"Rockville","state_name":"Maryland","lat":39.07308,"lng":-77.11829,"zip":"20848","miles_from_dt":25.88},{"city":"Falls Church","state_name":"Virginia","lat":38.88569,"lng":-77.17123,"zip":"22040","miles_from_dt":26.13},{"city":"Arlington","state_name":"Virginia","lat":38.89459,"lng":-77.16239,"zip":"22213","miles_from_dt":26.27},{"city":"Annandale","state_name":"Virginia","lat":38.8308,"lng":-77.21402,"zip":"22003","miles_from_dt":26.27},{"city":"Kearneysville","state_name":"West Virginia","lat":39.34024,"lng":-77.93899,"zip":"25430","miles_from_dt":26.37},{"city":"Middletown","state_name":"Maryland","lat":39.44582,"lng":-77.56489,"zip":"21769","miles_from_dt":26.4},{"city":"Fairfax Station","state_name":"Virginia","lat":38.74992,"lng":-77.31536,"zip":"22039","miles_from_dt":26.53},{"city":"Springfield","state_name":"Virginia","lat":38.81129,"lng":-77.22119,"zip":"22160","miles_from_dt":26.82},{"city":"Bethesda","state_name":"Maryland","lat":38.95612,"lng":-77.11873,"zip":"20816","miles_from_dt":26.92},{"city":"Frederick","state_name":"Maryland","lat":39.42776,"lng":-77.41549,"zip":"21709","miles_from_dt":26.96},{"city":"Gaithersburg","state_name":"Maryland","lat":39.23182,"lng":-77.14514,"zip":"20882","miles_from_dt":27},{"city":"Bethesda","state_name":"Maryland","lat":39.00506,"lng":-77.10295,"zip":"20814","miles_from_dt":27.02},{"city":"Bethesda","state_name":"Maryland","lat":39.0006,"lng":-77.10373,"zip":"20892","miles_from_dt":27.03},{"city":"Monrovia","state_name":"Maryland","lat":39.35245,"lng":-77.25791,"zip":"21770","miles_from_dt":27.05},{"city":"Linden","state_name":"Virginia","lat":38.91532,"lng":-78.06538,"zip":"22642","miles_from_dt":27.1},{"city":"Bethesda","state_name":"Maryland","lat":38.99591,"lng":-77.10221,"zip":"20894","miles_from_dt":27.16},{"city":"Garrett Park","state_name":"Maryland","lat":39.03521,"lng":-77.09494,"zip":"20896","miles_from_dt":27.21},{"city":"Rockville","state_name":"Maryland","lat":39.10237,"lng":-77.09462,"zip":"20853","miles_from_dt":27.27},{"city":"Bethesda","state_name":"Maryland","lat":38.98,"lng":-77.10219,"zip":"20810","miles_from_dt":27.38},{"city":"Bethesda","state_name":"Maryland","lat":38.98204,"lng":-77.09981,"zip":"20811","miles_from_dt":27.47},{"city":"Nokesville","state_name":"Virginia","lat":38.66687,"lng":-77.55374,"zip":"20181","miles_from_dt":27.51},{"city":"Springfield","state_name":"Virginia","lat":38.80283,"lng":-77.2096,"zip":"22151","miles_from_dt":27.67},{"city":"Keedysville","state_name":"Maryland","lat":39.45758,"lng":-77.70118,"zip":"21756","miles_from_dt":27.69},{"city":"Falls Church","state_name":"Virginia","lat":38.85957,"lng":-77.15627,"zip":"22044","miles_from_dt":27.72},{"city":"Bethesda","state_name":"Maryland","lat":39.00193,"lng":-77.09038,"zip":"20889","miles_from_dt":27.72},{"city":"Arlington","state_name":"Virginia","lat":38.88337,"lng":-77.13948,"zip":"22205","miles_from_dt":27.73},{"city":"Arlington","state_name":"Virginia","lat":38.90665,"lng":-77.12384,"zip":"22207","miles_from_dt":27.81},{"city":"Bethesda","state_name":"Maryland","lat":38.98412,"lng":-77.09272,"zip":"20824","miles_from_dt":27.82},{"city":"White Post","state_name":"Virginia","lat":39.05,"lng":-78.11716,"zip":"22663","miles_from_dt":27.86},{"city":"Warrenton","state_name":"Virginia","lat":38.70589,"lng":-77.83937,"zip":"20188","miles_from_dt":27.89},{"city":"Silver Spring","state_name":"Maryland","lat":39.08411,"lng":-77.07933,"zip":"20916","miles_from_dt":28},{"city":"Springfield","state_name":"Virginia","lat":38.77564,"lng":-77.23149,"zip":"22152","miles_from_dt":28.09},{"city":"Kensington","state_name":"Maryland","lat":39.02696,"lng":-77.07781,"zip":"20895","miles_from_dt":28.17},{"city":"Silver Spring","state_name":"Maryland","lat":39.10473,"lng":-77.07679,"zip":"20908","miles_from_dt":28.24},{"city":"Shepherdstown","state_name":"West Virginia","lat":39.43835,"lng":-77.81477,"zip":"25443","miles_from_dt":28.28},{"city":"Kensington","state_name":"Maryland","lat":39.02628,"lng":-77.07544,"zip":"20891","miles_from_dt":28.31},{"city":"Sharpsburg","state_name":"Maryland","lat":39.4552,"lng":-77.75995,"zip":"21782","miles_from_dt":28.32},{"city":"Stephenson","state_name":"Virginia","lat":39.21723,"lng":-78.08901,"zip":"22656","miles_from_dt":28.34},{"city":"Brucetown","state_name":"Virginia","lat":39.25659,"lng":-78.06706,"zip":"22622","miles_from_dt":28.41},{"city":"Bethesda","state_name":"Maryland","lat":38.9841,"lng":-77.08021,"zip":"20813","miles_from_dt":28.48},{"city":"Hume","state_name":"Virginia","lat":38.82625,"lng":-78.0321,"zip":"22639","miles_from_dt":28.5},{"city":"Manassas","state_name":"Virginia","lat":38.67274,"lng":-77.42901,"zip":"20112","miles_from_dt":28.52},{"city":"Casanova","state_name":"Virginia","lat":38.66039,"lng":-77.71584,"zip":"20139","miles_from_dt":28.55},{"city":"Chevy Chase","state_name":"Maryland","lat":38.98369,"lng":-77.07845,"zip":"20815","miles_from_dt":28.57},{"city":"Chevy Chase","state_name":"Maryland","lat":38.9955,"lng":-77.07499,"zip":"20825","miles_from_dt":28.61},{"city":"Washington","state_name":"District of Columbia","lat":38.93822,"lng":-77.09139,"zip":"20016","miles_from_dt":28.69},{"city":"Washington","state_name":"District of Columbia","lat":38.94137,"lng":-77.08984,"zip":"20375","miles_from_dt":28.7},{"city":"Falls Church","state_name":"Virginia","lat":38.8485,"lng":-77.14212,"zip":"22041","miles_from_dt":28.77},{"city":"Washington","state_name":"District of Columbia","lat":38.94167,"lng":-77.08741,"zip":"20394","miles_from_dt":28.82},{"city":"Springfield","state_name":"Virginia","lat":38.8017,"lng":-77.18227,"zip":"22159","miles_from_dt":28.86},{"city":"Olney","state_name":"Maryland","lat":39.15927,"lng":-77.07572,"zip":"20830","miles_from_dt":28.9},{"city":"Olney","state_name":"Maryland","lat":39.15134,"lng":-77.07331,"zip":"20832","miles_from_dt":28.91},{"city":"Warrenton","state_name":"Virginia","lat":38.69045,"lng":-77.843,"zip":"20186","miles_from_dt":28.93},{"city":"Washington","state_name":"District of Columbia","lat":38.94357,"lng":-77.08243,"zip":"20393","miles_from_dt":29.04},{"city":"Arlington","state_name":"Virginia","lat":38.87377,"lng":-77.1164,"zip":"22203","miles_from_dt":29.14},{"city":"Orlean","state_name":"Virginia","lat":38.74958,"lng":-77.96246,"zip":"20128","miles_from_dt":29.22},{"city":"Arlington","state_name":"Virginia","lat":38.87006,"lng":-77.11668,"zip":"22230","miles_from_dt":29.24},{"city":"Springfield","state_name":"Virginia","lat":38.78786,"lng":-77.18722,"zip":"22161","miles_from_dt":29.26},{"city":"Silver Spring","state_name":"Maryland","lat":39.08858,"lng":-77.05522,"zip":"20906","miles_from_dt":29.31},{"city":"Suburb Maryland Fac","state_name":"Maryland","lat":39.08787,"lng":-77.05479,"zip":"20897","miles_from_dt":29.33},{"city":"New Market","state_name":"Maryland","lat":39.4088,"lng":-77.27844,"zip":"21774","miles_from_dt":29.36},{"city":"Alexandria","state_name":"Virginia","lat":38.81685,"lng":-77.15372,"zip":"22312","miles_from_dt":29.45},{"city":"Springfield","state_name":"Virginia","lat":38.74443,"lng":-77.23451,"zip":"22153","miles_from_dt":29.55},{"city":"Frederick","state_name":"Maryland","lat":39.48019,"lng":-77.4578,"zip":"21702","miles_from_dt":29.69},{"city":"Silver Spring","state_name":"Maryland","lat":39.04373,"lng":-77.04679,"zip":"20915","miles_from_dt":29.76},{"city":"Arlington","state_name":"Virginia","lat":38.88684,"lng":-77.09501,"zip":"22201","miles_from_dt":29.78},{"city":"Springfield","state_name":"Virginia","lat":38.7765,"lng":-77.1864,"zip":"22156","miles_from_dt":29.81},{"city":"Arlington","state_name":"Virginia","lat":38.88728,"lng":-77.09394,"zip":"22210","miles_from_dt":29.82},{"city":"Washington","state_name":"District of Columbia","lat":38.9164,"lng":-77.07787,"zip":"20435","miles_from_dt":29.87},{"city":"Washington","state_name":"District of Columbia","lat":38.96661,"lng":-77.05837,"zip":"20015","miles_from_dt":29.88},{"city":"Arlington","state_name":"Virginia","lat":38.88388,"lng":-77.09428,"zip":"22226","miles_from_dt":29.91},{"city":"Bunker Hill","state_name":"West Virginia","lat":39.31632,"lng":-78.053,"zip":"25413","miles_from_dt":29.93},{"city":"Washington","state_name":"District of Columbia","lat":38.91259,"lng":-77.07756,"zip":"20007","miles_from_dt":29.97},{"city":"Frederick","state_name":"Maryland","lat":39.44729,"lng":-77.33512,"zip":"21701","miles_from_dt":29.99}],"targetCityZipCode":"20175","targetCityState":"Virginia"},"__N_SSG":true}