{"pageProps":{"stateName":"Virginia","cityName":"millwood","nearbyCities":[{"city":"Boyce","state_name":"Virginia","lat":39.06417,"lng":-78.03317,"zip":"22620","miles_from_dt":0.9},{"city":"White Post","state_name":"Virginia","lat":39.05,"lng":-78.11716,"zip":"22663","miles_from_dt":3.97},{"city":"Paris","state_name":"Virginia","lat":39.02756,"lng":-77.94243,"zip":"20130","miles_from_dt":6.4},{"city":"Berryville","state_name":"Virginia","lat":39.16374,"lng":-77.98512,"zip":"22611","miles_from_dt":7.29},{"city":"Stephens City","state_name":"Virginia","lat":39.06443,"lng":-78.21425,"zip":"22655","miles_from_dt":8.95},{"city":"Bluemont","state_name":"Virginia","lat":39.08602,"lng":-77.87659,"zip":"20135","miles_from_dt":9.28},{"city":"Winchester","state_name":"Virginia","lat":39.1743,"lng":-78.1743,"zip":"22601","miles_from_dt":9.88},{"city":"Winchester","state_name":"Virginia","lat":39.18715,"lng":-78.15463,"zip":"22604","miles_from_dt":9.89},{"city":"Upperville","state_name":"Virginia","lat":39.00143,"lng":-77.87874,"zip":"20184","miles_from_dt":10.27},{"city":"Upperville","state_name":"Virginia","lat":38.9945,"lng":-77.88181,"zip":"20185","miles_from_dt":10.36},{"city":"Stephenson","state_name":"Virginia","lat":39.21723,"lng":-78.08901,"zip":"22656","miles_from_dt":10.38},{"city":"Linden","state_name":"Virginia","lat":38.91532,"lng":-78.06538,"zip":"22642","miles_from_dt":10.72},{"city":"Markham","state_name":"Virginia","lat":38.9034,"lng":-78.00801,"zip":"22643","miles_from_dt":11.71},{"city":"Delaplane","state_name":"Virginia","lat":38.92117,"lng":-77.93759,"zip":"20144","miles_from_dt":11.87},{"city":"Front Royal","state_name":"Virginia","lat":38.92909,"lng":-78.18052,"zip":"22630","miles_from_dt":12.07},{"city":"Middletown","state_name":"Virginia","lat":39.00518,"lng":-78.25833,"zip":"22649","miles_from_dt":12.17},{"city":"Middletown","state_name":"Virginia","lat":39.02152,"lng":-78.27457,"zip":"22645","miles_from_dt":12.64},{"city":"Summit Point","state_name":"West Virginia","lat":39.24013,"lng":-77.95705,"zip":"25446","miles_from_dt":12.7},{"city":"Rippon","state_name":"West Virginia","lat":39.2282,"lng":-77.92222,"zip":"25441","miles_from_dt":12.82},{"city":"Brucetown","state_name":"Virginia","lat":39.25659,"lng":-78.06706,"zip":"22622","miles_from_dt":12.9},{"city":"Winchester","state_name":"Virginia","lat":39.1508,"lng":-78.26555,"zip":"22602","miles_from_dt":12.95},{"city":"Clear Brook","state_name":"Virginia","lat":39.26535,"lng":-78.09507,"zip":"22624","miles_from_dt":13.7},{"city":"Round Hill","state_name":"Virginia","lat":39.11675,"lng":-77.79159,"zip":"20141","miles_from_dt":14.15},{"city":"Rectortown","state_name":"Virginia","lat":38.92037,"lng":-77.86292,"zip":"20140","miles_from_dt":14.36},{"city":"Round Hill","state_name":"Virginia","lat":39.13504,"lng":-77.77179,"zip":"20142","miles_from_dt":15.51},{"city":"Ridgeway","state_name":"West Virginia","lat":39.29801,"lng":-78.07101,"zip":"25440","miles_from_dt":15.76},{"city":"Charles Town","state_name":"West Virginia","lat":39.25273,"lng":-77.87055,"zip":"25414","miles_from_dt":15.79},{"city":"Chester Gap","state_name":"Virginia","lat":38.85158,"lng":-78.13734,"zip":"22623","miles_from_dt":15.83},{"city":"Philomont","state_name":"Virginia","lat":39.05815,"lng":-77.74061,"zip":"20131","miles_from_dt":16.55},{"city":"Hume","state_name":"Virginia","lat":38.82625,"lng":-78.0321,"zip":"22639","miles_from_dt":16.85},{"city":"Winchester","state_name":"Virginia","lat":39.28153,"lng":-78.2056,"zip":"22603","miles_from_dt":16.86},{"city":"Bunker Hill","state_name":"West Virginia","lat":39.31632,"lng":-78.053,"zip":"25413","miles_from_dt":16.98},{"city":"Middleburg","state_name":"Virginia","lat":38.99473,"lng":-77.73851,"zip":"20117","miles_from_dt":17.45},{"city":"Marshall","state_name":"Virginia","lat":38.86836,"lng":-77.85245,"zip":"20116","miles_from_dt":17.46},{"city":"Strasburg","state_name":"Virginia","lat":39.00155,"lng":-78.36755,"zip":"22657","miles_from_dt":17.83},{"city":"Strasburg","state_name":"Virginia","lat":39.07795,"lng":-78.38588,"zip":"22641","miles_from_dt":18.17},{"city":"Middleburg","state_name":"Virginia","lat":38.96752,"lng":-77.73428,"zip":"20118","miles_from_dt":18.31},{"city":"Purcellville","state_name":"Virginia","lat":39.16648,"lng":-77.72748,"zip":"20132","miles_from_dt":18.46},{"city":"Huntly","state_name":"Virginia","lat":38.80737,"lng":-78.13302,"zip":"22640","miles_from_dt":18.7},{"city":"Purcellville","state_name":"Virginia","lat":39.14233,"lng":-77.71139,"zip":"20134","miles_from_dt":18.77},{"city":"Marshall","state_name":"Virginia","lat":38.82138,"lng":-77.89764,"zip":"20115","miles_from_dt":18.98},{"city":"Lincoln","state_name":"Virginia","lat":39.1162,"lng":-77.69397,"zip":"20160","miles_from_dt":19.3},{"city":"Kearneysville","state_name":"West Virginia","lat":39.34024,"lng":-77.93899,"zip":"25430","miles_from_dt":19.53},{"city":"Ranson","state_name":"West Virginia","lat":39.31853,"lng":-77.86448,"zip":"25438","miles_from_dt":19.76},{"city":"Harpers Ferry","state_name":"West Virginia","lat":39.27613,"lng":-77.79184,"zip":"25425","miles_from_dt":19.78},{"city":"Fishers Hill","state_name":"Virginia","lat":38.97919,"lng":-78.40502,"zip":"22626","miles_from_dt":20.21},{"city":"The Plains","state_name":"Virginia","lat":38.87523,"lng":-77.76128,"zip":"20198","miles_from_dt":20.48},{"city":"Gore","state_name":"Virginia","lat":39.25057,"lng":-78.3605,"zip":"22637","miles_from_dt":20.89},{"city":"Millville","state_name":"West Virginia","lat":39.29562,"lng":-77.78663,"zip":"25432","miles_from_dt":20.95},{"city":"Inwood","state_name":"West Virginia","lat":39.37407,"lng":-78.02729,"zip":"25428","miles_from_dt":20.99},{"city":"Hamilton","state_name":"Virginia","lat":39.13425,"lng":-77.66495,"zip":"20159","miles_from_dt":21.06},{"city":"Flint Hill","state_name":"Virginia","lat":38.76554,"lng":-78.11371,"zip":"22627","miles_from_dt":21.31},{"city":"Bentonville","state_name":"Virginia","lat":38.81803,"lng":-78.28102,"zip":"22610","miles_from_dt":21.45},{"city":"Halltown","state_name":"West Virginia","lat":39.31449,"lng":-77.79823,"zip":"25423","miles_from_dt":21.54},{"city":"Hamilton","state_name":"Virginia","lat":39.14126,"lng":-77.65514,"zip":"20158","miles_from_dt":21.68},{"city":"Gerrardstown","state_name":"West Virginia","lat":39.38095,"lng":-78.11969,"zip":"25420","miles_from_dt":21.78},{"city":"Star Tannery","state_name":"Virginia","lat":39.06863,"lng":-78.4586,"zip":"22654","miles_from_dt":22.08},{"city":"Glengary","state_name":"West Virginia","lat":39.37821,"lng":-78.16384,"zip":"25421","miles_from_dt":22.14},{"city":"Toms Brook","state_name":"Virginia","lat":38.95628,"lng":-78.4383,"zip":"22660","miles_from_dt":22.42},{"city":"Orlean","state_name":"Virginia","lat":38.74958,"lng":-77.96246,"zip":"20128","miles_from_dt":22.59},{"city":"Bakerton","state_name":"West Virginia","lat":39.32699,"lng":-77.78005,"zip":"25410","miles_from_dt":22.82},{"city":"High View","state_name":"West Virginia","lat":39.19563,"lng":-78.44416,"zip":"26808","miles_from_dt":22.97},{"city":"Martinsburg","state_name":"West Virginia","lat":39.40892,"lng":-77.96235,"zip":"25405","miles_from_dt":23.81},{"city":"Shenandoah Junction","state_name":"West Virginia","lat":39.37157,"lng":-77.83181,"zip":"25442","miles_from_dt":23.81},{"city":"Leesburg","state_name":"Virginia","lat":39.0641,"lng":-77.59939,"zip":"20175","miles_from_dt":24.13},{"city":"Waterford","state_name":"Virginia","lat":39.19379,"lng":-77.62252,"zip":"20197","miles_from_dt":24.4},{"city":"Aldie","state_name":"Virginia","lat":38.95949,"lng":-77.60829,"zip":"20105","miles_from_dt":24.87},{"city":"Broad Run","state_name":"Virginia","lat":38.80682,"lng":-77.72992,"zip":"20137","miles_from_dt":24.98},{"city":"Capon Springs","state_name":"West Virginia","lat":39.13033,"lng":-78.51139,"zip":"26823","miles_from_dt":25.25},{"city":"Cross Junction","state_name":"Virginia","lat":39.37397,"lng":-78.31172,"zip":"22625","miles_from_dt":25.29},{"city":"Paeonian Springs","state_name":"Virginia","lat":39.16673,"lng":-77.59404,"zip":"20129","miles_from_dt":25.29},{"city":"Washington","state_name":"Virginia","lat":38.7122,"lng":-78.16768,"zip":"22747","miles_from_dt":25.52},{"city":"Haymarket","state_name":"Virginia","lat":38.87172,"lng":-77.64627,"zip":"20169","miles_from_dt":25.6},{"city":"Lovettsville","state_name":"Virginia","lat":39.26775,"lng":-77.63804,"zip":"20180","miles_from_dt":25.89},{"city":"Fort Valley","state_name":"Virginia","lat":38.83921,"lng":-78.42894,"zip":"22652","miles_from_dt":25.98},{"city":"Leesburg","state_name":"Virginia","lat":39.10694,"lng":-77.56527,"zip":"20177","miles_from_dt":26.08},{"city":"Leesburg","state_name":"Virginia","lat":39.11878,"lng":-77.56645,"zip":"20178","miles_from_dt":26.1},{"city":"Amissville","state_name":"Virginia","lat":38.6871,"lng":-78.0133,"zip":"20106","miles_from_dt":26.49},{"city":"Yellow Spring","state_name":"West Virginia","lat":39.19053,"lng":-78.51932,"zip":"26865","miles_from_dt":26.65},{"city":"Martinsburg","state_name":"West Virginia","lat":39.45642,"lng":-77.97267,"zip":"25401","miles_from_dt":26.95},{"city":"Maurertown","state_name":"Virginia","lat":38.96362,"lng":-78.5314,"zip":"22644","miles_from_dt":27.03},{"city":"Bloomery","state_name":"West Virginia","lat":39.35957,"lng":-78.39067,"zip":"26817","miles_from_dt":27.14},{"city":"Rileyville","state_name":"Virginia","lat":38.75893,"lng":-78.35817,"zip":"22650","miles_from_dt":27.21},{"city":"Martinsburg","state_name":"West Virginia","lat":39.46145,"lng":-77.96982,"zip":"25402","miles_from_dt":27.31},{"city":"Warrenton","state_name":"Virginia","lat":38.70589,"lng":-77.83937,"zip":"20188","miles_from_dt":27.53},{"city":"Capon Bridge","state_name":"West Virginia","lat":39.30301,"lng":-78.47073,"zip":"26711","miles_from_dt":27.8},{"city":"Knoxville","state_name":"Maryland","lat":39.34567,"lng":-77.66265,"zip":"21758","miles_from_dt":28.09},{"city":"Ashburn","state_name":"Virginia","lat":38.99062,"lng":-77.53284,"zip":"20148","miles_from_dt":28.26},{"city":"Shepherdstown","state_name":"West Virginia","lat":39.43835,"lng":-77.81477,"zip":"25443","miles_from_dt":28.31},{"city":"Brunswick","state_name":"Maryland","lat":39.31798,"lng":-77.6262,"zip":"21716","miles_from_dt":28.37},{"city":"Warrenton","state_name":"Virginia","lat":38.69045,"lng":-77.843,"zip":"20186","miles_from_dt":28.43},{"city":"Haymarket","state_name":"Virginia","lat":38.81099,"lng":-77.63563,"zip":"20168","miles_from_dt":28.52},{"city":"Martinsburg","state_name":"West Virginia","lat":39.4842,"lng":-78.00725,"zip":"25403","miles_from_dt":28.64},{"city":"Leesburg","state_name":"Virginia","lat":39.18147,"lng":-77.5345,"zip":"20176","miles_from_dt":28.64},{"city":"Woodstock","state_name":"Virginia","lat":38.8944,"lng":-78.53119,"zip":"22664","miles_from_dt":28.7},{"city":"Gainesville","state_name":"Virginia","lat":38.80646,"lng":-77.62145,"zip":"20155","miles_from_dt":29.31},{"city":"Warrenton","state_name":"Virginia","lat":38.71846,"lng":-77.74275,"zip":"20187","miles_from_dt":29.32},{"city":"Catharpin","state_name":"Virginia","lat":38.86421,"lng":-77.56792,"zip":"20143","miles_from_dt":29.5},{"city":"Brownsville","state_name":"Maryland","lat":39.37879,"lng":-77.66063,"zip":"21715","miles_from_dt":29.75},{"city":"Gainesville","state_name":"Virginia","lat":38.79195,"lng":-77.62537,"zip":"20156","miles_from_dt":29.78},{"city":"Martinsburg","state_name":"West Virginia","lat":39.48631,"lng":-77.89782,"zip":"25404","miles_from_dt":29.81}],"targetCityZipCode":"22646","targetCityState":"Virginia"},"__N_SSG":true}