{"pageProps":{"stateName":"Virginia","cityName":"montross","nearbyCities":[{"city":"Zacata","state_name":"Virginia","lat":38.1197,"lng":-76.785,"zip":"22581","miles_from_dt":1.18},{"city":"Stratford","state_name":"Virginia","lat":38.14647,"lng":-76.84229,"zip":"22558","miles_from_dt":2.85},{"city":"Mount Holly","state_name":"Virginia","lat":38.13575,"lng":-76.66166,"zip":"22524","miles_from_dt":7.99},{"city":"Coltons Point","state_name":"Maryland","lat":38.23256,"lng":-76.76404,"zip":"20626","miles_from_dt":8.33},{"city":"Hague","state_name":"Virginia","lat":38.0667,"lng":-76.64749,"zip":"22469","miles_from_dt":9.32},{"city":"Coles Point","state_name":"Virginia","lat":38.14623,"lng":-76.63382,"zip":"22442","miles_from_dt":9.62},{"city":"Warsaw","state_name":"Virginia","lat":37.97552,"lng":-76.77495,"zip":"22572","miles_from_dt":9.87},{"city":"Oldhams","state_name":"Virginia","lat":38.01036,"lng":-76.67942,"zip":"22529","miles_from_dt":10.07},{"city":"Abell","state_name":"Maryland","lat":38.25412,"lng":-76.73878,"zip":"20606","miles_from_dt":10.18},{"city":"Cobb Island","state_name":"Maryland","lat":38.26212,"lng":-76.84877,"zip":"20625","miles_from_dt":10.31},{"city":"Mount Victoria","state_name":"Maryland","lat":38.26474,"lng":-76.84473,"zip":"20661","miles_from_dt":10.44},{"city":"Avenue","state_name":"Maryland","lat":38.27191,"lng":-76.74625,"zip":"20609","miles_from_dt":11.21},{"city":"Colonial Beach","state_name":"Virginia","lat":38.18078,"lng":-76.99776,"zip":"22443","miles_from_dt":11.33},{"city":"Bushwood","state_name":"Maryland","lat":38.28152,"lng":-76.78891,"zip":"20618","miles_from_dt":11.42},{"city":"Champlain","state_name":"Virginia","lat":38.03788,"lng":-76.99971,"zip":"22438","miles_from_dt":11.86},{"city":"Kinsale","state_name":"Virginia","lat":38.04986,"lng":-76.58796,"zip":"22488","miles_from_dt":12.76},{"city":"Haynesville","state_name":"Virginia","lat":37.95897,"lng":-76.67257,"zip":"22472","miles_from_dt":13.09},{"city":"Issue","state_name":"Maryland","lat":38.29838,"lng":-76.91413,"zip":"20645","miles_from_dt":13.85},{"city":"Sandy Point","state_name":"Virginia","lat":38.0653,"lng":-76.55916,"zip":"22577","miles_from_dt":13.93},{"city":"Loretto","state_name":"Virginia","lat":38.10642,"lng":-77.06669,"zip":"22509","miles_from_dt":14.2},{"city":"Leonardtown","state_name":"Maryland","lat":38.27186,"lng":-76.63276,"zip":"20650","miles_from_dt":14.29},{"city":"Chaptico","state_name":"Maryland","lat":38.33062,"lng":-76.79438,"zip":"20621","miles_from_dt":14.78},{"city":"Rollins Fork","state_name":"Virginia","lat":38.18562,"lng":-77.06584,"zip":"22544","miles_from_dt":14.92},{"city":"Hustle","state_name":"Virginia","lat":38.03807,"lng":-77.06872,"zip":"22476","miles_from_dt":15.29},{"city":"Caret","state_name":"Virginia","lat":38.04698,"lng":-77.07471,"zip":"22436","miles_from_dt":15.4},{"city":"Tall Timbers","state_name":"Maryland","lat":38.15916,"lng":-76.52631,"zip":"20690","miles_from_dt":15.54},{"city":"Clements","state_name":"Maryland","lat":38.33523,"lng":-76.73451,"zip":"20624","miles_from_dt":15.58},{"city":"Village","state_name":"Virginia","lat":37.9484,"lng":-76.60462,"zip":"22570","miles_from_dt":15.99},{"city":"Compton","state_name":"Maryland","lat":38.30501,"lng":-76.63201,"zip":"20627","miles_from_dt":16.09},{"city":"Callao","state_name":"Virginia","lat":37.97216,"lng":-76.57288,"zip":"22435","miles_from_dt":16.16},{"city":"Tappahannock","state_name":"Virginia","lat":37.91289,"lng":-76.96196,"zip":"22560","miles_from_dt":16.41},{"city":"Piney Point","state_name":"Maryland","lat":38.13307,"lng":-76.50019,"zip":"20674","miles_from_dt":16.72},{"city":"Loveville","state_name":"Maryland","lat":38.33914,"lng":-76.6787,"zip":"20656","miles_from_dt":16.85},{"city":"Valley Lee","state_name":"Maryland","lat":38.18352,"lng":-76.50682,"zip":"20692","miles_from_dt":16.96},{"city":"Rock Point","state_name":"Maryland","lat":38.34621,"lng":-76.92068,"zip":"20682","miles_from_dt":17.02},{"city":"Ninde","state_name":"Virginia","lat":38.27014,"lng":-77.05432,"zip":"22526","miles_from_dt":17.16},{"city":"Newburg","state_name":"Maryland","lat":38.35062,"lng":-76.91631,"zip":"20664","miles_from_dt":17.22},{"city":"Callaway","state_name":"Maryland","lat":38.23288,"lng":-76.52196,"zip":"20620","miles_from_dt":17.44},{"city":"Morganza","state_name":"Maryland","lat":38.36928,"lng":-76.70741,"zip":"20660","miles_from_dt":18.25},{"city":"Drayden","state_name":"Maryland","lat":38.16653,"lng":-76.47087,"zip":"20630","miles_from_dt":18.6},{"city":"Lottsburg","state_name":"Virginia","lat":37.98352,"lng":-76.50323,"zip":"22511","miles_from_dt":18.91},{"city":"Jersey","state_name":"Virginia","lat":38.21048,"lng":-77.13727,"zip":"22481","miles_from_dt":19.15},{"city":"Great Mills","state_name":"Maryland","lat":38.24582,"lng":-76.49412,"zip":"20634","miles_from_dt":19.2},{"city":"California","state_name":"Maryland","lat":38.2919,"lng":-76.52714,"zip":"20619","miles_from_dt":19.42},{"city":"Dunnsville","state_name":"Virginia","lat":37.83599,"lng":-76.85032,"zip":"22454","miles_from_dt":19.5},{"city":"Dahlgren","state_name":"Virginia","lat":38.33996,"lng":-77.03238,"zip":"22448","miles_from_dt":19.72},{"city":"Farnham","state_name":"Virginia","lat":37.87612,"lng":-76.60692,"zip":"22460","miles_from_dt":19.83},{"city":"Saint Marys City","state_name":"Maryland","lat":38.18557,"lng":-76.43898,"zip":"20686","miles_from_dt":20.57},{"city":"Sharps","state_name":"Virginia","lat":37.82929,"lng":-76.69256,"zip":"22548","miles_from_dt":20.76},{"city":"Hollywood","state_name":"Maryland","lat":38.35582,"lng":-76.57212,"zip":"20636","miles_from_dt":20.85},{"city":"Park Hall","state_name":"Maryland","lat":38.21782,"lng":-76.44537,"zip":"20667","miles_from_dt":20.86},{"city":"Millers Tavern","state_name":"Virginia","lat":37.82909,"lng":-76.94601,"zip":"23115","miles_from_dt":21.24},{"city":"Mechanicsville","state_name":"Maryland","lat":38.41886,"lng":-76.73238,"zip":"20659","miles_from_dt":21.24},{"city":"Port Royal","state_name":"Virginia","lat":38.12314,"lng":-77.19619,"zip":"22535","miles_from_dt":21.25},{"city":"Saint Inigoes","state_name":"Maryland","lat":38.14308,"lng":-76.41027,"zip":"20684","miles_from_dt":21.66},{"city":"Lexington Park","state_name":"Maryland","lat":38.22795,"lng":-76.43139,"zip":"20653","miles_from_dt":21.81},{"city":"King George","state_name":"Virginia","lat":38.2717,"lng":-77.15996,"zip":"22485","miles_from_dt":22.02},{"city":"Newtown","state_name":"Virginia","lat":37.92285,"lng":-77.1448,"zip":"23126","miles_from_dt":22.79},{"city":"Faulkner","state_name":"Maryland","lat":38.42591,"lng":-76.95682,"zip":"20632","miles_from_dt":22.86},{"city":"Charlotte Hall","state_name":"Maryland","lat":38.45281,"lng":-76.84504,"zip":"20622","miles_from_dt":23.29},{"city":"Center Cross","state_name":"Virginia","lat":37.7764,"lng":-76.8156,"zip":"22437","miles_from_dt":23.46},{"city":"Saint Stephens Church","state_name":"Virginia","lat":37.84262,"lng":-77.06223,"zip":"23148","miles_from_dt":23.49},{"city":"Ridge","state_name":"Maryland","lat":38.11071,"lng":-76.37353,"zip":"20680","miles_from_dt":23.59},{"city":"Dogue","state_name":"Virginia","lat":38.23522,"lng":-77.21402,"zip":"22451","miles_from_dt":23.66},{"city":"Solomons","state_name":"Maryland","lat":38.33475,"lng":-76.46965,"zip":"20688","miles_from_dt":23.71},{"city":"Patuxent River","state_name":"Maryland","lat":38.2824,"lng":-76.42031,"zip":"20670","miles_from_dt":23.92},{"city":"Morattico","state_name":"Virginia","lat":37.78866,"lng":-76.63003,"zip":"22523","miles_from_dt":24.58},{"city":"Dowell","state_name":"Maryland","lat":38.33996,"lng":-76.45388,"zip":"20629","miles_from_dt":24.6},{"city":"Bruington","state_name":"Virginia","lat":37.78293,"lng":-76.96586,"zip":"23023","miles_from_dt":24.6},{"city":"Sparta","state_name":"Virginia","lat":37.9913,"lng":-77.22889,"zip":"22552","miles_from_dt":24.61},{"city":"Laneview","state_name":"Virginia","lat":37.76346,"lng":-76.72675,"zip":"22504","miles_from_dt":24.73},{"city":"Dameron","state_name":"Maryland","lat":38.1459,"lng":-76.35027,"zip":"20628","miles_from_dt":24.93},{"city":"Broomes Island","state_name":"Maryland","lat":38.4204,"lng":-76.54772,"zip":"20615","miles_from_dt":25.24},{"city":"Scotland","state_name":"Maryland","lat":38.07578,"lng":-76.34382,"zip":"20687","miles_from_dt":25.37},{"city":"Bel Alton","state_name":"Maryland","lat":38.46251,"lng":-76.98538,"zip":"20611","miles_from_dt":25.77},{"city":"Milford","state_name":"Virginia","lat":37.9724,"lng":-77.24471,"zip":"22514","miles_from_dt":25.89},{"city":"Rappahannock Academy","state_name":"Virginia","lat":38.18941,"lng":-77.27334,"zip":"22538","miles_from_dt":25.93},{"city":"Bowling Green","state_name":"Virginia","lat":38.07177,"lng":-77.28624,"zip":"22427","miles_from_dt":26.34},{"city":"Nuttsville","state_name":"Virginia","lat":37.79008,"lng":-76.55182,"zip":"22528","miles_from_dt":26.46},{"city":"Saint Leonard","state_name":"Maryland","lat":38.43465,"lng":-76.52904,"zip":"20685","miles_from_dt":26.62},{"city":"Heathsville","state_name":"Virginia","lat":37.88316,"lng":-76.41386,"zip":"22473","miles_from_dt":26.79},{"city":"Lusby","state_name":"Maryland","lat":38.38358,"lng":-76.44537,"zip":"20657","miles_from_dt":26.92},{"city":"Jamaica","state_name":"Virginia","lat":37.7248,"lng":-76.68941,"zip":"23079","miles_from_dt":27.76},{"city":"Benedict","state_name":"Maryland","lat":38.50708,"lng":-76.67789,"zip":"20612","miles_from_dt":27.83},{"city":"Edwardsville","state_name":"Virginia","lat":37.90854,"lng":-76.36714,"zip":"22456","miles_from_dt":27.93},{"city":"Stevensville","state_name":"Virginia","lat":37.72152,"lng":-76.93037,"zip":"23161","miles_from_dt":28.07},{"city":"Welcome","state_name":"Maryland","lat":38.45924,"lng":-77.08931,"zip":"20693","miles_from_dt":28.2},{"city":"Hughesville","state_name":"Maryland","lat":38.52577,"lng":-76.77897,"zip":"20637","miles_from_dt":28.27},{"city":"King And Queen Court House","state_name":"Virginia","lat":37.70623,"lng":-76.84205,"zip":"23085","miles_from_dt":28.36},{"city":"Lively","state_name":"Virginia","lat":37.77585,"lng":-76.51487,"zip":"22507","miles_from_dt":28.38},{"city":"Mollusk","state_name":"Virginia","lat":37.77585,"lng":-76.51487,"zip":"22517","miles_from_dt":28.38},{"city":"Merry Point","state_name":"Virginia","lat":37.77585,"lng":-76.51487,"zip":"22513","miles_from_dt":28.38},{"city":"Walkerton","state_name":"Virginia","lat":37.73088,"lng":-77.00295,"zip":"23177","miles_from_dt":28.68},{"city":"Sealston","state_name":"Virginia","lat":38.25047,"lng":-77.31107,"zip":"22547","miles_from_dt":28.99},{"city":"Port Republic","state_name":"Maryland","lat":38.4869,"lng":-76.54788,"zip":"20676","miles_from_dt":29.15},{"city":"Port Tobacco","state_name":"Maryland","lat":38.49992,"lng":-77.04016,"zip":"20677","miles_from_dt":29.34},{"city":"Lancaster","state_name":"Virginia","lat":37.7624,"lng":-76.50432,"zip":"22503","miles_from_dt":29.47},{"city":"Bryantown","state_name":"Maryland","lat":38.54351,"lng":-76.854,"zip":"20617","miles_from_dt":29.57},{"city":"Aylett","state_name":"Virginia","lat":37.81038,"lng":-77.18717,"zip":"23009","miles_from_dt":29.63},{"city":"La Plata","state_name":"Maryland","lat":38.52114,"lng":-76.99989,"zip":"20646","miles_from_dt":29.82},{"city":"Bowling Green","state_name":"Virginia","lat":38.04738,"lng":-77.34812,"zip":"22428","miles_from_dt":29.92}],"targetCityZipCode":"22520","targetCityState":"Virginia"},"__N_SSG":true}