{"pageProps":{"stateName":"Virginia","cityName":"nickelsville","nearbyCities":[{"city":"Hiltons","state_name":"Virginia","lat":36.6517,"lng":-82.41199,"zip":"24258","miles_from_dt":6.59},{"city":"Dungannon","state_name":"Virginia","lat":36.84045,"lng":-82.51598,"zip":"24245","miles_from_dt":8.45},{"city":"Fort Blackmore","state_name":"Virginia","lat":36.75752,"lng":-82.58705,"zip":"24250","miles_from_dt":9.46},{"city":"Mendota","state_name":"Virginia","lat":36.72846,"lng":-82.24693,"zip":"24270","miles_from_dt":9.53},{"city":"Castlewood","state_name":"Virginia","lat":36.86059,"lng":-82.28322,"zip":"24224","miles_from_dt":10.79},{"city":"Gate City","state_name":"Virginia","lat":36.65807,"lng":-82.60582,"zip":"24251","miles_from_dt":12.14},{"city":"Weber City","state_name":"Virginia","lat":36.61186,"lng":-82.56688,"zip":"24290","miles_from_dt":12.5},{"city":"Bristol","state_name":"Virginia","lat":36.65904,"lng":-82.21564,"zip":"24202","miles_from_dt":12.73},{"city":"Saint Paul","state_name":"Virginia","lat":36.94155,"lng":-82.34554,"zip":"24283","miles_from_dt":13.98},{"city":"Kingsport","state_name":"Tennessee","lat":36.57951,"lng":-82.57304,"zip":"37665","miles_from_dt":14.44},{"city":"Blountville","state_name":"Tennessee","lat":36.53155,"lng":-82.37248,"zip":"37617","miles_from_dt":15.07},{"city":"Coeburn","state_name":"Virginia","lat":36.96928,"lng":-82.45449,"zip":"24230","miles_from_dt":15.46},{"city":"Kingsport","state_name":"Tennessee","lat":36.54645,"lng":-82.56383,"zip":"37662","miles_from_dt":16.06},{"city":"Bristol","state_name":"Virginia","lat":36.59612,"lng":-82.19092,"zip":"24205","miles_from_dt":16.32},{"city":"Bristol","state_name":"Virginia","lat":36.59717,"lng":-82.18862,"zip":"24203","miles_from_dt":16.37},{"city":"Bristol","state_name":"Tennessee","lat":36.58053,"lng":-82.20482,"zip":"37621","miles_from_dt":16.46},{"city":"Bristol","state_name":"Virginia","lat":36.61241,"lng":-82.16862,"zip":"24209","miles_from_dt":16.64},{"city":"Bristol","state_name":"Tennessee","lat":36.59399,"lng":-82.18562,"zip":"37625","miles_from_dt":16.64},{"city":"Bristol","state_name":"Virginia","lat":36.61059,"lng":-82.16971,"zip":"24201","miles_from_dt":16.66},{"city":"Kingsport","state_name":"Tennessee","lat":36.52912,"lng":-82.55612,"zip":"37669","miles_from_dt":16.9},{"city":"Kingsport","state_name":"Tennessee","lat":36.51163,"lng":-82.50729,"zip":"37664","miles_from_dt":16.99},{"city":"Kingsport","state_name":"Tennessee","lat":36.52938,"lng":-82.57339,"zip":"37660","miles_from_dt":17.34},{"city":"Andover","state_name":"Virginia","lat":36.99383,"lng":-82.53593,"zip":"24215","miles_from_dt":18.24},{"city":"Mount Carmel","state_name":"Tennessee","lat":36.56275,"lng":-82.66243,"zip":"37645","miles_from_dt":18.64},{"city":"Lebanon","state_name":"Virginia","lat":36.8671,"lng":-82.10523,"zip":"24266","miles_from_dt":19.17},{"city":"Big Stone Gap","state_name":"Virginia","lat":36.84831,"lng":-82.74645,"zip":"24219","miles_from_dt":19.55},{"city":"Wise","state_name":"Virginia","lat":37.00559,"lng":-82.56458,"zip":"24293","miles_from_dt":19.61},{"city":"Kingsport","state_name":"Tennessee","lat":36.46466,"lng":-82.48525,"zip":"37663","miles_from_dt":19.84},{"city":"Norton","state_name":"Virginia","lat":36.96142,"lng":-82.65632,"zip":"24273","miles_from_dt":19.85},{"city":"East Stone Gap","state_name":"Virginia","lat":36.86609,"lng":-82.74395,"zip":"24246","miles_from_dt":19.89},{"city":"Nora","state_name":"Virginia","lat":37.0302,"lng":-82.33401,"zip":"24272","miles_from_dt":20.06},{"city":"Duffield","state_name":"Virginia","lat":36.71075,"lng":-82.79785,"zip":"24244","miles_from_dt":21.28},{"city":"Piney Flats","state_name":"Tennessee","lat":36.44175,"lng":-82.34639,"zip":"37686","miles_from_dt":21.42},{"city":"Dante","state_name":"Virginia","lat":37.03939,"lng":-82.26424,"zip":"24237","miles_from_dt":21.86},{"city":"Cleveland","state_name":"Virginia","lat":36.97543,"lng":-82.14115,"zip":"24225","miles_from_dt":21.95},{"city":"Abingdon","state_name":"Virginia","lat":36.77231,"lng":-82.02244,"zip":"24210","miles_from_dt":21.97},{"city":"Bristol","state_name":"Tennessee","lat":36.55124,"lng":-82.09867,"zip":"37620","miles_from_dt":22.26},{"city":"Bluff City","state_name":"Tennessee","lat":36.46555,"lng":-82.20833,"zip":"37618","miles_from_dt":22.62},{"city":"Church Hill","state_name":"Tennessee","lat":36.53261,"lng":-82.7267,"zip":"37642","miles_from_dt":22.69},{"city":"McClure","state_name":"Virginia","lat":37.0803,"lng":-82.37894,"zip":"24269","miles_from_dt":23.07},{"city":"Piney Flats","state_name":"Tennessee","lat":36.41835,"lng":-82.30389,"zip":"37699","miles_from_dt":23.53},{"city":"Johnson City","state_name":"Tennessee","lat":36.39771,"lng":-82.45246,"zip":"37615","miles_from_dt":24.17},{"city":"Abingdon","state_name":"Virginia","lat":36.70693,"lng":-81.97439,"zip":"24212","miles_from_dt":24.73},{"city":"Appalachia","state_name":"Virginia","lat":36.94237,"lng":-82.79571,"zip":"24216","miles_from_dt":24.93},{"city":"Watauga","state_name":"Tennessee","lat":36.3849,"lng":-82.27588,"zip":"37694","miles_from_dt":26.18},{"city":"Abingdon","state_name":"Virginia","lat":36.65413,"lng":-81.95643,"zip":"24211","miles_from_dt":26.37},{"city":"Fall Branch","state_name":"Tennessee","lat":36.39997,"lng":-82.63075,"zip":"37656","miles_from_dt":26.72},{"city":"Pound","state_name":"Virginia","lat":37.10383,"lng":-82.61909,"zip":"24279","miles_from_dt":27.02},{"city":"Clinchco","state_name":"Virginia","lat":37.14223,"lng":-82.33384,"zip":"24226","miles_from_dt":27.63},{"city":"Birchleaf","state_name":"Virginia","lat":37.11957,"lng":-82.22641,"zip":"24220","miles_from_dt":27.77},{"city":"Bee","state_name":"Virginia","lat":37.1014,"lng":-82.17783,"zip":"24217","miles_from_dt":27.79},{"city":"Johnson City","state_name":"Tennessee","lat":36.34731,"lng":-82.33204,"zip":"37605","miles_from_dt":27.97},{"city":"Dryden","state_name":"Virginia","lat":36.78174,"lng":-82.92083,"zip":"24243","miles_from_dt":28.05},{"city":"Surgoinsville","state_name":"Tennessee","lat":36.52446,"lng":-82.84754,"zip":"37873","miles_from_dt":28.42},{"city":"Eolia","state_name":"Kentucky","lat":37.05637,"lng":-82.7783,"zip":"40826","miles_from_dt":29.24},{"city":"Clintwood","state_name":"Virginia","lat":37.17047,"lng":-82.44963,"zip":"24228","miles_from_dt":29.25},{"city":"Johnson City","state_name":"Tennessee","lat":36.32838,"lng":-82.31974,"zip":"37601","miles_from_dt":29.38},{"city":"Davenport","state_name":"Virginia","lat":37.1136,"lng":-82.14577,"zip":"24239","miles_from_dt":29.4},{"city":"Keokee","state_name":"Virginia","lat":36.83811,"lng":-82.93904,"zip":"24265","miles_from_dt":29.62},{"city":"Elizabethton","state_name":"Tennessee","lat":36.3474,"lng":-82.21375,"zip":"37644","miles_from_dt":29.79},{"city":"Honaker","state_name":"Virginia","lat":37.02291,"lng":-82.00059,"zip":"24260","miles_from_dt":29.9}],"targetCityZipCode":"24271","targetCityState":"Virginia"},"__N_SSG":true}