{"pageProps":{"stateName":"Virginia","cityName":"rich-creek","nearbyCities":[{"city":"Glen Lyn","state_name":"Virginia","lat":37.38784,"lng":-80.85657,"zip":"24093","miles_from_dt":1.84},{"city":"Peterstown","state_name":"West Virginia","lat":37.43743,"lng":-80.77617,"zip":"24963","miles_from_dt":3.77},{"city":"Narrows","state_name":"Virginia","lat":37.30996,"lng":-80.86774,"zip":"24124","miles_from_dt":6.7},{"city":"Kellysville","state_name":"West Virginia","lat":37.3417,"lng":-80.92781,"zip":"24732","miles_from_dt":6.87},{"city":"Ballard","state_name":"West Virginia","lat":37.51793,"lng":-80.75461,"zip":"24918","miles_from_dt":8.97},{"city":"Pipestem","state_name":"West Virginia","lat":37.5126,"lng":-80.91736,"zip":"25979","miles_from_dt":9.08},{"city":"Princeton","state_name":"West Virginia","lat":37.36784,"lng":-80.9949,"zip":"24739","miles_from_dt":9.47},{"city":"Lerona","state_name":"West Virginia","lat":37.48001,"lng":-80.97821,"zip":"25971","miles_from_dt":9.86},{"city":"Pearisburg","state_name":"Virginia","lat":37.24595,"lng":-80.77901,"zip":"24134","miles_from_dt":11.08},{"city":"Forest Hill","state_name":"West Virginia","lat":37.56362,"lng":-80.80344,"zip":"24935","miles_from_dt":11.24},{"city":"Athens","state_name":"West Virginia","lat":37.46903,"lng":-81.02029,"zip":"24712","miles_from_dt":11.54},{"city":"Staffordsville","state_name":"Virginia","lat":37.24718,"lng":-80.7345,"zip":"24167","miles_from_dt":11.84},{"city":"Lindside","state_name":"West Virginia","lat":37.48358,"lng":-80.63103,"zip":"24951","miles_from_dt":12.22},{"city":"Greenville","state_name":"West Virginia","lat":37.54113,"lng":-80.68795,"zip":"24945","miles_from_dt":12.32},{"city":"Ripplemead","state_name":"Virginia","lat":37.40229,"lng":-80.59694,"zip":"24150","miles_from_dt":12.72},{"city":"Pembroke","state_name":"Virginia","lat":37.31927,"lng":-80.60686,"zip":"24136","miles_from_dt":13.44},{"city":"Eggleston","state_name":"Virginia","lat":37.27268,"lng":-80.63585,"zip":"24086","miles_from_dt":13.83},{"city":"Princeton","state_name":"West Virginia","lat":37.4042,"lng":-81.10205,"zip":"24740","miles_from_dt":15.07},{"city":"Wayside","state_name":"West Virginia","lat":37.59989,"lng":-80.68948,"zip":"24985","miles_from_dt":15.64},{"city":"Spanishburg","state_name":"West Virginia","lat":37.47147,"lng":-81.09966,"zip":"25922","miles_from_dt":15.69},{"city":"Talcott","state_name":"West Virginia","lat":37.63256,"lng":-80.73968,"zip":"24981","miles_from_dt":16.64},{"city":"Parrott","state_name":"Virginia","lat":37.20534,"lng":-80.64707,"zip":"24132","miles_from_dt":16.82},{"city":"Nimitz","state_name":"West Virginia","lat":37.62861,"lng":-80.94138,"zip":"25978","miles_from_dt":16.83},{"city":"Hinton","state_name":"West Virginia","lat":37.65535,"lng":-80.87197,"zip":"25951","miles_from_dt":17.65},{"city":"Kegley","state_name":"West Virginia","lat":37.39733,"lng":-81.15162,"zip":"24731","miles_from_dt":17.8},{"city":"Flat Top","state_name":"West Virginia","lat":37.55325,"lng":-81.09061,"zip":"25841","miles_from_dt":17.81},{"city":"Jumping Branch","state_name":"West Virginia","lat":37.61657,"lng":-81.00903,"zip":"25969","miles_from_dt":17.84},{"city":"Rocky Gap","state_name":"Virginia","lat":37.26426,"lng":-81.10315,"zip":"24366","miles_from_dt":17.87},{"city":"Camp Creek","state_name":"West Virginia","lat":37.50812,"lng":-81.13549,"zip":"25820","miles_from_dt":18.42},{"city":"Pence Springs","state_name":"West Virginia","lat":37.66029,"lng":-80.72041,"zip":"24962","miles_from_dt":18.78},{"city":"Belspring","state_name":"Virginia","lat":37.18257,"lng":-80.61637,"zip":"24058","miles_from_dt":19.1},{"city":"Dublin","state_name":"Virginia","lat":37.11468,"lng":-80.79088,"zip":"24084","miles_from_dt":19.91},{"city":"Newport","state_name":"Virginia","lat":37.3426,"lng":-80.47196,"zip":"24128","miles_from_dt":20.02},{"city":"Beeson","state_name":"West Virginia","lat":37.47627,"lng":-81.18352,"zip":"24714","miles_from_dt":20.21},{"city":"Lashmeet","state_name":"West Virginia","lat":37.44986,"lng":-81.20094,"zip":"24733","miles_from_dt":20.77},{"city":"Wolfcreek","state_name":"West Virginia","lat":37.66095,"lng":-80.63512,"zip":"24993","miles_from_dt":20.78},{"city":"Union","state_name":"West Virginia","lat":37.59165,"lng":-80.51672,"zip":"24983","miles_from_dt":21.55},{"city":"Bland","state_name":"Virginia","lat":37.1393,"lng":-81.0534,"zip":"24315","miles_from_dt":21.95},{"city":"Rock","state_name":"West Virginia","lat":37.40182,"lng":-81.2273,"zip":"24747","miles_from_dt":21.96},{"city":"Bluefield","state_name":"West Virginia","lat":37.29929,"lng":-81.2065,"zip":"24701","miles_from_dt":22},{"city":"Cool Ridge","state_name":"West Virginia","lat":37.64736,"lng":-81.08862,"zip":"25825","miles_from_dt":22.17},{"city":"New River","state_name":"Virginia","lat":37.13947,"lng":-80.5918,"zip":"24129","miles_from_dt":22.29},{"city":"White Oak","state_name":"West Virginia","lat":37.67864,"lng":-81.04594,"zip":"25989","miles_from_dt":22.53},{"city":"Ghent","state_name":"West Virginia","lat":37.62129,"lng":-81.14129,"zip":"25843","miles_from_dt":22.92},{"city":"Hiawatha","state_name":"West Virginia","lat":37.44759,"lng":-81.24699,"zip":"24729","miles_from_dt":23.25},{"city":"Waiteville","state_name":"West Virginia","lat":37.48942,"lng":-80.41749,"zip":"24984","miles_from_dt":23.37},{"city":"Pulaski","state_name":"Virginia","lat":37.06319,"lng":-80.79735,"zip":"24301","miles_from_dt":23.41},{"city":"Newbern","state_name":"Virginia","lat":37.09119,"lng":-80.65566,"zip":"24126","miles_from_dt":23.43},{"city":"Radford","state_name":"Virginia","lat":37.12589,"lng":-80.57524,"zip":"24143","miles_from_dt":23.59},{"city":"Radford","state_name":"Virginia","lat":37.13833,"lng":-80.55084,"zip":"24142","miles_from_dt":23.74},{"city":"Odd","state_name":"West Virginia","lat":37.56301,"lng":-81.21115,"zip":"25902","miles_from_dt":23.81},{"city":"McCoy","state_name":"Virginia","lat":37.25889,"lng":-80.42978,"zip":"24111","miles_from_dt":24.05},{"city":"Montcalm","state_name":"West Virginia","lat":37.35042,"lng":-81.26055,"zip":"24737","miles_from_dt":24.06},{"city":"Sandstone","state_name":"West Virginia","lat":37.75752,"lng":-80.83044,"zip":"25985","miles_from_dt":24.53},{"city":"Blacksburg","state_name":"Virginia","lat":37.25772,"lng":-80.41961,"zip":"24060","miles_from_dt":24.59},{"city":"Sinks Grove","state_name":"West Virginia","lat":37.66513,"lng":-80.52273,"zip":"24976","miles_from_dt":24.72},{"city":"Alderson","state_name":"West Virginia","lat":37.74173,"lng":-80.66835,"zip":"24910","miles_from_dt":25.03},{"city":"Blacksburg","state_name":"Virginia","lat":37.22539,"lng":-80.42658,"zip":"24061","miles_from_dt":25.24},{"city":"Radford","state_name":"Virginia","lat":37.10105,"lng":-80.56677,"zip":"24141","miles_from_dt":25.25},{"city":"Blacksburg","state_name":"Virginia","lat":37.22884,"lng":-80.41576,"zip":"24063","miles_from_dt":25.66},{"city":"Blacksburg","state_name":"Virginia","lat":37.22844,"lng":-80.41562,"zip":"24062","miles_from_dt":25.67},{"city":"Shady Spring","state_name":"West Virginia","lat":37.74575,"lng":-81.00993,"zip":"25918","miles_from_dt":25.73},{"city":"Matoaka","state_name":"West Virginia","lat":37.45045,"lng":-81.29589,"zip":"24736","miles_from_dt":25.94},{"city":"Bastian","state_name":"Virginia","lat":37.17166,"lng":-81.20728,"zip":"24314","miles_from_dt":26.23},{"city":"Josephine","state_name":"West Virginia","lat":37.61443,"lng":-81.23288,"zip":"25857","miles_from_dt":26.64},{"city":"Coal City","state_name":"West Virginia","lat":37.66626,"lng":-81.18231,"zip":"25823","miles_from_dt":26.66},{"city":"Daniels","state_name":"West Virginia","lat":37.72637,"lng":-81.10494,"zip":"25832","miles_from_dt":27.06},{"city":"Secondcreek","state_name":"West Virginia","lat":37.65395,"lng":-80.44693,"zip":"24974","miles_from_dt":27.22},{"city":"Freeman","state_name":"West Virginia","lat":37.33603,"lng":-81.31579,"zip":"24724","miles_from_dt":27.22},{"city":"Green Sulphur Springs","state_name":"West Virginia","lat":37.7975,"lng":-80.76729,"zip":"25966","miles_from_dt":27.49},{"city":"Nemours","state_name":"West Virginia","lat":37.3032,"lng":-81.32013,"zip":"24738","miles_from_dt":27.93},{"city":"Bramwell","state_name":"West Virginia","lat":37.33408,"lng":-81.32933,"zip":"24715","miles_from_dt":27.98},{"city":"Covel","state_name":"West Virginia","lat":37.48722,"lng":-81.32652,"zip":"24719","miles_from_dt":28.03},{"city":"Wolfe","state_name":"West Virginia","lat":37.30996,"lng":-81.33,"zip":"24751","miles_from_dt":28.34},{"city":"Meadow Creek","state_name":"West Virginia","lat":37.80819,"lng":-80.90571,"zip":"25977","miles_from_dt":28.35},{"city":"Gap Mills","state_name":"West Virginia","lat":37.58824,"lng":-80.3577,"zip":"24941","miles_from_dt":28.87},{"city":"Christiansburg","state_name":"Virginia","lat":37.13053,"lng":-80.4225,"zip":"24073","miles_from_dt":29.15},{"city":"Rhodell","state_name":"West Virginia","lat":37.61575,"lng":-81.28691,"zip":"25915","miles_from_dt":29.21},{"city":"Princewick","state_name":"West Virginia","lat":37.66782,"lng":-81.24434,"zip":"25908","miles_from_dt":29.31},{"city":"Pocahontas","state_name":"Virginia","lat":37.30683,"lng":-81.34962,"zip":"24635","miles_from_dt":29.45},{"city":"Draper","state_name":"Virginia","lat":36.97461,"lng":-80.78836,"zip":"24324","miles_from_dt":29.54},{"city":"Christiansburg","state_name":"Virginia","lat":37.14246,"lng":-80.40079,"zip":"24068","miles_from_dt":29.57},{"city":"Maybeury","state_name":"West Virginia","lat":37.36182,"lng":-81.36525,"zip":"24861","miles_from_dt":29.69},{"city":"Falls Mills","state_name":"Virginia","lat":37.262,"lng":-81.3385,"zip":"24613","miles_from_dt":29.71},{"city":"Amigo","state_name":"West Virginia","lat":37.60835,"lng":-81.3065,"zip":"25811","miles_from_dt":29.89},{"city":"Ronceverte","state_name":"West Virginia","lat":37.73238,"lng":-80.47574,"zip":"24970","miles_from_dt":29.9},{"city":"Helen","state_name":"West Virginia","lat":37.64616,"lng":-81.27827,"zip":"25853","miles_from_dt":29.92}],"targetCityZipCode":"24147","targetCityState":"Virginia"},"__N_SSG":true}