{"pageProps":{"stateName":"Virginia","cityName":"rural-retreat","nearbyCities":[{"city":"Atkins","state_name":"Virginia","lat":36.87292,"lng":-81.40161,"zip":"24311","miles_from_dt":5.79},{"city":"Crockett","state_name":"Virginia","lat":36.86513,"lng":-81.1997,"zip":"24323","miles_from_dt":5.88},{"city":"Ceres","state_name":"Virginia","lat":37.00047,"lng":-81.38658,"zip":"24318","miles_from_dt":8.83},{"city":"Speedwell","state_name":"Virginia","lat":36.79129,"lng":-81.20178,"zip":"24374","miles_from_dt":8.87},{"city":"Sugar Grove","state_name":"Virginia","lat":36.77128,"lng":-81.39026,"zip":"24375","miles_from_dt":9.76},{"city":"Wytheville","state_name":"Virginia","lat":36.95702,"lng":-81.10652,"zip":"24382","miles_from_dt":11.59},{"city":"Cripple Creek","state_name":"Virginia","lat":36.80534,"lng":-81.1195,"zip":"24322","miles_from_dt":11.68},{"city":"Elk Creek","state_name":"Virginia","lat":36.72771,"lng":-81.19625,"zip":"24326","miles_from_dt":12.76},{"city":"Marion","state_name":"Virginia","lat":36.82159,"lng":-81.54001,"zip":"24354","miles_from_dt":14.18},{"city":"Troutdale","state_name":"Virginia","lat":36.69126,"lng":-81.42944,"zip":"24378","miles_from_dt":15.64},{"city":"Ivanhoe","state_name":"Virginia","lat":36.81109,"lng":-81.01757,"zip":"24350","miles_from_dt":16.64},{"city":"Tannersville","state_name":"Virginia","lat":37.00206,"lng":-81.56961,"zip":"24377","miles_from_dt":16.71},{"city":"Tazewell","state_name":"Virginia","lat":37.07732,"lng":-81.50054,"zip":"24651","miles_from_dt":16.88},{"city":"Independence","state_name":"Virginia","lat":36.63897,"lng":-81.17392,"zip":"24348","miles_from_dt":18.85},{"city":"Fries","state_name":"Virginia","lat":36.72375,"lng":-81.02471,"zip":"24330","miles_from_dt":19.21},{"city":"Burkes Garden","state_name":"Virginia","lat":37.116,"lng":-81.52534,"zip":"24608","miles_from_dt":19.8},{"city":"Bastian","state_name":"Virginia","lat":37.17166,"lng":-81.20728,"zip":"24314","miles_from_dt":19.9},{"city":"Mouth Of Wilson","state_name":"Virginia","lat":36.6137,"lng":-81.40084,"zip":"24363","miles_from_dt":20.04},{"city":"Broadford","state_name":"Virginia","lat":36.95277,"lng":-81.67145,"zip":"24316","miles_from_dt":20.97},{"city":"North Tazewell","state_name":"Virginia","lat":37.17292,"lng":-81.4782,"zip":"24630","miles_from_dt":21.68},{"city":"Saltville","state_name":"Virginia","lat":36.91345,"lng":-81.69107,"zip":"24370","miles_from_dt":21.7},{"city":"Bland","state_name":"Virginia","lat":37.1393,"lng":-81.0534,"zip":"24315","miles_from_dt":21.79},{"city":"Chilhowie","state_name":"Virginia","lat":36.76048,"lng":-81.65778,"zip":"24319","miles_from_dt":21.83},{"city":"Max Meadows","state_name":"Virginia","lat":36.93917,"lng":-80.9023,"zip":"24360","miles_from_dt":22.25},{"city":"Bluefield","state_name":"Virginia","lat":37.24093,"lng":-81.36123,"zip":"24605","miles_from_dt":24.24},{"city":"Austinville","state_name":"Virginia","lat":36.83117,"lng":-80.86897,"zip":"24312","miles_from_dt":24.26},{"city":"Grassy Creek","state_name":"North Carolina","lat":36.55218,"lng":-81.40994,"zip":"28631","miles_from_dt":24.27},{"city":"Whitetop","state_name":"Virginia","lat":36.6147,"lng":-81.5791,"zip":"24292","miles_from_dt":24.65},{"city":"Piney Creek","state_name":"North Carolina","lat":36.53477,"lng":-81.30063,"zip":"28663","miles_from_dt":24.69},{"city":"Pounding Mill","state_name":"Virginia","lat":37.05258,"lng":-81.70981,"zip":"24637","miles_from_dt":25.21},{"city":"Falls Mills","state_name":"Virginia","lat":37.262,"lng":-81.3385,"zip":"24613","miles_from_dt":25.55},{"city":"Bishop","state_name":"Virginia","lat":37.21088,"lng":-81.54378,"zip":"24604","miles_from_dt":25.74},{"city":"Horsepen","state_name":"Virginia","lat":37.22745,"lng":-81.51732,"zip":"24619","miles_from_dt":26.01},{"city":"Galax","state_name":"Virginia","lat":36.64057,"lng":-80.92921,"zip":"24333","miles_from_dt":26.94},{"city":"Glade Spring","state_name":"Virginia","lat":36.75267,"lng":-81.75891,"zip":"24340","miles_from_dt":27.21},{"city":"Boissevain","state_name":"Virginia","lat":37.28814,"lng":-81.39183,"zip":"24606","miles_from_dt":27.73},{"city":"Rocky Gap","state_name":"Virginia","lat":37.26426,"lng":-81.10315,"zip":"24366","miles_from_dt":27.83},{"city":"Barren Springs","state_name":"Virginia","lat":36.9105,"lng":-80.79805,"zip":"24313","miles_from_dt":27.83},{"city":"Jenkinjones","state_name":"West Virginia","lat":37.28206,"lng":-81.43413,"zip":"24848","miles_from_dt":27.84},{"city":"Amonate","state_name":"Virginia","lat":37.19068,"lng":-81.64049,"zip":"24601","miles_from_dt":27.86},{"city":"Woodlawn","state_name":"Virginia","lat":36.72453,"lng":-80.83924,"zip":"24381","miles_from_dt":28.06},{"city":"Sparta","state_name":"North Carolina","lat":36.50642,"lng":-81.13546,"zip":"28675","miles_from_dt":28.17},{"city":"Bandy","state_name":"Virginia","lat":37.18383,"lng":-81.65762,"zip":"24602","miles_from_dt":28.17},{"city":"Lansing","state_name":"North Carolina","lat":36.52982,"lng":-81.53486,"zip":"28643","miles_from_dt":28.22},{"city":"Scottville","state_name":"North Carolina","lat":36.48381,"lng":-81.32735,"zip":"28672","miles_from_dt":28.24},{"city":"Nemours","state_name":"West Virginia","lat":37.3032,"lng":-81.32013,"zip":"24738","miles_from_dt":28.32},{"city":"Bluefield","state_name":"West Virginia","lat":37.29929,"lng":-81.2065,"zip":"24701","miles_from_dt":28.5},{"city":"Crumpler","state_name":"North Carolina","lat":36.48433,"lng":-81.38264,"zip":"28617","miles_from_dt":28.54},{"city":"Pocahontas","state_name":"Virginia","lat":37.30683,"lng":-81.34962,"zip":"24635","miles_from_dt":28.68},{"city":"Wolfe","state_name":"West Virginia","lat":37.30996,"lng":-81.33,"zip":"24751","miles_from_dt":28.81},{"city":"Draper","state_name":"Virginia","lat":36.97461,"lng":-80.78836,"zip":"24324","miles_from_dt":28.88},{"city":"Cedar Bluff","state_name":"Virginia","lat":37.02955,"lng":-81.795,"zip":"24609","miles_from_dt":28.97},{"city":"Berwind","state_name":"West Virginia","lat":37.22036,"lng":-81.63026,"zip":"24815","miles_from_dt":29.04},{"city":"Damascus","state_name":"Virginia","lat":36.64408,"lng":-81.73689,"zip":"24236","miles_from_dt":29.69},{"city":"Newhall","state_name":"West Virginia","lat":37.25216,"lng":-81.59925,"zip":"24866","miles_from_dt":29.79}],"targetCityZipCode":"24368","targetCityState":"Virginia"},"__N_SSG":true}