{"pageProps":{"stateName":"Virginia","cityName":"shenandoah","nearbyCities":[{"city":"Lacey Spring","state_name":"Virginia","lat":38.54906,"lng":-78.73505,"zip":"22833","miles_from_dt":6.16},{"city":"Stanley","state_name":"Virginia","lat":38.56061,"lng":-78.51061,"zip":"22851","miles_from_dt":6.67},{"city":"Keezletown","state_name":"Virginia","lat":38.45778,"lng":-78.75692,"zip":"22832","miles_from_dt":8.53},{"city":"Elkton","state_name":"Virginia","lat":38.3903,"lng":-78.6131,"zip":"22827","miles_from_dt":9.36},{"city":"New Market","state_name":"Virginia","lat":38.65886,"lng":-78.66038,"zip":"22844","miles_from_dt":9.39},{"city":"McGaheysville","state_name":"Virginia","lat":38.38642,"lng":-78.73845,"zip":"22840","miles_from_dt":11.39},{"city":"Timberville","state_name":"Virginia","lat":38.65156,"lng":-78.76406,"zip":"22853","miles_from_dt":11.49},{"city":"Broadway","state_name":"Virginia","lat":38.63469,"lng":-78.80939,"zip":"22815","miles_from_dt":12.49},{"city":"Harrisonburg","state_name":"Virginia","lat":38.50016,"lng":-78.8585,"zip":"22802","miles_from_dt":12.76},{"city":"Linville","state_name":"Virginia","lat":38.55709,"lng":-78.85769,"zip":"22834","miles_from_dt":12.78},{"city":"Penn Laird","state_name":"Virginia","lat":38.38791,"lng":-78.79239,"zip":"22846","miles_from_dt":13.13},{"city":"Luray","state_name":"Virginia","lat":38.67199,"lng":-78.4548,"zip":"22835","miles_from_dt":13.68},{"city":"Syria","state_name":"Virginia","lat":38.52477,"lng":-78.37132,"zip":"22743","miles_from_dt":13.76},{"city":"Quicksburg","state_name":"Virginia","lat":38.71792,"lng":-78.70972,"zip":"22847","miles_from_dt":14.03},{"city":"Harrisonburg","state_name":"Virginia","lat":38.44951,"lng":-78.86953,"zip":"22803","miles_from_dt":14.24},{"city":"Harrisonburg","state_name":"Virginia","lat":38.43495,"lng":-78.86736,"zip":"22807","miles_from_dt":14.54},{"city":"Stanardsville","state_name":"Virginia","lat":38.33588,"lng":-78.46915,"zip":"22973","miles_from_dt":15.59},{"city":"Harrisonburg","state_name":"Virginia","lat":38.40519,"lng":-78.87931,"zip":"22801","miles_from_dt":16.08},{"city":"Singers Glen","state_name":"Virginia","lat":38.56668,"lng":-78.92048,"zip":"22850","miles_from_dt":16.24},{"city":"Mount Jackson","state_name":"Virginia","lat":38.77191,"lng":-78.6992,"zip":"22842","miles_from_dt":17.45},{"city":"Port Republic","state_name":"Virginia","lat":38.30837,"lng":-78.79645,"zip":"24471","miles_from_dt":17.63},{"city":"Pleasant Valley","state_name":"Virginia","lat":38.38432,"lng":-78.90002,"zip":"22848","miles_from_dt":17.8},{"city":"Hood","state_name":"Virginia","lat":38.33789,"lng":-78.38821,"zip":"22723","miles_from_dt":18.25},{"city":"Etlan","state_name":"Virginia","lat":38.52888,"lng":-78.28337,"zip":"22719","miles_from_dt":18.53},{"city":"Dyke","state_name":"Virginia","lat":38.25785,"lng":-78.55474,"zip":"22935","miles_from_dt":18.86},{"city":"Wolftown","state_name":"Virginia","lat":38.35812,"lng":-78.3482,"zip":"22748","miles_from_dt":18.96},{"city":"Banco","state_name":"Virginia","lat":38.46239,"lng":-78.27634,"zip":"22711","miles_from_dt":19.41},{"city":"Mount Crawford","state_name":"Virginia","lat":38.33887,"lng":-78.89417,"zip":"22841","miles_from_dt":19.46},{"city":"Madison","state_name":"Virginia","lat":38.39626,"lng":-78.30058,"zip":"22727","miles_from_dt":19.74},{"city":"Quinque","state_name":"Virginia","lat":38.27941,"lng":-78.43045,"zip":"22965","miles_from_dt":20},{"city":"Orkney Springs","state_name":"Virginia","lat":38.77991,"lng":-78.8375,"zip":"22845","miles_from_dt":20.96},{"city":"Sperryville","state_name":"Virginia","lat":38.63805,"lng":-78.26163,"zip":"22740","miles_from_dt":21.16},{"city":"Fulks Run","state_name":"Virginia","lat":38.65789,"lng":-78.97902,"zip":"22830","miles_from_dt":21.21},{"city":"Rileyville","state_name":"Virginia","lat":38.75893,"lng":-78.35817,"zip":"22650","miles_from_dt":21.63},{"city":"Haywood","state_name":"Virginia","lat":38.46304,"lng":-78.22645,"zip":"22722","miles_from_dt":22.05},{"city":"Free Union","state_name":"Virginia","lat":38.20559,"lng":-78.59705,"zip":"22940","miles_from_dt":22.13},{"city":"Edinburg","state_name":"Virginia","lat":38.84743,"lng":-78.6278,"zip":"22824","miles_from_dt":22.2},{"city":"Grottoes","state_name":"Virginia","lat":38.22823,"lng":-78.8109,"zip":"24441","miles_from_dt":22.85},{"city":"Weyers Cave","state_name":"Virginia","lat":38.29366,"lng":-78.92925,"zip":"24486","miles_from_dt":22.98},{"city":"Ruckersville","state_name":"Virginia","lat":38.24111,"lng":-78.39407,"zip":"22968","miles_from_dt":23.29},{"city":"Pratts","state_name":"Virginia","lat":38.34413,"lng":-78.26151,"zip":"22731","miles_from_dt":23.37},{"city":"Basye","state_name":"Virginia","lat":38.84466,"lng":-78.78554,"zip":"22810","miles_from_dt":23.65},{"city":"Fort Valley","state_name":"Virginia","lat":38.83921,"lng":-78.42894,"zip":"22652","miles_from_dt":24.1},{"city":"Reva","state_name":"Virginia","lat":38.47941,"lng":-78.18336,"zip":"22735","miles_from_dt":24.16},{"city":"Bridgewater","state_name":"Virginia","lat":38.37934,"lng":-79.03836,"zip":"22812","miles_from_dt":24.57},{"city":"Dayton","state_name":"Virginia","lat":38.46349,"lng":-79.0743,"zip":"22821","miles_from_dt":24.71},{"city":"Woodville","state_name":"Virginia","lat":38.61945,"lng":-78.18394,"zip":"22749","miles_from_dt":24.76},{"city":"Rochelle","state_name":"Virginia","lat":38.28692,"lng":-78.27685,"zip":"22738","miles_from_dt":25.07},{"city":"Brightwood","state_name":"Virginia","lat":38.41032,"lng":-78.18541,"zip":"22715","miles_from_dt":25.14},{"city":"Earlysville","state_name":"Virginia","lat":38.1671,"lng":-78.49974,"zip":"22936","miles_from_dt":25.65},{"city":"Criders","state_name":"Virginia","lat":38.74387,"lng":-79.00948,"zip":"22820","miles_from_dt":25.67},{"city":"Hinton","state_name":"Virginia","lat":38.56395,"lng":-79.10005,"zip":"22831","miles_from_dt":25.85},{"city":"Woodstock","state_name":"Virginia","lat":38.8944,"lng":-78.53119,"zip":"22664","miles_from_dt":25.94},{"city":"Aroda","state_name":"Virginia","lat":38.32769,"lng":-78.21732,"zip":"22709","miles_from_dt":26.01},{"city":"Crozet","state_name":"Virginia","lat":38.15037,"lng":-78.69743,"zip":"22932","miles_from_dt":26.18},{"city":"Leon","state_name":"Virginia","lat":38.44029,"lng":-78.1527,"zip":"22725","miles_from_dt":26.29},{"city":"Mount Sidney","state_name":"Virginia","lat":38.2592,"lng":-78.97249,"zip":"24467","miles_from_dt":26.32},{"city":"Bergton","state_name":"Virginia","lat":38.79264,"lng":-78.9757,"zip":"22811","miles_from_dt":26.43},{"city":"Boston","state_name":"Virginia","lat":38.54123,"lng":-78.13204,"zip":"22713","miles_from_dt":26.75},{"city":"New Hope","state_name":"Virginia","lat":38.20099,"lng":-78.90828,"zip":"24469","miles_from_dt":27.16},{"city":"Oakpark","state_name":"Virginia","lat":38.36782,"lng":-78.16635,"zip":"22730","miles_from_dt":27.17},{"city":"Crimora","state_name":"Virginia","lat":38.16897,"lng":-78.83924,"zip":"24431","miles_from_dt":27.21},{"city":"Fort Defiance","state_name":"Virginia","lat":38.2116,"lng":-78.933,"zip":"24437","miles_from_dt":27.35},{"city":"Bentonville","state_name":"Virginia","lat":38.81803,"lng":-78.28102,"zip":"22610","miles_from_dt":27.45},{"city":"Radiant","state_name":"Virginia","lat":38.30886,"lng":-78.19153,"zip":"22732","miles_from_dt":27.88},{"city":"Washington","state_name":"Virginia","lat":38.7122,"lng":-78.16768,"zip":"22747","miles_from_dt":27.91},{"city":"Mathias","state_name":"West Virginia","lat":38.88184,"lng":-78.87688,"zip":"26812","miles_from_dt":28.08},{"city":"White Hall","state_name":"Virginia","lat":38.11941,"lng":-78.6607,"zip":"22987","miles_from_dt":28.08},{"city":"Barboursville","state_name":"Virginia","lat":38.18671,"lng":-78.32405,"zip":"22923","miles_from_dt":28.53},{"city":"Castleton","state_name":"Virginia","lat":38.62596,"lng":-78.10794,"zip":"22716","miles_from_dt":28.86},{"city":"Locust Dale","state_name":"Virginia","lat":38.35154,"lng":-78.12264,"zip":"22948","miles_from_dt":29.8},{"city":"Verona","state_name":"Virginia","lat":38.20502,"lng":-78.99706,"zip":"24482","miles_from_dt":29.94}],"targetCityZipCode":"22849","targetCityState":"Virginia"},"__N_SSG":true}