{"pageProps":{"stateName":"Virginia","cityName":"tannersville","nearbyCities":[{"city":"Tazewell","state_name":"Virginia","lat":37.07732,"lng":-81.50054,"zip":"24651","miles_from_dt":6.44},{"city":"Broadford","state_name":"Virginia","lat":36.95277,"lng":-81.67145,"zip":"24316","miles_from_dt":6.58},{"city":"Burkes Garden","state_name":"Virginia","lat":37.116,"lng":-81.52534,"zip":"24608","miles_from_dt":8.23},{"city":"Pounding Mill","state_name":"Virginia","lat":37.05258,"lng":-81.70981,"zip":"24637","miles_from_dt":8.5},{"city":"Saltville","state_name":"Virginia","lat":36.91345,"lng":-81.69107,"zip":"24370","miles_from_dt":9.08},{"city":"Ceres","state_name":"Virginia","lat":37.00047,"lng":-81.38658,"zip":"24318","miles_from_dt":10.12},{"city":"Marion","state_name":"Virginia","lat":36.82159,"lng":-81.54001,"zip":"24354","miles_from_dt":12.55},{"city":"Cedar Bluff","state_name":"Virginia","lat":37.02955,"lng":-81.795,"zip":"24609","miles_from_dt":12.61},{"city":"North Tazewell","state_name":"Virginia","lat":37.17292,"lng":-81.4782,"zip":"24630","miles_from_dt":12.82},{"city":"Atkins","state_name":"Virginia","lat":36.87292,"lng":-81.40161,"zip":"24311","miles_from_dt":12.88},{"city":"Bandy","state_name":"Virginia","lat":37.18383,"lng":-81.65762,"zip":"24602","miles_from_dt":13.44},{"city":"Amonate","state_name":"Virginia","lat":37.19068,"lng":-81.64049,"zip":"24601","miles_from_dt":13.58},{"city":"Bishop","state_name":"Virginia","lat":37.21088,"lng":-81.54378,"zip":"24604","miles_from_dt":14.47},{"city":"Richlands","state_name":"Virginia","lat":37.11797,"lng":-81.80802,"zip":"24641","miles_from_dt":15.41},{"city":"Berwind","state_name":"West Virginia","lat":37.22036,"lng":-81.63026,"zip":"24815","miles_from_dt":15.42},{"city":"Horsepen","state_name":"Virginia","lat":37.22745,"lng":-81.51732,"zip":"24619","miles_from_dt":15.81},{"city":"Doran","state_name":"Virginia","lat":37.09728,"lng":-81.84461,"zip":"24612","miles_from_dt":16.56},{"city":"Rural Retreat","state_name":"Virginia","lat":36.89283,"lng":-81.30003,"zip":"24368","miles_from_dt":16.71},{"city":"Newhall","state_name":"West Virginia","lat":37.25216,"lng":-81.59925,"zip":"24866","miles_from_dt":17.32},{"city":"Chilhowie","state_name":"Virginia","lat":36.76048,"lng":-81.65778,"zip":"24319","miles_from_dt":17.36},{"city":"Red Ash","state_name":"Virginia","lat":37.10647,"lng":-81.86272,"zip":"24640","miles_from_dt":17.73},{"city":"Warriormine","state_name":"West Virginia","lat":37.25186,"lng":-81.69052,"zip":"24894","miles_from_dt":18.47},{"city":"Sugar Grove","state_name":"Virginia","lat":36.77128,"lng":-81.39026,"zip":"24375","miles_from_dt":18.76},{"city":"Squire","state_name":"West Virginia","lat":37.27943,"lng":-81.55048,"zip":"24884","miles_from_dt":19.16},{"city":"Jewell Ridge","state_name":"Virginia","lat":37.22005,"lng":-81.79638,"zip":"24622","miles_from_dt":19.57},{"city":"Shortt Gap","state_name":"Virginia","lat":37.15848,"lng":-81.87377,"zip":"24647","miles_from_dt":19.97},{"city":"Bluefield","state_name":"Virginia","lat":37.24093,"lng":-81.36123,"zip":"24605","miles_from_dt":20.09},{"city":"Glade Spring","state_name":"Virginia","lat":36.75267,"lng":-81.75891,"zip":"24340","miles_from_dt":20.14},{"city":"Cucumber","state_name":"West Virginia","lat":37.29212,"lng":-81.62411,"zip":"24826","miles_from_dt":20.23},{"city":"Swords Creek","state_name":"Virginia","lat":37.08303,"lng":-81.92198,"zip":"24649","miles_from_dt":20.26},{"city":"Jenkinjones","state_name":"West Virginia","lat":37.28206,"lng":-81.43413,"zip":"24848","miles_from_dt":20.71},{"city":"Rosedale","state_name":"Virginia","lat":36.95575,"lng":-81.94167,"zip":"24280","miles_from_dt":20.83},{"city":"Emory","state_name":"Virginia","lat":36.77357,"lng":-81.82971,"zip":"24327","miles_from_dt":21.35},{"city":"Whitewood","state_name":"Virginia","lat":37.22363,"lng":-81.84737,"zip":"24657","miles_from_dt":21.65},{"city":"Raven","state_name":"Virginia","lat":37.17357,"lng":-81.90461,"zip":"24639","miles_from_dt":21.96},{"city":"Falls Mills","state_name":"Virginia","lat":37.262,"lng":-81.3385,"zip":"24613","miles_from_dt":22},{"city":"Boissevain","state_name":"Virginia","lat":37.28814,"lng":-81.39183,"zip":"24606","miles_from_dt":22.03},{"city":"Pageton","state_name":"West Virginia","lat":37.31693,"lng":-81.48552,"zip":"24871","miles_from_dt":22.2},{"city":"Meadowview","state_name":"Virginia","lat":36.76672,"lng":-81.84552,"zip":"24361","miles_from_dt":22.29},{"city":"Crockett","state_name":"Virginia","lat":36.86513,"lng":-81.1997,"zip":"24323","miles_from_dt":22.55},{"city":"Troutdale","state_name":"Virginia","lat":36.69126,"lng":-81.42944,"zip":"24378","miles_from_dt":22.8},{"city":"War","state_name":"West Virginia","lat":37.31691,"lng":-81.69699,"zip":"24892","miles_from_dt":22.82},{"city":"Elbert","state_name":"West Virginia","lat":37.33399,"lng":-81.55799,"zip":"24830","miles_from_dt":22.9},{"city":"Bastian","state_name":"Virginia","lat":37.17166,"lng":-81.20728,"zip":"24314","miles_from_dt":23.18},{"city":"Honaker","state_name":"Virginia","lat":37.02291,"lng":-82.00059,"zip":"24260","miles_from_dt":23.88},{"city":"Raysal","state_name":"West Virginia","lat":37.31639,"lng":-81.76725,"zip":"24879","miles_from_dt":24.27},{"city":"Pocahontas","state_name":"Virginia","lat":37.30683,"lng":-81.34962,"zip":"24635","miles_from_dt":24.27},{"city":"Anawalt","state_name":"West Virginia","lat":37.33142,"lng":-81.41048,"zip":"24808","miles_from_dt":24.35},{"city":"Nemours","state_name":"West Virginia","lat":37.3032,"lng":-81.32013,"zip":"24738","miles_from_dt":24.92},{"city":"Wolfe","state_name":"West Virginia","lat":37.30996,"lng":-81.33,"zip":"24751","miles_from_dt":25.01},{"city":"Speedwell","state_name":"Virginia","lat":36.79129,"lng":-81.20178,"zip":"24374","miles_from_dt":25.03},{"city":"Thorpe","state_name":"West Virginia","lat":37.36195,"lng":-81.48876,"zip":"24888","miles_from_dt":25.22},{"city":"Gary","state_name":"West Virginia","lat":37.36846,"lng":-81.54908,"zip":"24836","miles_from_dt":25.29},{"city":"Wytheville","state_name":"Virginia","lat":36.95702,"lng":-81.10652,"zip":"24382","miles_from_dt":25.81},{"city":"Wilcoe","state_name":"West Virginia","lat":37.37718,"lng":-81.58208,"zip":"24895","miles_from_dt":25.88},{"city":"Bartley","state_name":"West Virginia","lat":37.35954,"lng":-81.72489,"zip":"24813","miles_from_dt":26.1},{"city":"Pilgrims Knob","state_name":"Virginia","lat":37.27411,"lng":-81.90253,"zip":"24634","miles_from_dt":26.26},{"city":"Damascus","state_name":"Virginia","lat":36.64408,"lng":-81.73689,"zip":"24236","miles_from_dt":26.37},{"city":"Bramwell","state_name":"West Virginia","lat":37.33408,"lng":-81.32933,"zip":"24715","miles_from_dt":26.46},{"city":"Whitetop","state_name":"Virginia","lat":36.6147,"lng":-81.5791,"zip":"24292","miles_from_dt":26.72},{"city":"Keen Mountain","state_name":"Virginia","lat":37.20438,"lng":-81.98706,"zip":"24624","miles_from_dt":26.95},{"city":"Freeman","state_name":"West Virginia","lat":37.33603,"lng":-81.31579,"zip":"24724","miles_from_dt":26.96},{"city":"Rowe","state_name":"Virginia","lat":37.13751,"lng":-82.02976,"zip":"24646","miles_from_dt":27.09},{"city":"Bradshaw","state_name":"West Virginia","lat":37.34206,"lng":-81.81721,"zip":"24817","miles_from_dt":27.14},{"city":"Maybeury","state_name":"West Virginia","lat":37.36182,"lng":-81.36525,"zip":"24861","miles_from_dt":27.25},{"city":"Elkhorn","state_name":"West Virginia","lat":37.38943,"lng":-81.44085,"zip":"24831","miles_from_dt":27.64},{"city":"Switchback","state_name":"West Virginia","lat":37.37808,"lng":-81.38664,"zip":"24887","miles_from_dt":27.83},{"city":"Oakwood","state_name":"Virginia","lat":37.2202,"lng":-81.99714,"zip":"24631","miles_from_dt":28},{"city":"Elk Creek","state_name":"Virginia","lat":36.72771,"lng":-81.19625,"zip":"24326","miles_from_dt":28.03},{"city":"Mouth Of Wilson","state_name":"Virginia","lat":36.6137,"lng":-81.40084,"zip":"24363","miles_from_dt":28.37},{"city":"Cripple Creek","state_name":"Virginia","lat":36.80534,"lng":-81.1195,"zip":"24322","miles_from_dt":28.38},{"city":"Bluefield","state_name":"West Virginia","lat":37.29929,"lng":-81.2065,"zip":"24701","miles_from_dt":28.67},{"city":"Kyle","state_name":"West Virginia","lat":37.40882,"lng":-81.42499,"zip":"24855","miles_from_dt":29.16},{"city":"Montcalm","state_name":"West Virginia","lat":37.35042,"lng":-81.26055,"zip":"24737","miles_from_dt":29.46},{"city":"Kimball","state_name":"West Virginia","lat":37.42924,"lng":-81.51686,"zip":"24853","miles_from_dt":29.6},{"city":"Abingdon","state_name":"Virginia","lat":36.77231,"lng":-82.02244,"zip":"24210","miles_from_dt":29.67},{"city":"Paynesville","state_name":"West Virginia","lat":37.35734,"lng":-81.87415,"zip":"24873","miles_from_dt":29.71},{"city":"Avondale","state_name":"West Virginia","lat":37.40881,"lng":-81.75381,"zip":"24811","miles_from_dt":29.83},{"city":"Premier","state_name":"West Virginia","lat":37.4321,"lng":-81.63086,"zip":"24878","miles_from_dt":29.85}],"targetCityZipCode":"24377","targetCityState":"Virginia"},"__N_SSG":true}