{"pageProps":{"stateName":"Virginia","cityName":"woodford","nearbyCities":[{"city":"Thornburg","state_name":"Virginia","lat":38.13336,"lng":-77.51978,"zip":"22565","miles_from_dt":4.44},{"city":"Corbin","state_name":"Virginia","lat":38.19777,"lng":-77.39052,"zip":"22446","miles_from_dt":6.76},{"city":"Bowling Green","state_name":"Virginia","lat":38.04738,"lng":-77.34812,"zip":"22428","miles_from_dt":6.76},{"city":"Ladysmith","state_name":"Virginia","lat":38.01636,"lng":-77.51743,"zip":"22501","miles_from_dt":7.56},{"city":"Fredericksburg","state_name":"Virginia","lat":38.21916,"lng":-77.44013,"zip":"22408","miles_from_dt":7.57},{"city":"Bowling Green","state_name":"Virginia","lat":38.07177,"lng":-77.28624,"zip":"22427","miles_from_dt":8.99},{"city":"Rappahannock Academy","state_name":"Virginia","lat":38.18941,"lng":-77.27334,"zip":"22538","miles_from_dt":10.82},{"city":"Ruther Glen","state_name":"Virginia","lat":37.94342,"lng":-77.44565,"zip":"22546","miles_from_dt":11.45},{"city":"Fredericksburg","state_name":"Virginia","lat":38.25611,"lng":-77.56679,"zip":"22402","miles_from_dt":12.12},{"city":"Sealston","state_name":"Virginia","lat":38.25047,"lng":-77.31107,"zip":"22547","miles_from_dt":12.13},{"city":"Partlow","state_name":"Virginia","lat":38.08473,"lng":-77.67062,"zip":"22534","miles_from_dt":12.46},{"city":"Fredericksburg","state_name":"Virginia","lat":38.29772,"lng":-77.45646,"zip":"22404","miles_from_dt":13.01},{"city":"Fredericksburg","state_name":"Virginia","lat":38.29928,"lng":-77.48704,"zip":"22401","miles_from_dt":13.3},{"city":"Fredericksburg","state_name":"Virginia","lat":38.29992,"lng":-77.48821,"zip":"22412","miles_from_dt":13.36},{"city":"Port Royal","state_name":"Virginia","lat":38.12314,"lng":-77.19619,"zip":"22535","miles_from_dt":13.55},{"city":"Fredericksburg","state_name":"Virginia","lat":38.28581,"lng":-77.58055,"zip":"22407","miles_from_dt":14.25},{"city":"Sparta","state_name":"Virginia","lat":37.9913,"lng":-77.22889,"zip":"22552","miles_from_dt":14.29},{"city":"Fredericksburg","state_name":"Virginia","lat":38.31568,"lng":-77.40377,"zip":"22405","miles_from_dt":14.4},{"city":"Milford","state_name":"Virginia","lat":37.9724,"lng":-77.24471,"zip":"22514","miles_from_dt":14.41},{"city":"Spotsylvania","state_name":"Virginia","lat":38.17273,"lng":-77.70575,"zip":"22551","miles_from_dt":14.9},{"city":"Spotsylvania","state_name":"Virginia","lat":38.26594,"lng":-77.6397,"zip":"22553","miles_from_dt":15.16},{"city":"Dogue","state_name":"Virginia","lat":38.23522,"lng":-77.21402,"zip":"22451","miles_from_dt":15.24},{"city":"Beaverdam","state_name":"Virginia","lat":37.93127,"lng":-77.63124,"zip":"23015","miles_from_dt":15.97},{"city":"Fredericksburg","state_name":"Virginia","lat":38.35086,"lng":-77.47736,"zip":"22403","miles_from_dt":16.75},{"city":"Jersey","state_name":"Virginia","lat":38.21048,"lng":-77.13727,"zip":"22481","miles_from_dt":18.11},{"city":"Doswell","state_name":"Virginia","lat":37.84765,"lng":-77.48973,"zip":"23047","miles_from_dt":18.22},{"city":"King George","state_name":"Virginia","lat":38.2717,"lng":-77.15996,"zip":"22485","miles_from_dt":19.1},{"city":"Brooke","state_name":"Virginia","lat":38.37879,"lng":-77.36252,"zip":"22430","miles_from_dt":19.1},{"city":"Loretto","state_name":"Virginia","lat":38.10642,"lng":-77.06669,"zip":"22509","miles_from_dt":20.57},{"city":"Caret","state_name":"Virginia","lat":38.04698,"lng":-77.07471,"zip":"22436","miles_from_dt":20.6},{"city":"Newtown","state_name":"Virginia","lat":37.92285,"lng":-77.1448,"zip":"23126","miles_from_dt":20.79},{"city":"Fredericksburg","state_name":"Virginia","lat":38.39964,"lng":-77.55596,"zip":"22406","miles_from_dt":20.92},{"city":"Hustle","state_name":"Virginia","lat":38.03807,"lng":-77.06872,"zip":"22476","miles_from_dt":21.05},{"city":"Rollins Fork","state_name":"Virginia","lat":38.18562,"lng":-77.06584,"zip":"22544","miles_from_dt":21.27},{"city":"Stafford","state_name":"Virginia","lat":38.42026,"lng":-77.40955,"zip":"22555","miles_from_dt":21.52},{"city":"Hartwood","state_name":"Virginia","lat":38.40242,"lng":-77.58067,"zip":"22471","miles_from_dt":21.53},{"city":"Stafford","state_name":"Virginia","lat":38.42285,"lng":-77.3835,"zip":"22554","miles_from_dt":21.87},{"city":"Bumpass","state_name":"Virginia","lat":37.92448,"lng":-77.77554,"zip":"23024","miles_from_dt":22.13},{"city":"Locust Grove","state_name":"Virginia","lat":38.31732,"lng":-77.7913,"zip":"22508","miles_from_dt":23.72},{"city":"Ninde","state_name":"Virginia","lat":38.27014,"lng":-77.05432,"zip":"22526","miles_from_dt":23.94},{"city":"Montpelier","state_name":"Virginia","lat":37.81732,"lng":-77.68209,"zip":"23192","miles_from_dt":23.97},{"city":"Richardsville","state_name":"Virginia","lat":38.39633,"lng":-77.69673,"zip":"22736","miles_from_dt":24.09},{"city":"Ashland","state_name":"Virginia","lat":37.75982,"lng":-77.4826,"zip":"23005","miles_from_dt":24.2},{"city":"Hanover","state_name":"Virginia","lat":37.76924,"lng":-77.32874,"zip":"23069","miles_from_dt":24.29},{"city":"Champlain","state_name":"Virginia","lat":38.03788,"lng":-76.99971,"zip":"22438","miles_from_dt":24.73},{"city":"Colonial Beach","state_name":"Virginia","lat":38.18078,"lng":-76.99776,"zip":"22443","miles_from_dt":24.81},{"city":"Aylett","state_name":"Virginia","lat":37.81038,"lng":-77.18717,"zip":"23009","miles_from_dt":24.95},{"city":"Mineral","state_name":"Virginia","lat":37.97736,"lng":-77.87365,"zip":"23117","miles_from_dt":25.13},{"city":"Garrisonville","state_name":"Virginia","lat":38.47914,"lng":-77.49634,"zip":"22463","miles_from_dt":25.66},{"city":"Nanjemoy","state_name":"Maryland","lat":38.43359,"lng":-77.19972,"zip":"20662","miles_from_dt":26.01},{"city":"Stafford","state_name":"Virginia","lat":38.48624,"lng":-77.513,"zip":"22556","miles_from_dt":26.26},{"city":"Rhoadesville","state_name":"Virginia","lat":38.29348,"lng":-77.88837,"zip":"22542","miles_from_dt":27.31},{"city":"Dahlgren","state_name":"Virginia","lat":38.33996,"lng":-77.03238,"zip":"22448","miles_from_dt":27.48},{"city":"Unionville","state_name":"Virginia","lat":38.23395,"lng":-77.92401,"zip":"22567","miles_from_dt":27.5},{"city":"Ruby","state_name":"Virginia","lat":38.50435,"lng":-77.51768,"zip":"22545","miles_from_dt":27.53},{"city":"Saint Stephens Church","state_name":"Virginia","lat":37.84262,"lng":-77.06223,"zip":"23148","miles_from_dt":27.81},{"city":"Goldvein","state_name":"Virginia","lat":38.48044,"lng":-77.6468,"zip":"22720","miles_from_dt":27.86},{"city":"Sumerduck","state_name":"Virginia","lat":38.4589,"lng":-77.71179,"zip":"22742","miles_from_dt":28.16},{"city":"Burr Hill","state_name":"Virginia","lat":38.35875,"lng":-77.86093,"zip":"22433","miles_from_dt":28.46},{"city":"Lignum","state_name":"Virginia","lat":38.40179,"lng":-77.81796,"zip":"22726","miles_from_dt":28.63},{"city":"Glen Allen","state_name":"Virginia","lat":37.70424,"lng":-77.56539,"zip":"23059","miles_from_dt":28.72},{"city":"Quantico","state_name":"Virginia","lat":38.53186,"lng":-77.409,"zip":"22134","miles_from_dt":29.2},{"city":"Tappahannock","state_name":"Virginia","lat":37.91289,"lng":-76.96196,"zip":"22560","miles_from_dt":29.6},{"city":"Quantico","state_name":"Virginia","lat":38.52118,"lng":-77.28805,"zip":"22135","miles_from_dt":29.64},{"city":"Somerville","state_name":"Virginia","lat":38.52399,"lng":-77.61049,"zip":"22739","miles_from_dt":29.99}],"targetCityZipCode":"22580","targetCityState":"Virginia"},"__N_SSG":true}