{"pageProps":{"stateName":"Missouri","cityName":"bland","nearbyCities":[{"city":"Owensville","state_name":"Missouri","lat":38.3454,"lng":-91.48898,"zip":"65066","miles_from_dt":7.55},{"city":"Belle","state_name":"Missouri","lat":38.26868,"lng":-91.75493,"zip":"65013","miles_from_dt":7.97},{"city":"Mount Sterling","state_name":"Missouri","lat":38.49486,"lng":-91.65059,"zip":"65062","miles_from_dt":12.02},{"city":"Rosebud","state_name":"Missouri","lat":38.36581,"lng":-91.39013,"zip":"63091","miles_from_dt":13.1},{"city":"Linn","state_name":"Missouri","lat":38.46519,"lng":-91.79758,"zip":"65051","miles_from_dt":13.63},{"city":"Vichy","state_name":"Missouri","lat":38.11656,"lng":-91.78617,"zip":"65580","miles_from_dt":16.66},{"city":"Freeburg","state_name":"Missouri","lat":38.36338,"lng":-91.93585,"zip":"65035","miles_from_dt":17.14},{"city":"Gerald","state_name":"Missouri","lat":38.42497,"lng":-91.3165,"zip":"63037","miles_from_dt":18.18},{"city":"Cuba","state_name":"Missouri","lat":38.10706,"lng":-91.42509,"zip":"65453","miles_from_dt":18.37},{"city":"Vienna","state_name":"Missouri","lat":38.19177,"lng":-91.92463,"zip":"65582","miles_from_dt":18.62},{"city":"Morrison","state_name":"Missouri","lat":38.59773,"lng":-91.638,"zip":"65061","miles_from_dt":19.04},{"city":"Argyle","state_name":"Missouri","lat":38.27141,"lng":-92.00077,"zip":"65001","miles_from_dt":20.74},{"city":"Saint James","state_name":"Missouri","lat":38.0181,"lng":-91.60664,"zip":"65559","miles_from_dt":20.97},{"city":"Loose Creek","state_name":"Missouri","lat":38.49103,"lng":-91.95003,"zip":"65054","miles_from_dt":21.16},{"city":"Chamois","state_name":"Missouri","lat":38.62444,"lng":-91.75712,"zip":"65024","miles_from_dt":22.07},{"city":"Leslie","state_name":"Missouri","lat":38.38964,"lng":-91.22072,"zip":"63056","miles_from_dt":22.43},{"city":"Koeltztown","state_name":"Missouri","lat":38.35745,"lng":-92.0365,"zip":"65048","miles_from_dt":22.5},{"city":"Bonnots Mill","state_name":"Missouri","lat":38.56167,"lng":-91.91896,"zip":"65016","miles_from_dt":22.99},{"city":"Hermann","state_name":"Missouri","lat":38.64088,"lng":-91.47712,"zip":"65041","miles_from_dt":23.42},{"city":"Gasconade","state_name":"Missouri","lat":38.67278,"lng":-91.63611,"zip":"65036","miles_from_dt":24.21},{"city":"Westphalia","state_name":"Missouri","lat":38.40304,"lng":-92.07272,"zip":"65085","miles_from_dt":24.97},{"city":"Leasburg","state_name":"Missouri","lat":38.07194,"lng":-91.2752,"zip":"65535","miles_from_dt":25.67},{"city":"New Haven","state_name":"Missouri","lat":38.55747,"lng":-91.24761,"zip":"63068","miles_from_dt":26.13},{"city":"Beaufort","state_name":"Missouri","lat":38.41776,"lng":-91.15182,"zip":"63013","miles_from_dt":26.52},{"city":"Rolla","state_name":"Missouri","lat":37.95103,"lng":-91.77948,"zip":"65409","miles_from_dt":26.93},{"city":"Rolla","state_name":"Missouri","lat":37.94176,"lng":-91.77215,"zip":"65402","miles_from_dt":27.42},{"city":"Meta","state_name":"Missouri","lat":38.25777,"lng":-92.12946,"zip":"65058","miles_from_dt":27.79},{"city":"Berger","state_name":"Missouri","lat":38.64892,"lng":-91.31566,"zip":"63014","miles_from_dt":28.1},{"city":"Brinktown","state_name":"Missouri","lat":38.13089,"lng":-92.0918,"zip":"65443","miles_from_dt":28.62},{"city":"Tebbetts","state_name":"Missouri","lat":38.63231,"lng":-91.97713,"zip":"65080","miles_from_dt":28.7},{"city":"Stanton","state_name":"Missouri","lat":38.26632,"lng":-91.1001,"zip":"63079","miles_from_dt":28.77},{"city":"Rolla","state_name":"Missouri","lat":37.90691,"lng":-91.76374,"zip":"65401","miles_from_dt":29.6},{"city":"Bourbon","state_name":"Missouri","lat":38.09394,"lng":-91.15842,"zip":"65441","miles_from_dt":29.85},{"city":"Mokane","state_name":"Missouri","lat":38.70365,"lng":-91.88447,"zip":"65059","miles_from_dt":29.86},{"city":"Rhineland","state_name":"Missouri","lat":38.75573,"lng":-91.5966,"zip":"65069","miles_from_dt":29.97}],"targetCityZipCode":"65014","targetCityState":"Missouri"},"__N_SSG":true}