{"pageProps":{"stateName":"Missouri","cityName":"brinktown","nearbyCities":[{"city":"Dixon","state_name":"Missouri","lat":38.02919,"lng":-92.08337,"zip":"65459","miles_from_dt":7.03},{"city":"Meta","state_name":"Missouri","lat":38.25777,"lng":-92.12946,"zip":"65058","miles_from_dt":8.99},{"city":"Vienna","state_name":"Missouri","lat":38.19177,"lng":-91.92463,"zip":"65582","miles_from_dt":10.03},{"city":"Argyle","state_name":"Missouri","lat":38.27141,"lng":-92.00077,"zip":"65001","miles_from_dt":10.88},{"city":"Iberia","state_name":"Missouri","lat":38.10007,"lng":-92.3107,"zip":"65486","miles_from_dt":12.12},{"city":"Saint Elizabeth","state_name":"Missouri","lat":38.24849,"lng":-92.26388,"zip":"65075","miles_from_dt":12.39},{"city":"Jerome","state_name":"Missouri","lat":37.92912,"lng":-91.98926,"zip":"65529","miles_from_dt":15},{"city":"Crocker","state_name":"Missouri","lat":37.96271,"lng":-92.26702,"zip":"65452","miles_from_dt":15.03},{"city":"Koeltztown","state_name":"Missouri","lat":38.35745,"lng":-92.0365,"zip":"65048","miles_from_dt":15.91},{"city":"Vichy","state_name":"Missouri","lat":38.11656,"lng":-91.78617,"zip":"65580","miles_from_dt":16.68},{"city":"Saint Thomas","state_name":"Missouri","lat":38.37064,"lng":-92.20376,"zip":"65076","miles_from_dt":17.62},{"city":"Freeburg","state_name":"Missouri","lat":38.36338,"lng":-91.93585,"zip":"65035","miles_from_dt":18.14},{"city":"Westphalia","state_name":"Missouri","lat":38.40304,"lng":-92.07272,"zip":"65085","miles_from_dt":18.8},{"city":"Ulman","state_name":"Missouri","lat":38.14318,"lng":-92.44089,"zip":"65083","miles_from_dt":19.04},{"city":"Tuscumbia","state_name":"Missouri","lat":38.22243,"lng":-92.42632,"zip":"65082","miles_from_dt":19.28},{"city":"Henley","state_name":"Missouri","lat":38.36367,"lng":-92.31252,"zip":"65040","miles_from_dt":20.05},{"city":"Belle","state_name":"Missouri","lat":38.26868,"lng":-91.75493,"zip":"65013","miles_from_dt":20.65},{"city":"Saint Robert","state_name":"Missouri","lat":37.82901,"lng":-92.13086,"zip":"65584","miles_from_dt":20.93},{"city":"Rolla","state_name":"Missouri","lat":37.95103,"lng":-91.77948,"zip":"65409","miles_from_dt":21.07},{"city":"Devils Elbow","state_name":"Missouri","lat":37.82647,"lng":-92.05047,"zip":"65457","miles_from_dt":21.12},{"city":"Eugene","state_name":"Missouri","lat":38.34024,"lng":-92.37942,"zip":"65032","miles_from_dt":21.29},{"city":"Newburg","state_name":"Missouri","lat":37.84425,"lng":-91.9433,"zip":"65550","miles_from_dt":21.37},{"city":"Rolla","state_name":"Missouri","lat":37.94176,"lng":-91.77215,"zip":"65402","miles_from_dt":21.78},{"city":"Brumley","state_name":"Missouri","lat":38.09185,"lng":-92.49548,"zip":"65017","miles_from_dt":22.16},{"city":"Waynesville","state_name":"Missouri","lat":37.82171,"lng":-92.2541,"zip":"65583","miles_from_dt":23.09},{"city":"Rolla","state_name":"Missouri","lat":37.90691,"lng":-91.76374,"zip":"65401","miles_from_dt":23.64},{"city":"Jefferson City","state_name":"Missouri","lat":38.49143,"lng":-92.15009,"zip":"65101","miles_from_dt":25.07},{"city":"Loose Creek","state_name":"Missouri","lat":38.49103,"lng":-91.95003,"zip":"65054","miles_from_dt":26.01},{"city":"Kaiser","state_name":"Missouri","lat":38.15483,"lng":-92.57774,"zip":"65047","miles_from_dt":26.52},{"city":"Richland","state_name":"Missouri","lat":37.83582,"lng":-92.40541,"zip":"65556","miles_from_dt":26.59},{"city":"Saint James","state_name":"Missouri","lat":38.0181,"lng":-91.60664,"zip":"65559","miles_from_dt":27.57},{"city":"Linn","state_name":"Missouri","lat":38.46519,"lng":-91.79758,"zip":"65051","miles_from_dt":28.06},{"city":"Olean","state_name":"Missouri","lat":38.40634,"lng":-92.47664,"zip":"65064","miles_from_dt":28.26},{"city":"Bland","state_name":"Missouri","lat":38.32184,"lng":-91.6247,"zip":"65014","miles_from_dt":28.62},{"city":"Jefferson City","state_name":"Missouri","lat":38.5511,"lng":-92.11881,"zip":"65111","miles_from_dt":29.02},{"city":"Fort Leonard Wood","state_name":"Missouri","lat":37.71215,"lng":-92.14811,"zip":"65473","miles_from_dt":29.04},{"city":"Montreal","state_name":"Missouri","lat":37.97941,"lng":-92.59076,"zip":"65591","miles_from_dt":29.15},{"city":"Eldon","state_name":"Missouri","lat":38.32105,"lng":-92.57099,"zip":"65026","miles_from_dt":29.19}],"targetCityZipCode":"65443","targetCityState":"Missouri"},"__N_SSG":true}