{"pageProps":{"stateName":"Missouri","cityName":"chadwick","nearbyCities":[{"city":"Garrison","state_name":"Missouri","lat":36.83934,"lng":-93.01952,"zip":"65657","miles_from_dt":3.86},{"city":"Lead Hill","state_name":"Missouri","lat":36.93429,"lng":-92.94468,"zip":"72643","miles_from_dt":4.27},{"city":"Oldfield","state_name":"Missouri","lat":36.95513,"lng":-92.95998,"zip":"65720","miles_from_dt":4.86},{"city":"Sparta","state_name":"Missouri","lat":36.9955,"lng":-93.05386,"zip":"65753","miles_from_dt":7.56},{"city":"Bruner","state_name":"Missouri","lat":37.02045,"lng":-92.95594,"zip":"65620","miles_from_dt":9.12},{"city":"Taneyville","state_name":"Missouri","lat":36.75762,"lng":-93.03167,"zip":"65759","miles_from_dt":9.52},{"city":"Forsyth","state_name":"Missouri","lat":36.78118,"lng":-93.11631,"zip":"65653","miles_from_dt":9.98},{"city":"Bradleyville","state_name":"Missouri","lat":36.73739,"lng":-92.88684,"zip":"65614","miles_from_dt":12.55},{"city":"Chestnutridge","state_name":"Missouri","lat":36.83463,"lng":-93.2204,"zip":"65630","miles_from_dt":12.72},{"city":"Ozark","state_name":"Missouri","lat":36.9805,"lng":-93.21045,"zip":"65721","miles_from_dt":12.95},{"city":"Walnut Shade","state_name":"Missouri","lat":36.77484,"lng":-93.2042,"zip":"65771","miles_from_dt":13.84},{"city":"Rockaway Beach","state_name":"Missouri","lat":36.71288,"lng":-93.16169,"zip":"65740","miles_from_dt":15.26},{"city":"Spokane","state_name":"Missouri","lat":36.85032,"lng":-93.29595,"zip":"65754","miles_from_dt":16.51},{"city":"Rogersville","state_name":"Missouri","lat":37.12543,"lng":-93.08001,"zip":"65742","miles_from_dt":16.54},{"city":"Highlandville","state_name":"Missouri","lat":36.91339,"lng":-93.30137,"zip":"65669","miles_from_dt":16.58},{"city":"Kissee Mills","state_name":"Missouri","lat":36.64518,"lng":-92.98551,"zip":"65680","miles_from_dt":17.16},{"city":"Fordland","state_name":"Missouri","lat":37.14264,"lng":-92.94642,"zip":"65652","miles_from_dt":17.45},{"city":"Powersite","state_name":"Missouri","lat":36.65458,"lng":-93.12222,"zip":"65731","miles_from_dt":17.77},{"city":"Ponce De Leon","state_name":"Missouri","lat":36.87712,"lng":-93.33533,"zip":"65728","miles_from_dt":18.45},{"city":"Ava","state_name":"Missouri","lat":36.90456,"lng":-92.66662,"zip":"65608","miles_from_dt":18.64},{"city":"Rueter","state_name":"Missouri","lat":36.62449,"lng":-92.89337,"zip":"65744","miles_from_dt":19.53},{"city":"Nixa","state_name":"Missouri","lat":37.03801,"lng":-93.31976,"zip":"65714","miles_from_dt":20.16},{"city":"Branson","state_name":"Missouri","lat":36.67133,"lng":-93.24887,"zip":"65616","miles_from_dt":20.52},{"city":"Diggins","state_name":"Missouri","lat":37.17254,"lng":-92.85314,"zip":"65636","miles_from_dt":20.94},{"city":"Branson","state_name":"Missouri","lat":36.64214,"lng":-93.21688,"zip":"65615","miles_from_dt":21.02},{"city":"Seymour","state_name":"Missouri","lat":37.14278,"lng":-92.78144,"zip":"65746","miles_from_dt":21.1},{"city":"Turners","state_name":"Missouri","lat":37.18152,"lng":-93.15721,"zip":"65765","miles_from_dt":21.6},{"city":"Squires","state_name":"Missouri","lat":36.7996,"lng":-92.62858,"zip":"65755","miles_from_dt":21.74},{"city":"Springfield","state_name":"Missouri","lat":37.17071,"lng":-93.1936,"zip":"65809","miles_from_dt":21.82},{"city":"Springfield","state_name":"Missouri","lat":37.15035,"lng":-93.24842,"zip":"65899","miles_from_dt":22.3},{"city":"Springfield","state_name":"Missouri","lat":37.14822,"lng":-93.25294,"zip":"65804","miles_from_dt":22.34},{"city":"Hollister","state_name":"Missouri","lat":36.6192,"lng":-93.2177,"zip":"65673","miles_from_dt":22.37},{"city":"Kirbyville","state_name":"Missouri","lat":36.57738,"lng":-93.10407,"zip":"65679","miles_from_dt":22.52},{"city":"Cedarcreek","state_name":"Missouri","lat":36.56247,"lng":-93.00613,"zip":"65627","miles_from_dt":22.84},{"city":"Point Lookout","state_name":"Missouri","lat":36.61947,"lng":-93.2427,"zip":"65726","miles_from_dt":23.12},{"city":"Springfield","state_name":"Missouri","lat":37.1174,"lng":-93.31707,"zip":"65810","miles_from_dt":23.23},{"city":"Reeds Spring","state_name":"Missouri","lat":36.7146,"lng":-93.35796,"zip":"65737","miles_from_dt":23.24},{"city":"Thornfield","state_name":"Missouri","lat":36.68613,"lng":-92.65634,"zip":"65762","miles_from_dt":23.97},{"city":"Clever","state_name":"Missouri","lat":37.00594,"lng":-93.4232,"zip":"65631","miles_from_dt":24.51},{"city":"Springfield","state_name":"Missouri","lat":37.18979,"lng":-93.26234,"zip":"65808","miles_from_dt":24.95},{"city":"Hollister","state_name":"Missouri","lat":36.56446,"lng":-93.21351,"zip":"65672","miles_from_dt":25.54},{"city":"Springfield","state_name":"Missouri","lat":37.166,"lng":-93.32483,"zip":"65807","miles_from_dt":25.87},{"city":"Springfield","state_name":"Missouri","lat":37.16907,"lng":-93.32652,"zip":"65817","miles_from_dt":26.09},{"city":"Springfield","state_name":"Missouri","lat":37.19985,"lng":-93.28055,"zip":"65897","miles_from_dt":26.1},{"city":"Noble","state_name":"Missouri","lat":36.73192,"lng":-92.57631,"zip":"65715","miles_from_dt":26.15},{"city":"Protem","state_name":"Missouri","lat":36.53157,"lng":-92.85077,"zip":"65733","miles_from_dt":26.36},{"city":"Brookline","state_name":"Missouri","lat":37.12312,"lng":-93.38864,"zip":"65619","miles_from_dt":26.56},{"city":"Galena","state_name":"Missouri","lat":36.79552,"lng":-93.46626,"zip":"65656","miles_from_dt":26.56},{"city":"Springfield","state_name":"Missouri","lat":37.20567,"lng":-93.29847,"zip":"65806","miles_from_dt":27.01},{"city":"Theodosia","state_name":"Missouri","lat":36.56974,"lng":-92.72561,"zip":"65761","miles_from_dt":27.13},{"city":"Hurley","state_name":"Missouri","lat":36.93101,"lng":-93.49245,"zip":"65675","miles_from_dt":27.23},{"city":"Springfield","state_name":"Missouri","lat":37.21338,"lng":-93.2922,"zip":"65898","miles_from_dt":27.23},{"city":"Springfield","state_name":"Missouri","lat":37.21421,"lng":-93.29521,"zip":"65801","miles_from_dt":27.38},{"city":"Strafford","state_name":"Missouri","lat":37.2838,"lng":-93.09861,"zip":"65757","miles_from_dt":27.41},{"city":"Springfield","state_name":"Missouri","lat":37.21684,"lng":-93.30002,"zip":"65814","miles_from_dt":27.68},{"city":"Mansfield","state_name":"Missouri","lat":37.12657,"lng":-92.58323,"zip":"65704","miles_from_dt":28.22},{"city":"Wasola","state_name":"Missouri","lat":36.75551,"lng":-92.51332,"zip":"65773","miles_from_dt":28.77},{"city":"Springfield","state_name":"Missouri","lat":37.20586,"lng":-93.3548,"zip":"65890","miles_from_dt":29.01},{"city":"Springfield","state_name":"Missouri","lat":37.21048,"lng":-93.35167,"zip":"65802","miles_from_dt":29.13},{"city":"Crane","state_name":"Missouri","lat":36.89841,"lng":-93.5346,"zip":"65633","miles_from_dt":29.45},{"city":"Ridgedale","state_name":"Missouri","lat":36.51925,"lng":-93.26864,"zip":"65739","miles_from_dt":29.74}],"targetCityZipCode":"65629","targetCityState":"Missouri"},"__N_SSG":true}