{"pageProps":{"stateName":"Missouri","cityName":"coffey","nearbyCities":[{"city":"Jameson","state_name":"Missouri","lat":40.03016,"lng":-93.96862,"zip":"64647","miles_from_dt":6.27},{"city":"Gilman City","state_name":"Missouri","lat":40.16979,"lng":-93.83574,"zip":"64642","miles_from_dt":8.75},{"city":"Pattonsburg","state_name":"Missouri","lat":40.04986,"lng":-94.13833,"zip":"64670","miles_from_dt":9.33},{"city":"Bethany","state_name":"Missouri","lat":40.26453,"lng":-94.03242,"zip":"64424","miles_from_dt":10.26},{"city":"McFall","state_name":"Missouri","lat":40.13269,"lng":-94.21292,"zip":"64657","miles_from_dt":11.96},{"city":"Jamesport","state_name":"Missouri","lat":39.98517,"lng":-93.79922,"zip":"64648","miles_from_dt":13.65},{"city":"New Hampton","state_name":"Missouri","lat":40.26548,"lng":-94.1936,"zip":"64471","miles_from_dt":14.82},{"city":"Gallatin","state_name":"Missouri","lat":39.90172,"lng":-93.94542,"zip":"64640","miles_from_dt":15.22},{"city":"Altamont","state_name":"Missouri","lat":39.89617,"lng":-94.09094,"zip":"64620","miles_from_dt":16.38},{"city":"Ridgeway","state_name":"Missouri","lat":40.35622,"lng":-93.8957,"zip":"64481","miles_from_dt":17.02},{"city":"Weatherby","state_name":"Missouri","lat":39.92929,"lng":-94.22275,"zip":"64497","miles_from_dt":18.12},{"city":"Winston","state_name":"Missouri","lat":39.87461,"lng":-94.152,"zip":"64689","miles_from_dt":19.04},{"city":"Albany","state_name":"Missouri","lat":40.25201,"lng":-94.32276,"zip":"64402","miles_from_dt":19.94},{"city":"Trenton","state_name":"Missouri","lat":40.07395,"lng":-93.60346,"zip":"64683","miles_from_dt":20.6},{"city":"Martinsville","state_name":"Missouri","lat":40.39772,"lng":-94.16236,"zip":"64467","miles_from_dt":21.28},{"city":"Lock Springs","state_name":"Missouri","lat":39.84864,"lng":-93.77552,"zip":"64654","miles_from_dt":21.84},{"city":"Darlington","state_name":"Missouri","lat":40.16106,"lng":-94.41091,"zip":"64438","miles_from_dt":22.59},{"city":"Spickard","state_name":"Missouri","lat":40.23246,"lng":-93.58181,"zip":"64679","miles_from_dt":22.84},{"city":"Maysville","state_name":"Missouri","lat":39.93085,"lng":-94.35762,"zip":"64469","miles_from_dt":23.56},{"city":"Denver","state_name":"Missouri","lat":40.39883,"lng":-94.2642,"zip":"64441","miles_from_dt":24.17},{"city":"Kidder","state_name":"Missouri","lat":39.77428,"lng":-94.09183,"zip":"64649","miles_from_dt":24.48},{"city":"Hamilton","state_name":"Missouri","lat":39.7418,"lng":-93.97384,"zip":"64644","miles_from_dt":26.1},{"city":"Eagleville","state_name":"Missouri","lat":40.49935,"lng":-94.00645,"zip":"64442","miles_from_dt":26.2},{"city":"King City","state_name":"Missouri","lat":40.06526,"lng":-94.4869,"zip":"64463","miles_from_dt":26.72},{"city":"Cainsville","state_name":"Missouri","lat":40.46915,"lng":-93.76862,"zip":"64632","miles_from_dt":26.73},{"city":"Princeton","state_name":"Missouri","lat":40.38001,"lng":-93.59094,"zip":"64673","miles_from_dt":27.61},{"city":"Breckenridge","state_name":"Missouri","lat":39.74378,"lng":-93.80527,"zip":"64625","miles_from_dt":27.7},{"city":"Blythedale","state_name":"Missouri","lat":40.51747,"lng":-93.86158,"zip":"64426","miles_from_dt":28.23},{"city":"Hatfield","state_name":"Missouri","lat":40.52246,"lng":-94.14491,"zip":"64458","miles_from_dt":28.99},{"city":"Cameron","state_name":"Missouri","lat":39.73895,"lng":-94.2285,"zip":"64429","miles_from_dt":29.23},{"city":"Worth","state_name":"Missouri","lat":40.39707,"lng":-94.41521,"zip":"64499","miles_from_dt":29.61},{"city":"Gentry","state_name":"Missouri","lat":40.34471,"lng":-94.46947,"zip":"64453","miles_from_dt":29.83},{"city":"Allendale","state_name":"Missouri","lat":40.48645,"lng":-94.2892,"zip":"64420","miles_from_dt":29.89}],"targetCityZipCode":"64636","targetCityState":"Missouri"},"__N_SSG":true}