{"pageProps":{"stateName":"Missouri","cityName":"elmo","nearbyCities":[{"city":"Blanchard","state_name":"Iowa","lat":40.60101,"lng":-95.19427,"zip":"51630","miles_from_dt":5.39},{"city":"College Springs","state_name":"Iowa","lat":40.62046,"lng":-95.11832,"zip":"51637","miles_from_dt":5.97},{"city":"Burlington Junction","state_name":"Missouri","lat":40.4418,"lng":-95.08836,"zip":"64428","miles_from_dt":6.98},{"city":"Clearmont","state_name":"Missouri","lat":40.53046,"lng":-94.99357,"zip":"64431","miles_from_dt":7.65},{"city":"Braddyville","state_name":"Iowa","lat":40.60267,"lng":-95.00918,"zip":"51631","miles_from_dt":8.25},{"city":"Westboro","state_name":"Missouri","lat":40.54023,"lng":-95.31255,"zip":"64498","miles_from_dt":9.15},{"city":"Shambaugh","state_name":"Iowa","lat":40.65652,"lng":-95.03473,"zip":"51651","miles_from_dt":9.99},{"city":"Coin","state_name":"Iowa","lat":40.66713,"lng":-95.23519,"zip":"51636","miles_from_dt":10.41},{"city":"Northboro","state_name":"Iowa","lat":40.60539,"lng":-95.34509,"zip":"51647","miles_from_dt":11.88},{"city":"Tarkio","state_name":"Missouri","lat":40.44868,"lng":-95.34499,"zip":"64491","miles_from_dt":12.4},{"city":"Yorktown","state_name":"Iowa","lat":40.73527,"lng":-95.15437,"zip":"51656","miles_from_dt":13.82},{"city":"Clarinda","state_name":"Iowa","lat":40.7478,"lng":-95.04939,"zip":"51632","miles_from_dt":15.4},{"city":"Skidmore","state_name":"Missouri","lat":40.31218,"lng":-95.10293,"zip":"64487","miles_from_dt":15.51},{"city":"Pickering","state_name":"Missouri","lat":40.45115,"lng":-94.83034,"zip":"64476","miles_from_dt":17.26},{"city":"Hopkins","state_name":"Missouri","lat":40.52459,"lng":-94.81063,"zip":"64461","miles_from_dt":17.29},{"city":"Shenandoah","state_name":"Iowa","lat":40.72938,"lng":-95.35037,"zip":"51601","miles_from_dt":17.41},{"city":"Maryville","state_name":"Missouri","lat":40.34241,"lng":-94.8811,"zip":"64468","miles_from_dt":19.02},{"city":"Shenandoah","state_name":"Iowa","lat":40.7667,"lng":-95.37171,"zip":"51603","miles_from_dt":20.12},{"city":"Fairfax","state_name":"Missouri","lat":40.32176,"lng":-95.40297,"zip":"64446","miles_from_dt":20.28},{"city":"New Market","state_name":"Iowa","lat":40.75315,"lng":-94.8725,"zip":"51646","miles_from_dt":20.54},{"city":"Farragut","state_name":"Iowa","lat":40.71859,"lng":-95.47362,"zip":"51639","miles_from_dt":21.67},{"city":"Essex","state_name":"Iowa","lat":40.83919,"lng":-95.26663,"zip":"51638","miles_from_dt":22.02},{"city":"Rock Port","state_name":"Missouri","lat":40.45345,"lng":-95.54329,"zip":"64482","miles_from_dt":22.04},{"city":"Riverton","state_name":"Iowa","lat":40.673,"lng":-95.5492,"zip":"51650","miles_from_dt":23.58},{"city":"Bedford","state_name":"Iowa","lat":40.66956,"lng":-94.70309,"zip":"50833","miles_from_dt":24.72},{"city":"Graham","state_name":"Missouri","lat":40.18592,"lng":-95.00594,"zip":"64455","miles_from_dt":25.11},{"city":"Maitland","state_name":"Missouri","lat":40.16865,"lng":-95.1067,"zip":"64466","miles_from_dt":25.36},{"city":"Mound City","state_name":"Missouri","lat":40.17036,"lng":-95.22138,"zip":"64470","miles_from_dt":25.56},{"city":"Watson","state_name":"Missouri","lat":40.49563,"lng":-95.62372,"zip":"64496","miles_from_dt":25.68},{"city":"Gravity","state_name":"Iowa","lat":40.78685,"lng":-94.76758,"zip":"50848","miles_from_dt":26.11},{"city":"Sheridan","state_name":"Missouri","lat":40.52951,"lng":-94.61471,"zip":"64486","miles_from_dt":27.6},{"city":"Parnell","state_name":"Missouri","lat":40.43561,"lng":-94.63049,"zip":"64475","miles_from_dt":27.65},{"city":"Ravenwood","state_name":"Missouri","lat":40.34853,"lng":-94.66636,"zip":"64479","miles_from_dt":28.04},{"city":"Imogene","state_name":"Iowa","lat":40.88206,"lng":-95.4229,"zip":"51645","miles_from_dt":28.19},{"city":"Hamburg","state_name":"Iowa","lat":40.62262,"lng":-95.6634,"zip":"51640","miles_from_dt":28.25},{"city":"Barnard","state_name":"Missouri","lat":40.18695,"lng":-94.8552,"zip":"64423","miles_from_dt":28.32},{"city":"Conception Junction","state_name":"Missouri","lat":40.2584,"lng":-94.73615,"zip":"64434","miles_from_dt":28.57},{"city":"Craig","state_name":"Missouri","lat":40.14292,"lng":-95.35546,"zip":"64437","miles_from_dt":29.39}],"targetCityZipCode":"64445","targetCityState":"Missouri"},"__N_SSG":true}