{"pageProps":{"stateName":"Missouri","cityName":"holden","nearbyCities":[{"city":"Kingsville","state_name":"Missouri","lat":38.77981,"lng":-94.0885,"zip":"64061","miles_from_dt":6.88},{"city":"Centerview","state_name":"Missouri","lat":38.77543,"lng":-93.86665,"zip":"64019","miles_from_dt":7.58},{"city":"Strasburg","state_name":"Missouri","lat":38.75991,"lng":-94.16387,"zip":"64090","miles_from_dt":9.94},{"city":"Chilhowee","state_name":"Missouri","lat":38.58016,"lng":-93.8283,"zip":"64733","miles_from_dt":12.88},{"city":"East Lynne","state_name":"Missouri","lat":38.66596,"lng":-94.21827,"zip":"64743","miles_from_dt":13.02},{"city":"Blairstown","state_name":"Missouri","lat":38.52921,"lng":-93.92492,"zip":"64726","miles_from_dt":13.54},{"city":"Garden City","state_name":"Missouri","lat":38.57353,"lng":-94.17399,"zip":"64747","miles_from_dt":14.25},{"city":"Warrensburg","state_name":"Missouri","lat":38.79057,"lng":-93.73206,"zip":"64093","miles_from_dt":14.63},{"city":"Lone Jack","state_name":"Missouri","lat":38.8897,"lng":-94.14863,"zip":"64070","miles_from_dt":14.63},{"city":"Pleasant Hill","state_name":"Missouri","lat":38.7691,"lng":-94.25639,"zip":"64080","miles_from_dt":14.94},{"city":"Creighton","state_name":"Missouri","lat":38.51139,"lng":-94.09389,"zip":"64739","miles_from_dt":15.46},{"city":"Bates City","state_name":"Missouri","lat":38.95963,"lng":-94.06688,"zip":"64011","miles_from_dt":17.13},{"city":"Odessa","state_name":"Missouri","lat":38.98145,"lng":-93.94536,"zip":"64076","miles_from_dt":18.23},{"city":"Leeton","state_name":"Missouri","lat":38.59463,"lng":-93.68657,"zip":"64761","miles_from_dt":18.4},{"city":"Greenwood","state_name":"Missouri","lat":38.85052,"lng":-94.30203,"zip":"64034","miles_from_dt":19.26},{"city":"Urich","state_name":"Missouri","lat":38.42868,"lng":-94.02045,"zip":"64788","miles_from_dt":20.13},{"city":"Harrisonville","state_name":"Missouri","lat":38.62053,"lng":-94.3378,"zip":"64701","miles_from_dt":20.14},{"city":"Oak Grove","state_name":"Missouri","lat":38.99751,"lng":-94.14544,"zip":"64075","miles_from_dt":21},{"city":"Lees Summit","state_name":"Missouri","lat":38.91181,"lng":-94.29293,"zip":"64086","miles_from_dt":21.18},{"city":"Mayview","state_name":"Missouri","lat":39.02961,"lng":-93.83379,"zip":"64071","miles_from_dt":22.95},{"city":"Grain Valley","state_name":"Missouri","lat":39.00634,"lng":-94.21473,"zip":"64029","miles_from_dt":23.29},{"city":"Knob Noster","state_name":"Missouri","lat":38.78169,"lng":-93.56241,"zip":"65336","miles_from_dt":23.35},{"city":"Whiteman Air Force Base","state_name":"Missouri","lat":38.72944,"lng":-93.55446,"zip":"65305","miles_from_dt":23.4},{"city":"Lees Summit","state_name":"Missouri","lat":38.91224,"lng":-94.35341,"zip":"64063","miles_from_dt":23.83},{"city":"Lees Summit","state_name":"Missouri","lat":38.86601,"lng":-94.4039,"zip":"64082","miles_from_dt":24.66},{"city":"Blue Springs","state_name":"Missouri","lat":39.00893,"lng":-94.25533,"zip":"64014","miles_from_dt":24.66},{"city":"Lees Summit","state_name":"Missouri","lat":38.9121,"lng":-94.3795,"zip":"64002","miles_from_dt":25},{"city":"Napoleon","state_name":"Missouri","lat":39.08106,"lng":-94.07658,"zip":"64074","miles_from_dt":25.42},{"city":"Raymore","state_name":"Missouri","lat":38.80082,"lng":-94.4483,"zip":"64083","miles_from_dt":25.53},{"city":"Archie","state_name":"Missouri","lat":38.49482,"lng":-94.36609,"zip":"64725","miles_from_dt":25.69},{"city":"Peculiar","state_name":"Missouri","lat":38.70711,"lng":-94.46375,"zip":"64078","miles_from_dt":25.77},{"city":"Blue Springs","state_name":"Missouri","lat":39.01936,"lng":-94.28247,"zip":"64013","miles_from_dt":26.11},{"city":"Lees Summit","state_name":"Missouri","lat":38.90971,"lng":-94.40953,"zip":"64081","miles_from_dt":26.3},{"city":"Lees Summit","state_name":"Missouri","lat":38.98222,"lng":-94.34284,"zip":"64064","miles_from_dt":26.4},{"city":"Higginsville","state_name":"Missouri","lat":39.05116,"lng":-93.73386,"zip":"64037","miles_from_dt":26.66},{"city":"Blue Springs","state_name":"Missouri","lat":39.02099,"lng":-94.3006,"zip":"64015","miles_from_dt":26.81},{"city":"Calhoun","state_name":"Missouri","lat":38.45289,"lng":-93.6212,"zip":"65323","miles_from_dt":27.03},{"city":"Wellington","state_name":"Missouri","lat":39.11237,"lng":-93.99146,"zip":"64097","miles_from_dt":27.12},{"city":"Concordia","state_name":"Missouri","lat":38.96795,"lng":-93.59098,"zip":"64020","miles_from_dt":27.41},{"city":"Lees Summit","state_name":"Missouri","lat":38.95146,"lng":-94.40467,"zip":"64065","miles_from_dt":27.63},{"city":"Kansas City","state_name":"Missouri","lat":38.86524,"lng":-94.46666,"zip":"64149","miles_from_dt":27.77},{"city":"Clinton","state_name":"Missouri","lat":38.36612,"lng":-93.73644,"zip":"64735","miles_from_dt":27.89},{"city":"Freeman","state_name":"Missouri","lat":38.61054,"lng":-94.49304,"zip":"64746","miles_from_dt":28.36},{"city":"Kansas City","state_name":"Missouri","lat":38.96832,"lng":-94.40677,"zip":"64139","miles_from_dt":28.41},{"city":"Adrian","state_name":"Missouri","lat":38.40533,"lng":-94.33742,"zip":"64720","miles_from_dt":28.79},{"city":"Windsor","state_name":"Missouri","lat":38.51989,"lng":-93.51334,"zip":"65360","miles_from_dt":29.1},{"city":"Buckner","state_name":"Missouri","lat":39.11642,"lng":-94.21385,"zip":"64016","miles_from_dt":29.99}],"targetCityZipCode":"64040","targetCityState":"Missouri"},"__N_SSG":true}