{"pageProps":{"stateName":"Missouri","cityName":"liberty","nearbyCities":[{"city":"Liberty","state_name":"Missouri","lat":39.24178,"lng":-94.41722,"zip":"64069","miles_from_dt":1.88},{"city":"Kansas City","state_name":"Missouri","lat":39.27657,"lng":-94.47103,"zip":"64157","miles_from_dt":4.48},{"city":"Kansas City","state_name":"Missouri","lat":39.23493,"lng":-94.47839,"zip":"64158","miles_from_dt":5.01},{"city":"Missouri City","state_name":"Missouri","lat":39.23286,"lng":-94.30021,"zip":"64072","miles_from_dt":5.17},{"city":"Kansas City","state_name":"Missouri","lat":39.31939,"lng":-94.48187,"zip":"64167","miles_from_dt":6.42},{"city":"Mosby","state_name":"Missouri","lat":39.31391,"lng":-94.29154,"zip":"64073","miles_from_dt":6.51},{"city":"Independence","state_name":"Missouri","lat":39.17805,"lng":-94.31408,"zip":"64058","miles_from_dt":6.94},{"city":"Kansas City","state_name":"Missouri","lat":39.2762,"lng":-94.5195,"zip":"64156","miles_from_dt":7.02},{"city":"Kansas City","state_name":"Missouri","lat":39.16184,"lng":-94.44943,"zip":"64161","miles_from_dt":7.43},{"city":"Kansas City","state_name":"Missouri","lat":39.21137,"lng":-94.5186,"zip":"64119","miles_from_dt":7.63},{"city":"Kearney","state_name":"Missouri","lat":39.37134,"lng":-94.36821,"zip":"64060","miles_from_dt":7.82},{"city":"Kansas City","state_name":"Missouri","lat":39.32215,"lng":-94.52301,"zip":"64166","miles_from_dt":8.33},{"city":"Kansas City","state_name":"Missouri","lat":39.15597,"lng":-94.48187,"zip":"64162","miles_from_dt":8.65},{"city":"Kansas City","state_name":"Missouri","lat":39.16522,"lng":-94.52251,"zip":"64117","miles_from_dt":9.61},{"city":"Kansas City","state_name":"Missouri","lat":39.28031,"lng":-94.56801,"zip":"64155","miles_from_dt":9.63},{"city":"Excelsior Springs","state_name":"Missouri","lat":39.32523,"lng":-94.22707,"zip":"64024","miles_from_dt":9.87},{"city":"Independence","state_name":"Missouri","lat":39.11424,"lng":-94.40641,"zip":"64050","miles_from_dt":10.04},{"city":"Independence","state_name":"Missouri","lat":39.11627,"lng":-94.44003,"zip":"64054","miles_from_dt":10.22},{"city":"Kansas City","state_name":"Missouri","lat":39.21301,"lng":-94.57497,"zip":"64118","miles_from_dt":10.4},{"city":"Kansas City","state_name":"Missouri","lat":39.32081,"lng":-94.57749,"zip":"64165","miles_from_dt":10.89},{"city":"Independence","state_name":"Missouri","lat":39.11114,"lng":-94.32008,"zip":"64056","miles_from_dt":10.89},{"city":"Kansas City","state_name":"Missouri","lat":39.13142,"lng":-94.51489,"zip":"64120","miles_from_dt":11.06},{"city":"Independence","state_name":"Missouri","lat":39.10791,"lng":-94.46735,"zip":"64053","miles_from_dt":11.23},{"city":"Independence","state_name":"Missouri","lat":39.09371,"lng":-94.41768,"zip":"64051","miles_from_dt":11.51},{"city":"Kansas City","state_name":"Missouri","lat":39.1065,"lng":-94.49388,"zip":"64125","miles_from_dt":11.91},{"city":"Kansas City","state_name":"Missouri","lat":39.11436,"lng":-94.52167,"zip":"64123","miles_from_dt":12.23},{"city":"Kansas City","state_name":"Missouri","lat":39.14875,"lng":-94.57444,"zip":"64116","miles_from_dt":12.48},{"city":"Kansas City","state_name":"Missouri","lat":39.14348,"lng":-94.57159,"zip":"64144","miles_from_dt":12.58},{"city":"Holt","state_name":"Missouri","lat":39.44439,"lng":-94.3634,"zip":"64048","miles_from_dt":12.85},{"city":"Kansas City","state_name":"Missouri","lat":39.27653,"lng":-94.62967,"zip":"64154","miles_from_dt":12.88},{"city":"Kansas City","state_name":"Missouri","lat":39.12322,"lng":-94.55505,"zip":"64179","miles_from_dt":12.89},{"city":"Kansas City","state_name":"Missouri","lat":39.09095,"lng":-94.49581,"zip":"64126","miles_from_dt":12.92},{"city":"Sibley","state_name":"Missouri","lat":39.16173,"lng":-94.1848,"zip":"64088","miles_from_dt":12.92},{"city":"Smithville","state_name":"Missouri","lat":39.39007,"lng":-94.56483,"zip":"64089","miles_from_dt":12.99},{"city":"Kansas City","state_name":"Missouri","lat":39.10718,"lng":-94.5391,"zip":"64124","miles_from_dt":13.18},{"city":"Independence","state_name":"Missouri","lat":39.07355,"lng":-94.45082,"zip":"64052","miles_from_dt":13.21},{"city":"Kansas City","state_name":"Missouri","lat":39.21494,"lng":-94.63115,"zip":"64151","miles_from_dt":13.27},{"city":"Independence","state_name":"Missouri","lat":39.0692,"lng":-94.32203,"zip":"64057","miles_from_dt":13.61},{"city":"Buckner","state_name":"Missouri","lat":39.11642,"lng":-94.21385,"zip":"64016","miles_from_dt":13.67},{"city":"Orrick","state_name":"Missouri","lat":39.2224,"lng":-94.13887,"zip":"64077","miles_from_dt":13.73},{"city":"Kansas City","state_name":"Missouri","lat":39.32988,"lng":-94.63113,"zip":"64164","miles_from_dt":13.79},{"city":"Kansas City","state_name":"Missouri","lat":39.08912,"lng":-94.53837,"zip":"64127","miles_from_dt":14.17},{"city":"Riverside","state_name":"Missouri","lat":39.17052,"lng":-94.6303,"zip":"64150","miles_from_dt":14.25},{"city":"Kansas City","state_name":"Kansas","lat":39.14402,"lng":-94.61104,"zip":"66115","miles_from_dt":14.26},{"city":"Kansas City","state_name":"Missouri","lat":39.10526,"lng":-94.57013,"zip":"64106","miles_from_dt":14.35},{"city":"Kansas City","state_name":"Missouri","lat":39.1686,"lng":-94.63192,"zip":"64168","miles_from_dt":14.39},{"city":"Independence","state_name":"Missouri","lat":39.05061,"lng":-94.39848,"zip":"64055","miles_from_dt":14.4},{"city":"Kansas City","state_name":"Missouri","lat":39.10077,"lng":-94.57899,"zip":"64121","miles_from_dt":14.9},{"city":"Kansas City","state_name":"Missouri","lat":39.1041,"lng":-94.58383,"zip":"64199","miles_from_dt":14.91},{"city":"Kansas City","state_name":"Missouri","lat":39.09972,"lng":-94.57833,"zip":"64188","miles_from_dt":14.93},{"city":"Kansas City","state_name":"Missouri","lat":39.09948,"lng":-94.57794,"zip":"64187","miles_from_dt":14.93},{"city":"Kansas City","state_name":"Missouri","lat":39.10183,"lng":-94.58228,"zip":"64198","miles_from_dt":14.97},{"city":"Kansas City","state_name":"Missouri","lat":39.10127,"lng":-94.58236,"zip":"64180","miles_from_dt":15},{"city":"Kansas City","state_name":"Missouri","lat":39.10599,"lng":-94.58985,"zip":"64105","miles_from_dt":15.05},{"city":"Kansas City","state_name":"Missouri","lat":39.1073,"lng":-94.59246,"zip":"64184","miles_from_dt":15.08},{"city":"Kansas City","state_name":"Missouri","lat":39.09892,"lng":-94.58337,"zip":"64196","miles_from_dt":15.15},{"city":"Kansas City","state_name":"Missouri","lat":39.06555,"lng":-94.53484,"zip":"64128","miles_from_dt":15.45},{"city":"Kansas City","state_name":"Missouri","lat":39.04935,"lng":-94.49682,"zip":"64129","miles_from_dt":15.57},{"city":"Kansas City","state_name":"Missouri","lat":39.10355,"lng":-94.60051,"zip":"64101","miles_from_dt":15.57},{"city":"Kansas City","state_name":"Missouri","lat":39.08865,"lng":-94.58129,"zip":"64148","miles_from_dt":15.61},{"city":"Kansas City","state_name":"Missouri","lat":39.08763,"lng":-94.58471,"zip":"64191","miles_from_dt":15.78},{"city":"Levasy","state_name":"Missouri","lat":39.13961,"lng":-94.13857,"zip":"64066","miles_from_dt":15.84},{"city":"Kansas City","state_name":"Missouri","lat":39.08559,"lng":-94.58524,"zip":"64141","miles_from_dt":15.9},{"city":"Kansas City","state_name":"Kansas","lat":39.11871,"lng":-94.62592,"zip":"66101","miles_from_dt":15.93},{"city":"Kansas City","state_name":"Missouri","lat":39.08413,"lng":-94.58449,"zip":"64108","miles_from_dt":15.95},{"city":"Kansas City","state_name":"Kansas","lat":39.1164,"lng":-94.6243,"zip":"66117","miles_from_dt":15.96},{"city":"Kansas City","state_name":"Missouri","lat":39.09433,"lng":-94.60329,"zip":"64102","miles_from_dt":16.13},{"city":"Kansas City","state_name":"Kansas","lat":39.09946,"lng":-94.61348,"zip":"66118","miles_from_dt":16.28},{"city":"Kansas City","state_name":"Missouri","lat":39.06646,"lng":-94.56709,"zip":"64109","miles_from_dt":16.34},{"city":"Kansas City","state_name":"Missouri","lat":39.18858,"lng":-94.68211,"zip":"64190","miles_from_dt":16.39},{"city":"Kansas City","state_name":"Missouri","lat":39.33674,"lng":-94.68922,"zip":"64163","miles_from_dt":16.88},{"city":"Kansas City","state_name":"Missouri","lat":39.01361,"lng":-94.40181,"zip":"64136","miles_from_dt":16.96},{"city":"Trimble","state_name":"Missouri","lat":39.48067,"lng":-94.53363,"zip":"64492","miles_from_dt":17.09},{"city":"Blue Springs","state_name":"Missouri","lat":39.02099,"lng":-94.3006,"zip":"64015","miles_from_dt":17.13},{"city":"Kansas City","state_name":"Missouri","lat":39.01406,"lng":-94.45689,"zip":"64133","miles_from_dt":17.29},{"city":"Blue Springs","state_name":"Missouri","lat":39.01936,"lng":-94.28247,"zip":"64013","miles_from_dt":17.53},{"city":"Kansas City","state_name":"Missouri","lat":39.03345,"lng":-94.54119,"zip":"64130","miles_from_dt":17.56},{"city":"Kansas City","state_name":"Kansas","lat":39.15043,"lng":-94.68861,"zip":"66104","miles_from_dt":17.68},{"city":"Kansas City","state_name":"Missouri","lat":39.05707,"lng":-94.59393,"zip":"64111","miles_from_dt":17.72},{"city":"Kansas City","state_name":"Kansas","lat":39.08593,"lng":-94.63646,"zip":"66105","miles_from_dt":17.82},{"city":"Kansas City","state_name":"Missouri","lat":39.30204,"lng":-94.71838,"zip":"64195","miles_from_dt":17.83},{"city":"Kansas City","state_name":"Missouri","lat":39.05094,"lng":-94.5881,"zip":"64171","miles_from_dt":17.87},{"city":"Lawson","state_name":"Missouri","lat":39.45533,"lng":-94.17244,"zip":"64062","miles_from_dt":17.87},{"city":"Kansas City","state_name":"Kansas","lat":39.08372,"lng":-94.63903,"zip":"66119","miles_from_dt":18.02},{"city":"Kansas City","state_name":"Missouri","lat":39.21278,"lng":-94.72271,"zip":"64152","miles_from_dt":18.11},{"city":"Kansas City","state_name":"Kansas","lat":39.05576,"lng":-94.60963,"zip":"66160","miles_from_dt":18.32},{"city":"Kansas City","state_name":"Missouri","lat":39.27999,"lng":-94.73148,"zip":"64153","miles_from_dt":18.34},{"city":"Kansas City","state_name":"Missouri","lat":39.03445,"lng":-94.57265,"zip":"64110","miles_from_dt":18.34},{"city":"Kansas City","state_name":"Kansas","lat":39.06045,"lng":-94.62707,"zip":"66103","miles_from_dt":18.7},{"city":"Blue Springs","state_name":"Missouri","lat":39.00893,"lng":-94.25533,"zip":"64014","miles_from_dt":18.73},{"city":"Kansas City","state_name":"Missouri","lat":39.03599,"lng":-94.59529,"zip":"64112","miles_from_dt":18.93},{"city":"Kansas City","state_name":"Kansas","lat":39.11246,"lng":-94.68842,"zip":"66102","miles_from_dt":18.93},{"city":"Kansas City","state_name":"Kansas","lat":39.11323,"lng":-94.69498,"zip":"66110","miles_from_dt":19.2},{"city":"Lees Summit","state_name":"Missouri","lat":38.98222,"lng":-94.34284,"zip":"64064","miles_from_dt":19.28},{"city":"Rayville","state_name":"Missouri","lat":39.38697,"lng":-94.0653,"zip":"64084","miles_from_dt":19.52},{"city":"Camden","state_name":"Missouri","lat":39.199,"lng":-94.02951,"zip":"64017","miles_from_dt":19.8},{"city":"Grain Valley","state_name":"Missouri","lat":39.00634,"lng":-94.21473,"zip":"64029","miles_from_dt":19.84},{"city":"Kansas City","state_name":"Missouri","lat":38.96832,"lng":-94.40677,"zip":"64139","miles_from_dt":20.09},{"city":"Kansas City","state_name":"Missouri","lat":39.01414,"lng":-94.5956,"zip":"64113","miles_from_dt":20.18},{"city":"Mission","state_name":"Kansas","lat":39.03122,"lng":-94.6307,"zip":"66205","miles_from_dt":20.35},{"city":"Edgerton","state_name":"Missouri","lat":39.48334,"lng":-94.63856,"zip":"64444","miles_from_dt":20.38},{"city":"Kansas City","state_name":"Missouri","lat":38.98551,"lng":-94.5396,"zip":"64132","miles_from_dt":20.51},{"city":"Kansas City","state_name":"Missouri","lat":38.96852,"lng":-94.47088,"zip":"64138","miles_from_dt":20.52},{"city":"Lathrop","state_name":"Missouri","lat":39.54853,"lng":-94.29525,"zip":"64465","miles_from_dt":20.6},{"city":"Napoleon","state_name":"Missouri","lat":39.08106,"lng":-94.07658,"zip":"64074","miles_from_dt":20.86},{"city":"Lees Summit","state_name":"Missouri","lat":38.95146,"lng":-94.40467,"zip":"64065","miles_from_dt":21.25},{"city":"Mission","state_name":"Kansas","lat":39.02348,"lng":-94.64885,"zip":"66222","miles_from_dt":21.38},{"city":"Kansas City","state_name":"Kansas","lat":39.06631,"lng":-94.70384,"zip":"66106","miles_from_dt":21.46},{"city":"Prairie Village","state_name":"Kansas","lat":38.99936,"lng":-94.62998,"zip":"66208","miles_from_dt":22.07},{"city":"Mission","state_name":"Kansas","lat":39.02392,"lng":-94.66909,"zip":"66202","miles_from_dt":22.08},{"city":"Lenexa","state_name":"Kansas","lat":39.01685,"lng":-94.66328,"zip":"66285","miles_from_dt":22.24},{"city":"Plattsburg","state_name":"Missouri","lat":39.57872,"lng":-94.45289,"zip":"64477","miles_from_dt":22.29},{"city":"Oak Grove","state_name":"Missouri","lat":38.99751,"lng":-94.14544,"zip":"64075","miles_from_dt":22.34},{"city":"Waldron","state_name":"Missouri","lat":39.22248,"lng":-94.8088,"zip":"64092","miles_from_dt":22.59},{"city":"Camden Point","state_name":"Missouri","lat":39.45052,"lng":-94.73329,"zip":"64018","miles_from_dt":22.61},{"city":"Kansas City","state_name":"Kansas","lat":39.11494,"lng":-94.7701,"zip":"66112","miles_from_dt":22.68},{"city":"Platte City","state_name":"Missouri","lat":39.36267,"lng":-94.79351,"zip":"64079","miles_from_dt":22.75},{"city":"Kansas City","state_name":"Missouri","lat":38.95348,"lng":-94.54967,"zip":"64999","miles_from_dt":22.76},{"city":"Kansas City","state_name":"Missouri","lat":38.95188,"lng":-94.54683,"zip":"64170","miles_from_dt":22.81},{"city":"Kansas City","state_name":"Missouri","lat":38.95687,"lng":-94.57114,"zip":"64197","miles_from_dt":23.01},{"city":"Kansas City","state_name":"Missouri","lat":38.95723,"lng":-94.57449,"zip":"64131","miles_from_dt":23.06},{"city":"Lenexa","state_name":"Kansas","lat":39.00266,"lng":-94.67,"zip":"66276","miles_from_dt":23.21},{"city":"Kansas City","state_name":"Missouri","lat":38.9308,"lng":-94.48667,"zip":"64134","miles_from_dt":23.24},{"city":"Farley","state_name":"Missouri","lat":39.29658,"lng":-94.82153,"zip":"64028","miles_from_dt":23.26},{"city":"Kansas City","state_name":"Missouri","lat":38.9581,"lng":-94.59715,"zip":"64114","miles_from_dt":23.56},{"city":"Shawnee","state_name":"Kansas","lat":39.0216,"lng":-94.70558,"zip":"66203","miles_from_dt":23.57},{"city":"Wellington","state_name":"Missouri","lat":39.11237,"lng":-93.99146,"zip":"64097","miles_from_dt":23.69},{"city":"Lees Summit","state_name":"Missouri","lat":38.9121,"lng":-94.3795,"zip":"64002","miles_from_dt":23.95},{"city":"Overland Park","state_name":"Kansas","lat":38.99282,"lng":-94.67741,"zip":"66204","miles_from_dt":23.99},{"city":"Lees Summit","state_name":"Missouri","lat":38.91224,"lng":-94.35341,"zip":"64063","miles_from_dt":24.02},{"city":"Kansas City","state_name":"Missouri","lat":38.93196,"lng":-94.54287,"zip":"64137","miles_from_dt":24.02},{"city":"Leawood","state_name":"Kansas","lat":38.95851,"lng":-94.61923,"zip":"66206","miles_from_dt":24.12},{"city":"Lees Summit","state_name":"Missouri","lat":38.90971,"lng":-94.40953,"zip":"64081","miles_from_dt":24.13},{"city":"Richmond","state_name":"Missouri","lat":39.33838,"lng":-93.95158,"zip":"64085","miles_from_dt":24.15},{"city":"Kansas City","state_name":"Kansas","lat":39.16367,"lng":-94.8283,"zip":"66109","miles_from_dt":24.41},{"city":"Lees Summit","state_name":"Missouri","lat":38.91181,"lng":-94.29293,"zip":"64086","miles_from_dt":24.53},{"city":"Henrietta","state_name":"Missouri","lat":39.20047,"lng":-93.937,"zip":"64036","miles_from_dt":24.66},{"city":"Kansas City","state_name":"Kansas","lat":39.08529,"lng":-94.79621,"zip":"66111","miles_from_dt":24.88},{"city":"Overland Park","state_name":"Kansas","lat":38.95625,"lng":-94.64439,"zip":"66207","miles_from_dt":24.96},{"city":"Mission","state_name":"Kansas","lat":38.96903,"lng":-94.67614,"zip":"66201","miles_from_dt":25.23},{"city":"Shawnee","state_name":"Kansas","lat":39.01405,"lng":-94.74136,"zip":"66216","miles_from_dt":25.33},{"city":"Turney","state_name":"Missouri","lat":39.63058,"lng":-94.30454,"zip":"64493","miles_from_dt":26.03},{"city":"Overland Park","state_name":"Kansas","lat":38.9563,"lng":-94.68154,"zip":"66212","miles_from_dt":26.11},{"city":"Polo","state_name":"Missouri","lat":39.53655,"lng":-94.0518,"zip":"64671","miles_from_dt":26.35},{"city":"Gower","state_name":"Missouri","lat":39.60771,"lng":-94.59423,"zip":"64454","miles_from_dt":26.4},{"city":"Overland Park","state_name":"Kansas","lat":38.95354,"lng":-94.68828,"zip":"66282","miles_from_dt":26.48},{"city":"Dearborn","state_name":"Missouri","lat":39.52371,"lng":-94.74986,"zip":"64439","miles_from_dt":26.52},{"city":"Leawood","state_name":"Kansas","lat":38.92422,"lng":-94.6363,"zip":"66211","miles_from_dt":26.62},{"city":"Edwardsville","state_name":"Kansas","lat":39.06108,"lng":-94.81938,"zip":"66113","miles_from_dt":26.79},{"city":"Overland Park","state_name":"Kansas","lat":38.96356,"lng":-94.71397,"zip":"66214","miles_from_dt":26.8},{"city":"Shawnee","state_name":"Kansas","lat":39.01148,"lng":-94.77741,"zip":"66217","miles_from_dt":26.91},{"city":"Bates City","state_name":"Missouri","lat":38.95963,"lng":-94.06688,"zip":"64011","miles_from_dt":27.01},{"city":"Grandview","state_name":"Missouri","lat":38.87996,"lng":-94.52312,"zip":"64030","miles_from_dt":27.12},{"city":"Lees Summit","state_name":"Missouri","lat":38.86601,"lng":-94.4039,"zip":"64082","miles_from_dt":27.14},{"city":"Lansing","state_name":"Kansas","lat":39.24967,"lng":-94.90193,"zip":"66043","miles_from_dt":27.44},{"city":"Kansas City","state_name":"Missouri","lat":38.86524,"lng":-94.46666,"zip":"64149","miles_from_dt":27.49},{"city":"Overland Park","state_name":"Kansas","lat":38.91712,"lng":-94.65891,"zip":"66251","miles_from_dt":27.66},{"city":"Kansas City","state_name":"Missouri","lat":38.87888,"lng":-94.57436,"zip":"64146","miles_from_dt":28.04},{"city":"Leawood","state_name":"Kansas","lat":38.89874,"lng":-94.63778,"zip":"66209","miles_from_dt":28.2},{"city":"Lenexa","state_name":"Kansas","lat":38.95649,"lng":-94.74304,"zip":"66215","miles_from_dt":28.2},{"city":"Kansas City","state_name":"Missouri","lat":38.88046,"lng":-94.59652,"zip":"64145","miles_from_dt":28.38},{"city":"Shawnee","state_name":"Kansas","lat":39.01239,"lng":-94.81647,"zip":"66218","miles_from_dt":28.53},{"city":"Greenwood","state_name":"Missouri","lat":38.85052,"lng":-94.30203,"zip":"64034","miles_from_dt":28.59},{"city":"Lone Jack","state_name":"Missouri","lat":38.8897,"lng":-94.14863,"zip":"64070","miles_from_dt":28.62},{"city":"Overland Park","state_name":"Kansas","lat":38.92372,"lng":-94.70483,"zip":"66210","miles_from_dt":28.66},{"city":"Fort Leavenworth","state_name":"Kansas","lat":39.36454,"lng":-94.91708,"zip":"66027","miles_from_dt":29.14},{"city":"Kansas City","state_name":"Missouri","lat":38.85387,"lng":-94.54688,"zip":"64147","miles_from_dt":29.2},{"city":"Lenexa","state_name":"Kansas","lat":38.95124,"lng":-94.77807,"zip":"66219","miles_from_dt":29.76},{"city":"Shawnee","state_name":"Kansas","lat":39.03039,"lng":-94.8603,"zip":"66226","miles_from_dt":29.77},{"city":"Lenexa","state_name":"Kansas","lat":38.95507,"lng":-94.78662,"zip":"66250","miles_from_dt":29.89}],"targetCityZipCode":"64068","targetCityState":"Missouri"},"__N_SSG":true}