{"pageProps":{"stateName":"Missouri","cityName":"malta-bend","nearbyCities":[{"city":"Blackburn","state_name":"Missouri","lat":39.08604,"lng":-93.4526,"zip":"65321","miles_from_dt":8.49},{"city":"Waverly","state_name":"Missouri","lat":39.20176,"lng":-93.55611,"zip":"64096","miles_from_dt":9.64},{"city":"Alma","state_name":"Missouri","lat":39.10464,"lng":-93.53683,"zip":"64001","miles_from_dt":10.58},{"city":"Miami","state_name":"Missouri","lat":39.31174,"lng":-93.1976,"zip":"65344","miles_from_dt":12.58},{"city":"Marshall","state_name":"Missouri","lat":39.09149,"lng":-93.18041,"zip":"65340","miles_from_dt":12.7},{"city":"Carrollton","state_name":"Missouri","lat":39.35951,"lng":-93.48171,"zip":"64633","miles_from_dt":12.73},{"city":"Corder","state_name":"Missouri","lat":39.11498,"lng":-93.624,"zip":"64021","miles_from_dt":14.36},{"city":"Sweet Springs","state_name":"Missouri","lat":38.98445,"lng":-93.38628,"zip":"65351","miles_from_dt":14.47},{"city":"De Witt","state_name":"Missouri","lat":39.3962,"lng":-93.22276,"zip":"64639","miles_from_dt":16.2},{"city":"Dover","state_name":"Missouri","lat":39.20191,"lng":-93.67836,"zip":"64022","miles_from_dt":16.2},{"city":"Emma","state_name":"Missouri","lat":38.97525,"lng":-93.48909,"zip":"65327","miles_from_dt":16.26},{"city":"Slater","state_name":"Missouri","lat":39.22863,"lng":-93.05581,"zip":"65349","miles_from_dt":17.39},{"city":"Bosworth","state_name":"Missouri","lat":39.47,"lng":-93.33344,"zip":"64623","miles_from_dt":19.18},{"city":"Concordia","state_name":"Missouri","lat":38.96795,"lng":-93.59098,"zip":"64020","miles_from_dt":19.39},{"city":"Houstonia","state_name":"Missouri","lat":38.90687,"lng":-93.30724,"zip":"65333","miles_from_dt":20.16},{"city":"Norborne","state_name":"Missouri","lat":39.35226,"lng":-93.70704,"zip":"64668","miles_from_dt":20.8},{"city":"Higginsville","state_name":"Missouri","lat":39.05116,"lng":-93.73386,"zip":"64037","miles_from_dt":21.58},{"city":"Bogard","state_name":"Missouri","lat":39.49535,"lng":-93.54569,"zip":"64622","miles_from_dt":22.67},{"city":"Nelson","state_name":"Missouri","lat":38.98453,"lng":-93.0495,"zip":"65347","miles_from_dt":22.77},{"city":"Gilliam","state_name":"Missouri","lat":39.22096,"lng":-92.94945,"zip":"65330","miles_from_dt":23.01},{"city":"Triplett","state_name":"Missouri","lat":39.50616,"lng":-93.22059,"zip":"65286","miles_from_dt":23.1},{"city":"Brunswick","state_name":"Missouri","lat":39.44596,"lng":-93.08305,"zip":"65236","miles_from_dt":23.44},{"city":"Dalton","state_name":"Missouri","lat":39.37725,"lng":-93.00059,"zip":"65246","miles_from_dt":23.8},{"city":"Hardin","state_name":"Missouri","lat":39.28796,"lng":-93.81972,"zip":"64035","miles_from_dt":24.63},{"city":"Arrow Rock","state_name":"Missouri","lat":39.06606,"lng":-92.94415,"zip":"65320","miles_from_dt":24.86},{"city":"Lexington","state_name":"Missouri","lat":39.15594,"lng":-93.83747,"zip":"64067","miles_from_dt":24.88},{"city":"Tina","state_name":"Missouri","lat":39.55251,"lng":-93.49132,"zip":"64682","miles_from_dt":25.48},{"city":"Hughesville","state_name":"Missouri","lat":38.8348,"lng":-93.24558,"zip":"65334","miles_from_dt":25.77},{"city":"Stet","state_name":"Missouri","lat":39.42433,"lng":-93.75754,"zip":"64680","miles_from_dt":25.86},{"city":"Mayview","state_name":"Missouri","lat":39.02961,"lng":-93.83379,"zip":"64071","miles_from_dt":27.06},{"city":"Blackwater","state_name":"Missouri","lat":38.9729,"lng":-92.95535,"zip":"65322","miles_from_dt":27.31},{"city":"La Monte","state_name":"Missouri","lat":38.79202,"lng":-93.42573,"zip":"65337","miles_from_dt":27.86},{"city":"Glasgow","state_name":"Missouri","lat":39.21228,"lng":-92.85351,"zip":"65254","miles_from_dt":28.11},{"city":"Hale","state_name":"Missouri","lat":39.61366,"lng":-93.36883,"zip":"64643","miles_from_dt":28.95}],"targetCityZipCode":"65339","targetCityState":"Missouri"},"__N_SSG":true}