{"pageProps":{"stateName":"Missouri","cityName":"pickering","nearbyCities":[{"city":"Hopkins","state_name":"Missouri","lat":40.52459,"lng":-94.81063,"zip":"64461","miles_from_dt":5.17},{"city":"Maryville","state_name":"Missouri","lat":40.34241,"lng":-94.8811,"zip":"64468","miles_from_dt":7.97},{"city":"Clearmont","state_name":"Missouri","lat":40.53046,"lng":-94.99357,"zip":"64431","miles_from_dt":10.19},{"city":"Parnell","state_name":"Missouri","lat":40.43561,"lng":-94.63049,"zip":"64475","miles_from_dt":10.59},{"city":"Ravenwood","state_name":"Missouri","lat":40.34853,"lng":-94.66636,"zip":"64479","miles_from_dt":11.18},{"city":"Sheridan","state_name":"Missouri","lat":40.52951,"lng":-94.61471,"zip":"64486","miles_from_dt":12.58},{"city":"Burlington Junction","state_name":"Missouri","lat":40.4418,"lng":-95.08836,"zip":"64428","miles_from_dt":13.62},{"city":"Braddyville","state_name":"Iowa","lat":40.60267,"lng":-95.00918,"zip":"51631","miles_from_dt":14.07},{"city":"Conception Junction","state_name":"Missouri","lat":40.2584,"lng":-94.73615,"zip":"64434","miles_from_dt":14.2},{"city":"Clyde","state_name":"Missouri","lat":40.26399,"lng":-94.66119,"zip":"64432","miles_from_dt":15.7},{"city":"Bedford","state_name":"Iowa","lat":40.66956,"lng":-94.70309,"zip":"50833","miles_from_dt":16.49},{"city":"Conception","state_name":"Missouri","lat":40.24107,"lng":-94.68053,"zip":"64433","miles_from_dt":16.51},{"city":"Elmo","state_name":"Missouri","lat":40.53533,"lng":-95.13881,"zip":"64445","miles_from_dt":17.26},{"city":"Skidmore","state_name":"Missouri","lat":40.31218,"lng":-95.10293,"zip":"64487","miles_from_dt":17.29},{"city":"Shambaugh","state_name":"Iowa","lat":40.65652,"lng":-95.03473,"zip":"51651","miles_from_dt":17.79},{"city":"Barnard","state_name":"Missouri","lat":40.18695,"lng":-94.8552,"zip":"64423","miles_from_dt":18.28},{"city":"College Springs","state_name":"Iowa","lat":40.62046,"lng":-95.11832,"zip":"51637","miles_from_dt":19.14},{"city":"Gentry","state_name":"Missouri","lat":40.34471,"lng":-94.46947,"zip":"64453","miles_from_dt":20.4},{"city":"Graham","state_name":"Missouri","lat":40.18592,"lng":-95.00594,"zip":"64455","miles_from_dt":20.52},{"city":"New Market","state_name":"Iowa","lat":40.75315,"lng":-94.8725,"zip":"51646","miles_from_dt":20.96},{"city":"Stanberry","state_name":"Missouri","lat":40.23543,"lng":-94.54969,"zip":"64489","miles_from_dt":21},{"city":"Blockton","state_name":"Iowa","lat":40.63116,"lng":-94.49689,"zip":"50836","miles_from_dt":21.5},{"city":"Guilford","state_name":"Missouri","lat":40.15886,"lng":-94.68368,"zip":"64457","miles_from_dt":21.6},{"city":"Blanchard","state_name":"Iowa","lat":40.60101,"lng":-95.19427,"zip":"51630","miles_from_dt":21.77},{"city":"Worth","state_name":"Missouri","lat":40.39707,"lng":-94.41521,"zip":"64499","miles_from_dt":22.21},{"city":"Gravity","state_name":"Iowa","lat":40.78685,"lng":-94.76758,"zip":"50848","miles_from_dt":23.4},{"city":"Clarinda","state_name":"Iowa","lat":40.7478,"lng":-95.04939,"zip":"51632","miles_from_dt":23.49},{"city":"Grant City","state_name":"Missouri","lat":40.49433,"lng":-94.38733,"zip":"64456","miles_from_dt":23.53},{"city":"Bolckow","state_name":"Missouri","lat":40.10828,"lng":-94.84136,"zip":"64427","miles_from_dt":23.66},{"city":"Maitland","state_name":"Missouri","lat":40.16865,"lng":-95.1067,"zip":"64466","miles_from_dt":24.35},{"city":"Yorktown","state_name":"Iowa","lat":40.73527,"lng":-95.15437,"zip":"51656","miles_from_dt":25.98},{"city":"Coin","state_name":"Iowa","lat":40.66713,"lng":-95.23519,"zip":"51636","miles_from_dt":26},{"city":"Westboro","state_name":"Missouri","lat":40.54023,"lng":-95.31255,"zip":"64498","miles_from_dt":26.13},{"city":"Sharpsburg","state_name":"Iowa","lat":40.81304,"lng":-94.65136,"zip":"50862","miles_from_dt":26.68},{"city":"Tarkio","state_name":"Missouri","lat":40.44868,"lng":-95.34499,"zip":"64491","miles_from_dt":27.13},{"city":"Rea","state_name":"Missouri","lat":40.06102,"lng":-94.70826,"zip":"64480","miles_from_dt":27.68},{"city":"Redding","state_name":"Iowa","lat":40.62253,"lng":-94.34949,"zip":"50860","miles_from_dt":27.94},{"city":"Rosendale","state_name":"Missouri","lat":40.04335,"lng":-94.83471,"zip":"64483","miles_from_dt":28.14},{"city":"Mound City","state_name":"Missouri","lat":40.17036,"lng":-95.22138,"zip":"64470","miles_from_dt":28.32},{"city":"Allendale","state_name":"Missouri","lat":40.48645,"lng":-94.2892,"zip":"64420","miles_from_dt":28.62},{"city":"Northboro","state_name":"Iowa","lat":40.60539,"lng":-95.34509,"zip":"51647","miles_from_dt":29.12},{"city":"Fillmore","state_name":"Missouri","lat":40.04135,"lng":-94.97754,"zip":"64449","miles_from_dt":29.33},{"city":"Clearfield","state_name":"Iowa","lat":40.79378,"lng":-94.48413,"zip":"50840","miles_from_dt":29.84},{"city":"Darlington","state_name":"Missouri","lat":40.16106,"lng":-94.41091,"zip":"64438","miles_from_dt":29.86}],"targetCityZipCode":"64476","targetCityState":"Missouri"},"__N_SSG":true}