{"pageProps":{"stateName":"Missouri","cityName":"polo","nearbyCities":[{"city":"Kingston","state_name":"Missouri","lat":39.63716,"lng":-94.0548,"zip":"64650","miles_from_dt":6.94},{"city":"Cowgill","state_name":"Missouri","lat":39.57439,"lng":-93.91573,"zip":"64637","miles_from_dt":7.72},{"city":"Lawson","state_name":"Missouri","lat":39.45533,"lng":-94.17244,"zip":"64062","miles_from_dt":8.54},{"city":"Rayville","state_name":"Missouri","lat":39.38697,"lng":-94.0653,"zip":"64084","miles_from_dt":10.34},{"city":"Lathrop","state_name":"Missouri","lat":39.54853,"lng":-94.29525,"zip":"64465","miles_from_dt":13.03},{"city":"Braymer","state_name":"Missouri","lat":39.57189,"lng":-93.7848,"zip":"64624","miles_from_dt":14.47},{"city":"Richmond","state_name":"Missouri","lat":39.33838,"lng":-93.95158,"zip":"64085","miles_from_dt":14.68},{"city":"Hamilton","state_name":"Missouri","lat":39.7418,"lng":-93.97384,"zip":"64644","miles_from_dt":14.76},{"city":"Turney","state_name":"Missouri","lat":39.63058,"lng":-94.30454,"zip":"64493","miles_from_dt":14.97},{"city":"Kidder","state_name":"Missouri","lat":39.77428,"lng":-94.09183,"zip":"64649","miles_from_dt":16.54},{"city":"Cameron","state_name":"Missouri","lat":39.73895,"lng":-94.2285,"zip":"64429","miles_from_dt":16.85},{"city":"Excelsior Springs","state_name":"Missouri","lat":39.32523,"lng":-94.22707,"zip":"64024","miles_from_dt":17.33},{"city":"Stet","state_name":"Missouri","lat":39.42433,"lng":-93.75754,"zip":"64680","miles_from_dt":17.53},{"city":"Holt","state_name":"Missouri","lat":39.44439,"lng":-94.3634,"zip":"64048","miles_from_dt":17.83},{"city":"Breckenridge","state_name":"Missouri","lat":39.74378,"lng":-93.80527,"zip":"64625","miles_from_dt":19.42},{"city":"Mosby","state_name":"Missouri","lat":39.31391,"lng":-94.29154,"zip":"64073","miles_from_dt":20.01},{"city":"Kearney","state_name":"Missouri","lat":39.37134,"lng":-94.36821,"zip":"64060","miles_from_dt":20.4},{"city":"Hardin","state_name":"Missouri","lat":39.28796,"lng":-93.81972,"zip":"64035","miles_from_dt":21.17},{"city":"Ludlow","state_name":"Missouri","lat":39.67803,"lng":-93.69375,"zip":"64656","miles_from_dt":21.46},{"city":"Plattsburg","state_name":"Missouri","lat":39.57872,"lng":-94.45289,"zip":"64477","miles_from_dt":21.62},{"city":"Orrick","state_name":"Missouri","lat":39.2224,"lng":-94.13887,"zip":"64077","miles_from_dt":22.17},{"city":"Norborne","state_name":"Missouri","lat":39.35226,"lng":-93.70704,"zip":"64668","miles_from_dt":22.4},{"city":"Osborn","state_name":"Missouri","lat":39.75829,"lng":-94.38103,"zip":"64474","miles_from_dt":23.29},{"city":"Camden","state_name":"Missouri","lat":39.199,"lng":-94.02951,"zip":"64017","miles_from_dt":23.32},{"city":"Winston","state_name":"Missouri","lat":39.87461,"lng":-94.152,"zip":"64689","miles_from_dt":23.93},{"city":"Henrietta","state_name":"Missouri","lat":39.20047,"lng":-93.937,"zip":"64036","miles_from_dt":23.99},{"city":"Dawn","state_name":"Missouri","lat":39.61894,"lng":-93.61498,"zip":"64638","miles_from_dt":24},{"city":"Missouri City","state_name":"Missouri","lat":39.23286,"lng":-94.30021,"zip":"64072","miles_from_dt":24.81},{"city":"Altamont","state_name":"Missouri","lat":39.89617,"lng":-94.09094,"zip":"64620","miles_from_dt":24.9},{"city":"Mooresville","state_name":"Missouri","lat":39.74601,"lng":-93.66027,"zip":"64664","miles_from_dt":25.4},{"city":"Gallatin","state_name":"Missouri","lat":39.90172,"lng":-93.94542,"zip":"64640","miles_from_dt":25.82},{"city":"Trimble","state_name":"Missouri","lat":39.48067,"lng":-94.53363,"zip":"64492","miles_from_dt":26.04},{"city":"Lock Springs","state_name":"Missouri","lat":39.84864,"lng":-93.77552,"zip":"64654","miles_from_dt":26.08},{"city":"Liberty","state_name":"Missouri","lat":39.25924,"lng":-94.39042,"zip":"64068","miles_from_dt":26.35},{"city":"Sibley","state_name":"Missouri","lat":39.16173,"lng":-94.1848,"zip":"64088","miles_from_dt":26.82},{"city":"Utica","state_name":"Missouri","lat":39.75005,"lng":-93.62449,"zip":"64686","miles_from_dt":27.14},{"city":"Bogard","state_name":"Missouri","lat":39.49535,"lng":-93.54569,"zip":"64622","miles_from_dt":27.19},{"city":"Kansas City","state_name":"Missouri","lat":39.31939,"lng":-94.48187,"zip":"64167","miles_from_dt":27.46},{"city":"Levasy","state_name":"Missouri","lat":39.13961,"lng":-94.13857,"zip":"64066","miles_from_dt":27.77},{"city":"Stewartsville","state_name":"Missouri","lat":39.73837,"lng":-94.50984,"zip":"64490","miles_from_dt":28.12},{"city":"Liberty","state_name":"Missouri","lat":39.24178,"lng":-94.41722,"zip":"64069","miles_from_dt":28.22},{"city":"Independence","state_name":"Missouri","lat":39.17805,"lng":-94.31408,"zip":"64058","miles_from_dt":28.44},{"city":"Weatherby","state_name":"Missouri","lat":39.92929,"lng":-94.22275,"zip":"64497","miles_from_dt":28.58},{"city":"Lexington","state_name":"Missouri","lat":39.15594,"lng":-93.83747,"zip":"64067","miles_from_dt":28.66},{"city":"Kansas City","state_name":"Missouri","lat":39.27657,"lng":-94.47103,"zip":"64157","miles_from_dt":28.72},{"city":"Kansas City","state_name":"Missouri","lat":39.32215,"lng":-94.52301,"zip":"64166","miles_from_dt":29.23},{"city":"Smithville","state_name":"Missouri","lat":39.39007,"lng":-94.56483,"zip":"64089","miles_from_dt":29.24},{"city":"Gower","state_name":"Missouri","lat":39.60771,"lng":-94.59423,"zip":"64454","miles_from_dt":29.37},{"city":"Wellington","state_name":"Missouri","lat":39.11237,"lng":-93.99146,"zip":"64097","miles_from_dt":29.44},{"city":"Tina","state_name":"Missouri","lat":39.55251,"lng":-93.49132,"zip":"64682","miles_from_dt":29.96}],"targetCityZipCode":"64671","targetCityState":"Missouri"},"__N_SSG":true}