{"pageProps":{"stateName":"Missouri","cityName":"seymour","nearbyCities":[{"city":"Diggins","state_name":"Missouri","lat":37.17254,"lng":-92.85314,"zip":"65636","miles_from_dt":4.46},{"city":"Fordland","state_name":"Missouri","lat":37.14264,"lng":-92.94642,"zip":"65652","miles_from_dt":9.11},{"city":"Mansfield","state_name":"Missouri","lat":37.12657,"lng":-92.58323,"zip":"65704","miles_from_dt":11},{"city":"Bruner","state_name":"Missouri","lat":37.02045,"lng":-92.95594,"zip":"65620","miles_from_dt":12.81},{"city":"Marshfield","state_name":"Missouri","lat":37.3224,"lng":-92.89421,"zip":"65706","miles_from_dt":13.86},{"city":"Oldfield","state_name":"Missouri","lat":36.95513,"lng":-92.95998,"zip":"65720","miles_from_dt":16.27},{"city":"Rogersville","state_name":"Missouri","lat":37.12543,"lng":-93.08001,"zip":"65742","miles_from_dt":16.53},{"city":"Lead Hill","state_name":"Missouri","lat":36.93429,"lng":-92.94468,"zip":"72643","miles_from_dt":16.97},{"city":"Macomb","state_name":"Missouri","lat":37.05726,"lng":-92.488,"zip":"65702","miles_from_dt":17.25},{"city":"Ava","state_name":"Missouri","lat":36.90456,"lng":-92.66662,"zip":"65608","miles_from_dt":17.61},{"city":"Niangua","state_name":"Missouri","lat":37.40403,"lng":-92.73971,"zip":"65713","miles_from_dt":18.16},{"city":"Sparta","state_name":"Missouri","lat":36.9955,"lng":-93.05386,"zip":"65753","miles_from_dt":18.16},{"city":"Hartville","state_name":"Missouri","lat":37.30574,"lng":-92.51435,"zip":"65667","miles_from_dt":18.53},{"city":"Strafford","state_name":"Missouri","lat":37.2838,"lng":-93.09861,"zip":"65757","miles_from_dt":20.01},{"city":"Turners","state_name":"Missouri","lat":37.18152,"lng":-93.15721,"zip":"65765","miles_from_dt":20.91},{"city":"Norwood","state_name":"Missouri","lat":37.06017,"lng":-92.41472,"zip":"65717","miles_from_dt":21.04},{"city":"Chadwick","state_name":"Missouri","lat":36.89371,"lng":-93.00294,"zip":"65629","miles_from_dt":21.1},{"city":"Springfield","state_name":"Missouri","lat":37.17071,"lng":-93.1936,"zip":"65809","miles_from_dt":22.83},{"city":"Grovespring","state_name":"Missouri","lat":37.43421,"lng":-92.5698,"zip":"65662","miles_from_dt":23.24},{"city":"Conway","state_name":"Missouri","lat":37.49961,"lng":-92.81612,"zip":"65632","miles_from_dt":24.68},{"city":"Garrison","state_name":"Missouri","lat":36.83934,"lng":-93.01952,"zip":"65657","miles_from_dt":24.72},{"city":"Squires","state_name":"Missouri","lat":36.7996,"lng":-92.62858,"zip":"65755","miles_from_dt":25.13},{"city":"Springfield","state_name":"Missouri","lat":37.15035,"lng":-93.24842,"zip":"65899","miles_from_dt":25.78},{"city":"Springfield","state_name":"Missouri","lat":37.14822,"lng":-93.25294,"zip":"65804","miles_from_dt":26.03},{"city":"Ozark","state_name":"Missouri","lat":36.9805,"lng":-93.21045,"zip":"65721","miles_from_dt":26.22},{"city":"Springfield","state_name":"Missouri","lat":37.18979,"lng":-93.26234,"zip":"65808","miles_from_dt":26.74},{"city":"Fair Grove","state_name":"Missouri","lat":37.40297,"lng":-93.15402,"zip":"65648","miles_from_dt":27.27},{"city":"Springfield","state_name":"Missouri","lat":37.19985,"lng":-93.28055,"zip":"65897","miles_from_dt":27.82},{"city":"Mountain Grove","state_name":"Missouri","lat":37.17355,"lng":-92.27747,"zip":"65711","miles_from_dt":27.9},{"city":"Bradleyville","state_name":"Missouri","lat":36.73739,"lng":-92.88684,"zip":"65614","miles_from_dt":28.56},{"city":"Springfield","state_name":"Missouri","lat":37.21338,"lng":-93.2922,"zip":"65898","miles_from_dt":28.6},{"city":"Springfield","state_name":"Missouri","lat":37.21421,"lng":-93.29521,"zip":"65801","miles_from_dt":28.77},{"city":"Springfield","state_name":"Missouri","lat":37.20567,"lng":-93.29847,"zip":"65806","miles_from_dt":28.86},{"city":"Elkland","state_name":"Missouri","lat":37.50999,"lng":-93.03625,"zip":"65644","miles_from_dt":28.95},{"city":"Springfield","state_name":"Missouri","lat":37.21684,"lng":-93.30002,"zip":"65814","miles_from_dt":29.07},{"city":"Springfield","state_name":"Missouri","lat":37.1174,"lng":-93.31707,"zip":"65810","miles_from_dt":29.63},{"city":"Springfield","state_name":"Missouri","lat":37.28464,"lng":-93.29036,"zip":"65803","miles_from_dt":29.72},{"city":"Taneyville","state_name":"Missouri","lat":36.75762,"lng":-93.03167,"zip":"65759","miles_from_dt":29.95}],"targetCityZipCode":"65746","targetCityState":"Missouri"},"__N_SSG":true}