{"pageProps":{"stateName":"Missouri","cityName":"thornfield","nearbyCities":[{"city":"Noble","state_name":"Missouri","lat":36.73192,"lng":-92.57631,"zip":"65715","miles_from_dt":5.45},{"city":"Isabella","state_name":"Missouri","lat":36.58187,"lng":-92.60531,"zip":"65676","miles_from_dt":7.73},{"city":"Squires","state_name":"Missouri","lat":36.7996,"lng":-92.62858,"zip":"65755","miles_from_dt":7.97},{"city":"Theodosia","state_name":"Missouri","lat":36.56974,"lng":-92.72561,"zip":"65761","miles_from_dt":8.9},{"city":"Wasola","state_name":"Missouri","lat":36.75551,"lng":-92.51332,"zip":"65773","miles_from_dt":9.27},{"city":"Pontiac","state_name":"Missouri","lat":36.53842,"lng":-92.55661,"zip":"65729","miles_from_dt":11.6},{"city":"Bradleyville","state_name":"Missouri","lat":36.73739,"lng":-92.88684,"zip":"65614","miles_from_dt":13.28},{"city":"Rueter","state_name":"Missouri","lat":36.62449,"lng":-92.89337,"zip":"65744","miles_from_dt":13.84},{"city":"Gainesville","state_name":"Missouri","lat":36.60262,"lng":-92.42379,"zip":"65655","miles_from_dt":14.15},{"city":"Ava","state_name":"Missouri","lat":36.90456,"lng":-92.66662,"zip":"65608","miles_from_dt":15.07},{"city":"Protem","state_name":"Missouri","lat":36.53157,"lng":-92.85077,"zip":"65733","miles_from_dt":15.18},{"city":"Brixey","state_name":"Missouri","lat":36.75157,"lng":-92.38641,"zip":"65618","miles_from_dt":15.65},{"city":"Rockbridge","state_name":"Missouri","lat":36.79545,"lng":-92.40127,"zip":"65741","miles_from_dt":16.04},{"city":"Oakland","state_name":"Arkansas","lat":36.45195,"lng":-92.58963,"zip":"72661","miles_from_dt":16.57},{"city":"Hardenville","state_name":"Missouri","lat":36.57829,"lng":-92.36065,"zip":"65666","miles_from_dt":18.04},{"city":"Kissee Mills","state_name":"Missouri","lat":36.64518,"lng":-92.98551,"zip":"65680","miles_from_dt":18.5},{"city":"Zanoni","state_name":"Missouri","lat":36.72588,"lng":-92.31538,"zip":"65784","miles_from_dt":19.13},{"city":"Peel","state_name":"Arkansas","lat":36.41914,"lng":-92.77163,"zip":"72668","miles_from_dt":19.5},{"city":"Cedarcreek","state_name":"Missouri","lat":36.56247,"lng":-93.00613,"zip":"65627","miles_from_dt":21.23},{"city":"Drury","state_name":"Missouri","lat":36.84319,"lng":-92.32418,"zip":"65638","miles_from_dt":21.37},{"city":"Tecumseh","state_name":"Missouri","lat":36.62236,"lng":-92.27943,"zip":"65760","miles_from_dt":21.4},{"city":"Taneyville","state_name":"Missouri","lat":36.75762,"lng":-93.03167,"zip":"65759","miles_from_dt":21.41},{"city":"Diamond City","state_name":"Arkansas","lat":36.45856,"lng":-92.92032,"zip":"72630","miles_from_dt":21.49},{"city":"Bull Shoals","state_name":"Arkansas","lat":36.3781,"lng":-92.58517,"zip":"72619","miles_from_dt":21.61},{"city":"Lakeview","state_name":"Arkansas","lat":36.37013,"lng":-92.54347,"zip":"72642","miles_from_dt":22.68},{"city":"Garrison","state_name":"Missouri","lat":36.83934,"lng":-93.01952,"zip":"65657","miles_from_dt":22.75},{"city":"Midway","state_name":"Arkansas","lat":36.388,"lng":-92.47661,"zip":"72651","miles_from_dt":22.86},{"city":"Lead Hill","state_name":"Missouri","lat":36.93429,"lng":-92.94468,"zip":"72643","miles_from_dt":23.42},{"city":"Chadwick","state_name":"Missouri","lat":36.89371,"lng":-93.00294,"zip":"65629","miles_from_dt":23.97},{"city":"Udall","state_name":"Missouri","lat":36.53933,"lng":-92.25948,"zip":"65766","miles_from_dt":24.27},{"city":"Clarkridge","state_name":"Arkansas","lat":36.46386,"lng":-92.3172,"zip":"72623","miles_from_dt":24.3},{"city":"Lead Hill","state_name":"Arkansas","lat":36.42477,"lng":-92.96673,"zip":"72644","miles_from_dt":24.96},{"city":"Oldfield","state_name":"Missouri","lat":36.95513,"lng":-92.95998,"zip":"65720","miles_from_dt":25.05},{"city":"Dora","state_name":"Missouri","lat":36.76964,"lng":-92.20371,"zip":"65637","miles_from_dt":25.78},{"city":"Powersite","state_name":"Missouri","lat":36.65458,"lng":-93.12222,"zip":"65731","miles_from_dt":25.97},{"city":"Kirbyville","state_name":"Missouri","lat":36.57738,"lng":-93.10407,"zip":"65679","miles_from_dt":25.99},{"city":"Forsyth","state_name":"Missouri","lat":36.78118,"lng":-93.11631,"zip":"65653","miles_from_dt":26.36},{"city":"Vanzant","state_name":"Missouri","lat":36.92072,"lng":-92.26456,"zip":"65768","miles_from_dt":27.09},{"city":"Cotter","state_name":"Arkansas","lat":36.30451,"lng":-92.53994,"zip":"72626","miles_from_dt":27.1},{"city":"Gassville","state_name":"Arkansas","lat":36.31637,"lng":-92.48484,"zip":"72635","miles_from_dt":27.22},{"city":"Macomb","state_name":"Missouri","lat":37.05726,"lng":-92.488,"zip":"65702","miles_from_dt":27.24},{"city":"Mountain Home","state_name":"Arkansas","lat":36.34292,"lng":-92.38603,"zip":"72653","miles_from_dt":28.04},{"city":"Rockaway Beach","state_name":"Missouri","lat":36.71288,"lng":-93.16169,"zip":"65740","miles_from_dt":28.12},{"city":"Bruner","state_name":"Missouri","lat":37.02045,"lng":-92.95594,"zip":"65620","miles_from_dt":28.41},{"city":"Mountain Home","state_name":"Arkansas","lat":36.33653,"lng":-92.38453,"zip":"72654","miles_from_dt":28.46},{"city":"Gamaliel","state_name":"Arkansas","lat":36.45018,"lng":-92.23371,"zip":"72537","miles_from_dt":28.59},{"city":"Norwood","state_name":"Missouri","lat":37.06017,"lng":-92.41472,"zip":"65717","miles_from_dt":29.06},{"city":"Summit","state_name":"Arkansas","lat":36.26442,"lng":-92.70074,"zip":"72677","miles_from_dt":29.18},{"city":"Bakersfield","state_name":"Missouri","lat":36.52593,"lng":-92.1609,"zip":"65609","miles_from_dt":29.68},{"city":"Yellville","state_name":"Arkansas","lat":36.25628,"lng":-92.68679,"zip":"72687","miles_from_dt":29.69},{"city":"Pyatt","state_name":"Arkansas","lat":36.27725,"lng":-92.83685,"zip":"72672","miles_from_dt":29.93}],"targetCityZipCode":"65762","targetCityState":"Missouri"},"__N_SSG":true}