{"pageProps":{"stateName":"Missouri","cityName":"wooldridge","nearbyCities":[{"city":"Prairie Home","state_name":"Missouri","lat":38.82757,"lng":-92.59909,"zip":"65068","miles_from_dt":5.81},{"city":"Columbia","state_name":"Missouri","lat":38.89497,"lng":-92.39928,"zip":"65203","miles_from_dt":6.52},{"city":"Jamestown","state_name":"Missouri","lat":38.77658,"lng":-92.47889,"zip":"65046","miles_from_dt":7.76},{"city":"Rocheport","state_name":"Missouri","lat":39.01284,"lng":-92.52062,"zip":"65279","miles_from_dt":8.86},{"city":"Columbia","state_name":"Missouri","lat":38.9526,"lng":-92.3665,"zip":"65218","miles_from_dt":9.49},{"city":"Columbia","state_name":"Missouri","lat":38.89798,"lng":-92.33364,"zip":"65217","miles_from_dt":10.06},{"city":"Boonville","state_name":"Missouri","lat":38.91528,"lng":-92.72035,"zip":"65233","miles_from_dt":11.03},{"city":"Columbia","state_name":"Missouri","lat":38.94823,"lng":-92.32734,"zip":"65211","miles_from_dt":11.25},{"city":"Columbia","state_name":"Missouri","lat":38.95818,"lng":-92.32629,"zip":"65216","miles_from_dt":11.59},{"city":"Columbia","state_name":"Missouri","lat":38.95171,"lng":-92.32043,"zip":"65215","miles_from_dt":11.69},{"city":"New Franklin","state_name":"Missouri","lat":39.01342,"lng":-92.68321,"zip":"65274","miles_from_dt":12.53},{"city":"Columbia","state_name":"Missouri","lat":38.90942,"lng":-92.24704,"zip":"65212","miles_from_dt":14.79},{"city":"Columbia","state_name":"Missouri","lat":38.89595,"lng":-92.24365,"zip":"65201","miles_from_dt":14.89},{"city":"Columbia","state_name":"Missouri","lat":39.01721,"lng":-92.29822,"zip":"65202","miles_from_dt":15.03},{"city":"Bunceton","state_name":"Missouri","lat":38.78078,"lng":-92.78438,"zip":"65237","miles_from_dt":15.98},{"city":"Ashland","state_name":"Missouri","lat":38.78757,"lng":-92.24301,"zip":"65010","miles_from_dt":16.35},{"city":"Hartsburg","state_name":"Missouri","lat":38.71388,"lng":-92.2984,"zip":"65039","miles_from_dt":16.76},{"city":"Harrisburg","state_name":"Missouri","lat":39.12713,"lng":-92.45568,"zip":"65256","miles_from_dt":17.09},{"city":"Centertown","state_name":"Missouri","lat":38.65274,"lng":-92.39915,"zip":"65023","miles_from_dt":17.25},{"city":"Clarksburg","state_name":"Missouri","lat":38.66618,"lng":-92.68119,"zip":"65025","miles_from_dt":17.4},{"city":"Columbia","state_name":"Missouri","lat":39.02356,"lng":-92.24822,"zip":"65299","miles_from_dt":17.48},{"city":"McGirk","state_name":"Missouri","lat":38.62766,"lng":-92.5661,"zip":"65055","miles_from_dt":17.89},{"city":"California","state_name":"Missouri","lat":38.62038,"lng":-92.56314,"zip":"65018","miles_from_dt":18.37},{"city":"Columbia","state_name":"Missouri","lat":39.04927,"lng":-92.24047,"zip":"65205","miles_from_dt":18.85},{"city":"Fayette","state_name":"Missouri","lat":39.13952,"lng":-92.65894,"zip":"65248","miles_from_dt":19.13},{"city":"Franklin","state_name":"Missouri","lat":39.03524,"lng":-92.83991,"zip":"65250","miles_from_dt":20.15},{"city":"Hallsville","state_name":"Missouri","lat":39.09632,"lng":-92.23463,"zip":"65255","miles_from_dt":21.19},{"city":"Tipton","state_name":"Missouri","lat":38.64086,"lng":-92.78424,"zip":"65081","miles_from_dt":22.06},{"city":"Pilot Grove","state_name":"Missouri","lat":38.84581,"lng":-92.95498,"zip":"65276","miles_from_dt":23.63},{"city":"Blackwater","state_name":"Missouri","lat":38.9729,"lng":-92.95535,"zip":"65322","miles_from_dt":24.26},{"city":"Sturgeon","state_name":"Missouri","lat":39.19658,"lng":-92.30361,"zip":"65284","miles_from_dt":24.47},{"city":"Lohman","state_name":"Missouri","lat":38.54132,"lng":-92.36966,"zip":"65053","miles_from_dt":25.01},{"city":"Jefferson City","state_name":"Missouri","lat":38.57365,"lng":-92.27791,"zip":"65109","miles_from_dt":25.1},{"city":"Syracuse","state_name":"Missouri","lat":38.64841,"lng":-92.88786,"zip":"65354","miles_from_dt":25.7},{"city":"New Bloomfield","state_name":"Missouri","lat":38.72635,"lng":-92.08743,"zip":"65063","miles_from_dt":25.75},{"city":"Latham","state_name":"Missouri","lat":38.5305,"lng":-92.68867,"zip":"65050","miles_from_dt":26.07},{"city":"Arrow Rock","state_name":"Missouri","lat":39.06606,"lng":-92.94415,"zip":"65320","miles_from_dt":26.07},{"city":"Higbee","state_name":"Missouri","lat":39.28404,"lng":-92.53112,"zip":"65257","miles_from_dt":27.57},{"city":"Otterville","state_name":"Missouri","lat":38.70963,"lng":-92.98344,"zip":"65348","miles_from_dt":27.79},{"city":"Fortuna","state_name":"Missouri","lat":38.55637,"lng":-92.82183,"zip":"65034","miles_from_dt":27.91},{"city":"Russellville","state_name":"Missouri","lat":38.47967,"lng":-92.47306,"zip":"65074","miles_from_dt":28.03},{"city":"Jefferson City","state_name":"Missouri","lat":38.57873,"lng":-92.17409,"zip":"65103","miles_from_dt":28.16},{"city":"Jefferson City","state_name":"Missouri","lat":38.57868,"lng":-92.1737,"zip":"65107","miles_from_dt":28.18},{"city":"Jefferson City","state_name":"Missouri","lat":38.57801,"lng":-92.17436,"zip":"65106","miles_from_dt":28.19},{"city":"Jefferson City","state_name":"Missouri","lat":38.57691,"lng":-92.17549,"zip":"65110","miles_from_dt":28.2},{"city":"Jefferson City","state_name":"Missouri","lat":38.57741,"lng":-92.17418,"zip":"65105","miles_from_dt":28.23},{"city":"Jefferson City","state_name":"Missouri","lat":38.57948,"lng":-92.17092,"zip":"65102","miles_from_dt":28.24},{"city":"Jefferson City","state_name":"Missouri","lat":38.57507,"lng":-92.17364,"zip":"65104","miles_from_dt":28.37},{"city":"High Point","state_name":"Missouri","lat":38.47859,"lng":-92.6061,"zip":"65042","miles_from_dt":28.38},{"city":"Jefferson City","state_name":"Missouri","lat":38.57398,"lng":-92.17168,"zip":"65108","miles_from_dt":28.49},{"city":"Clark","state_name":"Missouri","lat":39.27654,"lng":-92.35207,"zip":"65243","miles_from_dt":28.51},{"city":"Holts Summit","state_name":"Missouri","lat":38.62563,"lng":-92.10774,"zip":"65043","miles_from_dt":28.52},{"city":"Glasgow","state_name":"Missouri","lat":39.21228,"lng":-92.85351,"zip":"65254","miles_from_dt":28.88},{"city":"Fulton","state_name":"Missouri","lat":38.84902,"lng":-91.97911,"zip":"65251","miles_from_dt":29.25},{"city":"Armstrong","state_name":"Missouri","lat":39.28715,"lng":-92.69218,"zip":"65230","miles_from_dt":29.29},{"city":"Nelson","state_name":"Missouri","lat":38.98453,"lng":-93.0495,"zip":"65347","miles_from_dt":29.38}],"targetCityZipCode":"65287","targetCityState":"Missouri"},"__N_SSG":true}