{"pageProps":{"stateName":"Missouri","cityName":"zalma","nearbyCities":[{"city":"Gipsy","state_name":"Missouri","lat":37.1508,"lng":-90.16917,"zip":"63750","miles_from_dt":3.21},{"city":"Sturdivant","state_name":"Missouri","lat":37.11369,"lng":-90.02788,"zip":"63782","miles_from_dt":5.27},{"city":"McGee","state_name":"Missouri","lat":37.05885,"lng":-90.18058,"zip":"63763","miles_from_dt":5.45},{"city":"Lowndes","state_name":"Missouri","lat":37.10875,"lng":-90.26055,"zip":"63951","miles_from_dt":7.68},{"city":"Brownwood","state_name":"Missouri","lat":37.08936,"lng":-89.95729,"zip":"63738","miles_from_dt":9.42},{"city":"Glenallen","state_name":"Missouri","lat":37.2742,"lng":-90.12404,"zip":"63751","miles_from_dt":10.44},{"city":"Puxico","state_name":"Missouri","lat":36.96074,"lng":-90.12434,"zip":"63960","miles_from_dt":11.18},{"city":"Advance","state_name":"Missouri","lat":37.09496,"lng":-89.91841,"zip":"63730","miles_from_dt":11.44},{"city":"Wappapello","state_name":"Missouri","lat":36.96956,"lng":-90.26216,"zip":"63966","miles_from_dt":13.08},{"city":"Greenville","state_name":"Missouri","lat":37.10876,"lng":-90.36286,"zip":"63944","miles_from_dt":13.3},{"city":"Cascade","state_name":"Missouri","lat":37.3,"lng":-90.26832,"zip":"63632","miles_from_dt":14.62},{"city":"Clubb","state_name":"Missouri","lat":37.20014,"lng":-90.37254,"zip":"63934","miles_from_dt":14.79},{"city":"Leopold","state_name":"Missouri","lat":37.25084,"lng":-89.90374,"zip":"63760","miles_from_dt":14.96},{"city":"Marble Hill","state_name":"Missouri","lat":37.32944,"lng":-89.9837,"zip":"63764","miles_from_dt":16.18},{"city":"Bloomfield","state_name":"Missouri","lat":36.93033,"lng":-89.94432,"zip":"63825","miles_from_dt":16.54},{"city":"Silva","state_name":"Missouri","lat":37.23954,"lng":-90.39662,"zip":"63964","miles_from_dt":17.13},{"city":"Marquand","state_name":"Missouri","lat":37.39312,"lng":-90.20552,"zip":"63655","miles_from_dt":19.19},{"city":"Perkins","state_name":"Missouri","lat":37.09424,"lng":-89.77469,"zip":"63774","miles_from_dt":19.32},{"city":"Whitewater","state_name":"Missouri","lat":37.26336,"lng":-89.81554,"zip":"63785","miles_from_dt":19.52},{"city":"Lodi","state_name":"Missouri","lat":37.26924,"lng":-90.43474,"zip":"63950","miles_from_dt":19.96},{"city":"Rombauer","state_name":"Missouri","lat":36.84406,"lng":-90.28149,"zip":"63962","miles_from_dt":21.14},{"city":"Bell City","state_name":"Missouri","lat":36.98015,"lng":-89.78139,"zip":"63735","miles_from_dt":21.27},{"city":"Dudley","state_name":"Missouri","lat":36.80731,"lng":-90.12979,"zip":"63936","miles_from_dt":21.76},{"city":"Patterson","state_name":"Missouri","lat":37.21741,"lng":-90.51665,"zip":"63956","miles_from_dt":22.7},{"city":"Delta","state_name":"Missouri","lat":37.19331,"lng":-89.71831,"zip":"63744","miles_from_dt":22.84},{"city":"Oran","state_name":"Missouri","lat":37.07431,"lng":-89.71299,"zip":"63771","miles_from_dt":22.87},{"city":"Williamsville","state_name":"Missouri","lat":36.94867,"lng":-90.47721,"zip":"63967","miles_from_dt":22.99},{"city":"Burfordville","state_name":"Missouri","lat":37.35686,"lng":-89.80216,"zip":"63739","miles_from_dt":23.93},{"city":"Chaffee","state_name":"Missouri","lat":37.17564,"lng":-89.68557,"zip":"63740","miles_from_dt":24.4},{"city":"Fisk","state_name":"Missouri","lat":36.77218,"lng":-90.22892,"zip":"63940","miles_from_dt":24.89},{"city":"Vanduser","state_name":"Missouri","lat":36.99497,"lng":-89.69601,"zip":"63784","miles_from_dt":25.17},{"city":"Dexter","state_name":"Missouri","lat":36.77198,"lng":-89.98169,"zip":"63841","miles_from_dt":25.42},{"city":"Millersville","state_name":"Missouri","lat":37.43558,"lng":-89.84424,"zip":"63766","miles_from_dt":26.47},{"city":"Dutchtown","state_name":"Missouri","lat":37.25596,"lng":-89.65946,"zip":"63745","miles_from_dt":27.15},{"city":"Essex","state_name":"Missouri","lat":36.82229,"lng":-89.80199,"zip":"63846","miles_from_dt":27.28},{"city":"Des Arc","state_name":"Missouri","lat":37.29542,"lng":-90.57549,"zip":"63636","miles_from_dt":27.67},{"city":"Gordonville","state_name":"Missouri","lat":37.31394,"lng":-89.67871,"zip":"63752","miles_from_dt":27.8},{"city":"Grayridge","state_name":"Missouri","lat":36.82227,"lng":-89.78214,"zip":"63850","miles_from_dt":28.01},{"city":"Morley","state_name":"Missouri","lat":37.04356,"lng":-89.61038,"zip":"63767","miles_from_dt":28.82},{"city":"Patton","state_name":"Missouri","lat":37.53782,"lng":-90.05321,"zip":"63662","miles_from_dt":28.87},{"city":"Poplar Bluff","state_name":"Missouri","lat":36.7556,"lng":-90.3952,"zip":"63902","miles_from_dt":29.48}],"targetCityZipCode":"63787","targetCityState":"Missouri"},"__N_SSG":true}