{"pageProps":{"stateName":"Maine","cityName":"coopers-mills","nearbyCities":[{"city":"Windsor","state_name":"Maine","lat":44.31101,"lng":-69.57807,"zip":"04363","miles_from_dt":3.71},{"city":"Jefferson","state_name":"Maine","lat":44.21521,"lng":-69.49922,"zip":"04348","miles_from_dt":4.14},{"city":"Whitefield","state_name":"Maine","lat":44.2052,"lng":-69.6126,"zip":"04353","miles_from_dt":4.75},{"city":"Washington","state_name":"Maine","lat":44.2734,"lng":-69.39105,"zip":"04574","miles_from_dt":8.18},{"city":"Randolph","state_name":"Maine","lat":44.23469,"lng":-69.75068,"zip":"04346","miles_from_dt":9.87},{"city":"Augusta","state_name":"Maine","lat":44.3348,"lng":-69.74285,"zip":"04336","miles_from_dt":10.66},{"city":"Augusta","state_name":"Maine","lat":44.33536,"lng":-69.74456,"zip":"04332","miles_from_dt":10.75},{"city":"South China","state_name":"Maine","lat":44.41821,"lng":-69.53286,"zip":"04358","miles_from_dt":10.98},{"city":"Nobleboro","state_name":"Maine","lat":44.10597,"lng":-69.47687,"zip":"04555","miles_from_dt":11.32},{"city":"Palermo","state_name":"Maine","lat":44.39602,"lng":-69.42709,"zip":"04354","miles_from_dt":11.33},{"city":"Augusta","state_name":"Maine","lat":44.36387,"lng":-69.73729,"zip":"04330","miles_from_dt":11.54},{"city":"South Gardiner","state_name":"Maine","lat":44.17947,"lng":-69.76134,"zip":"04359","miles_from_dt":11.66},{"city":"Augusta","state_name":"Maine","lat":44.31971,"lng":-69.77657,"zip":"04338","miles_from_dt":11.74},{"city":"Augusta","state_name":"Maine","lat":44.30952,"lng":-69.78352,"zip":"04333","miles_from_dt":11.85},{"city":"Gardiner","state_name":"Maine","lat":44.19816,"lng":-69.7841,"zip":"04345","miles_from_dt":12.16},{"city":"Alna","state_name":"Maine","lat":44.08778,"lng":-69.63436,"zip":"04535","miles_from_dt":12.53},{"city":"Vassalboro","state_name":"Maine","lat":44.4299,"lng":-69.64784,"zip":"04989","miles_from_dt":12.61},{"city":"Liberty","state_name":"Maine","lat":44.36712,"lng":-69.34029,"zip":"04949","miles_from_dt":12.96},{"city":"Hallowell","state_name":"Maine","lat":44.29047,"lng":-69.81399,"zip":"04347","miles_from_dt":13.03},{"city":"Farmingdale","state_name":"Maine","lat":44.2588,"lng":-69.82125,"zip":"04344","miles_from_dt":13.22},{"city":"East Vassalboro","state_name":"Maine","lat":44.44977,"lng":-69.60836,"zip":"04935","miles_from_dt":13.37},{"city":"Union","state_name":"Maine","lat":44.26186,"lng":-69.27703,"zip":"04862","miles_from_dt":13.79},{"city":"Waldoboro","state_name":"Maine","lat":44.10984,"lng":-69.36956,"zip":"04572","miles_from_dt":13.86},{"city":"Newcastle","state_name":"Maine","lat":44.04787,"lng":-69.57145,"zip":"04553","miles_from_dt":14.67},{"city":"North Vassalboro","state_name":"Maine","lat":44.4757,"lng":-69.62456,"zip":"04962","miles_from_dt":15.29},{"city":"China Village","state_name":"Maine","lat":44.48035,"lng":-69.51521,"zip":"04926","miles_from_dt":15.34},{"city":"Dresden","state_name":"Maine","lat":44.07942,"lng":-69.73939,"zip":"04342","miles_from_dt":15.48},{"city":"Damariscotta","state_name":"Maine","lat":44.03446,"lng":-69.49211,"zip":"04543","miles_from_dt":15.88},{"city":"Manchester","state_name":"Maine","lat":44.33174,"lng":-69.86082,"zip":"04351","miles_from_dt":15.96},{"city":"Richmond","state_name":"Maine","lat":44.12366,"lng":-69.82883,"zip":"04357","miles_from_dt":16.55},{"city":"Warren","state_name":"Maine","lat":44.12946,"lng":-69.24481,"zip":"04864","miles_from_dt":17.84},{"city":"Hope","state_name":"Maine","lat":44.25104,"lng":-69.18962,"zip":"04847","miles_from_dt":18.13},{"city":"Albion","state_name":"Maine","lat":44.517,"lng":-69.44123,"zip":"04910","miles_from_dt":18.62},{"city":"Bremen","state_name":"Maine","lat":44.00648,"lng":-69.42701,"zip":"04551","miles_from_dt":18.62},{"city":"Freedom","state_name":"Maine","lat":44.4654,"lng":-69.3017,"zip":"04941","miles_from_dt":18.93},{"city":"Searsmont","state_name":"Maine","lat":44.36229,"lng":-69.19303,"zip":"04973","miles_from_dt":19.28},{"city":"Waterville","state_name":"Maine","lat":44.54033,"lng":-69.63501,"zip":"04903","miles_from_dt":19.76},{"city":"Litchfield","state_name":"Maine","lat":44.16266,"lng":-69.93942,"zip":"04350","miles_from_dt":20.25},{"city":"Waterville","state_name":"Maine","lat":44.55449,"lng":-69.57037,"zip":"04901","miles_from_dt":20.35},{"city":"Edgecomb","state_name":"Maine","lat":43.96867,"lng":-69.62311,"zip":"04556","miles_from_dt":20.4},{"city":"Wiscasset","state_name":"Maine","lat":43.98136,"lng":-69.6926,"zip":"04578","miles_from_dt":20.42},{"city":"Winthrop","state_name":"Maine","lat":44.31158,"lng":-69.96153,"zip":"04364","miles_from_dt":20.48},{"city":"Bristol","state_name":"Maine","lat":43.96429,"lng":-69.50513,"zip":"04539","miles_from_dt":20.56},{"city":"West Rockport","state_name":"Maine","lat":44.18957,"lng":-69.15183,"zip":"04865","miles_from_dt":20.59},{"city":"Readfield","state_name":"Maine","lat":44.38227,"lng":-69.94915,"zip":"04355","miles_from_dt":21.29},{"city":"Belgrade","state_name":"Maine","lat":44.48959,"lng":-69.84167,"zip":"04917","miles_from_dt":21.29},{"city":"East Winthrop","state_name":"Maine","lat":44.31344,"lng":-69.97856,"zip":"04343","miles_from_dt":21.34},{"city":"Walpole","state_name":"Maine","lat":43.95063,"lng":-69.55025,"zip":"04573","miles_from_dt":21.36},{"city":"Friendship","state_name":"Maine","lat":43.99388,"lng":-69.32779,"zip":"04547","miles_from_dt":21.56},{"city":"Bowdoinham","state_name":"Maine","lat":44.03664,"lng":-69.86337,"zip":"04008","miles_from_dt":21.75},{"city":"Thomaston","state_name":"Maine","lat":44.09302,"lng":-69.17483,"zip":"04861","miles_from_dt":22.12},{"city":"Lincolnville Center","state_name":"Maine","lat":44.29488,"lng":-69.10973,"zip":"04850","miles_from_dt":22.21},{"city":"Rockport","state_name":"Maine","lat":44.17798,"lng":-69.12007,"zip":"04856","miles_from_dt":22.32},{"city":"Cushing","state_name":"Maine","lat":44.0151,"lng":-69.25655,"zip":"04563","miles_from_dt":22.49},{"city":"Monmouth","state_name":"Maine","lat":44.22762,"lng":-70.00868,"zip":"04259","miles_from_dt":22.64},{"city":"Rockland","state_name":"Maine","lat":44.12739,"lng":-69.13686,"zip":"04841","miles_from_dt":22.69},{"city":"Morrill","state_name":"Maine","lat":44.40934,"lng":-69.14261,"zip":"04952","miles_from_dt":22.88},{"city":"Round Pond","state_name":"Maine","lat":43.93089,"lng":-69.46761,"zip":"04564","miles_from_dt":23.13},{"city":"Woolwich","state_name":"Maine","lat":43.96216,"lng":-69.76872,"zip":"04579","miles_from_dt":23.15},{"city":"Camden","state_name":"Maine","lat":44.22929,"lng":-69.08924,"zip":"04843","miles_from_dt":23.21},{"city":"North Monmouth","state_name":"Maine","lat":44.27542,"lng":-70.04276,"zip":"04265","miles_from_dt":24.23},{"city":"Mount Vernon","state_name":"Maine","lat":44.46478,"lng":-69.96225,"zip":"04352","miles_from_dt":24.64},{"city":"Oakland","state_name":"Maine","lat":44.56621,"lng":-69.81463,"zip":"04963","miles_from_dt":24.75},{"city":"Bowdoin","state_name":"Maine","lat":44.05812,"lng":-69.9694,"zip":"04287","miles_from_dt":24.88},{"city":"Boothbay","state_name":"Maine","lat":43.90241,"lng":-69.62498,"zip":"04537","miles_from_dt":24.93},{"city":"Pemaquid","state_name":"Maine","lat":43.89974,"lng":-69.51499,"zip":"04558","miles_from_dt":24.95},{"city":"South Bristol","state_name":"Maine","lat":43.89652,"lng":-69.56153,"zip":"04568","miles_from_dt":25.1},{"city":"Unity","state_name":"Maine","lat":44.59588,"lng":-69.35959,"zip":"04988","miles_from_dt":25.13},{"city":"South Thomaston","state_name":"Maine","lat":44.04638,"lng":-69.1452,"zip":"04858","miles_from_dt":25.14},{"city":"Belgrade Lakes","state_name":"Maine","lat":44.55027,"lng":-69.86651,"zip":"04918","miles_from_dt":25.29},{"city":"Shawmut","state_name":"Maine","lat":44.62549,"lng":-69.58837,"zip":"04975","miles_from_dt":25.29},{"city":"Isle Of Springs","state_name":"Maine","lat":43.89725,"lng":-69.62975,"zip":"04549","miles_from_dt":25.32},{"city":"Lincolnville","state_name":"Maine","lat":44.3179,"lng":-69.04753,"zip":"04849","miles_from_dt":25.48},{"city":"Trevett","state_name":"Maine","lat":43.89949,"lng":-69.67516,"zip":"04571","miles_from_dt":25.6},{"city":"Tenants Harbor","state_name":"Maine","lat":43.968,"lng":-69.22817,"zip":"04860","miles_from_dt":25.89},{"city":"Chamberlain","state_name":"Maine","lat":43.88671,"lng":-69.48411,"zip":"04541","miles_from_dt":26.01},{"city":"Wayne","state_name":"Maine","lat":44.34757,"lng":-70.0651,"zip":"04284","miles_from_dt":26.01},{"city":"Thorndike","state_name":"Maine","lat":44.55286,"lng":-69.22354,"zip":"04986","miles_from_dt":26.04},{"city":"Port Clyde","state_name":"Maine","lat":43.93797,"lng":-69.26958,"zip":"04855","miles_from_dt":26.38},{"city":"Spruce Head","state_name":"Maine","lat":44.00068,"lng":-69.16112,"zip":"04859","miles_from_dt":26.53},{"city":"Fairfield","state_name":"Maine","lat":44.63546,"lng":-69.67635,"zip":"04937","miles_from_dt":26.61},{"city":"Sabattus","state_name":"Maine","lat":44.1215,"lng":-70.06152,"zip":"04280","miles_from_dt":26.92},{"city":"New Harbor","state_name":"Maine","lat":43.86348,"lng":-69.50481,"zip":"04554","miles_from_dt":27.49},{"city":"Owls Head","state_name":"Maine","lat":44.04344,"lng":-69.08504,"zip":"04854","miles_from_dt":27.73},{"city":"Boothbay Harbor","state_name":"Maine","lat":43.85632,"lng":-69.62807,"zip":"04538","miles_from_dt":28.11},{"city":"Kents Hill","state_name":"Maine","lat":44.43734,"lng":-70.07014,"zip":"04349","miles_from_dt":28.32},{"city":"Clinton","state_name":"Maine","lat":44.67021,"lng":-69.53589,"zip":"04927","miles_from_dt":28.34},{"city":"West Boothbay Harbor","state_name":"Maine","lat":43.85383,"lng":-69.66016,"zip":"04575","miles_from_dt":28.53},{"city":"Leeds","state_name":"Maine","lat":44.29476,"lng":-70.13061,"zip":"04263","miles_from_dt":28.66},{"city":"Smithfield","state_name":"Maine","lat":44.63466,"lng":-69.80789,"zip":"04978","miles_from_dt":28.74},{"city":"Topsham","state_name":"Maine","lat":43.96145,"lng":-69.95872,"zip":"04086","miles_from_dt":28.78},{"city":"Bath","state_name":"Maine","lat":43.89156,"lng":-69.8306,"zip":"04530","miles_from_dt":28.9},{"city":"Belfast","state_name":"Maine","lat":44.46643,"lng":-69.04156,"zip":"04915","miles_from_dt":29.15},{"city":"East Boothbay","state_name":"Maine","lat":43.83316,"lng":-69.58997,"zip":"04544","miles_from_dt":29.52},{"city":"Greene","state_name":"Maine","lat":44.19036,"lng":-70.14461,"zip":"04236","miles_from_dt":29.67},{"city":"Vienna","state_name":"Maine","lat":44.54741,"lng":-70.00299,"zip":"04360","miles_from_dt":29.76},{"city":"Lisbon Falls","state_name":"Maine","lat":44.02719,"lng":-70.06011,"zip":"04252","miles_from_dt":29.82},{"city":"Hinckley","state_name":"Maine","lat":44.68737,"lng":-69.64237,"zip":"04944","miles_from_dt":29.83}],"targetCityZipCode":"04341","targetCityState":"Maine"},"__N_SSG":true}