{"pageProps":{"stateName":"Maine","cityName":"hancock","nearbyCities":[{"city":"Sorrento","state_name":"Maine","lat":44.49016,"lng":-68.17945,"zip":"04677","miles_from_dt":7.06},{"city":"Salsbury Cove","state_name":"Maine","lat":44.43057,"lng":-68.28396,"zip":"04672","miles_from_dt":7.5},{"city":"Franklin","state_name":"Maine","lat":44.63457,"lng":-68.22253,"zip":"04634","miles_from_dt":7.83},{"city":"Sullivan","state_name":"Maine","lat":44.53906,"lng":-68.12797,"zip":"04664","miles_from_dt":8.78},{"city":"Hulls Cove","state_name":"Maine","lat":44.4144,"lng":-68.25084,"zip":"04644","miles_from_dt":8.96},{"city":"Ellsworth","state_name":"Maine","lat":44.66038,"lng":-68.41623,"zip":"04605","miles_from_dt":10.05},{"city":"Bar Harbor","state_name":"Maine","lat":44.38518,"lng":-68.27108,"zip":"04609","miles_from_dt":10.69},{"city":"Surry","state_name":"Maine","lat":44.49335,"lng":-68.52796,"zip":"04684","miles_from_dt":11.4},{"city":"Gouldsboro","state_name":"Maine","lat":44.47689,"lng":-68.05228,"zip":"04607","miles_from_dt":13.22},{"city":"East Blue Hill","state_name":"Maine","lat":44.41551,"lng":-68.52147,"zip":"04629","miles_from_dt":13.61},{"city":"Mount Desert","state_name":"Maine","lat":44.34026,"lng":-68.33231,"zip":"04660","miles_from_dt":13.72},{"city":"Winter Harbor","state_name":"Maine","lat":44.38479,"lng":-68.07828,"zip":"04693","miles_from_dt":15.44},{"city":"Northeast Harbor","state_name":"Maine","lat":44.30766,"lng":-68.28735,"zip":"04662","miles_from_dt":15.93},{"city":"Blue Hill","state_name":"Maine","lat":44.41819,"lng":-68.58223,"zip":"04614","miles_from_dt":15.98},{"city":"Seal Harbor","state_name":"Maine","lat":44.30083,"lng":-68.24223,"zip":"04675","miles_from_dt":16.68},{"city":"Prospect Harbor","state_name":"Maine","lat":44.40014,"lng":-68.01841,"zip":"04669","miles_from_dt":17.1},{"city":"Birch Harbor","state_name":"Maine","lat":44.37498,"lng":-68.03593,"zip":"04613","miles_from_dt":17.46},{"city":"Corea","state_name":"Maine","lat":44.42438,"lng":-67.9877,"zip":"04624","miles_from_dt":17.57},{"city":"Seal Cove","state_name":"Maine","lat":44.29347,"lng":-68.40883,"zip":"04674","miles_from_dt":17.64},{"city":"Steuben","state_name":"Maine","lat":44.50699,"lng":-67.94485,"zip":"04680","miles_from_dt":17.96},{"city":"Southwest Harbor","state_name":"Maine","lat":44.27843,"lng":-68.33247,"zip":"04679","miles_from_dt":17.97},{"city":"East Orland","state_name":"Maine","lat":44.56453,"lng":-68.6678,"zip":"04431","miles_from_dt":17.97},{"city":"Orland","state_name":"Maine","lat":44.57334,"lng":-68.67736,"zip":"04472","miles_from_dt":18.51},{"city":"Bernard","state_name":"Maine","lat":44.25954,"lng":-68.37722,"zip":"04612","miles_from_dt":19.55},{"city":"Islesford","state_name":"Maine","lat":44.26007,"lng":-68.22812,"zip":"04646","miles_from_dt":19.57},{"city":"Holden","state_name":"Maine","lat":44.72039,"lng":-68.6171,"zip":"04429","miles_from_dt":19.86},{"city":"Cranberry Isles","state_name":"Maine","lat":44.25041,"lng":-68.25503,"zip":"04625","miles_from_dt":20.02},{"city":"Penobscot","state_name":"Maine","lat":44.47474,"lng":-68.70521,"zip":"04476","miles_from_dt":20.22},{"city":"Bass Harbor","state_name":"Maine","lat":44.23705,"lng":-68.3431,"zip":"04653","miles_from_dt":20.86},{"city":"Sedgwick","state_name":"Maine","lat":44.34741,"lng":-68.64238,"zip":"04676","miles_from_dt":21.23},{"city":"Milbridge","state_name":"Maine","lat":44.53873,"lng":-67.87257,"zip":"04658","miles_from_dt":21.39},{"city":"Brooklin","state_name":"Maine","lat":44.28346,"lng":-68.57069,"zip":"04616","miles_from_dt":21.93},{"city":"Eddington","state_name":"Maine","lat":44.80643,"lng":-68.55584,"zip":"04428","miles_from_dt":22.26},{"city":"Bucksport","state_name":"Maine","lat":44.62725,"lng":-68.75286,"zip":"04416","miles_from_dt":22.91},{"city":"Cherryfield","state_name":"Maine","lat":44.75555,"lng":-67.95143,"zip":"04622","miles_from_dt":23.03},{"city":"Brooksville","state_name":"Maine","lat":44.36929,"lng":-68.73081,"zip":"04617","miles_from_dt":24.04},{"city":"Sargentville","state_name":"Maine","lat":44.30484,"lng":-68.67028,"zip":"04673","miles_from_dt":24.18},{"city":"Harrington","state_name":"Maine","lat":44.57876,"lng":-67.80562,"zip":"04643","miles_from_dt":24.85},{"city":"Sandy Point","state_name":"Maine","lat":44.51252,"lng":-68.81108,"zip":"04972","miles_from_dt":25.02},{"city":"Castine","state_name":"Maine","lat":44.4111,"lng":-68.79524,"zip":"04421","miles_from_dt":25.74},{"city":"Castine","state_name":"Maine","lat":44.39467,"lng":-68.78946,"zip":"04420","miles_from_dt":25.89},{"city":"Orrington","state_name":"Maine","lat":44.71501,"lng":-68.77901,"zip":"04474","miles_from_dt":26.34},{"city":"Little Deer Isle","state_name":"Maine","lat":44.28924,"lng":-68.71412,"zip":"04650","miles_from_dt":26.53},{"city":"Swans Island","state_name":"Maine","lat":44.15869,"lng":-68.44015,"zip":"04685","miles_from_dt":27.03},{"city":"Brewer","state_name":"Maine","lat":44.78354,"lng":-68.73517,"zip":"04412","miles_from_dt":27.12},{"city":"Bradley","state_name":"Maine","lat":44.88634,"lng":-68.56672,"zip":"04411","miles_from_dt":27.27},{"city":"Stockton Springs","state_name":"Maine","lat":44.53228,"lng":-68.85941,"zip":"04981","miles_from_dt":27.35},{"city":"Harborside","state_name":"Maine","lat":44.33906,"lng":-68.79591,"zip":"04642","miles_from_dt":27.87},{"city":"Deer Isle","state_name":"Maine","lat":44.22275,"lng":-68.66581,"zip":"04627","miles_from_dt":28.14},{"city":"Frenchboro","state_name":"Maine","lat":44.11376,"lng":-68.35479,"zip":"04635","miles_from_dt":29.39},{"city":"Addison","state_name":"Maine","lat":44.57697,"lng":-67.70281,"zip":"04606","miles_from_dt":29.89}],"targetCityZipCode":"04640","targetCityState":"Maine"},"__N_SSG":true}