{"pageProps":{"stateName":"Maine","cityName":"island-falls","nearbyCities":[{"city":"Oakfield","state_name":"Maine","lat":46.08068,"lng":-68.10371,"zip":"04763","miles_from_dt":10.16},{"city":"Sherman","state_name":"Maine","lat":45.8105,"lng":-68.31818,"zip":"04776","miles_from_dt":11.2},{"city":"Smyrna Mills","state_name":"Maine","lat":46.1677,"lng":-68.26924,"zip":"04780","miles_from_dt":15.54},{"city":"New Limerick","state_name":"Maine","lat":46.11857,"lng":-67.97183,"zip":"04761","miles_from_dt":15.96},{"city":"Stacyville","state_name":"Maine","lat":45.83515,"lng":-68.48952,"zip":"04777","miles_from_dt":16.16},{"city":"Wytopitlock","state_name":"Maine","lat":45.7249,"lng":-68.06619,"zip":"04497","miles_from_dt":16.68},{"city":"Orient","state_name":"Maine","lat":45.8912,"lng":-67.8471,"zip":"04471","miles_from_dt":17.3},{"city":"Benedicta","state_name":"Maine","lat":45.74275,"lng":-68.40311,"zip":"04733","miles_from_dt":17.36},{"city":"Houlton","state_name":"Maine","lat":46.12574,"lng":-67.91471,"zip":"04730","miles_from_dt":18.26},{"city":"Patten","state_name":"Maine","lat":46.06884,"lng":-68.64477,"zip":"04765","miles_from_dt":23.12},{"city":"Kingman","state_name":"Maine","lat":45.6035,"lng":-68.21915,"zip":"04451","miles_from_dt":23.85},{"city":"Danforth","state_name":"Maine","lat":45.67003,"lng":-67.86144,"zip":"04424","miles_from_dt":25.14},{"city":"Mattawamkeag","state_name":"Maine","lat":45.58898,"lng":-68.33948,"zip":"04459","miles_from_dt":25.78},{"city":"Medway","state_name":"Maine","lat":45.64134,"lng":-68.52638,"zip":"04460","miles_from_dt":26.54},{"city":"East Millinocket","state_name":"Maine","lat":45.64662,"lng":-68.58646,"zip":"04430","miles_from_dt":28.1},{"city":"Monticello","state_name":"Maine","lat":46.32354,"lng":-67.90928,"zip":"04760","miles_from_dt":29.34},{"city":"Oxbow","state_name":"Maine","lat":46.36843,"lng":-68.34229,"zip":"04764","miles_from_dt":29.83}],"targetCityZipCode":"04747","targetCityState":"Maine"},"__N_SSG":true}