{"pageProps":{"stateName":"Maine","cityName":"lambert-lake","nearbyCities":[{"city":"Vanceboro","state_name":"Maine","lat":45.56705,"lng":-67.51353,"zip":"04491","miles_from_dt":3.15},{"city":"Waite","state_name":"Maine","lat":45.34738,"lng":-67.6658,"zip":"04492","miles_from_dt":13.87},{"city":"Brookton","state_name":"Maine","lat":45.55647,"lng":-67.8274,"zip":"04413","miles_from_dt":14.86},{"city":"Topsfield","state_name":"Maine","lat":45.39527,"lng":-67.82458,"zip":"04490","miles_from_dt":16.99},{"city":"Danforth","state_name":"Maine","lat":45.67003,"lng":-67.86144,"zip":"04424","miles_from_dt":19.24},{"city":"Grand Lake Stream","state_name":"Maine","lat":45.22333,"lng":-67.57278,"zip":"04637","miles_from_dt":20.77},{"city":"Princeton","state_name":"Maine","lat":45.19846,"lng":-67.70543,"zip":"04668","miles_from_dt":24.02},{"city":"Baileyville","state_name":"Maine","lat":45.09987,"lng":-67.46518,"zip":"04694","miles_from_dt":29.31},{"city":"Springfield","state_name":"Maine","lat":45.39371,"lng":-68.1006,"zip":"04487","miles_from_dt":29.34},{"city":"Wytopitlock","state_name":"Maine","lat":45.7249,"lng":-68.06619,"zip":"04497","miles_from_dt":29.72},{"city":"Orient","state_name":"Maine","lat":45.8912,"lng":-67.8471,"zip":"04471","miles_from_dt":29.87}],"targetCityZipCode":"04454","targetCityState":"Maine"},"__N_SSG":true}