{"pageProps":{"stateName":"Maine","cityName":"liberty","nearbyCities":[{"city":"Palermo","state_name":"Maine","lat":44.39602,"lng":-69.42709,"zip":"04354","miles_from_dt":4.74},{"city":"Washington","state_name":"Maine","lat":44.2734,"lng":-69.39105,"zip":"04574","miles_from_dt":6.94},{"city":"Freedom","state_name":"Maine","lat":44.4654,"lng":-69.3017,"zip":"04941","miles_from_dt":7.05},{"city":"Searsmont","state_name":"Maine","lat":44.36229,"lng":-69.19303,"zip":"04973","miles_from_dt":7.3},{"city":"Union","state_name":"Maine","lat":44.26186,"lng":-69.27703,"zip":"04862","miles_from_dt":7.92},{"city":"South China","state_name":"Maine","lat":44.41821,"lng":-69.53286,"zip":"04358","miles_from_dt":10.17},{"city":"Morrill","state_name":"Maine","lat":44.40934,"lng":-69.14261,"zip":"04952","miles_from_dt":10.21},{"city":"Hope","state_name":"Maine","lat":44.25104,"lng":-69.18962,"zip":"04847","miles_from_dt":10.96},{"city":"Albion","state_name":"Maine","lat":44.517,"lng":-69.44123,"zip":"04910","miles_from_dt":11.49},{"city":"China Village","state_name":"Maine","lat":44.48035,"lng":-69.51521,"zip":"04926","miles_from_dt":11.66},{"city":"Windsor","state_name":"Maine","lat":44.31101,"lng":-69.57807,"zip":"04363","miles_from_dt":12.4},{"city":"Lincolnville Center","state_name":"Maine","lat":44.29488,"lng":-69.10973,"zip":"04850","miles_from_dt":12.47},{"city":"Coopers Mills","state_name":"Maine","lat":44.25997,"lng":-69.55485,"zip":"04341","miles_from_dt":12.96},{"city":"Jefferson","state_name":"Maine","lat":44.21521,"lng":-69.49922,"zip":"04348","miles_from_dt":13.12},{"city":"Thorndike","state_name":"Maine","lat":44.55286,"lng":-69.22354,"zip":"04986","miles_from_dt":14.06},{"city":"East Vassalboro","state_name":"Maine","lat":44.44977,"lng":-69.60836,"zip":"04935","miles_from_dt":14.44},{"city":"Lincolnville","state_name":"Maine","lat":44.3179,"lng":-69.04753,"zip":"04849","miles_from_dt":14.9},{"city":"West Rockport","state_name":"Maine","lat":44.18957,"lng":-69.15183,"zip":"04865","miles_from_dt":15.42},{"city":"Camden","state_name":"Maine","lat":44.22929,"lng":-69.08924,"zip":"04843","miles_from_dt":15.67},{"city":"Unity","state_name":"Maine","lat":44.59588,"lng":-69.35959,"zip":"04988","miles_from_dt":15.82},{"city":"Vassalboro","state_name":"Maine","lat":44.4299,"lng":-69.64784,"zip":"04989","miles_from_dt":15.83},{"city":"North Vassalboro","state_name":"Maine","lat":44.4757,"lng":-69.62456,"zip":"04962","miles_from_dt":15.94},{"city":"Belfast","state_name":"Maine","lat":44.46643,"lng":-69.04156,"zip":"04915","miles_from_dt":16.3},{"city":"Rockport","state_name":"Maine","lat":44.17798,"lng":-69.12007,"zip":"04856","miles_from_dt":17.03},{"city":"Warren","state_name":"Maine","lat":44.12946,"lng":-69.24481,"zip":"04864","miles_from_dt":17.08},{"city":"Waterville","state_name":"Maine","lat":44.55449,"lng":-69.57037,"zip":"04901","miles_from_dt":17.23},{"city":"Brooks","state_name":"Maine","lat":44.57256,"lng":-69.13326,"zip":"04921","miles_from_dt":17.49},{"city":"Whitefield","state_name":"Maine","lat":44.2052,"lng":-69.6126,"zip":"04353","miles_from_dt":17.53},{"city":"Waldoboro","state_name":"Maine","lat":44.10984,"lng":-69.36956,"zip":"04572","miles_from_dt":17.82},{"city":"Waterville","state_name":"Maine","lat":44.54033,"lng":-69.63501,"zip":"04903","miles_from_dt":18.85},{"city":"Nobleboro","state_name":"Maine","lat":44.10597,"lng":-69.47687,"zip":"04555","miles_from_dt":19.26},{"city":"Rockland","state_name":"Maine","lat":44.12739,"lng":-69.13686,"zip":"04841","miles_from_dt":19.39},{"city":"Augusta","state_name":"Maine","lat":44.36387,"lng":-69.73729,"zip":"04330","miles_from_dt":19.67},{"city":"Augusta","state_name":"Maine","lat":44.3348,"lng":-69.74285,"zip":"04336","miles_from_dt":20.07},{"city":"Augusta","state_name":"Maine","lat":44.33536,"lng":-69.74456,"zip":"04332","miles_from_dt":20.15},{"city":"Thomaston","state_name":"Maine","lat":44.09302,"lng":-69.17483,"zip":"04861","miles_from_dt":20.63},{"city":"Shawmut","state_name":"Maine","lat":44.62549,"lng":-69.58837,"zip":"04975","miles_from_dt":21.65},{"city":"Islesboro","state_name":"Maine","lat":44.31083,"lng":-68.90896,"zip":"04848","miles_from_dt":21.72},{"city":"Augusta","state_name":"Maine","lat":44.31971,"lng":-69.77657,"zip":"04338","miles_from_dt":21.86},{"city":"Troy","state_name":"Maine","lat":44.67915,"lng":-69.25361,"zip":"04987","miles_from_dt":21.97},{"city":"Searsport","state_name":"Maine","lat":44.4893,"lng":-68.92996,"zip":"04974","miles_from_dt":21.99},{"city":"Monroe","state_name":"Maine","lat":44.60716,"lng":-69.04575,"zip":"04951","miles_from_dt":22.06},{"city":"Burnham","state_name":"Maine","lat":44.68739,"lng":-69.38255,"zip":"04922","miles_from_dt":22.21},{"city":"Randolph","state_name":"Maine","lat":44.23469,"lng":-69.75068,"zip":"04346","miles_from_dt":22.31},{"city":"Augusta","state_name":"Maine","lat":44.30952,"lng":-69.78352,"zip":"04333","miles_from_dt":22.32},{"city":"Clinton","state_name":"Maine","lat":44.67021,"lng":-69.53589,"zip":"04927","miles_from_dt":23.05},{"city":"Hallowell","state_name":"Maine","lat":44.29047,"lng":-69.81399,"zip":"04347","miles_from_dt":24.07},{"city":"South Thomaston","state_name":"Maine","lat":44.04638,"lng":-69.1452,"zip":"04858","miles_from_dt":24.17},{"city":"Damariscotta","state_name":"Maine","lat":44.03446,"lng":-69.49211,"zip":"04543","miles_from_dt":24.17},{"city":"Alna","state_name":"Maine","lat":44.08778,"lng":-69.63436,"zip":"04535","miles_from_dt":24.19},{"city":"South Gardiner","state_name":"Maine","lat":44.17947,"lng":-69.76134,"zip":"04359","miles_from_dt":24.58},{"city":"Cushing","state_name":"Maine","lat":44.0151,"lng":-69.25655,"zip":"04563","miles_from_dt":24.66},{"city":"Newcastle","state_name":"Maine","lat":44.04787,"lng":-69.57145,"zip":"04553","miles_from_dt":24.85},{"city":"Dixmont","state_name":"Maine","lat":44.6957,"lng":-69.13335,"zip":"04932","miles_from_dt":24.88},{"city":"Fairfield","state_name":"Maine","lat":44.63546,"lng":-69.67635,"zip":"04937","miles_from_dt":24.88},{"city":"Gardiner","state_name":"Maine","lat":44.19816,"lng":-69.7841,"zip":"04345","miles_from_dt":24.91},{"city":"Farmingdale","state_name":"Maine","lat":44.2588,"lng":-69.82125,"zip":"04344","miles_from_dt":24.99},{"city":"Bremen","state_name":"Maine","lat":44.00648,"lng":-69.42701,"zip":"04551","miles_from_dt":25.27},{"city":"Owls Head","state_name":"Maine","lat":44.04344,"lng":-69.08504,"zip":"04854","miles_from_dt":25.69},{"city":"Friendship","state_name":"Maine","lat":43.99388,"lng":-69.32779,"zip":"04547","miles_from_dt":25.78},{"city":"Manchester","state_name":"Maine","lat":44.33174,"lng":-69.86082,"zip":"04351","miles_from_dt":25.9},{"city":"Belgrade","state_name":"Maine","lat":44.48959,"lng":-69.84167,"zip":"04917","miles_from_dt":26.21},{"city":"Frankfort","state_name":"Maine","lat":44.59856,"lng":-68.91904,"zip":"04438","miles_from_dt":26.25},{"city":"Stockton Springs","state_name":"Maine","lat":44.53228,"lng":-68.85941,"zip":"04981","miles_from_dt":26.38},{"city":"Hinckley","state_name":"Maine","lat":44.68737,"lng":-69.64237,"zip":"04944","miles_from_dt":26.68},{"city":"Spruce Head","state_name":"Maine","lat":44.00068,"lng":-69.16112,"zip":"04859","miles_from_dt":26.82},{"city":"Harborside","state_name":"Maine","lat":44.33906,"lng":-68.79591,"zip":"04642","miles_from_dt":27.04},{"city":"Castine","state_name":"Maine","lat":44.4111,"lng":-68.79524,"zip":"04421","miles_from_dt":27.16},{"city":"Sunset","state_name":"Maine","lat":44.23596,"lng":-68.82368,"zip":"04683","miles_from_dt":27.17},{"city":"Oakland","state_name":"Maine","lat":44.56621,"lng":-69.81463,"zip":"04963","miles_from_dt":27.19},{"city":"Detroit","state_name":"Maine","lat":44.76238,"lng":-69.31131,"zip":"04929","miles_from_dt":27.33},{"city":"Castine","state_name":"Maine","lat":44.39467,"lng":-68.78946,"zip":"04420","miles_from_dt":27.34},{"city":"North Haven","state_name":"Maine","lat":44.15172,"lng":-68.86311,"zip":"04853","miles_from_dt":27.96},{"city":"Sandy Point","state_name":"Maine","lat":44.51252,"lng":-68.81108,"zip":"04972","miles_from_dt":28.04},{"city":"Dresden","state_name":"Maine","lat":44.07942,"lng":-69.73939,"zip":"04342","miles_from_dt":28.06},{"city":"Tenants Harbor","state_name":"Maine","lat":43.968,"lng":-69.22817,"zip":"04860","miles_from_dt":28.11},{"city":"Pittsfield","state_name":"Maine","lat":44.77138,"lng":-69.43866,"zip":"04967","miles_from_dt":28.33},{"city":"Plymouth","state_name":"Maine","lat":44.77019,"lng":-69.22461,"zip":"04969","miles_from_dt":28.41},{"city":"Belgrade Lakes","state_name":"Maine","lat":44.55027,"lng":-69.86651,"zip":"04918","miles_from_dt":28.93},{"city":"Bristol","state_name":"Maine","lat":43.96429,"lng":-69.50513,"zip":"04539","miles_from_dt":28.99},{"city":"Winterport","state_name":"Maine","lat":44.65839,"lng":-68.91189,"zip":"04496","miles_from_dt":29.2},{"city":"Richmond","state_name":"Maine","lat":44.12366,"lng":-69.82883,"zip":"04357","miles_from_dt":29.5},{"city":"Smithfield","state_name":"Maine","lat":44.63466,"lng":-69.80789,"zip":"04978","miles_from_dt":29.58},{"city":"Port Clyde","state_name":"Maine","lat":43.93797,"lng":-69.26958,"zip":"04855","miles_from_dt":29.84}],"targetCityZipCode":"04949","targetCityState":"Maine"},"__N_SSG":true}