{"pageProps":{"stateName":"Maine","cityName":"limestone","nearbyCities":[{"city":"Limestone","state_name":"Maine","lat":46.90861,"lng":-67.82639,"zip":"04751","miles_from_dt":3.72},{"city":"Caribou","state_name":"Maine","lat":46.90661,"lng":-68.01998,"zip":"04736","miles_from_dt":8.49},{"city":"Fort Fairfield","state_name":"Maine","lat":46.77766,"lng":-67.85526,"zip":"04742","miles_from_dt":12.47},{"city":"New Sweden","state_name":"Maine","lat":46.97574,"lng":-68.12094,"zip":"04762","miles_from_dt":12.53},{"city":"Van Buren","state_name":"Maine","lat":47.12678,"lng":-68.00368,"zip":"04785","miles_from_dt":13.55},{"city":"Stockholm","state_name":"Maine","lat":47.03586,"lng":-68.18907,"zip":"04783","miles_from_dt":16.58},{"city":"Crouseville","state_name":"Maine","lat":46.75854,"lng":-68.09583,"zip":"04738","miles_from_dt":17.84},{"city":"Perham","state_name":"Maine","lat":46.88162,"lng":-68.23911,"zip":"04766","miles_from_dt":18.83},{"city":"Washburn","state_name":"Maine","lat":46.79207,"lng":-68.17878,"zip":"04786","miles_from_dt":19.07},{"city":"Presque Isle","state_name":"Maine","lat":46.68676,"lng":-67.98737,"zip":"04769","miles_from_dt":19.74},{"city":"Easton","state_name":"Maine","lat":46.64325,"lng":-67.85487,"zip":"04740","miles_from_dt":21.76},{"city":"Grand Isle","state_name":"Maine","lat":47.24885,"lng":-68.12472,"zip":"04746","miles_from_dt":23.71},{"city":"Sinclair","state_name":"Maine","lat":47.11615,"lng":-68.31162,"zip":"04779","miles_from_dt":24.08},{"city":"Mars Hill","state_name":"Maine","lat":46.55426,"lng":-67.84732,"zip":"04758","miles_from_dt":27.91},{"city":"Saint David","state_name":"Maine","lat":47.27426,"lng":-68.22649,"zip":"04773","miles_from_dt":27.93},{"city":"Mapleton","state_name":"Maine","lat":46.6141,"lng":-68.18278,"zip":"04757","miles_from_dt":28.35},{"city":"Westfield","state_name":"Maine","lat":46.55166,"lng":-67.97685,"zip":"04787","miles_from_dt":28.65},{"city":"Saint Agatha","state_name":"Maine","lat":47.23375,"lng":-68.32732,"zip":"04772","miles_from_dt":29.23}],"targetCityZipCode":"04750","targetCityState":"Maine"},"__N_SSG":true}