{"pageProps":{"stateName":"Maine","cityName":"matinicus","nearbyCities":[{"city":"Vinalhaven","state_name":"Maine","lat":44.07898,"lng":-68.84384,"zip":"04863","miles_from_dt":15.83},{"city":"Owls Head","state_name":"Maine","lat":44.04344,"lng":-69.08504,"zip":"04854","miles_from_dt":16.35},{"city":"Spruce Head","state_name":"Maine","lat":44.00068,"lng":-69.16112,"zip":"04859","miles_from_dt":16.91},{"city":"South Thomaston","state_name":"Maine","lat":44.04638,"lng":-69.1452,"zip":"04858","miles_from_dt":18.43},{"city":"Tenants Harbor","state_name":"Maine","lat":43.968,"lng":-69.22817,"zip":"04860","miles_from_dt":18.6},{"city":"Isle Au Haut","state_name":"Maine","lat":44.05408,"lng":-68.6282,"zip":"04645","miles_from_dt":19.15},{"city":"Port Clyde","state_name":"Maine","lat":43.93797,"lng":-69.26958,"zip":"04855","miles_from_dt":19.78},{"city":"North Haven","state_name":"Maine","lat":44.15172,"lng":-68.86311,"zip":"04853","miles_from_dt":20.72},{"city":"Cushing","state_name":"Maine","lat":44.0151,"lng":-69.25655,"zip":"04563","miles_from_dt":21.4},{"city":"Thomaston","state_name":"Maine","lat":44.09302,"lng":-69.17483,"zip":"04861","miles_from_dt":21.81},{"city":"Monhegan","state_name":"Maine","lat":43.76561,"lng":-69.31235,"zip":"04852","miles_from_dt":21.87},{"city":"Rockland","state_name":"Maine","lat":44.12739,"lng":-69.13686,"zip":"04841","miles_from_dt":22.59},{"city":"Friendship","state_name":"Maine","lat":43.99388,"lng":-69.32779,"zip":"04547","miles_from_dt":23.86},{"city":"Stonington","state_name":"Maine","lat":44.16655,"lng":-68.65646,"zip":"04681","miles_from_dt":24.66},{"city":"Rockport","state_name":"Maine","lat":44.17798,"lng":-69.12007,"zip":"04856","miles_from_dt":25.2},{"city":"Warren","state_name":"Maine","lat":44.12946,"lng":-69.24481,"zip":"04864","miles_from_dt":26},{"city":"West Rockport","state_name":"Maine","lat":44.18957,"lng":-69.15183,"zip":"04865","miles_from_dt":26.65},{"city":"Sunset","state_name":"Maine","lat":44.23596,"lng":-68.82368,"zip":"04683","miles_from_dt":26.71},{"city":"Camden","state_name":"Maine","lat":44.22929,"lng":-69.08924,"zip":"04843","miles_from_dt":27.83},{"city":"Deer Isle","state_name":"Maine","lat":44.22275,"lng":-68.66581,"zip":"04627","miles_from_dt":27.94},{"city":"Bremen","state_name":"Maine","lat":44.00648,"lng":-69.42701,"zip":"04551","miles_from_dt":28.76},{"city":"Round Pond","state_name":"Maine","lat":43.93089,"lng":-69.46761,"zip":"04564","miles_from_dt":29.27},{"city":"Chamberlain","state_name":"Maine","lat":43.88671,"lng":-69.48411,"zip":"04541","miles_from_dt":29.69},{"city":"Waldoboro","state_name":"Maine","lat":44.10984,"lng":-69.36956,"zip":"04572","miles_from_dt":29.73}],"targetCityZipCode":"04851","targetCityState":"Maine"},"__N_SSG":true}