{"pageProps":{"stateName":"Maine","cityName":"new-limerick","nearbyCities":[{"city":"Houlton","state_name":"Maine","lat":46.12574,"lng":-67.91471,"zip":"04730","miles_from_dt":2.79},{"city":"Oakfield","state_name":"Maine","lat":46.08068,"lng":-68.10371,"zip":"04763","miles_from_dt":6.86},{"city":"Monticello","state_name":"Maine","lat":46.32354,"lng":-67.90928,"zip":"04760","miles_from_dt":14.47},{"city":"Smyrna Mills","state_name":"Maine","lat":46.1677,"lng":-68.26924,"zip":"04780","miles_from_dt":14.68},{"city":"Island Falls","state_name":"Maine","lat":45.94854,"lng":-68.19649,"zip":"04747","miles_from_dt":15.96},{"city":"Orient","state_name":"Maine","lat":45.8912,"lng":-67.8471,"zip":"04471","miles_from_dt":16.81},{"city":"Bridgewater","state_name":"Maine","lat":46.38072,"lng":-68.02865,"zip":"04735","miles_from_dt":18.31},{"city":"Oxbow","state_name":"Maine","lat":46.36843,"lng":-68.34229,"zip":"04764","miles_from_dt":24.76},{"city":"Blaine","state_name":"Maine","lat":46.48479,"lng":-67.91955,"zip":"04734","miles_from_dt":25.42},{"city":"Sherman","state_name":"Maine","lat":45.8105,"lng":-68.31818,"zip":"04776","miles_from_dt":27.04},{"city":"Wytopitlock","state_name":"Maine","lat":45.7249,"lng":-68.06619,"zip":"04497","miles_from_dt":27.57},{"city":"Westfield","state_name":"Maine","lat":46.55166,"lng":-67.97685,"zip":"04787","miles_from_dt":29.91}],"targetCityZipCode":"04761","targetCityState":"Maine"},"__N_SSG":true}