{"pageProps":{"stateName":"Maine","cityName":"north-waterboro","nearbyCities":[{"city":"East Waterboro","state_name":"Maine","lat":43.59301,"lng":-70.69553,"zip":"04030","miles_from_dt":3.71},{"city":"Limerick","state_name":"Maine","lat":43.68862,"lng":-70.78642,"zip":"04048","miles_from_dt":4.35},{"city":"Waterboro","state_name":"Maine","lat":43.56234,"lng":-70.74529,"zip":"04087","miles_from_dt":4.95},{"city":"Hollis Center","state_name":"Maine","lat":43.62953,"lng":-70.62453,"zip":"04042","miles_from_dt":5.96},{"city":"Newfield","state_name":"Maine","lat":43.66066,"lng":-70.85875,"zip":"04056","miles_from_dt":6.08},{"city":"Limington","state_name":"Maine","lat":43.7356,"lng":-70.70263,"zip":"04049","miles_from_dt":7.3},{"city":"Shapleigh","state_name":"Maine","lat":43.55248,"lng":-70.83793,"zip":"04076","miles_from_dt":7.37},{"city":"Bar Mills","state_name":"Maine","lat":43.66486,"lng":-70.60122,"zip":"04004","miles_from_dt":7.42},{"city":"West Newfield","state_name":"Maine","lat":43.63925,"lng":-70.90749,"zip":"04095","miles_from_dt":8.25},{"city":"Cornish","state_name":"Maine","lat":43.76811,"lng":-70.81028,"zip":"04020","miles_from_dt":9.85},{"city":"Alfred","state_name":"Maine","lat":43.49572,"lng":-70.67922,"zip":"04002","miles_from_dt":10.08},{"city":"Buxton","state_name":"Maine","lat":43.64282,"lng":-70.53765,"zip":"04093","miles_from_dt":10.32},{"city":"Parsonsfield","state_name":"Maine","lat":43.73552,"lng":-70.91152,"zip":"04047","miles_from_dt":10.96},{"city":"Acton","state_name":"Maine","lat":43.52991,"lng":-70.92078,"zip":"04001","miles_from_dt":11.46},{"city":"Steep Falls","state_name":"Maine","lat":43.7809,"lng":-70.62553,"zip":"04085","miles_from_dt":11.72},{"city":"Springvale","state_name":"Maine","lat":43.46728,"lng":-70.81359,"zip":"04083","miles_from_dt":12.05},{"city":"East Parsonsfield","state_name":"Maine","lat":43.76527,"lng":-70.91794,"zip":"04028","miles_from_dt":12.6},{"city":"East Wakefield","state_name":"New Hampshire","lat":43.63549,"lng":-70.99568,"zip":"03830","miles_from_dt":12.66},{"city":"Standish","state_name":"Maine","lat":43.76637,"lng":-70.55893,"zip":"04084","miles_from_dt":12.98},{"city":"West Baldwin","state_name":"Maine","lat":43.83035,"lng":-70.74858,"zip":"04091","miles_from_dt":13.55},{"city":"East Baldwin","state_name":"Maine","lat":43.83556,"lng":-70.67701,"zip":"04024","miles_from_dt":14.3},{"city":"Milton Mills","state_name":"New Hampshire","lat":43.4982,"lng":-70.97547,"zip":"03852","miles_from_dt":14.97},{"city":"Gorham","state_name":"Maine","lat":43.70343,"lng":-70.4581,"zip":"04038","miles_from_dt":15.06},{"city":"Sanford","state_name":"Maine","lat":43.41301,"lng":-70.74237,"zip":"04073","miles_from_dt":15.26},{"city":"West Kennebunk","state_name":"Maine","lat":43.42644,"lng":-70.63045,"zip":"04094","miles_from_dt":15.41},{"city":"Saco","state_name":"Maine","lat":43.53898,"lng":-70.46236,"zip":"04072","miles_from_dt":15.54},{"city":"Sanbornville","state_name":"New Hampshire","lat":43.57225,"lng":-71.04249,"zip":"03872","miles_from_dt":15.61},{"city":"Biddeford","state_name":"Maine","lat":43.49591,"lng":-70.49537,"zip":"04005","miles_from_dt":15.67},{"city":"Hiram","state_name":"Maine","lat":43.86416,"lng":-70.82631,"zip":"04041","miles_from_dt":16.42},{"city":"South Windham","state_name":"Maine","lat":43.7336,"lng":-70.44155,"zip":"04082","miles_from_dt":16.6},{"city":"Effingham","state_name":"New Hampshire","lat":43.74727,"lng":-71.04254,"zip":"03882","miles_from_dt":16.91},{"city":"Porter","state_name":"Maine","lat":43.84009,"lng":-70.9409,"zip":"04068","miles_from_dt":17.33},{"city":"Lebanon","state_name":"Maine","lat":43.40333,"lng":-70.91155,"zip":"04027","miles_from_dt":18.04},{"city":"Scarborough","state_name":"Maine","lat":43.57028,"lng":-70.38833,"zip":"04070","miles_from_dt":18.34},{"city":"Sebago","state_name":"Maine","lat":43.89479,"lng":-70.66007,"zip":"04029","miles_from_dt":18.47},{"city":"Kennebunk","state_name":"Maine","lat":43.39721,"lng":-70.57071,"zip":"04043","miles_from_dt":18.51},{"city":"Ossipee","state_name":"New Hampshire","lat":43.69044,"lng":-71.10631,"zip":"03864","miles_from_dt":18.61},{"city":"Scarborough","state_name":"Maine","lat":43.59103,"lng":-70.3683,"zip":"04074","miles_from_dt":19.03},{"city":"Biddeford","state_name":"Maine","lat":43.46592,"lng":-70.44074,"zip":"04007","miles_from_dt":19.11},{"city":"Westbrook","state_name":"Maine","lat":43.67596,"lng":-70.36572,"zip":"04098","miles_from_dt":19.14},{"city":"Union","state_name":"New Hampshire","lat":43.48485,"lng":-71.0662,"zip":"03887","miles_from_dt":19.22},{"city":"Old Orchard Beach","state_name":"Maine","lat":43.52635,"lng":-70.38985,"zip":"04064","miles_from_dt":19.23},{"city":"Milton","state_name":"New Hampshire","lat":43.43606,"lng":-71.01633,"zip":"03851","miles_from_dt":19.37},{"city":"Kennebunkport","state_name":"Maine","lat":43.42027,"lng":-70.4921,"zip":"04046","miles_from_dt":19.41},{"city":"Ocean Park","state_name":"Maine","lat":43.50145,"lng":-70.39551,"zip":"04063","miles_from_dt":19.71},{"city":"Westbrook","state_name":"Maine","lat":43.69542,"lng":-70.35389,"zip":"04092","miles_from_dt":19.96},{"city":"South Casco","state_name":"Maine","lat":43.87173,"lng":-70.51401,"zip":"04077","miles_from_dt":20.02},{"city":"North Berwick","state_name":"Maine","lat":43.3447,"lng":-70.77759,"zip":"03906","miles_from_dt":20.05},{"city":"Windham","state_name":"Maine","lat":43.79798,"lng":-70.40547,"zip":"04062","miles_from_dt":20.34},{"city":"Cape Porpoise","state_name":"Maine","lat":43.4089,"lng":-70.47573,"zip":"04014","miles_from_dt":20.55},{"city":"Portland","state_name":"Maine","lat":43.65331,"lng":-70.3319,"zip":"04122","miles_from_dt":20.66},{"city":"Portland","state_name":"Maine","lat":43.65207,"lng":-70.33002,"zip":"04124","miles_from_dt":20.75},{"city":"Freedom","state_name":"New Hampshire","lat":43.82608,"lng":-71.07118,"zip":"03836","miles_from_dt":21.11},{"city":"Wolfeboro","state_name":"New Hampshire","lat":43.61109,"lng":-71.17788,"zip":"03894","miles_from_dt":21.86},{"city":"Wells","state_name":"Maine","lat":43.32669,"lng":-70.63356,"zip":"04090","miles_from_dt":21.92},{"city":"Portland","state_name":"Maine","lat":43.65877,"lng":-70.30622,"zip":"04102","miles_from_dt":21.97},{"city":"Portland","state_name":"Maine","lat":43.65953,"lng":-70.306,"zip":"04123","miles_from_dt":21.98},{"city":"Moody","state_name":"Maine","lat":43.33063,"lng":-70.60575,"zip":"04054","miles_from_dt":22.06},{"city":"Raymond","state_name":"Maine","lat":43.89598,"lng":-70.48133,"zip":"04071","miles_from_dt":22.33},{"city":"Brownfield","state_name":"Maine","lat":43.93341,"lng":-70.91718,"zip":"04010","miles_from_dt":22.42},{"city":"South Portland","state_name":"Maine","lat":43.63081,"lng":-70.28972,"zip":"04106","miles_from_dt":22.74},{"city":"Portland","state_name":"Maine","lat":43.69392,"lng":-70.2909,"zip":"04103","miles_from_dt":23.04},{"city":"New Durham","state_name":"New Hampshire","lat":43.46343,"lng":-71.14172,"zip":"03855","miles_from_dt":23.23},{"city":"Wolfeboro Falls","state_name":"New Hampshire","lat":43.58788,"lng":-71.20765,"zip":"03896","miles_from_dt":23.52},{"city":"Berwick","state_name":"Maine","lat":43.30063,"lng":-70.84397,"zip":"03901","miles_from_dt":23.57},{"city":"South Portland","state_name":"Maine","lat":43.65998,"lng":-70.2672,"zip":"04116","miles_from_dt":23.93},{"city":"Rochester","state_name":"New Hampshire","lat":43.31879,"lng":-70.9415,"zip":"03868","miles_from_dt":23.94},{"city":"Biddeford Pool","state_name":"Maine","lat":43.44397,"lng":-70.34272,"zip":"04006","miles_from_dt":24.01},{"city":"Eaton Center","state_name":"New Hampshire","lat":43.90249,"lng":-71.04859,"zip":"03832","miles_from_dt":24.02},{"city":"Naples","state_name":"Maine","lat":43.97065,"lng":-70.61444,"zip":"04055","miles_from_dt":24.11},{"city":"Denmark","state_name":"Maine","lat":43.98055,"lng":-70.80718,"zip":"04022","miles_from_dt":24.13},{"city":"Portland","state_name":"Maine","lat":43.66058,"lng":-70.26238,"zip":"04104","miles_from_dt":24.17},{"city":"Center Ossipee","state_name":"New Hampshire","lat":43.77341,"lng":-71.18717,"zip":"03814","miles_from_dt":24.23},{"city":"Falmouth","state_name":"Maine","lat":43.74753,"lng":-70.2825,"zip":"04105","miles_from_dt":24.37},{"city":"Portland","state_name":"Maine","lat":43.6624,"lng":-70.2586,"zip":"04101","miles_from_dt":24.37},{"city":"Farmington","state_name":"New Hampshire","lat":43.36319,"lng":-71.07605,"zip":"03835","miles_from_dt":25.09},{"city":"Center Tuftonboro","state_name":"New Hampshire","lat":43.69753,"lng":-71.24218,"zip":"03816","miles_from_dt":25.39},{"city":"Casco","state_name":"Maine","lat":43.96503,"lng":-70.5205,"zip":"04015","miles_from_dt":25.42},{"city":"Cape Elizabeth","state_name":"Maine","lat":43.5891,"lng":-70.23801,"zip":"04107","miles_from_dt":25.53},{"city":"Rochester","state_name":"New Hampshire","lat":43.30101,"lng":-70.97734,"zip":"03866","miles_from_dt":25.83},{"city":"Rochester","state_name":"New Hampshire","lat":43.3031,"lng":-70.98891,"zip":"03867","miles_from_dt":25.98},{"city":"West Ossipee","state_name":"New Hampshire","lat":43.81528,"lng":-71.20581,"zip":"03890","miles_from_dt":26.33},{"city":"Madison","state_name":"New Hampshire","lat":43.89454,"lng":-71.13101,"zip":"03849","miles_from_dt":26.46},{"city":"Cumberland Center","state_name":"Maine","lat":43.79756,"lng":-70.26519,"zip":"04021","miles_from_dt":26.46},{"city":"Gray","state_name":"Maine","lat":43.88744,"lng":-70.34532,"zip":"04039","miles_from_dt":26.5},{"city":"Alton","state_name":"New Hampshire","lat":43.45321,"lng":-71.21184,"zip":"03809","miles_from_dt":26.65},{"city":"Ogunquit","state_name":"Maine","lat":43.25474,"lng":-70.611,"zip":"03907","miles_from_dt":27.02},{"city":"Portland","state_name":"Maine","lat":43.66671,"lng":-70.20581,"zip":"04112","miles_from_dt":27.03},{"city":"Somersworth","state_name":"New Hampshire","lat":43.25335,"lng":-70.88555,"zip":"03878","miles_from_dt":27.24},{"city":"South Berwick","state_name":"Maine","lat":43.23838,"lng":-70.74795,"zip":"03908","miles_from_dt":27.32},{"city":"Portland","state_name":"Maine","lat":43.66732,"lng":-70.19984,"zip":"04109","miles_from_dt":27.33},{"city":"Mirror Lake","state_name":"New Hampshire","lat":43.63818,"lng":-71.29371,"zip":"03853","miles_from_dt":27.61},{"city":"Peaks Island","state_name":"Maine","lat":43.66057,"lng":-70.18901,"zip":"04108","miles_from_dt":27.84},{"city":"Alton Bay","state_name":"New Hampshire","lat":43.52692,"lng":-71.27941,"zip":"03810","miles_from_dt":27.91},{"city":"Melvin Village","state_name":"New Hampshire","lat":43.69739,"lng":-71.29983,"zip":"03850","miles_from_dt":28.24},{"city":"Rochester","state_name":"New Hampshire","lat":43.26256,"lng":-70.98254,"zip":"03839","miles_from_dt":28.33},{"city":"Cumberland Foreside","state_name":"Maine","lat":43.75834,"lng":-70.19905,"zip":"04110","miles_from_dt":28.57},{"city":"Bridgton","state_name":"Maine","lat":44.04791,"lng":-70.73632,"zip":"04009","miles_from_dt":28.57},{"city":"Silver Lake","state_name":"New Hampshire","lat":43.89944,"lng":-71.18636,"zip":"03875","miles_from_dt":28.76},{"city":"Cape Neddick","state_name":"Maine","lat":43.22246,"lng":-70.63788,"zip":"03902","miles_from_dt":28.91},{"city":"Rollinsford","state_name":"New Hampshire","lat":43.22092,"lng":-70.83995,"zip":"03869","miles_from_dt":28.94},{"city":"Dover","state_name":"New Hampshire","lat":43.21818,"lng":-70.84109,"zip":"03822","miles_from_dt":29.13},{"city":"North Yarmouth","state_name":"Maine","lat":43.85123,"lng":-70.23636,"zip":"04097","miles_from_dt":29.46},{"city":"Long Island","state_name":"Maine","lat":43.69148,"lng":-70.15714,"zip":"04050","miles_from_dt":29.63}],"targetCityZipCode":"04061","targetCityState":"Maine"},"__N_SSG":true}