{"pageProps":{"stateName":"Maine","cityName":"sandy-point","nearbyCities":[{"city":"Stockton Springs","state_name":"Maine","lat":44.53228,"lng":-68.85941,"zip":"04981","miles_from_dt":2.75},{"city":"Penobscot","state_name":"Maine","lat":44.47474,"lng":-68.70521,"zip":"04476","miles_from_dt":5.85},{"city":"Searsport","state_name":"Maine","lat":44.4893,"lng":-68.92996,"zip":"04974","miles_from_dt":6.09},{"city":"Castine","state_name":"Maine","lat":44.4111,"lng":-68.79524,"zip":"04421","miles_from_dt":7.05},{"city":"Orland","state_name":"Maine","lat":44.57334,"lng":-68.67736,"zip":"04472","miles_from_dt":7.83},{"city":"East Orland","state_name":"Maine","lat":44.56453,"lng":-68.6678,"zip":"04431","miles_from_dt":7.94},{"city":"Frankfort","state_name":"Maine","lat":44.59856,"lng":-68.91904,"zip":"04438","miles_from_dt":7.98},{"city":"Castine","state_name":"Maine","lat":44.39467,"lng":-68.78946,"zip":"04420","miles_from_dt":8.21},{"city":"Bucksport","state_name":"Maine","lat":44.62725,"lng":-68.75286,"zip":"04416","miles_from_dt":8.43},{"city":"Brooksville","state_name":"Maine","lat":44.36929,"lng":-68.73081,"zip":"04617","miles_from_dt":10.66},{"city":"Winterport","state_name":"Maine","lat":44.65839,"lng":-68.91189,"zip":"04496","miles_from_dt":11.23},{"city":"Belfast","state_name":"Maine","lat":44.46643,"lng":-69.04156,"zip":"04915","miles_from_dt":11.83},{"city":"Harborside","state_name":"Maine","lat":44.33906,"lng":-68.79591,"zip":"04642","miles_from_dt":12},{"city":"Blue Hill","state_name":"Maine","lat":44.41819,"lng":-68.58223,"zip":"04614","miles_from_dt":13.06},{"city":"Monroe","state_name":"Maine","lat":44.60716,"lng":-69.04575,"zip":"04951","miles_from_dt":13.3},{"city":"Surry","state_name":"Maine","lat":44.49335,"lng":-68.52796,"zip":"04684","miles_from_dt":14.05},{"city":"Orrington","state_name":"Maine","lat":44.71501,"lng":-68.77901,"zip":"04474","miles_from_dt":14.07},{"city":"Sedgwick","state_name":"Maine","lat":44.34741,"lng":-68.64238,"zip":"04676","miles_from_dt":14.13},{"city":"Islesboro","state_name":"Maine","lat":44.31083,"lng":-68.90896,"zip":"04848","miles_from_dt":14.74},{"city":"East Blue Hill","state_name":"Maine","lat":44.41551,"lng":-68.52147,"zip":"04629","miles_from_dt":15.81},{"city":"Sargentville","state_name":"Maine","lat":44.30484,"lng":-68.67028,"zip":"04673","miles_from_dt":15.94},{"city":"Little Deer Isle","state_name":"Maine","lat":44.28924,"lng":-68.71412,"zip":"04650","miles_from_dt":16.15},{"city":"Hampden","state_name":"Maine","lat":44.72591,"lng":-68.94585,"zip":"04444","miles_from_dt":16.16},{"city":"Brooks","state_name":"Maine","lat":44.57256,"lng":-69.13326,"zip":"04921","miles_from_dt":16.44},{"city":"Holden","state_name":"Maine","lat":44.72039,"lng":-68.6171,"zip":"04429","miles_from_dt":17.25},{"city":"Lincolnville","state_name":"Maine","lat":44.3179,"lng":-69.04753,"zip":"04849","miles_from_dt":17.82},{"city":"Morrill","state_name":"Maine","lat":44.40934,"lng":-69.14261,"zip":"04952","miles_from_dt":17.88},{"city":"Brewer","state_name":"Maine","lat":44.78354,"lng":-68.73517,"zip":"04412","miles_from_dt":19.08},{"city":"Sunset","state_name":"Maine","lat":44.23596,"lng":-68.82368,"zip":"04683","miles_from_dt":19.11},{"city":"Brooklin","state_name":"Maine","lat":44.28346,"lng":-68.57069,"zip":"04616","miles_from_dt":19.79},{"city":"Dixmont","state_name":"Maine","lat":44.6957,"lng":-69.13335,"zip":"04932","miles_from_dt":20.32},{"city":"Thorndike","state_name":"Maine","lat":44.55286,"lng":-69.22354,"zip":"04986","miles_from_dt":20.56},{"city":"Lincolnville Center","state_name":"Maine","lat":44.29488,"lng":-69.10973,"zip":"04850","miles_from_dt":21.08},{"city":"Deer Isle","state_name":"Maine","lat":44.22275,"lng":-68.66581,"zip":"04627","miles_from_dt":21.26},{"city":"Searsmont","state_name":"Maine","lat":44.36229,"lng":-69.19303,"zip":"04973","miles_from_dt":21.56},{"city":"Ellsworth","state_name":"Maine","lat":44.66038,"lng":-68.41623,"zip":"04605","miles_from_dt":22},{"city":"Bangor","state_name":"Maine","lat":44.83297,"lng":-68.78927,"zip":"04402","miles_from_dt":22.15},{"city":"Carmel","state_name":"Maine","lat":44.7969,"lng":-69.03154,"zip":"04419","miles_from_dt":22.44},{"city":"Bangor","state_name":"Maine","lat":44.84711,"lng":-68.84654,"zip":"04401","miles_from_dt":23.17},{"city":"Eddington","state_name":"Maine","lat":44.80643,"lng":-68.55584,"zip":"04428","miles_from_dt":23.88},{"city":"Camden","state_name":"Maine","lat":44.22929,"lng":-69.08924,"zip":"04843","miles_from_dt":23.92},{"city":"Freedom","state_name":"Maine","lat":44.4654,"lng":-69.3017,"zip":"04941","miles_from_dt":24.47},{"city":"Etna","state_name":"Maine","lat":44.78529,"lng":-69.13385,"zip":"04434","miles_from_dt":24.65},{"city":"Troy","state_name":"Maine","lat":44.67915,"lng":-69.25361,"zip":"04987","miles_from_dt":24.68},{"city":"Seal Cove","state_name":"Maine","lat":44.29347,"lng":-68.40883,"zip":"04674","miles_from_dt":25},{"city":"Hancock","state_name":"Maine","lat":44.53803,"lng":-68.30573,"zip":"04640","miles_from_dt":25.02},{"city":"North Haven","state_name":"Maine","lat":44.15172,"lng":-68.86311,"zip":"04853","miles_from_dt":25.04},{"city":"Stonington","state_name":"Maine","lat":44.16655,"lng":-68.65646,"zip":"04681","miles_from_dt":25.09},{"city":"Hope","state_name":"Maine","lat":44.25104,"lng":-69.18962,"zip":"04847","miles_from_dt":26.02},{"city":"Orono","state_name":"Maine","lat":44.88594,"lng":-68.71888,"zip":"04473","miles_from_dt":26.18},{"city":"Mount Desert","state_name":"Maine","lat":44.34026,"lng":-68.33231,"zip":"04660","miles_from_dt":26.51},{"city":"Salsbury Cove","state_name":"Maine","lat":44.43057,"lng":-68.28396,"zip":"04672","miles_from_dt":26.67},{"city":"Plymouth","state_name":"Maine","lat":44.77019,"lng":-69.22461,"zip":"04969","miles_from_dt":27.06},{"city":"Levant","state_name":"Maine","lat":44.88645,"lng":-68.9977,"zip":"04456","miles_from_dt":27.41},{"city":"Unity","state_name":"Maine","lat":44.59588,"lng":-69.35959,"zip":"04988","miles_from_dt":27.69},{"city":"Bernard","state_name":"Maine","lat":44.25954,"lng":-68.37722,"zip":"04612","miles_from_dt":27.69},{"city":"Rockport","state_name":"Maine","lat":44.17798,"lng":-69.12007,"zip":"04856","miles_from_dt":27.71},{"city":"Orono","state_name":"Maine","lat":44.90251,"lng":-68.66624,"zip":"04469","miles_from_dt":27.86},{"city":"West Rockport","state_name":"Maine","lat":44.18957,"lng":-69.15183,"zip":"04865","miles_from_dt":27.97},{"city":"Liberty","state_name":"Maine","lat":44.36712,"lng":-69.34029,"zip":"04949","miles_from_dt":28.04},{"city":"Stillwater","state_name":"Maine","lat":44.91074,"lng":-68.69119,"zip":"04489","miles_from_dt":28.12},{"city":"Bar Harbor","state_name":"Maine","lat":44.38518,"lng":-68.27108,"zip":"04609","miles_from_dt":28.12},{"city":"Kenduskeag","state_name":"Maine","lat":44.91593,"lng":-68.92797,"zip":"04450","miles_from_dt":28.44},{"city":"Bradley","state_name":"Maine","lat":44.88634,"lng":-68.56672,"zip":"04411","miles_from_dt":28.48},{"city":"Hulls Cove","state_name":"Maine","lat":44.4144,"lng":-68.25084,"zip":"04644","miles_from_dt":28.52},{"city":"Southwest Harbor","state_name":"Maine","lat":44.27843,"lng":-68.33247,"zip":"04679","miles_from_dt":28.68},{"city":"Union","state_name":"Maine","lat":44.26186,"lng":-69.27703,"zip":"04862","miles_from_dt":28.84},{"city":"Stetson","state_name":"Maine","lat":44.87586,"lng":-69.11143,"zip":"04488","miles_from_dt":29.13},{"city":"East Newport","state_name":"Maine","lat":44.82036,"lng":-69.22429,"zip":"04933","miles_from_dt":29.44},{"city":"Northeast Harbor","state_name":"Maine","lat":44.30766,"lng":-68.28735,"zip":"04662","miles_from_dt":29.53},{"city":"Bass Harbor","state_name":"Maine","lat":44.23705,"lng":-68.3431,"zip":"04653","miles_from_dt":29.98},{"city":"Vinalhaven","state_name":"Maine","lat":44.07898,"lng":-68.84384,"zip":"04863","miles_from_dt":29.98}],"targetCityZipCode":"04972","targetCityState":"Maine"},"__N_SSG":true}