{"pageProps":{"stateName":"Maine","cityName":"sheridan","nearbyCities":[{"city":"Ashland","state_name":"Maine","lat":46.56679,"lng":-68.49326,"zip":"04732","miles_from_dt":7.5},{"city":"Mapleton","state_name":"Maine","lat":46.6141,"lng":-68.18278,"zip":"04757","miles_from_dt":10.99},{"city":"Washburn","state_name":"Maine","lat":46.79207,"lng":-68.17878,"zip":"04786","miles_from_dt":14.25},{"city":"Crouseville","state_name":"Maine","lat":46.75854,"lng":-68.09583,"zip":"04738","miles_from_dt":16.3},{"city":"Perham","state_name":"Maine","lat":46.88162,"lng":-68.23911,"zip":"04766","miles_from_dt":17.41},{"city":"Presque Isle","state_name":"Maine","lat":46.68676,"lng":-67.98737,"zip":"04769","miles_from_dt":19.98},{"city":"Oxbow","state_name":"Maine","lat":46.36843,"lng":-68.34229,"zip":"04764","miles_from_dt":20.15},{"city":"Westfield","state_name":"Maine","lat":46.55166,"lng":-67.97685,"zip":"04787","miles_from_dt":21.65},{"city":"Portage","state_name":"Maine","lat":46.7878,"lng":-68.82875,"zip":"04768","miles_from_dt":22.05},{"city":"Eagle Lake","state_name":"Maine","lat":46.97137,"lng":-68.61049,"zip":"04739","miles_from_dt":23.8},{"city":"Caribou","state_name":"Maine","lat":46.90661,"lng":-68.01998,"zip":"04736","miles_from_dt":25.14},{"city":"New Sweden","state_name":"Maine","lat":46.97574,"lng":-68.12094,"zip":"04762","miles_from_dt":25.82},{"city":"Blaine","state_name":"Maine","lat":46.48479,"lng":-67.91955,"zip":"04734","miles_from_dt":26.01},{"city":"Easton","state_name":"Maine","lat":46.64325,"lng":-67.85487,"zip":"04740","miles_from_dt":26.2},{"city":"Bridgewater","state_name":"Maine","lat":46.38072,"lng":-68.02865,"zip":"04735","miles_from_dt":26.2},{"city":"Fort Fairfield","state_name":"Maine","lat":46.77766,"lng":-67.85526,"zip":"04742","miles_from_dt":27.43},{"city":"Mars Hill","state_name":"Maine","lat":46.55426,"lng":-67.84732,"zip":"04758","miles_from_dt":27.49},{"city":"Stockholm","state_name":"Maine","lat":47.03586,"lng":-68.18907,"zip":"04783","miles_from_dt":28.11}],"targetCityZipCode":"04775","targetCityState":"Maine"},"__N_SSG":true}