{"pageProps":{"stateName":"Maine","cityName":"south-windham","nearbyCities":[{"city":"Gorham","state_name":"Maine","lat":43.70343,"lng":-70.4581,"zip":"04038","miles_from_dt":2.24},{"city":"Windham","state_name":"Maine","lat":43.79798,"lng":-70.40547,"zip":"04062","miles_from_dt":4.8},{"city":"Westbrook","state_name":"Maine","lat":43.69542,"lng":-70.35389,"zip":"04092","miles_from_dt":5.12},{"city":"Westbrook","state_name":"Maine","lat":43.67596,"lng":-70.36572,"zip":"04098","miles_from_dt":5.5},{"city":"Standish","state_name":"Maine","lat":43.76637,"lng":-70.55893,"zip":"04084","miles_from_dt":6.3},{"city":"Portland","state_name":"Maine","lat":43.65331,"lng":-70.3319,"zip":"04122","miles_from_dt":7.8},{"city":"Buxton","state_name":"Maine","lat":43.64282,"lng":-70.53765,"zip":"04093","miles_from_dt":7.9},{"city":"Portland","state_name":"Maine","lat":43.65207,"lng":-70.33002,"zip":"04124","miles_from_dt":7.93},{"city":"Falmouth","state_name":"Maine","lat":43.74753,"lng":-70.2825,"zip":"04105","miles_from_dt":8.02},{"city":"Portland","state_name":"Maine","lat":43.69392,"lng":-70.2909,"zip":"04103","miles_from_dt":8.03},{"city":"Portland","state_name":"Maine","lat":43.65953,"lng":-70.306,"zip":"04123","miles_from_dt":8.5},{"city":"Portland","state_name":"Maine","lat":43.65877,"lng":-70.30622,"zip":"04102","miles_from_dt":8.52},{"city":"Bar Mills","state_name":"Maine","lat":43.66486,"lng":-70.60122,"zip":"04004","miles_from_dt":9.3},{"city":"Steep Falls","state_name":"Maine","lat":43.7809,"lng":-70.62553,"zip":"04085","miles_from_dt":9.77},{"city":"Cumberland Center","state_name":"Maine","lat":43.79756,"lng":-70.26519,"zip":"04021","miles_from_dt":9.87},{"city":"South Portland","state_name":"Maine","lat":43.65998,"lng":-70.2672,"zip":"04116","miles_from_dt":10.1},{"city":"South Casco","state_name":"Maine","lat":43.87173,"lng":-70.51401,"zip":"04077","miles_from_dt":10.2},{"city":"Portland","state_name":"Maine","lat":43.66058,"lng":-70.26238,"zip":"04104","miles_from_dt":10.29},{"city":"South Portland","state_name":"Maine","lat":43.63081,"lng":-70.28972,"zip":"04106","miles_from_dt":10.4},{"city":"Portland","state_name":"Maine","lat":43.6624,"lng":-70.2586,"zip":"04101","miles_from_dt":10.4},{"city":"Scarborough","state_name":"Maine","lat":43.59103,"lng":-70.3683,"zip":"04074","miles_from_dt":10.51},{"city":"Raymond","state_name":"Maine","lat":43.89598,"lng":-70.48133,"zip":"04071","miles_from_dt":11.39},{"city":"Scarborough","state_name":"Maine","lat":43.57028,"lng":-70.38833,"zip":"04070","miles_from_dt":11.59},{"city":"Hollis Center","state_name":"Maine","lat":43.62953,"lng":-70.62453,"zip":"04042","miles_from_dt":11.65},{"city":"Gray","state_name":"Maine","lat":43.88744,"lng":-70.34532,"zip":"04039","miles_from_dt":11.66},{"city":"Cumberland Foreside","state_name":"Maine","lat":43.75834,"lng":-70.19905,"zip":"04110","miles_from_dt":12.26},{"city":"Portland","state_name":"Maine","lat":43.66671,"lng":-70.20581,"zip":"04112","miles_from_dt":12.68},{"city":"Portland","state_name":"Maine","lat":43.66732,"lng":-70.19984,"zip":"04109","miles_from_dt":12.94},{"city":"Limington","state_name":"Maine","lat":43.7356,"lng":-70.70263,"zip":"04049","miles_from_dt":13.07},{"city":"North Yarmouth","state_name":"Maine","lat":43.85123,"lng":-70.23636,"zip":"04097","miles_from_dt":13.09},{"city":"Saco","state_name":"Maine","lat":43.53898,"lng":-70.46236,"zip":"04072","miles_from_dt":13.48},{"city":"Peaks Island","state_name":"Maine","lat":43.66057,"lng":-70.18901,"zip":"04108","miles_from_dt":13.62},{"city":"East Baldwin","state_name":"Maine","lat":43.83556,"lng":-70.67701,"zip":"04024","miles_from_dt":13.72},{"city":"Yarmouth","state_name":"Maine","lat":43.7978,"lng":-70.1719,"zip":"04096","miles_from_dt":14.2},{"city":"Cape Elizabeth","state_name":"Maine","lat":43.5891,"lng":-70.23801,"zip":"04107","miles_from_dt":14.27},{"city":"Old Orchard Beach","state_name":"Maine","lat":43.52635,"lng":-70.38985,"zip":"04064","miles_from_dt":14.54},{"city":"Long Island","state_name":"Maine","lat":43.69148,"lng":-70.15714,"zip":"04050","miles_from_dt":14.54},{"city":"Sebago","state_name":"Maine","lat":43.89479,"lng":-70.66007,"zip":"04029","miles_from_dt":15.59},{"city":"East Waterboro","state_name":"Maine","lat":43.59301,"lng":-70.69553,"zip":"04030","miles_from_dt":16.01},{"city":"Ocean Park","state_name":"Maine","lat":43.50145,"lng":-70.39551,"zip":"04063","miles_from_dt":16.19},{"city":"Chebeague Island","state_name":"Maine","lat":43.72974,"lng":-70.11317,"zip":"04017","miles_from_dt":16.44},{"city":"Casco","state_name":"Maine","lat":43.96503,"lng":-70.5205,"zip":"04015","miles_from_dt":16.46},{"city":"North Waterboro","state_name":"Maine","lat":43.63409,"lng":-70.74312,"zip":"04061","miles_from_dt":16.6},{"city":"Biddeford","state_name":"Maine","lat":43.49591,"lng":-70.49537,"zip":"04005","miles_from_dt":16.63},{"city":"West Baldwin","state_name":"Maine","lat":43.83035,"lng":-70.74858,"zip":"04091","miles_from_dt":16.75},{"city":"Pownal","state_name":"Maine","lat":43.89918,"lng":-70.18191,"zip":"04069","miles_from_dt":17.3},{"city":"Cliff Island","state_name":"Maine","lat":43.69149,"lng":-70.0999,"zip":"04019","miles_from_dt":17.35},{"city":"New Gloucester","state_name":"Maine","lat":43.96409,"lng":-70.29589,"zip":"04260","miles_from_dt":17.5},{"city":"Limerick","state_name":"Maine","lat":43.68862,"lng":-70.78642,"zip":"04048","miles_from_dt":17.55},{"city":"South Freeport","state_name":"Maine","lat":43.82136,"lng":-70.11161,"zip":"04078","miles_from_dt":17.58},{"city":"Biddeford","state_name":"Maine","lat":43.46592,"lng":-70.44074,"zip":"04007","miles_from_dt":18.48},{"city":"Naples","state_name":"Maine","lat":43.97065,"lng":-70.61444,"zip":"04055","miles_from_dt":18.51},{"city":"Cornish","state_name":"Maine","lat":43.76811,"lng":-70.81028,"zip":"04020","miles_from_dt":18.61},{"city":"Bustins Island","state_name":"Maine","lat":43.79861,"lng":-70.07465,"zip":"04013","miles_from_dt":18.9},{"city":"Freeport","state_name":"Maine","lat":43.85658,"lng":-70.10259,"zip":"04034","miles_from_dt":18.96},{"city":"Freeport","state_name":"Maine","lat":43.85647,"lng":-70.10233,"zip":"04033","miles_from_dt":18.97},{"city":"Freeport","state_name":"Maine","lat":43.85561,"lng":-70.10085,"zip":"04032","miles_from_dt":19.01},{"city":"Waterboro","state_name":"Maine","lat":43.56234,"lng":-70.74529,"zip":"04087","miles_from_dt":19.28},{"city":"Alfred","state_name":"Maine","lat":43.49572,"lng":-70.67922,"zip":"04002","miles_from_dt":20.29},{"city":"East Poland","state_name":"Maine","lat":44.02535,"lng":-70.38649,"zip":"04230","miles_from_dt":20.33},{"city":"Biddeford Pool","state_name":"Maine","lat":43.44397,"lng":-70.34272,"zip":"04006","miles_from_dt":20.6},{"city":"West Poland","state_name":"Maine","lat":44.04066,"lng":-70.4446,"zip":"04291","miles_from_dt":21.2},{"city":"Hiram","state_name":"Maine","lat":43.86416,"lng":-70.82631,"zip":"04041","miles_from_dt":21.25},{"city":"Newfield","state_name":"Maine","lat":43.66066,"lng":-70.85875,"zip":"04056","miles_from_dt":21.5},{"city":"Poland","state_name":"Maine","lat":44.04634,"lng":-70.38999,"zip":"04274","miles_from_dt":21.74},{"city":"Kennebunkport","state_name":"Maine","lat":43.42027,"lng":-70.4921,"zip":"04046","miles_from_dt":21.78},{"city":"Danville","state_name":"Maine","lat":44.0303,"lng":-70.27433,"zip":"04223","miles_from_dt":22.12},{"city":"Durham","state_name":"Maine","lat":43.9644,"lng":-70.12954,"zip":"04222","miles_from_dt":22.29},{"city":"West Minot","state_name":"Maine","lat":44.05699,"lng":-70.41347,"zip":"04288","miles_from_dt":22.37},{"city":"Cape Porpoise","state_name":"Maine","lat":43.4089,"lng":-70.47573,"zip":"04014","miles_from_dt":22.48},{"city":"Bailey Island","state_name":"Maine","lat":43.73362,"lng":-69.98724,"zip":"04003","miles_from_dt":22.74},{"city":"West Kennebunk","state_name":"Maine","lat":43.42644,"lng":-70.63045,"zip":"04094","miles_from_dt":23.23},{"city":"Shapleigh","state_name":"Maine","lat":43.55248,"lng":-70.83793,"zip":"04076","miles_from_dt":23.48},{"city":"Parsonsfield","state_name":"Maine","lat":43.73552,"lng":-70.91152,"zip":"04047","miles_from_dt":23.53},{"city":"Orrs Island","state_name":"Maine","lat":43.77332,"lng":-69.96808,"zip":"04066","miles_from_dt":23.85},{"city":"East Parsonsfield","state_name":"Maine","lat":43.76527,"lng":-70.91794,"zip":"04028","miles_from_dt":23.94},{"city":"Kennebunk","state_name":"Maine","lat":43.39721,"lng":-70.57071,"zip":"04043","miles_from_dt":24.11},{"city":"West Newfield","state_name":"Maine","lat":43.63925,"lng":-70.90749,"zip":"04095","miles_from_dt":24.24},{"city":"Denmark","state_name":"Maine","lat":43.98055,"lng":-70.80718,"zip":"04022","miles_from_dt":24.99},{"city":"Harpswell","state_name":"Maine","lat":43.80343,"lng":-69.94972,"zip":"04079","miles_from_dt":25.07},{"city":"Mechanic Falls","state_name":"Maine","lat":44.10294,"lng":-70.40733,"zip":"04256","miles_from_dt":25.56},{"city":"Lisbon","state_name":"Maine","lat":44.02582,"lng":-70.11706,"zip":"04250","miles_from_dt":25.88},{"city":"Brunswick","state_name":"Maine","lat":43.90068,"lng":-69.97607,"zip":"04011","miles_from_dt":25.97},{"city":"Auburn","state_name":"Maine","lat":44.08432,"lng":-70.25126,"zip":"04212","miles_from_dt":26.01},{"city":"Auburn","state_name":"Maine","lat":44.08333,"lng":-70.24712,"zip":"04211","miles_from_dt":26.02},{"city":"Porter","state_name":"Maine","lat":43.84009,"lng":-70.9409,"zip":"04068","miles_from_dt":26.04},{"city":"Auburn","state_name":"Maine","lat":44.08505,"lng":-70.24923,"zip":"04210","miles_from_dt":26.09},{"city":"Springvale","state_name":"Maine","lat":43.46728,"lng":-70.81359,"zip":"04083","miles_from_dt":26.2},{"city":"Bridgton","state_name":"Maine","lat":44.04791,"lng":-70.73632,"zip":"04009","miles_from_dt":26.22},{"city":"Oxford","state_name":"Maine","lat":44.11241,"lng":-70.51559,"zip":"04270","miles_from_dt":26.41},{"city":"Sanford","state_name":"Maine","lat":43.41301,"lng":-70.74237,"zip":"04073","miles_from_dt":26.79},{"city":"Brownfield","state_name":"Maine","lat":43.93341,"lng":-70.91718,"zip":"04010","miles_from_dt":27.48},{"city":"Lisbon Falls","state_name":"Maine","lat":44.02719,"lng":-70.06011,"zip":"04252","miles_from_dt":27.82},{"city":"Acton","state_name":"Maine","lat":43.52991,"lng":-70.92078,"zip":"04001","miles_from_dt":27.84},{"city":"Lewiston","state_name":"Maine","lat":44.08585,"lng":-70.17009,"zip":"04241","miles_from_dt":27.84},{"city":"Lewiston","state_name":"Maine","lat":44.09208,"lng":-70.17594,"zip":"04243","miles_from_dt":28.08},{"city":"North Bridgton","state_name":"Maine","lat":44.09563,"lng":-70.70177,"zip":"04057","miles_from_dt":28.17},{"city":"Lewiston","state_name":"Maine","lat":44.09147,"lng":-70.16808,"zip":"04240","miles_from_dt":28.23},{"city":"East Wakefield","state_name":"New Hampshire","lat":43.63549,"lng":-70.99568,"zip":"03830","miles_from_dt":28.58},{"city":"Topsham","state_name":"Maine","lat":43.96145,"lng":-69.95872,"zip":"04086","miles_from_dt":28.8},{"city":"Moody","state_name":"Maine","lat":43.33063,"lng":-70.60575,"zip":"04054","miles_from_dt":29.02},{"city":"Minot","state_name":"Maine","lat":44.14829,"lng":-70.33794,"zip":"04258","miles_from_dt":29.09},{"city":"Harrison","state_name":"Maine","lat":44.10922,"lng":-70.71784,"zip":"04040","miles_from_dt":29.37},{"city":"Wells","state_name":"Maine","lat":43.32669,"lng":-70.63356,"zip":"04090","miles_from_dt":29.7},{"city":"Sebasco Estates","state_name":"Maine","lat":43.77881,"lng":-69.84846,"zip":"04565","miles_from_dt":29.84}],"targetCityZipCode":"04082","targetCityState":"Maine"},"__N_SSG":true}