{"pageProps":{"stateName":"Maine","cityName":"south-berwick","nearbyCities":[{"city":"Rollinsford","state_name":"New Hampshire","lat":43.22092,"lng":-70.83995,"zip":"03869","miles_from_dt":4.8},{"city":"Dover","state_name":"New Hampshire","lat":43.21818,"lng":-70.84109,"zip":"03822","miles_from_dt":4.9},{"city":"Cape Neddick","state_name":"Maine","lat":43.22246,"lng":-70.63788,"zip":"03902","miles_from_dt":5.66},{"city":"York","state_name":"Maine","lat":43.16786,"lng":-70.68105,"zip":"03909","miles_from_dt":5.93},{"city":"Eliot","state_name":"Maine","lat":43.14885,"lng":-70.786,"zip":"03903","miles_from_dt":6.47},{"city":"Berwick","state_name":"Maine","lat":43.30063,"lng":-70.84397,"zip":"03901","miles_from_dt":6.48},{"city":"Ogunquit","state_name":"Maine","lat":43.25474,"lng":-70.611,"zip":"03907","miles_from_dt":7},{"city":"Somersworth","state_name":"New Hampshire","lat":43.25335,"lng":-70.88555,"zip":"03878","miles_from_dt":7.02},{"city":"North Berwick","state_name":"Maine","lat":43.3447,"lng":-70.77759,"zip":"03906","miles_from_dt":7.49},{"city":"Dover","state_name":"New Hampshire","lat":43.18933,"lng":-70.88428,"zip":"03820","miles_from_dt":7.67},{"city":"York Beach","state_name":"Maine","lat":43.17374,"lng":-70.60842,"zip":"03910","miles_from_dt":8.34},{"city":"Wells","state_name":"Maine","lat":43.32669,"lng":-70.63356,"zip":"04090","miles_from_dt":8.39},{"city":"Dover","state_name":"New Hampshire","lat":43.18875,"lng":-70.90283,"zip":"03821","miles_from_dt":8.54},{"city":"Kittery","state_name":"Maine","lat":43.11025,"lng":-70.73201,"zip":"03904","miles_from_dt":8.88},{"city":"York Harbor","state_name":"Maine","lat":43.13424,"lng":-70.63695,"zip":"03911","miles_from_dt":9.12},{"city":"Moody","state_name":"Maine","lat":43.33063,"lng":-70.60575,"zip":"04054","miles_from_dt":9.59},{"city":"Madbury","state_name":"New Hampshire","lat":43.17488,"lng":-70.94089,"zip":"03823","miles_from_dt":10.68},{"city":"Portsmouth","state_name":"New Hampshire","lat":43.07876,"lng":-70.7577,"zip":"03802","miles_from_dt":11.03},{"city":"Kittery Point","state_name":"Maine","lat":43.08481,"lng":-70.68449,"zip":"03905","miles_from_dt":11.08},{"city":"Portsmouth","state_name":"New Hampshire","lat":43.07594,"lng":-70.75904,"zip":"03804","miles_from_dt":11.23},{"city":"Rochester","state_name":"New Hampshire","lat":43.31879,"lng":-70.9415,"zip":"03868","miles_from_dt":11.23},{"city":"Portsmouth","state_name":"New Hampshire","lat":43.07293,"lng":-70.8052,"zip":"03801","miles_from_dt":11.78},{"city":"Rochester","state_name":"New Hampshire","lat":43.26256,"lng":-70.98254,"zip":"03839","miles_from_dt":11.95},{"city":"New Castle","state_name":"New Hampshire","lat":43.06558,"lng":-70.72003,"zip":"03854","miles_from_dt":12.01},{"city":"Durham","state_name":"New Hampshire","lat":43.11744,"lng":-70.91937,"zip":"03824","miles_from_dt":12.03},{"city":"Sanford","state_name":"Maine","lat":43.41301,"lng":-70.74237,"zip":"04073","miles_from_dt":12.06},{"city":"Portsmouth","state_name":"New Hampshire","lat":43.06776,"lng":-70.80053,"zip":"03803","miles_from_dt":12.07},{"city":"Rochester","state_name":"New Hampshire","lat":43.30101,"lng":-70.97734,"zip":"03866","miles_from_dt":12.35},{"city":"Rochester","state_name":"New Hampshire","lat":43.3031,"lng":-70.98891,"zip":"03867","miles_from_dt":12.95},{"city":"Lebanon","state_name":"Maine","lat":43.40333,"lng":-70.91155,"zip":"04027","miles_from_dt":14.06},{"city":"Kennebunk","state_name":"Maine","lat":43.39721,"lng":-70.57071,"zip":"04043","miles_from_dt":14.14},{"city":"West Kennebunk","state_name":"Maine","lat":43.42644,"lng":-70.63045,"zip":"04094","miles_from_dt":14.27},{"city":"Greenland","state_name":"New Hampshire","lat":43.03853,"lng":-70.84803,"zip":"03840","miles_from_dt":14.69},{"city":"Barrington","state_name":"New Hampshire","lat":43.21366,"lng":-71.04227,"zip":"03825","miles_from_dt":14.96},{"city":"Rye","state_name":"New Hampshire","lat":43.0157,"lng":-70.76052,"zip":"03870","miles_from_dt":15.39},{"city":"Lee","state_name":"New Hampshire","lat":43.11931,"lng":-71.0068,"zip":"03861","miles_from_dt":15.45},{"city":"Newmarket","state_name":"New Hampshire","lat":43.0691,"lng":-70.95164,"zip":"03857","miles_from_dt":15.57},{"city":"Springvale","state_name":"Maine","lat":43.46728,"lng":-70.81359,"zip":"04083","miles_from_dt":16.14},{"city":"Stratham","state_name":"New Hampshire","lat":43.01579,"lng":-70.90051,"zip":"03885","miles_from_dt":17.19},{"city":"Newfields","state_name":"New Hampshire","lat":43.03916,"lng":-70.96627,"zip":"03856","miles_from_dt":17.63},{"city":"Rye Beach","state_name":"New Hampshire","lat":42.9807,"lng":-70.77358,"zip":"03871","miles_from_dt":17.84},{"city":"Kennebunkport","state_name":"Maine","lat":43.42027,"lng":-70.4921,"zip":"04046","miles_from_dt":18},{"city":"Cape Porpoise","state_name":"Maine","lat":43.4089,"lng":-70.47573,"zip":"04014","miles_from_dt":18.08},{"city":"Alfred","state_name":"Maine","lat":43.49572,"lng":-70.67922,"zip":"04002","miles_from_dt":18.1},{"city":"North Hampton","state_name":"New Hampshire","lat":42.97914,"lng":-70.83025,"zip":"03862","miles_from_dt":18.37},{"city":"Center Strafford","state_name":"New Hampshire","lat":43.25826,"lng":-71.11509,"zip":"03815","miles_from_dt":18.58},{"city":"Farmington","state_name":"New Hampshire","lat":43.36319,"lng":-71.07605,"zip":"03835","miles_from_dt":18.65},{"city":"Milton","state_name":"New Hampshire","lat":43.43606,"lng":-71.01633,"zip":"03851","miles_from_dt":19.21},{"city":"West Nottingham","state_name":"New Hampshire","lat":43.17976,"lng":-71.14205,"zip":"03291","miles_from_dt":20.31},{"city":"Nottingham","state_name":"New Hampshire","lat":43.12391,"lng":-71.12089,"zip":"03290","miles_from_dt":20.43},{"city":"Strafford","state_name":"New Hampshire","lat":43.28018,"lng":-71.14885,"zip":"03884","miles_from_dt":20.43},{"city":"Hampton","state_name":"New Hampshire","lat":42.94099,"lng":-70.82507,"zip":"03843","miles_from_dt":20.9},{"city":"Epping","state_name":"New Hampshire","lat":43.05009,"lng":-71.07467,"zip":"03042","miles_from_dt":21.02},{"city":"Hampton","state_name":"New Hampshire","lat":42.93941,"lng":-70.83697,"zip":"03842","miles_from_dt":21.12},{"city":"Milton Mills","state_name":"New Hampshire","lat":43.4982,"lng":-70.97547,"zip":"03852","miles_from_dt":21.28},{"city":"Biddeford","state_name":"Maine","lat":43.49591,"lng":-70.49537,"zip":"04005","miles_from_dt":21.86},{"city":"Exeter","state_name":"New Hampshire","lat":42.97464,"lng":-70.98885,"zip":"03833","miles_from_dt":21.91},{"city":"Acton","state_name":"Maine","lat":43.52991,"lng":-70.92078,"zip":"04001","miles_from_dt":21.93},{"city":"Biddeford","state_name":"Maine","lat":43.46592,"lng":-70.44074,"zip":"04007","miles_from_dt":22.05},{"city":"Shapleigh","state_name":"Maine","lat":43.55248,"lng":-70.83793,"zip":"04076","miles_from_dt":22.15},{"city":"Waterboro","state_name":"Maine","lat":43.56234,"lng":-70.74529,"zip":"04087","miles_from_dt":22.36},{"city":"Hampton Falls","state_name":"New Hampshire","lat":42.92693,"lng":-70.88603,"zip":"03844","miles_from_dt":22.61},{"city":"Northwood","state_name":"New Hampshire","lat":43.21322,"lng":-71.20966,"zip":"03261","miles_from_dt":23.37},{"city":"Union","state_name":"New Hampshire","lat":43.48485,"lng":-71.0662,"zip":"03887","miles_from_dt":23.38},{"city":"East Waterboro","state_name":"Maine","lat":43.59301,"lng":-70.69553,"zip":"04030","miles_from_dt":24.62},{"city":"Biddeford Pool","state_name":"Maine","lat":43.44397,"lng":-70.34272,"zip":"04006","miles_from_dt":24.87},{"city":"Seabrook","state_name":"New Hampshire","lat":42.88689,"lng":-70.8607,"zip":"03874","miles_from_dt":24.93},{"city":"New Durham","state_name":"New Hampshire","lat":43.46343,"lng":-71.14172,"zip":"03855","miles_from_dt":25.2},{"city":"Saco","state_name":"Maine","lat":43.53898,"lng":-70.46236,"zip":"04072","miles_from_dt":25.25},{"city":"Ocean Park","state_name":"Maine","lat":43.50145,"lng":-70.39551,"zip":"04063","miles_from_dt":25.39},{"city":"Fremont","state_name":"New Hampshire","lat":42.98899,"lng":-71.12494,"zip":"03044","miles_from_dt":25.69},{"city":"East Kingston","state_name":"New Hampshire","lat":42.90691,"lng":-70.98774,"zip":"03827","miles_from_dt":25.9},{"city":"Center Barnstead","state_name":"New Hampshire","lat":43.36001,"lng":-71.23828,"zip":"03225","miles_from_dt":26.11},{"city":"Deerfield","state_name":"New Hampshire","lat":43.1395,"lng":-71.2535,"zip":"03037","miles_from_dt":26.43},{"city":"Old Orchard Beach","state_name":"Maine","lat":43.52635,"lng":-70.38985,"zip":"04064","miles_from_dt":26.84},{"city":"Raymond","state_name":"New Hampshire","lat":43.03219,"lng":-71.19945,"zip":"03077","miles_from_dt":26.9},{"city":"North Waterboro","state_name":"Maine","lat":43.63409,"lng":-70.74312,"zip":"04061","miles_from_dt":27.32},{"city":"Sanbornville","state_name":"New Hampshire","lat":43.57225,"lng":-71.04249,"zip":"03872","miles_from_dt":27.4},{"city":"Kingston","state_name":"New Hampshire","lat":42.91562,"lng":-71.06647,"zip":"03848","miles_from_dt":27.5},{"city":"Salisbury","state_name":"Massachusetts","lat":42.84655,"lng":-70.86163,"zip":"01952","miles_from_dt":27.65},{"city":"Alton","state_name":"New Hampshire","lat":43.45321,"lng":-71.21184,"zip":"03809","miles_from_dt":27.68},{"city":"Hollis Center","state_name":"Maine","lat":43.62953,"lng":-70.62453,"zip":"04042","miles_from_dt":27.71},{"city":"Barnstead","state_name":"New Hampshire","lat":43.33465,"lng":-71.28803,"zip":"03218","miles_from_dt":28.04},{"city":"Amesbury","state_name":"Massachusetts","lat":42.85297,"lng":-70.94459,"zip":"01913","miles_from_dt":28.41},{"city":"Danville","state_name":"New Hampshire","lat":42.93012,"lng":-71.12197,"zip":"03819","miles_from_dt":28.48},{"city":"East Candia","state_name":"New Hampshire","lat":43.04548,"lng":-71.24706,"zip":"03040","miles_from_dt":28.53},{"city":"Pittsfield","state_name":"New Hampshire","lat":43.29483,"lng":-71.31133,"zip":"03263","miles_from_dt":28.69},{"city":"West Newfield","state_name":"Maine","lat":43.63925,"lng":-70.90749,"zip":"04095","miles_from_dt":28.81},{"city":"Scarborough","state_name":"Maine","lat":43.57028,"lng":-70.38833,"zip":"04070","miles_from_dt":29.2},{"city":"Newton","state_name":"New Hampshire","lat":42.86839,"lng":-71.04357,"zip":"03858","miles_from_dt":29.6},{"city":"Newfield","state_name":"Maine","lat":43.66066,"lng":-70.85875,"zip":"04056","miles_from_dt":29.68},{"city":"Buxton","state_name":"Maine","lat":43.64282,"lng":-70.53765,"zip":"04093","miles_from_dt":29.86},{"city":"Epsom","state_name":"New Hampshire","lat":43.21484,"lng":-71.33914,"zip":"03234","miles_from_dt":29.89}],"targetCityZipCode":"03908","targetCityState":"Maine"},"__N_SSG":true}