{"pageProps":{"stateName":"Florida","cityName":"apollo-beach","nearbyCities":[{"city":"Sun City Center","state_name":"Florida","lat":27.72056,"lng":-82.43333,"zip":"33571","miles_from_dt":3.73},{"city":"Ruskin","state_name":"Florida","lat":27.72202,"lng":-82.43599,"zip":"33575","miles_from_dt":3.74},{"city":"Sun City Center","state_name":"Florida","lat":27.72179,"lng":-82.36,"zip":"33573","miles_from_dt":3.9},{"city":"Gibsonton","state_name":"Florida","lat":27.82273,"lng":-82.37505,"zip":"33534","miles_from_dt":4.2},{"city":"Ruskin","state_name":"Florida","lat":27.69354,"lng":-82.45861,"zip":"33570","miles_from_dt":6.14},{"city":"Riverview","state_name":"Florida","lat":27.86187,"lng":-82.34775,"zip":"33578","miles_from_dt":7.34},{"city":"Riverview","state_name":"Florida","lat":27.79585,"lng":-82.28376,"zip":"33579","miles_from_dt":7.41},{"city":"Balm","state_name":"Florida","lat":27.76375,"lng":-82.27425,"zip":"33503","miles_from_dt":7.7},{"city":"Sun City","state_name":"Florida","lat":27.67566,"lng":-82.4791,"zip":"33586","miles_from_dt":7.88},{"city":"Tampa","state_name":"Florida","lat":27.8436,"lng":-82.50089,"zip":"33621","miles_from_dt":8.17},{"city":"Wimauma","state_name":"Florida","lat":27.69531,"lng":-82.29025,"zip":"33598","miles_from_dt":8.3},{"city":"Riverview","state_name":"Florida","lat":27.84429,"lng":-82.29069,"zip":"33569","miles_from_dt":8.6},{"city":"Riverview","state_name":"Florida","lat":27.86872,"lng":-82.31959,"zip":"33568","miles_from_dt":8.62},{"city":"Tampa","state_name":"Florida","lat":27.84162,"lng":-82.51311,"zip":"33608","miles_from_dt":8.67},{"city":"Brandon","state_name":"Florida","lat":27.89486,"lng":-82.33095,"zip":"33509","miles_from_dt":9.83},{"city":"Tampa","state_name":"Florida","lat":27.86851,"lng":-82.52647,"zip":"33686","miles_from_dt":10.48},{"city":"Tampa","state_name":"Florida","lat":27.86712,"lng":-82.5287,"zip":"33616","miles_from_dt":10.52},{"city":"Tampa","state_name":"Florida","lat":27.89059,"lng":-82.50632,"zip":"33611","miles_from_dt":10.77},{"city":"Tampa","state_name":"Florida","lat":27.93115,"lng":-82.3759,"zip":"33660","miles_from_dt":11.47},{"city":"Tampa","state_name":"Florida","lat":27.89387,"lng":-82.52568,"zip":"33681","miles_from_dt":11.7},{"city":"Tampa","state_name":"Florida","lat":27.93536,"lng":-82.37841,"zip":"33619","miles_from_dt":11.74},{"city":"Brandon","state_name":"Florida","lat":27.9099,"lng":-82.29405,"zip":"33511","miles_from_dt":11.85},{"city":"Tampa","state_name":"Florida","lat":27.93209,"lng":-82.46493,"zip":"33606","miles_from_dt":12.11},{"city":"Tampa","state_name":"Florida","lat":27.92181,"lng":-82.51007,"zip":"33629","miles_from_dt":12.67},{"city":"Tampa","state_name":"Florida","lat":27.95121,"lng":-82.42924,"zip":"33605","miles_from_dt":12.89},{"city":"Tampa","state_name":"Florida","lat":27.94881,"lng":-82.45558,"zip":"33655","miles_from_dt":13.05},{"city":"Valrico","state_name":"Florida","lat":27.88765,"lng":-82.23591,"zip":"33596","miles_from_dt":13.08},{"city":"Tampa","state_name":"Florida","lat":27.95039,"lng":-82.45966,"zip":"33689","miles_from_dt":13.22},{"city":"Tampa","state_name":"Florida","lat":27.95,"lng":-82.46219,"zip":"33646","miles_from_dt":13.24},{"city":"Tampa","state_name":"Florida","lat":27.95371,"lng":-82.45675,"zip":"33602","miles_from_dt":13.39},{"city":"Tampa","state_name":"Florida","lat":27.95452,"lng":-82.4571,"zip":"33622","miles_from_dt":13.45},{"city":"Tampa","state_name":"Florida","lat":27.95413,"lng":-82.45872,"zip":"33623","miles_from_dt":13.45},{"city":"Tampa","state_name":"Florida","lat":27.95587,"lng":-82.45499,"zip":"33672","miles_from_dt":13.51},{"city":"Brandon","state_name":"Florida","lat":27.94,"lng":-82.29219,"zip":"33508","miles_from_dt":13.68},{"city":"Tampa","state_name":"Florida","lat":27.94307,"lng":-82.51108,"zip":"33609","miles_from_dt":13.97},{"city":"Saint Petersburg","state_name":"Florida","lat":27.81756,"lng":-82.62433,"zip":"33703","miles_from_dt":14.19},{"city":"Saint Petersburg","state_name":"Florida","lat":27.79666,"lng":-82.63292,"zip":"33704","miles_from_dt":14.42},{"city":"Brandon","state_name":"Florida","lat":27.95564,"lng":-82.29986,"zip":"33510","miles_from_dt":14.43},{"city":"Saint Petersburg","state_name":"Florida","lat":27.7705,"lng":-82.63566,"zip":"33701","miles_from_dt":14.44},{"city":"Tampa","state_name":"Florida","lat":27.95279,"lng":-82.50822,"zip":"33679","miles_from_dt":14.47},{"city":"Saint Petersburg","state_name":"Florida","lat":27.75637,"lng":-82.64351,"zip":"33732","miles_from_dt":14.93},{"city":"Saint Petersburg","state_name":"Florida","lat":27.73641,"lng":-82.64265,"zip":"33705","miles_from_dt":15},{"city":"Valrico","state_name":"Florida","lat":27.94707,"lng":-82.25894,"zip":"33595","miles_from_dt":15.17},{"city":"Tampa","state_name":"Florida","lat":27.98115,"lng":-82.343,"zip":"33601","miles_from_dt":15.23},{"city":"Saint Petersburg","state_name":"Florida","lat":27.84567,"lng":-82.63251,"zip":"33702","miles_from_dt":15.26},{"city":"Parrish","state_name":"Florida","lat":27.58041,"lng":-82.26094,"zip":"34219","miles_from_dt":15.36},{"city":"Saint Petersburg","state_name":"Florida","lat":27.80574,"lng":-82.64799,"zip":"33734","miles_from_dt":15.43},{"city":"Valrico","state_name":"Florida","lat":27.94081,"lng":-82.24207,"zip":"33594","miles_from_dt":15.44},{"city":"Tampa","state_name":"Florida","lat":27.96677,"lng":-82.51408,"zip":"33607","miles_from_dt":15.49},{"city":"Tampa","state_name":"Florida","lat":27.97788,"lng":-82.48708,"zip":"33633","miles_from_dt":15.54},{"city":"Tampa","state_name":"Florida","lat":27.98526,"lng":-82.46458,"zip":"33603","miles_from_dt":15.61},{"city":"Tampa","state_name":"Florida","lat":27.96624,"lng":-82.52019,"zip":"33677","miles_from_dt":15.63},{"city":"Palmetto","state_name":"Florida","lat":27.57777,"lng":-82.54285,"zip":"34221","miles_from_dt":15.64},{"city":"Tampa","state_name":"Florida","lat":27.96776,"lng":-82.51825,"zip":"33664","miles_from_dt":15.67},{"city":"Tampa","state_name":"Florida","lat":27.96881,"lng":-82.51842,"zip":"33650","miles_from_dt":15.74},{"city":"Tampa","state_name":"Florida","lat":27.96837,"lng":-82.51983,"zip":"33630","miles_from_dt":15.75},{"city":"Mango","state_name":"Florida","lat":27.97956,"lng":-82.30698,"zip":"33550","miles_from_dt":15.77},{"city":"Tampa","state_name":"Florida","lat":27.96269,"lng":-82.53349,"zip":"33631","miles_from_dt":15.82},{"city":"Saint Petersburg","state_name":"Florida","lat":27.84469,"lng":-82.64344,"zip":"33742","miles_from_dt":15.86},{"city":"Tampa","state_name":"Florida","lat":27.9972,"lng":-82.38015,"zip":"33610","miles_from_dt":15.97},{"city":"Lithia","state_name":"Florida","lat":27.77239,"lng":-82.13665,"zip":"33547","miles_from_dt":16.14},{"city":"Tampa","state_name":"Florida","lat":28.00275,"lng":-82.40093,"zip":"33680","miles_from_dt":16.31},{"city":"Tampa","state_name":"Florida","lat":27.9971,"lng":-82.45998,"zip":"33673","miles_from_dt":16.34},{"city":"Saint Petersburg","state_name":"Florida","lat":27.73719,"lng":-82.66535,"zip":"33712","miles_from_dt":16.38},{"city":"Tampa","state_name":"Florida","lat":27.99551,"lng":-82.49671,"zip":"33684","miles_from_dt":16.88},{"city":"Saint Petersburg","state_name":"Florida","lat":27.7706,"lng":-82.67773,"zip":"33733","miles_from_dt":17.01},{"city":"Durant","state_name":"Florida","lat":27.90773,"lng":-82.17236,"zip":"33530","miles_from_dt":17.02},{"city":"Saint Petersburg","state_name":"Florida","lat":27.78882,"lng":-82.67753,"zip":"33713","miles_from_dt":17.07},{"city":"Saint Petersburg","state_name":"Florida","lat":27.77249,"lng":-82.67989,"zip":"33747","miles_from_dt":17.15},{"city":"Saint Petersburg","state_name":"Florida","lat":27.8774,"lng":-82.65119,"zip":"33716","miles_from_dt":17.19},{"city":"Ellenton","state_name":"Florida","lat":27.53474,"lng":-82.50699,"zip":"34222","miles_from_dt":17.22},{"city":"Saint Petersburg","state_name":"Florida","lat":27.81696,"lng":-82.67794,"zip":"33714","miles_from_dt":17.38},{"city":"Saint Petersburg","state_name":"Florida","lat":27.70802,"lng":-82.67695,"zip":"33731","miles_from_dt":17.43},{"city":"Saint Petersburg","state_name":"Florida","lat":27.81553,"lng":-82.6797,"zip":"33784","miles_from_dt":17.47},{"city":"Tampa","state_name":"Florida","lat":28.01686,"lng":-82.45519,"zip":"33604","miles_from_dt":17.61},{"city":"Terra Ceia","state_name":"Florida","lat":27.57168,"lng":-82.58923,"zip":"34250","miles_from_dt":17.7},{"city":"Seffner","state_name":"Florida","lat":27.99987,"lng":-82.27766,"zip":"33583","miles_from_dt":17.76},{"city":"Saint Petersburg","state_name":"Florida","lat":27.73884,"lng":-82.68845,"zip":"33711","miles_from_dt":17.77},{"city":"Tampa","state_name":"Florida","lat":28.01875,"lng":-82.45789,"zip":"33674","miles_from_dt":17.77},{"city":"Tampa","state_name":"Florida","lat":28.00619,"lng":-82.50598,"zip":"33614","miles_from_dt":17.77},{"city":"Seffner","state_name":"Florida","lat":28.00637,"lng":-82.28959,"zip":"33584","miles_from_dt":17.88},{"city":"Saint Petersburg","state_name":"Florida","lat":27.87838,"lng":-82.66908,"zip":"33729","miles_from_dt":18.2},{"city":"Dover","state_name":"Florida","lat":27.97571,"lng":-82.2138,"zip":"33527","miles_from_dt":18.4},{"city":"Tampa","state_name":"Florida","lat":28.03597,"lng":-82.39098,"zip":"33687","miles_from_dt":18.6},{"city":"Bradenton","state_name":"Florida","lat":27.49559,"lng":-82.40528,"zip":"34212","miles_from_dt":18.62},{"city":"Tampa","state_name":"Florida","lat":28.03893,"lng":-82.39327,"zip":"33617","miles_from_dt":18.81},{"city":"Tampa","state_name":"Florida","lat":28.00769,"lng":-82.54614,"zip":"33634","miles_from_dt":18.9},{"city":"Sydney","state_name":"Florida","lat":27.9785,"lng":-82.20045,"zip":"33587","miles_from_dt":19.06},{"city":"Clearwater","state_name":"Florida","lat":27.89685,"lng":-82.67946,"zip":"33762","miles_from_dt":19.34},{"city":"Tampa","state_name":"Florida","lat":28.04715,"lng":-82.36118,"zip":"33637","miles_from_dt":19.51},{"city":"Tampa","state_name":"Florida","lat":28.00008,"lng":-82.58349,"zip":"33685","miles_from_dt":19.65},{"city":"Saint Petersburg","state_name":"Florida","lat":27.74913,"lng":-82.72293,"zip":"33707","miles_from_dt":19.82},{"city":"Tampa","state_name":"Florida","lat":28.05071,"lng":-82.451,"zip":"33612","miles_from_dt":19.86},{"city":"Tampa","state_name":"Florida","lat":28.00546,"lng":-82.58144,"zip":"33615","miles_from_dt":19.88},{"city":"Pinellas Park","state_name":"Florida","lat":27.83861,"lng":-82.71512,"zip":"33781","miles_from_dt":19.93},{"city":"Pinellas Park","state_name":"Florida","lat":27.85964,"lng":-82.70901,"zip":"33782","miles_from_dt":19.99},{"city":"Palmetto","state_name":"Florida","lat":27.52221,"lng":-82.57874,"zip":"34220","miles_from_dt":20.04},{"city":"Saint Petersburg","state_name":"Florida","lat":27.78243,"lng":-82.72762,"zip":"33743","miles_from_dt":20.1},{"city":"Plant City","state_name":"Florida","lat":27.92159,"lng":-82.1217,"zip":"33567","miles_from_dt":20.13},{"city":"Pinellas Park","state_name":"Florida","lat":27.84,"lng":-82.72079,"zip":"33780","miles_from_dt":20.29},{"city":"Tampa","state_name":"Florida","lat":28.05591,"lng":-82.45906,"zip":"33682","miles_from_dt":20.29},{"city":"Saint Petersburg","state_name":"Florida","lat":27.7898,"lng":-82.73069,"zip":"33710","miles_from_dt":20.32},{"city":"Tampa","state_name":"Florida","lat":28.06112,"lng":-82.41172,"zip":"33620","miles_from_dt":20.34},{"city":"Bradenton","state_name":"Florida","lat":27.48693,"lng":-82.51404,"zip":"34208","miles_from_dt":20.44},{"city":"Saint Petersburg","state_name":"Florida","lat":27.81721,"lng":-82.73075,"zip":"33709","miles_from_dt":20.56},{"city":"Saint Petersburg","state_name":"Florida","lat":27.66323,"lng":-82.72214,"zip":"33715","miles_from_dt":20.97},{"city":"Saint Petersburg","state_name":"Florida","lat":27.68806,"lng":-82.73385,"zip":"33741","miles_from_dt":21.15},{"city":"Tampa","state_name":"Florida","lat":28.06161,"lng":-82.50555,"zip":"33688","miles_from_dt":21.36},{"city":"Saint Petersburg","state_name":"Florida","lat":27.74275,"lng":-82.74843,"zip":"33736","miles_from_dt":21.4},{"city":"Clearwater","state_name":"Florida","lat":27.90535,"lng":-82.71389,"zip":"33760","miles_from_dt":21.48},{"city":"Saint Petersburg","state_name":"Florida","lat":27.74396,"lng":-82.75014,"zip":"33706","miles_from_dt":21.5},{"city":"Bradenton","state_name":"Florida","lat":27.49177,"lng":-82.5729,"zip":"34206","miles_from_dt":21.65},{"city":"Tampa","state_name":"Florida","lat":28.06931,"lng":-82.4972,"zip":"33694","miles_from_dt":21.72},{"city":"Bradenton","state_name":"Florida","lat":27.44944,"lng":-82.37738,"zip":"34211","miles_from_dt":21.83},{"city":"Bradenton","state_name":"Florida","lat":27.48956,"lng":-82.57961,"zip":"34281","miles_from_dt":21.99},{"city":"Tampa","state_name":"Florida","lat":28.07313,"lng":-82.49781,"zip":"33618","miles_from_dt":21.99},{"city":"Tampa","state_name":"Florida","lat":28.08344,"lng":-82.44873,"zip":"33613","miles_from_dt":22.07},{"city":"Tampa","state_name":"Florida","lat":28.02408,"lng":-82.61882,"zip":"33635","miles_from_dt":22.26},{"city":"Bradenton","state_name":"Florida","lat":27.48418,"lng":-82.5835,"zip":"34205","miles_from_dt":22.43},{"city":"Saint Petersburg","state_name":"Florida","lat":27.77001,"lng":-82.76635,"zip":"33740","miles_from_dt":22.44},{"city":"Seminole","state_name":"Florida","lat":27.85257,"lng":-82.76026,"zip":"33777","miles_from_dt":22.85},{"city":"Tampa","state_name":"Florida","lat":28.07903,"lng":-82.52608,"zip":"33624","miles_from_dt":22.9},{"city":"Tampa","state_name":"Florida","lat":28.06807,"lng":-82.56016,"zip":"33625","miles_from_dt":23},{"city":"Bay Pines","state_name":"Florida","lat":27.8084,"lng":-82.77451,"zip":"33744","miles_from_dt":23.12},{"city":"Bradenton","state_name":"Florida","lat":27.44319,"lng":-82.50834,"zip":"34203","miles_from_dt":23.19},{"city":"Largo","state_name":"Florida","lat":27.88156,"lng":-82.75594,"zip":"33773","miles_from_dt":23.2},{"city":"Bradenton","state_name":"Florida","lat":27.44262,"lng":-82.50755,"zip":"34204","miles_from_dt":23.22},{"city":"Plant City","state_name":"Florida","lat":27.99241,"lng":-82.1172,"zip":"33566","miles_from_dt":23.3},{"city":"Bradenton","state_name":"Florida","lat":27.49884,"lng":-82.63614,"zip":"34280","miles_from_dt":23.41},{"city":"Oneco","state_name":"Florida","lat":27.44535,"lng":-82.53688,"zip":"34264","miles_from_dt":23.62},{"city":"Bradenton","state_name":"Florida","lat":27.49489,"lng":-82.6433,"zip":"34209","miles_from_dt":23.89},{"city":"Largo","state_name":"Florida","lat":27.90585,"lng":-82.7583,"zip":"33771","miles_from_dt":23.96},{"city":"Clearwater","state_name":"Florida","lat":27.93679,"lng":-82.7424,"zip":"33764","miles_from_dt":24.03},{"city":"Thonotosassa","state_name":"Florida","lat":28.10087,"lng":-82.28698,"zip":"33592","miles_from_dt":24.08},{"city":"Plant City","state_name":"Florida","lat":28.01694,"lng":-82.12544,"zip":"33563","miles_from_dt":24.1},{"city":"Largo","state_name":"Florida","lat":27.91035,"lng":-82.76012,"zip":"33779","miles_from_dt":24.18},{"city":"Clearwater","state_name":"Florida","lat":27.98095,"lng":-82.7145,"zip":"33759","miles_from_dt":24.28},{"city":"Saint Petersburg","state_name":"Florida","lat":27.81192,"lng":-82.7933,"zip":"33708","miles_from_dt":24.29},{"city":"Tampa","state_name":"Florida","lat":28.06256,"lng":-82.61526,"zip":"33626","miles_from_dt":24.3},{"city":"Saint Petersburg","state_name":"Florida","lat":27.80136,"lng":-82.80116,"zip":"33738","miles_from_dt":24.69},{"city":"Bradenton","state_name":"Florida","lat":27.40722,"lng":-82.39254,"zip":"34202","miles_from_dt":24.7},{"city":"Tampa","state_name":"Florida","lat":28.11902,"lng":-82.4715,"zip":"33675","miles_from_dt":24.71},{"city":"Safety Harbor","state_name":"Florida","lat":28.00927,"lng":-82.69673,"zip":"34695","miles_from_dt":24.71},{"city":"Seminole","state_name":"Florida","lat":27.84531,"lng":-82.79457,"zip":"33775","miles_from_dt":24.77},{"city":"Seminole","state_name":"Florida","lat":27.84286,"lng":-82.79666,"zip":"33772","miles_from_dt":24.86},{"city":"Mulberry","state_name":"Florida","lat":27.8056,"lng":-81.99511,"zip":"33860","miles_from_dt":24.94},{"city":"Bradenton","state_name":"Florida","lat":27.4421,"lng":-82.58252,"zip":"34282","miles_from_dt":24.95},{"city":"Bradenton","state_name":"Florida","lat":27.43762,"lng":-82.57993,"zip":"34207","miles_from_dt":25.16},{"city":"Sarasota","state_name":"Florida","lat":27.42146,"lng":-82.53987,"zip":"34260","miles_from_dt":25.22},{"city":"Bradenton","state_name":"Florida","lat":27.4029,"lng":-82.46784,"zip":"34201","miles_from_dt":25.34},{"city":"Plant City","state_name":"Florida","lat":28.01923,"lng":-82.09795,"zip":"33564","miles_from_dt":25.41},{"city":"Tampa","state_name":"Florida","lat":28.13401,"lng":-82.36017,"zip":"33647","miles_from_dt":25.46},{"city":"Clearwater","state_name":"Florida","lat":27.97452,"lng":-82.74419,"zip":"33765","miles_from_dt":25.49},{"city":"Largo","state_name":"Florida","lat":27.88266,"lng":-82.79843,"zip":"33778","miles_from_dt":25.68},{"city":"Clearwater","state_name":"Florida","lat":27.97426,"lng":-82.7497,"zip":"33758","miles_from_dt":25.76},{"city":"Lutz","state_name":"Florida","lat":28.1392,"lng":-82.44624,"zip":"33549","miles_from_dt":25.86},{"city":"Oldsmar","state_name":"Florida","lat":28.05293,"lng":-82.67549,"zip":"34677","miles_from_dt":25.97},{"city":"Lutz","state_name":"Florida","lat":28.13788,"lng":-82.48184,"zip":"33548","miles_from_dt":26.1},{"city":"Anna Maria","state_name":"Florida","lat":27.52837,"lng":-82.7331,"zip":"34216","miles_from_dt":26.17},{"city":"Sarasota","state_name":"Florida","lat":27.40264,"lng":-82.52809,"zip":"34243","miles_from_dt":26.22},{"city":"Bradley","state_name":"Florida","lat":27.78829,"lng":-81.97256,"zip":"33835","miles_from_dt":26.22},{"city":"Holmes Beach","state_name":"Florida","lat":27.50154,"lng":-82.70982,"zip":"34218","miles_from_dt":26.31},{"city":"Tallevast","state_name":"Florida","lat":27.40267,"lng":-82.54109,"zip":"34270","miles_from_dt":26.47},{"city":"Saint Petersburg","state_name":"Florida","lat":27.82254,"lng":-82.82789,"zip":"33730","miles_from_dt":26.49},{"city":"Cortez","state_name":"Florida","lat":27.47444,"lng":-82.68409,"zip":"34215","miles_from_dt":26.58},{"city":"Clearwater","state_name":"Florida","lat":28.00298,"lng":-82.74347,"zip":"33763","miles_from_dt":26.61},{"city":"Bradenton","state_name":"Florida","lat":27.43897,"lng":-82.63117,"zip":"34210","miles_from_dt":26.61},{"city":"Bradenton Beach","state_name":"Florida","lat":27.48916,"lng":-82.7044,"zip":"34217","miles_from_dt":26.68},{"city":"Clearwater","state_name":"Florida","lat":28.03006,"lng":-82.71991,"zip":"33766","miles_from_dt":26.72},{"city":"Seminole","state_name":"Florida","lat":27.84975,"lng":-82.82634,"zip":"33776","miles_from_dt":26.74},{"city":"Largo","state_name":"Florida","lat":27.91477,"lng":-82.8035,"zip":"33770","miles_from_dt":26.74},{"city":"Plant City","state_name":"Florida","lat":28.08858,"lng":-82.15595,"zip":"33565","miles_from_dt":26.77},{"city":"Clearwater","state_name":"Florida","lat":27.94421,"lng":-82.79216,"zip":"33756","miles_from_dt":26.96},{"city":"Lutz","state_name":"Florida","lat":28.15788,"lng":-82.41007,"zip":"33559","miles_from_dt":27},{"city":"Clearwater","state_name":"Florida","lat":28.03103,"lng":-82.72511,"zip":"33761","miles_from_dt":27},{"city":"Largo","state_name":"Florida","lat":27.88275,"lng":-82.8278,"zip":"33774","miles_from_dt":27.4},{"city":"Clearwater","state_name":"Florida","lat":27.9793,"lng":-82.78007,"zip":"33755","miles_from_dt":27.51},{"city":"Clearwater","state_name":"Florida","lat":27.98002,"lng":-82.7809,"zip":"33757","miles_from_dt":27.58},{"city":"Lakeland","state_name":"Florida","lat":27.97933,"lng":-82.01866,"zip":"33811","miles_from_dt":27.58},{"city":"Sarasota","state_name":"Florida","lat":27.36673,"lng":-82.47724,"zip":"34235","miles_from_dt":27.89},{"city":"Lutz","state_name":"Florida","lat":28.15871,"lng":-82.51597,"zip":"33558","miles_from_dt":27.96},{"city":"Lakeland","state_name":"Florida","lat":27.95314,"lng":-81.99199,"zip":"33807","miles_from_dt":28.1},{"city":"Clearwater","state_name":"Florida","lat":27.96885,"lng":-82.80321,"zip":"33769","miles_from_dt":28.36},{"city":"Indian Rocks Beach","state_name":"Florida","lat":27.88559,"lng":-82.84425,"zip":"33785","miles_from_dt":28.42},{"city":"Dunedin","state_name":"Florida","lat":28.02655,"lng":-82.76426,"zip":"34697","miles_from_dt":28.61},{"city":"Belleair Beach","state_name":"Florida","lat":27.92385,"lng":-82.83635,"zip":"33786","miles_from_dt":28.84},{"city":"Sarasota","state_name":"Florida","lat":27.35361,"lng":-82.48663,"zip":"34230","miles_from_dt":28.88},{"city":"Sarasota","state_name":"Florida","lat":27.36934,"lng":-82.5574,"zip":"34234","miles_from_dt":28.96},{"city":"Palm Harbor","state_name":"Florida","lat":28.09995,"lng":-82.68851,"zip":"34685","miles_from_dt":28.99},{"city":"Sarasota","state_name":"Florida","lat":27.34218,"lng":-82.35177,"zip":"34240","miles_from_dt":29.33},{"city":"Longboat Key","state_name":"Florida","lat":27.39258,"lng":-82.63407,"zip":"34228","miles_from_dt":29.45},{"city":"Clearwater Beach","state_name":"Florida","lat":27.97022,"lng":-82.82329,"zip":"33767","miles_from_dt":29.48},{"city":"Palm Harbor","state_name":"Florida","lat":28.08122,"lng":-82.72779,"zip":"34684","miles_from_dt":29.55},{"city":"Dunedin","state_name":"Florida","lat":28.03204,"lng":-82.78433,"zip":"34698","miles_from_dt":29.81},{"city":"Sarasota","state_name":"Florida","lat":27.33608,"lng":-82.32478,"zip":"34277","miles_from_dt":29.95}],"targetCityZipCode":"33572","targetCityState":"Florida"},"__N_SSG":true}