{"pageProps":{"stateName":"Florida","cityName":"baker","nearbyCities":[{"city":"Milligan","state_name":"Florida","lat":30.76092,"lng":-86.60592,"zip":"32537","miles_from_dt":10.09},{"city":"Crestview","state_name":"Florida","lat":30.75399,"lng":-86.59491,"zip":"32536","miles_from_dt":10.85},{"city":"Wing","state_name":"Alabama","lat":31.04273,"lng":-86.68494,"zip":"36483","miles_from_dt":10.88},{"city":"Holt","state_name":"Florida","lat":30.72755,"lng":-86.7875,"zip":"32564","miles_from_dt":12.14},{"city":"Crestview","state_name":"Florida","lat":30.78128,"lng":-86.46646,"zip":"32539","miles_from_dt":15.41},{"city":"Laurel Hill","state_name":"Florida","lat":30.92207,"lng":-86.43396,"zip":"32567","miles_from_dt":15.77},{"city":"Milton","state_name":"Florida","lat":30.80022,"lng":-86.98158,"zip":"32570","miles_from_dt":17.95},{"city":"Eglin Afb","state_name":"Florida","lat":30.58743,"lng":-86.59296,"zip":"32542","miles_from_dt":21.41},{"city":"Andalusia","state_name":"Alabama","lat":31.18092,"lng":-86.57618,"zip":"36420","miles_from_dt":21.58},{"city":"Lockhart","state_name":"Alabama","lat":31.01212,"lng":-86.35321,"zip":"36455","miles_from_dt":22.15},{"city":"Florala","state_name":"Alabama","lat":31.07312,"lng":-86.36355,"zip":"36442","miles_from_dt":23.6},{"city":"Paxton","state_name":"Florida","lat":30.97737,"lng":-86.3124,"zip":"32538","miles_from_dt":23.65},{"city":"Mossy Head","state_name":"Florida","lat":30.74234,"lng":-86.31461,"zip":"32434","miles_from_dt":24.72},{"city":"Milton","state_name":"Florida","lat":30.60084,"lng":-86.97513,"zip":"32583","miles_from_dt":25.68},{"city":"Jay","state_name":"Florida","lat":30.89241,"lng":-87.14071,"zip":"32565","miles_from_dt":26.43},{"city":"Brewton","state_name":"Alabama","lat":31.10793,"lng":-87.07115,"zip":"36427","miles_from_dt":27.04},{"city":"Milton","state_name":"Florida","lat":30.6278,"lng":-87.04861,"zip":"32572","miles_from_dt":27.47},{"city":"Bagdad","state_name":"Florida","lat":30.5926,"lng":-87.02344,"zip":"32530","miles_from_dt":28.03},{"city":"Niceville","state_name":"Florida","lat":30.5245,"lng":-86.47491,"zip":"32588","miles_from_dt":28.11},{"city":"Valparaiso","state_name":"Florida","lat":30.50337,"lng":-86.50942,"zip":"32580","miles_from_dt":28.55},{"city":"Brewton","state_name":"Alabama","lat":31.14386,"lng":-87.076,"zip":"36426","miles_from_dt":28.74},{"city":"Fort Walton Beach","state_name":"Florida","lat":30.46649,"lng":-86.65513,"zip":"32547","miles_from_dt":28.94},{"city":"Niceville","state_name":"Florida","lat":30.50871,"lng":-86.4535,"zip":"32578","miles_from_dt":29.68},{"city":"Defuniak Springs","state_name":"Florida","lat":30.84848,"lng":-86.19822,"zip":"32433","miles_from_dt":29.69}],"targetCityZipCode":"32531","targetCityState":"Florida"},"__N_SSG":true}