{"pageProps":{"stateName":"Florida","cityName":"bonifay","nearbyCities":[{"city":"Caryville","state_name":"Florida","lat":30.71587,"lng":-85.79311,"zip":"32427","miles_from_dt":10.49},{"city":"Noma","state_name":"Florida","lat":30.9806,"lng":-85.61508,"zip":"32452","miles_from_dt":10.72},{"city":"Black","state_name":"Alabama","lat":31.02141,"lng":-85.77645,"zip":"36314","miles_from_dt":11.88},{"city":"Graceville","state_name":"Florida","lat":30.92025,"lng":-85.52588,"zip":"32440","miles_from_dt":12.49},{"city":"Westville","state_name":"Florida","lat":30.89687,"lng":-85.95592,"zip":"32464","miles_from_dt":14.18},{"city":"Hartford","state_name":"Alabama","lat":31.1007,"lng":-85.70931,"zip":"36344","miles_from_dt":16.92},{"city":"Geneva","state_name":"Alabama","lat":31.05391,"lng":-85.89155,"zip":"36340","miles_from_dt":16.97},{"city":"Wausau","state_name":"Florida","lat":30.6279,"lng":-85.58728,"zip":"32463","miles_from_dt":17.61},{"city":"Malvern","state_name":"Alabama","lat":31.10349,"lng":-85.60298,"zip":"36349","miles_from_dt":18.5},{"city":"Chipley","state_name":"Florida","lat":30.61797,"lng":-85.57154,"zip":"32428","miles_from_dt":18.65},{"city":"Slocomb","state_name":"Alabama","lat":31.07681,"lng":-85.54111,"zip":"36375","miles_from_dt":18.66},{"city":"Cottondale","state_name":"Florida","lat":30.78609,"lng":-85.40982,"zip":"32431","miles_from_dt":19.18},{"city":"Ponce De Leon","state_name":"Florida","lat":30.63831,"lng":-85.96395,"zip":"32455","miles_from_dt":20.75},{"city":"Vernon","state_name":"Florida","lat":30.55753,"lng":-85.83241,"zip":"32462","miles_from_dt":21.54},{"city":"Campbellton","state_name":"Florida","lat":30.94861,"lng":-85.36714,"zip":"32426","miles_from_dt":22.05},{"city":"Argyle","state_name":"Florida","lat":30.74956,"lng":-86.07287,"zip":"32422","miles_from_dt":22.09},{"city":"Bellwood","state_name":"Alabama","lat":31.18024,"lng":-85.79368,"zip":"36313","miles_from_dt":22.78},{"city":"Chancellor","state_name":"Alabama","lat":31.17835,"lng":-85.86496,"zip":"36316","miles_from_dt":23.81},{"city":"Alford","state_name":"Florida","lat":30.63637,"lng":-85.38123,"zip":"32420","miles_from_dt":25.29},{"city":"Samson","state_name":"Alabama","lat":31.08741,"lng":-86.05407,"zip":"36477","miles_from_dt":25.37},{"city":"Coffee Springs","state_name":"Alabama","lat":31.17612,"lng":-85.95653,"zip":"36318","miles_from_dt":26.1},{"city":"Defuniak Springs","state_name":"Florida","lat":30.65367,"lng":-86.11597,"zip":"32435","miles_from_dt":27.24},{"city":"Dothan","state_name":"Alabama","lat":31.20229,"lng":-85.49798,"zip":"36305","miles_from_dt":27.35},{"city":"Dothan","state_name":"Alabama","lat":31.14387,"lng":-85.40321,"zip":"36301","miles_from_dt":27.45},{"city":"Cottonwood","state_name":"Alabama","lat":31.05105,"lng":-85.31765,"zip":"36320","miles_from_dt":27.55},{"city":"Daleville","state_name":"Alabama","lat":31.25575,"lng":-85.73249,"zip":"36322","miles_from_dt":27.59},{"city":"Defuniak Springs","state_name":"Florida","lat":30.84848,"lng":-86.19822,"zip":"32433","miles_from_dt":28.29},{"city":"Newton","state_name":"Alabama","lat":31.25682,"lng":-85.61629,"zip":"36352","miles_from_dt":28.36},{"city":"Marianna","state_name":"Florida","lat":30.84493,"lng":-85.23017,"zip":"32446","miles_from_dt":29.26},{"city":"Marianna","state_name":"Florida","lat":30.85296,"lng":-85.22784,"zip":"32447","miles_from_dt":29.39},{"city":"Fountain","state_name":"Florida","lat":30.51251,"lng":-85.41744,"zip":"32438","miles_from_dt":29.79}],"targetCityZipCode":"32425","targetCityState":"Florida"},"__N_SSG":true}