{"pageProps":{"stateName":"Florida","cityName":"cantonment","nearbyCities":[{"city":"Gonzalez","state_name":"Florida","lat":30.5822,"lng":-87.29162,"zip":"32560","miles_from_dt":2.95},{"city":"Pensacola","state_name":"Florida","lat":30.53276,"lng":-87.28374,"zip":"32534","miles_from_dt":6.08},{"city":"Pensacola","state_name":"Florida","lat":30.49824,"lng":-87.36543,"zip":"32526","miles_from_dt":8.27},{"city":"Pensacola","state_name":"Florida","lat":30.53209,"lng":-87.22235,"zip":"32514","miles_from_dt":8.32},{"city":"Milton","state_name":"Florida","lat":30.67162,"lng":-87.20004,"zip":"32571","miles_from_dt":8.49},{"city":"Molino","state_name":"Florida","lat":30.73453,"lng":-87.37471,"zip":"32577","miles_from_dt":8.85},{"city":"Pensacola","state_name":"Florida","lat":30.51664,"lng":-87.21885,"zip":"32523","miles_from_dt":9.21},{"city":"Pensacola","state_name":"Florida","lat":30.47096,"lng":-87.34115,"zip":"32509","miles_from_dt":9.85},{"city":"Pensacola","state_name":"Florida","lat":30.4653,"lng":-87.33878,"zip":"32559","miles_from_dt":10.22},{"city":"Pensacola","state_name":"Florida","lat":30.45575,"lng":-87.26082,"zip":"32505","miles_from_dt":11.52},{"city":"Pensacola","state_name":"Florida","lat":30.45559,"lng":-87.25815,"zip":"32520","miles_from_dt":11.58},{"city":"Seminole","state_name":"Alabama","lat":30.5141,"lng":-87.48258,"zip":"36574","miles_from_dt":11.59},{"city":"Pensacola","state_name":"Florida","lat":30.48495,"lng":-87.19093,"zip":"32504","miles_from_dt":11.94},{"city":"Pensacola","state_name":"Florida","lat":30.48541,"lng":-87.19025,"zip":"32524","miles_from_dt":11.95},{"city":"Pensacola","state_name":"Florida","lat":30.46023,"lng":-87.21506,"zip":"32513","miles_from_dt":12.43},{"city":"Pensacola","state_name":"Florida","lat":30.46022,"lng":-87.21372,"zip":"32503","miles_from_dt":12.48},{"city":"Pensacola","state_name":"Florida","lat":30.42445,"lng":-87.2949,"zip":"32516","miles_from_dt":13.14},{"city":"Robertsdale","state_name":"Alabama","lat":30.61483,"lng":-87.55792,"zip":"36567","miles_from_dt":13.84},{"city":"Pensacola","state_name":"Florida","lat":30.42826,"lng":-87.22277,"zip":"32501","miles_from_dt":14.14},{"city":"Pensacola","state_name":"Florida","lat":30.4064,"lng":-87.29129,"zip":"32511","miles_from_dt":14.4},{"city":"Pensacola","state_name":"Florida","lat":30.42279,"lng":-87.22324,"zip":"32522","miles_from_dt":14.47},{"city":"Pensacola","state_name":"Florida","lat":30.41781,"lng":-87.22537,"zip":"32591","miles_from_dt":14.73},{"city":"Pensacola","state_name":"Florida","lat":30.399,"lng":-87.29925,"zip":"32512","miles_from_dt":14.85},{"city":"Pensacola","state_name":"Florida","lat":30.40928,"lng":-87.22636,"zip":"32502","miles_from_dt":15.25},{"city":"Pensacola","state_name":"Florida","lat":30.39152,"lng":-87.37167,"zip":"32506","miles_from_dt":15.52},{"city":"Lillian","state_name":"Alabama","lat":30.41377,"lng":-87.44951,"zip":"36549","miles_from_dt":15.6},{"city":"Milton","state_name":"Florida","lat":30.6278,"lng":-87.04861,"zip":"32572","miles_from_dt":16.53},{"city":"Pensacola","state_name":"Florida","lat":30.37577,"lng":-87.27614,"zip":"32521","miles_from_dt":16.63},{"city":"Pensacola","state_name":"Florida","lat":30.35614,"lng":-87.29866,"zip":"32508","miles_from_dt":17.79},{"city":"Bagdad","state_name":"Florida","lat":30.5926,"lng":-87.02344,"zip":"32530","miles_from_dt":18.06},{"city":"Gulf Breeze","state_name":"Florida","lat":30.37154,"lng":-87.17393,"zip":"32562","miles_from_dt":18.95},{"city":"Pensacola","state_name":"Florida","lat":30.34035,"lng":-87.37706,"zip":"32507","miles_from_dt":19.05},{"city":"Elberta","state_name":"Alabama","lat":30.41192,"lng":-87.55445,"zip":"36530","miles_from_dt":19.46},{"city":"McDavid","state_name":"Florida","lat":30.87085,"lng":-87.46792,"zip":"32568","miles_from_dt":19.66},{"city":"Milton","state_name":"Florida","lat":30.60084,"lng":-86.97513,"zip":"32583","miles_from_dt":20.9},{"city":"Jay","state_name":"Florida","lat":30.89241,"lng":-87.14071,"zip":"32565","miles_from_dt":22.15},{"city":"Gulf Breeze","state_name":"Florida","lat":30.35165,"lng":-87.10906,"zip":"32561","miles_from_dt":22.18},{"city":"Gulf Breeze","state_name":"Florida","lat":30.38782,"lng":-87.0331,"zip":"32563","miles_from_dt":23.36},{"city":"Milton","state_name":"Florida","lat":30.80022,"lng":-86.98158,"zip":"32570","miles_from_dt":24.19},{"city":"Century","state_name":"Florida","lat":30.96515,"lng":-87.34673,"zip":"32535","miles_from_dt":24.27},{"city":"Summerdale","state_name":"Alabama","lat":30.48085,"lng":-87.70321,"zip":"36580","miles_from_dt":24.29},{"city":"Foley","state_name":"Alabama","lat":30.40369,"lng":-87.65888,"zip":"36536","miles_from_dt":24.57},{"city":"Loxley","state_name":"Alabama","lat":30.63982,"lng":-87.7504,"zip":"36551","miles_from_dt":25.37},{"city":"Orange Beach","state_name":"Alabama","lat":30.28813,"lng":-87.57142,"zip":"36561","miles_from_dt":26.78},{"city":"Silverhill","state_name":"Alabama","lat":30.52654,"lng":-87.76654,"zip":"36576","miles_from_dt":26.95},{"city":"Stapleton","state_name":"Alabama","lat":30.73867,"lng":-87.77275,"zip":"36578","miles_from_dt":27.99},{"city":"Foley","state_name":"Alabama","lat":30.38562,"lng":-87.72514,"zip":"36535","miles_from_dt":28.53},{"city":"Navarre","state_name":"Florida","lat":30.4253,"lng":-86.8843,"zip":"32566","miles_from_dt":29.33},{"city":"Atmore","state_name":"Alabama","lat":31.01945,"lng":-87.47955,"zip":"36504","miles_from_dt":29.44},{"city":"Flomaton","state_name":"Alabama","lat":31.04064,"lng":-87.25885,"zip":"36441","miles_from_dt":29.71},{"city":"Bay Minette","state_name":"Alabama","lat":30.85893,"lng":-87.74188,"zip":"36507","miles_from_dt":30}],"targetCityZipCode":"32533","targetCityState":"Florida"},"__N_SSG":true}