{"pageProps":{"stateName":"Florida","cityName":"casselberry","nearbyCities":[{"city":"Casselberry","state_name":"Florida","lat":28.66326,"lng":-81.32477,"zip":"32718","miles_from_dt":0.65},{"city":"Casselberry","state_name":"Florida","lat":28.65242,"lng":-81.34301,"zip":"32730","miles_from_dt":1.89},{"city":"Winter Springs","state_name":"Florida","lat":28.68368,"lng":-81.2764,"zip":"32719","miles_from_dt":2.71},{"city":"Altamonte Springs","state_name":"Florida","lat":28.66674,"lng":-81.35961,"zip":"32715","miles_from_dt":2.78},{"city":"Winter Springs","state_name":"Florida","lat":28.68751,"lng":-81.27086,"zip":"32708","miles_from_dt":3.14},{"city":"Mid Florida","state_name":"Florida","lat":28.63023,"lng":-81.35494,"zip":"32799","miles_from_dt":3.34},{"city":"Altamonte Springs","state_name":"Florida","lat":28.66509,"lng":-81.36916,"zip":"32701","miles_from_dt":3.35},{"city":"Winter Park","state_name":"Florida","lat":28.61066,"lng":-81.29923,"zip":"32792","miles_from_dt":3.68},{"city":"Maitland","state_name":"Florida","lat":28.631,"lng":-81.36457,"zip":"32751","miles_from_dt":3.76},{"city":"Longwood","state_name":"Florida","lat":28.7074,"lng":-81.34955,"zip":"32750","miles_from_dt":3.77},{"city":"Maitland","state_name":"Florida","lat":28.62762,"lng":-81.36562,"zip":"32794","miles_from_dt":3.95},{"city":"Goldenrod","state_name":"Florida","lat":28.62365,"lng":-81.26414,"zip":"32733","miles_from_dt":4.05},{"city":"Winter Park","state_name":"Florida","lat":28.59977,"lng":-81.35235,"zip":"32789","miles_from_dt":4.91},{"city":"Winter Park","state_name":"Florida","lat":28.5894,"lng":-81.33044,"zip":"32790","miles_from_dt":5.14},{"city":"Altamonte Springs","state_name":"Florida","lat":28.66381,"lng":-81.40321,"zip":"32716","miles_from_dt":5.42},{"city":"Longwood","state_name":"Florida","lat":28.71215,"lng":-81.39151,"zip":"32752","miles_from_dt":5.81},{"city":"Altamonte Springs","state_name":"Florida","lat":28.66237,"lng":-81.4115,"zip":"32714","miles_from_dt":5.92},{"city":"Orlando","state_name":"Florida","lat":28.57002,"lng":-81.32663,"zip":"32814","miles_from_dt":6.42},{"city":"Orlando","state_name":"Florida","lat":28.59002,"lng":-81.2445,"zip":"32817","miles_from_dt":6.54},{"city":"Lake Mary","state_name":"Florida","lat":28.75885,"lng":-81.3319,"zip":"32795","miles_from_dt":6.72},{"city":"Oviedo","state_name":"Florida","lat":28.66732,"lng":-81.20033,"zip":"32765","miles_from_dt":6.91},{"city":"Longwood","state_name":"Florida","lat":28.70331,"lng":-81.41995,"zip":"32791","miles_from_dt":7.02},{"city":"Longwood","state_name":"Florida","lat":28.71632,"lng":-81.41343,"zip":"32779","miles_from_dt":7.08},{"city":"Orlando","state_name":"Florida","lat":28.56054,"lng":-81.29671,"zip":"32857","miles_from_dt":7.1},{"city":"Lake Mary","state_name":"Florida","lat":28.76297,"lng":-81.35499,"zip":"32746","miles_from_dt":7.35},{"city":"Sanford","state_name":"Florida","lat":28.75264,"lng":-81.24659,"zip":"32773","miles_from_dt":7.43},{"city":"Orlando","state_name":"Florida","lat":28.56731,"lng":-81.2555,"zip":"32867","miles_from_dt":7.46},{"city":"Orlando","state_name":"Florida","lat":28.6248,"lng":-81.42959,"zip":"32860","miles_from_dt":7.49},{"city":"Orlando","state_name":"Florida","lat":28.62113,"lng":-81.42863,"zip":"32810","miles_from_dt":7.52},{"city":"Orlando","state_name":"Florida","lat":28.55725,"lng":-81.34913,"zip":"32853","miles_from_dt":7.56},{"city":"Orlando","state_name":"Florida","lat":28.5566,"lng":-81.34959,"zip":"32891","miles_from_dt":7.61},{"city":"Orlando","state_name":"Florida","lat":28.55245,"lng":-81.30165,"zip":"32807","miles_from_dt":7.62},{"city":"Orlando","state_name":"Florida","lat":28.55592,"lng":-81.34895,"zip":"32803","miles_from_dt":7.64},{"city":"Orlando","state_name":"Florida","lat":28.57688,"lng":-81.39748,"zip":"32804","miles_from_dt":7.78},{"city":"Orlando","state_name":"Florida","lat":28.56832,"lng":-81.38626,"zip":"32854","miles_from_dt":7.83},{"city":"Oviedo","state_name":"Florida","lat":28.65829,"lng":-81.1813,"zip":"32762","miles_from_dt":8.07},{"city":"Sanford","state_name":"Florida","lat":28.76754,"lng":-81.24685,"zip":"32772","miles_from_dt":8.3},{"city":"Orlando","state_name":"Florida","lat":28.60075,"lng":-81.19511,"zip":"32816","miles_from_dt":8.39},{"city":"Orlando","state_name":"Florida","lat":28.54464,"lng":-81.3761,"zip":"32877","miles_from_dt":8.95},{"city":"Orlando","state_name":"Florida","lat":28.54381,"lng":-81.37715,"zip":"32802","miles_from_dt":9.03},{"city":"Orlando","state_name":"Florida","lat":28.542,"lng":-81.37343,"zip":"32801","miles_from_dt":9.05},{"city":"Orlando","state_name":"Florida","lat":28.53994,"lng":-81.3726,"zip":"32872","miles_from_dt":9.16},{"city":"Orlando","state_name":"Florida","lat":28.54124,"lng":-81.38082,"zip":"32886","miles_from_dt":9.29},{"city":"Orlando","state_name":"Florida","lat":28.53874,"lng":-81.37714,"zip":"32862","miles_from_dt":9.35},{"city":"Orlando","state_name":"Florida","lat":28.53896,"lng":-81.37906,"zip":"32897","miles_from_dt":9.38},{"city":"Orlando","state_name":"Florida","lat":28.54,"lng":-81.38219,"zip":"32885","miles_from_dt":9.4},{"city":"Orlando","state_name":"Florida","lat":28.56358,"lng":-81.20696,"zip":"32834","miles_from_dt":9.42},{"city":"Orlando","state_name":"Florida","lat":28.58543,"lng":-81.18263,"zip":"32826","miles_from_dt":9.59},{"city":"Orlando","state_name":"Florida","lat":28.53681,"lng":-81.24243,"zip":"32825","miles_from_dt":9.69},{"city":"Orlando","state_name":"Florida","lat":28.57932,"lng":-81.44342,"zip":"32808","miles_from_dt":9.73},{"city":"Winter Park","state_name":"Florida","lat":28.662,"lng":-81.48316,"zip":"32793","miles_from_dt":10.27},{"city":"Sanford","state_name":"Florida","lat":28.81496,"lng":-81.31751,"zip":"32771","miles_from_dt":10.5},{"city":"Orlando","state_name":"Florida","lat":28.52981,"lng":-81.40614,"zip":"32805","miles_from_dt":10.72},{"city":"Orlando","state_name":"Florida","lat":28.5123,"lng":-81.36031,"zip":"32806","miles_from_dt":10.72},{"city":"Orlando","state_name":"Florida","lat":28.51315,"lng":-81.37171,"zip":"32856","miles_from_dt":10.87},{"city":"Lake Monroe","state_name":"Florida","lat":28.82221,"lng":-81.31974,"zip":"32747","miles_from_dt":11},{"city":"Orlando","state_name":"Florida","lat":28.5542,"lng":-81.44979,"zip":"32858","miles_from_dt":11.12},{"city":"Orlando","state_name":"Florida","lat":28.50935,"lng":-81.39011,"zip":"32855","miles_from_dt":11.52},{"city":"Clarcona","state_name":"Florida","lat":28.61094,"lng":-81.49633,"zip":"32710","miles_from_dt":11.63},{"city":"Apopka","state_name":"Florida","lat":28.61159,"lng":-81.49858,"zip":"32704","miles_from_dt":11.75},{"city":"Orlando","state_name":"Florida","lat":28.58518,"lng":-81.48716,"zip":"32818","miles_from_dt":11.79},{"city":"Orlando","state_name":"Florida","lat":28.59124,"lng":-81.49269,"zip":"32869","miles_from_dt":11.91},{"city":"Orlando","state_name":"Florida","lat":28.49001,"lng":-81.29056,"zip":"32822","miles_from_dt":11.97},{"city":"Orlando","state_name":"Florida","lat":28.59018,"lng":-81.49363,"zip":"32868","miles_from_dt":12},{"city":"Orlando","state_name":"Florida","lat":28.4848,"lng":-81.32767,"zip":"32812","miles_from_dt":12.27},{"city":"Apopka","state_name":"Florida","lat":28.65579,"lng":-81.52139,"zip":"32703","miles_from_dt":12.6},{"city":"Orlando","state_name":"Florida","lat":28.53052,"lng":-81.17022,"zip":"32828","miles_from_dt":12.61},{"city":"Orlando","state_name":"Florida","lat":28.52629,"lng":-81.17088,"zip":"32878","miles_from_dt":12.8},{"city":"Orlando","state_name":"Florida","lat":28.51616,"lng":-81.44405,"zip":"32861","miles_from_dt":12.81},{"city":"Orlando","state_name":"Florida","lat":28.51624,"lng":-81.44516,"zip":"32811","miles_from_dt":12.85},{"city":"Orlando","state_name":"Florida","lat":28.58493,"lng":-81.12127,"zip":"32820","miles_from_dt":12.87},{"city":"Orlando","state_name":"Florida","lat":28.48833,"lng":-81.40689,"zip":"32839","miles_from_dt":13.26},{"city":"Geneva","state_name":"Florida","lat":28.74565,"lng":-81.10563,"zip":"32732","miles_from_dt":13.89},{"city":"Orlando","state_name":"Florida","lat":28.47639,"lng":-81.22478,"zip":"32829","miles_from_dt":13.92},{"city":"Oviedo","state_name":"Florida","lat":28.64761,"lng":-81.08124,"zip":"32766","miles_from_dt":14.18},{"city":"Orlando","state_name":"Florida","lat":28.52182,"lng":-81.48473,"zip":"32835","miles_from_dt":14.2},{"city":"Orlando","state_name":"Florida","lat":28.46301,"lng":-81.38428,"zip":"32809","miles_from_dt":14.39},{"city":"Orlando","state_name":"Florida","lat":28.46212,"lng":-81.38529,"zip":"32859","miles_from_dt":14.47},{"city":"Ocoee","state_name":"Florida","lat":28.57975,"lng":-81.53386,"zip":"34761","miles_from_dt":14.52},{"city":"Apopka","state_name":"Florida","lat":28.72917,"lng":-81.54103,"zip":"32712","miles_from_dt":14.53},{"city":"Sorrento","state_name":"Florida","lat":28.81033,"lng":-81.4872,"zip":"32776","miles_from_dt":14.63},{"city":"Debary","state_name":"Florida","lat":28.88,"lng":-81.31219,"zip":"32753","miles_from_dt":14.98},{"city":"Plymouth","state_name":"Florida","lat":28.69577,"lng":-81.55795,"zip":"32768","miles_from_dt":14.99},{"city":"Debary","state_name":"Florida","lat":28.8816,"lng":-81.3238,"zip":"32713","miles_from_dt":15.1},{"city":"Deltona","state_name":"Florida","lat":28.87149,"lng":-81.23827,"zip":"32728","miles_from_dt":15.11},{"city":"Gotha","state_name":"Florida","lat":28.5376,"lng":-81.52204,"zip":"34734","miles_from_dt":15.29},{"city":"Deltona","state_name":"Florida","lat":28.88368,"lng":-81.25061,"zip":"32725","miles_from_dt":15.71},{"city":"Orlando","state_name":"Florida","lat":28.47439,"lng":-81.14729,"zip":"32831","miles_from_dt":16.45},{"city":"Zellwood","state_name":"Florida","lat":28.72647,"lng":-81.58648,"zip":"32798","miles_from_dt":17.12},{"city":"Orlando","state_name":"Florida","lat":28.45565,"lng":-81.472,"zip":"32819","miles_from_dt":17.18},{"city":"Orlando","state_name":"Florida","lat":28.41399,"lng":-81.29032,"zip":"32827","miles_from_dt":17.18},{"city":"Deltona","state_name":"Florida","lat":28.91003,"lng":-81.20728,"zip":"32739","miles_from_dt":18.23},{"city":"Orlando","state_name":"Florida","lat":28.4948,"lng":-81.081,"zip":"32833","miles_from_dt":18.28},{"city":"Deltona","state_name":"Florida","lat":28.90755,"lng":-81.18862,"zip":"32738","miles_from_dt":18.51},{"city":"Orlando","state_name":"Florida","lat":28.38991,"lng":-81.34471,"zip":"32824","miles_from_dt":18.87},{"city":"Osteen","state_name":"Florida","lat":28.83883,"lng":-81.07239,"zip":"32764","miles_from_dt":19.04},{"city":"Windermere","state_name":"Florida","lat":28.48161,"lng":-81.55501,"zip":"34786","miles_from_dt":19.23},{"city":"Orange City","state_name":"Florida","lat":28.94291,"lng":-81.30593,"zip":"32763","miles_from_dt":19.31},{"city":"Eustis","state_name":"Florida","lat":28.89831,"lng":-81.49317,"zip":"32736","miles_from_dt":19.54},{"city":"Orlando","state_name":"Florida","lat":28.39843,"lng":-81.18407,"zip":"32832","miles_from_dt":19.83},{"city":"Orange City","state_name":"Florida","lat":28.95128,"lng":-81.29927,"zip":"32774","miles_from_dt":19.9},{"city":"Tangerine","state_name":"Florida","lat":28.76081,"lng":-81.62564,"zip":"32777","miles_from_dt":20.09},{"city":"Orlando","state_name":"Florida","lat":28.38074,"lng":-81.41998,"zip":"32837","miles_from_dt":20.45},{"city":"Oakland","state_name":"Florida","lat":28.55694,"lng":-81.62916,"zip":"34760","miles_from_dt":20.49},{"city":"Orlando","state_name":"Florida","lat":28.41734,"lng":-81.51536,"zip":"32836","miles_from_dt":20.86},{"city":"Mount Dora","state_name":"Florida","lat":28.77954,"lng":-81.637,"zip":"32757","miles_from_dt":21.2},{"city":"Orlando","state_name":"Florida","lat":28.38475,"lng":-81.46794,"zip":"32887","miles_from_dt":21.3},{"city":"Cassadaga","state_name":"Florida","lat":28.9672,"lng":-81.23631,"zip":"32706","miles_from_dt":21.5},{"city":"Winter Garden","state_name":"Florida","lat":28.48645,"lng":-81.60663,"zip":"34777","miles_from_dt":21.53},{"city":"Winter Garden","state_name":"Florida","lat":28.49729,"lng":-81.61598,"zip":"34778","miles_from_dt":21.6},{"city":"Orlando","state_name":"Florida","lat":28.38095,"lng":-81.47719,"zip":"32821","miles_from_dt":21.78},{"city":"Killarney","state_name":"Florida","lat":28.54503,"lng":-81.64884,"zip":"34740","miles_from_dt":21.9},{"city":"Mount Dora","state_name":"Florida","lat":28.80471,"lng":-81.64415,"zip":"32756","miles_from_dt":22.3},{"city":"Mid Florida","state_name":"Florida","lat":28.75,"lng":-81.67219,"zip":"32745","miles_from_dt":22.56},{"city":"Winter Garden","state_name":"Florida","lat":28.48309,"lng":-81.62833,"zip":"34787","miles_from_dt":22.76},{"city":"Lake Helen","state_name":"Florida","lat":28.98497,"lng":-81.21899,"zip":"32744","miles_from_dt":22.94},{"city":"Montverde","state_name":"Florida","lat":28.58651,"lng":-81.68214,"zip":"34756","miles_from_dt":22.97},{"city":"Kissimmee","state_name":"Florida","lat":28.33066,"lng":-81.35441,"zip":"34743","miles_from_dt":22.99},{"city":"Christmas","state_name":"Florida","lat":28.49266,"lng":-80.98801,"zip":"32709","miles_from_dt":23.01},{"city":"Ferndale","state_name":"Florida","lat":28.61764,"lng":-81.69901,"zip":"34729","miles_from_dt":23.59},{"city":"Eustis","state_name":"Florida","lat":28.83138,"lng":-81.65691,"zip":"32727","miles_from_dt":23.84},{"city":"Mims","state_name":"Florida","lat":28.68565,"lng":-80.9208,"zip":"32754","miles_from_dt":23.94},{"city":"Orlando","state_name":"Florida","lat":28.32,"lng":-81.23219,"zip":"32896","miles_from_dt":24.11},{"city":"Astatula","state_name":"Florida","lat":28.69367,"lng":-81.71138,"zip":"34705","miles_from_dt":24.23},{"city":"Orlando","state_name":"Florida","lat":28.38643,"lng":-81.56732,"zip":"32830","miles_from_dt":24.47},{"city":"Deland","state_name":"Florida","lat":29.01775,"lng":-81.37802,"zip":"32720","miles_from_dt":24.77},{"city":"Deland","state_name":"Florida","lat":29.02719,"lng":-81.29561,"zip":"32721","miles_from_dt":25.14},{"city":"Kissimmee","state_name":"Florida","lat":28.2963,"lng":-81.35235,"zip":"34742","miles_from_dt":25.33},{"city":"Kissimmee","state_name":"Florida","lat":28.2954,"lng":-81.34675,"zip":"34744","miles_from_dt":25.36},{"city":"Clermont","state_name":"Florida","lat":28.6242,"lng":-81.73019,"zip":"34715","miles_from_dt":25.42},{"city":"Kissimmee","state_name":"Florida","lat":28.30273,"lng":-81.40989,"zip":"34745","miles_from_dt":25.46},{"city":"Kissimmee","state_name":"Florida","lat":28.30544,"lng":-81.42567,"zip":"34741","miles_from_dt":25.51},{"city":"Deland","state_name":"Florida","lat":29.03454,"lng":-81.30452,"zip":"32723","miles_from_dt":25.62},{"city":"Eustis","state_name":"Florida","lat":28.8541,"lng":-81.68,"zip":"32726","miles_from_dt":25.83},{"city":"Tavares","state_name":"Florida","lat":28.77554,"lng":-81.72884,"zip":"32778","miles_from_dt":26.36},{"city":"Minneola","state_name":"Florida","lat":28.57756,"lng":-81.74927,"zip":"34755","miles_from_dt":27.09},{"city":"Deland","state_name":"Florida","lat":29.0506,"lng":-81.23284,"zip":"32724","miles_from_dt":27.17},{"city":"Scottsmoor","state_name":"Florida","lat":28.76704,"lng":-80.8767,"zip":"32775","miles_from_dt":27.51},{"city":"Paisley","state_name":"Florida","lat":29.01957,"lng":-81.52065,"zip":"32767","miles_from_dt":27.6},{"city":"New Smyrna Beach","state_name":"Florida","lat":28.98214,"lng":-81.03721,"zip":"32168","miles_from_dt":27.68},{"city":"Oak Hill","state_name":"Florida","lat":28.84004,"lng":-80.9034,"zip":"32759","miles_from_dt":27.76},{"city":"Clermont","state_name":"Florida","lat":28.5532,"lng":-81.75755,"zip":"34712","miles_from_dt":27.99},{"city":"Clermont","state_name":"Florida","lat":28.52724,"lng":-81.75349,"zip":"34711","miles_from_dt":28.29},{"city":"Glenwood","state_name":"Florida","lat":29.07924,"lng":-81.35296,"zip":"32722","miles_from_dt":28.79},{"city":"Clermont","state_name":"Florida","lat":28.54731,"lng":-81.77043,"zip":"34713","miles_from_dt":28.85},{"city":"Saint Cloud","state_name":"Florida","lat":28.24366,"lng":-81.29412,"zip":"34769","miles_from_dt":28.87},{"city":"Titusville","state_name":"Florida","lat":28.62591,"lng":-80.84051,"zip":"32796","miles_from_dt":28.88},{"city":"Titusville","state_name":"Florida","lat":28.54312,"lng":-80.85553,"zip":"32783","miles_from_dt":29.05},{"city":"Intercession City","state_name":"Florida","lat":28.27594,"lng":-81.50824,"zip":"33848","miles_from_dt":29.13},{"city":"Kissimmee","state_name":"Florida","lat":28.31111,"lng":-81.59107,"zip":"34747","miles_from_dt":29.49},{"city":"Saint Cloud","state_name":"Florida","lat":28.26647,"lng":-81.11908,"zip":"34771","miles_from_dt":29.74},{"city":"Howey In The Hills","state_name":"Florida","lat":28.69638,"lng":-81.80243,"zip":"34737","miles_from_dt":29.75},{"city":"Kissimmee","state_name":"Florida","lat":28.24233,"lng":-81.4423,"zip":"34746","miles_from_dt":29.97}],"targetCityZipCode":"32707","targetCityState":"Florida"},"__N_SSG":true}