{"pageProps":{"stateName":"Florida","cityName":"homosassa-springs","nearbyCities":[{"city":"Homosassa","state_name":"Florida","lat":28.74904,"lng":-82.52344,"zip":"34446","miles_from_dt":3.65},{"city":"Homosassa","state_name":"Florida","lat":28.78148,"lng":-82.61272,"zip":"34487","miles_from_dt":3.93},{"city":"Homosassa","state_name":"Florida","lat":28.77009,"lng":-82.61201,"zip":"34448","miles_from_dt":4.17},{"city":"Lecanto","state_name":"Florida","lat":28.81544,"lng":-82.48029,"zip":"34461","miles_from_dt":4.44},{"city":"Crystal River","state_name":"Florida","lat":28.86279,"lng":-82.57233,"zip":"34423","miles_from_dt":4.75},{"city":"Crystal River","state_name":"Florida","lat":28.85737,"lng":-82.65152,"zip":"34429","miles_from_dt":7.43},{"city":"Beverly Hills","state_name":"Florida","lat":28.91299,"lng":-82.46318,"zip":"34464","miles_from_dt":9.6},{"city":"Beverly Hills","state_name":"Florida","lat":28.92869,"lng":-82.49092,"zip":"34465","miles_from_dt":9.78},{"city":"Lecanto","state_name":"Florida","lat":28.93117,"lng":-82.49137,"zip":"34460","miles_from_dt":9.93},{"city":"Brooksville","state_name":"Florida","lat":28.64627,"lng":-82.51324,"zip":"34614","miles_from_dt":10.59},{"city":"Inverness","state_name":"Florida","lat":28.76231,"lng":-82.37986,"zip":"34452","miles_from_dt":10.6},{"city":"Crystal River","state_name":"Florida","lat":28.9608,"lng":-82.63421,"zip":"34428","miles_from_dt":12.4},{"city":"Hernando","state_name":"Florida","lat":28.89864,"lng":-82.37562,"zip":"34441","miles_from_dt":12.71},{"city":"Hernando","state_name":"Florida","lat":28.93084,"lng":-82.39122,"zip":"34442","miles_from_dt":13.36},{"city":"Inverness","state_name":"Florida","lat":28.83848,"lng":-82.33157,"zip":"34451","miles_from_dt":13.57},{"city":"Dunnellon","state_name":"Florida","lat":28.996,"lng":-82.52383,"zip":"34433","miles_from_dt":13.83},{"city":"Holder","state_name":"Florida","lat":28.97143,"lng":-82.42414,"zip":"34445","miles_from_dt":14.26},{"city":"Inverness","state_name":"Florida","lat":28.89276,"lng":-82.33663,"zip":"34453","miles_from_dt":14.55},{"city":"Dunnellon","state_name":"Florida","lat":28.99535,"lng":-82.43775,"zip":"34434","miles_from_dt":15.29},{"city":"Spring Hill","state_name":"Florida","lat":28.57528,"lng":-82.62715,"zip":"34607","miles_from_dt":15.94},{"city":"Brooksville","state_name":"Florida","lat":28.56183,"lng":-82.53803,"zip":"34613","miles_from_dt":16.18},{"city":"Floral City","state_name":"Florida","lat":28.72672,"lng":-82.29134,"zip":"34436","miles_from_dt":16.43},{"city":"Inverness","state_name":"Florida","lat":28.82699,"lng":-82.25767,"zip":"34450","miles_from_dt":17.87},{"city":"Brooksville","state_name":"Florida","lat":28.5892,"lng":-82.36857,"zip":"34601","miles_from_dt":18.04},{"city":"Istachatta","state_name":"Florida","lat":28.65891,"lng":-82.27302,"zip":"34636","miles_from_dt":19.31},{"city":"Brooksville","state_name":"Florida","lat":28.55221,"lng":-82.39106,"zip":"34603","miles_from_dt":19.41},{"city":"Yankeetown","state_name":"Florida","lat":29.03299,"lng":-82.734,"zip":"34498","miles_from_dt":19.73},{"city":"Dunnellon","state_name":"Florida","lat":29.05306,"lng":-82.37846,"zip":"34430","miles_from_dt":20.5},{"city":"Nobleton","state_name":"Florida","lat":28.62108,"lng":-82.26507,"zip":"34661","miles_from_dt":21.11},{"city":"Brooksville","state_name":"Florida","lat":28.49696,"lng":-82.45256,"zip":"34605","miles_from_dt":21.47},{"city":"Spring Hill","state_name":"Florida","lat":28.48258,"lng":-82.5532,"zip":"34608","miles_from_dt":21.62},{"city":"Spring Hill","state_name":"Florida","lat":28.48206,"lng":-82.56109,"zip":"34611","miles_from_dt":21.67},{"city":"Dunnellon","state_name":"Florida","lat":29.06588,"lng":-82.36353,"zip":"34432","miles_from_dt":21.73},{"city":"Spring Hill","state_name":"Florida","lat":28.4792,"lng":-82.50818,"zip":"34609","miles_from_dt":22},{"city":"Lake Panasoffkee","state_name":"Florida","lat":28.84679,"lng":-82.18218,"zip":"33538","miles_from_dt":22.59},{"city":"Spring Hill","state_name":"Florida","lat":28.46961,"lng":-82.59759,"zip":"34606","miles_from_dt":22.7},{"city":"Inglis","state_name":"Florida","lat":29.10451,"lng":-82.68694,"zip":"34449","miles_from_dt":22.77},{"city":"Brooksville","state_name":"Florida","lat":28.4781,"lng":-82.43322,"zip":"34604","miles_from_dt":23.05},{"city":"Dunnellon","state_name":"Florida","lat":29.1339,"lng":-82.52963,"zip":"34431","miles_from_dt":23.27},{"city":"Bushnell","state_name":"Florida","lat":28.66849,"lng":-82.17143,"zip":"33513","miles_from_dt":24.63},{"city":"Brooksville","state_name":"Florida","lat":28.50252,"lng":-82.28007,"zip":"34602","miles_from_dt":26.06},{"city":"Ocala","state_name":"Florida","lat":29.00506,"lng":-82.18833,"zip":"34473","miles_from_dt":26.22},{"city":"Ocala","state_name":"Florida","lat":29.11902,"lng":-82.30769,"zip":"34481","miles_from_dt":26.63},{"city":"Aripeka","state_name":"Florida","lat":28.42226,"lng":-82.67716,"zip":"34679","miles_from_dt":26.91},{"city":"Spring Hill","state_name":"Florida","lat":28.38339,"lng":-82.50058,"zip":"34610","miles_from_dt":28.61},{"city":"Hudson","state_name":"Florida","lat":28.38926,"lng":-82.65654,"zip":"34667","miles_from_dt":28.78},{"city":"Coleman","state_name":"Florida","lat":28.79788,"lng":-82.0752,"zip":"33521","miles_from_dt":28.82},{"city":"Ocala","state_name":"Florida","lat":29.08579,"lng":-82.19279,"zip":"34476","miles_from_dt":29.42},{"city":"Oxford","state_name":"Florida","lat":28.93417,"lng":-82.08867,"zip":"34484","miles_from_dt":29.54},{"city":"Wildwood","state_name":"Florida","lat":28.84516,"lng":-82.06065,"zip":"34785","miles_from_dt":29.88}],"targetCityZipCode":"34447","targetCityState":"Florida"},"__N_SSG":true}