{"pageProps":{"stateName":"Florida","cityName":"naples","nearbyCities":[{"city":"Naples","state_name":"Florida","lat":26.05685,"lng":-81.73523,"zip":"34113","miles_from_dt":2.82},{"city":"Naples","state_name":"Florida","lat":26.12053,"lng":-81.73908,"zip":"34112","miles_from_dt":5.08},{"city":"Naples","state_name":"Florida","lat":26.13783,"lng":-81.79654,"zip":"34102","miles_from_dt":5.66},{"city":"Naples","state_name":"Florida","lat":26.13927,"lng":-81.79794,"zip":"34106","miles_from_dt":5.77},{"city":"Naples","state_name":"Florida","lat":26.15321,"lng":-81.74214,"zip":"34104","miles_from_dt":7.04},{"city":"Marco Island","state_name":"Florida","lat":25.94328,"lng":-81.71571,"zip":"34146","miles_from_dt":8.8},{"city":"Naples","state_name":"Florida","lat":26.18938,"lng":-81.7626,"zip":"34105","miles_from_dt":9.19},{"city":"Naples","state_name":"Florida","lat":26.19197,"lng":-81.80207,"zip":"34103","miles_from_dt":9.39},{"city":"Naples","state_name":"Florida","lat":26.18816,"lng":-81.71058,"zip":"34116","miles_from_dt":10.03},{"city":"Marco Island","state_name":"Florida","lat":25.91903,"lng":-81.69506,"zip":"34145","miles_from_dt":10.88},{"city":"Goodland","state_name":"Florida","lat":25.92531,"lng":-81.65888,"zip":"34140","miles_from_dt":11.81},{"city":"Naples","state_name":"Florida","lat":26.24073,"lng":-81.76365,"zip":"34109","miles_from_dt":12.7},{"city":"Naples","state_name":"Florida","lat":25.98902,"lng":-81.58517,"zip":"34114","miles_from_dt":13.02},{"city":"Naples","state_name":"Florida","lat":26.24533,"lng":-81.80694,"zip":"34108","miles_from_dt":13.07},{"city":"Naples","state_name":"Florida","lat":26.2696,"lng":-81.79167,"zip":"34107","miles_from_dt":14.66},{"city":"Naples","state_name":"Florida","lat":26.26658,"lng":-81.71493,"zip":"34119","miles_from_dt":15},{"city":"Naples","state_name":"Florida","lat":26.11864,"lng":-81.548,"zip":"34117","miles_from_dt":15.07},{"city":"Naples","state_name":"Florida","lat":26.29619,"lng":-81.78505,"zip":"34110","miles_from_dt":16.47},{"city":"Naples","state_name":"Florida","lat":26.31382,"lng":-81.58344,"zip":"34120","miles_from_dt":21.51},{"city":"Bonita Springs","state_name":"Florida","lat":26.36634,"lng":-81.83503,"zip":"34134","miles_from_dt":21.57},{"city":"Bonita Springs","state_name":"Florida","lat":26.36923,"lng":-81.73303,"zip":"34135","miles_from_dt":21.7},{"city":"Bonita Springs","state_name":"Florida","lat":26.382,"lng":-81.71025,"zip":"34133","miles_from_dt":22.8},{"city":"Bonita Springs","state_name":"Florida","lat":26.38799,"lng":-81.70952,"zip":"34136","miles_from_dt":23.21},{"city":"Copeland","state_name":"Florida","lat":26.03542,"lng":-81.40757,"zip":"34137","miles_from_dt":23.24},{"city":"Estero","state_name":"Florida","lat":26.43545,"lng":-81.71002,"zip":"33928","miles_from_dt":26.42},{"city":"Estero","state_name":"Florida","lat":26.44114,"lng":-81.79066,"zip":"33929","miles_from_dt":26.46},{"city":"Fort Myers Beach","state_name":"Florida","lat":26.44036,"lng":-81.90974,"zip":"33931","miles_from_dt":27.59},{"city":"Fort Myers","state_name":"Florida","lat":26.46126,"lng":-81.76862,"zip":"33965","miles_from_dt":27.84},{"city":"Everglades City","state_name":"Florida","lat":25.85449,"lng":-81.38253,"zip":"34139","miles_from_dt":28.42},{"city":"Fort Myers Beach","state_name":"Florida","lat":26.44907,"lng":-81.93245,"zip":"33932","miles_from_dt":28.59},{"city":"Fort Myers","state_name":"Florida","lat":26.47226,"lng":-81.81231,"zip":"33967","miles_from_dt":28.66}],"targetCityZipCode":"34101","targetCityState":"Florida"},"__N_SSG":true}