{"pageProps":{"stateName":"Florida","cityName":"north-miami-beach","nearbyCities":[{"city":"Miami","state_name":"Florida","lat":25.93202,"lng":-80.13642,"zip":"33280","miles_from_dt":0.04},{"city":"Miami","state_name":"Florida","lat":25.96145,"lng":-80.1415,"zip":"33180","miles_from_dt":2.03},{"city":"Miami","state_name":"Florida","lat":25.9646,"lng":-80.14218,"zip":"33163","miles_from_dt":2.26},{"city":"Miami","state_name":"Florida","lat":25.92933,"lng":-80.17676,"zip":"33164","miles_from_dt":2.56},{"city":"Miami","state_name":"Florida","lat":25.89717,"lng":-80.1531,"zip":"33181","miles_from_dt":2.65},{"city":"Miami","state_name":"Florida","lat":25.92845,"lng":-80.17844,"zip":"33162","miles_from_dt":2.67},{"city":"Miami Beach","state_name":"Florida","lat":25.88609,"lng":-80.13332,"zip":"33154","miles_from_dt":3.19},{"city":"Miami","state_name":"Florida","lat":25.95821,"lng":-80.17981,"zip":"33179","miles_from_dt":3.27},{"city":"Hallandale","state_name":"Florida","lat":25.98531,"lng":-80.1466,"zip":"33009","miles_from_dt":3.71},{"city":"Hallandale","state_name":"Florida","lat":25.98695,"lng":-80.14054,"zip":"33008","miles_from_dt":3.77},{"city":"Miami","state_name":"Florida","lat":25.89357,"lng":-80.18285,"zip":"33161","miles_from_dt":3.96},{"city":"Miami","state_name":"Florida","lat":25.89121,"lng":-80.18118,"zip":"33261","miles_from_dt":4},{"city":"Miami","state_name":"Florida","lat":25.94476,"lng":-80.21399,"zip":"33269","miles_from_dt":4.94},{"city":"Miami","state_name":"Florida","lat":25.94298,"lng":-80.2147,"zip":"33169","miles_from_dt":4.96},{"city":"Miami","state_name":"Florida","lat":25.89318,"lng":-80.2093,"zip":"33168","miles_from_dt":5.31},{"city":"Miami Beach","state_name":"Florida","lat":25.85116,"lng":-80.14147,"zip":"33141","miles_from_dt":5.6},{"city":"Hollywood","state_name":"Florida","lat":26.01385,"lng":-80.14407,"zip":"33022","miles_from_dt":5.63},{"city":"Miami","state_name":"Florida","lat":25.86357,"lng":-80.19255,"zip":"33153","miles_from_dt":5.91},{"city":"Miami","state_name":"Florida","lat":25.85388,"lng":-80.17846,"zip":"33138","miles_from_dt":6.02},{"city":"Hollywood","state_name":"Florida","lat":26.01911,"lng":-80.15251,"zip":"33020","miles_from_dt":6.06},{"city":"Miami","state_name":"Florida","lat":25.85473,"lng":-80.18249,"zip":"33238","miles_from_dt":6.08},{"city":"Hollywood","state_name":"Florida","lat":25.98812,"lng":-80.21263,"zip":"33023","miles_from_dt":6.13},{"city":"Hollywood","state_name":"Florida","lat":26.02346,"lng":-80.1236,"zip":"33019","miles_from_dt":6.32},{"city":"Miami Gardens","state_name":"Florida","lat":25.94922,"lng":-80.24562,"zip":"33056","miles_from_dt":6.93},{"city":"Pembroke Pines","state_name":"Florida","lat":26.01347,"lng":-80.20352,"zip":"33082","miles_from_dt":7},{"city":"Hollywood","state_name":"Florida","lat":26.02277,"lng":-80.18742,"zip":"33021","miles_from_dt":7},{"city":"Miami","state_name":"Florida","lat":25.8848,"lng":-80.23631,"zip":"33167","miles_from_dt":7.06},{"city":"Hollywood","state_name":"Florida","lat":26.01727,"lng":-80.19999,"zip":"33081","miles_from_dt":7.08},{"city":"Miami","state_name":"Florida","lat":25.85196,"lng":-80.20702,"zip":"33150","miles_from_dt":7.09},{"city":"Opa Locka","state_name":"Florida","lat":25.90775,"lng":-80.25753,"zip":"33054","miles_from_dt":7.76},{"city":"Miami Beach","state_name":"Florida","lat":25.81606,"lng":-80.13895,"zip":"33140","miles_from_dt":8.01},{"city":"Fort Lauderdale","state_name":"Florida","lat":26.03617,"lng":-80.19679,"zip":"33302","miles_from_dt":8.09},{"city":"Miami","state_name":"Florida","lat":25.83187,"lng":-80.20951,"zip":"33151","miles_from_dt":8.3},{"city":"Miami","state_name":"Florida","lat":25.81538,"lng":-80.17798,"zip":"33137","miles_from_dt":8.47},{"city":"Miami","state_name":"Florida","lat":25.85231,"lng":-80.23951,"zip":"33247","miles_from_dt":8.49},{"city":"Miami","state_name":"Florida","lat":25.85104,"lng":-80.23861,"zip":"33147","miles_from_dt":8.5},{"city":"Dania","state_name":"Florida","lat":26.05939,"lng":-80.13637,"zip":"33004","miles_from_dt":8.75},{"city":"Opa Locka","state_name":"Florida","lat":25.94812,"lng":-80.27809,"zip":"33055","miles_from_dt":8.92},{"city":"Hollywood","state_name":"Florida","lat":26.02586,"lng":-80.24346,"zip":"33084","miles_from_dt":9.29},{"city":"Miami","state_name":"Florida","lat":25.81307,"lng":-80.20553,"zip":"33127","miles_from_dt":9.29},{"city":"Hollywood","state_name":"Florida","lat":26.02501,"lng":-80.24475,"zip":"33024","miles_from_dt":9.31},{"city":"Hialeah","state_name":"Florida","lat":25.86209,"lng":-80.27032,"zip":"33013","miles_from_dt":9.67},{"city":"Miami Beach","state_name":"Florida","lat":25.79089,"lng":-80.14139,"zip":"33239","miles_from_dt":9.74},{"city":"Hollywood","state_name":"Florida","lat":25.98737,"lng":-80.28134,"zip":"33025","miles_from_dt":9.82},{"city":"Miami Beach","state_name":"Florida","lat":25.78667,"lng":-80.13351,"zip":"33119","miles_from_dt":10.03},{"city":"Miami Beach","state_name":"Florida","lat":25.78523,"lng":-80.15085,"zip":"33139","miles_from_dt":10.17},{"city":"Miami","state_name":"Florida","lat":25.81176,"lng":-80.23433,"zip":"33242","miles_from_dt":10.32},{"city":"Miami","state_name":"Florida","lat":25.81473,"lng":-80.24037,"zip":"33188","miles_from_dt":10.39},{"city":"Hialeah","state_name":"Florida","lat":25.90332,"lng":-80.30173,"zip":"33014","miles_from_dt":10.52},{"city":"Fort Lauderdale","state_name":"Florida","lat":26.08703,"lng":-80.15297,"zip":"33315","miles_from_dt":10.7},{"city":"Hialeah","state_name":"Florida","lat":25.90195,"lng":-80.30503,"zip":"33002","miles_from_dt":10.74},{"city":"Fort Lauderdale","state_name":"Florida","lat":26.06822,"lng":-80.22391,"zip":"33314","miles_from_dt":10.84},{"city":"Miami","state_name":"Florida","lat":25.78703,"lng":-80.20444,"zip":"33136","miles_from_dt":10.88},{"city":"Miami","state_name":"Florida","lat":25.77719,"lng":-80.17395,"zip":"33132","miles_from_dt":10.94},{"city":"Fort Lauderdale","state_name":"Florida","lat":26.08835,"lng":-80.18166,"zip":"33312","miles_from_dt":11.11},{"city":"Miami","state_name":"Florida","lat":25.77976,"lng":-80.19877,"zip":"33101","miles_from_dt":11.21},{"city":"Hialeah","state_name":"Florida","lat":25.83309,"lng":-80.27902,"zip":"33010","miles_from_dt":11.23},{"city":"Miami","state_name":"Florida","lat":25.77693,"lng":-80.19093,"zip":"33255","miles_from_dt":11.24},{"city":"Hialeah","state_name":"Florida","lat":25.94116,"lng":-80.31761,"zip":"33015","miles_from_dt":11.33},{"city":"Hialeah","state_name":"Florida","lat":25.86583,"lng":-80.30247,"zip":"33012","miles_from_dt":11.34},{"city":"Hialeah","state_name":"Florida","lat":25.94339,"lng":-80.31821,"zip":"33017","miles_from_dt":11.38},{"city":"Miami","state_name":"Florida","lat":25.80665,"lng":-80.25517,"zip":"33142","miles_from_dt":11.41},{"city":"Miami","state_name":"Florida","lat":25.77393,"lng":-80.19443,"zip":"33231","miles_from_dt":11.5},{"city":"Fort Lauderdale","state_name":"Florida","lat":26.09913,"lng":-80.12398,"zip":"33316","miles_from_dt":11.51},{"city":"Miami","state_name":"Florida","lat":25.77661,"lng":-80.20407,"zip":"33128","miles_from_dt":11.53},{"city":"Miami","state_name":"Florida","lat":25.77536,"lng":-80.20879,"zip":"33299","miles_from_dt":11.72},{"city":"Miami Beach","state_name":"Florida","lat":25.7616,"lng":-80.14197,"zip":"33109","miles_from_dt":11.76},{"city":"Hollywood","state_name":"Florida","lat":26.02575,"lng":-80.29625,"zip":"33026","miles_from_dt":11.87},{"city":"Hialeah","state_name":"Florida","lat":25.82222,"lng":-80.28411,"zip":"33011","miles_from_dt":11.95},{"city":"Miami","state_name":"Florida","lat":25.76417,"lng":-80.18459,"zip":"33131","miles_from_dt":11.97},{"city":"Miami","state_name":"Florida","lat":25.76647,"lng":-80.19477,"zip":"33111","miles_from_dt":11.99},{"city":"Miami","state_name":"Florida","lat":25.7839,"lng":-80.23738,"zip":"33125","miles_from_dt":12.02},{"city":"Miami","state_name":"Florida","lat":25.76805,"lng":-80.20291,"zip":"33130","miles_from_dt":12.06},{"city":"Hialeah","state_name":"Florida","lat":25.89361,"lng":-80.33186,"zip":"33016","miles_from_dt":12.49},{"city":"Fort Lauderdale","state_name":"Florida","lat":26.06673,"lng":-80.27301,"zip":"33328","miles_from_dt":12.59},{"city":"Miami","state_name":"Florida","lat":25.76657,"lng":-80.23495,"zip":"33135","miles_from_dt":12.97},{"city":"Fort Lauderdale","state_name":"Florida","lat":26.12115,"lng":-80.1399,"zip":"33394","miles_from_dt":13},{"city":"Miami","state_name":"Florida","lat":25.7527,"lng":-80.20046,"zip":"33129","miles_from_dt":13.01},{"city":"Fort Lauderdale","state_name":"Florida","lat":26.12128,"lng":-80.12745,"zip":"33301","miles_from_dt":13.02},{"city":"Miami","state_name":"Florida","lat":25.8253,"lng":-80.31049,"zip":"33166","miles_from_dt":13.14},{"city":"Fort Lauderdale","state_name":"Florida","lat":26.12384,"lng":-80.14233,"zip":"33346","miles_from_dt":13.19},{"city":"Miami","state_name":"Florida","lat":25.82713,"lng":-80.31397,"zip":"33266","miles_from_dt":13.25},{"city":"Hollywood","state_name":"Florida","lat":25.98245,"lng":-80.34359,"zip":"33027","miles_from_dt":13.38},{"city":"Fort Lauderdale","state_name":"Florida","lat":26.11268,"lng":-80.22607,"zip":"33317","miles_from_dt":13.62},{"city":"Miami","state_name":"Florida","lat":25.75322,"lng":-80.23461,"zip":"33145","miles_from_dt":13.78},{"city":"Miami","state_name":"Florida","lat":25.79614,"lng":-80.30106,"zip":"33102","miles_from_dt":13.92},{"city":"Miami","state_name":"Florida","lat":25.8338,"lng":-80.3328,"zip":"33195","miles_from_dt":14.02},{"city":"Fort Lauderdale","state_name":"Florida","lat":26.13845,"lng":-80.12166,"zip":"33304","miles_from_dt":14.22},{"city":"Miami","state_name":"Florida","lat":25.80523,"lng":-80.31706,"zip":"33122","miles_from_dt":14.28},{"city":"Pembroke Pines","state_name":"Florida","lat":26.01852,"lng":-80.34488,"zip":"33028","miles_from_dt":14.3},{"city":"Fort Lauderdale","state_name":"Florida","lat":26.14043,"lng":-80.12529,"zip":"33338","miles_from_dt":14.34},{"city":"Key Biscayne","state_name":"Florida","lat":25.72479,"lng":-80.16118,"zip":"33149","miles_from_dt":14.37},{"city":"Miami","state_name":"Florida","lat":25.79752,"lng":-80.31349,"zip":"33152","miles_from_dt":14.44},{"city":"Fort Lauderdale","state_name":"Florida","lat":26.14255,"lng":-80.1395,"zip":"33336","miles_from_dt":14.47},{"city":"Fort Lauderdale","state_name":"Florida","lat":26.14395,"lng":-80.14133,"zip":"33320","miles_from_dt":14.57},{"city":"Fort Lauderdale","state_name":"Florida","lat":26.06034,"lng":-80.32333,"zip":"33330","miles_from_dt":14.62},{"city":"Miami","state_name":"Florida","lat":25.78061,"lng":-80.30054,"zip":"33126","miles_from_dt":14.64},{"city":"Fort Lauderdale","state_name":"Florida","lat":26.11832,"lng":-80.25127,"zip":"33318","miles_from_dt":14.68},{"city":"Plantation","state_name":"Florida","lat":26.11715,"lng":-80.25409,"zip":"33388","miles_from_dt":14.7},{"city":"Fort Lauderdale","state_name":"Florida","lat":26.14361,"lng":-80.17352,"zip":"33340","miles_from_dt":14.73},{"city":"Fort Lauderdale","state_name":"Florida","lat":26.14412,"lng":-80.17319,"zip":"33311","miles_from_dt":14.76},{"city":"Miami","state_name":"Florida","lat":25.75338,"lng":-80.2712,"zip":"33134","miles_from_dt":14.93},{"city":"Coral Gables","state_name":"Florida","lat":25.7523,"lng":-80.27065,"zip":"33114","miles_from_dt":14.97},{"city":"Fort Lauderdale","state_name":"Florida","lat":26.11089,"lng":-80.2741,"zip":"33337","miles_from_dt":15},{"city":"Fort Lauderdale","state_name":"Florida","lat":26.11117,"lng":-80.2746,"zip":"33329","miles_from_dt":15.04},{"city":"Miami","state_name":"Florida","lat":25.87517,"lng":-80.36906,"zip":"33198","miles_from_dt":15.04},{"city":"Fort Lauderdale","state_name":"Florida","lat":26.11205,"lng":-80.27469,"zip":"33324","miles_from_dt":15.09},{"city":"Miami","state_name":"Florida","lat":25.7508,"lng":-80.27441,"zip":"33234","miles_from_dt":15.19},{"city":"Fort Lauderdale","state_name":"Florida","lat":26.15375,"lng":-80.123,"zip":"33305","miles_from_dt":15.26},{"city":"Miami","state_name":"Florida","lat":25.73216,"lng":-80.24153,"zip":"33233","miles_from_dt":15.27},{"city":"Miami","state_name":"Florida","lat":25.73288,"lng":-80.24378,"zip":"33222","miles_from_dt":15.29},{"city":"Miami","state_name":"Florida","lat":25.72983,"lng":-80.24327,"zip":"33133","miles_from_dt":15.46},{"city":"Miami","state_name":"Florida","lat":25.78953,"lng":-80.32874,"zip":"33191","miles_from_dt":15.52},{"city":"Miami","state_name":"Florida","lat":25.72641,"lng":-80.238,"zip":"33124","miles_from_dt":15.54},{"city":"Hollywood","state_name":"Florida","lat":26.14869,"lng":-80.22483,"zip":"33083","miles_from_dt":15.89},{"city":"Miami","state_name":"Florida","lat":25.74712,"lng":-80.28817,"zip":"33245","miles_from_dt":15.89},{"city":"Fort Lauderdale","state_name":"Florida","lat":26.16384,"lng":-80.11387,"zip":"33339","miles_from_dt":16},{"city":"Miami","state_name":"Florida","lat":25.76335,"lng":-80.31228,"zip":"33144","miles_from_dt":16},{"city":"Hialeah","state_name":"Florida","lat":25.92,"lng":-80.39274,"zip":"33018","miles_from_dt":16.01},{"city":"Fort Lauderdale","state_name":"Florida","lat":26.15069,"lng":-80.22634,"zip":"33313","miles_from_dt":16.05},{"city":"Fort Lauderdale","state_name":"Florida","lat":26.16548,"lng":-80.11404,"zip":"33306","miles_from_dt":16.11},{"city":"Fort Lauderdale","state_name":"Florida","lat":26.11279,"lng":-80.30369,"zip":"33355","miles_from_dt":16.23},{"city":"Fort Lauderdale","state_name":"Florida","lat":26.17194,"lng":-80.13222,"zip":"33310","miles_from_dt":16.5},{"city":"Miami","state_name":"Florida","lat":25.72155,"lng":-80.27054,"zip":"33206","miles_from_dt":16.76},{"city":"Fort Lauderdale","state_name":"Florida","lat":26.11032,"lng":-80.32261,"zip":"33325","miles_from_dt":16.88},{"city":"Miami","state_name":"Florida","lat":25.72059,"lng":-80.27274,"zip":"33146","miles_from_dt":16.89},{"city":"Fort Lauderdale","state_name":"Florida","lat":26.0587,"lng":-80.36989,"zip":"33331","miles_from_dt":16.96},{"city":"Fort Lauderdale","state_name":"Florida","lat":26.18177,"lng":-80.13857,"zip":"33335","miles_from_dt":17.17},{"city":"Fort Lauderdale","state_name":"Florida","lat":26.18316,"lng":-80.13456,"zip":"33334","miles_from_dt":17.27},{"city":"Fort Lauderdale","state_name":"Florida","lat":26.14997,"lng":-80.27429,"zip":"33322","miles_from_dt":17.28},{"city":"Miami","state_name":"Florida","lat":25.78655,"lng":-80.3623,"zip":"33172","miles_from_dt":17.31},{"city":"Miami","state_name":"Florida","lat":25.73672,"lng":-80.31117,"zip":"33155","miles_from_dt":17.34},{"city":"Hollywood","state_name":"Florida","lat":25.99184,"lng":-80.40794,"zip":"33029","miles_from_dt":17.42},{"city":"Fort Lauderdale","state_name":"Florida","lat":26.18732,"lng":-80.10885,"zip":"33348","miles_from_dt":17.63},{"city":"Fort Lauderdale","state_name":"Florida","lat":26.18793,"lng":-80.17385,"zip":"33309","miles_from_dt":17.75},{"city":"Fort Lauderdale","state_name":"Florida","lat":26.18952,"lng":-80.10859,"zip":"33308","miles_from_dt":17.79},{"city":"Fort Lauderdale","state_name":"Florida","lat":26.17937,"lng":-80.227,"zip":"33359","miles_from_dt":17.93},{"city":"Fort Lauderdale","state_name":"Florida","lat":26.18128,"lng":-80.22618,"zip":"33349","miles_from_dt":18.03},{"city":"Fort Lauderdale","state_name":"Florida","lat":26.1826,"lng":-80.22641,"zip":"33319","miles_from_dt":18.13},{"city":"Miami","state_name":"Florida","lat":25.79679,"lng":-80.38726,"zip":"33112","miles_from_dt":18.23},{"city":"Miami","state_name":"Florida","lat":25.76199,"lng":-80.36029,"zip":"33174","miles_from_dt":18.25},{"city":"Fort Lauderdale","state_name":"Florida","lat":26.19888,"lng":-80.09511,"zip":"33303","miles_from_dt":18.52},{"city":"Miami","state_name":"Florida","lat":25.70255,"lng":-80.29792,"zip":"33143","miles_from_dt":18.77},{"city":"Miami","state_name":"Florida","lat":25.7014,"lng":-80.29902,"zip":"33243","miles_from_dt":18.87},{"city":"Fort Lauderdale","state_name":"Florida","lat":26.14988,"lng":-80.32222,"zip":"33323","miles_from_dt":18.94},{"city":"Miami","state_name":"Florida","lat":25.75915,"lng":-80.37249,"zip":"33199","miles_from_dt":18.96},{"city":"Miami","state_name":"Florida","lat":25.83578,"lng":-80.4213,"zip":"33178","miles_from_dt":18.98},{"city":"Fort Lauderdale","state_name":"Florida","lat":26.17938,"lng":-80.27463,"zip":"33351","miles_from_dt":19.07},{"city":"Fort Lauderdale","state_name":"Florida","lat":26.17831,"lng":-80.2784,"zip":"33345","miles_from_dt":19.11},{"city":"Fort Lauderdale","state_name":"Florida","lat":26.11033,"lng":-80.37403,"zip":"33326","miles_from_dt":19.23},{"city":"Fort Lauderdale","state_name":"Florida","lat":26.18119,"lng":-80.27795,"zip":"33307","miles_from_dt":19.28},{"city":"Miami","state_name":"Florida","lat":25.73437,"lng":-80.35862,"zip":"33165","miles_from_dt":19.45},{"city":"Miami","state_name":"Florida","lat":25.78252,"lng":-80.40182,"zip":"33182","miles_from_dt":19.52},{"city":"Pompano Beach","state_name":"Florida","lat":26.21644,"lng":-80.21535,"zip":"33068","miles_from_dt":20.17},{"city":"Fort Lauderdale","state_name":"Florida","lat":26.03825,"lng":-80.44352,"zip":"33332","miles_from_dt":20.49},{"city":"Miami","state_name":"Florida","lat":25.7597,"lng":-80.4066,"zip":"33184","miles_from_dt":20.63},{"city":"Miami","state_name":"Florida","lat":25.66779,"lng":-80.29728,"zip":"33156","miles_from_dt":20.81},{"city":"Pompano Beach","state_name":"Florida","lat":26.23307,"lng":-80.09421,"zip":"33072","miles_from_dt":20.86},{"city":"Pompano Beach","state_name":"Florida","lat":26.23513,"lng":-80.12084,"zip":"33060","miles_from_dt":20.87},{"city":"Coconut Creek","state_name":"Florida","lat":26.2358,"lng":-80.13363,"zip":"33097","miles_from_dt":20.89},{"city":"Pompano Beach","state_name":"Florida","lat":26.23565,"lng":-80.15808,"zip":"33069","miles_from_dt":20.93},{"city":"Pompano Beach","state_name":"Florida","lat":26.23652,"lng":-80.12061,"zip":"33061","miles_from_dt":20.96},{"city":"Fort Lauderdale","state_name":"Florida","lat":26.2121,"lng":-80.2697,"zip":"33321","miles_from_dt":20.98},{"city":"Miami","state_name":"Florida","lat":25.70163,"lng":-80.35765,"zip":"33173","miles_from_dt":21.05},{"city":"Pompano Beach","state_name":"Florida","lat":26.239,"lng":-80.12415,"zip":"33074","miles_from_dt":21.12},{"city":"Pompano Beach","state_name":"Florida","lat":26.24101,"lng":-80.09399,"zip":"33062","miles_from_dt":21.41},{"city":"Miami","state_name":"Florida","lat":25.73435,"lng":-80.40621,"zip":"33175","miles_from_dt":21.67},{"city":"Miami","state_name":"Florida","lat":25.73726,"lng":-80.41112,"zip":"33265","miles_from_dt":21.78},{"city":"Miami","state_name":"Florida","lat":25.66186,"lng":-80.32639,"zip":"33256","miles_from_dt":22.08},{"city":"Miami","state_name":"Florida","lat":25.69928,"lng":-80.38158,"zip":"33283","miles_from_dt":22.18},{"city":"Pompano Beach","state_name":"Florida","lat":26.25347,"lng":-80.17753,"zip":"33066","miles_from_dt":22.26},{"city":"Pompano Beach","state_name":"Florida","lat":26.25138,"lng":-80.21014,"zip":"33063","miles_from_dt":22.44},{"city":"Margate","state_name":"Florida","lat":26.25272,"lng":-80.20952,"zip":"33093","miles_from_dt":22.53},{"city":"Coral Springs","state_name":"Florida","lat":26.24464,"lng":-80.26276,"zip":"33075","miles_from_dt":22.9},{"city":"Coral Springs","state_name":"Florida","lat":26.24395,"lng":-80.26627,"zip":"33071","miles_from_dt":22.93},{"city":"Miami","state_name":"Florida","lat":25.63744,"lng":-80.30945,"zip":"33158","miles_from_dt":23},{"city":"Pompano Beach","state_name":"Florida","lat":26.24644,"lng":-80.26393,"zip":"33077","miles_from_dt":23.04},{"city":"Miami","state_name":"Florida","lat":25.70047,"lng":-80.40578,"zip":"33183","miles_from_dt":23.19},{"city":"Miami","state_name":"Florida","lat":25.67123,"lng":-80.37226,"zip":"33116","miles_from_dt":23.24},{"city":"Miami","state_name":"Florida","lat":25.65876,"lng":-80.35919,"zip":"33176","miles_from_dt":23.42},{"city":"Miami","state_name":"Florida","lat":25.65626,"lng":-80.35704,"zip":"33296","miles_from_dt":23.48},{"city":"Pompano Beach","state_name":"Florida","lat":26.27806,"lng":-80.11524,"zip":"33064","miles_from_dt":23.83},{"city":"Miami","state_name":"Florida","lat":25.73035,"lng":-80.45448,"zip":"33185","miles_from_dt":24.24},{"city":"Miami","state_name":"Florida","lat":25.76749,"lng":-80.48811,"zip":"33192","miles_from_dt":24.7},{"city":"Coral Springs","state_name":"Florida","lat":26.27318,"lng":-80.26029,"zip":"33065","miles_from_dt":24.71},{"city":"Pompano Beach","state_name":"Florida","lat":26.29818,"lng":-80.1827,"zip":"33073","miles_from_dt":25.35},{"city":"Miami","state_name":"Florida","lat":25.65565,"lng":-80.41062,"zip":"33186","miles_from_dt":25.61},{"city":"Miami","state_name":"Florida","lat":25.61325,"lng":-80.34742,"zip":"33257","miles_from_dt":25.62},{"city":"Miami","state_name":"Florida","lat":25.6952,"lng":-80.45343,"zip":"33106","miles_from_dt":25.65},{"city":"Miami","state_name":"Florida","lat":25.60671,"lng":-80.34314,"zip":"33157","miles_from_dt":25.87},{"city":"Deerfield Beach","state_name":"Florida","lat":26.31012,"lng":-80.14503,"zip":"33442","miles_from_dt":26.01},{"city":"Miami","state_name":"Florida","lat":25.70175,"lng":-80.46672,"zip":"33193","miles_from_dt":26.02},{"city":"Deerfield Beach","state_name":"Florida","lat":26.31096,"lng":-80.09885,"zip":"33441","miles_from_dt":26.17},{"city":"Pompano Beach","state_name":"Florida","lat":26.307,"lng":-80.2257,"zip":"33067","miles_from_dt":26.39},{"city":"Fort Lauderdale","state_name":"Florida","lat":26.24429,"lng":-80.39267,"zip":"33327","miles_from_dt":26.76},{"city":"Deerfield Beach","state_name":"Florida","lat":26.3247,"lng":-80.12051,"zip":"33443","miles_from_dt":27.03},{"city":"Miami","state_name":"Florida","lat":25.59505,"lng":-80.36312,"zip":"33197","miles_from_dt":27.2},{"city":"Miami","state_name":"Florida","lat":25.57314,"lng":-80.33929,"zip":"33189","miles_from_dt":27.79},{"city":"Pompano Beach","state_name":"Florida","lat":26.31788,"lng":-80.27431,"zip":"33076","miles_from_dt":27.9},{"city":"Miami","state_name":"Florida","lat":25.59703,"lng":-80.40458,"zip":"33177","miles_from_dt":28.52},{"city":"Boca Raton","state_name":"Florida","lat":26.34706,"lng":-80.15919,"zip":"33433","miles_from_dt":28.59},{"city":"Boca Raton","state_name":"Florida","lat":26.34729,"lng":-80.11449,"zip":"33486","miles_from_dt":28.6},{"city":"Boca Raton","state_name":"Florida","lat":26.34546,"lng":-80.0838,"zip":"33432","miles_from_dt":28.62},{"city":"Boca Raton","state_name":"Florida","lat":26.34605,"lng":-80.08201,"zip":"33427","miles_from_dt":28.68},{"city":"Boca Raton","state_name":"Florida","lat":26.34939,"lng":-80.08201,"zip":"33429","miles_from_dt":28.9},{"city":"Miami","state_name":"Florida","lat":25.55734,"lng":-80.34897,"zip":"33190","miles_from_dt":29.03},{"city":"Boca Raton","state_name":"Florida","lat":26.35591,"lng":-80.1716,"zip":"33488","miles_from_dt":29.24},{"city":"Boca Raton","state_name":"Florida","lat":26.3497,"lng":-80.23142,"zip":"33497","miles_from_dt":29.34},{"city":"Boca Raton","state_name":"Florida","lat":26.35054,"lng":-80.22792,"zip":"33428","miles_from_dt":29.35}],"targetCityZipCode":"33160","targetCityState":"Florida"},"__N_SSG":true}