{"pageProps":{"stateName":"Florida","cityName":"seminole","nearbyCities":[{"city":"Seminole","state_name":"Florida","lat":27.84531,"lng":-82.79457,"zip":"33775","miles_from_dt":0.21},{"city":"Seminole","state_name":"Florida","lat":27.84975,"lng":-82.82634,"zip":"33776","miles_from_dt":1.88},{"city":"Saint Petersburg","state_name":"Florida","lat":27.81192,"lng":-82.7933,"zip":"33708","miles_from_dt":2.14},{"city":"Seminole","state_name":"Florida","lat":27.85257,"lng":-82.76026,"zip":"33777","miles_from_dt":2.33},{"city":"Saint Petersburg","state_name":"Florida","lat":27.82254,"lng":-82.82789,"zip":"33730","miles_from_dt":2.37},{"city":"Bay Pines","state_name":"Florida","lat":27.8084,"lng":-82.77451,"zip":"33744","miles_from_dt":2.73},{"city":"Largo","state_name":"Florida","lat":27.88266,"lng":-82.79843,"zip":"33778","miles_from_dt":2.74},{"city":"Saint Petersburg","state_name":"Florida","lat":27.80136,"lng":-82.80116,"zip":"33738","miles_from_dt":2.87},{"city":"Largo","state_name":"Florida","lat":27.88275,"lng":-82.8278,"zip":"33774","miles_from_dt":3.34},{"city":"Largo","state_name":"Florida","lat":27.88156,"lng":-82.75594,"zip":"33773","miles_from_dt":3.65},{"city":"Indian Rocks Beach","state_name":"Florida","lat":27.88559,"lng":-82.84425,"zip":"33785","miles_from_dt":4.14},{"city":"Saint Petersburg","state_name":"Florida","lat":27.81721,"lng":-82.73075,"zip":"33709","miles_from_dt":4.4},{"city":"Pinellas Park","state_name":"Florida","lat":27.84,"lng":-82.72079,"zip":"33780","miles_from_dt":4.65},{"city":"Largo","state_name":"Florida","lat":27.90585,"lng":-82.7583,"zip":"33771","miles_from_dt":4.93},{"city":"Largo","state_name":"Florida","lat":27.91477,"lng":-82.8035,"zip":"33770","miles_from_dt":4.97},{"city":"Pinellas Park","state_name":"Florida","lat":27.83861,"lng":-82.71512,"zip":"33781","miles_from_dt":5},{"city":"Largo","state_name":"Florida","lat":27.91035,"lng":-82.76012,"zip":"33779","miles_from_dt":5.16},{"city":"Saint Petersburg","state_name":"Florida","lat":27.77001,"lng":-82.76635,"zip":"33740","miles_from_dt":5.35},{"city":"Saint Petersburg","state_name":"Florida","lat":27.7898,"lng":-82.73069,"zip":"33710","miles_from_dt":5.45},{"city":"Pinellas Park","state_name":"Florida","lat":27.85964,"lng":-82.70901,"zip":"33782","miles_from_dt":5.49},{"city":"Saint Petersburg","state_name":"Florida","lat":27.78243,"lng":-82.72762,"zip":"33743","miles_from_dt":5.93},{"city":"Belleair Beach","state_name":"Florida","lat":27.92385,"lng":-82.83635,"zip":"33786","miles_from_dt":6.08},{"city":"Clearwater","state_name":"Florida","lat":27.90535,"lng":-82.71389,"zip":"33760","miles_from_dt":6.65},{"city":"Clearwater","state_name":"Florida","lat":27.94421,"lng":-82.79216,"zip":"33756","miles_from_dt":6.98},{"city":"Clearwater","state_name":"Florida","lat":27.93679,"lng":-82.7424,"zip":"33764","miles_from_dt":7.27},{"city":"Saint Petersburg","state_name":"Florida","lat":27.74396,"lng":-82.75014,"zip":"33706","miles_from_dt":7.38},{"city":"Saint Petersburg","state_name":"Florida","lat":27.81553,"lng":-82.6797,"zip":"33784","miles_from_dt":7.4},{"city":"Saint Petersburg","state_name":"Florida","lat":27.81696,"lng":-82.67794,"zip":"33714","miles_from_dt":7.48},{"city":"Saint Petersburg","state_name":"Florida","lat":27.74275,"lng":-82.74843,"zip":"33736","miles_from_dt":7.5},{"city":"Saint Petersburg","state_name":"Florida","lat":27.74913,"lng":-82.72293,"zip":"33707","miles_from_dt":7.88},{"city":"Clearwater","state_name":"Florida","lat":27.89685,"lng":-82.67946,"zip":"33762","miles_from_dt":8.08},{"city":"Saint Petersburg","state_name":"Florida","lat":27.87838,"lng":-82.66908,"zip":"33729","miles_from_dt":8.18},{"city":"Saint Petersburg","state_name":"Florida","lat":27.78882,"lng":-82.67753,"zip":"33713","miles_from_dt":8.19},{"city":"Saint Petersburg","state_name":"Florida","lat":27.77249,"lng":-82.67989,"zip":"33747","miles_from_dt":8.64},{"city":"Clearwater","state_name":"Florida","lat":27.96885,"lng":-82.80321,"zip":"33769","miles_from_dt":8.68},{"city":"Saint Petersburg","state_name":"Florida","lat":27.7706,"lng":-82.67773,"zip":"33733","miles_from_dt":8.82},{"city":"Clearwater Beach","state_name":"Florida","lat":27.97022,"lng":-82.82329,"zip":"33767","miles_from_dt":8.92},{"city":"Saint Petersburg","state_name":"Florida","lat":27.8774,"lng":-82.65119,"zip":"33716","miles_from_dt":9.21},{"city":"Saint Petersburg","state_name":"Florida","lat":27.84469,"lng":-82.64344,"zip":"33742","miles_from_dt":9.38},{"city":"Clearwater","state_name":"Florida","lat":27.9793,"lng":-82.78007,"zip":"33755","miles_from_dt":9.45},{"city":"Saint Petersburg","state_name":"Florida","lat":27.80574,"lng":-82.64799,"zip":"33734","miles_from_dt":9.45},{"city":"Clearwater","state_name":"Florida","lat":27.97426,"lng":-82.7497,"zip":"33758","miles_from_dt":9.49},{"city":"Clearwater","state_name":"Florida","lat":27.98002,"lng":-82.7809,"zip":"33757","miles_from_dt":9.49},{"city":"Clearwater","state_name":"Florida","lat":27.97452,"lng":-82.74419,"zip":"33765","miles_from_dt":9.62},{"city":"Saint Petersburg","state_name":"Florida","lat":27.73884,"lng":-82.68845,"zip":"33711","miles_from_dt":9.76},{"city":"Saint Petersburg","state_name":"Florida","lat":27.84567,"lng":-82.63251,"zip":"33702","miles_from_dt":10.05},{"city":"Saint Petersburg","state_name":"Florida","lat":27.79666,"lng":-82.63292,"zip":"33704","miles_from_dt":10.52},{"city":"Saint Petersburg","state_name":"Florida","lat":27.81756,"lng":-82.62433,"zip":"33703","miles_from_dt":10.69},{"city":"Clearwater","state_name":"Florida","lat":27.98095,"lng":-82.7145,"zip":"33759","miles_from_dt":10.76},{"city":"Saint Petersburg","state_name":"Florida","lat":27.73719,"lng":-82.66535,"zip":"33712","miles_from_dt":10.84},{"city":"Saint Petersburg","state_name":"Florida","lat":27.7705,"lng":-82.63566,"zip":"33701","miles_from_dt":11.05},{"city":"Saint Petersburg","state_name":"Florida","lat":27.75637,"lng":-82.64351,"zip":"33732","miles_from_dt":11.11},{"city":"Saint Petersburg","state_name":"Florida","lat":27.68806,"lng":-82.73385,"zip":"33741","miles_from_dt":11.33},{"city":"Clearwater","state_name":"Florida","lat":28.00298,"lng":-82.74347,"zip":"33763","miles_from_dt":11.5},{"city":"Saint Petersburg","state_name":"Florida","lat":27.70802,"lng":-82.67695,"zip":"33731","miles_from_dt":11.83},{"city":"Saint Petersburg","state_name":"Florida","lat":27.73641,"lng":-82.64265,"zip":"33705","miles_from_dt":11.94},{"city":"Dunedin","state_name":"Florida","lat":28.02655,"lng":-82.76426,"zip":"34697","miles_from_dt":12.8},{"city":"Safety Harbor","state_name":"Florida","lat":28.00927,"lng":-82.69673,"zip":"34695","miles_from_dt":12.99},{"city":"Dunedin","state_name":"Florida","lat":28.03204,"lng":-82.78433,"zip":"34698","miles_from_dt":13.05},{"city":"Saint Petersburg","state_name":"Florida","lat":27.66323,"lng":-82.72214,"zip":"33715","miles_from_dt":13.18},{"city":"Clearwater","state_name":"Florida","lat":28.03103,"lng":-82.72511,"zip":"33761","miles_from_dt":13.68},{"city":"Clearwater","state_name":"Florida","lat":28.03006,"lng":-82.71991,"zip":"33766","miles_from_dt":13.72},{"city":"Ozona","state_name":"Florida","lat":28.06657,"lng":-82.77773,"zip":"34660","miles_from_dt":15.45},{"city":"Oldsmar","state_name":"Florida","lat":28.05293,"lng":-82.67549,"zip":"34677","miles_from_dt":16.25},{"city":"Palm Harbor","state_name":"Florida","lat":28.07705,"lng":-82.76142,"zip":"34682","miles_from_dt":16.27},{"city":"Tampa","state_name":"Florida","lat":27.86712,"lng":-82.5287,"zip":"33616","miles_from_dt":16.48},{"city":"Tampa","state_name":"Florida","lat":28.02408,"lng":-82.61882,"zip":"33635","miles_from_dt":16.55},{"city":"Tampa","state_name":"Florida","lat":27.86851,"lng":-82.52647,"zip":"33686","miles_from_dt":16.63},{"city":"Palm Harbor","state_name":"Florida","lat":28.08626,"lng":-82.76025,"zip":"34683","miles_from_dt":16.91},{"city":"Palm Harbor","state_name":"Florida","lat":28.08122,"lng":-82.72779,"zip":"34684","miles_from_dt":16.94},{"city":"Tampa","state_name":"Florida","lat":27.89387,"lng":-82.52568,"zip":"33681","miles_from_dt":16.95},{"city":"Tampa","state_name":"Florida","lat":28.00008,"lng":-82.58349,"zip":"33685","miles_from_dt":16.95},{"city":"Crystal Beach","state_name":"Florida","lat":28.0903,"lng":-82.77801,"zip":"34681","miles_from_dt":17.08},{"city":"Tampa","state_name":"Florida","lat":28.00546,"lng":-82.58144,"zip":"33615","miles_from_dt":17.28},{"city":"Tampa","state_name":"Florida","lat":27.84162,"lng":-82.51311,"zip":"33608","miles_from_dt":17.36},{"city":"Tampa","state_name":"Florida","lat":27.89059,"lng":-82.50632,"zip":"33611","miles_from_dt":18.07},{"city":"Tampa","state_name":"Florida","lat":27.96269,"lng":-82.53349,"zip":"33631","miles_from_dt":18.09},{"city":"Tampa","state_name":"Florida","lat":27.8436,"lng":-82.50089,"zip":"33621","miles_from_dt":18.1},{"city":"Tampa","state_name":"Florida","lat":27.92181,"lng":-82.51007,"zip":"33629","miles_from_dt":18.36},{"city":"Tampa","state_name":"Florida","lat":28.06256,"lng":-82.61526,"zip":"33626","miles_from_dt":18.76},{"city":"Tampa","state_name":"Florida","lat":27.94307,"lng":-82.51108,"zip":"33609","miles_from_dt":18.78},{"city":"Palm Harbor","state_name":"Florida","lat":28.09995,"lng":-82.68851,"zip":"34685","miles_from_dt":18.9},{"city":"Tampa","state_name":"Florida","lat":27.96624,"lng":-82.52019,"zip":"33677","miles_from_dt":18.93},{"city":"Tampa","state_name":"Florida","lat":27.96837,"lng":-82.51983,"zip":"33630","miles_from_dt":19.01},{"city":"Tampa","state_name":"Florida","lat":28.00769,"lng":-82.54614,"zip":"33634","miles_from_dt":19.07},{"city":"Tampa","state_name":"Florida","lat":27.96776,"lng":-82.51825,"zip":"33664","miles_from_dt":19.08},{"city":"Tampa","state_name":"Florida","lat":27.96881,"lng":-82.51842,"zip":"33650","miles_from_dt":19.1},{"city":"Tampa","state_name":"Florida","lat":27.95279,"lng":-82.50822,"zip":"33679","miles_from_dt":19.2},{"city":"Tampa","state_name":"Florida","lat":27.96677,"lng":-82.51408,"zip":"33607","miles_from_dt":19.28},{"city":"Tampa","state_name":"Florida","lat":28.00619,"lng":-82.50598,"zip":"33614","miles_from_dt":21.04},{"city":"Tampa","state_name":"Florida","lat":27.97788,"lng":-82.48708,"zip":"33633","miles_from_dt":21.1},{"city":"Tampa","state_name":"Florida","lat":27.99551,"lng":-82.49671,"zip":"33684","miles_from_dt":21.14},{"city":"Tampa","state_name":"Florida","lat":28.06807,"lng":-82.56016,"zip":"33625","miles_from_dt":21.2},{"city":"Tampa","state_name":"Florida","lat":27.93209,"lng":-82.46493,"zip":"33606","miles_from_dt":21.21},{"city":"Tarpon Springs","state_name":"Florida","lat":28.14971,"lng":-82.75956,"zip":"34689","miles_from_dt":21.25},{"city":"Tampa","state_name":"Florida","lat":27.95,"lng":-82.46219,"zip":"33646","miles_from_dt":21.75},{"city":"Tarpon Springs","state_name":"Florida","lat":28.14445,"lng":-82.68543,"zip":"34688","miles_from_dt":21.85},{"city":"Tampa","state_name":"Florida","lat":27.95039,"lng":-82.45966,"zip":"33689","miles_from_dt":21.91},{"city":"Anna Maria","state_name":"Florida","lat":27.52837,"lng":-82.7331,"zip":"34216","miles_from_dt":22},{"city":"Tampa","state_name":"Florida","lat":27.95413,"lng":-82.45872,"zip":"33623","miles_from_dt":22.05},{"city":"Tampa","state_name":"Florida","lat":27.94881,"lng":-82.45558,"zip":"33655","miles_from_dt":22.11},{"city":"Tampa","state_name":"Florida","lat":27.95452,"lng":-82.4571,"zip":"33622","miles_from_dt":22.15},{"city":"Tampa","state_name":"Florida","lat":27.95371,"lng":-82.45675,"zip":"33602","miles_from_dt":22.15},{"city":"Tampa","state_name":"Florida","lat":27.95587,"lng":-82.45499,"zip":"33672","miles_from_dt":22.3},{"city":"Tampa","state_name":"Florida","lat":27.98526,"lng":-82.46458,"zip":"33603","miles_from_dt":22.56},{"city":"Terra Ceia","state_name":"Florida","lat":27.57168,"lng":-82.58923,"zip":"34250","miles_from_dt":22.59},{"city":"Sun City","state_name":"Florida","lat":27.67566,"lng":-82.4791,"zip":"33586","miles_from_dt":22.6},{"city":"Ruskin","state_name":"Florida","lat":27.69354,"lng":-82.45861,"zip":"33570","miles_from_dt":23.12},{"city":"Tampa","state_name":"Florida","lat":27.9971,"lng":-82.45998,"zip":"33673","miles_from_dt":23.17},{"city":"Tampa","state_name":"Florida","lat":28.07903,"lng":-82.52608,"zip":"33624","miles_from_dt":23.2},{"city":"Tampa","state_name":"Florida","lat":28.06161,"lng":-82.50555,"zip":"33688","miles_from_dt":23.32},{"city":"Ruskin","state_name":"Florida","lat":27.72202,"lng":-82.43599,"zip":"33575","miles_from_dt":23.6},{"city":"Tampa","state_name":"Florida","lat":27.95121,"lng":-82.42924,"zip":"33605","miles_from_dt":23.68},{"city":"Sun City Center","state_name":"Florida","lat":27.72056,"lng":-82.43333,"zip":"33571","miles_from_dt":23.79},{"city":"Palmetto","state_name":"Florida","lat":27.57777,"lng":-82.54285,"zip":"34221","miles_from_dt":23.98},{"city":"Tampa","state_name":"Florida","lat":28.01875,"lng":-82.45789,"zip":"33674","miles_from_dt":24},{"city":"Holiday","state_name":"Florida","lat":28.19042,"lng":-82.76603,"zip":"34691","miles_from_dt":24.01},{"city":"Tampa","state_name":"Florida","lat":28.06931,"lng":-82.4972,"zip":"33694","miles_from_dt":24.05},{"city":"Tampa","state_name":"Florida","lat":28.01686,"lng":-82.45519,"zip":"33604","miles_from_dt":24.08},{"city":"Holmes Beach","state_name":"Florida","lat":27.50154,"lng":-82.70982,"zip":"34218","miles_from_dt":24.1},{"city":"Holiday","state_name":"Florida","lat":28.19,"lng":-82.74219,"zip":"34692","miles_from_dt":24.13},{"city":"Tampa","state_name":"Florida","lat":28.07313,"lng":-82.49781,"zip":"33618","miles_from_dt":24.19},{"city":"Holiday","state_name":"Florida","lat":28.19228,"lng":-82.72726,"zip":"34690","miles_from_dt":24.43},{"city":"Apollo Beach","state_name":"Florida","lat":27.7659,"lng":-82.39999,"zip":"33572","miles_from_dt":24.86},{"city":"Bradenton Beach","state_name":"Florida","lat":27.48916,"lng":-82.7044,"zip":"34217","miles_from_dt":25},{"city":"Tampa","state_name":"Florida","lat":28.05591,"lng":-82.45906,"zip":"33682","miles_from_dt":25.33},{"city":"Tampa","state_name":"Florida","lat":28.05071,"lng":-82.451,"zip":"33612","miles_from_dt":25.53},{"city":"Bradenton","state_name":"Florida","lat":27.49884,"lng":-82.63614,"zip":"34280","miles_from_dt":25.65},{"city":"Bradenton","state_name":"Florida","lat":27.49489,"lng":-82.6433,"zip":"34209","miles_from_dt":25.74},{"city":"Odessa","state_name":"Florida","lat":28.17029,"lng":-82.59264,"zip":"33556","miles_from_dt":25.76},{"city":"Palmetto","state_name":"Florida","lat":27.52221,"lng":-82.57874,"zip":"34220","miles_from_dt":25.81},{"city":"Elfers","state_name":"Florida","lat":28.2103,"lng":-82.71165,"zip":"34680","miles_from_dt":25.83},{"city":"Gibsonton","state_name":"Florida","lat":27.82273,"lng":-82.37505,"zip":"33534","miles_from_dt":25.85},{"city":"Cortez","state_name":"Florida","lat":27.47444,"lng":-82.68409,"zip":"34215","miles_from_dt":26.29},{"city":"Tampa","state_name":"Florida","lat":27.93536,"lng":-82.37841,"zip":"33619","miles_from_dt":26.37},{"city":"Tampa","state_name":"Florida","lat":27.93115,"lng":-82.3759,"zip":"33660","miles_from_dt":26.45},{"city":"Tampa","state_name":"Florida","lat":28.00275,"lng":-82.40093,"zip":"33680","miles_from_dt":26.59},{"city":"New Port Richey","state_name":"Florida","lat":28.21201,"lng":-82.65516,"zip":"34655","miles_from_dt":26.85},{"city":"Tampa","state_name":"Florida","lat":28.08344,"lng":-82.44873,"zip":"33613","miles_from_dt":26.96},{"city":"New Port Richey","state_name":"Florida","lat":28.2368,"lng":-82.73661,"zip":"34652","miles_from_dt":27.37},{"city":"Tampa","state_name":"Florida","lat":28.11902,"lng":-82.4715,"zip":"33675","miles_from_dt":27.51},{"city":"Riverview","state_name":"Florida","lat":27.86187,"lng":-82.34775,"zip":"33578","miles_from_dt":27.51},{"city":"Tampa","state_name":"Florida","lat":27.9972,"lng":-82.38015,"zip":"33610","miles_from_dt":27.6},{"city":"Ellenton","state_name":"Florida","lat":27.53474,"lng":-82.50699,"zip":"34222","miles_from_dt":27.67},{"city":"Lutz","state_name":"Florida","lat":28.15871,"lng":-82.51597,"zip":"33558","miles_from_dt":27.7},{"city":"Bradenton","state_name":"Florida","lat":27.48956,"lng":-82.57961,"zip":"34281","miles_from_dt":27.73},{"city":"Bradenton","state_name":"Florida","lat":27.49177,"lng":-82.5729,"zip":"34206","miles_from_dt":27.8},{"city":"Tampa","state_name":"Florida","lat":28.06112,"lng":-82.41172,"zip":"33620","miles_from_dt":27.93},{"city":"Bradenton","state_name":"Florida","lat":27.48418,"lng":-82.5835,"zip":"34205","miles_from_dt":27.94},{"city":"Lutz","state_name":"Florida","lat":28.13788,"lng":-82.48184,"zip":"33548","miles_from_dt":27.98},{"city":"Sun City Center","state_name":"Florida","lat":27.72179,"lng":-82.36,"zip":"33573","miles_from_dt":28.01},{"city":"New Port Richey","state_name":"Florida","lat":28.24361,"lng":-82.70907,"zip":"34656","miles_from_dt":28.11},{"city":"Tampa","state_name":"Florida","lat":28.03893,"lng":-82.39327,"zip":"33617","miles_from_dt":28.12},{"city":"Tampa","state_name":"Florida","lat":28.03597,"lng":-82.39098,"zip":"33687","miles_from_dt":28.15},{"city":"New Port Richey","state_name":"Florida","lat":28.24266,"lng":-82.69308,"zip":"34653","miles_from_dt":28.25},{"city":"Brandon","state_name":"Florida","lat":27.89486,"lng":-82.33095,"zip":"33509","miles_from_dt":28.72},{"city":"Riverview","state_name":"Florida","lat":27.86872,"lng":-82.31959,"zip":"33568","miles_from_dt":29.25},{"city":"Tampa","state_name":"Florida","lat":27.98115,"lng":-82.343,"zip":"33601","miles_from_dt":29.34},{"city":"Lutz","state_name":"Florida","lat":28.1392,"lng":-82.44624,"zip":"33549","miles_from_dt":29.58},{"city":"Bradenton","state_name":"Florida","lat":27.43897,"lng":-82.63117,"zip":"34210","miles_from_dt":29.6}],"targetCityZipCode":"33772","targetCityState":"Florida"},"__N_SSG":true}