{"pageProps":{"stateName":"Florida","cityName":"shady-grove","nearbyCities":[{"city":"Perry","state_name":"Florida","lat":30.14416,"lng":-83.64268,"zip":"32347","miles_from_dt":9.76},{"city":"Greenville","state_name":"Florida","lat":30.45851,"lng":-83.6294,"zip":"32331","miles_from_dt":11.93},{"city":"Lamont","state_name":"Florida","lat":30.26371,"lng":-83.86319,"zip":"32336","miles_from_dt":14.06},{"city":"Madison","state_name":"Florida","lat":30.45651,"lng":-83.42667,"zip":"32340","miles_from_dt":16.9},{"city":"Madison","state_name":"Florida","lat":30.46973,"lng":-83.41748,"zip":"32341","miles_from_dt":17.93},{"city":"Monticello","state_name":"Florida","lat":30.44645,"lng":-83.91902,"zip":"32344","miles_from_dt":20.56},{"city":"Day","state_name":"Florida","lat":30.19366,"lng":-83.29116,"zip":"32013","miles_from_dt":21.19},{"city":"Wacissa","state_name":"Florida","lat":30.35765,"lng":-83.98865,"zip":"32361","miles_from_dt":22.04},{"city":"Lee","state_name":"Florida","lat":30.38672,"lng":-83.27066,"zip":"32059","miles_from_dt":22.54},{"city":"Monticello","state_name":"Florida","lat":30.54402,"lng":-83.87248,"zip":"32345","miles_from_dt":22.98},{"city":"Perry","state_name":"Florida","lat":29.94808,"lng":-83.56762,"zip":"32348","miles_from_dt":23.53},{"city":"Lloyd","state_name":"Florida","lat":30.48307,"lng":-84.02104,"zip":"32337","miles_from_dt":27.07},{"city":"Pinetta","state_name":"Florida","lat":30.58662,"lng":-83.32242,"zip":"32350","miles_from_dt":27.68},{"city":"Mayo","state_name":"Florida","lat":30.04423,"lng":-83.22495,"zip":"32066","miles_from_dt":29.35}],"targetCityZipCode":"32357","targetCityState":"Florida"},"__N_SSG":true}