{"pageProps":{"stateName":"Florida","cityName":"trenton","nearbyCities":[{"city":"Bell","state_name":"Florida","lat":29.75661,"lng":-82.86668,"zip":"32619","miles_from_dt":9.86},{"city":"Chiefland","state_name":"Florida","lat":29.47838,"lng":-82.85834,"zip":"32644","miles_from_dt":11.01},{"city":"Newberry","state_name":"Florida","lat":29.63666,"lng":-82.60015,"zip":"32669","miles_from_dt":11.71},{"city":"Chiefland","state_name":"Florida","lat":29.42146,"lng":-82.89464,"zip":"32626","miles_from_dt":15.46},{"city":"High Springs","state_name":"Florida","lat":29.81845,"lng":-82.64155,"zip":"32643","miles_from_dt":16.01},{"city":"Bronson","state_name":"Florida","lat":29.426,"lng":-82.62936,"zip":"32621","miles_from_dt":17.11},{"city":"Archer","state_name":"Florida","lat":29.53789,"lng":-82.52295,"zip":"32618","miles_from_dt":17.49},{"city":"Old Town","state_name":"Florida","lat":29.58144,"lng":-83.08041,"zip":"32680","miles_from_dt":17.51},{"city":"High Springs","state_name":"Florida","lat":29.82253,"lng":-82.59081,"zip":"32655","miles_from_dt":18.14},{"city":"Branford","state_name":"Florida","lat":29.90351,"lng":-82.90311,"zip":"32008","miles_from_dt":20.06},{"city":"Alachua","state_name":"Florida","lat":29.78205,"lng":-82.49933,"zip":"32616","miles_from_dt":20.67},{"city":"Gainesville","state_name":"Florida","lat":29.66333,"lng":-82.4501,"zip":"32602","miles_from_dt":20.86},{"city":"Gainesville","state_name":"Florida","lat":29.68169,"lng":-82.44391,"zip":"32606","miles_from_dt":21.41},{"city":"Fort White","state_name":"Florida","lat":29.93617,"lng":-82.69924,"zip":"32038","miles_from_dt":21.97},{"city":"Cross City","state_name":"Florida","lat":29.65471,"lng":-83.16247,"zip":"32628","miles_from_dt":22.22},{"city":"Alachua","state_name":"Florida","lat":29.81706,"lng":-82.49065,"zip":"32615","miles_from_dt":22.43},{"city":"Gainesville","state_name":"Florida","lat":29.64524,"lng":-82.41923,"zip":"32607","miles_from_dt":22.61},{"city":"Otter Creek","state_name":"Florida","lat":29.29519,"lng":-82.76743,"zip":"32683","miles_from_dt":22.99},{"city":"Gainesville","state_name":"Florida","lat":29.59271,"lng":-82.3935,"zip":"32608","miles_from_dt":24.26},{"city":"Gainesville","state_name":"Florida","lat":29.74506,"lng":-82.40546,"zip":"32653","miles_from_dt":24.74},{"city":"Gainesville","state_name":"Florida","lat":29.61071,"lng":-82.37519,"zip":"32614","miles_from_dt":25.26},{"city":"Williston","state_name":"Florida","lat":29.39544,"lng":-82.46728,"zip":"32696","miles_from_dt":25.4},{"city":"Gainesville","state_name":"Florida","lat":29.67659,"lng":-82.37351,"zip":"32605","miles_from_dt":25.54},{"city":"Gainesville","state_name":"Florida","lat":29.64469,"lng":-82.35307,"zip":"32612","miles_from_dt":26.58},{"city":"Gainesville","state_name":"Florida","lat":29.65305,"lng":-82.35054,"zip":"32603","miles_from_dt":26.77},{"city":"Gainesville","state_name":"Florida","lat":29.64344,"lng":-82.34964,"zip":"32611","miles_from_dt":26.79},{"city":"Gainesville","state_name":"Florida","lat":29.64983,"lng":-82.34589,"zip":"32604","miles_from_dt":27.03},{"city":"Gainesville","state_name":"Florida","lat":29.64077,"lng":-82.34326,"zip":"32610","miles_from_dt":27.16},{"city":"La Crosse","state_name":"Florida","lat":29.84817,"lng":-82.41214,"zip":"32658","miles_from_dt":27.53},{"city":"Gulf Hammock","state_name":"Florida","lat":29.23092,"lng":-82.72007,"zip":"32639","miles_from_dt":27.72},{"city":"Gainesville","state_name":"Florida","lat":29.64635,"lng":-82.3282,"zip":"32627","miles_from_dt":28.08},{"city":"Gainesville","state_name":"Florida","lat":29.6504,"lng":-82.32525,"zip":"32635","miles_from_dt":28.27},{"city":"Gainesville","state_name":"Florida","lat":29.64886,"lng":-82.32506,"zip":"32601","miles_from_dt":28.28},{"city":"Horseshoe Beach","state_name":"Florida","lat":29.50515,"lng":-83.24498,"zip":"32648","miles_from_dt":28.42},{"city":"Cedar Key","state_name":"Florida","lat":29.23005,"lng":-82.98331,"zip":"32625","miles_from_dt":29.69},{"city":"O'Brien","state_name":"Florida","lat":30.04097,"lng":-82.945,"zip":"32071","miles_from_dt":29.84}],"targetCityZipCode":"32693","targetCityState":"Florida"},"__N_SSG":true}