{"pageProps":{"stateName":"Florida","cityName":"waldo","nearbyCities":[{"city":"Hampton","state_name":"Florida","lat":29.85344,"lng":-82.16425,"zip":"32044","miles_from_dt":4.36},{"city":"Earleton","state_name":"Florida","lat":29.71719,"lng":-82.10225,"zip":"32631","miles_from_dt":5.94},{"city":"Gainesville","state_name":"Florida","lat":29.76296,"lng":-82.27978,"zip":"32609","miles_from_dt":7.82},{"city":"Lake Geneva","state_name":"Florida","lat":29.77303,"lng":-82.01018,"zip":"32160","miles_from_dt":8.71},{"city":"Starke","state_name":"Florida","lat":29.93205,"lng":-82.11324,"zip":"32091","miles_from_dt":10.02},{"city":"Melrose","state_name":"Florida","lat":29.72301,"lng":-81.99145,"zip":"32666","miles_from_dt":10.81},{"city":"Gainesville","state_name":"Florida","lat":29.62956,"lng":-82.22557,"zip":"32641","miles_from_dt":11.92},{"city":"Brooker","state_name":"Florida","lat":29.89914,"lng":-82.31216,"zip":"32622","miles_from_dt":12.09},{"city":"Graham","state_name":"Florida","lat":29.96671,"lng":-82.12227,"zip":"32042","miles_from_dt":12.26},{"city":"Keystone Heights","state_name":"Florida","lat":29.82533,"lng":-81.95287,"zip":"32656","miles_from_dt":12.29},{"city":"Putnam Hall","state_name":"Florida","lat":29.73095,"lng":-81.95736,"zip":"32185","miles_from_dt":12.5},{"city":"Island Grove","state_name":"Florida","lat":29.59009,"lng":-82.12737,"zip":"32654","miles_from_dt":13.92},{"city":"Gainesville","state_name":"Florida","lat":29.6504,"lng":-82.32525,"zip":"32635","miles_from_dt":14.14},{"city":"Gainesville","state_name":"Florida","lat":29.64886,"lng":-82.32506,"zip":"32601","miles_from_dt":14.21},{"city":"Gainesville","state_name":"Florida","lat":29.64635,"lng":-82.3282,"zip":"32627","miles_from_dt":14.46},{"city":"Grandin","state_name":"Florida","lat":29.72432,"lng":-81.91968,"zip":"32138","miles_from_dt":14.79},{"city":"Gainesville","state_name":"Florida","lat":29.64983,"lng":-82.34589,"zip":"32604","miles_from_dt":15.1},{"city":"Gainesville","state_name":"Florida","lat":29.65305,"lng":-82.35054,"zip":"32603","miles_from_dt":15.17},{"city":"Gainesville","state_name":"Florida","lat":29.67659,"lng":-82.37351,"zip":"32605","miles_from_dt":15.38},{"city":"Gainesville","state_name":"Florida","lat":29.64077,"lng":-82.34326,"zip":"32610","miles_from_dt":15.39},{"city":"Gainesville","state_name":"Florida","lat":29.74506,"lng":-82.40546,"zip":"32653","miles_from_dt":15.46},{"city":"Gainesville","state_name":"Florida","lat":29.64344,"lng":-82.34964,"zip":"32611","miles_from_dt":15.55},{"city":"Gainesville","state_name":"Florida","lat":29.64469,"lng":-82.35307,"zip":"32612","miles_from_dt":15.66},{"city":"Hawthorne","state_name":"Florida","lat":29.56889,"lng":-82.08021,"zip":"32640","miles_from_dt":15.91},{"city":"La Crosse","state_name":"Florida","lat":29.84817,"lng":-82.41214,"zip":"32658","miles_from_dt":16.02},{"city":"Florahome","state_name":"Florida","lat":29.76274,"lng":-81.86306,"zip":"32140","miles_from_dt":17.57},{"city":"Gainesville","state_name":"Florida","lat":29.61071,"lng":-82.37519,"zip":"32614","miles_from_dt":18.2},{"city":"Worthington Springs","state_name":"Florida","lat":29.92831,"lng":-82.42538,"zip":"32697","miles_from_dt":18.86},{"city":"Gainesville","state_name":"Florida","lat":29.64524,"lng":-82.41923,"zip":"32607","miles_from_dt":18.86},{"city":"Gainesville","state_name":"Florida","lat":29.68169,"lng":-82.44391,"zip":"32606","miles_from_dt":19},{"city":"Interlachen","state_name":"Florida","lat":29.61934,"lng":-81.89793,"zip":"32149","miles_from_dt":19.39},{"city":"Lochloosa","state_name":"Florida","lat":29.51144,"lng":-82.099,"zip":"32662","miles_from_dt":19.52},{"city":"Gainesville","state_name":"Florida","lat":29.59271,"lng":-82.3935,"zip":"32608","miles_from_dt":19.86},{"city":"Gainesville","state_name":"Florida","lat":29.66333,"lng":-82.4501,"zip":"32602","miles_from_dt":19.87},{"city":"Lawtey","state_name":"Florida","lat":30.07988,"lng":-82.10743,"zip":"32058","miles_from_dt":20.1},{"city":"Alachua","state_name":"Florida","lat":29.81706,"lng":-82.49065,"zip":"32615","miles_from_dt":20.32},{"city":"Alachua","state_name":"Florida","lat":29.78205,"lng":-82.49933,"zip":"32616","miles_from_dt":20.78},{"city":"Interlachen","state_name":"Florida","lat":29.60088,"lng":-81.88191,"zip":"32148","miles_from_dt":20.94},{"city":"Raiford","state_name":"Florida","lat":30.09074,"lng":-82.23222,"zip":"32083","miles_from_dt":21.19},{"city":"Evinston","state_name":"Florida","lat":29.48379,"lng":-82.22285,"zip":"32633","miles_from_dt":21.56},{"city":"Lake Butler","state_name":"Florida","lat":30.0281,"lng":-82.39143,"zip":"32054","miles_from_dt":21.69},{"city":"Micanopy","state_name":"Florida","lat":29.49484,"lng":-82.31084,"zip":"32667","miles_from_dt":22.48},{"city":"Orange Springs","state_name":"Florida","lat":29.50926,"lng":-81.94113,"zip":"32182","miles_from_dt":23.23},{"city":"McIntosh","state_name":"Florida","lat":29.44986,"lng":-82.22187,"zip":"32664","miles_from_dt":23.84},{"city":"Hollister","state_name":"Florida","lat":29.63157,"lng":-81.79577,"zip":"32147","miles_from_dt":24.15},{"city":"Penney Farms","state_name":"Florida","lat":29.97814,"lng":-81.80563,"zip":"32079","miles_from_dt":24.55},{"city":"Orange Lake","state_name":"Florida","lat":29.42694,"lng":-82.21527,"zip":"32681","miles_from_dt":25.34},{"city":"Middleburg","state_name":"Florida","lat":30.08218,"lng":-81.88245,"zip":"32068","miles_from_dt":25.83},{"city":"Middleburg","state_name":"Florida","lat":30.07206,"lng":-81.86142,"zip":"32050","miles_from_dt":26.13},{"city":"High Springs","state_name":"Florida","lat":29.82253,"lng":-82.59081,"zip":"32655","miles_from_dt":26.35},{"city":"Green Cove Springs","state_name":"Florida","lat":29.92991,"lng":-81.74304,"zip":"32043","miles_from_dt":26.45},{"city":"Orange Park","state_name":"Florida","lat":30.03256,"lng":-81.79199,"zip":"32067","miles_from_dt":27.35},{"city":"Citra","state_name":"Florida","lat":29.39836,"lng":-82.08127,"zip":"32113","miles_from_dt":27.38},{"city":"Palatka","state_name":"Florida","lat":29.69011,"lng":-81.70565,"zip":"32177","miles_from_dt":27.81},{"city":"Archer","state_name":"Florida","lat":29.53789,"lng":-82.52295,"zip":"32618","miles_from_dt":28.23},{"city":"Newberry","state_name":"Florida","lat":29.63666,"lng":-82.60015,"zip":"32669","miles_from_dt":28.87},{"city":"High Springs","state_name":"Florida","lat":29.81845,"lng":-82.64155,"zip":"32643","miles_from_dt":29.37},{"city":"Lulu","state_name":"Florida","lat":30.08311,"lng":-82.51666,"zip":"32061","miles_from_dt":29.66},{"city":"Jacksonville","state_name":"Florida","lat":30.20784,"lng":-82.01096,"zip":"32234","miles_from_dt":29.97},{"city":"Fairfield","state_name":"Florida","lat":29.3646,"lng":-82.25419,"zip":"32634","miles_from_dt":29.98}],"targetCityZipCode":"32694","targetCityState":"Florida"},"__N_SSG":true}