{"pageProps":{"stateName":"Arizona","cityName":"bullhead-city","nearbyCities":[{"city":"Bullhead City","state_name":"Arizona","lat":35.148,"lng":-114.56753,"zip":"86439","miles_from_dt":10.12},{"city":"Laughlin","state_name":"Nevada","lat":35.14852,"lng":-114.62599,"zip":"89028","miles_from_dt":11.54},{"city":"Bullhead City","state_name":"Arizona","lat":35.09139,"lng":-114.57731,"zip":"86442","miles_from_dt":14.02},{"city":"Laughlin","state_name":"Nevada","lat":35.12561,"lng":-114.68607,"zip":"89029","miles_from_dt":14.87},{"city":"Bullhead City","state_name":"Arizona","lat":35.06287,"lng":-114.57894,"zip":"86430","miles_from_dt":15.95},{"city":"Golden Valley","state_name":"Arizona","lat":35.16995,"lng":-114.25695,"zip":"86413","miles_from_dt":16.58},{"city":"Chloride","state_name":"Arizona","lat":35.42521,"lng":-114.24738,"zip":"86431","miles_from_dt":17.73},{"city":"Fort Mohave","state_name":"Arizona","lat":35.0134,"lng":-114.54968,"zip":"86426","miles_from_dt":19.02},{"city":"Fort Mohave","state_name":"Arizona","lat":35.01753,"lng":-114.58474,"zip":"86427","miles_from_dt":19.07},{"city":"Cal Nev Ari","state_name":"Nevada","lat":35.26581,"lng":-114.8725,"zip":"89039","miles_from_dt":20.4},{"city":"Dolan Springs","state_name":"Arizona","lat":35.56205,"lng":-114.30384,"zip":"86441","miles_from_dt":22.28},{"city":"Searchlight","state_name":"Nevada","lat":35.51207,"lng":-114.8338,"zip":"89046","miles_from_dt":23.83},{"city":"Kingman","state_name":"Arizona","lat":35.20473,"lng":-114.0705,"zip":"86402","miles_from_dt":25.65},{"city":"Mohave Valley","state_name":"Arizona","lat":34.91032,"lng":-114.54631,"zip":"86446","miles_from_dt":26.08},{"city":"Oatman","state_name":"Arizona","lat":34.92862,"lng":-114.35853,"zip":"86433","miles_from_dt":26.25},{"city":"Mohave Valley","state_name":"Arizona","lat":34.88855,"lng":-114.54071,"zip":"86440","miles_from_dt":27.56},{"city":"Willow Beach","state_name":"Arizona","lat":35.70747,"lng":-114.53764,"zip":"86445","miles_from_dt":28.97},{"city":"Kingman","state_name":"Arizona","lat":35.46429,"lng":-114.03245,"zip":"86409","miles_from_dt":29.72}],"targetCityZipCode":"86429","targetCityState":"Arizona"},"__N_SSG":true}