{"pageProps":{"stateName":"Arizona","cityName":"oracle","nearbyCities":[{"city":"Mammoth","state_name":"Arizona","lat":32.77631,"lng":-110.69433,"zip":"85618","miles_from_dt":9.93},{"city":"Tucson","state_name":"Arizona","lat":32.6137,"lng":-111.00758,"zip":"85739","miles_from_dt":13.3},{"city":"San Manuel","state_name":"Arizona","lat":32.58133,"lng":-110.5627,"zip":"85631","miles_from_dt":13.87},{"city":"Tucson","state_name":"Arizona","lat":32.46836,"lng":-110.98152,"zip":"85755","miles_from_dt":17.2},{"city":"Mount Lemmon","state_name":"Arizona","lat":32.39574,"lng":-110.73663,"zip":"85619","miles_from_dt":18.02},{"city":"Tucson","state_name":"Arizona","lat":32.41425,"lng":-110.94683,"zip":"85737","miles_from_dt":19.05},{"city":"Winkelman","state_name":"Arizona","lat":32.96134,"lng":-110.66501,"zip":"85192","miles_from_dt":22.29},{"city":"Marana","state_name":"Arizona","lat":32.52455,"lng":-111.13603,"zip":"85658","miles_from_dt":22.37},{"city":"Hayden","state_name":"Arizona","lat":32.9987,"lng":-110.78242,"zip":"85135","miles_from_dt":23.75},{"city":"Tucson","state_name":"Arizona","lat":32.3898,"lng":-111.05113,"zip":"85742","miles_from_dt":23.96},{"city":"Tucson","state_name":"Arizona","lat":32.33885,"lng":-110.98483,"zip":"85704","miles_from_dt":24.67},{"city":"Tucson","state_name":"Arizona","lat":32.29952,"lng":-110.84288,"zip":"85750","miles_from_dt":24.67},{"city":"Tucson","state_name":"Arizona","lat":32.31078,"lng":-110.91819,"zip":"85718","miles_from_dt":24.91},{"city":"Tucson","state_name":"Arizona","lat":32.30947,"lng":-110.91661,"zip":"85728","miles_from_dt":24.97},{"city":"Tucson","state_name":"Arizona","lat":32.28129,"lng":-110.72604,"zip":"85749","miles_from_dt":25.91},{"city":"Tucson","state_name":"Arizona","lat":32.35198,"lng":-111.04855,"zip":"85752","miles_from_dt":25.91},{"city":"Tucson","state_name":"Arizona","lat":32.3364,"lng":-111.04077,"zip":"85741","miles_from_dt":26.52},{"city":"Tucson","state_name":"Arizona","lat":32.35761,"lng":-111.07662,"zip":"85740","miles_from_dt":26.61},{"city":"Cortaro","state_name":"Arizona","lat":32.38487,"lng":-111.11443,"zip":"85652","miles_from_dt":26.74},{"city":"Rillito","state_name":"Arizona","lat":32.41529,"lng":-111.15467,"zip":"85654","miles_from_dt":27.16},{"city":"Tucson","state_name":"Arizona","lat":32.24898,"lng":-110.83118,"zip":"85715","miles_from_dt":28.05},{"city":"Tucson","state_name":"Arizona","lat":32.24854,"lng":-110.83432,"zip":"85751","miles_from_dt":28.1},{"city":"Tucson","state_name":"Arizona","lat":32.25229,"lng":-110.88636,"zip":"85712","miles_from_dt":28.32},{"city":"Tucson","state_name":"Arizona","lat":32.2726,"lng":-110.99062,"zip":"85703","miles_from_dt":28.91},{"city":"Tucson","state_name":"Arizona","lat":32.27119,"lng":-110.99172,"zip":"85705","miles_from_dt":29.03},{"city":"Tucson","state_name":"Arizona","lat":32.24222,"lng":-110.92351,"zip":"85716","miles_from_dt":29.52},{"city":"Tucson","state_name":"Arizona","lat":32.2462,"lng":-110.94876,"zip":"85719","miles_from_dt":29.7},{"city":"Tucson","state_name":"Arizona","lat":32.22282,"lng":-110.75895,"zip":"85731","miles_from_dt":29.75},{"city":"Tucson","state_name":"Arizona","lat":32.24356,"lng":-110.94972,"zip":"85717","miles_from_dt":29.89},{"city":"Tucson","state_name":"Arizona","lat":32.24072,"lng":-110.94555,"zip":"85724","miles_from_dt":30}],"targetCityZipCode":"85623","targetCityState":"Arizona"},"__N_SSG":true}