{"pageProps":{"stateName":"Arizona","cityName":"palo-verde","nearbyCities":[{"city":"Buckeye","state_name":"Arizona","lat":33.23735,"lng":-112.58538,"zip":"85326","miles_from_dt":9.23},{"city":"Buckeye","state_name":"Arizona","lat":33.5376,"lng":-112.64635,"zip":"85396","miles_from_dt":14.01},{"city":"Arlington","state_name":"Arizona","lat":33.1766,"lng":-112.85207,"zip":"85322","miles_from_dt":14.51},{"city":"Goodyear","state_name":"Arizona","lat":33.37252,"lng":-112.40826,"zip":"85338","miles_from_dt":16.52},{"city":"Goodyear","state_name":"Arizona","lat":33.48208,"lng":-112.40518,"zip":"85395","miles_from_dt":19.28},{"city":"Litchfield Park","state_name":"Arizona","lat":33.5179,"lng":-112.42361,"zip":"85340","miles_from_dt":19.82},{"city":"Waddell","state_name":"Arizona","lat":33.57519,"lng":-112.45374,"zip":"85355","miles_from_dt":21.34},{"city":"Avondale","state_name":"Arizona","lat":33.41888,"lng":-112.32615,"zip":"85323","miles_from_dt":21.82},{"city":"Tonopah","state_name":"Arizona","lat":33.40735,"lng":-113.06637,"zip":"85354","miles_from_dt":22.24},{"city":"Luke Air Force Base","state_name":"Arizona","lat":33.53556,"lng":-112.37637,"zip":"85309","miles_from_dt":22.72},{"city":"Cashion","state_name":"Arizona","lat":33.43171,"lng":-112.2965,"zip":"85329","miles_from_dt":23.7},{"city":"Surprise","state_name":"Arizona","lat":33.60743,"lng":-112.43413,"zip":"85388","miles_from_dt":23.78},{"city":"Avondale","state_name":"Arizona","lat":33.47713,"lng":-112.30981,"zip":"85392","miles_from_dt":24.03},{"city":"Tolleson","state_name":"Arizona","lat":33.41721,"lng":-112.27283,"zip":"85353","miles_from_dt":24.78},{"city":"Phoenix","state_name":"Arizona","lat":33.49347,"lng":-112.28853,"zip":"85039","miles_from_dt":25.61},{"city":"Surprise","state_name":"Arizona","lat":33.60207,"lng":-112.3736,"zip":"85379","miles_from_dt":25.84},{"city":"Glendale","state_name":"Arizona","lat":33.53396,"lng":-112.30867,"zip":"85307","miles_from_dt":25.9},{"city":"Phoenix","state_name":"Arizona","lat":33.49038,"lng":-112.26487,"zip":"85037","miles_from_dt":26.77},{"city":"Gila Bend","state_name":"Arizona","lat":32.97553,"lng":-112.866,"zip":"85337","miles_from_dt":26.95},{"city":"El Mirage","state_name":"Arizona","lat":33.58721,"lng":-112.32836,"zip":"85335","miles_from_dt":27.09},{"city":"Surprise","state_name":"Arizona","lat":33.64449,"lng":-112.395,"zip":"85374","miles_from_dt":27.18},{"city":"Youngtown","state_name":"Arizona","lat":33.58458,"lng":-112.30489,"zip":"85363","miles_from_dt":28.04},{"city":"Glendale","state_name":"Arizona","lat":33.52996,"lng":-112.25563,"zip":"85305","miles_from_dt":28.43},{"city":"Surprise","state_name":"Arizona","lat":33.71025,"lng":-112.44869,"zip":"85387","miles_from_dt":29.23},{"city":"Phoenix","state_name":"Arizona","lat":33.4323,"lng":-112.19744,"zip":"85043","miles_from_dt":29.26},{"city":"Phoenix","state_name":"Arizona","lat":33.49832,"lng":-112.21384,"zip":"85075","miles_from_dt":29.71},{"city":"Phoenix","state_name":"Arizona","lat":33.49443,"lng":-112.21193,"zip":"85033","miles_from_dt":29.71},{"city":"Wittmann","state_name":"Arizona","lat":33.76617,"lng":-112.63093,"zip":"85361","miles_from_dt":29.73},{"city":"Surprise","state_name":"Arizona","lat":33.64162,"lng":-112.32012,"zip":"85378","miles_from_dt":29.95}],"targetCityZipCode":"85343","targetCityState":"Arizona"},"__N_SSG":true}