{"pageProps":{"stateName":"Arizona","cityName":"picacho","nearbyCities":[{"city":"Red Rock","state_name":"Arizona","lat":32.54322,"lng":-111.39415,"zip":"85145","miles_from_dt":7.42},{"city":"Eloy","state_name":"Arizona","lat":32.65542,"lng":-111.57649,"zip":"85131","miles_from_dt":8.68},{"city":"Arizona City","state_name":"Arizona","lat":32.70917,"lng":-111.6802,"zip":"85123","miles_from_dt":15.31},{"city":"Marana","state_name":"Arizona","lat":32.38979,"lng":-111.37908,"zip":"85653","miles_from_dt":17.96},{"city":"Marana","state_name":"Arizona","lat":32.52455,"lng":-111.13603,"zip":"85658","miles_from_dt":19.01},{"city":"Casa Grande","state_name":"Arizona","lat":32.89675,"lng":-111.62439,"zip":"85194","miles_from_dt":20.66},{"city":"Coolidge","state_name":"Arizona","lat":32.96468,"lng":-111.51028,"zip":"85128","miles_from_dt":22.41},{"city":"Rillito","state_name":"Arizona","lat":32.41529,"lng":-111.15467,"zip":"85654","miles_from_dt":22.57},{"city":"Valley Farms","state_name":"Arizona","lat":32.98498,"lng":-111.44686,"zip":"85191","miles_from_dt":23.31},{"city":"Florence","state_name":"Arizona","lat":32.92358,"lng":-111.19119,"zip":"85132","miles_from_dt":23.52},{"city":"Tucson","state_name":"Arizona","lat":32.6137,"lng":-111.00758,"zip":"85739","miles_from_dt":24.62},{"city":"Casa Grande","state_name":"Arizona","lat":32.79822,"lng":-111.82809,"zip":"85193","miles_from_dt":25.53},{"city":"Cortaro","state_name":"Arizona","lat":32.38487,"lng":-111.11443,"zip":"85652","miles_from_dt":25.72},{"city":"Casa Grande","state_name":"Arizona","lat":32.897,"lng":-111.757,"zip":"85130","miles_from_dt":25.76},{"city":"Casa Grande","state_name":"Arizona","lat":32.91672,"lng":-111.74798,"zip":"85122","miles_from_dt":26.31},{"city":"Tucson","state_name":"Arizona","lat":32.30501,"lng":-111.18548,"zip":"85743","miles_from_dt":27.5},{"city":"Tucson","state_name":"Arizona","lat":32.3898,"lng":-111.05113,"zip":"85742","miles_from_dt":28.25},{"city":"Tucson","state_name":"Arizona","lat":32.35761,"lng":-111.07662,"zip":"85740","miles_from_dt":28.61},{"city":"Tucson","state_name":"Arizona","lat":32.46836,"lng":-110.98152,"zip":"85755","miles_from_dt":28.81}],"targetCityZipCode":"85141","targetCityState":"Arizona"},"__N_SSG":true}