{"pageProps":{"stateName":"Arizona","cityName":"window-rock","nearbyCities":[{"city":"Mexican Springs","state_name":"New Mexico","lat":35.80762,"lng":-108.87136,"zip":"87320","miles_from_dt":9.84},{"city":"Yatahey","state_name":"New Mexico","lat":35.66114,"lng":-108.79477,"zip":"87375","miles_from_dt":11.39},{"city":"Fort Defiance","state_name":"Arizona","lat":35.86087,"lng":-109.13995,"zip":"86504","miles_from_dt":13.74},{"city":"Saint Michaels","state_name":"Arizona","lat":35.66536,"lng":-109.26397,"zip":"86511","miles_from_dt":15.6},{"city":"Mentmore","state_name":"New Mexico","lat":35.4769,"lng":-108.94232,"zip":"87319","miles_from_dt":15.82},{"city":"Gamerco","state_name":"New Mexico","lat":35.58024,"lng":-108.75244,"zip":"87317","miles_from_dt":15.85},{"city":"Gallup","state_name":"New Mexico","lat":35.52153,"lng":-108.76524,"zip":"87301","miles_from_dt":17.82},{"city":"Brimhall","state_name":"New Mexico","lat":35.75365,"lng":-108.60267,"zip":"87310","miles_from_dt":22.08},{"city":"Navajo","state_name":"New Mexico","lat":36.02541,"lng":-109.03638,"zip":"87328","miles_from_dt":22.38},{"city":"Rehoboth","state_name":"New Mexico","lat":35.48531,"lng":-108.66253,"zip":"87322","miles_from_dt":23.8},{"city":"Gallup","state_name":"New Mexico","lat":35.4312,"lng":-108.72851,"zip":"87302","miles_from_dt":23.85},{"city":"Lupton","state_name":"Arizona","lat":35.35086,"lng":-109.08737,"zip":"86508","miles_from_dt":24.88},{"city":"Gallup","state_name":"New Mexico","lat":35.40327,"lng":-108.73151,"zip":"87305","miles_from_dt":25.3},{"city":"Church Rock","state_name":"New Mexico","lat":35.60501,"lng":-108.50061,"zip":"87311","miles_from_dt":28.39},{"city":"Houck","state_name":"Arizona","lat":35.35206,"lng":-109.25868,"zip":"86506","miles_from_dt":28.53},{"city":"Tohatchi","state_name":"New Mexico","lat":35.97495,"lng":-108.58746,"zip":"87325","miles_from_dt":29.39},{"city":"Fort Wingate","state_name":"New Mexico","lat":35.48684,"lng":-108.53328,"zip":"87316","miles_from_dt":29.75}],"targetCityZipCode":"86515","targetCityState":"Arizona"},"__N_SSG":true}