{"pageProps":{"stateName":"New-jersey","cityName":"spotswood","nearbyCities":[{"city":"Helmetta","state_name":"New Jersey","lat":40.37767,"lng":-74.42383,"zip":"08828","miles_from_dt":2.06},{"city":"East Brunswick","state_name":"New Jersey","lat":40.42943,"lng":-74.41602,"zip":"08816","miles_from_dt":2.7},{"city":"Old Bridge","state_name":"New Jersey","lat":40.39188,"lng":-74.33059,"zip":"08857","miles_from_dt":3.24},{"city":"South River","state_name":"New Jersey","lat":40.44556,"lng":-74.37842,"zip":"08882","miles_from_dt":3.57},{"city":"Milltown","state_name":"New Jersey","lat":40.44826,"lng":-74.43994,"zip":"08850","miles_from_dt":4.47},{"city":"Monroe Township","state_name":"New Jersey","lat":40.32908,"lng":-74.43066,"zip":"08831","miles_from_dt":4.98},{"city":"Sayreville","state_name":"New Jersey","lat":40.46482,"lng":-74.34002,"zip":"08872","miles_from_dt":5.55},{"city":"Dayton","state_name":"New Jersey","lat":40.37073,"lng":-74.49641,"zip":"08810","miles_from_dt":5.76},{"city":"North Brunswick","state_name":"New Jersey","lat":40.44236,"lng":-74.48579,"zip":"08902","miles_from_dt":5.93},{"city":"Sayreville","state_name":"New Jersey","lat":40.46587,"lng":-74.3236,"zip":"08871","miles_from_dt":6.08},{"city":"Parlin","state_name":"New Jersey","lat":40.45897,"lng":-74.30401,"zip":"08859","miles_from_dt":6.41},{"city":"New Brunswick","state_name":"New Jersey","lat":40.48426,"lng":-74.44275,"zip":"08901","miles_from_dt":6.72},{"city":"New Brunswick","state_name":"New Jersey","lat":40.4843,"lng":-74.44468,"zip":"08906","miles_from_dt":6.76},{"city":"New Brunswick","state_name":"New Jersey","lat":40.48638,"lng":-74.44521,"zip":"08933","miles_from_dt":6.91},{"city":"Piscataway","state_name":"New Jersey","lat":40.50025,"lng":-74.39998,"zip":"08855","miles_from_dt":7.28},{"city":"Somerset","state_name":"New Jersey","lat":40.486,"lng":-74.465,"zip":"08875","miles_from_dt":7.37},{"city":"Morganville","state_name":"New Jersey","lat":40.36191,"lng":-74.25821,"zip":"07751","miles_from_dt":7.42},{"city":"Matawan","state_name":"New Jersey","lat":40.41312,"lng":-74.2521,"zip":"07747","miles_from_dt":7.48},{"city":"Highland Park","state_name":"New Jersey","lat":40.50057,"lng":-74.42832,"zip":"08904","miles_from_dt":7.54},{"city":"South Amboy","state_name":"New Jersey","lat":40.46532,"lng":-74.27691,"zip":"08879","miles_from_dt":7.77},{"city":"Monmouth Junction","state_name":"New Jersey","lat":40.38978,"lng":-74.54461,"zip":"08852","miles_from_dt":8.06},{"city":"Englishtown","state_name":"New Jersey","lat":40.28318,"lng":-74.34232,"zip":"07726","miles_from_dt":8.14},{"city":"Edison","state_name":"New Jersey","lat":40.51366,"lng":-74.39799,"zip":"08818","miles_from_dt":8.2},{"city":"Wickatunk","state_name":"New Jersey","lat":40.35028,"lng":-74.24803,"zip":"07765","miles_from_dt":8.2},{"city":"Edison","state_name":"New Jersey","lat":40.51559,"lng":-74.3939,"zip":"08817","miles_from_dt":8.33},{"city":"New Brunswick","state_name":"New Jersey","lat":40.50987,"lng":-74.44546,"zip":"08903","miles_from_dt":8.42},{"city":"Edison","state_name":"New Jersey","lat":40.51879,"lng":-74.39861,"zip":"08899","miles_from_dt":8.55},{"city":"Edison","state_name":"New Jersey","lat":40.51432,"lng":-74.34477,"zip":"08837","miles_from_dt":8.61},{"city":"New Brunswick","state_name":"New Jersey","lat":40.51942,"lng":-74.41458,"zip":"08989","miles_from_dt":8.67},{"city":"Cranbury","state_name":"New Jersey","lat":40.32166,"lng":-74.52586,"zip":"08512","miles_from_dt":8.69},{"city":"Cliffwood","state_name":"New Jersey","lat":40.43556,"lng":-74.23555,"zip":"07721","miles_from_dt":8.71},{"city":"Kendall Park","state_name":"New Jersey","lat":40.42058,"lng":-74.5538,"zip":"08824","miles_from_dt":8.72},{"city":"Tennent","state_name":"New Jersey","lat":40.27534,"lng":-74.33709,"zip":"07763","miles_from_dt":8.75},{"city":"Keasbey","state_name":"New Jersey","lat":40.51138,"lng":-74.31387,"zip":"08832","miles_from_dt":9.03},{"city":"Marlboro","state_name":"New Jersey","lat":40.31675,"lng":-74.25029,"zip":"07746","miles_from_dt":9.22},{"city":"Franklin Park","state_name":"New Jersey","lat":40.44218,"lng":-74.56318,"zip":"08823","miles_from_dt":9.6},{"city":"Somerset","state_name":"New Jersey","lat":40.49865,"lng":-74.53284,"zip":"08873","miles_from_dt":10.31},{"city":"Metuchen","state_name":"New Jersey","lat":40.54361,"lng":-74.35856,"zip":"08840","miles_from_dt":10.41},{"city":"Keyport","state_name":"New Jersey","lat":40.44108,"lng":-74.2028,"zip":"07735","miles_from_dt":10.47},{"city":"Perth Amboy","state_name":"New Jersey","lat":40.52087,"lng":-74.27397,"zip":"08861","miles_from_dt":10.69},{"city":"Fords","state_name":"New Jersey","lat":40.53733,"lng":-74.31216,"zip":"08863","miles_from_dt":10.69},{"city":"Perth Amboy","state_name":"New Jersey","lat":40.52075,"lng":-74.26943,"zip":"08862","miles_from_dt":10.82},{"city":"Plainsboro","state_name":"New Jersey","lat":40.33392,"lng":-74.58488,"zip":"08536","miles_from_dt":11.02},{"city":"Staten Island","state_name":"New York","lat":40.50817,"lng":-74.24254,"zip":"10307","miles_from_dt":11.09},{"city":"Piscataway","state_name":"New Jersey","lat":40.54648,"lng":-74.46342,"zip":"08854","miles_from_dt":11.11},{"city":"Millstone Township","state_name":"New Jersey","lat":40.23506,"lng":-74.437,"zip":"08535","miles_from_dt":11.28},{"city":"Holmdel","state_name":"New Jersey","lat":40.37683,"lng":-74.17259,"zip":"07733","miles_from_dt":11.64},{"city":"Hazlet","state_name":"New Jersey","lat":40.42611,"lng":-74.17422,"zip":"07730","miles_from_dt":11.68},{"city":"Kingston","state_name":"New Jersey","lat":40.38791,"lng":-74.61744,"zip":"08528","miles_from_dt":11.91},{"city":"Hightstown","state_name":"New Jersey","lat":40.25555,"lng":-74.53269,"zip":"08520","miles_from_dt":12.15},{"city":"Woodbridge","state_name":"New Jersey","lat":40.55358,"lng":-74.28743,"zip":"07095","miles_from_dt":12.25},{"city":"South Plainfield","state_name":"New Jersey","lat":40.57483,"lng":-74.41542,"zip":"07080","miles_from_dt":12.47},{"city":"Edison","state_name":"New Jersey","lat":40.57725,"lng":-74.36599,"zip":"08820","miles_from_dt":12.65},{"city":"Iselin","state_name":"New Jersey","lat":40.56964,"lng":-74.31719,"zip":"08830","miles_from_dt":12.68},{"city":"Roosevelt","state_name":"New Jersey","lat":40.22116,"lng":-74.473,"zip":"08555","miles_from_dt":12.73},{"city":"Freehold","state_name":"New Jersey","lat":40.22522,"lng":-74.28447,"zip":"07728","miles_from_dt":13.01},{"city":"Staten Island","state_name":"New York","lat":40.53001,"lng":-74.21912,"zip":"10309","miles_from_dt":13.03},{"city":"South Bound Brook","state_name":"New Jersey","lat":40.55354,"lng":-74.52771,"zip":"08880","miles_from_dt":13.07},{"city":"Rocky Hill","state_name":"New Jersey","lat":40.40011,"lng":-74.64051,"zip":"08553","miles_from_dt":13.12},{"city":"Sewaren","state_name":"New Jersey","lat":40.55415,"lng":-74.25489,"zip":"07077","miles_from_dt":13.15},{"city":"Middlesex","state_name":"New Jersey","lat":40.57439,"lng":-74.5011,"zip":"08846","miles_from_dt":13.65},{"city":"Zarephath","state_name":"New Jersey","lat":40.53877,"lng":-74.57531,"zip":"08890","miles_from_dt":13.85},{"city":"Keansburg","state_name":"New Jersey","lat":40.44309,"lng":-74.13517,"zip":"07734","miles_from_dt":13.94},{"city":"Colts Neck","state_name":"New Jersey","lat":40.28765,"lng":-74.16745,"zip":"07722","miles_from_dt":13.97},{"city":"Princeton","state_name":"New Jersey","lat":40.36423,"lng":-74.65661,"zip":"08540","miles_from_dt":14.12},{"city":"Colonia","state_name":"New Jersey","lat":40.59255,"lng":-74.31479,"zip":"07067","miles_from_dt":14.23},{"city":"Adelphia","state_name":"New Jersey","lat":40.2141,"lng":-74.26225,"zip":"07710","miles_from_dt":14.23},{"city":"Port Reading","state_name":"New Jersey","lat":40.56865,"lng":-74.2464,"zip":"07064","miles_from_dt":14.23},{"city":"Windsor","state_name":"New Jersey","lat":40.24659,"lng":-74.58138,"zip":"08561","miles_from_dt":14.31},{"city":"Princeton Junction","state_name":"New Jersey","lat":40.28125,"lng":-74.61926,"zip":"08550","miles_from_dt":14.34},{"city":"Millstone Township","state_name":"New Jersey","lat":40.18798,"lng":-74.42351,"zip":"08510","miles_from_dt":14.38},{"city":"Bound Brook","state_name":"New Jersey","lat":40.57165,"lng":-74.53783,"zip":"08805","miles_from_dt":14.41},{"city":"Lincroft","state_name":"New Jersey","lat":40.33918,"lng":-74.12841,"zip":"07738","miles_from_dt":14.43},{"city":"Princeton","state_name":"New Jersey","lat":40.34641,"lng":-74.65787,"zip":"08544","miles_from_dt":14.43},{"city":"Princeton","state_name":"New Jersey","lat":40.34838,"lng":-74.65902,"zip":"08541","miles_from_dt":14.45},{"city":"Princeton","state_name":"New Jersey","lat":40.35452,"lng":-74.66064,"zip":"08542","miles_from_dt":14.45},{"city":"Manville","state_name":"New Jersey","lat":40.54147,"lng":-74.58876,"zip":"08835","miles_from_dt":14.48},{"city":"Belle Mead","state_name":"New Jersey","lat":40.44815,"lng":-74.65763,"zip":"08502","miles_from_dt":14.48},{"city":"Avenel","state_name":"New Jersey","lat":40.58342,"lng":-74.26992,"zip":"07001","miles_from_dt":14.51},{"city":"Middletown","state_name":"New Jersey","lat":40.39524,"lng":-74.11573,"zip":"07748","miles_from_dt":14.57},{"city":"Plainfield","state_name":"New Jersey","lat":40.60524,"lng":-74.44615,"zip":"07063","miles_from_dt":14.79},{"city":"Princeton","state_name":"New Jersey","lat":40.31117,"lng":-74.65163,"zip":"08543","miles_from_dt":14.88},{"city":"Dunellen","state_name":"New Jersey","lat":40.5999,"lng":-74.47979,"zip":"08812","miles_from_dt":14.88},{"city":"Staten Island","state_name":"New York","lat":40.54489,"lng":-74.18084,"zip":"10312","miles_from_dt":15.19},{"city":"Plainfield","state_name":"New Jersey","lat":40.61505,"lng":-74.41449,"zip":"07061","miles_from_dt":15.23},{"city":"Plainfield","state_name":"New Jersey","lat":40.61606,"lng":-74.42164,"zip":"07060","miles_from_dt":15.34},{"city":"Port Monmouth","state_name":"New Jersey","lat":40.431,"lng":-74.103,"zip":"07758","miles_from_dt":15.44},{"city":"Trenton","state_name":"New Jersey","lat":40.22019,"lng":-74.57602,"zip":"08606","miles_from_dt":15.49},{"city":"Trenton","state_name":"New Jersey","lat":40.21804,"lng":-74.57625,"zip":"08602","miles_from_dt":15.61},{"city":"Carteret","state_name":"New Jersey","lat":40.58489,"lng":-74.2284,"zip":"07008","miles_from_dt":15.69},{"city":"Rahway","state_name":"New Jersey","lat":40.60765,"lng":-74.28066,"zip":"07065","miles_from_dt":15.81},{"city":"Clark","state_name":"New Jersey","lat":40.62061,"lng":-74.31335,"zip":"07066","miles_from_dt":16.11},{"city":"Navesink","state_name":"New Jersey","lat":40.38576,"lng":-74.08652,"zip":"07752","miles_from_dt":16.13},{"city":"Belford","state_name":"New Jersey","lat":40.42045,"lng":-74.08488,"zip":"07718","miles_from_dt":16.29},{"city":"Plainfield","state_name":"New Jersey","lat":40.63174,"lng":-74.40391,"zip":"07062","miles_from_dt":16.35},{"city":"Martinsville","state_name":"New Jersey","lat":40.59705,"lng":-74.55446,"zip":"08836","miles_from_dt":16.36},{"city":"Skillman","state_name":"New Jersey","lat":40.41382,"lng":-74.70236,"zip":"08558","miles_from_dt":16.42},{"city":"Hillsborough","state_name":"New Jersey","lat":40.49858,"lng":-74.67274,"zip":"08844","miles_from_dt":16.44},{"city":"Scotch Plains","state_name":"New Jersey","lat":40.63308,"lng":-74.37387,"zip":"07076","miles_from_dt":16.46},{"city":"Blawenburg","state_name":"New Jersey","lat":40.40104,"lng":-74.70474,"zip":"08504","miles_from_dt":16.51},{"city":"Red Bank","state_name":"New Jersey","lat":40.36046,"lng":-74.07866,"zip":"07701","miles_from_dt":16.7},{"city":"Eatontown","state_name":"New Jersey","lat":40.36141,"lng":-74.07798,"zip":"07799","miles_from_dt":16.73},{"city":"Staten Island","state_name":"New York","lat":40.55213,"lng":-74.15029,"zip":"10308","miles_from_dt":16.73},{"city":"Imlaystown","state_name":"New Jersey","lat":40.1649,"lng":-74.49606,"zip":"08526","miles_from_dt":16.8},{"city":"Robbinsville","state_name":"New Jersey","lat":40.20953,"lng":-74.59919,"zip":"08691","miles_from_dt":16.84},{"city":"Fanwood","state_name":"New Jersey","lat":40.64171,"lng":-74.38575,"zip":"07023","miles_from_dt":17.03},{"city":"Watchung","state_name":"New Jersey","lat":40.64249,"lng":-74.4396,"zip":"07069","miles_from_dt":17.26},{"city":"Leonardo","state_name":"New Jersey","lat":40.40953,"lng":-74.06444,"zip":"07737","miles_from_dt":17.31},{"city":"Warren","state_name":"New Jersey","lat":40.63199,"lng":-74.51463,"zip":"07059","miles_from_dt":17.59},{"city":"Linden","state_name":"New Jersey","lat":40.62526,"lng":-74.23917,"zip":"07036","miles_from_dt":17.81},{"city":"Flagtown","state_name":"New Jersey","lat":40.52074,"lng":-74.68835,"zip":"08821","miles_from_dt":17.87},{"city":"Westfield","state_name":"New Jersey","lat":40.65172,"lng":-74.34328,"zip":"07090","miles_from_dt":17.9},{"city":"Eatontown","state_name":"New Jersey","lat":40.29801,"lng":-74.07517,"zip":"07724","miles_from_dt":18.01},{"city":"Garwood","state_name":"New Jersey","lat":40.65132,"lng":-74.32313,"zip":"07027","miles_from_dt":18.06},{"city":"Raritan","state_name":"New Jersey","lat":40.57316,"lng":-74.64305,"zip":"08869","miles_from_dt":18.06},{"city":"Farmingdale","state_name":"New Jersey","lat":40.20352,"lng":-74.15863,"zip":"07727","miles_from_dt":18.07},{"city":"Shrewsbury","state_name":"New Jersey","lat":40.32489,"lng":-74.06002,"zip":"07702","miles_from_dt":18.17},{"city":"Bridgewater","state_name":"New Jersey","lat":40.59241,"lng":-74.6202,"zip":"08807","miles_from_dt":18.17},{"city":"Allentown","state_name":"New Jersey","lat":40.16022,"lng":-74.55237,"zip":"08501","miles_from_dt":18.28},{"city":"Staten Island","state_name":"New York","lat":40.60523,"lng":-74.17956,"zip":"10311","miles_from_dt":18.32},{"city":"Trenton","state_name":"New Jersey","lat":40.22512,"lng":-74.66081,"zip":"08690","miles_from_dt":18.41},{"city":"Staten Island","state_name":"New York","lat":40.57149,"lng":-74.1243,"zip":"10306","miles_from_dt":18.64},{"city":"Staten Island","state_name":"New York","lat":40.60086,"lng":-74.16306,"zip":"10314","miles_from_dt":18.64},{"city":"Cranford","state_name":"New Jersey","lat":40.65678,"lng":-74.30354,"zip":"07016","miles_from_dt":18.66},{"city":"Fair Haven","state_name":"New Jersey","lat":40.36176,"lng":-74.03926,"zip":"07704","miles_from_dt":18.75},{"city":"Atlantic Highlands","state_name":"New Jersey","lat":40.40237,"lng":-74.03533,"zip":"07716","miles_from_dt":18.82},{"city":"Cream Ridge","state_name":"New Jersey","lat":40.13269,"lng":-74.49811,"zip":"08514","miles_from_dt":18.94},{"city":"Lawrence Township","state_name":"New Jersey","lat":40.28488,"lng":-74.72201,"zip":"08648","miles_from_dt":19.01},{"city":"Fort Monmouth","state_name":"New Jersey","lat":40.31411,"lng":-74.046,"zip":"07703","miles_from_dt":19.09},{"city":"Roselle","state_name":"New Jersey","lat":40.65269,"lng":-74.2599,"zip":"07203","miles_from_dt":19.1},{"city":"Trenton","state_name":"New Jersey","lat":40.2414,"lng":-74.69669,"zip":"08619","miles_from_dt":19.27},{"city":"Little Silver","state_name":"New Jersey","lat":40.33569,"lng":-74.03452,"zip":"07739","miles_from_dt":19.3},{"city":"Berkeley Heights","state_name":"New Jersey","lat":40.67525,"lng":-74.42806,"zip":"07922","miles_from_dt":19.44},{"city":"Howell","state_name":"New Jersey","lat":40.15014,"lng":-74.20316,"zip":"07731","miles_from_dt":19.62},{"city":"Roselle Park","state_name":"New Jersey","lat":40.66532,"lng":-74.2666,"zip":"07204","miles_from_dt":19.79},{"city":"Mountainside","state_name":"New Jersey","lat":40.68106,"lng":-74.36038,"zip":"07092","miles_from_dt":19.81},{"city":"Elizabeth","state_name":"New Jersey","lat":40.6531,"lng":-74.21677,"zip":"07202","miles_from_dt":20.06},{"city":"Jackson","state_name":"New Jersey","lat":40.10478,"lng":-74.35035,"zip":"08527","miles_from_dt":20.14},{"city":"Staten Island","state_name":"New York","lat":40.63223,"lng":-74.16903,"zip":"10303","miles_from_dt":20.15},{"city":"Stirling","state_name":"New Jersey","lat":40.6765,"lng":-74.49465,"zip":"07980","miles_from_dt":20.17},{"city":"Kenilworth","state_name":"New Jersey","lat":40.67812,"lng":-74.28898,"zip":"07033","miles_from_dt":20.28},{"city":"Millington","state_name":"New Jersey","lat":40.67698,"lng":-74.51143,"zip":"07946","miles_from_dt":20.45},{"city":"Oceanport","state_name":"New Jersey","lat":40.31583,"lng":-74.01855,"zip":"07757","miles_from_dt":20.45},{"city":"Asbury Park","state_name":"New Jersey","lat":40.24805,"lng":-74.05531,"zip":"07712","miles_from_dt":20.46},{"city":"Rumson","state_name":"New Jersey","lat":40.37053,"lng":-74.00495,"zip":"07760","miles_from_dt":20.49},{"city":"Hopewell","state_name":"New Jersey","lat":40.39641,"lng":-74.78185,"zip":"08525","miles_from_dt":20.57},{"city":"Lyons","state_name":"New Jersey","lat":40.66723,"lng":-74.55215,"zip":"07939","miles_from_dt":20.59},{"city":"Somerville","state_name":"New Jersey","lat":40.58925,"lng":-74.68871,"zip":"08876","miles_from_dt":20.59},{"city":"Westfield","state_name":"New Jersey","lat":40.6938,"lng":-74.38262,"zip":"07091","miles_from_dt":20.63},{"city":"Neshanic Station","state_name":"New Jersey","lat":40.52879,"lng":-74.74246,"zip":"08853","miles_from_dt":20.65},{"city":"Staten Island","state_name":"New York","lat":40.61483,"lng":-74.12436,"zip":"10313","miles_from_dt":20.71},{"city":"Trenton","state_name":"New Jersey","lat":40.16825,"lng":-74.64956,"zip":"08620","miles_from_dt":20.73},{"city":"Gillette","state_name":"New Jersey","lat":40.69198,"lng":-74.46658,"zip":"07933","miles_from_dt":20.87},{"city":"New Providence","state_name":"New Jersey","lat":40.69732,"lng":-74.40321,"zip":"07974","miles_from_dt":20.87},{"city":"Elizabethport","state_name":"New Jersey","lat":40.65238,"lng":-74.18385,"zip":"07206","miles_from_dt":20.87},{"city":"Neptune","state_name":"New Jersey","lat":40.21184,"lng":-74.07421,"zip":"07753","miles_from_dt":21.01},{"city":"Liberty Corner","state_name":"New Jersey","lat":40.6647,"lng":-74.57772,"zip":"07938","miles_from_dt":21.03},{"city":"West Long Branch","state_name":"New Jersey","lat":40.28832,"lng":-74.01854,"zip":"07764","miles_from_dt":21.04},{"city":"Elizabeth","state_name":"New Jersey","lat":40.66966,"lng":-74.21793,"zip":"07207","miles_from_dt":21.05},{"city":"Staten Island","state_name":"New York","lat":40.63055,"lng":-74.13776,"zip":"10302","miles_from_dt":21.06},{"city":"Elizabeth","state_name":"New Jersey","lat":40.67434,"lng":-74.22498,"zip":"07208","miles_from_dt":21.19},{"city":"Highlands","state_name":"New Jersey","lat":40.43115,"lng":-73.99192,"zip":"07732","miles_from_dt":21.25},{"city":"Springfield","state_name":"New Jersey","lat":40.69949,"lng":-74.32542,"zip":"07081","miles_from_dt":21.3},{"city":"Pluckemin","state_name":"New Jersey","lat":40.64409,"lng":-74.63553,"zip":"07978","miles_from_dt":21.45},{"city":"Oakhurst","state_name":"New Jersey","lat":40.26351,"lng":-74.02344,"zip":"07755","miles_from_dt":21.47},{"city":"Staten Island","state_name":"New York","lat":40.60671,"lng":-74.0931,"zip":"10304","miles_from_dt":21.48},{"city":"Trenton","state_name":"New Jersey","lat":40.22066,"lng":-74.73127,"zip":"08629","miles_from_dt":21.58},{"city":"Union","state_name":"New Jersey","lat":40.69443,"lng":-74.2692,"zip":"07083","miles_from_dt":21.65},{"city":"Trenton","state_name":"New Jersey","lat":40.13783,"lng":-74.62782,"zip":"08650","miles_from_dt":21.68},{"city":"Basking Ridge","state_name":"New Jersey","lat":40.68374,"lng":-74.55444,"zip":"07920","miles_from_dt":21.69},{"city":"Staten Island","state_name":"New York","lat":40.59592,"lng":-74.07539,"zip":"10305","miles_from_dt":21.69},{"city":"Pennington","state_name":"New Jersey","lat":40.33026,"lng":-74.79422,"zip":"08534","miles_from_dt":21.69},{"city":"Monmouth Beach","state_name":"New Jersey","lat":40.33639,"lng":-73.98632,"zip":"07750","miles_from_dt":21.79},{"city":"Trenton","state_name":"New Jersey","lat":40.25531,"lng":-74.76222,"zip":"08638","miles_from_dt":21.8},{"city":"Readington","state_name":"New Jersey","lat":40.56649,"lng":-74.73994,"zip":"08870","miles_from_dt":21.82},{"city":"Trenton","state_name":"New Jersey","lat":40.22594,"lng":-74.74109,"zip":"08609","miles_from_dt":21.82},{"city":"Staten Island","state_name":"New York","lat":40.63243,"lng":-74.11653,"zip":"10310","miles_from_dt":21.88},{"city":"Trenton","state_name":"New Jersey","lat":40.19377,"lng":-74.71565,"zip":"08610","miles_from_dt":22.02},{"city":"Summit","state_name":"New Jersey","lat":40.71414,"lng":-74.36589,"zip":"07902","miles_from_dt":22.07},{"city":"Summit","state_name":"New Jersey","lat":40.71462,"lng":-74.36604,"zip":"07901","miles_from_dt":22.1},{"city":"Long Branch","state_name":"New Jersey","lat":40.29581,"lng":-73.9919,"zip":"07740","miles_from_dt":22.2},{"city":"Elizabeth","state_name":"New Jersey","lat":40.67237,"lng":-74.17643,"zip":"07201","miles_from_dt":22.25},{"city":"Staten Island","state_name":"New York","lat":40.62803,"lng":-74.09564,"zip":"10301","miles_from_dt":22.41},{"city":"Hillside","state_name":"New Jersey","lat":40.69612,"lng":-74.22857,"zip":"07205","miles_from_dt":22.49},{"city":"Allenwood","state_name":"New Jersey","lat":40.14073,"lng":-74.11431,"zip":"08720","miles_from_dt":22.87},{"city":"Chatham","state_name":"New Jersey","lat":40.7262,"lng":-74.41381,"zip":"07928","miles_from_dt":22.89},{"city":"Three Bridges","state_name":"New Jersey","lat":40.52219,"lng":-74.79428,"zip":"08887","miles_from_dt":22.95},{"city":"Deal","state_name":"New Jersey","lat":40.25016,"lng":-74.00081,"zip":"07723","miles_from_dt":22.95},{"city":"Belmar","state_name":"New Jersey","lat":40.16864,"lng":-74.07271,"zip":"07719","miles_from_dt":22.99},{"city":"Allenhurst","state_name":"New Jersey","lat":40.2379,"lng":-74.0076,"zip":"07711","miles_from_dt":23.01},{"city":"Vauxhall","state_name":"New Jersey","lat":40.71832,"lng":-74.28375,"zip":"07088","miles_from_dt":23.03},{"city":"Trenton","state_name":"New Jersey","lat":40.2199,"lng":-74.76374,"zip":"08601","miles_from_dt":23.05},{"city":"Trenton","state_name":"New Jersey","lat":40.22086,"lng":-74.76486,"zip":"08695","miles_from_dt":23.07},{"city":"Trenton","state_name":"New Jersey","lat":40.2196,"lng":-74.76437,"zip":"08604","miles_from_dt":23.09},{"city":"Trenton","state_name":"New Jersey","lat":40.22051,"lng":-74.76526,"zip":"08603","miles_from_dt":23.1},{"city":"Trenton","state_name":"New Jersey","lat":40.21789,"lng":-74.76342,"zip":"08646","miles_from_dt":23.11},{"city":"Neptune","state_name":"New Jersey","lat":40.20198,"lng":-74.03369,"zip":"07754","miles_from_dt":23.14},{"city":"Trenton","state_name":"New Jersey","lat":40.21927,"lng":-74.76518,"zip":"08605","miles_from_dt":23.14},{"city":"Millburn","state_name":"New Jersey","lat":40.72301,"lng":-74.30065,"zip":"07041","miles_from_dt":23.14},{"city":"Trenton","state_name":"New Jersey","lat":40.24878,"lng":-74.78734,"zip":"08618","miles_from_dt":23.19},{"city":"Trenton","state_name":"New Jersey","lat":40.21947,"lng":-74.76693,"zip":"08608","miles_from_dt":23.21},{"city":"Trenton","state_name":"New Jersey","lat":40.22185,"lng":-74.76973,"zip":"08607","miles_from_dt":23.25},{"city":"Trenton","state_name":"New Jersey","lat":40.19107,"lng":-74.74299,"zip":"08611","miles_from_dt":23.28},{"city":"Trenton","state_name":"New Jersey","lat":40.2059,"lng":-74.75706,"zip":"08625","miles_from_dt":23.28},{"city":"Trenton","state_name":"New Jersey","lat":40.21857,"lng":-74.76894,"zip":"08647","miles_from_dt":23.34},{"city":"Trenton","state_name":"New Jersey","lat":40.21954,"lng":-74.76969,"zip":"08666","miles_from_dt":23.34},{"city":"New Vernon","state_name":"New Jersey","lat":40.72747,"lng":-74.47704,"zip":"07976","miles_from_dt":23.38},{"city":"Trenton","state_name":"New Jersey","lat":40.21719,"lng":-74.76963,"zip":"08645","miles_from_dt":23.42},{"city":"Chesterfield","state_name":"New Jersey","lat":40.1163,"lng":-74.64568,"zip":"08515","miles_from_dt":23.44},{"city":"Bedminster","state_name":"New Jersey","lat":40.65599,"lng":-74.6771,"zip":"07921","miles_from_dt":23.45},{"city":"Bayonne","state_name":"New Jersey","lat":40.66681,"lng":-74.11582,"zip":"07002","miles_from_dt":23.73},{"city":"Newark","state_name":"New Jersey","lat":40.71137,"lng":-74.21164,"zip":"07112","miles_from_dt":23.81},{"city":"Ringoes","state_name":"New Jersey","lat":40.44425,"lng":-74.83907,"zip":"08551","miles_from_dt":23.82},{"city":"Green Village","state_name":"New Jersey","lat":40.7371,"lng":-74.45296,"zip":"07935","miles_from_dt":23.83},{"city":"Ocean Grove","state_name":"New Jersey","lat":40.21184,"lng":-74.00832,"zip":"07756","miles_from_dt":23.88},{"city":"Bradley Beach","state_name":"New Jersey","lat":40.20176,"lng":-74.01276,"zip":"07720","miles_from_dt":24.06},{"city":"Lakewood","state_name":"New Jersey","lat":40.07635,"lng":-74.20311,"zip":"08701","miles_from_dt":24.14},{"city":"Newark","state_name":"New Jersey","lat":40.70018,"lng":-74.16618,"zip":"07114","miles_from_dt":24.18},{"city":"Short Hills","state_name":"New Jersey","lat":40.74196,"lng":-74.3277,"zip":"07078","miles_from_dt":24.18},{"city":"Maplewood","state_name":"New Jersey","lat":40.73302,"lng":-74.27117,"zip":"07040","miles_from_dt":24.18},{"city":"Irvington","state_name":"New Jersey","lat":40.72426,"lng":-74.23173,"zip":"07111","miles_from_dt":24.24},{"city":"Whitehouse Station","state_name":"New Jersey","lat":40.60744,"lng":-74.75936,"zip":"08889","miles_from_dt":24.28},{"city":"Newark","state_name":"New Jersey","lat":40.70298,"lng":-74.16875,"zip":"07191","miles_from_dt":24.29},{"city":"Whitehouse","state_name":"New Jersey","lat":40.625,"lng":-74.74164,"zip":"08888","miles_from_dt":24.31},{"city":"Avon By The Sea","state_name":"New Jersey","lat":40.19129,"lng":-74.01657,"zip":"07717","miles_from_dt":24.31},{"city":"Trenton","state_name":"New Jersey","lat":40.26705,"lng":-74.82235,"zip":"08628","miles_from_dt":24.38},{"city":"Belmar","state_name":"New Jersey","lat":40.18188,"lng":-74.0229,"zip":"07715","miles_from_dt":24.42},{"city":"Newark","state_name":"New Jersey","lat":40.72559,"lng":-74.21849,"zip":"07184","miles_from_dt":24.57},{"city":"Brooklyn","state_name":"New York","lat":40.57652,"lng":-73.9891,"zip":"11224","miles_from_dt":24.65},{"city":"Brooklyn","state_name":"New York","lat":40.62175,"lng":-74.03013,"zip":"11209","miles_from_dt":24.66},{"city":"Brooklyn","state_name":"New York","lat":40.62455,"lng":-74.03128,"zip":"11252","miles_from_dt":24.74},{"city":"Newark","state_name":"New Jersey","lat":40.72306,"lng":-74.20039,"zip":"07108","miles_from_dt":24.78},{"city":"Wrightstown","state_name":"New Jersey","lat":40.06812,"lng":-74.59401,"zip":"08562","miles_from_dt":24.95},{"city":"Brooklyn","state_name":"New York","lat":40.61678,"lng":-74.01337,"zip":"11228","miles_from_dt":25.14},{"city":"Brooklyn","state_name":"New York","lat":40.59928,"lng":-73.99644,"zip":"11214","miles_from_dt":25.16},{"city":"Spring Lake","state_name":"New Jersey","lat":40.15294,"lng":-74.0359,"zip":"07762","miles_from_dt":25.16},{"city":"Bernardsville","state_name":"New Jersey","lat":40.727,"lng":-74.58941,"zip":"07924","miles_from_dt":25.16},{"city":"Madison","state_name":"New Jersey","lat":40.76006,"lng":-74.41889,"zip":"07940","miles_from_dt":25.23},{"city":"Titusville","state_name":"New Jersey","lat":40.31453,"lng":-74.85946,"zip":"08560","miles_from_dt":25.29},{"city":"South Orange","state_name":"New Jersey","lat":40.74908,"lng":-74.26022,"zip":"07079","miles_from_dt":25.4},{"city":"Newark","state_name":"New Jersey","lat":40.74177,"lng":-74.23047,"zip":"07106","miles_from_dt":25.4},{"city":"Lakehurst","state_name":"New Jersey","lat":40.0262,"lng":-74.3713,"zip":"08733","miles_from_dt":25.46},{"city":"Manasquan","state_name":"New Jersey","lat":40.12028,"lng":-74.06862,"zip":"08736","miles_from_dt":25.52},{"city":"Peapack","state_name":"New Jersey","lat":40.70969,"lng":-74.64786,"zip":"07977","miles_from_dt":25.56},{"city":"Newark","state_name":"New Jersey","lat":40.72576,"lng":-74.17222,"zip":"07101","miles_from_dt":25.59},{"city":"Brick","state_name":"New Jersey","lat":40.09034,"lng":-74.115,"zip":"08724","miles_from_dt":25.61},{"city":"Cookstown","state_name":"New Jersey","lat":40.04441,"lng":-74.55384,"zip":"08511","miles_from_dt":25.66},{"city":"Newark","state_name":"New Jersey","lat":40.72707,"lng":-74.17207,"zip":"07199","miles_from_dt":25.67},{"city":"Newark","state_name":"New Jersey","lat":40.72934,"lng":-74.17695,"zip":"07193","miles_from_dt":25.7},{"city":"Far Hills","state_name":"New Jersey","lat":40.70791,"lng":-74.65732,"zip":"07931","miles_from_dt":25.72},{"city":"Sea Girt","state_name":"New Jersey","lat":40.13389,"lng":-74.0444,"zip":"08750","miles_from_dt":25.73},{"city":"Newark","state_name":"New Jersey","lat":40.73005,"lng":-74.17657,"zip":"07192","miles_from_dt":25.75},{"city":"Newark","state_name":"New Jersey","lat":40.72982,"lng":-74.17537,"zip":"07195","miles_from_dt":25.77},{"city":"Newark","state_name":"New Jersey","lat":40.73095,"lng":-74.17544,"zip":"07188","miles_from_dt":25.83},{"city":"Newark","state_name":"New Jersey","lat":40.73886,"lng":-74.19529,"zip":"07103","miles_from_dt":25.89},{"city":"Morrisville","state_name":"Pennsylvania","lat":40.19595,"lng":-74.80976,"zip":"19067","miles_from_dt":25.99},{"city":"Brooklyn","state_name":"New York","lat":40.64142,"lng":-74.01741,"zip":"11220","miles_from_dt":26.04},{"city":"Brooklyn","state_name":"New York","lat":40.59711,"lng":-73.97344,"zip":"11223","miles_from_dt":26.09},{"city":"Newark","state_name":"New Jersey","lat":40.73576,"lng":-74.17343,"zip":"07102","miles_from_dt":26.18},{"city":"Newark","state_name":"New Jersey","lat":40.73566,"lng":-74.1714,"zip":"07175","miles_from_dt":26.22},{"city":"Newark","state_name":"New Jersey","lat":40.72266,"lng":-74.13874,"zip":"07105","miles_from_dt":26.25},{"city":"Florham Park","state_name":"New Jersey","lat":40.77717,"lng":-74.39246,"zip":"07932","miles_from_dt":26.37},{"city":"Brooklyn","state_name":"New York","lat":40.61883,"lng":-73.98496,"zip":"11204","miles_from_dt":26.42},{"city":"Flemington","state_name":"New Jersey","lat":40.52281,"lng":-74.86576,"zip":"08822","miles_from_dt":26.48},{"city":"Brielle","state_name":"New Jersey","lat":40.10483,"lng":-74.06366,"zip":"08730","miles_from_dt":26.49},{"city":"Brooklyn","state_name":"New York","lat":40.63267,"lng":-73.99672,"zip":"11219","miles_from_dt":26.5},{"city":"East Orange","state_name":"New Jersey","lat":40.75572,"lng":-74.21793,"zip":"07018","miles_from_dt":26.53},{"city":"Jersey City","state_name":"New Jersey","lat":40.69839,"lng":-74.08158,"zip":"07305","miles_from_dt":26.56},{"city":"Stanton","state_name":"New Jersey","lat":40.57427,"lng":-74.83818,"zip":"08885","miles_from_dt":26.57},{"city":"New Egypt","state_name":"New Jersey","lat":40.01293,"lng":-74.47138,"zip":"08533","miles_from_dt":26.69},{"city":"Lambertville","state_name":"New Jersey","lat":40.37288,"lng":-74.89747,"zip":"08530","miles_from_dt":26.72},{"city":"Convent Station","state_name":"New Jersey","lat":40.78105,"lng":-74.43517,"zip":"07961","miles_from_dt":26.74},{"city":"Oldwick","state_name":"New Jersey","lat":40.67903,"lng":-74.73748,"zip":"08858","miles_from_dt":26.74},{"city":"Washington Crossing","state_name":"Pennsylvania","lat":40.28655,"lng":-74.87865,"zip":"18977","miles_from_dt":26.76},{"city":"Newark","state_name":"New Jersey","lat":40.73588,"lng":-74.14386,"zip":"07198","miles_from_dt":26.91},{"city":"East Orange","state_name":"New Jersey","lat":40.75994,"lng":-74.20793,"zip":"07019","miles_from_dt":26.98},{"city":"Brooklyn","state_name":"New York","lat":40.58411,"lng":-73.94331,"zip":"11235","miles_from_dt":27},{"city":"Orange","state_name":"New Jersey","lat":40.76817,"lng":-74.2348,"zip":"07050","miles_from_dt":27.05},{"city":"Harrison","state_name":"New Jersey","lat":40.74377,"lng":-74.15389,"zip":"07029","miles_from_dt":27.13},{"city":"Gladstone","state_name":"New Jersey","lat":40.72044,"lng":-74.68159,"zip":"07934","miles_from_dt":27.14},{"city":"Orange","state_name":"New Jersey","lat":40.77059,"lng":-74.23915,"zip":"07051","miles_from_dt":27.14},{"city":"Livingston","state_name":"New Jersey","lat":40.78554,"lng":-74.32909,"zip":"07039","miles_from_dt":27.15},{"city":"Brooklyn","state_name":"New York","lat":40.65692,"lng":-74.00727,"zip":"11232","miles_from_dt":27.15},{"city":"Bordentown","state_name":"New Jersey","lat":40.10413,"lng":-74.73959,"zip":"08505","miles_from_dt":27.21},{"city":"Joint Base Mdl","state_name":"New Jersey","lat":40.02819,"lng":-74.58715,"zip":"08641","miles_from_dt":27.33},{"city":"Brooklyn","state_name":"New York","lat":40.6221,"lng":-73.96525,"zip":"11230","miles_from_dt":27.4},{"city":"Levittown","state_name":"Pennsylvania","lat":40.17055,"lng":-74.82016,"zip":"19054","miles_from_dt":27.42},{"city":"Morristown","state_name":"New Jersey","lat":40.78452,"lng":-74.49813,"zip":"07960","miles_from_dt":27.46},{"city":"Brooklyn","state_name":"New York","lat":40.60047,"lng":-73.94453,"zip":"11229","miles_from_dt":27.51},{"city":"Newark","state_name":"New Jersey","lat":40.76181,"lng":-74.18653,"zip":"07107","miles_from_dt":27.53},{"city":"Fairless Hills","state_name":"Pennsylvania","lat":40.1812,"lng":-74.83269,"zip":"19030","miles_from_dt":27.56},{"city":"Breezy Point","state_name":"New York","lat":40.55749,"lng":-73.91361,"zip":"11697","miles_from_dt":27.59},{"city":"Far Rockaway","state_name":"New York","lat":40.55835,"lng":-73.91145,"zip":"11695","miles_from_dt":27.72},{"city":"Jersey City","state_name":"New Jersey","lat":40.71741,"lng":-74.07637,"zip":"07304","miles_from_dt":27.77},{"city":"East Orange","state_name":"New Jersey","lat":40.77192,"lng":-74.20712,"zip":"07017","miles_from_dt":27.77},{"city":"Brooklyn","state_name":"New York","lat":40.64315,"lng":-73.97645,"zip":"11218","miles_from_dt":27.79},{"city":"Point Pleasant Beach","state_name":"New Jersey","lat":40.08076,"lng":-74.06213,"zip":"08742","miles_from_dt":27.82},{"city":"Morristown","state_name":"New Jersey","lat":40.79547,"lng":-74.47775,"zip":"07963","miles_from_dt":28},{"city":"Toms River","state_name":"New Jersey","lat":40.00968,"lng":-74.22457,"zip":"08755","miles_from_dt":28.02},{"city":"West Orange","state_name":"New Jersey","lat":40.78928,"lng":-74.26281,"zip":"07052","miles_from_dt":28.05},{"city":"Brooklyn","state_name":"New York","lat":40.67603,"lng":-74.00644,"zip":"11231","miles_from_dt":28.07},{"city":"Pottersville","state_name":"New Jersey","lat":40.71225,"lng":-74.72581,"zip":"07979","miles_from_dt":28.07},{"city":"Roebling","state_name":"New Jersey","lat":40.11556,"lng":-74.77966,"zip":"08554","miles_from_dt":28.14},{"city":"Brooklyn","state_name":"New York","lat":40.66255,"lng":-73.98687,"zip":"11215","miles_from_dt":28.21},{"city":"Columbus","state_name":"New Jersey","lat":40.06516,"lng":-74.70905,"zip":"08022","miles_from_dt":28.26},{"city":"Newark","state_name":"New Jersey","lat":40.76735,"lng":-74.16831,"zip":"07104","miles_from_dt":28.26},{"city":"Jersey City","state_name":"New Jersey","lat":40.72784,"lng":-74.07843,"zip":"07399","miles_from_dt":28.28},{"city":"Jersey City","state_name":"New Jersey","lat":40.73,"lng":-74.08219,"zip":"07395","miles_from_dt":28.29},{"city":"Lebanon","state_name":"New Jersey","lat":40.645,"lng":-74.81989,"zip":"08833","miles_from_dt":28.38},{"city":"Brooklyn","state_name":"New York","lat":40.62801,"lng":-73.94631,"zip":"11210","miles_from_dt":28.45},{"city":"Joint Base Mdl","state_name":"New Jersey","lat":40.0093,"lng":-74.58424,"zip":"08640","miles_from_dt":28.49},{"city":"New York","state_name":"New York","lat":40.69431,"lng":-74.01835,"zip":"10004","miles_from_dt":28.52},{"city":"Kearny","state_name":"New Jersey","lat":40.75281,"lng":-74.12016,"zip":"07032","miles_from_dt":28.54},{"city":"New York","state_name":"New York","lat":40.69086,"lng":-74.0119,"zip":"10045","miles_from_dt":28.59},{"city":"Kearny","state_name":"New Jersey","lat":40.75385,"lng":-74.11996,"zip":"07099","miles_from_dt":28.6},{"city":"Brick","state_name":"New Jersey","lat":40.03896,"lng":-74.11091,"zip":"08723","miles_from_dt":28.71},{"city":"Brooklyn","state_name":"New York","lat":40.64636,"lng":-73.95666,"zip":"11226","miles_from_dt":28.75},{"city":"Mendham","state_name":"New Jersey","lat":40.78065,"lng":-74.59928,"zip":"07945","miles_from_dt":28.76},{"city":"Jersey City","state_name":"New Jersey","lat":40.71765,"lng":-74.0453,"zip":"07303","miles_from_dt":28.79},{"city":"Jersey City","state_name":"New Jersey","lat":40.71894,"lng":-74.04462,"zip":"07302","miles_from_dt":28.88},{"city":"Morristown","state_name":"New Jersey","lat":40.8064,"lng":-74.50061,"zip":"07962","miles_from_dt":28.96},{"city":"Jersey City","state_name":"New Jersey","lat":40.73674,"lng":-74.07132,"zip":"07306","miles_from_dt":29},{"city":"Jobstown","state_name":"New Jersey","lat":40.03852,"lng":-74.68263,"zip":"08041","miles_from_dt":29},{"city":"Jersey City","state_name":"New Jersey","lat":40.73152,"lng":-74.06175,"zip":"07308","miles_from_dt":29.01},{"city":"Levittown","state_name":"Pennsylvania","lat":40.14984,"lng":-74.83881,"zip":"19055","miles_from_dt":29.05},{"city":"New York","state_name":"New York","lat":40.70188,"lng":-74.01397,"zip":"10275","miles_from_dt":29.06},{"city":"Florence","state_name":"New Jersey","lat":40.11541,"lng":-74.80357,"zip":"08518","miles_from_dt":29.08},{"city":"New York","state_name":"New York","lat":40.70311,"lng":-74.01332,"zip":"10265","miles_from_dt":29.14},{"city":"New York","state_name":"New York","lat":40.70314,"lng":-74.01279,"zip":"10260","miles_from_dt":29.16},{"city":"New York","state_name":"New York","lat":40.70187,"lng":-74.01018,"zip":"10269","miles_from_dt":29.19},{"city":"Brooklyn","state_name":"New York","lat":40.67997,"lng":-73.98143,"zip":"11243","miles_from_dt":29.22},{"city":"Brooklyn","state_name":"New York","lat":40.6072,"lng":-73.91107,"zip":"11234","miles_from_dt":29.26},{"city":"Sergeantsville","state_name":"New Jersey","lat":40.44541,"lng":-74.94305,"zip":"08557","miles_from_dt":29.27},{"city":"East Hanover","state_name":"New Jersey","lat":40.81918,"lng":-74.36382,"zip":"07936","miles_from_dt":29.31},{"city":"New York","state_name":"New York","lat":40.70592,"lng":-74.01239,"zip":"10274","miles_from_dt":29.32},{"city":"New York","state_name":"New York","lat":40.70764,"lng":-74.01352,"zip":"10041","miles_from_dt":29.36},{"city":"New York","state_name":"New York","lat":40.70336,"lng":-74.00749,"zip":"10270","miles_from_dt":29.37},{"city":"New York","state_name":"New York","lat":40.70985,"lng":-74.01651,"zip":"10280","miles_from_dt":29.37},{"city":"Jersey City","state_name":"New Jersey","lat":40.71878,"lng":-74.02933,"zip":"07311","miles_from_dt":29.39},{"city":"New York","state_name":"New York","lat":40.70623,"lng":-74.0109,"zip":"10256","miles_from_dt":29.39},{"city":"New York","state_name":"New York","lat":40.70694,"lng":-74.01157,"zip":"10268","miles_from_dt":29.4},{"city":"Brooklyn","state_name":"New York","lat":40.67105,"lng":-73.96636,"zip":"11238","miles_from_dt":29.41},{"city":"Brooklyn","state_name":"New York","lat":40.68242,"lng":-73.97943,"zip":"11217","miles_from_dt":29.41},{"city":"Brooklyn","state_name":"New York","lat":40.6924,"lng":-73.99116,"zip":"11202","miles_from_dt":29.43},{"city":"New York","state_name":"New York","lat":40.71081,"lng":-74.01524,"zip":"10285","miles_from_dt":29.46},{"city":"New York","state_name":"New York","lat":40.70614,"lng":-74.00862,"zip":"10005","miles_from_dt":29.47},{"city":"New York","state_name":"New York","lat":40.7057,"lng":-74.00797,"zip":"10286","miles_from_dt":29.47},{"city":"New York","state_name":"New York","lat":40.70949,"lng":-74.01306,"zip":"10006","miles_from_dt":29.48},{"city":"Brookside","state_name":"New Jersey","lat":40.80029,"lng":-74.56879,"zip":"07926","miles_from_dt":29.48},{"city":"New York","state_name":"New York","lat":40.71309,"lng":-74.01788,"zip":"10080","miles_from_dt":29.49},{"city":"Brooklyn","state_name":"New York","lat":40.69209,"lng":-73.98882,"zip":"11242","miles_from_dt":29.51},{"city":"Levittown","state_name":"Pennsylvania","lat":40.155,"lng":-74.85441,"zip":"19058","miles_from_dt":29.52},{"city":"New York","state_name":"New York","lat":40.70844,"lng":-74.01033,"zip":"10271","miles_from_dt":29.52},{"city":"Whippany","state_name":"New Jersey","lat":40.8214,"lng":-74.43954,"zip":"07999","miles_from_dt":29.53},{"city":"Brooklyn","state_name":"New York","lat":40.69663,"lng":-73.99385,"zip":"11241","miles_from_dt":29.54},{"city":"Brooklyn","state_name":"New York","lat":40.6631,"lng":-73.95392,"zip":"11225","miles_from_dt":29.57},{"city":"Cedar Knolls","state_name":"New Jersey","lat":40.82085,"lng":-74.45479,"zip":"07927","miles_from_dt":29.57},{"city":"Brooklyn","state_name":"New York","lat":40.69477,"lng":-73.99031,"zip":"11201","miles_from_dt":29.58},{"city":"Brooklyn","state_name":"New York","lat":40.67549,"lng":-73.9664,"zip":"11247","miles_from_dt":29.61},{"city":"Whippany","state_name":"New Jersey","lat":40.82375,"lng":-74.42029,"zip":"07981","miles_from_dt":29.63},{"city":"New York","state_name":"New York","lat":40.71193,"lng":-74.01181,"zip":"10203","miles_from_dt":29.64},{"city":"Brooklyn","state_name":"New York","lat":40.69315,"lng":-73.98587,"zip":"11245","miles_from_dt":29.67},{"city":"Roseland","state_name":"New Jersey","lat":40.82077,"lng":-74.30862,"zip":"07068","miles_from_dt":29.71},{"city":"New York","state_name":"New York","lat":40.71313,"lng":-74.01013,"zip":"10212","miles_from_dt":29.76},{"city":"Jersey City","state_name":"New Jersey","lat":40.72893,"lng":-74.03391,"zip":"07310","miles_from_dt":29.77},{"city":"New York","state_name":"New York","lat":40.71655,"lng":-74.01495,"zip":"10282","miles_from_dt":29.77},{"city":"New York","state_name":"New York","lat":40.71042,"lng":-74.00616,"zip":"10081","miles_from_dt":29.77},{"city":"New York","state_name":"New York","lat":40.71263,"lng":-74.00867,"zip":"10279","miles_from_dt":29.79},{"city":"New York","state_name":"New York","lat":40.70914,"lng":-74.00298,"zip":"10038","miles_from_dt":29.82},{"city":"Brooklyn","state_name":"New York","lat":40.64958,"lng":-73.93431,"zip":"11203","miles_from_dt":29.82},{"city":"New York","state_name":"New York","lat":40.71222,"lng":-74.00697,"zip":"10008","miles_from_dt":29.83},{"city":"New York","state_name":"New York","lat":40.71668,"lng":-74.01293,"zip":"10281","miles_from_dt":29.85},{"city":"New York","state_name":"New York","lat":40.71843,"lng":-74.01551,"zip":"10277","miles_from_dt":29.85},{"city":"New York","state_name":"New York","lat":40.71387,"lng":-74.00792,"zip":"10007","miles_from_dt":29.88},{"city":"Manchester Township","state_name":"New Jersey","lat":39.96239,"lng":-74.35902,"zip":"08759","miles_from_dt":29.89},{"city":"New York","state_name":"New York","lat":40.71372,"lng":-74.00756,"zip":"10258","miles_from_dt":29.89},{"city":"New York","state_name":"New York","lat":40.71518,"lng":-74.00947,"zip":"10242","miles_from_dt":29.89},{"city":"New York","state_name":"New York","lat":40.71473,"lng":-74.00856,"zip":"10249","miles_from_dt":29.9},{"city":"New York","state_name":"New York","lat":40.71105,"lng":-74.00335,"zip":"10273","miles_from_dt":29.9},{"city":"Glen Ridge","state_name":"New Jersey","lat":40.80421,"lng":-74.20428,"zip":"07028","miles_from_dt":29.92},{"city":"Juliustown","state_name":"New Jersey","lat":40.01363,"lng":-74.662,"zip":"08042","miles_from_dt":29.94}],"targetCityZipCode":"08884","targetCityState":"New Jersey"},"__N_SSG":true}