{"pageProps":{"stateName":"Virginia","cityName":"castlewood","nearbyCities":[{"city":"Saint Paul","state_name":"Virginia","lat":36.94155,"lng":-82.34554,"zip":"24283","miles_from_dt":6.56},{"city":"Mendota","state_name":"Virginia","lat":36.72846,"lng":-82.24693,"zip":"24270","miles_from_dt":9.33},{"city":"Lebanon","state_name":"Virginia","lat":36.8671,"lng":-82.10523,"zip":"24266","miles_from_dt":9.87},{"city":"Nickelsville","state_name":"Virginia","lat":36.74712,"lng":-82.41714,"zip":"24271","miles_from_dt":10.79},{"city":"Cleveland","state_name":"Virginia","lat":36.97543,"lng":-82.14115,"zip":"24225","miles_from_dt":11.16},{"city":"Nora","state_name":"Virginia","lat":37.0302,"lng":-82.33401,"zip":"24272","miles_from_dt":12.03},{"city":"Coeburn","state_name":"Virginia","lat":36.96928,"lng":-82.45449,"zip":"24230","miles_from_dt":12.09},{"city":"Dante","state_name":"Virginia","lat":37.03939,"lng":-82.26424,"zip":"24237","miles_from_dt":12.37},{"city":"Dungannon","state_name":"Virginia","lat":36.84045,"lng":-82.51598,"zip":"24245","miles_from_dt":12.97},{"city":"Bristol","state_name":"Virginia","lat":36.65904,"lng":-82.21564,"zip":"24202","miles_from_dt":14.39},{"city":"Abingdon","state_name":"Virginia","lat":36.77231,"lng":-82.02244,"zip":"24210","miles_from_dt":15.69},{"city":"McClure","state_name":"Virginia","lat":37.0803,"lng":-82.37894,"zip":"24269","miles_from_dt":16.05},{"city":"Hiltons","state_name":"Virginia","lat":36.6517,"lng":-82.41199,"zip":"24258","miles_from_dt":16.08},{"city":"Andover","state_name":"Virginia","lat":36.99383,"lng":-82.53593,"zip":"24215","miles_from_dt":16.74},{"city":"Bee","state_name":"Virginia","lat":37.1014,"lng":-82.17783,"zip":"24217","miles_from_dt":17.6},{"city":"Birchleaf","state_name":"Virginia","lat":37.11957,"lng":-82.22641,"zip":"24220","miles_from_dt":18.13},{"city":"Bristol","state_name":"Virginia","lat":36.61241,"lng":-82.16862,"zip":"24209","miles_from_dt":18.26},{"city":"Fort Blackmore","state_name":"Virginia","lat":36.75752,"lng":-82.58705,"zip":"24250","miles_from_dt":18.28},{"city":"Bristol","state_name":"Virginia","lat":36.61059,"lng":-82.16971,"zip":"24201","miles_from_dt":18.35},{"city":"Wise","state_name":"Virginia","lat":37.00559,"lng":-82.56458,"zip":"24293","miles_from_dt":18.51},{"city":"Bristol","state_name":"Virginia","lat":36.59717,"lng":-82.18862,"zip":"24203","miles_from_dt":18.91},{"city":"Bristol","state_name":"Virginia","lat":36.59612,"lng":-82.19092,"zip":"24205","miles_from_dt":18.94},{"city":"Davenport","state_name":"Virginia","lat":37.1136,"lng":-82.14577,"zip":"24239","miles_from_dt":19.03},{"city":"Bristol","state_name":"Tennessee","lat":36.59399,"lng":-82.18562,"zip":"37625","miles_from_dt":19.17},{"city":"Honaker","state_name":"Virginia","lat":37.02291,"lng":-82.00059,"zip":"24260","miles_from_dt":19.24},{"city":"Clinchco","state_name":"Virginia","lat":37.14223,"lng":-82.33384,"zip":"24226","miles_from_dt":19.62},{"city":"Bristol","state_name":"Tennessee","lat":36.58053,"lng":-82.20482,"zip":"37621","miles_from_dt":19.8},{"city":"Rosedale","state_name":"Virginia","lat":36.95575,"lng":-81.94167,"zip":"24280","miles_from_dt":20.02},{"city":"Abingdon","state_name":"Virginia","lat":36.70693,"lng":-81.97439,"zip":"24212","miles_from_dt":20.14},{"city":"Norton","state_name":"Virginia","lat":36.96142,"lng":-82.65632,"zip":"24273","miles_from_dt":21.8},{"city":"Mavisdale","state_name":"Virginia","lat":37.18299,"lng":-82.21519,"zip":"24627","miles_from_dt":22.55},{"city":"Gate City","state_name":"Virginia","lat":36.65807,"lng":-82.60582,"zip":"24251","miles_from_dt":22.7},{"city":"Abingdon","state_name":"Virginia","lat":36.65413,"lng":-81.95643,"zip":"24211","miles_from_dt":23.05},{"city":"Blountville","state_name":"Tennessee","lat":36.53155,"lng":-82.37248,"zip":"37617","miles_from_dt":23.22},{"city":"Clintwood","state_name":"Virginia","lat":37.17047,"lng":-82.44963,"zip":"24228","miles_from_dt":23.27},{"city":"Weber City","state_name":"Virginia","lat":36.61186,"lng":-82.56688,"zip":"24290","miles_from_dt":23.28},{"city":"Vansant","state_name":"Virginia","lat":37.1743,"lng":-82.12364,"zip":"24656","miles_from_dt":23.36},{"city":"Bristol","state_name":"Tennessee","lat":36.55124,"lng":-82.09867,"zip":"37620","miles_from_dt":23.66},{"city":"Rowe","state_name":"Virginia","lat":37.13751,"lng":-82.02976,"zip":"24646","miles_from_dt":23.69},{"city":"Haysi","state_name":"Virginia","lat":37.22344,"lng":-82.28503,"zip":"24256","miles_from_dt":25.02},{"city":"Pound","state_name":"Virginia","lat":37.10383,"lng":-82.61909,"zip":"24279","miles_from_dt":25.03},{"city":"Meadowview","state_name":"Virginia","lat":36.76672,"lng":-81.84552,"zip":"24361","miles_from_dt":25.12},{"city":"Swords Creek","state_name":"Virginia","lat":37.08303,"lng":-81.92198,"zip":"24649","miles_from_dt":25.19},{"city":"Kingsport","state_name":"Tennessee","lat":36.57951,"lng":-82.57304,"zip":"37665","miles_from_dt":25.19},{"city":"East Stone Gap","state_name":"Virginia","lat":36.86609,"lng":-82.74395,"zip":"24246","miles_from_dt":25.53},{"city":"Big Stone Gap","state_name":"Virginia","lat":36.84831,"lng":-82.74645,"zip":"24219","miles_from_dt":25.68},{"city":"Emory","state_name":"Virginia","lat":36.77357,"lng":-81.82971,"zip":"24327","miles_from_dt":25.85},{"city":"Kingsport","state_name":"Tennessee","lat":36.54645,"lng":-82.56383,"zip":"37662","miles_from_dt":26.68},{"city":"Kingsport","state_name":"Tennessee","lat":36.51163,"lng":-82.50729,"zip":"37664","miles_from_dt":27.09},{"city":"Kingsport","state_name":"Tennessee","lat":36.52912,"lng":-82.55612,"zip":"37669","miles_from_dt":27.42},{"city":"Bluff City","state_name":"Tennessee","lat":36.46555,"lng":-82.20833,"zip":"37618","miles_from_dt":27.56},{"city":"Kingsport","state_name":"Tennessee","lat":36.52938,"lng":-82.57339,"zip":"37660","miles_from_dt":27.95},{"city":"Burdine","state_name":"Kentucky","lat":37.18919,"lng":-82.60026,"zip":"41517","miles_from_dt":28.65},{"city":"Red Ash","state_name":"Virginia","lat":37.10647,"lng":-81.86272,"zip":"24640","miles_from_dt":28.79},{"city":"Keen Mountain","state_name":"Virginia","lat":37.20438,"lng":-81.98706,"zip":"24624","miles_from_dt":28.81},{"city":"Shelby Gap","state_name":"Kentucky","lat":37.22628,"lng":-82.53694,"zip":"41563","miles_from_dt":28.86},{"city":"Appalachia","state_name":"Virginia","lat":36.94237,"lng":-82.79571,"zip":"24216","miles_from_dt":28.94},{"city":"Ashcamp","state_name":"Kentucky","lat":37.25251,"lng":-82.47772,"zip":"41512","miles_from_dt":29.09},{"city":"Piney Flats","state_name":"Tennessee","lat":36.44175,"lng":-82.34639,"zip":"37686","miles_from_dt":29.09},{"city":"Doran","state_name":"Virginia","lat":37.09728,"lng":-81.84461,"zip":"24612","miles_from_dt":29.24},{"city":"Mount Carmel","state_name":"Tennessee","lat":36.56275,"lng":-82.66243,"zip":"37645","miles_from_dt":29.41},{"city":"Oakwood","state_name":"Virginia","lat":37.2202,"lng":-81.99714,"zip":"24631","miles_from_dt":29.41},{"city":"Cedar Bluff","state_name":"Virginia","lat":37.02955,"lng":-81.795,"zip":"24609","miles_from_dt":29.43},{"city":"Kingsport","state_name":"Tennessee","lat":36.46466,"lng":-82.48525,"zip":"37663","miles_from_dt":29.52},{"city":"Breaks","state_name":"Virginia","lat":37.29498,"lng":-82.26533,"zip":"24607","miles_from_dt":29.97}],"targetCityZipCode":"24224","targetCityState":"Virginia"},"__N_SSG":true}