{"pageProps":{"stateName":"Virginia","cityName":"dillwyn","nearbyCities":[{"city":"Buckingham","state_name":"Virginia","lat":37.59143,"lng":-78.61413,"zip":"23921","miles_from_dt":8.59},{"city":"Arvonia","state_name":"Virginia","lat":37.68307,"lng":-78.40567,"zip":"23004","miles_from_dt":11.68},{"city":"Cumberland","state_name":"Virginia","lat":37.51017,"lng":-78.24919,"zip":"23040","miles_from_dt":12.82},{"city":"New Canton","state_name":"Virginia","lat":37.65238,"lng":-78.3031,"zip":"23123","miles_from_dt":13.17},{"city":"Farmville","state_name":"Virginia","lat":37.32309,"lng":-78.41186,"zip":"23901","miles_from_dt":14.44},{"city":"Howardsville","state_name":"Virginia","lat":37.70577,"lng":-78.62241,"zip":"24562","miles_from_dt":14.66},{"city":"Prospect","state_name":"Virginia","lat":37.31531,"lng":-78.5579,"zip":"23960","miles_from_dt":15.05},{"city":"Wingina","state_name":"Virginia","lat":37.63289,"lng":-78.72452,"zip":"24599","miles_from_dt":15.26},{"city":"Farmville","state_name":"Virginia","lat":37.29891,"lng":-78.39635,"zip":"23909","miles_from_dt":16.28},{"city":"Scottsville","state_name":"Virginia","lat":37.79353,"lng":-78.47767,"zip":"24590","miles_from_dt":18.53},{"city":"Gladstone","state_name":"Virginia","lat":37.54845,"lng":-78.81907,"zip":"24553","miles_from_dt":18.59},{"city":"Bremo Bluff","state_name":"Virginia","lat":37.7353,"lng":-78.26432,"zip":"23022","miles_from_dt":18.79},{"city":"Hampden Sydney","state_name":"Virginia","lat":37.24181,"lng":-78.46041,"zip":"23943","miles_from_dt":19.56},{"city":"Appomattox","state_name":"Virginia","lat":37.37324,"lng":-78.78591,"zip":"24522","miles_from_dt":19.72},{"city":"Rice","state_name":"Virginia","lat":37.29177,"lng":-78.27418,"zip":"23966","miles_from_dt":19.73},{"city":"Pamplin","state_name":"Virginia","lat":37.26848,"lng":-78.65581,"zip":"23958","miles_from_dt":20.11},{"city":"Norwood","state_name":"Virginia","lat":37.65692,"lng":-78.8098,"zip":"24581","miles_from_dt":20.17},{"city":"Cartersville","state_name":"Virginia","lat":37.64551,"lng":-78.13183,"zip":"23027","miles_from_dt":20.93},{"city":"Evergreen","state_name":"Virginia","lat":37.32039,"lng":-78.7642,"zip":"23939","miles_from_dt":20.98},{"city":"Esmont","state_name":"Virginia","lat":37.81297,"lng":-78.60891,"zip":"22937","miles_from_dt":21.05},{"city":"Schuyler","state_name":"Virginia","lat":37.79699,"lng":-78.69367,"zip":"22969","miles_from_dt":22.06},{"city":"Fork Union","state_name":"Virginia","lat":37.7706,"lng":-78.21852,"zip":"23055","miles_from_dt":22.26},{"city":"Keene","state_name":"Virginia","lat":37.84789,"lng":-78.56053,"zip":"22946","miles_from_dt":22.69},{"city":"Shipman","state_name":"Virginia","lat":37.75019,"lng":-78.80299,"zip":"22971","miles_from_dt":23.48},{"city":"Columbia","state_name":"Virginia","lat":37.75627,"lng":-78.14552,"zip":"23038","miles_from_dt":24.39},{"city":"Palmyra","state_name":"Virginia","lat":37.84793,"lng":-78.28524,"zip":"22963","miles_from_dt":24.75},{"city":"Jetersville","state_name":"Virginia","lat":37.31899,"lng":-78.11111,"zip":"23083","miles_from_dt":24.85},{"city":"Cullen","state_name":"Virginia","lat":37.17613,"lng":-78.62373,"zip":"23934","miles_from_dt":25.29},{"city":"Arrington","state_name":"Virginia","lat":37.68621,"lng":-78.92511,"zip":"22922","miles_from_dt":26.74},{"city":"Spout Spring","state_name":"Virginia","lat":37.32651,"lng":-78.91342,"zip":"24593","miles_from_dt":27.4},{"city":"Burkeville","state_name":"Virginia","lat":37.17987,"lng":-78.21219,"zip":"23922","miles_from_dt":28.05},{"city":"Lovingston","state_name":"Virginia","lat":37.788,"lng":-78.88257,"zip":"22949","miles_from_dt":28.49},{"city":"Faber","state_name":"Virginia","lat":37.86256,"lng":-78.78248,"zip":"22938","miles_from_dt":28.52},{"city":"Red House","state_name":"Virginia","lat":37.195,"lng":-78.80168,"zip":"23963","miles_from_dt":28.77},{"city":"Green Bay","state_name":"Virginia","lat":37.13241,"lng":-78.30138,"zip":"23942","miles_from_dt":28.84},{"city":"Covesville","state_name":"Virginia","lat":37.90374,"lng":-78.71696,"zip":"22931","miles_from_dt":29.13},{"city":"Meherrin","state_name":"Virginia","lat":37.10893,"lng":-78.38705,"zip":"23954","miles_from_dt":29.16},{"city":"Concord","state_name":"Virginia","lat":37.32908,"lng":-78.95367,"zip":"24538","miles_from_dt":29.25},{"city":"Charlottesville","state_name":"Virginia","lat":37.95245,"lng":-78.49291,"zip":"22907","miles_from_dt":29.49},{"city":"Goochland","state_name":"Virginia","lat":37.71694,"lng":-77.99882,"zip":"23063","miles_from_dt":29.62},{"city":"Charlottesville","state_name":"Virginia","lat":37.95566,"lng":-78.46883,"zip":"22902","miles_from_dt":29.71},{"city":"North Garden","state_name":"Virginia","lat":37.93758,"lng":-78.64794,"zip":"22959","miles_from_dt":29.88}],"targetCityZipCode":"23936","targetCityState":"Virginia"},"__N_SSG":true}