{"pageProps":{"stateName":"Virginia","cityName":"eagle-rock","nearbyCities":[{"city":"Oriskany","state_name":"Virginia","lat":37.66188,"lng":-79.83496,"zip":"24130","miles_from_dt":0.94},{"city":"Glen Wilton","state_name":"Virginia","lat":37.75338,"lng":-79.81662,"zip":"24438","miles_from_dt":5.49},{"city":"Low Moor","state_name":"Virginia","lat":37.79379,"lng":-79.87014,"zip":"24457","miles_from_dt":8.37},{"city":"Iron Gate","state_name":"Virginia","lat":37.79836,"lng":-79.79002,"zip":"24448","miles_from_dt":8.85},{"city":"Selma","state_name":"Virginia","lat":37.80504,"lng":-79.84731,"zip":"24474","miles_from_dt":8.96},{"city":"Fincastle","state_name":"Virginia","lat":37.52633,"lng":-79.88921,"zip":"24090","miles_from_dt":10.68},{"city":"Clifton Forge","state_name":"Virginia","lat":37.83041,"lng":-79.75128,"zip":"24422","miles_from_dt":11.66},{"city":"Buchanan","state_name":"Virginia","lat":37.5382,"lng":-79.67822,"zip":"24066","miles_from_dt":12.84},{"city":"Covington","state_name":"Virginia","lat":37.76589,"lng":-80.06927,"zip":"24426","miles_from_dt":14.2},{"city":"Natural Bridge","state_name":"Virginia","lat":37.66269,"lng":-79.55693,"zip":"24578","miles_from_dt":15.35},{"city":"Lexington","state_name":"Virginia","lat":37.77883,"lng":-79.53888,"zip":"24450","miles_from_dt":17.79},{"city":"Troutville","state_name":"Virginia","lat":37.42589,"lng":-79.93788,"zip":"24175","miles_from_dt":18.09},{"city":"Villamont","state_name":"Virginia","lat":37.42527,"lng":-79.70855,"zip":"24178","miles_from_dt":18.62},{"city":"Daleville","state_name":"Virginia","lat":37.40614,"lng":-79.92031,"zip":"24083","miles_from_dt":19.13},{"city":"Natural Bridge Station","state_name":"Virginia","lat":37.58763,"lng":-79.50483,"zip":"24579","miles_from_dt":19.17},{"city":"Montvale","state_name":"Virginia","lat":37.4212,"lng":-79.69372,"zip":"24122","miles_from_dt":19.2},{"city":"Glasgow","state_name":"Virginia","lat":37.6678,"lng":-79.47007,"zip":"24555","miles_from_dt":20.09},{"city":"Hot Springs","state_name":"Virginia","lat":37.96615,"lng":-79.88013,"zip":"24445","miles_from_dt":20.2},{"city":"Blue Ridge","state_name":"Virginia","lat":37.37237,"lng":-79.7759,"zip":"24064","miles_from_dt":21.16},{"city":"Cloverdale","state_name":"Virginia","lat":37.36337,"lng":-79.90278,"zip":"24077","miles_from_dt":21.83},{"city":"Roanoke","state_name":"Virginia","lat":37.35739,"lng":-79.94279,"zip":"24020","miles_from_dt":22.7},{"city":"Paint Bank","state_name":"Virginia","lat":37.56836,"lng":-80.22894,"zip":"24131","miles_from_dt":22.76},{"city":"Roanoke","state_name":"Virginia","lat":37.34622,"lng":-79.95718,"zip":"24050","miles_from_dt":23.65},{"city":"Roanoke","state_name":"Virginia","lat":37.3446,"lng":-79.95564,"zip":"24019","miles_from_dt":23.73},{"city":"New Castle","state_name":"Virginia","lat":37.47949,"lng":-80.19468,"zip":"24127","miles_from_dt":23.86},{"city":"Thaxton","state_name":"Virginia","lat":37.35087,"lng":-79.66762,"zip":"24174","miles_from_dt":24.22},{"city":"Roanoke","state_name":"Virginia","lat":37.31585,"lng":-79.89833,"zip":"24012","miles_from_dt":25.03},{"city":"Big Island","state_name":"Virginia","lat":37.55452,"lng":-79.40169,"zip":"24526","miles_from_dt":25.26},{"city":"White Sulphur Springs","state_name":"West Virginia","lat":37.91189,"lng":-80.19455,"zip":"24986","miles_from_dt":25.5},{"city":"Millboro","state_name":"Virginia","lat":38.02237,"lng":-79.65048,"zip":"24460","miles_from_dt":26},{"city":"Bacova","state_name":"Virginia","lat":38.05774,"lng":-79.83096,"zip":"24412","miles_from_dt":26.37},{"city":"Buena Vista","state_name":"Virginia","lat":37.72892,"lng":-79.35534,"zip":"24416","miles_from_dt":26.62},{"city":"Vinton","state_name":"Virginia","lat":37.2855,"lng":-79.79963,"zip":"24179","miles_from_dt":26.96},{"city":"Roanoke","state_name":"Virginia","lat":37.2824,"lng":-79.92859,"zip":"24035","miles_from_dt":27.57},{"city":"Roanoke","state_name":"Virginia","lat":37.29472,"lng":-79.99183,"zip":"24017","miles_from_dt":27.61},{"city":"Roanoke","state_name":"Virginia","lat":37.28178,"lng":-79.94288,"zip":"24028","miles_from_dt":27.77},{"city":"Roanoke","state_name":"Virginia","lat":37.28023,"lng":-79.9357,"zip":"24037","miles_from_dt":27.79},{"city":"Roanoke","state_name":"Virginia","lat":37.28012,"lng":-79.93826,"zip":"24034","miles_from_dt":27.83},{"city":"Roanoke","state_name":"Virginia","lat":37.27891,"lng":-79.93298,"zip":"24036","miles_from_dt":27.85},{"city":"Roanoke","state_name":"Virginia","lat":37.27828,"lng":-79.9353,"zip":"24032","miles_from_dt":27.92},{"city":"Roanoke","state_name":"Virginia","lat":37.2771,"lng":-79.93464,"zip":"24040","miles_from_dt":27.99},{"city":"Roanoke","state_name":"Virginia","lat":37.27689,"lng":-79.93429,"zip":"24022","miles_from_dt":28},{"city":"Roanoke","state_name":"Virginia","lat":37.27579,"lng":-79.93424,"zip":"24024","miles_from_dt":28.08},{"city":"Roanoke","state_name":"Virginia","lat":37.27587,"lng":-79.94159,"zip":"24042","miles_from_dt":28.15},{"city":"Roanoke","state_name":"Virginia","lat":37.27791,"lng":-79.95694,"zip":"24002","miles_from_dt":28.2},{"city":"Roanoke","state_name":"Virginia","lat":37.27347,"lng":-79.9421,"zip":"24003","miles_from_dt":28.32},{"city":"Roanoke","state_name":"Virginia","lat":37.27017,"lng":-79.92206,"zip":"24043","miles_from_dt":28.34},{"city":"Roanoke","state_name":"Virginia","lat":37.27307,"lng":-79.94332,"zip":"24006","miles_from_dt":28.36},{"city":"Roanoke","state_name":"Virginia","lat":37.2715,"lng":-79.94234,"zip":"24010","miles_from_dt":28.46},{"city":"Roanoke","state_name":"Virginia","lat":37.27119,"lng":-79.94097,"zip":"24005","miles_from_dt":28.46},{"city":"Roanoke","state_name":"Virginia","lat":37.27362,"lng":-79.95503,"zip":"24027","miles_from_dt":28.46},{"city":"Roanoke","state_name":"Virginia","lat":37.27066,"lng":-79.93851,"zip":"24009","miles_from_dt":28.47},{"city":"Roanoke","state_name":"Virginia","lat":37.27076,"lng":-79.93933,"zip":"24001","miles_from_dt":28.47},{"city":"Roanoke","state_name":"Virginia","lat":37.27292,"lng":-79.95282,"zip":"24025","miles_from_dt":28.48},{"city":"Roanoke","state_name":"Virginia","lat":37.27342,"lng":-79.95596,"zip":"24033","miles_from_dt":28.49},{"city":"Roanoke","state_name":"Virginia","lat":37.27134,"lng":-79.94435,"zip":"24008","miles_from_dt":28.49},{"city":"Rockbridge Baths","state_name":"Virginia","lat":37.9129,"lng":-79.41052,"zip":"24473","miles_from_dt":28.49},{"city":"Roanoke","state_name":"Virginia","lat":37.2706,"lng":-79.9415,"zip":"24007","miles_from_dt":28.51},{"city":"Roanoke","state_name":"Virginia","lat":37.27048,"lng":-79.94128,"zip":"24011","miles_from_dt":28.51},{"city":"Roanoke","state_name":"Virginia","lat":37.27224,"lng":-79.95112,"zip":"24026","miles_from_dt":28.51},{"city":"Roanoke","state_name":"Virginia","lat":37.26691,"lng":-79.92219,"zip":"24013","miles_from_dt":28.56},{"city":"Roanoke","state_name":"Virginia","lat":37.27208,"lng":-79.95468,"zip":"24016","miles_from_dt":28.56},{"city":"Roanoke","state_name":"Virginia","lat":37.27019,"lng":-79.94467,"zip":"24004","miles_from_dt":28.57},{"city":"Roanoke","state_name":"Virginia","lat":37.27159,"lng":-79.9527,"zip":"24029","miles_from_dt":28.57},{"city":"Roanoke","state_name":"Virginia","lat":37.27219,"lng":-79.95606,"zip":"24031","miles_from_dt":28.57},{"city":"Roanoke","state_name":"Virginia","lat":37.27169,"lng":-79.95629,"zip":"24038","miles_from_dt":28.61},{"city":"Roanoke","state_name":"Virginia","lat":37.27096,"lng":-79.95433,"zip":"24030","miles_from_dt":28.63},{"city":"Roanoke","state_name":"Virginia","lat":37.26997,"lng":-79.9517,"zip":"24023","miles_from_dt":28.67},{"city":"Bedford","state_name":"Virginia","lat":37.3364,"lng":-79.52347,"zip":"24523","miles_from_dt":29.02},{"city":"Roanoke","state_name":"Virginia","lat":37.29241,"lng":-80.06396,"zip":"24157","miles_from_dt":29.22},{"city":"Gap Mills","state_name":"West Virginia","lat":37.58824,"lng":-80.3577,"zip":"24941","miles_from_dt":29.22},{"city":"Roanoke","state_name":"Virginia","lat":37.29,"lng":-80.06219,"zip":"24155","miles_from_dt":29.33},{"city":"Catawba","state_name":"Virginia","lat":37.37316,"lng":-80.21238,"zip":"24070","miles_from_dt":29.34},{"city":"Roanoke","state_name":"Virginia","lat":37.25588,"lng":-79.97979,"zip":"24015","miles_from_dt":29.99}],"targetCityZipCode":"24085","targetCityState":"Virginia"},"__N_SSG":true}