{"pageProps":{"stateName":"Virginia","cityName":"glen-wilton","nearbyCities":[{"city":"Iron Gate","state_name":"Virginia","lat":37.79836,"lng":-79.79002,"zip":"24448","miles_from_dt":3.43},{"city":"Selma","state_name":"Virginia","lat":37.80504,"lng":-79.84731,"zip":"24474","miles_from_dt":3.94},{"city":"Low Moor","state_name":"Virginia","lat":37.79379,"lng":-79.87014,"zip":"24457","miles_from_dt":4.04},{"city":"Eagle Rock","state_name":"Virginia","lat":37.67539,"lng":-79.83639,"zip":"24085","miles_from_dt":5.49},{"city":"Oriskany","state_name":"Virginia","lat":37.66188,"lng":-79.83496,"zip":"24130","miles_from_dt":6.39},{"city":"Clifton Forge","state_name":"Virginia","lat":37.83041,"lng":-79.75128,"zip":"24422","miles_from_dt":6.4},{"city":"Covington","state_name":"Virginia","lat":37.76589,"lng":-80.06927,"zip":"24426","miles_from_dt":13.86},{"city":"Hot Springs","state_name":"Virginia","lat":37.96615,"lng":-79.88013,"zip":"24445","miles_from_dt":15.08},{"city":"Lexington","state_name":"Virginia","lat":37.77883,"lng":-79.53888,"zip":"24450","miles_from_dt":15.31},{"city":"Natural Bridge","state_name":"Virginia","lat":37.66269,"lng":-79.55693,"zip":"24578","miles_from_dt":15.54},{"city":"Fincastle","state_name":"Virginia","lat":37.52633,"lng":-79.88921,"zip":"24090","miles_from_dt":16.16},{"city":"Buchanan","state_name":"Virginia","lat":37.5382,"lng":-79.67822,"zip":"24066","miles_from_dt":16.67},{"city":"Glasgow","state_name":"Virginia","lat":37.6678,"lng":-79.47007,"zip":"24555","miles_from_dt":19.88},{"city":"Natural Bridge Station","state_name":"Virginia","lat":37.58763,"lng":-79.50483,"zip":"24579","miles_from_dt":20.56},{"city":"Millboro","state_name":"Virginia","lat":38.02237,"lng":-79.65048,"zip":"24460","miles_from_dt":20.66},{"city":"Bacova","state_name":"Virginia","lat":38.05774,"lng":-79.83096,"zip":"24412","miles_from_dt":21.01},{"city":"White Sulphur Springs","state_name":"West Virginia","lat":37.91189,"lng":-80.19455,"zip":"24986","miles_from_dt":23.39},{"city":"Villamont","state_name":"Virginia","lat":37.42527,"lng":-79.70855,"zip":"24178","miles_from_dt":23.39},{"city":"Troutville","state_name":"Virginia","lat":37.42589,"lng":-79.93788,"zip":"24175","miles_from_dt":23.55},{"city":"Montvale","state_name":"Virginia","lat":37.4212,"lng":-79.69372,"zip":"24122","miles_from_dt":23.88},{"city":"Daleville","state_name":"Virginia","lat":37.40614,"lng":-79.92031,"zip":"24083","miles_from_dt":24.61},{"city":"Rockbridge Baths","state_name":"Virginia","lat":37.9129,"lng":-79.41052,"zip":"24473","miles_from_dt":24.79},{"city":"Buena Vista","state_name":"Virginia","lat":37.72892,"lng":-79.35534,"zip":"24416","miles_from_dt":25.32},{"city":"Goshen","state_name":"Virginia","lat":38.01151,"lng":-79.47359,"zip":"24439","miles_from_dt":25.86},{"city":"Paint Bank","state_name":"Virginia","lat":37.56836,"lng":-80.22894,"zip":"24131","miles_from_dt":25.96},{"city":"Blue Ridge","state_name":"Virginia","lat":37.37237,"lng":-79.7759,"zip":"24064","miles_from_dt":26.37},{"city":"Big Island","state_name":"Virginia","lat":37.55452,"lng":-79.40169,"zip":"24526","miles_from_dt":26.57},{"city":"Warm Springs","state_name":"Virginia","lat":38.1448,"lng":-79.82013,"zip":"24484","miles_from_dt":27},{"city":"Cloverdale","state_name":"Virginia","lat":37.36337,"lng":-79.90278,"zip":"24077","miles_from_dt":27.31},{"city":"New Castle","state_name":"Virginia","lat":37.47949,"lng":-80.19468,"zip":"24127","miles_from_dt":28.05},{"city":"Roanoke","state_name":"Virginia","lat":37.35739,"lng":-79.94279,"zip":"24020","miles_from_dt":28.17},{"city":"Thaxton","state_name":"Virginia","lat":37.35087,"lng":-79.66762,"zip":"24174","miles_from_dt":28.94},{"city":"Fairfield","state_name":"Virginia","lat":37.86716,"lng":-79.30663,"zip":"24435","miles_from_dt":28.99},{"city":"Roanoke","state_name":"Virginia","lat":37.34622,"lng":-79.95718,"zip":"24050","miles_from_dt":29.12},{"city":"Roanoke","state_name":"Virginia","lat":37.3446,"lng":-79.95564,"zip":"24019","miles_from_dt":29.21},{"city":"Brownsburg","state_name":"Virginia","lat":37.91099,"lng":-79.31126,"zip":"24415","miles_from_dt":29.7}],"targetCityZipCode":"24438","targetCityState":"Virginia"},"__N_SSG":true}