{"pageProps":{"stateName":"Virginia","cityName":"hillsville","nearbyCities":[{"city":"Dugspur","state_name":"Virginia","lat":36.80918,"lng":-80.60608,"zip":"24325","miles_from_dt":6.02},{"city":"Fancy Gap","state_name":"Virginia","lat":36.66185,"lng":-80.69382,"zip":"24328","miles_from_dt":7.2},{"city":"Woodlawn","state_name":"Virginia","lat":36.72453,"lng":-80.83924,"zip":"24381","miles_from_dt":8.22},{"city":"Laurel Fork","state_name":"Virginia","lat":36.71547,"lng":-80.53437,"zip":"24352","miles_from_dt":9.86},{"city":"Austinville","state_name":"Virginia","lat":36.83117,"lng":-80.86897,"zip":"24312","miles_from_dt":10.37},{"city":"Indian Valley","state_name":"Virginia","lat":36.90278,"lng":-80.60127,"zip":"24105","miles_from_dt":10.91},{"city":"Barren Springs","state_name":"Virginia","lat":36.9105,"lng":-80.79805,"zip":"24313","miles_from_dt":11.33},{"city":"Cana","state_name":"Virginia","lat":36.60138,"lng":-80.66876,"zip":"24317","miles_from_dt":11.5},{"city":"Willis","state_name":"Virginia","lat":36.85672,"lng":-80.50183,"zip":"24380","miles_from_dt":12.66},{"city":"Lambsburg","state_name":"Virginia","lat":36.58081,"lng":-80.76591,"zip":"24351","miles_from_dt":13.29},{"city":"Hiwassee","state_name":"Virginia","lat":36.95958,"lng":-80.65598,"zip":"24347","miles_from_dt":13.57},{"city":"Ararat","state_name":"Virginia","lat":36.60999,"lng":-80.53283,"zip":"24053","miles_from_dt":14.23},{"city":"Draper","state_name":"Virginia","lat":36.97461,"lng":-80.78836,"zip":"24324","miles_from_dt":15.18},{"city":"Galax","state_name":"Virginia","lat":36.64057,"lng":-80.92921,"zip":"24333","miles_from_dt":15.37},{"city":"Meadows Of Dan","state_name":"Virginia","lat":36.71891,"lng":-80.41277,"zip":"24120","miles_from_dt":16.29},{"city":"Max Meadows","state_name":"Virginia","lat":36.93917,"lng":-80.9023,"zip":"24360","miles_from_dt":16.36},{"city":"Vesta","state_name":"Virginia","lat":36.72266,"lng":-80.40026,"zip":"24177","miles_from_dt":16.93},{"city":"Ivanhoe","state_name":"Virginia","lat":36.81109,"lng":-81.01757,"zip":"24350","miles_from_dt":17.86},{"city":"Fries","state_name":"Virginia","lat":36.72375,"lng":-81.02471,"zip":"24330","miles_from_dt":18.23},{"city":"Lowgap","state_name":"North Carolina","lat":36.52399,"lng":-80.84027,"zip":"27024","miles_from_dt":18.41},{"city":"Toast","state_name":"North Carolina","lat":36.49624,"lng":-80.63293,"zip":"27049","miles_from_dt":18.98},{"city":"Claudville","state_name":"Virginia","lat":36.59704,"lng":-80.42116,"zip":"24076","miles_from_dt":19.4},{"city":"Mount Airy","state_name":"North Carolina","lat":36.48836,"lng":-80.63013,"zip":"27030","miles_from_dt":19.55},{"city":"Pulaski","state_name":"Virginia","lat":37.06319,"lng":-80.79735,"zip":"24301","miles_from_dt":21.18},{"city":"Ennice","state_name":"North Carolina","lat":36.53088,"lng":-80.97185,"zip":"28623","miles_from_dt":22.15},{"city":"Mount Airy","state_name":"North Carolina","lat":36.44556,"lng":-80.63361,"zip":"27031","miles_from_dt":22.41},{"city":"Newbern","state_name":"Virginia","lat":37.09119,"lng":-80.65566,"zip":"24126","miles_from_dt":22.55},{"city":"Riner","state_name":"Virginia","lat":37.02277,"lng":-80.43424,"zip":"24149","miles_from_dt":23.03},{"city":"Cripple Creek","state_name":"Virginia","lat":36.80534,"lng":-81.1195,"zip":"24322","miles_from_dt":23.4},{"city":"Floyd","state_name":"Virginia","lat":36.92131,"lng":-80.32264,"zip":"24091","miles_from_dt":23.52},{"city":"Woolwine","state_name":"Virginia","lat":36.80868,"lng":-80.27557,"zip":"24185","miles_from_dt":23.75},{"city":"Radford","state_name":"Virginia","lat":37.10105,"lng":-80.56677,"zip":"24141","miles_from_dt":24.25},{"city":"Dublin","state_name":"Virginia","lat":37.11468,"lng":-80.79088,"zip":"24084","miles_from_dt":24.55},{"city":"Radford","state_name":"Virginia","lat":37.12589,"lng":-80.57524,"zip":"24143","miles_from_dt":25.76},{"city":"Wytheville","state_name":"Virginia","lat":36.95702,"lng":-81.10652,"zip":"24382","miles_from_dt":26.07},{"city":"New River","state_name":"Virginia","lat":37.13947,"lng":-80.5918,"zip":"24129","miles_from_dt":26.44},{"city":"Stuart","state_name":"Virginia","lat":36.67095,"lng":-80.23835,"zip":"24171","miles_from_dt":26.48},{"city":"Dobson","state_name":"North Carolina","lat":36.38141,"lng":-80.76052,"zip":"27017","miles_from_dt":26.74},{"city":"Ararat","state_name":"North Carolina","lat":36.38799,"lng":-80.59144,"zip":"27007","miles_from_dt":26.77},{"city":"Radford","state_name":"Virginia","lat":37.13833,"lng":-80.55084,"zip":"24142","miles_from_dt":26.97},{"city":"Pilot Mountain","state_name":"North Carolina","lat":36.41539,"lng":-80.48465,"zip":"27041","miles_from_dt":27},{"city":"Elk Creek","state_name":"Virginia","lat":36.72771,"lng":-81.19625,"zip":"24326","miles_from_dt":27.64},{"city":"Independence","state_name":"Virginia","lat":36.63897,"lng":-81.17392,"zip":"24348","miles_from_dt":27.71},{"city":"Glade Valley","state_name":"North Carolina","lat":36.4528,"lng":-81.01294,"zip":"28627","miles_from_dt":27.72},{"city":"Speedwell","state_name":"Virginia","lat":36.79129,"lng":-81.20178,"zip":"24374","miles_from_dt":27.86},{"city":"Westfield","state_name":"North Carolina","lat":36.47317,"lng":-80.34989,"zip":"27053","miles_from_dt":28.07},{"city":"Crockett","state_name":"Virginia","lat":36.86513,"lng":-81.1997,"zip":"24323","miles_from_dt":28.51},{"city":"Thurmond","state_name":"North Carolina","lat":36.38835,"lng":-80.91219,"zip":"28683","miles_from_dt":28.59},{"city":"Pilot","state_name":"Virginia","lat":37.05052,"lng":-80.31684,"zip":"24138","miles_from_dt":28.91},{"city":"Belspring","state_name":"Virginia","lat":37.18257,"lng":-80.61637,"zip":"24058","miles_from_dt":29.09},{"city":"Christiansburg","state_name":"Virginia","lat":37.13053,"lng":-80.4225,"zip":"24073","miles_from_dt":29.46},{"city":"Roaring Gap","state_name":"North Carolina","lat":36.40698,"lng":-80.99024,"zip":"28668","miles_from_dt":29.55}],"targetCityZipCode":"24343","targetCityState":"Virginia"},"__N_SSG":true}