{"pageProps":{"stateName":"Virginia","cityName":"locust-grove","nearbyCities":[{"city":"Burr Hill","state_name":"Virginia","lat":38.35875,"lng":-77.86093,"zip":"22433","miles_from_dt":4.74},{"city":"Rhoadesville","state_name":"Virginia","lat":38.29348,"lng":-77.88837,"zip":"22542","miles_from_dt":5.53},{"city":"Lignum","state_name":"Virginia","lat":38.40179,"lng":-77.81796,"zip":"22726","miles_from_dt":6},{"city":"Richardsville","state_name":"Virginia","lat":38.39633,"lng":-77.69673,"zip":"22736","miles_from_dt":7.49},{"city":"Spotsylvania","state_name":"Virginia","lat":38.26594,"lng":-77.6397,"zip":"22553","miles_from_dt":8.97},{"city":"Unionville","state_name":"Virginia","lat":38.23395,"lng":-77.92401,"zip":"22567","miles_from_dt":9.23},{"city":"Stevensburg","state_name":"Virginia","lat":38.44541,"lng":-77.86819,"zip":"22741","miles_from_dt":9.77},{"city":"Sumerduck","state_name":"Virginia","lat":38.4589,"lng":-77.71179,"zip":"22742","miles_from_dt":10.68},{"city":"Elkwood","state_name":"Virginia","lat":38.47076,"lng":-77.82026,"zip":"22718","miles_from_dt":10.7},{"city":"Spotsylvania","state_name":"Virginia","lat":38.17273,"lng":-77.70575,"zip":"22551","miles_from_dt":11.01},{"city":"Fredericksburg","state_name":"Virginia","lat":38.28581,"lng":-77.58055,"zip":"22407","miles_from_dt":11.66},{"city":"Mitchells","state_name":"Virginia","lat":38.35658,"lng":-78.01596,"zip":"22729","miles_from_dt":12.5},{"city":"Hartwood","state_name":"Virginia","lat":38.40242,"lng":-77.58067,"zip":"22471","miles_from_dt":12.86},{"city":"Fredericksburg","state_name":"Virginia","lat":38.25611,"lng":-77.56679,"zip":"22402","miles_from_dt":12.91},{"city":"Goldvein","state_name":"Virginia","lat":38.48044,"lng":-77.6468,"zip":"22720","miles_from_dt":13.72},{"city":"Rapidan","state_name":"Virginia","lat":38.33191,"lng":-78.0467,"zip":"22733","miles_from_dt":13.91},{"city":"Fredericksburg","state_name":"Virginia","lat":38.39964,"lng":-77.55596,"zip":"22406","miles_from_dt":13.99},{"city":"Culpeper","state_name":"Virginia","lat":38.44038,"lng":-77.99633,"zip":"22701","miles_from_dt":14},{"city":"Remington","state_name":"Virginia","lat":38.52757,"lng":-77.81119,"zip":"22734","miles_from_dt":14.54},{"city":"Brandy Station","state_name":"Virginia","lat":38.52068,"lng":-77.89363,"zip":"22714","miles_from_dt":15.09},{"city":"Orange","state_name":"Virginia","lat":38.21992,"lng":-78.06624,"zip":"22960","miles_from_dt":16.39},{"city":"Fredericksburg","state_name":"Virginia","lat":38.29992,"lng":-77.48821,"zip":"22412","miles_from_dt":16.52},{"city":"Bealeton","state_name":"Virginia","lat":38.55632,"lng":-77.75884,"zip":"22712","miles_from_dt":16.58},{"city":"Fredericksburg","state_name":"Virginia","lat":38.29928,"lng":-77.48704,"zip":"22401","miles_from_dt":16.58},{"city":"Fredericksburg","state_name":"Virginia","lat":38.35086,"lng":-77.47736,"zip":"22403","miles_from_dt":17.21},{"city":"Somerville","state_name":"Virginia","lat":38.52399,"lng":-77.61049,"zip":"22739","miles_from_dt":17.31},{"city":"Partlow","state_name":"Virginia","lat":38.08473,"lng":-77.67062,"zip":"22534","miles_from_dt":17.33},{"city":"Woodberry Forest","state_name":"Virginia","lat":38.29328,"lng":-78.11943,"zip":"22989","miles_from_dt":17.91},{"city":"Locust Dale","state_name":"Virginia","lat":38.35154,"lng":-78.12264,"zip":"22948","miles_from_dt":18.16},{"city":"Fredericksburg","state_name":"Virginia","lat":38.29772,"lng":-77.45646,"zip":"22404","miles_from_dt":18.25},{"city":"Midland","state_name":"Virginia","lat":38.57773,"lng":-77.68639,"zip":"22728","miles_from_dt":18.84},{"city":"Stafford","state_name":"Virginia","lat":38.48624,"lng":-77.513,"zip":"22556","miles_from_dt":19.08},{"city":"Thornburg","state_name":"Virginia","lat":38.13336,"lng":-77.51978,"zip":"22565","miles_from_dt":19.47},{"city":"Garrisonville","state_name":"Virginia","lat":38.47914,"lng":-77.49634,"zip":"22463","miles_from_dt":19.52},{"city":"Ruby","state_name":"Virginia","lat":38.50435,"lng":-77.51768,"zip":"22545","miles_from_dt":19.67},{"city":"Fredericksburg","state_name":"Virginia","lat":38.21916,"lng":-77.44013,"zip":"22408","miles_from_dt":20.26},{"city":"Oakpark","state_name":"Virginia","lat":38.36782,"lng":-78.16635,"zip":"22730","miles_from_dt":20.67},{"city":"Fredericksburg","state_name":"Virginia","lat":38.31568,"lng":-77.40377,"zip":"22405","miles_from_dt":21.06},{"city":"Leon","state_name":"Virginia","lat":38.44029,"lng":-78.1527,"zip":"22725","miles_from_dt":21.38},{"city":"Radiant","state_name":"Virginia","lat":38.30886,"lng":-78.19153,"zip":"22732","miles_from_dt":21.76},{"city":"Stafford","state_name":"Virginia","lat":38.42026,"lng":-77.40955,"zip":"22555","miles_from_dt":21.91},{"city":"Rixeyville","state_name":"Virginia","lat":38.59024,"lng":-78.00205,"zip":"22737","miles_from_dt":22.02},{"city":"Brightwood","state_name":"Virginia","lat":38.41032,"lng":-78.18541,"zip":"22715","miles_from_dt":22.34},{"city":"Montpelier Station","state_name":"Virginia","lat":38.22998,"lng":-78.1918,"zip":"22957","miles_from_dt":22.59},{"city":"Calverton","state_name":"Virginia","lat":38.6314,"lng":-77.67255,"zip":"20138","miles_from_dt":22.6},{"city":"Jeffersonton","state_name":"Virginia","lat":38.63286,"lng":-77.90752,"zip":"22724","miles_from_dt":22.66},{"city":"Catlett","state_name":"Virginia","lat":38.62159,"lng":-77.62819,"zip":"20119","miles_from_dt":22.77},{"city":"Aroda","state_name":"Virginia","lat":38.32769,"lng":-78.21732,"zip":"22709","miles_from_dt":23.16},{"city":"Corbin","state_name":"Virginia","lat":38.19777,"lng":-77.39052,"zip":"22446","miles_from_dt":23.3},{"city":"Stafford","state_name":"Virginia","lat":38.42285,"lng":-77.3835,"zip":"22554","miles_from_dt":23.31},{"city":"Brooke","state_name":"Virginia","lat":38.37879,"lng":-77.36252,"zip":"22430","miles_from_dt":23.67},{"city":"Woodford","state_name":"Virginia","lat":38.10941,"lng":-77.44419,"zip":"22580","miles_from_dt":23.72},{"city":"Trevilians","state_name":"Virginia","lat":38.05374,"lng":-78.07248,"zip":"23170","miles_from_dt":23.77},{"city":"Mineral","state_name":"Virginia","lat":37.97736,"lng":-77.87365,"zip":"23117","miles_from_dt":23.87},{"city":"Casanova","state_name":"Virginia","lat":38.66039,"lng":-77.71584,"zip":"20139","miles_from_dt":24.01},{"city":"Reva","state_name":"Virginia","lat":38.47941,"lng":-78.18336,"zip":"22735","miles_from_dt":24.04},{"city":"Boston","state_name":"Virginia","lat":38.54123,"lng":-78.13204,"zip":"22713","miles_from_dt":24.09},{"city":"Viewtown","state_name":"Virginia","lat":38.62922,"lng":-78.0195,"zip":"22746","miles_from_dt":24.82},{"city":"Somerset","state_name":"Virginia","lat":38.21746,"lng":-78.23451,"zip":"22972","miles_from_dt":25.07},{"city":"Quantico","state_name":"Virginia","lat":38.53186,"lng":-77.409,"zip":"22134","miles_from_dt":25.48},{"city":"Louisa","state_name":"Virginia","lat":38.00153,"lng":-78.03595,"zip":"23093","miles_from_dt":25.53},{"city":"Ladysmith","state_name":"Virginia","lat":38.01636,"lng":-77.51743,"zip":"22501","miles_from_dt":25.56},{"city":"Pratts","state_name":"Virginia","lat":38.34413,"lng":-78.26151,"zip":"22731","miles_from_dt":25.61},{"city":"Haywood","state_name":"Virginia","lat":38.46304,"lng":-78.22645,"zip":"22722","miles_from_dt":25.67},{"city":"Warrenton","state_name":"Virginia","lat":38.69045,"lng":-77.843,"zip":"20186","miles_from_dt":25.89},{"city":"Rochelle","state_name":"Virginia","lat":38.28692,"lng":-78.27685,"zip":"22738","miles_from_dt":26.47},{"city":"Sealston","state_name":"Virginia","lat":38.25047,"lng":-77.31107,"zip":"22547","miles_from_dt":26.51},{"city":"Gordonsville","state_name":"Virginia","lat":38.10397,"lng":-78.19684,"zip":"22942","miles_from_dt":26.53},{"city":"Warrenton","state_name":"Virginia","lat":38.70589,"lng":-77.83937,"zip":"20188","miles_from_dt":26.93},{"city":"Bumpass","state_name":"Virginia","lat":37.92448,"lng":-77.77554,"zip":"23024","miles_from_dt":27.11},{"city":"Nokesville","state_name":"Virginia","lat":38.66687,"lng":-77.55374,"zip":"20181","miles_from_dt":27.33},{"city":"Castleton","state_name":"Virginia","lat":38.62596,"lng":-78.10794,"zip":"22716","miles_from_dt":27.35},{"city":"Warrenton","state_name":"Virginia","lat":38.71846,"lng":-77.74275,"zip":"20187","miles_from_dt":27.79},{"city":"Beaverdam","state_name":"Virginia","lat":37.93127,"lng":-77.63124,"zip":"23015","miles_from_dt":28.02},{"city":"Triangle","state_name":"Virginia","lat":38.5742,"lng":-77.3895,"zip":"22172","miles_from_dt":28.09},{"city":"Banco","state_name":"Virginia","lat":38.46239,"lng":-78.27634,"zip":"22711","miles_from_dt":28.17},{"city":"Madison","state_name":"Virginia","lat":38.39626,"lng":-78.30058,"zip":"22727","miles_from_dt":28.19},{"city":"Amissville","state_name":"Virginia","lat":38.6871,"lng":-78.0133,"zip":"20106","miles_from_dt":28.2},{"city":"Nokesville","state_name":"Virginia","lat":38.70021,"lng":-77.57907,"zip":"20182","miles_from_dt":28.81},{"city":"Rappahannock Academy","state_name":"Virginia","lat":38.18941,"lng":-77.27334,"zip":"22538","miles_from_dt":29.52},{"city":"Woodville","state_name":"Virginia","lat":38.61945,"lng":-78.18394,"zip":"22749","miles_from_dt":29.79}],"targetCityZipCode":"22508","targetCityState":"Virginia"},"__N_SSG":true}