{"pageProps":{"stateName":"Virginia","cityName":"union-hall","nearbyCities":[{"city":"Glade Hill","state_name":"Virginia","lat":37.00158,"lng":-79.76306,"zip":"24092","miles_from_dt":3.97},{"city":"Redwood","state_name":"Virginia","lat":37.00792,"lng":-79.77025,"zip":"24146","miles_from_dt":4.33},{"city":"Penhook","state_name":"Virginia","lat":36.92587,"lng":-79.65456,"zip":"24137","miles_from_dt":6.12},{"city":"Wirtz","state_name":"Virginia","lat":37.0881,"lng":-79.77642,"zip":"24184","miles_from_dt":7.16},{"city":"Sandy Level","state_name":"Virginia","lat":36.98132,"lng":-79.54391,"zip":"24161","miles_from_dt":8.41},{"city":"Rocky Mount","state_name":"Virginia","lat":36.95827,"lng":-79.86457,"zip":"24151","miles_from_dt":10.18},{"city":"Moneta","state_name":"Virginia","lat":37.1709,"lng":-79.64141,"zip":"24121","miles_from_dt":11.48},{"city":"Pittsville","state_name":"Virginia","lat":37.01092,"lng":-79.4752,"zip":"24139","miles_from_dt":11.99},{"city":"Hardy","state_name":"Virginia","lat":37.17702,"lng":-79.80111,"zip":"24101","miles_from_dt":13.04},{"city":"Huddleston","state_name":"Virginia","lat":37.13546,"lng":-79.48773,"zip":"24104","miles_from_dt":14.24},{"city":"Callands","state_name":"Virginia","lat":36.80785,"lng":-79.61044,"zip":"24530","miles_from_dt":14.61},{"city":"Goodview","state_name":"Virginia","lat":37.22304,"lng":-79.73787,"zip":"24095","miles_from_dt":14.95},{"city":"Boones Mill","state_name":"Virginia","lat":37.11814,"lng":-79.96453,"zip":"24065","miles_from_dt":16.83},{"city":"Chatham","state_name":"Virginia","lat":36.83922,"lng":-79.44332,"zip":"24531","miles_from_dt":18.09},{"city":"Roanoke","state_name":"Virginia","lat":37.22427,"lng":-79.91282,"zip":"24014","miles_from_dt":19.19},{"city":"Lynch Station","state_name":"Virginia","lat":37.13671,"lng":-79.37983,"zip":"24571","miles_from_dt":19.35},{"city":"Vinton","state_name":"Virginia","lat":37.2855,"lng":-79.79963,"zip":"24179","miles_from_dt":19.95},{"city":"Henry","state_name":"Virginia","lat":36.83994,"lng":-79.99891,"zip":"24102","miles_from_dt":20.62},{"city":"Callaway","state_name":"Virginia","lat":37.03737,"lng":-80.06884,"zip":"24067","miles_from_dt":20.93},{"city":"Martinsville","state_name":"Virginia","lat":36.72378,"lng":-79.84921,"zip":"24112","miles_from_dt":21.54},{"city":"Gretna","state_name":"Virginia","lat":36.9666,"lng":-79.30401,"zip":"24557","miles_from_dt":21.66},{"city":"Roanoke","state_name":"Virginia","lat":37.26691,"lng":-79.92219,"zip":"24013","miles_from_dt":21.84},{"city":"Roanoke","state_name":"Virginia","lat":37.27017,"lng":-79.92206,"zip":"24043","miles_from_dt":22.02},{"city":"Roanoke","state_name":"Virginia","lat":37.27066,"lng":-79.93851,"zip":"24009","miles_from_dt":22.58},{"city":"Roanoke","state_name":"Virginia","lat":37.27076,"lng":-79.93933,"zip":"24001","miles_from_dt":22.62},{"city":"Roanoke","state_name":"Virginia","lat":37.27048,"lng":-79.94128,"zip":"24011","miles_from_dt":22.67},{"city":"Roanoke","state_name":"Virginia","lat":37.2706,"lng":-79.9415,"zip":"24007","miles_from_dt":22.68},{"city":"Roanoke","state_name":"Virginia","lat":37.27119,"lng":-79.94097,"zip":"24005","miles_from_dt":22.69},{"city":"Dry Fork","state_name":"Virginia","lat":36.71584,"lng":-79.50632,"zip":"24549","miles_from_dt":22.7},{"city":"Roanoke","state_name":"Virginia","lat":37.27579,"lng":-79.93424,"zip":"24024","miles_from_dt":22.73},{"city":"Roanoke","state_name":"Virginia","lat":37.2715,"lng":-79.94234,"zip":"24010","miles_from_dt":22.76},{"city":"Roanoke","state_name":"Virginia","lat":37.27019,"lng":-79.94467,"zip":"24004","miles_from_dt":22.76},{"city":"Roanoke","state_name":"Virginia","lat":37.27689,"lng":-79.93429,"zip":"24022","miles_from_dt":22.79},{"city":"Roanoke","state_name":"Virginia","lat":37.2771,"lng":-79.93464,"zip":"24040","miles_from_dt":22.81},{"city":"Roanoke","state_name":"Virginia","lat":37.27134,"lng":-79.94435,"zip":"24008","miles_from_dt":22.82},{"city":"Axton","state_name":"Virginia","lat":36.67806,"lng":-79.70396,"zip":"24054","miles_from_dt":22.86},{"city":"Roanoke","state_name":"Virginia","lat":37.27347,"lng":-79.9421,"zip":"24003","miles_from_dt":22.86},{"city":"Roanoke","state_name":"Virginia","lat":37.27891,"lng":-79.93298,"zip":"24036","miles_from_dt":22.86},{"city":"Ferrum","state_name":"Virginia","lat":36.89492,"lng":-80.0798,"zip":"24088","miles_from_dt":22.87},{"city":"Roanoke","state_name":"Virginia","lat":37.27307,"lng":-79.94332,"zip":"24006","miles_from_dt":22.88},{"city":"Roanoke","state_name":"Virginia","lat":37.27828,"lng":-79.9353,"zip":"24032","miles_from_dt":22.9},{"city":"Roanoke","state_name":"Virginia","lat":37.2824,"lng":-79.92859,"zip":"24035","miles_from_dt":22.92},{"city":"Roanoke","state_name":"Virginia","lat":37.27587,"lng":-79.94159,"zip":"24042","miles_from_dt":22.97},{"city":"Roanoke","state_name":"Virginia","lat":37.26997,"lng":-79.9517,"zip":"24023","miles_from_dt":22.99},{"city":"Roanoke","state_name":"Virginia","lat":37.28023,"lng":-79.9357,"zip":"24037","miles_from_dt":23.02},{"city":"Roanoke","state_name":"Virginia","lat":37.27224,"lng":-79.95112,"zip":"24026","miles_from_dt":23.09},{"city":"Roanoke","state_name":"Virginia","lat":37.28012,"lng":-79.93826,"zip":"24034","miles_from_dt":23.1},{"city":"Roanoke","state_name":"Virginia","lat":37.27159,"lng":-79.9527,"zip":"24029","miles_from_dt":23.11},{"city":"Roanoke","state_name":"Virginia","lat":37.27096,"lng":-79.95433,"zip":"24030","miles_from_dt":23.14},{"city":"Collinsville","state_name":"Virginia","lat":36.72376,"lng":-79.91303,"zip":"24078","miles_from_dt":23.19},{"city":"Roanoke","state_name":"Virginia","lat":37.27292,"lng":-79.95282,"zip":"24025","miles_from_dt":23.19},{"city":"Roanoke","state_name":"Virginia","lat":37.27208,"lng":-79.95468,"zip":"24016","miles_from_dt":23.21},{"city":"Roanoke","state_name":"Virginia","lat":37.27169,"lng":-79.95629,"zip":"24038","miles_from_dt":23.24},{"city":"Roanoke","state_name":"Virginia","lat":37.27219,"lng":-79.95606,"zip":"24031","miles_from_dt":23.26},{"city":"Roanoke","state_name":"Virginia","lat":37.25588,"lng":-79.97979,"zip":"24015","miles_from_dt":23.27},{"city":"Roanoke","state_name":"Virginia","lat":37.27362,"lng":-79.95503,"zip":"24027","miles_from_dt":23.3},{"city":"Roanoke","state_name":"Virginia","lat":37.27342,"lng":-79.95596,"zip":"24033","miles_from_dt":23.32},{"city":"Roanoke","state_name":"Virginia","lat":37.28178,"lng":-79.94288,"zip":"24028","miles_from_dt":23.34},{"city":"Hurt","state_name":"Virginia","lat":37.06106,"lng":-79.27385,"zip":"24563","miles_from_dt":23.39},{"city":"Thaxton","state_name":"Virginia","lat":37.35087,"lng":-79.66762,"zip":"24174","miles_from_dt":23.59},{"city":"Roanoke","state_name":"Virginia","lat":37.27791,"lng":-79.95694,"zip":"24002","miles_from_dt":23.6},{"city":"Stanleytown","state_name":"Virginia","lat":36.73613,"lng":-79.94876,"zip":"24168","miles_from_dt":23.61},{"city":"Roanoke","state_name":"Virginia","lat":37.21238,"lng":-80.04261,"zip":"24018","miles_from_dt":23.9},{"city":"Bassett","state_name":"Virginia","lat":36.76333,"lng":-79.99741,"zip":"24055","miles_from_dt":23.96},{"city":"Martinsville","state_name":"Virginia","lat":36.68797,"lng":-79.85866,"zip":"24115","miles_from_dt":24.01},{"city":"Roanoke","state_name":"Virginia","lat":37.31585,"lng":-79.89833,"zip":"24012","miles_from_dt":24.01},{"city":"Martinsville","state_name":"Virginia","lat":36.68267,"lng":-79.85038,"zip":"24113","miles_from_dt":24.18},{"city":"Martinsville","state_name":"Virginia","lat":36.68389,"lng":-79.86412,"zip":"24114","miles_from_dt":24.39},{"city":"Bedford","state_name":"Virginia","lat":37.3364,"lng":-79.52347,"zip":"24523","miles_from_dt":24.39},{"city":"Blue Ridge","state_name":"Virginia","lat":37.37237,"lng":-79.7759,"zip":"24064","miles_from_dt":25.46},{"city":"Roanoke","state_name":"Virginia","lat":37.29472,"lng":-79.99183,"zip":"24017","miles_from_dt":25.71},{"city":"Copper Hill","state_name":"Virginia","lat":37.0539,"lng":-80.15418,"zip":"24079","miles_from_dt":25.74},{"city":"Fieldale","state_name":"Virginia","lat":36.70392,"lng":-79.96078,"zip":"24089","miles_from_dt":25.8},{"city":"Bent Mountain","state_name":"Virginia","lat":37.15577,"lng":-80.13159,"zip":"24059","miles_from_dt":26.31},{"city":"Cloverdale","state_name":"Virginia","lat":37.36337,"lng":-79.90278,"zip":"24077","miles_from_dt":27.04},{"city":"Altavista","state_name":"Virginia","lat":37.14532,"lng":-79.23258,"zip":"24517","miles_from_dt":27.06},{"city":"Blairs","state_name":"Virginia","lat":36.7324,"lng":-79.34577,"zip":"24527","miles_from_dt":27.07},{"city":"Roanoke","state_name":"Virginia","lat":37.3446,"lng":-79.95564,"zip":"24019","miles_from_dt":27.32},{"city":"Roanoke","state_name":"Virginia","lat":37.34622,"lng":-79.95718,"zip":"24050","miles_from_dt":27.46},{"city":"Lowry","state_name":"Virginia","lat":37.3486,"lng":-79.4272,"zip":"24570","miles_from_dt":27.58},{"city":"Roanoke","state_name":"Virginia","lat":37.35739,"lng":-79.94279,"zip":"24020","miles_from_dt":27.7},{"city":"Evington","state_name":"Virginia","lat":37.23493,"lng":-79.26898,"zip":"24550","miles_from_dt":28.06},{"city":"Roanoke","state_name":"Virginia","lat":37.29,"lng":-80.06219,"zip":"24155","miles_from_dt":28.15},{"city":"Roanoke","state_name":"Virginia","lat":37.29241,"lng":-80.06396,"zip":"24157","miles_from_dt":28.33},{"city":"Montvale","state_name":"Virginia","lat":37.4212,"lng":-79.69372,"zip":"24122","miles_from_dt":28.4},{"city":"Villamont","state_name":"Virginia","lat":37.42527,"lng":-79.70855,"zip":"24178","miles_from_dt":28.7},{"city":"Danville","state_name":"Virginia","lat":36.64235,"lng":-79.42473,"zip":"24540","miles_from_dt":29.32},{"city":"Cascade","state_name":"Virginia","lat":36.58376,"lng":-79.63779,"zip":"24069","miles_from_dt":29.5},{"city":"Check","state_name":"Virginia","lat":37.03809,"lng":-80.23113,"zip":"24072","miles_from_dt":29.88}],"targetCityZipCode":"24176","targetCityState":"Virginia"},"__N_SSG":true}