{"pageProps":{"stateName":"Virginia","cityName":"victoria","nearbyCities":[{"city":"Lunenburg","state_name":"Virginia","lat":36.91786,"lng":-78.27886,"zip":"23952","miles_from_dt":4.24},{"city":"Kenbridge","state_name":"Virginia","lat":36.9056,"lng":-78.13319,"zip":"23944","miles_from_dt":7.77},{"city":"Green Bay","state_name":"Virginia","lat":37.13241,"lng":-78.30138,"zip":"23942","miles_from_dt":11.4},{"city":"Keysville","state_name":"Virginia","lat":37.02265,"lng":-78.44284,"zip":"23947","miles_from_dt":11.44},{"city":"Meherrin","state_name":"Virginia","lat":37.10893,"lng":-78.38705,"zip":"23954","miles_from_dt":12.2},{"city":"Nottoway","state_name":"Virginia","lat":37.10816,"lng":-78.06556,"zip":"23955","miles_from_dt":13.62},{"city":"Fort Mitchell","state_name":"Virginia","lat":36.91717,"lng":-78.48823,"zip":"23941","miles_from_dt":13.98},{"city":"Dundas","state_name":"Virginia","lat":36.90541,"lng":-78.00464,"zip":"23938","miles_from_dt":14.13},{"city":"Burkeville","state_name":"Virginia","lat":37.17987,"lng":-78.21219,"zip":"23922","miles_from_dt":14.37},{"city":"Chase City","state_name":"Virginia","lat":36.80919,"lng":-78.43396,"zip":"23924","miles_from_dt":15.39},{"city":"Drakes Branch","state_name":"Virginia","lat":36.94547,"lng":-78.52463,"zip":"23937","miles_from_dt":15.57},{"city":"South Hill","state_name":"Virginia","lat":36.74818,"lng":-78.18637,"zip":"23970","miles_from_dt":15.86},{"city":"Crewe","state_name":"Virginia","lat":37.17468,"lng":-78.09608,"zip":"23930","miles_from_dt":16.16},{"city":"Blackstone","state_name":"Virginia","lat":37.08767,"lng":-77.95749,"zip":"23824","miles_from_dt":17.77},{"city":"Baskerville","state_name":"Virginia","lat":36.70668,"lng":-78.28627,"zip":"23915","miles_from_dt":18.52},{"city":"Alberta","state_name":"Virginia","lat":36.876,"lng":-77.91794,"zip":"23821","miles_from_dt":19.33},{"city":"Meredithville","state_name":"Virginia","lat":36.80534,"lng":-77.9571,"zip":"23873","miles_from_dt":19.73},{"city":"Wylliesburg","state_name":"Virginia","lat":36.8482,"lng":-78.5797,"zip":"23976","miles_from_dt":20.42},{"city":"Saxe","state_name":"Virginia","lat":36.91813,"lng":-78.62857,"zip":"23967","miles_from_dt":21.54},{"city":"Hampden Sydney","state_name":"Virginia","lat":37.24181,"lng":-78.46041,"zip":"23943","miles_from_dt":22},{"city":"Rice","state_name":"Virginia","lat":37.29177,"lng":-78.27418,"zip":"23966","miles_from_dt":22.02},{"city":"Rawlings","state_name":"Virginia","lat":36.95635,"lng":-77.83343,"zip":"23876","miles_from_dt":22.83},{"city":"Brodnax","state_name":"Virginia","lat":36.72452,"lng":-77.97266,"zip":"23920","miles_from_dt":22.86},{"city":"Skipwith","state_name":"Virginia","lat":36.72123,"lng":-78.51922,"zip":"23968","miles_from_dt":23.07},{"city":"La Crosse","state_name":"Virginia","lat":36.66005,"lng":-78.07699,"zip":"23950","miles_from_dt":23.53},{"city":"Charlotte Court House","state_name":"Virginia","lat":37.09316,"lng":-78.64627,"zip":"23923","miles_from_dt":23.65},{"city":"Farmville","state_name":"Virginia","lat":37.29891,"lng":-78.39635,"zip":"23909","miles_from_dt":23.95},{"city":"Boydton","state_name":"Virginia","lat":36.62378,"lng":-78.34144,"zip":"23917","miles_from_dt":24.68},{"city":"Jetersville","state_name":"Virginia","lat":37.31899,"lng":-78.11111,"zip":"23083","miles_from_dt":24.97},{"city":"Cullen","state_name":"Virginia","lat":37.17613,"lng":-78.62373,"zip":"23934","miles_from_dt":25.15},{"city":"Red Oak","state_name":"Virginia","lat":36.77713,"lng":-78.63149,"zip":"23964","miles_from_dt":25.3},{"city":"Randolph","state_name":"Virginia","lat":36.93865,"lng":-78.70399,"zip":"23962","miles_from_dt":25.49},{"city":"Dolphin","state_name":"Virginia","lat":36.84988,"lng":-77.8109,"zip":"23843","miles_from_dt":25.52},{"city":"Farmville","state_name":"Virginia","lat":37.32309,"lng":-78.41186,"zip":"23901","miles_from_dt":25.82},{"city":"Wilsons","state_name":"Virginia","lat":37.13867,"lng":-77.82404,"zip":"23894","miles_from_dt":25.94},{"city":"Bracey","state_name":"Virginia","lat":36.59103,"lng":-78.13305,"zip":"23919","miles_from_dt":27.08},{"city":"Warfield","state_name":"Virginia","lat":36.8972,"lng":-77.74395,"zip":"23889","miles_from_dt":28.25},{"city":"McKenney","state_name":"Virginia","lat":36.98351,"lng":-77.72629,"zip":"23872","miles_from_dt":28.73},{"city":"Clarksville","state_name":"Virginia","lat":36.60899,"lng":-78.51258,"zip":"23927","miles_from_dt":29.16},{"city":"Prospect","state_name":"Virginia","lat":37.31531,"lng":-78.5579,"zip":"23960","miles_from_dt":29.22},{"city":"White Plains","state_name":"Virginia","lat":36.6244,"lng":-77.93658,"zip":"23893","miles_from_dt":29.53},{"city":"Clover","state_name":"Virginia","lat":36.87835,"lng":-78.76691,"zip":"24534","miles_from_dt":29.6}],"targetCityZipCode":"23974","targetCityState":"Virginia"},"__N_SSG":true}