{"pageProps":{"stateName":"Indiana","cityName":"carbon","nearbyCities":[{"city":"Bridgeton","state_name":"Indiana","lat":39.64924,"lng":-87.17221,"zip":"47836","miles_from_dt":3.45},{"city":"Harmony","state_name":"Indiana","lat":39.53757,"lng":-87.07277,"zip":"47853","miles_from_dt":6.68},{"city":"Brazil","state_name":"Indiana","lat":39.52423,"lng":-87.12276,"zip":"47834","miles_from_dt":7.27},{"city":"Knightsville","state_name":"Indiana","lat":39.52403,"lng":-87.09111,"zip":"47857","miles_from_dt":7.35},{"city":"Fontanet","state_name":"Indiana","lat":39.5736,"lng":-87.24594,"zip":"47851","miles_from_dt":8.08},{"city":"Rosedale","state_name":"Indiana","lat":39.62913,"lng":-87.27792,"zip":"47874","miles_from_dt":8.81},{"city":"Rockville","state_name":"Indiana","lat":39.75331,"lng":-87.16271,"zip":"47872","miles_from_dt":8.96},{"city":"Reelsville","state_name":"Indiana","lat":39.53527,"lng":-86.96815,"zip":"46171","miles_from_dt":10.09},{"city":"Staunton","state_name":"Indiana","lat":39.48722,"lng":-87.19029,"zip":"47881","miles_from_dt":10.64},{"city":"Greencastle","state_name":"Indiana","lat":39.65909,"lng":-86.89107,"zip":"46135","miles_from_dt":12},{"city":"Seelyville","state_name":"Indiana","lat":39.49516,"lng":-87.26368,"zip":"47878","miles_from_dt":12.27},{"city":"Terre Haute","state_name":"Indiana","lat":39.54768,"lng":-87.32739,"zip":"47805","miles_from_dt":12.76},{"city":"Mecca","state_name":"Indiana","lat":39.72215,"lng":-87.33013,"zip":"47860","miles_from_dt":13.24},{"city":"Putnamville","state_name":"Indiana","lat":39.57164,"lng":-86.86277,"zip":"46170","miles_from_dt":13.92},{"city":"Terre Haute","state_name":"Indiana","lat":39.51273,"lng":-87.35199,"zip":"47808","miles_from_dt":15.09},{"city":"Russellville","state_name":"Indiana","lat":39.82199,"lng":-86.97292,"zip":"46175","miles_from_dt":15.24},{"city":"Terre Haute","state_name":"Indiana","lat":39.46433,"lng":-87.30855,"zip":"47803","miles_from_dt":15.45},{"city":"Centerpoint","state_name":"Indiana","lat":39.40863,"lng":-87.05937,"zip":"47840","miles_from_dt":15.49},{"city":"Montezuma","state_name":"Indiana","lat":39.77184,"lng":-87.34527,"zip":"47862","miles_from_dt":15.82},{"city":"Shepardsville","state_name":"Indiana","lat":39.59976,"lng":-87.41885,"zip":"47880","miles_from_dt":16.46},{"city":"Terre Haute","state_name":"Indiana","lat":39.49756,"lng":-87.39031,"zip":"47804","miles_from_dt":17.38},{"city":"Marshall","state_name":"Indiana","lat":39.88595,"lng":-87.16999,"zip":"47859","miles_from_dt":17.97},{"city":"Waveland","state_name":"Indiana","lat":39.88871,"lng":-87.05243,"zip":"47989","miles_from_dt":18.18},{"city":"Universal","state_name":"Indiana","lat":39.62308,"lng":-87.45362,"zip":"47884","miles_from_dt":18.19},{"city":"Bainbridge","state_name":"Indiana","lat":39.76388,"lng":-86.81487,"zip":"46105","miles_from_dt":18.39},{"city":"Cory","state_name":"Indiana","lat":39.36601,"lng":-87.20041,"zip":"47846","miles_from_dt":18.76},{"city":"Bloomingdale","state_name":"Indiana","lat":39.87879,"lng":-87.25463,"zip":"47832","miles_from_dt":18.8},{"city":"New Goshen","state_name":"Indiana","lat":39.57848,"lng":-87.45921,"zip":"47863","miles_from_dt":18.82},{"city":"Clinton","state_name":"Indiana","lat":39.67569,"lng":-87.462,"zip":"47842","miles_from_dt":18.9},{"city":"Terre Haute","state_name":"Indiana","lat":39.47061,"lng":-87.40262,"zip":"47807","miles_from_dt":18.96},{"city":"Poland","state_name":"Indiana","lat":39.40892,"lng":-86.89822,"zip":"47868","miles_from_dt":19.04},{"city":"Cloverdale","state_name":"Indiana","lat":39.51252,"lng":-86.78711,"zip":"46120","miles_from_dt":19.17},{"city":"Terre Haute","state_name":"Indiana","lat":39.47136,"lng":-87.40986,"zip":"47809","miles_from_dt":19.25},{"city":"Riley","state_name":"Indiana","lat":39.38978,"lng":-87.30026,"zip":"47871","miles_from_dt":19.32},{"city":"Terre Haute","state_name":"Indiana","lat":39.46712,"lng":-87.41014,"zip":"47801","miles_from_dt":19.43},{"city":"Fillmore","state_name":"Indiana","lat":39.65634,"lng":-86.74312,"zip":"46128","miles_from_dt":19.81},{"city":"Bowling Green","state_name":"Indiana","lat":39.35841,"lng":-86.97773,"zip":"47833","miles_from_dt":20.03},{"city":"Hillsdale","state_name":"Indiana","lat":39.80874,"lng":-87.41299,"zip":"47854","miles_from_dt":20.22},{"city":"Saint Mary Of The Woods","state_name":"Indiana","lat":39.50996,"lng":-87.46113,"zip":"47876","miles_from_dt":20.34},{"city":"Roachdale","state_name":"Indiana","lat":39.82725,"lng":-86.8144,"zip":"46172","miles_from_dt":20.96},{"city":"West Terre Haute","state_name":"Indiana","lat":39.50872,"lng":-87.47679,"zip":"47885","miles_from_dt":21.14},{"city":"Blanford","state_name":"Indiana","lat":39.66549,"lng":-87.52177,"zip":"47831","miles_from_dt":21.95},{"city":"Saint Bernice","state_name":"Indiana","lat":39.71447,"lng":-87.52222,"zip":"47875","miles_from_dt":22.6},{"city":"Patricksburg","state_name":"Indiana","lat":39.31271,"lng":-86.95672,"zip":"47455","miles_from_dt":23.38},{"city":"Coatesville","state_name":"Indiana","lat":39.67776,"lng":-86.67345,"zip":"46121","miles_from_dt":23.67},{"city":"Newport","state_name":"Indiana","lat":39.88843,"lng":-87.41433,"zip":"47966","miles_from_dt":24.03},{"city":"Dana","state_name":"Indiana","lat":39.82293,"lng":-87.48865,"zip":"47847","miles_from_dt":24.07},{"city":"Clay City","state_name":"Indiana","lat":39.27764,"lng":-87.11492,"zip":"47841","miles_from_dt":24.26},{"city":"Ladoga","state_name":"Indiana","lat":39.90048,"lng":-86.8178,"zip":"47954","miles_from_dt":24.43},{"city":"Alamo","state_name":"Indiana","lat":39.98343,"lng":-87.05524,"zip":"47916","miles_from_dt":24.62},{"city":"New Market","state_name":"Indiana","lat":39.95452,"lng":-86.91996,"zip":"47965","miles_from_dt":24.67},{"city":"Wallace","state_name":"Indiana","lat":39.98897,"lng":-87.14678,"zip":"47988","miles_from_dt":24.88},{"city":"Terre Haute","state_name":"Indiana","lat":39.35153,"lng":-87.4106,"zip":"47802","miles_from_dt":24.91},{"city":"Quincy","state_name":"Indiana","lat":39.46314,"lng":-86.69781,"zip":"47456","miles_from_dt":24.95},{"city":"Kingman","state_name":"Indiana","lat":39.96186,"lng":-87.30049,"zip":"47952","miles_from_dt":25.02},{"city":"Vermilion","state_name":"Illinois","lat":39.58162,"lng":-87.5875,"zip":"61955","miles_from_dt":25.54},{"city":"Lewis","state_name":"Indiana","lat":39.26268,"lng":-87.22868,"zip":"47858","miles_from_dt":26.04},{"city":"Eminence","state_name":"Indiana","lat":39.52188,"lng":-86.64179,"zip":"46125","miles_from_dt":26.22},{"city":"Prairieton","state_name":"Indiana","lat":39.37016,"lng":-87.47353,"zip":"47870","miles_from_dt":26.29},{"city":"Pimento","state_name":"Indiana","lat":39.28302,"lng":-87.3247,"zip":"47866","miles_from_dt":26.44},{"city":"Stilesville","state_name":"Indiana","lat":39.59652,"lng":-86.61801,"zip":"46180","miles_from_dt":26.5},{"city":"Amo","state_name":"Indiana","lat":39.6896,"lng":-86.61384,"zip":"46103","miles_from_dt":26.93},{"city":"Coal City","state_name":"Indiana","lat":39.23915,"lng":-87.01266,"zip":"47427","miles_from_dt":27.44},{"city":"Dennison","state_name":"Illinois","lat":39.46208,"lng":-87.5819,"zip":"62423","miles_from_dt":27.58},{"city":"Cayuga","state_name":"Indiana","lat":39.93237,"lng":-87.46501,"zip":"47928","miles_from_dt":28.08},{"city":"North Salem","state_name":"Indiana","lat":39.84522,"lng":-86.64716,"zip":"46165","miles_from_dt":28.93},{"city":"Freedom","state_name":"Indiana","lat":39.24052,"lng":-86.90655,"zip":"47431","miles_from_dt":29},{"city":"Spencer","state_name":"Indiana","lat":39.28153,"lng":-86.78951,"zip":"47460","miles_from_dt":29.57},{"city":"Waynetown","state_name":"Indiana","lat":40.06118,"lng":-87.05952,"zip":"47990","miles_from_dt":29.93},{"city":"Hillsboro","state_name":"Indiana","lat":40.06288,"lng":-87.13504,"zip":"47949","miles_from_dt":29.94}],"targetCityZipCode":"47837","targetCityState":"Indiana"},"__N_SSG":true}