{"pageProps":{"stateName":"Indiana","cityName":"fairbanks","nearbyCities":[{"city":"West Union","state_name":"Illinois","lat":39.23369,"lng":-87.66024,"zip":"62477","miles_from_dt":6.04},{"city":"Prairie Creek","state_name":"Indiana","lat":39.2751,"lng":-87.49658,"zip":"47869","miles_from_dt":6.7},{"city":"Farmersburg","state_name":"Indiana","lat":39.24441,"lng":-87.43763,"zip":"47850","miles_from_dt":7.56},{"city":"Merom","state_name":"Indiana","lat":39.06528,"lng":-87.56658,"zip":"47861","miles_from_dt":8.74},{"city":"Graysville","state_name":"Indiana","lat":39.10601,"lng":-87.43379,"zip":"47852","miles_from_dt":9.06},{"city":"Hutsonville","state_name":"Illinois","lat":39.11276,"lng":-87.70514,"zip":"62433","miles_from_dt":9.46},{"city":"West York","state_name":"Illinois","lat":39.17874,"lng":-87.74367,"zip":"62478","miles_from_dt":9.83},{"city":"Shelburn","state_name":"Indiana","lat":39.18863,"lng":-87.37619,"zip":"47879","miles_from_dt":9.94},{"city":"Sullivan","state_name":"Indiana","lat":39.09034,"lng":-87.41186,"zip":"47882","miles_from_dt":10.66},{"city":"Prairieton","state_name":"Indiana","lat":39.37016,"lng":-87.47353,"zip":"47870","miles_from_dt":13.16},{"city":"Terre Haute","state_name":"Indiana","lat":39.35153,"lng":-87.4106,"zip":"47802","miles_from_dt":13.66},{"city":"Palestine","state_name":"Illinois","lat":38.99394,"lng":-87.6066,"zip":"62451","miles_from_dt":13.88},{"city":"Hymera","state_name":"Indiana","lat":39.18844,"lng":-87.30216,"zip":"47855","miles_from_dt":13.91},{"city":"Pimento","state_name":"Indiana","lat":39.28302,"lng":-87.3247,"zip":"47866","miles_from_dt":14.16},{"city":"Paxton","state_name":"Indiana","lat":39.01908,"lng":-87.39259,"zip":"47865","miles_from_dt":14.98},{"city":"Annapolis","state_name":"Illinois","lat":39.14081,"lng":-87.84012,"zip":"62413","miles_from_dt":15.38},{"city":"Marshall","state_name":"Illinois","lat":39.39392,"lng":-87.69795,"zip":"62441","miles_from_dt":15.74},{"city":"Robinson","state_name":"Illinois","lat":38.99725,"lng":-87.75767,"zip":"62454","miles_from_dt":17.08},{"city":"Coalmont","state_name":"Indiana","lat":39.1936,"lng":-87.23386,"zip":"47845","miles_from_dt":17.58},{"city":"Martinsville","state_name":"Illinois","lat":39.31269,"lng":-87.85602,"zip":"62442","miles_from_dt":17.87},{"city":"Lewis","state_name":"Indiana","lat":39.26268,"lng":-87.22868,"zip":"47858","miles_from_dt":18.5},{"city":"Dennison","state_name":"Illinois","lat":39.46208,"lng":-87.5819,"zip":"62423","miles_from_dt":18.67},{"city":"Carlisle","state_name":"Indiana","lat":38.95679,"lng":-87.37812,"zip":"47838","miles_from_dt":18.98},{"city":"Dugger","state_name":"Indiana","lat":39.04159,"lng":-87.26108,"zip":"47848","miles_from_dt":19.18},{"city":"Stoy","state_name":"Illinois","lat":38.99793,"lng":-87.82385,"zip":"62464","miles_from_dt":19.45},{"city":"Riley","state_name":"Indiana","lat":39.38978,"lng":-87.30026,"zip":"47871","miles_from_dt":19.55},{"city":"Jasonville","state_name":"Indiana","lat":39.1582,"lng":-87.18237,"zip":"47438","miles_from_dt":20.48},{"city":"Terre Haute","state_name":"Indiana","lat":39.46712,"lng":-87.41014,"zip":"47801","miles_from_dt":20.64},{"city":"Midland","state_name":"Indiana","lat":39.11289,"lng":-87.18944,"zip":"47445","miles_from_dt":20.71},{"city":"Terre Haute","state_name":"Indiana","lat":39.47136,"lng":-87.40986,"zip":"47809","miles_from_dt":20.91},{"city":"Terre Haute","state_name":"Indiana","lat":39.47061,"lng":-87.40262,"zip":"47807","miles_from_dt":21.02},{"city":"West Terre Haute","state_name":"Indiana","lat":39.50872,"lng":-87.47679,"zip":"47885","miles_from_dt":22.32},{"city":"Saint Mary Of The Woods","state_name":"Indiana","lat":39.50996,"lng":-87.46113,"zip":"47876","miles_from_dt":22.58},{"city":"Flat Rock","state_name":"Illinois","lat":38.87301,"lng":-87.65891,"zip":"62427","miles_from_dt":22.62},{"city":"Cory","state_name":"Indiana","lat":39.36601,"lng":-87.20041,"zip":"47846","miles_from_dt":22.77},{"city":"Oblong","state_name":"Illinois","lat":39.00419,"lng":-87.91069,"zip":"62449","miles_from_dt":22.81},{"city":"Terre Haute","state_name":"Indiana","lat":39.49756,"lng":-87.39031,"zip":"47804","miles_from_dt":22.99},{"city":"Terre Haute","state_name":"Indiana","lat":39.46433,"lng":-87.30855,"zip":"47803","miles_from_dt":23.16},{"city":"Linton","state_name":"Indiana","lat":39.03976,"lng":-87.1743,"zip":"47441","miles_from_dt":23.3},{"city":"Oaktown","state_name":"Indiana","lat":38.85705,"lng":-87.43611,"zip":"47561","miles_from_dt":24.06},{"city":"Casey","state_name":"Illinois","lat":39.29065,"lng":-88.0005,"zip":"62420","miles_from_dt":24.52},{"city":"Clay City","state_name":"Indiana","lat":39.27764,"lng":-87.11492,"zip":"47841","miles_from_dt":24.67},{"city":"Terre Haute","state_name":"Indiana","lat":39.51273,"lng":-87.35199,"zip":"47808","miles_from_dt":24.81},{"city":"Yale","state_name":"Illinois","lat":39.12657,"lng":-88.02293,"zip":"62481","miles_from_dt":25.2},{"city":"Seelyville","state_name":"Indiana","lat":39.49516,"lng":-87.26368,"zip":"47878","miles_from_dt":26.3},{"city":"Freelandville","state_name":"Indiana","lat":38.86265,"lng":-87.31285,"zip":"47535","miles_from_dt":26.36},{"city":"Vermilion","state_name":"Illinois","lat":39.58162,"lng":-87.5875,"zip":"61955","miles_from_dt":26.92},{"city":"Willow Hill","state_name":"Illinois","lat":38.99864,"lng":-88.00129,"zip":"62480","miles_from_dt":27.15},{"city":"New Goshen","state_name":"Indiana","lat":39.57848,"lng":-87.45921,"zip":"47863","miles_from_dt":27.22},{"city":"Terre Haute","state_name":"Indiana","lat":39.54768,"lng":-87.32739,"zip":"47805","miles_from_dt":27.55},{"city":"Staunton","state_name":"Indiana","lat":39.48722,"lng":-87.19029,"zip":"47881","miles_from_dt":28.46},{"city":"Westfield","state_name":"Illinois","lat":39.43526,"lng":-87.99462,"zip":"62474","miles_from_dt":28.65},{"city":"Sandborn","state_name":"Indiana","lat":38.89288,"lng":-87.19055,"zip":"47578","miles_from_dt":28.7},{"city":"Edwardsport","state_name":"Indiana","lat":38.84447,"lng":-87.26806,"zip":"47528","miles_from_dt":28.7},{"city":"Westphalia","state_name":"Indiana","lat":38.86318,"lng":-87.23382,"zip":"47596","miles_from_dt":28.72},{"city":"Paris","state_name":"Illinois","lat":39.59969,"lng":-87.70146,"zip":"61944","miles_from_dt":29.11},{"city":"Shepardsville","state_name":"Indiana","lat":39.59976,"lng":-87.41885,"zip":"47880","miles_from_dt":29.15},{"city":"Switz City","state_name":"Indiana","lat":39.05474,"lng":-87.04338,"zip":"47465","miles_from_dt":29.4},{"city":"Coal City","state_name":"Indiana","lat":39.23915,"lng":-87.01266,"zip":"47427","miles_from_dt":29.62},{"city":"Lyons","state_name":"Indiana","lat":38.96651,"lng":-87.09059,"zip":"47443","miles_from_dt":29.71}],"targetCityZipCode":"47849","targetCityState":"Indiana"},"__N_SSG":true}