{"pageProps":{"stateName":"Indiana","cityName":"hatfield","nearbyCities":[{"city":"Richland","state_name":"Indiana","lat":37.93893,"lng":-87.1848,"zip":"47634","miles_from_dt":2.18},{"city":"Rockport","state_name":"Indiana","lat":37.8862,"lng":-87.10751,"zip":"47635","miles_from_dt":5.5},{"city":"Newburgh","state_name":"Indiana","lat":37.95615,"lng":-87.35569,"zip":"47630","miles_from_dt":8.89},{"city":"Owensboro","state_name":"Kentucky","lat":37.77771,"lng":-87.16865,"zip":"42304","miles_from_dt":9.38},{"city":"Boonville","state_name":"Indiana","lat":38.05301,"lng":-87.25526,"zip":"47601","miles_from_dt":10.2},{"city":"Reed","state_name":"Kentucky","lat":37.88165,"lng":-87.38966,"zip":"42451","miles_from_dt":10.39},{"city":"Chrisney","state_name":"Indiana","lat":38.02474,"lng":-87.05812,"zip":"47611","miles_from_dt":11.15},{"city":"Newburgh","state_name":"Indiana","lat":37.95602,"lng":-87.40157,"zip":"47629","miles_from_dt":11.27},{"city":"Owensboro","state_name":"Kentucky","lat":37.73983,"lng":-87.24643,"zip":"42301","miles_from_dt":12.03},{"city":"Maceo","state_name":"Kentucky","lat":37.86206,"lng":-86.9895,"zip":"42355","miles_from_dt":12.16},{"city":"Spottsville","state_name":"Kentucky","lat":37.85249,"lng":-87.42367,"zip":"42458","miles_from_dt":12.71},{"city":"Owensboro","state_name":"Kentucky","lat":37.76509,"lng":-87.04365,"zip":"42302","miles_from_dt":13.32},{"city":"Owensboro","state_name":"Kentucky","lat":37.76138,"lng":-87.04889,"zip":"42303","miles_from_dt":13.33},{"city":"Curdsville","state_name":"Kentucky","lat":37.73673,"lng":-87.32966,"zip":"42334","miles_from_dt":13.86},{"city":"Grandview","state_name":"Indiana","lat":37.97214,"lng":-86.95643,"zip":"47615","miles_from_dt":14.13},{"city":"Baskett","state_name":"Kentucky","lat":37.8686,"lng":-87.4614,"zip":"42402","miles_from_dt":14.41},{"city":"Chandler","state_name":"Indiana","lat":38.06041,"lng":-87.39988,"zip":"47610","miles_from_dt":14.88},{"city":"West Louisville","state_name":"Kentucky","lat":37.69821,"lng":-87.28471,"zip":"42377","miles_from_dt":15.33},{"city":"Gentryville","state_name":"Indiana","lat":38.10971,"lng":-87.06888,"zip":"47537","miles_from_dt":15.55},{"city":"Evansville","state_name":"Indiana","lat":37.97229,"lng":-87.48097,"zip":"47715","miles_from_dt":15.75},{"city":"Tennyson","state_name":"Indiana","lat":38.13679,"lng":-87.15865,"zip":"47637","miles_from_dt":15.77},{"city":"Evansville","state_name":"Indiana","lat":37.96182,"lng":-87.49233,"zip":"47716","miles_from_dt":16.18},{"city":"Maple Mount","state_name":"Kentucky","lat":37.69364,"lng":-87.32289,"zip":"42356","miles_from_dt":16.35},{"city":"Evansville","state_name":"Indiana","lat":37.96158,"lng":-87.50859,"zip":"47750","miles_from_dt":17.04},{"city":"Evansville","state_name":"Indiana","lat":37.95768,"lng":-87.52102,"zip":"47714","miles_from_dt":17.66},{"city":"Lewisport","state_name":"Kentucky","lat":37.9026,"lng":-86.87903,"zip":"42351","miles_from_dt":17.73},{"city":"Lincoln City","state_name":"Indiana","lat":38.10862,"lng":-86.99527,"zip":"47552","miles_from_dt":17.74},{"city":"Evansville","state_name":"Indiana","lat":37.94651,"lng":-87.52733,"zip":"47728","miles_from_dt":17.87},{"city":"Lamar","state_name":"Indiana","lat":38.06213,"lng":-86.92877,"zip":"47550","miles_from_dt":18.25},{"city":"Evansville","state_name":"Indiana","lat":37.97424,"lng":-87.53563,"zip":"47722","miles_from_dt":18.67},{"city":"Henderson","state_name":"Kentucky","lat":37.79875,"lng":-87.51517,"zip":"42420","miles_from_dt":18.73},{"city":"Philpot","state_name":"Kentucky","lat":37.72404,"lng":-86.93988,"zip":"42366","miles_from_dt":19.33},{"city":"Evansville","state_name":"Indiana","lat":37.9475,"lng":-87.55432,"zip":"47713","miles_from_dt":19.34},{"city":"Evansville","state_name":"Indiana","lat":38.0157,"lng":-87.53606,"zip":"47711","miles_from_dt":19.56},{"city":"Evansville","state_name":"Indiana","lat":37.95513,"lng":-87.55821,"zip":"47705","miles_from_dt":19.63},{"city":"Evansville","state_name":"Indiana","lat":37.9543,"lng":-87.55878,"zip":"47702","miles_from_dt":19.65},{"city":"Evansville","state_name":"Indiana","lat":37.95693,"lng":-87.55867,"zip":"47706","miles_from_dt":19.67},{"city":"Evansville","state_name":"Indiana","lat":37.95452,"lng":-87.55955,"zip":"47703","miles_from_dt":19.69},{"city":"Evansville","state_name":"Indiana","lat":37.95697,"lng":-87.55987,"zip":"47704","miles_from_dt":19.74},{"city":"Evansville","state_name":"Indiana","lat":37.95332,"lng":-87.56182,"zip":"47736","miles_from_dt":19.81},{"city":"Lynnville","state_name":"Indiana","lat":38.1924,"lng":-87.30742,"zip":"47619","miles_from_dt":20.23},{"city":"Dale","state_name":"Indiana","lat":38.17354,"lng":-87.02934,"zip":"47523","miles_from_dt":20.45},{"city":"Evansville","state_name":"Indiana","lat":37.98227,"lng":-87.5679,"zip":"47747","miles_from_dt":20.52},{"city":"Evansville","state_name":"Indiana","lat":37.97283,"lng":-87.57106,"zip":"47734","miles_from_dt":20.54},{"city":"Elberfeld","state_name":"Indiana","lat":38.15413,"lng":-87.42062,"zip":"47613","miles_from_dt":20.54},{"city":"Evansville","state_name":"Indiana","lat":37.97415,"lng":-87.57111,"zip":"47735","miles_from_dt":20.56},{"city":"Evansville","state_name":"Indiana","lat":37.9732,"lng":-87.57234,"zip":"47732","miles_from_dt":20.61},{"city":"Evansville","state_name":"Indiana","lat":37.97313,"lng":-87.57337,"zip":"47737","miles_from_dt":20.67},{"city":"Evansville","state_name":"Indiana","lat":37.97404,"lng":-87.5734,"zip":"47733","miles_from_dt":20.68},{"city":"Evansville","state_name":"Indiana","lat":37.97734,"lng":-87.57242,"zip":"47701","miles_from_dt":20.68},{"city":"Evansville","state_name":"Indiana","lat":37.97387,"lng":-87.57357,"zip":"47708","miles_from_dt":20.69},{"city":"Evansville","state_name":"Indiana","lat":37.97369,"lng":-87.57423,"zip":"47730","miles_from_dt":20.72},{"city":"Evansville","state_name":"Indiana","lat":37.97434,"lng":-87.57471,"zip":"47731","miles_from_dt":20.76},{"city":"Santa Claus","state_name":"Indiana","lat":38.11149,"lng":-86.91322,"zip":"47579","miles_from_dt":21.02},{"city":"Evansville","state_name":"Indiana","lat":38.00031,"lng":-87.57163,"zip":"47724","miles_from_dt":21.04},{"city":"Utica","state_name":"Kentucky","lat":37.61626,"lng":-87.08619,"zip":"42376","miles_from_dt":21.31},{"city":"Evanston","state_name":"Indiana","lat":38.04161,"lng":-86.84867,"zip":"47531","miles_from_dt":21.35},{"city":"Evansville","state_name":"Indiana","lat":37.97639,"lng":-87.5855,"zip":"47740","miles_from_dt":21.36},{"city":"Henderson","state_name":"Kentucky","lat":37.83736,"lng":-87.59155,"zip":"42419","miles_from_dt":21.83},{"city":"Evansville","state_name":"Indiana","lat":38.02518,"lng":-87.57618,"zip":"47710","miles_from_dt":21.83},{"city":"Evansville","state_name":"Indiana","lat":37.98657,"lng":-87.59553,"zip":"47719","miles_from_dt":22.05},{"city":"Evansville","state_name":"Indiana","lat":38.10721,"lng":-87.52855,"zip":"47725","miles_from_dt":22.33},{"city":"Beech Grove","state_name":"Kentucky","lat":37.62083,"lng":-87.38821,"zip":"42322","miles_from_dt":22.42},{"city":"Calhoun","state_name":"Kentucky","lat":37.58721,"lng":-87.30042,"zip":"42327","miles_from_dt":22.95},{"city":"Spurgeon","state_name":"Indiana","lat":38.25111,"lng":-87.25797,"zip":"47584","miles_from_dt":23.65},{"city":"Inglefield","state_name":"Indiana","lat":38.11074,"lng":-87.56024,"zip":"47618","miles_from_dt":23.86},{"city":"Hawesville","state_name":"Kentucky","lat":37.75244,"lng":-86.8148,"zip":"42364","miles_from_dt":23.89},{"city":"Robards","state_name":"Kentucky","lat":37.68531,"lng":-87.53654,"zip":"42452","miles_from_dt":23.98},{"city":"Holland","state_name":"Indiana","lat":38.23777,"lng":-87.04673,"zip":"47541","miles_from_dt":24.1},{"city":"Evansville","state_name":"Indiana","lat":37.91503,"lng":-87.64879,"zip":"47721","miles_from_dt":24.35},{"city":"Hawesville","state_name":"Kentucky","lat":37.83379,"lng":-86.76578,"zip":"42348","miles_from_dt":24.5},{"city":"Stendal","state_name":"Indiana","lat":38.26787,"lng":-87.16617,"zip":"47585","miles_from_dt":24.7},{"city":"Mariah Hill","state_name":"Indiana","lat":38.13606,"lng":-86.84936,"zip":"47556","miles_from_dt":24.78},{"city":"Fulda","state_name":"Indiana","lat":38.1379,"lng":-86.85112,"zip":"47536","miles_from_dt":24.78},{"city":"Evansville","state_name":"Indiana","lat":37.92869,"lng":-87.65951,"zip":"47712","miles_from_dt":24.96},{"city":"Whitesville","state_name":"Kentucky","lat":37.65093,"lng":-86.87258,"zip":"42378","miles_from_dt":25.48},{"city":"Buckskin","state_name":"Indiana","lat":38.22958,"lng":-87.44517,"zip":"47647","miles_from_dt":25.63},{"city":"Troy","state_name":"Indiana","lat":38.06959,"lng":-86.77826,"zip":"47588","miles_from_dt":25.65},{"city":"Mackey","state_name":"Indiana","lat":38.2534,"lng":-87.391,"zip":"47654","miles_from_dt":25.74},{"city":"Evansville","state_name":"Indiana","lat":38.06065,"lng":-87.64247,"zip":"47720","miles_from_dt":26.11},{"city":"Somerville","state_name":"Indiana","lat":38.27696,"lng":-87.37744,"zip":"47683","miles_from_dt":26.97},{"city":"Saint Meinrad","state_name":"Indiana","lat":38.15004,"lng":-86.80766,"zip":"47577","miles_from_dt":27.16},{"city":"Haubstadt","state_name":"Indiana","lat":38.18228,"lng":-87.57132,"zip":"47639","miles_from_dt":27.45},{"city":"Oakland City","state_name":"Indiana","lat":38.29712,"lng":-87.33191,"zip":"47660","miles_from_dt":27.54},{"city":"Livermore","state_name":"Kentucky","lat":37.51333,"lng":-87.0833,"zip":"42352","miles_from_dt":28.2},{"city":"Reynolds Station","state_name":"Kentucky","lat":37.71258,"lng":-86.75133,"zip":"42368","miles_from_dt":28.26},{"city":"Ferdinand","state_name":"Indiana","lat":38.2198,"lng":-86.86036,"zip":"47532","miles_from_dt":28.34},{"city":"Rumsey","state_name":"Kentucky","lat":37.4978,"lng":-87.29362,"zip":"42371","miles_from_dt":28.92},{"city":"Sebree","state_name":"Kentucky","lat":37.5858,"lng":-87.53938,"zip":"42455","miles_from_dt":29.01},{"city":"Tell City","state_name":"Indiana","lat":38.03684,"lng":-86.69297,"zip":"47586","miles_from_dt":29.18},{"city":"Ireland","state_name":"Indiana","lat":38.29126,"lng":-86.96086,"zip":"47545","miles_from_dt":29.37},{"city":"Huntingburg","state_name":"Indiana","lat":38.29928,"lng":-86.96712,"zip":"47542","miles_from_dt":29.72},{"city":"Fort Branch","state_name":"Indiana","lat":38.24611,"lng":-87.54851,"zip":"47648","miles_from_dt":29.81}],"targetCityZipCode":"47617","targetCityState":"Indiana"},"__N_SSG":true}