{"pageProps":{"stateName":"Indiana","cityName":"hayden","nearbyCities":[{"city":"Scipio","state_name":"Indiana","lat":39.07472,"lng":-85.7359,"zip":"47273","miles_from_dt":6.27},{"city":"North Vernon","state_name":"Indiana","lat":39.00818,"lng":-85.62685,"zip":"47265","miles_from_dt":6.38},{"city":"Vernon","state_name":"Indiana","lat":38.98538,"lng":-85.6101,"zip":"47282","miles_from_dt":7.06},{"city":"Commiskey","state_name":"Indiana","lat":38.87506,"lng":-85.65678,"zip":"47227","miles_from_dt":8.78},{"city":"Elizabethtown","state_name":"Indiana","lat":39.11297,"lng":-85.79428,"zip":"47232","miles_from_dt":9.35},{"city":"Jonesville","state_name":"Indiana","lat":39.05993,"lng":-85.88783,"zip":"47247","miles_from_dt":9.47},{"city":"Paris Crossing","state_name":"Indiana","lat":38.8397,"lng":-85.71913,"zip":"47270","miles_from_dt":10.02},{"city":"Seymour","state_name":"Indiana","lat":38.96261,"lng":-85.92877,"zip":"47274","miles_from_dt":10.21},{"city":"Grammer","state_name":"Indiana","lat":39.15181,"lng":-85.72536,"zip":"47236","miles_from_dt":11.61},{"city":"Cortland","state_name":"Indiana","lat":38.98594,"lng":-86.00395,"zip":"47228","miles_from_dt":14.15},{"city":"Crothersville","state_name":"Indiana","lat":38.80289,"lng":-85.86688,"zip":"47229","miles_from_dt":14.21},{"city":"Dupont","state_name":"Indiana","lat":38.89792,"lng":-85.4996,"zip":"47231","miles_from_dt":14.3},{"city":"Deputy","state_name":"Indiana","lat":38.7946,"lng":-85.63139,"zip":"47230","miles_from_dt":14.34},{"city":"Butlerville","state_name":"Indiana","lat":39.0555,"lng":-85.48218,"zip":"47223","miles_from_dt":14.78},{"city":"Westport","state_name":"Indiana","lat":39.16978,"lng":-85.58647,"zip":"47283","miles_from_dt":15.28},{"city":"Austin","state_name":"Indiana","lat":38.75745,"lng":-85.7951,"zip":"47102","miles_from_dt":15.89},{"city":"Hartsville","state_name":"Indiana","lat":39.21802,"lng":-85.70232,"zip":"47244","miles_from_dt":16.28},{"city":"Columbus","state_name":"Indiana","lat":39.23189,"lng":-85.83281,"zip":"47203","miles_from_dt":17.8},{"city":"Columbus","state_name":"Indiana","lat":39.15074,"lng":-85.99432,"zip":"47201","miles_from_dt":17.83},{"city":"Columbus","state_name":"Indiana","lat":39.20731,"lng":-85.9181,"zip":"47202","miles_from_dt":18.11},{"city":"Brownstown","state_name":"Indiana","lat":38.87786,"lng":-86.05471,"zip":"47220","miles_from_dt":18.41},{"city":"Holton","state_name":"Indiana","lat":39.07255,"lng":-85.37467,"zip":"47023","miles_from_dt":20.65},{"city":"Scottsburg","state_name":"Indiana","lat":38.68734,"lng":-85.84667,"zip":"47170","miles_from_dt":21.24},{"city":"Freetown","state_name":"Indiana","lat":39.01385,"lng":-86.14046,"zip":"47235","miles_from_dt":21.59},{"city":"Hope","state_name":"Indiana","lat":39.29804,"lng":-85.76606,"zip":"47246","miles_from_dt":21.71},{"city":"Clifford","state_name":"Indiana","lat":39.28266,"lng":-85.86907,"zip":"47226","miles_from_dt":21.72},{"city":"Lexington","state_name":"Indiana","lat":38.68215,"lng":-85.59759,"zip":"47138","miles_from_dt":22.21},{"city":"Madison","state_name":"Indiana","lat":38.81867,"lng":-85.3552,"zip":"47250","miles_from_dt":23.72},{"city":"Vallonia","state_name":"Indiana","lat":38.78563,"lng":-86.10324,"zip":"47281","miles_from_dt":23.84},{"city":"Taylorsville","state_name":"Indiana","lat":39.29655,"lng":-85.95047,"zip":"47280","miles_from_dt":24.32},{"city":"Kurtz","state_name":"Indiana","lat":38.95637,"lng":-86.20423,"zip":"47249","miles_from_dt":25.01},{"city":"Hanover","state_name":"Indiana","lat":38.67214,"lng":-85.48177,"zip":"47243","miles_from_dt":25.66},{"city":"Osgood","state_name":"Indiana","lat":39.16431,"lng":-85.31908,"zip":"47037","miles_from_dt":25.88},{"city":"Versailles","state_name":"Indiana","lat":39.01247,"lng":-85.25484,"zip":"47042","miles_from_dt":26.25},{"city":"Underwood","state_name":"Indiana","lat":38.59947,"lng":-85.78197,"zip":"47177","miles_from_dt":26.61},{"city":"Medora","state_name":"Indiana","lat":38.83596,"lng":-86.19909,"zip":"47260","miles_from_dt":26.71},{"city":"Napoleon","state_name":"Indiana","lat":39.20428,"lng":-85.32739,"zip":"47034","miles_from_dt":26.94},{"city":"Flat Rock","state_name":"Indiana","lat":39.37611,"lng":-85.76837,"zip":"47234","miles_from_dt":27.09},{"city":"Greensburg","state_name":"Indiana","lat":39.32394,"lng":-85.48028,"zip":"47240","miles_from_dt":27.32},{"city":"Norman","state_name":"Indiana","lat":38.96434,"lng":-86.26313,"zip":"47264","miles_from_dt":28.14},{"city":"Canaan","state_name":"Indiana","lat":38.88816,"lng":-85.22474,"zip":"47224","miles_from_dt":28.6},{"city":"Edinburgh","state_name":"Indiana","lat":39.36914,"lng":-85.94551,"zip":"46124","miles_from_dt":28.75},{"city":"Milton","state_name":"Kentucky","lat":38.69376,"lng":-85.35641,"zip":"40045","miles_from_dt":28.84},{"city":"Nabb","state_name":"Indiana","lat":38.5942,"lng":-85.53866,"zip":"47147","miles_from_dt":29.02},{"city":"Pierceville","state_name":"Indiana","lat":39.11281,"lng":-85.22152,"zip":"47039","miles_from_dt":29.33}],"targetCityZipCode":"47245","targetCityState":"Indiana"},"__N_SSG":true}