{"pageProps":{"stateName":"Indiana","cityName":"helmsburg","nearbyCities":[{"city":"Unionville","state_name":"Indiana","lat":39.27801,"lng":-86.40482,"zip":"47468","miles_from_dt":5.94},{"city":"Morgantown","state_name":"Indiana","lat":39.35429,"lng":-86.26753,"zip":"46160","miles_from_dt":6.28},{"city":"Nashville","state_name":"Indiana","lat":39.17531,"lng":-86.24481,"zip":"47448","miles_from_dt":6.8},{"city":"Bloomington","state_name":"Indiana","lat":39.2283,"lng":-86.46452,"zip":"47408","miles_from_dt":9.44},{"city":"Nineveh","state_name":"Indiana","lat":39.3036,"lng":-86.12301,"zip":"46164","miles_from_dt":9.59},{"city":"Trafalgar","state_name":"Indiana","lat":39.38044,"lng":-86.16119,"zip":"46181","miles_from_dt":10.68},{"city":"Bloomington","state_name":"Indiana","lat":39.17004,"lng":-86.49501,"zip":"47407","miles_from_dt":12.59},{"city":"Bloomington","state_name":"Indiana","lat":39.17501,"lng":-86.51516,"zip":"47406","miles_from_dt":13.36},{"city":"Bloomington","state_name":"Indiana","lat":39.16761,"lng":-86.5211,"zip":"47405","miles_from_dt":13.89},{"city":"Martinsville","state_name":"Indiana","lat":39.44783,"lng":-86.4275,"zip":"46151","miles_from_dt":14.42},{"city":"Clear Creek","state_name":"Indiana","lat":39.09473,"lng":-86.46233,"zip":"47426","miles_from_dt":14.82},{"city":"Bloomington","state_name":"Indiana","lat":39.08613,"lng":-86.45138,"zip":"47401","miles_from_dt":14.96},{"city":"Bloomington","state_name":"Indiana","lat":39.09555,"lng":-86.47274,"zip":"47402","miles_from_dt":15.13},{"city":"Bloomington","state_name":"Indiana","lat":39.22064,"lng":-86.5896,"zip":"47404","miles_from_dt":16.1},{"city":"Ellettsville","state_name":"Indiana","lat":39.27581,"lng":-86.61444,"zip":"47429","miles_from_dt":17.13},{"city":"Smithville","state_name":"Indiana","lat":39.07044,"lng":-86.50712,"zip":"47458","miles_from_dt":17.64},{"city":"Bargersville","state_name":"Indiana","lat":39.51555,"lng":-86.20524,"zip":"46106","miles_from_dt":17.89},{"city":"Columbus","state_name":"Indiana","lat":39.15074,"lng":-85.99432,"zip":"47201","miles_from_dt":17.99},{"city":"Taylorsville","state_name":"Indiana","lat":39.29655,"lng":-85.95047,"zip":"47280","miles_from_dt":18.6},{"city":"Stinesville","state_name":"Indiana","lat":39.29995,"lng":-86.64979,"zip":"47464","miles_from_dt":19.16},{"city":"Paragon","state_name":"Indiana","lat":39.42686,"lng":-86.58755,"zip":"46166","miles_from_dt":19.2},{"city":"Freetown","state_name":"Indiana","lat":39.01385,"lng":-86.14046,"zip":"47235","miles_from_dt":19.26},{"city":"Brooklyn","state_name":"Indiana","lat":39.5417,"lng":-86.36863,"zip":"46111","miles_from_dt":19.44},{"city":"Franklin","state_name":"Indiana","lat":39.47196,"lng":-86.04233,"zip":"46131","miles_from_dt":19.64},{"city":"Edinburgh","state_name":"Indiana","lat":39.36914,"lng":-85.94551,"zip":"46124","miles_from_dt":20.05},{"city":"Gosport","state_name":"Indiana","lat":39.35569,"lng":-86.655,"zip":"47433","miles_from_dt":20.26},{"city":"Columbus","state_name":"Indiana","lat":39.20731,"lng":-85.9181,"zip":"47202","miles_from_dt":20.63},{"city":"Norman","state_name":"Indiana","lat":38.96434,"lng":-86.26313,"zip":"47264","miles_from_dt":20.86},{"city":"Bloomington","state_name":"Indiana","lat":39.08635,"lng":-86.61082,"zip":"47403","miles_from_dt":20.99},{"city":"Heltonville","state_name":"Indiana","lat":38.9598,"lng":-86.38358,"zip":"47436","miles_from_dt":21.63},{"city":"Kurtz","state_name":"Indiana","lat":38.95637,"lng":-86.20423,"zip":"47249","miles_from_dt":21.9},{"city":"Harrodsburg","state_name":"Indiana","lat":39.01277,"lng":-86.54569,"zip":"47434","miles_from_dt":22.04},{"city":"Mooresville","state_name":"Indiana","lat":39.58275,"lng":-86.37405,"zip":"46158","miles_from_dt":22.27},{"city":"Clifford","state_name":"Indiana","lat":39.28266,"lng":-85.86907,"zip":"47226","miles_from_dt":22.88},{"city":"Stanford","state_name":"Indiana","lat":39.09524,"lng":-86.66408,"zip":"47463","miles_from_dt":23.04},{"city":"Whiteland","state_name":"Indiana","lat":39.55967,"lng":-86.07361,"zip":"46184","miles_from_dt":23.49},{"city":"Monrovia","state_name":"Indiana","lat":39.55623,"lng":-86.52741,"zip":"46157","miles_from_dt":23.58},{"city":"Greenwood","state_name":"Indiana","lat":39.59484,"lng":-86.11323,"zip":"46143","miles_from_dt":24.7},{"city":"Cortland","state_name":"Indiana","lat":38.98594,"lng":-86.00395,"zip":"47228","miles_from_dt":24.85},{"city":"Columbus","state_name":"Indiana","lat":39.23189,"lng":-85.83281,"zip":"47203","miles_from_dt":24.91},{"city":"Greenwood","state_name":"Indiana","lat":39.62029,"lng":-86.1764,"zip":"46142","miles_from_dt":25.27},{"city":"Camby","state_name":"Indiana","lat":39.635,"lng":-86.30548,"zip":"46113","miles_from_dt":25.48},{"city":"Quincy","state_name":"Indiana","lat":39.46314,"lng":-86.69781,"zip":"47456","miles_from_dt":25.5},{"city":"Eminence","state_name":"Indiana","lat":39.52188,"lng":-86.64179,"zip":"46125","miles_from_dt":25.62},{"city":"Jonesville","state_name":"Indiana","lat":39.05993,"lng":-85.88783,"zip":"47247","miles_from_dt":26.08},{"city":"Spencer","state_name":"Indiana","lat":39.28153,"lng":-86.78951,"zip":"47460","miles_from_dt":26.53},{"city":"Solsberry","state_name":"Indiana","lat":39.11167,"lng":-86.75125,"zip":"47459","miles_from_dt":26.69},{"city":"West Newton","state_name":"Indiana","lat":39.65397,"lng":-86.28121,"zip":"46183","miles_from_dt":26.79},{"city":"Needham","state_name":"Indiana","lat":39.55021,"lng":-85.95242,"zip":"46162","miles_from_dt":26.86},{"city":"Avoca","state_name":"Indiana","lat":38.91903,"lng":-86.54933,"zip":"47420","miles_from_dt":27.55},{"city":"Hope","state_name":"Indiana","lat":39.29804,"lng":-85.76606,"zip":"47246","miles_from_dt":28.45},{"city":"Springville","state_name":"Indiana","lat":38.95755,"lng":-86.64815,"zip":"47462","miles_from_dt":28.49},{"city":"Indianapolis","state_name":"Indiana","lat":39.67254,"lng":-86.19338,"zip":"46217","miles_from_dt":28.59},{"city":"Oolitic","state_name":"Indiana","lat":38.89176,"lng":-86.52536,"zip":"47451","miles_from_dt":28.61},{"city":"Stilesville","state_name":"Indiana","lat":39.59652,"lng":-86.61801,"zip":"46180","miles_from_dt":28.62},{"city":"Seymour","state_name":"Indiana","lat":38.96261,"lng":-85.92877,"zip":"47274","miles_from_dt":28.72},{"city":"Boggstown","state_name":"Indiana","lat":39.56021,"lng":-85.91333,"zip":"46110","miles_from_dt":28.81},{"city":"Elizabethtown","state_name":"Indiana","lat":39.11297,"lng":-85.79428,"zip":"47232","miles_from_dt":28.88},{"city":"Bedford","state_name":"Indiana","lat":38.86415,"lng":-86.45122,"zip":"47421","miles_from_dt":28.95},{"city":"Flat Rock","state_name":"Indiana","lat":39.37611,"lng":-85.76837,"zip":"47234","miles_from_dt":29.24},{"city":"Clayton","state_name":"Indiana","lat":39.65317,"lng":-86.52394,"zip":"46118","miles_from_dt":29.39},{"city":"Indianapolis","state_name":"Indiana","lat":39.67554,"lng":-86.12938,"zip":"46247","miles_from_dt":29.63},{"city":"Indianapolis","state_name":"Indiana","lat":39.69288,"lng":-86.23664,"zip":"46221","miles_from_dt":29.63},{"city":"Indianapolis","state_name":"Indiana","lat":39.67607,"lng":-86.13145,"zip":"46227","miles_from_dt":29.63},{"city":"Brownstown","state_name":"Indiana","lat":38.87786,"lng":-86.05471,"zip":"47220","miles_from_dt":29.72},{"city":"Plainfield","state_name":"Indiana","lat":39.68985,"lng":-86.39262,"zip":"46168","miles_from_dt":29.72}],"targetCityZipCode":"47435","targetCityState":"Indiana"},"__N_SSG":true}