{"pageProps":{"stateName":"Indiana","cityName":"knox","nearbyCities":[{"city":"Grovertown","state_name":"Indiana","lat":41.35686,"lng":-86.51558,"zip":"46531","miles_from_dt":7.28},{"city":"Ora","state_name":"Indiana","lat":41.17049,"lng":-86.55179,"zip":"46968","miles_from_dt":8.68},{"city":"Hamlet","state_name":"Indiana","lat":41.41762,"lng":-86.62119,"zip":"46532","miles_from_dt":9.11},{"city":"North Judson","state_name":"Indiana","lat":41.21443,"lng":-86.76922,"zip":"46366","miles_from_dt":9.25},{"city":"Monterey","state_name":"Indiana","lat":41.15735,"lng":-86.52397,"zip":"46960","miles_from_dt":10.14},{"city":"Hanna","state_name":"Indiana","lat":41.38339,"lng":-86.76846,"zip":"46340","miles_from_dt":10.3},{"city":"Donaldson","state_name":"Indiana","lat":41.3629,"lng":-86.44816,"zip":"46513","miles_from_dt":10.36},{"city":"Culver","state_name":"Indiana","lat":41.22182,"lng":-86.42889,"zip":"46511","miles_from_dt":10.82},{"city":"La Crosse","state_name":"Indiana","lat":41.30981,"lng":-86.86244,"zip":"46348","miles_from_dt":12.79},{"city":"Kingsford Heights","state_name":"Indiana","lat":41.47816,"lng":-86.69332,"zip":"46346","miles_from_dt":13.84},{"city":"Delong","state_name":"Indiana","lat":41.13993,"lng":-86.42197,"zip":"46922","miles_from_dt":14.36},{"city":"Tyner","state_name":"Indiana","lat":41.40804,"lng":-86.393,"zip":"46572","miles_from_dt":14.47},{"city":"Walkerton","state_name":"Indiana","lat":41.47327,"lng":-86.48829,"zip":"46574","miles_from_dt":14.62},{"city":"Union Mills","state_name":"Indiana","lat":41.46868,"lng":-86.76212,"zip":"46382","miles_from_dt":14.67},{"city":"San Pierre","state_name":"Indiana","lat":41.20616,"lng":-86.895,"zip":"46374","miles_from_dt":15.4},{"city":"Winamac","state_name":"Indiana","lat":41.0626,"lng":-86.65906,"zip":"46996","miles_from_dt":15.53},{"city":"Plymouth","state_name":"Indiana","lat":41.35541,"lng":-86.32612,"zip":"46563","miles_from_dt":15.97},{"city":"Wanatah","state_name":"Indiana","lat":41.41677,"lng":-86.8742,"zip":"46390","miles_from_dt":16.07},{"city":"Leiters Ford","state_name":"Indiana","lat":41.1211,"lng":-86.38516,"zip":"46945","miles_from_dt":16.65},{"city":"Kingsbury","state_name":"Indiana","lat":41.53032,"lng":-86.69995,"zip":"46345","miles_from_dt":17.41},{"city":"Medaryville","state_name":"Indiana","lat":41.08937,"lng":-86.8772,"zip":"47957","miles_from_dt":19.1},{"city":"Tefft","state_name":"Indiana","lat":41.19904,"lng":-86.9723,"zip":"46380","miles_from_dt":19.36},{"city":"Argos","state_name":"Indiana","lat":41.22327,"lng":-86.24868,"zip":"46501","miles_from_dt":19.75},{"city":"Lapaz","state_name":"Indiana","lat":41.45724,"lng":-86.30669,"zip":"46537","miles_from_dt":20.09},{"city":"Kouts","state_name":"Indiana","lat":41.30502,"lng":-87.00859,"zip":"46347","miles_from_dt":20.33},{"city":"Grass Creek","state_name":"Indiana","lat":41.01861,"lng":-86.41333,"zip":"46935","miles_from_dt":21.31},{"city":"North Liberty","state_name":"Indiana","lat":41.56252,"lng":-86.41947,"zip":"46554","miles_from_dt":21.73},{"city":"Mill Creek","state_name":"Indiana","lat":41.60605,"lng":-86.54112,"zip":"46365","miles_from_dt":22.48},{"city":"La Porte","state_name":"Indiana","lat":41.60697,"lng":-86.72157,"zip":"46350","miles_from_dt":22.81},{"city":"Star City","state_name":"Indiana","lat":40.95485,"lng":-86.58225,"zip":"46985","miles_from_dt":22.9},{"city":"Kewanna","state_name":"Indiana","lat":40.99337,"lng":-86.40359,"zip":"46939","miles_from_dt":23.08},{"city":"Valparaiso","state_name":"Indiana","lat":41.45838,"lng":-87.00156,"zip":"46383","miles_from_dt":23.2},{"city":"Wheatfield","state_name":"Indiana","lat":41.18509,"lng":-87.04948,"zip":"46392","miles_from_dt":23.48},{"city":"La Porte","state_name":"Indiana","lat":41.62198,"lng":-86.69539,"zip":"46352","miles_from_dt":23.55},{"city":"Westville","state_name":"Indiana","lat":41.5455,"lng":-86.91446,"zip":"46391","miles_from_dt":23.61},{"city":"Lakeville","state_name":"Indiana","lat":41.51913,"lng":-86.2867,"zip":"46536","miles_from_dt":23.61},{"city":"Rochester","state_name":"Indiana","lat":41.0718,"lng":-86.25177,"zip":"46975","miles_from_dt":24.16},{"city":"Francesville","state_name":"Indiana","lat":40.98427,"lng":-86.87014,"zip":"47946","miles_from_dt":24.58},{"city":"Bourbon","state_name":"Indiana","lat":41.30057,"lng":-86.11204,"zip":"46504","miles_from_dt":26.39},{"city":"Bremen","state_name":"Indiana","lat":41.46316,"lng":-86.16915,"zip":"46506","miles_from_dt":26.39},{"city":"Tippecanoe","state_name":"Indiana","lat":41.20766,"lng":-86.1207,"zip":"46570","miles_from_dt":26.49},{"city":"Valparaiso","state_name":"Indiana","lat":41.49362,"lng":-87.05475,"zip":"46384","miles_from_dt":26.82},{"city":"Boone Grove","state_name":"Indiana","lat":41.3604,"lng":-87.12645,"zip":"46302","miles_from_dt":26.91},{"city":"Rolling Prairie","state_name":"Indiana","lat":41.67683,"lng":-86.6005,"zip":"46371","miles_from_dt":27.02},{"city":"South Bend","state_name":"Indiana","lat":41.60359,"lng":-86.28064,"zip":"46614","miles_from_dt":28.1},{"city":"Buffalo","state_name":"Indiana","lat":40.88205,"lng":-86.74477,"zip":"47925","miles_from_dt":28.61},{"city":"Wyatt","state_name":"Indiana","lat":41.52633,"lng":-86.16367,"zip":"46595","miles_from_dt":28.9},{"city":"Valparaiso","state_name":"Indiana","lat":41.46395,"lng":-87.12396,"zip":"46385","miles_from_dt":29},{"city":"South Bend","state_name":"Indiana","lat":41.65997,"lng":-86.3532,"zip":"46619","miles_from_dt":29.28},{"city":"Fulton","state_name":"Indiana","lat":40.94693,"lng":-86.26456,"zip":"46931","miles_from_dt":29.8},{"city":"New Carlisle","state_name":"Indiana","lat":41.70731,"lng":-86.485,"zip":"46552","miles_from_dt":29.92},{"city":"Royal Center","state_name":"Indiana","lat":40.8587,"lng":-86.51113,"zip":"46978","miles_from_dt":29.99}],"targetCityZipCode":"46534","targetCityState":"Indiana"},"__N_SSG":true}