{"pageProps":{"stateName":"Indiana","cityName":"oldenburg","nearbyCities":[{"city":"Metamora","state_name":"Indiana","lat":39.42686,"lng":-85.13319,"zip":"47030","miles_from_dt":6.37},{"city":"Clarksburg","state_name":"Indiana","lat":39.43554,"lng":-85.34424,"zip":"47225","miles_from_dt":6.57},{"city":"Laurel","state_name":"Indiana","lat":39.47611,"lng":-85.19724,"zip":"47024","miles_from_dt":6.64},{"city":"Batesville","state_name":"Indiana","lat":39.29141,"lng":-85.21365,"zip":"47006","miles_from_dt":6.65},{"city":"New Point","state_name":"Indiana","lat":39.30864,"lng":-85.32832,"zip":"47263","miles_from_dt":7.12},{"city":"Morris","state_name":"Indiana","lat":39.28127,"lng":-85.17232,"zip":"47033","miles_from_dt":8.05},{"city":"Napoleon","state_name":"Indiana","lat":39.20428,"lng":-85.32739,"zip":"47034","miles_from_dt":13.36},{"city":"Sunman","state_name":"Indiana","lat":39.23432,"lng":-85.0797,"zip":"47041","miles_from_dt":13.51},{"city":"Greensburg","state_name":"Indiana","lat":39.32394,"lng":-85.48028,"zip":"47240","miles_from_dt":13.57},{"city":"Brookville","state_name":"Indiana","lat":39.41892,"lng":-84.97944,"zip":"47012","miles_from_dt":14.12},{"city":"Glenwood","state_name":"Indiana","lat":39.58945,"lng":-85.30044,"zip":"46133","miles_from_dt":14.43},{"city":"Milroy","state_name":"Indiana","lat":39.48451,"lng":-85.4806,"zip":"46156","miles_from_dt":14.58},{"city":"Osgood","state_name":"Indiana","lat":39.16431,"lng":-85.31908,"zip":"47037","miles_from_dt":15.85},{"city":"Connersville","state_name":"Indiana","lat":39.63086,"lng":-85.16313,"zip":"47331","miles_from_dt":17.41},{"city":"Rushville","state_name":"Indiana","lat":39.60294,"lng":-85.42677,"zip":"46173","miles_from_dt":18.02},{"city":"Milan","state_name":"Indiana","lat":39.12872,"lng":-85.15333,"zip":"47031","miles_from_dt":18.32},{"city":"Cedar Grove","state_name":"Indiana","lat":39.37414,"lng":-84.89484,"zip":"47016","miles_from_dt":18.48},{"city":"New Trenton","state_name":"Indiana","lat":39.31016,"lng":-84.90394,"zip":"47035","miles_from_dt":18.72},{"city":"Pierceville","state_name":"Indiana","lat":39.11281,"lng":-85.22152,"zip":"47039","miles_from_dt":18.85},{"city":"Guilford","state_name":"Indiana","lat":39.20722,"lng":-84.95089,"zip":"47022","miles_from_dt":19.78},{"city":"West Harrison","state_name":"Indiana","lat":39.29828,"lng":-84.8788,"zip":"47060","miles_from_dt":20.25},{"city":"Saint Paul","state_name":"Indiana","lat":39.41519,"lng":-85.61942,"zip":"47272","miles_from_dt":20.42},{"city":"Homer","state_name":"Indiana","lat":39.57968,"lng":-85.56972,"zip":"46146","miles_from_dt":22.15},{"city":"Manilla","state_name":"Indiana","lat":39.54695,"lng":-85.60232,"zip":"46150","miles_from_dt":22.36},{"city":"Holton","state_name":"Indiana","lat":39.07255,"lng":-85.37467,"zip":"47023","miles_from_dt":22.78},{"city":"Bath","state_name":"Indiana","lat":39.4981,"lng":-84.83925,"zip":"47010","miles_from_dt":22.78},{"city":"Moores Hill","state_name":"Indiana","lat":39.08109,"lng":-85.05503,"zip":"47032","miles_from_dt":23.23},{"city":"Falmouth","state_name":"Indiana","lat":39.71766,"lng":-85.3158,"zip":"46127","miles_from_dt":23.26},{"city":"Waldron","state_name":"Indiana","lat":39.46157,"lng":-85.67005,"zip":"46182","miles_from_dt":23.61},{"city":"Westport","state_name":"Indiana","lat":39.16978,"lng":-85.58647,"zip":"47283","miles_from_dt":23.82},{"city":"Liberty","state_name":"Indiana","lat":39.62757,"lng":-84.92057,"zip":"47353","miles_from_dt":23.86},{"city":"West College Corner","state_name":"Indiana","lat":39.55628,"lng":-84.84491,"zip":"47003","miles_from_dt":24.17},{"city":"Brownsville","state_name":"Indiana","lat":39.69395,"lng":-85.01834,"zip":"47325","miles_from_dt":24.34},{"city":"Okeana","state_name":"Ohio","lat":39.35273,"lng":-84.78053,"zip":"45053","miles_from_dt":24.69},{"city":"Bentonville","state_name":"Indiana","lat":39.74849,"lng":-85.2418,"zip":"47322","miles_from_dt":25.03},{"city":"Lawrenceburg","state_name":"Indiana","lat":39.15415,"lng":-84.87461,"zip":"47025","miles_from_dt":25.26},{"city":"Versailles","state_name":"Indiana","lat":39.01247,"lng":-85.25484,"zip":"47042","miles_from_dt":25.75},{"city":"Milton","state_name":"Indiana","lat":39.75773,"lng":-85.14795,"zip":"47357","miles_from_dt":26.13},{"city":"Butlerville","state_name":"Indiana","lat":39.0555,"lng":-85.48218,"zip":"47223","miles_from_dt":26.23},{"city":"Mays","state_name":"Indiana","lat":39.74355,"lng":-85.42966,"zip":"46155","miles_from_dt":26.69},{"city":"Arlington","state_name":"Indiana","lat":39.66041,"lng":-85.59545,"zip":"46104","miles_from_dt":26.84},{"city":"Harrison","state_name":"Ohio","lat":39.25621,"lng":-84.76287,"zip":"45030","miles_from_dt":27.07},{"city":"Aurora","state_name":"Indiana","lat":39.0579,"lng":-84.95689,"zip":"47001","miles_from_dt":27.23},{"city":"Hartsville","state_name":"Indiana","lat":39.21802,"lng":-85.70232,"zip":"47244","miles_from_dt":27.36},{"city":"Oxford","state_name":"Ohio","lat":39.49029,"lng":-84.74115,"zip":"45056","miles_from_dt":27.63},{"city":"College Corner","state_name":"Ohio","lat":39.58427,"lng":-84.77942,"zip":"45003","miles_from_dt":28.17},{"city":"Flat Rock","state_name":"Indiana","lat":39.37611,"lng":-85.76837,"zip":"47234","miles_from_dt":28.31},{"city":"Shandon","state_name":"Ohio","lat":39.32493,"lng":-84.71319,"zip":"45063","miles_from_dt":28.51},{"city":"Dillsboro","state_name":"Indiana","lat":38.98684,"lng":-85.0866,"zip":"47018","miles_from_dt":28.71},{"city":"Hope","state_name":"Indiana","lat":39.29804,"lng":-85.76606,"zip":"47246","miles_from_dt":28.83},{"city":"Lewisville","state_name":"Indiana","lat":39.79597,"lng":-85.3637,"zip":"47352","miles_from_dt":29.07},{"city":"Friendship","state_name":"Indiana","lat":38.97015,"lng":-85.14855,"zip":"47021","miles_from_dt":29.08},{"city":"Gwynneville","state_name":"Indiana","lat":39.66586,"lng":-85.64706,"zip":"46144","miles_from_dt":29.11},{"city":"Hooven","state_name":"Ohio","lat":39.17962,"lng":-84.76469,"zip":"45033","miles_from_dt":29.16},{"city":"Dublin","state_name":"Indiana","lat":39.81171,"lng":-85.20675,"zip":"47335","miles_from_dt":29.45},{"city":"North Bend","state_name":"Ohio","lat":39.14505,"lng":-84.77849,"zip":"45052","miles_from_dt":29.79},{"city":"Carthage","state_name":"Indiana","lat":39.7375,"lng":-85.56623,"zip":"46115","miles_from_dt":29.89},{"city":"Pershing","state_name":"Indiana","lat":39.81281,"lng":-85.13779,"zip":"47370","miles_from_dt":29.97}],"targetCityZipCode":"47036","targetCityState":"Indiana"},"__N_SSG":true}