{"pageProps":{"stateName":"Indiana","cityName":"remington","nearbyCities":[{"city":"Wolcott","state_name":"Indiana","lat":40.75861,"lng":-87.0329,"zip":"47995","miles_from_dt":6.56},{"city":"Goodland","state_name":"Indiana","lat":40.77638,"lng":-87.28676,"zip":"47948","miles_from_dt":6.84},{"city":"Brook","state_name":"Indiana","lat":40.8762,"lng":-87.35369,"zip":"47922","miles_from_dt":12.97},{"city":"Reynolds","state_name":"Indiana","lat":40.75393,"lng":-86.90131,"zip":"47980","miles_from_dt":13.47},{"city":"Fowler","state_name":"Indiana","lat":40.61067,"lng":-87.32804,"zip":"47944","miles_from_dt":13.71},{"city":"Chalmers","state_name":"Indiana","lat":40.67587,"lng":-86.9185,"zip":"47929","miles_from_dt":13.88},{"city":"Kentland","state_name":"Indiana","lat":40.79049,"lng":-87.4435,"zip":"47951","miles_from_dt":15.12},{"city":"Mount Ayr","state_name":"Indiana","lat":40.9523,"lng":-87.2996,"zip":"47964","miles_from_dt":15.13},{"city":"Rensselaer","state_name":"Indiana","lat":40.97991,"lng":-87.1163,"zip":"47978","miles_from_dt":15.24},{"city":"Monon","state_name":"Indiana","lat":40.86603,"lng":-86.89786,"zip":"47959","miles_from_dt":15.43},{"city":"Earl Park","state_name":"Indiana","lat":40.68791,"lng":-87.4472,"zip":"47942","miles_from_dt":16.01},{"city":"Brookston","state_name":"Indiana","lat":40.61015,"lng":-86.92667,"zip":"47923","miles_from_dt":16.01},{"city":"Oxford","state_name":"Indiana","lat":40.52946,"lng":-87.23751,"zip":"47971","miles_from_dt":16.54},{"city":"Templeton","state_name":"Indiana","lat":40.51384,"lng":-87.20719,"zip":"47986","miles_from_dt":17.27},{"city":"Otterbein","state_name":"Indiana","lat":40.47423,"lng":-87.13031,"zip":"47970","miles_from_dt":19.86},{"city":"Morocco","state_name":"Indiana","lat":40.96811,"lng":-87.44371,"zip":"47963","miles_from_dt":20.68},{"city":"Montmorenci","state_name":"Indiana","lat":40.47418,"lng":-87.03001,"zip":"47962","miles_from_dt":20.92},{"city":"West Lafayette","state_name":"Indiana","lat":40.48541,"lng":-86.98584,"zip":"47906","miles_from_dt":21.08},{"city":"Monticello","state_name":"Indiana","lat":40.78261,"lng":-86.74938,"zip":"47960","miles_from_dt":21.48},{"city":"Fair Oaks","state_name":"Indiana","lat":41.0594,"lng":-87.28006,"zip":"47943","miles_from_dt":21.54},{"city":"Francesville","state_name":"Indiana","lat":40.98427,"lng":-86.87014,"zip":"47946","miles_from_dt":21.54},{"city":"Sheldon","state_name":"Illinois","lat":40.75144,"lng":-87.58321,"zip":"60966","miles_from_dt":22.33},{"city":"Pine Village","state_name":"Indiana","lat":40.44436,"lng":-87.25348,"zip":"47975","miles_from_dt":22.44},{"city":"Boswell","state_name":"Indiana","lat":40.47838,"lng":-87.37485,"zip":"47921","miles_from_dt":22.61},{"city":"Battle Ground","state_name":"Indiana","lat":40.54712,"lng":-86.8195,"zip":"47920","miles_from_dt":23.12},{"city":"Buffalo","state_name":"Indiana","lat":40.88205,"lng":-86.74477,"zip":"47925","miles_from_dt":23.2},{"city":"Iroquois","state_name":"Illinois","lat":40.8315,"lng":-87.59236,"zip":"60945","miles_from_dt":23.29},{"city":"Yeoman","state_name":"Indiana","lat":40.66769,"lng":-86.72379,"zip":"47997","miles_from_dt":23.69},{"city":"Stockland","state_name":"Illinois","lat":40.6241,"lng":-87.58123,"zip":"60967","miles_from_dt":24.17},{"city":"Donovan","state_name":"Illinois","lat":40.8919,"lng":-87.58654,"zip":"60931","miles_from_dt":24.21},{"city":"West Lafayette","state_name":"Indiana","lat":40.44384,"lng":-86.91141,"zip":"47996","miles_from_dt":25.45},{"city":"Ambia","state_name":"Indiana","lat":40.46881,"lng":-87.47633,"zip":"47917","miles_from_dt":26.23},{"city":"West Lafayette","state_name":"Indiana","lat":40.42474,"lng":-86.91665,"zip":"47907","miles_from_dt":26.46},{"city":"Idaville","state_name":"Indiana","lat":40.80175,"lng":-86.65355,"zip":"47950","miles_from_dt":26.6},{"city":"Lafayette","state_name":"Indiana","lat":40.43835,"lng":-86.87609,"zip":"47904","miles_from_dt":26.76},{"city":"Medaryville","state_name":"Indiana","lat":41.08937,"lng":-86.8772,"zip":"47957","miles_from_dt":26.99},{"city":"Roselawn","state_name":"Indiana","lat":41.14211,"lng":-87.31024,"zip":"46372","miles_from_dt":27.46},{"city":"Beaverville","state_name":"Illinois","lat":40.97252,"lng":-87.60245,"zip":"60912","miles_from_dt":27.47},{"city":"Lafayette","state_name":"Indiana","lat":40.4178,"lng":-86.88995,"zip":"47901","miles_from_dt":27.58},{"city":"Lake Village","state_name":"Indiana","lat":41.10899,"lng":-87.42359,"zip":"46349","miles_from_dt":27.73},{"city":"Buck Creek","state_name":"Indiana","lat":40.48991,"lng":-86.75759,"zip":"47924","miles_from_dt":28.17},{"city":"Lafayette","state_name":"Indiana","lat":40.41733,"lng":-86.85522,"zip":"47903","miles_from_dt":28.58},{"city":"Lafayette","state_name":"Indiana","lat":40.41638,"lng":-86.85129,"zip":"47902","miles_from_dt":28.75},{"city":"Delphi","state_name":"Indiana","lat":40.606,"lng":-86.64568,"zip":"46923","miles_from_dt":28.96},{"city":"Demotte","state_name":"Indiana","lat":41.18205,"lng":-87.23088,"zip":"46310","miles_from_dt":29.28},{"city":"Milford","state_name":"Illinois","lat":40.62854,"lng":-87.6894,"zip":"60953","miles_from_dt":29.38},{"city":"Burnettsville","state_name":"Indiana","lat":40.77789,"lng":-86.59707,"zip":"47926","miles_from_dt":29.44},{"city":"Wheatfield","state_name":"Indiana","lat":41.18509,"lng":-87.04948,"zip":"46392","miles_from_dt":29.79}],"targetCityZipCode":"47977","targetCityState":"Indiana"},"__N_SSG":true}