{"pageProps":{"stateName":"Indiana","cityName":"rochester","nearbyCities":[{"city":"Athens","state_name":"Indiana","lat":41.05506,"lng":-86.1254,"zip":"46912","miles_from_dt":6.7},{"city":"Leiters Ford","state_name":"Indiana","lat":41.1211,"lng":-86.38516,"zip":"46945","miles_from_dt":7.75},{"city":"Fulton","state_name":"Indiana","lat":40.94693,"lng":-86.26456,"zip":"46931","miles_from_dt":8.64},{"city":"Grass Creek","state_name":"Indiana","lat":41.01861,"lng":-86.41333,"zip":"46935","miles_from_dt":9.2},{"city":"Kewanna","state_name":"Indiana","lat":40.99337,"lng":-86.40359,"zip":"46939","miles_from_dt":9.6},{"city":"Delong","state_name":"Indiana","lat":41.13993,"lng":-86.42197,"zip":"46922","miles_from_dt":10.05},{"city":"Argos","state_name":"Indiana","lat":41.22327,"lng":-86.24868,"zip":"46501","miles_from_dt":10.45},{"city":"Akron","state_name":"Indiana","lat":41.04537,"lng":-86.04151,"zip":"46910","miles_from_dt":11.13},{"city":"Macy","state_name":"Indiana","lat":40.94616,"lng":-86.10528,"zip":"46951","miles_from_dt":11.57},{"city":"Tippecanoe","state_name":"Indiana","lat":41.20766,"lng":-86.1207,"zip":"46570","miles_from_dt":11.6},{"city":"Twelve Mile","state_name":"Indiana","lat":40.8802,"lng":-86.23451,"zip":"46988","miles_from_dt":13.25},{"city":"Mentone","state_name":"Indiana","lat":41.16579,"lng":-86.02545,"zip":"46539","miles_from_dt":13.47},{"city":"Deedsville","state_name":"Indiana","lat":40.91011,"lng":-86.1018,"zip":"46921","miles_from_dt":13.64},{"city":"Culver","state_name":"Indiana","lat":41.22182,"lng":-86.42889,"zip":"46511","miles_from_dt":13.88},{"city":"Lucerne","state_name":"Indiana","lat":40.88391,"lng":-86.37162,"zip":"46950","miles_from_dt":14.4},{"city":"Monterey","state_name":"Indiana","lat":41.15735,"lng":-86.52397,"zip":"46960","miles_from_dt":15.38},{"city":"Burket","state_name":"Indiana","lat":41.15499,"lng":-85.96904,"zip":"46508","miles_from_dt":15.83},{"city":"Denver","state_name":"Indiana","lat":40.88283,"lng":-86.04945,"zip":"46926","miles_from_dt":16.79},{"city":"Ora","state_name":"Indiana","lat":41.17049,"lng":-86.55179,"zip":"46968","miles_from_dt":17.07},{"city":"Bourbon","state_name":"Indiana","lat":41.30057,"lng":-86.11204,"zip":"46504","miles_from_dt":17.39},{"city":"Mexico","state_name":"Indiana","lat":40.81817,"lng":-86.12107,"zip":"46958","miles_from_dt":18.79},{"city":"Roann","state_name":"Indiana","lat":40.94839,"lng":-85.93041,"zip":"46974","miles_from_dt":18.83},{"city":"Silver Lake","state_name":"Indiana","lat":41.05717,"lng":-85.8882,"zip":"46982","miles_from_dt":19.02},{"city":"Star City","state_name":"Indiana","lat":40.95485,"lng":-86.58225,"zip":"46985","miles_from_dt":19.07},{"city":"Atwood","state_name":"Indiana","lat":41.26099,"lng":-85.97699,"zip":"46502","miles_from_dt":19.38},{"city":"Etna Green","state_name":"Indiana","lat":41.2979,"lng":-86.02143,"zip":"46524","miles_from_dt":19.69},{"city":"Plymouth","state_name":"Indiana","lat":41.35541,"lng":-86.32612,"zip":"46563","miles_from_dt":19.95},{"city":"Royal Center","state_name":"Indiana","lat":40.8587,"lng":-86.51113,"zip":"46978","miles_from_dt":20.01},{"city":"Claypool","state_name":"Indiana","lat":41.12068,"lng":-85.874,"zip":"46510","miles_from_dt":20.01},{"city":"Winamac","state_name":"Indiana","lat":41.0626,"lng":-86.65906,"zip":"46996","miles_from_dt":21.28},{"city":"New Waverly","state_name":"Indiana","lat":40.76573,"lng":-86.18786,"zip":"46961","miles_from_dt":21.38},{"city":"Warsaw","state_name":"Indiana","lat":41.20884,"lng":-85.87212,"zip":"46580","miles_from_dt":21.95},{"city":"Logansport","state_name":"Indiana","lat":40.76044,"lng":-86.37303,"zip":"46947","miles_from_dt":22.4},{"city":"Donaldson","state_name":"Indiana","lat":41.3629,"lng":-86.44816,"zip":"46513","miles_from_dt":22.54},{"city":"Laketon","state_name":"Indiana","lat":40.9735,"lng":-85.84038,"zip":"46943","miles_from_dt":22.54},{"city":"Warsaw","state_name":"Indiana","lat":41.23711,"lng":-85.85823,"zip":"46581","miles_from_dt":23.48},{"city":"Peru","state_name":"Indiana","lat":40.75827,"lng":-86.0614,"zip":"46970","miles_from_dt":23.82},{"city":"Grovertown","state_name":"Indiana","lat":41.35686,"lng":-86.51558,"zip":"46531","miles_from_dt":24},{"city":"Knox","state_name":"Indiana","lat":41.28561,"lng":-86.61878,"zip":"46534","miles_from_dt":24.16},{"city":"Tyner","state_name":"Indiana","lat":41.40804,"lng":-86.393,"zip":"46572","miles_from_dt":24.34},{"city":"Winona Lake","state_name":"Indiana","lat":41.21612,"lng":-85.80862,"zip":"46590","miles_from_dt":25.17},{"city":"Warsaw","state_name":"Indiana","lat":41.28323,"lng":-85.85235,"zip":"46582","miles_from_dt":25.43},{"city":"Lake Cicott","state_name":"Indiana","lat":40.76499,"lng":-86.53928,"zip":"46942","miles_from_dt":25.98},{"city":"North Manchester","state_name":"Indiana","lat":40.98774,"lng":-85.76675,"zip":"46962","miles_from_dt":26},{"city":"Onward","state_name":"Indiana","lat":40.69504,"lng":-86.19483,"zip":"46967","miles_from_dt":26.17},{"city":"Lapaz","state_name":"Indiana","lat":41.45724,"lng":-86.30669,"zip":"46537","miles_from_dt":26.75},{"city":"Burnettsville","state_name":"Indiana","lat":40.77789,"lng":-86.59707,"zip":"47926","miles_from_dt":27.17},{"city":"Liberty Mills","state_name":"Indiana","lat":41.03932,"lng":-85.73019,"zip":"46946","miles_from_dt":27.34},{"city":"Bremen","state_name":"Indiana","lat":41.46316,"lng":-86.16915,"zip":"46506","miles_from_dt":27.35},{"city":"Servia","state_name":"Indiana","lat":40.95598,"lng":-85.74155,"zip":"46980","miles_from_dt":27.84},{"city":"Walton","state_name":"Indiana","lat":40.66661,"lng":-86.25766,"zip":"46994","miles_from_dt":27.96},{"city":"Idaville","state_name":"Indiana","lat":40.80175,"lng":-86.65355,"zip":"47950","miles_from_dt":28.09},{"city":"Leesburg","state_name":"Indiana","lat":41.32829,"lng":-85.82703,"zip":"46538","miles_from_dt":28.34},{"city":"Kokomo","state_name":"Indiana","lat":40.65921,"lng":-86.23954,"zip":"46904","miles_from_dt":28.48},{"city":"North Judson","state_name":"Indiana","lat":41.21443,"lng":-86.76922,"zip":"46366","miles_from_dt":28.73},{"city":"Grissom Arb","state_name":"Indiana","lat":40.6606,"lng":-86.16168,"zip":"46971","miles_from_dt":28.76},{"city":"Buffalo","state_name":"Indiana","lat":40.88205,"lng":-86.74477,"zip":"47925","miles_from_dt":28.92},{"city":"Nappanee","state_name":"Indiana","lat":41.44701,"lng":-86.00028,"zip":"46550","miles_from_dt":29.02},{"city":"Milford","state_name":"Indiana","lat":41.39303,"lng":-85.87448,"zip":"46542","miles_from_dt":29.63},{"city":"Wabash","state_name":"Indiana","lat":40.78509,"lng":-85.82961,"zip":"46992","miles_from_dt":29.66},{"city":"Urbana","state_name":"Indiana","lat":40.89851,"lng":-85.73161,"zip":"46990","miles_from_dt":29.71}],"targetCityZipCode":"46975","targetCityState":"Indiana"},"__N_SSG":true}