{"pageProps":{"stateName":"Indiana","cityName":"romney","nearbyCities":[{"city":"Linden","state_name":"Indiana","lat":40.1954,"lng":-86.86513,"zip":"47955","miles_from_dt":4.94},{"city":"New Richmond","state_name":"Indiana","lat":40.1942,"lng":-86.99899,"zip":"47967","miles_from_dt":5.06},{"city":"Lafayette","state_name":"Indiana","lat":40.32357,"lng":-86.89933,"zip":"47909","miles_from_dt":5.61},{"city":"Westpoint","state_name":"Indiana","lat":40.31933,"lng":-87.0519,"zip":"47992","miles_from_dt":8.14},{"city":"Stockwell","state_name":"Indiana","lat":40.28633,"lng":-86.77345,"zip":"47983","miles_from_dt":8.79},{"city":"Wingate","state_name":"Indiana","lat":40.18233,"lng":-87.08231,"zip":"47994","miles_from_dt":9.12},{"city":"Clarks Hill","state_name":"Indiana","lat":40.23764,"lng":-86.74137,"zip":"47930","miles_from_dt":10.06},{"city":"Newtown","state_name":"Indiana","lat":40.20355,"lng":-87.14892,"zip":"47969","miles_from_dt":11.88},{"city":"Lafayette","state_name":"Indiana","lat":40.4178,"lng":-86.88995,"zip":"47901","miles_from_dt":12.05},{"city":"Dayton","state_name":"Indiana","lat":40.37539,"lng":-86.77128,"zip":"47941","miles_from_dt":12.29},{"city":"West Lafayette","state_name":"Indiana","lat":40.42474,"lng":-86.91665,"zip":"47907","miles_from_dt":12.36},{"city":"Lafayette","state_name":"Indiana","lat":40.41638,"lng":-86.85129,"zip":"47902","miles_from_dt":12.49},{"city":"Lafayette","state_name":"Indiana","lat":40.41733,"lng":-86.85522,"zip":"47903","miles_from_dt":12.49},{"city":"Mellott","state_name":"Indiana","lat":40.16452,"lng":-87.14862,"zip":"47958","miles_from_dt":12.8},{"city":"Darlington","state_name":"Indiana","lat":40.11749,"lng":-86.7447,"zip":"47940","miles_from_dt":13.27},{"city":"Lafayette","state_name":"Indiana","lat":40.43835,"lng":-86.87609,"zip":"47904","miles_from_dt":13.59},{"city":"West Lafayette","state_name":"Indiana","lat":40.44384,"lng":-86.91141,"zip":"47996","miles_from_dt":13.69},{"city":"Colfax","state_name":"Indiana","lat":40.18925,"lng":-86.67902,"zip":"46035","miles_from_dt":13.91},{"city":"Waynetown","state_name":"Indiana","lat":40.06118,"lng":-87.05952,"zip":"47990","miles_from_dt":14.45},{"city":"Crawfordsville","state_name":"Indiana","lat":40.03728,"lng":-86.90234,"zip":"47933","miles_from_dt":14.48},{"city":"Lafayette","state_name":"Indiana","lat":40.4218,"lng":-86.76418,"zip":"47905","miles_from_dt":15},{"city":"Attica","state_name":"Indiana","lat":40.30388,"lng":-87.20628,"zip":"47918","miles_from_dt":15.07},{"city":"Montmorenci","state_name":"Indiana","lat":40.47418,"lng":-87.03001,"zip":"47962","miles_from_dt":16.58},{"city":"Hillsboro","state_name":"Indiana","lat":40.06288,"lng":-87.13504,"zip":"47949","miles_from_dt":16.61},{"city":"West Lafayette","state_name":"Indiana","lat":40.48541,"lng":-86.98584,"zip":"47906","miles_from_dt":16.77},{"city":"Mulberry","state_name":"Indiana","lat":40.35981,"lng":-86.64777,"zip":"46058","miles_from_dt":16.91},{"city":"Veedersburg","state_name":"Indiana","lat":40.11916,"lng":-87.23428,"zip":"47987","miles_from_dt":18.27},{"city":"Otterbein","state_name":"Indiana","lat":40.47423,"lng":-87.13031,"zip":"47970","miles_from_dt":18.93},{"city":"Buck Creek","state_name":"Indiana","lat":40.48991,"lng":-86.75759,"zip":"47924","miles_from_dt":19.16},{"city":"Alamo","state_name":"Indiana","lat":39.98343,"lng":-87.05524,"zip":"47916","miles_from_dt":19.27},{"city":"Thorntown","state_name":"Indiana","lat":40.11941,"lng":-86.60549,"zip":"46071","miles_from_dt":19.33},{"city":"New Market","state_name":"Indiana","lat":39.95452,"lng":-86.91996,"zip":"47965","miles_from_dt":20.12},{"city":"Rossville","state_name":"Indiana","lat":40.42318,"lng":-86.60992,"zip":"46065","miles_from_dt":20.91},{"city":"Wallace","state_name":"Indiana","lat":39.98897,"lng":-87.14678,"zip":"47988","miles_from_dt":21.09},{"city":"Battle Ground","state_name":"Indiana","lat":40.54712,"lng":-86.8195,"zip":"47920","miles_from_dt":21.6},{"city":"Pine Village","state_name":"Indiana","lat":40.44436,"lng":-87.25348,"zip":"47975","miles_from_dt":21.83},{"city":"New Ross","state_name":"Indiana","lat":39.96209,"lng":-86.74542,"zip":"47968","miles_from_dt":21.92},{"city":"Frankfort","state_name":"Indiana","lat":40.29695,"lng":-86.49216,"zip":"46041","miles_from_dt":23.47},{"city":"Templeton","state_name":"Indiana","lat":40.51384,"lng":-87.20719,"zip":"47986","miles_from_dt":23.53},{"city":"Advance","state_name":"Indiana","lat":39.99556,"lng":-86.61993,"zip":"46102","miles_from_dt":23.89},{"city":"Ladoga","state_name":"Indiana","lat":39.90048,"lng":-86.8178,"zip":"47954","miles_from_dt":24.59},{"city":"Sedalia","state_name":"Indiana","lat":40.41598,"lng":-86.51539,"zip":"46067","miles_from_dt":24.9},{"city":"Jamestown","state_name":"Indiana","lat":39.96988,"lng":-86.62693,"zip":"46147","miles_from_dt":24.96},{"city":"Brookston","state_name":"Indiana","lat":40.61015,"lng":-86.92667,"zip":"47923","miles_from_dt":25.13},{"city":"Oxford","state_name":"Indiana","lat":40.52946,"lng":-87.23751,"zip":"47971","miles_from_dt":25.37},{"city":"Waveland","state_name":"Indiana","lat":39.88871,"lng":-87.05243,"zip":"47989","miles_from_dt":25.47},{"city":"Williamsport","state_name":"Indiana","lat":40.31161,"lng":-87.41603,"zip":"47993","miles_from_dt":26.01},{"city":"Covington","state_name":"Indiana","lat":40.12764,"lng":-87.40761,"zip":"47932","miles_from_dt":26.5},{"city":"West Lebanon","state_name":"Indiana","lat":40.28034,"lng":-87.44794,"zip":"47991","miles_from_dt":27.41},{"city":"Cutler","state_name":"Indiana","lat":40.46459,"lng":-86.49502,"zip":"46920","miles_from_dt":27.53},{"city":"Kingman","state_name":"Indiana","lat":39.96186,"lng":-87.30049,"zip":"47952","miles_from_dt":27.69},{"city":"Marshall","state_name":"Indiana","lat":39.88595,"lng":-87.16999,"zip":"47859","miles_from_dt":27.88},{"city":"Boswell","state_name":"Indiana","lat":40.47838,"lng":-87.37485,"zip":"47921","miles_from_dt":28.38},{"city":"Lebanon","state_name":"Indiana","lat":40.04448,"lng":-86.46086,"zip":"46052","miles_from_dt":28.53},{"city":"Bringhurst","state_name":"Indiana","lat":40.50364,"lng":-86.49739,"zip":"46913","miles_from_dt":28.99},{"city":"Delphi","state_name":"Indiana","lat":40.606,"lng":-86.64568,"zip":"46923","miles_from_dt":29.05},{"city":"Russellville","state_name":"Indiana","lat":39.82199,"lng":-86.97292,"zip":"46175","miles_from_dt":29.34},{"city":"Roachdale","state_name":"Indiana","lat":39.82725,"lng":-86.8144,"zip":"46172","miles_from_dt":29.55},{"city":"Chalmers","state_name":"Indiana","lat":40.67587,"lng":-86.9185,"zip":"47929","miles_from_dt":29.67},{"city":"Michigantown","state_name":"Indiana","lat":40.33796,"lng":-86.37801,"zip":"46057","miles_from_dt":29.91}],"targetCityZipCode":"47981","targetCityState":"Indiana"},"__N_SSG":true}