{"pageProps":{"stateName":"Indiana","cityName":"south-whitley","nearbyCities":[{"city":"Liberty Mills","state_name":"Indiana","lat":41.03932,"lng":-85.73019,"zip":"46946","miles_from_dt":6},{"city":"Bippus","state_name":"Indiana","lat":40.94341,"lng":-85.61975,"zip":"46713","miles_from_dt":8.46},{"city":"North Manchester","state_name":"Indiana","lat":40.98774,"lng":-85.76675,"zip":"46962","miles_from_dt":9.34},{"city":"Columbia City","state_name":"Indiana","lat":41.1518,"lng":-85.47655,"zip":"46725","miles_from_dt":9.58},{"city":"Servia","state_name":"Indiana","lat":40.95598,"lng":-85.74155,"zip":"46980","miles_from_dt":9.87},{"city":"Larwill","state_name":"Indiana","lat":41.2176,"lng":-85.62376,"zip":"46764","miles_from_dt":10.46},{"city":"Pierceton","state_name":"Indiana","lat":41.20947,"lng":-85.69757,"zip":"46562","miles_from_dt":10.68},{"city":"Urbana","state_name":"Indiana","lat":40.89851,"lng":-85.73161,"zip":"46990","miles_from_dt":12.93},{"city":"Laketon","state_name":"Indiana","lat":40.9735,"lng":-85.84038,"zip":"46943","miles_from_dt":13.13},{"city":"Claypool","state_name":"Indiana","lat":41.12068,"lng":-85.874,"zip":"46510","miles_from_dt":13.74},{"city":"Silver Lake","state_name":"Indiana","lat":41.05717,"lng":-85.8882,"zip":"46982","miles_from_dt":13.98},{"city":"Winona Lake","state_name":"Indiana","lat":41.21612,"lng":-85.80862,"zip":"46590","miles_from_dt":14.26},{"city":"Huntington","state_name":"Indiana","lat":40.87677,"lng":-85.49674,"zip":"46750","miles_from_dt":14.58},{"city":"Roanoke","state_name":"Indiana","lat":40.97399,"lng":-85.35578,"zip":"46783","miles_from_dt":15.24},{"city":"Warsaw","state_name":"Indiana","lat":41.20884,"lng":-85.87212,"zip":"46580","miles_from_dt":16.4},{"city":"Fort Wayne","state_name":"Indiana","lat":41.04616,"lng":-85.30805,"zip":"46814","miles_from_dt":16.4},{"city":"Andrews","state_name":"Indiana","lat":40.82681,"lng":-85.61732,"zip":"46702","miles_from_dt":16.5},{"city":"Lagro","state_name":"Indiana","lat":40.82833,"lng":-85.69723,"zip":"46941","miles_from_dt":16.88},{"city":"Warsaw","state_name":"Indiana","lat":41.23711,"lng":-85.85823,"zip":"46581","miles_from_dt":17.11},{"city":"Arcola","state_name":"Indiana","lat":41.10371,"lng":-85.29242,"zip":"46704","miles_from_dt":17.34},{"city":"Roann","state_name":"Indiana","lat":40.94839,"lng":-85.93041,"zip":"46974","miles_from_dt":18.1},{"city":"North Webster","state_name":"Indiana","lat":41.32858,"lng":-85.68833,"zip":"46555","miles_from_dt":18.46},{"city":"Fort Wayne","state_name":"Indiana","lat":41.19754,"lng":-85.3053,"zip":"46898","miles_from_dt":18.8},{"city":"Burket","state_name":"Indiana","lat":41.15499,"lng":-85.96904,"zip":"46508","miles_from_dt":19.18},{"city":"Warsaw","state_name":"Indiana","lat":41.28323,"lng":-85.85235,"zip":"46582","miles_from_dt":19.25},{"city":"Churubusco","state_name":"Indiana","lat":41.23828,"lng":-85.32441,"zip":"46723","miles_from_dt":19.5},{"city":"Kimmell","state_name":"Indiana","lat":41.34441,"lng":-85.55654,"zip":"46760","miles_from_dt":19.5},{"city":"Wolflake","state_name":"Indiana","lat":41.3367,"lng":-85.49583,"zip":"46796","miles_from_dt":19.79},{"city":"Fort Wayne","state_name":"Indiana","lat":41.05421,"lng":-85.23913,"zip":"46804","miles_from_dt":19.95},{"city":"Fort Wayne","state_name":"Indiana","lat":41.14698,"lng":-85.25111,"zip":"46818","miles_from_dt":20.09},{"city":"Zanesville","state_name":"Indiana","lat":40.91592,"lng":-85.27923,"zip":"46799","miles_from_dt":20.65},{"city":"Fort Wayne","state_name":"Indiana","lat":40.99862,"lng":-85.23438,"zip":"46899","miles_from_dt":20.72},{"city":"Leesburg","state_name":"Indiana","lat":41.32829,"lng":-85.82703,"zip":"46538","miles_from_dt":21.05},{"city":"Cromwell","state_name":"Indiana","lat":41.37697,"lng":-85.62169,"zip":"46732","miles_from_dt":21.46},{"city":"Fort Wayne","state_name":"Indiana","lat":41.00088,"lng":-85.2102,"zip":"46809","miles_from_dt":21.92},{"city":"Akron","state_name":"Indiana","lat":41.04537,"lng":-86.04151,"zip":"46910","miles_from_dt":22.02},{"city":"Mentone","state_name":"Indiana","lat":41.16579,"lng":-86.02545,"zip":"46539","miles_from_dt":22.21},{"city":"Wabash","state_name":"Indiana","lat":40.78509,"lng":-85.82961,"zip":"46992","miles_from_dt":22.25},{"city":"Albion","state_name":"Indiana","lat":41.35846,"lng":-85.43034,"zip":"46701","miles_from_dt":22.49},{"city":"Yoder","state_name":"Indiana","lat":40.94256,"lng":-85.22113,"zip":"46798","miles_from_dt":22.56},{"city":"Markle","state_name":"Indiana","lat":40.8298,"lng":-85.31873,"zip":"46770","miles_from_dt":22.7},{"city":"Atwood","state_name":"Indiana","lat":41.26099,"lng":-85.97699,"zip":"46502","miles_from_dt":22.94},{"city":"Fort Wayne","state_name":"Indiana","lat":41.09887,"lng":-85.17619,"zip":"46808","miles_from_dt":23.33},{"city":"Fort Wayne","state_name":"Indiana","lat":41.06848,"lng":-85.16935,"zip":"46869","miles_from_dt":23.58},{"city":"Fort Wayne","state_name":"Indiana","lat":41.06924,"lng":-85.16896,"zip":"46852","miles_from_dt":23.6},{"city":"Fort Wayne","state_name":"Indiana","lat":41.06646,"lng":-85.1688,"zip":"46850","miles_from_dt":23.61},{"city":"Fort Wayne","state_name":"Indiana","lat":41.06897,"lng":-85.16786,"zip":"46862","miles_from_dt":23.66},{"city":"Fort Wayne","state_name":"Indiana","lat":41.06789,"lng":-85.16768,"zip":"46801","miles_from_dt":23.67},{"city":"Fort Wayne","state_name":"Indiana","lat":41.06853,"lng":-85.1674,"zip":"46855","miles_from_dt":23.68},{"city":"Fort Wayne","state_name":"Indiana","lat":41.06924,"lng":-85.16703,"zip":"46863","miles_from_dt":23.7},{"city":"Fort Wayne","state_name":"Indiana","lat":41.06987,"lng":-85.16665,"zip":"46868","miles_from_dt":23.72},{"city":"Fort Wayne","state_name":"Indiana","lat":41.07291,"lng":-85.16652,"zip":"46857","miles_from_dt":23.73},{"city":"Fort Wayne","state_name":"Indiana","lat":41.06561,"lng":-85.16653,"zip":"46865","miles_from_dt":23.73},{"city":"Fort Wayne","state_name":"Indiana","lat":41.068,"lng":-85.16637,"zip":"46858","miles_from_dt":23.74},{"city":"Fort Wayne","state_name":"Indiana","lat":41.06769,"lng":-85.16637,"zip":"46864","miles_from_dt":23.74},{"city":"Fort Wayne","state_name":"Indiana","lat":41.06907,"lng":-85.16586,"zip":"46867","miles_from_dt":23.76},{"city":"Fort Wayne","state_name":"Indiana","lat":41.06772,"lng":-85.16591,"zip":"46851","miles_from_dt":23.76},{"city":"Fort Wayne","state_name":"Indiana","lat":41.0674,"lng":-85.16558,"zip":"46853","miles_from_dt":23.78},{"city":"Fort Wayne","state_name":"Indiana","lat":41.06602,"lng":-85.16517,"zip":"46856","miles_from_dt":23.8},{"city":"Fort Wayne","state_name":"Indiana","lat":41.07089,"lng":-85.16484,"zip":"46859","miles_from_dt":23.82},{"city":"Fort Wayne","state_name":"Indiana","lat":41.07095,"lng":-85.16382,"zip":"46866","miles_from_dt":23.87},{"city":"Fort Wayne","state_name":"Indiana","lat":41.06925,"lng":-85.16335,"zip":"46861","miles_from_dt":23.89},{"city":"Fort Wayne","state_name":"Indiana","lat":41.06787,"lng":-85.16299,"zip":"46802","miles_from_dt":23.91},{"city":"Fort Wayne","state_name":"Indiana","lat":41.07114,"lng":-85.16254,"zip":"46860","miles_from_dt":23.94},{"city":"Fort Wayne","state_name":"Indiana","lat":41.06922,"lng":-85.16147,"zip":"46897","miles_from_dt":23.99},{"city":"Syracuse","state_name":"Indiana","lat":41.41473,"lng":-85.73044,"zip":"46567","miles_from_dt":24.73},{"city":"Fort Wayne","state_name":"Indiana","lat":41.04489,"lng":-85.14763,"zip":"46807","miles_from_dt":24.76},{"city":"Laotto","state_name":"Indiana","lat":41.29418,"lng":-85.2415,"zip":"46763","miles_from_dt":25.28},{"city":"Uniondale","state_name":"Indiana","lat":40.83699,"lng":-85.24325,"zip":"46791","miles_from_dt":25.3},{"city":"Denver","state_name":"Indiana","lat":40.88283,"lng":-86.04945,"zip":"46926","miles_from_dt":25.73},{"city":"Milford","state_name":"Indiana","lat":41.39303,"lng":-85.87448,"zip":"46542","miles_from_dt":26.15},{"city":"Etna Green","state_name":"Indiana","lat":41.2979,"lng":-86.02143,"zip":"46524","miles_from_dt":26.31},{"city":"Athens","state_name":"Indiana","lat":41.05506,"lng":-86.1254,"zip":"46912","miles_from_dt":26.36},{"city":"Fort Wayne","state_name":"Indiana","lat":41.09918,"lng":-85.11762,"zip":"46805","miles_from_dt":26.38},{"city":"La Fontaine","state_name":"Indiana","lat":40.6882,"lng":-85.69857,"zip":"46940","miles_from_dt":26.38},{"city":"Fort Wayne","state_name":"Indiana","lat":41.1048,"lng":-85.11692,"zip":"46895","miles_from_dt":26.45},{"city":"Fort Wayne","state_name":"Indiana","lat":40.96409,"lng":-85.13256,"zip":"46819","miles_from_dt":26.47},{"city":"Fort Wayne","state_name":"Indiana","lat":41.15397,"lng":-85.12425,"zip":"46825","miles_from_dt":26.62},{"city":"Macy","state_name":"Indiana","lat":40.94616,"lng":-86.10528,"zip":"46951","miles_from_dt":26.64},{"city":"Huntertown","state_name":"Indiana","lat":41.24829,"lng":-85.16727,"zip":"46748","miles_from_dt":26.79},{"city":"Deedsville","state_name":"Indiana","lat":40.91011,"lng":-86.1018,"zip":"46921","miles_from_dt":27.35},{"city":"Avilla","state_name":"Indiana","lat":41.35167,"lng":-85.25168,"zip":"46710","miles_from_dt":27.55},{"city":"Ligonier","state_name":"Indiana","lat":41.46487,"lng":-85.5764,"zip":"46767","miles_from_dt":27.62},{"city":"Fort Wayne","state_name":"Indiana","lat":41.04649,"lng":-85.09224,"zip":"46806","miles_from_dt":27.64},{"city":"Tippecanoe","state_name":"Indiana","lat":41.20766,"lng":-86.1207,"zip":"46570","miles_from_dt":27.85},{"city":"Ossian","state_name":"Indiana","lat":40.87248,"lng":-85.15236,"zip":"46777","miles_from_dt":27.91},{"city":"Fort Wayne","state_name":"Indiana","lat":41.06972,"lng":-85.08532,"zip":"46803","miles_from_dt":27.97},{"city":"Warren","state_name":"Indiana","lat":40.68472,"lng":-85.43798,"zip":"46792","miles_from_dt":28},{"city":"Fort Wayne","state_name":"Indiana","lat":41.2051,"lng":-85.10789,"zip":"46845","miles_from_dt":28.43},{"city":"Wawaka","state_name":"Indiana","lat":41.46654,"lng":-85.45946,"zip":"46794","miles_from_dt":28.89},{"city":"Fort Wayne","state_name":"Indiana","lat":41.00772,"lng":-85.06932,"zip":"46896","miles_from_dt":29.1},{"city":"Fort Wayne","state_name":"Indiana","lat":41.149,"lng":-85.07375,"zip":"46854","miles_from_dt":29.12},{"city":"Fort Wayne","state_name":"Indiana","lat":41.1034,"lng":-85.05913,"zip":"46815","miles_from_dt":29.44},{"city":"Somerset","state_name":"Indiana","lat":40.66777,"lng":-85.82975,"zip":"46984","miles_from_dt":29.58},{"city":"Liberty Center","state_name":"Indiana","lat":40.70984,"lng":-85.29424,"zip":"46766","miles_from_dt":29.94}],"targetCityZipCode":"46787","targetCityState":"Indiana"},"__N_SSG":true}