{"pageProps":{"stateName":"Indiana","cityName":"whitestown","nearbyCities":[{"city":"Zionsville","state_name":"Indiana","lat":39.98281,"lng":-86.28346,"zip":"46077","miles_from_dt":4.05},{"city":"Lebanon","state_name":"Indiana","lat":40.04448,"lng":-86.46086,"zip":"46052","miles_from_dt":6.81},{"city":"Westfield","state_name":"Indiana","lat":40.03651,"lng":-86.17289,"zip":"46074","miles_from_dt":8.61},{"city":"Indianapolis","state_name":"Indiana","lat":39.89389,"lng":-86.29606,"zip":"46278","miles_from_dt":9.37},{"city":"Sheridan","state_name":"Indiana","lat":40.13829,"lng":-86.23144,"zip":"46069","miles_from_dt":9.46},{"city":"Carmel","state_name":"Indiana","lat":39.96535,"lng":-86.17104,"zip":"46032","miles_from_dt":9.65},{"city":"Indianapolis","state_name":"Indiana","lat":39.89769,"lng":-86.23253,"zip":"46268","miles_from_dt":10.4},{"city":"Indianapolis","state_name":"Indiana","lat":39.89393,"lng":-86.22994,"zip":"46298","miles_from_dt":10.69},{"city":"Indianapolis","state_name":"Indiana","lat":39.93376,"lng":-86.16256,"zip":"46290","miles_from_dt":11.14},{"city":"Brownsburg","state_name":"Indiana","lat":39.86561,"lng":-86.38215,"zip":"46112","miles_from_dt":11.38},{"city":"Carmel","state_name":"Indiana","lat":39.9798,"lng":-86.11924,"zip":"46082","miles_from_dt":11.87},{"city":"Indianapolis","state_name":"Indiana","lat":39.89744,"lng":-86.17927,"zip":"46260","miles_from_dt":12.13},{"city":"Kirklin","state_name":"Indiana","lat":40.20515,"lng":-86.34629,"zip":"46050","miles_from_dt":12.35},{"city":"Pittsboro","state_name":"Indiana","lat":39.87675,"lng":-86.46981,"zip":"46167","miles_from_dt":12.57},{"city":"Indianapolis","state_name":"Indiana","lat":39.84796,"lng":-86.26936,"zip":"46254","miles_from_dt":12.79},{"city":"Indianapolis","state_name":"Indiana","lat":39.93714,"lng":-86.11786,"zip":"46280","miles_from_dt":13.05},{"city":"Carmel","state_name":"Indiana","lat":39.97975,"lng":-86.08595,"zip":"46033","miles_from_dt":13.58},{"city":"Indianapolis","state_name":"Indiana","lat":39.90697,"lng":-86.12367,"zip":"46240","miles_from_dt":13.9},{"city":"Indianapolis","state_name":"Indiana","lat":39.8487,"lng":-86.20045,"zip":"46228","miles_from_dt":14.18},{"city":"Indianapolis","state_name":"Indiana","lat":39.82687,"lng":-86.27078,"zip":"46253","miles_from_dt":14.18},{"city":"Indianapolis","state_name":"Indiana","lat":39.81077,"lng":-86.32665,"zip":"46234","miles_from_dt":14.88},{"city":"Noblesville","state_name":"Indiana","lat":40.06146,"lng":-86.05523,"zip":"46062","miles_from_dt":15.01},{"city":"Advance","state_name":"Indiana","lat":39.99556,"lng":-86.61993,"zip":"46102","miles_from_dt":15.29},{"city":"Lizton","state_name":"Indiana","lat":39.88545,"lng":-86.55758,"zip":"46149","miles_from_dt":15.32},{"city":"Thorntown","state_name":"Indiana","lat":40.11941,"lng":-86.60549,"zip":"46071","miles_from_dt":15.73},{"city":"Jamestown","state_name":"Indiana","lat":39.96988,"lng":-86.62693,"zip":"46147","miles_from_dt":15.99},{"city":"Noblesville","state_name":"Indiana","lat":40.05761,"lng":-86.03172,"zip":"46061","miles_from_dt":16.21},{"city":"Indianapolis","state_name":"Indiana","lat":39.86675,"lng":-86.10915,"zip":"46230","miles_from_dt":16.27},{"city":"Indianapolis","state_name":"Indiana","lat":39.8676,"lng":-86.10818,"zip":"46220","miles_from_dt":16.27},{"city":"Indianapolis","state_name":"Indiana","lat":39.7917,"lng":-86.29009,"zip":"46214","miles_from_dt":16.36},{"city":"Indianapolis","state_name":"Indiana","lat":39.82307,"lng":-86.17307,"zip":"46208","miles_from_dt":16.44},{"city":"Indianapolis","state_name":"Indiana","lat":39.90399,"lng":-86.06864,"zip":"46250","miles_from_dt":16.45},{"city":"Indianapolis","state_name":"Indiana","lat":39.79537,"lng":-86.25624,"zip":"46224","miles_from_dt":16.47},{"city":"Cicero","state_name":"Indiana","lat":40.13291,"lng":-86.04128,"zip":"46034","miles_from_dt":17.2},{"city":"Indianapolis","state_name":"Indiana","lat":39.82813,"lng":-86.13499,"zip":"46205","miles_from_dt":17.31},{"city":"Fishers","state_name":"Indiana","lat":39.96722,"lng":-86.01712,"zip":"46038","miles_from_dt":17.33},{"city":"Indianapolis","state_name":"Indiana","lat":39.79088,"lng":-86.21477,"zip":"46222","miles_from_dt":17.45},{"city":"Fishers","state_name":"Indiana","lat":39.96,"lng":-86.01219,"zip":"46085","miles_from_dt":17.71},{"city":"Avon","state_name":"Indiana","lat":39.76502,"lng":-86.40015,"zip":"46123","miles_from_dt":18.36},{"city":"Indianapolis","state_name":"Indiana","lat":39.7645,"lng":-86.40268,"zip":"46213","miles_from_dt":18.43},{"city":"Indianapolis","state_name":"Indiana","lat":39.90682,"lng":-86.01152,"zip":"46256","miles_from_dt":19.03},{"city":"Indianapolis","state_name":"Indiana","lat":39.78363,"lng":-86.16187,"zip":"46202","miles_from_dt":19.1},{"city":"Arcadia","state_name":"Indiana","lat":40.17031,"lng":-86.02118,"zip":"46030","miles_from_dt":19.35},{"city":"Indianapolis","state_name":"Indiana","lat":39.80713,"lng":-86.09958,"zip":"46218","miles_from_dt":19.61},{"city":"Kempton","state_name":"Indiana","lat":40.29757,"lng":-86.22165,"zip":"46049","miles_from_dt":19.64},{"city":"Indianapolis","state_name":"Indiana","lat":39.77438,"lng":-86.15879,"zip":"46244","miles_from_dt":19.74},{"city":"Indianapolis","state_name":"Indiana","lat":39.83968,"lng":-86.05117,"zip":"46226","miles_from_dt":19.81},{"city":"Indianapolis","state_name":"Indiana","lat":39.7771,"lng":-86.1458,"zip":"46288","miles_from_dt":19.91},{"city":"Indianapolis","state_name":"Indiana","lat":39.77203,"lng":-86.15502,"zip":"46277","miles_from_dt":19.97},{"city":"Indianapolis","state_name":"Indiana","lat":39.77134,"lng":-86.15703,"zip":"46204","miles_from_dt":19.97},{"city":"Indianapolis","state_name":"Indiana","lat":39.76938,"lng":-86.16017,"zip":"46282","miles_from_dt":20.01},{"city":"Indianapolis","state_name":"Indiana","lat":39.76674,"lng":-86.16397,"zip":"46255","miles_from_dt":20.08},{"city":"Indianapolis","state_name":"Indiana","lat":39.76798,"lng":-86.15809,"zip":"46262","miles_from_dt":20.14},{"city":"Frankfort","state_name":"Indiana","lat":40.29695,"lng":-86.49216,"zip":"46041","miles_from_dt":20.45},{"city":"Indianapolis","state_name":"Indiana","lat":39.86593,"lng":-86.00929,"zip":"46216","miles_from_dt":20.52},{"city":"Indianapolis","state_name":"Indiana","lat":39.76027,"lng":-86.16107,"zip":"46206","miles_from_dt":20.54},{"city":"Goldsmith","state_name":"Indiana","lat":40.2898,"lng":-86.14832,"zip":"46045","miles_from_dt":20.68},{"city":"North Salem","state_name":"Indiana","lat":39.84522,"lng":-86.64716,"zip":"46165","miles_from_dt":20.78},{"city":"Indianapolis","state_name":"Indiana","lat":39.77728,"lng":-86.11179,"zip":"46283","miles_from_dt":20.87},{"city":"Indianapolis","state_name":"Indiana","lat":39.862,"lng":-86.00204,"zip":"46249","miles_from_dt":20.99},{"city":"Indianapolis","state_name":"Indiana","lat":39.72086,"lng":-86.32712,"zip":"46231","miles_from_dt":21.08},{"city":"Danville","state_name":"Indiana","lat":39.76822,"lng":-86.5475,"zip":"46122","miles_from_dt":21.1},{"city":"Indianapolis","state_name":"Indiana","lat":39.72413,"lng":-86.26979,"zip":"46251","miles_from_dt":21.13},{"city":"Indianapolis","state_name":"Indiana","lat":39.77369,"lng":-86.10949,"zip":"46201","miles_from_dt":21.14},{"city":"Indianapolis","state_name":"Indiana","lat":39.72389,"lng":-86.26842,"zip":"46241","miles_from_dt":21.16},{"city":"Fishers","state_name":"Indiana","lat":39.96077,"lng":-85.94446,"zip":"46037","miles_from_dt":21.19},{"city":"Atlanta","state_name":"Indiana","lat":40.20935,"lng":-86.01018,"zip":"46031","miles_from_dt":21.32},{"city":"Colfax","state_name":"Indiana","lat":40.18925,"lng":-86.67902,"zip":"46035","miles_from_dt":21.43},{"city":"Indianapolis","state_name":"Indiana","lat":39.745,"lng":-86.15861,"zip":"46209","miles_from_dt":21.55},{"city":"Noblesville","state_name":"Indiana","lat":40.06616,"lng":-85.93137,"zip":"46060","miles_from_dt":21.56},{"city":"Indianapolis","state_name":"Indiana","lat":39.74301,"lng":-86.16281,"zip":"46285","miles_from_dt":21.58},{"city":"Indianapolis","state_name":"Indiana","lat":39.74224,"lng":-86.1643,"zip":"46207","miles_from_dt":21.59},{"city":"Indianapolis","state_name":"Indiana","lat":39.89132,"lng":-85.96766,"zip":"46236","miles_from_dt":21.6},{"city":"Michigantown","state_name":"Indiana","lat":40.33796,"lng":-86.37801,"zip":"46057","miles_from_dt":21.62},{"city":"Indianapolis","state_name":"Indiana","lat":39.74062,"lng":-86.16294,"zip":"46225","miles_from_dt":21.72},{"city":"New Ross","state_name":"Indiana","lat":39.96209,"lng":-86.74542,"zip":"47968","miles_from_dt":22.25},{"city":"Darlington","state_name":"Indiana","lat":40.11749,"lng":-86.7447,"zip":"47940","miles_from_dt":22.63},{"city":"Tipton","state_name":"Indiana","lat":40.28526,"lng":-86.06891,"zip":"46072","miles_from_dt":22.74},{"city":"Indianapolis","state_name":"Indiana","lat":39.78314,"lng":-86.04444,"zip":"46219","miles_from_dt":22.79},{"city":"Indianapolis","state_name":"Indiana","lat":39.70131,"lng":-86.25737,"zip":"46242","miles_from_dt":22.8},{"city":"Indianapolis","state_name":"Indiana","lat":39.83784,"lng":-85.97651,"zip":"46235","miles_from_dt":23.04},{"city":"Plainfield","state_name":"Indiana","lat":39.68985,"lng":-86.39262,"zip":"46168","miles_from_dt":23.42},{"city":"Indianapolis","state_name":"Indiana","lat":39.69288,"lng":-86.23664,"zip":"46221","miles_from_dt":23.59},{"city":"Indianapolis","state_name":"Indiana","lat":39.7368,"lng":-86.09586,"zip":"46203","miles_from_dt":23.67},{"city":"Forest","state_name":"Indiana","lat":40.37022,"lng":-86.31173,"zip":"46039","miles_from_dt":23.76},{"city":"Mccordsville","state_name":"Indiana","lat":39.88627,"lng":-85.90404,"zip":"46055","miles_from_dt":24.82},{"city":"Beech Grove","state_name":"Indiana","lat":39.71661,"lng":-86.09161,"zip":"46107","miles_from_dt":24.97},{"city":"Indianapolis","state_name":"Indiana","lat":39.78852,"lng":-85.978,"zip":"46229","miles_from_dt":25.07},{"city":"Indianapolis","state_name":"Indiana","lat":39.67254,"lng":-86.19338,"zip":"46217","miles_from_dt":25.54},{"city":"West Newton","state_name":"Indiana","lat":39.65397,"lng":-86.28121,"zip":"46183","miles_from_dt":25.85},{"city":"Clarks Hill","state_name":"Indiana","lat":40.23764,"lng":-86.74137,"zip":"47930","miles_from_dt":26.01},{"city":"Lapel","state_name":"Indiana","lat":40.05855,"lng":-85.83794,"zip":"46051","miles_from_dt":26.43},{"city":"Indianapolis","state_name":"Indiana","lat":39.67607,"lng":-86.13145,"zip":"46227","miles_from_dt":26.47},{"city":"Indianapolis","state_name":"Indiana","lat":39.67554,"lng":-86.12938,"zip":"46247","miles_from_dt":26.55},{"city":"Sharpsville","state_name":"Indiana","lat":40.37511,"lng":-86.1112,"zip":"46068","miles_from_dt":26.81},{"city":"Camby","state_name":"Indiana","lat":39.635,"lng":-86.30548,"zip":"46113","miles_from_dt":27.05},{"city":"Ladoga","state_name":"Indiana","lat":39.90048,"lng":-86.8178,"zip":"47954","miles_from_dt":27.08},{"city":"Hobbs","state_name":"Indiana","lat":40.28418,"lng":-85.94739,"zip":"46047","miles_from_dt":27.14},{"city":"Fortville","state_name":"Indiana","lat":39.92773,"lng":-85.83424,"zip":"46040","miles_from_dt":27.42},{"city":"Indianapolis","state_name":"Indiana","lat":39.72311,"lng":-86.0004,"zip":"46239","miles_from_dt":27.45},{"city":"Amo","state_name":"Indiana","lat":39.6896,"lng":-86.61384,"zip":"46103","miles_from_dt":27.57},{"city":"Clayton","state_name":"Indiana","lat":39.65317,"lng":-86.52394,"zip":"46118","miles_from_dt":27.65},{"city":"Russiaville","state_name":"Indiana","lat":40.42759,"lng":-86.27737,"zip":"46979","miles_from_dt":27.85},{"city":"Indianapolis","state_name":"Indiana","lat":39.67247,"lng":-86.0759,"zip":"46237","miles_from_dt":28.03},{"city":"Mulberry","state_name":"Indiana","lat":40.35981,"lng":-86.64777,"zip":"46058","miles_from_dt":28.35},{"city":"Ingalls","state_name":"Indiana","lat":39.9543,"lng":-85.80755,"zip":"46048","miles_from_dt":28.41},{"city":"Sedalia","state_name":"Indiana","lat":40.41598,"lng":-86.51539,"zip":"46067","miles_from_dt":28.53},{"city":"Roachdale","state_name":"Indiana","lat":39.82725,"lng":-86.8144,"zip":"46172","miles_from_dt":28.95},{"city":"West Middleton","state_name":"Indiana","lat":40.43948,"lng":-86.21765,"zip":"46995","miles_from_dt":29.17},{"city":"Greenwood","state_name":"Indiana","lat":39.62029,"lng":-86.1764,"zip":"46142","miles_from_dt":29.25},{"city":"Stockwell","state_name":"Indiana","lat":40.28633,"lng":-86.77345,"zip":"47983","miles_from_dt":29.35},{"city":"Oakford","state_name":"Indiana","lat":40.41601,"lng":-86.10183,"zip":"46965","miles_from_dt":29.57}],"targetCityZipCode":"46075","targetCityState":"Indiana"},"__N_SSG":true}