{"pageProps":{"stateName":"Utah","cityName":"alton","nearbyCities":[{"city":"Glendale","state_name":"Utah","lat":37.35858,"lng":-112.61527,"zip":"84729","miles_from_dt":9.5},{"city":"Duck Creek Village","state_name":"Utah","lat":37.46882,"lng":-112.72644,"zip":"84762","miles_from_dt":11.76},{"city":"Hatch","state_name":"Utah","lat":37.64627,"lng":-112.44997,"zip":"84735","miles_from_dt":12.68},{"city":"Orderville","state_name":"Utah","lat":37.27041,"lng":-112.68529,"zip":"84758","miles_from_dt":16.69},{"city":"Brian Head","state_name":"Utah","lat":37.65532,"lng":-112.76974,"zip":"84719","miles_from_dt":19.08},{"city":"Mount Carmel","state_name":"Utah","lat":37.22652,"lng":-112.78532,"zip":"84755","miles_from_dt":22.49},{"city":"Kanab","state_name":"Utah","lat":37.19749,"lng":-112.25533,"zip":"84741","miles_from_dt":23.49},{"city":"Cannonville","state_name":"Utah","lat":37.57954,"lng":-112.08306,"zip":"84718","miles_from_dt":24.78},{"city":"Tropic","state_name":"Utah","lat":37.62956,"lng":-112.08217,"zip":"84776","miles_from_dt":26.09},{"city":"Bryce","state_name":"Utah","lat":37.72035,"lng":-112.06689,"zip":"84764","miles_from_dt":29.96}],"targetCityZipCode":"84710","targetCityState":"Utah"},"__N_SSG":true}