{"pageProps":{"stateName":"Utah","cityName":"antimony","nearbyCities":[{"city":"Kingston","state_name":"Utah","lat":38.20827,"lng":-112.18572,"zip":"84743","miles_from_dt":12.24},{"city":"Circleville","state_name":"Utah","lat":38.17611,"lng":-112.2519,"zip":"84723","miles_from_dt":15.12},{"city":"Junction","state_name":"Utah","lat":38.27504,"lng":-112.26689,"zip":"84740","miles_from_dt":18.26},{"city":"Greenwich","state_name":"Utah","lat":38.4453,"lng":-111.90408,"zip":"84732","miles_from_dt":21.38},{"city":"Marysvale","state_name":"Utah","lat":38.44205,"lng":-112.1947,"zip":"84750","miles_from_dt":23.89},{"city":"Bicknell","state_name":"Utah","lat":38.33221,"lng":-111.60317,"zip":"84715","miles_from_dt":24.29},{"city":"Panguitch","state_name":"Utah","lat":37.92238,"lng":-112.38423,"zip":"84759","miles_from_dt":26.8},{"city":"Loa","state_name":"Utah","lat":38.44628,"lng":-111.63773,"zip":"84747","miles_from_dt":28.03},{"city":"Teasdale","state_name":"Utah","lat":38.24958,"lng":-111.47045,"zip":"84773","miles_from_dt":28.62},{"city":"Bryce","state_name":"Utah","lat":37.72035,"lng":-112.06689,"zip":"84764","miles_from_dt":29.4}],"targetCityZipCode":"84712","targetCityState":"Utah"},"__N_SSG":true}