{"pageProps":{"stateName":"Utah","cityName":"brian-head","nearbyCities":[{"city":"Duck Creek Village","state_name":"Utah","lat":37.46882,"lng":-112.72644,"zip":"84762","miles_from_dt":13.08},{"city":"Summit","state_name":"Utah","lat":37.79706,"lng":-112.94168,"zip":"84772","miles_from_dt":13.57},{"city":"Parowan","state_name":"Utah","lat":37.84603,"lng":-112.87124,"zip":"84761","miles_from_dt":14.28},{"city":"Hatch","state_name":"Utah","lat":37.64627,"lng":-112.44997,"zip":"84735","miles_from_dt":17.55},{"city":"Alton","state_name":"Utah","lat":37.46925,"lng":-112.51251,"zip":"84710","miles_from_dt":19.08},{"city":"Cedar City","state_name":"Utah","lat":37.77021,"lng":-113.13308,"zip":"84721","miles_from_dt":21.43},{"city":"Paragonah","state_name":"Utah","lat":37.96299,"lng":-112.68551,"zip":"84760","miles_from_dt":21.71},{"city":"Glendale","state_name":"Utah","lat":37.35858,"lng":-112.61527,"zip":"84729","miles_from_dt":22.15},{"city":"Kanarraville","state_name":"Utah","lat":37.52102,"lng":-113.14592,"zip":"84742","miles_from_dt":22.63},{"city":"Orderville","state_name":"Utah","lat":37.27041,"lng":-112.68529,"zip":"84758","miles_from_dt":26.95},{"city":"Cedar City","state_name":"Utah","lat":37.55477,"lng":-113.25665,"zip":"84720","miles_from_dt":27.6},{"city":"Panguitch","state_name":"Utah","lat":37.92238,"lng":-112.38423,"zip":"84759","miles_from_dt":28.01},{"city":"Virgin","state_name":"Utah","lat":37.33381,"lng":-113.11869,"zip":"84779","miles_from_dt":29.31},{"city":"Mount Carmel","state_name":"Utah","lat":37.22652,"lng":-112.78532,"zip":"84755","miles_from_dt":29.58},{"city":"New Harmony","state_name":"Utah","lat":37.45227,"lng":-113.25166,"zip":"84757","miles_from_dt":29.94}],"targetCityZipCode":"84719","targetCityState":"Utah"},"__N_SSG":true}