{"pageProps":{"stateName":"Utah","cityName":"coalville","nearbyCities":[{"city":"Echo","state_name":"Utah","lat":41.00765,"lng":-111.44721,"zip":"84024","miles_from_dt":13.14},{"city":"Henefer","state_name":"Utah","lat":40.98002,"lng":-111.49148,"zip":"84033","miles_from_dt":15.04},{"city":"Peoa","state_name":"Utah","lat":40.74721,"lng":-111.3417,"zip":"84061","miles_from_dt":16},{"city":"Oakley","state_name":"Utah","lat":40.71889,"lng":-111.16106,"zip":"84055","miles_from_dt":16.45},{"city":"Croydon","state_name":"Utah","lat":41.20535,"lng":-111.42716,"zip":"84018","miles_from_dt":20.79},{"city":"Kamas","state_name":"Utah","lat":40.66022,"lng":-111.1093,"zip":"84036","miles_from_dt":20.95},{"city":"Park City","state_name":"Utah","lat":40.73988,"lng":-111.53504,"zip":"84098","miles_from_dt":22.75},{"city":"Morgan","state_name":"Utah","lat":41.02244,"lng":-111.67229,"zip":"84050","miles_from_dt":24.83},{"city":"Park City","state_name":"Utah","lat":40.67164,"lng":-111.50012,"zip":"84068","miles_from_dt":24.9},{"city":"Evanston","state_name":"Wyoming","lat":41.28886,"lng":-110.96664,"zip":"82931","miles_from_dt":26.21},{"city":"Park City","state_name":"Utah","lat":40.6418,"lng":-111.50332,"zip":"84060","miles_from_dt":26.65}],"targetCityZipCode":"84017","targetCityState":"Utah"},"__N_SSG":true}