{"pageProps":{"stateName":"Utah","cityName":"corinne","nearbyCities":[{"city":"Tremonton","state_name":"Utah","lat":41.69223,"lng":-112.28486,"zip":"84337","miles_from_dt":14.37},{"city":"Howell","state_name":"Utah","lat":41.77328,"lng":-112.44504,"zip":"84316","miles_from_dt":15.36},{"city":"Bear River City","state_name":"Utah","lat":41.61368,"lng":-112.12723,"zip":"84301","miles_from_dt":19.35},{"city":"Willard","state_name":"Utah","lat":41.39312,"lng":-112.15705,"zip":"84340","miles_from_dt":20.61},{"city":"Honeyville","state_name":"Utah","lat":41.64929,"lng":-112.09292,"zip":"84314","miles_from_dt":21.7},{"city":"Brigham City","state_name":"Utah","lat":41.57956,"lng":-112.04769,"zip":"84302","miles_from_dt":23.09},{"city":"Deweyville","state_name":"Utah","lat":41.71375,"lng":-112.09908,"zip":"84309","miles_from_dt":23.15},{"city":"Garland","state_name":"Utah","lat":41.77976,"lng":-112.15681,"zip":"84312","miles_from_dt":23.34},{"city":"Riverside","state_name":"Utah","lat":41.78955,"lng":-112.15189,"zip":"84334","miles_from_dt":23.98},{"city":"Snowville","state_name":"Utah","lat":41.87159,"lng":-112.74697,"zip":"84336","miles_from_dt":25.61},{"city":"Fielding","state_name":"Utah","lat":41.82012,"lng":-112.1106,"zip":"84311","miles_from_dt":26.98},{"city":"Collinston","state_name":"Utah","lat":41.78272,"lng":-112.06323,"zip":"84306","miles_from_dt":27.25},{"city":"Ogden","state_name":"Utah","lat":41.27198,"lng":-112.11705,"zip":"84404","miles_from_dt":27.51},{"city":"Portage","state_name":"Utah","lat":41.94354,"lng":-112.35869,"zip":"84331","miles_from_dt":27.79},{"city":"Mendon","state_name":"Utah","lat":41.73869,"lng":-111.99303,"zip":"84325","miles_from_dt":28.81},{"city":"Mantua","state_name":"Utah","lat":41.49253,"lng":-111.93868,"zip":"84324","miles_from_dt":29},{"city":"Wellsville","state_name":"Utah","lat":41.62546,"lng":-111.939,"zip":"84339","miles_from_dt":29.07},{"city":"Plymouth","state_name":"Utah","lat":41.9063,"lng":-112.17019,"zip":"84330","miles_from_dt":29.49}],"targetCityZipCode":"84307","targetCityState":"Utah"},"__N_SSG":true}