{"pageProps":{"stateName":"Utah","cityName":"helper","nearbyCities":[{"city":"Kenilworth","state_name":"Utah","lat":39.71151,"lng":-110.7733,"zip":"84529","miles_from_dt":14.54},{"city":"Price","state_name":"Utah","lat":39.53214,"lng":-110.80393,"zip":"84501","miles_from_dt":18.48},{"city":"Huntington","state_name":"Utah","lat":39.43404,"lng":-111.08778,"zip":"84528","miles_from_dt":20.13},{"city":"Fairview","state_name":"Utah","lat":39.76574,"lng":-111.44752,"zip":"84629","miles_from_dt":21.59},{"city":"Mount Pleasant","state_name":"Utah","lat":39.52708,"lng":-111.40658,"zip":"84647","miles_from_dt":23.56},{"city":"Wellington","state_name":"Utah","lat":39.64433,"lng":-110.59916,"zip":"84542","miles_from_dt":24.43},{"city":"Cleveland","state_name":"Utah","lat":39.3917,"lng":-110.88478,"zip":"84518","miles_from_dt":24.48},{"city":"Elmo","state_name":"Utah","lat":39.4213,"lng":-110.78709,"zip":"84521","miles_from_dt":25.03},{"city":"Spanish Fork","state_name":"Utah","lat":40.00724,"lng":-111.4268,"zip":"84660","miles_from_dt":28.15}],"targetCityZipCode":"84526","targetCityState":"Utah"},"__N_SSG":true}