{"pageProps":{"stateName":"Utah","cityName":"paragonah","nearbyCities":[{"city":"Parowan","state_name":"Utah","lat":37.84603,"lng":-112.87124,"zip":"84761","miles_from_dt":12.96},{"city":"Greenville","state_name":"Utah","lat":38.19714,"lng":-112.76195,"zip":"84731","miles_from_dt":16.68},{"city":"Panguitch","state_name":"Utah","lat":37.92238,"lng":-112.38423,"zip":"84759","miles_from_dt":16.69},{"city":"Summit","state_name":"Utah","lat":37.79706,"lng":-112.94168,"zip":"84772","miles_from_dt":18.08},{"city":"Brian Head","state_name":"Utah","lat":37.65532,"lng":-112.76974,"zip":"84719","miles_from_dt":21.71},{"city":"Minersville","state_name":"Utah","lat":38.24975,"lng":-112.88434,"zip":"84752","miles_from_dt":22.55},{"city":"Hatch","state_name":"Utah","lat":37.64627,"lng":-112.44997,"zip":"84735","miles_from_dt":25.36},{"city":"Beaver","state_name":"Utah","lat":38.3292,"lng":-112.54441,"zip":"84713","miles_from_dt":26.4},{"city":"Circleville","state_name":"Utah","lat":38.17611,"lng":-112.2519,"zip":"84723","miles_from_dt":27.84},{"city":"Cedar City","state_name":"Utah","lat":37.77021,"lng":-113.13308,"zip":"84721","miles_from_dt":27.85}],"targetCityZipCode":"84760","targetCityState":"Utah"},"__N_SSG":true}