{"pageProps":{"stateName":"Utah","cityName":"provo","nearbyCities":[{"city":"Provo","state_name":"Utah","lat":40.22595,"lng":-111.69935,"zip":"84603","miles_from_dt":0.2},{"city":"Provo","state_name":"Utah","lat":40.22639,"lng":-111.67731,"zip":"84605","miles_from_dt":0.96},{"city":"Provo","state_name":"Utah","lat":40.25412,"lng":-111.65009,"zip":"84602","miles_from_dt":3.09},{"city":"Orem","state_name":"Utah","lat":40.27474,"lng":-111.71468,"zip":"84058","miles_from_dt":3.52},{"city":"Provo","state_name":"Utah","lat":40.2149,"lng":-111.62619,"zip":"84606","miles_from_dt":3.74},{"city":"Orem","state_name":"Utah","lat":40.3048,"lng":-111.67318,"zip":"84097","miles_from_dt":5.57},{"city":"Vineyard","state_name":"Utah","lat":40.30353,"lng":-111.74853,"zip":"84059","miles_from_dt":6.04},{"city":"Orem","state_name":"Utah","lat":40.31427,"lng":-111.70948,"zip":"84057","miles_from_dt":6.14},{"city":"Lindon","state_name":"Utah","lat":40.34113,"lng":-111.72466,"zip":"84042","miles_from_dt":8.1},{"city":"Mapleton","state_name":"Utah","lat":40.12627,"lng":-111.57712,"zip":"84664","miles_from_dt":9.3},{"city":"Provo","state_name":"Utah","lat":40.3313,"lng":-111.57284,"zip":"84604","miles_from_dt":9.74},{"city":"Pleasant Grove","state_name":"Utah","lat":40.38586,"lng":-111.68421,"zip":"84062","miles_from_dt":11.05},{"city":"Springville","state_name":"Utah","lat":40.19266,"lng":-111.48917,"zip":"84663","miles_from_dt":11.15},{"city":"Saratoga Springs","state_name":"Utah","lat":40.28574,"lng":-111.91384,"zip":"84045","miles_from_dt":12.26},{"city":"Salem","state_name":"Utah","lat":40.04803,"lng":-111.66804,"zip":"84653","miles_from_dt":12.36},{"city":"Lehi","state_name":"Utah","lat":40.41209,"lng":-111.87377,"zip":"84043","miles_from_dt":15.93},{"city":"American Fork","state_name":"Utah","lat":40.46629,"lng":-111.69334,"zip":"84003","miles_from_dt":16.58},{"city":"Eagle Mountain","state_name":"Utah","lat":40.32277,"lng":-111.99942,"zip":"84005","miles_from_dt":17.4},{"city":"Alpine","state_name":"Utah","lat":40.48444,"lng":-111.74447,"zip":"84004","miles_from_dt":18.02},{"city":"Santaquin","state_name":"Utah","lat":39.97427,"lng":-111.80716,"zip":"84655","miles_from_dt":18.34},{"city":"Payson","state_name":"Utah","lat":39.95633,"lng":-111.69342,"zip":"84651","miles_from_dt":18.6},{"city":"Wallsburg","state_name":"Utah","lat":40.3404,"lng":-111.36184,"zip":"84082","miles_from_dt":19.32},{"city":"Spanish Fork","state_name":"Utah","lat":40.00724,"lng":-111.4268,"zip":"84660","miles_from_dt":20.74},{"city":"Draper","state_name":"Utah","lat":40.49885,"lng":-111.8635,"zip":"84020","miles_from_dt":20.81},{"city":"Cedar Valley","state_name":"Utah","lat":40.2958,"lng":-112.0913,"zip":"84013","miles_from_dt":21.47},{"city":"Midway","state_name":"Utah","lat":40.5136,"lng":-111.51657,"zip":"84049","miles_from_dt":21.98},{"city":"Goshen","state_name":"Utah","lat":39.94026,"lng":-111.89281,"zip":"84633","miles_from_dt":22.31},{"city":"Riverton","state_name":"Utah","lat":40.495,"lng":-111.9444,"zip":"84065","miles_from_dt":22.74},{"city":"Sandy","state_name":"Utah","lat":40.55803,"lng":-111.74205,"zip":"84092","miles_from_dt":23.05},{"city":"Sandy","state_name":"Utah","lat":40.57239,"lng":-111.85258,"zip":"84090","miles_from_dt":25.3},{"city":"Elberta","state_name":"Utah","lat":39.93359,"lng":-111.98545,"zip":"84626","miles_from_dt":25.36},{"city":"Sandy","state_name":"Utah","lat":40.57177,"lng":-111.86201,"zip":"84094","miles_from_dt":25.43},{"city":"Sandy","state_name":"Utah","lat":40.58465,"lng":-111.82123,"zip":"84091","miles_from_dt":25.62},{"city":"Sandy","state_name":"Utah","lat":40.57707,"lng":-111.88916,"zip":"84070","miles_from_dt":26.29},{"city":"South Jordan","state_name":"Utah","lat":40.55856,"lng":-111.94165,"zip":"84095","miles_from_dt":26.37},{"city":"Sandy","state_name":"Utah","lat":40.59473,"lng":-111.82863,"zip":"84093","miles_from_dt":26.4},{"city":"Mona","state_name":"Utah","lat":39.85159,"lng":-111.83946,"zip":"84645","miles_from_dt":26.93},{"city":"Salt Lake City","state_name":"Utah","lat":40.62557,"lng":-111.69864,"zip":"84121","miles_from_dt":27.58},{"city":"Salt Lake City","state_name":"Utah","lat":40.62058,"lng":-111.80605,"zip":"84171","miles_from_dt":27.85},{"city":"Herriman","state_name":"Utah","lat":40.50539,"lng":-112.08546,"zip":"84096","miles_from_dt":28.2},{"city":"Heber City","state_name":"Utah","lat":40.35839,"lng":-111.188,"zip":"84032","miles_from_dt":28.33},{"city":"Midvale","state_name":"Utah","lat":40.61533,"lng":-111.89176,"zip":"84047","miles_from_dt":28.79},{"city":"West Jordan","state_name":"Utah","lat":40.59507,"lng":-111.96077,"zip":"84088","miles_from_dt":29.06},{"city":"South Jordan","state_name":"Utah","lat":40.55221,"lng":-112.05362,"zip":"84009","miles_from_dt":29.39}],"targetCityZipCode":"84601","targetCityState":"Utah"},"__N_SSG":true}