{"pageProps":{"stateName":"Utah","cityName":"salt-lake-city","nearbyCities":[{"city":"Salt Lake City","state_name":"Utah","lat":40.7561,"lng":-111.89724,"zip":"84110","miles_from_dt":0.14},{"city":"Salt Lake City","state_name":"Utah","lat":40.75445,"lng":-111.89773,"zip":"84145","miles_from_dt":0.17},{"city":"Salt Lake City","state_name":"Utah","lat":40.75575,"lng":-111.88431,"zip":"84111","miles_from_dt":0.82},{"city":"Salt Lake City","state_name":"Utah","lat":40.75884,"lng":-111.88311,"zip":"84147","miles_from_dt":0.9},{"city":"Salt Lake City","state_name":"Utah","lat":40.76675,"lng":-111.88724,"zip":"84138","miles_from_dt":0.98},{"city":"Salt Lake City","state_name":"Utah","lat":40.77044,"lng":-111.9011,"zip":"84180","miles_from_dt":0.98},{"city":"Salt Lake City","state_name":"Utah","lat":40.76894,"lng":-111.88744,"zip":"84139","miles_from_dt":1.09},{"city":"Salt Lake City","state_name":"Utah","lat":40.77085,"lng":-111.89212,"zip":"84133","miles_from_dt":1.09},{"city":"Salt Lake City","state_name":"Utah","lat":40.77151,"lng":-111.89107,"zip":"84150","miles_from_dt":1.15},{"city":"Salt Lake City","state_name":"Utah","lat":40.77794,"lng":-111.88831,"zip":"84114","miles_from_dt":1.61},{"city":"Salt Lake City","state_name":"Utah","lat":40.77935,"lng":-111.88003,"zip":"84143","miles_from_dt":1.9},{"city":"Salt Lake City","state_name":"Utah","lat":40.75992,"lng":-111.86367,"zip":"84102","miles_from_dt":1.92},{"city":"Salt Lake City","state_name":"Utah","lat":40.72501,"lng":-111.88692,"zip":"84190","miles_from_dt":2.26},{"city":"Salt Lake City","state_name":"Utah","lat":40.73841,"lng":-111.85982,"zip":"84105","miles_from_dt":2.44},{"city":"Salt Lake City","state_name":"Utah","lat":40.7742,"lng":-111.94634,"zip":"84134","miles_from_dt":2.73},{"city":"Salt Lake City","state_name":"Utah","lat":40.71487,"lng":-111.89241,"zip":"84165","miles_from_dt":2.88},{"city":"Salt Lake City","state_name":"Utah","lat":40.71467,"lng":-111.89266,"zip":"84115","miles_from_dt":2.9},{"city":"Salt Lake City","state_name":"Utah","lat":40.78787,"lng":-111.93879,"zip":"84151","miles_from_dt":2.98},{"city":"Salt Lake City","state_name":"Utah","lat":40.7251,"lng":-111.93953,"zip":"84199","miles_from_dt":2.99},{"city":"Salt Lake City","state_name":"Utah","lat":40.72533,"lng":-111.85969,"zip":"84152","miles_from_dt":3},{"city":"Salt Lake City","state_name":"Utah","lat":40.7652,"lng":-111.84123,"zip":"84112","miles_from_dt":3.14},{"city":"Salt Lake City","state_name":"Utah","lat":40.76546,"lng":-111.84091,"zip":"84132","miles_from_dt":3.16},{"city":"Salt Lake City","state_name":"Utah","lat":40.75563,"lng":-111.83528,"zip":"84148","miles_from_dt":3.39},{"city":"Salt Lake City","state_name":"Utah","lat":40.76248,"lng":-111.83291,"zip":"84113","miles_from_dt":3.54},{"city":"Salt Lake City","state_name":"Utah","lat":40.70678,"lng":-111.85571,"zip":"84106","miles_from_dt":4.13},{"city":"Salt Lake City","state_name":"Utah","lat":40.8034,"lng":-111.84708,"zip":"84103","miles_from_dt":4.27},{"city":"Salt Lake City","state_name":"Utah","lat":40.79859,"lng":-111.96068,"zip":"84122","miles_from_dt":4.32},{"city":"Salt Lake City","state_name":"Utah","lat":40.74846,"lng":-111.98286,"zip":"84104","miles_from_dt":4.38},{"city":"West Valley City","state_name":"Utah","lat":40.70289,"lng":-111.94591,"zip":"84119","miles_from_dt":4.4},{"city":"Salt Lake City","state_name":"Utah","lat":40.73967,"lng":-111.81768,"zip":"84158","miles_from_dt":4.47},{"city":"Salt Lake City","state_name":"Utah","lat":40.70155,"lng":-111.94591,"zip":"84125","miles_from_dt":4.48},{"city":"Salt Lake City","state_name":"Utah","lat":40.70016,"lng":-111.94452,"zip":"84131","miles_from_dt":4.52},{"city":"Salt Lake City","state_name":"Utah","lat":40.70049,"lng":-111.94572,"zip":"84127","miles_from_dt":4.54},{"city":"Salt Lake City","state_name":"Utah","lat":40.70077,"lng":-111.94711,"zip":"84130","miles_from_dt":4.56},{"city":"Salt Lake City","state_name":"Utah","lat":40.70011,"lng":-111.94852,"zip":"84126","miles_from_dt":4.64},{"city":"North Salt Lake","state_name":"Utah","lat":40.84078,"lng":-111.91754,"zip":"84054","miles_from_dt":5.9},{"city":"Salt Lake City","state_name":"Utah","lat":40.67948,"lng":-111.95481,"zip":"84184","miles_from_dt":6.03},{"city":"Salt Lake City","state_name":"Utah","lat":40.66813,"lng":-111.86141,"zip":"84141","miles_from_dt":6.41},{"city":"Salt Lake City","state_name":"Utah","lat":40.66069,"lng":-111.88486,"zip":"84157","miles_from_dt":6.64},{"city":"West Valley City","state_name":"Utah","lat":40.69686,"lng":-112.00178,"zip":"84120","miles_from_dt":6.74},{"city":"Salt Lake City","state_name":"Utah","lat":40.65799,"lng":-111.88447,"zip":"84107","miles_from_dt":6.83},{"city":"Salt Lake City","state_name":"Utah","lat":40.65837,"lng":-111.92177,"zip":"84123","miles_from_dt":6.85},{"city":"Salt Lake City","state_name":"Utah","lat":40.70124,"lng":-112.01077,"zip":"84170","miles_from_dt":6.95},{"city":"Salt Lake City","state_name":"Utah","lat":40.66167,"lng":-111.83561,"zip":"84117","miles_from_dt":7.35},{"city":"Salt Lake City","state_name":"Utah","lat":40.67113,"lng":-111.80705,"zip":"84124","miles_from_dt":7.64},{"city":"Salt Lake City","state_name":"Utah","lat":40.6536,"lng":-111.96209,"zip":"84129","miles_from_dt":7.8},{"city":"Salt Lake City","state_name":"Utah","lat":40.83258,"lng":-112.01691,"zip":"84116","miles_from_dt":8.08},{"city":"West Valley City","state_name":"Utah","lat":40.70518,"lng":-112.04259,"zip":"84128","miles_from_dt":8.28},{"city":"Bountiful","state_name":"Utah","lat":40.87566,"lng":-111.86562,"zip":"84011","miles_from_dt":8.43},{"city":"Salt Lake City","state_name":"Utah","lat":40.78811,"lng":-111.7365,"zip":"84108","miles_from_dt":8.85},{"city":"Bountiful","state_name":"Utah","lat":40.87433,"lng":-111.83042,"zip":"84010","miles_from_dt":8.92},{"city":"Woods Cross","state_name":"Utah","lat":40.8891,"lng":-111.92898,"zip":"84087","miles_from_dt":9.29},{"city":"Midvale","state_name":"Utah","lat":40.61533,"lng":-111.89176,"zip":"84047","miles_from_dt":9.74},{"city":"West Jordan","state_name":"Utah","lat":40.62139,"lng":-111.96603,"zip":"84084","miles_from_dt":9.93},{"city":"Salt Lake City","state_name":"Utah","lat":40.65598,"lng":-112.03812,"zip":"84118","miles_from_dt":10.03},{"city":"Salt Lake City","state_name":"Utah","lat":40.62058,"lng":-111.80605,"zip":"84171","miles_from_dt":10.58},{"city":"Salt Lake City","state_name":"Utah","lat":40.70196,"lng":-111.7051,"zip":"84109","miles_from_dt":10.89},{"city":"West Jordan","state_name":"Utah","lat":40.59507,"lng":-111.96077,"zip":"84088","miles_from_dt":11.57},{"city":"Sandy","state_name":"Utah","lat":40.59473,"lng":-111.82863,"zip":"84093","miles_from_dt":11.76},{"city":"Sandy","state_name":"Utah","lat":40.57707,"lng":-111.88916,"zip":"84070","miles_from_dt":12.38},{"city":"Centerville","state_name":"Utah","lat":40.93311,"lng":-111.85308,"zip":"84014","miles_from_dt":12.45},{"city":"Sandy","state_name":"Utah","lat":40.58465,"lng":-111.82123,"zip":"84091","miles_from_dt":12.54},{"city":"West Jordan","state_name":"Utah","lat":40.60275,"lng":-112.03821,"zip":"84081","miles_from_dt":12.84},{"city":"Sandy","state_name":"Utah","lat":40.57177,"lng":-111.86201,"zip":"84094","miles_from_dt":12.89},{"city":"Sandy","state_name":"Utah","lat":40.57239,"lng":-111.85258,"zip":"84090","miles_from_dt":12.93},{"city":"Magna","state_name":"Utah","lat":40.73,"lng":-112.1474,"zip":"84044","miles_from_dt":13.11},{"city":"South Jordan","state_name":"Utah","lat":40.55856,"lng":-111.94165,"zip":"84095","miles_from_dt":13.82},{"city":"Salt Lake City","state_name":"Utah","lat":40.62557,"lng":-111.69864,"zip":"84121","miles_from_dt":13.9},{"city":"Farmington","state_name":"Utah","lat":40.97667,"lng":-111.89874,"zip":"84025","miles_from_dt":15.21},{"city":"Sandy","state_name":"Utah","lat":40.55803,"lng":-111.74205,"zip":"84092","miles_from_dt":16},{"city":"Bingham Canyon","state_name":"Utah","lat":40.59682,"lng":-112.12373,"zip":"84006","miles_from_dt":16.1},{"city":"South Jordan","state_name":"Utah","lat":40.55221,"lng":-112.05362,"zip":"84009","miles_from_dt":16.23},{"city":"Kaysville","state_name":"Utah","lat":40.99281,"lng":-111.91444,"zip":"84037","miles_from_dt":16.34},{"city":"Draper","state_name":"Utah","lat":40.49885,"lng":-111.8635,"zip":"84020","miles_from_dt":17.87},{"city":"Riverton","state_name":"Utah","lat":40.495,"lng":-111.9444,"zip":"84065","miles_from_dt":18.18},{"city":"Park City","state_name":"Utah","lat":40.73988,"lng":-111.53504,"zip":"84098","miles_from_dt":19.18},{"city":"Herriman","state_name":"Utah","lat":40.50539,"lng":-112.08546,"zip":"84096","miles_from_dt":19.87},{"city":"Alpine","state_name":"Utah","lat":40.48444,"lng":-111.74447,"zip":"84004","miles_from_dt":20.46},{"city":"Park City","state_name":"Utah","lat":40.67164,"lng":-111.50012,"zip":"84068","miles_from_dt":21.79},{"city":"Morgan","state_name":"Utah","lat":41.02244,"lng":-111.67229,"zip":"84050","miles_from_dt":21.9},{"city":"Layton","state_name":"Utah","lat":41.07137,"lng":-111.98416,"zip":"84041","miles_from_dt":22.18},{"city":"Park City","state_name":"Utah","lat":40.6418,"lng":-111.50332,"zip":"84060","miles_from_dt":22.28},{"city":"Syracuse","state_name":"Utah","lat":41.05975,"lng":-112.06933,"zip":"84075","miles_from_dt":22.74},{"city":"American Fork","state_name":"Utah","lat":40.46629,"lng":-111.69334,"zip":"84003","miles_from_dt":22.77},{"city":"Layton","state_name":"Utah","lat":41.09121,"lng":-111.89674,"zip":"84040","miles_from_dt":23.11},{"city":"Lehi","state_name":"Utah","lat":40.41209,"lng":-111.87377,"zip":"84043","miles_from_dt":23.79},{"city":"Tooele","state_name":"Utah","lat":40.57379,"lng":-112.29914,"zip":"84074","miles_from_dt":24.46},{"city":"Clearfield","state_name":"Utah","lat":41.10437,"lng":-112.02069,"zip":"84016","miles_from_dt":24.84},{"city":"Clearfield","state_name":"Utah","lat":41.11073,"lng":-112.02496,"zip":"84089","miles_from_dt":25.32},{"city":"Hill Afb","state_name":"Utah","lat":41.12679,"lng":-111.99084,"zip":"84056","miles_from_dt":26.01},{"city":"Midway","state_name":"Utah","lat":40.5136,"lng":-111.51657,"zip":"84049","miles_from_dt":26.2},{"city":"Henefer","state_name":"Utah","lat":40.98002,"lng":-111.49148,"zip":"84033","miles_from_dt":26.39},{"city":"Clearfield","state_name":"Utah","lat":41.12073,"lng":-112.06129,"zip":"84015","miles_from_dt":26.53},{"city":"Ogden","state_name":"Utah","lat":41.15747,"lng":-111.96499,"zip":"84405","miles_from_dt":27.89},{"city":"Pleasant Grove","state_name":"Utah","lat":40.38586,"lng":-111.68421,"zip":"84062","miles_from_dt":27.97},{"city":"Peoa","state_name":"Utah","lat":40.74721,"lng":-111.3417,"zip":"84061","miles_from_dt":29.3},{"city":"Echo","state_name":"Utah","lat":41.00765,"lng":-111.44721,"zip":"84024","miles_from_dt":29.38},{"city":"Roy","state_name":"Utah","lat":41.17189,"lng":-112.04803,"zip":"84067","miles_from_dt":29.71},{"city":"Ogden","state_name":"Utah","lat":41.18928,"lng":-111.94657,"zip":"84409","miles_from_dt":29.98}],"targetCityZipCode":"84101","targetCityState":"Utah"},"__N_SSG":true}