{"pageProps":{"stateName":"Utah","cityName":"virgin","nearbyCities":[{"city":"Toquerville","state_name":"Utah","lat":37.24324,"lng":-113.28089,"zip":"84774","miles_from_dt":10.9},{"city":"New Harmony","state_name":"Utah","lat":37.45227,"lng":-113.25166,"zip":"84757","miles_from_dt":10.97},{"city":"Springdale","state_name":"Utah","lat":37.20152,"lng":-112.9858,"zip":"84767","miles_from_dt":11.7},{"city":"La Verkin","state_name":"Utah","lat":37.20838,"lng":-113.26266,"zip":"84745","miles_from_dt":11.74},{"city":"Kanarraville","state_name":"Utah","lat":37.52102,"lng":-113.14592,"zip":"84742","miles_from_dt":13},{"city":"Rockville","state_name":"Utah","lat":37.14667,"lng":-113.06947,"zip":"84763","miles_from_dt":13.19},{"city":"Leeds","state_name":"Utah","lat":37.23867,"lng":-113.35055,"zip":"84746","miles_from_dt":14.36},{"city":"Cedar City","state_name":"Utah","lat":37.55477,"lng":-113.25665,"zip":"84720","miles_from_dt":17.02},{"city":"Hurricane","state_name":"Utah","lat":37.08321,"lng":-113.26032,"zip":"84737","miles_from_dt":18.97},{"city":"Mount Carmel","state_name":"Utah","lat":37.22652,"lng":-112.78532,"zip":"84755","miles_from_dt":19.8},{"city":"Pine Valley","state_name":"Utah","lat":37.41197,"lng":-113.47217,"zip":"84781","miles_from_dt":20.19},{"city":"Hildale","state_name":"Utah","lat":37.01858,"lng":-112.96941,"zip":"84784","miles_from_dt":23.25},{"city":"Duck Creek Village","state_name":"Utah","lat":37.46882,"lng":-112.72644,"zip":"84762","miles_from_dt":23.5},{"city":"Orderville","state_name":"Utah","lat":37.27041,"lng":-112.68529,"zip":"84758","miles_from_dt":24.27},{"city":"Washington","state_name":"Utah","lat":37.12798,"lng":-113.48108,"zip":"84780","miles_from_dt":24.51},{"city":"Saint George","state_name":"Utah","lat":37.13348,"lng":-113.49006,"zip":"84771","miles_from_dt":24.7},{"city":"Central","state_name":"Utah","lat":37.48553,"lng":-113.57582,"zip":"84722","miles_from_dt":27.24},{"city":"Glendale","state_name":"Utah","lat":37.35858,"lng":-112.61527,"zip":"84729","miles_from_dt":27.77},{"city":"Colorado City","state_name":"Arizona","lat":36.92707,"lng":-113.10205,"zip":"86021","miles_from_dt":28.06},{"city":"Brian Head","state_name":"Utah","lat":37.65532,"lng":-112.76974,"zip":"84719","miles_from_dt":29.31},{"city":"Saint George","state_name":"Utah","lat":37.08728,"lng":-113.55608,"zip":"84791","miles_from_dt":29.51},{"city":"Dammeron Valley","state_name":"Utah","lat":37.28556,"lng":-113.65639,"zip":"84783","miles_from_dt":29.81}],"targetCityZipCode":"84779","targetCityState":"Utah"},"__N_SSG":true}