{"pageProps":{"stateName":"Utah","cityName":"west-jordan","nearbyCities":[{"city":"South Jordan","state_name":"Utah","lat":40.55221,"lng":-112.05362,"zip":"84009","miles_from_dt":3.58},{"city":"Salt Lake City","state_name":"Utah","lat":40.65598,"lng":-112.03812,"zip":"84118","miles_from_dt":3.67},{"city":"West Jordan","state_name":"Utah","lat":40.62139,"lng":-111.96603,"zip":"84084","miles_from_dt":4.01},{"city":"West Jordan","state_name":"Utah","lat":40.59507,"lng":-111.96077,"zip":"84088","miles_from_dt":4.11},{"city":"Bingham Canyon","state_name":"Utah","lat":40.59682,"lng":-112.12373,"zip":"84006","miles_from_dt":4.52},{"city":"Salt Lake City","state_name":"Utah","lat":40.6536,"lng":-111.96209,"zip":"84129","miles_from_dt":5.32},{"city":"South Jordan","state_name":"Utah","lat":40.55856,"lng":-111.94165,"zip":"84095","miles_from_dt":5.92},{"city":"West Valley City","state_name":"Utah","lat":40.69686,"lng":-112.00178,"zip":"84120","miles_from_dt":6.77},{"city":"Salt Lake City","state_name":"Utah","lat":40.67948,"lng":-111.95481,"zip":"84184","miles_from_dt":6.87},{"city":"Salt Lake City","state_name":"Utah","lat":40.70124,"lng":-112.01077,"zip":"84170","miles_from_dt":6.95},{"city":"West Valley City","state_name":"Utah","lat":40.70518,"lng":-112.04259,"zip":"84128","miles_from_dt":7.07},{"city":"Herriman","state_name":"Utah","lat":40.50539,"lng":-112.08546,"zip":"84096","miles_from_dt":7.16},{"city":"Salt Lake City","state_name":"Utah","lat":40.65837,"lng":-111.92177,"zip":"84123","miles_from_dt":7.22},{"city":"Midvale","state_name":"Utah","lat":40.61533,"lng":-111.89176,"zip":"84047","miles_from_dt":7.75},{"city":"Sandy","state_name":"Utah","lat":40.57707,"lng":-111.88916,"zip":"84070","miles_from_dt":8.04},{"city":"Salt Lake City","state_name":"Utah","lat":40.70011,"lng":-111.94852,"zip":"84126","miles_from_dt":8.21},{"city":"Salt Lake City","state_name":"Utah","lat":40.70077,"lng":-111.94711,"zip":"84130","miles_from_dt":8.29},{"city":"Salt Lake City","state_name":"Utah","lat":40.70049,"lng":-111.94572,"zip":"84127","miles_from_dt":8.31},{"city":"Salt Lake City","state_name":"Utah","lat":40.70016,"lng":-111.94452,"zip":"84131","miles_from_dt":8.33},{"city":"Salt Lake City","state_name":"Utah","lat":40.70155,"lng":-111.94591,"zip":"84125","miles_from_dt":8.37},{"city":"West Valley City","state_name":"Utah","lat":40.70289,"lng":-111.94591,"zip":"84119","miles_from_dt":8.44},{"city":"Riverton","state_name":"Utah","lat":40.495,"lng":-111.9444,"zip":"84065","miles_from_dt":8.93},{"city":"Salt Lake City","state_name":"Utah","lat":40.65799,"lng":-111.88447,"zip":"84107","miles_from_dt":8.94},{"city":"Salt Lake City","state_name":"Utah","lat":40.66069,"lng":-111.88486,"zip":"84157","miles_from_dt":9},{"city":"Sandy","state_name":"Utah","lat":40.57177,"lng":-111.86201,"zip":"84094","miles_from_dt":9.51},{"city":"Salt Lake City","state_name":"Utah","lat":40.7251,"lng":-111.93953,"zip":"84199","miles_from_dt":9.91},{"city":"Sandy","state_name":"Utah","lat":40.57239,"lng":-111.85258,"zip":"84090","miles_from_dt":9.99},{"city":"Salt Lake City","state_name":"Utah","lat":40.66813,"lng":-111.86141,"zip":"84141","miles_from_dt":10.33},{"city":"Salt Lake City","state_name":"Utah","lat":40.74846,"lng":-111.98286,"zip":"84104","miles_from_dt":10.47},{"city":"Magna","state_name":"Utah","lat":40.73,"lng":-112.1474,"zip":"84044","miles_from_dt":10.49},{"city":"Salt Lake City","state_name":"Utah","lat":40.71467,"lng":-111.89266,"zip":"84115","miles_from_dt":10.87},{"city":"Salt Lake City","state_name":"Utah","lat":40.71487,"lng":-111.89241,"zip":"84165","miles_from_dt":10.89},{"city":"Sandy","state_name":"Utah","lat":40.59473,"lng":-111.82863,"zip":"84093","miles_from_dt":11.04},{"city":"Salt Lake City","state_name":"Utah","lat":40.66167,"lng":-111.83561,"zip":"84117","miles_from_dt":11.4},{"city":"Sandy","state_name":"Utah","lat":40.58465,"lng":-111.82123,"zip":"84091","miles_from_dt":11.48},{"city":"Salt Lake City","state_name":"Utah","lat":40.72501,"lng":-111.88692,"zip":"84190","miles_from_dt":11.59},{"city":"Draper","state_name":"Utah","lat":40.49885,"lng":-111.8635,"zip":"84020","miles_from_dt":11.66},{"city":"Salt Lake City","state_name":"Utah","lat":40.70678,"lng":-111.85571,"zip":"84106","miles_from_dt":11.98},{"city":"Salt Lake City","state_name":"Utah","lat":40.62058,"lng":-111.80605,"zip":"84171","miles_from_dt":12.27},{"city":"Salt Lake City","state_name":"Utah","lat":40.72533,"lng":-111.85969,"zip":"84152","miles_from_dt":12.63},{"city":"Salt Lake City","state_name":"Utah","lat":40.7742,"lng":-111.94634,"zip":"84134","miles_from_dt":12.78},{"city":"Salt Lake City","state_name":"Utah","lat":40.75445,"lng":-111.89773,"zip":"84145","miles_from_dt":12.81},{"city":"Salt Lake City","state_name":"Utah","lat":40.75628,"lng":-111.89996,"zip":"84101","miles_from_dt":12.84},{"city":"Salt Lake City","state_name":"Utah","lat":40.7561,"lng":-111.89724,"zip":"84110","miles_from_dt":12.92},{"city":"Salt Lake City","state_name":"Utah","lat":40.67113,"lng":-111.80705,"zip":"84124","miles_from_dt":13.03},{"city":"Salt Lake City","state_name":"Utah","lat":40.73841,"lng":-111.85982,"zip":"84105","miles_from_dt":13.25},{"city":"Salt Lake City","state_name":"Utah","lat":40.75575,"lng":-111.88431,"zip":"84111","miles_from_dt":13.3},{"city":"Salt Lake City","state_name":"Utah","lat":40.75884,"lng":-111.88311,"zip":"84147","miles_from_dt":13.51},{"city":"Salt Lake City","state_name":"Utah","lat":40.77044,"lng":-111.9011,"zip":"84180","miles_from_dt":13.63},{"city":"Salt Lake City","state_name":"Utah","lat":40.78787,"lng":-111.93879,"zip":"84151","miles_from_dt":13.8},{"city":"Salt Lake City","state_name":"Utah","lat":40.76675,"lng":-111.88724,"zip":"84138","miles_from_dt":13.82},{"city":"Tooele","state_name":"Utah","lat":40.57379,"lng":-112.29914,"zip":"84074","miles_from_dt":13.87},{"city":"Salt Lake City","state_name":"Utah","lat":40.77085,"lng":-111.89212,"zip":"84133","miles_from_dt":13.91},{"city":"Salt Lake City","state_name":"Utah","lat":40.76894,"lng":-111.88744,"zip":"84139","miles_from_dt":13.94},{"city":"Salt Lake City","state_name":"Utah","lat":40.77151,"lng":-111.89107,"zip":"84150","miles_from_dt":13.98},{"city":"Salt Lake City","state_name":"Utah","lat":40.79859,"lng":-111.96068,"zip":"84122","miles_from_dt":14.11},{"city":"Salt Lake City","state_name":"Utah","lat":40.75992,"lng":-111.86367,"zip":"84102","miles_from_dt":14.2},{"city":"Salt Lake City","state_name":"Utah","lat":40.77794,"lng":-111.88831,"zip":"84114","miles_from_dt":14.43},{"city":"Salt Lake City","state_name":"Utah","lat":40.77935,"lng":-111.88003,"zip":"84143","miles_from_dt":14.75},{"city":"Salt Lake City","state_name":"Utah","lat":40.73967,"lng":-111.81768,"zip":"84158","miles_from_dt":14.95},{"city":"Salt Lake City","state_name":"Utah","lat":40.75563,"lng":-111.83528,"zip":"84148","miles_from_dt":15},{"city":"Salt Lake City","state_name":"Utah","lat":40.7652,"lng":-111.84123,"zip":"84112","miles_from_dt":15.25},{"city":"Salt Lake City","state_name":"Utah","lat":40.76546,"lng":-111.84091,"zip":"84132","miles_from_dt":15.28},{"city":"Salt Lake City","state_name":"Utah","lat":40.76248,"lng":-111.83291,"zip":"84113","miles_from_dt":15.42},{"city":"Lehi","state_name":"Utah","lat":40.41209,"lng":-111.87377,"zip":"84043","miles_from_dt":15.75},{"city":"Sandy","state_name":"Utah","lat":40.55803,"lng":-111.74205,"zip":"84092","miles_from_dt":15.88},{"city":"Salt Lake City","state_name":"Utah","lat":40.83258,"lng":-112.01691,"zip":"84116","miles_from_dt":15.9},{"city":"Salt Lake City","state_name":"Utah","lat":40.8034,"lng":-111.84708,"zip":"84103","miles_from_dt":17.1},{"city":"Alpine","state_name":"Utah","lat":40.48444,"lng":-111.74447,"zip":"84004","miles_from_dt":17.48},{"city":"North Salt Lake","state_name":"Utah","lat":40.84078,"lng":-111.91754,"zip":"84054","miles_from_dt":17.6},{"city":"Salt Lake City","state_name":"Utah","lat":40.62557,"lng":-111.69864,"zip":"84121","miles_from_dt":17.92},{"city":"Salt Lake City","state_name":"Utah","lat":40.70196,"lng":-111.7051,"zip":"84109","miles_from_dt":18.8},{"city":"Eagle Mountain","state_name":"Utah","lat":40.32277,"lng":-111.99942,"zip":"84005","miles_from_dt":19.43},{"city":"Stockton","state_name":"Utah","lat":40.4191,"lng":-112.32475,"zip":"84071","miles_from_dt":19.71},{"city":"Salt Lake City","state_name":"Utah","lat":40.78811,"lng":-111.7365,"zip":"84108","miles_from_dt":20.36},{"city":"American Fork","state_name":"Utah","lat":40.46629,"lng":-111.69334,"zip":"84003","miles_from_dt":20.45},{"city":"Woods Cross","state_name":"Utah","lat":40.8891,"lng":-111.92898,"zip":"84087","miles_from_dt":20.57},{"city":"Bountiful","state_name":"Utah","lat":40.87566,"lng":-111.86562,"zip":"84011","miles_from_dt":20.9},{"city":"Cedar Valley","state_name":"Utah","lat":40.2958,"lng":-112.0913,"zip":"84013","miles_from_dt":21.36},{"city":"Bountiful","state_name":"Utah","lat":40.87433,"lng":-111.83042,"zip":"84010","miles_from_dt":21.68},{"city":"Saratoga Springs","state_name":"Utah","lat":40.28574,"lng":-111.91384,"zip":"84045","miles_from_dt":22.83},{"city":"Pleasant Grove","state_name":"Utah","lat":40.38586,"lng":-111.68421,"zip":"84062","miles_from_dt":23.91},{"city":"Lindon","state_name":"Utah","lat":40.34113,"lng":-111.72466,"zip":"84042","miles_from_dt":24.47},{"city":"Centerville","state_name":"Utah","lat":40.93311,"lng":-111.85308,"zip":"84014","miles_from_dt":24.78},{"city":"Vineyard","state_name":"Utah","lat":40.30353,"lng":-111.74853,"zip":"84059","miles_from_dt":25.68},{"city":"Orem","state_name":"Utah","lat":40.31427,"lng":-111.70948,"zip":"84057","miles_from_dt":26.39},{"city":"Farmington","state_name":"Utah","lat":40.97667,"lng":-111.89874,"zip":"84025","miles_from_dt":26.82},{"city":"Kaysville","state_name":"Utah","lat":40.99281,"lng":-111.91444,"zip":"84037","miles_from_dt":27.69},{"city":"Park City","state_name":"Utah","lat":40.73988,"lng":-111.53504,"zip":"84098","miles_from_dt":28.08},{"city":"Midway","state_name":"Utah","lat":40.5136,"lng":-111.51657,"zip":"84049","miles_from_dt":28.13},{"city":"Orem","state_name":"Utah","lat":40.3048,"lng":-111.67318,"zip":"84097","miles_from_dt":28.16},{"city":"Park City","state_name":"Utah","lat":40.6418,"lng":-111.50332,"zip":"84060","miles_from_dt":28.25},{"city":"Orem","state_name":"Utah","lat":40.27474,"lng":-111.71468,"zip":"84058","miles_from_dt":28.34},{"city":"Park City","state_name":"Utah","lat":40.67164,"lng":-111.50012,"zip":"84068","miles_from_dt":28.68},{"city":"Rush Valley","state_name":"Utah","lat":40.36521,"lng":-112.48548,"zip":"84069","miles_from_dt":28.7}],"targetCityZipCode":"84081","targetCityState":"Utah"},"__N_SSG":true}