{"pageProps":{"stateName":"Nebraska","cityName":"ansley","nearbyCities":[{"city":"Westerville","state_name":"Nebraska","lat":41.43472,"lng":-99.35957,"zip":"68881","miles_from_dt":9.09},{"city":"Mason City","state_name":"Nebraska","lat":41.16248,"lng":-99.32635,"zip":"68855","miles_from_dt":10.99},{"city":"Broken Bow","state_name":"Nebraska","lat":41.38899,"lng":-99.62766,"zip":"68822","miles_from_dt":12.6},{"city":"Arcadia","state_name":"Nebraska","lat":41.42941,"lng":-99.16045,"zip":"68815","miles_from_dt":15.43},{"city":"Litchfield","state_name":"Nebraska","lat":41.1672,"lng":-99.14628,"zip":"68852","miles_from_dt":16.86},{"city":"Comstock","state_name":"Nebraska","lat":41.55626,"lng":-99.24776,"zip":"68828","miles_from_dt":19.06},{"city":"Loup City","state_name":"Nebraska","lat":41.28975,"lng":-98.98616,"zip":"68853","miles_from_dt":22.11},{"city":"Sargent","state_name":"Nebraska","lat":41.63368,"lng":-99.42635,"zip":"68874","miles_from_dt":22.45},{"city":"Sumner","state_name":"Nebraska","lat":40.98623,"lng":-99.50567,"zip":"68878","miles_from_dt":22.8},{"city":"Oconto","state_name":"Nebraska","lat":41.13378,"lng":-99.79167,"zip":"68860","miles_from_dt":23.25},{"city":"Eddyville","state_name":"Nebraska","lat":41.01834,"lng":-99.65049,"zip":"68834","miles_from_dt":23.63},{"city":"Miller","state_name":"Nebraska","lat":40.96171,"lng":-99.37797,"zip":"68858","miles_from_dt":24},{"city":"Merna","state_name":"Nebraska","lat":41.50167,"lng":-99.8168,"zip":"68856","miles_from_dt":24.98},{"city":"Hazard","state_name":"Nebraska","lat":41.05659,"lng":-99.05938,"zip":"68844","miles_from_dt":25.24},{"city":"Pleasanton","state_name":"Nebraska","lat":40.96873,"lng":-99.12297,"zip":"68866","miles_from_dt":27.83},{"city":"Callaway","state_name":"Nebraska","lat":41.27347,"lng":-99.95758,"zip":"68825","miles_from_dt":28.59},{"city":"Amherst","state_name":"Nebraska","lat":40.9051,"lng":-99.279,"zip":"68812","miles_from_dt":28.67}],"targetCityZipCode":"68814","targetCityState":"Nebraska"},"__N_SSG":true}