{"pageProps":{"stateName":"Nebraska","cityName":"broken-bow","nearbyCities":[{"city":"Merna","state_name":"Nebraska","lat":41.50167,"lng":-99.8168,"zip":"68856","miles_from_dt":12.53},{"city":"Ansley","state_name":"Nebraska","lat":41.3086,"lng":-99.4102,"zip":"68814","miles_from_dt":12.6},{"city":"Westerville","state_name":"Nebraska","lat":41.43472,"lng":-99.35957,"zip":"68881","miles_from_dt":14.28},{"city":"Callaway","state_name":"Nebraska","lat":41.27347,"lng":-99.95758,"zip":"68825","miles_from_dt":18.92},{"city":"Oconto","state_name":"Nebraska","lat":41.13378,"lng":-99.79167,"zip":"68860","miles_from_dt":19.57},{"city":"Sargent","state_name":"Nebraska","lat":41.63368,"lng":-99.42635,"zip":"68874","miles_from_dt":19.85},{"city":"Mason City","state_name":"Nebraska","lat":41.16248,"lng":-99.32635,"zip":"68855","miles_from_dt":22.14},{"city":"Comstock","state_name":"Nebraska","lat":41.55626,"lng":-99.24776,"zip":"68828","miles_from_dt":22.85},{"city":"Anselmo","state_name":"Nebraska","lat":41.70477,"lng":-99.8355,"zip":"68813","miles_from_dt":24.31},{"city":"Arcadia","state_name":"Nebraska","lat":41.42941,"lng":-99.16045,"zip":"68815","miles_from_dt":24.43},{"city":"Eddyville","state_name":"Nebraska","lat":41.01834,"lng":-99.65049,"zip":"68834","miles_from_dt":25.61},{"city":"Sumner","state_name":"Nebraska","lat":40.98623,"lng":-99.50567,"zip":"68878","miles_from_dt":28.51},{"city":"Litchfield","state_name":"Nebraska","lat":41.1672,"lng":-99.14628,"zip":"68852","miles_from_dt":29.36}],"targetCityZipCode":"68822","targetCityState":"Nebraska"},"__N_SSG":true}