{"pageProps":{"stateName":"Nebraska","cityName":"cedar-bluffs","nearbyCities":[{"city":"Colon","state_name":"Nebraska","lat":41.30207,"lng":-96.61573,"zip":"68018","miles_from_dt":5.86},{"city":"Ames","state_name":"Nebraska","lat":41.48963,"lng":-96.63911,"zip":"68621","miles_from_dt":7.34},{"city":"Morse Bluff","state_name":"Nebraska","lat":41.40482,"lng":-96.78949,"zip":"68648","miles_from_dt":7.53},{"city":"Malmo","state_name":"Nebraska","lat":41.28555,"lng":-96.73815,"zip":"68040","miles_from_dt":8.25},{"city":"Fremont","state_name":"Nebraska","lat":41.43749,"lng":-96.49158,"zip":"68025","miles_from_dt":8.91},{"city":"Fremont","state_name":"Nebraska","lat":41.44032,"lng":-96.48975,"zip":"68026","miles_from_dt":9.08},{"city":"North Bend","state_name":"Nebraska","lat":41.50784,"lng":-96.78896,"zip":"68649","miles_from_dt":11.3},{"city":"Prague","state_name":"Nebraska","lat":41.30593,"lng":-96.84303,"zip":"68050","miles_from_dt":11.5},{"city":"Mead","state_name":"Nebraska","lat":41.23633,"lng":-96.48793,"zip":"68041","miles_from_dt":13.11},{"city":"Wahoo","state_name":"Nebraska","lat":41.18451,"lng":-96.61996,"zip":"68066","miles_from_dt":13.81},{"city":"Nickerson","state_name":"Nebraska","lat":41.54798,"lng":-96.44871,"zip":"68044","miles_from_dt":15.34},{"city":"Valley","state_name":"Nebraska","lat":41.34925,"lng":-96.35545,"zip":"68064","miles_from_dt":15.36},{"city":"Weston","state_name":"Nebraska","lat":41.1924,"lng":-96.79973,"zip":"68070","miles_from_dt":15.39},{"city":"Linwood","state_name":"Nebraska","lat":41.39031,"lng":-96.95086,"zip":"68036","miles_from_dt":15.78},{"city":"Yutan","state_name":"Nebraska","lat":41.23931,"lng":-96.40931,"zip":"68073","miles_from_dt":15.89},{"city":"Abie","state_name":"Nebraska","lat":41.33369,"lng":-96.95489,"zip":"68001","miles_from_dt":16.35},{"city":"Winslow","state_name":"Nebraska","lat":41.61016,"lng":-96.50473,"zip":"68072","miles_from_dt":17.3},{"city":"Bruno","state_name":"Nebraska","lat":41.28219,"lng":-96.96458,"zip":"68014","miles_from_dt":17.92},{"city":"Arlington","state_name":"Nebraska","lat":41.50163,"lng":-96.33975,"zip":"68002","miles_from_dt":17.93},{"city":"Ithaca","state_name":"Nebraska","lat":41.12933,"lng":-96.52425,"zip":"68033","miles_from_dt":18.68},{"city":"Hooper","state_name":"Nebraska","lat":41.64041,"lng":-96.53046,"zip":"68031","miles_from_dt":18.74},{"city":"Rogers","state_name":"Nebraska","lat":41.54388,"lng":-96.94438,"zip":"68659","miles_from_dt":18.98},{"city":"Scribner","state_name":"Nebraska","lat":41.65888,"lng":-96.71893,"zip":"68057","miles_from_dt":19.36},{"city":"Waterloo","state_name":"Nebraska","lat":41.24166,"lng":-96.31542,"zip":"68069","miles_from_dt":19.85},{"city":"Elkhorn","state_name":"Nebraska","lat":41.27744,"lng":-96.24558,"zip":"68022","miles_from_dt":22.14},{"city":"Ceresco","state_name":"Nebraska","lat":41.05938,"lng":-96.66179,"zip":"68017","miles_from_dt":22.38},{"city":"Kennard","state_name":"Nebraska","lat":41.45558,"lng":-96.2203,"zip":"68034","miles_from_dt":22.74},{"city":"Memphis","state_name":"Nebraska","lat":41.09426,"lng":-96.43683,"zip":"68042","miles_from_dt":22.78},{"city":"Washington","state_name":"Nebraska","lat":41.39759,"lng":-96.20741,"zip":"68068","miles_from_dt":22.89},{"city":"Brainard","state_name":"Nebraska","lat":41.16821,"lng":-96.9921,"zip":"68626","miles_from_dt":23.3},{"city":"Snyder","state_name":"Nebraska","lat":41.70453,"lng":-96.78694,"zip":"68664","miles_from_dt":23.31},{"city":"Bennington","state_name":"Nebraska","lat":41.37184,"lng":-96.19524,"zip":"68007","miles_from_dt":23.52},{"city":"Valparaiso","state_name":"Nebraska","lat":41.0766,"lng":-96.84854,"zip":"68065","miles_from_dt":23.63},{"city":"Schuyler","state_name":"Nebraska","lat":41.49559,"lng":-97.08347,"zip":"68661","miles_from_dt":23.93},{"city":"Uehling","state_name":"Nebraska","lat":41.72124,"lng":-96.49345,"zip":"68063","miles_from_dt":24.64},{"city":"Ashland","state_name":"Nebraska","lat":41.07161,"lng":-96.38013,"zip":"68003","miles_from_dt":25.63},{"city":"Omaha","state_name":"Nebraska","lat":41.23394,"lng":-96.19613,"zip":"68130","miles_from_dt":25.65},{"city":"Omaha","state_name":"Nebraska","lat":41.29842,"lng":-96.16629,"zip":"68116","miles_from_dt":25.7},{"city":"Dodge","state_name":"Nebraska","lat":41.70585,"lng":-96.89668,"zip":"68633","miles_from_dt":25.73},{"city":"Omaha","state_name":"Nebraska","lat":41.263,"lng":-96.1772,"zip":"68118","miles_from_dt":25.83},{"city":"Omaha","state_name":"Nebraska","lat":41.2052,"lng":-96.19576,"zip":"68135","miles_from_dt":26.53},{"city":"Blair","state_name":"Nebraska","lat":41.54573,"lng":-96.17421,"zip":"68008","miles_from_dt":26.99},{"city":"David City","state_name":"Nebraska","lat":41.24266,"lng":-97.13288,"zip":"68632","miles_from_dt":27.07},{"city":"Herman","state_name":"Nebraska","lat":41.65873,"lng":-96.27394,"zip":"68029","miles_from_dt":27.13},{"city":"Gretna","state_name":"Nebraska","lat":41.10513,"lng":-96.26098,"zip":"68028","miles_from_dt":27.82},{"city":"Omaha","state_name":"Nebraska","lat":41.16932,"lng":-96.18783,"zip":"68136","miles_from_dt":28.12},{"city":"Boys Town","state_name":"Nebraska","lat":41.25616,"lng":-96.13352,"zip":"68010","miles_from_dt":28.14},{"city":"Omaha","state_name":"Nebraska","lat":41.37012,"lng":-96.10276,"zip":"68142","miles_from_dt":28.32},{"city":"Dwight","state_name":"Nebraska","lat":41.08544,"lng":-97.02298,"zip":"68635","miles_from_dt":28.39},{"city":"Omaha","state_name":"Nebraska","lat":41.29886,"lng":-96.10949,"zip":"68164","miles_from_dt":28.58},{"city":"Omaha","state_name":"Nebraska","lat":41.26408,"lng":-96.11665,"zip":"68154","miles_from_dt":28.81},{"city":"Davey","state_name":"Nebraska","lat":40.9615,"lng":-96.68405,"zip":"68336","miles_from_dt":29.18},{"city":"Omaha","state_name":"Nebraska","lat":41.23473,"lng":-96.11909,"zip":"68144","miles_from_dt":29.34},{"city":"Raymond","state_name":"Nebraska","lat":40.97244,"lng":-96.79624,"zip":"68428","miles_from_dt":29.41},{"city":"Omaha","state_name":"Nebraska","lat":41.22151,"lng":-96.12024,"zip":"68139","miles_from_dt":29.62},{"city":"Greenwood","state_name":"Nebraska","lat":40.98215,"lng":-96.44222,"zip":"68366","miles_from_dt":29.69}],"targetCityZipCode":"68015","targetCityState":"Nebraska"},"__N_SSG":true}