{"pageProps":{"stateName":"Nebraska","cityName":"crab-orchard","nearbyCities":[{"city":"Lewiston","state_name":"Nebraska","lat":40.24283,"lng":-96.4059,"zip":"68380","miles_from_dt":5.9},{"city":"Filley","state_name":"Nebraska","lat":40.31541,"lng":-96.54658,"zip":"68357","miles_from_dt":7.2},{"city":"Virginia","state_name":"Nebraska","lat":40.23107,"lng":-96.48742,"zip":"68458","miles_from_dt":7.82},{"city":"Sterling","state_name":"Nebraska","lat":40.45627,"lng":-96.36758,"zip":"68443","miles_from_dt":9.13},{"city":"Tecumseh","state_name":"Nebraska","lat":40.36197,"lng":-96.22383,"zip":"68450","miles_from_dt":10.16},{"city":"Steinauer","state_name":"Nebraska","lat":40.22581,"lng":-96.25461,"zip":"68441","miles_from_dt":10.89},{"city":"Adams","state_name":"Nebraska","lat":40.46847,"lng":-96.52244,"zip":"68301","miles_from_dt":11.31},{"city":"Burchard","state_name":"Nebraska","lat":40.13197,"lng":-96.37034,"zip":"68323","miles_from_dt":13.72},{"city":"Elk Creek","state_name":"Nebraska","lat":40.29569,"lng":-96.12208,"zip":"68348","miles_from_dt":15.44},{"city":"Pickrell","state_name":"Nebraska","lat":40.38863,"lng":-96.69755,"zip":"68422","miles_from_dt":15.68},{"city":"Douglas","state_name":"Nebraska","lat":40.57159,"lng":-96.39544,"zip":"68344","miles_from_dt":16.81},{"city":"Burr","state_name":"Nebraska","lat":40.55407,"lng":-96.29014,"zip":"68324","miles_from_dt":16.84},{"city":"Blue Springs","state_name":"Nebraska","lat":40.15598,"lng":-96.64439,"zip":"68318","miles_from_dt":17.13},{"city":"Cook","state_name":"Nebraska","lat":40.50089,"lng":-96.16772,"zip":"68329","miles_from_dt":17.51},{"city":"Liberty","state_name":"Nebraska","lat":40.07979,"lng":-96.48176,"zip":"68381","miles_from_dt":17.55},{"city":"Firth","state_name":"Nebraska","lat":40.53321,"lng":-96.60973,"zip":"68358","miles_from_dt":17.59},{"city":"Cortland","state_name":"Nebraska","lat":40.4712,"lng":-96.70863,"zip":"68331","miles_from_dt":18.53},{"city":"Beatrice","state_name":"Nebraska","lat":40.24957,"lng":-96.74943,"zip":"68310","miles_from_dt":18.68},{"city":"Panama","state_name":"Nebraska","lat":40.60297,"lng":-96.51129,"zip":"68419","miles_from_dt":19.67},{"city":"Table Rock","state_name":"Nebraska","lat":40.20044,"lng":-96.07366,"zip":"68447","miles_from_dt":19.9},{"city":"Pawnee City","state_name":"Nebraska","lat":40.08556,"lng":-96.19125,"zip":"68420","miles_from_dt":20.39},{"city":"Johnson","state_name":"Nebraska","lat":40.39355,"lng":-96.02615,"zip":"68378","miles_from_dt":20.82},{"city":"Barneston","state_name":"Nebraska","lat":40.04907,"lng":-96.57285,"zip":"68309","miles_from_dt":21.08},{"city":"Wymore","state_name":"Nebraska","lat":40.07109,"lng":-96.63773,"zip":"68466","miles_from_dt":21.41},{"city":"Hickman","state_name":"Nebraska","lat":40.60498,"lng":-96.60539,"zip":"68372","miles_from_dt":21.66},{"city":"Bennet","state_name":"Nebraska","lat":40.67325,"lng":-96.50451,"zip":"68317","miles_from_dt":24.3},{"city":"Summerfield","state_name":"Kansas","lat":39.97891,"lng":-96.34781,"zip":"66541","miles_from_dt":24.34},{"city":"Clatonia","state_name":"Nebraska","lat":40.47694,"lng":-96.8384,"zip":"68328","miles_from_dt":24.76},{"city":"Talmage","state_name":"Nebraska","lat":40.54429,"lng":-96.035,"zip":"68448","miles_from_dt":24.81},{"city":"Palmyra","state_name":"Nebraska","lat":40.69568,"lng":-96.38435,"zip":"68418","miles_from_dt":25.39},{"city":"Syracuse","state_name":"Nebraska","lat":40.65002,"lng":-96.17535,"zip":"68446","miles_from_dt":25.44},{"city":"Oketo","state_name":"Kansas","lat":39.97008,"lng":-96.55533,"zip":"66518","miles_from_dt":25.87},{"city":"Unadilla","state_name":"Nebraska","lat":40.69275,"lng":-96.28686,"zip":"68454","miles_from_dt":25.99},{"city":"Brock","state_name":"Nebraska","lat":40.48148,"lng":-95.9533,"zip":"68320","miles_from_dt":26.37},{"city":"Hallam","state_name":"Nebraska","lat":40.55598,"lng":-96.81665,"zip":"68368","miles_from_dt":26.53},{"city":"Roca","state_name":"Nebraska","lat":40.66599,"lng":-96.66012,"zip":"68430","miles_from_dt":26.74},{"city":"De Witt","state_name":"Nebraska","lat":40.3855,"lng":-96.91378,"zip":"68341","miles_from_dt":26.82},{"city":"Martell","state_name":"Nebraska","lat":40.619,"lng":-96.75566,"zip":"68404","miles_from_dt":27.05},{"city":"Sprague","state_name":"Nebraska","lat":40.62656,"lng":-96.74463,"zip":"68438","miles_from_dt":27.06},{"city":"Humboldt","state_name":"Nebraska","lat":40.171,"lng":-95.93809,"zip":"68376","miles_from_dt":27.27},{"city":"Lorton","state_name":"Nebraska","lat":40.59724,"lng":-96.02425,"zip":"68382","miles_from_dt":27.57},{"city":"Odell","state_name":"Nebraska","lat":40.06249,"lng":-96.82157,"zip":"68415","miles_from_dt":28.42},{"city":"Du Bois","state_name":"Nebraska","lat":40.03692,"lng":-96.01928,"zip":"68345","miles_from_dt":28.89},{"city":"Lincoln","state_name":"Nebraska","lat":40.7324,"lng":-96.58269,"zip":"68526","miles_from_dt":29.31},{"city":"Auburn","state_name":"Nebraska","lat":40.36392,"lng":-95.85788,"zip":"68305","miles_from_dt":29.32}],"targetCityZipCode":"68332","targetCityState":"Nebraska"},"__N_SSG":true}