{"pageProps":{"stateName":"Nebraska","cityName":"davey","nearbyCities":[{"city":"Lincoln","state_name":"Nebraska","lat":40.93408,"lng":-96.65076,"zip":"68514","miles_from_dt":2.57},{"city":"Lincoln","state_name":"Nebraska","lat":40.90211,"lng":-96.71415,"zip":"68531","miles_from_dt":4.39},{"city":"Lincoln","state_name":"Nebraska","lat":40.93341,"lng":-96.60487,"zip":"68517","miles_from_dt":4.57},{"city":"Raymond","state_name":"Nebraska","lat":40.97244,"lng":-96.79624,"zip":"68428","miles_from_dt":5.92},{"city":"Ceresco","state_name":"Nebraska","lat":41.05938,"lng":-96.66179,"zip":"68017","miles_from_dt":6.85},{"city":"Lincoln","state_name":"Nebraska","lat":40.8618,"lng":-96.71519,"zip":"68521","miles_from_dt":7.07},{"city":"Lincoln","state_name":"Nebraska","lat":40.85451,"lng":-96.66104,"zip":"68504","miles_from_dt":7.48},{"city":"Lincoln","state_name":"Nebraska","lat":40.85954,"lng":-96.61172,"zip":"68507","miles_from_dt":7.99},{"city":"Waverly","state_name":"Nebraska","lat":40.94804,"lng":-96.52806,"zip":"68462","miles_from_dt":8.21},{"city":"Lincoln","state_name":"Nebraska","lat":40.8529,"lng":-96.61311,"zip":"68529","miles_from_dt":8.36},{"city":"Lincoln","state_name":"Nebraska","lat":40.87145,"lng":-96.80264,"zip":"68524","miles_from_dt":8.78},{"city":"Lincoln","state_name":"Nebraska","lat":40.8284,"lng":-96.66302,"zip":"68583","miles_from_dt":9.25},{"city":"Lincoln","state_name":"Nebraska","lat":40.82482,"lng":-96.69644,"zip":"68588","miles_from_dt":9.45},{"city":"Lincoln","state_name":"Nebraska","lat":40.82447,"lng":-96.67387,"zip":"68503","miles_from_dt":9.47},{"city":"Malcolm","state_name":"Nebraska","lat":40.90829,"lng":-96.8571,"zip":"68402","miles_from_dt":9.77},{"city":"Lincoln","state_name":"Nebraska","lat":40.81831,"lng":-96.70621,"zip":"68508","miles_from_dt":9.95},{"city":"Lincoln","state_name":"Nebraska","lat":40.8167,"lng":-96.70917,"zip":"68509","miles_from_dt":10.08},{"city":"Lincoln","state_name":"Nebraska","lat":40.82446,"lng":-96.61562,"zip":"68505","miles_from_dt":10.11},{"city":"Lincoln","state_name":"Nebraska","lat":40.8136,"lng":-96.70726,"zip":"68544","miles_from_dt":10.28},{"city":"Lincoln","state_name":"Nebraska","lat":40.82379,"lng":-96.77509,"zip":"68501","miles_from_dt":10.63},{"city":"Lincoln","state_name":"Nebraska","lat":40.80654,"lng":-96.64835,"zip":"68510","miles_from_dt":10.86},{"city":"Valparaiso","state_name":"Nebraska","lat":41.0766,"lng":-96.84854,"zip":"68065","miles_from_dt":11.7},{"city":"Lincoln","state_name":"Nebraska","lat":40.84573,"lng":-96.51753,"zip":"68527","miles_from_dt":11.82},{"city":"Lincoln","state_name":"Nebraska","lat":40.82244,"lng":-96.81762,"zip":"68528","miles_from_dt":11.87},{"city":"Lincoln","state_name":"Nebraska","lat":40.7873,"lng":-96.70053,"zip":"68542","miles_from_dt":12.05},{"city":"Lincoln","state_name":"Nebraska","lat":40.78361,"lng":-96.70083,"zip":"68502","miles_from_dt":12.31},{"city":"Lincoln","state_name":"Nebraska","lat":40.78422,"lng":-96.63959,"zip":"68506","miles_from_dt":12.45},{"city":"Lincoln","state_name":"Nebraska","lat":40.78941,"lng":-96.76214,"zip":"68522","miles_from_dt":12.56},{"city":"Greenwood","state_name":"Nebraska","lat":40.98215,"lng":-96.44222,"zip":"68366","miles_from_dt":12.73},{"city":"Lincoln","state_name":"Nebraska","lat":40.79827,"lng":-96.55313,"zip":"68520","miles_from_dt":13.19},{"city":"Lincoln","state_name":"Nebraska","lat":40.79544,"lng":-96.84332,"zip":"68532","miles_from_dt":14.17},{"city":"Ithaca","state_name":"Nebraska","lat":41.12933,"lng":-96.52425,"zip":"68033","miles_from_dt":14.28},{"city":"Garland","state_name":"Nebraska","lat":40.94613,"lng":-96.95661,"zip":"68360","miles_from_dt":14.3},{"city":"Lincoln","state_name":"Nebraska","lat":40.73746,"lng":-96.70567,"zip":"68512","miles_from_dt":15.5},{"city":"Wahoo","state_name":"Nebraska","lat":41.18451,"lng":-96.61996,"zip":"68066","miles_from_dt":15.75},{"city":"Lincoln","state_name":"Nebraska","lat":40.73493,"lng":-96.6428,"zip":"68516","miles_from_dt":15.78},{"city":"Memphis","state_name":"Nebraska","lat":41.09426,"lng":-96.43683,"zip":"68042","miles_from_dt":15.84},{"city":"Lincoln","state_name":"Nebraska","lat":40.73555,"lng":-96.75708,"zip":"68523","miles_from_dt":16.05},{"city":"Walton","state_name":"Nebraska","lat":40.76682,"lng":-96.51419,"zip":"68461","miles_from_dt":16.11},{"city":"Alvo","state_name":"Nebraska","lat":40.88971,"lng":-96.38781,"zip":"68304","miles_from_dt":16.28},{"city":"Lincoln","state_name":"Nebraska","lat":40.7324,"lng":-96.58269,"zip":"68526","miles_from_dt":16.68},{"city":"Weston","state_name":"Nebraska","lat":41.1924,"lng":-96.79973,"zip":"68070","miles_from_dt":17.04},{"city":"Eagle","state_name":"Nebraska","lat":40.80347,"lng":-96.42274,"zip":"68347","miles_from_dt":17.5},{"city":"Ashland","state_name":"Nebraska","lat":41.07161,"lng":-96.38013,"zip":"68003","miles_from_dt":17.61},{"city":"Pleasant Dale","state_name":"Nebraska","lat":40.80112,"lng":-96.95117,"zip":"68423","miles_from_dt":17.84},{"city":"Bee","state_name":"Nebraska","lat":41.01643,"lng":-97.0248,"zip":"68314","miles_from_dt":18.22},{"city":"Denton","state_name":"Nebraska","lat":40.73214,"lng":-96.86696,"zip":"68339","miles_from_dt":18.5},{"city":"Dwight","state_name":"Nebraska","lat":41.08544,"lng":-97.02298,"zip":"68635","miles_from_dt":19.67},{"city":"Roca","state_name":"Nebraska","lat":40.66599,"lng":-96.66012,"zip":"68430","miles_from_dt":20.43},{"city":"Brainard","state_name":"Nebraska","lat":41.16821,"lng":-96.9921,"zip":"68626","miles_from_dt":21.5},{"city":"Mead","state_name":"Nebraska","lat":41.23633,"lng":-96.48793,"zip":"68041","miles_from_dt":21.55},{"city":"Bennet","state_name":"Nebraska","lat":40.67325,"lng":-96.50451,"zip":"68317","miles_from_dt":22},{"city":"Elmwood","state_name":"Nebraska","lat":40.82962,"lng":-96.30028,"zip":"68349","miles_from_dt":22.06},{"city":"Murdock","state_name":"Nebraska","lat":40.921,"lng":-96.26263,"zip":"68407","miles_from_dt":22.23},{"city":"Malmo","state_name":"Nebraska","lat":41.28555,"lng":-96.73815,"zip":"68040","miles_from_dt":22.54},{"city":"Seward","state_name":"Nebraska","lat":40.90947,"lng":-97.11675,"zip":"68434","miles_from_dt":22.93},{"city":"South Bend","state_name":"Nebraska","lat":41.00842,"lng":-96.2483,"zip":"68058","miles_from_dt":23.01},{"city":"Sprague","state_name":"Nebraska","lat":40.62656,"lng":-96.74463,"zip":"68438","miles_from_dt":23.33},{"city":"Colon","state_name":"Nebraska","lat":41.30207,"lng":-96.61573,"zip":"68018","miles_from_dt":23.77},{"city":"Martell","state_name":"Nebraska","lat":40.619,"lng":-96.75566,"zip":"68404","miles_from_dt":23.93},{"city":"Yutan","state_name":"Nebraska","lat":41.23931,"lng":-96.40931,"zip":"68073","miles_from_dt":23.94},{"city":"Palmyra","state_name":"Nebraska","lat":40.69568,"lng":-96.38435,"zip":"68418","miles_from_dt":24.15},{"city":"Gretna","state_name":"Nebraska","lat":41.10513,"lng":-96.26098,"zip":"68028","miles_from_dt":24.23},{"city":"Milford","state_name":"Nebraska","lat":40.76522,"lng":-97.07315,"zip":"68405","miles_from_dt":24.47},{"city":"Hickman","state_name":"Nebraska","lat":40.60498,"lng":-96.60539,"zip":"68372","miles_from_dt":24.94},{"city":"Prague","state_name":"Nebraska","lat":41.30593,"lng":-96.84303,"zip":"68050","miles_from_dt":25.17},{"city":"Panama","state_name":"Nebraska","lat":40.60297,"lng":-96.51129,"zip":"68419","miles_from_dt":26.35},{"city":"Bruno","state_name":"Nebraska","lat":41.28219,"lng":-96.96458,"zip":"68014","miles_from_dt":26.53},{"city":"Manley","state_name":"Nebraska","lat":40.92045,"lng":-96.16707,"zip":"68403","miles_from_dt":27.2},{"city":"Waterloo","state_name":"Nebraska","lat":41.24166,"lng":-96.31542,"zip":"68069","miles_from_dt":27.28},{"city":"Crete","state_name":"Nebraska","lat":40.62126,"lng":-96.94901,"zip":"68333","miles_from_dt":27.28},{"city":"Staplehurst","state_name":"Nebraska","lat":40.99937,"lng":-97.21136,"zip":"68439","miles_from_dt":27.7},{"city":"Unadilla","state_name":"Nebraska","lat":40.69275,"lng":-96.28686,"zip":"68454","miles_from_dt":27.88},{"city":"Springfield","state_name":"Nebraska","lat":41.06673,"lng":-96.1595,"zip":"68059","miles_from_dt":28.36},{"city":"Hallam","state_name":"Nebraska","lat":40.55598,"lng":-96.81665,"zip":"68368","miles_from_dt":28.83},{"city":"Cedar Bluffs","state_name":"Nebraska","lat":41.38351,"lng":-96.64737,"zip":"68015","miles_from_dt":29.18},{"city":"Louisville","state_name":"Nebraska","lat":40.9844,"lng":-96.12673,"zip":"68037","miles_from_dt":29.19},{"city":"Abie","state_name":"Nebraska","lat":41.33369,"lng":-96.95489,"zip":"68001","miles_from_dt":29.31},{"city":"Weeping Water","state_name":"Nebraska","lat":40.8759,"lng":-96.13518,"zip":"68463","miles_from_dt":29.33},{"city":"Omaha","state_name":"Nebraska","lat":41.16932,"lng":-96.18783,"zip":"68136","miles_from_dt":29.62},{"city":"Goehner","state_name":"Nebraska","lat":40.83656,"lng":-97.22563,"zip":"68364","miles_from_dt":29.64},{"city":"Firth","state_name":"Nebraska","lat":40.53321,"lng":-96.60973,"zip":"68358","miles_from_dt":29.81},{"city":"Ulysses","state_name":"Nebraska","lat":41.07789,"lng":-97.23612,"zip":"68669","miles_from_dt":29.95}],"targetCityZipCode":"68336","targetCityState":"Nebraska"},"__N_SSG":true}