{"pageProps":{"stateName":"Nebraska","cityName":"geneva","nearbyCities":[{"city":"Strang","state_name":"Nebraska","lat":40.41117,"lng":-97.5847,"zip":"68444","miles_from_dt":6.71},{"city":"Shickley","state_name":"Nebraska","lat":40.43357,"lng":-97.74427,"zip":"68436","miles_from_dt":9.09},{"city":"Fairmont","state_name":"Nebraska","lat":40.63935,"lng":-97.58032,"zip":"68354","miles_from_dt":9.16},{"city":"Ohiowa","state_name":"Nebraska","lat":40.41093,"lng":-97.46185,"zip":"68416","miles_from_dt":9.93},{"city":"Grafton","state_name":"Nebraska","lat":40.61565,"lng":-97.73065,"zip":"68365","miles_from_dt":10.09},{"city":"Milligan","state_name":"Nebraska","lat":40.50566,"lng":-97.37874,"zip":"68406","miles_from_dt":11.73},{"city":"Bruning","state_name":"Nebraska","lat":40.3346,"lng":-97.55356,"zip":"68322","miles_from_dt":12.2},{"city":"Exeter","state_name":"Nebraska","lat":40.65393,"lng":-97.43015,"zip":"68351","miles_from_dt":13.54},{"city":"Sutton","state_name":"Nebraska","lat":40.59717,"lng":-97.85319,"zip":"68979","miles_from_dt":14.62},{"city":"Ong","state_name":"Nebraska","lat":40.39755,"lng":-97.85036,"zip":"68452","miles_from_dt":15.16},{"city":"Tobias","state_name":"Nebraska","lat":40.40774,"lng":-97.33455,"zip":"68453","miles_from_dt":15.66},{"city":"Carleton","state_name":"Nebraska","lat":40.28569,"lng":-97.68243,"zip":"68326","miles_from_dt":15.89},{"city":"McCool Junction","state_name":"Nebraska","lat":40.74233,"lng":-97.58569,"zip":"68401","miles_from_dt":16.22},{"city":"Belvidere","state_name":"Nebraska","lat":40.24605,"lng":-97.53841,"zip":"68315","miles_from_dt":18.35},{"city":"Friend","state_name":"Nebraska","lat":40.63059,"lng":-97.28333,"zip":"68359","miles_from_dt":18.77},{"city":"Davenport","state_name":"Nebraska","lat":40.28243,"lng":-97.803,"zip":"68335","miles_from_dt":18.82},{"city":"Cordova","state_name":"Nebraska","lat":40.70651,"lng":-97.34041,"zip":"68330","miles_from_dt":19.41},{"city":"Alexandria","state_name":"Nebraska","lat":40.25753,"lng":-97.41033,"zip":"68303","miles_from_dt":19.98},{"city":"Saronville","state_name":"Nebraska","lat":40.61705,"lng":-97.95483,"zip":"68975","miles_from_dt":20.07},{"city":"Henderson","state_name":"Nebraska","lat":40.77304,"lng":-97.78417,"zip":"68371","miles_from_dt":20.68},{"city":"Edgar","state_name":"Nebraska","lat":40.38058,"lng":-97.95859,"zip":"68935","miles_from_dt":20.77},{"city":"Western","state_name":"Nebraska","lat":40.42232,"lng":-97.1955,"zip":"68464","miles_from_dt":22.19},{"city":"Daykin","state_name":"Nebraska","lat":40.31865,"lng":-97.24863,"zip":"68338","miles_from_dt":22.72},{"city":"Clay Center","state_name":"Nebraska","lat":40.51786,"lng":-98.04211,"zip":"68933","miles_from_dt":23.22},{"city":"Oak","state_name":"Nebraska","lat":40.23541,"lng":-97.90207,"zip":"68964","miles_from_dt":24.58},{"city":"York","state_name":"Nebraska","lat":40.86528,"lng":-97.59778,"zip":"68467","miles_from_dt":24.68},{"city":"Hebron","state_name":"Nebraska","lat":40.14148,"lng":-97.55567,"zip":"68370","miles_from_dt":25.37},{"city":"Beaver Crossing","state_name":"Nebraska","lat":40.78142,"lng":-97.27193,"zip":"68313","miles_from_dt":25.63},{"city":"Dorchester","state_name":"Nebraska","lat":40.61989,"lng":-97.13194,"zip":"68343","miles_from_dt":25.89},{"city":"Gilead","state_name":"Nebraska","lat":40.15323,"lng":-97.42553,"zip":"68362","miles_from_dt":26.15},{"city":"Deshler","state_name":"Nebraska","lat":40.12525,"lng":-97.74126,"zip":"68340","miles_from_dt":27.39},{"city":"Harvard","state_name":"Nebraska","lat":40.63741,"lng":-98.0949,"zip":"68944","miles_from_dt":27.47},{"city":"Swanton","state_name":"Nebraska","lat":40.40146,"lng":-97.08662,"zip":"68445","miles_from_dt":28.11},{"city":"Fairfield","state_name":"Nebraska","lat":40.42093,"lng":-98.12344,"zip":"68938","miles_from_dt":28.15},{"city":"Waco","state_name":"Nebraska","lat":40.89596,"lng":-97.43169,"zip":"68460","miles_from_dt":28.24},{"city":"Ruskin","state_name":"Nebraska","lat":40.13235,"lng":-97.86457,"zip":"68974","miles_from_dt":29.38}],"targetCityZipCode":"68361","targetCityState":"Nebraska"},"__N_SSG":true}