{"pageProps":{"stateName":"Nebraska","cityName":"kennard","nearbyCities":[{"city":"Washington","state_name":"Nebraska","lat":41.39759,"lng":-96.20741,"zip":"68068","miles_from_dt":4.06},{"city":"Bennington","state_name":"Nebraska","lat":41.37184,"lng":-96.19524,"zip":"68007","miles_from_dt":5.92},{"city":"Blair","state_name":"Nebraska","lat":41.54573,"lng":-96.17421,"zip":"68008","miles_from_dt":6.67},{"city":"Arlington","state_name":"Nebraska","lat":41.50163,"lng":-96.33975,"zip":"68002","miles_from_dt":6.97},{"city":"Omaha","state_name":"Nebraska","lat":41.37012,"lng":-96.10276,"zip":"68142","miles_from_dt":8.49},{"city":"Valley","state_name":"Nebraska","lat":41.34925,"lng":-96.35545,"zip":"68064","miles_from_dt":10.16},{"city":"Fort Calhoun","state_name":"Nebraska","lat":41.46191,"lng":-96.02226,"zip":"68023","miles_from_dt":10.29},{"city":"Omaha","state_name":"Nebraska","lat":41.36451,"lng":-96.05036,"zip":"68122","miles_from_dt":10.84},{"city":"Omaha","state_name":"Nebraska","lat":41.29842,"lng":-96.16629,"zip":"68116","miles_from_dt":11.2},{"city":"Omaha","state_name":"Nebraska","lat":41.29886,"lng":-96.10949,"zip":"68164","miles_from_dt":12.25},{"city":"Elkhorn","state_name":"Nebraska","lat":41.27744,"lng":-96.24558,"zip":"68022","miles_from_dt":12.36},{"city":"Omaha","state_name":"Nebraska","lat":41.36282,"lng":-95.99995,"zip":"68152","miles_from_dt":13.12},{"city":"Nickerson","state_name":"Nebraska","lat":41.54798,"lng":-96.44871,"zip":"68044","miles_from_dt":13.46},{"city":"Omaha","state_name":"Nebraska","lat":41.263,"lng":-96.1772,"zip":"68118","miles_from_dt":13.48},{"city":"Fremont","state_name":"Nebraska","lat":41.44032,"lng":-96.48975,"zip":"68026","miles_from_dt":14.03},{"city":"Omaha","state_name":"Nebraska","lat":41.29776,"lng":-96.0503,"zip":"68134","miles_from_dt":14.03},{"city":"Fremont","state_name":"Nebraska","lat":41.43749,"lng":-96.49158,"zip":"68025","miles_from_dt":14.14},{"city":"Omaha","state_name":"Nebraska","lat":41.26408,"lng":-96.11665,"zip":"68154","miles_from_dt":14.27},{"city":"Herman","state_name":"Nebraska","lat":41.65873,"lng":-96.27394,"zip":"68029","miles_from_dt":14.29},{"city":"Boys Town","state_name":"Nebraska","lat":41.25616,"lng":-96.13352,"zip":"68010","miles_from_dt":14.48},{"city":"Omaha","state_name":"Nebraska","lat":41.38183,"lng":-95.95804,"zip":"68112","miles_from_dt":14.54},{"city":"Omaha","state_name":"Nebraska","lat":41.23394,"lng":-96.19613,"zip":"68130","miles_from_dt":15.35},{"city":"Modale","state_name":"Iowa","lat":41.63548,"lng":-96.04198,"zip":"51556","miles_from_dt":15.48},{"city":"Waterloo","state_name":"Nebraska","lat":41.24166,"lng":-96.31542,"zip":"68069","miles_from_dt":15.57},{"city":"Omaha","state_name":"Nebraska","lat":41.29525,"lng":-96.00104,"zip":"68104","miles_from_dt":15.88},{"city":"Omaha","state_name":"Nebraska","lat":41.26318,"lng":-96.05208,"zip":"68114","miles_from_dt":15.9},{"city":"Omaha","state_name":"Nebraska","lat":41.23473,"lng":-96.11909,"zip":"68144","miles_from_dt":16.12},{"city":"Omaha","state_name":"Nebraska","lat":41.22151,"lng":-96.12024,"zip":"68139","miles_from_dt":16.97},{"city":"Omaha","state_name":"Nebraska","lat":41.266,"lng":-96.01003,"zip":"68198","miles_from_dt":17.05},{"city":"Omaha","state_name":"Nebraska","lat":41.29564,"lng":-95.96395,"zip":"68111","miles_from_dt":17.3},{"city":"Omaha","state_name":"Nebraska","lat":41.2052,"lng":-96.19576,"zip":"68135","miles_from_dt":17.33},{"city":"Omaha","state_name":"Nebraska","lat":41.26506,"lng":-96.00153,"zip":"68132","miles_from_dt":17.39},{"city":"Missouri Valley","state_name":"Iowa","lat":41.55937,"lng":-95.91398,"zip":"51555","miles_from_dt":17.43},{"city":"Omaha","state_name":"Nebraska","lat":41.25775,"lng":-96.01072,"zip":"68182","miles_from_dt":17.47},{"city":"Omaha","state_name":"Nebraska","lat":41.23515,"lng":-96.0522,"zip":"68124","miles_from_dt":17.54},{"city":"Omaha","state_name":"Nebraska","lat":41.23322,"lng":-96.053,"zip":"68180","miles_from_dt":17.64},{"city":"Yutan","state_name":"Nebraska","lat":41.23931,"lng":-96.40931,"zip":"68073","miles_from_dt":17.87},{"city":"Omaha","state_name":"Nebraska","lat":41.20595,"lng":-96.11924,"zip":"68137","miles_from_dt":18.01},{"city":"Winslow","state_name":"Nebraska","lat":41.61016,"lng":-96.50473,"zip":"68072","miles_from_dt":18.2},{"city":"Omaha","state_name":"Nebraska","lat":41.26626,"lng":-95.96434,"zip":"68175","miles_from_dt":18.65},{"city":"Crescent","state_name":"Iowa","lat":41.37186,"lng":-95.87818,"zip":"51526","miles_from_dt":18.69},{"city":"Omaha","state_name":"Nebraska","lat":41.26435,"lng":-95.96479,"zip":"68131","miles_from_dt":18.73},{"city":"Omaha","state_name":"Nebraska","lat":41.23885,"lng":-96.00244,"zip":"68106","miles_from_dt":18.76},{"city":"Omaha","state_name":"Nebraska","lat":41.2061,"lng":-96.05245,"zip":"68127","miles_from_dt":19.3},{"city":"Omaha","state_name":"Nebraska","lat":41.3066,"lng":-95.90513,"zip":"68119","miles_from_dt":19.34},{"city":"Omaha","state_name":"Nebraska","lat":41.29867,"lng":-95.91143,"zip":"68110","miles_from_dt":19.37},{"city":"Omaha","state_name":"Nebraska","lat":41.26535,"lng":-95.94535,"zip":"68178","miles_from_dt":19.41},{"city":"Carter Lake","state_name":"Iowa","lat":41.28844,"lng":-95.91715,"zip":"51510","miles_from_dt":19.53},{"city":"Honey Creek","state_name":"Iowa","lat":41.43354,"lng":-95.84072,"zip":"51542","miles_from_dt":19.77},{"city":"Omaha","state_name":"Nebraska","lat":41.25711,"lng":-95.945,"zip":"68103","miles_from_dt":19.81},{"city":"Omaha","state_name":"Nebraska","lat":41.26069,"lng":-95.94059,"zip":"68176","miles_from_dt":19.81},{"city":"Omaha","state_name":"Nebraska","lat":41.26069,"lng":-95.94059,"zip":"68172","miles_from_dt":19.81},{"city":"Omaha","state_name":"Nebraska","lat":41.16932,"lng":-96.18783,"zip":"68136","miles_from_dt":19.83},{"city":"Omaha","state_name":"Nebraska","lat":41.26144,"lng":-95.93865,"zip":"68197","miles_from_dt":19.85},{"city":"Omaha","state_name":"Nebraska","lat":41.2406,"lng":-95.96429,"zip":"68105","miles_from_dt":19.93},{"city":"Omaha","state_name":"Nebraska","lat":41.26277,"lng":-95.93439,"zip":"68179","miles_from_dt":19.95},{"city":"Omaha","state_name":"Nebraska","lat":41.25709,"lng":-95.93977,"zip":"68183","miles_from_dt":20.01},{"city":"Omaha","state_name":"Nebraska","lat":41.26231,"lng":-95.93224,"zip":"68102","miles_from_dt":20.06},{"city":"Omaha","state_name":"Nebraska","lat":41.26219,"lng":-95.93133,"zip":"68101","miles_from_dt":20.1},{"city":"Omaha","state_name":"Nebraska","lat":41.25762,"lng":-95.93666,"zip":"68145","miles_from_dt":20.1},{"city":"Hooper","state_name":"Nebraska","lat":41.64041,"lng":-96.53046,"zip":"68031","miles_from_dt":20.52},{"city":"La Vista","state_name":"Nebraska","lat":41.17972,"lng":-96.07081,"zip":"68128","miles_from_dt":20.56},{"city":"Mead","state_name":"Nebraska","lat":41.23633,"lng":-96.48793,"zip":"68041","miles_from_dt":20.56},{"city":"Omaha","state_name":"Nebraska","lat":41.2062,"lng":-96.00138,"zip":"68117","miles_from_dt":20.64},{"city":"Omaha","state_name":"Nebraska","lat":41.15661,"lng":-96.13891,"zip":"68138","miles_from_dt":21.06},{"city":"Omaha","state_name":"Nebraska","lat":41.23753,"lng":-95.93118,"zip":"68108","miles_from_dt":21.27},{"city":"Omaha","state_name":"Nebraska","lat":41.23759,"lng":-95.92759,"zip":"68109","miles_from_dt":21.4},{"city":"Ames","state_name":"Nebraska","lat":41.48963,"lng":-96.63911,"zip":"68621","miles_from_dt":21.86},{"city":"Mondamin","state_name":"Iowa","lat":41.72903,"lng":-96.00233,"zip":"51557","miles_from_dt":21.99},{"city":"Omaha","state_name":"Nebraska","lat":41.20888,"lng":-95.95126,"zip":"68107","miles_from_dt":22.04},{"city":"Omaha","state_name":"Nebraska","lat":41.17902,"lng":-95.99536,"zip":"68157","miles_from_dt":22.39},{"city":"Cedar Bluffs","state_name":"Nebraska","lat":41.38351,"lng":-96.64737,"zip":"68015","miles_from_dt":22.74},{"city":"Colon","state_name":"Nebraska","lat":41.30207,"lng":-96.61573,"zip":"68018","miles_from_dt":23.12},{"city":"Uehling","state_name":"Nebraska","lat":41.72124,"lng":-96.49345,"zip":"68063","miles_from_dt":23.16},{"city":"Council Bluffs","state_name":"Iowa","lat":41.26139,"lng":-95.84988,"zip":"51502","miles_from_dt":23.46},{"city":"Bellevue","state_name":"Nebraska","lat":41.17655,"lng":-95.95678,"zip":"68147","miles_from_dt":23.64},{"city":"Council Bluffs","state_name":"Iowa","lat":41.22828,"lng":-95.87889,"zip":"51501","miles_from_dt":23.69},{"city":"Craig","state_name":"Nebraska","lat":41.77965,"lng":-96.37323,"zip":"68019","miles_from_dt":23.73},{"city":"Tekamah","state_name":"Nebraska","lat":41.80078,"lng":-96.21165,"zip":"68061","miles_from_dt":23.83},{"city":"Magnolia","state_name":"Iowa","lat":41.69203,"lng":-95.87399,"zip":"51550","miles_from_dt":24.26},{"city":"Gretna","state_name":"Nebraska","lat":41.10513,"lng":-96.26098,"zip":"68028","miles_from_dt":24.28},{"city":"Papillion","state_name":"Nebraska","lat":41.12206,"lng":-96.06138,"zip":"68046","miles_from_dt":24.46},{"city":"Papillion","state_name":"Nebraska","lat":41.11754,"lng":-96.00292,"zip":"68133","miles_from_dt":25.93},{"city":"Logan","state_name":"Iowa","lat":41.6399,"lng":-95.77209,"zip":"51546","miles_from_dt":26.49},{"city":"Springfield","state_name":"Nebraska","lat":41.06673,"lng":-96.1595,"zip":"68059","miles_from_dt":27.02},{"city":"Underwood","state_name":"Iowa","lat":41.3777,"lng":-95.70945,"zip":"51576","miles_from_dt":27.08},{"city":"St Columbans","state_name":"Nebraska","lat":41.14123,"lng":-95.90438,"zip":"68056","miles_from_dt":27.22},{"city":"Memphis","state_name":"Nebraska","lat":41.09426,"lng":-96.43683,"zip":"68042","miles_from_dt":27.36},{"city":"Ithaca","state_name":"Nebraska","lat":41.12933,"lng":-96.52425,"zip":"68033","miles_from_dt":27.52},{"city":"Bellevue","state_name":"Nebraska","lat":41.14161,"lng":-95.89394,"zip":"68005","miles_from_dt":27.53},{"city":"Council Bluffs","state_name":"Iowa","lat":41.2304,"lng":-95.77795,"zip":"51503","miles_from_dt":27.76},{"city":"Ashland","state_name":"Nebraska","lat":41.07161,"lng":-96.38013,"zip":"68003","miles_from_dt":27.77},{"city":"Wahoo","state_name":"Nebraska","lat":41.18451,"lng":-96.61996,"zip":"68066","miles_from_dt":27.97},{"city":"Bellevue","state_name":"Nebraska","lat":41.10108,"lng":-95.94774,"zip":"68123","miles_from_dt":28.28},{"city":"Little Sioux","state_name":"Iowa","lat":41.83897,"lng":-96.02072,"zip":"51545","miles_from_dt":28.4},{"city":"Offutt Afb","state_name":"Nebraska","lat":41.11745,"lng":-95.90889,"zip":"68113","miles_from_dt":28.41},{"city":"Neola","state_name":"Iowa","lat":41.46034,"lng":-95.66049,"zip":"51559","miles_from_dt":29.06},{"city":"Oakland","state_name":"Nebraska","lat":41.8273,"lng":-96.49523,"zip":"68045","miles_from_dt":29.34},{"city":"Malmo","state_name":"Nebraska","lat":41.28555,"lng":-96.73815,"zip":"68040","miles_from_dt":29.37},{"city":"Scribner","state_name":"Nebraska","lat":41.65888,"lng":-96.71893,"zip":"68057","miles_from_dt":29.41},{"city":"Pisgah","state_name":"Iowa","lat":41.81309,"lng":-95.90801,"zip":"51564","miles_from_dt":29.5},{"city":"North Bend","state_name":"Nebraska","lat":41.50784,"lng":-96.78896,"zip":"68649","miles_from_dt":29.73},{"city":"Morse Bluff","state_name":"Nebraska","lat":41.40482,"lng":-96.78949,"zip":"68648","miles_from_dt":29.77}],"targetCityZipCode":"68034","targetCityState":"Nebraska"},"__N_SSG":true}