{"pageProps":{"stateName":"Nebraska","cityName":"kilgore","nearbyCities":[{"city":"Crookston","state_name":"Nebraska","lat":42.98729,"lng":-100.80438,"zip":"69212","miles_from_dt":8.94},{"city":"Saint Francis","state_name":"South Dakota","lat":43.12009,"lng":-101.08491,"zip":"57572","miles_from_dt":13.71},{"city":"Nenzel","state_name":"Nebraska","lat":42.70144,"lng":-101.0886,"zip":"69219","miles_from_dt":17.6},{"city":"Cody","state_name":"Nebraska","lat":42.83965,"lng":-101.31068,"zip":"69211","miles_from_dt":18.69},{"city":"Rosebud","state_name":"South Dakota","lat":43.24284,"lng":-100.87127,"zip":"57570","miles_from_dt":21.44},{"city":"Tuthill","state_name":"South Dakota","lat":43.10954,"lng":-101.36238,"zip":"57574","miles_from_dt":23.08},{"city":"Valentine","state_name":"Nebraska","lat":42.70004,"lng":-100.59663,"zip":"69201","miles_from_dt":25.18},{"city":"Parmelee","state_name":"South Dakota","lat":43.31237,"lng":-101.10019,"zip":"57566","miles_from_dt":26.5},{"city":"Mission","state_name":"South Dakota","lat":43.29828,"lng":-100.6601,"zip":"57555","miles_from_dt":29.21}],"targetCityZipCode":"69216","targetCityState":"Nebraska"},"__N_SSG":true}