{"pageProps":{"stateName":"Nebraska","cityName":"lawrence","nearbyCities":[{"city":"Deweese","state_name":"Nebraska","lat":40.33831,"lng":-98.15962,"zip":"68934","miles_from_dt":6.54},{"city":"Blue Hill","state_name":"Nebraska","lat":40.28514,"lng":-98.41846,"zip":"68930","miles_from_dt":9.42},{"city":"Nelson","state_name":"Nebraska","lat":40.20679,"lng":-98.03502,"zip":"68961","miles_from_dt":11.71},{"city":"Fairfield","state_name":"Nebraska","lat":40.42093,"lng":-98.12344,"zip":"68938","miles_from_dt":12.29},{"city":"Guide Rock","state_name":"Nebraska","lat":40.09552,"lng":-98.31143,"zip":"68942","miles_from_dt":12.42},{"city":"Glenvil","state_name":"Nebraska","lat":40.46882,"lng":-98.26792,"zip":"68941","miles_from_dt":13.96},{"city":"Ayr","state_name":"Nebraska","lat":40.42366,"lng":-98.43821,"zip":"68925","miles_from_dt":14.96},{"city":"Superior","state_name":"Nebraska","lat":40.06339,"lng":-98.09379,"zip":"68978","miles_from_dt":16.11},{"city":"Edgar","state_name":"Nebraska","lat":40.38058,"lng":-97.95859,"zip":"68935","miles_from_dt":16.87},{"city":"Oak","state_name":"Nebraska","lat":40.23541,"lng":-97.90207,"zip":"68964","miles_from_dt":18.09},{"city":"Red Cloud","state_name":"Nebraska","lat":40.10157,"lng":-98.52292,"zip":"68970","miles_from_dt":18.77},{"city":"Bladen","state_name":"Nebraska","lat":40.2874,"lng":-98.60728,"zip":"68928","miles_from_dt":19.37},{"city":"Clay Center","state_name":"Nebraska","lat":40.51786,"lng":-98.04211,"zip":"68933","miles_from_dt":20.24},{"city":"Roseland","state_name":"Nebraska","lat":40.45014,"lng":-98.55962,"zip":"68973","miles_from_dt":20.99},{"city":"Ruskin","state_name":"Nebraska","lat":40.13235,"lng":-97.86457,"zip":"68974","miles_from_dt":22.03},{"city":"Ong","state_name":"Nebraska","lat":40.39755,"lng":-97.85036,"zip":"68452","miles_from_dt":22.53},{"city":"Davenport","state_name":"Nebraska","lat":40.28243,"lng":-97.803,"zip":"68335","miles_from_dt":23.21},{"city":"Hastings","state_name":"Nebraska","lat":40.58543,"lng":-98.38512,"zip":"68902","miles_from_dt":23.21},{"city":"Hastings","state_name":"Nebraska","lat":40.59092,"lng":-98.36599,"zip":"68901","miles_from_dt":23.26},{"city":"Inland","state_name":"Nebraska","lat":40.61215,"lng":-98.23512,"zip":"68954","miles_from_dt":23.79},{"city":"Burr Oak","state_name":"Kansas","lat":39.9213,"lng":-98.30091,"zip":"66936","miles_from_dt":24.09},{"city":"Hardy","state_name":"Nebraska","lat":40.03916,"lng":-97.88589,"zip":"68943","miles_from_dt":24.56},{"city":"Webber","state_name":"Kansas","lat":39.94533,"lng":-98.02336,"zip":"66970","miles_from_dt":25.06},{"city":"Holstein","state_name":"Nebraska","lat":40.45586,"lng":-98.66413,"zip":"68950","miles_from_dt":25.81},{"city":"Inavale","state_name":"Nebraska","lat":40.08443,"lng":-98.67587,"zip":"68952","miles_from_dt":26.22},{"city":"Campbell","state_name":"Nebraska","lat":40.30258,"lng":-98.73851,"zip":"68932","miles_from_dt":26.36},{"city":"Harvard","state_name":"Nebraska","lat":40.63741,"lng":-98.0949,"zip":"68944","miles_from_dt":26.67},{"city":"Juniata","state_name":"Nebraska","lat":40.59288,"lng":-98.53966,"zip":"68955","miles_from_dt":27.4},{"city":"Deshler","state_name":"Nebraska","lat":40.12525,"lng":-97.74126,"zip":"68340","miles_from_dt":28.24},{"city":"Saronville","state_name":"Nebraska","lat":40.61705,"lng":-97.95483,"zip":"68975","miles_from_dt":28.47},{"city":"Trumbull","state_name":"Nebraska","lat":40.68213,"lng":-98.25814,"zip":"68980","miles_from_dt":28.63},{"city":"Shickley","state_name":"Nebraska","lat":40.43357,"lng":-97.74427,"zip":"68436","miles_from_dt":28.65},{"city":"Carleton","state_name":"Nebraska","lat":40.28569,"lng":-97.68243,"zip":"68326","miles_from_dt":29.59}],"targetCityZipCode":"68957","targetCityState":"Nebraska"},"__N_SSG":true}