{"pageProps":{"stateName":"Nebraska","cityName":"lynch","nearbyCities":[{"city":"Marty","state_name":"South Dakota","lat":42.99459,"lng":-98.43463,"zip":"57361","miles_from_dt":12.93},{"city":"Bristow","state_name":"Nebraska","lat":42.96446,"lng":-98.57426,"zip":"68719","miles_from_dt":12.94},{"city":"Spencer","state_name":"Nebraska","lat":42.86088,"lng":-98.68504,"zip":"68777","miles_from_dt":13.21},{"city":"Wagner","state_name":"South Dakota","lat":43.03387,"lng":-98.28916,"zip":"57380","miles_from_dt":17.31},{"city":"Pickstown","state_name":"South Dakota","lat":43.06348,"lng":-98.5133,"zip":"57367","miles_from_dt":18.12},{"city":"Dante","state_name":"South Dakota","lat":42.97814,"lng":-98.1522,"zip":"57329","miles_from_dt":18.59},{"city":"Verdigre","state_name":"Nebraska","lat":42.62523,"lng":-98.14612,"zip":"68783","miles_from_dt":19.36},{"city":"Niobrara","state_name":"Nebraska","lat":42.76616,"lng":-98.03831,"zip":"68760","miles_from_dt":20.39},{"city":"Oneill","state_name":"Nebraska","lat":42.51809,"lng":-98.58254,"zip":"68763","miles_from_dt":21.32},{"city":"Butte","state_name":"Nebraska","lat":42.92074,"lng":-98.87123,"zip":"68722","miles_from_dt":23.48},{"city":"Avon","state_name":"South Dakota","lat":42.99391,"lng":-98.04852,"zip":"57315","miles_from_dt":23.48},{"city":"Lake Andes","state_name":"South Dakota","lat":43.1468,"lng":-98.51803,"zip":"57356","miles_from_dt":23.81},{"city":"Fairfax","state_name":"South Dakota","lat":43.06005,"lng":-98.77255,"zip":"57335","miles_from_dt":24.43},{"city":"Springfield","state_name":"South Dakota","lat":42.85046,"lng":-97.95327,"zip":"57062","miles_from_dt":24.68},{"city":"Page","state_name":"Nebraska","lat":42.42375,"lng":-98.40321,"zip":"68766","miles_from_dt":26.52},{"city":"Winnetoon","state_name":"Nebraska","lat":42.53642,"lng":-97.99182,"zip":"68789","miles_from_dt":29.33}],"targetCityZipCode":"68746","targetCityState":"Nebraska"},"__N_SSG":true}