{"pageProps":{"stateName":"Nebraska","cityName":"marquette","nearbyCities":[{"city":"Hordville","state_name":"Nebraska","lat":41.06499,"lng":-97.88533,"zip":"68846","miles_from_dt":7.27},{"city":"Chapman","state_name":"Nebraska","lat":41.04247,"lng":-98.1811,"zip":"68827","miles_from_dt":9.64},{"city":"Hampton","state_name":"Nebraska","lat":40.90334,"lng":-97.88018,"zip":"68843","miles_from_dt":9.64},{"city":"Central City","state_name":"Nebraska","lat":41.16341,"lng":-98.0191,"zip":"68826","miles_from_dt":10.76},{"city":"Polk","state_name":"Nebraska","lat":41.06791,"lng":-97.7772,"zip":"68654","miles_from_dt":12.47},{"city":"Phillips","state_name":"Nebraska","lat":40.89337,"lng":-98.187,"zip":"68865","miles_from_dt":12.48},{"city":"Aurora","state_name":"Nebraska","lat":40.82211,"lng":-98.01036,"zip":"68818","miles_from_dt":12.83},{"city":"Archer","state_name":"Nebraska","lat":41.17484,"lng":-98.13373,"zip":"68816","miles_from_dt":13.4},{"city":"Bradshaw","state_name":"Nebraska","lat":40.93656,"lng":-97.75817,"zip":"68319","miles_from_dt":13.69},{"city":"Grand Island","state_name":"Nebraska","lat":40.94949,"lng":-98.29295,"zip":"68801","miles_from_dt":15.72},{"city":"Clarks","state_name":"Nebraska","lat":41.21694,"lng":-97.84355,"zip":"68628","miles_from_dt":16.63},{"city":"Saint Libory","state_name":"Nebraska","lat":41.09286,"lng":-98.33216,"zip":"68872","miles_from_dt":18.2},{"city":"Giltner","state_name":"Nebraska","lat":40.76316,"lng":-98.16677,"zip":"68841","miles_from_dt":18.96},{"city":"Grand Island","state_name":"Nebraska","lat":40.9104,"lng":-98.35067,"zip":"68802","miles_from_dt":19.42},{"city":"Henderson","state_name":"Nebraska","lat":40.77304,"lng":-97.78417,"zip":"68371","miles_from_dt":19.83},{"city":"Benedict","state_name":"Nebraska","lat":41.01688,"lng":-97.61577,"zip":"68316","miles_from_dt":20.22},{"city":"Palmer","state_name":"Nebraska","lat":41.2608,"lng":-98.24046,"zip":"68864","miles_from_dt":21.42},{"city":"Stromsburg","state_name":"Nebraska","lat":41.10775,"lng":-97.61369,"zip":"68666","miles_from_dt":21.44},{"city":"Grand Island","state_name":"Nebraska","lat":40.95357,"lng":-98.41593,"zip":"68803","miles_from_dt":21.95},{"city":"York","state_name":"Nebraska","lat":40.86528,"lng":-97.59778,"zip":"68467","miles_from_dt":23.35},{"city":"Fullerton","state_name":"Nebraska","lat":41.36848,"lng":-97.98977,"zip":"68638","miles_from_dt":24.89},{"city":"Doniphan","state_name":"Nebraska","lat":40.76963,"lng":-98.36608,"zip":"68832","miles_from_dt":25.16},{"city":"Harvard","state_name":"Nebraska","lat":40.63741,"lng":-98.0949,"zip":"68944","miles_from_dt":26.03},{"city":"Trumbull","state_name":"Nebraska","lat":40.68213,"lng":-98.25814,"zip":"68980","miles_from_dt":26.18},{"city":"Silver Creek","state_name":"Nebraska","lat":41.31193,"lng":-97.69927,"zip":"68663","miles_from_dt":26.27},{"city":"Alda","state_name":"Nebraska","lat":40.86238,"lng":-98.4675,"zip":"68810","miles_from_dt":26.33},{"city":"Osceola","state_name":"Nebraska","lat":41.22443,"lng":-97.57472,"zip":"68651","miles_from_dt":26.86},{"city":"Saronville","state_name":"Nebraska","lat":40.61705,"lng":-97.95483,"zip":"68975","miles_from_dt":27.09},{"city":"McCool Junction","state_name":"Nebraska","lat":40.74233,"lng":-97.58569,"zip":"68401","miles_from_dt":28.5},{"city":"Saint Paul","state_name":"Nebraska","lat":41.24696,"lng":-98.45149,"zip":"68873","miles_from_dt":28.65},{"city":"Dannebrog","state_name":"Nebraska","lat":41.10937,"lng":-98.54661,"zip":"68831","miles_from_dt":29.27},{"city":"Sutton","state_name":"Nebraska","lat":40.59717,"lng":-97.85319,"zip":"68979","miles_from_dt":29.41},{"city":"Inland","state_name":"Nebraska","lat":40.61215,"lng":-98.23512,"zip":"68954","miles_from_dt":29.92}],"targetCityZipCode":"68854","targetCityState":"Nebraska"},"__N_SSG":true}