{"pageProps":{"stateName":"Nebraska","cityName":"minden","nearbyCities":[{"city":"Heartwell","state_name":"Nebraska","lat":40.56098,"lng":-98.77327,"zip":"68945","miles_from_dt":8.92},{"city":"Axtell","state_name":"Nebraska","lat":40.49557,"lng":-99.12469,"zip":"68924","miles_from_dt":11.06},{"city":"Holstein","state_name":"Nebraska","lat":40.45586,"lng":-98.66413,"zip":"68950","miles_from_dt":13.42},{"city":"Upland","state_name":"Nebraska","lat":40.28601,"lng":-98.89237,"zip":"68981","miles_from_dt":14.13},{"city":"Hildreth","state_name":"Nebraska","lat":40.30139,"lng":-99.05188,"zip":"68947","miles_from_dt":14.89},{"city":"Kenesaw","state_name":"Nebraska","lat":40.63088,"lng":-98.6891,"zip":"68956","miles_from_dt":15.35},{"city":"Campbell","state_name":"Nebraska","lat":40.30258,"lng":-98.73851,"zip":"68932","miles_from_dt":15.94},{"city":"Kearney","state_name":"Nebraska","lat":40.69941,"lng":-99.08167,"zip":"68848","miles_from_dt":16.9},{"city":"Kearney","state_name":"Nebraska","lat":40.70148,"lng":-99.10082,"zip":"68849","miles_from_dt":17.56},{"city":"Kearney","state_name":"Nebraska","lat":40.73465,"lng":-99.02272,"zip":"68847","miles_from_dt":17.8},{"city":"Funk","state_name":"Nebraska","lat":40.53815,"lng":-99.25086,"zip":"68940","miles_from_dt":18},{"city":"Wilcox","state_name":"Nebraska","lat":40.33081,"lng":-99.19521,"zip":"68982","miles_from_dt":18.42},{"city":"Gibbon","state_name":"Nebraska","lat":40.75728,"lng":-98.88027,"zip":"68840","miles_from_dt":18.53},{"city":"Roseland","state_name":"Nebraska","lat":40.45014,"lng":-98.55962,"zip":"68973","miles_from_dt":18.92},{"city":"Kearney","state_name":"Nebraska","lat":40.71583,"lng":-99.17059,"zip":"68845","miles_from_dt":20.58},{"city":"Juniata","state_name":"Nebraska","lat":40.59288,"lng":-98.53966,"zip":"68955","miles_from_dt":20.99},{"city":"Bladen","state_name":"Nebraska","lat":40.2874,"lng":-98.60728,"zip":"68928","miles_from_dt":21.42},{"city":"Ragan","state_name":"Nebraska","lat":40.31084,"lng":-99.25462,"zip":"68969","miles_from_dt":21.78},{"city":"Odessa","state_name":"Nebraska","lat":40.69892,"lng":-99.2639,"zip":"68861","miles_from_dt":23.34},{"city":"Bloomington","state_name":"Nebraska","lat":40.15245,"lng":-99.07124,"zip":"68929","miles_from_dt":24.72},{"city":"Shelton","state_name":"Nebraska","lat":40.82492,"lng":-98.74663,"zip":"68876","miles_from_dt":24.74},{"city":"Ayr","state_name":"Nebraska","lat":40.42366,"lng":-98.43821,"zip":"68925","miles_from_dt":25.54},{"city":"Holdrege","state_name":"Nebraska","lat":40.43193,"lng":-99.39481,"zip":"68949","miles_from_dt":25.61},{"city":"Franklin","state_name":"Nebraska","lat":40.10977,"lng":-98.96169,"zip":"68939","miles_from_dt":26.36},{"city":"Riverton","state_name":"Nebraska","lat":40.10361,"lng":-98.80258,"zip":"68972","miles_from_dt":27.32},{"city":"Riverdale","state_name":"Nebraska","lat":40.8453,"lng":-99.15835,"zip":"68870","miles_from_dt":27.65},{"city":"Wood River","state_name":"Nebraska","lat":40.81823,"lng":-98.58558,"zip":"68883","miles_from_dt":28.5},{"city":"Elm Creek","state_name":"Nebraska","lat":40.70709,"lng":-99.37865,"zip":"68836","miles_from_dt":28.62},{"city":"Hastings","state_name":"Nebraska","lat":40.58543,"lng":-98.38512,"zip":"68902","miles_from_dt":28.65},{"city":"Hastings","state_name":"Nebraska","lat":40.59092,"lng":-98.36599,"zip":"68901","miles_from_dt":29.72},{"city":"Blue Hill","state_name":"Nebraska","lat":40.28514,"lng":-98.41846,"zip":"68930","miles_from_dt":29.76}],"targetCityZipCode":"68959","targetCityState":"Nebraska"},"__N_SSG":true}