{"pageProps":{"stateName":"Nebraska","cityName":"odessa","nearbyCities":[{"city":"Kearney","state_name":"Nebraska","lat":40.71583,"lng":-99.17059,"zip":"68845","miles_from_dt":5.04},{"city":"Elm Creek","state_name":"Nebraska","lat":40.70709,"lng":-99.37865,"zip":"68836","miles_from_dt":6.05},{"city":"Kearney","state_name":"Nebraska","lat":40.70148,"lng":-99.10082,"zip":"68849","miles_from_dt":8.57},{"city":"Kearney","state_name":"Nebraska","lat":40.69941,"lng":-99.08167,"zip":"68848","miles_from_dt":9.57},{"city":"Funk","state_name":"Nebraska","lat":40.53815,"lng":-99.25086,"zip":"68940","miles_from_dt":11.11},{"city":"Riverdale","state_name":"Nebraska","lat":40.8453,"lng":-99.15835,"zip":"68870","miles_from_dt":11.52},{"city":"Kearney","state_name":"Nebraska","lat":40.73465,"lng":-99.02272,"zip":"68847","miles_from_dt":12.9},{"city":"Amherst","state_name":"Nebraska","lat":40.9051,"lng":-99.279,"zip":"68812","miles_from_dt":14.25},{"city":"Overton","state_name":"Nebraska","lat":40.76628,"lng":-99.5252,"zip":"68863","miles_from_dt":14.48},{"city":"Axtell","state_name":"Nebraska","lat":40.49557,"lng":-99.12469,"zip":"68924","miles_from_dt":15.83},{"city":"Loomis","state_name":"Nebraska","lat":40.52772,"lng":-99.50394,"zip":"68958","miles_from_dt":17.29},{"city":"Miller","state_name":"Nebraska","lat":40.96171,"lng":-99.37797,"zip":"68858","miles_from_dt":19.09},{"city":"Holdrege","state_name":"Nebraska","lat":40.43193,"lng":-99.39481,"zip":"68949","miles_from_dt":19.67},{"city":"Pleasanton","state_name":"Nebraska","lat":40.96873,"lng":-99.12297,"zip":"68866","miles_from_dt":20.03},{"city":"Gibbon","state_name":"Nebraska","lat":40.75728,"lng":-98.88027,"zip":"68840","miles_from_dt":20.54},{"city":"Bertrand","state_name":"Nebraska","lat":40.51146,"lng":-99.62665,"zip":"68927","miles_from_dt":23.05},{"city":"Minden","state_name":"Nebraska","lat":40.49009,"lng":-98.91487,"zip":"68959","miles_from_dt":23.34},{"city":"Sumner","state_name":"Nebraska","lat":40.98623,"lng":-99.50567,"zip":"68878","miles_from_dt":23.53},{"city":"Smithfield","state_name":"Nebraska","lat":40.6023,"lng":-99.70918,"zip":"68976","miles_from_dt":24.33},{"city":"Atlanta","state_name":"Nebraska","lat":40.36835,"lng":-99.47314,"zip":"68923","miles_from_dt":25.33},{"city":"Wilcox","state_name":"Nebraska","lat":40.33081,"lng":-99.19521,"zip":"68982","miles_from_dt":25.66},{"city":"Lexington","state_name":"Nebraska","lat":40.82548,"lng":-99.73574,"zip":"68850","miles_from_dt":26.25},{"city":"Ragan","state_name":"Nebraska","lat":40.31084,"lng":-99.25462,"zip":"68969","miles_from_dt":26.78},{"city":"Hazard","state_name":"Nebraska","lat":41.05659,"lng":-99.05938,"zip":"68844","miles_from_dt":26.91},{"city":"Heartwell","state_name":"Nebraska","lat":40.56098,"lng":-98.77327,"zip":"68945","miles_from_dt":27.49},{"city":"Shelton","state_name":"Nebraska","lat":40.82492,"lng":-98.74663,"zip":"68876","miles_from_dt":28.5},{"city":"Ravenna","state_name":"Nebraska","lat":40.99944,"lng":-98.88325,"zip":"68869","miles_from_dt":28.77},{"city":"Hildreth","state_name":"Nebraska","lat":40.30139,"lng":-99.05188,"zip":"68947","miles_from_dt":29.62},{"city":"Eddyville","state_name":"Nebraska","lat":41.01834,"lng":-99.65049,"zip":"68834","miles_from_dt":29.93}],"targetCityZipCode":"68861","targetCityState":"Nebraska"},"__N_SSG":true}