{"pageProps":{"stateName":"Nebraska","cityName":"oxford","nearbyCities":[{"city":"Edison","state_name":"Nebraska","lat":40.31655,"lng":-99.77868,"zip":"68936","miles_from_dt":8.97},{"city":"Orleans","state_name":"Nebraska","lat":40.15765,"lng":-99.46262,"zip":"68966","miles_from_dt":11.05},{"city":"Atlanta","state_name":"Nebraska","lat":40.36835,"lng":-99.47314,"zip":"68923","miles_from_dt":11.54},{"city":"Stamford","state_name":"Nebraska","lat":40.06697,"lng":-99.63045,"zip":"68977","miles_from_dt":12.81},{"city":"Arapahoe","state_name":"Nebraska","lat":40.33653,"lng":-99.89976,"zip":"68922","miles_from_dt":15.34},{"city":"Beaver City","state_name":"Nebraska","lat":40.09311,"lng":-99.85139,"zip":"68926","miles_from_dt":16.04},{"city":"Alma","state_name":"Nebraska","lat":40.15482,"lng":-99.33521,"zip":"68920","miles_from_dt":17.03},{"city":"Holdrege","state_name":"Nebraska","lat":40.43193,"lng":-99.39481,"zip":"68949","miles_from_dt":17.56},{"city":"Bertrand","state_name":"Nebraska","lat":40.51146,"lng":-99.62665,"zip":"68927","miles_from_dt":17.86},{"city":"Loomis","state_name":"Nebraska","lat":40.52772,"lng":-99.50394,"zip":"68958","miles_from_dt":20.13},{"city":"Ragan","state_name":"Nebraska","lat":40.31084,"lng":-99.25462,"zip":"68969","miles_from_dt":20.28},{"city":"Hendley","state_name":"Nebraska","lat":40.1067,"lng":-99.99048,"zip":"68946","miles_from_dt":21.53},{"city":"Holbrook","state_name":"Nebraska","lat":40.34151,"lng":-100.02639,"zip":"68948","miles_from_dt":21.78},{"city":"Long Island","state_name":"Kansas","lat":39.93794,"lng":-99.53162,"zip":"67647","miles_from_dt":22.34},{"city":"Republican City","state_name":"Nebraska","lat":40.11931,"lng":-99.24478,"zip":"68971","miles_from_dt":22.41},{"city":"Wilcox","state_name":"Nebraska","lat":40.33081,"lng":-99.19521,"zip":"68982","miles_from_dt":23.64},{"city":"Smithfield","state_name":"Nebraska","lat":40.6023,"lng":-99.70918,"zip":"68976","miles_from_dt":24.48},{"city":"Almena","state_name":"Kansas","lat":39.89983,"lng":-99.72522,"zip":"67622","miles_from_dt":24.85},{"city":"Elwood","state_name":"Nebraska","lat":40.57262,"lng":-99.85494,"zip":"68937","miles_from_dt":25.04},{"city":"Wilsonville","state_name":"Nebraska","lat":40.06821,"lng":-100.10403,"zip":"69046","miles_from_dt":28.1},{"city":"Funk","state_name":"Nebraska","lat":40.53815,"lng":-99.25086,"zip":"68940","miles_from_dt":28.11},{"city":"Naponee","state_name":"Nebraska","lat":40.08549,"lng":-99.13866,"zip":"68960","miles_from_dt":28.49},{"city":"Cambridge","state_name":"Nebraska","lat":40.33938,"lng":-100.18413,"zip":"69022","miles_from_dt":29.84}],"targetCityZipCode":"68967","targetCityState":"Nebraska"},"__N_SSG":true}