{"pageProps":{"stateName":"Nebraska","cityName":"palmer","nearbyCities":[{"city":"Archer","state_name":"Nebraska","lat":41.17484,"lng":-98.13373,"zip":"68816","miles_from_dt":8.13},{"city":"Saint Paul","state_name":"Nebraska","lat":41.24696,"lng":-98.45149,"zip":"68873","miles_from_dt":11.03},{"city":"Saint Libory","state_name":"Nebraska","lat":41.09286,"lng":-98.33216,"zip":"68872","miles_from_dt":12.54},{"city":"Central City","state_name":"Nebraska","lat":41.16341,"lng":-98.0191,"zip":"68826","miles_from_dt":13.35},{"city":"Wolbach","state_name":"Nebraska","lat":41.42362,"lng":-98.40366,"zip":"68882","miles_from_dt":14.08},{"city":"Belgrade","state_name":"Nebraska","lat":41.44327,"lng":-98.11602,"zip":"68623","miles_from_dt":14.16},{"city":"Fullerton","state_name":"Nebraska","lat":41.36848,"lng":-97.98977,"zip":"68638","miles_from_dt":15.01},{"city":"Chapman","state_name":"Nebraska","lat":41.04247,"lng":-98.1811,"zip":"68827","miles_from_dt":15.38},{"city":"Dannebrog","state_name":"Nebraska","lat":41.10937,"lng":-98.54661,"zip":"68831","miles_from_dt":19.08},{"city":"Cedar Rapids","state_name":"Nebraska","lat":41.54445,"lng":-98.17041,"zip":"68627","miles_from_dt":19.91},{"city":"Elba","state_name":"Nebraska","lat":41.33326,"lng":-98.61769,"zip":"68835","miles_from_dt":20.26},{"city":"Clarks","state_name":"Nebraska","lat":41.21694,"lng":-97.84355,"zip":"68628","miles_from_dt":20.9},{"city":"Marquette","state_name":"Nebraska","lat":41.00798,"lng":-98.00239,"zip":"68854","miles_from_dt":21.42},{"city":"Grand Island","state_name":"Nebraska","lat":40.94949,"lng":-98.29295,"zip":"68801","miles_from_dt":21.66},{"city":"Farwell","state_name":"Nebraska","lat":41.2156,"lng":-98.66755,"zip":"68838","miles_from_dt":22.46},{"city":"Hordville","state_name":"Nebraska","lat":41.06499,"lng":-97.88533,"zip":"68846","miles_from_dt":22.93},{"city":"Grand Island","state_name":"Nebraska","lat":40.95357,"lng":-98.41593,"zip":"68803","miles_from_dt":23.09},{"city":"Grand Island","state_name":"Nebraska","lat":40.9104,"lng":-98.35067,"zip":"68802","miles_from_dt":24.86},{"city":"Phillips","state_name":"Nebraska","lat":40.89337,"lng":-98.187,"zip":"68865","miles_from_dt":25.51},{"city":"Boelus","state_name":"Nebraska","lat":41.1066,"lng":-98.70056,"zip":"68820","miles_from_dt":26.24},{"city":"Cairo","state_name":"Nebraska","lat":41.00535,"lng":-98.61402,"zip":"68824","miles_from_dt":26.28},{"city":"Primrose","state_name":"Nebraska","lat":41.64881,"lng":-98.26222,"zip":"68655","miles_from_dt":26.8},{"city":"Greeley","state_name":"Nebraska","lat":41.58068,"lng":-98.53462,"zip":"68842","miles_from_dt":26.85},{"city":"Polk","state_name":"Nebraska","lat":41.06791,"lng":-97.7772,"zip":"68654","miles_from_dt":27.58},{"city":"Genoa","state_name":"Nebraska","lat":41.46111,"lng":-97.77237,"zip":"68640","miles_from_dt":27.99},{"city":"Silver Creek","state_name":"Nebraska","lat":41.31193,"lng":-97.69927,"zip":"68663","miles_from_dt":28.39},{"city":"Ashton","state_name":"Nebraska","lat":41.26125,"lng":-98.7937,"zip":"68817","miles_from_dt":28.81},{"city":"Scotia","state_name":"Nebraska","lat":41.51328,"lng":-98.68197,"zip":"68875","miles_from_dt":28.81},{"city":"Saint Edward","state_name":"Nebraska","lat":41.57398,"lng":-97.86792,"zip":"68660","miles_from_dt":29.01},{"city":"Alda","state_name":"Nebraska","lat":40.86238,"lng":-98.4675,"zip":"68810","miles_from_dt":29.94}],"targetCityZipCode":"68864","targetCityState":"Nebraska"},"__N_SSG":true}