{"pageProps":{"stateName":"Nebraska","cityName":"prague","nearbyCities":[{"city":"Malmo","state_name":"Nebraska","lat":41.28555,"lng":-96.73815,"zip":"68040","miles_from_dt":5.64},{"city":"Abie","state_name":"Nebraska","lat":41.33369,"lng":-96.95489,"zip":"68001","miles_from_dt":6.13},{"city":"Bruno","state_name":"Nebraska","lat":41.28219,"lng":-96.96458,"zip":"68014","miles_from_dt":6.53},{"city":"Morse Bluff","state_name":"Nebraska","lat":41.40482,"lng":-96.78949,"zip":"68648","miles_from_dt":7.37},{"city":"Linwood","state_name":"Nebraska","lat":41.39031,"lng":-96.95086,"zip":"68036","miles_from_dt":8.08},{"city":"Weston","state_name":"Nebraska","lat":41.1924,"lng":-96.79973,"zip":"68070","miles_from_dt":8.15},{"city":"Cedar Bluffs","state_name":"Nebraska","lat":41.38351,"lng":-96.64737,"zip":"68015","miles_from_dt":11.5},{"city":"Colon","state_name":"Nebraska","lat":41.30207,"lng":-96.61573,"zip":"68018","miles_from_dt":11.83},{"city":"Brainard","state_name":"Nebraska","lat":41.16821,"lng":-96.9921,"zip":"68626","miles_from_dt":12.27},{"city":"North Bend","state_name":"Nebraska","lat":41.50784,"lng":-96.78896,"zip":"68649","miles_from_dt":14.21},{"city":"Wahoo","state_name":"Nebraska","lat":41.18451,"lng":-96.61996,"zip":"68066","miles_from_dt":14.32},{"city":"David City","state_name":"Nebraska","lat":41.24266,"lng":-97.13288,"zip":"68632","miles_from_dt":15.71},{"city":"Valparaiso","state_name":"Nebraska","lat":41.0766,"lng":-96.84854,"zip":"68065","miles_from_dt":15.83},{"city":"Ames","state_name":"Nebraska","lat":41.48963,"lng":-96.63911,"zip":"68621","miles_from_dt":16.52},{"city":"Rogers","state_name":"Nebraska","lat":41.54388,"lng":-96.94438,"zip":"68659","miles_from_dt":17.24},{"city":"Dwight","state_name":"Nebraska","lat":41.08544,"lng":-97.02298,"zip":"68635","miles_from_dt":17.87},{"city":"Schuyler","state_name":"Nebraska","lat":41.49559,"lng":-97.08347,"zip":"68661","miles_from_dt":18.09},{"city":"Mead","state_name":"Nebraska","lat":41.23633,"lng":-96.48793,"zip":"68041","miles_from_dt":19.1},{"city":"Ceresco","state_name":"Nebraska","lat":41.05938,"lng":-96.66179,"zip":"68017","miles_from_dt":19.46},{"city":"Bellwood","state_name":"Nebraska","lat":41.34974,"lng":-97.22858,"zip":"68624","miles_from_dt":20.28},{"city":"Fremont","state_name":"Nebraska","lat":41.43749,"lng":-96.49158,"zip":"68025","miles_from_dt":20.4},{"city":"Fremont","state_name":"Nebraska","lat":41.44032,"lng":-96.48975,"zip":"68026","miles_from_dt":20.57},{"city":"Ithaca","state_name":"Nebraska","lat":41.12933,"lng":-96.52425,"zip":"68033","miles_from_dt":20.6},{"city":"Bee","state_name":"Nebraska","lat":41.01643,"lng":-97.0248,"zip":"68314","miles_from_dt":22.11},{"city":"Yutan","state_name":"Nebraska","lat":41.23931,"lng":-96.40931,"zip":"68073","miles_from_dt":23.04},{"city":"Raymond","state_name":"Nebraska","lat":40.97244,"lng":-96.79624,"zip":"68428","miles_from_dt":23.14},{"city":"Rising City","state_name":"Nebraska","lat":41.19971,"lng":-97.2937,"zip":"68658","miles_from_dt":24.59},{"city":"Davey","state_name":"Nebraska","lat":40.9615,"lng":-96.68405,"zip":"68336","miles_from_dt":25.17},{"city":"Scribner","state_name":"Nebraska","lat":41.65888,"lng":-96.71893,"zip":"68057","miles_from_dt":25.19},{"city":"Garland","state_name":"Nebraska","lat":40.94613,"lng":-96.95661,"zip":"68360","miles_from_dt":25.53},{"city":"Valley","state_name":"Nebraska","lat":41.34925,"lng":-96.35545,"zip":"68064","miles_from_dt":25.54},{"city":"Memphis","state_name":"Nebraska","lat":41.09426,"lng":-96.43683,"zip":"68042","miles_from_dt":25.72},{"city":"Ulysses","state_name":"Nebraska","lat":41.07789,"lng":-97.23612,"zip":"68669","miles_from_dt":25.84},{"city":"Columbus","state_name":"Nebraska","lat":41.44629,"lng":-97.30773,"zip":"68602","miles_from_dt":26.03},{"city":"Nickerson","state_name":"Nebraska","lat":41.54798,"lng":-96.44871,"zip":"68044","miles_from_dt":26.43},{"city":"Winslow","state_name":"Nebraska","lat":41.61016,"lng":-96.50473,"zip":"68072","miles_from_dt":27.37},{"city":"Surprise","state_name":"Nebraska","lat":41.11231,"lng":-97.30278,"zip":"68667","miles_from_dt":27.43},{"city":"Malcolm","state_name":"Nebraska","lat":40.90829,"lng":-96.8571,"zip":"68402","miles_from_dt":27.45},{"city":"Lincoln","state_name":"Nebraska","lat":40.93408,"lng":-96.65076,"zip":"68514","miles_from_dt":27.55},{"city":"Snyder","state_name":"Nebraska","lat":41.70453,"lng":-96.78694,"zip":"68664","miles_from_dt":27.66},{"city":"Dodge","state_name":"Nebraska","lat":41.70585,"lng":-96.89668,"zip":"68633","miles_from_dt":27.74},{"city":"Waterloo","state_name":"Nebraska","lat":41.24166,"lng":-96.31542,"zip":"68069","miles_from_dt":27.82},{"city":"Hooper","state_name":"Nebraska","lat":41.64041,"lng":-96.53046,"zip":"68031","miles_from_dt":28.21},{"city":"Lincoln","state_name":"Nebraska","lat":40.93341,"lng":-96.60487,"zip":"68517","miles_from_dt":28.55},{"city":"Staplehurst","state_name":"Nebraska","lat":40.99937,"lng":-97.21136,"zip":"68439","miles_from_dt":28.58},{"city":"Lincoln","state_name":"Nebraska","lat":40.90211,"lng":-96.71415,"zip":"68531","miles_from_dt":28.67},{"city":"Ashland","state_name":"Nebraska","lat":41.07161,"lng":-96.38013,"zip":"68003","miles_from_dt":29.05},{"city":"Arlington","state_name":"Nebraska","lat":41.50163,"lng":-96.33975,"zip":"68002","miles_from_dt":29.43},{"city":"Waverly","state_name":"Nebraska","lat":40.94804,"lng":-96.52806,"zip":"68462","miles_from_dt":29.67}],"targetCityZipCode":"68050","targetCityState":"Nebraska"},"__N_SSG":true}