{"pageProps":{"stateName":"Nebraska","cityName":"saint-libory","nearbyCities":[{"city":"Chapman","state_name":"Nebraska","lat":41.04247,"lng":-98.1811,"zip":"68827","miles_from_dt":8.62},{"city":"Grand Island","state_name":"Nebraska","lat":40.94949,"lng":-98.29295,"zip":"68801","miles_from_dt":10.1},{"city":"Grand Island","state_name":"Nebraska","lat":40.95357,"lng":-98.41593,"zip":"68803","miles_from_dt":10.56},{"city":"Dannebrog","state_name":"Nebraska","lat":41.10937,"lng":-98.54661,"zip":"68831","miles_from_dt":11.25},{"city":"Archer","state_name":"Nebraska","lat":41.17484,"lng":-98.13373,"zip":"68816","miles_from_dt":11.8},{"city":"Saint Paul","state_name":"Nebraska","lat":41.24696,"lng":-98.45149,"zip":"68873","miles_from_dt":12.32},{"city":"Palmer","state_name":"Nebraska","lat":41.2608,"lng":-98.24046,"zip":"68864","miles_from_dt":12.54},{"city":"Grand Island","state_name":"Nebraska","lat":40.9104,"lng":-98.35067,"zip":"68802","miles_from_dt":12.63},{"city":"Phillips","state_name":"Nebraska","lat":40.89337,"lng":-98.187,"zip":"68865","miles_from_dt":15.72},{"city":"Cairo","state_name":"Nebraska","lat":41.00535,"lng":-98.61402,"zip":"68824","miles_from_dt":15.91},{"city":"Central City","state_name":"Nebraska","lat":41.16341,"lng":-98.0191,"zip":"68826","miles_from_dt":17.04},{"city":"Alda","state_name":"Nebraska","lat":40.86238,"lng":-98.4675,"zip":"68810","miles_from_dt":17.41},{"city":"Marquette","state_name":"Nebraska","lat":41.00798,"lng":-98.00239,"zip":"68854","miles_from_dt":18.2},{"city":"Boelus","state_name":"Nebraska","lat":41.1066,"lng":-98.70056,"zip":"68820","miles_from_dt":19.25},{"city":"Farwell","state_name":"Nebraska","lat":41.2156,"lng":-98.66755,"zip":"68838","miles_from_dt":19.44},{"city":"Elba","state_name":"Nebraska","lat":41.33326,"lng":-98.61769,"zip":"68835","miles_from_dt":22.28},{"city":"Doniphan","state_name":"Nebraska","lat":40.76963,"lng":-98.36608,"zip":"68832","miles_from_dt":22.37},{"city":"Wolbach","state_name":"Nebraska","lat":41.42362,"lng":-98.40366,"zip":"68882","miles_from_dt":23.13},{"city":"Wood River","state_name":"Nebraska","lat":40.81823,"lng":-98.58558,"zip":"68883","miles_from_dt":23.13},{"city":"Hordville","state_name":"Nebraska","lat":41.06499,"lng":-97.88533,"zip":"68846","miles_from_dt":23.41},{"city":"Giltner","state_name":"Nebraska","lat":40.76316,"lng":-98.16677,"zip":"68841","miles_from_dt":24.34},{"city":"Aurora","state_name":"Nebraska","lat":40.82211,"lng":-98.01036,"zip":"68818","miles_from_dt":25.15},{"city":"Fullerton","state_name":"Nebraska","lat":41.36848,"lng":-97.98977,"zip":"68638","miles_from_dt":26.08},{"city":"Belgrade","state_name":"Nebraska","lat":41.44327,"lng":-98.11602,"zip":"68623","miles_from_dt":26.67},{"city":"Ashton","state_name":"Nebraska","lat":41.26125,"lng":-98.7937,"zip":"68817","miles_from_dt":26.72},{"city":"Clarks","state_name":"Nebraska","lat":41.21694,"lng":-97.84355,"zip":"68628","miles_from_dt":26.88},{"city":"Hampton","state_name":"Nebraska","lat":40.90334,"lng":-97.88018,"zip":"68843","miles_from_dt":27.01},{"city":"Rockville","state_name":"Nebraska","lat":41.14039,"lng":-98.84788,"zip":"68871","miles_from_dt":27.11},{"city":"Shelton","state_name":"Nebraska","lat":40.82492,"lng":-98.74663,"zip":"68876","miles_from_dt":28.49},{"city":"Trumbull","state_name":"Nebraska","lat":40.68213,"lng":-98.25814,"zip":"68980","miles_from_dt":28.61},{"city":"Polk","state_name":"Nebraska","lat":41.06791,"lng":-97.7772,"zip":"68654","miles_from_dt":29.03},{"city":"Ravenna","state_name":"Nebraska","lat":40.99944,"lng":-98.88325,"zip":"68869","miles_from_dt":29.5}],"targetCityZipCode":"68872","targetCityState":"Nebraska"},"__N_SSG":true}