{"pageProps":{"stateName":"Nebraska","cityName":"saronville","nearbyCities":[{"city":"Sutton","state_name":"Nebraska","lat":40.59717,"lng":-97.85319,"zip":"68979","miles_from_dt":5.52},{"city":"Harvard","state_name":"Nebraska","lat":40.63741,"lng":-98.0949,"zip":"68944","miles_from_dt":7.5},{"city":"Clay Center","state_name":"Nebraska","lat":40.51786,"lng":-98.04211,"zip":"68933","miles_from_dt":8.24},{"city":"Grafton","state_name":"Nebraska","lat":40.61565,"lng":-97.73065,"zip":"68365","miles_from_dt":11.79},{"city":"Henderson","state_name":"Nebraska","lat":40.77304,"lng":-97.78417,"zip":"68371","miles_from_dt":14.01},{"city":"Aurora","state_name":"Nebraska","lat":40.82211,"lng":-98.01036,"zip":"68818","miles_from_dt":14.45},{"city":"Inland","state_name":"Nebraska","lat":40.61215,"lng":-98.23512,"zip":"68954","miles_from_dt":14.74},{"city":"Giltner","state_name":"Nebraska","lat":40.76316,"lng":-98.16677,"zip":"68841","miles_from_dt":15.02},{"city":"Ong","state_name":"Nebraska","lat":40.39755,"lng":-97.85036,"zip":"68452","miles_from_dt":16.11},{"city":"Fairfield","state_name":"Nebraska","lat":40.42093,"lng":-98.12344,"zip":"68938","miles_from_dt":16.18},{"city":"Edgar","state_name":"Nebraska","lat":40.38058,"lng":-97.95859,"zip":"68935","miles_from_dt":16.32},{"city":"Trumbull","state_name":"Nebraska","lat":40.68213,"lng":-98.25814,"zip":"68980","miles_from_dt":16.56},{"city":"Shickley","state_name":"Nebraska","lat":40.43357,"lng":-97.74427,"zip":"68436","miles_from_dt":16.83},{"city":"Glenvil","state_name":"Nebraska","lat":40.46882,"lng":-98.26792,"zip":"68941","miles_from_dt":19.4},{"city":"Fairmont","state_name":"Nebraska","lat":40.63935,"lng":-97.58032,"zip":"68354","miles_from_dt":19.75},{"city":"Geneva","state_name":"Nebraska","lat":40.50756,"lng":-97.60146,"zip":"68361","miles_from_dt":20.07},{"city":"Hampton","state_name":"Nebraska","lat":40.90334,"lng":-97.88018,"zip":"68843","miles_from_dt":20.14},{"city":"McCool Junction","state_name":"Nebraska","lat":40.74233,"lng":-97.58569,"zip":"68401","miles_from_dt":21.23},{"city":"Hastings","state_name":"Nebraska","lat":40.59092,"lng":-98.36599,"zip":"68901","miles_from_dt":21.7},{"city":"Deweese","state_name":"Nebraska","lat":40.33831,"lng":-98.15962,"zip":"68934","miles_from_dt":22.05},{"city":"Phillips","state_name":"Nebraska","lat":40.89337,"lng":-98.187,"zip":"68865","miles_from_dt":22.63},{"city":"Hastings","state_name":"Nebraska","lat":40.58543,"lng":-98.38512,"zip":"68902","miles_from_dt":22.74},{"city":"Doniphan","state_name":"Nebraska","lat":40.76963,"lng":-98.36608,"zip":"68832","miles_from_dt":24.03},{"city":"Strang","state_name":"Nebraska","lat":40.41117,"lng":-97.5847,"zip":"68444","miles_from_dt":24.12},{"city":"Bradshaw","state_name":"Nebraska","lat":40.93656,"lng":-97.75817,"zip":"68319","miles_from_dt":24.34},{"city":"Davenport","state_name":"Nebraska","lat":40.28243,"lng":-97.803,"zip":"68335","miles_from_dt":24.44},{"city":"York","state_name":"Nebraska","lat":40.86528,"lng":-97.59778,"zip":"68467","miles_from_dt":25.39},{"city":"Oak","state_name":"Nebraska","lat":40.23541,"lng":-97.90207,"zip":"68964","miles_from_dt":26.48},{"city":"Carleton","state_name":"Nebraska","lat":40.28569,"lng":-97.68243,"zip":"68326","miles_from_dt":27},{"city":"Marquette","state_name":"Nebraska","lat":41.00798,"lng":-98.00239,"zip":"68854","miles_from_dt":27.09},{"city":"Exeter","state_name":"Nebraska","lat":40.65393,"lng":-97.43015,"zip":"68351","miles_from_dt":27.7},{"city":"Lawrence","state_name":"Nebraska","lat":40.26745,"lng":-98.24176,"zip":"68957","miles_from_dt":28.47},{"city":"Nelson","state_name":"Nebraska","lat":40.20679,"lng":-98.03502,"zip":"68961","miles_from_dt":28.62},{"city":"Ayr","state_name":"Nebraska","lat":40.42366,"lng":-98.43821,"zip":"68925","miles_from_dt":28.74},{"city":"Bruning","state_name":"Nebraska","lat":40.3346,"lng":-97.55356,"zip":"68322","miles_from_dt":28.76},{"city":"Grand Island","state_name":"Nebraska","lat":40.94949,"lng":-98.29295,"zip":"68801","miles_from_dt":29},{"city":"Grand Island","state_name":"Nebraska","lat":40.9104,"lng":-98.35067,"zip":"68802","miles_from_dt":29},{"city":"Ohiowa","state_name":"Nebraska","lat":40.41093,"lng":-97.46185,"zip":"68416","miles_from_dt":29.6}],"targetCityZipCode":"68975","targetCityState":"Nebraska"},"__N_SSG":true}