{"pageProps":{"stateName":"Nebraska","cityName":"smithfield","nearbyCities":[{"city":"Bertrand","state_name":"Nebraska","lat":40.51146,"lng":-99.62665,"zip":"68927","miles_from_dt":7.63},{"city":"Elwood","state_name":"Nebraska","lat":40.57262,"lng":-99.85494,"zip":"68937","miles_from_dt":7.94},{"city":"Loomis","state_name":"Nebraska","lat":40.52772,"lng":-99.50394,"zip":"68958","miles_from_dt":11.96},{"city":"Overton","state_name":"Nebraska","lat":40.76628,"lng":-99.5252,"zip":"68863","miles_from_dt":14.88},{"city":"Lexington","state_name":"Nebraska","lat":40.82548,"lng":-99.73574,"zip":"68850","miles_from_dt":15.46},{"city":"Eustis","state_name":"Nebraska","lat":40.64107,"lng":-100.04708,"zip":"69028","miles_from_dt":17.97},{"city":"Elm Creek","state_name":"Nebraska","lat":40.70709,"lng":-99.37865,"zip":"68836","miles_from_dt":18.81},{"city":"Edison","state_name":"Nebraska","lat":40.31655,"lng":-99.77868,"zip":"68936","miles_from_dt":20.05},{"city":"Holdrege","state_name":"Nebraska","lat":40.43193,"lng":-99.39481,"zip":"68949","miles_from_dt":20.3},{"city":"Atlanta","state_name":"Nebraska","lat":40.36835,"lng":-99.47314,"zip":"68923","miles_from_dt":20.38},{"city":"Arapahoe","state_name":"Nebraska","lat":40.33653,"lng":-99.89976,"zip":"68922","miles_from_dt":20.91},{"city":"Odessa","state_name":"Nebraska","lat":40.69892,"lng":-99.2639,"zip":"68861","miles_from_dt":24.33},{"city":"Oxford","state_name":"Nebraska","lat":40.25263,"lng":-99.63085,"zip":"68967","miles_from_dt":24.48},{"city":"Funk","state_name":"Nebraska","lat":40.53815,"lng":-99.25086,"zip":"68940","miles_from_dt":24.52},{"city":"Cozad","state_name":"Nebraska","lat":40.89924,"lng":-99.96628,"zip":"69130","miles_from_dt":24.53},{"city":"Holbrook","state_name":"Nebraska","lat":40.34151,"lng":-100.02639,"zip":"68948","miles_from_dt":24.56},{"city":"Willow Island","state_name":"Nebraska","lat":40.89065,"lng":-100.06814,"zip":"69171","miles_from_dt":27.4},{"city":"Sumner","state_name":"Nebraska","lat":40.98623,"lng":-99.50567,"zip":"68878","miles_from_dt":28.56},{"city":"Farnam","state_name":"Nebraska","lat":40.68537,"lng":-100.24277,"zip":"69029","miles_from_dt":28.62},{"city":"Eddyville","state_name":"Nebraska","lat":41.01834,"lng":-99.65049,"zip":"68834","miles_from_dt":28.87},{"city":"Kearney","state_name":"Nebraska","lat":40.71583,"lng":-99.17059,"zip":"68845","miles_from_dt":29.37}],"targetCityZipCode":"68976","targetCityState":"Nebraska"},"__N_SSG":true}