{"pageProps":{"stateName":"Nebraska","cityName":"stuart","nearbyCities":[{"city":"Atkinson","state_name":"Nebraska","lat":42.54061,"lng":-98.9718,"zip":"68713","miles_from_dt":11.28},{"city":"Newport","state_name":"Nebraska","lat":42.75096,"lng":-99.33762,"zip":"68759","miles_from_dt":12.36},{"city":"Naper","state_name":"Nebraska","lat":42.92329,"lng":-99.12963,"zip":"68755","miles_from_dt":19.13},{"city":"Mills","state_name":"Nebraska","lat":42.84464,"lng":-99.45588,"zip":"68753","miles_from_dt":21.09},{"city":"Emmet","state_name":"Nebraska","lat":42.42528,"lng":-98.8044,"zip":"68734","miles_from_dt":22.96},{"city":"Butte","state_name":"Nebraska","lat":42.92074,"lng":-98.87123,"zip":"68722","miles_from_dt":23.38},{"city":"Bassett","state_name":"Nebraska","lat":42.36957,"lng":-99.50258,"zip":"68714","miles_from_dt":26.58},{"city":"Saint Charles","state_name":"South Dakota","lat":43.04152,"lng":-99.09042,"zip":"57571","miles_from_dt":27.41},{"city":"Spencer","state_name":"Nebraska","lat":42.86088,"lng":-98.68504,"zip":"68777","miles_from_dt":27.51},{"city":"Oneill","state_name":"Nebraska","lat":42.51809,"lng":-98.58254,"zip":"68763","miles_from_dt":29.81}],"targetCityZipCode":"68780","targetCityState":"Nebraska"},"__N_SSG":true}