{"pageProps":{"stateName":"Kansas","cityName":"argonia","nearbyCities":[{"city":"Milan","state_name":"Kansas","lat":37.22001,"lng":-97.67825,"zip":"67105","miles_from_dt":6.43},{"city":"Danville","state_name":"Kansas","lat":37.28987,"lng":-97.88262,"zip":"67036","miles_from_dt":6.55},{"city":"Freeport","state_name":"Kansas","lat":37.17059,"lng":-97.84646,"zip":"67049","miles_from_dt":9},{"city":"Conway Springs","state_name":"Kansas","lat":37.40444,"lng":-97.63848,"zip":"67031","miles_from_dt":10.85},{"city":"Mayfield","state_name":"Kansas","lat":37.26439,"lng":-97.55977,"zip":"67103","miles_from_dt":11.33},{"city":"Milton","state_name":"Kansas","lat":37.46335,"lng":-97.75804,"zip":"67106","miles_from_dt":12.43},{"city":"Norwich","state_name":"Kansas","lat":37.47829,"lng":-97.8605,"zip":"67118","miles_from_dt":14.47},{"city":"Bluff City","state_name":"Kansas","lat":37.07108,"lng":-97.85872,"zip":"67018","miles_from_dt":15.53},{"city":"Caldwell","state_name":"Kansas","lat":37.07352,"lng":-97.63347,"zip":"67022","miles_from_dt":16.15},{"city":"Harper","state_name":"Kansas","lat":37.32006,"lng":-98.06493,"zip":"67058","miles_from_dt":16.77},{"city":"Viola","state_name":"Kansas","lat":37.54243,"lng":-97.62915,"zip":"67149","miles_from_dt":19.36},{"city":"Wellington","state_name":"Kansas","lat":37.2623,"lng":-97.41104,"zip":"67152","miles_from_dt":19.51},{"city":"Anthony","state_name":"Kansas","lat":37.1109,"lng":-98.06319,"zip":"67003","miles_from_dt":20.34},{"city":"Clearwater","state_name":"Kansas","lat":37.51047,"lng":-97.49239,"zip":"67026","miles_from_dt":21.66},{"city":"Spivey","state_name":"Kansas","lat":37.45655,"lng":-98.1094,"zip":"67142","miles_from_dt":22.46},{"city":"Murdock","state_name":"Kansas","lat":37.6151,"lng":-97.93453,"zip":"67111","miles_from_dt":24.74},{"city":"Cheney","state_name":"Kansas","lat":37.64146,"lng":-97.78789,"zip":"67025","miles_from_dt":24.74},{"city":"Peck","state_name":"Kansas","lat":37.46591,"lng":-97.37592,"zip":"67120","miles_from_dt":24.8},{"city":"South Haven","state_name":"Kansas","lat":37.07992,"lng":-97.35748,"zip":"67140","miles_from_dt":26.45},{"city":"Garden Plain","state_name":"Kansas","lat":37.675,"lng":-97.6769,"zip":"67050","miles_from_dt":27.44},{"city":"Wichita","state_name":"Kansas","lat":37.62693,"lng":-97.50109,"zip":"67227","miles_from_dt":27.77},{"city":"Belle Plaine","state_name":"Kansas","lat":37.37904,"lng":-97.27378,"zip":"67013","miles_from_dt":27.79},{"city":"Attica","state_name":"Kansas","lat":37.22153,"lng":-98.26369,"zip":"67009","miles_from_dt":27.87},{"city":"Goddard","state_name":"Kansas","lat":37.65812,"lng":-97.57357,"zip":"67052","miles_from_dt":27.9},{"city":"Haysville","state_name":"Kansas","lat":37.54601,"lng":-97.35952,"zip":"67060","miles_from_dt":28.7},{"city":"Medford","state_name":"Oklahoma","lat":36.85815,"lng":-97.71362,"zip":"73759","miles_from_dt":29.44},{"city":"Wichita","state_name":"Kansas","lat":37.61637,"lng":-97.42707,"zip":"67215","miles_from_dt":29.52},{"city":"Waldron","state_name":"Kansas","lat":37.03207,"lng":-98.20187,"zip":"67150","miles_from_dt":29.73}],"targetCityZipCode":"67004","targetCityState":"Kansas"},"__N_SSG":true}