{"pageProps":{"stateName":"Kansas","cityName":"baileyville","nearbyCities":[{"city":"Axtell","state_name":"Kansas","lat":39.89424,"lng":-96.27166,"zip":"66403","miles_from_dt":5.3},{"city":"Seneca","state_name":"Kansas","lat":39.84942,"lng":-96.04591,"zip":"66538","miles_from_dt":7.14},{"city":"Summerfield","state_name":"Kansas","lat":39.97891,"lng":-96.34781,"zip":"66541","miles_from_dt":11.83},{"city":"Bern","state_name":"Kansas","lat":39.95306,"lng":-95.97607,"zip":"66408","miles_from_dt":12.24},{"city":"Centralia","state_name":"Kansas","lat":39.69193,"lng":-96.14381,"zip":"66415","miles_from_dt":12.27},{"city":"Oneida","state_name":"Kansas","lat":39.86609,"lng":-95.93826,"zip":"66522","miles_from_dt":12.75},{"city":"Beattie","state_name":"Kansas","lat":39.8927,"lng":-96.42014,"zip":"66406","miles_from_dt":12.98},{"city":"Vermillion","state_name":"Kansas","lat":39.68807,"lng":-96.27783,"zip":"66544","miles_from_dt":13.49},{"city":"Du Bois","state_name":"Nebraska","lat":40.03692,"lng":-96.01928,"zip":"68345","miles_from_dt":14.39},{"city":"Pawnee City","state_name":"Nebraska","lat":40.08556,"lng":-96.19125,"zip":"68420","miles_from_dt":15.04},{"city":"Corning","state_name":"Kansas","lat":39.65524,"lng":-96.03824,"zip":"66417","miles_from_dt":16.45},{"city":"Home","state_name":"Kansas","lat":39.83335,"lng":-96.50165,"zip":"66438","miles_from_dt":17.37},{"city":"Sabetha","state_name":"Kansas","lat":39.87782,"lng":-95.83635,"zip":"66534","miles_from_dt":18.18},{"city":"Goff","state_name":"Kansas","lat":39.67687,"lng":-95.92504,"zip":"66428","miles_from_dt":18.84},{"city":"Frankfort","state_name":"Kansas","lat":39.66261,"lng":-96.449,"zip":"66427","miles_from_dt":20.21},{"city":"Burchard","state_name":"Nebraska","lat":40.13197,"lng":-96.37034,"zip":"68323","miles_from_dt":20.88},{"city":"Oketo","state_name":"Kansas","lat":39.97008,"lng":-96.55533,"zip":"66518","miles_from_dt":21.25},{"city":"Liberty","state_name":"Nebraska","lat":40.07979,"lng":-96.48176,"zip":"68381","miles_from_dt":21.76},{"city":"Table Rock","state_name":"Nebraska","lat":40.20044,"lng":-96.07366,"zip":"68447","miles_from_dt":23.6},{"city":"Wetmore","state_name":"Kansas","lat":39.65537,"lng":-95.82113,"zip":"66550","miles_from_dt":24},{"city":"Dawson","state_name":"Nebraska","lat":40.09504,"lng":-95.83418,"zip":"68337","miles_from_dt":24.06},{"city":"Barneston","state_name":"Nebraska","lat":40.04907,"lng":-96.57285,"zip":"68309","miles_from_dt":24.41},{"city":"Humboldt","state_name":"Nebraska","lat":40.171,"lng":-95.93809,"zip":"68376","miles_from_dt":24.48},{"city":"Fairview","state_name":"Kansas","lat":39.81099,"lng":-95.72225,"zip":"66425","miles_from_dt":24.56},{"city":"Marysville","state_name":"Kansas","lat":39.85803,"lng":-96.64287,"zip":"66508","miles_from_dt":24.72},{"city":"Steinauer","state_name":"Nebraska","lat":40.22581,"lng":-96.25461,"zip":"68441","miles_from_dt":25.03},{"city":"Morrill","state_name":"Kansas","lat":39.94181,"lng":-95.70681,"zip":"66515","miles_from_dt":25.55},{"city":"Salem","state_name":"Nebraska","lat":40.05251,"lng":-95.73969,"zip":"68433","miles_from_dt":26.53},{"city":"Havensville","state_name":"Kansas","lat":39.48768,"lng":-96.07348,"zip":"66432","miles_from_dt":26.81},{"city":"Onaga","state_name":"Kansas","lat":39.47668,"lng":-96.22128,"zip":"66521","miles_from_dt":27.09},{"city":"Powhattan","state_name":"Kansas","lat":39.74499,"lng":-95.67744,"zip":"66527","miles_from_dt":27.95},{"city":"Wymore","state_name":"Nebraska","lat":40.07109,"lng":-96.63773,"zip":"68466","miles_from_dt":28.14},{"city":"Lewiston","state_name":"Nebraska","lat":40.24283,"lng":-96.4059,"zip":"68380","miles_from_dt":28.55},{"city":"Soldier","state_name":"Kansas","lat":39.48484,"lng":-95.97332,"zip":"66540","miles_from_dt":28.59},{"city":"Circleville","state_name":"Kansas","lat":39.52944,"lng":-95.86353,"zip":"66416","miles_from_dt":28.74},{"city":"Blue Rapids","state_name":"Kansas","lat":39.64083,"lng":-96.63948,"zip":"66411","miles_from_dt":29.14},{"city":"Elk Creek","state_name":"Nebraska","lat":40.29569,"lng":-96.12208,"zip":"68348","miles_from_dt":29.67},{"city":"Netawaka","state_name":"Kansas","lat":39.62193,"lng":-95.7195,"zip":"66516","miles_from_dt":29.74},{"city":"Virginia","state_name":"Nebraska","lat":40.23107,"lng":-96.48742,"zip":"68458","miles_from_dt":29.95}],"targetCityZipCode":"66404","targetCityState":"Kansas"},"__N_SSG":true}