{"pageProps":{"stateName":"Kansas","cityName":"beverly","nearbyCities":[{"city":"Tescott","state_name":"Kansas","lat":38.99603,"lng":-97.83617,"zip":"67484","miles_from_dt":7.98},{"city":"Lincoln","state_name":"Kansas","lat":39.02765,"lng":-98.16478,"zip":"67455","miles_from_dt":10.68},{"city":"Brookville","state_name":"Kansas","lat":38.77991,"lng":-97.92492,"zip":"67425","miles_from_dt":13.46},{"city":"Barnard","state_name":"Kansas","lat":39.18692,"lng":-98.05214,"zip":"67418","miles_from_dt":15.44},{"city":"Ellsworth","state_name":"Kansas","lat":38.76169,"lng":-98.2201,"zip":"67439","miles_from_dt":19.33},{"city":"Minneapolis","state_name":"Kansas","lat":39.14639,"lng":-97.69907,"zip":"67467","miles_from_dt":19.42},{"city":"Kanopolis","state_name":"Kansas","lat":38.69808,"lng":-98.11308,"zip":"67454","miles_from_dt":20.08},{"city":"Salina","state_name":"Kansas","lat":38.83554,"lng":-97.64621,"zip":"67401","miles_from_dt":20.28},{"city":"Bennington","state_name":"Kansas","lat":39.03127,"lng":-97.59849,"zip":"67422","miles_from_dt":20.99},{"city":"Salina","state_name":"Kansas","lat":38.83888,"lng":-97.60819,"zip":"67402","miles_from_dt":22.02},{"city":"Sylvan Grove","state_name":"Kansas","lat":39.01244,"lng":-98.38903,"zip":"67481","miles_from_dt":22.18},{"city":"Falun","state_name":"Kansas","lat":38.64939,"lng":-97.78073,"zip":"67442","miles_from_dt":24.62},{"city":"Delphos","state_name":"Kansas","lat":39.28071,"lng":-97.72454,"zip":"67436","miles_from_dt":25.46},{"city":"New Cambria","state_name":"Kansas","lat":38.91077,"lng":-97.49513,"zip":"67470","miles_from_dt":26.47},{"city":"Hunter","state_name":"Kansas","lat":39.23549,"lng":-98.36935,"zip":"67452","miles_from_dt":27.78},{"city":"Wilson","state_name":"Kansas","lat":38.79223,"lng":-98.44722,"zip":"67490","miles_from_dt":27.99},{"city":"Marquette","state_name":"Kansas","lat":38.56537,"lng":-97.90143,"zip":"67464","miles_from_dt":28.25},{"city":"Simpson","state_name":"Kansas","lat":39.38572,"lng":-97.94988,"zip":"67478","miles_from_dt":28.71},{"city":"Glasco","state_name":"Kansas","lat":39.37789,"lng":-97.8172,"zip":"67445","miles_from_dt":29.46}],"targetCityZipCode":"67423","targetCityState":"Kansas"},"__N_SSG":true}