{"pageProps":{"stateName":"Kansas","cityName":"caney","nearbyCities":[{"city":"Tyro","state_name":"Kansas","lat":37.03683,"lng":-95.82184,"zip":"67364","miles_from_dt":2.89},{"city":"Havana","state_name":"Kansas","lat":37.12559,"lng":-95.95188,"zip":"67347","miles_from_dt":6.97},{"city":"Niotaze","state_name":"Kansas","lat":37.03275,"lng":-96.00974,"zip":"67355","miles_from_dt":7.65},{"city":"Dearing","state_name":"Kansas","lat":37.05948,"lng":-95.71207,"zip":"67340","miles_from_dt":8.91},{"city":"Copan","state_name":"Oklahoma","lat":36.93055,"lng":-95.98054,"zip":"74022","miles_from_dt":10.01},{"city":"Wann","state_name":"Oklahoma","lat":36.91504,"lng":-95.77093,"zip":"74083","miles_from_dt":10.69},{"city":"Peru","state_name":"Kansas","lat":37.05148,"lng":-96.09702,"zip":"67360","miles_from_dt":12.41},{"city":"Independence","state_name":"Kansas","lat":37.21092,"lng":-95.75224,"zip":"67301","miles_from_dt":13.11},{"city":"Coffeyville","state_name":"Kansas","lat":37.05486,"lng":-95.5993,"zip":"67337","miles_from_dt":15.11},{"city":"Dewey","state_name":"Oklahoma","lat":36.82558,"lng":-95.88172,"zip":"74029","miles_from_dt":15.27},{"city":"Chautauqua","state_name":"Kansas","lat":37.0241,"lng":-96.17736,"zip":"67334","miles_from_dt":16.93},{"city":"Elk City","state_name":"Kansas","lat":37.28875,"lng":-95.9514,"zip":"67344","miles_from_dt":17.23},{"city":"Liberty","state_name":"Kansas","lat":37.14066,"lng":-95.56698,"zip":"67351","miles_from_dt":18.07},{"city":"S Coffeyville","state_name":"Oklahoma","lat":36.94209,"lng":-95.54436,"zip":"74072","miles_from_dt":19.54},{"city":"Sedan","state_name":"Kansas","lat":37.13733,"lng":-96.21714,"zip":"67361","miles_from_dt":20.03},{"city":"Lenapah","state_name":"Oklahoma","lat":36.88381,"lng":-95.55223,"zip":"74042","miles_from_dt":20.99},{"city":"Sycamore","state_name":"Kansas","lat":37.32934,"lng":-95.71819,"zip":"67363","miles_from_dt":21.25},{"city":"Bartlesville","state_name":"Oklahoma","lat":36.7485,"lng":-95.9807,"zip":"74005","miles_from_dt":21.43},{"city":"Bartlesville","state_name":"Oklahoma","lat":36.73976,"lng":-95.94863,"zip":"74004","miles_from_dt":21.6},{"city":"Bartlesville","state_name":"Oklahoma","lat":36.71507,"lng":-95.89391,"zip":"74006","miles_from_dt":22.92},{"city":"Delaware","state_name":"Oklahoma","lat":36.80285,"lng":-95.58628,"zip":"74027","miles_from_dt":23.12},{"city":"Bartlesville","state_name":"Oklahoma","lat":36.73107,"lng":-96.06675,"zip":"74003","miles_from_dt":24.29},{"city":"Longton","state_name":"Kansas","lat":37.3574,"lng":-96.08154,"zip":"67352","miles_from_dt":24.32},{"city":"Cherryvale","state_name":"Kansas","lat":37.28005,"lng":-95.53381,"zip":"67335","miles_from_dt":24.65},{"city":"Neodesha","state_name":"Kansas","lat":37.41602,"lng":-95.69874,"zip":"66757","miles_from_dt":27.2},{"city":"Nowata","state_name":"Oklahoma","lat":36.69265,"lng":-95.65192,"zip":"74048","miles_from_dt":27.32},{"city":"Mound Valley","state_name":"Kansas","lat":37.20727,"lng":-95.41126,"zip":"67354","miles_from_dt":27.77},{"city":"Edna","state_name":"Kansas","lat":37.05877,"lng":-95.35513,"zip":"67342","miles_from_dt":28.61},{"city":"Elk Falls","state_name":"Kansas","lat":37.37122,"lng":-96.20075,"zip":"67345","miles_from_dt":28.77}],"targetCityZipCode":"67333","targetCityState":"Kansas"},"__N_SSG":true}