{"pageProps":{"stateName":"Kansas","cityName":"denison","nearbyCities":[{"city":"Valley Falls","state_name":"Kansas","lat":39.3416,"lng":-95.4563,"zip":"66088","miles_from_dt":7.72},{"city":"Hoyt","state_name":"Kansas","lat":39.26326,"lng":-95.68168,"zip":"66440","miles_from_dt":7.8},{"city":"Holton","state_name":"Kansas","lat":39.4655,"lng":-95.70278,"zip":"66436","miles_from_dt":9.35},{"city":"Mayetta","state_name":"Kansas","lat":39.33239,"lng":-95.78097,"zip":"66509","miles_from_dt":9.88},{"city":"Meriden","state_name":"Kansas","lat":39.20255,"lng":-95.54701,"zip":"66512","miles_from_dt":10.98},{"city":"Ozawkie","state_name":"Kansas","lat":39.21135,"lng":-95.45132,"zip":"66070","miles_from_dt":12.76},{"city":"Muscotah","state_name":"Kansas","lat":39.54018,"lng":-95.51894,"zip":"66058","miles_from_dt":13.38},{"city":"Nortonville","state_name":"Kansas","lat":39.41866,"lng":-95.3325,"zip":"66060","miles_from_dt":14.9},{"city":"Topeka","state_name":"Kansas","lat":39.13876,"lng":-95.625,"zip":"66617","miles_from_dt":15.08},{"city":"Effingham","state_name":"Kansas","lat":39.51375,"lng":-95.40005,"zip":"66023","miles_from_dt":15.2},{"city":"Whiting","state_name":"Kansas","lat":39.58736,"lng":-95.621,"zip":"66552","miles_from_dt":15.97},{"city":"Topeka","state_name":"Kansas","lat":39.14188,"lng":-95.74997,"zip":"66618","miles_from_dt":16.87},{"city":"Oskaloosa","state_name":"Kansas","lat":39.20359,"lng":-95.33142,"zip":"66066","miles_from_dt":17.81},{"city":"Grantville","state_name":"Kansas","lat":39.0989,"lng":-95.53725,"zip":"66429","miles_from_dt":18.07},{"city":"Circleville","state_name":"Kansas","lat":39.52944,"lng":-95.86353,"zip":"66416","miles_from_dt":18.51},{"city":"Delia","state_name":"Kansas","lat":39.28861,"lng":-95.93528,"zip":"66418","miles_from_dt":18.61},{"city":"Winchester","state_name":"Kansas","lat":39.32966,"lng":-95.23992,"zip":"66097","miles_from_dt":19.33},{"city":"Netawaka","state_name":"Kansas","lat":39.62193,"lng":-95.7195,"zip":"66516","miles_from_dt":19.41},{"city":"Topeka","state_name":"Kansas","lat":39.07984,"lng":-95.66708,"zip":"66608","miles_from_dt":19.43},{"city":"Silver Lake","state_name":"Kansas","lat":39.14937,"lng":-95.84707,"zip":"66539","miles_from_dt":19.52},{"city":"Topeka","state_name":"Kansas","lat":39.06845,"lng":-95.62388,"zip":"66616","miles_from_dt":19.91},{"city":"Topeka","state_name":"Kansas","lat":39.06888,"lng":-95.66674,"zip":"66675","miles_from_dt":20.17},{"city":"Horton","state_name":"Kansas","lat":39.65518,"lng":-95.54327,"zip":"66439","miles_from_dt":20.82},{"city":"Topeka","state_name":"Kansas","lat":39.05742,"lng":-95.67539,"zip":"66603","miles_from_dt":21.03},{"city":"Topeka","state_name":"Kansas","lat":39.05711,"lng":-95.67655,"zip":"66601","miles_from_dt":21.06},{"city":"Topeka","state_name":"Kansas","lat":39.05585,"lng":-95.67322,"zip":"66683","miles_from_dt":21.11},{"city":"Topeka","state_name":"Kansas","lat":39.05634,"lng":-95.67566,"zip":"66636","miles_from_dt":21.11},{"city":"Cummings","state_name":"Kansas","lat":39.47038,"lng":-95.23158,"zip":"66016","miles_from_dt":21.18},{"city":"Topeka","state_name":"Kansas","lat":39.0535,"lng":-95.67307,"zip":"66699","miles_from_dt":21.27},{"city":"Topeka","state_name":"Kansas","lat":39.06191,"lng":-95.72296,"zip":"66606","miles_from_dt":21.38},{"city":"Perry","state_name":"Kansas","lat":39.09208,"lng":-95.38144,"zip":"66073","miles_from_dt":21.65},{"city":"Topeka","state_name":"Kansas","lat":39.04806,"lng":-95.68262,"zip":"66629","miles_from_dt":21.74},{"city":"Topeka","state_name":"Kansas","lat":39.0422,"lng":-95.63502,"zip":"66607","miles_from_dt":21.76},{"city":"Topeka","state_name":"Kansas","lat":39.04781,"lng":-95.68325,"zip":"66625","miles_from_dt":21.76},{"city":"Topeka","state_name":"Kansas","lat":39.04725,"lng":-95.68282,"zip":"66626","miles_from_dt":21.8},{"city":"Soldier","state_name":"Kansas","lat":39.48484,"lng":-95.97332,"zip":"66540","miles_from_dt":21.9},{"city":"Topeka","state_name":"Kansas","lat":39.04026,"lng":-95.68037,"zip":"66612","miles_from_dt":22.24},{"city":"Topeka","state_name":"Kansas","lat":39.04185,"lng":-95.72735,"zip":"66667","miles_from_dt":22.77},{"city":"Lancaster","state_name":"Kansas","lat":39.59618,"lng":-95.30623,"zip":"66041","miles_from_dt":22.78},{"city":"Topeka","state_name":"Kansas","lat":39.03883,"lng":-95.72523,"zip":"66647","miles_from_dt":22.93},{"city":"Topeka","state_name":"Kansas","lat":39.03875,"lng":-95.72623,"zip":"66604","miles_from_dt":22.95},{"city":"Topeka","state_name":"Kansas","lat":39.03313,"lng":-95.70237,"zip":"66621","miles_from_dt":22.98},{"city":"Rossville","state_name":"Kansas","lat":39.16097,"lng":-95.95045,"zip":"66533","miles_from_dt":23.17},{"city":"Topeka","state_name":"Kansas","lat":39.02631,"lng":-95.72231,"zip":"66622","miles_from_dt":23.71},{"city":"Wetmore","state_name":"Kansas","lat":39.65537,"lng":-95.82113,"zip":"66550","miles_from_dt":23.79},{"city":"Topeka","state_name":"Kansas","lat":39.01635,"lng":-95.67207,"zip":"66624","miles_from_dt":23.79},{"city":"Topeka","state_name":"Kansas","lat":39.01167,"lng":-95.63283,"zip":"66605","miles_from_dt":23.85},{"city":"Tecumseh","state_name":"Kansas","lat":39.01273,"lng":-95.54442,"zip":"66542","miles_from_dt":23.89},{"city":"McLouth","state_name":"Kansas","lat":39.2055,"lng":-95.19518,"zip":"66054","miles_from_dt":24.03},{"city":"Topeka","state_name":"Kansas","lat":39.01526,"lng":-95.69601,"zip":"66611","miles_from_dt":24.1},{"city":"Everest","state_name":"Kansas","lat":39.67789,"lng":-95.40072,"zip":"66424","miles_from_dt":24.58},{"city":"Lecompton","state_name":"Kansas","lat":39.01961,"lng":-95.43697,"zip":"66050","miles_from_dt":24.81},{"city":"Emmett","state_name":"Kansas","lat":39.33317,"lng":-96.08496,"zip":"66422","miles_from_dt":26.08},{"city":"Topeka","state_name":"Kansas","lat":38.98193,"lng":-95.66974,"zip":"66609","miles_from_dt":26.11},{"city":"Topeka","state_name":"Kansas","lat":39.05214,"lng":-95.89491,"zip":"66615","miles_from_dt":26.32},{"city":"Easton","state_name":"Kansas","lat":39.34142,"lng":-95.10779,"zip":"66020","miles_from_dt":26.33},{"city":"Havensville","state_name":"Kansas","lat":39.48768,"lng":-96.07348,"zip":"66432","miles_from_dt":26.95},{"city":"Topeka","state_name":"Kansas","lat":39.01362,"lng":-95.84115,"zip":"66614","miles_from_dt":26.98},{"city":"Saint Marys","state_name":"Kansas","lat":39.2247,"lng":-96.07396,"zip":"66536","miles_from_dt":27.03},{"city":"Powhattan","state_name":"Kansas","lat":39.74499,"lng":-95.67744,"zip":"66527","miles_from_dt":27.13},{"city":"Topeka","state_name":"Kansas","lat":39.01324,"lng":-95.84812,"zip":"66630","miles_from_dt":27.19},{"city":"Atchison","state_name":"Kansas","lat":39.5488,"lng":-95.13881,"zip":"66002","miles_from_dt":27.97},{"city":"Goff","state_name":"Kansas","lat":39.67687,"lng":-95.92504,"zip":"66428","miles_from_dt":28.14},{"city":"Topeka","state_name":"Kansas","lat":38.94661,"lng":-95.68993,"zip":"66619","miles_from_dt":28.69},{"city":"Topeka","state_name":"Kansas","lat":38.94662,"lng":-95.71574,"zip":"66620","miles_from_dt":28.96},{"city":"Lawrence","state_name":"Kansas","lat":38.97773,"lng":-95.34729,"zip":"66049","miles_from_dt":29.42},{"city":"Topeka","state_name":"Kansas","lat":38.97277,"lng":-95.84718,"zip":"66610","miles_from_dt":29.63},{"city":"Denton","state_name":"Kansas","lat":39.70599,"lng":-95.27591,"zip":"66017","miles_from_dt":29.66},{"city":"Berryton","state_name":"Kansas","lat":38.92508,"lng":-95.55589,"zip":"66409","miles_from_dt":29.85}],"targetCityZipCode":"66419","targetCityState":"Kansas"},"__N_SSG":true}