{"pageProps":{"stateName":"Kansas","cityName":"great-bend","nearbyCities":[{"city":"Pawnee Rock","state_name":"Kansas","lat":38.26632,"lng":-98.97241,"zip":"67567","miles_from_dt":11.21},{"city":"Ellinwood","state_name":"Kansas","lat":38.29764,"lng":-98.54711,"zip":"67526","miles_from_dt":14.07},{"city":"Olmitz","state_name":"Kansas","lat":38.52855,"lng":-98.92845,"zip":"67564","miles_from_dt":14.15},{"city":"Hudson","state_name":"Kansas","lat":38.17644,"lng":-98.6417,"zip":"67545","miles_from_dt":14.73},{"city":"Albert","state_name":"Kansas","lat":38.43365,"lng":-99.05058,"zip":"67511","miles_from_dt":14.9},{"city":"Hoisington","state_name":"Kansas","lat":38.57584,"lng":-98.75456,"zip":"67544","miles_from_dt":15.64},{"city":"Claflin","state_name":"Kansas","lat":38.57205,"lng":-98.57111,"zip":"67525","miles_from_dt":19.53},{"city":"Larned","state_name":"Kansas","lat":38.18121,"lng":-99.12487,"zip":"67550","miles_from_dt":21.36},{"city":"Raymond","state_name":"Kansas","lat":38.26215,"lng":-98.41518,"zip":"67573","miles_from_dt":21.64},{"city":"Otis","state_name":"Kansas","lat":38.60428,"lng":-99.04439,"zip":"67565","miles_from_dt":22.01},{"city":"St John","state_name":"Kansas","lat":38.03228,"lng":-98.79343,"zip":"67576","miles_from_dt":22.02},{"city":"Chase","state_name":"Kansas","lat":38.37797,"lng":-98.37398,"zip":"67524","miles_from_dt":23.03},{"city":"Bushton","state_name":"Kansas","lat":38.50364,"lng":-98.39977,"zip":"67427","miles_from_dt":23.96},{"city":"Rush Center","state_name":"Kansas","lat":38.40711,"lng":-99.25681,"zip":"67575","miles_from_dt":25.27},{"city":"Holyrood","state_name":"Kansas","lat":38.62746,"lng":-98.45788,"zip":"67450","miles_from_dt":26.46},{"city":"Bison","state_name":"Kansas","lat":38.58781,"lng":-99.18302,"zip":"67520","miles_from_dt":26.54},{"city":"Alden","state_name":"Kansas","lat":38.23289,"lng":-98.32645,"zip":"67512","miles_from_dt":26.84},{"city":"Stafford","state_name":"Kansas","lat":37.96922,"lng":-98.59105,"zip":"67578","miles_from_dt":28.65}],"targetCityZipCode":"67530","targetCityState":"Kansas"},"__N_SSG":true}