{"pageProps":{"stateName":"Kansas","cityName":"kinsley","nearbyCities":[{"city":"Offerle","state_name":"Kansas","lat":37.84627,"lng":-99.55931,"zip":"67563","miles_from_dt":8.22},{"city":"Lewis","state_name":"Kansas","lat":37.8606,"lng":-99.23651,"zip":"67552","miles_from_dt":13.63},{"city":"Garfield","state_name":"Kansas","lat":38.0728,"lng":-99.25436,"zip":"67529","miles_from_dt":14.74},{"city":"Spearville","state_name":"Kansas","lat":37.86154,"lng":-99.73654,"zip":"67876","miles_from_dt":15.76},{"city":"Burdett","state_name":"Kansas","lat":38.19687,"lng":-99.55256,"zip":"67523","miles_from_dt":18.39},{"city":"Belpre","state_name":"Kansas","lat":37.93573,"lng":-99.10292,"zip":"67519","miles_from_dt":19.79},{"city":"Rozel","state_name":"Kansas","lat":38.22045,"lng":-99.39185,"zip":"67574","miles_from_dt":19.8},{"city":"Hanston","state_name":"Kansas","lat":38.15061,"lng":-99.71725,"zip":"67849","miles_from_dt":20.03},{"city":"Wright","state_name":"Kansas","lat":37.8019,"lng":-99.88505,"zip":"67882","miles_from_dt":24.83},{"city":"Larned","state_name":"Kansas","lat":38.18121,"lng":-99.12487,"zip":"67550","miles_from_dt":24.96},{"city":"Mullinville","state_name":"Kansas","lat":37.56448,"lng":-99.47914,"zip":"67109","miles_from_dt":25.86},{"city":"Greensburg","state_name":"Kansas","lat":37.57658,"lng":-99.31884,"zip":"67054","miles_from_dt":26.27},{"city":"Macksville","state_name":"Kansas","lat":37.91557,"lng":-98.96678,"zip":"67557","miles_from_dt":27.28},{"city":"Haviland","state_name":"Kansas","lat":37.65102,"lng":-99.10046,"zip":"67059","miles_from_dt":28.17},{"city":"Bucklin","state_name":"Kansas","lat":37.53174,"lng":-99.61886,"zip":"67834","miles_from_dt":29.34},{"city":"Fort Dodge","state_name":"Kansas","lat":37.73027,"lng":-99.93728,"zip":"67843","miles_from_dt":29.57}],"targetCityZipCode":"67547","targetCityState":"Kansas"},"__N_SSG":true}