{"pageProps":{"stateName":"Kansas","cityName":"lamont","nearbyCities":[{"city":"Gridley","state_name":"Kansas","lat":38.0716,"lng":-95.89874,"zip":"66852","miles_from_dt":7.43},{"city":"Madison","state_name":"Kansas","lat":38.12775,"lng":-96.1652,"zip":"66860","miles_from_dt":7.81},{"city":"Hartford","state_name":"Kansas","lat":38.25872,"lng":-95.98735,"zip":"66854","miles_from_dt":9.97},{"city":"Virgil","state_name":"Kansas","lat":37.93809,"lng":-95.99316,"zip":"66870","miles_from_dt":12.43},{"city":"Hamilton","state_name":"Kansas","lat":38.00653,"lng":-96.24232,"zip":"66853","miles_from_dt":14.2},{"city":"Olpe","state_name":"Kansas","lat":38.2181,"lng":-96.27993,"zip":"66865","miles_from_dt":15.66},{"city":"Burlington","state_name":"Kansas","lat":38.21655,"lng":-95.75371,"zip":"66839","miles_from_dt":16.17},{"city":"Neosho Rapids","state_name":"Kansas","lat":38.36132,"lng":-95.98207,"zip":"66864","miles_from_dt":17},{"city":"Neal","state_name":"Kansas","lat":37.83368,"lng":-96.07633,"zip":"66863","miles_from_dt":19.75},{"city":"Le Roy","state_name":"Kansas","lat":38.10202,"lng":-95.63526,"zip":"66857","miles_from_dt":21.13},{"city":"Lebo","state_name":"Kansas","lat":38.39853,"lng":-95.81838,"zip":"66856","miles_from_dt":22.37},{"city":"Toronto","state_name":"Kansas","lat":37.79087,"lng":-95.9684,"zip":"66777","miles_from_dt":22.68},{"city":"Yates Center","state_name":"Kansas","lat":37.87682,"lng":-95.73322,"zip":"66783","miles_from_dt":22.88},{"city":"Emporia","state_name":"Kansas","lat":38.41105,"lng":-96.2221,"zip":"66801","miles_from_dt":23.01},{"city":"Neosho Falls","state_name":"Kansas","lat":38.01862,"lng":-95.59602,"zip":"66758","miles_from_dt":24.22},{"city":"Eureka","state_name":"Kansas","lat":37.85131,"lng":-96.33863,"zip":"67045","miles_from_dt":25.16},{"city":"Waverly","state_name":"Kansas","lat":38.35941,"lng":-95.61815,"zip":"66871","miles_from_dt":27.64},{"city":"Piqua","state_name":"Kansas","lat":37.91469,"lng":-95.56694,"zip":"66761","miles_from_dt":28.5},{"city":"Matfield Green","state_name":"Kansas","lat":38.15532,"lng":-96.55403,"zip":"66862","miles_from_dt":29.08},{"city":"Cottonwood Falls","state_name":"Kansas","lat":38.29546,"lng":-96.50762,"zip":"66845","miles_from_dt":29.13},{"city":"Westphalia","state_name":"Kansas","lat":38.21003,"lng":-95.49771,"zip":"66093","miles_from_dt":29.29},{"city":"Reading","state_name":"Kansas","lat":38.54284,"lng":-95.98387,"zip":"66868","miles_from_dt":29.46}],"targetCityZipCode":"66855","targetCityState":"Kansas"},"__N_SSG":true}