{"pageProps":{"stateName":"Kansas","cityName":"munden","nearbyCities":[{"city":"Narka","state_name":"Kansas","lat":39.93042,"lng":-97.42134,"zip":"66960","miles_from_dt":6.09},{"city":"Chester","state_name":"Nebraska","lat":40.01079,"lng":-97.62113,"zip":"68327","miles_from_dt":7.59},{"city":"Hubbell","state_name":"Nebraska","lat":40.03939,"lng":-97.48826,"zip":"68375","miles_from_dt":8.43},{"city":"Belleville","state_name":"Kansas","lat":39.82694,"lng":-97.63538,"zip":"66935","miles_from_dt":8.48},{"city":"Cuba","state_name":"Kansas","lat":39.80343,"lng":-97.45381,"zip":"66940","miles_from_dt":9.31},{"city":"Mahaska","state_name":"Kansas","lat":39.97984,"lng":-97.31715,"zip":"66955","miles_from_dt":12.25},{"city":"Reynolds","state_name":"Nebraska","lat":40.06406,"lng":-97.37437,"zip":"68429","miles_from_dt":12.97},{"city":"Byron","state_name":"Nebraska","lat":40.0131,"lng":-97.75156,"zip":"68325","miles_from_dt":13.05},{"city":"Republic","state_name":"Kansas","lat":39.93465,"lng":-97.80004,"zip":"66964","miles_from_dt":14.07},{"city":"Haddam","state_name":"Kansas","lat":39.84007,"lng":-97.29354,"zip":"66944","miles_from_dt":14.07},{"city":"Agenda","state_name":"Kansas","lat":39.71137,"lng":-97.48553,"zip":"66930","miles_from_dt":14.82},{"city":"Hebron","state_name":"Nebraska","lat":40.14148,"lng":-97.55567,"zip":"68370","miles_from_dt":15.13},{"city":"Scandia","state_name":"Kansas","lat":39.7793,"lng":-97.76206,"zip":"66966","miles_from_dt":15.59},{"city":"Gilead","state_name":"Nebraska","lat":40.15323,"lng":-97.42553,"zip":"68362","miles_from_dt":16.94},{"city":"Deshler","state_name":"Nebraska","lat":40.12525,"lng":-97.74126,"zip":"68340","miles_from_dt":17.73},{"city":"Morrowville","state_name":"Kansas","lat":39.88657,"lng":-97.1787,"zip":"66958","miles_from_dt":19.12},{"city":"Courtland","state_name":"Kansas","lat":39.85179,"lng":-97.89754,"zip":"66939","miles_from_dt":19.85},{"city":"Hardy","state_name":"Nebraska","lat":40.03916,"lng":-97.88589,"zip":"68943","miles_from_dt":20.26},{"city":"Norway","state_name":"Kansas","lat":39.69337,"lng":-97.77559,"zip":"66961","miles_from_dt":20.34},{"city":"Belvidere","state_name":"Nebraska","lat":40.24605,"lng":-97.53841,"zip":"68315","miles_from_dt":22.31},{"city":"Ruskin","state_name":"Nebraska","lat":40.13235,"lng":-97.86457,"zip":"68974","miles_from_dt":22.67},{"city":"Fairbury","state_name":"Nebraska","lat":40.15255,"lng":-97.21931,"zip":"68352","miles_from_dt":23.08},{"city":"Alexandria","state_name":"Nebraska","lat":40.25753,"lng":-97.41033,"zip":"68303","miles_from_dt":24.03},{"city":"Clyde","state_name":"Kansas","lat":39.58018,"lng":-97.41081,"zip":"66938","miles_from_dt":24.55},{"city":"Endicott","state_name":"Nebraska","lat":40.03961,"lng":-97.09166,"zip":"68350","miles_from_dt":24.9},{"city":"Washington","state_name":"Kansas","lat":39.8294,"lng":-97.06524,"zip":"66968","miles_from_dt":25.81},{"city":"Concordia","state_name":"Kansas","lat":39.55618,"lng":-97.64317,"zip":"66901","miles_from_dt":25.93},{"city":"Webber","state_name":"Kansas","lat":39.94533,"lng":-98.02336,"zip":"66970","miles_from_dt":25.96},{"city":"Carleton","state_name":"Nebraska","lat":40.28569,"lng":-97.68243,"zip":"68326","miles_from_dt":26.22},{"city":"Formoso","state_name":"Kansas","lat":39.79278,"lng":-98.00448,"zip":"66942","miles_from_dt":26.5},{"city":"Clifton","state_name":"Kansas","lat":39.58959,"lng":-97.26493,"zip":"66937","miles_from_dt":27.13},{"city":"Linn","state_name":"Kansas","lat":39.67877,"lng":-97.11934,"zip":"66953","miles_from_dt":27.82},{"city":"Jamestown","state_name":"Kansas","lat":39.59743,"lng":-97.85141,"zip":"66948","miles_from_dt":28.05},{"city":"Bruning","state_name":"Nebraska","lat":40.3346,"lng":-97.55356,"zip":"68322","miles_from_dt":28.43},{"city":"Hollenberg","state_name":"Kansas","lat":39.96684,"lng":-97.00192,"zip":"66946","miles_from_dt":28.5},{"city":"Davenport","state_name":"Nebraska","lat":40.28243,"lng":-97.803,"zip":"68335","miles_from_dt":28.58},{"city":"Oak","state_name":"Nebraska","lat":40.23541,"lng":-97.90207,"zip":"68964","miles_from_dt":29.03},{"city":"Steele City","state_name":"Nebraska","lat":40.05266,"lng":-97.01168,"zip":"68440","miles_from_dt":29.21}],"targetCityZipCode":"66959","targetCityState":"Kansas"},"__N_SSG":true}