{"pageProps":{"stateName":"Kansas","cityName":"paxico","nearbyCities":[{"city":"McFarland","state_name":"Kansas","lat":39.05279,"lng":-96.23688,"zip":"66501","miles_from_dt":4.43},{"city":"Maple Hill","state_name":"Kansas","lat":39.04712,"lng":-96.03942,"zip":"66507","miles_from_dt":6.35},{"city":"Alma","state_name":"Kansas","lat":38.96894,"lng":-96.30539,"zip":"66401","miles_from_dt":10.37},{"city":"Belvue","state_name":"Kansas","lat":39.22517,"lng":-96.19218,"zip":"66407","miles_from_dt":11.32},{"city":"Saint Marys","state_name":"Kansas","lat":39.2247,"lng":-96.07396,"zip":"66536","miles_from_dt":11.96},{"city":"Rossville","state_name":"Kansas","lat":39.16097,"lng":-95.95045,"zip":"66533","miles_from_dt":12.92},{"city":"Dover","state_name":"Kansas","lat":38.97046,"lng":-95.93279,"zip":"66420","miles_from_dt":13.6},{"city":"Topeka","state_name":"Kansas","lat":39.05214,"lng":-95.89491,"zip":"66615","miles_from_dt":14.05},{"city":"Wamego","state_name":"Kansas","lat":39.23469,"lng":-96.30384,"zip":"66547","miles_from_dt":14.24},{"city":"Eskridge","state_name":"Kansas","lat":38.8492,"lng":-96.12934,"zip":"66423","miles_from_dt":14.85},{"city":"Topeka","state_name":"Kansas","lat":39.01324,"lng":-95.84812,"zip":"66630","miles_from_dt":16.9},{"city":"Topeka","state_name":"Kansas","lat":39.01362,"lng":-95.84115,"zip":"66614","miles_from_dt":17.27},{"city":"Silver Lake","state_name":"Kansas","lat":39.14937,"lng":-95.84707,"zip":"66539","miles_from_dt":17.61},{"city":"Topeka","state_name":"Kansas","lat":38.97277,"lng":-95.84718,"zip":"66610","miles_from_dt":17.74},{"city":"Emmett","state_name":"Kansas","lat":39.33317,"lng":-96.08496,"zip":"66422","miles_from_dt":18.99},{"city":"Auburn","state_name":"Kansas","lat":38.91782,"lng":-95.84926,"zip":"66402","miles_from_dt":19.32},{"city":"Harveyville","state_name":"Kansas","lat":38.80851,"lng":-96.00241,"zip":"66431","miles_from_dt":19.43},{"city":"Delia","state_name":"Kansas","lat":39.28861,"lng":-95.93528,"zip":"66418","miles_from_dt":19.52},{"city":"Saint George","state_name":"Kansas","lat":39.26169,"lng":-96.43896,"zip":"66535","miles_from_dt":20.45},{"city":"Manhattan","state_name":"Kansas","lat":39.14146,"lng":-96.52906,"zip":"66502","miles_from_dt":20.78},{"city":"Alta Vista","state_name":"Kansas","lat":38.86528,"lng":-96.44822,"zip":"66834","miles_from_dt":20.86},{"city":"Topeka","state_name":"Kansas","lat":39.14188,"lng":-95.74997,"zip":"66618","miles_from_dt":22.47},{"city":"Topeka","state_name":"Kansas","lat":39.04185,"lng":-95.72735,"zip":"66667","miles_from_dt":23.09},{"city":"Topeka","state_name":"Kansas","lat":39.03875,"lng":-95.72623,"zip":"66604","miles_from_dt":23.16},{"city":"Topeka","state_name":"Kansas","lat":39.03883,"lng":-95.72523,"zip":"66647","miles_from_dt":23.22},{"city":"Topeka","state_name":"Kansas","lat":39.06191,"lng":-95.72296,"zip":"66606","miles_from_dt":23.27},{"city":"Topeka","state_name":"Kansas","lat":39.02631,"lng":-95.72231,"zip":"66622","miles_from_dt":23.45},{"city":"Topeka","state_name":"Kansas","lat":39.03313,"lng":-95.70237,"zip":"66621","miles_from_dt":24.47},{"city":"Manhattan","state_name":"Kansas","lat":39.19596,"lng":-96.58148,"zip":"66506","miles_from_dt":24.64},{"city":"Burlingame","state_name":"Kansas","lat":38.77375,"lng":-95.88305,"zip":"66413","miles_from_dt":24.81},{"city":"Manhattan","state_name":"Kansas","lat":39.18811,"lng":-96.59065,"zip":"66505","miles_from_dt":24.9},{"city":"Topeka","state_name":"Kansas","lat":39.01526,"lng":-95.69601,"zip":"66611","miles_from_dt":24.95},{"city":"Topeka","state_name":"Kansas","lat":38.94662,"lng":-95.71574,"zip":"66620","miles_from_dt":25.01},{"city":"Topeka","state_name":"Kansas","lat":39.04781,"lng":-95.68325,"zip":"66625","miles_from_dt":25.43},{"city":"Topeka","state_name":"Kansas","lat":39.04725,"lng":-95.68282,"zip":"66626","miles_from_dt":25.46},{"city":"Topeka","state_name":"Kansas","lat":39.04806,"lng":-95.68262,"zip":"66629","miles_from_dt":25.47},{"city":"Topeka","state_name":"Kansas","lat":39.04026,"lng":-95.68037,"zip":"66612","miles_from_dt":25.62},{"city":"Topeka","state_name":"Kansas","lat":39.05711,"lng":-95.67655,"zip":"66601","miles_from_dt":25.77},{"city":"Topeka","state_name":"Kansas","lat":39.05634,"lng":-95.67566,"zip":"66636","miles_from_dt":25.82},{"city":"Topeka","state_name":"Kansas","lat":39.05742,"lng":-95.67539,"zip":"66603","miles_from_dt":25.83},{"city":"Wakarusa","state_name":"Kansas","lat":38.8941,"lng":-95.72589,"zip":"66546","miles_from_dt":25.92},{"city":"Topeka","state_name":"Kansas","lat":39.05585,"lng":-95.67322,"zip":"66683","miles_from_dt":25.95},{"city":"Topeka","state_name":"Kansas","lat":39.0535,"lng":-95.67307,"zip":"66699","miles_from_dt":25.96},{"city":"Topeka","state_name":"Kansas","lat":39.01635,"lng":-95.67207,"zip":"66624","miles_from_dt":26.22},{"city":"Topeka","state_name":"Kansas","lat":39.06888,"lng":-95.66674,"zip":"66675","miles_from_dt":26.3},{"city":"Topeka","state_name":"Kansas","lat":39.07984,"lng":-95.66708,"zip":"66608","miles_from_dt":26.3},{"city":"Topeka","state_name":"Kansas","lat":38.94661,"lng":-95.68993,"zip":"66619","miles_from_dt":26.33},{"city":"Allen","state_name":"Kansas","lat":38.67694,"lng":-96.18374,"zip":"66833","miles_from_dt":26.71},{"city":"Topeka","state_name":"Kansas","lat":38.98193,"lng":-95.66974,"zip":"66609","miles_from_dt":26.75},{"city":"Dwight","state_name":"Kansas","lat":38.87427,"lng":-96.59789,"zip":"66849","miles_from_dt":27.16},{"city":"Mayetta","state_name":"Kansas","lat":39.33239,"lng":-95.78097,"zip":"66509","miles_from_dt":27.36},{"city":"Topeka","state_name":"Kansas","lat":39.0422,"lng":-95.63502,"zip":"66607","miles_from_dt":28.04},{"city":"Topeka","state_name":"Kansas","lat":39.01167,"lng":-95.63283,"zip":"66605","miles_from_dt":28.35},{"city":"Topeka","state_name":"Kansas","lat":39.06845,"lng":-95.62388,"zip":"66616","miles_from_dt":28.6},{"city":"Onaga","state_name":"Kansas","lat":39.47668,"lng":-96.22128,"zip":"66521","miles_from_dt":28.72},{"city":"Hoyt","state_name":"Kansas","lat":39.26326,"lng":-95.68168,"zip":"66440","miles_from_dt":28.95},{"city":"Topeka","state_name":"Kansas","lat":39.13876,"lng":-95.625,"zip":"66617","miles_from_dt":28.99},{"city":"Westmoreland","state_name":"Kansas","lat":39.42978,"lng":-96.43045,"zip":"66549","miles_from_dt":29.25},{"city":"Havensville","state_name":"Kansas","lat":39.48768,"lng":-96.07348,"zip":"66432","miles_from_dt":29.59},{"city":"Ogden","state_name":"Kansas","lat":39.11253,"lng":-96.70465,"zip":"66517","miles_from_dt":29.71}],"targetCityZipCode":"66526","targetCityState":"Kansas"},"__N_SSG":true}