{"pageProps":{"stateName":"Kansas","cityName":"pretty-prairie","nearbyCities":[{"city":"Haven","state_name":"Kansas","lat":37.88346,"lng":-97.79511,"zip":"67543","miles_from_dt":11.57},{"city":"Murdock","state_name":"Kansas","lat":37.6151,"lng":-97.93453,"zip":"67111","miles_from_dt":11.99},{"city":"Yoder","state_name":"Kansas","lat":37.94311,"lng":-97.86858,"zip":"67585","miles_from_dt":12.07},{"city":"Partridge","state_name":"Kansas","lat":37.944,"lng":-98.09938,"zip":"67566","miles_from_dt":13},{"city":"Hutchinson","state_name":"Kansas","lat":37.97989,"lng":-97.9309,"zip":"67501","miles_from_dt":13.47},{"city":"Arlington","state_name":"Kansas","lat":37.86278,"lng":-98.19714,"zip":"67514","miles_from_dt":13.58},{"city":"Kingman","state_name":"Kansas","lat":37.61991,"lng":-98.11473,"zip":"67068","miles_from_dt":14.04},{"city":"Cheney","state_name":"Kansas","lat":37.64146,"lng":-97.78789,"zip":"67025","miles_from_dt":14.07},{"city":"Mount Hope","state_name":"Kansas","lat":37.81428,"lng":-97.68621,"zip":"67108","miles_from_dt":15.54},{"city":"Hutchinson","state_name":"Kansas","lat":38.02534,"lng":-97.9365,"zip":"67504","miles_from_dt":16.54},{"city":"South Hutchinson","state_name":"Kansas","lat":38.02855,"lng":-97.94333,"zip":"67505","miles_from_dt":16.72},{"city":"Garden Plain","state_name":"Kansas","lat":37.675,"lng":-97.6769,"zip":"67050","miles_from_dt":17.71},{"city":"Andale","state_name":"Kansas","lat":37.76069,"lng":-97.62953,"zip":"67001","miles_from_dt":18.62},{"city":"Abbyville","state_name":"Kansas","lat":37.99839,"lng":-98.21127,"zip":"67510","miles_from_dt":19.74},{"city":"Norwich","state_name":"Kansas","lat":37.47829,"lng":-97.8605,"zip":"67118","miles_from_dt":22.08},{"city":"Burrton","state_name":"Kansas","lat":38.00881,"lng":-97.66903,"zip":"67020","miles_from_dt":22.39},{"city":"Nickerson","state_name":"Kansas","lat":38.10427,"lng":-98.09921,"zip":"67561","miles_from_dt":23.03},{"city":"Colwich","state_name":"Kansas","lat":37.78548,"lng":-97.54661,"zip":"67030","miles_from_dt":23.06},{"city":"Hutchinson","state_name":"Kansas","lat":38.12146,"lng":-97.92673,"zip":"67502","miles_from_dt":23.19},{"city":"Goddard","state_name":"Kansas","lat":37.65812,"lng":-97.57357,"zip":"67052","miles_from_dt":23.36},{"city":"Spivey","state_name":"Kansas","lat":37.45655,"lng":-98.1094,"zip":"67142","miles_from_dt":24.06},{"city":"Plevna","state_name":"Kansas","lat":38.01729,"lng":-98.30888,"zip":"67568","miles_from_dt":24.49},{"city":"Viola","state_name":"Kansas","lat":37.54243,"lng":-97.62915,"zip":"67149","miles_from_dt":25.09},{"city":"Milton","state_name":"Kansas","lat":37.46335,"lng":-97.75804,"zip":"67106","miles_from_dt":25.11},{"city":"Cunningham","state_name":"Kansas","lat":37.64845,"lng":-98.39338,"zip":"67035","miles_from_dt":25.18},{"city":"Bentley","state_name":"Kansas","lat":37.88882,"lng":-97.51812,"zip":"67016","miles_from_dt":25.59},{"city":"Wichita","state_name":"Kansas","lat":37.74195,"lng":-97.49797,"zip":"67223","miles_from_dt":25.92},{"city":"Buhler","state_name":"Kansas","lat":38.12294,"lng":-97.74608,"zip":"67522","miles_from_dt":26.16},{"city":"Wichita","state_name":"Kansas","lat":37.68951,"lng":-97.49929,"zip":"67235","miles_from_dt":26.53},{"city":"Turon","state_name":"Kansas","lat":37.79997,"lng":-98.4714,"zip":"67583","miles_from_dt":27.57},{"city":"Maize","state_name":"Kansas","lat":37.78489,"lng":-97.46356,"zip":"67101","miles_from_dt":27.61},{"city":"Wichita","state_name":"Kansas","lat":37.62693,"lng":-97.50109,"zip":"67227","miles_from_dt":27.86},{"city":"Sylvia","state_name":"Kansas","lat":37.99316,"lng":-98.41068,"zip":"67581","miles_from_dt":28.07},{"city":"Halstead","state_name":"Kansas","lat":38.01936,"lng":-97.52345,"zip":"67056","miles_from_dt":29.11},{"city":"Sedgwick","state_name":"Kansas","lat":37.91362,"lng":-97.45942,"zip":"67135","miles_from_dt":29.15},{"city":"Wichita","state_name":"Kansas","lat":37.67498,"lng":-97.44515,"zip":"67275","miles_from_dt":29.66},{"city":"Wichita","state_name":"Kansas","lat":37.70247,"lng":-97.43658,"zip":"67212","miles_from_dt":29.68},{"city":"Wichita","state_name":"Kansas","lat":37.75012,"lng":-97.42317,"zip":"67205","miles_from_dt":29.94}],"targetCityZipCode":"67570","targetCityState":"Kansas"},"__N_SSG":true}