{"pageProps":{"stateName":"Kansas","cityName":"simpson","nearbyCities":[{"city":"Glasco","state_name":"Kansas","lat":39.37789,"lng":-97.8172,"zip":"67445","miles_from_dt":7.12},{"city":"Beloit","state_name":"Kansas","lat":39.40035,"lng":-98.08527,"zip":"67420","miles_from_dt":7.32},{"city":"Delphos","state_name":"Kansas","lat":39.28071,"lng":-97.72454,"zip":"67436","miles_from_dt":14.08},{"city":"Barnard","state_name":"Kansas","lat":39.18692,"lng":-98.05214,"zip":"67418","miles_from_dt":14.77},{"city":"Jamestown","state_name":"Kansas","lat":39.59743,"lng":-97.85141,"zip":"66948","miles_from_dt":15.52},{"city":"Randall","state_name":"Kansas","lat":39.64133,"lng":-98.01064,"zip":"66963","miles_from_dt":17.93},{"city":"Concordia","state_name":"Kansas","lat":39.55618,"lng":-97.64317,"zip":"66901","miles_from_dt":20.18},{"city":"Glen Elder","state_name":"Kansas","lat":39.47442,"lng":-98.32363,"zip":"67446","miles_from_dt":20.91},{"city":"Minneapolis","state_name":"Kansas","lat":39.14639,"lng":-97.69907,"zip":"67467","miles_from_dt":21.3},{"city":"Aurora","state_name":"Kansas","lat":39.43382,"lng":-97.55015,"zip":"67417","miles_from_dt":21.65},{"city":"Jewell","state_name":"Kansas","lat":39.646,"lng":-98.19755,"zip":"66949","miles_from_dt":22.31},{"city":"Norway","state_name":"Kansas","lat":39.69337,"lng":-97.77559,"zip":"66961","miles_from_dt":23.18},{"city":"Hunter","state_name":"Kansas","lat":39.23549,"lng":-98.36935,"zip":"67452","miles_from_dt":24.75},{"city":"Miltonvale","state_name":"Kansas","lat":39.32787,"lng":-97.47905,"zip":"67466","miles_from_dt":25.53},{"city":"Lincoln","state_name":"Kansas","lat":39.02765,"lng":-98.16478,"zip":"67455","miles_from_dt":27.26},{"city":"Tescott","state_name":"Kansas","lat":38.99603,"lng":-97.83617,"zip":"67484","miles_from_dt":27.57},{"city":"Formoso","state_name":"Kansas","lat":39.79278,"lng":-98.00448,"zip":"66942","miles_from_dt":28.23},{"city":"Beverly","state_name":"Kansas","lat":38.97018,"lng":-97.98058,"zip":"67423","miles_from_dt":28.71},{"city":"Scandia","state_name":"Kansas","lat":39.7793,"lng":-97.76206,"zip":"66966","miles_from_dt":28.94},{"city":"Cawker City","state_name":"Kansas","lat":39.57571,"lng":-98.44193,"zip":"67430","miles_from_dt":29.39},{"city":"Tipton","state_name":"Kansas","lat":39.31474,"lng":-98.49492,"zip":"67485","miles_from_dt":29.6}],"targetCityZipCode":"67478","targetCityState":"Kansas"},"__N_SSG":true}