{"pageProps":{"stateName":"Kansas","cityName":"spearville","nearbyCities":[{"city":"Wright","state_name":"Kansas","lat":37.8019,"lng":-99.88505,"zip":"67882","miles_from_dt":9.11},{"city":"Offerle","state_name":"Kansas","lat":37.84627,"lng":-99.55931,"zip":"67563","miles_from_dt":9.75},{"city":"Fort Dodge","state_name":"Kansas","lat":37.73027,"lng":-99.93728,"zip":"67843","miles_from_dt":14.24},{"city":"Kinsley","state_name":"Kansas","lat":37.93926,"lng":-99.46526,"zip":"67547","miles_from_dt":15.76},{"city":"Dodge City","state_name":"Kansas","lat":37.72961,"lng":-100.05406,"zip":"67801","miles_from_dt":19.62},{"city":"Hanston","state_name":"Kansas","lat":38.15061,"lng":-99.71725,"zip":"67849","miles_from_dt":19.96},{"city":"Jetmore","state_name":"Kansas","lat":38.09034,"lng":-100.0023,"zip":"67854","miles_from_dt":21.44},{"city":"Ford","state_name":"Kansas","lat":37.54766,"lng":-99.77138,"zip":"67842","miles_from_dt":21.73},{"city":"Bucklin","state_name":"Kansas","lat":37.53174,"lng":-99.61886,"zip":"67834","miles_from_dt":23.64},{"city":"Mullinville","state_name":"Kansas","lat":37.56448,"lng":-99.47914,"zip":"67109","miles_from_dt":24.87},{"city":"Burdett","state_name":"Kansas","lat":38.19687,"lng":-99.55256,"zip":"67523","miles_from_dt":25.21},{"city":"Lewis","state_name":"Kansas","lat":37.8606,"lng":-99.23651,"zip":"67552","miles_from_dt":27.34}],"targetCityZipCode":"67876","targetCityState":"Kansas"},"__N_SSG":true}