{"pageProps":{"stateName":"Kansas","cityName":"sylvan-grove","nearbyCities":[{"city":"Lucas","state_name":"Kansas","lat":39.07746,"lng":-98.57278,"zip":"67648","miles_from_dt":10.85},{"city":"Lincoln","state_name":"Kansas","lat":39.02765,"lng":-98.16478,"zip":"67455","miles_from_dt":12.11},{"city":"Hunter","state_name":"Kansas","lat":39.23549,"lng":-98.36935,"zip":"67452","miles_from_dt":15.42},{"city":"Wilson","state_name":"Kansas","lat":38.79223,"lng":-98.44722,"zip":"67490","miles_from_dt":15.51},{"city":"Dorrance","state_name":"Kansas","lat":38.82654,"lng":-98.6073,"zip":"67634","miles_from_dt":17.4},{"city":"Luray","state_name":"Kansas","lat":39.13404,"lng":-98.69232,"zip":"67649","miles_from_dt":18.34},{"city":"Bunker Hill","state_name":"Kansas","lat":38.88375,"lng":-98.70808,"zip":"67626","miles_from_dt":19.34},{"city":"Ellsworth","state_name":"Kansas","lat":38.76169,"lng":-98.2201,"zip":"67439","miles_from_dt":19.55},{"city":"Tipton","state_name":"Kansas","lat":39.31474,"lng":-98.49492,"zip":"67485","miles_from_dt":21.62},{"city":"Barnard","state_name":"Kansas","lat":39.18692,"lng":-98.05214,"zip":"67418","miles_from_dt":21.74},{"city":"Beverly","state_name":"Kansas","lat":38.97018,"lng":-97.98058,"zip":"67423","miles_from_dt":22.18},{"city":"Waldo","state_name":"Kansas","lat":39.14708,"lng":-98.80714,"zip":"67673","miles_from_dt":24.32},{"city":"Kanopolis","state_name":"Kansas","lat":38.69808,"lng":-98.11308,"zip":"67454","miles_from_dt":26.3},{"city":"Holyrood","state_name":"Kansas","lat":38.62746,"lng":-98.45788,"zip":"67450","miles_from_dt":26.81},{"city":"Lorraine","state_name":"Kansas","lat":38.60781,"lng":-98.33913,"zip":"67459","miles_from_dt":28.04},{"city":"Russell","state_name":"Kansas","lat":38.847,"lng":-98.88022,"zip":"67665","miles_from_dt":28.82},{"city":"Brookville","state_name":"Kansas","lat":38.77991,"lng":-97.92492,"zip":"67425","miles_from_dt":29.72},{"city":"Tescott","state_name":"Kansas","lat":38.99603,"lng":-97.83617,"zip":"67484","miles_from_dt":29.78},{"city":"Paradise","state_name":"Kansas","lat":39.11524,"lng":-98.92786,"zip":"67658","miles_from_dt":29.83}],"targetCityZipCode":"67481","targetCityState":"Kansas"},"__N_SSG":true}