{"pageProps":{"stateName":"Kansas","cityName":"walton","nearbyCities":[{"city":"Newton","state_name":"Kansas","lat":38.07034,"lng":-97.28359,"zip":"67114","miles_from_dt":5.48},{"city":"North Newton","state_name":"Kansas","lat":38.07416,"lng":-97.34544,"zip":"67117","miles_from_dt":7.16},{"city":"Peabody","state_name":"Kansas","lat":38.17438,"lng":-97.10385,"zip":"66866","miles_from_dt":8.18},{"city":"Goessel","state_name":"Kansas","lat":38.24728,"lng":-97.34545,"zip":"67053","miles_from_dt":8.78},{"city":"Elbing","state_name":"Kansas","lat":38.05404,"lng":-97.12755,"zip":"67041","miles_from_dt":9.13},{"city":"Hesston","state_name":"Kansas","lat":38.1431,"lng":-97.43296,"zip":"67062","miles_from_dt":10},{"city":"Hillsboro","state_name":"Kansas","lat":38.34244,"lng":-97.23019,"zip":"67063","miles_from_dt":13.66},{"city":"Whitewater","state_name":"Kansas","lat":37.97079,"lng":-97.12117,"zip":"67154","miles_from_dt":13.9},{"city":"Moundridge","state_name":"Kansas","lat":38.19496,"lng":-97.53911,"zip":"67107","miles_from_dt":16.15},{"city":"Halstead","state_name":"Kansas","lat":38.01936,"lng":-97.52345,"zip":"67056","miles_from_dt":17.27},{"city":"Lehigh","state_name":"Kansas","lat":38.39167,"lng":-97.32624,"zip":"67073","miles_from_dt":17.52},{"city":"Canton","state_name":"Kansas","lat":38.3832,"lng":-97.41405,"zip":"67428","miles_from_dt":18.71},{"city":"Florence","state_name":"Kansas","lat":38.22463,"lng":-96.92084,"zip":"66851","miles_from_dt":18.71},{"city":"Potwin","state_name":"Kansas","lat":37.94676,"lng":-96.99352,"zip":"67123","miles_from_dt":19.53},{"city":"Sedgwick","state_name":"Kansas","lat":37.91362,"lng":-97.45942,"zip":"67135","miles_from_dt":19.65},{"city":"Valley Center","state_name":"Kansas","lat":37.86062,"lng":-97.3058,"zip":"67147","miles_from_dt":19.85},{"city":"Marion","state_name":"Kansas","lat":38.36415,"lng":-97.00617,"zip":"66861","miles_from_dt":20.08},{"city":"Burns","state_name":"Kansas","lat":38.07283,"lng":-96.8719,"zip":"66840","miles_from_dt":21.16},{"city":"Galva","state_name":"Kansas","lat":38.37801,"lng":-97.5208,"zip":"67443","miles_from_dt":21.82},{"city":"Bentley","state_name":"Kansas","lat":37.88882,"lng":-97.51812,"zip":"67016","miles_from_dt":22.96},{"city":"Benton","state_name":"Kansas","lat":37.82778,"lng":-97.11165,"zip":"67017","miles_from_dt":23.13},{"city":"Kechi","state_name":"Kansas","lat":37.7951,"lng":-97.27044,"zip":"67067","miles_from_dt":24.16},{"city":"Burrton","state_name":"Kansas","lat":38.00881,"lng":-97.66903,"zip":"67020","miles_from_dt":24.73},{"city":"Durham","state_name":"Kansas","lat":38.50366,"lng":-97.27861,"zip":"67438","miles_from_dt":24.79},{"city":"Greenwich","state_name":"Kansas","lat":37.78325,"lng":-97.2037,"zip":"67055","miles_from_dt":25.07},{"city":"Wichita","state_name":"Kansas","lat":37.77749,"lng":-97.17274,"zip":"67228","miles_from_dt":25.69},{"city":"Wichita","state_name":"Kansas","lat":37.76898,"lng":-97.21915,"zip":"67226","miles_from_dt":25.99},{"city":"Wichita","state_name":"Kansas","lat":37.76931,"lng":-97.31643,"zip":"67219","miles_from_dt":26.17},{"city":"Towanda","state_name":"Kansas","lat":37.81673,"lng":-97.00539,"zip":"67144","miles_from_dt":26.27},{"city":"Wichita","state_name":"Kansas","lat":37.77167,"lng":-97.36341,"zip":"67204","miles_from_dt":26.49},{"city":"Buhler","state_name":"Kansas","lat":38.12294,"lng":-97.74608,"zip":"67522","miles_from_dt":27.1},{"city":"Wichita","state_name":"Kansas","lat":37.75191,"lng":-97.27909,"zip":"67220","miles_from_dt":27.16},{"city":"Maize","state_name":"Kansas","lat":37.78489,"lng":-97.46356,"zip":"67101","miles_from_dt":27.45},{"city":"Cedar Point","state_name":"Kansas","lat":38.22846,"lng":-96.74329,"zip":"66843","miles_from_dt":28.14},{"city":"Tampa","state_name":"Kansas","lat":38.55322,"lng":-97.19856,"zip":"67483","miles_from_dt":28.29},{"city":"Wichita","state_name":"Kansas","lat":37.75012,"lng":-97.42317,"zip":"67205","miles_from_dt":28.84},{"city":"Lincolnville","state_name":"Kansas","lat":38.47462,"lng":-96.9207,"zip":"66858","miles_from_dt":28.91},{"city":"Mcpherson","state_name":"Kansas","lat":38.38431,"lng":-97.69719,"zip":"67460","miles_from_dt":29.42},{"city":"Wichita","state_name":"Kansas","lat":37.71931,"lng":-97.2935,"zip":"67260","miles_from_dt":29.46},{"city":"Roxbury","state_name":"Kansas","lat":38.54867,"lng":-97.43047,"zip":"67476","miles_from_dt":29.53},{"city":"Colwich","state_name":"Kansas","lat":37.78548,"lng":-97.54661,"zip":"67030","miles_from_dt":29.64}],"targetCityZipCode":"67151","targetCityState":"Kansas"},"__N_SSG":true}