{"pageProps":{"stateName":"Kansas","cityName":"wichita","nearbyCities":[{"city":"Wichita","state_name":"Kansas","lat":37.68668,"lng":-97.33521,"zip":"67202","miles_from_dt":0.44},{"city":"Wichita","state_name":"Kansas","lat":37.69302,"lng":-97.3372,"zip":"67278","miles_from_dt":0.46},{"city":"Wichita","state_name":"Kansas","lat":37.70402,"lng":-97.36497,"zip":"67203","miles_from_dt":1.62},{"city":"Wichita","state_name":"Kansas","lat":37.66722,"lng":-97.36498,"zip":"67213","miles_from_dt":1.88},{"city":"Wichita","state_name":"Kansas","lat":37.70661,"lng":-97.31755,"zip":"67214","miles_from_dt":1.89},{"city":"Wichita","state_name":"Kansas","lat":37.66708,"lng":-97.31706,"zip":"67211","miles_from_dt":2.04},{"city":"Wichita","state_name":"Kansas","lat":37.71931,"lng":-97.2935,"zip":"67260","miles_from_dt":3.46},{"city":"Wichita","state_name":"Kansas","lat":37.70449,"lng":-97.27928,"zip":"67208","miles_from_dt":3.67},{"city":"Wichita","state_name":"Kansas","lat":37.66851,"lng":-97.28039,"zip":"67218","miles_from_dt":3.69},{"city":"Wichita","state_name":"Kansas","lat":37.66021,"lng":-97.41561,"zip":"67276","miles_from_dt":4.42},{"city":"Wichita","state_name":"Kansas","lat":37.66244,"lng":-97.42889,"zip":"67277","miles_from_dt":5.03},{"city":"Wichita","state_name":"Kansas","lat":37.61535,"lng":-97.36239,"zip":"67217","miles_from_dt":5.14},{"city":"Wichita","state_name":"Kansas","lat":37.70247,"lng":-97.43658,"zip":"67212","miles_from_dt":5.22},{"city":"Wichita","state_name":"Kansas","lat":37.6639,"lng":-97.43463,"zip":"67209","miles_from_dt":5.3},{"city":"Wichita","state_name":"Kansas","lat":37.75191,"lng":-97.27909,"zip":"67220","miles_from_dt":5.62},{"city":"Wichita","state_name":"Kansas","lat":37.67498,"lng":-97.44515,"zip":"67275","miles_from_dt":5.67},{"city":"Wichita","state_name":"Kansas","lat":37.6089,"lng":-97.3143,"zip":"67216","miles_from_dt":5.69},{"city":"Wichita","state_name":"Kansas","lat":37.76931,"lng":-97.31643,"zip":"67219","miles_from_dt":5.78},{"city":"Wichita","state_name":"Kansas","lat":37.77167,"lng":-97.36341,"zip":"67204","miles_from_dt":5.86},{"city":"Mcconnell Afb","state_name":"Kansas","lat":37.63544,"lng":-97.25819,"zip":"67221","miles_from_dt":5.9},{"city":"Wichita","state_name":"Kansas","lat":37.75012,"lng":-97.42317,"zip":"67205","miles_from_dt":6.13},{"city":"Wichita","state_name":"Kansas","lat":37.66567,"lng":-97.22923,"zip":"67207","miles_from_dt":6.43},{"city":"Wichita","state_name":"Kansas","lat":37.70363,"lng":-97.22461,"zip":"67206","miles_from_dt":6.57},{"city":"Wichita","state_name":"Kansas","lat":37.62944,"lng":-97.24604,"zip":"67210","miles_from_dt":6.69},{"city":"Wichita","state_name":"Kansas","lat":37.61637,"lng":-97.42707,"zip":"67215","miles_from_dt":6.77},{"city":"Kechi","state_name":"Kansas","lat":37.7951,"lng":-97.27044,"zip":"67067","miles_from_dt":8.37},{"city":"Wichita","state_name":"Kansas","lat":37.68951,"lng":-97.49929,"zip":"67235","miles_from_dt":8.57},{"city":"Wichita","state_name":"Kansas","lat":37.76898,"lng":-97.21915,"zip":"67226","miles_from_dt":8.78},{"city":"Wichita","state_name":"Kansas","lat":37.74195,"lng":-97.49797,"zip":"67223","miles_from_dt":9.26},{"city":"Maize","state_name":"Kansas","lat":37.78489,"lng":-97.46356,"zip":"67101","miles_from_dt":9.38},{"city":"Wichita","state_name":"Kansas","lat":37.68655,"lng":-97.17087,"zip":"67230","miles_from_dt":9.43},{"city":"Wichita","state_name":"Kansas","lat":37.62693,"lng":-97.50109,"zip":"67227","miles_from_dt":9.64},{"city":"Haysville","state_name":"Kansas","lat":37.54601,"lng":-97.35952,"zip":"67060","miles_from_dt":9.85},{"city":"Greenwich","state_name":"Kansas","lat":37.78325,"lng":-97.2037,"zip":"67055","miles_from_dt":10.06},{"city":"Wichita","state_name":"Kansas","lat":37.6368,"lng":-97.16802,"zip":"67232","miles_from_dt":10.23},{"city":"Derby","state_name":"Kansas","lat":37.56646,"lng":-97.22095,"zip":"67037","miles_from_dt":10.74},{"city":"Wichita","state_name":"Kansas","lat":37.77749,"lng":-97.17274,"zip":"67228","miles_from_dt":11.18},{"city":"Valley Center","state_name":"Kansas","lat":37.86062,"lng":-97.3058,"zip":"67147","miles_from_dt":12.06},{"city":"Goddard","state_name":"Kansas","lat":37.65812,"lng":-97.57357,"zip":"67052","miles_from_dt":12.81},{"city":"Andover","state_name":"Kansas","lat":37.69575,"lng":-97.10725,"zip":"67002","miles_from_dt":12.93},{"city":"Colwich","state_name":"Kansas","lat":37.78548,"lng":-97.54661,"zip":"67030","miles_from_dt":13.01},{"city":"Clearwater","state_name":"Kansas","lat":37.51047,"lng":-97.49239,"zip":"67026","miles_from_dt":14.75},{"city":"Rose Hill","state_name":"Kansas","lat":37.57677,"lng":-97.10451,"zip":"67133","miles_from_dt":15.17},{"city":"Peck","state_name":"Kansas","lat":37.46591,"lng":-97.37592,"zip":"67120","miles_from_dt":15.44},{"city":"Benton","state_name":"Kansas","lat":37.82778,"lng":-97.11165,"zip":"67017","miles_from_dt":15.91},{"city":"Mulvane","state_name":"Kansas","lat":37.47022,"lng":-97.22425,"zip":"67110","miles_from_dt":16.39},{"city":"Andale","state_name":"Kansas","lat":37.76069,"lng":-97.62953,"zip":"67001","miles_from_dt":16.47},{"city":"Sedgwick","state_name":"Kansas","lat":37.91362,"lng":-97.45942,"zip":"67135","miles_from_dt":16.8},{"city":"Bentley","state_name":"Kansas","lat":37.88882,"lng":-97.51812,"zip":"67016","miles_from_dt":16.83},{"city":"Garden Plain","state_name":"Kansas","lat":37.675,"lng":-97.6769,"zip":"67050","miles_from_dt":18.32},{"city":"Viola","state_name":"Kansas","lat":37.54243,"lng":-97.62915,"zip":"67149","miles_from_dt":18.64},{"city":"Augusta","state_name":"Kansas","lat":37.66099,"lng":-96.97388,"zip":"67010","miles_from_dt":20.32},{"city":"Towanda","state_name":"Kansas","lat":37.81673,"lng":-97.00539,"zip":"67144","miles_from_dt":20.5},{"city":"Mount Hope","state_name":"Kansas","lat":37.81428,"lng":-97.68621,"zip":"67108","miles_from_dt":20.71},{"city":"Belle Plaine","state_name":"Kansas","lat":37.37904,"lng":-97.27378,"zip":"67013","miles_from_dt":21.66},{"city":"Whitewater","state_name":"Kansas","lat":37.97079,"lng":-97.12117,"zip":"67154","miles_from_dt":22.96},{"city":"Douglass","state_name":"Kansas","lat":37.52163,"lng":-96.97322,"zip":"67039","miles_from_dt":23.32},{"city":"Udall","state_name":"Kansas","lat":37.39016,"lng":-97.10398,"zip":"67146","miles_from_dt":24.39},{"city":"Cheney","state_name":"Kansas","lat":37.64146,"lng":-97.78789,"zip":"67025","miles_from_dt":24.6},{"city":"Halstead","state_name":"Kansas","lat":38.01936,"lng":-97.52345,"zip":"67056","miles_from_dt":24.88},{"city":"Conway Springs","state_name":"Kansas","lat":37.40444,"lng":-97.63848,"zip":"67031","miles_from_dt":25.42},{"city":"Potwin","state_name":"Kansas","lat":37.94676,"lng":-96.99352,"zip":"67123","miles_from_dt":26.15},{"city":"Newton","state_name":"Kansas","lat":38.07034,"lng":-97.28359,"zip":"67114","miles_from_dt":26.55},{"city":"North Newton","state_name":"Kansas","lat":38.07416,"lng":-97.34544,"zip":"67117","miles_from_dt":26.62},{"city":"Milton","state_name":"Kansas","lat":37.46335,"lng":-97.75804,"zip":"67106","miles_from_dt":27.56},{"city":"Elbing","state_name":"Kansas","lat":38.05404,"lng":-97.12755,"zip":"67041","miles_from_dt":27.84},{"city":"Rock","state_name":"Kansas","lat":37.43261,"lng":-96.94958,"zip":"67131","miles_from_dt":27.88},{"city":"Haven","state_name":"Kansas","lat":37.88346,"lng":-97.79511,"zip":"67543","miles_from_dt":28.17},{"city":"Burrton","state_name":"Kansas","lat":38.00881,"lng":-97.66903,"zip":"67020","miles_from_dt":28.4},{"city":"Wellington","state_name":"Kansas","lat":37.2623,"lng":-97.41104,"zip":"67152","miles_from_dt":29.61}],"targetCityZipCode":"67201","targetCityState":"Kansas"},"__N_SSG":true}