{"pageProps":{"stateName":"Kansas","cityName":"yoder","nearbyCities":[{"city":"Hutchinson","state_name":"Kansas","lat":37.97989,"lng":-97.9309,"zip":"67501","miles_from_dt":4.24},{"city":"Haven","state_name":"Kansas","lat":37.88346,"lng":-97.79511,"zip":"67543","miles_from_dt":5.75},{"city":"Hutchinson","state_name":"Kansas","lat":38.02534,"lng":-97.9365,"zip":"67504","miles_from_dt":6.78},{"city":"South Hutchinson","state_name":"Kansas","lat":38.02855,"lng":-97.94333,"zip":"67505","miles_from_dt":7.17},{"city":"Burrton","state_name":"Kansas","lat":38.00881,"lng":-97.66903,"zip":"67020","miles_from_dt":11.8},{"city":"Pretty Prairie","state_name":"Kansas","lat":37.78686,"lng":-97.968,"zip":"67570","miles_from_dt":12.07},{"city":"Partridge","state_name":"Kansas","lat":37.944,"lng":-98.09938,"zip":"67566","miles_from_dt":12.61},{"city":"Hutchinson","state_name":"Kansas","lat":38.12146,"lng":-97.92673,"zip":"67502","miles_from_dt":12.7},{"city":"Mount Hope","state_name":"Kansas","lat":37.81428,"lng":-97.68621,"zip":"67108","miles_from_dt":13.35},{"city":"Buhler","state_name":"Kansas","lat":38.12294,"lng":-97.74608,"zip":"67522","miles_from_dt":14.09},{"city":"Nickerson","state_name":"Kansas","lat":38.10427,"lng":-98.09921,"zip":"67561","miles_from_dt":16.79},{"city":"Andale","state_name":"Kansas","lat":37.76069,"lng":-97.62953,"zip":"67001","miles_from_dt":18.14},{"city":"Arlington","state_name":"Kansas","lat":37.86278,"lng":-98.19714,"zip":"67514","miles_from_dt":18.79},{"city":"Abbyville","state_name":"Kansas","lat":37.99839,"lng":-98.21127,"zip":"67510","miles_from_dt":19.09},{"city":"Bentley","state_name":"Kansas","lat":37.88882,"lng":-97.51812,"zip":"67016","miles_from_dt":19.51},{"city":"Halstead","state_name":"Kansas","lat":38.01936,"lng":-97.52345,"zip":"67056","miles_from_dt":19.56},{"city":"Inman","state_name":"Kansas","lat":38.22811,"lng":-97.82116,"zip":"67546","miles_from_dt":19.83},{"city":"Colwich","state_name":"Kansas","lat":37.78548,"lng":-97.54661,"zip":"67030","miles_from_dt":20.69},{"city":"Garden Plain","state_name":"Kansas","lat":37.675,"lng":-97.6769,"zip":"67050","miles_from_dt":21.26},{"city":"Cheney","state_name":"Kansas","lat":37.64146,"lng":-97.78789,"zip":"67025","miles_from_dt":21.27},{"city":"Sedgwick","state_name":"Kansas","lat":37.91362,"lng":-97.45942,"zip":"67135","miles_from_dt":22.44},{"city":"Murdock","state_name":"Kansas","lat":37.6151,"lng":-97.93453,"zip":"67111","miles_from_dt":22.91},{"city":"Wichita","state_name":"Kansas","lat":37.74195,"lng":-97.49797,"zip":"67223","miles_from_dt":24.56},{"city":"Plevna","state_name":"Kansas","lat":38.01729,"lng":-98.30888,"zip":"67568","miles_from_dt":24.57},{"city":"Maize","state_name":"Kansas","lat":37.78489,"lng":-97.46356,"zip":"67101","miles_from_dt":24.69},{"city":"Moundridge","state_name":"Kansas","lat":38.19496,"lng":-97.53911,"zip":"67107","miles_from_dt":24.99},{"city":"Sterling","state_name":"Kansas","lat":38.18615,"lng":-98.20861,"zip":"67579","miles_from_dt":25},{"city":"Goddard","state_name":"Kansas","lat":37.65812,"lng":-97.57357,"zip":"67052","miles_from_dt":25.44},{"city":"Kingman","state_name":"Kansas","lat":37.61991,"lng":-98.11473,"zip":"67068","miles_from_dt":26.05},{"city":"Wichita","state_name":"Kansas","lat":37.68951,"lng":-97.49929,"zip":"67235","miles_from_dt":26.72},{"city":"Hesston","state_name":"Kansas","lat":38.1431,"lng":-97.43296,"zip":"67062","miles_from_dt":27.47},{"city":"Wichita","state_name":"Kansas","lat":37.75012,"lng":-97.42317,"zip":"67205","miles_from_dt":27.76},{"city":"Wichita","state_name":"Kansas","lat":37.70247,"lng":-97.43658,"zip":"67212","miles_from_dt":28.88},{"city":"Wichita","state_name":"Kansas","lat":37.67498,"lng":-97.44515,"zip":"67275","miles_from_dt":29.64},{"city":"Wichita","state_name":"Kansas","lat":37.62693,"lng":-97.50109,"zip":"67227","miles_from_dt":29.67},{"city":"Sylvia","state_name":"Kansas","lat":37.99316,"lng":-98.41068,"zip":"67581","miles_from_dt":29.8},{"city":"North Newton","state_name":"Kansas","lat":38.07416,"lng":-97.34544,"zip":"67117","miles_from_dt":29.94}],"targetCityZipCode":"67585","targetCityState":"Kansas"},"__N_SSG":true}