{"pageProps":{"stateName":"Oregon","cityName":"bay-city","nearbyCities":[{"city":"Garibaldi","state_name":"Oregon","lat":45.55697,"lng":-123.91619,"zip":"97118","miles_from_dt":1.65},{"city":"Rockaway Beach","state_name":"Oregon","lat":45.6341,"lng":-123.91353,"zip":"97136","miles_from_dt":5.21},{"city":"Oceanside","state_name":"Oregon","lat":45.45587,"lng":-123.96513,"zip":"97134","miles_from_dt":8.33},{"city":"Wheeler","state_name":"Oregon","lat":45.6871,"lng":-123.8873,"zip":"97147","miles_from_dt":8.66},{"city":"Netarts","state_name":"Oregon","lat":45.43607,"lng":-123.94251,"zip":"97143","miles_from_dt":9.15},{"city":"Tillamook","state_name":"Oregon","lat":45.47142,"lng":-123.73791,"zip":"97141","miles_from_dt":9.4},{"city":"Manzanita","state_name":"Oregon","lat":45.71592,"lng":-123.93318,"zip":"97130","miles_from_dt":10.92},{"city":"Nehalem","state_name":"Oregon","lat":45.71495,"lng":-123.8107,"zip":"97131","miles_from_dt":11.15},{"city":"Arch Cape","state_name":"Oregon","lat":45.7934,"lng":-123.94793,"zip":"97102","miles_from_dt":16.31},{"city":"Tolovana Park","state_name":"Oregon","lat":45.84357,"lng":-123.9516,"zip":"97145","miles_from_dt":19.75},{"city":"Cloverdale","state_name":"Oregon","lat":45.26218,"lng":-123.86629,"zip":"97112","miles_from_dt":20.7},{"city":"Beaver","state_name":"Oregon","lat":45.27423,"lng":-123.67544,"zip":"97108","miles_from_dt":22.27},{"city":"Cannon Beach","state_name":"Oregon","lat":45.89186,"lng":-123.95128,"zip":"97110","miles_from_dt":23.04},{"city":"Seaside","state_name":"Oregon","lat":45.90946,"lng":-123.70036,"zip":"97138","miles_from_dt":25.59},{"city":"Pacific City","state_name":"Oregon","lat":45.18749,"lng":-123.95494,"zip":"97135","miles_from_dt":26.08},{"city":"Hebo","state_name":"Oregon","lat":45.17331,"lng":-123.8164,"zip":"97122","miles_from_dt":27.02},{"city":"Gales Creek","state_name":"Oregon","lat":45.62189,"lng":-123.31132,"zip":"97117","miles_from_dt":28.02}],"targetCityZipCode":"97107","targetCityState":"Oregon"},"__N_SSG":true}