{"pageProps":{"stateName":"Oregon","cityName":"gaston","nearbyCities":[{"city":"Yamhill","state_name":"Oregon","lat":45.35988,"lng":-123.26553,"zip":"97148","miles_from_dt":8.22},{"city":"Forest Grove","state_name":"Oregon","lat":45.59054,"lng":-123.18876,"zip":"97116","miles_from_dt":8.26},{"city":"Cornelius","state_name":"Oregon","lat":45.50746,"lng":-123.04544,"zip":"97113","miles_from_dt":8.26},{"city":"Hillsboro","state_name":"Oregon","lat":45.523,"lng":-122.991,"zip":"97129","miles_from_dt":11.11},{"city":"Hillsboro","state_name":"Oregon","lat":45.44353,"lng":-122.98048,"zip":"97123","miles_from_dt":11.22},{"city":"Gales Creek","state_name":"Oregon","lat":45.62189,"lng":-123.31132,"zip":"97117","miles_from_dt":11.52},{"city":"Carlton","state_name":"Oregon","lat":45.29012,"lng":-123.19855,"zip":"97111","miles_from_dt":12.55},{"city":"Banks","state_name":"Oregon","lat":45.65419,"lng":-123.13417,"zip":"97106","miles_from_dt":13.1},{"city":"Manning","state_name":"Oregon","lat":45.66243,"lng":-123.21117,"zip":"97125","miles_from_dt":13.17},{"city":"Hillsboro","state_name":"Oregon","lat":45.57088,"lng":-122.94584,"zip":"97124","miles_from_dt":14.44},{"city":"Newberg","state_name":"Oregon","lat":45.32272,"lng":-122.98854,"zip":"97132","miles_from_dt":14.82},{"city":"Beaverton","state_name":"Oregon","lat":45.47628,"lng":-122.89088,"zip":"97078","miles_from_dt":15.4},{"city":"Dundee","state_name":"Oregon","lat":45.27573,"lng":-123.02682,"zip":"97115","miles_from_dt":16.15},{"city":"Lafayette","state_name":"Oregon","lat":45.24629,"lng":-123.11159,"zip":"97127","miles_from_dt":16.26},{"city":"Beaverton","state_name":"Oregon","lat":45.44282,"lng":-122.87112,"zip":"97007","miles_from_dt":16.48},{"city":"Beaverton","state_name":"Oregon","lat":45.50372,"lng":-122.86482,"zip":"97003","miles_from_dt":16.81},{"city":"North Plains","state_name":"Oregon","lat":45.68719,"lng":-123.02861,"zip":"97133","miles_from_dt":17.23},{"city":"Beaverton","state_name":"Oregon","lat":45.52598,"lng":-122.85591,"zip":"97006","miles_from_dt":17.5},{"city":"Buxton","state_name":"Oregon","lat":45.73777,"lng":-123.1946,"zip":"97109","miles_from_dt":18.39},{"city":"Sherwood","state_name":"Oregon","lat":45.35359,"lng":-122.86339,"zip":"97140","miles_from_dt":18.63},{"city":"Mcminnville","state_name":"Oregon","lat":45.19814,"lng":-123.25812,"zip":"97128","miles_from_dt":19.05},{"city":"Timber","state_name":"Oregon","lat":45.74349,"lng":-123.30305,"zip":"97144","miles_from_dt":19.33},{"city":"Beaverton","state_name":"Oregon","lat":45.49249,"lng":-122.80465,"zip":"97075","miles_from_dt":19.64},{"city":"Beaverton","state_name":"Oregon","lat":45.49144,"lng":-122.80397,"zip":"97005","miles_from_dt":19.67},{"city":"Beaverton","state_name":"Oregon","lat":45.46044,"lng":-122.80252,"zip":"97008","miles_from_dt":19.71},{"city":"Beaverton","state_name":"Oregon","lat":45.49361,"lng":-122.8003,"zip":"97077","miles_from_dt":19.85},{"city":"Beaverton","state_name":"Oregon","lat":45.48934,"lng":-122.79982,"zip":"97076","miles_from_dt":19.86},{"city":"Beaverton","state_name":"Oregon","lat":45.485,"lng":-122.796,"zip":"97079","miles_from_dt":20.03},{"city":"Portland","state_name":"Oregon","lat":45.55032,"lng":-122.81026,"zip":"97229","miles_from_dt":20.05},{"city":"Portland","state_name":"Oregon","lat":45.40568,"lng":-122.7958,"zip":"97224","miles_from_dt":20.54},{"city":"Portland","state_name":"Oregon","lat":45.44112,"lng":-122.77933,"zip":"97281","miles_from_dt":20.93},{"city":"Dayton","state_name":"Oregon","lat":45.18381,"lng":-123.07172,"zip":"97114","miles_from_dt":20.96},{"city":"Portland","state_name":"Oregon","lat":45.44023,"lng":-122.77838,"zip":"97223","miles_from_dt":20.98},{"city":"Portland","state_name":"Oregon","lat":45.50195,"lng":-122.77304,"zip":"97298","miles_from_dt":21.22},{"city":"Portland","state_name":"Oregon","lat":45.502,"lng":-122.76994,"zip":"97225","miles_from_dt":21.37},{"city":"Portland","state_name":"Oregon","lat":45.532,"lng":-122.77341,"zip":"97296","miles_from_dt":21.5},{"city":"Saint Paul","state_name":"Oregon","lat":45.21028,"lng":-122.9635,"zip":"97137","miles_from_dt":21.62},{"city":"Tualatin","state_name":"Oregon","lat":45.36821,"lng":-122.76169,"zip":"97062","miles_from_dt":22.84},{"city":"Portland","state_name":"Oregon","lat":45.49799,"lng":-122.72749,"zip":"97221","miles_from_dt":23.4},{"city":"Portland","state_name":"Oregon","lat":45.68197,"lng":-122.82687,"zip":"97231","miles_from_dt":23.5},{"city":"Portland","state_name":"Oregon","lat":45.54954,"lng":-122.73549,"zip":"97210","miles_from_dt":23.56},{"city":"Lake Oswego","state_name":"Oregon","lat":45.41291,"lng":-122.72616,"zip":"97035","miles_from_dt":23.76},{"city":"Portland","state_name":"Oregon","lat":45.54738,"lng":-122.72617,"zip":"97291","miles_from_dt":23.96},{"city":"Wilsonville","state_name":"Oregon","lat":45.308,"lng":-122.77059,"zip":"97070","miles_from_dt":24.09},{"city":"Portland","state_name":"Oregon","lat":45.60764,"lng":-122.74923,"zip":"97203","miles_from_dt":24.15},{"city":"Portland","state_name":"Oregon","lat":45.5418,"lng":-122.711,"zip":"97254","miles_from_dt":24.61},{"city":"Portland","state_name":"Oregon","lat":45.45413,"lng":-122.69972,"zip":"97219","miles_from_dt":24.72},{"city":"Portland","state_name":"Oregon","lat":45.45354,"lng":-122.69884,"zip":"97280","miles_from_dt":24.77},{"city":"Scappoose","state_name":"Oregon","lat":45.78935,"lng":-122.96941,"zip":"97056","miles_from_dt":24.79},{"city":"Portland","state_name":"Oregon","lat":45.51924,"lng":-122.70127,"zip":"97205","miles_from_dt":24.82},{"city":"Donald","state_name":"Oregon","lat":45.22267,"lng":-122.83887,"zip":"97020","miles_from_dt":24.87},{"city":"Portland","state_name":"Oregon","lat":45.48893,"lng":-122.69053,"zip":"97239","miles_from_dt":25.16},{"city":"Portland","state_name":"Oregon","lat":45.50796,"lng":-122.68959,"zip":"97201","miles_from_dt":25.3},{"city":"Aurora","state_name":"Oregon","lat":45.23774,"lng":-122.8003,"zip":"97002","miles_from_dt":25.59},{"city":"Portland","state_name":"Oregon","lat":45.52289,"lng":-122.68452,"zip":"97207","miles_from_dt":25.66},{"city":"Portland","state_name":"Oregon","lat":45.53093,"lng":-122.68429,"zip":"97209","miles_from_dt":25.75},{"city":"Tillamook","state_name":"Oregon","lat":45.47142,"lng":-123.73791,"zip":"97141","miles_from_dt":25.76},{"city":"Portland","state_name":"Oregon","lat":45.51599,"lng":-122.68094,"zip":"97256","miles_from_dt":25.77},{"city":"Lake Oswego","state_name":"Oregon","lat":45.4095,"lng":-122.68467,"zip":"97034","miles_from_dt":25.79},{"city":"Portland","state_name":"Oregon","lat":45.52991,"lng":-122.68258,"zip":"97228","miles_from_dt":25.82},{"city":"Portland","state_name":"Oregon","lat":45.52866,"lng":-122.67898,"zip":"97208","miles_from_dt":25.98},{"city":"Portland","state_name":"Oregon","lat":45.512,"lng":-122.676,"zip":"97250","miles_from_dt":25.98},{"city":"Portland","state_name":"Oregon","lat":45.512,"lng":-122.676,"zip":"97252","miles_from_dt":25.98},{"city":"Portland","state_name":"Oregon","lat":45.5216,"lng":-122.677,"zip":"97253","miles_from_dt":26.01},{"city":"Portland","state_name":"Oregon","lat":45.5183,"lng":-122.67378,"zip":"97204","miles_from_dt":26.14},{"city":"Amity","state_name":"Oregon","lat":45.09225,"lng":-123.21557,"zip":"97101","miles_from_dt":26.21},{"city":"Portland","state_name":"Oregon","lat":45.5199,"lng":-122.672,"zip":"97251","miles_from_dt":26.24},{"city":"Portland","state_name":"Oregon","lat":45.54432,"lng":-122.67721,"zip":"97227","miles_from_dt":26.25},{"city":"Portland","state_name":"Oregon","lat":45.59686,"lng":-122.69717,"zip":"97217","miles_from_dt":26.25},{"city":"Beaver","state_name":"Oregon","lat":45.27423,"lng":-123.67544,"zip":"97108","miles_from_dt":26.53},{"city":"Portland","state_name":"Oregon","lat":45.50242,"lng":-122.65644,"zip":"97240","miles_from_dt":26.87},{"city":"Portland","state_name":"Oregon","lat":45.53788,"lng":-122.65452,"zip":"97283","miles_from_dt":27.25},{"city":"Portland","state_name":"Oregon","lat":45.48232,"lng":-122.64365,"zip":"97202","miles_from_dt":27.42},{"city":"Vancouver","state_name":"Washington","lat":45.6866,"lng":-122.73152,"zip":"98660","miles_from_dt":27.46},{"city":"West Linn","state_name":"Oregon","lat":45.35195,"lng":-122.66876,"zip":"97068","miles_from_dt":27.49},{"city":"Portland","state_name":"Oregon","lat":45.51395,"lng":-122.64424,"zip":"97214","miles_from_dt":27.53},{"city":"Portland","state_name":"Oregon","lat":45.48165,"lng":-122.63928,"zip":"97282","miles_from_dt":27.63},{"city":"Portland","state_name":"Oregon","lat":45.51122,"lng":-122.64134,"zip":"97293","miles_from_dt":27.65},{"city":"Portland","state_name":"Oregon","lat":45.48326,"lng":-122.63843,"zip":"97242","miles_from_dt":27.67},{"city":"Portland","state_name":"Oregon","lat":45.5292,"lng":-122.64376,"zip":"97232","miles_from_dt":27.68},{"city":"Marylhurst","state_name":"Oregon","lat":45.39711,"lng":-122.64846,"zip":"97036","miles_from_dt":27.68},{"city":"Vernonia","state_name":"Oregon","lat":45.87276,"lng":-123.2309,"zip":"97064","miles_from_dt":27.72},{"city":"Portland","state_name":"Oregon","lat":45.54428,"lng":-122.64322,"zip":"97212","miles_from_dt":27.87},{"city":"Portland","state_name":"Oregon","lat":45.41694,"lng":-122.63889,"zip":"97268","miles_from_dt":27.91},{"city":"Portland","state_name":"Oregon","lat":45.57414,"lng":-122.64332,"zip":"97290","miles_from_dt":28.3},{"city":"Gervais","state_name":"Oregon","lat":45.10409,"lng":-122.94251,"zip":"97026","miles_from_dt":28.49},{"city":"Portland","state_name":"Oregon","lat":45.44114,"lng":-122.61682,"zip":"97222","miles_from_dt":28.8},{"city":"Portland","state_name":"Oregon","lat":45.58174,"lng":-122.63548,"zip":"97211","miles_from_dt":28.8},{"city":"Hubbard","state_name":"Oregon","lat":45.17949,"lng":-122.78559,"zip":"97032","miles_from_dt":28.81},{"city":"Portland","state_name":"Oregon","lat":45.43845,"lng":-122.61132,"zip":"97269","miles_from_dt":29.08},{"city":"Sheridan","state_name":"Oregon","lat":45.08058,"lng":-123.43127,"zip":"97378","miles_from_dt":29.12},{"city":"Warren","state_name":"Oregon","lat":45.82695,"lng":-122.88401,"zip":"97053","miles_from_dt":29.12},{"city":"Willamina","state_name":"Oregon","lat":45.11528,"lng":-123.5275,"zip":"97396","miles_from_dt":29.13},{"city":"Portland","state_name":"Oregon","lat":45.40744,"lng":-122.61472,"zip":"97267","miles_from_dt":29.17},{"city":"Vancouver","state_name":"Washington","lat":45.65449,"lng":-122.66228,"zip":"98663","miles_from_dt":29.32},{"city":"Portland","state_name":"Oregon","lat":45.48173,"lng":-122.5988,"zip":"97206","miles_from_dt":29.6},{"city":"Portland","state_name":"Oregon","lat":45.47983,"lng":-122.59789,"zip":"97286","miles_from_dt":29.64},{"city":"Portland","state_name":"Oregon","lat":45.51436,"lng":-122.59923,"zip":"97215","miles_from_dt":29.71},{"city":"Woodburn","state_name":"Oregon","lat":45.13588,"lng":-122.82344,"zip":"97071","miles_from_dt":29.81},{"city":"Portland","state_name":"Oregon","lat":45.53776,"lng":-122.59957,"zip":"97213","miles_from_dt":29.89}],"targetCityZipCode":"97119","targetCityState":"Oregon"},"__N_SSG":true}