{"pageProps":{"stateName":"Oregon","cityName":"government-camp","nearbyCities":[{"city":"Rhododendron","state_name":"Oregon","lat":45.35931,"lng":-121.86829,"zip":"97049","miles_from_dt":7.75},{"city":"Welches","state_name":"Oregon","lat":45.31302,"lng":-121.97733,"zip":"97067","miles_from_dt":11.15},{"city":"Mount Hood Parkdale","state_name":"Oregon","lat":45.41655,"lng":-121.59617,"zip":"97041","miles_from_dt":12.01},{"city":"Brightwood","state_name":"Oregon","lat":45.38738,"lng":-122.03671,"zip":"97011","miles_from_dt":15.62},{"city":"Sandy","state_name":"Oregon","lat":45.35975,"lng":-122.15396,"zip":"97055","miles_from_dt":20.27},{"city":"Estacada","state_name":"Oregon","lat":45.19147,"lng":-122.20501,"zip":"97023","miles_from_dt":22.94},{"city":"Tygh Valley","state_name":"Oregon","lat":45.22319,"lng":-121.28306,"zip":"97063","miles_from_dt":23.27},{"city":"Cascade Locks","state_name":"Oregon","lat":45.61354,"lng":-121.87405,"zip":"97014","miles_from_dt":23.63},{"city":"Hood River","state_name":"Oregon","lat":45.61193,"lng":-121.61094,"zip":"97031","miles_from_dt":23.79},{"city":"Corbett","state_name":"Oregon","lat":45.494,"lng":-122.18885,"zip":"97019","miles_from_dt":25.77},{"city":"Odell","state_name":"Oregon","lat":45.62531,"lng":-121.53971,"zip":"97044","miles_from_dt":25.86},{"city":"North Bonneville","state_name":"Washington","lat":45.64364,"lng":-121.96288,"zip":"98639","miles_from_dt":26.97},{"city":"Bridal Veil","state_name":"Oregon","lat":45.55828,"lng":-122.17538,"zip":"97010","miles_from_dt":28.03},{"city":"Eagle Creek","state_name":"Oregon","lat":45.34562,"lng":-122.3306,"zip":"97022","miles_from_dt":28.49},{"city":"Mosier","state_name":"Oregon","lat":45.62648,"lng":-121.38476,"zip":"97040","miles_from_dt":29.75}],"targetCityZipCode":"97028","targetCityState":"Oregon"},"__N_SSG":true}