{"pageProps":{"stateName":"Oregon","cityName":"north-plains","nearbyCities":[{"city":"Banks","state_name":"Oregon","lat":45.65419,"lng":-123.13417,"zip":"97106","miles_from_dt":5.6},{"city":"Scappoose","state_name":"Oregon","lat":45.78935,"lng":-122.96941,"zip":"97056","miles_from_dt":7.61},{"city":"Buxton","state_name":"Oregon","lat":45.73777,"lng":-123.1946,"zip":"97109","miles_from_dt":8.76},{"city":"Hillsboro","state_name":"Oregon","lat":45.57088,"lng":-122.94584,"zip":"97124","miles_from_dt":8.98},{"city":"Manning","state_name":"Oregon","lat":45.66243,"lng":-123.21117,"zip":"97125","miles_from_dt":9},{"city":"Portland","state_name":"Oregon","lat":45.68197,"lng":-122.82687,"zip":"97231","miles_from_dt":9.77},{"city":"Forest Grove","state_name":"Oregon","lat":45.59054,"lng":-123.18876,"zip":"97116","miles_from_dt":10.23},{"city":"Hillsboro","state_name":"Oregon","lat":45.523,"lng":-122.991,"zip":"97129","miles_from_dt":11.48},{"city":"Warren","state_name":"Oregon","lat":45.82695,"lng":-122.88401,"zip":"97053","miles_from_dt":11.92},{"city":"Cornelius","state_name":"Oregon","lat":45.50746,"lng":-123.04544,"zip":"97113","miles_from_dt":12.44},{"city":"Timber","state_name":"Oregon","lat":45.74349,"lng":-123.30305,"zip":"97144","miles_from_dt":13.83},{"city":"Beaverton","state_name":"Oregon","lat":45.52598,"lng":-122.85591,"zip":"97006","miles_from_dt":13.93},{"city":"Portland","state_name":"Oregon","lat":45.55032,"lng":-122.81026,"zip":"97229","miles_from_dt":14.19},{"city":"Vancouver","state_name":"Washington","lat":45.6866,"lng":-122.73152,"zip":"98660","miles_from_dt":14.38},{"city":"Gales Creek","state_name":"Oregon","lat":45.62189,"lng":-123.31132,"zip":"97117","miles_from_dt":14.42},{"city":"Portland","state_name":"Oregon","lat":45.60764,"lng":-122.74923,"zip":"97203","miles_from_dt":14.61},{"city":"Saint Helens","state_name":"Oregon","lat":45.88902,"lng":-122.92011,"zip":"97051","miles_from_dt":14.89},{"city":"Beaverton","state_name":"Oregon","lat":45.50372,"lng":-122.86482,"zip":"97003","miles_from_dt":14.95},{"city":"Beaverton","state_name":"Oregon","lat":45.47628,"lng":-122.89088,"zip":"97078","miles_from_dt":16.02},{"city":"Vernonia","state_name":"Oregon","lat":45.87276,"lng":-123.2309,"zip":"97064","miles_from_dt":16.12},{"city":"Portland","state_name":"Oregon","lat":45.532,"lng":-122.77341,"zip":"97296","miles_from_dt":16.37},{"city":"Vancouver","state_name":"Washington","lat":45.71596,"lng":-122.69105,"zip":"98685","miles_from_dt":16.46},{"city":"Hillsboro","state_name":"Oregon","lat":45.44353,"lng":-122.98048,"zip":"97123","miles_from_dt":16.99},{"city":"Portland","state_name":"Oregon","lat":45.54954,"lng":-122.73549,"zip":"97210","miles_from_dt":17.09},{"city":"Gaston","state_name":"Oregon","lat":45.4717,"lng":-123.20781,"zip":"97119","miles_from_dt":17.23},{"city":"Portland","state_name":"Oregon","lat":45.59686,"lng":-122.69717,"zip":"97217","miles_from_dt":17.23},{"city":"Beaverton","state_name":"Oregon","lat":45.49249,"lng":-122.80465,"zip":"97075","miles_from_dt":17.28},{"city":"Beaverton","state_name":"Oregon","lat":45.49144,"lng":-122.80397,"zip":"97005","miles_from_dt":17.36},{"city":"Beaverton","state_name":"Oregon","lat":45.49361,"lng":-122.8003,"zip":"97077","miles_from_dt":17.36},{"city":"Portland","state_name":"Oregon","lat":45.54738,"lng":-122.72617,"zip":"97291","miles_from_dt":17.55},{"city":"Beaverton","state_name":"Oregon","lat":45.48934,"lng":-122.79982,"zip":"97076","miles_from_dt":17.6},{"city":"Ridgefield","state_name":"Washington","lat":45.80262,"lng":-122.7019,"zip":"98642","miles_from_dt":17.7},{"city":"Columbia City","state_name":"Oregon","lat":45.8957,"lng":-122.81165,"zip":"97018","miles_from_dt":17.81},{"city":"Portland","state_name":"Oregon","lat":45.50195,"lng":-122.77304,"zip":"97298","miles_from_dt":17.81},{"city":"Vancouver","state_name":"Washington","lat":45.65449,"lng":-122.66228,"zip":"98663","miles_from_dt":17.88},{"city":"Portland","state_name":"Oregon","lat":45.502,"lng":-122.76994,"zip":"97225","miles_from_dt":17.91},{"city":"Beaverton","state_name":"Oregon","lat":45.485,"lng":-122.796,"zip":"97079","miles_from_dt":17.95},{"city":"Vancouver","state_name":"Washington","lat":45.68155,"lng":-122.65417,"zip":"98665","miles_from_dt":18.13},{"city":"Portland","state_name":"Oregon","lat":45.5418,"lng":-122.711,"zip":"97254","miles_from_dt":18.38},{"city":"Beaverton","state_name":"Oregon","lat":45.44282,"lng":-122.87112,"zip":"97007","miles_from_dt":18.53},{"city":"Deer Island","state_name":"Oregon","lat":45.95406,"lng":-122.92995,"zip":"97054","miles_from_dt":19.04},{"city":"Beaverton","state_name":"Oregon","lat":45.46044,"lng":-122.80252,"zip":"97008","miles_from_dt":19.12},{"city":"Vancouver","state_name":"Washington","lat":45.72107,"lng":-122.63074,"zip":"98668","miles_from_dt":19.39},{"city":"Portland","state_name":"Oregon","lat":45.49799,"lng":-122.72749,"zip":"97221","miles_from_dt":19.59},{"city":"Portland","state_name":"Oregon","lat":45.51924,"lng":-122.70127,"zip":"97205","miles_from_dt":19.66},{"city":"Portland","state_name":"Oregon","lat":45.54432,"lng":-122.67721,"zip":"97227","miles_from_dt":19.68},{"city":"Vancouver","state_name":"Washington","lat":45.63935,"lng":-122.62586,"zip":"98661","miles_from_dt":19.78},{"city":"Vancouver","state_name":"Washington","lat":45.7239,"lng":-122.62305,"zip":"98686","miles_from_dt":19.79},{"city":"Portland","state_name":"Oregon","lat":45.53093,"lng":-122.68429,"zip":"97209","miles_from_dt":19.87},{"city":"Portland","state_name":"Oregon","lat":45.52991,"lng":-122.68258,"zip":"97228","miles_from_dt":19.98},{"city":"Portland","state_name":"Oregon","lat":45.52289,"lng":-122.68452,"zip":"97207","miles_from_dt":20.17},{"city":"Portland","state_name":"Oregon","lat":45.52866,"lng":-122.67898,"zip":"97208","miles_from_dt":20.18},{"city":"Portland","state_name":"Oregon","lat":45.57414,"lng":-122.64332,"zip":"97290","miles_from_dt":20.24},{"city":"Portland","state_name":"Oregon","lat":45.58174,"lng":-122.63548,"zip":"97211","miles_from_dt":20.39},{"city":"Portland","state_name":"Oregon","lat":45.5216,"lng":-122.677,"zip":"97253","miles_from_dt":20.53},{"city":"Portland","state_name":"Oregon","lat":45.50796,"lng":-122.68959,"zip":"97201","miles_from_dt":20.58},{"city":"Portland","state_name":"Oregon","lat":45.51599,"lng":-122.68094,"zip":"97256","miles_from_dt":20.59},{"city":"Portland","state_name":"Oregon","lat":45.5183,"lng":-122.67378,"zip":"97204","miles_from_dt":20.78},{"city":"Portland","state_name":"Oregon","lat":45.5199,"lng":-122.672,"zip":"97251","miles_from_dt":20.79},{"city":"Portland","state_name":"Oregon","lat":45.53788,"lng":-122.65452,"zip":"97283","miles_from_dt":20.86},{"city":"Portland","state_name":"Oregon","lat":45.44112,"lng":-122.77933,"zip":"97281","miles_from_dt":20.86},{"city":"Portland","state_name":"Oregon","lat":45.44023,"lng":-122.77838,"zip":"97223","miles_from_dt":20.93},{"city":"Portland","state_name":"Oregon","lat":45.512,"lng":-122.676,"zip":"97250","miles_from_dt":20.94},{"city":"Portland","state_name":"Oregon","lat":45.512,"lng":-122.676,"zip":"97252","miles_from_dt":20.94},{"city":"Vancouver","state_name":"Washington","lat":45.71241,"lng":-122.59705,"zip":"98666","miles_from_dt":20.96},{"city":"Portland","state_name":"Oregon","lat":45.54428,"lng":-122.64322,"zip":"97212","miles_from_dt":21.13},{"city":"Portland","state_name":"Oregon","lat":45.48893,"lng":-122.69053,"zip":"97239","miles_from_dt":21.36},{"city":"Portland","state_name":"Oregon","lat":45.5292,"lng":-122.64376,"zip":"97232","miles_from_dt":21.61},{"city":"Vancouver","state_name":"Washington","lat":45.68911,"lng":-122.57742,"zip":"98662","miles_from_dt":21.84},{"city":"Portland","state_name":"Oregon","lat":45.50242,"lng":-122.65644,"zip":"97240","miles_from_dt":22.1},{"city":"Portland","state_name":"Oregon","lat":45.57644,"lng":-122.60045,"zip":"97238","miles_from_dt":22.11},{"city":"Portland","state_name":"Oregon","lat":45.5759,"lng":-122.60023,"zip":"97218","miles_from_dt":22.13},{"city":"Portland","state_name":"Oregon","lat":45.51395,"lng":-122.64424,"zip":"97214","miles_from_dt":22.14},{"city":"Vancouver","state_name":"Washington","lat":45.61966,"lng":-122.57738,"zip":"98664","miles_from_dt":22.35},{"city":"Portland","state_name":"Oregon","lat":45.51122,"lng":-122.64134,"zip":"97293","miles_from_dt":22.36},{"city":"Portland","state_name":"Oregon","lat":45.40568,"lng":-122.7958,"zip":"97224","miles_from_dt":22.49},{"city":"Portland","state_name":"Oregon","lat":45.45413,"lng":-122.69972,"zip":"97219","miles_from_dt":22.66},{"city":"Portland","state_name":"Oregon","lat":45.45354,"lng":-122.69884,"zip":"97280","miles_from_dt":22.72},{"city":"Portland","state_name":"Oregon","lat":45.53776,"lng":-122.59957,"zip":"97213","miles_from_dt":23.21},{"city":"Portland","state_name":"Oregon","lat":45.48232,"lng":-122.64365,"zip":"97202","miles_from_dt":23.42},{"city":"Portland","state_name":"Oregon","lat":45.48326,"lng":-122.63843,"zip":"97242","miles_from_dt":23.59},{"city":"Portland","state_name":"Oregon","lat":45.48165,"lng":-122.63928,"zip":"97282","miles_from_dt":23.62},{"city":"Lake Oswego","state_name":"Oregon","lat":45.41291,"lng":-122.72616,"zip":"97035","miles_from_dt":23.96},{"city":"Portland","state_name":"Oregon","lat":45.51436,"lng":-122.59923,"zip":"97215","miles_from_dt":23.99},{"city":"La Center","state_name":"Washington","lat":45.88109,"lng":-122.6148,"zip":"98629","miles_from_dt":24.07},{"city":"Rainier","state_name":"Oregon","lat":46.03905,"lng":-122.99483,"zip":"97048","miles_from_dt":24.36},{"city":"Sherwood","state_name":"Oregon","lat":45.35359,"lng":-122.86339,"zip":"97140","miles_from_dt":24.39},{"city":"Portland","state_name":"Oregon","lat":45.55107,"lng":-122.55915,"zip":"97220","miles_from_dt":24.62},{"city":"Vancouver","state_name":"Washington","lat":45.62919,"lng":-122.51754,"zip":"98687","miles_from_dt":25.07},{"city":"Vancouver","state_name":"Washington","lat":45.6308,"lng":-122.51615,"zip":"98684","miles_from_dt":25.12},{"city":"Portland","state_name":"Oregon","lat":45.48173,"lng":-122.5988,"zip":"97206","miles_from_dt":25.21},{"city":"Newberg","state_name":"Oregon","lat":45.32272,"lng":-122.98854,"zip":"97132","miles_from_dt":25.25},{"city":"Portland","state_name":"Oregon","lat":45.47983,"lng":-122.59789,"zip":"97286","miles_from_dt":25.32},{"city":"Yamhill","state_name":"Oregon","lat":45.35988,"lng":-123.26553,"zip":"97148","miles_from_dt":25.36},{"city":"Woodland","state_name":"Washington","lat":45.94672,"lng":-122.65568,"zip":"98674","miles_from_dt":25.41},{"city":"Lake Oswego","state_name":"Oregon","lat":45.4095,"lng":-122.68467,"zip":"97034","miles_from_dt":25.42},{"city":"Tualatin","state_name":"Oregon","lat":45.36821,"lng":-122.76169,"zip":"97062","miles_from_dt":25.56},{"city":"Portland","state_name":"Oregon","lat":45.51393,"lng":-122.5585,"zip":"97216","miles_from_dt":25.74},{"city":"Vancouver","state_name":"Washington","lat":45.6027,"lng":-122.50984,"zip":"98683","miles_from_dt":25.8},{"city":"Portland","state_name":"Oregon","lat":45.51543,"lng":-122.55544,"zip":"97292","miles_from_dt":25.82},{"city":"Portland","state_name":"Oregon","lat":45.44114,"lng":-122.61682,"zip":"97222","miles_from_dt":26.23},{"city":"Vancouver","state_name":"Washington","lat":45.67296,"lng":-122.48327,"zip":"98682","miles_from_dt":26.42},{"city":"Battle Ground","state_name":"Washington","lat":45.80013,"lng":-122.5054,"zip":"98604","miles_from_dt":26.47},{"city":"Portland","state_name":"Oregon","lat":45.43845,"lng":-122.61132,"zip":"97269","miles_from_dt":26.55},{"city":"Portland","state_name":"Oregon","lat":45.41694,"lng":-122.63889,"zip":"97268","miles_from_dt":26.57},{"city":"Portland","state_name":"Oregon","lat":45.48268,"lng":-122.55838,"zip":"97266","miles_from_dt":26.82},{"city":"Portland","state_name":"Oregon","lat":45.5582,"lng":-122.506,"zip":"97230","miles_from_dt":26.85},{"city":"Marylhurst","state_name":"Oregon","lat":45.39711,"lng":-122.64846,"zip":"97036","miles_from_dt":27.23},{"city":"Portland","state_name":"Oregon","lat":45.54231,"lng":-122.49685,"zip":"97294","miles_from_dt":27.65},{"city":"Carrolls","state_name":"Washington","lat":46.0717,"lng":-122.86569,"zip":"98609","miles_from_dt":27.69},{"city":"Brush Prairie","state_name":"Washington","lat":45.72921,"lng":-122.45615,"zip":"98606","miles_from_dt":27.85},{"city":"Portland","state_name":"Oregon","lat":45.40744,"lng":-122.61472,"zip":"97267","miles_from_dt":27.87},{"city":"Heisson","state_name":"Washington","lat":45.82505,"lng":-122.48582,"zip":"98622","miles_from_dt":27.91},{"city":"Clatskanie","state_name":"Oregon","lat":46.05573,"lng":-123.27032,"zip":"97016","miles_from_dt":28},{"city":"Portland","state_name":"Oregon","lat":45.51391,"lng":-122.49887,"zip":"97233","miles_from_dt":28.33},{"city":"Dundee","state_name":"Oregon","lat":45.27573,"lng":-123.02682,"zip":"97115","miles_from_dt":28.42},{"city":"Carlton","state_name":"Oregon","lat":45.29012,"lng":-123.19855,"zip":"97111","miles_from_dt":28.64},{"city":"Portland","state_name":"Oregon","lat":45.48474,"lng":-122.51055,"zip":"97236","miles_from_dt":28.75},{"city":"West Linn","state_name":"Oregon","lat":45.35195,"lng":-122.66876,"zip":"97068","miles_from_dt":29},{"city":"Wilsonville","state_name":"Oregon","lat":45.308,"lng":-122.77059,"zip":"97070","miles_from_dt":29.03},{"city":"Happy Valley","state_name":"Oregon","lat":45.44531,"lng":-122.52793,"zip":"97086","miles_from_dt":29.48},{"city":"Gladstone","state_name":"Oregon","lat":45.38697,"lng":-122.59271,"zip":"97027","miles_from_dt":29.62}],"targetCityZipCode":"97133","targetCityState":"Oregon"},"__N_SSG":true}