{"pageProps":{"stateName":"Ohio","cityName":"antwerp","nearbyCities":[{"city":"Harlan","state_name":"Indiana","lat":41.21511,"lng":-84.85321,"zip":"46743","miles_from_dt":6.65},{"city":"Woodburn","state_name":"Indiana","lat":41.12749,"lng":-84.86046,"zip":"46797","miles_from_dt":8.01},{"city":"Payne","state_name":"Ohio","lat":41.0662,"lng":-84.73782,"zip":"45880","miles_from_dt":8.49},{"city":"Hicksville","state_name":"Ohio","lat":41.31339,"lng":-84.73024,"zip":"43526","miles_from_dt":8.57},{"city":"Cecil","state_name":"Ohio","lat":41.22643,"lng":-84.56208,"zip":"45821","miles_from_dt":9.14},{"city":"Paulding","state_name":"Ohio","lat":41.12918,"lng":-84.56471,"zip":"45879","miles_from_dt":9.58},{"city":"Mark Center","state_name":"Ohio","lat":41.31345,"lng":-84.634,"zip":"43536","miles_from_dt":9.94},{"city":"Latty","state_name":"Ohio","lat":41.08819,"lng":-84.5835,"zip":"45855","miles_from_dt":10.35},{"city":"Spencerville","state_name":"Indiana","lat":41.27005,"lng":-84.90876,"zip":"46788","miles_from_dt":10.84},{"city":"Sherwood","state_name":"Ohio","lat":41.30575,"lng":-84.56984,"zip":"43556","miles_from_dt":11.6},{"city":"Grabill","state_name":"Indiana","lat":41.21161,"lng":-84.95176,"zip":"46741","miles_from_dt":11.65},{"city":"Saint Joe","state_name":"Indiana","lat":41.31974,"lng":-84.88506,"zip":"46785","miles_from_dt":12.09},{"city":"Haviland","state_name":"Ohio","lat":41.03267,"lng":-84.60289,"zip":"45851","miles_from_dt":12.68},{"city":"Farmer","state_name":"Ohio","lat":41.38008,"lng":-84.63565,"zip":"43520","miles_from_dt":14.07},{"city":"New Haven","state_name":"Indiana","lat":41.09103,"lng":-84.96955,"zip":"46774","miles_from_dt":14.2},{"city":"Scott","state_name":"Ohio","lat":40.99083,"lng":-84.61062,"zip":"45886","miles_from_dt":15.04},{"city":"Monroeville","state_name":"Indiana","lat":40.98401,"lng":-84.8759,"zip":"46773","miles_from_dt":16.07},{"city":"Fort Wayne","state_name":"Indiana","lat":41.13586,"lng":-85.03368,"zip":"46885","miles_from_dt":16.24},{"city":"Leo","state_name":"Indiana","lat":41.23361,"lng":-85.04047,"zip":"46765","miles_from_dt":16.45},{"city":"Fort Wayne","state_name":"Indiana","lat":41.15086,"lng":-85.04536,"zip":"46835","miles_from_dt":16.64},{"city":"Ney","state_name":"Ohio","lat":41.37519,"lng":-84.51818,"zip":"43549","miles_from_dt":16.93},{"city":"Edgerton","state_name":"Ohio","lat":41.44003,"lng":-84.72833,"zip":"43517","miles_from_dt":17.31},{"city":"Melrose","state_name":"Ohio","lat":41.08587,"lng":-84.42569,"zip":"45861","miles_from_dt":17.42},{"city":"Butler","state_name":"Indiana","lat":41.4237,"lng":-84.87425,"zip":"46721","miles_from_dt":17.84},{"city":"Convoy","state_name":"Ohio","lat":40.92779,"lng":-84.7336,"zip":"45832","miles_from_dt":18.04},{"city":"Oakwood","state_name":"Ohio","lat":41.11935,"lng":-84.39628,"zip":"45873","miles_from_dt":18.08},{"city":"Fort Wayne","state_name":"Indiana","lat":41.149,"lng":-85.07375,"zip":"46854","miles_from_dt":18.12},{"city":"Fort Wayne","state_name":"Indiana","lat":41.1034,"lng":-85.05913,"zip":"46815","miles_from_dt":18.14},{"city":"Grover Hill","state_name":"Ohio","lat":41.01241,"lng":-84.45452,"zip":"45849","miles_from_dt":18.87},{"city":"Auburn","state_name":"Indiana","lat":41.34242,"lng":-85.03922,"zip":"46706","miles_from_dt":19.25},{"city":"Fort Wayne","state_name":"Indiana","lat":41.2051,"lng":-85.10789,"zip":"46845","miles_from_dt":19.71},{"city":"Fort Wayne","state_name":"Indiana","lat":41.06972,"lng":-85.08532,"zip":"46803","miles_from_dt":20.27},{"city":"Fort Wayne","state_name":"Indiana","lat":41.00396,"lng":-85.04169,"zip":"46816","miles_from_dt":20.68},{"city":"Fort Wayne","state_name":"Indiana","lat":41.15397,"lng":-85.12425,"zip":"46825","miles_from_dt":20.68},{"city":"Defiance","state_name":"Ohio","lat":41.30309,"lng":-84.35874,"zip":"43512","miles_from_dt":20.89},{"city":"Fort Wayne","state_name":"Indiana","lat":41.1048,"lng":-85.11692,"zip":"46895","miles_from_dt":20.99},{"city":"Fort Wayne","state_name":"Indiana","lat":41.09918,"lng":-85.11762,"zip":"46805","miles_from_dt":21.14},{"city":"Bryan","state_name":"Ohio","lat":41.46739,"lng":-84.55704,"zip":"43506","miles_from_dt":21.21},{"city":"Fort Wayne","state_name":"Indiana","lat":41.04649,"lng":-85.09224,"zip":"46806","miles_from_dt":21.3},{"city":"Fort Wayne","state_name":"Indiana","lat":41.00772,"lng":-85.06932,"zip":"46896","miles_from_dt":21.68},{"city":"Hoagland","state_name":"Indiana","lat":40.95194,"lng":-85.00887,"zip":"46745","miles_from_dt":21.9},{"city":"Garrett","state_name":"Indiana","lat":41.32189,"lng":-85.13731,"zip":"46738","miles_from_dt":23.09},{"city":"Van Wert","state_name":"Ohio","lat":40.8748,"lng":-84.57785,"zip":"45891","miles_from_dt":23.11},{"city":"Huntertown","state_name":"Indiana","lat":41.24829,"lng":-85.16727,"zip":"46748","miles_from_dt":23.13},{"city":"Blakeslee","state_name":"Ohio","lat":41.52429,"lng":-84.73101,"zip":"43505","miles_from_dt":23.13},{"city":"Evansport","state_name":"Ohio","lat":41.42092,"lng":-84.40854,"zip":"43519","miles_from_dt":23.16},{"city":"Fort Wayne","state_name":"Indiana","lat":41.04489,"lng":-85.14763,"zip":"46807","miles_from_dt":23.95},{"city":"Fort Wayne","state_name":"Indiana","lat":41.06922,"lng":-85.16147,"zip":"46897","miles_from_dt":23.97},{"city":"Fort Wayne","state_name":"Indiana","lat":41.07114,"lng":-85.16254,"zip":"46860","miles_from_dt":23.98},{"city":"Fort Wayne","state_name":"Indiana","lat":41.07095,"lng":-85.16382,"zip":"46866","miles_from_dt":24.04},{"city":"Waterloo","state_name":"Indiana","lat":41.46106,"lng":-85.01928,"zip":"46793","miles_from_dt":24.04},{"city":"Fort Wayne","state_name":"Indiana","lat":41.06925,"lng":-85.16335,"zip":"46861","miles_from_dt":24.06},{"city":"Fort Wayne","state_name":"Indiana","lat":41.06787,"lng":-85.16299,"zip":"46802","miles_from_dt":24.08},{"city":"Fort Wayne","state_name":"Indiana","lat":41.09887,"lng":-85.17619,"zip":"46808","miles_from_dt":24.08},{"city":"Fort Wayne","state_name":"Indiana","lat":41.07089,"lng":-85.16484,"zip":"46859","miles_from_dt":24.1},{"city":"Fort Wayne","state_name":"Indiana","lat":41.07291,"lng":-85.16652,"zip":"46857","miles_from_dt":24.13},{"city":"Fort Wayne","state_name":"Indiana","lat":41.06907,"lng":-85.16586,"zip":"46867","miles_from_dt":24.19},{"city":"Fort Wayne","state_name":"Indiana","lat":41.06987,"lng":-85.16665,"zip":"46868","miles_from_dt":24.21},{"city":"Fort Wayne","state_name":"Indiana","lat":41.0674,"lng":-85.16558,"zip":"46853","miles_from_dt":24.22},{"city":"Fort Wayne","state_name":"Indiana","lat":41.06772,"lng":-85.16591,"zip":"46851","miles_from_dt":24.22},{"city":"Fort Wayne","state_name":"Indiana","lat":41.06602,"lng":-85.16517,"zip":"46856","miles_from_dt":24.23},{"city":"Dupont","state_name":"Ohio","lat":41.05621,"lng":-84.30029,"zip":"45837","miles_from_dt":24.24},{"city":"Fort Wayne","state_name":"Indiana","lat":41.068,"lng":-85.16637,"zip":"46858","miles_from_dt":24.24},{"city":"Fort Wayne","state_name":"Indiana","lat":41.06924,"lng":-85.16703,"zip":"46863","miles_from_dt":24.24},{"city":"Fort Wayne","state_name":"Indiana","lat":41.06769,"lng":-85.16637,"zip":"46864","miles_from_dt":24.25},{"city":"Fort Wayne","state_name":"Indiana","lat":41.06853,"lng":-85.1674,"zip":"46855","miles_from_dt":24.28},{"city":"Fort Wayne","state_name":"Indiana","lat":41.06897,"lng":-85.16786,"zip":"46862","miles_from_dt":24.29},{"city":"Fort Wayne","state_name":"Indiana","lat":41.06789,"lng":-85.16768,"zip":"46801","miles_from_dt":24.31},{"city":"Fort Wayne","state_name":"Indiana","lat":41.06561,"lng":-85.16653,"zip":"46865","miles_from_dt":24.31},{"city":"Fort Wayne","state_name":"Indiana","lat":41.06924,"lng":-85.16896,"zip":"46852","miles_from_dt":24.34},{"city":"Fort Wayne","state_name":"Indiana","lat":41.06848,"lng":-85.16935,"zip":"46869","miles_from_dt":24.37},{"city":"Middle Point","state_name":"Ohio","lat":40.9041,"lng":-84.45477,"zip":"45863","miles_from_dt":24.37},{"city":"Fort Wayne","state_name":"Indiana","lat":41.06646,"lng":-85.1688,"zip":"46850","miles_from_dt":24.4},{"city":"Jewell","state_name":"Ohio","lat":41.32794,"lng":-84.28933,"zip":"43530","miles_from_dt":24.88},{"city":"Continental","state_name":"Ohio","lat":41.11141,"lng":-84.24993,"zip":"45831","miles_from_dt":25.62},{"city":"Cloverdale","state_name":"Ohio","lat":41.00393,"lng":-84.30122,"zip":"45827","miles_from_dt":25.79},{"city":"Hamilton","state_name":"Indiana","lat":41.54919,"lng":-84.87892,"zip":"46742","miles_from_dt":26.02},{"city":"Fort Wayne","state_name":"Indiana","lat":40.96409,"lng":-85.13256,"zip":"46819","miles_from_dt":26.12},{"city":"Stryker","state_name":"Ohio","lat":41.48354,"lng":-84.39693,"zip":"43557","miles_from_dt":26.71},{"city":"Wren","state_name":"Ohio","lat":40.80088,"lng":-84.77491,"zip":"45899","miles_from_dt":26.89},{"city":"Ottoville","state_name":"Ohio","lat":40.93414,"lng":-84.33835,"zip":"45876","miles_from_dt":27},{"city":"Decatur","state_name":"Indiana","lat":40.83033,"lng":-84.94023,"zip":"46733","miles_from_dt":27.08},{"city":"Fort Wayne","state_name":"Indiana","lat":41.14698,"lng":-85.25111,"zip":"46818","miles_from_dt":27.31},{"city":"Laotto","state_name":"Indiana","lat":41.29418,"lng":-85.2415,"zip":"46763","miles_from_dt":27.6},{"city":"Edon","state_name":"Ohio","lat":41.58977,"lng":-84.75385,"zip":"43518","miles_from_dt":27.67},{"city":"Ohio City","state_name":"Ohio","lat":40.78765,"lng":-84.67777,"zip":"45874","miles_from_dt":27.84},{"city":"Fort Wayne","state_name":"Indiana","lat":41.05421,"lng":-85.23913,"zip":"46804","miles_from_dt":28.14},{"city":"Fort Wayne","state_name":"Indiana","lat":41.00088,"lng":-85.2102,"zip":"46809","miles_from_dt":28.22},{"city":"Ashley","state_name":"Indiana","lat":41.51816,"lng":-85.06029,"zip":"46705","miles_from_dt":28.46},{"city":"Preble","state_name":"Indiana","lat":40.83371,"lng":-85.01418,"zip":"46782","miles_from_dt":28.67},{"city":"Corunna","state_name":"Indiana","lat":41.454,"lng":-85.15504,"zip":"46730","miles_from_dt":28.68},{"city":"New Bavaria","state_name":"Ohio","lat":41.18867,"lng":-84.17296,"zip":"43548","miles_from_dt":29.05},{"city":"Montpelier","state_name":"Ohio","lat":41.60575,"lng":-84.6338,"zip":"43543","miles_from_dt":29.18},{"city":"Pleasant Mills","state_name":"Indiana","lat":40.77402,"lng":-84.84163,"zip":"46780","miles_from_dt":29.23},{"city":"Avilla","state_name":"Indiana","lat":41.35167,"lng":-85.25168,"zip":"46710","miles_from_dt":29.37},{"city":"Fort Wayne","state_name":"Indiana","lat":40.99862,"lng":-85.23438,"zip":"46899","miles_from_dt":29.42},{"city":"Fort Jennings","state_name":"Ohio","lat":40.91733,"lng":-84.2856,"zip":"45844","miles_from_dt":29.86},{"city":"Arcola","state_name":"Indiana","lat":41.10371,"lng":-85.29242,"zip":"46704","miles_from_dt":29.91},{"city":"Fort Wayne","state_name":"Indiana","lat":41.19754,"lng":-85.3053,"zip":"46898","miles_from_dt":29.98}],"targetCityZipCode":"45813","targetCityState":"Ohio"},"__N_SSG":true}