{"pageProps":{"stateName":"Ohio","cityName":"delphos","nearbyCities":[{"city":"Fort Jennings","state_name":"Ohio","lat":40.91733,"lng":-84.2856,"zip":"45844","miles_from_dt":6.73},{"city":"Ottoville","state_name":"Ohio","lat":40.93414,"lng":-84.33835,"zip":"45876","miles_from_dt":6.94},{"city":"Middle Point","state_name":"Ohio","lat":40.9041,"lng":-84.45477,"zip":"45863","miles_from_dt":7.21},{"city":"Venedocia","state_name":"Ohio","lat":40.76252,"lng":-84.4684,"zip":"45894","miles_from_dt":7.83},{"city":"Spencerville","state_name":"Ohio","lat":40.71107,"lng":-84.36359,"zip":"45887","miles_from_dt":8.51},{"city":"Gomer","state_name":"Ohio","lat":40.8431,"lng":-84.18522,"zip":"45809","miles_from_dt":8.8},{"city":"Elgin","state_name":"Ohio","lat":40.74041,"lng":-84.47781,"zip":"45838","miles_from_dt":9.22},{"city":"Lima","state_name":"Ohio","lat":40.8072,"lng":-84.16699,"zip":"45807","miles_from_dt":9.91},{"city":"Vaughnsville","state_name":"Ohio","lat":40.88146,"lng":-84.14536,"zip":"45893","miles_from_dt":11.34},{"city":"Lima","state_name":"Ohio","lat":40.74105,"lng":-84.17446,"zip":"45802","miles_from_dt":11.34},{"city":"Cloverdale","state_name":"Ohio","lat":41.00393,"lng":-84.30122,"zip":"45827","miles_from_dt":12.02},{"city":"Van Wert","state_name":"Ohio","lat":40.8748,"lng":-84.57785,"zip":"45891","miles_from_dt":12.13},{"city":"Lima","state_name":"Ohio","lat":40.72979,"lng":-84.16242,"zip":"45805","miles_from_dt":12.3},{"city":"Kalida","state_name":"Ohio","lat":40.98625,"lng":-84.19469,"zip":"45853","miles_from_dt":13.36},{"city":"Grover Hill","state_name":"Ohio","lat":41.01241,"lng":-84.45452,"zip":"45849","miles_from_dt":13.41},{"city":"Cairo","state_name":"Ohio","lat":40.83074,"lng":-84.08473,"zip":"45820","miles_from_dt":14.04},{"city":"Mendon","state_name":"Ohio","lat":40.67079,"lng":-84.51356,"zip":"45862","miles_from_dt":14.08},{"city":"Columbus Grove","state_name":"Ohio","lat":40.90616,"lng":-84.09213,"zip":"45830","miles_from_dt":14.52},{"city":"Buckland","state_name":"Ohio","lat":40.62407,"lng":-84.26033,"zip":"45819","miles_from_dt":15.28},{"city":"Dupont","state_name":"Ohio","lat":41.05621,"lng":-84.30029,"zip":"45837","miles_from_dt":15.57},{"city":"Lima","state_name":"Ohio","lat":40.67615,"lng":-84.12651,"zip":"45806","miles_from_dt":16.11},{"city":"Lima","state_name":"Ohio","lat":40.71569,"lng":-84.06911,"zip":"45804","miles_from_dt":16.97},{"city":"Lima","state_name":"Ohio","lat":40.77476,"lng":-84.03703,"zip":"45801","miles_from_dt":17.05},{"city":"Scott","state_name":"Ohio","lat":40.99083,"lng":-84.61062,"zip":"45886","miles_from_dt":17.3},{"city":"Ohio City","state_name":"Ohio","lat":40.78765,"lng":-84.67777,"zip":"45874","miles_from_dt":17.35},{"city":"Melrose","state_name":"Ohio","lat":41.08587,"lng":-84.42569,"zip":"45861","miles_from_dt":17.79},{"city":"Saint Marys","state_name":"Ohio","lat":40.57182,"lng":-84.3871,"zip":"45885","miles_from_dt":18.19},{"city":"Haviland","state_name":"Ohio","lat":41.03267,"lng":-84.60289,"zip":"45851","miles_from_dt":18.95},{"city":"Glandorf","state_name":"Ohio","lat":41.02421,"lng":-84.07695,"zip":"45848","miles_from_dt":19.5},{"city":"Oakwood","state_name":"Ohio","lat":41.11935,"lng":-84.39628,"zip":"45873","miles_from_dt":19.81},{"city":"Continental","state_name":"Ohio","lat":41.11141,"lng":-84.24993,"zip":"45831","miles_from_dt":19.87},{"city":"Beaverdam","state_name":"Ohio","lat":40.83178,"lng":-83.9729,"zip":"45808","miles_from_dt":19.9},{"city":"Ottawa","state_name":"Ohio","lat":41.02271,"lng":-84.06118,"zip":"45875","miles_from_dt":20.05},{"city":"Rockford","state_name":"Ohio","lat":40.67823,"lng":-84.6754,"zip":"45882","miles_from_dt":20.06},{"city":"Convoy","state_name":"Ohio","lat":40.92779,"lng":-84.7336,"zip":"45832","miles_from_dt":20.97},{"city":"Wapakoneta","state_name":"Ohio","lat":40.56991,"lng":-84.15197,"zip":"45895","miles_from_dt":21.06},{"city":"Uniopolis","state_name":"Ohio","lat":40.60244,"lng":-84.08583,"zip":"45888","miles_from_dt":21.26},{"city":"Latty","state_name":"Ohio","lat":41.08819,"lng":-84.5835,"zip":"45855","miles_from_dt":21.29},{"city":"Miller City","state_name":"Ohio","lat":41.09936,"lng":-84.14077,"zip":"45864","miles_from_dt":21.39},{"city":"Lafayette","state_name":"Ohio","lat":40.7582,"lng":-83.95231,"zip":"45854","miles_from_dt":21.64},{"city":"Wren","state_name":"Ohio","lat":40.80088,"lng":-84.77491,"zip":"45899","miles_from_dt":22.26},{"city":"Willshire","state_name":"Ohio","lat":40.73617,"lng":-84.76429,"zip":"45898","miles_from_dt":22.62},{"city":"Paulding","state_name":"Ohio","lat":41.12918,"lng":-84.56471,"zip":"45879","miles_from_dt":23.18},{"city":"Pandora","state_name":"Ohio","lat":40.95393,"lng":-83.93779,"zip":"45877","miles_from_dt":23.24},{"city":"Celina","state_name":"Ohio","lat":40.55266,"lng":-84.59664,"zip":"45822","miles_from_dt":23.27},{"city":"New Knoxville","state_name":"Ohio","lat":40.4932,"lng":-84.30089,"zip":"45871","miles_from_dt":23.68},{"city":"Saint Johns","state_name":"Ohio","lat":40.54865,"lng":-84.08333,"zip":"45884","miles_from_dt":24.25},{"city":"Harrod","state_name":"Ohio","lat":40.70382,"lng":-83.91817,"zip":"45850","miles_from_dt":24.5},{"city":"Bluffton","state_name":"Ohio","lat":40.87691,"lng":-83.88279,"zip":"45817","miles_from_dt":24.79},{"city":"Payne","state_name":"Ohio","lat":41.0662,"lng":-84.73782,"zip":"45880","miles_from_dt":25.74},{"city":"Pleasant Mills","state_name":"Indiana","lat":40.77402,"lng":-84.84163,"zip":"46780","miles_from_dt":25.97},{"city":"Montezuma","state_name":"Ohio","lat":40.48905,"lng":-84.54969,"zip":"45866","miles_from_dt":25.97},{"city":"New Bremen","state_name":"Ohio","lat":40.4573,"lng":-84.39432,"zip":"45869","miles_from_dt":26.1},{"city":"New Bavaria","state_name":"Ohio","lat":41.18867,"lng":-84.17296,"zip":"43548","miles_from_dt":26.2},{"city":"Leipsic","state_name":"Ohio","lat":41.11452,"lng":-83.99917,"zip":"45856","miles_from_dt":26.76},{"city":"Waynesfield","state_name":"Ohio","lat":40.60667,"lng":-83.93775,"zip":"45896","miles_from_dt":26.85},{"city":"Botkins","state_name":"Ohio","lat":40.45856,"lng":-84.18575,"zip":"45306","miles_from_dt":27.36},{"city":"Kettlersville","state_name":"Ohio","lat":40.44256,"lng":-84.25988,"zip":"45336","miles_from_dt":27.46},{"city":"Mount Cory","state_name":"Ohio","lat":40.96986,"lng":-83.84839,"zip":"45868","miles_from_dt":28.01},{"city":"Chickasaw","state_name":"Ohio","lat":40.43658,"lng":-84.49368,"zip":"45826","miles_from_dt":28.42},{"city":"New Hampshire","state_name":"Ohio","lat":40.55621,"lng":-83.95142,"zip":"45870","miles_from_dt":28.49},{"city":"Ada","state_name":"Ohio","lat":40.77721,"lng":-83.81097,"zip":"45810","miles_from_dt":28.67},{"city":"Cecil","state_name":"Ohio","lat":41.22643,"lng":-84.56208,"zip":"45821","miles_from_dt":29.2},{"city":"Monroeville","state_name":"Indiana","lat":40.98401,"lng":-84.8759,"zip":"46773","miles_from_dt":29.28},{"city":"Coldwater","state_name":"Ohio","lat":40.48672,"lng":-84.67677,"zip":"45828","miles_from_dt":29.41}],"targetCityZipCode":"45833","targetCityState":"Ohio"},"__N_SSG":true}