{"pageProps":{"stateName":"Ohio","cityName":"fowler","nearbyCities":[{"city":"Hartford","state_name":"Ohio","lat":41.32201,"lng":-80.58326,"zip":"44424","miles_from_dt":1.52},{"city":"Burghill","state_name":"Ohio","lat":41.3277,"lng":-80.54861,"zip":"44404","miles_from_dt":3.25},{"city":"Orangeville","state_name":"Ohio","lat":41.33602,"lng":-80.52628,"zip":"44453","miles_from_dt":4.54},{"city":"Brookfield","state_name":"Ohio","lat":41.24053,"lng":-80.58265,"zip":"44403","miles_from_dt":4.72},{"city":"Vienna","state_name":"Ohio","lat":41.24684,"lng":-80.66326,"zip":"44473","miles_from_dt":5.15},{"city":"Masury","state_name":"Ohio","lat":41.24252,"lng":-80.5345,"zip":"44438","miles_from_dt":5.75},{"city":"Cortland","state_name":"Ohio","lat":41.34817,"lng":-80.72629,"zip":"44410","miles_from_dt":6.94},{"city":"Sharon","state_name":"Pennsylvania","lat":41.23478,"lng":-80.49932,"zip":"16146","miles_from_dt":7.41},{"city":"Sharpsville","state_name":"Pennsylvania","lat":41.28687,"lng":-80.44509,"zip":"16150","miles_from_dt":8.42},{"city":"Farrell","state_name":"Pennsylvania","lat":41.21121,"lng":-80.49696,"zip":"16121","miles_from_dt":8.66},{"city":"Kinsman","state_name":"Ohio","lat":41.43458,"lng":-80.5779,"zip":"44428","miles_from_dt":8.92},{"city":"Warren","state_name":"Ohio","lat":41.2348,"lng":-80.74962,"zip":"44484","miles_from_dt":9.04},{"city":"Farmdale","state_name":"Ohio","lat":41.43336,"lng":-80.66329,"zip":"44417","miles_from_dt":9.24},{"city":"Wheatland","state_name":"Pennsylvania","lat":41.20232,"lng":-80.49282,"zip":"16161","miles_from_dt":9.27},{"city":"Clark","state_name":"Pennsylvania","lat":41.2828,"lng":-80.42569,"zip":"16113","miles_from_dt":9.46},{"city":"Hubbard","state_name":"Ohio","lat":41.17022,"lng":-80.57395,"zip":"44425","miles_from_dt":9.57},{"city":"Transfer","state_name":"Pennsylvania","lat":41.32539,"lng":-80.42111,"zip":"16154","miles_from_dt":9.63},{"city":"Girard","state_name":"Ohio","lat":41.17384,"lng":-80.67726,"zip":"44420","miles_from_dt":9.93},{"city":"Hermitage","state_name":"Pennsylvania","lat":41.23147,"lng":-80.43199,"zip":"16148","miles_from_dt":10.39},{"city":"Niles","state_name":"Ohio","lat":41.18958,"lng":-80.74692,"zip":"44446","miles_from_dt":10.98},{"city":"Warren","state_name":"Ohio","lat":41.26537,"lng":-80.81575,"zip":"44483","miles_from_dt":11.36},{"city":"McDonald","state_name":"Ohio","lat":41.15536,"lng":-80.73,"zip":"44437","miles_from_dt":12.33},{"city":"West Middlesex","state_name":"Pennsylvania","lat":41.15967,"lng":-80.46858,"zip":"16159","miles_from_dt":12.39},{"city":"Youngstown","state_name":"Ohio","lat":41.12735,"lng":-80.61687,"zip":"44505","miles_from_dt":12.41},{"city":"Warren","state_name":"Ohio","lat":41.3006,"lng":-80.84418,"zip":"44486","miles_from_dt":12.47},{"city":"Youngstown","state_name":"Ohio","lat":41.12327,"lng":-80.65363,"zip":"44504","miles_from_dt":12.93},{"city":"Youngstown","state_name":"Ohio","lat":41.12246,"lng":-80.67424,"zip":"44510","miles_from_dt":13.24},{"city":"Warren","state_name":"Ohio","lat":41.24032,"lng":-80.848,"zip":"44485","miles_from_dt":13.48},{"city":"Greenville","state_name":"Pennsylvania","lat":41.40565,"lng":-80.37135,"zip":"16125","miles_from_dt":13.91},{"city":"Warren","state_name":"Ohio","lat":41.19425,"lng":-80.82747,"zip":"44482","miles_from_dt":13.97},{"city":"Youngstown","state_name":"Ohio","lat":41.10726,"lng":-80.64875,"zip":"44555","miles_from_dt":13.97},{"city":"Bristolville","state_name":"Ohio","lat":41.38893,"lng":-80.85513,"zip":"44402","miles_from_dt":14.2},{"city":"Mineral Ridge","state_name":"Ohio","lat":41.1482,"lng":-80.78439,"zip":"44440","miles_from_dt":14.41},{"city":"Youngstown","state_name":"Ohio","lat":41.10986,"lng":-80.69655,"zip":"44509","miles_from_dt":14.42},{"city":"Youngstown","state_name":"Ohio","lat":41.09918,"lng":-80.64912,"zip":"44503","miles_from_dt":14.52},{"city":"Warren","state_name":"Ohio","lat":41.22736,"lng":-80.86344,"zip":"44481","miles_from_dt":14.55},{"city":"Youngstown","state_name":"Ohio","lat":41.09739,"lng":-80.6617,"zip":"44501","miles_from_dt":14.76},{"city":"Youngstown","state_name":"Ohio","lat":41.09356,"lng":-80.62583,"zip":"44506","miles_from_dt":14.76},{"city":"North Bloomfield","state_name":"Ohio","lat":41.45397,"lng":-80.82576,"zip":"44450","miles_from_dt":15.33},{"city":"Jamestown","state_name":"Pennsylvania","lat":41.50315,"lng":-80.46571,"zip":"16134","miles_from_dt":15.35},{"city":"New Bedford","state_name":"Pennsylvania","lat":41.09355,"lng":-80.51078,"zip":"16140","miles_from_dt":15.52},{"city":"Youngstown","state_name":"Ohio","lat":41.08365,"lng":-80.64253,"zip":"44502","miles_from_dt":15.53},{"city":"Williamsfield","state_name":"Ohio","lat":41.53478,"lng":-80.61637,"zip":"44093","miles_from_dt":15.74},{"city":"Campbell","state_name":"Ohio","lat":41.07787,"lng":-80.59136,"zip":"44405","miles_from_dt":15.82},{"city":"Pulaski","state_name":"Pennsylvania","lat":41.10528,"lng":-80.45434,"zip":"16143","miles_from_dt":15.97},{"city":"Youngstown","state_name":"Ohio","lat":41.07436,"lng":-80.65542,"zip":"44507","miles_from_dt":16.27},{"city":"Youngstown","state_name":"Ohio","lat":41.1029,"lng":-80.76201,"zip":"44515","miles_from_dt":16.29},{"city":"Leavittsburg","state_name":"Ohio","lat":41.24011,"lng":-80.90804,"zip":"44430","miles_from_dt":16.45},{"city":"Youngstown","state_name":"Ohio","lat":41.06927,"lng":-80.69617,"zip":"44511","miles_from_dt":17.08},{"city":"Villa Maria","state_name":"Pennsylvania","lat":41.06771,"lng":-80.51073,"zip":"16155","miles_from_dt":17.22},{"city":"Adamsville","state_name":"Pennsylvania","lat":41.49757,"lng":-80.38591,"zip":"16110","miles_from_dt":17.39},{"city":"Lowellville","state_name":"Ohio","lat":41.05775,"lng":-80.54241,"zip":"44436","miles_from_dt":17.5},{"city":"Fredonia","state_name":"Pennsylvania","lat":41.33336,"lng":-80.26486,"zip":"16124","miles_from_dt":17.77},{"city":"Struthers","state_name":"Ohio","lat":41.04793,"lng":-80.58973,"zip":"44471","miles_from_dt":17.89},{"city":"New Wilmington","state_name":"Pennsylvania","lat":41.13908,"lng":-80.34084,"zip":"16142","miles_from_dt":17.97},{"city":"Southington","state_name":"Ohio","lat":41.29783,"lng":-80.95999,"zip":"44470","miles_from_dt":18.5},{"city":"Orwell","state_name":"Ohio","lat":41.52728,"lng":-80.81867,"zip":"44076","miles_from_dt":18.84},{"city":"West Farmington","state_name":"Ohio","lat":41.37368,"lng":-80.96478,"zip":"44491","miles_from_dt":19.29},{"city":"New Wilmington","state_name":"Pennsylvania","lat":41.1177,"lng":-80.33105,"zip":"16172","miles_from_dt":19.33},{"city":"Mercer","state_name":"Pennsylvania","lat":41.23219,"lng":-80.2397,"zip":"16137","miles_from_dt":19.69},{"city":"Youngstown","state_name":"Ohio","lat":41.0249,"lng":-80.66757,"zip":"44512","miles_from_dt":19.74},{"city":"Youngstown","state_name":"Ohio","lat":41.02467,"lng":-80.67596,"zip":"44513","miles_from_dt":19.83},{"city":"Edinburg","state_name":"Pennsylvania","lat":41.03744,"lng":-80.45212,"zip":"16116","miles_from_dt":20.23},{"city":"Hartstown","state_name":"Pennsylvania","lat":41.54908,"lng":-80.37617,"zip":"16131","miles_from_dt":20.5},{"city":"North Jackson","state_name":"Ohio","lat":41.08104,"lng":-80.86887,"zip":"44451","miles_from_dt":20.8},{"city":"Mesopotamia","state_name":"Ohio","lat":41.45436,"lng":-80.95552,"zip":"44439","miles_from_dt":20.88},{"city":"Youngstown","state_name":"Ohio","lat":40.99838,"lng":-80.60868,"zip":"44514","miles_from_dt":21.29},{"city":"Newton Falls","state_name":"Ohio","lat":41.17559,"lng":-80.97647,"zip":"44444","miles_from_dt":21.38},{"city":"Hillsville","state_name":"Pennsylvania","lat":41.00603,"lng":-80.50449,"zip":"16132","miles_from_dt":21.41},{"city":"Andover","state_name":"Ohio","lat":41.6202,"lng":-80.58361,"zip":"44003","miles_from_dt":21.65},{"city":"Atlantic","state_name":"Pennsylvania","lat":41.51936,"lng":-80.28463,"zip":"16111","miles_from_dt":22.17},{"city":"Canfield","state_name":"Ohio","lat":41.01132,"lng":-80.77194,"zip":"44406","miles_from_dt":22.19},{"city":"Hadley","state_name":"Pennsylvania","lat":41.44315,"lng":-80.21668,"zip":"16130","miles_from_dt":22.25},{"city":"New Castle","state_name":"Pennsylvania","lat":41.05285,"lng":-80.33918,"zip":"16105","miles_from_dt":22.34},{"city":"Clarks Mills","state_name":"Pennsylvania","lat":41.40432,"lng":-80.18766,"zip":"16114","miles_from_dt":22.7},{"city":"Sheakleyville","state_name":"Pennsylvania","lat":41.4428,"lng":-80.2056,"zip":"16151","miles_from_dt":22.76},{"city":"Ellsworth","state_name":"Ohio","lat":41.02529,"lng":-80.85869,"zip":"44416","miles_from_dt":23.52},{"city":"New Middletown","state_name":"Ohio","lat":40.96591,"lng":-80.54963,"zip":"44442","miles_from_dt":23.71},{"city":"Bessemer","state_name":"Pennsylvania","lat":40.96812,"lng":-80.50099,"zip":"16112","miles_from_dt":24},{"city":"Parkman","state_name":"Ohio","lat":41.36886,"lng":-81.05966,"zip":"44080","miles_from_dt":24.05},{"city":"Garrettsville","state_name":"Ohio","lat":41.30692,"lng":-81.07197,"zip":"44231","miles_from_dt":24.32},{"city":"Middlefield","state_name":"Ohio","lat":41.45899,"lng":-81.02698,"zip":"44062","miles_from_dt":24.33},{"city":"Lake Milton","state_name":"Ohio","lat":41.09648,"lng":-80.98156,"zip":"44429","miles_from_dt":24.43},{"city":"Volant","state_name":"Pennsylvania","lat":41.09702,"lng":-80.21943,"zip":"16156","miles_from_dt":24.76},{"city":"Rome","state_name":"Ohio","lat":41.60463,"lng":-80.87128,"zip":"44085","miles_from_dt":24.77},{"city":"Dorset","state_name":"Ohio","lat":41.6658,"lng":-80.66954,"zip":"44032","miles_from_dt":24.99},{"city":"New Castle","state_name":"Pennsylvania","lat":40.99992,"lng":-80.35011,"zip":"16107","miles_from_dt":25},{"city":"North Lima","state_name":"Ohio","lat":40.94711,"lng":-80.66232,"zip":"44452","miles_from_dt":25.01},{"city":"New Castle","state_name":"Pennsylvania","lat":40.99983,"lng":-80.35011,"zip":"16103","miles_from_dt":25.01},{"city":"Windham","state_name":"Ohio","lat":41.2392,"lng":-81.08354,"zip":"44288","miles_from_dt":25.37},{"city":"Windsor","state_name":"Ohio","lat":41.55125,"lng":-80.97446,"zip":"44099","miles_from_dt":25.56},{"city":"Jackson Center","state_name":"Pennsylvania","lat":41.27101,"lng":-80.11562,"zip":"16133","miles_from_dt":25.57},{"city":"Linesville","state_name":"Pennsylvania","lat":41.65887,"lng":-80.44175,"zip":"16424","miles_from_dt":25.72},{"city":"Conneaut Lake","state_name":"Pennsylvania","lat":41.6012,"lng":-80.29958,"zip":"16316","miles_from_dt":25.75},{"city":"New Castle","state_name":"Pennsylvania","lat":40.96173,"lng":-80.41616,"zip":"16102","miles_from_dt":25.77},{"city":"Wayland","state_name":"Ohio","lat":41.16241,"lng":-81.06595,"zip":"44285","miles_from_dt":26.02},{"city":"Diamond","state_name":"Ohio","lat":41.09671,"lng":-81.0229,"zip":"44412","miles_from_dt":26.18},{"city":"Berlin Center","state_name":"Ohio","lat":41.02457,"lng":-80.94658,"zip":"44401","miles_from_dt":26.41},{"city":"New Springfield","state_name":"Ohio","lat":40.92351,"lng":-80.59473,"zip":"44443","miles_from_dt":26.46},{"city":"Greenford","state_name":"Ohio","lat":40.94502,"lng":-80.79206,"zip":"44422","miles_from_dt":26.82},{"city":"Petersburg","state_name":"Ohio","lat":40.9197,"lng":-80.53976,"zip":"44454","miles_from_dt":26.93},{"city":"Stoneboro","state_name":"Pennsylvania","lat":41.31845,"lng":-80.08122,"zip":"16153","miles_from_dt":27.25},{"city":"Curllsville","state_name":"Pennsylvania","lat":40.98826,"lng":-80.29541,"zip":"16221","miles_from_dt":27.27},{"city":"New Castle","state_name":"Pennsylvania","lat":40.98826,"lng":-80.29541,"zip":"16108","miles_from_dt":27.27},{"city":"New Castle","state_name":"Pennsylvania","lat":40.98776,"lng":-80.28814,"zip":"16101","miles_from_dt":27.53},{"city":"Sandy Lake","state_name":"Pennsylvania","lat":41.38574,"lng":-80.07422,"zip":"16145","miles_from_dt":28.12},{"city":"Hiram","state_name":"Ohio","lat":41.33454,"lng":-81.15822,"zip":"44234","miles_from_dt":28.86},{"city":"Harmonsburg","state_name":"Pennsylvania","lat":41.66555,"lng":-80.31447,"zip":"16422","miles_from_dt":28.97},{"city":"West Pittsburg","state_name":"Pennsylvania","lat":40.9283,"lng":-80.36235,"zip":"16160","miles_from_dt":29.03},{"city":"Huntsburg","state_name":"Ohio","lat":41.54157,"lng":-81.07227,"zip":"44046","miles_from_dt":29.19},{"city":"Jefferson","state_name":"Ohio","lat":41.71887,"lng":-80.73921,"zip":"44047","miles_from_dt":29.27},{"city":"Grove City","state_name":"Pennsylvania","lat":41.17433,"lng":-80.07002,"zip":"16127","miles_from_dt":29.31},{"city":"Washingtonville","state_name":"Ohio","lat":40.90041,"lng":-80.76801,"zip":"44490","miles_from_dt":29.32},{"city":"Rock Creek","state_name":"Ohio","lat":41.67242,"lng":-80.89605,"zip":"44084","miles_from_dt":29.41},{"city":"Columbiana","state_name":"Ohio","lat":40.88487,"lng":-80.68569,"zip":"44408","miles_from_dt":29.43},{"city":"Enon Valley","state_name":"Pennsylvania","lat":40.892,"lng":-80.47344,"zip":"16120","miles_from_dt":29.44},{"city":"Burton","state_name":"Ohio","lat":41.44141,"lng":-81.14579,"zip":"44021","miles_from_dt":29.62},{"city":"Deerfield","state_name":"Ohio","lat":41.0326,"lng":-81.05092,"zip":"44411","miles_from_dt":30}],"targetCityZipCode":"44418","targetCityState":"Ohio"},"__N_SSG":true}