{"pageProps":{"stateName":"Ohio","cityName":"friendship","nearbyCities":[{"city":"West Portsmouth","state_name":"Ohio","lat":38.74507,"lng":-83.11198,"zip":"45663","miles_from_dt":3.44},{"city":"South Portsmouth","state_name":"Kentucky","lat":38.69841,"lng":-83.0139,"zip":"41174","miles_from_dt":4.26},{"city":"Quincy","state_name":"Kentucky","lat":38.63464,"lng":-83.09328,"zip":"41166","miles_from_dt":4.34},{"city":"South Shore","state_name":"Kentucky","lat":38.64574,"lng":-82.97791,"zip":"41175","miles_from_dt":7.17},{"city":"McDermott","state_name":"Ohio","lat":38.82911,"lng":-83.08018,"zip":"45652","miles_from_dt":9.1},{"city":"Stout","state_name":"Ohio","lat":38.67546,"lng":-83.27789,"zip":"45684","miles_from_dt":10.13},{"city":"Garrison","state_name":"Kentucky","lat":38.54381,"lng":-83.13357,"zip":"41141","miles_from_dt":10.83},{"city":"Portsmouth","state_name":"Ohio","lat":38.78938,"lng":-82.92114,"zip":"45662","miles_from_dt":11.23},{"city":"Otway","state_name":"Ohio","lat":38.85166,"lng":-83.21011,"zip":"45657","miles_from_dt":12.37},{"city":"Blue Creek","state_name":"Ohio","lat":38.76018,"lng":-83.30864,"zip":"45616","miles_from_dt":12.44},{"city":"Lucasville","state_name":"Ohio","lat":38.87414,"lng":-82.97045,"zip":"45699","miles_from_dt":13.85},{"city":"Greenup","state_name":"Kentucky","lat":38.53461,"lng":-82.91208,"zip":"41144","miles_from_dt":14.9},{"city":"Franklin Furnace","state_name":"Ohio","lat":38.65221,"lng":-82.81051,"zip":"45629","miles_from_dt":15.58},{"city":"Lucasville","state_name":"Ohio","lat":38.92161,"lng":-83.01393,"zip":"45648","miles_from_dt":16.03},{"city":"Haverhill","state_name":"Ohio","lat":38.58416,"lng":-82.81401,"zip":"45636","miles_from_dt":16.99},{"city":"Wheelersburg","state_name":"Ohio","lat":38.74807,"lng":-82.78345,"zip":"45694","miles_from_dt":17.07},{"city":"Lynx","state_name":"Ohio","lat":38.74415,"lng":-83.42099,"zip":"45650","miles_from_dt":18.03},{"city":"Carter","state_name":"Kentucky","lat":38.4274,"lng":-83.11977,"zip":"41128","miles_from_dt":18.69},{"city":"Wakefield","state_name":"Ohio","lat":38.96828,"lng":-83.02155,"zip":"45687","miles_from_dt":19.06},{"city":"Scioto Furnace","state_name":"Ohio","lat":38.79555,"lng":-82.75511,"zip":"45677","miles_from_dt":19.45},{"city":"Minford","state_name":"Ohio","lat":38.88976,"lng":-82.82306,"zip":"45653","miles_from_dt":19.69},{"city":"Vanceburg","state_name":"Kentucky","lat":38.52483,"lng":-83.38988,"zip":"41179","miles_from_dt":20.01},{"city":"Rarden","state_name":"Ohio","lat":38.97339,"lng":-83.23775,"zip":"45671","miles_from_dt":20.57},{"city":"Stockdale","state_name":"Ohio","lat":38.95295,"lng":-82.86252,"zip":"45683","miles_from_dt":21.56},{"city":"Worthington","state_name":"Kentucky","lat":38.55,"lng":-82.73707,"zip":"41183","miles_from_dt":21.77},{"city":"Argillite","state_name":"Kentucky","lat":38.44911,"lng":-82.83032,"zip":"41121","miles_from_dt":22.26},{"city":"South Webster","state_name":"Ohio","lat":38.80839,"lng":-82.69658,"zip":"45682","miles_from_dt":22.72},{"city":"Flatwoods","state_name":"Kentucky","lat":38.50927,"lng":-82.73288,"zip":"41139","miles_from_dt":23.41},{"city":"Piketon","state_name":"Ohio","lat":39.04096,"lng":-83.10479,"zip":"45661","miles_from_dt":23.7},{"city":"Russell","state_name":"Kentucky","lat":38.52232,"lng":-82.71316,"zip":"41169","miles_from_dt":23.84},{"city":"Jasper","state_name":"Ohio","lat":39.04692,"lng":-83.05408,"zip":"45642","miles_from_dt":24.19},{"city":"Ironton","state_name":"Ohio","lat":38.56217,"lng":-82.67607,"zip":"45638","miles_from_dt":24.4},{"city":"Peebles","state_name":"Ohio","lat":38.98626,"lng":-83.358,"zip":"45660","miles_from_dt":24.52},{"city":"West Union","state_name":"Ohio","lat":38.80921,"lng":-83.53406,"zip":"45693","miles_from_dt":25.05},{"city":"Pedro","state_name":"Ohio","lat":38.67117,"lng":-82.62331,"zip":"45659","miles_from_dt":25.45},{"city":"Grayson","state_name":"Kentucky","lat":38.33916,"lng":-82.97704,"zip":"41143","miles_from_dt":25.51},{"city":"Emerson","state_name":"Kentucky","lat":38.36026,"lng":-83.28796,"zip":"41135","miles_from_dt":25.56},{"city":"Beaver","state_name":"Ohio","lat":39.0318,"lng":-82.84885,"zip":"45613","miles_from_dt":26.54},{"city":"Tollesboro","state_name":"Kentucky","lat":38.54493,"lng":-83.56175,"zip":"41189","miles_from_dt":27.48},{"city":"Ashland","state_name":"Kentucky","lat":38.42045,"lng":-82.72425,"zip":"41102","miles_from_dt":27.64},{"city":"Manchester","state_name":"Ohio","lat":38.70534,"lng":-83.6142,"zip":"45144","miles_from_dt":28.19},{"city":"Bentonville","state_name":"Ohio","lat":38.75015,"lng":-83.61235,"zip":"45105","miles_from_dt":28.31},{"city":"Olive Hill","state_name":"Kentucky","lat":38.28914,"lng":-83.16231,"zip":"41164","miles_from_dt":28.42},{"city":"Ashland","state_name":"Kentucky","lat":38.47392,"lng":-82.65045,"zip":"41101","miles_from_dt":28.49},{"city":"Latham","state_name":"Ohio","lat":39.07686,"lng":-83.31627,"zip":"45646","miles_from_dt":28.8},{"city":"Grahn","state_name":"Kentucky","lat":38.27774,"lng":-83.07308,"zip":"41142","miles_from_dt":28.98},{"city":"Ashland","state_name":"Kentucky","lat":38.46142,"lng":-82.64765,"zip":"41114","miles_from_dt":29.09},{"city":"Ashland","state_name":"Kentucky","lat":38.43069,"lng":-82.66744,"zip":"41105","miles_from_dt":29.49},{"city":"Oak Hill","state_name":"Ohio","lat":38.87565,"lng":-82.59143,"zip":"45656","miles_from_dt":29.72}],"targetCityZipCode":"45630","targetCityState":"Ohio"},"__N_SSG":true}