{"pageProps":{"stateName":"Ohio","cityName":"hillsboro","nearbyCities":[{"city":"Sinking Spring","state_name":"Ohio","lat":39.07447,"lng":-83.38688,"zip":"45172","miles_from_dt":11.5},{"city":"Cynthiana","state_name":"Ohio","lat":39.17301,"lng":-83.3487,"zip":"45624","miles_from_dt":12.09},{"city":"Seaman","state_name":"Ohio","lat":38.97634,"lng":-83.56788,"zip":"45679","miles_from_dt":12.46},{"city":"Mowrystown","state_name":"Ohio","lat":39.04057,"lng":-83.75181,"zip":"45155","miles_from_dt":12.53},{"city":"Highland","state_name":"Ohio","lat":39.34395,"lng":-83.5996,"zip":"45132","miles_from_dt":12.98},{"city":"Lynchburg","state_name":"Ohio","lat":39.21033,"lng":-83.80553,"zip":"45142","miles_from_dt":13.03},{"city":"Leesburg","state_name":"Ohio","lat":39.35124,"lng":-83.54859,"zip":"45135","miles_from_dt":13.47},{"city":"New Vienna","state_name":"Ohio","lat":39.33389,"lng":-83.68972,"zip":"45159","miles_from_dt":13.72},{"city":"Latham","state_name":"Ohio","lat":39.07686,"lng":-83.31627,"zip":"45646","miles_from_dt":14.85},{"city":"Sardinia","state_name":"Ohio","lat":39.01414,"lng":-83.7962,"zip":"45171","miles_from_dt":15.53},{"city":"Winchester","state_name":"Ohio","lat":38.9352,"lng":-83.66525,"zip":"45697","miles_from_dt":16.08},{"city":"Martinsville","state_name":"Ohio","lat":39.3154,"lng":-83.79945,"zip":"45146","miles_from_dt":16.35},{"city":"Peebles","state_name":"Ohio","lat":38.98626,"lng":-83.358,"zip":"45660","miles_from_dt":16.49},{"city":"Greenfield","state_name":"Ohio","lat":39.3487,"lng":-83.38866,"zip":"45123","miles_from_dt":16.51},{"city":"Bainbridge","state_name":"Ohio","lat":39.21569,"lng":-83.27171,"zip":"45612","miles_from_dt":16.67},{"city":"Cherry Fork","state_name":"Ohio","lat":38.88502,"lng":-83.61623,"zip":"45618","miles_from_dt":18.9},{"city":"Midland","state_name":"Ohio","lat":39.28849,"lng":-83.88466,"zip":"45148","miles_from_dt":19.03},{"city":"Fayetteville","state_name":"Ohio","lat":39.17192,"lng":-83.93107,"zip":"45118","miles_from_dt":19.27},{"city":"Mount Orab","state_name":"Ohio","lat":39.06137,"lng":-83.91997,"zip":"45154","miles_from_dt":19.79},{"city":"South Salem","state_name":"Ohio","lat":39.30551,"lng":-83.24807,"zip":"45681","miles_from_dt":20.21},{"city":"Cuba","state_name":"Ohio","lat":39.36189,"lng":-83.86244,"zip":"45114","miles_from_dt":21},{"city":"Rarden","state_name":"Ohio","lat":38.97339,"lng":-83.23775,"zip":"45671","miles_from_dt":22.02},{"city":"Reesville","state_name":"Ohio","lat":39.4766,"lng":-83.68774,"zip":"45166","miles_from_dt":22.89},{"city":"Blanchester","state_name":"Ohio","lat":39.28888,"lng":-83.96967,"zip":"45107","miles_from_dt":23.16},{"city":"Russellville","state_name":"Ohio","lat":38.85266,"lng":-83.76783,"zip":"45168","miles_from_dt":23.47},{"city":"Bourneville","state_name":"Ohio","lat":39.27967,"lng":-83.15559,"zip":"45617","miles_from_dt":23.94},{"city":"West Union","state_name":"Ohio","lat":38.80921,"lng":-83.53406,"zip":"45693","miles_from_dt":24.08},{"city":"Sabina","state_name":"Ohio","lat":39.505,"lng":-83.65035,"zip":"45169","miles_from_dt":24.37},{"city":"Williamsburg","state_name":"Ohio","lat":39.08438,"lng":-84.02205,"zip":"45176","miles_from_dt":24.65},{"city":"Decatur","state_name":"Ohio","lat":38.80818,"lng":-83.70728,"zip":"45115","miles_from_dt":25.12},{"city":"Wilmington","state_name":"Ohio","lat":39.46123,"lng":-83.83692,"zip":"45177","miles_from_dt":25.32},{"city":"Frankfort","state_name":"Ohio","lat":39.38959,"lng":-83.19657,"zip":"45628","miles_from_dt":25.78},{"city":"Piketon","state_name":"Ohio","lat":39.04096,"lng":-83.10479,"zip":"45661","miles_from_dt":26.4},{"city":"Washington Court House","state_name":"Ohio","lat":39.52871,"lng":-83.43917,"zip":"43160","miles_from_dt":26.63},{"city":"Georgetown","state_name":"Ohio","lat":38.86769,"lng":-83.90911,"zip":"45121","miles_from_dt":26.94},{"city":"Newtonsville","state_name":"Ohio","lat":39.18229,"lng":-84.07769,"zip":"45158","miles_from_dt":27.17},{"city":"Clarksville","state_name":"Ohio","lat":39.39991,"lng":-83.98561,"zip":"45113","miles_from_dt":27.76},{"city":"Bentonville","state_name":"Ohio","lat":38.75015,"lng":-83.61235,"zip":"45105","miles_from_dt":28.14},{"city":"Pleasant Plain","state_name":"Ohio","lat":39.26913,"lng":-84.07851,"zip":"45162","miles_from_dt":28.22},{"city":"Hamersville","state_name":"Ohio","lat":38.90886,"lng":-83.99897,"zip":"45130","miles_from_dt":28.61},{"city":"Otway","state_name":"Ohio","lat":38.85166,"lng":-83.21011,"zip":"45657","miles_from_dt":28.72},{"city":"Jasper","state_name":"Ohio","lat":39.04692,"lng":-83.05408,"zip":"45642","miles_from_dt":28.9},{"city":"Ripley","state_name":"Ohio","lat":38.77234,"lng":-83.79943,"zip":"45167","miles_from_dt":29.2},{"city":"Lynx","state_name":"Ohio","lat":38.74415,"lng":-83.42099,"zip":"45650","miles_from_dt":29.63},{"city":"Port William","state_name":"Ohio","lat":39.55365,"lng":-83.78532,"zip":"45164","miles_from_dt":29.64},{"city":"Waverly","state_name":"Ohio","lat":39.13106,"lng":-83.01674,"zip":"45690","miles_from_dt":29.92},{"city":"Feesburg","state_name":"Ohio","lat":38.8781,"lng":-83.99927,"zip":"45119","miles_from_dt":29.94}],"targetCityZipCode":"45133","targetCityState":"Ohio"},"__N_SSG":true}