{"pageProps":{"stateName":"Ohio","cityName":"homer","nearbyCities":[{"city":"Utica","state_name":"Ohio","lat":40.24284,"lng":-82.43126,"zip":"43080","miles_from_dt":4.88},{"city":"Mount Vernon","state_name":"Ohio","lat":40.37188,"lng":-82.49536,"zip":"43050","miles_from_dt":8.28},{"city":"Mount Liberty","state_name":"Ohio","lat":40.35018,"lng":-82.63004,"zip":"43048","miles_from_dt":8.75},{"city":"Croton","state_name":"Ohio","lat":40.23101,"lng":-82.6895,"zip":"43013","miles_from_dt":8.97},{"city":"Centerburg","state_name":"Ohio","lat":40.30946,"lng":-82.68456,"zip":"43011","miles_from_dt":9.39},{"city":"Johnstown","state_name":"Ohio","lat":40.16292,"lng":-82.66378,"zip":"43031","miles_from_dt":9.75},{"city":"Saint Louisville","state_name":"Ohio","lat":40.18479,"lng":-82.35509,"zip":"43071","miles_from_dt":10.05},{"city":"Martinsburg","state_name":"Ohio","lat":40.28062,"lng":-82.31654,"zip":"43037","miles_from_dt":11.04},{"city":"Gambier","state_name":"Ohio","lat":40.33765,"lng":-82.34135,"zip":"43022","miles_from_dt":11.19},{"city":"Newark","state_name":"Ohio","lat":40.1168,"lng":-82.37672,"zip":"43055","miles_from_dt":12.2},{"city":"Granville","state_name":"Ohio","lat":40.07603,"lng":-82.53061,"zip":"43023","miles_from_dt":12.27},{"city":"Alexandria","state_name":"Ohio","lat":40.08794,"lng":-82.61289,"zip":"43001","miles_from_dt":12.4},{"city":"Sparta","state_name":"Ohio","lat":40.39557,"lng":-82.69977,"zip":"43350","miles_from_dt":13.54},{"city":"Bladensburg","state_name":"Ohio","lat":40.28241,"lng":-82.26728,"zip":"43005","miles_from_dt":13.63},{"city":"Newark","state_name":"Ohio","lat":40.05817,"lng":-82.45232,"zip":"43093","miles_from_dt":14},{"city":"Newark","state_name":"Ohio","lat":40.05958,"lng":-82.40378,"zip":"43058","miles_from_dt":14.8},{"city":"Howard","state_name":"Ohio","lat":40.40335,"lng":-82.29783,"zip":"43028","miles_from_dt":15.73},{"city":"Fredericktown","state_name":"Ohio","lat":40.49527,"lng":-82.57831,"zip":"43019","miles_from_dt":16.92},{"city":"Sunbury","state_name":"Ohio","lat":40.28008,"lng":-82.84899,"zip":"43074","miles_from_dt":17.35},{"city":"Chesterville","state_name":"Ohio","lat":40.47748,"lng":-82.68202,"zip":"43317","miles_from_dt":17.58},{"city":"Marengo","state_name":"Ohio","lat":40.39912,"lng":-82.79863,"zip":"43334","miles_from_dt":17.7},{"city":"New Albany","state_name":"Ohio","lat":40.07998,"lng":-82.79253,"zip":"43054","miles_from_dt":18.65},{"city":"Pataskala","state_name":"Ohio","lat":40.00556,"lng":-82.67964,"zip":"43062","miles_from_dt":19.04},{"city":"Walhonding","state_name":"Ohio","lat":40.33485,"lng":-82.17711,"zip":"43843","miles_from_dt":19.09},{"city":"Frazeysburg","state_name":"Ohio","lat":40.17409,"lng":-82.16958,"zip":"43822","miles_from_dt":19.46},{"city":"Galena","state_name":"Ohio","lat":40.20301,"lng":-82.88476,"zip":"43021","miles_from_dt":19.47},{"city":"Heath","state_name":"Ohio","lat":40.00895,"lng":-82.33057,"zip":"43056","miles_from_dt":19.71},{"city":"Hebron","state_name":"Ohio","lat":39.96653,"lng":-82.51529,"zip":"43025","miles_from_dt":19.82},{"city":"Westerville","state_name":"Ohio","lat":40.15537,"lng":-82.88437,"zip":"43082","miles_from_dt":20.31},{"city":"Danville","state_name":"Ohio","lat":40.46646,"lng":-82.25242,"zip":"43014","miles_from_dt":20.46},{"city":"Kirkersville","state_name":"Ohio","lat":39.96098,"lng":-82.59984,"zip":"43033","miles_from_dt":20.61},{"city":"Jacksontown","state_name":"Ohio","lat":39.96783,"lng":-82.40667,"zip":"43030","miles_from_dt":20.66},{"city":"Summit Station","state_name":"Ohio","lat":40.00197,"lng":-82.75103,"zip":"43073","miles_from_dt":21.17},{"city":"Fulton","state_name":"Ohio","lat":40.463,"lng":-82.82889,"zip":"43321","miles_from_dt":21.68},{"city":"Westerville","state_name":"Ohio","lat":40.11064,"lng":-82.89083,"zip":"43081","miles_from_dt":21.85},{"city":"Butler","state_name":"Ohio","lat":40.55705,"lng":-82.39929,"zip":"44822","miles_from_dt":21.91},{"city":"Blacklick","state_name":"Ohio","lat":40.01664,"lng":-82.80025,"zip":"43004","miles_from_dt":22},{"city":"Buckeye Lake","state_name":"Ohio","lat":39.93348,"lng":-82.4817,"zip":"43008","miles_from_dt":22.2},{"city":"Etna","state_name":"Ohio","lat":39.95377,"lng":-82.67613,"zip":"43018","miles_from_dt":22.24},{"city":"Westerville","state_name":"Ohio","lat":40.11745,"lng":-82.91666,"zip":"43086","miles_from_dt":22.88},{"city":"Kilbourne","state_name":"Ohio","lat":40.32836,"lng":-82.95812,"zip":"43032","miles_from_dt":23.58},{"city":"Columbus","state_name":"Ohio","lat":40.03648,"lng":-82.87057,"zip":"43230","miles_from_dt":23.76},{"city":"Nashport","state_name":"Ohio","lat":40.06116,"lng":-82.14812,"zip":"43830","miles_from_dt":23.86},{"city":"Bellville","state_name":"Ohio","lat":40.60135,"lng":-82.52814,"zip":"44813","miles_from_dt":23.99},{"city":"Brinkhaven","state_name":"Ohio","lat":40.4591,"lng":-82.14554,"zip":"43006","miles_from_dt":24.43},{"city":"Millersport","state_name":"Ohio","lat":39.89917,"lng":-82.53844,"zip":"43046","miles_from_dt":24.48},{"city":"Cardington","state_name":"Ohio","lat":40.4841,"lng":-82.87872,"zip":"43315","miles_from_dt":24.62},{"city":"Mount Gilead","state_name":"Ohio","lat":40.56207,"lng":-82.75958,"zip":"43338","miles_from_dt":24.68},{"city":"Reynoldsburg","state_name":"Ohio","lat":39.95667,"lng":-82.78468,"zip":"43068","miles_from_dt":24.76},{"city":"Columbus","state_name":"Ohio","lat":40.07843,"lng":-82.93914,"zip":"43231","miles_from_dt":25.15},{"city":"Brownsville","state_name":"Ohio","lat":39.94927,"lng":-82.26015,"zip":"43721","miles_from_dt":25.19},{"city":"Columbus","state_name":"Ohio","lat":40.14501,"lng":-82.98209,"zip":"43240","miles_from_dt":25.44},{"city":"Warsaw","state_name":"Ohio","lat":40.33349,"lng":-82.05163,"zip":"43844","miles_from_dt":25.48},{"city":"Lewis Center","state_name":"Ohio","lat":40.18622,"lng":-82.9969,"zip":"43035","miles_from_dt":25.52},{"city":"Thornville","state_name":"Ohio","lat":39.89594,"lng":-82.39497,"zip":"43076","miles_from_dt":25.6},{"city":"Ashley","state_name":"Ohio","lat":40.41017,"lng":-82.96866,"zip":"43003","miles_from_dt":25.91},{"city":"Reynoldsburg","state_name":"Ohio","lat":39.95,"lng":-82.81219,"zip":"43069","miles_from_dt":25.98},{"city":"Columbus","state_name":"Ohio","lat":39.9766,"lng":-82.85683,"zip":"43291","miles_from_dt":26.06},{"city":"Columbus","state_name":"Ohio","lat":40.00006,"lng":-82.88796,"zip":"43236","miles_from_dt":26.1},{"city":"Shauck","state_name":"Ohio","lat":40.61868,"lng":-82.66598,"zip":"43349","miles_from_dt":26.29},{"city":"Gratiot","state_name":"Ohio","lat":39.9515,"lng":-82.21706,"zip":"43740","miles_from_dt":26.4},{"city":"Columbus","state_name":"Ohio","lat":40.08569,"lng":-82.97636,"zip":"43229","miles_from_dt":26.67},{"city":"Columbus","state_name":"Ohio","lat":39.97117,"lng":-82.86746,"zip":"43213","miles_from_dt":26.72},{"city":"Columbus","state_name":"Ohio","lat":40.01765,"lng":-82.92367,"zip":"43218","miles_from_dt":26.77},{"city":"Hopewell","state_name":"Ohio","lat":39.97146,"lng":-82.17287,"zip":"43746","miles_from_dt":26.88},{"city":"Glenford","state_name":"Ohio","lat":39.90693,"lng":-82.29025,"zip":"43739","miles_from_dt":26.91},{"city":"Columbus","state_name":"Ohio","lat":40.00774,"lng":-82.92233,"zip":"43219","miles_from_dt":27.14},{"city":"Pickerington","state_name":"Ohio","lat":39.8982,"lng":-82.74227,"zip":"43147","miles_from_dt":27.16},{"city":"Columbus","state_name":"Ohio","lat":40.05642,"lng":-82.9682,"zip":"43266","miles_from_dt":27.24},{"city":"Baltimore","state_name":"Ohio","lat":39.86513,"lng":-82.61826,"zip":"43105","miles_from_dt":27.29},{"city":"Glenmont","state_name":"Ohio","lat":40.538,"lng":-82.1551,"zip":"44628","miles_from_dt":27.57},{"city":"Columbus","state_name":"Ohio","lat":40.04256,"lng":-82.9664,"zip":"43224","miles_from_dt":27.65},{"city":"Columbus","state_name":"Ohio","lat":39.97419,"lng":-82.89823,"zip":"43216","miles_from_dt":27.72},{"city":"Trinway","state_name":"Ohio","lat":40.13749,"lng":-82.01182,"zip":"43842","miles_from_dt":28.19},{"city":"Columbus","state_name":"Ohio","lat":40.09959,"lng":-83.01639,"zip":"43085","miles_from_dt":28.22},{"city":"Thurston","state_name":"Ohio","lat":39.84303,"lng":-82.54675,"zip":"43157","miles_from_dt":28.37},{"city":"Dresden","state_name":"Ohio","lat":40.13559,"lng":-82.00695,"zip":"43821","miles_from_dt":28.47},{"city":"Delaware","state_name":"Ohio","lat":40.29812,"lng":-83.06049,"zip":"43015","miles_from_dt":28.59},{"city":"Brice","state_name":"Ohio","lat":39.9127,"lng":-82.83385,"zip":"43109","miles_from_dt":28.74},{"city":"Columbus","state_name":"Ohio","lat":39.94511,"lng":-82.88858,"zip":"43227","miles_from_dt":28.8},{"city":"Mansfield","state_name":"Ohio","lat":40.66578,"lng":-82.61505,"zip":"44904","miles_from_dt":28.84},{"city":"Columbus","state_name":"Ohio","lat":40.01163,"lng":-82.97244,"zip":"43211","miles_from_dt":29.1},{"city":"Columbus","state_name":"Ohio","lat":39.92189,"lng":-82.87053,"zip":"43232","miles_from_dt":29.4},{"city":"Columbus","state_name":"Ohio","lat":40.0523,"lng":-83.01996,"zip":"43214","miles_from_dt":29.78},{"city":"Columbus","state_name":"Ohio","lat":39.95462,"lng":-82.92992,"zip":"43209","miles_from_dt":29.86}],"targetCityZipCode":"43027","targetCityState":"Ohio"},"__N_SSG":true}