{"pageProps":{"stateName":"Ohio","cityName":"lakewood","nearbyCities":[{"city":"Cleveland","state_name":"Ohio","lat":41.46138,"lng":-81.78691,"zip":"44181","miles_from_dt":1.62},{"city":"Cleveland","state_name":"Ohio","lat":41.45775,"lng":-81.78986,"zip":"44111","miles_from_dt":1.8},{"city":"Rocky River","state_name":"Ohio","lat":41.47011,"lng":-81.85194,"zip":"44116","miles_from_dt":2.82},{"city":"Cleveland","state_name":"Ohio","lat":41.4749,"lng":-81.73751,"zip":"44102","miles_from_dt":3.3},{"city":"Cleveland","state_name":"Ohio","lat":41.44263,"lng":-81.85278,"zip":"44126","miles_from_dt":3.88},{"city":"Cleveland","state_name":"Ohio","lat":41.42472,"lng":-81.82135,"zip":"44135","miles_from_dt":4.14},{"city":"Cleveland","state_name":"Ohio","lat":41.43738,"lng":-81.74272,"zip":"44144","miles_from_dt":4.32},{"city":"Cleveland","state_name":"Ohio","lat":41.48468,"lng":-81.70274,"zip":"44191","miles_from_dt":5.06},{"city":"Cleveland","state_name":"Ohio","lat":41.48343,"lng":-81.69638,"zip":"44113","miles_from_dt":5.39},{"city":"Cleveland","state_name":"Ohio","lat":41.50288,"lng":-81.69542,"zip":"44193","miles_from_dt":5.62},{"city":"Brookpark","state_name":"Ohio","lat":41.40205,"lng":-81.82406,"zip":"44142","miles_from_dt":5.7},{"city":"Cleveland","state_name":"Ohio","lat":41.50535,"lng":-81.69343,"zip":"44199","miles_from_dt":5.76},{"city":"Cleveland","state_name":"Ohio","lat":41.4005,"lng":-81.82678,"zip":"44188","miles_from_dt":5.83},{"city":"Cleveland","state_name":"Ohio","lat":41.44457,"lng":-81.69681,"zip":"44109","miles_from_dt":5.98},{"city":"Cleveland","state_name":"Ohio","lat":41.50172,"lng":-81.68644,"zip":"44192","miles_from_dt":6.05},{"city":"Cleveland","state_name":"Ohio","lat":41.481,"lng":-81.6817,"zip":"44197","miles_from_dt":6.15},{"city":"Cleveland","state_name":"Ohio","lat":41.49367,"lng":-81.67625,"zip":"44198","miles_from_dt":6.48},{"city":"Cleveland","state_name":"Ohio","lat":41.48988,"lng":-81.6717,"zip":"44101","miles_from_dt":6.69},{"city":"Cleveland","state_name":"Ohio","lat":41.5137,"lng":-81.67625,"zip":"44114","miles_from_dt":6.78},{"city":"Cleveland","state_name":"Ohio","lat":41.49211,"lng":-81.66999,"zip":"44115","miles_from_dt":6.79},{"city":"Bay Village","state_name":"Ohio","lat":41.48508,"lng":-81.93171,"zip":"44140","miles_from_dt":6.82},{"city":"Westlake","state_name":"Ohio","lat":41.45245,"lng":-81.92944,"zip":"44145","miles_from_dt":7.02},{"city":"Cleveland","state_name":"Ohio","lat":41.51603,"lng":-81.67229,"zip":"44194","miles_from_dt":7.03},{"city":"Cleveland","state_name":"Ohio","lat":41.39035,"lng":-81.73536,"zip":"44129","miles_from_dt":7.2},{"city":"Cleveland","state_name":"Ohio","lat":41.378,"lng":-81.7868,"zip":"44130","miles_from_dt":7.25},{"city":"North Olmsted","state_name":"Ohio","lat":41.41493,"lng":-81.91905,"zip":"44070","miles_from_dt":7.74},{"city":"Cleveland","state_name":"Ohio","lat":41.471,"lng":-81.64874,"zip":"44127","miles_from_dt":7.9},{"city":"Cleveland","state_name":"Ohio","lat":41.38496,"lng":-81.70459,"zip":"44134","miles_from_dt":8.37},{"city":"Cleveland","state_name":"Ohio","lat":41.51559,"lng":-81.64301,"zip":"44103","miles_from_dt":8.47},{"city":"Berea","state_name":"Ohio","lat":41.36867,"lng":-81.86303,"zip":"44017","miles_from_dt":8.51},{"city":"Cleveland","state_name":"Ohio","lat":41.48238,"lng":-81.62702,"zip":"44104","miles_from_dt":8.99},{"city":"Cleveland","state_name":"Ohio","lat":41.45069,"lng":-81.63032,"zip":"44105","miles_from_dt":9.09},{"city":"Cleveland","state_name":"Ohio","lat":41.5035,"lng":-81.62116,"zip":"44190","miles_from_dt":9.4},{"city":"Cleveland","state_name":"Ohio","lat":41.50218,"lng":-81.61965,"zip":"44195","miles_from_dt":9.47},{"city":"Olmsted Falls","state_name":"Ohio","lat":41.37363,"lng":-81.92302,"zip":"44138","miles_from_dt":9.86},{"city":"Cleveland","state_name":"Ohio","lat":41.5062,"lng":-81.60679,"zip":"44106","miles_from_dt":10.17},{"city":"Independence","state_name":"Ohio","lat":41.3835,"lng":-81.65349,"zip":"44131","miles_from_dt":10.24},{"city":"Cleveland","state_name":"Ohio","lat":41.53992,"lng":-81.60988,"zip":"44108","miles_from_dt":10.64},{"city":"Cleveland","state_name":"Ohio","lat":41.40658,"lng":-81.61548,"zip":"44125","miles_from_dt":10.94},{"city":"Avon Lake","state_name":"Ohio","lat":41.49443,"lng":-82.01594,"zip":"44012","miles_from_dt":11.22},{"city":"Cleveland","state_name":"Ohio","lat":41.47337,"lng":-81.58015,"zip":"44120","miles_from_dt":11.44},{"city":"Avon","state_name":"Ohio","lat":41.44855,"lng":-82.0187,"zip":"44011","miles_from_dt":11.58},{"city":"Strongsville","state_name":"Ohio","lat":41.31265,"lng":-81.81064,"zip":"44136","miles_from_dt":11.74},{"city":"North Royalton","state_name":"Ohio","lat":41.31388,"lng":-81.74497,"zip":"44133","miles_from_dt":11.99},{"city":"Strongsville","state_name":"Ohio","lat":41.31223,"lng":-81.8563,"zip":"44149","miles_from_dt":12.11},{"city":"Cleveland","state_name":"Ohio","lat":41.53562,"lng":-81.57369,"zip":"44112","miles_from_dt":12.31},{"city":"Cleveland","state_name":"Ohio","lat":41.5016,"lng":-81.55653,"zip":"44118","miles_from_dt":12.71},{"city":"Broadview Heights","state_name":"Ohio","lat":41.31956,"lng":-81.67797,"zip":"44147","miles_from_dt":12.92},{"city":"Cleveland","state_name":"Ohio","lat":41.56365,"lng":-81.57111,"zip":"44110","miles_from_dt":13.13},{"city":"North Ridgeville","state_name":"Ohio","lat":41.38404,"lng":-82.02014,"zip":"44039","miles_from_dt":13.29},{"city":"Maple Heights","state_name":"Ohio","lat":41.40903,"lng":-81.56274,"zip":"44137","miles_from_dt":13.34},{"city":"Cleveland","state_name":"Ohio","lat":41.43766,"lng":-81.54036,"zip":"44128","miles_from_dt":13.84},{"city":"Columbia Station","state_name":"Ohio","lat":41.30986,"lng":-81.93959,"zip":"44028","miles_from_dt":13.95},{"city":"Cleveland","state_name":"Ohio","lat":41.52626,"lng":-81.53246,"zip":"44121","miles_from_dt":14.22},{"city":"Beachwood","state_name":"Ohio","lat":41.4701,"lng":-81.51272,"zip":"44122","miles_from_dt":14.95},{"city":"Cleveland","state_name":"Ohio","lat":41.58673,"lng":-81.54748,"zip":"44119","miles_from_dt":14.95},{"city":"Sheffield Lake","state_name":"Ohio","lat":41.46419,"lng":-82.0931,"zip":"44054","miles_from_dt":15.25},{"city":"Euclid","state_name":"Ohio","lat":41.57145,"lng":-81.52695,"zip":"44117","miles_from_dt":15.44},{"city":"Bedford","state_name":"Ohio","lat":41.38161,"lng":-81.53018,"zip":"44146","miles_from_dt":15.66},{"city":"Brecksville","state_name":"Ohio","lat":41.30139,"lng":-81.61439,"zip":"44141","miles_from_dt":15.8},{"city":"Brunswick","state_name":"Ohio","lat":41.24386,"lng":-81.82863,"zip":"44212","miles_from_dt":16.54},{"city":"Euclid","state_name":"Ohio","lat":41.60365,"lng":-81.52441,"zip":"44123","miles_from_dt":16.56},{"city":"Hinckley","state_name":"Ohio","lat":41.23943,"lng":-81.73513,"zip":"44233","miles_from_dt":17.12},{"city":"Cleveland","state_name":"Ohio","lat":41.49999,"lng":-81.46774,"zip":"44124","miles_from_dt":17.3},{"city":"Elyria","state_name":"Ohio","lat":41.36776,"lng":-82.09851,"zip":"44036","miles_from_dt":17.4},{"city":"Northfield","state_name":"Ohio","lat":41.31386,"lng":-81.5476,"zip":"44067","miles_from_dt":17.55},{"city":"Cleveland","state_name":"Ohio","lat":41.55358,"lng":-81.47513,"zip":"44143","miles_from_dt":17.56},{"city":"Lorain","state_name":"Ohio","lat":41.43309,"lng":-82.13354,"zip":"44055","miles_from_dt":17.64},{"city":"Euclid","state_name":"Ohio","lat":41.60484,"lng":-81.49958,"zip":"44132","miles_from_dt":17.72},{"city":"Valley City","state_name":"Ohio","lat":41.23812,"lng":-81.92339,"zip":"44280","miles_from_dt":18.05},{"city":"Lorain","state_name":"Ohio","lat":41.45519,"lng":-82.16133,"zip":"44052","miles_from_dt":18.84},{"city":"Richfield","state_name":"Ohio","lat":41.23668,"lng":-81.64017,"zip":"44286","miles_from_dt":18.9},{"city":"Wickliffe","state_name":"Ohio","lat":41.59797,"lng":-81.46867,"zip":"44092","miles_from_dt":18.95},{"city":"Elyria","state_name":"Ohio","lat":41.36539,"lng":-82.13025,"zip":"44035","miles_from_dt":18.95},{"city":"Grafton","state_name":"Ohio","lat":41.26779,"lng":-82.04188,"zip":"44044","miles_from_dt":19.43},{"city":"Macedonia","state_name":"Ohio","lat":41.31465,"lng":-81.49868,"zip":"44056","miles_from_dt":19.49},{"city":"Solon","state_name":"Ohio","lat":41.38325,"lng":-81.44439,"zip":"44139","miles_from_dt":19.71},{"city":"Gates Mills","state_name":"Ohio","lat":41.53128,"lng":-81.4112,"zip":"44040","miles_from_dt":20.46},{"city":"Chagrin Falls","state_name":"Ohio","lat":41.44747,"lng":-81.4045,"zip":"44022","miles_from_dt":20.69},{"city":"Eastlake","state_name":"Ohio","lat":41.65145,"lng":-81.44878,"zip":"44097","miles_from_dt":21.62},{"city":"Twinsburg","state_name":"Ohio","lat":41.31706,"lng":-81.44106,"zip":"44087","miles_from_dt":21.88},{"city":"Eastlake","state_name":"Ohio","lat":41.65223,"lng":-81.44209,"zip":"44095","miles_from_dt":21.94},{"city":"Peninsula","state_name":"Ohio","lat":41.22966,"lng":-81.54311,"zip":"44264","miles_from_dt":21.99},{"city":"Bath","state_name":"Ohio","lat":41.18892,"lng":-81.62975,"zip":"44210","miles_from_dt":22.12},{"city":"Lorain","state_name":"Ohio","lat":41.42694,"lng":-82.22138,"zip":"44053","miles_from_dt":22.2},{"city":"Hudson","state_name":"Ohio","lat":41.25496,"lng":-81.48139,"zip":"44237","miles_from_dt":22.84},{"city":"Willoughby","state_name":"Ohio","lat":41.64662,"lng":-81.40873,"zip":"44096","miles_from_dt":23.24},{"city":"Willoughby","state_name":"Ohio","lat":41.60985,"lng":-81.3791,"zip":"44094","miles_from_dt":23.53},{"city":"Lagrange","state_name":"Ohio","lat":41.24853,"lng":-82.13119,"zip":"44050","miles_from_dt":23.6},{"city":"Akron","state_name":"Ohio","lat":41.16195,"lng":-81.63419,"zip":"44333","miles_from_dt":23.76},{"city":"Medina","state_name":"Ohio","lat":41.14092,"lng":-81.85954,"zip":"44256","miles_from_dt":23.78},{"city":"Novelty","state_name":"Ohio","lat":41.46685,"lng":-81.33989,"zip":"44073","miles_from_dt":23.92},{"city":"Novelty","state_name":"Ohio","lat":41.47196,"lng":-81.32917,"zip":"44072","miles_from_dt":24.46},{"city":"Hudson","state_name":"Ohio","lat":41.24669,"lng":-81.44775,"zip":"44236","miles_from_dt":24.51},{"city":"Chesterland","state_name":"Ohio","lat":41.53182,"lng":-81.3305,"zip":"44026","miles_from_dt":24.6},{"city":"Akron","state_name":"Ohio","lat":41.15087,"lng":-81.60889,"zip":"44372","miles_from_dt":24.97},{"city":"Litchfield","state_name":"Ohio","lat":41.16571,"lng":-82.03767,"zip":"44253","miles_from_dt":25.12},{"city":"Amherst","state_name":"Ohio","lat":41.36825,"lng":-82.25958,"zip":"44001","miles_from_dt":25.13},{"city":"Cuyahoga Falls","state_name":"Ohio","lat":41.16968,"lng":-81.53051,"zip":"44223","miles_from_dt":25.75},{"city":"Oberlin","state_name":"Ohio","lat":41.28858,"lng":-82.23643,"zip":"44074","miles_from_dt":26.33},{"city":"Aurora","state_name":"Ohio","lat":41.31645,"lng":-81.34243,"zip":"44202","miles_from_dt":26.41},{"city":"Sharon Center","state_name":"Ohio","lat":41.09944,"lng":-81.7285,"zip":"44274","miles_from_dt":26.71},{"city":"Akron","state_name":"Ohio","lat":41.13239,"lng":-81.56512,"zip":"44313","miles_from_dt":27.09},{"city":"Chagrin Falls","state_name":"Ohio","lat":41.38732,"lng":-81.28858,"zip":"44023","miles_from_dt":27.37},{"city":"Akron","state_name":"Ohio","lat":41.09994,"lng":-81.65182,"zip":"44321","miles_from_dt":27.52},{"city":"Mentor","state_name":"Ohio","lat":41.67742,"lng":-81.32806,"zip":"44060","miles_from_dt":27.92},{"city":"Mentor","state_name":"Ohio","lat":41.68824,"lng":-81.33282,"zip":"44061","miles_from_dt":28.07},{"city":"Stow","state_name":"Ohio","lat":41.17697,"lng":-81.44016,"zip":"44224","miles_from_dt":28.21},{"city":"Chippewa Lake","state_name":"Ohio","lat":41.07195,"lng":-81.8994,"zip":"44215","miles_from_dt":28.81},{"city":"Newbury","state_name":"Ohio","lat":41.46308,"lng":-81.24408,"zip":"44065","miles_from_dt":28.9},{"city":"Streetsboro","state_name":"Ohio","lat":41.23945,"lng":-81.34728,"zip":"44241","miles_from_dt":28.92},{"city":"Cuyahoga Falls","state_name":"Ohio","lat":41.13534,"lng":-81.48311,"zip":"44222","miles_from_dt":29.1},{"city":"Cuyahoga Falls","state_name":"Ohio","lat":41.13898,"lng":-81.47624,"zip":"44221","miles_from_dt":29.1},{"city":"Wadsworth","state_name":"Ohio","lat":41.05851,"lng":-81.73854,"zip":"44281","miles_from_dt":29.44},{"city":"Akron","state_name":"Ohio","lat":41.10448,"lng":-81.53732,"zip":"44303","miles_from_dt":29.47}],"targetCityZipCode":"44107","targetCityState":"Ohio"},"__N_SSG":true}