{"pageProps":{"stateName":"Ohio","cityName":"montezuma","nearbyCities":[{"city":"Chickasaw","state_name":"Ohio","lat":40.43658,"lng":-84.49368,"zip":"45826","miles_from_dt":4.67},{"city":"Celina","state_name":"Ohio","lat":40.55266,"lng":-84.59664,"zip":"45822","miles_from_dt":5.04},{"city":"Coldwater","state_name":"Ohio","lat":40.48672,"lng":-84.67677,"zip":"45828","miles_from_dt":6.7},{"city":"Maria Stein","state_name":"Ohio","lat":40.39365,"lng":-84.51566,"zip":"45860","miles_from_dt":6.82},{"city":"Saint Henry","state_name":"Ohio","lat":40.40574,"lng":-84.62791,"zip":"45883","miles_from_dt":7.07},{"city":"New Bremen","state_name":"Ohio","lat":40.4573,"lng":-84.39432,"zip":"45869","miles_from_dt":8.47},{"city":"Saint Marys","state_name":"Ohio","lat":40.57182,"lng":-84.3871,"zip":"45885","miles_from_dt":10.29},{"city":"Burkettsville","state_name":"Ohio","lat":40.35299,"lng":-84.64264,"zip":"45310","miles_from_dt":10.59},{"city":"Osgood","state_name":"Ohio","lat":40.33954,"lng":-84.49574,"zip":"45351","miles_from_dt":10.7},{"city":"North Star","state_name":"Ohio","lat":40.32472,"lng":-84.57359,"zip":"45350","miles_from_dt":11.41},{"city":"Minster","state_name":"Ohio","lat":40.39379,"lng":-84.37219,"zip":"45865","miles_from_dt":11.44},{"city":"Yorkshire","state_name":"Ohio","lat":40.32799,"lng":-84.47901,"zip":"45388","miles_from_dt":11.72},{"city":"Fort Recovery","state_name":"Ohio","lat":40.40986,"lng":-84.74644,"zip":"45846","miles_from_dt":11.72},{"city":"New Weston","state_name":"Ohio","lat":40.32663,"lng":-84.65404,"zip":"45348","miles_from_dt":12.49},{"city":"Mendon","state_name":"Ohio","lat":40.67079,"lng":-84.51356,"zip":"45862","miles_from_dt":12.68},{"city":"New Knoxville","state_name":"Ohio","lat":40.4932,"lng":-84.30089,"zip":"45871","miles_from_dt":13.11},{"city":"Fort Loramie","state_name":"Ohio","lat":40.32995,"lng":-84.37806,"zip":"45845","miles_from_dt":14.23},{"city":"Rockford","state_name":"Ohio","lat":40.67823,"lng":-84.6754,"zip":"45882","miles_from_dt":14.63},{"city":"Rossburg","state_name":"Ohio","lat":40.28684,"lng":-84.63368,"zip":"45362","miles_from_dt":14.64},{"city":"Kettlersville","state_name":"Ohio","lat":40.44256,"lng":-84.25988,"zip":"45336","miles_from_dt":15.61},{"city":"Versailles","state_name":"Ohio","lat":40.24511,"lng":-84.51314,"zip":"45380","miles_from_dt":16.94},{"city":"Elgin","state_name":"Ohio","lat":40.74041,"lng":-84.47781,"zip":"45838","miles_from_dt":17.75},{"city":"Buckland","state_name":"Ohio","lat":40.62407,"lng":-84.26033,"zip":"45819","miles_from_dt":17.85},{"city":"Salamonia","state_name":"Indiana","lat":40.38665,"lng":-84.86465,"zip":"47381","miles_from_dt":18.05},{"city":"Spencerville","state_name":"Ohio","lat":40.71107,"lng":-84.36359,"zip":"45887","miles_from_dt":18.18},{"city":"Russia","state_name":"Ohio","lat":40.23925,"lng":-84.39841,"zip":"45363","miles_from_dt":19},{"city":"Anna","state_name":"Ohio","lat":40.40068,"lng":-84.20756,"zip":"45302","miles_from_dt":19.04},{"city":"Botkins","state_name":"Ohio","lat":40.45856,"lng":-84.18575,"zip":"45306","miles_from_dt":19.29},{"city":"Venedocia","state_name":"Ohio","lat":40.76252,"lng":-84.4684,"zip":"45894","miles_from_dt":19.35},{"city":"Ansonia","state_name":"Ohio","lat":40.2146,"lng":-84.65627,"zip":"45303","miles_from_dt":19.75},{"city":"Houston","state_name":"Ohio","lat":40.2481,"lng":-84.33209,"zip":"45333","miles_from_dt":20.21},{"city":"Willshire","state_name":"Ohio","lat":40.73617,"lng":-84.76429,"zip":"45898","miles_from_dt":20.45},{"city":"Wapakoneta","state_name":"Ohio","lat":40.56991,"lng":-84.15197,"zip":"45895","miles_from_dt":21.67},{"city":"Ohio City","state_name":"Ohio","lat":40.78765,"lng":-84.67777,"zip":"45874","miles_from_dt":21.68},{"city":"Union City","state_name":"Ohio","lat":40.21894,"lng":-84.76778,"zip":"45390","miles_from_dt":21.91},{"city":"Portland","state_name":"Indiana","lat":40.41874,"lng":-84.95896,"zip":"47371","miles_from_dt":22.11},{"city":"Bryant","state_name":"Indiana","lat":40.54597,"lng":-84.97018,"zip":"47326","miles_from_dt":22.49},{"city":"Berne","state_name":"Indiana","lat":40.6635,"lng":-84.92398,"zip":"46711","miles_from_dt":23.08},{"city":"Geneva","state_name":"Indiana","lat":40.60298,"lng":-84.9638,"zip":"46740","miles_from_dt":23.17},{"city":"Wren","state_name":"Ohio","lat":40.80088,"lng":-84.77491,"zip":"45899","miles_from_dt":24.56},{"city":"Sidney","state_name":"Ohio","lat":40.28915,"lng":-84.16326,"zip":"45367","miles_from_dt":24.61},{"city":"Saint Johns","state_name":"Ohio","lat":40.54865,"lng":-84.08333,"zip":"45884","miles_from_dt":24.9},{"city":"Monroe","state_name":"Indiana","lat":40.7221,"lng":-84.91153,"zip":"46772","miles_from_dt":24.91},{"city":"Pleasant Mills","state_name":"Indiana","lat":40.77402,"lng":-84.84163,"zip":"46780","miles_from_dt":24.94},{"city":"Union City","state_name":"Indiana","lat":40.20625,"lng":-84.84671,"zip":"47390","miles_from_dt":25.03},{"city":"Sidney","state_name":"Ohio","lat":40.2828,"lng":-84.15582,"zip":"45365","miles_from_dt":25.19},{"city":"Bradford","state_name":"Ohio","lat":40.12535,"lng":-84.45699,"zip":"45308","miles_from_dt":25.57},{"city":"Uniopolis","state_name":"Ohio","lat":40.60244,"lng":-84.08583,"zip":"45888","miles_from_dt":25.64},{"city":"Lima","state_name":"Ohio","lat":40.67615,"lng":-84.12651,"zip":"45806","miles_from_dt":25.73},{"city":"Gettysburg","state_name":"Ohio","lat":40.11621,"lng":-84.49676,"zip":"45328","miles_from_dt":25.88},{"city":"Delphos","state_name":"Ohio","lat":40.83415,"lng":-84.35264,"zip":"45833","miles_from_dt":25.97},{"city":"Saratoga","state_name":"Indiana","lat":40.23692,"lng":-84.91845,"zip":"47382","miles_from_dt":26.1},{"city":"Lima","state_name":"Ohio","lat":40.72979,"lng":-84.16242,"zip":"45805","miles_from_dt":26.28},{"city":"Lima","state_name":"Ohio","lat":40.74105,"lng":-84.17446,"zip":"45802","miles_from_dt":26.3},{"city":"Port Jefferson","state_name":"Ohio","lat":40.33028,"lng":-84.09206,"zip":"45360","miles_from_dt":26.51},{"city":"Van Wert","state_name":"Ohio","lat":40.8748,"lng":-84.57785,"zip":"45891","miles_from_dt":26.66},{"city":"Jackson Center","state_name":"Ohio","lat":40.44662,"lng":-84.04517,"zip":"45334","miles_from_dt":26.75},{"city":"Covington","state_name":"Ohio","lat":40.12745,"lng":-84.35391,"zip":"45318","miles_from_dt":27.01},{"city":"Linn Grove","state_name":"Indiana","lat":40.64445,"lng":-85.03123,"zip":"46769","miles_from_dt":27.51},{"city":"Greenville","state_name":"Ohio","lat":40.09729,"lng":-84.64616,"zip":"45331","miles_from_dt":27.51},{"city":"Maplewood","state_name":"Ohio","lat":40.37184,"lng":-84.04935,"zip":"45340","miles_from_dt":27.59},{"city":"Piqua","state_name":"Ohio","lat":40.16252,"lng":-84.23097,"zip":"45356","miles_from_dt":28.12},{"city":"Middle Point","state_name":"Ohio","lat":40.9041,"lng":-84.45477,"zip":"45863","miles_from_dt":29.07},{"city":"Ridgeville","state_name":"Indiana","lat":40.28553,"lng":-85.03439,"zip":"47380","miles_from_dt":29.17},{"city":"Lima","state_name":"Ohio","lat":40.71569,"lng":-84.06911,"zip":"45804","miles_from_dt":29.72},{"city":"Lima","state_name":"Ohio","lat":40.8072,"lng":-84.16699,"zip":"45807","miles_from_dt":29.77},{"city":"Pemberton","state_name":"Ohio","lat":40.29252,"lng":-84.04274,"zip":"45353","miles_from_dt":29.99}],"targetCityZipCode":"45866","targetCityState":"Ohio"},"__N_SSG":true}