{"pageProps":{"stateName":"Ohio","cityName":"mount-sterling","nearbyCities":[{"city":"Derby","state_name":"Ohio","lat":39.76874,"lng":-83.20622,"zip":"43117","miles_from_dt":5.96},{"city":"Bloomingburg","state_name":"Ohio","lat":39.6448,"lng":-83.41853,"zip":"43106","miles_from_dt":8.23},{"city":"Orient","state_name":"Ohio","lat":39.77293,"lng":-83.14333,"zip":"43146","miles_from_dt":9.01},{"city":"Harrisburg","state_name":"Ohio","lat":39.81077,"lng":-83.16857,"zip":"43126","miles_from_dt":9.35},{"city":"Sedalia","state_name":"Ohio","lat":39.73317,"lng":-83.47661,"zip":"43151","miles_from_dt":9.64},{"city":"New Holland","state_name":"Ohio","lat":39.56281,"lng":-83.2594,"zip":"43145","miles_from_dt":10.89},{"city":"Commercial Point","state_name":"Ohio","lat":39.77284,"lng":-83.06275,"zip":"43116","miles_from_dt":13.02},{"city":"Williamsport","state_name":"Ohio","lat":39.58349,"lng":-83.12009,"zip":"43164","miles_from_dt":13.22},{"city":"London","state_name":"Ohio","lat":39.88406,"lng":-83.42946,"zip":"43140","miles_from_dt":13.46},{"city":"Grove City","state_name":"Ohio","lat":39.86801,"lng":-83.12088,"zip":"43123","miles_from_dt":13.95},{"city":"South Solon","state_name":"Ohio","lat":39.74071,"lng":-83.56781,"zip":"43153","miles_from_dt":14.53},{"city":"Washington Court House","state_name":"Ohio","lat":39.52871,"lng":-83.43917,"zip":"43160","miles_from_dt":15.11},{"city":"Jeffersonville","state_name":"Ohio","lat":39.66359,"lng":-83.57893,"zip":"43128","miles_from_dt":15.5},{"city":"West Jefferson","state_name":"Ohio","lat":39.94369,"lng":-83.30633,"zip":"43162","miles_from_dt":15.58},{"city":"Galloway","state_name":"Ohio","lat":39.93487,"lng":-83.20059,"zip":"43119","miles_from_dt":15.81},{"city":"Clarksburg","state_name":"Ohio","lat":39.48989,"lng":-83.16579,"zip":"43115","miles_from_dt":17.22},{"city":"Lockbourne","state_name":"Ohio","lat":39.80486,"lng":-82.98694,"zip":"43137","miles_from_dt":17.55},{"city":"Milledgeville","state_name":"Ohio","lat":39.59289,"lng":-83.58777,"zip":"43142","miles_from_dt":17.76},{"city":"Lockbourne","state_name":"Ohio","lat":39.80927,"lng":-82.97473,"zip":"43194","miles_from_dt":18.26},{"city":"Columbus","state_name":"Ohio","lat":39.96367,"lng":-83.12478,"zip":"43228","miles_from_dt":19.26},{"city":"Columbus","state_name":"Ohio","lat":39.97857,"lng":-83.16337,"zip":"43226","miles_from_dt":19.32},{"city":"Ashville","state_name":"Ohio","lat":39.72484,"lng":-82.93428,"zip":"43103","miles_from_dt":19.32},{"city":"Circleville","state_name":"Ohio","lat":39.59114,"lng":-82.96192,"zip":"43113","miles_from_dt":19.88},{"city":"Columbus","state_name":"Ohio","lat":39.92636,"lng":-83.03395,"zip":"43223","miles_from_dt":20.05},{"city":"Columbus","state_name":"Ohio","lat":39.96135,"lng":-83.08052,"zip":"43204","miles_from_dt":20.35},{"city":"Columbus","state_name":"Ohio","lat":39.81667,"lng":-82.93279,"zip":"43217","miles_from_dt":20.54},{"city":"South Charleston","state_name":"Ohio","lat":39.84376,"lng":-83.65413,"zip":"45368","miles_from_dt":20.91},{"city":"Columbus","state_name":"Ohio","lat":39.89599,"lng":-82.96392,"zip":"43207","miles_from_dt":21.55},{"city":"Columbus","state_name":"Ohio","lat":39.961,"lng":-83.03581,"zip":"43222","miles_from_dt":21.76},{"city":"Hilliard","state_name":"Ohio","lat":40.02197,"lng":-83.18472,"zip":"43026","miles_from_dt":21.8},{"city":"Columbus","state_name":"Ohio","lat":39.95972,"lng":-83.0208,"zip":"43251","miles_from_dt":22.21},{"city":"Columbus","state_name":"Ohio","lat":39.9661,"lng":-83.02545,"zip":"43279","miles_from_dt":22.39},{"city":"Columbus","state_name":"Ohio","lat":39.97093,"lng":-83.02627,"zip":"43271","miles_from_dt":22.61},{"city":"Columbus","state_name":"Ohio","lat":39.96035,"lng":-83.00566,"zip":"43272","miles_from_dt":22.79},{"city":"Columbus","state_name":"Ohio","lat":39.96633,"lng":-83.01262,"zip":"43215","miles_from_dt":22.84},{"city":"South Vienna","state_name":"Ohio","lat":39.95304,"lng":-83.60304,"zip":"45369","miles_from_dt":22.99},{"city":"Columbus","state_name":"Ohio","lat":39.98763,"lng":-83.04215,"zip":"43212","miles_from_dt":23.01},{"city":"Columbus","state_name":"Ohio","lat":39.96142,"lng":-82.99939,"zip":"43287","miles_from_dt":23.07},{"city":"Columbus","state_name":"Ohio","lat":39.94205,"lng":-82.97346,"zip":"43206","miles_from_dt":23.12},{"city":"Columbus","state_name":"Ohio","lat":39.96287,"lng":-82.99842,"zip":"43260","miles_from_dt":23.17},{"city":"Columbus","state_name":"Ohio","lat":39.96497,"lng":-83.00032,"zip":"43270","miles_from_dt":23.21},{"city":"Frankfort","state_name":"Ohio","lat":39.38959,"lng":-83.19657,"zip":"45628","miles_from_dt":23.28},{"city":"Groveport","state_name":"Ohio","lat":39.83747,"lng":-82.88588,"zip":"43125","miles_from_dt":23.37},{"city":"Columbus","state_name":"Ohio","lat":39.9644,"lng":-82.99432,"zip":"43268","miles_from_dt":23.4},{"city":"Groveport","state_name":"Ohio","lat":39.85969,"lng":-82.89441,"zip":"43199","miles_from_dt":23.54},{"city":"Groveport","state_name":"Ohio","lat":39.86,"lng":-82.89219,"zip":"43195","miles_from_dt":23.65},{"city":"Sabina","state_name":"Ohio","lat":39.505,"lng":-83.65035,"zip":"45169","miles_from_dt":23.92},{"city":"Jamestown","state_name":"Ohio","lat":39.63079,"lng":-83.73353,"zip":"45335","miles_from_dt":24.05},{"city":"Columbus","state_name":"Ohio","lat":40.02334,"lng":-83.07744,"zip":"43221","miles_from_dt":24.08},{"city":"Columbus","state_name":"Ohio","lat":39.9575,"lng":-82.96244,"zip":"43205","miles_from_dt":24.27},{"city":"Amlin","state_name":"Ohio","lat":40.05982,"lng":-83.17305,"zip":"43002","miles_from_dt":24.48},{"city":"Columbus","state_name":"Ohio","lat":39.99114,"lng":-83.00056,"zip":"43201","miles_from_dt":24.56},{"city":"Columbus","state_name":"Ohio","lat":40.00487,"lng":-83.02182,"zip":"43210","miles_from_dt":24.6},{"city":"Bowersville","state_name":"Ohio","lat":39.58065,"lng":-83.72347,"zip":"45307","miles_from_dt":24.65},{"city":"Columbus","state_name":"Ohio","lat":39.9729,"lng":-82.96922,"zip":"43203","miles_from_dt":24.75},{"city":"Columbus","state_name":"Ohio","lat":39.95462,"lng":-82.92992,"zip":"43209","miles_from_dt":25.44},{"city":"Cedarville","state_name":"Ohio","lat":39.74608,"lng":-83.77363,"zip":"45314","miles_from_dt":25.48},{"city":"Columbus","state_name":"Ohio","lat":40.04847,"lng":-83.07161,"zip":"43220","miles_from_dt":25.75},{"city":"Columbus","state_name":"Ohio","lat":40.02126,"lng":-83.01394,"zip":"43202","miles_from_dt":25.76},{"city":"Greenfield","state_name":"Ohio","lat":39.3487,"lng":-83.38866,"zip":"45123","miles_from_dt":25.95},{"city":"Catawba","state_name":"Ohio","lat":39.99964,"lng":-83.6219,"zip":"43010","miles_from_dt":26.01},{"city":"Plain City","state_name":"Ohio","lat":40.09819,"lng":-83.28863,"zip":"43064","miles_from_dt":26.23},{"city":"Lithopolis","state_name":"Ohio","lat":39.80157,"lng":-82.81543,"zip":"43136","miles_from_dt":26.27},{"city":"Stoutsville","state_name":"Ohio","lat":39.60327,"lng":-82.82622,"zip":"43154","miles_from_dt":26.31},{"city":"Columbus","state_name":"Ohio","lat":40.01163,"lng":-82.97244,"zip":"43211","miles_from_dt":26.6},{"city":"Columbus","state_name":"Ohio","lat":39.92189,"lng":-82.87053,"zip":"43232","miles_from_dt":26.68},{"city":"Reesville","state_name":"Ohio","lat":39.4766,"lng":-83.68774,"zip":"45166","miles_from_dt":26.7},{"city":"Columbus","state_name":"Ohio","lat":39.94511,"lng":-82.88858,"zip":"43227","miles_from_dt":26.77},{"city":"Mechanicsburg","state_name":"Ohio","lat":40.05145,"lng":-83.56423,"zip":"43044","miles_from_dt":27.04},{"city":"Dublin","state_name":"Ohio","lat":40.09732,"lng":-83.15535,"zip":"43016","miles_from_dt":27.23},{"city":"Columbus","state_name":"Ohio","lat":40.0523,"lng":-83.01996,"zip":"43214","miles_from_dt":27.36},{"city":"Irwin","state_name":"Ohio","lat":40.09598,"lng":-83.45408,"zip":"43029","miles_from_dt":27.38},{"city":"Canal Winchester","state_name":"Ohio","lat":39.82825,"lng":-82.80143,"zip":"43110","miles_from_dt":27.44},{"city":"Columbus","state_name":"Ohio","lat":39.97419,"lng":-82.89823,"zip":"43216","miles_from_dt":27.59},{"city":"Springfield","state_name":"Ohio","lat":39.90737,"lng":-83.7615,"zip":"45505","miles_from_dt":27.97},{"city":"Brice","state_name":"Ohio","lat":39.9127,"lng":-82.83385,"zip":"43109","miles_from_dt":28.05},{"city":"Columbus","state_name":"Ohio","lat":40.00774,"lng":-82.92233,"zip":"43219","miles_from_dt":28.21},{"city":"Port William","state_name":"Ohio","lat":39.55365,"lng":-83.78532,"zip":"45164","miles_from_dt":28.42},{"city":"Columbus","state_name":"Ohio","lat":40.04256,"lng":-82.9664,"zip":"43224","miles_from_dt":28.45},{"city":"South Salem","state_name":"Ohio","lat":39.30551,"lng":-83.24807,"zip":"45681","miles_from_dt":28.58},{"city":"Columbus","state_name":"Ohio","lat":40.01765,"lng":-82.92367,"zip":"43218","miles_from_dt":28.65},{"city":"Leesburg","state_name":"Ohio","lat":39.35124,"lng":-83.54859,"zip":"45135","miles_from_dt":28.66},{"city":"Clifton","state_name":"Ohio","lat":39.79754,"lng":-83.82517,"zip":"45316","miles_from_dt":28.67},{"city":"Columbus","state_name":"Ohio","lat":39.97117,"lng":-82.86746,"zip":"43213","miles_from_dt":28.74},{"city":"Unionville Center","state_name":"Ohio","lat":40.13675,"lng":-83.34165,"zip":"43077","miles_from_dt":28.99},{"city":"Dublin","state_name":"Ohio","lat":40.1189,"lng":-83.13314,"zip":"43017","miles_from_dt":28.99},{"city":"Amanda","state_name":"Ohio","lat":39.64076,"lng":-82.76118,"zip":"43102","miles_from_dt":29.04},{"city":"Columbus","state_name":"Ohio","lat":40.05642,"lng":-82.9682,"zip":"43266","miles_from_dt":29.15},{"city":"Columbus","state_name":"Ohio","lat":40.00006,"lng":-82.88796,"zip":"43236","miles_from_dt":29.17},{"city":"Columbus","state_name":"Ohio","lat":39.9766,"lng":-82.85683,"zip":"43291","miles_from_dt":29.42},{"city":"Columbus","state_name":"Ohio","lat":40.10193,"lng":-83.05442,"zip":"43235","miles_from_dt":29.45},{"city":"Columbus","state_name":"Ohio","lat":40.10298,"lng":-83.05599,"zip":"43234","miles_from_dt":29.48},{"city":"Tarlton","state_name":"Ohio","lat":39.55389,"lng":-82.77621,"zip":"43156","miles_from_dt":29.98}],"targetCityZipCode":"43143","targetCityState":"Ohio"},"__N_SSG":true}