{"pageProps":{"stateName":"Ohio","cityName":"north-bloomfield","nearbyCities":[{"city":"Bristolville","state_name":"Ohio","lat":41.38893,"lng":-80.85513,"zip":"44402","miles_from_dt":4.74},{"city":"Orwell","state_name":"Ohio","lat":41.52728,"lng":-80.81867,"zip":"44076","miles_from_dt":5.07},{"city":"Mesopotamia","state_name":"Ohio","lat":41.45436,"lng":-80.95552,"zip":"44439","miles_from_dt":6.74},{"city":"Farmdale","state_name":"Ohio","lat":41.43336,"lng":-80.66329,"zip":"44417","miles_from_dt":8.56},{"city":"Cortland","state_name":"Ohio","lat":41.34817,"lng":-80.72629,"zip":"44410","miles_from_dt":8.95},{"city":"West Farmington","state_name":"Ohio","lat":41.37368,"lng":-80.96478,"zip":"44491","miles_from_dt":9.1},{"city":"Windsor","state_name":"Ohio","lat":41.55125,"lng":-80.97446,"zip":"44099","miles_from_dt":10.23},{"city":"Middlefield","state_name":"Ohio","lat":41.45899,"lng":-81.02698,"zip":"44062","miles_from_dt":10.45},{"city":"Warren","state_name":"Ohio","lat":41.3006,"lng":-80.84418,"zip":"44486","miles_from_dt":10.63},{"city":"Rome","state_name":"Ohio","lat":41.60463,"lng":-80.87128,"zip":"44085","miles_from_dt":10.66},{"city":"Williamsfield","state_name":"Ohio","lat":41.53478,"lng":-80.61637,"zip":"44093","miles_from_dt":12.21},{"city":"Southington","state_name":"Ohio","lat":41.29783,"lng":-80.95999,"zip":"44470","miles_from_dt":12.84},{"city":"Kinsman","state_name":"Ohio","lat":41.43458,"lng":-80.5779,"zip":"44428","miles_from_dt":12.94},{"city":"Warren","state_name":"Ohio","lat":41.26537,"lng":-80.81575,"zip":"44483","miles_from_dt":13.03},{"city":"Parkman","state_name":"Ohio","lat":41.36886,"lng":-81.05966,"zip":"44080","miles_from_dt":13.5},{"city":"Huntsburg","state_name":"Ohio","lat":41.54157,"lng":-81.07227,"zip":"44046","miles_from_dt":14.15},{"city":"Warren","state_name":"Ohio","lat":41.24032,"lng":-80.848,"zip":"44485","miles_from_dt":14.79},{"city":"Fowler","state_name":"Ohio","lat":41.30692,"lng":-80.60465,"zip":"44418","miles_from_dt":15.33},{"city":"Leavittsburg","state_name":"Ohio","lat":41.24011,"lng":-80.90804,"zip":"44430","miles_from_dt":15.37},{"city":"Rock Creek","state_name":"Ohio","lat":41.67242,"lng":-80.89605,"zip":"44084","miles_from_dt":15.51},{"city":"Hartford","state_name":"Ohio","lat":41.32201,"lng":-80.58326,"zip":"44424","miles_from_dt":15.55},{"city":"Montville","state_name":"Ohio","lat":41.60567,"lng":-81.0477,"zip":"44064","miles_from_dt":15.56},{"city":"Warren","state_name":"Ohio","lat":41.2348,"lng":-80.74962,"zip":"44484","miles_from_dt":15.63},{"city":"East Claridon","state_name":"Ohio","lat":41.54698,"lng":-81.10173,"zip":"44033","miles_from_dt":15.69},{"city":"Warren","state_name":"Ohio","lat":41.22736,"lng":-80.86344,"zip":"44481","miles_from_dt":15.76},{"city":"Garrettsville","state_name":"Ohio","lat":41.30692,"lng":-81.07197,"zip":"44231","miles_from_dt":16.33},{"city":"Vienna","state_name":"Ohio","lat":41.24684,"lng":-80.66326,"zip":"44473","miles_from_dt":16.6},{"city":"Burton","state_name":"Ohio","lat":41.44141,"lng":-81.14579,"zip":"44021","miles_from_dt":16.64},{"city":"Dorset","state_name":"Ohio","lat":41.6658,"lng":-80.66954,"zip":"44032","miles_from_dt":16.71},{"city":"Burghill","state_name":"Ohio","lat":41.3277,"lng":-80.54861,"zip":"44404","miles_from_dt":16.83},{"city":"Andover","state_name":"Ohio","lat":41.6202,"lng":-80.58361,"zip":"44003","miles_from_dt":17.01},{"city":"Orangeville","state_name":"Ohio","lat":41.33602,"lng":-80.52628,"zip":"44453","miles_from_dt":17.56},{"city":"Warren","state_name":"Ohio","lat":41.19425,"lng":-80.82747,"zip":"44482","miles_from_dt":17.92},{"city":"Niles","state_name":"Ohio","lat":41.18958,"lng":-80.74692,"zip":"44446","miles_from_dt":18.7},{"city":"Jefferson","state_name":"Ohio","lat":41.71887,"lng":-80.73921,"zip":"44047","miles_from_dt":18.82},{"city":"Jamestown","state_name":"Pennsylvania","lat":41.50315,"lng":-80.46571,"zip":"16134","miles_from_dt":18.99},{"city":"Hiram","state_name":"Ohio","lat":41.33454,"lng":-81.15822,"zip":"44234","miles_from_dt":19.14},{"city":"Thompson","state_name":"Ohio","lat":41.67443,"lng":-81.05599,"zip":"44086","miles_from_dt":19.34},{"city":"Brookfield","state_name":"Ohio","lat":41.24053,"lng":-80.58265,"zip":"44403","miles_from_dt":19.41},{"city":"Windham","state_name":"Ohio","lat":41.2392,"lng":-81.08354,"zip":"44288","miles_from_dt":19.98},{"city":"Newton Falls","state_name":"Ohio","lat":41.17559,"lng":-80.97647,"zip":"44444","miles_from_dt":20.75},{"city":"Chardon","state_name":"Ohio","lat":41.57668,"lng":-81.19112,"zip":"44024","miles_from_dt":20.76},{"city":"Girard","state_name":"Ohio","lat":41.17384,"lng":-80.67726,"zip":"44420","miles_from_dt":20.82},{"city":"Masury","state_name":"Ohio","lat":41.24252,"lng":-80.5345,"zip":"44438","miles_from_dt":21.03},{"city":"McDonald","state_name":"Ohio","lat":41.15536,"lng":-80.73,"zip":"44437","miles_from_dt":21.2},{"city":"Mineral Ridge","state_name":"Ohio","lat":41.1482,"lng":-80.78439,"zip":"44440","miles_from_dt":21.21},{"city":"Austinburg","state_name":"Ohio","lat":41.76087,"lng":-80.85152,"zip":"44010","miles_from_dt":21.22},{"city":"Newbury","state_name":"Ohio","lat":41.46308,"lng":-81.24408,"zip":"44065","miles_from_dt":21.73},{"city":"Sharon","state_name":"Pennsylvania","lat":41.23478,"lng":-80.49932,"zip":"16146","miles_from_dt":22.74},{"city":"Transfer","state_name":"Pennsylvania","lat":41.32539,"lng":-80.42111,"zip":"16154","miles_from_dt":22.83},{"city":"Sharpsville","state_name":"Pennsylvania","lat":41.28687,"lng":-80.44509,"zip":"16150","miles_from_dt":22.9},{"city":"Adamsville","state_name":"Pennsylvania","lat":41.49757,"lng":-80.38591,"zip":"16110","miles_from_dt":23.03},{"city":"Geneva","state_name":"Ohio","lat":41.77579,"lng":-80.95223,"zip":"44041","miles_from_dt":23.16},{"city":"Hubbard","state_name":"Ohio","lat":41.17022,"lng":-80.57395,"zip":"44425","miles_from_dt":23.56},{"city":"Wayland","state_name":"Ohio","lat":41.16241,"lng":-81.06595,"zip":"44285","miles_from_dt":23.69},{"city":"Greenville","state_name":"Pennsylvania","lat":41.40565,"lng":-80.37135,"zip":"16125","miles_from_dt":23.84},{"city":"Clark","state_name":"Pennsylvania","lat":41.2828,"lng":-80.42569,"zip":"16113","miles_from_dt":23.92},{"city":"Farrell","state_name":"Pennsylvania","lat":41.21121,"lng":-80.49696,"zip":"16121","miles_from_dt":23.94},{"city":"Mantua","state_name":"Ohio","lat":41.28658,"lng":-81.22982,"zip":"44255","miles_from_dt":23.97},{"city":"Youngstown","state_name":"Ohio","lat":41.12246,"lng":-80.67424,"zip":"44510","miles_from_dt":24.2},{"city":"Hartstown","state_name":"Pennsylvania","lat":41.54908,"lng":-80.37617,"zip":"16131","miles_from_dt":24.23},{"city":"Unionville","state_name":"Ohio","lat":41.77935,"lng":-81.00765,"zip":"44088","miles_from_dt":24.35},{"city":"Linesville","state_name":"Pennsylvania","lat":41.65887,"lng":-80.44175,"zip":"16424","miles_from_dt":24.42},{"city":"Youngstown","state_name":"Ohio","lat":41.1029,"lng":-80.76201,"zip":"44515","miles_from_dt":24.45},{"city":"Chagrin Falls","state_name":"Ohio","lat":41.38732,"lng":-81.28858,"zip":"44023","miles_from_dt":24.48},{"city":"Youngstown","state_name":"Ohio","lat":41.12327,"lng":-80.65363,"zip":"44504","miles_from_dt":24.52},{"city":"Wheatland","state_name":"Pennsylvania","lat":41.20232,"lng":-80.49282,"zip":"16161","miles_from_dt":24.53},{"city":"Youngstown","state_name":"Ohio","lat":41.10986,"lng":-80.69655,"zip":"44509","miles_from_dt":24.68},{"city":"Madison","state_name":"Ohio","lat":41.76675,"lng":-81.05965,"zip":"44057","miles_from_dt":24.75},{"city":"Youngstown","state_name":"Ohio","lat":41.12735,"lng":-80.61687,"zip":"44505","miles_from_dt":25.03},{"city":"Pierpont","state_name":"Ohio","lat":41.76012,"lng":-80.56558,"zip":"44082","miles_from_dt":25.06},{"city":"Hermitage","state_name":"Pennsylvania","lat":41.23147,"lng":-80.43199,"zip":"16148","miles_from_dt":25.6},{"city":"Youngstown","state_name":"Ohio","lat":41.10726,"lng":-80.64875,"zip":"44555","miles_from_dt":25.64},{"city":"North Jackson","state_name":"Ohio","lat":41.08104,"lng":-80.86887,"zip":"44451","miles_from_dt":25.83},{"city":"Lake Milton","state_name":"Ohio","lat":41.09648,"lng":-80.98156,"zip":"44429","miles_from_dt":25.97},{"city":"Youngstown","state_name":"Ohio","lat":41.09739,"lng":-80.6617,"zip":"44501","miles_from_dt":26.05},{"city":"Youngstown","state_name":"Ohio","lat":41.09918,"lng":-80.64912,"zip":"44503","miles_from_dt":26.15},{"city":"Novelty","state_name":"Ohio","lat":41.47196,"lng":-81.32917,"zip":"44072","miles_from_dt":26.16},{"city":"Painesville","state_name":"Ohio","lat":41.69933,"lng":-81.21142,"zip":"44077","miles_from_dt":26.19},{"city":"Novelty","state_name":"Ohio","lat":41.46685,"lng":-81.33989,"zip":"44073","miles_from_dt":26.71},{"city":"Diamond","state_name":"Ohio","lat":41.09671,"lng":-81.0229,"zip":"44412","miles_from_dt":26.71},{"city":"Chesterland","state_name":"Ohio","lat":41.53182,"lng":-81.3305,"zip":"44026","miles_from_dt":26.74},{"city":"Youngstown","state_name":"Ohio","lat":41.09356,"lng":-80.62583,"zip":"44506","miles_from_dt":26.96},{"city":"Perry","state_name":"Ohio","lat":41.76589,"lng":-81.14551,"zip":"44081","miles_from_dt":27.16},{"city":"Youngstown","state_name":"Ohio","lat":41.08365,"lng":-80.64253,"zip":"44502","miles_from_dt":27.28},{"city":"Youngstown","state_name":"Ohio","lat":41.06927,"lng":-80.69617,"zip":"44511","miles_from_dt":27.39},{"city":"West Middlesex","state_name":"Pennsylvania","lat":41.15967,"lng":-80.46858,"zip":"16159","miles_from_dt":27.53},{"city":"Ashtabula","state_name":"Ohio","lat":41.85255,"lng":-80.78738,"zip":"44004","miles_from_dt":27.58},{"city":"Youngstown","state_name":"Ohio","lat":41.07436,"lng":-80.65542,"zip":"44507","miles_from_dt":27.66},{"city":"Ravenna","state_name":"Ohio","lat":41.1662,"lng":-81.19829,"zip":"44266","miles_from_dt":27.75},{"city":"Atlantic","state_name":"Pennsylvania","lat":41.51936,"lng":-80.28463,"zip":"16111","miles_from_dt":28.44},{"city":"Aurora","state_name":"Ohio","lat":41.31645,"lng":-81.34243,"zip":"44202","miles_from_dt":28.48},{"city":"Campbell","state_name":"Ohio","lat":41.07787,"lng":-80.59136,"zip":"44405","miles_from_dt":28.68},{"city":"Kingsville","state_name":"Ohio","lat":41.84697,"lng":-80.64343,"zip":"44048","miles_from_dt":28.72},{"city":"Conneaut Lake","state_name":"Pennsylvania","lat":41.6012,"lng":-80.29958,"zip":"16316","miles_from_dt":29.12},{"city":"Ashtabula","state_name":"Ohio","lat":41.876,"lng":-80.80005,"zip":"44005","miles_from_dt":29.16},{"city":"Ellsworth","state_name":"Ohio","lat":41.02529,"lng":-80.85869,"zip":"44416","miles_from_dt":29.63},{"city":"New Bedford","state_name":"Pennsylvania","lat":41.09355,"lng":-80.51078,"zip":"16140","miles_from_dt":29.79}],"targetCityZipCode":"44450","targetCityState":"Ohio"},"__N_SSG":true}