{"pageProps":{"stateName":"Ohio","cityName":"okolona","nearbyCities":[{"city":"Napoleon","state_name":"Ohio","lat":41.39163,"lng":-84.12719,"zip":"43545","miles_from_dt":0.22},{"city":"Grelton","state_name":"Ohio","lat":41.33875,"lng":-83.99865,"zip":"43523","miles_from_dt":7.44},{"city":"Ridgeville Corners","state_name":"Ohio","lat":41.43772,"lng":-84.25596,"zip":"43555","miles_from_dt":7.59},{"city":"Malinta","state_name":"Ohio","lat":41.30592,"lng":-84.02416,"zip":"43535","miles_from_dt":7.87},{"city":"Liberty Center","state_name":"Ohio","lat":41.45486,"lng":-83.97008,"zip":"43532","miles_from_dt":9.04},{"city":"Jewell","state_name":"Ohio","lat":41.32794,"lng":-84.28933,"zip":"43530","miles_from_dt":9.72},{"city":"Holgate","state_name":"Ohio","lat":41.25121,"lng":-84.1593,"zip":"43527","miles_from_dt":9.91},{"city":"McClure","state_name":"Ohio","lat":41.35446,"lng":-83.92914,"zip":"43534","miles_from_dt":10.41},{"city":"Colton","state_name":"Ohio","lat":41.46484,"lng":-83.94712,"zip":"43510","miles_from_dt":10.42},{"city":"Pettisville","state_name":"Ohio","lat":41.53096,"lng":-84.22382,"zip":"43553","miles_from_dt":10.91},{"city":"Hamler","state_name":"Ohio","lat":41.22839,"lng":-84.039,"zip":"43524","miles_from_dt":12.12},{"city":"Wauseon","state_name":"Ohio","lat":41.57592,"lng":-84.15248,"zip":"43567","miles_from_dt":12.77},{"city":"Archbold","state_name":"Ohio","lat":41.53181,"lng":-84.30201,"zip":"43502","miles_from_dt":13.38},{"city":"Defiance","state_name":"Ohio","lat":41.30309,"lng":-84.35874,"zip":"43512","miles_from_dt":13.71},{"city":"New Bavaria","state_name":"Ohio","lat":41.18867,"lng":-84.17296,"zip":"43548","miles_from_dt":14.28},{"city":"Neapolis","state_name":"Ohio","lat":41.49214,"lng":-83.87634,"zip":"43547","miles_from_dt":14.55},{"city":"Grand Rapids","state_name":"Ohio","lat":41.42058,"lng":-83.84352,"zip":"43522","miles_from_dt":14.65},{"city":"Delta","state_name":"Ohio","lat":41.58656,"lng":-84.00746,"zip":"43515","miles_from_dt":14.69},{"city":"Evansport","state_name":"Ohio","lat":41.42092,"lng":-84.40854,"zip":"43519","miles_from_dt":14.97},{"city":"Stryker","state_name":"Ohio","lat":41.48354,"lng":-84.39693,"zip":"43557","miles_from_dt":15.56},{"city":"Deshler","state_name":"Ohio","lat":41.21579,"lng":-83.91081,"zip":"43516","miles_from_dt":16.44},{"city":"Milton Center","state_name":"Ohio","lat":41.30075,"lng":-83.82953,"zip":"43541","miles_from_dt":16.52},{"city":"Weston","state_name":"Ohio","lat":41.3513,"lng":-83.78844,"zip":"43569","miles_from_dt":17.62},{"city":"Custar","state_name":"Ohio","lat":41.26384,"lng":-83.82376,"zip":"43511","miles_from_dt":17.91},{"city":"Whitehouse","state_name":"Ohio","lat":41.51574,"lng":-83.81796,"zip":"43571","miles_from_dt":17.99},{"city":"Belmore","state_name":"Ohio","lat":41.157,"lng":-83.94267,"zip":"45815","miles_from_dt":18.75},{"city":"Swanton","state_name":"Ohio","lat":41.5935,"lng":-83.8781,"zip":"43558","miles_from_dt":18.83},{"city":"Tontogany","state_name":"Ohio","lat":41.42044,"lng":-83.74011,"zip":"43565","miles_from_dt":19.99},{"city":"Waterville","state_name":"Ohio","lat":41.49467,"lng":-83.75838,"zip":"43566","miles_from_dt":20.21},{"city":"Leipsic","state_name":"Ohio","lat":41.11452,"lng":-83.99917,"zip":"45856","miles_from_dt":20.22},{"city":"Miller City","state_name":"Ohio","lat":41.09936,"lng":-84.14077,"zip":"45864","miles_from_dt":20.23},{"city":"Continental","state_name":"Ohio","lat":41.11141,"lng":-84.24993,"zip":"45831","miles_from_dt":20.47},{"city":"Ney","state_name":"Ohio","lat":41.37519,"lng":-84.51818,"zip":"43549","miles_from_dt":20.57},{"city":"Fayette","state_name":"Ohio","lat":41.66377,"lng":-84.29717,"zip":"43521","miles_from_dt":20.8},{"city":"Lyons","state_name":"Ohio","lat":41.69335,"lng":-84.07997,"zip":"43533","miles_from_dt":20.9},{"city":"West Unity","state_name":"Ohio","lat":41.58616,"lng":-84.44116,"zip":"43570","miles_from_dt":21.25},{"city":"Monclova","state_name":"Ohio","lat":41.56642,"lng":-83.76531,"zip":"43542","miles_from_dt":22.12},{"city":"Rudolph","state_name":"Ohio","lat":41.28352,"lng":-83.71887,"zip":"43462","miles_from_dt":22.32},{"city":"Hoytville","state_name":"Ohio","lat":41.18998,"lng":-83.78431,"zip":"43529","miles_from_dt":22.48},{"city":"Haskins","state_name":"Ohio","lat":41.46663,"lng":-83.70098,"zip":"43525","miles_from_dt":22.51},{"city":"Metamora","state_name":"Ohio","lat":41.69545,"lng":-83.943,"zip":"43540","miles_from_dt":22.91},{"city":"Bryan","state_name":"Ohio","lat":41.46739,"lng":-84.55704,"zip":"43506","miles_from_dt":23.13},{"city":"Oakwood","state_name":"Ohio","lat":41.11935,"lng":-84.39628,"zip":"45873","miles_from_dt":23.6},{"city":"Sherwood","state_name":"Ohio","lat":41.30575,"lng":-84.56984,"zip":"43556","miles_from_dt":23.99},{"city":"Bowling Green","state_name":"Ohio","lat":41.40957,"lng":-83.65389,"zip":"43402","miles_from_dt":24.41},{"city":"Dupont","state_name":"Ohio","lat":41.05621,"lng":-84.30029,"zip":"45837","miles_from_dt":24.96},{"city":"Morenci","state_name":"Michigan","lat":41.74989,"lng":-84.22122,"zip":"49256","miles_from_dt":25.2},{"city":"Bowling Green","state_name":"Ohio","lat":41.37784,"lng":-83.63653,"zip":"43403","miles_from_dt":25.3},{"city":"Holland","state_name":"Ohio","lat":41.62908,"lng":-83.74923,"zip":"43528","miles_from_dt":25.36},{"city":"Glandorf","state_name":"Ohio","lat":41.02421,"lng":-84.07695,"zip":"45848","miles_from_dt":25.51},{"city":"Cecil","state_name":"Ohio","lat":41.22643,"lng":-84.56208,"zip":"45821","miles_from_dt":25.55},{"city":"Kunkle","state_name":"Ohio","lat":41.63511,"lng":-84.4957,"zip":"43531","miles_from_dt":25.59},{"city":"Ottawa","state_name":"Ohio","lat":41.02271,"lng":-84.06118,"zip":"45875","miles_from_dt":25.7},{"city":"Berkey","state_name":"Ohio","lat":41.69736,"lng":-83.8369,"zip":"43504","miles_from_dt":25.76},{"city":"McComb","state_name":"Ohio","lat":41.10688,"lng":-83.80338,"zip":"45858","miles_from_dt":25.78},{"city":"Jasper","state_name":"Michigan","lat":41.75651,"lng":-84.01137,"zip":"49248","miles_from_dt":25.8},{"city":"Alvordton","state_name":"Ohio","lat":41.66966,"lng":-84.46095,"zip":"43501","miles_from_dt":25.96},{"city":"Maumee","state_name":"Ohio","lat":41.57433,"lng":-83.68542,"zip":"43537","miles_from_dt":25.96},{"city":"Weston","state_name":"Michigan","lat":41.77144,"lng":-84.10702,"zip":"49289","miles_from_dt":26.18},{"city":"Melrose","state_name":"Ohio","lat":41.08587,"lng":-84.42569,"zip":"45861","miles_from_dt":26.37},{"city":"Cygnet","state_name":"Ohio","lat":41.24205,"lng":-83.65476,"zip":"43413","miles_from_dt":26.47},{"city":"Dunbridge","state_name":"Ohio","lat":41.45165,"lng":-83.61724,"zip":"43414","miles_from_dt":26.59},{"city":"Farmer","state_name":"Ohio","lat":41.38008,"lng":-84.63565,"zip":"43520","miles_from_dt":26.66},{"city":"Sand Creek","state_name":"Michigan","lat":41.77965,"lng":-84.10409,"zip":"49279","miles_from_dt":26.76},{"city":"North Baltimore","state_name":"Ohio","lat":41.18863,"lng":-83.68366,"zip":"45872","miles_from_dt":26.84},{"city":"Portage","state_name":"Ohio","lat":41.31551,"lng":-83.61614,"zip":"43451","miles_from_dt":26.88},{"city":"Mark Center","state_name":"Ohio","lat":41.31345,"lng":-84.634,"zip":"43536","miles_from_dt":27.12},{"city":"Toledo","state_name":"Ohio","lat":41.66416,"lng":-83.72808,"zip":"43617","miles_from_dt":27.78},{"city":"Perrysburg","state_name":"Ohio","lat":41.55391,"lng":-83.62606,"zip":"43552","miles_from_dt":28.1},{"city":"Kalida","state_name":"Ohio","lat":40.98625,"lng":-84.19469,"zip":"45853","miles_from_dt":28.26},{"city":"Cloverdale","state_name":"Ohio","lat":41.00393,"lng":-84.30122,"zip":"45827","miles_from_dt":28.36},{"city":"Waldron","state_name":"Michigan","lat":41.73534,"lng":-84.43211,"zip":"49288","miles_from_dt":28.59},{"city":"Jerry City","state_name":"Ohio","lat":41.25396,"lng":-83.60176,"zip":"43437","miles_from_dt":28.75},{"city":"Sylvania","state_name":"Ohio","lat":41.70067,"lng":-83.73799,"zip":"43560","miles_from_dt":29.18},{"city":"Paulding","state_name":"Ohio","lat":41.12918,"lng":-84.56471,"zip":"45879","miles_from_dt":29.3},{"city":"Pioneer","state_name":"Ohio","lat":41.66024,"lng":-84.56239,"zip":"43554","miles_from_dt":29.35},{"city":"Toledo","state_name":"Ohio","lat":41.65045,"lng":-83.67255,"zip":"43615","miles_from_dt":29.38},{"city":"Toledo","state_name":"Ohio","lat":41.65254,"lng":-83.67132,"zip":"43635","miles_from_dt":29.52},{"city":"Toledo","state_name":"Ohio","lat":41.60336,"lng":-83.62715,"zip":"43614","miles_from_dt":29.57},{"city":"Perrysburg","state_name":"Ohio","lat":41.52095,"lng":-83.57503,"zip":"43551","miles_from_dt":29.8}],"targetCityZipCode":"43550","targetCityState":"Ohio"},"__N_SSG":true}