{"pageProps":{"stateName":"Ohio","cityName":"paris","nearbyCities":[{"city":"Robertsville","state_name":"Ohio","lat":40.76305,"lng":-81.18788,"zip":"44670","miles_from_dt":2.82},{"city":"Minerva","state_name":"Ohio","lat":40.74313,"lng":-81.09343,"zip":"44657","miles_from_dt":4.92},{"city":"Maximo","state_name":"Ohio","lat":40.87603,"lng":-81.17413,"zip":"44650","miles_from_dt":5.59},{"city":"East Canton","state_name":"Ohio","lat":40.76706,"lng":-81.25814,"zip":"44730","miles_from_dt":5.71},{"city":"Homeworth","state_name":"Ohio","lat":40.83385,"lng":-81.04685,"zip":"44634","miles_from_dt":6.3},{"city":"Louisville","state_name":"Ohio","lat":40.86528,"lng":-81.23977,"zip":"44641","miles_from_dt":6.48},{"city":"Malvern","state_name":"Ohio","lat":40.68691,"lng":-81.17639,"zip":"44644","miles_from_dt":7.61},{"city":"East Rochester","state_name":"Ohio","lat":40.7623,"lng":-80.99919,"zip":"44625","miles_from_dt":8.56},{"city":"Alliance","state_name":"Ohio","lat":40.91978,"lng":-81.1278,"zip":"44601","miles_from_dt":8.66},{"city":"North Georgetown","state_name":"Ohio","lat":40.83555,"lng":-80.98706,"zip":"44665","miles_from_dt":9.27},{"city":"Waynesburg","state_name":"Ohio","lat":40.68458,"lng":-81.25757,"zip":"44688","miles_from_dt":9.36},{"city":"Canton","state_name":"Ohio","lat":40.83347,"lng":-81.3327,"zip":"44705","miles_from_dt":9.61},{"city":"Augusta","state_name":"Ohio","lat":40.69589,"lng":-81.02685,"zip":"44607","miles_from_dt":9.69},{"city":"Canton","state_name":"Ohio","lat":40.80001,"lng":-81.34329,"zip":"44704","miles_from_dt":9.81},{"city":"Canton","state_name":"Ohio","lat":40.76031,"lng":-81.34715,"zip":"44707","miles_from_dt":10.32},{"city":"Canton","state_name":"Ohio","lat":40.83606,"lng":-81.35905,"zip":"44714","miles_from_dt":10.99},{"city":"Sebring","state_name":"Ohio","lat":40.92045,"lng":-81.02375,"zip":"44672","miles_from_dt":11.03},{"city":"Canton","state_name":"Ohio","lat":40.89443,"lng":-81.32694,"zip":"44721","miles_from_dt":11.23},{"city":"Canton","state_name":"Ohio","lat":40.81186,"lng":-81.37337,"zip":"44799","miles_from_dt":11.44},{"city":"Canton","state_name":"Ohio","lat":40.79992,"lng":-81.37665,"zip":"44702","miles_from_dt":11.56},{"city":"Middlebranch","state_name":"Ohio","lat":40.90088,"lng":-81.33015,"zip":"44652","miles_from_dt":11.63},{"city":"Kensington","state_name":"Ohio","lat":40.71672,"lng":-80.95686,"zip":"44427","miles_from_dt":11.81},{"city":"Canton","state_name":"Ohio","lat":40.81093,"lng":-81.38134,"zip":"44703","miles_from_dt":11.85},{"city":"Beloit","state_name":"Ohio","lat":40.9121,"lng":-80.9879,"zip":"44609","miles_from_dt":11.91},{"city":"Canton","state_name":"Ohio","lat":40.83022,"lng":-81.38645,"zip":"44711","miles_from_dt":12.3},{"city":"Canton","state_name":"Ohio","lat":40.84218,"lng":-81.38634,"zip":"44709","miles_from_dt":12.48},{"city":"Magnolia","state_name":"Ohio","lat":40.64304,"lng":-81.2998,"zip":"44643","miles_from_dt":12.98},{"city":"Limaville","state_name":"Ohio","lat":40.98455,"lng":-81.14858,"zip":"44640","miles_from_dt":13.01},{"city":"Damascus","state_name":"Ohio","lat":40.90536,"lng":-80.95381,"zip":"44619","miles_from_dt":13.01},{"city":"Hanoverton","state_name":"Ohio","lat":40.7524,"lng":-80.89963,"zip":"44423","miles_from_dt":13.79},{"city":"Hartville","state_name":"Ohio","lat":40.96401,"lng":-81.3048,"zip":"44632","miles_from_dt":13.96},{"city":"East Sparta","state_name":"Ohio","lat":40.68994,"lng":-81.38404,"zip":"44626","miles_from_dt":14.02},{"city":"Canton","state_name":"Ohio","lat":40.791,"lng":-81.42362,"zip":"44750","miles_from_dt":14.03},{"city":"Canton","state_name":"Ohio","lat":40.75382,"lng":-81.4198,"zip":"44706","miles_from_dt":14.13},{"city":"Winona","state_name":"Ohio","lat":40.82192,"lng":-80.88864,"zip":"44493","miles_from_dt":14.14},{"city":"Canton","state_name":"Ohio","lat":40.78962,"lng":-81.42659,"zip":"44710","miles_from_dt":14.19},{"city":"North Benton","state_name":"Ohio","lat":40.97957,"lng":-81.02446,"zip":"44449","miles_from_dt":14.42},{"city":"Canton","state_name":"Ohio","lat":40.81708,"lng":-81.43486,"zip":"44708","miles_from_dt":14.68},{"city":"Sandyville","state_name":"Ohio","lat":40.64511,"lng":-81.36565,"zip":"44671","miles_from_dt":15.15},{"city":"Dellroy","state_name":"Ohio","lat":40.5811,"lng":-81.21592,"zip":"44620","miles_from_dt":15.17},{"city":"Canton","state_name":"Ohio","lat":40.84795,"lng":-81.44136,"zip":"44735","miles_from_dt":15.37},{"city":"Canton","state_name":"Ohio","lat":40.89443,"lng":-81.42211,"zip":"44767","miles_from_dt":15.5},{"city":"Canton","state_name":"Ohio","lat":40.85122,"lng":-81.44806,"zip":"44718","miles_from_dt":15.76},{"city":"Greentown","state_name":"Ohio","lat":40.92695,"lng":-81.40408,"zip":"44630","miles_from_dt":15.82},{"city":"Mechanicstown","state_name":"Ohio","lat":40.6231,"lng":-80.9556,"zip":"44651","miles_from_dt":15.92},{"city":"Atwater","state_name":"Ohio","lat":41.02741,"lng":-81.18354,"zip":"44201","miles_from_dt":16.02},{"city":"Canton","state_name":"Ohio","lat":40.7297,"lng":-81.45083,"zip":"44701","miles_from_dt":16.12},{"city":"North Canton","state_name":"Ohio","lat":40.90112,"lng":-81.43259,"zip":"44720","miles_from_dt":16.19},{"city":"Summitville","state_name":"Ohio","lat":40.67315,"lng":-80.88919,"zip":"43962","miles_from_dt":16.38},{"city":"Carrollton","state_name":"Ohio","lat":40.5669,"lng":-81.0739,"zip":"44615","miles_from_dt":16.4},{"city":"Salem","state_name":"Ohio","lat":40.90221,"lng":-80.87026,"zip":"44460","miles_from_dt":16.67},{"city":"Randolph","state_name":"Ohio","lat":41.01951,"lng":-81.30239,"zip":"44265","miles_from_dt":17.21},{"city":"Deerfield","state_name":"Ohio","lat":41.0326,"lng":-81.05092,"zip":"44411","miles_from_dt":17.22},{"city":"Massillon","state_name":"Ohio","lat":40.81055,"lng":-81.49835,"zip":"44646","miles_from_dt":17.97},{"city":"Uniontown","state_name":"Ohio","lat":40.9596,"lng":-81.42361,"zip":"44685","miles_from_dt":17.98},{"city":"Mineral City","state_name":"Ohio","lat":40.57027,"lng":-81.33104,"zip":"44656","miles_from_dt":18.09},{"city":"Green","state_name":"Ohio","lat":40.93254,"lng":-81.46354,"zip":"44232","miles_from_dt":18.65},{"city":"Zoar","state_name":"Ohio","lat":40.60807,"lng":-81.41175,"zip":"44697","miles_from_dt":18.67},{"city":"Massillon","state_name":"Ohio","lat":40.75416,"lng":-81.514,"zip":"44648","miles_from_dt":18.99},{"city":"Berlin Center","state_name":"Ohio","lat":41.02457,"lng":-80.94658,"zip":"44401","miles_from_dt":19.21},{"city":"Mogadore","state_name":"Ohio","lat":41.03684,"lng":-81.34079,"zip":"44260","miles_from_dt":19.22},{"city":"Somerdale","state_name":"Ohio","lat":40.56478,"lng":-81.36408,"zip":"44678","miles_from_dt":19.34},{"city":"Bolivar","state_name":"Ohio","lat":40.63488,"lng":-81.46098,"zip":"44612","miles_from_dt":19.49},{"city":"Salineville","state_name":"Ohio","lat":40.63156,"lng":-80.84797,"zip":"43945","miles_from_dt":19.77},{"city":"Rootstown","state_name":"Ohio","lat":41.08691,"lng":-81.18244,"zip":"44272","miles_from_dt":20.11},{"city":"Sherrodsville","state_name":"Ohio","lat":40.50245,"lng":-81.24975,"zip":"44675","miles_from_dt":20.85},{"city":"Akron","state_name":"Ohio","lat":41.01462,"lng":-81.4412,"zip":"44312","miles_from_dt":21.21},{"city":"Lakemore","state_name":"Ohio","lat":41.02159,"lng":-81.43331,"zip":"44250","miles_from_dt":21.27},{"city":"Leetonia","state_name":"Ohio","lat":40.84748,"lng":-80.75365,"zip":"44431","miles_from_dt":21.4},{"city":"Lisbon","state_name":"Ohio","lat":40.74974,"lng":-80.75149,"zip":"44432","miles_from_dt":21.47},{"city":"Massillon","state_name":"Ohio","lat":40.79537,"lng":-81.56575,"zip":"44647","miles_from_dt":21.48},{"city":"Washingtonville","state_name":"Ohio","lat":40.90041,"lng":-80.76801,"zip":"44490","miles_from_dt":21.58},{"city":"Greenford","state_name":"Ohio","lat":40.94502,"lng":-80.79206,"zip":"44422","miles_from_dt":21.66},{"city":"Navarre","state_name":"Ohio","lat":40.71036,"lng":-81.55468,"zip":"44662","miles_from_dt":21.73},{"city":"Diamond","state_name":"Ohio","lat":41.09671,"lng":-81.0229,"zip":"44412","miles_from_dt":21.88},{"city":"Ellsworth","state_name":"Ohio","lat":41.02529,"lng":-80.85869,"zip":"44416","miles_from_dt":22.19},{"city":"Lake Milton","state_name":"Ohio","lat":41.09648,"lng":-80.98156,"zip":"44429","miles_from_dt":22.65},{"city":"Canal Fulton","state_name":"Ohio","lat":40.88689,"lng":-81.58747,"zip":"44614","miles_from_dt":23.45},{"city":"Akron","state_name":"Ohio","lat":40.98402,"lng":-81.53169,"zip":"44319","miles_from_dt":23.55},{"city":"Elkton","state_name":"Ohio","lat":40.77068,"lng":-80.70455,"zip":"44415","miles_from_dt":23.75},{"city":"Akron","state_name":"Ohio","lat":41.03773,"lng":-81.48309,"zip":"44315","miles_from_dt":23.89},{"city":"Leesville","state_name":"Ohio","lat":40.45166,"lng":-81.20963,"zip":"44639","miles_from_dt":23.93},{"city":"Akron","state_name":"Ohio","lat":41.03927,"lng":-81.48316,"zip":"44306","miles_from_dt":23.97},{"city":"Brewster","state_name":"Ohio","lat":40.71338,"lng":-81.60026,"zip":"44613","miles_from_dt":23.99},{"city":"Dover","state_name":"Ohio","lat":40.54883,"lng":-81.48375,"zip":"44622","miles_from_dt":24.23},{"city":"Strasburg","state_name":"Ohio","lat":40.60174,"lng":-81.54512,"zip":"44680","miles_from_dt":24.44},{"city":"Clinton","state_name":"Ohio","lat":40.93848,"lng":-81.58397,"zip":"44216","miles_from_dt":24.47},{"city":"West Point","state_name":"Ohio","lat":40.70796,"lng":-80.70221,"zip":"44492","miles_from_dt":24.59},{"city":"Bowerston","state_name":"Ohio","lat":40.43868,"lng":-81.1754,"zip":"44695","miles_from_dt":24.69},{"city":"North Jackson","state_name":"Ohio","lat":41.08104,"lng":-80.86887,"zip":"44451","miles_from_dt":24.75},{"city":"Bergholz","state_name":"Ohio","lat":40.50867,"lng":-80.87349,"zip":"43908","miles_from_dt":24.78},{"city":"Amsterdam","state_name":"Ohio","lat":40.47042,"lng":-80.95131,"zip":"43903","miles_from_dt":24.92},{"city":"Canfield","state_name":"Ohio","lat":41.01132,"lng":-80.77194,"zip":"44406","miles_from_dt":25},{"city":"Akron","state_name":"Ohio","lat":41.07643,"lng":-81.46226,"zip":"44305","miles_from_dt":25.11},{"city":"North Lawrence","state_name":"Ohio","lat":40.84232,"lng":-81.63202,"zip":"44666","miles_from_dt":25.15},{"city":"Tallmadge","state_name":"Ohio","lat":41.10052,"lng":-81.42137,"zip":"44278","miles_from_dt":25.17},{"city":"Beach City","state_name":"Ohio","lat":40.65241,"lng":-81.59714,"zip":"44608","miles_from_dt":25.18},{"city":"Kent","state_name":"Ohio","lat":41.13329,"lng":-81.34241,"zip":"44240","miles_from_dt":25.22},{"city":"Columbiana","state_name":"Ohio","lat":40.88487,"lng":-80.68569,"zip":"44408","miles_from_dt":25.41},{"city":"Hammondsville","state_name":"Ohio","lat":40.56978,"lng":-80.77372,"zip":"43930","miles_from_dt":25.45},{"city":"Akron","state_name":"Ohio","lat":41.07933,"lng":-81.47277,"zip":"44316","miles_from_dt":25.62},{"city":"Ravenna","state_name":"Ohio","lat":41.1662,"lng":-81.19829,"zip":"44266","miles_from_dt":25.63},{"city":"Wayland","state_name":"Ohio","lat":41.16241,"lng":-81.06595,"zip":"44285","miles_from_dt":25.71},{"city":"Akron","state_name":"Ohio","lat":41.04398,"lng":-81.52449,"zip":"44301","miles_from_dt":25.77},{"city":"Akron","state_name":"Ohio","lat":41.04507,"lng":-81.5262,"zip":"44317","miles_from_dt":25.89},{"city":"Kent","state_name":"Ohio","lat":41.14793,"lng":-81.34046,"zip":"44243","miles_from_dt":26.12},{"city":"Dennison","state_name":"Ohio","lat":40.42878,"lng":-81.28955,"zip":"44621","miles_from_dt":26.3},{"city":"Kent","state_name":"Ohio","lat":41.14674,"lng":-81.36268,"zip":"44242","miles_from_dt":26.49},{"city":"Akron","state_name":"Ohio","lat":41.06427,"lng":-81.52047,"zip":"44311","miles_from_dt":26.57},{"city":"Akron","state_name":"Ohio","lat":41.06564,"lng":-81.52082,"zip":"44396","miles_from_dt":26.65},{"city":"Akron","state_name":"Ohio","lat":41.07605,"lng":-81.51221,"zip":"44325","miles_from_dt":26.84},{"city":"Wolf Run","state_name":"Ohio","lat":40.46564,"lng":-80.88599,"zip":"43970","miles_from_dt":26.87},{"city":"Akron","state_name":"Ohio","lat":41.08168,"lng":-81.50728,"zip":"44398","miles_from_dt":26.94},{"city":"Akron","state_name":"Ohio","lat":41.04048,"lng":-81.55838,"zip":"44314","miles_from_dt":26.97},{"city":"Wellsville","state_name":"Ohio","lat":40.63365,"lng":-80.68729,"zip":"43968","miles_from_dt":27.05},{"city":"Brady Lake","state_name":"Ohio","lat":41.17038,"lng":-81.31682,"zip":"44211","miles_from_dt":27.16},{"city":"Scio","state_name":"Ohio","lat":40.40486,"lng":-81.09925,"zip":"43988","miles_from_dt":27.16},{"city":"Fairlawn","state_name":"Ohio","lat":41.07934,"lng":-81.51662,"zip":"44334","miles_from_dt":27.16},{"city":"Akron","state_name":"Ohio","lat":41.08716,"lng":-81.50691,"zip":"44328","miles_from_dt":27.2},{"city":"Akron","state_name":"Ohio","lat":41.08585,"lng":-81.50908,"zip":"44304","miles_from_dt":27.21},{"city":"Midvale","state_name":"Ohio","lat":40.43711,"lng":-81.37105,"zip":"44653","miles_from_dt":27.23},{"city":"Akron","state_name":"Ohio","lat":41.0818,"lng":-81.51751,"zip":"44308","miles_from_dt":27.31},{"city":"Akron","state_name":"Ohio","lat":41.0831,"lng":-81.51749,"zip":"44326","miles_from_dt":27.38},{"city":"Munroe Falls","state_name":"Ohio","lat":41.13901,"lng":-81.43492,"zip":"44262","miles_from_dt":27.79},{"city":"New Philadelphia","state_name":"Ohio","lat":40.46066,"lng":-81.44961,"zip":"44663","miles_from_dt":27.82},{"city":"Newton Falls","state_name":"Ohio","lat":41.17559,"lng":-80.97647,"zip":"44444","miles_from_dt":27.82},{"city":"Akron","state_name":"Ohio","lat":41.07049,"lng":-81.546,"zip":"44307","miles_from_dt":27.83},{"city":"North Lima","state_name":"Ohio","lat":40.94711,"lng":-80.66232,"zip":"44452","miles_from_dt":27.89},{"city":"Akron","state_name":"Ohio","lat":41.10771,"lng":-81.49948,"zip":"44310","miles_from_dt":28.01},{"city":"Dalton","state_name":"Ohio","lat":40.7722,"lng":-81.68925,"zip":"44618","miles_from_dt":28.01},{"city":"Akron","state_name":"Ohio","lat":41.09954,"lng":-81.51447,"zip":"44309","miles_from_dt":28.1},{"city":"New Rumley","state_name":"Ohio","lat":40.39926,"lng":-81.03393,"zip":"43984","miles_from_dt":28.13},{"city":"Irondale","state_name":"Ohio","lat":40.53145,"lng":-80.74699,"zip":"43932","miles_from_dt":28.21},{"city":"Wilmot","state_name":"Ohio","lat":40.65071,"lng":-81.66209,"zip":"44689","miles_from_dt":28.39},{"city":"Akron","state_name":"Ohio","lat":41.08951,"lng":-81.53857,"zip":"44302","miles_from_dt":28.46},{"city":"New Waterford","state_name":"Ohio","lat":40.84834,"lng":-80.61732,"zip":"44445","miles_from_dt":28.48},{"city":"East Springfield","state_name":"Ohio","lat":40.44583,"lng":-80.86242,"zip":"43925","miles_from_dt":28.68},{"city":"Rogers","state_name":"Ohio","lat":40.77581,"lng":-80.60485,"zip":"44455","miles_from_dt":28.95},{"city":"Cuyahoga Falls","state_name":"Ohio","lat":41.13898,"lng":-81.47624,"zip":"44221","miles_from_dt":28.98},{"city":"Cuyahoga Falls","state_name":"Ohio","lat":41.13534,"lng":-81.48311,"zip":"44222","miles_from_dt":28.99},{"city":"Akron","state_name":"Ohio","lat":41.10448,"lng":-81.53732,"zip":"44303","miles_from_dt":29.16},{"city":"Barberton","state_name":"Ohio","lat":41.02013,"lng":-81.62896,"zip":"44203","miles_from_dt":29.18},{"city":"Dundee","state_name":"Ohio","lat":40.61249,"lng":-81.66157,"zip":"44624","miles_from_dt":29.41},{"city":"Mount Eaton","state_name":"Ohio","lat":40.6948,"lng":-81.70191,"zip":"44659","miles_from_dt":29.48},{"city":"Youngstown","state_name":"Ohio","lat":41.1029,"lng":-80.76201,"zip":"44515","miles_from_dt":29.55},{"city":"Akron","state_name":"Ohio","lat":41.07818,"lng":-81.58379,"zip":"44320","miles_from_dt":29.66},{"city":"Youngstown","state_name":"Ohio","lat":41.02467,"lng":-80.67596,"zip":"44513","miles_from_dt":29.68}],"targetCityZipCode":"44669","targetCityState":"Ohio"},"__N_SSG":true}