{"pageProps":{"stateName":"Ohio","cityName":"ravenna","nearbyCities":[{"city":"Rootstown","state_name":"Ohio","lat":41.08691,"lng":-81.18244,"zip":"44272","miles_from_dt":5.53},{"city":"Brady Lake","state_name":"Ohio","lat":41.17038,"lng":-81.31682,"zip":"44211","miles_from_dt":6.19},{"city":"Wayland","state_name":"Ohio","lat":41.16241,"lng":-81.06595,"zip":"44285","miles_from_dt":6.91},{"city":"Kent","state_name":"Ohio","lat":41.14793,"lng":-81.34046,"zip":"44243","miles_from_dt":7.52},{"city":"Windham","state_name":"Ohio","lat":41.2392,"lng":-81.08354,"zip":"44288","miles_from_dt":7.82},{"city":"Kent","state_name":"Ohio","lat":41.13329,"lng":-81.34241,"zip":"44240","miles_from_dt":7.85},{"city":"Mantua","state_name":"Ohio","lat":41.28658,"lng":-81.22982,"zip":"44255","miles_from_dt":8.47},{"city":"Kent","state_name":"Ohio","lat":41.14674,"lng":-81.36268,"zip":"44242","miles_from_dt":8.68},{"city":"Streetsboro","state_name":"Ohio","lat":41.23945,"lng":-81.34728,"zip":"44241","miles_from_dt":9.27},{"city":"Atwater","state_name":"Ohio","lat":41.02741,"lng":-81.18354,"zip":"44201","miles_from_dt":9.61},{"city":"Diamond","state_name":"Ohio","lat":41.09671,"lng":-81.0229,"zip":"44412","miles_from_dt":10.33},{"city":"Randolph","state_name":"Ohio","lat":41.01951,"lng":-81.30239,"zip":"44265","miles_from_dt":11.49},{"city":"Newton Falls","state_name":"Ohio","lat":41.17559,"lng":-80.97647,"zip":"44444","miles_from_dt":11.58},{"city":"Mogadore","state_name":"Ohio","lat":41.03684,"lng":-81.34079,"zip":"44260","miles_from_dt":11.62},{"city":"Garrettsville","state_name":"Ohio","lat":41.30692,"lng":-81.07197,"zip":"44231","miles_from_dt":11.73},{"city":"Hiram","state_name":"Ohio","lat":41.33454,"lng":-81.15822,"zip":"44234","miles_from_dt":11.8},{"city":"Deerfield","state_name":"Ohio","lat":41.0326,"lng":-81.05092,"zip":"44411","miles_from_dt":12.01},{"city":"Lake Milton","state_name":"Ohio","lat":41.09648,"lng":-80.98156,"zip":"44429","miles_from_dt":12.29},{"city":"Munroe Falls","state_name":"Ohio","lat":41.13901,"lng":-81.43492,"zip":"44262","miles_from_dt":12.48},{"city":"Tallmadge","state_name":"Ohio","lat":41.10052,"lng":-81.42137,"zip":"44278","miles_from_dt":12.49},{"city":"Stow","state_name":"Ohio","lat":41.17697,"lng":-81.44016,"zip":"44224","miles_from_dt":12.63},{"city":"Aurora","state_name":"Ohio","lat":41.31645,"lng":-81.34243,"zip":"44202","miles_from_dt":12.8},{"city":"Limaville","state_name":"Ohio","lat":40.98455,"lng":-81.14858,"zip":"44640","miles_from_dt":12.8},{"city":"Hudson","state_name":"Ohio","lat":41.24669,"lng":-81.44775,"zip":"44236","miles_from_dt":14.14},{"city":"Cuyahoga Falls","state_name":"Ohio","lat":41.13898,"lng":-81.47624,"zip":"44221","miles_from_dt":14.62},{"city":"Cuyahoga Falls","state_name":"Ohio","lat":41.13534,"lng":-81.48311,"zip":"44222","miles_from_dt":15.01},{"city":"Hartville","state_name":"Ohio","lat":40.96401,"lng":-81.3048,"zip":"44632","miles_from_dt":15.02},{"city":"Akron","state_name":"Ohio","lat":41.07643,"lng":-81.46226,"zip":"44305","miles_from_dt":15.1},{"city":"Southington","state_name":"Ohio","lat":41.29783,"lng":-80.95999,"zip":"44470","miles_from_dt":15.38},{"city":"Akron","state_name":"Ohio","lat":41.07933,"lng":-81.47277,"zip":"44316","miles_from_dt":15.53},{"city":"Parkman","state_name":"Ohio","lat":41.36886,"lng":-81.05966,"zip":"44080","miles_from_dt":15.74},{"city":"North Benton","state_name":"Ohio","lat":40.97957,"lng":-81.02446,"zip":"44449","miles_from_dt":15.76},{"city":"Lakemore","state_name":"Ohio","lat":41.02159,"lng":-81.43331,"zip":"44250","miles_from_dt":15.82},{"city":"Leavittsburg","state_name":"Ohio","lat":41.24011,"lng":-80.90804,"zip":"44430","miles_from_dt":15.96},{"city":"Hudson","state_name":"Ohio","lat":41.25496,"lng":-81.48139,"zip":"44237","miles_from_dt":15.97},{"city":"Chagrin Falls","state_name":"Ohio","lat":41.38732,"lng":-81.28858,"zip":"44023","miles_from_dt":15.97},{"city":"Akron","state_name":"Ohio","lat":41.10771,"lng":-81.49948,"zip":"44310","miles_from_dt":16.22},{"city":"Berlin Center","state_name":"Ohio","lat":41.02457,"lng":-80.94658,"zip":"44401","miles_from_dt":16.38},{"city":"Twinsburg","state_name":"Ohio","lat":41.31706,"lng":-81.44106,"zip":"44087","miles_from_dt":16.38},{"city":"Akron","state_name":"Ohio","lat":41.01462,"lng":-81.4412,"zip":"44312","miles_from_dt":16.44},{"city":"Akron","state_name":"Ohio","lat":41.08716,"lng":-81.50691,"zip":"44328","miles_from_dt":17},{"city":"Akron","state_name":"Ohio","lat":41.09954,"lng":-81.51447,"zip":"44309","miles_from_dt":17.13},{"city":"Akron","state_name":"Ohio","lat":41.08585,"lng":-81.50908,"zip":"44304","miles_from_dt":17.14},{"city":"Akron","state_name":"Ohio","lat":41.08168,"lng":-81.50728,"zip":"44398","miles_from_dt":17.15},{"city":"Akron","state_name":"Ohio","lat":41.03927,"lng":-81.48316,"zip":"44306","miles_from_dt":17.26},{"city":"Akron","state_name":"Ohio","lat":41.03773,"lng":-81.48309,"zip":"44315","miles_from_dt":17.31},{"city":"Cuyahoga Falls","state_name":"Ohio","lat":41.16968,"lng":-81.53051,"zip":"44223","miles_from_dt":17.33},{"city":"Alliance","state_name":"Ohio","lat":40.91978,"lng":-81.1278,"zip":"44601","miles_from_dt":17.4},{"city":"Akron","state_name":"Ohio","lat":41.07605,"lng":-81.51221,"zip":"44325","miles_from_dt":17.52},{"city":"Akron","state_name":"Ohio","lat":41.0831,"lng":-81.51749,"zip":"44326","miles_from_dt":17.62},{"city":"Akron","state_name":"Ohio","lat":41.0818,"lng":-81.51751,"zip":"44308","miles_from_dt":17.65},{"city":"Fairlawn","state_name":"Ohio","lat":41.07934,"lng":-81.51662,"zip":"44334","miles_from_dt":17.66},{"city":"Warren","state_name":"Ohio","lat":41.22736,"lng":-80.86344,"zip":"44481","miles_from_dt":17.96},{"city":"North Jackson","state_name":"Ohio","lat":41.08104,"lng":-80.86887,"zip":"44451","miles_from_dt":18.17},{"city":"Akron","state_name":"Ohio","lat":41.10448,"lng":-81.53732,"zip":"44303","miles_from_dt":18.19},{"city":"Akron","state_name":"Ohio","lat":41.06564,"lng":-81.52082,"zip":"44396","miles_from_dt":18.21},{"city":"Akron","state_name":"Ohio","lat":41.06427,"lng":-81.52047,"zip":"44311","miles_from_dt":18.23},{"city":"Uniontown","state_name":"Ohio","lat":40.9596,"lng":-81.42361,"zip":"44685","miles_from_dt":18.49},{"city":"Peninsula","state_name":"Ohio","lat":41.22966,"lng":-81.54311,"zip":"44264","miles_from_dt":18.5},{"city":"Akron","state_name":"Ohio","lat":41.08951,"lng":-81.53857,"zip":"44302","miles_from_dt":18.53},{"city":"Macedonia","state_name":"Ohio","lat":41.31465,"lng":-81.49868,"zip":"44056","miles_from_dt":18.7},{"city":"West Farmington","state_name":"Ohio","lat":41.37368,"lng":-80.96478,"zip":"44491","miles_from_dt":18.78},{"city":"Warren","state_name":"Ohio","lat":41.24032,"lng":-80.848,"zip":"44485","miles_from_dt":18.96},{"city":"Akron","state_name":"Ohio","lat":41.04398,"lng":-81.52449,"zip":"44301","miles_from_dt":19},{"city":"Akron","state_name":"Ohio","lat":41.04507,"lng":-81.5262,"zip":"44317","miles_from_dt":19.05},{"city":"Burton","state_name":"Ohio","lat":41.44141,"lng":-81.14579,"zip":"44021","miles_from_dt":19.19},{"city":"Sebring","state_name":"Ohio","lat":40.92045,"lng":-81.02375,"zip":"44672","miles_from_dt":19.25},{"city":"Akron","state_name":"Ohio","lat":41.13239,"lng":-81.56512,"zip":"44313","miles_from_dt":19.28},{"city":"Akron","state_name":"Ohio","lat":41.07049,"lng":-81.546,"zip":"44307","miles_from_dt":19.31},{"city":"Warren","state_name":"Ohio","lat":41.19425,"lng":-80.82747,"zip":"44482","miles_from_dt":19.43},{"city":"Middlebranch","state_name":"Ohio","lat":40.90088,"lng":-81.33015,"zip":"44652","miles_from_dt":19.56},{"city":"Greentown","state_name":"Ohio","lat":40.92695,"lng":-81.40408,"zip":"44630","miles_from_dt":19.7},{"city":"Solon","state_name":"Ohio","lat":41.38325,"lng":-81.44439,"zip":"44139","miles_from_dt":19.71},{"city":"Canton","state_name":"Ohio","lat":40.89443,"lng":-81.32694,"zip":"44721","miles_from_dt":19.92},{"city":"Maximo","state_name":"Ohio","lat":40.87603,"lng":-81.17413,"zip":"44650","miles_from_dt":20.06},{"city":"Ellsworth","state_name":"Ohio","lat":41.02529,"lng":-80.85869,"zip":"44416","miles_from_dt":20.22},{"city":"Newbury","state_name":"Ohio","lat":41.46308,"lng":-81.24408,"zip":"44065","miles_from_dt":20.63},{"city":"Warren","state_name":"Ohio","lat":41.3006,"lng":-80.84418,"zip":"44486","miles_from_dt":20.65},{"city":"Akron","state_name":"Ohio","lat":41.04048,"lng":-81.55838,"zip":"44314","miles_from_dt":20.7},{"city":"Beloit","state_name":"Ohio","lat":40.9121,"lng":-80.9879,"zip":"44609","miles_from_dt":20.7},{"city":"Northfield","state_name":"Ohio","lat":41.31386,"lng":-81.5476,"zip":"44067","miles_from_dt":20.85},{"city":"Louisville","state_name":"Ohio","lat":40.86528,"lng":-81.23977,"zip":"44641","miles_from_dt":20.88},{"city":"Akron","state_name":"Ohio","lat":41.07818,"lng":-81.58379,"zip":"44320","miles_from_dt":21.01},{"city":"Warren","state_name":"Ohio","lat":41.26537,"lng":-80.81575,"zip":"44483","miles_from_dt":21.08},{"city":"Green","state_name":"Ohio","lat":40.93254,"lng":-81.46354,"zip":"44232","miles_from_dt":21.26},{"city":"Akron","state_name":"Ohio","lat":41.15087,"lng":-81.60889,"zip":"44372","miles_from_dt":21.44},{"city":"Akron","state_name":"Ohio","lat":40.98402,"lng":-81.53169,"zip":"44319","miles_from_dt":21.47},{"city":"Mineral Ridge","state_name":"Ohio","lat":41.1482,"lng":-80.78439,"zip":"44440","miles_from_dt":21.62},{"city":"North Canton","state_name":"Ohio","lat":40.90112,"lng":-81.43259,"zip":"44720","miles_from_dt":22.01},{"city":"Novelty","state_name":"Ohio","lat":41.46685,"lng":-81.33989,"zip":"44073","miles_from_dt":22.02},{"city":"Damascus","state_name":"Ohio","lat":40.90536,"lng":-80.95381,"zip":"44619","miles_from_dt":22.07},{"city":"Middlefield","state_name":"Ohio","lat":41.45899,"lng":-81.02698,"zip":"44062","miles_from_dt":22.08},{"city":"Canton","state_name":"Ohio","lat":40.89443,"lng":-81.42211,"zip":"44767","miles_from_dt":22.1},{"city":"Novelty","state_name":"Ohio","lat":41.47196,"lng":-81.32917,"zip":"44072","miles_from_dt":22.17},{"city":"Chagrin Falls","state_name":"Ohio","lat":41.44747,"lng":-81.4045,"zip":"44022","miles_from_dt":22.18},{"city":"Bath","state_name":"Ohio","lat":41.18892,"lng":-81.62975,"zip":"44210","miles_from_dt":22.55},{"city":"Akron","state_name":"Ohio","lat":41.16195,"lng":-81.63419,"zip":"44333","miles_from_dt":22.73},{"city":"Bedford","state_name":"Ohio","lat":41.38161,"lng":-81.53018,"zip":"44146","miles_from_dt":22.79},{"city":"Youngstown","state_name":"Ohio","lat":41.1029,"lng":-80.76201,"zip":"44515","miles_from_dt":23.18},{"city":"Richfield","state_name":"Ohio","lat":41.23668,"lng":-81.64017,"zip":"44286","miles_from_dt":23.54},{"city":"Mesopotamia","state_name":"Ohio","lat":41.45436,"lng":-80.95552,"zip":"44439","miles_from_dt":23.56},{"city":"Bristolville","state_name":"Ohio","lat":41.38893,"lng":-80.85513,"zip":"44402","miles_from_dt":23.57},{"city":"Niles","state_name":"Ohio","lat":41.18958,"lng":-80.74692,"zip":"44446","miles_from_dt":23.59},{"city":"Brecksville","state_name":"Ohio","lat":41.30139,"lng":-81.61439,"zip":"44141","miles_from_dt":23.6},{"city":"Warren","state_name":"Ohio","lat":41.2348,"lng":-80.74962,"zip":"44484","miles_from_dt":23.86},{"city":"Canton","state_name":"Ohio","lat":40.83347,"lng":-81.3327,"zip":"44705","miles_from_dt":24.01},{"city":"Akron","state_name":"Ohio","lat":41.09994,"lng":-81.65182,"zip":"44321","miles_from_dt":24.1},{"city":"Homeworth","state_name":"Ohio","lat":40.83385,"lng":-81.04685,"zip":"44634","miles_from_dt":24.26},{"city":"Canton","state_name":"Ohio","lat":40.83606,"lng":-81.35905,"zip":"44714","miles_from_dt":24.28},{"city":"Canton","state_name":"Ohio","lat":40.84218,"lng":-81.38634,"zip":"44709","miles_from_dt":24.42},{"city":"McDonald","state_name":"Ohio","lat":41.15536,"lng":-80.73,"zip":"44437","miles_from_dt":24.43},{"city":"Barberton","state_name":"Ohio","lat":41.02013,"lng":-81.62896,"zip":"44203","miles_from_dt":24.64},{"city":"Canfield","state_name":"Ohio","lat":41.01132,"lng":-80.77194,"zip":"44406","miles_from_dt":24.69},{"city":"Salem","state_name":"Ohio","lat":40.90221,"lng":-80.87026,"zip":"44460","miles_from_dt":25.01},{"city":"Canton","state_name":"Ohio","lat":40.83022,"lng":-81.38645,"zip":"44711","miles_from_dt":25.19},{"city":"Maple Heights","state_name":"Ohio","lat":41.40903,"lng":-81.56274,"zip":"44137","miles_from_dt":25.31},{"city":"North Georgetown","state_name":"Ohio","lat":40.83555,"lng":-80.98706,"zip":"44665","miles_from_dt":25.35},{"city":"Canton","state_name":"Ohio","lat":40.85122,"lng":-81.44806,"zip":"44718","miles_from_dt":25.36},{"city":"Canton","state_name":"Ohio","lat":40.84795,"lng":-81.44136,"zip":"44735","miles_from_dt":25.37},{"city":"Clinton","state_name":"Ohio","lat":40.93848,"lng":-81.58397,"zip":"44216","miles_from_dt":25.55},{"city":"Paris","state_name":"Ohio","lat":40.79613,"lng":-81.15619,"zip":"44669","miles_from_dt":25.63},{"city":"Cleveland","state_name":"Ohio","lat":41.43766,"lng":-81.54036,"zip":"44128","miles_from_dt":25.84},{"city":"Canton","state_name":"Ohio","lat":40.81186,"lng":-81.37337,"zip":"44799","miles_from_dt":26.11},{"city":"Greenford","state_name":"Ohio","lat":40.94502,"lng":-80.79206,"zip":"44422","miles_from_dt":26.14},{"city":"Chesterland","state_name":"Ohio","lat":41.53182,"lng":-81.3305,"zip":"44026","miles_from_dt":26.15},{"city":"Canton","state_name":"Ohio","lat":40.81093,"lng":-81.38134,"zip":"44703","miles_from_dt":26.32},{"city":"Canton","state_name":"Ohio","lat":40.80001,"lng":-81.34329,"zip":"44704","miles_from_dt":26.38},{"city":"Youngstown","state_name":"Ohio","lat":41.10986,"lng":-80.69655,"zip":"44509","miles_from_dt":26.46},{"city":"Beachwood","state_name":"Ohio","lat":41.4701,"lng":-81.51272,"zip":"44122","miles_from_dt":26.6},{"city":"Huntsburg","state_name":"Ohio","lat":41.54157,"lng":-81.07227,"zip":"44046","miles_from_dt":26.72},{"city":"East Claridon","state_name":"Ohio","lat":41.54698,"lng":-81.10173,"zip":"44033","miles_from_dt":26.75},{"city":"Canton","state_name":"Ohio","lat":40.79992,"lng":-81.37665,"zip":"44702","miles_from_dt":26.94},{"city":"Cleveland","state_name":"Ohio","lat":41.49999,"lng":-81.46774,"zip":"44124","miles_from_dt":26.96},{"city":"Youngstown","state_name":"Ohio","lat":41.06927,"lng":-80.69617,"zip":"44511","miles_from_dt":27.04},{"city":"Canton","state_name":"Ohio","lat":40.81708,"lng":-81.43486,"zip":"44708","miles_from_dt":27.08},{"city":"Broadview Heights","state_name":"Ohio","lat":41.31956,"lng":-81.67797,"zip":"44147","miles_from_dt":27.13},{"city":"Girard","state_name":"Ohio","lat":41.17384,"lng":-80.67726,"zip":"44420","miles_from_dt":27.17},{"city":"Cleveland","state_name":"Ohio","lat":41.40658,"lng":-81.61548,"zip":"44125","miles_from_dt":27.33},{"city":"Youngstown","state_name":"Ohio","lat":41.12246,"lng":-80.67424,"zip":"44510","miles_from_dt":27.5},{"city":"Gates Mills","state_name":"Ohio","lat":41.53128,"lng":-81.4112,"zip":"44040","miles_from_dt":27.52},{"city":"Cortland","state_name":"Ohio","lat":41.34817,"lng":-80.72629,"zip":"44410","miles_from_dt":27.6},{"city":"East Canton","state_name":"Ohio","lat":40.76706,"lng":-81.25814,"zip":"44730","miles_from_dt":27.72},{"city":"North Bloomfield","state_name":"Ohio","lat":41.45397,"lng":-80.82576,"zip":"44450","miles_from_dt":27.75},{"city":"Robertsville","state_name":"Ohio","lat":40.76305,"lng":-81.18788,"zip":"44670","miles_from_dt":27.82},{"city":"Canal Fulton","state_name":"Ohio","lat":40.88689,"lng":-81.58747,"zip":"44614","miles_from_dt":28.02},{"city":"Independence","state_name":"Ohio","lat":41.3835,"lng":-81.65349,"zip":"44131","miles_from_dt":28.04},{"city":"Sharon Center","state_name":"Ohio","lat":41.09944,"lng":-81.7285,"zip":"44274","miles_from_dt":28.04},{"city":"Chardon","state_name":"Ohio","lat":41.57668,"lng":-81.19112,"zip":"44024","miles_from_dt":28.33},{"city":"Youngstown","state_name":"Ohio","lat":41.09739,"lng":-80.6617,"zip":"44501","miles_from_dt":28.4},{"city":"Vienna","state_name":"Ohio","lat":41.24684,"lng":-80.66326,"zip":"44473","miles_from_dt":28.43},{"city":"Hinckley","state_name":"Ohio","lat":41.23943,"lng":-81.73513,"zip":"44233","miles_from_dt":28.43},{"city":"Canton","state_name":"Ohio","lat":40.791,"lng":-81.42362,"zip":"44750","miles_from_dt":28.45},{"city":"Youngstown","state_name":"Ohio","lat":41.12327,"lng":-80.65363,"zip":"44504","miles_from_dt":28.57},{"city":"Canton","state_name":"Ohio","lat":40.78962,"lng":-81.42659,"zip":"44710","miles_from_dt":28.6},{"city":"Winona","state_name":"Ohio","lat":40.82192,"lng":-80.88864,"zip":"44493","miles_from_dt":28.75},{"city":"Youngstown","state_name":"Ohio","lat":41.02467,"lng":-80.67596,"zip":"44513","miles_from_dt":28.96},{"city":"Youngstown","state_name":"Ohio","lat":41.10726,"lng":-80.64875,"zip":"44555","miles_from_dt":28.96},{"city":"Windsor","state_name":"Ohio","lat":41.55125,"lng":-80.97446,"zip":"44099","miles_from_dt":29.01},{"city":"Washingtonville","state_name":"Ohio","lat":40.90041,"lng":-80.76801,"zip":"44490","miles_from_dt":29.02},{"city":"Youngstown","state_name":"Ohio","lat":41.09918,"lng":-80.64912,"zip":"44503","miles_from_dt":29.02},{"city":"Youngstown","state_name":"Ohio","lat":41.07436,"lng":-80.65542,"zip":"44507","miles_from_dt":29.03},{"city":"Cleveland","state_name":"Ohio","lat":41.47337,"lng":-81.58015,"zip":"44120","miles_from_dt":29.05},{"city":"Canton","state_name":"Ohio","lat":40.76031,"lng":-81.34715,"zip":"44707","miles_from_dt":29.07},{"city":"Massillon","state_name":"Ohio","lat":40.81055,"lng":-81.49835,"zip":"44646","miles_from_dt":29.13},{"city":"Wadsworth","state_name":"Ohio","lat":41.05851,"lng":-81.73854,"zip":"44281","miles_from_dt":29.16},{"city":"Wadsworth","state_name":"Ohio","lat":41.0276,"lng":-81.72765,"zip":"44282","miles_from_dt":29.24},{"city":"Doylestown","state_name":"Ohio","lat":40.96237,"lng":-81.69064,"zip":"44230","miles_from_dt":29.31},{"city":"Youngstown","state_name":"Ohio","lat":41.0249,"lng":-80.66757,"zip":"44512","miles_from_dt":29.37},{"city":"Youngstown","state_name":"Ohio","lat":41.08365,"lng":-80.64253,"zip":"44502","miles_from_dt":29.55},{"city":"Minerva","state_name":"Ohio","lat":40.74313,"lng":-81.09343,"zip":"44657","miles_from_dt":29.7},{"city":"Cleveland","state_name":"Ohio","lat":41.5016,"lng":-81.55653,"zip":"44118","miles_from_dt":29.71},{"city":"East Rochester","state_name":"Ohio","lat":40.7623,"lng":-80.99919,"zip":"44625","miles_from_dt":29.75},{"city":"Cleveland","state_name":"Ohio","lat":41.45069,"lng":-81.63032,"zip":"44105","miles_from_dt":29.85}],"targetCityZipCode":"44266","targetCityState":"Ohio"},"__N_SSG":true}