{"pageProps":{"stateName":"Ohio","cityName":"ridgeville-corners","nearbyCities":[{"city":"Pettisville","state_name":"Ohio","lat":41.53096,"lng":-84.22382,"zip":"43553","miles_from_dt":6.65},{"city":"Archbold","state_name":"Ohio","lat":41.53181,"lng":-84.30201,"zip":"43502","miles_from_dt":6.92},{"city":"Napoleon","state_name":"Ohio","lat":41.39163,"lng":-84.12719,"zip":"43545","miles_from_dt":7.41},{"city":"Okolona","state_name":"Ohio","lat":41.39221,"lng":-84.12302,"zip":"43550","miles_from_dt":7.59},{"city":"Jewell","state_name":"Ohio","lat":41.32794,"lng":-84.28933,"zip":"43530","miles_from_dt":7.77},{"city":"Stryker","state_name":"Ohio","lat":41.48354,"lng":-84.39693,"zip":"43557","miles_from_dt":7.97},{"city":"Evansport","state_name":"Ohio","lat":41.42092,"lng":-84.40854,"zip":"43519","miles_from_dt":8.01},{"city":"Defiance","state_name":"Ohio","lat":41.30309,"lng":-84.35874,"zip":"43512","miles_from_dt":10.72},{"city":"Wauseon","state_name":"Ohio","lat":41.57592,"lng":-84.15248,"zip":"43567","miles_from_dt":10.94},{"city":"Holgate","state_name":"Ohio","lat":41.25121,"lng":-84.1593,"zip":"43527","miles_from_dt":13.82},{"city":"West Unity","state_name":"Ohio","lat":41.58616,"lng":-84.44116,"zip":"43570","miles_from_dt":14.04},{"city":"Ney","state_name":"Ohio","lat":41.37519,"lng":-84.51818,"zip":"43549","miles_from_dt":14.29},{"city":"Liberty Center","state_name":"Ohio","lat":41.45486,"lng":-83.97008,"zip":"43532","miles_from_dt":14.89},{"city":"Grelton","state_name":"Ohio","lat":41.33875,"lng":-83.99865,"zip":"43523","miles_from_dt":15.02},{"city":"Malinta","state_name":"Ohio","lat":41.30592,"lng":-84.02416,"zip":"43535","miles_from_dt":15.1},{"city":"Fayette","state_name":"Ohio","lat":41.66377,"lng":-84.29717,"zip":"43521","miles_from_dt":15.75},{"city":"Bryan","state_name":"Ohio","lat":41.46739,"lng":-84.55704,"zip":"43506","miles_from_dt":15.77},{"city":"Colton","state_name":"Ohio","lat":41.46484,"lng":-83.94712,"zip":"43510","miles_from_dt":16.14},{"city":"Delta","state_name":"Ohio","lat":41.58656,"lng":-84.00746,"zip":"43515","miles_from_dt":16.48},{"city":"New Bavaria","state_name":"Ohio","lat":41.18867,"lng":-84.17296,"zip":"43548","miles_from_dt":17.72},{"city":"McClure","state_name":"Ohio","lat":41.35446,"lng":-83.92914,"zip":"43534","miles_from_dt":17.93},{"city":"Hamler","state_name":"Ohio","lat":41.22839,"lng":-84.039,"zip":"43524","miles_from_dt":18.33},{"city":"Kunkle","state_name":"Ohio","lat":41.63511,"lng":-84.4957,"zip":"43531","miles_from_dt":18.44},{"city":"Sherwood","state_name":"Ohio","lat":41.30575,"lng":-84.56984,"zip":"43556","miles_from_dt":18.69},{"city":"Alvordton","state_name":"Ohio","lat":41.66966,"lng":-84.46095,"zip":"43501","miles_from_dt":19.21},{"city":"Lyons","state_name":"Ohio","lat":41.69335,"lng":-84.07997,"zip":"43533","miles_from_dt":19.86},{"city":"Neapolis","state_name":"Ohio","lat":41.49214,"lng":-83.87634,"zip":"43547","miles_from_dt":20.06},{"city":"Farmer","state_name":"Ohio","lat":41.38008,"lng":-84.63565,"zip":"43520","miles_from_dt":20.12},{"city":"Mark Center","state_name":"Ohio","lat":41.31345,"lng":-84.634,"zip":"43536","miles_from_dt":21.44},{"city":"Grand Rapids","state_name":"Ohio","lat":41.42058,"lng":-83.84352,"zip":"43522","miles_from_dt":21.45},{"city":"Cecil","state_name":"Ohio","lat":41.22643,"lng":-84.56208,"zip":"45821","miles_from_dt":21.59},{"city":"Morenci","state_name":"Michigan","lat":41.74989,"lng":-84.22122,"zip":"49256","miles_from_dt":21.62},{"city":"Pioneer","state_name":"Ohio","lat":41.66024,"lng":-84.56239,"zip":"43554","miles_from_dt":22.1},{"city":"Swanton","state_name":"Ohio","lat":41.5935,"lng":-83.8781,"zip":"43558","miles_from_dt":22.35},{"city":"Waldron","state_name":"Michigan","lat":41.73534,"lng":-84.43211,"zip":"49288","miles_from_dt":22.48},{"city":"Continental","state_name":"Ohio","lat":41.11141,"lng":-84.24993,"zip":"45831","miles_from_dt":22.52},{"city":"Montpelier","state_name":"Ohio","lat":41.60575,"lng":-84.6338,"zip":"43543","miles_from_dt":22.77},{"city":"Oakwood","state_name":"Ohio","lat":41.11935,"lng":-84.39628,"zip":"45873","miles_from_dt":23.15},{"city":"Whitehouse","state_name":"Ohio","lat":41.51574,"lng":-83.81796,"zip":"43571","miles_from_dt":23.36},{"city":"Deshler","state_name":"Ohio","lat":41.21579,"lng":-83.91081,"zip":"43516","miles_from_dt":23.6},{"city":"Metamora","state_name":"Ohio","lat":41.69545,"lng":-83.943,"zip":"43540","miles_from_dt":24.07},{"city":"Milton Center","state_name":"Ohio","lat":41.30075,"lng":-83.82953,"zip":"43541","miles_from_dt":24.1},{"city":"Miller City","state_name":"Ohio","lat":41.09936,"lng":-84.14077,"zip":"45864","miles_from_dt":24.11},{"city":"Weston","state_name":"Michigan","lat":41.77144,"lng":-84.10702,"zip":"49289","miles_from_dt":24.29},{"city":"Edgerton","state_name":"Ohio","lat":41.44003,"lng":-84.72833,"zip":"43517","miles_from_dt":24.53},{"city":"Sand Creek","state_name":"Michigan","lat":41.77965,"lng":-84.10409,"zip":"49279","miles_from_dt":24.87},{"city":"Weston","state_name":"Ohio","lat":41.3513,"lng":-83.78844,"zip":"43569","miles_from_dt":25.02},{"city":"Belmore","state_name":"Ohio","lat":41.157,"lng":-83.94267,"zip":"45815","miles_from_dt":25.32},{"city":"Blakeslee","state_name":"Ohio","lat":41.52429,"lng":-84.73101,"zip":"43505","miles_from_dt":25.37},{"city":"Jasper","state_name":"Michigan","lat":41.75651,"lng":-84.01137,"zip":"49248","miles_from_dt":25.39},{"city":"Custar","state_name":"Ohio","lat":41.26384,"lng":-83.82376,"zip":"43511","miles_from_dt":25.48},{"city":"Melrose","state_name":"Ohio","lat":41.08587,"lng":-84.42569,"zip":"45861","miles_from_dt":25.84},{"city":"Leipsic","state_name":"Ohio","lat":41.11452,"lng":-83.99917,"zip":"45856","miles_from_dt":26},{"city":"Hicksville","state_name":"Ohio","lat":41.31339,"lng":-84.73024,"zip":"43526","miles_from_dt":26.1},{"city":"Waterville","state_name":"Ohio","lat":41.49467,"lng":-83.75838,"zip":"43566","miles_from_dt":26.13},{"city":"Dupont","state_name":"Ohio","lat":41.05621,"lng":-84.30029,"zip":"45837","miles_from_dt":26.43},{"city":"Paulding","state_name":"Ohio","lat":41.12918,"lng":-84.56471,"zip":"45879","miles_from_dt":26.68},{"city":"Tontogany","state_name":"Ohio","lat":41.42044,"lng":-83.74011,"zip":"43565","miles_from_dt":26.82},{"city":"Monclova","state_name":"Ohio","lat":41.56642,"lng":-83.76531,"zip":"43542","miles_from_dt":26.96},{"city":"Edon","state_name":"Ohio","lat":41.58977,"lng":-84.75385,"zip":"43518","miles_from_dt":27.88},{"city":"Berkey","state_name":"Ohio","lat":41.69736,"lng":-83.8369,"zip":"43504","miles_from_dt":28.16},{"city":"Hudson","state_name":"Michigan","lat":41.84712,"lng":-84.34189,"zip":"49247","miles_from_dt":28.6},{"city":"Haskins","state_name":"Ohio","lat":41.46663,"lng":-83.70098,"zip":"43525","miles_from_dt":28.88},{"city":"Holland","state_name":"Ohio","lat":41.62908,"lng":-83.74923,"zip":"43528","miles_from_dt":29.41},{"city":"Clayton","state_name":"Michigan","lat":41.86348,"lng":-84.21348,"zip":"49235","miles_from_dt":29.47},{"city":"Pittsford","state_name":"Michigan","lat":41.83813,"lng":-84.45382,"zip":"49271","miles_from_dt":29.47},{"city":"Latty","state_name":"Ohio","lat":41.08819,"lng":-84.5835,"zip":"45855","miles_from_dt":29.54},{"city":"Rudolph","state_name":"Ohio","lat":41.28352,"lng":-83.71887,"zip":"43462","miles_from_dt":29.88},{"city":"Camden","state_name":"Michigan","lat":41.74049,"lng":-84.66858,"zip":"49232","miles_from_dt":29.89},{"city":"Hoytville","state_name":"Ohio","lat":41.18998,"lng":-83.78431,"zip":"43529","miles_from_dt":29.91}],"targetCityZipCode":"43555","targetCityState":"Ohio"},"__N_SSG":true}