{"pageProps":{"stateName":"Texas","cityName":"bandera","nearbyCities":[{"city":"Pipe Creek","state_name":"Texas","lat":29.68793,"lng":-98.91424,"zip":"78063","miles_from_dt":11.18},{"city":"Tarpley","state_name":"Texas","lat":29.67707,"lng":-99.31851,"zip":"78883","miles_from_dt":13.45},{"city":"Center Point","state_name":"Texas","lat":29.91122,"lng":-99.04698,"zip":"78010","miles_from_dt":14.14},{"city":"Kerrville","state_name":"Texas","lat":29.90078,"lng":-99.1898,"zip":"78029","miles_from_dt":14.19},{"city":"Mico","state_name":"Texas","lat":29.53896,"lng":-98.94184,"zip":"78056","miles_from_dt":15.13},{"city":"Medina","state_name":"Texas","lat":29.8184,"lng":-99.31923,"zip":"78055","miles_from_dt":15.2},{"city":"Rio Medina","state_name":"Texas","lat":29.49065,"lng":-98.89042,"zip":"78066","miles_from_dt":19.66},{"city":"Hondo","state_name":"Texas","lat":29.41778,"lng":-99.15663,"zip":"78861","miles_from_dt":20.49},{"city":"Helotes","state_name":"Texas","lat":29.61549,"lng":-98.75443,"zip":"78023","miles_from_dt":21.7},{"city":"Comfort","state_name":"Texas","lat":29.97798,"lng":-98.90647,"zip":"78013","miles_from_dt":21.7},{"city":"Kerrville","state_name":"Texas","lat":30.04115,"lng":-99.16276,"zip":"78028","miles_from_dt":23.07},{"city":"Utopia","state_name":"Texas","lat":29.63823,"lng":-99.49308,"zip":"78884","miles_from_dt":24.27},{"city":"Waring","state_name":"Texas","lat":29.94234,"lng":-98.79214,"zip":"78074","miles_from_dt":24.33},{"city":"San Antonio","state_name":"Texas","lat":29.46899,"lng":-98.78885,"zip":"78253","miles_from_dt":24.99},{"city":"San Antonio","state_name":"Texas","lat":29.53011,"lng":-98.72805,"zip":"78254","miles_from_dt":25.52},{"city":"Boerne","state_name":"Texas","lat":29.86869,"lng":-98.71368,"zip":"78006","miles_from_dt":25.53},{"city":"San Antonio","state_name":"Texas","lat":29.64814,"lng":-98.66405,"zip":"78255","miles_from_dt":26.47},{"city":"Boerne","state_name":"Texas","lat":29.7439,"lng":-98.64785,"zip":"78015","miles_from_dt":27.17},{"city":"Castroville","state_name":"Texas","lat":29.36251,"lng":-98.88442,"zip":"78009","miles_from_dt":27.23},{"city":"Ingram","state_name":"Texas","lat":30.07971,"lng":-99.28562,"zip":"78025","miles_from_dt":27.78},{"city":"Vanderpool","state_name":"Texas","lat":29.82682,"lng":-99.54502,"zip":"78885","miles_from_dt":28.01},{"city":"San Antonio","state_name":"Texas","lat":29.62272,"lng":-98.6262,"zip":"78256","miles_from_dt":29.04},{"city":"San Antonio","state_name":"Texas","lat":29.50341,"lng":-98.66668,"zip":"78250","miles_from_dt":29.65}],"targetCityZipCode":"78003","targetCityState":"Texas"},"__N_SSG":true}