{"pageProps":{"stateName":"Texas","cityName":"batson","nearbyCities":[{"city":"Hull","state_name":"Texas","lat":30.21811,"lng":-94.65989,"zip":"77564","miles_from_dt":4.45},{"city":"Saratoga","state_name":"Texas","lat":30.29949,"lng":-94.5294,"zip":"77585","miles_from_dt":6.96},{"city":"Daisetta","state_name":"Texas","lat":30.09139,"lng":-94.59488,"zip":"77533","miles_from_dt":8.27},{"city":"Sour Lake","state_name":"Texas","lat":30.15775,"lng":-94.43279,"zip":"77659","miles_from_dt":9.88},{"city":"Hardin","state_name":"Texas","lat":30.13459,"lng":-94.73551,"zip":"77561","miles_from_dt":10.39},{"city":"Thicket","state_name":"Texas","lat":30.38226,"lng":-94.63069,"zip":"77374","miles_from_dt":12.08},{"city":"Liberty","state_name":"Texas","lat":30.07738,"lng":-94.73666,"zip":"77575","miles_from_dt":12.9},{"city":"Raywood","state_name":"Texas","lat":30.01371,"lng":-94.65497,"zip":"77582","miles_from_dt":14.22},{"city":"Devers","state_name":"Texas","lat":29.99217,"lng":-94.53976,"zip":"77538","miles_from_dt":15.34},{"city":"Kountze","state_name":"Texas","lat":30.37032,"lng":-94.3923,"zip":"77625","miles_from_dt":15.94},{"city":"Votaw","state_name":"Texas","lat":30.44422,"lng":-94.6779,"zip":"77376","miles_from_dt":16.96},{"city":"Rye","state_name":"Texas","lat":30.44296,"lng":-94.75084,"zip":"77369","miles_from_dt":18.76},{"city":"Nome","state_name":"Texas","lat":29.97476,"lng":-94.42727,"zip":"77629","miles_from_dt":18.86},{"city":"China","state_name":"Texas","lat":30.02493,"lng":-94.35393,"zip":"77613","miles_from_dt":18.91},{"city":"Cleveland","state_name":"Texas","lat":30.3262,"lng":-94.91826,"zip":"77327","miles_from_dt":21.39},{"city":"Beaumont","state_name":"Texas","lat":30.06777,"lng":-94.25716,"zip":"77713","miles_from_dt":22.03},{"city":"Romayor","state_name":"Texas","lat":30.45114,"lng":-94.8407,"zip":"77368","miles_from_dt":22.47},{"city":"Dayton","state_name":"Texas","lat":30.05129,"lng":-94.91569,"zip":"77535","miles_from_dt":22.61},{"city":"Village Mills","state_name":"Texas","lat":30.51033,"lng":-94.4052,"zip":"77663","miles_from_dt":23.26},{"city":"Lumberton","state_name":"Texas","lat":30.22549,"lng":-94.18862,"zip":"77657","miles_from_dt":23.79},{"city":"Hankamer","state_name":"Texas","lat":29.86399,"lng":-94.59643,"zip":"77560","miles_from_dt":23.93},{"city":"Ace","state_name":"Texas","lat":30.50445,"lng":-94.81661,"zip":"77326","miles_from_dt":24.45},{"city":"Beaumont","state_name":"Texas","lat":30.10049,"lng":-94.16717,"zip":"77706","miles_from_dt":26.2},{"city":"Beaumont","state_name":"Texas","lat":30.14747,"lng":-94.15128,"zip":"77708","miles_from_dt":26.38},{"city":"Beaumont","state_name":"Texas","lat":30.05323,"lng":-94.1748,"zip":"77707","miles_from_dt":26.92},{"city":"Wallisville","state_name":"Texas","lat":29.82811,"lng":-94.69521,"zip":"77597","miles_from_dt":27.19},{"city":"Beaumont","state_name":"Texas","lat":30.09111,"lng":-94.14596,"zip":"77726","miles_from_dt":27.61},{"city":"Beaumont","state_name":"Texas","lat":30.03555,"lng":-94.15923,"zip":"77720","miles_from_dt":28.27},{"city":"Warren","state_name":"Texas","lat":30.58901,"lng":-94.39529,"zip":"77664","miles_from_dt":28.4},{"city":"Dallardsville","state_name":"Texas","lat":30.6262,"lng":-94.63094,"zip":"77332","miles_from_dt":28.71},{"city":"Beaumont","state_name":"Texas","lat":30.08624,"lng":-94.12825,"zip":"77702","miles_from_dt":28.72},{"city":"Silsbee","state_name":"Texas","lat":30.42866,"lng":-94.16887,"zip":"77656","miles_from_dt":29.08},{"city":"Beaumont","state_name":"Texas","lat":30.11522,"lng":-94.10906,"zip":"77703","miles_from_dt":29.3},{"city":"Hamshire","state_name":"Texas","lat":29.85741,"lng":-94.29467,"zip":"77622","miles_from_dt":29.98}],"targetCityZipCode":"77519","targetCityState":"Texas"},"__N_SSG":true}