{"pageProps":{"stateName":"Texas","cityName":"belmont","nearbyCities":[{"city":"Ottine","state_name":"Texas","lat":29.59339,"lng":-97.62661,"zip":"78658","miles_from_dt":5.83},{"city":"Leesville","state_name":"Texas","lat":29.44512,"lng":-97.72212,"zip":"78122","miles_from_dt":5.94},{"city":"Cost","state_name":"Texas","lat":29.41314,"lng":-97.59429,"zip":"78614","miles_from_dt":9.28},{"city":"Kingsbury","state_name":"Texas","lat":29.65821,"lng":-97.79595,"zip":"78638","miles_from_dt":11.52},{"city":"Luling","state_name":"Texas","lat":29.69594,"lng":-97.63827,"zip":"78648","miles_from_dt":12.14},{"city":"Wrightsboro","state_name":"Texas","lat":29.34174,"lng":-97.59335,"zip":"78677","miles_from_dt":13.64},{"city":"Gonzales","state_name":"Texas","lat":29.47762,"lng":-97.45093,"zip":"78629","miles_from_dt":14.28},{"city":"Prairie Lea","state_name":"Texas","lat":29.72925,"lng":-97.74212,"zip":"78661","miles_from_dt":14.6},{"city":"Seguin","state_name":"Texas","lat":29.56732,"lng":-97.93086,"zip":"78156","miles_from_dt":15.29},{"city":"Seguin","state_name":"Texas","lat":29.53305,"lng":-97.93832,"zip":"78155","miles_from_dt":15.46},{"city":"Nixon","state_name":"Texas","lat":29.30758,"lng":-97.7619,"zip":"78140","miles_from_dt":15.66},{"city":"Harwood","state_name":"Texas","lat":29.68866,"lng":-97.46858,"zip":"78632","miles_from_dt":17.14},{"city":"Fentress","state_name":"Texas","lat":29.77225,"lng":-97.78229,"zip":"78622","miles_from_dt":18.14},{"city":"Staples","state_name":"Texas","lat":29.76267,"lng":-97.84608,"zip":"78670","miles_from_dt":19.18},{"city":"Pandora","state_name":"Texas","lat":29.26267,"lng":-97.86085,"zip":"78143","miles_from_dt":20.98},{"city":"Smiley","state_name":"Texas","lat":29.23031,"lng":-97.58247,"zip":"78159","miles_from_dt":21.09},{"city":"Geronimo","state_name":"Texas","lat":29.61024,"lng":-98.02557,"zip":"78115","miles_from_dt":21.53},{"city":"McQueeney","state_name":"Texas","lat":29.60056,"lng":-98.04236,"zip":"78123","miles_from_dt":22.34},{"city":"Martindale","state_name":"Texas","lat":29.82346,"lng":-97.83517,"zip":"78655","miles_from_dt":22.6},{"city":"Lockhart","state_name":"Texas","lat":29.87111,"lng":-97.67292,"zip":"78644","miles_from_dt":23.92},{"city":"Stockdale","state_name":"Texas","lat":29.24182,"lng":-97.9285,"zip":"78160","miles_from_dt":24.47},{"city":"Waelder","state_name":"Texas","lat":29.69877,"lng":-97.30153,"zip":"78959","miles_from_dt":25.87},{"city":"New Braunfels","state_name":"Texas","lat":29.69224,"lng":-98.06877,"zip":"78130","miles_from_dt":26.01},{"city":"Westhoff","state_name":"Texas","lat":29.17977,"lng":-97.46563,"zip":"77994","miles_from_dt":27.06},{"city":"Maxwell","state_name":"Texas","lat":29.90275,"lng":-97.8089,"zip":"78656","miles_from_dt":27.19},{"city":"Sutherland Springs","state_name":"Texas","lat":29.28741,"lng":-98.05012,"zip":"78161","miles_from_dt":27.54},{"city":"San Marcos","state_name":"Texas","lat":29.85831,"lng":-97.94297,"zip":"78667","miles_from_dt":27.87},{"city":"La Vernia","state_name":"Texas","lat":29.35118,"lng":-98.10241,"zip":"78121","miles_from_dt":28},{"city":"Marion","state_name":"Texas","lat":29.5585,"lng":-98.15176,"zip":"78124","miles_from_dt":28.4},{"city":"Gillett","state_name":"Texas","lat":29.11275,"lng":-97.75677,"zip":"78116","miles_from_dt":28.68},{"city":"Dale","state_name":"Texas","lat":29.92687,"lng":-97.55655,"zip":"78616","miles_from_dt":28.76},{"city":"New Braunfels","state_name":"Texas","lat":29.70387,"lng":-98.11752,"zip":"78135","miles_from_dt":29}],"targetCityZipCode":"78604","targetCityState":"Texas"},"__N_SSG":true}