{"pageProps":{"stateName":"Texas","cityName":"brazoria","nearbyCities":[{"city":"Lake Jackson","state_name":"Texas","lat":29.04971,"lng":-95.47511,"zip":"77566","miles_from_dt":8.31},{"city":"Cedar Lane","state_name":"Texas","lat":28.93425,"lng":-95.72035,"zip":"77415","miles_from_dt":9.19},{"city":"Bay City","state_name":"Texas","lat":28.83214,"lng":-95.67105,"zip":"77404","miles_from_dt":10.92},{"city":"Clute","state_name":"Texas","lat":29.03895,"lng":-95.40071,"zip":"77531","miles_from_dt":11.59},{"city":"Freeport","state_name":"Texas","lat":28.95116,"lng":-95.36328,"zip":"77542","miles_from_dt":12.72},{"city":"Old Ocean","state_name":"Texas","lat":29.07739,"lng":-95.74824,"zip":"77463","miles_from_dt":13.15},{"city":"West Columbia","state_name":"Texas","lat":29.15495,"lng":-95.6805,"zip":"77486","miles_from_dt":14.62},{"city":"Sweeny","state_name":"Texas","lat":29.09388,"lng":-95.76692,"zip":"77480","miles_from_dt":14.73},{"city":"Freeport","state_name":"Texas","lat":29.01496,"lng":-95.32667,"zip":"77541","miles_from_dt":15.29},{"city":"Angleton","state_name":"Texas","lat":29.17604,"lng":-95.44955,"zip":"77515","miles_from_dt":16.34},{"city":"Angleton","state_name":"Texas","lat":29.16884,"lng":-95.43136,"zip":"77516","miles_from_dt":16.44},{"city":"Danciger","state_name":"Texas","lat":29.13239,"lng":-95.82309,"zip":"77431","miles_from_dt":19.04},{"city":"Bay City","state_name":"Texas","lat":28.90601,"lng":-95.8935,"zip":"77414","miles_from_dt":19.86},{"city":"Van Vleck","state_name":"Texas","lat":29.09351,"lng":-95.88411,"zip":"77482","miles_from_dt":20.83},{"city":"Pledger","state_name":"Texas","lat":29.14681,"lng":-95.85173,"zip":"77468","miles_from_dt":21.03},{"city":"Damon","state_name":"Texas","lat":29.26487,"lng":-95.65616,"zip":"77430","miles_from_dt":21.27},{"city":"Wadsworth","state_name":"Texas","lat":28.77467,"lng":-95.86638,"zip":"77483","miles_from_dt":22.11},{"city":"Danbury","state_name":"Texas","lat":29.21335,"lng":-95.30387,"zip":"77534","miles_from_dt":23.6},{"city":"Guy","state_name":"Texas","lat":29.29641,"lng":-95.77794,"zip":"77444","miles_from_dt":25.99},{"city":"Liverpool","state_name":"Texas","lat":29.25966,"lng":-95.26731,"zip":"77577","miles_from_dt":27.44},{"city":"Boling","state_name":"Texas","lat":29.23404,"lng":-95.91908,"zip":"77420","miles_from_dt":27.97},{"city":"Matagorda","state_name":"Texas","lat":28.70119,"lng":-95.94076,"zip":"77457","miles_from_dt":28.78},{"city":"Rosharon","state_name":"Texas","lat":29.37763,"lng":-95.4585,"zip":"77583","miles_from_dt":29.25}],"targetCityZipCode":"77422","targetCityState":"Texas"},"__N_SSG":true}