{"pageProps":{"stateName":"Texas","cityName":"bridgeport","nearbyCities":[{"city":"Paradise","state_name":"Texas","lat":33.10416,"lng":-97.72571,"zip":"76073","miles_from_dt":7.73},{"city":"Chico","state_name":"Texas","lat":33.31066,"lng":-97.86228,"zip":"76431","miles_from_dt":10.14},{"city":"Poolville","state_name":"Texas","lat":32.97912,"lng":-97.88346,"zip":"76487","miles_from_dt":13.08},{"city":"Springtown","state_name":"Texas","lat":32.97098,"lng":-97.71783,"zip":"76082","miles_from_dt":15.07},{"city":"Boyd","state_name":"Texas","lat":33.04777,"lng":-97.60425,"zip":"76023","miles_from_dt":15.77},{"city":"Perrin","state_name":"Texas","lat":33.02138,"lng":-98.05618,"zip":"76486","miles_from_dt":16.08},{"city":"Alvord","state_name":"Texas","lat":33.36616,"lng":-97.67345,"zip":"76225","miles_from_dt":16.82},{"city":"Whitt","state_name":"Texas","lat":32.95721,"lng":-98.04033,"zip":"76490","miles_from_dt":18.52},{"city":"Decatur","state_name":"Texas","lat":33.27587,"lng":-97.51404,"zip":"76234","miles_from_dt":20.25},{"city":"Peaster","state_name":"Texas","lat":32.87199,"lng":-97.86913,"zip":"76485","miles_from_dt":20.27},{"city":"Sunset","state_name":"Texas","lat":33.45471,"lng":-97.76247,"zip":"76270","miles_from_dt":20.44},{"city":"Jacksboro","state_name":"Texas","lat":33.21518,"lng":-98.18944,"zip":"76458","miles_from_dt":20.67},{"city":"Rhome","state_name":"Texas","lat":33.0896,"lng":-97.46647,"zip":"76078","miles_from_dt":22.14},{"city":"Weatherford","state_name":"Texas","lat":32.84554,"lng":-97.90345,"zip":"76088","miles_from_dt":22.34},{"city":"Weatherford","state_name":"Texas","lat":32.84907,"lng":-97.70051,"zip":"76085","miles_from_dt":23.18},{"city":"Newark","state_name":"Texas","lat":33.00613,"lng":-97.47821,"zip":"76071","miles_from_dt":23.55},{"city":"Azle","state_name":"Texas","lat":32.90102,"lng":-97.56483,"zip":"76020","miles_from_dt":24.12},{"city":"Azle","state_name":"Texas","lat":32.89871,"lng":-97.54091,"zip":"76098","miles_from_dt":25.17},{"city":"Bowie","state_name":"Texas","lat":33.52264,"lng":-97.94497,"zip":"76230","miles_from_dt":25.42},{"city":"Greenwood","state_name":"Texas","lat":33.3785,"lng":-97.47447,"zip":"76246","miles_from_dt":25.67},{"city":"Fort Worth","state_name":"Texas","lat":32.93294,"lng":-97.43525,"zip":"76192","miles_from_dt":28.31},{"city":"Weatherford","state_name":"Texas","lat":32.75345,"lng":-97.78909,"zip":"76086","miles_from_dt":28.5},{"city":"Fort Worth","state_name":"Texas","lat":32.89938,"lng":-97.45812,"zip":"76136","miles_from_dt":28.64},{"city":"Fort Worth","state_name":"Texas","lat":32.91397,"lng":-97.43947,"zip":"76179","miles_from_dt":28.87},{"city":"Slidell","state_name":"Texas","lat":33.36935,"lng":-97.39711,"zip":"76267","miles_from_dt":29.14},{"city":"Forestburg","state_name":"Texas","lat":33.524,"lng":-97.57033,"zip":"76239","miles_from_dt":29.18},{"city":"Mineral Wells","state_name":"Texas","lat":32.80795,"lng":-98.1126,"zip":"76068","miles_from_dt":29.33},{"city":"Haslet","state_name":"Texas","lat":32.98205,"lng":-97.38037,"zip":"76052","miles_from_dt":29.38},{"city":"Justin","state_name":"Texas","lat":33.0965,"lng":-97.33154,"zip":"76247","miles_from_dt":29.73}],"targetCityZipCode":"76426","targetCityState":"Texas"},"__N_SSG":true}