{"pageProps":{"stateName":"Texas","cityName":"briggs","nearbyCities":[{"city":"Killeen","state_name":"Texas","lat":31.01583,"lng":-97.82546,"zip":"76549","miles_from_dt":8.49},{"city":"Florence","state_name":"Texas","lat":30.8379,"lng":-97.79531,"zip":"76527","miles_from_dt":10.51},{"city":"Kempner","state_name":"Texas","lat":31.09193,"lng":-97.9992,"zip":"76539","miles_from_dt":11.57},{"city":"Bertram","state_name":"Texas","lat":30.77366,"lng":-98.04663,"zip":"78605","miles_from_dt":12.97},{"city":"Killeen","state_name":"Texas","lat":31.00062,"lng":-97.7274,"zip":"76542","miles_from_dt":13.01},{"city":"Liberty Hill","state_name":"Texas","lat":30.6946,"lng":-97.94087,"zip":"78642","miles_from_dt":16.51},{"city":"Georgetown","state_name":"Texas","lat":30.73803,"lng":-97.75465,"zip":"78633","miles_from_dt":17.15},{"city":"Killeen","state_name":"Texas","lat":31.11447,"lng":-97.72922,"zip":"76541","miles_from_dt":17.32},{"city":"Killeen","state_name":"Texas","lat":31.11894,"lng":-97.7266,"zip":"76547","miles_from_dt":17.65},{"city":"Killeen","state_name":"Texas","lat":31.12162,"lng":-97.72045,"zip":"76540","miles_from_dt":18.03},{"city":"Harker Heights","state_name":"Texas","lat":31.05299,"lng":-97.64613,"zip":"76548","miles_from_dt":18.87},{"city":"Copperas Cove","state_name":"Texas","lat":31.21577,"lng":-97.97215,"zip":"76522","miles_from_dt":19.55},{"city":"Lampasas","state_name":"Texas","lat":31.07714,"lng":-98.22165,"zip":"76550","miles_from_dt":19.78},{"city":"Salado","state_name":"Texas","lat":30.93305,"lng":-97.58448,"zip":"76571","miles_from_dt":20.67},{"city":"Jarrell","state_name":"Texas","lat":30.81779,"lng":-97.60645,"zip":"76537","miles_from_dt":20.97},{"city":"Nolanville","state_name":"Texas","lat":31.07987,"lng":-97.61079,"zip":"76559","miles_from_dt":21.57},{"city":"Killeen","state_name":"Texas","lat":31.12343,"lng":-97.64077,"zip":"76543","miles_from_dt":21.67},{"city":"Burnet","state_name":"Texas","lat":30.79188,"lng":-98.26663,"zip":"78611","miles_from_dt":22.14},{"city":"Fort Hood","state_name":"Texas","lat":31.23134,"lng":-97.75867,"zip":"76544","miles_from_dt":22.93},{"city":"Georgetown","state_name":"Texas","lat":30.63981,"lng":-97.74636,"zip":"78628","miles_from_dt":23.1},{"city":"Leander","state_name":"Texas","lat":30.57956,"lng":-97.84926,"zip":"78646","miles_from_dt":24.92},{"city":"Walburg","state_name":"Texas","lat":30.73653,"lng":-97.5776,"zip":"78673","miles_from_dt":25.11},{"city":"Georgetown","state_name":"Texas","lat":30.63698,"lng":-97.67465,"zip":"78627","miles_from_dt":25.58},{"city":"Leander","state_name":"Texas","lat":30.55851,"lng":-97.91473,"zip":"78641","miles_from_dt":25.9},{"city":"Schwertner","state_name":"Texas","lat":30.81864,"lng":-97.50226,"zip":"76573","miles_from_dt":26.78},{"city":"Belton","state_name":"Texas","lat":31.05777,"lng":-97.50369,"zip":"76513","miles_from_dt":26.84},{"city":"Weir","state_name":"Texas","lat":30.67213,"lng":-97.59653,"zip":"78674","miles_from_dt":26.92},{"city":"Georgetown","state_name":"Texas","lat":30.66664,"lng":-97.59878,"zip":"78626","miles_from_dt":27.08},{"city":"Marble Falls","state_name":"Texas","lat":30.57112,"lng":-98.20982,"zip":"78654","miles_from_dt":29.96}],"targetCityZipCode":"78608","targetCityState":"Texas"},"__N_SSG":true}