{"pageProps":{"stateName":"Texas","cityName":"bronte","nearbyCities":[{"city":"Norton","state_name":"Texas","lat":31.84944,"lng":-100.13663,"zip":"76865","miles_from_dt":8.94},{"city":"Tennyson","state_name":"Texas","lat":31.72871,"lng":-100.32078,"zip":"76953","miles_from_dt":10.37},{"city":"Blackwell","state_name":"Texas","lat":32.11366,"lng":-100.32613,"zip":"79506","miles_from_dt":16.54},{"city":"Robert Lee","state_name":"Texas","lat":31.87297,"lng":-100.60292,"zip":"76945","miles_from_dt":18.67},{"city":"Winters","state_name":"Texas","lat":31.97678,"lng":-99.97787,"zip":"79567","miles_from_dt":19.36},{"city":"Miles","state_name":"Texas","lat":31.59216,"lng":-100.19637,"zip":"76861","miles_from_dt":20.26},{"city":"Wingate","state_name":"Texas","lat":32.15454,"lng":-100.1098,"zip":"79566","miles_from_dt":21.78},{"city":"Ballinger","state_name":"Texas","lat":31.73862,"lng":-99.94963,"zip":"76821","miles_from_dt":21.91},{"city":"Rowena","state_name":"Texas","lat":31.59928,"lng":-100.00749,"zip":"76875","miles_from_dt":25.14},{"city":"Silver","state_name":"Texas","lat":32.04166,"lng":-100.6818,"zip":"76949","miles_from_dt":25.92},{"city":"San Angelo","state_name":"Texas","lat":31.49987,"lng":-100.31583,"zip":"76905","miles_from_dt":25.99},{"city":"Maryneal","state_name":"Texas","lat":32.2219,"lng":-100.48421,"zip":"79535","miles_from_dt":26.52},{"city":"Nolan","state_name":"Texas","lat":32.28033,"lng":-100.21402,"zip":"79537","miles_from_dt":28.16},{"city":"San Angelo","state_name":"Texas","lat":31.48168,"lng":-100.43787,"zip":"76903","miles_from_dt":28.63},{"city":"Carlsbad","state_name":"Texas","lat":31.61491,"lng":-100.67661,"zip":"76934","miles_from_dt":29.23}],"targetCityZipCode":"76933","targetCityState":"Texas"},"__N_SSG":true}