{"pageProps":{"stateName":"Texas","cityName":"brownsboro","nearbyCities":[{"city":"Chandler","state_name":"Texas","lat":32.27375,"lng":-95.50484,"zip":"75758","miles_from_dt":5.74},{"city":"Murchison","state_name":"Texas","lat":32.30239,"lng":-95.71367,"zip":"75778","miles_from_dt":6.79},{"city":"Ben Wheeler","state_name":"Texas","lat":32.42431,"lng":-95.66462,"zip":"75754","miles_from_dt":9.4},{"city":"Larue","state_name":"Texas","lat":32.14058,"lng":-95.64694,"zip":"75770","miles_from_dt":11.38},{"city":"Tyler","state_name":"Texas","lat":32.40616,"lng":-95.4407,"zip":"75704","miles_from_dt":11.73},{"city":"Flint","state_name":"Texas","lat":32.21926,"lng":-95.41218,"zip":"75762","miles_from_dt":12.21},{"city":"Tyler","state_name":"Texas","lat":32.31323,"lng":-95.38904,"zip":"75709","miles_from_dt":12.24},{"city":"Athens","state_name":"Texas","lat":32.24239,"lng":-95.80751,"zip":"75752","miles_from_dt":12.91},{"city":"Van","state_name":"Texas","lat":32.52749,"lng":-95.64255,"zip":"75790","miles_from_dt":15.87},{"city":"Poynor","state_name":"Texas","lat":32.0693,"lng":-95.58777,"zip":"75782","miles_from_dt":15.93},{"city":"Tyler","state_name":"Texas","lat":32.23825,"lng":-95.31947,"zip":"75703","miles_from_dt":16.84},{"city":"Tyler","state_name":"Texas","lat":32.36482,"lng":-95.31767,"zip":"75710","miles_from_dt":16.98},{"city":"Tyler","state_name":"Texas","lat":32.36403,"lng":-95.31207,"zip":"75702","miles_from_dt":17.28},{"city":"Tyler","state_name":"Texas","lat":32.32849,"lng":-95.30378,"zip":"75799","miles_from_dt":17.31},{"city":"Tyler","state_name":"Texas","lat":32.32297,"lng":-95.29679,"zip":"75701","miles_from_dt":17.68},{"city":"Tyler","state_name":"Texas","lat":32.3241,"lng":-95.29374,"zip":"75713","miles_from_dt":17.86},{"city":"Tyler","state_name":"Texas","lat":32.32364,"lng":-95.29306,"zip":"75712","miles_from_dt":17.9},{"city":"Frankston","state_name":"Texas","lat":32.04154,"lng":-95.52231,"zip":"75763","miles_from_dt":18.37},{"city":"Tyler","state_name":"Texas","lat":32.33448,"lng":-95.28552,"zip":"75798","miles_from_dt":18.42},{"city":"Tyler","state_name":"Texas","lat":32.33698,"lng":-95.28382,"zip":"75711","miles_from_dt":18.54},{"city":"Lindale","state_name":"Texas","lat":32.53542,"lng":-95.43006,"zip":"75771","miles_from_dt":18.93},{"city":"Bullard","state_name":"Texas","lat":32.11584,"lng":-95.34933,"zip":"75757","miles_from_dt":19.32},{"city":"Tyler","state_name":"Texas","lat":32.46822,"lng":-95.30402,"zip":"75706","miles_from_dt":20.71},{"city":"Cuney","state_name":"Texas","lat":32.03617,"lng":-95.41573,"zip":"75759","miles_from_dt":21.1},{"city":"Eustace","state_name":"Texas","lat":32.32579,"lng":-95.96932,"zip":"75124","miles_from_dt":21.82},{"city":"Canton","state_name":"Texas","lat":32.51201,"lng":-95.88363,"zip":"75103","miles_from_dt":22.18},{"city":"Whitehouse","state_name":"Texas","lat":32.22214,"lng":-95.22103,"zip":"75791","miles_from_dt":22.7},{"city":"Athens","state_name":"Texas","lat":32.07875,"lng":-95.91661,"zip":"75751","miles_from_dt":24.13},{"city":"Tyler","state_name":"Texas","lat":32.41436,"lng":-95.20717,"zip":"75708","miles_from_dt":24.16},{"city":"Grand Saline","state_name":"Texas","lat":32.64485,"lng":-95.68854,"zip":"75140","miles_from_dt":24.33},{"city":"Tyler","state_name":"Texas","lat":32.30479,"lng":-95.171,"zip":"75707","miles_from_dt":24.97},{"city":"Malakoff","state_name":"Texas","lat":32.12491,"lng":-96.01173,"zip":"75148","miles_from_dt":27.1},{"city":"Mineola","state_name":"Texas","lat":32.67969,"lng":-95.44654,"zip":"75773","miles_from_dt":27.59},{"city":"Montalba","state_name":"Texas","lat":31.93488,"lng":-95.80963,"zip":"75853","miles_from_dt":28.08},{"city":"Mabank","state_name":"Texas","lat":32.42256,"lng":-96.06517,"zip":"75147","miles_from_dt":28.61},{"city":"Tyler","state_name":"Texas","lat":32.35905,"lng":-95.10149,"zip":"75705","miles_from_dt":29.31},{"city":"Fruitvale","state_name":"Texas","lat":32.6926,"lng":-95.79262,"zip":"75127","miles_from_dt":29.33},{"city":"Mabank","state_name":"Texas","lat":32.28759,"lng":-96.09999,"zip":"75156","miles_from_dt":29.41},{"city":"Palestine","state_name":"Texas","lat":31.87513,"lng":-95.66704,"zip":"75803","miles_from_dt":29.58}],"targetCityZipCode":"75756","targetCityState":"Texas"},"__N_SSG":true}