{"pageProps":{"stateName":"Texas","cityName":"caddo","nearbyCities":[{"city":"Strawn","state_name":"Texas","lat":32.65296,"lng":-98.51281,"zip":"76475","miles_from_dt":11.44},{"city":"Breckenridge","state_name":"Texas","lat":32.80431,"lng":-98.89236,"zip":"76424","miles_from_dt":13.29},{"city":"Ranger","state_name":"Texas","lat":32.49977,"lng":-98.6686,"zip":"76470","miles_from_dt":17.07},{"city":"South Bend","state_name":"Texas","lat":32.99706,"lng":-98.70977,"zip":"76481","miles_from_dt":17.33},{"city":"Palo Pinto","state_name":"Texas","lat":32.73147,"lng":-98.30551,"zip":"76484","miles_from_dt":21.5},{"city":"Graham","state_name":"Texas","lat":33.05968,"lng":-98.64152,"zip":"76450","miles_from_dt":21.6},{"city":"Olden","state_name":"Texas","lat":32.42887,"lng":-98.7332,"zip":"76466","miles_from_dt":22.22},{"city":"Gordon","state_name":"Texas","lat":32.57202,"lng":-98.33908,"zip":"76453","miles_from_dt":22.98},{"city":"Graford","state_name":"Texas","lat":32.91592,"lng":-98.32512,"zip":"76449","miles_from_dt":23.4},{"city":"Mingus","state_name":"Texas","lat":32.455,"lng":-98.41516,"zip":"76463","miles_from_dt":25.19},{"city":"Eastland","state_name":"Texas","lat":32.39257,"lng":-98.79541,"zip":"76448","miles_from_dt":25.45}],"targetCityZipCode":"76429","targetCityState":"Texas"},"__N_SSG":true}