{"pageProps":{"stateName":"Texas","cityName":"crandall","nearbyCities":[{"city":"Seagoville","state_name":"Texas","lat":32.60652,"lng":-96.53939,"zip":"75159","miles_from_dt":5.61},{"city":"Forney","state_name":"Texas","lat":32.74361,"lng":-96.45289,"zip":"75126","miles_from_dt":9.38},{"city":"Rosser","state_name":"Texas","lat":32.46168,"lng":-96.44914,"zip":"75157","miles_from_dt":10.07},{"city":"Scurry","state_name":"Texas","lat":32.46694,"lng":-96.39315,"zip":"75158","miles_from_dt":10.13},{"city":"Mesquite","state_name":"Texas","lat":32.72696,"lng":-96.555,"zip":"75181","miles_from_dt":10.49},{"city":"Dallas","state_name":"Texas","lat":32.67278,"lng":-96.61171,"zip":"75253","miles_from_dt":10.8},{"city":"Dallas","state_name":"Texas","lat":32.67456,"lng":-96.61981,"zip":"75336","miles_from_dt":11.28},{"city":"Ferris","state_name":"Texas","lat":32.52983,"lng":-96.61563,"zip":"75125","miles_from_dt":11.4},{"city":"Kaufman","state_name":"Texas","lat":32.57004,"lng":-96.24637,"zip":"75142","miles_from_dt":11.77},{"city":"Balch Springs","state_name":"Texas","lat":32.71937,"lng":-96.61841,"zip":"75180","miles_from_dt":12.79},{"city":"Wilmer","state_name":"Texas","lat":32.60369,"lng":-96.67458,"zip":"75172","miles_from_dt":13.5},{"city":"Terrell","state_name":"Texas","lat":32.76466,"lng":-96.29835,"zip":"75160","miles_from_dt":13.72},{"city":"Elmo","state_name":"Texas","lat":32.68509,"lng":-96.21459,"zip":"75118","miles_from_dt":14.36},{"city":"Hutchins","state_name":"Texas","lat":32.63984,"lng":-96.69257,"zip":"75141","miles_from_dt":14.71},{"city":"Sunnyvale","state_name":"Texas","lat":32.80033,"lng":-96.55425,"zip":"75182","miles_from_dt":14.77},{"city":"Mesquite","state_name":"Texas","lat":32.77041,"lng":-96.61405,"zip":"75187","miles_from_dt":14.99},{"city":"Mesquite","state_name":"Texas","lat":32.76994,"lng":-96.6151,"zip":"75149","miles_from_dt":15.01},{"city":"Mesquite","state_name":"Texas","lat":32.77161,"lng":-96.61649,"zip":"75185","miles_from_dt":15.15},{"city":"Dallas","state_name":"Texas","lat":32.71291,"lng":-96.68243,"zip":"75217","miles_from_dt":15.72},{"city":"Rockwall","state_name":"Texas","lat":32.85756,"lng":-96.42858,"zip":"75032","miles_from_dt":17.24},{"city":"Palmer","state_name":"Texas","lat":32.43598,"lng":-96.67444,"zip":"75152","miles_from_dt":17.95},{"city":"Mesquite","state_name":"Texas","lat":32.81545,"lng":-96.6308,"zip":"75150","miles_from_dt":18.01},{"city":"Lancaster","state_name":"Texas","lat":32.57608,"lng":-96.75137,"zip":"75146","miles_from_dt":18.11},{"city":"Dallas","state_name":"Texas","lat":32.77046,"lng":-96.68748,"zip":"75389","miles_from_dt":18.12},{"city":"Terrell","state_name":"Texas","lat":32.73609,"lng":-96.17129,"zip":"75161","miles_from_dt":18.15},{"city":"Dallas","state_name":"Texas","lat":32.77044,"lng":-96.68831,"zip":"75227","miles_from_dt":18.16},{"city":"Dallas","state_name":"Texas","lat":32.667,"lng":-96.75903,"zip":"75241","miles_from_dt":18.86},{"city":"Garland","state_name":"Texas","lat":32.8571,"lng":-96.57986,"zip":"75043","miles_from_dt":18.94},{"city":"Garland","state_name":"Texas","lat":32.85894,"lng":-96.60296,"zip":"75049","miles_from_dt":19.66},{"city":"Lancaster","state_name":"Texas","lat":32.62308,"lng":-96.78007,"zip":"75134","miles_from_dt":19.67},{"city":"Dallas","state_name":"Texas","lat":32.7384,"lng":-96.74637,"zip":"75277","miles_from_dt":19.83},{"city":"Kemp","state_name":"Texas","lat":32.36334,"lng":-96.24929,"zip":"75143","miles_from_dt":20.29},{"city":"Dallas","state_name":"Texas","lat":32.82493,"lng":-96.67888,"zip":"75357","miles_from_dt":20.31},{"city":"Dallas","state_name":"Texas","lat":32.82456,"lng":-96.6805,"zip":"75228","miles_from_dt":20.36},{"city":"Ennis","state_name":"Texas","lat":32.35419,"lng":-96.62592,"zip":"75120","miles_from_dt":20.47},{"city":"Rowlett","state_name":"Texas","lat":32.89368,"lng":-96.53929,"zip":"75088","miles_from_dt":20.49},{"city":"Dallas","state_name":"Texas","lat":32.77141,"lng":-96.74618,"zip":"75210","miles_from_dt":20.95},{"city":"Dallas","state_name":"Texas","lat":32.75259,"lng":-96.76075,"zip":"75215","miles_from_dt":21.03},{"city":"Dallas","state_name":"Texas","lat":32.71158,"lng":-96.78256,"zip":"75216","miles_from_dt":21.04},{"city":"Dallas","state_name":"Texas","lat":32.71643,"lng":-96.78307,"zip":"75339","miles_from_dt":21.18},{"city":"Rowlett","state_name":"Texas","lat":32.89992,"lng":-96.56373,"zip":"75030","miles_from_dt":21.33},{"city":"Ennis","state_name":"Texas","lat":32.32293,"lng":-96.59107,"zip":"75119","miles_from_dt":21.44},{"city":"Dallas","state_name":"Texas","lat":32.83089,"lng":-96.70619,"zip":"75394","miles_from_dt":21.71},{"city":"Dallas","state_name":"Texas","lat":32.79255,"lng":-96.74556,"zip":"75223","miles_from_dt":21.74},{"city":"Garland","state_name":"Texas","lat":32.87625,"lng":-96.64711,"zip":"75047","miles_from_dt":21.99},{"city":"Dallas","state_name":"Texas","lat":32.7705,"lng":-96.76912,"zip":"75315","miles_from_dt":22.06},{"city":"Red Oak","state_name":"Texas","lat":32.52319,"lng":-96.80885,"zip":"75154","miles_from_dt":22.12},{"city":"Dallas","state_name":"Texas","lat":32.84136,"lng":-96.70357,"zip":"75218","miles_from_dt":22.12},{"city":"Garland","state_name":"Texas","lat":32.88101,"lng":-96.65149,"zip":"75041","miles_from_dt":22.4},{"city":"Dallas","state_name":"Texas","lat":32.78037,"lng":-96.77601,"zip":"75303","miles_from_dt":22.75},{"city":"Dallas","state_name":"Texas","lat":32.78315,"lng":-96.77654,"zip":"75226","miles_from_dt":22.88},{"city":"Dallas","state_name":"Texas","lat":32.74439,"lng":-96.80206,"zip":"75203","miles_from_dt":22.94},{"city":"Dallas","state_name":"Texas","lat":32.69181,"lng":-96.82438,"zip":"75221","miles_from_dt":22.96},{"city":"Dallas","state_name":"Texas","lat":32.79162,"lng":-96.77262,"zip":"75371","miles_from_dt":23},{"city":"Dallas","state_name":"Texas","lat":32.79296,"lng":-96.77322,"zip":"75246","miles_from_dt":23.08},{"city":"Dallas","state_name":"Texas","lat":32.81282,"lng":-96.75656,"zip":"75359","miles_from_dt":23.09},{"city":"Fate","state_name":"Texas","lat":32.93865,"lng":-96.38046,"zip":"75132","miles_from_dt":23.1},{"city":"Rowlett","state_name":"Texas","lat":32.93195,"lng":-96.54435,"zip":"75089","miles_from_dt":23.11},{"city":"Dallas","state_name":"Texas","lat":32.82899,"lng":-96.74348,"zip":"75214","miles_from_dt":23.21},{"city":"Rockwall","state_name":"Texas","lat":32.94581,"lng":-96.44136,"zip":"75087","miles_from_dt":23.3},{"city":"Dallas","state_name":"Texas","lat":32.65878,"lng":-96.83968,"zip":"75232","miles_from_dt":23.38},{"city":"Dallas","state_name":"Texas","lat":32.77784,"lng":-96.79863,"zip":"75320","miles_from_dt":23.8},{"city":"Chatfield","state_name":"Texas","lat":32.26717,"lng":-96.36682,"zip":"75105","miles_from_dt":23.89},{"city":"Dallas","state_name":"Texas","lat":32.77596,"lng":-96.80374,"zip":"75242","miles_from_dt":24},{"city":"Dallas","state_name":"Texas","lat":32.78296,"lng":-96.80016,"zip":"75250","miles_from_dt":24.05},{"city":"Dallas","state_name":"Texas","lat":32.77843,"lng":-96.8037,"zip":"75202","miles_from_dt":24.08},{"city":"Dallas","state_name":"Texas","lat":32.78126,"lng":-96.80192,"zip":"75270","miles_from_dt":24.08},{"city":"Dallas","state_name":"Texas","lat":32.70894,"lng":-96.83894,"zip":"75395","miles_from_dt":24.1},{"city":"Dallas","state_name":"Texas","lat":32.7856,"lng":-96.79985,"zip":"75313","miles_from_dt":24.13},{"city":"Dallas","state_name":"Texas","lat":32.71157,"lng":-96.83922,"zip":"75376","miles_from_dt":24.17},{"city":"Dallas","state_name":"Texas","lat":32.71117,"lng":-96.83953,"zip":"75224","miles_from_dt":24.18},{"city":"Dallas","state_name":"Texas","lat":32.80216,"lng":-96.78885,"zip":"75204","miles_from_dt":24.19},{"city":"Dallas","state_name":"Texas","lat":32.88011,"lng":-96.70511,"zip":"75355","miles_from_dt":24.19},{"city":"Dallas","state_name":"Texas","lat":32.78826,"lng":-96.79953,"zip":"75201","miles_from_dt":24.2},{"city":"Dallas","state_name":"Texas","lat":32.87855,"lng":-96.70785,"zip":"75238","miles_from_dt":24.21},{"city":"Dallas","state_name":"Texas","lat":32.80137,"lng":-96.79049,"zip":"75393","miles_from_dt":24.24},{"city":"Garland","state_name":"Texas","lat":32.92797,"lng":-96.62006,"zip":"75040","miles_from_dt":24.35},{"city":"Desoto","state_name":"Texas","lat":32.58835,"lng":-96.86032,"zip":"75123","miles_from_dt":24.37},{"city":"Garland","state_name":"Texas","lat":32.9187,"lng":-96.64435,"zip":"75046","miles_from_dt":24.42},{"city":"Dallas","state_name":"Texas","lat":32.83161,"lng":-96.77032,"zip":"75206","miles_from_dt":24.52},{"city":"Desoto","state_name":"Texas","lat":32.59831,"lng":-96.86433,"zip":"75115","miles_from_dt":24.57},{"city":"Royse City","state_name":"Texas","lat":32.94821,"lng":-96.30941,"zip":"75189","miles_from_dt":24.72},{"city":"Dallas","state_name":"Texas","lat":32.76886,"lng":-96.82491,"zip":"75392","miles_from_dt":24.86},{"city":"Dallas","state_name":"Texas","lat":32.76866,"lng":-96.82709,"zip":"75284","miles_from_dt":24.97},{"city":"Dallas","state_name":"Texas","lat":32.7693,"lng":-96.82701,"zip":"75312","miles_from_dt":24.98},{"city":"Dallas","state_name":"Texas","lat":32.76794,"lng":-96.82793,"zip":"75285","miles_from_dt":24.99},{"city":"Dallas","state_name":"Texas","lat":32.7724,"lng":-96.82576,"zip":"75260","miles_from_dt":25.01},{"city":"Dallas","state_name":"Texas","lat":32.83953,"lng":-96.77384,"zip":"75372","miles_from_dt":25.02},{"city":"Dallas","state_name":"Texas","lat":32.76725,"lng":-96.82909,"zip":"75397","miles_from_dt":25.03},{"city":"Garland","state_name":"Texas","lat":32.91401,"lng":-96.67466,"zip":"75042","miles_from_dt":25.04},{"city":"Dallas","state_name":"Texas","lat":32.76823,"lng":-96.83032,"zip":"75283","miles_from_dt":25.12},{"city":"Dallas","state_name":"Texas","lat":32.74972,"lng":-96.84125,"zip":"75262","miles_from_dt":25.18},{"city":"Dallas","state_name":"Texas","lat":32.75409,"lng":-96.83943,"zip":"75208","miles_from_dt":25.2},{"city":"Dallas","state_name":"Texas","lat":32.78693,"lng":-96.82181,"zip":"75207","miles_from_dt":25.28},{"city":"Dallas","state_name":"Texas","lat":32.75461,"lng":-96.84088,"zip":"75222","miles_from_dt":25.29},{"city":"Dallas","state_name":"Texas","lat":32.75272,"lng":-96.8424,"zip":"75263","miles_from_dt":25.32},{"city":"Dallas","state_name":"Texas","lat":32.66489,"lng":-96.87238,"zip":"75237","miles_from_dt":25.33},{"city":"Dallas","state_name":"Texas","lat":32.75369,"lng":-96.84295,"zip":"75267","miles_from_dt":25.37},{"city":"Dallas","state_name":"Texas","lat":32.75473,"lng":-96.84239,"zip":"75264","miles_from_dt":25.37},{"city":"Mabank","state_name":"Texas","lat":32.42256,"lng":-96.06517,"zip":"75147","miles_from_dt":25.49},{"city":"Dallas","state_name":"Texas","lat":32.78384,"lng":-96.82912,"zip":"75373","miles_from_dt":25.55},{"city":"Dallas","state_name":"Texas","lat":32.84362,"lng":-96.78395,"zip":"75275","miles_from_dt":25.66},{"city":"Dallas","state_name":"Texas","lat":32.81087,"lng":-96.81315,"zip":"75219","miles_from_dt":25.7},{"city":"Dallas","state_name":"Texas","lat":32.87695,"lng":-96.74967,"zip":"75231","miles_from_dt":25.74},{"city":"Dallas","state_name":"Texas","lat":32.87873,"lng":-96.74985,"zip":"75382","miles_from_dt":25.84},{"city":"Dallas","state_name":"Texas","lat":32.83657,"lng":-96.79617,"zip":"75205","miles_from_dt":25.91},{"city":"Dallas","state_name":"Texas","lat":32.70444,"lng":-96.87271,"zip":"75233","miles_from_dt":25.91},{"city":"Dallas","state_name":"Texas","lat":32.66151,"lng":-96.88539,"zip":"75301","miles_from_dt":26.05},{"city":"Sachse","state_name":"Texas","lat":32.9704,"lng":-96.58139,"zip":"75048","miles_from_dt":26.26},{"city":"Dallas","state_name":"Texas","lat":32.76579,"lng":-96.85689,"zip":"75398","miles_from_dt":26.45},{"city":"Waxahachie","state_name":"Texas","lat":32.36687,"lng":-96.79677,"zip":"75165","miles_from_dt":26.49},{"city":"Rice","state_name":"Texas","lat":32.2232,"lng":-96.46906,"zip":"75155","miles_from_dt":26.54},{"city":"Wills Point","state_name":"Texas","lat":32.70335,"lng":-95.99754,"zip":"75169","miles_from_dt":26.8},{"city":"Dallas","state_name":"Texas","lat":32.77,"lng":-96.86352,"zip":"75342","miles_from_dt":26.92},{"city":"Dallas","state_name":"Texas","lat":32.86511,"lng":-96.79109,"zip":"75225","miles_from_dt":26.93},{"city":"Dallas","state_name":"Texas","lat":32.91295,"lng":-96.73463,"zip":"75374","miles_from_dt":27.03},{"city":"Dallas","state_name":"Texas","lat":32.91232,"lng":-96.73633,"zip":"75243","miles_from_dt":27.05},{"city":"Garland","state_name":"Texas","lat":32.94585,"lng":-96.68293,"zip":"75045","miles_from_dt":27.16},{"city":"Dallas","state_name":"Texas","lat":32.814,"lng":-96.84283,"zip":"75390","miles_from_dt":27.28},{"city":"Garland","state_name":"Texas","lat":32.96299,"lng":-96.6531,"zip":"75044","miles_from_dt":27.36},{"city":"Duncanville","state_name":"Texas","lat":32.63421,"lng":-96.91224,"zip":"75137","miles_from_dt":27.41},{"city":"Duncanville","state_name":"Texas","lat":32.66013,"lng":-96.91402,"zip":"75116","miles_from_dt":27.69},{"city":"Bardwell","state_name":"Texas","lat":32.27003,"lng":-96.70239,"zip":"75101","miles_from_dt":27.76},{"city":"Dallas","state_name":"Texas","lat":32.8487,"lng":-96.8257,"zip":"75209","miles_from_dt":27.79},{"city":"Duncanville","state_name":"Texas","lat":32.67415,"lng":-96.91672,"zip":"75138","miles_from_dt":27.98},{"city":"Dallas","state_name":"Texas","lat":32.78203,"lng":-96.87853,"zip":"75212","miles_from_dt":28.07},{"city":"Dallas","state_name":"Texas","lat":32.73649,"lng":-96.90214,"zip":"75211","miles_from_dt":28.18},{"city":"Richardson","state_name":"Texas","lat":32.94969,"lng":-96.70899,"zip":"75081","miles_from_dt":28.19},{"city":"Lavon","state_name":"Texas","lat":33.01671,"lng":-96.4495,"zip":"75166","miles_from_dt":28.19},{"city":"Dallas","state_name":"Texas","lat":32.83219,"lng":-96.84798,"zip":"75235","miles_from_dt":28.2},{"city":"Dallas","state_name":"Texas","lat":32.78098,"lng":-96.88177,"zip":"75266","miles_from_dt":28.21},{"city":"Waxahachie","state_name":"Texas","lat":32.30535,"lng":-96.7691,"zip":"75168","miles_from_dt":28.22},{"city":"Richardson","state_name":"Texas","lat":32.95291,"lng":-96.70384,"zip":"75085","miles_from_dt":28.22},{"city":"Wylie","state_name":"Texas","lat":33.01432,"lng":-96.53531,"zip":"75098","miles_from_dt":28.53},{"city":"Dallas","state_name":"Texas","lat":32.826,"lng":-96.86,"zip":"75358","miles_from_dt":28.56},{"city":"Dallas","state_name":"Texas","lat":32.90202,"lng":-96.79226,"zip":"75230","miles_from_dt":28.71},{"city":"Dallas","state_name":"Texas","lat":32.90216,"lng":-96.79276,"zip":"75367","miles_from_dt":28.74},{"city":"Dallas","state_name":"Texas","lat":32.91984,"lng":-96.77308,"zip":"75251","miles_from_dt":28.84},{"city":"Quinlan","state_name":"Texas","lat":32.91709,"lng":-96.10611,"zip":"75474","miles_from_dt":28.98},{"city":"Dallas","state_name":"Texas","lat":32.81515,"lng":-96.877,"zip":"75356","miles_from_dt":29.03},{"city":"Dallas","state_name":"Texas","lat":32.81417,"lng":-96.87803,"zip":"75247","miles_from_dt":29.05},{"city":"Dallas","state_name":"Texas","lat":32.6866,"lng":-96.93455,"zip":"75236","miles_from_dt":29.16},{"city":"Richardson","state_name":"Texas","lat":32.99208,"lng":-96.66536,"zip":"75082","miles_from_dt":29.48},{"city":"Mabank","state_name":"Texas","lat":32.28759,"lng":-96.09999,"zip":"75156","miles_from_dt":29.81},{"city":"Cedar Hill","state_name":"Texas","lat":32.58772,"lng":-96.95615,"zip":"75106","miles_from_dt":29.95}],"targetCityZipCode":"75114","targetCityState":"Texas"},"__N_SSG":true}