{"pageProps":{"stateName":"Texas","cityName":"driscoll","nearbyCities":[{"city":"Bishop","state_name":"Texas","lat":27.62163,"lng":-97.77216,"zip":"78343","miles_from_dt":3.4},{"city":"Robstown","state_name":"Texas","lat":27.77872,"lng":-97.7363,"zip":"78380","miles_from_dt":7.7},{"city":"Banquete","state_name":"Texas","lat":27.80036,"lng":-97.7912,"zip":"78339","miles_from_dt":9.43},{"city":"Agua Dulce","state_name":"Texas","lat":27.7656,"lng":-97.91378,"zip":"78330","miles_from_dt":11.96},{"city":"Kingsville","state_name":"Texas","lat":27.52443,"lng":-97.8689,"zip":"78364","miles_from_dt":12.18},{"city":"Corpus Christi","state_name":"Texas","lat":27.83121,"lng":-97.59621,"zip":"78460","miles_from_dt":14.78},{"city":"Corpus Christi","state_name":"Texas","lat":27.83798,"lng":-97.59388,"zip":"78410","miles_from_dt":15.23},{"city":"Corpus Christi","state_name":"Texas","lat":27.84057,"lng":-97.59702,"zip":"78426","miles_from_dt":15.24},{"city":"Corpus Christi","state_name":"Texas","lat":27.77197,"lng":-97.51543,"zip":"78406","miles_from_dt":16.21},{"city":"Corpus Christi","state_name":"Texas","lat":27.65437,"lng":-97.48712,"zip":"78415","miles_from_dt":16.3},{"city":"Kingsville","state_name":"Texas","lat":27.43836,"lng":-97.85532,"zip":"78363","miles_from_dt":17.01},{"city":"Chapman Ranch","state_name":"Texas","lat":27.57337,"lng":-97.48642,"zip":"78347","miles_from_dt":17.57},{"city":"Corpus Christi","state_name":"Texas","lat":27.81729,"lng":-97.51458,"zip":"78409","miles_from_dt":17.85},{"city":"Corpus Christi","state_name":"Texas","lat":27.73753,"lng":-97.46771,"zip":"78417","miles_from_dt":18.11},{"city":"Ben Bolt","state_name":"Texas","lat":27.66012,"lng":-98.07572,"zip":"78342","miles_from_dt":19.82},{"city":"Corpus Christi","state_name":"Texas","lat":27.74933,"lng":-97.43759,"zip":"78416","miles_from_dt":20.1},{"city":"Alice","state_name":"Texas","lat":27.72001,"lng":-98.07723,"zip":"78333","miles_from_dt":20.22},{"city":"Corpus Christi","state_name":"Texas","lat":27.77404,"lng":-97.43872,"zip":"78405","miles_from_dt":20.58},{"city":"Corpus Christi","state_name":"Texas","lat":27.79687,"lng":-97.44595,"zip":"78469","miles_from_dt":20.78},{"city":"Odem","state_name":"Texas","lat":27.94238,"lng":-97.6033,"zip":"78370","miles_from_dt":21},{"city":"Corpus Christi","state_name":"Texas","lat":27.80762,"lng":-97.44772,"zip":"78407","miles_from_dt":21.01},{"city":"Corpus Christi","state_name":"Texas","lat":27.80081,"lng":-97.44339,"zip":"78408","miles_from_dt":21.04},{"city":"Corpus Christi","state_name":"Texas","lat":27.74868,"lng":-97.42034,"zip":"78467","miles_from_dt":21.11},{"city":"Corpus Christi","state_name":"Texas","lat":27.68345,"lng":-97.40409,"zip":"78413","miles_from_dt":21.39},{"city":"Corpus Christi","state_name":"Texas","lat":27.77615,"lng":-97.41914,"zip":"78465","miles_from_dt":21.75},{"city":"Corpus Christi","state_name":"Texas","lat":27.6937,"lng":-97.39847,"zip":"78472","miles_from_dt":21.78},{"city":"Edroy","state_name":"Texas","lat":27.98154,"lng":-97.68978,"zip":"78352","miles_from_dt":21.94},{"city":"Corpus Christi","state_name":"Texas","lat":27.76798,"lng":-97.39946,"zip":"78404","miles_from_dt":22.71},{"city":"Corpus Christi","state_name":"Texas","lat":27.7293,"lng":-97.38504,"zip":"78411","miles_from_dt":22.92},{"city":"Corpus Christi","state_name":"Texas","lat":27.77477,"lng":-97.397,"zip":"78463","miles_from_dt":23},{"city":"Corpus Christi","state_name":"Texas","lat":27.79529,"lng":-97.40305,"zip":"78427","miles_from_dt":23.15},{"city":"Corpus Christi","state_name":"Texas","lat":27.79734,"lng":-97.40118,"zip":"78401","miles_from_dt":23.3},{"city":"Corpus Christi","state_name":"Texas","lat":27.74404,"lng":-97.3817,"zip":"78466","miles_from_dt":23.33},{"city":"Corpus Christi","state_name":"Texas","lat":27.78639,"lng":-97.39598,"zip":"78403","miles_from_dt":23.33},{"city":"Alice","state_name":"Texas","lat":27.71671,"lng":-98.13208,"zip":"78332","miles_from_dt":23.5},{"city":"Corpus Christi","state_name":"Texas","lat":27.65992,"lng":-97.369,"zip":"78414","miles_from_dt":23.52},{"city":"Corpus Christi","state_name":"Texas","lat":27.79735,"lng":-97.39651,"zip":"78480","miles_from_dt":23.57},{"city":"Corpus Christi","state_name":"Texas","lat":27.82413,"lng":-97.4091,"zip":"78402","miles_from_dt":23.64},{"city":"Corpus Christi","state_name":"Texas","lat":27.70683,"lng":-97.35598,"zip":"78468","miles_from_dt":24.46},{"city":"Corpus Christi","state_name":"Texas","lat":27.70364,"lng":-97.34264,"zip":"78412","miles_from_dt":25.25},{"city":"Riviera","state_name":"Texas","lat":27.30211,"lng":-97.79361,"zip":"78379","miles_from_dt":25.3},{"city":"Corpus Christi","state_name":"Texas","lat":27.69689,"lng":-97.26881,"zip":"78419","miles_from_dt":29.72},{"city":"Corpus Christi","state_name":"Texas","lat":27.52732,"lng":-97.29313,"zip":"78418","miles_from_dt":29.8}],"targetCityZipCode":"78351","targetCityState":"Texas"},"__N_SSG":true}