{"pageProps":{"stateName":"Texas","cityName":"estelline","nearbyCities":[{"city":"Tell","state_name":"Texas","lat":34.36243,"lng":-100.45594,"zip":"79259","miles_from_dt":9.83},{"city":"Childress","state_name":"Texas","lat":34.4101,"lng":-100.33521,"zip":"79201","miles_from_dt":10.95},{"city":"Memphis","state_name":"Texas","lat":34.68001,"lng":-100.47552,"zip":"79245","miles_from_dt":12.31},{"city":"Cee Vee","state_name":"Texas","lat":34.2317,"lng":-100.48085,"zip":"79223","miles_from_dt":18.64},{"city":"Lakeview","state_name":"Texas","lat":34.64837,"lng":-100.77015,"zip":"79239","miles_from_dt":18.81},{"city":"Turkey","state_name":"Texas","lat":34.45525,"lng":-100.86876,"zip":"79261","miles_from_dt":21.77},{"city":"Hedley","state_name":"Texas","lat":34.85566,"lng":-100.66588,"zip":"79237","miles_from_dt":26.32},{"city":"Samnorwood","state_name":"Texas","lat":34.84146,"lng":-100.20378,"zip":"79077","miles_from_dt":28.57},{"city":"Dodson","state_name":"Texas","lat":34.71353,"lng":-100.04878,"zip":"79230","miles_from_dt":29.15}],"targetCityZipCode":"79233","targetCityState":"Texas"},"__N_SSG":true}