{"pageProps":{"stateName":"Texas","cityName":"fischer","nearbyCities":[{"city":"Canyon Lake","state_name":"Texas","lat":29.88119,"lng":-98.24624,"zip":"78133","miles_from_dt":5.65},{"city":"Wimberley","state_name":"Texas","lat":30.04141,"lng":-98.15051,"zip":"78676","miles_from_dt":6.98},{"city":"Spring Branch","state_name":"Texas","lat":29.89291,"lng":-98.40732,"zip":"78070","miles_from_dt":12.18},{"city":"New Braunfels","state_name":"Texas","lat":29.76299,"lng":-98.19,"zip":"78132","miles_from_dt":13.67},{"city":"San Marcos","state_name":"Texas","lat":29.8826,"lng":-97.97974,"zip":"78666","miles_from_dt":15.33},{"city":"Driftwood","state_name":"Texas","lat":30.11215,"lng":-98.03101,"zip":"78619","miles_from_dt":15.41},{"city":"Blanco","state_name":"Texas","lat":30.09213,"lng":-98.45789,"zip":"78606","miles_from_dt":16.96},{"city":"New Braunfels","state_name":"Texas","lat":29.71498,"lng":-98.14372,"zip":"78131","miles_from_dt":17.46},{"city":"San Marcos","state_name":"Texas","lat":29.85831,"lng":-97.94297,"zip":"78667","miles_from_dt":18},{"city":"New Braunfels","state_name":"Texas","lat":29.70387,"lng":-98.11752,"zip":"78135","miles_from_dt":18.65},{"city":"Dripping Springs","state_name":"Texas","lat":30.22214,"lng":-98.13491,"zip":"78620","miles_from_dt":18.77},{"city":"Bulverde","state_name":"Texas","lat":29.7663,"lng":-98.44514,"zip":"78163","miles_from_dt":19.01},{"city":"Kendalia","state_name":"Texas","lat":29.98193,"lng":-98.53868,"zip":"78027","miles_from_dt":19.21},{"city":"Bergheim","state_name":"Texas","lat":29.85767,"lng":-98.53773,"zip":"78004","miles_from_dt":20.36},{"city":"New Braunfels","state_name":"Texas","lat":29.69224,"lng":-98.06877,"zip":"78130","miles_from_dt":20.52},{"city":"San Antonio","state_name":"Texas","lat":29.69189,"lng":-98.40072,"zip":"78261","miles_from_dt":21.42},{"city":"San Antonio","state_name":"Texas","lat":29.65611,"lng":-98.3295,"zip":"78266","miles_from_dt":21.93},{"city":"Austin","state_name":"Texas","lat":30.18935,"lng":-97.96059,"zip":"78737","miles_from_dt":22.15},{"city":"Kyle","state_name":"Texas","lat":29.99619,"lng":-97.82355,"zip":"78640","miles_from_dt":23.87},{"city":"Buda","state_name":"Texas","lat":30.07962,"lng":-97.84047,"zip":"78610","miles_from_dt":24.16},{"city":"San Antonio","state_name":"Texas","lat":29.69737,"lng":-98.49212,"zip":"78260","miles_from_dt":24.39},{"city":"Manchaca","state_name":"Texas","lat":30.13462,"lng":-97.8606,"zip":"78652","miles_from_dt":24.64},{"city":"Austin","state_name":"Texas","lat":30.17596,"lng":-97.89087,"zip":"78739","miles_from_dt":24.68},{"city":"Martindale","state_name":"Texas","lat":29.82346,"lng":-97.83517,"zip":"78655","miles_from_dt":24.89},{"city":"Maxwell","state_name":"Texas","lat":29.90275,"lng":-97.8089,"zip":"78656","miles_from_dt":24.93},{"city":"Austin","state_name":"Texas","lat":30.24833,"lng":-97.94965,"zip":"78736","miles_from_dt":25.61},{"city":"San Antonio","state_name":"Texas","lat":29.62512,"lng":-98.42031,"zip":"78259","miles_from_dt":26.02},{"city":"Hye","state_name":"Texas","lat":30.20824,"lng":-98.5485,"zip":"78635","miles_from_dt":26.11},{"city":"Staples","state_name":"Texas","lat":29.76267,"lng":-97.84608,"zip":"78670","miles_from_dt":26.2},{"city":"Cibolo","state_name":"Texas","lat":29.57354,"lng":-98.22068,"zip":"78108","miles_from_dt":26.6},{"city":"Geronimo","state_name":"Texas","lat":29.61024,"lng":-98.02557,"zip":"78115","miles_from_dt":26.74},{"city":"McQueeney","state_name":"Texas","lat":29.60056,"lng":-98.04236,"zip":"78123","miles_from_dt":26.93},{"city":"Johnson City","state_name":"Texas","lat":30.31649,"lng":-98.42376,"zip":"78636","miles_from_dt":27.45},{"city":"Austin","state_name":"Texas","lat":30.16144,"lng":-97.8227,"zip":"78748","miles_from_dt":27.53},{"city":"Austin","state_name":"Texas","lat":30.30668,"lng":-97.99002,"zip":"78738","miles_from_dt":27.56},{"city":"San Antonio","state_name":"Texas","lat":29.63574,"lng":-98.49282,"zip":"78258","miles_from_dt":27.71},{"city":"Austin","state_name":"Texas","lat":30.21329,"lng":-97.85732,"zip":"78749","miles_from_dt":27.84},{"city":"Marion","state_name":"Texas","lat":29.5585,"lng":-98.15176,"zip":"78124","miles_from_dt":27.93},{"city":"Schertz","state_name":"Texas","lat":29.54774,"lng":-98.26574,"zip":"78154","miles_from_dt":28.51},{"city":"San Antonio","state_name":"Texas","lat":29.58005,"lng":-98.41196,"zip":"78247","miles_from_dt":28.6},{"city":"San Antonio","state_name":"Texas","lat":29.56173,"lng":-98.35589,"zip":"78280","miles_from_dt":28.62},{"city":"Universal City","state_name":"Texas","lat":29.54331,"lng":-98.29609,"zip":"78148","miles_from_dt":29.05},{"city":"San Antonio","state_name":"Texas","lat":29.55483,"lng":-98.36323,"zip":"78233","miles_from_dt":29.2},{"city":"Austin","state_name":"Texas","lat":30.23502,"lng":-97.84764,"zip":"78709","miles_from_dt":29.24},{"city":"Fentress","state_name":"Texas","lat":29.77225,"lng":-97.78229,"zip":"78622","miles_from_dt":29.24},{"city":"Jbsa Randolph","state_name":"Texas","lat":29.5381,"lng":-98.2815,"zip":"78150","miles_from_dt":29.28},{"city":"Boerne","state_name":"Texas","lat":29.7439,"lng":-98.64785,"zip":"78015","miles_from_dt":29.72},{"city":"San Antonio","state_name":"Texas","lat":29.58838,"lng":-98.47357,"zip":"78270","miles_from_dt":29.79},{"city":"Austin","state_name":"Texas","lat":30.26634,"lng":-97.86775,"zip":"78735","miles_from_dt":29.82},{"city":"San Antonio","state_name":"Texas","lat":29.58792,"lng":-98.47503,"zip":"78232","miles_from_dt":29.87},{"city":"Stonewall","state_name":"Texas","lat":30.20409,"lng":-98.63275,"zip":"78671","miles_from_dt":29.94}],"targetCityZipCode":"78623","targetCityState":"Texas"},"__N_SSG":true}