{"pageProps":{"stateName":"Texas","cityName":"forestburg","nearbyCities":[{"city":"Rosston","state_name":"Texas","lat":33.50435,"lng":-97.43735,"zip":"76263","miles_from_dt":7.8},{"city":"Montague","state_name":"Texas","lat":33.65455,"lng":-97.69076,"zip":"76251","miles_from_dt":11.37},{"city":"Greenwood","state_name":"Texas","lat":33.3785,"lng":-97.47447,"zip":"76246","miles_from_dt":11.46},{"city":"Sunset","state_name":"Texas","lat":33.45471,"lng":-97.76247,"zip":"76270","miles_from_dt":12.08},{"city":"Alvord","state_name":"Texas","lat":33.36616,"lng":-97.67345,"zip":"76225","miles_from_dt":12.4},{"city":"Era","state_name":"Texas","lat":33.4861,"lng":-97.34148,"zip":"76238","miles_from_dt":13.47},{"city":"Slidell","state_name":"Texas","lat":33.36935,"lng":-97.39711,"zip":"76267","miles_from_dt":14.62},{"city":"Muenster","state_name":"Texas","lat":33.67788,"lng":-97.38695,"zip":"76252","miles_from_dt":14.98},{"city":"Saint Jo","state_name":"Texas","lat":33.74079,"lng":-97.53922,"zip":"76265","miles_from_dt":15.05},{"city":"Myra","state_name":"Texas","lat":33.62516,"lng":-97.31327,"zip":"76253","miles_from_dt":16.39},{"city":"Decatur","state_name":"Texas","lat":33.27587,"lng":-97.51404,"zip":"76234","miles_from_dt":17.41},{"city":"Lindsay","state_name":"Texas","lat":33.63006,"lng":-97.24237,"zip":"76250","miles_from_dt":20.28},{"city":"Bowie","state_name":"Texas","lat":33.52264,"lng":-97.94497,"zip":"76230","miles_from_dt":21.63},{"city":"Nocona","state_name":"Texas","lat":33.8179,"lng":-97.71625,"zip":"76255","miles_from_dt":21.93},{"city":"Chico","state_name":"Texas","lat":33.31066,"lng":-97.86228,"zip":"76431","miles_from_dt":22.38},{"city":"Krum","state_name":"Texas","lat":33.27993,"lng":-97.3026,"zip":"76249","miles_from_dt":22.86},{"city":"Sanger","state_name":"Texas","lat":33.36818,"lng":-97.21513,"zip":"76266","miles_from_dt":23.16},{"city":"Gainesville","state_name":"Texas","lat":33.64542,"lng":-97.17628,"zip":"76241","miles_from_dt":24.22},{"city":"Gainesville","state_name":"Texas","lat":33.65654,"lng":-97.17766,"zip":"76240","miles_from_dt":24.42},{"city":"Leon","state_name":"Oklahoma","lat":33.8674,"lng":-97.44021,"zip":"73441","miles_from_dt":24.83},{"city":"Valley View","state_name":"Texas","lat":33.46421,"lng":-97.12721,"zip":"76272","miles_from_dt":25.92},{"city":"Ponder","state_name":"Texas","lat":33.19977,"lng":-97.31603,"zip":"76259","miles_from_dt":26.75},{"city":"Bellevue","state_name":"Texas","lat":33.61438,"lng":-98.06305,"zip":"76228","miles_from_dt":29.1},{"city":"Bridgeport","state_name":"Texas","lat":33.16493,"lng":-97.83772,"zip":"76426","miles_from_dt":29.18},{"city":"Burneyville","state_name":"Oklahoma","lat":33.91,"lng":-97.36106,"zip":"73430","miles_from_dt":29.21},{"city":"Ringgold","state_name":"Texas","lat":33.80291,"lng":-97.96233,"zip":"76261","miles_from_dt":29.66}],"targetCityZipCode":"76239","targetCityState":"Texas"},"__N_SSG":true}