{"pageProps":{"stateName":"Texas","cityName":"ganado","nearbyCities":[{"city":"Louise","state_name":"Texas","lat":29.14017,"lng":-96.43782,"zip":"77455","miles_from_dt":8.38},{"city":"Edna","state_name":"Texas","lat":29.03022,"lng":-96.70606,"zip":"77957","miles_from_dt":12.33},{"city":"La Ward","state_name":"Texas","lat":28.84533,"lng":-96.43153,"zip":"77970","miles_from_dt":13.59},{"city":"Lolita","state_name":"Texas","lat":28.83063,"lng":-96.52176,"zip":"77971","miles_from_dt":13.95},{"city":"Francitas","state_name":"Texas","lat":28.85684,"lng":-96.35947,"zip":"77961","miles_from_dt":14.88},{"city":"Midfield","state_name":"Texas","lat":28.95409,"lng":-96.25489,"zip":"77458","miles_from_dt":15.92},{"city":"Danevang","state_name":"Texas","lat":29.05808,"lng":-96.21608,"zip":"77432","miles_from_dt":17.41},{"city":"Vanderbilt","state_name":"Texas","lat":28.7866,"lng":-96.59467,"zip":"77991","miles_from_dt":17.84},{"city":"El Campo","state_name":"Texas","lat":29.20452,"lng":-96.27328,"zip":"77437","miles_from_dt":18.22},{"city":"Blessing","state_name":"Texas","lat":28.8692,"lng":-96.25603,"zip":"77419","miles_from_dt":18.68},{"city":"La Salle","state_name":"Texas","lat":28.77579,"lng":-96.64719,"zip":"77969","miles_from_dt":19.74},{"city":"Inez","state_name":"Texas","lat":28.90619,"lng":-96.84952,"zip":"77968","miles_from_dt":22.76},{"city":"Pierce","state_name":"Texas","lat":29.23345,"lng":-96.18563,"zip":"77467","miles_from_dt":23.63},{"city":"Elmaton","state_name":"Texas","lat":28.88819,"lng":-96.14603,"zip":"77440","miles_from_dt":23.76},{"city":"Markham","state_name":"Texas","lat":28.9511,"lng":-96.1136,"zip":"77456","miles_from_dt":24.19},{"city":"Point Comfort","state_name":"Texas","lat":28.69152,"lng":-96.5991,"zip":"77978","miles_from_dt":24.21},{"city":"Telferner","state_name":"Texas","lat":28.84701,"lng":-96.87547,"zip":"77988","miles_from_dt":25.97},{"city":"Nada","state_name":"Texas","lat":29.39744,"lng":-96.38451,"zip":"77460","miles_from_dt":26.12},{"city":"Palacios","state_name":"Texas","lat":28.71152,"lng":-96.22545,"zip":"77465","miles_from_dt":27.76},{"city":"Garwood","state_name":"Texas","lat":29.43708,"lng":-96.49757,"zip":"77442","miles_from_dt":27.86},{"city":"Egypt","state_name":"Texas","lat":29.38874,"lng":-96.23832,"zip":"77436","miles_from_dt":29.26},{"city":"Glen Flora","state_name":"Texas","lat":29.35835,"lng":-96.18255,"zip":"77443","miles_from_dt":29.61}],"targetCityZipCode":"77962","targetCityState":"Texas"},"__N_SSG":true}