{"pageProps":{"stateName":"Texas","cityName":"hallettsville","nearbyCities":[{"city":"Sublime","state_name":"Texas","lat":29.47661,"lng":-96.79607,"zip":"77986","miles_from_dt":7.22},{"city":"Sheridan","state_name":"Texas","lat":29.50419,"lng":-96.66026,"zip":"77475","miles_from_dt":13.94},{"city":"Sweet Home","state_name":"Texas","lat":29.34569,"lng":-97.08019,"zip":"77987","miles_from_dt":14.51},{"city":"Oakland","state_name":"Texas","lat":29.61361,"lng":-96.83746,"zip":"78951","miles_from_dt":16.08},{"city":"Hochheim","state_name":"Texas","lat":29.2412,"lng":-97.06962,"zip":"77967","miles_from_dt":16.7},{"city":"Yoakum","state_name":"Texas","lat":29.20384,"lng":-97.08814,"zip":"77995","miles_from_dt":19.15},{"city":"Moulton","state_name":"Texas","lat":29.56843,"lng":-97.08818,"zip":"77975","miles_from_dt":19.66},{"city":"Rock Island","state_name":"Texas","lat":29.52775,"lng":-96.55305,"zip":"77470","miles_from_dt":20.22},{"city":"Weimar","state_name":"Texas","lat":29.66951,"lng":-96.73815,"zip":"78962","miles_from_dt":20.9},{"city":"Garwood","state_name":"Texas","lat":29.43708,"lng":-96.49757,"zip":"77442","miles_from_dt":21.2},{"city":"Shiner","state_name":"Texas","lat":29.45373,"lng":-97.18849,"zip":"77984","miles_from_dt":21.44},{"city":"Schulenburg","state_name":"Texas","lat":29.68322,"lng":-96.93454,"zip":"78956","miles_from_dt":21.58},{"city":"Edna","state_name":"Texas","lat":29.03022,"lng":-96.70606,"zip":"77957","miles_from_dt":25.49},{"city":"Altair","state_name":"Texas","lat":29.56693,"lng":-96.46031,"zip":"77412","miles_from_dt":26.41},{"city":"Glidden","state_name":"Texas","lat":29.69721,"lng":-96.59538,"zip":"78943","miles_from_dt":26.44},{"city":"Nada","state_name":"Texas","lat":29.39744,"lng":-96.38451,"zip":"77460","miles_from_dt":27.68},{"city":"Columbus","state_name":"Texas","lat":29.7023,"lng":-96.56741,"zip":"78934","miles_from_dt":27.71},{"city":"Thomaston","state_name":"Texas","lat":29.0968,"lng":-97.19038,"zip":"77989","miles_from_dt":28.66},{"city":"Louise","state_name":"Texas","lat":29.14017,"lng":-96.43782,"zip":"77455","miles_from_dt":29.53}],"targetCityZipCode":"77964","targetCityState":"Texas"},"__N_SSG":true}