{"pageProps":{"stateName":"Texas","cityName":"hamlin","nearbyCities":[{"city":"McCaulley","state_name":"Texas","lat":32.75559,"lng":-100.22273,"zip":"79534","miles_from_dt":9.88},{"city":"Sylvester","state_name":"Texas","lat":32.67514,"lng":-100.2094,"zip":"79560","miles_from_dt":14.58},{"city":"Anson","state_name":"Texas","lat":32.74332,"lng":-99.89332,"zip":"79501","miles_from_dt":16.53},{"city":"Stamford","state_name":"Texas","lat":32.93785,"lng":-99.84022,"zip":"79553","miles_from_dt":17.39},{"city":"Rule","state_name":"Texas","lat":33.06989,"lng":-99.93005,"zip":"79548","miles_from_dt":17.72},{"city":"Roby","state_name":"Texas","lat":32.71864,"lng":-100.38724,"zip":"79543","miles_from_dt":18.47},{"city":"Old Glory","state_name":"Texas","lat":33.15173,"lng":-100.06289,"zip":"79540","miles_from_dt":19.41},{"city":"Rotan","state_name":"Texas","lat":32.8792,"lng":-100.49136,"zip":"79546","miles_from_dt":21.01},{"city":"Aspermont","state_name":"Texas","lat":33.18305,"lng":-100.26499,"zip":"79502","miles_from_dt":22.57},{"city":"Hawley","state_name":"Texas","lat":32.62745,"lng":-99.82711,"zip":"79525","miles_from_dt":24.58},{"city":"Trent","state_name":"Texas","lat":32.51974,"lng":-100.18369,"zip":"79561","miles_from_dt":24.73},{"city":"Avoca","state_name":"Texas","lat":32.89003,"lng":-99.69033,"zip":"79503","miles_from_dt":25.59},{"city":"Rule","state_name":"Texas","lat":33.20478,"lng":-99.91023,"zip":"79547","miles_from_dt":26.02},{"city":"Merkel","state_name":"Texas","lat":32.47333,"lng":-100.02859,"zip":"79536","miles_from_dt":28.36}],"targetCityZipCode":"79520","targetCityState":"Texas"},"__N_SSG":true}