{"pageProps":{"stateName":"Texas","cityName":"hico","nearbyCities":[{"city":"Iredell","state_name":"Texas","lat":32.00132,"lng":-97.87816,"zip":"76649","miles_from_dt":9.48},{"city":"Carlton","state_name":"Texas","lat":31.87404,"lng":-98.22271,"zip":"76436","miles_from_dt":12.59},{"city":"Walnut Springs","state_name":"Texas","lat":32.1031,"lng":-97.79219,"zip":"76690","miles_from_dt":17.4},{"city":"Cranfills Gap","state_name":"Texas","lat":31.76631,"lng":-97.81817,"zip":"76637","miles_from_dt":17.65},{"city":"Meridian","state_name":"Texas","lat":31.91784,"lng":-97.72049,"zip":"76665","miles_from_dt":18.19},{"city":"Hamilton","state_name":"Texas","lat":31.68423,"lng":-98.19058,"zip":"76531","miles_from_dt":20.65},{"city":"Dublin","state_name":"Texas","lat":32.07572,"lng":-98.35311,"zip":"76446","miles_from_dt":20.98},{"city":"Stephenville","state_name":"Texas","lat":32.21728,"lng":-98.21702,"zip":"76402","miles_from_dt":21.52},{"city":"Gustine","state_name":"Texas","lat":31.82142,"lng":-98.36676,"zip":"76455","miles_from_dt":21.8},{"city":"Jonesboro","state_name":"Texas","lat":31.64261,"lng":-97.8896,"zip":"76538","miles_from_dt":22.66},{"city":"Paluxy","state_name":"Texas","lat":32.27059,"lng":-97.90503,"zip":"76467","miles_from_dt":23.25},{"city":"Glen Rose","state_name":"Texas","lat":32.20039,"lng":-97.76129,"zip":"76043","miles_from_dt":23.3},{"city":"Proctor","state_name":"Texas","lat":31.98549,"lng":-98.43027,"zip":"76468","miles_from_dt":23.77},{"city":"Bluff Dale","state_name":"Texas","lat":32.30662,"lng":-98.01096,"zip":"76433","miles_from_dt":24.61},{"city":"Energy","state_name":"Texas","lat":31.77119,"lng":-98.39198,"zip":"76452","miles_from_dt":24.7},{"city":"Stephenville","state_name":"Texas","lat":32.27918,"lng":-98.19994,"zip":"76401","miles_from_dt":24.85},{"city":"Pottsville","state_name":"Texas","lat":31.64508,"lng":-98.3492,"zip":"76565","miles_from_dt":28.25},{"city":"Clifton","state_name":"Texas","lat":31.80953,"lng":-97.56866,"zip":"76634","miles_from_dt":28.67},{"city":"Lingleville","state_name":"Texas","lat":32.24457,"lng":-98.37528,"zip":"76461","miles_from_dt":28.78},{"city":"Kopperl","state_name":"Texas","lat":32.11331,"lng":-97.57648,"zip":"76652","miles_from_dt":28.79},{"city":"Rainbow","state_name":"Texas","lat":32.27886,"lng":-97.70891,"zip":"76077","miles_from_dt":29.39},{"city":"Morgan","state_name":"Texas","lat":31.99351,"lng":-97.52768,"zip":"76671","miles_from_dt":29.52},{"city":"Tolar","state_name":"Texas","lat":32.37055,"lng":-97.92017,"zip":"76476","miles_from_dt":29.68},{"city":"Purmela","state_name":"Texas","lat":31.51664,"lng":-97.99881,"zip":"76566","miles_from_dt":29.88},{"city":"Nemo","state_name":"Texas","lat":32.24291,"lng":-97.64991,"zip":"76070","miles_from_dt":29.99}],"targetCityZipCode":"76457","targetCityState":"Texas"},"__N_SSG":true}