{"pageProps":{"stateName":"Texas","cityName":"high-island","nearbyCities":[{"city":"Gilchrist","state_name":"Texas","lat":29.51128,"lng":-94.51052,"zip":"77617","miles_from_dt":6.58},{"city":"Stowell","state_name":"Texas","lat":29.78021,"lng":-94.36861,"zip":"77661","miles_from_dt":15.46},{"city":"Anahuac","state_name":"Texas","lat":29.69096,"lng":-94.62598,"zip":"77514","miles_from_dt":15.53},{"city":"Winnie","state_name":"Texas","lat":29.78697,"lng":-94.40969,"zip":"77665","miles_from_dt":15.67},{"city":"Port Bolivar","state_name":"Texas","lat":29.42995,"lng":-94.68096,"zip":"77650","miles_from_dt":18.28},{"city":"Hamshire","state_name":"Texas","lat":29.85741,"lng":-94.29467,"zip":"77622","miles_from_dt":21.78},{"city":"Hankamer","state_name":"Texas","lat":29.86399,"lng":-94.59643,"zip":"77560","miles_from_dt":23.6},{"city":"Wallisville","state_name":"Texas","lat":29.82811,"lng":-94.69521,"zip":"77597","miles_from_dt":24.97},{"city":"Galveston","state_name":"Texas","lat":29.31082,"lng":-94.77641,"zip":"77555","miles_from_dt":27.66},{"city":"Galveston","state_name":"Texas","lat":29.31021,"lng":-94.77706,"zip":"77550","miles_from_dt":27.72},{"city":"Beaumont","state_name":"Texas","lat":29.90652,"lng":-94.16961,"zip":"77705","miles_from_dt":28.12},{"city":"Nome","state_name":"Texas","lat":29.97476,"lng":-94.42727,"zip":"77629","miles_from_dt":28.61},{"city":"Sabine Pass","state_name":"Texas","lat":29.71338,"lng":-93.95306,"zip":"77655","miles_from_dt":29.81}],"targetCityZipCode":"77623","targetCityState":"Texas"},"__N_SSG":true}