{"pageProps":{"stateName":"Texas","cityName":"katy","nearbyCities":[{"city":"Houston","state_name":"Texas","lat":29.82698,"lng":-95.6612,"zip":"77084","miles_from_dt":4.51},{"city":"Houston","state_name":"Texas","lat":29.7738,"lng":-95.69955,"zip":"77094","miles_from_dt":4.84},{"city":"Barker","state_name":"Texas","lat":29.77063,"lng":-95.7023,"zip":"77413","miles_from_dt":4.97},{"city":"Houston","state_name":"Texas","lat":29.82814,"lng":-95.65304,"zip":"77218","miles_from_dt":4.99},{"city":"Katy","state_name":"Texas","lat":29.85193,"lng":-95.83025,"zip":"77493","miles_from_dt":5.79},{"city":"Katy","state_name":"Texas","lat":29.74753,"lng":-95.73696,"zip":"77450","miles_from_dt":6.15},{"city":"Katy","state_name":"Texas","lat":29.78608,"lng":-95.82084,"zip":"77491","miles_from_dt":6.2},{"city":"Houston","state_name":"Texas","lat":29.90834,"lng":-95.65492,"zip":"77095","miles_from_dt":6.91},{"city":"Cypress","state_name":"Texas","lat":29.9492,"lng":-95.73979,"zip":"77433","miles_from_dt":7.75},{"city":"Houston","state_name":"Texas","lat":29.75375,"lng":-95.64189,"zip":"77077","miles_from_dt":8.02},{"city":"Katy","state_name":"Texas","lat":29.74703,"lng":-95.82166,"zip":"77492","miles_from_dt":8.06},{"city":"Katy","state_name":"Texas","lat":29.74566,"lng":-95.82302,"zip":"77494","miles_from_dt":8.19},{"city":"Houston","state_name":"Texas","lat":29.77755,"lng":-95.60326,"zip":"77244","miles_from_dt":8.93},{"city":"Houston","state_name":"Texas","lat":29.77632,"lng":-95.6037,"zip":"77079","miles_from_dt":8.94},{"city":"Houston","state_name":"Texas","lat":29.86031,"lng":-95.58548,"zip":"77280","miles_from_dt":9.15},{"city":"Houston","state_name":"Texas","lat":29.86203,"lng":-95.58187,"zip":"77041","miles_from_dt":9.39},{"city":"Houston","state_name":"Texas","lat":29.8112,"lng":-95.57981,"zip":"77043","miles_from_dt":9.51},{"city":"Houston","state_name":"Texas","lat":29.72383,"lng":-95.6414,"zip":"77082","miles_from_dt":9.61},{"city":"Cypress","state_name":"Texas","lat":29.97266,"lng":-95.69681,"zip":"77410","miles_from_dt":9.65},{"city":"Houston","state_name":"Texas","lat":29.74541,"lng":-95.61334,"zip":"77282","miles_from_dt":9.66},{"city":"Houston","state_name":"Texas","lat":29.92673,"lng":-95.60324,"zip":"77065","miles_from_dt":10.07},{"city":"Richmond","state_name":"Texas","lat":29.67658,"lng":-95.71455,"zip":"77407","miles_from_dt":11.1},{"city":"Houston","state_name":"Texas","lat":29.69316,"lng":-95.64858,"zip":"77083","miles_from_dt":11.18},{"city":"Alief","state_name":"Texas","lat":29.7308,"lng":-95.59262,"zip":"77411","miles_from_dt":11.27},{"city":"Cypress","state_name":"Texas","lat":29.99068,"lng":-95.65808,"zip":"77429","miles_from_dt":11.58},{"city":"Houston","state_name":"Texas","lat":29.85884,"lng":-95.53705,"zip":"77241","miles_from_dt":12.01},{"city":"Houston","state_name":"Texas","lat":29.74125,"lng":-95.56015,"zip":"77042","miles_from_dt":12.42},{"city":"Houston","state_name":"Texas","lat":29.87539,"lng":-95.52861,"zip":"77040","miles_from_dt":12.7},{"city":"Houston","state_name":"Texas","lat":29.73257,"lng":-95.55978,"zip":"77242","miles_from_dt":12.76},{"city":"Houston","state_name":"Texas","lat":29.92279,"lng":-95.5467,"zip":"77064","miles_from_dt":12.79},{"city":"Houston","state_name":"Texas","lat":29.81662,"lng":-95.52375,"zip":"77080","miles_from_dt":12.79},{"city":"Houston","state_name":"Texas","lat":29.87631,"lng":-95.52535,"zip":"77240","miles_from_dt":12.91},{"city":"Houston","state_name":"Texas","lat":29.70006,"lng":-95.58539,"zip":"77072","miles_from_dt":13.04},{"city":"Houston","state_name":"Texas","lat":29.69984,"lng":-95.58269,"zip":"77272","miles_from_dt":13.16},{"city":"Richmond","state_name":"Texas","lat":29.64571,"lng":-95.79184,"zip":"77406","miles_from_dt":13.59},{"city":"Houston","state_name":"Texas","lat":29.97783,"lng":-95.57377,"zip":"77070","miles_from_dt":13.73},{"city":"Houston","state_name":"Texas","lat":29.77159,"lng":-95.51682,"zip":"77224","miles_from_dt":13.88},{"city":"Houston","state_name":"Texas","lat":29.97882,"lng":-95.56821,"zip":"77269","miles_from_dt":14.02},{"city":"Fulshear","state_name":"Texas","lat":29.6955,"lng":-95.90896,"zip":"77441","miles_from_dt":14.26},{"city":"Sugar Land","state_name":"Texas","lat":29.64224,"lng":-95.65244,"zip":"77498","miles_from_dt":14.3},{"city":"Houston","state_name":"Texas","lat":29.76812,"lng":-95.51034,"zip":"77279","miles_from_dt":14.33},{"city":"Houston","state_name":"Texas","lat":29.77073,"lng":-95.50869,"zip":"77024","miles_from_dt":14.36},{"city":"Houston","state_name":"Texas","lat":29.8044,"lng":-95.49623,"zip":"77255","miles_from_dt":14.54},{"city":"Houston","state_name":"Texas","lat":29.67067,"lng":-95.58485,"zip":"77099","miles_from_dt":14.59},{"city":"Houston","state_name":"Texas","lat":29.7365,"lng":-95.52117,"zip":"77215","miles_from_dt":14.61},{"city":"Houston","state_name":"Texas","lat":29.7356,"lng":-95.52157,"zip":"77063","miles_from_dt":14.62},{"city":"Houston","state_name":"Texas","lat":29.79757,"lng":-95.4928,"zip":"77055","miles_from_dt":14.82},{"city":"Brookshire","state_name":"Texas","lat":29.83386,"lng":-95.98219,"zip":"77423","miles_from_dt":14.82},{"city":"Houston","state_name":"Texas","lat":29.79679,"lng":-95.49197,"zip":"77243","miles_from_dt":14.88},{"city":"Houston","state_name":"Texas","lat":29.72856,"lng":-95.5192,"zip":"77263","miles_from_dt":14.98},{"city":"Houston","state_name":"Texas","lat":29.7026,"lng":-95.53899,"zip":"77251","miles_from_dt":14.99},{"city":"Houston","state_name":"Texas","lat":29.70119,"lng":-95.53659,"zip":"77036","miles_from_dt":15.17},{"city":"Houston","state_name":"Texas","lat":29.83153,"lng":-95.47521,"zip":"77092","miles_from_dt":15.63},{"city":"Houston","state_name":"Texas","lat":29.9186,"lng":-95.49064,"zip":"77086","miles_from_dt":15.74},{"city":"Hockley","state_name":"Texas","lat":30.05178,"lng":-95.82868,"zip":"77447","miles_from_dt":15.83},{"city":"Tomball","state_name":"Texas","lat":30.06141,"lng":-95.67608,"zip":"77377","miles_from_dt":15.88},{"city":"Houston","state_name":"Texas","lat":29.7341,"lng":-95.49864,"zip":"77237","miles_from_dt":15.89},{"city":"Sugar Land","state_name":"Texas","lat":29.6202,"lng":-95.63775,"zip":"77496","miles_from_dt":16.03},{"city":"Houston","state_name":"Texas","lat":29.74522,"lng":-95.48885,"zip":"77057","miles_from_dt":16.1},{"city":"Sugar Land","state_name":"Texas","lat":29.6186,"lng":-95.63687,"zip":"77487","miles_from_dt":16.15},{"city":"Spring","state_name":"Texas","lat":30.02154,"lng":-95.56934,"zip":"77391","miles_from_dt":16.17},{"city":"Houston","state_name":"Texas","lat":29.95714,"lng":-95.50277,"zip":"77066","miles_from_dt":16.24},{"city":"Houston","state_name":"Texas","lat":29.74458,"lng":-95.48617,"zip":"77257","miles_from_dt":16.27},{"city":"Houston","state_name":"Texas","lat":29.98631,"lng":-95.52398,"zip":"77069","miles_from_dt":16.35},{"city":"Houston","state_name":"Texas","lat":29.68821,"lng":-95.51633,"zip":"77074","miles_from_dt":16.68},{"city":"Houston","state_name":"Texas","lat":29.68799,"lng":-95.51644,"zip":"77274","miles_from_dt":16.68},{"city":"Pattison","state_name":"Texas","lat":29.80003,"lng":-96.01085,"zip":"77466","miles_from_dt":16.73},{"city":"Houston","state_name":"Texas","lat":29.70724,"lng":-95.49797,"zip":"77236","miles_from_dt":16.83},{"city":"Sugar Land","state_name":"Texas","lat":29.61896,"lng":-95.6077,"zip":"77478","miles_from_dt":16.85},{"city":"Houston","state_name":"Texas","lat":29.65434,"lng":-95.54622,"zip":"77031","miles_from_dt":16.95},{"city":"Houston","state_name":"Texas","lat":29.74849,"lng":-95.46806,"zip":"77056","miles_from_dt":17.18},{"city":"Houston","state_name":"Texas","lat":29.88148,"lng":-95.45316,"zip":"77088","miles_from_dt":17.23},{"city":"Houston","state_name":"Texas","lat":29.65966,"lng":-95.52638,"zip":"77271","miles_from_dt":17.51},{"city":"Houston","state_name":"Texas","lat":29.71219,"lng":-95.48026,"zip":"77081","miles_from_dt":17.57},{"city":"Stafford","state_name":"Texas","lat":29.62625,"lng":-95.56718,"zip":"77477","miles_from_dt":17.68},{"city":"Houston","state_name":"Texas","lat":29.85382,"lng":-95.43969,"zip":"77091","miles_from_dt":17.8},{"city":"Simonton","state_name":"Texas","lat":29.67551,"lng":-95.97105,"zip":"77476","miles_from_dt":17.99},{"city":"Bellaire","state_name":"Texas","lat":29.70662,"lng":-95.47534,"zip":"77402","miles_from_dt":18.02},{"city":"Houston","state_name":"Texas","lat":29.65265,"lng":-95.52046,"zip":"77071","miles_from_dt":18.11},{"city":"Houston","state_name":"Texas","lat":29.82618,"lng":-95.42877,"zip":"77292","miles_from_dt":18.43},{"city":"Houston","state_name":"Texas","lat":29.92098,"lng":-95.44315,"zip":"77238","miles_from_dt":18.48},{"city":"Spring","state_name":"Texas","lat":30.03966,"lng":-95.53305,"zip":"77379","miles_from_dt":18.52},{"city":"Houston","state_name":"Texas","lat":29.91906,"lng":-95.44121,"zip":"77038","miles_from_dt":18.55},{"city":"Houston","state_name":"Texas","lat":29.82713,"lng":-95.42625,"zip":"77206","miles_from_dt":18.58},{"city":"Houston","state_name":"Texas","lat":29.82703,"lng":-95.42571,"zip":"77018","miles_from_dt":18.61},{"city":"Houston","state_name":"Texas","lat":29.73698,"lng":-95.44727,"zip":"77227","miles_from_dt":18.63},{"city":"Houston","state_name":"Texas","lat":29.73919,"lng":-95.44609,"zip":"77027","miles_from_dt":18.64},{"city":"Stafford","state_name":"Texas","lat":29.61558,"lng":-95.55467,"zip":"77497","miles_from_dt":18.71},{"city":"Bellaire","state_name":"Texas","lat":29.70398,"lng":-95.46192,"zip":"77401","miles_from_dt":18.81},{"city":"Houston","state_name":"Texas","lat":30.00628,"lng":-95.48694,"zip":"77068","miles_from_dt":18.94},{"city":"Houston","state_name":"Texas","lat":30.00715,"lng":-95.4867,"zip":"77268","miles_from_dt":18.99},{"city":"Houston","state_name":"Texas","lat":29.67464,"lng":-95.47965,"zip":"77096","miles_from_dt":19},{"city":"Houston","state_name":"Texas","lat":29.95283,"lng":-95.44719,"zip":"77067","miles_from_dt":19.06},{"city":"Houston","state_name":"Texas","lat":29.98025,"lng":-95.46363,"zip":"77014","miles_from_dt":19.07},{"city":"Houston","state_name":"Texas","lat":29.98453,"lng":-95.46663,"zip":"77290","miles_from_dt":19.08},{"city":"Houston","state_name":"Texas","lat":29.79845,"lng":-95.41901,"zip":"77270","miles_from_dt":19.19},{"city":"Houston","state_name":"Texas","lat":29.73833,"lng":-95.43631,"zip":"77256","miles_from_dt":19.21},{"city":"Houston","state_name":"Texas","lat":29.95395,"lng":-95.44486,"zip":"77267","miles_from_dt":19.22},{"city":"Houston","state_name":"Texas","lat":29.79856,"lng":-95.41766,"zip":"77008","miles_from_dt":19.27},{"city":"Houston","state_name":"Texas","lat":29.79992,"lng":-95.41731,"zip":"77248","miles_from_dt":19.28},{"city":"Houston","state_name":"Texas","lat":29.87229,"lng":-95.41591,"zip":"77291","miles_from_dt":19.34},{"city":"Houston","state_name":"Texas","lat":29.73438,"lng":-95.43301,"zip":"77046","miles_from_dt":19.49},{"city":"Orchard","state_name":"Texas","lat":29.61807,"lng":-95.94148,"zip":"77464","miles_from_dt":19.5},{"city":"Sugar Land","state_name":"Texas","lat":29.56503,"lng":-95.6346,"zip":"77479","miles_from_dt":19.67},{"city":"Tomball","state_name":"Texas","lat":30.09393,"lng":-95.59095,"zip":"77375","miles_from_dt":19.72},{"city":"Houston","state_name":"Texas","lat":29.77063,"lng":-95.41482,"zip":"77299","miles_from_dt":19.79},{"city":"Houston","state_name":"Texas","lat":29.6541,"lng":-95.48112,"zip":"77235","miles_from_dt":19.8},{"city":"Houston","state_name":"Texas","lat":29.71984,"lng":-95.43081,"zip":"77265","miles_from_dt":20},{"city":"Houston","state_name":"Texas","lat":29.65433,"lng":-95.4754,"zip":"77231","miles_from_dt":20.06},{"city":"Houston","state_name":"Texas","lat":29.65269,"lng":-95.47688,"zip":"77035","miles_from_dt":20.06},{"city":"Houston","state_name":"Texas","lat":29.77152,"lng":-95.40919,"zip":"77007","miles_from_dt":20.11},{"city":"Houston","state_name":"Texas","lat":29.75716,"lng":-95.41196,"zip":"77219","miles_from_dt":20.19},{"city":"Houston","state_name":"Texas","lat":29.71673,"lng":-95.42814,"zip":"77277","miles_from_dt":20.23},{"city":"Houston","state_name":"Texas","lat":29.75318,"lng":-95.41212,"zip":"77019","miles_from_dt":20.26},{"city":"Waller","state_name":"Texas","lat":30.07924,"lng":-95.92812,"zip":"77484","miles_from_dt":20.31},{"city":"Houston","state_name":"Texas","lat":29.71824,"lng":-95.42413,"zip":"77005","miles_from_dt":20.41},{"city":"Houston","state_name":"Texas","lat":29.73482,"lng":-95.41526,"zip":"77098","miles_from_dt":20.48},{"city":"Houston","state_name":"Texas","lat":29.73222,"lng":-95.41387,"zip":"77254","miles_from_dt":20.62},{"city":"Houston","state_name":"Texas","lat":29.68584,"lng":-95.43512,"zip":"77025","miles_from_dt":20.83},{"city":"Houston","state_name":"Texas","lat":29.8918,"lng":-95.39438,"zip":"77037","miles_from_dt":20.83},{"city":"Missouri City","state_name":"Texas","lat":29.60068,"lng":-95.51605,"zip":"77489","miles_from_dt":20.94},{"city":"Houston","state_name":"Texas","lat":29.62465,"lng":-95.48411,"zip":"77085","miles_from_dt":21.02},{"city":"Houston","state_name":"Texas","lat":30.00845,"lng":-95.44317,"zip":"77090","miles_from_dt":21.15},{"city":"Rosenberg","state_name":"Texas","lat":29.55159,"lng":-95.86785,"zip":"77471","miles_from_dt":21.19},{"city":"Houston","state_name":"Texas","lat":29.86002,"lng":-95.38328,"zip":"77076","miles_from_dt":21.21},{"city":"Hufsmith","state_name":"Texas","lat":30.12211,"lng":-95.59323,"zip":"77337","miles_from_dt":21.43},{"city":"Houston","state_name":"Texas","lat":29.93567,"lng":-95.39697,"zip":"77060","miles_from_dt":21.43},{"city":"Houston","state_name":"Texas","lat":29.8306,"lng":-95.3768,"zip":"77022","miles_from_dt":21.54},{"city":"Houston","state_name":"Texas","lat":29.69311,"lng":-95.41646,"zip":"77225","miles_from_dt":21.57},{"city":"Houston","state_name":"Texas","lat":29.74663,"lng":-95.3915,"zip":"77266","miles_from_dt":21.58},{"city":"Houston","state_name":"Texas","lat":29.74086,"lng":-95.39126,"zip":"77006","miles_from_dt":21.71},{"city":"Houston","state_name":"Texas","lat":29.80463,"lng":-95.37562,"zip":"77249","miles_from_dt":21.73},{"city":"Houston","state_name":"Texas","lat":29.82964,"lng":-95.37223,"zip":"77222","miles_from_dt":21.82},{"city":"Houston","state_name":"Texas","lat":29.70597,"lng":-95.40253,"zip":"77030","miles_from_dt":21.94},{"city":"Magnolia","state_name":"Texas","lat":30.1579,"lng":-95.75014,"zip":"77355","miles_from_dt":22.14},{"city":"Spring","state_name":"Texas","lat":30.05957,"lng":-95.46764,"zip":"77388","miles_from_dt":22.22},{"city":"Houston","state_name":"Texas","lat":29.79499,"lng":-95.36758,"zip":"77009","miles_from_dt":22.28},{"city":"San Felipe","state_name":"Texas","lat":29.79459,"lng":-96.1038,"zip":"77473","miles_from_dt":22.31},{"city":"Houston","state_name":"Texas","lat":29.64035,"lng":-95.43586,"zip":"77245","miles_from_dt":22.52},{"city":"Pinehurst","state_name":"Texas","lat":30.16003,"lng":-95.67237,"zip":"77362","miles_from_dt":22.59},{"city":"Houston","state_name":"Texas","lat":29.68102,"lng":-95.40424,"zip":"77054","miles_from_dt":22.61},{"city":"Houston","state_name":"Texas","lat":29.75894,"lng":-95.36773,"zip":"77203","miles_from_dt":22.73},{"city":"Houston","state_name":"Texas","lat":29.75617,"lng":-95.3682,"zip":"77253","miles_from_dt":22.75},{"city":"Houston","state_name":"Texas","lat":29.759,"lng":-95.3669,"zip":"77252","miles_from_dt":22.78},{"city":"Houston","state_name":"Texas","lat":29.75546,"lng":-95.36787,"zip":"77284","miles_from_dt":22.78},{"city":"Houston","state_name":"Texas","lat":29.76374,"lng":-95.3653,"zip":"77212","miles_from_dt":22.8},{"city":"Houston","state_name":"Texas","lat":29.75745,"lng":-95.36678,"zip":"77275","miles_from_dt":22.81},{"city":"Houston","state_name":"Texas","lat":29.75897,"lng":-95.36594,"zip":"77208","miles_from_dt":22.84},{"city":"Houston","state_name":"Texas","lat":29.63634,"lng":-95.43279,"zip":"77045","miles_from_dt":22.84},{"city":"Houston","state_name":"Texas","lat":29.75807,"lng":-95.36555,"zip":"77202","miles_from_dt":22.87},{"city":"Houston","state_name":"Texas","lat":29.76257,"lng":-95.36414,"zip":"77297","miles_from_dt":22.88},{"city":"Houston","state_name":"Texas","lat":29.76393,"lng":-95.36375,"zip":"77201","miles_from_dt":22.89},{"city":"Houston","state_name":"Texas","lat":29.75635,"lng":-95.36538,"zip":"77002","miles_from_dt":22.91},{"city":"Houston","state_name":"Texas","lat":29.75774,"lng":-95.36388,"zip":"77210","miles_from_dt":22.98},{"city":"Prairie View","state_name":"Texas","lat":30.0871,"lng":-95.9895,"zip":"77446","miles_from_dt":23.01},{"city":"Houston","state_name":"Texas","lat":29.99849,"lng":-95.39804,"zip":"77073","miles_from_dt":23.11},{"city":"Houston","state_name":"Texas","lat":29.69808,"lng":-95.38416,"zip":"77230","miles_from_dt":23.17},{"city":"Houston","state_name":"Texas","lat":30.00088,"lng":-95.39827,"zip":"77273","miles_from_dt":23.18},{"city":"Houston","state_name":"Texas","lat":29.75368,"lng":-95.35987,"zip":"77010","miles_from_dt":23.28},{"city":"Houston","state_name":"Texas","lat":29.75693,"lng":-95.35896,"zip":"77052","miles_from_dt":23.28},{"city":"Spring","state_name":"Texas","lat":30.11509,"lng":-95.50752,"zip":"77389","miles_from_dt":23.55},{"city":"Houston","state_name":"Texas","lat":29.72477,"lng":-95.36498,"zip":"77004","miles_from_dt":23.56},{"city":"Houston","state_name":"Texas","lat":29.86152,"lng":-95.34395,"zip":"77293","miles_from_dt":23.57},{"city":"Houston","state_name":"Texas","lat":29.72697,"lng":-95.36171,"zip":"77288","miles_from_dt":23.7},{"city":"Houston","state_name":"Texas","lat":29.8623,"lng":-95.34097,"zip":"77093","miles_from_dt":23.75},{"city":"Richmond","state_name":"Texas","lat":29.49229,"lng":-95.70571,"zip":"77469","miles_from_dt":23.79},{"city":"Wallis","state_name":"Texas","lat":29.64118,"lng":-96.06236,"zip":"77485","miles_from_dt":23.82},{"city":"Houston","state_name":"Texas","lat":29.58549,"lng":-95.45991,"zip":"77053","miles_from_dt":23.96},{"city":"Houston","state_name":"Texas","lat":29.90923,"lng":-95.34137,"zip":"77039","miles_from_dt":24.18},{"city":"Houston","state_name":"Texas","lat":29.74961,"lng":-95.34521,"zip":"77003","miles_from_dt":24.2},{"city":"Houston","state_name":"Texas","lat":29.80013,"lng":-95.32934,"zip":"77026","miles_from_dt":24.52},{"city":"Missouri City","state_name":"Texas","lat":29.52691,"lng":-95.53407,"zip":"77459","miles_from_dt":24.54},{"city":"Houston","state_name":"Texas","lat":29.80161,"lng":-95.32886,"zip":"77226","miles_from_dt":24.54},{"city":"Houston","state_name":"Texas","lat":29.69713,"lng":-95.35751,"zip":"77021","miles_from_dt":24.66},{"city":"Houston","state_name":"Texas","lat":29.65586,"lng":-95.38023,"zip":"77051","miles_from_dt":24.72},{"city":"Houston","state_name":"Texas","lat":29.70156,"lng":-95.35251,"zip":"77221","miles_from_dt":24.83},{"city":"Houston","state_name":"Texas","lat":29.72168,"lng":-95.34356,"zip":"77204","miles_from_dt":24.85},{"city":"Spring","state_name":"Texas","lat":30.07429,"lng":-95.42279,"zip":"77383","miles_from_dt":24.89},{"city":"Spring","state_name":"Texas","lat":30.0771,"lng":-95.41774,"zip":"77387","miles_from_dt":25.24},{"city":"Houston","state_name":"Texas","lat":29.96523,"lng":-95.34004,"zip":"77032","miles_from_dt":25.33},{"city":"Houston","state_name":"Texas","lat":29.9551,"lng":-95.33574,"zip":"77205","miles_from_dt":25.34},{"city":"Houston","state_name":"Texas","lat":29.77237,"lng":-95.31509,"zip":"77220","miles_from_dt":25.64},{"city":"Magnolia","state_name":"Texas","lat":30.21166,"lng":-95.75701,"zip":"77353","miles_from_dt":25.86},{"city":"North Houston","state_name":"Texas","lat":29.92936,"lng":-95.31746,"zip":"77315","miles_from_dt":25.89},{"city":"Houston","state_name":"Texas","lat":29.65506,"lng":-95.35822,"zip":"77233","miles_from_dt":25.9},{"city":"Fresno","state_name":"Texas","lat":29.53729,"lng":-95.47242,"zip":"77545","miles_from_dt":25.99},{"city":"Houston","state_name":"Texas","lat":29.72716,"lng":-95.32093,"zip":"77223","miles_from_dt":26.03},{"city":"Houston","state_name":"Texas","lat":29.76842,"lng":-95.30878,"zip":"77020","miles_from_dt":26.06},{"city":"Spring","state_name":"Texas","lat":30.1365,"lng":-95.46863,"zip":"77380","miles_from_dt":26.12},{"city":"Spring","state_name":"Texas","lat":30.06143,"lng":-95.38423,"zip":"77373","miles_from_dt":26.14},{"city":"Spring","state_name":"Texas","lat":30.0619,"lng":-95.3838,"zip":"77393","miles_from_dt":26.18},{"city":"Houston","state_name":"Texas","lat":29.60843,"lng":-95.38662,"zip":"77047","miles_from_dt":26.21},{"city":"Houston","state_name":"Texas","lat":29.86147,"lng":-95.29951,"zip":"77016","miles_from_dt":26.23},{"city":"Houston","state_name":"Texas","lat":29.7216,"lng":-95.31827,"zip":"77023","miles_from_dt":26.29},{"city":"Magnolia","state_name":"Texas","lat":30.21113,"lng":-95.65003,"zip":"77354","miles_from_dt":26.29},{"city":"Houston","state_name":"Texas","lat":29.743,"lng":-95.30785,"zip":"77011","miles_from_dt":26.49},{"city":"Hempstead","state_name":"Texas","lat":30.09562,"lng":-96.06247,"zip":"77445","miles_from_dt":26.51},{"city":"Houston","state_name":"Texas","lat":29.66801,"lng":-95.33801,"zip":"77033","miles_from_dt":26.57},{"city":"Houston","state_name":"Texas","lat":29.82471,"lng":-95.28668,"zip":"77028","miles_from_dt":26.96},{"city":"Thompsons","state_name":"Texas","lat":29.47053,"lng":-95.56975,"zip":"77481","miles_from_dt":27.12},{"city":"Spring","state_name":"Texas","lat":30.17791,"lng":-95.50266,"zip":"77381","miles_from_dt":27.33},{"city":"Sealy","state_name":"Texas","lat":29.77583,"lng":-96.18518,"zip":"77474","miles_from_dt":27.34},{"city":"Spring","state_name":"Texas","lat":30.19961,"lng":-95.5455,"zip":"77382","miles_from_dt":27.47},{"city":"Houston","state_name":"Texas","lat":29.68631,"lng":-95.3034,"zip":"77087","miles_from_dt":27.96},{"city":"Houston","state_name":"Texas","lat":29.68782,"lng":-95.30109,"zip":"77207","miles_from_dt":28.05},{"city":"Houston","state_name":"Texas","lat":29.90286,"lng":-95.27013,"zip":"77050","miles_from_dt":28.3},{"city":"Houston","state_name":"Texas","lat":29.76496,"lng":-95.26943,"zip":"77229","miles_from_dt":28.43},{"city":"Houston","state_name":"Texas","lat":29.72315,"lng":-95.27893,"zip":"77262","miles_from_dt":28.53},{"city":"Houston","state_name":"Texas","lat":29.62154,"lng":-95.32986,"zip":"77048","miles_from_dt":28.54},{"city":"Houston","state_name":"Texas","lat":29.87466,"lng":-95.2604,"zip":"77228","miles_from_dt":28.64},{"city":"Houston","state_name":"Texas","lat":29.76382,"lng":-95.26326,"zip":"77029","miles_from_dt":28.81},{"city":"Houston","state_name":"Texas","lat":29.71904,"lng":-95.27449,"zip":"77012","miles_from_dt":28.86},{"city":"Beasley","state_name":"Texas","lat":29.46633,"lng":-95.9621,"zip":"77417","miles_from_dt":28.93},{"city":"Houston","state_name":"Texas","lat":29.8529,"lng":-95.25089,"zip":"77078","miles_from_dt":29.12},{"city":"Spring","state_name":"Texas","lat":30.10153,"lng":-95.3561,"zip":"77386","miles_from_dt":29.16},{"city":"Humble","state_name":"Texas","lat":29.94778,"lng":-95.26129,"zip":"77396","miles_from_dt":29.47},{"city":"Humble","state_name":"Texas","lat":30.00858,"lng":-95.28351,"zip":"77338","miles_from_dt":29.59},{"city":"Houston","state_name":"Texas","lat":29.70206,"lng":-95.26623,"zip":"77217","miles_from_dt":29.68},{"city":"Houston","state_name":"Texas","lat":29.65436,"lng":-95.28481,"zip":"77061","miles_from_dt":29.86},{"city":"Houston","state_name":"Texas","lat":29.7947,"lng":-95.24067,"zip":"77213","miles_from_dt":29.86},{"city":"Houston","state_name":"Texas","lat":29.79516,"lng":-95.23895,"zip":"77013","miles_from_dt":29.96}],"targetCityZipCode":"77449","targetCityState":"Texas"},"__N_SSG":true}