{"pageProps":{"stateName":"Texas","cityName":"kermit","nearbyCities":[{"city":"Wink","state_name":"Texas","lat":31.75047,"lng":-103.1948,"zip":"79789","miles_from_dt":11.84},{"city":"Wickett","state_name":"Texas","lat":31.60544,"lng":-102.98261,"zip":"79788","miles_from_dt":17.32},{"city":"Notrees","state_name":"Texas","lat":31.80913,"lng":-102.69819,"zip":"79759","miles_from_dt":19.94},{"city":"Monahans","state_name":"Texas","lat":31.54626,"lng":-102.88338,"zip":"79756","miles_from_dt":22.91},{"city":"Goldsmith","state_name":"Texas","lat":32.00833,"lng":-102.65675,"zip":"79741","miles_from_dt":24.58},{"city":"Pyote","state_name":"Texas","lat":31.47772,"lng":-103.16337,"zip":"79777","miles_from_dt":26.97},{"city":"Odessa","state_name":"Texas","lat":31.68212,"lng":-102.61973,"zip":"79769","miles_from_dt":27.04},{"city":"Mentone","state_name":"Texas","lat":31.81735,"lng":-103.49163,"zip":"79754","miles_from_dt":27.07},{"city":"Penwell","state_name":"Texas","lat":31.77513,"lng":-102.55573,"zip":"79776","miles_from_dt":28.6}],"targetCityZipCode":"79745","targetCityState":"Texas"},"__N_SSG":true}