{"pageProps":{"stateName":"Texas","cityName":"killeen","nearbyCities":[{"city":"Killeen","state_name":"Texas","lat":31.11894,"lng":-97.7266,"zip":"76547","miles_from_dt":0.41},{"city":"Killeen","state_name":"Texas","lat":31.11447,"lng":-97.72922,"zip":"76541","miles_from_dt":0.72},{"city":"Killeen","state_name":"Texas","lat":31.12343,"lng":-97.64077,"zip":"76543","miles_from_dt":4.72},{"city":"Harker Heights","state_name":"Texas","lat":31.05299,"lng":-97.64613,"zip":"76548","miles_from_dt":6.46},{"city":"Nolanville","state_name":"Texas","lat":31.07987,"lng":-97.61079,"zip":"76559","miles_from_dt":7.11},{"city":"Fort Hood","state_name":"Texas","lat":31.23134,"lng":-97.75867,"zip":"76544","miles_from_dt":7.89},{"city":"Killeen","state_name":"Texas","lat":31.00062,"lng":-97.7274,"zip":"76542","miles_from_dt":8.35},{"city":"Killeen","state_name":"Texas","lat":31.01583,"lng":-97.82546,"zip":"76549","miles_from_dt":9.59},{"city":"Belton","state_name":"Texas","lat":31.05777,"lng":-97.50369,"zip":"76513","miles_from_dt":13.58},{"city":"Salado","state_name":"Texas","lat":30.93305,"lng":-97.58448,"zip":"76571","miles_from_dt":15.29},{"city":"Mound","state_name":"Texas","lat":31.308,"lng":-97.56967,"zip":"76558","miles_from_dt":15.64},{"city":"Flat","state_name":"Texas","lat":31.31204,"lng":-97.57222,"zip":"76526","miles_from_dt":15.78},{"city":"Copperas Cove","state_name":"Texas","lat":31.21577,"lng":-97.97215,"zip":"76522","miles_from_dt":16.26},{"city":"Kempner","state_name":"Texas","lat":31.09193,"lng":-97.9992,"zip":"76539","miles_from_dt":16.65},{"city":"Temple","state_name":"Texas","lat":31.15517,"lng":-97.4413,"zip":"76503","miles_from_dt":16.7},{"city":"Briggs","state_name":"Texas","lat":30.9341,"lng":-97.93255,"zip":"78608","miles_from_dt":18.03},{"city":"Temple","state_name":"Texas","lat":31.09388,"lng":-97.41082,"zip":"76502","miles_from_dt":18.45},{"city":"Florence","state_name":"Texas","lat":30.8379,"lng":-97.79531,"zip":"76527","miles_from_dt":20.04},{"city":"Temple","state_name":"Texas","lat":31.14135,"lng":-97.37748,"zip":"76504","miles_from_dt":20.37},{"city":"Temple","state_name":"Texas","lat":31.09289,"lng":-97.36482,"zip":"76508","miles_from_dt":21.17},{"city":"Gatesville","state_name":"Texas","lat":31.43589,"lng":-97.7844,"zip":"76528","miles_from_dt":21.98},{"city":"Jarrell","state_name":"Texas","lat":30.81779,"lng":-97.60645,"zip":"76537","miles_from_dt":22},{"city":"Moody","state_name":"Texas","lat":31.29075,"lng":-97.39814,"zip":"76557","miles_from_dt":22.36},{"city":"Little River Academy","state_name":"Texas","lat":30.97583,"lng":-97.3677,"zip":"76554","miles_from_dt":23.21},{"city":"Oglesby","state_name":"Texas","lat":31.42531,"lng":-97.54098,"zip":"76561","miles_from_dt":23.46},{"city":"Heidenheimer","state_name":"Texas","lat":31.08037,"lng":-97.32376,"zip":"76533","miles_from_dt":23.69},{"city":"Gatesville","state_name":"Texas","lat":31.47092,"lng":-97.73361,"zip":"76599","miles_from_dt":24.08},{"city":"Gatesville","state_name":"Texas","lat":31.47543,"lng":-97.73488,"zip":"76598","miles_from_dt":24.39},{"city":"Gatesville","state_name":"Texas","lat":31.47626,"lng":-97.72696,"zip":"76596","miles_from_dt":24.44},{"city":"Schwertner","state_name":"Texas","lat":30.81864,"lng":-97.50226,"zip":"76573","miles_from_dt":24.56},{"city":"Gatesville","state_name":"Texas","lat":31.48446,"lng":-97.70983,"zip":"76597","miles_from_dt":25.01},{"city":"Georgetown","state_name":"Texas","lat":30.73803,"lng":-97.75465,"zip":"78633","miles_from_dt":26.5},{"city":"Holland","state_name":"Texas","lat":30.88225,"lng":-97.36952,"zip":"76534","miles_from_dt":26.56},{"city":"Pendleton","state_name":"Texas","lat":31.15637,"lng":-97.25561,"zip":"76564","miles_from_dt":27.65},{"city":"Troy","state_name":"Texas","lat":31.19894,"lng":-97.26046,"zip":"76579","miles_from_dt":27.77},{"city":"Temple","state_name":"Texas","lat":31.07555,"lng":-97.25469,"zip":"76501","miles_from_dt":27.79},{"city":"Walburg","state_name":"Texas","lat":30.73653,"lng":-97.5776,"zip":"78673","miles_from_dt":27.85},{"city":"Bartlett","state_name":"Texas","lat":30.79955,"lng":-97.42293,"zip":"76511","miles_from_dt":28.36},{"city":"McGregor","state_name":"Texas","lat":31.43851,"lng":-97.39971,"zip":"76657","miles_from_dt":28.93},{"city":"Lampasas","state_name":"Texas","lat":31.07714,"lng":-98.22165,"zip":"76550","miles_from_dt":29.87}],"targetCityZipCode":"76540","targetCityState":"Texas"},"__N_SSG":true}