{"pageProps":{"stateName":"Texas","cityName":"la-joya","nearbyCities":[{"city":"Los Ebanos","state_name":"Texas","lat":26.24453,"lng":-98.561,"zip":"78565","miles_from_dt":4.16},{"city":"Sullivan City","state_name":"Texas","lat":26.31457,"lng":-98.54038,"zip":"78595","miles_from_dt":4.94},{"city":"Penitas","state_name":"Texas","lat":26.32584,"lng":-98.46799,"zip":"78576","miles_from_dt":5.13},{"city":"Mission","state_name":"Texas","lat":26.31118,"lng":-98.37293,"zip":"78574","miles_from_dt":8.5},{"city":"Mission","state_name":"Texas","lat":26.19848,"lng":-98.35633,"zip":"78572","miles_from_dt":9.47},{"city":"Grulla","state_name":"Texas","lat":26.27654,"lng":-98.65527,"zip":"78548","miles_from_dt":10.04},{"city":"Mission","state_name":"Texas","lat":26.29745,"lng":-98.30242,"zip":"78573","miles_from_dt":12.31},{"city":"Garciasville","state_name":"Texas","lat":26.30868,"lng":-98.69723,"zip":"78547","miles_from_dt":13.07},{"city":"Mcallen","state_name":"Texas","lat":26.19828,"lng":-98.24697,"zip":"78502","miles_from_dt":15.9},{"city":"Mcallen","state_name":"Texas","lat":26.27758,"lng":-98.23728,"zip":"78504","miles_from_dt":16.08},{"city":"Mcallen","state_name":"Texas","lat":26.21599,"lng":-98.2391,"zip":"78501","miles_from_dt":16.13},{"city":"Mcallen","state_name":"Texas","lat":26.16229,"lng":-98.25132,"zip":"78503","miles_from_dt":16.44},{"city":"Mcallen","state_name":"Texas","lat":26.20016,"lng":-98.23297,"zip":"78505","miles_from_dt":16.72},{"city":"Hidalgo","state_name":"Texas","lat":26.10844,"lng":-98.25118,"zip":"78557","miles_from_dt":18.22},{"city":"Edinburg","state_name":"Texas","lat":26.4528,"lng":-98.28632,"zip":"78541","miles_from_dt":18.77},{"city":"Edinburg","state_name":"Texas","lat":26.28,"lng":-98.18311,"zip":"78539","miles_from_dt":19.44},{"city":"Pharr","state_name":"Texas","lat":26.1665,"lng":-98.19082,"zip":"78577","miles_from_dt":19.87},{"city":"San Juan","state_name":"Texas","lat":26.15349,"lng":-98.15979,"zip":"78589","miles_from_dt":21.98},{"city":"Alamo","state_name":"Texas","lat":26.14256,"lng":-98.11977,"zip":"78516","miles_from_dt":24.57},{"city":"Rio Grande City","state_name":"Texas","lat":26.53937,"lng":-98.73985,"zip":"78582","miles_from_dt":24.74},{"city":"Delmita","state_name":"Texas","lat":26.6432,"lng":-98.44369,"zip":"78536","miles_from_dt":26.88},{"city":"Santa Elena","state_name":"Texas","lat":26.65351,"lng":-98.53408,"zip":"78591","miles_from_dt":27.51},{"city":"Donna","state_name":"Texas","lat":26.17322,"lng":-98.05744,"zip":"78537","miles_from_dt":27.76},{"city":"Edinburg","state_name":"Texas","lat":26.44412,"lng":-98.09163,"zip":"78542","miles_from_dt":28.2},{"city":"La Blanca","state_name":"Texas","lat":26.29276,"lng":-98.02366,"zip":"78558","miles_from_dt":29.38}],"targetCityZipCode":"78560","targetCityState":"Texas"},"__N_SSG":true}