{"pageProps":{"stateName":"Texas","cityName":"ladonia","nearbyCities":[{"city":"Pecan Gap","state_name":"Texas","lat":33.41269,"lng":-95.8248,"zip":"75469","miles_from_dt":7.23},{"city":"Wolfe City","state_name":"Texas","lat":33.36276,"lng":-96.06616,"zip":"75496","miles_from_dt":7.93},{"city":"Commerce","state_name":"Texas","lat":33.27847,"lng":-95.89231,"zip":"75429","miles_from_dt":10.49},{"city":"Gober","state_name":"Texas","lat":33.55431,"lng":-96.04411,"zip":"75443","miles_from_dt":10.58},{"city":"Commerce","state_name":"Texas","lat":33.27132,"lng":-95.91799,"zip":"75428","miles_from_dt":10.61},{"city":"Klondike","state_name":"Texas","lat":33.31478,"lng":-95.79681,"zip":"75448","miles_from_dt":11.55},{"city":"Windom","state_name":"Texas","lat":33.59139,"lng":-96.0004,"zip":"75492","miles_from_dt":11.97},{"city":"Ben Franklin","state_name":"Texas","lat":33.4645,"lng":-95.74603,"zip":"75415","miles_from_dt":12.09},{"city":"Bailey","state_name":"Texas","lat":33.43596,"lng":-96.16477,"zip":"75413","miles_from_dt":12.48},{"city":"Honey Grove","state_name":"Texas","lat":33.61385,"lng":-95.89177,"zip":"75446","miles_from_dt":13.57},{"city":"Petty","state_name":"Texas","lat":33.58341,"lng":-95.79836,"zip":"75470","miles_from_dt":14.08},{"city":"Roxton","state_name":"Texas","lat":33.53118,"lng":-95.73429,"zip":"75477","miles_from_dt":14.48},{"city":"Dodd City","state_name":"Texas","lat":33.60701,"lng":-96.07462,"zip":"75438","miles_from_dt":14.6},{"city":"Cooper","state_name":"Texas","lat":33.38912,"lng":-95.66804,"zip":"75432","miles_from_dt":16.42},{"city":"Bonham","state_name":"Texas","lat":33.57235,"lng":-96.1773,"zip":"75418","miles_from_dt":16.71},{"city":"Celeste","state_name":"Texas","lat":33.29279,"lng":-96.19918,"zip":"75423","miles_from_dt":17.01},{"city":"Enloe","state_name":"Texas","lat":33.4296,"lng":-95.65456,"zip":"75441","miles_from_dt":17.04},{"city":"Leonard","state_name":"Texas","lat":33.39284,"lng":-96.24469,"zip":"75452","miles_from_dt":17.2},{"city":"Merit","state_name":"Texas","lat":33.2821,"lng":-96.20939,"zip":"75458","miles_from_dt":17.9},{"city":"Greenville","state_name":"Texas","lat":33.1957,"lng":-96.10597,"zip":"75403","miles_from_dt":18.1},{"city":"Greenville","state_name":"Texas","lat":33.19283,"lng":-96.10546,"zip":"75404","miles_from_dt":18.26},{"city":"Randolph","state_name":"Texas","lat":33.48593,"lng":-96.25757,"zip":"75475","miles_from_dt":18.33},{"city":"Greenville","state_name":"Texas","lat":33.18506,"lng":-96.11556,"zip":"75401","miles_from_dt":19.01},{"city":"Campbell","state_name":"Texas","lat":33.13889,"lng":-95.93059,"zip":"75422","miles_from_dt":19.61},{"city":"Brookston","state_name":"Texas","lat":33.6448,"lng":-95.71809,"zip":"75421","miles_from_dt":20.29},{"city":"Trenton","state_name":"Texas","lat":33.4363,"lng":-96.30771,"zip":"75490","miles_from_dt":20.73},{"city":"Ector","state_name":"Texas","lat":33.55261,"lng":-96.27796,"zip":"75439","miles_from_dt":20.98},{"city":"Cumby","state_name":"Texas","lat":33.10883,"lng":-95.80571,"zip":"75433","miles_from_dt":23.19},{"city":"Telephone","state_name":"Texas","lat":33.77628,"lng":-95.98899,"zip":"75488","miles_from_dt":24.46},{"city":"Ivanhoe","state_name":"Texas","lat":33.765,"lng":-96.11966,"zip":"75447","miles_from_dt":25.54},{"city":"Greenville","state_name":"Texas","lat":33.06724,"lng":-96.08576,"zip":"75402","miles_from_dt":25.76},{"city":"Sumner","state_name":"Texas","lat":33.75757,"lng":-95.74663,"zip":"75486","miles_from_dt":25.85},{"city":"Paris","state_name":"Texas","lat":33.6627,"lng":-95.60296,"zip":"75460","miles_from_dt":25.93},{"city":"Ravenna","state_name":"Texas","lat":33.70793,"lng":-96.24342,"zip":"75476","miles_from_dt":25.95},{"city":"Whitewright","state_name":"Texas","lat":33.49741,"lng":-96.39485,"zip":"75491","miles_from_dt":26.24},{"city":"Sulphur Springs","state_name":"Texas","lat":33.16929,"lng":-95.60946,"zip":"75482","miles_from_dt":26.32},{"city":"Westminster","state_name":"Texas","lat":33.3056,"lng":-96.3841,"zip":"75485","miles_from_dt":26.41},{"city":"Savoy","state_name":"Texas","lat":33.63007,"lng":-96.3386,"zip":"75479","miles_from_dt":26.62},{"city":"Blue Ridge","state_name":"Texas","lat":33.30535,"lng":-96.39059,"zip":"75424","miles_from_dt":26.78},{"city":"Lake Creek","state_name":"Texas","lat":33.40465,"lng":-95.47481,"zip":"75450","miles_from_dt":27.45},{"city":"Chicota","state_name":"Texas","lat":33.77151,"lng":-95.71361,"zip":"75425","miles_from_dt":27.6},{"city":"Sulphur Springs","state_name":"Texas","lat":33.14222,"lng":-95.59786,"zip":"75483","miles_from_dt":28.08},{"city":"Paris","state_name":"Texas","lat":33.66182,"lng":-95.55245,"zip":"75461","miles_from_dt":28.2},{"city":"Brashear","state_name":"Texas","lat":33.05782,"lng":-95.72503,"zip":"75420","miles_from_dt":28.32},{"city":"Farmersville","state_name":"Texas","lat":33.17717,"lng":-96.35035,"zip":"75442","miles_from_dt":28.73},{"city":"Lone Oak","state_name":"Texas","lat":33.00025,"lng":-95.92817,"zip":"75453","miles_from_dt":29.16},{"city":"Caddo Mills","state_name":"Texas","lat":33.06666,"lng":-96.22567,"zip":"75135","miles_from_dt":29.31},{"city":"Copeville","state_name":"Texas","lat":33.17163,"lng":-96.37204,"zip":"75121","miles_from_dt":29.98}],"targetCityZipCode":"75449","targetCityState":"Texas"},"__N_SSG":true}