{"pageProps":{"stateName":"Texas","cityName":"lovelady","nearbyCities":[{"city":"Trinity","state_name":"Texas","lat":30.96193,"lng":-95.32951,"zip":"75862","miles_from_dt":13.44},{"city":"Crockett","state_name":"Texas","lat":31.29758,"lng":-95.48834,"zip":"75835","miles_from_dt":13.99},{"city":"Midway","state_name":"Texas","lat":30.98723,"lng":-95.72023,"zip":"75852","miles_from_dt":15.24},{"city":"Pennington","state_name":"Texas","lat":31.20138,"lng":-95.2537,"zip":"75856","miles_from_dt":16.11},{"city":"Riverside","state_name":"Texas","lat":30.8504,"lng":-95.39147,"zip":"77367","miles_from_dt":17.92},{"city":"Huntsville","state_name":"Texas","lat":30.80672,"lng":-95.55687,"zip":"77320","miles_from_dt":20.16},{"city":"Latexo","state_name":"Texas","lat":31.39624,"lng":-95.47618,"zip":"75849","miles_from_dt":20.81},{"city":"Dodge","state_name":"Texas","lat":30.77996,"lng":-95.36465,"zip":"77334","miles_from_dt":23.03},{"city":"Centerville","state_name":"Texas","lat":31.26304,"lng":-95.83999,"zip":"75833","miles_from_dt":23.47},{"city":"Groveton","state_name":"Texas","lat":31.09488,"lng":-95.08707,"zip":"75845","miles_from_dt":24.22},{"city":"Huntsville","state_name":"Texas","lat":30.73877,"lng":-95.55911,"zip":"77342","miles_from_dt":24.8},{"city":"Leona","state_name":"Texas","lat":31.13209,"lng":-95.91595,"zip":"75850","miles_from_dt":25.05},{"city":"Madisonville","state_name":"Texas","lat":30.96087,"lng":-95.89297,"zip":"77864","miles_from_dt":25.31},{"city":"Oakhurst","state_name":"Texas","lat":30.76262,"lng":-95.30441,"zip":"77359","miles_from_dt":25.53},{"city":"Huntsville","state_name":"Texas","lat":30.7228,"lng":-95.54872,"zip":"77343","miles_from_dt":25.81},{"city":"Huntsville","state_name":"Texas","lat":30.72286,"lng":-95.55333,"zip":"77348","miles_from_dt":25.84},{"city":"Huntsville","state_name":"Texas","lat":30.72204,"lng":-95.55279,"zip":"77344","miles_from_dt":25.89},{"city":"Huntsville","state_name":"Texas","lat":30.72181,"lng":-95.55114,"zip":"77349","miles_from_dt":25.89},{"city":"Huntsville","state_name":"Texas","lat":30.69818,"lng":-95.55886,"zip":"77341","miles_from_dt":27.57},{"city":"Kennard","state_name":"Texas","lat":31.35204,"lng":-95.13564,"zip":"75847","miles_from_dt":27.72},{"city":"Pointblank","state_name":"Texas","lat":30.76592,"lng":-95.22168,"zip":"77364","miles_from_dt":27.88},{"city":"Onalaska","state_name":"Texas","lat":30.8471,"lng":-95.11394,"zip":"77360","miles_from_dt":28.35},{"city":"Ratcliff","state_name":"Texas","lat":31.38083,"lng":-95.13676,"zip":"75858","miles_from_dt":28.98},{"city":"Centralia","state_name":"Texas","lat":31.25837,"lng":-95.04062,"zip":"75834","miles_from_dt":29.21},{"city":"Grapeland","state_name":"Texas","lat":31.51921,"lng":-95.43481,"zip":"75844","miles_from_dt":29.47}],"targetCityZipCode":"75851","targetCityState":"Texas"},"__N_SSG":true}