{"pageProps":{"stateName":"Texas","cityName":"mathis","nearbyCities":[{"city":"Tynan","state_name":"Texas","lat":28.18297,"lng":-97.72743,"zip":"78391","miles_from_dt":7.06},{"city":"Sandia","state_name":"Texas","lat":28.07713,"lng":-97.94425,"zip":"78383","miles_from_dt":8.44},{"city":"Edroy","state_name":"Texas","lat":27.98154,"lng":-97.68978,"zip":"78352","miles_from_dt":11.73},{"city":"Dinero","state_name":"Texas","lat":28.2261,"lng":-97.96128,"zip":"78350","miles_from_dt":11.99},{"city":"Skidmore","state_name":"Texas","lat":28.244,"lng":-97.66619,"zip":"78389","miles_from_dt":12.67},{"city":"Sinton","state_name":"Texas","lat":28.08224,"lng":-97.55255,"zip":"78387","miles_from_dt":15.98},{"city":"Odem","state_name":"Texas","lat":27.94238,"lng":-97.6033,"zip":"78370","miles_from_dt":17.34},{"city":"Orange Grove","state_name":"Texas","lat":27.9979,"lng":-98.09669,"zip":"78372","miles_from_dt":19.11},{"city":"Beeville","state_name":"Texas","lat":28.4094,"lng":-97.71733,"zip":"78102","miles_from_dt":21.21},{"city":"Banquete","state_name":"Texas","lat":27.80036,"lng":-97.7912,"zip":"78339","miles_from_dt":21.57},{"city":"Corpus Christi","state_name":"Texas","lat":27.84057,"lng":-97.59702,"zip":"78426","miles_from_dt":22.9},{"city":"Corpus Christi","state_name":"Texas","lat":27.83798,"lng":-97.59388,"zip":"78410","miles_from_dt":23.16},{"city":"George West","state_name":"Texas","lat":28.24222,"lng":-98.16421,"zip":"78022","miles_from_dt":23.26},{"city":"Corpus Christi","state_name":"Texas","lat":27.83121,"lng":-97.59621,"zip":"78460","miles_from_dt":23.46},{"city":"Robstown","state_name":"Texas","lat":27.77872,"lng":-97.7363,"zip":"78380","miles_from_dt":23.48},{"city":"Agua Dulce","state_name":"Texas","lat":27.7656,"lng":-97.91378,"zip":"78330","miles_from_dt":24.72},{"city":"Corpus Christi","state_name":"Texas","lat":27.81729,"lng":-97.51458,"zip":"78409","miles_from_dt":27.3},{"city":"Woodsboro","state_name":"Texas","lat":28.18097,"lng":-97.35427,"zip":"78393","miles_from_dt":28.33},{"city":"Beeville","state_name":"Texas","lat":28.52361,"lng":-97.76197,"zip":"78104","miles_from_dt":28.44},{"city":"Taft","state_name":"Texas","lat":28.00198,"lng":-97.35631,"zip":"78390","miles_from_dt":28.87},{"city":"Normanna","state_name":"Texas","lat":28.53632,"lng":-97.81297,"zip":"78142","miles_from_dt":29.15},{"city":"Corpus Christi","state_name":"Texas","lat":27.77197,"lng":-97.51543,"zip":"78406","miles_from_dt":29.67}],"targetCityZipCode":"78368","targetCityState":"Texas"},"__N_SSG":true}