{"pageProps":{"stateName":"Texas","cityName":"muleshoe","nearbyCities":[{"city":"Sudan","state_name":"Texas","lat":33.97942,"lng":-102.69414,"zip":"79371","miles_from_dt":15.54},{"city":"Farwell","state_name":"Texas","lat":34.40798,"lng":-102.93821,"zip":"79325","miles_from_dt":17.18},{"city":"Lazbuddie","state_name":"Texas","lat":34.40284,"lng":-102.59106,"zip":"79053","miles_from_dt":18.91},{"city":"Earth","state_name":"Texas","lat":34.24501,"lng":-102.45225,"zip":"79031","miles_from_dt":20.12},{"city":"Enochs","state_name":"Texas","lat":33.88759,"lng":-102.73534,"zip":"79324","miles_from_dt":21.01},{"city":"Bovina","state_name":"Texas","lat":34.53016,"lng":-102.88533,"zip":"79009","miles_from_dt":24.12},{"city":"Maple","state_name":"Texas","lat":33.85677,"lng":-103.0143,"zip":"79344","miles_from_dt":26.02},{"city":"Amherst","state_name":"Texas","lat":34.06218,"lng":-102.36794,"zip":"79312","miles_from_dt":26.07},{"city":"Clovis","state_name":"New Mexico","lat":34.39256,"lng":-103.21577,"zip":"88102","miles_from_dt":27.81},{"city":"Rogers","state_name":"New Mexico","lat":33.92382,"lng":-103.18855,"zip":"88132","miles_from_dt":28.93},{"city":"Springlake","state_name":"Texas","lat":34.21881,"lng":-102.2862,"zip":"79082","miles_from_dt":29.32}],"targetCityZipCode":"79347","targetCityState":"Texas"},"__N_SSG":true}