{"pageProps":{"stateName":"Texas","cityName":"needville","nearbyCities":[{"city":"Guy","state_name":"Texas","lat":29.29641,"lng":-95.77794,"zip":"77444","miles_from_dt":6.56},{"city":"Richmond","state_name":"Texas","lat":29.49229,"lng":-95.70571,"zip":"77469","miles_from_dt":8.05},{"city":"Damon","state_name":"Texas","lat":29.26487,"lng":-95.65616,"zip":"77430","miles_from_dt":11.24},{"city":"Rosenberg","state_name":"Texas","lat":29.55159,"lng":-95.86785,"zip":"77471","miles_from_dt":12.4},{"city":"Beasley","state_name":"Texas","lat":29.46633,"lng":-95.9621,"zip":"77417","miles_from_dt":12.49},{"city":"Thompsons","state_name":"Texas","lat":29.47053,"lng":-95.56975,"zip":"77481","miles_from_dt":13.43},{"city":"Boling","state_name":"Texas","lat":29.23404,"lng":-95.91908,"zip":"77420","miles_from_dt":13.96},{"city":"Sugar Land","state_name":"Texas","lat":29.56503,"lng":-95.6346,"zip":"77479","miles_from_dt":14.58},{"city":"Kendleton","state_name":"Texas","lat":29.46173,"lng":-96.02688,"zip":"77451","miles_from_dt":16.03},{"city":"Missouri City","state_name":"Texas","lat":29.52691,"lng":-95.53407,"zip":"77459","miles_from_dt":17.18},{"city":"West Columbia","state_name":"Texas","lat":29.15495,"lng":-95.6805,"zip":"77486","miles_from_dt":17.24},{"city":"Pledger","state_name":"Texas","lat":29.14681,"lng":-95.85173,"zip":"77468","miles_from_dt":17.51},{"city":"Richmond","state_name":"Texas","lat":29.64571,"lng":-95.79184,"zip":"77406","miles_from_dt":17.54},{"city":"Sugar Land","state_name":"Texas","lat":29.6186,"lng":-95.63687,"zip":"77487","miles_from_dt":17.67},{"city":"Sugar Land","state_name":"Texas","lat":29.6202,"lng":-95.63775,"zip":"77496","miles_from_dt":17.74},{"city":"Danciger","state_name":"Texas","lat":29.13239,"lng":-95.82309,"zip":"77431","miles_from_dt":18.1},{"city":"Lane City","state_name":"Texas","lat":29.23303,"lng":-96.01802,"zip":"77453","miles_from_dt":18.36},{"city":"Sugar Land","state_name":"Texas","lat":29.61896,"lng":-95.6077,"zip":"77478","miles_from_dt":18.57},{"city":"Orchard","state_name":"Texas","lat":29.61807,"lng":-95.94148,"zip":"77464","miles_from_dt":18.6},{"city":"Sugar Land","state_name":"Texas","lat":29.64224,"lng":-95.65244,"zip":"77498","miles_from_dt":18.74},{"city":"Hungerford","state_name":"Texas","lat":29.4147,"lng":-96.08746,"zip":"77448","miles_from_dt":19},{"city":"Rosharon","state_name":"Texas","lat":29.37763,"lng":-95.4585,"zip":"77583","miles_from_dt":19.02},{"city":"Richmond","state_name":"Texas","lat":29.67658,"lng":-95.71455,"zip":"77407","miles_from_dt":19.95},{"city":"Stafford","state_name":"Texas","lat":29.61558,"lng":-95.55467,"zip":"77497","miles_from_dt":20.29},{"city":"Stafford","state_name":"Texas","lat":29.62625,"lng":-95.56718,"zip":"77477","miles_from_dt":20.39},{"city":"Sweeny","state_name":"Texas","lat":29.09388,"lng":-95.76692,"zip":"77480","miles_from_dt":20.51},{"city":"Wharton","state_name":"Texas","lat":29.29833,"lng":-96.09821,"zip":"77488","miles_from_dt":20.62},{"city":"Fresno","state_name":"Texas","lat":29.53729,"lng":-95.47242,"zip":"77545","miles_from_dt":20.73},{"city":"Missouri City","state_name":"Texas","lat":29.60068,"lng":-95.51605,"zip":"77489","miles_from_dt":21.16},{"city":"Van Vleck","state_name":"Texas","lat":29.09351,"lng":-95.88411,"zip":"77482","miles_from_dt":21.59},{"city":"Old Ocean","state_name":"Texas","lat":29.07739,"lng":-95.74824,"zip":"77463","miles_from_dt":21.69},{"city":"Houston","state_name":"Texas","lat":29.69316,"lng":-95.64858,"zip":"77083","miles_from_dt":22.09},{"city":"Houston","state_name":"Texas","lat":29.67067,"lng":-95.58485,"zip":"77099","miles_from_dt":22.33},{"city":"Fulshear","state_name":"Texas","lat":29.6955,"lng":-95.90896,"zip":"77441","miles_from_dt":22.47},{"city":"East Bernard","state_name":"Texas","lat":29.51111,"lng":-96.12395,"zip":"77435","miles_from_dt":22.68},{"city":"Houston","state_name":"Texas","lat":29.65434,"lng":-95.54622,"zip":"77031","miles_from_dt":22.69},{"city":"Simonton","state_name":"Texas","lat":29.67551,"lng":-95.97105,"zip":"77476","miles_from_dt":22.89},{"city":"Houston","state_name":"Texas","lat":29.58549,"lng":-95.45991,"zip":"77053","miles_from_dt":23.14},{"city":"Houston","state_name":"Texas","lat":29.65265,"lng":-95.52046,"zip":"77071","miles_from_dt":23.57},{"city":"Houston","state_name":"Texas","lat":29.62465,"lng":-95.48411,"zip":"77085","miles_from_dt":23.7},{"city":"Houston","state_name":"Texas","lat":29.65966,"lng":-95.52638,"zip":"77271","miles_from_dt":23.71},{"city":"Houston","state_name":"Texas","lat":29.70006,"lng":-95.58539,"zip":"77072","miles_from_dt":24.08},{"city":"Houston","state_name":"Texas","lat":29.69984,"lng":-95.58269,"zip":"77272","miles_from_dt":24.14},{"city":"Houston","state_name":"Texas","lat":29.72383,"lng":-95.6414,"zip":"77082","miles_from_dt":24.23},{"city":"Wallis","state_name":"Texas","lat":29.64118,"lng":-96.06236,"zip":"77485","miles_from_dt":24.46},{"city":"Angleton","state_name":"Texas","lat":29.17604,"lng":-95.44955,"zip":"77515","miles_from_dt":24.55},{"city":"Katy","state_name":"Texas","lat":29.74566,"lng":-95.82302,"zip":"77494","miles_from_dt":24.57},{"city":"Katy","state_name":"Texas","lat":29.74753,"lng":-95.73696,"zip":"77450","miles_from_dt":24.61},{"city":"Katy","state_name":"Texas","lat":29.74703,"lng":-95.82166,"zip":"77492","miles_from_dt":24.65},{"city":"Glen Flora","state_name":"Texas","lat":29.35835,"lng":-96.18255,"zip":"77443","miles_from_dt":24.79},{"city":"Manvel","state_name":"Texas","lat":29.47794,"lng":-95.36757,"zip":"77578","miles_from_dt":25.18},{"city":"Houston","state_name":"Texas","lat":29.6541,"lng":-95.48112,"zip":"77235","miles_from_dt":25.24},{"city":"Houston","state_name":"Texas","lat":29.65269,"lng":-95.47688,"zip":"77035","miles_from_dt":25.35},{"city":"Houston","state_name":"Texas","lat":29.65433,"lng":-95.4754,"zip":"77231","miles_from_dt":25.49},{"city":"Houston","state_name":"Texas","lat":29.68799,"lng":-95.51644,"zip":"77274","miles_from_dt":25.62},{"city":"Houston","state_name":"Texas","lat":29.68821,"lng":-95.51633,"zip":"77074","miles_from_dt":25.64},{"city":"Houston","state_name":"Texas","lat":29.70119,"lng":-95.53659,"zip":"77036","miles_from_dt":25.66},{"city":"Houston","state_name":"Texas","lat":29.7026,"lng":-95.53899,"zip":"77251","miles_from_dt":25.66},{"city":"Angleton","state_name":"Texas","lat":29.16884,"lng":-95.43136,"zip":"77516","miles_from_dt":25.73},{"city":"Alief","state_name":"Texas","lat":29.7308,"lng":-95.59262,"zip":"77411","miles_from_dt":25.78},{"city":"Houston","state_name":"Texas","lat":29.75375,"lng":-95.64189,"zip":"77077","miles_from_dt":26.17},{"city":"Houston","state_name":"Texas","lat":29.74541,"lng":-95.61334,"zip":"77282","miles_from_dt":26.21},{"city":"Houston","state_name":"Texas","lat":29.67464,"lng":-95.47965,"zip":"77096","miles_from_dt":26.33},{"city":"Barker","state_name":"Texas","lat":29.77063,"lng":-95.7023,"zip":"77413","miles_from_dt":26.46},{"city":"Houston","state_name":"Texas","lat":29.63634,"lng":-95.43279,"zip":"77045","miles_from_dt":26.56},{"city":"Houston","state_name":"Texas","lat":29.64035,"lng":-95.43586,"zip":"77245","miles_from_dt":26.59},{"city":"Houston","state_name":"Texas","lat":29.7738,"lng":-95.69955,"zip":"77094","miles_from_dt":26.7},{"city":"Houston","state_name":"Texas","lat":29.73257,"lng":-95.55978,"zip":"77242","miles_from_dt":26.78},{"city":"Pierce","state_name":"Texas","lat":29.23345,"lng":-96.18563,"zip":"77467","miles_from_dt":27.16},{"city":"Houston","state_name":"Texas","lat":29.74125,"lng":-95.56015,"zip":"77042","miles_from_dt":27.29},{"city":"Katy","state_name":"Texas","lat":29.78608,"lng":-95.82084,"zip":"77491","miles_from_dt":27.32},{"city":"Houston","state_name":"Texas","lat":29.70724,"lng":-95.49797,"zip":"77236","miles_from_dt":27.35},{"city":"Pearland","state_name":"Texas","lat":29.54577,"lng":-95.35013,"zip":"77584","miles_from_dt":27.64},{"city":"Houston","state_name":"Texas","lat":29.60843,"lng":-95.38662,"zip":"77047","miles_from_dt":27.68},{"city":"Houston","state_name":"Texas","lat":29.72856,"lng":-95.5192,"zip":"77263","miles_from_dt":27.8},{"city":"Egypt","state_name":"Texas","lat":29.38874,"lng":-96.23832,"zip":"77436","miles_from_dt":28.04},{"city":"Houston","state_name":"Texas","lat":29.7356,"lng":-95.52157,"zip":"77063","miles_from_dt":28.13},{"city":"Bellaire","state_name":"Texas","lat":29.70662,"lng":-95.47534,"zip":"77402","miles_from_dt":28.16},{"city":"Houston","state_name":"Texas","lat":29.7365,"lng":-95.52117,"zip":"77215","miles_from_dt":28.2},{"city":"Houston","state_name":"Texas","lat":29.71219,"lng":-95.48026,"zip":"77081","miles_from_dt":28.27},{"city":"Houston","state_name":"Texas","lat":29.77632,"lng":-95.6037,"zip":"77079","miles_from_dt":28.4},{"city":"Houston","state_name":"Texas","lat":29.77755,"lng":-95.60326,"zip":"77244","miles_from_dt":28.49},{"city":"Bellaire","state_name":"Texas","lat":29.70398,"lng":-95.46192,"zip":"77401","miles_from_dt":28.55},{"city":"Houston","state_name":"Texas","lat":29.68584,"lng":-95.43512,"zip":"77025","miles_from_dt":28.74},{"city":"Houston","state_name":"Texas","lat":29.7341,"lng":-95.49864,"zip":"77237","miles_from_dt":28.82},{"city":"Lissie","state_name":"Texas","lat":29.54304,"lng":-96.23044,"zip":"77454","miles_from_dt":29.45},{"city":"Lake Jackson","state_name":"Texas","lat":29.04971,"lng":-95.47511,"zip":"77566","miles_from_dt":29.65},{"city":"Houston","state_name":"Texas","lat":29.74522,"lng":-95.48885,"zip":"77057","miles_from_dt":29.78},{"city":"Houston","state_name":"Texas","lat":29.74458,"lng":-95.48617,"zip":"77257","miles_from_dt":29.84},{"city":"Houston","state_name":"Texas","lat":29.68102,"lng":-95.40424,"zip":"77054","miles_from_dt":29.86},{"city":"Houston","state_name":"Texas","lat":29.65586,"lng":-95.38023,"zip":"77051","miles_from_dt":29.87},{"city":"Houston","state_name":"Texas","lat":29.69311,"lng":-95.41646,"zip":"77225","miles_from_dt":29.89}],"targetCityZipCode":"77461","targetCityState":"Texas"},"__N_SSG":true}