{"pageProps":{"stateName":"Texas","cityName":"sanford","nearbyCities":[{"city":"Fritch","state_name":"Texas","lat":35.59727,"lng":-101.54826,"zip":"79036","miles_from_dt":6.98},{"city":"Borger","state_name":"Texas","lat":35.69845,"lng":-101.42383,"zip":"79008","miles_from_dt":7.1},{"city":"Borger","state_name":"Texas","lat":35.66635,"lng":-101.41444,"zip":"79007","miles_from_dt":7.94},{"city":"Stinnett","state_name":"Texas","lat":35.87359,"lng":-101.51422,"zip":"79083","miles_from_dt":12.23},{"city":"Skellytown","state_name":"Texas","lat":35.70341,"lng":-101.21116,"zip":"79080","miles_from_dt":19.06},{"city":"Morse","state_name":"Texas","lat":35.99616,"lng":-101.52733,"zip":"79062","miles_from_dt":20.56},{"city":"Masterson","state_name":"Texas","lat":35.59509,"lng":-101.94925,"zip":"79058","miles_from_dt":23.57},{"city":"Panhandle","state_name":"Texas","lat":35.33633,"lng":-101.45226,"zip":"79068","miles_from_dt":25.57},{"city":"Amarillo","state_name":"Texas","lat":35.37511,"lng":-101.80307,"zip":"79108","miles_from_dt":26.47},{"city":"White Deer","state_name":"Texas","lat":35.43104,"lng":-101.17405,"zip":"79097","miles_from_dt":28.08}],"targetCityZipCode":"79078","targetCityState":"Texas"},"__N_SSG":true}