{"pageProps":{"stateName":"Texas","cityName":"sanger","nearbyCities":[{"city":"Krum","state_name":"Texas","lat":33.27993,"lng":-97.3026,"zip":"76249","miles_from_dt":7.91},{"city":"Valley View","state_name":"Texas","lat":33.46421,"lng":-97.12721,"zip":"76272","miles_from_dt":8.34},{"city":"Denton","state_name":"Texas","lat":33.22174,"lng":-97.18505,"zip":"76207","miles_from_dt":10.24},{"city":"Slidell","state_name":"Texas","lat":33.36935,"lng":-97.39711,"zip":"76267","miles_from_dt":10.52},{"city":"Denton","state_name":"Texas","lat":33.22122,"lng":-97.14715,"zip":"76201","miles_from_dt":10.87},{"city":"Era","state_name":"Texas","lat":33.4861,"lng":-97.34148,"zip":"76238","miles_from_dt":10.93},{"city":"Denton","state_name":"Texas","lat":33.2315,"lng":-97.11,"zip":"76209","miles_from_dt":11.21},{"city":"Denton","state_name":"Texas","lat":33.21213,"lng":-97.15181,"zip":"76203","miles_from_dt":11.36},{"city":"Denton","state_name":"Texas","lat":33.21404,"lng":-97.13265,"zip":"76204","miles_from_dt":11.65},{"city":"Denton","state_name":"Texas","lat":33.19889,"lng":-97.12026,"zip":"76206","miles_from_dt":12.89},{"city":"Ponder","state_name":"Texas","lat":33.19977,"lng":-97.31603,"zip":"76259","miles_from_dt":12.99},{"city":"Denton","state_name":"Texas","lat":33.19074,"lng":-97.12894,"zip":"76205","miles_from_dt":13.21},{"city":"Denton","state_name":"Texas","lat":33.17651,"lng":-97.18345,"zip":"76202","miles_from_dt":13.34},{"city":"Denton","state_name":"Texas","lat":33.20917,"lng":-97.05786,"zip":"76208","miles_from_dt":14.25},{"city":"Aubrey","state_name":"Texas","lat":33.27465,"lng":-96.99075,"zip":"76227","miles_from_dt":14.49},{"city":"Greenwood","state_name":"Texas","lat":33.3785,"lng":-97.47447,"zip":"76246","miles_from_dt":15.01},{"city":"Rosston","state_name":"Texas","lat":33.50435,"lng":-97.43735,"zip":"76263","miles_from_dt":15.9},{"city":"Denton","state_name":"Texas","lat":33.14985,"lng":-97.0962,"zip":"76210","miles_from_dt":16.55},{"city":"Pilot Point","state_name":"Texas","lat":33.37202,"lng":-96.9204,"zip":"76258","miles_from_dt":17.04},{"city":"Lindsay","state_name":"Texas","lat":33.63006,"lng":-97.24237,"zip":"76250","miles_from_dt":18.12},{"city":"Argyle","state_name":"Texas","lat":33.10775,"lng":-97.17196,"zip":"76226","miles_from_dt":18.12},{"city":"Decatur","state_name":"Texas","lat":33.27587,"lng":-97.51404,"zip":"76234","miles_from_dt":18.43},{"city":"Myra","state_name":"Texas","lat":33.62516,"lng":-97.31327,"zip":"76253","miles_from_dt":18.6},{"city":"Tioga","state_name":"Texas","lat":33.46953,"lng":-96.91412,"zip":"76271","miles_from_dt":18.75},{"city":"Gainesville","state_name":"Texas","lat":33.64542,"lng":-97.17628,"zip":"76241","miles_from_dt":19.24},{"city":"Justin","state_name":"Texas","lat":33.0965,"lng":-97.33154,"zip":"76247","miles_from_dt":19.9},{"city":"Gainesville","state_name":"Texas","lat":33.65654,"lng":-97.17766,"zip":"76240","miles_from_dt":19.99},{"city":"Little Elm","state_name":"Texas","lat":33.17713,"lng":-96.95228,"zip":"75068","miles_from_dt":20.12},{"city":"Lake Dallas","state_name":"Texas","lat":33.11108,"lng":-97.01277,"zip":"75065","miles_from_dt":21.24},{"city":"Lewisville","state_name":"Texas","lat":33.07921,"lng":-97.06401,"zip":"75077","miles_from_dt":21.75},{"city":"Collinsville","state_name":"Texas","lat":33.54025,"lng":-96.89696,"zip":"76233","miles_from_dt":21.87},{"city":"Forestburg","state_name":"Texas","lat":33.524,"lng":-97.57033,"zip":"76239","miles_from_dt":23.16},{"city":"Muenster","state_name":"Texas","lat":33.67788,"lng":-97.38695,"zip":"76252","miles_from_dt":23.54},{"city":"Frisco","state_name":"Texas","lat":33.13339,"lng":-96.91453,"zip":"75036","miles_from_dt":23.77},{"city":"Rhome","state_name":"Texas","lat":33.0896,"lng":-97.46647,"zip":"76078","miles_from_dt":24.09},{"city":"Flower Mound","state_name":"Texas","lat":33.02554,"lng":-97.11871,"zip":"75022","miles_from_dt":24.26},{"city":"Flower Mound","state_name":"Texas","lat":33.02647,"lng":-97.09377,"zip":"75027","miles_from_dt":24.58},{"city":"Roanoke","state_name":"Texas","lat":33.01137,"lng":-97.22101,"zip":"76262","miles_from_dt":24.59},{"city":"Flower Mound","state_name":"Texas","lat":33.03382,"lng":-97.0629,"zip":"75028","miles_from_dt":24.67},{"city":"Frisco","state_name":"Texas","lat":33.18471,"lng":-96.84404,"zip":"75033","miles_from_dt":24.93},{"city":"Prosper","state_name":"Texas","lat":33.24526,"lng":-96.80791,"zip":"75078","miles_from_dt":25.04},{"city":"Lewisville","state_name":"Texas","lat":33.04591,"lng":-97.00935,"zip":"75029","miles_from_dt":25.21},{"city":"Lewisville","state_name":"Texas","lat":33.05012,"lng":-96.9772,"zip":"75057","miles_from_dt":25.89},{"city":"Alvord","state_name":"Texas","lat":33.36616,"lng":-97.67345,"zip":"76225","miles_from_dt":26.5},{"city":"The Colony","state_name":"Texas","lat":33.07541,"lng":-96.90978,"zip":"75056","miles_from_dt":26.83},{"city":"Celina","state_name":"Texas","lat":33.3384,"lng":-96.75185,"zip":"75009","miles_from_dt":26.87},{"city":"Lewisville","state_name":"Texas","lat":33.01416,"lng":-97.00268,"zip":"75067","miles_from_dt":27.33},{"city":"Frisco","state_name":"Texas","lat":33.12084,"lng":-96.83778,"zip":"75034","miles_from_dt":27.71},{"city":"Fort Worth","state_name":"Texas","lat":32.96999,"lng":-97.30611,"zip":"76177","miles_from_dt":27.94},{"city":"Gunter","state_name":"Texas","lat":33.4473,"lng":-96.73546,"zip":"75058","miles_from_dt":28.26},{"city":"Haslet","state_name":"Texas","lat":32.98205,"lng":-97.38037,"zip":"76052","miles_from_dt":28.28},{"city":"Thackerville","state_name":"Oklahoma","lat":33.77534,"lng":-97.14213,"zip":"73459","miles_from_dt":28.38},{"city":"Southlake","state_name":"Texas","lat":32.95562,"lng":-97.14879,"zip":"76092","miles_from_dt":28.69},{"city":"Newark","state_name":"Texas","lat":33.00613,"lng":-97.47821,"zip":"76071","miles_from_dt":29.24},{"city":"Frisco","state_name":"Texas","lat":33.15814,"lng":-96.7734,"zip":"75035","miles_from_dt":29.39},{"city":"Carrollton","state_name":"Texas","lat":33.03058,"lng":-96.90148,"zip":"75010","miles_from_dt":29.52}],"targetCityZipCode":"76266","targetCityState":"Texas"},"__N_SSG":true}