{"pageProps":{"stateName":"Texas","cityName":"south-plains","nearbyCities":[{"city":"Lockney","state_name":"Texas","lat":34.18069,"lng":-101.38507,"zip":"79241","miles_from_dt":6.67},{"city":"Aiken","state_name":"Texas","lat":34.11988,"lng":-101.44601,"zip":"79221","miles_from_dt":12.08},{"city":"Silverton","state_name":"Texas","lat":34.44868,"lng":-101.2995,"zip":"79257","miles_from_dt":14.15},{"city":"Quitaque","state_name":"Texas","lat":34.36113,"lng":-101.04924,"zip":"79255","miles_from_dt":16.3},{"city":"Flomot","state_name":"Texas","lat":34.22108,"lng":-100.95509,"zip":"79234","miles_from_dt":19.6},{"city":"Floydada","state_name":"Texas","lat":33.94794,"lng":-101.26088,"zip":"79235","miles_from_dt":20.47},{"city":"Dougherty","state_name":"Texas","lat":33.94164,"lng":-101.06579,"zip":"79231","miles_from_dt":24.65},{"city":"Plainview","state_name":"Texas","lat":34.1719,"lng":-101.745,"zip":"79072","miles_from_dt":26.15},{"city":"Kress","state_name":"Texas","lat":34.35869,"lng":-101.76276,"zip":"79052","miles_from_dt":27.83},{"city":"Turkey","state_name":"Texas","lat":34.45525,"lng":-100.86876,"zip":"79261","miles_from_dt":28.48}],"targetCityZipCode":"79258","targetCityState":"Texas"},"__N_SSG":true}