{"pageProps":{"stateName":"Texas","cityName":"stanton","nearbyCities":[{"city":"Lenorah","state_name":"Texas","lat":32.25551,"lng":-101.83419,"zip":"79749","miles_from_dt":5.74},{"city":"Midland","state_name":"Texas","lat":32.09619,"lng":-102.0508,"zip":"79705","miles_from_dt":11.36},{"city":"Midland","state_name":"Texas","lat":32.06172,"lng":-102.02175,"zip":"79710","miles_from_dt":11.6},{"city":"Tarzan","state_name":"Texas","lat":32.3321,"lng":-102.05007,"zip":"79783","miles_from_dt":13.83},{"city":"Midland","state_name":"Texas","lat":31.99763,"lng":-102.07743,"zip":"79711","miles_from_dt":17.08},{"city":"Midland","state_name":"Texas","lat":31.99239,"lng":-102.08105,"zip":"79701","miles_from_dt":17.49},{"city":"Midland","state_name":"Texas","lat":32.0182,"lng":-102.12385,"zip":"79708","miles_from_dt":18.02},{"city":"Midland","state_name":"Texas","lat":31.97493,"lng":-102.07866,"zip":"79702","miles_from_dt":18.34},{"city":"Knott","state_name":"Texas","lat":32.38784,"lng":-101.66889,"zip":"79748","miles_from_dt":18.93},{"city":"Midland","state_name":"Texas","lat":31.97998,"lng":-102.13158,"zip":"79703","miles_from_dt":20.13},{"city":"Big Spring","state_name":"Texas","lat":32.22491,"lng":-101.52737,"zip":"79721","miles_from_dt":21.31},{"city":"Midland","state_name":"Texas","lat":32.03304,"lng":-102.21189,"zip":"79707","miles_from_dt":21.71},{"city":"Big Spring","state_name":"Texas","lat":32.20171,"lng":-101.51395,"zip":"79720","miles_from_dt":21.96},{"city":"Ackerly","state_name":"Texas","lat":32.49861,"lng":-101.74554,"zip":"79713","miles_from_dt":23.1},{"city":"Midland","state_name":"Texas","lat":31.91194,"lng":-102.11844,"zip":"79704","miles_from_dt":23.22},{"city":"Midland","state_name":"Texas","lat":31.94712,"lng":-102.17152,"zip":"79712","miles_from_dt":23.39},{"city":"Midland","state_name":"Texas","lat":31.83622,"lng":-101.97025,"zip":"79706","miles_from_dt":24.58},{"city":"Gardendale","state_name":"Texas","lat":32.0112,"lng":-102.33569,"zip":"79758","miles_from_dt":28.88}],"targetCityZipCode":"79782","targetCityState":"Texas"},"__N_SSG":true}