{"pageProps":{"stateName":"Texas","cityName":"tolar","nearbyCities":[{"city":"Bluff Dale","state_name":"Texas","lat":32.30662,"lng":-98.01096,"zip":"76433","miles_from_dt":6.9},{"city":"Paluxy","state_name":"Texas","lat":32.27059,"lng":-97.90503,"zip":"76467","miles_from_dt":6.94},{"city":"Granbury","state_name":"Texas","lat":32.40791,"lng":-97.80117,"zip":"76048","miles_from_dt":7.42},{"city":"Lipan","state_name":"Texas","lat":32.52316,"lng":-98.03421,"zip":"76462","miles_from_dt":12.45},{"city":"Rainbow","state_name":"Texas","lat":32.27886,"lng":-97.70891,"zip":"76077","miles_from_dt":13.88},{"city":"Granbury","state_name":"Texas","lat":32.46759,"lng":-97.70645,"zip":"76049","miles_from_dt":14.17},{"city":"Morgan Mill","state_name":"Texas","lat":32.38719,"lng":-98.16545,"zip":"76465","miles_from_dt":14.39},{"city":"Glen Rose","state_name":"Texas","lat":32.20039,"lng":-97.76129,"zip":"76043","miles_from_dt":14.97},{"city":"Dennis","state_name":"Texas","lat":32.6176,"lng":-97.92708,"zip":"76439","miles_from_dt":17.03},{"city":"Stephenville","state_name":"Texas","lat":32.27918,"lng":-98.19994,"zip":"76401","miles_from_dt":17.54},{"city":"Nemo","state_name":"Texas","lat":32.24291,"lng":-97.64991,"zip":"76070","miles_from_dt":18.1},{"city":"Walnut Springs","state_name":"Texas","lat":32.1031,"lng":-97.79219,"zip":"76690","miles_from_dt":19.89},{"city":"Stephenville","state_name":"Texas","lat":32.21728,"lng":-98.21702,"zip":"76402","miles_from_dt":20.33},{"city":"Cresson","state_name":"Texas","lat":32.56172,"lng":-97.64251,"zip":"76035","miles_from_dt":20.9},{"city":"Santo","state_name":"Texas","lat":32.60631,"lng":-98.17095,"zip":"76472","miles_from_dt":21.87},{"city":"Weatherford","state_name":"Texas","lat":32.66995,"lng":-97.79065,"zip":"76087","miles_from_dt":21.97},{"city":"Godley","state_name":"Texas","lat":32.42961,"lng":-97.54286,"zip":"76044","miles_from_dt":22.43},{"city":"Millsap","state_name":"Texas","lat":32.7058,"lng":-97.99913,"zip":"76066","miles_from_dt":23.56},{"city":"Cleburne","state_name":"Texas","lat":32.28663,"lng":-97.52075,"zip":"76033","miles_from_dt":24.07},{"city":"Iredell","state_name":"Texas","lat":32.00132,"lng":-97.87816,"zip":"76649","miles_from_dt":25.56},{"city":"Kopperl","state_name":"Texas","lat":32.11331,"lng":-97.57648,"zip":"76652","miles_from_dt":26.82},{"city":"Aledo","state_name":"Texas","lat":32.68182,"lng":-97.62738,"zip":"76008","miles_from_dt":27.43},{"city":"Weatherford","state_name":"Texas","lat":32.75345,"lng":-97.78909,"zip":"76086","miles_from_dt":27.47},{"city":"Lingleville","state_name":"Texas","lat":32.24457,"lng":-98.37528,"zip":"76461","miles_from_dt":28.01},{"city":"Gordon","state_name":"Texas","lat":32.57202,"lng":-98.33908,"zip":"76453","miles_from_dt":28.13},{"city":"Mingus","state_name":"Texas","lat":32.455,"lng":-98.41516,"zip":"76463","miles_from_dt":29.51},{"city":"Hico","state_name":"Texas","lat":31.94968,"lng":-98.02773,"zip":"76457","miles_from_dt":29.68},{"city":"Joshua","state_name":"Texas","lat":32.47072,"lng":-97.4251,"zip":"76058","miles_from_dt":29.75}],"targetCityZipCode":"76476","targetCityState":"Texas"},"__N_SSG":true}