{"pageProps":{"stateName":"Texas","cityName":"veribest","nearbyCities":[{"city":"San Angelo","state_name":"Texas","lat":31.44135,"lng":-100.46624,"zip":"76909","miles_from_dt":6.33},{"city":"San Angelo","state_name":"Texas","lat":31.28844,"lng":-100.41695,"zip":"76904","miles_from_dt":6.4},{"city":"Goodfellow Afb","state_name":"Texas","lat":31.43226,"lng":-100.40314,"zip":"76908","miles_from_dt":7.71},{"city":"Knickerbocker","state_name":"Texas","lat":31.26855,"lng":-100.59028,"zip":"76939","miles_from_dt":8.09},{"city":"San Angelo","state_name":"Texas","lat":31.46009,"lng":-100.43675,"zip":"76906","miles_from_dt":8.15},{"city":"San Angelo","state_name":"Texas","lat":31.48168,"lng":-100.43787,"zip":"76903","miles_from_dt":9.5},{"city":"Wall","state_name":"Texas","lat":31.37232,"lng":-100.30514,"zip":"76957","miles_from_dt":11.31},{"city":"San Angelo","state_name":"Texas","lat":31.52352,"lng":-100.63993,"zip":"76901","miles_from_dt":14.54},{"city":"San Angelo","state_name":"Texas","lat":31.49987,"lng":-100.31583,"zip":"76905","miles_from_dt":14.65},{"city":"San Angelo","state_name":"Texas","lat":31.54439,"lng":-100.72459,"zip":"76902","miles_from_dt":18.92},{"city":"Christoval","state_name":"Texas","lat":31.07744,"lng":-100.42261,"zip":"76935","miles_from_dt":19.45},{"city":"Eola","state_name":"Texas","lat":31.39109,"lng":-100.15025,"zip":"76937","miles_from_dt":20.55},{"city":"Carlsbad","state_name":"Texas","lat":31.61491,"lng":-100.67661,"zip":"76934","miles_from_dt":21},{"city":"Vancourt","state_name":"Texas","lat":31.29919,"lng":-100.1389,"zip":"76955","miles_from_dt":21.38},{"city":"Mereta","state_name":"Texas","lat":31.43681,"lng":-100.12694,"zip":"76940","miles_from_dt":22.51},{"city":"Miles","state_name":"Texas","lat":31.59216,"lng":-100.19637,"zip":"76861","miles_from_dt":24.14},{"city":"Mertzon","state_name":"Texas","lat":31.24731,"lng":-100.89845,"zip":"76941","miles_from_dt":24.95},{"city":"Water Valley","state_name":"Texas","lat":31.64467,"lng":-100.75515,"zip":"76958","miles_from_dt":25.3},{"city":"Lowake","state_name":"Texas","lat":31.44989,"lng":-100.05913,"zip":"76855","miles_from_dt":26.61},{"city":"Tennyson","state_name":"Texas","lat":31.72871,"lng":-100.32078,"zip":"76953","miles_from_dt":27.86}],"targetCityZipCode":"76886","targetCityState":"Texas"},"__N_SSG":true}