{"pageProps":{"stateName":"Texas","cityName":"willow-city","nearbyCities":[{"city":"Fredericksburg","state_name":"Texas","lat":30.29227,"lng":-98.87141,"zip":"78624","miles_from_dt":15.15},{"city":"Llano","state_name":"Texas","lat":30.68161,"lng":-98.71281,"zip":"78643","miles_from_dt":15.38},{"city":"Stonewall","state_name":"Texas","lat":30.20409,"lng":-98.63275,"zip":"78671","miles_from_dt":18.05},{"city":"Johnson City","state_name":"Texas","lat":30.31649,"lng":-98.42376,"zip":"78636","miles_from_dt":19.45},{"city":"Hye","state_name":"Texas","lat":30.20824,"lng":-98.5485,"zip":"78635","miles_from_dt":19.62},{"city":"Horseshoe Bay","state_name":"Texas","lat":30.53328,"lng":-98.37906,"zip":"78657","miles_from_dt":20.13},{"city":"Kingsland","state_name":"Texas","lat":30.65823,"lng":-98.45506,"zip":"78639","miles_from_dt":20.3},{"city":"Round Mountain","state_name":"Texas","lat":30.41582,"lng":-98.31144,"zip":"78663","miles_from_dt":23.69},{"city":"Castell","state_name":"Texas","lat":30.74599,"lng":-98.95543,"zip":"76831","miles_from_dt":24.78},{"city":"Buchanan Dam","state_name":"Texas","lat":30.75975,"lng":-98.45271,"zip":"78609","miles_from_dt":25.64},{"city":"Doss","state_name":"Texas","lat":30.48624,"lng":-99.16794,"zip":"78618","miles_from_dt":27.67},{"city":"Bluffton","state_name":"Texas","lat":30.81961,"lng":-98.488,"zip":"78607","miles_from_dt":28.04},{"city":"Blanco","state_name":"Texas","lat":30.09213,"lng":-98.45789,"zip":"78606","miles_from_dt":29.25},{"city":"Valley Spring","state_name":"Texas","lat":30.87304,"lng":-98.85742,"zip":"76885","miles_from_dt":29.96}],"targetCityZipCode":"78675","targetCityState":"Texas"},"__N_SSG":true}