{"pageProps":{"stateName":"Texas","cityName":"wolfforth","nearbyCities":[{"city":"Lubbock","state_name":"Texas","lat":33.46865,"lng":-101.93881,"zip":"79424","miles_from_dt":4.86},{"city":"Lubbock","state_name":"Texas","lat":33.53547,"lng":-101.91623,"zip":"79464","miles_from_dt":7.81},{"city":"Lubbock","state_name":"Texas","lat":33.56566,"lng":-102.08895,"zip":"79407","miles_from_dt":7.87},{"city":"Lubbock","state_name":"Texas","lat":33.57656,"lng":-101.98281,"zip":"79490","miles_from_dt":7.98},{"city":"Lubbock","state_name":"Texas","lat":33.54862,"lng":-101.91943,"zip":"79414","miles_from_dt":8.26},{"city":"Lubbock","state_name":"Texas","lat":33.58076,"lng":-101.97765,"zip":"79408","miles_from_dt":8.34},{"city":"Lubbock","state_name":"Texas","lat":33.50442,"lng":-101.87756,"zip":"79491","miles_from_dt":8.8},{"city":"Lubbock","state_name":"Texas","lat":33.54576,"lng":-101.88775,"zip":"79413","miles_from_dt":9.55},{"city":"Lubbock","state_name":"Texas","lat":33.54798,"lng":-101.88471,"zip":"79493","miles_from_dt":9.78},{"city":"Lubbock","state_name":"Texas","lat":33.60473,"lng":-101.97658,"zip":"79416","miles_from_dt":9.94},{"city":"Lubbock","state_name":"Texas","lat":33.43376,"lng":-101.84751,"zip":"79423","miles_from_dt":10.37},{"city":"Lubbock","state_name":"Texas","lat":33.56962,"lng":-101.89124,"zip":"79410","miles_from_dt":10.44},{"city":"Ropesville","state_name":"Texas","lat":33.4321,"lng":-102.20017,"zip":"79358","miles_from_dt":10.51},{"city":"Lubbock","state_name":"Texas","lat":33.5464,"lng":-101.85765,"zip":"79412","miles_from_dt":11.04},{"city":"Lubbock","state_name":"Texas","lat":33.59275,"lng":-101.89879,"zip":"79430","miles_from_dt":11.31},{"city":"Lubbock","state_name":"Texas","lat":33.58336,"lng":-101.88082,"zip":"79406","miles_from_dt":11.53},{"city":"Lubbock","state_name":"Texas","lat":33.54887,"lng":-101.84757,"zip":"79452","miles_from_dt":11.63},{"city":"New Home","state_name":"Texas","lat":33.32429,"lng":-101.90801,"zip":"79383","miles_from_dt":11.8},{"city":"Lubbock","state_name":"Texas","lat":33.60805,"lng":-101.90736,"zip":"79499","miles_from_dt":11.86},{"city":"Lubbock","state_name":"Texas","lat":33.57012,"lng":-101.85773,"zip":"79411","miles_from_dt":11.94},{"city":"Smyer","state_name":"Texas","lat":33.58938,"lng":-102.16805,"zip":"79367","miles_from_dt":11.95},{"city":"Lubbock","state_name":"Texas","lat":33.57648,"lng":-101.85435,"zip":"79453","miles_from_dt":12.36},{"city":"Lubbock","state_name":"Texas","lat":33.58606,"lng":-101.85381,"zip":"79409","miles_from_dt":12.8},{"city":"Lubbock","state_name":"Texas","lat":33.58461,"lng":-101.85166,"zip":"79457","miles_from_dt":12.83},{"city":"Lubbock","state_name":"Texas","lat":33.58683,"lng":-101.85179,"zip":"79401","miles_from_dt":12.93},{"city":"Lubbock","state_name":"Texas","lat":33.58124,"lng":-101.84201,"zip":"79402","miles_from_dt":13.12},{"city":"Lubbock","state_name":"Texas","lat":33.52651,"lng":-101.79856,"zip":"79404","miles_from_dt":13.61},{"city":"Shallowater","state_name":"Texas","lat":33.70769,"lng":-102.03804,"zip":"79363","miles_from_dt":16.7},{"city":"Lubbock","state_name":"Texas","lat":33.69863,"lng":-101.90497,"zip":"79415","miles_from_dt":17.43},{"city":"Wilson","state_name":"Texas","lat":33.32312,"lng":-101.76982,"zip":"79381","miles_from_dt":17.62},{"city":"Lubbock","state_name":"Texas","lat":33.6433,"lng":-101.76595,"zip":"79403","miles_from_dt":19.22},{"city":"Meadow","state_name":"Texas","lat":33.33611,"lng":-102.32789,"zip":"79345","miles_from_dt":19.77},{"city":"Ransom Canyon","state_name":"Texas","lat":33.53016,"lng":-101.68367,"zip":"79366","miles_from_dt":20.08},{"city":"Levelland","state_name":"Texas","lat":33.59238,"lng":-102.35724,"zip":"79338","miles_from_dt":21.18},{"city":"New Deal","state_name":"Texas","lat":33.73115,"lng":-101.82296,"zip":"79350","miles_from_dt":21.62},{"city":"Slaton","state_name":"Texas","lat":33.44681,"lng":-101.6355,"zip":"79364","miles_from_dt":22.41},{"city":"Tahoka","state_name":"Texas","lat":33.15905,"lng":-101.83628,"zip":"79373","miles_from_dt":23.74},{"city":"Levelland","state_name":"Texas","lat":33.59962,"lng":-102.40214,"zip":"79336","miles_from_dt":23.76},{"city":"Anton","state_name":"Texas","lat":33.8126,"lng":-102.16093,"zip":"79313","miles_from_dt":25.19},{"city":"Whitharral","state_name":"Texas","lat":33.73913,"lng":-102.32784,"zip":"79380","miles_from_dt":25.78},{"city":"Idalou","state_name":"Texas","lat":33.72503,"lng":-101.68807,"zip":"79329","miles_from_dt":26.31},{"city":"Sundown","state_name":"Texas","lat":33.42482,"lng":-102.50108,"zip":"79372","miles_from_dt":27.78},{"city":"Brownfield","state_name":"Texas","lat":33.13478,"lng":-102.3058,"zip":"79316","miles_from_dt":28.08},{"city":"Abernathy","state_name":"Texas","lat":33.85781,"lng":-101.88228,"zip":"79311","miles_from_dt":28.21}],"targetCityZipCode":"79382","targetCityState":"Texas"},"__N_SSG":true}