{"pageProps":{"stateName":"Montana","cityName":"absarokee","nearbyCities":[{"city":"Reed Point","state_name":"Montana","lat":45.72204,"lng":-109.57945,"zip":"59069","miles_from_dt":13.43},{"city":"Columbus","state_name":"Montana","lat":45.62995,"lng":-109.24208,"zip":"59019","miles_from_dt":16.04},{"city":"Greycliff","state_name":"Montana","lat":45.72296,"lng":-109.73246,"zip":"59033","miles_from_dt":16.29},{"city":"Fishtail","state_name":"Montana","lat":45.32093,"lng":-109.7434,"zip":"59028","miles_from_dt":17.47},{"city":"Roscoe","state_name":"Montana","lat":45.26582,"lng":-109.57003,"zip":"59071","miles_from_dt":18.27},{"city":"Nye","state_name":"Montana","lat":45.39634,"lng":-109.87728,"zip":"59061","miles_from_dt":18.79},{"city":"Roberts","state_name":"Montana","lat":45.36289,"lng":-109.17961,"zip":"59070","miles_from_dt":20.97},{"city":"Boyd","state_name":"Montana","lat":45.46131,"lng":-109.08054,"zip":"59013","miles_from_dt":22.82},{"city":"Red Lodge","state_name":"Montana","lat":45.15929,"lng":-109.45626,"zip":"59068","miles_from_dt":25.89},{"city":"Joliet","state_name":"Montana","lat":45.50239,"lng":-108.9663,"zip":"59041","miles_from_dt":27.93},{"city":"Park City","state_name":"Montana","lat":45.65079,"lng":-108.97028,"zip":"59063","miles_from_dt":28.88}],"targetCityZipCode":"59001","targetCityState":"Montana"},"__N_SSG":true}