{"pageProps":{"stateName":"Montana","cityName":"black-eagle","nearbyCities":[{"city":"Great Falls","state_name":"Montana","lat":47.51083,"lng":-111.27691,"zip":"59401","miles_from_dt":1.22},{"city":"Great Falls","state_name":"Montana","lat":47.48105,"lng":-111.2534,"zip":"59406","miles_from_dt":3.29},{"city":"Malmstrom Afb","state_name":"Montana","lat":47.50937,"lng":-111.19456,"zip":"59402","miles_from_dt":3.69},{"city":"Great Falls","state_name":"Montana","lat":47.63197,"lng":-111.34807,"zip":"59404","miles_from_dt":8.11},{"city":"Sand Coulee","state_name":"Montana","lat":47.37939,"lng":-111.17095,"zip":"59472","miles_from_dt":11.22},{"city":"Great Falls","state_name":"Montana","lat":47.55338,"lng":-111.54041,"zip":"59403","miles_from_dt":12.83},{"city":"Floweree","state_name":"Montana","lat":47.72489,"lng":-111.14261,"zip":"59440","miles_from_dt":14.85},{"city":"Ulm","state_name":"Montana","lat":47.43264,"lng":-111.56667,"zip":"59485","miles_from_dt":15.42},{"city":"Great Falls","state_name":"Montana","lat":47.28102,"lng":-111.25937,"zip":"59405","miles_from_dt":17.04},{"city":"Vaughn","state_name":"Montana","lat":47.58393,"lng":-111.64592,"zip":"59487","miles_from_dt":18.06},{"city":"Power","state_name":"Montana","lat":47.71253,"lng":-111.62842,"zip":"59468","miles_from_dt":21.11},{"city":"Sun River","state_name":"Montana","lat":47.47212,"lng":-111.72261,"zip":"59483","miles_from_dt":21.59},{"city":"Stockett","state_name":"Montana","lat":47.22696,"lng":-111.12013,"zip":"59480","miles_from_dt":21.91},{"city":"Belt","state_name":"Montana","lat":47.32538,"lng":-110.8762,"zip":"59412","miles_from_dt":23.1},{"city":"Highwood","state_name":"Montana","lat":47.5992,"lng":-110.73923,"zip":"59450","miles_from_dt":25.25},{"city":"Fort Shaw","state_name":"Montana","lat":47.5621,"lng":-111.82647,"zip":"59443","miles_from_dt":26.2},{"city":"Carter","state_name":"Montana","lat":47.89688,"lng":-111.04034,"zip":"59420","miles_from_dt":27.65}],"targetCityZipCode":"59414","targetCityState":"Montana"},"__N_SSG":true}