{"pageProps":{"stateName":"Montana","cityName":"jefferson-city","nearbyCities":[{"city":"Clancy","state_name":"Montana","lat":46.43583,"lng":-112.00986,"zip":"59634","miles_from_dt":5.45},{"city":"Boulder","state_name":"Montana","lat":46.16522,"lng":-111.99918,"zip":"59632","miles_from_dt":13.38},{"city":"Helena","state_name":"Montana","lat":46.53282,"lng":-112.15749,"zip":"59620","miles_from_dt":13.58},{"city":"Helena","state_name":"Montana","lat":46.54199,"lng":-112.17474,"zip":"59601","miles_from_dt":14.52},{"city":"Helena","state_name":"Montana","lat":46.58991,"lng":-112.04068,"zip":"59623","miles_from_dt":16.04},{"city":"Helena","state_name":"Montana","lat":46.59795,"lng":-112.03102,"zip":"59624","miles_from_dt":16.58},{"city":"Helena","state_name":"Montana","lat":46.60135,"lng":-112.03891,"zip":"59625","miles_from_dt":16.82},{"city":"East Helena","state_name":"Montana","lat":46.5546,"lng":-111.81749,"zip":"59635","miles_from_dt":16.89},{"city":"Helena","state_name":"Montana","lat":46.60369,"lng":-112.03631,"zip":"59626","miles_from_dt":16.98},{"city":"Basin","state_name":"Montana","lat":46.29168,"lng":-112.38687,"zip":"59631","miles_from_dt":17.78},{"city":"Helena","state_name":"Montana","lat":46.61575,"lng":-111.96325,"zip":"59604","miles_from_dt":18.07},{"city":"Fort Harrison","state_name":"Montana","lat":46.61614,"lng":-112.11399,"zip":"59636","miles_from_dt":18.31},{"city":"Winston","state_name":"Montana","lat":46.46726,"lng":-111.65138,"zip":"59647","miles_from_dt":19.5},{"city":"Elliston","state_name":"Montana","lat":46.50487,"lng":-112.41135,"zip":"59728","miles_from_dt":20.95},{"city":"Radersburg","state_name":"Montana","lat":46.20066,"lng":-111.63195,"zip":"59641","miles_from_dt":21.84},{"city":"Toston","state_name":"Montana","lat":46.13283,"lng":-111.57884,"zip":"59643","miles_from_dt":26.54},{"city":"Helena","state_name":"Montana","lat":46.73577,"lng":-111.90753,"zip":"59602","miles_from_dt":26.72},{"city":"Townsend","state_name":"Montana","lat":46.419,"lng":-111.43885,"zip":"59644","miles_from_dt":28.46}],"targetCityZipCode":"59638","targetCityState":"Montana"},"__N_SSG":true}