{"pageProps":{"stateName":"Montana","cityName":"joplin","nearbyCities":[{"city":"Inverness","state_name":"Montana","lat":48.60212,"lng":-110.68802,"zip":"59530","miles_from_dt":12.58},{"city":"Rudyard","state_name":"Montana","lat":48.60665,"lng":-110.56418,"zip":"59540","miles_from_dt":15.25},{"city":"Chester","state_name":"Montana","lat":48.56497,"lng":-110.98827,"zip":"59522","miles_from_dt":17.16},{"city":"Hingham","state_name":"Montana","lat":48.6233,"lng":-110.42628,"zip":"59528","miles_from_dt":19.33},{"city":"Whitlash","state_name":"Montana","lat":48.94067,"lng":-111.21768,"zip":"59545","miles_from_dt":22.95},{"city":"Gildford","state_name":"Montana","lat":48.6524,"lng":-110.27405,"zip":"59525","miles_from_dt":24.73},{"city":"Galata","state_name":"Montana","lat":48.65227,"lng":-111.34881,"zip":"59444","miles_from_dt":27.17},{"city":"Lothair","state_name":"Montana","lat":48.4894,"lng":-111.19985,"zip":"59461","miles_from_dt":27.35}],"targetCityZipCode":"59531","targetCityState":"Montana"},"__N_SSG":true}