{"pageProps":{"stateName":"Arkansas","cityName":"alicia","nearbyCities":[{"city":"Minturn","state_name":"Arkansas","lat":35.97812,"lng":-91.02669,"zip":"72445","miles_from_dt":4.67},{"city":"Hoxie","state_name":"Arkansas","lat":36.02582,"lng":-91.04446,"zip":"72433","miles_from_dt":6.63},{"city":"Swifton","state_name":"Arkansas","lat":35.82591,"lng":-91.11996,"zip":"72471","miles_from_dt":7.9},{"city":"Egypt","state_name":"Arkansas","lat":35.86872,"lng":-90.94901,"zip":"72427","miles_from_dt":9.47},{"city":"Powhatan","state_name":"Arkansas","lat":36.06844,"lng":-91.15619,"zip":"72458","miles_from_dt":9.6},{"city":"Portia","state_name":"Arkansas","lat":36.08545,"lng":-91.06827,"zip":"72457","miles_from_dt":10.23},{"city":"Lynn","state_name":"Arkansas","lat":35.9924,"lng":-91.26466,"zip":"72440","miles_from_dt":10.24},{"city":"Saffell","state_name":"Arkansas","lat":35.89762,"lng":-91.29173,"zip":"72572","miles_from_dt":11.43},{"city":"Strawberry","state_name":"Arkansas","lat":35.95367,"lng":-91.29949,"zip":"72469","miles_from_dt":11.55},{"city":"Walnut Ridge","state_name":"Arkansas","lat":36.04533,"lng":-90.91692,"zip":"72476","miles_from_dt":12.37},{"city":"Sedgwick","state_name":"Arkansas","lat":35.98695,"lng":-90.87929,"zip":"72465","miles_from_dt":12.51},{"city":"Cash","state_name":"Arkansas","lat":35.77851,"lng":-90.97869,"zip":"72421","miles_from_dt":12.8},{"city":"Cord","state_name":"Arkansas","lat":35.83551,"lng":-91.30318,"zip":"72524","miles_from_dt":13.7},{"city":"Black Rock","state_name":"Arkansas","lat":36.12643,"lng":-91.17745,"zip":"72415","miles_from_dt":13.77},{"city":"Tuckerman","state_name":"Arkansas","lat":35.73531,"lng":-91.17356,"zip":"72473","miles_from_dt":14.7},{"city":"Smithville","state_name":"Arkansas","lat":36.05121,"lng":-91.32157,"zip":"72466","miles_from_dt":14.92},{"city":"Bono","state_name":"Arkansas","lat":35.95731,"lng":-90.79699,"zip":"72416","miles_from_dt":16.72},{"city":"Imboden","state_name":"Arkansas","lat":36.21847,"lng":-91.16025,"zip":"72434","miles_from_dt":19.65},{"city":"Jonesboro","state_name":"Arkansas","lat":35.8061,"lng":-90.77455,"zip":"72402","miles_from_dt":20.13},{"city":"Sulphur Rock","state_name":"Arkansas","lat":35.84458,"lng":-91.44428,"zip":"72579","miles_from_dt":20.67},{"city":"Jonesboro","state_name":"Arkansas","lat":35.77656,"lng":-90.78356,"zip":"72404","miles_from_dt":20.71},{"city":"Grubbs","state_name":"Arkansas","lat":35.63396,"lng":-91.08184,"zip":"72431","miles_from_dt":21.01},{"city":"O'Kean","state_name":"Arkansas","lat":36.16662,"lng":-90.81719,"zip":"72449","miles_from_dt":22.09},{"city":"Newark","state_name":"Arkansas","lat":35.73074,"lng":-91.39514,"zip":"72562","miles_from_dt":22.15},{"city":"Poughkeepsie","state_name":"Arkansas","lat":36.08121,"lng":-91.45817,"zip":"72569","miles_from_dt":22.63},{"city":"Diaz","state_name":"Arkansas","lat":35.63784,"lng":-91.25788,"zip":"72043","miles_from_dt":22.68},{"city":"Charlotte","state_name":"Arkansas","lat":35.80471,"lng":-91.46683,"zip":"72522","miles_from_dt":22.85},{"city":"Weiner","state_name":"Arkansas","lat":35.62924,"lng":-90.90535,"zip":"72479","miles_from_dt":23.82},{"city":"Jacksonport","state_name":"Arkansas","lat":35.64084,"lng":-91.31089,"zip":"72075","miles_from_dt":23.86},{"city":"State University","state_name":"Arkansas","lat":35.84223,"lng":-90.6776,"zip":"72467","miles_from_dt":24.3},{"city":"Jonesboro","state_name":"Arkansas","lat":35.86835,"lng":-90.66193,"zip":"72401","miles_from_dt":24.73},{"city":"Walcott","state_name":"Arkansas","lat":36.04462,"lng":-90.67259,"zip":"72474","miles_from_dt":24.74},{"city":"Jonesboro","state_name":"Arkansas","lat":35.90446,"lng":-90.64869,"zip":"72405","miles_from_dt":25.1},{"city":"Cave City","state_name":"Arkansas","lat":35.95196,"lng":-91.54522,"zip":"72521","miles_from_dt":25.3},{"city":"Jonesboro","state_name":"Arkansas","lat":35.86977,"lng":-90.64049,"zip":"72403","miles_from_dt":25.89},{"city":"Beech Grove","state_name":"Arkansas","lat":36.12572,"lng":-90.69172,"zip":"72412","miles_from_dt":25.98},{"city":"Ravenden","state_name":"Arkansas","lat":36.27904,"lng":-91.29976,"zip":"72459","miles_from_dt":26.14},{"city":"Newport","state_name":"Arkansas","lat":35.57383,"lng":-91.22918,"zip":"72112","miles_from_dt":26.26},{"city":"Pocahontas","state_name":"Arkansas","lat":36.3229,"lng":-91.04909,"zip":"72455","miles_from_dt":26.62},{"city":"Waldenburg","state_name":"Arkansas","lat":35.56562,"lng":-90.93617,"zip":"72475","miles_from_dt":27.2},{"city":"Magness","state_name":"Arkansas","lat":35.70093,"lng":-91.48212,"zip":"72553","miles_from_dt":27.25},{"city":"Williford","state_name":"Arkansas","lat":36.26933,"lng":-91.36402,"zip":"72482","miles_from_dt":27.35},{"city":"Amagon","state_name":"Arkansas","lat":35.53911,"lng":-91.07271,"zip":"72005","miles_from_dt":27.56},{"city":"Delaplaine","state_name":"Arkansas","lat":36.22138,"lng":-90.74308,"zip":"72425","miles_from_dt":27.69},{"city":"Ravenden Springs","state_name":"Arkansas","lat":36.35792,"lng":-91.15967,"zip":"72460","miles_from_dt":29.15},{"city":"Biggers","state_name":"Arkansas","lat":36.30564,"lng":-90.81251,"zip":"72413","miles_from_dt":29.82}],"targetCityZipCode":"72410","targetCityState":"Arkansas"},"__N_SSG":true}