{"pageProps":{"stateName":"Arkansas","cityName":"brinkley","nearbyCities":[{"city":"Wheatley","state_name":"Arkansas","lat":34.95551,"lng":-91.09466,"zip":"72392","miles_from_dt":9.39},{"city":"Cotton Plant","state_name":"Arkansas","lat":35.00673,"lng":-91.27205,"zip":"72036","miles_from_dt":10.71},{"city":"Clarendon","state_name":"Arkansas","lat":34.71029,"lng":-91.27679,"zip":"72029","miles_from_dt":10.93},{"city":"Monroe","state_name":"Arkansas","lat":34.72803,"lng":-91.10349,"zip":"72108","miles_from_dt":10.96},{"city":"Biscoe","state_name":"Arkansas","lat":34.89215,"lng":-91.40714,"zip":"72017","miles_from_dt":11.32},{"city":"Moro","state_name":"Arkansas","lat":34.81146,"lng":-91.01996,"zip":"72368","miles_from_dt":11.4},{"city":"Goodwin","state_name":"Arkansas","lat":34.95687,"lng":-91.03202,"zip":"72340","miles_from_dt":12.22},{"city":"Hunter","state_name":"Arkansas","lat":35.06919,"lng":-91.10538,"zip":"72074","miles_from_dt":15.67},{"city":"Palestine","state_name":"Arkansas","lat":34.96623,"lng":-90.94726,"zip":"72372","miles_from_dt":16.73},{"city":"De Valls Bluff","state_name":"Arkansas","lat":34.73348,"lng":-91.46812,"zip":"72041","miles_from_dt":16.96},{"city":"Des Arc","state_name":"Arkansas","lat":34.96957,"lng":-91.52129,"zip":"72040","miles_from_dt":19.13},{"city":"Roe","state_name":"Arkansas","lat":34.61189,"lng":-91.37247,"zip":"72134","miles_from_dt":19.36},{"city":"Aubrey","state_name":"Arkansas","lat":34.72072,"lng":-90.89688,"zip":"72311","miles_from_dt":20.31},{"city":"Gregory","state_name":"Arkansas","lat":35.15455,"lng":-91.34209,"zip":"72059","miles_from_dt":21.64},{"city":"Holly Grove","state_name":"Arkansas","lat":34.53904,"lng":-91.13242,"zip":"72069","miles_from_dt":22.55},{"city":"Ulm","state_name":"Arkansas","lat":34.57819,"lng":-91.42655,"zip":"72170","miles_from_dt":22.92},{"city":"Hazen","state_name":"Arkansas","lat":34.79457,"lng":-91.61226,"zip":"72064","miles_from_dt":23.19},{"city":"Casscoe","state_name":"Arkansas","lat":34.51397,"lng":-91.31687,"zip":"72026","miles_from_dt":24.56},{"city":"Colt","state_name":"Arkansas","lat":35.11183,"lng":-90.89333,"zip":"72326","miles_from_dt":25.08},{"city":"Haynes","state_name":"Arkansas","lat":34.88746,"lng":-90.7705,"zip":"72341","miles_from_dt":25.15},{"city":"Marianna","state_name":"Arkansas","lat":34.75352,"lng":-90.78875,"zip":"72360","miles_from_dt":25.15},{"city":"Griffithville","state_name":"Arkansas","lat":35.07609,"lng":-91.57779,"zip":"72060","miles_from_dt":25.57},{"city":"McCrory","state_name":"Arkansas","lat":35.23228,"lng":-91.15242,"zip":"72101","miles_from_dt":25.92},{"city":"Forrest City","state_name":"Arkansas","lat":35.01316,"lng":-90.78545,"zip":"72336","miles_from_dt":26.43},{"city":"Caldwell","state_name":"Arkansas","lat":35.0688,"lng":-90.808,"zip":"72322","miles_from_dt":27.08},{"city":"Turner","state_name":"Arkansas","lat":34.49117,"lng":-91.03962,"zip":"72383","miles_from_dt":27.22},{"city":"Marvell","state_name":"Arkansas","lat":34.52612,"lng":-90.95307,"zip":"72366","miles_from_dt":27.3},{"city":"Forrest City","state_name":"Arkansas","lat":34.99042,"lng":-90.75645,"zip":"72335","miles_from_dt":27.39},{"city":"Patterson","state_name":"Arkansas","lat":35.25774,"lng":-91.23675,"zip":"72123","miles_from_dt":27.49},{"city":"Augusta","state_name":"Arkansas","lat":35.24602,"lng":-91.34495,"zip":"72006","miles_from_dt":27.69},{"city":"Crocketts Bluff","state_name":"Arkansas","lat":34.44606,"lng":-91.2349,"zip":"72038","miles_from_dt":28.53},{"city":"Poplar Grove","state_name":"Arkansas","lat":34.56126,"lng":-90.83996,"zip":"72374","miles_from_dt":29.51},{"city":"Madison","state_name":"Arkansas","lat":35.01422,"lng":-90.7239,"zip":"72359","miles_from_dt":29.69},{"city":"Hickory Plains","state_name":"Arkansas","lat":34.98141,"lng":-91.7171,"zip":"72066","miles_from_dt":29.89}],"targetCityZipCode":"72021","targetCityState":"Arkansas"},"__N_SSG":true}