{"pageProps":{"stateName":"Arkansas","cityName":"dermott","nearbyCities":[{"city":"McGehee","state_name":"Arkansas","lat":33.62476,"lng":-91.37234,"zip":"71654","miles_from_dt":9.49},{"city":"Montrose","state_name":"Arkansas","lat":33.32018,"lng":-91.57635,"zip":"71658","miles_from_dt":14.88},{"city":"Lake Village","state_name":"Arkansas","lat":33.36919,"lng":-91.27676,"zip":"71653","miles_from_dt":15.65},{"city":"Arkansas City","state_name":"Arkansas","lat":33.61827,"lng":-91.23004,"zip":"71630","miles_from_dt":15.89},{"city":"Tillar","state_name":"Arkansas","lat":33.74439,"lng":-91.40974,"zip":"71670","miles_from_dt":15.97},{"city":"Winchester","state_name":"Arkansas","lat":33.76572,"lng":-91.4884,"zip":"71677","miles_from_dt":16.94},{"city":"Monticello","state_name":"Arkansas","lat":33.62874,"lng":-91.7486,"zip":"71655","miles_from_dt":17.25},{"city":"Monticello","state_name":"Arkansas","lat":33.6253,"lng":-91.78934,"zip":"71657","miles_from_dt":19.3},{"city":"Monticello","state_name":"Arkansas","lat":33.63072,"lng":-91.79108,"zip":"71656","miles_from_dt":19.54},{"city":"Rohwer","state_name":"Arkansas","lat":33.7372,"lng":-91.24736,"zip":"71666","miles_from_dt":20.07},{"city":"Portland","state_name":"Arkansas","lat":33.22755,"lng":-91.42665,"zip":"71663","miles_from_dt":20.39},{"city":"Pickens","state_name":"Arkansas","lat":33.82355,"lng":-91.50391,"zip":"71662","miles_from_dt":20.96},{"city":"Scott","state_name":"Mississippi","lat":33.56254,"lng":-91.08769,"zip":"38772","miles_from_dt":22.79},{"city":"Winterville","state_name":"Mississippi","lat":33.50415,"lng":-91.05709,"zip":"38782","miles_from_dt":24.4},{"city":"Fountain Hill","state_name":"Arkansas","lat":33.38842,"lng":-91.8788,"zip":"71642","miles_from_dt":24.8},{"city":"Greenville","state_name":"Mississippi","lat":33.47081,"lng":-91.04775,"zip":"38703","miles_from_dt":25.15},{"city":"Greenville","state_name":"Mississippi","lat":33.40821,"lng":-91.06109,"zip":"38702","miles_from_dt":25.36},{"city":"Benoit","state_name":"Mississippi","lat":33.63834,"lng":-91.05543,"zip":"38725","miles_from_dt":25.77},{"city":"Dumas","state_name":"Arkansas","lat":33.89143,"lng":-91.54414,"zip":"71639","miles_from_dt":25.87},{"city":"Parkdale","state_name":"Arkansas","lat":33.14338,"lng":-91.51333,"zip":"71661","miles_from_dt":26.04},{"city":"Greenville","state_name":"Mississippi","lat":33.40497,"lng":-91.03858,"zip":"38704","miles_from_dt":26.66},{"city":"Wilmar","state_name":"Arkansas","lat":33.60424,"lng":-91.93805,"zip":"71675","miles_from_dt":27.1},{"city":"Watson","state_name":"Arkansas","lat":33.82694,"lng":-91.18261,"zip":"71674","miles_from_dt":27.19},{"city":"Hamburg","state_name":"Arkansas","lat":33.20444,"lng":-91.77837,"zip":"71646","miles_from_dt":27.79},{"city":"Metcalfe","state_name":"Mississippi","lat":33.4535,"lng":-90.99394,"zip":"38760","miles_from_dt":28.4},{"city":"Greenville","state_name":"Mississippi","lat":33.30621,"lng":-91.03346,"zip":"38701","miles_from_dt":29.68}],"targetCityZipCode":"71638","targetCityState":"Arkansas"},"__N_SSG":true}