{"pageProps":{"stateName":"Arkansas","cityName":"gamaliel","nearbyCities":[{"city":"Henderson","state_name":"Arkansas","lat":36.40395,"lng":-92.19022,"zip":"72544","miles_from_dt":4},{"city":"Clarkridge","state_name":"Arkansas","lat":36.46386,"lng":-92.3172,"zip":"72623","miles_from_dt":4.75},{"city":"Udall","state_name":"Missouri","lat":36.53933,"lng":-92.25948,"zip":"65766","miles_from_dt":6.31},{"city":"Bakersfield","state_name":"Missouri","lat":36.52593,"lng":-92.1609,"zip":"65609","miles_from_dt":6.61},{"city":"Gepp","state_name":"Arkansas","lat":36.43622,"lng":-92.10612,"zip":"72538","miles_from_dt":7.17},{"city":"Elizabeth","state_name":"Arkansas","lat":36.32052,"lng":-92.15121,"zip":"72531","miles_from_dt":10.05},{"city":"Mountain Home","state_name":"Arkansas","lat":36.34292,"lng":-92.38603,"zip":"72653","miles_from_dt":11.26},{"city":"Hardenville","state_name":"Missouri","lat":36.57829,"lng":-92.36065,"zip":"65666","miles_from_dt":11.31},{"city":"Mountain Home","state_name":"Arkansas","lat":36.33653,"lng":-92.38453,"zip":"72654","miles_from_dt":11.49},{"city":"Caulfield","state_name":"Missouri","lat":36.59088,"lng":-92.11697,"zip":"65626","miles_from_dt":11.68},{"city":"Tecumseh","state_name":"Missouri","lat":36.62236,"lng":-92.27943,"zip":"65760","miles_from_dt":12.14},{"city":"Viola","state_name":"Arkansas","lat":36.40646,"lng":-91.98797,"zip":"72583","miles_from_dt":14.02},{"city":"Midway","state_name":"Arkansas","lat":36.388,"lng":-92.47661,"zip":"72651","miles_from_dt":14.2},{"city":"Moody","state_name":"Missouri","lat":36.51768,"lng":-91.98356,"zip":"65777","miles_from_dt":14.69},{"city":"Gainesville","state_name":"Missouri","lat":36.60262,"lng":-92.42379,"zip":"65655","miles_from_dt":14.91},{"city":"Bexar","state_name":"Arkansas","lat":36.27634,"lng":-92.05644,"zip":"72515","miles_from_dt":15.54},{"city":"Dolph","state_name":"Arkansas","lat":36.23816,"lng":-92.115,"zip":"72528","miles_from_dt":16.05},{"city":"Gassville","state_name":"Arkansas","lat":36.31637,"lng":-92.48484,"zip":"72635","miles_from_dt":16.77},{"city":"Norfork","state_name":"Arkansas","lat":36.20703,"lng":-92.28293,"zip":"72659","miles_from_dt":16.99},{"city":"Lakeview","state_name":"Arkansas","lat":36.37013,"lng":-92.54347,"zip":"72642","miles_from_dt":18.12},{"city":"Pottersville","state_name":"Missouri","lat":36.69784,"lng":-92.11326,"zip":"65790","miles_from_dt":18.34},{"city":"Pontiac","state_name":"Missouri","lat":36.53842,"lng":-92.55661,"zip":"65729","miles_from_dt":18.98},{"city":"Pineville","state_name":"Arkansas","lat":36.20792,"lng":-92.06468,"zip":"72566","miles_from_dt":19.18},{"city":"Zanoni","state_name":"Missouri","lat":36.72588,"lng":-92.31538,"zip":"65784","miles_from_dt":19.55},{"city":"Sturkie","state_name":"Arkansas","lat":36.45734,"lng":-91.87894,"zip":"72578","miles_from_dt":19.77},{"city":"Cotter","state_name":"Arkansas","lat":36.30451,"lng":-92.53994,"zip":"72626","miles_from_dt":19.81},{"city":"Oakland","state_name":"Arkansas","lat":36.45195,"lng":-92.58963,"zip":"72661","miles_from_dt":19.83},{"city":"Bull Shoals","state_name":"Arkansas","lat":36.3781,"lng":-92.58517,"zip":"72619","miles_from_dt":20.21},{"city":"Norfork","state_name":"Arkansas","lat":36.15468,"lng":-92.32301,"zip":"72658","miles_from_dt":20.98},{"city":"Dora","state_name":"Missouri","lat":36.76964,"lng":-92.20371,"zip":"65637","miles_from_dt":22.09},{"city":"Wideman","state_name":"Arkansas","lat":36.17861,"lng":-92.01454,"zip":"72585","miles_from_dt":22.37},{"city":"Salem","state_name":"Arkansas","lat":36.35004,"lng":-91.85081,"zip":"72576","miles_from_dt":22.43},{"city":"Brixey","state_name":"Missouri","lat":36.75157,"lng":-92.38641,"zip":"65618","miles_from_dt":22.45},{"city":"Isabella","state_name":"Missouri","lat":36.58187,"lng":-92.60531,"zip":"65676","miles_from_dt":22.59},{"city":"Flippin","state_name":"Arkansas","lat":36.23693,"lng":-92.54891,"zip":"72634","miles_from_dt":22.92},{"city":"Calico Rock","state_name":"Arkansas","lat":36.11876,"lng":-92.17802,"zip":"72519","miles_from_dt":23.06},{"city":"Oxford","state_name":"Arkansas","lat":36.21871,"lng":-91.90686,"zip":"72565","miles_from_dt":24.23},{"city":"Rockbridge","state_name":"Missouri","lat":36.79545,"lng":-92.40127,"zip":"65741","miles_from_dt":25.56},{"city":"Brockwell","state_name":"Arkansas","lat":36.1463,"lng":-91.95403,"zip":"72517","miles_from_dt":26.13},{"city":"Wasola","state_name":"Missouri","lat":36.75551,"lng":-92.51332,"zip":"65773","miles_from_dt":26.17},{"city":"West Plains","state_name":"Missouri","lat":36.6995,"lng":-91.85999,"zip":"65775","miles_from_dt":26.97},{"city":"Noble","state_name":"Missouri","lat":36.73192,"lng":-92.57631,"zip":"65715","miles_from_dt":27.21},{"city":"Drury","state_name":"Missouri","lat":36.84319,"lng":-92.32418,"zip":"65638","miles_from_dt":27.56},{"city":"Wiseman","state_name":"Arkansas","lat":36.21977,"lng":-91.8173,"zip":"72587","miles_from_dt":28.14},{"city":"Camp","state_name":"Arkansas","lat":36.39816,"lng":-91.72476,"zip":"72520","miles_from_dt":28.59},{"city":"Thornfield","state_name":"Missouri","lat":36.68613,"lng":-92.65634,"zip":"65762","miles_from_dt":28.59},{"city":"Theodosia","state_name":"Missouri","lat":36.56974,"lng":-92.72561,"zip":"65761","miles_from_dt":28.59},{"city":"Yellville","state_name":"Arkansas","lat":36.25628,"lng":-92.68679,"zip":"72687","miles_from_dt":28.59},{"city":"Summit","state_name":"Arkansas","lat":36.26442,"lng":-92.70074,"zip":"72677","miles_from_dt":29.03},{"city":"Glencoe","state_name":"Arkansas","lat":36.33015,"lng":-91.72259,"zip":"72539","miles_from_dt":29.67}],"targetCityZipCode":"72537","targetCityState":"Arkansas"},"__N_SSG":true}