{"pageProps":{"stateName":"Arkansas","cityName":"hazen","nearbyCities":[{"city":"Carlisle","state_name":"Arkansas","lat":34.75168,"lng":-91.74902,"zip":"72024","miles_from_dt":8.32},{"city":"De Valls Bluff","state_name":"Arkansas","lat":34.73348,"lng":-91.46812,"zip":"72041","miles_from_dt":9.22},{"city":"Des Arc","state_name":"Arkansas","lat":34.96957,"lng":-91.52129,"zip":"72040","miles_from_dt":13.12},{"city":"Biscoe","state_name":"Arkansas","lat":34.89215,"lng":-91.40714,"zip":"72017","miles_from_dt":13.46},{"city":"Hickory Plains","state_name":"Arkansas","lat":34.98141,"lng":-91.7171,"zip":"72066","miles_from_dt":14.19},{"city":"Lonoke","state_name":"Arkansas","lat":34.80418,"lng":-91.90619,"zip":"72086","miles_from_dt":16.73},{"city":"Ulm","state_name":"Arkansas","lat":34.57819,"lng":-91.42655,"zip":"72170","miles_from_dt":18.28},{"city":"Roe","state_name":"Arkansas","lat":34.61189,"lng":-91.37247,"zip":"72134","miles_from_dt":18.57},{"city":"Ward","state_name":"Arkansas","lat":35.00279,"lng":-91.84212,"zip":"72176","miles_from_dt":19.4},{"city":"Griffithville","state_name":"Arkansas","lat":35.07609,"lng":-91.57779,"zip":"72060","miles_from_dt":19.5},{"city":"Clarendon","state_name":"Arkansas","lat":34.71029,"lng":-91.27679,"zip":"72029","miles_from_dt":19.95},{"city":"Humnoke","state_name":"Arkansas","lat":34.51279,"lng":-91.75802,"zip":"72072","miles_from_dt":21.12},{"city":"Coy","state_name":"Arkansas","lat":34.53778,"lng":-91.8739,"zip":"72037","miles_from_dt":23.14},{"city":"Brinkley","state_name":"Arkansas","lat":34.85953,"lng":-91.21193,"zip":"72021","miles_from_dt":23.19},{"city":"Cotton Plant","state_name":"Arkansas","lat":35.00673,"lng":-91.27205,"zip":"72036","miles_from_dt":24.23},{"city":"Stuttgart","state_name":"Arkansas","lat":34.44284,"lng":-91.53136,"zip":"72160","miles_from_dt":24.68},{"city":"England","state_name":"Arkansas","lat":34.55542,"lng":-91.9403,"zip":"72046","miles_from_dt":24.91},{"city":"Austin","state_name":"Arkansas","lat":35.0004,"lng":-91.97902,"zip":"72007","miles_from_dt":25.2},{"city":"Casscoe","state_name":"Arkansas","lat":34.51397,"lng":-91.31687,"zip":"72026","miles_from_dt":25.64},{"city":"Garner","state_name":"Arkansas","lat":35.13965,"lng":-91.78097,"zip":"72052","miles_from_dt":25.64},{"city":"Higginson","state_name":"Arkansas","lat":35.15766,"lng":-91.71547,"zip":"72068","miles_from_dt":25.71},{"city":"Keo","state_name":"Arkansas","lat":34.6049,"lng":-92.01189,"zip":"72083","miles_from_dt":26.24},{"city":"McRae","state_name":"Arkansas","lat":35.14556,"lng":-91.83352,"zip":"72102","miles_from_dt":27.26},{"city":"Beebe","state_name":"Arkansas","lat":35.10199,"lng":-91.91789,"zip":"72012","miles_from_dt":27.39},{"city":"Scott","state_name":"Arkansas","lat":34.67681,"lng":-92.07488,"zip":"72142","miles_from_dt":27.55},{"city":"Cabot","state_name":"Arkansas","lat":34.95909,"lng":-92.05925,"zip":"72023","miles_from_dt":27.81},{"city":"West Point","state_name":"Arkansas","lat":35.20381,"lng":-91.61265,"zip":"72178","miles_from_dt":28.21},{"city":"Gregory","state_name":"Arkansas","lat":35.15455,"lng":-91.34209,"zip":"72059","miles_from_dt":29.17},{"city":"Monroe","state_name":"Arkansas","lat":34.72803,"lng":-91.10349,"zip":"72108","miles_from_dt":29.3},{"city":"Jacksonville","state_name":"Arkansas","lat":34.86416,"lng":-92.12249,"zip":"72078","miles_from_dt":29.4},{"city":"Humphrey","state_name":"Arkansas","lat":34.36529,"lng":-91.65251,"zip":"72073","miles_from_dt":29.68}],"targetCityZipCode":"72064","targetCityState":"Arkansas"},"__N_SSG":true}