{"pageProps":{"stateName":"Arkansas","cityName":"hickory-plains","nearbyCities":[{"city":"Ward","state_name":"Arkansas","lat":35.00279,"lng":-91.84212,"zip":"72176","miles_from_dt":7.24},{"city":"Griffithville","state_name":"Arkansas","lat":35.07609,"lng":-91.57779,"zip":"72060","miles_from_dt":10.25},{"city":"Des Arc","state_name":"Arkansas","lat":34.96957,"lng":-91.52129,"zip":"72040","miles_from_dt":11.14},{"city":"Garner","state_name":"Arkansas","lat":35.13965,"lng":-91.78097,"zip":"72052","miles_from_dt":11.49},{"city":"Higginson","state_name":"Arkansas","lat":35.15766,"lng":-91.71547,"zip":"72068","miles_from_dt":12.15},{"city":"McRae","state_name":"Arkansas","lat":35.14556,"lng":-91.83352,"zip":"72102","miles_from_dt":13.1},{"city":"Beebe","state_name":"Arkansas","lat":35.10199,"lng":-91.91789,"zip":"72012","miles_from_dt":14.1},{"city":"Hazen","state_name":"Arkansas","lat":34.79457,"lng":-91.61226,"zip":"72064","miles_from_dt":14.19},{"city":"Austin","state_name":"Arkansas","lat":35.0004,"lng":-91.97902,"zip":"72007","miles_from_dt":14.92},{"city":"Carlisle","state_name":"Arkansas","lat":34.75168,"lng":-91.74902,"zip":"72024","miles_from_dt":15.94},{"city":"Lonoke","state_name":"Arkansas","lat":34.80418,"lng":-91.90619,"zip":"72086","miles_from_dt":16.27},{"city":"West Point","state_name":"Arkansas","lat":35.20381,"lng":-91.61265,"zip":"72178","miles_from_dt":16.43},{"city":"Searcy","state_name":"Arkansas","lat":35.2279,"lng":-91.73613,"zip":"72143","miles_from_dt":17.03},{"city":"Kensett","state_name":"Arkansas","lat":35.23713,"lng":-91.66963,"zip":"72082","miles_from_dt":17.83},{"city":"Searcy","state_name":"Arkansas","lat":35.24748,"lng":-91.72668,"zip":"72149","miles_from_dt":18.35},{"city":"Biscoe","state_name":"Arkansas","lat":34.89215,"lng":-91.40714,"zip":"72017","miles_from_dt":18.64},{"city":"Searcy","state_name":"Arkansas","lat":35.25209,"lng":-91.74286,"zip":"72145","miles_from_dt":18.72},{"city":"Cabot","state_name":"Arkansas","lat":34.95909,"lng":-92.05925,"zip":"72023","miles_from_dt":19.48},{"city":"El Paso","state_name":"Arkansas","lat":35.12618,"lng":-92.05483,"zip":"72045","miles_from_dt":21.59},{"city":"De Valls Bluff","state_name":"Arkansas","lat":34.73348,"lng":-91.46812,"zip":"72041","miles_from_dt":22.19},{"city":"Gregory","state_name":"Arkansas","lat":35.15455,"lng":-91.34209,"zip":"72059","miles_from_dt":24.38},{"city":"Jacksonville","state_name":"Arkansas","lat":34.86416,"lng":-92.12249,"zip":"72078","miles_from_dt":24.39},{"city":"Romance","state_name":"Arkansas","lat":35.23538,"lng":-92.02129,"zip":"72136","miles_from_dt":24.57},{"city":"Jacksonville","state_name":"Arkansas","lat":34.91072,"lng":-92.14303,"zip":"72076","miles_from_dt":24.66},{"city":"Bald Knob","state_name":"Arkansas","lat":35.30555,"lng":-91.52112,"zip":"72010","miles_from_dt":24.95},{"city":"Little Rock Air Force Base","state_name":"Arkansas","lat":34.90103,"lng":-92.15202,"zip":"72099","miles_from_dt":25.3},{"city":"Cotton Plant","state_name":"Arkansas","lat":35.00673,"lng":-91.27205,"zip":"72036","miles_from_dt":25.31},{"city":"Letona","state_name":"Arkansas","lat":35.36665,"lng":-91.82772,"zip":"72085","miles_from_dt":27.29},{"city":"Judsonia","state_name":"Arkansas","lat":35.37827,"lng":-91.66947,"zip":"72081","miles_from_dt":27.49},{"city":"Augusta","state_name":"Arkansas","lat":35.24602,"lng":-91.34495,"zip":"72006","miles_from_dt":27.88},{"city":"North Little Rock","state_name":"Arkansas","lat":34.78076,"lng":-92.14548,"zip":"72117","miles_from_dt":27.99},{"city":"Russell","state_name":"Arkansas","lat":35.36212,"lng":-91.50997,"zip":"72139","miles_from_dt":28.74},{"city":"Vilonia","state_name":"Arkansas","lat":35.10001,"lng":-92.20807,"zip":"72173","miles_from_dt":29.01},{"city":"Scott","state_name":"Arkansas","lat":34.67681,"lng":-92.07488,"zip":"72142","miles_from_dt":29.23},{"city":"Mount Vernon","state_name":"Arkansas","lat":35.23688,"lng":-92.13307,"zip":"72111","miles_from_dt":29.42},{"city":"Brinkley","state_name":"Arkansas","lat":34.85953,"lng":-91.21193,"zip":"72021","miles_from_dt":29.89}],"targetCityZipCode":"72066","targetCityState":"Arkansas"},"__N_SSG":true}