{"pageProps":{"stateName":"Arkansas","cityName":"imboden","nearbyCities":[{"city":"Black Rock","state_name":"Arkansas","lat":36.12643,"lng":-91.17745,"zip":"72415","miles_from_dt":6.42},{"city":"Ravenden","state_name":"Arkansas","lat":36.27904,"lng":-91.29976,"zip":"72459","miles_from_dt":8.84},{"city":"Pocahontas","state_name":"Arkansas","lat":36.3229,"lng":-91.04909,"zip":"72455","miles_from_dt":9.51},{"city":"Ravenden Springs","state_name":"Arkansas","lat":36.35792,"lng":-91.15967,"zip":"72460","miles_from_dt":9.62},{"city":"Powhatan","state_name":"Arkansas","lat":36.06844,"lng":-91.15619,"zip":"72458","miles_from_dt":10.35},{"city":"Portia","state_name":"Arkansas","lat":36.08545,"lng":-91.06827,"zip":"72457","miles_from_dt":10.52},{"city":"Williford","state_name":"Arkansas","lat":36.26933,"lng":-91.36402,"zip":"72482","miles_from_dt":11.91},{"city":"Smithville","state_name":"Arkansas","lat":36.05121,"lng":-91.32157,"zip":"72466","miles_from_dt":14.64},{"city":"Hoxie","state_name":"Arkansas","lat":36.02582,"lng":-91.04446,"zip":"72433","miles_from_dt":14.78},{"city":"Lynn","state_name":"Arkansas","lat":35.9924,"lng":-91.26466,"zip":"72440","miles_from_dt":16.65},{"city":"Warm Springs","state_name":"Arkansas","lat":36.46249,"lng":-91.05373,"zip":"72478","miles_from_dt":17.84},{"city":"Hardy","state_name":"Arkansas","lat":36.29656,"lng":-91.46925,"zip":"72542","miles_from_dt":18.08},{"city":"Walnut Ridge","state_name":"Arkansas","lat":36.04533,"lng":-90.91692,"zip":"72476","miles_from_dt":18.1},{"city":"Minturn","state_name":"Arkansas","lat":35.97812,"lng":-91.02669,"zip":"72445","miles_from_dt":18.18},{"city":"Poughkeepsie","state_name":"Arkansas","lat":36.08121,"lng":-91.45817,"zip":"72569","miles_from_dt":19.16},{"city":"Cherokee Village","state_name":"Arkansas","lat":36.31583,"lng":-91.4825,"zip":"72525","miles_from_dt":19.2},{"city":"O'Kean","state_name":"Arkansas","lat":36.16662,"lng":-90.81719,"zip":"72449","miles_from_dt":19.5},{"city":"Alicia","state_name":"Arkansas","lat":35.93854,"lng":-91.09432,"zip":"72410","miles_from_dt":19.65},{"city":"Strawberry","state_name":"Arkansas","lat":35.95367,"lng":-91.29949,"zip":"72469","miles_from_dt":19.85},{"city":"Biggers","state_name":"Arkansas","lat":36.30564,"lng":-90.81251,"zip":"72413","miles_from_dt":20.33},{"city":"Maynard","state_name":"Arkansas","lat":36.4266,"lng":-90.86106,"zip":"72444","miles_from_dt":22.01},{"city":"Myrtle","state_name":"Missouri","lat":36.52846,"lng":-91.2719,"zip":"65778","miles_from_dt":22.26},{"city":"Sedgwick","state_name":"Arkansas","lat":35.98695,"lng":-90.87929,"zip":"72465","miles_from_dt":22.4},{"city":"Saffell","state_name":"Arkansas","lat":35.89762,"lng":-91.29173,"zip":"72572","miles_from_dt":23.31},{"city":"Delaplaine","state_name":"Arkansas","lat":36.22138,"lng":-90.74308,"zip":"72425","miles_from_dt":23.31},{"city":"Cherokee Village","state_name":"Arkansas","lat":36.29696,"lng":-91.56676,"zip":"72529","miles_from_dt":23.34},{"city":"Gatewood","state_name":"Missouri","lat":36.55434,"lng":-91.07821,"zip":"63942","miles_from_dt":23.61},{"city":"Reyno","state_name":"Arkansas","lat":36.38243,"lng":-90.75916,"zip":"72462","miles_from_dt":25.08},{"city":"Evening Shade","state_name":"Arkansas","lat":36.09905,"lng":-91.59508,"zip":"72532","miles_from_dt":25.67},{"city":"Couch","state_name":"Missouri","lat":36.5856,"lng":-91.26657,"zip":"65690","miles_from_dt":26},{"city":"Mammoth Spring","state_name":"Arkansas","lat":36.43902,"lng":-91.55668,"zip":"72554","miles_from_dt":26.84},{"city":"Egypt","state_name":"Arkansas","lat":35.86872,"lng":-90.94901,"zip":"72427","miles_from_dt":26.86},{"city":"Datto","state_name":"Arkansas","lat":36.39185,"lng":-90.72874,"zip":"72424","miles_from_dt":26.89},{"city":"Beech Grove","state_name":"Arkansas","lat":36.12572,"lng":-90.69172,"zip":"72412","miles_from_dt":26.96},{"city":"Swifton","state_name":"Arkansas","lat":35.82591,"lng":-91.11996,"zip":"72471","miles_from_dt":27.16},{"city":"Bono","state_name":"Arkansas","lat":35.95731,"lng":-90.79699,"zip":"72416","miles_from_dt":27.16},{"city":"Ash Flat","state_name":"Arkansas","lat":36.23118,"lng":-91.64722,"zip":"72513","miles_from_dt":27.22},{"city":"Cord","state_name":"Arkansas","lat":35.83551,"lng":-91.30318,"zip":"72524","miles_from_dt":27.59},{"city":"Peach Orchard","state_name":"Arkansas","lat":36.30909,"lng":-90.67887,"zip":"72453","miles_from_dt":27.6},{"city":"Cave City","state_name":"Arkansas","lat":35.95196,"lng":-91.54522,"zip":"72521","miles_from_dt":28.32},{"city":"Walcott","state_name":"Arkansas","lat":36.04462,"lng":-90.67259,"zip":"72474","miles_from_dt":29.79}],"targetCityZipCode":"72434","targetCityState":"Arkansas"},"__N_SSG":true}