{"pageProps":{"stateName":"Arkansas","cityName":"jefferson","nearbyCities":[{"city":"Redfield","state_name":"Arkansas","lat":34.44,"lng":-92.19468,"zip":"72132","miles_from_dt":3.48},{"city":"Wright","state_name":"Arkansas","lat":34.43161,"lng":-92.08721,"zip":"72182","miles_from_dt":7.02},{"city":"White Hall","state_name":"Arkansas","lat":34.27463,"lng":-92.13302,"zip":"71602","miles_from_dt":8.78},{"city":"Woodson","state_name":"Arkansas","lat":34.53104,"lng":-92.21495,"zip":"72180","miles_from_dt":9.79},{"city":"Hensley","state_name":"Arkansas","lat":34.52102,"lng":-92.28648,"zip":"72065","miles_from_dt":10.34},{"city":"Sheridan","state_name":"Arkansas","lat":34.30999,"lng":-92.39642,"zip":"72150","miles_from_dt":12.54},{"city":"Sherrill","state_name":"Arkansas","lat":34.35194,"lng":-91.98009,"zip":"72152","miles_from_dt":12.79},{"city":"Tucker","state_name":"Arkansas","lat":34.43719,"lng":-91.96771,"zip":"72168","miles_from_dt":13.62},{"city":"Wrightsville","state_name":"Arkansas","lat":34.60002,"lng":-92.19305,"zip":"72183","miles_from_dt":14.51},{"city":"White Hall","state_name":"Arkansas","lat":34.22887,"lng":-92.00089,"zip":"71612","miles_from_dt":15.85},{"city":"Little Rock","state_name":"Arkansas","lat":34.63042,"lng":-92.23833,"zip":"72206","miles_from_dt":16.75},{"city":"Little Rock","state_name":"Arkansas","lat":34.63332,"lng":-92.22671,"zip":"72203","miles_from_dt":16.87},{"city":"Bauxite","state_name":"Arkansas","lat":34.50967,"lng":-92.46628,"zip":"72011","miles_from_dt":17.35},{"city":"Mabelvale","state_name":"Arkansas","lat":34.59133,"lng":-92.38316,"zip":"72103","miles_from_dt":17.43},{"city":"Pine Bluff","state_name":"Arkansas","lat":34.1402,"lng":-92.10718,"zip":"71613","miles_from_dt":17.98},{"city":"Grapevine","state_name":"Arkansas","lat":34.14417,"lng":-92.31507,"zip":"72057","miles_from_dt":18.17},{"city":"Keo","state_name":"Arkansas","lat":34.6049,"lng":-92.01189,"zip":"72083","miles_from_dt":18.29},{"city":"England","state_name":"Arkansas","lat":34.55542,"lng":-91.9403,"zip":"72046","miles_from_dt":18.68},{"city":"Pine Bluff","state_name":"Arkansas","lat":34.12881,"lng":-92.08492,"zip":"71603","miles_from_dt":19.13},{"city":"Pine Bluff","state_name":"Arkansas","lat":34.20067,"lng":-91.93954,"zip":"71611","miles_from_dt":19.75},{"city":"Sweet Home","state_name":"Arkansas","lat":34.67575,"lng":-92.23735,"zip":"72164","miles_from_dt":19.85},{"city":"Prattsville","state_name":"Arkansas","lat":34.31215,"lng":-92.55406,"zip":"72129","miles_from_dt":20.98},{"city":"Scott","state_name":"Arkansas","lat":34.67681,"lng":-92.07488,"zip":"72142","miles_from_dt":21.03},{"city":"Coy","state_name":"Arkansas","lat":34.53778,"lng":-91.8739,"zip":"72037","miles_from_dt":21.2},{"city":"Little Rock","state_name":"Arkansas","lat":34.6805,"lng":-92.33974,"zip":"72209","miles_from_dt":21.6},{"city":"Bryant","state_name":"Arkansas","lat":34.59625,"lng":-92.48689,"zip":"72089","miles_from_dt":21.74},{"city":"Little Rock","state_name":"Arkansas","lat":34.68093,"lng":-92.3472,"zip":"72219","miles_from_dt":21.79},{"city":"College Station","state_name":"Arkansas","lat":34.70579,"lng":-92.22852,"zip":"72053","miles_from_dt":21.86},{"city":"Bryant","state_name":"Arkansas","lat":34.60859,"lng":-92.49651,"zip":"72022","miles_from_dt":22.71},{"city":"Pine Bluff","state_name":"Arkansas","lat":34.17409,"lng":-91.89811,"zip":"71601","miles_from_dt":22.75},{"city":"Benton","state_name":"Arkansas","lat":34.49298,"lng":-92.58974,"zip":"72015","miles_from_dt":23.41},{"city":"Little Rock","state_name":"Arkansas","lat":34.71739,"lng":-92.3582,"zip":"72204","miles_from_dt":24.35},{"city":"Altheimer","state_name":"Arkansas","lat":34.29722,"lng":-91.7856,"zip":"72004","miles_from_dt":24.49},{"city":"Little Rock","state_name":"Arkansas","lat":34.72453,"lng":-92.3537,"zip":"72222","miles_from_dt":24.71},{"city":"Little Rock","state_name":"Arkansas","lat":34.74626,"lng":-92.27016,"zip":"72202","miles_from_dt":24.92},{"city":"Benton","state_name":"Arkansas","lat":34.56921,"lng":-92.57891,"zip":"72158","miles_from_dt":24.96},{"city":"Little Rock","state_name":"Arkansas","lat":34.74571,"lng":-92.27978,"zip":"72295","miles_from_dt":24.97},{"city":"Little Rock","state_name":"Arkansas","lat":34.74626,"lng":-92.27666,"zip":"72231","miles_from_dt":24.98},{"city":"Little Rock","state_name":"Arkansas","lat":34.74725,"lng":-92.28053,"zip":"72201","miles_from_dt":25.09},{"city":"Benton","state_name":"Arkansas","lat":34.56274,"lng":-92.58616,"zip":"72018","miles_from_dt":25.11},{"city":"Little Rock","state_name":"Arkansas","lat":34.75,"lng":-92.28219,"zip":"72260","miles_from_dt":25.29},{"city":"Poyen","state_name":"Arkansas","lat":34.31535,"lng":-92.63846,"zip":"72128","miles_from_dt":25.63},{"city":"Wabbaseka","state_name":"Arkansas","lat":34.33792,"lng":-91.75495,"zip":"72175","miles_from_dt":25.64},{"city":"North Little Rock","state_name":"Arkansas","lat":34.7645,"lng":-92.26024,"zip":"72114","miles_from_dt":26.08},{"city":"Traskwood","state_name":"Arkansas","lat":34.42223,"lng":-92.65477,"zip":"72167","miles_from_dt":26.12},{"city":"North Little Rock","state_name":"Arkansas","lat":34.76629,"lng":-92.25907,"zip":"72115","miles_from_dt":26.19},{"city":"Little Rock","state_name":"Arkansas","lat":34.74948,"lng":-92.3524,"zip":"72205","miles_from_dt":26.3},{"city":"Little Rock","state_name":"Arkansas","lat":34.75792,"lng":-92.32695,"zip":"72255","miles_from_dt":26.41},{"city":"Little Rock","state_name":"Arkansas","lat":34.75307,"lng":-92.347,"zip":"72215","miles_from_dt":26.43},{"city":"Little Rock","state_name":"Arkansas","lat":34.7528,"lng":-92.34919,"zip":"72225","miles_from_dt":26.46},{"city":"Humnoke","state_name":"Arkansas","lat":34.51279,"lng":-91.75802,"zip":"72072","miles_from_dt":26.58},{"city":"Alexander","state_name":"Arkansas","lat":34.6646,"lng":-92.5362,"zip":"72002","miles_from_dt":27},{"city":"Little Rock","state_name":"Arkansas","lat":34.77589,"lng":-92.27715,"zip":"72214","miles_from_dt":27},{"city":"North Little Rock","state_name":"Arkansas","lat":34.78076,"lng":-92.14548,"zip":"72117","miles_from_dt":27.14},{"city":"Little Rock","state_name":"Arkansas","lat":34.74792,"lng":-92.41675,"zip":"72211","miles_from_dt":27.64},{"city":"Little Rock","state_name":"Arkansas","lat":34.77493,"lng":-92.34271,"zip":"72207","miles_from_dt":27.79},{"city":"Little Rock","state_name":"Arkansas","lat":34.77592,"lng":-92.35763,"zip":"72217","miles_from_dt":28.12},{"city":"North Little Rock","state_name":"Arkansas","lat":34.7981,"lng":-92.25602,"zip":"72190","miles_from_dt":28.35},{"city":"Little Rock","state_name":"Arkansas","lat":34.71506,"lng":-92.50378,"zip":"72210","miles_from_dt":28.37},{"city":"North Little Rock","state_name":"Arkansas","lat":34.80025,"lng":-92.24505,"zip":"72116","miles_from_dt":28.43},{"city":"Little Rock","state_name":"Arkansas","lat":34.7782,"lng":-92.37498,"zip":"72227","miles_from_dt":28.6},{"city":"North Little Rock","state_name":"Arkansas","lat":34.81133,"lng":-92.23488,"zip":"72124","miles_from_dt":29.14},{"city":"Moscow","state_name":"Arkansas","lat":34.13505,"lng":-91.78071,"zip":"71659","miles_from_dt":29.69},{"city":"Little Rock","state_name":"Arkansas","lat":34.78498,"lng":-92.4141,"zip":"72212","miles_from_dt":29.88}],"targetCityZipCode":"72079","targetCityState":"Arkansas"},"__N_SSG":true}