{"pageProps":{"stateName":"Arkansas","cityName":"leslie","nearbyCities":[{"city":"Dennard","state_name":"Arkansas","lat":35.73615,"lng":-92.56625,"zip":"72629","miles_from_dt":4.6},{"city":"Marshall","state_name":"Arkansas","lat":35.87938,"lng":-92.69308,"zip":"72650","miles_from_dt":9.26},{"city":"Clinton","state_name":"Arkansas","lat":35.60717,"lng":-92.52904,"zip":"72031","miles_from_dt":13.56},{"city":"Fox","state_name":"Arkansas","lat":35.79475,"lng":-92.31501,"zip":"72051","miles_from_dt":13.65},{"city":"Timbo","state_name":"Arkansas","lat":35.88286,"lng":-92.32986,"zip":"72680","miles_from_dt":13.94},{"city":"Tilly","state_name":"Arkansas","lat":35.73555,"lng":-92.80206,"zip":"72679","miles_from_dt":14.48},{"city":"Harriet","state_name":"Arkansas","lat":36.01948,"lng":-92.48937,"zip":"72639","miles_from_dt":15.44},{"city":"Onia","state_name":"Arkansas","lat":35.93617,"lng":-92.33192,"zip":"72663","miles_from_dt":15.67},{"city":"Gilbert","state_name":"Arkansas","lat":35.99121,"lng":-92.71651,"zip":"72636","miles_from_dt":15.77},{"city":"Shirley","state_name":"Arkansas","lat":35.65651,"lng":-92.31988,"zip":"72153","miles_from_dt":16.74},{"city":"Big Flat","state_name":"Arkansas","lat":36.0208,"lng":-92.36566,"zip":"72617","miles_from_dt":18.51},{"city":"Timbo","state_name":"Arkansas","lat":35.8948,"lng":-92.2469,"zip":"72657","miles_from_dt":18.57},{"city":"Saint Joe","state_name":"Arkansas","lat":36.00711,"lng":-92.79283,"zip":"72675","miles_from_dt":19.31},{"city":"Choctaw","state_name":"Arkansas","lat":35.53771,"lng":-92.43266,"zip":"72028","miles_from_dt":19.56},{"city":"Scotland","state_name":"Arkansas","lat":35.51824,"lng":-92.69158,"zip":"72141","miles_from_dt":20.99},{"city":"Fifty Six","state_name":"Arkansas","lat":35.97921,"lng":-92.24513,"zip":"72533","miles_from_dt":21.36},{"city":"Witts Springs","state_name":"Arkansas","lat":35.70352,"lng":-92.918,"zip":"72686","miles_from_dt":21.36},{"city":"Fairfield Bay","state_name":"Arkansas","lat":35.59803,"lng":-92.26239,"zip":"72088","miles_from_dt":21.79},{"city":"Jerusalem","state_name":"Arkansas","lat":35.52604,"lng":-92.80909,"zip":"72080","miles_from_dt":23.73},{"city":"Edgemont","state_name":"Arkansas","lat":35.67688,"lng":-92.16243,"zip":"72044","miles_from_dt":23.85},{"city":"Valley Springs","state_name":"Arkansas","lat":36.13405,"lng":-92.72911,"zip":"72682","miles_from_dt":24.79},{"city":"Pindall","state_name":"Arkansas","lat":36.06477,"lng":-92.87359,"zip":"72669","miles_from_dt":25.31},{"city":"Bee Branch","state_name":"Arkansas","lat":35.45709,"lng":-92.3644,"zip":"72013","miles_from_dt":26.18},{"city":"Cleveland","state_name":"Arkansas","lat":35.43428,"lng":-92.68003,"zip":"72030","miles_from_dt":26.3},{"city":"Hector","state_name":"Arkansas","lat":35.55608,"lng":-92.91932,"zip":"72843","miles_from_dt":26.5},{"city":"Mountain View","state_name":"Arkansas","lat":35.84023,"lng":-92.08032,"zip":"72560","miles_from_dt":26.94},{"city":"Mount Judea","state_name":"Arkansas","lat":35.89346,"lng":-93.03421,"zip":"72655","miles_from_dt":27.47},{"city":"Higden","state_name":"Arkansas","lat":35.56369,"lng":-92.16589,"zip":"72067","miles_from_dt":27.51},{"city":"Norfork","state_name":"Arkansas","lat":36.15468,"lng":-92.32301,"zip":"72658","miles_from_dt":27.62},{"city":"Pelsor","state_name":"Arkansas","lat":35.76773,"lng":-93.05658,"zip":"72856","miles_from_dt":28.12},{"city":"Prim","state_name":"Arkansas","lat":35.6673,"lng":-92.06997,"zip":"72130","miles_from_dt":28.96},{"city":"Everton","state_name":"Arkansas","lat":36.14023,"lng":-92.87572,"zip":"72633","miles_from_dt":29.32},{"city":"Western Grove","state_name":"Arkansas","lat":36.05539,"lng":-92.98194,"zip":"72685","miles_from_dt":29.49},{"city":"Center Ridge","state_name":"Arkansas","lat":35.37021,"lng":-92.57494,"zip":"72027","miles_from_dt":29.82},{"city":"Flippin","state_name":"Arkansas","lat":36.23693,"lng":-92.54891,"zip":"72634","miles_from_dt":29.96}],"targetCityZipCode":"72645","targetCityState":"Arkansas"},"__N_SSG":true}