{"pageProps":{"stateName":"Arkansas","cityName":"pickens","nearbyCities":[{"city":"Winchester","state_name":"Arkansas","lat":33.76572,"lng":-91.4884,"zip":"71677","miles_from_dt":4.08},{"city":"Dumas","state_name":"Arkansas","lat":33.89143,"lng":-91.54414,"zip":"71639","miles_from_dt":5.22},{"city":"Tillar","state_name":"Arkansas","lat":33.74439,"lng":-91.40974,"zip":"71670","miles_from_dt":7.69},{"city":"Gould","state_name":"Arkansas","lat":34.01953,"lng":-91.57945,"zip":"71643","miles_from_dt":14.19},{"city":"McGehee","state_name":"Arkansas","lat":33.62476,"lng":-91.37234,"zip":"71654","miles_from_dt":15.66},{"city":"Rohwer","state_name":"Arkansas","lat":33.7372,"lng":-91.24736,"zip":"71666","miles_from_dt":15.92},{"city":"Watson","state_name":"Arkansas","lat":33.82694,"lng":-91.18261,"zip":"71674","miles_from_dt":18.48},{"city":"Monticello","state_name":"Arkansas","lat":33.62874,"lng":-91.7486,"zip":"71655","miles_from_dt":19.46},{"city":"Reydell","state_name":"Arkansas","lat":34.10821,"lng":-91.53718,"zip":"72133","miles_from_dt":19.71},{"city":"Dermott","state_name":"Arkansas","lat":33.52008,"lng":-91.47927,"zip":"71638","miles_from_dt":20.96},{"city":"Gillett","state_name":"Arkansas","lat":34.10391,"lng":-91.36196,"zip":"72055","miles_from_dt":20.97},{"city":"Star City","state_name":"Arkansas","lat":33.93588,"lng":-91.84412,"zip":"71667","miles_from_dt":21.03},{"city":"Arkansas City","state_name":"Arkansas","lat":33.61827,"lng":-91.23004,"zip":"71630","miles_from_dt":21.19},{"city":"Monticello","state_name":"Arkansas","lat":33.63072,"lng":-91.79108,"zip":"71656","miles_from_dt":21.22},{"city":"Monticello","state_name":"Arkansas","lat":33.6253,"lng":-91.78934,"zip":"71657","miles_from_dt":21.38},{"city":"Tichnor","state_name":"Arkansas","lat":34.04821,"lng":-91.23711,"zip":"72166","miles_from_dt":21.79},{"city":"Yorktown","state_name":"Arkansas","lat":34.0254,"lng":-91.81548,"zip":"71678","miles_from_dt":22.67},{"city":"Grady","state_name":"Arkansas","lat":34.11045,"lng":-91.71213,"zip":"71644","miles_from_dt":23.11},{"city":"Moscow","state_name":"Arkansas","lat":34.13505,"lng":-91.78071,"zip":"71659","miles_from_dt":26.71},{"city":"Benoit","state_name":"Mississippi","lat":33.63834,"lng":-91.05543,"zip":"38725","miles_from_dt":28.81},{"city":"Wilmar","state_name":"Arkansas","lat":33.60424,"lng":-91.93805,"zip":"71675","miles_from_dt":29.22},{"city":"Scott","state_name":"Mississippi","lat":33.56254,"lng":-91.08769,"zip":"38772","miles_from_dt":29.98}],"targetCityZipCode":"71662","targetCityState":"Arkansas"},"__N_SSG":true}