{"pageProps":{"stateName":"Arkansas","cityName":"sparkman","nearbyCities":[{"city":"Bearden","state_name":"Arkansas","lat":33.79075,"lng":-92.64163,"zip":"71720","miles_from_dt":12.49},{"city":"Leola","state_name":"Arkansas","lat":34.13687,"lng":-92.6887,"zip":"72084","miles_from_dt":17.11},{"city":"Gurdon","state_name":"Arkansas","lat":33.88674,"lng":-93.11724,"zip":"71743","miles_from_dt":17.93},{"city":"Carthage","state_name":"Arkansas","lat":34.03791,"lng":-92.53252,"zip":"71725","miles_from_dt":18.07},{"city":"Curtis","state_name":"Arkansas","lat":34.0089,"lng":-93.1053,"zip":"71728","miles_from_dt":18.5},{"city":"Arkadelphia","state_name":"Arkansas","lat":34.08424,"lng":-93.05551,"zip":"71923","miles_from_dt":18.72},{"city":"Whelen Springs","state_name":"Arkansas","lat":33.83379,"lng":-93.12646,"zip":"71772","miles_from_dt":19.11},{"city":"Chidester","state_name":"Arkansas","lat":33.68016,"lng":-92.99584,"zip":"71726","miles_from_dt":19.16},{"city":"Arkadelphia","state_name":"Arkansas","lat":34.12609,"lng":-93.05275,"zip":"71998","miles_from_dt":20.59},{"city":"Arkadelphia","state_name":"Arkansas","lat":34.12732,"lng":-93.05941,"zip":"71999","miles_from_dt":20.92},{"city":"Thornton","state_name":"Arkansas","lat":33.7362,"lng":-92.50205,"zip":"71766","miles_from_dt":21.17},{"city":"Fordyce","state_name":"Arkansas","lat":33.83435,"lng":-92.44545,"zip":"71742","miles_from_dt":21.38},{"city":"Ivan","state_name":"Arkansas","lat":33.90296,"lng":-92.43322,"zip":"71748","miles_from_dt":21.45},{"city":"Camden","state_name":"Arkansas","lat":33.58194,"lng":-92.83404,"zip":"71711","miles_from_dt":22.59},{"city":"Camden","state_name":"Arkansas","lat":33.57837,"lng":-92.81309,"zip":"71701","miles_from_dt":22.78},{"city":"Beirne","state_name":"Arkansas","lat":33.89091,"lng":-93.20635,"zip":"71721","miles_from_dt":23.01},{"city":"Friendship","state_name":"Arkansas","lat":34.22124,"lng":-92.99429,"zip":"71942","miles_from_dt":24.08},{"city":"Bluff City","state_name":"Arkansas","lat":33.71045,"lng":-93.15537,"zip":"71722","miles_from_dt":24.29},{"city":"Donaldson","state_name":"Arkansas","lat":34.2487,"lng":-92.95312,"zip":"71941","miles_from_dt":24.89},{"city":"Kingsland","state_name":"Arkansas","lat":33.89338,"lng":-92.31562,"zip":"71652","miles_from_dt":28.23},{"city":"Poyen","state_name":"Arkansas","lat":34.31535,"lng":-92.63846,"zip":"72128","miles_from_dt":29.63}],"targetCityZipCode":"71763","targetCityState":"Arkansas"},"__N_SSG":true}