{"pageProps":{"stateName":"Arkansas","cityName":"star-city","nearbyCities":[{"city":"Yorktown","state_name":"Arkansas","lat":34.0254,"lng":-91.81548,"zip":"71678","miles_from_dt":6.39},{"city":"Moscow","state_name":"Arkansas","lat":34.13505,"lng":-91.78071,"zip":"71659","miles_from_dt":14.2},{"city":"Grady","state_name":"Arkansas","lat":34.11045,"lng":-91.71213,"zip":"71644","miles_from_dt":14.22},{"city":"Gould","state_name":"Arkansas","lat":34.01953,"lng":-91.57945,"zip":"71643","miles_from_dt":16.25},{"city":"Rison","state_name":"Arkansas","lat":33.93812,"lng":-92.13163,"zip":"71665","miles_from_dt":16.52},{"city":"Pine Bluff","state_name":"Arkansas","lat":34.17409,"lng":-91.89811,"zip":"71601","miles_from_dt":16.71},{"city":"Dumas","state_name":"Arkansas","lat":33.89143,"lng":-91.54414,"zip":"71639","miles_from_dt":17.51},{"city":"Pine Bluff","state_name":"Arkansas","lat":34.20067,"lng":-91.93954,"zip":"71611","miles_from_dt":19.05},{"city":"Pine Bluff","state_name":"Arkansas","lat":34.12881,"lng":-92.08492,"zip":"71603","miles_from_dt":19.18},{"city":"Pine Bluff","state_name":"Arkansas","lat":34.1402,"lng":-92.10718,"zip":"71613","miles_from_dt":20.64},{"city":"Pickens","state_name":"Arkansas","lat":33.82355,"lng":-91.50391,"zip":"71662","miles_from_dt":21.03},{"city":"Monticello","state_name":"Arkansas","lat":33.63072,"lng":-91.79108,"zip":"71656","miles_from_dt":21.25},{"city":"Reydell","state_name":"Arkansas","lat":34.10821,"lng":-91.53718,"zip":"72133","miles_from_dt":21.25},{"city":"Monticello","state_name":"Arkansas","lat":33.6253,"lng":-91.78934,"zip":"71657","miles_from_dt":21.64},{"city":"Monticello","state_name":"Arkansas","lat":33.62874,"lng":-91.7486,"zip":"71655","miles_from_dt":21.87},{"city":"White Hall","state_name":"Arkansas","lat":34.22887,"lng":-92.00089,"zip":"71612","miles_from_dt":22.11},{"city":"Wilmar","state_name":"Arkansas","lat":33.60424,"lng":-91.93805,"zip":"71675","miles_from_dt":23.49},{"city":"New Edinburg","state_name":"Arkansas","lat":33.7627,"lng":-92.19728,"zip":"71660","miles_from_dt":23.56},{"city":"Winchester","state_name":"Arkansas","lat":33.76572,"lng":-91.4884,"zip":"71677","miles_from_dt":23.58},{"city":"Altheimer","state_name":"Arkansas","lat":34.29722,"lng":-91.7856,"zip":"72004","miles_from_dt":25.13},{"city":"Warren","state_name":"Arkansas","lat":33.60652,"lng":-92.10006,"zip":"71671","miles_from_dt":27.06},{"city":"Kingsland","state_name":"Arkansas","lat":33.89338,"lng":-92.31562,"zip":"71652","miles_from_dt":27.25},{"city":"Wabbaseka","state_name":"Arkansas","lat":34.33792,"lng":-91.75495,"zip":"72175","miles_from_dt":28.18},{"city":"Tillar","state_name":"Arkansas","lat":33.74439,"lng":-91.40974,"zip":"71670","miles_from_dt":28.25},{"city":"White Hall","state_name":"Arkansas","lat":34.27463,"lng":-92.13302,"zip":"71602","miles_from_dt":28.63},{"city":"Sherrill","state_name":"Arkansas","lat":34.35194,"lng":-91.98009,"zip":"72152","miles_from_dt":29.72},{"city":"Gillett","state_name":"Arkansas","lat":34.10391,"lng":-91.36196,"zip":"72055","miles_from_dt":30}],"targetCityZipCode":"71667","targetCityState":"Arkansas"},"__N_SSG":true}