{"pageProps":{"stateName":"Arkansas","cityName":"wabbaseka","nearbyCities":[{"city":"Altheimer","state_name":"Arkansas","lat":34.29722,"lng":-91.7856,"zip":"72004","miles_from_dt":3.31},{"city":"Humphrey","state_name":"Arkansas","lat":34.36529,"lng":-91.65251,"zip":"72073","miles_from_dt":6.15},{"city":"Humnoke","state_name":"Arkansas","lat":34.51279,"lng":-91.75802,"zip":"72072","miles_from_dt":12.05},{"city":"Sherrill","state_name":"Arkansas","lat":34.35194,"lng":-91.98009,"zip":"72152","miles_from_dt":12.91},{"city":"Tucker","state_name":"Arkansas","lat":34.43719,"lng":-91.96771,"zip":"72168","miles_from_dt":13.95},{"city":"Pine Bluff","state_name":"Arkansas","lat":34.17409,"lng":-91.89811,"zip":"71601","miles_from_dt":13.95},{"city":"Moscow","state_name":"Arkansas","lat":34.13505,"lng":-91.78071,"zip":"71659","miles_from_dt":14.06},{"city":"Pine Bluff","state_name":"Arkansas","lat":34.20067,"lng":-91.93954,"zip":"71611","miles_from_dt":14.18},{"city":"Stuttgart","state_name":"Arkansas","lat":34.44284,"lng":-91.53136,"zip":"72160","miles_from_dt":14.68},{"city":"Coy","state_name":"Arkansas","lat":34.53778,"lng":-91.8739,"zip":"72037","miles_from_dt":15.36},{"city":"Grady","state_name":"Arkansas","lat":34.11045,"lng":-91.71213,"zip":"71644","miles_from_dt":15.87},{"city":"White Hall","state_name":"Arkansas","lat":34.22887,"lng":-92.00089,"zip":"71612","miles_from_dt":15.95},{"city":"England","state_name":"Arkansas","lat":34.55542,"lng":-91.9403,"zip":"72046","miles_from_dt":18.35},{"city":"Wright","state_name":"Arkansas","lat":34.43161,"lng":-92.08721,"zip":"72182","miles_from_dt":20.06},{"city":"Almyra","state_name":"Arkansas","lat":34.38276,"lng":-91.40754,"zip":"72003","miles_from_dt":20.1},{"city":"Reydell","state_name":"Arkansas","lat":34.10821,"lng":-91.53718,"zip":"72133","miles_from_dt":20.15},{"city":"Yorktown","state_name":"Arkansas","lat":34.0254,"lng":-91.81548,"zip":"71678","miles_from_dt":21.82},{"city":"White Hall","state_name":"Arkansas","lat":34.27463,"lng":-92.13302,"zip":"71602","miles_from_dt":22.06},{"city":"Keo","state_name":"Arkansas","lat":34.6049,"lng":-92.01189,"zip":"72083","miles_from_dt":23.53},{"city":"Pine Bluff","state_name":"Arkansas","lat":34.12881,"lng":-92.08492,"zip":"71603","miles_from_dt":23.76},{"city":"Gould","state_name":"Arkansas","lat":34.01953,"lng":-91.57945,"zip":"71643","miles_from_dt":24.14},{"city":"Pine Bluff","state_name":"Arkansas","lat":34.1402,"lng":-92.10718,"zip":"71613","miles_from_dt":24.34},{"city":"Ulm","state_name":"Arkansas","lat":34.57819,"lng":-91.42655,"zip":"72170","miles_from_dt":25.02},{"city":"De Witt","state_name":"Arkansas","lat":34.26937,"lng":-91.31567,"zip":"72042","miles_from_dt":25.57},{"city":"Jefferson","state_name":"Arkansas","lat":34.38958,"lng":-92.19919,"zip":"72079","miles_from_dt":25.64},{"city":"Redfield","state_name":"Arkansas","lat":34.44,"lng":-92.19468,"zip":"72132","miles_from_dt":26.09},{"city":"Gillett","state_name":"Arkansas","lat":34.10391,"lng":-91.36196,"zip":"72055","miles_from_dt":27.68},{"city":"Casscoe","state_name":"Arkansas","lat":34.51397,"lng":-91.31687,"zip":"72026","miles_from_dt":27.81},{"city":"Star City","state_name":"Arkansas","lat":33.93588,"lng":-91.84412,"zip":"71667","miles_from_dt":28.18},{"city":"Carlisle","state_name":"Arkansas","lat":34.75168,"lng":-91.74902,"zip":"72024","miles_from_dt":28.52},{"city":"Roe","state_name":"Arkansas","lat":34.61189,"lng":-91.37247,"zip":"72134","miles_from_dt":28.87},{"city":"Woodson","state_name":"Arkansas","lat":34.53104,"lng":-92.21495,"zip":"72180","miles_from_dt":29.45},{"city":"Scott","state_name":"Arkansas","lat":34.67681,"lng":-92.07488,"zip":"72142","miles_from_dt":29.65}],"targetCityZipCode":"72175","targetCityState":"Arkansas"},"__N_SSG":true}