{"pageProps":{"stateName":"Arkansas","cityName":"washington","nearbyCities":[{"city":"Ozan","state_name":"Arkansas","lat":33.86612,"lng":-93.74351,"zip":"71855","miles_from_dt":6.85},{"city":"Columbus","state_name":"Arkansas","lat":33.7762,"lng":-93.85971,"zip":"71831","miles_from_dt":7.88},{"city":"Fulton","state_name":"Arkansas","lat":33.64916,"lng":-93.79753,"zip":"71838","miles_from_dt":9.25},{"city":"Hope","state_name":"Arkansas","lat":33.6661,"lng":-93.58733,"zip":"71802","miles_from_dt":10.52},{"city":"Blevins","state_name":"Arkansas","lat":33.87554,"lng":-93.56489,"zip":"71825","miles_from_dt":11.74},{"city":"Hope","state_name":"Arkansas","lat":33.63306,"lng":-93.59833,"zip":"71801","miles_from_dt":11.77},{"city":"McCaskill","state_name":"Arkansas","lat":33.92616,"lng":-93.63361,"zip":"71847","miles_from_dt":12.05},{"city":"Saratoga","state_name":"Arkansas","lat":33.7143,"lng":-93.92379,"zip":"71859","miles_from_dt":12.13},{"city":"Mineral Springs","state_name":"Arkansas","lat":33.85728,"lng":-93.94658,"zip":"71851","miles_from_dt":14.24},{"city":"Nashville","state_name":"Arkansas","lat":33.99489,"lng":-93.85831,"zip":"71852","miles_from_dt":17.45},{"city":"Emmet","state_name":"Arkansas","lat":33.66724,"lng":-93.4425,"zip":"71835","miles_from_dt":17.6},{"city":"Ogden","state_name":"Arkansas","lat":33.59442,"lng":-93.95635,"zip":"71853","miles_from_dt":17.99},{"city":"Delight","state_name":"Arkansas","lat":34.01527,"lng":-93.50705,"zip":"71940","miles_from_dt":21.08},{"city":"Prescott","state_name":"Arkansas","lat":33.80422,"lng":-93.34795,"zip":"71857","miles_from_dt":21.74},{"city":"Ben Lomond","state_name":"Arkansas","lat":33.83101,"lng":-94.12547,"zip":"71823","miles_from_dt":23.55},{"city":"Murfreesboro","state_name":"Arkansas","lat":34.1114,"lng":-93.6556,"zip":"71958","miles_from_dt":23.98},{"city":"Wilton","state_name":"Arkansas","lat":33.74169,"lng":-94.14598,"zip":"71865","miles_from_dt":24.41},{"city":"Texarkana","state_name":"Arkansas","lat":33.44445,"lng":-93.90504,"zip":"71854","miles_from_dt":24.65},{"city":"Antoine","state_name":"Arkansas","lat":34.02444,"lng":-93.41943,"zip":"71922","miles_from_dt":24.84},{"city":"Ashdown","state_name":"Arkansas","lat":33.66946,"lng":-94.14755,"zip":"71822","miles_from_dt":25.37},{"city":"Lockesburg","state_name":"Arkansas","lat":33.9265,"lng":-94.12367,"zip":"71846","miles_from_dt":25.49},{"city":"Cale","state_name":"Arkansas","lat":33.62514,"lng":-93.26065,"zip":"71828","miles_from_dt":28.41},{"city":"Genoa","state_name":"Arkansas","lat":33.38378,"lng":-93.90896,"zip":"71840","miles_from_dt":28.58},{"city":"Okolona","state_name":"Arkansas","lat":34.03756,"lng":-93.33288,"zip":"71962","miles_from_dt":29.12},{"city":"Rosston","state_name":"Arkansas","lat":33.58543,"lng":-93.26706,"zip":"71858","miles_from_dt":29.14},{"city":"Texarkana","state_name":"Texas","lat":33.51345,"lng":-94.13038,"zip":"75503","miles_from_dt":29.31}],"targetCityZipCode":"71862","targetCityState":"Arkansas"},"__N_SSG":true}