{"pageProps":{"stateName":"Arkansas","cityName":"widener","nearbyCities":[{"city":"Madison","state_name":"Arkansas","lat":35.01422,"lng":-90.7239,"zip":"72359","miles_from_dt":6.67},{"city":"Heth","state_name":"Arkansas","lat":35.08462,"lng":-90.48198,"zip":"72346","miles_from_dt":7.91},{"city":"Forrest City","state_name":"Arkansas","lat":34.99042,"lng":-90.75645,"zip":"72335","miles_from_dt":9.05},{"city":"Forrest City","state_name":"Arkansas","lat":35.01316,"lng":-90.78545,"zip":"72336","miles_from_dt":9.99},{"city":"Caldwell","state_name":"Arkansas","lat":35.0688,"lng":-90.808,"zip":"72322","miles_from_dt":10.94},{"city":"Hughes","state_name":"Arkansas","lat":34.93739,"lng":-90.42016,"zip":"72348","miles_from_dt":13.66},{"city":"Haynes","state_name":"Arkansas","lat":34.88746,"lng":-90.7705,"zip":"72341","miles_from_dt":14.37},{"city":"Colt","state_name":"Arkansas","lat":35.11183,"lng":-90.89333,"zip":"72326","miles_from_dt":16.24},{"city":"Parkin","state_name":"Arkansas","lat":35.28861,"lng":-90.60269,"zip":"72373","miles_from_dt":16.28},{"city":"Brickeys","state_name":"Arkansas","lat":34.81439,"lng":-90.5411,"zip":"72320","miles_from_dt":16.97},{"city":"Wynne","state_name":"Arkansas","lat":35.22966,"lng":-90.83559,"zip":"72396","miles_from_dt":17.42},{"city":"Proctor","state_name":"Arkansas","lat":35.0883,"lng":-90.30625,"zip":"72376","miles_from_dt":17.73},{"city":"Edmondson","state_name":"Arkansas","lat":35.10117,"lng":-90.30238,"zip":"72332","miles_from_dt":18.08},{"city":"Earle","state_name":"Arkansas","lat":35.28537,"lng":-90.46733,"zip":"72331","miles_from_dt":18.11},{"city":"Palestine","state_name":"Arkansas","lat":34.96623,"lng":-90.94726,"zip":"72372","miles_from_dt":19.71},{"city":"Vanndale","state_name":"Arkansas","lat":35.31572,"lng":-90.77274,"zip":"72387","miles_from_dt":20.19},{"city":"Crawfordsville","state_name":"Arkansas","lat":35.2401,"lng":-90.32783,"zip":"72327","miles_from_dt":20.81},{"city":"Marianna","state_name":"Arkansas","lat":34.75352,"lng":-90.78875,"zip":"72360","miles_from_dt":22.84},{"city":"Robinsonville","state_name":"Mississippi","lat":34.80434,"lng":-90.33217,"zip":"38664","miles_from_dt":23.51},{"city":"Goodwin","state_name":"Arkansas","lat":34.95687,"lng":-91.03202,"zip":"72340","miles_from_dt":24.5},{"city":"Cherry Valley","state_name":"Arkansas","lat":35.38872,"lng":-90.78116,"zip":"72324","miles_from_dt":24.98},{"city":"West Memphis","state_name":"Arkansas","lat":35.14701,"lng":-90.18592,"zip":"72303","miles_from_dt":25.22},{"city":"West Memphis","state_name":"Arkansas","lat":35.13363,"lng":-90.17883,"zip":"72301","miles_from_dt":25.39},{"city":"Lake Cormorant","state_name":"Mississippi","lat":34.90616,"lng":-90.1857,"zip":"38641","miles_from_dt":26.42},{"city":"Marion","state_name":"Arkansas","lat":35.2126,"lng":-90.18573,"zip":"72364","miles_from_dt":26.74},{"city":"Walls","state_name":"Mississippi","lat":34.95664,"lng":-90.15204,"zip":"38686","miles_from_dt":27.14},{"city":"Memphis","state_name":"Tennessee","lat":35.0341,"lng":-90.13533,"zip":"38109","miles_from_dt":27.28},{"city":"Walls","state_name":"Mississippi","lat":34.96152,"lng":-90.14463,"zip":"38680","miles_from_dt":27.46},{"city":"Memphis","state_name":"Tennessee","lat":35.10198,"lng":-90.13285,"zip":"38113","miles_from_dt":27.59},{"city":"Hunter","state_name":"Arkansas","lat":35.06919,"lng":-91.10538,"zip":"72074","miles_from_dt":27.76},{"city":"Aubrey","state_name":"Arkansas","lat":34.72072,"lng":-90.89688,"zip":"72311","miles_from_dt":27.9},{"city":"Wheatley","state_name":"Arkansas","lat":34.95551,"lng":-91.09466,"zip":"72392","miles_from_dt":27.97},{"city":"Clarkedale","state_name":"Arkansas","lat":35.33067,"lng":-90.25395,"zip":"72325","miles_from_dt":28.05},{"city":"La Grange","state_name":"Arkansas","lat":34.65562,"lng":-90.7344,"zip":"72352","miles_from_dt":28.19},{"city":"Moro","state_name":"Arkansas","lat":34.81146,"lng":-91.01996,"zip":"72368","miles_from_dt":28.33},{"city":"Tunica","state_name":"Mississippi","lat":34.67274,"lng":-90.3682,"zip":"38676","miles_from_dt":29.74}],"targetCityZipCode":"72394","targetCityState":"Arkansas"},"__N_SSG":true}