{"pageProps":{"stateName":"Arkansas","cityName":"willisville","nearbyCities":[{"city":"Rosston","state_name":"Arkansas","lat":33.58543,"lng":-93.26706,"zip":"71858","miles_from_dt":5.35},{"city":"Cale","state_name":"Arkansas","lat":33.62514,"lng":-93.26065,"zip":"71828","miles_from_dt":8.1},{"city":"Waldo","state_name":"Arkansas","lat":33.38847,"lng":-93.31607,"zip":"71770","miles_from_dt":8.52},{"city":"McNeil","state_name":"Arkansas","lat":33.40061,"lng":-93.19454,"zip":"71752","miles_from_dt":9.29},{"city":"Buckner","state_name":"Arkansas","lat":33.41186,"lng":-93.41463,"zip":"71827","miles_from_dt":9.93},{"city":"Emmet","state_name":"Arkansas","lat":33.66724,"lng":-93.4425,"zip":"71835","miles_from_dt":14.01},{"city":"Stephens","state_name":"Arkansas","lat":33.43041,"lng":-93.04475,"zip":"71764","miles_from_dt":15.12},{"city":"Bluff City","state_name":"Arkansas","lat":33.71045,"lng":-93.15537,"zip":"71722","miles_from_dt":15.81},{"city":"Magnolia","state_name":"Arkansas","lat":33.26742,"lng":-93.23923,"zip":"71754","miles_from_dt":16.96},{"city":"Stamps","state_name":"Arkansas","lat":33.307,"lng":-93.49286,"zip":"71860","miles_from_dt":18.3},{"city":"Hope","state_name":"Arkansas","lat":33.63306,"lng":-93.59833,"zip":"71801","miles_from_dt":19.78},{"city":"Magnolia","state_name":"Arkansas","lat":33.22974,"lng":-93.18461,"zip":"71753","miles_from_dt":20.23},{"city":"Hope","state_name":"Arkansas","lat":33.6661,"lng":-93.58733,"zip":"71802","miles_from_dt":20.31},{"city":"Chidester","state_name":"Arkansas","lat":33.68016,"lng":-92.99584,"zip":"71726","miles_from_dt":20.56},{"city":"Prescott","state_name":"Arkansas","lat":33.80422,"lng":-93.34795,"zip":"71857","miles_from_dt":20.57},{"city":"Lewisville","state_name":"Arkansas","lat":33.32005,"lng":-93.63365,"zip":"71845","miles_from_dt":23.85},{"city":"Whelen Springs","state_name":"Arkansas","lat":33.83379,"lng":-93.12646,"zip":"71772","miles_from_dt":24.2},{"city":"Mount Holly","state_name":"Arkansas","lat":33.30899,"lng":-92.91435,"zip":"71758","miles_from_dt":25.69},{"city":"Beirne","state_name":"Arkansas","lat":33.89091,"lng":-93.20635,"zip":"71721","miles_from_dt":26.68},{"city":"Camden","state_name":"Arkansas","lat":33.58194,"lng":-92.83404,"zip":"71711","miles_from_dt":26.7},{"city":"Gurdon","state_name":"Arkansas","lat":33.88674,"lng":-93.11724,"zip":"71743","miles_from_dt":27.78},{"city":"Camden","state_name":"Arkansas","lat":33.57837,"lng":-92.81309,"zip":"71701","miles_from_dt":27.85},{"city":"Garland City","state_name":"Arkansas","lat":33.30619,"lng":-93.73891,"zip":"71839","miles_from_dt":29.57},{"city":"Blevins","state_name":"Arkansas","lat":33.87554,"lng":-93.56489,"zip":"71825","miles_from_dt":29.8}],"targetCityZipCode":"71864","targetCityState":"Arkansas"},"__N_SSG":true}