{"pageProps":{"stateName":"Arkansas","cityName":"ashdown","nearbyCities":[{"city":"Wilton","state_name":"Arkansas","lat":33.74169,"lng":-94.14598,"zip":"71865","miles_from_dt":4.98},{"city":"Alleene","state_name":"Arkansas","lat":33.78886,"lng":-94.24421,"zip":"71820","miles_from_dt":9.93},{"city":"Texarkana","state_name":"Texas","lat":33.51345,"lng":-94.13038,"zip":"75503","miles_from_dt":10.8},{"city":"Ben Lomond","state_name":"Arkansas","lat":33.83101,"lng":-94.12547,"zip":"71823","miles_from_dt":11.21},{"city":"Ogden","state_name":"Arkansas","lat":33.59442,"lng":-93.95635,"zip":"71853","miles_from_dt":12.18},{"city":"Hooks","state_name":"Texas","lat":33.517,"lng":-94.27855,"zip":"75561","miles_from_dt":12.94},{"city":"Saratoga","state_name":"Arkansas","lat":33.7143,"lng":-93.92379,"zip":"71859","miles_from_dt":13.26},{"city":"Foreman","state_name":"Arkansas","lat":33.71297,"lng":-94.39584,"zip":"71836","miles_from_dt":14.62},{"city":"Nash","state_name":"Texas","lat":33.44127,"lng":-94.12292,"zip":"75569","miles_from_dt":15.79},{"city":"Texarkana","state_name":"Texas","lat":33.44713,"lng":-94.07752,"zip":"75599","miles_from_dt":15.85},{"city":"Mineral Springs","state_name":"Arkansas","lat":33.85728,"lng":-93.94658,"zip":"71851","miles_from_dt":17.36},{"city":"Lockesburg","state_name":"Arkansas","lat":33.9265,"lng":-94.12367,"zip":"71846","miles_from_dt":17.77},{"city":"Horatio","state_name":"Arkansas","lat":33.90051,"lng":-94.29297,"zip":"71842","miles_from_dt":17.99},{"city":"Columbus","state_name":"Arkansas","lat":33.7762,"lng":-93.85971,"zip":"71831","miles_from_dt":18.14},{"city":"Winthrop","state_name":"Arkansas","lat":33.86738,"lng":-94.38042,"zip":"71866","miles_from_dt":19.12},{"city":"Texarkana","state_name":"Texas","lat":33.39638,"lng":-94.25052,"zip":"75505","miles_from_dt":19.74},{"city":"Fulton","state_name":"Arkansas","lat":33.64916,"lng":-93.79753,"zip":"71838","miles_from_dt":20.22},{"city":"Texarkana","state_name":"Texas","lat":33.37413,"lng":-94.13168,"zip":"75501","miles_from_dt":20.37},{"city":"Texarkana","state_name":"Arkansas","lat":33.44445,"lng":-93.90504,"zip":"71854","miles_from_dt":20.89},{"city":"New Boston","state_name":"Texas","lat":33.4649,"lng":-94.4389,"zip":"75570","miles_from_dt":21.94},{"city":"Texarkana","state_name":"Texas","lat":33.35468,"lng":-94.21932,"zip":"75507","miles_from_dt":22.09},{"city":"Texarkana","state_name":"Texas","lat":33.35273,"lng":-94.21872,"zip":"75504","miles_from_dt":22.21},{"city":"Redwater","state_name":"Texas","lat":33.34214,"lng":-94.22454,"zip":"75573","miles_from_dt":22.99},{"city":"Genoa","state_name":"Arkansas","lat":33.38378,"lng":-93.90896,"zip":"71840","miles_from_dt":24.03},{"city":"Washington","state_name":"Arkansas","lat":33.76814,"lng":-93.72321,"zip":"71862","miles_from_dt":25.37},{"city":"Maud","state_name":"Texas","lat":33.31688,"lng":-94.31935,"zip":"75567","miles_from_dt":26.25},{"city":"Ozan","state_name":"Arkansas","lat":33.86612,"lng":-93.74351,"zip":"71855","miles_from_dt":26.92},{"city":"Haworth","state_name":"Oklahoma","lat":33.7938,"lng":-94.59614,"zip":"74740","miles_from_dt":27.22},{"city":"Nashville","state_name":"Arkansas","lat":33.99489,"lng":-93.85831,"zip":"71852","miles_from_dt":27.93},{"city":"De Queen","state_name":"Arkansas","lat":34.0397,"lng":-94.34791,"zip":"71832","miles_from_dt":28}],"targetCityZipCode":"71822","targetCityState":"Arkansas"},"__N_SSG":true}