{"pageProps":{"stateName":"Arkansas","cityName":"curtis","nearbyCities":[{"city":"Arkadelphia","state_name":"Arkansas","lat":34.08424,"lng":-93.05551,"zip":"71923","miles_from_dt":5.93},{"city":"Gurdon","state_name":"Arkansas","lat":33.88674,"lng":-93.11724,"zip":"71743","miles_from_dt":8.45},{"city":"Arkadelphia","state_name":"Arkansas","lat":34.12732,"lng":-93.05941,"zip":"71999","miles_from_dt":8.58},{"city":"Arkadelphia","state_name":"Arkansas","lat":34.12609,"lng":-93.05275,"zip":"71998","miles_from_dt":8.62},{"city":"Beirne","state_name":"Arkansas","lat":33.89091,"lng":-93.20635,"zip":"71721","miles_from_dt":9.99},{"city":"Whelen Springs","state_name":"Arkansas","lat":33.83379,"lng":-93.12646,"zip":"71772","miles_from_dt":12.13},{"city":"Okolona","state_name":"Arkansas","lat":34.03756,"lng":-93.33288,"zip":"71962","miles_from_dt":13.21},{"city":"Friendship","state_name":"Arkansas","lat":34.22124,"lng":-92.99429,"zip":"71942","miles_from_dt":15.96},{"city":"Antoine","state_name":"Arkansas","lat":34.02444,"lng":-93.41943,"zip":"71922","miles_from_dt":18.06},{"city":"Sparkman","state_name":"Arkansas","lat":33.90885,"lng":-92.80648,"zip":"71763","miles_from_dt":18.5},{"city":"Donaldson","state_name":"Arkansas","lat":34.2487,"lng":-92.95312,"zip":"71941","miles_from_dt":18.69},{"city":"Prescott","state_name":"Arkansas","lat":33.80422,"lng":-93.34795,"zip":"71857","miles_from_dt":19.84},{"city":"Bismarck","state_name":"Arkansas","lat":34.30527,"lng":-93.1553,"zip":"71929","miles_from_dt":20.63},{"city":"Bluff City","state_name":"Arkansas","lat":33.71045,"lng":-93.15537,"zip":"71722","miles_from_dt":20.77},{"city":"Delight","state_name":"Arkansas","lat":34.01527,"lng":-93.50705,"zip":"71940","miles_from_dt":23.06},{"city":"Chidester","state_name":"Arkansas","lat":33.68016,"lng":-92.99584,"zip":"71726","miles_from_dt":23.52},{"city":"Amity","state_name":"Arkansas","lat":34.25435,"lng":-93.40109,"zip":"71921","miles_from_dt":23.95},{"city":"Leola","state_name":"Arkansas","lat":34.13687,"lng":-92.6887,"zip":"72084","miles_from_dt":25.47},{"city":"Alpine","state_name":"Arkansas","lat":34.26472,"lng":-93.46083,"zip":"71920","miles_from_dt":26.95},{"city":"Cale","state_name":"Arkansas","lat":33.62514,"lng":-93.26065,"zip":"71828","miles_from_dt":27.92},{"city":"Blevins","state_name":"Arkansas","lat":33.87554,"lng":-93.56489,"zip":"71825","miles_from_dt":27.96},{"city":"Malvern","state_name":"Arkansas","lat":34.34774,"lng":-92.81814,"zip":"72104","miles_from_dt":28.57},{"city":"Pearcy","state_name":"Arkansas","lat":34.42252,"lng":-93.24451,"zip":"71964","miles_from_dt":29.6}],"targetCityZipCode":"71728","targetCityState":"Arkansas"},"__N_SSG":true}