{"pageProps":{"stateName":"Arkansas","cityName":"green-forest","nearbyCities":[{"city":"Alpena","state_name":"Arkansas","lat":36.24532,"lng":-93.32705,"zip":"72611","miles_from_dt":6.98},{"city":"Berryville","state_name":"Arkansas","lat":36.35047,"lng":-93.55736,"zip":"72616","miles_from_dt":8.69},{"city":"Oak Grove","state_name":"Arkansas","lat":36.48115,"lng":-93.37454,"zip":"72660","miles_from_dt":10.93},{"city":"Beaver","state_name":"Arkansas","lat":36.38642,"lng":-93.61763,"zip":"72613","miles_from_dt":12.61},{"city":"Omaha","state_name":"Arkansas","lat":36.43184,"lng":-93.18297,"zip":"72662","miles_from_dt":14.42},{"city":"Blue Eye","state_name":"Missouri","lat":36.54339,"lng":-93.36127,"zip":"65611","miles_from_dt":15.29},{"city":"Ridgedale","state_name":"Missouri","lat":36.51925,"lng":-93.26864,"zip":"65739","miles_from_dt":15.43},{"city":"Lampe","state_name":"Missouri","lat":36.55211,"lng":-93.46658,"zip":"65681","miles_from_dt":16.07},{"city":"Compton","state_name":"Arkansas","lat":36.08208,"lng":-93.35655,"zip":"72624","miles_from_dt":16.93},{"city":"Harrison","state_name":"Arkansas","lat":36.22696,"lng":-93.11509,"zip":"72602","miles_from_dt":17.53},{"city":"Harrison","state_name":"Arkansas","lat":36.23669,"lng":-93.09181,"zip":"72601","miles_from_dt":18.5},{"city":"Eureka Springs","state_name":"Arkansas","lat":36.37248,"lng":-93.74355,"zip":"72632","miles_from_dt":19.17},{"city":"Hollister","state_name":"Missouri","lat":36.56446,"lng":-93.21351,"zip":"65672","miles_from_dt":19.69},{"city":"Golden","state_name":"Missouri","lat":36.5426,"lng":-93.63984,"zip":"65658","miles_from_dt":19.94},{"city":"Kimberling City","state_name":"Missouri","lat":36.62275,"lng":-93.43625,"zip":"65686","miles_from_dt":20.64},{"city":"Huntsville","state_name":"Arkansas","lat":36.10889,"lng":-93.67599,"zip":"72740","miles_from_dt":21.22},{"city":"Shell Knob","state_name":"Missouri","lat":36.60248,"lng":-93.57971,"zip":"65747","miles_from_dt":21.5},{"city":"Bergman","state_name":"Arkansas","lat":36.31532,"lng":-93.01207,"zip":"72615","miles_from_dt":21.93},{"city":"Point Lookout","state_name":"Missouri","lat":36.61947,"lng":-93.2427,"zip":"65726","miles_from_dt":22.26},{"city":"Marble Falls","state_name":"Arkansas","lat":36.07516,"lng":-93.14399,"zip":"72648","miles_from_dt":22.54},{"city":"Hollister","state_name":"Missouri","lat":36.6192,"lng":-93.2177,"zip":"65673","miles_from_dt":22.84},{"city":"Eureka Springs","state_name":"Arkansas","lat":36.45146,"lng":-93.79131,"zip":"72631","miles_from_dt":23.25},{"city":"Ponca","state_name":"Arkansas","lat":35.98726,"lng":-93.37775,"zip":"72670","miles_from_dt":23.3},{"city":"Kingston","state_name":"Arkansas","lat":35.98159,"lng":-93.49528,"zip":"72742","miles_from_dt":24.18},{"city":"Kirbyville","state_name":"Missouri","lat":36.57738,"lng":-93.10407,"zip":"65679","miles_from_dt":24.19},{"city":"Branson","state_name":"Missouri","lat":36.64214,"lng":-93.21688,"zip":"65615","miles_from_dt":24.28},{"city":"Eagle Rock","state_name":"Missouri","lat":36.5481,"lng":-93.76198,"zip":"65641","miles_from_dt":25.17},{"city":"Lead Hill","state_name":"Arkansas","lat":36.42477,"lng":-92.96673,"zip":"72644","miles_from_dt":25.39},{"city":"Jasper","state_name":"Arkansas","lat":35.98829,"lng":-93.21978,"zip":"72641","miles_from_dt":25.39},{"city":"Branson","state_name":"Missouri","lat":36.67133,"lng":-93.24887,"zip":"65616","miles_from_dt":25.44},{"city":"Parthenon","state_name":"Arkansas","lat":35.94876,"lng":-93.28706,"zip":"72666","miles_from_dt":26.73},{"city":"Reeds Spring","state_name":"Missouri","lat":36.7146,"lng":-93.35796,"zip":"65737","miles_from_dt":27.03},{"city":"Cedarcreek","state_name":"Missouri","lat":36.56247,"lng":-93.00613,"zip":"65627","miles_from_dt":27.62},{"city":"Powersite","state_name":"Missouri","lat":36.65458,"lng":-93.12222,"zip":"65731","miles_from_dt":27.67},{"city":"Diamond City","state_name":"Arkansas","lat":36.45856,"lng":-92.92032,"zip":"72630","miles_from_dt":28.55},{"city":"Hindsville","state_name":"Arkansas","lat":36.16258,"lng":-93.885,"zip":"72738","miles_from_dt":29.04},{"city":"Cape Fair","state_name":"Missouri","lat":36.73276,"lng":-93.56241,"zip":"65624","miles_from_dt":29.48},{"city":"Hasty","state_name":"Arkansas","lat":36.00708,"lng":-93.05061,"zip":"72640","miles_from_dt":29.52}],"targetCityZipCode":"72638","targetCityState":"Arkansas"},"__N_SSG":true}