{"pageProps":{"stateName":"Arkansas","cityName":"harriet","nearbyCities":[{"city":"Big Flat","state_name":"Arkansas","lat":36.0208,"lng":-92.36566,"zip":"72617","miles_from_dt":6.93},{"city":"Onia","state_name":"Arkansas","lat":35.93617,"lng":-92.33192,"zip":"72663","miles_from_dt":10.53},{"city":"Gilbert","state_name":"Arkansas","lat":35.99121,"lng":-92.71651,"zip":"72636","miles_from_dt":12.87},{"city":"Timbo","state_name":"Arkansas","lat":35.88286,"lng":-92.32986,"zip":"72680","miles_from_dt":12.99},{"city":"Norfork","state_name":"Arkansas","lat":36.15468,"lng":-92.32301,"zip":"72658","miles_from_dt":13.17},{"city":"Fifty Six","state_name":"Arkansas","lat":35.97921,"lng":-92.24513,"zip":"72533","miles_from_dt":13.96},{"city":"Marshall","state_name":"Arkansas","lat":35.87938,"lng":-92.69308,"zip":"72650","miles_from_dt":14.96},{"city":"Flippin","state_name":"Arkansas","lat":36.23693,"lng":-92.54891,"zip":"72634","miles_from_dt":15.36},{"city":"Leslie","state_name":"Arkansas","lat":35.80249,"lng":-92.55778,"zip":"72645","miles_from_dt":15.44},{"city":"Valley Springs","state_name":"Arkansas","lat":36.13405,"lng":-92.72911,"zip":"72682","miles_from_dt":15.57},{"city":"Timbo","state_name":"Arkansas","lat":35.8948,"lng":-92.2469,"zip":"72657","miles_from_dt":16.08},{"city":"Saint Joe","state_name":"Arkansas","lat":36.00711,"lng":-92.79283,"zip":"72675","miles_from_dt":17.02},{"city":"Norfork","state_name":"Arkansas","lat":36.20703,"lng":-92.28293,"zip":"72659","miles_from_dt":17.34},{"city":"Fox","state_name":"Arkansas","lat":35.79475,"lng":-92.31501,"zip":"72051","miles_from_dt":18.32},{"city":"Calico Rock","state_name":"Arkansas","lat":36.11876,"lng":-92.17802,"zip":"72519","miles_from_dt":18.72},{"city":"Yellville","state_name":"Arkansas","lat":36.25628,"lng":-92.68679,"zip":"72687","miles_from_dt":19.71},{"city":"Cotter","state_name":"Arkansas","lat":36.30451,"lng":-92.53994,"zip":"72626","miles_from_dt":19.85},{"city":"Dennard","state_name":"Arkansas","lat":35.73615,"lng":-92.56625,"zip":"72629","miles_from_dt":20},{"city":"Gassville","state_name":"Arkansas","lat":36.31637,"lng":-92.48484,"zip":"72635","miles_from_dt":20.47},{"city":"Summit","state_name":"Arkansas","lat":36.26442,"lng":-92.70074,"zip":"72677","miles_from_dt":20.61},{"city":"Pindall","state_name":"Arkansas","lat":36.06477,"lng":-92.87359,"zip":"72669","miles_from_dt":21.74},{"city":"Mountain Home","state_name":"Arkansas","lat":36.33653,"lng":-92.38453,"zip":"72654","miles_from_dt":22.63},{"city":"Mountain Home","state_name":"Arkansas","lat":36.34292,"lng":-92.38603,"zip":"72653","miles_from_dt":23.04},{"city":"Everton","state_name":"Arkansas","lat":36.14023,"lng":-92.87572,"zip":"72633","miles_from_dt":23.17},{"city":"Lakeview","state_name":"Arkansas","lat":36.37013,"lng":-92.54347,"zip":"72642","miles_from_dt":24.37},{"city":"Bull Shoals","state_name":"Arkansas","lat":36.3781,"lng":-92.58517,"zip":"72619","miles_from_dt":25.3},{"city":"Midway","state_name":"Arkansas","lat":36.388,"lng":-92.47661,"zip":"72651","miles_from_dt":25.42},{"city":"Dolph","state_name":"Arkansas","lat":36.23816,"lng":-92.115,"zip":"72528","miles_from_dt":25.8},{"city":"Mountain View","state_name":"Arkansas","lat":35.84023,"lng":-92.08032,"zip":"72560","miles_from_dt":26.05},{"city":"Tilly","state_name":"Arkansas","lat":35.73555,"lng":-92.80206,"zip":"72679","miles_from_dt":26.29},{"city":"Pyatt","state_name":"Arkansas","lat":36.27725,"lng":-92.83685,"zip":"72672","miles_from_dt":26.33},{"city":"Shirley","state_name":"Arkansas","lat":35.65651,"lng":-92.31988,"zip":"72153","miles_from_dt":26.77},{"city":"Pineville","state_name":"Arkansas","lat":36.20792,"lng":-92.06468,"zip":"72566","miles_from_dt":27.08},{"city":"Western Grove","state_name":"Arkansas","lat":36.05539,"lng":-92.98194,"zip":"72685","miles_from_dt":27.69},{"city":"Elizabeth","state_name":"Arkansas","lat":36.32052,"lng":-92.15121,"zip":"72531","miles_from_dt":28.08},{"city":"Clinton","state_name":"Arkansas","lat":35.60717,"lng":-92.52904,"zip":"72031","miles_from_dt":28.51},{"city":"Wideman","state_name":"Arkansas","lat":36.17861,"lng":-92.01454,"zip":"72585","miles_from_dt":28.75},{"city":"Melbourne","state_name":"Arkansas","lat":36.02472,"lng":-91.95831,"zip":"72556","miles_from_dt":29.75},{"city":"Edgemont","state_name":"Arkansas","lat":35.67688,"lng":-92.16243,"zip":"72044","miles_from_dt":29.91},{"city":"Bexar","state_name":"Arkansas","lat":36.27634,"lng":-92.05644,"zip":"72515","miles_from_dt":30}],"targetCityZipCode":"72639","targetCityState":"Arkansas"},"__N_SSG":true}