{"pageProps":{"stateName":"Arkansas","cityName":"hindsville","nearbyCities":[{"city":"Goshen","state_name":"Arkansas","lat":36.10018,"lng":-93.9891,"zip":"72735","miles_from_dt":7.24},{"city":"Springdale","state_name":"Arkansas","lat":36.17746,"lng":-94.051,"zip":"72764","miles_from_dt":9.34},{"city":"Fayetteville","state_name":"Arkansas","lat":36.1155,"lng":-94.04897,"zip":"72703","miles_from_dt":9.73},{"city":"Wesley","state_name":"Arkansas","lat":36.01409,"lng":-93.84723,"zip":"72773","miles_from_dt":10.45},{"city":"Huntsville","state_name":"Arkansas","lat":36.10889,"lng":-93.67599,"zip":"72740","miles_from_dt":12.26},{"city":"Springdale","state_name":"Arkansas","lat":36.19589,"lng":-94.1028,"zip":"72765","miles_from_dt":12.39},{"city":"Rogers","state_name":"Arkansas","lat":36.32214,"lng":-93.9922,"zip":"72756","miles_from_dt":12.53},{"city":"Lowell","state_name":"Arkansas","lat":36.2477,"lng":-94.10046,"zip":"72745","miles_from_dt":13.39},{"city":"Springdale","state_name":"Arkansas","lat":36.18536,"lng":-94.13066,"zip":"72766","miles_from_dt":13.82},{"city":"Johnson","state_name":"Arkansas","lat":36.12914,"lng":-94.16412,"zip":"72741","miles_from_dt":15.78},{"city":"Avoca","state_name":"Arkansas","lat":36.3554,"lng":-94.04495,"zip":"72711","miles_from_dt":16.02},{"city":"Fayetteville","state_name":"Arkansas","lat":35.9873,"lng":-94.08179,"zip":"72701","miles_from_dt":16.35},{"city":"Eureka Springs","state_name":"Arkansas","lat":36.37248,"lng":-93.74355,"zip":"72632","miles_from_dt":16.49},{"city":"Fayetteville","state_name":"Arkansas","lat":36.06307,"lng":-94.16246,"zip":"72702","miles_from_dt":16.97},{"city":"Rogers","state_name":"Arkansas","lat":36.29898,"lng":-94.14099,"zip":"72758","miles_from_dt":17.12},{"city":"Elkins","state_name":"Arkansas","lat":35.91456,"lng":-93.92612,"zip":"72727","miles_from_dt":17.25},{"city":"Rogers","state_name":"Arkansas","lat":36.33365,"lng":-94.12731,"zip":"72757","miles_from_dt":17.95},{"city":"Garfield","state_name":"Arkansas","lat":36.43187,"lng":-93.95968,"zip":"72732","miles_from_dt":19.03},{"city":"Tontitown","state_name":"Arkansas","lat":36.18797,"lng":-94.22779,"zip":"72770","miles_from_dt":19.24},{"city":"Springdale","state_name":"Arkansas","lat":36.18747,"lng":-94.22794,"zip":"72762","miles_from_dt":19.25},{"city":"Elm Springs","state_name":"Arkansas","lat":36.20539,"lng":-94.23169,"zip":"72728","miles_from_dt":19.6},{"city":"Bentonville","state_name":"Arkansas","lat":36.32258,"lng":-94.18085,"zip":"72716","miles_from_dt":19.87},{"city":"Greenland","state_name":"Arkansas","lat":35.99447,"lng":-94.17441,"zip":"72737","miles_from_dt":19.92},{"city":"Cave Springs","state_name":"Arkansas","lat":36.26347,"lng":-94.22147,"zip":"72718","miles_from_dt":20.05},{"city":"Eureka Springs","state_name":"Arkansas","lat":36.45146,"lng":-93.79131,"zip":"72631","miles_from_dt":20.59},{"city":"Witter","state_name":"Arkansas","lat":35.90913,"lng":-93.67307,"zip":"72776","miles_from_dt":21.12},{"city":"Beaver","state_name":"Arkansas","lat":36.38642,"lng":-93.61763,"zip":"72613","miles_from_dt":21.47},{"city":"Gateway","state_name":"Arkansas","lat":36.47989,"lng":-93.91902,"zip":"72733","miles_from_dt":21.96},{"city":"Berryville","state_name":"Arkansas","lat":36.35047,"lng":-93.55736,"zip":"72616","miles_from_dt":22.42},{"city":"Farmington","state_name":"Arkansas","lat":36.03057,"lng":-94.26588,"zip":"72730","miles_from_dt":23.17},{"city":"Fayetteville","state_name":"Arkansas","lat":36.10475,"lng":-94.29539,"zip":"72704","miles_from_dt":23.3},{"city":"Bentonville","state_name":"Arkansas","lat":36.30036,"lng":-94.28372,"zip":"72713","miles_from_dt":24.21},{"city":"Pea Ridge","state_name":"Arkansas","lat":36.46255,"lng":-94.11825,"zip":"72751","miles_from_dt":24.44},{"city":"Bentonville","state_name":"Arkansas","lat":36.39837,"lng":-94.22196,"zip":"72712","miles_from_dt":24.86},{"city":"Kingston","state_name":"Arkansas","lat":35.98159,"lng":-93.49528,"zip":"72742","miles_from_dt":25.13},{"city":"Saint Paul","state_name":"Arkansas","lat":35.82898,"lng":-93.69804,"zip":"72760","miles_from_dt":25.27},{"city":"Seligman","state_name":"Missouri","lat":36.52928,"lng":-93.97917,"zip":"65745","miles_from_dt":25.82},{"city":"Combs","state_name":"Arkansas","lat":35.78383,"lng":-93.78402,"zip":"72721","miles_from_dt":26.72},{"city":"Centerton","state_name":"Arkansas","lat":36.36837,"lng":-94.29551,"zip":"72719","miles_from_dt":26.96},{"city":"West Fork","state_name":"Arkansas","lat":35.87777,"lng":-94.21533,"zip":"72774","miles_from_dt":26.98},{"city":"Eagle Rock","state_name":"Missouri","lat":36.5481,"lng":-93.76198,"zip":"65641","miles_from_dt":27.45},{"city":"Bella Vista","state_name":"Arkansas","lat":36.46841,"lng":-94.21649,"zip":"72714","miles_from_dt":28.05},{"city":"Winslow","state_name":"Arkansas","lat":35.77157,"lng":-94.06686,"zip":"72959","miles_from_dt":28.82},{"city":"Green Forest","state_name":"Arkansas","lat":36.3245,"lng":-93.40496,"zip":"72638","miles_from_dt":29.04},{"city":"Prairie Grove","state_name":"Arkansas","lat":35.93477,"lng":-94.32607,"zip":"72753","miles_from_dt":29.27},{"city":"Golden","state_name":"Missouri","lat":36.5426,"lng":-93.63984,"zip":"65658","miles_from_dt":29.56},{"city":"Pettigrew","state_name":"Arkansas","lat":35.82077,"lng":-93.56357,"zip":"72752","miles_from_dt":29.66}],"targetCityZipCode":"72738","targetCityState":"Arkansas"},"__N_SSG":true}