{"pageProps":{"stateName":"Arkansas","cityName":"jessieville","nearbyCities":[{"city":"Mountain Pine","state_name":"Arkansas","lat":34.60129,"lng":-93.14977,"zip":"71956","miles_from_dt":7.13},{"city":"Royal","state_name":"Arkansas","lat":34.52719,"lng":-93.29767,"zip":"71968","miles_from_dt":12.12},{"city":"Hot Springs Village","state_name":"Arkansas","lat":34.66825,"lng":-93.00112,"zip":"71910","miles_from_dt":12.3},{"city":"Hot Springs Village","state_name":"Arkansas","lat":34.64106,"lng":-92.99608,"zip":"71909","miles_from_dt":12.93},{"city":"Plainview","state_name":"Arkansas","lat":34.86217,"lng":-93.33826,"zip":"72857","miles_from_dt":13.81},{"city":"Hot Springs National Park","state_name":"Arkansas","lat":34.52916,"lng":-93.05152,"zip":"71914","miles_from_dt":14.47},{"city":"Story","state_name":"Arkansas","lat":34.66686,"lng":-93.49024,"zip":"71970","miles_from_dt":15.72},{"city":"Hot Springs National Park","state_name":"Arkansas","lat":34.50235,"lng":-93.05754,"zip":"71902","miles_from_dt":15.73},{"city":"Hot Springs National Park","state_name":"Arkansas","lat":34.52589,"lng":-92.99636,"zip":"71903","miles_from_dt":16.82},{"city":"Hot Springs National Park","state_name":"Arkansas","lat":34.52682,"lng":-92.97247,"zip":"71901","miles_from_dt":17.82},{"city":"Hot Springs National Park","state_name":"Arkansas","lat":34.44677,"lng":-93.09981,"zip":"71913","miles_from_dt":17.98},{"city":"Pearcy","state_name":"Arkansas","lat":34.42252,"lng":-93.24451,"zip":"71964","miles_from_dt":18.47},{"city":"Rover","state_name":"Arkansas","lat":34.94556,"lng":-93.43144,"zip":"72860","miles_from_dt":21.51},{"city":"Bonnerdale","state_name":"Arkansas","lat":34.41037,"lng":-93.39124,"zip":"71933","miles_from_dt":21.69},{"city":"Ola","state_name":"Arkansas","lat":35.01146,"lng":-93.23358,"zip":"72853","miles_from_dt":22.23},{"city":"Lonsdale","state_name":"Arkansas","lat":34.59877,"lng":-92.83391,"zip":"72087","miles_from_dt":22.62},{"city":"Mount Ida","state_name":"Arkansas","lat":34.55799,"lng":-93.59682,"zip":"71957","miles_from_dt":23.54},{"city":"Sims","state_name":"Arkansas","lat":34.66671,"lng":-93.63442,"zip":"71969","miles_from_dt":23.91},{"city":"Perryville","state_name":"Arkansas","lat":34.9376,"lng":-92.91024,"zip":"72126","miles_from_dt":24.37},{"city":"Briggsville","state_name":"Arkansas","lat":34.92613,"lng":-93.53951,"zip":"72828","miles_from_dt":24.61},{"city":"Paron","state_name":"Arkansas","lat":34.77955,"lng":-92.77549,"zip":"72122","miles_from_dt":25.8},{"city":"Bluffton","state_name":"Arkansas","lat":34.87758,"lng":-93.61948,"zip":"72827","miles_from_dt":26.38},{"city":"Bismarck","state_name":"Arkansas","lat":34.30527,"lng":-93.1553,"zip":"71929","miles_from_dt":26.7},{"city":"Danville","state_name":"Arkansas","lat":35.01845,"lng":-93.49748,"zip":"72833","miles_from_dt":27.77},{"city":"Casa","state_name":"Arkansas","lat":35.0551,"lng":-92.99604,"zip":"72025","miles_from_dt":28.13},{"city":"Centerville","state_name":"Arkansas","lat":35.10351,"lng":-93.1753,"zip":"72829","miles_from_dt":28.64},{"city":"Benton","state_name":"Arkansas","lat":34.63498,"lng":-92.69926,"zip":"72019","miles_from_dt":29.64},{"city":"Gravelly","state_name":"Arkansas","lat":34.88926,"lng":-93.68009,"zip":"72838","miles_from_dt":29.8},{"city":"Pencil Bluff","state_name":"Arkansas","lat":34.65506,"lng":-93.74053,"zip":"71965","miles_from_dt":29.99}],"targetCityZipCode":"71949","targetCityState":"Arkansas"},"__N_SSG":true}