{"pageProps":{"stateName":"Arkansas","cityName":"langley","nearbyCities":[{"city":"Newhope","state_name":"Arkansas","lat":34.25081,"lng":-93.92633,"zip":"71959","miles_from_dt":6.01},{"city":"Caddo Gap","state_name":"Arkansas","lat":34.39338,"lng":-93.75009,"zip":"71935","miles_from_dt":8.07},{"city":"Kirby","state_name":"Arkansas","lat":34.25072,"lng":-93.72767,"zip":"71950","miles_from_dt":8.12},{"city":"Umpire","state_name":"Arkansas","lat":34.30411,"lng":-94.0313,"zip":"71971","miles_from_dt":10.38},{"city":"Glenwood","state_name":"Arkansas","lat":34.33488,"lng":-93.60633,"zip":"71943","miles_from_dt":14.03},{"city":"Norman","state_name":"Arkansas","lat":34.47408,"lng":-93.69281,"zip":"71960","miles_from_dt":14.4},{"city":"Dierks","state_name":"Arkansas","lat":34.13409,"lng":-94.02665,"zip":"71833","miles_from_dt":15.83},{"city":"Murfreesboro","state_name":"Arkansas","lat":34.1114,"lng":-93.6556,"zip":"71958","miles_from_dt":17.68},{"city":"Oden","state_name":"Arkansas","lat":34.58583,"lng":-93.91,"zip":"71966","miles_from_dt":19.27},{"city":"Oden","state_name":"Arkansas","lat":34.59722,"lng":-93.84676,"zip":"71961","miles_from_dt":19.75},{"city":"Nashville","state_name":"Arkansas","lat":33.99489,"lng":-93.85831,"zip":"71852","miles_from_dt":21.77},{"city":"Mount Ida","state_name":"Arkansas","lat":34.55799,"lng":-93.59682,"zip":"71957","miles_from_dt":22.35},{"city":"Alpine","state_name":"Arkansas","lat":34.26472,"lng":-93.46083,"zip":"71920","miles_from_dt":22.48},{"city":"Vandervoort","state_name":"Arkansas","lat":34.39447,"lng":-94.24695,"zip":"71972","miles_from_dt":23.42},{"city":"Pencil Bluff","state_name":"Arkansas","lat":34.65506,"lng":-93.74053,"zip":"71965","miles_from_dt":24.55},{"city":"Amity","state_name":"Arkansas","lat":34.25435,"lng":-93.40109,"zip":"71921","miles_from_dt":25.97},{"city":"Wickes","state_name":"Arkansas","lat":34.28755,"lng":-94.30523,"zip":"71973","miles_from_dt":26.09},{"city":"Board Camp","state_name":"Arkansas","lat":34.55293,"lng":-94.2044,"zip":"71932","miles_from_dt":26.24},{"city":"Bonnerdale","state_name":"Arkansas","lat":34.41037,"lng":-93.39124,"zip":"71933","miles_from_dt":27.1},{"city":"Sims","state_name":"Arkansas","lat":34.66671,"lng":-93.63442,"zip":"71969","miles_from_dt":27.45},{"city":"Grannis","state_name":"Arkansas","lat":34.23922,"lng":-94.32517,"zip":"71944","miles_from_dt":27.64},{"city":"Delight","state_name":"Arkansas","lat":34.01527,"lng":-93.50705,"zip":"71940","miles_from_dt":28.29},{"city":"McCaskill","state_name":"Arkansas","lat":33.92616,"lng":-93.63361,"zip":"71847","miles_from_dt":29.26},{"city":"Mena","state_name":"Arkansas","lat":34.61291,"lng":-94.2118,"zip":"71953","miles_from_dt":29.34}],"targetCityZipCode":"71952","targetCityState":"Arkansas"},"__N_SSG":true}