{"pageProps":{"stateName":"Arkansas","cityName":"lewisville","nearbyCities":[{"city":"Garland City","state_name":"Arkansas","lat":33.30619,"lng":-93.73891,"zip":"71839","miles_from_dt":6.17},{"city":"Stamps","state_name":"Arkansas","lat":33.307,"lng":-93.49286,"zip":"71860","miles_from_dt":8.2},{"city":"Fouke","state_name":"Arkansas","lat":33.25543,"lng":-93.85693,"zip":"71837","miles_from_dt":13.67},{"city":"Buckner","state_name":"Arkansas","lat":33.41186,"lng":-93.41463,"zip":"71827","miles_from_dt":14.16},{"city":"Genoa","state_name":"Arkansas","lat":33.38378,"lng":-93.90896,"zip":"71840","miles_from_dt":16.52},{"city":"Bradley","state_name":"Arkansas","lat":33.08994,"lng":-93.72536,"zip":"71826","miles_from_dt":16.72},{"city":"Taylor","state_name":"Arkansas","lat":33.1039,"lng":-93.4941,"zip":"71861","miles_from_dt":16.95},{"city":"Texarkana","state_name":"Arkansas","lat":33.44445,"lng":-93.90504,"zip":"71854","miles_from_dt":17.88},{"city":"Waldo","state_name":"Arkansas","lat":33.38847,"lng":-93.31607,"zip":"71770","miles_from_dt":18.96},{"city":"Hope","state_name":"Arkansas","lat":33.63306,"lng":-93.59833,"zip":"71801","miles_from_dt":21.67},{"city":"Magnolia","state_name":"Arkansas","lat":33.26742,"lng":-93.23923,"zip":"71754","miles_from_dt":23.11},{"city":"Doddridge","state_name":"Arkansas","lat":33.11552,"lng":-93.9577,"zip":"71834","miles_from_dt":23.47},{"city":"Willisville","state_name":"Arkansas","lat":33.50997,"lng":-93.28868,"zip":"71864","miles_from_dt":23.85},{"city":"Springhill","state_name":"Louisiana","lat":32.99349,"lng":-93.49199,"zip":"71075","miles_from_dt":23.96},{"city":"Hope","state_name":"Arkansas","lat":33.6661,"lng":-93.58733,"zip":"71802","miles_from_dt":24},{"city":"Fulton","state_name":"Arkansas","lat":33.64916,"lng":-93.79753,"zip":"71838","miles_from_dt":24.58},{"city":"McNeil","state_name":"Arkansas","lat":33.40061,"lng":-93.19454,"zip":"71752","miles_from_dt":25.99},{"city":"Emmet","state_name":"Arkansas","lat":33.66724,"lng":-93.4425,"zip":"71835","miles_from_dt":26.35},{"city":"Ogden","state_name":"Arkansas","lat":33.59442,"lng":-93.95635,"zip":"71853","miles_from_dt":26.55},{"city":"Cullen","state_name":"Louisiana","lat":32.96721,"lng":-93.44597,"zip":"71021","miles_from_dt":26.64},{"city":"Magnolia","state_name":"Arkansas","lat":33.22974,"lng":-93.18461,"zip":"71753","miles_from_dt":26.73},{"city":"Texarkana","state_name":"Texas","lat":33.44713,"lng":-94.07752,"zip":"75599","miles_from_dt":27.12},{"city":"Bloomburg","state_name":"Texas","lat":33.1512,"lng":-94.06263,"zip":"75556","miles_from_dt":27.43},{"city":"Rosston","state_name":"Arkansas","lat":33.58543,"lng":-93.26706,"zip":"71858","miles_from_dt":27.98},{"city":"Plain Dealing","state_name":"Louisiana","lat":32.91356,"lng":-93.68761,"zip":"71064","miles_from_dt":28.19},{"city":"Ida","state_name":"Louisiana","lat":32.96662,"lng":-93.88083,"zip":"71044","miles_from_dt":28.26},{"city":"Texarkana","state_name":"Texas","lat":33.37413,"lng":-94.13168,"zip":"75501","miles_from_dt":29.05},{"city":"Queen City","state_name":"Texas","lat":33.23114,"lng":-94.12934,"zip":"75572","miles_from_dt":29.34},{"city":"Nash","state_name":"Texas","lat":33.44127,"lng":-94.12292,"zip":"75569","miles_from_dt":29.5},{"city":"Sarepta","state_name":"Louisiana","lat":32.91747,"lng":-93.45099,"zip":"71071","miles_from_dt":29.7}],"targetCityZipCode":"71845","targetCityState":"Arkansas"},"__N_SSG":true}