{"pageProps":{"stateName":"Arkansas","cityName":"marcella","nearbyCities":[{"city":"Pleasant Grove","state_name":"Arkansas","lat":35.81742,"lng":-91.91975,"zip":"72567","miles_from_dt":3.77},{"city":"Locust Grove","state_name":"Arkansas","lat":35.70836,"lng":-91.78387,"zip":"72550","miles_from_dt":7.07},{"city":"Concord","state_name":"Arkansas","lat":35.64808,"lng":-91.83632,"zip":"72523","miles_from_dt":8.91},{"city":"Cushman","state_name":"Arkansas","lat":35.87762,"lng":-91.76623,"zip":"72526","miles_from_dt":9.81},{"city":"Guion","state_name":"Arkansas","lat":35.93355,"lng":-91.9096,"zip":"72540","miles_from_dt":11.26},{"city":"Desha","state_name":"Arkansas","lat":35.74038,"lng":-91.68323,"zip":"72527","miles_from_dt":11.42},{"city":"Drasco","state_name":"Arkansas","lat":35.61381,"lng":-91.95715,"zip":"72530","miles_from_dt":11.66},{"city":"Mountain View","state_name":"Arkansas","lat":35.84023,"lng":-92.08032,"zip":"72560","miles_from_dt":12.06},{"city":"Batesville","state_name":"Arkansas","lat":35.72739,"lng":-91.67373,"zip":"72503","miles_from_dt":12.14},{"city":"Mount Pleasant","state_name":"Arkansas","lat":35.9428,"lng":-91.81093,"zip":"72561","miles_from_dt":12.47},{"city":"Prim","state_name":"Arkansas","lat":35.6673,"lng":-92.06997,"zip":"72130","miles_from_dt":12.74},{"city":"Batesville","state_name":"Arkansas","lat":35.79167,"lng":-91.65399,"zip":"72501","miles_from_dt":12.93},{"city":"Ida","state_name":"Arkansas","lat":35.57711,"lng":-91.94487,"zip":"72546","miles_from_dt":13.86},{"city":"Floral","state_name":"Arkansas","lat":35.59272,"lng":-91.73265,"zip":"72534","miles_from_dt":14.95},{"city":"Tumbling Shoals","state_name":"Arkansas","lat":35.54722,"lng":-91.97035,"zip":"72581","miles_from_dt":16.24},{"city":"Edgemont","state_name":"Arkansas","lat":35.67688,"lng":-92.16243,"zip":"72044","miles_from_dt":17.02},{"city":"Salado","state_name":"Arkansas","lat":35.69101,"lng":-91.59051,"zip":"72575","miles_from_dt":17.35},{"city":"Melbourne","state_name":"Arkansas","lat":36.02472,"lng":-91.95831,"zip":"72556","miles_from_dt":17.95},{"city":"Wilburn","state_name":"Arkansas","lat":35.49773,"lng":-91.86565,"zip":"72179","miles_from_dt":18.91},{"city":"Sidney","state_name":"Arkansas","lat":36.03094,"lng":-91.71379,"zip":"72577","miles_from_dt":20.24},{"city":"Pleasant Plains","state_name":"Arkansas","lat":35.56676,"lng":-91.62147,"zip":"72568","miles_from_dt":20.39},{"city":"Higden","state_name":"Arkansas","lat":35.56369,"lng":-92.16589,"zip":"72067","miles_from_dt":21.43},{"city":"Sage","state_name":"Arkansas","lat":36.07442,"lng":-91.79624,"zip":"72573","miles_from_dt":21.43},{"city":"Rosie","state_name":"Arkansas","lat":35.64059,"lng":-91.53568,"zip":"72571","miles_from_dt":21.51},{"city":"Heber Springs","state_name":"Arkansas","lat":35.48791,"lng":-92.05573,"zip":"72545","miles_from_dt":21.85},{"city":"Timbo","state_name":"Arkansas","lat":35.8948,"lng":-92.2469,"zip":"72657","miles_from_dt":22.13},{"city":"Pangburn","state_name":"Arkansas","lat":35.45561,"lng":-91.78525,"zip":"72121","miles_from_dt":22.47},{"city":"Cave City","state_name":"Arkansas","lat":35.95196,"lng":-91.54522,"zip":"72521","miles_from_dt":22.66},{"city":"Heber Springs","state_name":"Arkansas","lat":35.45528,"lng":-91.99407,"zip":"72543","miles_from_dt":22.69},{"city":"Magness","state_name":"Arkansas","lat":35.70093,"lng":-91.48212,"zip":"72553","miles_from_dt":23.05},{"city":"Charlotte","state_name":"Arkansas","lat":35.80471,"lng":-91.46683,"zip":"72522","miles_from_dt":23.48},{"city":"Fox","state_name":"Arkansas","lat":35.79475,"lng":-92.31501,"zip":"72051","miles_from_dt":24.33},{"city":"Fairfield Bay","state_name":"Arkansas","lat":35.59803,"lng":-92.26239,"zip":"72088","miles_from_dt":24.47},{"city":"Fifty Six","state_name":"Arkansas","lat":35.97921,"lng":-92.24513,"zip":"72533","miles_from_dt":24.86},{"city":"Sulphur Rock","state_name":"Arkansas","lat":35.84458,"lng":-91.44428,"zip":"72579","miles_from_dt":25.14},{"city":"Violet Hill","state_name":"Arkansas","lat":36.14421,"lng":-91.84427,"zip":"72584","miles_from_dt":25.78},{"city":"Shirley","state_name":"Arkansas","lat":35.65651,"lng":-92.31988,"zip":"72153","miles_from_dt":25.82},{"city":"Brockwell","state_name":"Arkansas","lat":36.1463,"lng":-91.95403,"zip":"72517","miles_from_dt":26.14},{"city":"Timbo","state_name":"Arkansas","lat":35.88286,"lng":-92.32986,"zip":"72680","miles_from_dt":26.24},{"city":"Franklin","state_name":"Arkansas","lat":36.14673,"lng":-91.76115,"zip":"72536","miles_from_dt":26.75},{"city":"Oil Trough","state_name":"Arkansas","lat":35.60034,"lng":-91.45585,"zip":"72564","miles_from_dt":26.77},{"city":"Thida","state_name":"Arkansas","lat":35.57657,"lng":-91.46647,"zip":"72165","miles_from_dt":27.01},{"city":"Newark","state_name":"Arkansas","lat":35.73074,"lng":-91.39514,"zip":"72562","miles_from_dt":27.56},{"city":"Onia","state_name":"Arkansas","lat":35.93617,"lng":-92.33192,"zip":"72663","miles_from_dt":27.64},{"city":"Evening Shade","state_name":"Arkansas","lat":36.09905,"lng":-91.59508,"zip":"72532","miles_from_dt":27.75},{"city":"Letona","state_name":"Arkansas","lat":35.36665,"lng":-91.82772,"zip":"72085","miles_from_dt":28.09},{"city":"Wideman","state_name":"Arkansas","lat":36.17861,"lng":-92.01454,"zip":"72585","miles_from_dt":29.01},{"city":"Calico Rock","state_name":"Arkansas","lat":36.11876,"lng":-92.17802,"zip":"72519","miles_from_dt":29.1},{"city":"Judsonia","state_name":"Arkansas","lat":35.37827,"lng":-91.66947,"zip":"72081","miles_from_dt":29.66}],"targetCityZipCode":"72555","targetCityState":"Arkansas"},"__N_SSG":true}