{"pageProps":{"stateName":"Arkansas","cityName":"mcdougal","nearbyCities":[{"city":"Pollard","state_name":"Arkansas","lat":36.45362,"lng":-90.32217,"zip":"72456","miles_from_dt":3.95},{"city":"Corning","state_name":"Arkansas","lat":36.41893,"lng":-90.54385,"zip":"72422","miles_from_dt":8.68},{"city":"Neelyville","state_name":"Missouri","lat":36.56365,"lng":-90.47337,"zip":"63954","miles_from_dt":10},{"city":"Piggott","state_name":"Arkansas","lat":36.40083,"lng":-90.20623,"zip":"72454","miles_from_dt":10.49},{"city":"Qulin","state_name":"Missouri","lat":36.56848,"lng":-90.2749,"zip":"63961","miles_from_dt":11.17},{"city":"Knobel","state_name":"Arkansas","lat":36.31177,"lng":-90.54593,"zip":"72435","miles_from_dt":12.2},{"city":"Rector","state_name":"Arkansas","lat":36.26679,"lng":-90.28254,"zip":"72461","miles_from_dt":13.07},{"city":"Saint Francis","state_name":"Arkansas","lat":36.45405,"lng":-90.1434,"zip":"72464","miles_from_dt":13.77},{"city":"Greenway","state_name":"Arkansas","lat":36.336,"lng":-90.17366,"zip":"72430","miles_from_dt":13.85},{"city":"Lafe","state_name":"Arkansas","lat":36.23574,"lng":-90.48281,"zip":"72436","miles_from_dt":14.73},{"city":"Harviell","state_name":"Missouri","lat":36.6381,"lng":-90.5524,"zip":"63945","miles_from_dt":16.65},{"city":"Campbell","state_name":"Missouri","lat":36.52102,"lng":-90.10876,"zip":"63933","miles_from_dt":16.71},{"city":"Naylor","state_name":"Missouri","lat":36.59134,"lng":-90.62995,"zip":"63953","miles_from_dt":17.17},{"city":"Marmaduke","state_name":"Arkansas","lat":36.1812,"lng":-90.41037,"zip":"72443","miles_from_dt":17.57},{"city":"Success","state_name":"Arkansas","lat":36.4668,"lng":-90.70309,"zip":"72470","miles_from_dt":17.6},{"city":"Peach Orchard","state_name":"Arkansas","lat":36.30909,"lng":-90.67887,"zip":"72453","miles_from_dt":18.34},{"city":"Datto","state_name":"Arkansas","lat":36.39185,"lng":-90.72874,"zip":"72424","miles_from_dt":19.15},{"city":"Broseley","state_name":"Missouri","lat":36.6879,"lng":-90.24533,"zip":"63932","miles_from_dt":19.16},{"city":"Oxly","state_name":"Missouri","lat":36.60211,"lng":-90.67864,"zip":"63955","miles_from_dt":19.77},{"city":"Gibson","state_name":"Missouri","lat":36.44271,"lng":-90.03474,"zip":"63847","miles_from_dt":19.77},{"city":"Reyno","state_name":"Arkansas","lat":36.38243,"lng":-90.75916,"zip":"72462","miles_from_dt":20.93},{"city":"Holcomb","state_name":"Missouri","lat":36.36748,"lng":-90.01435,"zip":"63852","miles_from_dt":21.43},{"city":"Whiteoak","state_name":"Missouri","lat":36.32986,"lng":-90.02585,"zip":"63880","miles_from_dt":21.54},{"city":"Poplar Bluff","state_name":"Missouri","lat":36.7556,"lng":-90.3952,"zip":"63902","miles_from_dt":22.07},{"city":"Clarkton","state_name":"Missouri","lat":36.44907,"lng":-89.98023,"zip":"63837","miles_from_dt":22.82},{"city":"Poplar Bluff","state_name":"Missouri","lat":36.77168,"lng":-90.45012,"zip":"63901","miles_from_dt":23.43},{"city":"Fairdealing","state_name":"Missouri","lat":36.68456,"lng":-90.68253,"zip":"63939","miles_from_dt":23.68},{"city":"Kennett","state_name":"Missouri","lat":36.22402,"lng":-90.04612,"zip":"63857","miles_from_dt":24.07},{"city":"Senath","state_name":"Missouri","lat":36.13206,"lng":-90.16487,"zip":"63876","miles_from_dt":24.39},{"city":"Malden","state_name":"Missouri","lat":36.56282,"lng":-89.97671,"zip":"63863","miles_from_dt":24.6},{"city":"Delaplaine","state_name":"Arkansas","lat":36.22138,"lng":-90.74308,"zip":"72425","miles_from_dt":24.64},{"city":"Fisk","state_name":"Missouri","lat":36.77218,"lng":-90.22892,"zip":"63940","miles_from_dt":24.87},{"city":"Biggers","state_name":"Arkansas","lat":36.30564,"lng":-90.81251,"zip":"72413","miles_from_dt":25.23},{"city":"Paragould","state_name":"Arkansas","lat":36.0784,"lng":-90.51695,"zip":"72450","miles_from_dt":25.63},{"city":"Maynard","state_name":"Arkansas","lat":36.4266,"lng":-90.86106,"zip":"72444","miles_from_dt":26.29},{"city":"Bernie","state_name":"Missouri","lat":36.65904,"lng":-90.00103,"zip":"63822","miles_from_dt":26.54},{"city":"Paragould","state_name":"Arkansas","lat":36.05879,"lng":-90.49971,"zip":"72451","miles_from_dt":26.69},{"city":"Beech Grove","state_name":"Arkansas","lat":36.12572,"lng":-90.69172,"zip":"72412","miles_from_dt":27.22},{"city":"Cardwell","state_name":"Missouri","lat":36.03652,"lng":-90.31173,"zip":"63829","miles_from_dt":27.85},{"city":"Arbyrd","state_name":"Missouri","lat":36.04878,"lng":-90.23963,"zip":"63821","miles_from_dt":27.95},{"city":"Gideon","state_name":"Missouri","lat":36.44053,"lng":-89.88219,"zip":"63848","miles_from_dt":28.26},{"city":"Rombauer","state_name":"Missouri","lat":36.84406,"lng":-90.28149,"zip":"63962","miles_from_dt":28.8},{"city":"Dudley","state_name":"Missouri","lat":36.80731,"lng":-90.12979,"zip":"63936","miles_from_dt":29.42}],"targetCityZipCode":"72441","targetCityState":"Arkansas"},"__N_SSG":true}