{"pageProps":{"stateName":"Arkansas","cityName":"pottsville","nearbyCities":[{"city":"Russellville","state_name":"Arkansas","lat":35.22319,"lng":-93.12032,"zip":"72812","miles_from_dt":4.46},{"city":"Russellville","state_name":"Arkansas","lat":35.27822,"lng":-93.13419,"zip":"72811","miles_from_dt":7.12},{"city":"Russellville","state_name":"Arkansas","lat":35.31334,"lng":-93.06726,"zip":"72802","miles_from_dt":7.52},{"city":"Russellville","state_name":"Arkansas","lat":35.28057,"lng":-93.14161,"zip":"72801","miles_from_dt":7.54},{"city":"Dardanelle","state_name":"Arkansas","lat":35.17202,"lng":-93.19401,"zip":"72834","miles_from_dt":8.79},{"city":"Atkins","state_name":"Arkansas","lat":35.25213,"lng":-92.89847,"zip":"72823","miles_from_dt":8.85},{"city":"Centerville","state_name":"Arkansas","lat":35.10351,"lng":-93.1753,"zip":"72829","miles_from_dt":10.23},{"city":"Casa","state_name":"Arkansas","lat":35.0551,"lng":-92.99604,"zip":"72025","miles_from_dt":10.74},{"city":"Adona","state_name":"Arkansas","lat":35.07225,"lng":-92.87602,"zip":"72001","miles_from_dt":13.25},{"city":"Morrilton","state_name":"Arkansas","lat":35.15514,"lng":-92.77273,"zip":"72110","miles_from_dt":15.76},{"city":"Ola","state_name":"Arkansas","lat":35.01146,"lng":-93.23358,"zip":"72853","miles_from_dt":17.16},{"city":"Perry","state_name":"Arkansas","lat":35.06421,"lng":-92.794,"zip":"72125","miles_from_dt":17.21},{"city":"Hattieville","state_name":"Arkansas","lat":35.32205,"lng":-92.77249,"zip":"72063","miles_from_dt":17.33},{"city":"London","state_name":"Arkansas","lat":35.37043,"lng":-93.27749,"zip":"72847","miles_from_dt":17.39},{"city":"Delaware","state_name":"Arkansas","lat":35.27634,"lng":-93.3425,"zip":"72835","miles_from_dt":17.55},{"city":"Perryville","state_name":"Arkansas","lat":34.9376,"lng":-92.91024,"zip":"72126","miles_from_dt":19.99},{"city":"Solgohachia","state_name":"Arkansas","lat":35.28595,"lng":-92.68331,"zip":"72156","miles_from_dt":21.15},{"city":"Belleville","state_name":"Arkansas","lat":35.12768,"lng":-93.41146,"zip":"72824","miles_from_dt":21.47},{"city":"Dover","state_name":"Arkansas","lat":35.51387,"lng":-93.10709,"zip":"72837","miles_from_dt":21.53},{"city":"Knoxville","state_name":"Arkansas","lat":35.36262,"lng":-93.37619,"zip":"72845","miles_from_dt":21.65},{"city":"Houston","state_name":"Arkansas","lat":35.01346,"lng":-92.6995,"zip":"72070","miles_from_dt":23.61},{"city":"New Blaine","state_name":"Arkansas","lat":35.26092,"lng":-93.45693,"zip":"72851","miles_from_dt":23.64},{"city":"Lamar","state_name":"Arkansas","lat":35.48166,"lng":-93.31885,"zip":"72846","miles_from_dt":24.54},{"city":"Hector","state_name":"Arkansas","lat":35.55608,"lng":-92.91932,"zip":"72843","miles_from_dt":25.16},{"city":"Plumerville","state_name":"Arkansas","lat":35.16237,"lng":-92.59419,"zip":"72127","miles_from_dt":25.65},{"city":"Jerusalem","state_name":"Arkansas","lat":35.52604,"lng":-92.80909,"zip":"72080","miles_from_dt":25.76},{"city":"Cleveland","state_name":"Arkansas","lat":35.43428,"lng":-92.68003,"zip":"72030","miles_from_dt":25.92},{"city":"Springfield","state_name":"Arkansas","lat":35.2714,"lng":-92.56412,"zip":"72157","miles_from_dt":27.53},{"city":"Rover","state_name":"Arkansas","lat":34.94556,"lng":-93.43144,"zip":"72860","miles_from_dt":28.34},{"city":"Bigelow","state_name":"Arkansas","lat":34.97702,"lng":-92.62763,"zip":"72016","miles_from_dt":28.39},{"city":"Scranton","state_name":"Arkansas","lat":35.36642,"lng":-93.50878,"zip":"72863","miles_from_dt":28.49},{"city":"Danville","state_name":"Arkansas","lat":35.01845,"lng":-93.49748,"zip":"72833","miles_from_dt":28.74},{"city":"Center Ridge","state_name":"Arkansas","lat":35.37021,"lng":-92.57494,"zip":"72027","miles_from_dt":28.85},{"city":"Plainview","state_name":"Arkansas","lat":34.86217,"lng":-93.33826,"zip":"72857","miles_from_dt":28.96},{"city":"Menifee","state_name":"Arkansas","lat":35.14255,"lng":-92.53844,"zip":"72107","miles_from_dt":28.97},{"city":"Scotland","state_name":"Arkansas","lat":35.51824,"lng":-92.69158,"zip":"72141","miles_from_dt":29.34}],"targetCityZipCode":"72858","targetCityState":"Arkansas"},"__N_SSG":true}