{"pageProps":{"stateName":"Arkansas","cityName":"tillar","nearbyCities":[{"city":"Winchester","state_name":"Arkansas","lat":33.76572,"lng":-91.4884,"zip":"71677","miles_from_dt":4.76},{"city":"Pickens","state_name":"Arkansas","lat":33.82355,"lng":-91.50391,"zip":"71662","miles_from_dt":7.69},{"city":"McGehee","state_name":"Arkansas","lat":33.62476,"lng":-91.37234,"zip":"71654","miles_from_dt":8.52},{"city":"Rohwer","state_name":"Arkansas","lat":33.7372,"lng":-91.24736,"zip":"71666","miles_from_dt":9.36},{"city":"Dumas","state_name":"Arkansas","lat":33.89143,"lng":-91.54414,"zip":"71639","miles_from_dt":12.75},{"city":"Arkansas City","state_name":"Arkansas","lat":33.61827,"lng":-91.23004,"zip":"71630","miles_from_dt":13.52},{"city":"Watson","state_name":"Arkansas","lat":33.82694,"lng":-91.18261,"zip":"71674","miles_from_dt":14.26},{"city":"Dermott","state_name":"Arkansas","lat":33.52008,"lng":-91.47927,"zip":"71638","miles_from_dt":15.97},{"city":"Monticello","state_name":"Arkansas","lat":33.62874,"lng":-91.7486,"zip":"71655","miles_from_dt":21.09},{"city":"Gould","state_name":"Arkansas","lat":34.01953,"lng":-91.57945,"zip":"71643","miles_from_dt":21.33},{"city":"Benoit","state_name":"Mississippi","lat":33.63834,"lng":-91.05543,"zip":"38725","miles_from_dt":21.68},{"city":"Scott","state_name":"Mississippi","lat":33.56254,"lng":-91.08769,"zip":"38772","miles_from_dt":22.4},{"city":"Tichnor","state_name":"Arkansas","lat":34.04821,"lng":-91.23711,"zip":"72166","miles_from_dt":23.17},{"city":"Monticello","state_name":"Arkansas","lat":33.63072,"lng":-91.79108,"zip":"71656","miles_from_dt":23.33},{"city":"Monticello","state_name":"Arkansas","lat":33.6253,"lng":-91.78934,"zip":"71657","miles_from_dt":23.36},{"city":"Gillett","state_name":"Arkansas","lat":34.10391,"lng":-91.36196,"zip":"72055","miles_from_dt":24.93},{"city":"Beulah","state_name":"Mississippi","lat":33.75207,"lng":-90.97664,"zip":"38726","miles_from_dt":24.94},{"city":"Rosedale","state_name":"Mississippi","lat":33.84255,"lng":-90.97678,"zip":"38769","miles_from_dt":25.82},{"city":"Reydell","state_name":"Arkansas","lat":34.10821,"lng":-91.53718,"zip":"72133","miles_from_dt":26.12},{"city":"Winterville","state_name":"Mississippi","lat":33.50415,"lng":-91.05709,"zip":"38782","miles_from_dt":26.22},{"city":"Lake Village","state_name":"Arkansas","lat":33.36919,"lng":-91.27676,"zip":"71653","miles_from_dt":26.97},{"city":"Greenville","state_name":"Mississippi","lat":33.47081,"lng":-91.04775,"zip":"38703","miles_from_dt":28.13},{"city":"Star City","state_name":"Arkansas","lat":33.93588,"lng":-91.84412,"zip":"71667","miles_from_dt":28.25}],"targetCityZipCode":"71670","targetCityState":"Arkansas"},"__N_SSG":true}