{"pageProps":{"stateName":"Arkansas","cityName":"tucker","nearbyCities":[{"city":"Sherrill","state_name":"Arkansas","lat":34.35194,"lng":-91.98009,"zip":"72152","miles_from_dt":5.92},{"city":"Wright","state_name":"Arkansas","lat":34.43161,"lng":-92.08721,"zip":"72182","miles_from_dt":6.84},{"city":"England","state_name":"Arkansas","lat":34.55542,"lng":-91.9403,"zip":"72046","miles_from_dt":8.3},{"city":"Coy","state_name":"Arkansas","lat":34.53778,"lng":-91.8739,"zip":"72037","miles_from_dt":8.76},{"city":"Keo","state_name":"Arkansas","lat":34.6049,"lng":-92.01189,"zip":"72083","miles_from_dt":11.83},{"city":"Redfield","state_name":"Arkansas","lat":34.44,"lng":-92.19468,"zip":"72132","miles_from_dt":12.96},{"city":"Humnoke","state_name":"Arkansas","lat":34.51279,"lng":-91.75802,"zip":"72072","miles_from_dt":13.06},{"city":"Jefferson","state_name":"Arkansas","lat":34.38958,"lng":-92.19919,"zip":"72079","miles_from_dt":13.62},{"city":"Wabbaseka","state_name":"Arkansas","lat":34.33792,"lng":-91.75495,"zip":"72175","miles_from_dt":13.95},{"city":"Altheimer","state_name":"Arkansas","lat":34.29722,"lng":-91.7856,"zip":"72004","miles_from_dt":14.19},{"city":"White Hall","state_name":"Arkansas","lat":34.22887,"lng":-92.00089,"zip":"71612","miles_from_dt":14.48},{"city":"White Hall","state_name":"Arkansas","lat":34.27463,"lng":-92.13302,"zip":"71602","miles_from_dt":14.66},{"city":"Woodson","state_name":"Arkansas","lat":34.53104,"lng":-92.21495,"zip":"72180","miles_from_dt":15.52},{"city":"Pine Bluff","state_name":"Arkansas","lat":34.20067,"lng":-91.93954,"zip":"71611","miles_from_dt":16.38},{"city":"Wrightsville","state_name":"Arkansas","lat":34.60002,"lng":-92.19305,"zip":"72183","miles_from_dt":17.07},{"city":"Scott","state_name":"Arkansas","lat":34.67681,"lng":-92.07488,"zip":"72142","miles_from_dt":17.61},{"city":"Pine Bluff","state_name":"Arkansas","lat":34.17409,"lng":-91.89811,"zip":"71601","miles_from_dt":18.57},{"city":"Humphrey","state_name":"Arkansas","lat":34.36529,"lng":-91.65251,"zip":"72073","miles_from_dt":18.68},{"city":"Hensley","state_name":"Arkansas","lat":34.52102,"lng":-92.28648,"zip":"72065","miles_from_dt":19.09},{"city":"Little Rock","state_name":"Arkansas","lat":34.63332,"lng":-92.22671,"zip":"72203","miles_from_dt":20.03},{"city":"Little Rock","state_name":"Arkansas","lat":34.63042,"lng":-92.23833,"zip":"72206","miles_from_dt":20.39},{"city":"Pine Bluff","state_name":"Arkansas","lat":34.1402,"lng":-92.10718,"zip":"71613","miles_from_dt":21.97},{"city":"Pine Bluff","state_name":"Arkansas","lat":34.12881,"lng":-92.08492,"zip":"71603","miles_from_dt":22.29},{"city":"Sweet Home","state_name":"Arkansas","lat":34.67575,"lng":-92.23735,"zip":"72164","miles_from_dt":22.51},{"city":"Moscow","state_name":"Arkansas","lat":34.13505,"lng":-91.78071,"zip":"71659","miles_from_dt":23.41},{"city":"College Station","state_name":"Arkansas","lat":34.70579,"lng":-92.22852,"zip":"72053","miles_from_dt":23.75},{"city":"Stuttgart","state_name":"Arkansas","lat":34.44284,"lng":-91.53136,"zip":"72160","miles_from_dt":24.92},{"city":"Carlisle","state_name":"Arkansas","lat":34.75168,"lng":-91.74902,"zip":"72024","miles_from_dt":25.01},{"city":"Lonoke","state_name":"Arkansas","lat":34.80418,"lng":-91.90619,"zip":"72086","miles_from_dt":25.54},{"city":"North Little Rock","state_name":"Arkansas","lat":34.78076,"lng":-92.14548,"zip":"72117","miles_from_dt":25.76},{"city":"Mabelvale","state_name":"Arkansas","lat":34.59133,"lng":-92.38316,"zip":"72103","miles_from_dt":25.98},{"city":"Sheridan","state_name":"Arkansas","lat":34.30999,"lng":-92.39642,"zip":"72150","miles_from_dt":26.02},{"city":"Grady","state_name":"Arkansas","lat":34.11045,"lng":-91.71213,"zip":"71644","miles_from_dt":26.85},{"city":"Little Rock","state_name":"Arkansas","lat":34.6805,"lng":-92.33974,"zip":"72209","miles_from_dt":27.04},{"city":"Little Rock","state_name":"Arkansas","lat":34.68093,"lng":-92.3472,"zip":"72219","miles_from_dt":27.4},{"city":"Little Rock","state_name":"Arkansas","lat":34.74626,"lng":-92.27016,"zip":"72202","miles_from_dt":27.41},{"city":"Little Rock","state_name":"Arkansas","lat":34.74626,"lng":-92.27666,"zip":"72231","miles_from_dt":27.64},{"city":"Little Rock","state_name":"Arkansas","lat":34.74571,"lng":-92.27978,"zip":"72295","miles_from_dt":27.73},{"city":"Little Rock","state_name":"Arkansas","lat":34.74725,"lng":-92.28053,"zip":"72201","miles_from_dt":27.83},{"city":"Little Rock","state_name":"Arkansas","lat":34.75,"lng":-92.28219,"zip":"72260","miles_from_dt":28.04},{"city":"North Little Rock","state_name":"Arkansas","lat":34.7645,"lng":-92.26024,"zip":"72114","miles_from_dt":28.05},{"city":"North Little Rock","state_name":"Arkansas","lat":34.76629,"lng":-92.25907,"zip":"72115","miles_from_dt":28.11},{"city":"Grapevine","state_name":"Arkansas","lat":34.14417,"lng":-92.31507,"zip":"72057","miles_from_dt":28.33},{"city":"Bauxite","state_name":"Arkansas","lat":34.50967,"lng":-92.46628,"zip":"72011","miles_from_dt":28.9},{"city":"Little Rock","state_name":"Arkansas","lat":34.77589,"lng":-92.27715,"zip":"72214","miles_from_dt":29.26},{"city":"Little Rock","state_name":"Arkansas","lat":34.71739,"lng":-92.3582,"zip":"72204","miles_from_dt":29.47},{"city":"North Little Rock","state_name":"Arkansas","lat":34.80025,"lng":-92.24505,"zip":"72116","miles_from_dt":29.6},{"city":"Little Rock","state_name":"Arkansas","lat":34.72453,"lng":-92.3537,"zip":"72222","miles_from_dt":29.61},{"city":"Yorktown","state_name":"Arkansas","lat":34.0254,"lng":-91.81548,"zip":"71678","miles_from_dt":29.69},{"city":"North Little Rock","state_name":"Arkansas","lat":34.7981,"lng":-92.25602,"zip":"72190","miles_from_dt":29.81},{"city":"North Little Rock","state_name":"Arkansas","lat":34.81133,"lng":-92.23488,"zip":"72124","miles_from_dt":29.95}],"targetCityZipCode":"72168","targetCityState":"Arkansas"},"__N_SSG":true}