{"pageProps":{"stateName":"Kentucky","cityName":"cloverport","nearbyCities":[{"city":"Hardinsburg","state_name":"Kentucky","lat":37.78541,"lng":-86.50507,"zip":"40143","miles_from_dt":6.79},{"city":"McQuady","state_name":"Kentucky","lat":37.70793,"lng":-86.52117,"zip":"40153","miles_from_dt":7.66},{"city":"Reynolds Station","state_name":"Kentucky","lat":37.71258,"lng":-86.75133,"zip":"42368","miles_from_dt":8.12},{"city":"Hawesville","state_name":"Kentucky","lat":37.83379,"lng":-86.76578,"zip":"42348","miles_from_dt":8.4},{"city":"Hawesville","state_name":"Kentucky","lat":37.75244,"lng":-86.8148,"zip":"42364","miles_from_dt":10.34},{"city":"Fordsville","state_name":"Kentucky","lat":37.63594,"lng":-86.69795,"zip":"42343","miles_from_dt":10.56},{"city":"Rome","state_name":"Indiana","lat":37.95265,"lng":-86.56323,"zip":"47574","miles_from_dt":12.51},{"city":"Falls Of Rough","state_name":"Kentucky","lat":37.60799,"lng":-86.54925,"zip":"40119","miles_from_dt":12.56},{"city":"Harned","state_name":"Kentucky","lat":37.75899,"lng":-86.37732,"zip":"40144","miles_from_dt":13.84},{"city":"Westview","state_name":"Kentucky","lat":37.65834,"lng":-86.40853,"zip":"40178","miles_from_dt":14.65},{"city":"Stephensport","state_name":"Kentucky","lat":37.96479,"lng":-86.49607,"zip":"40170","miles_from_dt":14.74},{"city":"Cannelton","state_name":"Indiana","lat":37.99351,"lng":-86.5902,"zip":"47520","miles_from_dt":14.96},{"city":"McDaniels","state_name":"Kentucky","lat":37.61389,"lng":-86.44185,"zip":"40152","miles_from_dt":15.31},{"city":"Whitesville","state_name":"Kentucky","lat":37.65093,"lng":-86.87258,"zip":"42378","miles_from_dt":16},{"city":"Lewisport","state_name":"Kentucky","lat":37.9026,"lng":-86.87903,"zip":"42351","miles_from_dt":16.13},{"city":"Union Star","state_name":"Kentucky","lat":37.96435,"lng":-86.43577,"zip":"40171","miles_from_dt":16.59},{"city":"Philpot","state_name":"Kentucky","lat":37.72404,"lng":-86.93988,"zip":"42366","miles_from_dt":17.45},{"city":"Dundee","state_name":"Kentucky","lat":37.55295,"lng":-86.77408,"zip":"42338","miles_from_dt":17.49},{"city":"Irvington","state_name":"Kentucky","lat":37.84622,"lng":-86.31954,"zip":"40146","miles_from_dt":17.55},{"city":"Derby","state_name":"Indiana","lat":38.02856,"lng":-86.55359,"zip":"47525","miles_from_dt":17.71},{"city":"Tell City","state_name":"Indiana","lat":38.03684,"lng":-86.69297,"zip":"47586","miles_from_dt":18.14},{"city":"Olaton","state_name":"Kentucky","lat":37.51791,"lng":-86.69183,"zip":"42361","miles_from_dt":18.32},{"city":"Webster","state_name":"Kentucky","lat":37.92377,"lng":-86.34652,"zip":"40176","miles_from_dt":18.39},{"city":"Garfield","state_name":"Kentucky","lat":37.71867,"lng":-86.29047,"zip":"40140","miles_from_dt":18.99},{"city":"Hudson","state_name":"Kentucky","lat":37.64607,"lng":-86.32019,"zip":"40145","miles_from_dt":19.23},{"city":"Rhodelia","state_name":"Kentucky","lat":38.00422,"lng":-86.39887,"zip":"40161","miles_from_dt":19.99},{"city":"Maceo","state_name":"Kentucky","lat":37.86206,"lng":-86.9895,"zip":"42355","miles_from_dt":20.55},{"city":"Troy","state_name":"Indiana","lat":38.06959,"lng":-86.77826,"zip":"47588","miles_from_dt":21.65},{"city":"Payneville","state_name":"Kentucky","lat":38.02111,"lng":-86.37694,"zip":"40157","miles_from_dt":21.65},{"city":"Evanston","state_name":"Indiana","lat":38.04161,"lng":-86.84867,"zip":"47531","miles_from_dt":21.75},{"city":"Custer","state_name":"Kentucky","lat":37.73784,"lng":-86.22707,"zip":"40115","miles_from_dt":22.18},{"city":"Grandview","state_name":"Indiana","lat":37.97214,"lng":-86.95643,"zip":"47615","miles_from_dt":22.33},{"city":"Hartford","state_name":"Kentucky","lat":37.52414,"lng":-86.88715,"zip":"42347","miles_from_dt":22.56},{"city":"Owensboro","state_name":"Kentucky","lat":37.76509,"lng":-87.04365,"zip":"42302","miles_from_dt":22.73},{"city":"Owensboro","state_name":"Kentucky","lat":37.76138,"lng":-87.04889,"zip":"42303","miles_from_dt":23.03},{"city":"Rosine","state_name":"Kentucky","lat":37.4497,"lng":-86.74121,"zip":"42370","miles_from_dt":23.52},{"city":"Leopold","state_name":"Indiana","lat":38.12153,"lng":-86.56353,"zip":"47551","miles_from_dt":23.9},{"city":"Guston","state_name":"Kentucky","lat":37.88898,"lng":-86.21095,"zip":"40142","miles_from_dt":24.09},{"city":"Horse Branch","state_name":"Kentucky","lat":37.42695,"lng":-86.67425,"zip":"42349","miles_from_dt":24.39},{"city":"Lamar","state_name":"Indiana","lat":38.06213,"lng":-86.92877,"zip":"47550","miles_from_dt":25.5},{"city":"Branchville","state_name":"Indiana","lat":38.14861,"lng":-86.59403,"zip":"47514","miles_from_dt":25.58},{"city":"Caneyville","state_name":"Kentucky","lat":37.42173,"lng":-86.49593,"zip":"42721","miles_from_dt":25.68},{"city":"Millwood","state_name":"Kentucky","lat":37.45366,"lng":-86.39527,"zip":"42762","miles_from_dt":25.83},{"city":"Battletown","state_name":"Kentucky","lat":38.09012,"lng":-86.34053,"zip":"40104","miles_from_dt":26.63},{"city":"Leitchfield","state_name":"Kentucky","lat":37.47814,"lng":-86.31379,"zip":"42754","miles_from_dt":26.99},{"city":"Rockport","state_name":"Indiana","lat":37.8862,"lng":-87.10751,"zip":"47635","miles_from_dt":27.21},{"city":"Saint Meinrad","state_name":"Indiana","lat":38.15004,"lng":-86.80766,"zip":"47577","miles_from_dt":27.4},{"city":"Mariah Hill","state_name":"Indiana","lat":38.13606,"lng":-86.84936,"zip":"47556","miles_from_dt":27.43},{"city":"Utica","state_name":"Kentucky","lat":37.61626,"lng":-87.08619,"zip":"42376","miles_from_dt":27.46},{"city":"Fulda","state_name":"Indiana","lat":38.1379,"lng":-86.85112,"zip":"47536","miles_from_dt":27.58},{"city":"Santa Claus","state_name":"Indiana","lat":38.11149,"lng":-86.91322,"zip":"47579","miles_from_dt":27.71},{"city":"Leitchfield","state_name":"Kentucky","lat":37.47843,"lng":-86.29141,"zip":"42755","miles_from_dt":27.78},{"city":"Bristow","state_name":"Indiana","lat":38.17769,"lng":-86.70226,"zip":"47515","miles_from_dt":27.8},{"city":"Brandenburg","state_name":"Kentucky","lat":37.96964,"lng":-86.16791,"zip":"40108","miles_from_dt":28.43},{"city":"Saint Croix","state_name":"Indiana","lat":38.19089,"lng":-86.58936,"zip":"47576","miles_from_dt":28.5},{"city":"Cromwell","state_name":"Kentucky","lat":37.37718,"lng":-86.75609,"zip":"42333","miles_from_dt":28.57},{"city":"Ekron","state_name":"Kentucky","lat":37.89919,"lng":-86.1247,"zip":"40117","miles_from_dt":28.8},{"city":"Chrisney","state_name":"Indiana","lat":38.02474,"lng":-87.05812,"zip":"47611","miles_from_dt":28.95},{"city":"Owensboro","state_name":"Kentucky","lat":37.77771,"lng":-87.16865,"zip":"42304","miles_from_dt":29.55},{"city":"Vine Grove","state_name":"Kentucky","lat":37.81907,"lng":-86.08635,"zip":"40175","miles_from_dt":29.82},{"city":"Big Clifty","state_name":"Kentucky","lat":37.56098,"lng":-86.15791,"zip":"42712","miles_from_dt":29.87}],"targetCityZipCode":"40111","targetCityState":"Kentucky"},"__N_SSG":true}