{"pageProps":{"stateName":"Kentucky","cityName":"combs","nearbyCities":[{"city":"Hazard","state_name":"Kentucky","lat":37.2494,"lng":-83.19137,"zip":"41702","miles_from_dt":1.87},{"city":"Hazard","state_name":"Kentucky","lat":37.29778,"lng":-83.18781,"zip":"41701","miles_from_dt":2.57},{"city":"Bonnyman","state_name":"Kentucky","lat":37.29727,"lng":-83.24526,"zip":"41719","miles_from_dt":2.58},{"city":"Avawam","state_name":"Kentucky","lat":37.22703,"lng":-83.27799,"zip":"41713","miles_from_dt":4.44},{"city":"Busy","state_name":"Kentucky","lat":37.25469,"lng":-83.31409,"zip":"41723","miles_from_dt":5.49},{"city":"Yerkes","state_name":"Kentucky","lat":37.26612,"lng":-83.3223,"zip":"41778","miles_from_dt":5.87},{"city":"Jeff","state_name":"Kentucky","lat":37.2196,"lng":-83.12659,"zip":"41751","miles_from_dt":5.95},{"city":"Dwarf","state_name":"Kentucky","lat":37.32596,"lng":-83.12802,"zip":"41739","miles_from_dt":6.27},{"city":"Krypton","state_name":"Kentucky","lat":37.30025,"lng":-83.32459,"zip":"41754","miles_from_dt":6.39},{"city":"Happy","state_name":"Kentucky","lat":37.21574,"lng":-83.09779,"zip":"41746","miles_from_dt":7.45},{"city":"Dice","state_name":"Kentucky","lat":37.37707,"lng":-83.20839,"zip":"41736","miles_from_dt":7.53},{"city":"Wooton","state_name":"Kentucky","lat":37.15933,"lng":-83.28158,"zip":"41776","miles_from_dt":8.33},{"city":"Chavies","state_name":"Kentucky","lat":37.35624,"lng":-83.32352,"zip":"41727","miles_from_dt":8.49},{"city":"Ary","state_name":"Kentucky","lat":37.3744,"lng":-83.13751,"zip":"41712","miles_from_dt":8.51},{"city":"Fisty","state_name":"Kentucky","lat":37.35498,"lng":-83.1045,"zip":"41743","miles_from_dt":8.58},{"city":"Scuddy","state_name":"Kentucky","lat":37.19456,"lng":-83.08588,"zip":"41760","miles_from_dt":8.78},{"city":"Viper","state_name":"Kentucky","lat":37.15512,"lng":-83.13847,"zip":"41774","miles_from_dt":8.88},{"city":"Rowdy","state_name":"Kentucky","lat":37.4045,"lng":-83.23218,"zip":"41367","miles_from_dt":9.45},{"city":"Smilax","state_name":"Kentucky","lat":37.12924,"lng":-83.25545,"zip":"41764","miles_from_dt":9.82},{"city":"Carrie","state_name":"Kentucky","lat":37.31667,"lng":-83.03244,"zip":"41725","miles_from_dt":10.65},{"city":"Sassafras","state_name":"Kentucky","lat":37.23211,"lng":-83.02521,"zip":"41759","miles_from_dt":10.8},{"city":"Emmalena","state_name":"Kentucky","lat":37.35649,"lng":-83.0467,"zip":"41740","miles_from_dt":11.14},{"city":"Vicco","state_name":"Kentucky","lat":37.23534,"lng":-83.01721,"zip":"41773","miles_from_dt":11.18},{"city":"Bulan","state_name":"Kentucky","lat":37.40441,"lng":-83.10329,"zip":"41722","miles_from_dt":11.26},{"city":"Lost Creek","state_name":"Kentucky","lat":37.42577,"lng":-83.31387,"zip":"41348","miles_from_dt":12.14},{"city":"Hyden","state_name":"Kentucky","lat":37.19364,"lng":-83.4199,"zip":"41749","miles_from_dt":12.37},{"city":"Gays Creek","state_name":"Kentucky","lat":37.34449,"lng":-83.42848,"zip":"41745","miles_from_dt":12.84},{"city":"Clayhole","state_name":"Kentucky","lat":37.46029,"lng":-83.19851,"zip":"41317","miles_from_dt":13.29},{"city":"Cornettsville","state_name":"Kentucky","lat":37.10312,"lng":-83.08393,"zip":"41731","miles_from_dt":13.51},{"city":"Hindman","state_name":"Kentucky","lat":37.31991,"lng":-82.97848,"zip":"41822","miles_from_dt":13.56},{"city":"Whick","state_name":"Kentucky","lat":37.41872,"lng":-83.3792,"zip":"41390","miles_from_dt":13.74},{"city":"Thousandsticks","state_name":"Kentucky","lat":37.18526,"lng":-83.44443,"zip":"41766","miles_from_dt":13.84},{"city":"Wendover","state_name":"Kentucky","lat":37.09373,"lng":-83.34207,"zip":"41775","miles_from_dt":13.89},{"city":"Yeaddiss","state_name":"Kentucky","lat":37.06022,"lng":-83.23276,"zip":"41777","miles_from_dt":14.37},{"city":"Vest","state_name":"Kentucky","lat":37.4075,"lng":-83.01679,"zip":"41772","miles_from_dt":14.58},{"city":"Redfox","state_name":"Kentucky","lat":37.20823,"lng":-82.95961,"zip":"41847","miles_from_dt":14.72},{"city":"Littcarr","state_name":"Kentucky","lat":37.26585,"lng":-82.94661,"zip":"41834","miles_from_dt":14.84},{"city":"Saul","state_name":"Kentucky","lat":37.27792,"lng":-83.48531,"zip":"40981","miles_from_dt":14.86},{"city":"Blackey","state_name":"Kentucky","lat":37.14923,"lng":-82.98993,"zip":"41804","miles_from_dt":14.92},{"city":"Slemp","state_name":"Kentucky","lat":37.05439,"lng":-83.12157,"zip":"41763","miles_from_dt":15.63},{"city":"Buckhorn","state_name":"Kentucky","lat":37.31371,"lng":-83.49949,"zip":"41721","miles_from_dt":15.94},{"city":"Sizerock","state_name":"Kentucky","lat":37.20742,"lng":-83.50077,"zip":"41762","miles_from_dt":16.25},{"city":"Stinnett","state_name":"Kentucky","lat":37.09367,"lng":-83.41638,"zip":"40868","miles_from_dt":16.34},{"city":"Letcher","state_name":"Kentucky","lat":37.15286,"lng":-82.9548,"zip":"41832","miles_from_dt":16.45},{"city":"Hoskinston","state_name":"Kentucky","lat":37.05506,"lng":-83.35406,"zip":"40844","miles_from_dt":16.55},{"city":"Leburn","state_name":"Kentucky","lat":37.38531,"lng":-82.94633,"zip":"41831","miles_from_dt":16.9},{"city":"Mallie","state_name":"Kentucky","lat":37.25839,"lng":-82.90887,"zip":"41836","miles_from_dt":16.94},{"city":"Jeremiah","state_name":"Kentucky","lat":37.17348,"lng":-82.92115,"zip":"41826","miles_from_dt":17.52},{"city":"Bear Branch","state_name":"Kentucky","lat":37.16519,"lng":-83.5075,"zip":"41714","miles_from_dt":17.58},{"city":"Hallie","state_name":"Kentucky","lat":37.07563,"lng":-83.00711,"zip":"41821","miles_from_dt":17.58},{"city":"Roxana","state_name":"Kentucky","lat":37.11491,"lng":-82.94384,"zip":"41848","miles_from_dt":18.35},{"city":"Delphia","state_name":"Kentucky","lat":37.01793,"lng":-83.09963,"zip":"41735","miles_from_dt":18.41},{"city":"Garner","state_name":"Kentucky","lat":37.35922,"lng":-82.90038,"zip":"41817","miles_from_dt":18.48},{"city":"Jackson","state_name":"Kentucky","lat":37.53158,"lng":-83.29231,"zip":"41339","miles_from_dt":18.65},{"city":"Big Laurel","state_name":"Kentucky","lat":36.9995,"lng":-83.2801,"zip":"40808","miles_from_dt":18.86},{"city":"Asher","state_name":"Kentucky","lat":37.04572,"lng":-83.42185,"zip":"40803","miles_from_dt":19.09},{"city":"Isom","state_name":"Kentucky","lat":37.18771,"lng":-82.88015,"zip":"41824","miles_from_dt":19.33},{"city":"Premium","state_name":"Kentucky","lat":37.1396,"lng":-82.90301,"zip":"41845","miles_from_dt":19.4},{"city":"Pine Top","state_name":"Kentucky","lat":37.27495,"lng":-82.85938,"zip":"41843","miles_from_dt":19.65},{"city":"Chappell","state_name":"Kentucky","lat":37.00879,"lng":-83.3667,"zip":"40816","miles_from_dt":19.73},{"city":"Pippa Passes","state_name":"Kentucky","lat":37.32916,"lng":-82.8643,"zip":"41844","miles_from_dt":19.82},{"city":"Mozelle","state_name":"Kentucky","lat":37.01592,"lng":-83.40106,"zip":"40858","miles_from_dt":20.17},{"city":"Gordon","state_name":"Kentucky","lat":36.99191,"lng":-83.07788,"zip":"41819","miles_from_dt":20.51},{"city":"Essie","state_name":"Kentucky","lat":37.05208,"lng":-83.47187,"zip":"40827","miles_from_dt":20.53},{"city":"Mistletoe","state_name":"Kentucky","lat":37.32754,"lng":-83.59363,"zip":"41351","miles_from_dt":21.21},{"city":"Linefork","state_name":"Kentucky","lat":37.02919,"lng":-82.97323,"zip":"41833","miles_from_dt":21.23},{"city":"Mousie","state_name":"Kentucky","lat":37.42041,"lng":-82.87741,"zip":"41839","miles_from_dt":21.39},{"city":"Hueysville","state_name":"Kentucky","lat":37.47649,"lng":-82.92643,"zip":"41640","miles_from_dt":21.46},{"city":"Oneida","state_name":"Kentucky","lat":37.24501,"lng":-83.60692,"zip":"40972","miles_from_dt":21.61},{"city":"Whitesburg","state_name":"Kentucky","lat":37.1454,"lng":-82.84697,"zip":"41858","miles_from_dt":22.04},{"city":"Big Creek","state_name":"Kentucky","lat":37.0932,"lng":-83.56154,"zip":"40914","miles_from_dt":22.57},{"city":"Raven","state_name":"Kentucky","lat":37.39002,"lng":-82.8264,"zip":"41861","miles_from_dt":23.04},{"city":"Totz","state_name":"Kentucky","lat":36.93211,"lng":-83.14858,"zip":"40870","miles_from_dt":23.47},{"city":"Lackey","state_name":"Kentucky","lat":37.43778,"lng":-82.84307,"zip":"41643","miles_from_dt":23.63},{"city":"Bledsoe","state_name":"Kentucky","lat":36.93176,"lng":-83.30451,"zip":"40810","miles_from_dt":23.7},{"city":"Roark","state_name":"Kentucky","lat":37.00491,"lng":-83.495,"zip":"40979","miles_from_dt":23.81},{"city":"Kite","state_name":"Kentucky","lat":37.2971,"lng":-82.78444,"zip":"41828","miles_from_dt":23.86},{"city":"Topmost","state_name":"Kentucky","lat":37.34971,"lng":-82.78929,"zip":"41862","miles_from_dt":24.16},{"city":"Warbranch","state_name":"Kentucky","lat":36.98407,"lng":-83.47345,"zip":"40874","miles_from_dt":24.21},{"city":"Putney","state_name":"Kentucky","lat":36.91637,"lng":-83.21804,"zip":"40865","miles_from_dt":24.26},{"city":"Garrett","state_name":"Kentucky","lat":37.46416,"lng":-82.84992,"zip":"41630","miles_from_dt":24.26},{"city":"Ermine","state_name":"Kentucky","lat":37.15821,"lng":-82.79799,"zip":"41815","miles_from_dt":24.26},{"city":"Gunlock","state_name":"Kentucky","lat":37.55029,"lng":-82.94982,"zip":"41632","miles_from_dt":24.35},{"city":"Thornton","state_name":"Kentucky","lat":37.18874,"lng":-82.78496,"zip":"41855","miles_from_dt":24.39},{"city":"Rousseau","state_name":"Kentucky","lat":37.62472,"lng":-83.21959,"zip":"41366","miles_from_dt":24.59},{"city":"Ricetown","state_name":"Kentucky","lat":37.37569,"lng":-83.64172,"zip":"41364","miles_from_dt":24.6},{"city":"Cumberland","state_name":"Kentucky","lat":36.95664,"lng":-82.98864,"zip":"40823","miles_from_dt":24.88},{"city":"Helton","state_name":"Kentucky","lat":36.9457,"lng":-83.41854,"zip":"40840","miles_from_dt":24.89},{"city":"Benham","state_name":"Kentucky","lat":36.9647,"lng":-82.95578,"zip":"40807","miles_from_dt":25.38},{"city":"Wayland","state_name":"Kentucky","lat":37.4396,"lng":-82.80621,"zip":"41666","miles_from_dt":25.47},{"city":"Bays","state_name":"Kentucky","lat":37.64068,"lng":-83.25147,"zip":"41310","miles_from_dt":25.77},{"city":"Lejunior","state_name":"Kentucky","lat":36.89941,"lng":-83.13469,"zip":"40849","miles_from_dt":25.82},{"city":"Dema","state_name":"Kentucky","lat":37.39922,"lng":-82.77606,"zip":"41859","miles_from_dt":25.85},{"city":"Partridge","state_name":"Kentucky","lat":37.01418,"lng":-82.87096,"zip":"40862","miles_from_dt":25.87},{"city":"Deane","state_name":"Kentucky","lat":37.2473,"lng":-82.74445,"zip":"41812","miles_from_dt":26.03},{"city":"Booneville","state_name":"Kentucky","lat":37.44008,"lng":-83.63743,"zip":"41314","miles_from_dt":26.06},{"city":"Millstone","state_name":"Kentucky","lat":37.19677,"lng":-82.75144,"zip":"41838","miles_from_dt":26.08},{"city":"Baxter","state_name":"Kentucky","lat":36.88595,"lng":-83.2881,"zip":"40806","miles_from_dt":26.65},{"city":"Bevinsville","state_name":"Kentucky","lat":37.34594,"lng":-82.7375,"zip":"41606","miles_from_dt":26.89},{"city":"Vancleve","state_name":"Kentucky","lat":37.64998,"lng":-83.33665,"zip":"41385","miles_from_dt":27.16},{"city":"Seco","state_name":"Kentucky","lat":37.1744,"lng":-82.73251,"zip":"41849","miles_from_dt":27.43},{"city":"Mayking","state_name":"Kentucky","lat":37.1215,"lng":-82.75231,"zip":"41837","miles_from_dt":27.5},{"city":"Evarts","state_name":"Kentucky","lat":36.87107,"lng":-83.14868,"zip":"40828","miles_from_dt":27.63},{"city":"Bypro","state_name":"Kentucky","lat":37.35451,"lng":-82.72233,"zip":"41612","miles_from_dt":27.83},{"city":"Neon","state_name":"Kentucky","lat":37.19962,"lng":-82.71813,"zip":"41840","miles_from_dt":27.85},{"city":"Closplint","state_name":"Kentucky","lat":36.89081,"lng":-83.03445,"zip":"40927","miles_from_dt":27.88},{"city":"Wheelwright","state_name":"Kentucky","lat":37.33375,"lng":-82.71469,"zip":"41669","miles_from_dt":27.98},{"city":"Lone","state_name":"Kentucky","lat":37.53286,"lng":-83.60177,"zip":"41347","miles_from_dt":28},{"city":"Eastern","state_name":"Kentucky","lat":37.51377,"lng":-82.80925,"zip":"41622","miles_from_dt":28.07},{"city":"Jackhorn","state_name":"Kentucky","lat":37.23323,"lng":-82.70854,"zip":"41825","miles_from_dt":28.07},{"city":"Lynch","state_name":"Kentucky","lat":36.94931,"lng":-82.89836,"zip":"40855","miles_from_dt":28.12},{"city":"Hi Hat","state_name":"Kentucky","lat":37.39772,"lng":-82.73087,"zip":"41636","miles_from_dt":28.17},{"city":"Eolia","state_name":"Kentucky","lat":37.05637,"lng":-82.7783,"zip":"40826","miles_from_dt":28.22},{"city":"Ages Brookside","state_name":"Kentucky","lat":36.85692,"lng":-83.25493,"zip":"40801","miles_from_dt":28.44},{"city":"Beverly","state_name":"Kentucky","lat":36.94986,"lng":-83.54367,"zip":"40913","miles_from_dt":28.45},{"city":"Weeksbury","state_name":"Kentucky","lat":37.31138,"lng":-82.69881,"zip":"41667","miles_from_dt":28.65},{"city":"David","state_name":"Kentucky","lat":37.58522,"lng":-82.87847,"zip":"41616","miles_from_dt":28.68},{"city":"Kenvir","state_name":"Kentucky","lat":36.85281,"lng":-83.15798,"zip":"40847","miles_from_dt":28.82},{"city":"Minnie","state_name":"Kentucky","lat":37.46716,"lng":-82.75527,"zip":"41651","miles_from_dt":28.83},{"city":"Goose Rock","state_name":"Kentucky","lat":37.09008,"lng":-83.69306,"zip":"40944","miles_from_dt":29.05},{"city":"Langley","state_name":"Kentucky","lat":37.52872,"lng":-82.79294,"zip":"41645","miles_from_dt":29.4},{"city":"McDowell","state_name":"Kentucky","lat":37.43056,"lng":-82.71737,"zip":"41647","miles_from_dt":29.65},{"city":"Melvin","state_name":"Kentucky","lat":37.34722,"lng":-82.68166,"zip":"41650","miles_from_dt":29.93}],"targetCityZipCode":"41729","targetCityState":"Kentucky"},"__N_SSG":true}