{"pageProps":{"stateName":"Kentucky","cityName":"eighty-eight","nearbyCities":[{"city":"Summer Shade","state_name":"Kentucky","lat":36.87768,"lng":-85.71503,"zip":"42166","miles_from_dt":4.66},{"city":"Glasgow","state_name":"Kentucky","lat":36.94883,"lng":-85.91489,"zip":"42141","miles_from_dt":7.79},{"city":"Beaumont","state_name":"Kentucky","lat":36.86534,"lng":-85.64817,"zip":"42124","miles_from_dt":8.2},{"city":"Glasgow","state_name":"Kentucky","lat":36.99761,"lng":-85.9063,"zip":"42142","miles_from_dt":8.79},{"city":"Knob Lick","state_name":"Kentucky","lat":37.04876,"lng":-85.72421,"zip":"42154","miles_from_dt":9.21},{"city":"Mount Hermon","state_name":"Kentucky","lat":36.78872,"lng":-85.8187,"zip":"42157","miles_from_dt":9.49},{"city":"Etoile","state_name":"Kentucky","lat":36.82734,"lng":-85.90915,"zip":"42131","miles_from_dt":9.78},{"city":"Edmonton","state_name":"Kentucky","lat":36.99,"lng":-85.58992,"zip":"42129","miles_from_dt":11.41},{"city":"Hiseville","state_name":"Kentucky","lat":37.09871,"lng":-85.81184,"zip":"42152","miles_from_dt":12.3},{"city":"Austin","state_name":"Kentucky","lat":36.82039,"lng":-85.99573,"zip":"42123","miles_from_dt":13.96},{"city":"Tompkinsville","state_name":"Kentucky","lat":36.72432,"lng":-85.66998,"zip":"42167","miles_from_dt":14.92},{"city":"Center","state_name":"Kentucky","lat":37.13428,"lng":-85.68822,"zip":"42214","miles_from_dt":15.43},{"city":"Lucas","state_name":"Kentucky","lat":36.85947,"lng":-86.04952,"zip":"42156","miles_from_dt":15.64},{"city":"Marrowbone","state_name":"Kentucky","lat":36.82909,"lng":-85.51334,"zip":"42759","miles_from_dt":16.02},{"city":"Cave City","state_name":"Kentucky","lat":37.12167,"lng":-85.92746,"zip":"42127","miles_from_dt":16.03},{"city":"Fountain Run","state_name":"Kentucky","lat":36.72248,"lng":-85.95468,"zip":"42133","miles_from_dt":16.91},{"city":"Gamaliel","state_name":"Kentucky","lat":36.65549,"lng":-85.83108,"zip":"42140","miles_from_dt":18.64},{"city":"Horse Cave","state_name":"Kentucky","lat":37.18983,"lng":-85.87516,"zip":"42749","miles_from_dt":19.21},{"city":"Gradyville","state_name":"Kentucky","lat":37.07774,"lng":-85.47888,"zip":"42742","miles_from_dt":19.72},{"city":"Hardyville","state_name":"Kentucky","lat":37.21233,"lng":-85.73304,"zip":"42746","miles_from_dt":20.15},{"city":"Breeding","state_name":"Kentucky","lat":36.94352,"lng":-85.4134,"zip":"42715","miles_from_dt":20.24},{"city":"Park City","state_name":"Kentucky","lat":37.10339,"lng":-86.08035,"zip":"42160","miles_from_dt":20.86},{"city":"Holland","state_name":"Kentucky","lat":36.68006,"lng":-86.04234,"zip":"42153","miles_from_dt":22.22},{"city":"Hestand","state_name":"Kentucky","lat":36.64848,"lng":-85.56058,"zip":"42151","miles_from_dt":22.41},{"city":"Rocky Hill","state_name":"Kentucky","lat":37.07968,"lng":-86.13466,"zip":"42163","miles_from_dt":22.5},{"city":"Smiths Grove","state_name":"Kentucky","lat":37.03609,"lng":-86.16728,"zip":"42171","miles_from_dt":22.91},{"city":"Burkesville","state_name":"Kentucky","lat":36.78169,"lng":-85.38331,"zip":"42717","miles_from_dt":23.94},{"city":"Canmer","state_name":"Kentucky","lat":37.27628,"lng":-85.71703,"zip":"42722","miles_from_dt":24.64},{"city":"Scottsville","state_name":"Kentucky","lat":36.7704,"lng":-86.18096,"zip":"42164","miles_from_dt":24.66},{"city":"Greensburg","state_name":"Kentucky","lat":37.22958,"lng":-85.53175,"zip":"42743","miles_from_dt":25.18},{"city":"Red Boiling Springs","state_name":"Tennessee","lat":36.54437,"lng":-85.81082,"zip":"37150","miles_from_dt":26.13},{"city":"Moss","state_name":"Tennessee","lat":36.55848,"lng":-85.63515,"zip":"38575","miles_from_dt":26.32},{"city":"Oakland","state_name":"Kentucky","lat":36.99594,"lng":-86.24771,"zip":"42159","miles_from_dt":26.47},{"city":"Munfordville","state_name":"Kentucky","lat":37.30699,"lng":-85.93115,"zip":"42765","miles_from_dt":27.83},{"city":"Lafayette","state_name":"Tennessee","lat":36.54357,"lng":-86.00149,"zip":"37083","miles_from_dt":28.91},{"city":"Glens Fork","state_name":"Kentucky","lat":36.9888,"lng":-85.25183,"zip":"42741","miles_from_dt":29.49},{"city":"Celina","state_name":"Tennessee","lat":36.55804,"lng":-85.48699,"zip":"38551","miles_from_dt":29.87},{"city":"Columbia","state_name":"Kentucky","lat":37.10943,"lng":-85.28873,"zip":"42728","miles_from_dt":29.98}],"targetCityZipCode":"42130","targetCityState":"Kentucky"},"__N_SSG":true}