{"pageProps":{"stateName":"Kentucky","cityName":"hyden","nearbyCities":[{"city":"Thousandsticks","state_name":"Kentucky","lat":37.18526,"lng":-83.44443,"zip":"41766","miles_from_dt":1.47},{"city":"Sizerock","state_name":"Kentucky","lat":37.20742,"lng":-83.50077,"zip":"41762","miles_from_dt":4.56},{"city":"Bear Branch","state_name":"Kentucky","lat":37.16519,"lng":-83.5075,"zip":"41714","miles_from_dt":5.22},{"city":"Saul","state_name":"Kentucky","lat":37.27792,"lng":-83.48531,"zip":"40981","miles_from_dt":6.84},{"city":"Stinnett","state_name":"Kentucky","lat":37.09367,"lng":-83.41638,"zip":"40868","miles_from_dt":6.9},{"city":"Busy","state_name":"Kentucky","lat":37.25469,"lng":-83.31409,"zip":"41723","miles_from_dt":7.2},{"city":"Yerkes","state_name":"Kentucky","lat":37.26612,"lng":-83.3223,"zip":"41778","miles_from_dt":7.34},{"city":"Wooton","state_name":"Kentucky","lat":37.15933,"lng":-83.28158,"zip":"41776","miles_from_dt":7.99},{"city":"Wendover","state_name":"Kentucky","lat":37.09373,"lng":-83.34207,"zip":"41775","miles_from_dt":8.12},{"city":"Avawam","state_name":"Kentucky","lat":37.22703,"lng":-83.27799,"zip":"41713","miles_from_dt":8.16},{"city":"Krypton","state_name":"Kentucky","lat":37.30025,"lng":-83.32459,"zip":"41754","miles_from_dt":9.04},{"city":"Buckhorn","state_name":"Kentucky","lat":37.31371,"lng":-83.49949,"zip":"41721","miles_from_dt":9.37},{"city":"Smilax","state_name":"Kentucky","lat":37.12924,"lng":-83.25545,"zip":"41764","miles_from_dt":10.1},{"city":"Essie","state_name":"Kentucky","lat":37.05208,"lng":-83.47187,"zip":"40827","miles_from_dt":10.18},{"city":"Asher","state_name":"Kentucky","lat":37.04572,"lng":-83.42185,"zip":"40803","miles_from_dt":10.2},{"city":"Hoskinston","state_name":"Kentucky","lat":37.05506,"lng":-83.35406,"zip":"40844","miles_from_dt":10.22},{"city":"Gays Creek","state_name":"Kentucky","lat":37.34449,"lng":-83.42848,"zip":"41745","miles_from_dt":10.41},{"city":"Big Creek","state_name":"Kentucky","lat":37.0932,"lng":-83.56154,"zip":"40914","miles_from_dt":10.45},{"city":"Oneida","state_name":"Kentucky","lat":37.24501,"lng":-83.60692,"zip":"40972","miles_from_dt":10.91},{"city":"Bonnyman","state_name":"Kentucky","lat":37.29727,"lng":-83.24526,"zip":"41719","miles_from_dt":11.99},{"city":"Mozelle","state_name":"Kentucky","lat":37.01592,"lng":-83.40106,"zip":"40858","miles_from_dt":12.3},{"city":"Combs","state_name":"Kentucky","lat":37.2681,"lng":-83.2159,"zip":"41729","miles_from_dt":12.37},{"city":"Chavies","state_name":"Kentucky","lat":37.35624,"lng":-83.32352,"zip":"41727","miles_from_dt":12.41},{"city":"Chappell","state_name":"Kentucky","lat":37.00879,"lng":-83.3667,"zip":"40816","miles_from_dt":13.08},{"city":"Hazard","state_name":"Kentucky","lat":37.2494,"lng":-83.19137,"zip":"41702","miles_from_dt":13.18},{"city":"Mistletoe","state_name":"Kentucky","lat":37.32754,"lng":-83.59363,"zip":"41351","miles_from_dt":13.3},{"city":"Roark","state_name":"Kentucky","lat":37.00491,"lng":-83.495,"zip":"40979","miles_from_dt":13.66},{"city":"Yeaddiss","state_name":"Kentucky","lat":37.06022,"lng":-83.23276,"zip":"41777","miles_from_dt":13.84},{"city":"Hazard","state_name":"Kentucky","lat":37.29778,"lng":-83.18781,"zip":"41701","miles_from_dt":14.67},{"city":"Warbranch","state_name":"Kentucky","lat":36.98407,"lng":-83.47345,"zip":"40874","miles_from_dt":14.75},{"city":"Big Laurel","state_name":"Kentucky","lat":36.9995,"lng":-83.2801,"zip":"40808","miles_from_dt":15.46},{"city":"Whick","state_name":"Kentucky","lat":37.41872,"lng":-83.3792,"zip":"41390","miles_from_dt":15.68},{"city":"Viper","state_name":"Kentucky","lat":37.15512,"lng":-83.13847,"zip":"41774","miles_from_dt":15.76},{"city":"Jeff","state_name":"Kentucky","lat":37.2196,"lng":-83.12659,"zip":"41751","miles_from_dt":16.28},{"city":"Goose Rock","state_name":"Kentucky","lat":37.09008,"lng":-83.69306,"zip":"40944","miles_from_dt":16.69},{"city":"Lost Creek","state_name":"Kentucky","lat":37.42577,"lng":-83.31387,"zip":"41348","miles_from_dt":17.04},{"city":"Helton","state_name":"Kentucky","lat":36.9457,"lng":-83.41854,"zip":"40840","miles_from_dt":17.1},{"city":"Dice","state_name":"Kentucky","lat":37.37707,"lng":-83.20839,"zip":"41736","miles_from_dt":17.2},{"city":"Ricetown","state_name":"Kentucky","lat":37.37569,"lng":-83.64172,"zip":"41364","miles_from_dt":17.52},{"city":"Happy","state_name":"Kentucky","lat":37.21574,"lng":-83.09779,"zip":"41746","miles_from_dt":17.83},{"city":"Rowdy","state_name":"Kentucky","lat":37.4045,"lng":-83.23218,"zip":"41367","miles_from_dt":17.84},{"city":"Beverly","state_name":"Kentucky","lat":36.94986,"lng":-83.54367,"zip":"40913","miles_from_dt":18.15},{"city":"Scuddy","state_name":"Kentucky","lat":37.19456,"lng":-83.08588,"zip":"41760","miles_from_dt":18.43},{"city":"Manchester","state_name":"Kentucky","lat":37.14912,"lng":-83.74922,"zip":"40962","miles_from_dt":18.43},{"city":"Dwarf","state_name":"Kentucky","lat":37.32596,"lng":-83.12802,"zip":"41739","miles_from_dt":18.5},{"city":"Garrard","state_name":"Kentucky","lat":37.12981,"lng":-83.74585,"zip":"40941","miles_from_dt":18.52},{"city":"Slemp","state_name":"Kentucky","lat":37.05439,"lng":-83.12157,"zip":"41763","miles_from_dt":19.07},{"city":"Bledsoe","state_name":"Kentucky","lat":36.93176,"lng":-83.30451,"zip":"40810","miles_from_dt":19.15},{"city":"Cornettsville","state_name":"Kentucky","lat":37.10312,"lng":-83.08393,"zip":"41731","miles_from_dt":19.57},{"city":"Ary","state_name":"Kentucky","lat":37.3744,"lng":-83.13751,"zip":"41712","miles_from_dt":19.94},{"city":"Hima","state_name":"Kentucky","lat":37.11844,"lng":-83.77473,"zip":"40951","miles_from_dt":20.26},{"city":"Fall Rock","state_name":"Kentucky","lat":37.21991,"lng":-83.78907,"zip":"40932","miles_from_dt":20.44},{"city":"Fisty","state_name":"Kentucky","lat":37.35498,"lng":-83.1045,"zip":"41743","miles_from_dt":20.64},{"city":"Booneville","state_name":"Kentucky","lat":37.44008,"lng":-83.63743,"zip":"41314","miles_from_dt":20.79},{"city":"Sextons Creek","state_name":"Kentucky","lat":37.34608,"lng":-83.75339,"zip":"40983","miles_from_dt":21.17},{"city":"Delphia","state_name":"Kentucky","lat":37.01793,"lng":-83.09963,"zip":"41735","miles_from_dt":21.44},{"city":"Sassafras","state_name":"Kentucky","lat":37.23211,"lng":-83.02521,"zip":"41759","miles_from_dt":21.93},{"city":"Clayhole","state_name":"Kentucky","lat":37.46029,"lng":-83.19851,"zip":"41317","miles_from_dt":22.06},{"city":"Putney","state_name":"Kentucky","lat":36.91637,"lng":-83.21804,"zip":"40865","miles_from_dt":22.14},{"city":"Vicco","state_name":"Kentucky","lat":37.23534,"lng":-83.01721,"zip":"41773","miles_from_dt":22.4},{"city":"Baxter","state_name":"Kentucky","lat":36.88595,"lng":-83.2881,"zip":"40806","miles_from_dt":22.43},{"city":"Bulan","state_name":"Kentucky","lat":37.40441,"lng":-83.10329,"zip":"41722","miles_from_dt":22.7},{"city":"Carrie","state_name":"Kentucky","lat":37.31667,"lng":-83.03244,"zip":"41725","miles_from_dt":22.98},{"city":"Emmalena","state_name":"Kentucky","lat":37.35649,"lng":-83.0467,"zip":"41740","miles_from_dt":23.43},{"city":"Totz","state_name":"Kentucky","lat":36.93211,"lng":-83.14858,"zip":"40870","miles_from_dt":23.45},{"city":"Gordon","state_name":"Kentucky","lat":36.99191,"lng":-83.07788,"zip":"41819","miles_from_dt":23.46},{"city":"Scalf","state_name":"Kentucky","lat":36.93241,"lng":-83.69421,"zip":"40982","miles_from_dt":23.54},{"city":"Stoney Fork","state_name":"Kentucky","lat":36.85928,"lng":-83.52838,"zip":"40988","miles_from_dt":23.82},{"city":"Blackey","state_name":"Kentucky","lat":37.14923,"lng":-82.98993,"zip":"41804","miles_from_dt":23.92},{"city":"Loyall","state_name":"Kentucky","lat":36.84664,"lng":-83.35634,"zip":"40854","miles_from_dt":24.19},{"city":"Hallie","state_name":"Kentucky","lat":37.07563,"lng":-83.00711,"zip":"41821","miles_from_dt":24.2},{"city":"Jackson","state_name":"Kentucky","lat":37.53158,"lng":-83.29231,"zip":"41339","miles_from_dt":24.34},{"city":"Ages Brookside","state_name":"Kentucky","lat":36.85692,"lng":-83.25493,"zip":"40801","miles_from_dt":24.95},{"city":"Flat Lick","state_name":"Kentucky","lat":36.91107,"lng":-83.71264,"zip":"40935","miles_from_dt":25.33},{"city":"Redfox","state_name":"Kentucky","lat":37.20823,"lng":-82.95961,"zip":"41847","miles_from_dt":25.41},{"city":"Lone","state_name":"Kentucky","lat":37.53286,"lng":-83.60177,"zip":"41347","miles_from_dt":25.45},{"city":"Dayhoit","state_name":"Kentucky","lat":36.82489,"lng":-83.37221,"zip":"40824","miles_from_dt":25.56},{"city":"Walker","state_name":"Kentucky","lat":36.88348,"lng":-83.67711,"zip":"40997","miles_from_dt":25.68},{"city":"Lejunior","state_name":"Kentucky","lat":36.89941,"lng":-83.13469,"zip":"40849","miles_from_dt":25.69},{"city":"Letcher","state_name":"Kentucky","lat":37.15286,"lng":-82.9548,"zip":"41832","miles_from_dt":25.82},{"city":"Hindman","state_name":"Kentucky","lat":37.31991,"lng":-82.97848,"zip":"41822","miles_from_dt":25.84},{"city":"Wallins Creek","state_name":"Kentucky","lat":36.81541,"lng":-83.40411,"zip":"40873","miles_from_dt":26.1},{"city":"Arjay","state_name":"Kentucky","lat":36.84824,"lng":-83.62435,"zip":"40902","miles_from_dt":26.36},{"city":"Coldiron","state_name":"Kentucky","lat":36.81025,"lng":-83.46242,"zip":"40819","miles_from_dt":26.54},{"city":"Littcarr","state_name":"Kentucky","lat":37.26585,"lng":-82.94661,"zip":"41834","miles_from_dt":26.57},{"city":"Vest","state_name":"Kentucky","lat":37.4075,"lng":-83.01679,"zip":"41772","miles_from_dt":26.66},{"city":"Evarts","state_name":"Kentucky","lat":36.87107,"lng":-83.14868,"zip":"40828","miles_from_dt":26.83},{"city":"Roxana","state_name":"Kentucky","lat":37.11491,"lng":-82.94384,"zip":"41848","miles_from_dt":26.83},{"city":"Linefork","state_name":"Kentucky","lat":37.02919,"lng":-82.97323,"zip":"41833","miles_from_dt":27.15},{"city":"Tyner","state_name":"Kentucky","lat":37.37238,"lng":-83.86123,"zip":"40486","miles_from_dt":27.26},{"city":"Hinkle","state_name":"Kentucky","lat":36.93771,"lng":-83.80163,"zip":"40953","miles_from_dt":27.5},{"city":"Coalgood","state_name":"Kentucky","lat":36.82003,"lng":-83.2442,"zip":"40818","miles_from_dt":27.54},{"city":"Jeremiah","state_name":"Kentucky","lat":37.17348,"lng":-82.92115,"zip":"41826","miles_from_dt":27.55},{"city":"Kenvir","state_name":"Kentucky","lat":36.85281,"lng":-83.15798,"zip":"40847","miles_from_dt":27.61},{"city":"Green Road","state_name":"Kentucky","lat":36.95757,"lng":-83.82467,"zip":"40946","miles_from_dt":27.66},{"city":"Hulen","state_name":"Kentucky","lat":36.79899,"lng":-83.51755,"zip":"40845","miles_from_dt":27.75},{"city":"Dewitt","state_name":"Kentucky","lat":36.87096,"lng":-83.72905,"zip":"40930","miles_from_dt":28.06},{"city":"Grays Knob","state_name":"Kentucky","lat":36.798,"lng":-83.29655,"zip":"40829","miles_from_dt":28.12},{"city":"Kettle Island","state_name":"Kentucky","lat":36.8088,"lng":-83.5878,"zip":"40958","miles_from_dt":28.12},{"city":"Vincent","state_name":"Kentucky","lat":37.47992,"lng":-83.79273,"zip":"41386","miles_from_dt":28.48},{"city":"Mallie","state_name":"Kentucky","lat":37.25839,"lng":-82.90887,"zip":"41836","miles_from_dt":28.53},{"city":"Mary Alice","state_name":"Kentucky","lat":36.78264,"lng":-83.33763,"zip":"40964","miles_from_dt":28.7},{"city":"Premium","state_name":"Kentucky","lat":37.1396,"lng":-82.90301,"zip":"41845","miles_from_dt":28.77},{"city":"Cumberland","state_name":"Kentucky","lat":36.95664,"lng":-82.98864,"zip":"40823","miles_from_dt":28.9},{"city":"Gulston","state_name":"Kentucky","lat":36.77644,"lng":-83.33114,"zip":"40830","miles_from_dt":29.19},{"city":"Girdler","state_name":"Kentucky","lat":36.95494,"lng":-83.85631,"zip":"40943","miles_from_dt":29.2},{"city":"Leburn","state_name":"Kentucky","lat":37.38531,"lng":-82.94633,"zip":"41831","miles_from_dt":29.25},{"city":"Saint Helens","state_name":"Kentucky","lat":37.57933,"lng":-83.64406,"zip":"41368","miles_from_dt":29.32},{"city":"Isom","state_name":"Kentucky","lat":37.18771,"lng":-82.88015,"zip":"41824","miles_from_dt":29.78},{"city":"Closplint","state_name":"Kentucky","lat":36.89081,"lng":-83.03445,"zip":"40927","miles_from_dt":29.83},{"city":"Cawood","state_name":"Kentucky","lat":36.7876,"lng":-83.22876,"zip":"40815","miles_from_dt":29.93},{"city":"Harlan","state_name":"Kentucky","lat":36.76457,"lng":-83.33454,"zip":"40831","miles_from_dt":29.96}],"targetCityZipCode":"41749","targetCityState":"Kentucky"},"__N_SSG":true}