{"pageProps":{"stateName":"Kentucky","cityName":"irvine","nearbyCities":[{"city":"Ravenna","state_name":"Kentucky","lat":37.71841,"lng":-83.87562,"zip":"40472","miles_from_dt":6.37},{"city":"Waco","state_name":"Kentucky","lat":37.73866,"lng":-84.13085,"zip":"40385","miles_from_dt":8.94},{"city":"Clay City","state_name":"Kentucky","lat":37.84386,"lng":-83.93013,"zip":"40312","miles_from_dt":11.43},{"city":"Stanton","state_name":"Kentucky","lat":37.81965,"lng":-83.78006,"zip":"40380","miles_from_dt":14.56},{"city":"Waneta","state_name":"Kentucky","lat":37.47481,"lng":-84.03829,"zip":"40488","miles_from_dt":14.71},{"city":"Bighill","state_name":"Kentucky","lat":37.55775,"lng":-84.20809,"zip":"40405","miles_from_dt":15.08},{"city":"McKee","state_name":"Kentucky","lat":37.45496,"lng":-84.0299,"zip":"40447","miles_from_dt":15.97},{"city":"Beattyville","state_name":"Kentucky","lat":37.57896,"lng":-83.72163,"zip":"41311","miles_from_dt":16.06},{"city":"Zoe","state_name":"Kentucky","lat":37.66683,"lng":-83.67709,"zip":"41397","miles_from_dt":16.82},{"city":"Slade","state_name":"Kentucky","lat":37.7839,"lng":-83.69604,"zip":"40376","miles_from_dt":17.18},{"city":"Berea","state_name":"Kentucky","lat":37.57052,"lng":-84.26622,"zip":"40403","miles_from_dt":17.37},{"city":"Vincent","state_name":"Kentucky","lat":37.47992,"lng":-83.79273,"zip":"41386","miles_from_dt":17.51},{"city":"Richmond","state_name":"Kentucky","lat":37.74898,"lng":-84.29351,"zip":"40476","miles_from_dt":17.59},{"city":"Berea","state_name":"Kentucky","lat":37.57311,"lng":-84.29037,"zip":"40404","miles_from_dt":18.49},{"city":"Richmond","state_name":"Kentucky","lat":37.7635,"lng":-84.30828,"zip":"40475","miles_from_dt":18.64},{"city":"Sandgap","state_name":"Kentucky","lat":37.42658,"lng":-84.09116,"zip":"40481","miles_from_dt":18.68},{"city":"Rogers","state_name":"Kentucky","lat":37.71117,"lng":-83.62663,"zip":"41365","miles_from_dt":19.63},{"city":"Jeffersonville","state_name":"Kentucky","lat":37.95286,"lng":-83.85644,"zip":"40337","miles_from_dt":19.83},{"city":"Saint Helens","state_name":"Kentucky","lat":37.57933,"lng":-83.64406,"zip":"41368","miles_from_dt":19.94},{"city":"Gray Hawk","state_name":"Kentucky","lat":37.39364,"lng":-83.93949,"zip":"40434","miles_from_dt":20.14},{"city":"Pine Ridge","state_name":"Kentucky","lat":37.78889,"lng":-83.6264,"zip":"41360","miles_from_dt":20.85},{"city":"Winchester","state_name":"Kentucky","lat":37.96969,"lng":-84.14507,"zip":"40391","miles_from_dt":21.63},{"city":"Tyner","state_name":"Kentucky","lat":37.37238,"lng":-83.86123,"zip":"40486","miles_from_dt":22.48},{"city":"Lone","state_name":"Kentucky","lat":37.53286,"lng":-83.60177,"zip":"41347","miles_from_dt":23.36},{"city":"Winchester","state_name":"Kentucky","lat":37.98845,"lng":-84.17849,"zip":"40392","miles_from_dt":23.59},{"city":"Paint Lick","state_name":"Kentucky","lat":37.59014,"lng":-84.40849,"zip":"40461","miles_from_dt":24.2},{"city":"Orlando","state_name":"Kentucky","lat":37.39385,"lng":-84.23985,"zip":"40460","miles_from_dt":24.45},{"city":"Means","state_name":"Kentucky","lat":37.98339,"lng":-83.74384,"zip":"40346","miles_from_dt":24.48},{"city":"Wildie","state_name":"Kentucky","lat":37.42057,"lng":-84.2997,"zip":"40492","miles_from_dt":25.12},{"city":"Booneville","state_name":"Kentucky","lat":37.44008,"lng":-83.63743,"zip":"41314","miles_from_dt":25.34},{"city":"Frenchburg","state_name":"Kentucky","lat":37.93367,"lng":-83.63329,"zip":"40322","miles_from_dt":25.77},{"city":"Mount Sterling","state_name":"Kentucky","lat":38.06514,"lng":-83.94853,"zip":"40353","miles_from_dt":26.39},{"city":"Sextons Creek","state_name":"Kentucky","lat":37.34608,"lng":-83.75339,"zip":"40983","miles_from_dt":26.48},{"city":"Hope","state_name":"Kentucky","lat":38.0197,"lng":-83.74943,"zip":"40334","miles_from_dt":26.48},{"city":"Annville","state_name":"Kentucky","lat":37.29663,"lng":-83.97008,"zip":"40402","miles_from_dt":26.69},{"city":"Campton","state_name":"Kentucky","lat":37.72121,"lng":-83.48941,"zip":"41301","miles_from_dt":27.18},{"city":"Renfro Valley","state_name":"Kentucky","lat":37.38853,"lng":-84.33044,"zip":"40473","miles_from_dt":27.88},{"city":"Ricetown","state_name":"Kentucky","lat":37.37569,"lng":-83.64172,"zip":"41364","miles_from_dt":28.33},{"city":"Livingston","state_name":"Kentucky","lat":37.3125,"lng":-84.21159,"zip":"40445","miles_from_dt":28.5},{"city":"Lexington","state_name":"Kentucky","lat":37.92021,"lng":-84.4152,"zip":"40515","miles_from_dt":28.73},{"city":"Mount Vernon","state_name":"Kentucky","lat":37.3538,"lng":-84.32099,"zip":"40456","miles_from_dt":29.35}],"targetCityZipCode":"40336","targetCityState":"Kentucky"},"__N_SSG":true}