{"pageProps":{"stateName":"Kentucky","cityName":"kirksey","nearbyCities":[{"city":"Farmington","state_name":"Kentucky","lat":36.62454,"lng":-88.50371,"zip":"42040","miles_from_dt":7.55},{"city":"Almo","state_name":"Kentucky","lat":36.68913,"lng":-88.29145,"zip":"42020","miles_from_dt":8.02},{"city":"Murray","state_name":"Kentucky","lat":36.62139,"lng":-88.28291,"zip":"42071","miles_from_dt":10.58},{"city":"Benton","state_name":"Kentucky","lat":36.85764,"lng":-88.33441,"zip":"42025","miles_from_dt":11.07},{"city":"Dexter","state_name":"Kentucky","lat":36.72246,"lng":-88.23048,"zip":"42036","miles_from_dt":11.16},{"city":"Hardin","state_name":"Kentucky","lat":36.76676,"lng":-88.23533,"zip":"42048","miles_from_dt":11.41},{"city":"Mayfield","state_name":"Kentucky","lat":36.73328,"lng":-88.6403,"zip":"42066","miles_from_dt":11.64},{"city":"Lynnville","state_name":"Kentucky","lat":36.55928,"lng":-88.56838,"zip":"42063","miles_from_dt":13.29},{"city":"Sedalia","state_name":"Kentucky","lat":36.55978,"lng":-88.57611,"zip":"42079","miles_from_dt":13.51},{"city":"Symsonia","state_name":"Kentucky","lat":36.91618,"lng":-88.50092,"zip":"42082","miles_from_dt":14.24},{"city":"Hazel","state_name":"Kentucky","lat":36.51874,"lng":-88.31828,"zip":"42049","miles_from_dt":15.07},{"city":"Hickory","state_name":"Kentucky","lat":36.85629,"lng":-88.64522,"zip":"42051","miles_from_dt":15.24},{"city":"Boaz","state_name":"Kentucky","lat":36.91585,"lng":-88.63018,"zip":"42027","miles_from_dt":17.57},{"city":"Gilbertsville","state_name":"Kentucky","lat":36.95744,"lng":-88.26417,"zip":"42044","miles_from_dt":18.98},{"city":"Wingo","state_name":"Kentucky","lat":36.61808,"lng":-88.75409,"zip":"42088","miles_from_dt":19.18},{"city":"Puryear","state_name":"Tennessee","lat":36.44636,"lng":-88.3539,"zip":"38251","miles_from_dt":19.18},{"city":"Calvert City","state_name":"Kentucky","lat":37.00963,"lng":-88.38947,"zip":"42029","miles_from_dt":20.29},{"city":"Dukedom","state_name":"Tennessee","lat":36.47722,"lng":-88.66382,"zip":"38226","miles_from_dt":21},{"city":"New Concord","state_name":"Kentucky","lat":36.55906,"lng":-88.09473,"zip":"42076","miles_from_dt":21.66},{"city":"Paducah","state_name":"Kentucky","lat":37.00653,"lng":-88.58472,"zip":"42003","miles_from_dt":21.67},{"city":"Palmersville","state_name":"Tennessee","lat":36.42852,"lng":-88.58964,"zip":"38241","miles_from_dt":21.77},{"city":"Lowes","state_name":"Kentucky","lat":36.88262,"lng":-88.76959,"zip":"42061","miles_from_dt":21.94},{"city":"Fancy Farm","state_name":"Kentucky","lat":36.78535,"lng":-88.82809,"zip":"42039","miles_from_dt":22.5},{"city":"Cottage Grove","state_name":"Tennessee","lat":36.39172,"lng":-88.48774,"zip":"38224","miles_from_dt":22.67},{"city":"Water Valley","state_name":"Kentucky","lat":36.56942,"lng":-88.80044,"zip":"42085","miles_from_dt":22.9},{"city":"Melber","state_name":"Kentucky","lat":36.92328,"lng":-88.75828,"zip":"42069","miles_from_dt":23.02},{"city":"Ledbetter","state_name":"Kentucky","lat":37.05329,"lng":-88.4714,"zip":"42058","miles_from_dt":23.27},{"city":"Buchanan","state_name":"Tennessee","lat":36.44512,"lng":-88.16288,"zip":"38222","miles_from_dt":23.99},{"city":"Como","state_name":"Tennessee","lat":36.35779,"lng":-88.4638,"zip":"38223","miles_from_dt":24.86},{"city":"Cunningham","state_name":"Kentucky","lat":36.90392,"lng":-88.83674,"zip":"42035","miles_from_dt":25.89},{"city":"Grand Rivers","state_name":"Kentucky","lat":37.072,"lng":-88.26453,"zip":"42045","miles_from_dt":26.15},{"city":"Milburn","state_name":"Kentucky","lat":36.79794,"lng":-88.89766,"zip":"42070","miles_from_dt":26.46},{"city":"Paducah","state_name":"Kentucky","lat":37.06855,"lng":-88.62494,"zip":"42002","miles_from_dt":26.48},{"city":"Paducah","state_name":"Kentucky","lat":37.03317,"lng":-88.7135,"zip":"42001","miles_from_dt":26.8},{"city":"Fulton","state_name":"Kentucky","lat":36.54593,"lng":-88.87456,"zip":"42041","miles_from_dt":27.31},{"city":"Lovelaceville","state_name":"Kentucky","lat":36.96385,"lng":-88.82778,"zip":"42060","miles_from_dt":27.77},{"city":"Kuttawa","state_name":"Kentucky","lat":37.06959,"lng":-88.16765,"zip":"42055","miles_from_dt":28.35},{"city":"Paris","state_name":"Tennessee","lat":36.3076,"lng":-88.33244,"zip":"38242","miles_from_dt":28.79}],"targetCityZipCode":"42054","targetCityState":"Kentucky"},"__N_SSG":true}