{"pageProps":{"stateName":"Kentucky","cityName":"leitchfield","nearbyCities":[{"city":"Leitchfield","state_name":"Kentucky","lat":37.47843,"lng":-86.29141,"zip":"42755","miles_from_dt":1.23},{"city":"Millwood","state_name":"Kentucky","lat":37.45366,"lng":-86.39527,"zip":"42762","miles_from_dt":4.79},{"city":"Clarkson","state_name":"Kentucky","lat":37.42423,"lng":-86.15035,"zip":"42726","miles_from_dt":9.72},{"city":"Big Clifty","state_name":"Kentucky","lat":37.56098,"lng":-86.15791,"zip":"42712","miles_from_dt":10.29},{"city":"Caneyville","state_name":"Kentucky","lat":37.42173,"lng":-86.49593,"zip":"42721","miles_from_dt":10.74},{"city":"Hudson","state_name":"Kentucky","lat":37.64607,"lng":-86.32019,"zip":"40145","miles_from_dt":11.59},{"city":"McDaniels","state_name":"Kentucky","lat":37.61389,"lng":-86.44185,"zip":"40152","miles_from_dt":11.71},{"city":"Bee Spring","state_name":"Kentucky","lat":37.30357,"lng":-86.27858,"zip":"42207","miles_from_dt":12.19},{"city":"Westview","state_name":"Kentucky","lat":37.65834,"lng":-86.40853,"zip":"40178","miles_from_dt":13.47},{"city":"Eastview","state_name":"Kentucky","lat":37.61,"lng":-86.11235,"zip":"42732","miles_from_dt":14.32},{"city":"Sweeden","state_name":"Kentucky","lat":37.26418,"lng":-86.29751,"zip":"42285","miles_from_dt":14.78},{"city":"White Mills","state_name":"Kentucky","lat":37.52774,"lng":-86.0372,"zip":"42788","miles_from_dt":15.58},{"city":"Falls Of Rough","state_name":"Kentucky","lat":37.60799,"lng":-86.54925,"zip":"40119","miles_from_dt":15.73},{"city":"Garfield","state_name":"Kentucky","lat":37.71867,"lng":-86.29047,"zip":"40140","miles_from_dt":16.64},{"city":"Cub Run","state_name":"Kentucky","lat":37.30167,"lng":-86.09719,"zip":"42729","miles_from_dt":17.03},{"city":"Brownsville","state_name":"Kentucky","lat":37.21724,"lng":-86.31438,"zip":"42210","miles_from_dt":17.99},{"city":"Mammoth Cave","state_name":"Kentucky","lat":37.23524,"lng":-86.17206,"zip":"42259","miles_from_dt":18.48},{"city":"Custer","state_name":"Kentucky","lat":37.73784,"lng":-86.22707,"zip":"40115","miles_from_dt":18.53},{"city":"Roundhill","state_name":"Kentucky","lat":37.22701,"lng":-86.44628,"zip":"42275","miles_from_dt":18.79},{"city":"Cecilia","state_name":"Kentucky","lat":37.67293,"lng":-86.06461,"zip":"42724","miles_from_dt":19.17},{"city":"McQuady","state_name":"Kentucky","lat":37.70793,"lng":-86.52117,"zip":"40153","miles_from_dt":19.51},{"city":"Jetson","state_name":"Kentucky","lat":37.23713,"lng":-86.50029,"zip":"42252","miles_from_dt":19.54},{"city":"Harned","state_name":"Kentucky","lat":37.75899,"lng":-86.37732,"zip":"40144","miles_from_dt":19.68},{"city":"Horse Branch","state_name":"Kentucky","lat":37.42695,"lng":-86.67425,"zip":"42349","miles_from_dt":20.13},{"city":"Olaton","state_name":"Kentucky","lat":37.51791,"lng":-86.69183,"zip":"42361","miles_from_dt":20.95},{"city":"Upton","state_name":"Kentucky","lat":37.4503,"lng":-85.92272,"zip":"42784","miles_from_dt":21.58},{"city":"Glendale","state_name":"Kentucky","lat":37.59174,"lng":-85.94358,"zip":"42740","miles_from_dt":21.79},{"city":"Sonora","state_name":"Kentucky","lat":37.51577,"lng":-85.91834,"zip":"42776","miles_from_dt":21.88},{"city":"Rosine","state_name":"Kentucky","lat":37.4497,"lng":-86.74121,"zip":"42370","miles_from_dt":23.58},{"city":"Hardinsburg","state_name":"Kentucky","lat":37.78541,"lng":-86.50507,"zip":"40143","miles_from_dt":23.65},{"city":"Fordsville","state_name":"Kentucky","lat":37.63594,"lng":-86.69795,"zip":"42343","miles_from_dt":23.73},{"city":"Rineyville","state_name":"Kentucky","lat":37.7517,"lng":-86.04394,"zip":"40162","miles_from_dt":23.98},{"city":"Munfordville","state_name":"Kentucky","lat":37.30699,"lng":-85.93115,"zip":"42765","miles_from_dt":24.14},{"city":"Bonnieville","state_name":"Kentucky","lat":37.37631,"lng":-85.88282,"zip":"42713","miles_from_dt":24.72},{"city":"Cromwell","state_name":"Kentucky","lat":37.37718,"lng":-86.75609,"zip":"42333","miles_from_dt":25.3},{"city":"Irvington","state_name":"Kentucky","lat":37.84622,"lng":-86.31954,"zip":"40146","miles_from_dt":25.39},{"city":"Aberdeen","state_name":"Kentucky","lat":37.25362,"lng":-86.68473,"zip":"42201","miles_from_dt":25.62},{"city":"Dundee","state_name":"Kentucky","lat":37.55295,"lng":-86.77408,"zip":"42338","miles_from_dt":25.81},{"city":"Morgantown","state_name":"Kentucky","lat":37.22405,"lng":-86.67015,"zip":"42261","miles_from_dt":26.3},{"city":"Vine Grove","state_name":"Kentucky","lat":37.81907,"lng":-86.08635,"zip":"40175","miles_from_dt":26.62},{"city":"Cloverport","state_name":"Kentucky","lat":37.77881,"lng":-86.62881,"zip":"40111","miles_from_dt":26.99},{"city":"Woodbury","state_name":"Kentucky","lat":37.18172,"lng":-86.6362,"zip":"42288","miles_from_dt":27.08},{"city":"Park City","state_name":"Kentucky","lat":37.10339,"lng":-86.08035,"zip":"42160","miles_from_dt":28.87},{"city":"Guston","state_name":"Kentucky","lat":37.88898,"lng":-86.21095,"zip":"40142","miles_from_dt":28.89},{"city":"Reynolds Station","state_name":"Kentucky","lat":37.71258,"lng":-86.75133,"zip":"42368","miles_from_dt":28.95},{"city":"Elizabethtown","state_name":"Kentucky","lat":37.69406,"lng":-85.86065,"zip":"42702","miles_from_dt":28.99},{"city":"Rocky Hill","state_name":"Kentucky","lat":37.07968,"lng":-86.13466,"zip":"42163","miles_from_dt":29.2},{"city":"Bowling Green","state_name":"Kentucky","lat":37.06552,"lng":-86.47809,"zip":"42101","miles_from_dt":29.86}],"targetCityZipCode":"42754","targetCityState":"Kentucky"},"__N_SSG":true}