{"pageProps":{"stateName":"Kentucky","cityName":"manitou","nearbyCities":[{"city":"Hanson","state_name":"Kentucky","lat":37.44257,"lng":-87.46919,"zip":"42413","miles_from_dt":5.84},{"city":"Nebo","state_name":"Kentucky","lat":37.36768,"lng":-87.65962,"zip":"42441","miles_from_dt":5.92},{"city":"Madisonville","state_name":"Kentucky","lat":37.33319,"lng":-87.47512,"zip":"42431","miles_from_dt":7.65},{"city":"Slaughters","state_name":"Kentucky","lat":37.51182,"lng":-87.49929,"zip":"42456","miles_from_dt":7.73},{"city":"Earlington","state_name":"Kentucky","lat":37.27655,"lng":-87.51078,"zip":"42410","miles_from_dt":10.05},{"city":"Dixon","state_name":"Kentucky","lat":37.5436,"lng":-87.69947,"zip":"42409","miles_from_dt":11.41},{"city":"Providence","state_name":"Kentucky","lat":37.38741,"lng":-87.77535,"zip":"42450","miles_from_dt":11.48},{"city":"Sebree","state_name":"Kentucky","lat":37.5858,"lng":-87.53938,"zip":"42455","miles_from_dt":11.92},{"city":"Mortons Gap","state_name":"Kentucky","lat":37.23887,"lng":-87.46782,"zip":"42440","miles_from_dt":13.35},{"city":"Clay","state_name":"Kentucky","lat":37.47878,"lng":-87.83636,"zip":"42404","miles_from_dt":15.33},{"city":"Sacramento","state_name":"Kentucky","lat":37.40588,"lng":-87.2773,"zip":"42372","miles_from_dt":16.08},{"city":"Poole","state_name":"Kentucky","lat":37.64152,"lng":-87.6455,"zip":"42444","miles_from_dt":16.2},{"city":"Rumsey","state_name":"Kentucky","lat":37.4978,"lng":-87.29362,"zip":"42371","miles_from_dt":16.21},{"city":"Wheatcroft","state_name":"Kentucky","lat":37.47897,"lng":-87.86717,"zip":"42463","miles_from_dt":16.96},{"city":"Nortonville","state_name":"Kentucky","lat":37.17408,"lng":-87.48652,"zip":"42442","miles_from_dt":17.21},{"city":"Beech Grove","state_name":"Kentucky","lat":37.62083,"lng":-87.38821,"zip":"42322","miles_from_dt":17.36},{"city":"Bremen","state_name":"Kentucky","lat":37.32537,"lng":-87.27375,"zip":"42325","miles_from_dt":17.4},{"city":"Graham","state_name":"Kentucky","lat":37.25681,"lng":-87.32053,"zip":"42344","miles_from_dt":17.5},{"city":"Dawson Springs","state_name":"Kentucky","lat":37.1797,"lng":-87.69229,"zip":"42408","miles_from_dt":17.56},{"city":"Saint Charles","state_name":"Kentucky","lat":37.14888,"lng":-87.58275,"zip":"42453","miles_from_dt":18.34},{"city":"Robards","state_name":"Kentucky","lat":37.68531,"lng":-87.53654,"zip":"42452","miles_from_dt":18.76},{"city":"Calhoun","state_name":"Kentucky","lat":37.58721,"lng":-87.30042,"zip":"42327","miles_from_dt":18.98},{"city":"White Plains","state_name":"Kentucky","lat":37.18132,"lng":-87.37148,"zip":"42464","miles_from_dt":19.44},{"city":"Island","state_name":"Kentucky","lat":37.44852,"lng":-87.1831,"zip":"42350","miles_from_dt":21.38},{"city":"Sullivan","state_name":"Kentucky","lat":37.49873,"lng":-87.94526,"zip":"42460","miles_from_dt":21.46},{"city":"Maple Mount","state_name":"Kentucky","lat":37.69364,"lng":-87.32289,"zip":"42356","miles_from_dt":23.53},{"city":"South Carrollton","state_name":"Kentucky","lat":37.33333,"lng":-87.14045,"zip":"42374","miles_from_dt":24.27},{"city":"West Louisville","state_name":"Kentucky","lat":37.69821,"lng":-87.28471,"zip":"42377","miles_from_dt":25.04},{"city":"Powderly","state_name":"Kentucky","lat":37.2448,"lng":-87.16133,"zip":"42367","miles_from_dt":25.34},{"city":"Princeton","state_name":"Kentucky","lat":37.12861,"lng":-87.86052,"zip":"42445","miles_from_dt":25.42},{"city":"Central City","state_name":"Kentucky","lat":37.31436,"lng":-87.12245,"zip":"42330","miles_from_dt":25.56},{"city":"Morganfield","state_name":"Kentucky","lat":37.66234,"lng":-87.92067,"zip":"42437","miles_from_dt":25.77},{"city":"Crofton","state_name":"Kentucky","lat":37.04915,"lng":-87.47212,"zip":"42217","miles_from_dt":25.77},{"city":"Waverly","state_name":"Kentucky","lat":37.74123,"lng":-87.79834,"zip":"42462","miles_from_dt":25.79},{"city":"Curdsville","state_name":"Kentucky","lat":37.73673,"lng":-87.32966,"zip":"42334","miles_from_dt":25.82},{"city":"Henderson","state_name":"Kentucky","lat":37.79875,"lng":-87.51517,"zip":"42420","miles_from_dt":26.66},{"city":"Sturgis","state_name":"Kentucky","lat":37.5637,"lng":-88.01837,"zip":"42459","miles_from_dt":26.73},{"city":"Corydon","state_name":"Kentucky","lat":37.77792,"lng":-87.74496,"zip":"42406","miles_from_dt":26.84},{"city":"Livermore","state_name":"Kentucky","lat":37.51333,"lng":-87.0833,"zip":"42352","miles_from_dt":27.58},{"city":"Greenville","state_name":"Kentucky","lat":37.14839,"lng":-87.18943,"zip":"42345","miles_from_dt":27.85},{"city":"Owensboro","state_name":"Kentucky","lat":37.73983,"lng":-87.24643,"zip":"42301","miles_from_dt":28.59},{"city":"Cleaton","state_name":"Kentucky","lat":37.25099,"lng":-87.08935,"zip":"42332","miles_from_dt":28.75},{"city":"Centertown","state_name":"Kentucky","lat":37.41898,"lng":-87.0429,"zip":"42328","miles_from_dt":28.97},{"city":"Marion","state_name":"Kentucky","lat":37.35022,"lng":-88.09158,"zip":"42064","miles_from_dt":29.07},{"city":"Henderson","state_name":"Kentucky","lat":37.83736,"lng":-87.59155,"zip":"42419","miles_from_dt":29.18},{"city":"Fredonia","state_name":"Kentucky","lat":37.20315,"lng":-88.02852,"zip":"42411","miles_from_dt":29.19},{"city":"Smith Mills","state_name":"Kentucky","lat":37.80799,"lng":-87.77136,"zip":"42457","miles_from_dt":29.3},{"city":"Cerulean","state_name":"Kentucky","lat":36.99256,"lng":-87.67018,"zip":"42215","miles_from_dt":29.63},{"city":"Crayne","state_name":"Kentucky","lat":37.27186,"lng":-88.07953,"zip":"42033","miles_from_dt":29.76},{"city":"Utica","state_name":"Kentucky","lat":37.61626,"lng":-87.08619,"zip":"42376","miles_from_dt":29.97}],"targetCityZipCode":"42436","targetCityState":"Kentucky"},"__N_SSG":true}