{"pageProps":{"stateName":"Kentucky","cityName":"martin","nearbyCities":[{"city":"Langley","state_name":"Kentucky","lat":37.52872,"lng":-82.79294,"zip":"41645","miles_from_dt":2.99},{"city":"Eastern","state_name":"Kentucky","lat":37.51377,"lng":-82.80925,"zip":"41622","miles_from_dt":4.22},{"city":"Allen","state_name":"Kentucky","lat":37.60969,"lng":-82.72037,"zip":"41601","miles_from_dt":4.35},{"city":"Blue River","state_name":"Kentucky","lat":37.62216,"lng":-82.8438,"zip":"41607","miles_from_dt":4.82},{"city":"Dwale","state_name":"Kentucky","lat":37.6269,"lng":-82.72663,"zip":"41621","miles_from_dt":4.93},{"city":"David","state_name":"Kentucky","lat":37.58522,"lng":-82.87847,"zip":"41616","miles_from_dt":5.31},{"city":"Banner","state_name":"Kentucky","lat":37.55934,"lng":-82.68704,"zip":"41603","miles_from_dt":5.35},{"city":"Printer","state_name":"Kentucky","lat":37.50496,"lng":-82.72465,"zip":"41655","miles_from_dt":5.6},{"city":"Dana","state_name":"Kentucky","lat":37.54211,"lng":-82.68337,"zip":"41615","miles_from_dt":5.85},{"city":"Prestonsburg","state_name":"Kentucky","lat":37.6603,"lng":-82.76466,"zip":"41653","miles_from_dt":6.22},{"city":"Drift","state_name":"Kentucky","lat":37.48328,"lng":-82.74187,"zip":"41619","miles_from_dt":6.49},{"city":"Tram","state_name":"Kentucky","lat":37.56844,"lng":-82.65966,"zip":"41663","miles_from_dt":6.79},{"city":"Minnie","state_name":"Kentucky","lat":37.46716,"lng":-82.75527,"zip":"41651","miles_from_dt":7.35},{"city":"Ivel","state_name":"Kentucky","lat":37.59569,"lng":-82.64457,"zip":"41642","miles_from_dt":7.8},{"city":"Garrett","state_name":"Kentucky","lat":37.46416,"lng":-82.84992,"zip":"41630","miles_from_dt":8.25},{"city":"Betsy Layne","state_name":"Kentucky","lat":37.55498,"lng":-82.63009,"zip":"41605","miles_from_dt":8.49},{"city":"Wayland","state_name":"Kentucky","lat":37.4396,"lng":-82.80621,"zip":"41666","miles_from_dt":9.18},{"city":"Gunlock","state_name":"Kentucky","lat":37.55029,"lng":-82.94982,"zip":"41632","miles_from_dt":9.25},{"city":"Lackey","state_name":"Kentucky","lat":37.43778,"lng":-82.84307,"zip":"41643","miles_from_dt":9.78},{"city":"Stanville","state_name":"Kentucky","lat":37.58415,"lng":-82.60064,"zip":"41659","miles_from_dt":10.07},{"city":"Grethel","state_name":"Kentucky","lat":37.46801,"lng":-82.65365,"zip":"41631","miles_from_dt":10.08},{"city":"Hueysville","state_name":"Kentucky","lat":37.47649,"lng":-82.92643,"zip":"41640","miles_from_dt":10.23},{"city":"McDowell","state_name":"Kentucky","lat":37.43056,"lng":-82.71737,"zip":"41647","miles_from_dt":10.37},{"city":"Harold","state_name":"Kentucky","lat":37.48009,"lng":-82.62831,"zip":"41635","miles_from_dt":10.59},{"city":"East Point","state_name":"Kentucky","lat":37.73016,"lng":-82.81308,"zip":"41216","miles_from_dt":11.07},{"city":"Mousie","state_name":"Kentucky","lat":37.42041,"lng":-82.87741,"zip":"41839","miles_from_dt":11.62},{"city":"Auxier","state_name":"Kentucky","lat":37.7387,"lng":-82.75249,"zip":"41602","miles_from_dt":11.66},{"city":"Dema","state_name":"Kentucky","lat":37.39922,"lng":-82.77606,"zip":"41859","miles_from_dt":11.88},{"city":"Royalton","state_name":"Kentucky","lat":37.65974,"lng":-82.97201,"zip":"41464","miles_from_dt":12.01},{"city":"Hi Hat","state_name":"Kentucky","lat":37.39772,"lng":-82.73087,"zip":"41636","miles_from_dt":12.32},{"city":"Raven","state_name":"Kentucky","lat":37.39002,"lng":-82.8264,"zip":"41861","miles_from_dt":12.73},{"city":"Van Lear","state_name":"Kentucky","lat":37.75424,"lng":-82.70446,"zip":"41265","miles_from_dt":13.33},{"city":"Teaberry","state_name":"Kentucky","lat":37.41341,"lng":-82.63846,"zip":"41660","miles_from_dt":13.49},{"city":"Beaver","state_name":"Kentucky","lat":37.38986,"lng":-82.66782,"zip":"41604","miles_from_dt":14.04},{"city":"Hagerhill","state_name":"Kentucky","lat":37.77036,"lng":-82.85032,"zip":"41222","miles_from_dt":14.2},{"city":"West Van Lear","state_name":"Kentucky","lat":37.78797,"lng":-82.78433,"zip":"41268","miles_from_dt":14.94},{"city":"Topmost","state_name":"Kentucky","lat":37.34971,"lng":-82.78929,"zip":"41862","miles_from_dt":15.29},{"city":"Bypro","state_name":"Kentucky","lat":37.35451,"lng":-82.72233,"zip":"41612","miles_from_dt":15.33},{"city":"Pikeville","state_name":"Kentucky","lat":37.50805,"lng":-82.5154,"zip":"41501","miles_from_dt":15.35},{"city":"Leburn","state_name":"Kentucky","lat":37.38531,"lng":-82.94633,"zip":"41831","miles_from_dt":15.65},{"city":"Meally","state_name":"Kentucky","lat":37.79654,"lng":-82.74161,"zip":"41234","miles_from_dt":15.7},{"city":"Bevinsville","state_name":"Kentucky","lat":37.34594,"lng":-82.7375,"zip":"41606","miles_from_dt":15.75},{"city":"Pikeville","state_name":"Kentucky","lat":37.47966,"lng":-82.51877,"zip":"41502","miles_from_dt":15.85},{"city":"Garner","state_name":"Kentucky","lat":37.35922,"lng":-82.90038,"zip":"41817","miles_from_dt":15.98},{"city":"Melvin","state_name":"Kentucky","lat":37.34722,"lng":-82.68166,"zip":"41650","miles_from_dt":16.44},{"city":"Robinson Creek","state_name":"Kentucky","lat":37.39423,"lng":-82.57875,"zip":"41560","miles_from_dt":16.61},{"city":"Wheelwright","state_name":"Kentucky","lat":37.33375,"lng":-82.71469,"zip":"41669","miles_from_dt":16.82},{"city":"Vest","state_name":"Kentucky","lat":37.4075,"lng":-83.01679,"zip":"41772","miles_from_dt":17.1},{"city":"Paintsville","state_name":"Kentucky","lat":37.82103,"lng":-82.78927,"zip":"41240","miles_from_dt":17.22},{"city":"Pippa Passes","state_name":"Kentucky","lat":37.32916,"lng":-82.8643,"zip":"41844","miles_from_dt":17.29},{"city":"Thelma","state_name":"Kentucky","lat":37.82253,"lng":-82.75126,"zip":"41260","miles_from_dt":17.41},{"city":"Fords Branch","state_name":"Kentucky","lat":37.43372,"lng":-82.51256,"zip":"41526","miles_from_dt":17.65},{"city":"Boons Camp","state_name":"Kentucky","lat":37.81784,"lng":-82.6843,"zip":"41204","miles_from_dt":17.84},{"city":"Williamsport","state_name":"Kentucky","lat":37.82773,"lng":-82.72453,"zip":"41271","miles_from_dt":17.97},{"city":"Staffordsville","state_name":"Kentucky","lat":37.82446,"lng":-82.88135,"zip":"41256","miles_from_dt":18.26},{"city":"Debord","state_name":"Kentucky","lat":37.79448,"lng":-82.59839,"zip":"41214","miles_from_dt":18.43},{"city":"Weeksbury","state_name":"Kentucky","lat":37.31138,"lng":-82.69881,"zip":"41667","miles_from_dt":18.52},{"city":"Kite","state_name":"Kentucky","lat":37.2971,"lng":-82.78444,"zip":"41828","miles_from_dt":18.92},{"city":"Varney","state_name":"Kentucky","lat":37.62651,"lng":-82.44437,"zip":"41571","miles_from_dt":18.99},{"city":"Falcon","state_name":"Kentucky","lat":37.78872,"lng":-83.00004,"zip":"41426","miles_from_dt":19.12},{"city":"Virgie","state_name":"Kentucky","lat":37.31342,"lng":-82.64368,"zip":"41572","miles_from_dt":19.38},{"city":"Tutor Key","state_name":"Kentucky","lat":37.85717,"lng":-82.76256,"zip":"41263","miles_from_dt":19.74},{"city":"Salyersville","state_name":"Kentucky","lat":37.72985,"lng":-83.08494,"zip":"41465","miles_from_dt":19.82},{"city":"Wittensville","state_name":"Kentucky","lat":37.86174,"lng":-82.81164,"zip":"41274","miles_from_dt":20.08},{"city":"Hindman","state_name":"Kentucky","lat":37.31991,"lng":-82.97848,"zip":"41822","miles_from_dt":20.39},{"city":"Oil Springs","state_name":"Kentucky","lat":37.83943,"lng":-82.95072,"zip":"41238","miles_from_dt":20.64},{"city":"Emmalena","state_name":"Kentucky","lat":37.35649,"lng":-83.0467,"zip":"41740","miles_from_dt":20.72},{"city":"Pine Top","state_name":"Kentucky","lat":37.27495,"lng":-82.85938,"zip":"41843","miles_from_dt":20.87},{"city":"Shelbiana","state_name":"Kentucky","lat":37.3991,"lng":-82.47052,"zip":"41562","miles_from_dt":20.9},{"city":"Pilgrim","state_name":"Kentucky","lat":37.73511,"lng":-82.46079,"zip":"41250","miles_from_dt":20.98},{"city":"Bulan","state_name":"Kentucky","lat":37.40441,"lng":-83.10329,"zip":"41722","miles_from_dt":21.02},{"city":"Raccoon","state_name":"Kentucky","lat":37.48189,"lng":-82.41548,"zip":"41557","miles_from_dt":21.13},{"city":"Jonancy","state_name":"Kentucky","lat":37.30338,"lng":-82.58891,"zip":"41538","miles_from_dt":21.35},{"city":"Tomahawk","state_name":"Kentucky","lat":37.85112,"lng":-82.61377,"zip":"41262","miles_from_dt":21.41},{"city":"Inez","state_name":"Kentucky","lat":37.82089,"lng":-82.53936,"zip":"41224","miles_from_dt":21.79},{"city":"River","state_name":"Kentucky","lat":37.8845,"lng":-82.72711,"zip":"41254","miles_from_dt":21.81},{"city":"Myra","state_name":"Kentucky","lat":37.2935,"lng":-82.59021,"zip":"41549","miles_from_dt":21.91},{"city":"Carrie","state_name":"Kentucky","lat":37.31667,"lng":-83.03244,"zip":"41725","miles_from_dt":22.27},{"city":"Deane","state_name":"Kentucky","lat":37.2473,"lng":-82.74445,"zip":"41812","miles_from_dt":22.45},{"city":"Mallie","state_name":"Kentucky","lat":37.25839,"lng":-82.90887,"zip":"41836","miles_from_dt":22.66},{"city":"Littcarr","state_name":"Kentucky","lat":37.26585,"lng":-82.94661,"zip":"41834","miles_from_dt":22.9},{"city":"Sidney","state_name":"Kentucky","lat":37.60476,"lng":-82.3667,"zip":"41564","miles_from_dt":22.98},{"city":"Fisty","state_name":"Kentucky","lat":37.35498,"lng":-83.1045,"zip":"41743","miles_from_dt":23.12},{"city":"Dorton","state_name":"Kentucky","lat":37.27655,"lng":-82.58176,"zip":"41520","miles_from_dt":23.16},{"city":"Sitka","state_name":"Kentucky","lat":37.91014,"lng":-82.83765,"zip":"41255","miles_from_dt":23.55},{"city":"Stambaugh","state_name":"Kentucky","lat":37.91372,"lng":-82.8044,"zip":"41257","miles_from_dt":23.64},{"city":"Jackhorn","state_name":"Kentucky","lat":37.23323,"lng":-82.70854,"zip":"41825","miles_from_dt":23.68},{"city":"Ary","state_name":"Kentucky","lat":37.3744,"lng":-83.13751,"zip":"41712","miles_from_dt":23.74},{"city":"Clayhole","state_name":"Kentucky","lat":37.46029,"lng":-83.19851,"zip":"41317","miles_from_dt":24.06},{"city":"Rousseau","state_name":"Kentucky","lat":37.62472,"lng":-83.21959,"zip":"41366","miles_from_dt":24.22},{"city":"Lookout","state_name":"Kentucky","lat":37.31592,"lng":-82.47079,"zip":"41542","miles_from_dt":24.61},{"city":"Rockhouse","state_name":"Kentucky","lat":37.32691,"lng":-82.45338,"zip":"41561","miles_from_dt":24.77},{"city":"Lowmansville","state_name":"Kentucky","lat":37.93602,"lng":-82.74007,"zip":"41232","miles_from_dt":25.26},{"city":"Canada","state_name":"Kentucky","lat":37.58359,"lng":-82.32334,"zip":"41519","miles_from_dt":25.26},{"city":"Regina","state_name":"Kentucky","lat":37.37997,"lng":-82.39017,"zip":"41559","miles_from_dt":25.32},{"city":"Flatgap","state_name":"Kentucky","lat":37.92586,"lng":-82.90882,"zip":"41219","miles_from_dt":25.39},{"city":"Dwarf","state_name":"Kentucky","lat":37.32596,"lng":-83.12802,"zip":"41739","miles_from_dt":25.41},{"city":"McRoberts","state_name":"Kentucky","lat":37.21196,"lng":-82.67114,"zip":"41835","miles_from_dt":25.54},{"city":"Hellier","state_name":"Kentucky","lat":37.27748,"lng":-82.49644,"zip":"41534","miles_from_dt":25.69},{"city":"Belfry","state_name":"Kentucky","lat":37.67135,"lng":-82.33169,"zip":"41514","miles_from_dt":25.72},{"city":"Kimper","state_name":"Kentucky","lat":37.50265,"lng":-82.32231,"zip":"41539","miles_from_dt":25.76},{"city":"Jenkins","state_name":"Kentucky","lat":37.22221,"lng":-82.61619,"zip":"41537","miles_from_dt":25.78},{"city":"Millstone","state_name":"Kentucky","lat":37.19677,"lng":-82.75144,"zip":"41838","miles_from_dt":25.89},{"city":"Neon","state_name":"Kentucky","lat":37.19962,"lng":-82.71813,"zip":"41840","miles_from_dt":25.89},{"city":"Ulysses","state_name":"Kentucky","lat":37.94021,"lng":-82.677,"zip":"41264","miles_from_dt":26.09},{"city":"Bays","state_name":"Kentucky","lat":37.64068,"lng":-83.25147,"zip":"41310","miles_from_dt":26.12},{"city":"Beauty","state_name":"Kentucky","lat":37.85241,"lng":-82.46112,"zip":"41203","miles_from_dt":26.22},{"city":"Thornton","state_name":"Kentucky","lat":37.18874,"lng":-82.78496,"zip":"41855","miles_from_dt":26.39},{"city":"Vicco","state_name":"Kentucky","lat":37.23534,"lng":-83.01721,"zip":"41773","miles_from_dt":26.51},{"city":"Lovely","state_name":"Kentucky","lat":37.79447,"lng":-82.38903,"zip":"41231","miles_from_dt":26.53},{"city":"Phyllis","state_name":"Kentucky","lat":37.43919,"lng":-82.32446,"zip":"41554","miles_from_dt":26.81},{"city":"Redfox","state_name":"Kentucky","lat":37.20823,"lng":-82.95961,"zip":"41847","miles_from_dt":26.86},{"city":"Sassafras","state_name":"Kentucky","lat":37.23211,"lng":-83.02521,"zip":"41759","miles_from_dt":26.92},{"city":"Dice","state_name":"Kentucky","lat":37.37707,"lng":-83.20839,"zip":"41736","miles_from_dt":26.93},{"city":"Isom","state_name":"Kentucky","lat":37.18771,"lng":-82.88015,"zip":"41824","miles_from_dt":26.99},{"city":"Forest Hills","state_name":"Kentucky","lat":37.63187,"lng":-82.29378,"zip":"41527","miles_from_dt":27.19},{"city":"Rowdy","state_name":"Kentucky","lat":37.4045,"lng":-83.23218,"zip":"41367","miles_from_dt":27.22},{"city":"Stone","state_name":"Kentucky","lat":37.56897,"lng":-82.28621,"zip":"41567","miles_from_dt":27.29},{"city":"Cromona","state_name":"Kentucky","lat":37.18492,"lng":-82.67278,"zip":"41810","miles_from_dt":27.34},{"city":"Shelby Gap","state_name":"Kentucky","lat":37.22628,"lng":-82.53694,"zip":"41563","miles_from_dt":27.39},{"city":"Elkhorn City","state_name":"Kentucky","lat":37.31644,"lng":-82.40088,"zip":"41522","miles_from_dt":27.41},{"city":"Huddy","state_name":"Kentucky","lat":37.59368,"lng":-82.28422,"zip":"41535","miles_from_dt":27.44},{"city":"Seco","state_name":"Kentucky","lat":37.1744,"lng":-82.73251,"zip":"41849","miles_from_dt":27.52},{"city":"McAndrews","state_name":"Kentucky","lat":37.54837,"lng":-82.28226,"zip":"41543","miles_from_dt":27.56},{"city":"Ashcamp","state_name":"Kentucky","lat":37.25251,"lng":-82.47772,"zip":"41512","miles_from_dt":27.68},{"city":"Borderland","state_name":"West Virginia","lat":37.71382,"lng":-82.30604,"zip":"25665","miles_from_dt":27.96},{"city":"South Williamson","state_name":"Kentucky","lat":37.66079,"lng":-82.28446,"zip":"41503","miles_from_dt":28.06},{"city":"Jackson","state_name":"Kentucky","lat":37.53158,"lng":-83.29231,"zip":"41339","miles_from_dt":28.08},{"city":"Lick Creek","state_name":"Kentucky","lat":37.39013,"lng":-82.32318,"zip":"41540","miles_from_dt":28.21},{"city":"Burdine","state_name":"Kentucky","lat":37.18919,"lng":-82.60026,"zip":"41517","miles_from_dt":28.22},{"city":"Warfield","state_name":"Kentucky","lat":37.87514,"lng":-82.43591,"zip":"41267","miles_from_dt":28.3},{"city":"Jeremiah","state_name":"Kentucky","lat":37.17348,"lng":-82.92115,"zip":"41826","miles_from_dt":28.47},{"city":"Belcher","state_name":"Kentucky","lat":37.35282,"lng":-82.34329,"zip":"41513","miles_from_dt":28.5},{"city":"Ermine","state_name":"Kentucky","lat":37.15821,"lng":-82.79799,"zip":"41815","miles_from_dt":28.51},{"city":"Pinsonfork","state_name":"Kentucky","lat":37.53816,"lng":-82.2589,"zip":"41555","miles_from_dt":28.89},{"city":"Hazard","state_name":"Kentucky","lat":37.29778,"lng":-83.18781,"zip":"41701","miles_from_dt":29.17},{"city":"Chattaroy","state_name":"West Virginia","lat":37.70619,"lng":-82.2738,"zip":"25667","miles_from_dt":29.45},{"city":"Whitesburg","state_name":"Kentucky","lat":37.1454,"lng":-82.84697,"zip":"41858","miles_from_dt":29.59},{"city":"Keaton","state_name":"Kentucky","lat":37.97853,"lng":-82.9562,"zip":"41226","miles_from_dt":29.63}],"targetCityZipCode":"41649","targetCityState":"Kentucky"},"__N_SSG":true}