{"pageProps":{"stateName":"Kentucky","cityName":"mistletoe","nearbyCities":[{"city":"Ricetown","state_name":"Kentucky","lat":37.37569,"lng":-83.64172,"zip":"41364","miles_from_dt":4.25},{"city":"Buckhorn","state_name":"Kentucky","lat":37.31371,"lng":-83.49949,"zip":"41721","miles_from_dt":5.27},{"city":"Oneida","state_name":"Kentucky","lat":37.24501,"lng":-83.60692,"zip":"40972","miles_from_dt":5.74},{"city":"Saul","state_name":"Kentucky","lat":37.27792,"lng":-83.48531,"zip":"40981","miles_from_dt":6.88},{"city":"Booneville","state_name":"Kentucky","lat":37.44008,"lng":-83.63743,"zip":"41314","miles_from_dt":8.13},{"city":"Sextons Creek","state_name":"Kentucky","lat":37.34608,"lng":-83.75339,"zip":"40983","miles_from_dt":8.89},{"city":"Gays Creek","state_name":"Kentucky","lat":37.34449,"lng":-83.42848,"zip":"41745","miles_from_dt":9.17},{"city":"Sizerock","state_name":"Kentucky","lat":37.20742,"lng":-83.50077,"zip":"41762","miles_from_dt":9.74},{"city":"Bear Branch","state_name":"Kentucky","lat":37.16519,"lng":-83.5075,"zip":"41714","miles_from_dt":12.16},{"city":"Thousandsticks","state_name":"Kentucky","lat":37.18526,"lng":-83.44443,"zip":"41766","miles_from_dt":12.8},{"city":"Fall Rock","state_name":"Kentucky","lat":37.21991,"lng":-83.78907,"zip":"40932","miles_from_dt":13.08},{"city":"Hyden","state_name":"Kentucky","lat":37.19364,"lng":-83.4199,"zip":"41749","miles_from_dt":13.3},{"city":"Whick","state_name":"Kentucky","lat":37.41872,"lng":-83.3792,"zip":"41390","miles_from_dt":13.37},{"city":"Lone","state_name":"Kentucky","lat":37.53286,"lng":-83.60177,"zip":"41347","miles_from_dt":14.17},{"city":"Krypton","state_name":"Kentucky","lat":37.30025,"lng":-83.32459,"zip":"41754","miles_from_dt":14.94},{"city":"Manchester","state_name":"Kentucky","lat":37.14912,"lng":-83.74922,"zip":"40962","miles_from_dt":15},{"city":"Chavies","state_name":"Kentucky","lat":37.35624,"lng":-83.32352,"zip":"41727","miles_from_dt":15},{"city":"Tyner","state_name":"Kentucky","lat":37.37238,"lng":-83.86123,"zip":"40486","miles_from_dt":15.05},{"city":"Vincent","state_name":"Kentucky","lat":37.47992,"lng":-83.79273,"zip":"41386","miles_from_dt":15.18},{"city":"Yerkes","state_name":"Kentucky","lat":37.26612,"lng":-83.3223,"zip":"41778","miles_from_dt":15.54},{"city":"Garrard","state_name":"Kentucky","lat":37.12981,"lng":-83.74585,"zip":"40941","miles_from_dt":16.01},{"city":"Busy","state_name":"Kentucky","lat":37.25469,"lng":-83.31409,"zip":"41723","miles_from_dt":16.2},{"city":"Big Creek","state_name":"Kentucky","lat":37.0932,"lng":-83.56154,"zip":"40914","miles_from_dt":16.26},{"city":"Lost Creek","state_name":"Kentucky","lat":37.42577,"lng":-83.31387,"zip":"41348","miles_from_dt":16.82},{"city":"Goose Rock","state_name":"Kentucky","lat":37.09008,"lng":-83.69306,"zip":"40944","miles_from_dt":17.27},{"city":"Hima","state_name":"Kentucky","lat":37.11844,"lng":-83.77473,"zip":"40951","miles_from_dt":17.54},{"city":"Saint Helens","state_name":"Kentucky","lat":37.57933,"lng":-83.64406,"zip":"41368","miles_from_dt":17.58},{"city":"Beattyville","state_name":"Kentucky","lat":37.57896,"lng":-83.72163,"zip":"41311","miles_from_dt":18.71},{"city":"Avawam","state_name":"Kentucky","lat":37.22703,"lng":-83.27799,"zip":"41713","miles_from_dt":18.72},{"city":"Stinnett","state_name":"Kentucky","lat":37.09367,"lng":-83.41638,"zip":"40868","miles_from_dt":18.86},{"city":"Bonnyman","state_name":"Kentucky","lat":37.29727,"lng":-83.24526,"zip":"41719","miles_from_dt":19.3},{"city":"Gray Hawk","state_name":"Kentucky","lat":37.39364,"lng":-83.93949,"zip":"40434","miles_from_dt":19.58},{"city":"Essie","state_name":"Kentucky","lat":37.05208,"lng":-83.47187,"zip":"40827","miles_from_dt":20.15},{"city":"Rowdy","state_name":"Kentucky","lat":37.4045,"lng":-83.23218,"zip":"41367","miles_from_dt":20.59},{"city":"Wooton","state_name":"Kentucky","lat":37.15933,"lng":-83.28158,"zip":"41776","miles_from_dt":20.75},{"city":"Annville","state_name":"Kentucky","lat":37.29663,"lng":-83.97008,"zip":"40402","miles_from_dt":20.85},{"city":"Combs","state_name":"Kentucky","lat":37.2681,"lng":-83.2159,"zip":"41729","miles_from_dt":21.21},{"city":"Wendover","state_name":"Kentucky","lat":37.09373,"lng":-83.34207,"zip":"41775","miles_from_dt":21.27},{"city":"Dice","state_name":"Kentucky","lat":37.37707,"lng":-83.20839,"zip":"41736","miles_from_dt":21.48},{"city":"Asher","state_name":"Kentucky","lat":37.04572,"lng":-83.42185,"zip":"40803","miles_from_dt":21.62},{"city":"Jackson","state_name":"Kentucky","lat":37.53158,"lng":-83.29231,"zip":"41339","miles_from_dt":21.74},{"city":"Hazard","state_name":"Kentucky","lat":37.29778,"lng":-83.18781,"zip":"41701","miles_from_dt":22.45},{"city":"Hazard","state_name":"Kentucky","lat":37.2494,"lng":-83.19137,"zip":"41702","miles_from_dt":22.81},{"city":"Roark","state_name":"Kentucky","lat":37.00491,"lng":-83.495,"zip":"40979","miles_from_dt":22.9},{"city":"Hoskinston","state_name":"Kentucky","lat":37.05506,"lng":-83.35406,"zip":"40844","miles_from_dt":22.97},{"city":"Smilax","state_name":"Kentucky","lat":37.12924,"lng":-83.25545,"zip":"41764","miles_from_dt":23.13},{"city":"Clayhole","state_name":"Kentucky","lat":37.46029,"lng":-83.19851,"zip":"41317","miles_from_dt":23.59},{"city":"Zoe","state_name":"Kentucky","lat":37.66683,"lng":-83.67709,"zip":"41397","miles_from_dt":23.84},{"city":"Mozelle","state_name":"Kentucky","lat":37.01592,"lng":-83.40106,"zip":"40858","miles_from_dt":23.97},{"city":"Warbranch","state_name":"Kentucky","lat":36.98407,"lng":-83.47345,"zip":"40874","miles_from_dt":24.6},{"city":"Chappell","state_name":"Kentucky","lat":37.00879,"lng":-83.3667,"zip":"40816","miles_from_dt":25.3},{"city":"Ary","state_name":"Kentucky","lat":37.3744,"lng":-83.13751,"zip":"41712","miles_from_dt":25.32},{"city":"McKee","state_name":"Kentucky","lat":37.45496,"lng":-84.0299,"zip":"40447","miles_from_dt":25.56},{"city":"Dwarf","state_name":"Kentucky","lat":37.32596,"lng":-83.12802,"zip":"41739","miles_from_dt":25.64},{"city":"Beverly","state_name":"Kentucky","lat":36.94986,"lng":-83.54367,"zip":"40913","miles_from_dt":26.19},{"city":"Vancleve","state_name":"Kentucky","lat":37.64998,"lng":-83.33665,"zip":"41385","miles_from_dt":26.34},{"city":"Waneta","state_name":"Kentucky","lat":37.47481,"lng":-84.03829,"zip":"40488","miles_from_dt":26.49},{"city":"Rogers","state_name":"Kentucky","lat":37.71117,"lng":-83.62663,"zip":"41365","miles_from_dt":26.52},{"city":"Jeff","state_name":"Kentucky","lat":37.2196,"lng":-83.12659,"zip":"41751","miles_from_dt":26.79},{"city":"Fisty","state_name":"Kentucky","lat":37.35498,"lng":-83.1045,"zip":"41743","miles_from_dt":27},{"city":"Yeaddiss","state_name":"Kentucky","lat":37.06022,"lng":-83.23276,"zip":"41777","miles_from_dt":27.13},{"city":"Bulan","state_name":"Kentucky","lat":37.40441,"lng":-83.10329,"zip":"41722","miles_from_dt":27.51},{"city":"Campton","state_name":"Kentucky","lat":37.72121,"lng":-83.48941,"zip":"41301","miles_from_dt":27.75},{"city":"Viper","state_name":"Kentucky","lat":37.15512,"lng":-83.13847,"zip":"41774","miles_from_dt":27.77},{"city":"Scalf","state_name":"Kentucky","lat":36.93241,"lng":-83.69421,"zip":"40982","miles_from_dt":27.81},{"city":"Helton","state_name":"Kentucky","lat":36.9457,"lng":-83.41854,"zip":"40840","miles_from_dt":28.05},{"city":"Sandgap","state_name":"Kentucky","lat":37.42658,"lng":-84.09116,"zip":"40481","miles_from_dt":28.22},{"city":"Happy","state_name":"Kentucky","lat":37.21574,"lng":-83.09779,"zip":"41746","miles_from_dt":28.39},{"city":"Big Laurel","state_name":"Kentucky","lat":36.9995,"lng":-83.2801,"zip":"40808","miles_from_dt":28.48},{"city":"Green Road","state_name":"Kentucky","lat":36.95757,"lng":-83.82467,"zip":"40946","miles_from_dt":28.52},{"city":"Bays","state_name":"Kentucky","lat":37.64068,"lng":-83.25147,"zip":"41310","miles_from_dt":28.63},{"city":"Rousseau","state_name":"Kentucky","lat":37.62472,"lng":-83.21959,"zip":"41366","miles_from_dt":29.03},{"city":"Hinkle","state_name":"Kentucky","lat":36.93771,"lng":-83.80163,"zip":"40953","miles_from_dt":29.23},{"city":"Scuddy","state_name":"Kentucky","lat":37.19456,"lng":-83.08588,"zip":"41760","miles_from_dt":29.45},{"city":"Flat Lick","state_name":"Kentucky","lat":36.91107,"lng":-83.71264,"zip":"40935","miles_from_dt":29.46},{"city":"Girdler","state_name":"Kentucky","lat":36.95494,"lng":-83.85631,"zip":"40943","miles_from_dt":29.5}],"targetCityZipCode":"41351","targetCityState":"Kentucky"},"__N_SSG":true}