{"pageProps":{"stateName":"Kentucky","cityName":"olive-hill","nearbyCities":[{"city":"Grahn","state_name":"Kentucky","lat":38.27774,"lng":-83.07308,"zip":"41142","miles_from_dt":4.91},{"city":"Soldier","state_name":"Kentucky","lat":38.26011,"lng":-83.29949,"zip":"41173","miles_from_dt":7.72},{"city":"Emerson","state_name":"Kentucky","lat":38.36026,"lng":-83.28796,"zip":"41135","miles_from_dt":8.41},{"city":"Elliottville","state_name":"Kentucky","lat":38.18273,"lng":-83.27658,"zip":"40317","miles_from_dt":9.62},{"city":"Carter","state_name":"Kentucky","lat":38.4274,"lng":-83.11977,"zip":"41128","miles_from_dt":9.81},{"city":"Grayson","state_name":"Kentucky","lat":38.33916,"lng":-82.97704,"zip":"41143","miles_from_dt":10.64},{"city":"Sandy Hook","state_name":"Kentucky","lat":38.09336,"lng":-83.08901,"zip":"41171","miles_from_dt":14.08},{"city":"Hitchins","state_name":"Kentucky","lat":38.27701,"lng":-82.88969,"zip":"41146","miles_from_dt":14.84},{"city":"Morehead","state_name":"Kentucky","lat":38.19817,"lng":-83.4133,"zip":"40351","miles_from_dt":15.03},{"city":"Clearfield","state_name":"Kentucky","lat":38.13215,"lng":-83.38973,"zip":"40313","miles_from_dt":16.44},{"city":"Willard","state_name":"Kentucky","lat":38.20758,"lng":-82.87425,"zip":"41181","miles_from_dt":16.65},{"city":"Isonville","state_name":"Kentucky","lat":38.06008,"lng":-83.05438,"zip":"41149","miles_from_dt":16.86},{"city":"Garrison","state_name":"Kentucky","lat":38.54381,"lng":-83.13357,"zip":"41141","miles_from_dt":17.63},{"city":"Denton","state_name":"Kentucky","lat":38.25667,"lng":-82.8314,"zip":"41132","miles_from_dt":18.13},{"city":"Webbville","state_name":"Kentucky","lat":38.13358,"lng":-82.85999,"zip":"41180","miles_from_dt":19.64},{"city":"Vanceburg","state_name":"Kentucky","lat":38.52483,"lng":-83.38988,"zip":"41179","miles_from_dt":20.42},{"city":"Elkfork","state_name":"Kentucky","lat":37.99027,"lng":-83.17397,"zip":"41421","miles_from_dt":20.62},{"city":"Argillite","state_name":"Kentucky","lat":38.44911,"lng":-82.83032,"zip":"41121","miles_from_dt":21.14},{"city":"Crockett","state_name":"Kentucky","lat":37.98747,"lng":-83.09117,"zip":"41413","miles_from_dt":21.16},{"city":"Rush","state_name":"Kentucky","lat":38.30732,"lng":-82.76992,"zip":"41168","miles_from_dt":21.37},{"city":"Greenup","state_name":"Kentucky","lat":38.53461,"lng":-82.91208,"zip":"41144","miles_from_dt":21.7},{"city":"Martha","state_name":"Kentucky","lat":38.01305,"lng":-82.96993,"zip":"41159","miles_from_dt":21.73},{"city":"Plummers Landing","state_name":"Kentucky","lat":38.30496,"lng":-83.56992,"zip":"41081","miles_from_dt":22.18},{"city":"Wrigley","state_name":"Kentucky","lat":37.98626,"lng":-83.30239,"zip":"41477","miles_from_dt":22.24},{"city":"Wallingford","state_name":"Kentucky","lat":38.39441,"lng":-83.56269,"zip":"41093","miles_from_dt":22.93},{"city":"Farmers","state_name":"Kentucky","lat":38.14521,"lng":-83.54559,"zip":"40319","miles_from_dt":23.1},{"city":"Quincy","state_name":"Kentucky","lat":38.63464,"lng":-83.09328,"zip":"41166","miles_from_dt":24.12},{"city":"Mazie","state_name":"Kentucky","lat":38.03389,"lng":-82.85851,"zip":"41160","miles_from_dt":24.16},{"city":"West Liberty","state_name":"Kentucky","lat":37.94179,"lng":-83.22334,"zip":"41472","miles_from_dt":24.19},{"city":"Keaton","state_name":"Kentucky","lat":37.97853,"lng":-82.9562,"zip":"41226","miles_from_dt":24.19},{"city":"Blaine","state_name":"Kentucky","lat":38.02148,"lng":-82.85118,"zip":"41124","miles_from_dt":25.06},{"city":"Ashland","state_name":"Kentucky","lat":38.42045,"lng":-82.72425,"zip":"41102","miles_from_dt":25.46},{"city":"Hillsboro","state_name":"Kentucky","lat":38.27465,"lng":-83.64581,"zip":"41049","miles_from_dt":26.31},{"city":"South Shore","state_name":"Kentucky","lat":38.64574,"lng":-82.97791,"zip":"41175","miles_from_dt":26.55},{"city":"Adams","state_name":"Kentucky","lat":38.06201,"lng":-82.7576,"zip":"41201","miles_from_dt":27.04},{"city":"Stout","state_name":"Ohio","lat":38.67546,"lng":-83.27789,"zip":"45684","miles_from_dt":27.37},{"city":"Salt Lick","state_name":"Kentucky","lat":38.07716,"lng":-83.59561,"zip":"40371","miles_from_dt":27.75},{"city":"Haverhill","state_name":"Ohio","lat":38.58416,"lng":-82.81401,"zip":"45636","miles_from_dt":27.77},{"city":"Flatwoods","state_name":"Kentucky","lat":38.50927,"lng":-82.73288,"zip":"41139","miles_from_dt":27.82},{"city":"Tollesboro","state_name":"Kentucky","lat":38.54493,"lng":-83.56175,"zip":"41189","miles_from_dt":27.95},{"city":"Friendship","state_name":"Ohio","lat":38.69758,"lng":-83.09275,"zip":"45630","miles_from_dt":28.42},{"city":"Catlettsburg","state_name":"Kentucky","lat":38.31755,"lng":-82.64073,"zip":"41129","miles_from_dt":28.42},{"city":"Ashland","state_name":"Kentucky","lat":38.43069,"lng":-82.66744,"zip":"41105","miles_from_dt":28.59},{"city":"Flatgap","state_name":"Kentucky","lat":37.92586,"lng":-82.90882,"zip":"41219","miles_from_dt":28.61},{"city":"Malone","state_name":"Kentucky","lat":37.87383,"lng":-83.25871,"zip":"41451","miles_from_dt":29.12},{"city":"Russell","state_name":"Kentucky","lat":38.52232,"lng":-82.71316,"zip":"41169","miles_from_dt":29.21},{"city":"Worthington","state_name":"Kentucky","lat":38.55,"lng":-82.73707,"zip":"41183","miles_from_dt":29.26},{"city":"South Portsmouth","state_name":"Kentucky","lat":38.69841,"lng":-83.0139,"zip":"41174","miles_from_dt":29.35}],"targetCityZipCode":"41164","targetCityState":"Kentucky"},"__N_SSG":true}