{"pageProps":{"stateName":"Kentucky","cityName":"paris","nearbyCities":[{"city":"Paris","state_name":"Kentucky","lat":38.20538,"lng":-84.26343,"zip":"40362","miles_from_dt":2.14},{"city":"North Middletown","state_name":"Kentucky","lat":38.14519,"lng":-84.10843,"zip":"40357","miles_from_dt":7.54},{"city":"Millersburg","state_name":"Kentucky","lat":38.30296,"lng":-84.14613,"zip":"40348","miles_from_dt":7.96},{"city":"Lexington","state_name":"Kentucky","lat":38.07366,"lng":-84.36631,"zip":"40516","miles_from_dt":11.94},{"city":"Carlisle","state_name":"Kentucky","lat":38.32407,"lng":-84.02256,"zip":"40311","miles_from_dt":13.68},{"city":"Lexington","state_name":"Kentucky","lat":38.14103,"lng":-84.46693,"zip":"40550","miles_from_dt":13.94},{"city":"Lexington","state_name":"Kentucky","lat":38.13711,"lng":-84.46752,"zip":"40512","miles_from_dt":14.06},{"city":"Lexington","state_name":"Kentucky","lat":38.13663,"lng":-84.47007,"zip":"40576","miles_from_dt":14.2},{"city":"Lexington","state_name":"Kentucky","lat":38.13621,"lng":-84.47072,"zip":"40580","miles_from_dt":14.25},{"city":"Lexington","state_name":"Kentucky","lat":38.13638,"lng":-84.47077,"zip":"40575","miles_from_dt":14.25},{"city":"Lexington","state_name":"Kentucky","lat":38.13958,"lng":-84.47352,"zip":"40582","miles_from_dt":14.32},{"city":"Lexington","state_name":"Kentucky","lat":38.1363,"lng":-84.47227,"zip":"40579","miles_from_dt":14.33},{"city":"Lexington","state_name":"Kentucky","lat":38.13714,"lng":-84.47342,"zip":"40574","miles_from_dt":14.37},{"city":"Lexington","state_name":"Kentucky","lat":38.13654,"lng":-84.47376,"zip":"40583","miles_from_dt":14.4},{"city":"Lexington","state_name":"Kentucky","lat":38.13915,"lng":-84.47553,"zip":"40581","miles_from_dt":14.43},{"city":"Lexington","state_name":"Kentucky","lat":38.13278,"lng":-84.47392,"zip":"40511","miles_from_dt":14.49},{"city":"Cynthiana","state_name":"Kentucky","lat":38.41383,"lng":-84.28631,"zip":"41031","miles_from_dt":14.77},{"city":"Winchester","state_name":"Kentucky","lat":37.98845,"lng":-84.17849,"zip":"40392","miles_from_dt":15.17},{"city":"Lexington","state_name":"Kentucky","lat":38.06039,"lng":-84.45679,"zip":"40505","miles_from_dt":16.14},{"city":"Lexington","state_name":"Kentucky","lat":37.99408,"lng":-84.36791,"zip":"40509","miles_from_dt":16.55},{"city":"Winchester","state_name":"Kentucky","lat":37.96969,"lng":-84.14507,"zip":"40391","miles_from_dt":16.82},{"city":"Sharpsburg","state_name":"Kentucky","lat":38.21419,"lng":-83.90359,"zip":"40374","miles_from_dt":17.46},{"city":"Lexington","state_name":"Kentucky","lat":38.07823,"lng":-84.50307,"zip":"40578","miles_from_dt":17.54},{"city":"Lexington","state_name":"Kentucky","lat":38.0715,"lng":-84.50298,"zip":"40577","miles_from_dt":17.77},{"city":"Mount Sterling","state_name":"Kentucky","lat":38.06514,"lng":-83.94853,"zip":"40353","miles_from_dt":17.86},{"city":"Georgetown","state_name":"Kentucky","lat":38.24786,"lng":-84.54956,"zip":"40324","miles_from_dt":17.95},{"city":"Lexington","state_name":"Kentucky","lat":38.04806,"lng":-84.49367,"zip":"40591","miles_from_dt":18.26},{"city":"Lexington","state_name":"Kentucky","lat":38.04686,"lng":-84.49628,"zip":"40507","miles_from_dt":18.42},{"city":"Lexington","state_name":"Kentucky","lat":38.05004,"lng":-84.50018,"zip":"40508","miles_from_dt":18.46},{"city":"Lexington","state_name":"Kentucky","lat":38.05,"lng":-84.50219,"zip":"40598","miles_from_dt":18.55},{"city":"Lexington","state_name":"Kentucky","lat":38.04614,"lng":-84.49865,"zip":"40588","miles_from_dt":18.55},{"city":"Lexington","state_name":"Kentucky","lat":37.98483,"lng":-84.42705,"zip":"40555","miles_from_dt":18.81},{"city":"Lexington","state_name":"Kentucky","lat":38.02222,"lng":-84.48971,"zip":"40522","miles_from_dt":19.21},{"city":"Lexington","state_name":"Kentucky","lat":38.01376,"lng":-84.48189,"zip":"40502","miles_from_dt":19.29},{"city":"Lexington","state_name":"Kentucky","lat":38.03875,"lng":-84.50899,"zip":"40546","miles_from_dt":19.31},{"city":"Lexington","state_name":"Kentucky","lat":38.0297,"lng":-84.50153,"zip":"40526","miles_from_dt":19.37},{"city":"Lexington","state_name":"Kentucky","lat":38.02979,"lng":-84.50732,"zip":"40536","miles_from_dt":19.61},{"city":"Lexington","state_name":"Kentucky","lat":38.03058,"lng":-84.50806,"zip":"40506","miles_from_dt":19.61},{"city":"Moorefield","state_name":"Kentucky","lat":38.30512,"lng":-83.87881,"zip":"40350","miles_from_dt":20},{"city":"Lexington","state_name":"Kentucky","lat":38.0425,"lng":-84.54158,"zip":"40544","miles_from_dt":20.62},{"city":"Lexington","state_name":"Kentucky","lat":38.04181,"lng":-84.54133,"zip":"40504","miles_from_dt":20.64},{"city":"Lexington","state_name":"Kentucky","lat":38.0388,"lng":-84.5425,"zip":"40533","miles_from_dt":20.8},{"city":"Lexington","state_name":"Kentucky","lat":37.98386,"lng":-84.48833,"zip":"40517","miles_from_dt":20.99},{"city":"Sadieville","state_name":"Kentucky","lat":38.39382,"lng":-84.52971,"zip":"40370","miles_from_dt":21.09},{"city":"Lexington","state_name":"Kentucky","lat":38.0047,"lng":-84.53434,"zip":"40503","miles_from_dt":21.85},{"city":"Lexington","state_name":"Kentucky","lat":37.98488,"lng":-84.514,"zip":"40523","miles_from_dt":21.93},{"city":"Lexington","state_name":"Kentucky","lat":37.92021,"lng":-84.4152,"zip":"40515","miles_from_dt":22.26},{"city":"Lexington","state_name":"Kentucky","lat":37.99012,"lng":-84.53308,"zip":"40524","miles_from_dt":22.45},{"city":"Lexington","state_name":"Kentucky","lat":38.07243,"lng":-84.60138,"zip":"40510","miles_from_dt":22.5},{"city":"Mount Olivet","state_name":"Kentucky","lat":38.51462,"lng":-84.07106,"zip":"41064","miles_from_dt":22.89},{"city":"Ewing","state_name":"Kentucky","lat":38.41381,"lng":-83.88074,"zip":"41039","miles_from_dt":23.56},{"city":"Lexington","state_name":"Kentucky","lat":37.98279,"lng":-84.56352,"zip":"40514","miles_from_dt":24.04},{"city":"Berry","state_name":"Kentucky","lat":38.53181,"lng":-84.39164,"zip":"41003","miles_from_dt":24.28},{"city":"Lexington","state_name":"Kentucky","lat":38.01626,"lng":-84.60694,"zip":"40513","miles_from_dt":24.6},{"city":"Owingsville","state_name":"Kentucky","lat":38.15665,"lng":-83.76679,"zip":"40360","miles_from_dt":25.13},{"city":"Milford","state_name":"Kentucky","lat":38.58265,"lng":-84.15486,"zip":"41061","miles_from_dt":26.29},{"city":"Stamping Ground","state_name":"Kentucky","lat":38.30778,"lng":-84.68992,"zip":"40379","miles_from_dt":26.3},{"city":"Elizaville","state_name":"Kentucky","lat":38.41997,"lng":-83.82414,"zip":"41037","miles_from_dt":26.3},{"city":"Jeffersonville","state_name":"Kentucky","lat":37.95286,"lng":-83.85644,"zip":"40337","miles_from_dt":26.55},{"city":"Midway","state_name":"Kentucky","lat":38.15794,"lng":-84.71915,"zip":"40347","miles_from_dt":27.15},{"city":"Hope","state_name":"Kentucky","lat":38.0197,"lng":-83.74943,"zip":"40334","miles_from_dt":28.86},{"city":"Mayslick","state_name":"Kentucky","lat":38.51787,"lng":-83.86995,"zip":"41055","miles_from_dt":28.89},{"city":"Keene","state_name":"Kentucky","lat":37.94313,"lng":-84.64107,"zip":"40339","miles_from_dt":29.05},{"city":"Corinth","state_name":"Kentucky","lat":38.50085,"lng":-84.60763,"zip":"41010","miles_from_dt":29.14},{"city":"Versailles","state_name":"Kentucky","lat":38.05198,"lng":-84.72598,"zip":"40384","miles_from_dt":29.32},{"city":"Nicholasville","state_name":"Kentucky","lat":37.87307,"lng":-84.56554,"zip":"40356","miles_from_dt":29.53},{"city":"Clay City","state_name":"Kentucky","lat":37.84386,"lng":-83.93013,"zip":"40312","miles_from_dt":29.65},{"city":"Nicholasville","state_name":"Kentucky","lat":37.87826,"lng":-84.57803,"zip":"40340","miles_from_dt":29.69}],"targetCityZipCode":"40361","targetCityState":"Kentucky"},"__N_SSG":true}