{"pageProps":{"stateName":"Kentucky","cityName":"ravenna","nearbyCities":[{"city":"Irvine","state_name":"Kentucky","lat":37.68352,"lng":-83.9832,"zip":"40336","miles_from_dt":6.37},{"city":"Stanton","state_name":"Kentucky","lat":37.81965,"lng":-83.78006,"zip":"40380","miles_from_dt":8.72},{"city":"Clay City","state_name":"Kentucky","lat":37.84386,"lng":-83.93013,"zip":"40312","miles_from_dt":9.15},{"city":"Slade","state_name":"Kentucky","lat":37.7839,"lng":-83.69604,"zip":"40376","miles_from_dt":10.82},{"city":"Zoe","state_name":"Kentucky","lat":37.66683,"lng":-83.67709,"zip":"41397","miles_from_dt":11.45},{"city":"Beattyville","state_name":"Kentucky","lat":37.57896,"lng":-83.72163,"zip":"41311","miles_from_dt":12.8},{"city":"Rogers","state_name":"Kentucky","lat":37.71117,"lng":-83.62663,"zip":"41365","miles_from_dt":13.65},{"city":"Waco","state_name":"Kentucky","lat":37.73866,"lng":-84.13085,"zip":"40385","miles_from_dt":14.05},{"city":"Pine Ridge","state_name":"Kentucky","lat":37.78889,"lng":-83.6264,"zip":"41360","miles_from_dt":14.49},{"city":"Saint Helens","state_name":"Kentucky","lat":37.57933,"lng":-83.64406,"zip":"41368","miles_from_dt":15.91},{"city":"Jeffersonville","state_name":"Kentucky","lat":37.95286,"lng":-83.85644,"zip":"40337","miles_from_dt":16.2},{"city":"Vincent","state_name":"Kentucky","lat":37.47992,"lng":-83.79273,"zip":"41386","miles_from_dt":17.06},{"city":"Waneta","state_name":"Kentucky","lat":37.47481,"lng":-84.03829,"zip":"40488","miles_from_dt":19.02},{"city":"Means","state_name":"Kentucky","lat":37.98339,"lng":-83.74384,"zip":"40346","miles_from_dt":19.64},{"city":"Lone","state_name":"Kentucky","lat":37.53286,"lng":-83.60177,"zip":"41347","miles_from_dt":19.73},{"city":"Frenchburg","state_name":"Kentucky","lat":37.93367,"lng":-83.63329,"zip":"40322","miles_from_dt":19.9},{"city":"McKee","state_name":"Kentucky","lat":37.45496,"lng":-84.0299,"zip":"40447","miles_from_dt":20.04},{"city":"Campton","state_name":"Kentucky","lat":37.72121,"lng":-83.48941,"zip":"41301","miles_from_dt":21.16},{"city":"Bighill","state_name":"Kentucky","lat":37.55775,"lng":-84.20809,"zip":"40405","miles_from_dt":21.34},{"city":"Hope","state_name":"Kentucky","lat":38.0197,"lng":-83.74943,"zip":"40334","miles_from_dt":21.89},{"city":"Gray Hawk","state_name":"Kentucky","lat":37.39364,"lng":-83.93949,"zip":"40434","miles_from_dt":22.67},{"city":"Winchester","state_name":"Kentucky","lat":37.96969,"lng":-84.14507,"zip":"40391","miles_from_dt":22.75},{"city":"Richmond","state_name":"Kentucky","lat":37.74898,"lng":-84.29351,"zip":"40476","miles_from_dt":22.99},{"city":"Booneville","state_name":"Kentucky","lat":37.44008,"lng":-83.63743,"zip":"41314","miles_from_dt":23.22},{"city":"Sandgap","state_name":"Kentucky","lat":37.42658,"lng":-84.09116,"zip":"40481","miles_from_dt":23.35},{"city":"Berea","state_name":"Kentucky","lat":37.57052,"lng":-84.26622,"zip":"40403","miles_from_dt":23.72},{"city":"Tyner","state_name":"Kentucky","lat":37.37238,"lng":-83.86123,"zip":"40486","miles_from_dt":23.88},{"city":"Richmond","state_name":"Kentucky","lat":37.7635,"lng":-84.30828,"zip":"40475","miles_from_dt":23.9},{"city":"Denniston","state_name":"Kentucky","lat":37.93419,"lng":-83.52895,"zip":"40316","miles_from_dt":24.11},{"city":"Mount Sterling","state_name":"Kentucky","lat":38.06514,"lng":-83.94853,"zip":"40353","miles_from_dt":24.24},{"city":"Berea","state_name":"Kentucky","lat":37.57311,"lng":-84.29037,"zip":"40404","miles_from_dt":24.85},{"city":"Winchester","state_name":"Kentucky","lat":37.98845,"lng":-84.17849,"zip":"40392","miles_from_dt":24.92},{"city":"Olympia","state_name":"Kentucky","lat":38.05769,"lng":-83.6831,"zip":"40358","miles_from_dt":25.66},{"city":"Wellington","state_name":"Kentucky","lat":37.93494,"lng":-83.49027,"zip":"40387","miles_from_dt":25.83},{"city":"Sextons Creek","state_name":"Kentucky","lat":37.34608,"lng":-83.75339,"zip":"40983","miles_from_dt":26.54},{"city":"Ricetown","state_name":"Kentucky","lat":37.37569,"lng":-83.64172,"zip":"41364","miles_from_dt":26.9},{"city":"Ezel","state_name":"Kentucky","lat":37.88407,"lng":-83.42761,"zip":"41425","miles_from_dt":27.05},{"city":"Hazel Green","state_name":"Kentucky","lat":37.80029,"lng":-83.37575,"zip":"41332","miles_from_dt":27.95},{"city":"Salt Lick","state_name":"Kentucky","lat":38.07716,"lng":-83.59561,"zip":"40371","miles_from_dt":29.09},{"city":"Annville","state_name":"Kentucky","lat":37.29663,"lng":-83.97008,"zip":"40402","miles_from_dt":29.55},{"city":"Vancleve","state_name":"Kentucky","lat":37.64998,"lng":-83.33665,"zip":"41385","miles_from_dt":29.92}],"targetCityZipCode":"40472","targetCityState":"Kentucky"},"__N_SSG":true}