{"pageProps":{"stateName":"Kentucky","cityName":"rosine","nearbyCities":[{"city":"Horse Branch","state_name":"Kentucky","lat":37.42695,"lng":-86.67425,"zip":"42349","miles_from_dt":4},{"city":"Cromwell","state_name":"Kentucky","lat":37.37718,"lng":-86.75609,"zip":"42333","miles_from_dt":5.07},{"city":"Olaton","state_name":"Kentucky","lat":37.51791,"lng":-86.69183,"zip":"42361","miles_from_dt":5.43},{"city":"Dundee","state_name":"Kentucky","lat":37.55295,"lng":-86.77408,"zip":"42338","miles_from_dt":7.35},{"city":"Hartford","state_name":"Kentucky","lat":37.52414,"lng":-86.88715,"zip":"42347","miles_from_dt":9.52},{"city":"Beaver Dam","state_name":"Kentucky","lat":37.35093,"lng":-86.87291,"zip":"42320","miles_from_dt":9.94},{"city":"McHenry","state_name":"Kentucky","lat":37.37915,"lng":-86.9273,"zip":"42354","miles_from_dt":11.33},{"city":"Fordsville","state_name":"Kentucky","lat":37.63594,"lng":-86.69795,"zip":"42343","miles_from_dt":13.06},{"city":"Caneyville","state_name":"Kentucky","lat":37.42173,"lng":-86.49593,"zip":"42721","miles_from_dt":13.63},{"city":"Aberdeen","state_name":"Kentucky","lat":37.25362,"lng":-86.68473,"zip":"42201","miles_from_dt":13.88},{"city":"Falls Of Rough","state_name":"Kentucky","lat":37.60799,"lng":-86.54925,"zip":"40119","miles_from_dt":15.18},{"city":"Whitesville","state_name":"Kentucky","lat":37.65093,"lng":-86.87258,"zip":"42378","miles_from_dt":15.64},{"city":"Morgantown","state_name":"Kentucky","lat":37.22405,"lng":-86.67015,"zip":"42261","miles_from_dt":16.05},{"city":"Rockport","state_name":"Kentucky","lat":37.3517,"lng":-87.00719,"zip":"42369","miles_from_dt":16.12},{"city":"Centertown","state_name":"Kentucky","lat":37.41898,"lng":-87.0429,"zip":"42328","miles_from_dt":16.73},{"city":"Reynolds Station","state_name":"Kentucky","lat":37.71258,"lng":-86.75133,"zip":"42368","miles_from_dt":18.14},{"city":"Rochester","state_name":"Kentucky","lat":37.20128,"lng":-86.85916,"zip":"42273","miles_from_dt":18.32},{"city":"Millwood","state_name":"Kentucky","lat":37.45366,"lng":-86.39527,"zip":"42762","miles_from_dt":19.02},{"city":"Livermore","state_name":"Kentucky","lat":37.51333,"lng":-87.0833,"zip":"42352","miles_from_dt":19.31},{"city":"Woodbury","state_name":"Kentucky","lat":37.18172,"lng":-86.6362,"zip":"42288","miles_from_dt":19.36},{"city":"Dunbar","state_name":"Kentucky","lat":37.16422,"lng":-86.74949,"zip":"42219","miles_from_dt":19.69},{"city":"Jetson","state_name":"Kentucky","lat":37.23713,"lng":-86.50029,"zip":"42252","miles_from_dt":19.77},{"city":"McDaniels","state_name":"Kentucky","lat":37.61389,"lng":-86.44185,"zip":"40152","miles_from_dt":19.96},{"city":"Browder","state_name":"Kentucky","lat":37.23666,"lng":-87.00835,"zip":"42326","miles_from_dt":20.79},{"city":"Drakesboro","state_name":"Kentucky","lat":37.22309,"lng":-86.99964,"zip":"42337","miles_from_dt":21.14},{"city":"Hawesville","state_name":"Kentucky","lat":37.75244,"lng":-86.8148,"zip":"42364","miles_from_dt":21.27},{"city":"McQuady","state_name":"Kentucky","lat":37.70793,"lng":-86.52117,"zip":"40153","miles_from_dt":21.52},{"city":"Philpot","state_name":"Kentucky","lat":37.72404,"lng":-86.93988,"zip":"42366","miles_from_dt":21.84},{"city":"Utica","state_name":"Kentucky","lat":37.61626,"lng":-87.08619,"zip":"42376","miles_from_dt":22.16},{"city":"Roundhill","state_name":"Kentucky","lat":37.22701,"lng":-86.44628,"zip":"42275","miles_from_dt":22.35},{"city":"Central City","state_name":"Kentucky","lat":37.31436,"lng":-87.12245,"zip":"42330","miles_from_dt":22.96},{"city":"Westview","state_name":"Kentucky","lat":37.65834,"lng":-86.40853,"zip":"40178","miles_from_dt":23.25},{"city":"South Carrollton","state_name":"Kentucky","lat":37.33333,"lng":-87.14045,"zip":"42374","miles_from_dt":23.39},{"city":"Cloverport","state_name":"Kentucky","lat":37.77881,"lng":-86.62881,"zip":"40111","miles_from_dt":23.52},{"city":"Cleaton","state_name":"Kentucky","lat":37.25099,"lng":-87.08935,"zip":"42332","miles_from_dt":23.56},{"city":"Leitchfield","state_name":"Kentucky","lat":37.47814,"lng":-86.31379,"zip":"42754","miles_from_dt":23.58},{"city":"Island","state_name":"Kentucky","lat":37.44852,"lng":-87.1831,"zip":"42350","miles_from_dt":24.3},{"city":"Leitchfield","state_name":"Kentucky","lat":37.47843,"lng":-86.29141,"zip":"42755","miles_from_dt":24.81},{"city":"Beechmont","state_name":"Kentucky","lat":37.17406,"lng":-87.03261,"zip":"42323","miles_from_dt":24.88},{"city":"Beech Creek","state_name":"Kentucky","lat":37.17977,"lng":-87.05195,"zip":"42321","miles_from_dt":25.29},{"city":"Dunmor","state_name":"Kentucky","lat":37.11326,"lng":-86.95033,"zip":"42339","miles_from_dt":25.91},{"city":"Belton","state_name":"Kentucky","lat":37.13863,"lng":-87.00974,"zip":"42324","miles_from_dt":26.06},{"city":"Hawesville","state_name":"Kentucky","lat":37.83379,"lng":-86.76578,"zip":"42348","miles_from_dt":26.52},{"city":"Hardinsburg","state_name":"Kentucky","lat":37.78541,"lng":-86.50507,"zip":"40143","miles_from_dt":26.53},{"city":"Hudson","state_name":"Kentucky","lat":37.64607,"lng":-86.32019,"zip":"40145","miles_from_dt":26.79},{"city":"Powderly","state_name":"Kentucky","lat":37.2448,"lng":-87.16133,"zip":"42367","miles_from_dt":27.11},{"city":"Owensboro","state_name":"Kentucky","lat":37.76138,"lng":-87.04889,"zip":"42303","miles_from_dt":27.33},{"city":"Owensboro","state_name":"Kentucky","lat":37.76509,"lng":-87.04365,"zip":"42302","miles_from_dt":27.36},{"city":"Bee Spring","state_name":"Kentucky","lat":37.30357,"lng":-86.27858,"zip":"42207","miles_from_dt":27.38},{"city":"Sweeden","state_name":"Kentucky","lat":37.26418,"lng":-86.29751,"zip":"42285","miles_from_dt":27.57},{"city":"Brownsville","state_name":"Kentucky","lat":37.21724,"lng":-86.31438,"zip":"42210","miles_from_dt":28.45},{"city":"Harned","state_name":"Kentucky","lat":37.75899,"lng":-86.37732,"zip":"40144","miles_from_dt":29.22},{"city":"Sacramento","state_name":"Kentucky","lat":37.40588,"lng":-87.2773,"zip":"42372","miles_from_dt":29.64}],"targetCityZipCode":"42370","targetCityState":"Kentucky"},"__N_SSG":true}