{"pageProps":{"stateName":"Kentucky","cityName":"thelma","nearbyCities":[{"city":"Williamsport","state_name":"Kentucky","lat":37.82773,"lng":-82.72453,"zip":"41271","miles_from_dt":1.51},{"city":"Meally","state_name":"Kentucky","lat":37.79654,"lng":-82.74161,"zip":"41234","miles_from_dt":1.87},{"city":"Paintsville","state_name":"Kentucky","lat":37.82103,"lng":-82.78927,"zip":"41240","miles_from_dt":2.08},{"city":"Tutor Key","state_name":"Kentucky","lat":37.85717,"lng":-82.76256,"zip":"41263","miles_from_dt":2.47},{"city":"West Van Lear","state_name":"Kentucky","lat":37.78797,"lng":-82.78433,"zip":"41268","miles_from_dt":2.99},{"city":"Boons Camp","state_name":"Kentucky","lat":37.81784,"lng":-82.6843,"zip":"41204","miles_from_dt":3.68},{"city":"Wittensville","state_name":"Kentucky","lat":37.86174,"lng":-82.81164,"zip":"41274","miles_from_dt":4.27},{"city":"River","state_name":"Kentucky","lat":37.8845,"lng":-82.72711,"zip":"41254","miles_from_dt":4.47},{"city":"Van Lear","state_name":"Kentucky","lat":37.75424,"lng":-82.70446,"zip":"41265","miles_from_dt":5.36},{"city":"Auxier","state_name":"Kentucky","lat":37.7387,"lng":-82.75249,"zip":"41602","miles_from_dt":5.78},{"city":"Hagerhill","state_name":"Kentucky","lat":37.77036,"lng":-82.85032,"zip":"41222","miles_from_dt":6.51},{"city":"Stambaugh","state_name":"Kentucky","lat":37.91372,"lng":-82.8044,"zip":"41257","miles_from_dt":6.93},{"city":"Staffordsville","state_name":"Kentucky","lat":37.82446,"lng":-82.88135,"zip":"41256","miles_from_dt":7.12},{"city":"East Point","state_name":"Kentucky","lat":37.73016,"lng":-82.81308,"zip":"41216","miles_from_dt":7.21},{"city":"Sitka","state_name":"Kentucky","lat":37.91014,"lng":-82.83765,"zip":"41255","miles_from_dt":7.67},{"city":"Tomahawk","state_name":"Kentucky","lat":37.85112,"lng":-82.61377,"zip":"41262","miles_from_dt":7.77},{"city":"Lowmansville","state_name":"Kentucky","lat":37.93602,"lng":-82.74007,"zip":"41232","miles_from_dt":7.85},{"city":"Debord","state_name":"Kentucky","lat":37.79448,"lng":-82.59839,"zip":"41214","miles_from_dt":8.59},{"city":"Ulysses","state_name":"Kentucky","lat":37.94021,"lng":-82.677,"zip":"41264","miles_from_dt":9.07},{"city":"Oil Springs","state_name":"Kentucky","lat":37.83943,"lng":-82.95072,"zip":"41238","miles_from_dt":10.97},{"city":"Flatgap","state_name":"Kentucky","lat":37.92586,"lng":-82.90882,"zip":"41219","miles_from_dt":11.18},{"city":"Prestonsburg","state_name":"Kentucky","lat":37.6603,"lng":-82.76466,"zip":"41653","miles_from_dt":11.21},{"city":"Inez","state_name":"Kentucky","lat":37.82089,"lng":-82.53936,"zip":"41224","miles_from_dt":11.59},{"city":"Dwale","state_name":"Kentucky","lat":37.6269,"lng":-82.72663,"zip":"41621","miles_from_dt":13.56},{"city":"Falcon","state_name":"Kentucky","lat":37.78872,"lng":-83.00004,"zip":"41426","miles_from_dt":13.81},{"city":"Blue River","state_name":"Kentucky","lat":37.62216,"lng":-82.8438,"zip":"41607","miles_from_dt":14.72},{"city":"Blaine","state_name":"Kentucky","lat":38.02148,"lng":-82.85118,"zip":"41124","miles_from_dt":14.77},{"city":"Allen","state_name":"Kentucky","lat":37.60969,"lng":-82.72037,"zip":"41601","miles_from_dt":14.78},{"city":"Keaton","state_name":"Kentucky","lat":37.97853,"lng":-82.9562,"zip":"41226","miles_from_dt":15.53},{"city":"Mazie","state_name":"Kentucky","lat":38.03389,"lng":-82.85851,"zip":"41160","miles_from_dt":15.71},{"city":"Beauty","state_name":"Kentucky","lat":37.85241,"lng":-82.46112,"zip":"41203","miles_from_dt":16},{"city":"Royalton","state_name":"Kentucky","lat":37.65974,"lng":-82.97201,"zip":"41464","miles_from_dt":16.5},{"city":"Adams","state_name":"Kentucky","lat":38.06201,"lng":-82.7576,"zip":"41201","miles_from_dt":16.52},{"city":"Ivel","state_name":"Kentucky","lat":37.59569,"lng":-82.64457,"zip":"41642","miles_from_dt":16.7},{"city":"Pilgrim","state_name":"Kentucky","lat":37.73511,"lng":-82.46079,"zip":"41250","miles_from_dt":17.01},{"city":"Martin","state_name":"Kentucky","lat":37.57139,"lng":-82.78337,"zip":"41649","miles_from_dt":17.41},{"city":"Louisa","state_name":"Kentucky","lat":38.0656,"lng":-82.66196,"zip":"41230","miles_from_dt":17.46},{"city":"Warfield","state_name":"Kentucky","lat":37.87514,"lng":-82.43591,"zip":"41267","miles_from_dt":17.62},{"city":"Martha","state_name":"Kentucky","lat":38.01305,"lng":-82.96993,"zip":"41159","miles_from_dt":17.76},{"city":"David","state_name":"Kentucky","lat":37.58522,"lng":-82.87847,"zip":"41616","miles_from_dt":17.79},{"city":"Crum","state_name":"West Virginia","lat":37.93186,"lng":-82.4519,"zip":"25669","miles_from_dt":18.02},{"city":"Tram","state_name":"Kentucky","lat":37.56844,"lng":-82.65966,"zip":"41663","miles_from_dt":18.23},{"city":"Stanville","state_name":"Kentucky","lat":37.58415,"lng":-82.60064,"zip":"41659","miles_from_dt":18.4},{"city":"Banner","state_name":"Kentucky","lat":37.55934,"lng":-82.68704,"zip":"41603","miles_from_dt":18.49},{"city":"Salyersville","state_name":"Kentucky","lat":37.72985,"lng":-83.08494,"zip":"41465","miles_from_dt":19.35},{"city":"Betsy Layne","state_name":"Kentucky","lat":37.55498,"lng":-82.63009,"zip":"41605","miles_from_dt":19.61},{"city":"Dana","state_name":"Kentucky","lat":37.54211,"lng":-82.68337,"zip":"41615","miles_from_dt":19.69},{"city":"Lovely","state_name":"Kentucky","lat":37.79447,"lng":-82.38903,"zip":"41231","miles_from_dt":19.91},{"city":"Langley","state_name":"Kentucky","lat":37.52872,"lng":-82.79294,"zip":"41645","miles_from_dt":20.39},{"city":"Eastern","state_name":"Kentucky","lat":37.51377,"lng":-82.80925,"zip":"41622","miles_from_dt":21.53},{"city":"Varney","state_name":"Kentucky","lat":37.62651,"lng":-82.44437,"zip":"41571","miles_from_dt":21.57},{"city":"Gunlock","state_name":"Kentucky","lat":37.55029,"lng":-82.94982,"zip":"41632","miles_from_dt":21.7},{"city":"Crockett","state_name":"Kentucky","lat":37.98747,"lng":-83.09117,"zip":"41413","miles_from_dt":21.78},{"city":"Printer","state_name":"Kentucky","lat":37.50496,"lng":-82.72465,"zip":"41655","miles_from_dt":21.95},{"city":"Fort Gay","state_name":"West Virginia","lat":38.08136,"lng":-82.51678,"zip":"25514","miles_from_dt":21.97},{"city":"Webbville","state_name":"Kentucky","lat":38.13358,"lng":-82.85999,"zip":"41180","miles_from_dt":22.26},{"city":"Kermit","state_name":"West Virginia","lat":37.87114,"lng":-82.34672,"zip":"25674","miles_from_dt":22.38},{"city":"Isonville","state_name":"Kentucky","lat":38.06008,"lng":-83.05438,"zip":"41149","miles_from_dt":23.29},{"city":"Drift","state_name":"Kentucky","lat":37.48328,"lng":-82.74187,"zip":"41619","miles_from_dt":23.4},{"city":"Naugatuck","state_name":"West Virginia","lat":37.79592,"lng":-82.31426,"zip":"25685","miles_from_dt":23.98},{"city":"Minnie","state_name":"Kentucky","lat":37.46716,"lng":-82.75527,"zip":"41651","miles_from_dt":24.51},{"city":"Harold","state_name":"Kentucky","lat":37.48009,"lng":-82.62831,"zip":"41635","miles_from_dt":24.56},{"city":"Grethel","state_name":"Kentucky","lat":37.46801,"lng":-82.65365,"zip":"41631","miles_from_dt":25.03},{"city":"Belfry","state_name":"Kentucky","lat":37.67135,"lng":-82.33169,"zip":"41514","miles_from_dt":25.23},{"city":"Pikeville","state_name":"Kentucky","lat":37.50805,"lng":-82.5154,"zip":"41501","miles_from_dt":25.25},{"city":"Garrett","state_name":"Kentucky","lat":37.46416,"lng":-82.84992,"zip":"41630","miles_from_dt":25.3},{"city":"Borderland","state_name":"West Virginia","lat":37.71382,"lng":-82.30604,"zip":"25665","miles_from_dt":25.5},{"city":"Genoa","state_name":"West Virginia","lat":38.10989,"lng":-82.45368,"zip":"25517","miles_from_dt":25.63},{"city":"Hueysville","state_name":"Kentucky","lat":37.47649,"lng":-82.92643,"zip":"41640","miles_from_dt":25.73},{"city":"Wilsondale","state_name":"West Virginia","lat":37.96297,"lng":-82.31493,"zip":"25699","miles_from_dt":25.74},{"city":"Elkfork","state_name":"Kentucky","lat":37.99027,"lng":-83.17397,"zip":"41421","miles_from_dt":25.83},{"city":"Sidney","state_name":"Kentucky","lat":37.60476,"lng":-82.3667,"zip":"41564","miles_from_dt":25.87},{"city":"Breeden","state_name":"West Virginia","lat":37.9203,"lng":-82.29432,"zip":"25666","miles_from_dt":25.88},{"city":"Dunlow","state_name":"West Virginia","lat":38.03194,"lng":-82.35637,"zip":"25511","miles_from_dt":25.96},{"city":"Sandy Hook","state_name":"Kentucky","lat":38.09336,"lng":-83.08901,"zip":"41171","miles_from_dt":26.25},{"city":"Wayland","state_name":"Kentucky","lat":37.4396,"lng":-82.80621,"zip":"41666","miles_from_dt":26.58},{"city":"Pikeville","state_name":"Kentucky","lat":37.47966,"lng":-82.51877,"zip":"41502","miles_from_dt":26.86},{"city":"Lackey","state_name":"Kentucky","lat":37.43778,"lng":-82.84307,"zip":"41643","miles_from_dt":27.01},{"city":"West Liberty","state_name":"Kentucky","lat":37.94179,"lng":-83.22334,"zip":"41472","miles_from_dt":27.08},{"city":"McDowell","state_name":"Kentucky","lat":37.43056,"lng":-82.71737,"zip":"41647","miles_from_dt":27.1},{"city":"Chattaroy","state_name":"West Virginia","lat":37.70619,"lng":-82.2738,"zip":"25667","miles_from_dt":27.34},{"city":"Willard","state_name":"Kentucky","lat":38.20758,"lng":-82.87425,"zip":"41181","miles_from_dt":27.39},{"city":"South Williamson","state_name":"Kentucky","lat":37.66079,"lng":-82.28446,"zip":"41503","miles_from_dt":27.89},{"city":"Malone","state_name":"Kentucky","lat":37.87383,"lng":-83.25871,"zip":"41451","miles_from_dt":27.98},{"city":"Forest Hills","state_name":"Kentucky","lat":37.63187,"lng":-82.29378,"zip":"41527","miles_from_dt":28.3},{"city":"Williamson","state_name":"West Virginia","lat":37.71062,"lng":-82.25377,"zip":"25661","miles_from_dt":28.31},{"city":"Lenore","state_name":"West Virginia","lat":37.82509,"lng":-82.22972,"zip":"25676","miles_from_dt":28.53},{"city":"Mousie","state_name":"Kentucky","lat":37.42041,"lng":-82.87741,"zip":"41839","miles_from_dt":28.58},{"city":"Canada","state_name":"Kentucky","lat":37.58359,"lng":-82.32334,"zip":"41519","miles_from_dt":28.66},{"city":"Teaberry","state_name":"Kentucky","lat":37.41341,"lng":-82.63846,"zip":"41660","miles_from_dt":28.89},{"city":"Rousseau","state_name":"Kentucky","lat":37.62472,"lng":-83.21959,"zip":"41366","miles_from_dt":29.06},{"city":"Dema","state_name":"Kentucky","lat":37.39922,"lng":-82.77606,"zip":"41859","miles_from_dt":29.23},{"city":"Hi Hat","state_name":"Kentucky","lat":37.39772,"lng":-82.73087,"zip":"41636","miles_from_dt":29.32},{"city":"Cannel City","state_name":"Kentucky","lat":37.79508,"lng":-83.28828,"zip":"41408","miles_from_dt":29.45},{"city":"Fords Branch","state_name":"Kentucky","lat":37.43372,"lng":-82.51256,"zip":"41526","miles_from_dt":29.84},{"city":"Raccoon","state_name":"Kentucky","lat":37.48189,"lng":-82.41548,"zip":"41557","miles_from_dt":29.85}],"targetCityZipCode":"41260","targetCityState":"Kentucky"},"__N_SSG":true}