{"pageProps":{"stateName":"Kentucky","cityName":"bardwell","nearbyCities":[{"city":"Arlington","state_name":"Kentucky","lat":36.80129,"lng":-88.9957,"zip":"42021","miles_from_dt":5.19},{"city":"Wickliffe","state_name":"Kentucky","lat":36.97328,"lng":-89.00323,"zip":"42087","miles_from_dt":6.75},{"city":"Milburn","state_name":"Kentucky","lat":36.79794,"lng":-88.89766,"zip":"42070","miles_from_dt":7.34},{"city":"Cunningham","state_name":"Kentucky","lat":36.90392,"lng":-88.83674,"zip":"42035","miles_from_dt":8.56},{"city":"Lovelaceville","state_name":"Kentucky","lat":36.96385,"lng":-88.82778,"zip":"42060","miles_from_dt":10.71},{"city":"Columbus","state_name":"Kentucky","lat":36.751,"lng":-89.10378,"zip":"42032","miles_from_dt":10.78},{"city":"Fancy Farm","state_name":"Kentucky","lat":36.78535,"lng":-88.82809,"zip":"42039","miles_from_dt":10.83},{"city":"Lowes","state_name":"Kentucky","lat":36.88262,"lng":-88.76959,"zip":"42061","miles_from_dt":12.08},{"city":"Clinton","state_name":"Kentucky","lat":36.68741,"lng":-88.98864,"zip":"42031","miles_from_dt":13.02},{"city":"Melber","state_name":"Kentucky","lat":36.92328,"lng":-88.75828,"zip":"42069","miles_from_dt":13.1},{"city":"Wyatt","state_name":"Missouri","lat":36.91639,"lng":-89.21974,"zip":"63882","miles_from_dt":13.16},{"city":"Barlow","state_name":"Kentucky","lat":37.0742,"lng":-89.05026,"zip":"42024","miles_from_dt":14.09},{"city":"Wolf Island","state_name":"Missouri","lat":36.7379,"lng":-89.21183,"zip":"63881","miles_from_dt":15.68},{"city":"La Center","state_name":"Kentucky","lat":37.11088,"lng":-88.98452,"zip":"42056","miles_from_dt":16.18},{"city":"Charleston","state_name":"Missouri","lat":36.91989,"lng":-89.27885,"zip":"63834","miles_from_dt":16.42},{"city":"Cairo","state_name":"Illinois","lat":37.04076,"lng":-89.20329,"zip":"62914","miles_from_dt":16.48},{"city":"Kevil","state_name":"Kentucky","lat":37.1033,"lng":-88.87606,"zip":"42053","miles_from_dt":16.83},{"city":"Mound City","state_name":"Illinois","lat":37.0933,"lng":-89.16263,"zip":"62963","miles_from_dt":17.83},{"city":"Paducah","state_name":"Kentucky","lat":37.03317,"lng":-88.7135,"zip":"42001","miles_from_dt":18.63},{"city":"West Paducah","state_name":"Kentucky","lat":37.0828,"lng":-88.76838,"zip":"42086","miles_from_dt":18.7},{"city":"Bandana","state_name":"Kentucky","lat":37.14593,"lng":-88.94553,"zip":"42022","miles_from_dt":18.74},{"city":"Hickory","state_name":"Kentucky","lat":36.85629,"lng":-88.64522,"zip":"42051","miles_from_dt":19.01},{"city":"Anniston","state_name":"Missouri","lat":36.82427,"lng":-89.32564,"zip":"63820","miles_from_dt":19.08},{"city":"Boaz","state_name":"Kentucky","lat":36.91585,"lng":-88.63018,"zip":"42027","miles_from_dt":19.97},{"city":"Mounds","state_name":"Illinois","lat":37.12705,"lng":-89.21526,"zip":"62964","miles_from_dt":21.4},{"city":"East Prairie","state_name":"Missouri","lat":36.70944,"lng":-89.31505,"zip":"63845","miles_from_dt":21.5},{"city":"Mayfield","state_name":"Kentucky","lat":36.73328,"lng":-88.6403,"zip":"42066","miles_from_dt":21.63},{"city":"Wingo","state_name":"Kentucky","lat":36.61808,"lng":-88.75409,"zip":"42088","miles_from_dt":22.01},{"city":"Villa Ridge","state_name":"Illinois","lat":37.16624,"lng":-89.15984,"zip":"62996","miles_from_dt":22.15},{"city":"Water Valley","state_name":"Kentucky","lat":36.56942,"lng":-88.80044,"zip":"42085","miles_from_dt":23.56},{"city":"Miller City","state_name":"Illinois","lat":37.07431,"lng":-89.33537,"zip":"62962","miles_from_dt":23.6},{"city":"Fulton","state_name":"Kentucky","lat":36.54593,"lng":-88.87456,"zip":"42041","miles_from_dt":23.62},{"city":"Paducah","state_name":"Kentucky","lat":37.00653,"lng":-88.58472,"zip":"42003","miles_from_dt":24.03},{"city":"Paducah","state_name":"Kentucky","lat":37.06855,"lng":-88.62494,"zip":"42002","miles_from_dt":24.04},{"city":"Olmsted","state_name":"Illinois","lat":37.21362,"lng":-89.10119,"zip":"62970","miles_from_dt":24.1},{"city":"Joppa","state_name":"Illinois","lat":37.20684,"lng":-88.84533,"zip":"62953","miles_from_dt":24.11},{"city":"Grand Chain","state_name":"Illinois","lat":37.24142,"lng":-88.97186,"zip":"62941","miles_from_dt":25.2},{"city":"Hickman","state_name":"Kentucky","lat":36.54675,"lng":-89.20347,"zip":"42050","miles_from_dt":25.69},{"city":"Bertrand","state_name":"Missouri","lat":36.89628,"lng":-89.45367,"zip":"63823","miles_from_dt":25.86},{"city":"Pulaski","state_name":"Illinois","lat":37.21954,"lng":-89.2095,"zip":"62976","miles_from_dt":26.67},{"city":"Symsonia","state_name":"Kentucky","lat":36.91618,"lng":-88.50092,"zip":"42082","miles_from_dt":27.08},{"city":"Olive Branch","state_name":"Illinois","lat":37.15181,"lng":-89.34674,"zip":"62969","miles_from_dt":27.49},{"city":"Karnak","state_name":"Illinois","lat":37.27805,"lng":-88.93127,"zip":"62956","miles_from_dt":27.88},{"city":"Metropolis","state_name":"Illinois","lat":37.22515,"lng":-88.71097,"zip":"62960","miles_from_dt":28.5},{"city":"South Fulton","state_name":"Tennessee","lat":36.46386,"lng":-88.88397,"zip":"38257","miles_from_dt":29.01},{"city":"Ullin","state_name":"Illinois","lat":37.27855,"lng":-89.1556,"zip":"62992","miles_from_dt":29.26},{"city":"Unity","state_name":"Illinois","lat":37.23641,"lng":-89.2696,"zip":"62993","miles_from_dt":29.33},{"city":"Tamms","state_name":"Illinois","lat":37.23184,"lng":-89.29629,"zip":"62988","miles_from_dt":29.88}],"targetCityZipCode":"42023","targetCityState":"Kentucky"},"__N_SSG":true}