{"pageProps":{"stateName":"Kentucky","cityName":"campbellsville","nearbyCities":[{"city":"Campbellsville","state_name":"Kentucky","lat":37.34194,"lng":-85.34023,"zip":"42719","miles_from_dt":3.84},{"city":"Mannsville","state_name":"Kentucky","lat":37.37656,"lng":-85.19756,"zip":"42758","miles_from_dt":9.84},{"city":"Raywick","state_name":"Kentucky","lat":37.53529,"lng":-85.44371,"zip":"40060","miles_from_dt":10.7},{"city":"Elk Horn","state_name":"Kentucky","lat":37.34008,"lng":-85.18028,"zip":"42733","miles_from_dt":11.29},{"city":"Saint Mary","state_name":"Kentucky","lat":37.57052,"lng":-85.34336,"zip":"40063","miles_from_dt":12.58},{"city":"Lebanon","state_name":"Kentucky","lat":37.55935,"lng":-85.23928,"zip":"40033","miles_from_dt":13.88},{"city":"Mount Sherman","state_name":"Kentucky","lat":37.42948,"lng":-85.62507,"zip":"42764","miles_from_dt":13.99},{"city":"Greensburg","state_name":"Kentucky","lat":37.22958,"lng":-85.53175,"zip":"42743","miles_from_dt":14.01},{"city":"Buffalo","state_name":"Kentucky","lat":37.47495,"lng":-85.61925,"zip":"42716","miles_from_dt":14.63},{"city":"Summersville","state_name":"Kentucky","lat":37.34475,"lng":-85.63702,"zip":"42782","miles_from_dt":14.72},{"city":"Saint Francis","state_name":"Kentucky","lat":37.59969,"lng":-85.43161,"zip":"40062","miles_from_dt":14.79},{"city":"New Hope","state_name":"Kentucky","lat":37.58417,"lng":-85.51154,"zip":"40052","miles_from_dt":15.34},{"city":"Cane Valley","state_name":"Kentucky","lat":37.17028,"lng":-85.32617,"zip":"42720","miles_from_dt":15.39},{"city":"Knifley","state_name":"Kentucky","lat":37.22299,"lng":-85.17411,"zip":"42753","miles_from_dt":15.99},{"city":"Bradfordsville","state_name":"Kentucky","lat":37.47075,"lng":-85.099,"zip":"40009","miles_from_dt":16.2},{"city":"Loretto","state_name":"Kentucky","lat":37.65409,"lng":-85.41196,"zip":"40037","miles_from_dt":18.33},{"city":"Nerinx","state_name":"Kentucky","lat":37.66442,"lng":-85.39724,"zip":"40049","miles_from_dt":18.97},{"city":"Magnolia","state_name":"Kentucky","lat":37.40192,"lng":-85.72501,"zip":"42757","miles_from_dt":19.24},{"city":"Columbia","state_name":"Kentucky","lat":37.10943,"lng":-85.28873,"zip":"42728","miles_from_dt":19.93},{"city":"Canmer","state_name":"Kentucky","lat":37.27628,"lng":-85.71703,"zip":"42722","miles_from_dt":20.37},{"city":"New Haven","state_name":"Kentucky","lat":37.65293,"lng":-85.57949,"zip":"40051","miles_from_dt":21.32},{"city":"Hodgenville","state_name":"Kentucky","lat":37.57029,"lng":-85.70952,"zip":"42748","miles_from_dt":22.17},{"city":"Gradyville","state_name":"Kentucky","lat":37.07774,"lng":-85.47888,"zip":"42742","miles_from_dt":22.27},{"city":"Gravel Switch","state_name":"Kentucky","lat":37.56632,"lng":-85.02565,"zip":"40328","miles_from_dt":22.76},{"city":"Saint Catharine","state_name":"Kentucky","lat":37.70954,"lng":-85.26353,"zip":"40061","miles_from_dt":22.88},{"city":"Hardyville","state_name":"Kentucky","lat":37.21233,"lng":-85.73304,"zip":"42746","miles_from_dt":23.19},{"city":"Liberty","state_name":"Kentucky","lat":37.30566,"lng":-84.95265,"zip":"42539","miles_from_dt":24},{"city":"Springfield","state_name":"Kentucky","lat":37.71627,"lng":-85.21764,"zip":"40069","miles_from_dt":24.12},{"city":"Dunnville","state_name":"Kentucky","lat":37.18335,"lng":-85.01712,"zip":"42528","miles_from_dt":24.35},{"city":"Center","state_name":"Kentucky","lat":37.13428,"lng":-85.68822,"zip":"42214","miles_from_dt":24.65},{"city":"Mitchellsburg","state_name":"Kentucky","lat":37.59841,"lng":-84.9643,"zip":"40452","miles_from_dt":26.79},{"city":"Perryville","state_name":"Kentucky","lat":37.65158,"lng":-84.98782,"zip":"40468","miles_from_dt":27.92},{"city":"Bonnieville","state_name":"Kentucky","lat":37.37631,"lng":-85.88282,"zip":"42713","miles_from_dt":27.93},{"city":"Parksville","state_name":"Kentucky","lat":37.55579,"lng":-84.91148,"zip":"40464","miles_from_dt":27.96},{"city":"Glens Fork","state_name":"Kentucky","lat":36.9888,"lng":-85.25183,"zip":"42741","miles_from_dt":28.49},{"city":"Hustonville","state_name":"Kentucky","lat":37.44531,"lng":-84.85486,"zip":"40437","miles_from_dt":28.9},{"city":"Bardstown","state_name":"Kentucky","lat":37.80279,"lng":-85.4695,"zip":"40004","miles_from_dt":28.93},{"city":"Russell Springs","state_name":"Kentucky","lat":37.05624,"lng":-85.0352,"zip":"42642","miles_from_dt":29.7},{"city":"Boston","state_name":"Kentucky","lat":37.76952,"lng":-85.63798,"zip":"40107","miles_from_dt":29.88}],"targetCityZipCode":"42718","targetCityState":"Kentucky"},"__N_SSG":true}