{"pageProps":{"stateName":"Kentucky","cityName":"east-bernstadt","nearbyCities":[{"city":"Livingston","state_name":"Kentucky","lat":37.3125,"lng":-84.21159,"zip":"40445","miles_from_dt":5.91},{"city":"Pittsburg","state_name":"Kentucky","lat":37.15958,"lng":-84.1041,"zip":"40755","miles_from_dt":6.27},{"city":"London","state_name":"Kentucky","lat":37.14339,"lng":-84.18706,"zip":"40750","miles_from_dt":7.23},{"city":"London","state_name":"Kentucky","lat":37.13349,"lng":-84.11636,"zip":"40741","miles_from_dt":7.78},{"city":"London","state_name":"Kentucky","lat":37.12917,"lng":-84.08234,"zip":"40743","miles_from_dt":8.67},{"city":"Annville","state_name":"Kentucky","lat":37.29663,"lng":-83.97008,"zip":"40402","miles_from_dt":10.46},{"city":"London","state_name":"Kentucky","lat":37.08965,"lng":-84.14659,"zip":"40742","miles_from_dt":10.61},{"city":"London","state_name":"Kentucky","lat":37.08879,"lng":-84.14358,"zip":"40745","miles_from_dt":10.67},{"city":"Orlando","state_name":"Kentucky","lat":37.39385,"lng":-84.23985,"zip":"40460","miles_from_dt":11.54},{"city":"Bush","state_name":"Kentucky","lat":37.07756,"lng":-84.08286,"zip":"40724","miles_from_dt":11.99},{"city":"Mount Vernon","state_name":"Kentucky","lat":37.3538,"lng":-84.32099,"zip":"40456","miles_from_dt":12.2},{"city":"Sandgap","state_name":"Kentucky","lat":37.42658,"lng":-84.09116,"zip":"40481","miles_from_dt":13.01},{"city":"Renfro Valley","state_name":"Kentucky","lat":37.38853,"lng":-84.33044,"zip":"40473","miles_from_dt":14.18},{"city":"London","state_name":"Kentucky","lat":37.03841,"lng":-84.08864,"zip":"40744","miles_from_dt":14.52},{"city":"Wildie","state_name":"Kentucky","lat":37.42057,"lng":-84.2997,"zip":"40492","miles_from_dt":14.8},{"city":"Gray Hawk","state_name":"Kentucky","lat":37.39364,"lng":-83.93949,"zip":"40434","miles_from_dt":15.46},{"city":"McKee","state_name":"Kentucky","lat":37.45496,"lng":-84.0299,"zip":"40447","miles_from_dt":15.96},{"city":"Keavy","state_name":"Kentucky","lat":37.00838,"lng":-84.13902,"zip":"40737","miles_from_dt":16.22},{"city":"Lily","state_name":"Kentucky","lat":37.02111,"lng":-84.03888,"zip":"40740","miles_from_dt":16.47},{"city":"Waneta","state_name":"Kentucky","lat":37.47481,"lng":-84.03829,"zip":"40488","miles_from_dt":17.05},{"city":"Brodhead","state_name":"Kentucky","lat":37.37667,"lng":-84.42971,"zip":"40409","miles_from_dt":18.04},{"city":"Tyner","state_name":"Kentucky","lat":37.37238,"lng":-83.86123,"zip":"40486","miles_from_dt":18.12},{"city":"Fall Rock","state_name":"Kentucky","lat":37.21991,"lng":-83.78907,"zip":"40932","miles_from_dt":19.85},{"city":"Corbin","state_name":"Kentucky","lat":36.95072,"lng":-84.08678,"zip":"40702","miles_from_dt":20.47},{"city":"Somerset","state_name":"Kentucky","lat":37.06174,"lng":-84.44973,"zip":"42501","miles_from_dt":20.85},{"city":"Somerset","state_name":"Kentucky","lat":37.15677,"lng":-84.52511,"zip":"42503","miles_from_dt":21.65},{"city":"Bighill","state_name":"Kentucky","lat":37.55775,"lng":-84.20809,"zip":"40405","miles_from_dt":21.92},{"city":"Hima","state_name":"Kentucky","lat":37.11844,"lng":-83.77473,"zip":"40951","miles_from_dt":22.32},{"city":"Corbin","state_name":"Kentucky","lat":36.91759,"lng":-84.16651,"zip":"40701","miles_from_dt":22.5},{"city":"Sextons Creek","state_name":"Kentucky","lat":37.34608,"lng":-83.75339,"zip":"40983","miles_from_dt":22.86},{"city":"Manchester","state_name":"Kentucky","lat":37.14912,"lng":-83.74922,"zip":"40962","miles_from_dt":22.94},{"city":"Berea","state_name":"Kentucky","lat":37.57052,"lng":-84.26622,"zip":"40403","miles_from_dt":23.47},{"city":"Garrard","state_name":"Kentucky","lat":37.12981,"lng":-83.74585,"zip":"40941","miles_from_dt":23.53},{"city":"Crab Orchard","state_name":"Kentucky","lat":37.44791,"lng":-84.49204,"zip":"40419","miles_from_dt":23.62},{"city":"Berea","state_name":"Kentucky","lat":37.57311,"lng":-84.29037,"zip":"40404","miles_from_dt":24.04},{"city":"Gray","state_name":"Kentucky","lat":36.92642,"lng":-83.96609,"zip":"40734","miles_from_dt":24.06},{"city":"Eubank","state_name":"Kentucky","lat":37.26441,"lng":-84.60454,"zip":"42567","miles_from_dt":25.21},{"city":"Vincent","state_name":"Kentucky","lat":37.47992,"lng":-83.79273,"zip":"41386","miles_from_dt":25.46},{"city":"Girdler","state_name":"Kentucky","lat":36.95494,"lng":-83.85631,"zip":"40943","miles_from_dt":25.6},{"city":"Green Road","state_name":"Kentucky","lat":36.95757,"lng":-83.82467,"zip":"40946","miles_from_dt":26.6},{"city":"Somerset","state_name":"Kentucky","lat":37.09586,"lng":-84.60369,"zip":"42502","miles_from_dt":27.14},{"city":"West Somerset","state_name":"Kentucky","lat":37.08839,"lng":-84.60085,"zip":"42564","miles_from_dt":27.19},{"city":"Woodbine","state_name":"Kentucky","lat":36.85942,"lng":-84.03459,"zip":"40771","miles_from_dt":27.22},{"city":"Goose Rock","state_name":"Kentucky","lat":37.09008,"lng":-83.69306,"zip":"40944","miles_from_dt":27.24},{"city":"Ferguson","state_name":"Kentucky","lat":37.06752,"lng":-84.59382,"zip":"42533","miles_from_dt":27.44},{"city":"Cannon","state_name":"Kentucky","lat":36.92059,"lng":-83.84923,"zip":"40923","miles_from_dt":27.71},{"city":"Paint Lick","state_name":"Kentucky","lat":37.59014,"lng":-84.40849,"zip":"40461","miles_from_dt":27.87},{"city":"Heidrick","state_name":"Kentucky","lat":36.90253,"lng":-83.86717,"zip":"40949","miles_from_dt":28.17},{"city":"Hinkle","state_name":"Kentucky","lat":36.93771,"lng":-83.80163,"zip":"40953","miles_from_dt":28.47},{"city":"Waynesburg","state_name":"Kentucky","lat":37.36629,"lng":-84.64435,"zip":"40489","miles_from_dt":28.63},{"city":"Barbourville","state_name":"Kentucky","lat":36.88828,"lng":-83.87546,"zip":"40906","miles_from_dt":28.75},{"city":"Parkers Lake","state_name":"Kentucky","lat":36.88043,"lng":-84.41601,"zip":"42634","miles_from_dt":29.09},{"city":"Ricetown","state_name":"Kentucky","lat":37.37569,"lng":-83.64172,"zip":"41364","miles_from_dt":29.33},{"city":"Rockholds","state_name":"Kentucky","lat":36.82034,"lng":-84.0571,"zip":"40759","miles_from_dt":29.61},{"city":"Oneida","state_name":"Kentucky","lat":37.24501,"lng":-83.60692,"zip":"40972","miles_from_dt":29.82},{"city":"Burnside","state_name":"Kentucky","lat":36.93932,"lng":-84.53573,"zip":"42519","miles_from_dt":29.98}],"targetCityZipCode":"40729","targetCityState":"Kentucky"},"__N_SSG":true}