{"pageProps":{"stateName":"Kentucky","cityName":"eubank","nearbyCities":[{"city":"Waynesburg","state_name":"Kentucky","lat":37.36629,"lng":-84.64435,"zip":"40489","miles_from_dt":7.36},{"city":"Science Hill","state_name":"Kentucky","lat":37.1716,"lng":-84.70056,"zip":"42553","miles_from_dt":8.31},{"city":"Somerset","state_name":"Kentucky","lat":37.15677,"lng":-84.52511,"zip":"42503","miles_from_dt":8.62},{"city":"Kings Mountain","state_name":"Kentucky","lat":37.35205,"lng":-84.72868,"zip":"40442","miles_from_dt":9.13},{"city":"Yosemite","state_name":"Kentucky","lat":37.28389,"lng":-84.77932,"zip":"42566","miles_from_dt":9.73},{"city":"Bethelridge","state_name":"Kentucky","lat":37.22247,"lng":-84.77881,"zip":"42516","miles_from_dt":10.03},{"city":"Somerset","state_name":"Kentucky","lat":37.09586,"lng":-84.60369,"zip":"42502","miles_from_dt":11.62},{"city":"West Somerset","state_name":"Kentucky","lat":37.08839,"lng":-84.60085,"zip":"42564","miles_from_dt":12.14},{"city":"Brodhead","state_name":"Kentucky","lat":37.37667,"lng":-84.42971,"zip":"40409","miles_from_dt":12.36},{"city":"Middleburg","state_name":"Kentucky","lat":37.37325,"lng":-84.80778,"zip":"42541","miles_from_dt":13.48},{"city":"Ferguson","state_name":"Kentucky","lat":37.06752,"lng":-84.59382,"zip":"42533","miles_from_dt":13.59},{"city":"Crab Orchard","state_name":"Kentucky","lat":37.44791,"lng":-84.49204,"zip":"40419","miles_from_dt":14.09},{"city":"McKinney","state_name":"Kentucky","lat":37.45624,"lng":-84.75799,"zip":"40448","miles_from_dt":15.7},{"city":"Somerset","state_name":"Kentucky","lat":37.06174,"lng":-84.44973,"zip":"42501","miles_from_dt":16.38},{"city":"Mount Vernon","state_name":"Kentucky","lat":37.3538,"lng":-84.32099,"zip":"40456","miles_from_dt":16.79},{"city":"Renfro Valley","state_name":"Kentucky","lat":37.38853,"lng":-84.33044,"zip":"40473","miles_from_dt":17.35},{"city":"Stanford","state_name":"Kentucky","lat":37.5153,"lng":-84.676,"zip":"40484","miles_from_dt":17.74},{"city":"Windsor","state_name":"Kentucky","lat":37.15008,"lng":-84.90086,"zip":"42565","miles_from_dt":18.15},{"city":"Hustonville","state_name":"Kentucky","lat":37.44531,"lng":-84.85486,"zip":"40437","miles_from_dt":18.59},{"city":"Liberty","state_name":"Kentucky","lat":37.30566,"lng":-84.95265,"zip":"42539","miles_from_dt":19.39},{"city":"Nancy","state_name":"Kentucky","lat":37.03473,"lng":-84.8143,"zip":"42544","miles_from_dt":19.62},{"city":"Wildie","state_name":"Kentucky","lat":37.42057,"lng":-84.2997,"zip":"40492","miles_from_dt":19.94},{"city":"Tateville","state_name":"Kentucky","lat":36.94869,"lng":-84.57667,"zip":"42558","miles_from_dt":21.83},{"city":"Livingston","state_name":"Kentucky","lat":37.3125,"lng":-84.21159,"zip":"40445","miles_from_dt":21.9},{"city":"Orlando","state_name":"Kentucky","lat":37.39385,"lng":-84.23985,"zip":"40460","miles_from_dt":21.98},{"city":"Burnside","state_name":"Kentucky","lat":36.93932,"lng":-84.53573,"zip":"42519","miles_from_dt":22.74},{"city":"Dunnville","state_name":"Kentucky","lat":37.18335,"lng":-85.01712,"zip":"42528","miles_from_dt":23.43},{"city":"Bronston","state_name":"Kentucky","lat":36.9253,"lng":-84.64265,"zip":"42518","miles_from_dt":23.48},{"city":"London","state_name":"Kentucky","lat":37.14339,"lng":-84.18706,"zip":"40750","miles_from_dt":24.49},{"city":"Junction City","state_name":"Kentucky","lat":37.57628,"lng":-84.8322,"zip":"40440","miles_from_dt":24.89},{"city":"Paint Lick","state_name":"Kentucky","lat":37.59014,"lng":-84.40849,"zip":"40461","miles_from_dt":24.92},{"city":"East Bernstadt","state_name":"Kentucky","lat":37.2435,"lng":-84.14788,"zip":"40729","miles_from_dt":25.21},{"city":"Parksville","state_name":"Kentucky","lat":37.55579,"lng":-84.91148,"zip":"40464","miles_from_dt":26.25},{"city":"Berea","state_name":"Kentucky","lat":37.57311,"lng":-84.29037,"zip":"40404","miles_from_dt":27.42},{"city":"Danville","state_name":"Kentucky","lat":37.64316,"lng":-84.7715,"zip":"40423","miles_from_dt":27.69},{"city":"Russell Springs","state_name":"Kentucky","lat":37.05624,"lng":-85.0352,"zip":"42642","miles_from_dt":27.77},{"city":"London","state_name":"Kentucky","lat":37.08965,"lng":-84.14659,"zip":"40742","miles_from_dt":28},{"city":"Berea","state_name":"Kentucky","lat":37.57052,"lng":-84.26622,"zip":"40403","miles_from_dt":28.14},{"city":"London","state_name":"Kentucky","lat":37.08879,"lng":-84.14358,"zip":"40745","miles_from_dt":28.17},{"city":"Danville","state_name":"Kentucky","lat":37.64235,"lng":-84.80488,"zip":"40422","miles_from_dt":28.3},{"city":"London","state_name":"Kentucky","lat":37.13349,"lng":-84.11636,"zip":"40741","miles_from_dt":28.4},{"city":"Parkers Lake","state_name":"Kentucky","lat":36.88043,"lng":-84.41601,"zip":"42634","miles_from_dt":28.45},{"city":"Pittsburg","state_name":"Kentucky","lat":37.15958,"lng":-84.1041,"zip":"40755","miles_from_dt":28.53},{"city":"Lancaster","state_name":"Kentucky","lat":37.67893,"lng":-84.58819,"zip":"40444","miles_from_dt":28.6},{"city":"Bighill","state_name":"Kentucky","lat":37.55775,"lng":-84.20809,"zip":"40405","miles_from_dt":29.75}],"targetCityZipCode":"42567","targetCityState":"Kentucky"},"__N_SSG":true}