{"pageProps":{"stateName":"Kentucky","cityName":"fancy-farm","nearbyCities":[{"city":"Milburn","state_name":"Kentucky","lat":36.79794,"lng":-88.89766,"zip":"42070","miles_from_dt":3.95},{"city":"Lowes","state_name":"Kentucky","lat":36.88262,"lng":-88.76959,"zip":"42061","miles_from_dt":7.45},{"city":"Cunningham","state_name":"Kentucky","lat":36.90392,"lng":-88.83674,"zip":"42035","miles_from_dt":8.19},{"city":"Arlington","state_name":"Kentucky","lat":36.80129,"lng":-88.9957,"zip":"42021","miles_from_dt":9.36},{"city":"Melber","state_name":"Kentucky","lat":36.92328,"lng":-88.75828,"zip":"42069","miles_from_dt":10.27},{"city":"Bardwell","state_name":"Kentucky","lat":36.87623,"lng":-88.98742,"zip":"42023","miles_from_dt":10.83},{"city":"Mayfield","state_name":"Kentucky","lat":36.73328,"lng":-88.6403,"zip":"42066","miles_from_dt":11.02},{"city":"Clinton","state_name":"Kentucky","lat":36.68741,"lng":-88.98864,"zip":"42031","miles_from_dt":11.18},{"city":"Hickory","state_name":"Kentucky","lat":36.85629,"lng":-88.64522,"zip":"42051","miles_from_dt":11.26},{"city":"Wingo","state_name":"Kentucky","lat":36.61808,"lng":-88.75409,"zip":"42088","miles_from_dt":12.24},{"city":"Lovelaceville","state_name":"Kentucky","lat":36.96385,"lng":-88.82778,"zip":"42060","miles_from_dt":12.31},{"city":"Boaz","state_name":"Kentucky","lat":36.91585,"lng":-88.63018,"zip":"42027","miles_from_dt":14.19},{"city":"Water Valley","state_name":"Kentucky","lat":36.56942,"lng":-88.80044,"zip":"42085","miles_from_dt":14.97},{"city":"Columbus","state_name":"Kentucky","lat":36.751,"lng":-89.10378,"zip":"42032","miles_from_dt":15.48},{"city":"Wickliffe","state_name":"Kentucky","lat":36.97328,"lng":-89.00323,"zip":"42087","miles_from_dt":16.19},{"city":"Fulton","state_name":"Kentucky","lat":36.54593,"lng":-88.87456,"zip":"42041","miles_from_dt":16.71},{"city":"Paducah","state_name":"Kentucky","lat":37.03317,"lng":-88.7135,"zip":"42001","miles_from_dt":18.23},{"city":"Symsonia","state_name":"Kentucky","lat":36.91618,"lng":-88.50092,"zip":"42082","miles_from_dt":20.25},{"city":"Paducah","state_name":"Kentucky","lat":37.00653,"lng":-88.58472,"zip":"42003","miles_from_dt":20.35},{"city":"West Paducah","state_name":"Kentucky","lat":37.0828,"lng":-88.76838,"zip":"42086","miles_from_dt":20.78},{"city":"Sedalia","state_name":"Kentucky","lat":36.55978,"lng":-88.57611,"zip":"42079","miles_from_dt":20.92},{"city":"Farmington","state_name":"Kentucky","lat":36.62454,"lng":-88.50371,"zip":"42040","miles_from_dt":21.15},{"city":"Lynnville","state_name":"Kentucky","lat":36.55928,"lng":-88.56838,"zip":"42063","miles_from_dt":21.24},{"city":"Wolf Island","state_name":"Missouri","lat":36.7379,"lng":-89.21183,"zip":"63881","miles_from_dt":21.54},{"city":"Kevil","state_name":"Kentucky","lat":37.1033,"lng":-88.87606,"zip":"42053","miles_from_dt":22.09},{"city":"South Fulton","state_name":"Tennessee","lat":36.46386,"lng":-88.88397,"zip":"38257","miles_from_dt":22.38},{"city":"Kirksey","state_name":"Kentucky","lat":36.71734,"lng":-88.43149,"zip":"42054","miles_from_dt":22.5},{"city":"Paducah","state_name":"Kentucky","lat":37.06855,"lng":-88.62494,"zip":"42002","miles_from_dt":22.54},{"city":"Dukedom","state_name":"Tennessee","lat":36.47722,"lng":-88.66382,"zip":"38226","miles_from_dt":23.13},{"city":"Barlow","state_name":"Kentucky","lat":37.0742,"lng":-89.05026,"zip":"42024","miles_from_dt":23.41},{"city":"Wyatt","state_name":"Missouri","lat":36.91639,"lng":-89.21974,"zip":"63882","miles_from_dt":23.51},{"city":"La Center","state_name":"Kentucky","lat":37.11088,"lng":-88.98452,"zip":"42056","miles_from_dt":24.06},{"city":"Bandana","state_name":"Kentucky","lat":37.14593,"lng":-88.94553,"zip":"42022","miles_from_dt":25.7},{"city":"Hickman","state_name":"Kentucky","lat":36.54675,"lng":-89.20347,"zip":"42050","miles_from_dt":26.56},{"city":"Charleston","state_name":"Missouri","lat":36.91989,"lng":-89.27885,"zip":"63834","miles_from_dt":26.65},{"city":"Ledbetter","state_name":"Kentucky","lat":37.05329,"lng":-88.4714,"zip":"42058","miles_from_dt":27.04},{"city":"Cairo","state_name":"Illinois","lat":37.04076,"lng":-89.20329,"zip":"62914","miles_from_dt":27.24},{"city":"East Prairie","state_name":"Missouri","lat":36.70944,"lng":-89.31505,"zip":"63845","miles_from_dt":27.52},{"city":"Union City","state_name":"Tennessee","lat":36.42585,"lng":-89.04984,"zip":"38281","miles_from_dt":27.69},{"city":"Anniston","state_name":"Missouri","lat":36.82427,"lng":-89.32564,"zip":"63820","miles_from_dt":27.72},{"city":"Benton","state_name":"Kentucky","lat":36.85764,"lng":-88.33441,"zip":"42025","miles_from_dt":27.82},{"city":"Palmersville","state_name":"Tennessee","lat":36.42852,"lng":-88.58964,"zip":"38241","miles_from_dt":27.95},{"city":"Mound City","state_name":"Illinois","lat":37.0933,"lng":-89.16263,"zip":"62963","miles_from_dt":28.18},{"city":"Calvert City","state_name":"Kentucky","lat":37.00963,"lng":-88.38947,"zip":"42029","miles_from_dt":28.8},{"city":"Martin","state_name":"Tennessee","lat":36.36406,"lng":-88.83162,"zip":"38237","miles_from_dt":29.05},{"city":"Joppa","state_name":"Illinois","lat":37.20684,"lng":-88.84533,"zip":"62953","miles_from_dt":29.08},{"city":"Union City","state_name":"Tennessee","lat":36.43214,"lng":-89.11583,"zip":"38261","miles_from_dt":29.14},{"city":"Woodland Mills","state_name":"Tennessee","lat":36.43031,"lng":-89.123,"zip":"38271","miles_from_dt":29.46}],"targetCityZipCode":"42039","targetCityState":"Kentucky"},"__N_SSG":true}