{"pageProps":{"stateName":"Kentucky","cityName":"freeburn","nearbyCities":[{"city":"Edgarton","state_name":"West Virginia","lat":37.57017,"lng":-82.10044,"zip":"25672","miles_from_dt":2.42},{"city":"Majestic","state_name":"Kentucky","lat":37.53821,"lng":-82.09437,"zip":"41547","miles_from_dt":2.74},{"city":"McCarr","state_name":"Kentucky","lat":37.59602,"lng":-82.17368,"zip":"41544","miles_from_dt":3.41},{"city":"Ransom","state_name":"Kentucky","lat":37.53953,"lng":-82.20819,"zip":"41558","miles_from_dt":3.89},{"city":"Matewan","state_name":"West Virginia","lat":37.59564,"lng":-82.08187,"zip":"25678","miles_from_dt":4.26},{"city":"Phelps","state_name":"Kentucky","lat":37.48057,"lng":-82.16025,"zip":"41553","miles_from_dt":5.23},{"city":"Stopover","state_name":"Kentucky","lat":37.50369,"lng":-82.05896,"zip":"41568","miles_from_dt":5.66},{"city":"Red Jacket","state_name":"West Virginia","lat":37.61804,"lng":-82.07375,"zip":"25692","miles_from_dt":5.68},{"city":"Hardy","state_name":"Kentucky","lat":37.59509,"lng":-82.23131,"zip":"41531","miles_from_dt":5.75},{"city":"North Matewan","state_name":"West Virginia","lat":37.63952,"lng":-82.15832,"zip":"25688","miles_from_dt":5.95},{"city":"Newtown","state_name":"West Virginia","lat":37.64902,"lng":-82.12839,"zip":"25686","miles_from_dt":6.54},{"city":"Pinsonfork","state_name":"Kentucky","lat":37.53816,"lng":-82.2589,"zip":"41555","miles_from_dt":6.64},{"city":"Rawl","state_name":"West Virginia","lat":37.64753,"lng":-82.21831,"zip":"25691","miles_from_dt":7.72},{"city":"McAndrews","state_name":"Kentucky","lat":37.54837,"lng":-82.28226,"zip":"41543","miles_from_dt":7.83},{"city":"Stone","state_name":"Kentucky","lat":37.56897,"lng":-82.28621,"zip":"41567","miles_from_dt":8.1},{"city":"Varney","state_name":"West Virginia","lat":37.66116,"lng":-82.07154,"zip":"25696","miles_from_dt":8.25},{"city":"Huddy","state_name":"Kentucky","lat":37.59368,"lng":-82.28422,"zip":"41535","miles_from_dt":8.37},{"city":"Ragland","state_name":"West Virginia","lat":37.69124,"lng":-82.15505,"zip":"25690","miles_from_dt":9.46},{"city":"Wharncliffe","state_name":"West Virginia","lat":37.57142,"lng":-81.9662,"zip":"25651","miles_from_dt":9.6},{"city":"Fedscreek","state_name":"Kentucky","lat":37.43345,"lng":-82.23444,"zip":"41524","miles_from_dt":9.84},{"city":"Forest Hills","state_name":"Kentucky","lat":37.63187,"lng":-82.29378,"zip":"41527","miles_from_dt":9.99},{"city":"Canada","state_name":"Kentucky","lat":37.58359,"lng":-82.32334,"zip":"41519","miles_from_dt":10.27},{"city":"Steele","state_name":"Kentucky","lat":37.40836,"lng":-82.1922,"zip":"41566","miles_from_dt":10.49},{"city":"Kimper","state_name":"Kentucky","lat":37.50265,"lng":-82.32231,"zip":"41539","miles_from_dt":10.64},{"city":"Hurley","state_name":"Virginia","lat":37.43335,"lng":-82.01932,"zip":"24620","miles_from_dt":10.67},{"city":"South Williamson","state_name":"Kentucky","lat":37.66079,"lng":-82.28446,"zip":"41503","miles_from_dt":10.8},{"city":"Mohawk","state_name":"West Virginia","lat":37.47905,"lng":-81.9489,"zip":"24862","miles_from_dt":11.71},{"city":"Williamson","state_name":"West Virginia","lat":37.71062,"lng":-82.25377,"zip":"25661","miles_from_dt":12.44},{"city":"Sarah Ann","state_name":"West Virginia","lat":37.70191,"lng":-82.00107,"zip":"25644","miles_from_dt":12.7},{"city":"Delbarton","state_name":"West Virginia","lat":37.7385,"lng":-82.15588,"zip":"25670","miles_from_dt":12.71},{"city":"Chattaroy","state_name":"West Virginia","lat":37.70619,"lng":-82.2738,"zip":"25667","miles_from_dt":12.78},{"city":"Phyllis","state_name":"Kentucky","lat":37.43919,"lng":-82.32446,"zip":"41554","miles_from_dt":12.89},{"city":"Sidney","state_name":"Kentucky","lat":37.60476,"lng":-82.3667,"zip":"41564","miles_from_dt":12.92},{"city":"Belfry","state_name":"Kentucky","lat":37.67135,"lng":-82.33169,"zip":"41514","miles_from_dt":13.25},{"city":"Mouthcard","state_name":"Kentucky","lat":37.37847,"lng":-82.25372,"zip":"41548","miles_from_dt":13.66},{"city":"Baisden","state_name":"West Virginia","lat":37.57512,"lng":-81.89165,"zip":"25608","miles_from_dt":13.7},{"city":"Isaban","state_name":"West Virginia","lat":37.52611,"lng":-81.89175,"zip":"24846","miles_from_dt":13.76},{"city":"Omar","state_name":"West Virginia","lat":37.74423,"lng":-82.05133,"zip":"25638","miles_from_dt":13.95},{"city":"Big Rock","state_name":"Virginia","lat":37.35607,"lng":-82.1914,"zip":"24603","miles_from_dt":13.98},{"city":"Borderland","state_name":"West Virginia","lat":37.71382,"lng":-82.30604,"zip":"25665","miles_from_dt":14.27},{"city":"Gilbert","state_name":"West Virginia","lat":37.63149,"lng":-81.89643,"zip":"25621","miles_from_dt":14.37},{"city":"Lick Creek","state_name":"Kentucky","lat":37.39013,"lng":-82.32318,"zip":"41540","miles_from_dt":15.17},{"city":"Panther","state_name":"West Virginia","lat":37.44986,"lng":-81.8932,"zip":"24872","miles_from_dt":15.36},{"city":"Raccoon","state_name":"Kentucky","lat":37.48189,"lng":-82.41548,"zip":"41557","miles_from_dt":15.95},{"city":"Wolford","state_name":"Virginia","lat":37.35254,"lng":-81.99172,"zip":"24658","miles_from_dt":16.14},{"city":"Whitman","state_name":"West Virginia","lat":37.78702,"lng":-82.04865,"zip":"25652","miles_from_dt":16.79},{"city":"Justice","state_name":"West Virginia","lat":37.59922,"lng":-81.83805,"zip":"24851","miles_from_dt":16.85},{"city":"Chauncey","state_name":"West Virginia","lat":37.76396,"lng":-81.98064,"zip":"25612","miles_from_dt":16.87},{"city":"Grundy","state_name":"Virginia","lat":37.31466,"lng":-82.07181,"zip":"24614","miles_from_dt":16.96},{"city":"Bruno","state_name":"West Virginia","lat":37.6832,"lng":-81.87068,"zip":"25611","miles_from_dt":17.23},{"city":"North Spring","state_name":"West Virginia","lat":37.56133,"lng":-81.82315,"zip":"24869","miles_from_dt":17.39},{"city":"Maxie","state_name":"Virginia","lat":37.30347,"lng":-82.17337,"zip":"24628","miles_from_dt":17.42},{"city":"Varney","state_name":"Kentucky","lat":37.62651,"lng":-82.44437,"zip":"41571","miles_from_dt":17.43},{"city":"Belcher","state_name":"Kentucky","lat":37.35282,"lng":-82.34329,"zip":"41513","miles_from_dt":17.85},{"city":"Switzer","state_name":"West Virginia","lat":37.786,"lng":-81.98738,"zip":"25647","miles_from_dt":18.02},{"city":"Lyburn","state_name":"West Virginia","lat":37.76292,"lng":-81.9368,"zip":"25632","miles_from_dt":18.18},{"city":"Regina","state_name":"Kentucky","lat":37.37997,"lng":-82.39017,"zip":"41559","miles_from_dt":18.29},{"city":"Man","state_name":"West Virginia","lat":37.71937,"lng":-81.87261,"zip":"25635","miles_from_dt":18.55},{"city":"Jolo","state_name":"West Virginia","lat":37.37807,"lng":-81.88516,"zip":"24850","miles_from_dt":18.55},{"city":"Holden","state_name":"West Virginia","lat":37.82237,"lng":-82.09206,"zip":"25625","miles_from_dt":18.65},{"city":"Ikes Fork","state_name":"West Virginia","lat":37.52643,"lng":-81.80041,"zip":"24845","miles_from_dt":18.74},{"city":"Naugatuck","state_name":"West Virginia","lat":37.79592,"lng":-82.31426,"zip":"25685","miles_from_dt":19.19},{"city":"Breaks","state_name":"Virginia","lat":37.29498,"lng":-82.26533,"zip":"24607","miles_from_dt":19.19},{"city":"Lenore","state_name":"West Virginia","lat":37.82509,"lng":-82.22972,"zip":"25676","miles_from_dt":19.3},{"city":"Paynesville","state_name":"West Virginia","lat":37.35734,"lng":-81.87415,"zip":"24873","miles_from_dt":19.96},{"city":"Iaeger","state_name":"West Virginia","lat":37.48554,"lng":-81.78703,"zip":"24844","miles_from_dt":19.96},{"city":"Wilkinson","state_name":"West Virginia","lat":37.8287,"lng":-81.9944,"zip":"25653","miles_from_dt":20.52},{"city":"Hanover","state_name":"West Virginia","lat":37.58216,"lng":-81.76504,"zip":"24839","miles_from_dt":20.66},{"city":"Pikeville","state_name":"Kentucky","lat":37.50805,"lng":-82.5154,"zip":"41501","miles_from_dt":20.87},{"city":"Kistler","state_name":"West Virginia","lat":37.7657,"lng":-81.86237,"zip":"25628","miles_from_dt":21.06},{"city":"Shelbiana","state_name":"Kentucky","lat":37.3991,"lng":-82.47052,"zip":"41562","miles_from_dt":21.1},{"city":"Simon","state_name":"West Virginia","lat":37.62771,"lng":-81.76623,"zip":"24882","miles_from_dt":21.11},{"city":"Mallory","state_name":"West Virginia","lat":37.73017,"lng":-81.82461,"zip":"25634","miles_from_dt":21.11},{"city":"Verner","state_name":"West Virginia","lat":37.68358,"lng":-81.78773,"zip":"25650","miles_from_dt":21.27},{"city":"Mount Gay","state_name":"West Virginia","lat":37.85086,"lng":-82.02805,"zip":"25637","miles_from_dt":21.33},{"city":"Lovely","state_name":"Kentucky","lat":37.79447,"lng":-82.38903,"zip":"41231","miles_from_dt":21.45},{"city":"Pikeville","state_name":"Kentucky","lat":37.47966,"lng":-82.51877,"zip":"41502","miles_from_dt":21.45},{"city":"Pilgrim","state_name":"Kentucky","lat":37.73511,"lng":-82.46079,"zip":"41250","miles_from_dt":21.56},{"city":"Elkhorn City","state_name":"Kentucky","lat":37.31644,"lng":-82.40088,"zip":"41522","miles_from_dt":21.81},{"city":"Verdunville","state_name":"West Virginia","lat":37.87166,"lng":-82.08489,"zip":"25649","miles_from_dt":22.07},{"city":"Cora","state_name":"West Virginia","lat":37.85103,"lng":-81.98783,"zip":"25614","miles_from_dt":22.08},{"city":"Fords Branch","state_name":"Kentucky","lat":37.43372,"lng":-82.51256,"zip":"41526","miles_from_dt":22.11},{"city":"Accoville","state_name":"West Virginia","lat":37.76641,"lng":-81.82878,"zip":"25606","miles_from_dt":22.46},{"city":"Yolyn","state_name":"West Virginia","lat":37.80302,"lng":-81.87401,"zip":"25654","miles_from_dt":22.49},{"city":"Logan","state_name":"West Virginia","lat":37.86255,"lng":-82.0026,"zip":"25601","miles_from_dt":22.53},{"city":"Davin","state_name":"West Virginia","lat":37.74549,"lng":-81.80275,"zip":"25617","miles_from_dt":22.69},{"city":"Bradshaw","state_name":"West Virginia","lat":37.34206,"lng":-81.81721,"zip":"24817","miles_from_dt":23.01},{"city":"Coal Mountain","state_name":"West Virginia","lat":37.66761,"lng":-81.74105,"zip":"24823","miles_from_dt":23.23},{"city":"Rockhouse","state_name":"Kentucky","lat":37.32691,"lng":-82.45338,"zip":"41561","miles_from_dt":23.32},{"city":"Pilgrims Knob","state_name":"Virginia","lat":37.27411,"lng":-81.90253,"zip":"24634","miles_from_dt":23.33},{"city":"Stollings","state_name":"West Virginia","lat":37.83187,"lng":-81.89349,"zip":"25646","miles_from_dt":23.41},{"city":"Avondale","state_name":"West Virginia","lat":37.40881,"lng":-81.75381,"zip":"24811","miles_from_dt":23.48},{"city":"Hensley","state_name":"West Virginia","lat":37.48378,"lng":-81.70923,"zip":"24843","miles_from_dt":24.15},{"city":"Haysi","state_name":"Virginia","lat":37.22344,"lng":-82.28503,"zip":"24256","miles_from_dt":24.19},{"city":"Dingess","state_name":"West Virginia","lat":37.90411,"lng":-82.20283,"zip":"25671","miles_from_dt":24.35},{"city":"Ethel","state_name":"West Virginia","lat":37.86889,"lng":-81.937,"zip":"25076","miles_from_dt":24.36},{"city":"Oakwood","state_name":"Virginia","lat":37.2202,"lng":-81.99714,"zip":"24631","miles_from_dt":24.36},{"city":"Lookout","state_name":"Kentucky","lat":37.31592,"lng":-82.47079,"zip":"41542","miles_from_dt":24.54},{"city":"Kermit","state_name":"West Virginia","lat":37.87114,"lng":-82.34672,"zip":"25674","miles_from_dt":24.6},{"city":"Big Sandy","state_name":"West Virginia","lat":37.46139,"lng":-81.70516,"zip":"24816","miles_from_dt":24.73},{"city":"Peach Creek","state_name":"West Virginia","lat":37.88674,"lng":-81.95905,"zip":"25639","miles_from_dt":24.96},{"city":"Clear Fork","state_name":"West Virginia","lat":37.62908,"lng":-81.68755,"zip":"24822","miles_from_dt":25.35},{"city":"Stanville","state_name":"Kentucky","lat":37.58415,"lng":-82.60064,"zip":"41659","miles_from_dt":25.38},{"city":"Keen Mountain","state_name":"Virginia","lat":37.20438,"lng":-81.98706,"zip":"24624","miles_from_dt":25.57},{"city":"Amherstdale","state_name":"West Virginia","lat":37.78125,"lng":-81.77081,"zip":"25607","miles_from_dt":25.57},{"city":"Henlawson","state_name":"West Virginia","lat":37.90393,"lng":-81.97162,"zip":"25624","miles_from_dt":25.8},{"city":"Mavisdale","state_name":"Virginia","lat":37.18299,"lng":-82.21519,"zip":"24627","miles_from_dt":25.96},{"city":"Roderfield","state_name":"West Virginia","lat":37.44435,"lng":-81.68785,"zip":"24881","miles_from_dt":25.97},{"city":"Vansant","state_name":"Virginia","lat":37.1743,"lng":-82.12364,"zip":"24656","miles_from_dt":26.24},{"city":"Raysal","state_name":"West Virginia","lat":37.31639,"lng":-81.76725,"zip":"24879","miles_from_dt":26.26},{"city":"Fanrock","state_name":"West Virginia","lat":37.54313,"lng":-81.66093,"zip":"24834","miles_from_dt":26.31},{"city":"Bartley","state_name":"West Virginia","lat":37.35954,"lng":-81.72489,"zip":"24813","miles_from_dt":26.48},{"city":"Robinson Creek","state_name":"Kentucky","lat":37.39423,"lng":-82.57875,"zip":"41560","miles_from_dt":26.54},{"city":"Breeden","state_name":"West Virginia","lat":37.9203,"lng":-82.29432,"zip":"25666","miles_from_dt":26.6},{"city":"Davy","state_name":"West Virginia","lat":37.49975,"lng":-81.6553,"zip":"24828","miles_from_dt":26.88},{"city":"Betsy Layne","state_name":"Kentucky","lat":37.55498,"lng":-82.63009,"zip":"41605","miles_from_dt":26.92},{"city":"Beauty","state_name":"Kentucky","lat":37.85241,"lng":-82.46112,"zip":"41203","miles_from_dt":27.05},{"city":"Lynco","state_name":"West Virginia","lat":37.69591,"lng":-81.67557,"zip":"24857","miles_from_dt":27.27},{"city":"Harold","state_name":"Kentucky","lat":37.48009,"lng":-82.62831,"zip":"41635","miles_from_dt":27.32},{"city":"Hellier","state_name":"Kentucky","lat":37.27748,"lng":-82.49644,"zip":"41534","miles_from_dt":27.39},{"city":"Warfield","state_name":"Kentucky","lat":37.87514,"lng":-82.43591,"zip":"41267","miles_from_dt":27.42},{"city":"Blair","state_name":"West Virginia","lat":37.84157,"lng":-81.79241,"zip":"25022","miles_from_dt":27.46},{"city":"Pecks Mill","state_name":"West Virginia","lat":37.92627,"lng":-81.9537,"zip":"25547","miles_from_dt":27.59},{"city":"Ivel","state_name":"Kentucky","lat":37.59569,"lng":-82.64457,"zip":"41642","miles_from_dt":27.85},{"city":"Ashcamp","state_name":"Kentucky","lat":37.25251,"lng":-82.47772,"zip":"41512","miles_from_dt":27.92},{"city":"Whitewood","state_name":"Virginia","lat":37.22363,"lng":-81.84737,"zip":"24657","miles_from_dt":27.93},{"city":"Lake","state_name":"West Virginia","lat":37.91167,"lng":-81.87787,"zip":"25121","miles_from_dt":28.5},{"city":"Tram","state_name":"Kentucky","lat":37.56844,"lng":-82.65966,"zip":"41663","miles_from_dt":28.55},{"city":"Inez","state_name":"Kentucky","lat":37.82089,"lng":-82.53936,"zip":"41224","miles_from_dt":28.58},{"city":"Brenton","state_name":"West Virginia","lat":37.60809,"lng":-81.62275,"zip":"24818","miles_from_dt":28.62},{"city":"Grethel","state_name":"Kentucky","lat":37.46801,"lng":-82.65365,"zip":"41631","miles_from_dt":28.85},{"city":"Chapmanville","state_name":"West Virginia","lat":37.96388,"lng":-82.01394,"zip":"25508","miles_from_dt":29.06},{"city":"Teaberry","state_name":"Kentucky","lat":37.41341,"lng":-82.63846,"zip":"41660","miles_from_dt":29.08},{"city":"Premier","state_name":"West Virginia","lat":37.4321,"lng":-81.63086,"zip":"24878","miles_from_dt":29.22},{"city":"Raven","state_name":"Virginia","lat":37.17357,"lng":-81.90461,"zip":"24639","miles_from_dt":29.29},{"city":"War","state_name":"West Virginia","lat":37.31691,"lng":-81.69699,"zip":"24892","miles_from_dt":29.36},{"city":"Rowe","state_name":"Virginia","lat":37.13751,"lng":-82.02976,"zip":"24646","miles_from_dt":29.39},{"city":"Cyclone","state_name":"West Virginia","lat":37.75186,"lng":-81.65997,"zip":"24827","miles_from_dt":29.62},{"city":"Wilsondale","state_name":"West Virginia","lat":37.96297,"lng":-82.31493,"zip":"25699","miles_from_dt":29.75},{"city":"Jewell Ridge","state_name":"Virginia","lat":37.22005,"lng":-81.79638,"zip":"24622","miles_from_dt":29.82},{"city":"Dana","state_name":"Kentucky","lat":37.54211,"lng":-82.68337,"zip":"41615","miles_from_dt":29.86}],"targetCityZipCode":"41528","targetCityState":"Kentucky"},"__N_SSG":true}