{"pageProps":{"stateName":"Kentucky","cityName":"horse-cave","nearbyCities":[{"city":"Cave City","state_name":"Kentucky","lat":37.12167,"lng":-85.92746,"zip":"42127","miles_from_dt":5.52},{"city":"Hiseville","state_name":"Kentucky","lat":37.09871,"lng":-85.81184,"zip":"42152","miles_from_dt":7.19},{"city":"Hardyville","state_name":"Kentucky","lat":37.21233,"lng":-85.73304,"zip":"42746","miles_from_dt":7.99},{"city":"Munfordville","state_name":"Kentucky","lat":37.30699,"lng":-85.93115,"zip":"42765","miles_from_dt":8.65},{"city":"Canmer","state_name":"Kentucky","lat":37.27628,"lng":-85.71703,"zip":"42722","miles_from_dt":10.56},{"city":"Center","state_name":"Kentucky","lat":37.13428,"lng":-85.68822,"zip":"42214","miles_from_dt":11.01},{"city":"Park City","state_name":"Kentucky","lat":37.10339,"lng":-86.08035,"zip":"42160","miles_from_dt":12.8},{"city":"Knob Lick","state_name":"Kentucky","lat":37.04876,"lng":-85.72421,"zip":"42154","miles_from_dt":12.81},{"city":"Bonnieville","state_name":"Kentucky","lat":37.37631,"lng":-85.88282,"zip":"42713","miles_from_dt":12.87},{"city":"Glasgow","state_name":"Kentucky","lat":36.99761,"lng":-85.9063,"zip":"42142","miles_from_dt":13.37},{"city":"Cub Run","state_name":"Kentucky","lat":37.30167,"lng":-86.09719,"zip":"42729","miles_from_dt":14.47},{"city":"Rocky Hill","state_name":"Kentucky","lat":37.07968,"lng":-86.13466,"zip":"42163","miles_from_dt":16.22},{"city":"Mammoth Cave","state_name":"Kentucky","lat":37.23524,"lng":-86.17206,"zip":"42259","miles_from_dt":16.67},{"city":"Glasgow","state_name":"Kentucky","lat":36.94883,"lng":-85.91489,"zip":"42141","miles_from_dt":16.76},{"city":"Magnolia","state_name":"Kentucky","lat":37.40192,"lng":-85.72501,"zip":"42757","miles_from_dt":16.8},{"city":"Summersville","state_name":"Kentucky","lat":37.34475,"lng":-85.63702,"zip":"42782","miles_from_dt":16.92},{"city":"Upton","state_name":"Kentucky","lat":37.4503,"lng":-85.92272,"zip":"42784","miles_from_dt":18.15},{"city":"Greensburg","state_name":"Kentucky","lat":37.22958,"lng":-85.53175,"zip":"42743","miles_from_dt":19.14},{"city":"Eighty Eight","state_name":"Kentucky","lat":36.9224,"lng":-85.77816,"zip":"42130","miles_from_dt":19.21},{"city":"Smiths Grove","state_name":"Kentucky","lat":37.03609,"lng":-86.16728,"zip":"42171","miles_from_dt":19.3},{"city":"Edmonton","state_name":"Kentucky","lat":36.99,"lng":-85.58992,"zip":"42129","miles_from_dt":20.93},{"city":"Mount Sherman","state_name":"Kentucky","lat":37.42948,"lng":-85.62507,"zip":"42764","miles_from_dt":21.52},{"city":"Clarkson","state_name":"Kentucky","lat":37.42423,"lng":-86.15035,"zip":"42726","miles_from_dt":22.16},{"city":"Sonora","state_name":"Kentucky","lat":37.51577,"lng":-85.91834,"zip":"42776","miles_from_dt":22.6},{"city":"Gradyville","state_name":"Kentucky","lat":37.07774,"lng":-85.47888,"zip":"42742","miles_from_dt":23.2},{"city":"Summer Shade","state_name":"Kentucky","lat":36.87768,"lng":-85.71503,"zip":"42166","miles_from_dt":23.27},{"city":"Bee Spring","state_name":"Kentucky","lat":37.30357,"lng":-86.27858,"zip":"42207","miles_from_dt":23.58},{"city":"Sweeden","state_name":"Kentucky","lat":37.26418,"lng":-86.29751,"zip":"42285","miles_from_dt":23.85},{"city":"Buffalo","state_name":"Kentucky","lat":37.47495,"lng":-85.61925,"zip":"42716","miles_from_dt":24.19},{"city":"Brownsville","state_name":"Kentucky","lat":37.21724,"lng":-86.31438,"zip":"42210","miles_from_dt":24.3},{"city":"Oakland","state_name":"Kentucky","lat":36.99594,"lng":-86.24771,"zip":"42159","miles_from_dt":24.54},{"city":"Lucas","state_name":"Kentucky","lat":36.85947,"lng":-86.04952,"zip":"42156","miles_from_dt":24.74},{"city":"White Mills","state_name":"Kentucky","lat":37.52774,"lng":-86.0372,"zip":"42788","miles_from_dt":24.95},{"city":"Etoile","state_name":"Kentucky","lat":36.82734,"lng":-85.90915,"zip":"42131","miles_from_dt":25.07},{"city":"Beaumont","state_name":"Kentucky","lat":36.86534,"lng":-85.64817,"zip":"42124","miles_from_dt":25.66},{"city":"Austin","state_name":"Kentucky","lat":36.82039,"lng":-85.99573,"zip":"42123","miles_from_dt":26.33},{"city":"Hodgenville","state_name":"Kentucky","lat":37.57029,"lng":-85.70952,"zip":"42748","miles_from_dt":27.78},{"city":"Mount Hermon","state_name":"Kentucky","lat":36.78872,"lng":-85.8187,"zip":"42157","miles_from_dt":27.84},{"city":"Glendale","state_name":"Kentucky","lat":37.59174,"lng":-85.94358,"zip":"42740","miles_from_dt":27.97},{"city":"Big Clifty","state_name":"Kentucky","lat":37.56098,"lng":-86.15791,"zip":"42712","miles_from_dt":29.95}],"targetCityZipCode":"42749","targetCityState":"Kentucky"},"__N_SSG":true}