{"pageProps":{"stateName":"Kentucky","cityName":"keavy","nearbyCities":[{"city":"London","state_name":"Kentucky","lat":37.03841,"lng":-84.08864,"zip":"40744","miles_from_dt":3.47},{"city":"Corbin","state_name":"Kentucky","lat":36.95072,"lng":-84.08678,"zip":"40702","miles_from_dt":4.92},{"city":"London","state_name":"Kentucky","lat":37.08879,"lng":-84.14358,"zip":"40745","miles_from_dt":5.55},{"city":"Lily","state_name":"Kentucky","lat":37.02111,"lng":-84.03888,"zip":"40740","miles_from_dt":5.61},{"city":"London","state_name":"Kentucky","lat":37.08965,"lng":-84.14659,"zip":"40742","miles_from_dt":5.62},{"city":"Bush","state_name":"Kentucky","lat":37.07756,"lng":-84.08286,"zip":"40724","miles_from_dt":5.69},{"city":"Corbin","state_name":"Kentucky","lat":36.91759,"lng":-84.16651,"zip":"40701","miles_from_dt":6.44},{"city":"London","state_name":"Kentucky","lat":37.13349,"lng":-84.11636,"zip":"40741","miles_from_dt":8.72},{"city":"London","state_name":"Kentucky","lat":37.12917,"lng":-84.08234,"zip":"40743","miles_from_dt":8.9},{"city":"London","state_name":"Kentucky","lat":37.14339,"lng":-84.18706,"zip":"40750","miles_from_dt":9.68},{"city":"Pittsburg","state_name":"Kentucky","lat":37.15958,"lng":-84.1041,"zip":"40755","miles_from_dt":10.6},{"city":"Gray","state_name":"Kentucky","lat":36.92642,"lng":-83.96609,"zip":"40734","miles_from_dt":11.11},{"city":"Woodbine","state_name":"Kentucky","lat":36.85942,"lng":-84.03459,"zip":"40771","miles_from_dt":11.79},{"city":"Rockholds","state_name":"Kentucky","lat":36.82034,"lng":-84.0571,"zip":"40759","miles_from_dt":13.74},{"city":"Girdler","state_name":"Kentucky","lat":36.95494,"lng":-83.85631,"zip":"40943","miles_from_dt":16.07},{"city":"East Bernstadt","state_name":"Kentucky","lat":37.2435,"lng":-84.14788,"zip":"40729","miles_from_dt":16.22},{"city":"Heidrick","state_name":"Kentucky","lat":36.90253,"lng":-83.86717,"zip":"40949","miles_from_dt":16.72},{"city":"Barbourville","state_name":"Kentucky","lat":36.88828,"lng":-83.87546,"zip":"40906","miles_from_dt":16.77},{"city":"Cannon","state_name":"Kentucky","lat":36.92059,"lng":-83.84923,"zip":"40923","miles_from_dt":17.14},{"city":"Somerset","state_name":"Kentucky","lat":37.06174,"lng":-84.44973,"zip":"42501","miles_from_dt":17.57},{"city":"Parkers Lake","state_name":"Kentucky","lat":36.88043,"lng":-84.41601,"zip":"42634","miles_from_dt":17.69},{"city":"Green Road","state_name":"Kentucky","lat":36.95757,"lng":-83.82467,"zip":"40946","miles_from_dt":17.74},{"city":"Hinkle","state_name":"Kentucky","lat":36.93771,"lng":-83.80163,"zip":"40953","miles_from_dt":19.29},{"city":"Bimble","state_name":"Kentucky","lat":36.89235,"lng":-83.82025,"zip":"40915","miles_from_dt":19.37},{"city":"Bryants Store","state_name":"Kentucky","lat":36.78195,"lng":-83.90185,"zip":"40921","miles_from_dt":20.4},{"city":"Williamsburg","state_name":"Kentucky","lat":36.7116,"lng":-84.17284,"zip":"40769","miles_from_dt":20.55},{"city":"Emlyn","state_name":"Kentucky","lat":36.70642,"lng":-84.14605,"zip":"40730","miles_from_dt":20.83},{"city":"Livingston","state_name":"Kentucky","lat":37.3125,"lng":-84.21159,"zip":"40445","miles_from_dt":21.35},{"city":"Hima","state_name":"Kentucky","lat":37.11844,"lng":-83.77473,"zip":"40951","miles_from_dt":21.51},{"city":"Artemus","state_name":"Kentucky","lat":36.80973,"lng":-83.83163,"zip":"40903","miles_from_dt":21.85},{"city":"Annville","state_name":"Kentucky","lat":37.29663,"lng":-83.97008,"zip":"40402","miles_from_dt":21.96},{"city":"Burnside","state_name":"Kentucky","lat":36.93932,"lng":-84.53573,"zip":"42519","miles_from_dt":22.46},{"city":"Garrard","state_name":"Kentucky","lat":37.12981,"lng":-83.74585,"zip":"40941","miles_from_dt":23.28},{"city":"Manchester","state_name":"Kentucky","lat":37.14912,"lng":-83.74922,"zip":"40962","miles_from_dt":23.62},{"city":"Somerset","state_name":"Kentucky","lat":37.15677,"lng":-84.52511,"zip":"42503","miles_from_dt":23.66},{"city":"Whitley City","state_name":"Kentucky","lat":36.78117,"lng":-84.4618,"zip":"42653","miles_from_dt":23.77},{"city":"Fall Rock","state_name":"Kentucky","lat":37.21991,"lng":-83.78907,"zip":"40932","miles_from_dt":24.21},{"city":"Flat Lick","state_name":"Kentucky","lat":36.91107,"lng":-83.71264,"zip":"40935","miles_from_dt":24.53},{"city":"Siler","state_name":"Kentucky","lat":36.68848,"lng":-83.94403,"zip":"40763","miles_from_dt":24.56},{"city":"Tateville","state_name":"Kentucky","lat":36.94869,"lng":-84.57667,"zip":"42558","miles_from_dt":24.56},{"city":"Dewitt","state_name":"Kentucky","lat":36.87096,"lng":-83.72905,"zip":"40930","miles_from_dt":24.59},{"city":"Trosper","state_name":"Kentucky","lat":36.75268,"lng":-83.82322,"zip":"40995","miles_from_dt":24.84},{"city":"Scalf","state_name":"Kentucky","lat":36.93241,"lng":-83.69421,"zip":"40982","miles_from_dt":25.16},{"city":"Goose Rock","state_name":"Kentucky","lat":37.09008,"lng":-83.69306,"zip":"40944","miles_from_dt":25.29},{"city":"Ferguson","state_name":"Kentucky","lat":37.06752,"lng":-84.59382,"zip":"42533","miles_from_dt":25.47},{"city":"Mount Vernon","state_name":"Kentucky","lat":37.3538,"lng":-84.32099,"zip":"40456","miles_from_dt":25.85},{"city":"West Somerset","state_name":"Kentucky","lat":37.08839,"lng":-84.60085,"zip":"42564","miles_from_dt":26.12},{"city":"Somerset","state_name":"Kentucky","lat":37.09586,"lng":-84.60369,"zip":"42502","miles_from_dt":26.38},{"city":"Marshes Siding","state_name":"Kentucky","lat":36.74039,"lng":-84.48098,"zip":"42631","miles_from_dt":26.47},{"city":"Ingram","state_name":"Kentucky","lat":36.72855,"lng":-83.80052,"zip":"40955","miles_from_dt":26.91},{"city":"Walker","state_name":"Kentucky","lat":36.88348,"lng":-83.67711,"zip":"40997","miles_from_dt":26.98},{"city":"Pine Knot","state_name":"Kentucky","lat":36.67601,"lng":-84.40033,"zip":"42635","miles_from_dt":27.11},{"city":"Orlando","state_name":"Kentucky","lat":37.39385,"lng":-84.23985,"zip":"40460","miles_from_dt":27.16},{"city":"Fourmile","state_name":"Kentucky","lat":36.81217,"lng":-83.71152,"zip":"40939","miles_from_dt":27.27},{"city":"Renfro Valley","state_name":"Kentucky","lat":37.38853,"lng":-84.33044,"zip":"40473","miles_from_dt":28.26},{"city":"Bronston","state_name":"Kentucky","lat":36.9253,"lng":-84.64265,"zip":"42518","miles_from_dt":28.45},{"city":"Gray Hawk","state_name":"Kentucky","lat":37.39364,"lng":-83.93949,"zip":"40434","miles_from_dt":28.76},{"city":"Sandgap","state_name":"Kentucky","lat":37.42658,"lng":-84.09116,"zip":"40481","miles_from_dt":28.96},{"city":"Revelo","state_name":"Kentucky","lat":36.67487,"lng":-84.4689,"zip":"42638","miles_from_dt":29.38},{"city":"Tyner","state_name":"Kentucky","lat":37.37238,"lng":-83.86123,"zip":"40486","miles_from_dt":29.41},{"city":"Wildie","state_name":"Kentucky","lat":37.42057,"lng":-84.2997,"zip":"40492","miles_from_dt":29.77},{"city":"Jellico","state_name":"Tennessee","lat":36.57657,"lng":-84.12323,"zip":"37762","miles_from_dt":29.79},{"city":"Frakes","state_name":"Kentucky","lat":36.60991,"lng":-83.92988,"zip":"40940","miles_from_dt":29.82}],"targetCityZipCode":"40737","targetCityState":"Kentucky"},"__N_SSG":true}