{"pageProps":{"stateName":"Kentucky","cityName":"kuttawa","nearbyCities":[{"city":"Grand Rivers","state_name":"Kentucky","lat":37.072,"lng":-88.26453,"zip":"42045","miles_from_dt":5.36},{"city":"Dycusburg","state_name":"Kentucky","lat":37.15843,"lng":-88.18441,"zip":"42037","miles_from_dt":6.2},{"city":"Eddyville","state_name":"Kentucky","lat":37.04137,"lng":-88.02364,"zip":"42038","miles_from_dt":8.19},{"city":"Tiline","state_name":"Kentucky","lat":37.16381,"lng":-88.27767,"zip":"42083","miles_from_dt":8.9},{"city":"Gilbertsville","state_name":"Kentucky","lat":36.95744,"lng":-88.26417,"zip":"42044","miles_from_dt":9.4},{"city":"Fredonia","state_name":"Kentucky","lat":37.20315,"lng":-88.02852,"zip":"42411","miles_from_dt":11.99},{"city":"Calvert City","state_name":"Kentucky","lat":37.00963,"lng":-88.38947,"zip":"42029","miles_from_dt":12.94},{"city":"Crayne","state_name":"Kentucky","lat":37.27186,"lng":-88.07953,"zip":"42033","miles_from_dt":14.77},{"city":"Burna","state_name":"Kentucky","lat":37.23637,"lng":-88.33946,"zip":"42028","miles_from_dt":14.91},{"city":"Salem","state_name":"Kentucky","lat":37.28876,"lng":-88.27202,"zip":"42078","miles_from_dt":16.17},{"city":"Ledbetter","state_name":"Kentucky","lat":37.05329,"lng":-88.4714,"zip":"42058","miles_from_dt":16.82},{"city":"Smithland","state_name":"Kentucky","lat":37.22821,"lng":-88.40274,"zip":"42081","miles_from_dt":16.97},{"city":"Benton","state_name":"Kentucky","lat":36.85764,"lng":-88.33441,"zip":"42025","miles_from_dt":17.28},{"city":"Princeton","state_name":"Kentucky","lat":37.12861,"lng":-87.86052,"zip":"42445","miles_from_dt":17.45},{"city":"Marion","state_name":"Kentucky","lat":37.35022,"lng":-88.09158,"zip":"42064","miles_from_dt":19.8},{"city":"Hampton","state_name":"Kentucky","lat":37.30061,"lng":-88.39046,"zip":"42047","miles_from_dt":20.12},{"city":"Brookport","state_name":"Illinois","lat":37.1562,"lng":-88.53075,"zip":"62910","miles_from_dt":20.92},{"city":"Hardin","state_name":"Kentucky","lat":36.76676,"lng":-88.23533,"zip":"42048","miles_from_dt":21.22},{"city":"Symsonia","state_name":"Kentucky","lat":36.91618,"lng":-88.50092,"zip":"42082","miles_from_dt":21.25},{"city":"Paducah","state_name":"Kentucky","lat":37.00653,"lng":-88.58472,"zip":"42003","miles_from_dt":23.46},{"city":"Dexter","state_name":"Kentucky","lat":36.72246,"lng":-88.23048,"zip":"42036","miles_from_dt":24.19},{"city":"Cadiz","state_name":"Kentucky","lat":36.82016,"lng":-87.83709,"zip":"42211","miles_from_dt":25.11},{"city":"Paducah","state_name":"Kentucky","lat":37.06855,"lng":-88.62494,"zip":"42002","miles_from_dt":25.27},{"city":"Rosiclare","state_name":"Illinois","lat":37.42808,"lng":-88.35967,"zip":"62982","miles_from_dt":26.89},{"city":"Almo","state_name":"Kentucky","lat":36.68913,"lng":-88.29145,"zip":"42020","miles_from_dt":27.12},{"city":"Dawson Springs","state_name":"Kentucky","lat":37.1797,"lng":-87.69229,"zip":"42408","miles_from_dt":27.33},{"city":"Boaz","state_name":"Kentucky","lat":36.91585,"lng":-88.63018,"zip":"42027","miles_from_dt":27.69},{"city":"Cerulean","state_name":"Kentucky","lat":36.99256,"lng":-87.67018,"zip":"42215","miles_from_dt":28.01},{"city":"Kirksey","state_name":"Kentucky","lat":36.71734,"lng":-88.43149,"zip":"42054","miles_from_dt":28.35}],"targetCityZipCode":"42055","targetCityState":"Kentucky"},"__N_SSG":true}