{"pageProps":{"stateName":"Kentucky","cityName":"new-haven","nearbyCities":[{"city":"New Hope","state_name":"Kentucky","lat":37.58417,"lng":-85.51154,"zip":"40052","miles_from_dt":6.03},{"city":"Boston","state_name":"Kentucky","lat":37.76952,"lng":-85.63798,"zip":"40107","miles_from_dt":8.66},{"city":"Saint Francis","state_name":"Kentucky","lat":37.59969,"lng":-85.43161,"zip":"40062","miles_from_dt":8.9},{"city":"Hodgenville","state_name":"Kentucky","lat":37.57029,"lng":-85.70952,"zip":"42748","miles_from_dt":9.13},{"city":"Loretto","state_name":"Kentucky","lat":37.65409,"lng":-85.41196,"zip":"40037","miles_from_dt":9.19},{"city":"Nerinx","state_name":"Kentucky","lat":37.66442,"lng":-85.39724,"zip":"40049","miles_from_dt":10.02},{"city":"Raywick","state_name":"Kentucky","lat":37.53529,"lng":-85.44371,"zip":"40060","miles_from_dt":11.02},{"city":"Bardstown","state_name":"Kentucky","lat":37.80279,"lng":-85.4695,"zip":"40004","miles_from_dt":11.96},{"city":"Buffalo","state_name":"Kentucky","lat":37.47495,"lng":-85.61925,"zip":"42716","miles_from_dt":12.47},{"city":"Saint Mary","state_name":"Kentucky","lat":37.57052,"lng":-85.34336,"zip":"40063","miles_from_dt":14.15},{"city":"Nazareth","state_name":"Kentucky","lat":37.84707,"lng":-85.47338,"zip":"40048","miles_from_dt":14.6},{"city":"Elizabethtown","state_name":"Kentucky","lat":37.70502,"lng":-85.83881,"zip":"42701","miles_from_dt":14.66},{"city":"Mount Sherman","state_name":"Kentucky","lat":37.42948,"lng":-85.62507,"zip":"42764","miles_from_dt":15.61},{"city":"Elizabethtown","state_name":"Kentucky","lat":37.69406,"lng":-85.86065,"zip":"42702","miles_from_dt":15.67},{"city":"Lebanon Junction","state_name":"Kentucky","lat":37.87458,"lng":-85.68799,"zip":"40150","miles_from_dt":16.4},{"city":"Saint Catharine","state_name":"Kentucky","lat":37.70954,"lng":-85.26353,"zip":"40061","miles_from_dt":17.75},{"city":"Magnolia","state_name":"Kentucky","lat":37.40192,"lng":-85.72501,"zip":"42757","miles_from_dt":19.07},{"city":"Clermont","state_name":"Kentucky","lat":37.93478,"lng":-85.64015,"zip":"40110","miles_from_dt":19.72},{"city":"Lebanon","state_name":"Kentucky","lat":37.55935,"lng":-85.23928,"zip":"40033","miles_from_dt":19.75},{"city":"Coxs Creek","state_name":"Kentucky","lat":37.93427,"lng":-85.48684,"zip":"40013","miles_from_dt":20.05},{"city":"Springfield","state_name":"Kentucky","lat":37.71627,"lng":-85.21764,"zip":"40069","miles_from_dt":20.31},{"city":"Glendale","state_name":"Kentucky","lat":37.59174,"lng":-85.94358,"zip":"42740","miles_from_dt":20.41},{"city":"Sonora","state_name":"Kentucky","lat":37.51577,"lng":-85.91834,"zip":"42776","miles_from_dt":20.86},{"city":"Campbellsville","state_name":"Kentucky","lat":37.38994,"lng":-85.37561,"zip":"42718","miles_from_dt":21.32},{"city":"Summersville","state_name":"Kentucky","lat":37.34475,"lng":-85.63702,"zip":"42782","miles_from_dt":21.49},{"city":"Fairfield","state_name":"Kentucky","lat":37.93503,"lng":-85.38753,"zip":"40020","miles_from_dt":22.11},{"city":"Radcliff","state_name":"Kentucky","lat":37.8144,"lng":-85.93971,"zip":"40160","miles_from_dt":22.66},{"city":"Radcliff","state_name":"Kentucky","lat":37.82526,"lng":-85.94125,"zip":"40159","miles_from_dt":23.1},{"city":"Shepherdsville","state_name":"Kentucky","lat":37.98138,"lng":-85.68823,"zip":"40166","miles_from_dt":23.42},{"city":"Upton","state_name":"Kentucky","lat":37.4503,"lng":-85.92272,"zip":"42784","miles_from_dt":23.46},{"city":"Shepherdsville","state_name":"Kentucky","lat":37.99407,"lng":-85.68918,"zip":"40165","miles_from_dt":24.28},{"city":"Bloomfield","state_name":"Kentucky","lat":37.91735,"lng":-85.28097,"zip":"40008","miles_from_dt":24.49},{"city":"Campbellsville","state_name":"Kentucky","lat":37.34194,"lng":-85.34023,"zip":"42719","miles_from_dt":25.16},{"city":"Bonnieville","state_name":"Kentucky","lat":37.37631,"lng":-85.88282,"zip":"42713","miles_from_dt":25.33},{"city":"Fort Knox","state_name":"Kentucky","lat":37.89922,"lng":-85.93892,"zip":"40122","miles_from_dt":25.99},{"city":"Rineyville","state_name":"Kentucky","lat":37.7517,"lng":-86.04394,"zip":"40162","miles_from_dt":26.35},{"city":"White Mills","state_name":"Kentucky","lat":37.52774,"lng":-86.0372,"zip":"42788","miles_from_dt":26.56},{"city":"Cecilia","state_name":"Kentucky","lat":37.67293,"lng":-86.06461,"zip":"42724","miles_from_dt":26.63},{"city":"Mount Washington","state_name":"Kentucky","lat":38.04007,"lng":-85.55453,"zip":"40047","miles_from_dt":26.74},{"city":"Willisburg","state_name":"Kentucky","lat":37.84272,"lng":-85.14902,"zip":"40078","miles_from_dt":26.96},{"city":"Canmer","state_name":"Kentucky","lat":37.27628,"lng":-85.71703,"zip":"42722","miles_from_dt":27.05},{"city":"Fort Knox","state_name":"Kentucky","lat":37.92614,"lng":-85.95292,"zip":"40121","miles_from_dt":27.8},{"city":"Chaplin","state_name":"Kentucky","lat":37.90697,"lng":-85.17376,"zip":"40012","miles_from_dt":28.29},{"city":"Mannsville","state_name":"Kentucky","lat":37.37656,"lng":-85.19756,"zip":"42758","miles_from_dt":28.35},{"city":"Bradfordsville","state_name":"Kentucky","lat":37.47075,"lng":-85.099,"zip":"40009","miles_from_dt":29.22},{"city":"Taylorsville","state_name":"Kentucky","lat":38.04327,"lng":-85.37069,"zip":"40071","miles_from_dt":29.24},{"city":"Greensburg","state_name":"Kentucky","lat":37.22958,"lng":-85.53175,"zip":"42743","miles_from_dt":29.31},{"city":"Hillview","state_name":"Kentucky","lat":38.07146,"lng":-85.67284,"zip":"40129","miles_from_dt":29.31},{"city":"Eastview","state_name":"Kentucky","lat":37.61,"lng":-86.11235,"zip":"42732","miles_from_dt":29.38},{"city":"Brooks","state_name":"Kentucky","lat":38.05857,"lng":-85.75469,"zip":"40109","miles_from_dt":29.57},{"city":"Mackville","state_name":"Kentucky","lat":37.77433,"lng":-85.05727,"zip":"40040","miles_from_dt":29.81}],"targetCityZipCode":"40051","targetCityState":"Kentucky"},"__N_SSG":true}