{"pageProps":{"stateName":"Kentucky","cityName":"north-middletown","nearbyCities":[{"city":"Paris","state_name":"Kentucky","lat":38.20536,"lng":-84.22415,"zip":"40361","miles_from_dt":7.54},{"city":"Paris","state_name":"Kentucky","lat":38.20538,"lng":-84.26343,"zip":"40362","miles_from_dt":9.41},{"city":"Mount Sterling","state_name":"Kentucky","lat":38.06514,"lng":-83.94853,"zip":"40353","miles_from_dt":10.32},{"city":"Millersburg","state_name":"Kentucky","lat":38.30296,"lng":-84.14613,"zip":"40348","miles_from_dt":11.07},{"city":"Winchester","state_name":"Kentucky","lat":37.98845,"lng":-84.17849,"zip":"40392","miles_from_dt":11.47},{"city":"Sharpsburg","state_name":"Kentucky","lat":38.21419,"lng":-83.90359,"zip":"40374","miles_from_dt":12.13},{"city":"Winchester","state_name":"Kentucky","lat":37.96969,"lng":-84.14507,"zip":"40391","miles_from_dt":12.27},{"city":"Carlisle","state_name":"Kentucky","lat":38.32407,"lng":-84.02256,"zip":"40311","miles_from_dt":13.19},{"city":"Lexington","state_name":"Kentucky","lat":38.07366,"lng":-84.36631,"zip":"40516","miles_from_dt":14.89},{"city":"Moorefield","state_name":"Kentucky","lat":38.30512,"lng":-83.87881,"zip":"40350","miles_from_dt":16.67},{"city":"Lexington","state_name":"Kentucky","lat":37.99408,"lng":-84.36791,"zip":"40509","miles_from_dt":17.57},{"city":"Owingsville","state_name":"Kentucky","lat":38.15665,"lng":-83.76679,"zip":"40360","miles_from_dt":18.62},{"city":"Jeffersonville","state_name":"Kentucky","lat":37.95286,"lng":-83.85644,"zip":"40337","miles_from_dt":19.1},{"city":"Lexington","state_name":"Kentucky","lat":38.14103,"lng":-84.46693,"zip":"40550","miles_from_dt":19.53},{"city":"Lexington","state_name":"Kentucky","lat":38.13711,"lng":-84.46752,"zip":"40512","miles_from_dt":19.57},{"city":"Lexington","state_name":"Kentucky","lat":38.13663,"lng":-84.47007,"zip":"40576","miles_from_dt":19.71},{"city":"Lexington","state_name":"Kentucky","lat":38.13621,"lng":-84.47072,"zip":"40580","miles_from_dt":19.74},{"city":"Lexington","state_name":"Kentucky","lat":38.13638,"lng":-84.47077,"zip":"40575","miles_from_dt":19.75},{"city":"Lexington","state_name":"Kentucky","lat":38.1363,"lng":-84.47227,"zip":"40579","miles_from_dt":19.83},{"city":"Lexington","state_name":"Kentucky","lat":38.06039,"lng":-84.45679,"zip":"40505","miles_from_dt":19.87},{"city":"Lexington","state_name":"Kentucky","lat":38.13958,"lng":-84.47352,"zip":"40582","miles_from_dt":19.89},{"city":"Lexington","state_name":"Kentucky","lat":38.13714,"lng":-84.47342,"zip":"40574","miles_from_dt":19.89},{"city":"Lexington","state_name":"Kentucky","lat":38.13654,"lng":-84.47376,"zip":"40583","miles_from_dt":19.91},{"city":"Lexington","state_name":"Kentucky","lat":38.13278,"lng":-84.47392,"zip":"40511","miles_from_dt":19.93},{"city":"Lexington","state_name":"Kentucky","lat":38.13915,"lng":-84.47553,"zip":"40581","miles_from_dt":20},{"city":"Lexington","state_name":"Kentucky","lat":37.98483,"lng":-84.42705,"zip":"40555","miles_from_dt":20.6},{"city":"Cynthiana","state_name":"Kentucky","lat":38.41383,"lng":-84.28631,"zip":"41031","miles_from_dt":20.9},{"city":"Hope","state_name":"Kentucky","lat":38.0197,"lng":-83.74943,"zip":"40334","miles_from_dt":21.4},{"city":"Lexington","state_name":"Kentucky","lat":38.07823,"lng":-84.50307,"zip":"40578","miles_from_dt":22},{"city":"Lexington","state_name":"Kentucky","lat":38.04806,"lng":-84.49367,"zip":"40591","miles_from_dt":22.04},{"city":"Lexington","state_name":"Kentucky","lat":38.0715,"lng":-84.50298,"zip":"40577","miles_from_dt":22.09},{"city":"Lexington","state_name":"Kentucky","lat":38.04686,"lng":-84.49628,"zip":"40507","miles_from_dt":22.2},{"city":"Ewing","state_name":"Kentucky","lat":38.41381,"lng":-83.88074,"zip":"41039","miles_from_dt":22.28},{"city":"Lexington","state_name":"Kentucky","lat":38.01376,"lng":-84.48189,"zip":"40502","miles_from_dt":22.29},{"city":"Lexington","state_name":"Kentucky","lat":38.04614,"lng":-84.49865,"zip":"40588","miles_from_dt":22.34},{"city":"Lexington","state_name":"Kentucky","lat":38.05004,"lng":-84.50018,"zip":"40508","miles_from_dt":22.34},{"city":"Lexington","state_name":"Kentucky","lat":38.05,"lng":-84.50219,"zip":"40598","miles_from_dt":22.44},{"city":"Lexington","state_name":"Kentucky","lat":38.02222,"lng":-84.48971,"zip":"40522","miles_from_dt":22.45},{"city":"Means","state_name":"Kentucky","lat":37.98339,"lng":-83.74384,"zip":"40346","miles_from_dt":22.8},{"city":"Lexington","state_name":"Kentucky","lat":37.92021,"lng":-84.4152,"zip":"40515","miles_from_dt":22.82},{"city":"Lexington","state_name":"Kentucky","lat":38.0297,"lng":-84.50153,"zip":"40526","miles_from_dt":22.86},{"city":"Clay City","state_name":"Kentucky","lat":37.84386,"lng":-83.93013,"zip":"40312","miles_from_dt":22.95},{"city":"Lexington","state_name":"Kentucky","lat":38.03875,"lng":-84.50899,"zip":"40546","miles_from_dt":23.03},{"city":"Lexington","state_name":"Kentucky","lat":38.02979,"lng":-84.50732,"zip":"40536","miles_from_dt":23.16},{"city":"Lexington","state_name":"Kentucky","lat":38.03058,"lng":-84.50806,"zip":"40506","miles_from_dt":23.17},{"city":"Lexington","state_name":"Kentucky","lat":37.98386,"lng":-84.48833,"zip":"40517","miles_from_dt":23.51},{"city":"Olympia","state_name":"Kentucky","lat":38.05769,"lng":-83.6831,"zip":"40358","miles_from_dt":23.95},{"city":"Elizaville","state_name":"Kentucky","lat":38.41997,"lng":-83.82414,"zip":"41037","miles_from_dt":24.46},{"city":"Lexington","state_name":"Kentucky","lat":38.04181,"lng":-84.54133,"zip":"40504","miles_from_dt":24.65},{"city":"Lexington","state_name":"Kentucky","lat":38.0425,"lng":-84.54158,"zip":"40544","miles_from_dt":24.65},{"city":"Lexington","state_name":"Kentucky","lat":37.98488,"lng":-84.514,"zip":"40523","miles_from_dt":24.72},{"city":"Lexington","state_name":"Kentucky","lat":38.0388,"lng":-84.5425,"zip":"40533","miles_from_dt":24.77},{"city":"Georgetown","state_name":"Kentucky","lat":38.24786,"lng":-84.54956,"zip":"40324","miles_from_dt":25.03},{"city":"Lexington","state_name":"Kentucky","lat":38.0047,"lng":-84.53434,"zip":"40503","miles_from_dt":25.16},{"city":"Lexington","state_name":"Kentucky","lat":37.99012,"lng":-84.53308,"zip":"40524","miles_from_dt":25.51},{"city":"Mount Olivet","state_name":"Kentucky","lat":38.51462,"lng":-84.07106,"zip":"41064","miles_from_dt":25.56},{"city":"Hillsboro","state_name":"Kentucky","lat":38.27465,"lng":-83.64581,"zip":"41049","miles_from_dt":26.71},{"city":"Lexington","state_name":"Kentucky","lat":37.98279,"lng":-84.56352,"zip":"40514","miles_from_dt":27.23},{"city":"Lexington","state_name":"Kentucky","lat":38.07243,"lng":-84.60138,"zip":"40510","miles_from_dt":27.33},{"city":"Flemingsburg","state_name":"Kentucky","lat":38.40548,"lng":-83.72338,"zip":"41041","miles_from_dt":27.58},{"city":"Waco","state_name":"Kentucky","lat":37.73866,"lng":-84.13085,"zip":"40385","miles_from_dt":28.06},{"city":"Salt Lick","state_name":"Kentucky","lat":38.07716,"lng":-83.59561,"zip":"40371","miles_from_dt":28.34},{"city":"Richmond","state_name":"Kentucky","lat":37.7635,"lng":-84.30828,"zip":"40475","miles_from_dt":28.5},{"city":"Lexington","state_name":"Kentucky","lat":38.01626,"lng":-84.60694,"zip":"40513","miles_from_dt":28.59},{"city":"Sadieville","state_name":"Kentucky","lat":38.39382,"lng":-84.52971,"zip":"40370","miles_from_dt":28.62},{"city":"Stanton","state_name":"Kentucky","lat":37.81965,"lng":-83.78006,"zip":"40380","miles_from_dt":28.73},{"city":"Mayslick","state_name":"Kentucky","lat":38.51787,"lng":-83.86995,"zip":"41055","miles_from_dt":28.79},{"city":"Richmond","state_name":"Kentucky","lat":37.74898,"lng":-84.29351,"zip":"40476","miles_from_dt":29.14},{"city":"Frenchburg","state_name":"Kentucky","lat":37.93367,"lng":-83.63329,"zip":"40322","miles_from_dt":29.74}],"targetCityZipCode":"40357","targetCityState":"Kentucky"},"__N_SSG":true}