{"pageProps":{"stateName":"Kentucky","cityName":"pembroke","nearbyCities":[{"city":"Trenton","state_name":"Kentucky","lat":36.72749,"lng":-87.26959,"zip":"42286","miles_from_dt":5.67},{"city":"Oak Grove","state_name":"Kentucky","lat":36.68386,"lng":-87.44714,"zip":"42262","miles_from_dt":7.42},{"city":"Hopkinsville","state_name":"Kentucky","lat":36.88388,"lng":-87.46024,"zip":"42240","miles_from_dt":9.86},{"city":"Hopkinsville","state_name":"Kentucky","lat":36.86709,"lng":-87.48976,"zip":"42241","miles_from_dt":10.03},{"city":"Fort Campbell","state_name":"Kentucky","lat":36.6381,"lng":-87.47258,"zip":"42223","miles_from_dt":10.79},{"city":"Guthrie","state_name":"Kentucky","lat":36.70656,"lng":-87.17598,"zip":"42234","miles_from_dt":11},{"city":"Fairview","state_name":"Kentucky","lat":36.89449,"lng":-87.48534,"zip":"42221","miles_from_dt":11.28},{"city":"Elkton","state_name":"Kentucky","lat":36.90129,"lng":-87.18395,"zip":"42220","miles_from_dt":13.52},{"city":"Clarksville","state_name":"Tennessee","lat":36.56894,"lng":-87.41225,"zip":"37042","miles_from_dt":13.87},{"city":"Clarksville","state_name":"Tennessee","lat":36.5612,"lng":-87.34874,"zip":"37041","miles_from_dt":14.11},{"city":"Herndon","state_name":"Kentucky","lat":36.7196,"lng":-87.61225,"zip":"42236","miles_from_dt":14.35},{"city":"Allensville","state_name":"Kentucky","lat":36.69509,"lng":-87.08096,"zip":"42204","miles_from_dt":16.24},{"city":"Clarksville","state_name":"Tennessee","lat":36.52938,"lng":-87.33763,"zip":"37044","miles_from_dt":16.34},{"city":"Clarksville","state_name":"Tennessee","lat":36.52408,"lng":-87.33287,"zip":"37040","miles_from_dt":16.72},{"city":"La Fayette","state_name":"Kentucky","lat":36.66435,"lng":-87.63852,"zip":"42254","miles_from_dt":16.96},{"city":"Gracey","state_name":"Kentucky","lat":36.86665,"lng":-87.66167,"zip":"42232","miles_from_dt":18.11},{"city":"Sharon Grove","state_name":"Kentucky","lat":36.95055,"lng":-87.09927,"zip":"42280","miles_from_dt":19.27},{"city":"Clifty","state_name":"Kentucky","lat":36.98719,"lng":-87.14236,"zip":"42216","miles_from_dt":19.47},{"city":"Adams","state_name":"Tennessee","lat":36.5675,"lng":-87.10894,"zip":"37010","miles_from_dt":19.53},{"city":"Clarksville","state_name":"Tennessee","lat":36.49842,"lng":-87.23197,"zip":"37043","miles_from_dt":19.75},{"city":"Olmstead","state_name":"Kentucky","lat":36.739,"lng":-87.00141,"zip":"42265","miles_from_dt":19.99},{"city":"Woodlawn","state_name":"Tennessee","lat":36.50726,"lng":-87.52392,"zip":"37191","miles_from_dt":20.01},{"city":"Crofton","state_name":"Kentucky","lat":37.04915,"lng":-87.47212,"zip":"42217","miles_from_dt":20.51},{"city":"Cerulean","state_name":"Kentucky","lat":36.99256,"lng":-87.67018,"zip":"42215","miles_from_dt":23.24},{"city":"Cedar Hill","state_name":"Tennessee","lat":36.52518,"lng":-87.01647,"zip":"37032","miles_from_dt":25.29},{"city":"Palmyra","state_name":"Tennessee","lat":36.41164,"lng":-87.50112,"zip":"37142","miles_from_dt":25.64},{"city":"Indian Mound","state_name":"Tennessee","lat":36.4826,"lng":-87.65939,"zip":"37079","miles_from_dt":25.64},{"city":"Big Rock","state_name":"Tennessee","lat":36.58409,"lng":-87.78302,"zip":"37023","miles_from_dt":26.62},{"city":"Cadiz","state_name":"Kentucky","lat":36.82016,"lng":-87.83709,"zip":"42211","miles_from_dt":26.72},{"city":"Cunningham","state_name":"Tennessee","lat":36.37534,"lng":-87.40095,"zip":"37052","miles_from_dt":27.01},{"city":"Russellville","state_name":"Kentucky","lat":36.86093,"lng":-86.87727,"zip":"42276","miles_from_dt":27.57},{"city":"Southside","state_name":"Tennessee","lat":36.36442,"lng":-87.30365,"zip":"37171","miles_from_dt":27.84},{"city":"Greenville","state_name":"Kentucky","lat":37.14839,"lng":-87.18943,"zip":"42345","miles_from_dt":28.03},{"city":"Adairville","state_name":"Kentucky","lat":36.68732,"lng":-86.85916,"zip":"42202","miles_from_dt":28.32},{"city":"Lewisburg","state_name":"Kentucky","lat":37.01666,"lng":-86.94796,"zip":"42256","miles_from_dt":28.65},{"city":"White Plains","state_name":"Kentucky","lat":37.18132,"lng":-87.37148,"zip":"42464","miles_from_dt":28.67},{"city":"Nortonville","state_name":"Kentucky","lat":37.17408,"lng":-87.48652,"zip":"42442","miles_from_dt":29.02},{"city":"Saint Charles","state_name":"Kentucky","lat":37.14888,"lng":-87.58275,"zip":"42453","miles_from_dt":29.16},{"city":"Bumpus Mills","state_name":"Tennessee","lat":36.62793,"lng":-87.85723,"zip":"37028","miles_from_dt":29.19},{"city":"Chapmansboro","state_name":"Tennessee","lat":36.3849,"lng":-87.12602,"zip":"37035","miles_from_dt":29.3}],"targetCityZipCode":"42266","targetCityState":"Kentucky"},"__N_SSG":true}