{"pageProps":{"stateName":"Kentucky","cityName":"phyllis","nearbyCities":[{"city":"Lick Creek","state_name":"Kentucky","lat":37.39013,"lng":-82.32318,"zip":"41540","miles_from_dt":3.38},{"city":"Kimper","state_name":"Kentucky","lat":37.50265,"lng":-82.32231,"zip":"41539","miles_from_dt":4.38},{"city":"Fedscreek","state_name":"Kentucky","lat":37.43345,"lng":-82.23444,"zip":"41524","miles_from_dt":4.97},{"city":"Regina","state_name":"Kentucky","lat":37.37997,"lng":-82.39017,"zip":"41559","miles_from_dt":5.45},{"city":"Mouthcard","state_name":"Kentucky","lat":37.37847,"lng":-82.25372,"zip":"41548","miles_from_dt":5.72},{"city":"Raccoon","state_name":"Kentucky","lat":37.48189,"lng":-82.41548,"zip":"41557","miles_from_dt":5.81},{"city":"Belcher","state_name":"Kentucky","lat":37.35282,"lng":-82.34329,"zip":"41513","miles_from_dt":6.05},{"city":"Steele","state_name":"Kentucky","lat":37.40836,"lng":-82.1922,"zip":"41566","miles_from_dt":7.58},{"city":"Pinsonfork","state_name":"Kentucky","lat":37.53816,"lng":-82.2589,"zip":"41555","miles_from_dt":7.72},{"city":"McAndrews","state_name":"Kentucky","lat":37.54837,"lng":-82.28226,"zip":"41543","miles_from_dt":7.88},{"city":"Shelbiana","state_name":"Kentucky","lat":37.3991,"lng":-82.47052,"zip":"41562","miles_from_dt":8.5},{"city":"Stone","state_name":"Kentucky","lat":37.56897,"lng":-82.28621,"zip":"41567","miles_from_dt":9.19},{"city":"Big Rock","state_name":"Virginia","lat":37.35607,"lng":-82.1914,"zip":"24603","miles_from_dt":9.3},{"city":"Ransom","state_name":"Kentucky","lat":37.53953,"lng":-82.20819,"zip":"41558","miles_from_dt":9.42},{"city":"Elkhorn City","state_name":"Kentucky","lat":37.31644,"lng":-82.40088,"zip":"41522","miles_from_dt":9.45},{"city":"Phelps","state_name":"Kentucky","lat":37.48057,"lng":-82.16025,"zip":"41553","miles_from_dt":9.47},{"city":"Canada","state_name":"Kentucky","lat":37.58359,"lng":-82.32334,"zip":"41519","miles_from_dt":9.96},{"city":"Fords Branch","state_name":"Kentucky","lat":37.43372,"lng":-82.51256,"zip":"41526","miles_from_dt":10.35},{"city":"Breaks","state_name":"Virginia","lat":37.29498,"lng":-82.26533,"zip":"24607","miles_from_dt":10.46},{"city":"Rockhouse","state_name":"Kentucky","lat":37.32691,"lng":-82.45338,"zip":"41561","miles_from_dt":10.5},{"city":"Huddy","state_name":"Kentucky","lat":37.59368,"lng":-82.28422,"zip":"41535","miles_from_dt":10.88},{"city":"Pikeville","state_name":"Kentucky","lat":37.47966,"lng":-82.51877,"zip":"41502","miles_from_dt":11.04},{"city":"Pikeville","state_name":"Kentucky","lat":37.50805,"lng":-82.5154,"zip":"41501","miles_from_dt":11.52},{"city":"Sidney","state_name":"Kentucky","lat":37.60476,"lng":-82.3667,"zip":"41564","miles_from_dt":11.65},{"city":"Lookout","state_name":"Kentucky","lat":37.31592,"lng":-82.47079,"zip":"41542","miles_from_dt":11.71},{"city":"Hardy","state_name":"Kentucky","lat":37.59509,"lng":-82.23131,"zip":"41531","miles_from_dt":11.91},{"city":"Maxie","state_name":"Virginia","lat":37.30347,"lng":-82.17337,"zip":"24628","miles_from_dt":12.52},{"city":"Freeburn","state_name":"Kentucky","lat":37.55458,"lng":-82.13984,"zip":"41528","miles_from_dt":12.89},{"city":"Forest Hills","state_name":"Kentucky","lat":37.63187,"lng":-82.29378,"zip":"41527","miles_from_dt":13.39},{"city":"McCarr","state_name":"Kentucky","lat":37.59602,"lng":-82.17368,"zip":"41544","miles_from_dt":13.62},{"city":"Robinson Creek","state_name":"Kentucky","lat":37.39423,"lng":-82.57875,"zip":"41560","miles_from_dt":14.33},{"city":"Majestic","state_name":"Kentucky","lat":37.53821,"lng":-82.09437,"zip":"41547","miles_from_dt":14.37},{"city":"Varney","state_name":"Kentucky","lat":37.62651,"lng":-82.44437,"zip":"41571","miles_from_dt":14.5},{"city":"Hellier","state_name":"Kentucky","lat":37.27748,"lng":-82.49644,"zip":"41534","miles_from_dt":14.63},{"city":"Haysi","state_name":"Virginia","lat":37.22344,"lng":-82.28503,"zip":"24256","miles_from_dt":15.04},{"city":"Stopover","state_name":"Kentucky","lat":37.50369,"lng":-82.05896,"zip":"41568","miles_from_dt":15.26},{"city":"Edgarton","state_name":"West Virginia","lat":37.57017,"lng":-82.10044,"zip":"25672","miles_from_dt":15.27},{"city":"Ashcamp","state_name":"Kentucky","lat":37.25251,"lng":-82.47772,"zip":"41512","miles_from_dt":15.39},{"city":"South Williamson","state_name":"Kentucky","lat":37.66079,"lng":-82.28446,"zip":"41503","miles_from_dt":15.44},{"city":"Rawl","state_name":"West Virginia","lat":37.64753,"lng":-82.21831,"zip":"25691","miles_from_dt":15.51},{"city":"Belfry","state_name":"Kentucky","lat":37.67135,"lng":-82.33169,"zip":"41514","miles_from_dt":16.02},{"city":"Grundy","state_name":"Virginia","lat":37.31466,"lng":-82.07181,"zip":"24614","miles_from_dt":16.34},{"city":"North Matewan","state_name":"West Virginia","lat":37.63952,"lng":-82.15832,"zip":"25688","miles_from_dt":16.56},{"city":"Hurley","state_name":"Virginia","lat":37.43335,"lng":-82.01932,"zip":"24620","miles_from_dt":16.78},{"city":"Harold","state_name":"Kentucky","lat":37.48009,"lng":-82.62831,"zip":"41635","miles_from_dt":16.94},{"city":"Matewan","state_name":"West Virginia","lat":37.59564,"lng":-82.08187,"zip":"25678","miles_from_dt":17.15},{"city":"Jonancy","state_name":"Kentucky","lat":37.30338,"lng":-82.58891,"zip":"41538","miles_from_dt":17.31},{"city":"Teaberry","state_name":"Kentucky","lat":37.41341,"lng":-82.63846,"zip":"41660","miles_from_dt":17.36},{"city":"Myra","state_name":"Kentucky","lat":37.2935,"lng":-82.59021,"zip":"41549","miles_from_dt":17.75},{"city":"Newtown","state_name":"West Virginia","lat":37.64902,"lng":-82.12839,"zip":"25686","miles_from_dt":18.04},{"city":"Dorton","state_name":"Kentucky","lat":37.27655,"lng":-82.58176,"zip":"41520","miles_from_dt":18.07},{"city":"Stanville","state_name":"Kentucky","lat":37.58415,"lng":-82.60064,"zip":"41659","miles_from_dt":18.17},{"city":"Grethel","state_name":"Kentucky","lat":37.46801,"lng":-82.65365,"zip":"41631","miles_from_dt":18.21},{"city":"Red Jacket","state_name":"West Virginia","lat":37.61804,"lng":-82.07375,"zip":"25692","miles_from_dt":18.49},{"city":"Betsy Layne","state_name":"Kentucky","lat":37.55498,"lng":-82.63009,"zip":"41605","miles_from_dt":18.6},{"city":"Chattaroy","state_name":"West Virginia","lat":37.70619,"lng":-82.2738,"zip":"25667","miles_from_dt":18.62},{"city":"Mavisdale","state_name":"Virginia","lat":37.18299,"lng":-82.21519,"zip":"24627","miles_from_dt":18.67},{"city":"Shelby Gap","state_name":"Kentucky","lat":37.22628,"lng":-82.53694,"zip":"41563","miles_from_dt":18.77},{"city":"Borderland","state_name":"West Virginia","lat":37.71382,"lng":-82.30604,"zip":"25665","miles_from_dt":18.97},{"city":"Williamson","state_name":"West Virginia","lat":37.71062,"lng":-82.25377,"zip":"25661","miles_from_dt":19.12},{"city":"Beaver","state_name":"Kentucky","lat":37.38986,"lng":-82.66782,"zip":"41604","miles_from_dt":19.19},{"city":"Wolford","state_name":"Virginia","lat":37.35254,"lng":-81.99172,"zip":"24658","miles_from_dt":19.26},{"city":"Virgie","state_name":"Kentucky","lat":37.31342,"lng":-82.64368,"zip":"41572","miles_from_dt":19.59},{"city":"Ragland","state_name":"West Virginia","lat":37.69124,"lng":-82.15505,"zip":"25690","miles_from_dt":19.71},{"city":"Clintwood","state_name":"Virginia","lat":37.17047,"lng":-82.44963,"zip":"24228","miles_from_dt":19.77},{"city":"Tram","state_name":"Kentucky","lat":37.56844,"lng":-82.65966,"zip":"41663","miles_from_dt":20.46},{"city":"Clinchco","state_name":"Virginia","lat":37.14223,"lng":-82.33384,"zip":"24226","miles_from_dt":20.49},{"city":"Ivel","state_name":"Kentucky","lat":37.59569,"lng":-82.64457,"zip":"41642","miles_from_dt":20.63},{"city":"Melvin","state_name":"Kentucky","lat":37.34722,"lng":-82.68166,"zip":"41650","miles_from_dt":20.65},{"city":"Varney","state_name":"West Virginia","lat":37.66116,"lng":-82.07154,"zip":"25696","miles_from_dt":20.67},{"city":"Mohawk","state_name":"West Virginia","lat":37.47905,"lng":-81.9489,"zip":"24862","miles_from_dt":20.83},{"city":"Dana","state_name":"Kentucky","lat":37.54211,"lng":-82.68337,"zip":"41615","miles_from_dt":20.96},{"city":"Vansant","state_name":"Virginia","lat":37.1743,"lng":-82.12364,"zip":"24656","miles_from_dt":21.36},{"city":"Banner","state_name":"Kentucky","lat":37.55934,"lng":-82.68704,"zip":"41603","miles_from_dt":21.58},{"city":"McDowell","state_name":"Kentucky","lat":37.43056,"lng":-82.71737,"zip":"41647","miles_from_dt":21.62},{"city":"Wharncliffe","state_name":"West Virginia","lat":37.57142,"lng":-81.9662,"zip":"25651","miles_from_dt":21.69},{"city":"Pilgrim","state_name":"Kentucky","lat":37.73511,"lng":-82.46079,"zip":"41250","miles_from_dt":21.74},{"city":"Jenkins","state_name":"Kentucky","lat":37.22221,"lng":-82.61619,"zip":"41537","miles_from_dt":21.95},{"city":"Weeksbury","state_name":"Kentucky","lat":37.31138,"lng":-82.69881,"zip":"41667","miles_from_dt":22.41},{"city":"Printer","state_name":"Kentucky","lat":37.50496,"lng":-82.72465,"zip":"41655","miles_from_dt":22.46},{"city":"Hi Hat","state_name":"Kentucky","lat":37.39772,"lng":-82.73087,"zip":"41636","miles_from_dt":22.54},{"city":"Delbarton","state_name":"West Virginia","lat":37.7385,"lng":-82.15588,"zip":"25670","miles_from_dt":22.62},{"city":"Bypro","state_name":"Kentucky","lat":37.35451,"lng":-82.72233,"zip":"41612","miles_from_dt":22.66},{"city":"Wheelwright","state_name":"Kentucky","lat":37.33375,"lng":-82.71469,"zip":"41669","miles_from_dt":22.67},{"city":"Birchleaf","state_name":"Virginia","lat":37.11957,"lng":-82.22641,"zip":"24220","miles_from_dt":22.69},{"city":"Burdine","state_name":"Kentucky","lat":37.18919,"lng":-82.60026,"zip":"41517","miles_from_dt":22.98},{"city":"Drift","state_name":"Kentucky","lat":37.48328,"lng":-82.74187,"zip":"41619","miles_from_dt":23.15},{"city":"Oakwood","state_name":"Virginia","lat":37.2202,"lng":-81.99714,"zip":"24631","miles_from_dt":23.52},{"city":"Bevinsville","state_name":"Kentucky","lat":37.34594,"lng":-82.7375,"zip":"41606","miles_from_dt":23.62},{"city":"Panther","state_name":"West Virginia","lat":37.44986,"lng":-81.8932,"zip":"24872","miles_from_dt":23.72},{"city":"Minnie","state_name":"Kentucky","lat":37.46716,"lng":-82.75527,"zip":"41651","miles_from_dt":23.76},{"city":"Davenport","state_name":"Virginia","lat":37.1136,"lng":-82.14577,"zip":"24239","miles_from_dt":24.52},{"city":"Isaban","state_name":"West Virginia","lat":37.52611,"lng":-81.89175,"zip":"24846","miles_from_dt":24.52},{"city":"Jolo","state_name":"West Virginia","lat":37.37807,"lng":-81.88516,"zip":"24850","miles_from_dt":24.53},{"city":"Naugatuck","state_name":"West Virginia","lat":37.79592,"lng":-82.31426,"zip":"25685","miles_from_dt":24.61},{"city":"Keen Mountain","state_name":"Virginia","lat":37.20438,"lng":-81.98706,"zip":"24624","miles_from_dt":24.65},{"city":"Bee","state_name":"Virginia","lat":37.1014,"lng":-82.17783,"zip":"24217","miles_from_dt":24.66},{"city":"McRoberts","state_name":"Kentucky","lat":37.21196,"lng":-82.67114,"zip":"41835","miles_from_dt":24.7},{"city":"Allen","state_name":"Kentucky","lat":37.60969,"lng":-82.72037,"zip":"41601","miles_from_dt":24.72},{"city":"Lovely","state_name":"Kentucky","lat":37.79447,"lng":-82.38903,"zip":"41231","miles_from_dt":24.76},{"city":"McClure","state_name":"Virginia","lat":37.0803,"lng":-82.37894,"zip":"24269","miles_from_dt":24.93},{"city":"Dema","state_name":"Kentucky","lat":37.39922,"lng":-82.77606,"zip":"41859","miles_from_dt":24.99},{"city":"Sarah Ann","state_name":"West Virginia","lat":37.70191,"lng":-82.00107,"zip":"25644","miles_from_dt":25.37},{"city":"Paynesville","state_name":"West Virginia","lat":37.35734,"lng":-81.87415,"zip":"24873","miles_from_dt":25.41},{"city":"Jackhorn","state_name":"Kentucky","lat":37.23323,"lng":-82.70854,"zip":"41825","miles_from_dt":25.48},{"city":"Baisden","state_name":"West Virginia","lat":37.57512,"lng":-81.89165,"zip":"25608","miles_from_dt":25.56},{"city":"Dwale","state_name":"Kentucky","lat":37.6269,"lng":-82.72663,"zip":"41621","miles_from_dt":25.6},{"city":"Omar","state_name":"West Virginia","lat":37.74423,"lng":-82.05133,"zip":"25638","miles_from_dt":25.83},{"city":"Pilgrims Knob","state_name":"Virginia","lat":37.27411,"lng":-81.90253,"zip":"24634","miles_from_dt":25.87},{"city":"Cromona","state_name":"Kentucky","lat":37.18492,"lng":-82.67278,"zip":"41810","miles_from_dt":25.99},{"city":"Topmost","state_name":"Kentucky","lat":37.34971,"lng":-82.78929,"zip":"41862","miles_from_dt":26.31},{"city":"Rowe","state_name":"Virginia","lat":37.13751,"lng":-82.02976,"zip":"24646","miles_from_dt":26.39},{"city":"Langley","state_name":"Kentucky","lat":37.52872,"lng":-82.79294,"zip":"41645","miles_from_dt":26.48},{"city":"Wayland","state_name":"Kentucky","lat":37.4396,"lng":-82.80621,"zip":"41666","miles_from_dt":26.49},{"city":"Deane","state_name":"Kentucky","lat":37.2473,"lng":-82.74445,"zip":"41812","miles_from_dt":26.64},{"city":"Martin","state_name":"Kentucky","lat":37.57139,"lng":-82.78337,"zip":"41649","miles_from_dt":26.81},{"city":"Gilbert","state_name":"West Virginia","lat":37.63149,"lng":-81.89643,"zip":"25621","miles_from_dt":26.99},{"city":"Lenore","state_name":"West Virginia","lat":37.82509,"lng":-82.22972,"zip":"25676","miles_from_dt":27.12},{"city":"Eastern","state_name":"Kentucky","lat":37.51377,"lng":-82.80925,"zip":"41622","miles_from_dt":27.14},{"city":"Kite","state_name":"Kentucky","lat":37.2971,"lng":-82.78444,"zip":"41828","miles_from_dt":27.15},{"city":"Neon","state_name":"Kentucky","lat":37.19962,"lng":-82.71813,"zip":"41840","miles_from_dt":27.26},{"city":"Dante","state_name":"Virginia","lat":37.03939,"lng":-82.26424,"zip":"24237","miles_from_dt":27.77},{"city":"Raven","state_name":"Kentucky","lat":37.39002,"lng":-82.8264,"zip":"41861","miles_from_dt":27.82},{"city":"Nora","state_name":"Virginia","lat":37.0302,"lng":-82.33401,"zip":"24272","miles_from_dt":28.21},{"city":"Pound","state_name":"Virginia","lat":37.10383,"lng":-82.61909,"zip":"24279","miles_from_dt":28.26},{"city":"Whitman","state_name":"West Virginia","lat":37.78702,"lng":-82.04865,"zip":"25652","miles_from_dt":28.36},{"city":"Lackey","state_name":"Kentucky","lat":37.43778,"lng":-82.84307,"zip":"41643","miles_from_dt":28.52},{"city":"Prestonsburg","state_name":"Kentucky","lat":37.6603,"lng":-82.76466,"zip":"41653","miles_from_dt":28.58},{"city":"Bradshaw","state_name":"West Virginia","lat":37.34206,"lng":-81.81721,"zip":"24817","miles_from_dt":28.7},{"city":"Debord","state_name":"Kentucky","lat":37.79448,"lng":-82.59839,"zip":"41214","miles_from_dt":28.74},{"city":"North Spring","state_name":"West Virginia","lat":37.56133,"lng":-81.82315,"zip":"24869","miles_from_dt":28.8},{"city":"Inez","state_name":"Kentucky","lat":37.82089,"lng":-82.53936,"zip":"41224","miles_from_dt":28.84},{"city":"Millstone","state_name":"Kentucky","lat":37.19677,"lng":-82.75144,"zip":"41838","miles_from_dt":28.85},{"city":"Justice","state_name":"West Virginia","lat":37.59922,"lng":-81.83805,"zip":"24851","miles_from_dt":28.91},{"city":"Garrett","state_name":"Kentucky","lat":37.46416,"lng":-82.84992,"zip":"41630","miles_from_dt":28.94},{"city":"Seco","state_name":"Kentucky","lat":37.1744,"lng":-82.73251,"zip":"41849","miles_from_dt":28.96},{"city":"Chauncey","state_name":"West Virginia","lat":37.76396,"lng":-81.98064,"zip":"25612","miles_from_dt":29.28},{"city":"Holden","state_name":"West Virginia","lat":37.82237,"lng":-82.09206,"zip":"25625","miles_from_dt":29.34},{"city":"Ikes Fork","state_name":"West Virginia","lat":37.52643,"lng":-81.80041,"zip":"24845","miles_from_dt":29.42},{"city":"Beauty","state_name":"Kentucky","lat":37.85241,"lng":-82.46112,"zip":"41203","miles_from_dt":29.47},{"city":"Raven","state_name":"Virginia","lat":37.17357,"lng":-81.90461,"zip":"24639","miles_from_dt":29.5},{"city":"Iaeger","state_name":"West Virginia","lat":37.48554,"lng":-81.78703,"zip":"24844","miles_from_dt":29.72},{"city":"Kermit","state_name":"West Virginia","lat":37.87114,"lng":-82.34672,"zip":"25674","miles_from_dt":29.81}],"targetCityZipCode":"41554","targetCityState":"Kentucky"},"__N_SSG":true}