{"pageProps":{"stateName":"Kentucky","cityName":"wendover","nearbyCities":[{"city":"Hoskinston","state_name":"Kentucky","lat":37.05506,"lng":-83.35406,"zip":"40844","miles_from_dt":2.75},{"city":"Stinnett","state_name":"Kentucky","lat":37.09367,"lng":-83.41638,"zip":"40868","miles_from_dt":4.1},{"city":"Smilax","state_name":"Kentucky","lat":37.12924,"lng":-83.25545,"zip":"41764","miles_from_dt":5.37},{"city":"Asher","state_name":"Kentucky","lat":37.04572,"lng":-83.42185,"zip":"40803","miles_from_dt":5.51},{"city":"Wooton","state_name":"Kentucky","lat":37.15933,"lng":-83.28158,"zip":"41776","miles_from_dt":5.62},{"city":"Chappell","state_name":"Kentucky","lat":37.00879,"lng":-83.3667,"zip":"40816","miles_from_dt":6.01},{"city":"Mozelle","state_name":"Kentucky","lat":37.01592,"lng":-83.40106,"zip":"40858","miles_from_dt":6.28},{"city":"Yeaddiss","state_name":"Kentucky","lat":37.06022,"lng":-83.23276,"zip":"41777","miles_from_dt":6.47},{"city":"Big Laurel","state_name":"Kentucky","lat":36.9995,"lng":-83.2801,"zip":"40808","miles_from_dt":7.35},{"city":"Essie","state_name":"Kentucky","lat":37.05208,"lng":-83.47187,"zip":"40827","miles_from_dt":7.73},{"city":"Hyden","state_name":"Kentucky","lat":37.19364,"lng":-83.4199,"zip":"41749","miles_from_dt":8.12},{"city":"Thousandsticks","state_name":"Kentucky","lat":37.18526,"lng":-83.44443,"zip":"41766","miles_from_dt":8.47},{"city":"Avawam","state_name":"Kentucky","lat":37.22703,"lng":-83.27799,"zip":"41713","miles_from_dt":9.85},{"city":"Bear Branch","state_name":"Kentucky","lat":37.16519,"lng":-83.5075,"zip":"41714","miles_from_dt":10.38},{"city":"Roark","state_name":"Kentucky","lat":37.00491,"lng":-83.495,"zip":"40979","miles_from_dt":10.44},{"city":"Warbranch","state_name":"Kentucky","lat":36.98407,"lng":-83.47345,"zip":"40874","miles_from_dt":10.48},{"city":"Helton","state_name":"Kentucky","lat":36.9457,"lng":-83.41854,"zip":"40840","miles_from_dt":11.05},{"city":"Busy","state_name":"Kentucky","lat":37.25469,"lng":-83.31409,"zip":"41723","miles_from_dt":11.21},{"city":"Bledsoe","state_name":"Kentucky","lat":36.93176,"lng":-83.30451,"zip":"40810","miles_from_dt":11.36},{"city":"Sizerock","state_name":"Kentucky","lat":37.20742,"lng":-83.50077,"zip":"41762","miles_from_dt":11.76},{"city":"Yerkes","state_name":"Kentucky","lat":37.26612,"lng":-83.3223,"zip":"41778","miles_from_dt":11.94},{"city":"Viper","state_name":"Kentucky","lat":37.15512,"lng":-83.13847,"zip":"41774","miles_from_dt":12.01},{"city":"Big Creek","state_name":"Kentucky","lat":37.0932,"lng":-83.56154,"zip":"40914","miles_from_dt":12.12},{"city":"Slemp","state_name":"Kentucky","lat":37.05439,"lng":-83.12157,"zip":"41763","miles_from_dt":12.48},{"city":"Hazard","state_name":"Kentucky","lat":37.2494,"lng":-83.19137,"zip":"41702","miles_from_dt":13.58},{"city":"Combs","state_name":"Kentucky","lat":37.2681,"lng":-83.2159,"zip":"41729","miles_from_dt":13.89},{"city":"Putney","state_name":"Kentucky","lat":36.91637,"lng":-83.21804,"zip":"40865","miles_from_dt":14.02},{"city":"Cornettsville","state_name":"Kentucky","lat":37.10312,"lng":-83.08393,"zip":"41731","miles_from_dt":14.27},{"city":"Krypton","state_name":"Kentucky","lat":37.30025,"lng":-83.32459,"zip":"41754","miles_from_dt":14.27},{"city":"Delphia","state_name":"Kentucky","lat":37.01793,"lng":-83.09963,"zip":"41735","miles_from_dt":14.38},{"city":"Baxter","state_name":"Kentucky","lat":36.88595,"lng":-83.2881,"zip":"40806","miles_from_dt":14.64},{"city":"Jeff","state_name":"Kentucky","lat":37.2196,"lng":-83.12659,"zip":"41751","miles_from_dt":14.72},{"city":"Beverly","state_name":"Kentucky","lat":36.94986,"lng":-83.54367,"zip":"40913","miles_from_dt":14.92},{"city":"Saul","state_name":"Kentucky","lat":37.27792,"lng":-83.48531,"zip":"40981","miles_from_dt":14.96},{"city":"Bonnyman","state_name":"Kentucky","lat":37.29727,"lng":-83.24526,"zip":"41719","miles_from_dt":15.02},{"city":"Totz","state_name":"Kentucky","lat":36.93211,"lng":-83.14858,"zip":"40870","miles_from_dt":15.45},{"city":"Scuddy","state_name":"Kentucky","lat":37.19456,"lng":-83.08588,"zip":"41760","miles_from_dt":15.76},{"city":"Happy","state_name":"Kentucky","lat":37.21574,"lng":-83.09779,"zip":"41746","miles_from_dt":15.89},{"city":"Gordon","state_name":"Kentucky","lat":36.99191,"lng":-83.07788,"zip":"41819","miles_from_dt":16.2},{"city":"Hazard","state_name":"Kentucky","lat":37.29778,"lng":-83.18781,"zip":"41701","miles_from_dt":16.44},{"city":"Ages Brookside","state_name":"Kentucky","lat":36.85692,"lng":-83.25493,"zip":"40801","miles_from_dt":17.03},{"city":"Loyall","state_name":"Kentucky","lat":36.84664,"lng":-83.35634,"zip":"40854","miles_from_dt":17.06},{"city":"Buckhorn","state_name":"Kentucky","lat":37.31371,"lng":-83.49949,"zip":"41721","miles_from_dt":17.48},{"city":"Lejunior","state_name":"Kentucky","lat":36.89941,"lng":-83.13469,"zip":"40849","miles_from_dt":17.64},{"city":"Gays Creek","state_name":"Kentucky","lat":37.34449,"lng":-83.42848,"zip":"41745","miles_from_dt":17.94},{"city":"Oneida","state_name":"Kentucky","lat":37.24501,"lng":-83.60692,"zip":"40972","miles_from_dt":17.96},{"city":"Chavies","state_name":"Kentucky","lat":37.35624,"lng":-83.32352,"zip":"41727","miles_from_dt":18.13},{"city":"Hallie","state_name":"Kentucky","lat":37.07563,"lng":-83.00711,"zip":"41821","miles_from_dt":18.55},{"city":"Dayhoit","state_name":"Kentucky","lat":36.82489,"lng":-83.37221,"zip":"40824","miles_from_dt":18.61},{"city":"Evarts","state_name":"Kentucky","lat":36.87107,"lng":-83.14868,"zip":"40828","miles_from_dt":18.71},{"city":"Stoney Fork","state_name":"Kentucky","lat":36.85928,"lng":-83.52838,"zip":"40988","miles_from_dt":19.17},{"city":"Goose Rock","state_name":"Kentucky","lat":37.09008,"lng":-83.69306,"zip":"40944","miles_from_dt":19.39},{"city":"Kenvir","state_name":"Kentucky","lat":36.85281,"lng":-83.15798,"zip":"40847","miles_from_dt":19.49},{"city":"Wallins Creek","state_name":"Kentucky","lat":36.81541,"lng":-83.40411,"zip":"40873","miles_from_dt":19.5},{"city":"Coalgood","state_name":"Kentucky","lat":36.82003,"lng":-83.2442,"zip":"40818","miles_from_dt":19.64},{"city":"Blackey","state_name":"Kentucky","lat":37.14923,"lng":-82.98993,"zip":"41804","miles_from_dt":19.82},{"city":"Dwarf","state_name":"Kentucky","lat":37.32596,"lng":-83.12802,"zip":"41739","miles_from_dt":19.9},{"city":"Sassafras","state_name":"Kentucky","lat":37.23211,"lng":-83.02521,"zip":"41759","miles_from_dt":19.92},{"city":"Vicco","state_name":"Kentucky","lat":37.23534,"lng":-83.01721,"zip":"41773","miles_from_dt":20.42},{"city":"Grays Knob","state_name":"Kentucky","lat":36.798,"lng":-83.29655,"zip":"40829","miles_from_dt":20.55},{"city":"Coldiron","state_name":"Kentucky","lat":36.81025,"lng":-83.46242,"zip":"40819","miles_from_dt":20.65},{"city":"Linefork","state_name":"Kentucky","lat":37.02919,"lng":-82.97323,"zip":"41833","miles_from_dt":20.86},{"city":"Dice","state_name":"Kentucky","lat":37.37707,"lng":-83.20839,"zip":"41736","miles_from_dt":20.88},{"city":"Mistletoe","state_name":"Kentucky","lat":37.32754,"lng":-83.59363,"zip":"41351","miles_from_dt":21.27},{"city":"Mary Alice","state_name":"Kentucky","lat":36.78264,"lng":-83.33763,"zip":"40964","miles_from_dt":21.45},{"city":"Cumberland","state_name":"Kentucky","lat":36.95664,"lng":-82.98864,"zip":"40823","miles_from_dt":21.71},{"city":"Letcher","state_name":"Kentucky","lat":37.15286,"lng":-82.9548,"zip":"41832","miles_from_dt":21.77},{"city":"Gulston","state_name":"Kentucky","lat":36.77644,"lng":-83.33114,"zip":"40830","miles_from_dt":21.89},{"city":"Cawood","state_name":"Kentucky","lat":36.7876,"lng":-83.22876,"zip":"40815","miles_from_dt":22.02},{"city":"Closplint","state_name":"Kentucky","lat":36.89081,"lng":-83.03445,"zip":"40927","miles_from_dt":22.03},{"city":"Roxana","state_name":"Kentucky","lat":37.11491,"lng":-82.94384,"zip":"41848","miles_from_dt":22.04},{"city":"Rowdy","state_name":"Kentucky","lat":37.4045,"lng":-83.23218,"zip":"41367","miles_from_dt":22.27},{"city":"Fisty","state_name":"Kentucky","lat":37.35498,"lng":-83.1045,"zip":"41743","miles_from_dt":22.28},{"city":"Ary","state_name":"Kentucky","lat":37.3744,"lng":-83.13751,"zip":"41712","miles_from_dt":22.4},{"city":"Scalf","state_name":"Kentucky","lat":36.93241,"lng":-83.69421,"zip":"40982","miles_from_dt":22.43},{"city":"Garrard","state_name":"Kentucky","lat":37.12981,"lng":-83.74585,"zip":"40941","miles_from_dt":22.44},{"city":"Whick","state_name":"Kentucky","lat":37.41872,"lng":-83.3792,"zip":"41390","miles_from_dt":22.5},{"city":"Hulen","state_name":"Kentucky","lat":36.79899,"lng":-83.51755,"zip":"40845","miles_from_dt":22.53},{"city":"Redfox","state_name":"Kentucky","lat":37.20823,"lng":-82.95961,"zip":"41847","miles_from_dt":22.54},{"city":"Harlan","state_name":"Kentucky","lat":36.76457,"lng":-83.33454,"zip":"40831","miles_from_dt":22.7},{"city":"Manchester","state_name":"Kentucky","lat":37.14912,"lng":-83.74922,"zip":"40962","miles_from_dt":22.81},{"city":"Lost Creek","state_name":"Kentucky","lat":37.42577,"lng":-83.31387,"zip":"41348","miles_from_dt":22.95},{"city":"Carrie","state_name":"Kentucky","lat":37.31667,"lng":-83.03244,"zip":"41725","miles_from_dt":22.98},{"city":"Arjay","state_name":"Kentucky","lat":36.84824,"lng":-83.62435,"zip":"40902","miles_from_dt":23.03},{"city":"Benham","state_name":"Kentucky","lat":36.9647,"lng":-82.95578,"zip":"40807","miles_from_dt":23.14},{"city":"Walker","state_name":"Kentucky","lat":36.88348,"lng":-83.67711,"zip":"40997","miles_from_dt":23.53},{"city":"Jeremiah","state_name":"Kentucky","lat":37.17348,"lng":-82.92115,"zip":"41826","miles_from_dt":23.88},{"city":"Kettle Island","state_name":"Kentucky","lat":36.8088,"lng":-83.5878,"zip":"40958","miles_from_dt":23.9},{"city":"Hima","state_name":"Kentucky","lat":37.11844,"lng":-83.77473,"zip":"40951","miles_from_dt":23.96},{"city":"Cranks","state_name":"Kentucky","lat":36.77552,"lng":-83.16515,"zip":"40820","miles_from_dt":24.03},{"city":"Flat Lick","state_name":"Kentucky","lat":36.91107,"lng":-83.71264,"zip":"40935","miles_from_dt":24.06},{"city":"Emmalena","state_name":"Kentucky","lat":37.35649,"lng":-83.0467,"zip":"41740","miles_from_dt":24.36},{"city":"Premium","state_name":"Kentucky","lat":37.1396,"lng":-82.90301,"zip":"41845","miles_from_dt":24.45},{"city":"Saint Charles","state_name":"Virginia","lat":36.82159,"lng":-83.05533,"zip":"24282","miles_from_dt":24.58},{"city":"Littcarr","state_name":"Kentucky","lat":37.26585,"lng":-82.94661,"zip":"41834","miles_from_dt":24.84},{"city":"Pathfork","state_name":"Kentucky","lat":36.74048,"lng":-83.44567,"zip":"40863","miles_from_dt":25.03},{"city":"Bulan","state_name":"Kentucky","lat":37.40441,"lng":-83.10329,"zip":"41722","miles_from_dt":25.15},{"city":"Hindman","state_name":"Kentucky","lat":37.31991,"lng":-82.97848,"zip":"41822","miles_from_dt":25.41},{"city":"Ricetown","state_name":"Kentucky","lat":37.37569,"lng":-83.64172,"zip":"41364","miles_from_dt":25.52},{"city":"Fall Rock","state_name":"Kentucky","lat":37.21991,"lng":-83.78907,"zip":"40932","miles_from_dt":26.16},{"city":"Isom","state_name":"Kentucky","lat":37.18771,"lng":-82.88015,"zip":"41824","miles_from_dt":26.31},{"city":"Dewitt","state_name":"Kentucky","lat":36.87096,"lng":-83.72905,"zip":"40930","miles_from_dt":26.35},{"city":"Mallie","state_name":"Kentucky","lat":37.25839,"lng":-82.90887,"zip":"41836","miles_from_dt":26.46},{"city":"Lynch","state_name":"Kentucky","lat":36.94931,"lng":-82.89836,"zip":"40855","miles_from_dt":26.48},{"city":"Clayhole","state_name":"Kentucky","lat":37.46029,"lng":-83.19851,"zip":"41317","miles_from_dt":26.49},{"city":"Holmes Mill","state_name":"Kentucky","lat":36.88826,"lng":-82.93666,"zip":"40843","miles_from_dt":26.53},{"city":"Partridge","state_name":"Kentucky","lat":37.01418,"lng":-82.87096,"zip":"40862","miles_from_dt":26.61},{"city":"Whitesburg","state_name":"Kentucky","lat":37.1454,"lng":-82.84697,"zip":"41858","miles_from_dt":27.57},{"city":"Hinkle","state_name":"Kentucky","lat":36.93771,"lng":-83.80163,"zip":"40953","miles_from_dt":27.6},{"city":"Vest","state_name":"Kentucky","lat":37.4075,"lng":-83.01679,"zip":"41772","miles_from_dt":28.1},{"city":"Fourmile","state_name":"Kentucky","lat":36.81217,"lng":-83.71152,"zip":"40939","miles_from_dt":28.2},{"city":"Green Road","state_name":"Kentucky","lat":36.95757,"lng":-83.82467,"zip":"40946","miles_from_dt":28.29},{"city":"Keokee","state_name":"Virginia","lat":36.83811,"lng":-82.93904,"zip":"24265","miles_from_dt":28.43},{"city":"Sextons Creek","state_name":"Kentucky","lat":37.34608,"lng":-83.75339,"zip":"40983","miles_from_dt":28.59},{"city":"Miracle","state_name":"Kentucky","lat":36.70574,"lng":-83.52939,"zip":"40856","miles_from_dt":28.7},{"city":"Booneville","state_name":"Kentucky","lat":37.44008,"lng":-83.63743,"zip":"41314","miles_from_dt":28.9},{"city":"Ben Hur","state_name":"Virginia","lat":36.75338,"lng":-83.03614,"zip":"24218","miles_from_dt":28.94},{"city":"Pennington Gap","state_name":"Virginia","lat":36.74948,"lng":-83.03037,"zip":"24277","miles_from_dt":29.35},{"city":"Pine Top","state_name":"Kentucky","lat":37.27495,"lng":-82.85938,"zip":"41843","miles_from_dt":29.42},{"city":"Leburn","state_name":"Kentucky","lat":37.38531,"lng":-82.94633,"zip":"41831","miles_from_dt":29.67},{"city":"Calvin","state_name":"Kentucky","lat":36.71526,"lng":-83.59838,"zip":"40813","miles_from_dt":29.71},{"city":"Bimble","state_name":"Kentucky","lat":36.89235,"lng":-83.82025,"zip":"40915","miles_from_dt":29.87}],"targetCityZipCode":"41775","targetCityState":"Kentucky"},"__N_SSG":true}