{"pageProps":{"stateName":"Pennsylvania","cityName":"fredonia","nearbyCities":[{"city":"Clarks Mills","state_name":"Pennsylvania","lat":41.40432,"lng":-80.18766,"zip":"16114","miles_from_dt":6.33},{"city":"Mercer","state_name":"Pennsylvania","lat":41.23219,"lng":-80.2397,"zip":"16137","miles_from_dt":7.1},{"city":"Greenville","state_name":"Pennsylvania","lat":41.40565,"lng":-80.37135,"zip":"16125","miles_from_dt":7.45},{"city":"Hadley","state_name":"Pennsylvania","lat":41.44315,"lng":-80.21668,"zip":"16130","miles_from_dt":7.98},{"city":"Transfer","state_name":"Pennsylvania","lat":41.32539,"lng":-80.42111,"zip":"16154","miles_from_dt":8.15},{"city":"Sheakleyville","state_name":"Pennsylvania","lat":41.4428,"lng":-80.2056,"zip":"16151","miles_from_dt":8.16},{"city":"Jackson Center","state_name":"Pennsylvania","lat":41.27101,"lng":-80.11562,"zip":"16133","miles_from_dt":8.88},{"city":"Clark","state_name":"Pennsylvania","lat":41.2828,"lng":-80.42569,"zip":"16113","miles_from_dt":9.07},{"city":"Stoneboro","state_name":"Pennsylvania","lat":41.31845,"lng":-80.08122,"zip":"16153","miles_from_dt":9.61},{"city":"Sharpsville","state_name":"Pennsylvania","lat":41.28687,"lng":-80.44509,"zip":"16150","miles_from_dt":9.91},{"city":"Sandy Lake","state_name":"Pennsylvania","lat":41.38574,"lng":-80.07422,"zip":"16145","miles_from_dt":10.55},{"city":"Hermitage","state_name":"Pennsylvania","lat":41.23147,"lng":-80.43199,"zip":"16148","miles_from_dt":11.19},{"city":"Atlantic","state_name":"Pennsylvania","lat":41.51936,"lng":-80.28463,"zip":"16111","miles_from_dt":12.88},{"city":"Adamsville","state_name":"Pennsylvania","lat":41.49757,"lng":-80.38591,"zip":"16110","miles_from_dt":12.96},{"city":"Orangeville","state_name":"Ohio","lat":41.33602,"lng":-80.52628,"zip":"44453","miles_from_dt":13.6},{"city":"Sharon","state_name":"Pennsylvania","lat":41.23478,"lng":-80.49932,"zip":"16146","miles_from_dt":13.97},{"city":"New Wilmington","state_name":"Pennsylvania","lat":41.13908,"lng":-80.34084,"zip":"16142","miles_from_dt":13.98},{"city":"Carlton","state_name":"Pennsylvania","lat":41.45706,"lng":-80.03477,"zip":"16311","miles_from_dt":14.69},{"city":"Farrell","state_name":"Pennsylvania","lat":41.21121,"lng":-80.49696,"zip":"16121","miles_from_dt":14.73},{"city":"Burghill","state_name":"Ohio","lat":41.3277,"lng":-80.54861,"zip":"44404","miles_from_dt":14.77},{"city":"Wheatland","state_name":"Pennsylvania","lat":41.20232,"lng":-80.49282,"zip":"16161","miles_from_dt":14.92},{"city":"Grove City","state_name":"Pennsylvania","lat":41.17433,"lng":-80.07002,"zip":"16127","miles_from_dt":14.95},{"city":"New Wilmington","state_name":"Pennsylvania","lat":41.1177,"lng":-80.33105,"zip":"16172","miles_from_dt":15.28},{"city":"Masury","state_name":"Ohio","lat":41.24252,"lng":-80.5345,"zip":"44438","miles_from_dt":15.37},{"city":"Jamestown","state_name":"Pennsylvania","lat":41.50315,"lng":-80.46571,"zip":"16134","miles_from_dt":15.69},{"city":"Hartstown","state_name":"Pennsylvania","lat":41.54908,"lng":-80.37617,"zip":"16131","miles_from_dt":15.97},{"city":"West Middlesex","state_name":"Pennsylvania","lat":41.15967,"lng":-80.46858,"zip":"16159","miles_from_dt":16.01},{"city":"Cochranton","state_name":"Pennsylvania","lat":41.51895,"lng":-80.06782,"zip":"16314","miles_from_dt":16.39},{"city":"Volant","state_name":"Pennsylvania","lat":41.09702,"lng":-80.21943,"zip":"16156","miles_from_dt":16.48},{"city":"Hartford","state_name":"Ohio","lat":41.32201,"lng":-80.58326,"zip":"44424","miles_from_dt":16.58},{"city":"Polk","state_name":"Pennsylvania","lat":41.31995,"lng":-79.9294,"zip":"16342","miles_from_dt":17.48},{"city":"Utica","state_name":"Pennsylvania","lat":41.45032,"lng":-79.96284,"zip":"16362","miles_from_dt":17.65},{"city":"Kinsman","state_name":"Ohio","lat":41.43458,"lng":-80.5779,"zip":"44428","miles_from_dt":17.71},{"city":"Brookfield","state_name":"Ohio","lat":41.24053,"lng":-80.58265,"zip":"44403","miles_from_dt":17.74},{"city":"Fowler","state_name":"Ohio","lat":41.30692,"lng":-80.60465,"zip":"44418","miles_from_dt":17.77},{"city":"Conneaut Lake","state_name":"Pennsylvania","lat":41.6012,"lng":-80.29958,"zip":"16316","miles_from_dt":18.57},{"city":"Pulaski","state_name":"Pennsylvania","lat":41.10528,"lng":-80.45434,"zip":"16143","miles_from_dt":18.58},{"city":"Hubbard","state_name":"Ohio","lat":41.17022,"lng":-80.57395,"zip":"44425","miles_from_dt":19.64},{"city":"New Castle","state_name":"Pennsylvania","lat":41.05285,"lng":-80.33918,"zip":"16105","miles_from_dt":19.74},{"city":"Forestville","state_name":"Pennsylvania","lat":41.10779,"lng":-80.01659,"zip":"16035","miles_from_dt":20.24},{"city":"Harrisville","state_name":"Pennsylvania","lat":41.15967,"lng":-79.95042,"zip":"16038","miles_from_dt":20.29},{"city":"New Bedford","state_name":"Pennsylvania","lat":41.09355,"lng":-80.51078,"zip":"16140","miles_from_dt":20.93},{"city":"Meadville","state_name":"Pennsylvania","lat":41.63143,"lng":-80.15378,"zip":"16335","miles_from_dt":21.36},{"city":"Vienna","state_name":"Ohio","lat":41.24684,"lng":-80.66326,"zip":"44473","miles_from_dt":21.58},{"city":"Farmdale","state_name":"Ohio","lat":41.43336,"lng":-80.66329,"zip":"44417","miles_from_dt":21.83},{"city":"Clintonville","state_name":"Pennsylvania","lat":41.20121,"lng":-79.87406,"zip":"16372","miles_from_dt":22.3},{"city":"Villa Maria","state_name":"Pennsylvania","lat":41.06771,"lng":-80.51073,"zip":"16155","miles_from_dt":22.37},{"city":"Meadville","state_name":"Pennsylvania","lat":41.64896,"lng":-80.14727,"zip":"16388","miles_from_dt":22.62},{"city":"Edinburg","state_name":"Pennsylvania","lat":41.03744,"lng":-80.45212,"zip":"16116","miles_from_dt":22.63},{"city":"Williamsfield","state_name":"Ohio","lat":41.53478,"lng":-80.61637,"zip":"44093","miles_from_dt":22.95},{"city":"Harmonsburg","state_name":"Pennsylvania","lat":41.66555,"lng":-80.31447,"zip":"16422","miles_from_dt":23.07},{"city":"Youngstown","state_name":"Ohio","lat":41.12735,"lng":-80.61687,"zip":"44505","miles_from_dt":23.2},{"city":"Franklin","state_name":"Pennsylvania","lat":41.41286,"lng":-79.83047,"zip":"16323","miles_from_dt":23.24},{"city":"Branchton","state_name":"Pennsylvania","lat":41.07019,"lng":-79.98605,"zip":"16021","miles_from_dt":23.26},{"city":"Slippery Rock","state_name":"Pennsylvania","lat":41.03427,"lng":-80.0579,"zip":"16057","miles_from_dt":23.29},{"city":"New Castle","state_name":"Pennsylvania","lat":40.99983,"lng":-80.35011,"zip":"16103","miles_from_dt":23.44},{"city":"New Castle","state_name":"Pennsylvania","lat":40.99992,"lng":-80.35011,"zip":"16107","miles_from_dt":23.44},{"city":"Curllsville","state_name":"Pennsylvania","lat":40.98826,"lng":-80.29541,"zip":"16221","miles_from_dt":23.87},{"city":"New Castle","state_name":"Pennsylvania","lat":40.98826,"lng":-80.29541,"zip":"16108","miles_from_dt":23.87},{"city":"New Castle","state_name":"Pennsylvania","lat":40.98776,"lng":-80.28814,"zip":"16101","miles_from_dt":23.88},{"city":"Lowellville","state_name":"Ohio","lat":41.05775,"lng":-80.54241,"zip":"44436","miles_from_dt":23.9},{"city":"Cortland","state_name":"Ohio","lat":41.34817,"lng":-80.72629,"zip":"44410","miles_from_dt":24.02},{"city":"Girard","state_name":"Ohio","lat":41.17384,"lng":-80.67726,"zip":"44420","miles_from_dt":24.13},{"city":"Kennerdell","state_name":"Pennsylvania","lat":41.26136,"lng":-79.81066,"zip":"16374","miles_from_dt":24.15},{"city":"Linesville","state_name":"Pennsylvania","lat":41.65887,"lng":-80.44175,"zip":"16424","miles_from_dt":24.27},{"city":"Boyers","state_name":"Pennsylvania","lat":41.11651,"lng":-79.89648,"zip":"16020","miles_from_dt":24.34},{"city":"Campbell","state_name":"Ohio","lat":41.07787,"lng":-80.59136,"zip":"44405","miles_from_dt":24.5},{"city":"Boyers","state_name":"Pennsylvania","lat":41.10648,"lng":-79.89705,"zip":"16016","miles_from_dt":24.75},{"city":"Youngstown","state_name":"Ohio","lat":41.12327,"lng":-80.65363,"zip":"44504","miles_from_dt":24.91},{"city":"Boyers","state_name":"Pennsylvania","lat":41.09144,"lng":-79.90777,"zip":"16017","miles_from_dt":25},{"city":"Youngstown","state_name":"Ohio","lat":41.09356,"lng":-80.62583,"zip":"44506","miles_from_dt":25.05},{"city":"Youngstown","state_name":"Ohio","lat":41.10726,"lng":-80.64875,"zip":"44555","miles_from_dt":25.37},{"city":"Cooperstown","state_name":"Pennsylvania","lat":41.53232,"lng":-79.85258,"zip":"16317","miles_from_dt":25.44},{"city":"Youngstown","state_name":"Ohio","lat":41.09918,"lng":-80.64912,"zip":"44503","miles_from_dt":25.73},{"city":"Boyers","state_name":"Pennsylvania","lat":41.08995,"lng":-79.89008,"zip":"16018","miles_from_dt":25.76},{"city":"Andover","state_name":"Ohio","lat":41.6202,"lng":-80.58361,"zip":"44003","miles_from_dt":25.8},{"city":"Hillsville","state_name":"Pennsylvania","lat":41.00603,"lng":-80.50449,"zip":"16132","miles_from_dt":25.81},{"city":"Youngstown","state_name":"Ohio","lat":41.12246,"lng":-80.67424,"zip":"44510","miles_from_dt":25.82},{"city":"Struthers","state_name":"Ohio","lat":41.04793,"lng":-80.58973,"zip":"44471","miles_from_dt":25.98},{"city":"Guys Mills","state_name":"Pennsylvania","lat":41.6323,"lng":-79.95878,"zip":"16327","miles_from_dt":26.04},{"city":"Warren","state_name":"Ohio","lat":41.2348,"lng":-80.74962,"zip":"44484","miles_from_dt":26.13},{"city":"Youngstown","state_name":"Ohio","lat":41.08365,"lng":-80.64253,"zip":"44502","miles_from_dt":26.16},{"city":"Youngstown","state_name":"Ohio","lat":41.09739,"lng":-80.6617,"zip":"44501","miles_from_dt":26.32},{"city":"New Castle","state_name":"Pennsylvania","lat":40.96173,"lng":-80.41616,"zip":"16102","miles_from_dt":26.83},{"city":"Niles","state_name":"Ohio","lat":41.18958,"lng":-80.74692,"zip":"44446","miles_from_dt":26.99},{"city":"Youngstown","state_name":"Ohio","lat":41.07436,"lng":-80.65542,"zip":"44507","miles_from_dt":27.09},{"city":"McDonald","state_name":"Ohio","lat":41.15536,"lng":-80.73,"zip":"44437","miles_from_dt":27.16},{"city":"Youngstown","state_name":"Ohio","lat":41.10986,"lng":-80.69655,"zip":"44509","miles_from_dt":27.27},{"city":"Reno","state_name":"Pennsylvania","lat":41.42204,"lng":-79.75233,"zip":"16343","miles_from_dt":27.33},{"city":"Hilliards","state_name":"Pennsylvania","lat":41.09399,"lng":-79.84537,"zip":"16040","miles_from_dt":27.4},{"city":"Portersville","state_name":"Pennsylvania","lat":40.94459,"lng":-80.14152,"zip":"16051","miles_from_dt":27.59},{"city":"Eau Claire","state_name":"Pennsylvania","lat":41.13619,"lng":-79.79699,"zip":"16030","miles_from_dt":27.91},{"city":"Bessemer","state_name":"Pennsylvania","lat":40.96812,"lng":-80.50099,"zip":"16112","miles_from_dt":28.05},{"city":"West Pittsburg","state_name":"Pennsylvania","lat":40.9283,"lng":-80.36235,"zip":"16160","miles_from_dt":28.41},{"city":"Saegertown","state_name":"Pennsylvania","lat":41.73553,"lng":-80.14316,"zip":"16433","miles_from_dt":28.46},{"city":"Youngstown","state_name":"Ohio","lat":41.06927,"lng":-80.69617,"zip":"44511","miles_from_dt":28.94},{"city":"Warren","state_name":"Ohio","lat":41.26537,"lng":-80.81575,"zip":"44483","miles_from_dt":29.05},{"city":"Conneautville","state_name":"Pennsylvania","lat":41.75047,"lng":-80.36273,"zip":"16406","miles_from_dt":29.23},{"city":"Youngstown","state_name":"Ohio","lat":40.99838,"lng":-80.60868,"zip":"44514","miles_from_dt":29.25},{"city":"New Middletown","state_name":"Ohio","lat":40.96591,"lng":-80.54963,"zip":"44442","miles_from_dt":29.39},{"city":"West Sunbury","state_name":"Pennsylvania","lat":41.00866,"lng":-79.88687,"zip":"16061","miles_from_dt":29.84},{"city":"Youngstown","state_name":"Ohio","lat":41.0249,"lng":-80.66757,"zip":"44512","miles_from_dt":29.9},{"city":"Mineral Ridge","state_name":"Ohio","lat":41.1482,"lng":-80.78439,"zip":"44440","miles_from_dt":29.93}],"targetCityZipCode":"16124","targetCityState":"Pennsylvania"},"__N_SSG":true}