{"pageProps":{"stateName":"Pennsylvania","cityName":"freeland","nearbyCities":[{"city":"Drifton","state_name":"Pennsylvania","lat":41.00152,"lng":-75.919,"zip":"18221","miles_from_dt":2.32},{"city":"Ebervale","state_name":"Pennsylvania","lat":40.98221,"lng":-75.95011,"zip":"18223","miles_from_dt":4.42},{"city":"Lattimer Mines","state_name":"Pennsylvania","lat":40.99259,"lng":-75.96468,"zip":"18234","miles_from_dt":4.62},{"city":"Harleigh","state_name":"Pennsylvania","lat":40.98137,"lng":-75.97111,"zip":"18225","miles_from_dt":5.32},{"city":"Milnesville","state_name":"Pennsylvania","lat":40.98962,"lng":-75.98154,"zip":"18239","miles_from_dt":5.5},{"city":"Beaver Meadows","state_name":"Pennsylvania","lat":40.94212,"lng":-75.90517,"zip":"18216","miles_from_dt":5.79},{"city":"Drums","state_name":"Pennsylvania","lat":41.03569,"lng":-76.00097,"zip":"18222","miles_from_dt":5.99},{"city":"Hazleton","state_name":"Pennsylvania","lat":40.95198,"lng":-75.95395,"zip":"18201","miles_from_dt":6.13},{"city":"Saint Johns","state_name":"Pennsylvania","lat":41.02812,"lng":-76.00687,"zip":"18247","miles_from_dt":6.25},{"city":"Weatherly","state_name":"Pennsylvania","lat":40.93308,"lng":-75.82996,"zip":"18255","miles_from_dt":7.01},{"city":"Junedale","state_name":"Pennsylvania","lat":40.9201,"lng":-75.93077,"zip":"18230","miles_from_dt":7.59},{"city":"Mountain Top","state_name":"Pennsylvania","lat":41.13325,"lng":-75.9228,"zip":"18707","miles_from_dt":7.7},{"city":"White Haven","state_name":"Pennsylvania","lat":41.08435,"lng":-75.75666,"zip":"18661","miles_from_dt":7.96},{"city":"Tresckow","state_name":"Pennsylvania","lat":40.91594,"lng":-75.96563,"zip":"18254","miles_from_dt":8.57},{"city":"Conyngham","state_name":"Pennsylvania","lat":40.99105,"lng":-76.05824,"zip":"18219","miles_from_dt":9.24},{"city":"Hazleton","state_name":"Pennsylvania","lat":40.94874,"lng":-76.0483,"zip":"18202","miles_from_dt":9.93},{"city":"Sybertsville","state_name":"Pennsylvania","lat":41.00234,"lng":-76.08054,"zip":"18251","miles_from_dt":10.22},{"city":"Kelayres","state_name":"Pennsylvania","lat":40.90068,"lng":-76.00446,"zip":"18231","miles_from_dt":10.54},{"city":"Wapwallopen","state_name":"Pennsylvania","lat":41.10195,"lng":-76.06196,"zip":"18660","miles_from_dt":10.56},{"city":"Nesquehoning","state_name":"Pennsylvania","lat":40.86279,"lng":-75.84727,"zip":"18240","miles_from_dt":11.39},{"city":"Mcadoo","state_name":"Pennsylvania","lat":40.88591,"lng":-76.02582,"zip":"18237","miles_from_dt":12.03},{"city":"Wilkes Barre","state_name":"Pennsylvania","lat":41.20432,"lng":-75.91231,"zip":"18706","miles_from_dt":12.44},{"city":"Jim Thorpe","state_name":"Pennsylvania","lat":40.93245,"lng":-75.68247,"zip":"18229","miles_from_dt":12.47},{"city":"Sugarloaf","state_name":"Pennsylvania","lat":40.98457,"lng":-76.1206,"zip":"18249","miles_from_dt":12.51},{"city":"Lansford","state_name":"Pennsylvania","lat":40.83515,"lng":-75.87939,"zip":"18232","miles_from_dt":13.11},{"city":"Bear Creek","state_name":"Pennsylvania","lat":41.18749,"lng":-75.75526,"zip":"18602","miles_from_dt":13.16},{"city":"Nanticoke","state_name":"Pennsylvania","lat":41.18984,"lng":-76.0218,"zip":"18634","miles_from_dt":13.37},{"city":"Sheppton","state_name":"Pennsylvania","lat":40.90089,"lng":-76.09448,"zip":"18248","miles_from_dt":13.81},{"city":"Quakake","state_name":"Pennsylvania","lat":40.8528,"lng":-76.03011,"zip":"18245","miles_from_dt":14.04},{"city":"Lake Harmony","state_name":"Pennsylvania","lat":41.05529,"lng":-75.62088,"zip":"18624","miles_from_dt":14.07},{"city":"Glen Lyon","state_name":"Pennsylvania","lat":41.17149,"lng":-76.07707,"zip":"18617","miles_from_dt":14.15},{"city":"Wilkes Barre","state_name":"Pennsylvania","lat":41.21828,"lng":-75.7946,"zip":"18764","miles_from_dt":14.19},{"city":"Coaldale","state_name":"Pennsylvania","lat":40.81974,"lng":-75.91611,"zip":"18218","miles_from_dt":14.24},{"city":"Summit Hill","state_name":"Pennsylvania","lat":40.81744,"lng":-75.86145,"zip":"18250","miles_from_dt":14.39},{"city":"Wilkes Barre","state_name":"Pennsylvania","lat":41.21406,"lng":-75.76925,"zip":"18702","miles_from_dt":14.43},{"city":"Wilkes Barre","state_name":"Pennsylvania","lat":41.23739,"lng":-75.89719,"zip":"18762","miles_from_dt":14.67},{"city":"Wilkes Barre","state_name":"Pennsylvania","lat":41.23731,"lng":-75.90851,"zip":"18765","miles_from_dt":14.69},{"city":"Weston","state_name":"Pennsylvania","lat":40.94044,"lng":-76.14752,"zip":"18256","miles_from_dt":14.81},{"city":"Oneida","state_name":"Pennsylvania","lat":40.90606,"lng":-76.12349,"zip":"18242","miles_from_dt":14.83},{"city":"Wilkes Barre","state_name":"Pennsylvania","lat":41.24001,"lng":-75.89002,"zip":"18703","miles_from_dt":14.84},{"city":"Wilkes Barre","state_name":"Pennsylvania","lat":41.2433,"lng":-75.88523,"zip":"18701","miles_from_dt":15.07},{"city":"Wilkes Barre","state_name":"Pennsylvania","lat":41.24435,"lng":-75.88995,"zip":"18766","miles_from_dt":15.14},{"city":"Wilkes Barre","state_name":"Pennsylvania","lat":41.24568,"lng":-75.8838,"zip":"18773","miles_from_dt":15.23},{"city":"Beach Haven","state_name":"Pennsylvania","lat":41.06766,"lng":-76.17644,"zip":"18601","miles_from_dt":15.39},{"city":"Wilkes Barre","state_name":"Pennsylvania","lat":41.24941,"lng":-75.884,"zip":"18711","miles_from_dt":15.49},{"city":"Wilkes Barre","state_name":"Pennsylvania","lat":41.25003,"lng":-75.88002,"zip":"18710","miles_from_dt":15.53},{"city":"Wilkes Barre","state_name":"Pennsylvania","lat":41.24995,"lng":-75.87598,"zip":"18767","miles_from_dt":15.54},{"city":"Albrightsville","state_name":"Pennsylvania","lat":41.00057,"lng":-75.59146,"zip":"18210","miles_from_dt":15.55},{"city":"Nuremberg","state_name":"Pennsylvania","lat":40.94439,"lng":-76.16492,"zip":"18241","miles_from_dt":15.55},{"city":"Wilkes Barre","state_name":"Pennsylvania","lat":41.25387,"lng":-75.87117,"zip":"18769","miles_from_dt":15.82},{"city":"Plymouth","state_name":"Pennsylvania","lat":41.24748,"lng":-75.962,"zip":"18651","miles_from_dt":15.84},{"city":"Delano","state_name":"Pennsylvania","lat":40.83958,"lng":-76.07509,"zip":"18220","miles_from_dt":16.13},{"city":"Lehighton","state_name":"Pennsylvania","lat":40.83603,"lng":-75.692,"zip":"18235","miles_from_dt":16.57},{"city":"Nescopeck","state_name":"Pennsylvania","lat":41.02961,"lng":-76.20598,"zip":"18635","miles_from_dt":16.66},{"city":"Rock Glen","state_name":"Pennsylvania","lat":40.95743,"lng":-76.195,"zip":"18246","miles_from_dt":16.75},{"city":"Wilkes Barre","state_name":"Pennsylvania","lat":41.27156,"lng":-75.84241,"zip":"18705","miles_from_dt":17.18},{"city":"Kingston","state_name":"Pennsylvania","lat":41.27676,"lng":-75.89474,"zip":"18704","miles_from_dt":17.38},{"city":"Tamaqua","state_name":"Pennsylvania","lat":40.77857,"lng":-75.97893,"zip":"18252","miles_from_dt":17.67},{"city":"Parryville","state_name":"Pennsylvania","lat":40.82361,"lng":-75.66879,"zip":"18244","miles_from_dt":18},{"city":"Luzerne","state_name":"Pennsylvania","lat":41.28635,"lng":-75.89674,"zip":"18709","miles_from_dt":18.04},{"city":"Barnesville","state_name":"Pennsylvania","lat":40.80667,"lng":-76.08093,"zip":"18214","miles_from_dt":18.16},{"city":"Blakeslee","state_name":"Pennsylvania","lat":41.05959,"lng":-75.53226,"zip":"18610","miles_from_dt":18.7},{"city":"Hunlock Creek","state_name":"Pennsylvania","lat":41.25441,"lng":-76.09129,"zip":"18621","miles_from_dt":19.08},{"city":"Shavertown","state_name":"Pennsylvania","lat":41.297,"lng":-75.95927,"zip":"18708","miles_from_dt":19.14},{"city":"Berwick","state_name":"Pennsylvania","lat":41.08506,"lng":-76.24591,"zip":"18603","miles_from_dt":19.19},{"city":"Mahanoy City","state_name":"Pennsylvania","lat":40.82485,"lng":-76.14223,"zip":"17948","miles_from_dt":19.2},{"city":"Bowmanstown","state_name":"Pennsylvania","lat":40.80408,"lng":-75.66336,"zip":"18030","miles_from_dt":19.23},{"city":"Tuscarora","state_name":"Pennsylvania","lat":40.76798,"lng":-76.03827,"zip":"17982","miles_from_dt":19.42},{"city":"Shickshinny","state_name":"Pennsylvania","lat":41.18327,"lng":-76.19619,"zip":"18655","miles_from_dt":19.48},{"city":"Ashfield","state_name":"Pennsylvania","lat":40.77292,"lng":-75.71883,"zip":"18212","miles_from_dt":19.5},{"city":"Zion Grove","state_name":"Pennsylvania","lat":40.91935,"lng":-76.23729,"zip":"17985","miles_from_dt":19.7},{"city":"Andreas","state_name":"Pennsylvania","lat":40.74315,"lng":-75.82314,"zip":"18211","miles_from_dt":19.74},{"city":"Mary D","state_name":"Pennsylvania","lat":40.76434,"lng":-76.05997,"zip":"17952","miles_from_dt":20.13},{"city":"Pocono Lake","state_name":"Pennsylvania","lat":41.15116,"lng":-75.53664,"zip":"18347","miles_from_dt":20.27},{"city":"Pittston","state_name":"Pennsylvania","lat":41.29724,"lng":-75.74024,"zip":"18640","miles_from_dt":20.29},{"city":"Ringtown","state_name":"Pennsylvania","lat":40.86047,"lng":-76.20945,"zip":"17967","miles_from_dt":20.32},{"city":"Brockton","state_name":"Pennsylvania","lat":40.75609,"lng":-76.07047,"zip":"17925","miles_from_dt":20.89},{"city":"Palmerton","state_name":"Pennsylvania","lat":40.83098,"lng":-75.57843,"zip":"18071","miles_from_dt":20.99},{"city":"Wyoming","state_name":"Pennsylvania","lat":41.33192,"lng":-75.87753,"zip":"18644","miles_from_dt":21.19},{"city":"Lehman","state_name":"Pennsylvania","lat":41.31559,"lng":-76.02235,"zip":"18627","miles_from_dt":21.25},{"city":"Aquashicola","state_name":"Pennsylvania","lat":40.81135,"lng":-75.59158,"zip":"18012","miles_from_dt":21.38},{"city":"Mifflinville","state_name":"Pennsylvania","lat":41.03079,"lng":-76.30233,"zip":"18631","miles_from_dt":21.69},{"city":"Pocono Lake Preserve","state_name":"Pennsylvania","lat":41.10688,"lng":-75.47923,"zip":"18348","miles_from_dt":22.05},{"city":"Shenandoah","state_name":"Pennsylvania","lat":40.8204,"lng":-76.21131,"zip":"17976","miles_from_dt":22.07},{"city":"Middleport","state_name":"Pennsylvania","lat":40.74728,"lng":-76.09969,"zip":"17953","miles_from_dt":22.16},{"city":"Kresgeville","state_name":"Pennsylvania","lat":40.89833,"lng":-75.49104,"zip":"18333","miles_from_dt":22.49},{"city":"Kunkletown","state_name":"Pennsylvania","lat":40.8922,"lng":-75.49094,"zip":"18058","miles_from_dt":22.67},{"city":"New Ringgold","state_name":"Pennsylvania","lat":40.69932,"lng":-75.94656,"zip":"17960","miles_from_dt":22.69},{"city":"Slatedale","state_name":"Pennsylvania","lat":40.74415,"lng":-75.65754,"zip":"18079","miles_from_dt":22.81},{"city":"Dallas","state_name":"Pennsylvania","lat":41.35025,"lng":-75.98207,"zip":"18612","miles_from_dt":22.98},{"city":"Pittston","state_name":"Pennsylvania","lat":41.33644,"lng":-75.73007,"zip":"18641","miles_from_dt":23},{"city":"Effort","state_name":"Pennsylvania","lat":40.96505,"lng":-75.45285,"zip":"18330","miles_from_dt":23.09},{"city":"Gilberton","state_name":"Pennsylvania","lat":40.79786,"lng":-76.21205,"zip":"17934","miles_from_dt":23.12},{"city":"Germansville","state_name":"Pennsylvania","lat":40.71802,"lng":-75.70999,"zip":"18053","miles_from_dt":23.13},{"city":"Pocono Pines","state_name":"Pennsylvania","lat":41.11339,"lng":-75.45633,"zip":"18350","miles_from_dt":23.32},{"city":"Duryea","state_name":"Pennsylvania","lat":41.35359,"lng":-75.77681,"zip":"18642","miles_from_dt":23.4},{"city":"Long Pond","state_name":"Pennsylvania","lat":41.07208,"lng":-75.44298,"zip":"18334","miles_from_dt":23.44},{"city":"Huntington Mills","state_name":"Pennsylvania","lat":41.20228,"lng":-76.27348,"zip":"18622","miles_from_dt":23.58},{"city":"Pittston","state_name":"Pennsylvania","lat":41.36456,"lng":-75.8344,"zip":"18643","miles_from_dt":23.59},{"city":"Lost Creek","state_name":"Pennsylvania","lat":40.8123,"lng":-76.2449,"zip":"17946","miles_from_dt":23.79},{"city":"New Philadelphia","state_name":"Pennsylvania","lat":40.74224,"lng":-76.15141,"zip":"17959","miles_from_dt":23.92},{"city":"Frackville","state_name":"Pennsylvania","lat":40.78378,"lng":-76.21638,"zip":"17931","miles_from_dt":23.96},{"city":"Slatington","state_name":"Pennsylvania","lat":40.73618,"lng":-75.63227,"zip":"18080","miles_from_dt":23.99},{"city":"Mahanoy Plane","state_name":"Pennsylvania","lat":40.79624,"lng":-76.23547,"zip":"17949","miles_from_dt":24.11},{"city":"Shawanese","state_name":"Pennsylvania","lat":41.35344,"lng":-76.05141,"zip":"18654","miles_from_dt":24.23},{"city":"Gouldsboro","state_name":"Pennsylvania","lat":41.24267,"lng":-75.52234,"zip":"18424","miles_from_dt":24.25},{"city":"Frackville","state_name":"Pennsylvania","lat":40.78269,"lng":-76.23214,"zip":"17932","miles_from_dt":24.61},{"city":"Gilbert","state_name":"Pennsylvania","lat":40.90878,"lng":-75.44076,"zip":"18331","miles_from_dt":24.69},{"city":"Cambra","state_name":"Pennsylvania","lat":41.19675,"lng":-76.30463,"zip":"18611","miles_from_dt":24.8},{"city":"Walnutport","state_name":"Pennsylvania","lat":40.76578,"lng":-75.5576,"zip":"18088","miles_from_dt":24.86},{"city":"Cumbola","state_name":"Pennsylvania","lat":40.70867,"lng":-76.11529,"zip":"17930","miles_from_dt":24.88},{"city":"Stillwater","state_name":"Pennsylvania","lat":41.1721,"lng":-76.32364,"zip":"17878","miles_from_dt":24.94},{"city":"Moosic","state_name":"Pennsylvania","lat":41.35541,"lng":-75.68016,"zip":"18507","miles_from_dt":25.23},{"city":"Old Forge","state_name":"Pennsylvania","lat":41.37495,"lng":-75.73963,"zip":"18518","miles_from_dt":25.35},{"city":"Pocono Summit","state_name":"Pennsylvania","lat":41.14643,"lng":-75.42752,"zip":"18346","miles_from_dt":25.43},{"city":"Harveys Lake","state_name":"Pennsylvania","lat":41.37883,"lng":-76.0313,"zip":"18618","miles_from_dt":25.55},{"city":"Ransom","state_name":"Pennsylvania","lat":41.39399,"lng":-75.82461,"zip":"18653","miles_from_dt":25.67},{"city":"Girardville","state_name":"Pennsylvania","lat":40.79417,"lng":-76.28,"zip":"17935","miles_from_dt":26.01},{"city":"New Tripoli","state_name":"Pennsylvania","lat":40.6635,"lng":-75.74492,"zip":"18066","miles_from_dt":26.04},{"city":"Scranton","state_name":"Pennsylvania","lat":41.37,"lng":-75.68003,"zip":"18501","miles_from_dt":26.14},{"city":"Scranton","state_name":"Pennsylvania","lat":41.36996,"lng":-75.68022,"zip":"18502","miles_from_dt":26.14},{"city":"Cherryville","state_name":"Pennsylvania","lat":40.75053,"lng":-75.54148,"zip":"18035","miles_from_dt":26.2},{"city":"Saint Clair","state_name":"Pennsylvania","lat":40.72072,"lng":-76.19056,"zip":"17970","miles_from_dt":26.33},{"city":"Danielsville","state_name":"Pennsylvania","lat":40.79574,"lng":-75.48246,"zip":"18038","miles_from_dt":26.45},{"city":"Treichlers","state_name":"Pennsylvania","lat":40.73867,"lng":-75.54757,"zip":"18086","miles_from_dt":26.59},{"city":"Brodheadsville","state_name":"Pennsylvania","lat":40.9221,"lng":-75.39714,"zip":"18322","miles_from_dt":26.6},{"city":"Sweet Valley","state_name":"Pennsylvania","lat":41.32703,"lng":-76.20442,"zip":"18656","miles_from_dt":26.61},{"city":"Scranton","state_name":"Pennsylvania","lat":41.37228,"lng":-75.6578,"zip":"18540","miles_from_dt":26.78},{"city":"Port Carbon","state_name":"Pennsylvania","lat":40.69919,"lng":-76.16536,"zip":"17965","miles_from_dt":26.79},{"city":"Neffs","state_name":"Pennsylvania","lat":40.69814,"lng":-75.61086,"zip":"18065","miles_from_dt":26.8},{"city":"Kempton","state_name":"Pennsylvania","lat":40.63387,"lng":-75.86158,"zip":"19529","miles_from_dt":27.02},{"city":"Taylor","state_name":"Pennsylvania","lat":41.39524,"lng":-75.71461,"zip":"18517","miles_from_dt":27.09},{"city":"Orangeville","state_name":"Pennsylvania","lat":41.11821,"lng":-76.39498,"zip":"17859","miles_from_dt":27.28},{"city":"Aristes","state_name":"Pennsylvania","lat":40.81328,"lng":-76.32989,"zip":"17920","miles_from_dt":27.39},{"city":"Pocono Manor","state_name":"Pennsylvania","lat":41.0995,"lng":-75.3682,"zip":"18349","miles_from_dt":27.59},{"city":"Orwigsburg","state_name":"Pennsylvania","lat":40.64713,"lng":-76.05988,"zip":"17961","miles_from_dt":27.6},{"city":"Laurys Station","state_name":"Pennsylvania","lat":40.7233,"lng":-75.53644,"zip":"18059","miles_from_dt":27.77},{"city":"Scranton","state_name":"Pennsylvania","lat":41.38874,"lng":-75.65109,"zip":"18505","miles_from_dt":27.96},{"city":"Scotrun","state_name":"Pennsylvania","lat":41.07301,"lng":-75.35553,"zip":"18355","miles_from_dt":27.98},{"city":"Moscow","state_name":"Pennsylvania","lat":41.33912,"lng":-75.54667,"zip":"18444","miles_from_dt":28.02},{"city":"Schnecksville","state_name":"Pennsylvania","lat":40.67181,"lng":-75.62096,"zip":"18078","miles_from_dt":28.08},{"city":"Bloomsburg","state_name":"Pennsylvania","lat":41.02216,"lng":-76.43061,"zip":"17815","miles_from_dt":28.4},{"city":"Saylorsburg","state_name":"Pennsylvania","lat":40.89848,"lng":-75.36953,"zip":"18353","miles_from_dt":28.46},{"city":"Catawissa","state_name":"Pennsylvania","lat":40.9011,"lng":-76.40783,"zip":"17820","miles_from_dt":28.54},{"city":"Noxen","state_name":"Pennsylvania","lat":41.41215,"lng":-76.08859,"zip":"18636","miles_from_dt":28.7},{"city":"Scranton","state_name":"Pennsylvania","lat":41.41007,"lng":-75.66767,"zip":"18503","miles_from_dt":28.93},{"city":"Swiftwater","state_name":"Pennsylvania","lat":41.08926,"lng":-75.33771,"zip":"18370","miles_from_dt":29.05},{"city":"Mount Pocono","state_name":"Pennsylvania","lat":41.11735,"lng":-75.34442,"zip":"18344","miles_from_dt":29.06},{"city":"Scranton","state_name":"Pennsylvania","lat":41.42375,"lng":-75.70581,"zip":"18504","miles_from_dt":29.1},{"city":"Tobyhanna","state_name":"Pennsylvania","lat":41.19709,"lng":-75.37796,"zip":"18466","miles_from_dt":29.11},{"city":"Wilburton","state_name":"Pennsylvania","lat":40.81931,"lng":-76.37306,"zip":"17888","miles_from_dt":29.12},{"city":"Seltzer","state_name":"Pennsylvania","lat":40.69592,"lng":-76.23606,"zip":"17974","miles_from_dt":29.15},{"city":"Scranton","state_name":"Pennsylvania","lat":41.40735,"lng":-75.64376,"zip":"18510","miles_from_dt":29.28},{"city":"Tannersville","state_name":"Pennsylvania","lat":41.04777,"lng":-75.32512,"zip":"18372","miles_from_dt":29.42},{"city":"Coplay","state_name":"Pennsylvania","lat":40.68203,"lng":-75.54638,"zip":"18037","miles_from_dt":29.65},{"city":"Elmhurst","state_name":"Pennsylvania","lat":41.37341,"lng":-75.54863,"zip":"18416","miles_from_dt":29.83},{"city":"Pottsville","state_name":"Pennsylvania","lat":40.69364,"lng":-76.25526,"zip":"17901","miles_from_dt":29.91}],"targetCityZipCode":"18224","targetCityState":"Pennsylvania"},"__N_SSG":true}