{"pageProps":{"stateName":"Pennsylvania","cityName":"hallstead","nearbyCities":[{"city":"Great Bend","state_name":"Pennsylvania","lat":41.98588,"lng":-75.73466,"zip":"18821","miles_from_dt":4.3},{"city":"Corbettsville","state_name":"New York","lat":42.01887,"lng":-75.79096,"zip":"13749","miles_from_dt":4.91},{"city":"Conklin","state_name":"New York","lat":42.03428,"lng":-75.81727,"zip":"13748","miles_from_dt":6},{"city":"Kirkwood","state_name":"New York","lat":42.05844,"lng":-75.77419,"zip":"13795","miles_from_dt":7.73},{"city":"Binghamton","state_name":"New York","lat":42.04749,"lng":-75.89573,"zip":"13903","miles_from_dt":8.41},{"city":"New Milford","state_name":"Pennsylvania","lat":41.84185,"lng":-75.71189,"zip":"18834","miles_from_dt":8.66},{"city":"Brackney","state_name":"Pennsylvania","lat":41.97203,"lng":-75.96822,"zip":"18812","miles_from_dt":8.76},{"city":"South Montrose","state_name":"Pennsylvania","lat":41.80446,"lng":-75.89416,"zip":"18843","miles_from_dt":11.02},{"city":"Lanesboro","state_name":"Pennsylvania","lat":41.95642,"lng":-75.58703,"zip":"18827","miles_from_dt":11.05},{"city":"Montrose","state_name":"Pennsylvania","lat":41.82861,"lng":-75.9437,"zip":"18801","miles_from_dt":11.05},{"city":"Windsor","state_name":"New York","lat":42.06282,"lng":-75.62879,"zip":"13865","miles_from_dt":11.89},{"city":"Susquehanna","state_name":"Pennsylvania","lat":41.93539,"lng":-75.56893,"zip":"18847","miles_from_dt":12},{"city":"Binghamton","state_name":"New York","lat":42.13072,"lng":-75.81587,"zip":"13904","miles_from_dt":12.62},{"city":"Vestal","state_name":"New York","lat":42.03593,"lng":-76.01958,"zip":"13851","miles_from_dt":12.77},{"city":"Friendsville","state_name":"Pennsylvania","lat":41.91343,"lng":-76.04843,"zip":"18818","miles_from_dt":12.97},{"city":"Binghamton","state_name":"New York","lat":42.08895,"lng":-75.96891,"zip":"13902","miles_from_dt":13},{"city":"Harford","state_name":"Pennsylvania","lat":41.77415,"lng":-75.69168,"zip":"18823","miles_from_dt":13.27},{"city":"Vestal","state_name":"New York","lat":42.04873,"lng":-76.02663,"zip":"13850","miles_from_dt":13.52},{"city":"Jackson","state_name":"Pennsylvania","lat":41.82276,"lng":-75.599,"zip":"18825","miles_from_dt":13.55},{"city":"Brooklyn","state_name":"Pennsylvania","lat":41.75061,"lng":-75.80696,"zip":"18813","miles_from_dt":13.64},{"city":"Ouaquaga","state_name":"New York","lat":42.10517,"lng":-75.63701,"zip":"13826","miles_from_dt":13.74},{"city":"Kingsley","state_name":"Pennsylvania","lat":41.7495,"lng":-75.74276,"zip":"18826","miles_from_dt":14.04},{"city":"Gibson","state_name":"Pennsylvania","lat":41.7779,"lng":-75.65029,"zip":"18820","miles_from_dt":14.1},{"city":"Dimock","state_name":"Pennsylvania","lat":41.73977,"lng":-75.90966,"zip":"18816","miles_from_dt":15.44},{"city":"Little Meadows","state_name":"Pennsylvania","lat":41.95049,"lng":-76.10904,"zip":"18830","miles_from_dt":15.86},{"city":"Endwell","state_name":"New York","lat":42.1072,"lng":-76.0239,"zip":"13762","miles_from_dt":15.87},{"city":"South Gibson","state_name":"Pennsylvania","lat":41.75594,"lng":-75.61652,"zip":"18842","miles_from_dt":16.34},{"city":"Thompson","state_name":"Pennsylvania","lat":41.83654,"lng":-75.51811,"zip":"18465","miles_from_dt":16.51},{"city":"Endicott","state_name":"New York","lat":42.10045,"lng":-76.04884,"zip":"13761","miles_from_dt":16.52},{"city":"Binghamton","state_name":"New York","lat":42.18253,"lng":-75.88048,"zip":"13901","miles_from_dt":16.68},{"city":"Hop Bottom","state_name":"Pennsylvania","lat":41.70422,"lng":-75.786,"zip":"18824","miles_from_dt":16.86},{"city":"Endicott","state_name":"New York","lat":42.09448,"lng":-76.06514,"zip":"13763","miles_from_dt":16.93},{"city":"Port Crane","state_name":"New York","lat":42.19829,"lng":-75.76432,"zip":"13833","miles_from_dt":17.36},{"city":"Bible School Park","state_name":"New York","lat":42.07838,"lng":-76.09683,"zip":"13737","miles_from_dt":17.67},{"city":"Binghamton","state_name":"New York","lat":42.18086,"lng":-75.94476,"zip":"13905","miles_from_dt":17.67},{"city":"Johnson City","state_name":"New York","lat":42.16937,"lng":-75.99796,"zip":"13790","miles_from_dt":18.32},{"city":"Springville","state_name":"Pennsylvania","lat":41.69247,"lng":-75.91351,"zip":"18844","miles_from_dt":18.58},{"city":"Tunnel","state_name":"New York","lat":42.21635,"lng":-75.72815,"zip":"13848","miles_from_dt":18.88},{"city":"Harpursville","state_name":"New York","lat":42.20606,"lng":-75.66334,"zip":"13787","miles_from_dt":19.16},{"city":"Lawton","state_name":"Pennsylvania","lat":41.79672,"lng":-76.11245,"zip":"18828","miles_from_dt":19.16},{"city":"Starrucca","state_name":"Pennsylvania","lat":41.9049,"lng":-75.42988,"zip":"18462","miles_from_dt":19.37},{"city":"Endicott","state_name":"New York","lat":42.13425,"lng":-76.08354,"zip":"13760","miles_from_dt":19.39},{"city":"Warren Center","state_name":"Pennsylvania","lat":41.93677,"lng":-76.17992,"zip":"18851","miles_from_dt":19.53},{"city":"Apalachin","state_name":"New York","lat":42.04396,"lng":-76.16772,"zip":"13732","miles_from_dt":20},{"city":"Nineveh","state_name":"New York","lat":42.16808,"lng":-75.54266,"zip":"13813","miles_from_dt":20.18},{"city":"Union Dale","state_name":"Pennsylvania","lat":41.732,"lng":-75.53502,"zip":"18470","miles_from_dt":20.28},{"city":"Orson","state_name":"Pennsylvania","lat":41.81459,"lng":-75.44997,"zip":"18449","miles_from_dt":20.33},{"city":"Le Raysville","state_name":"Pennsylvania","lat":41.8395,"lng":-76.17088,"zip":"18829","miles_from_dt":20.49},{"city":"Castle Creek","state_name":"New York","lat":42.24078,"lng":-75.90629,"zip":"13744","miles_from_dt":20.9},{"city":"Nicholson","state_name":"Pennsylvania","lat":41.64513,"lng":-75.76044,"zip":"18446","miles_from_dt":21.02},{"city":"Poyntelle","state_name":"Pennsylvania","lat":41.81963,"lng":-75.42731,"zip":"18454","miles_from_dt":21.22},{"city":"Deposit","state_name":"New York","lat":42.09387,"lng":-75.43625,"zip":"13754","miles_from_dt":21.3},{"city":"Herrick Center","state_name":"Pennsylvania","lat":41.7428,"lng":-75.47779,"zip":"18430","miles_from_dt":21.9},{"city":"Lenoxville","state_name":"Pennsylvania","lat":41.65833,"lng":-75.62565,"zip":"18441","miles_from_dt":21.96},{"city":"Chenango Forks","state_name":"New York","lat":42.26868,"lng":-75.82085,"zip":"13746","miles_from_dt":22.14},{"city":"Stevensville","state_name":"Pennsylvania","lat":41.78994,"lng":-76.18454,"zip":"18845","miles_from_dt":22.59},{"city":"Meshoppen","state_name":"Pennsylvania","lat":41.66361,"lng":-76.02698,"zip":"18630","miles_from_dt":22.84},{"city":"Preston Park","state_name":"Pennsylvania","lat":41.88467,"lng":-75.35541,"zip":"18455","miles_from_dt":23.39},{"city":"Glen Aubrey","state_name":"New York","lat":42.25894,"lng":-75.9866,"zip":"13777","miles_from_dt":23.47},{"city":"Chenango Bridge","state_name":"New York","lat":42.28572,"lng":-75.91077,"zip":"13745","miles_from_dt":23.97},{"city":"Afton","state_name":"New York","lat":42.23201,"lng":-75.53127,"zip":"13730","miles_from_dt":24},{"city":"Fleetville","state_name":"Pennsylvania","lat":41.60333,"lng":-75.70589,"zip":"18420","miles_from_dt":24.3},{"city":"Maine","state_name":"New York","lat":42.25164,"lng":-76.04207,"zip":"13802","miles_from_dt":24.33},{"city":"Starlight","state_name":"Pennsylvania","lat":41.92774,"lng":-75.32434,"zip":"18461","miles_from_dt":24.61},{"city":"Lakewood","state_name":"Pennsylvania","lat":41.82674,"lng":-75.34735,"zip":"18439","miles_from_dt":24.86},{"city":"Clifford","state_name":"Pennsylvania","lat":41.64767,"lng":-75.53258,"zip":"18413","miles_from_dt":24.95},{"city":"Rome","state_name":"Pennsylvania","lat":41.91928,"lng":-76.29122,"zip":"18837","miles_from_dt":25.33},{"city":"Factoryville","state_name":"Pennsylvania","lat":41.57858,"lng":-75.7994,"zip":"18419","miles_from_dt":25.51},{"city":"Owego","state_name":"New York","lat":42.11178,"lng":-76.25216,"zip":"13827","miles_from_dt":25.81},{"city":"Laceyville","state_name":"Pennsylvania","lat":41.67297,"lng":-76.14768,"zip":"18623","miles_from_dt":26.09},{"city":"Forest City","state_name":"Pennsylvania","lat":41.66337,"lng":-75.4691,"zip":"18421","miles_from_dt":26.09},{"city":"Lake Como","state_name":"Pennsylvania","lat":41.86859,"lng":-75.30345,"zip":"18437","miles_from_dt":26.24},{"city":"Pleasant Mount","state_name":"Pennsylvania","lat":41.74971,"lng":-75.361,"zip":"18453","miles_from_dt":26.52},{"city":"Camptown","state_name":"Pennsylvania","lat":41.73112,"lng":-76.23278,"zip":"18815","miles_from_dt":26.85},{"city":"La Plume","state_name":"Pennsylvania","lat":41.55931,"lng":-75.76505,"zip":"18440","miles_from_dt":26.9},{"city":"Newark Valley","state_name":"New York","lat":42.23099,"lng":-76.17481,"zip":"13811","miles_from_dt":27.38},{"city":"Hancock","state_name":"New York","lat":41.99037,"lng":-75.26764,"zip":"13783","miles_from_dt":27.63},{"city":"Greene","state_name":"New York","lat":42.34795,"lng":-75.75977,"zip":"13778","miles_from_dt":27.67},{"city":"Whitney Point","state_name":"New York","lat":42.3369,"lng":-75.9372,"zip":"13862","miles_from_dt":27.72},{"city":"Carbondale","state_name":"Pennsylvania","lat":41.59971,"lng":-75.53026,"zip":"18407","miles_from_dt":27.83},{"city":"Masonville","state_name":"New York","lat":42.20708,"lng":-75.37562,"zip":"13804","miles_from_dt":28.25},{"city":"Jermyn","state_name":"Pennsylvania","lat":41.57107,"lng":-75.58452,"zip":"18433","miles_from_dt":28.33},{"city":"Dalton","state_name":"Pennsylvania","lat":41.53893,"lng":-75.7427,"zip":"18414","miles_from_dt":28.41},{"city":"Lisle","state_name":"New York","lat":42.32765,"lng":-76.04389,"zip":"13797","miles_from_dt":29.01},{"city":"Nichols","state_name":"New York","lat":42.02993,"lng":-76.35461,"zip":"13812","miles_from_dt":29.05},{"city":"Wyalusing","state_name":"Pennsylvania","lat":41.71654,"lng":-76.27534,"zip":"18853","miles_from_dt":29.23},{"city":"Tioga Center","state_name":"New York","lat":42.0579,"lng":-76.35062,"zip":"13845","miles_from_dt":29.28},{"city":"Waverly","state_name":"Pennsylvania","lat":41.5291,"lng":-75.69807,"zip":"18471","miles_from_dt":29.41},{"city":"Bainbridge","state_name":"New York","lat":42.30459,"lng":-75.4793,"zip":"13733","miles_from_dt":29.64}],"targetCityZipCode":"18822","targetCityState":"Pennsylvania"},"__N_SSG":true}