{"pageProps":{"stateName":"Pennsylvania","cityName":"huntingdon","nearbyCities":[{"city":"Mill Creek","state_name":"Pennsylvania","lat":40.49144,"lng":-77.88158,"zip":"17060","miles_from_dt":4.15},{"city":"Huntingdon","state_name":"Pennsylvania","lat":40.49189,"lng":-78.02854,"zip":"16654","miles_from_dt":4.34},{"city":"Allensville","state_name":"Pennsylvania","lat":40.46463,"lng":-77.86761,"zip":"17002","miles_from_dt":5.77},{"city":"McConnellstown","state_name":"Pennsylvania","lat":40.46214,"lng":-78.07009,"zip":"16660","miles_from_dt":7.23},{"city":"Alexandria","state_name":"Pennsylvania","lat":40.56719,"lng":-78.10214,"zip":"16611","miles_from_dt":8.58},{"city":"Petersburg","state_name":"Pennsylvania","lat":40.65737,"lng":-77.90675,"zip":"16669","miles_from_dt":9.99},{"city":"McVeytown","state_name":"Pennsylvania","lat":40.45881,"lng":-77.77306,"zip":"17051","miles_from_dt":10.29},{"city":"Newton Hamilton","state_name":"Pennsylvania","lat":40.39372,"lng":-77.83429,"zip":"17075","miles_from_dt":10.56},{"city":"Hesston","state_name":"Pennsylvania","lat":40.39514,"lng":-78.09798,"zip":"16647","miles_from_dt":11.36},{"city":"Spruce Creek","state_name":"Pennsylvania","lat":40.65595,"lng":-78.07313,"zip":"16683","miles_from_dt":11.49},{"city":"Mattawana","state_name":"Pennsylvania","lat":40.49746,"lng":-77.72764,"zip":"17054","miles_from_dt":11.95},{"city":"Mount Union","state_name":"Pennsylvania","lat":40.35885,"lng":-77.85892,"zip":"17066","miles_from_dt":11.98},{"city":"Belleville","state_name":"Pennsylvania","lat":40.59966,"lng":-77.73278,"zip":"17004","miles_from_dt":12.92},{"city":"Mapleton Depot","state_name":"Pennsylvania","lat":40.31577,"lng":-77.98195,"zip":"17052","miles_from_dt":13.96},{"city":"Pennsylvania Furnace","state_name":"Pennsylvania","lat":40.72086,"lng":-77.96396,"zip":"16865","miles_from_dt":14.08},{"city":"Williamsburg","state_name":"Pennsylvania","lat":40.46519,"lng":-78.21593,"zip":"16693","miles_from_dt":14.3},{"city":"Calvin","state_name":"Pennsylvania","lat":40.32853,"lng":-78.0692,"zip":"16622","miles_from_dt":14.37},{"city":"Pine Grove Mills","state_name":"Pennsylvania","lat":40.72725,"lng":-77.89066,"zip":"16868","miles_from_dt":14.88},{"city":"Shirleysburg","state_name":"Pennsylvania","lat":40.2977,"lng":-77.89489,"zip":"17260","miles_from_dt":15.43},{"city":"Warriors Mark","state_name":"Pennsylvania","lat":40.73291,"lng":-78.06846,"zip":"16877","miles_from_dt":16.09},{"city":"Cassville","state_name":"Pennsylvania","lat":40.27618,"lng":-78.04556,"zip":"16623","miles_from_dt":17.31},{"city":"Granville","state_name":"Pennsylvania","lat":40.55416,"lng":-77.62196,"zip":"17029","miles_from_dt":17.62},{"city":"Todd","state_name":"Pennsylvania","lat":40.28019,"lng":-78.08063,"zip":"16685","miles_from_dt":17.67},{"city":"Orbisonia","state_name":"Pennsylvania","lat":40.28368,"lng":-77.81484,"zip":"17243","miles_from_dt":17.67},{"city":"James Creek","state_name":"Pennsylvania","lat":40.32486,"lng":-78.17757,"zip":"16657","miles_from_dt":17.77},{"city":"Entriken","state_name":"Pennsylvania","lat":40.33809,"lng":-78.2012,"zip":"16638","miles_from_dt":17.99},{"city":"Tyrone","state_name":"Pennsylvania","lat":40.67056,"lng":-78.24102,"zip":"16686","miles_from_dt":18.49},{"city":"Rockhill Furnace","state_name":"Pennsylvania","lat":40.24186,"lng":-77.9002,"zip":"17249","miles_from_dt":19.18},{"city":"State College","state_name":"Pennsylvania","lat":40.78538,"lng":-77.84214,"zip":"16801","miles_from_dt":19.42},{"city":"Boalsburg","state_name":"Pennsylvania","lat":40.76607,"lng":-77.77739,"zip":"16827","miles_from_dt":19.51},{"city":"State College","state_name":"Pennsylvania","lat":40.79192,"lng":-77.86099,"zip":"16805","miles_from_dt":19.58},{"city":"State College","state_name":"Pennsylvania","lat":40.79203,"lng":-77.86109,"zip":"16804","miles_from_dt":19.59},{"city":"Lewistown","state_name":"Pennsylvania","lat":40.58236,"lng":-77.59013,"zip":"17044","miles_from_dt":19.63},{"city":"East Waterford","state_name":"Pennsylvania","lat":40.33758,"lng":-77.66093,"zip":"17021","miles_from_dt":19.76},{"city":"Tipton","state_name":"Pennsylvania","lat":40.63541,"lng":-78.29685,"zip":"16684","miles_from_dt":19.85},{"city":"University Park","state_name":"Pennsylvania","lat":40.79867,"lng":-77.86481,"zip":"16802","miles_from_dt":19.99},{"city":"Port Matilda","state_name":"Pennsylvania","lat":40.80149,"lng":-78.04969,"zip":"16870","miles_from_dt":20.28},{"city":"State College","state_name":"Pennsylvania","lat":40.80849,"lng":-77.89449,"zip":"16803","miles_from_dt":20.35},{"city":"Blairs Mills","state_name":"Pennsylvania","lat":40.25381,"lng":-77.77249,"zip":"17213","miles_from_dt":20.5},{"city":"Hollidaysburg","state_name":"Pennsylvania","lat":40.44231,"lng":-78.33242,"zip":"16648","miles_from_dt":20.64},{"city":"Bellwood","state_name":"Pennsylvania","lat":40.6036,"lng":-78.32995,"zip":"16617","miles_from_dt":20.72},{"city":"Reedsville","state_name":"Pennsylvania","lat":40.68705,"lng":-77.62692,"zip":"17084","miles_from_dt":20.78},{"city":"Honey Grove","state_name":"Pennsylvania","lat":40.41638,"lng":-77.57443,"zip":"17035","miles_from_dt":21.12},{"city":"Saltillo","state_name":"Pennsylvania","lat":40.21241,"lng":-78.00628,"zip":"17253","miles_from_dt":21.2},{"city":"Mifflin","state_name":"Pennsylvania","lat":40.50111,"lng":-77.54792,"zip":"17058","miles_from_dt":21.36},{"city":"Yeagertown","state_name":"Pennsylvania","lat":40.64535,"lng":-77.57639,"zip":"17099","miles_from_dt":21.71},{"city":"Broad Top","state_name":"Pennsylvania","lat":40.22888,"lng":-78.12298,"zip":"16621","miles_from_dt":21.8},{"city":"Lemont","state_name":"Pennsylvania","lat":40.81229,"lng":-77.80132,"zip":"16851","miles_from_dt":21.88},{"city":"Burnham","state_name":"Pennsylvania","lat":40.6359,"lng":-77.56609,"zip":"17009","miles_from_dt":21.95},{"city":"Altoona","state_name":"Pennsylvania","lat":40.51491,"lng":-78.37052,"zip":"16602","miles_from_dt":21.99},{"city":"Altoona","state_name":"Pennsylvania","lat":40.55338,"lng":-78.37283,"zip":"16601","miles_from_dt":22.24},{"city":"Concord","state_name":"Pennsylvania","lat":40.23822,"lng":-77.72235,"zip":"17217","miles_from_dt":22.76},{"city":"Three Springs","state_name":"Pennsylvania","lat":40.17993,"lng":-77.99331,"zip":"17264","miles_from_dt":23.35},{"city":"Martinsburg","state_name":"Pennsylvania","lat":40.30635,"lng":-78.29961,"zip":"16662","miles_from_dt":23.35},{"city":"Altoona","state_name":"Pennsylvania","lat":40.52003,"lng":-78.40017,"zip":"16603","miles_from_dt":23.55},{"city":"Robertsdale","state_name":"Pennsylvania","lat":40.1865,"lng":-78.07926,"zip":"16674","miles_from_dt":23.75},{"city":"Dudley","state_name":"Pennsylvania","lat":40.2105,"lng":-78.17308,"zip":"16634","miles_from_dt":24.12},{"city":"Centre Hall","state_name":"Pennsylvania","lat":40.80704,"lng":-77.69097,"zip":"16828","miles_from_dt":24.3},{"city":"New Germantown","state_name":"Pennsylvania","lat":40.30061,"lng":-77.58928,"zip":"17071","miles_from_dt":24.31},{"city":"Doylesburg","state_name":"Pennsylvania","lat":40.22367,"lng":-77.69318,"zip":"17219","miles_from_dt":24.44},{"city":"Saxton","state_name":"Pennsylvania","lat":40.2252,"lng":-78.23421,"zip":"16678","miles_from_dt":25.01},{"city":"Shade Gap","state_name":"Pennsylvania","lat":40.15426,"lng":-77.86756,"zip":"17255","miles_from_dt":25.43},{"city":"Wood","state_name":"Pennsylvania","lat":40.17259,"lng":-78.12852,"zip":"16694","miles_from_dt":25.5},{"city":"Sandy Ridge","state_name":"Pennsylvania","lat":40.81507,"lng":-78.2457,"zip":"16677","miles_from_dt":25.69},{"city":"Dry Run","state_name":"Pennsylvania","lat":40.17807,"lng":-77.74108,"zip":"17220","miles_from_dt":25.92},{"city":"Philipsburg","state_name":"Pennsylvania","lat":40.86684,"lng":-78.17163,"zip":"16866","miles_from_dt":26.74},{"city":"Neelyton","state_name":"Pennsylvania","lat":40.13973,"lng":-77.83009,"zip":"17239","miles_from_dt":26.82},{"city":"Curryville","state_name":"Pennsylvania","lat":40.27141,"lng":-78.34754,"zip":"16631","miles_from_dt":26.84},{"city":"Blain","state_name":"Pennsylvania","lat":40.28495,"lng":-77.54364,"zip":"17006","miles_from_dt":26.88},{"city":"Newry","state_name":"Pennsylvania","lat":40.38898,"lng":-78.43491,"zip":"16665","miles_from_dt":26.89},{"city":"Blandburg","state_name":"Pennsylvania","lat":40.68367,"lng":-78.41591,"zip":"16619","miles_from_dt":26.93},{"city":"Fleming","state_name":"Pennsylvania","lat":40.90668,"lng":-77.87731,"zip":"16835","miles_from_dt":27.19},{"city":"Roaring Spring","state_name":"Pennsylvania","lat":40.30671,"lng":-78.39026,"zip":"16673","miles_from_dt":27.24},{"city":"Amberson","state_name":"Pennsylvania","lat":40.18989,"lng":-77.661,"zip":"17210","miles_from_dt":27.33},{"city":"Julian","state_name":"Pennsylvania","lat":40.91285,"lng":-77.93261,"zip":"16844","miles_from_dt":27.34},{"city":"Port Royal","state_name":"Pennsylvania","lat":40.49762,"lng":-77.42579,"zip":"17082","miles_from_dt":27.8},{"city":"Six Mile Run","state_name":"Pennsylvania","lat":40.15659,"lng":-78.195,"zip":"16679","miles_from_dt":27.95},{"city":"Spring Run","state_name":"Pennsylvania","lat":40.14489,"lng":-77.74174,"zip":"17262","miles_from_dt":27.99},{"city":"Ickesburg","state_name":"Pennsylvania","lat":40.43329,"lng":-77.42872,"zip":"17037","miles_from_dt":28.22},{"city":"Riddlesburg","state_name":"Pennsylvania","lat":40.16935,"lng":-78.24324,"zip":"16672","miles_from_dt":28.46},{"city":"Fallentimber","state_name":"Pennsylvania","lat":40.68566,"lng":-78.44912,"zip":"16639","miles_from_dt":28.57},{"city":"Smithmill","state_name":"Pennsylvania","lat":40.75149,"lng":-78.40254,"zip":"16680","miles_from_dt":28.64},{"city":"Morann","state_name":"Pennsylvania","lat":40.7868,"lng":-78.36707,"zip":"16663","miles_from_dt":28.64},{"city":"Defiance","state_name":"Pennsylvania","lat":40.15969,"lng":-78.23259,"zip":"16633","miles_from_dt":28.73},{"city":"Duncansville","state_name":"Pennsylvania","lat":40.41621,"lng":-78.48743,"zip":"16635","miles_from_dt":29.01},{"city":"Glasgow","state_name":"Pennsylvania","lat":40.7094,"lng":-78.4485,"zip":"16644","miles_from_dt":29.24},{"city":"Waterfall","state_name":"Pennsylvania","lat":40.10737,"lng":-78.10028,"zip":"16689","miles_from_dt":29.31},{"city":"Dysart","state_name":"Pennsylvania","lat":40.60214,"lng":-78.50161,"zip":"16636","miles_from_dt":29.46},{"city":"Burnt Cabins","state_name":"Pennsylvania","lat":40.09234,"lng":-77.89008,"zip":"17215","miles_from_dt":29.48},{"city":"Coupon","state_name":"Pennsylvania","lat":40.53759,"lng":-78.51316,"zip":"16629","miles_from_dt":29.53},{"city":"Willow Hill","state_name":"Pennsylvania","lat":40.10183,"lng":-77.80367,"zip":"17271","miles_from_dt":29.71},{"city":"East Freedom","state_name":"Pennsylvania","lat":40.34214,"lng":-78.47079,"zip":"16637","miles_from_dt":29.85},{"city":"Bellefonte","state_name":"Pennsylvania","lat":40.92734,"lng":-77.76685,"zip":"16823","miles_from_dt":29.96}],"targetCityZipCode":"16652","targetCityState":"Pennsylvania"},"__N_SSG":true}