{"pageProps":{"stateName":"Pennsylvania","cityName":"mount-pleasant-mills","nearbyCities":[{"city":"Freeburg","state_name":"Pennsylvania","lat":40.75482,"lng":-76.96133,"zip":"17827","miles_from_dt":5.09},{"city":"Port Trevorton","state_name":"Pennsylvania","lat":40.70294,"lng":-76.90687,"zip":"17864","miles_from_dt":5.6},{"city":"Richfield","state_name":"Pennsylvania","lat":40.69067,"lng":-77.12502,"zip":"17086","miles_from_dt":5.91},{"city":"Paxtonville","state_name":"Pennsylvania","lat":40.77361,"lng":-77.0788,"zip":"17861","miles_from_dt":6.61},{"city":"Liverpool","state_name":"Pennsylvania","lat":40.58841,"lng":-77.00389,"zip":"17045","miles_from_dt":7.17},{"city":"Dalmatia","state_name":"Pennsylvania","lat":40.6275,"lng":-76.89854,"zip":"17017","miles_from_dt":7.47},{"city":"Middleburg","state_name":"Pennsylvania","lat":40.80389,"lng":-77.04329,"zip":"17842","miles_from_dt":7.88},{"city":"Kreamer","state_name":"Pennsylvania","lat":40.80255,"lng":-76.96631,"zip":"17833","miles_from_dt":8},{"city":"Cocolamus","state_name":"Pennsylvania","lat":40.6596,"lng":-77.19358,"zip":"17014","miles_from_dt":9.77},{"city":"Selinsgrove","state_name":"Pennsylvania","lat":40.80992,"lng":-76.8897,"zip":"17870","miles_from_dt":10.37},{"city":"Millersburg","state_name":"Pennsylvania","lat":40.56542,"lng":-76.90046,"zip":"17061","miles_from_dt":10.54},{"city":"Beavertown","state_name":"Pennsylvania","lat":40.78505,"lng":-77.1772,"zip":"17813","miles_from_dt":10.76},{"city":"Herndon","state_name":"Pennsylvania","lat":40.68791,"lng":-76.79449,"zip":"17830","miles_from_dt":11.46},{"city":"Pillow","state_name":"Pennsylvania","lat":40.64057,"lng":-76.80299,"zip":"17080","miles_from_dt":11.57},{"city":"Penns Creek","state_name":"Pennsylvania","lat":40.86069,"lng":-77.05661,"zip":"17862","miles_from_dt":11.86},{"city":"Beaver Springs","state_name":"Pennsylvania","lat":40.73626,"lng":-77.23641,"zip":"17812","miles_from_dt":12.14},{"city":"Berrysburg","state_name":"Pennsylvania","lat":40.60304,"lng":-76.81065,"zip":"17005","miles_from_dt":12.26},{"city":"Millerstown","state_name":"Pennsylvania","lat":40.55153,"lng":-77.16813,"zip":"17062","miles_from_dt":12.69},{"city":"Troxelville","state_name":"Pennsylvania","lat":40.80301,"lng":-77.20565,"zip":"17882","miles_from_dt":12.7},{"city":"Elizabethville","state_name":"Pennsylvania","lat":40.5813,"lng":-76.81169,"zip":"17023","miles_from_dt":13.04},{"city":"Thompsontown","state_name":"Pennsylvania","lat":40.58414,"lng":-77.2168,"zip":"17094","miles_from_dt":13.07},{"city":"McAlisterville","state_name":"Pennsylvania","lat":40.65172,"lng":-77.25948,"zip":"17049","miles_from_dt":13.27},{"city":"Hummels Wharf","state_name":"Pennsylvania","lat":40.83432,"lng":-76.83664,"zip":"17831","miles_from_dt":13.47},{"city":"New Berlin","state_name":"Pennsylvania","lat":40.88735,"lng":-76.97217,"zip":"17855","miles_from_dt":13.64},{"city":"Beaver Springs","state_name":"Pennsylvania","lat":40.76172,"lng":-77.25674,"zip":"17843","miles_from_dt":13.69},{"city":"Winfield","state_name":"Pennsylvania","lat":40.88228,"lng":-76.9143,"zip":"17889","miles_from_dt":14.1},{"city":"Swengel","state_name":"Pennsylvania","lat":40.89109,"lng":-77.12383,"zip":"17880","miles_from_dt":14.92},{"city":"Shamokin Dam","state_name":"Pennsylvania","lat":40.85571,"lng":-76.82319,"zip":"17876","miles_from_dt":15.04},{"city":"Dornsife","state_name":"Pennsylvania","lat":40.72099,"lng":-76.72541,"zip":"17823","miles_from_dt":15.21},{"city":"Gratz","state_name":"Pennsylvania","lat":40.60833,"lng":-76.74417,"zip":"17030","miles_from_dt":15.24},{"city":"Lykens","state_name":"Pennsylvania","lat":40.60554,"lng":-76.72669,"zip":"17048","miles_from_dt":16.17},{"city":"Newport","state_name":"Pennsylvania","lat":40.47983,"lng":-77.14456,"zip":"17074","miles_from_dt":16.21},{"city":"Hartleton","state_name":"Pennsylvania","lat":40.90057,"lng":-77.15546,"zip":"17829","miles_from_dt":16.22},{"city":"Oakland Mills","state_name":"Pennsylvania","lat":40.62084,"lng":-77.30758,"zip":"17076","miles_from_dt":16.27},{"city":"New Buffalo","state_name":"Pennsylvania","lat":40.45722,"lng":-76.97921,"zip":"17069","miles_from_dt":16.3},{"city":"Laurelton","state_name":"Pennsylvania","lat":40.88365,"lng":-77.19795,"zip":"17835","miles_from_dt":16.41},{"city":"Sunbury","state_name":"Pennsylvania","lat":40.83669,"lng":-76.75762,"zip":"17801","miles_from_dt":16.68},{"city":"Millmont","state_name":"Pennsylvania","lat":40.88308,"lng":-77.21628,"zip":"17845","miles_from_dt":16.96},{"city":"Rebuck","state_name":"Pennsylvania","lat":40.71464,"lng":-76.69025,"zip":"17867","miles_from_dt":17},{"city":"Halifax","state_name":"Pennsylvania","lat":40.49448,"lng":-76.81788,"zip":"17032","miles_from_dt":17.05},{"city":"Trevorton","state_name":"Pennsylvania","lat":40.78098,"lng":-76.68632,"zip":"17881","miles_from_dt":18.19},{"city":"McClure","state_name":"Pennsylvania","lat":40.72455,"lng":-77.35888,"zip":"17841","miles_from_dt":18.32},{"city":"Mifflinburg","state_name":"Pennsylvania","lat":40.95904,"lng":-77.08747,"zip":"17844","miles_from_dt":18.83},{"city":"Weikert","state_name":"Pennsylvania","lat":40.87042,"lng":-77.28941,"zip":"17885","miles_from_dt":19.03},{"city":"Wiconisco","state_name":"Pennsylvania","lat":40.57414,"lng":-76.67704,"zip":"17097","miles_from_dt":19.42},{"city":"Duncannon","state_name":"Pennsylvania","lat":40.41014,"lng":-77.04367,"zip":"17020","miles_from_dt":19.53},{"city":"Spring Glen","state_name":"Pennsylvania","lat":40.6165,"lng":-76.65219,"zip":"17978","miles_from_dt":19.64},{"city":"Lewisburg","state_name":"Pennsylvania","lat":40.97485,"lng":-76.94247,"zip":"17837","miles_from_dt":19.85},{"city":"Mifflintown","state_name":"Pennsylvania","lat":40.59241,"lng":-77.38165,"zip":"17059","miles_from_dt":20.58},{"city":"Sacramento","state_name":"Pennsylvania","lat":40.6417,"lng":-76.62625,"zip":"17968","miles_from_dt":20.59},{"city":"Montandon","state_name":"Pennsylvania","lat":40.9671,"lng":-76.85847,"zip":"17850","miles_from_dt":20.62},{"city":"Northumberland","state_name":"Pennsylvania","lat":40.92789,"lng":-76.76712,"zip":"17857","miles_from_dt":20.74},{"city":"Klingerstown","state_name":"Pennsylvania","lat":40.68614,"lng":-76.61472,"zip":"17941","miles_from_dt":20.9},{"city":"Mexico","state_name":"Pennsylvania","lat":40.53349,"lng":-77.35585,"zip":"17056","miles_from_dt":21.11},{"city":"Dauphin","state_name":"Pennsylvania","lat":40.40246,"lng":-76.88117,"zip":"17018","miles_from_dt":21.15},{"city":"Williamstown","state_name":"Pennsylvania","lat":40.58998,"lng":-76.63071,"zip":"17098","miles_from_dt":21.27},{"city":"New Bloomfield","state_name":"Pennsylvania","lat":40.40685,"lng":-77.17795,"zip":"17068","miles_from_dt":21.52},{"city":"Shamokin","state_name":"Pennsylvania","lat":40.7677,"lng":-76.61317,"zip":"17872","miles_from_dt":21.6},{"city":"Leck Kill","state_name":"Pennsylvania","lat":40.71446,"lng":-76.60136,"zip":"17836","miles_from_dt":21.65},{"city":"Paxinos","state_name":"Pennsylvania","lat":40.82685,"lng":-76.63402,"zip":"17860","miles_from_dt":21.93},{"city":"Snydertown","state_name":"Pennsylvania","lat":40.87622,"lng":-76.66674,"zip":"17877","miles_from_dt":22.14},{"city":"Woodward","state_name":"Pennsylvania","lat":40.90707,"lng":-77.33841,"zip":"16882","miles_from_dt":22.63},{"city":"Tower City","state_name":"Pennsylvania","lat":40.531,"lng":-76.62065,"zip":"17980","miles_from_dt":23.42},{"city":"Potts Grove","state_name":"Pennsylvania","lat":40.98688,"lng":-76.78979,"zip":"17865","miles_from_dt":23.45},{"city":"West Milton","state_name":"Pennsylvania","lat":41.01847,"lng":-76.87598,"zip":"17886","miles_from_dt":23.63},{"city":"Milton","state_name":"Pennsylvania","lat":41.00609,"lng":-76.80612,"zip":"17847","miles_from_dt":24.21},{"city":"Valley View","state_name":"Pennsylvania","lat":40.64403,"lng":-76.55027,"zip":"17983","miles_from_dt":24.51},{"city":"Coburn","state_name":"Pennsylvania","lat":40.84711,"lng":-77.4347,"zip":"16832","miles_from_dt":24.59},{"city":"Milroy","state_name":"Pennsylvania","lat":40.76274,"lng":-77.47343,"zip":"17063","miles_from_dt":24.68},{"city":"Elliottsburg","state_name":"Pennsylvania","lat":40.40992,"lng":-77.30854,"zip":"17024","miles_from_dt":24.94},{"city":"Aaronsburg","state_name":"Pennsylvania","lat":40.91995,"lng":-77.38702,"zip":"16820","miles_from_dt":25.15},{"city":"Coal Township","state_name":"Pennsylvania","lat":40.78866,"lng":-76.55035,"zip":"17866","miles_from_dt":25.16},{"city":"New Columbia","state_name":"Pennsylvania","lat":41.05636,"lng":-76.9722,"zip":"17856","miles_from_dt":25.22},{"city":"Harrisburg","state_name":"Pennsylvania","lat":40.37497,"lng":-76.77163,"zip":"17112","miles_from_dt":25.29},{"city":"Marysville","state_name":"Pennsylvania","lat":40.3255,"lng":-77.03256,"zip":"17053","miles_from_dt":25.32},{"city":"Port Royal","state_name":"Pennsylvania","lat":40.49762,"lng":-77.42579,"zip":"17082","miles_from_dt":25.55},{"city":"Rebersburg","state_name":"Pennsylvania","lat":40.96715,"lng":-77.35939,"zip":"16872","miles_from_dt":26.28},{"city":"Shermans Dale","state_name":"Pennsylvania","lat":40.32953,"lng":-77.18302,"zip":"17090","miles_from_dt":26.58},{"city":"Harrisburg","state_name":"Pennsylvania","lat":40.31776,"lng":-76.88354,"zip":"17110","miles_from_dt":26.71},{"city":"Summerdale","state_name":"Pennsylvania","lat":40.30998,"lng":-76.92817,"zip":"17093","miles_from_dt":26.74},{"city":"Hegins","state_name":"Pennsylvania","lat":40.65558,"lng":-76.50198,"zip":"17938","miles_from_dt":26.94},{"city":"Muir","state_name":"Pennsylvania","lat":40.59359,"lng":-76.51651,"zip":"17957","miles_from_dt":26.94},{"city":"Riverside","state_name":"Pennsylvania","lat":40.95536,"lng":-76.63098,"zip":"17868","miles_from_dt":27.02},{"city":"Pitman","state_name":"Pennsylvania","lat":40.71415,"lng":-76.49785,"zip":"17964","miles_from_dt":27.07},{"city":"White Deer","state_name":"Pennsylvania","lat":41.07508,"lng":-76.8849,"zip":"17887","miles_from_dt":27.26},{"city":"Enola","state_name":"Pennsylvania","lat":40.29506,"lng":-76.97731,"zip":"17025","miles_from_dt":27.46},{"city":"Grantville","state_name":"Pennsylvania","lat":40.4033,"lng":-76.65073,"zip":"17028","miles_from_dt":27.56},{"city":"Millheim","state_name":"Pennsylvania","lat":40.89697,"lng":-77.47228,"zip":"16854","miles_from_dt":27.95},{"city":"McEwensville","state_name":"Pennsylvania","lat":41.07232,"lng":-76.81352,"zip":"17749","miles_from_dt":28.23},{"city":"Harrisburg","state_name":"Pennsylvania","lat":40.29648,"lng":-76.87461,"zip":"17107","miles_from_dt":28.25},{"city":"Ickesburg","state_name":"Pennsylvania","lat":40.43329,"lng":-77.42872,"zip":"17037","miles_from_dt":28.26},{"city":"Harrisburg","state_name":"Pennsylvania","lat":40.29406,"lng":-76.87783,"zip":"17106","miles_from_dt":28.37},{"city":"Danville","state_name":"Pennsylvania","lat":40.9917,"lng":-76.63959,"zip":"17821","miles_from_dt":28.45},{"city":"Loganton","state_name":"Pennsylvania","lat":41.03847,"lng":-77.31497,"zip":"17747","miles_from_dt":28.67},{"city":"Danville","state_name":"Pennsylvania","lat":40.96861,"lng":-76.60365,"zip":"17822","miles_from_dt":28.69},{"city":"Jonestown","state_name":"Pennsylvania","lat":40.46787,"lng":-76.54895,"zip":"17038","miles_from_dt":28.88},{"city":"Allenwood","state_name":"Pennsylvania","lat":41.1123,"lng":-77.02543,"zip":"17810","miles_from_dt":29},{"city":"Elysburg","state_name":"Pennsylvania","lat":40.85652,"lng":-76.49848,"zip":"17824","miles_from_dt":29.25},{"city":"Kulpmont","state_name":"Pennsylvania","lat":40.77982,"lng":-76.46701,"zip":"17834","miles_from_dt":29.27},{"city":"Burnham","state_name":"Pennsylvania","lat":40.6359,"lng":-77.56609,"zip":"17009","miles_from_dt":29.34},{"city":"Harrisburg","state_name":"Pennsylvania","lat":40.28986,"lng":-76.82414,"zip":"17109","miles_from_dt":29.48},{"city":"Dewart","state_name":"Pennsylvania","lat":41.10677,"lng":-76.87591,"zip":"17730","miles_from_dt":29.49},{"city":"Harrisburg","state_name":"Pennsylvania","lat":40.27314,"lng":-76.88885,"zip":"17130","miles_from_dt":29.63},{"city":"Harrisburg","state_name":"Pennsylvania","lat":40.29036,"lng":-76.81259,"zip":"17177","miles_from_dt":29.65},{"city":"Harrisburg","state_name":"Pennsylvania","lat":40.27119,"lng":-76.89686,"zip":"17102","miles_from_dt":29.68},{"city":"Yeagertown","state_name":"Pennsylvania","lat":40.64535,"lng":-77.57639,"zip":"17099","miles_from_dt":29.8},{"city":"Harrisburg","state_name":"Pennsylvania","lat":40.27499,"lng":-76.86326,"zip":"17103","miles_from_dt":29.84},{"city":"Watsontown","state_name":"Pennsylvania","lat":41.10332,"lng":-76.82678,"zip":"17777","miles_from_dt":30}],"targetCityZipCode":"17853","targetCityState":"Pennsylvania"},"__N_SSG":true}