{"pageProps":{"stateName":"Pennsylvania","cityName":"richland","nearbyCities":[{"city":"Mount Aetna","state_name":"Pennsylvania","lat":40.41669,"lng":-76.29619,"zip":"19544","miles_from_dt":1.89},{"city":"Womelsdorf","state_name":"Pennsylvania","lat":40.3957,"lng":-76.20989,"zip":"19567","miles_from_dt":2.91},{"city":"Myerstown","state_name":"Pennsylvania","lat":40.38848,"lng":-76.31583,"zip":"17067","miles_from_dt":2.99},{"city":"Rehrersburg","state_name":"Pennsylvania","lat":40.45593,"lng":-76.25055,"zip":"19550","miles_from_dt":3.56},{"city":"Bethel","state_name":"Pennsylvania","lat":40.49268,"lng":-76.28235,"zip":"19507","miles_from_dt":6.11},{"city":"Robesonia","state_name":"Pennsylvania","lat":40.35951,"lng":-76.14213,"zip":"19551","miles_from_dt":7.14},{"city":"Newmanstown","state_name":"Pennsylvania","lat":40.30047,"lng":-76.25924,"zip":"17073","miles_from_dt":7.23},{"city":"Strausstown","state_name":"Pennsylvania","lat":40.49234,"lng":-76.18661,"zip":"19559","miles_from_dt":7.25},{"city":"Schaefferstown","state_name":"Pennsylvania","lat":40.30046,"lng":-76.295,"zip":"17088","miles_from_dt":7.42},{"city":"Kleinfeltersville","state_name":"Pennsylvania","lat":40.2928,"lng":-76.24077,"zip":"17039","miles_from_dt":7.85},{"city":"Bernville","state_name":"Pennsylvania","lat":40.45873,"lng":-76.12379,"zip":"19506","miles_from_dt":8.24},{"city":"Lebanon","state_name":"Pennsylvania","lat":40.38242,"lng":-76.4306,"zip":"17046","miles_from_dt":8.95},{"city":"Fredericksburg","state_name":"Pennsylvania","lat":40.46734,"lng":-76.43626,"zip":"17026","miles_from_dt":10.06},{"city":"Wernersville","state_name":"Pennsylvania","lat":40.34231,"lng":-76.08873,"zip":"19565","miles_from_dt":10.2},{"city":"Rexmont","state_name":"Pennsylvania","lat":40.27885,"lng":-76.3832,"zip":"17085","miles_from_dt":10.77},{"city":"Ravine","state_name":"Pennsylvania","lat":40.55922,"lng":-76.33073,"zip":"17966","miles_from_dt":11.2},{"city":"Shartlesville","state_name":"Pennsylvania","lat":40.51288,"lng":-76.10377,"zip":"19554","miles_from_dt":11.23},{"city":"Lebanon","state_name":"Pennsylvania","lat":40.29488,"lng":-76.42271,"zip":"17042","miles_from_dt":11.34},{"city":"Summit Station","state_name":"Pennsylvania","lat":40.56729,"lng":-76.20207,"zip":"17979","miles_from_dt":11.64},{"city":"Hopeland","state_name":"Pennsylvania","lat":40.23452,"lng":-76.26784,"zip":"17533","miles_from_dt":11.78},{"city":"Cornwall","state_name":"Pennsylvania","lat":40.27322,"lng":-76.40705,"zip":"17016","miles_from_dt":11.85},{"city":"Quentin","state_name":"Pennsylvania","lat":40.33791,"lng":-76.47433,"zip":"17083","miles_from_dt":12.05},{"city":"Schuylkill Haven","state_name":"Pennsylvania","lat":40.58199,"lng":-76.21367,"zip":"17972","miles_from_dt":12.48},{"city":"Reinholds","state_name":"Pennsylvania","lat":40.27043,"lng":-76.09652,"zip":"17569","miles_from_dt":12.82},{"city":"Pine Grove","state_name":"Pennsylvania","lat":40.56133,"lng":-76.39548,"zip":"17963","miles_from_dt":12.82},{"city":"Denver","state_name":"Pennsylvania","lat":40.24402,"lng":-76.13151,"zip":"17517","miles_from_dt":13.13},{"city":"Mohrsville","state_name":"Pennsylvania","lat":40.47821,"lng":-76.02597,"zip":"19541","miles_from_dt":13.5},{"city":"Reading","state_name":"Pennsylvania","lat":40.31401,"lng":-76.03574,"zip":"19608","miles_from_dt":13.57},{"city":"Stevens","state_name":"Pennsylvania","lat":40.22397,"lng":-76.16405,"zip":"17578","miles_from_dt":13.57},{"city":"Friedensburg","state_name":"Pennsylvania","lat":40.60357,"lng":-76.24244,"zip":"17933","miles_from_dt":13.73},{"city":"Ono","state_name":"Pennsylvania","lat":40.40232,"lng":-76.53651,"zip":"17077","miles_from_dt":14.4},{"city":"Leesport","state_name":"Pennsylvania","lat":40.42245,"lng":-75.99021,"zip":"19533","miles_from_dt":14.47},{"city":"Elm","state_name":"Pennsylvania","lat":40.20369,"lng":-76.34792,"zip":"17521","miles_from_dt":14.6},{"city":"Centerport","state_name":"Pennsylvania","lat":40.48686,"lng":-76.00526,"zip":"19516","miles_from_dt":14.74},{"city":"Penryn","state_name":"Pennsylvania","lat":40.20546,"lng":-76.37044,"zip":"17564","miles_from_dt":14.9},{"city":"Reading","state_name":"Pennsylvania","lat":40.32774,"lng":-75.99622,"zip":"19609","miles_from_dt":15.09},{"city":"Auburn","state_name":"Pennsylvania","lat":40.592,"lng":-76.11212,"zip":"17922","miles_from_dt":15.16},{"city":"Reamstown","state_name":"Pennsylvania","lat":40.21244,"lng":-76.12343,"zip":"17567","miles_from_dt":15.22},{"city":"Lititz","state_name":"Pennsylvania","lat":40.18217,"lng":-76.30038,"zip":"17543","miles_from_dt":15.51},{"city":"Adamstown","state_name":"Pennsylvania","lat":40.24314,"lng":-76.05822,"zip":"19501","miles_from_dt":15.58},{"city":"Jonestown","state_name":"Pennsylvania","lat":40.46787,"lng":-76.54895,"zip":"17038","miles_from_dt":15.65},{"city":"Annville","state_name":"Pennsylvania","lat":40.35735,"lng":-76.55528,"zip":"17003","miles_from_dt":15.74},{"city":"Reading","state_name":"Pennsylvania","lat":40.34015,"lng":-75.97612,"zip":"19610","miles_from_dt":15.82},{"city":"Mount Gretna","state_name":"Pennsylvania","lat":40.24135,"lng":-76.47553,"zip":"17064","miles_from_dt":15.91},{"city":"Cressona","state_name":"Pennsylvania","lat":40.63104,"lng":-76.19273,"zip":"17929","miles_from_dt":16.02},{"city":"Ephrata","state_name":"Pennsylvania","lat":40.17499,"lng":-76.17009,"zip":"17522","miles_from_dt":16.64},{"city":"Reading","state_name":"Pennsylvania","lat":40.39917,"lng":-75.94596,"zip":"19605","miles_from_dt":16.76},{"city":"Tremont","state_name":"Pennsylvania","lat":40.63077,"lng":-76.39523,"zip":"17981","miles_from_dt":17.04},{"city":"Hamburg","state_name":"Pennsylvania","lat":40.5465,"lng":-75.99802,"zip":"19526","miles_from_dt":17.05},{"city":"Akron","state_name":"Pennsylvania","lat":40.15697,"lng":-76.20532,"zip":"17501","miles_from_dt":17.4},{"city":"Reading","state_name":"Pennsylvania","lat":40.3526,"lng":-75.9408,"zip":"19601","miles_from_dt":17.41},{"city":"Port Clinton","state_name":"Pennsylvania","lat":40.58176,"lng":-76.02672,"zip":"19549","miles_from_dt":17.44},{"city":"Shoemakersville","state_name":"Pennsylvania","lat":40.49335,"lng":-75.94993,"zip":"19555","miles_from_dt":17.61},{"city":"Llewellyn","state_name":"Pennsylvania","lat":40.6605,"lng":-76.28903,"zip":"17944","miles_from_dt":17.66},{"city":"Reading","state_name":"Pennsylvania","lat":40.32473,"lng":-75.9411,"zip":"19611","miles_from_dt":17.9},{"city":"Branchdale","state_name":"Pennsylvania","lat":40.66136,"lng":-76.31871,"zip":"17923","miles_from_dt":17.91},{"city":"Reading","state_name":"Pennsylvania","lat":40.34008,"lng":-75.93014,"zip":"19603","miles_from_dt":18.16},{"city":"Manheim","state_name":"Pennsylvania","lat":40.17307,"lng":-76.42792,"zip":"17545","miles_from_dt":18.22},{"city":"Reading","state_name":"Pennsylvania","lat":40.29147,"lng":-75.94521,"zip":"19607","miles_from_dt":18.55},{"city":"Muir","state_name":"Pennsylvania","lat":40.59359,"lng":-76.51651,"zip":"17957","miles_from_dt":18.61},{"city":"Reading","state_name":"Pennsylvania","lat":40.36608,"lng":-75.91368,"zip":"19612","miles_from_dt":18.66},{"city":"Palmyra","state_name":"Pennsylvania","lat":40.28952,"lng":-76.58484,"zip":"17078","miles_from_dt":18.75},{"city":"Mar Lin","state_name":"Pennsylvania","lat":40.67919,"lng":-76.24425,"zip":"17951","miles_from_dt":18.93},{"city":"Reading","state_name":"Pennsylvania","lat":40.35791,"lng":-75.90954,"zip":"19604","miles_from_dt":18.96},{"city":"Campbelltown","state_name":"Pennsylvania","lat":40.27809,"lng":-76.58335,"zip":"17010","miles_from_dt":19.03},{"city":"Reading","state_name":"Pennsylvania","lat":40.32695,"lng":-75.91701,"zip":"19602","miles_from_dt":19.07},{"city":"Bowmansville","state_name":"Pennsylvania","lat":40.19806,"lng":-76.01624,"zip":"17507","miles_from_dt":19.37},{"city":"Brownstown","state_name":"Pennsylvania","lat":40.12455,"lng":-76.21394,"zip":"17508","miles_from_dt":19.54},{"city":"Lawn","state_name":"Pennsylvania","lat":40.21667,"lng":-76.5395,"zip":"17041","miles_from_dt":19.54},{"city":"Mohnton","state_name":"Pennsylvania","lat":40.23714,"lng":-75.9658,"zip":"19540","miles_from_dt":19.54},{"city":"Minersville","state_name":"Pennsylvania","lat":40.69047,"lng":-76.25985,"zip":"17954","miles_from_dt":19.68},{"city":"Temple","state_name":"Pennsylvania","lat":40.40053,"lng":-75.88993,"zip":"19560","miles_from_dt":19.71},{"city":"Orwigsburg","state_name":"Pennsylvania","lat":40.64713,"lng":-76.05988,"zip":"17961","miles_from_dt":19.84},{"city":"Martindale","state_name":"Pennsylvania","lat":40.15,"lng":-76.09001,"zip":"17549","miles_from_dt":19.86},{"city":"Pottsville","state_name":"Pennsylvania","lat":40.69364,"lng":-76.25526,"zip":"17901","miles_from_dt":19.91},{"city":"Talmage","state_name":"Pennsylvania","lat":40.11651,"lng":-76.21281,"zip":"17580","miles_from_dt":20.1},{"city":"Seltzer","state_name":"Pennsylvania","lat":40.69592,"lng":-76.23606,"zip":"17974","miles_from_dt":20.11},{"city":"Blandon","state_name":"Pennsylvania","lat":40.44551,"lng":-75.88179,"zip":"19510","miles_from_dt":20.32},{"city":"Lancaster","state_name":"Pennsylvania","lat":40.11174,"lng":-76.30401,"zip":"17606","miles_from_dt":20.36},{"city":"Terre Hill","state_name":"Pennsylvania","lat":40.15617,"lng":-76.05535,"zip":"17581","miles_from_dt":20.4},{"city":"Grantville","state_name":"Pennsylvania","lat":40.4033,"lng":-76.65073,"zip":"17028","miles_from_dt":20.42},{"city":"Tower City","state_name":"Pennsylvania","lat":40.531,"lng":-76.62065,"zip":"17980","miles_from_dt":20.72},{"city":"Port Carbon","state_name":"Pennsylvania","lat":40.69919,"lng":-76.16536,"zip":"17965","miles_from_dt":20.93},{"city":"Hegins","state_name":"Pennsylvania","lat":40.65558,"lng":-76.50198,"zip":"17938","miles_from_dt":21.35},{"city":"Hershey","state_name":"Pennsylvania","lat":40.26829,"lng":-76.62754,"zip":"17033","miles_from_dt":21.42},{"city":"Leola","state_name":"Pennsylvania","lat":40.09877,"lng":-76.1888,"zip":"17540","miles_from_dt":21.51},{"city":"East Petersburg","state_name":"Pennsylvania","lat":40.09813,"lng":-76.34897,"zip":"17520","miles_from_dt":21.66},{"city":"Reading","state_name":"Pennsylvania","lat":40.3357,"lng":-75.85755,"zip":"19606","miles_from_dt":21.96},{"city":"Virginville","state_name":"Pennsylvania","lat":40.51926,"lng":-75.87403,"zip":"19564","miles_from_dt":21.99},{"city":"Saint Clair","state_name":"Pennsylvania","lat":40.72072,"lng":-76.19056,"zip":"17970","miles_from_dt":22.11},{"city":"East Earl","state_name":"Pennsylvania","lat":40.14278,"lng":-76.02145,"zip":"17519","miles_from_dt":22.17},{"city":"Cumbola","state_name":"Pennsylvania","lat":40.70867,"lng":-76.11529,"zip":"17930","miles_from_dt":22.34},{"city":"Valley View","state_name":"Pennsylvania","lat":40.64403,"lng":-76.55027,"zip":"17983","miles_from_dt":22.35},{"city":"Blue Ball","state_name":"Pennsylvania","lat":40.11718,"lng":-76.0527,"zip":"17506","miles_from_dt":22.79},{"city":"Lancaster","state_name":"Pennsylvania","lat":40.07296,"lng":-76.31457,"zip":"17601","miles_from_dt":23.08},{"city":"New Holland","state_name":"Pennsylvania","lat":40.10328,"lng":-76.07543,"zip":"17557","miles_from_dt":23.09},{"city":"Williamstown","state_name":"Pennsylvania","lat":40.58998,"lng":-76.63071,"zip":"17098","miles_from_dt":23.16},{"city":"Landisville","state_name":"Pennsylvania","lat":40.08804,"lng":-76.41528,"zip":"17538","miles_from_dt":23.31},{"city":"Lenhartsville","state_name":"Pennsylvania","lat":40.57813,"lng":-75.88111,"zip":"19534","miles_from_dt":23.41},{"city":"Goodville","state_name":"Pennsylvania","lat":40.12811,"lng":-75.99895,"zip":"17528","miles_from_dt":23.69},{"city":"Fleetwood","state_name":"Pennsylvania","lat":40.44948,"lng":-75.81676,"zip":"19522","miles_from_dt":23.76},{"city":"New Philadelphia","state_name":"Pennsylvania","lat":40.74224,"lng":-76.15141,"zip":"17959","miles_from_dt":23.99},{"city":"Gordon","state_name":"Pennsylvania","lat":40.75048,"lng":-76.33997,"zip":"17936","miles_from_dt":24.16},{"city":"Bird In Hand","state_name":"Pennsylvania","lat":40.05915,"lng":-76.18999,"zip":"17505","miles_from_dt":24.19},{"city":"Mount Joy","state_name":"Pennsylvania","lat":40.10935,"lng":-76.51174,"zip":"17552","miles_from_dt":24.27},{"city":"Hummelstown","state_name":"Pennsylvania","lat":40.28579,"lng":-76.69611,"zip":"17036","miles_from_dt":24.28},{"city":"Lancaster","state_name":"Pennsylvania","lat":40.0577,"lng":-76.33731,"zip":"17604","miles_from_dt":24.29},{"city":"Lancaster","state_name":"Pennsylvania","lat":40.05,"lng":-76.25005,"zip":"17605","miles_from_dt":24.52},{"city":"Elizabethtown","state_name":"Pennsylvania","lat":40.16677,"lng":-76.60823,"zip":"17022","miles_from_dt":24.54},{"city":"Birdsboro","state_name":"Pennsylvania","lat":40.25913,"lng":-75.83984,"zip":"19508","miles_from_dt":24.54},{"city":"Ashland","state_name":"Pennsylvania","lat":40.75422,"lng":-76.35732,"zip":"17921","miles_from_dt":24.58},{"city":"Pitman","state_name":"Pennsylvania","lat":40.71415,"lng":-76.49785,"zip":"17964","miles_from_dt":24.62},{"city":"Wiconisco","state_name":"Pennsylvania","lat":40.57414,"lng":-76.67704,"zip":"17097","miles_from_dt":24.7},{"city":"Witmer","state_name":"Pennsylvania","lat":40.04718,"lng":-76.21116,"zip":"17585","miles_from_dt":24.86},{"city":"Lancaster","state_name":"Pennsylvania","lat":40.05004,"lng":-76.36006,"zip":"17607","miles_from_dt":25.03},{"city":"Limekiln","state_name":"Pennsylvania","lat":40.3394,"lng":-75.79537,"zip":"19535","miles_from_dt":25.12},{"city":"Sacramento","state_name":"Pennsylvania","lat":40.6417,"lng":-76.62625,"zip":"17968","miles_from_dt":25.12},{"city":"Spring Glen","state_name":"Pennsylvania","lat":40.6165,"lng":-76.65219,"zip":"17978","miles_from_dt":25.13},{"city":"Middleport","state_name":"Pennsylvania","lat":40.74728,"lng":-76.09969,"zip":"17953","miles_from_dt":25.13},{"city":"Lancaster","state_name":"Pennsylvania","lat":40.04187,"lng":-76.30012,"zip":"17699","miles_from_dt":25.14},{"city":"Narvon","state_name":"Pennsylvania","lat":40.12075,"lng":-75.96514,"zip":"17555","miles_from_dt":25.18},{"city":"Rheems","state_name":"Pennsylvania","lat":40.12574,"lng":-76.57035,"zip":"17570","miles_from_dt":25.2},{"city":"Silver Spring","state_name":"Pennsylvania","lat":40.06372,"lng":-76.43579,"zip":"17575","miles_from_dt":25.26},{"city":"Morgantown","state_name":"Pennsylvania","lat":40.1697,"lng":-75.89635,"zip":"19543","miles_from_dt":25.31},{"city":"Lancaster","state_name":"Pennsylvania","lat":40.04002,"lng":-76.31005,"zip":"17608","miles_from_dt":25.32},{"city":"Lancaster","state_name":"Pennsylvania","lat":40.04,"lng":-76.31219,"zip":"17622","miles_from_dt":25.33},{"city":"Lavelle","state_name":"Pennsylvania","lat":40.76161,"lng":-76.37949,"zip":"17943","miles_from_dt":25.34},{"city":"Smoketown","state_name":"Pennsylvania","lat":40.03561,"lng":-76.19782,"zip":"17576","miles_from_dt":25.74},{"city":"Geigertown","state_name":"Pennsylvania","lat":40.20116,"lng":-75.84974,"zip":"19523","miles_from_dt":26},{"city":"Frackville","state_name":"Pennsylvania","lat":40.78269,"lng":-76.23214,"zip":"17932","miles_from_dt":26.1},{"city":"Frackville","state_name":"Pennsylvania","lat":40.78378,"lng":-76.21638,"zip":"17931","miles_from_dt":26.24},{"city":"Brockton","state_name":"Pennsylvania","lat":40.75609,"lng":-76.07047,"zip":"17925","miles_from_dt":26.25},{"city":"New Ringgold","state_name":"Pennsylvania","lat":40.69932,"lng":-75.94656,"zip":"17960","miles_from_dt":26.27},{"city":"Oley","state_name":"Pennsylvania","lat":40.38315,"lng":-75.76644,"zip":"19547","miles_from_dt":26.27},{"city":"Kempton","state_name":"Pennsylvania","lat":40.63387,"lng":-75.86158,"zip":"19529","miles_from_dt":26.4},{"city":"Lancaster","state_name":"Pennsylvania","lat":40.02885,"lng":-76.16733,"zip":"17573","miles_from_dt":26.46},{"city":"Bausman","state_name":"Pennsylvania","lat":40.02448,"lng":-76.32855,"zip":"17504","miles_from_dt":26.49},{"city":"Gordonville","state_name":"Pennsylvania","lat":40.04036,"lng":-76.10008,"zip":"17529","miles_from_dt":26.62},{"city":"Intercourse","state_name":"Pennsylvania","lat":40.03665,"lng":-76.11214,"zip":"17534","miles_from_dt":26.66},{"city":"Mountville","state_name":"Pennsylvania","lat":40.03923,"lng":-76.42584,"zip":"17554","miles_from_dt":26.67},{"city":"Klingerstown","state_name":"Pennsylvania","lat":40.68614,"lng":-76.61472,"zip":"17941","miles_from_dt":26.78},{"city":"Locustdale","state_name":"Pennsylvania","lat":40.78458,"lng":-76.37523,"zip":"17945","miles_from_dt":26.83},{"city":"Girardville","state_name":"Pennsylvania","lat":40.79417,"lng":-76.28,"zip":"17935","miles_from_dt":26.85},{"city":"Harrisburg","state_name":"Pennsylvania","lat":40.37497,"lng":-76.77163,"zip":"17112","miles_from_dt":26.89},{"city":"Lancaster","state_name":"Pennsylvania","lat":40.01486,"lng":-76.24632,"zip":"17602","miles_from_dt":26.95},{"city":"Mary D","state_name":"Pennsylvania","lat":40.76434,"lng":-76.05997,"zip":"17952","miles_from_dt":26.99},{"city":"Mahanoy Plane","state_name":"Pennsylvania","lat":40.79624,"lng":-76.23547,"zip":"17949","miles_from_dt":27.02},{"city":"Locust Gap","state_name":"Pennsylvania","lat":40.77537,"lng":-76.43291,"zip":"17840","miles_from_dt":27.05},{"city":"Lyon Station","state_name":"Pennsylvania","lat":40.48069,"lng":-75.75891,"zip":"19536","miles_from_dt":27.11},{"city":"Gilberton","state_name":"Pennsylvania","lat":40.79786,"lng":-76.21205,"zip":"17934","miles_from_dt":27.23},{"city":"Kutztown","state_name":"Pennsylvania","lat":40.54012,"lng":-75.77675,"zip":"19530","miles_from_dt":27.29},{"city":"Lancaster","state_name":"Pennsylvania","lat":40.0127,"lng":-76.35287,"zip":"17603","miles_from_dt":27.49},{"city":"Tuscarora","state_name":"Pennsylvania","lat":40.76798,"lng":-76.03827,"zip":"17982","miles_from_dt":27.69},{"city":"Leck Kill","state_name":"Pennsylvania","lat":40.71446,"lng":-76.60136,"zip":"17836","miles_from_dt":27.77},{"city":"Columbia","state_name":"Pennsylvania","lat":40.04,"lng":-76.48558,"zip":"17512","miles_from_dt":27.8},{"city":"Lancaster","state_name":"Pennsylvania","lat":40.01,"lng":-76.37219,"zip":"17611","miles_from_dt":27.87},{"city":"Bowers","state_name":"Pennsylvania","lat":40.48473,"lng":-75.74381,"zip":"19511","miles_from_dt":27.94},{"city":"Ronks","state_name":"Pennsylvania","lat":40.00937,"lng":-76.15105,"zip":"17572","miles_from_dt":27.95},{"city":"Kulpmont","state_name":"Pennsylvania","lat":40.77982,"lng":-76.46701,"zip":"17834","miles_from_dt":27.97},{"city":"Lykens","state_name":"Pennsylvania","lat":40.60554,"lng":-76.72669,"zip":"17048","miles_from_dt":28.04},{"city":"Lost Creek","state_name":"Pennsylvania","lat":40.8123,"lng":-76.2449,"zip":"17946","miles_from_dt":28.11},{"city":"Aristes","state_name":"Pennsylvania","lat":40.81328,"lng":-76.32989,"zip":"17920","miles_from_dt":28.37},{"city":"Maytown","state_name":"Pennsylvania","lat":40.07492,"lng":-76.58339,"zip":"17550","miles_from_dt":28.38},{"city":"Earlville","state_name":"Pennsylvania","lat":40.315,"lng":-75.73839,"zip":"19519","miles_from_dt":28.41},{"city":"Middletown","state_name":"Pennsylvania","lat":40.19437,"lng":-76.72659,"zip":"17057","miles_from_dt":28.46},{"city":"Douglassville","state_name":"Pennsylvania","lat":40.27187,"lng":-75.74981,"zip":"19518","miles_from_dt":28.64},{"city":"Marietta","state_name":"Pennsylvania","lat":40.07056,"lng":-76.58436,"zip":"17547","miles_from_dt":28.65},{"city":"Shenandoah","state_name":"Pennsylvania","lat":40.8204,"lng":-76.21131,"zip":"17976","miles_from_dt":28.78},{"city":"Mount Carmel","state_name":"Pennsylvania","lat":40.80255,"lng":-76.433,"zip":"17851","miles_from_dt":28.83},{"city":"Lampeter","state_name":"Pennsylvania","lat":39.98673,"lng":-76.23869,"zip":"17537","miles_from_dt":28.9},{"city":"Gratz","state_name":"Pennsylvania","lat":40.60833,"lng":-76.74417,"zip":"17030","miles_from_dt":28.93},{"city":"Harrisburg","state_name":"Pennsylvania","lat":40.27041,"lng":-76.78265,"zip":"17111","miles_from_dt":28.94},{"city":"Wilburton","state_name":"Pennsylvania","lat":40.81931,"lng":-76.37306,"zip":"17888","miles_from_dt":29.15},{"city":"Barnesville","state_name":"Pennsylvania","lat":40.80667,"lng":-76.08093,"zip":"18214","miles_from_dt":29.32},{"city":"Marion Heights","state_name":"Pennsylvania","lat":40.80554,"lng":-76.45499,"zip":"17832","miles_from_dt":29.4},{"city":"Kinzers","state_name":"Pennsylvania","lat":40.01224,"lng":-76.03813,"zip":"17535","miles_from_dt":29.62},{"city":"Mahanoy City","state_name":"Pennsylvania","lat":40.82485,"lng":-76.14223,"zip":"17948","miles_from_dt":29.65},{"city":"Tamaqua","state_name":"Pennsylvania","lat":40.77857,"lng":-75.97893,"zip":"18252","miles_from_dt":29.8},{"city":"Elverson","state_name":"Pennsylvania","lat":40.15968,"lng":-75.79959,"zip":"19520","miles_from_dt":29.8},{"city":"Halifax","state_name":"Pennsylvania","lat":40.49448,"lng":-76.81788,"zip":"17032","miles_from_dt":29.86},{"city":"Bainbridge","state_name":"Pennsylvania","lat":40.10081,"lng":-76.66732,"zip":"17502","miles_from_dt":29.95},{"city":"Honey Brook","state_name":"Pennsylvania","lat":40.08279,"lng":-75.88338,"zip":"19344","miles_from_dt":29.98},{"city":"Millersville","state_name":"Pennsylvania","lat":39.97911,"lng":-76.37608,"zip":"17551","miles_from_dt":30}],"targetCityZipCode":"17087","targetCityState":"Pennsylvania"},"__N_SSG":true}