{"pageProps":{"stateName":"Pennsylvania","cityName":"sabinsville","nearbyCities":[{"city":"Westfield","state_name":"Pennsylvania","lat":41.89816,"lng":-77.53429,"zip":"16950","miles_from_dt":5.91},{"city":"Ulysses","state_name":"Pennsylvania","lat":41.85369,"lng":-77.75683,"zip":"16948","miles_from_dt":7.16},{"city":"Harrison Valley","state_name":"Pennsylvania","lat":41.9655,"lng":-77.65941,"zip":"16927","miles_from_dt":8.87},{"city":"Mills","state_name":"Pennsylvania","lat":41.96421,"lng":-77.71004,"zip":"16937","miles_from_dt":9.73},{"city":"Gaines","state_name":"Pennsylvania","lat":41.69614,"lng":-77.54654,"zip":"16921","miles_from_dt":10.65},{"city":"Knoxville","state_name":"Pennsylvania","lat":41.95203,"lng":-77.43371,"zip":"16928","miles_from_dt":12.27},{"city":"Galeton","state_name":"Pennsylvania","lat":41.67191,"lng":-77.70064,"zip":"16922","miles_from_dt":12.38},{"city":"Genesee","state_name":"Pennsylvania","lat":41.98841,"lng":-77.75796,"zip":"16941","miles_from_dt":12.46},{"city":"Troupsburg","state_name":"New York","lat":42.048,"lng":-77.57117,"zip":"14885","miles_from_dt":14.53},{"city":"Genesee","state_name":"Pennsylvania","lat":41.94103,"lng":-77.8761,"zip":"16923","miles_from_dt":14.95},{"city":"Middlebury Center","state_name":"Pennsylvania","lat":41.87032,"lng":-77.32404,"zip":"16935","miles_from_dt":15.36},{"city":"Rexville","state_name":"New York","lat":42.06181,"lng":-77.68384,"zip":"14877","miles_from_dt":15.63},{"city":"Whitesville","state_name":"New York","lat":42.02949,"lng":-77.79076,"zip":"14897","miles_from_dt":15.75},{"city":"Osceola","state_name":"Pennsylvania","lat":41.9654,"lng":-77.35414,"zip":"16942","miles_from_dt":16.15},{"city":"Wellsboro","state_name":"Pennsylvania","lat":41.73038,"lng":-77.31841,"zip":"16901","miles_from_dt":17.3},{"city":"Woodhull","state_name":"New York","lat":42.05729,"lng":-77.43482,"zip":"14898","miles_from_dt":17.72},{"city":"Coudersport","state_name":"Pennsylvania","lat":41.77481,"lng":-77.96104,"zip":"16915","miles_from_dt":18.23},{"city":"Elkland","state_name":"Pennsylvania","lat":41.98218,"lng":-77.28851,"zip":"16920","miles_from_dt":19.65},{"city":"Greenwood","state_name":"New York","lat":42.13961,"lng":-77.64331,"zip":"14839","miles_from_dt":20.67},{"city":"Jasper","state_name":"New York","lat":42.13978,"lng":-77.50112,"zip":"14855","miles_from_dt":21.52},{"city":"Nelson","state_name":"Pennsylvania","lat":41.97752,"lng":-77.23373,"zip":"16940","miles_from_dt":22},{"city":"Cedar Run","state_name":"Pennsylvania","lat":41.53904,"lng":-77.47914,"zip":"17727","miles_from_dt":22.04},{"city":"Wellsville","state_name":"New York","lat":42.07772,"lng":-77.93387,"zip":"14895","miles_from_dt":23.04},{"city":"Andover","state_name":"New York","lat":42.15543,"lng":-77.78662,"zip":"14806","miles_from_dt":23.38},{"city":"Morris","state_name":"Pennsylvania","lat":41.56935,"lng":-77.34487,"zip":"16938","miles_from_dt":23.49},{"city":"Slate Run","state_name":"Pennsylvania","lat":41.49939,"lng":-77.50073,"zip":"17769","miles_from_dt":24.33},{"city":"Cross Fork","state_name":"Pennsylvania","lat":41.49798,"lng":-77.74106,"zip":"17729","miles_from_dt":24.47},{"city":"Addison","state_name":"New York","lat":42.09718,"lng":-77.28461,"zip":"14801","miles_from_dt":24.71},{"city":"Tioga","state_name":"Pennsylvania","lat":41.91422,"lng":-77.13999,"zip":"16946","miles_from_dt":25.23},{"city":"Lawrenceville","state_name":"Pennsylvania","lat":41.97352,"lng":-77.15028,"zip":"16929","miles_from_dt":25.86},{"city":"Alma","state_name":"New York","lat":42.01424,"lng":-78.06988,"zip":"14708","miles_from_dt":26.14},{"city":"Roulette","state_name":"Pennsylvania","lat":41.79064,"lng":-78.13858,"zip":"16746","miles_from_dt":27.04},{"city":"Cameron Mills","state_name":"New York","lat":42.18629,"lng":-77.36258,"zip":"14820","miles_from_dt":27.27},{"city":"Canisteo","state_name":"New York","lat":42.23984,"lng":-77.5722,"zip":"14823","miles_from_dt":27.66},{"city":"Austin","state_name":"Pennsylvania","lat":41.5793,"lng":-78.02599,"zip":"16720","miles_from_dt":27.71},{"city":"Cameron","state_name":"New York","lat":42.21924,"lng":-77.43466,"zip":"14819","miles_from_dt":27.8},{"city":"Shinglehouse","state_name":"Pennsylvania","lat":41.9427,"lng":-78.14425,"zip":"16748","miles_from_dt":27.98},{"city":"Lindley","state_name":"New York","lat":42.02909,"lng":-77.13315,"zip":"14858","miles_from_dt":28.22},{"city":"Allentown","state_name":"New York","lat":42.08256,"lng":-78.06196,"zip":"14707","miles_from_dt":28.27},{"city":"Mansfield","state_name":"Pennsylvania","lat":41.81904,"lng":-77.06716,"zip":"16933","miles_from_dt":28.53},{"city":"Arnot","state_name":"Pennsylvania","lat":41.67787,"lng":-77.10392,"zip":"16911","miles_from_dt":28.9},{"city":"Scio","state_name":"New York","lat":42.17363,"lng":-77.97334,"zip":"14880","miles_from_dt":29.34},{"city":"Cammal","state_name":"Pennsylvania","lat":41.43125,"lng":-77.45629,"zip":"17723","miles_from_dt":29.48},{"city":"Alfred Station","state_name":"New York","lat":42.25135,"lng":-77.78808,"zip":"14803","miles_from_dt":29.65},{"city":"Alfred","state_name":"New York","lat":42.2537,"lng":-77.78989,"zip":"14802","miles_from_dt":29.83}],"targetCityZipCode":"16943","targetCityState":"Pennsylvania"},"__N_SSG":true}