{"pageProps":{"stateName":"Pennsylvania","cityName":"shunk","nearbyCities":[{"city":"Forksville","state_name":"Pennsylvania","lat":41.51907,"lng":-76.63954,"zip":"18616","miles_from_dt":5.92},{"city":"Canton","state_name":"Pennsylvania","lat":41.63827,"lng":-76.80034,"zip":"17724","miles_from_dt":6.91},{"city":"Hillsgrove","state_name":"Pennsylvania","lat":41.43574,"lng":-76.7195,"zip":"18619","miles_from_dt":7.77},{"city":"Grover","state_name":"Pennsylvania","lat":41.61486,"lng":-76.86716,"zip":"17735","miles_from_dt":7.79},{"city":"Ralston","state_name":"Pennsylvania","lat":41.50999,"lng":-76.91388,"zip":"17763","miles_from_dt":8.98},{"city":"Alba","state_name":"Pennsylvania","lat":41.70477,"lng":-76.83124,"zip":"16910","miles_from_dt":11.76},{"city":"Roaring Branch","state_name":"Pennsylvania","lat":41.57591,"lng":-76.97168,"zip":"17765","miles_from_dt":11.79},{"city":"Granville Summit","state_name":"Pennsylvania","lat":41.71506,"lng":-76.70485,"zip":"16926","miles_from_dt":11.85},{"city":"Eagles Mere","state_name":"Pennsylvania","lat":41.42713,"lng":-76.57293,"zip":"17731","miles_from_dt":12.24},{"city":"Monroeton","state_name":"Pennsylvania","lat":41.67625,"lng":-76.55639,"zip":"18832","miles_from_dt":13.36},{"city":"New Albany","state_name":"Pennsylvania","lat":41.59433,"lng":-76.46515,"zip":"18833","miles_from_dt":15.01},{"city":"Troy","state_name":"Pennsylvania","lat":41.76969,"lng":-76.79519,"zip":"16947","miles_from_dt":15.61},{"city":"Williamsport","state_name":"Pennsylvania","lat":41.34206,"lng":-76.88821,"zip":"17701","miles_from_dt":15.87},{"city":"Morris Run","state_name":"Pennsylvania","lat":41.68097,"lng":-77.0141,"zip":"16939","miles_from_dt":16.63},{"city":"Muncy Valley","state_name":"Pennsylvania","lat":41.35234,"lng":-76.55155,"zip":"17758","miles_from_dt":16.82},{"city":"Trout Run","state_name":"Pennsylvania","lat":41.43137,"lng":-77.04524,"zip":"17771","miles_from_dt":17.36},{"city":"Laporte","state_name":"Pennsylvania","lat":41.41136,"lng":-76.4635,"zip":"18626","miles_from_dt":17.44},{"city":"Montoursville","state_name":"Pennsylvania","lat":41.31108,"lng":-76.88421,"zip":"17754","miles_from_dt":17.71},{"city":"Burlington","state_name":"Pennsylvania","lat":41.78151,"lng":-76.60121,"zip":"18814","miles_from_dt":17.91},{"city":"Blossburg","state_name":"Pennsylvania","lat":41.66803,"lng":-77.05845,"zip":"16912","miles_from_dt":18.16},{"city":"Hughesville","state_name":"Pennsylvania","lat":41.28673,"lng":-76.68149,"zip":"17737","miles_from_dt":18.24},{"city":"Picture Rocks","state_name":"Pennsylvania","lat":41.28326,"lng":-76.70751,"zip":"17762","miles_from_dt":18.27},{"city":"Mainesburg","state_name":"Pennsylvania","lat":41.77574,"lng":-76.94017,"zip":"16932","miles_from_dt":18.71},{"city":"Sylvania","state_name":"Pennsylvania","lat":41.80546,"lng":-76.85648,"zip":"16945","miles_from_dt":18.75},{"city":"Mildred","state_name":"Pennsylvania","lat":41.46769,"lng":-76.3764,"zip":"18632","miles_from_dt":20.01},{"city":"Covington","state_name":"Pennsylvania","lat":41.723,"lng":-77.05519,"zip":"16917","miles_from_dt":20.05},{"city":"Liberty","state_name":"Pennsylvania","lat":41.57693,"lng":-77.14021,"zip":"16930","miles_from_dt":20.45},{"city":"Arnot","state_name":"Pennsylvania","lat":41.67787,"lng":-77.10392,"zip":"16911","miles_from_dt":20.56},{"city":"Dushore","state_name":"Pennsylvania","lat":41.48373,"lng":-76.35768,"zip":"18614","miles_from_dt":20.69},{"city":"Towanda","state_name":"Pennsylvania","lat":41.75358,"lng":-76.45615,"zip":"18848","miles_from_dt":20.79},{"city":"Columbia Cross Roads","state_name":"Pennsylvania","lat":41.8618,"lng":-76.77687,"zip":"16914","miles_from_dt":21.82},{"city":"Lairdsville","state_name":"Pennsylvania","lat":41.23919,"lng":-76.5829,"zip":"17742","miles_from_dt":22.86},{"city":"Cogan Station","state_name":"Pennsylvania","lat":41.32546,"lng":-77.08215,"zip":"17728","miles_from_dt":23.11},{"city":"Unityville","state_name":"Pennsylvania","lat":41.24782,"lng":-76.5416,"zip":"17774","miles_from_dt":23.22},{"city":"Muncy","state_name":"Pennsylvania","lat":41.20841,"lng":-76.73325,"zip":"17756","miles_from_dt":23.33},{"city":"East Smithfield","state_name":"Pennsylvania","lat":41.87431,"lng":-76.62075,"zip":"18817","miles_from_dt":23.57},{"city":"Lopez","state_name":"Pennsylvania","lat":41.41474,"lng":-76.32047,"zip":"18628","miles_from_dt":23.96},{"city":"Williamsport","state_name":"Pennsylvania","lat":41.24,"lng":-77.00002,"zip":"17703","miles_from_dt":24.88},{"city":"Milan","state_name":"Pennsylvania","lat":41.89356,"lng":-76.60832,"zip":"18831","miles_from_dt":25.02},{"city":"Mansfield","state_name":"Pennsylvania","lat":41.81904,"lng":-77.06716,"zip":"16933","miles_from_dt":25.05},{"city":"Ulster","state_name":"Pennsylvania","lat":41.85916,"lng":-76.49126,"zip":"18850","miles_from_dt":25.34},{"city":"Williamsport","state_name":"Pennsylvania","lat":41.24061,"lng":-77.03912,"zip":"17705","miles_from_dt":25.97},{"city":"Wysox","state_name":"Pennsylvania","lat":41.79532,"lng":-76.35472,"zip":"18854","miles_from_dt":26.62},{"city":"Sugar Run","state_name":"Pennsylvania","lat":41.60494,"lng":-76.23929,"zip":"18846","miles_from_dt":26.66},{"city":"Montgomery","state_name":"Pennsylvania","lat":41.18244,"lng":-76.92144,"zip":"17752","miles_from_dt":26.69},{"city":"Wyalusing","state_name":"Pennsylvania","lat":41.71654,"lng":-76.27534,"zip":"18853","miles_from_dt":27.13},{"city":"Benton","state_name":"Pennsylvania","lat":41.26885,"lng":-76.3751,"zip":"17814","miles_from_dt":27.23},{"city":"Gillett","state_name":"Pennsylvania","lat":41.95319,"lng":-76.78997,"zip":"16925","miles_from_dt":28.16},{"city":"Millerton","state_name":"Pennsylvania","lat":41.94318,"lng":-76.95837,"zip":"16936","miles_from_dt":29.47},{"city":"Camptown","state_name":"Pennsylvania","lat":41.73112,"lng":-76.23278,"zip":"18815","miles_from_dt":29.55},{"city":"Turbotville","state_name":"Pennsylvania","lat":41.11832,"lng":-76.71756,"zip":"17772","miles_from_dt":29.58},{"city":"Athens","state_name":"Pennsylvania","lat":41.93738,"lng":-76.50181,"zip":"18810","miles_from_dt":29.83},{"city":"Linden","state_name":"Pennsylvania","lat":41.24397,"lng":-77.16139,"zip":"17744","miles_from_dt":29.96}],"targetCityZipCode":"17768","targetCityState":"Pennsylvania"},"__N_SSG":true}