{"pageProps":{"stateName":"Pennsylvania","cityName":"sycamore","nearbyCities":[{"city":"Nineveh","state_name":"Pennsylvania","lat":39.96223,"lng":-80.31107,"zip":"15353","miles_from_dt":1.8},{"city":"Rogersville","state_name":"Pennsylvania","lat":39.87667,"lng":-80.27555,"zip":"15359","miles_from_dt":4.78},{"city":"Graysville","state_name":"Pennsylvania","lat":39.9505,"lng":-80.37521,"zip":"15337","miles_from_dt":4.81},{"city":"Prosperity","state_name":"Pennsylvania","lat":40.02813,"lng":-80.27205,"zip":"15329","miles_from_dt":5.74},{"city":"Waynesburg","state_name":"Pennsylvania","lat":39.8734,"lng":-80.17991,"zip":"15370","miles_from_dt":7.48},{"city":"Amity","state_name":"Pennsylvania","lat":40.04608,"lng":-80.18592,"zip":"15311","miles_from_dt":8.7},{"city":"Holbrook","state_name":"Pennsylvania","lat":39.82381,"lng":-80.34728,"zip":"15341","miles_from_dt":9.03},{"city":"West Finley","state_name":"Pennsylvania","lat":39.97973,"lng":-80.45083,"zip":"15377","miles_from_dt":9.12},{"city":"Marianna","state_name":"Pennsylvania","lat":40.02173,"lng":-80.10743,"zip":"15345","miles_from_dt":10.79},{"city":"Wind Ridge","state_name":"Pennsylvania","lat":39.8725,"lng":-80.4692,"zip":"15380","miles_from_dt":11.01},{"city":"Mather","state_name":"Pennsylvania","lat":39.93545,"lng":-80.07536,"zip":"15346","miles_from_dt":11.15},{"city":"Brave","state_name":"Pennsylvania","lat":39.76514,"lng":-80.26185,"zip":"15316","miles_from_dt":12.51},{"city":"Jefferson","state_name":"Pennsylvania","lat":39.92289,"lng":-80.05068,"zip":"15344","miles_from_dt":12.54},{"city":"Clarksville","state_name":"Pennsylvania","lat":39.97655,"lng":-80.0488,"zip":"15322","miles_from_dt":12.72},{"city":"Claysville","state_name":"Pennsylvania","lat":40.10845,"lng":-80.40926,"zip":"15323","miles_from_dt":13.03},{"city":"Spraggs","state_name":"Pennsylvania","lat":39.75821,"lng":-80.21301,"zip":"15362","miles_from_dt":13.48},{"city":"Dallas","state_name":"West Virginia","lat":39.98406,"lng":-80.54339,"zip":"26036","miles_from_dt":13.98},{"city":"New Freeport","state_name":"Pennsylvania","lat":39.75418,"lng":-80.40253,"zip":"15352","miles_from_dt":14.61},{"city":"Scenery Hill","state_name":"Pennsylvania","lat":40.08846,"lng":-80.08144,"zip":"15360","miles_from_dt":14.62},{"city":"Aleppo","state_name":"Pennsylvania","lat":39.79255,"lng":-80.48108,"zip":"15310","miles_from_dt":14.84},{"city":"Washington","state_name":"Pennsylvania","lat":40.16411,"lng":-80.25304,"zip":"15301","miles_from_dt":15.17},{"city":"West Alexander","state_name":"Pennsylvania","lat":40.10493,"lng":-80.48744,"zip":"15376","miles_from_dt":15.37},{"city":"Fredericktown","state_name":"Pennsylvania","lat":40.02693,"lng":-80.01429,"zip":"15333","miles_from_dt":15.42},{"city":"Taylorstown","state_name":"Pennsylvania","lat":40.15564,"lng":-80.38548,"zip":"15365","miles_from_dt":15.44},{"city":"Millsboro","state_name":"Pennsylvania","lat":39.98748,"lng":-79.99624,"zip":"15348","miles_from_dt":15.59},{"city":"Beallsville","state_name":"Pennsylvania","lat":40.06318,"lng":-80.02937,"zip":"15313","miles_from_dt":15.8},{"city":"Cokeburg","state_name":"Pennsylvania","lat":40.10074,"lng":-80.0654,"zip":"15324","miles_from_dt":15.82},{"city":"Carmichaels","state_name":"Pennsylvania","lat":39.87386,"lng":-79.99768,"zip":"15320","miles_from_dt":16.04},{"city":"Rices Landing","state_name":"Pennsylvania","lat":39.93721,"lng":-79.98153,"zip":"15357","miles_from_dt":16.12},{"city":"Blacksville","state_name":"West Virginia","lat":39.71374,"lng":-80.23065,"zip":"26521","miles_from_dt":16.25},{"city":"Vestaburg","state_name":"Pennsylvania","lat":40.0145,"lng":-79.9892,"zip":"15368","miles_from_dt":16.4},{"city":"Richeyville","state_name":"Pennsylvania","lat":40.055,"lng":-80.00309,"zip":"15358","miles_from_dt":16.75},{"city":"La Belle","state_name":"Pennsylvania","lat":40.00289,"lng":-79.97616,"zip":"15450","miles_from_dt":16.86},{"city":"Mount Morris","state_name":"Pennsylvania","lat":39.75885,"lng":-80.07795,"zip":"15349","miles_from_dt":16.94},{"city":"Crucible","state_name":"Pennsylvania","lat":39.94893,"lng":-79.96331,"zip":"15325","miles_from_dt":17.08},{"city":"Pentress","state_name":"West Virginia","lat":39.71233,"lng":-80.17064,"zip":"26544","miles_from_dt":17.2},{"city":"East Millsboro","state_name":"Pennsylvania","lat":39.97413,"lng":-79.95799,"zip":"15433","miles_from_dt":17.47},{"city":"Cameron","state_name":"West Virginia","lat":39.8284,"lng":-80.57985,"zip":"26033","miles_from_dt":17.64},{"city":"Valley Grove","state_name":"West Virginia","lat":40.10465,"lng":-80.54649,"zip":"26060","miles_from_dt":17.69},{"city":"Ellsworth","state_name":"Pennsylvania","lat":40.10754,"lng":-80.02214,"zip":"15331","miles_from_dt":17.86},{"city":"Triadelphia","state_name":"West Virginia","lat":40.07156,"lng":-80.59379,"zip":"26059","miles_from_dt":18.55},{"city":"Daisytown","state_name":"Pennsylvania","lat":40.06742,"lng":-79.97065,"zip":"15427","miles_from_dt":18.67},{"city":"Isabella","state_name":"Pennsylvania","lat":39.9445,"lng":-79.93257,"zip":"15447","miles_from_dt":18.71},{"city":"Denbo","state_name":"Pennsylvania","lat":40.00678,"lng":-79.94021,"zip":"15429","miles_from_dt":18.78},{"city":"Wana","state_name":"West Virginia","lat":39.67428,"lng":-80.31674,"zip":"26590","miles_from_dt":18.79},{"city":"Hundred","state_name":"West Virginia","lat":39.6978,"lng":-80.43256,"zip":"26575","miles_from_dt":18.81},{"city":"Meadow Lands","state_name":"Pennsylvania","lat":40.21807,"lng":-80.22469,"zip":"15347","miles_from_dt":19.07},{"city":"Eighty Four","state_name":"Pennsylvania","lat":40.18227,"lng":-80.09492,"zip":"15330","miles_from_dt":19.19},{"city":"Garards Fort","state_name":"Pennsylvania","lat":39.81292,"lng":-79.9673,"zip":"15334","miles_from_dt":19.2},{"city":"Greensboro","state_name":"Pennsylvania","lat":39.81654,"lng":-79.96206,"zip":"15338","miles_from_dt":19.33},{"city":"Nemacolin","state_name":"Pennsylvania","lat":39.87827,"lng":-79.93068,"zip":"15351","miles_from_dt":19.38},{"city":"Bentleyville","state_name":"Pennsylvania","lat":40.14555,"lng":-80.01775,"zip":"15314","miles_from_dt":19.77},{"city":"Ronco","state_name":"Pennsylvania","lat":39.86888,"lng":-79.92228,"zip":"15476","miles_from_dt":19.98},{"city":"Brownsville","state_name":"Pennsylvania","lat":40.01466,"lng":-79.91464,"zip":"15417","miles_from_dt":20.22},{"city":"Adah","state_name":"Pennsylvania","lat":39.91246,"lng":-79.90352,"zip":"15410","miles_from_dt":20.39},{"city":"Merrittstown","state_name":"Pennsylvania","lat":39.9629,"lng":-79.89916,"zip":"15463","miles_from_dt":20.52},{"city":"Hiller","state_name":"Pennsylvania","lat":40.0134,"lng":-79.90836,"zip":"15444","miles_from_dt":20.53},{"city":"Bobtown","state_name":"Pennsylvania","lat":39.75741,"lng":-79.98319,"zip":"15315","miles_from_dt":20.64},{"city":"Houston","state_name":"Pennsylvania","lat":40.24533,"lng":-80.22061,"zip":"15342","miles_from_dt":20.96},{"city":"Fairview","state_name":"West Virginia","lat":39.64284,"lng":-80.23444,"zip":"26570","miles_from_dt":21.06},{"city":"Wheeling","state_name":"West Virginia","lat":40.0693,"lng":-80.6508,"zip":"26003","miles_from_dt":21.21},{"city":"Hibbs","state_name":"Pennsylvania","lat":39.91924,"lng":-79.88448,"zip":"15443","miles_from_dt":21.35},{"city":"Maidsville","state_name":"West Virginia","lat":39.68179,"lng":-80.07458,"zip":"26541","miles_from_dt":21.36},{"city":"Coal Center","state_name":"Pennsylvania","lat":40.08804,"lng":-79.92538,"zip":"15423","miles_from_dt":21.46},{"city":"Republic","state_name":"Pennsylvania","lat":39.95812,"lng":-79.88057,"zip":"15475","miles_from_dt":21.49},{"city":"Strabane","state_name":"Pennsylvania","lat":40.25159,"lng":-80.19761,"zip":"15363","miles_from_dt":21.61},{"city":"Dilliner","state_name":"Pennsylvania","lat":39.75088,"lng":-79.96293,"zip":"15327","miles_from_dt":21.76},{"city":"Bethany","state_name":"West Virginia","lat":40.18646,"lng":-80.55024,"zip":"26032","miles_from_dt":21.77},{"city":"Masontown","state_name":"Pennsylvania","lat":39.83978,"lng":-79.89843,"zip":"15461","miles_from_dt":21.8},{"city":"West Middletown","state_name":"Pennsylvania","lat":40.2432,"lng":-80.42519,"zip":"15379","miles_from_dt":21.84},{"city":"Allison","state_name":"Pennsylvania","lat":39.98493,"lng":-79.87141,"zip":"15413","miles_from_dt":22.12},{"city":"Van Voorhis","state_name":"Pennsylvania","lat":40.1598,"lng":-79.974,"zip":"15366","miles_from_dt":22.14},{"city":"California","state_name":"Pennsylvania","lat":40.05861,"lng":-79.89408,"zip":"15419","miles_from_dt":22.15},{"city":"Martin","state_name":"Pennsylvania","lat":39.80712,"lng":-79.90756,"zip":"15460","miles_from_dt":22.22},{"city":"Cardale","state_name":"Pennsylvania","lat":39.95981,"lng":-79.86537,"zip":"15420","miles_from_dt":22.3},{"city":"Glen Easton","state_name":"West Virginia","lat":39.81641,"lng":-80.66969,"zip":"26039","miles_from_dt":22.31},{"city":"Charleroi","state_name":"Pennsylvania","lat":40.13329,"lng":-79.93661,"zip":"15022","miles_from_dt":22.56},{"city":"Leckrone","state_name":"Pennsylvania","lat":39.86386,"lng":-79.87286,"zip":"15454","miles_from_dt":22.61},{"city":"West Liberty","state_name":"West Virginia","lat":40.16889,"lng":-80.59813,"zip":"26074","miles_from_dt":22.65},{"city":"Newell","state_name":"Pennsylvania","lat":40.07562,"lng":-79.89199,"zip":"15466","miles_from_dt":22.69},{"city":"Cassville","state_name":"West Virginia","lat":39.66712,"lng":-80.05637,"zip":"26527","miles_from_dt":22.74},{"city":"Avella","state_name":"Pennsylvania","lat":40.25404,"lng":-80.43757,"zip":"15312","miles_from_dt":22.77},{"city":"Moundsville","state_name":"West Virginia","lat":39.89764,"lng":-80.7107,"zip":"26041","miles_from_dt":22.86},{"city":"New Geneva","state_name":"Pennsylvania","lat":39.78931,"lng":-79.90526,"zip":"15467","miles_from_dt":22.88},{"city":"Burton","state_name":"West Virginia","lat":39.63957,"lng":-80.45072,"zip":"26562","miles_from_dt":22.88},{"city":"Westland","state_name":"Pennsylvania","lat":40.27771,"lng":-80.27433,"zip":"15378","miles_from_dt":22.92},{"city":"Fairbank","state_name":"Pennsylvania","lat":39.94314,"lng":-79.84731,"zip":"15435","miles_from_dt":23.24},{"city":"Canonsburg","state_name":"Pennsylvania","lat":40.27105,"lng":-80.16535,"zip":"15317","miles_from_dt":23.33},{"city":"Elco","state_name":"Pennsylvania","lat":40.08013,"lng":-79.88037,"zip":"15434","miles_from_dt":23.38},{"city":"McClellandtown","state_name":"Pennsylvania","lat":39.88715,"lng":-79.85099,"zip":"15458","miles_from_dt":23.4},{"city":"Benwood","state_name":"West Virginia","lat":40.00236,"lng":-80.71985,"zip":"26031","miles_from_dt":23.42},{"city":"Glen Dale","state_name":"West Virginia","lat":39.96329,"lng":-80.72595,"zip":"26038","miles_from_dt":23.45},{"city":"Hickory","state_name":"Pennsylvania","lat":40.28654,"lng":-80.32258,"zip":"15340","miles_from_dt":23.61},{"city":"New Salem","state_name":"Pennsylvania","lat":39.94872,"lng":-79.83761,"zip":"15468","miles_from_dt":23.75},{"city":"Pursglove","state_name":"West Virginia","lat":39.66099,"lng":-80.03115,"zip":"26546","miles_from_dt":23.83},{"city":"Mcmechen","state_name":"West Virginia","lat":39.98389,"lng":-80.73104,"zip":"26040","miles_from_dt":23.83},{"city":"Grindstone","state_name":"Pennsylvania","lat":40.01542,"lng":-79.84019,"zip":"15442","miles_from_dt":24.09},{"city":"Roscoe","state_name":"Pennsylvania","lat":40.07856,"lng":-79.86243,"zip":"15477","miles_from_dt":24.22},{"city":"Brier Hill","state_name":"Pennsylvania","lat":39.97774,"lng":-79.82886,"zip":"15415","miles_from_dt":24.31},{"city":"Point Marion","state_name":"Pennsylvania","lat":39.75201,"lng":-79.90145,"zip":"15474","miles_from_dt":24.37},{"city":"Muse","state_name":"Pennsylvania","lat":40.29377,"lng":-80.20056,"zip":"15350","miles_from_dt":24.44},{"city":"Littleton","state_name":"West Virginia","lat":39.66554,"lng":-80.56781,"zip":"26581","miles_from_dt":24.49},{"city":"Metz","state_name":"West Virginia","lat":39.6065,"lng":-80.42379,"zip":"26585","miles_from_dt":24.53},{"city":"Osage","state_name":"West Virginia","lat":39.66375,"lng":-80.00219,"zip":"26543","miles_from_dt":24.58},{"city":"Stockdale","state_name":"Pennsylvania","lat":40.08352,"lng":-79.85036,"zip":"15483","miles_from_dt":24.94},{"city":"New Eagle","state_name":"Pennsylvania","lat":40.20823,"lng":-79.96106,"zip":"15067","miles_from_dt":24.96},{"city":"Fayette City","state_name":"Pennsylvania","lat":40.07485,"lng":-79.84431,"zip":"15438","miles_from_dt":25.02},{"city":"Venetia","state_name":"Pennsylvania","lat":40.26321,"lng":-80.05474,"zip":"15367","miles_from_dt":25.08},{"city":"Allenport","state_name":"Pennsylvania","lat":40.09496,"lng":-79.85218,"zip":"15412","miles_from_dt":25.16},{"city":"Hendersonville","state_name":"Pennsylvania","lat":40.29892,"lng":-80.1547,"zip":"15339","miles_from_dt":25.34},{"city":"Chestnut Ridge","state_name":"Pennsylvania","lat":39.9781,"lng":-79.80927,"zip":"15422","miles_from_dt":25.35},{"city":"Dunlevy","state_name":"Pennsylvania","lat":40.11301,"lng":-79.85913,"zip":"15432","miles_from_dt":25.37},{"city":"Morgantown","state_name":"West Virginia","lat":39.62872,"lng":-80.04025,"zip":"26501","miles_from_dt":25.44},{"city":"Monessen","state_name":"Pennsylvania","lat":40.15184,"lng":-79.88277,"zip":"15062","miles_from_dt":25.64},{"city":"Colerain","state_name":"Ohio","lat":40.07001,"lng":-80.74028,"zip":"43916","miles_from_dt":25.64},{"city":"Granville","state_name":"West Virginia","lat":39.64748,"lng":-79.99733,"zip":"26534","miles_from_dt":25.64},{"city":"Finleyville","state_name":"Pennsylvania","lat":40.24226,"lng":-79.99134,"zip":"15332","miles_from_dt":25.71},{"city":"Monongahela","state_name":"Pennsylvania","lat":40.19487,"lng":-79.92228,"zip":"15063","miles_from_dt":25.79},{"city":"Windsor Heights","state_name":"West Virginia","lat":40.19748,"lng":-80.64567,"zip":"26075","miles_from_dt":25.84},{"city":"Short Creek","state_name":"West Virginia","lat":40.18622,"lng":-80.66453,"zip":"26058","miles_from_dt":26.09},{"city":"Wellsburg","state_name":"West Virginia","lat":40.25008,"lng":-80.58037,"zip":"26070","miles_from_dt":26.2},{"city":"Lawrence","state_name":"Pennsylvania","lat":40.30642,"lng":-80.12296,"zip":"15055","miles_from_dt":26.33},{"city":"Pricedale","state_name":"Pennsylvania","lat":40.13922,"lng":-79.85605,"zip":"15072","miles_from_dt":26.38},{"city":"Bunola","state_name":"Pennsylvania","lat":40.2283,"lng":-79.9479,"zip":"15020","miles_from_dt":26.45},{"city":"Cecil","state_name":"Pennsylvania","lat":40.32167,"lng":-80.18716,"zip":"15321","miles_from_dt":26.46},{"city":"Gastonville","state_name":"Pennsylvania","lat":40.25621,"lng":-79.98983,"zip":"15336","miles_from_dt":26.53},{"city":"Morgantown","state_name":"West Virginia","lat":39.64677,"lng":-79.9701,"zip":"26506","miles_from_dt":26.56},{"city":"Rivesville","state_name":"West Virginia","lat":39.5738,"lng":-80.15339,"zip":"26588","miles_from_dt":26.59},{"city":"Gans","state_name":"Pennsylvania","lat":39.73333,"lng":-79.86667,"zip":"15439","miles_from_dt":26.63},{"city":"Shadyside","state_name":"Ohio","lat":39.95448,"lng":-80.78755,"zip":"43947","miles_from_dt":26.7},{"city":"Southview","state_name":"Pennsylvania","lat":40.33277,"lng":-80.2623,"zip":"15361","miles_from_dt":26.74},{"city":"Keisterville","state_name":"Pennsylvania","lat":39.97267,"lng":-79.78055,"zip":"15449","miles_from_dt":26.84},{"city":"Tiltonsville","state_name":"Ohio","lat":40.17155,"lng":-80.69698,"zip":"43963","miles_from_dt":26.84},{"city":"Yorkville","state_name":"Ohio","lat":40.15811,"lng":-80.71301,"zip":"43971","miles_from_dt":27.02},{"city":"Uledi","state_name":"Pennsylvania","lat":39.89242,"lng":-79.77842,"zip":"15484","miles_from_dt":27.15},{"city":"Morgantown","state_name":"West Virginia","lat":39.63444,"lng":-79.97,"zip":"26502","miles_from_dt":27.23},{"city":"Grant Town","state_name":"West Virginia","lat":39.55926,"lng":-80.17741,"zip":"26574","miles_from_dt":27.26},{"city":"Morgantown","state_name":"West Virginia","lat":39.6511,"lng":-79.94306,"zip":"26505","miles_from_dt":27.27},{"city":"Beech Bottom","state_name":"West Virginia","lat":40.21662,"lng":-80.65965,"zip":"26030","miles_from_dt":27.28},{"city":"Smock","state_name":"Pennsylvania","lat":39.98644,"lng":-79.76962,"zip":"15480","miles_from_dt":27.5},{"city":"Donora","state_name":"Pennsylvania","lat":40.18011,"lng":-79.86501,"zip":"15033","miles_from_dt":27.52},{"city":"Lake Lynn","state_name":"Pennsylvania","lat":39.74018,"lng":-79.84005,"zip":"15451","miles_from_dt":27.58},{"city":"Martins Ferry","state_name":"Ohio","lat":40.1247,"lng":-80.75225,"zip":"43935","miles_from_dt":27.7},{"city":"Bellaire","state_name":"Ohio","lat":40.0132,"lng":-80.80118,"zip":"43906","miles_from_dt":27.8},{"city":"Morgantown","state_name":"West Virginia","lat":39.63037,"lng":-79.95785,"zip":"26504","miles_from_dt":27.85},{"city":"Atlasburg","state_name":"Pennsylvania","lat":40.34216,"lng":-80.38289,"zip":"15004","miles_from_dt":27.85},{"city":"Waltersburg","state_name":"Pennsylvania","lat":39.97749,"lng":-79.75974,"zip":"15488","miles_from_dt":27.97},{"city":"Smithfield","state_name":"Pennsylvania","lat":39.78601,"lng":-79.80099,"zip":"15478","miles_from_dt":27.98},{"city":"Lansing","state_name":"Ohio","lat":40.0752,"lng":-80.79123,"zip":"43934","miles_from_dt":28.31},{"city":"McDonald","state_name":"Pennsylvania","lat":40.35571,"lng":-80.24713,"zip":"15057","miles_from_dt":28.37},{"city":"Elrama","state_name":"Pennsylvania","lat":40.2499,"lng":-79.92379,"zip":"15038","miles_from_dt":28.41},{"city":"South Park","state_name":"Pennsylvania","lat":40.29348,"lng":-79.99515,"zip":"15129","miles_from_dt":28.49},{"city":"Perryopolis","state_name":"Pennsylvania","lat":40.07256,"lng":-79.77352,"zip":"15473","miles_from_dt":28.51},{"city":"Cuddy","state_name":"Pennsylvania","lat":40.34802,"lng":-80.16235,"zip":"15031","miles_from_dt":28.52},{"city":"Uniontown","state_name":"Pennsylvania","lat":39.89914,"lng":-79.74965,"zip":"15401","miles_from_dt":28.61},{"city":"Star Junction","state_name":"Pennsylvania","lat":40.06073,"lng":-79.76645,"zip":"15482","miles_from_dt":28.63},{"city":"Bridgeport","state_name":"Ohio","lat":40.08708,"lng":-80.79255,"zip":"43912","miles_from_dt":28.65},{"city":"Bridgeville","state_name":"Pennsylvania","lat":40.34348,"lng":-80.12865,"zip":"15017","miles_from_dt":28.67},{"city":"Big Run","state_name":"West Virginia","lat":39.59139,"lng":-80.56981,"zip":"26561","miles_from_dt":28.76},{"city":"Pittsburgh","state_name":"Pennsylvania","lat":40.33293,"lng":-80.08291,"zip":"15241","miles_from_dt":28.79},{"city":"Webster","state_name":"Pennsylvania","lat":40.19504,"lng":-79.84948,"zip":"15087","miles_from_dt":28.79},{"city":"Baxter","state_name":"West Virginia","lat":39.54088,"lng":-80.14362,"zip":"26560","miles_from_dt":28.92},{"city":"Brilliant","state_name":"Ohio","lat":40.27048,"lng":-80.63154,"zip":"43913","miles_from_dt":28.98},{"city":"Bethel Park","state_name":"Pennsylvania","lat":40.32125,"lng":-80.03707,"zip":"15102","miles_from_dt":29.05},{"city":"Slovan","state_name":"Pennsylvania","lat":40.35949,"lng":-80.38501,"zip":"15078","miles_from_dt":29.05},{"city":"Belle Vernon","state_name":"Pennsylvania","lat":40.15871,"lng":-79.81188,"zip":"15012","miles_from_dt":29.07},{"city":"Mannington","state_name":"West Virginia","lat":39.53114,"lng":-80.38767,"zip":"26582","miles_from_dt":29.11},{"city":"Morgan","state_name":"Pennsylvania","lat":40.35538,"lng":-80.14849,"zip":"15064","miles_from_dt":29.18},{"city":"Proctor","state_name":"West Virginia","lat":39.75338,"lng":-80.77396,"zip":"26055","miles_from_dt":29.19},{"city":"Neffs","state_name":"Ohio","lat":40.02863,"lng":-80.82541,"zip":"43940","miles_from_dt":29.25},{"city":"Blaine","state_name":"Ohio","lat":40.06774,"lng":-80.81552,"zip":"43909","miles_from_dt":29.39},{"city":"Farmington","state_name":"West Virginia","lat":39.51945,"lng":-80.26013,"zip":"26571","miles_from_dt":29.43},{"city":"Langeloth","state_name":"Pennsylvania","lat":40.36353,"lng":-80.4008,"zip":"15054","miles_from_dt":29.48},{"city":"Rachel","state_name":"West Virginia","lat":39.51606,"lng":-80.29751,"zip":"26587","miles_from_dt":29.64},{"city":"Midway","state_name":"Pennsylvania","lat":40.37695,"lng":-80.29113,"zip":"15060","miles_from_dt":29.77},{"city":"Barrackville","state_name":"West Virginia","lat":39.52141,"lng":-80.18015,"zip":"26559","miles_from_dt":29.79}],"targetCityZipCode":"15364","targetCityState":"Pennsylvania"},"__N_SSG":true}