{"pageProps":{"stateName":"Connecticut","cityName":"canton","nearbyCities":[{"city":"Canton Center","state_name":"Connecticut","lat":41.86283,"lng":-72.90991,"zip":"06020","miles_from_dt":0.29},{"city":"Collinsville","state_name":"Connecticut","lat":41.86595,"lng":-72.92749,"zip":"06022","miles_from_dt":1.15},{"city":"North Canton","state_name":"Connecticut","lat":41.89054,"lng":-72.88833,"zip":"06059","miles_from_dt":2.37},{"city":"West Simsbury","state_name":"Connecticut","lat":41.87266,"lng":-72.86101,"zip":"06092","miles_from_dt":2.56},{"city":"Pine Meadow","state_name":"Connecticut","lat":41.87524,"lng":-72.96716,"zip":"06061","miles_from_dt":3.29},{"city":"Weatogue","state_name":"Connecticut","lat":41.83801,"lng":-72.82343,"zip":"06089","miles_from_dt":4.56},{"city":"Simsbury","state_name":"Connecticut","lat":41.87674,"lng":-72.81626,"zip":"06070","miles_from_dt":4.84},{"city":"New Hartford","state_name":"Connecticut","lat":41.84417,"lng":-73.00552,"zip":"06057","miles_from_dt":5.18},{"city":"Avon","state_name":"Connecticut","lat":41.79185,"lng":-72.85107,"zip":"06001","miles_from_dt":5.48},{"city":"Barkhamsted","state_name":"Connecticut","lat":41.93053,"lng":-72.97096,"zip":"06063","miles_from_dt":5.92},{"city":"West Granby","state_name":"Connecticut","lat":41.94685,"lng":-72.86403,"zip":"06090","miles_from_dt":6.45},{"city":"Burlington","state_name":"Connecticut","lat":41.7598,"lng":-72.95895,"zip":"06013","miles_from_dt":7.36},{"city":"Unionville","state_name":"Connecticut","lat":41.74717,"lng":-72.88883,"zip":"06085","miles_from_dt":7.79},{"city":"Tariffville","state_name":"Connecticut","lat":41.90708,"lng":-72.76839,"zip":"06081","miles_from_dt":7.88},{"city":"Bloomfield","state_name":"Connecticut","lat":41.84286,"lng":-72.73714,"zip":"06002","miles_from_dt":8.85},{"city":"Granby","state_name":"Connecticut","lat":41.9608,"lng":-72.80179,"zip":"06035","miles_from_dt":8.87},{"city":"West Hartford","state_name":"Connecticut","lat":41.7875,"lng":-72.76203,"zip":"06117","miles_from_dt":8.98},{"city":"Riverton","state_name":"Connecticut","lat":41.97795,"lng":-73.00054,"zip":"06065","miles_from_dt":9.5},{"city":"East Hartland","state_name":"Connecticut","lat":42.00403,"lng":-72.91112,"zip":"06027","miles_from_dt":10},{"city":"Farmington","state_name":"Connecticut","lat":41.72528,"lng":-72.83147,"zip":"06032","miles_from_dt":10.04},{"city":"Torrington","state_name":"Connecticut","lat":41.77,"lng":-73.06219,"zip":"06792","miles_from_dt":10.1},{"city":"Hartford","state_name":"Connecticut","lat":41.75757,"lng":-72.76472,"zip":"06180","miles_from_dt":10.16},{"city":"East Granby","state_name":"Connecticut","lat":41.94242,"lng":-72.74093,"zip":"06026","miles_from_dt":10.32},{"city":"Farmington","state_name":"Connecticut","lat":41.70891,"lng":-72.87348,"zip":"06034","miles_from_dt":10.52},{"city":"West Hartford","state_name":"Connecticut","lat":41.75375,"lng":-72.75966,"zip":"06107","miles_from_dt":10.53},{"city":"Harwinton","state_name":"Connecticut","lat":41.75509,"lng":-73.05838,"zip":"06791","miles_from_dt":10.61},{"city":"North Granby","state_name":"Connecticut","lat":42.00687,"lng":-72.84594,"zip":"06060","miles_from_dt":10.67},{"city":"Farmington","state_name":"Connecticut","lat":41.71177,"lng":-72.83934,"zip":"06030","miles_from_dt":10.76},{"city":"Winsted","state_name":"Connecticut","lat":41.92379,"lng":-73.10003,"zip":"06098","miles_from_dt":10.9},{"city":"Hartford","state_name":"Connecticut","lat":41.75716,"lng":-72.74358,"zip":"06155","miles_from_dt":11},{"city":"West Hartland","state_name":"Connecticut","lat":42.01419,"lng":-72.97423,"zip":"06091","miles_from_dt":11.24},{"city":"Hartford","state_name":"Connecticut","lat":41.75895,"lng":-72.73209,"zip":"06156","miles_from_dt":11.38},{"city":"West Hartford","state_name":"Connecticut","lat":41.76351,"lng":-72.72711,"zip":"06119","miles_from_dt":11.4},{"city":"Torrington","state_name":"Connecticut","lat":41.83747,"lng":-73.12874,"zip":"06790","miles_from_dt":11.53},{"city":"Hartford","state_name":"Connecticut","lat":41.79317,"lng":-72.69741,"zip":"06112","miles_from_dt":11.75},{"city":"Hartford","state_name":"Connecticut","lat":41.77312,"lng":-72.70705,"zip":"06154","miles_from_dt":11.92},{"city":"Hartford","state_name":"Connecticut","lat":41.77149,"lng":-72.70781,"zip":"06160","miles_from_dt":11.94},{"city":"Poquonock","state_name":"Connecticut","lat":41.90596,"lng":-72.68268,"zip":"06064","miles_from_dt":12.02},{"city":"Hartford","state_name":"Connecticut","lat":41.77322,"lng":-72.70442,"zip":"06105","miles_from_dt":12.03},{"city":"Windsor","state_name":"Connecticut","lat":41.87229,"lng":-72.67348,"zip":"06095","miles_from_dt":12.09},{"city":"Hartford","state_name":"Connecticut","lat":41.776,"lng":-72.69747,"zip":"06142","miles_from_dt":12.25},{"city":"Bristol","state_name":"Connecticut","lat":41.681,"lng":-72.94065,"zip":"06010","miles_from_dt":12.42},{"city":"Winchester Center","state_name":"Connecticut","lat":41.90188,"lng":-73.1423,"zip":"06094","miles_from_dt":12.48},{"city":"West Hartford","state_name":"Connecticut","lat":41.73247,"lng":-72.73378,"zip":"06110","miles_from_dt":12.52},{"city":"Bristol","state_name":"Connecticut","lat":41.67746,"lng":-72.94628,"zip":"06011","miles_from_dt":12.7},{"city":"West Hartford","state_name":"Connecticut","lat":41.75322,"lng":-72.70404,"zip":"06133","miles_from_dt":12.79},{"city":"Plainville","state_name":"Connecticut","lat":41.67338,"lng":-72.86079,"zip":"06062","miles_from_dt":13.05},{"city":"Hartford","state_name":"Connecticut","lat":41.76565,"lng":-72.68609,"zip":"06123","miles_from_dt":13.11},{"city":"Hartford","state_name":"Connecticut","lat":41.79073,"lng":-72.66999,"zip":"06144","miles_from_dt":13.12},{"city":"Hartford","state_name":"Connecticut","lat":41.7687,"lng":-72.68351,"zip":"06132","miles_from_dt":13.13},{"city":"New Britain","state_name":"Connecticut","lat":41.68874,"lng":-72.7941,"zip":"06053","miles_from_dt":13.13},{"city":"Hartford","state_name":"Connecticut","lat":41.76832,"lng":-72.68292,"zip":"06167","miles_from_dt":13.17},{"city":"Hartford","state_name":"Connecticut","lat":41.79084,"lng":-72.66892,"zip":"06143","miles_from_dt":13.17},{"city":"Hartford","state_name":"Connecticut","lat":41.79182,"lng":-72.66828,"zip":"06145","miles_from_dt":13.18},{"city":"Hartford","state_name":"Connecticut","lat":41.76401,"lng":-72.68595,"zip":"06183","miles_from_dt":13.18},{"city":"Hartford","state_name":"Connecticut","lat":41.79111,"lng":-72.66868,"zip":"06147","miles_from_dt":13.18},{"city":"Hartford","state_name":"Connecticut","lat":41.76646,"lng":-72.6827,"zip":"06134","miles_from_dt":13.24},{"city":"West Hartford","state_name":"Connecticut","lat":41.76671,"lng":-72.68228,"zip":"06127","miles_from_dt":13.25},{"city":"Hartford","state_name":"Connecticut","lat":41.74818,"lng":-72.69683,"zip":"06106","miles_from_dt":13.29},{"city":"Colebrook","state_name":"Connecticut","lat":42.00152,"lng":-73.08078,"zip":"06021","miles_from_dt":13.29},{"city":"Hartford","state_name":"Connecticut","lat":41.75706,"lng":-72.68864,"zip":"06152","miles_from_dt":13.3},{"city":"Hartford","state_name":"Connecticut","lat":41.79222,"lng":-72.66532,"zip":"06141","miles_from_dt":13.31},{"city":"Hartford","state_name":"Connecticut","lat":41.76651,"lng":-72.67999,"zip":"06126","miles_from_dt":13.36},{"city":"Hartford","state_name":"Connecticut","lat":41.78822,"lng":-72.66567,"zip":"06101","miles_from_dt":13.39},{"city":"Hartford","state_name":"Connecticut","lat":41.78944,"lng":-72.66523,"zip":"06120","miles_from_dt":13.39},{"city":"Hartford","state_name":"Connecticut","lat":41.7889,"lng":-72.66525,"zip":"06104","miles_from_dt":13.4},{"city":"Hartford","state_name":"Connecticut","lat":41.78857,"lng":-72.66512,"zip":"06146","miles_from_dt":13.41},{"city":"Hartford","state_name":"Connecticut","lat":41.78982,"lng":-72.6637,"zip":"06140","miles_from_dt":13.45},{"city":"Windsor","state_name":"Connecticut","lat":41.85424,"lng":-72.64405,"zip":"06006","miles_from_dt":13.58},{"city":"Hartford","state_name":"Connecticut","lat":41.76567,"lng":-72.67516,"zip":"06150","miles_from_dt":13.61},{"city":"Hartford","state_name":"Connecticut","lat":41.7663,"lng":-72.67312,"zip":"06151","miles_from_dt":13.68},{"city":"West Suffield","state_name":"Connecticut","lat":42.00265,"lng":-72.72285,"zip":"06093","miles_from_dt":13.72},{"city":"Hartford","state_name":"Connecticut","lat":41.76841,"lng":-72.66918,"zip":"06176","miles_from_dt":13.79},{"city":"Hartford","state_name":"Connecticut","lat":41.76595,"lng":-72.67006,"zip":"06102","miles_from_dt":13.83},{"city":"Hartford","state_name":"Connecticut","lat":41.76056,"lng":-72.67405,"zip":"06115","miles_from_dt":13.83},{"city":"Windsor Locks","state_name":"Connecticut","lat":41.92671,"lng":-72.65443,"zip":"06096","miles_from_dt":13.84},{"city":"Hartford","state_name":"Connecticut","lat":41.92683,"lng":-72.65442,"zip":"06199","miles_from_dt":13.84},{"city":"Hartford","state_name":"Connecticut","lat":41.76477,"lng":-72.67012,"zip":"06103","miles_from_dt":13.87},{"city":"Terryville","state_name":"Connecticut","lat":41.66912,"lng":-73.01502,"zip":"06786","miles_from_dt":14.25},{"city":"Northfield","state_name":"Connecticut","lat":41.71469,"lng":-73.10459,"zip":"06778","miles_from_dt":14.26},{"city":"New Britain","state_name":"Connecticut","lat":41.67363,"lng":-72.77882,"zip":"06050","miles_from_dt":14.42},{"city":"Pequabuck","state_name":"Connecticut","lat":41.67173,"lng":-73.03229,"zip":"06781","miles_from_dt":14.46},{"city":"Hartford","state_name":"Connecticut","lat":41.7394,"lng":-72.66949,"zip":"06114","miles_from_dt":14.8},{"city":"New Britain","state_name":"Connecticut","lat":41.65736,"lng":-72.80506,"zip":"06052","miles_from_dt":14.9},{"city":"Newington","state_name":"Connecticut","lat":41.68869,"lng":-72.72981,"zip":"06131","miles_from_dt":14.91},{"city":"Hartford","state_name":"Connecticut","lat":41.68815,"lng":-72.72886,"zip":"06153","miles_from_dt":14.97},{"city":"Newington","state_name":"Connecticut","lat":41.68677,"lng":-72.73057,"zip":"06111","miles_from_dt":15},{"city":"Southwick","state_name":"Massachusetts","lat":42.05441,"lng":-72.77851,"zip":"01077","miles_from_dt":15.01},{"city":"New Britain","state_name":"Connecticut","lat":41.66519,"lng":-72.76983,"zip":"06051","miles_from_dt":15.15},{"city":"Suffield","state_name":"Connecticut","lat":41.95044,"lng":-72.63519,"zip":"06080","miles_from_dt":15.37},{"city":"Granville","state_name":"Massachusetts","lat":42.0826,"lng":-72.95611,"zip":"01034","miles_from_dt":15.62},{"city":"East Hartford","state_name":"Connecticut","lat":41.78177,"lng":-72.62246,"zip":"06128","miles_from_dt":15.64},{"city":"East Hartford","state_name":"Connecticut","lat":41.78078,"lng":-72.62165,"zip":"06108","miles_from_dt":15.7},{"city":"East Windsor Hill","state_name":"Connecticut","lat":41.86415,"lng":-72.5999,"zip":"06028","miles_from_dt":15.86},{"city":"Plymouth","state_name":"Connecticut","lat":41.65448,"lng":-73.04731,"zip":"06782","miles_from_dt":15.88},{"city":"Thomaston","state_name":"Connecticut","lat":41.67033,"lng":-73.08568,"zip":"06787","miles_from_dt":15.97},{"city":"Suffield","state_name":"Connecticut","lat":41.98903,"lng":-72.64875,"zip":"06078","miles_from_dt":16.05},{"city":"East Windsor","state_name":"Connecticut","lat":41.9058,"lng":-72.59646,"zip":"06088","miles_from_dt":16.34},{"city":"Wethersfield","state_name":"Connecticut","lat":41.70131,"lng":-72.67035,"zip":"06109","miles_from_dt":16.38},{"city":"Wethersfield","state_name":"Connecticut","lat":41.70859,"lng":-72.65977,"zip":"06129","miles_from_dt":16.47},{"city":"Hartford","state_name":"Connecticut","lat":41.70107,"lng":-72.66746,"zip":"06161","miles_from_dt":16.51},{"city":"East Hartford","state_name":"Connecticut","lat":41.76168,"lng":-72.61261,"zip":"06138","miles_from_dt":16.63},{"city":"Norfolk","state_name":"Connecticut","lat":41.97186,"lng":-73.1958,"zip":"06058","miles_from_dt":16.79},{"city":"Goshen","state_name":"Connecticut","lat":41.84714,"lng":-73.23715,"zip":"06756","miles_from_dt":17.05},{"city":"Southington","state_name":"Connecticut","lat":41.61312,"lng":-72.87233,"zip":"06489","miles_from_dt":17.08},{"city":"East Hartford","state_name":"Connecticut","lat":41.74871,"lng":-72.60976,"zip":"06118","miles_from_dt":17.15},{"city":"South Windsor","state_name":"Connecticut","lat":41.83528,"lng":-72.57332,"zip":"06074","miles_from_dt":17.31},{"city":"Litchfield","state_name":"Connecticut","lat":41.75757,"lng":-73.21544,"zip":"06759","miles_from_dt":17.39},{"city":"Wolcott","state_name":"Connecticut","lat":41.60102,"lng":-72.97325,"zip":"06716","miles_from_dt":18.14},{"city":"Berlin","state_name":"Connecticut","lat":41.61148,"lng":-72.7775,"zip":"06037","miles_from_dt":18.36},{"city":"Feeding Hills","state_name":"Massachusetts","lat":42.06869,"lng":-72.67967,"zip":"01030","miles_from_dt":18.61},{"city":"Rocky Hill","state_name":"Connecticut","lat":41.6574,"lng":-72.66259,"zip":"06067","miles_from_dt":18.81},{"city":"Broad Brook","state_name":"Connecticut","lat":41.90417,"lng":-72.54438,"zip":"06016","miles_from_dt":18.97},{"city":"West Hartford","state_name":"Connecticut","lat":41.58449,"lng":-72.86534,"zip":"06137","miles_from_dt":19.08},{"city":"Morris","state_name":"Connecticut","lat":41.69027,"lng":-73.20714,"zip":"06763","miles_from_dt":19.39},{"city":"Plantsville","state_name":"Connecticut","lat":41.57799,"lng":-72.90398,"zip":"06479","miles_from_dt":19.41},{"city":"East Berlin","state_name":"Connecticut","lat":41.61355,"lng":-72.72072,"zip":"06023","miles_from_dt":19.5},{"city":"Enfield","state_name":"Connecticut","lat":41.99818,"lng":-72.57639,"zip":"06083","miles_from_dt":19.56},{"city":"Waterbury","state_name":"Connecticut","lat":41.58601,"lng":-73.03296,"zip":"06704","miles_from_dt":19.94},{"city":"Watertown","state_name":"Connecticut","lat":41.61873,"lng":-73.12336,"zip":"06795","miles_from_dt":20.01},{"city":"Manchester","state_name":"Connecticut","lat":41.79743,"lng":-72.52704,"zip":"06042","miles_from_dt":20.08},{"city":"Enfield","state_name":"Connecticut","lat":41.98393,"lng":-72.55475,"zip":"06082","miles_from_dt":20.1},{"city":"Agawam","state_name":"Massachusetts","lat":42.06262,"lng":-72.62521,"zip":"01001","miles_from_dt":20.2},{"city":"Milldale","state_name":"Connecticut","lat":41.56548,"lng":-72.90022,"zip":"06467","miles_from_dt":20.27},{"city":"Oakville","state_name":"Connecticut","lat":41.59562,"lng":-73.08058,"zip":"06779","miles_from_dt":20.28},{"city":"Sandisfield","state_name":"Massachusetts","lat":42.1068,"lng":-73.12213,"zip":"01255","miles_from_dt":20.36},{"city":"Marion","state_name":"Connecticut","lat":41.5634,"lng":-72.93038,"zip":"06444","miles_from_dt":20.45},{"city":"Bantam","state_name":"Connecticut","lat":41.72327,"lng":-73.2624,"zip":"06750","miles_from_dt":20.61},{"city":"Manchester","state_name":"Connecticut","lat":41.77573,"lng":-72.5232,"zip":"06045","miles_from_dt":20.64},{"city":"Manchester","state_name":"Connecticut","lat":41.77495,"lng":-72.52156,"zip":"06041","miles_from_dt":20.74},{"city":"Lakeside","state_name":"Connecticut","lat":41.67672,"lng":-73.2286,"zip":"06758","miles_from_dt":20.84},{"city":"Westfield","state_name":"Massachusetts","lat":42.14018,"lng":-72.75607,"zip":"01086","miles_from_dt":20.89},{"city":"Russell","state_name":"Massachusetts","lat":42.16029,"lng":-72.8598,"zip":"01071","miles_from_dt":20.92},{"city":"Manchester","state_name":"Connecticut","lat":41.7616,"lng":-72.52247,"zip":"06040","miles_from_dt":20.97},{"city":"Cromwell","state_name":"Connecticut","lat":41.61218,"lng":-72.66382,"zip":"06416","miles_from_dt":21.19},{"city":"Waterbury","state_name":"Connecticut","lat":41.56958,"lng":-73.04598,"zip":"06710","miles_from_dt":21.24},{"city":"Westfield","state_name":"Massachusetts","lat":42.15375,"lng":-72.76961,"zip":"01085","miles_from_dt":21.53},{"city":"Longmeadow","state_name":"Massachusetts","lat":42.04877,"lng":-72.57163,"zip":"01106","miles_from_dt":21.68},{"city":"Glastonbury","state_name":"Connecticut","lat":41.70593,"lng":-72.53915,"zip":"06033","miles_from_dt":21.76},{"city":"Waterbury","state_name":"Connecticut","lat":41.55961,"lng":-73.04141,"zip":"06724","miles_from_dt":21.81},{"city":"Waterbury","state_name":"Connecticut","lat":41.549,"lng":-72.992,"zip":"06705","miles_from_dt":21.85},{"city":"Waterbury","state_name":"Connecticut","lat":41.55707,"lng":-73.03674,"zip":"06723","miles_from_dt":21.9},{"city":"Waterbury","state_name":"Connecticut","lat":41.55703,"lng":-73.03805,"zip":"06720","miles_from_dt":21.92},{"city":"Bethlehem","state_name":"Connecticut","lat":41.63792,"lng":-73.2122,"zip":"06751","miles_from_dt":21.95},{"city":"East Canaan","state_name":"Connecticut","lat":42.00812,"lng":-73.28374,"zip":"06024","miles_from_dt":21.96},{"city":"Waterbury","state_name":"Connecticut","lat":41.55647,"lng":-73.03858,"zip":"06722","miles_from_dt":21.97},{"city":"West Cornwall","state_name":"Connecticut","lat":41.87595,"lng":-73.33255,"zip":"06796","miles_from_dt":21.97},{"city":"Waterbury","state_name":"Connecticut","lat":41.55713,"lng":-73.04539,"zip":"06702","miles_from_dt":22.04},{"city":"Waterbury","state_name":"Connecticut","lat":41.55876,"lng":-73.05218,"zip":"06701","miles_from_dt":22.05},{"city":"Waterbury","state_name":"Connecticut","lat":41.55503,"lng":-73.03798,"zip":"06726","miles_from_dt":22.06},{"city":"Waterbury","state_name":"Connecticut","lat":41.55985,"lng":-73.05903,"zip":"06721","miles_from_dt":22.1},{"city":"Falls Village","state_name":"Connecticut","lat":41.95788,"lng":-73.31733,"zip":"06031","miles_from_dt":22.22},{"city":"Waterbury","state_name":"Connecticut","lat":41.55266,"lng":-73.04093,"zip":"06725","miles_from_dt":22.26},{"city":"West Springfield","state_name":"Massachusetts","lat":42.12128,"lng":-72.65486,"zip":"01090","miles_from_dt":22.27},{"city":"Woronoco","state_name":"Massachusetts","lat":42.17722,"lng":-72.83175,"zip":"01097","miles_from_dt":22.29},{"city":"Meriden","state_name":"Connecticut","lat":41.54203,"lng":-72.82364,"zip":"06451","miles_from_dt":22.31},{"city":"Southfield","state_name":"Massachusetts","lat":42.07316,"lng":-73.23282,"zip":"01259","miles_from_dt":22.35},{"city":"South Glastonbury","state_name":"Connecticut","lat":41.65753,"lng":-72.56742,"zip":"06073","miles_from_dt":22.4},{"city":"Blandford","state_name":"Massachusetts","lat":42.18234,"lng":-72.95819,"zip":"01008","miles_from_dt":22.46},{"city":"East Glastonbury","state_name":"Connecticut","lat":41.69089,"lng":-72.53492,"zip":"06025","miles_from_dt":22.47},{"city":"West Springfield","state_name":"Massachusetts","lat":42.12532,"lng":-72.65025,"zip":"01089","miles_from_dt":22.63},{"city":"Cornwall","state_name":"Connecticut","lat":41.82514,"lng":-73.34471,"zip":"06753","miles_from_dt":22.7},{"city":"Waterbury","state_name":"Connecticut","lat":41.54939,"lng":-73.06738,"zip":"06708","miles_from_dt":22.93},{"city":"Vernon Rockville","state_name":"Connecticut","lat":41.83641,"lng":-72.46063,"zip":"06066","miles_from_dt":23.1},{"city":"Canaan","state_name":"Connecticut","lat":42.02872,"lng":-73.29807,"zip":"06018","miles_from_dt":23.29},{"city":"Somersville","state_name":"Connecticut","lat":41.98465,"lng":-72.4876,"zip":"06072","miles_from_dt":23.3},{"city":"Springfield","state_name":"Massachusetts","lat":42.09992,"lng":-72.58958,"zip":"01101","miles_from_dt":23.31},{"city":"Waterbury","state_name":"Connecticut","lat":41.53285,"lng":-73.02389,"zip":"06706","miles_from_dt":23.32},{"city":"Springfield","state_name":"Massachusetts","lat":42.10189,"lng":-72.59091,"zip":"01144","miles_from_dt":23.36},{"city":"Waterbury","state_name":"Connecticut","lat":41.52891,"lng":-73.00787,"zip":"06703","miles_from_dt":23.38},{"city":"Springfield","state_name":"Massachusetts","lat":42.10403,"lng":-72.59179,"zip":"01115","miles_from_dt":23.44},{"city":"Springfield","state_name":"Massachusetts","lat":42.10443,"lng":-72.58997,"zip":"01103","miles_from_dt":23.52},{"city":"Meriden","state_name":"Connecticut","lat":41.53332,"lng":-72.77399,"zip":"06450","miles_from_dt":23.52},{"city":"Springfield","state_name":"Massachusetts","lat":42.0814,"lng":-72.55866,"zip":"01108","miles_from_dt":23.61},{"city":"Springfield","state_name":"Massachusetts","lat":42.09911,"lng":-72.57865,"zip":"01105","miles_from_dt":23.67},{"city":"Ellington","state_name":"Connecticut","lat":41.91439,"lng":-72.4535,"zip":"06029","miles_from_dt":23.7},{"city":"Springfield","state_name":"Massachusetts","lat":42.12116,"lng":-72.60642,"zip":"01107","miles_from_dt":23.8},{"city":"Springfield","state_name":"Massachusetts","lat":42.11915,"lng":-72.60341,"zip":"01199","miles_from_dt":23.8},{"city":"Springfield","state_name":"Massachusetts","lat":42.0886,"lng":-72.56103,"zip":"01138","miles_from_dt":23.84},{"city":"Cheshire","state_name":"Connecticut","lat":41.51183,"lng":-72.90441,"zip":"06410","miles_from_dt":23.97},{"city":"East Otis","state_name":"Massachusetts","lat":42.19402,"lng":-73.05067,"zip":"01029","miles_from_dt":24.26},{"city":"Cornwall Bridge","state_name":"Connecticut","lat":41.76841,"lng":-73.36127,"zip":"06754","miles_from_dt":24.27},{"city":"Portland","state_name":"Connecticut","lat":41.59885,"lng":-72.5893,"zip":"06480","miles_from_dt":24.35},{"city":"Longmeadow","state_name":"Massachusetts","lat":42.06444,"lng":-72.51306,"zip":"01116","miles_from_dt":24.75},{"city":"Middletown","state_name":"Connecticut","lat":41.5516,"lng":-72.66017,"zip":"06459","miles_from_dt":24.78},{"city":"Cheshire","state_name":"Connecticut","lat":41.4997,"lng":-72.90181,"zip":"06411","miles_from_dt":24.81},{"city":"Rockfall","state_name":"Connecticut","lat":41.53435,"lng":-72.70067,"zip":"06481","miles_from_dt":24.83},{"city":"Cheshire","state_name":"Connecticut","lat":41.49889,"lng":-72.90111,"zip":"06408","miles_from_dt":24.87},{"city":"Bolton","state_name":"Connecticut","lat":41.76647,"lng":-72.43903,"zip":"06043","miles_from_dt":25},{"city":"New Preston Marble Dale","state_name":"Connecticut","lat":41.69412,"lng":-73.33931,"zip":"06777","miles_from_dt":25.06},{"city":"Prospect","state_name":"Connecticut","lat":41.49927,"lng":-72.97609,"zip":"06712","miles_from_dt":25.09},{"city":"Middletown","state_name":"Connecticut","lat":41.54759,"lng":-72.65484,"zip":"06457","miles_from_dt":25.16},{"city":"East Longmeadow","state_name":"Massachusetts","lat":42.05967,"lng":-72.49899,"zip":"01028","miles_from_dt":25.17},{"city":"Washington","state_name":"Connecticut","lat":41.63089,"lng":-73.28835,"zip":"06793","miles_from_dt":25.23},{"city":"Somers","state_name":"Connecticut","lat":41.99489,"lng":-72.45213,"zip":"06071","miles_from_dt":25.25},{"city":"Middlebury","state_name":"Connecticut","lat":41.5271,"lng":-73.1228,"zip":"06762","miles_from_dt":25.49},{"city":"Springfield","state_name":"Massachusetts","lat":42.09476,"lng":-72.5253,"zip":"01118","miles_from_dt":25.52},{"city":"Ashley Falls","state_name":"Massachusetts","lat":42.06242,"lng":-73.32146,"zip":"01222","miles_from_dt":25.54},{"city":"Mill River","state_name":"Massachusetts","lat":42.10924,"lng":-73.27475,"zip":"01244","miles_from_dt":25.61},{"city":"Springfield","state_name":"Massachusetts","lat":42.11632,"lng":-72.54693,"zip":"01139","miles_from_dt":25.67},{"city":"Springfield","state_name":"Massachusetts","lat":42.11839,"lng":-72.54876,"zip":"01109","miles_from_dt":25.7},{"city":"Springfield","state_name":"Massachusetts","lat":42.11798,"lng":-72.5479,"zip":"01111","miles_from_dt":25.71},{"city":"Middlefield","state_name":"Connecticut","lat":41.51468,"lng":-72.71732,"zip":"06455","miles_from_dt":25.73},{"city":"Woodbury","state_name":"Connecticut","lat":41.56149,"lng":-73.20703,"zip":"06798","miles_from_dt":25.74},{"city":"Springfield","state_name":"Massachusetts","lat":42.13326,"lng":-72.56733,"zip":"01104","miles_from_dt":25.77},{"city":"Chicopee","state_name":"Massachusetts","lat":42.16059,"lng":-72.60788,"zip":"01012","miles_from_dt":25.88},{"city":"Springfield","state_name":"Massachusetts","lat":42.11605,"lng":-72.53858,"zip":"01102","miles_from_dt":25.97},{"city":"Washington Depot","state_name":"Connecticut","lat":41.64932,"lng":-73.32511,"zip":"06794","miles_from_dt":26.01},{"city":"Wallingford","state_name":"Connecticut","lat":41.4868,"lng":-72.82276,"zip":"06493","miles_from_dt":26.07},{"city":"Otis","state_name":"Massachusetts","lat":42.20751,"lng":-73.1118,"zip":"01253","miles_from_dt":26.24},{"city":"Naugatuck","state_name":"Connecticut","lat":41.48913,"lng":-73.05181,"zip":"06770","miles_from_dt":26.61},{"city":"Cobalt","state_name":"Connecticut","lat":41.57702,"lng":-72.55231,"zip":"06414","miles_from_dt":26.76},{"city":"Springfield","state_name":"Massachusetts","lat":42.09497,"lng":-72.48806,"zip":"01128","miles_from_dt":27.03},{"city":"Southampton","state_name":"Massachusetts","lat":42.23084,"lng":-72.73856,"zip":"01073","miles_from_dt":27.08},{"city":"Wallingford","state_name":"Connecticut","lat":41.46962,"lng":-72.81805,"zip":"06494","miles_from_dt":27.28},{"city":"Springfield","state_name":"Massachusetts","lat":42.12452,"lng":-72.51126,"zip":"01119","miles_from_dt":27.4},{"city":"Waterbury","state_name":"Connecticut","lat":41.50498,"lng":-73.15243,"zip":"06749","miles_from_dt":27.54},{"city":"Sharon","state_name":"Connecticut","lat":41.85392,"lng":-73.4448,"zip":"06069","miles_from_dt":27.74},{"city":"Chicopee","state_name":"Massachusetts","lat":42.17481,"lng":-72.57229,"zip":"01014","miles_from_dt":27.78},{"city":"Monterey","state_name":"Massachusetts","lat":42.19043,"lng":-73.21579,"zip":"01245","miles_from_dt":27.84},{"city":"Chicopee","state_name":"Massachusetts","lat":42.17796,"lng":-72.57284,"zip":"01021","miles_from_dt":27.93},{"city":"Holyoke","state_name":"Massachusetts","lat":42.21251,"lng":-72.64109,"zip":"01040","miles_from_dt":27.97},{"city":"Tolland","state_name":"Connecticut","lat":41.87917,"lng":-72.36443,"zip":"06084","miles_from_dt":28.03},{"city":"Chicopee","state_name":"Massachusetts","lat":42.17618,"lng":-72.56538,"zip":"01020","miles_from_dt":28.07},{"city":"Wallingford","state_name":"Connecticut","lat":41.46,"lng":-72.80219,"zip":"06495","miles_from_dt":28.08},{"city":"Marlborough","state_name":"Connecticut","lat":41.63309,"lng":-72.45472,"zip":"06447","miles_from_dt":28.11},{"city":"Wallingford","state_name":"Connecticut","lat":41.45927,"lng":-72.80473,"zip":"06492","miles_from_dt":28.11},{"city":"Springfield","state_name":"Massachusetts","lat":42.1211,"lng":-72.4877,"zip":"01129","miles_from_dt":28.16},{"city":"Taconic","state_name":"Connecticut","lat":42.04174,"lng":-73.39755,"zip":"06079","miles_from_dt":28.23},{"city":"Lakeville","state_name":"Connecticut","lat":41.95001,"lng":-73.44379,"zip":"06039","miles_from_dt":28.37},{"city":"Holyoke","state_name":"Massachusetts","lat":42.20746,"lng":-72.61142,"zip":"01041","miles_from_dt":28.45},{"city":"Salisbury","state_name":"Connecticut","lat":42.01404,"lng":-73.42121,"zip":"06068","miles_from_dt":28.56},{"city":"Hebron","state_name":"Connecticut","lat":41.68468,"lng":-72.40523,"zip":"06248","miles_from_dt":28.59},{"city":"Springfield","state_name":"Massachusetts","lat":42.15279,"lng":-72.51126,"zip":"01152","miles_from_dt":28.74},{"city":"Middle Haddam","state_name":"Connecticut","lat":41.541,"lng":-72.5483,"zip":"06456","miles_from_dt":28.75},{"city":"Andover","state_name":"Connecticut","lat":41.73309,"lng":-72.37603,"zip":"06232","miles_from_dt":28.78},{"city":"Indian Orchard","state_name":"Massachusetts","lat":42.15294,"lng":-72.50883,"zip":"01151","miles_from_dt":28.84},{"city":"Hampden","state_name":"Massachusetts","lat":42.0638,"lng":-72.4157,"zip":"01036","miles_from_dt":28.99},{"city":"Sheffield","state_name":"Massachusetts","lat":42.0976,"lng":-73.37241,"zip":"01257","miles_from_dt":29.06},{"city":"Roxbury","state_name":"Connecticut","lat":41.55424,"lng":-73.29998,"zip":"06783","miles_from_dt":29.25},{"city":"East Hampton","state_name":"Connecticut","lat":41.5588,"lng":-72.50452,"zip":"06424","miles_from_dt":29.38},{"city":"South Kent","state_name":"Connecticut","lat":41.70491,"lng":-73.43815,"zip":"06785","miles_from_dt":29.42},{"city":"New Haven","state_name":"Connecticut","lat":41.43221,"lng":-72.90928,"zip":"06538","miles_from_dt":29.47},{"city":"New Haven","state_name":"Connecticut","lat":41.43143,"lng":-72.91048,"zip":"06537","miles_from_dt":29.52},{"city":"Durham","state_name":"Connecticut","lat":41.46221,"lng":-72.68285,"zip":"06422","miles_from_dt":29.76},{"city":"Coventry","state_name":"Connecticut","lat":41.78281,"lng":-72.33941,"zip":"06238","miles_from_dt":29.78},{"city":"Hamden","state_name":"Connecticut","lat":41.42744,"lng":-72.91339,"zip":"06518","miles_from_dt":29.8},{"city":"Huntington","state_name":"Massachusetts","lat":42.29092,"lng":-72.87526,"zip":"01050","miles_from_dt":29.84},{"city":"Chicopee","state_name":"Massachusetts","lat":42.19721,"lng":-72.54249,"zip":"01022","miles_from_dt":29.94}],"targetCityZipCode":"06019","targetCityState":"Connecticut"},"__N_SSG":true}