{"pageProps":{"stateName":"Connecticut","cityName":"new-london","nearbyCities":[{"city":"Waterford","state_name":"Connecticut","lat":41.35735,"lng":-72.15581,"zip":"06385","miles_from_dt":2.83},{"city":"Groton","state_name":"Connecticut","lat":41.35643,"lng":-72.04477,"zip":"06340","miles_from_dt":3.02},{"city":"Groton","state_name":"Connecticut","lat":41.40194,"lng":-72.08928,"zip":"06349","miles_from_dt":3.63},{"city":"Quaker Hill","state_name":"Connecticut","lat":41.40544,"lng":-72.12554,"zip":"06375","miles_from_dt":4},{"city":"Gales Ferry","state_name":"Connecticut","lat":41.42943,"lng":-72.06247,"zip":"06335","miles_from_dt":5.84},{"city":"Niantic","state_name":"Connecticut","lat":41.32711,"lng":-72.21478,"zip":"06357","miles_from_dt":6.07},{"city":"West Mystic","state_name":"Connecticut","lat":41.35056,"lng":-71.9825,"zip":"06388","miles_from_dt":6.23},{"city":"Mystic","state_name":"Connecticut","lat":41.36857,"lng":-71.97426,"zip":"06355","miles_from_dt":6.77},{"city":"Montville","state_name":"Connecticut","lat":41.45612,"lng":-72.13928,"zip":"06353","miles_from_dt":7.55},{"city":"Uncasville","state_name":"Connecticut","lat":41.46137,"lng":-72.11762,"zip":"06382","miles_from_dt":7.71},{"city":"Old Mystic","state_name":"Connecticut","lat":41.39059,"lng":-71.96288,"zip":"06372","miles_from_dt":7.76},{"city":"East Lyme","state_name":"Connecticut","lat":41.38602,"lng":-72.24527,"zip":"06333","miles_from_dt":7.83},{"city":"Fishers Island","state_name":"New York","lat":41.27027,"lng":-71.98886,"zip":"06390","miles_from_dt":8.08},{"city":"Ledyard","state_name":"Connecticut","lat":41.44408,"lng":-71.99851,"zip":"06339","miles_from_dt":8.42},{"city":"South Lyme","state_name":"Connecticut","lat":41.29461,"lng":-72.2528,"zip":"06376","miles_from_dt":8.72},{"city":"Oakdale","state_name":"Connecticut","lat":41.46541,"lng":-72.18659,"zip":"06370","miles_from_dt":9.07},{"city":"Stonington","state_name":"Connecticut","lat":41.38039,"lng":-71.91376,"zip":"06378","miles_from_dt":10.02},{"city":"Mashantucket","state_name":"Connecticut","lat":41.46473,"lng":-71.97281,"zip":"06338","miles_from_dt":10.37},{"city":"Old Lyme","state_name":"Connecticut","lat":41.36361,"lng":-72.32582,"zip":"06371","miles_from_dt":11.66},{"city":"Salem","state_name":"Connecticut","lat":41.48492,"lng":-72.26733,"zip":"06420","miles_from_dt":12.65},{"city":"Pawcatuck","state_name":"Connecticut","lat":41.36685,"lng":-71.85826,"zip":"06379","miles_from_dt":12.74},{"city":"Preston","state_name":"Connecticut","lat":41.52281,"lng":-72.00072,"zip":"06365","miles_from_dt":13.02},{"city":"Norwich","state_name":"Connecticut","lat":41.54883,"lng":-72.08914,"zip":"06360","miles_from_dt":13.72},{"city":"Bozrah","state_name":"Connecticut","lat":41.54431,"lng":-72.17424,"zip":"06334","miles_from_dt":13.9},{"city":"North Stonington","state_name":"Connecticut","lat":41.46966,"lng":-71.87546,"zip":"06359","miles_from_dt":14.38},{"city":"Yantic","state_name":"Connecticut","lat":41.56036,"lng":-72.12338,"zip":"06389","miles_from_dt":14.54},{"city":"Taftville","state_name":"Connecticut","lat":41.56533,"lng":-72.05308,"zip":"06380","miles_from_dt":15.06},{"city":"Old Saybrook","state_name":"Connecticut","lat":41.30174,"lng":-72.38569,"zip":"06475","miles_from_dt":15.12},{"city":"Essex","state_name":"Connecticut","lat":41.35346,"lng":-72.39791,"zip":"06426","miles_from_dt":15.38},{"city":"Westerly","state_name":"Rhode Island","lat":41.36043,"lng":-71.79429,"zip":"02891","miles_from_dt":16.03},{"city":"Hadlyme","state_name":"Connecticut","lat":41.41573,"lng":-72.39964,"zip":"06439","miles_from_dt":16.1},{"city":"Orient","state_name":"New York","lat":41.1492,"lng":-72.26181,"zip":"11957","miles_from_dt":16.17},{"city":"Gilman","state_name":"Connecticut","lat":41.57934,"lng":-72.19505,"zip":"06336","miles_from_dt":16.53},{"city":"Centerbrook","state_name":"Connecticut","lat":41.35169,"lng":-72.42056,"zip":"06409","miles_from_dt":16.55},{"city":"East Haddam","state_name":"Connecticut","lat":41.46654,"lng":-72.39054,"zip":"06423","miles_from_dt":16.99},{"city":"Versailles","state_name":"Connecticut","lat":41.60059,"lng":-72.04304,"zip":"06383","miles_from_dt":17.55},{"city":"Ivoryton","state_name":"Connecticut","lat":41.34261,"lng":-72.44429,"zip":"06442","miles_from_dt":17.8},{"city":"Ashaway","state_name":"Rhode Island","lat":41.43546,"lng":-71.77196,"zip":"02804","miles_from_dt":18.14},{"city":"Jewett City","state_name":"Connecticut","lat":41.58873,"lng":-71.94854,"zip":"06351","miles_from_dt":18.29},{"city":"North Franklin","state_name":"Connecticut","lat":41.61585,"lng":-72.14313,"zip":"06254","miles_from_dt":18.45},{"city":"Deep River","state_name":"Connecticut","lat":41.36894,"lng":-72.46227,"zip":"06417","miles_from_dt":18.76},{"city":"Bradford","state_name":"Rhode Island","lat":41.40606,"lng":-71.74802,"zip":"02808","miles_from_dt":18.81},{"city":"Colchester","state_name":"Connecticut","lat":41.55563,"lng":-72.34694,"zip":"06415","miles_from_dt":19.03},{"city":"Hopkinton","state_name":"Rhode Island","lat":41.48117,"lng":-71.77787,"zip":"02833","miles_from_dt":19.12},{"city":"Westbrook","state_name":"Connecticut","lat":41.30688,"lng":-72.46652,"zip":"06498","miles_from_dt":19.18},{"city":"East Marion","state_name":"New York","lat":41.12627,"lng":-72.34223,"zip":"11939","miles_from_dt":19.88},{"city":"Chester","state_name":"Connecticut","lat":41.40594,"lng":-72.48319,"zip":"06412","miles_from_dt":20.17},{"city":"Baltic","state_name":"Connecticut","lat":41.64199,"lng":-72.07541,"zip":"06330","miles_from_dt":20.18},{"city":"Hanover","state_name":"Connecticut","lat":41.64829,"lng":-72.0693,"zip":"06350","miles_from_dt":20.64},{"city":"Lebanon","state_name":"Connecticut","lat":41.63128,"lng":-72.24019,"zip":"06249","miles_from_dt":20.67},{"city":"Rockville","state_name":"Rhode Island","lat":41.5257,"lng":-71.77734,"zip":"02873","miles_from_dt":20.77},{"city":"Moodus","state_name":"Connecticut","lat":41.50757,"lng":-72.44924,"zip":"06469","miles_from_dt":21.04},{"city":"Voluntown","state_name":"Connecticut","lat":41.58188,"lng":-71.83139,"zip":"06384","miles_from_dt":21.29},{"city":"Wood River Junction","state_name":"Rhode Island","lat":41.44761,"lng":-71.69759,"zip":"02894","miles_from_dt":22.07},{"city":"Hope Valley","state_name":"Rhode Island","lat":41.50469,"lng":-71.72807,"zip":"02832","miles_from_dt":22.17},{"city":"Haddam","state_name":"Connecticut","lat":41.45516,"lng":-72.50701,"zip":"06438","miles_from_dt":22.24},{"city":"Greenport","state_name":"New York","lat":41.09888,"lng":-72.37223,"zip":"11944","miles_from_dt":22.33},{"city":"South Windham","state_name":"Connecticut","lat":41.67136,"lng":-72.17048,"zip":"06266","miles_from_dt":22.44},{"city":"North Westchester","state_name":"Connecticut","lat":41.58816,"lng":-72.39783,"zip":"06474","miles_from_dt":22.47},{"city":"Montauk","state_name":"New York","lat":41.04458,"lng":-71.9518,"zip":"11954","miles_from_dt":22.5},{"city":"Clinton","state_name":"Connecticut","lat":41.29801,"lng":-72.53003,"zip":"06413","miles_from_dt":22.54},{"city":"Shelter Island Heights","state_name":"New York","lat":41.07727,"lng":-72.34244,"zip":"11965","miles_from_dt":22.62},{"city":"Charlestown","state_name":"Rhode Island","lat":41.3971,"lng":-71.67003,"zip":"02813","miles_from_dt":22.7},{"city":"Shelter Island","state_name":"New York","lat":41.05743,"lng":-72.31492,"zip":"11964","miles_from_dt":23.05},{"city":"Amston","state_name":"Connecticut","lat":41.62512,"lng":-72.37055,"zip":"06231","miles_from_dt":23.53},{"city":"Windham","state_name":"Connecticut","lat":41.69237,"lng":-72.13829,"zip":"06280","miles_from_dt":23.68},{"city":"Scotland","state_name":"Connecticut","lat":41.69869,"lng":-72.10487,"zip":"06264","miles_from_dt":24.05},{"city":"Canterbury","state_name":"Connecticut","lat":41.69717,"lng":-72.00109,"zip":"06331","miles_from_dt":24.51},{"city":"Carolina","state_name":"Rhode Island","lat":41.47625,"lng":-71.66094,"zip":"02812","miles_from_dt":24.52},{"city":"Plainfield","state_name":"Connecticut","lat":41.6798,"lng":-71.91441,"zip":"06374","miles_from_dt":24.74},{"city":"Killingworth","state_name":"Connecticut","lat":41.37923,"lng":-72.57847,"zip":"06419","miles_from_dt":24.84},{"city":"East Hampton","state_name":"New York","lat":40.99714,"lng":-72.20253,"zip":"11937","miles_from_dt":24.92},{"city":"Amagansett","state_name":"New York","lat":40.98877,"lng":-72.10482,"zip":"11930","miles_from_dt":24.95},{"city":"Shannock","state_name":"Rhode Island","lat":41.46052,"lng":-71.63848,"zip":"02875","miles_from_dt":25.27},{"city":"Willimantic","state_name":"Connecticut","lat":41.70816,"lng":-72.20731,"zip":"06226","miles_from_dt":25.29},{"city":"Wyoming","state_name":"Rhode Island","lat":41.52184,"lng":-71.67166,"zip":"02898","miles_from_dt":25.3},{"city":"East Hampton","state_name":"Connecticut","lat":41.5588,"lng":-72.50452,"zip":"06424","miles_from_dt":25.36},{"city":"Columbia","state_name":"Connecticut","lat":41.69387,"lng":-72.30722,"zip":"06237","miles_from_dt":25.99},{"city":"Kenyon","state_name":"Rhode Island","lat":41.45145,"lng":-71.62027,"zip":"02836","miles_from_dt":26},{"city":"Higganum","state_name":"Connecticut","lat":41.46674,"lng":-72.58038,"zip":"06441","miles_from_dt":26.11},{"city":"Southold","state_name":"New York","lat":41.05949,"lng":-72.42617,"zip":"11971","miles_from_dt":26.22},{"city":"Middle Haddam","state_name":"Connecticut","lat":41.541,"lng":-72.5483,"zip":"06456","miles_from_dt":26.64},{"city":"Marlborough","state_name":"Connecticut","lat":41.63309,"lng":-72.45472,"zip":"06447","miles_from_dt":26.75},{"city":"Sag Harbor","state_name":"New York","lat":40.99921,"lng":-72.32271,"zip":"11963","miles_from_dt":26.81},{"city":"North Windham","state_name":"Connecticut","lat":41.73699,"lng":-72.15723,"zip":"06256","miles_from_dt":26.84},{"city":"Madison","state_name":"Connecticut","lat":41.33976,"lng":-72.62783,"zip":"06443","miles_from_dt":27.34},{"city":"Moosup","state_name":"Connecticut","lat":41.69836,"lng":-71.85016,"zip":"06354","miles_from_dt":27.35},{"city":"Oneco","state_name":"Connecticut","lat":41.68394,"lng":-71.79881,"zip":"06373","miles_from_dt":27.89},{"city":"Hebron","state_name":"Connecticut","lat":41.68468,"lng":-72.40523,"zip":"06248","miles_from_dt":27.92},{"city":"Central Village","state_name":"Connecticut","lat":41.72845,"lng":-71.91008,"zip":"06332","miles_from_dt":27.94},{"city":"West Kingston","state_name":"Rhode Island","lat":41.50226,"lng":-71.60174,"zip":"02892","miles_from_dt":28.03},{"city":"Cobalt","state_name":"Connecticut","lat":41.57702,"lng":-72.55231,"zip":"06414","miles_from_dt":28.12},{"city":"Exeter","state_name":"Rhode Island","lat":41.56736,"lng":-71.63348,"zip":"02822","miles_from_dt":28.58},{"city":"Wainscott","state_name":"New York","lat":40.95146,"lng":-72.25093,"zip":"11975","miles_from_dt":28.59},{"city":"Peconic","state_name":"New York","lat":41.03688,"lng":-72.4613,"zip":"11958","miles_from_dt":28.6},{"city":"Hampton","state_name":"Connecticut","lat":41.76829,"lng":-72.06548,"zip":"06247","miles_from_dt":28.91},{"city":"Wauregan","state_name":"Connecticut","lat":41.74418,"lng":-71.90981,"zip":"06387","miles_from_dt":28.96},{"city":"Mansfield Center","state_name":"Connecticut","lat":41.77434,"lng":-72.19669,"zip":"06250","miles_from_dt":29.67},{"city":"West Greenwich","state_name":"Rhode Island","lat":41.6291,"lng":-71.66711,"zip":"02817","miles_from_dt":29.67},{"city":"Southampton","state_name":"New York","lat":40.96594,"lng":-72.35757,"zip":"11969","miles_from_dt":29.68},{"city":"Block Island","state_name":"Rhode Island","lat":41.17762,"lng":-71.57854,"zip":"02807","miles_from_dt":29.76},{"city":"Wakefield","state_name":"Rhode Island","lat":41.42865,"lng":-71.53837,"zip":"02879","miles_from_dt":29.8},{"city":"Sagaponack","state_name":"New York","lat":40.93715,"lng":-72.27379,"zip":"11962","miles_from_dt":29.88},{"city":"Sterling","state_name":"Connecticut","lat":41.72708,"lng":-71.81679,"zip":"06377","miles_from_dt":29.92},{"city":"Andover","state_name":"Connecticut","lat":41.73309,"lng":-72.37603,"zip":"06232","miles_from_dt":29.99}],"targetCityZipCode":"06320","targetCityState":"Connecticut"},"__N_SSG":true}