{"pageProps":{"stateName":"Connecticut","cityName":"simsbury","nearbyCities":[{"city":"West Simsbury","state_name":"Connecticut","lat":41.87266,"lng":-72.86101,"zip":"06092","miles_from_dt":2.33},{"city":"Weatogue","state_name":"Connecticut","lat":41.83801,"lng":-72.82343,"zip":"06089","miles_from_dt":2.7},{"city":"Tariffville","state_name":"Connecticut","lat":41.90708,"lng":-72.76839,"zip":"06081","miles_from_dt":3.24},{"city":"North Canton","state_name":"Connecticut","lat":41.89054,"lng":-72.88833,"zip":"06059","miles_from_dt":3.84},{"city":"Bloomfield","state_name":"Connecticut","lat":41.84286,"lng":-72.73714,"zip":"06002","miles_from_dt":4.7},{"city":"Canton","state_name":"Connecticut","lat":41.8592,"lng":-72.90717,"zip":"06019","miles_from_dt":4.84},{"city":"Canton Center","state_name":"Connecticut","lat":41.86283,"lng":-72.90991,"zip":"06020","miles_from_dt":4.93},{"city":"West Granby","state_name":"Connecticut","lat":41.94685,"lng":-72.86403,"zip":"06090","miles_from_dt":5.43},{"city":"Collinsville","state_name":"Connecticut","lat":41.86595,"lng":-72.92749,"zip":"06022","miles_from_dt":5.79},{"city":"Granby","state_name":"Connecticut","lat":41.9608,"lng":-72.80179,"zip":"06035","miles_from_dt":5.85},{"city":"East Granby","state_name":"Connecticut","lat":41.94242,"lng":-72.74093,"zip":"06026","miles_from_dt":5.97},{"city":"Avon","state_name":"Connecticut","lat":41.79185,"lng":-72.85107,"zip":"06001","miles_from_dt":6.13},{"city":"West Hartford","state_name":"Connecticut","lat":41.7875,"lng":-72.76203,"zip":"06117","miles_from_dt":6.77},{"city":"Poquonock","state_name":"Connecticut","lat":41.90596,"lng":-72.68268,"zip":"06064","miles_from_dt":7.18},{"city":"Windsor","state_name":"Connecticut","lat":41.87229,"lng":-72.67348,"zip":"06095","miles_from_dt":7.37},{"city":"Pine Meadow","state_name":"Connecticut","lat":41.87524,"lng":-72.96716,"zip":"06061","miles_from_dt":7.78},{"city":"Hartford","state_name":"Connecticut","lat":41.79317,"lng":-72.69741,"zip":"06112","miles_from_dt":8.42},{"city":"Hartford","state_name":"Connecticut","lat":41.75757,"lng":-72.76472,"zip":"06180","miles_from_dt":8.64},{"city":"Barkhamsted","state_name":"Connecticut","lat":41.93053,"lng":-72.97096,"zip":"06063","miles_from_dt":8.8},{"city":"West Hartford","state_name":"Connecticut","lat":41.75375,"lng":-72.75966,"zip":"06107","miles_from_dt":8.98},{"city":"Windsor","state_name":"Connecticut","lat":41.85424,"lng":-72.64405,"zip":"06006","miles_from_dt":9.02},{"city":"Windsor Locks","state_name":"Connecticut","lat":41.92671,"lng":-72.65443,"zip":"06096","miles_from_dt":9.03},{"city":"Hartford","state_name":"Connecticut","lat":41.92683,"lng":-72.65442,"zip":"06199","miles_from_dt":9.03},{"city":"Hartford","state_name":"Connecticut","lat":41.75716,"lng":-72.74358,"zip":"06155","miles_from_dt":9.07},{"city":"West Hartford","state_name":"Connecticut","lat":41.76351,"lng":-72.72711,"zip":"06119","miles_from_dt":9.07},{"city":"North Granby","state_name":"Connecticut","lat":42.00687,"lng":-72.84594,"zip":"06060","miles_from_dt":9.11},{"city":"Hartford","state_name":"Connecticut","lat":41.77312,"lng":-72.70705,"zip":"06154","miles_from_dt":9.11},{"city":"Hartford","state_name":"Connecticut","lat":41.77149,"lng":-72.70781,"zip":"06160","miles_from_dt":9.17},{"city":"Hartford","state_name":"Connecticut","lat":41.77322,"lng":-72.70442,"zip":"06105","miles_from_dt":9.19},{"city":"Hartford","state_name":"Connecticut","lat":41.75895,"lng":-72.73209,"zip":"06156","miles_from_dt":9.22},{"city":"Hartford","state_name":"Connecticut","lat":41.776,"lng":-72.69747,"zip":"06142","miles_from_dt":9.27},{"city":"Hartford","state_name":"Connecticut","lat":41.79073,"lng":-72.66999,"zip":"06144","miles_from_dt":9.6},{"city":"Hartford","state_name":"Connecticut","lat":41.79182,"lng":-72.66828,"zip":"06145","miles_from_dt":9.63},{"city":"Hartford","state_name":"Connecticut","lat":41.79084,"lng":-72.66892,"zip":"06143","miles_from_dt":9.64},{"city":"Hartford","state_name":"Connecticut","lat":41.79111,"lng":-72.66868,"zip":"06147","miles_from_dt":9.64},{"city":"Unionville","state_name":"Connecticut","lat":41.74717,"lng":-72.88883,"zip":"06085","miles_from_dt":9.7},{"city":"Hartford","state_name":"Connecticut","lat":41.79222,"lng":-72.66532,"zip":"06141","miles_from_dt":9.73},{"city":"Hartford","state_name":"Connecticut","lat":41.78944,"lng":-72.66523,"zip":"06120","miles_from_dt":9.85},{"city":"Hartford","state_name":"Connecticut","lat":41.7889,"lng":-72.66525,"zip":"06104","miles_from_dt":9.87},{"city":"Hartford","state_name":"Connecticut","lat":41.78857,"lng":-72.66512,"zip":"06146","miles_from_dt":9.89},{"city":"Hartford","state_name":"Connecticut","lat":41.78822,"lng":-72.66567,"zip":"06101","miles_from_dt":9.89},{"city":"Hartford","state_name":"Connecticut","lat":41.78982,"lng":-72.6637,"zip":"06140","miles_from_dt":9.9},{"city":"West Suffield","state_name":"Connecticut","lat":42.00265,"lng":-72.72285,"zip":"06093","miles_from_dt":9.93},{"city":"New Hartford","state_name":"Connecticut","lat":41.84417,"lng":-73.00552,"zip":"06057","miles_from_dt":10.02},{"city":"East Hartland","state_name":"Connecticut","lat":42.00403,"lng":-72.91112,"zip":"06027","miles_from_dt":10.05},{"city":"Hartford","state_name":"Connecticut","lat":41.7687,"lng":-72.68351,"zip":"06132","miles_from_dt":10.13},{"city":"Hartford","state_name":"Connecticut","lat":41.76832,"lng":-72.68292,"zip":"06167","miles_from_dt":10.17},{"city":"Hartford","state_name":"Connecticut","lat":41.76565,"lng":-72.68609,"zip":"06123","miles_from_dt":10.2},{"city":"West Hartford","state_name":"Connecticut","lat":41.76671,"lng":-72.68228,"zip":"06127","miles_from_dt":10.27},{"city":"Hartford","state_name":"Connecticut","lat":41.76646,"lng":-72.6827,"zip":"06134","miles_from_dt":10.27},{"city":"Hartford","state_name":"Connecticut","lat":41.76401,"lng":-72.68595,"zip":"06183","miles_from_dt":10.29},{"city":"West Hartford","state_name":"Connecticut","lat":41.75322,"lng":-72.70404,"zip":"06133","miles_from_dt":10.31},{"city":"Hartford","state_name":"Connecticut","lat":41.76651,"lng":-72.67999,"zip":"06126","miles_from_dt":10.36},{"city":"Farmington","state_name":"Connecticut","lat":41.72528,"lng":-72.83147,"zip":"06032","miles_from_dt":10.48},{"city":"Hartford","state_name":"Connecticut","lat":41.76567,"lng":-72.67516,"zip":"06150","miles_from_dt":10.57},{"city":"Hartford","state_name":"Connecticut","lat":41.75706,"lng":-72.68864,"zip":"06152","miles_from_dt":10.57},{"city":"Hartford","state_name":"Connecticut","lat":41.7663,"lng":-72.67312,"zip":"06151","miles_from_dt":10.62},{"city":"Suffield","state_name":"Connecticut","lat":41.95044,"lng":-72.63519,"zip":"06080","miles_from_dt":10.63},{"city":"Hartford","state_name":"Connecticut","lat":41.76841,"lng":-72.66918,"zip":"06176","miles_from_dt":10.66},{"city":"Hartford","state_name":"Connecticut","lat":41.76595,"lng":-72.67006,"zip":"06102","miles_from_dt":10.74},{"city":"Hartford","state_name":"Connecticut","lat":41.76477,"lng":-72.67012,"zip":"06103","miles_from_dt":10.8},{"city":"Hartford","state_name":"Connecticut","lat":41.74818,"lng":-72.69683,"zip":"06106","miles_from_dt":10.81},{"city":"West Hartford","state_name":"Connecticut","lat":41.73247,"lng":-72.73378,"zip":"06110","miles_from_dt":10.83},{"city":"Hartford","state_name":"Connecticut","lat":41.76056,"lng":-72.67405,"zip":"06115","miles_from_dt":10.87},{"city":"Burlington","state_name":"Connecticut","lat":41.7598,"lng":-72.95895,"zip":"06013","miles_from_dt":10.93},{"city":"East Windsor Hill","state_name":"Connecticut","lat":41.86415,"lng":-72.5999,"zip":"06028","miles_from_dt":11.19},{"city":"Farmington","state_name":"Connecticut","lat":41.71177,"lng":-72.83934,"zip":"06030","miles_from_dt":11.45},{"city":"East Windsor","state_name":"Connecticut","lat":41.9058,"lng":-72.59646,"zip":"06088","miles_from_dt":11.51},{"city":"Suffield","state_name":"Connecticut","lat":41.98903,"lng":-72.64875,"zip":"06078","miles_from_dt":11.6},{"city":"Riverton","state_name":"Connecticut","lat":41.97795,"lng":-73.00054,"zip":"06065","miles_from_dt":11.79},{"city":"Farmington","state_name":"Connecticut","lat":41.70891,"lng":-72.87348,"zip":"06034","miles_from_dt":11.95},{"city":"East Hartford","state_name":"Connecticut","lat":41.78177,"lng":-72.62246,"zip":"06128","miles_from_dt":11.96},{"city":"East Hartford","state_name":"Connecticut","lat":41.78078,"lng":-72.62165,"zip":"06108","miles_from_dt":12.03},{"city":"Hartford","state_name":"Connecticut","lat":41.7394,"lng":-72.66949,"zip":"06114","miles_from_dt":12.14},{"city":"Southwick","state_name":"Massachusetts","lat":42.05441,"lng":-72.77851,"zip":"01077","miles_from_dt":12.42},{"city":"West Hartland","state_name":"Connecticut","lat":42.01419,"lng":-72.97423,"zip":"06091","miles_from_dt":12.5},{"city":"South Windsor","state_name":"Connecticut","lat":41.83528,"lng":-72.57332,"zip":"06074","miles_from_dt":12.86},{"city":"New Britain","state_name":"Connecticut","lat":41.68874,"lng":-72.7941,"zip":"06053","miles_from_dt":13.03},{"city":"East Hartford","state_name":"Connecticut","lat":41.76168,"lng":-72.61261,"zip":"06138","miles_from_dt":13.18},{"city":"Newington","state_name":"Connecticut","lat":41.68869,"lng":-72.72981,"zip":"06131","miles_from_dt":13.73},{"city":"Hartford","state_name":"Connecticut","lat":41.68815,"lng":-72.72886,"zip":"06153","miles_from_dt":13.78},{"city":"Newington","state_name":"Connecticut","lat":41.68677,"lng":-72.73057,"zip":"06111","miles_from_dt":13.84},{"city":"East Hartford","state_name":"Connecticut","lat":41.74871,"lng":-72.60976,"zip":"06118","miles_from_dt":13.85},{"city":"Wethersfield","state_name":"Connecticut","lat":41.70859,"lng":-72.65977,"zip":"06129","miles_from_dt":14.14},{"city":"Broad Brook","state_name":"Connecticut","lat":41.90417,"lng":-72.54438,"zip":"06016","miles_from_dt":14.15},{"city":"New Britain","state_name":"Connecticut","lat":41.67363,"lng":-72.77882,"zip":"06050","miles_from_dt":14.15},{"city":"Plainville","state_name":"Connecticut","lat":41.67338,"lng":-72.86079,"zip":"06062","miles_from_dt":14.22},{"city":"Wethersfield","state_name":"Connecticut","lat":41.70131,"lng":-72.67035,"zip":"06109","miles_from_dt":14.26},{"city":"Hartford","state_name":"Connecticut","lat":41.70107,"lng":-72.66746,"zip":"06161","miles_from_dt":14.35},{"city":"Torrington","state_name":"Connecticut","lat":41.77,"lng":-73.06219,"zip":"06792","miles_from_dt":14.68},{"city":"New Britain","state_name":"Connecticut","lat":41.66519,"lng":-72.76983,"zip":"06051","miles_from_dt":14.8},{"city":"Enfield","state_name":"Connecticut","lat":41.99818,"lng":-72.57639,"zip":"06083","miles_from_dt":14.93},{"city":"Bristol","state_name":"Connecticut","lat":41.681,"lng":-72.94065,"zip":"06010","miles_from_dt":14.96},{"city":"Winsted","state_name":"Connecticut","lat":41.92379,"lng":-73.10003,"zip":"06098","miles_from_dt":14.99},{"city":"Feeding Hills","state_name":"Massachusetts","lat":42.06869,"lng":-72.67967,"zip":"01030","miles_from_dt":15},{"city":"Harwinton","state_name":"Connecticut","lat":41.75509,"lng":-73.05838,"zip":"06791","miles_from_dt":15.06},{"city":"New Britain","state_name":"Connecticut","lat":41.65736,"lng":-72.80506,"zip":"06052","miles_from_dt":15.15},{"city":"Bristol","state_name":"Connecticut","lat":41.67746,"lng":-72.94628,"zip":"06011","miles_from_dt":15.31},{"city":"Enfield","state_name":"Connecticut","lat":41.98393,"lng":-72.55475,"zip":"06082","miles_from_dt":15.37},{"city":"Manchester","state_name":"Connecticut","lat":41.79743,"lng":-72.52704,"zip":"06042","miles_from_dt":15.9},{"city":"Granville","state_name":"Massachusetts","lat":42.0826,"lng":-72.95611,"zip":"01034","miles_from_dt":15.93},{"city":"Colebrook","state_name":"Connecticut","lat":42.00152,"lng":-73.08078,"zip":"06021","miles_from_dt":16.12},{"city":"Agawam","state_name":"Massachusetts","lat":42.06262,"lng":-72.62521,"zip":"01001","miles_from_dt":16.17},{"city":"Torrington","state_name":"Connecticut","lat":41.83747,"lng":-73.12874,"zip":"06790","miles_from_dt":16.35},{"city":"Manchester","state_name":"Connecticut","lat":41.77573,"lng":-72.5232,"zip":"06045","miles_from_dt":16.66},{"city":"Manchester","state_name":"Connecticut","lat":41.77495,"lng":-72.52156,"zip":"06041","miles_from_dt":16.76},{"city":"Winchester Center","state_name":"Connecticut","lat":41.90188,"lng":-73.1423,"zip":"06094","miles_from_dt":16.9},{"city":"Rocky Hill","state_name":"Connecticut","lat":41.6574,"lng":-72.66259,"zip":"06067","miles_from_dt":17.09},{"city":"Manchester","state_name":"Connecticut","lat":41.7616,"lng":-72.52247,"zip":"06040","miles_from_dt":17.12},{"city":"Longmeadow","state_name":"Massachusetts","lat":42.04877,"lng":-72.57163,"zip":"01106","miles_from_dt":17.31},{"city":"Terryville","state_name":"Connecticut","lat":41.66912,"lng":-73.01502,"zip":"06786","miles_from_dt":17.63},{"city":"Pequabuck","state_name":"Connecticut","lat":41.67173,"lng":-73.03229,"zip":"06781","miles_from_dt":18.02},{"city":"Berlin","state_name":"Connecticut","lat":41.61148,"lng":-72.7775,"zip":"06037","miles_from_dt":18.42},{"city":"Southington","state_name":"Connecticut","lat":41.61312,"lng":-72.87233,"zip":"06489","miles_from_dt":18.42},{"city":"Westfield","state_name":"Massachusetts","lat":42.14018,"lng":-72.75607,"zip":"01086","miles_from_dt":18.44},{"city":"Somersville","state_name":"Connecticut","lat":41.98465,"lng":-72.4876,"zip":"06072","miles_from_dt":18.5},{"city":"Glastonbury","state_name":"Connecticut","lat":41.70593,"lng":-72.53915,"zip":"06033","miles_from_dt":18.54},{"city":"Vernon Rockville","state_name":"Connecticut","lat":41.83641,"lng":-72.46063,"zip":"06066","miles_from_dt":18.56},{"city":"Northfield","state_name":"Connecticut","lat":41.71469,"lng":-73.10459,"zip":"06778","miles_from_dt":18.62},{"city":"West Springfield","state_name":"Massachusetts","lat":42.12128,"lng":-72.65486,"zip":"01090","miles_from_dt":18.81},{"city":"East Berlin","state_name":"Connecticut","lat":41.61355,"lng":-72.72072,"zip":"06023","miles_from_dt":18.82},{"city":"Ellington","state_name":"Connecticut","lat":41.91439,"lng":-72.4535,"zip":"06029","miles_from_dt":18.89},{"city":"West Springfield","state_name":"Massachusetts","lat":42.12532,"lng":-72.65025,"zip":"01089","miles_from_dt":19.17},{"city":"Westfield","state_name":"Massachusetts","lat":42.15375,"lng":-72.76961,"zip":"01085","miles_from_dt":19.27},{"city":"Springfield","state_name":"Massachusetts","lat":42.09992,"lng":-72.58958,"zip":"01101","miles_from_dt":19.33},{"city":"Springfield","state_name":"Massachusetts","lat":42.0814,"lng":-72.55866,"zip":"01108","miles_from_dt":19.38},{"city":"East Glastonbury","state_name":"Connecticut","lat":41.69089,"lng":-72.53492,"zip":"06025","miles_from_dt":19.38},{"city":"Springfield","state_name":"Massachusetts","lat":42.10189,"lng":-72.59091,"zip":"01144","miles_from_dt":19.39},{"city":"Plymouth","state_name":"Connecticut","lat":41.65448,"lng":-73.04731,"zip":"06782","miles_from_dt":19.44},{"city":"Springfield","state_name":"Massachusetts","lat":42.10403,"lng":-72.59179,"zip":"01115","miles_from_dt":19.48},{"city":"Springfield","state_name":"Massachusetts","lat":42.10443,"lng":-72.58997,"zip":"01103","miles_from_dt":19.56},{"city":"Springfield","state_name":"Massachusetts","lat":42.09911,"lng":-72.57865,"zip":"01105","miles_from_dt":19.63},{"city":"Springfield","state_name":"Massachusetts","lat":42.0886,"lng":-72.56103,"zip":"01138","miles_from_dt":19.66},{"city":"Russell","state_name":"Massachusetts","lat":42.16029,"lng":-72.8598,"zip":"01071","miles_from_dt":19.7},{"city":"South Glastonbury","state_name":"Connecticut","lat":41.65753,"lng":-72.56742,"zip":"06073","miles_from_dt":19.85},{"city":"Cromwell","state_name":"Connecticut","lat":41.61218,"lng":-72.66382,"zip":"06416","miles_from_dt":19.89},{"city":"Thomaston","state_name":"Connecticut","lat":41.67033,"lng":-73.08568,"zip":"06787","miles_from_dt":19.92},{"city":"Springfield","state_name":"Massachusetts","lat":42.11915,"lng":-72.60341,"zip":"01199","miles_from_dt":20},{"city":"Springfield","state_name":"Massachusetts","lat":42.12116,"lng":-72.60642,"zip":"01107","miles_from_dt":20.03},{"city":"Longmeadow","state_name":"Massachusetts","lat":42.06444,"lng":-72.51306,"zip":"01116","miles_from_dt":20.29},{"city":"West Hartford","state_name":"Connecticut","lat":41.58449,"lng":-72.86534,"zip":"06137","miles_from_dt":20.33},{"city":"Somers","state_name":"Connecticut","lat":41.99489,"lng":-72.45213,"zip":"06071","miles_from_dt":20.46},{"city":"Norfolk","state_name":"Connecticut","lat":41.97186,"lng":-73.1958,"zip":"06058","miles_from_dt":20.63},{"city":"East Longmeadow","state_name":"Massachusetts","lat":42.05967,"lng":-72.49899,"zip":"01028","miles_from_dt":20.65},{"city":"Wolcott","state_name":"Connecticut","lat":41.60102,"lng":-72.97325,"zip":"06716","miles_from_dt":20.69},{"city":"Woronoco","state_name":"Massachusetts","lat":42.17722,"lng":-72.83175,"zip":"01097","miles_from_dt":20.75},{"city":"Bolton","state_name":"Connecticut","lat":41.76647,"lng":-72.43903,"zip":"06043","miles_from_dt":20.91},{"city":"Plantsville","state_name":"Connecticut","lat":41.57799,"lng":-72.90398,"zip":"06479","miles_from_dt":21.11},{"city":"Springfield","state_name":"Massachusetts","lat":42.09476,"lng":-72.5253,"zip":"01118","miles_from_dt":21.23},{"city":"Springfield","state_name":"Massachusetts","lat":42.11632,"lng":-72.54693,"zip":"01139","miles_from_dt":21.58},{"city":"Springfield","state_name":"Massachusetts","lat":42.11839,"lng":-72.54876,"zip":"01109","miles_from_dt":21.63},{"city":"Springfield","state_name":"Massachusetts","lat":42.11798,"lng":-72.5479,"zip":"01111","miles_from_dt":21.64},{"city":"Goshen","state_name":"Connecticut","lat":41.84714,"lng":-73.23715,"zip":"06756","miles_from_dt":21.81},{"city":"Springfield","state_name":"Massachusetts","lat":42.11605,"lng":-72.53858,"zip":"01102","miles_from_dt":21.84},{"city":"Springfield","state_name":"Massachusetts","lat":42.13326,"lng":-72.56733,"zip":"01104","miles_from_dt":21.86},{"city":"Milldale","state_name":"Connecticut","lat":41.56548,"lng":-72.90022,"zip":"06467","miles_from_dt":21.92},{"city":"Litchfield","state_name":"Connecticut","lat":41.75757,"lng":-73.21544,"zip":"06759","miles_from_dt":22.19},{"city":"Blandford","state_name":"Massachusetts","lat":42.18234,"lng":-72.95819,"zip":"01008","miles_from_dt":22.32},{"city":"Chicopee","state_name":"Massachusetts","lat":42.16059,"lng":-72.60788,"zip":"01012","miles_from_dt":22.33},{"city":"Sandisfield","state_name":"Massachusetts","lat":42.1068,"lng":-73.12213,"zip":"01255","miles_from_dt":22.36},{"city":"Marion","state_name":"Connecticut","lat":41.5634,"lng":-72.93038,"zip":"06444","miles_from_dt":22.42},{"city":"Portland","state_name":"Connecticut","lat":41.59885,"lng":-72.5893,"zip":"06480","miles_from_dt":22.48},{"city":"Springfield","state_name":"Massachusetts","lat":42.09497,"lng":-72.48806,"zip":"01128","miles_from_dt":22.64},{"city":"Waterbury","state_name":"Connecticut","lat":41.58601,"lng":-73.03296,"zip":"06704","miles_from_dt":22.98},{"city":"Meriden","state_name":"Connecticut","lat":41.54203,"lng":-72.82364,"zip":"06451","miles_from_dt":23.1},{"city":"Springfield","state_name":"Massachusetts","lat":42.12452,"lng":-72.51126,"zip":"01119","miles_from_dt":23.22},{"city":"Tolland","state_name":"Connecticut","lat":41.87917,"lng":-72.36443,"zip":"06084","miles_from_dt":23.31},{"city":"Oakville","state_name":"Connecticut","lat":41.59562,"lng":-73.08058,"zip":"06779","miles_from_dt":23.73},{"city":"Meriden","state_name":"Connecticut","lat":41.53332,"lng":-72.77399,"zip":"06450","miles_from_dt":23.8},{"city":"Middletown","state_name":"Connecticut","lat":41.5516,"lng":-72.66017,"zip":"06459","miles_from_dt":23.85},{"city":"Watertown","state_name":"Connecticut","lat":41.61873,"lng":-73.12336,"zip":"06795","miles_from_dt":23.85},{"city":"Springfield","state_name":"Massachusetts","lat":42.1211,"lng":-72.4877,"zip":"01129","miles_from_dt":23.89},{"city":"Morris","state_name":"Connecticut","lat":41.69027,"lng":-73.20714,"zip":"06763","miles_from_dt":23.94},{"city":"Chicopee","state_name":"Massachusetts","lat":42.17481,"lng":-72.57229,"zip":"01014","miles_from_dt":24.1},{"city":"Middletown","state_name":"Connecticut","lat":41.54759,"lng":-72.65484,"zip":"06457","miles_from_dt":24.2},{"city":"Chicopee","state_name":"Massachusetts","lat":42.17796,"lng":-72.57284,"zip":"01021","miles_from_dt":24.27},{"city":"Waterbury","state_name":"Connecticut","lat":41.56958,"lng":-73.04598,"zip":"06710","miles_from_dt":24.3},{"city":"Hampden","state_name":"Massachusetts","lat":42.0638,"lng":-72.4157,"zip":"01036","miles_from_dt":24.34},{"city":"Rockfall","state_name":"Connecticut","lat":41.53435,"lng":-72.70067,"zip":"06481","miles_from_dt":24.37},{"city":"Chicopee","state_name":"Massachusetts","lat":42.17618,"lng":-72.56538,"zip":"01020","miles_from_dt":24.37},{"city":"Waterbury","state_name":"Connecticut","lat":41.549,"lng":-72.992,"zip":"06705","miles_from_dt":24.38},{"city":"Springfield","state_name":"Massachusetts","lat":42.15279,"lng":-72.51126,"zip":"01152","miles_from_dt":24.69},{"city":"Southampton","state_name":"Massachusetts","lat":42.23084,"lng":-72.73856,"zip":"01073","miles_from_dt":24.76},{"city":"Indian Orchard","state_name":"Massachusetts","lat":42.15294,"lng":-72.50883,"zip":"01151","miles_from_dt":24.77},{"city":"Cobalt","state_name":"Connecticut","lat":41.57702,"lng":-72.55231,"zip":"06414","miles_from_dt":24.78},{"city":"Waterbury","state_name":"Connecticut","lat":41.55961,"lng":-73.04141,"zip":"06724","miles_from_dt":24.79},{"city":"Andover","state_name":"Connecticut","lat":41.73309,"lng":-72.37603,"zip":"06232","miles_from_dt":24.8},{"city":"Waterbury","state_name":"Connecticut","lat":41.55707,"lng":-73.03674,"zip":"06723","miles_from_dt":24.83},{"city":"Holyoke","state_name":"Massachusetts","lat":42.21251,"lng":-72.64109,"zip":"01040","miles_from_dt":24.86},{"city":"Waterbury","state_name":"Connecticut","lat":41.55703,"lng":-73.03805,"zip":"06720","miles_from_dt":24.87},{"city":"Waterbury","state_name":"Connecticut","lat":41.55647,"lng":-73.03858,"zip":"06722","miles_from_dt":24.91},{"city":"Waterbury","state_name":"Connecticut","lat":41.55503,"lng":-73.03798,"zip":"06726","miles_from_dt":24.99},{"city":"East Otis","state_name":"Massachusetts","lat":42.19402,"lng":-73.05067,"zip":"01029","miles_from_dt":25},{"city":"Hebron","state_name":"Connecticut","lat":41.68468,"lng":-72.40523,"zip":"06248","miles_from_dt":25.03},{"city":"Waterbury","state_name":"Connecticut","lat":41.55713,"lng":-73.04539,"zip":"06702","miles_from_dt":25.04},{"city":"Waterbury","state_name":"Connecticut","lat":41.55876,"lng":-73.05218,"zip":"06701","miles_from_dt":25.11},{"city":"Holyoke","state_name":"Massachusetts","lat":42.20746,"lng":-72.61142,"zip":"01041","miles_from_dt":25.14},{"city":"Marlborough","state_name":"Connecticut","lat":41.63309,"lng":-72.45472,"zip":"06447","miles_from_dt":25.14},{"city":"Waterbury","state_name":"Connecticut","lat":41.55266,"lng":-73.04093,"zip":"06725","miles_from_dt":25.2},{"city":"Waterbury","state_name":"Connecticut","lat":41.55985,"lng":-73.05903,"zip":"06721","miles_from_dt":25.22},{"city":"Bantam","state_name":"Connecticut","lat":41.72327,"lng":-73.2624,"zip":"06750","miles_from_dt":25.36},{"city":"Southfield","state_name":"Massachusetts","lat":42.07316,"lng":-73.23282,"zip":"01259","miles_from_dt":25.38},{"city":"Lakeside","state_name":"Connecticut","lat":41.67672,"lng":-73.2286,"zip":"06758","miles_from_dt":25.38},{"city":"Coventry","state_name":"Connecticut","lat":41.78281,"lng":-72.33941,"zip":"06238","miles_from_dt":25.45},{"city":"Middlefield","state_name":"Connecticut","lat":41.51468,"lng":-72.71732,"zip":"06455","miles_from_dt":25.51},{"city":"Cheshire","state_name":"Connecticut","lat":41.51183,"lng":-72.90441,"zip":"06410","miles_from_dt":25.59},{"city":"East Canaan","state_name":"Connecticut","lat":42.00812,"lng":-73.28374,"zip":"06024","miles_from_dt":25.74},{"city":"Waterbury","state_name":"Connecticut","lat":41.52891,"lng":-73.00787,"zip":"06703","miles_from_dt":25.97},{"city":"Waterbury","state_name":"Connecticut","lat":41.53285,"lng":-73.02389,"zip":"06706","miles_from_dt":26.05},{"city":"Waterbury","state_name":"Connecticut","lat":41.54939,"lng":-73.06738,"zip":"06708","miles_from_dt":26.06},{"city":"Chicopee","state_name":"Massachusetts","lat":42.19721,"lng":-72.54249,"zip":"01022","miles_from_dt":26.22},{"city":"Bethlehem","state_name":"Connecticut","lat":41.63792,"lng":-73.2122,"zip":"06751","miles_from_dt":26.27},{"city":"Wilbraham","state_name":"Massachusetts","lat":42.12763,"lng":-72.42994,"zip":"01095","miles_from_dt":26.37},{"city":"Cheshire","state_name":"Connecticut","lat":41.4997,"lng":-72.90181,"zip":"06411","miles_from_dt":26.39},{"city":"Falls Village","state_name":"Connecticut","lat":41.95788,"lng":-73.31733,"zip":"06031","miles_from_dt":26.43},{"city":"Cheshire","state_name":"Connecticut","lat":41.49889,"lng":-72.90111,"zip":"06408","miles_from_dt":26.44},{"city":"South Willington","state_name":"Connecticut","lat":41.85452,"lng":-72.30189,"zip":"06265","miles_from_dt":26.58},{"city":"West Cornwall","state_name":"Connecticut","lat":41.87595,"lng":-73.33255,"zip":"06796","miles_from_dt":26.63},{"city":"Wallingford","state_name":"Connecticut","lat":41.4868,"lng":-72.82276,"zip":"06493","miles_from_dt":26.91},{"city":"Canaan","state_name":"Connecticut","lat":42.02872,"lng":-73.29807,"zip":"06018","miles_from_dt":26.95},{"city":"Middle Haddam","state_name":"Connecticut","lat":41.541,"lng":-72.5483,"zip":"06456","miles_from_dt":27},{"city":"East Hampton","state_name":"Connecticut","lat":41.5588,"lng":-72.50452,"zip":"06424","miles_from_dt":27.23},{"city":"Prospect","state_name":"Connecticut","lat":41.49927,"lng":-72.97609,"zip":"06712","miles_from_dt":27.33},{"city":"Otis","state_name":"Massachusetts","lat":42.20751,"lng":-73.1118,"zip":"01253","miles_from_dt":27.43},{"city":"Cornwall","state_name":"Connecticut","lat":41.82514,"lng":-73.34471,"zip":"06753","miles_from_dt":27.5},{"city":"Mansfield Depot","state_name":"Connecticut","lat":41.81589,"lng":-72.286,"zip":"06251","miles_from_dt":27.68},{"city":"Wallingford","state_name":"Connecticut","lat":41.46962,"lng":-72.81805,"zip":"06494","miles_from_dt":28.1},{"city":"Stafford","state_name":"Connecticut","lat":41.98793,"lng":-72.28708,"zip":"06075","miles_from_dt":28.33},{"city":"Ludlow","state_name":"Massachusetts","lat":42.19211,"lng":-72.45805,"zip":"01056","miles_from_dt":28.52},{"city":"Mill River","state_name":"Massachusetts","lat":42.10924,"lng":-73.27475,"zip":"01244","miles_from_dt":28.54},{"city":"Willington","state_name":"Connecticut","lat":41.88959,"lng":-72.25933,"zip":"06279","miles_from_dt":28.74},{"city":"Huntington","state_name":"Massachusetts","lat":42.29092,"lng":-72.87526,"zip":"01050","miles_from_dt":28.75},{"city":"Wallingford","state_name":"Connecticut","lat":41.46,"lng":-72.80219,"zip":"06495","miles_from_dt":28.77},{"city":"Wallingford","state_name":"Connecticut","lat":41.45927,"lng":-72.80473,"zip":"06492","miles_from_dt":28.82},{"city":"Amston","state_name":"Connecticut","lat":41.62512,"lng":-72.37055,"zip":"06231","miles_from_dt":28.85},{"city":"Middlebury","state_name":"Connecticut","lat":41.5271,"lng":-73.1228,"zip":"06762","miles_from_dt":28.87},{"city":"South Hadley","state_name":"Massachusetts","lat":42.25672,"lng":-72.57928,"zip":"01075","miles_from_dt":28.92},{"city":"Ashley Falls","state_name":"Massachusetts","lat":42.06242,"lng":-73.32146,"zip":"01222","miles_from_dt":29.01},{"city":"Cornwall Bridge","state_name":"Connecticut","lat":41.76841,"lng":-73.36127,"zip":"06754","miles_from_dt":29.11},{"city":"Easthampton","state_name":"Massachusetts","lat":42.29506,"lng":-72.74303,"zip":"01027","miles_from_dt":29.12},{"city":"Columbia","state_name":"Connecticut","lat":41.69387,"lng":-72.30722,"zip":"06237","miles_from_dt":29.17},{"city":"Monson","state_name":"Massachusetts","lat":42.09118,"lng":-72.32392,"zip":"01057","miles_from_dt":29.36},{"city":"Naugatuck","state_name":"Connecticut","lat":41.48913,"lng":-73.05181,"zip":"06770","miles_from_dt":29.4},{"city":"North Westchester","state_name":"Connecticut","lat":41.58816,"lng":-72.39783,"zip":"06474","miles_from_dt":29.4},{"city":"Durham","state_name":"Connecticut","lat":41.46221,"lng":-72.68285,"zip":"06422","miles_from_dt":29.43},{"city":"Storrs Mansfield","state_name":"Connecticut","lat":41.80998,"lng":-72.25283,"zip":"06269","miles_from_dt":29.44},{"city":"Stafford Springs","state_name":"Connecticut","lat":41.98906,"lng":-72.26224,"zip":"06076","miles_from_dt":29.59},{"city":"Woodbury","state_name":"Connecticut","lat":41.56149,"lng":-73.20703,"zip":"06798","miles_from_dt":29.69},{"city":"Washington","state_name":"Connecticut","lat":41.63089,"lng":-73.28835,"zip":"06793","miles_from_dt":29.72},{"city":"Staffordville","state_name":"Connecticut","lat":41.99494,"lng":-72.26029,"zip":"06077","miles_from_dt":29.79},{"city":"Storrs Mansfield","state_name":"Connecticut","lat":41.79852,"lng":-72.24843,"zip":"06268","miles_from_dt":29.8},{"city":"New Preston Marble Dale","state_name":"Connecticut","lat":41.69412,"lng":-73.33931,"zip":"06777","miles_from_dt":29.81},{"city":"Monterey","state_name":"Massachusetts","lat":42.19043,"lng":-73.21579,"zip":"01245","miles_from_dt":29.86}],"targetCityZipCode":"06070","targetCityState":"Connecticut"},"__N_SSG":true}