{"pageProps":{"stateName":"Louisiana","cityName":"bell-city","nearbyCities":[{"city":"Hayes","state_name":"Louisiana","lat":30.10767,"lng":-92.92938,"zip":"70646","miles_from_dt":9.09},{"city":"Lake Charles","state_name":"Louisiana","lat":30.04982,"lng":-93.20606,"zip":"70607","miles_from_dt":9.5},{"city":"Lake Arthur","state_name":"Louisiana","lat":30.04988,"lng":-92.83139,"zip":"70549","miles_from_dt":13.17},{"city":"Lake Charles","state_name":"Louisiana","lat":30.17907,"lng":-93.21482,"zip":"70609","miles_from_dt":14.4},{"city":"Lake Charles","state_name":"Louisiana","lat":30.16534,"lng":-93.23238,"zip":"70606","miles_from_dt":14.5},{"city":"Creole","state_name":"Louisiana","lat":29.86747,"lng":-92.87987,"zip":"70632","miles_from_dt":14.99},{"city":"Lake Charles","state_name":"Louisiana","lat":30.13048,"lng":-93.27418,"zip":"70605","miles_from_dt":15.21},{"city":"Iowa","state_name":"Louisiana","lat":30.24752,"lng":-93.01605,"zip":"70647","miles_from_dt":15.31},{"city":"Lacassine","state_name":"Louisiana","lat":30.23376,"lng":-92.92067,"zip":"70650","miles_from_dt":16.19},{"city":"Lake Charles","state_name":"Louisiana","lat":30.25609,"lng":-93.12346,"zip":"70615","miles_from_dt":16.37},{"city":"Lake Charles","state_name":"Louisiana","lat":30.24109,"lng":-93.18,"zip":"70612","miles_from_dt":16.67},{"city":"Lake Charles","state_name":"Louisiana","lat":30.22462,"lng":-93.21278,"zip":"70616","miles_from_dt":16.74},{"city":"Lake Charles","state_name":"Louisiana","lat":30.22554,"lng":-93.21616,"zip":"70602","miles_from_dt":16.91},{"city":"Lake Charles","state_name":"Louisiana","lat":30.22627,"lng":-93.21525,"zip":"70601","miles_from_dt":16.92},{"city":"Lake Charles","state_name":"Louisiana","lat":30.23107,"lng":-93.21864,"zip":"70629","miles_from_dt":17.31},{"city":"Westlake","state_name":"Louisiana","lat":30.24216,"lng":-93.27731,"zip":"70669","miles_from_dt":20.12},{"city":"Welsh","state_name":"Louisiana","lat":30.25604,"lng":-92.8397,"zip":"70591","miles_from_dt":20.16},{"city":"Hackberry","state_name":"Louisiana","lat":29.96154,"lng":-93.40854,"zip":"70645","miles_from_dt":21.99},{"city":"Lake Charles","state_name":"Louisiana","lat":30.34594,"lng":-93.20156,"zip":"70611","miles_from_dt":23.76},{"city":"Roanoke","state_name":"Louisiana","lat":30.25496,"lng":-92.73588,"zip":"70581","miles_from_dt":24.47},{"city":"Fenton","state_name":"Louisiana","lat":30.36587,"lng":-92.91652,"zip":"70640","miles_from_dt":24.65},{"city":"Sulphur","state_name":"Louisiana","lat":30.12756,"lng":-93.44555,"zip":"70665","miles_from_dt":24.7},{"city":"Sulphur","state_name":"Louisiana","lat":30.2603,"lng":-93.37246,"zip":"70664","miles_from_dt":25.12},{"city":"Grand Chenier","state_name":"Louisiana","lat":29.73649,"lng":-92.7939,"zip":"70643","miles_from_dt":25.23},{"city":"Sulphur","state_name":"Louisiana","lat":30.2772,"lng":-93.39086,"zip":"70663","miles_from_dt":26.71},{"city":"Gueydan","state_name":"Louisiana","lat":30.00442,"lng":-92.5886,"zip":"70542","miles_from_dt":27.68},{"city":"Jennings","state_name":"Louisiana","lat":30.26756,"lng":-92.66747,"zip":"70546","miles_from_dt":28.24}],"targetCityZipCode":"70630","targetCityState":"Louisiana"},"__N_SSG":true}