{"pageProps":{"stateName":"Louisiana","cityName":"calvin","nearbyCities":[{"city":"Goldonna","state_name":"Louisiana","lat":32.01097,"lng":-92.89372,"zip":"71031","miles_from_dt":7.88},{"city":"Winnfield","state_name":"Louisiana","lat":31.89482,"lng":-92.66373,"zip":"71483","miles_from_dt":7.92},{"city":"Joyce","state_name":"Louisiana","lat":31.94043,"lng":-92.59994,"zip":"71440","miles_from_dt":10.2},{"city":"Dodson","state_name":"Louisiana","lat":32.07653,"lng":-92.65767,"zip":"71422","miles_from_dt":10.22},{"city":"Atlanta","state_name":"Louisiana","lat":31.75404,"lng":-92.75257,"zip":"71404","miles_from_dt":14.52},{"city":"Saline","state_name":"Louisiana","lat":32.08629,"lng":-92.99618,"zip":"71070","miles_from_dt":15.66},{"city":"Clarence","state_name":"Louisiana","lat":31.82593,"lng":-93.02515,"zip":"71414","miles_from_dt":17.71},{"city":"Saint Maurice","state_name":"Louisiana","lat":31.75711,"lng":-92.96201,"zip":"71471","miles_from_dt":18.15},{"city":"Jonesboro","state_name":"Louisiana","lat":32.21891,"lng":-92.67162,"zip":"71251","miles_from_dt":18.5},{"city":"Campti","state_name":"Louisiana","lat":31.90466,"lng":-93.08894,"zip":"71411","miles_from_dt":19.11},{"city":"Montgomery","state_name":"Louisiana","lat":31.69334,"lng":-92.86131,"zip":"71454","miles_from_dt":19.4},{"city":"Sikes","state_name":"Louisiana","lat":32.06989,"lng":-92.42748,"zip":"71473","miles_from_dt":21.45},{"city":"Hodge","state_name":"Louisiana","lat":32.27255,"lng":-92.72077,"zip":"71247","miles_from_dt":21.45},{"city":"Georgetown","state_name":"Louisiana","lat":31.75368,"lng":-92.47435,"zip":"71432","miles_from_dt":22.7},{"city":"Ashland","state_name":"Louisiana","lat":32.11675,"lng":-93.116,"zip":"71002","miles_from_dt":22.8},{"city":"Natchitoches","state_name":"Louisiana","lat":31.75761,"lng":-93.08624,"zip":"71458","miles_from_dt":23.36},{"city":"Natchitoches","state_name":"Louisiana","lat":31.74902,"lng":-93.09795,"zip":"71497","miles_from_dt":24.27},{"city":"Natchitoches","state_name":"Louisiana","lat":31.74045,"lng":-93.09375,"zip":"71457","miles_from_dt":24.44},{"city":"Tullos","state_name":"Louisiana","lat":31.85129,"lng":-92.36106,"zip":"71479","miles_from_dt":25.33},{"city":"Natchez","state_name":"Louisiana","lat":31.63534,"lng":-92.97429,"zip":"71456","miles_from_dt":25.61},{"city":"Powhatan","state_name":"Louisiana","lat":31.87478,"lng":-93.19829,"zip":"71066","miles_from_dt":25.84},{"city":"Quitman","state_name":"Louisiana","lat":32.34696,"lng":-92.74418,"zip":"71268","miles_from_dt":26.42},{"city":"Castor","state_name":"Louisiana","lat":32.22899,"lng":-93.10818,"zip":"71016","miles_from_dt":26.9},{"city":"Chatham","state_name":"Louisiana","lat":32.24729,"lng":-92.44234,"zip":"71226","miles_from_dt":27.43},{"city":"Bienville","state_name":"Louisiana","lat":32.33318,"lng":-92.96396,"zip":"71008","miles_from_dt":27.82},{"city":"Dry Prong","state_name":"Louisiana","lat":31.60012,"lng":-92.56341,"zip":"71423","miles_from_dt":27.91},{"city":"Melrose","state_name":"Louisiana","lat":31.58021,"lng":-92.9414,"zip":"71452","miles_from_dt":28.29},{"city":"Urania","state_name":"Louisiana","lat":31.86661,"lng":-92.28415,"zip":"71480","miles_from_dt":29.41}],"targetCityZipCode":"71410","targetCityState":"Louisiana"},"__N_SSG":true}