{"pageProps":{"stateName":"Louisiana","cityName":"eunice","nearbyCities":[{"city":"Chataignier","state_name":"Louisiana","lat":30.55737,"lng":-92.31859,"zip":"70524","miles_from_dt":8.23},{"city":"Basile","state_name":"Louisiana","lat":30.44843,"lng":-92.57154,"zip":"70515","miles_from_dt":9.09},{"city":"Branch","state_name":"Louisiana","lat":30.3674,"lng":-92.30289,"zip":"70516","miles_from_dt":10.59},{"city":"Iota","state_name":"Louisiana","lat":30.33532,"lng":-92.5014,"zip":"70543","miles_from_dt":10.99},{"city":"Mamou","state_name":"Louisiana","lat":30.63633,"lng":-92.48885,"zip":"70554","miles_from_dt":11.45},{"city":"Church Point","state_name":"Louisiana","lat":30.40765,"lng":-92.21761,"zip":"70525","miles_from_dt":13.27},{"city":"Reddell","state_name":"Louisiana","lat":30.67551,"lng":-92.4284,"zip":"70580","miles_from_dt":13.47},{"city":"Lawtell","state_name":"Louisiana","lat":30.5157,"lng":-92.18966,"zip":"70550","miles_from_dt":14.17},{"city":"Elton","state_name":"Louisiana","lat":30.4705,"lng":-92.6993,"zip":"70532","miles_from_dt":16.46},{"city":"Crowley","state_name":"Louisiana","lat":30.23174,"lng":-92.37891,"zip":"70527","miles_from_dt":17.31},{"city":"Evangeline","state_name":"Louisiana","lat":30.25747,"lng":-92.56642,"zip":"70537","miles_from_dt":17.54},{"city":"Egan","state_name":"Louisiana","lat":30.23101,"lng":-92.49678,"zip":"70531","miles_from_dt":17.7},{"city":"Crowley","state_name":"Louisiana","lat":30.21051,"lng":-92.37951,"zip":"70526","miles_from_dt":18.75},{"city":"Ville Platte","state_name":"Louisiana","lat":30.74504,"lng":-92.34151,"zip":"70586","miles_from_dt":18.9},{"city":"Opelousas","state_name":"Louisiana","lat":30.5315,"lng":-92.10852,"zip":"70570","miles_from_dt":19.13},{"city":"Oberlin","state_name":"Louisiana","lat":30.63022,"lng":-92.70234,"zip":"70655","miles_from_dt":19.57},{"city":"Rayne","state_name":"Louisiana","lat":30.2291,"lng":-92.26261,"zip":"70578","miles_from_dt":19.78},{"city":"Sunset","state_name":"Louisiana","lat":30.38856,"lng":-92.10193,"zip":"70584","miles_from_dt":20.21},{"city":"Jennings","state_name":"Louisiana","lat":30.26756,"lng":-92.66747,"zip":"70546","miles_from_dt":20.64},{"city":"Pine Prairie","state_name":"Louisiana","lat":30.78097,"lng":-92.41826,"zip":"70576","miles_from_dt":20.74},{"city":"Opelousas","state_name":"Louisiana","lat":30.53454,"lng":-92.08015,"zip":"70571","miles_from_dt":20.83},{"city":"Estherwood","state_name":"Louisiana","lat":30.16564,"lng":-92.45499,"zip":"70534","miles_from_dt":21.73},{"city":"Mermentau","state_name":"Louisiana","lat":30.19072,"lng":-92.58325,"zip":"70556","miles_from_dt":22.09},{"city":"Grand Coteau","state_name":"Louisiana","lat":30.42062,"lng":-92.0426,"zip":"70541","miles_from_dt":23.11},{"city":"Scott","state_name":"Louisiana","lat":30.25846,"lng":-92.12204,"zip":"70583","miles_from_dt":23.61},{"city":"Roanoke","state_name":"Louisiana","lat":30.25496,"lng":-92.73588,"zip":"70581","miles_from_dt":24.25},{"city":"Morse","state_name":"Louisiana","lat":30.12876,"lng":-92.50903,"zip":"70559","miles_from_dt":24.73},{"city":"Duson","state_name":"Louisiana","lat":30.19593,"lng":-92.16327,"zip":"70529","miles_from_dt":25},{"city":"Carencro","state_name":"Louisiana","lat":30.33265,"lng":-92.03619,"zip":"70520","miles_from_dt":25.26},{"city":"Oakdale","state_name":"Louisiana","lat":30.80854,"lng":-92.64853,"zip":"71463","miles_from_dt":26.3},{"city":"Leonville","state_name":"Louisiana","lat":30.46675,"lng":-91.98028,"zip":"70551","miles_from_dt":26.47},{"city":"Washington","state_name":"Louisiana","lat":30.68584,"lng":-92.04098,"zip":"70589","miles_from_dt":26.86},{"city":"Lafayette","state_name":"Louisiana","lat":30.28293,"lng":-92.02825,"zip":"70507","miles_from_dt":27.24},{"city":"Turkey Creek","state_name":"Louisiana","lat":30.87832,"lng":-92.4077,"zip":"70585","miles_from_dt":27.46},{"city":"Kinder","state_name":"Louisiana","lat":30.50568,"lng":-92.88387,"zip":"70648","miles_from_dt":27.51},{"city":"Lafayette","state_name":"Louisiana","lat":30.19586,"lng":-92.08075,"zip":"70506","miles_from_dt":28.34},{"city":"Lafayette","state_name":"Louisiana","lat":30.22616,"lng":-92.04407,"zip":"70505","miles_from_dt":28.64},{"city":"Saint Landry","state_name":"Louisiana","lat":30.88784,"lng":-92.29426,"zip":"71367","miles_from_dt":29.13},{"city":"Welsh","state_name":"Louisiana","lat":30.25604,"lng":-92.8397,"zip":"70591","miles_from_dt":29.25},{"city":"Lafayette","state_name":"Louisiana","lat":30.22411,"lng":-92.0226,"zip":"70502","miles_from_dt":29.75},{"city":"Lafayette","state_name":"Louisiana","lat":30.21431,"lng":-92.02859,"zip":"70593","miles_from_dt":29.87}],"targetCityZipCode":"70535","targetCityState":"Louisiana"},"__N_SSG":true}