{"pageProps":{"stateName":"Louisiana","cityName":"lake-providence","nearbyCities":[{"city":"Transylvania","state_name":"Louisiana","lat":32.65244,"lng":-91.23397,"zip":"71286","miles_from_dt":9.78},{"city":"Forest","state_name":"Louisiana","lat":32.79223,"lng":-91.41291,"zip":"71242","miles_from_dt":10.12},{"city":"Mayersville","state_name":"Mississippi","lat":32.82707,"lng":-91.06476,"zip":"39113","miles_from_dt":10.4},{"city":"Oak Grove","state_name":"Louisiana","lat":32.87497,"lng":-91.428,"zip":"71263","miles_from_dt":12.31},{"city":"Kilbourne","state_name":"Louisiana","lat":32.99597,"lng":-91.31576,"zip":"71253","miles_from_dt":14.59},{"city":"Pioneer","state_name":"Louisiana","lat":32.70359,"lng":-91.48362,"zip":"71266","miles_from_dt":15.55},{"city":"Sondheimer","state_name":"Louisiana","lat":32.57727,"lng":-91.16277,"zip":"71276","miles_from_dt":15.6},{"city":"Cary","state_name":"Mississippi","lat":32.79855,"lng":-90.93525,"zip":"39054","miles_from_dt":17.69},{"city":"Rolling Fork","state_name":"Mississippi","lat":32.82894,"lng":-90.92476,"zip":"39159","miles_from_dt":18.45},{"city":"Grace","state_name":"Mississippi","lat":32.98592,"lng":-91.00499,"zip":"38745","miles_from_dt":18.97},{"city":"Glen Allan","state_name":"Mississippi","lat":33.03066,"lng":-91.05371,"zip":"38744","miles_from_dt":19.53},{"city":"Epps","state_name":"Louisiana","lat":32.58413,"lng":-91.48024,"zip":"71237","miles_from_dt":20.18},{"city":"Jones","state_name":"Louisiana","lat":32.95983,"lng":-91.57327,"zip":"71250","miles_from_dt":22.53},{"city":"Eudora","state_name":"Arkansas","lat":33.1253,"lng":-91.24753,"zip":"71640","miles_from_dt":22.82},{"city":"Chatham","state_name":"Mississippi","lat":33.11524,"lng":-91.13829,"zip":"38731","miles_from_dt":22.88},{"city":"Wilmot","state_name":"Arkansas","lat":33.05156,"lng":-91.56023,"zip":"71676","miles_from_dt":25.74},{"city":"Valley Park","state_name":"Mississippi","lat":32.61286,"lng":-90.84546,"zip":"39177","miles_from_dt":26.12},{"city":"Bonita","state_name":"Louisiana","lat":32.90084,"lng":-91.67443,"zip":"71223","miles_from_dt":26.36},{"city":"Mer Rouge","state_name":"Louisiana","lat":32.77802,"lng":-91.69515,"zip":"71261","miles_from_dt":26.57},{"city":"Panther Burn","state_name":"Mississippi","lat":33.0493,"lng":-90.8896,"zip":"38765","miles_from_dt":26.86},{"city":"Tallulah","state_name":"Louisiana","lat":32.4066,"lng":-91.18632,"zip":"71284","miles_from_dt":26.89},{"city":"Holly Bluff","state_name":"Mississippi","lat":32.73287,"lng":-90.7545,"zip":"39088","miles_from_dt":28.53},{"city":"Parkdale","state_name":"Arkansas","lat":33.14338,"lng":-91.51333,"zip":"71661","miles_from_dt":28.85}],"targetCityZipCode":"71254","targetCityState":"Louisiana"},"__N_SSG":true}