{"pageProps":{"stateName":"Louisiana","cityName":"port-sulphur","nearbyCities":[{"city":"Pointe A La Hache","state_name":"Louisiana","lat":29.5658,"lng":-89.75677,"zip":"70082","miles_from_dt":6.44},{"city":"Braithwaite","state_name":"Louisiana","lat":29.75806,"lng":-89.92327,"zip":"70040","miles_from_dt":16.72},{"city":"Empire","state_name":"Louisiana","lat":29.38351,"lng":-89.59601,"zip":"70050","miles_from_dt":18.2},{"city":"Lafitte","state_name":"Louisiana","lat":29.72008,"lng":-90.10383,"zip":"70067","miles_from_dt":20.32},{"city":"Barataria","state_name":"Louisiana","lat":29.69855,"lng":-90.12667,"zip":"70036","miles_from_dt":20.46},{"city":"Belle Chasse","state_name":"Louisiana","lat":29.78669,"lng":-90.01523,"zip":"70037","miles_from_dt":20.62},{"city":"Saint Bernard","state_name":"Louisiana","lat":29.81629,"lng":-89.76127,"zip":"70085","miles_from_dt":20.9},{"city":"New Orleans","state_name":"Louisiana","lat":29.82229,"lng":-90.01192,"zip":"70143","miles_from_dt":22.72},{"city":"Cut Off","state_name":"Louisiana","lat":29.51815,"lng":-90.23763,"zip":"70345","miles_from_dt":23.23},{"city":"Grand Isle","state_name":"Louisiana","lat":29.21367,"lng":-90.0306,"zip":"70358","miles_from_dt":23.9},{"city":"Belle Chasse","state_name":"Louisiana","lat":29.85,"lng":-89.99219,"zip":"70093","miles_from_dt":24.02},{"city":"Golden Meadow","state_name":"Louisiana","lat":29.28451,"lng":-90.17463,"zip":"70357","miles_from_dt":25.48},{"city":"Violet","state_name":"Louisiana","lat":29.90026,"lng":-89.89598,"zip":"70092","miles_from_dt":26.09},{"city":"Buras","state_name":"Louisiana","lat":29.33194,"lng":-89.46978,"zip":"70041","miles_from_dt":26.56},{"city":"Marrero","state_name":"Louisiana","lat":29.83012,"lng":-90.12724,"zip":"70072","miles_from_dt":26.83},{"city":"Metairie","state_name":"Louisiana","lat":29.86777,"lng":-90.06865,"zip":"70060","miles_from_dt":27.06},{"city":"Harvey","state_name":"Louisiana","lat":29.8701,"lng":-90.06708,"zip":"70058","miles_from_dt":27.15},{"city":"New Orleans","state_name":"Louisiana","lat":29.9081,"lng":-89.96044,"zip":"70131","miles_from_dt":27.28},{"city":"Gretna","state_name":"Louisiana","lat":29.88848,"lng":-90.03028,"zip":"70056","miles_from_dt":27.33},{"city":"Marrero","state_name":"Louisiana","lat":29.86229,"lng":-90.11926,"zip":"70073","miles_from_dt":28.34},{"city":"Meraux","state_name":"Louisiana","lat":29.93158,"lng":-89.92081,"zip":"70075","miles_from_dt":28.41},{"city":"Larose","state_name":"Louisiana","lat":29.61335,"lng":-90.31919,"zip":"70373","miles_from_dt":28.8},{"city":"Gretna","state_name":"Louisiana","lat":29.91237,"lng":-90.05459,"zip":"70054","miles_from_dt":29.43},{"city":"New Orleans","state_name":"Louisiana","lat":29.92663,"lng":-90.01742,"zip":"70174","miles_from_dt":29.5},{"city":"Gretna","state_name":"Louisiana","lat":29.91456,"lng":-90.05318,"zip":"70053","miles_from_dt":29.53},{"city":"Harvey","state_name":"Louisiana","lat":29.90404,"lng":-90.07937,"zip":"70059","miles_from_dt":29.56}],"targetCityZipCode":"70083","targetCityState":"Louisiana"},"__N_SSG":true}