{"pageProps":{"stateName":"Louisiana","cityName":"rosepine","nearbyCities":[{"city":"Deridder","state_name":"Louisiana","lat":30.80142,"lng":-93.24309,"zip":"70634","miles_from_dt":8.63},{"city":"Fort Polk","state_name":"Louisiana","lat":31.07854,"lng":-93.21723,"zip":"71459","miles_from_dt":11.51},{"city":"Evans","state_name":"Louisiana","lat":30.98235,"lng":-93.49793,"zip":"70639","miles_from_dt":13.37},{"city":"New Llano","state_name":"Louisiana","lat":31.12099,"lng":-93.29775,"zip":"71461","miles_from_dt":13.76},{"city":"Leesville","state_name":"Louisiana","lat":31.14359,"lng":-93.25839,"zip":"71496","miles_from_dt":15.37},{"city":"Leesville","state_name":"Louisiana","lat":31.15585,"lng":-93.17187,"zip":"71446","miles_from_dt":17.45},{"city":"Sugartown","state_name":"Louisiana","lat":30.80072,"lng":-92.99834,"zip":"70662","miles_from_dt":18.91},{"city":"Pitkin","state_name":"Louisiana","lat":30.91647,"lng":-92.94272,"zip":"70656","miles_from_dt":20.27},{"city":"Slagle","state_name":"Louisiana","lat":31.20123,"lng":-93.12461,"zip":"71475","miles_from_dt":21.46},{"city":"Burkeville","state_name":"Texas","lat":31.0551,"lng":-93.61396,"zip":"75932","miles_from_dt":21.64},{"city":"Grant","state_name":"Louisiana","lat":30.79078,"lng":-92.94924,"zip":"70644","miles_from_dt":21.84},{"city":"Longville","state_name":"Louisiana","lat":30.60547,"lng":-93.24646,"zip":"70652","miles_from_dt":21.89},{"city":"Anacoco","state_name":"Louisiana","lat":31.21047,"lng":-93.44061,"zip":"71403","miles_from_dt":21.96},{"city":"Dry Creek","state_name":"Louisiana","lat":30.70508,"lng":-92.97207,"zip":"70637","miles_from_dt":23.8},{"city":"Merryville","state_name":"Louisiana","lat":30.66744,"lng":-93.55994,"zip":"70653","miles_from_dt":24},{"city":"Singer","state_name":"Louisiana","lat":30.575,"lng":-93.44478,"zip":"70660","miles_from_dt":25.72},{"city":"Newton","state_name":"Texas","lat":30.83783,"lng":-93.72611,"zip":"75966","miles_from_dt":26.9},{"city":"Hineston","state_name":"Louisiana","lat":31.10092,"lng":-92.87511,"zip":"71438","miles_from_dt":27.23},{"city":"Mittie","state_name":"Louisiana","lat":30.69212,"lng":-92.88075,"zip":"70654","miles_from_dt":28.72},{"city":"Hornbeck","state_name":"Louisiana","lat":31.33707,"lng":-93.36597,"zip":"71439","miles_from_dt":29.03},{"city":"Simpson","state_name":"Louisiana","lat":31.27724,"lng":-93.01394,"zip":"71474","miles_from_dt":29.27},{"city":"Kurthwood","state_name":"Louisiana","lat":31.33477,"lng":-93.16478,"zip":"71443","miles_from_dt":29.33}],"targetCityZipCode":"70659","targetCityState":"Louisiana"},"__N_SSG":true}