{"pageProps":{"stateName":"Louisiana","cityName":"woodworth","nearbyCities":[{"city":"Alexandria","state_name":"Louisiana","lat":31.25506,"lng":-92.47176,"zip":"71315","miles_from_dt":6.38},{"city":"Alexandria","state_name":"Louisiana","lat":31.25573,"lng":-92.47057,"zip":"71309","miles_from_dt":6.46},{"city":"Alexandria","state_name":"Louisiana","lat":31.28081,"lng":-92.54308,"zip":"71303","miles_from_dt":7.11},{"city":"Forest Hill","state_name":"Louisiana","lat":31.06764,"lng":-92.53135,"zip":"71430","miles_from_dt":7.61},{"city":"Alexandria","state_name":"Louisiana","lat":31.27446,"lng":-92.46864,"zip":"71301","miles_from_dt":7.62},{"city":"Alexandria","state_name":"Louisiana","lat":31.19439,"lng":-92.67155,"zip":"71306","miles_from_dt":8.35},{"city":"Libuse","state_name":"Louisiana","lat":31.26357,"lng":-92.42474,"zip":"71348","miles_from_dt":8.65},{"city":"Alexandria","state_name":"Louisiana","lat":31.28488,"lng":-92.45227,"zip":"71307","miles_from_dt":8.74},{"city":"Elmer","state_name":"Louisiana","lat":31.17976,"lng":-92.69207,"zip":"71424","miles_from_dt":9.49},{"city":"Lecompte","state_name":"Louisiana","lat":31.11686,"lng":-92.38446,"zip":"71346","miles_from_dt":9.7},{"city":"Alexandria","state_name":"Louisiana","lat":31.2053,"lng":-92.36667,"zip":"71302","miles_from_dt":9.96},{"city":"Gardner","state_name":"Louisiana","lat":31.26669,"lng":-92.69375,"zip":"71431","miles_from_dt":11.36},{"city":"Longleaf","state_name":"Louisiana","lat":31.00872,"lng":-92.55397,"zip":"71448","miles_from_dt":11.74},{"city":"Pineville","state_name":"Louisiana","lat":31.32468,"lng":-92.4264,"zip":"71359","miles_from_dt":11.87},{"city":"Otis","state_name":"Louisiana","lat":31.21593,"lng":-92.74886,"zip":"71466","miles_from_dt":13.11},{"city":"Boyce","state_name":"Louisiana","lat":31.31287,"lng":-92.69954,"zip":"71409","miles_from_dt":13.59},{"city":"Glenmora","state_name":"Louisiana","lat":31.00208,"lng":-92.64803,"zip":"71433","miles_from_dt":13.95},{"city":"Pineville","state_name":"Louisiana","lat":31.35643,"lng":-92.40665,"zip":"71361","miles_from_dt":14.35},{"city":"Pineville","state_name":"Louisiana","lat":31.31597,"lng":-92.34593,"zip":"71360","miles_from_dt":14.54},{"city":"Sieper","state_name":"Louisiana","lat":31.19834,"lng":-92.79216,"zip":"71472","miles_from_dt":15.48},{"city":"Tioga","state_name":"Louisiana","lat":31.39442,"lng":-92.43482,"zip":"71477","miles_from_dt":15.97},{"city":"Cheneyville","state_name":"Louisiana","lat":31.01153,"lng":-92.32434,"zip":"71325","miles_from_dt":16.82},{"city":"Ruby","state_name":"Louisiana","lat":31.18984,"lng":-92.24637,"zip":"71365","miles_from_dt":16.93},{"city":"Ball","state_name":"Louisiana","lat":31.40971,"lng":-92.39771,"zip":"71405","miles_from_dt":17.82},{"city":"Echo","state_name":"Louisiana","lat":31.11002,"lng":-92.24145,"zip":"71330","miles_from_dt":17.84},{"city":"Center Point","state_name":"Louisiana","lat":31.26656,"lng":-92.21037,"zip":"71323","miles_from_dt":19.99},{"city":"Hineston","state_name":"Louisiana","lat":31.10092,"lng":-92.87511,"zip":"71438","miles_from_dt":21.02},{"city":"Turkey Creek","state_name":"Louisiana","lat":30.87832,"lng":-92.4077,"zip":"70585","miles_from_dt":21.93},{"city":"Hessmer","state_name":"Louisiana","lat":31.05969,"lng":-92.16267,"zip":"71341","miles_from_dt":23.35},{"city":"Deville","state_name":"Louisiana","lat":31.35276,"lng":-92.19097,"zip":"71328","miles_from_dt":23.49},{"city":"Bentley","state_name":"Louisiana","lat":31.51837,"lng":-92.48402,"zip":"71407","miles_from_dt":23.61},{"city":"Lena","state_name":"Louisiana","lat":31.43202,"lng":-92.8073,"zip":"71447","miles_from_dt":23.91},{"city":"Colfax","state_name":"Louisiana","lat":31.51611,"lng":-92.65361,"zip":"71417","miles_from_dt":24.37},{"city":"Saint Landry","state_name":"Louisiana","lat":30.88784,"lng":-92.29426,"zip":"71367","miles_from_dt":24.47},{"city":"Flatwoods","state_name":"Louisiana","lat":31.38879,"lng":-92.89388,"zip":"71427","miles_from_dt":25.87},{"city":"Oakdale","state_name":"Louisiana","lat":30.80854,"lng":-92.64853,"zip":"71463","miles_from_dt":26.38},{"city":"Elizabeth","state_name":"Louisiana","lat":30.84948,"lng":-92.78436,"zip":"70638","miles_from_dt":27.15},{"city":"Effie","state_name":"Louisiana","lat":31.2578,"lng":-92.07969,"zip":"71331","miles_from_dt":27.33},{"city":"Pollock","state_name":"Louisiana","lat":31.55789,"lng":-92.39338,"zip":"71467","miles_from_dt":27.42},{"city":"Pine Prairie","state_name":"Louisiana","lat":30.78097,"lng":-92.41826,"zip":"70576","miles_from_dt":28.18},{"city":"Mansura","state_name":"Louisiana","lat":31.06871,"lng":-92.06053,"zip":"71350","miles_from_dt":28.93},{"city":"Dry Prong","state_name":"Louisiana","lat":31.60012,"lng":-92.56341,"zip":"71423","miles_from_dt":29.13},{"city":"Simpson","state_name":"Louisiana","lat":31.27724,"lng":-93.01394,"zip":"71474","miles_from_dt":29.35}],"targetCityZipCode":"71485","targetCityState":"Louisiana"},"__N_SSG":true}