{"pageProps":{"stateName":"Utah","cityName":"panguitch","nearbyCities":[{"city":"Paragonah","state_name":"Utah","lat":37.96299,"lng":-112.68551,"zip":"84760","miles_from_dt":16.69},{"city":"Circleville","state_name":"Utah","lat":38.17611,"lng":-112.2519,"zip":"84723","miles_from_dt":18.93},{"city":"Hatch","state_name":"Utah","lat":37.64627,"lng":-112.44997,"zip":"84735","miles_from_dt":19.38},{"city":"Bryce","state_name":"Utah","lat":37.72035,"lng":-112.06689,"zip":"84764","miles_from_dt":22.26},{"city":"Kingston","state_name":"Utah","lat":38.20827,"lng":-112.18572,"zip":"84743","miles_from_dt":22.49},{"city":"Junction","state_name":"Utah","lat":38.27504,"lng":-112.26689,"zip":"84740","miles_from_dt":25.15},{"city":"Tropic","state_name":"Utah","lat":37.62956,"lng":-112.08217,"zip":"84776","miles_from_dt":26.1},{"city":"Antimony","state_name":"Utah","lat":38.14076,"lng":-111.97783,"zip":"84712","miles_from_dt":26.8},{"city":"Parowan","state_name":"Utah","lat":37.84603,"lng":-112.87124,"zip":"84761","miles_from_dt":27.14},{"city":"Greenville","state_name":"Utah","lat":38.19714,"lng":-112.76195,"zip":"84731","miles_from_dt":27.99},{"city":"Brian Head","state_name":"Utah","lat":37.65532,"lng":-112.76974,"zip":"84719","miles_from_dt":28.01},{"city":"Cannonville","state_name":"Utah","lat":37.57954,"lng":-112.08306,"zip":"84718","miles_from_dt":28.83},{"city":"Beaver","state_name":"Utah","lat":38.3292,"lng":-112.54441,"zip":"84713","miles_from_dt":29.38}],"targetCityZipCode":"84759","targetCityState":"Utah"},"__N_SSG":true}