{"pageProps":{"stateName":"Utah","cityName":"payson","nearbyCities":[{"city":"Santaquin","state_name":"Utah","lat":39.97427,"lng":-111.80716,"zip":"84655","miles_from_dt":6.16},{"city":"Salem","state_name":"Utah","lat":40.04803,"lng":-111.66804,"zip":"84653","miles_from_dt":6.47},{"city":"Mona","state_name":"Utah","lat":39.85159,"lng":-111.83946,"zip":"84645","miles_from_dt":10.6},{"city":"Goshen","state_name":"Utah","lat":39.94026,"lng":-111.89281,"zip":"84633","miles_from_dt":10.65},{"city":"Mapleton","state_name":"Utah","lat":40.12627,"lng":-111.57712,"zip":"84664","miles_from_dt":13.25},{"city":"Spanish Fork","state_name":"Utah","lat":40.00724,"lng":-111.4268,"zip":"84660","miles_from_dt":14.58},{"city":"Elberta","state_name":"Utah","lat":39.93359,"lng":-111.98545,"zip":"84626","miles_from_dt":15.59},{"city":"Provo","state_name":"Utah","lat":40.2149,"lng":-111.62619,"zip":"84606","miles_from_dt":18.19},{"city":"Fairview","state_name":"Utah","lat":39.76574,"lng":-111.44752,"zip":"84629","miles_from_dt":18.54},{"city":"Provo","state_name":"Utah","lat":40.22593,"lng":-111.6955,"zip":"84601","miles_from_dt":18.6},{"city":"Provo","state_name":"Utah","lat":40.22595,"lng":-111.69935,"zip":"84603","miles_from_dt":18.61},{"city":"Provo","state_name":"Utah","lat":40.22639,"lng":-111.67731,"zip":"84605","miles_from_dt":18.65},{"city":"Springville","state_name":"Utah","lat":40.19266,"lng":-111.48917,"zip":"84663","miles_from_dt":19.57},{"city":"Provo","state_name":"Utah","lat":40.25412,"lng":-111.65009,"zip":"84602","miles_from_dt":20.67},{"city":"Nephi","state_name":"Utah","lat":39.68659,"lng":-111.86819,"zip":"84648","miles_from_dt":20.8},{"city":"Fountain Green","state_name":"Utah","lat":39.64498,"lng":-111.64649,"zip":"84632","miles_from_dt":21.63},{"city":"Orem","state_name":"Utah","lat":40.27474,"lng":-111.71468,"zip":"84058","miles_from_dt":22},{"city":"Eureka","state_name":"Utah","lat":39.93583,"lng":-112.13419,"zip":"84628","miles_from_dt":23.45},{"city":"Orem","state_name":"Utah","lat":40.3048,"lng":-111.67318,"zip":"84097","miles_from_dt":24.07},{"city":"Vineyard","state_name":"Utah","lat":40.30353,"lng":-111.74853,"zip":"84059","miles_from_dt":24.13},{"city":"Orem","state_name":"Utah","lat":40.31427,"lng":-111.70948,"zip":"84057","miles_from_dt":24.71},{"city":"Saratoga Springs","state_name":"Utah","lat":40.28574,"lng":-111.91384,"zip":"84045","miles_from_dt":25.55},{"city":"Lindon","state_name":"Utah","lat":40.34113,"lng":-111.72466,"zip":"84042","miles_from_dt":26.6},{"city":"Provo","state_name":"Utah","lat":40.3313,"lng":-111.57284,"zip":"84604","miles_from_dt":26.65},{"city":"Moroni","state_name":"Utah","lat":39.54565,"lng":-111.61121,"zip":"84646","miles_from_dt":28.67},{"city":"Pleasant Grove","state_name":"Utah","lat":40.38586,"lng":-111.68421,"zip":"84062","miles_from_dt":29.64}],"targetCityZipCode":"84651","targetCityState":"Utah"},"__N_SSG":true}