{"pageProps":{"stateName":"Utah","cityName":"trenton","nearbyCities":[{"city":"Cornish","state_name":"Utah","lat":41.9656,"lng":-111.96681,"zip":"84308","miles_from_dt":4.08},{"city":"Newton","state_name":"Utah","lat":41.86555,"lng":-111.99512,"zip":"84327","miles_from_dt":4.42},{"city":"Lewiston","state_name":"Utah","lat":41.96011,"lng":-111.85252,"zip":"84320","miles_from_dt":5.43},{"city":"Smithfield","state_name":"Utah","lat":41.82907,"lng":-111.88074,"zip":"84335","miles_from_dt":6.34},{"city":"Cache Junction","state_name":"Utah","lat":41.82722,"lng":-111.99867,"zip":"84304","miles_from_dt":6.66},{"city":"Clarkston","state_name":"Utah","lat":41.94388,"lng":-112.05804,"zip":"84305","miles_from_dt":6.71},{"city":"Richmond","state_name":"Utah","lat":41.91008,"lng":-111.79882,"zip":"84333","miles_from_dt":7.03},{"city":"Hyde Park","state_name":"Utah","lat":41.80167,"lng":-111.80422,"zip":"84318","miles_from_dt":10.15},{"city":"Weston","state_name":"Idaho","lat":42.0533,"lng":-112.0148,"zip":"83286","miles_from_dt":10.62},{"city":"Fielding","state_name":"Utah","lat":41.82012,"lng":-112.1106,"zip":"84311","miles_from_dt":11.02},{"city":"Collinston","state_name":"Utah","lat":41.78272,"lng":-112.06323,"zip":"84306","miles_from_dt":11.06},{"city":"Franklin","state_name":"Idaho","lat":42.02737,"lng":-111.77626,"zip":"83237","miles_from_dt":11.45},{"city":"Logan","state_name":"Utah","lat":41.77197,"lng":-111.81128,"zip":"84341","miles_from_dt":11.55},{"city":"Plymouth","state_name":"Utah","lat":41.9063,"lng":-112.17019,"zip":"84330","miles_from_dt":12.12},{"city":"Mendon","state_name":"Utah","lat":41.73869,"lng":-111.99303,"zip":"84325","miles_from_dt":12.28},{"city":"Logan","state_name":"Utah","lat":41.75822,"lng":-111.81256,"zip":"84322","miles_from_dt":12.32},{"city":"Riverside","state_name":"Utah","lat":41.78955,"lng":-112.15189,"zip":"84334","miles_from_dt":13.99},{"city":"Garland","state_name":"Utah","lat":41.77976,"lng":-112.15681,"zip":"84312","miles_from_dt":14.6},{"city":"Dayton","state_name":"Idaho","lat":42.13341,"lng":-111.97245,"zip":"83232","miles_from_dt":15.45},{"city":"Providence","state_name":"Utah","lat":41.70313,"lng":-111.81205,"zip":"84332","miles_from_dt":15.71},{"city":"Logan","state_name":"Utah","lat":41.77938,"lng":-111.68316,"zip":"84321","miles_from_dt":15.88},{"city":"Deweyville","state_name":"Utah","lat":41.71375,"lng":-112.09908,"zip":"84309","miles_from_dt":16.05},{"city":"Millville","state_name":"Utah","lat":41.67228,"lng":-111.81772,"zip":"84326","miles_from_dt":17.58},{"city":"Wellsville","state_name":"Utah","lat":41.62546,"lng":-111.939,"zip":"84339","miles_from_dt":19.73},{"city":"Honeyville","state_name":"Utah","lat":41.64929,"lng":-112.09292,"zip":"84314","miles_from_dt":19.83},{"city":"Clifton","state_name":"Idaho","lat":42.19496,"lng":-112.03658,"zip":"83228","miles_from_dt":20.26},{"city":"Preston","state_name":"Idaho","lat":42.17757,"lng":-111.76101,"zip":"83263","miles_from_dt":20.45},{"city":"Logan","state_name":"Utah","lat":41.68476,"lng":-111.64987,"zip":"84323","miles_from_dt":21.49},{"city":"Portage","state_name":"Utah","lat":41.94354,"lng":-112.35869,"zip":"84331","miles_from_dt":21.94},{"city":"Bear River City","state_name":"Utah","lat":41.61368,"lng":-112.12723,"zip":"84301","miles_from_dt":22.81},{"city":"Tremonton","state_name":"Utah","lat":41.69223,"lng":-112.28486,"zip":"84337","miles_from_dt":23.55},{"city":"Brigham City","state_name":"Utah","lat":41.57956,"lng":-112.04769,"zip":"84302","miles_from_dt":23.62},{"city":"Fish Haven","state_name":"Idaho","lat":42.03671,"lng":-111.45894,"zip":"83287","miles_from_dt":26.01},{"city":"Paradise","state_name":"Utah","lat":41.53937,"lng":-111.8444,"zip":"84328","miles_from_dt":26.1},{"city":"Hyrum","state_name":"Utah","lat":41.59401,"lng":-111.659,"zip":"84319","miles_from_dt":26.14},{"city":"Swanlake","state_name":"Idaho","lat":42.31044,"lng":-111.95953,"zip":"83281","miles_from_dt":27.57},{"city":"Howell","state_name":"Utah","lat":41.77328,"lng":-112.44504,"zip":"84316","miles_from_dt":27.98},{"city":"Garden City","state_name":"Utah","lat":41.93107,"lng":-111.38267,"zip":"84028","miles_from_dt":28.52},{"city":"Mantua","state_name":"Utah","lat":41.49253,"lng":-111.93868,"zip":"84324","miles_from_dt":28.9}],"targetCityZipCode":"84338","targetCityState":"Utah"},"__N_SSG":true}