{"pageProps":{"stateName":"Massachusetts","cityName":"ayer","nearbyCities":[{"city":"Groton","state_name":"Massachusetts","lat":42.60785,"lng":-71.57233,"zip":"01471","miles_from_dt":3.06},{"city":"Devens","state_name":"Massachusetts","lat":42.53149,"lng":-71.61663,"zip":"01434","miles_from_dt":3.23},{"city":"Groton","state_name":"Massachusetts","lat":42.61368,"lng":-71.56139,"zip":"01450","miles_from_dt":3.49},{"city":"Shirley","state_name":"Massachusetts","lat":42.57411,"lng":-71.6475,"zip":"01464","miles_from_dt":3.99},{"city":"West Groton","state_name":"Massachusetts","lat":42.60663,"lng":-71.62914,"zip":"01472","miles_from_dt":4.22},{"city":"Harvard","state_name":"Massachusetts","lat":42.50005,"lng":-71.57754,"zip":"01451","miles_from_dt":4.39},{"city":"Littleton","state_name":"Massachusetts","lat":42.53503,"lng":-71.4891,"zip":"01460","miles_from_dt":4.6},{"city":"Boxborough","state_name":"Massachusetts","lat":42.48837,"lng":-71.51779,"zip":"01719","miles_from_dt":5.85},{"city":"Still River","state_name":"Massachusetts","lat":42.48365,"lng":-71.62161,"zip":"01467","miles_from_dt":6.1},{"city":"Westford","state_name":"Massachusetts","lat":42.58642,"lng":-71.44008,"zip":"01886","miles_from_dt":6.84},{"city":"Pepperell","state_name":"Massachusetts","lat":42.67126,"lng":-71.60429,"zip":"01463","miles_from_dt":7.63},{"city":"Acton","state_name":"Massachusetts","lat":42.52165,"lng":-71.42983,"zip":"01718","miles_from_dt":7.74},{"city":"Lunenburg","state_name":"Massachusetts","lat":42.58994,"lng":-71.72036,"zip":"01462","miles_from_dt":7.86},{"city":"Lancaster","state_name":"Massachusetts","lat":42.48176,"lng":-71.68079,"zip":"01523","miles_from_dt":7.97},{"city":"Dunstable","state_name":"Massachusetts","lat":42.67643,"lng":-71.50052,"zip":"01827","miles_from_dt":8.57},{"city":"Acton","state_name":"Massachusetts","lat":42.48397,"lng":-71.43809,"zip":"01720","miles_from_dt":8.71},{"city":"Bolton","state_name":"Massachusetts","lat":42.43616,"lng":-71.60728,"zip":"01740","miles_from_dt":8.99},{"city":"Townsend","state_name":"Massachusetts","lat":42.66514,"lng":-71.69161,"zip":"01469","miles_from_dt":9.34},{"city":"Stow","state_name":"Massachusetts","lat":42.42983,"lng":-71.51146,"zip":"01775","miles_from_dt":9.71},{"city":"South Lancaster","state_name":"Massachusetts","lat":42.44581,"lng":-71.68845,"zip":"01561","miles_from_dt":10.11},{"city":"Tyngsboro","state_name":"Massachusetts","lat":42.66626,"lng":-71.42911,"zip":"01879","miles_from_dt":10.12},{"city":"North Chelmsford","state_name":"Massachusetts","lat":42.63274,"lng":-71.39132,"zip":"01863","miles_from_dt":10.32},{"city":"Leominster","state_name":"Massachusetts","lat":42.51961,"lng":-71.76583,"zip":"01453","miles_from_dt":10.42},{"city":"Maynard","state_name":"Massachusetts","lat":42.4264,"lng":-71.45607,"zip":"01754","miles_from_dt":11.13},{"city":"Chelmsford","state_name":"Massachusetts","lat":42.59156,"lng":-71.35553,"zip":"01824","miles_from_dt":11.14},{"city":"Carlisle","state_name":"Massachusetts","lat":42.53001,"lng":-71.35128,"zip":"01741","miles_from_dt":11.43},{"city":"Nashua","state_name":"New Hampshire","lat":42.72212,"lng":-71.49556,"zip":"03062","miles_from_dt":11.6},{"city":"West Townsend","state_name":"Massachusetts","lat":42.67088,"lng":-71.7508,"zip":"01474","miles_from_dt":11.8},{"city":"Clinton","state_name":"Massachusetts","lat":42.4119,"lng":-71.68883,"zip":"01510","miles_from_dt":12.08},{"city":"Hudson","state_name":"Massachusetts","lat":42.38868,"lng":-71.54648,"zip":"01749","miles_from_dt":12.13},{"city":"Concord","state_name":"Massachusetts","lat":42.46221,"lng":-71.36504,"zip":"01742","miles_from_dt":12.61},{"city":"Fitchburg","state_name":"Massachusetts","lat":42.58559,"lng":-71.81693,"zip":"01420","miles_from_dt":12.66},{"city":"Lowell","state_name":"Massachusetts","lat":42.62915,"lng":-71.33674,"zip":"01851","miles_from_dt":12.76},{"city":"Lowell","state_name":"Massachusetts","lat":42.64939,"lng":-71.34827,"zip":"01854","miles_from_dt":12.79},{"city":"Berlin","state_name":"Massachusetts","lat":42.38378,"lng":-71.63552,"zip":"01503","miles_from_dt":12.84},{"city":"Hollis","state_name":"New Hampshire","lat":42.7494,"lng":-71.58338,"zip":"03049","miles_from_dt":12.85},{"city":"Nashua","state_name":"New Hampshire","lat":42.74654,"lng":-71.493,"zip":"03061","miles_from_dt":13.24},{"city":"Sterling","state_name":"Massachusetts","lat":42.44124,"lng":-71.77297,"zip":"01564","miles_from_dt":13.34},{"city":"Nashua","state_name":"New Hampshire","lat":42.74135,"lng":-71.45936,"zip":"03060","miles_from_dt":13.52},{"city":"Brookline","state_name":"New Hampshire","lat":42.74643,"lng":-71.67054,"zip":"03033","miles_from_dt":13.61},{"city":"North Billerica","state_name":"Massachusetts","lat":42.57427,"lng":-71.29437,"zip":"01862","miles_from_dt":14.11},{"city":"Sudbury","state_name":"Massachusetts","lat":42.38456,"lng":-71.42316,"zip":"01776","miles_from_dt":14.47},{"city":"Lowell","state_name":"Massachusetts","lat":42.63231,"lng":-71.29538,"zip":"01852","miles_from_dt":14.82},{"city":"Marlborough","state_name":"Massachusetts","lat":42.3494,"lng":-71.54681,"zip":"01752","miles_from_dt":14.83},{"city":"Lowell","state_name":"Massachusetts","lat":42.65859,"lng":-71.30522,"zip":"01853","miles_from_dt":15.04},{"city":"Lowell","state_name":"Massachusetts","lat":42.65569,"lng":-71.30292,"zip":"01850","miles_from_dt":15.06},{"city":"Ashby","state_name":"Massachusetts","lat":42.67652,"lng":-71.82322,"zip":"01431","miles_from_dt":15.06},{"city":"Nashua","state_name":"New Hampshire","lat":42.7795,"lng":-71.51939,"zip":"03063","miles_from_dt":15.14},{"city":"Nutting Lake","state_name":"Massachusetts","lat":42.53471,"lng":-71.26916,"zip":"01865","miles_from_dt":15.51},{"city":"Bedford","state_name":"Massachusetts","lat":42.4995,"lng":-71.27799,"zip":"01730","miles_from_dt":15.58},{"city":"Nashua","state_name":"New Hampshire","lat":42.77886,"lng":-71.47466,"zip":"03064","miles_from_dt":15.65},{"city":"Billerica","state_name":"Massachusetts","lat":42.54127,"lng":-71.26288,"zip":"01822","miles_from_dt":15.78},{"city":"Greenville","state_name":"New Hampshire","lat":42.74668,"lng":-71.76268,"zip":"03048","miles_from_dt":15.99},{"city":"Dracut","state_name":"Massachusetts","lat":42.68323,"lng":-71.30063,"zip":"01826","miles_from_dt":16.05},{"city":"Hudson","state_name":"New Hampshire","lat":42.76394,"lng":-71.40716,"zip":"03051","miles_from_dt":16.15},{"city":"Boylston","state_name":"Massachusetts","lat":42.35633,"lng":-71.72123,"zip":"01505","miles_from_dt":16.24},{"city":"Hanscom Afb","state_name":"Massachusetts","lat":42.46422,"lng":-71.28202,"zip":"01731","miles_from_dt":16.25},{"city":"Billerica","state_name":"Massachusetts","lat":42.54999,"lng":-71.25206,"zip":"01821","miles_from_dt":16.28},{"city":"Lincoln","state_name":"Massachusetts","lat":42.42572,"lng":-71.31013,"zip":"01773","miles_from_dt":16.35},{"city":"Westminster","state_name":"Massachusetts","lat":42.55122,"lng":-71.90266,"zip":"01473","miles_from_dt":16.97},{"city":"Northborough","state_name":"Massachusetts","lat":42.32314,"lng":-71.64621,"zip":"01532","miles_from_dt":17.04},{"city":"Pelham","state_name":"New Hampshire","lat":42.73354,"lng":-71.324,"zip":"03076","miles_from_dt":17.19},{"city":"West Boylston","state_name":"Massachusetts","lat":42.37034,"lng":-71.78502,"zip":"01583","miles_from_dt":17.26},{"city":"Princeton","state_name":"Massachusetts","lat":42.45649,"lng":-71.88128,"zip":"01541","miles_from_dt":17.5},{"city":"Pinehurst","state_name":"Massachusetts","lat":42.52539,"lng":-71.22794,"zip":"01866","miles_from_dt":17.69},{"city":"Wayland","state_name":"Massachusetts","lat":42.3583,"lng":-71.35895,"zip":"01778","miles_from_dt":17.82},{"city":"Tewksbury","state_name":"Massachusetts","lat":42.61206,"lng":-71.22733,"zip":"01876","miles_from_dt":17.83},{"city":"Framingham","state_name":"Massachusetts","lat":42.32301,"lng":-71.44179,"zip":"01703","miles_from_dt":17.86},{"city":"Framingham","state_name":"Massachusetts","lat":42.32195,"lng":-71.43796,"zip":"01701","miles_from_dt":18},{"city":"Framingham","state_name":"Massachusetts","lat":42.32025,"lng":-71.43949,"zip":"01705","miles_from_dt":18.08},{"city":"Framingham","state_name":"Massachusetts","lat":42.31823,"lng":-71.44266,"zip":"01704","miles_from_dt":18.15},{"city":"Southborough","state_name":"Massachusetts","lat":42.30144,"lng":-71.5304,"zip":"01772","miles_from_dt":18.21},{"city":"Milford","state_name":"New Hampshire","lat":42.81783,"lng":-71.67361,"zip":"03055","miles_from_dt":18.32},{"city":"Lexington","state_name":"Massachusetts","lat":42.438,"lng":-71.23922,"zip":"02421","miles_from_dt":19.01},{"city":"Fayville","state_name":"Massachusetts","lat":42.29155,"lng":-71.50101,"zip":"01745","miles_from_dt":19.11},{"city":"Ashburnham","state_name":"Massachusetts","lat":42.66069,"lng":-71.9232,"zip":"01430","miles_from_dt":19.19},{"city":"Burlington","state_name":"Massachusetts","lat":42.5028,"lng":-71.20147,"zip":"01803","miles_from_dt":19.3},{"city":"Burlington","state_name":"Massachusetts","lat":42.50635,"lng":-71.19824,"zip":"01805","miles_from_dt":19.41},{"city":"Lexington","state_name":"Massachusetts","lat":42.45821,"lng":-71.21762,"zip":"02420","miles_from_dt":19.44},{"city":"Waltham","state_name":"Massachusetts","lat":42.39859,"lng":-71.2573,"zip":"02451","miles_from_dt":19.64},{"city":"Weston","state_name":"Massachusetts","lat":42.35893,"lng":-71.30009,"zip":"02493","miles_from_dt":19.76},{"city":"Jefferson","state_name":"Massachusetts","lat":42.38142,"lng":-71.87111,"zip":"01522","miles_from_dt":19.84},{"city":"New Ipswich","state_name":"New Hampshire","lat":42.74892,"lng":-71.8747,"zip":"03071","miles_from_dt":20.1},{"city":"Litchfield","state_name":"New Hampshire","lat":42.84302,"lng":-71.455,"zip":"03052","miles_from_dt":20.17},{"city":"Merrimack","state_name":"New Hampshire","lat":42.85471,"lng":-71.51878,"zip":"03054","miles_from_dt":20.27},{"city":"Westborough","state_name":"Massachusetts","lat":42.26815,"lng":-71.61402,"zip":"01581","miles_from_dt":20.51},{"city":"Andover","state_name":"Massachusetts","lat":42.65037,"lng":-71.18456,"zip":"01899","miles_from_dt":20.58},{"city":"Framingham","state_name":"Massachusetts","lat":42.28242,"lng":-71.43428,"zip":"01702","miles_from_dt":20.62},{"city":"Andover","state_name":"Massachusetts","lat":42.64859,"lng":-71.18254,"zip":"01812","miles_from_dt":20.64},{"city":"Shrewsbury","state_name":"Massachusetts","lat":42.28419,"lng":-71.71558,"zip":"01545","miles_from_dt":20.66},{"city":"Andover","state_name":"Massachusetts","lat":42.65227,"lng":-71.1835,"zip":"05501","miles_from_dt":20.67},{"city":"Wilmington","state_name":"Massachusetts","lat":42.56091,"lng":-71.16541,"zip":"01887","miles_from_dt":20.68},{"city":"Worcester","state_name":"Massachusetts","lat":42.31367,"lng":-71.79614,"zip":"01606","miles_from_dt":20.74},{"city":"Shrewsbury","state_name":"Massachusetts","lat":42.29182,"lng":-71.74599,"zip":"01546","miles_from_dt":20.79},{"city":"Wilton","state_name":"New Hampshire","lat":42.82741,"lng":-71.76967,"zip":"03086","miles_from_dt":20.85},{"city":"Waltham","state_name":"Massachusetts","lat":42.378,"lng":-71.23988,"zip":"02454","miles_from_dt":21.2},{"city":"Holden","state_name":"Massachusetts","lat":42.33685,"lng":-71.85181,"zip":"01520","miles_from_dt":21.25},{"city":"Amherst","state_name":"New Hampshire","lat":42.87056,"lng":-71.60683,"zip":"03031","miles_from_dt":21.27},{"city":"Gardner","state_name":"Massachusetts","lat":42.58797,"lng":-71.98649,"zip":"01440","miles_from_dt":21.28},{"city":"Waltham","state_name":"Massachusetts","lat":42.39365,"lng":-71.2202,"zip":"02452","miles_from_dt":21.4},{"city":"North Waltham","state_name":"Massachusetts","lat":42.39,"lng":-71.22219,"zip":"02455","miles_from_dt":21.46},{"city":"Andover","state_name":"Massachusetts","lat":42.64669,"lng":-71.16517,"zip":"01810","miles_from_dt":21.46},{"city":"Worcester","state_name":"Massachusetts","lat":42.2927,"lng":-71.77904,"zip":"01653","miles_from_dt":21.52},{"city":"Waltham","state_name":"Massachusetts","lat":42.36918,"lng":-71.24101,"zip":"02453","miles_from_dt":21.53},{"city":"Westminster","state_name":"Massachusetts","lat":42.57362,"lng":-71.99464,"zip":"01441","miles_from_dt":21.65},{"city":"Woburn","state_name":"Massachusetts","lat":42.48616,"lng":-71.15808,"zip":"01888","miles_from_dt":21.73},{"city":"Ashland","state_name":"Massachusetts","lat":42.25726,"lng":-71.46867,"zip":"01721","miles_from_dt":21.77},{"city":"Windham","state_name":"New Hampshire","lat":42.80758,"lng":-71.29945,"zip":"03087","miles_from_dt":21.78},{"city":"Woburn","state_name":"Massachusetts","lat":42.48694,"lng":-71.15415,"zip":"01801","miles_from_dt":21.91},{"city":"Worcester","state_name":"Massachusetts","lat":42.28979,"lng":-71.78802,"zip":"01605","miles_from_dt":21.92},{"city":"Worcester","state_name":"Massachusetts","lat":42.27687,"lng":-71.76122,"zip":"01655","miles_from_dt":22.06},{"city":"Arlington Heights","state_name":"Massachusetts","lat":42.42025,"lng":-71.18094,"zip":"02475","miles_from_dt":22.23},{"city":"Natick","state_name":"Massachusetts","lat":42.28436,"lng":-71.34966,"zip":"01760","miles_from_dt":22.34},{"city":"Auburndale","state_name":"Massachusetts","lat":42.34541,"lng":-71.24759,"zip":"02466","miles_from_dt":22.34},{"city":"Lawrence","state_name":"Massachusetts","lat":42.68985,"lng":-71.16095,"zip":"01843","miles_from_dt":22.63},{"city":"Arlington","state_name":"Massachusetts","lat":42.41597,"lng":-71.17437,"zip":"02476","miles_from_dt":22.66},{"city":"Newton Lower Falls","state_name":"Massachusetts","lat":42.33102,"lng":-71.25599,"zip":"02462","miles_from_dt":22.72},{"city":"Methuen","state_name":"Massachusetts","lat":42.73426,"lng":-71.18858,"zip":"01844","miles_from_dt":22.76},{"city":"Hubbardston","state_name":"Massachusetts","lat":42.48378,"lng":-72.00514,"zip":"01452","miles_from_dt":22.86},{"city":"Woodville","state_name":"Massachusetts","lat":42.23233,"lng":-71.55963,"zip":"01784","miles_from_dt":22.87},{"city":"West Newton","state_name":"Massachusetts","lat":42.34969,"lng":-71.22646,"zip":"02465","miles_from_dt":22.96},{"city":"Waverley","state_name":"Massachusetts","lat":42.38898,"lng":-71.18776,"zip":"02479","miles_from_dt":22.97},{"city":"Woburn","state_name":"Massachusetts","lat":42.50588,"lng":-71.12715,"zip":"01815","miles_from_dt":22.98},{"city":"Wellesley Hills","state_name":"Massachusetts","lat":42.31064,"lng":-71.27779,"zip":"02481","miles_from_dt":22.99},{"city":"Winchester","state_name":"Massachusetts","lat":42.45177,"lng":-71.14628,"zip":"01890","miles_from_dt":23},{"city":"Lawrence","state_name":"Massachusetts","lat":42.71077,"lng":-71.16494,"zip":"01841","miles_from_dt":23.04},{"city":"Belmont","state_name":"Massachusetts","lat":42.39602,"lng":-71.17955,"zip":"02478","miles_from_dt":23.08},{"city":"Lawrence","state_name":"Massachusetts","lat":42.70548,"lng":-71.15997,"zip":"01842","miles_from_dt":23.11},{"city":"Lawrence","state_name":"Massachusetts","lat":42.70695,"lng":-71.16014,"zip":"01840","miles_from_dt":23.14},{"city":"Woburn","state_name":"Massachusetts","lat":42.50824,"lng":-71.1234,"zip":"01813","miles_from_dt":23.14},{"city":"Wellesley","state_name":"Massachusetts","lat":42.29455,"lng":-71.29859,"zip":"02482","miles_from_dt":23.2},{"city":"Worcester","state_name":"Massachusetts","lat":42.28592,"lng":-71.82853,"zip":"01609","miles_from_dt":23.26},{"city":"Temple","state_name":"New Hampshire","lat":42.82856,"lng":-71.85495,"zip":"03084","miles_from_dt":23.33},{"city":"Arlington","state_name":"Massachusetts","lat":42.42053,"lng":-71.15666,"zip":"02474","miles_from_dt":23.33},{"city":"Hopkinton","state_name":"Massachusetts","lat":42.2255,"lng":-71.53781,"zip":"01748","miles_from_dt":23.39},{"city":"North Reading","state_name":"Massachusetts","lat":42.57201,"lng":-71.11123,"zip":"01889","miles_from_dt":23.44},{"city":"Worcester","state_name":"Massachusetts","lat":42.26574,"lng":-71.79653,"zip":"01613","miles_from_dt":23.58},{"city":"Newtonville","state_name":"Massachusetts","lat":42.35206,"lng":-71.20835,"zip":"02460","miles_from_dt":23.58},{"city":"Worcester","state_name":"Massachusetts","lat":42.2711,"lng":-71.80974,"zip":"01601","miles_from_dt":23.6},{"city":"Worcester","state_name":"Massachusetts","lat":42.27022,"lng":-71.80933,"zip":"01615","miles_from_dt":23.64},{"city":"Londonderry","state_name":"New Hampshire","lat":42.87927,"lng":-71.38702,"zip":"03053","miles_from_dt":23.71},{"city":"North Grafton","state_name":"Massachusetts","lat":42.23189,"lng":-71.69219,"zip":"01536","miles_from_dt":23.72},{"city":"Rutland","state_name":"Massachusetts","lat":42.38482,"lng":-71.96726,"zip":"01543","miles_from_dt":23.73},{"city":"Salem","state_name":"New Hampshire","lat":42.79023,"lng":-71.22024,"zip":"03079","miles_from_dt":23.73},{"city":"East Templeton","state_name":"Massachusetts","lat":42.56028,"lng":-72.03583,"zip":"01438","miles_from_dt":23.74},{"city":"Waban","state_name":"Massachusetts","lat":42.32777,"lng":-71.23142,"zip":"02468","miles_from_dt":23.78},{"city":"Reading","state_name":"Massachusetts","lat":42.53505,"lng":-71.1055,"zip":"01867","miles_from_dt":23.82},{"city":"Worcester","state_name":"Massachusetts","lat":42.25085,"lng":-71.7683,"zip":"01604","miles_from_dt":23.83},{"city":"Worcester","state_name":"Massachusetts","lat":42.2621,"lng":-71.80145,"zip":"01608","miles_from_dt":23.92},{"city":"Worcester","state_name":"Massachusetts","lat":42.26092,"lng":-71.79949,"zip":"01614","miles_from_dt":23.94},{"city":"Babson Park","state_name":"Massachusetts","lat":42.29777,"lng":-71.26887,"zip":"02457","miles_from_dt":23.97},{"city":"Watertown","state_name":"Massachusetts","lat":42.37,"lng":-71.17713,"zip":"02472","miles_from_dt":24.14},{"city":"Mont Vernon","state_name":"New Hampshire","lat":42.90265,"lng":-71.6861,"zip":"03057","miles_from_dt":24.14},{"city":"Watertown","state_name":"Massachusetts","lat":42.36984,"lng":-71.17499,"zip":"02471","miles_from_dt":24.24},{"city":"West Medford","state_name":"Massachusetts","lat":42.42433,"lng":-71.13227,"zip":"02156","miles_from_dt":24.36},{"city":"Newton","state_name":"Massachusetts","lat":42.35294,"lng":-71.18763,"zip":"02458","miles_from_dt":24.38},{"city":"Nonantum","state_name":"Massachusetts","lat":42.33205,"lng":-71.20748,"zip":"02495","miles_from_dt":24.49},{"city":"New Town","state_name":"Massachusetts","lat":42.33357,"lng":-71.20411,"zip":"02456","miles_from_dt":24.55},{"city":"Worcester","state_name":"Massachusetts","lat":42.27219,"lng":-71.84946,"zip":"01602","miles_from_dt":24.65},{"city":"North Reading","state_name":"Massachusetts","lat":42.58156,"lng":-71.08759,"zip":"01864","miles_from_dt":24.67},{"city":"Sherborn","state_name":"Massachusetts","lat":42.23416,"lng":-71.37532,"zip":"01770","miles_from_dt":24.83},{"city":"Watertown","state_name":"Massachusetts","lat":42.3772,"lng":-71.15371,"zip":"02477","miles_from_dt":24.88},{"city":"Newton Upper Falls","state_name":"Massachusetts","lat":42.31274,"lng":-71.21981,"zip":"02464","miles_from_dt":24.92},{"city":"Stoneham","state_name":"Massachusetts","lat":42.47396,"lng":-71.09705,"zip":"02180","miles_from_dt":24.96},{"city":"Worcester","state_name":"Massachusetts","lat":42.24645,"lng":-71.80968,"zip":"01610","miles_from_dt":25.07},{"city":"Newton Highlands","state_name":"Massachusetts","lat":42.31693,"lng":-71.20875,"zip":"02461","miles_from_dt":25.14},{"city":"Needham Heights","state_name":"Massachusetts","lat":42.29959,"lng":-71.2317,"zip":"02494","miles_from_dt":25.14},{"city":"Cambridge","state_name":"Massachusetts","lat":42.39332,"lng":-71.13342,"zip":"02140","miles_from_dt":25.24},{"city":"Paxton","state_name":"Massachusetts","lat":42.31037,"lng":-71.93095,"zip":"01612","miles_from_dt":25.39},{"city":"Winchendon","state_name":"Massachusetts","lat":42.66675,"lng":-72.04902,"zip":"01475","miles_from_dt":25.41},{"city":"Templeton","state_name":"Massachusetts","lat":42.55324,"lng":-72.06879,"zip":"01468","miles_from_dt":25.43},{"city":"Medford","state_name":"Massachusetts","lat":42.42324,"lng":-71.10878,"zip":"02155","miles_from_dt":25.5},{"city":"Somerville","state_name":"Massachusetts","lat":42.40088,"lng":-71.122,"zip":"02144","miles_from_dt":25.52},{"city":"Medford","state_name":"Massachusetts","lat":42.41902,"lng":-71.10986,"zip":"02153","miles_from_dt":25.56},{"city":"Lyndeborough","state_name":"New Hampshire","lat":42.90197,"lng":-71.77545,"zip":"03082","miles_from_dt":25.58},{"city":"Cambridge","state_name":"Massachusetts","lat":42.37997,"lng":-71.13446,"zip":"02138","miles_from_dt":25.63},{"city":"Grafton","state_name":"Massachusetts","lat":42.20077,"lng":-71.67892,"zip":"01519","miles_from_dt":25.64},{"city":"North Salem","state_name":"New Hampshire","lat":42.83502,"lng":-71.22425,"zip":"03073","miles_from_dt":25.73},{"city":"North Andover","state_name":"Massachusetts","lat":42.67132,"lng":-71.08669,"zip":"01845","miles_from_dt":25.77},{"city":"Worcester","state_name":"Massachusetts","lat":42.22684,"lng":-71.79037,"zip":"01607","miles_from_dt":25.82},{"city":"Newton Center","state_name":"Massachusetts","lat":42.31515,"lng":-71.19174,"zip":"02459","miles_from_dt":25.87},{"city":"Brighton","state_name":"Massachusetts","lat":42.34989,"lng":-71.15417,"zip":"02135","miles_from_dt":25.89},{"city":"Needham","state_name":"Massachusetts","lat":42.27615,"lng":-71.24387,"zip":"02492","miles_from_dt":25.93},{"city":"Rindge","state_name":"New Hampshire","lat":42.75234,"lng":-72.01071,"zip":"03461","miles_from_dt":25.94},{"city":"Holliston","state_name":"Massachusetts","lat":42.19775,"lng":-71.44499,"zip":"01746","miles_from_dt":26.05},{"city":"Wakefield","state_name":"Massachusetts","lat":42.50348,"lng":-71.06559,"zip":"01880","miles_from_dt":26.11},{"city":"Bedford","state_name":"New Hampshire","lat":42.94065,"lng":-71.53023,"zip":"03110","miles_from_dt":26.11},{"city":"Worcester","state_name":"Massachusetts","lat":42.24373,"lng":-71.84429,"zip":"01603","miles_from_dt":26.14},{"city":"East Derry","state_name":"New Hampshire","lat":42.88964,"lng":-71.29713,"zip":"03041","miles_from_dt":26.47},{"city":"Boston","state_name":"Massachusetts","lat":42.36717,"lng":-71.12509,"zip":"02163","miles_from_dt":26.5},{"city":"Manchester","state_name":"New Hampshire","lat":42.93782,"lng":-71.45382,"zip":"03111","miles_from_dt":26.51},{"city":"Cambridge","state_name":"Massachusetts","lat":42.37407,"lng":-71.11714,"zip":"02238","miles_from_dt":26.61},{"city":"Allston","state_name":"Massachusetts","lat":42.35855,"lng":-71.12931,"zip":"02134","miles_from_dt":26.62},{"city":"Baldwinville","state_name":"Massachusetts","lat":42.60579,"lng":-72.08958,"zip":"01436","miles_from_dt":26.63},{"city":"Upton","state_name":"Massachusetts","lat":42.17694,"lng":-71.60516,"zip":"01568","miles_from_dt":26.74},{"city":"Derry","state_name":"New Hampshire","lat":42.88867,"lng":-71.27932,"zip":"03038","miles_from_dt":26.9},{"city":"Dover","state_name":"Massachusetts","lat":42.2366,"lng":-71.28421,"zip":"02030","miles_from_dt":26.9},{"city":"Chestnut Hill","state_name":"Massachusetts","lat":42.31725,"lng":-71.16096,"zip":"02467","miles_from_dt":26.97},{"city":"Melrose","state_name":"Massachusetts","lat":42.45561,"lng":-71.05901,"zip":"02176","miles_from_dt":27.17},{"city":"Manchester","state_name":"New Hampshire","lat":42.94621,"lng":-71.43905,"zip":"03108","miles_from_dt":27.25},{"city":"Somerville","state_name":"Massachusetts","lat":42.39206,"lng":-71.0895,"zip":"02145","miles_from_dt":27.28},{"city":"Somerville","state_name":"Massachusetts","lat":42.38142,"lng":-71.09677,"zip":"02143","miles_from_dt":27.28},{"city":"Lynnfield","state_name":"Massachusetts","lat":42.53523,"lng":-71.03695,"zip":"01940","miles_from_dt":27.3},{"city":"Cherry Valley","state_name":"Massachusetts","lat":42.23945,"lng":-71.87702,"zip":"01611","miles_from_dt":27.31},{"city":"Haverhill","state_name":"Massachusetts","lat":42.79099,"lng":-71.13133,"zip":"01832","miles_from_dt":27.33},{"city":"South Grafton","state_name":"Massachusetts","lat":42.17496,"lng":-71.67762,"zip":"01560","miles_from_dt":27.37},{"city":"Brookline","state_name":"Massachusetts","lat":42.3435,"lng":-71.12179,"zip":"02446","miles_from_dt":27.51},{"city":"Cambridge","state_name":"Massachusetts","lat":42.36224,"lng":-71.10253,"zip":"02139","miles_from_dt":27.66},{"city":"Millbury","state_name":"Massachusetts","lat":42.19228,"lng":-71.77397,"zip":"01527","miles_from_dt":27.66},{"city":"Brookline","state_name":"Massachusetts","lat":42.32581,"lng":-71.13319,"zip":"02445","miles_from_dt":27.73},{"city":"Malden","state_name":"Massachusetts","lat":42.43048,"lng":-71.05762,"zip":"02148","miles_from_dt":27.76},{"city":"Manchester","state_name":"New Hampshire","lat":42.95536,"lng":-71.44463,"zip":"03103","miles_from_dt":27.8},{"city":"Haverhill","state_name":"Massachusetts","lat":42.75292,"lng":-71.08602,"zip":"01835","miles_from_dt":27.94},{"city":"West Boxford","state_name":"Massachusetts","lat":42.70948,"lng":-71.05848,"zip":"01885","miles_from_dt":27.98},{"city":"Brookline Village","state_name":"Massachusetts","lat":42.33355,"lng":-71.11875,"zip":"02447","miles_from_dt":28.03},{"city":"Leicester","state_name":"Massachusetts","lat":42.24919,"lng":-71.91989,"zip":"01524","miles_from_dt":28.11},{"city":"Atkinson","state_name":"New Hampshire","lat":42.83693,"lng":-71.16042,"zip":"03811","miles_from_dt":28.15},{"city":"Milford","state_name":"Massachusetts","lat":42.15723,"lng":-71.51978,"zip":"01757","miles_from_dt":28.16},{"city":"Boston","state_name":"Massachusetts","lat":42.34741,"lng":-71.10276,"zip":"02215","miles_from_dt":28.18},{"city":"Peterborough","state_name":"New Hampshire","lat":42.86906,"lng":-71.93797,"zip":"03458","miles_from_dt":28.19},{"city":"Cambridge","state_name":"Massachusetts","lat":42.37041,"lng":-71.08218,"zip":"02141","miles_from_dt":28.29},{"city":"Middleton","state_name":"Massachusetts","lat":42.6043,"lng":-71.01641,"zip":"01949","miles_from_dt":28.41},{"city":"Oakham","state_name":"Massachusetts","lat":42.35125,"lng":-72.04776,"zip":"01068","miles_from_dt":28.45},{"city":"Everett","state_name":"Massachusetts","lat":42.40643,"lng":-71.05446,"zip":"02149","miles_from_dt":28.51},{"city":"Cambridge","state_name":"Massachusetts","lat":42.36295,"lng":-71.08189,"zip":"02142","miles_from_dt":28.56},{"city":"West Roxbury","state_name":"Massachusetts","lat":42.27931,"lng":-71.16072,"zip":"02132","miles_from_dt":28.71},{"city":"Boston","state_name":"Massachusetts","lat":42.34046,"lng":-71.09481,"zip":"02115","miles_from_dt":28.78},{"city":"Charlestown","state_name":"Massachusetts","lat":42.37975,"lng":-71.06167,"zip":"02129","miles_from_dt":28.93},{"city":"Auburn","state_name":"Massachusetts","lat":42.19689,"lng":-71.84549,"zip":"01501","miles_from_dt":28.95},{"city":"Manchester","state_name":"New Hampshire","lat":42.96766,"lng":-71.41748,"zip":"03105","miles_from_dt":28.96},{"city":"Roxbury Crossing","state_name":"Massachusetts","lat":42.33212,"lng":-71.09654,"zip":"02120","miles_from_dt":29.02},{"city":"Boston","state_name":"Massachusetts","lat":42.39503,"lng":-71.05027,"zip":"02204","miles_from_dt":29.02},{"city":"Boston","state_name":"Massachusetts","lat":42.34394,"lng":-71.08527,"zip":"02123","miles_from_dt":29.07},{"city":"Manchester","state_name":"New Hampshire","lat":42.96594,"lng":-71.40167,"zip":"03109","miles_from_dt":29.08},{"city":"Barre","state_name":"Massachusetts","lat":42.42117,"lng":-72.10655,"zip":"01005","miles_from_dt":29.09},{"city":"Boston","state_name":"Massachusetts","lat":42.34748,"lng":-71.08199,"zip":"02199","miles_from_dt":29.09},{"city":"Haverhill","state_name":"Massachusetts","lat":42.78576,"lng":-71.08467,"zip":"01831","miles_from_dt":29.12},{"city":"New Boston","state_name":"New Hampshire","lat":42.97702,"lng":-71.68664,"zip":"03070","miles_from_dt":29.15},{"city":"Jamaica Plain","state_name":"Massachusetts","lat":42.30823,"lng":-71.11515,"zip":"02130","miles_from_dt":29.2},{"city":"Boston","state_name":"Massachusetts","lat":42.35105,"lng":-71.07638,"zip":"02116","miles_from_dt":29.21},{"city":"Medway","state_name":"Massachusetts","lat":42.15352,"lng":-71.42906,"zip":"02053","miles_from_dt":29.21},{"city":"Saugus","state_name":"Massachusetts","lat":42.46922,"lng":-71.01299,"zip":"01906","miles_from_dt":29.21},{"city":"Boston","state_name":"Massachusetts","lat":42.34,"lng":-71.08502,"zip":"02298","miles_from_dt":29.22},{"city":"Millis","state_name":"Massachusetts","lat":42.1693,"lng":-71.36261,"zip":"02054","miles_from_dt":29.22},{"city":"Boston","state_name":"Massachusetts","lat":42.36337,"lng":-71.06686,"zip":"02114","miles_from_dt":29.22},{"city":"Boston","state_name":"Massachusetts","lat":42.36237,"lng":-71.06619,"zip":"02222","miles_from_dt":29.28},{"city":"Boxford","state_name":"Massachusetts","lat":42.6815,"lng":-71.01887,"zip":"01921","miles_from_dt":29.28},{"city":"West Peterborough","state_name":"New Hampshire","lat":42.87174,"lng":-71.96971,"zip":"03468","miles_from_dt":29.42},{"city":"Boston","state_name":"Massachusetts","lat":42.34853,"lng":-71.07299,"zip":"02217","miles_from_dt":29.45},{"city":"Medfield","state_name":"Massachusetts","lat":42.1848,"lng":-71.30501,"zip":"02052","miles_from_dt":29.46},{"city":"Northbridge","state_name":"Massachusetts","lat":42.13991,"lng":-71.64433,"zip":"01534","miles_from_dt":29.48},{"city":"Boston","state_name":"Massachusetts","lat":42.35657,"lng":-71.06516,"zip":"02108","miles_from_dt":29.52},{"city":"Boston","state_name":"Massachusetts","lat":42.35838,"lng":-71.06383,"zip":"02133","miles_from_dt":29.52},{"city":"Boston","state_name":"Massachusetts","lat":42.36144,"lng":-71.05945,"zip":"02203","miles_from_dt":29.61},{"city":"Dedham","state_name":"Massachusetts","lat":42.24664,"lng":-71.17992,"zip":"02027","miles_from_dt":29.63},{"city":"Boston","state_name":"Massachusetts","lat":42.3582,"lng":-71.06109,"zip":"02293","miles_from_dt":29.65},{"city":"Boston","state_name":"Massachusetts","lat":42.34217,"lng":-71.0733,"zip":"02117","miles_from_dt":29.66},{"city":"Hampstead","state_name":"New Hampshire","lat":42.88148,"lng":-71.17856,"zip":"03841","miles_from_dt":29.66},{"city":"Boston","state_name":"Massachusetts","lat":42.35936,"lng":-71.05953,"zip":"02201","miles_from_dt":29.68},{"city":"Boston","state_name":"Massachusetts","lat":42.36526,"lng":-71.05524,"zip":"02113","miles_from_dt":29.68},{"city":"Dedham","state_name":"Massachusetts","lat":42.24665,"lng":-71.1777,"zip":"02026","miles_from_dt":29.7},{"city":"South Barre","state_name":"Massachusetts","lat":42.3837,"lng":-72.10021,"zip":"01074","miles_from_dt":29.77},{"city":"Boston","state_name":"Massachusetts","lat":42.36498,"lng":-71.05277,"zip":"02109","miles_from_dt":29.8},{"city":"Roxbury","state_name":"Massachusetts","lat":42.32405,"lng":-71.08522,"zip":"02119","miles_from_dt":29.81},{"city":"Boston","state_name":"Massachusetts","lat":42.35768,"lng":-71.05763,"zip":"02112","miles_from_dt":29.82},{"city":"Boston","state_name":"Massachusetts","lat":42.35863,"lng":-71.0567,"zip":"02297","miles_from_dt":29.83},{"city":"Chelsea","state_name":"Massachusetts","lat":42.39587,"lng":-71.03251,"zip":"02150","miles_from_dt":29.83},{"city":"Manchester","state_name":"New Hampshire","lat":42.98881,"lng":-71.4659,"zip":"03101","miles_from_dt":29.84},{"city":"Boston","state_name":"Massachusetts","lat":42.35807,"lng":-71.05671,"zip":"02211","miles_from_dt":29.85},{"city":"Roslindale","state_name":"Massachusetts","lat":42.28392,"lng":-71.12468,"zip":"02131","miles_from_dt":29.87},{"city":"Boston","state_name":"Massachusetts","lat":42.3513,"lng":-71.06086,"zip":"02196","miles_from_dt":29.89},{"city":"Boston","state_name":"Massachusetts","lat":42.35067,"lng":-71.06054,"zip":"02111","miles_from_dt":29.92},{"city":"Boston","state_name":"Massachusetts","lat":42.33806,"lng":-71.07057,"zip":"02118","miles_from_dt":29.92},{"city":"Boston","state_name":"Massachusetts","lat":42.35486,"lng":-71.05727,"zip":"02241","miles_from_dt":29.93},{"city":"Hathorne","state_name":"Massachusetts","lat":42.58579,"lng":-70.98406,"zip":"01937","miles_from_dt":29.96},{"city":"Boston","state_name":"Massachusetts","lat":42.35572,"lng":-71.05577,"zip":"02212","miles_from_dt":29.97}],"targetCityZipCode":"01432","targetCityState":"Massachusetts"},"__N_SSG":true}