{"pageProps":{"stateName":"Massachusetts","cityName":"chilmark","nearbyCities":[{"city":"Menemsha","state_name":"Massachusetts","lat":41.35666,"lng":-70.74092,"zip":"02552","miles_from_dt":0.6},{"city":"West Tisbury","state_name":"Massachusetts","lat":41.39651,"lng":-70.65496,"zip":"02575","miles_from_dt":5.77},{"city":"Cuttyhunk","state_name":"Massachusetts","lat":41.42818,"lng":-70.89102,"zip":"02713","miles_from_dt":9.3},{"city":"Vineyard Haven","state_name":"Massachusetts","lat":41.44341,"lng":-70.61534,"zip":"02568","miles_from_dt":9.42},{"city":"Woods Hole","state_name":"Massachusetts","lat":41.48731,"lng":-70.74525,"zip":"02543","miles_from_dt":9.55},{"city":"Edgartown","state_name":"Massachusetts","lat":41.37994,"lng":-70.53227,"zip":"02539","miles_from_dt":11.33},{"city":"Oak Bluffs","state_name":"Massachusetts","lat":41.44218,"lng":-70.56648,"zip":"02557","miles_from_dt":11.34},{"city":"Falmouth","state_name":"Massachusetts","lat":41.55716,"lng":-70.63239,"zip":"02541","miles_from_dt":15.54},{"city":"Falmouth","state_name":"Massachusetts","lat":41.57128,"lng":-70.62807,"zip":"02540","miles_from_dt":16.52},{"city":"West Falmouth","state_name":"Massachusetts","lat":41.60136,"lng":-70.63961,"zip":"02574","miles_from_dt":18.28},{"city":"South Dartmouth","state_name":"Massachusetts","lat":41.56096,"lng":-70.97963,"zip":"02748","miles_from_dt":18.99},{"city":"East Falmouth","state_name":"Massachusetts","lat":41.59706,"lng":-70.56677,"zip":"02536","miles_from_dt":19.49},{"city":"New Bedford","state_name":"Massachusetts","lat":41.60789,"lng":-70.91286,"zip":"02744","miles_from_dt":19.85},{"city":"Dartmouth","state_name":"Massachusetts","lat":41.57117,"lng":-71.00266,"zip":"02714","miles_from_dt":20.31},{"city":"North Falmouth","state_name":"Massachusetts","lat":41.63903,"lng":-70.62521,"zip":"02556","miles_from_dt":20.98},{"city":"Fairhaven","state_name":"Massachusetts","lat":41.63945,"lng":-70.87322,"zip":"02719","miles_from_dt":21.1},{"city":"Westport Point","state_name":"Massachusetts","lat":41.52262,"lng":-71.08266,"zip":"02791","miles_from_dt":21.18},{"city":"New Bedford","state_name":"Massachusetts","lat":41.63792,"lng":-70.92952,"zip":"02742","miles_from_dt":22.09},{"city":"New Bedford","state_name":"Massachusetts","lat":41.63802,"lng":-70.93839,"zip":"02740","miles_from_dt":22.3},{"city":"Mattapoisett","state_name":"Massachusetts","lat":41.6687,"lng":-70.81705,"zip":"02739","miles_from_dt":22.37},{"city":"New Bedford","state_name":"Massachusetts","lat":41.63989,"lng":-70.94,"zip":"02741","miles_from_dt":22.45},{"city":"Mashpee","state_name":"Massachusetts","lat":41.61778,"lng":-70.49077,"zip":"02649","miles_from_dt":22.8},{"city":"Cataumet","state_name":"Massachusetts","lat":41.66626,"lng":-70.61628,"zip":"02534","miles_from_dt":22.91},{"city":"New Bedford","state_name":"Massachusetts","lat":41.66474,"lng":-70.945,"zip":"02746","miles_from_dt":24.11},{"city":"Adamsville","state_name":"Rhode Island","lat":41.544,"lng":-71.13778,"zip":"02801","miles_from_dt":24.38},{"city":"Little Compton","state_name":"Rhode Island","lat":41.51524,"lng":-71.16455,"zip":"02837","miles_from_dt":24.57},{"city":"Westport","state_name":"Massachusetts","lat":41.59967,"lng":-71.08266,"zip":"02790","miles_from_dt":24.58},{"city":"Pocasset","state_name":"Massachusetts","lat":41.69237,"lng":-70.61374,"zip":"02559","miles_from_dt":24.68},{"city":"Cotuit","state_name":"Massachusetts","lat":41.62348,"lng":-70.44051,"zip":"02635","miles_from_dt":24.71},{"city":"Marion","state_name":"Massachusetts","lat":41.7092,"lng":-70.76362,"zip":"02738","miles_from_dt":24.88},{"city":"North Dartmouth","state_name":"Massachusetts","lat":41.6577,"lng":-71.01202,"zip":"02747","miles_from_dt":25.38},{"city":"Monument Beach","state_name":"Massachusetts","lat":41.71297,"lng":-70.62011,"zip":"02553","miles_from_dt":25.96},{"city":"Forestdale","state_name":"Massachusetts","lat":41.68361,"lng":-70.51202,"zip":"02644","miles_from_dt":26.1},{"city":"Acushnet","state_name":"Massachusetts","lat":41.71323,"lng":-70.90054,"zip":"02743","miles_from_dt":26.38},{"city":"Buzzards Bay","state_name":"Massachusetts","lat":41.70194,"lng":-70.54824,"zip":"02542","miles_from_dt":26.44},{"city":"New Bedford","state_name":"Massachusetts","lat":41.70284,"lng":-70.94695,"zip":"02745","miles_from_dt":26.55},{"city":"Osterville","state_name":"Massachusetts","lat":41.62972,"lng":-70.39263,"zip":"02655","miles_from_dt":26.69},{"city":"Onset","state_name":"Massachusetts","lat":41.74453,"lng":-70.65377,"zip":"02558","miles_from_dt":27.72},{"city":"Marstons Mills","state_name":"Massachusetts","lat":41.67237,"lng":-70.41545,"zip":"02648","miles_from_dt":28.15},{"city":"Tiverton","state_name":"Rhode Island","lat":41.60905,"lng":-71.17413,"zip":"02878","miles_from_dt":28.55},{"city":"Wareham","state_name":"Massachusetts","lat":41.76184,"lng":-70.70138,"zip":"02571","miles_from_dt":28.59},{"city":"Rochester","state_name":"Massachusetts","lat":41.75875,"lng":-70.84048,"zip":"02770","miles_from_dt":28.7},{"city":"Buzzards Bay","state_name":"Massachusetts","lat":41.75111,"lng":-70.59713,"zip":"02532","miles_from_dt":28.81},{"city":"Sandwich","state_name":"Massachusetts","lat":41.71995,"lng":-70.4818,"zip":"02563","miles_from_dt":29.04},{"city":"Centerville","state_name":"Massachusetts","lat":41.65777,"lng":-70.3536,"zip":"02634","miles_from_dt":29.48},{"city":"West Wareham","state_name":"Massachusetts","lat":41.77807,"lng":-70.76338,"zip":"02576","miles_from_dt":29.63},{"city":"West Hyannisport","state_name":"Massachusetts","lat":41.6357,"lng":-70.31878,"zip":"02672","miles_from_dt":29.73},{"city":"Centerville","state_name":"Massachusetts","lat":41.66074,"lng":-70.34826,"zip":"02632","miles_from_dt":29.82},{"city":"Middletown","state_name":"Rhode Island","lat":41.51739,"lng":-71.27667,"zip":"02842","miles_from_dt":29.9},{"city":"Hyannis Port","state_name":"Massachusetts","lat":41.63127,"lng":-70.30909,"zip":"02647","miles_from_dt":29.9}],"targetCityZipCode":"02535","targetCityState":"Massachusetts"},"__N_SSG":true}