{"pageProps":{"stateName":"Massachusetts","cityName":"marshfield-hills","nearbyCities":[{"city":"Humarock","state_name":"Massachusetts","lat":42.14582,"lng":-70.69603,"zip":"02047","miles_from_dt":1.43},{"city":"Marshfield","state_name":"Massachusetts","lat":42.11443,"lng":-70.71487,"zip":"02050","miles_from_dt":2.17},{"city":"North Marshfield","state_name":"Massachusetts","lat":42.14282,"lng":-70.77212,"zip":"02059","miles_from_dt":2.48},{"city":"Greenbush","state_name":"Massachusetts","lat":42.17959,"lng":-70.74968,"zip":"02040","miles_from_dt":2.72},{"city":"Ocean Bluff","state_name":"Massachusetts","lat":42.09167,"lng":-70.70611,"zip":"02065","miles_from_dt":3.81},{"city":"Scituate","state_name":"Massachusetts","lat":42.20129,"lng":-70.76155,"zip":"02066","miles_from_dt":4.33},{"city":"North Pembroke","state_name":"Massachusetts","lat":42.09441,"lng":-70.78789,"zip":"02358","miles_from_dt":4.81},{"city":"Norwell","state_name":"Massachusetts","lat":42.16075,"lng":-70.81772,"zip":"02061","miles_from_dt":4.94},{"city":"Brant Rock","state_name":"Massachusetts","lat":42.08398,"lng":-70.64973,"zip":"02020","miles_from_dt":5.69},{"city":"Green Harbor","state_name":"Massachusetts","lat":42.07158,"lng":-70.65438,"zip":"02041","miles_from_dt":6.21},{"city":"Minot","state_name":"Massachusetts","lat":42.23883,"lng":-70.76158,"zip":"02055","miles_from_dt":6.75},{"city":"Pembroke","state_name":"Massachusetts","lat":42.06547,"lng":-70.8014,"zip":"02359","miles_from_dt":6.79},{"city":"Duxbury","state_name":"Massachusetts","lat":42.04651,"lng":-70.71388,"zip":"02332","miles_from_dt":6.83},{"city":"Hanover","state_name":"Massachusetts","lat":42.12241,"lng":-70.85665,"zip":"02339","miles_from_dt":7},{"city":"Cohasset","state_name":"Massachusetts","lat":42.23603,"lng":-70.81906,"zip":"02025","miles_from_dt":7.95},{"city":"Duxbury","state_name":"Massachusetts","lat":42.03184,"lng":-70.69423,"zip":"02331","miles_from_dt":7.97},{"city":"Accord","state_name":"Massachusetts","lat":42.17568,"lng":-70.88691,"zip":"02018","miles_from_dt":8.63},{"city":"Bryantville","state_name":"Massachusetts","lat":42.04474,"lng":-70.83634,"zip":"02327","miles_from_dt":9.03},{"city":"Rockland","state_name":"Massachusetts","lat":42.1295,"lng":-70.91002,"zip":"02370","miles_from_dt":9.62},{"city":"Hingham","state_name":"Massachusetts","lat":42.21678,"lng":-70.88494,"zip":"02043","miles_from_dt":9.63},{"city":"Hanson","state_name":"Massachusetts","lat":42.05604,"lng":-70.87251,"zip":"02341","miles_from_dt":9.81},{"city":"Monponsett","state_name":"Massachusetts","lat":42.02043,"lng":-70.84562,"zip":"02350","miles_from_dt":10.65},{"city":"Hingham","state_name":"Massachusetts","lat":42.24248,"lng":-70.89288,"zip":"02044","miles_from_dt":10.97},{"city":"Kingston","state_name":"Massachusetts","lat":41.98616,"lng":-70.74823,"zip":"02364","miles_from_dt":11.05},{"city":"East Weymouth","state_name":"Massachusetts","lat":42.2111,"lng":-70.93135,"zip":"02189","miles_from_dt":11.58},{"city":"South Weymouth","state_name":"Massachusetts","lat":42.16625,"lng":-70.95253,"zip":"02190","miles_from_dt":11.83},{"city":"Whitman","state_name":"Massachusetts","lat":42.08,"lng":-70.93993,"zip":"02382","miles_from_dt":11.98},{"city":"Abington","state_name":"Massachusetts","lat":42.11805,"lng":-70.95905,"zip":"02351","miles_from_dt":12.23},{"city":"Hull","state_name":"Massachusetts","lat":42.28437,"lng":-70.88266,"zip":"02045","miles_from_dt":12.6},{"city":"Weymouth","state_name":"Massachusetts","lat":42.20724,"lng":-70.95764,"zip":"02188","miles_from_dt":12.74},{"city":"Halifax","state_name":"Massachusetts","lat":41.99138,"lng":-70.86326,"zip":"02338","miles_from_dt":12.81},{"city":"Plymouth","state_name":"Massachusetts","lat":41.95977,"lng":-70.66527,"zip":"02362","miles_from_dt":13.15},{"city":"North Weymouth","state_name":"Massachusetts","lat":42.24434,"lng":-70.94378,"zip":"02191","miles_from_dt":13.2},{"city":"Plympton","state_name":"Massachusetts","lat":41.96345,"lng":-70.80975,"zip":"02367","miles_from_dt":13.3},{"city":"East Bridgewater","state_name":"Massachusetts","lat":42.03521,"lng":-70.94235,"zip":"02333","miles_from_dt":13.56},{"city":"Holbrook","state_name":"Massachusetts","lat":42.14733,"lng":-71.00484,"zip":"02343","miles_from_dt":14.43},{"city":"Brockton","state_name":"Massachusetts","lat":42.08792,"lng":-70.99864,"zip":"02302","miles_from_dt":14.66},{"city":"Braintree","state_name":"Massachusetts","lat":42.20386,"lng":-71.0022,"zip":"02184","miles_from_dt":14.85},{"city":"Braintree","state_name":"Massachusetts","lat":42.20118,"lng":-71.00511,"zip":"02185","miles_from_dt":14.95},{"city":"Elmwood","state_name":"Massachusetts","lat":42.01183,"lng":-70.96402,"zip":"02337","miles_from_dt":15.4},{"city":"Brockton","state_name":"Massachusetts","lat":42.08476,"lng":-71.01516,"zip":"02303","miles_from_dt":15.54},{"city":"Plymouth","state_name":"Massachusetts","lat":41.92334,"lng":-70.65562,"zip":"02361","miles_from_dt":15.71},{"city":"Brockton","state_name":"Massachusetts","lat":42.08318,"lng":-71.02462,"zip":"02305","miles_from_dt":16.04},{"city":"Quincy","state_name":"Massachusetts","lat":42.25139,"lng":-71.00394,"zip":"02269","miles_from_dt":16.13},{"city":"Brockton","state_name":"Massachusetts","lat":42.08167,"lng":-71.02597,"zip":"02304","miles_from_dt":16.13},{"city":"North Carver","state_name":"Massachusetts","lat":41.91775,"lng":-70.79731,"zip":"02355","miles_from_dt":16.15},{"city":"Bridgewater","state_name":"Massachusetts","lat":41.98875,"lng":-70.96449,"zip":"02325","miles_from_dt":16.42},{"city":"Quincy","state_name":"Massachusetts","lat":42.23971,"lng":-71.01802,"zip":"02169","miles_from_dt":16.45},{"city":"Avon","state_name":"Massachusetts","lat":42.12666,"lng":-71.04922,"zip":"02322","miles_from_dt":16.76},{"city":"Randolph","state_name":"Massachusetts","lat":42.17506,"lng":-71.05011,"zip":"02368","miles_from_dt":16.88},{"city":"Brockton","state_name":"Massachusetts","lat":42.07791,"lng":-71.04223,"zip":"02301","miles_from_dt":17.01},{"city":"White Horse Beach","state_name":"Massachusetts","lat":41.93003,"lng":-70.559,"zip":"02381","miles_from_dt":17.1},{"city":"Quincy","state_name":"Massachusetts","lat":42.26644,"lng":-71.01621,"zip":"02170","miles_from_dt":17.18},{"city":"Bridgewater","state_name":"Massachusetts","lat":41.97272,"lng":-70.97498,"zip":"02324","miles_from_dt":17.56},{"city":"West Bridgewater","state_name":"Massachusetts","lat":42.02139,"lng":-71.0267,"zip":"02379","miles_from_dt":17.76},{"city":"Quincy","state_name":"Massachusetts","lat":42.28709,"lng":-71.02604,"zip":"02171","miles_from_dt":18.34},{"city":"Carver","state_name":"Massachusetts","lat":41.87388,"lng":-70.7563,"zip":"02330","miles_from_dt":18.8},{"city":"Manomet","state_name":"Massachusetts","lat":41.90338,"lng":-70.55279,"zip":"02345","miles_from_dt":18.87},{"city":"Plymouth","state_name":"Massachusetts","lat":41.87817,"lng":-70.63089,"zip":"02360","miles_from_dt":19.04},{"city":"North Easton","state_name":"Massachusetts","lat":42.06224,"lng":-71.07751,"zip":"02357","miles_from_dt":19.06},{"city":"Stoughton","state_name":"Massachusetts","lat":42.1192,"lng":-71.10189,"zip":"02072","miles_from_dt":19.5},{"city":"Milton","state_name":"Massachusetts","lat":42.23854,"lng":-71.08464,"zip":"02186","miles_from_dt":19.61},{"city":"Dorchester","state_name":"Massachusetts","lat":42.29427,"lng":-71.05185,"zip":"02122","miles_from_dt":19.72},{"city":"Middleboro","state_name":"Massachusetts","lat":41.88034,"lng":-70.87446,"zip":"02346","miles_from_dt":19.85},{"city":"Milton Village","state_name":"Massachusetts","lat":42.26069,"lng":-71.07867,"zip":"02187","miles_from_dt":19.88},{"city":"Middleboro","state_name":"Massachusetts","lat":41.89422,"lng":-70.92082,"zip":"02344","miles_from_dt":20.07},{"city":"Dorchester Center","state_name":"Massachusetts","lat":42.28583,"lng":-71.07114,"zip":"02124","miles_from_dt":20.29},{"city":"Dorchester","state_name":"Massachusetts","lat":42.31578,"lng":-71.0562,"zip":"02125","miles_from_dt":20.72},{"city":"South Carver","state_name":"Massachusetts","lat":41.84868,"lng":-70.6613,"zip":"02366","miles_from_dt":20.72},{"city":"Winthrop","state_name":"Massachusetts","lat":42.37724,"lng":-70.98115,"zip":"02152","miles_from_dt":20.75},{"city":"South Boston","state_name":"Massachusetts","lat":42.33455,"lng":-71.03875,"zip":"02127","miles_from_dt":20.78},{"city":"Canton","state_name":"Massachusetts","lat":42.17504,"lng":-71.12645,"zip":"02021","miles_from_dt":20.78},{"city":"Mattapan","state_name":"Massachusetts","lat":42.27588,"lng":-71.0918,"zip":"02126","miles_from_dt":20.92},{"city":"Middleboro","state_name":"Massachusetts","lat":41.87098,"lng":-70.90838,"zip":"02349","miles_from_dt":21.17},{"city":"North Easton","state_name":"Massachusetts","lat":42.05519,"lng":-71.12071,"zip":"02356","miles_from_dt":21.32},{"city":"Boston","state_name":"Massachusetts","lat":42.34445,"lng":-71.04217,"zip":"02206","miles_from_dt":21.34},{"city":"South Easton","state_name":"Massachusetts","lat":42.01954,"lng":-71.10381,"zip":"02375","miles_from_dt":21.37},{"city":"Boston","state_name":"Massachusetts","lat":42.34815,"lng":-71.03942,"zip":"02210","miles_from_dt":21.4},{"city":"Dorchester","state_name":"Massachusetts","lat":42.3057,"lng":-71.08693,"zip":"02121","miles_from_dt":21.67},{"city":"East Boston","state_name":"Massachusetts","lat":42.37324,"lng":-71.01616,"zip":"02128","miles_from_dt":21.73},{"city":"Lakeville","state_name":"Massachusetts","lat":41.87731,"lng":-70.94643,"zip":"02348","miles_from_dt":21.75},{"city":"Readville","state_name":"Massachusetts","lat":42.23508,"lng":-71.13447,"zip":"02137","miles_from_dt":21.97},{"city":"Hyde Park","state_name":"Massachusetts","lat":42.25505,"lng":-71.12662,"zip":"02136","miles_from_dt":22.02},{"city":"Raynham","state_name":"Massachusetts","lat":41.93939,"lng":-71.05191,"zip":"02767","miles_from_dt":22.06},{"city":"Boston","state_name":"Massachusetts","lat":42.34935,"lng":-71.05564,"zip":"02205","miles_from_dt":22.09},{"city":"Boston","state_name":"Massachusetts","lat":42.34875,"lng":-71.05672,"zip":"02283","miles_from_dt":22.11},{"city":"Raynham Center","state_name":"Massachusetts","lat":41.92912,"lng":-71.0417,"zip":"02768","miles_from_dt":22.13},{"city":"Nahant","state_name":"Massachusetts","lat":42.42856,"lng":-70.92614,"zip":"01908","miles_from_dt":22.14},{"city":"Boston","state_name":"Massachusetts","lat":42.33806,"lng":-71.07057,"zip":"02118","miles_from_dt":22.21},{"city":"Boston","state_name":"Massachusetts","lat":42.35114,"lng":-71.05706,"zip":"02284","miles_from_dt":22.23},{"city":"Roxbury","state_name":"Massachusetts","lat":42.32405,"lng":-71.08522,"zip":"02119","miles_from_dt":22.27},{"city":"Boston","state_name":"Massachusetts","lat":42.35797,"lng":-71.05189,"zip":"02110","miles_from_dt":22.33},{"city":"Boston","state_name":"Massachusetts","lat":42.35067,"lng":-71.06054,"zip":"02111","miles_from_dt":22.34},{"city":"Boston","state_name":"Massachusetts","lat":42.35572,"lng":-71.05577,"zip":"02212","miles_from_dt":22.38},{"city":"Boston","state_name":"Massachusetts","lat":42.3513,"lng":-71.06086,"zip":"02196","miles_from_dt":22.38},{"city":"Boston","state_name":"Massachusetts","lat":42.35486,"lng":-71.05727,"zip":"02241","miles_from_dt":22.4},{"city":"Easton","state_name":"Massachusetts","lat":42.02385,"lng":-71.12922,"zip":"02334","miles_from_dt":22.46},{"city":"Boston","state_name":"Massachusetts","lat":42.34217,"lng":-71.0733,"zip":"02117","miles_from_dt":22.49},{"city":"Boston","state_name":"Massachusetts","lat":42.35807,"lng":-71.05671,"zip":"02211","miles_from_dt":22.52},{"city":"Boston","state_name":"Massachusetts","lat":42.35768,"lng":-71.05763,"zip":"02112","miles_from_dt":22.54},{"city":"Boston","state_name":"Massachusetts","lat":42.35863,"lng":-71.0567,"zip":"02297","miles_from_dt":22.55},{"city":"Boston","state_name":"Massachusetts","lat":42.36498,"lng":-71.05277,"zip":"02109","miles_from_dt":22.68},{"city":"Roslindale","state_name":"Massachusetts","lat":42.28392,"lng":-71.12468,"zip":"02131","miles_from_dt":22.68},{"city":"Boston","state_name":"Massachusetts","lat":42.35936,"lng":-71.05953,"zip":"02201","miles_from_dt":22.69},{"city":"Boston","state_name":"Massachusetts","lat":42.3582,"lng":-71.06109,"zip":"02293","miles_from_dt":22.7},{"city":"Boston","state_name":"Massachusetts","lat":42.34853,"lng":-71.07299,"zip":"02217","miles_from_dt":22.75},{"city":"Boston","state_name":"Massachusetts","lat":42.35657,"lng":-71.06516,"zip":"02108","miles_from_dt":22.78},{"city":"Boston","state_name":"Massachusetts","lat":42.36144,"lng":-71.05945,"zip":"02203","miles_from_dt":22.78},{"city":"Boston","state_name":"Massachusetts","lat":42.36526,"lng":-71.05524,"zip":"02113","miles_from_dt":22.79},{"city":"Boston","state_name":"Massachusetts","lat":42.35838,"lng":-71.06383,"zip":"02133","miles_from_dt":22.81},{"city":"Boston","state_name":"Massachusetts","lat":42.34,"lng":-71.08502,"zip":"02298","miles_from_dt":22.89},{"city":"Boston","state_name":"Massachusetts","lat":42.35105,"lng":-71.07638,"zip":"02116","miles_from_dt":22.99},{"city":"Jamaica Plain","state_name":"Massachusetts","lat":42.30823,"lng":-71.11515,"zip":"02130","miles_from_dt":23.01},{"city":"Roxbury Crossing","state_name":"Massachusetts","lat":42.33212,"lng":-71.09654,"zip":"02120","miles_from_dt":23.06},{"city":"Boston","state_name":"Massachusetts","lat":42.34394,"lng":-71.08527,"zip":"02123","miles_from_dt":23.06},{"city":"Boston","state_name":"Massachusetts","lat":42.34748,"lng":-71.08199,"zip":"02199","miles_from_dt":23.07},{"city":"Boston","state_name":"Massachusetts","lat":42.36237,"lng":-71.06619,"zip":"02222","miles_from_dt":23.08},{"city":"Boston","state_name":"Massachusetts","lat":42.36337,"lng":-71.06686,"zip":"02114","miles_from_dt":23.15},{"city":"Boston","state_name":"Massachusetts","lat":42.34046,"lng":-71.09481,"zip":"02115","miles_from_dt":23.31},{"city":"Chelsea","state_name":"Massachusetts","lat":42.39587,"lng":-71.03251,"zip":"02150","miles_from_dt":23.45},{"city":"Sharon","state_name":"Massachusetts","lat":42.10778,"lng":-71.18183,"zip":"02067","miles_from_dt":23.67},{"city":"Charlestown","state_name":"Massachusetts","lat":42.37975,"lng":-71.06167,"zip":"02129","miles_from_dt":23.71},{"city":"Cambridge","state_name":"Massachusetts","lat":42.36295,"lng":-71.08189,"zip":"02142","miles_from_dt":23.73},{"city":"Revere","state_name":"Massachusetts","lat":42.41887,"lng":-71.004,"zip":"02151","miles_from_dt":23.73},{"city":"Boston","state_name":"Massachusetts","lat":42.34741,"lng":-71.10276,"zip":"02215","miles_from_dt":23.92},{"city":"Boston","state_name":"Massachusetts","lat":42.39503,"lng":-71.05027,"zip":"02204","miles_from_dt":24.03},{"city":"Brookline Village","state_name":"Massachusetts","lat":42.33355,"lng":-71.11875,"zip":"02447","miles_from_dt":24.07},{"city":"Cambridge","state_name":"Massachusetts","lat":42.37041,"lng":-71.08218,"zip":"02141","miles_from_dt":24.07},{"city":"East Taunton","state_name":"Massachusetts","lat":41.86902,"lng":-71.01128,"zip":"02718","miles_from_dt":24.13},{"city":"West Roxbury","state_name":"Massachusetts","lat":42.27931,"lng":-71.16072,"zip":"02132","miles_from_dt":24.25},{"city":"Dedham","state_name":"Massachusetts","lat":42.24665,"lng":-71.1777,"zip":"02026","miles_from_dt":24.32},{"city":"Norwood","state_name":"Massachusetts","lat":42.18563,"lng":-71.19464,"zip":"02062","miles_from_dt":24.33},{"city":"Brookline","state_name":"Massachusetts","lat":42.32581,"lng":-71.13319,"zip":"02445","miles_from_dt":24.42},{"city":"Dedham","state_name":"Massachusetts","lat":42.24664,"lng":-71.17992,"zip":"02027","miles_from_dt":24.43},{"city":"Cambridge","state_name":"Massachusetts","lat":42.36224,"lng":-71.10253,"zip":"02139","miles_from_dt":24.52},{"city":"Brookline","state_name":"Massachusetts","lat":42.3435,"lng":-71.12179,"zip":"02446","miles_from_dt":24.57},{"city":"Lynn","state_name":"Massachusetts","lat":42.46125,"lng":-70.94639,"zip":"01901","miles_from_dt":24.61},{"city":"Swampscott","state_name":"Massachusetts","lat":42.47572,"lng":-70.90684,"zip":"01907","miles_from_dt":24.66},{"city":"Everett","state_name":"Massachusetts","lat":42.40643,"lng":-71.05446,"zip":"02149","miles_from_dt":24.74},{"city":"North Scituate","state_name":"Massachusetts","lat":42.18687,"lng":-71.20406,"zip":"02060","miles_from_dt":24.82},{"city":"Lakeville","state_name":"Massachusetts","lat":41.83101,"lng":-70.9594,"zip":"02347","miles_from_dt":24.84},{"city":"Lynn","state_name":"Massachusetts","lat":42.46619,"lng":-70.94973,"zip":"01903","miles_from_dt":25},{"city":"Lynn","state_name":"Massachusetts","lat":42.4712,"lng":-70.93983,"zip":"01902","miles_from_dt":25.07},{"city":"Somerville","state_name":"Massachusetts","lat":42.38142,"lng":-71.09677,"zip":"02143","miles_from_dt":25.13},{"city":"East Walpole","state_name":"Massachusetts","lat":42.15489,"lng":-71.2155,"zip":"02032","miles_from_dt":25.26},{"city":"Somerville","state_name":"Massachusetts","lat":42.39206,"lng":-71.0895,"zip":"02145","miles_from_dt":25.33},{"city":"Chestnut Hill","state_name":"Massachusetts","lat":42.31725,"lng":-71.16096,"zip":"02467","miles_from_dt":25.37},{"city":"West Wareham","state_name":"Massachusetts","lat":41.77807,"lng":-70.76338,"zip":"02576","miles_from_dt":25.42},{"city":"Lynn","state_name":"Massachusetts","lat":42.46355,"lng":-70.9733,"zip":"01905","miles_from_dt":25.42},{"city":"Marblehead","state_name":"Massachusetts","lat":42.49924,"lng":-70.86348,"zip":"01945","miles_from_dt":25.46},{"city":"Allston","state_name":"Massachusetts","lat":42.35855,"lng":-71.12931,"zip":"02134","miles_from_dt":25.48},{"city":"Westwood","state_name":"Massachusetts","lat":42.22024,"lng":-71.21057,"zip":"02090","miles_from_dt":25.51},{"city":"East Wareham","state_name":"Massachusetts","lat":41.77872,"lng":-70.65077,"zip":"02538","miles_from_dt":25.57},{"city":"Cambridge","state_name":"Massachusetts","lat":42.37407,"lng":-71.11714,"zip":"02238","miles_from_dt":25.61},{"city":"Boston","state_name":"Massachusetts","lat":42.36717,"lng":-71.12509,"zip":"02163","miles_from_dt":25.65},{"city":"Lynn","state_name":"Massachusetts","lat":42.47333,"lng":-70.96131,"zip":"01910","miles_from_dt":25.71},{"city":"Malden","state_name":"Massachusetts","lat":42.43048,"lng":-71.05762,"zip":"02148","miles_from_dt":26.08},{"city":"Taunton","state_name":"Massachusetts","lat":41.90743,"lng":-71.11939,"zip":"02780","miles_from_dt":26.14},{"city":"Brighton","state_name":"Massachusetts","lat":42.34989,"lng":-71.15417,"zip":"02135","miles_from_dt":26.2},{"city":"Wareham","state_name":"Massachusetts","lat":41.76184,"lng":-70.70138,"zip":"02571","miles_from_dt":26.48},{"city":"Cambridge","state_name":"Massachusetts","lat":42.37997,"lng":-71.13446,"zip":"02138","miles_from_dt":26.56},{"city":"Sagamore Beach","state_name":"Massachusetts","lat":41.78753,"lng":-70.52746,"zip":"02562","miles_from_dt":26.68},{"city":"Newton Center","state_name":"Massachusetts","lat":42.31515,"lng":-71.19174,"zip":"02459","miles_from_dt":26.71},{"city":"Norton","state_name":"Massachusetts","lat":41.96402,"lng":-71.18418,"zip":"02766","miles_from_dt":26.78},{"city":"Saugus","state_name":"Massachusetts","lat":42.46922,"lng":-71.01299,"zip":"01906","miles_from_dt":26.83},{"city":"Mansfield","state_name":"Massachusetts","lat":42.01626,"lng":-71.21868,"zip":"02048","miles_from_dt":26.95},{"city":"Somerville","state_name":"Massachusetts","lat":42.40088,"lng":-71.122,"zip":"02144","miles_from_dt":26.98},{"city":"Salem","state_name":"Massachusetts","lat":42.51298,"lng":-70.90266,"zip":"01970","miles_from_dt":26.99},{"city":"Lynn","state_name":"Massachusetts","lat":42.49151,"lng":-70.97166,"zip":"01904","miles_from_dt":27.06},{"city":"Cambridge","state_name":"Massachusetts","lat":42.39332,"lng":-71.13342,"zip":"02140","miles_from_dt":27.09},{"city":"Watertown","state_name":"Massachusetts","lat":42.3772,"lng":-71.15371,"zip":"02477","miles_from_dt":27.24},{"city":"Rochester","state_name":"Massachusetts","lat":41.75875,"lng":-70.84048,"zip":"02770","miles_from_dt":27.34},{"city":"Medford","state_name":"Massachusetts","lat":42.41902,"lng":-71.10986,"zip":"02153","miles_from_dt":27.36},{"city":"Salem","state_name":"Massachusetts","lat":42.52757,"lng":-70.86839,"zip":"01971","miles_from_dt":27.41},{"city":"Foxboro","state_name":"Massachusetts","lat":42.06266,"lng":-71.24613,"zip":"02035","miles_from_dt":27.44},{"city":"Melrose","state_name":"Massachusetts","lat":42.45561,"lng":-71.05901,"zip":"02176","miles_from_dt":27.46},{"city":"Walpole","state_name":"Massachusetts","lat":42.14689,"lng":-71.25916,"zip":"02081","miles_from_dt":27.49},{"city":"Medford","state_name":"Massachusetts","lat":42.42324,"lng":-71.10878,"zip":"02155","miles_from_dt":27.52},{"city":"Newton Highlands","state_name":"Massachusetts","lat":42.31693,"lng":-71.20875,"zip":"02461","miles_from_dt":27.55},{"city":"Provincetown","state_name":"Massachusetts","lat":42.06139,"lng":-70.19813,"zip":"02657","miles_from_dt":27.63},{"city":"Newton","state_name":"Massachusetts","lat":42.35294,"lng":-71.18763,"zip":"02458","miles_from_dt":27.77},{"city":"Sagamore","state_name":"Massachusetts","lat":41.76782,"lng":-70.53281,"zip":"02561","miles_from_dt":27.84},{"city":"New Town","state_name":"Massachusetts","lat":42.33357,"lng":-71.20411,"zip":"02456","miles_from_dt":27.85},{"city":"Watertown","state_name":"Massachusetts","lat":42.36984,"lng":-71.17499,"zip":"02471","miles_from_dt":27.85},{"city":"Onset","state_name":"Massachusetts","lat":41.74453,"lng":-70.65377,"zip":"02558","miles_from_dt":27.89},{"city":"Watertown","state_name":"Massachusetts","lat":42.37,"lng":-71.17713,"zip":"02472","miles_from_dt":27.94},{"city":"Newton Upper Falls","state_name":"Massachusetts","lat":42.31274,"lng":-71.21981,"zip":"02464","miles_from_dt":27.94},{"city":"Nonantum","state_name":"Massachusetts","lat":42.33205,"lng":-71.20748,"zip":"02495","miles_from_dt":27.96},{"city":"Buzzards Bay","state_name":"Massachusetts","lat":41.75111,"lng":-70.59713,"zip":"02532","miles_from_dt":27.97},{"city":"Berkley","state_name":"Massachusetts","lat":41.83492,"lng":-71.07543,"zip":"02779","miles_from_dt":28.04},{"city":"Needham Heights","state_name":"Massachusetts","lat":42.29959,"lng":-71.2317,"zip":"02494","miles_from_dt":28.15},{"city":"Needham","state_name":"Massachusetts","lat":42.27615,"lng":-71.24387,"zip":"02492","miles_from_dt":28.17},{"city":"South Walpole","state_name":"Massachusetts","lat":42.10392,"lng":-71.27002,"zip":"02071","miles_from_dt":28.21},{"city":"West Medford","state_name":"Massachusetts","lat":42.42433,"lng":-71.13227,"zip":"02156","miles_from_dt":28.45},{"city":"Newtonville","state_name":"Massachusetts","lat":42.35206,"lng":-71.20835,"zip":"02460","miles_from_dt":28.65},{"city":"Waban","state_name":"Massachusetts","lat":42.32777,"lng":-71.23142,"zip":"02468","miles_from_dt":28.92},{"city":"Belmont","state_name":"Massachusetts","lat":42.39602,"lng":-71.17955,"zip":"02478","miles_from_dt":29.07},{"city":"Waverley","state_name":"Massachusetts","lat":42.38898,"lng":-71.18776,"zip":"02479","miles_from_dt":29.13},{"city":"Arlington","state_name":"Massachusetts","lat":42.42053,"lng":-71.15666,"zip":"02474","miles_from_dt":29.21},{"city":"Chartley","state_name":"Massachusetts","lat":41.96733,"lng":-71.24163,"zip":"02712","miles_from_dt":29.32},{"city":"Prides Crossing","state_name":"Massachusetts","lat":42.56294,"lng":-70.82996,"zip":"01965","miles_from_dt":29.34},{"city":"West Newton","state_name":"Massachusetts","lat":42.34969,"lng":-71.22646,"zip":"02465","miles_from_dt":29.38},{"city":"Dover","state_name":"Massachusetts","lat":42.2366,"lng":-71.28421,"zip":"02030","miles_from_dt":29.44},{"city":"Peabody","state_name":"Massachusetts","lat":42.53456,"lng":-70.96824,"zip":"01961","miles_from_dt":29.65},{"city":"Stoneham","state_name":"Massachusetts","lat":42.47396,"lng":-71.09705,"zip":"02180","miles_from_dt":29.67},{"city":"Peabody","state_name":"Massachusetts","lat":42.53374,"lng":-70.97222,"zip":"01960","miles_from_dt":29.68},{"city":"Arlington","state_name":"Massachusetts","lat":42.41597,"lng":-71.17437,"zip":"02476","miles_from_dt":29.71},{"city":"Babson Park","state_name":"Massachusetts","lat":42.29777,"lng":-71.26887,"zip":"02457","miles_from_dt":29.88},{"city":"Medfield","state_name":"Massachusetts","lat":42.1848,"lng":-71.30501,"zip":"02052","miles_from_dt":29.96}],"targetCityZipCode":"02051","targetCityState":"Massachusetts"},"__N_SSG":true}