{"pageProps":{"stateName":"Massachusetts","cityName":"nantucket","nearbyCities":[{"city":"Nantucket","state_name":"Massachusetts","lat":41.25753,"lng":-70.00522,"zip":"02584","miles_from_dt":4.37},{"city":"Siasconset","state_name":"Massachusetts","lat":41.26552,"lng":-69.98608,"zip":"02564","miles_from_dt":5.1},{"city":"Edgartown","state_name":"Massachusetts","lat":41.37994,"lng":-70.53227,"zip":"02539","miles_from_dt":24.39},{"city":"West Dennis","state_name":"Massachusetts","lat":41.66,"lng":-70.17098,"zip":"02670","miles_from_dt":26.27},{"city":"Dennis Port","state_name":"Massachusetts","lat":41.66639,"lng":-70.13535,"zip":"02639","miles_from_dt":26.44},{"city":"West Harwich","state_name":"Massachusetts","lat":41.66938,"lng":-70.11087,"zip":"02671","miles_from_dt":26.54},{"city":"Harwich Port","state_name":"Massachusetts","lat":41.67103,"lng":-70.07144,"zip":"02646","miles_from_dt":26.61},{"city":"Hyannis Port","state_name":"Massachusetts","lat":41.63127,"lng":-70.30909,"zip":"02647","miles_from_dt":26.65},{"city":"West Yarmouth","state_name":"Massachusetts","lat":41.6557,"lng":-70.24447,"zip":"02673","miles_from_dt":26.93},{"city":"West Hyannisport","state_name":"Massachusetts","lat":41.6357,"lng":-70.31878,"zip":"02672","miles_from_dt":27.15},{"city":"West Chatham","state_name":"Massachusetts","lat":41.67527,"lng":-69.99814,"zip":"02669","miles_from_dt":27.23},{"city":"South Harwich","state_name":"Massachusetts","lat":41.68273,"lng":-70.04376,"zip":"02661","miles_from_dt":27.48},{"city":"Oak Bluffs","state_name":"Massachusetts","lat":41.44218,"lng":-70.56648,"zip":"02557","miles_from_dt":27.48},{"city":"South Yarmouth","state_name":"Massachusetts","lat":41.67486,"lng":-70.19446,"zip":"02664","miles_from_dt":27.51},{"city":"South Chatham","state_name":"Massachusetts","lat":41.68258,"lng":-70.02234,"zip":"02659","miles_from_dt":27.56},{"city":"Hyannis","state_name":"Massachusetts","lat":41.66,"lng":-70.29327,"zip":"02601","miles_from_dt":28.1},{"city":"Chatham","state_name":"Massachusetts","lat":41.68949,"lng":-69.97397,"zip":"02633","miles_from_dt":28.42},{"city":"Osterville","state_name":"Massachusetts","lat":41.62972,"lng":-70.39263,"zip":"02655","miles_from_dt":28.75},{"city":"Harwich","state_name":"Massachusetts","lat":41.70352,"lng":-70.06215,"zip":"02645","miles_from_dt":28.86},{"city":"Centerville","state_name":"Massachusetts","lat":41.65777,"lng":-70.3536,"zip":"02634","miles_from_dt":29.34},{"city":"Centerville","state_name":"Massachusetts","lat":41.66074,"lng":-70.34826,"zip":"02632","miles_from_dt":29.39},{"city":"South Dennis","state_name":"Massachusetts","lat":41.70828,"lng":-70.15517,"zip":"02660","miles_from_dt":29.43},{"city":"North Chatham","state_name":"Massachusetts","lat":41.7036,"lng":-69.96589,"zip":"02650","miles_from_dt":29.46},{"city":"Vineyard Haven","state_name":"Massachusetts","lat":41.44341,"lng":-70.61534,"zip":"02568","miles_from_dt":29.87},{"city":"Cotuit","state_name":"Massachusetts","lat":41.62348,"lng":-70.44051,"zip":"02635","miles_from_dt":29.89},{"city":"Yarmouth Port","state_name":"Massachusetts","lat":41.70401,"lng":-70.22883,"zip":"02675","miles_from_dt":29.89}],"targetCityZipCode":"02554","targetCityState":"Massachusetts"},"__N_SSG":true}