{"pageProps":{"stateName":"Massachusetts","cityName":"palmer","nearbyCities":[{"city":"Thorndike","state_name":"Massachusetts","lat":42.18508,"lng":-72.33406,"zip":"01079","miles_from_dt":1.47},{"city":"Bondsville","state_name":"Massachusetts","lat":42.21133,"lng":-72.34189,"zip":"01009","miles_from_dt":2.46},{"city":"Three Rivers","state_name":"Massachusetts","lat":42.18228,"lng":-72.36515,"zip":"01080","miles_from_dt":3.07},{"city":"West Warren","state_name":"Massachusetts","lat":42.20008,"lng":-72.23715,"zip":"01092","miles_from_dt":3.62},{"city":"Warren","state_name":"Massachusetts","lat":42.20652,"lng":-72.19906,"zip":"01083","miles_from_dt":5.62},{"city":"Brimfield","state_name":"Massachusetts","lat":42.12904,"lng":-72.20597,"zip":"01010","miles_from_dt":6.54},{"city":"Monson","state_name":"Massachusetts","lat":42.09118,"lng":-72.32392,"zip":"01057","miles_from_dt":6.75},{"city":"Wilbraham","state_name":"Massachusetts","lat":42.12763,"lng":-72.42994,"zip":"01095","miles_from_dt":7.62},{"city":"Ware","state_name":"Massachusetts","lat":42.29816,"lng":-72.27676,"zip":"01082","miles_from_dt":7.75},{"city":"Ludlow","state_name":"Massachusetts","lat":42.19211,"lng":-72.45805,"zip":"01056","miles_from_dt":7.82},{"city":"Belchertown","state_name":"Massachusetts","lat":42.28163,"lng":-72.40009,"zip":"01007","miles_from_dt":8.07},{"city":"West Brookfield","state_name":"Massachusetts","lat":42.23762,"lng":-72.16311,"zip":"01585","miles_from_dt":8.08},{"city":"Wales","state_name":"Massachusetts","lat":42.06232,"lng":-72.23085,"zip":"01081","miles_from_dt":9.49},{"city":"Hampden","state_name":"Massachusetts","lat":42.0638,"lng":-72.4157,"zip":"01036","miles_from_dt":10.26},{"city":"Brookfield","state_name":"Massachusetts","lat":42.19364,"lng":-72.10441,"zip":"01506","miles_from_dt":10.34},{"city":"Springfield","state_name":"Massachusetts","lat":42.1211,"lng":-72.4877,"zip":"01129","miles_from_dt":10.42},{"city":"Indian Orchard","state_name":"Massachusetts","lat":42.15294,"lng":-72.50883,"zip":"01151","miles_from_dt":10.7},{"city":"Springfield","state_name":"Massachusetts","lat":42.15279,"lng":-72.51126,"zip":"01152","miles_from_dt":10.83},{"city":"Fiskdale","state_name":"Massachusetts","lat":42.11342,"lng":-72.11632,"zip":"01518","miles_from_dt":11.01},{"city":"Gilbertville","state_name":"Massachusetts","lat":42.32782,"lng":-72.19191,"zip":"01031","miles_from_dt":11.28},{"city":"Granby","state_name":"Massachusetts","lat":42.26082,"lng":-72.50361,"zip":"01033","miles_from_dt":11.33},{"city":"Springfield","state_name":"Massachusetts","lat":42.09497,"lng":-72.48806,"zip":"01128","miles_from_dt":11.35},{"city":"Holland","state_name":"Massachusetts","lat":42.06012,"lng":-72.16592,"zip":"01521","miles_from_dt":11.38},{"city":"Springfield","state_name":"Massachusetts","lat":42.12452,"lng":-72.51126,"zip":"01119","miles_from_dt":11.43},{"city":"Chicopee","state_name":"Massachusetts","lat":42.19721,"lng":-72.54249,"zip":"01022","miles_from_dt":12.17},{"city":"New Braintree","state_name":"Massachusetts","lat":42.31929,"lng":-72.12794,"zip":"01531","miles_from_dt":12.86},{"city":"Springfield","state_name":"Massachusetts","lat":42.11605,"lng":-72.53858,"zip":"01102","miles_from_dt":12.95},{"city":"North Brookfield","state_name":"Massachusetts","lat":42.2695,"lng":-72.07794,"zip":"01535","miles_from_dt":12.97},{"city":"Springfield","state_name":"Massachusetts","lat":42.09476,"lng":-72.5253,"zip":"01118","miles_from_dt":12.98},{"city":"Sturbridge","state_name":"Massachusetts","lat":42.1047,"lng":-72.07745,"zip":"01566","miles_from_dt":13.06},{"city":"East Longmeadow","state_name":"Massachusetts","lat":42.05967,"lng":-72.49899,"zip":"01028","miles_from_dt":13.3},{"city":"Springfield","state_name":"Massachusetts","lat":42.11632,"lng":-72.54693,"zip":"01139","miles_from_dt":13.34},{"city":"East Brookfield","state_name":"Massachusetts","lat":42.20328,"lng":-72.04669,"zip":"01515","miles_from_dt":13.34},{"city":"Springfield","state_name":"Massachusetts","lat":42.11798,"lng":-72.5479,"zip":"01111","miles_from_dt":13.34},{"city":"Chicopee","state_name":"Massachusetts","lat":42.17618,"lng":-72.56538,"zip":"01020","miles_from_dt":13.35},{"city":"Springfield","state_name":"Massachusetts","lat":42.11839,"lng":-72.54876,"zip":"01109","miles_from_dt":13.37},{"city":"Staffordville","state_name":"Connecticut","lat":41.99494,"lng":-72.26029,"zip":"06077","miles_from_dt":13.53},{"city":"Longmeadow","state_name":"Massachusetts","lat":42.06444,"lng":-72.51306,"zip":"01116","miles_from_dt":13.64},{"city":"Chicopee","state_name":"Massachusetts","lat":42.17481,"lng":-72.57229,"zip":"01014","miles_from_dt":13.71},{"city":"Chicopee","state_name":"Massachusetts","lat":42.17796,"lng":-72.57284,"zip":"01021","miles_from_dt":13.73},{"city":"Hardwick","state_name":"Massachusetts","lat":42.37063,"lng":-72.19466,"zip":"01037","miles_from_dt":13.83},{"city":"Stafford","state_name":"Connecticut","lat":41.98793,"lng":-72.28708,"zip":"06075","miles_from_dt":13.84},{"city":"Stafford Springs","state_name":"Connecticut","lat":41.98906,"lng":-72.26224,"zip":"06076","miles_from_dt":13.91},{"city":"Springfield","state_name":"Massachusetts","lat":42.13326,"lng":-72.56733,"zip":"01104","miles_from_dt":13.95},{"city":"Springfield","state_name":"Massachusetts","lat":42.0886,"lng":-72.56103,"zip":"01138","miles_from_dt":14.8},{"city":"South Hadley","state_name":"Massachusetts","lat":42.25672,"lng":-72.57928,"zip":"01075","miles_from_dt":14.81},{"city":"Springfield","state_name":"Massachusetts","lat":42.0814,"lng":-72.55866,"zip":"01108","miles_from_dt":14.93},{"city":"Wheelwright","state_name":"Massachusetts","lat":42.36481,"lng":-72.13548,"zip":"01094","miles_from_dt":15.01},{"city":"Somers","state_name":"Connecticut","lat":41.99489,"lng":-72.45213,"zip":"06071","miles_from_dt":15.3},{"city":"Springfield","state_name":"Massachusetts","lat":42.09911,"lng":-72.57865,"zip":"01105","miles_from_dt":15.3},{"city":"Amherst","state_name":"Massachusetts","lat":42.37633,"lng":-72.46462,"zip":"01002","miles_from_dt":15.34},{"city":"Chicopee","state_name":"Massachusetts","lat":42.16059,"lng":-72.60788,"zip":"01012","miles_from_dt":15.62},{"city":"Springfield","state_name":"Massachusetts","lat":42.10443,"lng":-72.58997,"zip":"01103","miles_from_dt":15.69},{"city":"Holyoke","state_name":"Massachusetts","lat":42.20746,"lng":-72.61142,"zip":"01041","miles_from_dt":15.74},{"city":"Springfield","state_name":"Massachusetts","lat":42.10403,"lng":-72.59179,"zip":"01115","miles_from_dt":15.79},{"city":"Springfield","state_name":"Massachusetts","lat":42.09992,"lng":-72.58958,"zip":"01101","miles_from_dt":15.79},{"city":"Springfield","state_name":"Massachusetts","lat":42.10189,"lng":-72.59091,"zip":"01144","miles_from_dt":15.8},{"city":"Springfield","state_name":"Massachusetts","lat":42.11915,"lng":-72.60341,"zip":"01199","miles_from_dt":16.01},{"city":"Springfield","state_name":"Massachusetts","lat":42.12116,"lng":-72.60642,"zip":"01107","miles_from_dt":16.11},{"city":"Charlton City","state_name":"Massachusetts","lat":42.15139,"lng":-71.9896,"zip":"01508","miles_from_dt":16.43},{"city":"Southbridge","state_name":"Massachusetts","lat":42.06039,"lng":-72.03377,"zip":"01550","miles_from_dt":16.52},{"city":"Spencer","state_name":"Massachusetts","lat":42.24715,"lng":-71.99189,"zip":"01562","miles_from_dt":16.61},{"city":"Longmeadow","state_name":"Massachusetts","lat":42.04877,"lng":-72.57163,"zip":"01106","miles_from_dt":16.7},{"city":"Somersville","state_name":"Connecticut","lat":41.98465,"lng":-72.4876,"zip":"06072","miles_from_dt":16.86},{"city":"Charlton Depot","state_name":"Massachusetts","lat":42.173,"lng":-71.97562,"zip":"01509","miles_from_dt":16.98},{"city":"Amherst","state_name":"Massachusetts","lat":42.37633,"lng":-72.52327,"zip":"01003","miles_from_dt":17.12},{"city":"South Barre","state_name":"Massachusetts","lat":42.3837,"lng":-72.10021,"zip":"01074","miles_from_dt":17.13},{"city":"Amherst","state_name":"Massachusetts","lat":42.38394,"lng":-72.51183,"zip":"01004","miles_from_dt":17.16},{"city":"Holyoke","state_name":"Massachusetts","lat":42.21251,"lng":-72.64109,"zip":"01040","miles_from_dt":17.29},{"city":"Oakham","state_name":"Massachusetts","lat":42.35125,"lng":-72.04776,"zip":"01068","miles_from_dt":17.38},{"city":"Charlton","state_name":"Massachusetts","lat":42.13509,"lng":-71.96803,"zip":"01507","miles_from_dt":17.72},{"city":"Hadley","state_name":"Massachusetts","lat":42.35563,"lng":-72.5692,"zip":"01035","miles_from_dt":17.78},{"city":"New Salem","state_name":"Massachusetts","lat":42.45101,"lng":-72.33141,"zip":"01355","miles_from_dt":18.2},{"city":"West Springfield","state_name":"Massachusetts","lat":42.12532,"lng":-72.65025,"zip":"01089","miles_from_dt":18.21},{"city":"West Springfield","state_name":"Massachusetts","lat":42.12128,"lng":-72.65486,"zip":"01090","miles_from_dt":18.51},{"city":"Agawam","state_name":"Massachusetts","lat":42.06262,"lng":-72.62521,"zip":"01001","miles_from_dt":18.55},{"city":"Enfield","state_name":"Connecticut","lat":41.98393,"lng":-72.55475,"zip":"06082","miles_from_dt":19.03},{"city":"Barre","state_name":"Massachusetts","lat":42.42117,"lng":-72.10655,"zip":"01005","miles_from_dt":19.06},{"city":"Northampton","state_name":"Massachusetts","lat":42.32218,"lng":-72.63126,"zip":"01060","miles_from_dt":19.09},{"city":"Enfield","state_name":"Connecticut","lat":41.99818,"lng":-72.57639,"zip":"06083","miles_from_dt":19.11},{"city":"North Amherst","state_name":"Massachusetts","lat":42.41329,"lng":-72.53051,"zip":"01059","miles_from_dt":19.35},{"city":"Northampton","state_name":"Massachusetts","lat":42.31962,"lng":-72.63951,"zip":"01063","miles_from_dt":19.37},{"city":"Shutesbury","state_name":"Massachusetts","lat":42.46327,"lng":-72.41893,"zip":"01072","miles_from_dt":19.87},{"city":"Leicester","state_name":"Massachusetts","lat":42.24919,"lng":-71.91989,"zip":"01524","miles_from_dt":20.24},{"city":"Rochdale","state_name":"Massachusetts","lat":42.20241,"lng":-71.90995,"zip":"01542","miles_from_dt":20.34},{"city":"Ellington","state_name":"Connecticut","lat":41.91439,"lng":-72.4535,"zip":"06029","miles_from_dt":20.35},{"city":"Woodstock Valley","state_name":"Connecticut","lat":41.94556,"lng":-72.07928,"zip":"06282","miles_from_dt":20.39},{"city":"Hatfield","state_name":"Massachusetts","lat":42.38466,"lng":-72.60559,"zip":"01038","miles_from_dt":20.5},{"city":"Willington","state_name":"Connecticut","lat":41.88959,"lng":-72.25933,"zip":"06279","miles_from_dt":20.73},{"city":"Feeding Hills","state_name":"Massachusetts","lat":42.06869,"lng":-72.67967,"zip":"01030","miles_from_dt":20.9},{"city":"Paxton","state_name":"Massachusetts","lat":42.31037,"lng":-71.93095,"zip":"01612","miles_from_dt":21},{"city":"Woodstock","state_name":"Connecticut","lat":41.97253,"lng":-72.01458,"zip":"06281","miles_from_dt":21.1},{"city":"Dudley","state_name":"Massachusetts","lat":42.05501,"lng":-71.93519,"zip":"01571","miles_from_dt":21.14},{"city":"North Oxford","state_name":"Massachusetts","lat":42.16177,"lng":-71.89217,"zip":"01537","miles_from_dt":21.31},{"city":"Tolland","state_name":"Connecticut","lat":41.87917,"lng":-72.36443,"zip":"06084","miles_from_dt":21.53},{"city":"Ashford","state_name":"Connecticut","lat":41.89126,"lng":-72.17003,"zip":"06278","miles_from_dt":21.64},{"city":"Petersham","state_name":"Massachusetts","lat":42.48858,"lng":-72.18564,"zip":"01366","miles_from_dt":21.64},{"city":"Quinebaug","state_name":"Connecticut","lat":42.01871,"lng":-71.94959,"zip":"06262","miles_from_dt":21.72},{"city":"Leverett","state_name":"Massachusetts","lat":42.47381,"lng":-72.48768,"zip":"01054","miles_from_dt":21.82},{"city":"Northampton","state_name":"Massachusetts","lat":42.32334,"lng":-72.69035,"zip":"01061","miles_from_dt":21.82},{"city":"Florence","state_name":"Massachusetts","lat":42.32146,"lng":-72.69244,"zip":"01062","miles_from_dt":21.86},{"city":"East Woodstock","state_name":"Connecticut","lat":41.98632,"lng":-71.97448,"zip":"06244","miles_from_dt":22},{"city":"Rutland","state_name":"Massachusetts","lat":42.38482,"lng":-71.96726,"zip":"01543","miles_from_dt":22.04},{"city":"Cherry Valley","state_name":"Massachusetts","lat":42.23945,"lng":-71.87702,"zip":"01611","miles_from_dt":22.28},{"city":"West Hatfield","state_name":"Massachusetts","lat":42.38981,"lng":-72.6465,"zip":"01088","miles_from_dt":22.34},{"city":"Suffield","state_name":"Connecticut","lat":41.98903,"lng":-72.64875,"zip":"06078","miles_from_dt":22.35},{"city":"Southampton","state_name":"Massachusetts","lat":42.23084,"lng":-72.73856,"zip":"01073","miles_from_dt":22.4},{"city":"Fabyan","state_name":"Connecticut","lat":42.01424,"lng":-71.93716,"zip":"06245","miles_from_dt":22.42},{"city":"North Hatfield","state_name":"Massachusetts","lat":42.40742,"lng":-72.64032,"zip":"01066","miles_from_dt":22.87},{"city":"Sunderland","state_name":"Massachusetts","lat":42.46475,"lng":-72.55489,"zip":"01375","miles_from_dt":22.97},{"city":"Eastford","state_name":"Connecticut","lat":41.89326,"lng":-72.09706,"zip":"06242","miles_from_dt":23},{"city":"South Willington","state_name":"Connecticut","lat":41.85452,"lng":-72.30189,"zip":"06265","miles_from_dt":23.02},{"city":"Broad Brook","state_name":"Connecticut","lat":41.90417,"lng":-72.54438,"zip":"06016","miles_from_dt":23.12},{"city":"Westfield","state_name":"Massachusetts","lat":42.14018,"lng":-72.75607,"zip":"01086","miles_from_dt":23.36},{"city":"Oxford","state_name":"Massachusetts","lat":42.11649,"lng":-71.85819,"zip":"01540","miles_from_dt":23.51},{"city":"Suffield","state_name":"Connecticut","lat":41.95044,"lng":-72.63519,"zip":"06080","miles_from_dt":23.57},{"city":"Easthampton","state_name":"Massachusetts","lat":42.29506,"lng":-72.74303,"zip":"01027","miles_from_dt":23.61},{"city":"Auburn","state_name":"Massachusetts","lat":42.19689,"lng":-71.84549,"zip":"01501","miles_from_dt":23.63},{"city":"Leeds","state_name":"Massachusetts","lat":42.35205,"lng":-72.71032,"zip":"01053","miles_from_dt":23.63},{"city":"Westfield","state_name":"Massachusetts","lat":42.15375,"lng":-72.76961,"zip":"01085","miles_from_dt":23.93},{"city":"Worcester","state_name":"Massachusetts","lat":42.24373,"lng":-71.84429,"zip":"01603","miles_from_dt":23.99},{"city":"Worcester","state_name":"Massachusetts","lat":42.27219,"lng":-71.84946,"zip":"01602","miles_from_dt":24.12},{"city":"East Windsor","state_name":"Connecticut","lat":41.9058,"lng":-72.59646,"zip":"06088","miles_from_dt":24.55},{"city":"Wendell","state_name":"Massachusetts","lat":42.54149,"lng":-72.3989,"zip":"01379","miles_from_dt":24.86},{"city":"North Grosvenordale","state_name":"Connecticut","lat":41.98791,"lng":-71.90299,"zip":"06255","miles_from_dt":24.89},{"city":"West Suffield","state_name":"Connecticut","lat":42.00265,"lng":-72.72285,"zip":"06093","miles_from_dt":24.96},{"city":"Whately","state_name":"Massachusetts","lat":42.44335,"lng":-72.65099,"zip":"01093","miles_from_dt":24.97},{"city":"Haydenville","state_name":"Massachusetts","lat":42.41049,"lng":-72.69188,"zip":"01039","miles_from_dt":25.04},{"city":"South Woodstock","state_name":"Connecticut","lat":41.9302,"lng":-71.95897,"zip":"06267","miles_from_dt":25.19},{"city":"South Deerfield","state_name":"Massachusetts","lat":42.47292,"lng":-72.61516,"zip":"01373","miles_from_dt":25.26},{"city":"Webster","state_name":"Massachusetts","lat":42.05206,"lng":-71.8485,"zip":"01570","miles_from_dt":25.3},{"city":"Worcester","state_name":"Massachusetts","lat":42.28592,"lng":-71.82853,"zip":"01609","miles_from_dt":25.39},{"city":"Windsor Locks","state_name":"Connecticut","lat":41.92671,"lng":-72.65443,"zip":"06096","miles_from_dt":25.43},{"city":"Hartford","state_name":"Connecticut","lat":41.92683,"lng":-72.65442,"zip":"06199","miles_from_dt":25.43},{"city":"Holden","state_name":"Massachusetts","lat":42.33685,"lng":-71.85181,"zip":"01520","miles_from_dt":25.44},{"city":"Vernon Rockville","state_name":"Connecticut","lat":41.83641,"lng":-72.46063,"zip":"06066","miles_from_dt":25.54},{"city":"Hubbardston","state_name":"Massachusetts","lat":42.48378,"lng":-72.00514,"zip":"01452","miles_from_dt":25.57},{"city":"Mansfield Depot","state_name":"Connecticut","lat":41.81589,"lng":-72.286,"zip":"06251","miles_from_dt":25.7},{"city":"Worcester","state_name":"Massachusetts","lat":42.24645,"lng":-71.80968,"zip":"01610","miles_from_dt":25.77},{"city":"Jefferson","state_name":"Massachusetts","lat":42.38142,"lng":-71.87111,"zip":"01522","miles_from_dt":25.97},{"city":"Southwick","state_name":"Massachusetts","lat":42.05441,"lng":-72.77851,"zip":"01077","miles_from_dt":25.98},{"city":"Grosvenor Dale","state_name":"Connecticut","lat":41.96956,"lng":-71.8943,"zip":"06246","miles_from_dt":25.98},{"city":"Worcester","state_name":"Massachusetts","lat":42.2711,"lng":-71.80974,"zip":"01601","miles_from_dt":26.08},{"city":"Worcester","state_name":"Massachusetts","lat":42.27022,"lng":-71.80933,"zip":"01615","miles_from_dt":26.09},{"city":"Storrs Mansfield","state_name":"Connecticut","lat":41.80998,"lng":-72.25283,"zip":"06269","miles_from_dt":26.23},{"city":"Worcester","state_name":"Massachusetts","lat":42.2621,"lng":-71.80145,"zip":"01608","miles_from_dt":26.37},{"city":"Worcester","state_name":"Massachusetts","lat":42.26092,"lng":-71.79949,"zip":"01614","miles_from_dt":26.46},{"city":"Worcester","state_name":"Massachusetts","lat":42.22684,"lng":-71.79037,"zip":"01607","miles_from_dt":26.58},{"city":"Worcester","state_name":"Massachusetts","lat":42.26574,"lng":-71.79653,"zip":"01613","miles_from_dt":26.67},{"city":"Montague","state_name":"Massachusetts","lat":42.54162,"lng":-72.52069,"zip":"01351","miles_from_dt":26.77},{"city":"Athol","state_name":"Massachusetts","lat":42.56793,"lng":-72.18324,"zip":"01331","miles_from_dt":26.96},{"city":"East Windsor Hill","state_name":"Connecticut","lat":41.86415,"lng":-72.5999,"zip":"06028","miles_from_dt":26.99},{"city":"Woronoco","state_name":"Massachusetts","lat":42.17722,"lng":-72.83175,"zip":"01097","miles_from_dt":27.01},{"city":"Storrs Mansfield","state_name":"Connecticut","lat":41.79852,"lng":-72.24843,"zip":"06268","miles_from_dt":27.04},{"city":"Pomfret Center","state_name":"Connecticut","lat":41.8703,"lng":-71.99248,"zip":"06259","miles_from_dt":27.21},{"city":"Millbury","state_name":"Massachusetts","lat":42.19228,"lng":-71.77397,"zip":"01527","miles_from_dt":27.3},{"city":"Pomfret","state_name":"Connecticut","lat":41.88554,"lng":-71.96353,"zip":"06258","miles_from_dt":27.31},{"city":"Millers Falls","state_name":"Massachusetts","lat":42.56656,"lng":-72.47045,"zip":"01349","miles_from_dt":27.46},{"city":"Poquonock","state_name":"Connecticut","lat":41.90596,"lng":-72.68268,"zip":"06064","miles_from_dt":27.47},{"city":"Worcester","state_name":"Massachusetts","lat":42.28979,"lng":-71.78802,"zip":"01605","miles_from_dt":27.47},{"city":"Worcester","state_name":"Massachusetts","lat":42.31367,"lng":-71.79614,"zip":"01606","miles_from_dt":27.54},{"city":"Lake Pleasant","state_name":"Massachusetts","lat":42.56027,"lng":-72.51321,"zip":"01347","miles_from_dt":27.8},{"city":"Worcester","state_name":"Massachusetts","lat":42.25085,"lng":-71.7683,"zip":"01604","miles_from_dt":27.91},{"city":"Abington","state_name":"Connecticut","lat":41.84652,"lng":-72.01367,"zip":"06230","miles_from_dt":27.95},{"city":"South Windsor","state_name":"Connecticut","lat":41.83528,"lng":-72.57332,"zip":"06074","miles_from_dt":27.97},{"city":"Wendell Depot","state_name":"Massachusetts","lat":42.58675,"lng":-72.40264,"zip":"01380","miles_from_dt":27.97},{"city":"Worcester","state_name":"Massachusetts","lat":42.2927,"lng":-71.77904,"zip":"01653","miles_from_dt":27.97},{"city":"Templeton","state_name":"Massachusetts","lat":42.55324,"lng":-72.06879,"zip":"01468","miles_from_dt":27.98},{"city":"Coventry","state_name":"Connecticut","lat":41.78281,"lng":-72.33941,"zip":"06238","miles_from_dt":28.02},{"city":"East Granby","state_name":"Connecticut","lat":41.94242,"lng":-72.74093,"zip":"06026","miles_from_dt":28.07},{"city":"Thompson","state_name":"Connecticut","lat":41.96895,"lng":-71.83927,"zip":"06277","miles_from_dt":28.35},{"city":"Williamsburg","state_name":"Massachusetts","lat":42.40968,"lng":-72.77213,"zip":"01096","miles_from_dt":28.38},{"city":"Russell","state_name":"Massachusetts","lat":42.16029,"lng":-72.8598,"zip":"01071","miles_from_dt":28.51},{"city":"Princeton","state_name":"Massachusetts","lat":42.45649,"lng":-71.88128,"zip":"01541","miles_from_dt":28.57},{"city":"Worcester","state_name":"Massachusetts","lat":42.27687,"lng":-71.76122,"zip":"01655","miles_from_dt":28.6},{"city":"Sutton","state_name":"Massachusetts","lat":42.13387,"lng":-71.75179,"zip":"01590","miles_from_dt":28.69},{"city":"Orange","state_name":"Massachusetts","lat":42.60449,"lng":-72.29263,"zip":"01364","miles_from_dt":28.76},{"city":"Chaplin","state_name":"Connecticut","lat":41.79292,"lng":-72.1275,"zip":"06235","miles_from_dt":28.77},{"city":"Windsor","state_name":"Connecticut","lat":41.87229,"lng":-72.67348,"zip":"06095","miles_from_dt":28.86},{"city":"Windsor","state_name":"Connecticut","lat":41.85424,"lng":-72.64405,"zip":"06006","miles_from_dt":28.87},{"city":"Deerfield","state_name":"Massachusetts","lat":42.54384,"lng":-72.6058,"zip":"01342","miles_from_dt":28.97},{"city":"Mansfield Center","state_name":"Connecticut","lat":41.77434,"lng":-72.19669,"zip":"06250","miles_from_dt":29.1},{"city":"East Templeton","state_name":"Massachusetts","lat":42.56028,"lng":-72.03583,"zip":"01438","miles_from_dt":29.18},{"city":"Manchester","state_name":"Connecticut","lat":41.79743,"lng":-72.52704,"zip":"06042","miles_from_dt":29.26},{"city":"Putnam","state_name":"Connecticut","lat":41.90898,"lng":-71.87181,"zip":"06260","miles_from_dt":29.48},{"city":"Manchaug","state_name":"Massachusetts","lat":42.08955,"lng":-71.74667,"zip":"01526","miles_from_dt":29.51},{"city":"West Boylston","state_name":"Massachusetts","lat":42.37034,"lng":-71.78502,"zip":"01583","miles_from_dt":29.51},{"city":"Shrewsbury","state_name":"Massachusetts","lat":42.29182,"lng":-71.74599,"zip":"01546","miles_from_dt":29.59},{"city":"Erving","state_name":"Massachusetts","lat":42.60756,"lng":-72.42916,"zip":"01344","miles_from_dt":29.64},{"city":"Bolton","state_name":"Connecticut","lat":41.76647,"lng":-72.43903,"zip":"06043","miles_from_dt":29.89},{"city":"Granby","state_name":"Connecticut","lat":41.9608,"lng":-72.80179,"zip":"06035","miles_from_dt":29.94},{"city":"Conway","state_name":"Massachusetts","lat":42.50734,"lng":-72.70221,"zip":"01341","miles_from_dt":29.96},{"city":"Douglas","state_name":"Massachusetts","lat":42.0528,"lng":-71.75106,"zip":"01516","miles_from_dt":29.99}],"targetCityZipCode":"01069","targetCityState":"Massachusetts"},"__N_SSG":true}