{"pageProps":{"stateName":"Massachusetts","cityName":"roxbury","nearbyCities":[{"city":"Roxbury Crossing","state_name":"Massachusetts","lat":42.33212,"lng":-71.09654,"zip":"02120","miles_from_dt":0.8},{"city":"Boston","state_name":"Massachusetts","lat":42.34,"lng":-71.08502,"zip":"02298","miles_from_dt":1.1},{"city":"Boston","state_name":"Massachusetts","lat":42.33806,"lng":-71.07057,"zip":"02118","miles_from_dt":1.22},{"city":"Boston","state_name":"Massachusetts","lat":42.34046,"lng":-71.09481,"zip":"02115","miles_from_dt":1.23},{"city":"Dorchester","state_name":"Massachusetts","lat":42.3057,"lng":-71.08693,"zip":"02121","miles_from_dt":1.27},{"city":"Boston","state_name":"Massachusetts","lat":42.34394,"lng":-71.08527,"zip":"02123","miles_from_dt":1.37},{"city":"Boston","state_name":"Massachusetts","lat":42.34217,"lng":-71.0733,"zip":"02117","miles_from_dt":1.39},{"city":"Dorchester","state_name":"Massachusetts","lat":42.31578,"lng":-71.0562,"zip":"02125","miles_from_dt":1.59},{"city":"Boston","state_name":"Massachusetts","lat":42.34748,"lng":-71.08199,"zip":"02199","miles_from_dt":1.63},{"city":"Boston","state_name":"Massachusetts","lat":42.34853,"lng":-71.07299,"zip":"02217","miles_from_dt":1.8},{"city":"Brookline Village","state_name":"Massachusetts","lat":42.33355,"lng":-71.11875,"zip":"02447","miles_from_dt":1.84},{"city":"Boston","state_name":"Massachusetts","lat":42.34741,"lng":-71.10276,"zip":"02215","miles_from_dt":1.85},{"city":"Jamaica Plain","state_name":"Massachusetts","lat":42.30823,"lng":-71.11515,"zip":"02130","miles_from_dt":1.88},{"city":"Boston","state_name":"Massachusetts","lat":42.35105,"lng":-71.07638,"zip":"02116","miles_from_dt":1.92},{"city":"Boston","state_name":"Massachusetts","lat":42.35067,"lng":-71.06054,"zip":"02111","miles_from_dt":2.23},{"city":"Boston","state_name":"Massachusetts","lat":42.34875,"lng":-71.05672,"zip":"02283","miles_from_dt":2.24},{"city":"Boston","state_name":"Massachusetts","lat":42.3513,"lng":-71.06086,"zip":"02196","miles_from_dt":2.26},{"city":"Brookline","state_name":"Massachusetts","lat":42.3435,"lng":-71.12179,"zip":"02446","miles_from_dt":2.3},{"city":"Boston","state_name":"Massachusetts","lat":42.34935,"lng":-71.05564,"zip":"02205","miles_from_dt":2.31},{"city":"Boston","state_name":"Massachusetts","lat":42.35114,"lng":-71.05706,"zip":"02284","miles_from_dt":2.36},{"city":"Brookline","state_name":"Massachusetts","lat":42.32581,"lng":-71.13319,"zip":"02445","miles_from_dt":2.46},{"city":"Boston","state_name":"Massachusetts","lat":42.35657,"lng":-71.06516,"zip":"02108","miles_from_dt":2.47},{"city":"South Boston","state_name":"Massachusetts","lat":42.33455,"lng":-71.03875,"zip":"02127","miles_from_dt":2.49},{"city":"Boston","state_name":"Massachusetts","lat":42.35486,"lng":-71.05727,"zip":"02241","miles_from_dt":2.56},{"city":"Boston","state_name":"Massachusetts","lat":42.35838,"lng":-71.06383,"zip":"02133","miles_from_dt":2.61},{"city":"Boston","state_name":"Massachusetts","lat":42.34445,"lng":-71.04217,"zip":"02206","miles_from_dt":2.62},{"city":"Boston","state_name":"Massachusetts","lat":42.35572,"lng":-71.05577,"zip":"02212","miles_from_dt":2.66},{"city":"Boston","state_name":"Massachusetts","lat":42.3582,"lng":-71.06109,"zip":"02293","miles_from_dt":2.66},{"city":"Dorchester","state_name":"Massachusetts","lat":42.29427,"lng":-71.05185,"zip":"02122","miles_from_dt":2.67},{"city":"Cambridge","state_name":"Massachusetts","lat":42.36295,"lng":-71.08189,"zip":"02142","miles_from_dt":2.69},{"city":"Boston","state_name":"Massachusetts","lat":42.35768,"lng":-71.05763,"zip":"02112","miles_from_dt":2.72},{"city":"Dorchester Center","state_name":"Massachusetts","lat":42.28583,"lng":-71.07114,"zip":"02124","miles_from_dt":2.73},{"city":"Boston","state_name":"Massachusetts","lat":42.35807,"lng":-71.05671,"zip":"02211","miles_from_dt":2.76},{"city":"Boston","state_name":"Massachusetts","lat":42.35936,"lng":-71.05953,"zip":"02201","miles_from_dt":2.77},{"city":"Cambridge","state_name":"Massachusetts","lat":42.36224,"lng":-71.10253,"zip":"02139","miles_from_dt":2.78},{"city":"Boston","state_name":"Massachusetts","lat":42.35863,"lng":-71.0567,"zip":"02297","miles_from_dt":2.8},{"city":"Boston","state_name":"Massachusetts","lat":42.36237,"lng":-71.06619,"zip":"02222","miles_from_dt":2.82},{"city":"Boston","state_name":"Massachusetts","lat":42.36337,"lng":-71.06686,"zip":"02114","miles_from_dt":2.87},{"city":"Boston","state_name":"Massachusetts","lat":42.34815,"lng":-71.03942,"zip":"02210","miles_from_dt":2.88},{"city":"Boston","state_name":"Massachusetts","lat":42.36144,"lng":-71.05945,"zip":"02203","miles_from_dt":2.9},{"city":"Boston","state_name":"Massachusetts","lat":42.35797,"lng":-71.05189,"zip":"02110","miles_from_dt":2.9},{"city":"Cambridge","state_name":"Massachusetts","lat":42.37041,"lng":-71.08218,"zip":"02141","miles_from_dt":3.2},{"city":"Boston","state_name":"Massachusetts","lat":42.36526,"lng":-71.05524,"zip":"02113","miles_from_dt":3.23},{"city":"Boston","state_name":"Massachusetts","lat":42.36498,"lng":-71.05277,"zip":"02109","miles_from_dt":3.28},{"city":"Allston","state_name":"Massachusetts","lat":42.35855,"lng":-71.12931,"zip":"02134","miles_from_dt":3.28},{"city":"Mattapan","state_name":"Massachusetts","lat":42.27588,"lng":-71.0918,"zip":"02126","miles_from_dt":3.34},{"city":"Roslindale","state_name":"Massachusetts","lat":42.28392,"lng":-71.12468,"zip":"02131","miles_from_dt":3.43},{"city":"Boston","state_name":"Massachusetts","lat":42.36717,"lng":-71.12509,"zip":"02163","miles_from_dt":3.61},{"city":"Cambridge","state_name":"Massachusetts","lat":42.37407,"lng":-71.11714,"zip":"02238","miles_from_dt":3.82},{"city":"Chestnut Hill","state_name":"Massachusetts","lat":42.31725,"lng":-71.16096,"zip":"02467","miles_from_dt":3.91},{"city":"Brighton","state_name":"Massachusetts","lat":42.34989,"lng":-71.15417,"zip":"02135","miles_from_dt":3.96},{"city":"Quincy","state_name":"Massachusetts","lat":42.28709,"lng":-71.02604,"zip":"02171","miles_from_dt":3.96},{"city":"Somerville","state_name":"Massachusetts","lat":42.38142,"lng":-71.09677,"zip":"02143","miles_from_dt":4},{"city":"Charlestown","state_name":"Massachusetts","lat":42.37975,"lng":-71.06167,"zip":"02129","miles_from_dt":4.03},{"city":"Milton Village","state_name":"Massachusetts","lat":42.26069,"lng":-71.07867,"zip":"02187","miles_from_dt":4.39},{"city":"Cambridge","state_name":"Massachusetts","lat":42.37997,"lng":-71.13446,"zip":"02138","miles_from_dt":4.61},{"city":"Somerville","state_name":"Massachusetts","lat":42.39206,"lng":-71.0895,"zip":"02145","miles_from_dt":4.7},{"city":"East Boston","state_name":"Massachusetts","lat":42.37324,"lng":-71.01616,"zip":"02128","miles_from_dt":4.9},{"city":"West Roxbury","state_name":"Massachusetts","lat":42.27931,"lng":-71.16072,"zip":"02132","miles_from_dt":4.95},{"city":"Watertown","state_name":"Massachusetts","lat":42.3772,"lng":-71.15371,"zip":"02477","miles_from_dt":5.07},{"city":"Hyde Park","state_name":"Massachusetts","lat":42.25505,"lng":-71.12662,"zip":"02136","miles_from_dt":5.21},{"city":"Boston","state_name":"Massachusetts","lat":42.39503,"lng":-71.05027,"zip":"02204","miles_from_dt":5.22},{"city":"Quincy","state_name":"Massachusetts","lat":42.26644,"lng":-71.01621,"zip":"02170","miles_from_dt":5.32},{"city":"Cambridge","state_name":"Massachusetts","lat":42.39332,"lng":-71.13342,"zip":"02140","miles_from_dt":5.38},{"city":"Newton Center","state_name":"Massachusetts","lat":42.31515,"lng":-71.19174,"zip":"02459","miles_from_dt":5.49},{"city":"Watertown","state_name":"Massachusetts","lat":42.36984,"lng":-71.17499,"zip":"02471","miles_from_dt":5.58},{"city":"Newton","state_name":"Massachusetts","lat":42.35294,"lng":-71.18763,"zip":"02458","miles_from_dt":5.61},{"city":"Somerville","state_name":"Massachusetts","lat":42.40088,"lng":-71.122,"zip":"02144","miles_from_dt":5.63},{"city":"Chelsea","state_name":"Massachusetts","lat":42.39587,"lng":-71.03251,"zip":"02150","miles_from_dt":5.64},{"city":"Watertown","state_name":"Massachusetts","lat":42.37,"lng":-71.17713,"zip":"02472","miles_from_dt":5.67},{"city":"Milton","state_name":"Massachusetts","lat":42.23854,"lng":-71.08464,"zip":"02186","miles_from_dt":5.9},{"city":"Everett","state_name":"Massachusetts","lat":42.40643,"lng":-71.05446,"zip":"02149","miles_from_dt":5.9},{"city":"New Town","state_name":"Massachusetts","lat":42.33357,"lng":-71.20411,"zip":"02456","miles_from_dt":6.12},{"city":"Nonantum","state_name":"Massachusetts","lat":42.33205,"lng":-71.20748,"zip":"02495","miles_from_dt":6.29},{"city":"Newton Highlands","state_name":"Massachusetts","lat":42.31693,"lng":-71.20875,"zip":"02461","miles_from_dt":6.35},{"city":"Winthrop","state_name":"Massachusetts","lat":42.37724,"lng":-70.98115,"zip":"02152","miles_from_dt":6.47},{"city":"Quincy","state_name":"Massachusetts","lat":42.25139,"lng":-71.00394,"zip":"02269","miles_from_dt":6.52},{"city":"Newtonville","state_name":"Massachusetts","lat":42.35206,"lng":-71.20835,"zip":"02460","miles_from_dt":6.59},{"city":"Readville","state_name":"Massachusetts","lat":42.23508,"lng":-71.13447,"zip":"02137","miles_from_dt":6.64},{"city":"Medford","state_name":"Massachusetts","lat":42.41902,"lng":-71.10986,"zip":"02153","miles_from_dt":6.68},{"city":"Quincy","state_name":"Massachusetts","lat":42.23971,"lng":-71.01802,"zip":"02169","miles_from_dt":6.76},{"city":"Waverley","state_name":"Massachusetts","lat":42.38898,"lng":-71.18776,"zip":"02479","miles_from_dt":6.9},{"city":"Belmont","state_name":"Massachusetts","lat":42.39602,"lng":-71.17955,"zip":"02478","miles_from_dt":6.93},{"city":"Newton Upper Falls","state_name":"Massachusetts","lat":42.31274,"lng":-71.21981,"zip":"02464","miles_from_dt":6.94},{"city":"Medford","state_name":"Massachusetts","lat":42.42324,"lng":-71.10878,"zip":"02155","miles_from_dt":6.95},{"city":"Dedham","state_name":"Massachusetts","lat":42.24665,"lng":-71.1777,"zip":"02026","miles_from_dt":7.14},{"city":"Dedham","state_name":"Massachusetts","lat":42.24664,"lng":-71.17992,"zip":"02027","miles_from_dt":7.22},{"city":"West Medford","state_name":"Massachusetts","lat":42.42433,"lng":-71.13227,"zip":"02156","miles_from_dt":7.33},{"city":"West Newton","state_name":"Massachusetts","lat":42.34969,"lng":-71.22646,"zip":"02465","miles_from_dt":7.45},{"city":"Malden","state_name":"Massachusetts","lat":42.43048,"lng":-71.05762,"zip":"02148","miles_from_dt":7.48},{"city":"Waban","state_name":"Massachusetts","lat":42.32777,"lng":-71.23142,"zip":"02468","miles_from_dt":7.49},{"city":"Arlington","state_name":"Massachusetts","lat":42.42053,"lng":-71.15666,"zip":"02474","miles_from_dt":7.6},{"city":"Needham Heights","state_name":"Massachusetts","lat":42.29959,"lng":-71.2317,"zip":"02494","miles_from_dt":7.69},{"city":"Revere","state_name":"Massachusetts","lat":42.41887,"lng":-71.004,"zip":"02151","miles_from_dt":7.75},{"city":"Arlington","state_name":"Massachusetts","lat":42.41597,"lng":-71.17437,"zip":"02476","miles_from_dt":7.81},{"city":"Arlington Heights","state_name":"Massachusetts","lat":42.42025,"lng":-71.18094,"zip":"02475","miles_from_dt":8.25},{"city":"North Waltham","state_name":"Massachusetts","lat":42.39,"lng":-71.22219,"zip":"02455","miles_from_dt":8.36},{"city":"Waltham","state_name":"Massachusetts","lat":42.39365,"lng":-71.2202,"zip":"02452","miles_from_dt":8.42},{"city":"Auburndale","state_name":"Massachusetts","lat":42.34541,"lng":-71.24759,"zip":"02466","miles_from_dt":8.44},{"city":"Waltham","state_name":"Massachusetts","lat":42.36918,"lng":-71.24101,"zip":"02453","miles_from_dt":8.56},{"city":"Waltham","state_name":"Massachusetts","lat":42.378,"lng":-71.23988,"zip":"02454","miles_from_dt":8.75},{"city":"Newton Lower Falls","state_name":"Massachusetts","lat":42.33102,"lng":-71.25599,"zip":"02462","miles_from_dt":8.76},{"city":"Needham","state_name":"Massachusetts","lat":42.27615,"lng":-71.24387,"zip":"02492","miles_from_dt":8.78},{"city":"North Weymouth","state_name":"Massachusetts","lat":42.24434,"lng":-70.94378,"zip":"02191","miles_from_dt":9.1},{"city":"Melrose","state_name":"Massachusetts","lat":42.45561,"lng":-71.05901,"zip":"02176","miles_from_dt":9.18},{"city":"Braintree","state_name":"Massachusetts","lat":42.20386,"lng":-71.0022,"zip":"02184","miles_from_dt":9.32},{"city":"Winchester","state_name":"Massachusetts","lat":42.45177,"lng":-71.14628,"zip":"01890","miles_from_dt":9.35},{"city":"Braintree","state_name":"Massachusetts","lat":42.20118,"lng":-71.00511,"zip":"02185","miles_from_dt":9.42},{"city":"Babson Park","state_name":"Massachusetts","lat":42.29777,"lng":-71.26887,"zip":"02457","miles_from_dt":9.58},{"city":"Westwood","state_name":"Massachusetts","lat":42.22024,"lng":-71.21057,"zip":"02090","miles_from_dt":9.62},{"city":"Wellesley Hills","state_name":"Massachusetts","lat":42.31064,"lng":-71.27779,"zip":"02481","miles_from_dt":9.91},{"city":"Waltham","state_name":"Massachusetts","lat":42.39859,"lng":-71.2573,"zip":"02451","miles_from_dt":10.2},{"city":"Stoneham","state_name":"Massachusetts","lat":42.47396,"lng":-71.09705,"zip":"02180","miles_from_dt":10.36},{"city":"Weymouth","state_name":"Massachusetts","lat":42.20724,"lng":-70.95764,"zip":"02188","miles_from_dt":10.38},{"city":"Randolph","state_name":"Massachusetts","lat":42.17506,"lng":-71.05011,"zip":"02368","miles_from_dt":10.44},{"city":"Canton","state_name":"Massachusetts","lat":42.17504,"lng":-71.12645,"zip":"02021","miles_from_dt":10.5},{"city":"Saugus","state_name":"Massachusetts","lat":42.46922,"lng":-71.01299,"zip":"01906","miles_from_dt":10.68},{"city":"Hull","state_name":"Massachusetts","lat":42.28437,"lng":-70.88266,"zip":"02045","miles_from_dt":10.73},{"city":"Nahant","state_name":"Massachusetts","lat":42.42856,"lng":-70.92614,"zip":"01908","miles_from_dt":10.88},{"city":"Norwood","state_name":"Massachusetts","lat":42.18563,"lng":-71.19464,"zip":"02062","miles_from_dt":11.08},{"city":"East Weymouth","state_name":"Massachusetts","lat":42.2111,"lng":-70.93135,"zip":"02189","miles_from_dt":11.09},{"city":"Wellesley","state_name":"Massachusetts","lat":42.29455,"lng":-71.29859,"zip":"02482","miles_from_dt":11.12},{"city":"Lexington","state_name":"Massachusetts","lat":42.438,"lng":-71.23922,"zip":"02421","miles_from_dt":11.13},{"city":"Lynn","state_name":"Massachusetts","lat":42.46355,"lng":-70.9733,"zip":"01905","miles_from_dt":11.2},{"city":"North Scituate","state_name":"Massachusetts","lat":42.18687,"lng":-71.20406,"zip":"02060","miles_from_dt":11.26},{"city":"Weston","state_name":"Massachusetts","lat":42.35893,"lng":-71.30009,"zip":"02493","miles_from_dt":11.26},{"city":"Hingham","state_name":"Massachusetts","lat":42.24248,"lng":-70.89288,"zip":"02044","miles_from_dt":11.35},{"city":"Lexington","state_name":"Massachusetts","lat":42.45821,"lng":-71.21762,"zip":"02420","miles_from_dt":11.47},{"city":"Woburn","state_name":"Massachusetts","lat":42.48694,"lng":-71.15415,"zip":"01801","miles_from_dt":11.78},{"city":"Woburn","state_name":"Massachusetts","lat":42.48616,"lng":-71.15808,"zip":"01888","miles_from_dt":11.79},{"city":"Lynn","state_name":"Massachusetts","lat":42.46125,"lng":-70.94639,"zip":"01901","miles_from_dt":11.84},{"city":"Dover","state_name":"Massachusetts","lat":42.2366,"lng":-71.28421,"zip":"02030","miles_from_dt":11.85},{"city":"Lynn","state_name":"Massachusetts","lat":42.46619,"lng":-70.94973,"zip":"01903","miles_from_dt":12.01},{"city":"Lynn","state_name":"Massachusetts","lat":42.47333,"lng":-70.96131,"zip":"01910","miles_from_dt":12.1},{"city":"Wakefield","state_name":"Massachusetts","lat":42.50348,"lng":-71.06559,"zip":"01880","miles_from_dt":12.43},{"city":"Lynn","state_name":"Massachusetts","lat":42.4712,"lng":-70.93983,"zip":"01902","miles_from_dt":12.59},{"city":"Hingham","state_name":"Massachusetts","lat":42.21678,"lng":-70.88494,"zip":"02043","miles_from_dt":12.66},{"city":"Woburn","state_name":"Massachusetts","lat":42.50588,"lng":-71.12715,"zip":"01815","miles_from_dt":12.73},{"city":"South Weymouth","state_name":"Massachusetts","lat":42.16625,"lng":-70.95253,"zip":"02190","miles_from_dt":12.84},{"city":"Woburn","state_name":"Massachusetts","lat":42.50824,"lng":-71.1234,"zip":"01813","miles_from_dt":12.86},{"city":"Holbrook","state_name":"Massachusetts","lat":42.14733,"lng":-71.00484,"zip":"02343","miles_from_dt":12.88},{"city":"Lynn","state_name":"Massachusetts","lat":42.49151,"lng":-70.97166,"zip":"01904","miles_from_dt":12.94},{"city":"East Walpole","state_name":"Massachusetts","lat":42.15489,"lng":-71.2155,"zip":"02032","miles_from_dt":13.45},{"city":"Lincoln","state_name":"Massachusetts","lat":42.42572,"lng":-71.31013,"zip":"01773","miles_from_dt":13.48},{"city":"Burlington","state_name":"Massachusetts","lat":42.5028,"lng":-71.20147,"zip":"01803","miles_from_dt":13.7},{"city":"Avon","state_name":"Massachusetts","lat":42.12666,"lng":-71.04922,"zip":"02322","miles_from_dt":13.75},{"city":"Natick","state_name":"Massachusetts","lat":42.28436,"lng":-71.34966,"zip":"01760","miles_from_dt":13.82},{"city":"Burlington","state_name":"Massachusetts","lat":42.50635,"lng":-71.19824,"zip":"01805","miles_from_dt":13.85},{"city":"Swampscott","state_name":"Massachusetts","lat":42.47572,"lng":-70.90684,"zip":"01907","miles_from_dt":13.89},{"city":"Hanscom Afb","state_name":"Massachusetts","lat":42.46422,"lng":-71.28202,"zip":"01731","miles_from_dt":13.96},{"city":"Stoughton","state_name":"Massachusetts","lat":42.1192,"lng":-71.10189,"zip":"02072","miles_from_dt":14.16},{"city":"Wayland","state_name":"Massachusetts","lat":42.3583,"lng":-71.35895,"zip":"01778","miles_from_dt":14.21},{"city":"Accord","state_name":"Massachusetts","lat":42.17568,"lng":-70.88691,"zip":"02018","miles_from_dt":14.43},{"city":"Reading","state_name":"Massachusetts","lat":42.53505,"lng":-71.1055,"zip":"01867","miles_from_dt":14.6},{"city":"Lynnfield","state_name":"Massachusetts","lat":42.53523,"lng":-71.03695,"zip":"01940","miles_from_dt":14.78},{"city":"Medfield","state_name":"Massachusetts","lat":42.1848,"lng":-71.30501,"zip":"02052","miles_from_dt":14.81},{"city":"Cohasset","state_name":"Massachusetts","lat":42.23603,"lng":-70.81906,"zip":"02025","miles_from_dt":14.93},{"city":"Walpole","state_name":"Massachusetts","lat":42.14689,"lng":-71.25916,"zip":"02081","miles_from_dt":15.14},{"city":"Peabody","state_name":"Massachusetts","lat":42.53374,"lng":-70.97222,"zip":"01960","miles_from_dt":15.58},{"city":"Bedford","state_name":"Massachusetts","lat":42.4995,"lng":-71.27799,"zip":"01730","miles_from_dt":15.62},{"city":"Abington","state_name":"Massachusetts","lat":42.11805,"lng":-70.95905,"zip":"02351","miles_from_dt":15.62},{"city":"Pinehurst","state_name":"Massachusetts","lat":42.52539,"lng":-71.22794,"zip":"01866","miles_from_dt":15.7},{"city":"Peabody","state_name":"Massachusetts","lat":42.53456,"lng":-70.96824,"zip":"01961","miles_from_dt":15.71},{"city":"Sharon","state_name":"Massachusetts","lat":42.10778,"lng":-71.18183,"zip":"02067","miles_from_dt":15.73},{"city":"Salem","state_name":"Massachusetts","lat":42.51298,"lng":-70.90266,"zip":"01970","miles_from_dt":16.04},{"city":"Sherborn","state_name":"Massachusetts","lat":42.23416,"lng":-71.37532,"zip":"01770","miles_from_dt":16.11},{"city":"Rockland","state_name":"Massachusetts","lat":42.1295,"lng":-70.91002,"zip":"02370","miles_from_dt":16.16},{"city":"Marblehead","state_name":"Massachusetts","lat":42.49924,"lng":-70.86348,"zip":"01945","miles_from_dt":16.58},{"city":"Wilmington","state_name":"Massachusetts","lat":42.56091,"lng":-71.16541,"zip":"01887","miles_from_dt":16.85},{"city":"Brockton","state_name":"Massachusetts","lat":42.08792,"lng":-70.99864,"zip":"02302","miles_from_dt":16.89},{"city":"Brockton","state_name":"Massachusetts","lat":42.08476,"lng":-71.01516,"zip":"02303","miles_from_dt":16.9},{"city":"Brockton","state_name":"Massachusetts","lat":42.08318,"lng":-71.02462,"zip":"02305","miles_from_dt":16.91},{"city":"Brockton","state_name":"Massachusetts","lat":42.08167,"lng":-71.02597,"zip":"02304","miles_from_dt":17},{"city":"Brockton","state_name":"Massachusetts","lat":42.07791,"lng":-71.04223,"zip":"02301","miles_from_dt":17.13},{"city":"North Reading","state_name":"Massachusetts","lat":42.57201,"lng":-71.11123,"zip":"01889","miles_from_dt":17.17},{"city":"Concord","state_name":"Massachusetts","lat":42.46221,"lng":-71.36504,"zip":"01742","miles_from_dt":17.2},{"city":"Nutting Lake","state_name":"Massachusetts","lat":42.53471,"lng":-71.26916,"zip":"01865","miles_from_dt":17.32},{"city":"Billerica","state_name":"Massachusetts","lat":42.54127,"lng":-71.26288,"zip":"01822","miles_from_dt":17.53},{"city":"Minot","state_name":"Massachusetts","lat":42.23883,"lng":-70.76158,"zip":"02055","miles_from_dt":17.6},{"city":"Norwell","state_name":"Massachusetts","lat":42.16075,"lng":-70.81772,"zip":"02061","miles_from_dt":17.76},{"city":"North Reading","state_name":"Massachusetts","lat":42.58156,"lng":-71.08759,"zip":"01864","miles_from_dt":17.77},{"city":"Billerica","state_name":"Massachusetts","lat":42.54999,"lng":-71.25206,"zip":"01821","miles_from_dt":17.78},{"city":"Millis","state_name":"Massachusetts","lat":42.1693,"lng":-71.36261,"zip":"02054","miles_from_dt":17.79},{"city":"Sudbury","state_name":"Massachusetts","lat":42.38456,"lng":-71.42316,"zip":"01776","miles_from_dt":17.8},{"city":"Salem","state_name":"Massachusetts","lat":42.52757,"lng":-70.86839,"zip":"01971","miles_from_dt":17.9},{"city":"South Walpole","state_name":"Massachusetts","lat":42.10392,"lng":-71.27002,"zip":"02071","miles_from_dt":17.91},{"city":"North Easton","state_name":"Massachusetts","lat":42.06224,"lng":-71.07751,"zip":"02357","miles_from_dt":18.07},{"city":"Framingham","state_name":"Massachusetts","lat":42.32195,"lng":-71.43796,"zip":"01701","miles_from_dt":18.07},{"city":"Framingham","state_name":"Massachusetts","lat":42.28242,"lng":-71.43428,"zip":"01702","miles_from_dt":18.11},{"city":"Framingham","state_name":"Massachusetts","lat":42.32025,"lng":-71.43949,"zip":"01705","miles_from_dt":18.15},{"city":"Hanover","state_name":"Massachusetts","lat":42.12241,"lng":-70.85665,"zip":"02339","miles_from_dt":18.2},{"city":"Framingham","state_name":"Massachusetts","lat":42.32301,"lng":-71.44179,"zip":"01703","miles_from_dt":18.26},{"city":"Framingham","state_name":"Massachusetts","lat":42.31823,"lng":-71.44266,"zip":"01704","miles_from_dt":18.31},{"city":"Whitman","state_name":"Massachusetts","lat":42.08,"lng":-70.93993,"zip":"02382","miles_from_dt":18.42},{"city":"Danvers","state_name":"Massachusetts","lat":42.57398,"lng":-70.94923,"zip":"01923","miles_from_dt":18.6},{"city":"Scituate","state_name":"Massachusetts","lat":42.20129,"lng":-70.76155,"zip":"02066","miles_from_dt":18.63},{"city":"North Easton","state_name":"Massachusetts","lat":42.05519,"lng":-71.12071,"zip":"02356","miles_from_dt":18.65},{"city":"Hathorne","state_name":"Massachusetts","lat":42.58579,"lng":-70.98406,"zip":"01937","miles_from_dt":18.79},{"city":"Norfolk","state_name":"Massachusetts","lat":42.11632,"lng":-71.32952,"zip":"02056","miles_from_dt":19.04},{"city":"Middleton","state_name":"Massachusetts","lat":42.6043,"lng":-71.01641,"zip":"01949","miles_from_dt":19.66},{"city":"Carlisle","state_name":"Massachusetts","lat":42.53001,"lng":-71.35128,"zip":"01741","miles_from_dt":19.68},{"city":"Foxboro","state_name":"Massachusetts","lat":42.06266,"lng":-71.24613,"zip":"02035","miles_from_dt":19.84},{"city":"Greenbush","state_name":"Massachusetts","lat":42.17959,"lng":-70.74968,"zip":"02040","miles_from_dt":19.89},{"city":"Ashland","state_name":"Massachusetts","lat":42.25726,"lng":-71.46867,"zip":"01721","miles_from_dt":20.18},{"city":"Maynard","state_name":"Massachusetts","lat":42.4264,"lng":-71.45607,"zip":"01754","miles_from_dt":20.25},{"city":"Beverly","state_name":"Massachusetts","lat":42.56841,"lng":-70.8647,"zip":"01915","miles_from_dt":20.29},{"city":"North Billerica","state_name":"Massachusetts","lat":42.57427,"lng":-71.29437,"zip":"01862","miles_from_dt":20.31},{"city":"North Marshfield","state_name":"Massachusetts","lat":42.14282,"lng":-70.77212,"zip":"02059","miles_from_dt":20.36},{"city":"Holliston","state_name":"Massachusetts","lat":42.19775,"lng":-71.44499,"zip":"01746","miles_from_dt":20.4},{"city":"Easton","state_name":"Massachusetts","lat":42.02385,"lng":-71.12922,"zip":"02334","miles_from_dt":20.84},{"city":"Prides Crossing","state_name":"Massachusetts","lat":42.56294,"lng":-70.82996,"zip":"01965","miles_from_dt":21.03},{"city":"South Easton","state_name":"Massachusetts","lat":42.01954,"lng":-71.10381,"zip":"02375","miles_from_dt":21.04},{"city":"West Bridgewater","state_name":"Massachusetts","lat":42.02139,"lng":-71.0267,"zip":"02379","miles_from_dt":21.1},{"city":"Tewksbury","state_name":"Massachusetts","lat":42.61206,"lng":-71.22733,"zip":"01876","miles_from_dt":21.16},{"city":"Acton","state_name":"Massachusetts","lat":42.48397,"lng":-71.43809,"zip":"01720","miles_from_dt":21.16},{"city":"Medway","state_name":"Massachusetts","lat":42.15352,"lng":-71.42906,"zip":"02053","miles_from_dt":21.2},{"city":"East Bridgewater","state_name":"Massachusetts","lat":42.03521,"lng":-70.94235,"zip":"02333","miles_from_dt":21.24},{"city":"Fayville","state_name":"Massachusetts","lat":42.29155,"lng":-71.50101,"zip":"01745","miles_from_dt":21.42},{"city":"Hanson","state_name":"Massachusetts","lat":42.05604,"lng":-70.87251,"zip":"02341","miles_from_dt":21.48},{"city":"Wenham","state_name":"Massachusetts","lat":42.60078,"lng":-70.8826,"zip":"01984","miles_from_dt":21.73},{"city":"North Pembroke","state_name":"Massachusetts","lat":42.09441,"lng":-70.78789,"zip":"02358","miles_from_dt":22},{"city":"Marshfield Hills","state_name":"Massachusetts","lat":42.14519,"lng":-70.72388,"zip":"02051","miles_from_dt":22.27},{"city":"Acton","state_name":"Massachusetts","lat":42.52165,"lng":-71.42983,"zip":"01718","miles_from_dt":22.28},{"city":"Mansfield","state_name":"Massachusetts","lat":42.01626,"lng":-71.21868,"zip":"02048","miles_from_dt":22.32},{"city":"Elmwood","state_name":"Massachusetts","lat":42.01183,"lng":-70.96402,"zip":"02337","miles_from_dt":22.43},{"city":"Andover","state_name":"Massachusetts","lat":42.64669,"lng":-71.16517,"zip":"01810","miles_from_dt":22.64},{"city":"Topsfield","state_name":"Massachusetts","lat":42.63728,"lng":-70.94251,"zip":"01983","miles_from_dt":22.82},{"city":"Southborough","state_name":"Massachusetts","lat":42.30144,"lng":-71.5304,"zip":"01772","miles_from_dt":22.86},{"city":"Andover","state_name":"Massachusetts","lat":42.64859,"lng":-71.18254,"zip":"01812","miles_from_dt":22.95},{"city":"Stow","state_name":"Massachusetts","lat":42.42983,"lng":-71.51146,"zip":"01775","miles_from_dt":23},{"city":"Pembroke","state_name":"Massachusetts","lat":42.06547,"lng":-70.8014,"zip":"02359","miles_from_dt":23.04},{"city":"Chelmsford","state_name":"Massachusetts","lat":42.59156,"lng":-71.35553,"zip":"01824","miles_from_dt":23.06},{"city":"Andover","state_name":"Massachusetts","lat":42.65037,"lng":-71.18456,"zip":"01899","miles_from_dt":23.09},{"city":"Bryantville","state_name":"Massachusetts","lat":42.04474,"lng":-70.83634,"zip":"02327","miles_from_dt":23.13},{"city":"Andover","state_name":"Massachusetts","lat":42.65227,"lng":-71.1835,"zip":"05501","miles_from_dt":23.2},{"city":"Wrentham","state_name":"Massachusetts","lat":42.05129,"lng":-71.35522,"zip":"02093","miles_from_dt":23.38},{"city":"Franklin","state_name":"Massachusetts","lat":42.08622,"lng":-71.41126,"zip":"02038","miles_from_dt":23.44},{"city":"Humarock","state_name":"Massachusetts","lat":42.14582,"lng":-70.69603,"zip":"02047","miles_from_dt":23.45},{"city":"Marlborough","state_name":"Massachusetts","lat":42.3494,"lng":-71.54681,"zip":"01752","miles_from_dt":23.7},{"city":"Lowell","state_name":"Massachusetts","lat":42.63231,"lng":-71.29538,"zip":"01852","miles_from_dt":23.83},{"city":"Marshfield","state_name":"Massachusetts","lat":42.11443,"lng":-70.71487,"zip":"02050","miles_from_dt":23.88},{"city":"South Hamilton","state_name":"Massachusetts","lat":42.62669,"lng":-70.85789,"zip":"01982","miles_from_dt":23.9},{"city":"Bridgewater","state_name":"Massachusetts","lat":41.98875,"lng":-70.96449,"zip":"02325","miles_from_dt":23.96},{"city":"North Andover","state_name":"Massachusetts","lat":42.67132,"lng":-71.08669,"zip":"01845","miles_from_dt":23.97},{"city":"Hudson","state_name":"Massachusetts","lat":42.38868,"lng":-71.54648,"zip":"01749","miles_from_dt":24.03},{"city":"Manchester","state_name":"Massachusetts","lat":42.58154,"lng":-70.76825,"zip":"01944","miles_from_dt":24.05},{"city":"Hopkinton","state_name":"Massachusetts","lat":42.2255,"lng":-71.53781,"zip":"01748","miles_from_dt":24.18},{"city":"Monponsett","state_name":"Massachusetts","lat":42.02043,"lng":-70.84562,"zip":"02350","miles_from_dt":24.3},{"city":"Hamilton","state_name":"Massachusetts","lat":42.63792,"lng":-70.8594,"zip":"01936","miles_from_dt":24.55},{"city":"Lowell","state_name":"Massachusetts","lat":42.62915,"lng":-71.33674,"zip":"01851","miles_from_dt":24.67},{"city":"Boxborough","state_name":"Massachusetts","lat":42.48837,"lng":-71.51779,"zip":"01719","miles_from_dt":24.86},{"city":"Boxford","state_name":"Massachusetts","lat":42.6815,"lng":-71.01887,"zip":"01921","miles_from_dt":24.9},{"city":"Bridgewater","state_name":"Massachusetts","lat":41.97272,"lng":-70.97498,"zip":"02324","miles_from_dt":24.9},{"city":"Plainville","state_name":"Massachusetts","lat":42.01409,"lng":-71.33642,"zip":"02762","miles_from_dt":24.98},{"city":"Milford","state_name":"Massachusetts","lat":42.15723,"lng":-71.51978,"zip":"01757","miles_from_dt":25.09},{"city":"Woodville","state_name":"Massachusetts","lat":42.23233,"lng":-71.55963,"zip":"01784","miles_from_dt":25.13},{"city":"Ocean Bluff","state_name":"Massachusetts","lat":42.09167,"lng":-70.70611,"zip":"02065","miles_from_dt":25.21},{"city":"Sheldonville","state_name":"Massachusetts","lat":42.0348,"lng":-71.386,"zip":"02070","miles_from_dt":25.24},{"city":"Littleton","state_name":"Massachusetts","lat":42.53503,"lng":-71.4891,"zip":"01460","miles_from_dt":25.27},{"city":"Norton","state_name":"Massachusetts","lat":41.96402,"lng":-71.18418,"zip":"02766","miles_from_dt":25.36},{"city":"Lowell","state_name":"Massachusetts","lat":42.65569,"lng":-71.30292,"zip":"01850","miles_from_dt":25.45},{"city":"Lawrence","state_name":"Massachusetts","lat":42.68985,"lng":-71.16095,"zip":"01843","miles_from_dt":25.54},{"city":"Westford","state_name":"Massachusetts","lat":42.58642,"lng":-71.44008,"zip":"01886","miles_from_dt":25.63},{"city":"Halifax","state_name":"Massachusetts","lat":41.99138,"lng":-70.86326,"zip":"02338","miles_from_dt":25.63},{"city":"Lowell","state_name":"Massachusetts","lat":42.65859,"lng":-71.30522,"zip":"01853","miles_from_dt":25.68},{"city":"Chartley","state_name":"Massachusetts","lat":41.96733,"lng":-71.24163,"zip":"02712","miles_from_dt":25.9},{"city":"Lowell","state_name":"Massachusetts","lat":42.64939,"lng":-71.34827,"zip":"01854","miles_from_dt":26.17},{"city":"Bellingham","state_name":"Massachusetts","lat":42.0777,"lng":-71.47407,"zip":"02019","miles_from_dt":26.22},{"city":"North Chelmsford","state_name":"Massachusetts","lat":42.63274,"lng":-71.39132,"zip":"01863","miles_from_dt":26.43},{"city":"Lawrence","state_name":"Massachusetts","lat":42.70548,"lng":-71.15997,"zip":"01842","miles_from_dt":26.6},{"city":"Raynham","state_name":"Massachusetts","lat":41.93939,"lng":-71.05191,"zip":"02767","miles_from_dt":26.6},{"city":"Essex","state_name":"Massachusetts","lat":42.63478,"lng":-70.77684,"zip":"01929","miles_from_dt":26.61},{"city":"West Boxford","state_name":"Massachusetts","lat":42.70948,"lng":-71.05848,"zip":"01885","miles_from_dt":26.64},{"city":"Lawrence","state_name":"Massachusetts","lat":42.70695,"lng":-71.16014,"zip":"01840","miles_from_dt":26.7},{"city":"Hopedale","state_name":"Massachusetts","lat":42.12477,"lng":-71.535,"zip":"01747","miles_from_dt":26.86},{"city":"North Attleboro","state_name":"Massachusetts","lat":41.9793,"lng":-71.33143,"zip":"02761","miles_from_dt":26.95},{"city":"Lawrence","state_name":"Massachusetts","lat":42.71077,"lng":-71.16494,"zip":"01841","miles_from_dt":27},{"city":"Duxbury","state_name":"Massachusetts","lat":42.04651,"lng":-70.71388,"zip":"02332","miles_from_dt":27.02},{"city":"Dracut","state_name":"Massachusetts","lat":42.68323,"lng":-71.30063,"zip":"01826","miles_from_dt":27.12},{"city":"Attleboro Falls","state_name":"Massachusetts","lat":41.96666,"lng":-71.30743,"zip":"02763","miles_from_dt":27.18},{"city":"Raynham Center","state_name":"Massachusetts","lat":41.92912,"lng":-71.0417,"zip":"02768","miles_from_dt":27.35},{"city":"Westborough","state_name":"Massachusetts","lat":42.26815,"lng":-71.61402,"zip":"01581","miles_from_dt":27.37},{"city":"North Attleboro","state_name":"Massachusetts","lat":41.97004,"lng":-71.33586,"zip":"02760","miles_from_dt":27.62},{"city":"Bolton","state_name":"Massachusetts","lat":42.43616,"lng":-71.60728,"zip":"01740","miles_from_dt":27.81},{"city":"Brant Rock","state_name":"Massachusetts","lat":42.08398,"lng":-70.64973,"zip":"02020","miles_from_dt":27.82},{"city":"Ipswich","state_name":"Massachusetts","lat":42.68568,"lng":-70.83989,"zip":"01938","miles_from_dt":27.93},{"city":"Harvard","state_name":"Massachusetts","lat":42.50005,"lng":-71.57754,"zip":"01451","miles_from_dt":27.96},{"city":"Georgetown","state_name":"Massachusetts","lat":42.72409,"lng":-70.9821,"zip":"01833","miles_from_dt":28.11},{"city":"Green Harbor","state_name":"Massachusetts","lat":42.07158,"lng":-70.65438,"zip":"02041","miles_from_dt":28.15},{"city":"Duxbury","state_name":"Massachusetts","lat":42.03184,"lng":-70.69423,"zip":"02331","miles_from_dt":28.45},{"city":"Berlin","state_name":"Massachusetts","lat":42.38378,"lng":-71.63552,"zip":"01503","miles_from_dt":28.47},{"city":"Upton","state_name":"Massachusetts","lat":42.17694,"lng":-71.60516,"zip":"01568","miles_from_dt":28.53},{"city":"Plympton","state_name":"Massachusetts","lat":41.96345,"lng":-70.80975,"zip":"02367","miles_from_dt":28.63},{"city":"Northborough","state_name":"Massachusetts","lat":42.32314,"lng":-71.64621,"zip":"01532","miles_from_dt":28.73},{"city":"Mendon","state_name":"Massachusetts","lat":42.09301,"lng":-71.55146,"zip":"01756","miles_from_dt":28.75},{"city":"Methuen","state_name":"Massachusetts","lat":42.73426,"lng":-71.18858,"zip":"01844","miles_from_dt":28.8},{"city":"Taunton","state_name":"Massachusetts","lat":41.90743,"lng":-71.11939,"zip":"02780","miles_from_dt":28.81},{"city":"Gloucester","state_name":"Massachusetts","lat":42.62605,"lng":-70.68966,"zip":"01930","miles_from_dt":29.03},{"city":"Kingston","state_name":"Massachusetts","lat":41.98616,"lng":-70.74823,"zip":"02364","miles_from_dt":29.04},{"city":"Attleboro","state_name":"Massachusetts","lat":41.93108,"lng":-71.29499,"zip":"02703","miles_from_dt":29.19},{"city":"Rowley","state_name":"Massachusetts","lat":42.72235,"lng":-70.88832,"zip":"01969","miles_from_dt":29.27},{"city":"Tyngsboro","state_name":"Massachusetts","lat":42.66626,"lng":-71.42911,"zip":"01879","miles_from_dt":29.44},{"city":"Gloucester","state_name":"Massachusetts","lat":42.6303,"lng":-70.68161,"zip":"01931","miles_from_dt":29.53},{"city":"Still River","state_name":"Massachusetts","lat":42.48365,"lng":-71.62161,"zip":"01467","miles_from_dt":29.57},{"city":"Haverhill","state_name":"Massachusetts","lat":42.75292,"lng":-71.08602,"zip":"01835","miles_from_dt":29.6},{"city":"Groveland","state_name":"Massachusetts","lat":42.75198,"lng":-71.01486,"zip":"01834","miles_from_dt":29.76},{"city":"Ayer","state_name":"Massachusetts","lat":42.56351,"lng":-71.57059,"zip":"01432","miles_from_dt":29.81},{"city":"Cumberland","state_name":"Rhode Island","lat":41.97025,"lng":-71.41978,"zip":"02864","miles_from_dt":29.86}],"targetCityZipCode":"02119","targetCityState":"Massachusetts"},"__N_SSG":true}