{"pageProps":{"stateName":"Massachusetts","cityName":"wales","nearbyCities":[{"city":"Holland","state_name":"Massachusetts","lat":42.06012,"lng":-72.16592,"zip":"01521","miles_from_dt":3.34},{"city":"Brimfield","state_name":"Massachusetts","lat":42.12904,"lng":-72.20597,"zip":"01010","miles_from_dt":4.78},{"city":"Staffordville","state_name":"Connecticut","lat":41.99494,"lng":-72.26029,"zip":"06077","miles_from_dt":4.89},{"city":"Monson","state_name":"Massachusetts","lat":42.09118,"lng":-72.32392,"zip":"01057","miles_from_dt":5.18},{"city":"Stafford Springs","state_name":"Connecticut","lat":41.98906,"lng":-72.26224,"zip":"06076","miles_from_dt":5.31},{"city":"Stafford","state_name":"Connecticut","lat":41.98793,"lng":-72.28708,"zip":"06075","miles_from_dt":5.89},{"city":"Fiskdale","state_name":"Massachusetts","lat":42.11342,"lng":-72.11632,"zip":"01518","miles_from_dt":6.86},{"city":"Sturbridge","state_name":"Massachusetts","lat":42.1047,"lng":-72.07745,"zip":"01566","miles_from_dt":8.41},{"city":"Palmer","state_name":"Massachusetts","lat":42.18798,"lng":-72.30578,"zip":"01069","miles_from_dt":9.49},{"city":"West Warren","state_name":"Massachusetts","lat":42.20008,"lng":-72.23715,"zip":"01092","miles_from_dt":9.51},{"city":"Hampden","state_name":"Massachusetts","lat":42.0638,"lng":-72.4157,"zip":"01036","miles_from_dt":9.51},{"city":"Thorndike","state_name":"Massachusetts","lat":42.18508,"lng":-72.33406,"zip":"01079","miles_from_dt":10},{"city":"Warren","state_name":"Massachusetts","lat":42.20652,"lng":-72.19906,"zip":"01083","miles_from_dt":10.09},{"city":"Southbridge","state_name":"Massachusetts","lat":42.06039,"lng":-72.03377,"zip":"01550","miles_from_dt":10.14},{"city":"Three Rivers","state_name":"Massachusetts","lat":42.18228,"lng":-72.36515,"zip":"01080","miles_from_dt":10.78},{"city":"Brookfield","state_name":"Massachusetts","lat":42.19364,"lng":-72.10441,"zip":"01506","miles_from_dt":11.15},{"city":"Wilbraham","state_name":"Massachusetts","lat":42.12763,"lng":-72.42994,"zip":"01095","miles_from_dt":11.18},{"city":"Woodstock Valley","state_name":"Connecticut","lat":41.94556,"lng":-72.07928,"zip":"06282","miles_from_dt":11.22},{"city":"Bondsville","state_name":"Massachusetts","lat":42.21133,"lng":-72.34189,"zip":"01009","miles_from_dt":11.76},{"city":"Willington","state_name":"Connecticut","lat":41.88959,"lng":-72.25933,"zip":"06279","miles_from_dt":12.01},{"city":"Ashford","state_name":"Connecticut","lat":41.89126,"lng":-72.17003,"zip":"06278","miles_from_dt":12.21},{"city":"Somers","state_name":"Connecticut","lat":41.99489,"lng":-72.45213,"zip":"06071","miles_from_dt":12.3},{"city":"West Brookfield","state_name":"Massachusetts","lat":42.23762,"lng":-72.16311,"zip":"01585","miles_from_dt":12.59},{"city":"Woodstock","state_name":"Connecticut","lat":41.97253,"lng":-72.01458,"zip":"06281","miles_from_dt":12.74},{"city":"Springfield","state_name":"Massachusetts","lat":42.09497,"lng":-72.48806,"zip":"01128","miles_from_dt":13.42},{"city":"Eastford","state_name":"Connecticut","lat":41.89326,"lng":-72.09706,"zip":"06242","miles_from_dt":13.55},{"city":"East Brookfield","state_name":"Massachusetts","lat":42.20328,"lng":-72.04669,"zip":"01515","miles_from_dt":13.57},{"city":"East Longmeadow","state_name":"Massachusetts","lat":42.05967,"lng":-72.49899,"zip":"01028","miles_from_dt":13.79},{"city":"Springfield","state_name":"Massachusetts","lat":42.1211,"lng":-72.4877,"zip":"01129","miles_from_dt":13.81},{"city":"Charlton City","state_name":"Massachusetts","lat":42.15139,"lng":-71.9896,"zip":"01508","miles_from_dt":13.84},{"city":"East Woodstock","state_name":"Connecticut","lat":41.98632,"lng":-71.97448,"zip":"06244","miles_from_dt":14.2},{"city":"Somersville","state_name":"Connecticut","lat":41.98465,"lng":-72.4876,"zip":"06072","miles_from_dt":14.26},{"city":"Tolland","state_name":"Connecticut","lat":41.87917,"lng":-72.36443,"zip":"06084","miles_from_dt":14.39},{"city":"Charlton","state_name":"Massachusetts","lat":42.13509,"lng":-71.96803,"zip":"01507","miles_from_dt":14.41},{"city":"Longmeadow","state_name":"Massachusetts","lat":42.06444,"lng":-72.51306,"zip":"01116","miles_from_dt":14.51},{"city":"Ludlow","state_name":"Massachusetts","lat":42.19211,"lng":-72.45805,"zip":"01056","miles_from_dt":14.71},{"city":"Quinebaug","state_name":"Connecticut","lat":42.01871,"lng":-71.94959,"zip":"06262","miles_from_dt":14.78},{"city":"South Willington","state_name":"Connecticut","lat":41.85452,"lng":-72.30189,"zip":"06265","miles_from_dt":14.8},{"city":"Springfield","state_name":"Massachusetts","lat":42.12452,"lng":-72.51126,"zip":"01119","miles_from_dt":15.04},{"city":"Charlton Depot","state_name":"Massachusetts","lat":42.173,"lng":-71.97562,"zip":"01509","miles_from_dt":15.18},{"city":"Dudley","state_name":"Massachusetts","lat":42.05501,"lng":-71.93519,"zip":"01571","miles_from_dt":15.22},{"city":"Springfield","state_name":"Massachusetts","lat":42.09476,"lng":-72.5253,"zip":"01118","miles_from_dt":15.3},{"city":"Ellington","state_name":"Connecticut","lat":41.91439,"lng":-72.4535,"zip":"06029","miles_from_dt":15.35},{"city":"Fabyan","state_name":"Connecticut","lat":42.01424,"lng":-71.93716,"zip":"06245","miles_from_dt":15.47},{"city":"Indian Orchard","state_name":"Massachusetts","lat":42.15294,"lng":-72.50883,"zip":"01151","miles_from_dt":15.6},{"city":"Springfield","state_name":"Massachusetts","lat":42.15279,"lng":-72.51126,"zip":"01152","miles_from_dt":15.71},{"city":"Springfield","state_name":"Massachusetts","lat":42.11605,"lng":-72.53858,"zip":"01102","miles_from_dt":16.25},{"city":"North Brookfield","state_name":"Massachusetts","lat":42.2695,"lng":-72.07794,"zip":"01535","miles_from_dt":16.31},{"city":"Ware","state_name":"Massachusetts","lat":42.29816,"lng":-72.27676,"zip":"01082","miles_from_dt":16.45},{"city":"Springfield","state_name":"Massachusetts","lat":42.11632,"lng":-72.54693,"zip":"01139","miles_from_dt":16.67},{"city":"South Woodstock","state_name":"Connecticut","lat":41.9302,"lng":-71.95897,"zip":"06267","miles_from_dt":16.71},{"city":"Springfield","state_name":"Massachusetts","lat":42.11798,"lng":-72.5479,"zip":"01111","miles_from_dt":16.75},{"city":"Springfield","state_name":"Massachusetts","lat":42.11839,"lng":-72.54876,"zip":"01109","miles_from_dt":16.8},{"city":"Springfield","state_name":"Massachusetts","lat":42.0814,"lng":-72.55866,"zip":"01108","miles_from_dt":16.91},{"city":"Springfield","state_name":"Massachusetts","lat":42.0886,"lng":-72.56103,"zip":"01138","miles_from_dt":17.07},{"city":"Mansfield Depot","state_name":"Connecticut","lat":41.81589,"lng":-72.286,"zip":"06251","miles_from_dt":17.24},{"city":"Belchertown","state_name":"Massachusetts","lat":42.28163,"lng":-72.40009,"zip":"01007","miles_from_dt":17.45},{"city":"Storrs Mansfield","state_name":"Connecticut","lat":41.80998,"lng":-72.25283,"zip":"06269","miles_from_dt":17.45},{"city":"Enfield","state_name":"Connecticut","lat":41.98393,"lng":-72.55475,"zip":"06082","miles_from_dt":17.52},{"city":"Longmeadow","state_name":"Massachusetts","lat":42.04877,"lng":-72.57163,"zip":"01106","miles_from_dt":17.55},{"city":"North Grosvenordale","state_name":"Connecticut","lat":41.98791,"lng":-71.90299,"zip":"06255","miles_from_dt":17.64},{"city":"Spencer","state_name":"Massachusetts","lat":42.24715,"lng":-71.99189,"zip":"01562","miles_from_dt":17.7},{"city":"Springfield","state_name":"Massachusetts","lat":42.13326,"lng":-72.56733,"zip":"01104","miles_from_dt":17.98},{"city":"Springfield","state_name":"Massachusetts","lat":42.09911,"lng":-72.57865,"zip":"01105","miles_from_dt":18.06},{"city":"Pomfret Center","state_name":"Connecticut","lat":41.8703,"lng":-71.99248,"zip":"06259","miles_from_dt":18.07},{"city":"Storrs Mansfield","state_name":"Connecticut","lat":41.79852,"lng":-72.24843,"zip":"06268","miles_from_dt":18.23},{"city":"Enfield","state_name":"Connecticut","lat":41.99818,"lng":-72.57639,"zip":"06083","miles_from_dt":18.32},{"city":"Pomfret","state_name":"Connecticut","lat":41.88554,"lng":-71.96353,"zip":"06258","miles_from_dt":18.4},{"city":"Gilbertville","state_name":"Massachusetts","lat":42.32782,"lng":-72.19191,"zip":"01031","miles_from_dt":18.43},{"city":"Grosvenor Dale","state_name":"Connecticut","lat":41.96956,"lng":-71.8943,"zip":"06246","miles_from_dt":18.47},{"city":"New Braintree","state_name":"Massachusetts","lat":42.31929,"lng":-72.12794,"zip":"01531","miles_from_dt":18.51},{"city":"Chicopee","state_name":"Massachusetts","lat":42.19721,"lng":-72.54249,"zip":"01022","miles_from_dt":18.52},{"city":"Springfield","state_name":"Massachusetts","lat":42.09992,"lng":-72.58958,"zip":"01101","miles_from_dt":18.63},{"city":"Abington","state_name":"Connecticut","lat":41.84652,"lng":-72.01367,"zip":"06230","miles_from_dt":18.63},{"city":"Springfield","state_name":"Massachusetts","lat":42.10443,"lng":-72.58997,"zip":"01103","miles_from_dt":18.69},{"city":"North Oxford","state_name":"Massachusetts","lat":42.16177,"lng":-71.89217,"zip":"01537","miles_from_dt":18.71},{"city":"Springfield","state_name":"Massachusetts","lat":42.10189,"lng":-72.59091,"zip":"01144","miles_from_dt":18.71},{"city":"Springfield","state_name":"Massachusetts","lat":42.10403,"lng":-72.59179,"zip":"01115","miles_from_dt":18.78},{"city":"Chicopee","state_name":"Massachusetts","lat":42.17618,"lng":-72.56538,"zip":"01020","miles_from_dt":18.9},{"city":"Rochdale","state_name":"Massachusetts","lat":42.20241,"lng":-71.90995,"zip":"01542","miles_from_dt":19.11},{"city":"Chicopee","state_name":"Massachusetts","lat":42.17481,"lng":-72.57229,"zip":"01014","miles_from_dt":19.19},{"city":"Chicopee","state_name":"Massachusetts","lat":42.17796,"lng":-72.57284,"zip":"01021","miles_from_dt":19.3},{"city":"Chaplin","state_name":"Connecticut","lat":41.79292,"lng":-72.1275,"zip":"06235","miles_from_dt":19.34},{"city":"Broad Brook","state_name":"Connecticut","lat":41.90417,"lng":-72.54438,"zip":"06016","miles_from_dt":19.49},{"city":"Oxford","state_name":"Massachusetts","lat":42.11649,"lng":-71.85819,"zip":"01540","miles_from_dt":19.52},{"city":"Springfield","state_name":"Massachusetts","lat":42.11915,"lng":-72.60341,"zip":"01199","miles_from_dt":19.55},{"city":"Vernon Rockville","state_name":"Connecticut","lat":41.83641,"lng":-72.46063,"zip":"06066","miles_from_dt":19.58},{"city":"Granby","state_name":"Massachusetts","lat":42.26082,"lng":-72.50361,"zip":"01033","miles_from_dt":19.59},{"city":"Webster","state_name":"Massachusetts","lat":42.05206,"lng":-71.8485,"zip":"01570","miles_from_dt":19.68},{"city":"Springfield","state_name":"Massachusetts","lat":42.12116,"lng":-72.60642,"zip":"01107","miles_from_dt":19.73},{"city":"Mansfield Center","state_name":"Connecticut","lat":41.77434,"lng":-72.19669,"zip":"06250","miles_from_dt":19.95},{"city":"Coventry","state_name":"Connecticut","lat":41.78281,"lng":-72.33941,"zip":"06238","miles_from_dt":20.09},{"city":"Agawam","state_name":"Massachusetts","lat":42.06262,"lng":-72.62521,"zip":"01001","miles_from_dt":20.28},{"city":"Leicester","state_name":"Massachusetts","lat":42.24919,"lng":-71.91989,"zip":"01524","miles_from_dt":20.53},{"city":"Chicopee","state_name":"Massachusetts","lat":42.16059,"lng":-72.60788,"zip":"01012","miles_from_dt":20.53},{"city":"Thompson","state_name":"Connecticut","lat":41.96895,"lng":-71.83927,"zip":"06277","miles_from_dt":21.16},{"city":"Putnam","state_name":"Connecticut","lat":41.90898,"lng":-71.87181,"zip":"06260","miles_from_dt":21.3},{"city":"Hardwick","state_name":"Massachusetts","lat":42.37063,"lng":-72.19466,"zip":"01037","miles_from_dt":21.36},{"city":"Wheelwright","state_name":"Massachusetts","lat":42.36481,"lng":-72.13548,"zip":"01094","miles_from_dt":21.44},{"city":"East Windsor","state_name":"Connecticut","lat":41.9058,"lng":-72.59646,"zip":"06088","miles_from_dt":21.71},{"city":"Auburn","state_name":"Massachusetts","lat":42.19689,"lng":-71.84549,"zip":"01501","miles_from_dt":21.87},{"city":"Cherry Valley","state_name":"Massachusetts","lat":42.23945,"lng":-71.87702,"zip":"01611","miles_from_dt":21.9},{"city":"Holyoke","state_name":"Massachusetts","lat":42.20746,"lng":-72.61142,"zip":"01041","miles_from_dt":21.97},{"city":"West Springfield","state_name":"Massachusetts","lat":42.12532,"lng":-72.65025,"zip":"01089","miles_from_dt":21.99},{"city":"Hampton","state_name":"Connecticut","lat":41.76829,"lng":-72.06548,"zip":"06247","miles_from_dt":22.01},{"city":"Oakham","state_name":"Massachusetts","lat":42.35125,"lng":-72.04776,"zip":"01068","miles_from_dt":22.04},{"city":"Suffield","state_name":"Connecticut","lat":41.98903,"lng":-72.64875,"zip":"06078","miles_from_dt":22.09},{"city":"West Springfield","state_name":"Massachusetts","lat":42.12128,"lng":-72.65486,"zip":"01090","miles_from_dt":22.17},{"city":"Suffield","state_name":"Connecticut","lat":41.95044,"lng":-72.63519,"zip":"06080","miles_from_dt":22.2},{"city":"South Hadley","state_name":"Massachusetts","lat":42.25672,"lng":-72.57928,"zip":"01075","miles_from_dt":22.36},{"city":"North Windham","state_name":"Connecticut","lat":41.73699,"lng":-72.15723,"zip":"06256","miles_from_dt":22.77},{"city":"Rogers","state_name":"Connecticut","lat":41.83738,"lng":-71.90444,"zip":"06263","miles_from_dt":22.89},{"city":"Ballouville","state_name":"Connecticut","lat":41.87311,"lng":-71.8635,"zip":"06233","miles_from_dt":22.99},{"city":"Paxton","state_name":"Massachusetts","lat":42.31037,"lng":-71.93095,"zip":"01612","miles_from_dt":23.02},{"city":"Bolton","state_name":"Connecticut","lat":41.76647,"lng":-72.43903,"zip":"06043","miles_from_dt":23.07},{"city":"Feeding Hills","state_name":"Massachusetts","lat":42.06869,"lng":-72.67967,"zip":"01030","miles_from_dt":23.09},{"city":"South Barre","state_name":"Massachusetts","lat":42.3837,"lng":-72.10021,"zip":"01074","miles_from_dt":23.17},{"city":"East Windsor Hill","state_name":"Connecticut","lat":41.86415,"lng":-72.5999,"zip":"06028","miles_from_dt":23.42},{"city":"Worcester","state_name":"Massachusetts","lat":42.24373,"lng":-71.84429,"zip":"01603","miles_from_dt":23.47},{"city":"Holyoke","state_name":"Massachusetts","lat":42.21251,"lng":-72.64109,"zip":"01040","miles_from_dt":23.49},{"city":"South Windsor","state_name":"Connecticut","lat":41.83528,"lng":-72.57332,"zip":"06074","miles_from_dt":23.6},{"city":"Brooklyn","state_name":"Connecticut","lat":41.78938,"lng":-71.95266,"zip":"06234","miles_from_dt":23.67},{"city":"Hartford","state_name":"Connecticut","lat":41.92683,"lng":-72.65442,"zip":"06199","miles_from_dt":23.73},{"city":"Windsor Locks","state_name":"Connecticut","lat":41.92671,"lng":-72.65443,"zip":"06096","miles_from_dt":23.73},{"city":"Manchester","state_name":"Connecticut","lat":41.79743,"lng":-72.52704,"zip":"06042","miles_from_dt":23.82},{"city":"Andover","state_name":"Connecticut","lat":41.73309,"lng":-72.37603,"zip":"06232","miles_from_dt":23.92},{"city":"Dayville","state_name":"Connecticut","lat":41.85635,"lng":-71.84904,"zip":"06241","miles_from_dt":24.27},{"city":"Worcester","state_name":"Massachusetts","lat":42.27219,"lng":-71.84946,"zip":"01602","miles_from_dt":24.36},{"city":"Willimantic","state_name":"Connecticut","lat":41.70816,"lng":-72.20731,"zip":"06226","miles_from_dt":24.47},{"city":"Douglas","state_name":"Massachusetts","lat":42.0528,"lng":-71.75106,"zip":"01516","miles_from_dt":24.69},{"city":"Amherst","state_name":"Massachusetts","lat":42.37633,"lng":-72.46462,"zip":"01002","miles_from_dt":24.77},{"city":"Manchester","state_name":"Connecticut","lat":41.77495,"lng":-72.52156,"zip":"06041","miles_from_dt":24.86},{"city":"Manchester","state_name":"Connecticut","lat":41.77573,"lng":-72.5232,"zip":"06045","miles_from_dt":24.87},{"city":"Manchaug","state_name":"Massachusetts","lat":42.08955,"lng":-71.74667,"zip":"01526","miles_from_dt":24.97},{"city":"Worcester","state_name":"Massachusetts","lat":42.24645,"lng":-71.80968,"zip":"01610","miles_from_dt":25.09},{"city":"Sutton","state_name":"Massachusetts","lat":42.13387,"lng":-71.75179,"zip":"01590","miles_from_dt":25.11},{"city":"Millbury","state_name":"Massachusetts","lat":42.19228,"lng":-71.77397,"zip":"01527","miles_from_dt":25.13},{"city":"Worcester","state_name":"Massachusetts","lat":42.22684,"lng":-71.79037,"zip":"01607","miles_from_dt":25.31},{"city":"Barre","state_name":"Massachusetts","lat":42.42117,"lng":-72.10655,"zip":"01005","miles_from_dt":25.58},{"city":"Manchester","state_name":"Connecticut","lat":41.7616,"lng":-72.52247,"zip":"06040","miles_from_dt":25.63},{"city":"West Suffield","state_name":"Connecticut","lat":42.00265,"lng":-72.72285,"zip":"06093","miles_from_dt":25.65},{"city":"Poquonock","state_name":"Connecticut","lat":41.90596,"lng":-72.68268,"zip":"06064","miles_from_dt":25.65},{"city":"Windsor","state_name":"Connecticut","lat":41.85424,"lng":-72.64405,"zip":"06006","miles_from_dt":25.68},{"city":"Columbia","state_name":"Connecticut","lat":41.69387,"lng":-72.30722,"zip":"06237","miles_from_dt":25.73},{"city":"Worcester","state_name":"Massachusetts","lat":42.28592,"lng":-71.82853,"zip":"01609","miles_from_dt":25.78},{"city":"Pascoag","state_name":"Rhode Island","lat":41.9665,"lng":-71.7464,"zip":"02859","miles_from_dt":25.8},{"city":"Scotland","state_name":"Connecticut","lat":41.69869,"lng":-72.10487,"zip":"06264","miles_from_dt":25.92},{"city":"Worcester","state_name":"Massachusetts","lat":42.27022,"lng":-71.80933,"zip":"01615","miles_from_dt":25.97},{"city":"Windham","state_name":"Connecticut","lat":41.69237,"lng":-72.13829,"zip":"06280","miles_from_dt":25.98},{"city":"Worcester","state_name":"Massachusetts","lat":42.2711,"lng":-71.80974,"zip":"01601","miles_from_dt":25.98},{"city":"Worcester","state_name":"Massachusetts","lat":42.2621,"lng":-71.80145,"zip":"01608","miles_from_dt":26.01},{"city":"Rutland","state_name":"Massachusetts","lat":42.38482,"lng":-71.96726,"zip":"01543","miles_from_dt":26.04},{"city":"Worcester","state_name":"Massachusetts","lat":42.26092,"lng":-71.79949,"zip":"01614","miles_from_dt":26.05},{"city":"Windsor","state_name":"Connecticut","lat":41.87229,"lng":-72.67348,"zip":"06095","miles_from_dt":26.3},{"city":"Worcester","state_name":"Massachusetts","lat":42.26574,"lng":-71.79653,"zip":"01613","miles_from_dt":26.35},{"city":"Amherst","state_name":"Massachusetts","lat":42.37633,"lng":-72.52327,"zip":"01003","miles_from_dt":26.36},{"city":"East Killingly","state_name":"Connecticut","lat":41.84743,"lng":-71.80701,"zip":"06243","miles_from_dt":26.4},{"city":"Amherst","state_name":"Massachusetts","lat":42.38394,"lng":-72.51183,"zip":"01004","miles_from_dt":26.47},{"city":"Hadley","state_name":"Massachusetts","lat":42.35563,"lng":-72.5692,"zip":"01035","miles_from_dt":26.67},{"city":"Danielson","state_name":"Connecticut","lat":41.79116,"lng":-71.85711,"zip":"06239","miles_from_dt":26.86},{"city":"Worcester","state_name":"Massachusetts","lat":42.25085,"lng":-71.7683,"zip":"01604","miles_from_dt":27.08},{"city":"Holden","state_name":"Massachusetts","lat":42.33685,"lng":-71.85181,"zip":"01520","miles_from_dt":27.16},{"city":"South Windham","state_name":"Connecticut","lat":41.67136,"lng":-72.17048,"zip":"06266","miles_from_dt":27.16},{"city":"Northampton","state_name":"Massachusetts","lat":42.32218,"lng":-72.63126,"zip":"01060","miles_from_dt":27.28},{"city":"New Salem","state_name":"Massachusetts","lat":42.45101,"lng":-72.33141,"zip":"01355","miles_from_dt":27.32},{"city":"Northampton","state_name":"Massachusetts","lat":42.31962,"lng":-72.63951,"zip":"01063","miles_from_dt":27.48},{"city":"Wauregan","state_name":"Connecticut","lat":41.74418,"lng":-71.90981,"zip":"06387","miles_from_dt":27.5},{"city":"East Granby","state_name":"Connecticut","lat":41.94242,"lng":-72.74093,"zip":"06026","miles_from_dt":27.53},{"city":"Westfield","state_name":"Massachusetts","lat":42.14018,"lng":-72.75607,"zip":"01086","miles_from_dt":27.53},{"city":"Hebron","state_name":"Connecticut","lat":41.68468,"lng":-72.40523,"zip":"06248","miles_from_dt":27.57},{"city":"Worcester","state_name":"Massachusetts","lat":42.28979,"lng":-71.78802,"zip":"01605","miles_from_dt":27.63},{"city":"Canterbury","state_name":"Connecticut","lat":41.69717,"lng":-72.00109,"zip":"06331","miles_from_dt":27.85},{"city":"East Hartford","state_name":"Connecticut","lat":41.78177,"lng":-72.62246,"zip":"06128","miles_from_dt":27.97},{"city":"East Hartford","state_name":"Connecticut","lat":41.78078,"lng":-72.62165,"zip":"06108","miles_from_dt":27.99},{"city":"Worcester","state_name":"Massachusetts","lat":42.2927,"lng":-71.77904,"zip":"01653","miles_from_dt":28.12},{"city":"Southwick","state_name":"Massachusetts","lat":42.05441,"lng":-72.77851,"zip":"01077","miles_from_dt":28.17},{"city":"Worcester","state_name":"Massachusetts","lat":42.31367,"lng":-71.79614,"zip":"01606","miles_from_dt":28.26},{"city":"Worcester","state_name":"Massachusetts","lat":42.27687,"lng":-71.76122,"zip":"01655","miles_from_dt":28.3},{"city":"Central Village","state_name":"Connecticut","lat":41.72845,"lng":-71.91008,"zip":"06332","miles_from_dt":28.36},{"city":"Westfield","state_name":"Massachusetts","lat":42.15375,"lng":-72.76961,"zip":"01085","miles_from_dt":28.4},{"city":"Southampton","state_name":"Massachusetts","lat":42.23084,"lng":-72.73856,"zip":"01073","miles_from_dt":28.55},{"city":"East Hartford","state_name":"Connecticut","lat":41.76168,"lng":-72.61261,"zip":"06138","miles_from_dt":28.6},{"city":"North Amherst","state_name":"Massachusetts","lat":42.41329,"lng":-72.53051,"zip":"01059","miles_from_dt":28.69},{"city":"Jefferson","state_name":"Massachusetts","lat":42.38142,"lng":-71.87111,"zip":"01522","miles_from_dt":28.73},{"city":"Hartford","state_name":"Connecticut","lat":41.79222,"lng":-72.66532,"zip":"06141","miles_from_dt":29.14},{"city":"East Hartford","state_name":"Connecticut","lat":41.74871,"lng":-72.60976,"zip":"06118","miles_from_dt":29.16},{"city":"Whitinsville","state_name":"Massachusetts","lat":42.11837,"lng":-71.66836,"zip":"01588","miles_from_dt":29.17},{"city":"Hartford","state_name":"Connecticut","lat":41.78982,"lng":-72.6637,"zip":"06140","miles_from_dt":29.18},{"city":"Hartford","state_name":"Connecticut","lat":41.78944,"lng":-72.66523,"zip":"06120","miles_from_dt":29.26},{"city":"Hartford","state_name":"Connecticut","lat":41.79182,"lng":-72.66828,"zip":"06145","miles_from_dt":29.27},{"city":"Hartford","state_name":"Connecticut","lat":41.7889,"lng":-72.66525,"zip":"06104","miles_from_dt":29.28},{"city":"Hartford","state_name":"Connecticut","lat":41.78857,"lng":-72.66512,"zip":"06146","miles_from_dt":29.29},{"city":"Glastonbury","state_name":"Connecticut","lat":41.70593,"lng":-72.53915,"zip":"06033","miles_from_dt":29.29},{"city":"Shutesbury","state_name":"Massachusetts","lat":42.46327,"lng":-72.41893,"zip":"01072","miles_from_dt":29.31},{"city":"Hartford","state_name":"Connecticut","lat":41.79111,"lng":-72.66868,"zip":"06147","miles_from_dt":29.32},{"city":"Hartford","state_name":"Connecticut","lat":41.78822,"lng":-72.66567,"zip":"06101","miles_from_dt":29.33},{"city":"Hartford","state_name":"Connecticut","lat":41.79084,"lng":-72.66892,"zip":"06143","miles_from_dt":29.34},{"city":"Hartford","state_name":"Connecticut","lat":41.79073,"lng":-72.66999,"zip":"06144","miles_from_dt":29.39},{"city":"Hatfield","state_name":"Massachusetts","lat":42.38466,"lng":-72.60559,"zip":"01038","miles_from_dt":29.4},{"city":"South Grafton","state_name":"Massachusetts","lat":42.17496,"lng":-71.67762,"zip":"01560","miles_from_dt":29.47},{"city":"Shrewsbury","state_name":"Massachusetts","lat":42.29182,"lng":-71.74599,"zip":"01546","miles_from_dt":29.5},{"city":"Petersham","state_name":"Massachusetts","lat":42.48858,"lng":-72.18564,"zip":"01366","miles_from_dt":29.51},{"city":"Chepachet","state_name":"Rhode Island","lat":41.89959,"lng":-71.69888,"zip":"02814","miles_from_dt":29.61},{"city":"Tariffville","state_name":"Connecticut","lat":41.90708,"lng":-72.76839,"zip":"06081","miles_from_dt":29.68},{"city":"Northampton","state_name":"Massachusetts","lat":42.32334,"lng":-72.69035,"zip":"01061","miles_from_dt":29.68},{"city":"Florence","state_name":"Massachusetts","lat":42.32146,"lng":-72.69244,"zip":"01062","miles_from_dt":29.68},{"city":"Lebanon","state_name":"Connecticut","lat":41.63128,"lng":-72.24019,"zip":"06249","miles_from_dt":29.75},{"city":"Hanover","state_name":"Connecticut","lat":41.64829,"lng":-72.0693,"zip":"06350","miles_from_dt":29.77},{"city":"Grafton","state_name":"Massachusetts","lat":42.20077,"lng":-71.67892,"zip":"01519","miles_from_dt":29.92}],"targetCityZipCode":"01081","targetCityState":"Massachusetts"},"__N_SSG":true}