{"pageProps":{"stateName":"New-york","cityName":"ancram","nearbyCities":[{"city":"Ancramdale","state_name":"New York","lat":42.03615,"lng":-73.58139,"zip":"12503","miles_from_dt":4.95},{"city":"Elizaville","state_name":"New York","lat":42.08627,"lng":-73.75311,"zip":"12523","miles_from_dt":5.1},{"city":"Copake","state_name":"New York","lat":42.10722,"lng":-73.55343,"zip":"12516","miles_from_dt":5.43},{"city":"Craryville","state_name":"New York","lat":42.17071,"lng":-73.65164,"zip":"12521","miles_from_dt":6.04},{"city":"Pine Plains","state_name":"New York","lat":41.98206,"lng":-73.65211,"zip":"12567","miles_from_dt":6.98},{"city":"Livingston","state_name":"New York","lat":42.14151,"lng":-73.7782,"zip":"12541","miles_from_dt":7.54},{"city":"Copake Falls","state_name":"New York","lat":42.13392,"lng":-73.51103,"zip":"12517","miles_from_dt":8.14},{"city":"Hollowville","state_name":"New York","lat":42.20692,"lng":-73.68413,"zip":"12530","miles_from_dt":8.67},{"city":"Red Hook","state_name":"New York","lat":42.00663,"lng":-73.81152,"zip":"12571","miles_from_dt":9.67},{"city":"South Egremont","state_name":"Massachusetts","lat":42.09396,"lng":-73.46616,"zip":"01258","miles_from_dt":9.69},{"city":"Claverack","state_name":"New York","lat":42.21661,"lng":-73.71639,"zip":"12513","miles_from_dt":9.75},{"city":"Millerton","state_name":"New York","lat":41.96627,"lng":-73.53313,"zip":"12546","miles_from_dt":10.19},{"city":"Hillsdale","state_name":"New York","lat":42.21335,"lng":-73.53802,"zip":"12529","miles_from_dt":10.78},{"city":"Germantown","state_name":"New York","lat":42.12236,"lng":-73.85938,"zip":"12526","miles_from_dt":10.89},{"city":"Hudson","state_name":"New York","lat":42.22434,"lng":-73.75427,"zip":"12534","miles_from_dt":11.01},{"city":"Philmont","state_name":"New York","lat":42.24849,"lng":-73.64584,"zip":"12565","miles_from_dt":11.41},{"city":"Tivoli","state_name":"New York","lat":42.05625,"lng":-73.88014,"zip":"12583","miles_from_dt":11.77},{"city":"Mellenville","state_name":"New York","lat":42.26129,"lng":-73.66822,"zip":"12544","miles_from_dt":12.31},{"city":"Stanfordville","state_name":"New York","lat":41.90625,"lng":-73.69374,"zip":"12581","miles_from_dt":12.38},{"city":"Salisbury","state_name":"Connecticut","lat":42.01404,"lng":-73.42121,"zip":"06068","miles_from_dt":12.9},{"city":"Taconic","state_name":"Connecticut","lat":42.04174,"lng":-73.39755,"zip":"06079","miles_from_dt":13.5},{"city":"North Egremont","state_name":"Massachusetts","lat":42.1967,"lng":-73.43628,"zip":"01252","miles_from_dt":13.66},{"city":"Annandale On Hudson","state_name":"New York","lat":42.02342,"lng":-73.9094,"zip":"12504","miles_from_dt":13.77},{"city":"West Camp","state_name":"New York","lat":42.12355,"lng":-73.9251,"zip":"12490","miles_from_dt":14.2},{"city":"Lakeville","state_name":"Connecticut","lat":41.95001,"lng":-73.44379,"zip":"06039","miles_from_dt":14.2},{"city":"Bangall","state_name":"New York","lat":41.87513,"lng":-73.69038,"zip":"12506","miles_from_dt":14.48},{"city":"Sheffield","state_name":"Massachusetts","lat":42.0976,"lng":-73.37241,"zip":"01257","miles_from_dt":14.51},{"city":"Malden On Hudson","state_name":"New York","lat":42.0929,"lng":-73.93629,"zip":"12453","miles_from_dt":14.52},{"city":"Barrytown","state_name":"New York","lat":42.00735,"lng":-73.92126,"zip":"12507","miles_from_dt":14.71},{"city":"Stottville","state_name":"New York","lat":42.28915,"lng":-73.73895,"zip":"12172","miles_from_dt":14.86},{"city":"Ghent","state_name":"New York","lat":42.30145,"lng":-73.64046,"zip":"12075","miles_from_dt":15.08},{"city":"Glasco","state_name":"New York","lat":42.04702,"lng":-73.94403,"zip":"12432","miles_from_dt":15.12},{"city":"Rhinebeck","state_name":"New York","lat":41.92548,"lng":-73.8717,"zip":"12572","miles_from_dt":15.62},{"city":"Clinton Corners","state_name":"New York","lat":41.87137,"lng":-73.76274,"zip":"12514","miles_from_dt":15.66},{"city":"Athens","state_name":"New York","lat":42.28315,"lng":-73.82543,"zip":"12015","miles_from_dt":16.36},{"city":"Amenia","state_name":"New York","lat":41.85664,"lng":-73.55953,"zip":"12501","miles_from_dt":16.38},{"city":"Columbiaville","state_name":"New York","lat":42.31504,"lng":-73.74881,"zip":"12050","miles_from_dt":16.72},{"city":"Catskill","state_name":"New York","lat":42.2211,"lng":-73.92356,"zip":"12414","miles_from_dt":16.79},{"city":"Ashley Falls","state_name":"Massachusetts","lat":42.06242,"lng":-73.32146,"zip":"01222","miles_from_dt":17.16},{"city":"Great Barrington","state_name":"Massachusetts","lat":42.18197,"lng":-73.34244,"zip":"01230","miles_from_dt":17.4},{"city":"Spencertown","state_name":"New York","lat":42.31518,"lng":-73.50756,"zip":"12165","miles_from_dt":17.69},{"city":"Saugerties","state_name":"New York","lat":42.08528,"lng":-74.00028,"zip":"12477","miles_from_dt":17.8},{"city":"Mount Marion","state_name":"New York","lat":42.03308,"lng":-73.99703,"zip":"12456","miles_from_dt":17.98},{"city":"Chatham","state_name":"New York","lat":42.33506,"lng":-73.55714,"zip":"12037","miles_from_dt":18.08},{"city":"Lake Katrine","state_name":"New York","lat":41.99377,"lng":-73.99338,"zip":"12449","miles_from_dt":18.52},{"city":"Canaan","state_name":"Connecticut","lat":42.02872,"lng":-73.29807,"zip":"06018","miles_from_dt":18.69},{"city":"Rhinecliff","state_name":"New York","lat":41.91764,"lng":-73.94566,"zip":"12574","miles_from_dt":18.87},{"city":"Austerlitz","state_name":"New York","lat":42.31453,"lng":-73.45682,"zip":"12017","miles_from_dt":18.9},{"city":"Stuyvesant Falls","state_name":"New York","lat":42.35314,"lng":-73.72802,"zip":"12174","miles_from_dt":19.01},{"city":"Housatonic","state_name":"Massachusetts","lat":42.26923,"lng":-73.37999,"zip":"01236","miles_from_dt":19.05},{"city":"Ruby","state_name":"New York","lat":42.01397,"lng":-74.01332,"zip":"12475","miles_from_dt":19.09},{"city":"Sharon","state_name":"Connecticut","lat":41.85392,"lng":-73.4448,"zip":"06069","miles_from_dt":19.15},{"city":"Falls Village","state_name":"Connecticut","lat":41.95788,"lng":-73.31733,"zip":"06031","miles_from_dt":19.37},{"city":"Staatsburg","state_name":"New York","lat":41.85348,"lng":-73.87302,"zip":"12580","miles_from_dt":19.46},{"city":"Mill River","state_name":"Massachusetts","lat":42.10924,"lng":-73.27475,"zip":"01244","miles_from_dt":19.58},{"city":"East Canaan","state_name":"Connecticut","lat":42.00812,"lng":-73.28374,"zip":"06024","miles_from_dt":19.75},{"city":"Palenville","state_name":"New York","lat":42.1895,"lng":-74.01573,"zip":"12463","miles_from_dt":19.97},{"city":"West Stockbridge","state_name":"Massachusetts","lat":42.30264,"lng":-73.39846,"zip":"01266","miles_from_dt":20.04},{"city":"South Cairo","state_name":"New York","lat":42.26841,"lng":-73.95587,"zip":"12482","miles_from_dt":20.08},{"city":"Millbrook","state_name":"New York","lat":41.7914,"lng":-73.67251,"zip":"12545","miles_from_dt":20.16},{"city":"Coxsackie","state_name":"New York","lat":42.34493,"lng":-73.83938,"zip":"12051","miles_from_dt":20.41},{"city":"Salt Point","state_name":"New York","lat":41.80629,"lng":-73.79673,"zip":"12578","miles_from_dt":20.48},{"city":"Port Ewen","state_name":"New York","lat":41.90671,"lng":-73.97826,"zip":"12466","miles_from_dt":20.66},{"city":"Connelly","state_name":"New York","lat":41.9073,"lng":-73.98943,"zip":"12417","miles_from_dt":21.11},{"city":"Wassaic","state_name":"New York","lat":41.78601,"lng":-73.5528,"zip":"12592","miles_from_dt":21.17},{"city":"Glendale","state_name":"Massachusetts","lat":42.29411,"lng":-73.35227,"zip":"01229","miles_from_dt":21.26},{"city":"Kinderhook","state_name":"New York","lat":42.38871,"lng":-73.71228,"zip":"12106","miles_from_dt":21.29},{"city":"Leeds","state_name":"New York","lat":42.30337,"lng":-73.94802,"zip":"12451","miles_from_dt":21.41},{"city":"Southfield","state_name":"Massachusetts","lat":42.07316,"lng":-73.23282,"zip":"01259","miles_from_dt":21.67},{"city":"West Cornwall","state_name":"Connecticut","lat":41.87595,"lng":-73.33255,"zip":"06796","miles_from_dt":21.88},{"city":"Stuyvesant","state_name":"New York","lat":42.39042,"lng":-73.76196,"zip":"12173","miles_from_dt":21.91},{"city":"Kingston","state_name":"New York","lat":41.93239,"lng":-74.03233,"zip":"12402","miles_from_dt":22.08},{"city":"Stockbridge","state_name":"Massachusetts","lat":42.28901,"lng":-73.31953,"zip":"01263","miles_from_dt":22.29},{"city":"Round Top","state_name":"New York","lat":42.26157,"lng":-74.02827,"zip":"12473","miles_from_dt":22.82},{"city":"Stockbridge","state_name":"Massachusetts","lat":42.30433,"lng":-73.32013,"zip":"01262","miles_from_dt":22.95},{"city":"Earlton","state_name":"New York","lat":42.3498,"lng":-73.923,"zip":"12058","miles_from_dt":23},{"city":"Kingston","state_name":"New York","lat":41.93504,"lng":-74.05446,"zip":"12401","miles_from_dt":23.01},{"city":"Haines Falls","state_name":"New York","lat":42.20447,"lng":-74.0746,"zip":"12436","miles_from_dt":23.16},{"city":"Ulster Park","state_name":"New York","lat":41.86095,"lng":-73.99555,"zip":"12487","miles_from_dt":23.34},{"city":"South Lee","state_name":"Massachusetts","lat":42.26663,"lng":-73.2712,"zip":"01260","miles_from_dt":23.38},{"city":"Esopus","state_name":"New York","lat":41.83323,"lng":-73.961,"zip":"12429","miles_from_dt":23.4},{"city":"Valatie","state_name":"New York","lat":42.42272,"lng":-73.65387,"zip":"12184","miles_from_dt":23.43},{"city":"Hyde Park","state_name":"New York","lat":41.79246,"lng":-73.89336,"zip":"12538","miles_from_dt":23.55},{"city":"Woodstock","state_name":"New York","lat":42.04772,"lng":-74.11007,"zip":"12498","miles_from_dt":23.58},{"city":"Monterey","state_name":"Massachusetts","lat":42.19043,"lng":-73.21579,"zip":"01245","miles_from_dt":23.7},{"city":"West Coxsackie","state_name":"New York","lat":42.40428,"lng":-73.82136,"zip":"12192","miles_from_dt":23.76},{"city":"Cornwall","state_name":"Connecticut","lat":41.82514,"lng":-73.34471,"zip":"06753","miles_from_dt":23.9},{"city":"Climax","state_name":"New York","lat":42.38185,"lng":-73.89162,"zip":"12042","miles_from_dt":23.94},{"city":"East Chatham","state_name":"New York","lat":42.41325,"lng":-73.49284,"zip":"12060","miles_from_dt":24.23},{"city":"Purling","state_name":"New York","lat":42.26932,"lng":-74.05515,"zip":"12470","miles_from_dt":24.27},{"city":"Elka Park","state_name":"New York","lat":42.14771,"lng":-74.11921,"zip":"12427","miles_from_dt":24.31},{"city":"Bloomington","state_name":"New York","lat":41.87975,"lng":-74.04094,"zip":"12411","miles_from_dt":24.37},{"city":"Hurley","state_name":"New York","lat":41.93388,"lng":-74.08536,"zip":"12443","miles_from_dt":24.48},{"city":"Old Chatham","state_name":"New York","lat":42.43249,"lng":-73.56016,"zip":"12136","miles_from_dt":24.58},{"city":"Niverville","state_name":"New York","lat":42.44156,"lng":-73.65835,"zip":"12130","miles_from_dt":24.73},{"city":"Norfolk","state_name":"Connecticut","lat":41.97186,"lng":-73.1958,"zip":"06058","miles_from_dt":24.8},{"city":"Dover Plains","state_name":"New York","lat":41.72693,"lng":-73.58893,"zip":"12522","miles_from_dt":24.82},{"city":"Cairo","state_name":"New York","lat":42.31338,"lng":-74.02628,"zip":"12413","miles_from_dt":24.84},{"city":"Verbank","state_name":"New York","lat":41.72396,"lng":-73.7025,"zip":"12585","miles_from_dt":24.92},{"city":"Canaan","state_name":"New York","lat":42.40397,"lng":-73.42466,"zip":"12029","miles_from_dt":25.07},{"city":"Pleasant Valley","state_name":"New York","lat":41.7346,"lng":-73.79731,"zip":"12569","miles_from_dt":25.17},{"city":"Richmond","state_name":"Massachusetts","lat":42.37972,"lng":-73.36608,"zip":"01254","miles_from_dt":25.24},{"city":"Kent","state_name":"Connecticut","lat":41.73951,"lng":-73.46637,"zip":"06757","miles_from_dt":25.62},{"city":"Tyringham","state_name":"Massachusetts","lat":42.23997,"lng":-73.19686,"zip":"01264","miles_from_dt":25.85},{"city":"West Hurley","state_name":"New York","lat":41.96957,"lng":-74.13311,"zip":"12491","miles_from_dt":25.87},{"city":"West Park","state_name":"New York","lat":41.79316,"lng":-73.97283,"zip":"12493","miles_from_dt":25.9},{"city":"New Baltimore","state_name":"New York","lat":42.44652,"lng":-73.78494,"zip":"12124","miles_from_dt":25.96},{"city":"Rifton","state_name":"New York","lat":41.83799,"lng":-74.04195,"zip":"12471","miles_from_dt":26.19},{"city":"Glenford","state_name":"New York","lat":42.00533,"lng":-74.15526,"zip":"12433","miles_from_dt":26.34},{"city":"Bearsville","state_name":"New York","lat":42.05662,"lng":-74.16655,"zip":"12409","miles_from_dt":26.42},{"city":"Cornwall Bridge","state_name":"Connecticut","lat":41.76841,"lng":-73.36127,"zip":"06754","miles_from_dt":26.46},{"city":"Surprise","state_name":"New York","lat":42.38839,"lng":-73.96787,"zip":"12176","miles_from_dt":26.51},{"city":"Lee","state_name":"Massachusetts","lat":42.30072,"lng":-73.22553,"zip":"01238","miles_from_dt":26.63},{"city":"Freehold","state_name":"New York","lat":42.35877,"lng":-74.01843,"zip":"12431","miles_from_dt":26.67},{"city":"Malden Bridge","state_name":"New York","lat":42.46747,"lng":-73.59338,"zip":"12115","miles_from_dt":26.7},{"city":"Hannacroix","state_name":"New York","lat":42.42794,"lng":-73.8931,"zip":"12087","miles_from_dt":26.76},{"city":"North Chatham","state_name":"New York","lat":42.47102,"lng":-73.63362,"zip":"12132","miles_from_dt":26.79},{"city":"Tannersville","state_name":"New York","lat":42.20507,"lng":-74.15288,"zip":"12485","miles_from_dt":26.96},{"city":"Goshen","state_name":"Connecticut","lat":41.84714,"lng":-73.23715,"zip":"06756","miles_from_dt":26.96},{"city":"Lenox Dale","state_name":"Massachusetts","lat":42.3334,"lng":-73.24967,"zip":"01242","miles_from_dt":27},{"city":"Rosendale","state_name":"New York","lat":41.84732,"lng":-74.07447,"zip":"12472","miles_from_dt":27.09},{"city":"Tillson","state_name":"New York","lat":41.83438,"lng":-74.06235,"zip":"12486","miles_from_dt":27.15},{"city":"Sandisfield","state_name":"Massachusetts","lat":42.1068,"lng":-73.12213,"zip":"01255","miles_from_dt":27.39},{"city":"East Jewett","state_name":"New York","lat":42.24689,"lng":-74.14358,"zip":"12424","miles_from_dt":27.56},{"city":"Schodack Landing","state_name":"New York","lat":42.47764,"lng":-73.74354,"zip":"12156","miles_from_dt":27.61},{"city":"Cottekill","state_name":"New York","lat":41.85948,"lng":-74.10265,"zip":"12419","miles_from_dt":27.79},{"city":"Acra","state_name":"New York","lat":42.31585,"lng":-74.0989,"zip":"12405","miles_from_dt":27.91},{"city":"Lake Hill","state_name":"New York","lat":42.07955,"lng":-74.20067,"zip":"12448","miles_from_dt":28.1},{"city":"Brainard","state_name":"New York","lat":42.48134,"lng":-73.53419,"zip":"12024","miles_from_dt":28.16},{"city":"Coeymans","state_name":"New York","lat":42.47974,"lng":-73.79682,"zip":"12045","miles_from_dt":28.33},{"city":"South Kent","state_name":"Connecticut","lat":41.70491,"lng":-73.43815,"zip":"06785","miles_from_dt":28.39},{"city":"Lenox","state_name":"Massachusetts","lat":42.37567,"lng":-73.26466,"zip":"01240","miles_from_dt":28.4},{"city":"Lagrangeville","state_name":"New York","lat":41.67073,"lng":-73.72524,"zip":"12540","miles_from_dt":28.71},{"city":"Billings","state_name":"New York","lat":41.67232,"lng":-73.76247,"zip":"12510","miles_from_dt":28.91},{"city":"West Lebanon","state_name":"New York","lat":42.47876,"lng":-73.46505,"zip":"12195","miles_from_dt":28.97},{"city":"Maplecrest","state_name":"New York","lat":42.2869,"lng":-74.15038,"zip":"12454","miles_from_dt":29.1},{"city":"Otis","state_name":"Massachusetts","lat":42.20751,"lng":-73.1118,"zip":"01253","miles_from_dt":29.14},{"city":"Winchester Center","state_name":"Connecticut","lat":41.90188,"lng":-73.1423,"zip":"06094","miles_from_dt":29.17},{"city":"Poughkeepsie","state_name":"New York","lat":41.70602,"lng":-73.91119,"zip":"12601","miles_from_dt":29.22},{"city":"Lanesville","state_name":"New York","lat":42.13804,"lng":-74.22176,"zip":"12450","miles_from_dt":29.42},{"city":"Ravena","state_name":"New York","lat":42.48525,"lng":-73.85218,"zip":"12143","miles_from_dt":29.55},{"city":"Wingdale","state_name":"New York","lat":41.66049,"lng":-73.56004,"zip":"12594","miles_from_dt":29.58},{"city":"Poughkeepsie","state_name":"New York","lat":41.70623,"lng":-73.92854,"zip":"12602","miles_from_dt":29.62},{"city":"Poughkeepsie","state_name":"New York","lat":41.68844,"lng":-73.89448,"zip":"12604","miles_from_dt":29.94}],"targetCityZipCode":"12502","targetCityState":"New York"},"__N_SSG":true}