{"pageProps":{"stateName":"New-york","cityName":"ellenburg-depot","nearbyCities":[{"city":"Ellenburg","state_name":"New York","lat":44.89118,"lng":-73.84512,"zip":"12933","miles_from_dt":3.42},{"city":"Ellenburg Center","state_name":"New York","lat":44.84603,"lng":-73.87659,"zip":"12934","miles_from_dt":4.1},{"city":"Altona","state_name":"New York","lat":44.8546,"lng":-73.64593,"zip":"12910","miles_from_dt":7.3},{"city":"Mooers Forks","state_name":"New York","lat":44.96073,"lng":-73.7014,"zip":"12959","miles_from_dt":8.49},{"city":"Lyon Mountain","state_name":"New York","lat":44.78934,"lng":-73.95855,"zip":"12955","miles_from_dt":9.32},{"city":"Churubusco","state_name":"New York","lat":44.94546,"lng":-73.95802,"zip":"12923","miles_from_dt":10.08},{"city":"Dannemora","state_name":"New York","lat":44.71971,"lng":-73.71909,"zip":"12929","miles_from_dt":10.19},{"city":"Lyon Mountain","state_name":"New York","lat":44.71181,"lng":-73.91362,"zip":"12952","miles_from_dt":11.61},{"city":"Brainardsville","state_name":"New York","lat":44.8535,"lng":-74.035,"zip":"12915","miles_from_dt":11.81},{"city":"Mooers","state_name":"New York","lat":44.95661,"lng":-73.57419,"zip":"12958","miles_from_dt":12.81},{"city":"Cadyville","state_name":"New York","lat":44.68975,"lng":-73.67863,"zip":"12918","miles_from_dt":12.89},{"city":"Chateaugay","state_name":"New York","lat":44.89332,"lng":-74.06016,"zip":"12920","miles_from_dt":13.28},{"city":"West Chazy","state_name":"New York","lat":44.81822,"lng":-73.51582,"zip":"12992","miles_from_dt":13.96},{"city":"Morrisonville","state_name":"New York","lat":44.70642,"lng":-73.60141,"zip":"12962","miles_from_dt":14.09},{"city":"Saranac","state_name":"New York","lat":44.62235,"lng":-73.84035,"zip":"12981","miles_from_dt":16.36},{"city":"Redford","state_name":"New York","lat":44.6181,"lng":-73.79589,"zip":"12978","miles_from_dt":16.5},{"city":"Owls Head","state_name":"New York","lat":44.71102,"lng":-74.0812,"zip":"12969","miles_from_dt":17.33},{"city":"Chazy","state_name":"New York","lat":44.89188,"lng":-73.43574,"zip":"12921","miles_from_dt":17.78},{"city":"Champlain","state_name":"New York","lat":44.96793,"lng":-73.45072,"zip":"12919","miles_from_dt":18.53},{"city":"Plattsburgh","state_name":"New York","lat":44.70842,"lng":-73.47465,"zip":"12901","miles_from_dt":18.79},{"city":"Burke","state_name":"New York","lat":44.92468,"lng":-74.17387,"zip":"12917","miles_from_dt":19.19},{"city":"Schuyler Falls","state_name":"New York","lat":44.56413,"lng":-73.73395,"zip":"12985","miles_from_dt":20.45},{"city":"Plattsburgh","state_name":"New York","lat":44.65698,"lng":-73.46306,"zip":"12903","miles_from_dt":21.38},{"city":"Isle La Motte","state_name":"Vermont","lat":44.86297,"lng":-73.34254,"zip":"05463","miles_from_dt":22.21},{"city":"Rouses Point","state_name":"New York","lat":44.98926,"lng":-73.37213,"zip":"12979","miles_from_dt":22.65},{"city":"Whippleville","state_name":"New York","lat":44.80833,"lng":-74.26124,"zip":"12995","miles_from_dt":23.17},{"city":"Peru","state_name":"New York","lat":44.559,"lng":-73.56516,"zip":"12972","miles_from_dt":23.48},{"city":"Malone","state_name":"New York","lat":44.74198,"lng":-74.26347,"zip":"12953","miles_from_dt":24.38},{"city":"Vermontville","state_name":"New York","lat":44.53935,"lng":-74.06439,"zip":"12989","miles_from_dt":25.65},{"city":"Alburgh","state_name":"Vermont","lat":44.95214,"lng":-73.2848,"zip":"05440","miles_from_dt":25.87},{"city":"North Hero","state_name":"Vermont","lat":44.83445,"lng":-73.26687,"zip":"05474","miles_from_dt":25.97},{"city":"Grand Isle","state_name":"Vermont","lat":44.71838,"lng":-73.29837,"zip":"05458","miles_from_dt":26.21},{"city":"Constable","state_name":"New York","lat":44.95223,"lng":-74.32214,"zip":"12926","miles_from_dt":26.71},{"city":"Au Sable Forks","state_name":"New York","lat":44.46233,"lng":-73.74201,"zip":"12912","miles_from_dt":27.38},{"city":"Keeseville","state_name":"New York","lat":44.53464,"lng":-73.46687,"zip":"12911","miles_from_dt":27.5},{"city":"Keeseville","state_name":"New York","lat":44.47589,"lng":-73.58751,"zip":"12924","miles_from_dt":28.23},{"city":"South Hero","state_name":"Vermont","lat":44.62958,"lng":-73.31444,"zip":"05486","miles_from_dt":28.38},{"city":"Port Kent","state_name":"New York","lat":44.52977,"lng":-73.431,"zip":"12975","miles_from_dt":28.84}],"targetCityZipCode":"12935","targetCityState":"New York"},"__N_SSG":true}