{"pageProps":{"stateName":"New-york","cityName":"glens-falls","nearbyCities":[{"city":"South Glens Falls","state_name":"New York","lat":43.28891,"lng":-73.63024,"zip":"12803","miles_from_dt":1.71},{"city":"Queensbury","state_name":"New York","lat":43.3375,"lng":-73.68307,"zip":"12804","miles_from_dt":2.64},{"city":"Hudson Falls","state_name":"New York","lat":43.34496,"lng":-73.55058,"zip":"12839","miles_from_dt":5.33},{"city":"Fort Edward","state_name":"New York","lat":43.25534,"lng":-73.56841,"zip":"12828","miles_from_dt":5.46},{"city":"Gansevoort","state_name":"New York","lat":43.19533,"lng":-73.68791,"zip":"12831","miles_from_dt":8.27},{"city":"Lake Luzerne","state_name":"New York","lat":43.34022,"lng":-73.80592,"zip":"12846","miles_from_dt":8.34},{"city":"Lake George","state_name":"New York","lat":43.42757,"lng":-73.70703,"zip":"12845","miles_from_dt":8.63},{"city":"Cleverdale","state_name":"New York","lat":43.46022,"lng":-73.64067,"zip":"12820","miles_from_dt":10.31},{"city":"Argyle","state_name":"New York","lat":43.24097,"lng":-73.4624,"zip":"12809","miles_from_dt":10.42},{"city":"Fort Ann","state_name":"New York","lat":43.44917,"lng":-73.51241,"zip":"12827","miles_from_dt":11.66},{"city":"Hartford","state_name":"New York","lat":43.34354,"lng":-73.40756,"zip":"12838","miles_from_dt":12.2},{"city":"Kattskill Bay","state_name":"New York","lat":43.49423,"lng":-73.64081,"zip":"12844","miles_from_dt":12.65},{"city":"Corinth","state_name":"New York","lat":43.2407,"lng":-73.88959,"zip":"12822","miles_from_dt":13.24},{"city":"Cossayuna","state_name":"New York","lat":43.17945,"lng":-73.40628,"zip":"12823","miles_from_dt":15.1},{"city":"Schuylerville","state_name":"New York","lat":43.09249,"lng":-73.61196,"zip":"12871","miles_from_dt":15.18},{"city":"Diamond Point","state_name":"New York","lat":43.5279,"lng":-73.71386,"zip":"12824","miles_from_dt":15.37},{"city":"Comstock","state_name":"New York","lat":43.45866,"lng":-73.41332,"zip":"12821","miles_from_dt":15.51},{"city":"Greenfield Center","state_name":"New York","lat":43.13866,"lng":-73.84355,"zip":"12833","miles_from_dt":15.54},{"city":"Victory Mills","state_name":"New York","lat":43.08855,"lng":-73.5921,"zip":"12884","miles_from_dt":15.59},{"city":"Middle Falls","state_name":"New York","lat":43.10241,"lng":-73.52636,"zip":"12848","miles_from_dt":15.6},{"city":"Greenwich","state_name":"New York","lat":43.09706,"lng":-73.50423,"zip":"12834","miles_from_dt":16.4},{"city":"Porter Corners","state_name":"New York","lat":43.16587,"lng":-73.90569,"zip":"12859","miles_from_dt":16.52},{"city":"Salem","state_name":"New York","lat":43.21225,"lng":-73.34191,"zip":"12865","miles_from_dt":16.76},{"city":"Saratoga Springs","state_name":"New York","lat":43.07537,"lng":-73.7401,"zip":"12866","miles_from_dt":16.95},{"city":"Granville","state_name":"New York","lat":43.36813,"lng":-73.31716,"zip":"12832","miles_from_dt":17.01},{"city":"Warrensburg","state_name":"New York","lat":43.52929,"lng":-73.83161,"zip":"12885","miles_from_dt":17.75},{"city":"Hadley","state_name":"New York","lat":43.32496,"lng":-74.00589,"zip":"12835","miles_from_dt":18.19},{"city":"North Granville","state_name":"New York","lat":43.45019,"lng":-73.32767,"zip":"12854","miles_from_dt":18.67},{"city":"Middle Granville","state_name":"New York","lat":43.44812,"lng":-73.2985,"zip":"12849","miles_from_dt":19.87},{"city":"Bolton Landing","state_name":"New York","lat":43.6004,"lng":-73.63678,"zip":"12814","miles_from_dt":19.99},{"city":"Athol","state_name":"New York","lat":43.49862,"lng":-73.95217,"zip":"12810","miles_from_dt":20.15},{"city":"Huletts Landing","state_name":"New York","lat":43.59919,"lng":-73.5165,"zip":"12841","miles_from_dt":20.93},{"city":"Whitehall","state_name":"New York","lat":43.54504,"lng":-73.37471,"zip":"12887","miles_from_dt":21.13},{"city":"West Pawlet","state_name":"Vermont","lat":43.35437,"lng":-73.22804,"zip":"05775","miles_from_dt":21.25},{"city":"Rupert","state_name":"Vermont","lat":43.29846,"lng":-73.22168,"zip":"05768","miles_from_dt":21.38},{"city":"Stillwater","state_name":"New York","lat":42.99936,"lng":-73.66234,"zip":"12170","miles_from_dt":21.53},{"city":"Shushan","state_name":"New York","lat":43.1185,"lng":-73.30682,"zip":"12873","miles_from_dt":21.65},{"city":"Stony Creek","state_name":"New York","lat":43.44217,"lng":-74.0479,"zip":"12878","miles_from_dt":22.2},{"city":"Middle Grove","state_name":"New York","lat":43.09886,"lng":-73.97941,"zip":"12850","miles_from_dt":22.33},{"city":"Cambridge","state_name":"New York","lat":43.05085,"lng":-73.37829,"zip":"12816","miles_from_dt":22.46},{"city":"Rock City Falls","state_name":"New York","lat":43.06031,"lng":-73.93162,"zip":"12863","miles_from_dt":22.55},{"city":"Clemons","state_name":"New York","lat":43.61144,"lng":-73.46315,"zip":"12819","miles_from_dt":22.68},{"city":"West Rupert","state_name":"Vermont","lat":43.24494,"lng":-73.20392,"zip":"05776","miles_from_dt":22.73},{"city":"Hampton","state_name":"New York","lat":43.50842,"lng":-73.26651,"zip":"12837","miles_from_dt":23.44},{"city":"Ballston Spa","state_name":"New York","lat":43.00208,"lng":-73.87401,"zip":"12020","miles_from_dt":24.25},{"city":"Chestertown","state_name":"New York","lat":43.63697,"lng":-73.82614,"zip":"12817","miles_from_dt":24.27},{"city":"Wells","state_name":"Vermont","lat":43.42708,"lng":-73.17435,"zip":"05774","miles_from_dt":25.04},{"city":"Pawlet","state_name":"Vermont","lat":43.34786,"lng":-73.14855,"zip":"05761","miles_from_dt":25.17},{"city":"Johnsburg","state_name":"New York","lat":43.5849,"lng":-73.97771,"zip":"12843","miles_from_dt":25.24},{"city":"Schaghticoke","state_name":"New York","lat":42.93713,"lng":-73.60124,"zip":"12154","miles_from_dt":25.9},{"city":"Arlington","state_name":"Vermont","lat":43.12048,"lng":-73.19337,"zip":"05250","miles_from_dt":26.34},{"city":"Wevertown","state_name":"New York","lat":43.63689,"lng":-73.92654,"zip":"12886","miles_from_dt":26.57},{"city":"Silver Bay","state_name":"New York","lat":43.69035,"lng":-73.54836,"zip":"12874","miles_from_dt":26.64},{"city":"East Poultney","state_name":"Vermont","lat":43.5271,"lng":-73.2064,"zip":"05741","miles_from_dt":26.66},{"city":"Galway","state_name":"New York","lat":43.05219,"lng":-74.04709,"zip":"12074","miles_from_dt":27.03},{"city":"Brant Lake","state_name":"New York","lat":43.70161,"lng":-73.69459,"zip":"12815","miles_from_dt":27.08},{"city":"Mechanicville","state_name":"New York","lat":42.92096,"lng":-73.72049,"zip":"12118","miles_from_dt":27.19},{"city":"Poultney","state_name":"Vermont","lat":43.52854,"lng":-73.19401,"zip":"05764","miles_from_dt":27.23},{"city":"Buskirk","state_name":"New York","lat":42.94545,"lng":-73.44213,"zip":"12028","miles_from_dt":27.25},{"city":"Round Lake","state_name":"New York","lat":42.92553,"lng":-73.78874,"zip":"12151","miles_from_dt":27.58},{"city":"Eagle Bridge","state_name":"New York","lat":42.97316,"lng":-73.34335,"zip":"12057","miles_from_dt":27.87},{"city":"Bakers Mills","state_name":"New York","lat":43.57502,"lng":-74.07508,"zip":"12811","miles_from_dt":28.27},{"city":"Broadalbin","state_name":"New York","lat":43.09142,"lng":-74.11924,"zip":"12025","miles_from_dt":28.32},{"city":"Dorset","state_name":"Vermont","lat":43.26189,"lng":-73.08269,"zip":"05251","miles_from_dt":28.58},{"city":"Riparius","state_name":"New York","lat":43.67419,"lng":-73.91878,"zip":"12862","miles_from_dt":28.59},{"city":"Valley Falls","state_name":"New York","lat":42.90102,"lng":-73.53507,"zip":"12185","miles_from_dt":28.84},{"city":"Middletown Springs","state_name":"Vermont","lat":43.48279,"lng":-73.12325,"zip":"05757","miles_from_dt":28.84},{"city":"Ballston Lake","state_name":"New York","lat":42.92993,"lng":-73.88245,"zip":"12019","miles_from_dt":28.91},{"city":"Hydeville","state_name":"Vermont","lat":43.60684,"lng":-73.2287,"zip":"05750","miles_from_dt":29.26},{"city":"Northville","state_name":"New York","lat":43.26533,"lng":-74.23059,"zip":"12134","miles_from_dt":29.68},{"city":"Pottersville","state_name":"New York","lat":43.72843,"lng":-73.80942,"zip":"12860","miles_from_dt":29.97}],"targetCityZipCode":"12801","targetCityState":"New York"},"__N_SSG":true}