{"pageProps":{"stateName":"New-york","cityName":"philadelphia","nearbyCities":[{"city":"Theresa","state_name":"New York","lat":44.22747,"lng":-75.78208,"zip":"13691","miles_from_dt":4.93},{"city":"Antwerp","state_name":"New York","lat":44.23879,"lng":-75.62508,"zip":"13608","miles_from_dt":6.69},{"city":"Evans Mills","state_name":"New York","lat":44.09751,"lng":-75.83346,"zip":"13637","miles_from_dt":7.54},{"city":"Fort Drum","state_name":"New York","lat":44.04877,"lng":-75.75747,"zip":"13602","miles_from_dt":8.63},{"city":"Antwerp","state_name":"New York","lat":44.28431,"lng":-75.61839,"zip":"13671","miles_from_dt":9.34},{"city":"Deferiet","state_name":"New York","lat":44.03764,"lng":-75.68307,"zip":"13628","miles_from_dt":9.41},{"city":"Great Bend","state_name":"New York","lat":44.03207,"lng":-75.71738,"zip":"13643","miles_from_dt":9.6},{"city":"Plessis","state_name":"New York","lat":44.28227,"lng":-75.83872,"zip":"13675","miles_from_dt":9.64},{"city":"Watertown","state_name":"New York","lat":44.03826,"lng":-75.79765,"zip":"13603","miles_from_dt":9.92},{"city":"Felts Mills","state_name":"New York","lat":44.02077,"lng":-75.75443,"zip":"13638","miles_from_dt":10.51},{"city":"Redwood","state_name":"New York","lat":44.32664,"lng":-75.76554,"zip":"13679","miles_from_dt":10.96},{"city":"La Fargeville","state_name":"New York","lat":44.19141,"lng":-75.95058,"zip":"13656","miles_from_dt":11.48},{"city":"Calcium","state_name":"New York","lat":44.02538,"lng":-75.85896,"zip":"13616","miles_from_dt":12.17},{"city":"Black River","state_name":"New York","lat":43.98571,"lng":-75.76911,"zip":"13612","miles_from_dt":13.02},{"city":"Alexandria Bay","state_name":"New York","lat":44.33233,"lng":-75.91187,"zip":"13607","miles_from_dt":14.61},{"city":"Carthage","state_name":"New York","lat":43.97705,"lng":-75.59432,"zip":"13619","miles_from_dt":14.81},{"city":"Fishers Landing","state_name":"New York","lat":44.27341,"lng":-76.00573,"zip":"13641","miles_from_dt":15.79},{"city":"Natural Bridge","state_name":"New York","lat":44.05227,"lng":-75.44933,"zip":"13665","miles_from_dt":15.82},{"city":"Gouverneur","state_name":"New York","lat":44.3263,"lng":-75.46742,"zip":"13642","miles_from_dt":16.54},{"city":"Hailesboro","state_name":"New York","lat":44.30878,"lng":-75.44655,"zip":"13645","miles_from_dt":16.63},{"city":"Watertown","state_name":"New York","lat":43.96949,"lng":-75.90965,"zip":"13601","miles_from_dt":16.78},{"city":"Thousand Island Park","state_name":"New York","lat":44.28861,"lng":-76.0258,"zip":"13692","miles_from_dt":17.16},{"city":"Wellesley Island","state_name":"New York","lat":44.3198,"lng":-75.99937,"zip":"13640","miles_from_dt":17.2},{"city":"Brownville","state_name":"New York","lat":44.00569,"lng":-75.98328,"zip":"13615","miles_from_dt":17.33},{"city":"Depauville","state_name":"New York","lat":44.12698,"lng":-76.06826,"zip":"13632","miles_from_dt":17.51},{"city":"Deer River","state_name":"New York","lat":43.92915,"lng":-75.59045,"zip":"13627","miles_from_dt":17.93},{"city":"Hammond","state_name":"New York","lat":44.44144,"lng":-75.69379,"zip":"13646","miles_from_dt":18.72},{"city":"Clayton","state_name":"New York","lat":44.22284,"lng":-76.09736,"zip":"13624","miles_from_dt":19.02},{"city":"Limerick","state_name":"New York","lat":44.0279,"lng":-76.05099,"zip":"13657","miles_from_dt":19.15},{"city":"Chippewa Bay","state_name":"New York","lat":44.44877,"lng":-75.75299,"zip":"13623","miles_from_dt":19.24},{"city":"Denmark","state_name":"New York","lat":43.90036,"lng":-75.58529,"zip":"13631","miles_from_dt":19.88},{"city":"Chaumont","state_name":"New York","lat":44.09654,"lng":-76.115,"zip":"13622","miles_from_dt":20.24},{"city":"Dexter","state_name":"New York","lat":44.01197,"lng":-76.07034,"zip":"13634","miles_from_dt":20.55},{"city":"Harrisville","state_name":"New York","lat":44.14977,"lng":-75.29908,"zip":"13648","miles_from_dt":21.04},{"city":"Copenhagen","state_name":"New York","lat":43.85143,"lng":-75.7202,"zip":"13626","miles_from_dt":22.07},{"city":"Castorland","state_name":"New York","lat":43.89989,"lng":-75.45265,"zip":"13620","miles_from_dt":23.01},{"city":"Beaver Falls","state_name":"New York","lat":43.89329,"lng":-75.43144,"zip":"13305","miles_from_dt":24.01},{"city":"Rodman","state_name":"New York","lat":43.84024,"lng":-75.88924,"zip":"13682","miles_from_dt":24.32},{"city":"De Peyster","state_name":"New York","lat":44.48259,"lng":-75.48825,"zip":"13633","miles_from_dt":24.42},{"city":"Edwards","state_name":"New York","lat":44.29915,"lng":-75.26188,"zip":"13635","miles_from_dt":24.46},{"city":"Sackets Harbor","state_name":"New York","lat":43.93343,"lng":-76.09399,"zip":"13685","miles_from_dt":24.77},{"city":"Brier Hill","state_name":"New York","lat":44.53081,"lng":-75.69194,"zip":"13614","miles_from_dt":24.88},{"city":"Richville","state_name":"New York","lat":44.42933,"lng":-75.37142,"zip":"13681","miles_from_dt":24.88},{"city":"Adams Center","state_name":"New York","lat":43.87007,"lng":-76.01601,"zip":"13606","miles_from_dt":25.44},{"city":"Croghan","state_name":"New York","lat":43.96047,"lng":-75.28474,"zip":"13327","miles_from_dt":26.15},{"city":"Three Mile Bay","state_name":"New York","lat":44.03237,"lng":-76.24824,"zip":"13693","miles_from_dt":27.91},{"city":"Cape Vincent","state_name":"New York","lat":44.11641,"lng":-76.27851,"zip":"13618","miles_from_dt":27.96},{"city":"Morristown","state_name":"New York","lat":44.58423,"lng":-75.64537,"zip":"13664","miles_from_dt":28.78},{"city":"Fine","state_name":"New York","lat":44.2594,"lng":-75.14324,"zip":"13639","miles_from_dt":29.35},{"city":"Lowville","state_name":"New York","lat":43.85563,"lng":-75.31772,"zip":"13367","miles_from_dt":29.64}],"targetCityZipCode":"13673","targetCityState":"New York"},"__N_SSG":true}