{"pageProps":{"stateName":"New-york","cityName":"sloatsburg","nearbyCities":[{"city":"Hillburn","state_name":"New York","lat":41.12769,"lng":-74.17012,"zip":"10931","miles_from_dt":2.35},{"city":"Suffern","state_name":"New York","lat":41.14554,"lng":-74.12504,"zip":"10901","miles_from_dt":3.5},{"city":"Tuxedo Park","state_name":"New York","lat":41.20737,"lng":-74.22284,"zip":"10987","miles_from_dt":3.8},{"city":"Mahwah","state_name":"New Jersey","lat":41.08157,"lng":-74.18562,"zip":"07430","miles_from_dt":5.3},{"city":"Mahwah","state_name":"New Jersey","lat":41.08113,"lng":-74.18666,"zip":"07495","miles_from_dt":5.33},{"city":"Ringwood","state_name":"New Jersey","lat":41.10647,"lng":-74.27487,"zip":"07456","miles_from_dt":5.69},{"city":"Tallman","state_name":"New York","lat":41.10654,"lng":-74.09865,"zip":"10982","miles_from_dt":5.95},{"city":"Greenwood Lake","state_name":"New York","lat":41.20076,"lng":-74.29535,"zip":"10925","miles_from_dt":6.23},{"city":"Monsey","state_name":"New York","lat":41.11385,"lng":-74.07975,"zip":"10952","miles_from_dt":6.51},{"city":"Pomona","state_name":"New York","lat":41.1852,"lng":-74.06568,"zip":"10970","miles_from_dt":6.74},{"city":"Sterling Forest","state_name":"New York","lat":41.18237,"lng":-74.31877,"zip":"10979","miles_from_dt":6.92},{"city":"Southfields","state_name":"New York","lat":41.25951,"lng":-74.17042,"zip":"10975","miles_from_dt":7.06},{"city":"Ramsey","state_name":"New Jersey","lat":41.05944,"lng":-74.14532,"zip":"07446","miles_from_dt":7.21},{"city":"Harriman","state_name":"New York","lat":41.25856,"lng":-74.1307,"zip":"10926","miles_from_dt":7.58},{"city":"Spring Valley","state_name":"New York","lat":41.11749,"lng":-74.04825,"zip":"10977","miles_from_dt":7.91},{"city":"Bellvale","state_name":"New York","lat":41.24733,"lng":-74.30386,"zip":"10912","miles_from_dt":8.55},{"city":"Stony Point","state_name":"New York","lat":41.23157,"lng":-74.05709,"zip":"10980","miles_from_dt":8.58},{"city":"Hewitt","state_name":"New Jersey","lat":41.1624,"lng":-74.35586,"zip":"07421","miles_from_dt":8.66},{"city":"Arden","state_name":"New York","lat":41.2773,"lng":-74.13625,"zip":"10910","miles_from_dt":8.68},{"city":"Allendale","state_name":"New Jersey","lat":41.03321,"lng":-74.13328,"zip":"07401","miles_from_dt":9.12},{"city":"Oakland","state_name":"New Jersey","lat":41.03135,"lng":-74.24081,"zip":"07436","miles_from_dt":9.15},{"city":"Saddle River","state_name":"New Jersey","lat":41.04583,"lng":-74.0971,"zip":"07458","miles_from_dt":9.15},{"city":"Wanaque","state_name":"New Jersey","lat":41.05015,"lng":-74.29849,"zip":"07465","miles_from_dt":9.37},{"city":"Thiells","state_name":"New York","lat":41.20928,"lng":-74.02008,"zip":"10984","miles_from_dt":9.53},{"city":"Nanuet","state_name":"New York","lat":41.09969,"lng":-74.01269,"zip":"10954","miles_from_dt":10.09},{"city":"New City","state_name":"New York","lat":41.15562,"lng":-73.99314,"zip":"10956","miles_from_dt":10.27},{"city":"Montvale","state_name":"New Jersey","lat":41.05293,"lng":-74.04985,"zip":"07645","miles_from_dt":10.31},{"city":"Garnerville","state_name":"New York","lat":41.20265,"lng":-74.00031,"zip":"10923","miles_from_dt":10.35},{"city":"Franklin Lakes","state_name":"New Jersey","lat":41.00859,"lng":-74.20836,"zip":"07417","miles_from_dt":10.37},{"city":"Waldwick","state_name":"New Jersey","lat":41.01334,"lng":-74.12585,"zip":"07463","miles_from_dt":10.55},{"city":"Haskell","state_name":"New Jersey","lat":41.02926,"lng":-74.30281,"zip":"07420","miles_from_dt":10.68},{"city":"West Milford","state_name":"New Jersey","lat":41.08713,"lng":-74.3779,"zip":"07480","miles_from_dt":10.97},{"city":"Wyckoff","state_name":"New Jersey","lat":40.99891,"lng":-74.16757,"zip":"07481","miles_from_dt":11.06},{"city":"Monroe","state_name":"New York","lat":41.31919,"lng":-74.19825,"zip":"10950","miles_from_dt":11.11},{"city":"Pearl River","state_name":"New York","lat":41.06176,"lng":-74.01286,"zip":"10965","miles_from_dt":11.39},{"city":"Woodcliff Lake","state_name":"New Jersey","lat":41.0253,"lng":-74.06038,"zip":"07677","miles_from_dt":11.4},{"city":"Park Ridge","state_name":"New Jersey","lat":41.03524,"lng":-74.04232,"zip":"07656","miles_from_dt":11.46},{"city":"Midland Park","state_name":"New Jersey","lat":40.99516,"lng":-74.14109,"zip":"07432","miles_from_dt":11.54},{"city":"West Haverstraw","state_name":"New York","lat":41.21011,"lng":-73.97565,"zip":"10993","miles_from_dt":11.73},{"city":"Warwick","state_name":"New York","lat":41.2651,"lng":-74.3663,"zip":"10990","miles_from_dt":11.78},{"city":"Central Valley","state_name":"New York","lat":41.31851,"lng":-74.11094,"zip":"10917","miles_from_dt":11.8},{"city":"Haverstraw","state_name":"New York","lat":41.19263,"lng":-73.96735,"zip":"10927","miles_from_dt":11.85},{"city":"Monroe","state_name":"New York","lat":41.33,"lng":-74.19219,"zip":"10949","miles_from_dt":11.85},{"city":"Pompton Lakes","state_name":"New Jersey","lat":41.0024,"lng":-74.28589,"zip":"07442","miles_from_dt":11.87},{"city":"Ho Ho Kus","state_name":"New Jersey","lat":41.00007,"lng":-74.09718,"zip":"07423","miles_from_dt":11.94},{"city":"West Nyack","state_name":"New York","lat":41.09702,"lng":-73.97322,"zip":"10994","miles_from_dt":12.07},{"city":"Bloomingdale","state_name":"New Jersey","lat":41.02059,"lng":-74.33239,"zip":"07403","miles_from_dt":12.07},{"city":"Sugar Loaf","state_name":"New York","lat":41.32301,"lng":-74.28559,"zip":"10981","miles_from_dt":12.41},{"city":"New Milford","state_name":"New York","lat":41.23454,"lng":-74.41307,"zip":"10959","miles_from_dt":12.77},{"city":"Ridgewood","state_name":"New Jersey","lat":40.98219,"lng":-74.11275,"zip":"07450","miles_from_dt":12.8},{"city":"Ridgewood","state_name":"New Jersey","lat":40.98055,"lng":-74.11935,"zip":"07451","miles_from_dt":12.81},{"city":"Hillsdale","state_name":"New Jersey","lat":41.00742,"lng":-74.04402,"zip":"07642","miles_from_dt":12.9},{"city":"Congers","state_name":"New York","lat":41.15477,"lng":-73.9393,"zip":"10920","miles_from_dt":13.07},{"city":"Riverdale","state_name":"New Jersey","lat":40.99212,"lng":-74.3125,"zip":"07457","miles_from_dt":13.13},{"city":"Tomkins Cove","state_name":"New York","lat":41.27917,"lng":-73.99445,"zip":"10986","miles_from_dt":13.17},{"city":"Highland Lakes","state_name":"New Jersey","lat":41.17984,"lng":-74.44177,"zip":"07422","miles_from_dt":13.22},{"city":"Valley Cottage","state_name":"New York","lat":41.12479,"lng":-73.93632,"zip":"10989","miles_from_dt":13.43},{"city":"Township Of Washington","state_name":"New Jersey","lat":40.98843,"lng":-74.06359,"zip":"07676","miles_from_dt":13.45},{"city":"Chester","state_name":"New York","lat":41.34816,"lng":-74.25828,"zip":"10918","miles_from_dt":13.58},{"city":"Blauvelt","state_name":"New York","lat":41.06845,"lng":-73.95574,"zip":"10913","miles_from_dt":13.7},{"city":"Verplanck","state_name":"New York","lat":41.25552,"lng":-73.95854,"zip":"10596","miles_from_dt":13.8},{"city":"Hawthorne","state_name":"New Jersey","lat":40.95794,"lng":-74.15815,"zip":"07506","miles_from_dt":13.92},{"city":"Haledon","state_name":"New Jersey","lat":40.95448,"lng":-74.18423,"zip":"07508","miles_from_dt":14.07},{"city":"Glen Rock","state_name":"New Jersey","lat":40.96008,"lng":-74.12498,"zip":"07452","miles_from_dt":14.09},{"city":"Westwood","state_name":"New Jersey","lat":41.00918,"lng":-74.00428,"zip":"07675","miles_from_dt":14.13},{"city":"Orangeburg","state_name":"New York","lat":41.04857,"lng":-73.96057,"zip":"10962","miles_from_dt":14.16},{"city":"Pompton Plains","state_name":"New Jersey","lat":40.96782,"lng":-74.30724,"zip":"07444","miles_from_dt":14.5},{"city":"Montrose","state_name":"New York","lat":41.24599,"lng":-73.93643,"zip":"10548","miles_from_dt":14.53},{"city":"Nyack","state_name":"New York","lat":41.08892,"lng":-73.92642,"zip":"10960","miles_from_dt":14.56},{"city":"Bear Mountain","state_name":"New York","lat":41.30798,"lng":-73.99243,"zip":"10911","miles_from_dt":14.58},{"city":"Buchanan","state_name":"New York","lat":41.26302,"lng":-73.94391,"zip":"10511","miles_from_dt":14.72},{"city":"Wayne","state_name":"New Jersey","lat":40.94936,"lng":-74.24745,"zip":"07474","miles_from_dt":14.73},{"city":"Wayne","state_name":"New Jersey","lat":40.94805,"lng":-74.24504,"zip":"07470","miles_from_dt":14.79},{"city":"Croton On Hudson","state_name":"New York","lat":41.23452,"lng":-73.92434,"zip":"10521","miles_from_dt":14.81},{"city":"Florida","state_name":"New York","lat":41.3292,"lng":-74.3651,"zip":"10921","miles_from_dt":14.91},{"city":"Highland Mills","state_name":"New York","lat":41.3667,"lng":-74.11035,"zip":"10930","miles_from_dt":14.97},{"city":"Haledon","state_name":"New Jersey","lat":40.9366,"lng":-74.18961,"zip":"07538","miles_from_dt":15.3},{"city":"Emerson","state_name":"New Jersey","lat":40.97484,"lng":-74.024,"zip":"07630","miles_from_dt":15.34},{"city":"Newfoundland","state_name":"New Jersey","lat":41.0425,"lng":-74.44159,"zip":"07435","miles_from_dt":15.37},{"city":"Fort Montgomery","state_name":"New York","lat":41.32794,"lng":-73.99604,"zip":"10922","miles_from_dt":15.46},{"city":"Tappan","state_name":"New York","lat":41.02747,"lng":-73.94826,"zip":"10983","miles_from_dt":15.51},{"city":"Butler","state_name":"New Jersey","lat":40.98646,"lng":-74.38302,"zip":"07405","miles_from_dt":15.56},{"city":"Pequannock","state_name":"New Jersey","lat":40.94668,"lng":-74.29421,"zip":"07440","miles_from_dt":15.58},{"city":"Paterson","state_name":"New Jersey","lat":40.93226,"lng":-74.15674,"zip":"07524","miles_from_dt":15.69},{"city":"Fair Lawn","state_name":"New Jersey","lat":40.93587,"lng":-74.11771,"zip":"07410","miles_from_dt":15.8},{"city":"Paterson","state_name":"New Jersey","lat":40.93042,"lng":-74.1575,"zip":"07544","miles_from_dt":15.81},{"city":"Paramus","state_name":"New Jersey","lat":40.94723,"lng":-74.07123,"zip":"07653","miles_from_dt":15.83},{"city":"Vernon","state_name":"New Jersey","lat":41.19873,"lng":-74.48911,"zip":"07462","miles_from_dt":15.85},{"city":"Paramus","state_name":"New Jersey","lat":40.94553,"lng":-74.07122,"zip":"07652","miles_from_dt":15.94},{"city":"Harrington Park","state_name":"New Jersey","lat":40.9899,"lng":-73.98037,"zip":"07640","miles_from_dt":15.96},{"city":"Stockholm","state_name":"New Jersey","lat":41.11341,"lng":-74.49006,"zip":"07460","miles_from_dt":15.96},{"city":"Paterson","state_name":"New Jersey","lat":40.92413,"lng":-74.17928,"zip":"07522","miles_from_dt":16.17},{"city":"Paterson","state_name":"New Jersey","lat":40.92596,"lng":-74.14452,"zip":"07514","miles_from_dt":16.2},{"city":"Highland Falls","state_name":"New York","lat":41.3457,"lng":-74.00265,"zip":"10928","miles_from_dt":16.2},{"city":"Oradell","state_name":"New Jersey","lat":40.95622,"lng":-74.03141,"zip":"07649","miles_from_dt":16.22},{"city":"Piermont","state_name":"New York","lat":41.03976,"lng":-73.91804,"zip":"10968","miles_from_dt":16.38},{"city":"West Point","state_name":"New York","lat":41.3615,"lng":-74.02705,"zip":"10997","miles_from_dt":16.39},{"city":"Sparkill","state_name":"New York","lat":41.02871,"lng":-73.92594,"zip":"10976","miles_from_dt":16.43},{"city":"Glenwood","state_name":"New Jersey","lat":41.2387,"lng":-74.4873,"zip":"07418","miles_from_dt":16.46},{"city":"Paterson","state_name":"New Jersey","lat":40.91903,"lng":-74.19461,"zip":"07502","miles_from_dt":16.51},{"city":"Northvale","state_name":"New Jersey","lat":41.00674,"lng":-73.94255,"zip":"07647","miles_from_dt":16.62},{"city":"Paterson","state_name":"New Jersey","lat":40.91694,"lng":-74.17222,"zip":"07505","miles_from_dt":16.68},{"city":"Hawthorne","state_name":"New Jersey","lat":40.91667,"lng":-74.17222,"zip":"07507","miles_from_dt":16.7},{"city":"Peekskill","state_name":"New York","lat":41.28924,"lng":-73.91837,"zip":"10566","miles_from_dt":16.79},{"city":"Haworth","state_name":"New Jersey","lat":40.96224,"lng":-73.9976,"zip":"07641","miles_from_dt":16.85},{"city":"Norwood","state_name":"New Jersey","lat":40.99335,"lng":-73.95103,"zip":"07648","miles_from_dt":16.89},{"city":"Paterson","state_name":"New Jersey","lat":40.9125,"lng":-74.17099,"zip":"07501","miles_from_dt":16.99},{"city":"Paterson","state_name":"New Jersey","lat":40.91199,"lng":-74.17223,"zip":"07509","miles_from_dt":17.02},{"city":"Croton On Hudson","state_name":"New York","lat":41.22183,"lng":-73.87348,"zip":"10520","miles_from_dt":17.07},{"city":"Paterson","state_name":"New Jersey","lat":40.91085,"lng":-74.17217,"zip":"07510","miles_from_dt":17.1},{"city":"Lincoln Park","state_name":"New Jersey","lat":40.925,"lng":-74.30462,"zip":"07035","miles_from_dt":17.18},{"city":"Paterson","state_name":"New Jersey","lat":40.912,"lng":-74.14121,"zip":"07504","miles_from_dt":17.18},{"city":"Goshen","state_name":"New York","lat":41.3788,"lng":-74.3512,"zip":"10924","miles_from_dt":17.38},{"city":"Palisades","state_name":"New York","lat":41.01642,"lng":-73.91431,"zip":"10964","miles_from_dt":17.4},{"city":"Closter","state_name":"New Jersey","lat":40.97329,"lng":-73.96044,"zip":"07624","miles_from_dt":17.51},{"city":"Paterson","state_name":"New Jersey","lat":40.90565,"lng":-74.14869,"zip":"07513","miles_from_dt":17.56},{"city":"Paterson","state_name":"New Jersey","lat":40.905,"lng":-74.1487,"zip":"07543","miles_from_dt":17.61},{"city":"Totowa","state_name":"New Jersey","lat":40.90385,"lng":-74.22118,"zip":"07512","miles_from_dt":17.63},{"city":"Totowa","state_name":"New Jersey","lat":40.90243,"lng":-74.22109,"zip":"07511","miles_from_dt":17.73},{"city":"Cortlandt Manor","state_name":"New York","lat":41.28922,"lng":-73.89633,"zip":"10567","miles_from_dt":17.77},{"city":"River Edge","state_name":"New Jersey","lat":40.92697,"lng":-74.03874,"zip":"07661","miles_from_dt":17.81},{"city":"Blooming Grove","state_name":"New York","lat":41.41671,"lng":-74.20087,"zip":"10914","miles_from_dt":17.84},{"city":"Elmwood Park","state_name":"New Jersey","lat":40.90493,"lng":-74.12007,"zip":"07407","miles_from_dt":17.86},{"city":"New Milford","state_name":"New Jersey","lat":40.93368,"lng":-74.01956,"zip":"07646","miles_from_dt":17.87},{"city":"Towaco","state_name":"New Jersey","lat":40.92643,"lng":-74.34524,"zip":"07082","miles_from_dt":17.94},{"city":"Dumont","state_name":"New Jersey","lat":40.94524,"lng":-73.99227,"zip":"07628","miles_from_dt":17.96},{"city":"Mountainville","state_name":"New York","lat":41.40581,"lng":-74.07783,"zip":"10953","miles_from_dt":18.05},{"city":"Paterson","state_name":"New Jersey","lat":40.89787,"lng":-74.15427,"zip":"07533","miles_from_dt":18.06},{"city":"Paterson","state_name":"New Jersey","lat":40.89768,"lng":-74.15353,"zip":"07503","miles_from_dt":18.08},{"city":"Pine Island","state_name":"New York","lat":41.292,"lng":-74.48879,"zip":"10969","miles_from_dt":18.1},{"city":"Saddle Brook","state_name":"New Jersey","lat":40.90328,"lng":-74.09545,"zip":"07663","miles_from_dt":18.27},{"city":"Rochelle Park","state_name":"New Jersey","lat":40.90698,"lng":-74.07911,"zip":"07662","miles_from_dt":18.28},{"city":"Salisbury Mills","state_name":"New York","lat":41.42048,"lng":-74.11678,"zip":"12577","miles_from_dt":18.49},{"city":"Maryknoll","state_name":"New York","lat":41.17861,"lng":-73.83547,"zip":"10545","miles_from_dt":18.54},{"city":"Washingtonville","state_name":"New York","lat":41.42648,"lng":-74.16567,"zip":"10992","miles_from_dt":18.55},{"city":"Demarest","state_name":"New Jersey","lat":40.95504,"lng":-73.95678,"zip":"07627","miles_from_dt":18.57},{"city":"Briarcliff Manor","state_name":"New York","lat":41.14152,"lng":-73.83411,"zip":"10510","miles_from_dt":18.6},{"city":"Tarrytown","state_name":"New York","lat":41.08436,"lng":-73.84653,"zip":"10591","miles_from_dt":18.63},{"city":"Clifton","state_name":"New Jersey","lat":40.89195,"lng":-74.13127,"zip":"07015","miles_from_dt":18.63},{"city":"Ardsley On Hudson","state_name":"New York","lat":41.02654,"lng":-73.8753,"zip":"10503","miles_from_dt":18.77},{"city":"Maywood","state_name":"New Jersey","lat":40.90249,"lng":-74.06337,"zip":"07607","miles_from_dt":18.85},{"city":"Ossining","state_name":"New York","lat":41.19295,"lng":-73.8305,"zip":"10562","miles_from_dt":18.89},{"city":"McAfee","state_name":"New Jersey","lat":41.18538,"lng":-74.55155,"zip":"07428","miles_from_dt":18.95},{"city":"Little Falls","state_name":"New Jersey","lat":40.88361,"lng":-74.2059,"zip":"07424","miles_from_dt":18.97},{"city":"Bergenfield","state_name":"New Jersey","lat":40.92357,"lng":-73.99824,"zip":"07621","miles_from_dt":19.04},{"city":"Cresskill","state_name":"New Jersey","lat":40.94054,"lng":-73.9596,"zip":"07626","miles_from_dt":19.25},{"city":"Irvington","state_name":"New York","lat":41.03826,"lng":-73.8556,"zip":"10533","miles_from_dt":19.32},{"city":"Clifton","state_name":"New Jersey","lat":40.8801,"lng":-74.14449,"zip":"07011","miles_from_dt":19.34},{"city":"Oak Ridge","state_name":"New Jersey","lat":41.0287,"lng":-74.52038,"zip":"07438","miles_from_dt":19.43},{"city":"New Hampton","state_name":"New York","lat":41.3764,"lng":-74.42881,"zip":"10958","miles_from_dt":19.53},{"city":"Alpine","state_name":"New Jersey","lat":40.96165,"lng":-73.91983,"zip":"07620","miles_from_dt":19.57},{"city":"West Point","state_name":"New York","lat":41.38996,"lng":-73.97257,"zip":"10996","miles_from_dt":19.59},{"city":"Montville","state_name":"New Jersey","lat":40.90736,"lng":-74.3671,"zip":"07045","miles_from_dt":19.63},{"city":"Cornwall","state_name":"New York","lat":41.41847,"lng":-74.03571,"zip":"12518","miles_from_dt":19.67},{"city":"Crompond","state_name":"New York","lat":41.29837,"lng":-73.86013,"zip":"10517","miles_from_dt":19.72},{"city":"Garfield","state_name":"New Jersey","lat":40.87914,"lng":-74.1085,"zip":"07026","miles_from_dt":19.73},{"city":"Dobbs Ferry","state_name":"New York","lat":41.01221,"lng":-73.8646,"zip":"10522","miles_from_dt":19.75},{"city":"Boonton","state_name":"New Jersey","lat":40.92738,"lng":-74.41706,"zip":"07005","miles_from_dt":19.87},{"city":"Hamburg","state_name":"New Jersey","lat":41.15394,"lng":-74.57106,"zip":"07419","miles_from_dt":19.88},{"city":"Hackensack","state_name":"New Jersey","lat":40.89044,"lng":-74.04781,"zip":"07602","miles_from_dt":19.92},{"city":"Fairfield","state_name":"New Jersey","lat":40.88282,"lng":-74.30413,"zip":"07004","miles_from_dt":19.92},{"city":"Clifton","state_name":"New Jersey","lat":40.86935,"lng":-74.17267,"zip":"07013","miles_from_dt":19.96},{"city":"Hackensack","state_name":"New Jersey","lat":40.8891,"lng":-74.04614,"zip":"07601","miles_from_dt":20.04},{"city":"Lodi","state_name":"New Jersey","lat":40.87836,"lng":-74.08145,"zip":"07644","miles_from_dt":20.13},{"city":"Lake Peekskill","state_name":"New York","lat":41.33784,"lng":-73.88528,"zip":"10537","miles_from_dt":20.13},{"city":"Campbell Hall","state_name":"New York","lat":41.44881,"lng":-74.24311,"zip":"10916","miles_from_dt":20.24},{"city":"Garrison","state_name":"New York","lat":41.37076,"lng":-73.92201,"zip":"10524","miles_from_dt":20.24},{"city":"Hastings On Hudson","state_name":"New York","lat":40.99047,"lng":-73.86951,"zip":"10706","miles_from_dt":20.35},{"city":"Millwood","state_name":"New York","lat":41.19472,"lng":-73.8002,"zip":"10546","miles_from_dt":20.48},{"city":"Elmsford","state_name":"New York","lat":41.06005,"lng":-73.81859,"zip":"10523","miles_from_dt":20.53},{"city":"Tenafly","state_name":"New Jersey","lat":40.91758,"lng":-73.95323,"zip":"07670","miles_from_dt":20.71},{"city":"Hawthorne","state_name":"New York","lat":41.09873,"lng":-73.80066,"zip":"10532","miles_from_dt":20.72},{"city":"Teaneck","state_name":"New Jersey","lat":40.88998,"lng":-74.01067,"zip":"07666","miles_from_dt":20.75},{"city":"Mohegan Lake","state_name":"New York","lat":41.31178,"lng":-73.84637,"zip":"10547","miles_from_dt":20.8},{"city":"Ardsley","state_name":"New York","lat":41.01126,"lng":-73.8409,"zip":"10502","miles_from_dt":20.86},{"city":"Cedar Grove","state_name":"New Jersey","lat":40.85651,"lng":-74.22871,"zip":"07009","miles_from_dt":20.92},{"city":"Rockaway","state_name":"New Jersey","lat":40.9531,"lng":-74.48639,"zip":"07866","miles_from_dt":20.98},{"city":"Pleasantville","state_name":"New York","lat":41.12854,"lng":-73.78917,"zip":"10570","miles_from_dt":21.01},{"city":"Passaic","state_name":"New Jersey","lat":40.85746,"lng":-74.12821,"zip":"07055","miles_from_dt":21.01},{"city":"Franklin","state_name":"New Jersey","lat":41.10892,"lng":-74.58891,"zip":"07416","miles_from_dt":21.09},{"city":"Cornwall On Hudson","state_name":"New York","lat":41.43362,"lng":-74.00693,"zip":"12520","miles_from_dt":21.26},{"city":"Yonkers","state_name":"New York","lat":40.95765,"lng":-73.88114,"zip":"10703","miles_from_dt":21.26},{"city":"Bogota","state_name":"New Jersey","lat":40.87507,"lng":-74.02934,"zip":"07603","miles_from_dt":21.27},{"city":"Hasbrouck Heights","state_name":"New Jersey","lat":40.86166,"lng":-74.07413,"zip":"07604","miles_from_dt":21.34},{"city":"White Plains","state_name":"New York","lat":41.03949,"lng":-73.81214,"zip":"10607","miles_from_dt":21.36},{"city":"Wallington","state_name":"New Jersey","lat":40.85355,"lng":-74.10691,"zip":"07057","miles_from_dt":21.47},{"city":"Clifton","state_name":"New Jersey","lat":40.84694,"lng":-74.1596,"zip":"07012","miles_from_dt":21.54},{"city":"Slate Hill","state_name":"New York","lat":41.38442,"lng":-74.47566,"zip":"10973","miles_from_dt":21.56},{"city":"Englewood","state_name":"New Jersey","lat":40.89161,"lng":-73.97368,"zip":"07631","miles_from_dt":21.59},{"city":"Pine Brook","state_name":"New Jersey","lat":40.86701,"lng":-74.34283,"zip":"07058","miles_from_dt":21.63},{"city":"Yonkers","state_name":"New York","lat":40.93258,"lng":-73.90225,"zip":"10702","miles_from_dt":21.64},{"city":"Lake Hiawatha","state_name":"New Jersey","lat":40.87953,"lng":-74.37965,"zip":"07034","miles_from_dt":21.64},{"city":"Caldwell","state_name":"New Jersey","lat":40.85221,"lng":-74.2817,"zip":"07006","miles_from_dt":21.66},{"city":"Montclair","state_name":"New Jersey","lat":40.84411,"lng":-74.20041,"zip":"07043","miles_from_dt":21.69},{"city":"Unionville","state_name":"New York","lat":41.30133,"lng":-74.56218,"zip":"10988","miles_from_dt":21.76},{"city":"Yonkers","state_name":"New York","lat":40.94702,"lng":-73.88034,"zip":"10701","miles_from_dt":21.77},{"city":"Westtown","state_name":"New York","lat":41.33118,"lng":-74.53989,"zip":"10998","miles_from_dt":21.79},{"city":"New Windsor","state_name":"New York","lat":41.46146,"lng":-74.07311,"zip":"12553","miles_from_dt":21.79},{"city":"White Plains","state_name":"New York","lat":41.02248,"lng":-73.81261,"zip":"10610","miles_from_dt":21.81},{"city":"Wood Ridge","state_name":"New Jersey","lat":40.85076,"lng":-74.08779,"zip":"07075","miles_from_dt":21.88},{"city":"Chappaqua","state_name":"New York","lat":41.17331,"lng":-73.77071,"zip":"10514","miles_from_dt":21.89},{"city":"Valhalla","state_name":"New York","lat":41.08626,"lng":-73.78097,"zip":"10595","miles_from_dt":21.91},{"city":"Hibernia","state_name":"New Jersey","lat":40.94477,"lng":-74.50065,"zip":"07842","miles_from_dt":21.92},{"city":"Teterboro","state_name":"New Jersey","lat":40.85337,"lng":-74.07048,"zip":"07699","miles_from_dt":21.95},{"city":"South Hackensack","state_name":"New Jersey","lat":40.85783,"lng":-74.05177,"zip":"07606","miles_from_dt":21.95},{"city":"Johnson","state_name":"New York","lat":41.36527,"lng":-74.51106,"zip":"10933","miles_from_dt":21.99},{"city":"Ogdensburg","state_name":"New Jersey","lat":41.0769,"lng":-74.59734,"zip":"07439","miles_from_dt":21.99},{"city":"Hartsdale","state_name":"New York","lat":41.02304,"lng":-73.80764,"zip":"10530","miles_from_dt":22.03},{"city":"Thornwood","state_name":"New York","lat":41.11579,"lng":-73.771,"zip":"10594","miles_from_dt":22.05},{"city":"Teterboro","state_name":"New Jersey","lat":40.85297,"lng":-74.06045,"zip":"07608","miles_from_dt":22.13},{"city":"Yonkers","state_name":"New York","lat":40.96732,"lng":-73.84739,"zip":"10710","miles_from_dt":22.22},{"city":"Yorktown Heights","state_name":"New York","lat":41.28309,"lng":-73.79516,"zip":"10598","miles_from_dt":22.3},{"city":"Shrub Oak","state_name":"New York","lat":41.33222,"lng":-73.82624,"zip":"10588","miles_from_dt":22.43},{"city":"Sussex","state_name":"New Jersey","lat":41.24213,"lng":-74.60648,"zip":"07461","miles_from_dt":22.47},{"city":"Vails Gate","state_name":"New York","lat":41.46623,"lng":-74.04924,"zip":"12584","miles_from_dt":22.48},{"city":"White Plains","state_name":"New York","lat":41.05364,"lng":-73.78014,"zip":"10603","miles_from_dt":22.57},{"city":"Rock Tavern","state_name":"New York","lat":41.48514,"lng":-74.15714,"zip":"12575","miles_from_dt":22.62},{"city":"Mountain Lakes","state_name":"New Jersey","lat":40.89067,"lng":-74.44072,"zip":"07046","miles_from_dt":22.64},{"city":"Verona","state_name":"New Jersey","lat":40.83228,"lng":-74.24308,"zip":"07044","miles_from_dt":22.67},{"city":"Caldwell","state_name":"New Jersey","lat":40.84083,"lng":-74.30222,"zip":"07007","miles_from_dt":22.68},{"city":"Maybrook","state_name":"New York","lat":41.48602,"lng":-74.22354,"zip":"12543","miles_from_dt":22.69},{"city":"Clifton","state_name":"New Jersey","lat":40.83162,"lng":-74.13532,"zip":"07014","miles_from_dt":22.72},{"city":"Ridgefield Park","state_name":"New Jersey","lat":40.85434,"lng":-74.02013,"zip":"07660","miles_from_dt":22.77},{"city":"Yonkers","state_name":"New York","lat":40.91929,"lng":-73.88928,"zip":"10705","miles_from_dt":22.77},{"city":"Leonia","state_name":"New Jersey","lat":40.86362,"lng":-73.9899,"zip":"07605","miles_from_dt":22.86},{"city":"Englewood Cliffs","state_name":"New Jersey","lat":40.88227,"lng":-73.94672,"zip":"07632","miles_from_dt":22.9},{"city":"Little Ferry","state_name":"New Jersey","lat":40.84635,"lng":-74.03879,"zip":"07643","miles_from_dt":22.93},{"city":"Moonachie","state_name":"New Jersey","lat":40.83877,"lng":-74.05705,"zip":"07074","miles_from_dt":23.12},{"city":"Bronx","state_name":"New York","lat":40.90002,"lng":-73.9067,"zip":"10471","miles_from_dt":23.16},{"city":"Essex Fells","state_name":"New Jersey","lat":40.82708,"lng":-74.27981,"zip":"07021","miles_from_dt":23.33},{"city":"Nutley","state_name":"New Jersey","lat":40.81926,"lng":-74.15715,"zip":"07110","miles_from_dt":23.46},{"city":"Tuckahoe","state_name":"New York","lat":40.95961,"lng":-73.82291,"zip":"10707","miles_from_dt":23.57},{"city":"White Plains","state_name":"New York","lat":41.02065,"lng":-73.77588,"zip":"10606","miles_from_dt":23.61},{"city":"Parsippany","state_name":"New Jersey","lat":40.85527,"lng":-74.40239,"zip":"07054","miles_from_dt":23.67},{"city":"Jefferson Valley","state_name":"New York","lat":41.33536,"lng":-73.79965,"zip":"10535","miles_from_dt":23.72},{"city":"Scarsdale","state_name":"New York","lat":40.98916,"lng":-73.79443,"zip":"10583","miles_from_dt":23.72},{"city":"Palisades Park","state_name":"New Jersey","lat":40.84716,"lng":-73.99664,"zip":"07650","miles_from_dt":23.73},{"city":"Rutherford","state_name":"New Jersey","lat":40.82034,"lng":-74.10574,"zip":"07070","miles_from_dt":23.73},{"city":"Yonkers","state_name":"New York","lat":40.91911,"lng":-73.86187,"zip":"10704","miles_from_dt":23.79},{"city":"Montclair","state_name":"New Jersey","lat":40.81382,"lng":-74.21775,"zip":"07042","miles_from_dt":23.81},{"city":"White Plains","state_name":"New York","lat":41.03221,"lng":-73.76525,"zip":"10602","miles_from_dt":23.82},{"city":"White Plains","state_name":"New York","lat":41.03288,"lng":-73.7648,"zip":"10601","miles_from_dt":23.82},{"city":"Carlstadt","state_name":"New Jersey","lat":40.82472,"lng":-74.06126,"zip":"07072","miles_from_dt":23.98},{"city":"Bronx","state_name":"New York","lat":40.88841,"lng":-73.89905,"zip":"10463","miles_from_dt":24.04},{"city":"Bloomfield","state_name":"New Jersey","lat":40.80976,"lng":-74.18683,"zip":"07003","miles_from_dt":24.05},{"city":"Fort Lee","state_name":"New Jersey","lat":40.85088,"lng":-73.97128,"zip":"07024","miles_from_dt":24.09},{"city":"Roseland","state_name":"New Jersey","lat":40.82077,"lng":-74.30862,"zip":"07068","miles_from_dt":24.1},{"city":"Bronxville","state_name":"New York","lat":40.9379,"lng":-73.83167,"zip":"10708","miles_from_dt":24.11},{"city":"East Rutherford","state_name":"New Jersey","lat":40.81792,"lng":-74.08539,"zip":"07073","miles_from_dt":24.11},{"city":"Sparta","state_name":"New Jersey","lat":41.04666,"lng":-74.62793,"zip":"07871","miles_from_dt":24.12},{"city":"Middletown","state_name":"New York","lat":41.48923,"lng":-74.34556,"zip":"10941","miles_from_dt":24.23},{"city":"Denville","state_name":"New Jersey","lat":40.88752,"lng":-74.48689,"zip":"07834","miles_from_dt":24.29},{"city":"Amawalk","state_name":"New York","lat":41.2954,"lng":-73.76006,"zip":"10501","miles_from_dt":24.31},{"city":"Dover","state_name":"New Jersey","lat":40.93167,"lng":-74.54643,"zip":"07801","miles_from_dt":24.32},{"city":"Ridgefield","state_name":"New Jersey","lat":40.83127,"lng":-74.01471,"zip":"07657","miles_from_dt":24.35},{"city":"New York","state_name":"New York","lat":40.86749,"lng":-73.92358,"zip":"10034","miles_from_dt":24.42},{"city":"Eastchester","state_name":"New York","lat":40.95337,"lng":-73.80885,"zip":"10709","miles_from_dt":24.42},{"city":"Glen Ridge","state_name":"New Jersey","lat":40.80421,"lng":-74.20428,"zip":"07028","miles_from_dt":24.44},{"city":"West Harrison","state_name":"New York","lat":41.06013,"lng":-73.73955,"zip":"10604","miles_from_dt":24.46},{"city":"Picatinny Arsenal","state_name":"New Jersey","lat":40.93939,"lng":-74.55845,"zip":"07806","miles_from_dt":24.47},{"city":"Mount Kisco","state_name":"New York","lat":41.19981,"lng":-73.72028,"zip":"10549","miles_from_dt":24.65},{"city":"Bronx","state_name":"New York","lat":40.89598,"lng":-73.86805,"zip":"10470","miles_from_dt":24.71},{"city":"Granite Springs","state_name":"New York","lat":41.3195,"lng":-73.76502,"zip":"10527","miles_from_dt":24.77},{"city":"New York","state_name":"New York","lat":40.85807,"lng":-73.9296,"zip":"10040","miles_from_dt":24.78},{"city":"Putnam Valley","state_name":"New York","lat":41.39651,"lng":-73.83384,"zip":"10579","miles_from_dt":24.78},{"city":"Mount Tabor","state_name":"New Jersey","lat":40.87152,"lng":-74.47826,"zip":"07878","miles_from_dt":24.87},{"city":"Newark","state_name":"New Jersey","lat":40.79751,"lng":-74.16181,"zip":"07189","miles_from_dt":24.94},{"city":"Middletown","state_name":"New York","lat":41.45149,"lng":-74.46997,"zip":"10940","miles_from_dt":24.94},{"city":"Mount Vernon","state_name":"New York","lat":40.92376,"lng":-73.82497,"zip":"10552","miles_from_dt":25.01},{"city":"East Hanover","state_name":"New Jersey","lat":40.81918,"lng":-74.36382,"zip":"07936","miles_from_dt":25.1},{"city":"Belleville","state_name":"New Jersey","lat":40.79502,"lng":-74.16161,"zip":"07109","miles_from_dt":25.11},{"city":"Bronx","state_name":"New York","lat":40.8681,"lng":-73.89985,"zip":"10468","miles_from_dt":25.12},{"city":"New York","state_name":"New York","lat":40.84744,"lng":-73.93549,"zip":"10033","miles_from_dt":25.24},{"city":"Cold Spring","state_name":"New York","lat":41.45342,"lng":-73.90233,"zip":"10516","miles_from_dt":25.28},{"city":"Armonk","state_name":"New York","lat":41.13065,"lng":-73.70629,"zip":"10504","miles_from_dt":25.3},{"city":"Lyndhurst","state_name":"New Jersey","lat":40.79646,"lng":-74.1099,"zip":"07071","miles_from_dt":25.31},{"city":"White Plains","state_name":"New York","lat":41.0095,"lng":-73.74518,"zip":"10605","miles_from_dt":25.39},{"city":"Mount Vernon","state_name":"New York","lat":40.90627,"lng":-73.8351,"zip":"10550","miles_from_dt":25.42},{"city":"Fairview","state_name":"New Jersey","lat":40.81821,"lng":-74.0022,"zip":"07022","miles_from_dt":25.44},{"city":"Cliffside Park","state_name":"New Jersey","lat":40.82217,"lng":-73.98792,"zip":"07010","miles_from_dt":25.48},{"city":"New York","state_name":"New York","lat":40.839,"lng":-73.94282,"zip":"10032","miles_from_dt":25.54},{"city":"Wharton","state_name":"New Jersey","lat":40.93172,"lng":-74.57688,"zip":"07885","miles_from_dt":25.55},{"city":"New Rochelle","state_name":"New York","lat":40.94914,"lng":-73.78629,"zip":"10804","miles_from_dt":25.55},{"city":"Lake Hopatcong","state_name":"New Jersey","lat":40.96861,"lng":-74.61066,"zip":"07849","miles_from_dt":25.58},{"city":"Bronx","state_name":"New York","lat":40.85248,"lng":-73.9133,"zip":"10453","miles_from_dt":25.58},{"city":"Bronx","state_name":"New York","lat":40.87522,"lng":-73.872,"zip":"10467","miles_from_dt":25.64},{"city":"Edgewater","state_name":"New Jersey","lat":40.82374,"lng":-73.97401,"zip":"07020","miles_from_dt":25.7},{"city":"West Orange","state_name":"New Jersey","lat":40.78928,"lng":-74.26281,"zip":"07052","miles_from_dt":25.75},{"city":"Bronx","state_name":"New York","lat":40.89104,"lng":-73.8461,"zip":"10466","miles_from_dt":25.75},{"city":"North Arlington","state_name":"New Jersey","lat":40.78745,"lng":-74.12731,"zip":"07031","miles_from_dt":25.8},{"city":"Mount Vernon","state_name":"New York","lat":40.90858,"lng":-73.82161,"zip":"10553","miles_from_dt":25.83},{"city":"Bronx","state_name":"New York","lat":40.86249,"lng":-73.88643,"zip":"10458","miles_from_dt":25.85},{"city":"Newburgh","state_name":"New York","lat":41.5086,"lng":-74.01337,"zip":"12555","miles_from_dt":25.86},{"city":"Montgomery","state_name":"New York","lat":41.52957,"lng":-74.25843,"zip":"12549","miles_from_dt":25.87},{"city":"Lafayette","state_name":"New Jersey","lat":41.10339,"lng":-74.68312,"zip":"07848","miles_from_dt":26.01},{"city":"Whippany","state_name":"New Jersey","lat":40.82375,"lng":-74.42029,"zip":"07981","miles_from_dt":26.04},{"city":"Mount Vernon","state_name":"New York","lat":40.90173,"lng":-73.82394,"zip":"10551","miles_from_dt":26.06},{"city":"Bronx","state_name":"New York","lat":40.8378,"lng":-73.92333,"zip":"10452","miles_from_dt":26.14},{"city":"New York","state_name":"New York","lat":40.82485,"lng":-73.95023,"zip":"10031","miles_from_dt":26.2},{"city":"Purchase","state_name":"New York","lat":41.03755,"lng":-73.71349,"zip":"10577","miles_from_dt":26.23},{"city":"Baldwin Place","state_name":"New York","lat":41.34207,"lng":-73.74791,"zip":"10505","miles_from_dt":26.28},{"city":"Shenorock","state_name":"New York","lat":41.32713,"lng":-73.73674,"zip":"10587","miles_from_dt":26.33},{"city":"Beacon","state_name":"New York","lat":41.49637,"lng":-73.95351,"zip":"12508","miles_from_dt":26.38},{"city":"Bronx","state_name":"New York","lat":40.84571,"lng":-73.89794,"zip":"10457","miles_from_dt":26.42},{"city":"New York","state_name":"New York","lat":40.82631,"lng":-73.93752,"zip":"10039","miles_from_dt":26.44},{"city":"Morris Plains","state_name":"New Jersey","lat":40.84569,"lng":-74.48271,"zip":"07950","miles_from_dt":26.45},{"city":"Howells","state_name":"New York","lat":41.482,"lng":-74.46352,"zip":"10932","miles_from_dt":26.49},{"city":"Mahopac Falls","state_name":"New York","lat":41.37115,"lng":-73.76436,"zip":"10542","miles_from_dt":26.59},{"city":"North Bergen","state_name":"New Jersey","lat":40.79376,"lng":-74.02416,"zip":"07047","miles_from_dt":26.6},{"city":"Bedford Hills","state_name":"New York","lat":41.22879,"lng":-73.6878,"zip":"10507","miles_from_dt":26.62},{"city":"Glasser","state_name":"New Jersey","lat":40.97232,"lng":-74.63688,"zip":"07837","miles_from_dt":26.64},{"city":"Whippany","state_name":"New Jersey","lat":40.8214,"lng":-74.43954,"zip":"07999","miles_from_dt":26.66},{"city":"East Orange","state_name":"New Jersey","lat":40.77192,"lng":-74.20712,"zip":"07017","miles_from_dt":26.67},{"city":"Lincolndale","state_name":"New York","lat":41.32575,"lng":-73.72745,"zip":"10540","miles_from_dt":26.72},{"city":"New York","state_name":"New York","lat":40.81085,"lng":-73.96374,"zip":"10115","miles_from_dt":26.73},{"city":"Livingston","state_name":"New Jersey","lat":40.78554,"lng":-74.32909,"zip":"07039","miles_from_dt":26.73},{"city":"New York","state_name":"New York","lat":40.81826,"lng":-73.94283,"zip":"10030","miles_from_dt":26.78},{"city":"New York","state_name":"New York","lat":40.81426,"lng":-73.95256,"zip":"10116","miles_from_dt":26.79},{"city":"Secaucus","state_name":"New Jersey","lat":40.78109,"lng":-74.06588,"zip":"07094","miles_from_dt":26.82},{"city":"Secaucus","state_name":"New Jersey","lat":40.78124,"lng":-74.06458,"zip":"07096","miles_from_dt":26.83},{"city":"Augusta","state_name":"New Jersey","lat":41.1409,"lng":-74.70373,"zip":"07822","miles_from_dt":26.83},{"city":"Pelham","state_name":"New York","lat":40.89978,"lng":-73.80619,"zip":"10803","miles_from_dt":26.84},{"city":"Bronx","state_name":"New York","lat":40.86851,"lng":-73.84666,"zip":"10469","miles_from_dt":26.86},{"city":"Orange","state_name":"New Jersey","lat":40.77059,"lng":-74.23915,"zip":"07051","miles_from_dt":26.87},{"city":"New York","state_name":"New York","lat":40.81187,"lng":-73.95459,"zip":"10027","miles_from_dt":26.88},{"city":"New Rochelle","state_name":"New York","lat":40.91751,"lng":-73.78396,"zip":"10801","miles_from_dt":26.94},{"city":"Bronx","state_name":"New York","lat":40.83064,"lng":-73.90812,"zip":"10456","miles_from_dt":26.99},{"city":"Newark","state_name":"New Jersey","lat":40.76735,"lng":-74.16831,"zip":"07104","miles_from_dt":27},{"city":"Orange","state_name":"New Jersey","lat":40.76817,"lng":-74.2348,"zip":"07050","miles_from_dt":27.02},{"city":"Port Jervis","state_name":"New York","lat":41.37394,"lng":-74.62429,"zip":"12771","miles_from_dt":27.07},{"city":"Newburgh","state_name":"New York","lat":41.53671,"lng":-74.05196,"zip":"12550","miles_from_dt":27.08},{"city":"Cedar Knolls","state_name":"New Jersey","lat":40.82085,"lng":-74.45479,"zip":"07927","miles_from_dt":27.09},{"city":"Bronx","state_name":"New York","lat":40.82097,"lng":-73.92383,"zip":"10451","miles_from_dt":27.12},{"city":"Bronx","state_name":"New York","lat":40.84273,"lng":-73.87891,"zip":"10460","miles_from_dt":27.17},{"city":"Katonah","state_name":"New York","lat":41.26971,"lng":-73.68943,"zip":"10536","miles_from_dt":27.19},{"city":"Newburgh","state_name":"New York","lat":41.53802,"lng":-74.04901,"zip":"12552","miles_from_dt":27.21},{"city":"Bronx","state_name":"New York","lat":40.87528,"lng":-73.82702,"zip":"10475","miles_from_dt":27.22},{"city":"New York","state_name":"New York","lat":40.81302,"lng":-73.93776,"zip":"10037","miles_from_dt":27.23},{"city":"Larchmont","state_name":"New York","lat":40.9376,"lng":-73.75707,"zip":"10538","miles_from_dt":27.26},{"city":"New Rochelle","state_name":"New York","lat":40.91314,"lng":-73.77973,"zip":"10802","miles_from_dt":27.3},{"city":"West New York","state_name":"New Jersey","lat":40.78675,"lng":-74.00871,"zip":"07093","miles_from_dt":27.33},{"city":"Newark","state_name":"New Jersey","lat":40.76181,"lng":-74.18653,"zip":"07107","miles_from_dt":27.36},{"city":"Harrison","state_name":"New York","lat":40.97819,"lng":-73.72306,"zip":"10528","miles_from_dt":27.37},{"city":"New York","state_name":"New York","lat":40.79825,"lng":-73.96831,"zip":"10025","miles_from_dt":27.41},{"city":"Newburgh","state_name":"New York","lat":41.54077,"lng":-74.04673,"zip":"12551","miles_from_dt":27.43},{"city":"Mahopac","state_name":"New York","lat":41.37855,"lng":-73.75122,"zip":"10541","miles_from_dt":27.44},{"city":"Circleville","state_name":"New York","lat":41.52836,"lng":-74.38327,"zip":"10919","miles_from_dt":27.45},{"city":"New York","state_name":"New York","lat":40.80302,"lng":-73.95348,"zip":"10026","miles_from_dt":27.46},{"city":"East Orange","state_name":"New Jersey","lat":40.75994,"lng":-74.20793,"zip":"07019","miles_from_dt":27.5},{"city":"Mamaroneck","state_name":"New York","lat":40.95274,"lng":-73.73645,"zip":"10543","miles_from_dt":27.61},{"city":"Bronx","state_name":"New York","lat":40.82572,"lng":-73.89295,"zip":"10459","miles_from_dt":27.71},{"city":"Bullville","state_name":"New York","lat":41.54022,"lng":-74.35714,"zip":"10915","miles_from_dt":27.76},{"city":"Bronx","state_name":"New York","lat":40.84297,"lng":-73.85873,"zip":"10462","miles_from_dt":27.81},{"city":"East Orange","state_name":"New Jersey","lat":40.75572,"lng":-74.21793,"zip":"07018","miles_from_dt":27.82},{"city":"Bronx","state_name":"New York","lat":40.8148,"lng":-73.90862,"zip":"10455","miles_from_dt":27.89},{"city":"New York","state_name":"New York","lat":40.78529,"lng":-73.98154,"zip":"10132","miles_from_dt":27.95},{"city":"Greenwich","state_name":"Connecticut","lat":41.08782,"lng":-73.66078,"zip":"06831","miles_from_dt":28.04},{"city":"New Rochelle","state_name":"New York","lat":40.89593,"lng":-73.78028,"zip":"10805","miles_from_dt":28.04},{"city":"Otisville","state_name":"New York","lat":41.4669,"lng":-74.54121,"zip":"10963","miles_from_dt":28.07},{"city":"Castle Point","state_name":"New York","lat":41.52822,"lng":-73.96344,"zip":"12511","miles_from_dt":28.12},{"city":"Walden","state_name":"New York","lat":41.5657,"lng":-74.17289,"zip":"12586","miles_from_dt":28.13},{"city":"Kearny","state_name":"New Jersey","lat":40.75385,"lng":-74.11996,"zip":"07099","miles_from_dt":28.15},{"city":"New York","state_name":"New York","lat":40.78534,"lng":-73.97138,"zip":"10024","miles_from_dt":28.16},{"city":"Glenham","state_name":"New York","lat":41.51931,"lng":-73.93703,"zip":"12527","miles_from_dt":28.17},{"city":"Bronx","state_name":"New York","lat":40.82968,"lng":-73.86942,"zip":"10472","miles_from_dt":28.19},{"city":"Bronx","state_name":"New York","lat":40.84671,"lng":-73.84079,"zip":"10461","miles_from_dt":28.2},{"city":"Union City","state_name":"New Jersey","lat":40.76723,"lng":-74.03243,"zip":"07087","miles_from_dt":28.21},{"city":"Bronx","state_name":"New York","lat":40.8056,"lng":-73.91664,"zip":"10454","miles_from_dt":28.22},{"city":"Kearny","state_name":"New Jersey","lat":40.75281,"lng":-74.12016,"zip":"07032","miles_from_dt":28.22},{"city":"New York","state_name":"New York","lat":40.79265,"lng":-73.94788,"zip":"10029","miles_from_dt":28.23},{"city":"New York","state_name":"New York","lat":40.77752,"lng":-73.98875,"zip":"10069","miles_from_dt":28.3},{"city":"Florham Park","state_name":"New Jersey","lat":40.77717,"lng":-74.39246,"zip":"07932","miles_from_dt":28.35},{"city":"Weehawken","state_name":"New Jersey","lat":40.76761,"lng":-74.01693,"zip":"07086","miles_from_dt":28.44},{"city":"New York","state_name":"New York","lat":40.77699,"lng":-73.98352,"zip":"10133","miles_from_dt":28.44},{"city":"Mount Arlington","state_name":"New Jersey","lat":40.9189,"lng":-74.6336,"zip":"07856","miles_from_dt":28.46},{"city":"South Orange","state_name":"New Jersey","lat":40.74908,"lng":-74.26022,"zip":"07079","miles_from_dt":28.47},{"city":"Port Chester","state_name":"New York","lat":41.01676,"lng":-73.67735,"zip":"10573","miles_from_dt":28.49},{"city":"Somers","state_name":"New York","lat":41.33178,"lng":-73.6933,"zip":"10589","miles_from_dt":28.5},{"city":"New York","state_name":"New York","lat":40.79538,"lng":-73.92965,"zip":"10035","miles_from_dt":28.5},{"city":"Bronx","state_name":"New York","lat":40.86821,"lng":-73.80044,"zip":"10464","miles_from_dt":28.55},{"city":"New York","state_name":"New York","lat":40.78562,"lng":-73.94982,"zip":"10131","miles_from_dt":28.62},{"city":"Harrison","state_name":"New Jersey","lat":40.74377,"lng":-74.15389,"zip":"07029","miles_from_dt":28.66},{"city":"New York","state_name":"New York","lat":40.77464,"lng":-73.97836,"zip":"10023","miles_from_dt":28.69},{"city":"Hopatcong","state_name":"New Jersey","lat":40.93989,"lng":-74.65928,"zip":"07843","miles_from_dt":28.78},{"city":"Rye","state_name":"New York","lat":40.97854,"lng":-73.69258,"zip":"10580","miles_from_dt":28.78},{"city":"Bronx","state_name":"New York","lat":40.81061,"lng":-73.8846,"zip":"10474","miles_from_dt":28.82},{"city":"Newark","state_name":"New Jersey","lat":40.74177,"lng":-74.23047,"zip":"07106","miles_from_dt":28.82},{"city":"New York","state_name":"New York","lat":40.78151,"lng":-73.95018,"zip":"10128","miles_from_dt":28.86},{"city":"Mine Hill","state_name":"New Jersey","lat":40.87819,"lng":-74.60003,"zip":"07803","miles_from_dt":28.86},{"city":"New York","state_name":"New York","lat":40.76822,"lng":-73.98795,"zip":"10107","miles_from_dt":28.91},{"city":"Jersey City","state_name":"New Jersey","lat":40.75192,"lng":-74.05429,"zip":"07307","miles_from_dt":28.92},{"city":"Newark","state_name":"New Jersey","lat":40.73886,"lng":-74.19529,"zip":"07103","miles_from_dt":28.94},{"city":"New York","state_name":"New York","lat":40.76671,"lng":-73.99052,"zip":"10101","miles_from_dt":28.96},{"city":"Jersey City","state_name":"New Jersey","lat":40.75143,"lng":-74.0509,"zip":"07097","miles_from_dt":29},{"city":"Convent Station","state_name":"New Jersey","lat":40.78105,"lng":-74.43517,"zip":"07961","miles_from_dt":29.02},{"city":"Bedford","state_name":"New York","lat":41.1889,"lng":-73.63411,"zip":"10506","miles_from_dt":29.06},{"city":"Dover","state_name":"New Jersey","lat":40.85424,"lng":-74.57469,"zip":"07802","miles_from_dt":29.06},{"city":"Goldens Bridge","state_name":"New York","lat":41.29388,"lng":-73.66171,"zip":"10526","miles_from_dt":29.07},{"city":"New York","state_name":"New York","lat":40.76063,"lng":-74.00545,"zip":"10272","miles_from_dt":29.09},{"city":"Purdys","state_name":"New York","lat":41.31815,"lng":-73.673,"zip":"10578","miles_from_dt":29.1},{"city":"New York","state_name":"New York","lat":40.76652,"lng":-73.98378,"zip":"10106","miles_from_dt":29.1},{"city":"New York","state_name":"New York","lat":40.77643,"lng":-73.95339,"zip":"10028","miles_from_dt":29.11},{"city":"New York","state_name":"New York","lat":40.76586,"lng":-73.9853,"zip":"10019","miles_from_dt":29.12},{"city":"Bronx","state_name":"New York","lat":40.81817,"lng":-73.85889,"zip":"10473","miles_from_dt":29.16},{"city":"Newark","state_name":"New Jersey","lat":40.73576,"lng":-74.17343,"zip":"07102","miles_from_dt":29.17},{"city":"Newark","state_name":"New Jersey","lat":40.73566,"lng":-74.1714,"zip":"07175","miles_from_dt":29.18},{"city":"Morristown","state_name":"New Jersey","lat":40.8064,"lng":-74.50061,"zip":"07962","miles_from_dt":29.21},{"city":"Morristown","state_name":"New Jersey","lat":40.79547,"lng":-74.47775,"zip":"07963","miles_from_dt":29.21},{"city":"New York","state_name":"New York","lat":40.76496,"lng":-73.98293,"zip":"10102","miles_from_dt":29.22},{"city":"New York","state_name":"New York","lat":40.77342,"lng":-73.95642,"zip":"10075","miles_from_dt":29.23},{"city":"Newark","state_name":"New Jersey","lat":40.73588,"lng":-74.14386,"zip":"07198","miles_from_dt":29.25},{"city":"Branchville","state_name":"New Jersey","lat":41.14489,"lng":-74.75209,"zip":"07890","miles_from_dt":29.34},{"city":"New York","state_name":"New York","lat":40.76071,"lng":-73.98937,"zip":"10109","miles_from_dt":29.37},{"city":"New York","state_name":"New York","lat":40.76436,"lng":-73.97649,"zip":"10151","miles_from_dt":29.38},{"city":"New York","state_name":"New York","lat":40.76963,"lng":-73.95899,"zip":"10021","miles_from_dt":29.41},{"city":"New York","state_name":"New York","lat":40.75976,"lng":-73.99064,"zip":"10036","miles_from_dt":29.41},{"city":"New York","state_name":"New York","lat":40.75876,"lng":-73.99262,"zip":"10108","miles_from_dt":29.44},{"city":"Kenvil","state_name":"New Jersey","lat":40.8856,"lng":-74.6237,"zip":"07847","miles_from_dt":29.46},{"city":"New York","state_name":"New York","lat":40.75489,"lng":-74.00397,"zip":"10130","miles_from_dt":29.49},{"city":"Newark","state_name":"New Jersey","lat":40.73095,"lng":-74.17544,"zip":"07188","miles_from_dt":29.5},{"city":"New York","state_name":"New York","lat":40.76362,"lng":-73.97244,"zip":"10153","miles_from_dt":29.51},{"city":"New York","state_name":"New York","lat":40.75748,"lng":-73.99137,"zip":"10185","miles_from_dt":29.54},{"city":"New York","state_name":"New York","lat":40.76223,"lng":-73.97517,"zip":"10105","miles_from_dt":29.55},{"city":"Newark","state_name":"New Jersey","lat":40.73005,"lng":-74.17657,"zip":"07192","miles_from_dt":29.56},{"city":"Newark","state_name":"New Jersey","lat":40.72982,"lng":-74.17537,"zip":"07195","miles_from_dt":29.57},{"city":"New York","state_name":"New York","lat":40.76115,"lng":-73.97755,"zip":"10104","miles_from_dt":29.57},{"city":"New York","state_name":"New York","lat":40.76078,"lng":-73.97767,"zip":"10103","miles_from_dt":29.59},{"city":"Newark","state_name":"New Jersey","lat":40.72934,"lng":-74.17695,"zip":"07193","miles_from_dt":29.61},{"city":"Short Hills","state_name":"New Jersey","lat":40.74196,"lng":-74.3277,"zip":"07078","miles_from_dt":29.62},{"city":"New York","state_name":"New York","lat":40.76472,"lng":-73.96332,"zip":"10065","miles_from_dt":29.63},{"city":"New York","state_name":"New York","lat":40.75917,"lng":-73.98071,"zip":"10020","miles_from_dt":29.63},{"city":"New York","state_name":"New York","lat":40.76936,"lng":-73.94986,"zip":"10162","miles_from_dt":29.63},{"city":"New York","state_name":"New York","lat":40.75319,"lng":-74.00088,"zip":"10125","miles_from_dt":29.65},{"city":"New York","state_name":"New York","lat":40.75953,"lng":-73.97858,"zip":"10111","miles_from_dt":29.65},{"city":"Maplewood","state_name":"New Jersey","lat":40.73302,"lng":-74.27117,"zip":"07040","miles_from_dt":29.65},{"city":"New York","state_name":"New York","lat":40.75482,"lng":-73.99445,"zip":"10090","miles_from_dt":29.66},{"city":"New York","state_name":"New York","lat":40.75536,"lng":-73.99265,"zip":"10018","miles_from_dt":29.66},{"city":"New York","state_name":"New York","lat":40.75608,"lng":-73.98919,"zip":"10138","miles_from_dt":29.67},{"city":"New York","state_name":"New York","lat":40.75562,"lng":-73.99045,"zip":"10129","miles_from_dt":29.68},{"city":"New York","state_name":"New York","lat":40.75891,"lng":-73.97904,"zip":"10112","miles_from_dt":29.68},{"city":"Randolph","state_name":"New Jersey","lat":40.84528,"lng":-74.5807,"zip":"07869","miles_from_dt":29.73},{"city":"Chelsea","state_name":"New York","lat":41.5542,"lng":-73.96471,"zip":"12512","miles_from_dt":29.73},{"city":"Jersey City","state_name":"New Jersey","lat":40.73674,"lng":-74.07132,"zip":"07306","miles_from_dt":29.74},{"city":"Hoboken","state_name":"New Jersey","lat":40.7451,"lng":-74.02815,"zip":"07030","miles_from_dt":29.74},{"city":"New York","state_name":"New York","lat":40.76073,"lng":-73.97053,"zip":"10126","miles_from_dt":29.74},{"city":"New York","state_name":"New York","lat":40.75947,"lng":-73.97339,"zip":"10043","miles_from_dt":29.76},{"city":"Newark","state_name":"New Jersey","lat":40.72707,"lng":-74.17207,"zip":"07199","miles_from_dt":29.77},{"city":"Bronx","state_name":"New York","lat":40.8286,"lng":-73.82179,"zip":"10465","miles_from_dt":29.8},{"city":"New York","state_name":"New York","lat":40.75229,"lng":-73.99508,"zip":"10117","miles_from_dt":29.81},{"city":"New York","state_name":"New York","lat":40.76076,"lng":-73.96574,"zip":"10155","miles_from_dt":29.83},{"city":"New York","state_name":"New York","lat":40.75138,"lng":-73.99715,"zip":"10199","miles_from_dt":29.83},{"city":"New York","state_name":"New York","lat":40.75872,"lng":-73.9718,"zip":"10152","miles_from_dt":29.84},{"city":"New York","state_name":"New York","lat":40.75966,"lng":-73.96858,"zip":"10055","miles_from_dt":29.84},{"city":"New York","state_name":"New York","lat":40.75016,"lng":-74.00084,"zip":"10123","miles_from_dt":29.85},{"city":"Newark","state_name":"New Jersey","lat":40.72576,"lng":-74.17222,"zip":"07101","miles_from_dt":29.86},{"city":"New York","state_name":"New York","lat":40.75778,"lng":-73.97249,"zip":"10154","miles_from_dt":29.88},{"city":"New York","state_name":"New York","lat":40.75064,"lng":-73.99728,"zip":"10001","miles_from_dt":29.88},{"city":"New York","state_name":"New York","lat":40.75756,"lng":-73.97293,"zip":"10150","miles_from_dt":29.89},{"city":"New York","state_name":"New York","lat":40.7501,"lng":-73.99887,"zip":"10121","miles_from_dt":29.89},{"city":"Newark","state_name":"New Jersey","lat":40.72559,"lng":-74.21849,"zip":"07184","miles_from_dt":29.89},{"city":"New York","state_name":"New York","lat":40.7545,"lng":-73.98226,"zip":"10110","miles_from_dt":29.9},{"city":"New York","state_name":"New York","lat":40.75425,"lng":-73.98316,"zip":"10175","miles_from_dt":29.9},{"city":"New York","state_name":"New York","lat":40.75015,"lng":-73.99706,"zip":"10122","miles_from_dt":29.91},{"city":"New York","state_name":"New York","lat":40.75856,"lng":-73.96787,"zip":"10022","miles_from_dt":29.93},{"city":"New York","state_name":"New York","lat":40.75064,"lng":-73.99273,"zip":"10119","miles_from_dt":29.96},{"city":"New York","state_name":"New York","lat":40.75705,"lng":-73.97034,"zip":"10124","miles_from_dt":29.97},{"city":"Madison","state_name":"New Jersey","lat":40.76006,"lng":-74.41889,"zip":"07940","miles_from_dt":29.97},{"city":"New York","state_name":"New York","lat":40.7559,"lng":-73.97386,"zip":"10171","miles_from_dt":29.98},{"city":"New York","state_name":"New York","lat":40.75481,"lng":-73.97715,"zip":"10166","miles_from_dt":29.98},{"city":"New York","state_name":"New York","lat":40.74896,"lng":-73.99785,"zip":"10120","miles_from_dt":29.98},{"city":"New York","state_name":"New York","lat":40.75584,"lng":-73.97322,"zip":"10087","miles_from_dt":29.99},{"city":"New York","state_name":"New York","lat":40.74875,"lng":-73.99796,"zip":"10060","miles_from_dt":29.99},{"city":"New York","state_name":"New York","lat":40.75498,"lng":-73.97589,"zip":"10177","miles_from_dt":30}],"targetCityZipCode":"10974","targetCityState":"New York"},"__N_SSG":true}