{"pageProps":{"stateName":"New-york","cityName":"westbury","nearbyCities":[{"city":"Carle Place","state_name":"New York","lat":40.74979,"lng":-73.61298,"zip":"11514","miles_from_dt":2.05},{"city":"Hicksville","state_name":"New York","lat":40.76432,"lng":-73.53162,"zip":"11802","miles_from_dt":2.34},{"city":"Old Westbury","state_name":"New York","lat":40.78659,"lng":-73.59719,"zip":"11568","miles_from_dt":2.46},{"city":"Uniondale","state_name":"New York","lat":40.71997,"lng":-73.58327,"zip":"11556","miles_from_dt":2.49},{"city":"East Meadow","state_name":"New York","lat":40.71974,"lng":-73.56044,"zip":"11554","miles_from_dt":2.57},{"city":"Hicksville","state_name":"New York","lat":40.76256,"lng":-73.52383,"zip":"11801","miles_from_dt":2.71},{"city":"Jericho","state_name":"New York","lat":40.78657,"lng":-73.5422,"zip":"11853","miles_from_dt":2.74},{"city":"Hempstead","state_name":"New York","lat":40.71896,"lng":-73.59973,"zip":"11549","miles_from_dt":2.84},{"city":"Jericho","state_name":"New York","lat":40.78976,"lng":-73.5411,"zip":"11753","miles_from_dt":2.95},{"city":"Hicksville","state_name":"New York","lat":40.76832,"lng":-73.51415,"zip":"11815","miles_from_dt":3.3},{"city":"Mineola","state_name":"New York","lat":40.74629,"lng":-73.63921,"zip":"11501","miles_from_dt":3.45},{"city":"Williston Park","state_name":"New York","lat":40.75968,"lng":-73.6422,"zip":"11596","miles_from_dt":3.56},{"city":"Uniondale","state_name":"New York","lat":40.70529,"lng":-73.5923,"zip":"11553","miles_from_dt":3.58},{"city":"Uniondale","state_name":"New York","lat":40.70594,"lng":-73.59575,"zip":"11555","miles_from_dt":3.59},{"city":"Levittown","state_name":"New York","lat":40.72545,"lng":-73.51656,"zip":"11756","miles_from_dt":3.68},{"city":"Garden City","state_name":"New York","lat":40.72485,"lng":-73.63256,"zip":"11599","miles_from_dt":3.7},{"city":"Garden City","state_name":"New York","lat":40.72716,"lng":-73.63654,"zip":"11530","miles_from_dt":3.79},{"city":"Garden City","state_name":"New York","lat":40.72159,"lng":-73.63244,"zip":"11531","miles_from_dt":3.83},{"city":"Roslyn Heights","state_name":"New York","lat":40.78288,"lng":-73.6391,"zip":"11577","miles_from_dt":3.88},{"city":"Albertson","state_name":"New York","lat":40.77082,"lng":-73.6521,"zip":"11507","miles_from_dt":4.2},{"city":"Hempstead","state_name":"New York","lat":40.70158,"lng":-73.62039,"zip":"11550","miles_from_dt":4.42},{"city":"Greenvale","state_name":"New York","lat":40.81414,"lng":-73.6097,"zip":"11548","miles_from_dt":4.45},{"city":"Hempstead","state_name":"New York","lat":40.70334,"lng":-73.62858,"zip":"11551","miles_from_dt":4.57},{"city":"Bethpage","state_name":"New York","lat":40.74267,"lng":-73.48615,"zip":"11714","miles_from_dt":4.73},{"city":"Roslyn","state_name":"New York","lat":40.79791,"lng":-73.64711,"zip":"11576","miles_from_dt":4.8},{"city":"Glen Head","state_name":"New York","lat":40.82685,"lng":-73.58853,"zip":"11545","miles_from_dt":4.98},{"city":"Roosevelt","state_name":"New York","lat":40.68044,"lng":-73.58525,"zip":"11575","miles_from_dt":5.2},{"city":"New Hyde Park","state_name":"New York","lat":40.74572,"lng":-73.67979,"zip":"11040","miles_from_dt":5.56},{"city":"Plainview","state_name":"New York","lat":40.78177,"lng":-73.4733,"zip":"11803","miles_from_dt":5.62},{"city":"West Hempstead","state_name":"New York","lat":40.6916,"lng":-73.65073,"zip":"11552","miles_from_dt":5.95},{"city":"Bellmore","state_name":"New York","lat":40.67217,"lng":-73.53293,"zip":"11710","miles_from_dt":6.15},{"city":"Old Bethpage","state_name":"New York","lat":40.75829,"lng":-73.45706,"zip":"11804","miles_from_dt":6.17},{"city":"Melville","state_name":"New York","lat":40.82821,"lng":-73.50362,"zip":"11773","miles_from_dt":6.25},{"city":"Glenwood Landing","state_name":"New York","lat":40.82881,"lng":-73.64505,"zip":"11547","miles_from_dt":6.27},{"city":"Syosset","state_name":"New York","lat":40.82819,"lng":-73.50282,"zip":"11791","miles_from_dt":6.28},{"city":"East Norwich","state_name":"New York","lat":40.84245,"lng":-73.53916,"zip":"11732","miles_from_dt":6.29},{"city":"New Hyde Park","state_name":"New York","lat":40.75854,"lng":-73.6975,"zip":"11042","miles_from_dt":6.45},{"city":"Merrick","state_name":"New York","lat":40.66307,"lng":-73.55407,"zip":"11566","miles_from_dt":6.46},{"city":"Franklin Square","state_name":"New York","lat":40.70066,"lng":-73.67514,"zip":"11010","miles_from_dt":6.49},{"city":"Manhasset","state_name":"New York","lat":40.79293,"lng":-73.68868,"zip":"11030","miles_from_dt":6.52},{"city":"Farmingdale","state_name":"New York","lat":40.73491,"lng":-73.4456,"zip":"11737","miles_from_dt":6.92},{"city":"Seaford","state_name":"New York","lat":40.67766,"lng":-73.49068,"zip":"11783","miles_from_dt":6.94},{"city":"Woodbury","state_name":"New York","lat":40.81739,"lng":-73.47004,"zip":"11797","miles_from_dt":6.96},{"city":"Rockville Centre","state_name":"New York","lat":40.66504,"lng":-73.63882,"zip":"11570","miles_from_dt":7.09},{"city":"Sea Cliff","state_name":"New York","lat":40.84406,"lng":-73.64426,"zip":"11579","miles_from_dt":7.12},{"city":"Floral Park","state_name":"New York","lat":40.72356,"lng":-73.70451,"zip":"11001","miles_from_dt":7.16},{"city":"Glen Oaks","state_name":"New York","lat":40.74621,"lng":-73.71147,"zip":"11004","miles_from_dt":7.21},{"city":"Freeport","state_name":"New York","lat":40.65007,"lng":-73.58305,"zip":"11520","miles_from_dt":7.28},{"city":"Floral Park","state_name":"New York","lat":40.75661,"lng":-73.71424,"zip":"11005","miles_from_dt":7.33},{"city":"Great Neck","state_name":"New York","lat":40.77098,"lng":-73.71293,"zip":"11020","miles_from_dt":7.34},{"city":"Floral Park","state_name":"New York","lat":40.72045,"lng":-73.70743,"zip":"11002","miles_from_dt":7.38},{"city":"Baldwin","state_name":"New York","lat":40.65027,"lng":-73.60809,"zip":"11510","miles_from_dt":7.46},{"city":"Malverne","state_name":"New York","lat":40.67505,"lng":-73.67177,"zip":"11565","miles_from_dt":7.53},{"city":"Farmingdale","state_name":"New York","lat":40.73177,"lng":-73.43284,"zip":"11735","miles_from_dt":7.62},{"city":"Port Washington","state_name":"New York","lat":40.83134,"lng":-73.68331,"zip":"11054","miles_from_dt":7.74},{"city":"Rockville Centre","state_name":"New York","lat":40.65746,"lng":-73.64859,"zip":"11571","miles_from_dt":7.8},{"city":"Bellerose","state_name":"New York","lat":40.73641,"lng":-73.7223,"zip":"11426","miles_from_dt":7.86},{"city":"Elmont","state_name":"New York","lat":40.70143,"lng":-73.7078,"zip":"11003","miles_from_dt":7.92},{"city":"Oyster Bay","state_name":"New York","lat":40.8674,"lng":-73.52651,"zip":"11771","miles_from_dt":8.13},{"city":"Wantagh","state_name":"New York","lat":40.6462,"lng":-73.51024,"zip":"11793","miles_from_dt":8.26},{"city":"Port Washington","state_name":"New York","lat":40.83815,"lng":-73.69113,"zip":"11050","miles_from_dt":8.36},{"city":"Massapequa Park","state_name":"New York","lat":40.68283,"lng":-73.44707,"zip":"11762","miles_from_dt":8.36},{"city":"Great Neck","state_name":"New York","lat":40.78644,"lng":-73.7289,"zip":"11021","miles_from_dt":8.37},{"city":"Glen Cove","state_name":"New York","lat":40.87073,"lng":-73.62879,"zip":"11542","miles_from_dt":8.45},{"city":"Little Neck","state_name":"New York","lat":40.75899,"lng":-73.73583,"zip":"11362","miles_from_dt":8.46},{"city":"Great Neck","state_name":"New York","lat":40.79162,"lng":-73.72967,"zip":"11026","miles_from_dt":8.51},{"city":"Great Neck","state_name":"New York","lat":40.78769,"lng":-73.73186,"zip":"11022","miles_from_dt":8.54},{"city":"Lynbrook","state_name":"New York","lat":40.65746,"lng":-73.67408,"zip":"11563","miles_from_dt":8.54},{"city":"Port Washington","state_name":"New York","lat":40.84103,"lng":-73.69405,"zip":"11051","miles_from_dt":8.61},{"city":"Melville","state_name":"New York","lat":40.79318,"lng":-73.41794,"zip":"11775","miles_from_dt":8.62},{"city":"Locust Valley","state_name":"New York","lat":40.88068,"lng":-73.59057,"zip":"11560","miles_from_dt":8.68},{"city":"Valley Stream","state_name":"New York","lat":40.67491,"lng":-73.70374,"zip":"11580","miles_from_dt":8.76},{"city":"Mill Neck","state_name":"New York","lat":40.88249,"lng":-73.55862,"zip":"11765","miles_from_dt":8.81},{"city":"Great Neck","state_name":"New York","lat":40.7994,"lng":-73.73282,"zip":"11023","miles_from_dt":8.84},{"city":"Port Washington","state_name":"New York","lat":40.83919,"lng":-73.70326,"zip":"11053","miles_from_dt":8.88},{"city":"Melville","state_name":"New York","lat":40.78372,"lng":-73.40931,"zip":"11747","miles_from_dt":8.89},{"city":"Port Washington","state_name":"New York","lat":40.84089,"lng":-73.70491,"zip":"11055","miles_from_dt":9.03},{"city":"Port Washington","state_name":"New York","lat":40.84441,"lng":-73.70193,"zip":"11052","miles_from_dt":9.07},{"city":"Great Neck","state_name":"New York","lat":40.79821,"lng":-73.73829,"zip":"11027","miles_from_dt":9.08},{"city":"Oceanside","state_name":"New York","lat":40.63231,"lng":-73.63686,"zip":"11572","miles_from_dt":9.1},{"city":"Queens Village","state_name":"New York","lat":40.72099,"lng":-73.74222,"zip":"11428","miles_from_dt":9.11},{"city":"Little Neck","state_name":"New York","lat":40.77251,"lng":-73.74708,"zip":"11363","miles_from_dt":9.12},{"city":"Queens Village","state_name":"New York","lat":40.73094,"lng":-73.74569,"zip":"11427","miles_from_dt":9.13},{"city":"Queens Village","state_name":"New York","lat":40.70958,"lng":-73.73843,"zip":"11429","miles_from_dt":9.16},{"city":"Valley Stream","state_name":"New York","lat":40.66455,"lng":-73.70428,"zip":"11582","miles_from_dt":9.25},{"city":"Massapequa","state_name":"New York","lat":40.65361,"lng":-73.45626,"zip":"11758","miles_from_dt":9.38},{"city":"East Rockaway","state_name":"New York","lat":40.63772,"lng":-73.66691,"zip":"11518","miles_from_dt":9.46},{"city":"Cambria Heights","state_name":"New York","lat":40.69406,"lng":-73.73623,"zip":"11411","miles_from_dt":9.48},{"city":"Oakland Gardens","state_name":"New York","lat":40.74625,"lng":-73.75598,"zip":"11364","miles_from_dt":9.54},{"city":"Great Neck","state_name":"New York","lat":40.81642,"lng":-73.74205,"zip":"11024","miles_from_dt":9.74},{"city":"Amityville","state_name":"New York","lat":40.6817,"lng":-73.41289,"zip":"11701","miles_from_dt":9.9},{"city":"Cold Spring Harbor","state_name":"New York","lat":40.86522,"lng":-73.45288,"zip":"11724","miles_from_dt":9.91},{"city":"Hewlett","state_name":"New York","lat":40.63723,"lng":-73.6921,"zip":"11557","miles_from_dt":10.23},{"city":"Valley Stream","state_name":"New York","lat":40.65153,"lng":-73.71653,"zip":"11581","miles_from_dt":10.34},{"city":"Bayside","state_name":"New York","lat":40.76393,"lng":-73.77294,"zip":"11361","miles_from_dt":10.42},{"city":"Bayville","state_name":"New York","lat":40.90665,"lng":-73.56005,"zip":"11709","miles_from_dt":10.46},{"city":"Saint Albans","state_name":"New York","lat":40.69804,"lng":-73.759,"zip":"11412","miles_from_dt":10.46},{"city":"Wyandanch","state_name":"New York","lat":40.752,"lng":-73.37497,"zip":"11798","miles_from_dt":10.48},{"city":"Hollis","state_name":"New York","lat":40.71564,"lng":-73.76826,"zip":"11423","miles_from_dt":10.53},{"city":"Rosedale","state_name":"New York","lat":40.66053,"lng":-73.73658,"zip":"11422","miles_from_dt":10.73},{"city":"Copiague","state_name":"New York","lat":40.67891,"lng":-73.39564,"zip":"11726","miles_from_dt":10.78},{"city":"Bayside","state_name":"New York","lat":40.79147,"lng":-73.77662,"zip":"11359","miles_from_dt":10.88},{"city":"Fresh Meadows","state_name":"New York","lat":40.73112,"lng":-73.7804,"zip":"11366","miles_from_dt":10.93},{"city":"Springfield Gardens","state_name":"New York","lat":40.67002,"lng":-73.75116,"zip":"11413","miles_from_dt":10.98},{"city":"Bayside","state_name":"New York","lat":40.7805,"lng":-73.78159,"zip":"11360","miles_from_dt":10.99},{"city":"Island Park","state_name":"New York","lat":40.60539,"lng":-73.64952,"zip":"11558","miles_from_dt":11.07},{"city":"Woodmere","state_name":"New York","lat":40.63109,"lng":-73.71188,"zip":"11598","miles_from_dt":11.2},{"city":"Point Lookout","state_name":"New York","lat":40.5903,"lng":-73.58046,"zip":"11569","miles_from_dt":11.4},{"city":"Lindenhurst","state_name":"New York","lat":40.68892,"lng":-73.37356,"zip":"11757","miles_from_dt":11.51},{"city":"Huntington","state_name":"New York","lat":40.88018,"lng":-73.4266,"zip":"11743","miles_from_dt":11.59},{"city":"Fresh Meadows","state_name":"New York","lat":40.73983,"lng":-73.79499,"zip":"11365","miles_from_dt":11.61},{"city":"West Babylon","state_name":"New York","lat":40.71623,"lng":-73.35908,"zip":"11704","miles_from_dt":11.63},{"city":"Flushing","state_name":"New York","lat":40.76038,"lng":-73.79648,"zip":"11358","miles_from_dt":11.65},{"city":"Jamaica","state_name":"New York","lat":40.72195,"lng":-73.79455,"zip":"11439","miles_from_dt":11.77},{"city":"Jamaica","state_name":"New York","lat":40.67437,"lng":-73.77189,"zip":"11425","miles_from_dt":11.77},{"city":"Jamaica","state_name":"New York","lat":40.71789,"lng":-73.79349,"zip":"11431","miles_from_dt":11.78},{"city":"Jamaica","state_name":"New York","lat":40.71491,"lng":-73.79295,"zip":"11432","miles_from_dt":11.79},{"city":"Jamaica","state_name":"New York","lat":40.69805,"lng":-73.78675,"zip":"11433","miles_from_dt":11.82},{"city":"Jamaica","state_name":"New York","lat":40.69945,"lng":-73.78856,"zip":"11405","miles_from_dt":11.88},{"city":"Jamaica","state_name":"New York","lat":40.67683,"lng":-73.77623,"zip":"11434","miles_from_dt":11.89},{"city":"Huntington Station","state_name":"New York","lat":40.81421,"lng":-73.3608,"zip":"11746","miles_from_dt":11.93},{"city":"Cedarhurst","state_name":"New York","lat":40.6258,"lng":-73.7263,"zip":"11516","miles_from_dt":11.98},{"city":"Long Beach","state_name":"New York","lat":40.58969,"lng":-73.64455,"zip":"11561","miles_from_dt":12.01},{"city":"Jamaica","state_name":"New York","lat":40.69924,"lng":-73.792,"zip":"11437","miles_from_dt":12.05},{"city":"Jamaica","state_name":"New York","lat":40.7012,"lng":-73.79579,"zip":"11451","miles_from_dt":12.2},{"city":"Whitestone","state_name":"New York","lat":40.78636,"lng":-73.81094,"zip":"11357","miles_from_dt":12.58},{"city":"Lawrence","state_name":"New York","lat":40.60615,"lng":-73.71688,"zip":"11559","miles_from_dt":12.72},{"city":"Jamaica","state_name":"New York","lat":40.67587,"lng":-73.79664,"zip":"11436","miles_from_dt":12.88},{"city":"Jamaica","state_name":"New York","lat":40.70111,"lng":-73.80968,"zip":"11435","miles_from_dt":12.89},{"city":"Flushing","state_name":"New York","lat":40.75328,"lng":-73.82064,"zip":"11352","miles_from_dt":12.91},{"city":"Flushing","state_name":"New York","lat":40.75143,"lng":-73.82125,"zip":"11355","miles_from_dt":12.94},{"city":"Flushing","state_name":"New York","lat":40.73044,"lng":-73.82274,"zip":"11367","miles_from_dt":13.13},{"city":"Inwood","state_name":"New York","lat":40.62143,"lng":-73.75292,"zip":"11096","miles_from_dt":13.16},{"city":"North Babylon","state_name":"New York","lat":40.73325,"lng":-73.32533,"zip":"11703","miles_from_dt":13.17},{"city":"Jamaica","state_name":"New York","lat":40.6494,"lng":-73.78373,"zip":"11499","miles_from_dt":13.19},{"city":"Deer Park","state_name":"New York","lat":40.76249,"lng":-73.32161,"zip":"11729","miles_from_dt":13.28},{"city":"Flushing","state_name":"New York","lat":40.7686,"lng":-73.82743,"zip":"11354","miles_from_dt":13.29},{"city":"Jamaica","state_name":"New York","lat":40.64703,"lng":-73.78717,"zip":"11430","miles_from_dt":13.44},{"city":"West Babylon","state_name":"New York","lat":40.7004,"lng":-73.3278,"zip":"11707","miles_from_dt":13.5},{"city":"Greenlawn","state_name":"New York","lat":40.86536,"lng":-73.36118,"zip":"11740","miles_from_dt":13.52},{"city":"Flushing","state_name":"New York","lat":40.78109,"lng":-73.83091,"zip":"11351","miles_from_dt":13.56},{"city":"Jamaica","state_name":"New York","lat":40.71397,"lng":-73.82809,"zip":"11424","miles_from_dt":13.61},{"city":"Kew Gardens","state_name":"New York","lat":40.70808,"lng":-73.82801,"zip":"11415","miles_from_dt":13.7},{"city":"South Richmond Hill","state_name":"New York","lat":40.68863,"lng":-73.82302,"zip":"11419","miles_from_dt":13.83},{"city":"Bronx","state_name":"New York","lat":40.8286,"lng":-73.82179,"zip":"10465","miles_from_dt":13.91},{"city":"South Ozone Park","state_name":"New York","lat":40.67352,"lng":-73.8177,"zip":"11420","miles_from_dt":13.96},{"city":"Atlantic Beach","state_name":"New York","lat":40.58872,"lng":-73.7286,"zip":"11509","miles_from_dt":14.06},{"city":"College Point","state_name":"New York","lat":40.78492,"lng":-73.84149,"zip":"11356","miles_from_dt":14.15},{"city":"Bronx","state_name":"New York","lat":40.86821,"lng":-73.80044,"zip":"10464","miles_from_dt":14.17},{"city":"Richmond Hill","state_name":"New York","lat":40.70032,"lng":-73.83603,"zip":"11418","miles_from_dt":14.24},{"city":"Forest Hills","state_name":"New York","lat":40.72315,"lng":-73.84373,"zip":"11375","miles_from_dt":14.3},{"city":"Babylon","state_name":"New York","lat":40.65155,"lng":-73.33824,"zip":"11702","miles_from_dt":14.33},{"city":"Centerport","state_name":"New York","lat":40.89362,"lng":-73.37009,"zip":"11721","miles_from_dt":14.35},{"city":"Far Rockaway","state_name":"New York","lat":40.60152,"lng":-73.76173,"zip":"11691","miles_from_dt":14.47},{"city":"New Rochelle","state_name":"New York","lat":40.89593,"lng":-73.78028,"zip":"10805","miles_from_dt":14.5},{"city":"Far Rockaway","state_name":"New York","lat":40.60107,"lng":-73.76211,"zip":"11690","miles_from_dt":14.51},{"city":"Corona","state_name":"New York","lat":40.74962,"lng":-73.85264,"zip":"11368","miles_from_dt":14.59},{"city":"West Islip","state_name":"New York","lat":40.70803,"lng":-73.29827,"zip":"11795","miles_from_dt":14.87},{"city":"Ozone Park","state_name":"New York","lat":40.67641,"lng":-73.84455,"zip":"11417","miles_from_dt":15.18},{"city":"Rego Park","state_name":"New York","lat":40.72647,"lng":-73.86144,"zip":"11374","miles_from_dt":15.18},{"city":"Ozone Park","state_name":"New York","lat":40.68458,"lng":-73.84967,"zip":"11416","miles_from_dt":15.24},{"city":"New Rochelle","state_name":"New York","lat":40.91314,"lng":-73.77973,"zip":"10802","miles_from_dt":15.3},{"city":"Bronx","state_name":"New York","lat":40.84671,"lng":-73.84079,"zip":"10461","miles_from_dt":15.31},{"city":"East Northport","state_name":"New York","lat":40.86262,"lng":-73.31703,"zip":"11731","miles_from_dt":15.4},{"city":"Woodhaven","state_name":"New York","lat":40.69403,"lng":-73.85865,"zip":"11421","miles_from_dt":15.5},{"city":"Bronx","state_name":"New York","lat":40.81817,"lng":-73.85889,"zip":"10473","miles_from_dt":15.52},{"city":"Bronx","state_name":"New York","lat":40.87528,"lng":-73.82702,"zip":"10475","miles_from_dt":15.6},{"city":"East Elmhurst","state_name":"New York","lat":40.76345,"lng":-73.87222,"zip":"11369","miles_from_dt":15.62},{"city":"New Rochelle","state_name":"New York","lat":40.91751,"lng":-73.78396,"zip":"10801","miles_from_dt":15.67},{"city":"Howard Beach","state_name":"New York","lat":40.65818,"lng":-73.8448,"zip":"11414","miles_from_dt":15.69},{"city":"Pelham","state_name":"New York","lat":40.89978,"lng":-73.80619,"zip":"10803","miles_from_dt":15.7},{"city":"Flushing","state_name":"New York","lat":40.77445,"lng":-73.87316,"zip":"11371","miles_from_dt":15.72},{"city":"Larchmont","state_name":"New York","lat":40.9376,"lng":-73.75707,"zip":"10538","miles_from_dt":15.79},{"city":"Arverne","state_name":"New York","lat":40.59373,"lng":-73.79201,"zip":"11692","miles_from_dt":15.96},{"city":"Elmhurst","state_name":"New York","lat":40.73892,"lng":-73.87854,"zip":"11373","miles_from_dt":15.99},{"city":"Flushing","state_name":"New York","lat":40.71592,"lng":-73.87577,"zip":"11381","miles_from_dt":16.04},{"city":"Mamaroneck","state_name":"New York","lat":40.95274,"lng":-73.73645,"zip":"10543","miles_from_dt":16.04},{"city":"Bronx","state_name":"New York","lat":40.84297,"lng":-73.85873,"zip":"10462","miles_from_dt":16.08},{"city":"Jackson Heights","state_name":"New York","lat":40.75172,"lng":-73.88367,"zip":"11372","miles_from_dt":16.22},{"city":"Bronx","state_name":"New York","lat":40.86851,"lng":-73.84666,"zip":"10469","miles_from_dt":16.26},{"city":"Middle Village","state_name":"New York","lat":40.71709,"lng":-73.88056,"zip":"11379","miles_from_dt":16.27},{"city":"Brooklyn","state_name":"New York","lat":40.66392,"lng":-73.86051,"zip":"11256","miles_from_dt":16.28},{"city":"Elmhurst","state_name":"New York","lat":40.74295,"lng":-73.88462,"zip":"11380","miles_from_dt":16.29},{"city":"Bronx","state_name":"New York","lat":40.82968,"lng":-73.86942,"zip":"10472","miles_from_dt":16.29},{"city":"East Elmhurst","state_name":"New York","lat":40.77554,"lng":-73.88766,"zip":"11370","miles_from_dt":16.48},{"city":"Commack","state_name":"New York","lat":40.84056,"lng":-73.28085,"zip":"11725","miles_from_dt":16.49},{"city":"Brightwaters","state_name":"New York","lat":40.71891,"lng":-73.26391,"zip":"11718","miles_from_dt":16.5},{"city":"Mount Vernon","state_name":"New York","lat":40.90173,"lng":-73.82394,"zip":"10551","miles_from_dt":16.51},{"city":"Rye","state_name":"New York","lat":40.97854,"lng":-73.69258,"zip":"10580","miles_from_dt":16.59},{"city":"Brooklyn","state_name":"New York","lat":40.67481,"lng":-73.87243,"zip":"11208","miles_from_dt":16.6},{"city":"Bronx","state_name":"New York","lat":40.81061,"lng":-73.8846,"zip":"10474","miles_from_dt":16.7},{"city":"Mount Vernon","state_name":"New York","lat":40.90858,"lng":-73.82161,"zip":"10553","miles_from_dt":16.71},{"city":"Far Rockaway","state_name":"New York","lat":40.59649,"lng":-73.81663,"zip":"11693","miles_from_dt":16.79},{"city":"Northport","state_name":"New York","lat":40.91052,"lng":-73.32611,"zip":"11768","miles_from_dt":16.86},{"city":"Ridgewood","state_name":"New York","lat":40.70103,"lng":-73.89011,"zip":"11385","miles_from_dt":16.98},{"city":"Brentwood","state_name":"New York","lat":40.78405,"lng":-73.25223,"zip":"11717","miles_from_dt":17.03},{"city":"Bronx","state_name":"New York","lat":40.89104,"lng":-73.8461,"zip":"10466","miles_from_dt":17.03},{"city":"Bronx","state_name":"New York","lat":40.84273,"lng":-73.87891,"zip":"10460","miles_from_dt":17.06},{"city":"Mount Vernon","state_name":"New York","lat":40.90627,"lng":-73.8351,"zip":"10550","miles_from_dt":17.17},{"city":"Ridgewood","state_name":"New York","lat":40.70039,"lng":-73.89473,"zip":"11386","miles_from_dt":17.23},{"city":"Harrison","state_name":"New York","lat":40.97819,"lng":-73.72306,"zip":"10528","miles_from_dt":17.23},{"city":"Brooklyn","state_name":"New York","lat":40.64733,"lng":-73.87136,"zip":"11239","miles_from_dt":17.28},{"city":"Woodside","state_name":"New York","lat":40.74483,"lng":-73.90516,"zip":"11377","miles_from_dt":17.36},{"city":"New Rochelle","state_name":"New York","lat":40.94914,"lng":-73.78629,"zip":"10804","miles_from_dt":17.37},{"city":"Bronx","state_name":"New York","lat":40.82572,"lng":-73.89295,"zip":"10459","miles_from_dt":17.38},{"city":"Astoria","state_name":"New York","lat":40.779,"lng":-73.90652,"zip":"11105","miles_from_dt":17.49},{"city":"Mount Vernon","state_name":"New York","lat":40.92376,"lng":-73.82497,"zip":"10552","miles_from_dt":17.52},{"city":"Bronx","state_name":"New York","lat":40.87522,"lng":-73.872,"zip":"10467","miles_from_dt":17.65},{"city":"Maspeth","state_name":"New York","lat":40.72493,"lng":-73.91034,"zip":"11378","miles_from_dt":17.74},{"city":"Brooklyn","state_name":"New York","lat":40.67016,"lng":-73.89383,"zip":"11207","miles_from_dt":17.76},{"city":"Astoria","state_name":"New York","lat":40.76261,"lng":-73.91334,"zip":"11103","miles_from_dt":17.78},{"city":"Bay Shore","state_name":"New York","lat":40.706,"lng":-73.24208,"zip":"11706","miles_from_dt":17.79},{"city":"Bronx","state_name":"New York","lat":40.86249,"lng":-73.88643,"zip":"10458","miles_from_dt":17.94},{"city":"Bronx","state_name":"New York","lat":40.8148,"lng":-73.90862,"zip":"10455","miles_from_dt":17.99},{"city":"Bronx","state_name":"New York","lat":40.84571,"lng":-73.89794,"zip":"10457","miles_from_dt":18.06},{"city":"Sunnyside","state_name":"New York","lat":40.74484,"lng":-73.92049,"zip":"11104","miles_from_dt":18.16},{"city":"Bronx","state_name":"New York","lat":40.89598,"lng":-73.86805,"zip":"10470","miles_from_dt":18.18},{"city":"Bronx","state_name":"New York","lat":40.83064,"lng":-73.90812,"zip":"10456","miles_from_dt":18.24},{"city":"Bronx","state_name":"New York","lat":40.8056,"lng":-73.91664,"zip":"10454","miles_from_dt":18.27},{"city":"Eastchester","state_name":"New York","lat":40.95337,"lng":-73.80885,"zip":"10709","miles_from_dt":18.36},{"city":"Bronxville","state_name":"New York","lat":40.9379,"lng":-73.83167,"zip":"10708","miles_from_dt":18.44},{"city":"Astoria","state_name":"New York","lat":40.77161,"lng":-73.92619,"zip":"11102","miles_from_dt":18.48},{"city":"Brooklyn","state_name":"New York","lat":40.70427,"lng":-73.92108,"zip":"11237","miles_from_dt":18.53},{"city":"Greenwich","state_name":"Connecticut","lat":41.02276,"lng":-73.62845,"zip":"06836","miles_from_dt":18.66},{"city":"Bronx","state_name":"New York","lat":40.8681,"lng":-73.89985,"zip":"10468","miles_from_dt":18.74},{"city":"Astoria","state_name":"New York","lat":40.76191,"lng":-73.93169,"zip":"11106","miles_from_dt":18.74},{"city":"Port Chester","state_name":"New York","lat":41.01676,"lng":-73.67735,"zip":"10573","miles_from_dt":18.82},{"city":"Yonkers","state_name":"New York","lat":40.91911,"lng":-73.86187,"zip":"10704","miles_from_dt":18.82},{"city":"New York","state_name":"New York","lat":40.79538,"lng":-73.92965,"zip":"10035","miles_from_dt":18.83},{"city":"Bronx","state_name":"New York","lat":40.82097,"lng":-73.92383,"zip":"10451","miles_from_dt":18.86},{"city":"Old Greenwich","state_name":"Connecticut","lat":41.02881,"lng":-73.56964,"zip":"06870","miles_from_dt":18.87},{"city":"Brooklyn","state_name":"New York","lat":40.6629,"lng":-73.91308,"zip":"11212","miles_from_dt":18.88},{"city":"Brooklyn","state_name":"New York","lat":40.67827,"lng":-73.91994,"zip":"11233","miles_from_dt":18.89},{"city":"Brooklyn","state_name":"New York","lat":40.63951,"lng":-73.90098,"zip":"11236","miles_from_dt":18.91},{"city":"Bronx","state_name":"New York","lat":40.85248,"lng":-73.9133,"zip":"10453","miles_from_dt":18.98},{"city":"Islip","state_name":"New York","lat":40.72999,"lng":-73.21424,"zip":"11751","miles_from_dt":19},{"city":"Brooklyn","state_name":"New York","lat":40.6914,"lng":-73.92764,"zip":"11221","miles_from_dt":19.05},{"city":"Riverside","state_name":"Connecticut","lat":41.03191,"lng":-73.58283,"zip":"06878","miles_from_dt":19.08},{"city":"Rockaway Park","state_name":"New York","lat":40.57532,"lng":-73.85099,"zip":"11694","miles_from_dt":19.11},{"city":"Long Island City","state_name":"New York","lat":40.74679,"lng":-73.93916,"zip":"11101","miles_from_dt":19.14},{"city":"Bronx","state_name":"New York","lat":40.8378,"lng":-73.92333,"zip":"10452","miles_from_dt":19.15},{"city":"Tuckahoe","state_name":"New York","lat":40.95961,"lng":-73.82291,"zip":"10707","miles_from_dt":19.18},{"city":"Bronx","state_name":"New York","lat":40.88841,"lng":-73.89905,"zip":"10463","miles_from_dt":19.32},{"city":"Kings Park","state_name":"New York","lat":40.88771,"lng":-73.24738,"zip":"11754","miles_from_dt":19.43},{"city":"Hauppauge","state_name":"New York","lat":40.81808,"lng":-73.21318,"zip":"11788","miles_from_dt":19.44},{"city":"New York","state_name":"New York","lat":40.81302,"lng":-73.93776,"zip":"10037","miles_from_dt":19.46},{"city":"Melville","state_name":"New York","lat":40.81603,"lng":-73.21201,"zip":"11760","miles_from_dt":19.47},{"city":"New York","state_name":"New York","lat":40.82631,"lng":-73.93752,"zip":"10039","miles_from_dt":19.65},{"city":"Brooklyn","state_name":"New York","lat":40.72862,"lng":-73.94764,"zip":"11222","miles_from_dt":19.66},{"city":"Brooklyn","state_name":"New York","lat":40.7019,"lng":-73.94254,"zip":"11206","miles_from_dt":19.66},{"city":"Long Island City","state_name":"New York","lat":40.74724,"lng":-73.94935,"zip":"11120","miles_from_dt":19.67},{"city":"White Plains","state_name":"New York","lat":41.0095,"lng":-73.74518,"zip":"10605","miles_from_dt":19.68},{"city":"New York","state_name":"New York","lat":40.76209,"lng":-73.94981,"zip":"10044","miles_from_dt":19.69},{"city":"Brooklyn","state_name":"New York","lat":40.71428,"lng":-73.94602,"zip":"11211","miles_from_dt":19.7},{"city":"Stamford","state_name":"Connecticut","lat":41.04026,"lng":-73.54805,"zip":"06926","miles_from_dt":19.71},{"city":"New York","state_name":"New York","lat":40.76936,"lng":-73.94986,"zip":"10162","miles_from_dt":19.71},{"city":"Stamford","state_name":"Connecticut","lat":41.04136,"lng":-73.56248,"zip":"06911","miles_from_dt":19.74},{"city":"New York","state_name":"New York","lat":40.79265,"lng":-73.94788,"zip":"10029","miles_from_dt":19.75},{"city":"New York","state_name":"New York","lat":40.78151,"lng":-73.95018,"zip":"10128","miles_from_dt":19.78},{"city":"New York","state_name":"New York","lat":40.81826,"lng":-73.94283,"zip":"10030","miles_from_dt":19.79},{"city":"New York","state_name":"New York","lat":40.78562,"lng":-73.94982,"zip":"10131","miles_from_dt":19.79},{"city":"Scarsdale","state_name":"New York","lat":40.98916,"lng":-73.79443,"zip":"10583","miles_from_dt":19.82},{"city":"Brooklyn","state_name":"New York","lat":40.67117,"lng":-73.93632,"zip":"11213","miles_from_dt":19.86},{"city":"New York","state_name":"New York","lat":40.86749,"lng":-73.92358,"zip":"10034","miles_from_dt":19.86},{"city":"New York","state_name":"New York","lat":40.85807,"lng":-73.9296,"zip":"10040","miles_from_dt":19.91},{"city":"New York","state_name":"New York","lat":40.77643,"lng":-73.95339,"zip":"10028","miles_from_dt":19.92},{"city":"Central Islip","state_name":"New York","lat":40.78358,"lng":-73.19657,"zip":"11722","miles_from_dt":19.93},{"city":"Stamford","state_name":"Connecticut","lat":41.04383,"lng":-73.54811,"zip":"06927","miles_from_dt":19.95},{"city":"New York","state_name":"New York","lat":40.84744,"lng":-73.93549,"zip":"10033","miles_from_dt":19.96},{"city":"Stamford","state_name":"Connecticut","lat":41.04444,"lng":-73.54963,"zip":"06910","miles_from_dt":19.99},{"city":"Yonkers","state_name":"New York","lat":40.91929,"lng":-73.88928,"zip":"10705","miles_from_dt":19.99},{"city":"Bronx","state_name":"New York","lat":40.90002,"lng":-73.9067,"zip":"10471","miles_from_dt":20.06},{"city":"New York","state_name":"New York","lat":40.77342,"lng":-73.95642,"zip":"10075","miles_from_dt":20.07},{"city":"Long Island City","state_name":"New York","lat":40.7463,"lng":-73.95699,"zip":"11109","miles_from_dt":20.07},{"city":"New York","state_name":"New York","lat":40.80302,"lng":-73.95348,"zip":"10026","miles_from_dt":20.14},{"city":"New York","state_name":"New York","lat":40.839,"lng":-73.94282,"zip":"10032","miles_from_dt":20.15},{"city":"New York","state_name":"New York","lat":40.76963,"lng":-73.95899,"zip":"10021","miles_from_dt":20.19},{"city":"New York","state_name":"New York","lat":40.81426,"lng":-73.95256,"zip":"10116","miles_from_dt":20.23},{"city":"Smithtown","state_name":"New York","lat":40.85338,"lng":-73.21089,"zip":"11787","miles_from_dt":20.23},{"city":"Brooklyn","state_name":"New York","lat":40.64958,"lng":-73.93431,"zip":"11203","miles_from_dt":20.25},{"city":"New York","state_name":"New York","lat":40.82485,"lng":-73.95023,"zip":"10031","miles_from_dt":20.27},{"city":"New York","state_name":"New York","lat":40.81187,"lng":-73.95459,"zip":"10027","miles_from_dt":20.31},{"city":"Brooklyn","state_name":"New York","lat":40.68085,"lng":-73.94929,"zip":"11216","miles_from_dt":20.33},{"city":"Greenwich","state_name":"Connecticut","lat":41.048,"lng":-73.624,"zip":"06830","miles_from_dt":20.35},{"city":"New York","state_name":"New York","lat":40.76472,"lng":-73.96332,"zip":"10065","miles_from_dt":20.4},{"city":"Brooklyn","state_name":"New York","lat":40.6072,"lng":-73.91107,"zip":"11234","miles_from_dt":20.42},{"city":"Stamford","state_name":"Connecticut","lat":41.05007,"lng":-73.53897,"zip":"06913","miles_from_dt":20.42},{"city":"Yonkers","state_name":"New York","lat":40.96732,"lng":-73.84739,"zip":"10710","miles_from_dt":20.45},{"city":"Stamford","state_name":"Connecticut","lat":41.05114,"lng":-73.54054,"zip":"06904","miles_from_dt":20.48},{"city":"New York","state_name":"New York","lat":40.76076,"lng":-73.96574,"zip":"10155","miles_from_dt":20.52},{"city":"East Islip","state_name":"New York","lat":40.72701,"lng":-73.18456,"zip":"11730","miles_from_dt":20.57},{"city":"New York","state_name":"New York","lat":40.75522,"lng":-73.96696,"zip":"10158","miles_from_dt":20.59},{"city":"Brooklyn","state_name":"New York","lat":40.71121,"lng":-73.96318,"zip":"11249","miles_from_dt":20.62},{"city":"New York","state_name":"New York","lat":40.75501,"lng":-73.96779,"zip":"10163","miles_from_dt":20.63},{"city":"New York","state_name":"New York","lat":40.75856,"lng":-73.96787,"zip":"10022","miles_from_dt":20.63},{"city":"Stamford","state_name":"Connecticut","lat":41.05349,"lng":-73.53845,"zip":"06901","miles_from_dt":20.66},{"city":"New York","state_name":"New York","lat":40.75966,"lng":-73.96858,"zip":"10055","miles_from_dt":20.67},{"city":"Stamford","state_name":"Connecticut","lat":41.05512,"lng":-73.54068,"zip":"06912","miles_from_dt":20.76},{"city":"New York","state_name":"New York","lat":40.75705,"lng":-73.97034,"zip":"10124","miles_from_dt":20.76},{"city":"New York","state_name":"New York","lat":40.81085,"lng":-73.96374,"zip":"10115","miles_from_dt":20.76},{"city":"Yonkers","state_name":"New York","lat":40.94702,"lng":-73.88034,"zip":"10701","miles_from_dt":20.77},{"city":"New York","state_name":"New York","lat":40.76073,"lng":-73.97053,"zip":"10126","miles_from_dt":20.78},{"city":"Purchase","state_name":"New York","lat":41.03755,"lng":-73.71349,"zip":"10577","miles_from_dt":20.78},{"city":"New York","state_name":"New York","lat":40.75872,"lng":-73.9718,"zip":"10152","miles_from_dt":20.84},{"city":"New York","state_name":"New York","lat":40.79825,"lng":-73.96831,"zip":"10025","miles_from_dt":20.86},{"city":"New York","state_name":"New York","lat":40.75778,"lng":-73.97249,"zip":"10154","miles_from_dt":20.88},{"city":"New York","state_name":"New York","lat":40.76362,"lng":-73.97244,"zip":"10153","miles_from_dt":20.88},{"city":"New York","state_name":"New York","lat":40.75235,"lng":-73.9726,"zip":"10017","miles_from_dt":20.88},{"city":"New York","state_name":"New York","lat":40.75756,"lng":-73.97293,"zip":"10150","miles_from_dt":20.9},{"city":"New York","state_name":"New York","lat":40.75584,"lng":-73.97322,"zip":"10087","miles_from_dt":20.91},{"city":"Brooklyn","state_name":"New York","lat":40.6631,"lng":-73.95392,"zip":"11225","miles_from_dt":20.91},{"city":"New York","state_name":"New York","lat":40.78534,"lng":-73.97138,"zip":"10024","miles_from_dt":20.92},{"city":"New York","state_name":"New York","lat":40.75947,"lng":-73.97339,"zip":"10043","miles_from_dt":20.92},{"city":"New York","state_name":"New York","lat":40.75417,"lng":-73.97344,"zip":"10259","miles_from_dt":20.93},{"city":"Brooklyn","state_name":"New York","lat":40.70243,"lng":-73.96741,"zip":"11251","miles_from_dt":20.94},{"city":"New York","state_name":"New York","lat":40.7559,"lng":-73.97386,"zip":"10171","miles_from_dt":20.95},{"city":"New York","state_name":"New York","lat":40.75527,"lng":-73.97431,"zip":"10172","miles_from_dt":20.97},{"city":"New York","state_name":"New York","lat":40.75465,"lng":-73.97477,"zip":"10167","miles_from_dt":21},{"city":"New York","state_name":"New York","lat":40.75144,"lng":-73.975,"zip":"10174","miles_from_dt":21.01},{"city":"New York","state_name":"New York","lat":40.76223,"lng":-73.97517,"zip":"10105","miles_from_dt":21.02},{"city":"New York","state_name":"New York","lat":40.75034,"lng":-73.97534,"zip":"10261","miles_from_dt":21.03},{"city":"Stamford","state_name":"Connecticut","lat":41.05949,"lng":-73.54751,"zip":"06902","miles_from_dt":21.03},{"city":"Islip Terrace","state_name":"New York","lat":40.75791,"lng":-73.17359,"zip":"11752","miles_from_dt":21.04},{"city":"Brooklyn","state_name":"New York","lat":40.69654,"lng":-73.96807,"zip":"11205","miles_from_dt":21.05},{"city":"New York","state_name":"New York","lat":40.75498,"lng":-73.97589,"zip":"10177","miles_from_dt":21.05},{"city":"New York","state_name":"New York","lat":40.75263,"lng":-73.97588,"zip":"10170","miles_from_dt":21.06},{"city":"New York","state_name":"New York","lat":40.75452,"lng":-73.97631,"zip":"10179","miles_from_dt":21.08},{"city":"New York","state_name":"New York","lat":40.75467,"lng":-73.97643,"zip":"10169","miles_from_dt":21.08},{"city":"Yonkers","state_name":"New York","lat":40.93258,"lng":-73.90225,"zip":"10702","miles_from_dt":21.08},{"city":"New York","state_name":"New York","lat":40.76436,"lng":-73.97649,"zip":"10151","miles_from_dt":21.09},{"city":"Cos Cob","state_name":"Connecticut","lat":41.0611,"lng":-73.59215,"zip":"06807","miles_from_dt":21.11},{"city":"New York","state_name":"New York","lat":40.75481,"lng":-73.97715,"zip":"10166","miles_from_dt":21.12},{"city":"White Plains","state_name":"New York","lat":41.02065,"lng":-73.77588,"zip":"10606","miles_from_dt":21.12},{"city":"New York","state_name":"New York","lat":40.75145,"lng":-73.9771,"zip":"10168","miles_from_dt":21.12},{"city":"New York","state_name":"New York","lat":40.75152,"lng":-73.97727,"zip":"10164","miles_from_dt":21.13},{"city":"New York","state_name":"New York","lat":40.74396,"lng":-73.97719,"zip":"10157","miles_from_dt":21.14},{"city":"New York","state_name":"New York","lat":40.76115,"lng":-73.97755,"zip":"10104","miles_from_dt":21.14},{"city":"New York","state_name":"New York","lat":40.76078,"lng":-73.97767,"zip":"10103","miles_from_dt":21.15},{"city":"New York","state_name":"New York","lat":40.74515,"lng":-73.97807,"zip":"10016","miles_from_dt":21.18},{"city":"New York","state_name":"New York","lat":40.75953,"lng":-73.97858,"zip":"10111","miles_from_dt":21.2},{"city":"New York","state_name":"New York","lat":40.75288,"lng":-73.97856,"zip":"10178","miles_from_dt":21.2},{"city":"New York","state_name":"New York","lat":40.75213,"lng":-73.97872,"zip":"10165","miles_from_dt":21.21},{"city":"New York","state_name":"New York","lat":40.77464,"lng":-73.97836,"zip":"10023","miles_from_dt":21.22},{"city":"New York","state_name":"New York","lat":40.75891,"lng":-73.97904,"zip":"10112","miles_from_dt":21.22},{"city":"New York","state_name":"New York","lat":40.75379,"lng":-73.97961,"zip":"10173","miles_from_dt":21.25},{"city":"Yonkers","state_name":"New York","lat":40.95765,"lng":-73.88114,"zip":"10703","miles_from_dt":21.28},{"city":"New York","state_name":"New York","lat":40.72639,"lng":-73.97865,"zip":"10009","miles_from_dt":21.3},{"city":"Brooklyn","state_name":"New York","lat":40.67549,"lng":-73.9664,"zip":"11247","miles_from_dt":21.3},{"city":"New York","state_name":"New York","lat":40.75917,"lng":-73.98071,"zip":"10020","miles_from_dt":21.31},{"city":"New York","state_name":"New York","lat":40.74624,"lng":-73.98092,"zip":"10156","miles_from_dt":21.33},{"city":"New York","state_name":"New York","lat":40.75261,"lng":-73.9817,"zip":"10176","miles_from_dt":21.36},{"city":"Englewood Cliffs","state_name":"New Jersey","lat":40.88227,"lng":-73.94672,"zip":"07632","miles_from_dt":21.38},{"city":"Brooklyn","state_name":"New York","lat":40.67105,"lng":-73.96636,"zip":"11238","miles_from_dt":21.38},{"city":"New York","state_name":"New York","lat":40.7545,"lng":-73.98226,"zip":"10110","miles_from_dt":21.39},{"city":"Brooklyn","state_name":"New York","lat":40.62801,"lng":-73.94631,"zip":"11210","miles_from_dt":21.41},{"city":"Brooklyn","state_name":"New York","lat":40.64636,"lng":-73.95666,"zip":"11226","miles_from_dt":21.43},{"city":"New York","state_name":"New York","lat":40.73899,"lng":-73.98243,"zip":"10010","miles_from_dt":21.43},{"city":"New York","state_name":"New York","lat":40.76496,"lng":-73.98293,"zip":"10102","miles_from_dt":21.43},{"city":"New York","state_name":"New York","lat":40.75425,"lng":-73.98316,"zip":"10175","miles_from_dt":21.44},{"city":"New York","state_name":"New York","lat":40.78529,"lng":-73.98154,"zip":"10132","miles_from_dt":21.45},{"city":"Edgewater","state_name":"New Jersey","lat":40.82374,"lng":-73.97401,"zip":"07020","miles_from_dt":21.47},{"city":"New York","state_name":"New York","lat":40.76652,"lng":-73.98378,"zip":"10106","miles_from_dt":21.48},{"city":"Islandia","state_name":"New York","lat":40.80674,"lng":-73.1708,"zip":"11749","miles_from_dt":21.48},{"city":"New York","state_name":"New York","lat":40.77699,"lng":-73.98352,"zip":"10133","miles_from_dt":21.5},{"city":"New York","state_name":"New York","lat":40.73911,"lng":-73.98386,"zip":"10160","miles_from_dt":21.51},{"city":"New York","state_name":"New York","lat":40.73856,"lng":-73.98433,"zip":"10159","miles_from_dt":21.53},{"city":"White Plains","state_name":"New York","lat":41.03221,"lng":-73.76525,"zip":"10602","miles_from_dt":21.55},{"city":"New York","state_name":"New York","lat":40.76586,"lng":-73.9853,"zip":"10019","miles_from_dt":21.56},{"city":"White Plains","state_name":"New York","lat":41.03288,"lng":-73.7648,"zip":"10601","miles_from_dt":21.58},{"city":"New York","state_name":"New York","lat":40.76822,"lng":-73.98795,"zip":"10107","miles_from_dt":21.7},{"city":"New York","state_name":"New York","lat":40.75608,"lng":-73.98919,"zip":"10138","miles_from_dt":21.75},{"city":"New York","state_name":"New York","lat":40.76071,"lng":-73.98937,"zip":"10109","miles_from_dt":21.76},{"city":"New York","state_name":"New York","lat":40.77752,"lng":-73.98875,"zip":"10069","miles_from_dt":21.78},{"city":"New York","state_name":"New York","lat":40.73395,"lng":-73.98919,"zip":"10276","miles_from_dt":21.81},{"city":"New York","state_name":"New York","lat":40.71597,"lng":-73.98692,"zip":"10002","miles_from_dt":21.81},{"city":"Fort Lee","state_name":"New Jersey","lat":40.85088,"lng":-73.97128,"zip":"07024","miles_from_dt":21.82},{"city":"New York","state_name":"New York","lat":40.73184,"lng":-73.98915,"zip":"10003","miles_from_dt":21.82},{"city":"New York","state_name":"New York","lat":40.75562,"lng":-73.99045,"zip":"10129","miles_from_dt":21.82},{"city":"New York","state_name":"New York","lat":40.75976,"lng":-73.99064,"zip":"10036","miles_from_dt":21.83},{"city":"New York","state_name":"New York","lat":40.76671,"lng":-73.99052,"zip":"10101","miles_from_dt":21.83},{"city":"Brooklyn","state_name":"New York","lat":40.68242,"lng":-73.97943,"zip":"11217","miles_from_dt":21.84},{"city":"Great River","state_name":"New York","lat":40.71058,"lng":-73.16275,"zip":"11739","miles_from_dt":21.84},{"city":"New York","state_name":"New York","lat":40.73177,"lng":-73.98995,"zip":"10211","miles_from_dt":21.86},{"city":"New York","state_name":"New York","lat":40.75748,"lng":-73.99137,"zip":"10185","miles_from_dt":21.87},{"city":"New York","state_name":"New York","lat":40.75536,"lng":-73.99265,"zip":"10018","miles_from_dt":21.93},{"city":"New York","state_name":"New York","lat":40.75876,"lng":-73.99262,"zip":"10108","miles_from_dt":21.93},{"city":"New York","state_name":"New York","lat":40.75064,"lng":-73.99273,"zip":"10119","miles_from_dt":21.94},{"city":"Brooklyn","state_name":"New York","lat":40.67997,"lng":-73.98143,"zip":"11243","miles_from_dt":21.98},{"city":"Brooklyn","state_name":"New York","lat":40.69315,"lng":-73.98587,"zip":"11245","miles_from_dt":22.01},{"city":"New York","state_name":"New York","lat":40.75482,"lng":-73.99445,"zip":"10090","miles_from_dt":22.03},{"city":"Stamford","state_name":"Connecticut","lat":41.07244,"lng":-73.52217,"zip":"06906","miles_from_dt":22.05},{"city":"New York","state_name":"New York","lat":40.75229,"lng":-73.99508,"zip":"10117","miles_from_dt":22.06},{"city":"New York","state_name":"New York","lat":40.74883,"lng":-73.99635,"zip":"10118","miles_from_dt":22.13},{"city":"Hartsdale","state_name":"New York","lat":41.02304,"lng":-73.80764,"zip":"10530","miles_from_dt":22.13},{"city":"Cliffside Park","state_name":"New Jersey","lat":40.82217,"lng":-73.98792,"zip":"07010","miles_from_dt":22.16},{"city":"New York","state_name":"New York","lat":40.75015,"lng":-73.99706,"zip":"10122","miles_from_dt":22.17},{"city":"New York","state_name":"New York","lat":40.75138,"lng":-73.99715,"zip":"10199","miles_from_dt":22.17},{"city":"Brooklyn","state_name":"New York","lat":40.60047,"lng":-73.94453,"zip":"11229","miles_from_dt":22.18},{"city":"New York","state_name":"New York","lat":40.75064,"lng":-73.99728,"zip":"10001","miles_from_dt":22.18},{"city":"Brooklyn","state_name":"New York","lat":40.69209,"lng":-73.98882,"zip":"11242","miles_from_dt":22.18},{"city":"New York","state_name":"New York","lat":40.74896,"lng":-73.99785,"zip":"10120","miles_from_dt":22.21},{"city":"New York","state_name":"New York","lat":40.74875,"lng":-73.99796,"zip":"10060","miles_from_dt":22.22},{"city":"Brooklyn","state_name":"New York","lat":40.69477,"lng":-73.99031,"zip":"11201","miles_from_dt":22.22},{"city":"White Plains","state_name":"New York","lat":41.02248,"lng":-73.81261,"zip":"10610","miles_from_dt":22.25},{"city":"New York","state_name":"New York","lat":40.7501,"lng":-73.99887,"zip":"10121","miles_from_dt":22.26},{"city":"Brooklyn","state_name":"New York","lat":40.6924,"lng":-73.99116,"zip":"11202","miles_from_dt":22.29},{"city":"New York","state_name":"New York","lat":40.74267,"lng":-73.99942,"zip":"10113","miles_from_dt":22.31},{"city":"New York","state_name":"New York","lat":40.7256,"lng":-73.99794,"zip":"10012","miles_from_dt":22.31},{"city":"Far Rockaway","state_name":"New York","lat":40.55835,"lng":-73.91145,"zip":"11695","miles_from_dt":22.32},{"city":"New York","state_name":"New York","lat":40.74306,"lng":-74.00031,"zip":"10114","miles_from_dt":22.35},{"city":"New York","state_name":"New York","lat":40.74173,"lng":-74.00037,"zip":"10011","miles_from_dt":22.36},{"city":"New York","state_name":"New York","lat":40.75319,"lng":-74.00088,"zip":"10125","miles_from_dt":22.37},{"city":"New York","state_name":"New York","lat":40.75016,"lng":-74.00084,"zip":"10123","miles_from_dt":22.37},{"city":"Brooklyn","state_name":"New York","lat":40.69663,"lng":-73.99385,"zip":"11241","miles_from_dt":22.38},{"city":"Hastings On Hudson","state_name":"New York","lat":40.99047,"lng":-73.86951,"zip":"10706","miles_from_dt":22.4},{"city":"Breezy Point","state_name":"New York","lat":40.55749,"lng":-73.91361,"zip":"11697","miles_from_dt":22.45},{"city":"Brooklyn","state_name":"New York","lat":40.6221,"lng":-73.96525,"zip":"11230","miles_from_dt":22.48},{"city":"Brooklyn","state_name":"New York","lat":40.64315,"lng":-73.97645,"zip":"11218","miles_from_dt":22.48},{"city":"Ardsley","state_name":"New York","lat":41.01126,"lng":-73.8409,"zip":"10502","miles_from_dt":22.5},{"city":"New York","state_name":"New York","lat":40.75489,"lng":-74.00397,"zip":"10130","miles_from_dt":22.53},{"city":"Brooklyn","state_name":"New York","lat":40.66255,"lng":-73.98687,"zip":"11215","miles_from_dt":22.57},{"city":"New York","state_name":"New York","lat":40.76063,"lng":-74.00545,"zip":"10272","miles_from_dt":22.61},{"city":"New York","state_name":"New York","lat":40.73407,"lng":-74.00601,"zip":"10014","miles_from_dt":22.69},{"city":"New York","state_name":"New York","lat":40.71513,"lng":-74.00373,"zip":"10278","miles_from_dt":22.69},{"city":"Brooklyn","state_name":"New York","lat":40.58411,"lng":-73.94331,"zip":"11235","miles_from_dt":22.69},{"city":"New York","state_name":"New York","lat":40.70914,"lng":-74.00298,"zip":"10038","miles_from_dt":22.71},{"city":"New York","state_name":"New York","lat":40.71105,"lng":-74.00335,"zip":"10273","miles_from_dt":22.71},{"city":"New York","state_name":"New York","lat":40.72001,"lng":-74.00472,"zip":"10013","miles_from_dt":22.71},{"city":"West Harrison","state_name":"New York","lat":41.06013,"lng":-73.73955,"zip":"10604","miles_from_dt":22.73},{"city":"Tenafly","state_name":"New Jersey","lat":40.91758,"lng":-73.95323,"zip":"07670","miles_from_dt":22.78},{"city":"New York","state_name":"New York","lat":40.71844,"lng":-74.00634,"zip":"10213","miles_from_dt":22.8},{"city":"Norwalk","state_name":"Connecticut","lat":41.06962,"lng":-73.43775,"zip":"06853","miles_from_dt":22.84},{"city":"Fairview","state_name":"New Jersey","lat":40.81821,"lng":-74.0022,"zip":"07022","miles_from_dt":22.84},{"city":"New York","state_name":"New York","lat":40.71042,"lng":-74.00616,"zip":"10081","miles_from_dt":22.86},{"city":"West New York","state_name":"New Jersey","lat":40.78675,"lng":-74.00871,"zip":"07093","miles_from_dt":22.87},{"city":"New York","state_name":"New York","lat":40.71222,"lng":-74.00697,"zip":"10008","miles_from_dt":22.89},{"city":"Darien","state_name":"Connecticut","lat":41.07983,"lng":-73.48242,"zip":"06820","miles_from_dt":22.9},{"city":"New York","state_name":"New York","lat":40.71372,"lng":-74.00756,"zip":"10258","miles_from_dt":22.91},{"city":"New York","state_name":"New York","lat":40.71387,"lng":-74.00792,"zip":"10007","miles_from_dt":22.92},{"city":"Englewood","state_name":"New Jersey","lat":40.89161,"lng":-73.97368,"zip":"07631","miles_from_dt":22.93},{"city":"New York","state_name":"New York","lat":40.71473,"lng":-74.00856,"zip":"10249","miles_from_dt":22.95},{"city":"New York","state_name":"New York","lat":40.71263,"lng":-74.00867,"zip":"10279","miles_from_dt":22.97},{"city":"New York","state_name":"New York","lat":40.71518,"lng":-74.00947,"zip":"10242","miles_from_dt":22.99},{"city":"New York","state_name":"New York","lat":40.70336,"lng":-74.00749,"zip":"10270","miles_from_dt":23},{"city":"New York","state_name":"New York","lat":40.7057,"lng":-74.00797,"zip":"10286","miles_from_dt":23},{"city":"Stamford","state_name":"Connecticut","lat":41.08792,"lng":-73.54351,"zip":"06905","miles_from_dt":23},{"city":"Alpine","state_name":"New Jersey","lat":40.96165,"lng":-73.91983,"zip":"07620","miles_from_dt":23.01},{"city":"Leonia","state_name":"New Jersey","lat":40.86362,"lng":-73.9899,"zip":"07605","miles_from_dt":23.02},{"city":"Palisades Park","state_name":"New Jersey","lat":40.84716,"lng":-73.99664,"zip":"07650","miles_from_dt":23.02},{"city":"New York","state_name":"New York","lat":40.70614,"lng":-74.00862,"zip":"10005","miles_from_dt":23.03},{"city":"New York","state_name":"New York","lat":40.71313,"lng":-74.01013,"zip":"10212","miles_from_dt":23.04},{"city":"New York","state_name":"New York","lat":40.70844,"lng":-74.01033,"zip":"10271","miles_from_dt":23.1},{"city":"New York","state_name":"New York","lat":40.71193,"lng":-74.01181,"zip":"10203","miles_from_dt":23.14},{"city":"New York","state_name":"New York","lat":40.70623,"lng":-74.0109,"zip":"10256","miles_from_dt":23.15},{"city":"New York","state_name":"New York","lat":40.71668,"lng":-74.01293,"zip":"10281","miles_from_dt":23.16},{"city":"New York","state_name":"New York","lat":40.70187,"lng":-74.01018,"zip":"10269","miles_from_dt":23.16},{"city":"New York","state_name":"New York","lat":40.70694,"lng":-74.01157,"zip":"10268","miles_from_dt":23.18},{"city":"White Plains","state_name":"New York","lat":41.03949,"lng":-73.81214,"zip":"10607","miles_from_dt":23.21},{"city":"Weehawken","state_name":"New Jersey","lat":40.76761,"lng":-74.01693,"zip":"07086","miles_from_dt":23.22},{"city":"White Plains","state_name":"New York","lat":41.05364,"lng":-73.78014,"zip":"10603","miles_from_dt":23.22},{"city":"New York","state_name":"New York","lat":40.70949,"lng":-74.01306,"zip":"10006","miles_from_dt":23.23},{"city":"New York","state_name":"New York","lat":40.70592,"lng":-74.01239,"zip":"10274","miles_from_dt":23.23},{"city":"Saint James","state_name":"New York","lat":40.89249,"lng":-73.16973,"zip":"11780","miles_from_dt":23.24},{"city":"New York","state_name":"New York","lat":40.71655,"lng":-74.01495,"zip":"10282","miles_from_dt":23.27},{"city":"New York","state_name":"New York","lat":40.70764,"lng":-74.01352,"zip":"10041","miles_from_dt":23.27},{"city":"New York","state_name":"New York","lat":40.71843,"lng":-74.01551,"zip":"10277","miles_from_dt":23.28},{"city":"New York","state_name":"New York","lat":40.70314,"lng":-74.01279,"zip":"10260","miles_from_dt":23.28},{"city":"New York","state_name":"New York","lat":40.70311,"lng":-74.01332,"zip":"10265","miles_from_dt":23.31},{"city":"Brooklyn","state_name":"New York","lat":40.67603,"lng":-74.00644,"zip":"11231","miles_from_dt":23.32},{"city":"New York","state_name":"New York","lat":40.71081,"lng":-74.01524,"zip":"10285","miles_from_dt":23.33},{"city":"Nesconset","state_name":"New York","lat":40.84438,"lng":-73.14535,"zip":"11767","miles_from_dt":23.33},{"city":"Dobbs Ferry","state_name":"New York","lat":41.01221,"lng":-73.8646,"zip":"10522","miles_from_dt":23.34},{"city":"New York","state_name":"New York","lat":40.70188,"lng":-74.01397,"zip":"10275","miles_from_dt":23.36},{"city":"Greenwich","state_name":"Connecticut","lat":41.08782,"lng":-73.66078,"zip":"06831","miles_from_dt":23.38},{"city":"New York","state_name":"New York","lat":40.69086,"lng":-74.0119,"zip":"10045","miles_from_dt":23.38},{"city":"Oakdale","state_name":"New York","lat":40.73703,"lng":-73.12929,"zip":"11769","miles_from_dt":23.41},{"city":"New York","state_name":"New York","lat":40.70985,"lng":-74.01651,"zip":"10280","miles_from_dt":23.41},{"city":"Norwalk","state_name":"Connecticut","lat":41.0864,"lng":-73.47559,"zip":"06860","miles_from_dt":23.42},{"city":"New York","state_name":"New York","lat":40.71309,"lng":-74.01788,"zip":"10080","miles_from_dt":23.45},{"city":"Bohemia","state_name":"New York","lat":40.77131,"lng":-73.12729,"zip":"11716","miles_from_dt":23.5},{"city":"Brooklyn","state_name":"New York","lat":40.61883,"lng":-73.98496,"zip":"11204","miles_from_dt":23.52},{"city":"Brooklyn","state_name":"New York","lat":40.59711,"lng":-73.97344,"zip":"11223","miles_from_dt":23.63},{"city":"Ridgefield","state_name":"New Jersey","lat":40.83127,"lng":-74.01471,"zip":"07657","miles_from_dt":23.66},{"city":"New York","state_name":"New York","lat":40.69431,"lng":-74.01835,"zip":"10004","miles_from_dt":23.67},{"city":"Brooklyn","state_name":"New York","lat":40.65692,"lng":-74.00727,"zip":"11232","miles_from_dt":23.71},{"city":"North Bergen","state_name":"New Jersey","lat":40.79376,"lng":-74.02416,"zip":"07047","miles_from_dt":23.73},{"city":"Brooklyn","state_name":"New York","lat":40.63267,"lng":-73.99672,"zip":"11219","miles_from_dt":23.73},{"city":"Stamford","state_name":"Connecticut","lat":41.09997,"lng":-73.55154,"zip":"06914","miles_from_dt":23.81},{"city":"Hoboken","state_name":"New Jersey","lat":40.7451,"lng":-74.02815,"zip":"07030","miles_from_dt":23.81},{"city":"Cresskill","state_name":"New Jersey","lat":40.94054,"lng":-73.9596,"zip":"07626","miles_from_dt":23.88},{"city":"Ocean Beach","state_name":"New York","lat":40.64945,"lng":-73.14123,"zip":"11770","miles_from_dt":23.9},{"city":"Jersey City","state_name":"New Jersey","lat":40.71878,"lng":-74.02933,"zip":"07311","miles_from_dt":24},{"city":"Union City","state_name":"New Jersey","lat":40.76723,"lng":-74.03243,"zip":"07087","miles_from_dt":24.03},{"city":"Stamford","state_name":"Connecticut","lat":41.1021,"lng":-73.52033,"zip":"06907","miles_from_dt":24.09},{"city":"Jersey City","state_name":"New Jersey","lat":40.72893,"lng":-74.03391,"zip":"07310","miles_from_dt":24.17},{"city":"Demarest","state_name":"New Jersey","lat":40.95504,"lng":-73.95678,"zip":"07627","miles_from_dt":24.3},{"city":"Ridgefield Park","state_name":"New Jersey","lat":40.85434,"lng":-74.02013,"zip":"07660","miles_from_dt":24.34},{"city":"Ronkonkoma","state_name":"New York","lat":40.8127,"lng":-73.1156,"zip":"11779","miles_from_dt":24.4},{"city":"Norwalk","state_name":"Connecticut","lat":41.09148,"lng":-73.42972,"zip":"06854","miles_from_dt":24.4},{"city":"Irvington","state_name":"New York","lat":41.03826,"lng":-73.8556,"zip":"10533","miles_from_dt":24.44},{"city":"Ardsley On Hudson","state_name":"New York","lat":41.02654,"lng":-73.8753,"zip":"10503","miles_from_dt":24.45},{"city":"Norwalk","state_name":"Connecticut","lat":41.09475,"lng":-73.43407,"zip":"06857","miles_from_dt":24.54},{"city":"Brooklyn","state_name":"New York","lat":40.64142,"lng":-74.01741,"zip":"11220","miles_from_dt":24.55},{"city":"Elmsford","state_name":"New York","lat":41.06005,"lng":-73.81859,"zip":"10523","miles_from_dt":24.6},{"city":"Brooklyn","state_name":"New York","lat":40.59928,"lng":-73.99644,"zip":"11214","miles_from_dt":24.64},{"city":"Teaneck","state_name":"New Jersey","lat":40.88998,"lng":-74.01067,"zip":"07666","miles_from_dt":24.67},{"city":"Norwalk","state_name":"Connecticut","lat":41.0936,"lng":-73.41726,"zip":"06852","miles_from_dt":24.75},{"city":"Jersey City","state_name":"New Jersey","lat":40.71894,"lng":-74.04462,"zip":"07302","miles_from_dt":24.8},{"city":"Jersey City","state_name":"New Jersey","lat":40.71765,"lng":-74.0453,"zip":"07303","miles_from_dt":24.84},{"city":"Norwalk","state_name":"Connecticut","lat":41.08922,"lng":-73.39615,"zip":"06855","miles_from_dt":24.86},{"city":"Brooklyn","state_name":"New York","lat":40.61678,"lng":-74.01337,"zip":"11228","miles_from_dt":24.95},{"city":"West Sayville","state_name":"New York","lat":40.72958,"lng":-73.09986,"zip":"11796","miles_from_dt":24.98},{"city":"Jersey City","state_name":"New Jersey","lat":40.75143,"lng":-74.0509,"zip":"07097","miles_from_dt":24.99},{"city":"Lake Grove","state_name":"New York","lat":40.8583,"lng":-73.11748,"zip":"11755","miles_from_dt":25},{"city":"Brooklyn","state_name":"New York","lat":40.57652,"lng":-73.9891,"zip":"11224","miles_from_dt":25.03},{"city":"Bergenfield","state_name":"New Jersey","lat":40.92357,"lng":-73.99824,"zip":"07621","miles_from_dt":25.05},{"city":"Little Ferry","state_name":"New Jersey","lat":40.84635,"lng":-74.03879,"zip":"07643","miles_from_dt":25.13},{"city":"Jersey City","state_name":"New Jersey","lat":40.75192,"lng":-74.05429,"zip":"07307","miles_from_dt":25.17},{"city":"Closter","state_name":"New Jersey","lat":40.97329,"lng":-73.96044,"zip":"07624","miles_from_dt":25.19},{"city":"Bogota","state_name":"New Jersey","lat":40.87507,"lng":-74.02934,"zip":"07603","miles_from_dt":25.23},{"city":"Valhalla","state_name":"New York","lat":41.08626,"lng":-73.78097,"zip":"10595","miles_from_dt":25.26},{"city":"Palisades","state_name":"New York","lat":41.01642,"lng":-73.91431,"zip":"10964","miles_from_dt":25.31},{"city":"Dumont","state_name":"New Jersey","lat":40.94524,"lng":-73.99227,"zip":"07628","miles_from_dt":25.5},{"city":"Jersey City","state_name":"New Jersey","lat":40.73152,"lng":-74.06175,"zip":"07308","miles_from_dt":25.62},{"city":"Brooklyn","state_name":"New York","lat":40.62455,"lng":-74.03128,"zip":"11252","miles_from_dt":25.63},{"city":"Brooklyn","state_name":"New York","lat":40.62175,"lng":-74.03013,"zip":"11209","miles_from_dt":25.64},{"city":"Norwood","state_name":"New Jersey","lat":40.99335,"lng":-73.95103,"zip":"07648","miles_from_dt":25.66},{"city":"Stony Brook","state_name":"New York","lat":40.90719,"lng":-73.12777,"zip":"11790","miles_from_dt":25.66},{"city":"Secaucus","state_name":"New Jersey","lat":40.78124,"lng":-74.06458,"zip":"07096","miles_from_dt":25.77},{"city":"Norwalk","state_name":"Connecticut","lat":41.11103,"lng":-73.42261,"zip":"06856","miles_from_dt":25.8},{"city":"Secaucus","state_name":"New Jersey","lat":40.78109,"lng":-74.06588,"zip":"07094","miles_from_dt":25.83},{"city":"Northvale","state_name":"New Jersey","lat":41.00674,"lng":-73.94255,"zip":"07647","miles_from_dt":25.92},{"city":"Moonachie","state_name":"New Jersey","lat":40.83877,"lng":-74.05705,"zip":"07074","miles_from_dt":25.94},{"city":"Carlstadt","state_name":"New Jersey","lat":40.82472,"lng":-74.06126,"zip":"07072","miles_from_dt":25.97},{"city":"Sayville","state_name":"New York","lat":40.73727,"lng":-73.08024,"zip":"11782","miles_from_dt":25.98},{"city":"South Hackensack","state_name":"New Jersey","lat":40.85783,"lng":-74.05177,"zip":"07606","miles_from_dt":26},{"city":"Jersey City","state_name":"New Jersey","lat":40.73674,"lng":-74.07132,"zip":"07306","miles_from_dt":26.1},{"city":"Stony Brook","state_name":"New York","lat":40.91915,"lng":-73.12475,"zip":"11794","miles_from_dt":26.14},{"city":"Stamford","state_name":"Connecticut","lat":41.13571,"lng":-73.57207,"zip":"06903","miles_from_dt":26.24},{"city":"Sparkill","state_name":"New York","lat":41.02871,"lng":-73.92594,"zip":"10976","miles_from_dt":26.35},{"city":"Teterboro","state_name":"New Jersey","lat":40.85297,"lng":-74.06045,"zip":"07608","miles_from_dt":26.35},{"city":"New Milford","state_name":"New Jersey","lat":40.93368,"lng":-74.01956,"zip":"07646","miles_from_dt":26.36},{"city":"Haworth","state_name":"New Jersey","lat":40.96224,"lng":-73.9976,"zip":"07641","miles_from_dt":26.36},{"city":"Hackensack","state_name":"New Jersey","lat":40.8891,"lng":-74.04614,"zip":"07601","miles_from_dt":26.38},{"city":"Jersey City","state_name":"New Jersey","lat":40.71741,"lng":-74.07637,"zip":"07304","miles_from_dt":26.46},{"city":"Hawthorne","state_name":"New York","lat":41.09873,"lng":-73.80066,"zip":"10532","miles_from_dt":26.48},{"city":"Hackensack","state_name":"New Jersey","lat":40.89044,"lng":-74.04781,"zip":"07602","miles_from_dt":26.5},{"city":"Norwalk","state_name":"Connecticut","lat":41.1263,"lng":-73.44316,"zip":"06850","miles_from_dt":26.5},{"city":"Jersey City","state_name":"New Jersey","lat":40.72784,"lng":-74.07843,"zip":"07399","miles_from_dt":26.51},{"city":"Holbrook","state_name":"New York","lat":40.79473,"lng":-73.07043,"zip":"11741","miles_from_dt":26.59},{"city":"Piermont","state_name":"New York","lat":41.03976,"lng":-73.91804,"zip":"10968","miles_from_dt":26.61},{"city":"Jersey City","state_name":"New Jersey","lat":40.73,"lng":-74.08219,"zip":"07395","miles_from_dt":26.7},{"city":"Harrington Park","state_name":"New Jersey","lat":40.9899,"lng":-73.98037,"zip":"07640","miles_from_dt":26.71},{"city":"Tarrytown","state_name":"New York","lat":41.08436,"lng":-73.84653,"zip":"10591","miles_from_dt":26.79},{"city":"Armonk","state_name":"New York","lat":41.13065,"lng":-73.70629,"zip":"10504","miles_from_dt":26.79},{"city":"Norwalk","state_name":"Connecticut","lat":41.13047,"lng":-73.44044,"zip":"06858","miles_from_dt":26.82},{"city":"Teterboro","state_name":"New Jersey","lat":40.85337,"lng":-74.07048,"zip":"07699","miles_from_dt":26.86},{"city":"Jersey City","state_name":"New Jersey","lat":40.69839,"lng":-74.08158,"zip":"07305","miles_from_dt":26.9},{"city":"Thornwood","state_name":"New York","lat":41.11579,"lng":-73.771,"zip":"10594","miles_from_dt":26.91},{"city":"Centereach","state_name":"New York","lat":40.87025,"lng":-73.08202,"zip":"11720","miles_from_dt":27.01},{"city":"River Edge","state_name":"New Jersey","lat":40.92697,"lng":-74.03874,"zip":"07661","miles_from_dt":27.05},{"city":"Tappan","state_name":"New York","lat":41.02747,"lng":-73.94826,"zip":"10983","miles_from_dt":27.12},{"city":"East Rutherford","state_name":"New Jersey","lat":40.81792,"lng":-74.08539,"zip":"07073","miles_from_dt":27.13},{"city":"Hasbrouck Heights","state_name":"New Jersey","lat":40.86166,"lng":-74.07413,"zip":"07604","miles_from_dt":27.2},{"city":"Bayport","state_name":"New York","lat":40.74514,"lng":-73.05461,"zip":"11705","miles_from_dt":27.3},{"city":"Maywood","state_name":"New Jersey","lat":40.90249,"lng":-74.06337,"zip":"07607","miles_from_dt":27.55},{"city":"East Setauket","state_name":"New York","lat":40.93742,"lng":-73.10544,"zip":"11733","miles_from_dt":27.61},{"city":"Oradell","state_name":"New Jersey","lat":40.95622,"lng":-74.03141,"zip":"07649","miles_from_dt":27.65},{"city":"Wood Ridge","state_name":"New Jersey","lat":40.85076,"lng":-74.08779,"zip":"07075","miles_from_dt":27.7},{"city":"Westport","state_name":"Connecticut","lat":41.12005,"lng":-73.34642,"zip":"06888","miles_from_dt":27.85},{"city":"Lodi","state_name":"New Jersey","lat":40.87836,"lng":-74.08145,"zip":"07644","miles_from_dt":27.89},{"city":"Norwalk","state_name":"Connecticut","lat":41.13948,"lng":-73.40387,"zip":"06851","miles_from_dt":27.97},{"city":"Emerson","state_name":"New Jersey","lat":40.97484,"lng":-74.024,"zip":"07630","miles_from_dt":27.99},{"city":"Pleasantville","state_name":"New York","lat":41.12854,"lng":-73.78917,"zip":"10570","miles_from_dt":28.09},{"city":"New Canaan","state_name":"Connecticut","lat":41.15925,"lng":-73.49916,"zip":"06840","miles_from_dt":28.15},{"city":"Holtsville","state_name":"New York","lat":40.81034,"lng":-73.0419,"zip":"11742","miles_from_dt":28.2},{"city":"Rutherford","state_name":"New Jersey","lat":40.82034,"lng":-74.10574,"zip":"07070","miles_from_dt":28.21},{"city":"Lyndhurst","state_name":"New Jersey","lat":40.79646,"lng":-74.1099,"zip":"07071","miles_from_dt":28.22},{"city":"Blue Point","state_name":"New York","lat":40.75005,"lng":-73.03531,"zip":"11715","miles_from_dt":28.3},{"city":"Rochelle Park","state_name":"New Jersey","lat":40.90698,"lng":-74.07911,"zip":"07662","miles_from_dt":28.43},{"city":"Westwood","state_name":"New Jersey","lat":41.00918,"lng":-74.00428,"zip":"07675","miles_from_dt":28.51},{"city":"Staten Island","state_name":"New York","lat":40.59592,"lng":-74.07539,"zip":"10305","miles_from_dt":28.52},{"city":"Westport","state_name":"Connecticut","lat":41.13776,"lng":-73.36503,"zip":"06881","miles_from_dt":28.57},{"city":"Orangeburg","state_name":"New York","lat":41.04857,"lng":-73.96057,"zip":"10962","miles_from_dt":28.59},{"city":"Kearny","state_name":"New Jersey","lat":40.75385,"lng":-74.11996,"zip":"07099","miles_from_dt":28.62},{"city":"Kearny","state_name":"New Jersey","lat":40.75281,"lng":-74.12016,"zip":"07032","miles_from_dt":28.63},{"city":"Greens Farms","state_name":"Connecticut","lat":41.12294,"lng":-73.31809,"zip":"06838","miles_from_dt":28.69},{"city":"Wallington","state_name":"New Jersey","lat":40.85355,"lng":-74.10691,"zip":"07057","miles_from_dt":28.72},{"city":"Farmingville","state_name":"New York","lat":40.83779,"lng":-73.03761,"zip":"11738","miles_from_dt":28.73},{"city":"Staten Island","state_name":"New York","lat":40.62803,"lng":-74.09564,"zip":"10301","miles_from_dt":28.74},{"city":"Westport","state_name":"Connecticut","lat":41.14237,"lng":-73.36012,"zip":"06889","miles_from_dt":28.96},{"city":"Selden","state_name":"New York","lat":40.86855,"lng":-73.0422,"zip":"11784","miles_from_dt":28.99},{"city":"Bayonne","state_name":"New Jersey","lat":40.66681,"lng":-74.11582,"zip":"07002","miles_from_dt":29.07},{"city":"North Arlington","state_name":"New Jersey","lat":40.78745,"lng":-74.12731,"zip":"07031","miles_from_dt":29.08},{"city":"Staten Island","state_name":"New York","lat":40.60671,"lng":-74.0931,"zip":"10304","miles_from_dt":29.1},{"city":"Saddle Brook","state_name":"New Jersey","lat":40.90328,"lng":-74.09545,"zip":"07663","miles_from_dt":29.14},{"city":"Paramus","state_name":"New Jersey","lat":40.94553,"lng":-74.07122,"zip":"07652","miles_from_dt":29.14},{"city":"Paramus","state_name":"New Jersey","lat":40.94723,"lng":-74.07123,"zip":"07653","miles_from_dt":29.19},{"city":"Garfield","state_name":"New Jersey","lat":40.87914,"lng":-74.1085,"zip":"07026","miles_from_dt":29.26},{"city":"Westport","state_name":"Connecticut","lat":41.14379,"lng":-73.34698,"zip":"06880","miles_from_dt":29.33},{"city":"Blauvelt","state_name":"New York","lat":41.06845,"lng":-73.95574,"zip":"10913","miles_from_dt":29.4},{"city":"Nyack","state_name":"New York","lat":41.08892,"lng":-73.92642,"zip":"10960","miles_from_dt":29.47},{"city":"Newark","state_name":"New Jersey","lat":40.72266,"lng":-74.13874,"zip":"07105","miles_from_dt":29.69},{"city":"Staten Island","state_name":"New York","lat":40.63243,"lng":-74.11653,"zip":"10310","miles_from_dt":29.7},{"city":"Port Jefferson Station","state_name":"New York","lat":40.91345,"lng":-73.04567,"zip":"11776","miles_from_dt":29.79},{"city":"Passaic","state_name":"New Jersey","lat":40.85746,"lng":-74.12821,"zip":"07055","miles_from_dt":29.87},{"city":"Clifton","state_name":"New Jersey","lat":40.83162,"lng":-74.13532,"zip":"07014","miles_from_dt":29.87},{"city":"Briarcliff Manor","state_name":"New York","lat":41.14152,"lng":-73.83411,"zip":"10510","miles_from_dt":29.9},{"city":"Newark","state_name":"New Jersey","lat":40.73588,"lng":-74.14386,"zip":"07198","miles_from_dt":29.9},{"city":"Port Jefferson","state_name":"New York","lat":40.95171,"lng":-73.0645,"zip":"11777","miles_from_dt":29.96}],"targetCityZipCode":"11590","targetCityState":"New York"},"__N_SSG":true}