{"pageProps":{"stateName":"New-york","cityName":"wevertown","nearbyCities":[{"city":"Riparius","state_name":"New York","lat":43.67419,"lng":-73.91878,"zip":"12862","miles_from_dt":2.6},{"city":"Johnsburg","state_name":"New York","lat":43.5849,"lng":-73.97771,"zip":"12843","miles_from_dt":4.41},{"city":"Chestertown","state_name":"New York","lat":43.63697,"lng":-73.82614,"zip":"12817","miles_from_dt":5.03},{"city":"North Creek","state_name":"New York","lat":43.68816,"lng":-73.99804,"zip":"12853","miles_from_dt":5.04},{"city":"Bakers Mills","state_name":"New York","lat":43.57502,"lng":-74.07508,"zip":"12811","miles_from_dt":8.59},{"city":"Pottersville","state_name":"New York","lat":43.72843,"lng":-73.80942,"zip":"12860","miles_from_dt":8.62},{"city":"Warrensburg","state_name":"New York","lat":43.52929,"lng":-73.83161,"zip":"12885","miles_from_dt":8.82},{"city":"Athol","state_name":"New York","lat":43.49862,"lng":-73.95217,"zip":"12810","miles_from_dt":9.63},{"city":"North River","state_name":"New York","lat":43.65531,"lng":-74.14625,"zip":"12856","miles_from_dt":11.09},{"city":"Adirondack","state_name":"New York","lat":43.74782,"lng":-73.75393,"zip":"12808","miles_from_dt":11.55},{"city":"Brant Lake","state_name":"New York","lat":43.70161,"lng":-73.69459,"zip":"12815","miles_from_dt":12.45},{"city":"Diamond Point","state_name":"New York","lat":43.5279,"lng":-73.71386,"zip":"12824","miles_from_dt":13.06},{"city":"Olmstedville","state_name":"New York","lat":43.84033,"lng":-73.93354,"zip":"12857","miles_from_dt":14.05},{"city":"Bolton Landing","state_name":"New York","lat":43.6004,"lng":-73.63678,"zip":"12814","miles_from_dt":14.75},{"city":"Stony Creek","state_name":"New York","lat":43.44217,"lng":-74.0479,"zip":"12878","miles_from_dt":14.76},{"city":"Schroon Lake","state_name":"New York","lat":43.83931,"lng":-73.7625,"zip":"12870","miles_from_dt":16.21},{"city":"Minerva","state_name":"New York","lat":43.85171,"lng":-74.06211,"zip":"12851","miles_from_dt":16.31},{"city":"Kattskill Bay","state_name":"New York","lat":43.49423,"lng":-73.64081,"zip":"12844","miles_from_dt":17.4},{"city":"Lake George","state_name":"New York","lat":43.42757,"lng":-73.70703,"zip":"12845","miles_from_dt":18.18},{"city":"Cleverdale","state_name":"New York","lat":43.46022,"lng":-73.64067,"zip":"12820","miles_from_dt":18.84},{"city":"Indian Lake","state_name":"New York","lat":43.75058,"lng":-74.2746,"zip":"12842","miles_from_dt":19.12},{"city":"Silver Bay","state_name":"New York","lat":43.69035,"lng":-73.54836,"zip":"12874","miles_from_dt":19.31},{"city":"Hague","state_name":"New York","lat":43.74994,"lng":-73.56816,"zip":"12836","miles_from_dt":19.58},{"city":"Severance","state_name":"New York","lat":43.8839,"lng":-73.72309,"zip":"12872","miles_from_dt":19.86},{"city":"Sabael","state_name":"New York","lat":43.72733,"lng":-74.3054,"zip":"12864","miles_from_dt":19.98},{"city":"Huletts Landing","state_name":"New York","lat":43.59919,"lng":-73.5165,"zip":"12841","miles_from_dt":20.73},{"city":"Wells","state_name":"New York","lat":43.47359,"lng":-74.2733,"zip":"12190","miles_from_dt":20.74},{"city":"Lake Luzerne","state_name":"New York","lat":43.34022,"lng":-73.80592,"zip":"12846","miles_from_dt":21.36},{"city":"Paradox","state_name":"New York","lat":43.88899,"lng":-73.6703,"zip":"12858","miles_from_dt":21.62},{"city":"Hadley","state_name":"New York","lat":43.32496,"lng":-74.00589,"zip":"12835","miles_from_dt":21.9},{"city":"Clemons","state_name":"New York","lat":43.61144,"lng":-73.46315,"zip":"12819","miles_from_dt":23.31},{"city":"Queensbury","state_name":"New York","lat":43.3375,"lng":-73.68307,"zip":"12804","miles_from_dt":24.02},{"city":"Fort Ann","state_name":"New York","lat":43.44917,"lng":-73.51241,"zip":"12827","miles_from_dt":24.5},{"city":"Speculator","state_name":"New York","lat":43.62883,"lng":-74.42717,"zip":"12164","miles_from_dt":25.11},{"city":"Ticonderoga","state_name":"New York","lat":43.85291,"lng":-73.50786,"zip":"12883","miles_from_dt":25.72},{"city":"North Hudson","state_name":"New York","lat":44.00121,"lng":-73.79762,"zip":"12855","miles_from_dt":25.97},{"city":"Glens Falls","state_name":"New York","lat":43.31097,"lng":-73.64545,"zip":"12801","miles_from_dt":26.57},{"city":"Newcomb","state_name":"New York","lat":43.99293,"lng":-74.13598,"zip":"12852","miles_from_dt":26.72},{"city":"Putnam Station","state_name":"New York","lat":43.74982,"lng":-73.41502,"zip":"12861","miles_from_dt":26.78},{"city":"Corinth","state_name":"New York","lat":43.2407,"lng":-73.88959,"zip":"12822","miles_from_dt":27.41},{"city":"Hudson Falls","state_name":"New York","lat":43.34496,"lng":-73.55058,"zip":"12839","miles_from_dt":27.63},{"city":"Lake Pleasant","state_name":"New York","lat":43.47045,"lng":-74.42768,"zip":"12108","miles_from_dt":27.66},{"city":"Newcomb","state_name":"New York","lat":44.018,"lng":-74.12899,"zip":"12879","miles_from_dt":28.19},{"city":"South Glens Falls","state_name":"New York","lat":43.28891,"lng":-73.63024,"zip":"12803","miles_from_dt":28.27},{"city":"Whitehall","state_name":"New York","lat":43.54504,"lng":-73.37471,"zip":"12887","miles_from_dt":28.41},{"city":"Comstock","state_name":"New York","lat":43.45866,"lng":-73.41332,"zip":"12821","miles_from_dt":28.56},{"city":"Blue Mountain Lake","state_name":"New York","lat":43.85731,"lng":-74.41213,"zip":"12812","miles_from_dt":28.67},{"city":"Crown Point","state_name":"New York","lat":43.9539,"lng":-73.52898,"zip":"12928","miles_from_dt":29.57},{"city":"Northville","state_name":"New York","lat":43.26533,"lng":-74.23059,"zip":"12134","miles_from_dt":29.86}],"targetCityZipCode":"12886","targetCityState":"New York"},"__N_SSG":true}