{"pageProps":{"stateName":"Missouri","cityName":"armstrong","nearbyCities":[{"city":"Higbee","state_name":"Missouri","lat":39.28404,"lng":-92.53112,"zip":"65257","miles_from_dt":8.64},{"city":"Glasgow","state_name":"Missouri","lat":39.21228,"lng":-92.85351,"zip":"65254","miles_from_dt":10.08},{"city":"Fayette","state_name":"Missouri","lat":39.13952,"lng":-92.65894,"zip":"65248","miles_from_dt":10.34},{"city":"Salisbury","state_name":"Missouri","lat":39.46431,"lng":-92.79099,"zip":"65281","miles_from_dt":13.32},{"city":"Clifton Hill","state_name":"Missouri","lat":39.4807,"lng":-92.65982,"zip":"65244","miles_from_dt":13.46},{"city":"Huntsville","state_name":"Missouri","lat":39.47122,"lng":-92.56536,"zip":"65259","miles_from_dt":14.4},{"city":"Gilliam","state_name":"Missouri","lat":39.22096,"lng":-92.94945,"zip":"65330","miles_from_dt":14.53},{"city":"Renick","state_name":"Missouri","lat":39.34217,"lng":-92.41251,"zip":"65278","miles_from_dt":15.46},{"city":"Harrisburg","state_name":"Missouri","lat":39.12713,"lng":-92.45568,"zip":"65256","miles_from_dt":16.82},{"city":"Dalton","state_name":"Missouri","lat":39.37725,"lng":-93.00059,"zip":"65246","miles_from_dt":17.65},{"city":"Keytesville","state_name":"Missouri","lat":39.47542,"lng":-92.92388,"zip":"65261","miles_from_dt":17.96},{"city":"Moberly","state_name":"Missouri","lat":39.41552,"lng":-92.39917,"zip":"65270","miles_from_dt":18.02},{"city":"Clark","state_name":"Missouri","lat":39.27654,"lng":-92.35207,"zip":"65243","miles_from_dt":18.25},{"city":"New Franklin","state_name":"Missouri","lat":39.01342,"lng":-92.68321,"zip":"65274","miles_from_dt":18.89},{"city":"Franklin","state_name":"Missouri","lat":39.03524,"lng":-92.83991,"zip":"65250","miles_from_dt":19.1},{"city":"Slater","state_name":"Missouri","lat":39.22863,"lng":-93.05581,"zip":"65349","miles_from_dt":19.92},{"city":"Arrow Rock","state_name":"Missouri","lat":39.06606,"lng":-92.94415,"zip":"65320","miles_from_dt":20.39},{"city":"Rocheport","state_name":"Missouri","lat":39.01284,"lng":-92.52062,"zip":"65279","miles_from_dt":21.05},{"city":"Sturgeon","state_name":"Missouri","lat":39.19658,"lng":-92.30361,"zip":"65284","miles_from_dt":21.76},{"city":"Cairo","state_name":"Missouri","lat":39.53312,"lng":-92.42334,"zip":"65239","miles_from_dt":22.25},{"city":"Brunswick","state_name":"Missouri","lat":39.44596,"lng":-93.08305,"zip":"65236","miles_from_dt":23.62},{"city":"Boonville","state_name":"Missouri","lat":38.91528,"lng":-92.72035,"zip":"65233","miles_from_dt":25.7},{"city":"Blackwater","state_name":"Missouri","lat":38.9729,"lng":-92.95535,"zip":"65322","miles_from_dt":25.88},{"city":"Jacksonville","state_name":"Missouri","lat":39.58806,"lng":-92.40227,"zip":"65260","miles_from_dt":25.91},{"city":"Excello","state_name":"Missouri","lat":39.63502,"lng":-92.47296,"zip":"65247","miles_from_dt":26.71},{"city":"Miami","state_name":"Missouri","lat":39.31174,"lng":-93.1976,"zip":"65344","miles_from_dt":27.14},{"city":"Madison","state_name":"Missouri","lat":39.45244,"lng":-92.22062,"zip":"65263","miles_from_dt":27.71},{"city":"Hallsville","state_name":"Missouri","lat":39.09632,"lng":-92.23463,"zip":"65255","miles_from_dt":27.87},{"city":"Columbia","state_name":"Missouri","lat":39.01721,"lng":-92.29822,"zip":"65202","miles_from_dt":28.19},{"city":"Nelson","state_name":"Missouri","lat":38.98453,"lng":-93.0495,"zip":"65347","miles_from_dt":28.36},{"city":"Marceline","state_name":"Missouri","lat":39.66124,"lng":-92.92181,"zip":"64658","miles_from_dt":28.58},{"city":"Mendon","state_name":"Missouri","lat":39.57226,"lng":-93.08923,"zip":"64660","miles_from_dt":28.95},{"city":"Columbia","state_name":"Missouri","lat":38.9526,"lng":-92.3665,"zip":"65218","miles_from_dt":28.96},{"city":"Wooldridge","state_name":"Missouri","lat":38.88443,"lng":-92.51953,"zip":"65287","miles_from_dt":29.29},{"city":"Columbia","state_name":"Missouri","lat":39.04927,"lng":-92.24047,"zip":"65205","miles_from_dt":29.29},{"city":"De Witt","state_name":"Missouri","lat":39.3962,"lng":-93.22276,"zip":"64639","miles_from_dt":29.4},{"city":"Marshall","state_name":"Missouri","lat":39.09149,"lng":-93.18041,"zip":"65340","miles_from_dt":29.48},{"city":"Columbia","state_name":"Missouri","lat":39.02356,"lng":-92.24822,"zip":"65299","miles_from_dt":29.99}],"targetCityZipCode":"65230","targetCityState":"Missouri"},"__N_SSG":true}