{"pageProps":{"stateName":"Missouri","cityName":"clarksville","nearbyCities":[{"city":"Eolia","state_name":"Missouri","lat":39.23078,"lng":-91.01115,"zip":"63344","miles_from_dt":8.07},{"city":"Pleasant Hill","state_name":"Illinois","lat":39.46253,"lng":-90.89402,"zip":"62366","miles_from_dt":9.23},{"city":"Annada","state_name":"Missouri","lat":39.26151,"lng":-90.79214,"zip":"63330","miles_from_dt":9.29},{"city":"Nebo","state_name":"Illinois","lat":39.40963,"lng":-90.77936,"zip":"62355","miles_from_dt":10.03},{"city":"Whiteside","state_name":"Missouri","lat":39.18415,"lng":-91.01677,"zip":"63387","miles_from_dt":11.11},{"city":"Mozier","state_name":"Illinois","lat":39.29101,"lng":-90.72278,"zip":"62070","miles_from_dt":11.94},{"city":"Louisiana","state_name":"Missouri","lat":39.44375,"lng":-91.12,"zip":"63353","miles_from_dt":12.33},{"city":"Rockport","state_name":"Illinois","lat":39.51818,"lng":-90.99881,"zip":"62370","miles_from_dt":13.15},{"city":"Hamburg","state_name":"Illinois","lat":39.26297,"lng":-90.70921,"zip":"62045","miles_from_dt":13.23},{"city":"Bowling Green","state_name":"Missouri","lat":39.30747,"lng":-91.18838,"zip":"63334","miles_from_dt":13.49},{"city":"Elsberry","state_name":"Missouri","lat":39.15775,"lng":-90.82815,"zip":"63343","miles_from_dt":13.49},{"city":"Kampsville","state_name":"Illinois","lat":39.31572,"lng":-90.65763,"zip":"62053","miles_from_dt":15.11},{"city":"Ashburn","state_name":"Missouri","lat":39.51838,"lng":-91.11816,"zip":"63433","miles_from_dt":15.97},{"city":"Silex","state_name":"Missouri","lat":39.11016,"lng":-91.10053,"zip":"63377","miles_from_dt":17.67},{"city":"Michael","state_name":"Illinois","lat":39.22889,"lng":-90.63046,"zip":"62065","miles_from_dt":18.03},{"city":"Pearl","state_name":"Illinois","lat":39.48734,"lng":-90.64191,"zip":"62361","miles_from_dt":19.11},{"city":"Pittsfield","state_name":"Illinois","lat":39.59163,"lng":-90.7784,"zip":"62363","miles_from_dt":19.78},{"city":"New Canton","state_name":"Illinois","lat":39.60092,"lng":-91.08508,"zip":"62356","miles_from_dt":20.05},{"city":"Foley","state_name":"Missouri","lat":39.0708,"lng":-90.76352,"zip":"63347","miles_from_dt":20.41},{"city":"Eldred","state_name":"Illinois","lat":39.24686,"lng":-90.55725,"zip":"62027","miles_from_dt":21.31},{"city":"Hillview","state_name":"Illinois","lat":39.43734,"lng":-90.55544,"zip":"62050","miles_from_dt":21.74},{"city":"Hardin","state_name":"Illinois","lat":39.13314,"lng":-90.62273,"zip":"62047","miles_from_dt":21.87},{"city":"Olney","state_name":"Missouri","lat":39.09786,"lng":-91.21228,"zip":"63370","miles_from_dt":21.89},{"city":"Milton","state_name":"Illinois","lat":39.56818,"lng":-90.65455,"zip":"62352","miles_from_dt":22.22},{"city":"Frankford","state_name":"Missouri","lat":39.4766,"lng":-91.31575,"zip":"63441","miles_from_dt":22.46},{"city":"Curryville","state_name":"Missouri","lat":39.33673,"lng":-91.36384,"zip":"63339","miles_from_dt":22.77},{"city":"Troy","state_name":"Missouri","lat":38.99817,"lng":-90.99037,"zip":"63379","miles_from_dt":23.29},{"city":"Batchtown","state_name":"Illinois","lat":39.06433,"lng":-90.66714,"zip":"62006","miles_from_dt":23.6},{"city":"New Salem","state_name":"Illinois","lat":39.68671,"lng":-90.86374,"zip":"62357","miles_from_dt":24.71},{"city":"Winfield","state_name":"Missouri","lat":38.99969,"lng":-90.76875,"zip":"63389","miles_from_dt":24.76},{"city":"Middletown","state_name":"Missouri","lat":39.1564,"lng":-91.34652,"zip":"63359","miles_from_dt":25.05},{"city":"Patterson","state_name":"Illinois","lat":39.47984,"lng":-90.48686,"zip":"62078","miles_from_dt":26.21},{"city":"Barry","state_name":"Illinois","lat":39.71035,"lng":-91.02518,"zip":"62312","miles_from_dt":26.41},{"city":"Fieldon","state_name":"Illinois","lat":39.1123,"lng":-90.53355,"zip":"62031","miles_from_dt":26.56},{"city":"Hawk Point","state_name":"Missouri","lat":38.97979,"lng":-91.15083,"zip":"63349","miles_from_dt":26.92},{"city":"Kinderhook","state_name":"Illinois","lat":39.70655,"lng":-91.12758,"zip":"62345","miles_from_dt":27.65},{"city":"Moscow Mills","state_name":"Missouri","lat":38.93276,"lng":-90.88227,"zip":"63362","miles_from_dt":27.8},{"city":"Saverton","state_name":"Missouri","lat":39.64849,"lng":-91.26655,"zip":"63467","miles_from_dt":27.92},{"city":"Carrollton","state_name":"Illinois","lat":39.29517,"lng":-90.41462,"zip":"62016","miles_from_dt":28.21},{"city":"Old Monroe","state_name":"Missouri","lat":38.93758,"lng":-90.77766,"zip":"63369","miles_from_dt":28.64},{"city":"White Hall","state_name":"Illinois","lat":39.41839,"lng":-90.41291,"zip":"62092","miles_from_dt":28.76},{"city":"Bellflower","state_name":"Missouri","lat":39.0351,"lng":-91.32014,"zip":"63333","miles_from_dt":29.03},{"city":"Griggsville","state_name":"Illinois","lat":39.7228,"lng":-90.72588,"zip":"62340","miles_from_dt":29.18},{"city":"New London","state_name":"Missouri","lat":39.58392,"lng":-91.3795,"zip":"63459","miles_from_dt":29.23},{"city":"Truxton","state_name":"Missouri","lat":38.98237,"lng":-91.25429,"zip":"63381","miles_from_dt":29.55},{"city":"Vandalia","state_name":"Missouri","lat":39.31104,"lng":-91.49042,"zip":"63382","miles_from_dt":29.6}],"targetCityZipCode":"63336","targetCityState":"Missouri"},"__N_SSG":true}