{"pageProps":{"stateName":"Missouri","cityName":"couch","nearbyCities":[{"city":"Myrtle","state_name":"Missouri","lat":36.52846,"lng":-91.2719,"zip":"65778","miles_from_dt":3.95},{"city":"Alton","state_name":"Missouri","lat":36.69634,"lng":-91.3586,"zip":"65606","miles_from_dt":9.19},{"city":"Gatewood","state_name":"Missouri","lat":36.55434,"lng":-91.07821,"zip":"63942","miles_from_dt":10.7},{"city":"Thayer","state_name":"Missouri","lat":36.56651,"lng":-91.49583,"zip":"65791","miles_from_dt":12.82},{"city":"Warm Springs","state_name":"Arkansas","lat":36.46249,"lng":-91.05373,"zip":"72478","miles_from_dt":14.57},{"city":"Ravenden Springs","state_name":"Arkansas","lat":36.35792,"lng":-91.15967,"zip":"72460","miles_from_dt":16.79},{"city":"Briar","state_name":"Missouri","lat":36.64159,"lng":-90.95927,"zip":"63931","miles_from_dt":17.51},{"city":"Mammoth Spring","state_name":"Arkansas","lat":36.43902,"lng":-91.55668,"zip":"72554","miles_from_dt":19.05},{"city":"Doniphan","state_name":"Missouri","lat":36.67053,"lng":-90.92055,"zip":"63935","miles_from_dt":20.1},{"city":"Fremont","state_name":"Missouri","lat":36.8711,"lng":-91.16607,"zip":"63941","miles_from_dt":20.46},{"city":"Ravenden","state_name":"Arkansas","lat":36.27904,"lng":-91.29976,"zip":"72459","miles_from_dt":21.22},{"city":"Koshkonong","state_name":"Missouri","lat":36.61801,"lng":-91.65592,"zip":"65692","miles_from_dt":21.76},{"city":"Pocahontas","state_name":"Arkansas","lat":36.3229,"lng":-91.04909,"zip":"72455","miles_from_dt":21.79},{"city":"Cherokee Village","state_name":"Arkansas","lat":36.31583,"lng":-91.4825,"zip":"72525","miles_from_dt":22.15},{"city":"Williford","state_name":"Arkansas","lat":36.26933,"lng":-91.36402,"zip":"72482","miles_from_dt":22.47},{"city":"Hardy","state_name":"Arkansas","lat":36.29656,"lng":-91.46925,"zip":"72542","miles_from_dt":22.91},{"city":"Brandsville","state_name":"Missouri","lat":36.64928,"lng":-91.69328,"zip":"65688","miles_from_dt":24.12},{"city":"Maynard","state_name":"Arkansas","lat":36.4266,"lng":-90.86106,"zip":"72444","miles_from_dt":25.09},{"city":"Imboden","state_name":"Arkansas","lat":36.21847,"lng":-91.16025,"zip":"72434","miles_from_dt":26},{"city":"Cherokee Village","state_name":"Arkansas","lat":36.29696,"lng":-91.56676,"zip":"72529","miles_from_dt":26},{"city":"Winona","state_name":"Missouri","lat":36.96196,"lng":-91.29987,"zip":"65588","miles_from_dt":26.02},{"city":"Birch Tree","state_name":"Missouri","lat":36.9375,"lng":-91.50739,"zip":"65438","miles_from_dt":27.7},{"city":"Camp","state_name":"Arkansas","lat":36.39816,"lng":-91.72476,"zip":"72520","miles_from_dt":28.6},{"city":"Peace Valley","state_name":"Missouri","lat":36.81442,"lng":-91.69626,"zip":"65788","miles_from_dt":28.6},{"city":"Van Buren","state_name":"Missouri","lat":36.97391,"lng":-91.02294,"zip":"63965","miles_from_dt":29.99}],"targetCityZipCode":"65690","targetCityState":"Missouri"},"__N_SSG":true}