{"pageProps":{"stateName":"Missouri","cityName":"de-witt","nearbyCities":[{"city":"Miami","state_name":"Missouri","lat":39.31174,"lng":-93.1976,"zip":"65344","miles_from_dt":5.98},{"city":"Triplett","state_name":"Missouri","lat":39.50616,"lng":-93.22059,"zip":"65286","miles_from_dt":7.59},{"city":"Bosworth","state_name":"Missouri","lat":39.47,"lng":-93.33344,"zip":"64623","miles_from_dt":7.81},{"city":"Brunswick","state_name":"Missouri","lat":39.44596,"lng":-93.08305,"zip":"65236","miles_from_dt":8.23},{"city":"Dalton","state_name":"Missouri","lat":39.37725,"lng":-93.00059,"zip":"65246","miles_from_dt":11.97},{"city":"Mendon","state_name":"Missouri","lat":39.57226,"lng":-93.08923,"zip":"64660","miles_from_dt":14.09},{"city":"Carrollton","state_name":"Missouri","lat":39.35951,"lng":-93.48171,"zip":"64633","miles_from_dt":14.09},{"city":"Slater","state_name":"Missouri","lat":39.22863,"lng":-93.05581,"zip":"65349","miles_from_dt":14.62},{"city":"Malta Bend","state_name":"Missouri","lat":39.19407,"lng":-93.37671,"zip":"65339","miles_from_dt":16.2},{"city":"Keytesville","state_name":"Missouri","lat":39.47542,"lng":-92.92388,"zip":"65261","miles_from_dt":16.9},{"city":"Hale","state_name":"Missouri","lat":39.61366,"lng":-93.36883,"zip":"64643","miles_from_dt":16.91},{"city":"Sumner","state_name":"Missouri","lat":39.64706,"lng":-93.21375,"zip":"64681","miles_from_dt":17.31},{"city":"Tina","state_name":"Missouri","lat":39.55251,"lng":-93.49132,"zip":"64682","miles_from_dt":17.96},{"city":"Bogard","state_name":"Missouri","lat":39.49535,"lng":-93.54569,"zip":"64622","miles_from_dt":18.58},{"city":"Gilliam","state_name":"Missouri","lat":39.22096,"lng":-92.94945,"zip":"65330","miles_from_dt":18.99},{"city":"Rothville","state_name":"Missouri","lat":39.6471,"lng":-93.03729,"zip":"64676","miles_from_dt":19.95},{"city":"Marshall","state_name":"Missouri","lat":39.09149,"lng":-93.18041,"zip":"65340","miles_from_dt":21.14},{"city":"Waverly","state_name":"Missouri","lat":39.20176,"lng":-93.55611,"zip":"64096","miles_from_dt":22.34},{"city":"Glasgow","state_name":"Missouri","lat":39.21228,"lng":-92.85351,"zip":"65254","miles_from_dt":23.51},{"city":"Salisbury","state_name":"Missouri","lat":39.46431,"lng":-92.79099,"zip":"65281","miles_from_dt":23.57},{"city":"Marceline","state_name":"Missouri","lat":39.66124,"lng":-92.92181,"zip":"64658","miles_from_dt":24.35},{"city":"Blackburn","state_name":"Missouri","lat":39.08604,"lng":-93.4526,"zip":"65321","miles_from_dt":24.69},{"city":"Dawn","state_name":"Missouri","lat":39.61894,"lng":-93.61498,"zip":"64638","miles_from_dt":25.99},{"city":"Norborne","state_name":"Missouri","lat":39.35226,"lng":-93.70704,"zip":"64668","miles_from_dt":26.11},{"city":"Alma","state_name":"Missouri","lat":39.10464,"lng":-93.53683,"zip":"64001","miles_from_dt":26.24},{"city":"Laclede","state_name":"Missouri","lat":39.7759,"lng":-93.1797,"zip":"64651","miles_from_dt":26.3},{"city":"Meadville","state_name":"Missouri","lat":39.78138,"lng":-93.29224,"zip":"64659","miles_from_dt":26.83},{"city":"Arrow Rock","state_name":"Missouri","lat":39.06606,"lng":-92.94415,"zip":"65320","miles_from_dt":27.24},{"city":"Dover","state_name":"Missouri","lat":39.20191,"lng":-93.67836,"zip":"64022","miles_from_dt":27.86},{"city":"Stet","state_name":"Missouri","lat":39.42433,"lng":-93.75754,"zip":"64680","miles_from_dt":28.68},{"city":"Corder","state_name":"Missouri","lat":39.11498,"lng":-93.624,"zip":"64021","miles_from_dt":28.97},{"city":"Brookfield","state_name":"Missouri","lat":39.79711,"lng":-93.05002,"zip":"64628","miles_from_dt":29.15},{"city":"Armstrong","state_name":"Missouri","lat":39.28715,"lng":-92.69218,"zip":"65230","miles_from_dt":29.4},{"city":"Sweet Springs","state_name":"Missouri","lat":38.98445,"lng":-93.38628,"zip":"65351","miles_from_dt":29.73},{"city":"Nelson","state_name":"Missouri","lat":38.98453,"lng":-93.0495,"zip":"65347","miles_from_dt":29.88},{"city":"Wheeling","state_name":"Missouri","lat":39.8139,"lng":-93.37664,"zip":"64688","miles_from_dt":29.96}],"targetCityZipCode":"64639","targetCityState":"Missouri"},"__N_SSG":true}