{"pageProps":{"stateName":"Missouri","cityName":"freeburg","nearbyCities":[{"city":"Koeltztown","state_name":"Missouri","lat":38.35745,"lng":-92.0365,"zip":"65048","miles_from_dt":5.48},{"city":"Argyle","state_name":"Missouri","lat":38.27141,"lng":-92.00077,"zip":"65001","miles_from_dt":7.26},{"city":"Westphalia","state_name":"Missouri","lat":38.40304,"lng":-92.07272,"zip":"65085","miles_from_dt":7.92},{"city":"Loose Creek","state_name":"Missouri","lat":38.49103,"lng":-91.95003,"zip":"65054","miles_from_dt":8.84},{"city":"Linn","state_name":"Missouri","lat":38.46519,"lng":-91.79758,"zip":"65051","miles_from_dt":10.28},{"city":"Belle","state_name":"Missouri","lat":38.26868,"lng":-91.75493,"zip":"65013","miles_from_dt":11.8},{"city":"Vienna","state_name":"Missouri","lat":38.19177,"lng":-91.92463,"zip":"65582","miles_from_dt":11.85},{"city":"Meta","state_name":"Missouri","lat":38.25777,"lng":-92.12946,"zip":"65058","miles_from_dt":12.8},{"city":"Bonnots Mill","state_name":"Missouri","lat":38.56167,"lng":-91.91896,"zip":"65016","miles_from_dt":13.71},{"city":"Saint Thomas","state_name":"Missouri","lat":38.37064,"lng":-92.20376,"zip":"65076","miles_from_dt":14.56},{"city":"Jefferson City","state_name":"Missouri","lat":38.49143,"lng":-92.15009,"zip":"65101","miles_from_dt":14.6},{"city":"Jefferson City","state_name":"Missouri","lat":38.5511,"lng":-92.11881,"zip":"65111","miles_from_dt":16.31},{"city":"Bland","state_name":"Missouri","lat":38.32184,"lng":-91.6247,"zip":"65014","miles_from_dt":17.14},{"city":"Mount Sterling","state_name":"Missouri","lat":38.49486,"lng":-91.65059,"zip":"65062","miles_from_dt":17.94},{"city":"Brinktown","state_name":"Missouri","lat":38.13089,"lng":-92.0918,"zip":"65443","miles_from_dt":18.14},{"city":"Tebbetts","state_name":"Missouri","lat":38.63231,"lng":-91.97713,"zip":"65080","miles_from_dt":18.68},{"city":"Vichy","state_name":"Missouri","lat":38.11656,"lng":-91.78617,"zip":"65580","miles_from_dt":18.87},{"city":"Jefferson City","state_name":"Missouri","lat":38.57398,"lng":-92.17168,"zip":"65108","miles_from_dt":19.35},{"city":"Jefferson City","state_name":"Missouri","lat":38.57507,"lng":-92.17364,"zip":"65104","miles_from_dt":19.48},{"city":"Saint Elizabeth","state_name":"Missouri","lat":38.24849,"lng":-92.26388,"zip":"65075","miles_from_dt":19.51},{"city":"Jefferson City","state_name":"Missouri","lat":38.57948,"lng":-92.17092,"zip":"65102","miles_from_dt":19.61},{"city":"Jefferson City","state_name":"Missouri","lat":38.57741,"lng":-92.17418,"zip":"65105","miles_from_dt":19.62},{"city":"Jefferson City","state_name":"Missouri","lat":38.57691,"lng":-92.17549,"zip":"65110","miles_from_dt":19.64},{"city":"Jefferson City","state_name":"Missouri","lat":38.57801,"lng":-92.17436,"zip":"65106","miles_from_dt":19.66},{"city":"Jefferson City","state_name":"Missouri","lat":38.57868,"lng":-92.1737,"zip":"65107","miles_from_dt":19.67},{"city":"Jefferson City","state_name":"Missouri","lat":38.57873,"lng":-92.17409,"zip":"65103","miles_from_dt":19.69},{"city":"Holts Summit","state_name":"Missouri","lat":38.62563,"lng":-92.10774,"zip":"65043","miles_from_dt":20.35},{"city":"Chamois","state_name":"Missouri","lat":38.62444,"lng":-91.75712,"zip":"65024","miles_from_dt":20.45},{"city":"Henley","state_name":"Missouri","lat":38.36367,"lng":-92.31252,"zip":"65040","miles_from_dt":20.46},{"city":"Morrison","state_name":"Missouri","lat":38.59773,"lng":-91.638,"zip":"65061","miles_from_dt":22.85},{"city":"Jefferson City","state_name":"Missouri","lat":38.57365,"lng":-92.27791,"zip":"65109","miles_from_dt":23.55},{"city":"Mokane","state_name":"Missouri","lat":38.70365,"lng":-91.88447,"zip":"65059","miles_from_dt":23.64},{"city":"Eugene","state_name":"Missouri","lat":38.34024,"lng":-92.37942,"zip":"65032","miles_from_dt":24.15},{"city":"Owensville","state_name":"Missouri","lat":38.3454,"lng":-91.48898,"zip":"65066","miles_from_dt":24.3},{"city":"Dixon","state_name":"Missouri","lat":38.02919,"lng":-92.08337,"zip":"65459","miles_from_dt":24.41},{"city":"New Bloomfield","state_name":"Missouri","lat":38.72635,"lng":-92.08743,"zip":"65063","miles_from_dt":26.35},{"city":"Lohman","state_name":"Missouri","lat":38.54132,"lng":-92.36966,"zip":"65053","miles_from_dt":26.54},{"city":"Gasconade","state_name":"Missouri","lat":38.67278,"lng":-91.63611,"zip":"65036","miles_from_dt":26.82},{"city":"Iberia","state_name":"Missouri","lat":38.10007,"lng":-92.3107,"zip":"65486","miles_from_dt":27.31},{"city":"Tuscumbia","state_name":"Missouri","lat":38.22243,"lng":-92.42632,"zip":"65082","miles_from_dt":28.38},{"city":"Steedman","state_name":"Missouri","lat":38.7691,"lng":-91.80305,"zip":"65077","miles_from_dt":28.89},{"city":"Portland","state_name":"Missouri","lat":38.75365,"lng":-91.72369,"zip":"65067","miles_from_dt":29.27},{"city":"Olean","state_name":"Missouri","lat":38.40634,"lng":-92.47664,"zip":"65064","miles_from_dt":29.51},{"city":"Rosebud","state_name":"Missouri","lat":38.36581,"lng":-91.39013,"zip":"63091","miles_from_dt":29.64},{"city":"Rolla","state_name":"Missouri","lat":37.95103,"lng":-91.77948,"zip":"65409","miles_from_dt":29.69},{"city":"Saint James","state_name":"Missouri","lat":38.0181,"lng":-91.60664,"zip":"65559","miles_from_dt":29.8}],"targetCityZipCode":"65035","targetCityState":"Missouri"},"__N_SSG":true}