{"pageProps":{"stateName":"Missouri","cityName":"gilman-city","nearbyCities":[{"city":"Coffey","state_name":"Missouri","lat":40.11989,"lng":-93.98769,"zip":"64636","miles_from_dt":8.75},{"city":"Jameson","state_name":"Missouri","lat":40.03016,"lng":-93.96862,"zip":"64647","miles_from_dt":11.93},{"city":"Bethany","state_name":"Missouri","lat":40.26453,"lng":-94.03242,"zip":"64424","miles_from_dt":12.29},{"city":"Jamesport","state_name":"Missouri","lat":39.98517,"lng":-93.79922,"zip":"64648","miles_from_dt":12.88},{"city":"Ridgeway","state_name":"Missouri","lat":40.35622,"lng":-93.8957,"zip":"64481","miles_from_dt":13.25},{"city":"Trenton","state_name":"Missouri","lat":40.07395,"lng":-93.60346,"zip":"64683","miles_from_dt":13.97},{"city":"Spickard","state_name":"Missouri","lat":40.23246,"lng":-93.58181,"zip":"64679","miles_from_dt":14.11},{"city":"Pattonsburg","state_name":"Missouri","lat":40.04986,"lng":-94.13833,"zip":"64670","miles_from_dt":18.04},{"city":"Gallatin","state_name":"Missouri","lat":39.90172,"lng":-93.94542,"zip":"64640","miles_from_dt":19.39},{"city":"Princeton","state_name":"Missouri","lat":40.38001,"lng":-93.59094,"zip":"64673","miles_from_dt":19.44},{"city":"New Hampton","state_name":"Missouri","lat":40.26548,"lng":-94.1936,"zip":"64471","miles_from_dt":20.05},{"city":"McFall","state_name":"Missouri","lat":40.13269,"lng":-94.21292,"zip":"64657","miles_from_dt":20.13},{"city":"Cainsville","state_name":"Missouri","lat":40.46915,"lng":-93.76862,"zip":"64632","miles_from_dt":20.96},{"city":"Lock Springs","state_name":"Missouri","lat":39.84864,"lng":-93.77552,"zip":"64654","miles_from_dt":22.39},{"city":"Galt","state_name":"Missouri","lat":40.16221,"lng":-93.3992,"zip":"64641","miles_from_dt":23.11},{"city":"Altamont","state_name":"Missouri","lat":39.89617,"lng":-94.09094,"zip":"64620","miles_from_dt":23.23},{"city":"Martinsville","state_name":"Missouri","lat":40.39772,"lng":-94.16236,"zip":"64467","miles_from_dt":23.35},{"city":"Blythedale","state_name":"Missouri","lat":40.51747,"lng":-93.86158,"zip":"64426","miles_from_dt":24.03},{"city":"Laredo","state_name":"Missouri","lat":40.01979,"lng":-93.42103,"zip":"64652","miles_from_dt":24.29},{"city":"Eagleville","state_name":"Missouri","lat":40.49935,"lng":-94.00645,"zip":"64442","miles_from_dt":24.46},{"city":"Albany","state_name":"Missouri","lat":40.25201,"lng":-94.32276,"zip":"64402","miles_from_dt":26.38},{"city":"Weatherby","state_name":"Missouri","lat":39.92929,"lng":-94.22275,"zip":"64497","miles_from_dt":26.39},{"city":"Winston","state_name":"Missouri","lat":39.87461,"lng":-94.152,"zip":"64689","miles_from_dt":26.39},{"city":"Chula","state_name":"Missouri","lat":39.93943,"lng":-93.43632,"zip":"64635","miles_from_dt":26.48},{"city":"Denver","state_name":"Missouri","lat":40.39883,"lng":-94.2642,"zip":"64441","miles_from_dt":27.61},{"city":"Humphreys","state_name":"Missouri","lat":40.10456,"lng":-93.30819,"zip":"64646","miles_from_dt":28.3},{"city":"Harris","state_name":"Missouri","lat":40.29834,"lng":-93.32575,"zip":"64645","miles_from_dt":28.39},{"city":"Chillicothe","state_name":"Missouri","lat":39.8044,"lng":-93.57334,"zip":"64601","miles_from_dt":28.8},{"city":"Hatfield","state_name":"Missouri","lat":40.52246,"lng":-94.14491,"zip":"64458","miles_from_dt":29.3},{"city":"Breckenridge","state_name":"Missouri","lat":39.74378,"lng":-93.80527,"zip":"64625","miles_from_dt":29.44},{"city":"Mercer","state_name":"Missouri","lat":40.53031,"lng":-93.51901,"zip":"64661","miles_from_dt":29.97}],"targetCityZipCode":"64642","targetCityState":"Missouri"},"__N_SSG":true}