{"pageProps":{"stateName":"Missouri","cityName":"hallsville","nearbyCities":[{"city":"Columbia","state_name":"Missouri","lat":39.04927,"lng":-92.24047,"zip":"65205","miles_from_dt":3.26},{"city":"Columbia","state_name":"Missouri","lat":39.02356,"lng":-92.24822,"zip":"65299","miles_from_dt":5.07},{"city":"Columbia","state_name":"Missouri","lat":39.01721,"lng":-92.29822,"zip":"65202","miles_from_dt":6.44},{"city":"Sturgeon","state_name":"Missouri","lat":39.19658,"lng":-92.30361,"zip":"65284","miles_from_dt":7.85},{"city":"Centralia","state_name":"Missouri","lat":39.22085,"lng":-92.13026,"zip":"65240","miles_from_dt":10.26},{"city":"Columbia","state_name":"Missouri","lat":38.95818,"lng":-92.32629,"zip":"65216","miles_from_dt":10.73},{"city":"Columbia","state_name":"Missouri","lat":38.95171,"lng":-92.32043,"zip":"65215","miles_from_dt":10.99},{"city":"Columbia","state_name":"Missouri","lat":38.94823,"lng":-92.32734,"zip":"65211","miles_from_dt":11.37},{"city":"Harrisburg","state_name":"Missouri","lat":39.12713,"lng":-92.45568,"zip":"65256","miles_from_dt":12.07},{"city":"Columbia","state_name":"Missouri","lat":38.9526,"lng":-92.3665,"zip":"65218","miles_from_dt":12.19},{"city":"Columbia","state_name":"Missouri","lat":38.90942,"lng":-92.24704,"zip":"65212","miles_from_dt":12.91},{"city":"Thompson","state_name":"Missouri","lat":39.2067,"lng":-92.02056,"zip":"65285","miles_from_dt":13.79},{"city":"Columbia","state_name":"Missouri","lat":38.89595,"lng":-92.24365,"zip":"65201","miles_from_dt":13.83},{"city":"Clark","state_name":"Missouri","lat":39.27654,"lng":-92.35207,"zip":"65243","miles_from_dt":13.94},{"city":"Columbia","state_name":"Missouri","lat":38.89798,"lng":-92.33364,"zip":"65217","miles_from_dt":14.68},{"city":"Rocheport","state_name":"Missouri","lat":39.01284,"lng":-92.52062,"zip":"65279","miles_from_dt":16.42},{"city":"Columbia","state_name":"Missouri","lat":38.89497,"lng":-92.39928,"zip":"65203","miles_from_dt":16.48},{"city":"Kingdom City","state_name":"Missouri","lat":38.9548,"lng":-91.95285,"zip":"65262","miles_from_dt":18.03},{"city":"Auxvasse","state_name":"Missouri","lat":39.01773,"lng":-91.90803,"zip":"65231","miles_from_dt":18.38},{"city":"Renick","state_name":"Missouri","lat":39.34217,"lng":-92.41251,"zip":"65278","miles_from_dt":19.46},{"city":"Mexico","state_name":"Missouri","lat":39.20531,"lng":-91.88728,"zip":"65265","miles_from_dt":20.12},{"city":"Higbee","state_name":"Missouri","lat":39.28404,"lng":-92.53112,"zip":"65257","miles_from_dt":20.52},{"city":"Wooldridge","state_name":"Missouri","lat":38.88443,"lng":-92.51953,"zip":"65287","miles_from_dt":21.19},{"city":"Ashland","state_name":"Missouri","lat":38.78757,"lng":-92.24301,"zip":"65010","miles_from_dt":21.3},{"city":"Fulton","state_name":"Missouri","lat":38.84902,"lng":-91.97911,"zip":"65251","miles_from_dt":21.92},{"city":"Fayette","state_name":"Missouri","lat":39.13952,"lng":-92.65894,"zip":"65248","miles_from_dt":23},{"city":"Moberly","state_name":"Missouri","lat":39.41552,"lng":-92.39917,"zip":"65270","miles_from_dt":23.72},{"city":"Madison","state_name":"Missouri","lat":39.45244,"lng":-92.22062,"zip":"65263","miles_from_dt":24.58},{"city":"New Franklin","state_name":"Missouri","lat":39.01342,"lng":-92.68321,"zip":"65274","miles_from_dt":24.8},{"city":"Jamestown","state_name":"Missouri","lat":38.77658,"lng":-92.47889,"zip":"65046","miles_from_dt":25.68},{"city":"Benton City","state_name":"Missouri","lat":39.15901,"lng":-91.75516,"zip":"65232","miles_from_dt":26.12},{"city":"Hartsburg","state_name":"Missouri","lat":38.71388,"lng":-92.2984,"zip":"65039","miles_from_dt":26.6},{"city":"New Bloomfield","state_name":"Missouri","lat":38.72635,"lng":-92.08743,"zip":"65063","miles_from_dt":26.73},{"city":"Prairie Home","state_name":"Missouri","lat":38.82757,"lng":-92.59909,"zip":"65068","miles_from_dt":27},{"city":"Rush Hill","state_name":"Missouri","lat":39.23487,"lng":-91.75048,"zip":"65280","miles_from_dt":27.7},{"city":"Armstrong","state_name":"Missouri","lat":39.28715,"lng":-92.69218,"zip":"65230","miles_from_dt":27.87},{"city":"Paris","state_name":"Missouri","lat":39.45935,"lng":-91.99414,"zip":"65275","miles_from_dt":28.17},{"city":"Boonville","state_name":"Missouri","lat":38.91528,"lng":-92.72035,"zip":"65233","miles_from_dt":28.97},{"city":"Martinsburg","state_name":"Missouri","lat":39.08852,"lng":-91.69544,"zip":"65264","miles_from_dt":28.99},{"city":"Santa Fe","state_name":"Missouri","lat":39.38975,"lng":-91.83302,"zip":"65282","miles_from_dt":29.56},{"city":"Williamsburg","state_name":"Missouri","lat":38.88816,"lng":-91.74995,"zip":"63388","miles_from_dt":29.78},{"city":"Holliday","state_name":"Missouri","lat":39.52339,"lng":-92.13706,"zip":"65258","miles_from_dt":29.92}],"targetCityZipCode":"65255","targetCityState":"Missouri"},"__N_SSG":true}