{"pageProps":{"stateName":"Missouri","cityName":"holt","nearbyCities":[{"city":"Kearney","state_name":"Missouri","lat":39.37134,"lng":-94.36821,"zip":"64060","miles_from_dt":5.05},{"city":"Lathrop","state_name":"Missouri","lat":39.54853,"lng":-94.29525,"zip":"64465","miles_from_dt":8.06},{"city":"Trimble","state_name":"Missouri","lat":39.48067,"lng":-94.53363,"zip":"64492","miles_from_dt":9.44},{"city":"Mosby","state_name":"Missouri","lat":39.31391,"lng":-94.29154,"zip":"64073","miles_from_dt":9.79},{"city":"Lawson","state_name":"Missouri","lat":39.45533,"lng":-94.17244,"zip":"64062","miles_from_dt":10.24},{"city":"Plattsburg","state_name":"Missouri","lat":39.57872,"lng":-94.45289,"zip":"64477","miles_from_dt":10.43},{"city":"Kansas City","state_name":"Missouri","lat":39.31939,"lng":-94.48187,"zip":"64167","miles_from_dt":10.7},{"city":"Excelsior Springs","state_name":"Missouri","lat":39.32523,"lng":-94.22707,"zip":"64024","miles_from_dt":10.99},{"city":"Smithville","state_name":"Missouri","lat":39.39007,"lng":-94.56483,"zip":"64089","miles_from_dt":11.41},{"city":"Kansas City","state_name":"Missouri","lat":39.32215,"lng":-94.52301,"zip":"64166","miles_from_dt":12.01},{"city":"Liberty","state_name":"Missouri","lat":39.25924,"lng":-94.39042,"zip":"64068","miles_from_dt":12.85},{"city":"Kansas City","state_name":"Missouri","lat":39.27657,"lng":-94.47103,"zip":"64157","miles_from_dt":12.93},{"city":"Turney","state_name":"Missouri","lat":39.63058,"lng":-94.30454,"zip":"64493","miles_from_dt":13.22},{"city":"Liberty","state_name":"Missouri","lat":39.24178,"lng":-94.41722,"zip":"64069","miles_from_dt":14.27},{"city":"Kansas City","state_name":"Missouri","lat":39.32081,"lng":-94.57749,"zip":"64165","miles_from_dt":14.28},{"city":"Kansas City","state_name":"Missouri","lat":39.2762,"lng":-94.5195,"zip":"64156","miles_from_dt":14.3},{"city":"Edgerton","state_name":"Missouri","lat":39.48334,"lng":-94.63856,"zip":"64444","miles_from_dt":14.96},{"city":"Missouri City","state_name":"Missouri","lat":39.23286,"lng":-94.30021,"zip":"64072","miles_from_dt":14.98},{"city":"Kansas City","state_name":"Missouri","lat":39.23493,"lng":-94.47839,"zip":"64158","miles_from_dt":15.71},{"city":"Kansas City","state_name":"Missouri","lat":39.28031,"lng":-94.56801,"zip":"64155","miles_from_dt":15.75},{"city":"Kansas City","state_name":"Missouri","lat":39.32988,"lng":-94.63113,"zip":"64164","miles_from_dt":16.37},{"city":"Rayville","state_name":"Missouri","lat":39.38697,"lng":-94.0653,"zip":"64084","miles_from_dt":16.44},{"city":"Gower","state_name":"Missouri","lat":39.60771,"lng":-94.59423,"zip":"64454","miles_from_dt":16.7},{"city":"Polo","state_name":"Missouri","lat":39.53655,"lng":-94.0518,"zip":"64671","miles_from_dt":17.83},{"city":"Kansas City","state_name":"Missouri","lat":39.21137,"lng":-94.5186,"zip":"64119","miles_from_dt":18.1},{"city":"Kansas City","state_name":"Missouri","lat":39.27653,"lng":-94.62967,"zip":"64154","miles_from_dt":18.37},{"city":"Independence","state_name":"Missouri","lat":39.17805,"lng":-94.31408,"zip":"64058","miles_from_dt":18.56},{"city":"Kansas City","state_name":"Missouri","lat":39.33674,"lng":-94.68922,"zip":"64163","miles_from_dt":18.96},{"city":"Orrick","state_name":"Missouri","lat":39.2224,"lng":-94.13887,"zip":"64077","miles_from_dt":19.47},{"city":"Kansas City","state_name":"Missouri","lat":39.21301,"lng":-94.57497,"zip":"64118","miles_from_dt":19.58},{"city":"Camden Point","state_name":"Missouri","lat":39.45052,"lng":-94.73329,"zip":"64018","miles_from_dt":19.79},{"city":"Kansas City","state_name":"Missouri","lat":39.16184,"lng":-94.44943,"zip":"64161","miles_from_dt":20.03},{"city":"Kansas City","state_name":"Missouri","lat":39.15597,"lng":-94.48187,"zip":"64162","miles_from_dt":20.89},{"city":"Kansas City","state_name":"Missouri","lat":39.16522,"lng":-94.52251,"zip":"64117","miles_from_dt":21.06},{"city":"Kingston","state_name":"Missouri","lat":39.63716,"lng":-94.0548,"zip":"64650","miles_from_dt":21.18},{"city":"Kansas City","state_name":"Missouri","lat":39.21494,"lng":-94.63115,"zip":"64151","miles_from_dt":21.36},{"city":"Dearborn","state_name":"Missouri","lat":39.52371,"lng":-94.74986,"zip":"64439","miles_from_dt":21.37},{"city":"Kansas City","state_name":"Missouri","lat":39.30204,"lng":-94.71838,"zip":"64195","miles_from_dt":21.39},{"city":"Cameron","state_name":"Missouri","lat":39.73895,"lng":-94.2285,"zip":"64429","miles_from_dt":21.56},{"city":"Osborn","state_name":"Missouri","lat":39.75829,"lng":-94.38103,"zip":"64474","miles_from_dt":21.68},{"city":"Sibley","state_name":"Missouri","lat":39.16173,"lng":-94.1848,"zip":"64088","miles_from_dt":21.72},{"city":"Stewartsville","state_name":"Missouri","lat":39.73837,"lng":-94.50984,"zip":"64490","miles_from_dt":21.74},{"city":"Kansas City","state_name":"Missouri","lat":39.27999,"lng":-94.73148,"zip":"64153","miles_from_dt":22.74},{"city":"Independence","state_name":"Missouri","lat":39.11424,"lng":-94.40641,"zip":"64050","miles_from_dt":22.89},{"city":"Agency","state_name":"Missouri","lat":39.63452,"lng":-94.71522,"zip":"64401","miles_from_dt":22.92},{"city":"Independence","state_name":"Missouri","lat":39.11627,"lng":-94.44003,"zip":"64054","miles_from_dt":23.01},{"city":"Kansas City","state_name":"Missouri","lat":39.13142,"lng":-94.51489,"zip":"64120","miles_from_dt":23.07},{"city":"Independence","state_name":"Missouri","lat":39.11114,"lng":-94.32008,"zip":"64056","miles_from_dt":23.11},{"city":"Richmond","state_name":"Missouri","lat":39.33838,"lng":-93.95158,"zip":"64085","miles_from_dt":23.23},{"city":"Kansas City","state_name":"Missouri","lat":39.14875,"lng":-94.57444,"zip":"64116","miles_from_dt":23.32},{"city":"Kansas City","state_name":"Missouri","lat":39.14348,"lng":-94.57159,"zip":"64144","miles_from_dt":23.57},{"city":"Riverside","state_name":"Missouri","lat":39.17052,"lng":-94.6303,"zip":"64150","miles_from_dt":23.7},{"city":"Platte City","state_name":"Missouri","lat":39.36267,"lng":-94.79351,"zip":"64079","miles_from_dt":23.7},{"city":"Kansas City","state_name":"Missouri","lat":39.1686,"lng":-94.63192,"zip":"64168","miles_from_dt":23.86},{"city":"Independence","state_name":"Missouri","lat":39.10791,"lng":-94.46735,"zip":"64053","miles_from_dt":23.87},{"city":"Buckner","state_name":"Missouri","lat":39.11642,"lng":-94.21385,"zip":"64016","miles_from_dt":24},{"city":"Levasy","state_name":"Missouri","lat":39.13961,"lng":-94.13857,"zip":"64066","miles_from_dt":24.23},{"city":"Kansas City","state_name":"Missouri","lat":39.11436,"lng":-94.52167,"zip":"64123","miles_from_dt":24.3},{"city":"Kansas City","state_name":"Missouri","lat":39.1065,"lng":-94.49388,"zip":"64125","miles_from_dt":24.34},{"city":"Independence","state_name":"Missouri","lat":39.09371,"lng":-94.41768,"zip":"64051","miles_from_dt":24.37},{"city":"Kansas City","state_name":"Missouri","lat":39.12322,"lng":-94.55505,"zip":"64179","miles_from_dt":24.42},{"city":"Kansas City","state_name":"Missouri","lat":39.18858,"lng":-94.68211,"zip":"64190","miles_from_dt":24.56},{"city":"Kansas City","state_name":"Kansas","lat":39.14402,"lng":-94.61104,"zip":"66115","miles_from_dt":24.61},{"city":"Camden","state_name":"Missouri","lat":39.199,"lng":-94.02951,"zip":"64017","miles_from_dt":24.63},{"city":"Kansas City","state_name":"Missouri","lat":39.21278,"lng":-94.72271,"zip":"64152","miles_from_dt":25.02},{"city":"Kansas City","state_name":"Missouri","lat":39.10718,"lng":-94.5391,"zip":"64124","miles_from_dt":25.1},{"city":"Kansas City","state_name":"Missouri","lat":39.09095,"lng":-94.49581,"zip":"64126","miles_from_dt":25.39},{"city":"Cowgill","state_name":"Missouri","lat":39.57439,"lng":-93.91573,"zip":"64637","miles_from_dt":25.55},{"city":"Kansas City","state_name":"Missouri","lat":39.10526,"lng":-94.57013,"zip":"64106","miles_from_dt":25.89},{"city":"Easton","state_name":"Missouri","lat":39.74724,"lng":-94.65205,"zip":"64443","miles_from_dt":25.96},{"city":"Independence","state_name":"Missouri","lat":39.0692,"lng":-94.32203,"zip":"64057","miles_from_dt":25.98},{"city":"Independence","state_name":"Missouri","lat":39.07355,"lng":-94.45082,"zip":"64052","miles_from_dt":26.01},{"city":"Kansas City","state_name":"Missouri","lat":39.08912,"lng":-94.53837,"zip":"64127","miles_from_dt":26.24},{"city":"Kansas City","state_name":"Missouri","lat":39.1041,"lng":-94.58383,"zip":"64199","miles_from_dt":26.28},{"city":"Kansas City","state_name":"Missouri","lat":39.1073,"lng":-94.59246,"zip":"64184","miles_from_dt":26.3},{"city":"Kansas City","state_name":"Missouri","lat":39.10599,"lng":-94.58985,"zip":"64105","miles_from_dt":26.31},{"city":"Kansas City","state_name":"Missouri","lat":39.10077,"lng":-94.57899,"zip":"64121","miles_from_dt":26.37},{"city":"Kansas City","state_name":"Missouri","lat":39.10183,"lng":-94.58228,"zip":"64198","miles_from_dt":26.39},{"city":"Kansas City","state_name":"Missouri","lat":39.09972,"lng":-94.57833,"zip":"64188","miles_from_dt":26.42},{"city":"Kansas City","state_name":"Missouri","lat":39.10127,"lng":-94.58236,"zip":"64180","miles_from_dt":26.42},{"city":"Kansas City","state_name":"Missouri","lat":39.09948,"lng":-94.57794,"zip":"64187","miles_from_dt":26.43},{"city":"Kansas City","state_name":"Kansas","lat":39.11871,"lng":-94.62592,"zip":"66101","miles_from_dt":26.51},{"city":"Farley","state_name":"Missouri","lat":39.29658,"lng":-94.82153,"zip":"64028","miles_from_dt":26.57},{"city":"Kansas City","state_name":"Missouri","lat":39.09892,"lng":-94.58337,"zip":"64196","miles_from_dt":26.59},{"city":"Kansas City","state_name":"Kansas","lat":39.1164,"lng":-94.6243,"zip":"66117","miles_from_dt":26.6},{"city":"Faucett","state_name":"Missouri","lat":39.60258,"lng":-94.81856,"zip":"64448","miles_from_dt":26.65},{"city":"Kansas City","state_name":"Missouri","lat":39.10355,"lng":-94.60051,"zip":"64101","miles_from_dt":26.73},{"city":"Kansas City","state_name":"Kansas","lat":39.15043,"lng":-94.68861,"zip":"66104","miles_from_dt":26.74},{"city":"Kidder","state_name":"Missouri","lat":39.77428,"lng":-94.09183,"zip":"64649","miles_from_dt":26.98},{"city":"Kansas City","state_name":"Missouri","lat":39.08865,"lng":-94.58129,"zip":"64148","miles_from_dt":27.18},{"city":"Independence","state_name":"Missouri","lat":39.05061,"lng":-94.39848,"zip":"64055","miles_from_dt":27.23},{"city":"Kansas City","state_name":"Kansas","lat":39.09946,"lng":-94.61348,"zip":"66118","miles_from_dt":27.31},{"city":"Kansas City","state_name":"Missouri","lat":39.08763,"lng":-94.58471,"zip":"64191","miles_from_dt":27.32},{"city":"Kansas City","state_name":"Missouri","lat":39.09433,"lng":-94.60329,"zip":"64102","miles_from_dt":27.36},{"city":"Kansas City","state_name":"Missouri","lat":39.08559,"lng":-94.58524,"zip":"64141","miles_from_dt":27.46},{"city":"Kansas City","state_name":"Missouri","lat":39.08413,"lng":-94.58449,"zip":"64108","miles_from_dt":27.54},{"city":"Kansas City","state_name":"Missouri","lat":39.06555,"lng":-94.53484,"zip":"64128","miles_from_dt":27.7},{"city":"Kansas City","state_name":"Missouri","lat":39.04935,"lng":-94.49682,"zip":"64129","miles_from_dt":28.18},{"city":"Kansas City","state_name":"Missouri","lat":39.06646,"lng":-94.56709,"zip":"64109","miles_from_dt":28.27},{"city":"Waldron","state_name":"Missouri","lat":39.22248,"lng":-94.8088,"zip":"64092","miles_from_dt":28.35},{"city":"Henrietta","state_name":"Missouri","lat":39.20047,"lng":-93.937,"zip":"64036","miles_from_dt":28.38},{"city":"Weston","state_name":"Missouri","lat":39.45661,"lng":-94.89456,"zip":"64098","miles_from_dt":28.42},{"city":"Kansas City","state_name":"Kansas","lat":39.08593,"lng":-94.63646,"zip":"66105","miles_from_dt":28.74},{"city":"Kansas City","state_name":"Kansas","lat":39.11246,"lng":-94.68842,"zip":"66102","miles_from_dt":28.77},{"city":"Kansas City","state_name":"Kansas","lat":39.08372,"lng":-94.63903,"zip":"66119","miles_from_dt":28.94},{"city":"Kansas City","state_name":"Kansas","lat":39.11323,"lng":-94.69498,"zip":"66110","miles_from_dt":28.95},{"city":"Saint Joseph","state_name":"Missouri","lat":39.73324,"lng":-94.75735,"zip":"64507","miles_from_dt":28.97},{"city":"Hamilton","state_name":"Missouri","lat":39.7418,"lng":-93.97384,"zip":"64644","miles_from_dt":29.21},{"city":"Clarksdale","state_name":"Missouri","lat":39.83771,"lng":-94.56924,"zip":"64430","miles_from_dt":29.27},{"city":"Blue Springs","state_name":"Missouri","lat":39.02099,"lng":-94.3006,"zip":"64015","miles_from_dt":29.4},{"city":"Napoleon","state_name":"Missouri","lat":39.08106,"lng":-94.07658,"zip":"64074","miles_from_dt":29.41},{"city":"Kansas City","state_name":"Missouri","lat":39.05707,"lng":-94.59393,"zip":"64111","miles_from_dt":29.44},{"city":"Blue Springs","state_name":"Missouri","lat":39.01936,"lng":-94.28247,"zip":"64013","miles_from_dt":29.64},{"city":"Kansas City","state_name":"Missouri","lat":39.05094,"lng":-94.5881,"zip":"64171","miles_from_dt":29.7},{"city":"Kansas City","state_name":"Missouri","lat":39.01361,"lng":-94.40181,"zip":"64136","miles_from_dt":29.79},{"city":"Kansas City","state_name":"Kansas","lat":39.05576,"lng":-94.60963,"zip":"66160","miles_from_dt":29.89},{"city":"Kansas City","state_name":"Missouri","lat":39.03345,"lng":-94.54119,"zip":"64130","miles_from_dt":29.91}],"targetCityZipCode":"64048","targetCityState":"Missouri"},"__N_SSG":true}