{"pageProps":{"stateName":"Missouri","cityName":"hughesville","nearbyCities":[{"city":"Houstonia","state_name":"Missouri","lat":38.90687,"lng":-93.30724,"zip":"65333","miles_from_dt":5.98},{"city":"Sedalia","state_name":"Missouri","lat":38.70819,"lng":-93.22234,"zip":"65302","miles_from_dt":8.82},{"city":"Sedalia","state_name":"Missouri","lat":38.69922,"lng":-93.22104,"zip":"65301","miles_from_dt":9.45},{"city":"La Monte","state_name":"Missouri","lat":38.79202,"lng":-93.42573,"zip":"65337","miles_from_dt":10.16},{"city":"Sweet Springs","state_name":"Missouri","lat":38.98445,"lng":-93.38628,"zip":"65351","miles_from_dt":12.81},{"city":"Smithton","state_name":"Missouri","lat":38.65557,"lng":-93.10038,"zip":"65350","miles_from_dt":14.64},{"city":"Nelson","state_name":"Missouri","lat":38.98453,"lng":-93.0495,"zip":"65347","miles_from_dt":14.78},{"city":"Pilot Grove","state_name":"Missouri","lat":38.84581,"lng":-92.95498,"zip":"65276","miles_from_dt":15.7},{"city":"Emma","state_name":"Missouri","lat":38.97525,"lng":-93.48909,"zip":"65327","miles_from_dt":16.31},{"city":"Otterville","state_name":"Missouri","lat":38.70963,"lng":-92.98344,"zip":"65348","miles_from_dt":16.58},{"city":"Green Ridge","state_name":"Missouri","lat":38.61973,"lng":-93.41324,"zip":"65332","miles_from_dt":17.38},{"city":"Knob Noster","state_name":"Missouri","lat":38.78169,"lng":-93.56241,"zip":"65336","miles_from_dt":17.49},{"city":"Marshall","state_name":"Missouri","lat":39.09149,"lng":-93.18041,"zip":"65340","miles_from_dt":18.05},{"city":"Whiteman Air Force Base","state_name":"Missouri","lat":38.72944,"lng":-93.55446,"zip":"65305","miles_from_dt":18.19},{"city":"Blackwater","state_name":"Missouri","lat":38.9729,"lng":-92.95535,"zip":"65322","miles_from_dt":18.32},{"city":"Blackburn","state_name":"Missouri","lat":39.08604,"lng":-93.4526,"zip":"65321","miles_from_dt":20.61},{"city":"Concordia","state_name":"Missouri","lat":38.96795,"lng":-93.59098,"zip":"64020","miles_from_dt":20.76},{"city":"Mora","state_name":"Missouri","lat":38.54111,"lng":-93.1254,"zip":"65345","miles_from_dt":21.27},{"city":"Florence","state_name":"Missouri","lat":38.60937,"lng":-92.96132,"zip":"65329","miles_from_dt":21.86},{"city":"Ionia","state_name":"Missouri","lat":38.51338,"lng":-93.32667,"zip":"65335","miles_from_dt":22.6},{"city":"Arrow Rock","state_name":"Missouri","lat":39.06606,"lng":-92.94415,"zip":"65320","miles_from_dt":22.76},{"city":"Syracuse","state_name":"Missouri","lat":38.64841,"lng":-92.88786,"zip":"65354","miles_from_dt":23.21},{"city":"Alma","state_name":"Missouri","lat":39.10464,"lng":-93.53683,"zip":"64001","miles_from_dt":24.34},{"city":"Bunceton","state_name":"Missouri","lat":38.78078,"lng":-92.78438,"zip":"65237","miles_from_dt":25.17},{"city":"Malta Bend","state_name":"Missouri","lat":39.19407,"lng":-93.37671,"zip":"65339","miles_from_dt":25.77},{"city":"Franklin","state_name":"Missouri","lat":39.03524,"lng":-92.83991,"zip":"65250","miles_from_dt":25.86},{"city":"Windsor","state_name":"Missouri","lat":38.51989,"lng":-93.51334,"zip":"65360","miles_from_dt":26.1},{"city":"Warrensburg","state_name":"Missouri","lat":38.79057,"lng":-93.73206,"zip":"64093","miles_from_dt":26.43},{"city":"Cole Camp","state_name":"Missouri","lat":38.43239,"lng":-93.18535,"zip":"65325","miles_from_dt":27.95},{"city":"Corder","state_name":"Missouri","lat":39.11498,"lng":-93.624,"zip":"64021","miles_from_dt":28.08},{"city":"Tipton","state_name":"Missouri","lat":38.64086,"lng":-92.78424,"zip":"65081","miles_from_dt":28.29},{"city":"Boonville","state_name":"Missouri","lat":38.91528,"lng":-92.72035,"zip":"65233","miles_from_dt":28.86},{"city":"Slater","state_name":"Missouri","lat":39.22863,"lng":-93.05581,"zip":"65349","miles_from_dt":29.02},{"city":"Leeton","state_name":"Missouri","lat":38.59463,"lng":-93.68657,"zip":"64761","miles_from_dt":29.02},{"city":"Fortuna","state_name":"Missouri","lat":38.55637,"lng":-92.82183,"zip":"65034","miles_from_dt":29.89}],"targetCityZipCode":"65334","targetCityState":"Missouri"},"__N_SSG":true}