{"pageProps":{"stateName":"Missouri","cityName":"koeltztown","nearbyCities":[{"city":"Westphalia","state_name":"Missouri","lat":38.40304,"lng":-92.07272,"zip":"65085","miles_from_dt":3.71},{"city":"Freeburg","state_name":"Missouri","lat":38.36338,"lng":-91.93585,"zip":"65035","miles_from_dt":5.48},{"city":"Argyle","state_name":"Missouri","lat":38.27141,"lng":-92.00077,"zip":"65001","miles_from_dt":6.24},{"city":"Meta","state_name":"Missouri","lat":38.25777,"lng":-92.12946,"zip":"65058","miles_from_dt":8.53},{"city":"Saint Thomas","state_name":"Missouri","lat":38.37064,"lng":-92.20376,"zip":"65076","miles_from_dt":9.13},{"city":"Loose Creek","state_name":"Missouri","lat":38.49103,"lng":-91.95003,"zip":"65054","miles_from_dt":10.34},{"city":"Jefferson City","state_name":"Missouri","lat":38.49143,"lng":-92.15009,"zip":"65101","miles_from_dt":11.11},{"city":"Vienna","state_name":"Missouri","lat":38.19177,"lng":-91.92463,"zip":"65582","miles_from_dt":12.95},{"city":"Jefferson City","state_name":"Missouri","lat":38.5511,"lng":-92.11881,"zip":"65111","miles_from_dt":14.08},{"city":"Saint Elizabeth","state_name":"Missouri","lat":38.24849,"lng":-92.26388,"zip":"65075","miles_from_dt":14.46},{"city":"Linn","state_name":"Missouri","lat":38.46519,"lng":-91.79758,"zip":"65051","miles_from_dt":14.94},{"city":"Henley","state_name":"Missouri","lat":38.36367,"lng":-92.31252,"zip":"65040","miles_from_dt":15},{"city":"Bonnots Mill","state_name":"Missouri","lat":38.56167,"lng":-91.91896,"zip":"65016","miles_from_dt":15.46},{"city":"Brinktown","state_name":"Missouri","lat":38.13089,"lng":-92.0918,"zip":"65443","miles_from_dt":15.91},{"city":"Belle","state_name":"Missouri","lat":38.26868,"lng":-91.75493,"zip":"65013","miles_from_dt":16.48},{"city":"Jefferson City","state_name":"Missouri","lat":38.57398,"lng":-92.17168,"zip":"65108","miles_from_dt":16.64},{"city":"Jefferson City","state_name":"Missouri","lat":38.57507,"lng":-92.17364,"zip":"65104","miles_from_dt":16.75},{"city":"Jefferson City","state_name":"Missouri","lat":38.57741,"lng":-92.17418,"zip":"65105","miles_from_dt":16.91},{"city":"Jefferson City","state_name":"Missouri","lat":38.57691,"lng":-92.17549,"zip":"65110","miles_from_dt":16.91},{"city":"Jefferson City","state_name":"Missouri","lat":38.57801,"lng":-92.17436,"zip":"65106","miles_from_dt":16.95},{"city":"Jefferson City","state_name":"Missouri","lat":38.57948,"lng":-92.17092,"zip":"65102","miles_from_dt":16.96},{"city":"Jefferson City","state_name":"Missouri","lat":38.57868,"lng":-92.1737,"zip":"65107","miles_from_dt":16.98},{"city":"Jefferson City","state_name":"Missouri","lat":38.57873,"lng":-92.17409,"zip":"65103","miles_from_dt":16.99},{"city":"Eugene","state_name":"Missouri","lat":38.34024,"lng":-92.37942,"zip":"65032","miles_from_dt":18.66},{"city":"Holts Summit","state_name":"Missouri","lat":38.62563,"lng":-92.10774,"zip":"65043","miles_from_dt":18.9},{"city":"Tebbetts","state_name":"Missouri","lat":38.63231,"lng":-91.97713,"zip":"65080","miles_from_dt":19.23},{"city":"Jefferson City","state_name":"Missouri","lat":38.57365,"lng":-92.27791,"zip":"65109","miles_from_dt":19.84},{"city":"Vichy","state_name":"Missouri","lat":38.11656,"lng":-91.78617,"zip":"65580","miles_from_dt":21.48},{"city":"Lohman","state_name":"Missouri","lat":38.54132,"lng":-92.36966,"zip":"65053","miles_from_dt":22.08},{"city":"Bland","state_name":"Missouri","lat":38.32184,"lng":-91.6247,"zip":"65014","miles_from_dt":22.5},{"city":"Dixon","state_name":"Missouri","lat":38.02919,"lng":-92.08337,"zip":"65459","miles_from_dt":22.78},{"city":"Mount Sterling","state_name":"Missouri","lat":38.49486,"lng":-91.65059,"zip":"65062","miles_from_dt":22.98},{"city":"Tuscumbia","state_name":"Missouri","lat":38.22243,"lng":-92.42632,"zip":"65082","miles_from_dt":23.15},{"city":"Iberia","state_name":"Missouri","lat":38.10007,"lng":-92.3107,"zip":"65486","miles_from_dt":23.19},{"city":"Chamois","state_name":"Missouri","lat":38.62444,"lng":-91.75712,"zip":"65024","miles_from_dt":23.84},{"city":"Olean","state_name":"Missouri","lat":38.40634,"lng":-92.47664,"zip":"65064","miles_from_dt":24.13},{"city":"Russellville","state_name":"Missouri","lat":38.47967,"lng":-92.47306,"zip":"65074","miles_from_dt":25.15},{"city":"Mokane","state_name":"Missouri","lat":38.70365,"lng":-91.88447,"zip":"65059","miles_from_dt":25.26},{"city":"New Bloomfield","state_name":"Missouri","lat":38.72635,"lng":-92.08743,"zip":"65063","miles_from_dt":25.59},{"city":"Ulman","state_name":"Missouri","lat":38.14318,"lng":-92.44089,"zip":"65083","miles_from_dt":26.5},{"city":"Morrison","state_name":"Missouri","lat":38.59773,"lng":-91.638,"zip":"65061","miles_from_dt":27.23},{"city":"Centertown","state_name":"Missouri","lat":38.65274,"lng":-92.39915,"zip":"65023","miles_from_dt":28.31},{"city":"Hartsburg","state_name":"Missouri","lat":38.71388,"lng":-92.2984,"zip":"65039","miles_from_dt":28.39},{"city":"Eldon","state_name":"Missouri","lat":38.32105,"lng":-92.57099,"zip":"65026","miles_from_dt":29.14},{"city":"Jerome","state_name":"Missouri","lat":37.92912,"lng":-91.98926,"zip":"65529","miles_from_dt":29.65},{"city":"Owensville","state_name":"Missouri","lat":38.3454,"lng":-91.48898,"zip":"65066","miles_from_dt":29.75},{"city":"Crocker","state_name":"Missouri","lat":37.96271,"lng":-92.26702,"zip":"65452","miles_from_dt":29.98}],"targetCityZipCode":"65048","targetCityState":"Missouri"},"__N_SSG":true}