{"pageProps":{"stateName":"Missouri","cityName":"laquey","nearbyCities":[{"city":"Fort Leonard Wood","state_name":"Missouri","lat":37.71215,"lng":-92.14811,"zip":"65473","miles_from_dt":7.07},{"city":"Waynesville","state_name":"Missouri","lat":37.82171,"lng":-92.2541,"zip":"65583","miles_from_dt":8.32},{"city":"Richland","state_name":"Missouri","lat":37.83582,"lng":-92.40541,"zip":"65556","miles_from_dt":11.6},{"city":"Saint Robert","state_name":"Missouri","lat":37.82901,"lng":-92.13086,"zip":"65584","miles_from_dt":11.83},{"city":"Falcon","state_name":"Missouri","lat":37.54872,"lng":-92.40287,"zip":"65470","miles_from_dt":12.66},{"city":"Plato","state_name":"Missouri","lat":37.53842,"lng":-92.16701,"zip":"65552","miles_from_dt":12.8},{"city":"Duke","state_name":"Missouri","lat":37.68406,"lng":-92.02379,"zip":"65461","miles_from_dt":13.91},{"city":"Roby","state_name":"Missouri","lat":37.51778,"lng":-92.14024,"zip":"65557","miles_from_dt":14.76},{"city":"Devils Elbow","state_name":"Missouri","lat":37.82647,"lng":-92.05047,"zip":"65457","miles_from_dt":15.05},{"city":"Lynchburg","state_name":"Missouri","lat":37.47172,"lng":-92.3045,"zip":"65543","miles_from_dt":15.98},{"city":"Beulah","state_name":"Missouri","lat":37.62239,"lng":-91.9726,"zip":"65436","miles_from_dt":17.55},{"city":"Stoutland","state_name":"Missouri","lat":37.85594,"lng":-92.53699,"zip":"65567","miles_from_dt":17.76},{"city":"Crocker","state_name":"Missouri","lat":37.96271,"lng":-92.26702,"zip":"65452","miles_from_dt":17.96},{"city":"Success","state_name":"Missouri","lat":37.45702,"lng":-92.10115,"zip":"65570","miles_from_dt":19.47},{"city":"Lebanon","state_name":"Missouri","lat":37.68942,"lng":-92.64974,"zip":"65536","miles_from_dt":20.47},{"city":"Newburg","state_name":"Missouri","lat":37.84425,"lng":-91.9433,"zip":"65550","miles_from_dt":20.7},{"city":"Jerome","state_name":"Missouri","lat":37.92912,"lng":-91.98926,"zip":"65529","miles_from_dt":22.17},{"city":"Edgar Springs","state_name":"Missouri","lat":37.68654,"lng":-91.86417,"zip":"65462","miles_from_dt":22.63},{"city":"Huggins","state_name":"Missouri","lat":37.36348,"lng":-92.22052,"zip":"65484","miles_from_dt":23.57},{"city":"Grovespring","state_name":"Missouri","lat":37.43421,"lng":-92.5698,"zip":"65662","miles_from_dt":24.52},{"city":"Dixon","state_name":"Missouri","lat":38.02919,"lng":-92.08337,"zip":"65459","miles_from_dt":24.89},{"city":"Bucyrus","state_name":"Missouri","lat":37.37772,"lng":-92.06308,"zip":"65444","miles_from_dt":25.27},{"city":"Licking","state_name":"Missouri","lat":37.50497,"lng":-91.88432,"zip":"65542","miles_from_dt":25.47},{"city":"Montreal","state_name":"Missouri","lat":37.97941,"lng":-92.59076,"zip":"65591","miles_from_dt":25.7},{"city":"Graff","state_name":"Missouri","lat":37.32624,"lng":-92.26998,"zip":"65660","miles_from_dt":25.94},{"city":"Iberia","state_name":"Missouri","lat":38.10007,"lng":-92.3107,"zip":"65486","miles_from_dt":27.49},{"city":"Lenox","state_name":"Missouri","lat":37.64401,"lng":-91.75624,"zip":"65541","miles_from_dt":28.81},{"city":"Eldridge","state_name":"Missouri","lat":37.84536,"lng":-92.7811,"zip":"65463","miles_from_dt":29.33},{"city":"Brumley","state_name":"Missouri","lat":38.09185,"lng":-92.49548,"zip":"65017","miles_from_dt":29.41},{"city":"Phillipsburg","state_name":"Missouri","lat":37.58694,"lng":-92.79967,"zip":"65722","miles_from_dt":29.77}],"targetCityZipCode":"65534","targetCityState":"Missouri"},"__N_SSG":true}