{"pageProps":{"stateName":"Missouri","cityName":"liberal","nearbyCities":[{"city":"Mindenmines","state_name":"Missouri","lat":37.48028,"lng":-94.56688,"zip":"64769","miles_from_dt":5.79},{"city":"Mulberry","state_name":"Kansas","lat":37.53928,"lng":-94.64869,"zip":"66756","miles_from_dt":8.08},{"city":"Bronaugh","state_name":"Missouri","lat":37.70217,"lng":-94.5174,"zip":"64728","miles_from_dt":10.79},{"city":"Franklin","state_name":"Kansas","lat":37.52091,"lng":-94.71313,"zip":"66735","miles_from_dt":11.74},{"city":"Arma","state_name":"Kansas","lat":37.5636,"lng":-94.71657,"zip":"66712","miles_from_dt":11.85},{"city":"Frontenac","state_name":"Kansas","lat":37.46063,"lng":-94.6965,"zip":"66763","miles_from_dt":12.22},{"city":"Arcadia","state_name":"Kansas","lat":37.63974,"lng":-94.691,"zip":"66711","miles_from_dt":12.22},{"city":"Lamar","state_name":"Missouri","lat":37.52655,"lng":-94.26775,"zip":"64759","miles_from_dt":12.92},{"city":"Asbury","state_name":"Missouri","lat":37.33951,"lng":-94.57264,"zip":"64832","miles_from_dt":14.78},{"city":"Garland","state_name":"Kansas","lat":37.71745,"lng":-94.66467,"zip":"66741","miles_from_dt":14.81},{"city":"Opolis","state_name":"Kansas","lat":37.34487,"lng":-94.6245,"zip":"66760","miles_from_dt":15.44},{"city":"Pittsburg","state_name":"Kansas","lat":37.39443,"lng":-94.71092,"zip":"66762","miles_from_dt":15.55},{"city":"Moundville","state_name":"Missouri","lat":37.77091,"lng":-94.45967,"zip":"64771","miles_from_dt":15.66},{"city":"Sheldon","state_name":"Missouri","lat":37.66624,"lng":-94.23131,"zip":"64784","miles_from_dt":16.99},{"city":"Oronogo","state_name":"Missouri","lat":37.29548,"lng":-94.48637,"zip":"64855","miles_from_dt":17.32},{"city":"Jasper","state_name":"Missouri","lat":37.33685,"lng":-94.31112,"zip":"64755","miles_from_dt":17.85},{"city":"Farlington","state_name":"Kansas","lat":37.61534,"lng":-94.82172,"zip":"66734","miles_from_dt":18.2},{"city":"Deerfield","state_name":"Missouri","lat":37.81671,"lng":-94.5629,"zip":"64741","miles_from_dt":18.95},{"city":"Milford","state_name":"Missouri","lat":37.58617,"lng":-94.15551,"zip":"64766","miles_from_dt":19.21},{"city":"Neck City","state_name":"Missouri","lat":37.2544,"lng":-94.44529,"zip":"64849","miles_from_dt":20.37},{"city":"Purcell","state_name":"Missouri","lat":37.24587,"lng":-94.43861,"zip":"64857","miles_from_dt":21.01},{"city":"Girard","state_name":"Kansas","lat":37.50551,"lng":-94.88786,"zip":"66743","miles_from_dt":21.39},{"city":"Nevada","state_name":"Missouri","lat":37.82712,"lng":-94.33355,"zip":"64772","miles_from_dt":21.45},{"city":"Weir","state_name":"Kansas","lat":37.29114,"lng":-94.72806,"zip":"66781","miles_from_dt":21.55},{"city":"Milo","state_name":"Missouri","lat":37.7499,"lng":-94.1997,"zip":"64767","miles_from_dt":21.72},{"city":"Alba","state_name":"Missouri","lat":37.2308,"lng":-94.41053,"zip":"64830","miles_from_dt":22.33},{"city":"Fort Scott","state_name":"Kansas","lat":37.82862,"lng":-94.75999,"zip":"66701","miles_from_dt":24.07},{"city":"Cherokee","state_name":"Kansas","lat":37.34891,"lng":-94.86333,"zip":"66724","miles_from_dt":24.09},{"city":"Webb City","state_name":"Missouri","lat":37.18474,"lng":-94.48136,"zip":"64870","miles_from_dt":24.96},{"city":"Carl Junction","state_name":"Missouri","lat":37.18714,"lng":-94.56865,"zip":"64834","miles_from_dt":25.04},{"city":"Golden City","state_name":"Missouri","lat":37.36497,"lng":-94.10017,"zip":"64748","miles_from_dt":25.37},{"city":"Scammon","state_name":"Kansas","lat":37.26599,"lng":-94.81262,"zip":"66773","miles_from_dt":25.81},{"city":"Richards","state_name":"Missouri","lat":37.92283,"lng":-94.4841,"zip":"64778","miles_from_dt":25.99},{"city":"Hepler","state_name":"Kansas","lat":37.6708,"lng":-94.95317,"zip":"66746","miles_from_dt":26.21},{"city":"Jerico Springs","state_name":"Missouri","lat":37.61931,"lng":-94.01462,"zip":"64756","miles_from_dt":27.21},{"city":"Carthage","state_name":"Missouri","lat":37.18886,"lng":-94.28898,"zip":"64836","miles_from_dt":27.29},{"city":"Carterville","state_name":"Missouri","lat":37.14749,"lng":-94.43824,"zip":"64835","miles_from_dt":27.72},{"city":"Crestline","state_name":"Kansas","lat":37.15841,"lng":-94.66997,"zip":"66728","miles_from_dt":28.31},{"city":"West Mineral","state_name":"Kansas","lat":37.28493,"lng":-94.92609,"zip":"66782","miles_from_dt":29.49}],"targetCityZipCode":"64762","targetCityState":"Missouri"},"__N_SSG":true}