{"pageProps":{"stateName":"Missouri","cityName":"novelty","nearbyCities":[{"city":"Leonard","state_name":"Missouri","lat":39.91135,"lng":-92.19728,"zip":"63451","miles_from_dt":6.32},{"city":"Newark","state_name":"Missouri","lat":39.98751,"lng":-92.01745,"zip":"63458","miles_from_dt":10.27},{"city":"Edina","state_name":"Missouri","lat":40.14776,"lng":-92.16172,"zip":"63537","miles_from_dt":10.35},{"city":"Hurdland","state_name":"Missouri","lat":40.13492,"lng":-92.30651,"zip":"63547","miles_from_dt":10.48},{"city":"Gibbs","state_name":"Missouri","lat":40.09782,"lng":-92.40792,"zip":"63540","miles_from_dt":12.39},{"city":"Atlanta","state_name":"Missouri","lat":39.90732,"lng":-92.45037,"zip":"63530","miles_from_dt":14.35},{"city":"Knox City","state_name":"Missouri","lat":40.13972,"lng":-92.0055,"zip":"63446","miles_from_dt":14.4},{"city":"Shelbyville","state_name":"Missouri","lat":39.8323,"lng":-92.04401,"zip":"63469","miles_from_dt":14.68},{"city":"La Plata","state_name":"Missouri","lat":40.0167,"lng":-92.49172,"zip":"63549","miles_from_dt":14.98},{"city":"Bethel","state_name":"Missouri","lat":39.90591,"lng":-91.9507,"zip":"63434","miles_from_dt":15.29},{"city":"Brashear","state_name":"Missouri","lat":40.20471,"lng":-92.39608,"zip":"63533","miles_from_dt":17.09},{"city":"La Belle","state_name":"Missouri","lat":40.09251,"lng":-91.90494,"zip":"63447","miles_from_dt":17.33},{"city":"Anabel","state_name":"Missouri","lat":39.74887,"lng":-92.32893,"zip":"63431","miles_from_dt":18.6},{"city":"Clarence","state_name":"Missouri","lat":39.72576,"lng":-92.23679,"zip":"63437","miles_from_dt":19.14},{"city":"Baring","state_name":"Missouri","lat":40.30002,"lng":-92.25248,"zip":"63531","miles_from_dt":20.66},{"city":"Macon","state_name":"Missouri","lat":39.75349,"lng":-92.45075,"zip":"63552","miles_from_dt":21.41},{"city":"Rutledge","state_name":"Missouri","lat":40.30387,"lng":-92.07439,"zip":"63563","miles_from_dt":22.01},{"city":"Emden","state_name":"Missouri","lat":39.80382,"lng":-91.85963,"zip":"63439","miles_from_dt":23.11},{"city":"Kirksville","state_name":"Missouri","lat":40.16745,"lng":-92.59078,"zip":"63501","miles_from_dt":23.17},{"city":"Lentner","state_name":"Missouri","lat":39.66808,"lng":-92.14857,"zip":"63450","miles_from_dt":23.29},{"city":"Lewistown","state_name":"Missouri","lat":40.09316,"lng":-91.78551,"zip":"63452","miles_from_dt":23.36},{"city":"Ewing","state_name":"Missouri","lat":39.97551,"lng":-91.75376,"zip":"63440","miles_from_dt":24.28},{"city":"Shelbina","state_name":"Missouri","lat":39.67857,"lng":-92.01267,"zip":"63468","miles_from_dt":24.68},{"city":"Elmer","state_name":"Missouri","lat":39.9526,"lng":-92.67327,"zip":"63538","miles_from_dt":24.83},{"city":"Bevier","state_name":"Missouri","lat":39.7677,"lng":-92.57434,"zip":"63532","miles_from_dt":25.24},{"city":"Philadelphia","state_name":"Missouri","lat":39.84533,"lng":-91.75976,"zip":"63463","miles_from_dt":26.26},{"city":"Gorin","state_name":"Missouri","lat":40.35765,"lng":-92.00976,"zip":"63543","miles_from_dt":26.71},{"city":"Greentop","state_name":"Missouri","lat":40.33129,"lng":-92.50882,"zip":"63546","miles_from_dt":27.66},{"city":"Durham","state_name":"Missouri","lat":39.96084,"lng":-91.68828,"zip":"63438","miles_from_dt":27.84},{"city":"Williamstown","state_name":"Missouri","lat":40.25263,"lng":-91.77803,"zip":"63473","miles_from_dt":28.66},{"city":"Excello","state_name":"Missouri","lat":39.63502,"lng":-92.47296,"zip":"65247","miles_from_dt":28.95},{"city":"Wyaconda","state_name":"Missouri","lat":40.3473,"lng":-91.89674,"zip":"63474","miles_from_dt":29.01},{"city":"Monticello","state_name":"Missouri","lat":40.17272,"lng":-91.70115,"zip":"63457","miles_from_dt":29.42},{"city":"Callao","state_name":"Missouri","lat":39.74061,"lng":-92.64838,"zip":"63534","miles_from_dt":29.48},{"city":"Hunnewell","state_name":"Missouri","lat":39.66222,"lng":-91.86697,"zip":"63443","miles_from_dt":29.73}],"targetCityZipCode":"63460","targetCityState":"Missouri"},"__N_SSG":true}