{"pageProps":{"stateName":"Missouri","cityName":"qulin","nearbyCities":[{"city":"Pollard","state_name":"Arkansas","lat":36.45362,"lng":-90.32217,"zip":"72456","miles_from_dt":8.35},{"city":"Broseley","state_name":"Missouri","lat":36.6879,"lng":-90.24533,"zip":"63932","miles_from_dt":8.4},{"city":"Campbell","state_name":"Missouri","lat":36.52102,"lng":-90.10876,"zip":"63933","miles_from_dt":9.81},{"city":"Saint Francis","state_name":"Arkansas","lat":36.45405,"lng":-90.1434,"zip":"72464","miles_from_dt":10.76},{"city":"Neelyville","state_name":"Missouri","lat":36.56365,"lng":-90.47337,"zip":"63954","miles_from_dt":11.04},{"city":"McDougal","state_name":"Arkansas","lat":36.4355,"lng":-90.38944,"zip":"72441","miles_from_dt":11.17},{"city":"Piggott","state_name":"Arkansas","lat":36.40083,"lng":-90.20623,"zip":"72454","miles_from_dt":12.18},{"city":"Fisk","state_name":"Missouri","lat":36.77218,"lng":-90.22892,"zip":"63940","miles_from_dt":14.28},{"city":"Poplar Bluff","state_name":"Missouri","lat":36.7556,"lng":-90.3952,"zip":"63902","miles_from_dt":14.53},{"city":"Gibson","state_name":"Missouri","lat":36.44271,"lng":-90.03474,"zip":"63847","miles_from_dt":15.94},{"city":"Harviell","state_name":"Missouri","lat":36.6381,"lng":-90.5524,"zip":"63945","miles_from_dt":16.16},{"city":"Bernie","state_name":"Missouri","lat":36.65904,"lng":-90.00103,"zip":"63822","miles_from_dt":16.45},{"city":"Malden","state_name":"Missouri","lat":36.56282,"lng":-89.97671,"zip":"63863","miles_from_dt":16.59},{"city":"Greenway","state_name":"Arkansas","lat":36.336,"lng":-90.17366,"zip":"72430","miles_from_dt":16.99},{"city":"Poplar Bluff","state_name":"Missouri","lat":36.77168,"lng":-90.45012,"zip":"63901","miles_from_dt":17.06},{"city":"Corning","state_name":"Arkansas","lat":36.41893,"lng":-90.54385,"zip":"72422","miles_from_dt":18.18},{"city":"Dudley","state_name":"Missouri","lat":36.80731,"lng":-90.12979,"zip":"63936","miles_from_dt":18.33},{"city":"Clarkton","state_name":"Missouri","lat":36.44907,"lng":-89.98023,"zip":"63837","miles_from_dt":18.35},{"city":"Rombauer","state_name":"Missouri","lat":36.84406,"lng":-90.28149,"zip":"63962","miles_from_dt":19.01},{"city":"Naylor","state_name":"Missouri","lat":36.59134,"lng":-90.62995,"zip":"63953","miles_from_dt":19.81},{"city":"Holcomb","state_name":"Missouri","lat":36.36748,"lng":-90.01435,"zip":"63852","miles_from_dt":20.07},{"city":"Rector","state_name":"Arkansas","lat":36.26679,"lng":-90.28254,"zip":"72461","miles_from_dt":20.81},{"city":"Dexter","state_name":"Missouri","lat":36.77198,"lng":-89.98169,"zip":"63841","miles_from_dt":21.5},{"city":"Whiteoak","state_name":"Missouri","lat":36.32986,"lng":-90.02585,"zip":"63880","miles_from_dt":21.52},{"city":"Oxly","state_name":"Missouri","lat":36.60211,"lng":-90.67864,"zip":"63955","miles_from_dt":22.57},{"city":"Knobel","state_name":"Arkansas","lat":36.31177,"lng":-90.54593,"zip":"72435","miles_from_dt":23.27},{"city":"Gideon","state_name":"Missouri","lat":36.44053,"lng":-89.88219,"zip":"63848","miles_from_dt":23.57},{"city":"Fairdealing","state_name":"Missouri","lat":36.68456,"lng":-90.68253,"zip":"63939","miles_from_dt":24.03},{"city":"Parma","state_name":"Missouri","lat":36.61942,"lng":-89.84471,"zip":"63870","miles_from_dt":24.18},{"city":"Success","state_name":"Arkansas","lat":36.4668,"lng":-90.70309,"zip":"72470","miles_from_dt":24.84},{"city":"Risco","state_name":"Missouri","lat":36.55566,"lng":-89.81645,"zip":"63874","miles_from_dt":25.52},{"city":"Tallapoosa","state_name":"Missouri","lat":36.50302,"lng":-89.82234,"zip":"63878","miles_from_dt":25.58},{"city":"Lafe","state_name":"Arkansas","lat":36.23574,"lng":-90.48281,"zip":"72436","miles_from_dt":25.7},{"city":"Kennett","state_name":"Missouri","lat":36.22402,"lng":-90.04612,"zip":"63857","miles_from_dt":26.96},{"city":"Wappapello","state_name":"Missouri","lat":36.96956,"lng":-90.26216,"zip":"63966","miles_from_dt":27.67},{"city":"Marmaduke","state_name":"Arkansas","lat":36.1812,"lng":-90.41037,"zip":"72443","miles_from_dt":27.75},{"city":"Datto","state_name":"Arkansas","lat":36.39185,"lng":-90.72874,"zip":"72424","miles_from_dt":28.05},{"city":"Puxico","state_name":"Missouri","lat":36.96074,"lng":-90.12434,"zip":"63960","miles_from_dt":28.31},{"city":"Williamsville","state_name":"Missouri","lat":36.94867,"lng":-90.47721,"zip":"63967","miles_from_dt":28.52},{"city":"Peach Orchard","state_name":"Arkansas","lat":36.30909,"lng":-90.67887,"zip":"72453","miles_from_dt":28.75},{"city":"Wardell","state_name":"Missouri","lat":36.35752,"lng":-89.80945,"zip":"63879","miles_from_dt":29.73},{"city":"Reyno","state_name":"Arkansas","lat":36.38243,"lng":-90.75916,"zip":"72462","miles_from_dt":29.86}],"targetCityZipCode":"63961","targetCityState":"Missouri"},"__N_SSG":true}