{"pageProps":{"stateName":"Missouri","cityName":"ridgeway","nearbyCities":[{"city":"Bethany","state_name":"Missouri","lat":40.26453,"lng":-94.03242,"zip":"64424","miles_from_dt":9.6},{"city":"Cainsville","state_name":"Missouri","lat":40.46915,"lng":-93.76862,"zip":"64632","miles_from_dt":10.28},{"city":"Blythedale","state_name":"Missouri","lat":40.51747,"lng":-93.86158,"zip":"64426","miles_from_dt":11.27},{"city":"Eagleville","state_name":"Missouri","lat":40.49935,"lng":-94.00645,"zip":"64442","miles_from_dt":11.47},{"city":"Gilman City","state_name":"Missouri","lat":40.16979,"lng":-93.83574,"zip":"64642","miles_from_dt":13.25},{"city":"Martinsville","state_name":"Missouri","lat":40.39772,"lng":-94.16236,"zip":"64467","miles_from_dt":14.36},{"city":"Princeton","state_name":"Missouri","lat":40.38001,"lng":-93.59094,"zip":"64673","miles_from_dt":16.17},{"city":"New Hampton","state_name":"Missouri","lat":40.26548,"lng":-94.1936,"zip":"64471","miles_from_dt":16.93},{"city":"Coffey","state_name":"Missouri","lat":40.11989,"lng":-93.98769,"zip":"64636","miles_from_dt":17.02},{"city":"Hatfield","state_name":"Missouri","lat":40.52246,"lng":-94.14491,"zip":"64458","miles_from_dt":17.44},{"city":"Davis City","state_name":"Iowa","lat":40.60859,"lng":-93.78089,"zip":"50065","miles_from_dt":18.43},{"city":"Spickard","state_name":"Missouri","lat":40.23246,"lng":-93.58181,"zip":"64679","miles_from_dt":18.65},{"city":"Denver","state_name":"Missouri","lat":40.39883,"lng":-94.2642,"zip":"64441","miles_from_dt":19.67},{"city":"Lamoni","state_name":"Iowa","lat":40.63753,"lng":-93.99198,"zip":"50140","miles_from_dt":20.06},{"city":"Allendale","state_name":"Missouri","lat":40.48645,"lng":-94.2892,"zip":"64420","miles_from_dt":22.61},{"city":"McFall","state_name":"Missouri","lat":40.13269,"lng":-94.21292,"zip":"64657","miles_from_dt":22.79},{"city":"Jameson","state_name":"Missouri","lat":40.03016,"lng":-93.96862,"zip":"64647","miles_from_dt":22.83},{"city":"Mercer","state_name":"Missouri","lat":40.53031,"lng":-93.51901,"zip":"64661","miles_from_dt":23.21},{"city":"Albany","state_name":"Missouri","lat":40.25201,"lng":-94.32276,"zip":"64402","miles_from_dt":23.68},{"city":"Decatur","state_name":"Iowa","lat":40.70452,"lng":-93.85914,"zip":"50067","miles_from_dt":24.11},{"city":"Pattonsburg","state_name":"Missouri","lat":40.04986,"lng":-94.13833,"zip":"64670","miles_from_dt":24.73},{"city":"Trenton","state_name":"Missouri","lat":40.07395,"lng":-93.60346,"zip":"64683","miles_from_dt":24.86},{"city":"Lineville","state_name":"Iowa","lat":40.62381,"lng":-93.54597,"zip":"50147","miles_from_dt":26.08},{"city":"Jamesport","state_name":"Missouri","lat":39.98517,"lng":-93.79922,"zip":"64648","miles_from_dt":26.11},{"city":"Kellerton","state_name":"Iowa","lat":40.71592,"lng":-94.07576,"zip":"50133","miles_from_dt":26.57},{"city":"Leon","state_name":"Iowa","lat":40.73327,"lng":-93.73615,"zip":"50144","miles_from_dt":27.34},{"city":"Worth","state_name":"Missouri","lat":40.39707,"lng":-94.41521,"zip":"64499","miles_from_dt":27.56},{"city":"Grant City","state_name":"Missouri","lat":40.49433,"lng":-94.38733,"zip":"64456","miles_from_dt":27.62},{"city":"Mount Ayr","state_name":"Iowa","lat":40.69089,"lng":-94.21977,"zip":"50854","miles_from_dt":28.71},{"city":"Galt","state_name":"Missouri","lat":40.16221,"lng":-93.3992,"zip":"64641","miles_from_dt":29.46},{"city":"Newtown","state_name":"Missouri","lat":40.39434,"lng":-93.33618,"zip":"64667","miles_from_dt":29.64}],"targetCityZipCode":"64481","targetCityState":"Missouri"},"__N_SSG":true}