{"pageProps":{"stateName":"Missouri","cityName":"riverside","nearbyCities":[{"city":"Kansas City","state_name":"Missouri","lat":39.1686,"lng":-94.63192,"zip":"64168","miles_from_dt":0.16},{"city":"Kansas City","state_name":"Kansas","lat":39.14402,"lng":-94.61104,"zip":"66115","miles_from_dt":2.1},{"city":"Kansas City","state_name":"Missouri","lat":39.18858,"lng":-94.68211,"zip":"64190","miles_from_dt":3.05},{"city":"Kansas City","state_name":"Missouri","lat":39.21494,"lng":-94.63115,"zip":"64151","miles_from_dt":3.06},{"city":"Kansas City","state_name":"Missouri","lat":39.14875,"lng":-94.57444,"zip":"64116","miles_from_dt":3.35},{"city":"Kansas City","state_name":"Kansas","lat":39.15043,"lng":-94.68861,"zip":"66104","miles_from_dt":3.42},{"city":"Kansas City","state_name":"Kansas","lat":39.11871,"lng":-94.62592,"zip":"66101","miles_from_dt":3.58},{"city":"Kansas City","state_name":"Missouri","lat":39.14348,"lng":-94.57159,"zip":"64144","miles_from_dt":3.66},{"city":"Kansas City","state_name":"Kansas","lat":39.1164,"lng":-94.6243,"zip":"66117","miles_from_dt":3.75},{"city":"Kansas City","state_name":"Missouri","lat":39.21301,"lng":-94.57497,"zip":"64118","miles_from_dt":4.17},{"city":"Kansas City","state_name":"Missouri","lat":39.1073,"lng":-94.59246,"zip":"64184","miles_from_dt":4.81},{"city":"Kansas City","state_name":"Missouri","lat":39.10355,"lng":-94.60051,"zip":"64101","miles_from_dt":4.89},{"city":"Kansas City","state_name":"Missouri","lat":39.10599,"lng":-94.58985,"zip":"64105","miles_from_dt":4.95},{"city":"Kansas City","state_name":"Kansas","lat":39.09946,"lng":-94.61348,"zip":"66118","miles_from_dt":4.98},{"city":"Kansas City","state_name":"Kansas","lat":39.11246,"lng":-94.68842,"zip":"66102","miles_from_dt":5.08},{"city":"Kansas City","state_name":"Missouri","lat":39.12322,"lng":-94.55505,"zip":"64179","miles_from_dt":5.19},{"city":"Kansas City","state_name":"Missouri","lat":39.1041,"lng":-94.58383,"zip":"64199","miles_from_dt":5.22},{"city":"Kansas City","state_name":"Kansas","lat":39.11323,"lng":-94.69498,"zip":"66110","miles_from_dt":5.26},{"city":"Kansas City","state_name":"Missouri","lat":39.10183,"lng":-94.58228,"zip":"64198","miles_from_dt":5.4},{"city":"Kansas City","state_name":"Missouri","lat":39.10127,"lng":-94.58236,"zip":"64180","miles_from_dt":5.43},{"city":"Kansas City","state_name":"Missouri","lat":39.09433,"lng":-94.60329,"zip":"64102","miles_from_dt":5.45},{"city":"Kansas City","state_name":"Missouri","lat":39.10526,"lng":-94.57013,"zip":"64106","miles_from_dt":5.54},{"city":"Kansas City","state_name":"Missouri","lat":39.09892,"lng":-94.58337,"zip":"64196","miles_from_dt":5.55},{"city":"Kansas City","state_name":"Missouri","lat":39.10077,"lng":-94.57899,"zip":"64121","miles_from_dt":5.55},{"city":"Kansas City","state_name":"Missouri","lat":39.09972,"lng":-94.57833,"zip":"64188","miles_from_dt":5.63},{"city":"Kansas City","state_name":"Missouri","lat":39.09948,"lng":-94.57794,"zip":"64187","miles_from_dt":5.65},{"city":"Kansas City","state_name":"Missouri","lat":39.21278,"lng":-94.72271,"zip":"64152","miles_from_dt":5.75},{"city":"Kansas City","state_name":"Missouri","lat":39.16522,"lng":-94.52251,"zip":"64117","miles_from_dt":5.8},{"city":"Kansas City","state_name":"Kansas","lat":39.08593,"lng":-94.63646,"zip":"66105","miles_from_dt":5.84},{"city":"Kansas City","state_name":"Kansas","lat":39.08372,"lng":-94.63903,"zip":"66119","miles_from_dt":6.01},{"city":"Kansas City","state_name":"Missouri","lat":39.08763,"lng":-94.58471,"zip":"64191","miles_from_dt":6.22},{"city":"Kansas City","state_name":"Missouri","lat":39.08865,"lng":-94.58129,"zip":"64148","miles_from_dt":6.23},{"city":"Kansas City","state_name":"Missouri","lat":39.08559,"lng":-94.58524,"zip":"64141","miles_from_dt":6.34},{"city":"Kansas City","state_name":"Missouri","lat":39.08413,"lng":-94.58449,"zip":"64108","miles_from_dt":6.45},{"city":"Kansas City","state_name":"Missouri","lat":39.10718,"lng":-94.5391,"zip":"64124","miles_from_dt":6.56},{"city":"Kansas City","state_name":"Missouri","lat":39.21137,"lng":-94.5186,"zip":"64119","miles_from_dt":6.63},{"city":"Kansas City","state_name":"Missouri","lat":39.13142,"lng":-94.51489,"zip":"64120","miles_from_dt":6.76},{"city":"Kansas City","state_name":"Missouri","lat":39.11436,"lng":-94.52167,"zip":"64123","miles_from_dt":7},{"city":"Kansas City","state_name":"Missouri","lat":39.27653,"lng":-94.62967,"zip":"64154","miles_from_dt":7.31},{"city":"Kansas City","state_name":"Missouri","lat":39.08912,"lng":-94.53837,"zip":"64127","miles_from_dt":7.48},{"city":"Kansas City","state_name":"Kansas","lat":39.06045,"lng":-94.62707,"zip":"66103","miles_from_dt":7.59},{"city":"Kansas City","state_name":"Missouri","lat":39.06646,"lng":-94.56709,"zip":"64109","miles_from_dt":7.94},{"city":"Kansas City","state_name":"Kansas","lat":39.05576,"lng":-94.60963,"zip":"66160","miles_from_dt":7.99},{"city":"Kansas City","state_name":"Missouri","lat":39.15597,"lng":-94.48187,"zip":"64162","miles_from_dt":8.03},{"city":"Kansas City","state_name":"Missouri","lat":39.05707,"lng":-94.59393,"zip":"64111","miles_from_dt":8.07},{"city":"Kansas City","state_name":"Kansas","lat":39.06631,"lng":-94.70384,"zip":"66106","miles_from_dt":8.2},{"city":"Kansas City","state_name":"Missouri","lat":39.28031,"lng":-94.56801,"zip":"64155","miles_from_dt":8.28},{"city":"Kansas City","state_name":"Kansas","lat":39.11494,"lng":-94.7701,"zip":"66112","miles_from_dt":8.43},{"city":"Kansas City","state_name":"Missouri","lat":39.05094,"lng":-94.5881,"zip":"64171","miles_from_dt":8.56},{"city":"Kansas City","state_name":"Missouri","lat":39.1065,"lng":-94.49388,"zip":"64125","miles_from_dt":8.56},{"city":"Kansas City","state_name":"Missouri","lat":39.06555,"lng":-94.53484,"zip":"64128","miles_from_dt":8.87},{"city":"Kansas City","state_name":"Missouri","lat":39.09095,"lng":-94.49581,"zip":"64126","miles_from_dt":9.07},{"city":"Kansas City","state_name":"Missouri","lat":39.23493,"lng":-94.47839,"zip":"64158","miles_from_dt":9.29},{"city":"Kansas City","state_name":"Missouri","lat":39.27999,"lng":-94.73148,"zip":"64153","miles_from_dt":9.3},{"city":"Kansas City","state_name":"Missouri","lat":39.2762,"lng":-94.5195,"zip":"64156","miles_from_dt":9.41},{"city":"Kansas City","state_name":"Missouri","lat":39.03599,"lng":-94.59529,"zip":"64112","miles_from_dt":9.47},{"city":"Mission","state_name":"Kansas","lat":39.03122,"lng":-94.6307,"zip":"66205","miles_from_dt":9.61},{"city":"Kansas City","state_name":"Missouri","lat":39.16184,"lng":-94.44943,"zip":"64161","miles_from_dt":9.73},{"city":"Independence","state_name":"Missouri","lat":39.10791,"lng":-94.46735,"zip":"64053","miles_from_dt":9.76},{"city":"Kansas City","state_name":"Missouri","lat":39.03445,"lng":-94.57265,"zip":"64110","miles_from_dt":9.88},{"city":"Mission","state_name":"Kansas","lat":39.02348,"lng":-94.64885,"zip":"66222","miles_from_dt":10.19},{"city":"Waldron","state_name":"Missouri","lat":39.22248,"lng":-94.8088,"zip":"64092","miles_from_dt":10.23},{"city":"Kansas City","state_name":"Missouri","lat":39.30204,"lng":-94.71838,"zip":"64195","miles_from_dt":10.23},{"city":"Mission","state_name":"Kansas","lat":39.02392,"lng":-94.66909,"zip":"66202","miles_from_dt":10.33},{"city":"Kansas City","state_name":"Missouri","lat":39.03345,"lng":-94.54119,"zip":"64130","miles_from_dt":10.6},{"city":"Kansas City","state_name":"Kansas","lat":39.16367,"lng":-94.8283,"zip":"66109","miles_from_dt":10.64},{"city":"Kansas City","state_name":"Kansas","lat":39.08529,"lng":-94.79621,"zip":"66111","miles_from_dt":10.68},{"city":"Kansas City","state_name":"Missouri","lat":39.32081,"lng":-94.57749,"zip":"64165","miles_from_dt":10.75},{"city":"Lenexa","state_name":"Kansas","lat":39.01685,"lng":-94.66328,"zip":"66285","miles_from_dt":10.75},{"city":"Independence","state_name":"Missouri","lat":39.11627,"lng":-94.44003,"zip":"64054","miles_from_dt":10.88},{"city":"Kansas City","state_name":"Missouri","lat":39.01414,"lng":-94.5956,"zip":"64113","miles_from_dt":10.95},{"city":"Kansas City","state_name":"Missouri","lat":39.32988,"lng":-94.63113,"zip":"64164","miles_from_dt":10.99},{"city":"Kansas City","state_name":"Missouri","lat":39.04935,"lng":-94.49682,"zip":"64129","miles_from_dt":11.01},{"city":"Shawnee","state_name":"Kansas","lat":39.0216,"lng":-94.70558,"zip":"66203","miles_from_dt":11.04},{"city":"Kansas City","state_name":"Missouri","lat":39.27657,"lng":-94.47103,"zip":"64157","miles_from_dt":11.25},{"city":"Independence","state_name":"Missouri","lat":39.07355,"lng":-94.45082,"zip":"64052","miles_from_dt":11.74},{"city":"Lenexa","state_name":"Kansas","lat":39.00266,"lng":-94.67,"zip":"66276","miles_from_dt":11.77},{"city":"Prairie Village","state_name":"Kansas","lat":38.99936,"lng":-94.62998,"zip":"66208","miles_from_dt":11.81},{"city":"Kansas City","state_name":"Missouri","lat":39.33674,"lng":-94.68922,"zip":"64163","miles_from_dt":11.89},{"city":"Kansas City","state_name":"Missouri","lat":39.32215,"lng":-94.52301,"zip":"64166","miles_from_dt":11.94},{"city":"Shawnee","state_name":"Kansas","lat":39.01405,"lng":-94.74136,"zip":"66216","miles_from_dt":12.33},{"city":"Liberty","state_name":"Missouri","lat":39.24178,"lng":-94.41722,"zip":"64069","miles_from_dt":12.45},{"city":"Overland Park","state_name":"Kansas","lat":38.99282,"lng":-94.67741,"zip":"66204","miles_from_dt":12.52},{"city":"Independence","state_name":"Missouri","lat":39.09371,"lng":-94.41768,"zip":"64051","miles_from_dt":12.59},{"city":"Independence","state_name":"Missouri","lat":39.11424,"lng":-94.40641,"zip":"64050","miles_from_dt":12.64},{"city":"Edwardsville","state_name":"Kansas","lat":39.06108,"lng":-94.81938,"zip":"66113","miles_from_dt":12.66},{"city":"Kansas City","state_name":"Missouri","lat":39.31939,"lng":-94.48187,"zip":"64167","miles_from_dt":12.99},{"city":"Farley","state_name":"Missouri","lat":39.29658,"lng":-94.82153,"zip":"64028","miles_from_dt":13.45},{"city":"Shawnee","state_name":"Kansas","lat":39.01148,"lng":-94.77741,"zip":"66217","miles_from_dt":13.52},{"city":"Kansas City","state_name":"Missouri","lat":38.98551,"lng":-94.5396,"zip":"64132","miles_from_dt":13.66},{"city":"Mission","state_name":"Kansas","lat":38.96903,"lng":-94.67614,"zip":"66201","miles_from_dt":14.12},{"city":"Liberty","state_name":"Missouri","lat":39.25924,"lng":-94.39042,"zip":"64068","miles_from_dt":14.25},{"city":"Kansas City","state_name":"Missouri","lat":39.01406,"lng":-94.45689,"zip":"64133","miles_from_dt":14.26},{"city":"Leawood","state_name":"Kansas","lat":38.95851,"lng":-94.61923,"zip":"66206","miles_from_dt":14.64},{"city":"Kansas City","state_name":"Missouri","lat":38.9581,"lng":-94.59715,"zip":"64114","miles_from_dt":14.76},{"city":"Shawnee","state_name":"Kansas","lat":39.01239,"lng":-94.81647,"zip":"66218","miles_from_dt":14.8},{"city":"Overland Park","state_name":"Kansas","lat":38.95625,"lng":-94.64439,"zip":"66207","miles_from_dt":14.8},{"city":"Independence","state_name":"Missouri","lat":39.05061,"lng":-94.39848,"zip":"64055","miles_from_dt":14.95},{"city":"Overland Park","state_name":"Kansas","lat":38.96356,"lng":-94.71397,"zip":"66214","miles_from_dt":14.97},{"city":"Kansas City","state_name":"Missouri","lat":38.95723,"lng":-94.57449,"zip":"64131","miles_from_dt":15.02},{"city":"Overland Park","state_name":"Kansas","lat":38.9563,"lng":-94.68154,"zip":"66212","miles_from_dt":15.03},{"city":"Kansas City","state_name":"Missouri","lat":38.95687,"lng":-94.57114,"zip":"64197","miles_from_dt":15.08},{"city":"Overland Park","state_name":"Kansas","lat":38.95354,"lng":-94.68828,"zip":"66282","miles_from_dt":15.29},{"city":"Smithville","state_name":"Missouri","lat":39.39007,"lng":-94.56483,"zip":"64089","miles_from_dt":15.55},{"city":"Lansing","state_name":"Kansas","lat":39.24967,"lng":-94.90193,"zip":"66043","miles_from_dt":15.57},{"city":"Kansas City","state_name":"Missouri","lat":38.95348,"lng":-94.54967,"zip":"64999","miles_from_dt":15.59},{"city":"Shawnee","state_name":"Kansas","lat":39.03039,"lng":-94.8603,"zip":"66226","miles_from_dt":15.69},{"city":"Kansas City","state_name":"Missouri","lat":38.95188,"lng":-94.54683,"zip":"64170","miles_from_dt":15.74},{"city":"Platte City","state_name":"Missouri","lat":39.36267,"lng":-94.79351,"zip":"64079","miles_from_dt":15.88},{"city":"Lenexa","state_name":"Kansas","lat":38.95649,"lng":-94.74304,"zip":"66215","miles_from_dt":15.96},{"city":"Kansas City","state_name":"Missouri","lat":38.96852,"lng":-94.47088,"zip":"64138","miles_from_dt":16.36},{"city":"Kansas City","state_name":"Missouri","lat":39.01361,"lng":-94.40181,"zip":"64136","miles_from_dt":16.37},{"city":"Leawood","state_name":"Kansas","lat":38.92422,"lng":-94.6363,"zip":"66211","miles_from_dt":16.99},{"city":"Independence","state_name":"Missouri","lat":39.17805,"lng":-94.31408,"zip":"64058","miles_from_dt":16.99},{"city":"Basehor","state_name":"Kansas","lat":39.1405,"lng":-94.94548,"zip":"66007","miles_from_dt":17.05},{"city":"Lenexa","state_name":"Kansas","lat":38.95507,"lng":-94.78662,"zip":"66250","miles_from_dt":17.08},{"city":"Lenexa","state_name":"Kansas","lat":38.95124,"lng":-94.77807,"zip":"66219","miles_from_dt":17.09},{"city":"Kansas City","state_name":"Missouri","lat":38.93196,"lng":-94.54287,"zip":"64137","miles_from_dt":17.12},{"city":"Bonner Springs","state_name":"Kansas","lat":39.06091,"lng":-94.91658,"zip":"66012","miles_from_dt":17.14},{"city":"Independence","state_name":"Missouri","lat":39.11114,"lng":-94.32008,"zip":"64056","miles_from_dt":17.16},{"city":"Overland Park","state_name":"Kansas","lat":38.92372,"lng":-94.70483,"zip":"66210","miles_from_dt":17.49},{"city":"Overland Park","state_name":"Kansas","lat":38.91712,"lng":-94.65891,"zip":"66251","miles_from_dt":17.55},{"city":"Lenexa","state_name":"Kansas","lat":38.96187,"lng":-94.8218,"zip":"66220","miles_from_dt":17.7},{"city":"Shawnee","state_name":"Kansas","lat":38.99378,"lng":-94.87149,"zip":"66286","miles_from_dt":17.8},{"city":"Independence","state_name":"Missouri","lat":39.0692,"lng":-94.32203,"zip":"64057","miles_from_dt":17.98},{"city":"Missouri City","state_name":"Missouri","lat":39.23286,"lng":-94.30021,"zip":"64072","miles_from_dt":18.23},{"city":"Kansas City","state_name":"Missouri","lat":38.9308,"lng":-94.48667,"zip":"64134","miles_from_dt":18.25},{"city":"Kansas City","state_name":"Missouri","lat":38.96832,"lng":-94.40677,"zip":"64139","miles_from_dt":18.41},{"city":"Leawood","state_name":"Kansas","lat":38.89874,"lng":-94.63778,"zip":"66209","miles_from_dt":18.75},{"city":"Lenexa","state_name":"Kansas","lat":38.97248,"lng":-94.87446,"zip":"66227","miles_from_dt":18.95},{"city":"Overland Park","state_name":"Kansas","lat":38.89885,"lng":-94.70517,"zip":"66213","miles_from_dt":19.17},{"city":"Lees Summit","state_name":"Missouri","lat":38.95146,"lng":-94.40467,"zip":"64065","miles_from_dt":19.38},{"city":"Overland Park","state_name":"Kansas","lat":38.88834,"lng":-94.68613,"zip":"66225","miles_from_dt":19.7},{"city":"Kearney","state_name":"Missouri","lat":39.37134,"lng":-94.36821,"zip":"64060","miles_from_dt":19.73},{"city":"Kansas City","state_name":"Missouri","lat":38.88046,"lng":-94.59652,"zip":"64145","miles_from_dt":20.09},{"city":"Camden Point","state_name":"Missouri","lat":39.45052,"lng":-94.73329,"zip":"64018","miles_from_dt":20.09},{"city":"Lees Summit","state_name":"Missouri","lat":38.98222,"lng":-94.34284,"zip":"64064","miles_from_dt":20.19},{"city":"Kansas City","state_name":"Missouri","lat":38.87888,"lng":-94.57436,"zip":"64146","miles_from_dt":20.34},{"city":"Fort Leavenworth","state_name":"Kansas","lat":39.36454,"lng":-94.91708,"zip":"66027","miles_from_dt":20.39},{"city":"Leavenworth","state_name":"Kansas","lat":39.27891,"lng":-94.98527,"zip":"66048","miles_from_dt":20.46},{"city":"Blue Springs","state_name":"Missouri","lat":39.02099,"lng":-94.3006,"zip":"64015","miles_from_dt":20.51},{"city":"Mosby","state_name":"Missouri","lat":39.31391,"lng":-94.29154,"zip":"64073","miles_from_dt":20.69},{"city":"Grandview","state_name":"Missouri","lat":38.87996,"lng":-94.52312,"zip":"64030","miles_from_dt":20.86},{"city":"Overland Park","state_name":"Kansas","lat":38.86213,"lng":-94.62866,"zip":"66224","miles_from_dt":21.27},{"city":"Overland Park","state_name":"Kansas","lat":38.86176,"lng":-94.66831,"zip":"66223","miles_from_dt":21.4},{"city":"Overland Park","state_name":"Kansas","lat":38.86182,"lng":-94.67086,"zip":"66283","miles_from_dt":21.41},{"city":"Blue Springs","state_name":"Missouri","lat":39.01936,"lng":-94.28247,"zip":"64013","miles_from_dt":21.41},{"city":"Lees Summit","state_name":"Missouri","lat":38.90971,"lng":-94.40953,"zip":"64081","miles_from_dt":21.56},{"city":"Edgerton","state_name":"Missouri","lat":39.48334,"lng":-94.63856,"zip":"64444","miles_from_dt":21.58},{"city":"Trimble","state_name":"Missouri","lat":39.48067,"lng":-94.53363,"zip":"64492","miles_from_dt":22.01},{"city":"Kansas City","state_name":"Missouri","lat":38.85387,"lng":-94.54688,"zip":"64147","miles_from_dt":22.3},{"city":"Lees Summit","state_name":"Missouri","lat":38.9121,"lng":-94.3795,"zip":"64002","miles_from_dt":22.36},{"city":"Olathe","state_name":"Kansas","lat":38.88056,"lng":-94.8175,"zip":"66051","miles_from_dt":22.4},{"city":"Olathe","state_name":"Kansas","lat":38.88007,"lng":-94.81695,"zip":"66063","miles_from_dt":22.41},{"city":"Buckner","state_name":"Missouri","lat":39.11642,"lng":-94.21385,"zip":"64016","miles_from_dt":22.68},{"city":"Overland Park","state_name":"Kansas","lat":38.84786,"lng":-94.71437,"zip":"66221","miles_from_dt":22.71},{"city":"Kansas City","state_name":"Missouri","lat":38.86524,"lng":-94.46666,"zip":"64149","miles_from_dt":22.83},{"city":"Blue Springs","state_name":"Missouri","lat":39.00893,"lng":-94.25533,"zip":"64014","miles_from_dt":23.03},{"city":"De Soto","state_name":"Kansas","lat":38.96524,"lng":-94.97232,"zip":"66018","miles_from_dt":23.21},{"city":"Olathe","state_name":"Kansas","lat":38.89633,"lng":-94.88029,"zip":"66061","miles_from_dt":23.21},{"city":"Lees Summit","state_name":"Missouri","lat":38.91224,"lng":-94.35341,"zip":"64063","miles_from_dt":23.22},{"city":"Holt","state_name":"Missouri","lat":39.44439,"lng":-94.3634,"zip":"64048","miles_from_dt":23.7},{"city":"Sibley","state_name":"Missouri","lat":39.16173,"lng":-94.1848,"zip":"64088","miles_from_dt":23.93},{"city":"Excelsior Springs","state_name":"Missouri","lat":39.32523,"lng":-94.22707,"zip":"64024","miles_from_dt":24.12},{"city":"Lees Summit","state_name":"Missouri","lat":38.86601,"lng":-94.4039,"zip":"64082","miles_from_dt":24.28},{"city":"Weston","state_name":"Missouri","lat":39.45661,"lng":-94.89456,"zip":"64098","miles_from_dt":24.29},{"city":"Tonganoxie","state_name":"Kansas","lat":39.11578,"lng":-95.08043,"zip":"66086","miles_from_dt":24.47},{"city":"Olathe","state_name":"Kansas","lat":38.83677,"lng":-94.78455,"zip":"66062","miles_from_dt":24.47},{"city":"Linwood","state_name":"Kansas","lat":39.00998,"lng":-95.04678,"zip":"66052","miles_from_dt":24.98},{"city":"Grain Valley","state_name":"Missouri","lat":39.00634,"lng":-94.21473,"zip":"64029","miles_from_dt":25.05},{"city":"Dearborn","state_name":"Missouri","lat":39.52371,"lng":-94.74986,"zip":"64439","miles_from_dt":25.19},{"city":"Lees Summit","state_name":"Missouri","lat":38.91181,"lng":-94.29293,"zip":"64086","miles_from_dt":25.45},{"city":"Stilwell","state_name":"Kansas","lat":38.80069,"lng":-94.64729,"zip":"66085","miles_from_dt":25.53},{"city":"Levasy","state_name":"Missouri","lat":39.13961,"lng":-94.13857,"zip":"64066","miles_from_dt":26.5},{"city":"Orrick","state_name":"Missouri","lat":39.2224,"lng":-94.13887,"zip":"64077","miles_from_dt":26.62},{"city":"Belton","state_name":"Missouri","lat":38.78906,"lng":-94.55204,"zip":"64012","miles_from_dt":26.65},{"city":"Raymore","state_name":"Missouri","lat":38.80082,"lng":-94.4483,"zip":"64083","miles_from_dt":27.32},{"city":"New Century","state_name":"Kansas","lat":38.82975,"lng":-94.89142,"zip":"66031","miles_from_dt":27.39},{"city":"Easton","state_name":"Kansas","lat":39.34142,"lng":-95.10779,"zip":"66020","miles_from_dt":28.19},{"city":"Greenwood","state_name":"Missouri","lat":38.85052,"lng":-94.30203,"zip":"64034","miles_from_dt":28.27},{"city":"Oak Grove","state_name":"Missouri","lat":38.99751,"lng":-94.14544,"zip":"64075","miles_from_dt":28.67},{"city":"Gardner","state_name":"Kansas","lat":38.81519,"lng":-94.94114,"zip":"66030","miles_from_dt":29.68},{"city":"Plattsburg","state_name":"Missouri","lat":39.57872,"lng":-94.45289,"zip":"64477","miles_from_dt":29.72}],"targetCityZipCode":"64150","targetCityState":"Missouri"},"__N_SSG":true}