{"pageProps":{"stateName":"Missouri","cityName":"shelbina","nearbyCities":[{"city":"Lentner","state_name":"Missouri","lat":39.66808,"lng":-92.14857,"zip":"63450","miles_from_dt":7.28},{"city":"Hunnewell","state_name":"Missouri","lat":39.66222,"lng":-91.86697,"zip":"63443","miles_from_dt":7.85},{"city":"Shelbyville","state_name":"Missouri","lat":39.8323,"lng":-92.04401,"zip":"63469","miles_from_dt":10.74},{"city":"Emden","state_name":"Missouri","lat":39.80382,"lng":-91.85963,"zip":"63439","miles_from_dt":11.88},{"city":"Clarence","state_name":"Missouri","lat":39.72576,"lng":-92.23679,"zip":"63437","miles_from_dt":12.38},{"city":"Holliday","state_name":"Missouri","lat":39.52339,"lng":-92.13706,"zip":"65258","miles_from_dt":12.6},{"city":"Stoutsville","state_name":"Missouri","lat":39.50811,"lng":-91.83449,"zip":"65283","miles_from_dt":15.12},{"city":"Paris","state_name":"Missouri","lat":39.45935,"lng":-91.99414,"zip":"65275","miles_from_dt":15.16},{"city":"Monroe City","state_name":"Missouri","lat":39.65364,"lng":-91.72693,"zip":"63456","miles_from_dt":15.33},{"city":"Bethel","state_name":"Missouri","lat":39.90591,"lng":-91.9507,"zip":"63434","miles_from_dt":16.03},{"city":"Anabel","state_name":"Missouri","lat":39.74887,"lng":-92.32893,"zip":"63431","miles_from_dt":17.54},{"city":"Philadelphia","state_name":"Missouri","lat":39.84533,"lng":-91.75976,"zip":"63463","miles_from_dt":17.71},{"city":"Leonard","state_name":"Missouri","lat":39.91135,"lng":-92.19728,"zip":"63451","miles_from_dt":18.83},{"city":"Madison","state_name":"Missouri","lat":39.45244,"lng":-92.22062,"zip":"65263","miles_from_dt":19.15},{"city":"Newark","state_name":"Missouri","lat":39.98751,"lng":-92.01745,"zip":"63458","miles_from_dt":21.32},{"city":"Jacksonville","state_name":"Missouri","lat":39.58806,"lng":-92.40227,"zip":"65260","miles_from_dt":21.7},{"city":"Santa Fe","state_name":"Missouri","lat":39.38975,"lng":-91.83302,"zip":"65282","miles_from_dt":22.12},{"city":"Macon","state_name":"Missouri","lat":39.75349,"lng":-92.45075,"zip":"63552","miles_from_dt":23.91},{"city":"Cairo","state_name":"Missouri","lat":39.53312,"lng":-92.42334,"zip":"65239","miles_from_dt":24.1},{"city":"Perry","state_name":"Missouri","lat":39.42279,"lng":-91.69977,"zip":"63462","miles_from_dt":24.3},{"city":"Novelty","state_name":"Missouri","lat":40.00237,"lng":-92.21002,"zip":"63460","miles_from_dt":24.68},{"city":"Ewing","state_name":"Missouri","lat":39.97551,"lng":-91.75376,"zip":"63440","miles_from_dt":24.69},{"city":"Excello","state_name":"Missouri","lat":39.63502,"lng":-92.47296,"zip":"65247","miles_from_dt":24.73},{"city":"Palmyra","state_name":"Missouri","lat":39.79757,"lng":-91.55577,"zip":"63461","miles_from_dt":25.68},{"city":"Maywood","state_name":"Missouri","lat":39.92389,"lng":-91.64897,"zip":"63454","miles_from_dt":25.71},{"city":"Durham","state_name":"Missouri","lat":39.96084,"lng":-91.68828,"zip":"63438","miles_from_dt":26.02},{"city":"Moberly","state_name":"Missouri","lat":39.41552,"lng":-92.39917,"zip":"65270","miles_from_dt":27.49},{"city":"Center","state_name":"Missouri","lat":39.50093,"lng":-91.54524,"zip":"63436","miles_from_dt":27.8},{"city":"Atlanta","state_name":"Missouri","lat":39.90732,"lng":-92.45037,"zip":"63530","miles_from_dt":28.14},{"city":"La Belle","state_name":"Missouri","lat":40.09251,"lng":-91.90494,"zip":"63447","miles_from_dt":29.13},{"city":"Hannibal","state_name":"Missouri","lat":39.69046,"lng":-91.45986,"zip":"63401","miles_from_dt":29.48}],"targetCityZipCode":"63468","targetCityState":"Missouri"},"__N_SSG":true}