{"pageProps":{"stateName":"Missouri","cityName":"stanton","nearbyCities":[{"city":"Sullivan","state_name":"Missouri","lat":38.20828,"lng":-91.08802,"zip":"63080","miles_from_dt":4.06},{"city":"Saint Clair","state_name":"Missouri","lat":38.32648,"lng":-90.98537,"zip":"63077","miles_from_dt":7.49},{"city":"Leslie","state_name":"Missouri","lat":38.38964,"lng":-91.22072,"zip":"63056","miles_from_dt":10.74},{"city":"Beaufort","state_name":"Missouri","lat":38.41776,"lng":-91.15182,"zip":"63013","miles_from_dt":10.82},{"city":"Union","state_name":"Missouri","lat":38.41749,"lng":-91.01438,"zip":"63084","miles_from_dt":11.42},{"city":"Bourbon","state_name":"Missouri","lat":38.09394,"lng":-91.15842,"zip":"65441","miles_from_dt":12.31},{"city":"Lonedell","state_name":"Missouri","lat":38.25656,"lng":-90.86815,"zip":"63060","miles_from_dt":12.63},{"city":"Luebbering","state_name":"Missouri","lat":38.2679,"lng":-90.81053,"zip":"63061","miles_from_dt":15.75},{"city":"Gerald","state_name":"Missouri","lat":38.42497,"lng":-91.3165,"zip":"63037","miles_from_dt":16.06},{"city":"Leasburg","state_name":"Missouri","lat":38.07194,"lng":-91.2752,"zip":"65535","miles_from_dt":16.45},{"city":"Richwoods","state_name":"Missouri","lat":38.15635,"lng":-90.82558,"zip":"63071","miles_from_dt":16.75},{"city":"Grubville","state_name":"Missouri","lat":38.2522,"lng":-90.79059,"zip":"63041","miles_from_dt":16.86},{"city":"Robertsville","state_name":"Missouri","lat":38.36635,"lng":-90.81354,"zip":"63072","miles_from_dt":17.03},{"city":"Rosebud","state_name":"Missouri","lat":38.36581,"lng":-91.39013,"zip":"63091","miles_from_dt":17.19},{"city":"Villa Ridge","state_name":"Missouri","lat":38.45846,"lng":-90.88286,"zip":"63089","miles_from_dt":17.74},{"city":"Washington","state_name":"Missouri","lat":38.53176,"lng":-91.05047,"zip":"63090","miles_from_dt":18.51},{"city":"Fletcher","state_name":"Missouri","lat":38.14321,"lng":-90.7522,"zip":"63030","miles_from_dt":20.75},{"city":"Cuba","state_name":"Missouri","lat":38.10706,"lng":-91.42509,"zip":"65453","miles_from_dt":20.82},{"city":"Catawissa","state_name":"Missouri","lat":38.39633,"lng":-90.75274,"zip":"63015","miles_from_dt":20.89},{"city":"Dittmer","state_name":"Missouri","lat":38.2659,"lng":-90.71292,"zip":"63023","miles_from_dt":21.05},{"city":"Gray Summit","state_name":"Missouri","lat":38.49532,"lng":-90.83527,"zip":"63039","miles_from_dt":21.36},{"city":"New Haven","state_name":"Missouri","lat":38.55747,"lng":-91.24761,"zip":"63068","miles_from_dt":21.62},{"city":"Owensville","state_name":"Missouri","lat":38.3454,"lng":-91.48898,"zip":"65066","miles_from_dt":21.83},{"city":"Labadie","state_name":"Missouri","lat":38.53254,"lng":-90.8382,"zip":"63055","miles_from_dt":23.22},{"city":"Dutzow","state_name":"Missouri","lat":38.59481,"lng":-91.00131,"zip":"63342","miles_from_dt":23.28},{"city":"Morse Mill","state_name":"Missouri","lat":38.27805,"lng":-90.65307,"zip":"63066","miles_from_dt":24.32},{"city":"Blackwell","state_name":"Missouri","lat":38.07721,"lng":-90.71471,"zip":"63626","miles_from_dt":24.71},{"city":"Pacific","state_name":"Missouri","lat":38.48286,"lng":-90.7292,"zip":"63069","miles_from_dt":25.07},{"city":"Cedar Hill","state_name":"Missouri","lat":38.35692,"lng":-90.65014,"zip":"63016","miles_from_dt":25.24},{"city":"Augusta","state_name":"Missouri","lat":38.60137,"lng":-90.89195,"zip":"63332","miles_from_dt":25.72},{"city":"Potosi","state_name":"Missouri","lat":37.92161,"lng":-90.91661,"zip":"63664","miles_from_dt":25.79},{"city":"Steelville","state_name":"Missouri","lat":37.90573,"lng":-91.23841,"zip":"65565","miles_from_dt":25.99},{"city":"Treloar","state_name":"Missouri","lat":38.64145,"lng":-91.18713,"zip":"63378","miles_from_dt":26.3},{"city":"Cadet","state_name":"Missouri","lat":38.01874,"lng":-90.72727,"zip":"63630","miles_from_dt":26.53},{"city":"Marthasville","state_name":"Missouri","lat":38.65518,"lng":-91.0947,"zip":"63357","miles_from_dt":26.82},{"city":"Saint Albans","state_name":"Missouri","lat":38.58367,"lng":-90.76933,"zip":"63073","miles_from_dt":28.31},{"city":"Hillsboro","state_name":"Missouri","lat":38.25977,"lng":-90.57628,"zip":"63050","miles_from_dt":28.49},{"city":"Bland","state_name":"Missouri","lat":38.32184,"lng":-91.6247,"zip":"65014","miles_from_dt":28.77},{"city":"Berger","state_name":"Missouri","lat":38.64892,"lng":-91.31566,"zip":"63014","miles_from_dt":28.86},{"city":"Tiff","state_name":"Missouri","lat":38.03126,"lng":-90.65933,"zip":"63674","miles_from_dt":28.97}],"targetCityZipCode":"63079","targetCityState":"Missouri"},"__N_SSG":true}