{"pageProps":{"stateName":"Missouri","cityName":"sumner","nearbyCities":[{"city":"Mendon","state_name":"Missouri","lat":39.57226,"lng":-93.08923,"zip":"64660","miles_from_dt":8.41},{"city":"Hale","state_name":"Missouri","lat":39.61366,"lng":-93.36883,"zip":"64643","miles_from_dt":8.59},{"city":"Laclede","state_name":"Missouri","lat":39.7759,"lng":-93.1797,"zip":"64651","miles_from_dt":9.07},{"city":"Rothville","state_name":"Missouri","lat":39.6471,"lng":-93.03729,"zip":"64676","miles_from_dt":9.41},{"city":"Triplett","state_name":"Missouri","lat":39.50616,"lng":-93.22059,"zip":"65286","miles_from_dt":9.73},{"city":"Meadville","state_name":"Missouri","lat":39.78138,"lng":-93.29224,"zip":"64659","miles_from_dt":10.17},{"city":"Brookfield","state_name":"Missouri","lat":39.79711,"lng":-93.05002,"zip":"64628","miles_from_dt":13.54},{"city":"Bosworth","state_name":"Missouri","lat":39.47,"lng":-93.33344,"zip":"64623","miles_from_dt":13.79},{"city":"Wheeling","state_name":"Missouri","lat":39.8139,"lng":-93.37664,"zip":"64688","miles_from_dt":14.41},{"city":"Brunswick","state_name":"Missouri","lat":39.44596,"lng":-93.08305,"zip":"65236","miles_from_dt":15.53},{"city":"Marceline","state_name":"Missouri","lat":39.66124,"lng":-92.92181,"zip":"64658","miles_from_dt":15.6},{"city":"Tina","state_name":"Missouri","lat":39.55251,"lng":-93.49132,"zip":"64682","miles_from_dt":16.19},{"city":"Linneus","state_name":"Missouri","lat":39.89403,"lng":-93.20403,"zip":"64653","miles_from_dt":17.05},{"city":"De Witt","state_name":"Missouri","lat":39.3962,"lng":-93.22276,"zip":"64639","miles_from_dt":17.31},{"city":"Keytesville","state_name":"Missouri","lat":39.47542,"lng":-92.92388,"zip":"65261","miles_from_dt":19.49},{"city":"Bogard","state_name":"Missouri","lat":39.49535,"lng":-93.54569,"zip":"64622","miles_from_dt":20.58},{"city":"Bucklin","state_name":"Missouri","lat":39.82018,"lng":-92.88213,"zip":"64631","miles_from_dt":21.32},{"city":"Dawn","state_name":"Missouri","lat":39.61894,"lng":-93.61498,"zip":"64638","miles_from_dt":21.49},{"city":"Dalton","state_name":"Missouri","lat":39.37725,"lng":-93.00059,"zip":"65246","miles_from_dt":21.82},{"city":"Chillicothe","state_name":"Missouri","lat":39.8044,"lng":-93.57334,"zip":"64601","miles_from_dt":22.02},{"city":"Purdin","state_name":"Missouri","lat":39.96491,"lng":-93.15884,"zip":"64674","miles_from_dt":22.12},{"city":"Utica","state_name":"Missouri","lat":39.75005,"lng":-93.62449,"zip":"64686","miles_from_dt":23.01},{"city":"Miami","state_name":"Missouri","lat":39.31174,"lng":-93.1976,"zip":"65344","miles_from_dt":23.15},{"city":"Chula","state_name":"Missouri","lat":39.93943,"lng":-93.43632,"zip":"64635","miles_from_dt":23.39},{"city":"Carrollton","state_name":"Missouri","lat":39.35951,"lng":-93.48171,"zip":"64633","miles_from_dt":24.47},{"city":"Mooresville","state_name":"Missouri","lat":39.74601,"lng":-93.66027,"zip":"64664","miles_from_dt":24.76},{"city":"New Cambria","state_name":"Missouri","lat":39.74168,"lng":-92.75244,"zip":"63558","miles_from_dt":25.44},{"city":"Ludlow","state_name":"Missouri","lat":39.67803,"lng":-93.69375,"zip":"64656","miles_from_dt":25.68},{"city":"Salisbury","state_name":"Missouri","lat":39.46431,"lng":-92.79099,"zip":"65281","miles_from_dt":25.86},{"city":"Browning","state_name":"Missouri","lat":40.03726,"lng":-93.15435,"zip":"64630","miles_from_dt":27.11},{"city":"Laredo","state_name":"Missouri","lat":40.01979,"lng":-93.42103,"zip":"64652","miles_from_dt":27.98},{"city":"New Boston","state_name":"Missouri","lat":39.98297,"lng":-92.88045,"zip":"63557","miles_from_dt":29.18}],"targetCityZipCode":"64681","targetCityState":"Missouri"},"__N_SSG":true}