{"pageProps":{"stateName":"New-mexico","cityName":"gallina","nearbyCities":[{"city":"Regina","state_name":"New Mexico","lat":36.27773,"lng":-106.91643,"zip":"87046","miles_from_dt":10.17},{"city":"Coyote","state_name":"New Mexico","lat":36.13341,"lng":-106.67312,"zip":"87012","miles_from_dt":12.45},{"city":"Youngsville","state_name":"New Mexico","lat":36.1849,"lng":-106.53923,"zip":"87064","miles_from_dt":13.88},{"city":"Abiquiu","state_name":"New Mexico","lat":36.35906,"lng":-106.48312,"zip":"87510","miles_from_dt":14.66},{"city":"La Jara","state_name":"New Mexico","lat":36.12734,"lng":-106.94737,"zip":"87027","miles_from_dt":17.02},{"city":"Canones","state_name":"New Mexico","lat":36.18116,"lng":-106.46149,"zip":"87516","miles_from_dt":17.67},{"city":"Cebolla","state_name":"New Mexico","lat":36.51197,"lng":-106.54235,"zip":"87518","miles_from_dt":17.88},{"city":"Lindrith","state_name":"New Mexico","lat":36.39394,"lng":-107.03949,"zip":"87029","miles_from_dt":17.89},{"city":"Tierra Amarilla","state_name":"New Mexico","lat":36.64203,"lng":-106.59341,"zip":"87575","miles_from_dt":24.51},{"city":"Los Ojos","state_name":"New Mexico","lat":36.6925,"lng":-106.66872,"zip":"87551","miles_from_dt":26.91},{"city":"Canjilon","state_name":"New Mexico","lat":36.56257,"lng":-106.3696,"zip":"87515","miles_from_dt":27.07},{"city":"El Rito","state_name":"New Mexico","lat":36.34088,"lng":-106.20198,"zip":"87530","miles_from_dt":29.98}],"targetCityZipCode":"87017","targetCityState":"New Mexico"},"__N_SSG":true}