{"pageProps":{"stateName":"New-mexico","cityName":"la-mesa","nearbyCities":[{"city":"Las Cruces","state_name":"New Mexico","lat":32.22757,"lng":-106.99027,"zip":"88005","miles_from_dt":15.28},{"city":"Anthony","state_name":"New Mexico","lat":31.97338,"lng":-106.81639,"zip":"88021","miles_from_dt":15.87},{"city":"Las Cruces","state_name":"New Mexico","lat":32.25022,"lng":-106.94908,"zip":"88004","miles_from_dt":17.67},{"city":"Fairacres","state_name":"New Mexico","lat":32.31085,"lng":-107.03645,"zip":"88033","miles_from_dt":20.23},{"city":"Chamberino","state_name":"New Mexico","lat":32.03625,"lng":-106.68143,"zip":"88027","miles_from_dt":23.49},{"city":"Mesilla","state_name":"New Mexico","lat":32.26797,"lng":-106.79674,"zip":"88046","miles_from_dt":23.88},{"city":"Santa Teresa","state_name":"New Mexico","lat":31.81867,"lng":-106.74188,"zip":"88008","miles_from_dt":24.28},{"city":"San Miguel","state_name":"New Mexico","lat":32.10862,"lng":-106.67925,"zip":"88058","miles_from_dt":24.36},{"city":"Las Cruces","state_name":"New Mexico","lat":32.37103,"lng":-106.9984,"zip":"88007","miles_from_dt":24.68},{"city":"Mesilla Park","state_name":"New Mexico","lat":32.21444,"lng":-106.71556,"zip":"88047","miles_from_dt":25.29},{"city":"Mesquite","state_name":"New Mexico","lat":32.14966,"lng":-106.6581,"zip":"88048","miles_from_dt":26.38},{"city":"Las Cruces","state_name":"New Mexico","lat":32.27868,"lng":-106.74566,"zip":"88003","miles_from_dt":26.55},{"city":"Las Cruces","state_name":"New Mexico","lat":32.29026,"lng":-106.75318,"zip":"88001","miles_from_dt":26.78},{"city":"Las Cruces","state_name":"New Mexico","lat":32.31316,"lng":-106.77748,"zip":"88013","miles_from_dt":26.93},{"city":"Berino","state_name":"New Mexico","lat":32.06539,"lng":-106.61803,"zip":"88024","miles_from_dt":27.36},{"city":"Las Cruces","state_name":"New Mexico","lat":32.32201,"lng":-106.76707,"zip":"88006","miles_from_dt":27.79},{"city":"Anthony","state_name":"Texas","lat":31.97677,"lng":-106.59822,"zip":"79821","miles_from_dt":28.51},{"city":"Vado","state_name":"New Mexico","lat":32.14242,"lng":-106.61329,"zip":"88072","miles_from_dt":28.72},{"city":"Canutillo","state_name":"Texas","lat":31.93555,"lng":-106.59491,"zip":"79835","miles_from_dt":29.14},{"city":"El Paso","state_name":"Texas","lat":31.87753,"lng":-106.6068,"zip":"79932","miles_from_dt":29.54}],"targetCityZipCode":"88044","targetCityState":"New Mexico"},"__N_SSG":true}