{"pageProps":{"stateName":"New-mexico","cityName":"organ","nearbyCities":[{"city":"Las Cruces","state_name":"New Mexico","lat":32.39533,"lng":-106.58519,"zip":"88011","miles_from_dt":3.91},{"city":"Spaceport City","state_name":"New Mexico","lat":32.39592,"lng":-106.70136,"zip":"87654","miles_from_dt":6.92},{"city":"White Sands Missile Range","state_name":"New Mexico","lat":32.38275,"lng":-106.45804,"zip":"88002","miles_from_dt":9.61},{"city":"Dona Ana","state_name":"New Mexico","lat":32.38866,"lng":-106.78244,"zip":"88032","miles_from_dt":11.38},{"city":"Las Cruces","state_name":"New Mexico","lat":32.32201,"lng":-106.76707,"zip":"88006","miles_from_dt":13.1},{"city":"Las Cruces","state_name":"New Mexico","lat":32.58898,"lng":-106.77135,"zip":"88012","miles_from_dt":13.75},{"city":"Las Cruces","state_name":"New Mexico","lat":32.31316,"lng":-106.77748,"zip":"88013","miles_from_dt":13.96},{"city":"Las Cruces","state_name":"New Mexico","lat":32.29026,"lng":-106.75318,"zip":"88001","miles_from_dt":14.14},{"city":"Las Cruces","state_name":"New Mexico","lat":32.27868,"lng":-106.74566,"zip":"88003","miles_from_dt":14.51},{"city":"Mesilla","state_name":"New Mexico","lat":32.26797,"lng":-106.79674,"zip":"88046","miles_from_dt":16.97},{"city":"Mesilla Park","state_name":"New Mexico","lat":32.21444,"lng":-106.71556,"zip":"88047","miles_from_dt":17.56},{"city":"Mesquite","state_name":"New Mexico","lat":32.14966,"lng":-106.6581,"zip":"88048","miles_from_dt":20.98},{"city":"Vado","state_name":"New Mexico","lat":32.14242,"lng":-106.61329,"zip":"88072","miles_from_dt":21.23},{"city":"Chaparral","state_name":"New Mexico","lat":32.24958,"lng":-106.28821,"zip":"88081","miles_from_dt":22.98},{"city":"Las Cruces","state_name":"New Mexico","lat":32.37103,"lng":-106.9984,"zip":"88007","miles_from_dt":23.81},{"city":"San Miguel","state_name":"New Mexico","lat":32.10862,"lng":-106.67925,"zip":"88058","miles_from_dt":23.98},{"city":"Las Cruces","state_name":"New Mexico","lat":32.25022,"lng":-106.94908,"zip":"88004","miles_from_dt":24.55},{"city":"Rincon","state_name":"New Mexico","lat":32.60986,"lng":-106.99465,"zip":"87940","miles_from_dt":25.43},{"city":"Berino","state_name":"New Mexico","lat":32.06539,"lng":-106.61803,"zip":"88024","miles_from_dt":26.54},{"city":"Fairacres","state_name":"New Mexico","lat":32.31085,"lng":-107.03645,"zip":"88033","miles_from_dt":27.17},{"city":"Las Cruces","state_name":"New Mexico","lat":32.22757,"lng":-106.99027,"zip":"88005","miles_from_dt":27.42},{"city":"Chamberino","state_name":"New Mexico","lat":32.03625,"lng":-106.68143,"zip":"88027","miles_from_dt":28.91},{"city":"Orogrande","state_name":"New Mexico","lat":32.38926,"lng":-106.10469,"zip":"88342","miles_from_dt":29.36}],"targetCityZipCode":"88052","targetCityState":"New Mexico"},"__N_SSG":true}