{"pageProps":{"stateName":"New-mexico","cityName":"penasco","nearbyCities":[{"city":"Trampas","state_name":"New Mexico","lat":36.15321,"lng":-105.62299,"zip":"87576","miles_from_dt":6.5},{"city":"Ranchos De Taos","state_name":"New Mexico","lat":36.28603,"lng":-105.6331,"zip":"87557","miles_from_dt":7.49},{"city":"Llano","state_name":"New Mexico","lat":36.10399,"lng":-105.65781,"zip":"87543","miles_from_dt":7.74},{"city":"Embudo","state_name":"New Mexico","lat":36.25326,"lng":-105.84584,"zip":"87531","miles_from_dt":7.76},{"city":"Chamisal","state_name":"New Mexico","lat":36.08506,"lng":-105.70477,"zip":"87521","miles_from_dt":8.24},{"city":"Dixon","state_name":"New Mexico","lat":36.16875,"lng":-105.86352,"zip":"87527","miles_from_dt":8.33},{"city":"Vadito","state_name":"New Mexico","lat":36.12885,"lng":-105.56729,"zip":"87579","miles_from_dt":10.03},{"city":"Truchas","state_name":"New Mexico","lat":36.04392,"lng":-105.78539,"zip":"87578","miles_from_dt":11.6},{"city":"Carson","state_name":"New Mexico","lat":36.39035,"lng":-105.79269,"zip":"87517","miles_from_dt":13.47},{"city":"Cordova","state_name":"New Mexico","lat":36.01115,"lng":-105.86273,"zip":"87523","miles_from_dt":15.48},{"city":"Alcalde","state_name":"New Mexico","lat":36.08905,"lng":-105.96448,"zip":"87511","miles_from_dt":15.75},{"city":"Velarde","state_name":"New Mexico","lat":36.15323,"lng":-106.00246,"zip":"87582","miles_from_dt":16.12},{"city":"El Prado","state_name":"New Mexico","lat":36.45001,"lng":-105.66147,"zip":"87529","miles_from_dt":17.29},{"city":"Chimayo","state_name":"New Mexico","lat":35.96889,"lng":-105.84639,"zip":"87522","miles_from_dt":17.66},{"city":"Ojo Caliente","state_name":"New Mexico","lat":36.23237,"lng":-106.0568,"zip":"87549","miles_from_dt":18.87},{"city":"Taos","state_name":"New Mexico","lat":36.42507,"lng":-105.48523,"zip":"87571","miles_from_dt":20.14},{"city":"Chacon","state_name":"New Mexico","lat":36.1708,"lng":-105.36111,"zip":"87713","miles_from_dt":20.24},{"city":"Cleveland","state_name":"New Mexico","lat":36.01839,"lng":-105.42535,"zip":"87715","miles_from_dt":20.91},{"city":"Ohkay Owingeh","state_name":"New Mexico","lat":36.07242,"lng":-106.07185,"zip":"87566","miles_from_dt":21.62},{"city":"Holman","state_name":"New Mexico","lat":36.05883,"lng":-105.37556,"zip":"87723","miles_from_dt":21.75},{"city":"Santa Cruz","state_name":"New Mexico","lat":35.99401,"lng":-106.01872,"zip":"87567","miles_from_dt":22.07},{"city":"La Madera","state_name":"New Mexico","lat":36.41192,"lng":-106.02393,"zip":"87539","miles_from_dt":22.17},{"city":"Mora","state_name":"New Mexico","lat":35.942,"lng":-105.47009,"zip":"87732","miles_from_dt":22.87},{"city":"Arroyo Seco","state_name":"New Mexico","lat":36.52957,"lng":-105.60055,"zip":"87514","miles_from_dt":23.44},{"city":"Espanola","state_name":"New Mexico","lat":35.99112,"lng":-106.08,"zip":"87533","miles_from_dt":24.88},{"city":"Valdez","state_name":"New Mexico","lat":36.55956,"lng":-105.57459,"zip":"87580","miles_from_dt":25.85},{"city":"Medanales","state_name":"New Mexico","lat":36.1756,"lng":-106.18491,"zip":"87548","miles_from_dt":26},{"city":"Arroyo Hondo","state_name":"New Mexico","lat":36.58367,"lng":-105.70121,"zip":"87513","miles_from_dt":26.21},{"city":"Espanola","state_name":"New Mexico","lat":35.97965,"lng":-106.1048,"zip":"87532","miles_from_dt":26.47},{"city":"Guadalupita","state_name":"New Mexico","lat":36.12837,"lng":-105.24424,"zip":"87722","miles_from_dt":27.15},{"city":"Rociada","state_name":"New Mexico","lat":35.87161,"lng":-105.44427,"zip":"87742","miles_from_dt":27.66},{"city":"El Rito","state_name":"New Mexico","lat":36.34088,"lng":-106.20198,"zip":"87530","miles_from_dt":28.47},{"city":"San Cristobal","state_name":"New Mexico","lat":36.61566,"lng":-105.61797,"zip":"87564","miles_from_dt":28.97},{"city":"Angel Fire","state_name":"New Mexico","lat":36.3729,"lng":-105.23873,"zip":"87710","miles_from_dt":29.33},{"city":"Tesuque","state_name":"New Mexico","lat":35.80615,"lng":-105.91527,"zip":"87574","miles_from_dt":29.5},{"city":"Tererro","state_name":"New Mexico","lat":35.77176,"lng":-105.70715,"zip":"87573","miles_from_dt":29.8},{"city":"Santa Fe","state_name":"New Mexico","lat":35.82119,"lng":-105.96802,"zip":"87506","miles_from_dt":29.8},{"city":"Taos Ski Valley","state_name":"New Mexico","lat":36.5985,"lng":-105.49812,"zip":"87525","miles_from_dt":29.91}],"targetCityZipCode":"87553","targetCityState":"New Mexico"},"__N_SSG":true}