{"pageProps":{"stateName":"New-mexico","cityName":"petaca","nearbyCities":[{"city":"Vallecitos","state_name":"New Mexico","lat":36.51531,"lng":-106.16017,"zip":"87581","miles_from_dt":5.78},{"city":"Tres Piedras","state_name":"New Mexico","lat":36.63237,"lng":-105.97755,"zip":"87577","miles_from_dt":7.64},{"city":"La Madera","state_name":"New Mexico","lat":36.41192,"lng":-106.02393,"zip":"87539","miles_from_dt":9.48},{"city":"El Rito","state_name":"New Mexico","lat":36.34088,"lng":-106.20198,"zip":"87530","miles_from_dt":16.1},{"city":"Canjilon","state_name":"New Mexico","lat":36.56257,"lng":-106.3696,"zip":"87515","miles_from_dt":17.08},{"city":"Carson","state_name":"New Mexico","lat":36.39035,"lng":-105.79269,"zip":"87517","miles_from_dt":18.49},{"city":"Arroyo Hondo","state_name":"New Mexico","lat":36.58367,"lng":-105.70121,"zip":"87513","miles_from_dt":20.31},{"city":"Ojo Caliente","state_name":"New Mexico","lat":36.23237,"lng":-106.0568,"zip":"87549","miles_from_dt":21.61},{"city":"El Prado","state_name":"New Mexico","lat":36.45001,"lng":-105.66147,"zip":"87529","miles_from_dt":23.32},{"city":"Embudo","state_name":"New Mexico","lat":36.25326,"lng":-105.84584,"zip":"87531","miles_from_dt":23.53},{"city":"San Cristobal","state_name":"New Mexico","lat":36.61566,"lng":-105.61797,"zip":"87564","miles_from_dt":25.23},{"city":"Arroyo Seco","state_name":"New Mexico","lat":36.52957,"lng":-105.60055,"zip":"87514","miles_from_dt":25.77},{"city":"Medanales","state_name":"New Mexico","lat":36.1756,"lng":-106.18491,"zip":"87548","miles_from_dt":26.41},{"city":"Abiquiu","state_name":"New Mexico","lat":36.35906,"lng":-106.48312,"zip":"87510","miles_from_dt":26.69},{"city":"Cebolla","state_name":"New Mexico","lat":36.51197,"lng":-106.54235,"zip":"87518","miles_from_dt":26.76},{"city":"Valdez","state_name":"New Mexico","lat":36.55956,"lng":-105.57459,"zip":"87580","miles_from_dt":27.2},{"city":"Velarde","state_name":"New Mexico","lat":36.15323,"lng":-106.00246,"zip":"87582","miles_from_dt":27.28},{"city":"Cerro","state_name":"New Mexico","lat":36.76472,"lng":-105.63502,"zip":"87519","miles_from_dt":28.18},{"city":"Dixon","state_name":"New Mexico","lat":36.16875,"lng":-105.86352,"zip":"87527","miles_from_dt":28.28},{"city":"Ranchos De Taos","state_name":"New Mexico","lat":36.28603,"lng":-105.6331,"zip":"87557","miles_from_dt":29.92}],"targetCityZipCode":"87554","targetCityState":"New Mexico"},"__N_SSG":true}