{"pageProps":{"stateName":"New-mexico","cityName":"polvadera","nearbyCities":[{"city":"Lemitar","state_name":"New Mexico","lat":34.18348,"lng":-106.95901,"zip":"87823","miles_from_dt":2.68},{"city":"San Acacia","state_name":"New Mexico","lat":34.28303,"lng":-106.88722,"zip":"87831","miles_from_dt":5.66},{"city":"Socorro","state_name":"New Mexico","lat":34.04824,"lng":-106.96668,"zip":"87801","miles_from_dt":11.17},{"city":"La Joya","state_name":"New Mexico","lat":34.35076,"lng":-106.78789,"zip":"87028","miles_from_dt":12.56},{"city":"Bosque","state_name":"New Mexico","lat":34.48616,"lng":-106.84202,"zip":"87006","miles_from_dt":19.85},{"city":"Veguita","state_name":"New Mexico","lat":34.46187,"lng":-106.69719,"zip":"87062","miles_from_dt":21.79},{"city":"San Antonio","state_name":"New Mexico","lat":33.83949,"lng":-106.83284,"zip":"87832","miles_from_dt":25.74},{"city":"Jarales","state_name":"New Mexico","lat":34.59583,"lng":-106.7633,"zip":"87023","miles_from_dt":28.35}],"targetCityZipCode":"87828","targetCityState":"New Mexico"},"__N_SSG":true}