{"pageProps":{"stateName":"New-mexico","cityName":"redrock","nearbyCities":[{"city":"Cliff","state_name":"New Mexico","lat":32.95131,"lng":-108.67807,"zip":"88028","miles_from_dt":14.35},{"city":"Silver City","state_name":"New Mexico","lat":32.6211,"lng":-108.40888,"zip":"88061","miles_from_dt":21.23},{"city":"Mule Creek","state_name":"New Mexico","lat":33.01471,"lng":-108.94299,"zip":"88051","miles_from_dt":21.75},{"city":"Duncan","state_name":"Arizona","lat":32.72939,"lng":-109.14475,"zip":"85534","miles_from_dt":23.62},{"city":"Buckhorn","state_name":"New Mexico","lat":33.10087,"lng":-108.71984,"zip":"88025","miles_from_dt":24.23},{"city":"Tyrone","state_name":"New Mexico","lat":32.71375,"lng":-108.30231,"zip":"88065","miles_from_dt":25.6},{"city":"Silver City","state_name":"New Mexico","lat":32.7602,"lng":-108.2767,"zip":"88062","miles_from_dt":26.98},{"city":"Gila","state_name":"New Mexico","lat":33.0722,"lng":-108.42625,"zip":"88038","miles_from_dt":28.74},{"city":"Lordsburg","state_name":"New Mexico","lat":32.3298,"lng":-108.71057,"zip":"88045","miles_from_dt":28.98}],"targetCityZipCode":"88055","targetCityState":"New Mexico"},"__N_SSG":true}