{"pageProps":{"stateName":"New-mexico","cityName":"rociada","nearbyCities":[{"city":"Mora","state_name":"New Mexico","lat":35.942,"lng":-105.47009,"zip":"87732","miles_from_dt":5.06},{"city":"Cleveland","state_name":"New Mexico","lat":36.01839,"lng":-105.42535,"zip":"87715","miles_from_dt":10.18},{"city":"Sapello","state_name":"New Mexico","lat":35.7877,"lng":-105.26635,"zip":"87745","miles_from_dt":11.54},{"city":"Montezuma","state_name":"New Mexico","lat":35.70411,"lng":-105.39881,"zip":"87731","miles_from_dt":11.83},{"city":"Holman","state_name":"New Mexico","lat":36.05883,"lng":-105.37556,"zip":"87723","miles_from_dt":13.47},{"city":"Buena Vista","state_name":"New Mexico","lat":35.88076,"lng":-105.17612,"zip":"87712","miles_from_dt":15.06},{"city":"Rainsville","state_name":"New Mexico","lat":35.98431,"lng":-105.19238,"zip":"87736","miles_from_dt":16.12},{"city":"Tererro","state_name":"New Mexico","lat":35.77176,"lng":-105.70715,"zip":"87573","miles_from_dt":16.29},{"city":"Pecos","state_name":"New Mexico","lat":35.67026,"lng":-105.61382,"zip":"87552","miles_from_dt":16.84},{"city":"Vadito","state_name":"New Mexico","lat":36.12885,"lng":-105.56729,"zip":"87579","miles_from_dt":19.03},{"city":"Llano","state_name":"New Mexico","lat":36.10399,"lng":-105.65781,"zip":"87543","miles_from_dt":20},{"city":"Chamisal","state_name":"New Mexico","lat":36.08506,"lng":-105.70477,"zip":"87521","miles_from_dt":20.73},{"city":"Guadalupita","state_name":"New Mexico","lat":36.12837,"lng":-105.24424,"zip":"87722","miles_from_dt":20.95},{"city":"Chacon","state_name":"New Mexico","lat":36.1708,"lng":-105.36111,"zip":"87713","miles_from_dt":21.15},{"city":"Trampas","state_name":"New Mexico","lat":36.15321,"lng":-105.62299,"zip":"87576","miles_from_dt":21.84},{"city":"Ojo Feliz","state_name":"New Mexico","lat":36.04867,"lng":-105.11978,"zip":"87735","miles_from_dt":21.91},{"city":"Truchas","state_name":"New Mexico","lat":36.04392,"lng":-105.78539,"zip":"87578","miles_from_dt":22.51},{"city":"Chimayo","state_name":"New Mexico","lat":35.96889,"lng":-105.84639,"zip":"87522","miles_from_dt":23.53},{"city":"Cordova","state_name":"New Mexico","lat":36.01115,"lng":-105.86273,"zip":"87523","miles_from_dt":25.36},{"city":"Santa Fe","state_name":"New Mexico","lat":35.71273,"lng":-105.86523,"zip":"87501","miles_from_dt":26.06},{"city":"Ilfeld","state_name":"New Mexico","lat":35.49323,"lng":-105.53767,"zip":"87538","miles_from_dt":26.61},{"city":"Tesuque","state_name":"New Mexico","lat":35.80615,"lng":-105.91527,"zip":"87574","miles_from_dt":26.82},{"city":"Glorieta","state_name":"New Mexico","lat":35.56675,"lng":-105.74719,"zip":"87535","miles_from_dt":27.05},{"city":"Watrous","state_name":"New Mexico","lat":35.85796,"lng":-104.95477,"zip":"87753","miles_from_dt":27.49},{"city":"Penasco","state_name":"New Mexico","lat":36.20389,"lng":-105.72094,"zip":"87553","miles_from_dt":27.66},{"city":"Ocate","state_name":"New Mexico","lat":36.17323,"lng":-105.09363,"zip":"87734","miles_from_dt":28.6},{"city":"Valmora","state_name":"New Mexico","lat":35.82498,"lng":-104.92704,"zip":"87750","miles_from_dt":29.21},{"city":"Santa Fe","state_name":"New Mexico","lat":35.62307,"lng":-105.86891,"zip":"87505","miles_from_dt":29.38},{"city":"Santa Fe","state_name":"New Mexico","lat":35.82119,"lng":-105.96802,"zip":"87506","miles_from_dt":29.6},{"city":"San Jose","state_name":"New Mexico","lat":35.4442,"lng":-105.49384,"zip":"87565","miles_from_dt":29.6}],"targetCityZipCode":"87742","targetCityState":"New Mexico"},"__N_SSG":true}