{"pageProps":{"stateName":"New-mexico","cityName":"san-patricio","nearbyCities":[{"city":"Glencoe","state_name":"New Mexico","lat":33.38666,"lng":-105.47268,"zip":"88324","miles_from_dt":4.76},{"city":"Lincoln","state_name":"New Mexico","lat":33.53723,"lng":-105.38468,"zip":"88338","miles_from_dt":8.34},{"city":"Hondo","state_name":"New Mexico","lat":33.31883,"lng":-105.28552,"zip":"88336","miles_from_dt":9.4},{"city":"Ruidoso Downs","state_name":"New Mexico","lat":33.34814,"lng":-105.54073,"zip":"88346","miles_from_dt":9.48},{"city":"Fort Stanton","state_name":"New Mexico","lat":33.48534,"lng":-105.56488,"zip":"88323","miles_from_dt":10.71},{"city":"Alto","state_name":"New Mexico","lat":33.43186,"lng":-105.64397,"zip":"88312","miles_from_dt":14.22},{"city":"Ruidoso","state_name":"New Mexico","lat":33.36288,"lng":-105.6694,"zip":"88355","miles_from_dt":16.09},{"city":"Ruidoso","state_name":"New Mexico","lat":33.35127,"lng":-105.67092,"zip":"88345","miles_from_dt":16.38},{"city":"Tinnie","state_name":"New Mexico","lat":33.47154,"lng":-105.09777,"zip":"88351","miles_from_dt":17.79},{"city":"Mescalero","state_name":"New Mexico","lat":33.17859,"lng":-105.61211,"zip":"88340","miles_from_dt":20.55},{"city":"Picacho","state_name":"New Mexico","lat":33.23504,"lng":-105.06772,"zip":"88343","miles_from_dt":22.87},{"city":"Nogal","state_name":"New Mexico","lat":33.50811,"lng":-105.79161,"zip":"88341","miles_from_dt":23.56},{"city":"Capitan","state_name":"New Mexico","lat":33.77306,"lng":-105.36895,"zip":"88316","miles_from_dt":24.62}],"targetCityZipCode":"88348","targetCityState":"New Mexico"},"__N_SSG":true}