{"pageProps":{"stateName":"Alabama","cityName":"andalusia","nearbyCities":[{"city":"Andalusia","state_name":"Alabama","lat":31.32769,"lng":-86.50903,"zip":"36421","miles_from_dt":10.86},{"city":"Wing","state_name":"Alabama","lat":31.04273,"lng":-86.68494,"zip":"36483","miles_from_dt":11.5},{"city":"River Falls","state_name":"Alabama","lat":31.35359,"lng":-86.54633,"zip":"36476","miles_from_dt":12.03},{"city":"Florala","state_name":"Alabama","lat":31.07312,"lng":-86.36355,"zip":"36442","miles_from_dt":14.63},{"city":"Gantt","state_name":"Alabama","lat":31.40788,"lng":-86.4869,"zip":"36038","miles_from_dt":16.5},{"city":"Red Level","state_name":"Alabama","lat":31.42664,"lng":-86.62022,"zip":"36474","miles_from_dt":17.13},{"city":"Lockhart","state_name":"Alabama","lat":31.01212,"lng":-86.35321,"zip":"36455","miles_from_dt":17.61},{"city":"Laurel Hill","state_name":"Florida","lat":30.92207,"lng":-86.43396,"zip":"32567","miles_from_dt":19.73},{"city":"Opp","state_name":"Alabama","lat":31.2795,"lng":-86.25579,"zip":"36467","miles_from_dt":20.15},{"city":"Paxton","state_name":"Florida","lat":30.97737,"lng":-86.3124,"zip":"32538","miles_from_dt":21.01},{"city":"Baker","state_name":"Florida","lat":30.88513,"lng":-86.696,"zip":"32531","miles_from_dt":21.58},{"city":"Dozier","state_name":"Alabama","lat":31.49031,"lng":-86.38271,"zip":"36028","miles_from_dt":24.19},{"city":"Kinston","state_name":"Alabama","lat":31.19788,"lng":-86.14726,"zip":"36453","miles_from_dt":25.43},{"city":"Crestview","state_name":"Florida","lat":30.78128,"lng":-86.46646,"zip":"32539","miles_from_dt":28.29},{"city":"Castleberry","state_name":"Alabama","lat":31.30055,"lng":-87.03888,"zip":"36432","miles_from_dt":28.6},{"city":"Milligan","state_name":"Florida","lat":30.76092,"lng":-86.60592,"zip":"32537","miles_from_dt":28.99},{"city":"Brooklyn","state_name":"Alabama","lat":31.49498,"lng":-86.91226,"zip":"36429","miles_from_dt":29.38},{"city":"Crestview","state_name":"Florida","lat":30.75399,"lng":-86.59491,"zip":"32536","miles_from_dt":29.43},{"city":"Brewton","state_name":"Alabama","lat":31.14386,"lng":-87.076,"zip":"36426","miles_from_dt":29.72},{"city":"Brewton","state_name":"Alabama","lat":31.10793,"lng":-87.07115,"zip":"36427","miles_from_dt":29.76},{"city":"Evergreen","state_name":"Alabama","lat":31.47123,"lng":-86.94928,"zip":"36401","miles_from_dt":29.78}],"targetCityZipCode":"36420","targetCityState":"Alabama"},"__N_SSG":true}