{"pageProps":{"stateName":"Alabama","cityName":"bankston","nearbyCities":[{"city":"Fayette","state_name":"Alabama","lat":33.66829,"lng":-87.82309,"zip":"35555","miles_from_dt":8.61},{"city":"Berry","state_name":"Alabama","lat":33.60555,"lng":-87.54763,"zip":"35546","miles_from_dt":10.48},{"city":"Carbon Hill","state_name":"Alabama","lat":33.83474,"lng":-87.55001,"zip":"35549","miles_from_dt":11.55},{"city":"Eldridge","state_name":"Alabama","lat":33.89745,"lng":-87.65593,"zip":"35554","miles_from_dt":13.12},{"city":"Glen Allen","state_name":"Alabama","lat":33.91166,"lng":-87.73537,"zip":"35559","miles_from_dt":14.35},{"city":"Townley","state_name":"Alabama","lat":33.80071,"lng":-87.4521,"zip":"35587","miles_from_dt":14.67},{"city":"Belk","state_name":"Alabama","lat":33.6421,"lng":-87.93147,"zip":"35545","miles_from_dt":15.1},{"city":"Kansas","state_name":"Alabama","lat":33.90137,"lng":-87.54999,"zip":"35573","miles_from_dt":15.31},{"city":"Winfield","state_name":"Alabama","lat":33.92222,"lng":-87.7813,"zip":"35594","miles_from_dt":15.82},{"city":"Samantha","state_name":"Alabama","lat":33.45656,"lng":-87.67047,"zip":"35482","miles_from_dt":17.36},{"city":"Kennedy","state_name":"Alabama","lat":33.5683,"lng":-87.95757,"zip":"35574","miles_from_dt":18.61},{"city":"Northport","state_name":"Alabama","lat":33.42792,"lng":-87.5854,"zip":"35475","miles_from_dt":20.1},{"city":"Oakman","state_name":"Alabama","lat":33.63069,"lng":-87.34441,"zip":"35579","miles_from_dt":20.15},{"city":"Nauvoo","state_name":"Alabama","lat":33.982,"lng":-87.46638,"zip":"35578","miles_from_dt":22.56},{"city":"Elrod","state_name":"Alabama","lat":33.3814,"lng":-87.79713,"zip":"35458","miles_from_dt":23.5},{"city":"Parrish","state_name":"Alabama","lat":33.7011,"lng":-87.27331,"zip":"35580","miles_from_dt":23.52},{"city":"Guin","state_name":"Alabama","lat":33.99678,"lng":-87.90149,"zip":"35563","miles_from_dt":23.56},{"city":"Jasper","state_name":"Alabama","lat":33.82145,"lng":-87.29544,"zip":"35501","miles_from_dt":23.56},{"city":"Lynn","state_name":"Alabama","lat":34.04521,"lng":-87.57716,"zip":"35575","miles_from_dt":23.98},{"city":"Vernon","state_name":"Alabama","lat":33.74315,"lng":-88.09672,"zip":"35592","miles_from_dt":24.03},{"city":"Jasper","state_name":"Alabama","lat":33.82849,"lng":-87.27735,"zip":"35502","miles_from_dt":24.7},{"city":"Brilliant","state_name":"Alabama","lat":34.06263,"lng":-87.75251,"zip":"35548","miles_from_dt":24.76},{"city":"Burnwell","state_name":"Alabama","lat":33.90639,"lng":-87.31633,"zip":"35038","miles_from_dt":25.06},{"city":"Beaverton","state_name":"Alabama","lat":33.95392,"lng":-88.02022,"zip":"35544","miles_from_dt":25.81},{"city":"Goodsprings","state_name":"Alabama","lat":33.666,"lng":-87.23106,"zip":"35560","miles_from_dt":26.12},{"city":"Natural Bridge","state_name":"Alabama","lat":34.09175,"lng":-87.59931,"zip":"35577","miles_from_dt":26.85},{"city":"Jasper","state_name":"Alabama","lat":33.93664,"lng":-87.30147,"zip":"35503","miles_from_dt":26.94},{"city":"Millport","state_name":"Alabama","lat":33.582,"lng":-88.1315,"zip":"35576","miles_from_dt":27.35},{"city":"Sulligent","state_name":"Alabama","lat":33.87332,"lng":-88.13837,"zip":"35586","miles_from_dt":28.64},{"city":"Echola","state_name":"Alabama","lat":33.29891,"lng":-87.77229,"zip":"35457","miles_from_dt":28.7},{"city":"Tuscaloosa","state_name":"Alabama","lat":33.33194,"lng":-87.4683,"zip":"35406","miles_from_dt":28.71},{"city":"Coker","state_name":"Alabama","lat":33.28349,"lng":-87.6854,"zip":"35452","miles_from_dt":29.28},{"city":"Reform","state_name":"Alabama","lat":33.39852,"lng":-88.03934,"zip":"35481","miles_from_dt":29.7},{"city":"Cordova","state_name":"Alabama","lat":33.74249,"lng":-87.16534,"zip":"35550","miles_from_dt":29.82}],"targetCityZipCode":"35542","targetCityState":"Alabama"},"__N_SSG":true}