{"pageProps":{"stateName":"Alabama","cityName":"cullman","nearbyCities":[{"city":"Cullman","state_name":"Alabama","lat":34.23082,"lng":-86.73265,"zip":"35058","miles_from_dt":5.5},{"city":"Cullman","state_name":"Alabama","lat":34.18014,"lng":-86.85111,"zip":"35056","miles_from_dt":5.55},{"city":"Garden City","state_name":"Alabama","lat":34.01394,"lng":-86.74443,"zip":"35070","miles_from_dt":9.71},{"city":"Holly Pond","state_name":"Alabama","lat":34.19718,"lng":-86.5931,"zip":"35083","miles_from_dt":9.97},{"city":"Hanceville","state_name":"Alabama","lat":34.01984,"lng":-86.83108,"zip":"35077","miles_from_dt":10.13},{"city":"Cullman","state_name":"Alabama","lat":34.13788,"lng":-86.95876,"zip":"35057","miles_from_dt":11.48},{"city":"Baileyton","state_name":"Alabama","lat":34.29828,"lng":-86.63496,"zip":"35019","miles_from_dt":12.22},{"city":"Blountsville","state_name":"Alabama","lat":34.10256,"lng":-86.5455,"zip":"35031","miles_from_dt":12.76},{"city":"Eva","state_name":"Alabama","lat":34.34967,"lng":-86.7239,"zip":"35621","miles_from_dt":13.62},{"city":"Vinemont","state_name":"Alabama","lat":34.27004,"lng":-86.96847,"zip":"35179","miles_from_dt":14.39},{"city":"Joppa","state_name":"Alabama","lat":34.30556,"lng":-86.58252,"zip":"35087","miles_from_dt":14.54},{"city":"Hayden","state_name":"Alabama","lat":33.94118,"lng":-86.75261,"zip":"35079","miles_from_dt":14.69},{"city":"Falkville","state_name":"Alabama","lat":34.34491,"lng":-86.89535,"zip":"35622","miles_from_dt":15.28},{"city":"Cleveland","state_name":"Alabama","lat":33.95674,"lng":-86.59904,"zip":"35049","miles_from_dt":16.42},{"city":"Logan","state_name":"Alabama","lat":34.12779,"lng":-87.04626,"zip":"35098","miles_from_dt":16.55},{"city":"Arab","state_name":"Alabama","lat":34.32545,"lng":-86.5033,"zip":"35016","miles_from_dt":18.82},{"city":"Crane Hill","state_name":"Alabama","lat":34.05495,"lng":-87.06527,"zip":"35053","miles_from_dt":18.83},{"city":"Locust Fork","state_name":"Alabama","lat":33.89871,"lng":-86.62526,"zip":"35097","miles_from_dt":19.22},{"city":"Bremen","state_name":"Alabama","lat":33.94517,"lng":-87.02904,"zip":"35033","miles_from_dt":21.14},{"city":"Somerville","state_name":"Alabama","lat":34.46318,"lng":-86.72356,"zip":"35670","miles_from_dt":21.4},{"city":"Horton","state_name":"Alabama","lat":34.17719,"lng":-86.38335,"zip":"35980","miles_from_dt":21.6},{"city":"Trafford","state_name":"Alabama","lat":33.84389,"lng":-86.69788,"zip":"35172","miles_from_dt":21.68},{"city":"Allgood","state_name":"Alabama","lat":33.90166,"lng":-86.51785,"zip":"35013","miles_from_dt":22.25},{"city":"Hartselle","state_name":"Alabama","lat":34.4414,"lng":-86.94315,"zip":"35640","miles_from_dt":22.42},{"city":"Oneonta","state_name":"Alabama","lat":33.9397,"lng":-86.454,"zip":"35121","miles_from_dt":22.92},{"city":"Warrior","state_name":"Alabama","lat":33.82388,"lng":-86.83987,"zip":"35180","miles_from_dt":23.23},{"city":"Union Grove","state_name":"Alabama","lat":34.43731,"lng":-86.51673,"zip":"35175","miles_from_dt":23.95},{"city":"Arley","state_name":"Alabama","lat":34.07936,"lng":-87.1801,"zip":"35541","miles_from_dt":24.67},{"city":"Remlap","state_name":"Alabama","lat":33.81969,"lng":-86.59878,"zip":"35133","miles_from_dt":24.83},{"city":"Addison","state_name":"Alabama","lat":34.23066,"lng":-87.18374,"zip":"35540","miles_from_dt":24.87},{"city":"Douglas","state_name":"Alabama","lat":34.17087,"lng":-86.3229,"zip":"35964","miles_from_dt":25.03},{"city":"Kimberly","state_name":"Alabama","lat":33.78344,"lng":-86.78963,"zip":"35091","miles_from_dt":25.61},{"city":"Laceys Spring","state_name":"Alabama","lat":34.51819,"lng":-86.61099,"zip":"35754","miles_from_dt":26.48},{"city":"Walnut Grove","state_name":"Alabama","lat":34.06676,"lng":-86.3052,"zip":"35990","miles_from_dt":26.72},{"city":"Altoona","state_name":"Alabama","lat":34.05322,"lng":-86.3082,"zip":"35952","miles_from_dt":26.79},{"city":"Empire","state_name":"Alabama","lat":33.8221,"lng":-87.00765,"zip":"35063","miles_from_dt":26.97},{"city":"Danville","state_name":"Alabama","lat":34.38606,"lng":-87.14545,"zip":"35619","miles_from_dt":27.27},{"city":"Valhermoso Springs","state_name":"Alabama","lat":34.5477,"lng":-86.69623,"zip":"35775","miles_from_dt":27.36},{"city":"Guntersville","state_name":"Alabama","lat":34.34819,"lng":-86.32919,"zip":"35976","miles_from_dt":28.02},{"city":"Palmerdale","state_name":"Alabama","lat":33.74773,"lng":-86.64506,"zip":"35123","miles_from_dt":28.77},{"city":"Decatur","state_name":"Alabama","lat":34.53712,"lng":-86.96717,"zip":"35603","miles_from_dt":28.95},{"city":"Morris","state_name":"Alabama","lat":33.73167,"lng":-86.76819,"zip":"35116","miles_from_dt":29.13},{"city":"Decatur","state_name":"Alabama","lat":34.54408,"lng":-86.96337,"zip":"35602","miles_from_dt":29.3},{"city":"Albertville","state_name":"Alabama","lat":34.25273,"lng":-86.26023,"zip":"35950","miles_from_dt":29.38},{"city":"Jasper","state_name":"Alabama","lat":33.89311,"lng":-87.16672,"zip":"35504","miles_from_dt":29.5},{"city":"Sipsey","state_name":"Alabama","lat":33.82161,"lng":-87.08692,"zip":"35584","miles_from_dt":29.65},{"city":"Pinson","state_name":"Alabama","lat":33.73071,"lng":-86.65385,"zip":"35126","miles_from_dt":29.81}],"targetCityZipCode":"35055","targetCityState":"Alabama"},"__N_SSG":true}