{"pageProps":{"stateName":"Alabama","cityName":"estillfork","nearbyCities":[{"city":"Princeton","state_name":"Alabama","lat":34.87342,"lng":-86.27661,"zip":"35766","miles_from_dt":6.37},{"city":"Huntland","state_name":"Tennessee","lat":35.0366,"lng":-86.24299,"zip":"37345","miles_from_dt":7.03},{"city":"Hollytree","state_name":"Alabama","lat":34.81066,"lng":-86.27931,"zip":"35751","miles_from_dt":10.05},{"city":"Belvidere","state_name":"Tennessee","lat":35.09776,"lng":-86.18928,"zip":"37306","miles_from_dt":10.82},{"city":"Elora","state_name":"Tennessee","lat":35.02825,"lng":-86.36876,"zip":"37328","miles_from_dt":11.31},{"city":"New Market","state_name":"Alabama","lat":34.914,"lng":-86.41001,"zip":"35761","miles_from_dt":12.07},{"city":"Scottsboro","state_name":"Alabama","lat":34.77852,"lng":-86.10383,"zip":"35768","miles_from_dt":12.46},{"city":"Trenton","state_name":"Alabama","lat":34.7611,"lng":-86.22805,"zip":"35774","miles_from_dt":12.5},{"city":"Fackler","state_name":"Alabama","lat":34.8287,"lng":-85.99868,"zip":"35746","miles_from_dt":13.81},{"city":"Flintville","state_name":"Tennessee","lat":35.06584,"lng":-86.40548,"zip":"37335","miles_from_dt":14.49},{"city":"Sherwood","state_name":"Tennessee","lat":35.04748,"lng":-85.95834,"zip":"37376","miles_from_dt":15.55},{"city":"Paint Rock","state_name":"Alabama","lat":34.73102,"lng":-86.31381,"zip":"35764","miles_from_dt":15.85},{"city":"Winchester","state_name":"Tennessee","lat":35.18182,"lng":-86.13808,"zip":"37398","miles_from_dt":16.97},{"city":"Stevenson","state_name":"Alabama","lat":34.89152,"lng":-85.88614,"zip":"35772","miles_from_dt":18.15},{"city":"Kelso","state_name":"Tennessee","lat":35.11935,"lng":-86.44222,"zip":"37348","miles_from_dt":18.43},{"city":"Gurley","state_name":"Alabama","lat":34.71925,"lng":-86.39036,"zip":"35748","miles_from_dt":18.73},{"city":"Hollywood","state_name":"Alabama","lat":34.75593,"lng":-85.95119,"zip":"35752","miles_from_dt":19.05},{"city":"Woodville","state_name":"Alabama","lat":34.66083,"lng":-86.24338,"zip":"35776","miles_from_dt":19.47},{"city":"Huntsville","state_name":"Alabama","lat":34.79925,"lng":-86.50386,"zip":"35811","miles_from_dt":19.84},{"city":"Ryland","state_name":"Alabama","lat":34.7704,"lng":-86.48172,"zip":"35767","miles_from_dt":19.86},{"city":"Cowan","state_name":"Tennessee","lat":35.17879,"lng":-85.97994,"zip":"37318","miles_from_dt":20.6},{"city":"Meridianville","state_name":"Alabama","lat":34.86856,"lng":-86.55262,"zip":"35759","miles_from_dt":20.64},{"city":"Mulberry","state_name":"Tennessee","lat":35.19776,"lng":-86.4119,"zip":"37359","miles_from_dt":21.39},{"city":"Brownsboro","state_name":"Alabama","lat":34.7242,"lng":-86.47745,"zip":"35741","miles_from_dt":21.73},{"city":"Hazel Green","state_name":"Alabama","lat":34.95407,"lng":-86.5951,"zip":"35750","miles_from_dt":22.44},{"city":"Sewanee","state_name":"Tennessee","lat":35.15355,"lng":-85.88173,"zip":"37375","miles_from_dt":23.24},{"city":"Normal","state_name":"Alabama","lat":34.79291,"lng":-86.569,"zip":"35762","miles_from_dt":23.32},{"city":"Estill Springs","state_name":"Tennessee","lat":35.28411,"lng":-86.12967,"zip":"37330","miles_from_dt":23.99},{"city":"Decherd","state_name":"Tennessee","lat":35.25251,"lng":-86.00044,"zip":"37324","miles_from_dt":24.27},{"city":"Sewanee","state_name":"Tennessee","lat":35.20984,"lng":-85.91373,"zip":"37383","miles_from_dt":24.63},{"city":"Scottsboro","state_name":"Alabama","lat":34.59255,"lng":-86.09472,"zip":"35769","miles_from_dt":24.76},{"city":"Huntsville","state_name":"Alabama","lat":34.80183,"lng":-86.60264,"zip":"35810","miles_from_dt":24.8},{"city":"Lynchburg","state_name":"Tennessee","lat":35.27981,"lng":-86.35417,"zip":"37352","miles_from_dt":24.93},{"city":"Bridgeport","state_name":"Alabama","lat":34.95009,"lng":-85.75855,"zip":"35740","miles_from_dt":25.07},{"city":"Huntsville","state_name":"Alabama","lat":34.72497,"lng":-86.56304,"zip":"35801","miles_from_dt":25.45},{"city":"Huntsville","state_name":"Alabama","lat":34.73244,"lng":-86.58459,"zip":"35893","miles_from_dt":26.16},{"city":"Huntsville","state_name":"Alabama","lat":34.72998,"lng":-86.5859,"zip":"35804","miles_from_dt":26.32},{"city":"Huntsville","state_name":"Alabama","lat":34.73028,"lng":-86.58611,"zip":"35809","miles_from_dt":26.32},{"city":"Huntsville","state_name":"Alabama","lat":34.73141,"lng":-86.58977,"zip":"35895","miles_from_dt":26.45},{"city":"Fayetteville","state_name":"Tennessee","lat":35.16532,"lng":-86.57966,"zip":"37334","miles_from_dt":26.5},{"city":"South Pittsburg","state_name":"Tennessee","lat":35.07265,"lng":-85.75754,"zip":"37380","miles_from_dt":26.69},{"city":"Owens Cross Roads","state_name":"Alabama","lat":34.62022,"lng":-86.46615,"zip":"35763","miles_from_dt":26.8},{"city":"Arnold Afb","state_name":"Tennessee","lat":35.32018,"lng":-86.06745,"zip":"37389","miles_from_dt":27.2},{"city":"Huntsville","state_name":"Alabama","lat":34.67398,"lng":-86.55449,"zip":"35802","miles_from_dt":27.29},{"city":"Pisgah","state_name":"Alabama","lat":34.69393,"lng":-85.82423,"zip":"35765","miles_from_dt":27.32},{"city":"Huntsville","state_name":"Alabama","lat":34.74054,"lng":-86.62928,"zip":"35899","miles_from_dt":28.04},{"city":"Dutton","state_name":"Alabama","lat":34.61435,"lng":-85.90603,"zip":"35744","miles_from_dt":28.05},{"city":"Huntsville","state_name":"Alabama","lat":34.73923,"lng":-86.62985,"zip":"35816","miles_from_dt":28.11},{"city":"Tullahoma","state_name":"Tennessee","lat":35.35141,"lng":-86.19747,"zip":"37388","miles_from_dt":28.29},{"city":"Taft","state_name":"Tennessee","lat":35.03906,"lng":-86.68569,"zip":"38488","miles_from_dt":28.37},{"city":"Huntsville","state_name":"Alabama","lat":34.7084,"lng":-86.61731,"zip":"35814","miles_from_dt":28.63},{"city":"Huntsville","state_name":"Alabama","lat":34.75318,"lng":-86.65213,"zip":"35896","miles_from_dt":28.77},{"city":"Huntsville","state_name":"Alabama","lat":34.70875,"lng":-86.6219,"zip":"35805","miles_from_dt":28.83},{"city":"Huntsville","state_name":"Alabama","lat":34.71674,"lng":-86.63118,"zip":"35897","miles_from_dt":28.98},{"city":"New Hope","state_name":"Alabama","lat":34.54768,"lng":-86.38324,"zip":"35760","miles_from_dt":29.05},{"city":"Monteagle","state_name":"Tennessee","lat":35.22952,"lng":-85.82393,"zip":"37356","miles_from_dt":29.15},{"city":"Toney","state_name":"Alabama","lat":34.89431,"lng":-86.71282,"zip":"35773","miles_from_dt":29.29},{"city":"Huntsville","state_name":"Alabama","lat":34.6405,"lng":-86.56479,"zip":"35815","miles_from_dt":29.32},{"city":"Huntsville","state_name":"Alabama","lat":34.76615,"lng":-86.68324,"zip":"35806","miles_from_dt":29.99}],"targetCityZipCode":"35745","targetCityState":"Alabama"},"__N_SSG":true}