{"pageProps":{"stateName":"Alabama","cityName":"flomaton","nearbyCities":[{"city":"Century","state_name":"Florida","lat":30.96515,"lng":-87.34673,"zip":"32535","miles_from_dt":7.36},{"city":"Brewton","state_name":"Alabama","lat":31.10793,"lng":-87.07115,"zip":"36427","miles_from_dt":12.06},{"city":"Jay","state_name":"Florida","lat":30.89241,"lng":-87.14071,"zip":"32565","miles_from_dt":12.39},{"city":"Brewton","state_name":"Alabama","lat":31.14386,"lng":-87.076,"zip":"36426","miles_from_dt":12.96},{"city":"Atmore","state_name":"Alabama","lat":31.01945,"lng":-87.47955,"zip":"36504","miles_from_dt":13.17},{"city":"Atmore","state_name":"Alabama","lat":31.15674,"lng":-87.4654,"zip":"36503","miles_from_dt":14.63},{"city":"Atmore","state_name":"Alabama","lat":31.14498,"lng":-87.49303,"zip":"36502","miles_from_dt":15.63},{"city":"McDavid","state_name":"Florida","lat":30.87085,"lng":-87.46792,"zip":"32568","miles_from_dt":17.06},{"city":"Huxford","state_name":"Alabama","lat":31.22129,"lng":-87.46592,"zip":"36543","miles_from_dt":17.48},{"city":"Range","state_name":"Alabama","lat":31.32009,"lng":-87.21967,"zip":"36473","miles_from_dt":19.39},{"city":"Lenox","state_name":"Alabama","lat":31.34368,"lng":-87.20185,"zip":"36454","miles_from_dt":21.15},{"city":"Castleberry","state_name":"Alabama","lat":31.30055,"lng":-87.03888,"zip":"36432","miles_from_dt":22.15},{"city":"Molino","state_name":"Florida","lat":30.73453,"lng":-87.37471,"zip":"32577","miles_from_dt":22.18},{"city":"Uriah","state_name":"Alabama","lat":31.33662,"lng":-87.42582,"zip":"36449","miles_from_dt":22.66},{"city":"Milton","state_name":"Florida","lat":30.80022,"lng":-86.98158,"zip":"32570","miles_from_dt":23.36},{"city":"Repton","state_name":"Alabama","lat":31.38511,"lng":-87.22717,"zip":"36475","miles_from_dt":23.81},{"city":"Perdido","state_name":"Alabama","lat":31.03738,"lng":-87.66274,"zip":"36562","miles_from_dt":23.96},{"city":"Milton","state_name":"Florida","lat":30.67162,"lng":-87.20004,"zip":"32571","miles_from_dt":25.66},{"city":"Mexia","state_name":"Alabama","lat":31.39438,"lng":-87.41633,"zip":"36458","miles_from_dt":26.09},{"city":"Megargel","state_name":"Alabama","lat":31.39438,"lng":-87.41943,"zip":"36457","miles_from_dt":26.16},{"city":"Excel","state_name":"Alabama","lat":31.42252,"lng":-87.34512,"zip":"36439","miles_from_dt":26.8},{"city":"Uriah","state_name":"Alabama","lat":31.32976,"lng":-87.61125,"zip":"36480","miles_from_dt":28.85},{"city":"Cantonment","state_name":"Florida","lat":30.61329,"lng":-87.32561,"zip":"32533","miles_from_dt":29.71},{"city":"Frisco City","state_name":"Alabama","lat":31.44397,"lng":-87.44982,"zip":"36445","miles_from_dt":30}],"targetCityZipCode":"36441","targetCityState":"Alabama"},"__N_SSG":true}