{"pageProps":{"stateName":"Alabama","cityName":"marion-junction","nearbyCities":[{"city":"Safford","state_name":"Alabama","lat":32.28252,"lng":-87.38607,"zip":"36773","miles_from_dt":11.68},{"city":"Uniontown","state_name":"Alabama","lat":32.43832,"lng":-87.49002,"zip":"36786","miles_from_dt":11.87},{"city":"Orrville","state_name":"Alabama","lat":32.25083,"lng":-87.21042,"zip":"36767","miles_from_dt":13.12},{"city":"Selma","state_name":"Alabama","lat":32.49672,"lng":-87.0568,"zip":"36701","miles_from_dt":14.23},{"city":"Selma","state_name":"Alabama","lat":32.40624,"lng":-87.02243,"zip":"36702","miles_from_dt":15.56},{"city":"Newbern","state_name":"Alabama","lat":32.59278,"lng":-87.51933,"zip":"36765","miles_from_dt":17.6},{"city":"Marion","state_name":"Alabama","lat":32.69327,"lng":-87.29873,"zip":"36756","miles_from_dt":18.17},{"city":"Alberta","state_name":"Alabama","lat":32.16493,"lng":-87.34684,"zip":"36720","miles_from_dt":18.58},{"city":"Faunsdale","state_name":"Alabama","lat":32.43421,"lng":-87.62481,"zip":"36738","miles_from_dt":19.73},{"city":"Catherine","state_name":"Alabama","lat":32.16625,"lng":-87.48416,"zip":"36728","miles_from_dt":21.51},{"city":"Selma","state_name":"Alabama","lat":32.43387,"lng":-86.91118,"zip":"36703","miles_from_dt":21.98},{"city":"Thomaston","state_name":"Alabama","lat":32.24085,"lng":-87.6081,"zip":"36783","miles_from_dt":22.84},{"city":"Boykin","state_name":"Alabama","lat":32.06633,"lng":-87.2907,"zip":"36723","miles_from_dt":25.04},{"city":"Sardis","state_name":"Alabama","lat":32.20066,"lng":-86.95487,"zip":"36775","miles_from_dt":25.05},{"city":"Greensboro","state_name":"Alabama","lat":32.69178,"lng":-87.59845,"zip":"36744","miles_from_dt":25.61},{"city":"Jones","state_name":"Alabama","lat":32.54759,"lng":-86.85303,"zip":"36749","miles_from_dt":26.63},{"city":"Gallion","state_name":"Alabama","lat":32.45836,"lng":-87.74215,"zip":"36742","miles_from_dt":26.65},{"city":"Plantersville","state_name":"Alabama","lat":32.6491,"lng":-86.89975,"zip":"36758","miles_from_dt":27.2},{"city":"Tyler","state_name":"Alabama","lat":32.27615,"lng":-86.82683,"zip":"36785","miles_from_dt":28.93},{"city":"Arlington","state_name":"Alabama","lat":32.08124,"lng":-87.57661,"zip":"36722","miles_from_dt":29.39}],"targetCityZipCode":"36759","targetCityState":"Alabama"},"__N_SSG":true}