{"pageProps":{"stateName":"Alabama","cityName":"paint-rock","nearbyCities":[{"city":"Gurley","state_name":"Alabama","lat":34.71925,"lng":-86.39036,"zip":"35748","miles_from_dt":4.43},{"city":"Trenton","state_name":"Alabama","lat":34.7611,"lng":-86.22805,"zip":"35774","miles_from_dt":5.3},{"city":"Hollytree","state_name":"Alabama","lat":34.81066,"lng":-86.27931,"zip":"35751","miles_from_dt":5.83},{"city":"Woodville","state_name":"Alabama","lat":34.66083,"lng":-86.24338,"zip":"35776","miles_from_dt":6.28},{"city":"Brownsboro","state_name":"Alabama","lat":34.7242,"lng":-86.47745,"zip":"35741","miles_from_dt":9.32},{"city":"Ryland","state_name":"Alabama","lat":34.7704,"lng":-86.48172,"zip":"35767","miles_from_dt":9.93},{"city":"Princeton","state_name":"Alabama","lat":34.87342,"lng":-86.27661,"zip":"35766","miles_from_dt":10.04},{"city":"Owens Cross Roads","state_name":"Alabama","lat":34.62022,"lng":-86.46615,"zip":"35763","miles_from_dt":11.56},{"city":"Huntsville","state_name":"Alabama","lat":34.79925,"lng":-86.50386,"zip":"35811","miles_from_dt":11.79},{"city":"Scottsboro","state_name":"Alabama","lat":34.77852,"lng":-86.10383,"zip":"35768","miles_from_dt":12.39},{"city":"New Hope","state_name":"Alabama","lat":34.54768,"lng":-86.38324,"zip":"35760","miles_from_dt":13.24},{"city":"New Market","state_name":"Alabama","lat":34.914,"lng":-86.41001,"zip":"35761","miles_from_dt":13.75},{"city":"Huntsville","state_name":"Alabama","lat":34.72497,"lng":-86.56304,"zip":"35801","miles_from_dt":14.19},{"city":"Huntsville","state_name":"Alabama","lat":34.67398,"lng":-86.55449,"zip":"35802","miles_from_dt":14.25},{"city":"Normal","state_name":"Alabama","lat":34.79291,"lng":-86.569,"zip":"35762","miles_from_dt":15.13},{"city":"Huntsville","state_name":"Alabama","lat":34.73244,"lng":-86.58459,"zip":"35893","miles_from_dt":15.41},{"city":"Huntsville","state_name":"Alabama","lat":34.72998,"lng":-86.5859,"zip":"35804","miles_from_dt":15.48},{"city":"Huntsville","state_name":"Alabama","lat":34.73028,"lng":-86.58611,"zip":"35809","miles_from_dt":15.5},{"city":"Huntsville","state_name":"Alabama","lat":34.6405,"lng":-86.56479,"zip":"35815","miles_from_dt":15.59},{"city":"Huntsville","state_name":"Alabama","lat":34.73141,"lng":-86.58977,"zip":"35895","miles_from_dt":15.7},{"city":"Scottsboro","state_name":"Alabama","lat":34.59255,"lng":-86.09472,"zip":"35769","miles_from_dt":15.71},{"city":"Estillfork","state_name":"Alabama","lat":34.94101,"lng":-86.20002,"zip":"35745","miles_from_dt":15.85},{"city":"Grant","state_name":"Alabama","lat":34.49414,"lng":-86.30497,"zip":"35747","miles_from_dt":16.34},{"city":"Huntsville","state_name":"Alabama","lat":34.56476,"lng":-86.52185,"zip":"35803","miles_from_dt":16.49},{"city":"Meridianville","state_name":"Alabama","lat":34.86856,"lng":-86.55262,"zip":"35759","miles_from_dt":16.56},{"city":"Huntsville","state_name":"Alabama","lat":34.80183,"lng":-86.60264,"zip":"35810","miles_from_dt":17.14},{"city":"Huntsville","state_name":"Alabama","lat":34.7084,"lng":-86.61731,"zip":"35814","miles_from_dt":17.34},{"city":"Huntsville","state_name":"Alabama","lat":34.70875,"lng":-86.6219,"zip":"35805","miles_from_dt":17.6},{"city":"Huntsville","state_name":"Alabama","lat":34.74054,"lng":-86.62928,"zip":"35899","miles_from_dt":17.96},{"city":"Huntsville","state_name":"Alabama","lat":34.73923,"lng":-86.62985,"zip":"35816","miles_from_dt":17.99},{"city":"Huntsville","state_name":"Alabama","lat":34.71674,"lng":-86.63118,"zip":"35897","miles_from_dt":18.09},{"city":"Langston","state_name":"Alabama","lat":34.50676,"lng":-86.12609,"zip":"35755","miles_from_dt":18.8},{"city":"Fackler","state_name":"Alabama","lat":34.8287,"lng":-85.99868,"zip":"35746","miles_from_dt":19.15},{"city":"Huntsville","state_name":"Alabama","lat":34.75318,"lng":-86.65213,"zip":"35896","miles_from_dt":19.31},{"city":"Huntsville","state_name":"Alabama","lat":34.71411,"lng":-86.65353,"zip":"35807","miles_from_dt":19.37},{"city":"Huntsville","state_name":"Alabama","lat":34.62894,"lng":-86.65113,"zip":"35898","miles_from_dt":20.46},{"city":"Huntsville","state_name":"Alabama","lat":34.63249,"lng":-86.65273,"zip":"35812","miles_from_dt":20.46},{"city":"Huntsville","state_name":"Alabama","lat":34.63236,"lng":-86.65579,"zip":"35808","miles_from_dt":20.63},{"city":"Hollywood","state_name":"Alabama","lat":34.75593,"lng":-85.95119,"zip":"35752","miles_from_dt":20.7},{"city":"Elora","state_name":"Tennessee","lat":35.02825,"lng":-86.36876,"zip":"37328","miles_from_dt":20.73},{"city":"Huntsville","state_name":"Alabama","lat":34.76615,"lng":-86.68324,"zip":"35806","miles_from_dt":21.16},{"city":"Huntland","state_name":"Tennessee","lat":35.0366,"lng":-86.24299,"zip":"37345","miles_from_dt":21.45},{"city":"Hazel Green","state_name":"Alabama","lat":34.95407,"lng":-86.5951,"zip":"35750","miles_from_dt":22.18},{"city":"Laceys Spring","state_name":"Alabama","lat":34.51819,"lng":-86.61099,"zip":"35754","miles_from_dt":22.4},{"city":"Section","state_name":"Alabama","lat":34.53635,"lng":-85.99843,"zip":"35771","miles_from_dt":22.43},{"city":"Union Grove","state_name":"Alabama","lat":34.43731,"lng":-86.51673,"zip":"35175","miles_from_dt":23.32},{"city":"Flintville","state_name":"Tennessee","lat":35.06584,"lng":-86.40548,"zip":"37335","miles_from_dt":23.66},{"city":"Dutton","state_name":"Alabama","lat":34.61435,"lng":-85.90603,"zip":"35744","miles_from_dt":24.58},{"city":"Groveoak","state_name":"Alabama","lat":34.43832,"lng":-86.06655,"zip":"35975","miles_from_dt":24.61},{"city":"Madison","state_name":"Alabama","lat":34.71417,"lng":-86.74707,"zip":"35758","miles_from_dt":24.69},{"city":"Madison","state_name":"Alabama","lat":34.78426,"lng":-86.74419,"zip":"35757","miles_from_dt":24.76},{"city":"Valhermoso Springs","state_name":"Alabama","lat":34.5477,"lng":-86.69623,"zip":"35775","miles_from_dt":25.19},{"city":"Toney","state_name":"Alabama","lat":34.89431,"lng":-86.71282,"zip":"35773","miles_from_dt":25.32},{"city":"Huntsville","state_name":"Alabama","lat":34.64561,"lng":-86.75053,"zip":"35813","miles_from_dt":25.55},{"city":"Huntsville","state_name":"Alabama","lat":34.64458,"lng":-86.75193,"zip":"35824","miles_from_dt":25.65},{"city":"Huntsville","state_name":"Alabama","lat":34.6467,"lng":-86.7545,"zip":"35894","miles_from_dt":25.76},{"city":"Harvest","state_name":"Alabama","lat":34.82314,"lng":-86.75662,"zip":"35749","miles_from_dt":25.97},{"city":"Belvidere","state_name":"Tennessee","lat":35.09776,"lng":-86.18928,"zip":"37306","miles_from_dt":26.25},{"city":"Guntersville","state_name":"Alabama","lat":34.34819,"lng":-86.32919,"zip":"35976","miles_from_dt":26.4},{"city":"Stevenson","state_name":"Alabama","lat":34.89152,"lng":-85.88614,"zip":"35772","miles_from_dt":26.71},{"city":"Capshaw","state_name":"Alabama","lat":34.80485,"lng":-86.78195,"zip":"35742","miles_from_dt":27.11},{"city":"Kelso","state_name":"Tennessee","lat":35.11935,"lng":-86.44222,"zip":"37348","miles_from_dt":27.74},{"city":"Pisgah","state_name":"Alabama","lat":34.69393,"lng":-85.82423,"zip":"35765","miles_from_dt":27.98},{"city":"Fyffe","state_name":"Alabama","lat":34.45603,"lng":-85.9466,"zip":"35971","miles_from_dt":28.24},{"city":"Albertville","state_name":"Alabama","lat":34.33713,"lng":-86.1553,"zip":"35951","miles_from_dt":28.62},{"city":"Madison","state_name":"Alabama","lat":34.64287,"lng":-86.82114,"zip":"35756","miles_from_dt":29.52},{"city":"Sherwood","state_name":"Tennessee","lat":35.04748,"lng":-85.95834,"zip":"37376","miles_from_dt":29.72},{"city":"Somerville","state_name":"Alabama","lat":34.46318,"lng":-86.72356,"zip":"35670","miles_from_dt":29.77},{"city":"Taft","state_name":"Tennessee","lat":35.03906,"lng":-86.68569,"zip":"38488","miles_from_dt":29.95},{"city":"Arab","state_name":"Alabama","lat":34.32545,"lng":-86.5033,"zip":"35016","miles_from_dt":29.97}],"targetCityZipCode":"35764","targetCityState":"Alabama"},"__N_SSG":true}