{"pageProps":{"stateName":"Alabama","cityName":"prattville","nearbyCities":[{"city":"Prattville","state_name":"Alabama","lat":32.46122,"lng":-86.44463,"zip":"36068","miles_from_dt":1.87},{"city":"Millbrook","state_name":"Alabama","lat":32.46821,"lng":-86.35962,"zip":"36054","miles_from_dt":3.9},{"city":"Coosada","state_name":"Alabama","lat":32.49616,"lng":-86.31858,"zip":"36020","miles_from_dt":6.25},{"city":"Elmore","state_name":"Alabama","lat":32.54664,"lng":-86.33941,"zip":"36025","miles_from_dt":6.66},{"city":"Montgomery","state_name":"Alabama","lat":32.38343,"lng":-86.36,"zip":"36112","miles_from_dt":7.77},{"city":"Montgomery","state_name":"Alabama","lat":32.39808,"lng":-86.32848,"zip":"36119","miles_from_dt":8.06},{"city":"Montgomery","state_name":"Alabama","lat":32.39794,"lng":-86.32683,"zip":"36103","miles_from_dt":8.13},{"city":"Booth","state_name":"Alabama","lat":32.49747,"lng":-86.56416,"zip":"36008","miles_from_dt":8.24},{"city":"Montgomery","state_name":"Alabama","lat":32.39524,"lng":-86.32646,"zip":"36102","miles_from_dt":8.28},{"city":"Montgomery","state_name":"Alabama","lat":32.38146,"lng":-86.34172,"zip":"36113","miles_from_dt":8.45},{"city":"Montgomery","state_name":"Alabama","lat":32.39889,"lng":-86.31593,"zip":"36104","miles_from_dt":8.55},{"city":"Prattville","state_name":"Alabama","lat":32.51134,"lng":-86.57084,"zip":"36067","miles_from_dt":8.79},{"city":"Deatsville","state_name":"Alabama","lat":32.61951,"lng":-86.40492,"zip":"36022","miles_from_dt":9.53},{"city":"Montgomery","state_name":"Alabama","lat":32.38105,"lng":-86.31045,"zip":"36142","miles_from_dt":9.63},{"city":"Montgomery","state_name":"Alabama","lat":32.33956,"lng":-86.40602,"zip":"36108","miles_from_dt":9.88},{"city":"Montgomery","state_name":"Alabama","lat":32.37897,"lng":-86.30372,"zip":"36177","miles_from_dt":10.01},{"city":"Montgomery","state_name":"Alabama","lat":32.44899,"lng":-86.25566,"zip":"36110","miles_from_dt":10.11},{"city":"Montgomery","state_name":"Alabama","lat":32.38177,"lng":-86.29763,"zip":"36101","miles_from_dt":10.13},{"city":"Montgomery","state_name":"Alabama","lat":32.37935,"lng":-86.2985,"zip":"36131","miles_from_dt":10.21},{"city":"Montgomery","state_name":"Alabama","lat":32.37778,"lng":-86.29926,"zip":"36130","miles_from_dt":10.25},{"city":"Montgomery","state_name":"Alabama","lat":32.38434,"lng":-86.2795,"zip":"36107","miles_from_dt":10.82},{"city":"Montgomery","state_name":"Alabama","lat":32.36493,"lng":-86.29847,"zip":"36123","miles_from_dt":10.92},{"city":"Montgomery","state_name":"Alabama","lat":32.40698,"lng":-86.24783,"zip":"36118","miles_from_dt":11.54},{"city":"Montgomery","state_name":"Alabama","lat":32.40688,"lng":-86.24685,"zip":"36115","miles_from_dt":11.59},{"city":"Montgomery","state_name":"Alabama","lat":32.40484,"lng":-86.24568,"zip":"36114","miles_from_dt":11.72},{"city":"Montgomery","state_name":"Alabama","lat":32.38682,"lng":-86.24052,"zip":"36109","miles_from_dt":12.59},{"city":"Montgomery","state_name":"Alabama","lat":32.31304,"lng":-86.31813,"zip":"36125","miles_from_dt":13.2},{"city":"Montgomery","state_name":"Alabama","lat":32.35264,"lng":-86.25793,"zip":"36106","miles_from_dt":13.2},{"city":"Montgomery","state_name":"Alabama","lat":32.33755,"lng":-86.27154,"zip":"36111","miles_from_dt":13.38},{"city":"Montgomery","state_name":"Alabama","lat":32.32654,"lng":-86.27662,"zip":"36191","miles_from_dt":13.77},{"city":"Marbury","state_name":"Alabama","lat":32.68771,"lng":-86.488,"zip":"36051","miles_from_dt":14.64},{"city":"Montgomery","state_name":"Alabama","lat":32.39363,"lng":-86.17574,"zip":"36124","miles_from_dt":15.75},{"city":"Montgomery","state_name":"Alabama","lat":32.3801,"lng":-86.18188,"zip":"36132","miles_from_dt":15.82},{"city":"Montgomery","state_name":"Alabama","lat":32.31285,"lng":-86.23456,"zip":"36120","miles_from_dt":16.1},{"city":"Wetumpka","state_name":"Alabama","lat":32.61401,"lng":-86.19619,"zip":"36092","miles_from_dt":16.12},{"city":"Wetumpka","state_name":"Alabama","lat":32.49584,"lng":-86.13956,"zip":"36093","miles_from_dt":16.66},{"city":"Lowndesboro","state_name":"Alabama","lat":32.30628,"lng":-86.62544,"zip":"36752","miles_from_dt":16.89},{"city":"Montgomery","state_name":"Alabama","lat":32.38793,"lng":-86.15103,"zip":"36135","miles_from_dt":17.24},{"city":"Titus","state_name":"Alabama","lat":32.70497,"lng":-86.28662,"zip":"36080","miles_from_dt":17.33},{"city":"Montgomery","state_name":"Alabama","lat":32.38691,"lng":-86.14808,"zip":"36141","miles_from_dt":17.43},{"city":"Montgomery","state_name":"Alabama","lat":32.38609,"lng":-86.14699,"zip":"36121","miles_from_dt":17.51},{"city":"Montgomery","state_name":"Alabama","lat":32.38287,"lng":-86.14671,"zip":"36140","miles_from_dt":17.61},{"city":"Montgomery","state_name":"Alabama","lat":32.37831,"lng":-86.14627,"zip":"36117","miles_from_dt":17.75},{"city":"Autaugaville","state_name":"Alabama","lat":32.44651,"lng":-86.72536,"zip":"36003","miles_from_dt":17.76},{"city":"Montgomery","state_name":"Alabama","lat":32.27312,"lng":-86.21765,"zip":"36116","miles_from_dt":18.8},{"city":"Verbena","state_name":"Alabama","lat":32.74881,"lng":-86.52021,"zip":"36091","miles_from_dt":19.21},{"city":"Hope Hull","state_name":"Alabama","lat":32.1939,"lng":-86.42811,"zip":"36043","miles_from_dt":19.86},{"city":"Montgomery","state_name":"Alabama","lat":32.21808,"lng":-86.28778,"zip":"36105","miles_from_dt":19.87},{"city":"Billingsley","state_name":"Alabama","lat":32.63831,"lng":-86.72531,"zip":"36006","miles_from_dt":20.6},{"city":"Mount Meigs","state_name":"Alabama","lat":32.37464,"lng":-86.08461,"zip":"36057","miles_from_dt":21.19},{"city":"Pike Road","state_name":"Alabama","lat":32.3008,"lng":-86.08186,"zip":"36064","miles_from_dt":23.6},{"city":"Hayneville","state_name":"Alabama","lat":32.17795,"lng":-86.66972,"zip":"36040","miles_from_dt":25.41},{"city":"Jones","state_name":"Alabama","lat":32.54759,"lng":-86.85303,"zip":"36749","miles_from_dt":25.43},{"city":"Eclectic","state_name":"Alabama","lat":32.6654,"lng":-86.03312,"zip":"36024","miles_from_dt":26.08},{"city":"Equality","state_name":"Alabama","lat":32.77587,"lng":-86.13269,"zip":"36026","miles_from_dt":26.43},{"city":"Clanton","state_name":"Alabama","lat":32.81127,"lng":-86.67249,"zip":"35045","miles_from_dt":26.9},{"city":"Tyler","state_name":"Alabama","lat":32.27615,"lng":-86.82683,"zip":"36785","miles_from_dt":27.49},{"city":"Letohatchee","state_name":"Alabama","lat":32.07868,"lng":-86.52474,"zip":"36047","miles_from_dt":28.42},{"city":"Rockford","state_name":"Alabama","lat":32.87877,"lng":-86.28965,"zip":"35136","miles_from_dt":28.43},{"city":"Selma","state_name":"Alabama","lat":32.43387,"lng":-86.91118,"zip":"36703","miles_from_dt":28.64},{"city":"Tallassee","state_name":"Alabama","lat":32.53991,"lng":-85.93328,"zip":"36078","miles_from_dt":28.94},{"city":"Cecil","state_name":"Alabama","lat":32.2976,"lng":-85.97959,"zip":"36013","miles_from_dt":28.94},{"city":"Kent","state_name":"Alabama","lat":32.6188,"lng":-85.94954,"zip":"36045","miles_from_dt":29.26}],"targetCityZipCode":"36066","targetCityState":"Alabama"},"__N_SSG":true}