{"pageProps":{"stateName":"Alabama","cityName":"rainsville","nearbyCities":[{"city":"Fort Payne","state_name":"Alabama","lat":34.48095,"lng":-85.77232,"zip":"35968","miles_from_dt":4.22},{"city":"Sylvania","state_name":"Alabama","lat":34.5589,"lng":-85.79994,"zip":"35988","miles_from_dt":4.35},{"city":"Fyffe","state_name":"Alabama","lat":34.45603,"lng":-85.9466,"zip":"35971","miles_from_dt":6.96},{"city":"Dutton","state_name":"Alabama","lat":34.61435,"lng":-85.90603,"zip":"35744","miles_from_dt":8.41},{"city":"Section","state_name":"Alabama","lat":34.53635,"lng":-85.99843,"zip":"35771","miles_from_dt":9.28},{"city":"Fort Payne","state_name":"Alabama","lat":34.3981,"lng":-85.69698,"zip":"35967","miles_from_dt":11.02},{"city":"Henagar","state_name":"Alabama","lat":34.64239,"lng":-85.72983,"zip":"35978","miles_from_dt":11.35},{"city":"Dawson","state_name":"Alabama","lat":34.35812,"lng":-85.93114,"zip":"35963","miles_from_dt":11.4},{"city":"Pisgah","state_name":"Alabama","lat":34.69393,"lng":-85.82423,"zip":"35765","miles_from_dt":13.04},{"city":"Groveoak","state_name":"Alabama","lat":34.43832,"lng":-86.06655,"zip":"35975","miles_from_dt":13.72},{"city":"Geraldine","state_name":"Alabama","lat":34.36284,"lng":-86.0099,"zip":"35974","miles_from_dt":13.8},{"city":"Valley Head","state_name":"Alabama","lat":34.60858,"lng":-85.63162,"zip":"35989","miles_from_dt":13.86},{"city":"Mentone","state_name":"Alabama","lat":34.52781,"lng":-85.56594,"zip":"35984","miles_from_dt":15.72},{"city":"Scottsboro","state_name":"Alabama","lat":34.59255,"lng":-86.09472,"zip":"35769","miles_from_dt":15.72},{"city":"Collinsville","state_name":"Alabama","lat":34.27753,"lng":-85.86241,"zip":"35961","miles_from_dt":15.75},{"city":"Langston","state_name":"Alabama","lat":34.50676,"lng":-86.12609,"zip":"35755","miles_from_dt":16.32},{"city":"Crossville","state_name":"Alabama","lat":34.29916,"lng":-86.03795,"zip":"35962","miles_from_dt":18.15},{"city":"Hollywood","state_name":"Alabama","lat":34.75593,"lng":-85.95119,"zip":"35752","miles_from_dt":18.4},{"city":"Ider","state_name":"Alabama","lat":34.72218,"lng":-85.64072,"zip":"35981","miles_from_dt":18.78},{"city":"Gaylesville","state_name":"Alabama","lat":34.34222,"lng":-85.5554,"zip":"35973","miles_from_dt":19.77},{"city":"Menlo","state_name":"Georgia","lat":34.58317,"lng":-85.47894,"zip":"30731","miles_from_dt":21.29},{"city":"Albertville","state_name":"Alabama","lat":34.33713,"lng":-86.1553,"zip":"35951","miles_from_dt":21.41},{"city":"Flat Rock","state_name":"Alabama","lat":34.79696,"lng":-85.68833,"zip":"35966","miles_from_dt":21.89},{"city":"Cedar Bluff","state_name":"Alabama","lat":34.23968,"lng":-85.60575,"zip":"35959","miles_from_dt":22.68},{"city":"Leesburg","state_name":"Alabama","lat":34.17088,"lng":-85.76746,"zip":"35983","miles_from_dt":23.42},{"city":"Fackler","state_name":"Alabama","lat":34.8287,"lng":-85.99868,"zip":"35746","miles_from_dt":24.06},{"city":"Scottsboro","state_name":"Alabama","lat":34.77852,"lng":-86.10383,"zip":"35768","miles_from_dt":24.09},{"city":"Woodville","state_name":"Alabama","lat":34.66083,"lng":-86.24338,"zip":"35776","miles_from_dt":25.37},{"city":"Higdon","state_name":"Alabama","lat":34.82994,"lng":-85.6125,"zip":"35979","miles_from_dt":25.87},{"city":"Lyerly","state_name":"Georgia","lat":34.36017,"lng":-85.42172,"zip":"30730","miles_from_dt":25.9},{"city":"Grant","state_name":"Alabama","lat":34.49414,"lng":-86.30497,"zip":"35747","miles_from_dt":26.54},{"city":"Stevenson","state_name":"Alabama","lat":34.89152,"lng":-85.88614,"zip":"35772","miles_from_dt":26.76},{"city":"Trenton","state_name":"Alabama","lat":34.7611,"lng":-86.22805,"zip":"35774","miles_from_dt":28.28},{"city":"Rising Fawn","state_name":"Georgia","lat":34.79534,"lng":-85.47846,"zip":"30738","miles_from_dt":28.71},{"city":"Albertville","state_name":"Alabama","lat":34.25273,"lng":-86.26023,"zip":"35950","miles_from_dt":29.65},{"city":"Boaz","state_name":"Alabama","lat":34.19105,"lng":-86.19531,"zip":"35957","miles_from_dt":29.69},{"city":"Guntersville","state_name":"Alabama","lat":34.34819,"lng":-86.32919,"zip":"35976","miles_from_dt":29.96}],"targetCityZipCode":"35986","targetCityState":"Alabama"},"__N_SSG":true}