{"pageProps":{"stateName":"Alabama","cityName":"stapleton","nearbyCities":[{"city":"Daphne","state_name":"Alabama","lat":30.69679,"lng":-87.87734,"zip":"36527","miles_from_dt":6.86},{"city":"Loxley","state_name":"Alabama","lat":30.63982,"lng":-87.7504,"zip":"36551","miles_from_dt":6.94},{"city":"Spanish Fort","state_name":"Alabama","lat":30.67444,"lng":-87.88415,"zip":"36577","miles_from_dt":7.97},{"city":"Bay Minette","state_name":"Alabama","lat":30.85893,"lng":-87.74188,"zip":"36507","miles_from_dt":8.49},{"city":"Daphne","state_name":"Alabama","lat":30.61187,"lng":-87.86151,"zip":"36526","miles_from_dt":10.21},{"city":"Montrose","state_name":"Alabama","lat":30.56894,"lng":-87.90393,"zip":"36559","miles_from_dt":14.06},{"city":"Silverhill","state_name":"Alabama","lat":30.52654,"lng":-87.76654,"zip":"36576","miles_from_dt":14.62},{"city":"Robertsdale","state_name":"Alabama","lat":30.61483,"lng":-87.55792,"zip":"36567","miles_from_dt":15.38},{"city":"Mobile","state_name":"Alabama","lat":30.69834,"lng":-88.03815,"zip":"36602","miles_from_dt":16.04},{"city":"Mobile","state_name":"Alabama","lat":30.6943,"lng":-88.04192,"zip":"36644","miles_from_dt":16.31},{"city":"Mobile","state_name":"Alabama","lat":30.6912,"lng":-88.04205,"zip":"36691","miles_from_dt":16.36},{"city":"Mobile","state_name":"Alabama","lat":30.69385,"lng":-88.04518,"zip":"36628","miles_from_dt":16.51},{"city":"Mobile","state_name":"Alabama","lat":30.69555,"lng":-88.04694,"zip":"36675","miles_from_dt":16.59},{"city":"Mobile","state_name":"Alabama","lat":30.69745,"lng":-88.04988,"zip":"36601","miles_from_dt":16.74},{"city":"Mobile","state_name":"Alabama","lat":30.68426,"lng":-88.05273,"zip":"36603","miles_from_dt":17.08},{"city":"Fairhope","state_name":"Alabama","lat":30.49152,"lng":-87.85555,"zip":"36533","miles_from_dt":17.73},{"city":"Mobile","state_name":"Alabama","lat":30.73721,"lng":-88.07389,"zip":"36610","miles_from_dt":17.92},{"city":"Mobile","state_name":"Alabama","lat":30.68127,"lng":-88.06783,"zip":"36640","miles_from_dt":18},{"city":"Mobile","state_name":"Alabama","lat":30.68229,"lng":-88.06837,"zip":"36604","miles_from_dt":18.02},{"city":"Mobile","state_name":"Alabama","lat":30.6827,"lng":-88.06879,"zip":"36641","miles_from_dt":18.04},{"city":"Creola","state_name":"Alabama","lat":30.8898,"lng":-88.02329,"zip":"36525","miles_from_dt":18.17},{"city":"Summerdale","state_name":"Alabama","lat":30.48085,"lng":-87.70321,"zip":"36580","miles_from_dt":18.24},{"city":"Mobile","state_name":"Alabama","lat":30.7702,"lng":-88.07747,"zip":"36611","miles_from_dt":18.26},{"city":"Fairhope","state_name":"Alabama","lat":30.48197,"lng":-87.86207,"zip":"36532","miles_from_dt":18.47},{"city":"Mobile","state_name":"Alabama","lat":30.77528,"lng":-88.08106,"zip":"36671","miles_from_dt":18.52},{"city":"Mobile","state_name":"Alabama","lat":30.69586,"lng":-88.0803,"zip":"36652","miles_from_dt":18.54},{"city":"Satsuma","state_name":"Alabama","lat":30.85617,"lng":-88.05956,"zip":"36572","miles_from_dt":18.88},{"city":"Mobile","state_name":"Alabama","lat":30.63563,"lng":-88.06717,"zip":"36615","miles_from_dt":18.91},{"city":"Mobile","state_name":"Alabama","lat":30.71544,"lng":-88.09518,"zip":"36617","miles_from_dt":19.26},{"city":"Mobile","state_name":"Alabama","lat":30.6743,"lng":-88.08773,"zip":"36660","miles_from_dt":19.27},{"city":"Mobile","state_name":"Alabama","lat":30.699,"lng":-88.10552,"zip":"36607","miles_from_dt":19.99},{"city":"Mobile","state_name":"Alabama","lat":30.73683,"lng":-88.10896,"zip":"36663","miles_from_dt":20.01},{"city":"Mobile","state_name":"Alabama","lat":30.70005,"lng":-88.10812,"zip":"36670","miles_from_dt":20.14},{"city":"Mobile","state_name":"Alabama","lat":30.75283,"lng":-88.11285,"zip":"36612","miles_from_dt":20.26},{"city":"McDavid","state_name":"Florida","lat":30.87085,"lng":-87.46792,"zip":"32568","miles_from_dt":20.29},{"city":"Point Clear","state_name":"Alabama","lat":30.46983,"lng":-87.91467,"zip":"36564","miles_from_dt":20.36},{"city":"Mobile","state_name":"Alabama","lat":30.67088,"lng":-88.10617,"zip":"36606","miles_from_dt":20.39},{"city":"Mobile","state_name":"Alabama","lat":30.67081,"lng":-88.10647,"zip":"36633","miles_from_dt":20.41},{"city":"Axis","state_name":"Alabama","lat":30.94978,"lng":-88.0225,"zip":"36505","miles_from_dt":20.78},{"city":"Mobile","state_name":"Alabama","lat":30.60649,"lng":-88.09064,"zip":"36605","miles_from_dt":21.01},{"city":"Saraland","state_name":"Alabama","lat":30.85055,"lng":-88.10415,"zip":"36571","miles_from_dt":21.16},{"city":"Perdido","state_name":"Alabama","lat":31.03738,"lng":-87.66274,"zip":"36562","miles_from_dt":21.59},{"city":"Mobile","state_name":"Alabama","lat":30.6674,"lng":-88.12781,"zip":"36616","miles_from_dt":21.7},{"city":"Bucks","state_name":"Alabama","lat":31.00327,"lng":-88.01023,"zip":"36512","miles_from_dt":23.05},{"city":"Seminole","state_name":"Alabama","lat":30.5141,"lng":-87.48258,"zip":"36574","miles_from_dt":23.2},{"city":"Magnolia Springs","state_name":"Alabama","lat":30.40006,"lng":-87.77312,"zip":"36555","miles_from_dt":23.33},{"city":"Molino","state_name":"Florida","lat":30.73453,"lng":-87.37471,"zip":"32577","miles_from_dt":23.69},{"city":"Mobile","state_name":"Alabama","lat":30.62676,"lng":-88.14989,"zip":"36693","miles_from_dt":23.74},{"city":"Mobile","state_name":"Alabama","lat":30.73612,"lng":-88.17333,"zip":"36618","miles_from_dt":23.84},{"city":"Mobile","state_name":"Alabama","lat":30.68864,"lng":-88.16983,"zip":"36689","miles_from_dt":23.88},{"city":"Mobile","state_name":"Alabama","lat":30.66086,"lng":-88.16378,"zip":"36609","miles_from_dt":23.89},{"city":"Foley","state_name":"Alabama","lat":30.40369,"lng":-87.65888,"zip":"36536","miles_from_dt":24.05},{"city":"Foley","state_name":"Alabama","lat":30.38562,"lng":-87.72514,"zip":"36535","miles_from_dt":24.49},{"city":"Eight Mile","state_name":"Alabama","lat":30.81175,"lng":-88.18176,"zip":"36613","miles_from_dt":24.84},{"city":"Mobile","state_name":"Alabama","lat":30.69559,"lng":-88.18783,"zip":"36688","miles_from_dt":24.88},{"city":"Stockton","state_name":"Alabama","lat":31.11395,"lng":-87.78616,"zip":"36579","miles_from_dt":25.87},{"city":"Elberta","state_name":"Alabama","lat":30.41192,"lng":-87.55445,"zip":"36530","miles_from_dt":26},{"city":"Atmore","state_name":"Alabama","lat":31.01945,"lng":-87.47955,"zip":"36504","miles_from_dt":26.03},{"city":"Mobile","state_name":"Alabama","lat":30.59488,"lng":-88.19302,"zip":"36619","miles_from_dt":26.92},{"city":"Cantonment","state_name":"Florida","lat":30.61329,"lng":-87.32561,"zip":"32533","miles_from_dt":27.99},{"city":"Theodore","state_name":"Alabama","lat":30.53346,"lng":-88.18469,"zip":"36590","miles_from_dt":28.32},{"city":"Theodore","state_name":"Alabama","lat":30.51616,"lng":-88.17719,"zip":"36582","miles_from_dt":28.56},{"city":"Chunchula","state_name":"Alabama","lat":30.96241,"lng":-88.18526,"zip":"36521","miles_from_dt":28.96},{"city":"Mount Vernon","state_name":"Alabama","lat":31.08553,"lng":-88.04991,"zip":"36560","miles_from_dt":29.02},{"city":"Pensacola","state_name":"Florida","lat":30.49824,"lng":-87.36543,"zip":"32526","miles_from_dt":29.38},{"city":"Bon Secour","state_name":"Alabama","lat":30.31173,"lng":-87.74259,"zip":"36511","miles_from_dt":29.47},{"city":"Lillian","state_name":"Alabama","lat":30.41377,"lng":-87.44951,"zip":"36549","miles_from_dt":29.53},{"city":"Century","state_name":"Florida","lat":30.96515,"lng":-87.34673,"zip":"32535","miles_from_dt":29.74},{"city":"Semmes","state_name":"Alabama","lat":30.76825,"lng":-88.27276,"zip":"36575","miles_from_dt":29.82}],"targetCityZipCode":"36578","targetCityState":"Alabama"},"__N_SSG":true}