{"pageProps":{"stateName":"Massachusetts","cityName":"cherry-valley","nearbyCities":[{"city":"Worcester","state_name":"Massachusetts","lat":42.24373,"lng":-71.84429,"zip":"01603","miles_from_dt":1.7},{"city":"Leicester","state_name":"Massachusetts","lat":42.24919,"lng":-71.91989,"zip":"01524","miles_from_dt":2.3},{"city":"Worcester","state_name":"Massachusetts","lat":42.27219,"lng":-71.84946,"zip":"01602","miles_from_dt":2.67},{"city":"Rochdale","state_name":"Massachusetts","lat":42.20241,"lng":-71.90995,"zip":"01542","miles_from_dt":3.06},{"city":"Auburn","state_name":"Massachusetts","lat":42.19689,"lng":-71.84549,"zip":"01501","miles_from_dt":3.35},{"city":"Worcester","state_name":"Massachusetts","lat":42.24645,"lng":-71.80968,"zip":"01610","miles_from_dt":3.49},{"city":"Worcester","state_name":"Massachusetts","lat":42.28592,"lng":-71.82853,"zip":"01609","miles_from_dt":4.06},{"city":"Worcester","state_name":"Massachusetts","lat":42.27022,"lng":-71.80933,"zip":"01615","miles_from_dt":4.07},{"city":"Worcester","state_name":"Massachusetts","lat":42.2711,"lng":-71.80974,"zip":"01601","miles_from_dt":4.08},{"city":"Worcester","state_name":"Massachusetts","lat":42.2621,"lng":-71.80145,"zip":"01608","miles_from_dt":4.18},{"city":"Worcester","state_name":"Massachusetts","lat":42.26092,"lng":-71.79949,"zip":"01614","miles_from_dt":4.24},{"city":"Worcester","state_name":"Massachusetts","lat":42.26574,"lng":-71.79653,"zip":"01613","miles_from_dt":4.51},{"city":"Worcester","state_name":"Massachusetts","lat":42.22684,"lng":-71.79037,"zip":"01607","miles_from_dt":4.53},{"city":"North Oxford","state_name":"Massachusetts","lat":42.16177,"lng":-71.89217,"zip":"01537","miles_from_dt":5.42},{"city":"Paxton","state_name":"Massachusetts","lat":42.31037,"lng":-71.93095,"zip":"01612","miles_from_dt":5.62},{"city":"Worcester","state_name":"Massachusetts","lat":42.25085,"lng":-71.7683,"zip":"01604","miles_from_dt":5.63},{"city":"Worcester","state_name":"Massachusetts","lat":42.28979,"lng":-71.78802,"zip":"01605","miles_from_dt":5.74},{"city":"Spencer","state_name":"Massachusetts","lat":42.24715,"lng":-71.99189,"zip":"01562","miles_from_dt":5.91},{"city":"Millbury","state_name":"Massachusetts","lat":42.19228,"lng":-71.77397,"zip":"01527","miles_from_dt":6.21},{"city":"Worcester","state_name":"Massachusetts","lat":42.2927,"lng":-71.77904,"zip":"01653","miles_from_dt":6.22},{"city":"Worcester","state_name":"Massachusetts","lat":42.27687,"lng":-71.76122,"zip":"01655","miles_from_dt":6.47},{"city":"Worcester","state_name":"Massachusetts","lat":42.31367,"lng":-71.79614,"zip":"01606","miles_from_dt":6.59},{"city":"Charlton Depot","state_name":"Massachusetts","lat":42.173,"lng":-71.97562,"zip":"01509","miles_from_dt":6.83},{"city":"Holden","state_name":"Massachusetts","lat":42.33685,"lng":-71.85181,"zip":"01520","miles_from_dt":6.85},{"city":"Shrewsbury","state_name":"Massachusetts","lat":42.29182,"lng":-71.74599,"zip":"01546","miles_from_dt":7.63},{"city":"Charlton City","state_name":"Massachusetts","lat":42.15139,"lng":-71.9896,"zip":"01508","miles_from_dt":8.39},{"city":"Oxford","state_name":"Massachusetts","lat":42.11649,"lng":-71.85819,"zip":"01540","miles_from_dt":8.54},{"city":"Charlton","state_name":"Massachusetts","lat":42.13509,"lng":-71.96803,"zip":"01507","miles_from_dt":8.59},{"city":"Shrewsbury","state_name":"Massachusetts","lat":42.28419,"lng":-71.71558,"zip":"01545","miles_from_dt":8.83},{"city":"East Brookfield","state_name":"Massachusetts","lat":42.20328,"lng":-72.04669,"zip":"01515","miles_from_dt":9.06},{"city":"North Grafton","state_name":"Massachusetts","lat":42.23189,"lng":-71.69219,"zip":"01536","miles_from_dt":9.49},{"city":"Sutton","state_name":"Massachusetts","lat":42.13387,"lng":-71.75179,"zip":"01590","miles_from_dt":9.72},{"city":"Jefferson","state_name":"Massachusetts","lat":42.38142,"lng":-71.87111,"zip":"01522","miles_from_dt":9.8},{"city":"West Boylston","state_name":"Massachusetts","lat":42.37034,"lng":-71.78502,"zip":"01583","miles_from_dt":10.19},{"city":"Grafton","state_name":"Massachusetts","lat":42.20077,"lng":-71.67892,"zip":"01519","miles_from_dt":10.51},{"city":"North Brookfield","state_name":"Massachusetts","lat":42.2695,"lng":-72.07794,"zip":"01535","miles_from_dt":10.51},{"city":"Rutland","state_name":"Massachusetts","lat":42.38482,"lng":-71.96726,"zip":"01543","miles_from_dt":11.05},{"city":"South Grafton","state_name":"Massachusetts","lat":42.17496,"lng":-71.67762,"zip":"01560","miles_from_dt":11.16},{"city":"Boylston","state_name":"Massachusetts","lat":42.35633,"lng":-71.72123,"zip":"01505","miles_from_dt":11.35},{"city":"Oakham","state_name":"Massachusetts","lat":42.35125,"lng":-72.04776,"zip":"01068","miles_from_dt":11.67},{"city":"Brookfield","state_name":"Massachusetts","lat":42.19364,"lng":-72.10441,"zip":"01506","miles_from_dt":12.09},{"city":"Manchaug","state_name":"Massachusetts","lat":42.08955,"lng":-71.74667,"zip":"01526","miles_from_dt":12.32},{"city":"Webster","state_name":"Massachusetts","lat":42.05206,"lng":-71.8485,"zip":"01570","miles_from_dt":13.02},{"city":"Dudley","state_name":"Massachusetts","lat":42.05501,"lng":-71.93519,"zip":"01571","miles_from_dt":13.08},{"city":"Northborough","state_name":"Massachusetts","lat":42.32314,"lng":-71.64621,"zip":"01532","miles_from_dt":13.16},{"city":"Whitinsville","state_name":"Massachusetts","lat":42.11837,"lng":-71.66836,"zip":"01588","miles_from_dt":13.59},{"city":"Westborough","state_name":"Massachusetts","lat":42.26815,"lng":-71.61402,"zip":"01581","miles_from_dt":13.63},{"city":"Northbridge","state_name":"Massachusetts","lat":42.13991,"lng":-71.64433,"zip":"01534","miles_from_dt":13.78},{"city":"Sturbridge","state_name":"Massachusetts","lat":42.1047,"lng":-72.07745,"zip":"01566","miles_from_dt":13.87},{"city":"New Braintree","state_name":"Massachusetts","lat":42.31929,"lng":-72.12794,"zip":"01531","miles_from_dt":13.99},{"city":"West Millbury","state_name":"Massachusetts","lat":42.12631,"lng":-71.64613,"zip":"01586","miles_from_dt":14.19},{"city":"Douglas","state_name":"Massachusetts","lat":42.0528,"lng":-71.75106,"zip":"01516","miles_from_dt":14.42},{"city":"Upton","state_name":"Massachusetts","lat":42.17694,"lng":-71.60516,"zip":"01568","miles_from_dt":14.6},{"city":"West Brookfield","state_name":"Massachusetts","lat":42.23762,"lng":-72.16311,"zip":"01585","miles_from_dt":14.67},{"city":"Southbridge","state_name":"Massachusetts","lat":42.06039,"lng":-72.03377,"zip":"01550","miles_from_dt":14.75},{"city":"Sterling","state_name":"Massachusetts","lat":42.44124,"lng":-71.77297,"zip":"01564","miles_from_dt":14.91},{"city":"Princeton","state_name":"Massachusetts","lat":42.45649,"lng":-71.88128,"zip":"01541","miles_from_dt":14.98},{"city":"Fiskdale","state_name":"Massachusetts","lat":42.11342,"lng":-72.11632,"zip":"01518","miles_from_dt":15.05},{"city":"South Barre","state_name":"Massachusetts","lat":42.3837,"lng":-72.10021,"zip":"01074","miles_from_dt":15.16},{"city":"Clinton","state_name":"Massachusetts","lat":42.4119,"lng":-71.68883,"zip":"01510","miles_from_dt":15.32},{"city":"Linwood","state_name":"Massachusetts","lat":42.09899,"lng":-71.64296,"zip":"01525","miles_from_dt":15.44},{"city":"Quinebaug","state_name":"Connecticut","lat":42.01871,"lng":-71.94959,"zip":"06262","miles_from_dt":15.68},{"city":"Wheelwright","state_name":"Massachusetts","lat":42.36481,"lng":-72.13548,"zip":"01094","miles_from_dt":15.82},{"city":"Fabyan","state_name":"Connecticut","lat":42.01424,"lng":-71.93716,"zip":"06245","miles_from_dt":15.85},{"city":"Berlin","state_name":"Massachusetts","lat":42.38378,"lng":-71.63552,"zip":"01503","miles_from_dt":15.88},{"city":"North Uxbridge","state_name":"Massachusetts","lat":42.09026,"lng":-71.63989,"zip":"01538","miles_from_dt":15.95},{"city":"Woodville","state_name":"Massachusetts","lat":42.23233,"lng":-71.55963,"zip":"01784","miles_from_dt":16.29},{"city":"Warren","state_name":"Massachusetts","lat":42.20652,"lng":-72.19906,"zip":"01083","miles_from_dt":16.68},{"city":"Barre","state_name":"Massachusetts","lat":42.42117,"lng":-72.10655,"zip":"01005","miles_from_dt":17.19},{"city":"South Lancaster","state_name":"Massachusetts","lat":42.44581,"lng":-71.68845,"zip":"01561","miles_from_dt":17.21},{"city":"Gilbertville","state_name":"Massachusetts","lat":42.32782,"lng":-72.19191,"zip":"01031","miles_from_dt":17.25},{"city":"North Grosvenordale","state_name":"Connecticut","lat":41.98791,"lng":-71.90299,"zip":"06255","miles_from_dt":17.41},{"city":"Hopkinton","state_name":"Massachusetts","lat":42.2255,"lng":-71.53781,"zip":"01748","miles_from_dt":17.43},{"city":"Uxbridge","state_name":"Massachusetts","lat":42.05895,"lng":-71.63741,"zip":"01569","miles_from_dt":17.51},{"city":"Hubbardston","state_name":"Massachusetts","lat":42.48378,"lng":-72.00514,"zip":"01452","miles_from_dt":18.09},{"city":"East Woodstock","state_name":"Connecticut","lat":41.98632,"lng":-71.97448,"zip":"06244","miles_from_dt":18.17},{"city":"Southborough","state_name":"Massachusetts","lat":42.30144,"lng":-71.5304,"zip":"01772","miles_from_dt":18.28},{"city":"Brimfield","state_name":"Massachusetts","lat":42.12904,"lng":-72.20597,"zip":"01010","miles_from_dt":18.53},{"city":"Marlborough","state_name":"Massachusetts","lat":42.3494,"lng":-71.54681,"zip":"01752","miles_from_dt":18.54},{"city":"Hardwick","state_name":"Massachusetts","lat":42.37063,"lng":-72.19466,"zip":"01037","miles_from_dt":18.62},{"city":"Grosvenor Dale","state_name":"Connecticut","lat":41.96956,"lng":-71.8943,"zip":"06246","miles_from_dt":18.65},{"city":"West Warren","state_name":"Massachusetts","lat":42.20008,"lng":-72.23715,"zip":"01092","miles_from_dt":18.67},{"city":"Thompson","state_name":"Connecticut","lat":41.96895,"lng":-71.83927,"zip":"06277","miles_from_dt":18.77},{"city":"Milford","state_name":"Massachusetts","lat":42.15723,"lng":-71.51978,"zip":"01757","miles_from_dt":19.19},{"city":"Hopedale","state_name":"Massachusetts","lat":42.12477,"lng":-71.535,"zip":"01747","miles_from_dt":19.26},{"city":"Holland","state_name":"Massachusetts","lat":42.06012,"lng":-72.16592,"zip":"01521","miles_from_dt":19.32},{"city":"Bolton","state_name":"Massachusetts","lat":42.43616,"lng":-71.60728,"zip":"01740","miles_from_dt":19.37},{"city":"Lancaster","state_name":"Massachusetts","lat":42.48176,"lng":-71.68079,"zip":"01523","miles_from_dt":19.51},{"city":"Mendon","state_name":"Massachusetts","lat":42.09301,"lng":-71.55146,"zip":"01756","miles_from_dt":19.53},{"city":"Fayville","state_name":"Massachusetts","lat":42.29155,"lng":-71.50101,"zip":"01745","miles_from_dt":19.61},{"city":"Woodstock","state_name":"Connecticut","lat":41.97253,"lng":-72.01458,"zip":"06281","miles_from_dt":19.73},{"city":"Hudson","state_name":"Massachusetts","lat":42.38868,"lng":-71.54648,"zip":"01749","miles_from_dt":19.82},{"city":"Pascoag","state_name":"Rhode Island","lat":41.9665,"lng":-71.7464,"zip":"02859","miles_from_dt":20},{"city":"Leominster","state_name":"Massachusetts","lat":42.51961,"lng":-71.76583,"zip":"01453","miles_from_dt":20.16},{"city":"Millville","state_name":"Massachusetts","lat":42.03906,"lng":-71.57767,"zip":"01529","miles_from_dt":20.68},{"city":"Ware","state_name":"Massachusetts","lat":42.29816,"lng":-72.27676,"zip":"01082","miles_from_dt":20.89},{"city":"Ashland","state_name":"Massachusetts","lat":42.25726,"lng":-71.46867,"zip":"01721","miles_from_dt":20.98},{"city":"Still River","state_name":"Massachusetts","lat":42.48365,"lng":-71.62161,"zip":"01467","miles_from_dt":21.33},{"city":"Glendale","state_name":"Rhode Island","lat":41.98248,"lng":-71.64539,"zip":"02826","miles_from_dt":21.36},{"city":"Harrisville","state_name":"Rhode Island","lat":41.98016,"lng":-71.6484,"zip":"02830","miles_from_dt":21.41},{"city":"Westminster","state_name":"Massachusetts","lat":42.55122,"lng":-71.90266,"zip":"01473","miles_from_dt":21.56},{"city":"South Woodstock","state_name":"Connecticut","lat":41.9302,"lng":-71.95897,"zip":"06267","miles_from_dt":21.76},{"city":"Wales","state_name":"Massachusetts","lat":42.06232,"lng":-72.23085,"zip":"01081","miles_from_dt":21.9},{"city":"Palmer","state_name":"Massachusetts","lat":42.18798,"lng":-72.30578,"zip":"01069","miles_from_dt":22.28},{"city":"Holliston","state_name":"Massachusetts","lat":42.19775,"lng":-71.44499,"zip":"01746","miles_from_dt":22.35},{"city":"Oakland","state_name":"Rhode Island","lat":41.96354,"lng":-71.64893,"zip":"02858","miles_from_dt":22.36},{"city":"Blackstone","state_name":"Massachusetts","lat":42.0399,"lng":-71.53125,"zip":"01504","miles_from_dt":22.48},{"city":"Slatersville","state_name":"Rhode Island","lat":41.99801,"lng":-71.58301,"zip":"02876","miles_from_dt":22.49},{"city":"Woodstock Valley","state_name":"Connecticut","lat":41.94556,"lng":-72.07928,"zip":"06282","miles_from_dt":22.79},{"city":"Putnam","state_name":"Connecticut","lat":41.90898,"lng":-71.87181,"zip":"06260","miles_from_dt":22.81},{"city":"Stow","state_name":"Massachusetts","lat":42.42983,"lng":-71.51146,"zip":"01775","miles_from_dt":22.87},{"city":"Framingham","state_name":"Massachusetts","lat":42.28242,"lng":-71.43428,"zip":"01702","miles_from_dt":22.89},{"city":"Framingham","state_name":"Massachusetts","lat":42.31823,"lng":-71.44266,"zip":"01704","miles_from_dt":22.92},{"city":"Framingham","state_name":"Massachusetts","lat":42.32301,"lng":-71.44179,"zip":"01703","miles_from_dt":23.04},{"city":"Framingham","state_name":"Massachusetts","lat":42.32025,"lng":-71.43949,"zip":"01705","miles_from_dt":23.11},{"city":"Forestdale","state_name":"Rhode Island","lat":41.99934,"lng":-71.56322,"zip":"02824","miles_from_dt":23.12},{"city":"Framingham","state_name":"Massachusetts","lat":42.32195,"lng":-71.43796,"zip":"01701","miles_from_dt":23.21},{"city":"Petersham","state_name":"Massachusetts","lat":42.48858,"lng":-72.18564,"zip":"01366","miles_from_dt":23.35},{"city":"Bellingham","state_name":"Massachusetts","lat":42.0777,"lng":-71.47407,"zip":"02019","miles_from_dt":23.51},{"city":"East Templeton","state_name":"Massachusetts","lat":42.56028,"lng":-72.03583,"zip":"01438","miles_from_dt":23.59},{"city":"Harvard","state_name":"Massachusetts","lat":42.50005,"lng":-71.57754,"zip":"01451","miles_from_dt":23.63},{"city":"Mapleville","state_name":"Rhode Island","lat":41.9433,"lng":-71.64581,"zip":"02839","miles_from_dt":23.64},{"city":"Medway","state_name":"Massachusetts","lat":42.15352,"lng":-71.42906,"zip":"02053","miles_from_dt":23.74},{"city":"Thorndike","state_name":"Massachusetts","lat":42.18508,"lng":-72.33406,"zip":"01079","miles_from_dt":23.75},{"city":"Templeton","state_name":"Massachusetts","lat":42.55324,"lng":-72.06879,"zip":"01468","miles_from_dt":23.78},{"city":"Westminster","state_name":"Massachusetts","lat":42.57362,"lng":-71.99464,"zip":"01441","miles_from_dt":23.84},{"city":"Bondsville","state_name":"Massachusetts","lat":42.21133,"lng":-72.34189,"zip":"01009","miles_from_dt":23.93},{"city":"Fitchburg","state_name":"Massachusetts","lat":42.58559,"lng":-71.81693,"zip":"01420","miles_from_dt":24.09},{"city":"Devens","state_name":"Massachusetts","lat":42.53149,"lng":-71.61663,"zip":"01434","miles_from_dt":24.16},{"city":"Gardner","state_name":"Massachusetts","lat":42.58797,"lng":-71.98649,"zip":"01440","miles_from_dt":24.7},{"city":"Pomfret","state_name":"Connecticut","lat":41.88554,"lng":-71.96353,"zip":"06258","miles_from_dt":24.83},{"city":"North Smithfield","state_name":"Rhode Island","lat":41.97285,"lng":-71.55027,"zip":"02896","miles_from_dt":24.91},{"city":"Maynard","state_name":"Massachusetts","lat":42.4264,"lng":-71.45607,"zip":"01754","miles_from_dt":25.12},{"city":"Monson","state_name":"Massachusetts","lat":42.09118,"lng":-72.32392,"zip":"01057","miles_from_dt":25.13},{"city":"Boxborough","state_name":"Massachusetts","lat":42.48837,"lng":-71.51779,"zip":"01719","miles_from_dt":25.17},{"city":"Chepachet","state_name":"Rhode Island","lat":41.89959,"lng":-71.69888,"zip":"02814","miles_from_dt":25.18},{"city":"Ballouville","state_name":"Connecticut","lat":41.87311,"lng":-71.8635,"zip":"06233","miles_from_dt":25.29},{"city":"Sudbury","state_name":"Massachusetts","lat":42.38456,"lng":-71.42316,"zip":"01776","miles_from_dt":25.32},{"city":"Three Rivers","state_name":"Massachusetts","lat":42.18228,"lng":-72.36515,"zip":"01080","miles_from_dt":25.36},{"city":"Woonsocket","state_name":"Rhode Island","lat":42.00103,"lng":-71.49923,"zip":"02895","miles_from_dt":25.45},{"city":"Lunenburg","state_name":"Massachusetts","lat":42.58994,"lng":-71.72036,"zip":"01462","miles_from_dt":25.48},{"city":"Sherborn","state_name":"Massachusetts","lat":42.23416,"lng":-71.37532,"zip":"01770","miles_from_dt":25.73},{"city":"Shirley","state_name":"Massachusetts","lat":42.57411,"lng":-71.6475,"zip":"01464","miles_from_dt":25.91},{"city":"Staffordville","state_name":"Connecticut","lat":41.99494,"lng":-72.26029,"zip":"06077","miles_from_dt":25.94},{"city":"Franklin","state_name":"Massachusetts","lat":42.08622,"lng":-71.41126,"zip":"02038","miles_from_dt":26.15},{"city":"Pomfret Center","state_name":"Connecticut","lat":41.8703,"lng":-71.99248,"zip":"06259","miles_from_dt":26.16},{"city":"Stafford Springs","state_name":"Connecticut","lat":41.98906,"lng":-72.26224,"zip":"06076","miles_from_dt":26.28},{"city":"Eastford","state_name":"Connecticut","lat":41.89326,"lng":-72.09706,"zip":"06242","miles_from_dt":26.44},{"city":"Dayville","state_name":"Connecticut","lat":41.85635,"lng":-71.84904,"zip":"06241","miles_from_dt":26.48},{"city":"Millis","state_name":"Massachusetts","lat":42.1693,"lng":-71.36261,"zip":"02054","miles_from_dt":26.84},{"city":"Belchertown","state_name":"Massachusetts","lat":42.28163,"lng":-72.40009,"zip":"01007","miles_from_dt":26.98},{"city":"Natick","state_name":"Massachusetts","lat":42.28436,"lng":-71.34966,"zip":"01760","miles_from_dt":27.21},{"city":"East Killingly","state_name":"Connecticut","lat":41.84743,"lng":-71.80701,"zip":"06243","miles_from_dt":27.3},{"city":"Stafford","state_name":"Connecticut","lat":41.98793,"lng":-72.28708,"zip":"06075","miles_from_dt":27.3},{"city":"Ayer","state_name":"Massachusetts","lat":42.56351,"lng":-71.57059,"zip":"01432","miles_from_dt":27.31},{"city":"New Salem","state_name":"Massachusetts","lat":42.45101,"lng":-72.33141,"zip":"01355","miles_from_dt":27.47},{"city":"Baldwinville","state_name":"Massachusetts","lat":42.60579,"lng":-72.08958,"zip":"01436","miles_from_dt":27.52},{"city":"Athol","state_name":"Massachusetts","lat":42.56793,"lng":-72.18324,"zip":"01331","miles_from_dt":27.56},{"city":"Wayland","state_name":"Massachusetts","lat":42.3583,"lng":-71.35895,"zip":"01778","miles_from_dt":27.78},{"city":"Rogers","state_name":"Connecticut","lat":41.83738,"lng":-71.90444,"zip":"06263","miles_from_dt":27.79},{"city":"Manville","state_name":"Rhode Island","lat":41.96552,"lng":-71.47628,"zip":"02838","miles_from_dt":27.96},{"city":"Harmony","state_name":"Rhode Island","lat":41.89377,"lng":-71.59129,"zip":"02829","miles_from_dt":28.02},{"city":"Abington","state_name":"Connecticut","lat":41.84652,"lng":-72.01367,"zip":"06230","miles_from_dt":28.02},{"city":"Acton","state_name":"Massachusetts","lat":42.48397,"lng":-71.43809,"zip":"01720","miles_from_dt":28.1},{"city":"West Groton","state_name":"Massachusetts","lat":42.60663,"lng":-71.62914,"zip":"01472","miles_from_dt":28.34},{"city":"Ashford","state_name":"Connecticut","lat":41.89126,"lng":-72.17003,"zip":"06278","miles_from_dt":28.37},{"city":"Littleton","state_name":"Massachusetts","lat":42.53503,"lng":-71.4891,"zip":"01460","miles_from_dt":28.46},{"city":"Sheldonville","state_name":"Massachusetts","lat":42.0348,"lng":-71.386,"zip":"02070","miles_from_dt":28.91},{"city":"Ashburnham","state_name":"Massachusetts","lat":42.66069,"lng":-71.9232,"zip":"01430","miles_from_dt":29.17},{"city":"Smithfield","state_name":"Rhode Island","lat":41.90615,"lng":-71.52365,"zip":"02917","miles_from_dt":29.31},{"city":"Albion","state_name":"Rhode Island","lat":41.95221,"lng":-71.4559,"zip":"02802","miles_from_dt":29.35},{"city":"Norfolk","state_name":"Massachusetts","lat":42.11632,"lng":-71.32952,"zip":"02056","miles_from_dt":29.36},{"city":"Wilbraham","state_name":"Massachusetts","lat":42.12763,"lng":-72.42994,"zip":"01095","miles_from_dt":29.41},{"city":"Medfield","state_name":"Massachusetts","lat":42.1848,"lng":-71.30501,"zip":"02052","miles_from_dt":29.59},{"city":"Wrentham","state_name":"Massachusetts","lat":42.05129,"lng":-71.35522,"zip":"02093","miles_from_dt":29.78},{"city":"Groton","state_name":"Massachusetts","lat":42.60785,"lng":-71.57233,"zip":"01471","miles_from_dt":29.82},{"city":"Greenville","state_name":"Rhode Island","lat":41.87672,"lng":-71.56065,"zip":"02828","miles_from_dt":29.86},{"city":"Wellesley","state_name":"Massachusetts","lat":42.29455,"lng":-71.29859,"zip":"02482","miles_from_dt":29.9},{"city":"Cumberland","state_name":"Rhode Island","lat":41.97025,"lng":-71.41978,"zip":"02864","miles_from_dt":29.96},{"city":"Ludlow","state_name":"Massachusetts","lat":42.19211,"lng":-72.45805,"zip":"01056","miles_from_dt":29.99}],"targetCityZipCode":"01611","targetCityState":"Massachusetts"},"__N_SSG":true}