{"pageProps":{"stateName":"Massachusetts","cityName":"southbridge","nearbyCities":[{"city":"Sturbridge","state_name":"Massachusetts","lat":42.1047,"lng":-72.07745,"zip":"01566","miles_from_dt":3.79},{"city":"Dudley","state_name":"Massachusetts","lat":42.05501,"lng":-71.93519,"zip":"01571","miles_from_dt":5.08},{"city":"Quinebaug","state_name":"Connecticut","lat":42.01871,"lng":-71.94959,"zip":"06262","miles_from_dt":5.2},{"city":"Fiskdale","state_name":"Massachusetts","lat":42.11342,"lng":-72.11632,"zip":"01518","miles_from_dt":5.6},{"city":"Fabyan","state_name":"Connecticut","lat":42.01424,"lng":-71.93716,"zip":"06245","miles_from_dt":5.9},{"city":"East Woodstock","state_name":"Connecticut","lat":41.98632,"lng":-71.97448,"zip":"06244","miles_from_dt":5.95},{"city":"Woodstock","state_name":"Connecticut","lat":41.97253,"lng":-72.01458,"zip":"06281","miles_from_dt":6.14},{"city":"Charlton","state_name":"Massachusetts","lat":42.13509,"lng":-71.96803,"zip":"01507","miles_from_dt":6.16},{"city":"Charlton City","state_name":"Massachusetts","lat":42.15139,"lng":-71.9896,"zip":"01508","miles_from_dt":6.68},{"city":"Holland","state_name":"Massachusetts","lat":42.06012,"lng":-72.16592,"zip":"01521","miles_from_dt":6.8},{"city":"Woodstock Valley","state_name":"Connecticut","lat":41.94556,"lng":-72.07928,"zip":"06282","miles_from_dt":8.26},{"city":"Charlton Depot","state_name":"Massachusetts","lat":42.173,"lng":-71.97562,"zip":"01509","miles_from_dt":8.33},{"city":"North Grosvenordale","state_name":"Connecticut","lat":41.98791,"lng":-71.90299,"zip":"06255","miles_from_dt":8.39},{"city":"Grosvenor Dale","state_name":"Connecticut","lat":41.96956,"lng":-71.8943,"zip":"06246","miles_from_dt":9.53},{"city":"Webster","state_name":"Massachusetts","lat":42.05206,"lng":-71.8485,"zip":"01570","miles_from_dt":9.55},{"city":"South Woodstock","state_name":"Connecticut","lat":41.9302,"lng":-71.95897,"zip":"06267","miles_from_dt":9.78},{"city":"Oxford","state_name":"Massachusetts","lat":42.11649,"lng":-71.85819,"zip":"01540","miles_from_dt":9.82},{"city":"East Brookfield","state_name":"Massachusetts","lat":42.20328,"lng":-72.04669,"zip":"01515","miles_from_dt":9.88},{"city":"Brookfield","state_name":"Massachusetts","lat":42.19364,"lng":-72.10441,"zip":"01506","miles_from_dt":9.89},{"city":"Brimfield","state_name":"Massachusetts","lat":42.12904,"lng":-72.20597,"zip":"01010","miles_from_dt":10.04},{"city":"North Oxford","state_name":"Massachusetts","lat":42.16177,"lng":-71.89217,"zip":"01537","miles_from_dt":10.1},{"city":"Wales","state_name":"Massachusetts","lat":42.06232,"lng":-72.23085,"zip":"01081","miles_from_dt":10.14},{"city":"Rochdale","state_name":"Massachusetts","lat":42.20241,"lng":-71.90995,"zip":"01542","miles_from_dt":11.69},{"city":"Thompson","state_name":"Connecticut","lat":41.96895,"lng":-71.83927,"zip":"06277","miles_from_dt":11.83},{"city":"Eastford","state_name":"Connecticut","lat":41.89326,"lng":-72.09706,"zip":"06242","miles_from_dt":11.99},{"city":"Staffordville","state_name":"Connecticut","lat":41.99494,"lng":-72.26029,"zip":"06077","miles_from_dt":12.5},{"city":"Pomfret","state_name":"Connecticut","lat":41.88554,"lng":-71.96353,"zip":"06258","miles_from_dt":12.6},{"city":"Stafford Springs","state_name":"Connecticut","lat":41.98906,"lng":-72.26224,"zip":"06076","miles_from_dt":12.75},{"city":"Spencer","state_name":"Massachusetts","lat":42.24715,"lng":-71.99189,"zip":"01562","miles_from_dt":13.07},{"city":"Warren","state_name":"Massachusetts","lat":42.20652,"lng":-72.19906,"zip":"01083","miles_from_dt":13.18},{"city":"Pomfret Center","state_name":"Connecticut","lat":41.8703,"lng":-71.99248,"zip":"06259","miles_from_dt":13.29},{"city":"Putnam","state_name":"Connecticut","lat":41.90898,"lng":-71.87181,"zip":"06260","miles_from_dt":13.37},{"city":"Auburn","state_name":"Massachusetts","lat":42.19689,"lng":-71.84549,"zip":"01501","miles_from_dt":13.5},{"city":"Ashford","state_name":"Connecticut","lat":41.89126,"lng":-72.17003,"zip":"06278","miles_from_dt":13.62},{"city":"West Brookfield","state_name":"Massachusetts","lat":42.23762,"lng":-72.16311,"zip":"01585","miles_from_dt":13.92},{"city":"Stafford","state_name":"Connecticut","lat":41.98793,"lng":-72.28708,"zip":"06075","miles_from_dt":13.96},{"city":"West Warren","state_name":"Massachusetts","lat":42.20008,"lng":-72.23715,"zip":"01092","miles_from_dt":14.22},{"city":"Leicester","state_name":"Massachusetts","lat":42.24919,"lng":-71.91989,"zip":"01524","miles_from_dt":14.28},{"city":"Douglas","state_name":"Massachusetts","lat":42.0528,"lng":-71.75106,"zip":"01516","miles_from_dt":14.55},{"city":"North Brookfield","state_name":"Massachusetts","lat":42.2695,"lng":-72.07794,"zip":"01535","miles_from_dt":14.61},{"city":"Cherry Valley","state_name":"Massachusetts","lat":42.23945,"lng":-71.87702,"zip":"01611","miles_from_dt":14.75},{"city":"Abington","state_name":"Connecticut","lat":41.84652,"lng":-72.01367,"zip":"06230","miles_from_dt":14.8},{"city":"Manchaug","state_name":"Massachusetts","lat":42.08955,"lng":-71.74667,"zip":"01526","miles_from_dt":14.9},{"city":"Monson","state_name":"Massachusetts","lat":42.09118,"lng":-72.32392,"zip":"01057","miles_from_dt":15.07},{"city":"Sutton","state_name":"Massachusetts","lat":42.13387,"lng":-71.75179,"zip":"01590","miles_from_dt":15.36},{"city":"Ballouville","state_name":"Connecticut","lat":41.87311,"lng":-71.8635,"zip":"06233","miles_from_dt":15.62},{"city":"Worcester","state_name":"Massachusetts","lat":42.24373,"lng":-71.84429,"zip":"01603","miles_from_dt":15.96},{"city":"Pascoag","state_name":"Rhode Island","lat":41.9665,"lng":-71.7464,"zip":"02859","miles_from_dt":16.15},{"city":"Millbury","state_name":"Massachusetts","lat":42.19228,"lng":-71.77397,"zip":"01527","miles_from_dt":16.16},{"city":"Palmer","state_name":"Massachusetts","lat":42.18798,"lng":-72.30578,"zip":"01069","miles_from_dt":16.52},{"city":"Willington","state_name":"Connecticut","lat":41.88959,"lng":-72.25933,"zip":"06279","miles_from_dt":16.55},{"city":"Rogers","state_name":"Connecticut","lat":41.83738,"lng":-71.90444,"zip":"06263","miles_from_dt":16.77},{"city":"Worcester","state_name":"Massachusetts","lat":42.22684,"lng":-71.79037,"zip":"01607","miles_from_dt":16.98},{"city":"Dayville","state_name":"Connecticut","lat":41.85635,"lng":-71.84904,"zip":"06241","miles_from_dt":17},{"city":"Worcester","state_name":"Massachusetts","lat":42.24645,"lng":-71.80968,"zip":"01610","miles_from_dt":17.24},{"city":"Worcester","state_name":"Massachusetts","lat":42.27219,"lng":-71.84946,"zip":"01602","miles_from_dt":17.41},{"city":"Thorndike","state_name":"Massachusetts","lat":42.18508,"lng":-72.33406,"zip":"01079","miles_from_dt":17.67},{"city":"Paxton","state_name":"Massachusetts","lat":42.31037,"lng":-71.93095,"zip":"01612","miles_from_dt":18.04},{"city":"Worcester","state_name":"Massachusetts","lat":42.2621,"lng":-71.80145,"zip":"01608","miles_from_dt":18.33},{"city":"Worcester","state_name":"Massachusetts","lat":42.26092,"lng":-71.79949,"zip":"01614","miles_from_dt":18.34},{"city":"Worcester","state_name":"Massachusetts","lat":42.27022,"lng":-71.80933,"zip":"01615","miles_from_dt":18.51},{"city":"New Braintree","state_name":"Massachusetts","lat":42.31929,"lng":-72.12794,"zip":"01531","miles_from_dt":18.51},{"city":"Worcester","state_name":"Massachusetts","lat":42.2711,"lng":-71.80974,"zip":"01601","miles_from_dt":18.54},{"city":"Worcester","state_name":"Massachusetts","lat":42.26574,"lng":-71.79653,"zip":"01613","miles_from_dt":18.69},{"city":"East Killingly","state_name":"Connecticut","lat":41.84743,"lng":-71.80701,"zip":"06243","miles_from_dt":18.78},{"city":"Worcester","state_name":"Massachusetts","lat":42.28592,"lng":-71.82853,"zip":"01609","miles_from_dt":18.8},{"city":"Worcester","state_name":"Massachusetts","lat":42.25085,"lng":-71.7683,"zip":"01604","miles_from_dt":18.94},{"city":"Bondsville","state_name":"Massachusetts","lat":42.21133,"lng":-72.34189,"zip":"01009","miles_from_dt":18.95},{"city":"Three Rivers","state_name":"Massachusetts","lat":42.18228,"lng":-72.36515,"zip":"01080","miles_from_dt":18.99},{"city":"Chaplin","state_name":"Connecticut","lat":41.79292,"lng":-72.1275,"zip":"06235","miles_from_dt":19.08},{"city":"Brooklyn","state_name":"Connecticut","lat":41.78938,"lng":-71.95266,"zip":"06234","miles_from_dt":19.17},{"city":"Whitinsville","state_name":"Massachusetts","lat":42.11837,"lng":-71.66836,"zip":"01588","miles_from_dt":19.21},{"city":"Hampden","state_name":"Massachusetts","lat":42.0638,"lng":-72.4157,"zip":"01036","miles_from_dt":19.64},{"city":"South Willington","state_name":"Connecticut","lat":41.85452,"lng":-72.30189,"zip":"06265","miles_from_dt":19.82},{"city":"South Grafton","state_name":"Massachusetts","lat":42.17496,"lng":-71.67762,"zip":"01560","miles_from_dt":19.94},{"city":"Oakham","state_name":"Massachusetts","lat":42.35125,"lng":-72.04776,"zip":"01068","miles_from_dt":20.09},{"city":"Gilbertville","state_name":"Massachusetts","lat":42.32782,"lng":-72.19191,"zip":"01031","miles_from_dt":20.16},{"city":"Hampton","state_name":"Connecticut","lat":41.76829,"lng":-72.06548,"zip":"06247","miles_from_dt":20.23},{"city":"Worcester","state_name":"Massachusetts","lat":42.28979,"lng":-71.78802,"zip":"01605","miles_from_dt":20.25},{"city":"Linwood","state_name":"Massachusetts","lat":42.09899,"lng":-71.64296,"zip":"01525","miles_from_dt":20.27},{"city":"North Uxbridge","state_name":"Massachusetts","lat":42.09026,"lng":-71.63989,"zip":"01538","miles_from_dt":20.36},{"city":"Uxbridge","state_name":"Massachusetts","lat":42.05895,"lng":-71.63741,"zip":"01569","miles_from_dt":20.39},{"city":"West Millbury","state_name":"Massachusetts","lat":42.12631,"lng":-71.64613,"zip":"01586","miles_from_dt":20.44},{"city":"Worcester","state_name":"Massachusetts","lat":42.27687,"lng":-71.76122,"zip":"01655","miles_from_dt":20.47},{"city":"Chepachet","state_name":"Rhode Island","lat":41.89959,"lng":-71.69888,"zip":"02814","miles_from_dt":20.51},{"city":"Harrisville","state_name":"Rhode Island","lat":41.98016,"lng":-71.6484,"zip":"02830","miles_from_dt":20.59},{"city":"Ware","state_name":"Massachusetts","lat":42.29816,"lng":-72.27676,"zip":"01082","miles_from_dt":20.61},{"city":"Storrs Mansfield","state_name":"Connecticut","lat":41.80998,"lng":-72.25283,"zip":"06269","miles_from_dt":20.64},{"city":"Grafton","state_name":"Massachusetts","lat":42.20077,"lng":-71.67892,"zip":"01519","miles_from_dt":20.65},{"city":"Worcester","state_name":"Massachusetts","lat":42.2927,"lng":-71.77904,"zip":"01653","miles_from_dt":20.69},{"city":"Danielson","state_name":"Connecticut","lat":41.79116,"lng":-71.85711,"zip":"06239","miles_from_dt":20.69},{"city":"Glendale","state_name":"Rhode Island","lat":41.98248,"lng":-71.64539,"zip":"02826","miles_from_dt":20.7},{"city":"Northbridge","state_name":"Massachusetts","lat":42.13991,"lng":-71.64433,"zip":"01534","miles_from_dt":20.76},{"city":"Wilbraham","state_name":"Massachusetts","lat":42.12763,"lng":-72.42994,"zip":"01095","miles_from_dt":20.89},{"city":"Oakland","state_name":"Rhode Island","lat":41.96354,"lng":-71.64893,"zip":"02858","miles_from_dt":20.91},{"city":"Tolland","state_name":"Connecticut","lat":41.87917,"lng":-72.36443,"zip":"06084","miles_from_dt":21.13},{"city":"North Grafton","state_name":"Massachusetts","lat":42.23189,"lng":-71.69219,"zip":"01536","miles_from_dt":21.16},{"city":"Storrs Mansfield","state_name":"Connecticut","lat":41.79852,"lng":-72.24843,"zip":"06268","miles_from_dt":21.19},{"city":"Holden","state_name":"Massachusetts","lat":42.33685,"lng":-71.85181,"zip":"01520","miles_from_dt":21.24},{"city":"Mansfield Depot","state_name":"Connecticut","lat":41.81589,"lng":-72.286,"zip":"06251","miles_from_dt":21.3},{"city":"Worcester","state_name":"Massachusetts","lat":42.31367,"lng":-71.79614,"zip":"01606","miles_from_dt":21.32},{"city":"Mansfield Center","state_name":"Connecticut","lat":41.77434,"lng":-72.19669,"zip":"06250","miles_from_dt":21.45},{"city":"Mapleville","state_name":"Rhode Island","lat":41.9433,"lng":-71.64581,"zip":"02839","miles_from_dt":21.55},{"city":"Wheelwright","state_name":"Massachusetts","lat":42.36481,"lng":-72.13548,"zip":"01094","miles_from_dt":21.65},{"city":"Shrewsbury","state_name":"Massachusetts","lat":42.29182,"lng":-71.74599,"zip":"01546","miles_from_dt":21.76},{"city":"Somers","state_name":"Connecticut","lat":41.99489,"lng":-72.45213,"zip":"06071","miles_from_dt":22},{"city":"Shrewsbury","state_name":"Massachusetts","lat":42.28419,"lng":-71.71558,"zip":"01545","miles_from_dt":22.48},{"city":"South Barre","state_name":"Massachusetts","lat":42.3837,"lng":-72.10021,"zip":"01074","miles_from_dt":22.57},{"city":"Rutland","state_name":"Massachusetts","lat":42.38482,"lng":-71.96726,"zip":"01543","miles_from_dt":22.65},{"city":"Wauregan","state_name":"Connecticut","lat":41.74418,"lng":-71.90981,"zip":"06387","miles_from_dt":22.74},{"city":"Hardwick","state_name":"Massachusetts","lat":42.37063,"lng":-72.19466,"zip":"01037","miles_from_dt":22.95},{"city":"North Windham","state_name":"Connecticut","lat":41.73699,"lng":-72.15723,"zip":"06256","miles_from_dt":23.21},{"city":"Upton","state_name":"Massachusetts","lat":42.17694,"lng":-71.60516,"zip":"01568","miles_from_dt":23.45},{"city":"Springfield","state_name":"Massachusetts","lat":42.09497,"lng":-72.48806,"zip":"01128","miles_from_dt":23.48},{"city":"Millville","state_name":"Massachusetts","lat":42.03906,"lng":-71.57767,"zip":"01529","miles_from_dt":23.51},{"city":"Slatersville","state_name":"Rhode Island","lat":41.99801,"lng":-71.58301,"zip":"02876","miles_from_dt":23.59},{"city":"Ludlow","state_name":"Massachusetts","lat":42.19211,"lng":-72.45805,"zip":"01056","miles_from_dt":23.62},{"city":"Jefferson","state_name":"Massachusetts","lat":42.38142,"lng":-71.87111,"zip":"01522","miles_from_dt":23.68},{"city":"Springfield","state_name":"Massachusetts","lat":42.1211,"lng":-72.4877,"zip":"01129","miles_from_dt":23.71},{"city":"Central Village","state_name":"Connecticut","lat":41.72845,"lng":-71.91008,"zip":"06332","miles_from_dt":23.78},{"city":"Ellington","state_name":"Connecticut","lat":41.91439,"lng":-72.4535,"zip":"06029","miles_from_dt":23.85},{"city":"East Longmeadow","state_name":"Massachusetts","lat":42.05967,"lng":-72.49899,"zip":"01028","miles_from_dt":23.93},{"city":"Somersville","state_name":"Connecticut","lat":41.98465,"lng":-72.4876,"zip":"06072","miles_from_dt":23.93},{"city":"Belchertown","state_name":"Massachusetts","lat":42.28163,"lng":-72.40009,"zip":"01007","miles_from_dt":24.23},{"city":"Forestdale","state_name":"Rhode Island","lat":41.99934,"lng":-71.56322,"zip":"02824","miles_from_dt":24.58},{"city":"Longmeadow","state_name":"Massachusetts","lat":42.06444,"lng":-72.51306,"zip":"01116","miles_from_dt":24.65},{"city":"Coventry","state_name":"Connecticut","lat":41.78281,"lng":-72.33941,"zip":"06238","miles_from_dt":24.8},{"city":"Mendon","state_name":"Massachusetts","lat":42.09301,"lng":-71.55146,"zip":"01756","miles_from_dt":24.9},{"city":"Foster","state_name":"Rhode Island","lat":41.78212,"lng":-71.72596,"zip":"02825","miles_from_dt":24.91},{"city":"West Boylston","state_name":"Massachusetts","lat":42.37034,"lng":-71.78502,"zip":"01583","miles_from_dt":24.91},{"city":"Springfield","state_name":"Massachusetts","lat":42.12452,"lng":-72.51126,"zip":"01119","miles_from_dt":24.94},{"city":"Canterbury","state_name":"Connecticut","lat":41.69717,"lng":-72.00109,"zip":"06331","miles_from_dt":25.12},{"city":"Barre","state_name":"Massachusetts","lat":42.42117,"lng":-72.10655,"zip":"01005","miles_from_dt":25.18},{"city":"Scotland","state_name":"Connecticut","lat":41.69869,"lng":-72.10487,"zip":"06264","miles_from_dt":25.23},{"city":"Indian Orchard","state_name":"Massachusetts","lat":42.15294,"lng":-72.50883,"zip":"01151","miles_from_dt":25.24},{"city":"Springfield","state_name":"Massachusetts","lat":42.15279,"lng":-72.51126,"zip":"01152","miles_from_dt":25.36},{"city":"Springfield","state_name":"Massachusetts","lat":42.09476,"lng":-72.5253,"zip":"01118","miles_from_dt":25.38},{"city":"Harmony","state_name":"Rhode Island","lat":41.89377,"lng":-71.59129,"zip":"02829","miles_from_dt":25.52},{"city":"Sterling","state_name":"Connecticut","lat":41.72708,"lng":-71.81679,"zip":"06377","miles_from_dt":25.58},{"city":"North Smithfield","state_name":"Rhode Island","lat":41.97285,"lng":-71.55027,"zip":"02896","miles_from_dt":25.61},{"city":"Westborough","state_name":"Massachusetts","lat":42.26815,"lng":-71.61402,"zip":"01581","miles_from_dt":25.89},{"city":"Blackstone","state_name":"Massachusetts","lat":42.0399,"lng":-71.53125,"zip":"01504","miles_from_dt":25.89},{"city":"Willimantic","state_name":"Connecticut","lat":41.70816,"lng":-72.20731,"zip":"06226","miles_from_dt":25.9},{"city":"Windham","state_name":"Connecticut","lat":41.69237,"lng":-72.13829,"zip":"06280","miles_from_dt":25.97},{"city":"Boylston","state_name":"Massachusetts","lat":42.35633,"lng":-71.72123,"zip":"01505","miles_from_dt":25.97},{"city":"Hopedale","state_name":"Massachusetts","lat":42.12477,"lng":-71.535,"zip":"01747","miles_from_dt":26.02},{"city":"Springfield","state_name":"Massachusetts","lat":42.11605,"lng":-72.53858,"zip":"01102","miles_from_dt":26.23},{"city":"North Scituate","state_name":"Rhode Island","lat":41.82705,"lng":-71.63083,"zip":"02857","miles_from_dt":26.28},{"city":"Springfield","state_name":"Massachusetts","lat":42.11632,"lng":-72.54693,"zip":"01139","miles_from_dt":26.66},{"city":"Moosup","state_name":"Connecticut","lat":41.69836,"lng":-71.85016,"zip":"06354","miles_from_dt":26.72},{"city":"Springfield","state_name":"Massachusetts","lat":42.11798,"lng":-72.5479,"zip":"01111","miles_from_dt":26.73},{"city":"Springfield","state_name":"Massachusetts","lat":42.11839,"lng":-72.54876,"zip":"01109","miles_from_dt":26.78},{"city":"Vernon Rockville","state_name":"Connecticut","lat":41.83641,"lng":-72.46063,"zip":"06066","miles_from_dt":26.88},{"city":"Northborough","state_name":"Massachusetts","lat":42.32314,"lng":-71.64621,"zip":"01532","miles_from_dt":26.92},{"city":"Plainfield","state_name":"Connecticut","lat":41.6798,"lng":-71.91441,"zip":"06374","miles_from_dt":26.98},{"city":"Springfield","state_name":"Massachusetts","lat":42.0814,"lng":-72.55866,"zip":"01108","miles_from_dt":27.03},{"city":"Woodville","state_name":"Massachusetts","lat":42.23233,"lng":-71.55963,"zip":"01784","miles_from_dt":27.09},{"city":"Springfield","state_name":"Massachusetts","lat":42.0886,"lng":-72.56103,"zip":"01138","miles_from_dt":27.18},{"city":"Milford","state_name":"Massachusetts","lat":42.15723,"lng":-71.51978,"zip":"01757","miles_from_dt":27.25},{"city":"Enfield","state_name":"Connecticut","lat":41.98393,"lng":-72.55475,"zip":"06082","miles_from_dt":27.33},{"city":"Clayville","state_name":"Rhode Island","lat":41.77723,"lng":-71.66177,"zip":"02815","miles_from_dt":27.38},{"city":"Greenville","state_name":"Rhode Island","lat":41.87672,"lng":-71.56065,"zip":"02828","miles_from_dt":27.47},{"city":"Longmeadow","state_name":"Massachusetts","lat":42.04877,"lng":-72.57163,"zip":"01106","miles_from_dt":27.68},{"city":"South Windham","state_name":"Connecticut","lat":41.67136,"lng":-72.17048,"zip":"06266","miles_from_dt":27.76},{"city":"Chicopee","state_name":"Massachusetts","lat":42.19721,"lng":-72.54249,"zip":"01022","miles_from_dt":27.79},{"city":"Granby","state_name":"Massachusetts","lat":42.26082,"lng":-72.50361,"zip":"01033","miles_from_dt":27.81},{"city":"Woonsocket","state_name":"Rhode Island","lat":42.00103,"lng":-71.49923,"zip":"02895","miles_from_dt":27.81},{"city":"Springfield","state_name":"Massachusetts","lat":42.13326,"lng":-72.56733,"zip":"01104","miles_from_dt":27.88},{"city":"Hopkinton","state_name":"Massachusetts","lat":42.2255,"lng":-71.53781,"zip":"01748","miles_from_dt":27.91},{"city":"Springfield","state_name":"Massachusetts","lat":42.09911,"lng":-72.57865,"zip":"01105","miles_from_dt":28.14},{"city":"Enfield","state_name":"Connecticut","lat":41.99818,"lng":-72.57639,"zip":"06083","miles_from_dt":28.25},{"city":"Smithfield","state_name":"Rhode Island","lat":41.90615,"lng":-71.52365,"zip":"02917","miles_from_dt":28.34},{"city":"Broad Brook","state_name":"Connecticut","lat":41.90417,"lng":-72.54438,"zip":"06016","miles_from_dt":28.42},{"city":"Princeton","state_name":"Massachusetts","lat":42.45649,"lng":-71.88128,"zip":"01541","miles_from_dt":28.44},{"city":"Chicopee","state_name":"Massachusetts","lat":42.17618,"lng":-72.56538,"zip":"01020","miles_from_dt":28.46},{"city":"Hanover","state_name":"Connecticut","lat":41.64829,"lng":-72.0693,"zip":"06350","miles_from_dt":28.5},{"city":"Oneco","state_name":"Connecticut","lat":41.68394,"lng":-71.79881,"zip":"06373","miles_from_dt":28.67},{"city":"Andover","state_name":"Connecticut","lat":41.73309,"lng":-72.37603,"zip":"06232","miles_from_dt":28.67},{"city":"Springfield","state_name":"Massachusetts","lat":42.09992,"lng":-72.58958,"zip":"01101","miles_from_dt":28.71},{"city":"Springfield","state_name":"Massachusetts","lat":42.10443,"lng":-72.58997,"zip":"01103","miles_from_dt":28.76},{"city":"Chicopee","state_name":"Massachusetts","lat":42.17481,"lng":-72.57229,"zip":"01014","miles_from_dt":28.78},{"city":"Springfield","state_name":"Massachusetts","lat":42.10189,"lng":-72.59091,"zip":"01144","miles_from_dt":28.79},{"city":"Bellingham","state_name":"Massachusetts","lat":42.0777,"lng":-71.47407,"zip":"02019","miles_from_dt":28.81},{"city":"Springfield","state_name":"Massachusetts","lat":42.10403,"lng":-72.59179,"zip":"01115","miles_from_dt":28.85},{"city":"Chicopee","state_name":"Massachusetts","lat":42.17796,"lng":-72.57284,"zip":"01021","miles_from_dt":28.86},{"city":"Baltic","state_name":"Connecticut","lat":41.64199,"lng":-72.07541,"zip":"06330","miles_from_dt":28.96},{"city":"Columbia","state_name":"Connecticut","lat":41.69387,"lng":-72.30722,"zip":"06237","miles_from_dt":28.96},{"city":"Bolton","state_name":"Connecticut","lat":41.76647,"lng":-72.43903,"zip":"06043","miles_from_dt":29.12},{"city":"Hubbardston","state_name":"Massachusetts","lat":42.48378,"lng":-72.00514,"zip":"01452","miles_from_dt":29.26},{"city":"Greene","state_name":"Rhode Island","lat":41.69792,"lng":-71.73847,"zip":"02827","miles_from_dt":29.29},{"city":"Manville","state_name":"Rhode Island","lat":41.96552,"lng":-71.47628,"zip":"02838","miles_from_dt":29.43},{"city":"Sterling","state_name":"Massachusetts","lat":42.44124,"lng":-71.77297,"zip":"01564","miles_from_dt":29.49},{"city":"Springfield","state_name":"Massachusetts","lat":42.11915,"lng":-72.60341,"zip":"01199","miles_from_dt":29.56},{"city":"Springfield","state_name":"Massachusetts","lat":42.12116,"lng":-72.60642,"zip":"01107","miles_from_dt":29.74}],"targetCityZipCode":"01550","targetCityState":"Massachusetts"},"__N_SSG":true}