{"pageProps":{"stateName":"Massachusetts","cityName":"townsend","nearbyCities":[{"city":"West Townsend","state_name":"Massachusetts","lat":42.67088,"lng":-71.7508,"zip":"01474","miles_from_dt":3.04},{"city":"Pepperell","state_name":"Massachusetts","lat":42.67126,"lng":-71.60429,"zip":"01463","miles_from_dt":4.47},{"city":"West Groton","state_name":"Massachusetts","lat":42.60663,"lng":-71.62914,"zip":"01472","miles_from_dt":5.14},{"city":"Lunenburg","state_name":"Massachusetts","lat":42.58994,"lng":-71.72036,"zip":"01462","miles_from_dt":5.39},{"city":"Brookline","state_name":"New Hampshire","lat":42.74643,"lng":-71.67054,"zip":"03033","miles_from_dt":5.71},{"city":"Shirley","state_name":"Massachusetts","lat":42.57411,"lng":-71.6475,"zip":"01464","miles_from_dt":6.67},{"city":"Greenville","state_name":"New Hampshire","lat":42.74668,"lng":-71.76268,"zip":"03048","miles_from_dt":6.69},{"city":"Ashby","state_name":"Massachusetts","lat":42.67652,"lng":-71.82322,"zip":"01431","miles_from_dt":6.75},{"city":"Groton","state_name":"Massachusetts","lat":42.60785,"lng":-71.57233,"zip":"01471","miles_from_dt":7.25},{"city":"Groton","state_name":"Massachusetts","lat":42.61368,"lng":-71.56139,"zip":"01450","miles_from_dt":7.53},{"city":"Hollis","state_name":"New Hampshire","lat":42.7494,"lng":-71.58338,"zip":"03049","miles_from_dt":8.01},{"city":"Fitchburg","state_name":"Massachusetts","lat":42.58559,"lng":-71.81693,"zip":"01420","miles_from_dt":8.42},{"city":"Ayer","state_name":"Massachusetts","lat":42.56351,"lng":-71.57059,"zip":"01432","miles_from_dt":9.34},{"city":"Dunstable","state_name":"Massachusetts","lat":42.67643,"lng":-71.50052,"zip":"01827","miles_from_dt":9.76},{"city":"Devens","state_name":"Massachusetts","lat":42.53149,"lng":-71.61663,"zip":"01434","miles_from_dt":9.99},{"city":"Milford","state_name":"New Hampshire","lat":42.81783,"lng":-71.67361,"zip":"03055","miles_from_dt":10.58},{"city":"Nashua","state_name":"New Hampshire","lat":42.72212,"lng":-71.49556,"zip":"03062","miles_from_dt":10.73},{"city":"Leominster","state_name":"Massachusetts","lat":42.51961,"lng":-71.76583,"zip":"01453","miles_from_dt":10.73},{"city":"New Ipswich","state_name":"New Hampshire","lat":42.74892,"lng":-71.8747,"zip":"03071","miles_from_dt":10.97},{"city":"Nashua","state_name":"New Hampshire","lat":42.74654,"lng":-71.493,"zip":"03061","miles_from_dt":11.57},{"city":"Nashua","state_name":"New Hampshire","lat":42.7795,"lng":-71.51939,"zip":"03063","miles_from_dt":11.8},{"city":"Ashburnham","state_name":"Massachusetts","lat":42.66069,"lng":-71.9232,"zip":"01430","miles_from_dt":11.8},{"city":"Wilton","state_name":"New Hampshire","lat":42.82741,"lng":-71.76967,"zip":"03086","miles_from_dt":11.88},{"city":"Lancaster","state_name":"Massachusetts","lat":42.48176,"lng":-71.68079,"zip":"01523","miles_from_dt":12.67},{"city":"Harvard","state_name":"Massachusetts","lat":42.50005,"lng":-71.57754,"zip":"01451","miles_from_dt":12.79},{"city":"Nashua","state_name":"New Hampshire","lat":42.74135,"lng":-71.45936,"zip":"03060","miles_from_dt":12.94},{"city":"Still River","state_name":"Massachusetts","lat":42.48365,"lng":-71.62161,"zip":"01467","miles_from_dt":13.03},{"city":"Westminster","state_name":"Massachusetts","lat":42.55122,"lng":-71.90266,"zip":"01473","miles_from_dt":13.33},{"city":"Tyngsboro","state_name":"Massachusetts","lat":42.66626,"lng":-71.42911,"zip":"01879","miles_from_dt":13.37},{"city":"Nashua","state_name":"New Hampshire","lat":42.77886,"lng":-71.47466,"zip":"03064","miles_from_dt":13.55},{"city":"Littleton","state_name":"Massachusetts","lat":42.53503,"lng":-71.4891,"zip":"01460","miles_from_dt":13.69},{"city":"Westford","state_name":"Massachusetts","lat":42.58642,"lng":-71.44008,"zip":"01886","miles_from_dt":13.93},{"city":"Temple","state_name":"New Hampshire","lat":42.82856,"lng":-71.85495,"zip":"03084","miles_from_dt":14.01},{"city":"Amherst","state_name":"New Hampshire","lat":42.87056,"lng":-71.60683,"zip":"03031","miles_from_dt":14.82},{"city":"Boxborough","state_name":"Massachusetts","lat":42.48837,"lng":-71.51779,"zip":"01719","miles_from_dt":15.08},{"city":"South Lancaster","state_name":"Massachusetts","lat":42.44581,"lng":-71.68845,"zip":"01561","miles_from_dt":15.14},{"city":"North Chelmsford","state_name":"Massachusetts","lat":42.63274,"lng":-71.39132,"zip":"01863","miles_from_dt":15.46},{"city":"Merrimack","state_name":"New Hampshire","lat":42.85471,"lng":-71.51878,"zip":"03054","miles_from_dt":15.76},{"city":"Gardner","state_name":"Massachusetts","lat":42.58797,"lng":-71.98649,"zip":"01440","miles_from_dt":15.95},{"city":"Sterling","state_name":"Massachusetts","lat":42.44124,"lng":-71.77297,"zip":"01564","miles_from_dt":16},{"city":"Hudson","state_name":"New Hampshire","lat":42.76394,"lng":-71.40716,"zip":"03051","miles_from_dt":16},{"city":"Bolton","state_name":"Massachusetts","lat":42.43616,"lng":-71.60728,"zip":"01740","miles_from_dt":16.38},{"city":"Mont Vernon","state_name":"New Hampshire","lat":42.90265,"lng":-71.6861,"zip":"03057","miles_from_dt":16.4},{"city":"Acton","state_name":"Massachusetts","lat":42.52165,"lng":-71.42983,"zip":"01718","miles_from_dt":16.62},{"city":"Westminster","state_name":"Massachusetts","lat":42.57362,"lng":-71.99464,"zip":"01441","miles_from_dt":16.69},{"city":"Lyndeborough","state_name":"New Hampshire","lat":42.90197,"lng":-71.77545,"zip":"03082","miles_from_dt":16.89},{"city":"Litchfield","state_name":"New Hampshire","lat":42.84302,"lng":-71.455,"zip":"03052","miles_from_dt":17.19},{"city":"Rindge","state_name":"New Hampshire","lat":42.75234,"lng":-72.01071,"zip":"03461","miles_from_dt":17.32},{"city":"Princeton","state_name":"Massachusetts","lat":42.45649,"lng":-71.88128,"zip":"01541","miles_from_dt":17.35},{"city":"Clinton","state_name":"Massachusetts","lat":42.4119,"lng":-71.68883,"zip":"01510","miles_from_dt":17.48},{"city":"Lowell","state_name":"Massachusetts","lat":42.64939,"lng":-71.34827,"zip":"01854","miles_from_dt":17.53},{"city":"Chelmsford","state_name":"Massachusetts","lat":42.59156,"lng":-71.35553,"zip":"01824","miles_from_dt":17.87},{"city":"Acton","state_name":"Massachusetts","lat":42.48397,"lng":-71.43809,"zip":"01720","miles_from_dt":17.99},{"city":"Winchendon","state_name":"Massachusetts","lat":42.66675,"lng":-72.04902,"zip":"01475","miles_from_dt":18.21},{"city":"Lowell","state_name":"Massachusetts","lat":42.62915,"lng":-71.33674,"zip":"01851","miles_from_dt":18.25},{"city":"Stow","state_name":"Massachusetts","lat":42.42983,"lng":-71.51146,"zip":"01775","miles_from_dt":18.66},{"city":"Peterborough","state_name":"New Hampshire","lat":42.86906,"lng":-71.93797,"zip":"03458","miles_from_dt":18.84},{"city":"East Templeton","state_name":"Massachusetts","lat":42.56028,"lng":-72.03583,"zip":"01438","miles_from_dt":18.98},{"city":"Pelham","state_name":"New Hampshire","lat":42.73354,"lng":-71.324,"zip":"03076","miles_from_dt":19.3},{"city":"Berlin","state_name":"Massachusetts","lat":42.38378,"lng":-71.63552,"zip":"01503","miles_from_dt":19.63},{"city":"Lowell","state_name":"Massachusetts","lat":42.65859,"lng":-71.30522,"zip":"01853","miles_from_dt":19.69},{"city":"Carlisle","state_name":"Massachusetts","lat":42.53001,"lng":-71.35128,"zip":"01741","miles_from_dt":19.7},{"city":"Lowell","state_name":"Massachusetts","lat":42.65569,"lng":-71.30292,"zip":"01850","miles_from_dt":19.81},{"city":"Dracut","state_name":"Massachusetts","lat":42.68323,"lng":-71.30063,"zip":"01826","miles_from_dt":19.95},{"city":"West Peterborough","state_name":"New Hampshire","lat":42.87174,"lng":-71.96971,"zip":"03468","miles_from_dt":20.09},{"city":"Hubbardston","state_name":"Massachusetts","lat":42.48378,"lng":-72.00514,"zip":"01452","miles_from_dt":20.31},{"city":"Lowell","state_name":"Massachusetts","lat":42.63231,"lng":-71.29538,"zip":"01852","miles_from_dt":20.32},{"city":"Maynard","state_name":"Massachusetts","lat":42.4264,"lng":-71.45607,"zip":"01754","miles_from_dt":20.4},{"city":"Hudson","state_name":"Massachusetts","lat":42.38868,"lng":-71.54648,"zip":"01749","miles_from_dt":20.47},{"city":"Baldwinville","state_name":"Massachusetts","lat":42.60579,"lng":-72.08958,"zip":"01436","miles_from_dt":20.69},{"city":"Bedford","state_name":"New Hampshire","lat":42.94065,"lng":-71.53023,"zip":"03110","miles_from_dt":20.71},{"city":"Templeton","state_name":"Massachusetts","lat":42.55324,"lng":-72.06879,"zip":"01468","miles_from_dt":20.72},{"city":"West Boylston","state_name":"Massachusetts","lat":42.37034,"lng":-71.78502,"zip":"01583","miles_from_dt":20.9},{"city":"Greenfield","state_name":"New Hampshire","lat":42.94029,"lng":-71.87053,"zip":"03047","miles_from_dt":21.06},{"city":"North Billerica","state_name":"Massachusetts","lat":42.57427,"lng":-71.29437,"zip":"01862","miles_from_dt":21.2},{"city":"Boylston","state_name":"Massachusetts","lat":42.35633,"lng":-71.72123,"zip":"01505","miles_from_dt":21.37},{"city":"Londonderry","state_name":"New Hampshire","lat":42.87927,"lng":-71.38702,"zip":"03053","miles_from_dt":21.41},{"city":"New Boston","state_name":"New Hampshire","lat":42.97702,"lng":-71.68664,"zip":"03070","miles_from_dt":21.53},{"city":"Jefferson","state_name":"Massachusetts","lat":42.38142,"lng":-71.87111,"zip":"01522","miles_from_dt":21.62},{"city":"Concord","state_name":"Massachusetts","lat":42.46221,"lng":-71.36504,"zip":"01742","miles_from_dt":21.77},{"city":"Jaffrey","state_name":"New Hampshire","lat":42.82922,"lng":-72.05962,"zip":"03452","miles_from_dt":21.88},{"city":"Windham","state_name":"New Hampshire","lat":42.80758,"lng":-71.29945,"zip":"03087","miles_from_dt":22.25},{"city":"Manchester","state_name":"New Hampshire","lat":42.93782,"lng":-71.45382,"zip":"03111","miles_from_dt":22.37},{"city":"Marlborough","state_name":"Massachusetts","lat":42.3494,"lng":-71.54681,"zip":"01752","miles_from_dt":23.01},{"city":"Manchester","state_name":"New Hampshire","lat":42.94621,"lng":-71.43905,"zip":"03108","miles_from_dt":23.26},{"city":"Nutting Lake","state_name":"Massachusetts","lat":42.53471,"lng":-71.26916,"zip":"01865","miles_from_dt":23.35},{"city":"Billerica","state_name":"Massachusetts","lat":42.54127,"lng":-71.26288,"zip":"01822","miles_from_dt":23.47},{"city":"Manchester","state_name":"New Hampshire","lat":42.95536,"lng":-71.44463,"zip":"03103","miles_from_dt":23.64},{"city":"Francestown","state_name":"New Hampshire","lat":42.99581,"lng":-71.81514,"zip":"03043","miles_from_dt":23.67},{"city":"Northborough","state_name":"Massachusetts","lat":42.32314,"lng":-71.64621,"zip":"01532","miles_from_dt":23.72},{"city":"Sudbury","state_name":"Massachusetts","lat":42.38456,"lng":-71.42316,"zip":"01776","miles_from_dt":23.73},{"city":"Billerica","state_name":"Massachusetts","lat":42.54999,"lng":-71.25206,"zip":"01821","miles_from_dt":23.78},{"city":"Rutland","state_name":"Massachusetts","lat":42.38482,"lng":-71.96726,"zip":"01543","miles_from_dt":23.93},{"city":"Tewksbury","state_name":"Massachusetts","lat":42.61206,"lng":-71.22733,"zip":"01876","miles_from_dt":23.94},{"city":"Bedford","state_name":"Massachusetts","lat":42.4995,"lng":-71.27799,"zip":"01730","miles_from_dt":24},{"city":"Holden","state_name":"Massachusetts","lat":42.33685,"lng":-71.85181,"zip":"01520","miles_from_dt":24.09},{"city":"Fitzwilliam","state_name":"New Hampshire","lat":42.7592,"lng":-72.14794,"zip":"03447","miles_from_dt":24.12},{"city":"Worcester","state_name":"Massachusetts","lat":42.31367,"lng":-71.79614,"zip":"01606","miles_from_dt":24.84},{"city":"Dublin","state_name":"New Hampshire","lat":42.89403,"lng":-72.07178,"zip":"03444","miles_from_dt":24.97},{"city":"Hanscom Afb","state_name":"Massachusetts","lat":42.46422,"lng":-71.28202,"zip":"01731","miles_from_dt":25.08},{"city":"Manchester","state_name":"New Hampshire","lat":42.96766,"lng":-71.41748,"zip":"03105","miles_from_dt":25.1},{"city":"Manchester","state_name":"New Hampshire","lat":42.98881,"lng":-71.4659,"zip":"03101","miles_from_dt":25.11},{"city":"Royalston","state_name":"Massachusetts","lat":42.67815,"lng":-72.18557,"zip":"01368","miles_from_dt":25.18},{"city":"Goffstown","state_name":"New Hampshire","lat":43.01994,"lng":-71.57035,"zip":"03045","miles_from_dt":25.25},{"city":"East Derry","state_name":"New Hampshire","lat":42.88964,"lng":-71.29713,"zip":"03041","miles_from_dt":25.35},{"city":"Manchester","state_name":"New Hampshire","lat":42.96594,"lng":-71.40167,"zip":"03109","miles_from_dt":25.46},{"city":"Salem","state_name":"New Hampshire","lat":42.79023,"lng":-71.22024,"zip":"03079","miles_from_dt":25.49},{"city":"Pinehurst","state_name":"Massachusetts","lat":42.52539,"lng":-71.22794,"zip":"01866","miles_from_dt":25.54},{"city":"Lincoln","state_name":"Massachusetts","lat":42.42572,"lng":-71.31013,"zip":"01773","miles_from_dt":25.54},{"city":"Manchester","state_name":"New Hampshire","lat":43.00797,"lng":-71.49134,"zip":"03102","miles_from_dt":25.76},{"city":"Andover","state_name":"Massachusetts","lat":42.65037,"lng":-71.18456,"zip":"01899","miles_from_dt":25.85},{"city":"Andover","state_name":"Massachusetts","lat":42.65227,"lng":-71.1835,"zip":"05501","miles_from_dt":25.9},{"city":"Shrewsbury","state_name":"Massachusetts","lat":42.29182,"lng":-71.74599,"zip":"01546","miles_from_dt":25.92},{"city":"Athol","state_name":"Massachusetts","lat":42.56793,"lng":-72.18324,"zip":"01331","miles_from_dt":25.95},{"city":"Andover","state_name":"Massachusetts","lat":42.64859,"lng":-71.18254,"zip":"01812","miles_from_dt":25.96},{"city":"Derry","state_name":"New Hampshire","lat":42.88867,"lng":-71.27932,"zip":"03038","miles_from_dt":26.03},{"city":"Methuen","state_name":"Massachusetts","lat":42.73426,"lng":-71.18858,"zip":"01844","miles_from_dt":26.05},{"city":"Worcester","state_name":"Massachusetts","lat":42.2927,"lng":-71.77904,"zip":"01653","miles_from_dt":26.09},{"city":"Shrewsbury","state_name":"Massachusetts","lat":42.28419,"lng":-71.71558,"zip":"01545","miles_from_dt":26.32},{"city":"Worcester","state_name":"Massachusetts","lat":42.28979,"lng":-71.78802,"zip":"01605","miles_from_dt":26.37},{"city":"Bennington","state_name":"New Hampshire","lat":43.01268,"lng":-71.90781,"zip":"03442","miles_from_dt":26.38},{"city":"Southborough","state_name":"Massachusetts","lat":42.30144,"lng":-71.5304,"zip":"01772","miles_from_dt":26.42},{"city":"North Salem","state_name":"New Hampshire","lat":42.83502,"lng":-71.22425,"zip":"03073","miles_from_dt":26.51},{"city":"Framingham","state_name":"Massachusetts","lat":42.32301,"lng":-71.44179,"zip":"01703","miles_from_dt":26.84},{"city":"Andover","state_name":"Massachusetts","lat":42.64669,"lng":-71.16517,"zip":"01810","miles_from_dt":26.85},{"city":"Hancock","state_name":"New Hampshire","lat":42.98222,"lng":-72.00037,"zip":"03449","miles_from_dt":26.93},{"city":"Manchester","state_name":"New Hampshire","lat":43.00926,"lng":-71.4411,"zip":"03104","miles_from_dt":26.95},{"city":"Framingham","state_name":"Massachusetts","lat":42.32195,"lng":-71.43796,"zip":"01701","miles_from_dt":27},{"city":"Lawrence","state_name":"Massachusetts","lat":42.71077,"lng":-71.16494,"zip":"01841","miles_from_dt":27},{"city":"Worcester","state_name":"Massachusetts","lat":42.27687,"lng":-71.76122,"zip":"01655","miles_from_dt":27.03},{"city":"Barre","state_name":"Massachusetts","lat":42.42117,"lng":-72.10655,"zip":"01005","miles_from_dt":27.06},{"city":"Framingham","state_name":"Massachusetts","lat":42.32025,"lng":-71.43949,"zip":"01705","miles_from_dt":27.07},{"city":"Lawrence","state_name":"Massachusetts","lat":42.68985,"lng":-71.16095,"zip":"01843","miles_from_dt":27.08},{"city":"Worcester","state_name":"Massachusetts","lat":42.28592,"lng":-71.82853,"zip":"01609","miles_from_dt":27.09},{"city":"Framingham","state_name":"Massachusetts","lat":42.31823,"lng":-71.44266,"zip":"01704","miles_from_dt":27.11},{"city":"Wayland","state_name":"Massachusetts","lat":42.3583,"lng":-71.35895,"zip":"01778","miles_from_dt":27.15},{"city":"Lawrence","state_name":"Massachusetts","lat":42.70548,"lng":-71.15997,"zip":"01842","miles_from_dt":27.22},{"city":"Lawrence","state_name":"Massachusetts","lat":42.70695,"lng":-71.16014,"zip":"01840","miles_from_dt":27.22},{"city":"Paxton","state_name":"Massachusetts","lat":42.31037,"lng":-71.93095,"zip":"01612","miles_from_dt":27.37},{"city":"Burlington","state_name":"Massachusetts","lat":42.5028,"lng":-71.20147,"zip":"01803","miles_from_dt":27.4},{"city":"Burlington","state_name":"Massachusetts","lat":42.50635,"lng":-71.19824,"zip":"01805","miles_from_dt":27.45},{"city":"Fayville","state_name":"Massachusetts","lat":42.29155,"lng":-71.50101,"zip":"01745","miles_from_dt":27.56},{"city":"Westborough","state_name":"Massachusetts","lat":42.26815,"lng":-71.61402,"zip":"01581","miles_from_dt":27.69},{"city":"Troy","state_name":"New Hampshire","lat":42.82677,"lng":-72.18988,"zip":"03465","miles_from_dt":27.7},{"city":"Wilmington","state_name":"Massachusetts","lat":42.56091,"lng":-71.16541,"zip":"01887","miles_from_dt":27.78},{"city":"Harrisville","state_name":"New Hampshire","lat":42.94157,"lng":-72.09107,"zip":"03450","miles_from_dt":27.86},{"city":"Worcester","state_name":"Massachusetts","lat":42.2711,"lng":-71.80974,"zip":"01601","miles_from_dt":27.86},{"city":"Worcester","state_name":"Massachusetts","lat":42.27022,"lng":-71.80933,"zip":"01615","miles_from_dt":27.91},{"city":"Lexington","state_name":"Massachusetts","lat":42.438,"lng":-71.23922,"zip":"02421","miles_from_dt":27.91},{"city":"Petersham","state_name":"Massachusetts","lat":42.48858,"lng":-72.18564,"zip":"01366","miles_from_dt":27.99},{"city":"Worcester","state_name":"Massachusetts","lat":42.26574,"lng":-71.79653,"zip":"01613","miles_from_dt":28.08},{"city":"Lexington","state_name":"Massachusetts","lat":42.45821,"lng":-71.21762,"zip":"02420","miles_from_dt":28.09},{"city":"Oakham","state_name":"Massachusetts","lat":42.35125,"lng":-72.04776,"zip":"01068","miles_from_dt":28.29},{"city":"Worcester","state_name":"Massachusetts","lat":42.27219,"lng":-71.84946,"zip":"01602","miles_from_dt":28.3},{"city":"Worcester","state_name":"Massachusetts","lat":42.2621,"lng":-71.80145,"zip":"01608","miles_from_dt":28.38},{"city":"Worcester","state_name":"Massachusetts","lat":42.26092,"lng":-71.79949,"zip":"01614","miles_from_dt":28.44},{"city":"South Barre","state_name":"Massachusetts","lat":42.3837,"lng":-72.10021,"zip":"01074","miles_from_dt":28.51},{"city":"Auburn","state_name":"New Hampshire","lat":42.99063,"lng":-71.34383,"zip":"03032","miles_from_dt":28.58},{"city":"Weare","state_name":"New Hampshire","lat":43.08126,"lng":-71.72189,"zip":"03281","miles_from_dt":28.77},{"city":"Waltham","state_name":"Massachusetts","lat":42.39859,"lng":-71.2573,"zip":"02451","miles_from_dt":28.81},{"city":"Worcester","state_name":"Massachusetts","lat":42.25085,"lng":-71.7683,"zip":"01604","miles_from_dt":28.86},{"city":"Weston","state_name":"Massachusetts","lat":42.35893,"lng":-71.30009,"zip":"02493","miles_from_dt":29.09},{"city":"Atkinson","state_name":"New Hampshire","lat":42.83693,"lng":-71.16042,"zip":"03811","miles_from_dt":29.51},{"city":"Framingham","state_name":"Massachusetts","lat":42.28242,"lng":-71.43428,"zip":"01702","miles_from_dt":29.51},{"city":"Worcester","state_name":"Massachusetts","lat":42.24645,"lng":-71.80968,"zip":"01610","miles_from_dt":29.52},{"city":"Marlborough","state_name":"New Hampshire","lat":42.89816,"lng":-72.18308,"zip":"03455","miles_from_dt":29.72},{"city":"Haverhill","state_name":"Massachusetts","lat":42.79099,"lng":-71.13133,"zip":"01832","miles_from_dt":29.81},{"city":"Woburn","state_name":"Massachusetts","lat":42.48616,"lng":-71.15808,"zip":"01888","miles_from_dt":29.89},{"city":"North Grafton","state_name":"Massachusetts","lat":42.23189,"lng":-71.69219,"zip":"01536","miles_from_dt":29.9}],"targetCityZipCode":"01469","targetCityState":"Massachusetts"},"__N_SSG":true}