{"pageProps":{"stateName":"Vermont","cityName":"island-pond","nearbyCities":[{"city":"East Charleston","state_name":"Vermont","lat":44.83182,"lng":-71.96965,"zip":"05833","miles_from_dt":6.97},{"city":"Morgan","state_name":"Vermont","lat":44.89499,"lng":-71.96167,"zip":"05853","miles_from_dt":8.08},{"city":"Norton","state_name":"Vermont","lat":44.9502,"lng":-71.82577,"zip":"05907","miles_from_dt":8.53},{"city":"West Charleston","state_name":"Vermont","lat":44.86059,"lng":-72.03473,"zip":"05872","miles_from_dt":10.42},{"city":"Averill","state_name":"Vermont","lat":44.94197,"lng":-71.68079,"zip":"05901","miles_from_dt":10.75},{"city":"East Haven","state_name":"Vermont","lat":44.66868,"lng":-71.8386,"zip":"05837","miles_from_dt":10.92},{"city":"West Burke","state_name":"Vermont","lat":44.68367,"lng":-71.95193,"zip":"05871","miles_from_dt":11.61},{"city":"Guildhall","state_name":"Vermont","lat":44.70151,"lng":-71.66672,"zip":"05905","miles_from_dt":11.73},{"city":"Derby Line","state_name":"Vermont","lat":44.97717,"lng":-71.98278,"zip":"05830","miles_from_dt":12.87},{"city":"Orleans","state_name":"Vermont","lat":44.80018,"lng":-72.10353,"zip":"05860","miles_from_dt":13.67},{"city":"Canaan","state_name":"Vermont","lat":44.9379,"lng":-71.58286,"zip":"05903","miles_from_dt":14.27},{"city":"Derby","state_name":"Vermont","lat":44.95349,"lng":-72.0759,"zip":"05829","miles_from_dt":14.99},{"city":"Sutton","state_name":"Vermont","lat":44.66505,"lng":-72.04366,"zip":"05867","miles_from_dt":15.4},{"city":"Granby","state_name":"Vermont","lat":44.61297,"lng":-71.73129,"zip":"05840","miles_from_dt":15.51},{"city":"East Burke","state_name":"Vermont","lat":44.59546,"lng":-71.91027,"zip":"05832","miles_from_dt":16.47},{"city":"North Stratford","state_name":"New Hampshire","lat":44.74195,"lng":-71.51485,"zip":"03590","miles_from_dt":16.47},{"city":"Barton","state_name":"Vermont","lat":44.75555,"lng":-72.15478,"zip":"05822","miles_from_dt":16.8},{"city":"Newport","state_name":"Vermont","lat":44.92829,"lng":-72.1943,"zip":"05855","miles_from_dt":19.31},{"city":"Sheffield","state_name":"Vermont","lat":44.63863,"lng":-72.12699,"zip":"05866","miles_from_dt":19.63},{"city":"Beebe Plain","state_name":"Vermont","lat":45.00543,"lng":-72.14316,"zip":"05823","miles_from_dt":19.79},{"city":"North Concord","state_name":"Vermont","lat":44.53587,"lng":-71.8046,"zip":"05858","miles_from_dt":20.12},{"city":"Beecher Falls","state_name":"Vermont","lat":45.00881,"lng":-71.49472,"zip":"05902","miles_from_dt":20.63},{"city":"Lyndon Center","state_name":"Vermont","lat":44.55955,"lng":-72.03417,"zip":"05850","miles_from_dt":21.06},{"city":"Coventry","state_name":"Vermont","lat":44.86019,"lng":-72.25664,"zip":"05825","miles_from_dt":21.19},{"city":"Glover","state_name":"Vermont","lat":44.67342,"lng":-72.21171,"zip":"05839","miles_from_dt":21.65},{"city":"Lyndon","state_name":"Vermont","lat":44.53289,"lng":-72.00029,"zip":"05849","miles_from_dt":21.99},{"city":"Lyndonville","state_name":"Vermont","lat":44.55297,"lng":-72.05732,"zip":"05851","miles_from_dt":22.02},{"city":"West Stewartstown","state_name":"New Hampshire","lat":44.73439,"lng":-71.38243,"zip":"03597","miles_from_dt":22.82},{"city":"Colebrook","state_name":"New Hampshire","lat":44.89839,"lng":-71.37178,"zip":"03576","miles_from_dt":22.94},{"city":"Barton","state_name":"Vermont","lat":44.70947,"lng":-72.26753,"zip":"05875","miles_from_dt":23.09},{"city":"Irasburg","state_name":"Vermont","lat":44.79146,"lng":-72.30699,"zip":"05845","miles_from_dt":23.67},{"city":"Newport Center","state_name":"Vermont","lat":44.93381,"lng":-72.3092,"zip":"05857","miles_from_dt":24.76},{"city":"Groveton","state_name":"New Hampshire","lat":44.59777,"lng":-71.43703,"zip":"03582","miles_from_dt":24.91},{"city":"Lunenburg","state_name":"Vermont","lat":44.47431,"lng":-71.71538,"zip":"05906","miles_from_dt":24.96},{"city":"Greensboro Bend","state_name":"Vermont","lat":44.57966,"lng":-72.24453,"zip":"05842","miles_from_dt":26.68},{"city":"Concord","state_name":"Vermont","lat":44.43741,"lng":-71.86449,"zip":"05824","miles_from_dt":26.94},{"city":"Troy","state_name":"Vermont","lat":44.91881,"lng":-72.3675,"zip":"05868","miles_from_dt":27.25},{"city":"East Saint Johnsbury","state_name":"Vermont","lat":44.43944,"lng":-71.94369,"zip":"05838","miles_from_dt":27.34},{"city":"Lancaster","state_name":"New Hampshire","lat":44.48696,"lng":-71.54278,"zip":"03584","miles_from_dt":27.35},{"city":"Saint Johnsbury Center","state_name":"Vermont","lat":44.4529,"lng":-72.01214,"zip":"05863","miles_from_dt":27.36},{"city":"Albany","state_name":"Vermont","lat":44.74862,"lng":-72.37351,"zip":"05820","miles_from_dt":27.36},{"city":"Greensboro","state_name":"Vermont","lat":44.60794,"lng":-72.30232,"zip":"05841","miles_from_dt":27.81},{"city":"Craftsbury Common","state_name":"Vermont","lat":44.68135,"lng":-72.36198,"zip":"05827","miles_from_dt":28.13},{"city":"Gilman","state_name":"Vermont","lat":44.41597,"lng":-71.70762,"zip":"05904","miles_from_dt":28.98},{"city":"East Hardwick","state_name":"Vermont","lat":44.5196,"lng":-72.25173,"zip":"05836","miles_from_dt":29.76}],"targetCityZipCode":"05846","targetCityState":"Vermont"},"__N_SSG":true}