{"pageProps":{"stateName":"Vermont","cityName":"monkton","nearbyCities":[{"city":"North Ferrisburgh","state_name":"Vermont","lat":44.24119,"lng":-73.19346,"zip":"05473","miles_from_dt":3.7},{"city":"Hinesburg","state_name":"Vermont","lat":44.32094,"lng":-73.09176,"zip":"05461","miles_from_dt":4.85},{"city":"Starksboro","state_name":"Vermont","lat":44.23082,"lng":-73.01096,"zip":"05487","miles_from_dt":5.69},{"city":"Charlotte","state_name":"Vermont","lat":44.30896,"lng":-73.23593,"zip":"05445","miles_from_dt":6.85},{"city":"Ferrisburgh","state_name":"Vermont","lat":44.20776,"lng":-73.25796,"zip":"05456","miles_from_dt":7.51},{"city":"Huntington","state_name":"Vermont","lat":44.29909,"lng":-72.95228,"zip":"05462","miles_from_dt":8.93},{"city":"Bristol","state_name":"Vermont","lat":44.12976,"lng":-73.03347,"zip":"05443","miles_from_dt":9.61},{"city":"New Haven","state_name":"Vermont","lat":44.11377,"lng":-73.1611,"zip":"05472","miles_from_dt":9.88},{"city":"Shelburne","state_name":"Vermont","lat":44.39057,"lng":-73.24134,"zip":"05482","miles_from_dt":11.16},{"city":"Richmond","state_name":"Vermont","lat":44.3936,"lng":-72.99152,"zip":"05477","miles_from_dt":11.58},{"city":"Williston","state_name":"Vermont","lat":44.42901,"lng":-73.09197,"zip":"05495","miles_from_dt":12.17},{"city":"Vergennes","state_name":"Vermont","lat":44.12101,"lng":-73.32111,"zip":"05491","miles_from_dt":13.53},{"city":"South Burlington","state_name":"Vermont","lat":44.44635,"lng":-73.17568,"zip":"05407","miles_from_dt":13.56},{"city":"South Burlington","state_name":"Vermont","lat":44.447,"lng":-73.17229,"zip":"05403","miles_from_dt":13.57},{"city":"Essex","state_name":"New York","lat":44.26869,"lng":-73.4029,"zip":"12936","miles_from_dt":14.03},{"city":"Waitsfield","state_name":"Vermont","lat":44.19371,"lng":-72.84356,"zip":"05673","miles_from_dt":14.39},{"city":"Burlington","state_name":"Vermont","lat":44.47475,"lng":-73.19649,"zip":"05405","miles_from_dt":15.7},{"city":"Burlington","state_name":"Vermont","lat":44.47484,"lng":-73.21758,"zip":"05401","miles_from_dt":15.99},{"city":"Warren","state_name":"Vermont","lat":44.11112,"lng":-72.86081,"zip":"05674","miles_from_dt":16.26},{"city":"Essex Junction","state_name":"Vermont","lat":44.4929,"lng":-73.08159,"zip":"05453","miles_from_dt":16.61},{"city":"Willsboro","state_name":"New York","lat":44.36129,"lng":-73.42129,"zip":"12996","miles_from_dt":16.63},{"city":"Waterbury","state_name":"Vermont","lat":44.34825,"lng":-72.80984,"zip":"05676","miles_from_dt":16.74},{"city":"Colchester","state_name":"Vermont","lat":44.49573,"lng":-73.16524,"zip":"05439","miles_from_dt":16.84},{"city":"Winooski","state_name":"Vermont","lat":44.49483,"lng":-73.18467,"zip":"05404","miles_from_dt":16.93},{"city":"Burlington","state_name":"Vermont","lat":44.48717,"lng":-73.22627,"zip":"05406","miles_from_dt":16.93},{"city":"Jericho","state_name":"Vermont","lat":44.45882,"lng":-72.93058,"zip":"05465","miles_from_dt":17},{"city":"Burlington","state_name":"Vermont","lat":44.5057,"lng":-73.12665,"zip":"05402","miles_from_dt":17.38},{"city":"Moretown","state_name":"Vermont","lat":44.24733,"lng":-72.76808,"zip":"05660","miles_from_dt":17.52},{"city":"Essex","state_name":"Vermont","lat":44.5075,"lng":-73.06948,"zip":"05451","miles_from_dt":17.69},{"city":"Middlebury","state_name":"Vermont","lat":43.9991,"lng":-73.17403,"zip":"05753","miles_from_dt":17.79},{"city":"Burlington","state_name":"Vermont","lat":44.48969,"lng":-73.27139,"zip":"05408","miles_from_dt":17.9},{"city":"Westport","state_name":"New York","lat":44.19711,"lng":-73.48097,"zip":"12993","miles_from_dt":18.3},{"city":"Essex Junction","state_name":"Vermont","lat":44.5238,"lng":-73.06479,"zip":"05452","miles_from_dt":18.84},{"city":"Waterbury","state_name":"Vermont","lat":44.34129,"lng":-72.75854,"zip":"05671","miles_from_dt":18.96},{"city":"East Middlebury","state_name":"Vermont","lat":43.97299,"lng":-73.10273,"zip":"05740","miles_from_dt":19.42},{"city":"Ripton","state_name":"Vermont","lat":43.98833,"lng":-72.99072,"zip":"05766","miles_from_dt":19.45},{"city":"Colchester","state_name":"Vermont","lat":44.54505,"lng":-73.14596,"zip":"05449","miles_from_dt":20.14},{"city":"Jonesville","state_name":"Vermont","lat":44.54068,"lng":-73.20958,"zip":"05466","miles_from_dt":20.28},{"city":"Colchester","state_name":"Vermont","lat":44.5541,"lng":-73.21647,"zip":"05446","miles_from_dt":21.26},{"city":"Bridport","state_name":"Vermont","lat":43.98243,"lng":-73.33286,"zip":"05734","miles_from_dt":21.51},{"city":"Mineville","state_name":"New York","lat":44.09301,"lng":-73.49628,"zip":"12956","miles_from_dt":21.71},{"city":"Granville","state_name":"Vermont","lat":44.00354,"lng":-72.85494,"zip":"05747","miles_from_dt":21.77},{"city":"Underhill Center","state_name":"Vermont","lat":44.52797,"lng":-72.89695,"zip":"05490","miles_from_dt":21.93},{"city":"Port Henry","state_name":"New York","lat":44.05582,"lng":-73.46931,"zip":"12974","miles_from_dt":22.07},{"city":"Waterbury Center","state_name":"Vermont","lat":44.39194,"lng":-72.70841,"zip":"05677","miles_from_dt":22.56},{"city":"Roxbury","state_name":"Vermont","lat":44.05325,"lng":-72.75155,"zip":"05669","miles_from_dt":23},{"city":"Underhill","state_name":"Vermont","lat":44.5458,"lng":-72.89471,"zip":"05489","miles_from_dt":23.05},{"city":"Salisbury","state_name":"Vermont","lat":43.91948,"lng":-73.11651,"zip":"05769","miles_from_dt":23.09},{"city":"Lewis","state_name":"New York","lat":44.32685,"lng":-73.57675,"zip":"12950","miles_from_dt":23.16},{"city":"Northfield","state_name":"Vermont","lat":44.14946,"lng":-72.67239,"zip":"05663","miles_from_dt":23.42},{"city":"Keeseville","state_name":"New York","lat":44.44585,"lng":-73.51193,"zip":"12944","miles_from_dt":23.47},{"city":"Moscow","state_name":"Vermont","lat":44.44194,"lng":-72.71724,"zip":"05662","miles_from_dt":23.84},{"city":"Northfield Falls","state_name":"Vermont","lat":44.16718,"lng":-72.65316,"zip":"05664","miles_from_dt":23.99},{"city":"Elizabethtown","state_name":"New York","lat":44.21222,"lng":-73.6082,"zip":"12932","miles_from_dt":24.36},{"city":"Port Kent","state_name":"New York","lat":44.52977,"lng":-73.431,"zip":"12975","miles_from_dt":24.46},{"city":"Westford","state_name":"Vermont","lat":44.60472,"lng":-73.01523,"zip":"05494","miles_from_dt":24.78},{"city":"Montpelier","state_name":"Vermont","lat":44.2848,"lng":-72.61498,"zip":"05602","miles_from_dt":25.19},{"city":"Stowe","state_name":"Vermont","lat":44.48151,"lng":-72.72174,"zip":"05672","miles_from_dt":25.26},{"city":"Hancock","state_name":"Vermont","lat":43.92004,"lng":-72.91064,"zip":"05748","miles_from_dt":25.32},{"city":"Witherbee","state_name":"New York","lat":44.0879,"lng":-73.57584,"zip":"12998","miles_from_dt":25.35},{"city":"Keeseville","state_name":"New York","lat":44.53464,"lng":-73.46687,"zip":"12911","miles_from_dt":25.86},{"city":"Montpelier","state_name":"Vermont","lat":44.28742,"lng":-72.60006,"zip":"05609","miles_from_dt":25.94},{"city":"Moriah","state_name":"New York","lat":44.02226,"lng":-73.54123,"zip":"12960","miles_from_dt":26.32},{"city":"Moriah Center","state_name":"New York","lat":44.06103,"lng":-73.57972,"zip":"12961","miles_from_dt":26.41},{"city":"Montpelier","state_name":"Vermont","lat":44.25706,"lng":-72.58779,"zip":"05604","miles_from_dt":26.46},{"city":"Montpelier","state_name":"Vermont","lat":44.26213,"lng":-72.58436,"zip":"05603","miles_from_dt":26.63},{"city":"Montpelier","state_name":"Vermont","lat":44.26268,"lng":-72.58391,"zip":"05620","miles_from_dt":26.66},{"city":"Whiting","state_name":"Vermont","lat":43.87279,"lng":-73.21228,"zip":"05778","miles_from_dt":26.71},{"city":"Montpelier","state_name":"Vermont","lat":44.25908,"lng":-72.58055,"zip":"05633","miles_from_dt":26.82},{"city":"New Russia","state_name":"New York","lat":44.13224,"lng":-73.63625,"zip":"12964","miles_from_dt":26.94},{"city":"Shoreham","state_name":"Vermont","lat":43.88662,"lng":-73.32771,"zip":"05770","miles_from_dt":27.37},{"city":"Milton","state_name":"Vermont","lat":44.65378,"lng":-73.15343,"zip":"05468","miles_from_dt":27.65},{"city":"South Hero","state_name":"Vermont","lat":44.62958,"lng":-73.31444,"zip":"05486","miles_from_dt":27.65},{"city":"Keeseville","state_name":"New York","lat":44.47589,"lng":-73.58751,"zip":"12924","miles_from_dt":27.73},{"city":"Cambridge","state_name":"Vermont","lat":44.62628,"lng":-72.88242,"zip":"05444","miles_from_dt":28.29},{"city":"Montpelier","state_name":"Vermont","lat":44.20424,"lng":-72.5551,"zip":"05601","miles_from_dt":28.3},{"city":"Crown Point","state_name":"New York","lat":43.9539,"lng":-73.52898,"zip":"12928","miles_from_dt":29},{"city":"Worcester","state_name":"Vermont","lat":44.40354,"lng":-72.57219,"zip":"05682","miles_from_dt":29.09},{"city":"Forest Dale","state_name":"Vermont","lat":43.82952,"lng":-73.05453,"zip":"05745","miles_from_dt":29.49},{"city":"Randolph","state_name":"Vermont","lat":43.96199,"lng":-72.68594,"zip":"05060","miles_from_dt":29.57},{"city":"Rochester","state_name":"Vermont","lat":43.87513,"lng":-72.82878,"zip":"05767","miles_from_dt":29.93}],"targetCityZipCode":"05469","targetCityState":"Vermont"},"__N_SSG":true}