{"pageProps":{"stateName":"Vermont","cityName":"south-londonderry","nearbyCities":[{"city":"Londonderry","state_name":"Vermont","lat":43.24503,"lng":-72.81224,"zip":"05148","miles_from_dt":4.71},{"city":"West Townshend","state_name":"Vermont","lat":43.15184,"lng":-72.72121,"zip":"05359","miles_from_dt":5.42},{"city":"Jamaica","state_name":"Vermont","lat":43.09744,"lng":-72.80105,"zip":"05343","miles_from_dt":5.61},{"city":"Bondville","state_name":"Vermont","lat":43.16215,"lng":-72.93486,"zip":"05340","miles_from_dt":5.76},{"city":"Peru","state_name":"Vermont","lat":43.251,"lng":-72.92008,"zip":"05152","miles_from_dt":7.08},{"city":"Weston","state_name":"Vermont","lat":43.3166,"lng":-72.8067,"zip":"05161","miles_from_dt":9.66},{"city":"Grafton","state_name":"Vermont","lat":43.17867,"lng":-72.62307,"zip":"05146","miles_from_dt":10.09},{"city":"East Dorset","state_name":"Vermont","lat":43.25235,"lng":-72.99913,"zip":"05253","miles_from_dt":10.31},{"city":"Wardsboro","state_name":"Vermont","lat":43.02079,"lng":-72.80645,"zip":"05355","miles_from_dt":10.83},{"city":"Townshend","state_name":"Vermont","lat":43.06501,"lng":-72.66484,"zip":"05353","miles_from_dt":11.12},{"city":"Chester","state_name":"Vermont","lat":43.26267,"lng":-72.63095,"zip":"05143","miles_from_dt":11.34},{"city":"West Wardsboro","state_name":"Vermont","lat":43.02778,"lng":-72.94378,"zip":"05360","miles_from_dt":11.99},{"city":"Manchester Center","state_name":"Vermont","lat":43.16696,"lng":-73.06685,"zip":"05255","miles_from_dt":12.35},{"city":"Manchester","state_name":"Vermont","lat":43.15937,"lng":-73.06911,"zip":"05254","miles_from_dt":12.51},{"city":"Cambridgeport","state_name":"Vermont","lat":43.15615,"lng":-72.55929,"zip":"05141","miles_from_dt":13.39},{"city":"East Arlington","state_name":"Vermont","lat":43.06642,"lng":-73.06132,"zip":"05252","miles_from_dt":14.28},{"city":"Dorset","state_name":"Vermont","lat":43.26189,"lng":-73.08269,"zip":"05251","miles_from_dt":14.37},{"city":"East Dover","state_name":"Vermont","lat":42.96407,"lng":-72.7972,"zip":"05341","miles_from_dt":14.77},{"city":"Newfane","state_name":"Vermont","lat":42.99516,"lng":-72.66747,"zip":"05345","miles_from_dt":14.82},{"city":"Saxtons River","state_name":"Vermont","lat":43.13558,"lng":-72.53424,"zip":"05154","miles_from_dt":14.86},{"city":"Belmont","state_name":"Vermont","lat":43.40262,"lng":-72.81508,"zip":"05730","miles_from_dt":15.57},{"city":"West Dover","state_name":"Vermont","lat":42.95423,"lng":-72.86952,"zip":"05356","miles_from_dt":15.57},{"city":"Danby","state_name":"Vermont","lat":43.34488,"lng":-73.0295,"zip":"05739","miles_from_dt":15.58},{"city":"Ludlow","state_name":"Vermont","lat":43.40368,"lng":-72.7029,"zip":"05149","miles_from_dt":16.77},{"city":"Bellows Falls","state_name":"Vermont","lat":43.1783,"lng":-72.48333,"zip":"05101","miles_from_dt":17.15},{"city":"Williamsville","state_name":"Vermont","lat":42.94609,"lng":-72.6816,"zip":"05362","miles_from_dt":17.48},{"city":"Wallingford","state_name":"Vermont","lat":43.40902,"lng":-72.96858,"zip":"05773","miles_from_dt":17.61},{"city":"South Newfane","state_name":"Vermont","lat":42.92867,"lng":-72.73728,"zip":"05351","miles_from_dt":17.69},{"city":"Putney","state_name":"Vermont","lat":43.02337,"lng":-72.53043,"zip":"05346","miles_from_dt":18.21},{"city":"East Wallingford","state_name":"Vermont","lat":43.43685,"lng":-72.9045,"zip":"05742","miles_from_dt":18.39},{"city":"Westminster","state_name":"Vermont","lat":43.10299,"lng":-72.47296,"zip":"05158","miles_from_dt":18.41},{"city":"North Springfield","state_name":"Vermont","lat":43.33653,"lng":-72.52727,"zip":"05150","miles_from_dt":18.53},{"city":"Mount Holly","state_name":"Vermont","lat":43.44797,"lng":-72.78386,"zip":"05758","miles_from_dt":18.8},{"city":"Arlington","state_name":"Vermont","lat":43.12048,"lng":-73.19337,"zip":"05250","miles_from_dt":19.13},{"city":"North Walpole","state_name":"New Hampshire","lat":43.1441,"lng":-72.44512,"zip":"03609","miles_from_dt":19.22},{"city":"Cavendish","state_name":"Vermont","lat":43.40454,"lng":-72.58457,"zip":"05142","miles_from_dt":19.77},{"city":"Proctorsville","state_name":"Vermont","lat":43.42885,"lng":-72.63487,"zip":"05153","miles_from_dt":19.79},{"city":"West Rupert","state_name":"Vermont","lat":43.24494,"lng":-73.20392,"zip":"05776","miles_from_dt":19.8},{"city":"Springfield","state_name":"Vermont","lat":43.30719,"lng":-72.46928,"zip":"05156","miles_from_dt":19.97},{"city":"West Dummerston","state_name":"Vermont","lat":42.92821,"lng":-72.61405,"zip":"05357","miles_from_dt":20.17},{"city":"Pawlet","state_name":"Vermont","lat":43.34786,"lng":-73.14855,"zip":"05761","miles_from_dt":20.22},{"city":"Westminster Station","state_name":"Vermont","lat":43.08598,"lng":-72.44073,"zip":"05159","miles_from_dt":20.32},{"city":"Shaftsbury","state_name":"Vermont","lat":42.97935,"lng":-73.12066,"zip":"05262","miles_from_dt":20.34},{"city":"Wilmington","state_name":"Vermont","lat":42.88301,"lng":-72.89554,"zip":"05363","miles_from_dt":20.64},{"city":"Rupert","state_name":"Vermont","lat":43.29846,"lng":-73.22168,"zip":"05768","miles_from_dt":21.8},{"city":"Drewsville","state_name":"New Hampshire","lat":43.13232,"lng":-72.38984,"zip":"03604","miles_from_dt":22.1},{"city":"Perkinsville","state_name":"Vermont","lat":43.39374,"lng":-72.49566,"zip":"05151","miles_from_dt":22.26},{"city":"Walpole","state_name":"New Hampshire","lat":43.07128,"lng":-72.40604,"zip":"03608","miles_from_dt":22.31},{"city":"Charlestown","state_name":"New Hampshire","lat":43.25339,"lng":-72.38059,"zip":"03603","miles_from_dt":22.94},{"city":"Brattleboro","state_name":"Vermont","lat":42.85531,"lng":-72.65619,"zip":"05302","miles_from_dt":23.77},{"city":"Marlboro","state_name":"Vermont","lat":42.83896,"lng":-72.73257,"zip":"05344","miles_from_dt":23.79},{"city":"West Pawlet","state_name":"Vermont","lat":43.35437,"lng":-73.22804,"zip":"05775","miles_from_dt":23.82},{"city":"Brattleboro","state_name":"Vermont","lat":42.88523,"lng":-72.55873,"zip":"05304","miles_from_dt":24.19},{"city":"Cuttingsville","state_name":"Vermont","lat":43.52895,"lng":-72.85637,"zip":"05738","miles_from_dt":24.34},{"city":"Westmoreland","state_name":"New Hampshire","lat":42.96894,"lng":-72.43203,"zip":"03467","miles_from_dt":24.45},{"city":"Brattleboro","state_name":"Vermont","lat":42.84346,"lng":-72.65901,"zip":"05301","miles_from_dt":24.48},{"city":"Wells","state_name":"Vermont","lat":43.42708,"lng":-73.17435,"zip":"05774","miles_from_dt":24.73},{"city":"Plymouth","state_name":"Vermont","lat":43.52895,"lng":-72.72397,"zip":"05056","miles_from_dt":24.79},{"city":"Shushan","state_name":"New York","lat":43.1185,"lng":-73.30682,"zip":"12873","miles_from_dt":24.8},{"city":"Alstead","state_name":"New Hampshire","lat":43.13751,"lng":-72.32938,"zip":"03602","miles_from_dt":25.09},{"city":"West Chesterfield","state_name":"New Hampshire","lat":42.89525,"lng":-72.50964,"zip":"03466","miles_from_dt":25.1},{"city":"Reading","state_name":"Vermont","lat":43.5012,"lng":-72.58358,"zip":"05062","miles_from_dt":25.41},{"city":"Ascutney","state_name":"Vermont","lat":43.39989,"lng":-72.40981,"zip":"05030","miles_from_dt":25.89},{"city":"Middletown Springs","state_name":"Vermont","lat":43.48279,"lng":-73.12325,"zip":"05757","miles_from_dt":25.97},{"city":"Brownsville","state_name":"Vermont","lat":43.46033,"lng":-72.48371,"zip":"05037","miles_from_dt":25.97},{"city":"Brattleboro","state_name":"Vermont","lat":42.85464,"lng":-72.55862,"zip":"05303","miles_from_dt":25.98},{"city":"North Clarendon","state_name":"Vermont","lat":43.53926,"lng":-72.96483,"zip":"05759","miles_from_dt":26},{"city":"North Bennington","state_name":"Vermont","lat":42.96538,"lng":-73.25156,"zip":"05257","miles_from_dt":26.16},{"city":"Salem","state_name":"New York","lat":43.21225,"lng":-73.34191,"zip":"12865","miles_from_dt":26.33},{"city":"Bennington","state_name":"Vermont","lat":42.87652,"lng":-73.1426,"zip":"05201","miles_from_dt":26.33},{"city":"Acworth","state_name":"New Hampshire","lat":43.23933,"lng":-72.29855,"zip":"03601","miles_from_dt":26.82},{"city":"Readsboro","state_name":"Vermont","lat":42.79879,"lng":-72.97187,"zip":"05350","miles_from_dt":27.19},{"city":"Whitingham","state_name":"Vermont","lat":42.78021,"lng":-72.87935,"zip":"05361","miles_from_dt":27.55},{"city":"Chesterfield","state_name":"New Hampshire","lat":42.8767,"lng":-72.46148,"zip":"03443","miles_from_dt":27.66},{"city":"Jacksonville","state_name":"Vermont","lat":42.77468,"lng":-72.80015,"zip":"05342","miles_from_dt":27.81},{"city":"Claremont","state_name":"New Hampshire","lat":43.36026,"lng":-72.32489,"zip":"03743","miles_from_dt":28.12},{"city":"Granville","state_name":"New York","lat":43.36813,"lng":-73.31716,"zip":"12832","miles_from_dt":28.21},{"city":"West Halifax","state_name":"Vermont","lat":42.77396,"lng":-72.73164,"zip":"05358","miles_from_dt":28.21},{"city":"South Acworth","state_name":"New Hampshire","lat":43.19698,"lng":-72.26084,"zip":"03607","miles_from_dt":28.42},{"city":"West Rutland","state_name":"Vermont","lat":43.5552,"lng":-73.05504,"zip":"05777","miles_from_dt":28.6},{"city":"Spofford","state_name":"New Hampshire","lat":42.8949,"lng":-72.40507,"zip":"03462","miles_from_dt":28.76},{"city":"Windsor","state_name":"Vermont","lat":43.49686,"lng":-72.4515,"zip":"05089","miles_from_dt":28.93},{"city":"Cambridge","state_name":"New York","lat":43.05085,"lng":-73.37829,"zip":"12816","miles_from_dt":29.42},{"city":"Cossayuna","state_name":"New York","lat":43.17945,"lng":-73.40628,"zip":"12823","miles_from_dt":29.48},{"city":"South Woodstock","state_name":"Vermont","lat":43.56461,"lng":-72.56842,"zip":"05071","miles_from_dt":29.66},{"city":"Gilsum","state_name":"New Hampshire","lat":43.03996,"lng":-72.26448,"zip":"03448","miles_from_dt":29.78},{"city":"Stamford","state_name":"Vermont","lat":42.78796,"lng":-73.07862,"zip":"05352","miles_from_dt":29.83},{"city":"Eagle Bridge","state_name":"New York","lat":42.97316,"lng":-73.34335,"zip":"12057","miles_from_dt":29.87}],"targetCityZipCode":"05155","targetCityState":"Vermont"},"__N_SSG":true}