{"pageProps":{"stateName":"Vermont","cityName":"stamford","nearbyCities":[{"city":"Readsboro","state_name":"Vermont","lat":42.79879,"lng":-72.97187,"zip":"05350","miles_from_dt":5.48},{"city":"North Adams","state_name":"Massachusetts","lat":42.69813,"lng":-73.09264,"zip":"01247","miles_from_dt":6.24},{"city":"Monroe Bridge","state_name":"Massachusetts","lat":42.72259,"lng":-72.98291,"zip":"01350","miles_from_dt":6.64},{"city":"Pownal","state_name":"Vermont","lat":42.77516,"lng":-73.21273,"zip":"05261","miles_from_dt":6.88},{"city":"Bennington","state_name":"Vermont","lat":42.87652,"lng":-73.1426,"zip":"05201","miles_from_dt":6.92},{"city":"Drury","state_name":"Massachusetts","lat":42.66766,"lng":-72.98822,"zip":"01343","miles_from_dt":9.49},{"city":"North Pownal","state_name":"Vermont","lat":42.81594,"lng":-73.26173,"zip":"05260","miles_from_dt":9.51},{"city":"Whitingham","state_name":"Vermont","lat":42.78021,"lng":-72.87935,"zip":"05361","miles_from_dt":10.15},{"city":"Rowe","state_name":"Massachusetts","lat":42.69674,"lng":-72.91387,"zip":"01367","miles_from_dt":10.48},{"city":"Adams","state_name":"Massachusetts","lat":42.62686,"lng":-73.11873,"zip":"01220","miles_from_dt":11.31},{"city":"Wilmington","state_name":"Vermont","lat":42.88301,"lng":-72.89554,"zip":"05363","miles_from_dt":11.38},{"city":"Williamstown","state_name":"Massachusetts","lat":42.66593,"lng":-73.24209,"zip":"01267","miles_from_dt":11.84},{"city":"Shaftsbury","state_name":"Vermont","lat":42.97935,"lng":-73.12066,"zip":"05262","miles_from_dt":13.38},{"city":"Savoy","state_name":"Massachusetts","lat":42.59627,"lng":-73.01958,"zip":"01256","miles_from_dt":13.57},{"city":"Hoosick","state_name":"New York","lat":42.86431,"lng":-73.32714,"zip":"12089","miles_from_dt":13.68},{"city":"Jacksonville","state_name":"Vermont","lat":42.77468,"lng":-72.80015,"zip":"05342","miles_from_dt":14.19},{"city":"North Bennington","state_name":"Vermont","lat":42.96538,"lng":-73.25156,"zip":"05257","miles_from_dt":15.07},{"city":"Petersburg","state_name":"New York","lat":42.73735,"lng":-73.37128,"zip":"12138","miles_from_dt":15.29},{"city":"Berlin","state_name":"New York","lat":42.66653,"lng":-73.33401,"zip":"12022","miles_from_dt":15.47},{"city":"Hoosick Falls","state_name":"New York","lat":42.88073,"lng":-73.35624,"zip":"12090","miles_from_dt":15.49},{"city":"Charlemont","state_name":"Massachusetts","lat":42.61099,"lng":-72.88846,"zip":"01339","miles_from_dt":15.59},{"city":"West Dover","state_name":"Vermont","lat":42.95423,"lng":-72.86952,"zip":"05356","miles_from_dt":15.63},{"city":"Heath","state_name":"Massachusetts","lat":42.6706,"lng":-72.81323,"zip":"01346","miles_from_dt":15.75},{"city":"Cheshire","state_name":"Massachusetts","lat":42.56385,"lng":-73.1512,"zip":"01225","miles_from_dt":15.9},{"city":"North Hoosick","state_name":"New York","lat":42.92452,"lng":-73.3457,"zip":"12133","miles_from_dt":16.52},{"city":"West Halifax","state_name":"Vermont","lat":42.77396,"lng":-72.73164,"zip":"05358","miles_from_dt":17.67},{"city":"West Wardsboro","state_name":"Vermont","lat":43.02778,"lng":-72.94378,"zip":"05360","miles_from_dt":17.91},{"city":"Marlboro","state_name":"Vermont","lat":42.83896,"lng":-72.73257,"zip":"05344","miles_from_dt":17.94},{"city":"Cherry Plain","state_name":"New York","lat":42.63047,"lng":-73.35916,"zip":"12040","miles_from_dt":17.95},{"city":"Lanesborough","state_name":"Massachusetts","lat":42.5529,"lng":-73.25373,"zip":"01237","miles_from_dt":18.52},{"city":"Eagle Bridge","state_name":"New York","lat":42.97316,"lng":-73.34335,"zip":"12057","miles_from_dt":18.55},{"city":"East Dover","state_name":"Vermont","lat":42.96407,"lng":-72.7972,"zip":"05341","miles_from_dt":18.76},{"city":"Grafton","state_name":"New York","lat":42.76998,"lng":-73.44672,"zip":"12082","miles_from_dt":18.76},{"city":"Colrain","state_name":"Massachusetts","lat":42.68805,"lng":-72.73205,"zip":"01340","miles_from_dt":18.93},{"city":"Windsor","state_name":"Massachusetts","lat":42.51297,"lng":-73.04859,"zip":"01270","miles_from_dt":19.04},{"city":"East Arlington","state_name":"Vermont","lat":43.06642,"lng":-73.06132,"zip":"05252","miles_from_dt":19.24},{"city":"South Newfane","state_name":"Vermont","lat":42.92867,"lng":-72.73728,"zip":"05351","miles_from_dt":19.87},{"city":"Buckland","state_name":"Massachusetts","lat":42.5814,"lng":-72.80309,"zip":"01338","miles_from_dt":20},{"city":"Plainfield","state_name":"Massachusetts","lat":42.51958,"lng":-72.92504,"zip":"01070","miles_from_dt":20.11},{"city":"Berkshire","state_name":"Massachusetts","lat":42.50622,"lng":-73.19841,"zip":"01224","miles_from_dt":20.38},{"city":"Cropseyville","state_name":"New York","lat":42.75767,"lng":-73.47847,"zip":"12052","miles_from_dt":20.44},{"city":"Wardsboro","state_name":"Vermont","lat":43.02079,"lng":-72.80645,"zip":"05355","miles_from_dt":21.19},{"city":"Buskirk","state_name":"New York","lat":42.94545,"lng":-73.44213,"zip":"12028","miles_from_dt":21.42},{"city":"Dalton","state_name":"Massachusetts","lat":42.47954,"lng":-73.15329,"zip":"01226","miles_from_dt":21.63},{"city":"Brattleboro","state_name":"Vermont","lat":42.84346,"lng":-72.65901,"zip":"05301","miles_from_dt":21.67},{"city":"Stephentown","state_name":"New York","lat":42.5614,"lng":-73.3751,"zip":"12168","miles_from_dt":21.74},{"city":"Johnsonville","state_name":"New York","lat":42.89091,"lng":-73.48737,"zip":"12094","miles_from_dt":21.95},{"city":"Brattleboro","state_name":"Vermont","lat":42.85531,"lng":-72.65619,"zip":"05302","miles_from_dt":21.96},{"city":"Shelburne Falls","state_name":"Massachusetts","lat":42.59607,"lng":-72.72915,"zip":"01370","miles_from_dt":22.18},{"city":"Dalton","state_name":"Massachusetts","lat":42.4724,"lng":-73.16202,"zip":"01227","miles_from_dt":22.19},{"city":"Sand Lake","state_name":"New York","lat":42.63606,"lng":-73.46692,"zip":"12153","miles_from_dt":22.37},{"city":"Williamsville","state_name":"Vermont","lat":42.94609,"lng":-72.6816,"zip":"05362","miles_from_dt":22.92},{"city":"Ashfield","state_name":"Massachusetts","lat":42.51772,"lng":-72.81556,"zip":"01330","miles_from_dt":22.97},{"city":"Stephentown","state_name":"New York","lat":42.58249,"lng":-73.43559,"zip":"12169","miles_from_dt":23.06},{"city":"Cummington","state_name":"Massachusetts","lat":42.46858,"lng":-72.92296,"zip":"01026","miles_from_dt":23.43},{"city":"Cambridge","state_name":"New York","lat":43.05085,"lng":-73.37829,"zip":"12816","miles_from_dt":23.67},{"city":"Arlington","state_name":"Vermont","lat":43.12048,"lng":-73.19337,"zip":"05250","miles_from_dt":23.68},{"city":"Valley Falls","state_name":"New York","lat":42.90102,"lng":-73.53507,"zip":"12185","miles_from_dt":24.46},{"city":"Hinsdale","state_name":"Massachusetts","lat":42.43181,"lng":-73.07336,"zip":"01235","miles_from_dt":24.58},{"city":"Pittsfield","state_name":"Massachusetts","lat":42.45319,"lng":-73.26278,"zip":"01203","miles_from_dt":24.94},{"city":"Pittsfield","state_name":"Massachusetts","lat":42.45614,"lng":-73.28114,"zip":"01201","miles_from_dt":25.12},{"city":"Averill Park","state_name":"New York","lat":42.62926,"lng":-73.52662,"zip":"12018","miles_from_dt":25.3},{"city":"Newfane","state_name":"Vermont","lat":42.99516,"lng":-72.66747,"zip":"05345","miles_from_dt":25.3},{"city":"West Dummerston","state_name":"Vermont","lat":42.92821,"lng":-72.61405,"zip":"05357","miles_from_dt":25.5},{"city":"Shushan","state_name":"New York","lat":43.1185,"lng":-73.30682,"zip":"12873","miles_from_dt":25.58},{"city":"Jamaica","state_name":"Vermont","lat":43.09744,"lng":-72.80105,"zip":"05343","miles_from_dt":25.58},{"city":"Manchester","state_name":"Vermont","lat":43.15937,"lng":-73.06911,"zip":"05254","miles_from_dt":25.64},{"city":"Greenfield","state_name":"Massachusetts","lat":42.65202,"lng":-72.60965,"zip":"01302","miles_from_dt":25.65},{"city":"Poestenkill","state_name":"New York","lat":42.689,"lng":-73.56689,"zip":"12140","miles_from_dt":25.77},{"city":"Pittsfield","state_name":"Massachusetts","lat":42.45789,"lng":-73.32205,"zip":"01202","miles_from_dt":25.94},{"city":"Manchester Center","state_name":"Vermont","lat":43.16696,"lng":-73.06685,"zip":"05255","miles_from_dt":26.17},{"city":"Bernardston","state_name":"Massachusetts","lat":42.69512,"lng":-72.57731,"zip":"01337","miles_from_dt":26.3},{"city":"Goshen","state_name":"Massachusetts","lat":42.45313,"lng":-72.81965,"zip":"01032","miles_from_dt":26.62},{"city":"Troy","state_name":"New York","lat":42.7516,"lng":-73.59997,"zip":"12180","miles_from_dt":26.63},{"city":"Greenfield","state_name":"Massachusetts","lat":42.62375,"lng":-72.60379,"zip":"01301","miles_from_dt":26.7},{"city":"Brattleboro","state_name":"Vermont","lat":42.85464,"lng":-72.55862,"zip":"05303","miles_from_dt":26.82},{"city":"Bondville","state_name":"Vermont","lat":43.16215,"lng":-72.93486,"zip":"05340","miles_from_dt":26.84},{"city":"Melrose","state_name":"New York","lat":42.84368,"lng":-73.60398,"zip":"12121","miles_from_dt":26.97},{"city":"New Lebanon","state_name":"New York","lat":42.47633,"lng":-73.40394,"zip":"12125","miles_from_dt":27.16},{"city":"Brattleboro","state_name":"Vermont","lat":42.88523,"lng":-72.55873,"zip":"05304","miles_from_dt":27.25},{"city":"Conway","state_name":"Massachusetts","lat":42.50734,"lng":-72.70221,"zip":"01341","miles_from_dt":27.26},{"city":"Worthington","state_name":"Massachusetts","lat":42.39551,"lng":-72.94315,"zip":"01098","miles_from_dt":27.96},{"city":"East Nassau","state_name":"New York","lat":42.52871,"lng":-73.501,"zip":"12062","miles_from_dt":27.99},{"city":"Vernon","state_name":"Vermont","lat":42.76211,"lng":-72.52553,"zip":"05354","miles_from_dt":28.18},{"city":"Troy","state_name":"New York","lat":42.80044,"lng":-73.63519,"zip":"12182","miles_from_dt":28.31},{"city":"Townshend","state_name":"Vermont","lat":43.06501,"lng":-72.66484,"zip":"05353","miles_from_dt":28.4},{"city":"Schaghticoke","state_name":"New York","lat":42.93713,"lng":-73.60124,"zip":"12154","miles_from_dt":28.47},{"city":"West Lebanon","state_name":"New York","lat":42.47876,"lng":-73.46505,"zip":"12195","miles_from_dt":29.04},{"city":"Wynantskill","state_name":"New York","lat":42.67819,"lng":-73.63285,"zip":"12198","miles_from_dt":29.2},{"city":"Deerfield","state_name":"Massachusetts","lat":42.54384,"lng":-72.6058,"zip":"01342","miles_from_dt":29.39},{"city":"Hinsdale","state_name":"New Hampshire","lat":42.80907,"lng":-72.50029,"zip":"03451","miles_from_dt":29.43},{"city":"West Sand Lake","state_name":"New York","lat":42.63149,"lng":-73.61708,"zip":"12196","miles_from_dt":29.46},{"city":"West Chesterfield","state_name":"Massachusetts","lat":42.38589,"lng":-72.88165,"zip":"01084","miles_from_dt":29.52},{"city":"South Londonderry","state_name":"Vermont","lat":43.17717,"lng":-72.8228,"zip":"05155","miles_from_dt":29.83},{"city":"West Chesterfield","state_name":"New Hampshire","lat":42.89525,"lng":-72.50964,"zip":"03466","miles_from_dt":29.84},{"city":"Lenox","state_name":"Massachusetts","lat":42.37567,"lng":-73.26466,"zip":"01240","miles_from_dt":30}],"targetCityZipCode":"05352","targetCityState":"Vermont"},"__N_SSG":true}