{"pageProps":{"stateName":"Vermont","cityName":"waterbury-center","nearbyCities":[{"city":"Moscow","state_name":"Vermont","lat":44.44194,"lng":-72.71724,"zip":"05662","miles_from_dt":3.48},{"city":"Waterbury","state_name":"Vermont","lat":44.34129,"lng":-72.75854,"zip":"05671","miles_from_dt":4.29},{"city":"Waterbury","state_name":"Vermont","lat":44.34825,"lng":-72.80984,"zip":"05676","miles_from_dt":5.86},{"city":"Stowe","state_name":"Vermont","lat":44.48151,"lng":-72.72174,"zip":"05672","miles_from_dt":6.22},{"city":"Worcester","state_name":"Vermont","lat":44.40354,"lng":-72.57219,"zip":"05682","miles_from_dt":6.79},{"city":"Montpelier","state_name":"Vermont","lat":44.2848,"lng":-72.61498,"zip":"05602","miles_from_dt":8.73},{"city":"Montpelier","state_name":"Vermont","lat":44.28742,"lng":-72.60006,"zip":"05609","miles_from_dt":8.99},{"city":"Moretown","state_name":"Vermont","lat":44.24733,"lng":-72.76808,"zip":"05660","miles_from_dt":10.41},{"city":"Calais","state_name":"Vermont","lat":44.38372,"lng":-72.49355,"zip":"05648","miles_from_dt":10.65},{"city":"Montpelier","state_name":"Vermont","lat":44.26268,"lng":-72.58391,"zip":"05620","miles_from_dt":10.85},{"city":"Montpelier","state_name":"Vermont","lat":44.26213,"lng":-72.58436,"zip":"05603","miles_from_dt":10.87},{"city":"Adamant","state_name":"Vermont","lat":44.34734,"lng":-72.49675,"zip":"05640","miles_from_dt":10.93},{"city":"Morrisville","state_name":"Vermont","lat":44.53743,"lng":-72.61724,"zip":"05661","miles_from_dt":11.01},{"city":"Montpelier","state_name":"Vermont","lat":44.25706,"lng":-72.58779,"zip":"05604","miles_from_dt":11.07},{"city":"Montpelier","state_name":"Vermont","lat":44.25908,"lng":-72.58055,"zip":"05633","miles_from_dt":11.15},{"city":"Jericho","state_name":"Vermont","lat":44.45882,"lng":-72.93058,"zip":"05465","miles_from_dt":11.92},{"city":"East Calais","state_name":"Vermont","lat":44.4002,"lng":-72.44235,"zip":"05650","miles_from_dt":13.18},{"city":"Underhill Center","state_name":"Vermont","lat":44.52797,"lng":-72.89695,"zip":"05490","miles_from_dt":13.23},{"city":"East Montpelier","state_name":"Vermont","lat":44.27777,"lng":-72.49246,"zip":"05651","miles_from_dt":13.29},{"city":"Huntington","state_name":"Vermont","lat":44.29909,"lng":-72.95228,"zip":"05462","miles_from_dt":13.68},{"city":"Lake Elmore","state_name":"Vermont","lat":44.54436,"lng":-72.52862,"zip":"05657","miles_from_dt":13.78},{"city":"North Montpelier","state_name":"Vermont","lat":44.34125,"lng":-72.43873,"zip":"05666","miles_from_dt":13.81},{"city":"Richmond","state_name":"Vermont","lat":44.3936,"lng":-72.99152,"zip":"05477","miles_from_dt":14.02},{"city":"Underhill","state_name":"Vermont","lat":44.5458,"lng":-72.89471,"zip":"05489","miles_from_dt":14.06},{"city":"Montpelier","state_name":"Vermont","lat":44.20424,"lng":-72.5551,"zip":"05601","miles_from_dt":15.03},{"city":"Waitsfield","state_name":"Vermont","lat":44.19371,"lng":-72.84356,"zip":"05673","miles_from_dt":15.24},{"city":"Wolcott","state_name":"Vermont","lat":44.53785,"lng":-72.46838,"zip":"05680","miles_from_dt":15.57},{"city":"Northfield Falls","state_name":"Vermont","lat":44.16718,"lng":-72.65316,"zip":"05664","miles_from_dt":15.76},{"city":"Woodbury","state_name":"Vermont","lat":44.45377,"lng":-72.38016,"zip":"05681","miles_from_dt":16.79},{"city":"Northfield","state_name":"Vermont","lat":44.14946,"lng":-72.67239,"zip":"05663","miles_from_dt":16.84},{"city":"Plainfield","state_name":"Vermont","lat":44.28122,"lng":-72.3986,"zip":"05667","miles_from_dt":17.15},{"city":"Hyde Park","state_name":"Vermont","lat":44.62461,"lng":-72.56462,"zip":"05655","miles_from_dt":17.57},{"city":"Marshfield","state_name":"Vermont","lat":44.35921,"lng":-72.35399,"zip":"05658","miles_from_dt":17.7},{"city":"Johnson","state_name":"Vermont","lat":44.64898,"lng":-72.68825,"zip":"05656","miles_from_dt":17.78},{"city":"South Barre","state_name":"Vermont","lat":44.17799,"lng":-72.50558,"zip":"05670","miles_from_dt":17.87},{"city":"Cambridge","state_name":"Vermont","lat":44.62628,"lng":-72.88242,"zip":"05444","miles_from_dt":18.32},{"city":"Starksboro","state_name":"Vermont","lat":44.23082,"lng":-73.01096,"zip":"05487","miles_from_dt":18.67},{"city":"Jeffersonville","state_name":"Vermont","lat":44.65469,"lng":-72.81897,"zip":"05464","miles_from_dt":18.95},{"city":"Barre","state_name":"Vermont","lat":44.18602,"lng":-72.45108,"zip":"05641","miles_from_dt":19.11},{"city":"Williston","state_name":"Vermont","lat":44.42901,"lng":-73.09197,"zip":"05495","miles_from_dt":19.16},{"city":"Essex","state_name":"Vermont","lat":44.5075,"lng":-73.06948,"zip":"05451","miles_from_dt":19.56},{"city":"Hinesburg","state_name":"Vermont","lat":44.32094,"lng":-73.09176,"zip":"05461","miles_from_dt":19.61},{"city":"Essex Junction","state_name":"Vermont","lat":44.4929,"lng":-73.08159,"zip":"05453","miles_from_dt":19.73},{"city":"Essex Junction","state_name":"Vermont","lat":44.5238,"lng":-73.06479,"zip":"05452","miles_from_dt":19.84},{"city":"Websterville","state_name":"Vermont","lat":44.15577,"lng":-72.47445,"zip":"05678","miles_from_dt":20.02},{"city":"North Hyde Park","state_name":"Vermont","lat":44.67179,"lng":-72.59897,"zip":"05665","miles_from_dt":20.06},{"city":"Hardwick","state_name":"Vermont","lat":44.50355,"lng":-72.33366,"zip":"05843","miles_from_dt":20.07},{"city":"Cabot","state_name":"Vermont","lat":44.41001,"lng":-72.29126,"zip":"05647","miles_from_dt":20.69},{"city":"Graniteville","state_name":"Vermont","lat":44.14053,"lng":-72.48092,"zip":"05654","miles_from_dt":20.71},{"city":"Warren","state_name":"Vermont","lat":44.11112,"lng":-72.86081,"zip":"05674","miles_from_dt":20.81},{"city":"Westford","state_name":"Vermont","lat":44.60472,"lng":-73.01523,"zip":"05494","miles_from_dt":21.11},{"city":"Williamstown","state_name":"Vermont","lat":44.10677,"lng":-72.54052,"zip":"05679","miles_from_dt":21.38},{"city":"Burlington","state_name":"Vermont","lat":44.5057,"lng":-73.12665,"zip":"05402","miles_from_dt":22.13},{"city":"Waterville","state_name":"Vermont","lat":44.71324,"lng":-72.75853,"zip":"05492","miles_from_dt":22.32},{"city":"Monkton","state_name":"Vermont","lat":44.25395,"lng":-73.12095,"zip":"05469","miles_from_dt":22.56},{"city":"Craftsbury","state_name":"Vermont","lat":44.6444,"lng":-72.40404,"zip":"05826","miles_from_dt":23.02},{"city":"South Burlington","state_name":"Vermont","lat":44.447,"lng":-73.17229,"zip":"05403","miles_from_dt":23.27},{"city":"South Burlington","state_name":"Vermont","lat":44.44635,"lng":-73.17568,"zip":"05407","miles_from_dt":23.43},{"city":"Roxbury","state_name":"Vermont","lat":44.05325,"lng":-72.75155,"zip":"05669","miles_from_dt":23.48},{"city":"Colchester","state_name":"Vermont","lat":44.49573,"lng":-73.16524,"zip":"05439","miles_from_dt":23.71},{"city":"Eden Mills","state_name":"Vermont","lat":44.70141,"lng":-72.49275,"zip":"05653","miles_from_dt":23.87},{"city":"Eden","state_name":"Vermont","lat":44.72824,"lng":-72.58674,"zip":"05652","miles_from_dt":23.99},{"city":"Colchester","state_name":"Vermont","lat":44.54505,"lng":-73.14596,"zip":"05449","miles_from_dt":24.08},{"city":"Peacham","state_name":"Vermont","lat":44.31971,"lng":-72.23133,"zip":"05862","miles_from_dt":24.15},{"city":"East Hardwick","state_name":"Vermont","lat":44.5196,"lng":-72.25173,"zip":"05836","miles_from_dt":24.24},{"city":"Bristol","state_name":"Vermont","lat":44.12976,"lng":-73.03347,"zip":"05443","miles_from_dt":24.25},{"city":"West Danville","state_name":"Vermont","lat":44.40619,"lng":-72.21841,"zip":"05873","miles_from_dt":24.28},{"city":"East Barre","state_name":"Vermont","lat":44.14004,"lng":-72.36589,"zip":"05649","miles_from_dt":24.32},{"city":"Winooski","state_name":"Vermont","lat":44.49483,"lng":-73.18467,"zip":"05404","miles_from_dt":24.61},{"city":"Burlington","state_name":"Vermont","lat":44.47475,"lng":-73.19649,"zip":"05405","miles_from_dt":24.81},{"city":"Greensboro","state_name":"Vermont","lat":44.60794,"lng":-72.30232,"zip":"05841","miles_from_dt":25},{"city":"Groton","state_name":"Vermont","lat":44.23864,"lng":-72.25024,"zip":"05046","miles_from_dt":25.06},{"city":"Belvidere Center","state_name":"Vermont","lat":44.76164,"lng":-72.68043,"zip":"05442","miles_from_dt":25.56},{"city":"Burlington","state_name":"Vermont","lat":44.47484,"lng":-73.21758,"zip":"05401","miles_from_dt":25.83},{"city":"Brookfield","state_name":"Vermont","lat":44.026,"lng":-72.57843,"zip":"05036","miles_from_dt":26.08},{"city":"North Ferrisburgh","state_name":"Vermont","lat":44.24119,"lng":-73.19346,"zip":"05473","miles_from_dt":26.2},{"city":"Washington","state_name":"Vermont","lat":44.07386,"lng":-72.41821,"zip":"05675","miles_from_dt":26.27},{"city":"Bakersfield","state_name":"Vermont","lat":44.7686,"lng":-72.78669,"zip":"05441","miles_from_dt":26.29},{"city":"Craftsbury Common","state_name":"Vermont","lat":44.68135,"lng":-72.36198,"zip":"05827","miles_from_dt":26.31},{"city":"Greensboro Bend","state_name":"Vermont","lat":44.57966,"lng":-72.24453,"zip":"05842","miles_from_dt":26.34},{"city":"Shelburne","state_name":"Vermont","lat":44.39057,"lng":-73.24134,"zip":"05482","miles_from_dt":26.39},{"city":"Burlington","state_name":"Vermont","lat":44.48717,"lng":-73.22627,"zip":"05406","miles_from_dt":26.45},{"city":"East Fairfield","state_name":"Vermont","lat":44.75374,"lng":-72.8872,"zip":"05448","miles_from_dt":26.49},{"city":"Fairfax","state_name":"Vermont","lat":44.7056,"lng":-73.02294,"zip":"05454","miles_from_dt":26.65},{"city":"Charlotte","state_name":"Vermont","lat":44.30896,"lng":-73.23593,"zip":"05445","miles_from_dt":26.76},{"city":"Jonesville","state_name":"Vermont","lat":44.54068,"lng":-73.20958,"zip":"05466","miles_from_dt":26.82},{"city":"Colchester","state_name":"Vermont","lat":44.5541,"lng":-73.21647,"zip":"05446","miles_from_dt":27.5},{"city":"West Topsham","state_name":"Vermont","lat":44.1182,"lng":-72.30249,"zip":"05086","miles_from_dt":27.62},{"city":"Granville","state_name":"Vermont","lat":44.00354,"lng":-72.85494,"zip":"05747","miles_from_dt":27.79},{"city":"Milton","state_name":"Vermont","lat":44.65378,"lng":-73.15343,"zip":"05468","miles_from_dt":28.46},{"city":"Burlington","state_name":"Vermont","lat":44.48969,"lng":-73.27139,"zip":"05408","miles_from_dt":28.66},{"city":"Danville","state_name":"Vermont","lat":44.43748,"lng":-72.12334,"zip":"05828","miles_from_dt":29.12},{"city":"Topsham","state_name":"Vermont","lat":44.14503,"lng":-72.22659,"zip":"05076","miles_from_dt":29.36},{"city":"New Haven","state_name":"Vermont","lat":44.11377,"lng":-73.1611,"zip":"05472","miles_from_dt":29.56},{"city":"Albany","state_name":"Vermont","lat":44.74862,"lng":-72.37351,"zip":"05820","miles_from_dt":29.66},{"city":"Randolph","state_name":"Vermont","lat":43.96199,"lng":-72.68594,"zip":"05060","miles_from_dt":29.71}],"targetCityZipCode":"05677","targetCityState":"Vermont"},"__N_SSG":true}