{"pageProps":{"stateName":"Wisconsin","cityName":"brownsville","nearbyCities":[{"city":"Oakfield","state_name":"Wisconsin","lat":43.68227,"lng":-88.56866,"zip":"53065","miles_from_dt":4.55},{"city":"Lomira","state_name":"Wisconsin","lat":43.57935,"lng":-88.45554,"zip":"53048","miles_from_dt":4.93},{"city":"Mayville","state_name":"Wisconsin","lat":43.50992,"lng":-88.54734,"zip":"53050","miles_from_dt":7.69},{"city":"Theresa","state_name":"Wisconsin","lat":43.49667,"lng":-88.43674,"zip":"53091","miles_from_dt":9.91},{"city":"Waupun","state_name":"Wisconsin","lat":43.63492,"lng":-88.73828,"zip":"53963","miles_from_dt":10.22},{"city":"Fond Du Lac","state_name":"Wisconsin","lat":43.75959,"lng":-88.43335,"zip":"54937","miles_from_dt":10.84},{"city":"Burnett","state_name":"Wisconsin","lat":43.51558,"lng":-88.70916,"zip":"53922","miles_from_dt":11.36},{"city":"Fond Du Lac","state_name":"Wisconsin","lat":43.77351,"lng":-88.4478,"zip":"54936","miles_from_dt":11.4},{"city":"Fond Du Lac","state_name":"Wisconsin","lat":43.77542,"lng":-88.43396,"zip":"54935","miles_from_dt":11.81},{"city":"Eden","state_name":"Wisconsin","lat":43.69667,"lng":-88.30752,"zip":"53019","miles_from_dt":12.56},{"city":"Rosendale","state_name":"Wisconsin","lat":43.7801,"lng":-88.65997,"zip":"54974","miles_from_dt":12.63},{"city":"Horicon","state_name":"Wisconsin","lat":43.44708,"lng":-88.6234,"zip":"53032","miles_from_dt":12.8},{"city":"Campbellsport","state_name":"Wisconsin","lat":43.61121,"lng":-88.27901,"zip":"53010","miles_from_dt":12.87},{"city":"Allenton","state_name":"Wisconsin","lat":43.46896,"lng":-88.35454,"zip":"53002","miles_from_dt":13.88},{"city":"Brandon","state_name":"Wisconsin","lat":43.73462,"lng":-88.77564,"zip":"53919","miles_from_dt":14.37},{"city":"Eldorado","state_name":"Wisconsin","lat":43.83143,"lng":-88.61861,"zip":"54932","miles_from_dt":15.11},{"city":"Iron Ridge","state_name":"Wisconsin","lat":43.39135,"lng":-88.54355,"zip":"53035","miles_from_dt":15.86},{"city":"Woodland","state_name":"Wisconsin","lat":43.38035,"lng":-88.52525,"zip":"53099","miles_from_dt":16.62},{"city":"Van Dyne","state_name":"Wisconsin","lat":43.8688,"lng":-88.53875,"zip":"54979","miles_from_dt":17.11},{"city":"Fox Lake","state_name":"Wisconsin","lat":43.57235,"lng":-88.88338,"zip":"53933","miles_from_dt":17.78},{"city":"Kewaskum","state_name":"Wisconsin","lat":43.52126,"lng":-88.19198,"zip":"53040","miles_from_dt":18.56},{"city":"Mount Calvary","state_name":"Wisconsin","lat":43.79099,"lng":-88.24671,"zip":"53057","miles_from_dt":18.62},{"city":"Fairwater","state_name":"Wisconsin","lat":43.74236,"lng":-88.86798,"zip":"53931","miles_from_dt":18.65},{"city":"Juneau","state_name":"Wisconsin","lat":43.36931,"lng":-88.71148,"zip":"53039","miles_from_dt":19.5},{"city":"Hustisford","state_name":"Wisconsin","lat":43.34014,"lng":-88.60746,"zip":"53034","miles_from_dt":19.73},{"city":"Beaver Dam","state_name":"Wisconsin","lat":43.45538,"lng":-88.85813,"zip":"53916","miles_from_dt":19.84},{"city":"West Bend","state_name":"Wisconsin","lat":43.45685,"lng":-88.17985,"zip":"53090","miles_from_dt":21.15},{"city":"Rubicon","state_name":"Wisconsin","lat":43.31386,"lng":-88.45924,"zip":"53078","miles_from_dt":21.55},{"city":"Saint Cloud","state_name":"Wisconsin","lat":43.81132,"lng":-88.1888,"zip":"53079","miles_from_dt":21.76},{"city":"Ripon","state_name":"Wisconsin","lat":43.85546,"lng":-88.83109,"zip":"54971","miles_from_dt":21.93},{"city":"Malone","state_name":"Wisconsin","lat":43.8853,"lng":-88.28917,"zip":"53049","miles_from_dt":22.01},{"city":"Pickett","state_name":"Wisconsin","lat":43.9178,"lng":-88.71836,"zip":"54964","miles_from_dt":22.44},{"city":"Hartford","state_name":"Wisconsin","lat":43.31697,"lng":-88.37356,"zip":"53027","miles_from_dt":22.51},{"city":"Oshkosh","state_name":"Wisconsin","lat":43.94934,"lng":-88.53969,"zip":"54902","miles_from_dt":22.67},{"city":"Neosho","state_name":"Wisconsin","lat":43.28954,"lng":-88.53012,"zip":"53059","miles_from_dt":22.89},{"city":"Cascade","state_name":"Wisconsin","lat":43.65755,"lng":-88.08123,"zip":"53011","miles_from_dt":22.91},{"city":"Clyman","state_name":"Wisconsin","lat":43.31104,"lng":-88.71794,"zip":"53016","miles_from_dt":23.29},{"city":"Lowell","state_name":"Wisconsin","lat":43.33996,"lng":-88.79449,"zip":"53557","miles_from_dt":23.37},{"city":"Randolph","state_name":"Wisconsin","lat":43.5378,"lng":-89.0022,"zip":"53957","miles_from_dt":24.13},{"city":"Glenbeulah","state_name":"Wisconsin","lat":43.78198,"lng":-88.10745,"zip":"53023","miles_from_dt":24.14},{"city":"Adell","state_name":"Wisconsin","lat":43.60562,"lng":-88.05217,"zip":"53001","miles_from_dt":24.26},{"city":"Slinger","state_name":"Wisconsin","lat":43.32508,"lng":-88.27124,"zip":"53086","miles_from_dt":24.37},{"city":"West Bend","state_name":"Wisconsin","lat":43.38838,"lng":-88.15895,"zip":"53095","miles_from_dt":24.81},{"city":"Randolph","state_name":"Wisconsin","lat":43.54166,"lng":-89.01849,"zip":"53956","miles_from_dt":24.86},{"city":"Greenbush","state_name":"Wisconsin","lat":43.77869,"lng":-88.08022,"zip":"53026","miles_from_dt":25.26},{"city":"Markesan","state_name":"Wisconsin","lat":43.71822,"lng":-89.02189,"zip":"53946","miles_from_dt":25.29},{"city":"Lebanon","state_name":"Wisconsin","lat":43.25904,"lng":-88.63002,"zip":"53047","miles_from_dt":25.44},{"city":"Oshkosh","state_name":"Wisconsin","lat":43.9977,"lng":-88.56034,"zip":"54903","miles_from_dt":26.04},{"city":"Friesland","state_name":"Wisconsin","lat":43.58864,"lng":-89.06697,"zip":"53935","miles_from_dt":26.76},{"city":"Watertown","state_name":"Wisconsin","lat":43.24955,"lng":-88.71461,"zip":"53098","miles_from_dt":27.18},{"city":"Random Lake","state_name":"Wisconsin","lat":43.56318,"lng":-87.99559,"zip":"53075","miles_from_dt":27.38},{"city":"Oshkosh","state_name":"Wisconsin","lat":44.019,"lng":-88.55343,"zip":"54906","miles_from_dt":27.49},{"city":"Green Lake","state_name":"Wisconsin","lat":43.85067,"lng":-88.99103,"zip":"54941","miles_from_dt":27.78},{"city":"Waukau","state_name":"Wisconsin","lat":43.98625,"lng":-88.76906,"zip":"54980","miles_from_dt":27.79},{"city":"Newburg","state_name":"Wisconsin","lat":43.43091,"lng":-88.04571,"zip":"53060","miles_from_dt":27.88},{"city":"Oshkosh","state_name":"Wisconsin","lat":44.02346,"lng":-88.62592,"zip":"54904","miles_from_dt":28.15},{"city":"Fredonia","state_name":"Wisconsin","lat":43.49425,"lng":-88.00111,"zip":"53021","miles_from_dt":28.21},{"city":"Ashippun","state_name":"Wisconsin","lat":43.21226,"lng":-88.51957,"zip":"53003","miles_from_dt":28.23},{"city":"Jackson","state_name":"Wisconsin","lat":43.31255,"lng":-88.16108,"zip":"53037","miles_from_dt":28.42},{"city":"Reeseville","state_name":"Wisconsin","lat":43.2894,"lng":-88.87545,"zip":"53579","miles_from_dt":28.58},{"city":"Plymouth","state_name":"Wisconsin","lat":43.75011,"lng":-87.99191,"zip":"53073","miles_from_dt":28.65},{"city":"Richfield","state_name":"Wisconsin","lat":43.26966,"lng":-88.20905,"zip":"53076","miles_from_dt":29.29},{"city":"Hubertus","state_name":"Wisconsin","lat":43.23716,"lng":-88.25634,"zip":"53033","miles_from_dt":29.99},{"city":"Waldo","state_name":"Wisconsin","lat":43.65348,"lng":-87.93894,"zip":"53093","miles_from_dt":29.99}],"targetCityZipCode":"53006","targetCityState":"Wisconsin"},"__N_SSG":true}