{"pageProps":{"stateName":"Wisconsin","cityName":"mercer","nearbyCities":[{"city":"Manitowish Waters","state_name":"Wisconsin","lat":46.1326,"lng":-89.85208,"zip":"54545","miles_from_dt":12.5},{"city":"Hurley","state_name":"Wisconsin","lat":46.3545,"lng":-90.23769,"zip":"54534","miles_from_dt":13.18},{"city":"Montreal","state_name":"Wisconsin","lat":46.35775,"lng":-90.26409,"zip":"54550","miles_from_dt":14.04},{"city":"Iron Belt","state_name":"Wisconsin","lat":46.33603,"lng":-90.34488,"zip":"54536","miles_from_dt":15.51},{"city":"Presque Isle","state_name":"Wisconsin","lat":46.22178,"lng":-89.75453,"zip":"54557","miles_from_dt":16.69},{"city":"Lac Du Flambeau","state_name":"Wisconsin","lat":45.97244,"lng":-89.91484,"zip":"54538","miles_from_dt":17.42},{"city":"Gile","state_name":"Wisconsin","lat":46.4335,"lng":-90.22603,"zip":"54525","miles_from_dt":17.91},{"city":"Upson","state_name":"Wisconsin","lat":46.30474,"lng":-90.45182,"zip":"54565","miles_from_dt":18.67},{"city":"Park Falls","state_name":"Wisconsin","lat":45.93615,"lng":-90.29081,"zip":"54552","miles_from_dt":19.77},{"city":"Ramsay","state_name":"Michigan","lat":46.46987,"lng":-89.99803,"zip":"49959","miles_from_dt":19.96},{"city":"Bessemer","state_name":"Michigan","lat":46.49247,"lng":-90.05235,"zip":"49911","miles_from_dt":21.05},{"city":"Butternut","state_name":"Wisconsin","lat":46.03761,"lng":-90.49378,"zip":"54514","miles_from_dt":21.66},{"city":"Boulder Junction","state_name":"Wisconsin","lat":46.0957,"lng":-89.66748,"zip":"54512","miles_from_dt":21.72},{"city":"Ironwood","state_name":"Michigan","lat":46.51493,"lng":-90.13264,"zip":"49938","miles_from_dt":22.53},{"city":"Wakefield","state_name":"Michigan","lat":46.50199,"lng":-89.88314,"zip":"49968","miles_from_dt":23.93},{"city":"Glidden","state_name":"Wisconsin","lat":46.13543,"lng":-90.6366,"zip":"54527","miles_from_dt":26.05},{"city":"Minocqua","state_name":"Wisconsin","lat":45.86218,"lng":-89.82663,"zip":"54548","miles_from_dt":26.14},{"city":"Woodruff","state_name":"Wisconsin","lat":45.94876,"lng":-89.67546,"zip":"54568","miles_from_dt":26.3},{"city":"Saxon","state_name":"Wisconsin","lat":46.49382,"lng":-90.47083,"zip":"54559","miles_from_dt":27.52},{"city":"Fifield","state_name":"Wisconsin","lat":45.84416,"lng":-90.38922,"zip":"54524","miles_from_dt":27.63},{"city":"Marenisco","state_name":"Michigan","lat":46.42589,"lng":-89.60536,"zip":"49947","miles_from_dt":28.74},{"city":"Sayner","state_name":"Wisconsin","lat":46.00997,"lng":-89.54365,"zip":"54560","miles_from_dt":29.44}],"targetCityZipCode":"54547","targetCityState":"Wisconsin"},"__N_SSG":true}