{"pageProps":{"stateName":"Wisconsin","cityName":"prairie-du-chien","nearbyCities":[{"city":"Marquette","state_name":"Iowa","lat":43.04388,"lng":-91.18647,"zip":"52158","miles_from_dt":6.12},{"city":"Bagley","state_name":"Wisconsin","lat":42.92505,"lng":-91.06959,"zip":"53801","miles_from_dt":8.47},{"city":"McGregor","state_name":"Iowa","lat":43.01661,"lng":-91.23216,"zip":"52157","miles_from_dt":8.7},{"city":"Patch Grove","state_name":"Wisconsin","lat":42.94028,"lng":-90.97234,"zip":"53817","miles_from_dt":8.79},{"city":"Wauzeka","state_name":"Wisconsin","lat":43.12225,"lng":-90.91039,"zip":"53826","miles_from_dt":9.39},{"city":"Mount Hope","state_name":"Wisconsin","lat":42.97794,"lng":-90.85773,"zip":"53816","miles_from_dt":11.58},{"city":"Woodman","state_name":"Wisconsin","lat":43.05049,"lng":-90.83702,"zip":"53827","miles_from_dt":11.58},{"city":"Eastman","state_name":"Wisconsin","lat":43.2162,"lng":-91.03608,"zip":"54626","miles_from_dt":11.73},{"city":"Harpers Ferry","state_name":"Iowa","lat":43.18826,"lng":-91.19588,"zip":"52146","miles_from_dt":11.73},{"city":"Steuben","state_name":"Wisconsin","lat":43.19447,"lng":-90.90678,"zip":"54657","miles_from_dt":12.93},{"city":"Garnavillo","state_name":"Iowa","lat":42.8823,"lng":-91.20521,"zip":"52049","miles_from_dt":13.43},{"city":"Bloomington","state_name":"Wisconsin","lat":42.87645,"lng":-90.90798,"zip":"53804","miles_from_dt":14.27},{"city":"Monona","state_name":"Iowa","lat":43.07979,"lng":-91.36134,"zip":"52159","miles_from_dt":15.13},{"city":"Farmersburg","state_name":"Iowa","lat":42.96401,"lng":-91.34301,"zip":"52047","miles_from_dt":15.19},{"city":"Glen Haven","state_name":"Wisconsin","lat":42.82144,"lng":-90.9984,"zip":"53810","miles_from_dt":15.99},{"city":"Seneca","state_name":"Wisconsin","lat":43.26853,"lng":-90.95419,"zip":"54654","miles_from_dt":16.25},{"city":"Waterville","state_name":"Iowa","lat":43.22886,"lng":-91.30485,"zip":"52170","miles_from_dt":17.4},{"city":"Saint Olaf","state_name":"Iowa","lat":42.92022,"lng":-91.38025,"zip":"52072","miles_from_dt":18.21},{"city":"Beetown","state_name":"Wisconsin","lat":42.80538,"lng":-90.89358,"zip":"53802","miles_from_dt":18.87},{"city":"Mount Sterling","state_name":"Wisconsin","lat":43.32084,"lng":-90.92901,"zip":"54645","miles_from_dt":20.08},{"city":"Luana","state_name":"Iowa","lat":43.05316,"lng":-91.46534,"zip":"52156","miles_from_dt":20.24},{"city":"Gays Mills","state_name":"Wisconsin","lat":43.28795,"lng":-90.8327,"zip":"54631","miles_from_dt":20.34},{"city":"Boscobel","state_name":"Wisconsin","lat":43.14236,"lng":-90.68445,"zip":"53805","miles_from_dt":20.36},{"city":"Guttenberg","state_name":"Iowa","lat":42.7411,"lng":-91.12083,"zip":"52052","miles_from_dt":21.35},{"city":"Fennimore","state_name":"Wisconsin","lat":42.99362,"lng":-90.63323,"zip":"53809","miles_from_dt":22.22},{"city":"Lancaster","state_name":"Wisconsin","lat":42.84402,"lng":-90.71641,"zip":"53813","miles_from_dt":22.61},{"city":"Cassville","state_name":"Wisconsin","lat":42.73554,"lng":-90.92544,"zip":"53806","miles_from_dt":22.69},{"city":"Ferryville","state_name":"Wisconsin","lat":43.37572,"lng":-91.02618,"zip":"54628","miles_from_dt":22.73},{"city":"Elkader","state_name":"Iowa","lat":42.84403,"lng":-91.42201,"zip":"52043","miles_from_dt":22.89},{"city":"Elkport","state_name":"Iowa","lat":42.76808,"lng":-91.32328,"zip":"52044","miles_from_dt":23.31},{"city":"Lansing","state_name":"Iowa","lat":43.34706,"lng":-91.28013,"zip":"52151","miles_from_dt":23.33},{"city":"Garber","state_name":"Iowa","lat":42.73735,"lng":-91.25584,"zip":"52048","miles_from_dt":23.5},{"city":"North Buena Vista","state_name":"Iowa","lat":42.693,"lng":-90.96925,"zip":"52066","miles_from_dt":24.97},{"city":"Postville","state_name":"Iowa","lat":43.11062,"lng":-91.55266,"zip":"52162","miles_from_dt":25.02},{"city":"Stitzer","state_name":"Wisconsin","lat":42.91833,"lng":-90.58851,"zip":"53825","miles_from_dt":25.78},{"city":"Waukon","state_name":"Iowa","lat":43.27117,"lng":-91.48382,"zip":"52172","miles_from_dt":26.16},{"city":"Soldiers Grove","state_name":"Wisconsin","lat":43.37877,"lng":-90.76423,"zip":"54655","miles_from_dt":27.46},{"city":"Colesburg","state_name":"Iowa","lat":42.65996,"lng":-91.18784,"zip":"52035","miles_from_dt":27.47},{"city":"Blue River","state_name":"Wisconsin","lat":43.2458,"lng":-90.59108,"zip":"53518","miles_from_dt":27.61},{"city":"De Soto","state_name":"Wisconsin","lat":43.46575,"lng":-91.14066,"zip":"54624","miles_from_dt":29.11},{"city":"Volga","state_name":"Iowa","lat":42.82258,"lng":-91.55393,"zip":"52077","miles_from_dt":29.24},{"city":"Edgewood","state_name":"Iowa","lat":42.68098,"lng":-91.36517,"zip":"52042","miles_from_dt":29.53},{"city":"Elgin","state_name":"Iowa","lat":42.93924,"lng":-91.63007,"zip":"52141","miles_from_dt":29.56}],"targetCityZipCode":"53821","targetCityState":"Wisconsin"},"__N_SSG":true}