{"pageProps":{"stateName":"Wisconsin","cityName":"soldiers-grove","nearbyCities":[{"city":"Readstown","state_name":"Wisconsin","lat":43.46133,"lng":-90.76825,"zip":"54652","miles_from_dt":5.7},{"city":"Gays Mills","state_name":"Wisconsin","lat":43.28795,"lng":-90.8327,"zip":"54631","miles_from_dt":7.16},{"city":"Mount Sterling","state_name":"Wisconsin","lat":43.32084,"lng":-90.92901,"zip":"54645","miles_from_dt":9.21},{"city":"Viola","state_name":"Wisconsin","lat":43.49912,"lng":-90.64076,"zip":"54664","miles_from_dt":10.37},{"city":"Seneca","state_name":"Wisconsin","lat":43.26853,"lng":-90.95419,"zip":"54654","miles_from_dt":12.23},{"city":"Blue River","state_name":"Wisconsin","lat":43.2458,"lng":-90.59108,"zip":"53518","miles_from_dt":12.67},{"city":"Ferryville","state_name":"Wisconsin","lat":43.37572,"lng":-91.02618,"zip":"54628","miles_from_dt":13.19},{"city":"Viroqua","state_name":"Wisconsin","lat":43.5319,"lng":-90.92134,"zip":"54665","miles_from_dt":13.2},{"city":"Steuben","state_name":"Wisconsin","lat":43.19447,"lng":-90.90678,"zip":"54657","miles_from_dt":14.61},{"city":"Boscobel","state_name":"Wisconsin","lat":43.14236,"lng":-90.68445,"zip":"53805","miles_from_dt":16.81},{"city":"La Farge","state_name":"Wisconsin","lat":43.60566,"lng":-90.62021,"zip":"54639","miles_from_dt":17.26},{"city":"Richland Center","state_name":"Wisconsin","lat":43.37504,"lng":-90.41637,"zip":"53581","miles_from_dt":17.52},{"city":"Eastman","state_name":"Wisconsin","lat":43.2162,"lng":-91.03608,"zip":"54626","miles_from_dt":17.72},{"city":"Wauzeka","state_name":"Wisconsin","lat":43.12225,"lng":-90.91039,"zip":"53826","miles_from_dt":19.18},{"city":"De Soto","state_name":"Wisconsin","lat":43.46575,"lng":-91.14066,"zip":"54624","miles_from_dt":19.87},{"city":"Muscoda","state_name":"Wisconsin","lat":43.18196,"lng":-90.46326,"zip":"53573","miles_from_dt":20.37},{"city":"Westby","state_name":"Wisconsin","lat":43.66703,"lng":-90.86166,"zip":"54667","miles_from_dt":20.49},{"city":"Hillsboro","state_name":"Wisconsin","lat":43.59753,"lng":-90.42553,"zip":"54634","miles_from_dt":22.76},{"city":"Woodman","state_name":"Wisconsin","lat":43.05049,"lng":-90.83702,"zip":"53827","miles_from_dt":22.96},{"city":"Genoa","state_name":"Wisconsin","lat":43.56249,"lng":-91.14695,"zip":"54632","miles_from_dt":23.05},{"city":"Sextonville","state_name":"Wisconsin","lat":43.27937,"lng":-90.29477,"zip":"53584","miles_from_dt":24.63},{"city":"Chaseburg","state_name":"Wisconsin","lat":43.65632,"lng":-91.08199,"zip":"54621","miles_from_dt":24.94},{"city":"Harpers Ferry","state_name":"Iowa","lat":43.18826,"lng":-91.19588,"zip":"52146","miles_from_dt":25.43},{"city":"Ontario","state_name":"Wisconsin","lat":43.72368,"lng":-90.57004,"zip":"54651","miles_from_dt":25.73},{"city":"Cashton","state_name":"Wisconsin","lat":43.75562,"lng":-90.77968,"zip":"54619","miles_from_dt":26.03},{"city":"Lansing","state_name":"Iowa","lat":43.34706,"lng":-91.28013,"zip":"52151","miles_from_dt":26.08},{"city":"Gotham","state_name":"Wisconsin","lat":43.22173,"lng":-90.29356,"zip":"53540","miles_from_dt":26.09},{"city":"Cazenovia","state_name":"Wisconsin","lat":43.47971,"lng":-90.25455,"zip":"53924","miles_from_dt":26.57},{"city":"Fennimore","state_name":"Wisconsin","lat":42.99362,"lng":-90.63323,"zip":"53809","miles_from_dt":27.4},{"city":"Prairie Du Chien","state_name":"Wisconsin","lat":43.04769,"lng":-91.06569,"zip":"53821","miles_from_dt":27.46},{"city":"Coon Valley","state_name":"Wisconsin","lat":43.72894,"lng":-91.03065,"zip":"54623","miles_from_dt":27.63},{"city":"Lone Rock","state_name":"Wisconsin","lat":43.24014,"lng":-90.24525,"zip":"53556","miles_from_dt":27.86},{"city":"Mount Hope","state_name":"Wisconsin","lat":42.97794,"lng":-90.85773,"zip":"53816","miles_from_dt":28.07},{"city":"Avoca","state_name":"Wisconsin","lat":43.15017,"lng":-90.28422,"zip":"53506","miles_from_dt":28.9},{"city":"Waterville","state_name":"Iowa","lat":43.22886,"lng":-91.30485,"zip":"52170","miles_from_dt":29.15},{"city":"Stoddard","state_name":"Wisconsin","lat":43.67768,"lng":-91.19248,"zip":"54658","miles_from_dt":29.81}],"targetCityZipCode":"54655","targetCityState":"Wisconsin"},"__N_SSG":true}