{"pageProps":{"stateName":"Wisconsin","cityName":"viroqua","nearbyCities":[{"city":"Readstown","state_name":"Wisconsin","lat":43.46133,"lng":-90.76825,"zip":"54652","miles_from_dt":9.11},{"city":"Westby","state_name":"Wisconsin","lat":43.66703,"lng":-90.86166,"zip":"54667","miles_from_dt":9.8},{"city":"Genoa","state_name":"Wisconsin","lat":43.56249,"lng":-91.14695,"zip":"54632","miles_from_dt":11.52},{"city":"Chaseburg","state_name":"Wisconsin","lat":43.65632,"lng":-91.08199,"zip":"54621","miles_from_dt":11.78},{"city":"De Soto","state_name":"Wisconsin","lat":43.46575,"lng":-91.14066,"zip":"54624","miles_from_dt":11.93},{"city":"Ferryville","state_name":"Wisconsin","lat":43.37572,"lng":-91.02618,"zip":"54628","miles_from_dt":12},{"city":"Soldiers Grove","state_name":"Wisconsin","lat":43.37877,"lng":-90.76423,"zip":"54655","miles_from_dt":13.2},{"city":"Viola","state_name":"Wisconsin","lat":43.49912,"lng":-90.64076,"zip":"54664","miles_from_dt":14.28},{"city":"Mount Sterling","state_name":"Wisconsin","lat":43.32084,"lng":-90.92901,"zip":"54645","miles_from_dt":14.58},{"city":"Coon Valley","state_name":"Wisconsin","lat":43.72894,"lng":-91.03065,"zip":"54623","miles_from_dt":14.67},{"city":"La Farge","state_name":"Wisconsin","lat":43.60566,"lng":-90.62021,"zip":"54639","miles_from_dt":15.95},{"city":"Stoddard","state_name":"Wisconsin","lat":43.67768,"lng":-91.19248,"zip":"54658","miles_from_dt":16.92},{"city":"Cashton","state_name":"Wisconsin","lat":43.75562,"lng":-90.77968,"zip":"54619","miles_from_dt":17},{"city":"Gays Mills","state_name":"Wisconsin","lat":43.28795,"lng":-90.8327,"zip":"54631","miles_from_dt":17.42},{"city":"Seneca","state_name":"Wisconsin","lat":43.26853,"lng":-90.95419,"zip":"54654","miles_from_dt":18.26},{"city":"Brownsville","state_name":"Minnesota","lat":43.61443,"lng":-91.2941,"zip":"55919","miles_from_dt":19.56},{"city":"Rockland","state_name":"Wisconsin","lat":43.82586,"lng":-90.9129,"zip":"54653","miles_from_dt":20.3},{"city":"La Crosse","state_name":"Wisconsin","lat":43.80199,"lng":-91.14559,"zip":"54601","miles_from_dt":21.77},{"city":"Ontario","state_name":"Wisconsin","lat":43.72368,"lng":-90.57004,"zip":"54651","miles_from_dt":22.04},{"city":"Lansing","state_name":"Iowa","lat":43.34706,"lng":-91.28013,"zip":"52151","miles_from_dt":22.1},{"city":"New Albin","state_name":"Iowa","lat":43.46733,"lng":-91.3521,"zip":"52160","miles_from_dt":22.1},{"city":"Eastman","state_name":"Wisconsin","lat":43.2162,"lng":-91.03608,"zip":"54626","miles_from_dt":22.55},{"city":"Steuben","state_name":"Wisconsin","lat":43.19447,"lng":-90.90678,"zip":"54657","miles_from_dt":23.31},{"city":"Eitzen","state_name":"Minnesota","lat":43.51424,"lng":-91.39703,"zip":"55931","miles_from_dt":23.93},{"city":"Hillsboro","state_name":"Wisconsin","lat":43.59753,"lng":-90.42553,"zip":"54634","miles_from_dt":25.3},{"city":"Norwalk","state_name":"Wisconsin","lat":43.83544,"lng":-90.63553,"zip":"54648","miles_from_dt":25.38},{"city":"Hokah","state_name":"Minnesota","lat":43.72558,"lng":-91.35382,"zip":"55941","miles_from_dt":25.48},{"city":"La Crosse","state_name":"Wisconsin","lat":43.82762,"lng":-91.23239,"zip":"54602","miles_from_dt":25.68},{"city":"Bangor","state_name":"Wisconsin","lat":43.90242,"lng":-90.9729,"zip":"54614","miles_from_dt":25.71},{"city":"Blue River","state_name":"Wisconsin","lat":43.2458,"lng":-90.59108,"zip":"53518","miles_from_dt":25.82},{"city":"Harpers Ferry","state_name":"Iowa","lat":43.18826,"lng":-91.19588,"zip":"52146","miles_from_dt":27.46},{"city":"West Salem","state_name":"Wisconsin","lat":43.91171,"lng":-91.09046,"zip":"54669","miles_from_dt":27.55},{"city":"Richland Center","state_name":"Wisconsin","lat":43.37504,"lng":-90.41637,"zip":"53581","miles_from_dt":27.61},{"city":"La Crosse","state_name":"Wisconsin","lat":43.85729,"lng":-91.24791,"zip":"54603","miles_from_dt":27.79},{"city":"Caledonia","state_name":"Minnesota","lat":43.62265,"lng":-91.46388,"zip":"55921","miles_from_dt":27.94},{"city":"Wauzeka","state_name":"Wisconsin","lat":43.12225,"lng":-90.91039,"zip":"53826","miles_from_dt":28.29},{"city":"Waterville","state_name":"Iowa","lat":43.22886,"lng":-91.30485,"zip":"52170","miles_from_dt":28.47},{"city":"Boscobel","state_name":"Wisconsin","lat":43.14236,"lng":-90.68445,"zip":"53805","miles_from_dt":29.42},{"city":"La Crescent","state_name":"Minnesota","lat":43.82412,"lng":-91.35666,"zip":"55947","miles_from_dt":29.71}],"targetCityZipCode":"54665","targetCityState":"Wisconsin"},"__N_SSG":true}