{"pageProps":{"stateName":"Wisconsin","cityName":"wisconsin-dells","nearbyCities":[{"city":"Lake Delton","state_name":"Wisconsin","lat":43.59126,"lng":-89.7944,"zip":"53940","miles_from_dt":6.18},{"city":"Briggsville","state_name":"Wisconsin","lat":43.66579,"lng":-89.60364,"zip":"53920","miles_from_dt":7.71},{"city":"Lyndon Station","state_name":"Wisconsin","lat":43.68759,"lng":-89.92791,"zip":"53944","miles_from_dt":8.61},{"city":"Oxford","state_name":"Wisconsin","lat":43.78718,"lng":-89.5963,"zip":"53952","miles_from_dt":11.09},{"city":"Baraboo","state_name":"Wisconsin","lat":43.49213,"lng":-89.72858,"zip":"53913","miles_from_dt":12.81},{"city":"Endeavor","state_name":"Wisconsin","lat":43.683,"lng":-89.49506,"zip":"53930","miles_from_dt":13.12},{"city":"Grand Marsh","state_name":"Wisconsin","lat":43.87477,"lng":-89.71071,"zip":"53936","miles_from_dt":13.88},{"city":"Reedsburg","state_name":"Wisconsin","lat":43.54327,"lng":-89.98668,"zip":"53958","miles_from_dt":14.75},{"city":"Adams","state_name":"Wisconsin","lat":43.89073,"lng":-89.80708,"zip":"53910","miles_from_dt":15},{"city":"Reedsburg","state_name":"Wisconsin","lat":43.53407,"lng":-89.99702,"zip":"53959","miles_from_dt":15.55},{"city":"Portage","state_name":"Wisconsin","lat":43.55606,"lng":-89.48606,"zip":"53901","miles_from_dt":15.92},{"city":"Packwaukee","state_name":"Wisconsin","lat":43.76606,"lng":-89.458,"zip":"53953","miles_from_dt":16.19},{"city":"Mauston","state_name":"Wisconsin","lat":43.77846,"lng":-90.05161,"zip":"53948","miles_from_dt":16.35},{"city":"Rock Springs","state_name":"Wisconsin","lat":43.46055,"lng":-89.93858,"zip":"53961","miles_from_dt":17.48},{"city":"Merrimac","state_name":"Wisconsin","lat":43.39594,"lng":-89.64414,"zip":"53561","miles_from_dt":20.18},{"city":"La Valle","state_name":"Wisconsin","lat":43.57947,"lng":-90.13694,"zip":"53941","miles_from_dt":20.21},{"city":"North Freedom","state_name":"Wisconsin","lat":43.39087,"lng":-89.86633,"zip":"53951","miles_from_dt":20.47},{"city":"Westfield","state_name":"Wisconsin","lat":43.91253,"lng":-89.5025,"zip":"53964","miles_from_dt":20.67},{"city":"Friendship","state_name":"Wisconsin","lat":43.98044,"lng":-89.82184,"zip":"53934","miles_from_dt":21.23},{"city":"Montello","state_name":"Wisconsin","lat":43.78323,"lng":-89.33978,"zip":"53949","miles_from_dt":22.14},{"city":"Pardeeville","state_name":"Wisconsin","lat":43.55518,"lng":-89.31325,"zip":"53954","miles_from_dt":23.77},{"city":"Wonewoc","state_name":"Wisconsin","lat":43.64072,"lng":-90.2326,"zip":"53968","miles_from_dt":23.98},{"city":"Loganville","state_name":"Wisconsin","lat":43.38999,"lng":-90.03018,"zip":"53943","miles_from_dt":24.08},{"city":"New Lisbon","state_name":"Wisconsin","lat":43.90477,"lng":-90.13463,"zip":"53950","miles_from_dt":24.6},{"city":"Prairie Du Sac","state_name":"Wisconsin","lat":43.31356,"lng":-89.77408,"zip":"53578","miles_from_dt":25.07},{"city":"Lime Ridge","state_name":"Wisconsin","lat":43.46393,"lng":-90.16536,"zip":"53942","miles_from_dt":25.22},{"city":"Union Center","state_name":"Wisconsin","lat":43.68352,"lng":-90.2652,"zip":"53962","miles_from_dt":25.48},{"city":"Wyocena","state_name":"Wisconsin","lat":43.49567,"lng":-89.30176,"zip":"53969","miles_from_dt":26.03},{"city":"Poynette","state_name":"Wisconsin","lat":43.40025,"lng":-89.40051,"zip":"53955","miles_from_dt":26.15},{"city":"Coloma","state_name":"Wisconsin","lat":44.02884,"lng":-89.56383,"zip":"54930","miles_from_dt":26.17},{"city":"Lodi","state_name":"Wisconsin","lat":43.32163,"lng":-89.55625,"zip":"53555","miles_from_dt":26.49},{"city":"Elroy","state_name":"Wisconsin","lat":43.75415,"lng":-90.28376,"zip":"53929","miles_from_dt":26.93},{"city":"Dalton","state_name":"Wisconsin","lat":43.67164,"lng":-89.21497,"zip":"53926","miles_from_dt":27.15},{"city":"Hillpoint","state_name":"Wisconsin","lat":43.38841,"lng":-90.15753,"zip":"53937","miles_from_dt":28.3},{"city":"Cazenovia","state_name":"Wisconsin","lat":43.47971,"lng":-90.25455,"zip":"53924","miles_from_dt":28.44},{"city":"Arkdale","state_name":"Wisconsin","lat":44.07549,"lng":-89.92131,"zip":"54613","miles_from_dt":28.74},{"city":"Sauk City","state_name":"Wisconsin","lat":43.25671,"lng":-89.81178,"zip":"53583","miles_from_dt":29.11},{"city":"Hustler","state_name":"Wisconsin","lat":43.87874,"lng":-90.27076,"zip":"54637","miles_from_dt":29.26},{"city":"Plain","state_name":"Wisconsin","lat":43.31428,"lng":-90.07117,"zip":"53577","miles_from_dt":29.58}],"targetCityZipCode":"53965","targetCityState":"Wisconsin"},"__N_SSG":true}