{"pageProps":{"stateName":"Minnesota","cityName":"cokato","nearbyCities":[{"city":"Howard Lake","state_name":"Minnesota","lat":45.06238,"lng":-94.07438,"zip":"55349","miles_from_dt":5.99},{"city":"Dassel","state_name":"Minnesota","lat":45.08432,"lng":-94.32031,"zip":"55325","miles_from_dt":6.23},{"city":"Howard Lake","state_name":"Minnesota","lat":45.05728,"lng":-94.06737,"zip":"55575","miles_from_dt":6.42},{"city":"Waverly","state_name":"Minnesota","lat":45.06812,"lng":-93.97912,"zip":"55390","miles_from_dt":10.52},{"city":"Silver Lake","state_name":"Minnesota","lat":44.92763,"lng":-94.18623,"zip":"55381","miles_from_dt":10.81},{"city":"Winsted","state_name":"Minnesota","lat":44.9572,"lng":-94.06085,"zip":"55395","miles_from_dt":10.89},{"city":"Darwin","state_name":"Minnesota","lat":45.05676,"lng":-94.42554,"zip":"55324","miles_from_dt":11.53},{"city":"Annandale","state_name":"Minnesota","lat":45.24464,"lng":-94.11638,"zip":"55302","miles_from_dt":11.7},{"city":"Montrose","state_name":"Minnesota","lat":45.04385,"lng":-93.91352,"zip":"55363","miles_from_dt":13.96},{"city":"Maple Lake","state_name":"Minnesota","lat":45.24637,"lng":-94.00049,"zip":"55358","miles_from_dt":14.63},{"city":"Lester Prairie","state_name":"Minnesota","lat":44.88466,"lng":-94.0701,"zip":"55354","miles_from_dt":15.03},{"city":"South Haven","state_name":"Minnesota","lat":45.30521,"lng":-94.20438,"zip":"55382","miles_from_dt":15.28},{"city":"Hutchinson","state_name":"Minnesota","lat":44.89743,"lng":-94.39195,"zip":"55350","miles_from_dt":16.16},{"city":"Litchfield","state_name":"Minnesota","lat":45.09709,"lng":-94.54017,"zip":"55355","miles_from_dt":17.01},{"city":"New Germany","state_name":"Minnesota","lat":44.89142,"lng":-93.97499,"zip":"55367","miles_from_dt":17.06},{"city":"Kimball","state_name":"Minnesota","lat":45.32034,"lng":-94.31607,"zip":"55353","miles_from_dt":17.39},{"city":"Mayer","state_name":"Minnesota","lat":44.91331,"lng":-93.92065,"zip":"55360","miles_from_dt":17.81},{"city":"Buffalo","state_name":"Minnesota","lat":45.17382,"lng":-93.84859,"zip":"55313","miles_from_dt":17.94},{"city":"Delano","state_name":"Minnesota","lat":45.03246,"lng":-93.80981,"zip":"55328","miles_from_dt":19.09},{"city":"Watkins","state_name":"Minnesota","lat":45.2998,"lng":-94.43748,"zip":"55389","miles_from_dt":19.09},{"city":"Watertown","state_name":"Minnesota","lat":44.95,"lng":-93.84729,"zip":"55388","miles_from_dt":19.3},{"city":"Glencoe","state_name":"Minnesota","lat":44.76627,"lng":-94.17803,"zip":"55336","miles_from_dt":21.96},{"city":"Clearwater","state_name":"Minnesota","lat":45.39613,"lng":-94.08366,"zip":"55320","miles_from_dt":22.2},{"city":"Plato","state_name":"Minnesota","lat":44.78077,"lng":-94.03892,"zip":"55370","miles_from_dt":22.27},{"city":"Young America","state_name":"Minnesota","lat":44.81712,"lng":-93.93452,"zip":"55397","miles_from_dt":22.37},{"city":"Young America","state_name":"Minnesota","lat":44.81415,"lng":-93.91857,"zip":"55573","miles_from_dt":22.99},{"city":"Rockford","state_name":"Minnesota","lat":45.08779,"lng":-93.72282,"zip":"55373","miles_from_dt":23},{"city":"Monticello","state_name":"Minnesota","lat":45.30099,"lng":-93.83563,"zip":"55362","miles_from_dt":23},{"city":"Eden Valley","state_name":"Minnesota","lat":45.30798,"lng":-94.57039,"zip":"55329","miles_from_dt":24.05},{"city":"Maple Plain","state_name":"Minnesota","lat":44.99177,"lng":-93.71171,"zip":"55592","miles_from_dt":24.41},{"city":"Maple Plain","state_name":"Minnesota","lat":44.99198,"lng":-93.7111,"zip":"55593","miles_from_dt":24.44},{"city":"Rockford","state_name":"Minnesota","lat":44.9943,"lng":-93.71001,"zip":"55577","miles_from_dt":24.45},{"city":"Rockford","state_name":"Minnesota","lat":44.99606,"lng":-93.70848,"zip":"55572","miles_from_dt":24.49},{"city":"Grove City","state_name":"Minnesota","lat":45.16868,"lng":-94.6799,"zip":"56243","miles_from_dt":24.51},{"city":"Maple Plain","state_name":"Minnesota","lat":45.00464,"lng":-93.70112,"zip":"55359","miles_from_dt":24.7},{"city":"Norwood","state_name":"Minnesota","lat":44.77109,"lng":-93.92778,"zip":"55554","miles_from_dt":25.23},{"city":"Waconia","state_name":"Minnesota","lat":44.85643,"lng":-93.77903,"zip":"55387","miles_from_dt":25.67},{"city":"Cosmos","state_name":"Minnesota","lat":44.93619,"lng":-94.67715,"zip":"56228","miles_from_dt":25.82},{"city":"Saint Bonifacius","state_name":"Minnesota","lat":44.89475,"lng":-93.73129,"zip":"55375","miles_from_dt":26.13},{"city":"Loretto","state_name":"Minnesota","lat":45.09906,"lng":-93.65913,"zip":"55357","miles_from_dt":26.13},{"city":"Loretto","state_name":"Minnesota","lat":45.05819,"lng":-93.65892,"zip":"55599","miles_from_dt":26.19},{"city":"Saint Michael","state_name":"Minnesota","lat":45.21161,"lng":-93.68508,"zip":"55376","miles_from_dt":26.34},{"city":"Hanover","state_name":"Minnesota","lat":45.15917,"lng":-93.65913,"zip":"55341","miles_from_dt":26.61},{"city":"Brownton","state_name":"Minnesota","lat":44.70853,"lng":-94.34489,"zip":"55312","miles_from_dt":26.98},{"city":"Hamburg","state_name":"Minnesota","lat":44.7289,"lng":-93.95905,"zip":"55339","miles_from_dt":27.08},{"city":"Mound","state_name":"Minnesota","lat":44.93974,"lng":-93.67486,"zip":"55364","miles_from_dt":27.27},{"city":"Rockville","state_name":"Minnesota","lat":45.46904,"lng":-94.3359,"zip":"56369","miles_from_dt":27.48},{"city":"Norwood Young America","state_name":"Minnesota","lat":44.7458,"lng":-93.89679,"zip":"55368","miles_from_dt":27.51},{"city":"Saint Cloud","state_name":"Minnesota","lat":45.48271,"lng":-94.24842,"zip":"56398","miles_from_dt":27.66},{"city":"Saint Cloud","state_name":"Minnesota","lat":45.48275,"lng":-94.25029,"zip":"56397","miles_from_dt":27.67},{"city":"Saint Cloud","state_name":"Minnesota","lat":45.48718,"lng":-94.24307,"zip":"56301","miles_from_dt":27.95},{"city":"Stewart","state_name":"Minnesota","lat":44.73732,"lng":-94.49281,"zip":"55385","miles_from_dt":28.1},{"city":"Albertville","state_name":"Minnesota","lat":45.24448,"lng":-93.66219,"zip":"55301","miles_from_dt":28.2},{"city":"Cold Spring","state_name":"Minnesota","lat":45.4629,"lng":-94.4171,"zip":"56320","miles_from_dt":28.35},{"city":"New Auburn","state_name":"Minnesota","lat":44.67233,"lng":-94.2346,"zip":"55366","miles_from_dt":28.5},{"city":"Spring Park","state_name":"Minnesota","lat":44.9364,"lng":-93.63201,"zip":"55384","miles_from_dt":29.31},{"city":"Buffalo Lake","state_name":"Minnesota","lat":44.77214,"lng":-94.6,"zip":"55314","miles_from_dt":29.37},{"city":"Clear Lake","state_name":"Minnesota","lat":45.47181,"lng":-93.94359,"zip":"55319","miles_from_dt":29.41},{"city":"Cologne","state_name":"Minnesota","lat":44.77006,"lng":-93.7861,"zip":"55322","miles_from_dt":29.47},{"city":"Becker","state_name":"Minnesota","lat":45.42944,"lng":-93.83561,"zip":"55308","miles_from_dt":29.54},{"city":"Atwater","state_name":"Minnesota","lat":45.124,"lng":-94.79931,"zip":"56209","miles_from_dt":29.78},{"city":"Big Lake","state_name":"Minnesota","lat":45.37758,"lng":-93.74107,"zip":"55309","miles_from_dt":29.95}],"targetCityZipCode":"55321","targetCityState":"Minnesota"},"__N_SSG":true}