{"pageProps":{"stateName":"Minnesota","cityName":"dawson","nearbyCities":[{"city":"Boyd","state_name":"Minnesota","lat":44.82642,"lng":-95.94363,"zip":"56218","miles_from_dt":8.47},{"city":"Madison","state_name":"Minnesota","lat":45.02306,"lng":-96.19986,"zip":"56256","miles_from_dt":10.22},{"city":"Watson","state_name":"Minnesota","lat":45.0437,"lng":-95.84292,"zip":"56295","miles_from_dt":12.51},{"city":"Milan","state_name":"Minnesota","lat":45.12276,"lng":-95.86843,"zip":"56262","miles_from_dt":15.83},{"city":"Clarkfield","state_name":"Minnesota","lat":44.76259,"lng":-95.81691,"zip":"56223","miles_from_dt":15.84},{"city":"Montevideo","state_name":"Minnesota","lat":45.0064,"lng":-95.70098,"zip":"56265","miles_from_dt":17.46},{"city":"Marietta","state_name":"Minnesota","lat":44.9684,"lng":-96.40275,"zip":"56257","miles_from_dt":18.02},{"city":"Canby","state_name":"Minnesota","lat":44.73125,"lng":-96.29339,"zip":"56220","miles_from_dt":18.46},{"city":"Bellingham","state_name":"Minnesota","lat":45.13499,"lng":-96.32459,"zip":"56212","miles_from_dt":19.96},{"city":"Taunton","state_name":"Minnesota","lat":44.62254,"lng":-96.06933,"zip":"56291","miles_from_dt":21.17},{"city":"Porter","state_name":"Minnesota","lat":44.63212,"lng":-96.16719,"zip":"56280","miles_from_dt":21.4},{"city":"Appleton","state_name":"Minnesota","lat":45.24422,"lng":-96.00961,"zip":"56208","miles_from_dt":21.86},{"city":"Granite Falls","state_name":"Minnesota","lat":44.79654,"lng":-95.57944,"zip":"56241","miles_from_dt":24.37},{"city":"Hanley Falls","state_name":"Minnesota","lat":44.68508,"lng":-95.67574,"zip":"56245","miles_from_dt":24.54},{"city":"Minneota","state_name":"Minnesota","lat":44.57529,"lng":-95.98001,"zip":"56264","miles_from_dt":24.56},{"city":"Gary","state_name":"South Dakota","lat":44.79323,"lng":-96.51991,"zip":"57237","miles_from_dt":25.36},{"city":"Odessa","state_name":"Minnesota","lat":45.24134,"lng":-96.31249,"zip":"56276","miles_from_dt":25.4},{"city":"Correll","state_name":"Minnesota","lat":45.29436,"lng":-96.16938,"zip":"56227","miles_from_dt":26.06},{"city":"Revillo","state_name":"South Dakota","lat":45.00047,"lng":-96.56786,"zip":"57259","miles_from_dt":26.37},{"city":"Maynard","state_name":"Minnesota","lat":44.96338,"lng":-95.48571,"zip":"56260","miles_from_dt":27.27},{"city":"Danvers","state_name":"Minnesota","lat":45.2788,"lng":-95.76381,"zip":"56231","miles_from_dt":27.71},{"city":"Holloway","state_name":"Minnesota","lat":45.31795,"lng":-95.89899,"zip":"56249","miles_from_dt":27.77},{"city":"Cottonwood","state_name":"Minnesota","lat":44.59385,"lng":-95.72398,"zip":"56229","miles_from_dt":27.83},{"city":"Ghent","state_name":"Minnesota","lat":44.50416,"lng":-95.91079,"zip":"56239","miles_from_dt":29.97}],"targetCityZipCode":"56232","targetCityState":"Minnesota"},"__N_SSG":true}