{"pageProps":{"stateName":"Minnesota","cityName":"dovray","nearbyCities":[{"city":"Currie","state_name":"Minnesota","lat":44.08467,"lng":-95.59624,"zip":"56123","miles_from_dt":3.19},{"city":"Avoca","state_name":"Minnesota","lat":43.97897,"lng":-95.59345,"zip":"56114","miles_from_dt":5.69},{"city":"Westbrook","state_name":"Minnesota","lat":44.03404,"lng":-95.42334,"zip":"56183","miles_from_dt":6.35},{"city":"Slayton","state_name":"Minnesota","lat":44.01212,"lng":-95.7702,"zip":"56172","miles_from_dt":11.46},{"city":"Storden","state_name":"Minnesota","lat":44.01525,"lng":-95.30466,"zip":"56174","miles_from_dt":12.41},{"city":"Fulda","state_name":"Minnesota","lat":43.86305,"lng":-95.57219,"zip":"56131","miles_from_dt":13.28},{"city":"Revere","state_name":"Minnesota","lat":44.20248,"lng":-95.37401,"zip":"56166","miles_from_dt":13.38},{"city":"Walnut Grove","state_name":"Minnesota","lat":44.24424,"lng":-95.46655,"zip":"56180","miles_from_dt":13.71},{"city":"Garvin","state_name":"Minnesota","lat":44.20196,"lng":-95.75792,"zip":"56132","miles_from_dt":14.59},{"city":"Tracy","state_name":"Minnesota","lat":44.25595,"lng":-95.63733,"zip":"56175","miles_from_dt":14.6},{"city":"Iona","state_name":"Minnesota","lat":43.88184,"lng":-95.78962,"zip":"56141","miles_from_dt":16.96},{"city":"Lamberton","state_name":"Minnesota","lat":44.22702,"lng":-95.2733,"zip":"56152","miles_from_dt":18.11},{"city":"Jeffers","state_name":"Minnesota","lat":44.05577,"lng":-95.17384,"zip":"56145","miles_from_dt":18.62},{"city":"Heron Lake","state_name":"Minnesota","lat":43.83246,"lng":-95.32424,"zip":"56137","miles_from_dt":18.96},{"city":"Lake Wilson","state_name":"Minnesota","lat":44.03304,"lng":-95.92833,"zip":"56151","miles_from_dt":19.01},{"city":"Balaton","state_name":"Minnesota","lat":44.21514,"lng":-95.90038,"zip":"56115","miles_from_dt":20.75},{"city":"Wilmont","state_name":"Minnesota","lat":43.7932,"lng":-95.82659,"zip":"56185","miles_from_dt":22.78},{"city":"Chandler","state_name":"Minnesota","lat":43.89729,"lng":-95.95026,"zip":"56122","miles_from_dt":22.82},{"city":"Sanborn","state_name":"Minnesota","lat":44.20734,"lng":-95.13434,"zip":"56083","miles_from_dt":23.11},{"city":"Windom","state_name":"Minnesota","lat":43.88404,"lng":-95.13991,"zip":"56101","miles_from_dt":23.5},{"city":"Brewster","state_name":"Minnesota","lat":43.71159,"lng":-95.46702,"zip":"56119","miles_from_dt":24.02},{"city":"Reading","state_name":"Minnesota","lat":43.7251,"lng":-95.7097,"zip":"56165","miles_from_dt":24.14},{"city":"Lucan","state_name":"Minnesota","lat":44.39426,"lng":-95.41707,"zip":"56255","miles_from_dt":24.34},{"city":"Wanda","state_name":"Minnesota","lat":44.31481,"lng":-95.21313,"zip":"56294","miles_from_dt":24.48},{"city":"Milroy","state_name":"Minnesota","lat":44.41577,"lng":-95.54086,"zip":"56263","miles_from_dt":24.94},{"city":"Okabena","state_name":"Minnesota","lat":43.70637,"lng":-95.32519,"zip":"56161","miles_from_dt":26.48},{"city":"Woodstock","state_name":"Minnesota","lat":44.02823,"lng":-96.08131,"zip":"56186","miles_from_dt":26.64},{"city":"Bingham Lake","state_name":"Minnesota","lat":43.93616,"lng":-95.03555,"zip":"56118","miles_from_dt":26.8},{"city":"Ruthton","state_name":"Minnesota","lat":44.16694,"lng":-96.08647,"zip":"56170","miles_from_dt":27.9},{"city":"Lismore","state_name":"Minnesota","lat":43.76707,"lng":-95.94117,"zip":"56155","miles_from_dt":27.92},{"city":"Leota","state_name":"Minnesota","lat":43.83012,"lng":-96.01506,"zip":"56153","miles_from_dt":27.99},{"city":"Wabasso","state_name":"Minnesota","lat":44.41598,"lng":-95.26559,"zip":"56293","miles_from_dt":28.62},{"city":"Marshall","state_name":"Minnesota","lat":44.44121,"lng":-95.75906,"zip":"56258","miles_from_dt":28.68},{"city":"Russell","state_name":"Minnesota","lat":44.33136,"lng":-96.00555,"zip":"56169","miles_from_dt":29.71},{"city":"Worthington","state_name":"Minnesota","lat":43.62357,"lng":-95.58507,"zip":"56187","miles_from_dt":29.81}],"targetCityZipCode":"56125","targetCityState":"Minnesota"},"__N_SSG":true}