{"pageProps":{"stateName":"Minnesota","cityName":"foreston","nearbyCities":[{"city":"Oak Park","state_name":"Minnesota","lat":45.69684,"lng":-93.8007,"zip":"56357","miles_from_dt":4.39},{"city":"Pease","state_name":"Minnesota","lat":45.69627,"lng":-93.65409,"zip":"56363","miles_from_dt":5.99},{"city":"Milaca","state_name":"Minnesota","lat":45.79667,"lng":-93.62587,"zip":"56353","miles_from_dt":6.85},{"city":"Foley","state_name":"Minnesota","lat":45.70934,"lng":-93.90577,"zip":"56329","miles_from_dt":7.99},{"city":"Bock","state_name":"Minnesota","lat":45.78403,"lng":-93.55273,"zip":"56313","miles_from_dt":9.87},{"city":"Gilman","state_name":"Minnesota","lat":45.74373,"lng":-93.96564,"zip":"56333","miles_from_dt":10.38},{"city":"Princeton","state_name":"Minnesota","lat":45.57677,"lng":-93.59581,"zip":"55371","miles_from_dt":14.14},{"city":"Santiago","state_name":"Minnesota","lat":45.54115,"lng":-93.81219,"zip":"55377","miles_from_dt":14.74},{"city":"Ogilvie","state_name":"Minnesota","lat":45.84069,"lng":-93.4488,"zip":"56358","miles_from_dt":15.89},{"city":"Dalbo","state_name":"Minnesota","lat":45.67291,"lng":-93.4314,"zip":"55017","miles_from_dt":16.37},{"city":"Sauk Rapids","state_name":"Minnesota","lat":45.63966,"lng":-94.08394,"zip":"56379","miles_from_dt":17.82},{"city":"Hillman","state_name":"Minnesota","lat":46.00631,"lng":-93.88089,"zip":"56338","miles_from_dt":18.76},{"city":"Buckman","state_name":"Minnesota","lat":45.89768,"lng":-94.0927,"zip":"56317","miles_from_dt":19.38},{"city":"Rice","state_name":"Minnesota","lat":45.76107,"lng":-94.17026,"zip":"56367","miles_from_dt":20.27},{"city":"Saint Cloud","state_name":"Minnesota","lat":45.52512,"lng":-94.05199,"zip":"56304","miles_from_dt":21.31},{"city":"Clear Lake","state_name":"Minnesota","lat":45.47181,"lng":-93.94359,"zip":"55319","miles_from_dt":21.37},{"city":"Zimmerman","state_name":"Minnesota","lat":45.45787,"lng":-93.5903,"zip":"55398","miles_from_dt":21.64},{"city":"Becker","state_name":"Minnesota","lat":45.42944,"lng":-93.83561,"zip":"55308","miles_from_dt":22.53},{"city":"Onamia","state_name":"Minnesota","lat":46.08979,"lng":-93.67786,"zip":"56359","miles_from_dt":23.72},{"city":"Saint Cloud","state_name":"Minnesota","lat":45.56103,"lng":-94.16167,"zip":"56395","miles_from_dt":23.79},{"city":"Pierz","state_name":"Minnesota","lat":46.01605,"lng":-94.06704,"zip":"56364","miles_from_dt":23.86},{"city":"Saint Cloud","state_name":"Minnesota","lat":45.56095,"lng":-94.16445,"zip":"56302","miles_from_dt":23.9},{"city":"Mora","state_name":"Minnesota","lat":45.93818,"lng":-93.33201,"zip":"55051","miles_from_dt":24.04},{"city":"Sartell","state_name":"Minnesota","lat":45.6405,"lng":-94.23033,"zip":"56377","miles_from_dt":24.4},{"city":"Royalton","state_name":"Minnesota","lat":45.85456,"lng":-94.23789,"zip":"56373","miles_from_dt":24.59},{"city":"Lastrup","state_name":"Minnesota","lat":46.03834,"lng":-94.06392,"zip":"56344","miles_from_dt":24.97},{"city":"Saint Cloud","state_name":"Minnesota","lat":45.57422,"lng":-94.21117,"zip":"56303","miles_from_dt":25.37},{"city":"Saint Stephen","state_name":"Minnesota","lat":45.70122,"lng":-94.27458,"zip":"56375","miles_from_dt":25.54},{"city":"Saint Cloud","state_name":"Minnesota","lat":45.56813,"lng":-94.21428,"zip":"56396","miles_from_dt":25.71},{"city":"Big Lake","state_name":"Minnesota","lat":45.37758,"lng":-93.74107,"zip":"55309","miles_from_dt":25.74},{"city":"Saint Cloud","state_name":"Minnesota","lat":45.56755,"lng":-94.21711,"zip":"56393","miles_from_dt":25.85},{"city":"Saint Cloud","state_name":"Minnesota","lat":45.56299,"lng":-94.21872,"zip":"56372","miles_from_dt":26.07},{"city":"Saint Cloud","state_name":"Minnesota","lat":45.56,"lng":-94.22219,"zip":"56388","miles_from_dt":26.32},{"city":"Braham","state_name":"Minnesota","lat":45.74002,"lng":-93.20504,"zip":"55006","miles_from_dt":26.42},{"city":"Stanchfield","state_name":"Minnesota","lat":45.66322,"lng":-93.21881,"zip":"55080","miles_from_dt":26.45},{"city":"Cambridge","state_name":"Minnesota","lat":45.57149,"lng":-93.26734,"zip":"55008","miles_from_dt":26.48},{"city":"Saint Cloud","state_name":"Minnesota","lat":45.54976,"lng":-94.22735,"zip":"56399","miles_from_dt":26.9},{"city":"Wahkon","state_name":"Minnesota","lat":46.11402,"lng":-93.52176,"zip":"56386","miles_from_dt":27.45},{"city":"Grandy","state_name":"Minnesota","lat":45.63573,"lng":-93.20098,"zip":"55029","miles_from_dt":27.78},{"city":"Waite Park","state_name":"Minnesota","lat":45.53215,"lng":-94.24141,"zip":"56387","miles_from_dt":28.12},{"city":"Saint Francis","state_name":"Minnesota","lat":45.41413,"lng":-93.3849,"zip":"55070","miles_from_dt":29.22},{"city":"Clearwater","state_name":"Minnesota","lat":45.39613,"lng":-94.08366,"zip":"55320","miles_from_dt":29.29},{"city":"Saint Cloud","state_name":"Minnesota","lat":45.48718,"lng":-94.24307,"zip":"56301","miles_from_dt":29.97}],"targetCityZipCode":"56330","targetCityState":"Minnesota"},"__N_SSG":true}