{"pageProps":{"stateName":"Minnesota","cityName":"hendricks","nearbyCities":[{"city":"Astoria","state_name":"South Dakota","lat":44.57112,"lng":-96.5323,"zip":"57213","miles_from_dt":7.46},{"city":"Ivanhoe","state_name":"Minnesota","lat":44.4711,"lng":-96.2327,"zip":"56142","miles_from_dt":9.33},{"city":"White","state_name":"South Dakota","lat":44.43308,"lng":-96.61983,"zip":"57276","miles_from_dt":11.12},{"city":"Brandt","state_name":"South Dakota","lat":44.65787,"lng":-96.59624,"zip":"57218","miles_from_dt":13.96},{"city":"Toronto","state_name":"South Dakota","lat":44.56885,"lng":-96.68781,"zip":"57268","miles_from_dt":14.18},{"city":"Arco","state_name":"Minnesota","lat":44.40218,"lng":-96.14904,"zip":"56113","miles_from_dt":14.91},{"city":"Lake Benton","state_name":"Minnesota","lat":44.30059,"lng":-96.30454,"zip":"56149","miles_from_dt":14.96},{"city":"Porter","state_name":"Minnesota","lat":44.63212,"lng":-96.16719,"zip":"56280","miles_from_dt":15.24},{"city":"Canby","state_name":"Minnesota","lat":44.73125,"lng":-96.29339,"zip":"56220","miles_from_dt":16.96},{"city":"Elkton","state_name":"South Dakota","lat":44.24996,"lng":-96.50149,"zip":"57026","miles_from_dt":17.9},{"city":"Taunton","state_name":"Minnesota","lat":44.62254,"lng":-96.06933,"zip":"56291","miles_from_dt":19.05},{"city":"Aurora","state_name":"South Dakota","lat":44.28785,"lng":-96.67752,"zip":"57002","miles_from_dt":19.63},{"city":"Tyler","state_name":"Minnesota","lat":44.28593,"lng":-96.12997,"zip":"56178","miles_from_dt":20.58},{"city":"Gary","state_name":"South Dakota","lat":44.79323,"lng":-96.51991,"zip":"57237","miles_from_dt":20.75},{"city":"Brookings","state_name":"South Dakota","lat":44.31924,"lng":-96.78408,"zip":"57007","miles_from_dt":22.14},{"city":"Minneota","state_name":"Minnesota","lat":44.57529,"lng":-95.98001,"zip":"56264","miles_from_dt":22.14},{"city":"Brookings","state_name":"South Dakota","lat":44.31588,"lng":-96.79518,"zip":"57006","miles_from_dt":22.72},{"city":"Russell","state_name":"Minnesota","lat":44.33136,"lng":-96.00555,"zip":"56169","miles_from_dt":23.5},{"city":"Lynd","state_name":"Minnesota","lat":44.39702,"lng":-95.94805,"zip":"56157","miles_from_dt":24.27},{"city":"Estelline","state_name":"South Dakota","lat":44.59719,"lng":-96.89929,"zip":"57234","miles_from_dt":24.73},{"city":"Clear Lake","state_name":"South Dakota","lat":44.78565,"lng":-96.72368,"zip":"57226","miles_from_dt":24.77},{"city":"Ghent","state_name":"Minnesota","lat":44.50416,"lng":-95.91079,"zip":"56239","miles_from_dt":24.99},{"city":"Bruce","state_name":"South Dakota","lat":44.45927,"lng":-96.92022,"zip":"57220","miles_from_dt":25.08},{"city":"Ruthton","state_name":"Minnesota","lat":44.16694,"lng":-96.08647,"zip":"56170","miles_from_dt":28.32},{"city":"Holland","state_name":"Minnesota","lat":44.10368,"lng":-96.1757,"zip":"56139","miles_from_dt":29.97}],"targetCityZipCode":"56136","targetCityState":"Minnesota"},"__N_SSG":true}