{"pageProps":{"stateName":"Minnesota","cityName":"kerkhoven","nearbyCities":[{"city":"Pennock","state_name":"Minnesota","lat":45.21651,"lng":-95.17585,"zip":"56279","miles_from_dt":6.8},{"city":"Murdock","state_name":"Minnesota","lat":45.24125,"lng":-95.41288,"zip":"56271","miles_from_dt":6.89},{"city":"Raymond","state_name":"Minnesota","lat":45.03089,"lng":-95.21862,"zip":"56282","miles_from_dt":10.97},{"city":"Sunburg","state_name":"Minnesota","lat":45.33334,"lng":-95.2236,"zip":"56289","miles_from_dt":11.43},{"city":"Clara City","state_name":"Minnesota","lat":44.98586,"lng":-95.36229,"zip":"56222","miles_from_dt":13.56},{"city":"Willmar","state_name":"Minnesota","lat":45.10181,"lng":-95.04226,"zip":"56201","miles_from_dt":13.83},{"city":"Benson","state_name":"Minnesota","lat":45.31077,"lng":-95.57233,"zip":"56215","miles_from_dt":15.99},{"city":"Prinsburg","state_name":"Minnesota","lat":44.94833,"lng":-95.16479,"zip":"56281","miles_from_dt":17.25},{"city":"Maynard","state_name":"Minnesota","lat":44.96338,"lng":-95.48571,"zip":"56260","miles_from_dt":17.28},{"city":"Spicer","state_name":"Minnesota","lat":45.24218,"lng":-94.94847,"zip":"56288","miles_from_dt":17.91},{"city":"Kandiyohi","state_name":"Minnesota","lat":45.14046,"lng":-94.9198,"zip":"56251","miles_from_dt":18.95},{"city":"New London","state_name":"Minnesota","lat":45.32163,"lng":-94.96777,"zip":"56273","miles_from_dt":19.17},{"city":"Blomkest","state_name":"Minnesota","lat":44.93886,"lng":-95.05532,"zip":"56216","miles_from_dt":20.51},{"city":"Montevideo","state_name":"Minnesota","lat":45.0064,"lng":-95.70098,"zip":"56265","miles_from_dt":22.74},{"city":"Brooten","state_name":"Minnesota","lat":45.49959,"lng":-95.14992,"zip":"56316","miles_from_dt":23.45},{"city":"Danvers","state_name":"Minnesota","lat":45.2788,"lng":-95.76381,"zip":"56231","miles_from_dt":23.5},{"city":"Clontarf","state_name":"Minnesota","lat":45.41065,"lng":-95.67705,"zip":"56226","miles_from_dt":24.27},{"city":"Atwater","state_name":"Minnesota","lat":45.124,"lng":-94.79931,"zip":"56209","miles_from_dt":24.94},{"city":"Lake Lillian","state_name":"Minnesota","lat":44.9628,"lng":-94.87889,"zip":"56253","miles_from_dt":25.56},{"city":"Belgrade","state_name":"Minnesota","lat":45.46285,"lng":-94.95323,"zip":"56312","miles_from_dt":26.06},{"city":"Sacred Heart","state_name":"Minnesota","lat":44.78837,"lng":-95.34797,"zip":"56285","miles_from_dt":26.98},{"city":"Milan","state_name":"Minnesota","lat":45.12276,"lng":-95.86843,"zip":"56262","miles_from_dt":27.84},{"city":"Watson","state_name":"Minnesota","lat":45.0437,"lng":-95.84292,"zip":"56295","miles_from_dt":27.93},{"city":"Renville","state_name":"Minnesota","lat":44.77729,"lng":-95.20204,"zip":"56284","miles_from_dt":28.11},{"city":"Glenwood","state_name":"Minnesota","lat":45.58402,"lng":-95.34765,"zip":"56334","miles_from_dt":28.13},{"city":"Danube","state_name":"Minnesota","lat":44.79284,"lng":-95.09288,"zip":"56230","miles_from_dt":28.53},{"city":"Starbuck","state_name":"Minnesota","lat":45.55523,"lng":-95.54669,"zip":"56381","miles_from_dt":28.61},{"city":"Granite Falls","state_name":"Minnesota","lat":44.79654,"lng":-95.57944,"zip":"56241","miles_from_dt":29.59}],"targetCityZipCode":"56252","targetCityState":"Minnesota"},"__N_SSG":true}