{"pageProps":{"stateName":"Minnesota","cityName":"littlefork","nearbyCities":[{"city":"Kabetogama","state_name":"Minnesota","lat":48.37718,"lng":-93.22655,"zip":"56669","miles_from_dt":17.77},{"city":"Margie","state_name":"Minnesota","lat":48.11248,"lng":-93.93302,"zip":"56658","miles_from_dt":19.92},{"city":"Loman","state_name":"Minnesota","lat":48.47285,"lng":-93.94153,"zip":"56654","miles_from_dt":20.98},{"city":"Big Falls","state_name":"Minnesota","lat":48.1953,"lng":-94.04118,"zip":"56627","miles_from_dt":21.89},{"city":"South International Falls","state_name":"Minnesota","lat":48.58739,"lng":-93.39941,"zip":"56679","miles_from_dt":22.69},{"city":"Ranier","state_name":"Minnesota","lat":48.61454,"lng":-93.3467,"zip":"56668","miles_from_dt":25.39},{"city":"Nett Lake","state_name":"Minnesota","lat":48.11019,"lng":-93.10032,"zip":"55772","miles_from_dt":25.41},{"city":"Effie","state_name":"Minnesota","lat":47.90275,"lng":-93.53399,"zip":"56639","miles_from_dt":26.4},{"city":"International Falls","state_name":"Minnesota","lat":48.53122,"lng":-93.13224,"zip":"56649","miles_from_dt":26.99},{"city":"Birchdale","state_name":"Minnesota","lat":48.51494,"lng":-94.12546,"zip":"56629","miles_from_dt":29.55}],"targetCityZipCode":"56653","targetCityState":"Minnesota"},"__N_SSG":true}