{"pageProps":{"stateName":"Minnesota","cityName":"luverne","nearbyCities":[{"city":"Magnolia","state_name":"Minnesota","lat":43.6337,"lng":-96.07465,"zip":"56158","miles_from_dt":7.77},{"city":"Kanaranzi","state_name":"Minnesota","lat":43.58006,"lng":-96.10343,"zip":"56146","miles_from_dt":8.3},{"city":"Beaver Creek","state_name":"Minnesota","lat":43.61782,"lng":-96.37893,"zip":"56116","miles_from_dt":8.31},{"city":"Hardwick","state_name":"Minnesota","lat":43.78956,"lng":-96.23126,"zip":"56134","miles_from_dt":8.82},{"city":"Steen","state_name":"Minnesota","lat":43.52505,"lng":-96.24186,"zip":"56173","miles_from_dt":9.49},{"city":"Kenneth","state_name":"Minnesota","lat":43.75726,"lng":-96.05985,"zip":"56147","miles_from_dt":10.56},{"city":"Hills","state_name":"Minnesota","lat":43.53279,"lng":-96.38348,"zip":"56138","miles_from_dt":11.96},{"city":"Ellsworth","state_name":"Minnesota","lat":43.52775,"lng":-96.04327,"zip":"56129","miles_from_dt":12.99},{"city":"Adrian","state_name":"Minnesota","lat":43.62115,"lng":-95.94093,"zip":"56110","miles_from_dt":14.5},{"city":"Jasper","state_name":"Minnesota","lat":43.84078,"lng":-96.38702,"zip":"56144","miles_from_dt":14.78},{"city":"Valley Springs","state_name":"South Dakota","lat":43.57435,"lng":-96.49361,"zip":"57068","miles_from_dt":14.78},{"city":"Leota","state_name":"Minnesota","lat":43.83012,"lng":-96.01506,"zip":"56153","miles_from_dt":15.65},{"city":"Lismore","state_name":"Minnesota","lat":43.76707,"lng":-95.94117,"zip":"56155","miles_from_dt":15.94},{"city":"Edgerton","state_name":"Minnesota","lat":43.88199,"lng":-96.11579,"zip":"56128","miles_from_dt":16.14},{"city":"Garretson","state_name":"South Dakota","lat":43.73435,"lng":-96.53549,"zip":"57030","miles_from_dt":16.35},{"city":"Rock Rapids","state_name":"Iowa","lat":43.42764,"lng":-96.16564,"zip":"51246","miles_from_dt":16.45},{"city":"Lester","state_name":"Iowa","lat":43.43227,"lng":-96.33806,"zip":"51242","miles_from_dt":16.85},{"city":"Ihlen","state_name":"Minnesota","lat":43.90959,"lng":-96.36703,"zip":"56140","miles_from_dt":18.52},{"city":"Brandon","state_name":"South Dakota","lat":43.59281,"lng":-96.58728,"zip":"57005","miles_from_dt":18.8},{"city":"Larchwood","state_name":"Iowa","lat":43.44992,"lng":-96.46001,"zip":"51241","miles_from_dt":18.81},{"city":"Sioux Falls","state_name":"South Dakota","lat":43.73374,"lng":-96.62827,"zip":"57198","miles_from_dt":20.82},{"city":"Chandler","state_name":"Minnesota","lat":43.89729,"lng":-95.95026,"zip":"56122","miles_from_dt":21.27},{"city":"Rushmore","state_name":"Minnesota","lat":43.61552,"lng":-95.80358,"zip":"56168","miles_from_dt":21.35},{"city":"Alvord","state_name":"Iowa","lat":43.3562,"lng":-96.32217,"zip":"51230","miles_from_dt":21.67},{"city":"Wilmont","state_name":"Minnesota","lat":43.7932,"lng":-95.82659,"zip":"56185","miles_from_dt":21.89},{"city":"Little Rock","state_name":"Iowa","lat":43.4425,"lng":-95.90287,"zip":"51243","miles_from_dt":22.15},{"city":"Sioux Falls","state_name":"South Dakota","lat":43.54445,"lng":-96.63812,"zip":"57110","miles_from_dt":22.27},{"city":"Sioux Falls","state_name":"South Dakota","lat":43.6041,"lng":-96.70442,"zip":"57104","miles_from_dt":24.39},{"city":"Sioux Falls","state_name":"South Dakota","lat":43.60131,"lng":-96.70485,"zip":"57101","miles_from_dt":24.44},{"city":"Sioux Falls","state_name":"South Dakota","lat":43.60478,"lng":-96.70697,"zip":"57118","miles_from_dt":24.5},{"city":"Sioux Falls","state_name":"South Dakota","lat":43.538,"lng":-96.69241,"zip":"57103","miles_from_dt":24.98},{"city":"George","state_name":"Iowa","lat":43.33885,"lng":-96.0005,"zip":"51237","miles_from_dt":24.99},{"city":"Sioux Falls","state_name":"South Dakota","lat":43.55,"lng":-96.70219,"zip":"57186","miles_from_dt":25.17},{"city":"Trent","state_name":"South Dakota","lat":43.90041,"lng":-96.60631,"zip":"57065","miles_from_dt":25.21},{"city":"Doon","state_name":"Iowa","lat":43.29488,"lng":-96.21531,"zip":"51235","miles_from_dt":25.35},{"city":"Renner","state_name":"South Dakota","lat":43.66638,"lng":-96.73973,"zip":"57055","miles_from_dt":25.82},{"city":"Sioux Falls","state_name":"South Dakota","lat":43.54555,"lng":-96.72077,"zip":"57193","miles_from_dt":26.15},{"city":"Reading","state_name":"Minnesota","lat":43.7251,"lng":-95.7097,"zip":"56165","miles_from_dt":26.16},{"city":"Woodstock","state_name":"Minnesota","lat":44.02823,"lng":-96.08131,"zip":"56186","miles_from_dt":26.28},{"city":"Iona","state_name":"Minnesota","lat":43.88184,"lng":-95.78962,"zip":"56141","miles_from_dt":26.54},{"city":"Inwood","state_name":"Iowa","lat":43.30986,"lng":-96.45727,"zip":"51240","miles_from_dt":26.97},{"city":"Baltic","state_name":"South Dakota","lat":43.73705,"lng":-96.75784,"zip":"57003","miles_from_dt":27.2},{"city":"Pipestone","state_name":"Minnesota","lat":44.04936,"lng":-96.33361,"zip":"56164","miles_from_dt":27.29},{"city":"Sioux Falls","state_name":"South Dakota","lat":43.47776,"lng":-96.70571,"zip":"57108","miles_from_dt":27.29},{"city":"Sioux Falls","state_name":"South Dakota","lat":43.52125,"lng":-96.73587,"zip":"57105","miles_from_dt":27.43},{"city":"Sioux Falls","state_name":"South Dakota","lat":43.52455,"lng":-96.73862,"zip":"57197","miles_from_dt":27.48},{"city":"Sioux Falls","state_name":"South Dakota","lat":43.52054,"lng":-96.73836,"zip":"57109","miles_from_dt":27.56},{"city":"Sioux Falls","state_name":"South Dakota","lat":43.53124,"lng":-96.75497,"zip":"57117","miles_from_dt":28.1},{"city":"Harrisburg","state_name":"South Dakota","lat":43.42326,"lng":-96.68708,"zip":"57032","miles_from_dt":28.48},{"city":"Dell Rapids","state_name":"South Dakota","lat":43.85081,"lng":-96.7327,"zip":"57022","miles_from_dt":28.57},{"city":"Bigelow","state_name":"Minnesota","lat":43.52662,"lng":-95.68607,"zip":"56117","miles_from_dt":28.59},{"city":"Lake Wilson","state_name":"Minnesota","lat":44.03304,"lng":-95.92833,"zip":"56151","miles_from_dt":29.59}],"targetCityZipCode":"56156","targetCityState":"Minnesota"},"__N_SSG":true}