{"pageProps":{"stateName":"Minnesota","cityName":"northfield","nearbyCities":[{"city":"Dundas","state_name":"Minnesota","lat":44.41318,"lng":-93.25016,"zip":"55019","miles_from_dt":5.4},{"city":"Castle Rock","state_name":"Minnesota","lat":44.57285,"lng":-93.12407,"zip":"55010","miles_from_dt":7.43},{"city":"Randolph","state_name":"Minnesota","lat":44.54662,"lng":-93.01835,"zip":"55065","miles_from_dt":9.45},{"city":"Dennison","state_name":"Minnesota","lat":44.41832,"lng":-92.98822,"zip":"55018","miles_from_dt":10.18},{"city":"Nerstrand","state_name":"Minnesota","lat":44.34957,"lng":-93.06579,"zip":"55053","miles_from_dt":10.2},{"city":"Elko New Market","state_name":"Minnesota","lat":44.57148,"lng":-93.35087,"zip":"55054","miles_from_dt":10.87},{"city":"Webster","state_name":"Minnesota","lat":44.52945,"lng":-93.38479,"zip":"55088","miles_from_dt":10.88},{"city":"Farmington","state_name":"Minnesota","lat":44.62738,"lng":-93.13605,"zip":"55024","miles_from_dt":10.89},{"city":"Lonsdale","state_name":"Minnesota","lat":44.44629,"lng":-93.4162,"zip":"55046","miles_from_dt":11.85},{"city":"Elko New Market","state_name":"Minnesota","lat":44.57707,"lng":-93.37387,"zip":"55020","miles_from_dt":12},{"city":"Lakeville","state_name":"Minnesota","lat":44.64156,"lng":-93.27858,"zip":"55044","miles_from_dt":12.64},{"city":"Faribault","state_name":"Minnesota","lat":44.2973,"lng":-93.27414,"zip":"55021","miles_from_dt":12.99},{"city":"Hampton","state_name":"Minnesota","lat":44.60772,"lng":-92.96647,"zip":"55031","miles_from_dt":14.05},{"city":"Cannon Falls","state_name":"Minnesota","lat":44.48378,"lng":-92.86686,"zip":"55009","miles_from_dt":15.47},{"city":"Vermillion","state_name":"Minnesota","lat":44.6731,"lng":-92.96432,"zip":"55085","miles_from_dt":17.43},{"city":"Kenyon","state_name":"Minnesota","lat":44.26129,"lng":-92.95998,"zip":"55946","miles_from_dt":18.2},{"city":"Prior Lake","state_name":"Minnesota","lat":44.67791,"lng":-93.41237,"zip":"55372","miles_from_dt":18.24},{"city":"Burnsville","state_name":"Minnesota","lat":44.73071,"lng":-93.29195,"zip":"55306","miles_from_dt":18.65},{"city":"Montgomery","state_name":"Minnesota","lat":44.41801,"lng":-93.54988,"zip":"56069","miles_from_dt":18.71},{"city":"Saint Paul","state_name":"Minnesota","lat":44.74566,"lng":-93.20042,"zip":"55124","miles_from_dt":18.87},{"city":"Rosemount","state_name":"Minnesota","lat":44.73555,"lng":-93.06876,"zip":"55068","miles_from_dt":18.95},{"city":"Warsaw","state_name":"Minnesota","lat":44.23894,"lng":-93.40614,"zip":"55087","miles_from_dt":19.67},{"city":"New Prague","state_name":"Minnesota","lat":44.53459,"lng":-93.58209,"zip":"56071","miles_from_dt":20.35},{"city":"Medford","state_name":"Minnesota","lat":44.17628,"lng":-93.24101,"zip":"55049","miles_from_dt":20.7},{"city":"Morristown","state_name":"Minnesota","lat":44.23369,"lng":-93.4398,"zip":"55052","miles_from_dt":20.95},{"city":"Kilkenny","state_name":"Minnesota","lat":44.32158,"lng":-93.5576,"zip":"56052","miles_from_dt":21.44},{"city":"Burnsville","state_name":"Minnesota","lat":44.77673,"lng":-93.27491,"zip":"55337","miles_from_dt":21.51},{"city":"Savage","state_name":"Minnesota","lat":44.75685,"lng":-93.36209,"zip":"55378","miles_from_dt":21.58},{"city":"Wanamingo","state_name":"Minnesota","lat":44.29344,"lng":-92.80827,"zip":"55983","miles_from_dt":22.16},{"city":"Saint Paul","state_name":"Minnesota","lat":44.80326,"lng":-93.1962,"zip":"55122","miles_from_dt":22.83},{"city":"Hastings","state_name":"Minnesota","lat":44.71139,"lng":-92.8585,"zip":"55033","miles_from_dt":22.85},{"city":"Saint Paul","state_name":"Minnesota","lat":44.8043,"lng":-93.13699,"zip":"55123","miles_from_dt":22.98},{"city":"Jordan","state_name":"Minnesota","lat":44.65505,"lng":-93.5862,"zip":"55352","miles_from_dt":23.7},{"city":"Inver Grove Heights","state_name":"Minnesota","lat":44.81989,"lng":-93.07574,"zip":"55077","miles_from_dt":24.5},{"city":"Welch","state_name":"Minnesota","lat":44.59296,"lng":-92.70223,"zip":"55089","miles_from_dt":24.98},{"city":"Minneapolis","state_name":"Minnesota","lat":44.82607,"lng":-93.31195,"zip":"55431","miles_from_dt":25.25},{"city":"Minneapolis","state_name":"Minnesota","lat":44.83564,"lng":-93.27745,"zip":"55420","miles_from_dt":25.52},{"city":"Minneapolis","state_name":"Minnesota","lat":44.82434,"lng":-93.34488,"zip":"55437","miles_from_dt":25.61},{"city":"Shakopee","state_name":"Minnesota","lat":44.75492,"lng":-93.51713,"zip":"55379","miles_from_dt":25.63},{"city":"Minneapolis","state_name":"Minnesota","lat":44.84249,"lng":-93.23601,"zip":"55425","miles_from_dt":25.68},{"city":"Saint Paul Park","state_name":"Minnesota","lat":44.82257,"lng":-92.99677,"zip":"55071","miles_from_dt":25.77},{"city":"West Concord","state_name":"Minnesota","lat":44.15669,"lng":-92.90259,"zip":"55985","miles_from_dt":25.78},{"city":"Saint Paul","state_name":"Minnesota","lat":44.84591,"lng":-93.15932,"zip":"55121","miles_from_dt":25.78},{"city":"Inver Grove Heights","state_name":"Minnesota","lat":44.83318,"lng":-93.0334,"zip":"55076","miles_from_dt":25.9},{"city":"Waterville","state_name":"Minnesota","lat":44.24393,"lng":-93.60097,"zip":"56096","miles_from_dt":26.19},{"city":"Minneapolis","state_name":"Minnesota","lat":44.82489,"lng":-93.37826,"zip":"55438","miles_from_dt":26.21},{"city":"Cottage Grove","state_name":"Minnesota","lat":44.8172,"lng":-92.93373,"zip":"55016","miles_from_dt":26.69},{"city":"Zumbrota","state_name":"Minnesota","lat":44.30557,"lng":-92.6827,"zip":"55992","miles_from_dt":27.17},{"city":"Le Center","state_name":"Minnesota","lat":44.3954,"lng":-93.72045,"zip":"56057","miles_from_dt":27.3},{"city":"Saint Paul","state_name":"Minnesota","lat":44.87259,"lng":-93.14881,"zip":"55120","miles_from_dt":27.65},{"city":"Goodhue","state_name":"Minnesota","lat":44.40868,"lng":-92.62058,"zip":"55027","miles_from_dt":28},{"city":"Minneapolis","state_name":"Minnesota","lat":44.87901,"lng":-93.22549,"zip":"55450","miles_from_dt":28.14},{"city":"Minneapolis","state_name":"Minnesota","lat":44.87663,"lng":-93.28144,"zip":"55423","miles_from_dt":28.33},{"city":"Eden Prairie","state_name":"Minnesota","lat":44.82931,"lng":-93.46638,"zip":"55347","miles_from_dt":28.39},{"city":"Saint Paul","state_name":"Minnesota","lat":44.885,"lng":-93.19518,"zip":"55111","miles_from_dt":28.47},{"city":"Owatonna","state_name":"Minnesota","lat":44.05966,"lng":-93.22639,"zip":"55060","miles_from_dt":28.62},{"city":"Mendota","state_name":"Minnesota","lat":44.88717,"lng":-93.16157,"zip":"55150","miles_from_dt":28.63},{"city":"Minneapolis","state_name":"Minnesota","lat":44.87343,"lng":-93.3347,"zip":"55435","miles_from_dt":28.7},{"city":"Newport","state_name":"Minnesota","lat":44.87437,"lng":-92.99746,"zip":"55055","miles_from_dt":29.14},{"city":"Minneapolis","state_name":"Minnesota","lat":44.87452,"lng":-93.37475,"zip":"55439","miles_from_dt":29.36},{"city":"South Saint Paul","state_name":"Minnesota","lat":44.88794,"lng":-93.0411,"zip":"55075","miles_from_dt":29.46},{"city":"Saint Paul","state_name":"Minnesota","lat":44.8968,"lng":-93.10365,"zip":"55118","miles_from_dt":29.51},{"city":"Prescott","state_name":"Wisconsin","lat":44.74048,"lng":-92.71144,"zip":"54021","miles_from_dt":29.57},{"city":"Eden Prairie","state_name":"Minnesota","lat":44.86452,"lng":-93.43037,"zip":"55344","miles_from_dt":29.74}],"targetCityZipCode":"55057","targetCityState":"Minnesota"},"__N_SSG":true}