{"pageProps":{"stateName":"Minnesota","cityName":"ormsby","nearbyCities":[{"city":"Trimont","state_name":"Minnesota","lat":43.78319,"lng":-94.72835,"zip":"56176","miles_from_dt":4.99},{"city":"Odin","state_name":"Minnesota","lat":43.83311,"lng":-94.81041,"zip":"56160","miles_from_dt":7.17},{"city":"Butterfield","state_name":"Minnesota","lat":43.96083,"lng":-94.79139,"zip":"56120","miles_from_dt":10.37},{"city":"Saint James","state_name":"Minnesota","lat":43.99345,"lng":-94.63062,"zip":"56081","miles_from_dt":10.73},{"city":"Truman","state_name":"Minnesota","lat":43.82647,"lng":-94.45031,"zip":"56088","miles_from_dt":10.89},{"city":"Welcome","state_name":"Minnesota","lat":43.67951,"lng":-94.61549,"zip":"56181","miles_from_dt":11.4},{"city":"Sherburn","state_name":"Minnesota","lat":43.66902,"lng":-94.75925,"zip":"56171","miles_from_dt":12.69},{"city":"Lewisville","state_name":"Minnesota","lat":43.93221,"lng":-94.43691,"zip":"56060","miles_from_dt":13.14},{"city":"Northrop","state_name":"Minnesota","lat":43.73516,"lng":-94.43663,"zip":"56075","miles_from_dt":13.63},{"city":"Mountain Lake","state_name":"Minnesota","lat":43.94363,"lng":-94.93598,"zip":"56159","miles_from_dt":15.19},{"city":"La Salle","state_name":"Minnesota","lat":44.07278,"lng":-94.57945,"zip":"56056","miles_from_dt":16.64},{"city":"Darfur","state_name":"Minnesota","lat":44.05264,"lng":-94.83869,"zip":"56022","miles_from_dt":16.97},{"city":"Alpha","state_name":"Minnesota","lat":43.64155,"lng":-94.8799,"zip":"56111","miles_from_dt":17.36},{"city":"Fairmont","state_name":"Minnesota","lat":43.62246,"lng":-94.46757,"zip":"56031","miles_from_dt":18.06},{"city":"Madelia","state_name":"Minnesota","lat":44.0483,"lng":-94.41469,"zip":"56062","miles_from_dt":19.11},{"city":"Bingham Lake","state_name":"Minnesota","lat":43.93616,"lng":-95.03555,"zip":"56118","miles_from_dt":19.54},{"city":"Dunnell","state_name":"Minnesota","lat":43.54892,"lng":-94.77261,"zip":"56127","miles_from_dt":20.8},{"city":"Ceylon","state_name":"Minnesota","lat":43.53858,"lng":-94.61051,"zip":"56121","miles_from_dt":21.03},{"city":"Granada","state_name":"Minnesota","lat":43.66246,"lng":-94.32287,"zip":"56039","miles_from_dt":21.17},{"city":"Comfrey","state_name":"Minnesota","lat":44.11476,"lng":-94.89016,"zip":"56019","miles_from_dt":21.96},{"city":"Jackson","state_name":"Minnesota","lat":43.62803,"lng":-95.00759,"zip":"56143","miles_from_dt":22.47},{"city":"Hanska","state_name":"Minnesota","lat":44.15514,"lng":-94.52238,"zip":"56041","miles_from_dt":22.9},{"city":"Vernon Center","state_name":"Minnesota","lat":43.9584,"lng":-94.23303,"zip":"56090","miles_from_dt":23.16},{"city":"Windom","state_name":"Minnesota","lat":43.88404,"lng":-95.13991,"zip":"56101","miles_from_dt":23.8},{"city":"Winnebago","state_name":"Minnesota","lat":43.77565,"lng":-94.18528,"zip":"56098","miles_from_dt":24.51},{"city":"Amboy","state_name":"Minnesota","lat":43.89112,"lng":-94.17869,"zip":"56010","miles_from_dt":24.66},{"city":"Huntley","state_name":"Minnesota","lat":43.72276,"lng":-94.19203,"zip":"56047","miles_from_dt":25.12},{"city":"Dolliver","state_name":"Iowa","lat":43.45841,"lng":-94.61417,"zip":"50531","miles_from_dt":26.5},{"city":"Garden City","state_name":"Minnesota","lat":44.03036,"lng":-94.18285,"zip":"56034","miles_from_dt":27.5},{"city":"Lake Crystal","state_name":"Minnesota","lat":44.12693,"lng":-94.24531,"zip":"56055","miles_from_dt":28.88},{"city":"Searles","state_name":"Minnesota","lat":44.22729,"lng":-94.43337,"zip":"56084","miles_from_dt":29.15},{"city":"Jeffers","state_name":"Minnesota","lat":44.05577,"lng":-95.17384,"zip":"56145","miles_from_dt":29.32}],"targetCityZipCode":"56162","targetCityState":"Minnesota"},"__N_SSG":true}