{"pageProps":{"stateName":"Minnesota","cityName":"oronoco","nearbyCities":[{"city":"Rochester","state_name":"Minnesota","lat":44.07679,"lng":-92.5018,"zip":"55901","miles_from_dt":4.82},{"city":"Rochester","state_name":"Minnesota","lat":44.05595,"lng":-92.52589,"zip":"55905","miles_from_dt":5.98},{"city":"Pine Island","state_name":"Minnesota","lat":44.18784,"lng":-92.66227,"zip":"55963","miles_from_dt":7.04},{"city":"Rochester","state_name":"Minnesota","lat":44.10751,"lng":-92.40142,"zip":"55906","miles_from_dt":7.09},{"city":"Rochester","state_name":"Minnesota","lat":44.02391,"lng":-92.43657,"zip":"55903","miles_from_dt":9.54},{"city":"Mazeppa","state_name":"Minnesota","lat":44.28382,"lng":-92.53068,"zip":"55956","miles_from_dt":9.78},{"city":"Zumbro Falls","state_name":"Minnesota","lat":44.25903,"lng":-92.41986,"zip":"55991","miles_from_dt":9.9},{"city":"Byron","state_name":"Minnesota","lat":44.01246,"lng":-92.62111,"zip":"55920","miles_from_dt":9.92},{"city":"Mantorville","state_name":"Minnesota","lat":44.09179,"lng":-92.73985,"zip":"55955","miles_from_dt":10.74},{"city":"Elgin","state_name":"Minnesota","lat":44.13804,"lng":-92.30081,"zip":"55932","miles_from_dt":11.68},{"city":"Rochester","state_name":"Minnesota","lat":43.9671,"lng":-92.51584,"zip":"55902","miles_from_dt":12.13},{"city":"Zumbrota","state_name":"Minnesota","lat":44.30557,"lng":-92.6827,"zip":"55992","miles_from_dt":13.43},{"city":"Rochester","state_name":"Minnesota","lat":43.96204,"lng":-92.39931,"zip":"55904","miles_from_dt":14.17},{"city":"Kasson","state_name":"Minnesota","lat":43.98754,"lng":-92.73758,"zip":"55944","miles_from_dt":14.67},{"city":"Millville","state_name":"Minnesota","lat":44.25494,"lng":-92.28373,"zip":"55957","miles_from_dt":14.73},{"city":"Eyota","state_name":"Minnesota","lat":44.00388,"lng":-92.26573,"zip":"55934","miles_from_dt":16.49},{"city":"Wanamingo","state_name":"Minnesota","lat":44.29344,"lng":-92.80827,"zip":"55983","miles_from_dt":17.09},{"city":"West Concord","state_name":"Minnesota","lat":44.15669,"lng":-92.90259,"zip":"55985","miles_from_dt":18.27},{"city":"Dodge Center","state_name":"Minnesota","lat":44.0335,"lng":-92.87291,"zip":"55927","miles_from_dt":18.39},{"city":"Goodhue","state_name":"Minnesota","lat":44.40868,"lng":-92.62058,"zip":"55027","miles_from_dt":18.87},{"city":"Plainview","state_name":"Minnesota","lat":44.16448,"lng":-92.15483,"zip":"55964","miles_from_dt":18.99},{"city":"Stewartville","state_name":"Minnesota","lat":43.86378,"lng":-92.48394,"zip":"55976","miles_from_dt":19.4},{"city":"Lake City","state_name":"Minnesota","lat":44.39544,"lng":-92.31923,"zip":"55041","miles_from_dt":20.51},{"city":"Hayfield","state_name":"Minnesota","lat":43.89417,"lng":-92.80775,"zip":"55940","miles_from_dt":21.84},{"city":"Dover","state_name":"Minnesota","lat":43.97765,"lng":-92.14412,"zip":"55929","miles_from_dt":22.56},{"city":"Kenyon","state_name":"Minnesota","lat":44.26129,"lng":-92.95998,"zip":"55946","miles_from_dt":22.62},{"city":"Racine","state_name":"Minnesota","lat":43.79343,"lng":-92.51354,"zip":"55967","miles_from_dt":24.11},{"city":"Claremont","state_name":"Minnesota","lat":44.0354,"lng":-93.01838,"zip":"55924","miles_from_dt":25.13},{"city":"Kellogg","state_name":"Minnesota","lat":44.26788,"lng":-92.05591,"zip":"55945","miles_from_dt":25.36},{"city":"Red Wing","state_name":"Minnesota","lat":44.51581,"lng":-92.5441,"zip":"55066","miles_from_dt":25.8},{"city":"Sargeant","state_name":"Minnesota","lat":43.80794,"lng":-92.772,"zip":"55973","miles_from_dt":25.92},{"city":"Saint Charles","state_name":"Minnesota","lat":43.99396,"lng":-92.05092,"zip":"55972","miles_from_dt":26.21},{"city":"Chatfield","state_name":"Minnesota","lat":43.8494,"lng":-92.18315,"zip":"55923","miles_from_dt":26.79},{"city":"Wabasha","state_name":"Minnesota","lat":44.35375,"lng":-92.06518,"zip":"55981","miles_from_dt":27.54},{"city":"Altura","state_name":"Minnesota","lat":44.13285,"lng":-91.97285,"zip":"55910","miles_from_dt":27.99},{"city":"Frontenac","state_name":"Minnesota","lat":44.52179,"lng":-92.3369,"zip":"55026","miles_from_dt":27.99},{"city":"Reads Landing","state_name":"Minnesota","lat":44.39793,"lng":-92.0898,"zip":"55968","miles_from_dt":28.3},{"city":"Waltham","state_name":"Minnesota","lat":43.81582,"lng":-92.886,"zip":"55982","miles_from_dt":28.51},{"city":"Cannon Falls","state_name":"Minnesota","lat":44.48378,"lng":-92.86686,"zip":"55009","miles_from_dt":28.73},{"city":"Dexter","state_name":"Minnesota","lat":43.74279,"lng":-92.70689,"zip":"55926","miles_from_dt":28.87},{"city":"Stockholm","state_name":"Wisconsin","lat":44.50897,"lng":-92.23304,"zip":"54769","miles_from_dt":29.43},{"city":"Dennison","state_name":"Minnesota","lat":44.41832,"lng":-92.98822,"zip":"55018","miles_from_dt":29.45},{"city":"Nerstrand","state_name":"Minnesota","lat":44.34957,"lng":-93.06579,"zip":"55053","miles_from_dt":29.95},{"city":"Grand Meadow","state_name":"Minnesota","lat":43.70943,"lng":-92.58524,"zip":"55936","miles_from_dt":29.99}],"targetCityZipCode":"55960","targetCityState":"Minnesota"},"__N_SSG":true}