{"pageProps":{"stateName":"Minnesota","cityName":"ponemah","nearbyCities":[{"city":"Redby","state_name":"Minnesota","lat":47.85001,"lng":-94.86912,"zip":"56670","miles_from_dt":12.8},{"city":"Kelliher","state_name":"Minnesota","lat":47.9979,"lng":-94.56351,"zip":"56650","miles_from_dt":12.9},{"city":"Waskish","state_name":"Minnesota","lat":48.23841,"lng":-94.51997,"zip":"56685","miles_from_dt":20.35},{"city":"Puposky","state_name":"Minnesota","lat":47.73569,"lng":-94.94199,"zip":"56667","miles_from_dt":21.18},{"city":"Tenstrike","state_name":"Minnesota","lat":47.72124,"lng":-94.7512,"zip":"56683","miles_from_dt":21.96},{"city":"Redlake","state_name":"Minnesota","lat":47.94006,"lng":-95.31791,"zip":"56671","miles_from_dt":23.25},{"city":"Blackduck","state_name":"Minnesota","lat":47.74432,"lng":-94.49852,"zip":"56630","miles_from_dt":25.44},{"city":"Hines","state_name":"Minnesota","lat":47.68782,"lng":-94.62187,"zip":"56647","miles_from_dt":25.91},{"city":"Leonard","state_name":"Minnesota","lat":47.71104,"lng":-95.23721,"zip":"56652","miles_from_dt":29.06}],"targetCityZipCode":"56666","targetCityState":"Minnesota"},"__N_SSG":true}