{"pageProps":{"stateName":"Minnesota","cityName":"watkins","nearbyCities":[{"city":"Kimball","state_name":"Minnesota","lat":45.32034,"lng":-94.31607,"zip":"55353","miles_from_dt":6.08},{"city":"Eden Valley","state_name":"Minnesota","lat":45.30798,"lng":-94.57039,"zip":"55329","miles_from_dt":6.5},{"city":"Cold Spring","state_name":"Minnesota","lat":45.4629,"lng":-94.4171,"zip":"56320","miles_from_dt":11.31},{"city":"South Haven","state_name":"Minnesota","lat":45.30521,"lng":-94.20438,"zip":"55382","miles_from_dt":11.37},{"city":"Richmond","state_name":"Minnesota","lat":45.45158,"lng":-94.5392,"zip":"56368","miles_from_dt":11.59},{"city":"Rockville","state_name":"Minnesota","lat":45.46904,"lng":-94.3359,"zip":"56369","miles_from_dt":12.69},{"city":"Roscoe","state_name":"Minnesota","lat":45.43333,"lng":-94.63707,"zip":"56371","miles_from_dt":13.4},{"city":"Litchfield","state_name":"Minnesota","lat":45.09709,"lng":-94.54017,"zip":"55355","miles_from_dt":14.87},{"city":"Grove City","state_name":"Minnesota","lat":45.16868,"lng":-94.6799,"zip":"56243","miles_from_dt":14.9},{"city":"Paynesville","state_name":"Minnesota","lat":45.40524,"lng":-94.71525,"zip":"56362","miles_from_dt":15.36},{"city":"Saint Cloud","state_name":"Minnesota","lat":45.48275,"lng":-94.25029,"zip":"56397","miles_from_dt":15.58},{"city":"Saint Cloud","state_name":"Minnesota","lat":45.48271,"lng":-94.24842,"zip":"56398","miles_from_dt":15.63},{"city":"Dassel","state_name":"Minnesota","lat":45.08432,"lng":-94.32031,"zip":"55325","miles_from_dt":15.94},{"city":"Saint Cloud","state_name":"Minnesota","lat":45.48718,"lng":-94.24307,"zip":"56301","miles_from_dt":16.03},{"city":"Annandale","state_name":"Minnesota","lat":45.24464,"lng":-94.11638,"zip":"55302","miles_from_dt":16.11},{"city":"Darwin","state_name":"Minnesota","lat":45.05676,"lng":-94.42554,"zip":"55324","miles_from_dt":16.79},{"city":"Saint Martin","state_name":"Minnesota","lat":45.50241,"lng":-94.66731,"zip":"56376","miles_from_dt":17.91},{"city":"Clearwater","state_name":"Minnesota","lat":45.39613,"lng":-94.08366,"zip":"55320","miles_from_dt":18.47},{"city":"Waite Park","state_name":"Minnesota","lat":45.53215,"lng":-94.24141,"zip":"56387","miles_from_dt":18.67},{"city":"Cokato","state_name":"Minnesota","lat":45.08406,"lng":-94.193,"zip":"55321","miles_from_dt":19.09},{"city":"Collegeville","state_name":"Minnesota","lat":45.57969,"lng":-94.39288,"zip":"56321","miles_from_dt":19.45},{"city":"Saint Cloud","state_name":"Minnesota","lat":45.54976,"lng":-94.22735,"zip":"56399","miles_from_dt":20.06},{"city":"Saint Cloud","state_name":"Minnesota","lat":45.56,"lng":-94.22219,"zip":"56388","miles_from_dt":20.8},{"city":"Saint Cloud","state_name":"Minnesota","lat":45.56299,"lng":-94.21872,"zip":"56372","miles_from_dt":21.06},{"city":"Saint Cloud","state_name":"Minnesota","lat":45.56755,"lng":-94.21711,"zip":"56393","miles_from_dt":21.37},{"city":"Atwater","state_name":"Minnesota","lat":45.124,"lng":-94.79931,"zip":"56209","miles_from_dt":21.43},{"city":"Saint Cloud","state_name":"Minnesota","lat":45.56813,"lng":-94.21428,"zip":"56396","miles_from_dt":21.47},{"city":"Saint Joseph","state_name":"Minnesota","lat":45.60381,"lng":-94.33816,"zip":"56374","miles_from_dt":21.54},{"city":"Maple Lake","state_name":"Minnesota","lat":45.24637,"lng":-94.00049,"zip":"55358","miles_from_dt":21.62},{"city":"Saint Cloud","state_name":"Minnesota","lat":45.57422,"lng":-94.21117,"zip":"56303","miles_from_dt":21.91},{"city":"Saint Cloud","state_name":"Minnesota","lat":45.56095,"lng":-94.16445,"zip":"56302","miles_from_dt":22.39},{"city":"Saint Cloud","state_name":"Minnesota","lat":45.56103,"lng":-94.16167,"zip":"56395","miles_from_dt":22.48},{"city":"Avon","state_name":"Minnesota","lat":45.63399,"lng":-94.44352,"zip":"56310","miles_from_dt":23.08},{"city":"Albany","state_name":"Minnesota","lat":45.62666,"lng":-94.58769,"zip":"56307","miles_from_dt":23.72},{"city":"Howard Lake","state_name":"Minnesota","lat":45.06238,"lng":-94.07438,"zip":"55349","miles_from_dt":24.15},{"city":"Saint Cloud","state_name":"Minnesota","lat":45.52512,"lng":-94.05199,"zip":"56304","miles_from_dt":24.37},{"city":"Howard Lake","state_name":"Minnesota","lat":45.05728,"lng":-94.06737,"zip":"55575","miles_from_dt":24.64},{"city":"Spicer","state_name":"Minnesota","lat":45.24218,"lng":-94.94847,"zip":"56288","miles_from_dt":25.23},{"city":"Sartell","state_name":"Minnesota","lat":45.6405,"lng":-94.23033,"zip":"56377","miles_from_dt":25.59},{"city":"New London","state_name":"Minnesota","lat":45.32163,"lng":-94.96777,"zip":"56273","miles_from_dt":25.88},{"city":"Kandiyohi","state_name":"Minnesota","lat":45.14046,"lng":-94.9198,"zip":"56251","miles_from_dt":25.98},{"city":"Clear Lake","state_name":"Minnesota","lat":45.47181,"lng":-93.94359,"zip":"55319","miles_from_dt":26.81},{"city":"New Munich","state_name":"Minnesota","lat":45.63334,"lng":-94.73332,"zip":"56356","miles_from_dt":27.15},{"city":"Belgrade","state_name":"Minnesota","lat":45.46285,"lng":-94.95323,"zip":"56312","miles_from_dt":27.51},{"city":"Waverly","state_name":"Minnesota","lat":45.06812,"lng":-93.97912,"zip":"55390","miles_from_dt":27.51},{"city":"Cosmos","state_name":"Minnesota","lat":44.93619,"lng":-94.67715,"zip":"56228","miles_from_dt":27.71},{"city":"Hutchinson","state_name":"Minnesota","lat":44.89743,"lng":-94.39195,"zip":"55350","miles_from_dt":27.87},{"city":"Silver Lake","state_name":"Minnesota","lat":44.92763,"lng":-94.18623,"zip":"55381","miles_from_dt":28.49},{"city":"Freeport","state_name":"Minnesota","lat":45.67926,"lng":-94.6742,"zip":"56331","miles_from_dt":28.62},{"city":"Saint Stephen","state_name":"Minnesota","lat":45.70122,"lng":-94.27458,"zip":"56375","miles_from_dt":28.83},{"city":"Sauk Rapids","state_name":"Minnesota","lat":45.63966,"lng":-94.08394,"zip":"56379","miles_from_dt":29.09},{"city":"Greenwald","state_name":"Minnesota","lat":45.60137,"lng":-94.85941,"zip":"56335","miles_from_dt":29.23},{"city":"Monticello","state_name":"Minnesota","lat":45.30099,"lng":-93.83563,"zip":"55362","miles_from_dt":29.33},{"city":"Winsted","state_name":"Minnesota","lat":44.9572,"lng":-94.06085,"zip":"55395","miles_from_dt":29.98},{"city":"Melrose","state_name":"Minnesota","lat":45.65078,"lng":-94.80076,"zip":"56352","miles_from_dt":29.98}],"targetCityZipCode":"55389","targetCityState":"Minnesota"},"__N_SSG":true}