{"pageProps":{"stateName":"West-virginia","cityName":"edmond","nearbyCities":[{"city":"Lansing","state_name":"West Virginia","lat":38.08448,"lng":-81.05192,"zip":"25862","miles_from_dt":1.82},{"city":"Winona","state_name":"West Virginia","lat":38.02691,"lng":-80.98836,"zip":"25942","miles_from_dt":3.57},{"city":"Lookout","state_name":"West Virginia","lat":38.07172,"lng":-80.96461,"zip":"25868","miles_from_dt":4.09},{"city":"Fayetteville","state_name":"West Virginia","lat":38.04001,"lng":-81.11442,"zip":"25840","miles_from_dt":4.38},{"city":"Hico","state_name":"West Virginia","lat":38.12629,"lng":-80.97537,"zip":"25854","miles_from_dt":5.69},{"city":"Minden","state_name":"West Virginia","lat":37.98048,"lng":-81.10453,"zip":"25879","miles_from_dt":6.59},{"city":"Victor","state_name":"West Virginia","lat":38.15993,"lng":-81.03447,"zip":"25938","miles_from_dt":6.87},{"city":"Ansted","state_name":"West Virginia","lat":38.14048,"lng":-81.11512,"zip":"25812","miles_from_dt":6.93},{"city":"Lochgelly","state_name":"West Virginia","lat":38.00883,"lng":-81.15738,"zip":"25866","miles_from_dt":7.41},{"city":"Danese","state_name":"West Virginia","lat":37.95645,"lng":-80.94037,"zip":"25831","miles_from_dt":8.94},{"city":"Thurmond","state_name":"West Virginia","lat":37.92917,"lng":-81.03105,"zip":"25936","miles_from_dt":9.06},{"city":"Nallen","state_name":"West Virginia","lat":38.08991,"lng":-80.87423,"zip":"26680","miles_from_dt":9.17},{"city":"Oak Hill","state_name":"West Virginia","lat":37.93575,"lng":-81.11242,"zip":"25901","miles_from_dt":9.5},{"city":"Kanawha Falls","state_name":"West Virginia","lat":38.13065,"lng":-81.18997,"zip":"25115","miles_from_dt":9.58},{"city":"Robson","state_name":"West Virginia","lat":38.07519,"lng":-81.21898,"zip":"25173","miles_from_dt":9.9},{"city":"Mount Lookout","state_name":"West Virginia","lat":38.16883,"lng":-80.91085,"zip":"26678","miles_from_dt":10.21},{"city":"Hilltop","state_name":"West Virginia","lat":37.94052,"lng":-81.15296,"zip":"25855","miles_from_dt":10.37},{"city":"Dothan","state_name":"West Virginia","lat":37.98955,"lng":-81.21248,"zip":"25833","miles_from_dt":10.69},{"city":"Gauley Bridge","state_name":"West Virginia","lat":38.16762,"lng":-81.18867,"zip":"25085","miles_from_dt":11.04},{"city":"Page","state_name":"West Virginia","lat":38.0411,"lng":-81.24004,"zip":"25152","miles_from_dt":11.08},{"city":"Deep Water","state_name":"West Virginia","lat":38.1078,"lng":-81.23783,"zip":"25057","miles_from_dt":11.36},{"city":"Glen Jean","state_name":"West Virginia","lat":37.92476,"lng":-81.16628,"zip":"25846","miles_from_dt":11.68},{"city":"Glen Ferris","state_name":"West Virginia","lat":38.15544,"lng":-81.21655,"zip":"25090","miles_from_dt":11.72},{"city":"Swiss","state_name":"West Virginia","lat":38.21757,"lng":-81.12069,"zip":"26690","miles_from_dt":11.73},{"city":"Pool","state_name":"West Virginia","lat":38.16324,"lng":-80.8544,"zip":"26684","miles_from_dt":12.28},{"city":"Charlton Heights","state_name":"West Virginia","lat":38.13673,"lng":-81.24385,"zip":"25040","miles_from_dt":12.38},{"city":"Drennen","state_name":"West Virginia","lat":38.2384,"lng":-80.99908,"zip":"26667","miles_from_dt":12.46},{"city":"Layland","state_name":"West Virginia","lat":37.87948,"lng":-81.01781,"zip":"25864","miles_from_dt":12.53},{"city":"Alloy","state_name":"West Virginia","lat":38.13087,"lng":-81.25466,"zip":"25002","miles_from_dt":12.75},{"city":"Scarbro","state_name":"West Virginia","lat":37.97944,"lng":-81.25021,"zip":"25917","miles_from_dt":12.84},{"city":"Kincaid","state_name":"West Virginia","lat":38.03362,"lng":-81.27494,"zip":"25119","miles_from_dt":13.04},{"city":"Keslers Cross Lanes","state_name":"West Virginia","lat":38.2347,"lng":-80.93623,"zip":"26675","miles_from_dt":13.24},{"city":"Mount Hope","state_name":"West Virginia","lat":37.90059,"lng":-81.18946,"zip":"25888","miles_from_dt":13.77},{"city":"Rainelle","state_name":"West Virginia","lat":37.97044,"lng":-80.8098,"zip":"25962","miles_from_dt":13.93},{"city":"Prince","state_name":"West Virginia","lat":37.8593,"lng":-81.07196,"zip":"25907","miles_from_dt":13.99},{"city":"Mount Carbon","state_name":"West Virginia","lat":38.11038,"lng":-81.2874,"zip":"25139","miles_from_dt":14.01},{"city":"Boomer","state_name":"West Virginia","lat":38.14615,"lng":-81.2801,"zip":"25031","miles_from_dt":14.44},{"city":"Belva","state_name":"West Virginia","lat":38.24358,"lng":-81.18082,"zip":"26656","miles_from_dt":14.83},{"city":"Mount Nebo","state_name":"West Virginia","lat":38.16509,"lng":-80.7971,"zip":"26679","miles_from_dt":15},{"city":"Cannelton","state_name":"West Virginia","lat":38.19168,"lng":-81.26438,"zip":"25036","miles_from_dt":15.29},{"city":"Powellton","state_name":"West Virginia","lat":38.06123,"lng":-81.3189,"zip":"25161","miles_from_dt":15.3},{"city":"Charmco","state_name":"West Virginia","lat":38.02156,"lng":-80.76077,"zip":"25958","miles_from_dt":15.37},{"city":"Mount Hope","state_name":"West Virginia","lat":37.87672,"lng":-81.20095,"zip":"25880","miles_from_dt":15.47},{"city":"Mount Olive","state_name":"West Virginia","lat":38.22149,"lng":-81.23587,"zip":"25185","miles_from_dt":15.47},{"city":"Pax","state_name":"West Virginia","lat":37.9128,"lng":-81.25213,"zip":"25904","miles_from_dt":15.49},{"city":"Kimberly","state_name":"West Virginia","lat":38.11882,"lng":-81.32294,"zip":"25118","miles_from_dt":16.03},{"city":"Smithers","state_name":"West Virginia","lat":38.17113,"lng":-81.29811,"zip":"25186","miles_from_dt":16.09},{"city":"Bradley","state_name":"West Virginia","lat":37.8608,"lng":-81.19252,"zip":"25818","miles_from_dt":16.14},{"city":"Piney View","state_name":"West Virginia","lat":37.83176,"lng":-81.12194,"zip":"25906","miles_from_dt":16.42},{"city":"Dixie","state_name":"West Virginia","lat":38.25422,"lng":-81.2153,"zip":"25059","miles_from_dt":16.48},{"city":"Spring Dale","state_name":"West Virginia","lat":37.89395,"lng":-80.81741,"zip":"25986","miles_from_dt":16.65},{"city":"Montgomery","state_name":"West Virginia","lat":38.15864,"lng":-81.31977,"zip":"25136","miles_from_dt":16.77},{"city":"Lanark","state_name":"West Virginia","lat":37.82703,"lng":-81.14653,"zip":"25860","miles_from_dt":17.15},{"city":"Leslie","state_name":"West Virginia","lat":38.03576,"lng":-80.7222,"zip":"25972","miles_from_dt":17.32},{"city":"Gallagher","state_name":"West Virginia","lat":38.06809,"lng":-81.36118,"zip":"25083","miles_from_dt":17.61},{"city":"Meadow Bridge","state_name":"West Virginia","lat":37.84372,"lng":-80.86221,"zip":"25976","miles_from_dt":17.77},{"city":"Prosperity","state_name":"West Virginia","lat":37.83687,"lng":-81.20192,"zip":"25909","miles_from_dt":17.82},{"city":"Stanaford","state_name":"West Virginia","lat":37.81734,"lng":-81.16138,"zip":"25927","miles_from_dt":18.06},{"city":"Quinwood","state_name":"West Virginia","lat":38.08321,"lng":-80.70274,"zip":"25981","miles_from_dt":18.36},{"city":"Clear Creek","state_name":"West Virginia","lat":37.91139,"lng":-81.32118,"zip":"25044","miles_from_dt":18.55},{"city":"Handley","state_name":"West Virginia","lat":38.16735,"lng":-81.35192,"zip":"25102","miles_from_dt":18.61},{"city":"Meadow Creek","state_name":"West Virginia","lat":37.80819,"lng":-80.90571,"zip":"25977","miles_from_dt":18.84},{"city":"Hugheston","state_name":"West Virginia","lat":38.21324,"lng":-81.3264,"zip":"25110","miles_from_dt":18.91},{"city":"Artie","state_name":"West Virginia","lat":37.95044,"lng":-81.35766,"zip":"25008","miles_from_dt":19.01},{"city":"Gilboa","state_name":"West Virginia","lat":38.31978,"lng":-80.90929,"zip":"26671","miles_from_dt":19.22},{"city":"London","state_name":"West Virginia","lat":38.19058,"lng":-81.35382,"zip":"25126","miles_from_dt":19.39},{"city":"Beaver","state_name":"West Virginia","lat":37.78309,"lng":-81.10001,"zip":"25813","miles_from_dt":19.42},{"city":"Lizemores","state_name":"West Virginia","lat":38.31554,"lng":-81.19074,"zip":"25125","miles_from_dt":19.46},{"city":"Summersville","state_name":"West Virginia","lat":38.3185,"lng":-80.87902,"zip":"26651","miles_from_dt":19.8},{"city":"Skelton","state_name":"West Virginia","lat":37.79607,"lng":-81.18216,"zip":"25919","miles_from_dt":19.85},{"city":"Beckley","state_name":"West Virginia","lat":37.83805,"lng":-81.27017,"zip":"25801","miles_from_dt":19.89},{"city":"Canvas","state_name":"West Virginia","lat":38.25813,"lng":-80.7695,"zip":"26662","miles_from_dt":20.01},{"city":"Indore","state_name":"West Virginia","lat":38.34841,"lng":-81.12591,"zip":"25111","miles_from_dt":20.43},{"city":"Hansford","state_name":"West Virginia","lat":38.18207,"lng":-81.38225,"zip":"25103","miles_from_dt":20.53},{"city":"Pond Gap","state_name":"West Virginia","lat":38.29884,"lng":-81.27314,"zip":"25160","miles_from_dt":20.83},{"city":"Beckley","state_name":"West Virginia","lat":37.79333,"lng":-81.21961,"zip":"25802","miles_from_dt":20.91},{"city":"Nettie","state_name":"West Virginia","lat":38.22983,"lng":-80.71905,"zip":"26681","miles_from_dt":20.95},{"city":"Eskdale","state_name":"West Virginia","lat":38.0526,"lng":-81.42915,"zip":"25075","miles_from_dt":21.32},{"city":"Pratt","state_name":"West Virginia","lat":38.20712,"lng":-81.38435,"zip":"25162","miles_from_dt":21.4},{"city":"Harper","state_name":"West Virginia","lat":37.80177,"lng":-81.26154,"zip":"25851","miles_from_dt":21.61},{"city":"Shady Spring","state_name":"West Virginia","lat":37.74575,"lng":-81.00993,"zip":"25918","miles_from_dt":21.76},{"city":"Leivasy","state_name":"West Virginia","lat":38.16173,"lng":-80.65944,"zip":"26676","miles_from_dt":21.8},{"city":"Cedar Grove","state_name":"West Virginia","lat":38.24642,"lng":-81.36524,"zip":"25039","miles_from_dt":21.95},{"city":"Bickmore","state_name":"West Virginia","lat":38.37663,"lng":-81.08955,"zip":"25019","miles_from_dt":21.99},{"city":"Mabscott","state_name":"West Virginia","lat":37.76917,"lng":-81.21165,"zip":"25871","miles_from_dt":22.21},{"city":"Smoot","state_name":"West Virginia","lat":37.90823,"lng":-80.67527,"zip":"24977","miles_from_dt":22.42},{"city":"Raleigh","state_name":"West Virginia","lat":37.75232,"lng":-81.17848,"zip":"25911","miles_from_dt":22.59},{"city":"Mammoth","state_name":"West Virginia","lat":38.29328,"lng":-81.33441,"zip":"25132","miles_from_dt":22.76},{"city":"Dawes","state_name":"West Virginia","lat":38.12226,"lng":-81.45044,"zip":"25054","miles_from_dt":22.87},{"city":"Glasgow","state_name":"West Virginia","lat":38.21326,"lng":-81.41238,"zip":"25086","miles_from_dt":22.94},{"city":"Drybranch","state_name":"West Virginia","lat":38.1751,"lng":-81.43342,"zip":"25061","miles_from_dt":22.94},{"city":"Eccles","state_name":"West Virginia","lat":37.78693,"lng":-81.27804,"zip":"25836","miles_from_dt":22.96},{"city":"Grassy Meadows","state_name":"West Virginia","lat":37.83632,"lng":-80.72709,"zip":"24943","miles_from_dt":22.97},{"city":"Daniels","state_name":"West Virginia","lat":37.72637,"lng":-81.10494,"zip":"25832","miles_from_dt":23.32},{"city":"MacArthur","state_name":"West Virginia","lat":37.75136,"lng":-81.21515,"zip":"25873","miles_from_dt":23.4},{"city":"Green Sulphur Springs","state_name":"West Virginia","lat":37.7975,"lng":-80.76729,"zip":"25966","miles_from_dt":23.41},{"city":"Colcord","state_name":"West Virginia","lat":37.95442,"lng":-81.44656,"zip":"25048","miles_from_dt":23.45},{"city":"Sandstone","state_name":"West Virginia","lat":37.75752,"lng":-80.83044,"zip":"25985","miles_from_dt":23.78},{"city":"Rupert","state_name":"West Virginia","lat":38.01409,"lng":-80.6026,"zip":"25984","miles_from_dt":23.98},{"city":"Glen","state_name":"West Virginia","lat":38.37963,"lng":-81.21551,"zip":"25088","miles_from_dt":24.04},{"city":"East Bank","state_name":"West Virginia","lat":38.20963,"lng":-81.44018,"zip":"25067","miles_from_dt":24.19},{"city":"Dorothy","state_name":"West Virginia","lat":37.97058,"lng":-81.47286,"zip":"25060","miles_from_dt":24.51},{"city":"Rock Creek","state_name":"West Virginia","lat":37.86115,"lng":-81.41376,"zip":"25174","miles_from_dt":24.68},{"city":"Miami","state_name":"West Virginia","lat":38.13596,"lng":-81.48553,"zip":"25134","miles_from_dt":24.93},{"city":"Glen Daniel","state_name":"West Virginia","lat":37.81056,"lng":-81.37022,"zip":"25844","miles_from_dt":25.01},{"city":"Crab Orchard","state_name":"West Virginia","lat":37.73869,"lng":-81.25368,"zip":"25827","miles_from_dt":25.12},{"city":"Fenwick","state_name":"West Virginia","lat":38.22657,"lng":-80.62639,"zip":"26202","miles_from_dt":25.19},{"city":"Surveyor","state_name":"West Virginia","lat":37.75623,"lng":-81.30282,"zip":"25932","miles_from_dt":25.48},{"city":"Blount","state_name":"West Virginia","lat":38.29378,"lng":-81.4018,"zip":"25025","miles_from_dt":25.51},{"city":"Dry Creek","state_name":"West Virginia","lat":37.87549,"lng":-81.44411,"zip":"25062","miles_from_dt":25.57},{"city":"Midway","state_name":"West Virginia","lat":37.71303,"lng":-81.22464,"zip":"25878","miles_from_dt":26.03},{"city":"Glen White","state_name":"West Virginia","lat":37.73175,"lng":-81.27799,"zip":"25849","miles_from_dt":26.18},{"city":"Crawley","state_name":"West Virginia","lat":37.91471,"lng":-80.59355,"zip":"24931","miles_from_dt":26.27},{"city":"White Oak","state_name":"West Virginia","lat":37.67864,"lng":-81.04594,"zip":"25989","miles_from_dt":26.33},{"city":"Clay","state_name":"West Virginia","lat":38.44092,"lng":-80.98981,"zip":"25043","miles_from_dt":26.38},{"city":"Arnett","state_name":"West Virginia","lat":37.8252,"lng":-81.42766,"zip":"25007","miles_from_dt":26.75},{"city":"Fairdale","state_name":"West Virginia","lat":37.78091,"lng":-81.38228,"zip":"25839","miles_from_dt":26.92},{"city":"Orgas","state_name":"West Virginia","lat":38.03511,"lng":-81.53695,"zip":"25148","miles_from_dt":27.25},{"city":"Cabin Creek","state_name":"West Virginia","lat":38.16339,"lng":-81.52399,"zip":"25035","miles_from_dt":27.4},{"city":"Calvin","state_name":"West Virginia","lat":38.35513,"lng":-80.70061,"zip":"26660","miles_from_dt":27.4},{"city":"Whitesville","state_name":"West Virginia","lat":37.96271,"lng":-81.52861,"zip":"25209","miles_from_dt":27.59},{"city":"Belle","state_name":"West Virginia","lat":38.24293,"lng":-81.49226,"zip":"25015","miles_from_dt":27.74},{"city":"Craigsville","state_name":"West Virginia","lat":38.32078,"lng":-80.64828,"zip":"26205","miles_from_dt":27.81},{"city":"Sylvester","state_name":"West Virginia","lat":38.01672,"lng":-81.55089,"zip":"25193","miles_from_dt":28.12},{"city":"Sophia","state_name":"West Virginia","lat":37.69181,"lng":-81.25882,"zip":"25921","miles_from_dt":28.14},{"city":"Coal City","state_name":"West Virginia","lat":37.66626,"lng":-81.18231,"zip":"25823","miles_from_dt":28.3},{"city":"Naoma","state_name":"West Virginia","lat":37.86738,"lng":-81.49733,"zip":"25140","miles_from_dt":28.38},{"city":"Lester","state_name":"West Virginia","lat":37.73076,"lng":-81.35212,"zip":"25865","miles_from_dt":28.48},{"city":"Saxon","state_name":"West Virginia","lat":37.78961,"lng":-81.43316,"zip":"25180","miles_from_dt":28.53},{"city":"Cool Ridge","state_name":"West Virginia","lat":37.64736,"lng":-81.08862,"zip":"25825","miles_from_dt":28.62},{"city":"Bomont","state_name":"West Virginia","lat":38.45028,"lng":-81.22599,"zip":"25030","miles_from_dt":28.76},{"city":"Widen","state_name":"West Virginia","lat":38.46107,"lng":-80.87932,"zip":"25211","miles_from_dt":28.96},{"city":"Maysel","state_name":"West Virginia","lat":38.47976,"lng":-81.11831,"zip":"25133","miles_from_dt":29.25},{"city":"Bolt","state_name":"West Virginia","lat":37.76393,"lng":-81.42191,"zip":"25817","miles_from_dt":29.28},{"city":"Winifrede","state_name":"West Virginia","lat":38.18947,"lng":-81.55127,"zip":"25214","miles_from_dt":29.33},{"city":"Princewick","state_name":"West Virginia","lat":37.66782,"lng":-81.24434,"zip":"25908","miles_from_dt":29.33},{"city":"Hinton","state_name":"West Virginia","lat":37.65535,"lng":-80.87197,"zip":"25951","miles_from_dt":29.38},{"city":"Comfort","state_name":"West Virginia","lat":38.11954,"lng":-81.57315,"zip":"25049","miles_from_dt":29.44},{"city":"Alderson","state_name":"West Virginia","lat":37.74173,"lng":-80.66835,"zip":"24910","miles_from_dt":29.86},{"city":"Asbury","state_name":"West Virginia","lat":37.82735,"lng":-80.57735,"zip":"24916","miles_from_dt":29.87}],"targetCityZipCode":"25837","targetCityState":"West Virginia"},"__N_SSG":true}