{"pageProps":{"stateName":"West-virginia","cityName":"marlinton","nearbyCities":[{"city":"Buckeye","state_name":"West Virginia","lat":38.19294,"lng":-80.15174,"zip":"24924","miles_from_dt":4.9},{"city":"Hillsboro","state_name":"West Virginia","lat":38.17891,"lng":-80.2671,"zip":"24946","miles_from_dt":11.05},{"city":"Snowshoe","state_name":"West Virginia","lat":38.39401,"lng":-80.04434,"zip":"26209","miles_from_dt":11.48},{"city":"Dunmore","state_name":"West Virginia","lat":38.32836,"lng":-79.89267,"zip":"24934","miles_from_dt":12.01},{"city":"Cass","state_name":"West Virginia","lat":38.38999,"lng":-79.965,"zip":"24927","miles_from_dt":12.58},{"city":"Slatyfork","state_name":"West Virginia","lat":38.44109,"lng":-80.08637,"zip":"26291","miles_from_dt":14.62},{"city":"Warm Springs","state_name":"Virginia","lat":38.1448,"lng":-79.82013,"zip":"24484","miles_from_dt":15.02},{"city":"Bacova","state_name":"Virginia","lat":38.05774,"lng":-79.83096,"zip":"24412","miles_from_dt":17.77},{"city":"Bergoo","state_name":"West Virginia","lat":38.45054,"lng":-80.26552,"zip":"26298","miles_from_dt":18.46},{"city":"Green Bank","state_name":"West Virginia","lat":38.39926,"lng":-79.77108,"zip":"24944","miles_from_dt":20.22},{"city":"Renick","state_name":"West Virginia","lat":38.03345,"lng":-80.35283,"zip":"24966","miles_from_dt":20.31},{"city":"Monterville","state_name":"West Virginia","lat":38.52022,"lng":-80.14619,"zip":"26282","miles_from_dt":20.44},{"city":"Hot Springs","state_name":"Virginia","lat":37.96615,"lng":-79.88013,"zip":"24445","miles_from_dt":21.01},{"city":"Valley Head","state_name":"West Virginia","lat":38.53443,"lng":-80.02309,"zip":"26294","miles_from_dt":21.23},{"city":"Arbovale","state_name":"West Virginia","lat":38.4693,"lng":-79.78668,"zip":"24915","miles_from_dt":22.76},{"city":"White Sulphur Springs","state_name":"West Virginia","lat":37.91189,"lng":-80.19455,"zip":"24986","miles_from_dt":22.85},{"city":"Richwood","state_name":"West Virginia","lat":38.18881,"lng":-80.50454,"zip":"26261","miles_from_dt":23.58},{"city":"Cowen","state_name":"West Virginia","lat":38.36992,"lng":-80.47848,"zip":"26206","miles_from_dt":24.01},{"city":"Webster Springs","state_name":"West Virginia","lat":38.49664,"lng":-80.3645,"zip":"26288","miles_from_dt":24.25},{"city":"Monterey","state_name":"Virginia","lat":38.39611,"lng":-79.64636,"zip":"24465","miles_from_dt":25.95},{"city":"Frankford","state_name":"West Virginia","lat":37.92516,"lng":-80.38083,"zip":"24938","miles_from_dt":26.82},{"city":"Williamsville","state_name":"Virginia","lat":38.20099,"lng":-79.58105,"zip":"24487","miles_from_dt":26.92},{"city":"Millboro","state_name":"Virginia","lat":38.02237,"lng":-79.65048,"zip":"24460","miles_from_dt":27.15},{"city":"Upperglade","state_name":"West Virginia","lat":38.43411,"lng":-80.50219,"zip":"26266","miles_from_dt":27.2},{"city":"Williamsburg","state_name":"West Virginia","lat":38.00702,"lng":-80.48972,"zip":"24991","miles_from_dt":27.34},{"city":"Huttonsville","state_name":"West Virginia","lat":38.62993,"lng":-79.963,"zip":"26273","miles_from_dt":28.28},{"city":"Camden On Gauley","state_name":"West Virginia","lat":38.34781,"lng":-80.57314,"zip":"26208","miles_from_dt":28.32},{"city":"Durbin","state_name":"West Virginia","lat":38.58923,"lng":-79.82277,"zip":"26264","miles_from_dt":28.33},{"city":"Pickens","state_name":"West Virginia","lat":38.6437,"lng":-80.18881,"zip":"26230","miles_from_dt":29.25},{"city":"Maxwelton","state_name":"West Virginia","lat":37.88729,"lng":-80.40827,"zip":"24957","miles_from_dt":29.8}],"targetCityZipCode":"24954","targetCityState":"West Virginia"},"__N_SSG":true}