{"pageProps":{"stateName":"West-virginia","cityName":"pecks-mill","nearbyCities":[{"city":"Henlawson","state_name":"West Virginia","lat":37.90393,"lng":-81.97162,"zip":"25624","miles_from_dt":1.83},{"city":"Peach Creek","state_name":"West Virginia","lat":37.88674,"lng":-81.95905,"zip":"25639","miles_from_dt":2.74},{"city":"Ethel","state_name":"West Virginia","lat":37.86889,"lng":-81.937,"zip":"25076","miles_from_dt":4.06},{"city":"Chapmanville","state_name":"West Virginia","lat":37.96388,"lng":-82.01394,"zip":"25508","miles_from_dt":4.19},{"city":"Lake","state_name":"West Virginia","lat":37.91167,"lng":-81.87787,"zip":"25121","miles_from_dt":4.26},{"city":"Logan","state_name":"West Virginia","lat":37.86255,"lng":-82.0026,"zip":"25601","miles_from_dt":5.14},{"city":"Hewett","state_name":"West Virginia","lat":37.9655,"lng":-81.87289,"zip":"25108","miles_from_dt":5.18},{"city":"Cora","state_name":"West Virginia","lat":37.85103,"lng":-81.98783,"zip":"25614","miles_from_dt":5.51},{"city":"Mount Gay","state_name":"West Virginia","lat":37.85086,"lng":-82.02805,"zip":"25637","miles_from_dt":6.6},{"city":"Wilkinson","state_name":"West Virginia","lat":37.8287,"lng":-81.9944,"zip":"25653","miles_from_dt":7.09},{"city":"Stollings","state_name":"West Virginia","lat":37.83187,"lng":-81.89349,"zip":"25646","miles_from_dt":7.3},{"city":"Turtle Creek","state_name":"West Virginia","lat":38.02125,"lng":-81.88162,"zip":"25203","miles_from_dt":7.64},{"city":"Big Creek","state_name":"West Virginia","lat":38.01967,"lng":-82.03075,"zip":"25505","miles_from_dt":7.69},{"city":"Verdunville","state_name":"West Virginia","lat":37.87166,"lng":-82.08489,"zip":"25649","miles_from_dt":8.1},{"city":"Sharples","state_name":"West Virginia","lat":37.9074,"lng":-81.79745,"zip":"25183","miles_from_dt":8.64},{"city":"Jeffrey","state_name":"West Virginia","lat":37.98199,"lng":-81.7986,"zip":"25114","miles_from_dt":9.3},{"city":"Danville","state_name":"West Virginia","lat":38.04725,"lng":-81.87633,"zip":"25053","miles_from_dt":9.35},{"city":"Yolyn","state_name":"West Virginia","lat":37.80302,"lng":-81.87401,"zip":"25654","miles_from_dt":9.55},{"city":"Switzer","state_name":"West Virginia","lat":37.786,"lng":-81.98738,"zip":"25647","miles_from_dt":9.85},{"city":"Ottawa","state_name":"West Virginia","lat":37.9558,"lng":-81.7745,"zip":"25149","miles_from_dt":10},{"city":"Holden","state_name":"West Virginia","lat":37.82237,"lng":-82.09206,"zip":"25625","miles_from_dt":10.42},{"city":"Clothier","state_name":"West Virginia","lat":37.9219,"lng":-81.76027,"zip":"25047","miles_from_dt":10.57},{"city":"Blair","state_name":"West Virginia","lat":37.84157,"lng":-81.79241,"zip":"25022","miles_from_dt":10.58},{"city":"Harts","state_name":"West Virginia","lat":38.01309,"lng":-82.11712,"zip":"25524","miles_from_dt":10.75},{"city":"Whitman","state_name":"West Virginia","lat":37.78702,"lng":-82.04865,"zip":"25652","miles_from_dt":10.92},{"city":"Uneeda","state_name":"West Virginia","lat":38.01841,"lng":-81.78926,"zip":"25205","miles_from_dt":11},{"city":"Chauncey","state_name":"West Virginia","lat":37.76396,"lng":-81.98064,"zip":"25612","miles_from_dt":11.29},{"city":"Lyburn","state_name":"West Virginia","lat":37.76292,"lng":-81.9368,"zip":"25632","miles_from_dt":11.3},{"city":"Kistler","state_name":"West Virginia","lat":37.7657,"lng":-81.86237,"zip":"25628","miles_from_dt":12.15},{"city":"Bob White","state_name":"West Virginia","lat":37.95598,"lng":-81.72535,"zip":"25028","miles_from_dt":12.64},{"city":"Spurlockville","state_name":"West Virginia","lat":38.10998,"lng":-81.96631,"zip":"25565","miles_from_dt":12.69},{"city":"Accoville","state_name":"West Virginia","lat":37.76641,"lng":-81.82878,"zip":"25606","miles_from_dt":12.97},{"city":"Madison","state_name":"West Virginia","lat":38.02776,"lng":-81.7455,"zip":"25130","miles_from_dt":13.35},{"city":"Omar","state_name":"West Virginia","lat":37.74423,"lng":-82.05133,"zip":"25638","miles_from_dt":13.64},{"city":"Dingess","state_name":"West Virginia","lat":37.90411,"lng":-82.20283,"zip":"25671","miles_from_dt":13.7},{"city":"Amherstdale","state_name":"West Virginia","lat":37.78125,"lng":-81.77081,"zip":"25607","miles_from_dt":14.14},{"city":"Van","state_name":"West Virginia","lat":37.9596,"lng":-81.69296,"zip":"25206","miles_from_dt":14.43},{"city":"Bim","state_name":"West Virginia","lat":37.91587,"lng":-81.68482,"zip":"25021","miles_from_dt":14.71},{"city":"Foster","state_name":"West Virginia","lat":38.08235,"lng":-81.76875,"zip":"25081","miles_from_dt":14.76},{"city":"Man","state_name":"West Virginia","lat":37.71937,"lng":-81.87261,"zip":"25635","miles_from_dt":14.94},{"city":"Davin","state_name":"West Virginia","lat":37.74549,"lng":-81.80275,"zip":"25617","miles_from_dt":14.95},{"city":"Mallory","state_name":"West Virginia","lat":37.73017,"lng":-81.82461,"zip":"25634","miles_from_dt":15.26},{"city":"Sarah Ann","state_name":"West Virginia","lat":37.70191,"lng":-82.00107,"zip":"25644","miles_from_dt":15.69},{"city":"Alkol","state_name":"West Virginia","lat":38.16035,"lng":-81.95582,"zip":"25501","miles_from_dt":16.15},{"city":"Woodville","state_name":"West Virginia","lat":38.16074,"lng":-81.89338,"zip":"25572","miles_from_dt":16.5},{"city":"Ranger","state_name":"West Virginia","lat":38.09923,"lng":-82.16262,"zip":"25557","miles_from_dt":16.5},{"city":"Lenore","state_name":"West Virginia","lat":37.82509,"lng":-82.22972,"zip":"25676","miles_from_dt":16.63},{"city":"Delbarton","state_name":"West Virginia","lat":37.7385,"lng":-82.15588,"zip":"25670","miles_from_dt":17.03},{"city":"Gordon","state_name":"West Virginia","lat":37.9653,"lng":-81.64137,"zip":"25093","miles_from_dt":17.27},{"city":"Lorado","state_name":"West Virginia","lat":37.79821,"lng":-81.6816,"zip":"25630","miles_from_dt":17.3},{"city":"Julian","state_name":"West Virginia","lat":38.15573,"lng":-81.8245,"zip":"25529","miles_from_dt":17.32},{"city":"Ridgeview","state_name":"West Virginia","lat":38.12788,"lng":-81.76288,"zip":"25169","miles_from_dt":17.37},{"city":"Bruno","state_name":"West Virginia","lat":37.6832,"lng":-81.87068,"zip":"25611","miles_from_dt":17.37},{"city":"Wharton","state_name":"West Virginia","lat":37.84579,"lng":-81.64282,"zip":"25208","miles_from_dt":17.88},{"city":"Breeden","state_name":"West Virginia","lat":37.9203,"lng":-82.29432,"zip":"25666","miles_from_dt":18.61},{"city":"Twilight","state_name":"West Virginia","lat":37.91546,"lng":-81.60914,"zip":"25204","miles_from_dt":18.84},{"city":"Midkiff","state_name":"West Virginia","lat":38.15709,"lng":-82.13914,"zip":"25540","miles_from_dt":18.86},{"city":"Peytona","state_name":"West Virginia","lat":38.11572,"lng":-81.70249,"zip":"25154","miles_from_dt":18.94},{"city":"Verner","state_name":"West Virginia","lat":37.68358,"lng":-81.78773,"zip":"25650","miles_from_dt":19.04},{"city":"Seth","state_name":"West Virginia","lat":38.04962,"lng":-81.63476,"zip":"25181","miles_from_dt":19.38},{"city":"Varney","state_name":"West Virginia","lat":37.66116,"lng":-82.07154,"zip":"25696","miles_from_dt":19.39},{"city":"Ragland","state_name":"West Virginia","lat":37.69124,"lng":-82.15505,"zip":"25690","miles_from_dt":19.6},{"city":"Nellis","state_name":"West Virginia","lat":38.15001,"lng":-81.73066,"zip":"25142","miles_from_dt":19.65},{"city":"Wilsondale","state_name":"West Virginia","lat":37.96297,"lng":-82.31493,"zip":"25699","miles_from_dt":19.89},{"city":"Cyclone","state_name":"West Virginia","lat":37.75186,"lng":-81.65997,"zip":"24827","miles_from_dt":20.07},{"city":"Gilbert","state_name":"West Virginia","lat":37.63149,"lng":-81.89643,"zip":"25621","miles_from_dt":20.57},{"city":"Kiahsville","state_name":"West Virginia","lat":38.08065,"lng":-82.27781,"zip":"25534","miles_from_dt":20.65},{"city":"Sumerco","state_name":"West Virginia","lat":38.21971,"lng":-81.87294,"zip":"25567","miles_from_dt":20.71},{"city":"Yawkey","state_name":"West Virginia","lat":38.22725,"lng":-81.94549,"zip":"25573","miles_from_dt":20.76},{"city":"Costa","state_name":"West Virginia","lat":38.15885,"lng":-81.70929,"zip":"25051","miles_from_dt":20.86},{"city":"Griffithsville","state_name":"West Virginia","lat":38.22915,"lng":-81.98641,"zip":"25521","miles_from_dt":20.97},{"city":"Coal Mountain","state_name":"West Virginia","lat":37.66761,"lng":-81.74105,"zip":"24823","miles_from_dt":21.3},{"city":"Newtown","state_name":"West Virginia","lat":37.64902,"lng":-82.12839,"zip":"25686","miles_from_dt":21.38},{"city":"Naugatuck","state_name":"West Virginia","lat":37.79592,"lng":-82.31426,"zip":"25685","miles_from_dt":21.67},{"city":"Kermit","state_name":"West Virginia","lat":37.87114,"lng":-82.34672,"zip":"25674","miles_from_dt":21.81},{"city":"Lynco","state_name":"West Virginia","lat":37.69591,"lng":-81.67557,"zip":"24857","miles_from_dt":22},{"city":"Williamson","state_name":"West Virginia","lat":37.71062,"lng":-82.25377,"zip":"25661","miles_from_dt":22.15},{"city":"Red Jacket","state_name":"West Virginia","lat":37.61804,"lng":-82.07375,"zip":"25692","miles_from_dt":22.25},{"city":"Racine","state_name":"West Virginia","lat":38.14907,"lng":-81.65308,"zip":"25165","miles_from_dt":22.47},{"city":"Ashford","state_name":"West Virginia","lat":38.19237,"lng":-81.71301,"zip":"25009","miles_from_dt":22.56},{"city":"Myra","state_name":"West Virginia","lat":38.23078,"lng":-82.11017,"zip":"25544","miles_from_dt":22.67},{"city":"North Matewan","state_name":"West Virginia","lat":37.63952,"lng":-82.15832,"zip":"25688","miles_from_dt":22.73},{"city":"Sylvester","state_name":"West Virginia","lat":38.01672,"lng":-81.55089,"zip":"25193","miles_from_dt":22.86},{"city":"Simon","state_name":"West Virginia","lat":37.62771,"lng":-81.76623,"zip":"24882","miles_from_dt":23.01},{"city":"Dunlow","state_name":"West Virginia","lat":38.03194,"lng":-82.35637,"zip":"25511","miles_from_dt":23.16},{"city":"Chattaroy","state_name":"West Virginia","lat":37.70619,"lng":-82.2738,"zip":"25667","miles_from_dt":23.18},{"city":"Branchland","state_name":"West Virginia","lat":38.20826,"lng":-82.18665,"zip":"25506","miles_from_dt":23.23},{"city":"Whitesville","state_name":"West Virginia","lat":37.96271,"lng":-81.52861,"zip":"25209","miles_from_dt":23.35},{"city":"Justice","state_name":"West Virginia","lat":37.59922,"lng":-81.83805,"zip":"24851","miles_from_dt":23.43},{"city":"Sod","state_name":"West Virginia","lat":38.26302,"lng":-81.88835,"zip":"25564","miles_from_dt":23.5},{"city":"Matewan","state_name":"West Virginia","lat":37.59564,"lng":-82.08187,"zip":"25678","miles_from_dt":23.86},{"city":"Bloomingrose","state_name":"West Virginia","lat":38.15744,"lng":-81.6266,"zip":"25024","miles_from_dt":23.93},{"city":"Orgas","state_name":"West Virginia","lat":38.03511,"lng":-81.53695,"zip":"25148","miles_from_dt":23.96},{"city":"Rawl","state_name":"West Virginia","lat":37.64753,"lng":-82.21831,"zip":"25691","miles_from_dt":24.07},{"city":"Kopperston","state_name":"West Virginia","lat":37.73997,"lng":-81.5789,"zip":"24854","miles_from_dt":24.2},{"city":"Borderland","state_name":"West Virginia","lat":37.71382,"lng":-82.30604,"zip":"25665","miles_from_dt":24.21},{"city":"Alum Creek","state_name":"West Virginia","lat":38.25101,"lng":-81.77925,"zip":"25003","miles_from_dt":24.33},{"city":"Baisden","state_name":"West Virginia","lat":37.57512,"lng":-81.89165,"zip":"25608","miles_from_dt":24.46},{"city":"Wharncliffe","state_name":"West Virginia","lat":37.57142,"lng":-81.9662,"zip":"25651","miles_from_dt":24.48},{"city":"Comfort","state_name":"West Virginia","lat":38.11954,"lng":-81.57315,"zip":"25049","miles_from_dt":24.67},{"city":"Hamlin","state_name":"West Virginia","lat":38.27934,"lng":-82.06754,"zip":"25523","miles_from_dt":25.13},{"city":"Clear Fork","state_name":"West Virginia","lat":37.62908,"lng":-81.68755,"zip":"24822","miles_from_dt":25.15},{"city":"Naoma","state_name":"West Virginia","lat":37.86738,"lng":-81.49733,"zip":"25140","miles_from_dt":25.27},{"city":"Lovely","state_name":"Kentucky","lat":37.79447,"lng":-82.38903,"zip":"41231","miles_from_dt":25.48},{"city":"South Williamson","state_name":"Kentucky","lat":37.66079,"lng":-82.28446,"zip":"41503","miles_from_dt":25.75},{"city":"McCarr","state_name":"Kentucky","lat":37.59602,"lng":-82.17368,"zip":"41544","miles_from_dt":25.77},{"city":"Edgarton","state_name":"West Virginia","lat":37.57017,"lng":-82.10044,"zip":"25672","miles_from_dt":25.84},{"city":"Hanover","state_name":"West Virginia","lat":37.58216,"lng":-81.76504,"zip":"24839","miles_from_dt":25.88},{"city":"North Spring","state_name":"West Virginia","lat":37.56133,"lng":-81.82315,"zip":"24869","miles_from_dt":26.16},{"city":"Dorothy","state_name":"West Virginia","lat":37.97058,"lng":-81.47286,"zip":"25060","miles_from_dt":26.44},{"city":"Oceana","state_name":"West Virginia","lat":37.73784,"lng":-81.53203,"zip":"24870","miles_from_dt":26.47},{"city":"East Lynn","state_name":"West Virginia","lat":38.17784,"lng":-82.32056,"zip":"25512","miles_from_dt":26.48},{"city":"Hernshaw","state_name":"West Virginia","lat":38.22427,"lng":-81.64493,"zip":"25107","miles_from_dt":26.57},{"city":"Warfield","state_name":"Kentucky","lat":37.87514,"lng":-82.43591,"zip":"41267","miles_from_dt":26.59},{"city":"Matheny","state_name":"West Virginia","lat":37.65919,"lng":-81.59075,"zip":"24860","miles_from_dt":27.09},{"city":"Belfry","state_name":"Kentucky","lat":37.67135,"lng":-82.33169,"zip":"41514","miles_from_dt":27.15},{"city":"Crum","state_name":"West Virginia","lat":37.93186,"lng":-82.4519,"zip":"25669","miles_from_dt":27.22},{"city":"Tornado","state_name":"West Virginia","lat":38.31593,"lng":-81.85372,"zip":"25202","miles_from_dt":27.42},{"city":"Hardy","state_name":"Kentucky","lat":37.59509,"lng":-82.23131,"zip":"41531","miles_from_dt":27.44},{"city":"Forest Hills","state_name":"Kentucky","lat":37.63187,"lng":-82.29378,"zip":"41527","miles_from_dt":27.55},{"city":"Freeburn","state_name":"Kentucky","lat":37.55458,"lng":-82.13984,"zip":"41528","miles_from_dt":27.59},{"city":"West Hamlin","state_name":"West Virginia","lat":38.2947,"lng":-82.15632,"zip":"25571","miles_from_dt":27.71},{"city":"Jesse","state_name":"West Virginia","lat":37.67435,"lng":-81.55848,"zip":"24849","miles_from_dt":27.74},{"city":"Colcord","state_name":"West Virginia","lat":37.95442,"lng":-81.44656,"zip":"25048","miles_from_dt":27.77},{"city":"Isaban","state_name":"West Virginia","lat":37.52611,"lng":-81.89175,"zip":"24846","miles_from_dt":27.81},{"city":"Majestic","state_name":"Kentucky","lat":37.53821,"lng":-82.09437,"zip":"41547","miles_from_dt":27.85},{"city":"Dry Creek","state_name":"West Virginia","lat":37.87549,"lng":-81.44411,"zip":"25062","miles_from_dt":28.07},{"city":"Beauty","state_name":"Kentucky","lat":37.85241,"lng":-82.46112,"zip":"41203","miles_from_dt":28.2},{"city":"Charleston","state_name":"West Virginia","lat":38.21032,"lng":-81.57992,"zip":"25315","miles_from_dt":28.27},{"city":"Brenton","state_name":"West Virginia","lat":37.60809,"lng":-81.62275,"zip":"24818","miles_from_dt":28.46},{"city":"Winifrede","state_name":"West Virginia","lat":38.18947,"lng":-81.55127,"zip":"25214","miles_from_dt":28.48},{"city":"Cabin Creek","state_name":"West Virginia","lat":38.16339,"lng":-81.52399,"zip":"25035","miles_from_dt":28.58},{"city":"South Charleston","state_name":"West Virginia","lat":38.31177,"lng":-81.75715,"zip":"25309","miles_from_dt":28.66},{"city":"Glen Fork","state_name":"West Virginia","lat":37.70291,"lng":-81.51107,"zip":"25845","miles_from_dt":28.7},{"city":"Ikes Fork","state_name":"West Virginia","lat":37.52643,"lng":-81.80041,"zip":"24845","miles_from_dt":28.83},{"city":"Huddy","state_name":"Kentucky","lat":37.59368,"lng":-82.28422,"zip":"41535","miles_from_dt":29.22},{"city":"Miami","state_name":"West Virginia","lat":38.13596,"lng":-81.48553,"zip":"25134","miles_from_dt":29.35},{"city":"Arnett","state_name":"West Virginia","lat":37.8252,"lng":-81.42766,"zip":"25007","miles_from_dt":29.59},{"city":"Marianna","state_name":"West Virginia","lat":37.61732,"lng":-81.57824,"zip":"24859","miles_from_dt":29.61},{"city":"Charleston","state_name":"West Virginia","lat":38.23427,"lng":-81.57375,"zip":"25365","miles_from_dt":29.67},{"city":"Stopover","state_name":"Kentucky","lat":37.50369,"lng":-82.05896,"zip":"41568","miles_from_dt":29.71},{"city":"Rock Creek","state_name":"West Virginia","lat":37.86115,"lng":-81.41376,"zip":"25174","miles_from_dt":29.85},{"city":"Eskdale","state_name":"West Virginia","lat":38.0526,"lng":-81.42915,"zip":"25075","miles_from_dt":29.93},{"city":"Saxon","state_name":"West Virginia","lat":37.78961,"lng":-81.43316,"zip":"25180","miles_from_dt":29.98}],"targetCityZipCode":"25547","targetCityState":"West Virginia"},"__N_SSG":true}