{"pageProps":{"stateName":"West-virginia","cityName":"secondcreek","nearbyCities":[{"city":"Sinks Grove","state_name":"West Virginia","lat":37.66513,"lng":-80.52273,"zip":"24976","miles_from_dt":4.23},{"city":"Ronceverte","state_name":"West Virginia","lat":37.73238,"lng":-80.47574,"zip":"24970","miles_from_dt":5.63},{"city":"Union","state_name":"West Virginia","lat":37.59165,"lng":-80.51672,"zip":"24983","miles_from_dt":5.75},{"city":"Caldwell","state_name":"West Virginia","lat":37.72919,"lng":-80.38348,"zip":"24925","miles_from_dt":6.25},{"city":"Gap Mills","state_name":"West Virginia","lat":37.58824,"lng":-80.3577,"zip":"24941","miles_from_dt":6.67},{"city":"Fairlea","state_name":"West Virginia","lat":37.77799,"lng":-80.45392,"zip":"24902","miles_from_dt":8.56},{"city":"Wolfcreek","state_name":"West Virginia","lat":37.66095,"lng":-80.63512,"zip":"24993","miles_from_dt":10.33},{"city":"Waiteville","state_name":"West Virginia","lat":37.48942,"lng":-80.41749,"zip":"24984","miles_from_dt":11.46},{"city":"Paint Bank","state_name":"Virginia","lat":37.56836,"lng":-80.22894,"zip":"24131","miles_from_dt":13.34},{"city":"Alderson","state_name":"West Virginia","lat":37.74173,"lng":-80.66835,"zip":"24910","miles_from_dt":13.56},{"city":"Lewisburg","state_name":"West Virginia","lat":37.85298,"lng":-80.47598,"zip":"24901","miles_from_dt":13.82},{"city":"Wayside","state_name":"West Virginia","lat":37.59989,"lng":-80.68948,"zip":"24985","miles_from_dt":13.82},{"city":"Asbury","state_name":"West Virginia","lat":37.82735,"lng":-80.57735,"zip":"24916","miles_from_dt":13.93},{"city":"Pence Springs","state_name":"West Virginia","lat":37.66029,"lng":-80.72041,"zip":"24962","miles_from_dt":15},{"city":"Greenville","state_name":"West Virginia","lat":37.54113,"lng":-80.68795,"zip":"24945","miles_from_dt":15.34},{"city":"Lindside","state_name":"West Virginia","lat":37.48358,"lng":-80.63103,"zip":"24951","miles_from_dt":15.5},{"city":"Talcott","state_name":"West Virginia","lat":37.63256,"lng":-80.73968,"zip":"24981","miles_from_dt":16.12},{"city":"Maxwelton","state_name":"West Virginia","lat":37.88729,"lng":-80.40827,"zip":"24957","miles_from_dt":16.23},{"city":"New Castle","state_name":"Virginia","lat":37.47949,"lng":-80.19468,"zip":"24127","miles_from_dt":18.34},{"city":"Frankford","state_name":"West Virginia","lat":37.92516,"lng":-80.38083,"zip":"24938","miles_from_dt":19.05},{"city":"Ripplemead","state_name":"Virginia","lat":37.40229,"lng":-80.59694,"zip":"24150","miles_from_dt":19.21},{"city":"Ballard","state_name":"West Virginia","lat":37.51793,"lng":-80.75461,"zip":"24918","miles_from_dt":19.32},{"city":"Crawley","state_name":"West Virginia","lat":37.91471,"lng":-80.59355,"zip":"24931","miles_from_dt":19.69},{"city":"Grassy Meadows","state_name":"West Virginia","lat":37.83632,"lng":-80.72709,"zip":"24943","miles_from_dt":19.84},{"city":"Green Sulphur Springs","state_name":"West Virginia","lat":37.7975,"lng":-80.76729,"zip":"25966","miles_from_dt":20.15},{"city":"Forest Hill","state_name":"West Virginia","lat":37.56362,"lng":-80.80344,"zip":"24935","miles_from_dt":20.53},{"city":"Newport","state_name":"Virginia","lat":37.3426,"lng":-80.47196,"zip":"24128","miles_from_dt":21.52},{"city":"Smoot","state_name":"West Virginia","lat":37.90823,"lng":-80.67527,"zip":"24977","miles_from_dt":21.54},{"city":"Covington","state_name":"Virginia","lat":37.76589,"lng":-80.06927,"zip":"24426","miles_from_dt":22.09},{"city":"Sandstone","state_name":"West Virginia","lat":37.75752,"lng":-80.83044,"zip":"25985","miles_from_dt":22.19},{"city":"White Sulphur Springs","state_name":"West Virginia","lat":37.91189,"lng":-80.19455,"zip":"24986","miles_from_dt":22.52},{"city":"Catawba","state_name":"Virginia","lat":37.37316,"lng":-80.21238,"zip":"24070","miles_from_dt":23.26},{"city":"Hinton","state_name":"West Virginia","lat":37.65535,"lng":-80.87197,"zip":"25951","miles_from_dt":23.31},{"city":"Peterstown","state_name":"West Virginia","lat":37.43743,"lng":-80.77617,"zip":"24963","miles_from_dt":23.45},{"city":"Williamsburg","state_name":"West Virginia","lat":38.00702,"lng":-80.48972,"zip":"24991","miles_from_dt":24.46},{"city":"Pembroke","state_name":"Virginia","lat":37.31927,"lng":-80.60686,"zip":"24136","miles_from_dt":24.7},{"city":"Spring Dale","state_name":"West Virginia","lat":37.89395,"lng":-80.81741,"zip":"25986","miles_from_dt":26.18},{"city":"Meadow Bridge","state_name":"West Virginia","lat":37.84372,"lng":-80.86221,"zip":"25976","miles_from_dt":26.24},{"city":"Rupert","state_name":"West Virginia","lat":38.01409,"lng":-80.6026,"zip":"25984","miles_from_dt":26.26},{"city":"Renick","state_name":"West Virginia","lat":38.03345,"lng":-80.35283,"zip":"24966","miles_from_dt":26.67},{"city":"Nimitz","state_name":"West Virginia","lat":37.62861,"lng":-80.94138,"zip":"25978","miles_from_dt":27.17},{"city":"Rich Creek","state_name":"Virginia","lat":37.40178,"lng":-80.82815,"zip":"24147","miles_from_dt":27.22},{"city":"McCoy","state_name":"Virginia","lat":37.25889,"lng":-80.42978,"zip":"24111","miles_from_dt":27.26},{"city":"Meadow Creek","state_name":"West Virginia","lat":37.80819,"lng":-80.90571,"zip":"25977","miles_from_dt":27.29},{"city":"Blacksburg","state_name":"Virginia","lat":37.25772,"lng":-80.41961,"zip":"24060","miles_from_dt":27.37},{"city":"Pipestem","state_name":"West Virginia","lat":37.5126,"lng":-80.91736,"zip":"25979","miles_from_dt":27.6},{"city":"Eggleston","state_name":"Virginia","lat":37.27268,"lng":-80.63585,"zip":"24086","miles_from_dt":28.27},{"city":"Glen Lyn","state_name":"Virginia","lat":37.38784,"lng":-80.85657,"zip":"24093","miles_from_dt":29.04},{"city":"Blacksburg","state_name":"Virginia","lat":37.22884,"lng":-80.41576,"zip":"24063","miles_from_dt":29.37},{"city":"Blacksburg","state_name":"Virginia","lat":37.22844,"lng":-80.41562,"zip":"24062","miles_from_dt":29.4},{"city":"Rainelle","state_name":"West Virginia","lat":37.97044,"lng":-80.8098,"zip":"25962","miles_from_dt":29.51},{"city":"Blacksburg","state_name":"Virginia","lat":37.22539,"lng":-80.42658,"zip":"24061","miles_from_dt":29.58}],"targetCityZipCode":"24974","targetCityState":"West Virginia"},"__N_SSG":true}