{"pageProps":{"stateName":"West-virginia","cityName":"wallback","nearbyCities":[{"city":"Ivydale","state_name":"West Virginia","lat":38.55741,"lng":-81.03338,"zip":"25113","miles_from_dt":4.36},{"city":"Newton","state_name":"West Virginia","lat":38.60224,"lng":-81.1589,"zip":"25266","miles_from_dt":4.54},{"city":"Maysel","state_name":"West Virginia","lat":38.47976,"lng":-81.11831,"zip":"25133","miles_from_dt":4.66},{"city":"Procious","state_name":"West Virginia","lat":38.50406,"lng":-81.19373,"zip":"25164","miles_from_dt":5.3},{"city":"Nebo","state_name":"West Virginia","lat":38.6305,"lng":-81.03592,"zip":"25141","miles_from_dt":7.1},{"city":"Left Hand","state_name":"West Virginia","lat":38.62119,"lng":-81.23173,"zip":"25251","miles_from_dt":8.21},{"city":"Chloe","state_name":"West Virginia","lat":38.66939,"lng":-81.08874,"zip":"25235","miles_from_dt":8.53},{"city":"Amma","state_name":"West Virginia","lat":38.58201,"lng":-81.26982,"zip":"25005","miles_from_dt":8.83},{"city":"Bomont","state_name":"West Virginia","lat":38.45028,"lng":-81.22599,"zip":"25030","miles_from_dt":9.07},{"city":"Clay","state_name":"West Virginia","lat":38.44092,"lng":-80.98981,"zip":"25043","miles_from_dt":9.91},{"city":"Duck","state_name":"West Virginia","lat":38.57761,"lng":-80.92572,"zip":"25063","miles_from_dt":10.35},{"city":"Looneyville","state_name":"West Virginia","lat":38.67465,"lng":-81.24836,"zip":"25259","miles_from_dt":11.45},{"city":"Bickmore","state_name":"West Virginia","lat":38.37663,"lng":-81.08955,"zip":"25019","miles_from_dt":11.84},{"city":"Glen","state_name":"West Virginia","lat":38.37963,"lng":-81.21551,"zip":"25088","miles_from_dt":12.83},{"city":"Clendenin","state_name":"West Virginia","lat":38.45603,"lng":-81.32474,"zip":"25045","miles_from_dt":13.09},{"city":"Orma","state_name":"West Virginia","lat":38.73969,"lng":-81.107,"zip":"25268","miles_from_dt":13.28},{"city":"Indore","state_name":"West Virginia","lat":38.34841,"lng":-81.12591,"zip":"25111","miles_from_dt":13.73},{"city":"Widen","state_name":"West Virginia","lat":38.46107,"lng":-80.87932,"zip":"25211","miles_from_dt":13.99},{"city":"Frametown","state_name":"West Virginia","lat":38.6576,"lng":-80.87714,"zip":"26623","miles_from_dt":14.86},{"city":"Rosedale","state_name":"West Virginia","lat":38.73386,"lng":-80.96599,"zip":"26636","miles_from_dt":15.13},{"city":"Falling Rock","state_name":"West Virginia","lat":38.47512,"lng":-81.38895,"zip":"25079","miles_from_dt":15.77},{"city":"Dille","state_name":"West Virginia","lat":38.4828,"lng":-80.82572,"zip":"26617","miles_from_dt":16.19},{"city":"Walton","state_name":"West Virginia","lat":38.62098,"lng":-81.39728,"zip":"25286","miles_from_dt":16.22},{"city":"Lizemores","state_name":"West Virginia","lat":38.31554,"lng":-81.19074,"zip":"25125","miles_from_dt":16.53},{"city":"Shock","state_name":"West Virginia","lat":38.77265,"lng":-80.99878,"zip":"26638","miles_from_dt":16.73},{"city":"Arnoldsburg","state_name":"West Virginia","lat":38.81291,"lng":-81.12343,"zip":"25234","miles_from_dt":18.33},{"city":"Gilboa","state_name":"West Virginia","lat":38.31978,"lng":-80.90929,"zip":"26671","miles_from_dt":19.19},{"city":"Pond Gap","state_name":"West Virginia","lat":38.29884,"lng":-81.27314,"zip":"25160","miles_from_dt":19.21},{"city":"Millstone","state_name":"West Virginia","lat":38.83027,"lng":-81.08886,"zip":"25261","miles_from_dt":19.57},{"city":"Elkview","state_name":"West Virginia","lat":38.47732,"lng":-81.46756,"zip":"25071","miles_from_dt":19.82},{"city":"Blue Creek","state_name":"West Virginia","lat":38.43937,"lng":-81.46029,"zip":"25026","miles_from_dt":20.25},{"city":"Summersville","state_name":"West Virginia","lat":38.3185,"lng":-80.87902,"zip":"26651","miles_from_dt":20.25},{"city":"Gassaway","state_name":"West Virginia","lat":38.72071,"lng":-80.80883,"zip":"26624","miles_from_dt":20.34},{"city":"Spencer","state_name":"West Virginia","lat":38.78803,"lng":-81.33203,"zip":"25276","miles_from_dt":20.4},{"city":"Dixie","state_name":"West Virginia","lat":38.25422,"lng":-81.2153,"zip":"25059","miles_from_dt":20.96},{"city":"Mammoth","state_name":"West Virginia","lat":38.29328,"lng":-81.33441,"zip":"25132","miles_from_dt":21.24},{"city":"Belva","state_name":"West Virginia","lat":38.24358,"lng":-81.18082,"zip":"26656","miles_from_dt":21.27},{"city":"Birch River","state_name":"West Virginia","lat":38.47769,"lng":-80.71887,"zip":"26610","miles_from_dt":21.89},{"city":"Gandeeville","state_name":"West Virginia","lat":38.67841,"lng":-81.48216,"zip":"25243","miles_from_dt":21.94},{"city":"Pinch","state_name":"West Virginia","lat":38.41181,"lng":-81.48217,"zip":"25156","miles_from_dt":22.09},{"city":"Drennen","state_name":"West Virginia","lat":38.2384,"lng":-80.99908,"zip":"26667","miles_from_dt":22.18},{"city":"Little Birch","state_name":"West Virginia","lat":38.56846,"lng":-80.70152,"zip":"26629","miles_from_dt":22.33},{"city":"Swiss","state_name":"West Virginia","lat":38.21757,"lng":-81.12069,"zip":"26690","miles_from_dt":22.74},{"city":"Normantown","state_name":"West Virginia","lat":38.85778,"lng":-80.94187,"zip":"25267","miles_from_dt":23.33},{"city":"Mount Olive","state_name":"West Virginia","lat":38.22149,"lng":-81.23587,"zip":"25185","miles_from_dt":23.44},{"city":"Blount","state_name":"West Virginia","lat":38.29378,"lng":-81.4018,"zip":"25025","miles_from_dt":23.48},{"city":"Keslers Cross Lanes","state_name":"West Virginia","lat":38.2347,"lng":-80.93623,"zip":"26675","miles_from_dt":23.59},{"city":"Mount Zion","state_name":"West Virginia","lat":38.89493,"lng":-81.17503,"zip":"26151","miles_from_dt":24.22},{"city":"Tad","state_name":"West Virginia","lat":38.3489,"lng":-81.48645,"zip":"25201","miles_from_dt":24.45},{"city":"Cedar Grove","state_name":"West Virginia","lat":38.24642,"lng":-81.36524,"zip":"25039","miles_from_dt":24.86},{"city":"Grantsville","state_name":"West Virginia","lat":38.91368,"lng":-81.07629,"zip":"26147","miles_from_dt":25.35},{"city":"Sutton","state_name":"West Virginia","lat":38.63307,"lng":-80.6567,"zip":"26601","miles_from_dt":25.4},{"city":"Cedarville","state_name":"West Virginia","lat":38.84639,"lng":-80.83339,"zip":"26611","miles_from_dt":25.58},{"city":"Exchange","state_name":"West Virginia","lat":38.77542,"lng":-80.73562,"zip":"26619","miles_from_dt":25.77},{"city":"Hugheston","state_name":"West Virginia","lat":38.21324,"lng":-81.3264,"zip":"25110","miles_from_dt":25.79},{"city":"Cannelton","state_name":"West Virginia","lat":38.19168,"lng":-81.26438,"zip":"25036","miles_from_dt":25.87},{"city":"Calvin","state_name":"West Virginia","lat":38.35513,"lng":-80.70061,"zip":"26660","miles_from_dt":25.99},{"city":"Tioga","state_name":"West Virginia","lat":38.39785,"lng":-80.67213,"zip":"26691","miles_from_dt":26.03},{"city":"Advent","state_name":"West Virginia","lat":38.60464,"lng":-81.591,"zip":"25231","miles_from_dt":26.19},{"city":"Charleston","state_name":"West Virginia","lat":38.31071,"lng":-81.49087,"zip":"25306","miles_from_dt":26.21},{"city":"Gauley Bridge","state_name":"West Virginia","lat":38.16762,"lng":-81.18867,"zip":"25085","miles_from_dt":26.5},{"city":"Charleston","state_name":"West Virginia","lat":38.36396,"lng":-81.55201,"zip":"25361","miles_from_dt":26.96},{"city":"Victor","state_name":"West Virginia","lat":38.15993,"lng":-81.03447,"zip":"25938","miles_from_dt":27.05},{"city":"Charleston","state_name":"West Virginia","lat":38.36308,"lng":-81.55357,"zip":"25311","miles_from_dt":27.07},{"city":"Canvas","state_name":"West Virginia","lat":38.25813,"lng":-80.7695,"zip":"26662","miles_from_dt":27.3},{"city":"Creston","state_name":"West Virginia","lat":38.92925,"lng":-81.26059,"zip":"26141","miles_from_dt":27.53},{"city":"Glen Ferris","state_name":"West Virginia","lat":38.15544,"lng":-81.21655,"zip":"25090","miles_from_dt":27.6},{"city":"Pratt","state_name":"West Virginia","lat":38.20712,"lng":-81.38435,"zip":"25162","miles_from_dt":27.7},{"city":"Charleston","state_name":"West Virginia","lat":38.39695,"lng":-81.58675,"zip":"25362","miles_from_dt":27.71},{"city":"Erbacon","state_name":"West Virginia","lat":38.53136,"lng":-80.60149,"zip":"26203","miles_from_dt":27.73},{"city":"Smithers","state_name":"West Virginia","lat":38.17113,"lng":-81.29811,"zip":"25186","miles_from_dt":27.82},{"city":"Charleston","state_name":"West Virginia","lat":38.54124,"lng":-81.62706,"zip":"25320","miles_from_dt":27.86},{"city":"London","state_name":"West Virginia","lat":38.19058,"lng":-81.35382,"zip":"25126","miles_from_dt":27.86},{"city":"Gay","state_name":"West Virginia","lat":38.77068,"lng":-81.54237,"zip":"25244","miles_from_dt":27.88},{"city":"Kenna","state_name":"West Virginia","lat":38.64255,"lng":-81.61454,"zip":"25248","miles_from_dt":27.94},{"city":"Charleston","state_name":"West Virginia","lat":38.36006,"lng":-81.57073,"zip":"25317","miles_from_dt":27.99},{"city":"Ansted","state_name":"West Virginia","lat":38.14048,"lng":-81.11512,"zip":"25812","miles_from_dt":28.06},{"city":"Glasgow","state_name":"West Virginia","lat":38.21326,"lng":-81.41238,"zip":"25086","miles_from_dt":28.2},{"city":"Mount Lookout","state_name":"West Virginia","lat":38.16883,"lng":-80.91085,"zip":"26678","miles_from_dt":28.31},{"city":"Charleston","state_name":"West Virginia","lat":38.39053,"lng":-81.59879,"zip":"25302","miles_from_dt":28.48},{"city":"Copen","state_name":"West Virginia","lat":38.83242,"lng":-80.73136,"zip":"26615","miles_from_dt":28.5},{"city":"Big Bend","state_name":"West Virginia","lat":38.96553,"lng":-81.11478,"zip":"26136","miles_from_dt":28.85},{"city":"Reedy","state_name":"West Virginia","lat":38.88174,"lng":-81.43395,"zip":"25270","miles_from_dt":28.87},{"city":"Kanawha Falls","state_name":"West Virginia","lat":38.13065,"lng":-81.18997,"zip":"25115","miles_from_dt":29.04},{"city":"Montgomery","state_name":"West Virginia","lat":38.15864,"lng":-81.31977,"zip":"25136","miles_from_dt":29.06},{"city":"Boomer","state_name":"West Virginia","lat":38.14615,"lng":-81.2801,"zip":"25031","miles_from_dt":29.12},{"city":"Hansford","state_name":"West Virginia","lat":38.18207,"lng":-81.38225,"zip":"25103","miles_from_dt":29.13},{"city":"Charlton Heights","state_name":"West Virginia","lat":38.13673,"lng":-81.24385,"zip":"25040","miles_from_dt":29.19},{"city":"Handley","state_name":"West Virginia","lat":38.16735,"lng":-81.35192,"zip":"25102","miles_from_dt":29.24},{"city":"East Bank","state_name":"West Virginia","lat":38.20963,"lng":-81.44018,"zip":"25067","miles_from_dt":29.29},{"city":"Belle","state_name":"West Virginia","lat":38.24293,"lng":-81.49226,"zip":"25015","miles_from_dt":29.4},{"city":"Craigsville","state_name":"West Virginia","lat":38.32078,"lng":-80.64828,"zip":"26205","miles_from_dt":29.65},{"city":"Alloy","state_name":"West Virginia","lat":38.13087,"lng":-81.25466,"zip":"25002","miles_from_dt":29.73},{"city":"Pool","state_name":"West Virginia","lat":38.16324,"lng":-80.8544,"zip":"26684","miles_from_dt":29.98},{"city":"Hico","state_name":"West Virginia","lat":38.12629,"lng":-80.97537,"zip":"25854","miles_from_dt":29.98}],"targetCityZipCode":"25285","targetCityState":"West Virginia"},"__N_SSG":true}