{"pageProps":{"stateName":"West-virginia","cityName":"williamsburg","nearbyCities":[{"city":"Rupert","state_name":"West Virginia","lat":38.01409,"lng":-80.6026,"zip":"25984","miles_from_dt":6.18},{"city":"Renick","state_name":"West Virginia","lat":38.03345,"lng":-80.35283,"zip":"24966","miles_from_dt":7.69},{"city":"Frankford","state_name":"West Virginia","lat":37.92516,"lng":-80.38083,"zip":"24938","miles_from_dt":8.2},{"city":"Crawley","state_name":"West Virginia","lat":37.91471,"lng":-80.59355,"zip":"24931","miles_from_dt":8.53},{"city":"Maxwelton","state_name":"West Virginia","lat":37.88729,"lng":-80.40827,"zip":"24957","miles_from_dt":9.38},{"city":"Lewisburg","state_name":"West Virginia","lat":37.85298,"lng":-80.47598,"zip":"24901","miles_from_dt":10.65},{"city":"Smoot","state_name":"West Virginia","lat":37.90823,"lng":-80.67527,"zip":"24977","miles_from_dt":12.21},{"city":"Richwood","state_name":"West Virginia","lat":38.18881,"lng":-80.50454,"zip":"26261","miles_from_dt":12.56},{"city":"Quinwood","state_name":"West Virginia","lat":38.08321,"lng":-80.70274,"zip":"25981","miles_from_dt":12.75},{"city":"Leslie","state_name":"West Virginia","lat":38.03576,"lng":-80.7222,"zip":"25972","miles_from_dt":12.84},{"city":"Asbury","state_name":"West Virginia","lat":37.82735,"lng":-80.57735,"zip":"24916","miles_from_dt":13.28},{"city":"Leivasy","state_name":"West Virginia","lat":38.16173,"lng":-80.65944,"zip":"26676","miles_from_dt":14.12},{"city":"Charmco","state_name":"West Virginia","lat":38.02156,"lng":-80.76077,"zip":"25958","miles_from_dt":14.82},{"city":"Fairlea","state_name":"West Virginia","lat":37.77799,"lng":-80.45392,"zip":"24902","miles_from_dt":15.92},{"city":"Fenwick","state_name":"West Virginia","lat":38.22657,"lng":-80.62639,"zip":"26202","miles_from_dt":16.87},{"city":"Hillsboro","state_name":"West Virginia","lat":38.17891,"lng":-80.2671,"zip":"24946","miles_from_dt":16.96},{"city":"White Sulphur Springs","state_name":"West Virginia","lat":37.91189,"lng":-80.19455,"zip":"24986","miles_from_dt":17.4},{"city":"Grassy Meadows","state_name":"West Virginia","lat":37.83632,"lng":-80.72709,"zip":"24943","miles_from_dt":17.52},{"city":"Rainelle","state_name":"West Virginia","lat":37.97044,"lng":-80.8098,"zip":"25962","miles_from_dt":17.65},{"city":"Ronceverte","state_name":"West Virginia","lat":37.73238,"lng":-80.47574,"zip":"24970","miles_from_dt":18.96},{"city":"Spring Dale","state_name":"West Virginia","lat":37.89395,"lng":-80.81741,"zip":"25986","miles_from_dt":19.52},{"city":"Nettie","state_name":"West Virginia","lat":38.22983,"lng":-80.71905,"zip":"26681","miles_from_dt":19.81},{"city":"Mount Nebo","state_name":"West Virginia","lat":38.16509,"lng":-80.7971,"zip":"26679","miles_from_dt":19.99},{"city":"Caldwell","state_name":"West Virginia","lat":37.72919,"lng":-80.38348,"zip":"24925","miles_from_dt":20.02},{"city":"Alderson","state_name":"West Virginia","lat":37.74173,"lng":-80.66835,"zip":"24910","miles_from_dt":20.74},{"city":"Green Sulphur Springs","state_name":"West Virginia","lat":37.7975,"lng":-80.76729,"zip":"25966","miles_from_dt":20.95},{"city":"Nallen","state_name":"West Virginia","lat":38.08991,"lng":-80.87423,"zip":"26680","miles_from_dt":21.74},{"city":"Buckeye","state_name":"West Virginia","lat":38.19294,"lng":-80.15174,"zip":"24924","miles_from_dt":22.44},{"city":"Pool","state_name":"West Virginia","lat":38.16324,"lng":-80.8544,"zip":"26684","miles_from_dt":22.61},{"city":"Canvas","state_name":"West Virginia","lat":38.25813,"lng":-80.7695,"zip":"26662","miles_from_dt":23.07},{"city":"Meadow Bridge","state_name":"West Virginia","lat":37.84372,"lng":-80.86221,"zip":"25976","miles_from_dt":23.26},{"city":"Craigsville","state_name":"West Virginia","lat":38.32078,"lng":-80.64828,"zip":"26205","miles_from_dt":23.3},{"city":"Sinks Grove","state_name":"West Virginia","lat":37.66513,"lng":-80.52273,"zip":"24976","miles_from_dt":23.65},{"city":"Camden On Gauley","state_name":"West Virginia","lat":38.34781,"lng":-80.57314,"zip":"26208","miles_from_dt":23.94},{"city":"Secondcreek","state_name":"West Virginia","lat":37.65395,"lng":-80.44693,"zip":"24974","miles_from_dt":24.46},{"city":"Danese","state_name":"West Virginia","lat":37.95645,"lng":-80.94037,"zip":"25831","miles_from_dt":24.85},{"city":"Cowen","state_name":"West Virginia","lat":38.36992,"lng":-80.47848,"zip":"26206","miles_from_dt":25.04},{"city":"Wolfcreek","state_name":"West Virginia","lat":37.66095,"lng":-80.63512,"zip":"24993","miles_from_dt":25.16},{"city":"Sandstone","state_name":"West Virginia","lat":37.75752,"lng":-80.83044,"zip":"25985","miles_from_dt":25.36},{"city":"Mount Lookout","state_name":"West Virginia","lat":38.16883,"lng":-80.91085,"zip":"26678","miles_from_dt":25.53},{"city":"Lookout","state_name":"West Virginia","lat":38.07172,"lng":-80.96461,"zip":"25868","miles_from_dt":26.29},{"city":"Meadow Creek","state_name":"West Virginia","lat":37.80819,"lng":-80.90571,"zip":"25977","miles_from_dt":26.55},{"city":"Calvin","state_name":"West Virginia","lat":38.35513,"lng":-80.70061,"zip":"26660","miles_from_dt":26.61},{"city":"Pence Springs","state_name":"West Virginia","lat":37.66029,"lng":-80.72041,"zip":"24962","miles_from_dt":27.04},{"city":"Winona","state_name":"West Virginia","lat":38.02691,"lng":-80.98836,"zip":"25942","miles_from_dt":27.24},{"city":"Marlinton","state_name":"West Virginia","lat":38.22932,"lng":-80.07436,"zip":"24954","miles_from_dt":27.34},{"city":"Hico","state_name":"West Virginia","lat":38.12629,"lng":-80.97537,"zip":"25854","miles_from_dt":27.73},{"city":"Covington","state_name":"Virginia","lat":37.76589,"lng":-80.06927,"zip":"24426","miles_from_dt":28.37},{"city":"Union","state_name":"West Virginia","lat":37.59165,"lng":-80.51672,"zip":"24983","miles_from_dt":28.69},{"city":"Tioga","state_name":"West Virginia","lat":38.39785,"lng":-80.67213,"zip":"26691","miles_from_dt":28.73},{"city":"Keslers Cross Lanes","state_name":"West Virginia","lat":38.2347,"lng":-80.93623,"zip":"26675","miles_from_dt":28.96},{"city":"Talcott","state_name":"West Virginia","lat":37.63256,"lng":-80.73968,"zip":"24981","miles_from_dt":29.22},{"city":"Upperglade","state_name":"West Virginia","lat":38.43411,"lng":-80.50219,"zip":"26266","miles_from_dt":29.47},{"city":"Gap Mills","state_name":"West Virginia","lat":37.58824,"lng":-80.3577,"zip":"24941","miles_from_dt":29.77}],"targetCityZipCode":"24991","targetCityState":"West Virginia"},"__N_SSG":true}