{"pageProps":{"stateName":"Nevada","cityName":"indian-springs","nearbyCities":[{"city":"Indian Springs","state_name":"Nevada","lat":36.50083,"lng":-115.63952,"zip":"89070","miles_from_dt":5.07},{"city":"Las Vegas","state_name":"Nevada","lat":36.34074,"lng":-115.60096,"zip":"89124","miles_from_dt":16.29},{"city":"Mercury","state_name":"Nevada","lat":36.66143,"lng":-115.99973,"zip":"89023","miles_from_dt":19.47},{"city":"Las Vegas","state_name":"Nevada","lat":36.33733,"lng":-115.4686,"zip":"89166","miles_from_dt":19.55},{"city":"Pahrump","state_name":"Nevada","lat":36.38854,"lng":-116.05769,"zip":"89060","miles_from_dt":25.07},{"city":"Las Vegas","state_name":"Nevada","lat":36.32168,"lng":-115.29288,"zip":"89143","miles_from_dt":27.04},{"city":"Pahrump","state_name":"Nevada","lat":36.25902,"lng":-116.01864,"zip":"89041","miles_from_dt":29.04},{"city":"Las Vegas","state_name":"Nevada","lat":36.2708,"lng":-115.29462,"zip":"89149","miles_from_dt":29.33},{"city":"Las Vegas","state_name":"Nevada","lat":36.3064,"lng":-115.24256,"zip":"89131","miles_from_dt":29.9}],"targetCityZipCode":"89018","targetCityState":"Nevada"},"__N_SSG":true}