{"pageProps":{"stateName":"Nevada","cityName":"north-las-vegas","nearbyCities":[{"city":"North Las Vegas","state_name":"Nevada","lat":36.196,"lng":-115.124,"zip":"89087","miles_from_dt":1.13},{"city":"Las Vegas","state_name":"Nevada","lat":36.17279,"lng":-115.12234,"zip":"89101","miles_from_dt":2.73},{"city":"The Lakes","state_name":"Nevada","lat":36.17464,"lng":-115.13838,"zip":"89163","miles_from_dt":2.74},{"city":"Las Vegas","state_name":"Nevada","lat":36.17221,"lng":-115.12027,"zip":"89155","miles_from_dt":2.77},{"city":"Las Vegas","state_name":"Nevada","lat":36.17125,"lng":-115.12427,"zip":"89125","miles_from_dt":2.83},{"city":"North Las Vegas","state_name":"Nevada","lat":36.22239,"lng":-115.17358,"zip":"89032","miles_from_dt":2.9},{"city":"Las Vegas","state_name":"Nevada","lat":36.18512,"lng":-115.1628,"zip":"89127","miles_from_dt":2.91},{"city":"Las Vegas","state_name":"Nevada","lat":36.17191,"lng":-115.13997,"zip":"89140","miles_from_dt":2.94},{"city":"Las Vegas","state_name":"Nevada","lat":36.17191,"lng":-115.13997,"zip":"89105","miles_from_dt":2.94},{"city":"Las Vegas","state_name":"Nevada","lat":36.18207,"lng":-115.16253,"zip":"89106","miles_from_dt":3.03},{"city":"North Las Vegas","state_name":"Nevada","lat":36.2586,"lng":-115.10703,"zip":"89081","miles_from_dt":3.31},{"city":"Las Vegas","state_name":"Nevada","lat":36.15268,"lng":-115.11361,"zip":"89116","miles_from_dt":4.15},{"city":"North Las Vegas","state_name":"Nevada","lat":36.25846,"lng":-115.17075,"zip":"89031","miles_from_dt":4.15},{"city":"Las Vegas","state_name":"Nevada","lat":36.15256,"lng":-115.10724,"zip":"89180","miles_from_dt":4.22},{"city":"Las Vegas","state_name":"Nevada","lat":36.15086,"lng":-115.11314,"zip":"89185","miles_from_dt":4.28},{"city":"Las Vegas","state_name":"Nevada","lat":36.15118,"lng":-115.10932,"zip":"89104","miles_from_dt":4.29},{"city":"Las Vegas","state_name":"Nevada","lat":36.15121,"lng":-115.10821,"zip":"89199","miles_from_dt":4.3},{"city":"Las Vegas","state_name":"Nevada","lat":36.15126,"lng":-115.15397,"zip":"89114","miles_from_dt":4.55},{"city":"Las Vegas","state_name":"Nevada","lat":36.17367,"lng":-115.05549,"zip":"89110","miles_from_dt":4.63},{"city":"North Las Vegas","state_name":"Nevada","lat":36.28361,"lng":-115.10997,"zip":"89086","miles_from_dt":4.97},{"city":"Las Vegas","state_name":"Nevada","lat":36.25374,"lng":-115.04285,"zip":"89115","miles_from_dt":5.32},{"city":"Las Vegas","state_name":"Nevada","lat":36.17049,"lng":-115.209,"zip":"89107","miles_from_dt":5.6},{"city":"Las Vegas","state_name":"Nevada","lat":36.17071,"lng":-115.20947,"zip":"89152","miles_from_dt":5.61},{"city":"Las Vegas","state_name":"Nevada","lat":36.20508,"lng":-115.2237,"zip":"89108","miles_from_dt":5.64},{"city":"Las Vegas","state_name":"Nevada","lat":36.20533,"lng":-115.22375,"zip":"89195","miles_from_dt":5.64},{"city":"Las Vegas","state_name":"Nevada","lat":36.16229,"lng":-115.20351,"zip":"89153","miles_from_dt":5.67},{"city":"Las Vegas","state_name":"Nevada","lat":36.1453,"lng":-115.18662,"zip":"89102","miles_from_dt":5.83},{"city":"Las Vegas","state_name":"Nevada","lat":36.137,"lng":-115.064,"zip":"89162","miles_from_dt":6.16},{"city":"North Las Vegas","state_name":"Nevada","lat":36.30075,"lng":-115.13991,"zip":"89033","miles_from_dt":6.17},{"city":"North Las Vegas","state_name":"Nevada","lat":36.29749,"lng":-115.1569,"zip":"89084","miles_from_dt":6.17},{"city":"Las Vegas","state_name":"Nevada","lat":36.12405,"lng":-115.14184,"zip":"89169","miles_from_dt":6.18},{"city":"Las Vegas","state_name":"Nevada","lat":36.14685,"lng":-115.20296,"zip":"89126","miles_from_dt":6.35},{"city":"Las Vegas","state_name":"Nevada","lat":36.12603,"lng":-115.16327,"zip":"89109","miles_from_dt":6.36},{"city":"Las Vegas","state_name":"Nevada","lat":36.12312,"lng":-115.0889,"zip":"89160","miles_from_dt":6.44},{"city":"Las Vegas","state_name":"Nevada","lat":36.25348,"lng":-115.22671,"zip":"89130","miles_from_dt":6.44},{"city":"Las Vegas","state_name":"Nevada","lat":36.12141,"lng":-115.09135,"zip":"89121","miles_from_dt":6.52},{"city":"Las Vegas","state_name":"Nevada","lat":36.14812,"lng":-115.031,"zip":"89142","miles_from_dt":6.79},{"city":"Nellis Afb","state_name":"Nevada","lat":36.2473,"lng":-115.00407,"zip":"89191","miles_from_dt":7.07},{"city":"Las Vegas","state_name":"Nevada","lat":36.20526,"lng":-115.25087,"zip":"89133","miles_from_dt":7.15},{"city":"Las Vegas","state_name":"Nevada","lat":36.14567,"lng":-115.22773,"zip":"89151","miles_from_dt":7.44},{"city":"Las Vegas","state_name":"Nevada","lat":36.14323,"lng":-115.22679,"zip":"89146","miles_from_dt":7.5},{"city":"Las Vegas","state_name":"Nevada","lat":36.12738,"lng":-115.21621,"zip":"89150","miles_from_dt":7.84},{"city":"North Las Vegas","state_name":"Nevada","lat":36.30955,"lng":-115.19817,"zip":"89085","miles_from_dt":7.9},{"city":"Las Vegas","state_name":"Nevada","lat":36.19678,"lng":-115.26439,"zip":"89128","miles_from_dt":7.97},{"city":"Las Vegas","state_name":"Nevada","lat":36.10481,"lng":-115.17665,"zip":"89158","miles_from_dt":8},{"city":"Las Vegas","state_name":"Nevada","lat":36.312,"lng":-115.034,"zip":"89165","miles_from_dt":8.48},{"city":"Las Vegas","state_name":"Nevada","lat":36.11236,"lng":-115.21215,"zip":"89103","miles_from_dt":8.5},{"city":"Las Vegas","state_name":"Nevada","lat":36.0894,"lng":-115.14812,"zip":"89111","miles_from_dt":8.59},{"city":"Las Vegas","state_name":"Nevada","lat":36.15906,"lng":-114.98176,"zip":"89156","miles_from_dt":8.71},{"city":"Las Vegas","state_name":"Nevada","lat":36.116,"lng":-115.225,"zip":"89173","miles_from_dt":8.75},{"city":"Las Vegas","state_name":"Nevada","lat":36.08654,"lng":-115.14608,"zip":"89154","miles_from_dt":8.77},{"city":"Las Vegas","state_name":"Nevada","lat":36.08585,"lng":-115.1466,"zip":"89170","miles_from_dt":8.82},{"city":"Las Vegas","state_name":"Nevada","lat":36.08584,"lng":-115.14847,"zip":"89132","miles_from_dt":8.84},{"city":"Las Vegas","state_name":"Nevada","lat":36.10399,"lng":-115.03783,"zip":"89122","miles_from_dt":8.86},{"city":"Las Vegas","state_name":"Nevada","lat":36.08452,"lng":-115.14606,"zip":"89119","miles_from_dt":8.91},{"city":"Las Vegas","state_name":"Nevada","lat":36.08386,"lng":-115.14567,"zip":"89193","miles_from_dt":8.95},{"city":"Las Vegas","state_name":"Nevada","lat":36.08366,"lng":-115.14831,"zip":"89177","miles_from_dt":8.98},{"city":"Las Vegas","state_name":"Nevada","lat":36.11558,"lng":-115.01511,"zip":"89112","miles_from_dt":9},{"city":"Las Vegas","state_name":"Nevada","lat":36.16748,"lng":-115.27618,"zip":"89145","miles_from_dt":9.1},{"city":"Las Vegas","state_name":"Nevada","lat":36.08065,"lng":-115.09585,"zip":"89120","miles_from_dt":9.21},{"city":"Las Vegas","state_name":"Nevada","lat":36.3064,"lng":-115.24256,"zip":"89131","miles_from_dt":9.3},{"city":"Las Vegas","state_name":"Nevada","lat":36.23325,"lng":-115.29025,"zip":"89129","miles_from_dt":9.45},{"city":"Las Vegas","state_name":"Nevada","lat":36.072,"lng":-115.141,"zip":"89157","miles_from_dt":9.73},{"city":"Las Vegas","state_name":"Nevada","lat":36.071,"lng":-115.149,"zip":"89136","miles_from_dt":9.85},{"city":"Las Vegas","state_name":"Nevada","lat":36.06973,"lng":-115.14324,"zip":"89159","miles_from_dt":9.9},{"city":"The Lakes","state_name":"Nevada","lat":36.14348,"lng":-115.27937,"zip":"88905","miles_from_dt":9.94},{"city":"Las Vegas","state_name":"Nevada","lat":36.14267,"lng":-115.28001,"zip":"89117","miles_from_dt":10},{"city":"The Lakes","state_name":"Nevada","lat":36.1453,"lng":-115.2829,"zip":"88901","miles_from_dt":10.06},{"city":"Las Vegas","state_name":"Nevada","lat":36.20262,"lng":-115.3078,"zip":"89134","miles_from_dt":10.34},{"city":"Las Vegas","state_name":"Nevada","lat":36.2708,"lng":-115.29462,"zip":"89149","miles_from_dt":10.39},{"city":"Las Vegas","state_name":"Nevada","lat":36.12767,"lng":-115.27748,"zip":"89164","miles_from_dt":10.42},{"city":"Las Vegas","state_name":"Nevada","lat":36.07778,"lng":-115.21306,"zip":"89118","miles_from_dt":10.55},{"city":"Las Vegas","state_name":"Nevada","lat":36.19086,"lng":-115.31132,"zip":"89137","miles_from_dt":10.62},{"city":"Henderson","state_name":"Nevada","lat":36.06153,"lng":-115.0577,"zip":"89014","miles_from_dt":11.02},{"city":"Las Vegas","state_name":"Nevada","lat":36.11289,"lng":-115.27985,"zip":"89147","miles_from_dt":11.13},{"city":"Las Vegas","state_name":"Nevada","lat":36.17746,"lng":-115.31943,"zip":"89144","miles_from_dt":11.23},{"city":"Las Vegas","state_name":"Nevada","lat":36.32168,"lng":-115.29288,"zip":"89143","miles_from_dt":12.11},{"city":"Las Vegas","state_name":"Nevada","lat":36.0352,"lng":-115.14908,"zip":"89123","miles_from_dt":12.3},{"city":"Henderson","state_name":"Nevada","lat":36.03639,"lng":-115.08113,"zip":"89074","miles_from_dt":12.36},{"city":"Henderson","state_name":"Nevada","lat":36.0848,"lng":-114.9651,"zip":"89011","miles_from_dt":12.47},{"city":"Henderson","state_name":"Nevada","lat":36.09311,"lng":-114.94354,"zip":"89016","miles_from_dt":12.98},{"city":"Las Vegas","state_name":"Nevada","lat":36.06017,"lng":-115.26236,"zip":"89113","miles_from_dt":13.07},{"city":"Las Vegas","state_name":"Nevada","lat":36.03429,"lng":-115.21117,"zip":"89139","miles_from_dt":13.23},{"city":"Las Vegas","state_name":"Nevada","lat":36.20212,"lng":-115.36499,"zip":"89138","miles_from_dt":13.53},{"city":"Henderson","state_name":"Nevada","lat":36.05732,"lng":-114.96126,"zip":"89009","miles_from_dt":14.01},{"city":"Las Vegas","state_name":"Nevada","lat":36.06337,"lng":-115.29676,"zip":"89148","miles_from_dt":14.14},{"city":"Henderson","state_name":"Nevada","lat":36.01192,"lng":-115.04314,"zip":"89012","miles_from_dt":14.53},{"city":"Henderson","state_name":"Nevada","lat":36.035,"lng":-114.976,"zip":"89077","miles_from_dt":14.74},{"city":"Las Vegas","state_name":"Nevada","lat":35.99619,"lng":-115.15799,"zip":"89183","miles_from_dt":15.03},{"city":"Henderson","state_name":"Nevada","lat":35.97988,"lng":-115.10788,"zip":"89052","miles_from_dt":16.05},{"city":"Las Vegas","state_name":"Nevada","lat":36.09531,"lng":-115.37163,"zip":"89135","miles_from_dt":16.07},{"city":"Las Vegas","state_name":"Nevada","lat":35.98813,"lng":-115.2074,"zip":"89141","miles_from_dt":16.16},{"city":"Henderson","state_name":"Nevada","lat":36.03887,"lng":-114.9282,"zip":"89015","miles_from_dt":16.19},{"city":"Henderson","state_name":"Nevada","lat":35.98016,"lng":-115.05903,"zip":"89053","miles_from_dt":16.41},{"city":"North Las Vegas","state_name":"Nevada","lat":36.3696,"lng":-114.88421,"zip":"89036","miles_from_dt":17.19},{"city":"Henderson","state_name":"Nevada","lat":35.99846,"lng":-114.96181,"zip":"89002","miles_from_dt":17.29},{"city":"Las Vegas","state_name":"Nevada","lat":35.98783,"lng":-115.29541,"zip":"89178","miles_from_dt":18.24},{"city":"Henderson","state_name":"Nevada","lat":35.93986,"lng":-115.05632,"zip":"89044","miles_from_dt":19.16},{"city":"Blue Diamond","state_name":"Nevada","lat":36.04164,"lng":-115.41261,"zip":"89004","miles_from_dt":20.02},{"city":"Sloan","state_name":"Nevada","lat":35.92093,"lng":-115.19055,"zip":"89054","miles_from_dt":20.44},{"city":"Boulder City","state_name":"Nevada","lat":36.00875,"lng":-114.84805,"zip":"89005","miles_from_dt":20.83},{"city":"Las Vegas","state_name":"Nevada","lat":36.33733,"lng":-115.4686,"zip":"89166","miles_from_dt":21.13},{"city":"Boulder City","state_name":"Nevada","lat":35.96522,"lng":-114.83655,"zip":"89006","miles_from_dt":23.4},{"city":"Las Vegas","state_name":"Nevada","lat":36.03552,"lng":-115.48284,"zip":"89161","miles_from_dt":23.53},{"city":"Las Vegas","state_name":"Nevada","lat":35.8916,"lng":-115.32794,"zip":"89179","miles_from_dt":24.91},{"city":"Las Vegas","state_name":"Nevada","lat":36.34074,"lng":-115.60096,"zip":"89124","miles_from_dt":28.11}],"targetCityZipCode":"89030","targetCityState":"Nevada"},"__N_SSG":true}