{"pageProps":{"stateName":"Vermont","cityName":"west-rupert","nearbyCities":[{"city":"Rupert","state_name":"Vermont","lat":43.29846,"lng":-73.22168,"zip":"05768","miles_from_dt":3.8},{"city":"Dorset","state_name":"Vermont","lat":43.26189,"lng":-73.08269,"zip":"05251","miles_from_dt":6.23},{"city":"Salem","state_name":"New York","lat":43.21225,"lng":-73.34191,"zip":"12865","miles_from_dt":7.32},{"city":"Pawlet","state_name":"Vermont","lat":43.34786,"lng":-73.14855,"zip":"05761","miles_from_dt":7.63},{"city":"West Pawlet","state_name":"Vermont","lat":43.35437,"lng":-73.22804,"zip":"05775","miles_from_dt":7.65},{"city":"Arlington","state_name":"Vermont","lat":43.12048,"lng":-73.19337,"zip":"05250","miles_from_dt":8.61},{"city":"Manchester Center","state_name":"Vermont","lat":43.16696,"lng":-73.06685,"zip":"05255","miles_from_dt":8.77},{"city":"Manchester","state_name":"Vermont","lat":43.15937,"lng":-73.06911,"zip":"05254","miles_from_dt":9.01},{"city":"Shushan","state_name":"New York","lat":43.1185,"lng":-73.30682,"zip":"12873","miles_from_dt":10.16},{"city":"Granville","state_name":"New York","lat":43.36813,"lng":-73.31716,"zip":"12832","miles_from_dt":10.24},{"city":"East Dorset","state_name":"Vermont","lat":43.25235,"lng":-72.99913,"zip":"05253","miles_from_dt":10.35},{"city":"Cossayuna","state_name":"New York","lat":43.17945,"lng":-73.40628,"zip":"12823","miles_from_dt":11.17},{"city":"Danby","state_name":"Vermont","lat":43.34488,"lng":-73.0295,"zip":"05739","miles_from_dt":11.18},{"city":"Hartford","state_name":"New York","lat":43.34354,"lng":-73.40756,"zip":"12838","miles_from_dt":12.32},{"city":"Wells","state_name":"Vermont","lat":43.42708,"lng":-73.17435,"zip":"05774","miles_from_dt":12.66},{"city":"Argyle","state_name":"New York","lat":43.24097,"lng":-73.4624,"zip":"12809","miles_from_dt":13.05},{"city":"East Arlington","state_name":"Vermont","lat":43.06642,"lng":-73.06132,"zip":"05252","miles_from_dt":14.28},{"city":"Peru","state_name":"Vermont","lat":43.251,"lng":-72.92008,"zip":"05152","miles_from_dt":14.33},{"city":"Bondville","state_name":"Vermont","lat":43.16215,"lng":-72.93486,"zip":"05340","miles_from_dt":14.74},{"city":"Middle Granville","state_name":"New York","lat":43.44812,"lng":-73.2985,"zip":"12849","miles_from_dt":14.81},{"city":"North Granville","state_name":"New York","lat":43.45019,"lng":-73.32767,"zip":"12854","miles_from_dt":15.48},{"city":"Cambridge","state_name":"New York","lat":43.05085,"lng":-73.37829,"zip":"12816","miles_from_dt":16.04},{"city":"Wallingford","state_name":"Vermont","lat":43.40902,"lng":-72.96858,"zip":"05773","miles_from_dt":16.4},{"city":"Middletown Springs","state_name":"Vermont","lat":43.48279,"lng":-73.12325,"zip":"05757","miles_from_dt":16.92},{"city":"Comstock","state_name":"New York","lat":43.45866,"lng":-73.41332,"zip":"12821","miles_from_dt":18.14},{"city":"Greenwich","state_name":"New York","lat":43.09706,"lng":-73.50423,"zip":"12834","miles_from_dt":18.29},{"city":"Fort Edward","state_name":"New York","lat":43.25534,"lng":-73.56841,"zip":"12828","miles_from_dt":18.41},{"city":"Hampton","state_name":"New York","lat":43.50842,"lng":-73.26651,"zip":"12837","miles_from_dt":18.46},{"city":"Hudson Falls","state_name":"New York","lat":43.34496,"lng":-73.55058,"zip":"12839","miles_from_dt":18.79},{"city":"Shaftsbury","state_name":"Vermont","lat":42.97935,"lng":-73.12066,"zip":"05262","miles_from_dt":18.81},{"city":"Middle Falls","state_name":"New York","lat":43.10241,"lng":-73.52636,"zip":"12848","miles_from_dt":19.03},{"city":"North Bennington","state_name":"Vermont","lat":42.96538,"lng":-73.25156,"zip":"05257","miles_from_dt":19.45},{"city":"East Poultney","state_name":"Vermont","lat":43.5271,"lng":-73.2064,"zip":"05741","miles_from_dt":19.48},{"city":"Poultney","state_name":"Vermont","lat":43.52854,"lng":-73.19401,"zip":"05764","miles_from_dt":19.58},{"city":"Londonderry","state_name":"Vermont","lat":43.24503,"lng":-72.81224,"zip":"05148","miles_from_dt":19.77},{"city":"South Londonderry","state_name":"Vermont","lat":43.17717,"lng":-72.8228,"zip":"05155","miles_from_dt":19.8},{"city":"West Wardsboro","state_name":"Vermont","lat":43.02778,"lng":-72.94378,"zip":"05360","miles_from_dt":19.94},{"city":"Eagle Bridge","state_name":"New York","lat":42.97316,"lng":-73.34335,"zip":"12057","miles_from_dt":20.04},{"city":"East Wallingford","state_name":"Vermont","lat":43.43685,"lng":-72.9045,"zip":"05742","miles_from_dt":20.08},{"city":"Weston","state_name":"Vermont","lat":43.3166,"lng":-72.8067,"zip":"05161","miles_from_dt":20.64},{"city":"Fort Ann","state_name":"New York","lat":43.44917,"lng":-73.51241,"zip":"12827","miles_from_dt":20.98},{"city":"South Glens Falls","state_name":"New York","lat":43.28891,"lng":-73.63024,"zip":"12803","miles_from_dt":21.72},{"city":"Victory Mills","state_name":"New York","lat":43.08855,"lng":-73.5921,"zip":"12884","miles_from_dt":22.39},{"city":"Belmont","state_name":"Vermont","lat":43.40262,"lng":-72.81508,"zip":"05730","miles_from_dt":22.42},{"city":"Whitehall","state_name":"New York","lat":43.54504,"lng":-73.37471,"zip":"12887","miles_from_dt":22.43},{"city":"West Rutland","state_name":"Vermont","lat":43.5552,"lng":-73.05504,"zip":"05777","miles_from_dt":22.69},{"city":"Glens Falls","state_name":"New York","lat":43.31097,"lng":-73.64545,"zip":"12801","miles_from_dt":22.73},{"city":"Jamaica","state_name":"Vermont","lat":43.09744,"lng":-72.80105,"zip":"05343","miles_from_dt":22.76},{"city":"Schuylerville","state_name":"New York","lat":43.09249,"lng":-73.61196,"zip":"12871","miles_from_dt":23.15},{"city":"North Hoosick","state_name":"New York","lat":42.92452,"lng":-73.3457,"zip":"12133","miles_from_dt":23.25},{"city":"North Clarendon","state_name":"Vermont","lat":43.53926,"lng":-72.96483,"zip":"05759","miles_from_dt":23.62},{"city":"Buskirk","state_name":"New York","lat":42.94545,"lng":-73.44213,"zip":"12028","miles_from_dt":23.93},{"city":"Gansevoort","state_name":"New York","lat":43.19533,"lng":-73.68791,"zip":"12831","miles_from_dt":24.67},{"city":"Queensbury","state_name":"New York","lat":43.3375,"lng":-73.68307,"zip":"12804","miles_from_dt":24.99},{"city":"Hydeville","state_name":"Vermont","lat":43.60684,"lng":-73.2287,"zip":"05750","miles_from_dt":25.01},{"city":"West Townshend","state_name":"Vermont","lat":43.15184,"lng":-72.72121,"zip":"05359","miles_from_dt":25.21},{"city":"Wardsboro","state_name":"Vermont","lat":43.02079,"lng":-72.80645,"zip":"05355","miles_from_dt":25.36},{"city":"Mount Holly","state_name":"Vermont","lat":43.44797,"lng":-72.78386,"zip":"05758","miles_from_dt":25.38},{"city":"Bennington","state_name":"Vermont","lat":42.87652,"lng":-73.1426,"zip":"05201","miles_from_dt":25.62},{"city":"West Dover","state_name":"Vermont","lat":42.95423,"lng":-72.86952,"zip":"05356","miles_from_dt":26.25},{"city":"Cuttingsville","state_name":"Vermont","lat":43.52895,"lng":-72.85637,"zip":"05738","miles_from_dt":26.28},{"city":"Hoosick Falls","state_name":"New York","lat":42.88073,"lng":-73.35624,"zip":"12090","miles_from_dt":26.3},{"city":"Cleverdale","state_name":"New York","lat":43.46022,"lng":-73.64067,"zip":"12820","miles_from_dt":26.55},{"city":"Center Rutland","state_name":"Vermont","lat":43.60483,"lng":-73.01273,"zip":"05736","miles_from_dt":26.64},{"city":"Hoosick","state_name":"New York","lat":42.86431,"lng":-73.32714,"zip":"12089","miles_from_dt":27.01},{"city":"Ludlow","state_name":"Vermont","lat":43.40368,"lng":-72.7029,"zip":"05149","miles_from_dt":27.53},{"city":"Rutland","state_name":"Vermont","lat":43.60868,"lng":-72.97919,"zip":"05702","miles_from_dt":27.54},{"city":"Castleton","state_name":"Vermont","lat":43.64475,"lng":-73.15456,"zip":"05735","miles_from_dt":27.71},{"city":"Kattskill Bay","state_name":"New York","lat":43.49423,"lng":-73.64081,"zip":"12844","miles_from_dt":27.93},{"city":"East Dover","state_name":"Vermont","lat":42.96407,"lng":-72.7972,"zip":"05341","miles_from_dt":28.27},{"city":"Lake George","state_name":"New York","lat":43.42757,"lng":-73.70703,"zip":"12845","miles_from_dt":28.31},{"city":"Johnsonville","state_name":"New York","lat":42.89091,"lng":-73.48737,"zip":"12094","miles_from_dt":28.34},{"city":"Clemons","state_name":"New York","lat":43.61144,"lng":-73.46315,"zip":"12819","miles_from_dt":28.47},{"city":"Stillwater","state_name":"New York","lat":42.99936,"lng":-73.66234,"zip":"12170","miles_from_dt":28.72},{"city":"Chester","state_name":"Vermont","lat":43.26267,"lng":-72.63095,"zip":"05143","miles_from_dt":28.94},{"city":"Valley Falls","state_name":"New York","lat":42.90102,"lng":-73.53507,"zip":"12185","miles_from_dt":29.06},{"city":"Huletts Landing","state_name":"New York","lat":43.59919,"lng":-73.5165,"zip":"12841","miles_from_dt":29.08},{"city":"Proctor","state_name":"Vermont","lat":43.65068,"lng":-73.03648,"zip":"05765","miles_from_dt":29.25},{"city":"Schaghticoke","state_name":"New York","lat":42.93713,"lng":-73.60124,"zip":"12154","miles_from_dt":29.25},{"city":"Wilmington","state_name":"Vermont","lat":42.88301,"lng":-72.89554,"zip":"05363","miles_from_dt":29.46},{"city":"Saratoga Springs","state_name":"New York","lat":43.07537,"lng":-73.7401,"zip":"12866","miles_from_dt":29.52},{"city":"Grafton","state_name":"Vermont","lat":43.17867,"lng":-72.62307,"zip":"05146","miles_from_dt":29.68},{"city":"North Pownal","state_name":"Vermont","lat":42.81594,"lng":-73.26173,"zip":"05260","miles_from_dt":29.76},{"city":"Fair Haven","state_name":"Vermont","lat":43.67118,"lng":-73.30726,"zip":"05743","miles_from_dt":29.88},{"city":"Townshend","state_name":"Vermont","lat":43.06501,"lng":-72.66484,"zip":"05353","miles_from_dt":29.94}],"targetCityZipCode":"05776","targetCityState":"Vermont"},"__N_SSG":true}