{"pageProps":{"stateName":"Michigan","cityName":"cooks","nearbyCities":[{"city":"Nahma","state_name":"Michigan","lat":45.84444,"lng":-86.65104,"zip":"49864","miles_from_dt":10.18},{"city":"Manistique","state_name":"Michigan","lat":46.09581,"lng":-86.36453,"zip":"49854","miles_from_dt":12.15},{"city":"Garden","state_name":"Michigan","lat":45.74396,"lng":-86.57555,"zip":"49835","miles_from_dt":14.5},{"city":"Wetmore","state_name":"Michigan","lat":46.16807,"lng":-86.66593,"zip":"49895","miles_from_dt":17.23},{"city":"Rapid River","state_name":"Michigan","lat":45.95852,"lng":-86.86516,"zip":"49878","miles_from_dt":17.63},{"city":"Gulliver","state_name":"Michigan","lat":46.13742,"lng":-86.06009,"zip":"49840","miles_from_dt":24.89},{"city":"Perkins","state_name":"Michigan","lat":46.01824,"lng":-87.08222,"zip":"49872","miles_from_dt":28.49},{"city":"Gladstone","state_name":"Michigan","lat":45.87129,"lng":-87.09781,"zip":"49837","miles_from_dt":29.32},{"city":"Chatham","state_name":"Michigan","lat":46.27517,"lng":-86.89863,"zip":"49816","miles_from_dt":29.68}],"targetCityZipCode":"49817","targetCityState":"Michigan"},"__N_SSG":true}