{"pageProps":{"stateName":"Michigan","cityName":"crystal-falls","nearbyCities":[{"city":"Alpha","state_name":"Michigan","lat":46.04905,"lng":-88.37744,"zip":"49902","miles_from_dt":7.33},{"city":"Sagola","state_name":"Michigan","lat":46.07852,"lng":-88.03259,"zip":"49881","miles_from_dt":13.58},{"city":"Gaastra","state_name":"Michigan","lat":46.04475,"lng":-88.57108,"zip":"49927","miles_from_dt":14.59},{"city":"Amasa","state_name":"Michigan","lat":46.33455,"lng":-88.48496,"zip":"49903","miles_from_dt":16.03},{"city":"Stambaugh","state_name":"Michigan","lat":46.08148,"lng":-88.62983,"zip":"49964","miles_from_dt":16.33},{"city":"Caspian","state_name":"Michigan","lat":46.06464,"lng":-88.62708,"zip":"49915","miles_from_dt":16.54},{"city":"Channing","state_name":"Michigan","lat":46.18465,"lng":-87.95967,"zip":"49815","miles_from_dt":16.65},{"city":"Republic","state_name":"Michigan","lat":46.3437,"lng":-88.08432,"zip":"49879","miles_from_dt":17.43},{"city":"Florence","state_name":"Wisconsin","lat":45.86385,"lng":-88.32899,"zip":"54121","miles_from_dt":19.18},{"city":"Iron Mountain","state_name":"Michigan","lat":45.9191,"lng":-88.01795,"zip":"49801","miles_from_dt":20.49},{"city":"Iron River","state_name":"Michigan","lat":46.19493,"lng":-88.7463,"zip":"49935","miles_from_dt":21.7},{"city":"Long Lake","state_name":"Wisconsin","lat":45.92127,"lng":-88.72536,"zip":"54542","miles_from_dt":25.44},{"city":"Kingsford","state_name":"Michigan","lat":45.80053,"lng":-88.07718,"zip":"49802","miles_from_dt":25.86},{"city":"Covington","state_name":"Michigan","lat":46.50995,"lng":-88.43518,"zip":"49919","miles_from_dt":26.29},{"city":"Norway","state_name":"Michigan","lat":45.87315,"lng":-87.89964,"zip":"49870","miles_from_dt":26.73},{"city":"Ralph","state_name":"Michigan","lat":46.15651,"lng":-87.7425,"zip":"49877","miles_from_dt":26.82},{"city":"Felch","state_name":"Michigan","lat":46.05777,"lng":-87.7356,"zip":"49831","miles_from_dt":27.76},{"city":"Fence","state_name":"Wisconsin","lat":45.75892,"lng":-88.49089,"zip":"54120","miles_from_dt":27.92},{"city":"Quinnesec","state_name":"Michigan","lat":45.80211,"lng":-87.97729,"zip":"49876","miles_from_dt":28.11}],"targetCityZipCode":"49920","targetCityState":"Michigan"},"__N_SSG":true}