{"pageProps":{"stateName":"Michigan","cityName":"eben-junction","nearbyCities":[{"city":"Rumely","state_name":"Michigan","lat":46.32316,"lng":-87.04567,"zip":"49826","miles_from_dt":3.89},{"city":"Deerton","state_name":"Michigan","lat":46.45095,"lng":-87.02812,"zip":"49822","miles_from_dt":6.59},{"city":"Au Train","state_name":"Michigan","lat":46.43802,"lng":-86.90056,"zip":"49806","miles_from_dt":6.7},{"city":"Chatham","state_name":"Michigan","lat":46.27517,"lng":-86.89863,"zip":"49816","miles_from_dt":7.18},{"city":"Trenary","state_name":"Michigan","lat":46.23206,"lng":-87.02828,"zip":"49891","miles_from_dt":9.11},{"city":"Skandia","state_name":"Michigan","lat":46.34658,"lng":-87.19238,"zip":"49885","miles_from_dt":9.98},{"city":"Munising","state_name":"Michigan","lat":46.38021,"lng":-86.7153,"zip":"49862","miles_from_dt":12.95},{"city":"Little Lake","state_name":"Michigan","lat":46.27504,"lng":-87.29142,"zip":"49833","miles_from_dt":15.82},{"city":"Wetmore","state_name":"Michigan","lat":46.16807,"lng":-86.66593,"zip":"49895","miles_from_dt":20.24},{"city":"Rock","state_name":"Michigan","lat":46.11693,"lng":-87.22515,"zip":"49880","miles_from_dt":20.39},{"city":"Perkins","state_name":"Michigan","lat":46.01824,"lng":-87.08222,"zip":"49872","miles_from_dt":24.09},{"city":"Gwinn","state_name":"Michigan","lat":46.27145,"lng":-87.49873,"zip":"49841","miles_from_dt":25.36},{"city":"Palmer","state_name":"Michigan","lat":46.42433,"lng":-87.53282,"zip":"49871","miles_from_dt":26.57},{"city":"Marquette","state_name":"Michigan","lat":46.56603,"lng":-87.45932,"zip":"49855","miles_from_dt":26.74},{"city":"Rapid River","state_name":"Michigan","lat":45.95852,"lng":-86.86516,"zip":"49878","miles_from_dt":28.34}],"targetCityZipCode":"49825","targetCityState":"Michigan"},"__N_SSG":true}