{"pageProps":{"stateName":"Michigan","cityName":"greenbush","nearbyCities":[{"city":"Mikado","state_name":"Michigan","lat":44.57059,"lng":-83.47425,"zip":"48745","miles_from_dt":6.88},{"city":"Harrisville","state_name":"Michigan","lat":44.66014,"lng":-83.37873,"zip":"48740","miles_from_dt":7.87},{"city":"Oscoda","state_name":"Michigan","lat":44.44338,"lng":-83.45652,"zip":"48750","miles_from_dt":9.41},{"city":"Lincoln","state_name":"Michigan","lat":44.71934,"lng":-83.44542,"zip":"48742","miles_from_dt":12.84},{"city":"East Tawas","state_name":"Michigan","lat":44.35443,"lng":-83.48804,"zip":"48730","miles_from_dt":15.41},{"city":"Black River","state_name":"Michigan","lat":44.80453,"lng":-83.3459,"zip":"48721","miles_from_dt":17.58},{"city":"Barton City","state_name":"Michigan","lat":44.68715,"lng":-83.65279,"zip":"48705","miles_from_dt":18.19},{"city":"Glennie","state_name":"Michigan","lat":44.54588,"lng":-83.70871,"zip":"48737","miles_from_dt":18.31},{"city":"Spruce","state_name":"Michigan","lat":44.80757,"lng":-83.48695,"zip":"48762","miles_from_dt":19.25},{"city":"Tawas City","state_name":"Michigan","lat":44.2725,"lng":-83.53121,"zip":"48764","miles_from_dt":21.41},{"city":"National City","state_name":"Michigan","lat":44.30398,"lng":-83.67392,"zip":"48748","miles_from_dt":23.77},{"city":"Tawas City","state_name":"Michigan","lat":44.25017,"lng":-83.61441,"zip":"48763","miles_from_dt":24.82},{"city":"Ossineke","state_name":"Michigan","lat":44.90643,"lng":-83.4512,"zip":"49766","miles_from_dt":25.24},{"city":"Hubbard Lake","state_name":"Michigan","lat":44.85132,"lng":-83.64516,"zip":"49747","miles_from_dt":25.73},{"city":"Hale","state_name":"Michigan","lat":44.37597,"lng":-83.83238,"zip":"48739","miles_from_dt":27.24},{"city":"Long Lake","state_name":"Michigan","lat":44.44025,"lng":-83.87066,"zip":"48743","miles_from_dt":27.4},{"city":"Curran","state_name":"Michigan","lat":44.74659,"lng":-83.82344,"zip":"48728","miles_from_dt":27.52},{"city":"South Branch","state_name":"Michigan","lat":44.51129,"lng":-83.89658,"zip":"48761","miles_from_dt":27.72}],"targetCityZipCode":"48738","targetCityState":"Michigan"},"__N_SSG":true}