{"pageProps":{"stateName":"Michigan","cityName":"melvin","nearbyCities":[{"city":"Yale","state_name":"Michigan","lat":43.12639,"lng":-82.82955,"zip":"48097","miles_from_dt":5.11},{"city":"Peck","state_name":"Michigan","lat":43.27693,"lng":-82.81731,"zip":"48466","miles_from_dt":5.31},{"city":"Brown City","state_name":"Michigan","lat":43.21791,"lng":-82.98476,"zip":"48416","miles_from_dt":8.49},{"city":"Croswell","state_name":"Michigan","lat":43.26265,"lng":-82.65069,"zip":"48422","miles_from_dt":9.5},{"city":"Avoca","state_name":"Michigan","lat":43.0754,"lng":-82.69642,"zip":"48006","miles_from_dt":10.58},{"city":"Emmett","state_name":"Michigan","lat":43.02824,"lng":-82.81111,"zip":"48022","miles_from_dt":11.86},{"city":"Jeddo","state_name":"Michigan","lat":43.13278,"lng":-82.59457,"zip":"48032","miles_from_dt":12.22},{"city":"Applegate","state_name":"Michigan","lat":43.3526,"lng":-82.66061,"zip":"48401","miles_from_dt":13.2},{"city":"Capac","state_name":"Michigan","lat":43.02466,"lng":-82.93115,"zip":"48014","miles_from_dt":13.38},{"city":"Lexington","state_name":"Michigan","lat":43.25289,"lng":-82.54123,"zip":"48450","miles_from_dt":14.46},{"city":"Marlette","state_name":"Michigan","lat":43.34374,"lng":-83.03493,"zip":"48453","miles_from_dt":14.76},{"city":"Imlay City","state_name":"Michigan","lat":43.06455,"lng":-83.05471,"zip":"48444","miles_from_dt":15.17},{"city":"Sandusky","state_name":"Michigan","lat":43.41868,"lng":-82.85369,"zip":"48471","miles_from_dt":15.2},{"city":"North Street","state_name":"Michigan","lat":43.0361,"lng":-82.57504,"zip":"48049","miles_from_dt":16.71},{"city":"Carsonville","state_name":"Michigan","lat":43.42884,"lng":-82.65762,"zip":"48419","miles_from_dt":17.75},{"city":"Fort Gratiot","state_name":"Michigan","lat":43.08253,"lng":-82.49913,"zip":"48059","miles_from_dt":18.06},{"city":"Memphis","state_name":"Michigan","lat":42.93861,"lng":-82.80271,"zip":"48041","miles_from_dt":18.06},{"city":"Allenton","state_name":"Michigan","lat":42.93916,"lng":-82.92601,"zip":"48002","miles_from_dt":18.81},{"city":"Goodells","state_name":"Michigan","lat":42.94466,"lng":-82.68217,"zip":"48027","miles_from_dt":18.92},{"city":"North Branch","state_name":"Michigan","lat":43.2024,"lng":-83.20669,"zip":"48461","miles_from_dt":19.61},{"city":"Clifford","state_name":"Michigan","lat":43.30695,"lng":-83.17935,"zip":"48727","miles_from_dt":19.66},{"city":"Attica","state_name":"Michigan","lat":43.06484,"lng":-83.16932,"zip":"48412","miles_from_dt":20.05},{"city":"Port Sanilac","state_name":"Michigan","lat":43.43927,"lng":-82.55849,"zip":"48469","miles_from_dt":21.08},{"city":"Almont","state_name":"Michigan","lat":42.93228,"lng":-83.04088,"zip":"48003","miles_from_dt":21.64},{"city":"Smiths Creek","state_name":"Michigan","lat":42.9484,"lng":-82.56196,"zip":"48074","miles_from_dt":21.68},{"city":"Snover","state_name":"Michigan","lat":43.51211,"lng":-82.95732,"zip":"48472","miles_from_dt":22.66},{"city":"Kingston","state_name":"Michigan","lat":43.40487,"lng":-83.18121,"zip":"48741","miles_from_dt":23.13},{"city":"Silverwood","state_name":"Michigan","lat":43.32095,"lng":-83.25595,"zip":"48760","miles_from_dt":23.61},{"city":"Port Huron","state_name":"Michigan","lat":42.97835,"lng":-82.46297,"zip":"48060","miles_from_dt":23.61},{"city":"Deckerville","state_name":"Michigan","lat":43.53789,"lng":-82.72378,"zip":"48427","miles_from_dt":23.81},{"city":"Port Huron","state_name":"Michigan","lat":42.99426,"lng":-82.43191,"zip":"48061","miles_from_dt":24.16},{"city":"Richmond","state_name":"Michigan","lat":42.84899,"lng":-82.79989,"zip":"48062","miles_from_dt":24.25},{"city":"Decker","state_name":"Michigan","lat":43.50856,"lng":-83.06025,"zip":"48426","miles_from_dt":24.54},{"city":"Dryden","state_name":"Michigan","lat":42.93752,"lng":-83.14756,"zip":"48428","miles_from_dt":24.62},{"city":"Armada","state_name":"Michigan","lat":42.85022,"lng":-82.92317,"zip":"48005","miles_from_dt":24.72},{"city":"Columbus","state_name":"Michigan","lat":42.85581,"lng":-82.67676,"zip":"48063","miles_from_dt":24.82},{"city":"Argyle","state_name":"Michigan","lat":43.56629,"lng":-82.9362,"zip":"48410","miles_from_dt":25.97},{"city":"Marysville","state_name":"Michigan","lat":42.90983,"lng":-82.48022,"zip":"48040","miles_from_dt":26.35},{"city":"Romeo","state_name":"Michigan","lat":42.84554,"lng":-83.04072,"zip":"48065","miles_from_dt":26.94},{"city":"Saint Clair","state_name":"Michigan","lat":42.8576,"lng":-82.54721,"zip":"48079","miles_from_dt":27.33},{"city":"Deford","state_name":"Michigan","lat":43.49621,"lng":-83.17828,"zip":"48729","miles_from_dt":27.33},{"city":"Fostoria","state_name":"Michigan","lat":43.24863,"lng":-83.3598,"zip":"48435","miles_from_dt":27.54},{"city":"Lapeer","state_name":"Michigan","lat":43.05259,"lng":-83.33745,"zip":"48446","miles_from_dt":28.15},{"city":"New Haven","state_name":"Michigan","lat":42.78486,"lng":-82.80139,"zip":"48050","miles_from_dt":28.67},{"city":"Palms","state_name":"Michigan","lat":43.61485,"lng":-82.71099,"zip":"48465","miles_from_dt":29.14},{"city":"Columbiaville","state_name":"Michigan","lat":43.15321,"lng":-83.39262,"zip":"48421","miles_from_dt":29.19},{"city":"Mayville","state_name":"Michigan","lat":43.34797,"lng":-83.36051,"zip":"48744","miles_from_dt":29.19},{"city":"Leonard","state_name":"Michigan","lat":42.84282,"lng":-83.14143,"zip":"48367","miles_from_dt":29.59},{"city":"Metamora","state_name":"Michigan","lat":42.94028,"lng":-83.29131,"zip":"48455","miles_from_dt":29.91}],"targetCityZipCode":"48454","targetCityState":"Michigan"},"__N_SSG":true}