{"pageProps":{"stateName":"Michigan","cityName":"richville","nearbyCities":[{"city":"Reese","state_name":"Michigan","lat":43.46748,"lng":-83.679,"zip":"48757","miles_from_dt":4.21},{"city":"Frankenmuth","state_name":"Michigan","lat":43.35519,"lng":-83.74321,"zip":"48734","miles_from_dt":5},{"city":"Vassar","state_name":"Michigan","lat":43.37077,"lng":-83.57661,"zip":"48768","miles_from_dt":5.46},{"city":"Frankenmuth","state_name":"Michigan","lat":43.33156,"lng":-83.74178,"zip":"48787","miles_from_dt":6.23},{"city":"Munger","state_name":"Michigan","lat":43.52119,"lng":-83.76085,"zip":"48747","miles_from_dt":9.05},{"city":"Bridgeport","state_name":"Michigan","lat":43.34554,"lng":-83.83961,"zip":"48722","miles_from_dt":9.38},{"city":"Fairgrove","state_name":"Michigan","lat":43.53306,"lng":-83.59029,"zip":"48733","miles_from_dt":9.67},{"city":"Saginaw","state_name":"Michigan","lat":43.40096,"lng":-83.8952,"zip":"48601","miles_from_dt":11.18},{"city":"Birch Run","state_name":"Michigan","lat":43.27165,"lng":-83.80111,"zip":"48415","miles_from_dt":11.33},{"city":"Millington","state_name":"Michigan","lat":43.26397,"lng":-83.54155,"zip":"48746","miles_from_dt":11.87},{"city":"Bay City","state_name":"Michigan","lat":43.52942,"lng":-83.84119,"zip":"48707","miles_from_dt":11.97},{"city":"Carrollton","state_name":"Michigan","lat":43.4569,"lng":-83.92709,"zip":"48724","miles_from_dt":13.23},{"city":"Saginaw","state_name":"Michigan","lat":43.43136,"lng":-83.93409,"zip":"48607","miles_from_dt":13.24},{"city":"Saginaw","state_name":"Michigan","lat":43.43156,"lng":-83.93624,"zip":"48606","miles_from_dt":13.35},{"city":"Bay City","state_name":"Michigan","lat":43.55653,"lng":-83.84853,"zip":"48708","miles_from_dt":13.59},{"city":"Saginaw","state_name":"Michigan","lat":43.41937,"lng":-83.94781,"zip":"48663","miles_from_dt":13.85},{"city":"Akron","state_name":"Michigan","lat":43.5879,"lng":-83.54649,"zip":"48701","miles_from_dt":14.04},{"city":"Essexville","state_name":"Michigan","lat":43.60666,"lng":-83.78274,"zip":"48732","miles_from_dt":14.87},{"city":"Saginaw","state_name":"Michigan","lat":43.41971,"lng":-83.97469,"zip":"48602","miles_from_dt":15.2},{"city":"Caro","state_name":"Michigan","lat":43.4861,"lng":-83.38499,"zip":"48723","miles_from_dt":15.5},{"city":"Saginaw","state_name":"Michigan","lat":43.49749,"lng":-83.95887,"zip":"48604","miles_from_dt":15.68},{"city":"Clio","state_name":"Michigan","lat":43.17968,"lng":-83.71176,"zip":"48420","miles_from_dt":15.79},{"city":"Mayville","state_name":"Michigan","lat":43.34797,"lng":-83.36051,"zip":"48744","miles_from_dt":16.26},{"city":"Burt","state_name":"Michigan","lat":43.25998,"lng":-83.93686,"zip":"48417","miles_from_dt":16.7},{"city":"Saginaw","state_name":"Michigan","lat":43.41681,"lng":-84.01958,"zip":"48638","miles_from_dt":17.44},{"city":"Saginaw","state_name":"Michigan","lat":43.43967,"lng":-84.02945,"zip":"48608","miles_from_dt":18.07},{"city":"Otter Lake","state_name":"Michigan","lat":43.21562,"lng":-83.41884,"zip":"48464","miles_from_dt":18.39},{"city":"Otisville","state_name":"Michigan","lat":43.16418,"lng":-83.52202,"zip":"48463","miles_from_dt":18.39},{"city":"Saginaw","state_name":"Michigan","lat":43.46332,"lng":-84.03115,"zip":"48603","miles_from_dt":18.43},{"city":"Montrose","state_name":"Michigan","lat":43.19018,"lng":-83.89306,"zip":"48457","miles_from_dt":18.6},{"city":"University Center","state_name":"Michigan","lat":43.55649,"lng":-83.98781,"zip":"48710","miles_from_dt":18.9},{"city":"Fostoria","state_name":"Michigan","lat":43.24863,"lng":-83.3598,"zip":"48435","miles_from_dt":19.2},{"city":"Saginaw","state_name":"Michigan","lat":43.45908,"lng":-84.05217,"zip":"48605","miles_from_dt":19.4},{"city":"Bay City","state_name":"Michigan","lat":43.59937,"lng":-83.95623,"zip":"48706","miles_from_dt":19.48},{"city":"Unionville","state_name":"Michigan","lat":43.64172,"lng":-83.45541,"zip":"48767","miles_from_dt":19.58},{"city":"Mount Morris","state_name":"Michigan","lat":43.1209,"lng":-83.68308,"zip":"48458","miles_from_dt":19.73},{"city":"Genesee","state_name":"Michigan","lat":43.11248,"lng":-83.61893,"zip":"48437","miles_from_dt":20.49},{"city":"Saginaw","state_name":"Michigan","lat":43.3878,"lng":-84.08786,"zip":"48609","miles_from_dt":20.91},{"city":"Silverwood","state_name":"Michigan","lat":43.32095,"lng":-83.25595,"zip":"48760","miles_from_dt":21.83},{"city":"Columbiaville","state_name":"Michigan","lat":43.15321,"lng":-83.39262,"zip":"48421","miles_from_dt":22.5},{"city":"Flint","state_name":"Michigan","lat":43.06948,"lng":-83.69079,"zip":"48505","miles_from_dt":23.29},{"city":"Flint","state_name":"Michigan","lat":43.06775,"lng":-83.62253,"zip":"48506","miles_from_dt":23.53},{"city":"Flint","state_name":"Michigan","lat":43.06574,"lng":-83.6881,"zip":"48550","miles_from_dt":23.54},{"city":"Flint","state_name":"Michigan","lat":43.06486,"lng":-83.62639,"zip":"48556","miles_from_dt":23.71},{"city":"Flint","state_name":"Michigan","lat":43.05912,"lng":-83.74424,"zip":"48555","miles_from_dt":24.25},{"city":"Flint","state_name":"Michigan","lat":43.05632,"lng":-83.74948,"zip":"48504","miles_from_dt":24.49},{"city":"Freeland","state_name":"Michigan","lat":43.5198,"lng":-84.13523,"zip":"48623","miles_from_dt":24.51},{"city":"Flint","state_name":"Michigan","lat":43.05508,"lng":-83.75037,"zip":"48531","miles_from_dt":24.58},{"city":"Kingston","state_name":"Michigan","lat":43.40487,"lng":-83.18121,"zip":"48741","miles_from_dt":24.77},{"city":"Flushing","state_name":"Michigan","lat":43.07632,"lng":-83.8661,"zip":"48433","miles_from_dt":24.79},{"city":"New Lothrop","state_name":"Michigan","lat":43.12734,"lng":-83.98586,"zip":"48460","miles_from_dt":24.91},{"city":"Kawkawlin","state_name":"Michigan","lat":43.6849,"lng":-84.00155,"zip":"48631","miles_from_dt":25.32},{"city":"Deford","state_name":"Michigan","lat":43.49621,"lng":-83.17828,"zip":"48729","miles_from_dt":25.65},{"city":"Saint Charles","state_name":"Michigan","lat":43.29171,"lng":-84.15743,"zip":"48655","miles_from_dt":25.65},{"city":"Clifford","state_name":"Michigan","lat":43.30695,"lng":-83.17935,"zip":"48727","miles_from_dt":25.81},{"city":"Sebewaing","state_name":"Michigan","lat":43.7265,"lng":-83.39323,"zip":"48759","miles_from_dt":26.18},{"city":"Auburn","state_name":"Michigan","lat":43.63187,"lng":-84.0936,"zip":"48611","miles_from_dt":26.23},{"city":"Burton","state_name":"Michigan","lat":43.02635,"lng":-83.60527,"zip":"48509","miles_from_dt":26.47},{"city":"Davison","state_name":"Michigan","lat":43.03982,"lng":-83.51404,"zip":"48423","miles_from_dt":26.57},{"city":"Chesaning","state_name":"Michigan","lat":43.19336,"lng":-84.11311,"zip":"48616","miles_from_dt":26.62},{"city":"Gagetown","state_name":"Michigan","lat":43.66861,"lng":-83.27294,"zip":"48735","miles_from_dt":27.04},{"city":"Flint","state_name":"Michigan","lat":43.01429,"lng":-83.68866,"zip":"48502","miles_from_dt":27.09},{"city":"Flint","state_name":"Michigan","lat":43.01139,"lng":-83.68901,"zip":"48503","miles_from_dt":27.29},{"city":"North Branch","state_name":"Michigan","lat":43.2024,"lng":-83.20669,"zip":"48461","miles_from_dt":27.42},{"city":"Hemlock","state_name":"Michigan","lat":43.4218,"lng":-84.22686,"zip":"48626","miles_from_dt":27.88},{"city":"Flint","state_name":"Michigan","lat":43.01203,"lng":-83.79429,"zip":"48532","miles_from_dt":27.92},{"city":"Flint","state_name":"Michigan","lat":42.99091,"lng":-83.71141,"zip":"48552","miles_from_dt":28.76},{"city":"Cass City","state_name":"Michigan","lat":43.60776,"lng":-83.16833,"zip":"48726","miles_from_dt":28.92},{"city":"Flint","state_name":"Michigan","lat":42.98712,"lng":-83.6793,"zip":"48557","miles_from_dt":28.96},{"city":"Flint","state_name":"Michigan","lat":42.98726,"lng":-83.71196,"zip":"48551","miles_from_dt":29.01},{"city":"Burton","state_name":"Michigan","lat":42.98772,"lng":-83.60701,"zip":"48519","miles_from_dt":29.11},{"city":"Lapeer","state_name":"Michigan","lat":43.05259,"lng":-83.33745,"zip":"48446","miles_from_dt":29.74},{"city":"Flint","state_name":"Michigan","lat":42.97433,"lng":-83.71617,"zip":"48553","miles_from_dt":29.92},{"city":"Burton","state_name":"Michigan","lat":42.97237,"lng":-83.66221,"zip":"48529","miles_from_dt":29.98},{"city":"Midland","state_name":"Michigan","lat":43.60135,"lng":-84.20676,"zip":"48686","miles_from_dt":29.99}],"targetCityZipCode":"48758","targetCityState":"Michigan"},"__N_SSG":true}