{"pageProps":{"stateName":"Michigan","cityName":"rock","nearbyCities":[{"city":"Perkins","state_name":"Michigan","lat":46.01824,"lng":-87.08222,"zip":"49872","miles_from_dt":9.68},{"city":"Cornell","state_name":"Michigan","lat":45.98223,"lng":-87.34745,"zip":"49818","miles_from_dt":11.01},{"city":"Little Lake","state_name":"Michigan","lat":46.27504,"lng":-87.29142,"zip":"49833","miles_from_dt":11.37},{"city":"Trenary","state_name":"Michigan","lat":46.23206,"lng":-87.02828,"zip":"49891","miles_from_dt":12.35},{"city":"Arnold","state_name":"Michigan","lat":46.04989,"lng":-87.49297,"zip":"49819","miles_from_dt":13.68},{"city":"Skandia","state_name":"Michigan","lat":46.34658,"lng":-87.19238,"zip":"49885","miles_from_dt":15.94},{"city":"Rumely","state_name":"Michigan","lat":46.32316,"lng":-87.04567,"zip":"49826","miles_from_dt":16.64},{"city":"Gwinn","state_name":"Michigan","lat":46.27145,"lng":-87.49873,"zip":"49841","miles_from_dt":16.91},{"city":"Gladstone","state_name":"Michigan","lat":45.87129,"lng":-87.09781,"zip":"49837","miles_from_dt":18.04},{"city":"Chatham","state_name":"Michigan","lat":46.27517,"lng":-86.89863,"zip":"49816","miles_from_dt":19.1},{"city":"Eben Junction","state_name":"Michigan","lat":46.36039,"lng":-86.98462,"zip":"49825","miles_from_dt":20.39},{"city":"Rapid River","state_name":"Michigan","lat":45.95852,"lng":-86.86516,"zip":"49878","miles_from_dt":20.48},{"city":"Perronville","state_name":"Michigan","lat":45.876,"lng":-87.51824,"zip":"49873","miles_from_dt":21.82},{"city":"Wells","state_name":"Michigan","lat":45.78292,"lng":-87.07634,"zip":"49894","miles_from_dt":24.16},{"city":"Escanaba","state_name":"Michigan","lat":45.76773,"lng":-87.16522,"zip":"49829","miles_from_dt":24.29},{"city":"Felch","state_name":"Michigan","lat":46.05777,"lng":-87.7356,"zip":"49831","miles_from_dt":24.87},{"city":"Deerton","state_name":"Michigan","lat":46.45095,"lng":-87.02812,"zip":"49822","miles_from_dt":24.93},{"city":"Ralph","state_name":"Michigan","lat":46.15651,"lng":-87.7425,"zip":"49877","miles_from_dt":24.99},{"city":"Foster City","state_name":"Michigan","lat":45.96829,"lng":-87.70292,"zip":"49834","miles_from_dt":25.17},{"city":"Palmer","state_name":"Michigan","lat":46.42433,"lng":-87.53282,"zip":"49871","miles_from_dt":25.85},{"city":"Wetmore","state_name":"Michigan","lat":46.16807,"lng":-86.66593,"zip":"49895","miles_from_dt":27.08},{"city":"Au Train","state_name":"Michigan","lat":46.43802,"lng":-86.90056,"zip":"49806","miles_from_dt":27.08},{"city":"Bark River","state_name":"Michigan","lat":45.71211,"lng":-87.28885,"zip":"49807","miles_from_dt":28.13},{"city":"Harris","state_name":"Michigan","lat":45.70291,"lng":-87.34728,"zip":"49845","miles_from_dt":29.19}],"targetCityZipCode":"49880","targetCityState":"Michigan"},"__N_SSG":true}