{"pageProps":{"stateName":"Michigan","cityName":"shaftsburg","nearbyCities":[{"city":"Perry","state_name":"Michigan","lat":42.80065,"lng":-84.2189,"zip":"48872","miles_from_dt":3.94},{"city":"Haslett","state_name":"Michigan","lat":42.76685,"lng":-84.37071,"zip":"48840","miles_from_dt":4.85},{"city":"Laingsburg","state_name":"Michigan","lat":42.88584,"lng":-84.35673,"zip":"48848","miles_from_dt":6.1},{"city":"Morrice","state_name":"Michigan","lat":42.84243,"lng":-84.15503,"zip":"48857","miles_from_dt":7.48},{"city":"Bath","state_name":"Michigan","lat":42.82591,"lng":-84.45081,"zip":"48808","miles_from_dt":7.97},{"city":"Williamston","state_name":"Michigan","lat":42.68946,"lng":-84.28061,"zip":"48895","miles_from_dt":8.35},{"city":"East Lansing","state_name":"Michigan","lat":42.76225,"lng":-84.45407,"zip":"48823","miles_from_dt":8.71},{"city":"Okemos","state_name":"Michigan","lat":42.70751,"lng":-84.41501,"zip":"48805","miles_from_dt":9.33},{"city":"Okemos","state_name":"Michigan","lat":42.70215,"lng":-84.40902,"zip":"48864","miles_from_dt":9.42},{"city":"East Lansing","state_name":"Michigan","lat":42.74419,"lng":-84.4841,"zip":"48826","miles_from_dt":10.61},{"city":"East Lansing","state_name":"Michigan","lat":42.72844,"lng":-84.48067,"zip":"48825","miles_from_dt":10.97},{"city":"East Lansing","state_name":"Michigan","lat":42.72129,"lng":-84.47607,"zip":"48824","miles_from_dt":11.04},{"city":"Bancroft","state_name":"Michigan","lat":42.86391,"lng":-84.08098,"zip":"48414","miles_from_dt":11.51},{"city":"Lansing","state_name":"Michigan","lat":42.73896,"lng":-84.52319,"zip":"48912","miles_from_dt":12.58},{"city":"Ovid","state_name":"Michigan","lat":42.99303,"lng":-84.37219,"zip":"48866","miles_from_dt":13.23},{"city":"Webberville","state_name":"Michigan","lat":42.63662,"lng":-84.17477,"zip":"48892","miles_from_dt":13.45},{"city":"Lansing","state_name":"Michigan","lat":42.73335,"lng":-84.54958,"zip":"48909","miles_from_dt":13.96},{"city":"Lansing","state_name":"Michigan","lat":42.6997,"lng":-84.52709,"zip":"48924","miles_from_dt":14.03},{"city":"Lansing","state_name":"Michigan","lat":42.6969,"lng":-84.52541,"zip":"48910","miles_from_dt":14.06},{"city":"Lansing","state_name":"Michigan","lat":42.78329,"lng":-84.5713,"zip":"48937","miles_from_dt":14.14},{"city":"Lansing","state_name":"Michigan","lat":42.73231,"lng":-84.55326,"zip":"48901","miles_from_dt":14.16},{"city":"Lansing","state_name":"Michigan","lat":42.73068,"lng":-84.5529,"zip":"48919","miles_from_dt":14.19},{"city":"Lansing","state_name":"Michigan","lat":42.73481,"lng":-84.55669,"zip":"48956","miles_from_dt":14.26},{"city":"Lansing","state_name":"Michigan","lat":42.73486,"lng":-84.55688,"zip":"48929","miles_from_dt":14.27},{"city":"Lansing","state_name":"Michigan","lat":42.73507,"lng":-84.55812,"zip":"48922","miles_from_dt":14.32},{"city":"Lansing","state_name":"Michigan","lat":42.72956,"lng":-84.55595,"zip":"48933","miles_from_dt":14.36},{"city":"Lansing","state_name":"Michigan","lat":42.73493,"lng":-84.55937,"zip":"48930","miles_from_dt":14.39},{"city":"Owosso","state_name":"Michigan","lat":43.00537,"lng":-84.18766,"zip":"48867","miles_from_dt":14.56},{"city":"Lansing","state_name":"Michigan","lat":42.73,"lng":-84.56219,"zip":"48951","miles_from_dt":14.65},{"city":"Lansing","state_name":"Michigan","lat":42.73885,"lng":-84.57076,"zip":"48915","miles_from_dt":14.84},{"city":"Fowlerville","state_name":"Michigan","lat":42.66899,"lng":-84.07421,"zip":"48836","miles_from_dt":14.88},{"city":"Lansing","state_name":"Michigan","lat":42.78489,"lng":-84.58886,"zip":"48906","miles_from_dt":15.02},{"city":"Dewitt","state_name":"Michigan","lat":42.86277,"lng":-84.59374,"zip":"48820","miles_from_dt":15.59},{"city":"Vernon","state_name":"Michigan","lat":42.93765,"lng":-84.03319,"zip":"48476","miles_from_dt":15.97},{"city":"Durand","state_name":"Michigan","lat":42.90774,"lng":-84.00544,"zip":"48429","miles_from_dt":16.2},{"city":"Byron","state_name":"Michigan","lat":42.80427,"lng":-83.97066,"zip":"48418","miles_from_dt":16.51},{"city":"Lansing","state_name":"Michigan","lat":42.67351,"lng":-84.57285,"zip":"48911","miles_from_dt":16.97},{"city":"Lansing","state_name":"Michigan","lat":42.67108,"lng":-84.57349,"zip":"48916","miles_from_dt":17.09},{"city":"Holt","state_name":"Michigan","lat":42.63469,"lng":-84.53931,"zip":"48842","miles_from_dt":17.33},{"city":"Mason","state_name":"Michigan","lat":42.58199,"lng":-84.45182,"zip":"48854","miles_from_dt":17.63},{"city":"Cohoctah","state_name":"Michigan","lat":42.76151,"lng":-83.95172,"zip":"48816","miles_from_dt":17.79},{"city":"Dansville","state_name":"Michigan","lat":42.54721,"lng":-84.28521,"zip":"48819","miles_from_dt":18.14},{"city":"Lansing","state_name":"Michigan","lat":42.72509,"lng":-84.63897,"zip":"48917","miles_from_dt":18.43},{"city":"Lansing","state_name":"Michigan","lat":42.73105,"lng":-84.64587,"zip":"48908","miles_from_dt":18.63},{"city":"Corunna","state_name":"Michigan","lat":43.01795,"lng":-84.03772,"zip":"48817","miles_from_dt":19.42},{"city":"Saint Johns","state_name":"Michigan","lat":43.00629,"lng":-84.57981,"zip":"48879","miles_from_dt":19.8},{"city":"Elsie","state_name":"Michigan","lat":43.10253,"lng":-84.3744,"zip":"48831","miles_from_dt":20.59},{"city":"Lansing","state_name":"Michigan","lat":42.67749,"lng":-84.66585,"zip":"48913","miles_from_dt":20.95},{"city":"Henderson","state_name":"Michigan","lat":43.11372,"lng":-84.2392,"zip":"48841","miles_from_dt":21.16},{"city":"Howell","state_name":"Michigan","lat":42.68759,"lng":-83.91331,"zip":"48855","miles_from_dt":21.19},{"city":"Dimondale","state_name":"Michigan","lat":42.63873,"lng":-84.64958,"zip":"48821","miles_from_dt":21.55},{"city":"Lansing","state_name":"Michigan","lat":42.67182,"lng":-84.67547,"zip":"48980","miles_from_dt":21.56},{"city":"Lansing","state_name":"Michigan","lat":42.67483,"lng":-84.67844,"zip":"48918","miles_from_dt":21.6},{"city":"Gaines","state_name":"Michigan","lat":42.87017,"lng":-83.87704,"zip":"48436","miles_from_dt":21.66},{"city":"Lennon","state_name":"Michigan","lat":42.99518,"lng":-83.94552,"zip":"48449","miles_from_dt":21.88},{"city":"Eureka","state_name":"Michigan","lat":43.10332,"lng":-84.50721,"zip":"48833","miles_from_dt":22.92},{"city":"Howell","state_name":"Michigan","lat":42.60698,"lng":-83.93198,"zip":"48844","miles_from_dt":23.21},{"city":"Eagle","state_name":"Michigan","lat":42.83407,"lng":-84.76065,"zip":"48822","miles_from_dt":23.7},{"city":"Stockbridge","state_name":"Michigan","lat":42.46855,"lng":-84.20752,"zip":"49285","miles_from_dt":23.99},{"city":"Oakley","state_name":"Michigan","lat":43.15695,"lng":-84.21709,"zip":"48649","miles_from_dt":24.28},{"city":"Linden","state_name":"Michigan","lat":42.80365,"lng":-83.81683,"zip":"48451","miles_from_dt":24.33},{"city":"Bannister","state_name":"Michigan","lat":43.15277,"lng":-84.40671,"zip":"48807","miles_from_dt":24.33},{"city":"Grand Ledge","state_name":"Michigan","lat":42.7453,"lng":-84.76701,"zip":"48837","miles_from_dt":24.39},{"city":"Leslie","state_name":"Michigan","lat":42.46561,"lng":-84.40916,"zip":"49251","miles_from_dt":24.46},{"city":"Potterville","state_name":"Michigan","lat":42.64757,"lng":-84.73631,"zip":"48876","miles_from_dt":25.08},{"city":"Howell","state_name":"Michigan","lat":42.56891,"lng":-83.92333,"zip":"48843","miles_from_dt":25.21},{"city":"Swartz Creek","state_name":"Michigan","lat":42.94012,"lng":-83.8274,"zip":"48473","miles_from_dt":25.4},{"city":"Flint","state_name":"Michigan","lat":42.93686,"lng":-83.82382,"zip":"48554","miles_from_dt":25.5},{"city":"Gregory","state_name":"Michigan","lat":42.46191,"lng":-84.07367,"zip":"48137","miles_from_dt":26.55},{"city":"Westphalia","state_name":"Michigan","lat":42.92841,"lng":-84.79489,"zip":"48894","miles_from_dt":26.65},{"city":"New Lothrop","state_name":"Michigan","lat":43.12734,"lng":-83.98586,"zip":"48460","miles_from_dt":26.95},{"city":"Fowler","state_name":"Michigan","lat":43.03008,"lng":-84.74655,"zip":"48835","miles_from_dt":27.47},{"city":"Eaton Rapids","state_name":"Michigan","lat":42.509,"lng":-84.65971,"zip":"48827","miles_from_dt":27.85},{"city":"Ashley","state_name":"Michigan","lat":43.18568,"lng":-84.49675,"zip":"48806","miles_from_dt":27.87},{"city":"Chesaning","state_name":"Michigan","lat":43.19336,"lng":-84.11311,"zip":"48616","miles_from_dt":28.03},{"city":"Fenton","state_name":"Michigan","lat":42.75752,"lng":-83.74208,"zip":"48430","miles_from_dt":28.37},{"city":"Flint","state_name":"Michigan","lat":42.96617,"lng":-83.77784,"zip":"48501","miles_from_dt":28.4},{"city":"Maple Rapids","state_name":"Michigan","lat":43.10371,"lng":-84.68999,"zip":"48853","miles_from_dt":28.49},{"city":"Flushing","state_name":"Michigan","lat":43.07632,"lng":-83.8661,"zip":"48433","miles_from_dt":28.5},{"city":"Onondaga","state_name":"Michigan","lat":42.44118,"lng":-84.55122,"zip":"49264","miles_from_dt":28.6},{"city":"Pleasant Lake","state_name":"Michigan","lat":42.39299,"lng":-84.34974,"zip":"49272","miles_from_dt":28.91},{"city":"Flint","state_name":"Michigan","lat":43.01203,"lng":-83.79429,"zip":"48532","miles_from_dt":29},{"city":"Munith","state_name":"Michigan","lat":42.38099,"lng":-84.25763,"zip":"49259","miles_from_dt":29.67},{"city":"Pinckney","state_name":"Michigan","lat":42.46348,"lng":-83.94955,"zip":"48169","miles_from_dt":29.71}],"targetCityZipCode":"48882","targetCityState":"Michigan"},"__N_SSG":true}