{"pageProps":{"stateName":"Michigan","cityName":"weston","nearbyCities":[{"city":"Sand Creek","state_name":"Michigan","lat":41.77965,"lng":-84.10409,"zip":"49279","miles_from_dt":0.59},{"city":"Jasper","state_name":"Michigan","lat":41.75651,"lng":-84.01137,"zip":"49248","miles_from_dt":5.05},{"city":"Lyons","state_name":"Ohio","lat":41.69335,"lng":-84.07997,"zip":"43533","miles_from_dt":5.57},{"city":"Morenci","state_name":"Michigan","lat":41.74989,"lng":-84.22122,"zip":"49256","miles_from_dt":6.09},{"city":"Clayton","state_name":"Michigan","lat":41.86348,"lng":-84.21348,"zip":"49235","miles_from_dt":8.4},{"city":"Adrian","state_name":"Michigan","lat":41.90343,"lng":-84.06372,"zip":"49221","miles_from_dt":9.38},{"city":"Metamora","state_name":"Ohio","lat":41.69545,"lng":-83.943,"zip":"43540","miles_from_dt":9.97},{"city":"Palmyra","state_name":"Michigan","lat":41.87156,"lng":-83.92565,"zip":"49268","miles_from_dt":11.64},{"city":"Blissfield","state_name":"Michigan","lat":41.8039,"lng":-83.88247,"zip":"49228","miles_from_dt":11.81},{"city":"Fayette","state_name":"Ohio","lat":41.66377,"lng":-84.29717,"zip":"43521","miles_from_dt":12.32},{"city":"Hudson","state_name":"Michigan","lat":41.84712,"lng":-84.34189,"zip":"49247","miles_from_dt":13.2},{"city":"Wauseon","state_name":"Ohio","lat":41.57592,"lng":-84.15248,"zip":"43567","miles_from_dt":13.7},{"city":"Delta","state_name":"Ohio","lat":41.58656,"lng":-84.00746,"zip":"43515","miles_from_dt":13.76},{"city":"Berkey","state_name":"Ohio","lat":41.69736,"lng":-83.8369,"zip":"43504","miles_from_dt":14.87},{"city":"Manitou Beach","state_name":"Michigan","lat":41.96443,"lng":-84.2697,"zip":"49253","miles_from_dt":15.74},{"city":"Riga","state_name":"Michigan","lat":41.79733,"lng":-83.7843,"zip":"49276","miles_from_dt":16.77},{"city":"Onsted","state_name":"Michigan","lat":42.01022,"lng":-84.17432,"zip":"49265","miles_from_dt":16.84},{"city":"Waldron","state_name":"Michigan","lat":41.73534,"lng":-84.43211,"zip":"49288","miles_from_dt":16.98},{"city":"Swanton","state_name":"Ohio","lat":41.5935,"lng":-83.8781,"zip":"43558","miles_from_dt":17.06},{"city":"Tipton","state_name":"Michigan","lat":42.02177,"lng":-84.08263,"zip":"49287","miles_from_dt":17.32},{"city":"Pettisville","state_name":"Ohio","lat":41.53096,"lng":-84.22382,"zip":"43553","miles_from_dt":17.66},{"city":"Pittsford","state_name":"Michigan","lat":41.83813,"lng":-84.45382,"zip":"49271","miles_from_dt":18.49},{"city":"Deerfield","state_name":"Michigan","lat":41.90593,"lng":-83.78809,"zip":"49238","miles_from_dt":18.9},{"city":"Tecumseh","state_name":"Michigan","lat":42.01443,"lng":-83.93447,"zip":"49286","miles_from_dt":18.98},{"city":"Archbold","state_name":"Ohio","lat":41.53181,"lng":-84.30201,"zip":"43502","miles_from_dt":19.37},{"city":"Addison","state_name":"Michigan","lat":41.99511,"lng":-84.34108,"zip":"49220","miles_from_dt":19.6},{"city":"Alvordton","state_name":"Ohio","lat":41.66966,"lng":-84.46095,"zip":"43501","miles_from_dt":19.6},{"city":"Sylvania","state_name":"Ohio","lat":41.70067,"lng":-83.73799,"zip":"43560","miles_from_dt":19.69},{"city":"Ottawa Lake","state_name":"Michigan","lat":41.75979,"lng":-83.72341,"zip":"49267","miles_from_dt":19.84},{"city":"Britton","state_name":"Michigan","lat":41.99005,"lng":-83.82655,"zip":"49229","miles_from_dt":20.9},{"city":"Holland","state_name":"Ohio","lat":41.62908,"lng":-83.74923,"zip":"43528","miles_from_dt":20.95},{"city":"Toledo","state_name":"Ohio","lat":41.66416,"lng":-83.72808,"zip":"43617","miles_from_dt":20.95},{"city":"West Unity","state_name":"Ohio","lat":41.58616,"lng":-84.44116,"zip":"43570","miles_from_dt":21.5},{"city":"Kunkle","state_name":"Ohio","lat":41.63511,"lng":-84.4957,"zip":"43531","miles_from_dt":22.2},{"city":"Clinton","state_name":"Michigan","lat":42.07792,"lng":-83.95035,"zip":"49236","miles_from_dt":22.64},{"city":"Monclova","state_name":"Ohio","lat":41.56642,"lng":-83.76531,"zip":"43542","miles_from_dt":22.65},{"city":"Neapolis","state_name":"Ohio","lat":41.49214,"lng":-83.87634,"zip":"43547","miles_from_dt":22.68},{"city":"Colton","state_name":"Ohio","lat":41.46484,"lng":-83.94712,"zip":"43510","miles_from_dt":22.72},{"city":"North Adams","state_name":"Michigan","lat":41.96162,"lng":-84.4673,"zip":"49262","miles_from_dt":22.75},{"city":"Petersburg","state_name":"Michigan","lat":41.86864,"lng":-83.68206,"zip":"49270","miles_from_dt":22.94},{"city":"Liberty Center","state_name":"Ohio","lat":41.45486,"lng":-83.97008,"zip":"43532","miles_from_dt":22.97},{"city":"Whitehouse","state_name":"Ohio","lat":41.51574,"lng":-83.81796,"zip":"43571","miles_from_dt":23.14},{"city":"Osseo","state_name":"Michigan","lat":41.84247,"lng":-84.54641,"zip":"49266","miles_from_dt":23.21},{"city":"Brooklyn","state_name":"Michigan","lat":42.09701,"lng":-84.22266,"zip":"49230","miles_from_dt":23.25},{"city":"Somerset Center","state_name":"Michigan","lat":42.03496,"lng":-84.40518,"zip":"49282","miles_from_dt":23.81},{"city":"Toledo","state_name":"Ohio","lat":41.65045,"lng":-83.67255,"zip":"43615","miles_from_dt":23.97},{"city":"Toledo","state_name":"Ohio","lat":41.65254,"lng":-83.67132,"zip":"43635","miles_from_dt":23.98},{"city":"Somerset","state_name":"Michigan","lat":42.05193,"lng":-84.38291,"zip":"49281","miles_from_dt":24.02},{"city":"Toledo","state_name":"Ohio","lat":41.70475,"lng":-83.6508,"zip":"43656","miles_from_dt":24.03},{"city":"Toledo","state_name":"Ohio","lat":41.70419,"lng":-83.65095,"zip":"43623","miles_from_dt":24.03},{"city":"Cement City","state_name":"Michigan","lat":42.0644,"lng":-84.36512,"zip":"49233","miles_from_dt":24.2},{"city":"Ridgeville Corners","state_name":"Ohio","lat":41.43772,"lng":-84.25596,"zip":"43555","miles_from_dt":24.29},{"city":"Pioneer","state_name":"Ohio","lat":41.66024,"lng":-84.56239,"zip":"43554","miles_from_dt":24.77},{"city":"Lambertville","state_name":"Michigan","lat":41.75325,"lng":-83.62803,"zip":"48144","miles_from_dt":24.78},{"city":"Stryker","state_name":"Ohio","lat":41.48354,"lng":-84.39693,"zip":"43557","miles_from_dt":24.9},{"city":"Jerome","state_name":"Michigan","lat":42.02275,"lng":-84.45575,"zip":"49249","miles_from_dt":24.98},{"city":"Maumee","state_name":"Ohio","lat":41.57433,"lng":-83.68542,"zip":"43537","miles_from_dt":25.71},{"city":"Dundee","state_name":"Michigan","lat":41.96553,"lng":-83.67268,"zip":"48131","miles_from_dt":26.11},{"city":"Okolona","state_name":"Ohio","lat":41.39221,"lng":-84.12302,"zip":"43550","miles_from_dt":26.18},{"city":"Napoleon","state_name":"Ohio","lat":41.39163,"lng":-84.12719,"zip":"43545","miles_from_dt":26.23},{"city":"Waterville","state_name":"Ohio","lat":41.49467,"lng":-83.75838,"zip":"43566","miles_from_dt":26.28},{"city":"Toledo","state_name":"Ohio","lat":41.70628,"lng":-83.60374,"zip":"43613","miles_from_dt":26.4},{"city":"Toledo","state_name":"Ohio","lat":41.67178,"lng":-83.61085,"zip":"43606","miles_from_dt":26.56},{"city":"Frontier","state_name":"Michigan","lat":41.79389,"lng":-84.62312,"zip":"49239","miles_from_dt":26.7},{"city":"Manchester","state_name":"Michigan","lat":42.15564,"lng":-84.03031,"zip":"48158","miles_from_dt":26.81},{"city":"Norvell","state_name":"Michigan","lat":42.15817,"lng":-84.18225,"zip":"49263","miles_from_dt":26.97},{"city":"Toledo","state_name":"Ohio","lat":41.63106,"lng":-83.61875,"zip":"43699","miles_from_dt":27.05},{"city":"Toledo","state_name":"Ohio","lat":41.65288,"lng":-83.60469,"zip":"43661","miles_from_dt":27.23},{"city":"Samaria","state_name":"Michigan","lat":41.8048,"lng":-83.58157,"zip":"48177","miles_from_dt":27.24},{"city":"Toledo","state_name":"Ohio","lat":41.64761,"lng":-83.60582,"zip":"43607","miles_from_dt":27.29},{"city":"Temperance","state_name":"Michigan","lat":41.7919,"lng":-83.57831,"zip":"48182","miles_from_dt":27.35},{"city":"Hillsdale","state_name":"Michigan","lat":41.88434,"lng":-84.61581,"zip":"49242","miles_from_dt":27.39},{"city":"Toledo","state_name":"Ohio","lat":41.60336,"lng":-83.62715,"zip":"43614","miles_from_dt":27.4},{"city":"Clarklake","state_name":"Michigan","lat":42.12114,"lng":-84.3673,"zip":"49234","miles_from_dt":27.61},{"city":"Grand Rapids","state_name":"Ohio","lat":41.42058,"lng":-83.84352,"zip":"43522","miles_from_dt":27.8},{"city":"Napoleon","state_name":"Michigan","lat":42.16174,"lng":-84.2472,"zip":"49261","miles_from_dt":27.89},{"city":"Ida","state_name":"Michigan","lat":41.88141,"lng":-83.58274,"zip":"48140","miles_from_dt":28.11},{"city":"Azalia","state_name":"Michigan","lat":42.01547,"lng":-83.66884,"zip":"48110","miles_from_dt":28.18},{"city":"Moscow","state_name":"Michigan","lat":42.05108,"lng":-84.50897,"zip":"49257","miles_from_dt":28.32},{"city":"Bridgewater","state_name":"Michigan","lat":42.16051,"lng":-83.92133,"zip":"48115","miles_from_dt":28.51},{"city":"Evansport","state_name":"Ohio","lat":41.42092,"lng":-84.40854,"zip":"43519","miles_from_dt":28.8},{"city":"Toledo","state_name":"Ohio","lat":41.67683,"lng":-83.56178,"zip":"43657","miles_from_dt":28.94},{"city":"Toledo","state_name":"Ohio","lat":41.67775,"lng":-83.5614,"zip":"43610","miles_from_dt":28.94},{"city":"Perrysburg","state_name":"Ohio","lat":41.55391,"lng":-83.62606,"zip":"43552","miles_from_dt":29.07},{"city":"Toledo","state_name":"Ohio","lat":41.62849,"lng":-83.57824,"zip":"43609","miles_from_dt":29.07},{"city":"Camden","state_name":"Michigan","lat":41.74049,"lng":-84.66858,"zip":"49232","miles_from_dt":29.1},{"city":"Toledo","state_name":"Ohio","lat":41.70946,"lng":-83.54899,"zip":"43612","miles_from_dt":29.16},{"city":"Toledo","state_name":"Ohio","lat":41.66519,"lng":-83.5547,"zip":"43620","miles_from_dt":29.49},{"city":"Montpelier","state_name":"Ohio","lat":41.60575,"lng":-84.6338,"zip":"43543","miles_from_dt":29.55},{"city":"Haskins","state_name":"Ohio","lat":41.46663,"lng":-83.70098,"zip":"43525","miles_from_dt":29.74}],"targetCityZipCode":"49289","targetCityState":"Michigan"},"__N_SSG":true}