{"pageProps":{"stateName":"North-carolina","cityName":"beaufort","nearbyCities":[{"city":"Smyrna","state_name":"North Carolina","lat":34.80411,"lng":-76.50422,"zip":"28579","miles_from_dt":6.8},{"city":"Williston","state_name":"North Carolina","lat":34.79343,"lng":-76.49398,"zip":"28589","miles_from_dt":7.67},{"city":"Gloucester","state_name":"North Carolina","lat":34.73695,"lng":-76.5396,"zip":"28528","miles_from_dt":8.69},{"city":"Davis","state_name":"North Carolina","lat":34.78893,"lng":-76.47452,"zip":"28524","miles_from_dt":8.79},{"city":"Marshallberg","state_name":"North Carolina","lat":34.73217,"lng":-76.51335,"zip":"28553","miles_from_dt":9.75},{"city":"Stacy","state_name":"North Carolina","lat":34.84992,"lng":-76.43341,"zip":"28581","miles_from_dt":10.11},{"city":"Harkers Island","state_name":"North Carolina","lat":34.70015,"lng":-76.56116,"zip":"28531","miles_from_dt":10.6},{"city":"Morehead City","state_name":"North Carolina","lat":34.74064,"lng":-76.74566,"zip":"28557","miles_from_dt":10.65},{"city":"Cedar Island","state_name":"North Carolina","lat":34.95613,"lng":-76.44484,"zip":"28520","miles_from_dt":12.03},{"city":"Sealevel","state_name":"North Carolina","lat":34.91494,"lng":-76.40769,"zip":"28577","miles_from_dt":12.44},{"city":"Atlantic Beach","state_name":"North Carolina","lat":34.69857,"lng":-76.77505,"zip":"28512","miles_from_dt":13.9},{"city":"Atlantic","state_name":"North Carolina","lat":34.89959,"lng":-76.35195,"zip":"28511","miles_from_dt":15.15},{"city":"Arapahoe","state_name":"North Carolina","lat":35.00516,"lng":-76.81171,"zip":"28510","miles_from_dt":15.7},{"city":"Oriental","state_name":"North Carolina","lat":35.05679,"lng":-76.72311,"zip":"28571","miles_from_dt":15.71},{"city":"Newport","state_name":"North Carolina","lat":34.78123,"lng":-76.88003,"zip":"28570","miles_from_dt":15.96},{"city":"Cherry Point","state_name":"North Carolina","lat":34.90167,"lng":-76.89955,"zip":"28533","miles_from_dt":16.79},{"city":"Havelock","state_name":"North Carolina","lat":34.88857,"lng":-76.90872,"zip":"28532","miles_from_dt":17.13},{"city":"Salter Path","state_name":"North Carolina","lat":34.68833,"lng":-76.88129,"zip":"28575","miles_from_dt":18.91},{"city":"Merritt","state_name":"North Carolina","lat":35.12233,"lng":-76.66904,"zip":"28556","miles_from_dt":19.17},{"city":"Stonewall","state_name":"North Carolina","lat":35.13746,"lng":-76.73862,"zip":"28583","miles_from_dt":21.2},{"city":"Alliance","state_name":"North Carolina","lat":35.14524,"lng":-76.80662,"zip":"28509","miles_from_dt":23.28},{"city":"Vandemere","state_name":"North Carolina","lat":35.18714,"lng":-76.66783,"zip":"28587","miles_from_dt":23.58},{"city":"Grantsboro","state_name":"North Carolina","lat":35.12237,"lng":-76.86848,"zip":"28529","miles_from_dt":23.87},{"city":"Bayboro","state_name":"North Carolina","lat":35.19285,"lng":-76.70263,"zip":"28515","miles_from_dt":24.31},{"city":"Emerald Isle","state_name":"North Carolina","lat":34.66486,"lng":-77.02918,"zip":"28594","miles_from_dt":26.93},{"city":"New Bern","state_name":"North Carolina","lat":35.07483,"lng":-77.02219,"zip":"28564","miles_from_dt":28.07},{"city":"Hobucken","state_name":"North Carolina","lat":35.25558,"lng":-76.55912,"zip":"28537","miles_from_dt":28.23},{"city":"New Bern","state_name":"North Carolina","lat":35.13354,"lng":-76.97575,"zip":"28560","miles_from_dt":28.53},{"city":"Swansboro","state_name":"North Carolina","lat":34.72632,"lng":-77.10002,"zip":"28584","miles_from_dt":29.04},{"city":"Bridgeton","state_name":"North Carolina","lat":35.1268,"lng":-77.01477,"zip":"28519","miles_from_dt":29.88}],"targetCityZipCode":"28516","targetCityState":"North Carolina"},"__N_SSG":true}