{"pageProps":{"stateName":"North-carolina","cityName":"carthage","nearbyCities":[{"city":"West End","state_name":"North Carolina","lat":35.25607,"lng":-79.53184,"zip":"27376","miles_from_dt":9.31},{"city":"Lakeview","state_name":"North Carolina","lat":35.2488,"lng":-79.32064,"zip":"28350","miles_from_dt":9.48},{"city":"Highfalls","state_name":"North Carolina","lat":35.49149,"lng":-79.52624,"zip":"27259","miles_from_dt":10.91},{"city":"Robbins","state_name":"North Carolina","lat":35.46236,"lng":-79.57249,"zip":"27325","miles_from_dt":11.09},{"city":"Pinehurst","state_name":"North Carolina","lat":35.19705,"lng":-79.46009,"zip":"28374","miles_from_dt":11.26},{"city":"Southern Pines","state_name":"North Carolina","lat":35.18181,"lng":-79.4019,"zip":"28388","miles_from_dt":12.18},{"city":"Eagle Springs","state_name":"North Carolina","lat":35.33645,"lng":-79.63761,"zip":"27242","miles_from_dt":12.19},{"city":"Pinehurst","state_name":"North Carolina","lat":35.18208,"lng":-79.46043,"zip":"28370","miles_from_dt":12.28},{"city":"Southern Pines","state_name":"North Carolina","lat":35.18059,"lng":-79.37566,"zip":"28387","miles_from_dt":12.5},{"city":"Lemon Springs","state_name":"North Carolina","lat":35.39053,"lng":-79.19514,"zip":"28355","miles_from_dt":13.08},{"city":"Vass","state_name":"North Carolina","lat":35.21652,"lng":-79.23777,"zip":"28394","miles_from_dt":14.3},{"city":"Goldston","state_name":"North Carolina","lat":35.56033,"lng":-79.35563,"zip":"27252","miles_from_dt":14.49},{"city":"Cameron","state_name":"North Carolina","lat":35.27938,"lng":-79.16989,"zip":"28326","miles_from_dt":15.3},{"city":"Bennett","state_name":"North Carolina","lat":35.56246,"lng":-79.54231,"zip":"27208","miles_from_dt":15.64},{"city":"Sanford","state_name":"North Carolina","lat":35.47494,"lng":-79.18258,"zip":"27331","miles_from_dt":15.81},{"city":"Sanford","state_name":"North Carolina","lat":35.37836,"lng":-79.13599,"zip":"27332","miles_from_dt":16.29},{"city":"Gulf","state_name":"North Carolina","lat":35.56058,"lng":-79.2725,"zip":"27256","miles_from_dt":16.38},{"city":"Jackson Springs","state_name":"North Carolina","lat":35.18538,"lng":-79.62689,"zip":"27281","miles_from_dt":16.53},{"city":"Aberdeen","state_name":"North Carolina","lat":35.1122,"lng":-79.44452,"zip":"28315","miles_from_dt":16.96},{"city":"Cumnock","state_name":"North Carolina","lat":35.55472,"lng":-79.23806,"zip":"27237","miles_from_dt":17.14},{"city":"Bear Creek","state_name":"North Carolina","lat":35.6064,"lng":-79.38893,"zip":"27207","miles_from_dt":17.26},{"city":"Sanford","state_name":"North Carolina","lat":35.51624,"lng":-79.18394,"zip":"27330","miles_from_dt":17.38},{"city":"Olivia","state_name":"North Carolina","lat":35.36942,"lng":-79.11331,"zip":"28368","miles_from_dt":17.53},{"city":"Biscoe","state_name":"North Carolina","lat":35.34254,"lng":-79.74936,"zip":"27209","miles_from_dt":18.44},{"city":"Pinebluff","state_name":"North Carolina","lat":35.09079,"lng":-79.48522,"zip":"28373","miles_from_dt":18.72},{"city":"Seagrove","state_name":"North Carolina","lat":35.52467,"lng":-79.70014,"zip":"27341","miles_from_dt":19.41},{"city":"Bonlee","state_name":"North Carolina","lat":35.6473,"lng":-79.40454,"zip":"27213","miles_from_dt":20},{"city":"Norman","state_name":"North Carolina","lat":35.16982,"lng":-79.72325,"zip":"28367","miles_from_dt":21.33},{"city":"Ether","state_name":"North Carolina","lat":35.46096,"lng":-79.78784,"zip":"27247","miles_from_dt":21.77},{"city":"Star","state_name":"North Carolina","lat":35.43991,"lng":-79.7982,"zip":"27356","miles_from_dt":21.91},{"city":"Candor","state_name":"North Carolina","lat":35.24853,"lng":-79.79873,"zip":"27229","miles_from_dt":22.51},{"city":"Hoffman","state_name":"North Carolina","lat":35.04652,"lng":-79.56203,"zip":"28347","miles_from_dt":22.84},{"city":"Raeford","state_name":"North Carolina","lat":35.052,"lng":-79.23342,"zip":"28376","miles_from_dt":23.65},{"city":"Broadway","state_name":"North Carolina","lat":35.414,"lng":-79.00198,"zip":"27505","miles_from_dt":24.1},{"city":"Ramseur","state_name":"North Carolina","lat":35.68996,"lng":-79.62366,"zip":"27316","miles_from_dt":25.54},{"city":"Siler City","state_name":"North Carolina","lat":35.7289,"lng":-79.43366,"zip":"27344","miles_from_dt":25.61},{"city":"Ellerbe","state_name":"North Carolina","lat":35.09644,"lng":-79.75506,"zip":"28338","miles_from_dt":26},{"city":"Fort Bragg","state_name":"North Carolina","lat":35.12946,"lng":-79.0523,"zip":"28310","miles_from_dt":26.22},{"city":"Moncure","state_name":"North Carolina","lat":35.6299,"lng":-79.0973,"zip":"27559","miles_from_dt":26.27},{"city":"Pope Army Airfield","state_name":"North Carolina","lat":35.17206,"lng":-79.0149,"zip":"28308","miles_from_dt":26.4},{"city":"Mamers","state_name":"North Carolina","lat":35.42006,"lng":-78.93433,"zip":"27552","miles_from_dt":27.94},{"city":"Spring Lake","state_name":"North Carolina","lat":35.21783,"lng":-78.95488,"zip":"28390","miles_from_dt":28.18},{"city":"Marston","state_name":"North Carolina","lat":34.95772,"lng":-79.53384,"zip":"28363","miles_from_dt":28.27},{"city":"Fort Bragg","state_name":"North Carolina","lat":35.14154,"lng":-78.99447,"zip":"28307","miles_from_dt":28.46},{"city":"Wagram","state_name":"North Carolina","lat":34.93948,"lng":-79.40971,"zip":"28396","miles_from_dt":28.83}],"targetCityZipCode":"28327","targetCityState":"North Carolina"},"__N_SSG":true}