{"pageProps":{"stateName":"North-carolina","cityName":"clinton","nearbyCities":[{"city":"Clinton","state_name":"North Carolina","lat":34.99831,"lng":-78.33006,"zip":"28329","miles_from_dt":0.55},{"city":"Turkey","state_name":"North Carolina","lat":34.98205,"lng":-78.18895,"zip":"28393","miles_from_dt":8.44},{"city":"Salemburg","state_name":"North Carolina","lat":35.04461,"lng":-78.50012,"zip":"28385","miles_from_dt":9.75},{"city":"Roseboro","state_name":"North Carolina","lat":34.97546,"lng":-78.50561,"zip":"28382","miles_from_dt":9.88},{"city":"Faison","state_name":"North Carolina","lat":35.11919,"lng":-78.17577,"zip":"28341","miles_from_dt":11.98},{"city":"Warsaw","state_name":"North Carolina","lat":34.99307,"lng":-78.07143,"zip":"28398","miles_from_dt":14.98},{"city":"Newton Grove","state_name":"North Carolina","lat":35.22974,"lng":-78.36317,"zip":"28366","miles_from_dt":15.57},{"city":"Garland","state_name":"North Carolina","lat":34.79047,"lng":-78.4355,"zip":"28441","miles_from_dt":15.85},{"city":"Autryville","state_name":"North Carolina","lat":35.0176,"lng":-78.61665,"zip":"28318","miles_from_dt":15.99},{"city":"Calypso","state_name":"North Carolina","lat":35.15335,"lng":-78.10425,"zip":"28325","miles_from_dt":16.6},{"city":"Magnolia","state_name":"North Carolina","lat":34.88283,"lng":-78.06805,"zip":"28453","miles_from_dt":17.34},{"city":"Rose Hill","state_name":"North Carolina","lat":34.81886,"lng":-78.07895,"zip":"28458","miles_from_dt":19.4},{"city":"Mount Olive","state_name":"North Carolina","lat":35.17807,"lng":-78.05827,"zip":"28365","miles_from_dt":19.71},{"city":"Godwin","state_name":"North Carolina","lat":35.16506,"lng":-78.63139,"zip":"28344","miles_from_dt":20.09},{"city":"Stedman","state_name":"North Carolina","lat":35.03045,"lng":-78.70009,"zip":"28391","miles_from_dt":20.77},{"city":"Harrells","state_name":"North Carolina","lat":34.6885,"lng":-78.31798,"zip":"28444","miles_from_dt":21.84},{"city":"Falcon","state_name":"North Carolina","lat":35.18949,"lng":-78.6499,"zip":"28342","miles_from_dt":21.9},{"city":"Cumberland","state_name":"North Carolina","lat":35.19883,"lng":-78.64944,"zip":"28331","miles_from_dt":22.26},{"city":"Dunn","state_name":"North Carolina","lat":35.2681,"lng":-78.57051,"zip":"28334","miles_from_dt":22.51},{"city":"Fayetteville","state_name":"North Carolina","lat":34.94713,"lng":-78.73225,"zip":"28312","miles_from_dt":22.88},{"city":"Kenansville","state_name":"North Carolina","lat":34.98206,"lng":-77.92033,"zip":"28349","miles_from_dt":23.58},{"city":"Teachey","state_name":"North Carolina","lat":34.77661,"lng":-78.01854,"zip":"28464","miles_from_dt":23.9},{"city":"Wade","state_name":"North Carolina","lat":35.13643,"lng":-78.73855,"zip":"28395","miles_from_dt":24.59},{"city":"Dunn","state_name":"North Carolina","lat":35.3097,"lng":-78.6082,"zip":"28335","miles_from_dt":26.08},{"city":"Dudley","state_name":"North Carolina","lat":35.28292,"lng":-78.01239,"zip":"28333","miles_from_dt":26.48},{"city":"Four Oaks","state_name":"North Carolina","lat":35.39392,"lng":-78.37948,"zip":"27524","miles_from_dt":26.93},{"city":"White Oak","state_name":"North Carolina","lat":34.77885,"lng":-78.72953,"zip":"28399","miles_from_dt":27.29},{"city":"Elizabethtown","state_name":"North Carolina","lat":34.66094,"lng":-78.57733,"zip":"28337","miles_from_dt":27.43},{"city":"Ivanhoe","state_name":"North Carolina","lat":34.59953,"lng":-78.25848,"zip":"28447","miles_from_dt":28.29},{"city":"Goldsboro","state_name":"North Carolina","lat":35.36825,"lng":-78.07511,"zip":"27530","miles_from_dt":29.04},{"city":"Benson","state_name":"North Carolina","lat":35.39963,"lng":-78.51863,"zip":"27504","miles_from_dt":29.12},{"city":"Albertson","state_name":"North Carolina","lat":35.09684,"lng":-77.82789,"zip":"28508","miles_from_dt":29.44},{"city":"Seven Springs","state_name":"North Carolina","lat":35.20017,"lng":-77.86332,"zip":"28578","miles_from_dt":29.92}],"targetCityZipCode":"28328","targetCityState":"North Carolina"},"__N_SSG":true}