{"pageProps":{"stateName":"North-carolina","cityName":"knightdale","nearbyCities":[{"city":"Raleigh","state_name":"North Carolina","lat":35.7435,"lng":-78.54644,"zip":"27610","miles_from_dt":4.69},{"city":"Raleigh","state_name":"North Carolina","lat":35.82011,"lng":-78.56369,"zip":"27604","miles_from_dt":5.26},{"city":"Wendell","state_name":"North Carolina","lat":35.7859,"lng":-78.38638,"zip":"27591","miles_from_dt":5.28},{"city":"Raleigh","state_name":"North Carolina","lat":35.81793,"lng":-78.57233,"zip":"27635","miles_from_dt":5.63},{"city":"Raleigh","state_name":"North Carolina","lat":35.82134,"lng":-78.57084,"zip":"27625","miles_from_dt":5.66},{"city":"Raleigh","state_name":"North Carolina","lat":35.81964,"lng":-78.57275,"zip":"27629","miles_from_dt":5.7},{"city":"Raleigh","state_name":"North Carolina","lat":35.76508,"lng":-78.58728,"zip":"27620","miles_from_dt":6.16},{"city":"Raleigh","state_name":"North Carolina","lat":35.86735,"lng":-78.53792,"zip":"27616","miles_from_dt":6.52},{"city":"Raleigh","state_name":"North Carolina","lat":35.85097,"lng":-78.59329,"zip":"27658","miles_from_dt":7.79},{"city":"Raleigh","state_name":"North Carolina","lat":35.7788,"lng":-78.62297,"zip":"27697","miles_from_dt":8.02},{"city":"Raleigh","state_name":"North Carolina","lat":35.77768,"lng":-78.63452,"zip":"27626","miles_from_dt":8.67},{"city":"Raleigh","state_name":"North Carolina","lat":35.7737,"lng":-78.63453,"zip":"27601","miles_from_dt":8.69},{"city":"Raleigh","state_name":"North Carolina","lat":35.77237,"lng":-78.63454,"zip":"27676","miles_from_dt":8.7},{"city":"Raleigh","state_name":"North Carolina","lat":35.78609,"lng":-78.63869,"zip":"27640","miles_from_dt":8.89},{"city":"Raleigh","state_name":"North Carolina","lat":35.77944,"lng":-78.63886,"zip":"27634","miles_from_dt":8.91},{"city":"Raleigh","state_name":"North Carolina","lat":35.8974,"lng":-78.56154,"zip":"27661","miles_from_dt":8.98},{"city":"Raleigh","state_name":"North Carolina","lat":35.77282,"lng":-78.63981,"zip":"27698","miles_from_dt":8.99},{"city":"Raleigh","state_name":"North Carolina","lat":35.74788,"lng":-78.63723,"zip":"27602","miles_from_dt":9.18},{"city":"Raleigh","state_name":"North Carolina","lat":35.80418,"lng":-78.64556,"zip":"27628","miles_from_dt":9.37},{"city":"Clayton","state_name":"North Carolina","lat":35.65,"lng":-78.46219,"zip":"27528","miles_from_dt":9.37},{"city":"Rolesville","state_name":"North Carolina","lat":35.92151,"lng":-78.4647,"zip":"27571","miles_from_dt":9.44},{"city":"Raleigh","state_name":"North Carolina","lat":35.8437,"lng":-78.63282,"zip":"27609","miles_from_dt":9.46},{"city":"Raleigh","state_name":"North Carolina","lat":35.84296,"lng":-78.63448,"zip":"27668","miles_from_dt":9.52},{"city":"Raleigh","state_name":"North Carolina","lat":35.81004,"lng":-78.64815,"zip":"27608","miles_from_dt":9.57},{"city":"Raleigh","state_name":"North Carolina","lat":35.84506,"lng":-78.63425,"zip":"27624","miles_from_dt":9.57},{"city":"Raleigh","state_name":"North Carolina","lat":35.85422,"lng":-78.6288,"zip":"27619","miles_from_dt":9.6},{"city":"Raleigh","state_name":"North Carolina","lat":35.79046,"lng":-78.65452,"zip":"27605","miles_from_dt":9.79},{"city":"Raleigh","state_name":"North Carolina","lat":35.78773,"lng":-78.66262,"zip":"27650","miles_from_dt":10.24},{"city":"Clayton","state_name":"North Carolina","lat":35.65767,"lng":-78.38336,"zip":"27527","miles_from_dt":10.34},{"city":"Zebulon","state_name":"North Carolina","lat":35.84034,"lng":-78.30303,"zip":"27597","miles_from_dt":10.67},{"city":"Garner","state_name":"North Carolina","lat":35.65048,"lng":-78.58167,"zip":"27529","miles_from_dt":10.89},{"city":"Raleigh","state_name":"North Carolina","lat":35.83428,"lng":-78.66649,"zip":"27690","miles_from_dt":10.98},{"city":"Raleigh","state_name":"North Carolina","lat":35.78558,"lng":-78.679,"zip":"27695","miles_from_dt":11.15},{"city":"Raleigh","state_name":"North Carolina","lat":35.89772,"lng":-78.636,"zip":"27615","miles_from_dt":11.68},{"city":"Raleigh","state_name":"North Carolina","lat":35.79269,"lng":-78.69105,"zip":"27636","miles_from_dt":11.84},{"city":"Clayton","state_name":"North Carolina","lat":35.61274,"lng":-78.47075,"zip":"27520","miles_from_dt":11.9},{"city":"Raleigh","state_name":"North Carolina","lat":35.8488,"lng":-78.69226,"zip":"27656","miles_from_dt":12.68},{"city":"Wake Forest","state_name":"North Carolina","lat":35.96735,"lng":-78.51782,"zip":"27588","miles_from_dt":12.74},{"city":"Raleigh","state_name":"North Carolina","lat":35.85068,"lng":-78.69267,"zip":"27622","miles_from_dt":12.75},{"city":"Raleigh","state_name":"North Carolina","lat":35.67064,"lng":-78.66373,"zip":"27699","miles_from_dt":12.98},{"city":"Raleigh","state_name":"North Carolina","lat":35.77201,"lng":-78.71378,"zip":"27627","miles_from_dt":13.14},{"city":"Raleigh","state_name":"North Carolina","lat":35.66408,"lng":-78.66186,"zip":"27603","miles_from_dt":13.18},{"city":"Raleigh","state_name":"North Carolina","lat":35.85034,"lng":-78.70387,"zip":"27612","miles_from_dt":13.33},{"city":"Raleigh","state_name":"North Carolina","lat":35.94739,"lng":-78.62059,"zip":"27614","miles_from_dt":13.67},{"city":"Raleigh","state_name":"North Carolina","lat":35.73991,"lng":-78.71833,"zip":"27606","miles_from_dt":13.73},{"city":"Wake Forest","state_name":"North Carolina","lat":35.98098,"lng":-78.54963,"zip":"27587","miles_from_dt":14.05},{"city":"Raleigh","state_name":"North Carolina","lat":35.82145,"lng":-78.72697,"zip":"27607","miles_from_dt":14.07},{"city":"Raleigh","state_name":"North Carolina","lat":35.72026,"lng":-78.73381,"zip":"27611","miles_from_dt":14.92},{"city":"Wilsons Mills","state_name":"North Carolina","lat":35.58579,"lng":-78.36231,"zip":"27593","miles_from_dt":15.27},{"city":"Youngsville","state_name":"North Carolina","lat":36.00906,"lng":-78.44448,"zip":"27596","miles_from_dt":15.57},{"city":"Middlesex","state_name":"North Carolina","lat":35.77941,"lng":-78.2,"zip":"27557","miles_from_dt":15.76},{"city":"Raleigh","state_name":"North Carolina","lat":35.92633,"lng":-78.71183,"zip":"27613","miles_from_dt":16.23},{"city":"Raleigh","state_name":"North Carolina","lat":35.90434,"lng":-78.74241,"zip":"27675","miles_from_dt":16.85},{"city":"Cary","state_name":"North Carolina","lat":35.72927,"lng":-78.7736,"zip":"27518","miles_from_dt":16.92},{"city":"Cary","state_name":"North Carolina","lat":35.76324,"lng":-78.78437,"zip":"27511","miles_from_dt":17.14},{"city":"Bunn","state_name":"North Carolina","lat":35.95882,"lng":-78.25105,"zip":"27508","miles_from_dt":17.58},{"city":"Cary","state_name":"North Carolina","lat":35.76797,"lng":-78.79898,"zip":"27512","miles_from_dt":17.93},{"city":"Cary","state_name":"North Carolina","lat":35.80269,"lng":-78.80159,"zip":"27513","miles_from_dt":18.08},{"city":"Raleigh","state_name":"North Carolina","lat":35.85907,"lng":-78.79023,"zip":"27623","miles_from_dt":18.13},{"city":"Raleigh","state_name":"North Carolina","lat":35.90723,"lng":-78.77221,"zip":"27617","miles_from_dt":18.41},{"city":"Selma","state_name":"North Carolina","lat":35.58297,"lng":-78.25776,"zip":"27576","miles_from_dt":18.74},{"city":"Willow Spring","state_name":"North Carolina","lat":35.55922,"lng":-78.67164,"zip":"27592","miles_from_dt":18.93},{"city":"Morrisville","state_name":"North Carolina","lat":35.85845,"lng":-78.82544,"zip":"27560","miles_from_dt":20.02},{"city":"Apex","state_name":"North Carolina","lat":35.67713,"lng":-78.81269,"zip":"27539","miles_from_dt":20.11},{"city":"Smithfield","state_name":"North Carolina","lat":35.49166,"lng":-78.3446,"zip":"27577","miles_from_dt":21.63},{"city":"Micro","state_name":"North Carolina","lat":35.56242,"lng":-78.20353,"zip":"27555","miles_from_dt":21.87},{"city":"Bailey","state_name":"North Carolina","lat":35.80915,"lng":-78.0917,"zip":"27807","miles_from_dt":21.9},{"city":"Durham","state_name":"North Carolina","lat":35.96299,"lng":-78.80452,"zip":"27703","miles_from_dt":21.93},{"city":"Sims","state_name":"North Carolina","lat":35.73656,"lng":-78.08912,"zip":"27880","miles_from_dt":22.24},{"city":"Kenly","state_name":"North Carolina","lat":35.61776,"lng":-78.1377,"zip":"27542","miles_from_dt":22.46},{"city":"Franklinton","state_name":"North Carolina","lat":36.11721,"lng":-78.46997,"zip":"27525","miles_from_dt":22.9},{"city":"Cary","state_name":"North Carolina","lat":35.80815,"lng":-78.88711,"zip":"27519","miles_from_dt":22.9},{"city":"Spring Hope","state_name":"North Carolina","lat":35.94222,"lng":-78.11825,"zip":"27882","miles_from_dt":23.03},{"city":"Pine Level","state_name":"North Carolina","lat":35.51132,"lng":-78.24299,"zip":"27568","miles_from_dt":23.13},{"city":"Durham","state_name":"North Carolina","lat":35.91441,"lng":-78.86666,"zip":"27709","miles_from_dt":23.44},{"city":"Durham","state_name":"North Carolina","lat":35.9162,"lng":-78.86747,"zip":"27711","miles_from_dt":23.53},{"city":"Angier","state_name":"North Carolina","lat":35.48684,"lng":-78.68419,"zip":"27501","miles_from_dt":23.55},{"city":"Apex","state_name":"North Carolina","lat":35.72123,"lng":-78.90828,"zip":"27502","miles_from_dt":24.44},{"city":"Creedmoor","state_name":"North Carolina","lat":36.10565,"lng":-78.67676,"zip":"27522","miles_from_dt":24.69},{"city":"Holly Springs","state_name":"North Carolina","lat":35.6103,"lng":-78.87332,"zip":"27540","miles_from_dt":25.17},{"city":"Louisburg","state_name":"North Carolina","lat":36.10439,"lng":-78.24282,"zip":"27549","miles_from_dt":25.73},{"city":"Fuquay Varina","state_name":"North Carolina","lat":35.54179,"lng":-78.8274,"zip":"27526","miles_from_dt":25.74},{"city":"Durham","state_name":"North Carolina","lat":36.04088,"lng":-78.83007,"zip":"27704","miles_from_dt":26.37},{"city":"Durham","state_name":"North Carolina","lat":35.88401,"lng":-78.936,"zip":"27713","miles_from_dt":26.47},{"city":"Apex","state_name":"North Carolina","lat":35.77102,"lng":-78.95367,"zip":"27523","miles_from_dt":26.6},{"city":"Benson","state_name":"North Carolina","lat":35.39963,"lng":-78.51863,"zip":"27504","miles_from_dt":26.66},{"city":"Lucama","state_name":"North Carolina","lat":35.63965,"lng":-78.02739,"zip":"27851","miles_from_dt":27.38},{"city":"Coats","state_name":"North Carolina","lat":35.41298,"lng":-78.65847,"zip":"27521","miles_from_dt":27.55},{"city":"Four Oaks","state_name":"North Carolina","lat":35.39392,"lng":-78.37948,"zip":"27524","miles_from_dt":27.56},{"city":"Durham","state_name":"North Carolina","lat":35.99697,"lng":-78.89956,"zip":"27722","miles_from_dt":27.68},{"city":"Durham","state_name":"North Carolina","lat":35.99858,"lng":-78.89872,"zip":"27701","miles_from_dt":27.7},{"city":"Kipling","state_name":"North Carolina","lat":35.48105,"lng":-78.82165,"zip":"27543","miles_from_dt":28.43},{"city":"Wilson","state_name":"North Carolina","lat":35.79303,"lng":-77.97399,"zip":"27896","miles_from_dt":28.46},{"city":"Kittrell","state_name":"North Carolina","lat":36.20018,"lng":-78.44097,"zip":"27544","miles_from_dt":28.7},{"city":"Butner","state_name":"North Carolina","lat":36.12889,"lng":-78.77604,"zip":"27509","miles_from_dt":28.92},{"city":"Durham","state_name":"North Carolina","lat":35.95623,"lng":-78.95163,"zip":"27717","miles_from_dt":28.95},{"city":"Durham","state_name":"North Carolina","lat":36.05251,"lng":-78.87949,"zip":"27702","miles_from_dt":28.99},{"city":"Durham","state_name":"North Carolina","lat":35.95463,"lng":-78.95451,"zip":"27707","miles_from_dt":29.06},{"city":"Durham","state_name":"North Carolina","lat":35.99683,"lng":-78.93799,"zip":"27706","miles_from_dt":29.53},{"city":"Buies Creek","state_name":"North Carolina","lat":35.40875,"lng":-78.73896,"zip":"27506","miles_from_dt":29.75},{"city":"Princeton","state_name":"North Carolina","lat":35.43306,"lng":-78.17432,"zip":"27569","miles_from_dt":29.77},{"city":"Durham","state_name":"North Carolina","lat":36.00177,"lng":-78.94072,"zip":"27710","miles_from_dt":29.83},{"city":"New Hill","state_name":"North Carolina","lat":35.64157,"lng":-78.98141,"zip":"27562","miles_from_dt":29.86},{"city":"Durham","state_name":"North Carolina","lat":36.00009,"lng":-78.94305,"zip":"27708","miles_from_dt":29.89}],"targetCityZipCode":"27545","targetCityState":"North Carolina"},"__N_SSG":true}