{"pageProps":{"stateName":"North-carolina","cityName":"margarettsville","nearbyCities":[{"city":"Branchville","state_name":"Virginia","lat":36.58693,"lng":-77.28557,"zip":"23828","miles_from_dt":4.93},{"city":"Seaboard","state_name":"North Carolina","lat":36.48015,"lng":-77.40065,"zip":"27876","miles_from_dt":5.91},{"city":"Severn","state_name":"North Carolina","lat":36.51883,"lng":-77.19219,"zip":"27877","miles_from_dt":6.27},{"city":"Pendleton","state_name":"North Carolina","lat":36.49264,"lng":-77.18906,"zip":"27862","miles_from_dt":6.67},{"city":"Conway","state_name":"North Carolina","lat":36.4154,"lng":-77.24431,"zip":"27820","miles_from_dt":7.79},{"city":"Boykins","state_name":"Virginia","lat":36.61491,"lng":-77.20724,"zip":"23827","miles_from_dt":8.66},{"city":"Drewryville","state_name":"Virginia","lat":36.67032,"lng":-77.3358,"zip":"23844","miles_from_dt":10.7},{"city":"Potecasi","state_name":"North Carolina","lat":36.36107,"lng":-77.23816,"zip":"27867","miles_from_dt":11.39},{"city":"Pleasant Hill","state_name":"North Carolina","lat":36.51832,"lng":-77.51577,"zip":"27866","miles_from_dt":11.74},{"city":"Jackson","state_name":"North Carolina","lat":36.37403,"lng":-77.43331,"zip":"27845","miles_from_dt":12.19},{"city":"Newsoms","state_name":"Virginia","lat":36.60761,"lng":-77.09803,"zip":"23874","miles_from_dt":13.09},{"city":"Murfreesboro","state_name":"North Carolina","lat":36.42171,"lng":-77.08432,"zip":"27855","miles_from_dt":13.94},{"city":"Woodland","state_name":"North Carolina","lat":36.3246,"lng":-77.20969,"zip":"27897","miles_from_dt":14.3},{"city":"Garysburg","state_name":"North Carolina","lat":36.45614,"lng":-77.56574,"zip":"27831","miles_from_dt":15.12},{"city":"Capron","state_name":"Virginia","lat":36.73393,"lng":-77.22525,"zip":"23829","miles_from_dt":15.59},{"city":"Como","state_name":"North Carolina","lat":36.50275,"lng":-77.01394,"zip":"27818","miles_from_dt":16.22},{"city":"Skippers","state_name":"Virginia","lat":36.59224,"lng":-77.59547,"zip":"23879","miles_from_dt":16.97},{"city":"Emporia","state_name":"Virginia","lat":36.668,"lng":-77.54972,"zip":"23847","miles_from_dt":17.13},{"city":"Rich Square","state_name":"North Carolina","lat":36.26631,"lng":-77.31665,"zip":"27869","miles_from_dt":17.31},{"city":"Weldon","state_name":"North Carolina","lat":36.41505,"lng":-77.59194,"zip":"27890","miles_from_dt":17.47},{"city":"Jarratt","state_name":"Virginia","lat":36.75241,"lng":-77.50016,"zip":"23870","miles_from_dt":19.52},{"city":"Courtland","state_name":"Virginia","lat":36.75816,"lng":-77.08753,"zip":"23837","miles_from_dt":20.54},{"city":"Tillery","state_name":"North Carolina","lat":36.25427,"lng":-77.48761,"zip":"27887","miles_from_dt":20.79},{"city":"Halifax","state_name":"North Carolina","lat":36.28818,"lng":-77.55009,"zip":"27839","miles_from_dt":20.88},{"city":"Franklin","state_name":"Virginia","lat":36.6521,"lng":-76.95776,"zip":"23851","miles_from_dt":21.43},{"city":"Yale","state_name":"Virginia","lat":36.83399,"lng":-77.28234,"zip":"23897","miles_from_dt":21.88},{"city":"Roxobel","state_name":"North Carolina","lat":36.20096,"lng":-77.24601,"zip":"27872","miles_from_dt":22.05},{"city":"Winton","state_name":"North Carolina","lat":36.3891,"lng":-76.92816,"zip":"27986","miles_from_dt":22.77},{"city":"Gaston","state_name":"North Carolina","lat":36.51262,"lng":-77.72178,"zip":"27832","miles_from_dt":23.21},{"city":"Jarratt","state_name":"Virginia","lat":36.82063,"lng":-77.4878,"zip":"23867","miles_from_dt":23.26},{"city":"Kelford","state_name":"North Carolina","lat":36.18597,"lng":-77.20738,"zip":"27847","miles_from_dt":23.47},{"city":"Roanoke Rapids","state_name":"North Carolina","lat":36.43053,"lng":-77.71828,"zip":"27870","miles_from_dt":23.78},{"city":"Ahoskie","state_name":"North Carolina","lat":36.27996,"lng":-76.99281,"zip":"27910","miles_from_dt":23.88},{"city":"Aulander","state_name":"North Carolina","lat":36.20863,"lng":-77.08861,"zip":"27805","miles_from_dt":24.45},{"city":"Eure","state_name":"North Carolina","lat":36.43026,"lng":-76.85962,"zip":"27935","miles_from_dt":25.51},{"city":"Sedley","state_name":"Virginia","lat":36.8291,"lng":-77.02065,"zip":"23878","miles_from_dt":26.68},{"city":"Scotland Neck","state_name":"North Carolina","lat":36.12874,"lng":-77.41037,"zip":"27874","miles_from_dt":27.42},{"city":"Sussex","state_name":"Virginia","lat":36.91733,"lng":-77.28011,"zip":"23884","miles_from_dt":27.63},{"city":"Roduco","state_name":"North Carolina","lat":36.4633,"lng":-76.80259,"zip":"27969","miles_from_dt":28.21},{"city":"Valentines","state_name":"Virginia","lat":36.56762,"lng":-77.81658,"zip":"23887","miles_from_dt":28.68},{"city":"Cofield","state_name":"North Carolina","lat":36.32118,"lng":-76.84837,"zip":"27922","miles_from_dt":28.81},{"city":"Stony Creek","state_name":"Virginia","lat":36.92591,"lng":-77.41543,"zip":"23882","miles_from_dt":28.85},{"city":"Freeman","state_name":"Virginia","lat":36.78735,"lng":-77.70291,"zip":"23856","miles_from_dt":28.92},{"city":"Suffolk","state_name":"Virginia","lat":36.63533,"lng":-76.80256,"zip":"23437","miles_from_dt":29.1},{"city":"Gates","state_name":"North Carolina","lat":36.50453,"lng":-76.77726,"zip":"27937","miles_from_dt":29.38},{"city":"Carrsville","state_name":"Virginia","lat":36.73861,"lng":-76.84289,"zip":"23315","miles_from_dt":29.87}],"targetCityZipCode":"27853","targetCityState":"North Carolina"},"__N_SSG":true}