{"pageProps":{"stateName":"North-carolina","cityName":"princeton","nearbyCities":[{"city":"Pine Level","state_name":"North Carolina","lat":35.51132,"lng":-78.24299,"zip":"27568","miles_from_dt":6.64},{"city":"Goldsboro","state_name":"North Carolina","lat":35.36825,"lng":-78.07511,"zip":"27530","miles_from_dt":7.16},{"city":"Goldsboro","state_name":"North Carolina","lat":35.38746,"lng":-78.03896,"zip":"27533","miles_from_dt":8.26},{"city":"Micro","state_name":"North Carolina","lat":35.56242,"lng":-78.20353,"zip":"27555","miles_from_dt":9.07},{"city":"Smithfield","state_name":"North Carolina","lat":35.49166,"lng":-78.3446,"zip":"27577","miles_from_dt":10.42},{"city":"Selma","state_name":"North Carolina","lat":35.58297,"lng":-78.25776,"zip":"27576","miles_from_dt":11.35},{"city":"Four Oaks","state_name":"North Carolina","lat":35.39392,"lng":-78.37948,"zip":"27524","miles_from_dt":11.89},{"city":"Pikeville","state_name":"North Carolina","lat":35.48739,"lng":-77.96993,"zip":"27863","miles_from_dt":12.12},{"city":"Kenly","state_name":"North Carolina","lat":35.61776,"lng":-78.1377,"zip":"27542","miles_from_dt":12.9},{"city":"Goldsboro","state_name":"North Carolina","lat":35.38118,"lng":-77.9534,"zip":"27532","miles_from_dt":12.97},{"city":"Goldsboro","state_name":"North Carolina","lat":35.34362,"lng":-77.96743,"zip":"27531","miles_from_dt":13.21},{"city":"Dudley","state_name":"North Carolina","lat":35.28292,"lng":-78.01239,"zip":"28333","miles_from_dt":13.81},{"city":"Wilsons Mills","state_name":"North Carolina","lat":35.58579,"lng":-78.36231,"zip":"27593","miles_from_dt":14.94},{"city":"Fremont","state_name":"North Carolina","lat":35.55557,"lng":-77.95224,"zip":"27830","miles_from_dt":15.1},{"city":"Goldsboro","state_name":"North Carolina","lat":35.37153,"lng":-77.90646,"zip":"27534","miles_from_dt":15.7},{"city":"Lucama","state_name":"North Carolina","lat":35.63965,"lng":-78.02739,"zip":"27851","miles_from_dt":16.47},{"city":"Newton Grove","state_name":"North Carolina","lat":35.22974,"lng":-78.36317,"zip":"28366","miles_from_dt":17.62},{"city":"Mount Olive","state_name":"North Carolina","lat":35.17807,"lng":-78.05827,"zip":"28365","miles_from_dt":18.76},{"city":"Black Creek","state_name":"North Carolina","lat":35.63083,"lng":-77.93587,"zip":"27813","miles_from_dt":19.14},{"city":"Clayton","state_name":"North Carolina","lat":35.65767,"lng":-78.38336,"zip":"27527","miles_from_dt":19.46},{"city":"Benson","state_name":"North Carolina","lat":35.39963,"lng":-78.51863,"zip":"27504","miles_from_dt":19.57},{"city":"Calypso","state_name":"North Carolina","lat":35.15335,"lng":-78.10425,"zip":"28325","miles_from_dt":19.69},{"city":"Clayton","state_name":"North Carolina","lat":35.61274,"lng":-78.47075,"zip":"27520","miles_from_dt":20.8},{"city":"Sims","state_name":"North Carolina","lat":35.73656,"lng":-78.08912,"zip":"27880","miles_from_dt":21.47},{"city":"Faison","state_name":"North Carolina","lat":35.11919,"lng":-78.17577,"zip":"28341","miles_from_dt":21.64},{"city":"Clayton","state_name":"North Carolina","lat":35.65,"lng":-78.46219,"zip":"27528","miles_from_dt":22.06},{"city":"La Grange","state_name":"North Carolina","lat":35.32204,"lng":-77.78087,"zip":"28551","miles_from_dt":23.5},{"city":"Wilson","state_name":"North Carolina","lat":35.69351,"lng":-77.90458,"zip":"27893","miles_from_dt":23.52},{"city":"Stantonsburg","state_name":"North Carolina","lat":35.59141,"lng":-77.80095,"zip":"27883","miles_from_dt":23.71},{"city":"Seven Springs","state_name":"North Carolina","lat":35.20017,"lng":-77.86332,"zip":"28578","miles_from_dt":23.8},{"city":"Middlesex","state_name":"North Carolina","lat":35.77941,"lng":-78.2,"zip":"27557","miles_from_dt":23.92},{"city":"Wilson","state_name":"North Carolina","lat":35.73253,"lng":-77.92592,"zip":"27894","miles_from_dt":24.94},{"city":"Dunn","state_name":"North Carolina","lat":35.2681,"lng":-78.57051,"zip":"28334","miles_from_dt":25.1},{"city":"Dunn","state_name":"North Carolina","lat":35.3097,"lng":-78.6082,"zip":"28335","miles_from_dt":25.93},{"city":"Wilson","state_name":"North Carolina","lat":35.75993,"lng":-77.94339,"zip":"27895","miles_from_dt":26.02},{"city":"Bailey","state_name":"North Carolina","lat":35.80915,"lng":-78.0917,"zip":"27807","miles_from_dt":26.34},{"city":"Wendell","state_name":"North Carolina","lat":35.7859,"lng":-78.38638,"zip":"27591","miles_from_dt":27.1},{"city":"Saratoga","state_name":"North Carolina","lat":35.65331,"lng":-77.77606,"zip":"27873","miles_from_dt":27.1},{"city":"Wilson","state_name":"North Carolina","lat":35.79303,"lng":-77.97399,"zip":"27896","miles_from_dt":27.26},{"city":"Coats","state_name":"North Carolina","lat":35.41298,"lng":-78.65847,"zip":"27521","miles_from_dt":27.36},{"city":"Garner","state_name":"North Carolina","lat":35.65048,"lng":-78.58167,"zip":"27529","miles_from_dt":27.41},{"city":"Snow Hill","state_name":"North Carolina","lat":35.45116,"lng":-77.68053,"zip":"28580","miles_from_dt":27.89},{"city":"Walstonburg","state_name":"North Carolina","lat":35.59589,"lng":-77.70448,"zip":"27888","miles_from_dt":28.76},{"city":"Angier","state_name":"North Carolina","lat":35.48684,"lng":-78.68419,"zip":"27501","miles_from_dt":29},{"city":"Zebulon","state_name":"North Carolina","lat":35.84034,"lng":-78.30303,"zip":"27597","miles_from_dt":29},{"city":"Willow Spring","state_name":"North Carolina","lat":35.55922,"lng":-78.67164,"zip":"27592","miles_from_dt":29.36},{"city":"Knightdale","state_name":"North Carolina","lat":35.78513,"lng":-78.48045,"zip":"27545","miles_from_dt":29.77},{"city":"Raleigh","state_name":"North Carolina","lat":35.7435,"lng":-78.54644,"zip":"27610","miles_from_dt":29.95}],"targetCityZipCode":"27569","targetCityState":"North Carolina"},"__N_SSG":true}