{"pageProps":{"stateName":"North-carolina","cityName":"rodanthe","nearbyCities":[{"city":"Waves","state_name":"North Carolina","lat":35.5635,"lng":-75.46466,"zip":"27982","miles_from_dt":8.55},{"city":"Salvo","state_name":"North Carolina","lat":35.55427,"lng":-75.46986,"zip":"27972","miles_from_dt":9.13},{"city":"Wanchese","state_name":"North Carolina","lat":35.85602,"lng":-75.64041,"zip":"27981","miles_from_dt":14.42},{"city":"Nags Head","state_name":"North Carolina","lat":35.88566,"lng":-75.59641,"zip":"27959","miles_from_dt":15},{"city":"Stumpy Point","state_name":"North Carolina","lat":35.66438,"lng":-75.76959,"zip":"27978","miles_from_dt":15.69},{"city":"Manteo","state_name":"North Carolina","lat":35.91056,"lng":-75.68202,"zip":"27954","miles_from_dt":18.84},{"city":"Avon","state_name":"North Carolina","lat":35.40794,"lng":-75.49465,"zip":"27915","miles_from_dt":19.14},{"city":"Manns Harbor","state_name":"North Carolina","lat":35.79298,"lng":-75.8685,"zip":"27953","miles_from_dt":22.43},{"city":"Kill Devil Hills","state_name":"North Carolina","lat":36.01761,"lng":-75.68663,"zip":"27948","miles_from_dt":25.37}],"targetCityZipCode":"27968","targetCityState":"North Carolina"},"__N_SSG":true}