{"pageProps":{"stateName":"North-carolina","cityName":"ronda","nearbyCities":[{"city":"Roaring River","state_name":"North Carolina","lat":36.22538,"lng":-80.99443,"zip":"28669","miles_from_dt":4.51},{"city":"Jonesville","state_name":"North Carolina","lat":36.22433,"lng":-80.81628,"zip":"28642","miles_from_dt":6.29},{"city":"North Wilkesboro","state_name":"North Carolina","lat":36.20329,"lng":-81.07659,"zip":"28656","miles_from_dt":8.61},{"city":"Hamptonville","state_name":"North Carolina","lat":36.1047,"lng":-80.81272,"zip":"27020","miles_from_dt":8.76},{"city":"North Wilkesboro","state_name":"North Carolina","lat":36.16647,"lng":-81.07913,"zip":"28659","miles_from_dt":8.96},{"city":"Elkin","state_name":"North Carolina","lat":36.30863,"lng":-80.83612,"zip":"28621","miles_from_dt":9.21},{"city":"State Road","state_name":"North Carolina","lat":36.3283,"lng":-80.85722,"zip":"28676","miles_from_dt":9.89},{"city":"Union Grove","state_name":"North Carolina","lat":36.04319,"lng":-80.93345,"zip":"28689","miles_from_dt":10.49},{"city":"Traphill","state_name":"North Carolina","lat":36.34729,"lng":-81.04097,"zip":"28685","miles_from_dt":12.4},{"city":"Boonville","state_name":"North Carolina","lat":36.21649,"lng":-80.69728,"zip":"27011","miles_from_dt":12.69},{"city":"Thurmond","state_name":"North Carolina","lat":36.38835,"lng":-80.91219,"zip":"28683","miles_from_dt":13.34},{"city":"Wilkesboro","state_name":"North Carolina","lat":36.13666,"lng":-81.16317,"zip":"28697","miles_from_dt":14.03},{"city":"Hays","state_name":"North Carolina","lat":36.33297,"lng":-81.12603,"zip":"28635","miles_from_dt":14.8},{"city":"Roaring Gap","state_name":"North Carolina","lat":36.40698,"lng":-80.99024,"zip":"28668","miles_from_dt":15.09},{"city":"Moravian Falls","state_name":"North Carolina","lat":36.06338,"lng":-81.15003,"zip":"28654","miles_from_dt":15.62},{"city":"Dobson","state_name":"North Carolina","lat":36.38141,"lng":-80.76052,"zip":"27017","miles_from_dt":15.72},{"city":"Olin","state_name":"North Carolina","lat":35.9689,"lng":-80.85785,"zip":"28660","miles_from_dt":16.01},{"city":"Yadkinville","state_name":"North Carolina","lat":36.11382,"lng":-80.63586,"zip":"27055","miles_from_dt":17},{"city":"Harmony","state_name":"North Carolina","lat":35.97052,"lng":-80.75528,"zip":"28634","miles_from_dt":18.1},{"city":"McGrady","state_name":"North Carolina","lat":36.33198,"lng":-81.20326,"zip":"28649","miles_from_dt":18.28},{"city":"Glade Valley","state_name":"North Carolina","lat":36.4528,"lng":-81.01294,"zip":"28627","miles_from_dt":18.47},{"city":"Hiddenite","state_name":"North Carolina","lat":35.94241,"lng":-81.06589,"zip":"28636","miles_from_dt":19.17},{"city":"Siloam","state_name":"North Carolina","lat":36.31178,"lng":-80.57786,"zip":"27047","miles_from_dt":20.88},{"city":"Millers Creek","state_name":"North Carolina","lat":36.27241,"lng":-81.28496,"zip":"28651","miles_from_dt":20.92},{"city":"East Bend","state_name":"North Carolina","lat":36.1978,"lng":-80.52096,"zip":"27018","miles_from_dt":22.46},{"city":"Ararat","state_name":"North Carolina","lat":36.38799,"lng":-80.59144,"zip":"27007","miles_from_dt":22.78},{"city":"Statesville","state_name":"North Carolina","lat":35.86487,"lng":-80.88709,"zip":"28625","miles_from_dt":22.85},{"city":"Lowgap","state_name":"North Carolina","lat":36.52399,"lng":-80.84027,"zip":"27024","miles_from_dt":23.14},{"city":"Ennice","state_name":"North Carolina","lat":36.53088,"lng":-80.97185,"zip":"28623","miles_from_dt":23.31},{"city":"Mount Airy","state_name":"North Carolina","lat":36.44556,"lng":-80.63361,"zip":"27031","miles_from_dt":23.64},{"city":"Boomer","state_name":"North Carolina","lat":36.05346,"lng":-81.31413,"zip":"28606","miles_from_dt":23.97},{"city":"Sparta","state_name":"North Carolina","lat":36.50642,"lng":-81.13546,"zip":"28675","miles_from_dt":24.53},{"city":"Scotts","state_name":"North Carolina","lat":35.84426,"lng":-81.00715,"zip":"28699","miles_from_dt":24.64},{"city":"Turnersburg","state_name":"North Carolina","lat":35.83074,"lng":-80.8984,"zip":"28688","miles_from_dt":25.16},{"city":"Taylorsville","state_name":"North Carolina","lat":35.92185,"lng":-81.22151,"zip":"28681","miles_from_dt":25.19},{"city":"Laurel Springs","state_name":"North Carolina","lat":36.43134,"lng":-81.26758,"zip":"28644","miles_from_dt":25.21},{"city":"Purlear","state_name":"North Carolina","lat":36.20969,"lng":-81.37392,"zip":"28665","miles_from_dt":25.23},{"city":"Stony Point","state_name":"North Carolina","lat":35.83586,"lng":-81.06151,"zip":"28678","miles_from_dt":25.96},{"city":"Mount Airy","state_name":"North Carolina","lat":36.48836,"lng":-80.63013,"zip":"27030","miles_from_dt":25.99},{"city":"Toast","state_name":"North Carolina","lat":36.49624,"lng":-80.63293,"zip":"27049","miles_from_dt":26.32},{"city":"Glendale Springs","state_name":"North Carolina","lat":36.34196,"lng":-81.36423,"zip":"28629","miles_from_dt":26.65},{"city":"Mocksville","state_name":"North Carolina","lat":35.92433,"lng":-80.5742,"zip":"27028","miles_from_dt":27.01},{"city":"Lewisville","state_name":"North Carolina","lat":36.09103,"lng":-80.45101,"zip":"27023","miles_from_dt":27.34},{"city":"Ferguson","state_name":"North Carolina","lat":36.11971,"lng":-81.41327,"zip":"28624","miles_from_dt":27.91},{"city":"Lambsburg","state_name":"Virginia","lat":36.58081,"lng":-80.76591,"zip":"24351","miles_from_dt":28},{"city":"Pinnacle","state_name":"North Carolina","lat":36.33709,"lng":-80.44917,"zip":"27043","miles_from_dt":28.2},{"city":"Pilot Mountain","state_name":"North Carolina","lat":36.41539,"lng":-80.48465,"zip":"27041","miles_from_dt":28.79},{"city":"Statesville","state_name":"North Carolina","lat":35.77647,"lng":-80.91051,"zip":"28687","miles_from_dt":28.87},{"city":"Tobaccoville","state_name":"North Carolina","lat":36.23608,"lng":-80.40116,"zip":"27050","miles_from_dt":29.28},{"city":"Pfafftown","state_name":"North Carolina","lat":36.16869,"lng":-80.38969,"zip":"27040","miles_from_dt":29.86}],"targetCityZipCode":"28670","targetCityState":"North Carolina"},"__N_SSG":true}