{"pageProps":{"stateName":"North-carolina","cityName":"rosman","nearbyCities":[{"city":"Brevard","state_name":"North Carolina","lat":35.17324,"lng":-82.76711,"zip":"28712","miles_from_dt":4.6},{"city":"Lake Toxaway","state_name":"North Carolina","lat":35.15185,"lng":-82.9249,"zip":"28747","miles_from_dt":5.05},{"city":"Balsam Grove","state_name":"North Carolina","lat":35.27105,"lng":-82.85979,"zip":"28708","miles_from_dt":9.17},{"city":"Sapphire","state_name":"North Carolina","lat":35.08976,"lng":-82.99791,"zip":"28774","miles_from_dt":9.73},{"city":"Sunset","state_name":"South Carolina","lat":34.98297,"lng":-82.84727,"zip":"29685","miles_from_dt":10.79},{"city":"Cedar Mountain","state_name":"North Carolina","lat":35.16614,"lng":-82.63108,"zip":"28718","miles_from_dt":11.81},{"city":"Cleveland","state_name":"South Carolina","lat":35.07754,"lng":-82.63152,"zip":"29635","miles_from_dt":12.4},{"city":"Tuckasegee","state_name":"North Carolina","lat":35.24906,"lng":-83.02,"zip":"28783","miles_from_dt":12.82},{"city":"Pisgah Forest","state_name":"North Carolina","lat":35.30437,"lng":-82.70925,"zip":"28768","miles_from_dt":13.48},{"city":"Glenville","state_name":"North Carolina","lat":35.18039,"lng":-83.0838,"zip":"28736","miles_from_dt":14.25},{"city":"Penrose","state_name":"North Carolina","lat":35.24945,"lng":-82.61923,"zip":"28766","miles_from_dt":14.48},{"city":"Pickens","state_name":"South Carolina","lat":34.94071,"lng":-82.72057,"zip":"29671","miles_from_dt":15.2},{"city":"Cashiers","state_name":"North Carolina","lat":35.07131,"lng":-83.09458,"zip":"28717","miles_from_dt":15.32},{"city":"Salem","state_name":"South Carolina","lat":34.93326,"lng":-82.96006,"zip":"29676","miles_from_dt":15.82},{"city":"Marietta","state_name":"South Carolina","lat":35.06706,"lng":-82.53852,"zip":"29661","miles_from_dt":17.63},{"city":"Etowah","state_name":"North Carolina","lat":35.31961,"lng":-82.60283,"zip":"28729","miles_from_dt":18.17},{"city":"Tamassee","state_name":"South Carolina","lat":34.92858,"lng":-83.04541,"zip":"29686","miles_from_dt":18.72},{"city":"Cullowhee","state_name":"North Carolina","lat":35.27776,"lng":-83.12195,"zip":"28723","miles_from_dt":18.73},{"city":"Hendersonville","state_name":"North Carolina","lat":35.2719,"lng":-82.5419,"zip":"28739","miles_from_dt":19.04},{"city":"Zirconia","state_name":"North Carolina","lat":35.20036,"lng":-82.49507,"zip":"28790","miles_from_dt":19.81},{"city":"Horse Shoe","state_name":"North Carolina","lat":35.39486,"lng":-82.65436,"zip":"28742","miles_from_dt":20.43},{"city":"Canton","state_name":"North Carolina","lat":35.4358,"lng":-82.86126,"zip":"28716","miles_from_dt":20.49},{"city":"Slater","state_name":"South Carolina","lat":35.03032,"lng":-82.49306,"zip":"29683","miles_from_dt":20.89},{"city":"Six Mile","state_name":"South Carolina","lat":34.83295,"lng":-82.84701,"zip":"29682","miles_from_dt":21.12},{"city":"Highlands","state_name":"North Carolina","lat":35.06614,"lng":-83.21053,"zip":"28741","miles_from_dt":21.75},{"city":"Mills River","state_name":"North Carolina","lat":35.38348,"lng":-82.58431,"zip":"28759","miles_from_dt":22.08},{"city":"Balsam","state_name":"North Carolina","lat":35.39873,"lng":-83.0662,"zip":"28707","miles_from_dt":22.08},{"city":"Easley","state_name":"South Carolina","lat":34.88706,"lng":-82.57725,"zip":"29640","miles_from_dt":22.79},{"city":"Tuxedo","state_name":"North Carolina","lat":35.23229,"lng":-82.43118,"zip":"28784","miles_from_dt":23.85},{"city":"Hendersonville","state_name":"North Carolina","lat":35.35674,"lng":-82.508,"zip":"28791","miles_from_dt":23.9},{"city":"Waynesville","state_name":"North Carolina","lat":35.46272,"lng":-82.99294,"zip":"28786","miles_from_dt":23.97},{"city":"Hendersonville","state_name":"North Carolina","lat":35.32798,"lng":-82.47818,"zip":"28793","miles_from_dt":24.11},{"city":"Travelers Rest","state_name":"South Carolina","lat":35.06008,"lng":-82.42136,"zip":"29690","miles_from_dt":24.18},{"city":"Easley","state_name":"South Carolina","lat":34.84368,"lng":-82.59507,"zip":"29641","miles_from_dt":24.57},{"city":"Hazelwood","state_name":"North Carolina","lat":35.47679,"lng":-83.00293,"zip":"28738","miles_from_dt":25.08},{"city":"Greenville","state_name":"South Carolina","lat":34.93178,"lng":-82.47194,"zip":"29610","miles_from_dt":25.16},{"city":"Mountain Home","state_name":"North Carolina","lat":35.37489,"lng":-82.49569,"zip":"28758","miles_from_dt":25.23},{"city":"East Flat Rock","state_name":"North Carolina","lat":35.282,"lng":-82.41752,"zip":"28726","miles_from_dt":25.7},{"city":"Naples","state_name":"North Carolina","lat":35.39261,"lng":-82.503,"zip":"28760","miles_from_dt":25.73},{"city":"Sylva","state_name":"North Carolina","lat":35.3558,"lng":-83.20962,"zip":"28779","miles_from_dt":25.82},{"city":"Greenville","state_name":"South Carolina","lat":34.91262,"lng":-82.4666,"zip":"29617","miles_from_dt":26.18},{"city":"Webster","state_name":"North Carolina","lat":35.35044,"lng":-83.22266,"zip":"28788","miles_from_dt":26.22},{"city":"Norris","state_name":"South Carolina","lat":34.76446,"lng":-82.75655,"zip":"29667","miles_from_dt":26.24},{"city":"Mountain Rest","state_name":"South Carolina","lat":34.86393,"lng":-83.15991,"zip":"29664","miles_from_dt":26.37},{"city":"Candler","state_name":"North Carolina","lat":35.51247,"lng":-82.71196,"zip":"28715","miles_from_dt":26.68},{"city":"Arden","state_name":"North Carolina","lat":35.46305,"lng":-82.57142,"zip":"28704","miles_from_dt":26.9},{"city":"West Union","state_name":"South Carolina","lat":34.77458,"lng":-83.00771,"zip":"29696","miles_from_dt":26.94},{"city":"Greenville","state_name":"South Carolina","lat":34.9257,"lng":-82.4384,"zip":"29613","miles_from_dt":26.98},{"city":"Liberty","state_name":"South Carolina","lat":34.76713,"lng":-82.68941,"zip":"29657","miles_from_dt":26.99},{"city":"Seneca","state_name":"South Carolina","lat":34.75036,"lng":-82.94257,"zip":"29672","miles_from_dt":27.47},{"city":"Lake Junaluska","state_name":"North Carolina","lat":35.52524,"lng":-82.97152,"zip":"28745","miles_from_dt":27.67},{"city":"Central","state_name":"South Carolina","lat":34.73882,"lng":-82.79646,"zip":"29630","miles_from_dt":27.7},{"city":"Walhalla","state_name":"South Carolina","lat":34.78547,"lng":-83.07669,"zip":"29691","miles_from_dt":27.92},{"city":"Flat Rock","state_name":"North Carolina","lat":35.28905,"lng":-82.37796,"zip":"28731","miles_from_dt":27.95},{"city":"Tigerville","state_name":"South Carolina","lat":35.06245,"lng":-82.35226,"zip":"29688","miles_from_dt":27.97},{"city":"Scaly Mountain","state_name":"North Carolina","lat":35.01916,"lng":-83.32186,"zip":"28775","miles_from_dt":28.69},{"city":"Newry","state_name":"South Carolina","lat":34.72399,"lng":-82.91413,"zip":"29665","miles_from_dt":28.96},{"city":"Dillsboro","state_name":"North Carolina","lat":35.37631,"lng":-83.26411,"zip":"28725","miles_from_dt":29.16},{"city":"Greenville","state_name":"South Carolina","lat":34.90196,"lng":-82.4096,"zip":"29608","miles_from_dt":29.25},{"city":"Dana","state_name":"North Carolina","lat":35.32905,"lng":-82.37446,"zip":"28724","miles_from_dt":29.26},{"city":"Easley","state_name":"South Carolina","lat":34.77487,"lng":-82.56538,"zip":"29642","miles_from_dt":29.48},{"city":"Skyland","state_name":"North Carolina","lat":35.48201,"lng":-82.52391,"zip":"28776","miles_from_dt":29.52},{"city":"Enka","state_name":"North Carolina","lat":35.54141,"lng":-82.64364,"zip":"28728","miles_from_dt":29.8},{"city":"Greenville","state_name":"South Carolina","lat":34.91209,"lng":-82.38928,"zip":"29609","miles_from_dt":29.83},{"city":"Fletcher","state_name":"North Carolina","lat":35.44667,"lng":-82.46577,"zip":"28732","miles_from_dt":29.83},{"city":"Maggie Valley","state_name":"North Carolina","lat":35.50547,"lng":-83.11955,"zip":"28751","miles_from_dt":29.87},{"city":"Asheville","state_name":"North Carolina","lat":35.49867,"lng":-82.5384,"zip":"28802","miles_from_dt":29.98}],"targetCityZipCode":"28772","targetCityState":"North Carolina"},"__N_SSG":true}