{"pageProps":{"stateName":"North-carolina","cityName":"star","nearbyCities":[{"city":"Ether","state_name":"North Carolina","lat":35.46096,"lng":-79.78784,"zip":"27247","miles_from_dt":1.56},{"city":"Biscoe","state_name":"North Carolina","lat":35.34254,"lng":-79.74936,"zip":"27209","miles_from_dt":7.26},{"city":"Seagrove","state_name":"North Carolina","lat":35.52467,"lng":-79.70014,"zip":"27341","miles_from_dt":8.04},{"city":"Troy","state_name":"North Carolina","lat":35.42489,"lng":-79.94912,"zip":"27371","miles_from_dt":8.58},{"city":"Eagle Springs","state_name":"North Carolina","lat":35.33645,"lng":-79.63761,"zip":"27242","miles_from_dt":11.54},{"city":"Robbins","state_name":"North Carolina","lat":35.46236,"lng":-79.57249,"zip":"27325","miles_from_dt":12.83},{"city":"Candor","state_name":"North Carolina","lat":35.24853,"lng":-79.79873,"zip":"27229","miles_from_dt":13.19},{"city":"Asheboro","state_name":"North Carolina","lat":35.6399,"lng":-79.85094,"zip":"27205","miles_from_dt":14.1},{"city":"Highfalls","state_name":"North Carolina","lat":35.49149,"lng":-79.52624,"zip":"27259","miles_from_dt":15.75},{"city":"Asheboro","state_name":"North Carolina","lat":35.66844,"lng":-79.80847,"zip":"27204","miles_from_dt":15.77},{"city":"Bennett","state_name":"North Carolina","lat":35.56246,"lng":-79.54231,"zip":"27208","miles_from_dt":16.72},{"city":"Badin","state_name":"North Carolina","lat":35.40826,"lng":-80.10743,"zip":"28009","miles_from_dt":17.59},{"city":"Mount Gilead","state_name":"North Carolina","lat":35.22098,"lng":-79.97685,"zip":"27306","miles_from_dt":18.16},{"city":"Norman","state_name":"North Carolina","lat":35.16982,"lng":-79.72325,"zip":"28367","miles_from_dt":19.1},{"city":"West End","state_name":"North Carolina","lat":35.25607,"lng":-79.53184,"zip":"27376","miles_from_dt":19.67},{"city":"Ramseur","state_name":"North Carolina","lat":35.68996,"lng":-79.62366,"zip":"27316","miles_from_dt":19.85},{"city":"Jackson Springs","state_name":"North Carolina","lat":35.18538,"lng":-79.62689,"zip":"27281","miles_from_dt":20.04},{"city":"Denton","state_name":"North Carolina","lat":35.60566,"lng":-80.09024,"zip":"27239","miles_from_dt":20.04},{"city":"Asheboro","state_name":"North Carolina","lat":35.73253,"lng":-79.78857,"zip":"27203","miles_from_dt":20.18},{"city":"New London","state_name":"North Carolina","lat":35.44978,"lng":-80.16552,"zip":"28127","miles_from_dt":20.73},{"city":"Cedar Falls","state_name":"North Carolina","lat":35.75286,"lng":-79.73163,"zip":"27230","miles_from_dt":21.9},{"city":"Carthage","state_name":"North Carolina","lat":35.35759,"lng":-79.42333,"zip":"28327","miles_from_dt":21.91},{"city":"Albemarle","state_name":"North Carolina","lat":35.35439,"lng":-80.19363,"zip":"28002","miles_from_dt":23.09},{"city":"Ellerbe","state_name":"North Carolina","lat":35.09644,"lng":-79.75506,"zip":"28338","miles_from_dt":23.8},{"city":"Albemarle","state_name":"North Carolina","lat":35.33594,"lng":-80.20419,"zip":"28001","miles_from_dt":24.01},{"city":"Franklinville","state_name":"North Carolina","lat":35.78916,"lng":-79.70953,"zip":"27248","miles_from_dt":24.59},{"city":"Pinehurst","state_name":"North Carolina","lat":35.19705,"lng":-79.46009,"zip":"28374","miles_from_dt":25.4},{"city":"Norwood","state_name":"North Carolina","lat":35.21476,"lng":-80.15862,"zip":"28128","miles_from_dt":25.6},{"city":"Bear Creek","state_name":"North Carolina","lat":35.6064,"lng":-79.38893,"zip":"27207","miles_from_dt":25.76},{"city":"Sophia","state_name":"North Carolina","lat":35.80631,"lng":-79.88917,"zip":"27350","miles_from_dt":25.77},{"city":"Pinehurst","state_name":"North Carolina","lat":35.18208,"lng":-79.46043,"zip":"28370","miles_from_dt":26.08},{"city":"Richfield","state_name":"North Carolina","lat":35.50009,"lng":-80.25783,"zip":"28137","miles_from_dt":26.25},{"city":"Goldston","state_name":"North Carolina","lat":35.56033,"lng":-79.35563,"zip":"27252","miles_from_dt":26.3},{"city":"Bonlee","state_name":"North Carolina","lat":35.6473,"lng":-79.40454,"zip":"27213","miles_from_dt":26.39},{"city":"Staley","state_name":"North Carolina","lat":35.78859,"lng":-79.5678,"zip":"27355","miles_from_dt":27.31},{"city":"Randleman","state_name":"North Carolina","lat":35.83809,"lng":-79.80376,"zip":"27317","miles_from_dt":27.45},{"city":"Misenheimer","state_name":"North Carolina","lat":35.48609,"lng":-80.28628,"zip":"28109","miles_from_dt":27.71},{"city":"Trinity","state_name":"North Carolina","lat":35.8116,"lng":-79.99133,"zip":"27370","miles_from_dt":27.84},{"city":"Southern Pines","state_name":"North Carolina","lat":35.18181,"lng":-79.4019,"zip":"28388","miles_from_dt":28.6},{"city":"Siler City","state_name":"North Carolina","lat":35.7289,"lng":-79.43366,"zip":"27344","miles_from_dt":28.61},{"city":"Ansonville","state_name":"North Carolina","lat":35.12169,"lng":-80.13052,"zip":"28007","miles_from_dt":28.88},{"city":"Southern Pines","state_name":"North Carolina","lat":35.18059,"lng":-79.37566,"zip":"28387","miles_from_dt":29.83},{"city":"Pinebluff","state_name":"North Carolina","lat":35.09079,"lng":-79.48522,"zip":"28373","miles_from_dt":29.87}],"targetCityZipCode":"27356","targetCityState":"North Carolina"},"__N_SSG":true}