{"pageProps":{"stateName":"North-carolina","cityName":"thomasville","nearbyCities":[{"city":"Thomasville","state_name":"North Carolina","lat":35.87601,"lng":-80.09968,"zip":"27361","miles_from_dt":1.32},{"city":"Trinity","state_name":"North Carolina","lat":35.8116,"lng":-79.99133,"zip":"27370","miles_from_dt":6.85},{"city":"High Point","state_name":"North Carolina","lat":35.96191,"lng":-80.03845,"zip":"27262","miles_from_dt":8.02},{"city":"Lexington","state_name":"North Carolina","lat":35.82116,"lng":-80.25058,"zip":"27294","miles_from_dt":8.81},{"city":"Lexington","state_name":"North Carolina","lat":35.85926,"lng":-80.25786,"zip":"27293","miles_from_dt":8.87},{"city":"High Point","state_name":"North Carolina","lat":35.95473,"lng":-79.98697,"zip":"27260","miles_from_dt":9.25},{"city":"High Point","state_name":"North Carolina","lat":35.90931,"lng":-79.93829,"zip":"27263","miles_from_dt":9.76},{"city":"Welcome","state_name":"North Carolina","lat":35.91752,"lng":-80.25777,"zip":"27374","miles_from_dt":9.8},{"city":"High Point","state_name":"North Carolina","lat":35.97139,"lng":-79.99471,"zip":"27268","miles_from_dt":9.86},{"city":"High Point","state_name":"North Carolina","lat":35.97534,"lng":-79.99949,"zip":"27261","miles_from_dt":9.92},{"city":"High Point","state_name":"North Carolina","lat":35.98051,"lng":-79.99583,"zip":"27264","miles_from_dt":10.33},{"city":"Lexington","state_name":"North Carolina","lat":35.73469,"lng":-80.20845,"zip":"27292","miles_from_dt":10.4},{"city":"Wallburg","state_name":"North Carolina","lat":36.01277,"lng":-80.1392,"zip":"27373","miles_from_dt":10.97},{"city":"High Point","state_name":"North Carolina","lat":36.00947,"lng":-80.03272,"zip":"27265","miles_from_dt":11.18},{"city":"Winston Salem","state_name":"North Carolina","lat":36.01488,"lng":-80.17819,"zip":"27107","miles_from_dt":11.75},{"city":"Lexington","state_name":"North Carolina","lat":35.86756,"lng":-80.31623,"zip":"27295","miles_from_dt":12.17},{"city":"Sophia","state_name":"North Carolina","lat":35.80631,"lng":-79.88917,"zip":"27350","miles_from_dt":12.33},{"city":"Jamestown","state_name":"North Carolina","lat":35.99656,"lng":-79.92869,"zip":"27282","miles_from_dt":13.6},{"city":"Winston Salem","state_name":"North Carolina","lat":36.02028,"lng":-80.27847,"zip":"27127","miles_from_dt":15.08},{"city":"Greensboro","state_name":"North Carolina","lat":36.01124,"lng":-79.87588,"zip":"27407","miles_from_dt":16.46},{"city":"Southmont","state_name":"North Carolina","lat":35.65976,"lng":-80.26786,"zip":"27351","miles_from_dt":16.55},{"city":"Randleman","state_name":"North Carolina","lat":35.83809,"lng":-79.80376,"zip":"27317","miles_from_dt":16.67},{"city":"Greensboro","state_name":"North Carolina","lat":36.06759,"lng":-79.95265,"zip":"27417","miles_from_dt":16.71},{"city":"Winston Salem","state_name":"North Carolina","lat":36.07783,"lng":-80.23874,"zip":"27117","miles_from_dt":17.11},{"city":"Greensboro","state_name":"North Carolina","lat":36.0786,"lng":-79.95644,"zip":"27497","miles_from_dt":17.27},{"city":"Denton","state_name":"North Carolina","lat":35.60566,"lng":-80.09024,"zip":"27239","miles_from_dt":17.33},{"city":"Colfax","state_name":"North Carolina","lat":36.09734,"lng":-80.00871,"zip":"27235","miles_from_dt":17.35},{"city":"Winston Salem","state_name":"North Carolina","lat":36.08919,"lng":-80.225,"zip":"27110","miles_from_dt":17.49},{"city":"Linwood","state_name":"North Carolina","lat":35.75131,"lng":-80.38402,"zip":"27299","miles_from_dt":17.54},{"city":"Kernersville","state_name":"North Carolina","lat":36.11372,"lng":-80.07706,"zip":"27285","miles_from_dt":17.76},{"city":"Winston Salem","state_name":"North Carolina","lat":36.10513,"lng":-80.2019,"zip":"27155","miles_from_dt":18.05},{"city":"Kernersville","state_name":"North Carolina","lat":36.11818,"lng":-80.07794,"zip":"27284","miles_from_dt":18.06},{"city":"Winston Salem","state_name":"North Carolina","lat":36.10368,"lng":-80.20772,"zip":"27150","miles_from_dt":18.06},{"city":"Winston Salem","state_name":"North Carolina","lat":36.10441,"lng":-80.20645,"zip":"27152","miles_from_dt":18.08},{"city":"Winston Salem","state_name":"North Carolina","lat":36.09083,"lng":-80.24794,"zip":"27108","miles_from_dt":18.14},{"city":"Greensboro","state_name":"North Carolina","lat":36.09242,"lng":-79.94431,"zip":"27409","miles_from_dt":18.43},{"city":"Winston Salem","state_name":"North Carolina","lat":36.11089,"lng":-80.20288,"zip":"27102","miles_from_dt":18.44},{"city":"Winston Salem","state_name":"North Carolina","lat":36.11204,"lng":-80.19889,"zip":"27101","miles_from_dt":18.45},{"city":"Winston Salem","state_name":"North Carolina","lat":36.09787,"lng":-80.24455,"zip":"27116","miles_from_dt":18.49},{"city":"Clemmons","state_name":"North Carolina","lat":36.00434,"lng":-80.37547,"zip":"27012","miles_from_dt":18.5},{"city":"Winston Salem","state_name":"North Carolina","lat":36.10511,"lng":-80.2257,"zip":"27198","miles_from_dt":18.51},{"city":"Winston Salem","state_name":"North Carolina","lat":36.09889,"lng":-80.24389,"zip":"27111","miles_from_dt":18.54},{"city":"Winston Salem","state_name":"North Carolina","lat":36.05696,"lng":-80.32072,"zip":"27130","miles_from_dt":18.54},{"city":"Winston Salem","state_name":"North Carolina","lat":36.05822,"lng":-80.32125,"zip":"27103","miles_from_dt":18.62},{"city":"Winston Salem","state_name":"North Carolina","lat":36.0992,"lng":-80.24932,"zip":"27199","miles_from_dt":18.69},{"city":"Winston Salem","state_name":"North Carolina","lat":36.0594,"lng":-80.32198,"zip":"27157","miles_from_dt":18.71},{"city":"Winston Salem","state_name":"North Carolina","lat":36.09941,"lng":-80.24996,"zip":"27115","miles_from_dt":18.72},{"city":"Winston Salem","state_name":"North Carolina","lat":36.10324,"lng":-80.24369,"zip":"27114","miles_from_dt":18.8},{"city":"Winston Salem","state_name":"North Carolina","lat":36.10192,"lng":-80.24726,"zip":"27113","miles_from_dt":18.81},{"city":"Winston Salem","state_name":"North Carolina","lat":36.10789,"lng":-80.24059,"zip":"27120","miles_from_dt":19.02},{"city":"Asheboro","state_name":"North Carolina","lat":35.73253,"lng":-79.78857,"zip":"27203","miles_from_dt":19.47},{"city":"Advance","state_name":"North Carolina","lat":35.94352,"lng":-80.43673,"zip":"27006","miles_from_dt":19.82},{"city":"Pleasant Garden","state_name":"North Carolina","lat":35.92892,"lng":-79.75142,"zip":"27313","miles_from_dt":20.17},{"city":"Greensboro","state_name":"North Carolina","lat":36.06467,"lng":-79.84391,"zip":"27420","miles_from_dt":20.28},{"city":"Asheboro","state_name":"North Carolina","lat":35.6399,"lng":-79.85094,"zip":"27205","miles_from_dt":20.48},{"city":"Greensboro","state_name":"North Carolina","lat":36.12729,"lng":-79.94276,"zip":"27425","miles_from_dt":20.62},{"city":"Winston Salem","state_name":"North Carolina","lat":36.09465,"lng":-80.32501,"zip":"27104","miles_from_dt":20.69},{"city":"Asheboro","state_name":"North Carolina","lat":35.66844,"lng":-79.80847,"zip":"27204","miles_from_dt":20.9},{"city":"Greensboro","state_name":"North Carolina","lat":36.06452,"lng":-79.82698,"zip":"27435","miles_from_dt":20.95},{"city":"Greensboro","state_name":"North Carolina","lat":36.06406,"lng":-79.82538,"zip":"27403","miles_from_dt":21},{"city":"Greensboro","state_name":"North Carolina","lat":35.9982,"lng":-79.76686,"zip":"27406","miles_from_dt":21.06},{"city":"Greensboro","state_name":"North Carolina","lat":36.00231,"lng":-79.76409,"zip":"27416","miles_from_dt":21.33},{"city":"Greensboro","state_name":"North Carolina","lat":36.11826,"lng":-79.89223,"zip":"27410","miles_from_dt":21.45},{"city":"Winston Salem","state_name":"North Carolina","lat":36.13371,"lng":-80.27539,"zip":"27109","miles_from_dt":21.47},{"city":"Greensboro","state_name":"North Carolina","lat":36.05575,"lng":-79.80426,"zip":"27438","miles_from_dt":21.51},{"city":"Greensboro","state_name":"North Carolina","lat":36.08483,"lng":-79.83277,"zip":"27404","miles_from_dt":21.71},{"city":"Greensboro","state_name":"North Carolina","lat":36.06903,"lng":-79.81062,"zip":"27412","miles_from_dt":21.84},{"city":"Greensboro","state_name":"North Carolina","lat":36.06873,"lng":-79.81028,"zip":"27413","miles_from_dt":21.84},{"city":"Cedar Falls","state_name":"North Carolina","lat":35.75286,"lng":-79.73163,"zip":"27230","miles_from_dt":21.89},{"city":"Spencer","state_name":"North Carolina","lat":35.69411,"lng":-80.43528,"zip":"28159","miles_from_dt":21.93},{"city":"Franklinville","state_name":"North Carolina","lat":35.78916,"lng":-79.70953,"zip":"27248","miles_from_dt":22.41},{"city":"Winston Salem","state_name":"North Carolina","lat":36.16294,"lng":-80.23521,"zip":"27105","miles_from_dt":22.43},{"city":"East Spencer","state_name":"North Carolina","lat":35.6803,"lng":-80.43626,"zip":"28039","miles_from_dt":22.48},{"city":"Climax","state_name":"North Carolina","lat":35.8882,"lng":-79.6988,"zip":"27233","miles_from_dt":22.61},{"city":"Oak Ridge","state_name":"North Carolina","lat":36.17294,"lng":-79.99159,"zip":"27310","miles_from_dt":22.62},{"city":"Greensboro","state_name":"North Carolina","lat":36.07176,"lng":-79.79103,"zip":"27402","miles_from_dt":22.79},{"city":"Salisbury","state_name":"North Carolina","lat":35.70645,"lng":-80.46341,"zip":"28144","miles_from_dt":22.9},{"city":"Greensboro","state_name":"North Carolina","lat":36.09345,"lng":-79.81275,"zip":"27429","miles_from_dt":22.91},{"city":"Walkertown","state_name":"North Carolina","lat":36.18728,"lng":-80.16012,"zip":"27051","miles_from_dt":23.03},{"city":"Salisbury","state_name":"North Carolina","lat":35.62194,"lng":-80.39563,"zip":"28146","miles_from_dt":23.21},{"city":"Winston Salem","state_name":"North Carolina","lat":36.14255,"lng":-80.3228,"zip":"27106","miles_from_dt":23.32},{"city":"Greensboro","state_name":"North Carolina","lat":36.10321,"lng":-79.81411,"zip":"27408","miles_from_dt":23.34},{"city":"Greensboro","state_name":"North Carolina","lat":35.97913,"lng":-79.70883,"zip":"27419","miles_from_dt":23.5},{"city":"Salisbury","state_name":"North Carolina","lat":35.66126,"lng":-80.44721,"zip":"28145","miles_from_dt":23.72},{"city":"Greensboro","state_name":"North Carolina","lat":36.0689,"lng":-79.76662,"zip":"27427","miles_from_dt":23.72},{"city":"Greensboro","state_name":"North Carolina","lat":36.06995,"lng":-79.76724,"zip":"27401","miles_from_dt":23.74},{"city":"Greensboro","state_name":"North Carolina","lat":36.072,"lng":-79.76791,"zip":"27498","miles_from_dt":23.8},{"city":"Greensboro","state_name":"North Carolina","lat":36.07058,"lng":-79.76615,"zip":"27499","miles_from_dt":23.81},{"city":"Greensboro","state_name":"North Carolina","lat":36.07665,"lng":-79.77157,"zip":"27411","miles_from_dt":23.84},{"city":"Lewisville","state_name":"North Carolina","lat":36.09103,"lng":-80.45101,"zip":"27023","miles_from_dt":25.46},{"city":"Granite Quarry","state_name":"North Carolina","lat":35.61326,"lng":-80.44241,"zip":"28072","miles_from_dt":25.55},{"city":"Cooleemee","state_name":"North Carolina","lat":35.8121,"lng":-80.55508,"zip":"27014","miles_from_dt":25.74},{"city":"Belews Creek","state_name":"North Carolina","lat":36.23089,"lng":-80.07927,"zip":"27009","miles_from_dt":25.82},{"city":"Bethania","state_name":"North Carolina","lat":36.16581,"lng":-80.3695,"zip":"27010","miles_from_dt":26.11},{"city":"Richfield","state_name":"North Carolina","lat":35.50009,"lng":-80.25783,"zip":"28137","miles_from_dt":26.15},{"city":"Gold Hill","state_name":"North Carolina","lat":35.51859,"lng":-80.32175,"zip":"28071","miles_from_dt":26.45},{"city":"Greensboro","state_name":"North Carolina","lat":36.10862,"lng":-79.73791,"zip":"27495","miles_from_dt":26.7},{"city":"Julian","state_name":"North Carolina","lat":35.95293,"lng":-79.63621,"zip":"27283","miles_from_dt":26.84},{"city":"Pfafftown","state_name":"North Carolina","lat":36.16869,"lng":-80.38969,"zip":"27040","miles_from_dt":26.94},{"city":"Mocksville","state_name":"North Carolina","lat":35.92433,"lng":-80.5742,"zip":"27028","miles_from_dt":27.01},{"city":"Greensboro","state_name":"North Carolina","lat":36.11373,"lng":-79.73463,"zip":"27405","miles_from_dt":27.07},{"city":"Faith","state_name":"North Carolina","lat":35.58747,"lng":-80.46249,"zip":"28041","miles_from_dt":27.58},{"city":"Misenheimer","state_name":"North Carolina","lat":35.48609,"lng":-80.28628,"zip":"28109","miles_from_dt":27.63},{"city":"Greensboro","state_name":"North Carolina","lat":36.18283,"lng":-79.80794,"zip":"27455","miles_from_dt":27.79},{"city":"Rural Hall","state_name":"North Carolina","lat":36.22858,"lng":-80.3032,"zip":"27099","miles_from_dt":28.05},{"city":"Rural Hall","state_name":"North Carolina","lat":36.22923,"lng":-80.3045,"zip":"27098","miles_from_dt":28.12},{"city":"Rural Hall","state_name":"North Carolina","lat":36.23482,"lng":-80.29614,"zip":"27045","miles_from_dt":28.28},{"city":"New London","state_name":"North Carolina","lat":35.44978,"lng":-80.16552,"zip":"28127","miles_from_dt":28.31},{"city":"Summerfield","state_name":"North Carolina","lat":36.22723,"lng":-79.88124,"zip":"27358","miles_from_dt":28.32},{"city":"Woodleaf","state_name":"North Carolina","lat":35.79304,"lng":-80.59833,"zip":"27054","miles_from_dt":28.33},{"city":"Rural Hall","state_name":"North Carolina","lat":36.23678,"lng":-80.29703,"zip":"27094","miles_from_dt":28.43},{"city":"Salisbury","state_name":"North Carolina","lat":35.67997,"lng":-80.56275,"zip":"28147","miles_from_dt":28.73},{"city":"Ramseur","state_name":"North Carolina","lat":35.68996,"lng":-79.62366,"zip":"27316","miles_from_dt":29.12},{"city":"Stokesdale","state_name":"North Carolina","lat":36.26844,"lng":-79.97641,"zip":"27357","miles_from_dt":29.21},{"city":"Greensboro","state_name":"North Carolina","lat":36.07893,"lng":-79.64581,"zip":"27415","miles_from_dt":29.7},{"city":"Liberty","state_name":"North Carolina","lat":35.88563,"lng":-79.56816,"zip":"27298","miles_from_dt":29.9}],"targetCityZipCode":"27360","targetCityState":"North Carolina"},"__N_SSG":true}