{"pageProps":{"stateName":"New-york","cityName":"amagansett","nearbyCities":[{"city":"East Hampton","state_name":"New York","lat":40.99714,"lng":-72.20253,"zip":"11937","miles_from_dt":5.14},{"city":"Wainscott","state_name":"New York","lat":40.95146,"lng":-72.25093,"zip":"11975","miles_from_dt":8.06},{"city":"Montauk","state_name":"New York","lat":41.04458,"lng":-71.9518,"zip":"11954","miles_from_dt":8.88},{"city":"Sagaponack","state_name":"New York","lat":40.93715,"lng":-72.27379,"zip":"11962","miles_from_dt":9.53},{"city":"Bridgehampton","state_name":"New York","lat":40.93322,"lng":-72.30603,"zip":"11932","miles_from_dt":11.2},{"city":"Sag Harbor","state_name":"New York","lat":40.99921,"lng":-72.32271,"zip":"11963","miles_from_dt":11.41},{"city":"Shelter Island","state_name":"New York","lat":41.05743,"lng":-72.31492,"zip":"11964","miles_from_dt":11.96},{"city":"Southampton","state_name":"New York","lat":40.96594,"lng":-72.35757,"zip":"11969","miles_from_dt":13.31},{"city":"Water Mill","state_name":"New York","lat":40.92986,"lng":-72.34721,"zip":"11976","miles_from_dt":13.32},{"city":"Orient","state_name":"New York","lat":41.1492,"lng":-72.26181,"zip":"11957","miles_from_dt":13.78},{"city":"Shelter Island Heights","state_name":"New York","lat":41.07727,"lng":-72.34244,"zip":"11965","miles_from_dt":13.84},{"city":"East Marion","state_name":"New York","lat":41.12627,"lng":-72.34223,"zip":"11939","miles_from_dt":15.61},{"city":"Greenport","state_name":"New York","lat":41.09888,"lng":-72.37223,"zip":"11944","miles_from_dt":15.9},{"city":"Southold","state_name":"New York","lat":41.05949,"lng":-72.42617,"zip":"11971","miles_from_dt":17.49},{"city":"Southampton","state_name":"New York","lat":40.90035,"lng":-72.42081,"zip":"11968","miles_from_dt":17.62},{"city":"Peconic","state_name":"New York","lat":41.03688,"lng":-72.4613,"zip":"11958","miles_from_dt":18.93},{"city":"New Suffolk","state_name":"New York","lat":40.98067,"lng":-72.46868,"zip":"11956","miles_from_dt":19.03},{"city":"Cutchogue","state_name":"New York","lat":41.01795,"lng":-72.48933,"zip":"11935","miles_from_dt":20.2},{"city":"Fishers Island","state_name":"New York","lat":41.27027,"lng":-71.98886,"zip":"06390","miles_from_dt":20.35},{"city":"South Lyme","state_name":"Connecticut","lat":41.29461,"lng":-72.2528,"zip":"06376","miles_from_dt":22.47},{"city":"Mattituck","state_name":"New York","lat":40.99716,"lng":-72.54369,"zip":"11952","miles_from_dt":22.95},{"city":"Hampton Bays","state_name":"New York","lat":40.87033,"lng":-72.52294,"zip":"11946","miles_from_dt":23.36},{"city":"Laurel","state_name":"New York","lat":40.9662,"lng":-72.55797,"zip":"11948","miles_from_dt":23.75},{"city":"Niantic","state_name":"Connecticut","lat":41.32711,"lng":-72.21478,"zip":"06357","miles_from_dt":24.04},{"city":"South Jamesport","state_name":"New York","lat":40.94029,"lng":-72.57403,"zip":"11970","miles_from_dt":24.77},{"city":"New London","state_name":"Connecticut","lat":41.35026,"lng":-72.10225,"zip":"06320","miles_from_dt":24.95},{"city":"Jamesport","state_name":"New York","lat":40.94302,"lng":-72.58189,"zip":"11947","miles_from_dt":25.15},{"city":"Groton","state_name":"Connecticut","lat":41.35643,"lng":-72.04477,"zip":"06340","miles_from_dt":25.56},{"city":"Waterford","state_name":"Connecticut","lat":41.35735,"lng":-72.15581,"zip":"06385","miles_from_dt":25.57},{"city":"West Mystic","state_name":"Connecticut","lat":41.35056,"lng":-71.9825,"zip":"06388","miles_from_dt":25.77},{"city":"Old Saybrook","state_name":"Connecticut","lat":41.30174,"lng":-72.38569,"zip":"06475","miles_from_dt":26.1},{"city":"East Quogue","state_name":"New York","lat":40.84901,"lng":-72.57764,"zip":"11942","miles_from_dt":26.56},{"city":"Mystic","state_name":"Connecticut","lat":41.36857,"lng":-71.97426,"zip":"06355","miles_from_dt":27.08},{"city":"Aquebogue","state_name":"New York","lat":40.93347,"lng":-72.62195,"zip":"11931","miles_from_dt":27.32},{"city":"Old Lyme","state_name":"Connecticut","lat":41.36361,"lng":-72.32582,"zip":"06371","miles_from_dt":28.32},{"city":"East Lyme","state_name":"Connecticut","lat":41.38602,"lng":-72.24527,"zip":"06333","miles_from_dt":28.37},{"city":"Groton","state_name":"Connecticut","lat":41.40194,"lng":-72.08928,"zip":"06349","miles_from_dt":28.52},{"city":"Quogue","state_name":"New York","lat":40.82903,"lng":-72.60977,"zip":"11959","miles_from_dt":28.64},{"city":"Old Mystic","state_name":"Connecticut","lat":41.39059,"lng":-71.96288,"zip":"06372","miles_from_dt":28.7},{"city":"Riverhead","state_name":"New York","lat":40.92424,"lng":-72.64697,"zip":"11901","miles_from_dt":28.71},{"city":"Quaker Hill","state_name":"Connecticut","lat":41.40544,"lng":-72.12554,"zip":"06375","miles_from_dt":28.77},{"city":"Stonington","state_name":"Connecticut","lat":41.38039,"lng":-71.91376,"zip":"06378","miles_from_dt":28.8},{"city":"Westbrook","state_name":"Connecticut","lat":41.30688,"lng":-72.46652,"zip":"06498","miles_from_dt":28.95},{"city":"Pawcatuck","state_name":"Connecticut","lat":41.36685,"lng":-71.85826,"zip":"06379","miles_from_dt":29.09},{"city":"Essex","state_name":"Connecticut","lat":41.35346,"lng":-72.39791,"zip":"06426","miles_from_dt":29.44},{"city":"Centerbrook","state_name":"Connecticut","lat":41.35169,"lng":-72.42056,"zip":"06409","miles_from_dt":29.97}],"targetCityZipCode":"11930","targetCityState":"New York"},"__N_SSG":true}