{"pageProps":{"stateName":"New-york","cityName":"beaver-falls","nearbyCities":[{"city":"Castorland","state_name":"New York","lat":43.89989,"lng":-75.45265,"zip":"13620","miles_from_dt":1.15},{"city":"Lowville","state_name":"New York","lat":43.85563,"lng":-75.31772,"zip":"13367","miles_from_dt":6.25},{"city":"Denmark","state_name":"New York","lat":43.90036,"lng":-75.58529,"zip":"13631","miles_from_dt":7.7},{"city":"Deer River","state_name":"New York","lat":43.92915,"lng":-75.59045,"zip":"13627","miles_from_dt":8.31},{"city":"Croghan","state_name":"New York","lat":43.96047,"lng":-75.28474,"zip":"13327","miles_from_dt":8.67},{"city":"Carthage","state_name":"New York","lat":43.97705,"lng":-75.59432,"zip":"13619","miles_from_dt":9.97},{"city":"Martinsburg","state_name":"New York","lat":43.73842,"lng":-75.48089,"zip":"13404","miles_from_dt":10.97},{"city":"Natural Bridge","state_name":"New York","lat":44.05227,"lng":-75.44933,"zip":"13665","miles_from_dt":11.01},{"city":"Glenfield","state_name":"New York","lat":43.75271,"lng":-75.31062,"zip":"13343","miles_from_dt":11.43},{"city":"Copenhagen","state_name":"New York","lat":43.85143,"lng":-75.7202,"zip":"13626","miles_from_dt":14.71},{"city":"Greig","state_name":"New York","lat":43.6889,"lng":-75.33153,"zip":"13345","miles_from_dt":14.97},{"city":"Deferiet","state_name":"New York","lat":44.03764,"lng":-75.68307,"zip":"13628","miles_from_dt":16.02},{"city":"Great Bend","state_name":"New York","lat":44.03207,"lng":-75.71738,"zip":"13643","miles_from_dt":17.18},{"city":"Turin","state_name":"New York","lat":43.64414,"lng":-75.44517,"zip":"13473","miles_from_dt":17.21},{"city":"Brantingham","state_name":"New York","lat":43.70247,"lng":-75.20758,"zip":"13312","miles_from_dt":17.29},{"city":"Lyons Falls","state_name":"New York","lat":43.6446,"lng":-75.33209,"zip":"13368","miles_from_dt":17.87},{"city":"Black River","state_name":"New York","lat":43.98571,"lng":-75.76911,"zip":"13612","miles_from_dt":18.01},{"city":"Felts Mills","state_name":"New York","lat":44.02077,"lng":-75.75443,"zip":"13638","miles_from_dt":18.36},{"city":"Harrisville","state_name":"New York","lat":44.14977,"lng":-75.29908,"zip":"13648","miles_from_dt":18.9},{"city":"Fort Drum","state_name":"New York","lat":44.04877,"lng":-75.75747,"zip":"13602","miles_from_dt":19.48},{"city":"Watertown","state_name":"New York","lat":44.03826,"lng":-75.79765,"zip":"13603","miles_from_dt":20.82},{"city":"Constableville","state_name":"New York","lat":43.58398,"lng":-75.54091,"zip":"13325","miles_from_dt":22.05},{"city":"Port Leyden","state_name":"New York","lat":43.59914,"lng":-75.24765,"zip":"13433","miles_from_dt":22.29},{"city":"Thendara","state_name":"New York","lat":43.69491,"lng":-75.06072,"zip":"13472","miles_from_dt":23.05},{"city":"Rodman","state_name":"New York","lat":43.84024,"lng":-75.88924,"zip":"13682","miles_from_dt":23.16},{"city":"Calcium","state_name":"New York","lat":44.02538,"lng":-75.85896,"zip":"13616","miles_from_dt":23.19},{"city":"Eagle Bay","state_name":"New York","lat":43.81706,"lng":-74.97284,"zip":"13331","miles_from_dt":23.51},{"city":"Philadelphia","state_name":"New York","lat":44.17105,"lng":-75.72133,"zip":"13673","miles_from_dt":24.01},{"city":"Watertown","state_name":"New York","lat":43.96949,"lng":-75.90965,"zip":"13601","miles_from_dt":24.43},{"city":"Lorraine","state_name":"New York","lat":43.73783,"lng":-75.8707,"zip":"13659","miles_from_dt":24.44},{"city":"Evans Mills","state_name":"New York","lat":44.09751,"lng":-75.83346,"zip":"13637","miles_from_dt":24.5},{"city":"Oswegatchie","state_name":"New York","lat":44.18264,"lng":-75.11635,"zip":"13670","miles_from_dt":25.4},{"city":"Antwerp","state_name":"New York","lat":44.23879,"lng":-75.62508,"zip":"13608","miles_from_dt":25.73},{"city":"Star Lake","state_name":"New York","lat":44.12612,"lng":-75.02319,"zip":"13690","miles_from_dt":25.93},{"city":"Redfield","state_name":"New York","lat":43.59677,"lng":-75.80383,"zip":"13437","miles_from_dt":27.69},{"city":"Antwerp","state_name":"New York","lat":44.28431,"lng":-75.61839,"zip":"13671","miles_from_dt":28.56},{"city":"Brownville","state_name":"New York","lat":44.00569,"lng":-75.98328,"zip":"13615","miles_from_dt":28.6},{"city":"Hailesboro","state_name":"New York","lat":44.30878,"lng":-75.44655,"zip":"13645","miles_from_dt":28.7},{"city":"Old Forge","state_name":"New York","lat":43.65069,"lng":-74.9619,"zip":"13420","miles_from_dt":28.85},{"city":"Woodgate","state_name":"New York","lat":43.53136,"lng":-75.14198,"zip":"13494","miles_from_dt":28.89},{"city":"Theresa","state_name":"New York","lat":44.22747,"lng":-75.78208,"zip":"13691","miles_from_dt":28.93},{"city":"Wanakena","state_name":"New York","lat":44.10505,"lng":-74.92872,"zip":"13695","miles_from_dt":29.01},{"city":"Fine","state_name":"New York","lat":44.2594,"lng":-75.14324,"zip":"13639","miles_from_dt":29.06},{"city":"Adams Center","state_name":"New York","lat":43.87007,"lng":-76.01601,"zip":"13606","miles_from_dt":29.24},{"city":"Edwards","state_name":"New York","lat":44.29915,"lng":-75.26188,"zip":"13635","miles_from_dt":29.26},{"city":"Boonville","state_name":"New York","lat":43.47398,"lng":-75.34103,"zip":"13309","miles_from_dt":29.3},{"city":"West Leyden","state_name":"New York","lat":43.46698,"lng":-75.52928,"zip":"13489","miles_from_dt":29.84},{"city":"Gouverneur","state_name":"New York","lat":44.3263,"lng":-75.46742,"zip":"13642","miles_from_dt":29.95}],"targetCityZipCode":"13305","targetCityState":"New York"},"__N_SSG":true}