{"pageProps":{"stateName":"New-york","cityName":"ceres","nearbyCities":[{"city":"Portville","state_name":"New York","lat":42.0468,"lng":-78.29963,"zip":"14770","miles_from_dt":2.65},{"city":"Little Genesee","state_name":"New York","lat":42.02385,"lng":-78.19799,"zip":"14754","miles_from_dt":3.64},{"city":"Westons Mills","state_name":"New York","lat":42.06012,"lng":-78.37661,"zip":"14788","miles_from_dt":6.35},{"city":"Eldred","state_name":"Pennsylvania","lat":41.94625,"lng":-78.37126,"zip":"16731","miles_from_dt":7.19},{"city":"Bolivar","state_name":"New York","lat":42.07323,"lng":-78.14832,"zip":"14715","miles_from_dt":7.3},{"city":"West Clarksville","state_name":"New York","lat":42.12521,"lng":-78.22988,"zip":"14786","miles_from_dt":7.76},{"city":"Richburg","state_name":"New York","lat":42.08875,"lng":-78.14658,"zip":"14774","miles_from_dt":7.99},{"city":"Shinglehouse","state_name":"Pennsylvania","lat":41.9427,"lng":-78.14425,"zip":"16748","miles_from_dt":8.16},{"city":"Olean","state_name":"New York","lat":42.07098,"lng":-78.41421,"zip":"14760","miles_from_dt":8.41},{"city":"Turtlepoint","state_name":"Pennsylvania","lat":41.88796,"lng":-78.29682,"zip":"16750","miles_from_dt":8.99},{"city":"Alma","state_name":"New York","lat":42.01424,"lng":-78.06988,"zip":"14708","miles_from_dt":10.2},{"city":"Duke Center","state_name":"Pennsylvania","lat":41.96501,"lng":-78.4788,"zip":"16729","miles_from_dt":11.42},{"city":"Allentown","state_name":"New York","lat":42.08256,"lng":-78.06196,"zip":"14707","miles_from_dt":11.54},{"city":"Saint Bonaventure","state_name":"New York","lat":42.07759,"lng":-78.4827,"zip":"14778","miles_from_dt":11.82},{"city":"Rixford","state_name":"Pennsylvania","lat":41.92578,"lng":-78.49042,"zip":"16745","miles_from_dt":13.05},{"city":"Friendship","state_name":"New York","lat":42.1925,"lng":-78.14932,"zip":"14739","miles_from_dt":13.6},{"city":"Cuba","state_name":"New York","lat":42.2129,"lng":-78.29358,"zip":"14727","miles_from_dt":13.62},{"city":"Derrick City","state_name":"Pennsylvania","lat":41.98501,"lng":-78.5338,"zip":"16727","miles_from_dt":13.85},{"city":"Allegany","state_name":"New York","lat":42.10663,"lng":-78.52795,"zip":"14706","miles_from_dt":14.75},{"city":"Hinsdale","state_name":"New York","lat":42.20532,"lng":-78.40631,"zip":"14743","miles_from_dt":14.85},{"city":"Port Allegany","state_name":"Pennsylvania","lat":41.7888,"lng":-78.26016,"zip":"16743","miles_from_dt":15.72},{"city":"East Smethport","state_name":"Pennsylvania","lat":41.81339,"lng":-78.42309,"zip":"16730","miles_from_dt":16.13},{"city":"Roulette","state_name":"Pennsylvania","lat":41.79064,"lng":-78.13858,"zip":"16746","miles_from_dt":16.95},{"city":"Wellsville","state_name":"New York","lat":42.07772,"lng":-77.93387,"zip":"14895","miles_from_dt":17.7},{"city":"Rew","state_name":"Pennsylvania","lat":41.87567,"lng":-78.56941,"zip":"16744","miles_from_dt":18.32},{"city":"Black Creek","state_name":"New York","lat":42.28368,"lng":-78.23493,"zip":"14714","miles_from_dt":18.52},{"city":"Scio","state_name":"New York","lat":42.17363,"lng":-77.97334,"zip":"14880","miles_from_dt":18.63},{"city":"Limestone","state_name":"New York","lat":42.03899,"lng":-78.63516,"zip":"14753","miles_from_dt":18.96},{"city":"Crosby","state_name":"Pennsylvania","lat":41.74674,"lng":-78.39022,"zip":"16724","miles_from_dt":19.65},{"city":"Smethport","state_name":"Pennsylvania","lat":41.75578,"lng":-78.4214,"zip":"16749","miles_from_dt":19.65},{"city":"Gifford","state_name":"Pennsylvania","lat":41.85921,"lng":-78.60843,"zip":"16732","miles_from_dt":20.63},{"city":"Kill Buck","state_name":"New York","lat":42.1392,"lng":-78.63636,"zip":"14748","miles_from_dt":20.75},{"city":"Genesee","state_name":"Pennsylvania","lat":41.94103,"lng":-77.8761,"zip":"16923","miles_from_dt":20.84},{"city":"Belmont","state_name":"New York","lat":42.24638,"lng":-77.99209,"zip":"14813","miles_from_dt":21.28},{"city":"Cyclone","state_name":"Pennsylvania","lat":41.80456,"lng":-78.57787,"zip":"16726","miles_from_dt":21.66},{"city":"Great Valley","state_name":"New York","lat":42.21868,"lng":-78.5963,"zip":"14741","miles_from_dt":21.9},{"city":"Custer City","state_name":"Pennsylvania","lat":41.89881,"lng":-78.66328,"zip":"16725","miles_from_dt":21.92},{"city":"Belfast","state_name":"New York","lat":42.32088,"lng":-78.12625,"zip":"14711","miles_from_dt":22.24},{"city":"Coudersport","state_name":"Pennsylvania","lat":41.77481,"lng":-77.96104,"zip":"16915","miles_from_dt":22.99},{"city":"Franklinville","state_name":"New York","lat":42.33524,"lng":-78.42926,"zip":"14737","miles_from_dt":23.51},{"city":"Caneadea","state_name":"New York","lat":42.36258,"lng":-78.18235,"zip":"14717","miles_from_dt":24.29},{"city":"Whitesville","state_name":"New York","lat":42.02949,"lng":-77.79076,"zip":"14897","miles_from_dt":24.58},{"city":"Rushford","state_name":"New York","lat":42.38999,"lng":-78.26167,"zip":"14777","miles_from_dt":25.78},{"city":"Genesee","state_name":"Pennsylvania","lat":41.98841,"lng":-77.75796,"zip":"16941","miles_from_dt":26.33},{"city":"Andover","state_name":"New York","lat":42.15543,"lng":-77.78662,"zip":"14806","miles_from_dt":26.54},{"city":"Salamanca","state_name":"New York","lat":42.10703,"lng":-78.76977,"zip":"14779","miles_from_dt":26.55},{"city":"Mount Jewett","state_name":"Pennsylvania","lat":41.69255,"lng":-78.54998,"zip":"16740","miles_from_dt":26.67},{"city":"Bradford","state_name":"Pennsylvania","lat":41.91105,"lng":-78.77385,"zip":"16701","miles_from_dt":27.05},{"city":"Hazel Hurst","state_name":"Pennsylvania","lat":41.70303,"lng":-78.59514,"zip":"16733","miles_from_dt":27.44},{"city":"Angelica","state_name":"New York","lat":42.35279,"lng":-77.98267,"zip":"14709","miles_from_dt":27.45},{"city":"Ellicottville","state_name":"New York","lat":42.30063,"lng":-78.65092,"zip":"14731","miles_from_dt":27.77},{"city":"Houghton","state_name":"New York","lat":42.4219,"lng":-78.21516,"zip":"14744","miles_from_dt":28.12},{"city":"Lewis Run","state_name":"Pennsylvania","lat":41.80511,"lng":-78.73929,"zip":"16738","miles_from_dt":28.34},{"city":"Ulysses","state_name":"Pennsylvania","lat":41.85369,"lng":-77.75683,"zip":"16948","miles_from_dt":28.64},{"city":"Mills","state_name":"Pennsylvania","lat":41.96421,"lng":-77.71004,"zip":"16937","miles_from_dt":28.95},{"city":"Machias","state_name":"New York","lat":42.3863,"lng":-78.54292,"zip":"14101","miles_from_dt":29.17},{"city":"Farmersville Station","state_name":"New York","lat":42.43986,"lng":-78.30884,"zip":"14060","miles_from_dt":29.3},{"city":"Alfred Station","state_name":"New York","lat":42.25135,"lng":-77.78808,"zip":"14803","miles_from_dt":29.51},{"city":"Alfred","state_name":"New York","lat":42.2537,"lng":-77.78989,"zip":"14802","miles_from_dt":29.52},{"city":"Almond","state_name":"New York","lat":42.31587,"lng":-77.8476,"zip":"14804","miles_from_dt":29.88}],"targetCityZipCode":"14721","targetCityState":"New York"},"__N_SSG":true}