{"pageProps":{"stateName":"New-york","cityName":"cleveland","nearbyCities":[{"city":"Bernhards Bay","state_name":"New York","lat":43.29226,"lng":-75.93107,"zip":"13028","miles_from_dt":4.41},{"city":"North Bay","state_name":"New York","lat":43.22796,"lng":-75.75325,"zip":"13123","miles_from_dt":5.6},{"city":"Constantia","state_name":"New York","lat":43.2977,"lng":-75.99595,"zip":"13044","miles_from_dt":7.61},{"city":"Sylvan Beach","state_name":"New York","lat":43.20288,"lng":-75.7254,"zip":"13157","miles_from_dt":7.7},{"city":"Verona Beach","state_name":"New York","lat":43.18833,"lng":-75.71823,"zip":"13162","miles_from_dt":8.59},{"city":"Bridgeport","state_name":"New York","lat":43.15962,"lng":-75.96052,"zip":"13030","miles_from_dt":9.16},{"city":"Blossvale","state_name":"New York","lat":43.24865,"lng":-75.66686,"zip":"13308","miles_from_dt":9.39},{"city":"McConnellsville","state_name":"New York","lat":43.29132,"lng":-75.66852,"zip":"13401","miles_from_dt":9.4},{"city":"Westdale","state_name":"New York","lat":43.40075,"lng":-75.81995,"zip":"13483","miles_from_dt":9.46},{"city":"West Monroe","state_name":"New York","lat":43.3171,"lng":-76.0571,"zip":"13167","miles_from_dt":10.96},{"city":"Durhamville","state_name":"New York","lat":43.16947,"lng":-75.66923,"zip":"13054","miles_from_dt":11.35},{"city":"Williamstown","state_name":"New York","lat":43.43162,"lng":-75.90102,"zip":"13493","miles_from_dt":11.73},{"city":"Camden","state_name":"New York","lat":43.41492,"lng":-75.73963,"zip":"13316","miles_from_dt":11.75},{"city":"Kirkville","state_name":"New York","lat":43.10148,"lng":-75.95253,"zip":"13082","miles_from_dt":12.43},{"city":"Cicero","state_name":"New York","lat":43.16678,"lng":-76.0654,"zip":"13039","miles_from_dt":12.77},{"city":"Mallory","state_name":"New York","lat":43.32652,"lng":-76.10507,"zip":"13103","miles_from_dt":13.46},{"city":"Canastota","state_name":"New York","lat":43.07793,"lng":-75.76275,"zip":"13032","miles_from_dt":13.71},{"city":"Chittenango","state_name":"New York","lat":43.06046,"lng":-75.86521,"zip":"13037","miles_from_dt":14.18},{"city":"Taberg","state_name":"New York","lat":43.37606,"lng":-75.6122,"zip":"13471","miles_from_dt":14.27},{"city":"Wampsville","state_name":"New York","lat":43.08194,"lng":-75.70841,"zip":"13163","miles_from_dt":14.6},{"city":"East Syracuse","state_name":"New York","lat":43.09543,"lng":-76.04014,"zip":"13057","miles_from_dt":15.13},{"city":"Brewerton","state_name":"New York","lat":43.2236,"lng":-76.14993,"zip":"13029","miles_from_dt":15.34},{"city":"Minoa","state_name":"New York","lat":43.07449,"lng":-76.00796,"zip":"13116","miles_from_dt":15.38},{"city":"Verona","state_name":"New York","lat":43.14916,"lng":-75.58009,"zip":"13478","miles_from_dt":15.89},{"city":"Parish","state_name":"New York","lat":43.41964,"lng":-76.09539,"zip":"13131","miles_from_dt":16.25},{"city":"Hastings","state_name":"New York","lat":43.35364,"lng":-76.15182,"zip":"13076","miles_from_dt":16.31},{"city":"Clockville","state_name":"New York","lat":43.0398,"lng":-75.74409,"zip":"13043","miles_from_dt":16.51},{"city":"Central Square","state_name":"New York","lat":43.32268,"lng":-76.17402,"zip":"13036","miles_from_dt":16.73},{"city":"Syracuse","state_name":"New York","lat":43.12839,"lng":-76.12889,"zip":"13212","miles_from_dt":16.91},{"city":"Syracuse","state_name":"New York","lat":43.12951,"lng":-76.13135,"zip":"13225","miles_from_dt":16.97},{"city":"Syracuse","state_name":"New York","lat":43.12549,"lng":-76.12973,"zip":"13220","miles_from_dt":17.06},{"city":"Altmar","state_name":"New York","lat":43.50261,"lng":-75.95044,"zip":"13302","miles_from_dt":17.1},{"city":"Syracuse","state_name":"New York","lat":43.12257,"lng":-76.13287,"zip":"13250","miles_from_dt":17.3},{"city":"Syracuse","state_name":"New York","lat":43.12374,"lng":-76.1351,"zip":"13251","miles_from_dt":17.35},{"city":"Oneida","state_name":"New York","lat":43.06293,"lng":-75.64654,"zip":"13421","miles_from_dt":17.41},{"city":"Syracuse","state_name":"New York","lat":43.10333,"lng":-76.11954,"zip":"13211","miles_from_dt":17.57},{"city":"Fayetteville","state_name":"New York","lat":43.03297,"lng":-76.00259,"zip":"13066","miles_from_dt":17.78},{"city":"Lee Center","state_name":"New York","lat":43.33127,"lng":-75.50984,"zip":"13363","miles_from_dt":17.81},{"city":"Clay","state_name":"New York","lat":43.19079,"lng":-76.19711,"zip":"13041","miles_from_dt":18.19},{"city":"Rome","state_name":"New York","lat":43.22549,"lng":-75.49228,"zip":"13449","miles_from_dt":18.34},{"city":"Syracuse","state_name":"New York","lat":43.07354,"lng":-76.10584,"zip":"13206","miles_from_dt":18.47},{"city":"Sherrill","state_name":"New York","lat":43.07115,"lng":-75.59866,"zip":"13461","miles_from_dt":18.53},{"city":"Syracuse","state_name":"New York","lat":43.03865,"lng":-76.0741,"zip":"13214","miles_from_dt":19.29},{"city":"Syracuse","state_name":"New York","lat":43.07878,"lng":-76.14521,"zip":"13208","miles_from_dt":19.66},{"city":"Pennellville","state_name":"New York","lat":43.26547,"lng":-76.24446,"zip":"13132","miles_from_dt":19.82},{"city":"Liverpool","state_name":"New York","lat":43.15162,"lng":-76.21344,"zip":"13090","miles_from_dt":19.9},{"city":"Rome","state_name":"New York","lat":43.21807,"lng":-75.45941,"zip":"13440","miles_from_dt":20.06},{"city":"Maple View","state_name":"New York","lat":43.46048,"lng":-76.147,"zip":"13107","miles_from_dt":20.06},{"city":"Syracuse","state_name":"New York","lat":43.061,"lng":-76.13486,"zip":"13203","miles_from_dt":20.11},{"city":"Syracuse","state_name":"New York","lat":43.03892,"lng":-76.10264,"zip":"13224","miles_from_dt":20.15},{"city":"Syracuse","state_name":"New York","lat":43.05184,"lng":-76.12316,"zip":"13217","miles_from_dt":20.16},{"city":"Liverpool","state_name":"New York","lat":43.10787,"lng":-76.19096,"zip":"13088","miles_from_dt":20.31},{"city":"Rome","state_name":"New York","lat":43.21762,"lng":-75.44742,"zip":"13442","miles_from_dt":20.66},{"city":"Ava","state_name":"New York","lat":43.36992,"lng":-75.46636,"zip":"13303","miles_from_dt":20.71},{"city":"Liverpool","state_name":"New York","lat":43.13977,"lng":-76.22722,"zip":"13089","miles_from_dt":20.87},{"city":"Syracuse","state_name":"New York","lat":43.07132,"lng":-76.17368,"zip":"13290","miles_from_dt":21.09},{"city":"Syracuse","state_name":"New York","lat":43.04241,"lng":-76.13669,"zip":"13235","miles_from_dt":21.1},{"city":"Vernon","state_name":"New York","lat":43.08728,"lng":-75.51219,"zip":"13476","miles_from_dt":21.11},{"city":"Syracuse","state_name":"New York","lat":43.0488,"lng":-76.14983,"zip":"13221","miles_from_dt":21.24},{"city":"Syracuse","state_name":"New York","lat":43.04708,"lng":-76.14842,"zip":"13218","miles_from_dt":21.28},{"city":"Syracuse","state_name":"New York","lat":43.03186,"lng":-76.12653,"zip":"13210","miles_from_dt":21.3},{"city":"Syracuse","state_name":"New York","lat":43.05008,"lng":-76.15453,"zip":"13261","miles_from_dt":21.35},{"city":"West Leyden","state_name":"New York","lat":43.46698,"lng":-75.52928,"zip":"13489","miles_from_dt":21.37},{"city":"Manlius","state_name":"New York","lat":42.96378,"lng":-75.95523,"zip":"13104","miles_from_dt":21.49},{"city":"Syracuse","state_name":"New York","lat":43.04858,"lng":-76.15656,"zip":"13252","miles_from_dt":21.5},{"city":"Syracuse","state_name":"New York","lat":43.04356,"lng":-76.15065,"zip":"13202","miles_from_dt":21.53},{"city":"Orwell","state_name":"New York","lat":43.56057,"lng":-75.9931,"zip":"13426","miles_from_dt":21.57},{"city":"Syracuse","state_name":"New York","lat":43.02318,"lng":-76.12329,"zip":"13244","miles_from_dt":21.65},{"city":"Syracuse","state_name":"New York","lat":43.04092,"lng":-76.15264,"zip":"13201","miles_from_dt":21.73},{"city":"Richland","state_name":"New York","lat":43.57034,"lng":-75.97464,"zip":"13144","miles_from_dt":21.93},{"city":"Syracuse","state_name":"New York","lat":43.05204,"lng":-76.17666,"zip":"13204","miles_from_dt":22.08},{"city":"Peterboro","state_name":"New York","lat":42.96731,"lng":-75.68476,"zip":"13134","miles_from_dt":22.25},{"city":"Rome","state_name":"New York","lat":43.22711,"lng":-75.40758,"zip":"13441","miles_from_dt":22.56},{"city":"Cazenovia","state_name":"New York","lat":42.93828,"lng":-75.82551,"zip":"13035","miles_from_dt":22.64},{"city":"Redfield","state_name":"New York","lat":43.59677,"lng":-75.80383,"zip":"13437","miles_from_dt":22.98},{"city":"Syracuse","state_name":"New York","lat":43.00474,"lng":-76.14163,"zip":"13205","miles_from_dt":23.23},{"city":"Vernon Center","state_name":"New York","lat":43.03633,"lng":-75.51441,"zip":"13477","miles_from_dt":23.26},{"city":"Syracuse","state_name":"New York","lat":43.08581,"lng":-76.24355,"zip":"13209","miles_from_dt":23.37},{"city":"Phoenix","state_name":"New York","lat":43.25801,"lng":-76.31676,"zip":"13135","miles_from_dt":23.48},{"city":"Jamesville","state_name":"New York","lat":42.96206,"lng":-76.06171,"zip":"13078","miles_from_dt":23.5},{"city":"Syracuse","state_name":"New York","lat":43.01221,"lng":-76.16354,"zip":"13207","miles_from_dt":23.56},{"city":"Munnsville","state_name":"New York","lat":42.97602,"lng":-75.59131,"zip":"13409","miles_from_dt":23.94},{"city":"Westmoreland","state_name":"New York","lat":43.10612,"lng":-75.42991,"zip":"13490","miles_from_dt":23.98},{"city":"Mexico","state_name":"New York","lat":43.46386,"lng":-76.24328,"zip":"13114","miles_from_dt":24.01},{"city":"Pulaski","state_name":"New York","lat":43.55189,"lng":-76.12959,"zip":"13142","miles_from_dt":24.21},{"city":"Syracuse","state_name":"New York","lat":43.03969,"lng":-76.22277,"zip":"13219","miles_from_dt":24.4},{"city":"Morrisville","state_name":"New York","lat":42.92205,"lng":-75.66722,"zip":"13408","miles_from_dt":25.49},{"city":"Knoxboro","state_name":"New York","lat":42.98434,"lng":-75.51901,"zip":"13362","miles_from_dt":25.69},{"city":"Oriskany","state_name":"New York","lat":43.15228,"lng":-75.36291,"zip":"13424","miles_from_dt":25.88},{"city":"Warners","state_name":"New York","lat":43.09377,"lng":-76.31626,"zip":"13164","miles_from_dt":26.31},{"city":"Westernville","state_name":"New York","lat":43.35707,"lng":-75.34088,"zip":"13486","miles_from_dt":26.5},{"city":"Delphi Falls","state_name":"New York","lat":42.88339,"lng":-75.91021,"zip":"13051","miles_from_dt":26.55},{"city":"Pompey","state_name":"New York","lat":42.89915,"lng":-76.01461,"zip":"13138","miles_from_dt":26.61},{"city":"Baldwinsville","state_name":"New York","lat":43.16741,"lng":-76.36258,"zip":"13027","miles_from_dt":26.68},{"city":"Fulton","state_name":"New York","lat":43.33081,"lng":-76.37867,"zip":"13069","miles_from_dt":26.96},{"city":"Constableville","state_name":"New York","lat":43.58398,"lng":-75.54091,"zip":"13325","miles_from_dt":26.97},{"city":"Clark Mills","state_name":"New York","lat":43.08901,"lng":-75.37259,"zip":"13321","miles_from_dt":27.1},{"city":"Lacona","state_name":"New York","lat":43.64853,"lng":-75.98091,"zip":"13083","miles_from_dt":27.22},{"city":"Nedrow","state_name":"New York","lat":42.94233,"lng":-76.1695,"zip":"13120","miles_from_dt":27.51},{"city":"Syracuse","state_name":"New York","lat":42.97852,"lng":-76.22979,"zip":"13215","miles_from_dt":27.54},{"city":"New Haven","state_name":"New York","lat":43.48491,"lng":-76.30966,"zip":"13121","miles_from_dt":27.59},{"city":"Camillus","state_name":"New York","lat":43.0448,"lng":-76.30775,"zip":"13031","miles_from_dt":27.64},{"city":"Oriskany Falls","state_name":"New York","lat":42.9635,"lng":-75.48675,"zip":"13425","miles_from_dt":27.85},{"city":"Stittville","state_name":"New York","lat":43.22028,"lng":-75.29853,"zip":"13469","miles_from_dt":28.08},{"city":"Erieville","state_name":"New York","lat":42.86493,"lng":-75.75173,"zip":"13061","miles_from_dt":28.12},{"city":"Franklin Springs","state_name":"New York","lat":43.03468,"lng":-75.39075,"zip":"13341","miles_from_dt":28.22},{"city":"Whitesboro","state_name":"New York","lat":43.1172,"lng":-75.33023,"zip":"13492","miles_from_dt":28.26},{"city":"Clinton","state_name":"New York","lat":43.04198,"lng":-75.38144,"zip":"13323","miles_from_dt":28.34},{"city":"Deansboro","state_name":"New York","lat":42.98247,"lng":-75.42836,"zip":"13328","miles_from_dt":28.98},{"city":"La Fayette","state_name":"New York","lat":42.88938,"lng":-76.11314,"zip":"13084","miles_from_dt":29.15},{"city":"Holland Patent","state_name":"New York","lat":43.26612,"lng":-75.27199,"zip":"13354","miles_from_dt":29.24},{"city":"Boonville","state_name":"New York","lat":43.47398,"lng":-75.34103,"zip":"13309","miles_from_dt":29.46},{"city":"New Woodstock","state_name":"New York","lat":42.83857,"lng":-75.85919,"zip":"13122","miles_from_dt":29.48},{"city":"Bouckville","state_name":"New York","lat":42.89055,"lng":-75.57065,"zip":"13310","miles_from_dt":29.54},{"city":"Solsville","state_name":"New York","lat":42.91064,"lng":-75.52102,"zip":"13465","miles_from_dt":29.67},{"city":"Fabius","state_name":"New York","lat":42.84429,"lng":-75.98023,"zip":"13063","miles_from_dt":29.81},{"city":"Sandy Creek","state_name":"New York","lat":43.65188,"lng":-76.1232,"zip":"13145","miles_from_dt":29.96},{"city":"Marcy","state_name":"New York","lat":43.17041,"lng":-75.27188,"zip":"13403","miles_from_dt":30}],"targetCityZipCode":"13042","targetCityState":"New York"},"__N_SSG":true}