{"pageProps":{"stateName":"New-york","cityName":"clifton-springs","nearbyCities":[{"city":"Seneca Castle","state_name":"New York","lat":42.90494,"lng":-77.12653,"zip":"14547","miles_from_dt":3.69},{"city":"Manchester","state_name":"New York","lat":42.96839,"lng":-77.2327,"zip":"14504","miles_from_dt":4.6},{"city":"Shortsville","state_name":"New York","lat":42.97538,"lng":-77.24341,"zip":"14548","miles_from_dt":5.23},{"city":"Port Gibson","state_name":"New York","lat":43.03539,"lng":-77.15604,"zip":"14537","miles_from_dt":5.45},{"city":"Phelps","state_name":"New York","lat":42.96462,"lng":-77.02601,"zip":"14532","miles_from_dt":5.97},{"city":"Oaks Corners","state_name":"New York","lat":42.93017,"lng":-77.01246,"zip":"14518","miles_from_dt":6.89},{"city":"Palmyra","state_name":"New York","lat":43.05911,"lng":-77.22152,"zip":"14522","miles_from_dt":8.09},{"city":"Newark","state_name":"New York","lat":43.07204,"lng":-77.0961,"zip":"14513","miles_from_dt":8.3},{"city":"Stanley","state_name":"New York","lat":42.82218,"lng":-77.13131,"zip":"14561","miles_from_dt":9.32},{"city":"Farmington","state_name":"New York","lat":42.98962,"lng":-77.33734,"zip":"14425","miles_from_dt":10.09},{"city":"Geneva","state_name":"New York","lat":42.84584,"lng":-77.00012,"zip":"14456","miles_from_dt":10.57},{"city":"Gorham","state_name":"New York","lat":42.80179,"lng":-77.1305,"zip":"14461","miles_from_dt":10.73},{"city":"Canandaigua","state_name":"New York","lat":42.84649,"lng":-77.3104,"zip":"14424","miles_from_dt":11.4},{"city":"Hall","state_name":"New York","lat":42.79539,"lng":-77.0689,"zip":"14463","miles_from_dt":11.78},{"city":"Lyons","state_name":"New York","lat":43.09008,"lng":-76.99238,"zip":"14489","miles_from_dt":11.95},{"city":"Macedon","state_name":"New York","lat":43.09532,"lng":-77.33598,"zip":"14502","miles_from_dt":13.65},{"city":"Waterloo","state_name":"New York","lat":42.91185,"lng":-76.87601,"zip":"13165","miles_from_dt":13.91},{"city":"Marion","state_name":"New York","lat":43.15846,"lng":-77.17503,"zip":"14505","miles_from_dt":14},{"city":"Victor","state_name":"New York","lat":42.98329,"lng":-77.42417,"zip":"14564","miles_from_dt":14.35},{"city":"Rushville","state_name":"New York","lat":42.75562,"lng":-77.23958,"zip":"14544","miles_from_dt":14.73},{"city":"Walworth","state_name":"New York","lat":43.14657,"lng":-77.28365,"zip":"14568","miles_from_dt":14.89},{"city":"Bellona","state_name":"New York","lat":42.7559,"lng":-77.01643,"zip":"14415","miles_from_dt":15.3},{"city":"Clyde","state_name":"New York","lat":43.07939,"lng":-76.87779,"zip":"14433","miles_from_dt":15.88},{"city":"East Bloomfield","state_name":"New York","lat":42.89039,"lng":-77.4465,"zip":"14443","miles_from_dt":16.05},{"city":"Fairport","state_name":"New York","lat":43.0921,"lng":-77.41623,"zip":"14450","miles_from_dt":16.68},{"city":"Fishers","state_name":"New York","lat":43.01602,"lng":-77.47338,"zip":"14453","miles_from_dt":17.22},{"city":"Bloomfield","state_name":"New York","lat":42.87778,"lng":-77.46735,"zip":"14469","miles_from_dt":17.32},{"city":"Ionia","state_name":"New York","lat":42.93683,"lng":-77.49787,"zip":"14475","miles_from_dt":18.03},{"city":"Seneca Falls","state_name":"New York","lat":42.9208,"lng":-76.78106,"zip":"13148","miles_from_dt":18.54},{"city":"Mendon","state_name":"New York","lat":43.0012,"lng":-77.50508,"zip":"14506","miles_from_dt":18.59},{"city":"Sodus","state_name":"New York","lat":43.21886,"lng":-77.04596,"zip":"14551","miles_from_dt":18.74},{"city":"East Williamson","state_name":"New York","lat":43.23274,"lng":-77.15012,"zip":"14449","miles_from_dt":19.04},{"city":"Rose","state_name":"New York","lat":43.15306,"lng":-76.87595,"zip":"14542","miles_from_dt":19.14},{"city":"Middlesex","state_name":"New York","lat":42.69635,"lng":-77.27373,"zip":"14507","miles_from_dt":19.17},{"city":"Fayette","state_name":"New York","lat":42.81884,"lng":-76.81577,"zip":"13065","miles_from_dt":19.17},{"city":"Williamson","state_name":"New York","lat":43.23997,"lng":-77.17224,"zip":"14589","miles_from_dt":19.59},{"city":"Pittsford","state_name":"New York","lat":43.0564,"lng":-77.52083,"zip":"14534","miles_from_dt":20.32},{"city":"Alton","state_name":"New York","lat":43.2229,"lng":-76.97067,"zip":"14413","miles_from_dt":20.33},{"city":"Penn Yan","state_name":"New York","lat":42.66764,"lng":-77.06473,"zip":"14527","miles_from_dt":20.37},{"city":"North Rose","state_name":"New York","lat":43.19855,"lng":-76.91153,"zip":"14516","miles_from_dt":20.39},{"city":"Ontario Center","state_name":"New York","lat":43.22743,"lng":-77.30696,"zip":"14520","miles_from_dt":20.42},{"city":"Penfield","state_name":"New York","lat":43.15129,"lng":-77.44806,"zip":"14526","miles_from_dt":20.44},{"city":"Romulus","state_name":"New York","lat":42.75704,"lng":-76.84403,"zip":"14541","miles_from_dt":20.53},{"city":"East Rochester","state_name":"New York","lat":43.11312,"lng":-77.48978,"zip":"14445","miles_from_dt":20.59},{"city":"Ontario","state_name":"New York","lat":43.23184,"lng":-77.31389,"zip":"14519","miles_from_dt":20.84},{"city":"Dresden","state_name":"New York","lat":42.68608,"lng":-76.95756,"zip":"14441","miles_from_dt":20.95},{"city":"West Bloomfield","state_name":"New York","lat":42.90587,"lng":-77.55301,"zip":"14585","miles_from_dt":21.08},{"city":"Savannah","state_name":"New York","lat":43.09711,"lng":-76.76031,"zip":"13146","miles_from_dt":21.68},{"city":"Union Hill","state_name":"New York","lat":43.2231,"lng":-77.37135,"zip":"14563","miles_from_dt":21.69},{"city":"Pultneyville","state_name":"New York","lat":43.27804,"lng":-77.1722,"zip":"14538","miles_from_dt":22.21},{"city":"Honeoye Falls","state_name":"New York","lat":42.96589,"lng":-77.58173,"zip":"14472","miles_from_dt":22.23},{"city":"Sodus Point","state_name":"New York","lat":43.25946,"lng":-76.98665,"zip":"14555","miles_from_dt":22.34},{"city":"Montezuma","state_name":"New York","lat":43.01007,"lng":-76.70838,"zip":"13117","miles_from_dt":22.35},{"city":"Rochester","state_name":"New York","lat":43.14891,"lng":-77.50551,"zip":"14625","miles_from_dt":22.62},{"city":"Honeoye","state_name":"New York","lat":42.75308,"lng":-77.49425,"zip":"14471","miles_from_dt":22.71},{"city":"South Butler","state_name":"New York","lat":43.13378,"lng":-76.76192,"zip":"13154","miles_from_dt":22.84},{"city":"Cayuga","state_name":"New York","lat":42.91366,"lng":-76.69502,"zip":"13034","miles_from_dt":22.93},{"city":"Rochester","state_name":"New York","lat":43.11305,"lng":-77.55547,"zip":"14618","miles_from_dt":23.49},{"city":"Willard","state_name":"New York","lat":42.67973,"lng":-76.87047,"zip":"14588","miles_from_dt":23.63},{"city":"Webster","state_name":"New York","lat":43.21883,"lng":-77.44561,"zip":"14580","miles_from_dt":23.68},{"city":"Lima","state_name":"New York","lat":42.88016,"lng":-77.60131,"zip":"14485","miles_from_dt":23.83},{"city":"Rochester","state_name":"New York","lat":43.14196,"lng":-77.5463,"zip":"14610","miles_from_dt":24.07},{"city":"Henrietta","state_name":"New York","lat":43.04119,"lng":-77.60996,"zip":"14467","miles_from_dt":24.35},{"city":"Branchport","state_name":"New York","lat":42.60717,"lng":-77.21681,"zip":"14418","miles_from_dt":24.43},{"city":"Rochester","state_name":"New York","lat":43.08884,"lng":-77.59968,"zip":"14694","miles_from_dt":24.84},{"city":"Naples","state_name":"New York","lat":42.64411,"lng":-77.39296,"zip":"14512","miles_from_dt":25.05},{"city":"Wolcott","state_name":"New York","lat":43.24533,"lng":-76.83099,"zip":"14590","miles_from_dt":25.41},{"city":"Port Byron","state_name":"New York","lat":43.05891,"lng":-76.65841,"zip":"13140","miles_from_dt":25.55},{"city":"Hemlock","state_name":"New York","lat":42.77773,"lng":-77.5842,"zip":"14466","miles_from_dt":25.58},{"city":"Rochester","state_name":"New York","lat":43.17731,"lng":-77.55234,"zip":"14609","miles_from_dt":25.69},{"city":"Ovid","state_name":"New York","lat":42.67639,"lng":-76.80876,"zip":"14521","miles_from_dt":25.77},{"city":"Keuka Park","state_name":"New York","lat":42.58011,"lng":-77.12791,"zip":"14478","miles_from_dt":26.02},{"city":"Rochester","state_name":"New York","lat":43.15099,"lng":-77.58682,"zip":"14607","miles_from_dt":26.14},{"city":"Rochester","state_name":"New York","lat":43.12878,"lng":-77.60463,"zip":"14620","miles_from_dt":26.2},{"city":"Himrod","state_name":"New York","lat":42.59666,"lng":-76.963,"zip":"14842","miles_from_dt":26.51},{"city":"Union Springs","state_name":"New York","lat":42.82613,"lng":-76.65157,"zip":"13160","miles_from_dt":26.54},{"city":"Rochester","state_name":"New York","lat":43.08798,"lng":-77.64314,"zip":"14623","miles_from_dt":26.88},{"city":"Rochester","state_name":"New York","lat":43.12281,"lng":-77.62508,"zip":"14642","miles_from_dt":26.95},{"city":"Rochester","state_name":"New York","lat":43.15384,"lng":-77.60365,"zip":"14644","miles_from_dt":26.98},{"city":"Rochester","state_name":"New York","lat":43.15151,"lng":-77.60568,"zip":"14646","miles_from_dt":26.98},{"city":"Livonia Center","state_name":"New York","lat":42.81881,"lng":-77.64226,"zip":"14488","miles_from_dt":27.06},{"city":"Livonia","state_name":"New York","lat":42.81174,"lng":-77.63873,"zip":"14487","miles_from_dt":27.07},{"city":"Rochester","state_name":"New York","lat":43.15711,"lng":-77.60437,"zip":"14649","miles_from_dt":27.12},{"city":"Rush","state_name":"New York","lat":42.98777,"lng":-77.67747,"zip":"14543","miles_from_dt":27.16},{"city":"Rochester","state_name":"New York","lat":43.1569,"lng":-77.60536,"zip":"14604","miles_from_dt":27.16},{"city":"Rochester","state_name":"New York","lat":43.15537,"lng":-77.60729,"zip":"14643","miles_from_dt":27.19},{"city":"Rochester","state_name":"New York","lat":43.15802,"lng":-77.60511,"zip":"14639","miles_from_dt":27.19},{"city":"Rochester","state_name":"New York","lat":43.15714,"lng":-77.60668,"zip":"14638","miles_from_dt":27.22},{"city":"Rochester","state_name":"New York","lat":43.16003,"lng":-77.60527,"zip":"14603","miles_from_dt":27.26},{"city":"Rochester","state_name":"New York","lat":43.1572,"lng":-77.60804,"zip":"14647","miles_from_dt":27.28},{"city":"Rochester","state_name":"New York","lat":43.21389,"lng":-77.55359,"zip":"14622","miles_from_dt":27.3},{"city":"Rochester","state_name":"New York","lat":43.12931,"lng":-77.62912,"zip":"14627","miles_from_dt":27.32},{"city":"Rochester","state_name":"New York","lat":43.16823,"lng":-77.60193,"zip":"14602","miles_from_dt":27.41},{"city":"Rochester","state_name":"New York","lat":43.16838,"lng":-77.60177,"zip":"14605","miles_from_dt":27.41},{"city":"Rochester","state_name":"New York","lat":43.1574,"lng":-77.61473,"zip":"14614","miles_from_dt":27.58},{"city":"Rochester","state_name":"New York","lat":43.15213,"lng":-77.62333,"zip":"14653","miles_from_dt":27.78},{"city":"Rochester","state_name":"New York","lat":43.15213,"lng":-77.62333,"zip":"14692","miles_from_dt":27.78},{"city":"Rochester","state_name":"New York","lat":43.15335,"lng":-77.62362,"zip":"14608","miles_from_dt":27.84},{"city":"Rochester","state_name":"New York","lat":43.16065,"lng":-77.61961,"zip":"14651","miles_from_dt":27.91},{"city":"South Lima","state_name":"New York","lat":42.85382,"lng":-77.67765,"zip":"14558","miles_from_dt":28.03},{"city":"Rochester","state_name":"New York","lat":43.16217,"lng":-77.62167,"zip":"14650","miles_from_dt":28.05},{"city":"West Henrietta","state_name":"New York","lat":43.04151,"lng":-77.68693,"zip":"14586","miles_from_dt":28.15},{"city":"Rochester","state_name":"New York","lat":43.18911,"lng":-77.60408,"zip":"14621","miles_from_dt":28.29},{"city":"Aurora","state_name":"New York","lat":42.75044,"lng":-76.65968,"zip":"13026","miles_from_dt":28.4},{"city":"Rochester","state_name":"New York","lat":43.1361,"lng":-77.649,"zip":"14619","miles_from_dt":28.43},{"city":"Rochester","state_name":"New York","lat":43.14756,"lng":-77.64731,"zip":"14611","miles_from_dt":28.71},{"city":"Springwater","state_name":"New York","lat":42.68716,"lng":-77.57691,"zip":"14560","miles_from_dt":28.85},{"city":"Red Creek","state_name":"New York","lat":43.23325,"lng":-76.71545,"zip":"13143","miles_from_dt":28.85},{"city":"Auburn","state_name":"New York","lat":42.93453,"lng":-76.57424,"zip":"13024","miles_from_dt":28.9},{"city":"Rochester","state_name":"New York","lat":43.22488,"lng":-77.59323,"zip":"14617","miles_from_dt":29.33},{"city":"Pulteney","state_name":"New York","lat":42.53231,"lng":-77.17234,"zip":"14874","miles_from_dt":29.35},{"city":"Lodi","state_name":"New York","lat":42.59099,"lng":-76.84201,"zip":"14860","miles_from_dt":29.55},{"city":"Rochester","state_name":"New York","lat":43.1822,"lng":-77.64068,"zip":"14613","miles_from_dt":29.59},{"city":"Lakeville","state_name":"New York","lat":42.83809,"lng":-77.70736,"zip":"14480","miles_from_dt":29.78}],"targetCityZipCode":"14432","targetCityState":"New York"},"__N_SSG":true}