{"pageProps":{"stateName":"New-york","cityName":"coopers-plains","nearbyCities":[{"city":"Painted Post","state_name":"New York","lat":42.16816,"lng":-77.13234,"zip":"14870","miles_from_dt":1.02},{"city":"Corning","state_name":"New York","lat":42.14715,"lng":-77.05647,"zip":"14831","miles_from_dt":5.01},{"city":"Campbell","state_name":"New York","lat":42.23541,"lng":-77.21623,"zip":"14821","miles_from_dt":5.33},{"city":"Corning","state_name":"New York","lat":42.12927,"lng":-77.02783,"zip":"14830","miles_from_dt":6.89},{"city":"Addison","state_name":"New York","lat":42.09718,"lng":-77.28461,"zip":"14801","miles_from_dt":9.28},{"city":"Savona","state_name":"New York","lat":42.31521,"lng":-77.19323,"zip":"14879","miles_from_dt":9.64},{"city":"Big Flats","state_name":"New York","lat":42.15525,"lng":-76.95148,"zip":"14814","miles_from_dt":9.99},{"city":"Lindley","state_name":"New York","lat":42.02909,"lng":-77.13315,"zip":"14858","miles_from_dt":10.48},{"city":"Beaver Dams","state_name":"New York","lat":42.29199,"lng":-76.99413,"zip":"14812","miles_from_dt":10.83},{"city":"Cameron Mills","state_name":"New York","lat":42.18629,"lng":-77.36258,"zip":"14820","miles_from_dt":11.28},{"city":"Bradford","state_name":"New York","lat":42.37335,"lng":-77.09463,"zip":"14815","miles_from_dt":13.53},{"city":"Elmira","state_name":"New York","lat":42.12372,"lng":-76.87771,"zip":"14903","miles_from_dt":14.18},{"city":"Lawrenceville","state_name":"Pennsylvania","lat":41.97352,"lng":-77.15028,"zip":"16929","miles_from_dt":14.3},{"city":"Nelson","state_name":"Pennsylvania","lat":41.97752,"lng":-77.23373,"zip":"16940","miles_from_dt":14.78},{"city":"Pine Valley","state_name":"New York","lat":42.24141,"lng":-76.86473,"zip":"14872","miles_from_dt":14.88},{"city":"Cameron","state_name":"New York","lat":42.21924,"lng":-77.43466,"zip":"14819","miles_from_dt":15.21},{"city":"Pine City","state_name":"New York","lat":42.03838,"lng":-76.91093,"zip":"14871","miles_from_dt":15.45},{"city":"Bath","state_name":"New York","lat":42.34678,"lng":-77.34599,"zip":"14810","miles_from_dt":15.49},{"city":"Elkland","state_name":"Pennsylvania","lat":41.98218,"lng":-77.28851,"zip":"16920","miles_from_dt":15.61},{"city":"Tyrone","state_name":"New York","lat":42.40247,"lng":-77.06989,"zip":"14887","miles_from_dt":15.76},{"city":"Horseheads","state_name":"New York","lat":42.20225,"lng":-76.8334,"zip":"14845","miles_from_dt":15.96},{"city":"Elmira","state_name":"New York","lat":42.08692,"lng":-76.84284,"zip":"14905","miles_from_dt":16.72},{"city":"Watkins Glen","state_name":"New York","lat":42.37823,"lng":-76.95035,"zip":"14891","miles_from_dt":16.83},{"city":"Millport","state_name":"New York","lat":42.2804,"lng":-76.84205,"zip":"14864","miles_from_dt":16.9},{"city":"Woodhull","state_name":"New York","lat":42.05729,"lng":-77.43482,"zip":"14898","miles_from_dt":17.25},{"city":"Elmira","state_name":"New York","lat":42.10412,"lng":-76.81218,"zip":"14902","miles_from_dt":17.79},{"city":"Kanona","state_name":"New York","lat":42.37737,"lng":-77.36944,"zip":"14856","miles_from_dt":17.86},{"city":"Hammondsport","state_name":"New York","lat":42.44119,"lng":-77.18758,"zip":"14840","miles_from_dt":18.13},{"city":"Tioga","state_name":"Pennsylvania","lat":41.91422,"lng":-77.13999,"zip":"16946","miles_from_dt":18.39},{"city":"Osceola","state_name":"Pennsylvania","lat":41.9654,"lng":-77.35414,"zip":"16942","miles_from_dt":18.41},{"city":"Jasper","state_name":"New York","lat":42.13978,"lng":-77.50112,"zip":"14855","miles_from_dt":18.61},{"city":"Elmira","state_name":"New York","lat":42.07007,"lng":-76.80798,"zip":"14904","miles_from_dt":18.83},{"city":"Millerton","state_name":"Pennsylvania","lat":41.94318,"lng":-76.95837,"zip":"16936","miles_from_dt":18.94},{"city":"Montour Falls","state_name":"New York","lat":42.35091,"lng":-76.83178,"zip":"14865","miles_from_dt":19.81},{"city":"Wayne","state_name":"New York","lat":42.46952,"lng":-77.11182,"zip":"14893","miles_from_dt":20},{"city":"Reading Center","state_name":"New York","lat":42.43372,"lng":-76.95015,"zip":"14876","miles_from_dt":20.06},{"city":"Breesport","state_name":"New York","lat":42.19728,"lng":-76.73161,"zip":"14816","miles_from_dt":21.14},{"city":"Rock Stream","state_name":"New York","lat":42.44946,"lng":-76.94401,"zip":"14878","miles_from_dt":21.17},{"city":"Knoxville","state_name":"Pennsylvania","lat":41.95203,"lng":-77.43371,"zip":"16928","miles_from_dt":21.74},{"city":"Elmira","state_name":"New York","lat":42.07363,"lng":-76.74137,"zip":"14901","miles_from_dt":21.91},{"city":"Wellsburg","state_name":"New York","lat":42.02442,"lng":-76.77185,"zip":"14894","miles_from_dt":21.91},{"city":"Canisteo","state_name":"New York","lat":42.23984,"lng":-77.5722,"zip":"14823","miles_from_dt":22.4},{"city":"Avoca","state_name":"New York","lat":42.41961,"lng":-77.44355,"zip":"14809","miles_from_dt":22.57},{"city":"Odessa","state_name":"New York","lat":42.36403,"lng":-76.77052,"zip":"14869","miles_from_dt":22.9},{"city":"Dundee","state_name":"New York","lat":42.49919,"lng":-77.01668,"zip":"14837","miles_from_dt":22.91},{"city":"Cayuta","state_name":"New York","lat":42.26875,"lng":-76.70881,"zip":"14824","miles_from_dt":23.08},{"city":"Middlebury Center","state_name":"Pennsylvania","lat":41.87032,"lng":-77.32404,"zip":"16935","miles_from_dt":23.36},{"city":"Troupsburg","state_name":"New York","lat":42.048,"lng":-77.57117,"zip":"14885","miles_from_dt":23.84},{"city":"Gillett","state_name":"Pennsylvania","lat":41.95319,"lng":-76.78997,"zip":"16925","miles_from_dt":24},{"city":"Lowman","state_name":"New York","lat":42.0914,"lng":-76.6888,"zip":"14861","miles_from_dt":24.13},{"city":"Pulteney","state_name":"New York","lat":42.53231,"lng":-77.17234,"zip":"14874","miles_from_dt":24.32},{"city":"Erin","state_name":"New York","lat":42.18951,"lng":-76.66635,"zip":"14838","miles_from_dt":24.47},{"city":"Alpine","state_name":"New York","lat":42.3563,"lng":-76.72618,"zip":"14805","miles_from_dt":24.56},{"city":"Prattsburgh","state_name":"New York","lat":42.52181,"lng":-77.29814,"zip":"14873","miles_from_dt":24.85},{"city":"Burdett","state_name":"New York","lat":42.44878,"lng":-76.81688,"zip":"14818","miles_from_dt":24.93},{"city":"Mansfield","state_name":"Pennsylvania","lat":41.81904,"lng":-77.06716,"zip":"16933","miles_from_dt":25.26},{"city":"Lakemont","state_name":"New York","lat":42.51874,"lng":-76.92825,"zip":"14857","miles_from_dt":25.79},{"city":"Greenwood","state_name":"New York","lat":42.13961,"lng":-77.64331,"zip":"14839","miles_from_dt":25.85},{"city":"Keuka Park","state_name":"New York","lat":42.58011,"lng":-77.12791,"zip":"14478","miles_from_dt":27.58},{"city":"Hornell","state_name":"New York","lat":42.32819,"lng":-77.64371,"zip":"14843","miles_from_dt":27.62},{"city":"Westfield","state_name":"Pennsylvania","lat":41.89816,"lng":-77.53429,"zip":"16950","miles_from_dt":28.03},{"city":"Cohocton","state_name":"New York","lat":42.49354,"lng":-77.49335,"zip":"14826","miles_from_dt":28.08},{"city":"Chemung","state_name":"New York","lat":42.05564,"lng":-76.62116,"zip":"14825","miles_from_dt":28.17},{"city":"Hector","state_name":"New York","lat":42.52699,"lng":-76.84249,"zip":"14841","miles_from_dt":28.42},{"city":"Van Etten","state_name":"New York","lat":42.21605,"lng":-76.58138,"zip":"14889","miles_from_dt":28.92},{"city":"Columbia Cross Roads","state_name":"Pennsylvania","lat":41.8618,"lng":-76.77687,"zip":"16914","miles_from_dt":28.97},{"city":"Rexville","state_name":"New York","lat":42.06181,"lng":-77.68384,"zip":"14877","miles_from_dt":28.98},{"city":"Mecklenburg","state_name":"New York","lat":42.4555,"lng":-76.71105,"zip":"14863","miles_from_dt":29.14},{"city":"Newfield","state_name":"New York","lat":42.34243,"lng":-76.61461,"zip":"14867","miles_from_dt":29.3},{"city":"Branchport","state_name":"New York","lat":42.60717,"lng":-77.21681,"zip":"14418","miles_from_dt":29.68},{"city":"Sylvania","state_name":"Pennsylvania","lat":41.80546,"lng":-76.85648,"zip":"16945","miles_from_dt":29.8},{"city":"Mainesburg","state_name":"Pennsylvania","lat":41.77574,"lng":-76.94017,"zip":"16932","miles_from_dt":29.84}],"targetCityZipCode":"14827","targetCityState":"New York"},"__N_SSG":true}