{"pageProps":{"stateName":"New-york","cityName":"eagle-bay","nearbyCities":[{"city":"Thendara","state_name":"New York","lat":43.69491,"lng":-75.06072,"zip":"13472","miles_from_dt":9.51},{"city":"Old Forge","state_name":"New York","lat":43.65069,"lng":-74.9619,"zip":"13420","miles_from_dt":11.5},{"city":"Inlet","state_name":"New York","lat":43.72457,"lng":-74.73577,"zip":"13360","miles_from_dt":13.47},{"city":"Brantingham","state_name":"New York","lat":43.70247,"lng":-75.20758,"zip":"13312","miles_from_dt":14.16},{"city":"Raquette Lake","state_name":"New York","lat":43.80501,"lng":-74.67034,"zip":"13436","miles_from_dt":15.15},{"city":"Lowville","state_name":"New York","lat":43.85563,"lng":-75.31772,"zip":"13367","miles_from_dt":17.44},{"city":"Glenfield","state_name":"New York","lat":43.75271,"lng":-75.31062,"zip":"13343","miles_from_dt":17.47},{"city":"Croghan","state_name":"New York","lat":43.96047,"lng":-75.28474,"zip":"13327","miles_from_dt":18.45},{"city":"Wanakena","state_name":"New York","lat":44.10505,"lng":-74.92872,"zip":"13695","miles_from_dt":20},{"city":"Greig","state_name":"New York","lat":43.6889,"lng":-75.33153,"zip":"13345","miles_from_dt":20.01},{"city":"Port Leyden","state_name":"New York","lat":43.59914,"lng":-75.24765,"zip":"13433","miles_from_dt":20.39},{"city":"Woodgate","state_name":"New York","lat":43.53136,"lng":-75.14198,"zip":"13494","miles_from_dt":21.47},{"city":"Star Lake","state_name":"New York","lat":44.12612,"lng":-75.02319,"zip":"13690","miles_from_dt":21.49},{"city":"Lyons Falls","state_name":"New York","lat":43.6446,"lng":-75.33209,"zip":"13368","miles_from_dt":21.57},{"city":"Forestport","state_name":"New York","lat":43.49706,"lng":-74.97833,"zip":"13338","miles_from_dt":22.09},{"city":"Long Lake","state_name":"New York","lat":43.98698,"lng":-74.59024,"zip":"12847","miles_from_dt":22.41},{"city":"Beaver Falls","state_name":"New York","lat":43.89329,"lng":-75.43144,"zip":"13305","miles_from_dt":23.51},{"city":"Castorland","state_name":"New York","lat":43.89989,"lng":-75.45265,"zip":"13620","miles_from_dt":24.64},{"city":"Martinsburg","state_name":"New York","lat":43.73842,"lng":-75.48089,"zip":"13404","miles_from_dt":25.99},{"city":"Oswegatchie","state_name":"New York","lat":44.18264,"lng":-75.11635,"zip":"13670","miles_from_dt":26.23},{"city":"Turin","state_name":"New York","lat":43.64414,"lng":-75.44517,"zip":"13473","miles_from_dt":26.49},{"city":"Hoffmeister","state_name":"New York","lat":43.47123,"lng":-74.72732,"zip":"13353","miles_from_dt":26.86},{"city":"Newton Falls","state_name":"New York","lat":44.21404,"lng":-74.95557,"zip":"13666","miles_from_dt":27.42},{"city":"Cranberry Lake","state_name":"New York","lat":44.2005,"lng":-74.81818,"zip":"12927","miles_from_dt":27.57},{"city":"Harrisville","state_name":"New York","lat":44.14977,"lng":-75.29908,"zip":"13648","miles_from_dt":28.15},{"city":"Blue Mountain Lake","state_name":"New York","lat":43.85731,"lng":-74.41213,"zip":"12812","miles_from_dt":28.16},{"city":"Natural Bridge","state_name":"New York","lat":44.05227,"lng":-75.44933,"zip":"13665","miles_from_dt":28.79},{"city":"Piseco","state_name":"New York","lat":43.52096,"lng":-74.56552,"zip":"12139","miles_from_dt":28.89},{"city":"Alder Creek","state_name":"New York","lat":43.42225,"lng":-75.21546,"zip":"13301","miles_from_dt":29.85}],"targetCityZipCode":"13331","targetCityState":"New York"},"__N_SSG":true}