{"pageProps":{"stateName":"New-york","cityName":"east-meredith","nearbyCities":[{"city":"Davenport Center","state_name":"New York","lat":42.45745,"lng":-74.88363,"zip":"13751","miles_from_dt":3.37},{"city":"West Davenport","state_name":"New York","lat":42.45573,"lng":-74.94989,"zip":"13860","miles_from_dt":4.33},{"city":"Meridale","state_name":"New York","lat":42.37894,"lng":-74.97315,"zip":"13806","miles_from_dt":4.59},{"city":"Davenport","state_name":"New York","lat":42.47739,"lng":-74.83904,"zip":"13750","miles_from_dt":5.46},{"city":"Bloomville","state_name":"New York","lat":42.36614,"lng":-74.78982,"zip":"13739","miles_from_dt":6.07},{"city":"Delhi","state_name":"New York","lat":42.30873,"lng":-74.92538,"zip":"13753","miles_from_dt":7.12},{"city":"Colliersville","state_name":"New York","lat":42.49003,"lng":-74.98209,"zip":"13747","miles_from_dt":7.2},{"city":"Oneonta","state_name":"New York","lat":42.47204,"lng":-75.03893,"zip":"13820","miles_from_dt":8.62},{"city":"Treadwell","state_name":"New York","lat":42.36037,"lng":-75.05465,"zip":"13846","miles_from_dt":8.92},{"city":"South Kortright","state_name":"New York","lat":42.37922,"lng":-74.72302,"zip":"13842","miles_from_dt":8.95},{"city":"Maryland","state_name":"New York","lat":42.53849,"lng":-74.91278,"zip":"12116","miles_from_dt":8.98},{"city":"Portlandville","state_name":"New York","lat":42.54903,"lng":-74.96727,"zip":"13834","miles_from_dt":10.37},{"city":"Harpersfield","state_name":"New York","lat":42.4485,"lng":-74.69563,"zip":"13786","miles_from_dt":10.46},{"city":"Bovina Center","state_name":"New York","lat":42.27535,"lng":-74.74498,"zip":"13740","miles_from_dt":11.95},{"city":"Hobart","state_name":"New York","lat":42.34914,"lng":-74.65658,"zip":"13788","miles_from_dt":12.8},{"city":"Schenevus","state_name":"New York","lat":42.59229,"lng":-74.82337,"zip":"12155","miles_from_dt":13.13},{"city":"Charlotteville","state_name":"New York","lat":42.53564,"lng":-74.68468,"zip":"12036","miles_from_dt":13.78},{"city":"Franklin","state_name":"New York","lat":42.33706,"lng":-75.14728,"zip":"13775","miles_from_dt":13.92},{"city":"West Oneonta","state_name":"New York","lat":42.5048,"lng":-75.14156,"zip":"13861","miles_from_dt":14.31},{"city":"Jefferson","state_name":"New York","lat":42.49599,"lng":-74.6262,"zip":"12093","miles_from_dt":14.91},{"city":"Milford","state_name":"New York","lat":42.61718,"lng":-74.98612,"zip":"13807","miles_from_dt":15.12},{"city":"Stamford","state_name":"New York","lat":42.42101,"lng":-74.59011,"zip":"12167","miles_from_dt":15.52},{"city":"Laurens","state_name":"New York","lat":42.5513,"lng":-75.13644,"zip":"13796","miles_from_dt":15.83},{"city":"Otego","state_name":"New York","lat":42.44329,"lng":-75.20154,"zip":"13825","miles_from_dt":15.94},{"city":"New Kingston","state_name":"New York","lat":42.23976,"lng":-74.6805,"zip":"12459","miles_from_dt":15.98},{"city":"Worcester","state_name":"New York","lat":42.6094,"lng":-74.72587,"zip":"12197","miles_from_dt":16.25},{"city":"Delancey","state_name":"New York","lat":42.17257,"lng":-74.90379,"zip":"13752","miles_from_dt":16.34},{"city":"Hamden","state_name":"New York","lat":42.17304,"lng":-74.9836,"zip":"13782","miles_from_dt":16.94},{"city":"Roxbury","state_name":"New York","lat":42.29378,"lng":-74.58117,"zip":"12474","miles_from_dt":17.85},{"city":"Mount Vision","state_name":"New York","lat":42.61188,"lng":-75.11157,"zip":"13810","miles_from_dt":17.89},{"city":"East Worcester","state_name":"New York","lat":42.60711,"lng":-74.65887,"zip":"12064","miles_from_dt":18.16},{"city":"Wells Bridge","state_name":"New York","lat":42.37123,"lng":-75.24916,"zip":"13859","miles_from_dt":18.4},{"city":"Westford","state_name":"New York","lat":42.67447,"lng":-74.76796,"zip":"13488","miles_from_dt":19.4},{"city":"Summit","state_name":"New York","lat":42.55489,"lng":-74.56161,"zip":"12175","miles_from_dt":19.7},{"city":"Grand Gorge","state_name":"New York","lat":42.36491,"lng":-74.50793,"zip":"12434","miles_from_dt":19.95},{"city":"Andes","state_name":"New York","lat":42.13059,"lng":-74.7882,"zip":"13731","miles_from_dt":19.97},{"city":"New Lisbon","state_name":"New York","lat":42.59714,"lng":-75.19729,"zip":"13415","miles_from_dt":20.24},{"city":"Morris","state_name":"New York","lat":42.52797,"lng":-75.25657,"zip":"13808","miles_from_dt":20.3},{"city":"Halcottsville","state_name":"New York","lat":42.21251,"lng":-74.59667,"zip":"12438","miles_from_dt":20.37},{"city":"Roseboom","state_name":"New York","lat":42.7026,"lng":-74.81263,"zip":"13450","miles_from_dt":20.67},{"city":"Cooperstown","state_name":"New York","lat":42.71865,"lng":-74.90374,"zip":"13326","miles_from_dt":21.37},{"city":"Denver","state_name":"New York","lat":42.2512,"lng":-74.5336,"zip":"12421","miles_from_dt":21.4},{"city":"Margaretville","state_name":"New York","lat":42.14871,"lng":-74.66334,"zip":"12455","miles_from_dt":21.49},{"city":"Walton","state_name":"New York","lat":42.16666,"lng":-75.16633,"zip":"13856","miles_from_dt":21.82},{"city":"Sidney Center","state_name":"New York","lat":42.24824,"lng":-75.26007,"zip":"13839","miles_from_dt":21.83},{"city":"Hartwick","state_name":"New York","lat":42.70202,"lng":-75.06398,"zip":"13348","miles_from_dt":22.01},{"city":"Unadilla","state_name":"New York","lat":42.33785,"lng":-75.31392,"zip":"13849","miles_from_dt":22.09},{"city":"Richmondville","state_name":"New York","lat":42.62011,"lng":-74.56692,"zip":"12149","miles_from_dt":22.13},{"city":"Garrattsville","state_name":"New York","lat":42.64766,"lng":-75.18918,"zip":"13342","miles_from_dt":22.35},{"city":"North Blenheim","state_name":"New York","lat":42.46573,"lng":-74.46249,"zip":"12131","miles_from_dt":22.36},{"city":"Gilbertsville","state_name":"New York","lat":42.47023,"lng":-75.33458,"zip":"13776","miles_from_dt":22.96},{"city":"Fly Creek","state_name":"New York","lat":42.75114,"lng":-74.9816,"zip":"13337","miles_from_dt":24.03},{"city":"West Fulton","state_name":"New York","lat":42.53839,"lng":-74.45431,"zip":"12194","miles_from_dt":24.14},{"city":"Trout Creek","state_name":"New York","lat":42.20443,"lng":-75.27777,"zip":"13847","miles_from_dt":24.25},{"city":"West Burlington","state_name":"New York","lat":42.69661,"lng":-75.17695,"zip":"13482","miles_from_dt":24.56},{"city":"Fleischmanns","state_name":"New York","lat":42.20306,"lng":-74.49933,"zip":"12430","miles_from_dt":24.69},{"city":"Downsville","state_name":"New York","lat":42.05976,"lng":-75.01524,"zip":"13755","miles_from_dt":24.91},{"city":"Mount Upton","state_name":"New York","lat":42.40849,"lng":-75.3914,"zip":"13809","miles_from_dt":25.48},{"city":"Prattsville","state_name":"New York","lat":42.29998,"lng":-74.41375,"zip":"12468","miles_from_dt":25.68},{"city":"Gilboa","state_name":"New York","lat":42.40868,"lng":-74.38506,"zip":"12076","miles_from_dt":25.99},{"city":"South New Berlin","state_name":"New York","lat":42.53468,"lng":-75.37584,"zip":"13843","miles_from_dt":26.14},{"city":"Burlington Flats","state_name":"New York","lat":42.7438,"lng":-75.1385,"zip":"13315","miles_from_dt":26.27},{"city":"Cherry Valley","state_name":"New York","lat":42.77353,"lng":-74.74325,"zip":"13320","miles_from_dt":26.29},{"city":"Schuyler Lake","state_name":"New York","lat":42.77527,"lng":-75.03691,"zip":"13457","miles_from_dt":26.31},{"city":"New Berlin","state_name":"New York","lat":42.63723,"lng":-75.30981,"zip":"13411","miles_from_dt":26.46},{"city":"Warnerville","state_name":"New York","lat":42.62632,"lng":-74.46537,"zip":"12187","miles_from_dt":26.49},{"city":"Highmount","state_name":"New York","lat":42.1502,"lng":-74.50625,"zip":"12441","miles_from_dt":26.7},{"city":"Fultonham","state_name":"New York","lat":42.56971,"lng":-74.41521,"zip":"12071","miles_from_dt":26.82},{"city":"Sidney","state_name":"New York","lat":42.28423,"lng":-75.39595,"zip":"13838","miles_from_dt":27.15},{"city":"Edmeston","state_name":"New York","lat":42.70193,"lng":-75.24847,"zip":"13335","miles_from_dt":27.15},{"city":"Arkville","state_name":"New York","lat":42.09647,"lng":-74.56502,"zip":"12406","miles_from_dt":27.37},{"city":"Cobleskill","state_name":"New York","lat":42.70357,"lng":-74.5267,"zip":"12043","miles_from_dt":27.62},{"city":"Pine Hill","state_name":"New York","lat":42.15278,"lng":-74.46725,"zip":"12465","miles_from_dt":28.1},{"city":"Masonville","state_name":"New York","lat":42.20708,"lng":-75.37562,"zip":"13804","miles_from_dt":28.38},{"city":"Ashland","state_name":"New York","lat":42.30075,"lng":-74.35343,"zip":"12407","miles_from_dt":28.63},{"city":"East Springfield","state_name":"New York","lat":42.83091,"lng":-74.82207,"zip":"13333","miles_from_dt":29.34},{"city":"East Branch","state_name":"New York","lat":42.01025,"lng":-75.10394,"zip":"13756","miles_from_dt":29.58},{"city":"Sharon Springs","state_name":"New York","lat":42.77721,"lng":-74.59315,"zip":"13459","miles_from_dt":29.66}],"targetCityZipCode":"13757","targetCityState":"New York"},"__N_SSG":true}