{"pageProps":{"stateName":"New-york","cityName":"east-concord","nearbyCities":[{"city":"Glenwood","state_name":"New York","lat":42.59984,"lng":-78.62984,"zip":"14069","miles_from_dt":3.51},{"city":"Sardinia","state_name":"New York","lat":42.53057,"lng":-78.51738,"zip":"14134","miles_from_dt":4.56},{"city":"Chaffee","state_name":"New York","lat":42.56518,"lng":-78.50052,"zip":"14030","miles_from_dt":5.2},{"city":"Springville","state_name":"New York","lat":42.52366,"lng":-78.7109,"zip":"14141","miles_from_dt":5.97},{"city":"Holland","state_name":"New York","lat":42.64289,"lng":-78.54886,"zip":"14080","miles_from_dt":6.72},{"city":"Yorkshire","state_name":"New York","lat":42.52594,"lng":-78.47306,"zip":"14173","miles_from_dt":6.81},{"city":"Boston","state_name":"New York","lat":42.6232,"lng":-78.72609,"zip":"14025","miles_from_dt":7.98},{"city":"Delevan","state_name":"New York","lat":42.46882,"lng":-78.48377,"zip":"14042","miles_from_dt":8.38},{"city":"Colden","state_name":"New York","lat":42.65865,"lng":-78.68436,"zip":"14033","miles_from_dt":8.4},{"city":"West Valley","state_name":"New York","lat":42.42491,"lng":-78.64286,"zip":"14171","miles_from_dt":9.13},{"city":"Arcade","state_name":"New York","lat":42.57542,"lng":-78.39241,"zip":"14009","miles_from_dt":10.76},{"city":"West Falls","state_name":"New York","lat":42.70115,"lng":-78.67294,"zip":"14170","miles_from_dt":10.82},{"city":"South Wales","state_name":"New York","lat":42.71723,"lng":-78.53606,"zip":"14139","miles_from_dt":11.77},{"city":"Machias","state_name":"New York","lat":42.3863,"lng":-78.54292,"zip":"14101","miles_from_dt":11.93},{"city":"Sandusky","state_name":"New York","lat":42.49965,"lng":-78.37889,"zip":"14133","miles_from_dt":11.95},{"city":"Java Village","state_name":"New York","lat":42.67921,"lng":-78.43446,"zip":"14083","miles_from_dt":12.14},{"city":"East Otto","state_name":"New York","lat":42.40404,"lng":-78.73628,"zip":"14729","miles_from_dt":12.42},{"city":"North Boston","state_name":"New York","lat":42.68453,"lng":-78.77449,"zip":"14110","miles_from_dt":12.64},{"city":"Java Center","state_name":"New York","lat":42.65689,"lng":-78.38435,"zip":"14082","miles_from_dt":13.16},{"city":"Collins Center","state_name":"New York","lat":42.49099,"lng":-78.85936,"zip":"14035","miles_from_dt":13.87},{"city":"Collins","state_name":"New York","lat":42.4985,"lng":-78.86238,"zip":"14034","miles_from_dt":13.87},{"city":"Lawtons","state_name":"New York","lat":42.54224,"lng":-78.88868,"zip":"14091","miles_from_dt":14.69},{"city":"Strykersville","state_name":"New York","lat":42.73154,"lng":-78.43205,"zip":"14145","miles_from_dt":15.01},{"city":"Wales Center","state_name":"New York","lat":42.76446,"lng":-78.52938,"zip":"14169","miles_from_dt":15.01},{"city":"East Aurora","state_name":"New York","lat":42.77054,"lng":-78.58084,"zip":"14052","miles_from_dt":15.01},{"city":"North Collins","state_name":"New York","lat":42.58206,"lng":-78.89803,"zip":"14111","miles_from_dt":15.27},{"city":"Eden","state_name":"New York","lat":42.64587,"lng":-78.87542,"zip":"14057","miles_from_dt":15.37},{"city":"Freedom","state_name":"New York","lat":42.48741,"lng":-78.31158,"zip":"14065","miles_from_dt":15.48},{"city":"Orchard Park","state_name":"New York","lat":42.75204,"lng":-78.74402,"zip":"14127","miles_from_dt":15.51},{"city":"North Java","state_name":"New York","lat":42.66813,"lng":-78.33624,"zip":"14113","miles_from_dt":15.65},{"city":"Hamburg","state_name":"New York","lat":42.71297,"lng":-78.82985,"zip":"14075","miles_from_dt":16.03},{"city":"Farmersville Station","state_name":"New York","lat":42.43986,"lng":-78.30884,"zip":"14060","miles_from_dt":16.87},{"city":"Spring Brook","state_name":"New York","lat":42.80125,"lng":-78.66507,"zip":"14140","miles_from_dt":17.4},{"city":"Franklinville","state_name":"New York","lat":42.33524,"lng":-78.42926,"zip":"14737","miles_from_dt":17.45},{"city":"Ellicottville","state_name":"New York","lat":42.30063,"lng":-78.65092,"zip":"14731","miles_from_dt":17.64},{"city":"Centerville","state_name":"New York","lat":42.47293,"lng":-78.26346,"zip":"14029","miles_from_dt":18.12},{"city":"Otto","state_name":"New York","lat":42.34931,"lng":-78.8288,"zip":"14766","miles_from_dt":18.28},{"city":"Bliss","state_name":"New York","lat":42.58111,"lng":-78.24431,"zip":"14024","miles_from_dt":18.31},{"city":"Gowanda","state_name":"New York","lat":42.43673,"lng":-78.92798,"zip":"14070","miles_from_dt":18.54},{"city":"Cowlesville","state_name":"New York","lat":42.80637,"lng":-78.45448,"zip":"14037","miles_from_dt":18.98},{"city":"Varysburg","state_name":"New York","lat":42.74327,"lng":-78.32629,"zip":"14167","miles_from_dt":19.17},{"city":"Elma","state_name":"New York","lat":42.83241,"lng":-78.63678,"zip":"14059","miles_from_dt":19.33},{"city":"Buffalo","state_name":"New York","lat":42.78903,"lng":-78.82694,"zip":"14219","miles_from_dt":19.91},{"city":"North Evans","state_name":"New York","lat":42.6981,"lng":-78.9395,"zip":"14112","miles_from_dt":19.92},{"city":"Versailles","state_name":"New York","lat":42.51187,"lng":-78.98745,"zip":"14168","miles_from_dt":19.93},{"city":"Lake View","state_name":"New York","lat":42.71494,"lng":-78.92691,"zip":"14085","miles_from_dt":19.99},{"city":"Cattaraugus","state_name":"New York","lat":42.34323,"lng":-78.87198,"zip":"14719","miles_from_dt":20.06},{"city":"Marilla","state_name":"New York","lat":42.84272,"lng":-78.55481,"zip":"14102","miles_from_dt":20.1},{"city":"Athol Springs","state_name":"New York","lat":42.77325,"lng":-78.86595,"zip":"14010","miles_from_dt":20.29},{"city":"Rushford","state_name":"New York","lat":42.38999,"lng":-78.26167,"zip":"14777","miles_from_dt":20.7},{"city":"Buffalo","state_name":"New York","lat":42.83767,"lng":-78.74771,"zip":"14224","miles_from_dt":20.98},{"city":"Perrysburg","state_name":"New York","lat":42.4805,"lng":-79.0092,"zip":"14129","miles_from_dt":21.44},{"city":"Brant","state_name":"New York","lat":42.59408,"lng":-79.02067,"zip":"14027","miles_from_dt":21.58},{"city":"Buffalo","state_name":"New York","lat":42.81921,"lng":-78.82772,"zip":"14218","miles_from_dt":21.66},{"city":"Houghton","state_name":"New York","lat":42.4219,"lng":-78.21516,"zip":"14744","miles_from_dt":21.72},{"city":"Dayton","state_name":"New York","lat":42.4059,"lng":-78.97699,"zip":"14041","miles_from_dt":21.74},{"city":"Derby","state_name":"New York","lat":42.68579,"lng":-78.99328,"zip":"14047","miles_from_dt":21.97},{"city":"Gainesville","state_name":"New York","lat":42.62381,"lng":-78.18051,"zip":"14066","miles_from_dt":22},{"city":"Angola","state_name":"New York","lat":42.63366,"lng":-79.02056,"zip":"14006","miles_from_dt":22.09},{"city":"Pike","state_name":"New York","lat":42.55318,"lng":-78.14959,"zip":"14130","miles_from_dt":23.05},{"city":"Buffalo","state_name":"New York","lat":42.84571,"lng":-78.82264,"zip":"14220","miles_from_dt":23.1},{"city":"Great Valley","state_name":"New York","lat":42.21868,"lng":-78.5963,"zip":"14741","miles_from_dt":23.12},{"city":"Irving","state_name":"New York","lat":42.56332,"lng":-79.06528,"zip":"14081","miles_from_dt":23.69},{"city":"Buffalo","state_name":"New York","lat":42.88402,"lng":-78.74665,"zip":"14227","miles_from_dt":23.98},{"city":"Alden","state_name":"New York","lat":42.89487,"lng":-78.51008,"zip":"14004","miles_from_dt":24.01},{"city":"Hume","state_name":"New York","lat":42.471,"lng":-78.13772,"zip":"14745","miles_from_dt":24.35},{"city":"Buffalo","state_name":"New York","lat":42.86407,"lng":-78.82811,"zip":"14210","miles_from_dt":24.35},{"city":"Lancaster","state_name":"New York","lat":42.90661,"lng":-78.6291,"zip":"14086","miles_from_dt":24.41},{"city":"Little Valley","state_name":"New York","lat":42.23477,"lng":-78.81398,"zip":"14755","miles_from_dt":24.55},{"city":"Depew","state_name":"New York","lat":42.90142,"lng":-78.70431,"zip":"14043","miles_from_dt":24.58},{"city":"Attica","state_name":"New York","lat":42.83158,"lng":-78.29784,"zip":"14011","miles_from_dt":24.63},{"city":"Buffalo","state_name":"New York","lat":42.87,"lng":-78.83221,"zip":"14270","miles_from_dt":24.8},{"city":"Buffalo","state_name":"New York","lat":42.87884,"lng":-78.80962,"zip":"14240","miles_from_dt":24.83},{"city":"Buffalo","state_name":"New York","lat":42.88078,"lng":-78.81018,"zip":"14206","miles_from_dt":24.96},{"city":"Farnham","state_name":"New York","lat":42.59111,"lng":-79.08949,"zip":"14061","miles_from_dt":25.04},{"city":"Caneadea","state_name":"New York","lat":42.36258,"lng":-78.18235,"zip":"14717","miles_from_dt":25.14},{"city":"Buffalo","state_name":"New York","lat":42.86244,"lng":-78.86507,"zip":"14203","miles_from_dt":25.2},{"city":"Warsaw","state_name":"New York","lat":42.74012,"lng":-78.17269,"zip":"14569","miles_from_dt":25.35},{"city":"Buffalo","state_name":"New York","lat":42.86514,"lng":-78.86949,"zip":"14269","miles_from_dt":25.47},{"city":"Buffalo","state_name":"New York","lat":42.88721,"lng":-78.82344,"zip":"14264","miles_from_dt":25.66},{"city":"Darien Center","state_name":"New York","lat":42.88809,"lng":-78.37847,"zip":"14040","miles_from_dt":25.72},{"city":"Buffalo","state_name":"New York","lat":42.87072,"lng":-78.8697,"zip":"14273","miles_from_dt":25.81},{"city":"Buffalo","state_name":"New York","lat":42.87227,"lng":-78.87025,"zip":"14272","miles_from_dt":25.91},{"city":"Buffalo","state_name":"New York","lat":42.87338,"lng":-78.86924,"zip":"14263","miles_from_dt":25.95},{"city":"Buffalo","state_name":"New York","lat":42.89438,"lng":-78.81957,"zip":"14212","miles_from_dt":26.02},{"city":"Hinsdale","state_name":"New York","lat":42.20532,"lng":-78.40631,"zip":"14743","miles_from_dt":26.03},{"city":"Buffalo","state_name":"New York","lat":42.8751,"lng":-78.86902,"zip":"14233","miles_from_dt":26.04},{"city":"South Dayton","state_name":"New York","lat":42.37497,"lng":-79.05376,"zip":"14138","miles_from_dt":26.21},{"city":"Buffalo","state_name":"New York","lat":42.882,"lng":-78.8614,"zip":"14204","miles_from_dt":26.25},{"city":"Black Creek","state_name":"New York","lat":42.28368,"lng":-78.23493,"zip":"14714","miles_from_dt":26.42},{"city":"Portageville","state_name":"New York","lat":42.53958,"lng":-78.08358,"zip":"14536","miles_from_dt":26.44},{"city":"Buffalo","state_name":"New York","lat":42.88568,"lng":-78.87116,"zip":"14276","miles_from_dt":26.72},{"city":"Fillmore","state_name":"New York","lat":42.45027,"lng":-78.09681,"zip":"14735","miles_from_dt":26.73},{"city":"Buffalo","state_name":"New York","lat":42.88693,"lng":-78.87124,"zip":"14280","miles_from_dt":26.8},{"city":"Buffalo","state_name":"New York","lat":42.90813,"lng":-78.81883,"zip":"14211","miles_from_dt":26.86},{"city":"Buffalo","state_name":"New York","lat":42.92792,"lng":-78.74765,"zip":"14241","miles_from_dt":26.89},{"city":"Buffalo","state_name":"New York","lat":42.92879,"lng":-78.752,"zip":"14225","miles_from_dt":27.01},{"city":"Buffalo","state_name":"New York","lat":42.89235,"lng":-78.8688,"zip":"14205","miles_from_dt":27.06},{"city":"Bowmansville","state_name":"New York","lat":42.94212,"lng":-78.68794,"zip":"14026","miles_from_dt":27.18},{"city":"Buffalo","state_name":"New York","lat":42.88798,"lng":-78.88358,"zip":"14202","miles_from_dt":27.19},{"city":"Silver Springs","state_name":"New York","lat":42.67757,"lng":-78.09166,"zip":"14550","miles_from_dt":27.35},{"city":"Buffalo","state_name":"New York","lat":42.89706,"lng":-78.88752,"zip":"14201","miles_from_dt":27.83},{"city":"Leon","state_name":"New York","lat":42.29368,"lng":-79.01798,"zip":"14751","miles_from_dt":27.86},{"city":"Buffalo","state_name":"New York","lat":42.9146,"lng":-78.85146,"zip":"14208","miles_from_dt":27.98},{"city":"Crittenden","state_name":"New York","lat":42.94867,"lng":-78.47606,"zip":"14038","miles_from_dt":28},{"city":"Castile","state_name":"New York","lat":42.61828,"lng":-78.05442,"zip":"14427","miles_from_dt":28.24},{"city":"Buffalo","state_name":"New York","lat":42.91365,"lng":-78.86622,"zip":"14209","miles_from_dt":28.28},{"city":"Cuba","state_name":"New York","lat":42.2129,"lng":-78.29358,"zip":"14727","miles_from_dt":28.3},{"city":"Buffalo","state_name":"New York","lat":42.93451,"lng":-78.81023,"zip":"14215","miles_from_dt":28.36},{"city":"Kill Buck","state_name":"New York","lat":42.1392,"lng":-78.63636,"zip":"14748","miles_from_dt":28.66},{"city":"Buffalo","state_name":"New York","lat":42.9167,"lng":-78.87708,"zip":"14267","miles_from_dt":28.73},{"city":"Buffalo","state_name":"New York","lat":42.92002,"lng":-78.8771,"zip":"14222","miles_from_dt":28.93},{"city":"Forestville","state_name":"New York","lat":42.44364,"lng":-79.14897,"zip":"14062","miles_from_dt":28.99},{"city":"Silver Creek","state_name":"New York","lat":42.52387,"lng":-79.16935,"zip":"14136","miles_from_dt":29.07},{"city":"Belfast","state_name":"New York","lat":42.32088,"lng":-78.12625,"zip":"14711","miles_from_dt":29.12},{"city":"Buffalo","state_name":"New York","lat":42.91762,"lng":-78.89099,"zip":"14213","miles_from_dt":29.13},{"city":"Buffalo","state_name":"New York","lat":42.93936,"lng":-78.84101,"zip":"14214","miles_from_dt":29.29},{"city":"Dale","state_name":"New York","lat":42.83593,"lng":-78.17101,"zip":"14039","miles_from_dt":29.32},{"city":"Clarence","state_name":"New York","lat":42.98661,"lng":-78.60908,"zip":"14031","miles_from_dt":29.89},{"city":"Conewango Valley","state_name":"New York","lat":42.25255,"lng":-79.02221,"zip":"14726","miles_from_dt":29.93}],"targetCityZipCode":"14055","targetCityState":"New York"},"__N_SSG":true}