{"pageProps":{"stateName":"New-york","cityName":"harrisville","nearbyCities":[{"city":"Oswegatchie","state_name":"New York","lat":44.18264,"lng":-75.11635,"zip":"13670","miles_from_dt":9.36},{"city":"Natural Bridge","state_name":"New York","lat":44.05227,"lng":-75.44933,"zip":"13665","miles_from_dt":10.06},{"city":"Edwards","state_name":"New York","lat":44.29915,"lng":-75.26188,"zip":"13635","miles_from_dt":10.48},{"city":"Fine","state_name":"New York","lat":44.2594,"lng":-75.14324,"zip":"13639","miles_from_dt":10.83},{"city":"Croghan","state_name":"New York","lat":43.96047,"lng":-75.28474,"zip":"13327","miles_from_dt":13.09},{"city":"Hailesboro","state_name":"New York","lat":44.30878,"lng":-75.44655,"zip":"13645","miles_from_dt":13.2},{"city":"Star Lake","state_name":"New York","lat":44.12612,"lng":-75.02319,"zip":"13690","miles_from_dt":13.81},{"city":"Gouverneur","state_name":"New York","lat":44.3263,"lng":-75.46742,"zip":"13642","miles_from_dt":14.78},{"city":"Antwerp","state_name":"New York","lat":44.23879,"lng":-75.62508,"zip":"13608","miles_from_dt":17.32},{"city":"Newton Falls","state_name":"New York","lat":44.21404,"lng":-74.95557,"zip":"13666","miles_from_dt":17.63},{"city":"Antwerp","state_name":"New York","lat":44.28431,"lng":-75.61839,"zip":"13671","miles_from_dt":18.38},{"city":"Wanakena","state_name":"New York","lat":44.10505,"lng":-74.92872,"zip":"13695","miles_from_dt":18.68},{"city":"Castorland","state_name":"New York","lat":43.89989,"lng":-75.45265,"zip":"13620","miles_from_dt":18.87},{"city":"Beaver Falls","state_name":"New York","lat":43.89329,"lng":-75.43144,"zip":"13305","miles_from_dt":18.9},{"city":"Carthage","state_name":"New York","lat":43.97705,"lng":-75.59432,"zip":"13619","miles_from_dt":18.93},{"city":"Russell","state_name":"New York","lat":44.36577,"lng":-75.0464,"zip":"13684","miles_from_dt":19.48},{"city":"Richville","state_name":"New York","lat":44.42933,"lng":-75.37142,"zip":"13681","miles_from_dt":19.63},{"city":"Hermon","state_name":"New York","lat":44.43579,"lng":-75.21338,"zip":"13652","miles_from_dt":20.2},{"city":"Lowville","state_name":"New York","lat":43.85563,"lng":-75.31772,"zip":"13367","miles_from_dt":20.33},{"city":"Deferiet","state_name":"New York","lat":44.03764,"lng":-75.68307,"zip":"13628","miles_from_dt":20.62},{"city":"Philadelphia","state_name":"New York","lat":44.17105,"lng":-75.72133,"zip":"13673","miles_from_dt":21.04},{"city":"Deer River","state_name":"New York","lat":43.92915,"lng":-75.59045,"zip":"13627","miles_from_dt":21.04},{"city":"Great Bend","state_name":"New York","lat":44.03207,"lng":-75.71738,"zip":"13643","miles_from_dt":22.35},{"city":"Denmark","state_name":"New York","lat":43.90036,"lng":-75.58529,"zip":"13631","miles_from_dt":22.36},{"city":"Fort Drum","state_name":"New York","lat":44.04877,"lng":-75.75747,"zip":"13602","miles_from_dt":23.85},{"city":"De Kalb Junction","state_name":"New York","lat":44.49742,"lng":-75.31756,"zip":"13630","miles_from_dt":24.02},{"city":"Cranberry Lake","state_name":"New York","lat":44.2005,"lng":-74.81818,"zip":"12927","miles_from_dt":24.15},{"city":"Felts Mills","state_name":"New York","lat":44.02077,"lng":-75.75443,"zip":"13638","miles_from_dt":24.35},{"city":"Theresa","state_name":"New York","lat":44.22747,"lng":-75.78208,"zip":"13691","miles_from_dt":24.59},{"city":"De Peyster","state_name":"New York","lat":44.48259,"lng":-75.48825,"zip":"13633","miles_from_dt":24.82},{"city":"Pyrites","state_name":"New York","lat":44.5151,"lng":-75.18557,"zip":"13677","miles_from_dt":25.84},{"city":"Watertown","state_name":"New York","lat":44.03826,"lng":-75.79765,"zip":"13603","miles_from_dt":25.98},{"city":"Black River","state_name":"New York","lat":43.98571,"lng":-75.76911,"zip":"13612","miles_from_dt":26},{"city":"Redwood","state_name":"New York","lat":44.32664,"lng":-75.76554,"zip":"13679","miles_from_dt":26.18},{"city":"Evans Mills","state_name":"New York","lat":44.09751,"lng":-75.83346,"zip":"13637","miles_from_dt":26.82},{"city":"Glenfield","state_name":"New York","lat":43.75271,"lng":-75.31062,"zip":"13343","miles_from_dt":27.42},{"city":"Hammond","state_name":"New York","lat":44.44144,"lng":-75.69379,"zip":"13646","miles_from_dt":28.08},{"city":"Eagle Bay","state_name":"New York","lat":43.81706,"lng":-74.97284,"zip":"13331","miles_from_dt":28.15},{"city":"Plessis","state_name":"New York","lat":44.28227,"lng":-75.83872,"zip":"13675","miles_from_dt":28.32},{"city":"Childwold","state_name":"New York","lat":44.33381,"lng":-74.7827,"zip":"12922","miles_from_dt":28.61},{"city":"Calcium","state_name":"New York","lat":44.02538,"lng":-75.85896,"zip":"13616","miles_from_dt":29.16},{"city":"Copenhagen","state_name":"New York","lat":43.85143,"lng":-75.7202,"zip":"13626","miles_from_dt":29.41},{"city":"Martinsburg","state_name":"New York","lat":43.73842,"lng":-75.48089,"zip":"13404","miles_from_dt":29.81},{"city":"Heuvelton","state_name":"New York","lat":44.56654,"lng":-75.46067,"zip":"13654","miles_from_dt":29.87}],"targetCityZipCode":"13648","targetCityState":"New York"},"__N_SSG":true}