{"pageProps":{"stateName":"New-york","cityName":"hudson","nearbyCities":[{"city":"Claverack","state_name":"New York","lat":42.21661,"lng":-73.71639,"zip":"12513","miles_from_dt":2.02},{"city":"Hollowville","state_name":"New York","lat":42.20692,"lng":-73.68413,"zip":"12530","miles_from_dt":3.79},{"city":"Stottville","state_name":"New York","lat":42.28915,"lng":-73.73895,"zip":"12172","miles_from_dt":4.54},{"city":"Mellenville","state_name":"New York","lat":42.26129,"lng":-73.66822,"zip":"12544","miles_from_dt":5.1},{"city":"Athens","state_name":"New York","lat":42.28315,"lng":-73.82543,"zip":"12015","miles_from_dt":5.46},{"city":"Philmont","state_name":"New York","lat":42.24849,"lng":-73.64584,"zip":"12565","miles_from_dt":5.81},{"city":"Livingston","state_name":"New York","lat":42.14151,"lng":-73.7782,"zip":"12541","miles_from_dt":5.85},{"city":"Columbiaville","state_name":"New York","lat":42.31504,"lng":-73.74881,"zip":"12050","miles_from_dt":6.27},{"city":"Craryville","state_name":"New York","lat":42.17071,"lng":-73.65164,"zip":"12521","miles_from_dt":6.44},{"city":"Ghent","state_name":"New York","lat":42.30145,"lng":-73.64046,"zip":"12075","miles_from_dt":7.9},{"city":"Catskill","state_name":"New York","lat":42.2211,"lng":-73.92356,"zip":"12414","miles_from_dt":8.69},{"city":"Germantown","state_name":"New York","lat":42.12236,"lng":-73.85938,"zip":"12526","miles_from_dt":8.87},{"city":"Stuyvesant Falls","state_name":"New York","lat":42.35314,"lng":-73.72802,"zip":"12174","miles_from_dt":8.99},{"city":"Coxsackie","state_name":"New York","lat":42.34493,"lng":-73.83938,"zip":"12051","miles_from_dt":9.4},{"city":"Elizaville","state_name":"New York","lat":42.08627,"lng":-73.75311,"zip":"12523","miles_from_dt":9.53},{"city":"South Cairo","state_name":"New York","lat":42.26841,"lng":-73.95587,"zip":"12482","miles_from_dt":10.78},{"city":"Ancram","state_name":"New York","lat":42.08324,"lng":-73.65409,"zip":"12502","miles_from_dt":11.01},{"city":"Hillsdale","state_name":"New York","lat":42.21335,"lng":-73.53802,"zip":"12529","miles_from_dt":11.12},{"city":"West Camp","state_name":"New York","lat":42.12355,"lng":-73.9251,"zip":"12490","miles_from_dt":11.19},{"city":"Leeds","state_name":"New York","lat":42.30337,"lng":-73.94802,"zip":"12451","miles_from_dt":11.33},{"city":"Stuyvesant","state_name":"New York","lat":42.39042,"lng":-73.76196,"zip":"12173","miles_from_dt":11.47},{"city":"Kinderhook","state_name":"New York","lat":42.38871,"lng":-73.71228,"zip":"12106","miles_from_dt":11.55},{"city":"Earlton","state_name":"New York","lat":42.3498,"lng":-73.923,"zip":"12058","miles_from_dt":12.24},{"city":"Chatham","state_name":"New York","lat":42.33506,"lng":-73.55714,"zip":"12037","miles_from_dt":12.67},{"city":"West Coxsackie","state_name":"New York","lat":42.40428,"lng":-73.82136,"zip":"12192","miles_from_dt":12.89},{"city":"Climax","state_name":"New York","lat":42.38185,"lng":-73.89162,"zip":"12042","miles_from_dt":12.95},{"city":"Malden On Hudson","state_name":"New York","lat":42.0929,"lng":-73.93629,"zip":"12453","miles_from_dt":13.03},{"city":"Copake","state_name":"New York","lat":42.10722,"lng":-73.55343,"zip":"12516","miles_from_dt":13.1},{"city":"Tivoli","state_name":"New York","lat":42.05625,"lng":-73.88014,"zip":"12583","miles_from_dt":13.28},{"city":"Palenville","state_name":"New York","lat":42.1895,"lng":-74.01573,"zip":"12463","miles_from_dt":13.63},{"city":"Copake Falls","state_name":"New York","lat":42.13392,"lng":-73.51103,"zip":"12517","miles_from_dt":13.96},{"city":"Spencertown","state_name":"New York","lat":42.31518,"lng":-73.50756,"zip":"12165","miles_from_dt":14.12},{"city":"Round Top","state_name":"New York","lat":42.26157,"lng":-74.02827,"zip":"12473","miles_from_dt":14.29},{"city":"Valatie","state_name":"New York","lat":42.42272,"lng":-73.65387,"zip":"12184","miles_from_dt":14.63},{"city":"Cairo","state_name":"New York","lat":42.31338,"lng":-74.02628,"zip":"12413","miles_from_dt":15.24},{"city":"Red Hook","state_name":"New York","lat":42.00663,"lng":-73.81152,"zip":"12571","miles_from_dt":15.31},{"city":"New Baltimore","state_name":"New York","lat":42.44652,"lng":-73.78494,"zip":"12124","miles_from_dt":15.42},{"city":"Glasco","state_name":"New York","lat":42.04702,"lng":-73.94403,"zip":"12432","miles_from_dt":15.65},{"city":"Purling","state_name":"New York","lat":42.26932,"lng":-74.05515,"zip":"12470","miles_from_dt":15.74},{"city":"Ancramdale","state_name":"New York","lat":42.03615,"lng":-73.58139,"zip":"12503","miles_from_dt":15.74},{"city":"Hannacroix","state_name":"New York","lat":42.42794,"lng":-73.8931,"zip":"12087","miles_from_dt":15.75},{"city":"Surprise","state_name":"New York","lat":42.38839,"lng":-73.96787,"zip":"12176","miles_from_dt":15.75},{"city":"Niverville","state_name":"New York","lat":42.44156,"lng":-73.65835,"zip":"12130","miles_from_dt":15.78},{"city":"Saugerties","state_name":"New York","lat":42.08528,"lng":-74.00028,"zip":"12477","miles_from_dt":15.87},{"city":"Annandale On Hudson","state_name":"New York","lat":42.02342,"lng":-73.9094,"zip":"12504","miles_from_dt":15.99},{"city":"Freehold","state_name":"New York","lat":42.35877,"lng":-74.01843,"zip":"12431","miles_from_dt":16.41},{"city":"North Egremont","state_name":"Massachusetts","lat":42.1967,"lng":-73.43628,"zip":"01252","miles_from_dt":16.43},{"city":"Austerlitz","state_name":"New York","lat":42.31453,"lng":-73.45682,"zip":"12017","miles_from_dt":16.47},{"city":"Haines Falls","state_name":"New York","lat":42.20447,"lng":-74.0746,"zip":"12436","miles_from_dt":16.49},{"city":"Barrytown","state_name":"New York","lat":42.00735,"lng":-73.92126,"zip":"12507","miles_from_dt":17.26},{"city":"South Egremont","state_name":"Massachusetts","lat":42.09396,"lng":-73.46616,"zip":"01258","miles_from_dt":17.32},{"city":"Old Chatham","state_name":"New York","lat":42.43249,"lng":-73.56016,"zip":"12136","miles_from_dt":17.47},{"city":"Schodack Landing","state_name":"New York","lat":42.47764,"lng":-73.74354,"zip":"12156","miles_from_dt":17.49},{"city":"Pine Plains","state_name":"New York","lat":41.98206,"lng":-73.65211,"zip":"12567","miles_from_dt":17.53},{"city":"Coeymans","state_name":"New York","lat":42.47974,"lng":-73.79682,"zip":"12045","miles_from_dt":17.76},{"city":"North Chatham","state_name":"New York","lat":42.47102,"lng":-73.63362,"zip":"12132","miles_from_dt":18.11},{"city":"Mount Marion","state_name":"New York","lat":42.03308,"lng":-73.99703,"zip":"12456","miles_from_dt":18.16},{"city":"Ravena","state_name":"New York","lat":42.48525,"lng":-73.85218,"zip":"12143","miles_from_dt":18.69},{"city":"East Chatham","state_name":"New York","lat":42.41325,"lng":-73.49284,"zip":"12060","miles_from_dt":18.69},{"city":"Malden Bridge","state_name":"New York","lat":42.46747,"lng":-73.59338,"zip":"12115","miles_from_dt":18.69},{"city":"Acra","state_name":"New York","lat":42.31585,"lng":-74.0989,"zip":"12405","miles_from_dt":18.76},{"city":"West Stockbridge","state_name":"Massachusetts","lat":42.30264,"lng":-73.39846,"zip":"01266","miles_from_dt":19.03},{"city":"Housatonic","state_name":"Massachusetts","lat":42.26923,"lng":-73.37999,"zip":"01236","miles_from_dt":19.44},{"city":"Elka Park","state_name":"New York","lat":42.14771,"lng":-74.11921,"zip":"12427","miles_from_dt":19.47},{"city":"Ruby","state_name":"New York","lat":42.01397,"lng":-74.01332,"zip":"12475","miles_from_dt":19.7},{"city":"East Jewett","state_name":"New York","lat":42.24689,"lng":-74.14358,"zip":"12424","miles_from_dt":20.03},{"city":"Lake Katrine","state_name":"New York","lat":41.99377,"lng":-73.99338,"zip":"12449","miles_from_dt":20.11},{"city":"Coeymans Hollow","state_name":"New York","lat":42.48864,"lng":-73.92119,"zip":"12046","miles_from_dt":20.14},{"city":"Greenville","state_name":"New York","lat":42.43151,"lng":-74.03155,"zip":"12083","miles_from_dt":20.15},{"city":"Alcove","state_name":"New York","lat":42.48889,"lng":-73.93159,"zip":"12007","miles_from_dt":20.39},{"city":"Tannersville","state_name":"New York","lat":42.20507,"lng":-74.15288,"zip":"12485","miles_from_dt":20.49},{"city":"Maplecrest","state_name":"New York","lat":42.2869,"lng":-74.15038,"zip":"12454","miles_from_dt":20.76},{"city":"Canaan","state_name":"New York","lat":42.40397,"lng":-73.42466,"zip":"12029","miles_from_dt":20.95},{"city":"Brainard","state_name":"New York","lat":42.48134,"lng":-73.53419,"zip":"12024","miles_from_dt":21.01},{"city":"Millerton","state_name":"New York","lat":41.96627,"lng":-73.53313,"zip":"12546","miles_from_dt":21.13},{"city":"Glendale","state_name":"Massachusetts","lat":42.29411,"lng":-73.35227,"zip":"01229","miles_from_dt":21.17},{"city":"East Durham","state_name":"New York","lat":42.37968,"lng":-74.11136,"zip":"12423","miles_from_dt":21.21},{"city":"Great Barrington","state_name":"Massachusetts","lat":42.18197,"lng":-73.34244,"zip":"01230","miles_from_dt":21.34},{"city":"Sheffield","state_name":"Massachusetts","lat":42.0976,"lng":-73.37241,"zip":"01257","miles_from_dt":21.47},{"city":"Rhinebeck","state_name":"New York","lat":41.92548,"lng":-73.8717,"zip":"12572","miles_from_dt":21.49},{"city":"Castleton On Hudson","state_name":"New York","lat":42.53665,"lng":-73.70558,"zip":"12033","miles_from_dt":21.7},{"city":"South Bethlehem","state_name":"New York","lat":42.53369,"lng":-73.84606,"zip":"12161","miles_from_dt":21.86},{"city":"Nassau","state_name":"New York","lat":42.52239,"lng":-73.60636,"zip":"12123","miles_from_dt":21.92},{"city":"Woodstock","state_name":"New York","lat":42.04772,"lng":-74.11007,"zip":"12498","miles_from_dt":21.97},{"city":"Selkirk","state_name":"New York","lat":42.53927,"lng":-73.81903,"zip":"12158","miles_from_dt":21.99},{"city":"Stanfordville","state_name":"New York","lat":41.90625,"lng":-73.69374,"zip":"12581","miles_from_dt":22.17},{"city":"Taconic","state_name":"Connecticut","lat":42.04174,"lng":-73.39755,"zip":"06079","miles_from_dt":22.24},{"city":"Salisbury","state_name":"Connecticut","lat":42.01404,"lng":-73.42121,"zip":"06068","miles_from_dt":22.44},{"city":"Richmond","state_name":"Massachusetts","lat":42.37972,"lng":-73.36608,"zip":"01254","miles_from_dt":22.6},{"city":"Stockbridge","state_name":"Massachusetts","lat":42.28901,"lng":-73.31953,"zip":"01263","miles_from_dt":22.73},{"city":"Hensonville","state_name":"New York","lat":42.29674,"lng":-74.18789,"zip":"12439","miles_from_dt":22.79},{"city":"Cornwallville","state_name":"New York","lat":42.35863,"lng":-74.1609,"zip":"12418","miles_from_dt":22.81},{"city":"Stockbridge","state_name":"Massachusetts","lat":42.30433,"lng":-73.32013,"zip":"01262","miles_from_dt":22.93},{"city":"West Lebanon","state_name":"New York","lat":42.47876,"lng":-73.46505,"zip":"12195","miles_from_dt":22.97},{"city":"Rhinecliff","state_name":"New York","lat":41.91764,"lng":-73.94566,"zip":"12574","miles_from_dt":23.34},{"city":"Bearsville","state_name":"New York","lat":42.05662,"lng":-74.16655,"zip":"12409","miles_from_dt":24.14},{"city":"East Schodack","state_name":"New York","lat":42.56442,"lng":-73.63826,"zip":"12063","miles_from_dt":24.21},{"city":"Bangall","state_name":"New York","lat":41.87513,"lng":-73.69038,"zip":"12506","miles_from_dt":24.32},{"city":"Clinton Corners","state_name":"New York","lat":41.87137,"lng":-73.76274,"zip":"12514","miles_from_dt":24.37},{"city":"Feura Bush","state_name":"New York","lat":42.56083,"lng":-73.91663,"zip":"12067","miles_from_dt":24.67},{"city":"East Nassau","state_name":"New York","lat":42.52871,"lng":-73.501,"zip":"12062","miles_from_dt":24.68},{"city":"Hunter","state_name":"New York","lat":42.22275,"lng":-74.23545,"zip":"12442","miles_from_dt":24.68},{"city":"Kingston","state_name":"New York","lat":41.93239,"lng":-74.03233,"zip":"12402","miles_from_dt":24.71},{"city":"Lanesville","state_name":"New York","lat":42.13804,"lng":-74.22176,"zip":"12450","miles_from_dt":24.73},{"city":"Port Ewen","state_name":"New York","lat":41.90671,"lng":-73.97826,"zip":"12466","miles_from_dt":24.76},{"city":"Lakeville","state_name":"Connecticut","lat":41.95001,"lng":-73.44379,"zip":"06039","miles_from_dt":24.76},{"city":"Ashley Falls","state_name":"Massachusetts","lat":42.06242,"lng":-73.32146,"zip":"01222","miles_from_dt":24.88},{"city":"South Lee","state_name":"Massachusetts","lat":42.26663,"lng":-73.2712,"zip":"01260","miles_from_dt":24.94},{"city":"New Lebanon","state_name":"New York","lat":42.47633,"lng":-73.40394,"zip":"12125","miles_from_dt":24.98},{"city":"Connelly","state_name":"New York","lat":41.9073,"lng":-73.98943,"zip":"12417","miles_from_dt":25},{"city":"Lake Hill","state_name":"New York","lat":42.07955,"lng":-74.20067,"zip":"12448","miles_from_dt":25.01},{"city":"Westerlo","state_name":"New York","lat":42.51713,"lng":-74.04327,"zip":"12193","miles_from_dt":25.04},{"city":"Oak Hill","state_name":"New York","lat":42.42357,"lng":-74.16676,"zip":"12460","miles_from_dt":25.21},{"city":"Kingston","state_name":"New York","lat":41.93504,"lng":-74.05446,"zip":"12401","miles_from_dt":25.24},{"city":"Medusa","state_name":"New York","lat":42.45781,"lng":-74.1409,"zip":"12120","miles_from_dt":25.53},{"city":"Glenford","state_name":"New York","lat":42.00533,"lng":-74.15526,"zip":"12433","miles_from_dt":25.56},{"city":"Glenmont","state_name":"New York","lat":42.59426,"lng":-73.7841,"zip":"12077","miles_from_dt":25.58},{"city":"Clarksville","state_name":"New York","lat":42.55893,"lng":-73.97028,"zip":"12041","miles_from_dt":25.6},{"city":"Durham","state_name":"New York","lat":42.39205,"lng":-74.20232,"zip":"12422","miles_from_dt":25.71},{"city":"Mill River","state_name":"Massachusetts","lat":42.10924,"lng":-73.27475,"zip":"01244","miles_from_dt":25.87},{"city":"West Hurley","state_name":"New York","lat":41.96957,"lng":-74.13311,"zip":"12491","miles_from_dt":26.24},{"city":"Hurley","state_name":"New York","lat":41.93388,"lng":-74.08536,"zip":"12443","miles_from_dt":26.3},{"city":"Staatsburg","state_name":"New York","lat":41.85348,"lng":-73.87302,"zip":"12580","miles_from_dt":26.32},{"city":"East Greenbush","state_name":"New York","lat":42.59915,"lng":-73.65658,"zip":"12061","miles_from_dt":26.35},{"city":"Lenox Dale","state_name":"Massachusetts","lat":42.3334,"lng":-73.24967,"zip":"01242","miles_from_dt":26.94},{"city":"Canaan","state_name":"Connecticut","lat":42.02872,"lng":-73.29807,"zip":"06018","miles_from_dt":27.05},{"city":"Willow","state_name":"New York","lat":42.08264,"lng":-74.24563,"zip":"12495","miles_from_dt":27.06},{"city":"Delmar","state_name":"New York","lat":42.60764,"lng":-73.86864,"zip":"12054","miles_from_dt":27.1},{"city":"Lenox","state_name":"Massachusetts","lat":42.37567,"lng":-73.26466,"zip":"01240","miles_from_dt":27.17},{"city":"Amenia","state_name":"New York","lat":41.85664,"lng":-73.55953,"zip":"12501","miles_from_dt":27.28},{"city":"Dormansville","state_name":"New York","lat":42.43842,"lng":-74.20308,"zip":"12055","miles_from_dt":27.32},{"city":"Pittsfield","state_name":"Massachusetts","lat":42.45789,"lng":-73.32205,"zip":"01202","miles_from_dt":27.38},{"city":"Windham","state_name":"New York","lat":42.32669,"lng":-74.27256,"zip":"12496","miles_from_dt":27.49},{"city":"Jewett","state_name":"New York","lat":42.24942,"lng":-74.28993,"zip":"12444","miles_from_dt":27.53},{"city":"Lee","state_name":"Massachusetts","lat":42.30072,"lng":-73.22553,"zip":"01238","miles_from_dt":27.62},{"city":"Monterey","state_name":"Massachusetts","lat":42.19043,"lng":-73.21579,"zip":"01245","miles_from_dt":27.73},{"city":"Bloomington","state_name":"New York","lat":41.87975,"lng":-74.04094,"zip":"12411","miles_from_dt":27.98},{"city":"Ulster Park","state_name":"New York","lat":41.86095,"lng":-73.99555,"zip":"12487","miles_from_dt":27.98},{"city":"Albany","state_name":"New York","lat":42.63039,"lng":-73.76198,"zip":"12241","miles_from_dt":28.03},{"city":"Rensselaer","state_name":"New York","lat":42.63106,"lng":-73.71801,"zip":"12144","miles_from_dt":28.13},{"city":"Albany","state_name":"New York","lat":42.63355,"lng":-73.763,"zip":"12202","miles_from_dt":28.25},{"city":"Mount Tremper","state_name":"New York","lat":42.03997,"lng":-74.24659,"zip":"12457","miles_from_dt":28.31},{"city":"East Canaan","state_name":"Connecticut","lat":42.00812,"lng":-73.28374,"zip":"06024","miles_from_dt":28.41},{"city":"Rensselaerville","state_name":"New York","lat":42.51365,"lng":-74.15147,"zip":"12147","miles_from_dt":28.5},{"city":"Tyringham","state_name":"Massachusetts","lat":42.23997,"lng":-73.19686,"zip":"01264","miles_from_dt":28.61},{"city":"Albany","state_name":"New York","lat":42.6382,"lng":-73.78976,"zip":"12209","miles_from_dt":28.62},{"city":"Chichester","state_name":"New York","lat":42.09554,"lng":-74.28592,"zip":"12416","miles_from_dt":28.71},{"city":"Southfield","state_name":"Massachusetts","lat":42.07316,"lng":-73.23282,"zip":"01259","miles_from_dt":28.74},{"city":"Salt Point","state_name":"New York","lat":41.80629,"lng":-73.79673,"zip":"12578","miles_from_dt":28.94},{"city":"West Sand Lake","state_name":"New York","lat":42.63149,"lng":-73.61708,"zip":"12196","miles_from_dt":28.97},{"city":"Esopus","state_name":"New York","lat":41.83323,"lng":-73.961,"zip":"12429","miles_from_dt":29.01},{"city":"Falls Village","state_name":"Connecticut","lat":41.95788,"lng":-73.31733,"zip":"06031","miles_from_dt":29.03},{"city":"Pittsfield","state_name":"Massachusetts","lat":42.45614,"lng":-73.28114,"zip":"01201","miles_from_dt":29.03},{"city":"Albany","state_name":"New York","lat":42.64568,"lng":-73.75666,"zip":"12228","miles_from_dt":29.08},{"city":"Albany","state_name":"New York","lat":42.64589,"lng":-73.79766,"zip":"12237","miles_from_dt":29.18},{"city":"Albany","state_name":"New York","lat":42.64832,"lng":-73.75161,"zip":"12201","miles_from_dt":29.26},{"city":"Preston Hollow","state_name":"New York","lat":42.44521,"lng":-74.2421,"zip":"12469","miles_from_dt":29.27},{"city":"Albany","state_name":"New York","lat":42.64924,"lng":-73.75555,"zip":"12233","miles_from_dt":29.33},{"city":"Albany","state_name":"New York","lat":42.64974,"lng":-73.75606,"zip":"12235","miles_from_dt":29.36},{"city":"Albany","state_name":"New York","lat":42.65082,"lng":-73.75855,"zip":"12239","miles_from_dt":29.44},{"city":"Albany","state_name":"New York","lat":42.65149,"lng":-73.7569,"zip":"12240","miles_from_dt":29.48},{"city":"Albany","state_name":"New York","lat":42.65152,"lng":-73.76117,"zip":"12244","miles_from_dt":29.49},{"city":"Albany","state_name":"New York","lat":42.65178,"lng":-73.75795,"zip":"12223","miles_from_dt":29.5},{"city":"Albany","state_name":"New York","lat":42.65188,"lng":-73.75841,"zip":"12236","miles_from_dt":29.51},{"city":"Albany","state_name":"New York","lat":42.65203,"lng":-73.76145,"zip":"12238","miles_from_dt":29.52},{"city":"Albany","state_name":"New York","lat":42.6526,"lng":-73.75405,"zip":"12232","miles_from_dt":29.56},{"city":"Albany","state_name":"New York","lat":42.65275,"lng":-73.75755,"zip":"12242","miles_from_dt":29.57},{"city":"Albany","state_name":"New York","lat":42.65042,"lng":-73.81441,"zip":"12229","miles_from_dt":29.57},{"city":"Stephentown","state_name":"New York","lat":42.58249,"lng":-73.43559,"zip":"12169","miles_from_dt":29.61},{"city":"Albany","state_name":"New York","lat":42.65357,"lng":-73.75747,"zip":"12257","miles_from_dt":29.63},{"city":"Albany","state_name":"New York","lat":42.65379,"lng":-73.74642,"zip":"12243","miles_from_dt":29.64},{"city":"Albany","state_name":"New York","lat":42.65398,"lng":-73.75837,"zip":"12248","miles_from_dt":29.66},{"city":"Slingerlands","state_name":"New York","lat":42.64328,"lng":-73.88503,"zip":"12159","miles_from_dt":29.68},{"city":"Albany","state_name":"New York","lat":42.65447,"lng":-73.75972,"zip":"12255","miles_from_dt":29.69},{"city":"Albany","state_name":"New York","lat":42.65293,"lng":-73.80835,"zip":"12208","miles_from_dt":29.71},{"city":"Albany","state_name":"New York","lat":42.6547,"lng":-73.75777,"zip":"12230","miles_from_dt":29.71},{"city":"Pittsfield","state_name":"Massachusetts","lat":42.45319,"lng":-73.26278,"zip":"01203","miles_from_dt":29.71},{"city":"Shokan","state_name":"New York","lat":41.97519,"lng":-74.22718,"zip":"12481","miles_from_dt":29.78},{"city":"Albany","state_name":"New York","lat":42.65606,"lng":-73.76013,"zip":"12231","miles_from_dt":29.8},{"city":"Albany","state_name":"New York","lat":42.65657,"lng":-73.74749,"zip":"12207","miles_from_dt":29.84},{"city":"Voorheesville","state_name":"New York","lat":42.62502,"lng":-73.9737,"zip":"12186","miles_from_dt":29.85},{"city":"West Kill","state_name":"New York","lat":42.18758,"lng":-74.33453,"zip":"12492","miles_from_dt":29.88}],"targetCityZipCode":"12534","targetCityState":"New York"},"__N_SSG":true}