{"pageProps":{"stateName":"New-york","cityName":"malone","nearbyCities":[{"city":"Whippleville","state_name":"New York","lat":44.80833,"lng":-74.26124,"zip":"12995","miles_from_dt":4.58},{"city":"North Bangor","state_name":"New York","lat":44.79226,"lng":-74.41915,"zip":"12966","miles_from_dt":8.41},{"city":"Owls Head","state_name":"New York","lat":44.71102,"lng":-74.0812,"zip":"12969","miles_from_dt":9.22},{"city":"Burke","state_name":"New York","lat":44.92468,"lng":-74.17387,"zip":"12917","miles_from_dt":13.36},{"city":"Brainardsville","state_name":"New York","lat":44.8535,"lng":-74.035,"zip":"12915","miles_from_dt":13.62},{"city":"Dickinson Center","state_name":"New York","lat":44.72349,"lng":-74.5437,"zip":"12930","miles_from_dt":13.85},{"city":"Brushton","state_name":"New York","lat":44.83572,"lng":-74.5145,"zip":"12916","miles_from_dt":13.94},{"city":"Chateaugay","state_name":"New York","lat":44.89332,"lng":-74.06016,"zip":"12920","miles_from_dt":14.46},{"city":"Constable","state_name":"New York","lat":44.95223,"lng":-74.32214,"zip":"12926","miles_from_dt":14.8},{"city":"Lyon Mountain","state_name":"New York","lat":44.78934,"lng":-73.95855,"zip":"12955","miles_from_dt":15.35},{"city":"Rainbow Lake","state_name":"New York","lat":44.50469,"lng":-74.20498,"zip":"12976","miles_from_dt":16.64},{"city":"Saint Regis Falls","state_name":"New York","lat":44.57254,"lng":-74.50875,"zip":"12980","miles_from_dt":16.82},{"city":"Vermontville","state_name":"New York","lat":44.53935,"lng":-74.06439,"zip":"12989","miles_from_dt":17.09},{"city":"Moira","state_name":"New York","lat":44.85353,"lng":-74.57706,"zip":"12957","miles_from_dt":17.23},{"city":"Lyon Mountain","state_name":"New York","lat":44.71181,"lng":-73.91362,"zip":"12952","miles_from_dt":17.35},{"city":"Fort Covington","state_name":"New York","lat":44.96176,"lng":-74.47807,"zip":"12937","miles_from_dt":18.48},{"city":"North Lawrence","state_name":"New York","lat":44.76864,"lng":-74.65897,"zip":"12967","miles_from_dt":19.55},{"city":"Lawrenceville","state_name":"New York","lat":44.75881,"lng":-74.66276,"zip":"12949","miles_from_dt":19.68},{"city":"Ellenburg Center","state_name":"New York","lat":44.84603,"lng":-73.87659,"zip":"12934","miles_from_dt":20.33},{"city":"Paul Smiths","state_name":"New York","lat":44.44949,"lng":-74.33222,"zip":"12970","miles_from_dt":20.48},{"city":"Churubusco","state_name":"New York","lat":44.94546,"lng":-73.95802,"zip":"12923","miles_from_dt":20.56},{"city":"Nicholville","state_name":"New York","lat":44.70587,"lng":-74.684,"zip":"12965","miles_from_dt":20.85},{"city":"Bombay","state_name":"New York","lat":44.93289,"lng":-74.6018,"zip":"12914","miles_from_dt":21.22},{"city":"Gabriels","state_name":"New York","lat":44.43859,"lng":-74.16541,"zip":"12939","miles_from_dt":21.5},{"city":"Saranac","state_name":"New York","lat":44.62235,"lng":-73.84035,"zip":"12981","miles_from_dt":22.42},{"city":"Ellenburg","state_name":"New York","lat":44.89118,"lng":-73.84512,"zip":"12933","miles_from_dt":23},{"city":"Ellenburg Depot","state_name":"New York","lat":44.85709,"lng":-73.79461,"zip":"12935","miles_from_dt":24.38},{"city":"Helena","state_name":"New York","lat":44.91246,"lng":-74.69983,"zip":"13649","miles_from_dt":24.46},{"city":"Redford","state_name":"New York","lat":44.6181,"lng":-73.79589,"zip":"12978","miles_from_dt":24.57},{"city":"Brasher Falls","state_name":"New York","lat":44.85884,"lng":-74.73879,"zip":"13613","miles_from_dt":24.72},{"city":"Hogansburg","state_name":"New York","lat":44.97865,"lng":-74.64781,"zip":"13655","miles_from_dt":24.97},{"city":"Bloomingdale","state_name":"New York","lat":44.42627,"lng":-74.01562,"zip":"12913","miles_from_dt":25},{"city":"Winthrop","state_name":"New York","lat":44.74841,"lng":-74.80656,"zip":"13697","miles_from_dt":26.73},{"city":"Dannemora","state_name":"New York","lat":44.71971,"lng":-73.71909,"zip":"12929","miles_from_dt":26.84},{"city":"Parishville","state_name":"New York","lat":44.48166,"lng":-74.67987,"zip":"13672","miles_from_dt":27.29},{"city":"Saranac Lake","state_name":"New York","lat":44.34627,"lng":-74.14243,"zip":"12983","miles_from_dt":27.97},{"city":"Lake Clear","state_name":"New York","lat":44.33451,"lng":-74.23829,"zip":"12945","miles_from_dt":28.16},{"city":"Rooseveltown","state_name":"New York","lat":44.97395,"lng":-74.73543,"zip":"13683","miles_from_dt":28.18},{"city":"Schuyler Falls","state_name":"New York","lat":44.56413,"lng":-73.73395,"zip":"12985","miles_from_dt":28.84},{"city":"Cadyville","state_name":"New York","lat":44.68975,"lng":-73.67863,"zip":"12918","miles_from_dt":29.02}],"targetCityZipCode":"12953","targetCityState":"New York"},"__N_SSG":true}