{"pageProps":{"stateName":"New-york","cityName":"model-city","nearbyCities":[{"city":"Lewiston","state_name":"New York","lat":43.17314,"lng":-78.99521,"zip":"14092","miles_from_dt":1.51},{"city":"Stella Niagara","state_name":"New York","lat":43.19788,"lng":-79.04641,"zip":"14144","miles_from_dt":3.21},{"city":"Youngstown","state_name":"New York","lat":43.24178,"lng":-79.00548,"zip":"14174","miles_from_dt":3.54},{"city":"Niagara University","state_name":"New York","lat":43.13718,"lng":-79.03516,"zip":"14109","miles_from_dt":4.67},{"city":"Ransomville","state_name":"New York","lat":43.23556,"lng":-78.89935,"zip":"14131","miles_from_dt":5.15},{"city":"Niagara Falls","state_name":"New York","lat":43.1199,"lng":-79.02265,"zip":"14305","miles_from_dt":5.43},{"city":"Sanborn","state_name":"New York","lat":43.14787,"lng":-78.87856,"zip":"14132","miles_from_dt":6.14},{"city":"Niagara Falls","state_name":"New York","lat":43.10197,"lng":-78.95282,"zip":"14304","miles_from_dt":6.48},{"city":"Niagara Falls","state_name":"New York","lat":43.09701,"lng":-79.03726,"zip":"14301","miles_from_dt":7.17},{"city":"Niagara Falls","state_name":"New York","lat":43.0939,"lng":-79.04919,"zip":"14302","miles_from_dt":7.62},{"city":"Niagara Falls","state_name":"New York","lat":43.08428,"lng":-79.03908,"zip":"14303","miles_from_dt":8.03},{"city":"Wilson","state_name":"New York","lat":43.28201,"lng":-78.81757,"zip":"14172","miles_from_dt":10.37},{"city":"North Tonawanda","state_name":"New York","lat":43.07337,"lng":-78.83585,"zip":"14120","miles_from_dt":11.13},{"city":"Grand Island","state_name":"New York","lat":43.01673,"lng":-78.96308,"zip":"14072","miles_from_dt":12.22},{"city":"Tonawanda","state_name":"New York","lat":43.01688,"lng":-78.87819,"zip":"14151","miles_from_dt":13.28},{"city":"Newfane","state_name":"New York","lat":43.26365,"lng":-78.7274,"zip":"14108","miles_from_dt":13.8},{"city":"Lockport","state_name":"New York","lat":43.15989,"lng":-78.70032,"zip":"14094","miles_from_dt":14.48},{"city":"Tonawanda","state_name":"New York","lat":42.99794,"lng":-78.87815,"zip":"14150","miles_from_dt":14.49},{"city":"Buffalo","state_name":"New York","lat":43.04214,"lng":-78.7798,"zip":"14228","miles_from_dt":14.65},{"city":"Lockport","state_name":"New York","lat":43.17105,"lng":-78.68883,"zip":"14095","miles_from_dt":14.95},{"city":"Burt","state_name":"New York","lat":43.31498,"lng":-78.71664,"zip":"14028","miles_from_dt":15.87},{"city":"Getzville","state_name":"New York","lat":43.02696,"lng":-78.75808,"zip":"14068","miles_from_dt":16.16},{"city":"Buffalo","state_name":"New York","lat":42.97189,"lng":-78.87674,"zip":"14217","miles_from_dt":16.2},{"city":"Olcott","state_name":"New York","lat":43.33529,"lng":-78.72335,"zip":"14126","miles_from_dt":16.38},{"city":"Buffalo","state_name":"New York","lat":43.00165,"lng":-78.79066,"zip":"14260","miles_from_dt":16.42},{"city":"Buffalo","state_name":"New York","lat":43.00188,"lng":-78.7848,"zip":"14261","miles_from_dt":16.59},{"city":"Buffalo","state_name":"New York","lat":42.97348,"lng":-78.84612,"zip":"14223","miles_from_dt":16.68},{"city":"Buffalo","state_name":"New York","lat":42.95201,"lng":-78.89824,"zip":"14207","miles_from_dt":17.19},{"city":"East Amherst","state_name":"New York","lat":43.04168,"lng":-78.69927,"zip":"14051","miles_from_dt":17.76},{"city":"Buffalo","state_name":"New York","lat":42.94855,"lng":-78.862,"zip":"14216","miles_from_dt":17.96},{"city":"Buffalo","state_name":"New York","lat":42.97078,"lng":-78.79844,"zip":"14226","miles_from_dt":17.97},{"city":"Buffalo","state_name":"New York","lat":42.93936,"lng":-78.84101,"zip":"14214","miles_from_dt":18.94},{"city":"Buffalo","state_name":"New York","lat":42.97856,"lng":-78.75003,"zip":"14265","miles_from_dt":18.94},{"city":"Buffalo","state_name":"New York","lat":42.98039,"lng":-78.73785,"zip":"14231","miles_from_dt":19.23},{"city":"Buffalo","state_name":"New York","lat":42.91762,"lng":-78.89099,"zip":"14213","miles_from_dt":19.58},{"city":"Buffalo","state_name":"New York","lat":42.92002,"lng":-78.8771,"zip":"14222","miles_from_dt":19.6},{"city":"Appleton","state_name":"New York","lat":43.30792,"lng":-78.62728,"zip":"14008","miles_from_dt":19.63},{"city":"Buffalo","state_name":"New York","lat":42.9167,"lng":-78.87708,"zip":"14267","miles_from_dt":19.82},{"city":"Buffalo","state_name":"New York","lat":42.97918,"lng":-78.72158,"zip":"14221","miles_from_dt":19.84},{"city":"Buffalo","state_name":"New York","lat":42.93451,"lng":-78.81023,"zip":"14215","miles_from_dt":19.89},{"city":"Buffalo","state_name":"New York","lat":42.91365,"lng":-78.86622,"zip":"14209","miles_from_dt":20.18},{"city":"Buffalo","state_name":"New York","lat":42.9146,"lng":-78.85146,"zip":"14208","miles_from_dt":20.35},{"city":"Clarence Center","state_name":"New York","lat":43.04587,"lng":-78.63189,"zip":"14032","miles_from_dt":20.47},{"city":"Buffalo","state_name":"New York","lat":42.89706,"lng":-78.88752,"zip":"14201","miles_from_dt":21},{"city":"Gasport","state_name":"New York","lat":43.21565,"lng":-78.56644,"zip":"14067","miles_from_dt":21.11},{"city":"Buffalo","state_name":"New York","lat":42.90813,"lng":-78.81883,"zip":"14211","miles_from_dt":21.36},{"city":"Buffalo","state_name":"New York","lat":42.89235,"lng":-78.8688,"zip":"14205","miles_from_dt":21.56},{"city":"Buffalo","state_name":"New York","lat":42.88798,"lng":-78.88358,"zip":"14202","miles_from_dt":21.66},{"city":"Buffalo","state_name":"New York","lat":42.92879,"lng":-78.752,"zip":"14225","miles_from_dt":21.68},{"city":"Buffalo","state_name":"New York","lat":42.92792,"lng":-78.74765,"zip":"14241","miles_from_dt":21.85},{"city":"Buffalo","state_name":"New York","lat":42.88693,"lng":-78.87124,"zip":"14280","miles_from_dt":21.89},{"city":"Buffalo","state_name":"New York","lat":42.88568,"lng":-78.87116,"zip":"14276","miles_from_dt":21.97},{"city":"Buffalo","state_name":"New York","lat":42.89438,"lng":-78.81957,"zip":"14212","miles_from_dt":22.23},{"city":"Buffalo","state_name":"New York","lat":42.882,"lng":-78.8614,"zip":"14204","miles_from_dt":22.35},{"city":"Buffalo","state_name":"New York","lat":42.88721,"lng":-78.82344,"zip":"14264","miles_from_dt":22.62},{"city":"Buffalo","state_name":"New York","lat":42.8751,"lng":-78.86902,"zip":"14233","miles_from_dt":22.7},{"city":"Buffalo","state_name":"New York","lat":42.87338,"lng":-78.86924,"zip":"14263","miles_from_dt":22.82},{"city":"Buffalo","state_name":"New York","lat":42.87227,"lng":-78.87025,"zip":"14272","miles_from_dt":22.88},{"city":"Bowmansville","state_name":"New York","lat":42.94212,"lng":-78.68794,"zip":"14026","miles_from_dt":22.88},{"city":"Buffalo","state_name":"New York","lat":42.87072,"lng":-78.8697,"zip":"14273","miles_from_dt":22.99},{"city":"Buffalo","state_name":"New York","lat":42.88078,"lng":-78.81018,"zip":"14206","miles_from_dt":23.27},{"city":"Buffalo","state_name":"New York","lat":42.86514,"lng":-78.86949,"zip":"14269","miles_from_dt":23.36},{"city":"Buffalo","state_name":"New York","lat":42.87884,"lng":-78.80962,"zip":"14240","miles_from_dt":23.41},{"city":"Buffalo","state_name":"New York","lat":42.87,"lng":-78.83221,"zip":"14270","miles_from_dt":23.58},{"city":"Buffalo","state_name":"New York","lat":42.86244,"lng":-78.86507,"zip":"14203","miles_from_dt":23.6},{"city":"Clarence","state_name":"New York","lat":42.98661,"lng":-78.60908,"zip":"14031","miles_from_dt":23.7},{"city":"Buffalo","state_name":"New York","lat":42.86407,"lng":-78.82811,"zip":"14210","miles_from_dt":24.04},{"city":"Buffalo","state_name":"New York","lat":42.88402,"lng":-78.74665,"zip":"14227","miles_from_dt":24.47},{"city":"Depew","state_name":"New York","lat":42.90142,"lng":-78.70431,"zip":"14043","miles_from_dt":24.6},{"city":"Barker","state_name":"New York","lat":43.33431,"lng":-78.52572,"zip":"14012","miles_from_dt":25.06},{"city":"Buffalo","state_name":"New York","lat":42.84571,"lng":-78.82264,"zip":"14220","miles_from_dt":25.32},{"city":"Middleport","state_name":"New York","lat":43.19043,"lng":-78.4813,"zip":"14105","miles_from_dt":25.35},{"city":"Akron","state_name":"New York","lat":43.03149,"lng":-78.51154,"zip":"14001","miles_from_dt":26.34},{"city":"Lancaster","state_name":"New York","lat":42.90661,"lng":-78.6291,"zip":"14086","miles_from_dt":26.7},{"city":"Buffalo","state_name":"New York","lat":42.81921,"lng":-78.82772,"zip":"14218","miles_from_dt":26.99},{"city":"Buffalo","state_name":"New York","lat":42.83767,"lng":-78.74771,"zip":"14224","miles_from_dt":27.28},{"city":"Buffalo","state_name":"New York","lat":42.78903,"lng":-78.82694,"zip":"14219","miles_from_dt":29},{"city":"Athol Springs","state_name":"New York","lat":42.77325,"lng":-78.86595,"zip":"14010","miles_from_dt":29.59}],"targetCityZipCode":"14107","targetCityState":"New York"},"__N_SSG":true}