{"pageProps":{"stateName":"New-york","cityName":"new-berlin","nearbyCities":[{"city":"Edmeston","state_name":"New York","lat":42.70193,"lng":-75.24847,"zip":"13335","miles_from_dt":5.45},{"city":"Garrattsville","state_name":"New York","lat":42.64766,"lng":-75.18918,"zip":"13342","miles_from_dt":6.19},{"city":"New Lisbon","state_name":"New York","lat":42.59714,"lng":-75.19729,"zip":"13415","miles_from_dt":6.37},{"city":"South New Berlin","state_name":"New York","lat":42.53468,"lng":-75.37584,"zip":"13843","miles_from_dt":7.84},{"city":"West Burlington","state_name":"New York","lat":42.69661,"lng":-75.17695,"zip":"13482","miles_from_dt":7.91},{"city":"Morris","state_name":"New York","lat":42.52797,"lng":-75.25657,"zip":"13808","miles_from_dt":8.02},{"city":"Sherburne","state_name":"New York","lat":42.68492,"lng":-75.45572,"zip":"13460","miles_from_dt":8.13},{"city":"Mount Vision","state_name":"New York","lat":42.61188,"lng":-75.11157,"zip":"13810","miles_from_dt":10.26},{"city":"West Edmeston","state_name":"New York","lat":42.7865,"lng":-75.3165,"zip":"13485","miles_from_dt":10.31},{"city":"Laurens","state_name":"New York","lat":42.5513,"lng":-75.13644,"zip":"13796","miles_from_dt":10.65},{"city":"North Norwich","state_name":"New York","lat":42.61655,"lng":-75.52584,"zip":"13814","miles_from_dt":11.1},{"city":"Burlington Flats","state_name":"New York","lat":42.7438,"lng":-75.1385,"zip":"13315","miles_from_dt":11.41},{"city":"Gilbertsville","state_name":"New York","lat":42.47023,"lng":-75.33458,"zip":"13776","miles_from_dt":11.6},{"city":"Leonardsville","state_name":"New York","lat":42.80501,"lng":-75.26105,"zip":"13364","miles_from_dt":11.84},{"city":"West Oneonta","state_name":"New York","lat":42.5048,"lng":-75.14156,"zip":"13861","miles_from_dt":12.54},{"city":"Brookfield","state_name":"New York","lat":42.82476,"lng":-75.31568,"zip":"13314","miles_from_dt":12.95},{"city":"Norwich","state_name":"New York","lat":42.54712,"lng":-75.53413,"zip":"13815","miles_from_dt":13.02},{"city":"Hubbardsville","state_name":"New York","lat":42.80971,"lng":-75.42401,"zip":"13355","miles_from_dt":13.25},{"city":"Hartwick","state_name":"New York","lat":42.70202,"lng":-75.06398,"zip":"13348","miles_from_dt":13.3},{"city":"Otego","state_name":"New York","lat":42.44329,"lng":-75.20154,"zip":"13825","miles_from_dt":14.48},{"city":"North Brookfield","state_name":"New York","lat":42.84519,"lng":-75.38213,"zip":"13418","miles_from_dt":14.82},{"city":"Earlville","state_name":"New York","lat":42.75831,"lng":-75.57452,"zip":"13332","miles_from_dt":15.86},{"city":"Smyrna","state_name":"New York","lat":42.68632,"lng":-75.61998,"zip":"13464","miles_from_dt":16.16},{"city":"Mount Upton","state_name":"New York","lat":42.40849,"lng":-75.3914,"zip":"13809","miles_from_dt":16.33},{"city":"Milford","state_name":"New York","lat":42.61718,"lng":-74.98612,"zip":"13807","miles_from_dt":16.56},{"city":"West Winfield","state_name":"New York","lat":42.85957,"lng":-75.17698,"zip":"13491","miles_from_dt":16.77},{"city":"Schuyler Lake","state_name":"New York","lat":42.77527,"lng":-75.03691,"zip":"13457","miles_from_dt":16.85},{"city":"Guilford","state_name":"New York","lat":42.42496,"lng":-75.48128,"zip":"13780","miles_from_dt":17.07},{"city":"Bridgewater","state_name":"New York","lat":42.88715,"lng":-75.26228,"zip":"13313","miles_from_dt":17.42},{"city":"Hamilton","state_name":"New York","lat":42.82093,"lng":-75.54453,"zip":"13346","miles_from_dt":17.42},{"city":"Oneonta","state_name":"New York","lat":42.47204,"lng":-75.03893,"zip":"13820","miles_from_dt":17.92},{"city":"Plymouth","state_name":"New York","lat":42.6531,"lng":-75.66286,"zip":"13832","miles_from_dt":18.02},{"city":"Fly Creek","state_name":"New York","lat":42.75114,"lng":-74.9816,"zip":"13337","miles_from_dt":18.47},{"city":"Portlandville","state_name":"New York","lat":42.54903,"lng":-74.96727,"zip":"13834","miles_from_dt":18.5},{"city":"Wells Bridge","state_name":"New York","lat":42.37123,"lng":-75.24916,"zip":"13859","miles_from_dt":18.62},{"city":"South Plymouth","state_name":"New York","lat":42.60927,"lng":-75.68083,"zip":"13844","miles_from_dt":19.01},{"city":"Waterville","state_name":"New York","lat":42.91424,"lng":-75.36699,"zip":"13480","miles_from_dt":19.34},{"city":"Colliersville","state_name":"New York","lat":42.49003,"lng":-74.98209,"zip":"13747","miles_from_dt":19.57},{"city":"Sangerfield","state_name":"New York","lat":42.91791,"lng":-75.37655,"zip":"13455","miles_from_dt":19.67},{"city":"Cassville","state_name":"New York","lat":42.92366,"lng":-75.25958,"zip":"13318","miles_from_dt":19.94},{"city":"Unadilla","state_name":"New York","lat":42.33785,"lng":-75.31392,"zip":"13849","miles_from_dt":20.67},{"city":"Madison","state_name":"New York","lat":42.90209,"lng":-75.50728,"zip":"13402","miles_from_dt":20.86},{"city":"Oxford","state_name":"New York","lat":42.43868,"lng":-75.6295,"zip":"13830","miles_from_dt":21.31},{"city":"Maryland","state_name":"New York","lat":42.53849,"lng":-74.91278,"zip":"12116","miles_from_dt":21.37},{"city":"Cooperstown","state_name":"New York","lat":42.71865,"lng":-74.90374,"zip":"13326","miles_from_dt":21.43},{"city":"East Pharsalia","state_name":"New York","lat":42.55502,"lng":-75.71657,"zip":"13758","miles_from_dt":21.51},{"city":"Solsville","state_name":"New York","lat":42.91064,"lng":-75.52102,"zip":"13465","miles_from_dt":21.71},{"city":"Richfield Springs","state_name":"New York","lat":42.85491,"lng":-74.99724,"zip":"13439","miles_from_dt":21.88},{"city":"Bouckville","state_name":"New York","lat":42.89055,"lng":-75.57065,"zip":"13310","miles_from_dt":21.95},{"city":"West Davenport","state_name":"New York","lat":42.45573,"lng":-74.94989,"zip":"13860","miles_from_dt":22.23},{"city":"Franklin","state_name":"New York","lat":42.33706,"lng":-75.14728,"zip":"13775","miles_from_dt":22.32},{"city":"Eaton","state_name":"New York","lat":42.83445,"lng":-75.65986,"zip":"13334","miles_from_dt":22.42},{"city":"West Eaton","state_name":"New York","lat":42.85426,"lng":-75.65549,"zip":"13484","miles_from_dt":23.1},{"city":"Treadwell","state_name":"New York","lat":42.36037,"lng":-75.05465,"zip":"13846","miles_from_dt":23.13},{"city":"Clayville","state_name":"New York","lat":42.96661,"lng":-75.20445,"zip":"13322","miles_from_dt":23.36},{"city":"South Otselic","state_name":"New York","lat":42.65945,"lng":-75.77136,"zip":"13155","miles_from_dt":23.57},{"city":"Oriskany Falls","state_name":"New York","lat":42.9635,"lng":-75.48675,"zip":"13425","miles_from_dt":24.25},{"city":"Bainbridge","state_name":"New York","lat":42.30459,"lng":-75.4793,"zip":"13733","miles_from_dt":24.54},{"city":"Deansboro","state_name":"New York","lat":42.98247,"lng":-75.42836,"zip":"13328","miles_from_dt":24.58},{"city":"Georgetown","state_name":"New York","lat":42.76243,"lng":-75.76296,"zip":"13072","miles_from_dt":24.64},{"city":"Sidney","state_name":"New York","lat":42.28423,"lng":-75.39595,"zip":"13838","miles_from_dt":24.76},{"city":"Meridale","state_name":"New York","lat":42.37894,"lng":-74.97315,"zip":"13806","miles_from_dt":24.77},{"city":"Schenevus","state_name":"New York","lat":42.59229,"lng":-74.82337,"zip":"12155","miles_from_dt":24.99},{"city":"Davenport Center","state_name":"New York","lat":42.45745,"lng":-74.88363,"zip":"13751","miles_from_dt":25.04},{"city":"Sauquoit","state_name":"New York","lat":43.00145,"lng":-75.25855,"zip":"13456","miles_from_dt":25.28},{"city":"McDonough","state_name":"New York","lat":42.50327,"lng":-75.78028,"zip":"13801","miles_from_dt":25.72},{"city":"Roseboom","state_name":"New York","lat":42.7026,"lng":-74.81263,"zip":"13450","miles_from_dt":25.72},{"city":"Ilion","state_name":"New York","lat":42.96952,"lng":-75.08037,"zip":"13357","miles_from_dt":25.73},{"city":"North Pitcher","state_name":"New York","lat":42.64578,"lng":-75.81718,"zip":"13124","miles_from_dt":25.86},{"city":"Knoxboro","state_name":"New York","lat":42.98434,"lng":-75.51901,"zip":"13362","miles_from_dt":26.21},{"city":"Davenport","state_name":"New York","lat":42.47739,"lng":-74.83904,"zip":"13750","miles_from_dt":26.44},{"city":"East Meredith","state_name":"New York","lat":42.40915,"lng":-74.89321,"zip":"13757","miles_from_dt":26.46},{"city":"Morrisville","state_name":"New York","lat":42.92205,"lng":-75.66722,"zip":"13408","miles_from_dt":26.77},{"city":"Springfield Center","state_name":"New York","lat":42.84696,"lng":-74.86448,"zip":"13468","miles_from_dt":26.89},{"city":"Sidney Center","state_name":"New York","lat":42.24824,"lng":-75.26007,"zip":"13839","miles_from_dt":26.97},{"city":"Chadwicks","state_name":"New York","lat":43.02705,"lng":-75.26593,"zip":"13319","miles_from_dt":27},{"city":"Pitcher","state_name":"New York","lat":42.60368,"lng":-75.84582,"zip":"13136","miles_from_dt":27.42},{"city":"Munnsville","state_name":"New York","lat":42.97602,"lng":-75.59131,"zip":"13409","miles_from_dt":27.42},{"city":"Erieville","state_name":"New York","lat":42.86493,"lng":-75.75173,"zip":"13061","miles_from_dt":27.43},{"city":"Westford","state_name":"New York","lat":42.67447,"lng":-74.76796,"zip":"13488","miles_from_dt":27.73},{"city":"Franklin Springs","state_name":"New York","lat":43.03468,"lng":-75.39075,"zip":"13341","miles_from_dt":27.74},{"city":"Clinton","state_name":"New York","lat":43.04198,"lng":-75.38144,"zip":"13323","miles_from_dt":28.17},{"city":"East Springfield","state_name":"New York","lat":42.83091,"lng":-74.82207,"zip":"13333","miles_from_dt":28.19},{"city":"Jordanville","state_name":"New York","lat":42.89807,"lng":-74.86256,"zip":"13361","miles_from_dt":29.01},{"city":"Washington Mills","state_name":"New York","lat":43.0566,"lng":-75.27399,"zip":"13479","miles_from_dt":29.01},{"city":"New Hartford","state_name":"New York","lat":43.0576,"lng":-75.27495,"zip":"13413","miles_from_dt":29.07},{"city":"De Ruyter","state_name":"New York","lat":42.72838,"lng":-75.86957,"zip":"13052","miles_from_dt":29.19},{"city":"Vernon Center","state_name":"New York","lat":43.03633,"lng":-75.51441,"zip":"13477","miles_from_dt":29.44},{"city":"Mohawk","state_name":"New York","lat":42.9677,"lng":-74.94087,"zip":"13407","miles_from_dt":29.53},{"city":"Peterboro","state_name":"New York","lat":42.96731,"lng":-75.68476,"zip":"13134","miles_from_dt":29.7},{"city":"Worcester","state_name":"New York","lat":42.6094,"lng":-74.72587,"zip":"12197","miles_from_dt":29.83},{"city":"Masonville","state_name":"New York","lat":42.20708,"lng":-75.37562,"zip":"13804","miles_from_dt":29.88},{"city":"Trout Creek","state_name":"New York","lat":42.20443,"lng":-75.27777,"zip":"13847","miles_from_dt":29.92},{"city":"Delhi","state_name":"New York","lat":42.30873,"lng":-74.92538,"zip":"13753","miles_from_dt":30}],"targetCityZipCode":"13411","targetCityState":"New York"},"__N_SSG":true}