{"pageProps":{"stateName":"New-york","cityName":"north-hudson","nearbyCities":[{"city":"Severance","state_name":"New York","lat":43.8839,"lng":-73.72309,"zip":"12872","miles_from_dt":8.91},{"city":"Keene Valley","state_name":"New York","lat":44.13934,"lng":-73.82075,"zip":"12943","miles_from_dt":9.61},{"city":"Paradox","state_name":"New York","lat":43.88899,"lng":-73.6703,"zip":"12858","miles_from_dt":10.02},{"city":"Schroon Lake","state_name":"New York","lat":43.83931,"lng":-73.7625,"zip":"12870","miles_from_dt":11.31},{"city":"Moriah Center","state_name":"New York","lat":44.06103,"lng":-73.57972,"zip":"12961","miles_from_dt":11.61},{"city":"New Russia","state_name":"New York","lat":44.13224,"lng":-73.63625,"zip":"12964","miles_from_dt":12.1},{"city":"Witherbee","state_name":"New York","lat":44.0879,"lng":-73.57584,"zip":"12998","miles_from_dt":12.56},{"city":"Moriah","state_name":"New York","lat":44.02226,"lng":-73.54123,"zip":"12960","miles_from_dt":12.86},{"city":"Olmstedville","state_name":"New York","lat":43.84033,"lng":-73.93354,"zip":"12857","miles_from_dt":13.01},{"city":"Crown Point","state_name":"New York","lat":43.9539,"lng":-73.52898,"zip":"12928","miles_from_dt":13.79},{"city":"Mineville","state_name":"New York","lat":44.09301,"lng":-73.49628,"zip":"12956","miles_from_dt":16.29},{"city":"Newcomb","state_name":"New York","lat":44.018,"lng":-74.12899,"zip":"12879","miles_from_dt":16.55},{"city":"Minerva","state_name":"New York","lat":43.85171,"lng":-74.06211,"zip":"12851","miles_from_dt":16.75},{"city":"Port Henry","state_name":"New York","lat":44.05582,"lng":-73.46931,"zip":"12974","miles_from_dt":16.78},{"city":"Newcomb","state_name":"New York","lat":43.99293,"lng":-74.13598,"zip":"12852","miles_from_dt":16.87},{"city":"Elizabethtown","state_name":"New York","lat":44.21222,"lng":-73.6082,"zip":"12932","miles_from_dt":17.35},{"city":"Adirondack","state_name":"New York","lat":43.74782,"lng":-73.75393,"zip":"12808","miles_from_dt":17.63},{"city":"Ticonderoga","state_name":"New York","lat":43.85291,"lng":-73.50786,"zip":"12883","miles_from_dt":17.72},{"city":"Keene","state_name":"New York","lat":44.26023,"lng":-73.79523,"zip":"12942","miles_from_dt":17.88},{"city":"Lake Placid","state_name":"New York","lat":44.23162,"lng":-73.98903,"zip":"12946","miles_from_dt":18.54},{"city":"Pottersville","state_name":"New York","lat":43.72843,"lng":-73.80942,"zip":"12860","miles_from_dt":18.84},{"city":"Westport","state_name":"New York","lat":44.19711,"lng":-73.48097,"zip":"12993","miles_from_dt":20.76},{"city":"Hague","state_name":"New York","lat":43.74994,"lng":-73.56816,"zip":"12836","miles_from_dt":20.79},{"city":"Brant Lake","state_name":"New York","lat":43.70161,"lng":-73.69459,"zip":"12815","miles_from_dt":21.32},{"city":"Bridport","state_name":"Vermont","lat":43.98243,"lng":-73.33286,"zip":"05734","miles_from_dt":23.2},{"city":"Riparius","state_name":"New York","lat":43.67419,"lng":-73.91878,"zip":"12862","miles_from_dt":23.38},{"city":"Upper Jay","state_name":"New York","lat":44.33948,"lng":-73.76386,"zip":"12987","miles_from_dt":23.42},{"city":"North Creek","state_name":"New York","lat":43.68816,"lng":-73.99804,"zip":"12853","miles_from_dt":23.82},{"city":"Jay","state_name":"New York","lat":44.35147,"lng":-73.7126,"zip":"12941","miles_from_dt":24.55},{"city":"Shoreham","state_name":"Vermont","lat":43.88662,"lng":-73.32771,"zip":"05770","miles_from_dt":24.74},{"city":"Silver Bay","state_name":"New York","lat":43.69035,"lng":-73.54836,"zip":"12874","miles_from_dt":24.81},{"city":"Lewis","state_name":"New York","lat":44.32685,"lng":-73.57675,"zip":"12950","miles_from_dt":25.02},{"city":"Vergennes","state_name":"Vermont","lat":44.12101,"lng":-73.32111,"zip":"05491","miles_from_dt":25.12},{"city":"Ray Brook","state_name":"New York","lat":44.29484,"lng":-74.09673,"zip":"12977","miles_from_dt":25.14},{"city":"Chestertown","state_name":"New York","lat":43.63697,"lng":-73.82614,"zip":"12817","miles_from_dt":25.19},{"city":"Putnam Station","state_name":"New York","lat":43.74982,"lng":-73.41502,"zip":"12861","miles_from_dt":25.81},{"city":"Wilmington","state_name":"New York","lat":44.3755,"lng":-73.84314,"zip":"12997","miles_from_dt":25.94},{"city":"Wevertown","state_name":"New York","lat":43.63689,"lng":-73.92654,"zip":"12886","miles_from_dt":25.97},{"city":"Essex","state_name":"New York","lat":44.26869,"lng":-73.4029,"zip":"12936","miles_from_dt":26.95},{"city":"Orwell","state_name":"Vermont","lat":43.80359,"lng":-73.29517,"zip":"05760","miles_from_dt":28.55},{"city":"Bolton Landing","state_name":"New York","lat":43.6004,"lng":-73.63678,"zip":"12814","miles_from_dt":28.82},{"city":"Saranac Lake","state_name":"New York","lat":44.34627,"lng":-74.14243,"zip":"12983","miles_from_dt":29.35},{"city":"Indian Lake","state_name":"New York","lat":43.75058,"lng":-74.2746,"zip":"12842","miles_from_dt":29.44},{"city":"North River","state_name":"New York","lat":43.65531,"lng":-74.14625,"zip":"12856","miles_from_dt":29.56}],"targetCityZipCode":"12855","targetCityState":"New York"},"__N_SSG":true}