{"pageProps":{"stateName":"New-york","cityName":"old-forge","nearbyCities":[{"city":"Thendara","state_name":"New York","lat":43.69491,"lng":-75.06072,"zip":"13472","miles_from_dt":5.82},{"city":"Forestport","state_name":"New York","lat":43.49706,"lng":-74.97833,"zip":"13338","miles_from_dt":10.64},{"city":"Eagle Bay","state_name":"New York","lat":43.81706,"lng":-74.97284,"zip":"13331","miles_from_dt":11.5},{"city":"Woodgate","state_name":"New York","lat":43.53136,"lng":-75.14198,"zip":"13494","miles_from_dt":12.23},{"city":"Inlet","state_name":"New York","lat":43.72457,"lng":-74.73577,"zip":"13360","miles_from_dt":12.42},{"city":"Brantingham","state_name":"New York","lat":43.70247,"lng":-75.20758,"zip":"13312","miles_from_dt":12.82},{"city":"Port Leyden","state_name":"New York","lat":43.59914,"lng":-75.24765,"zip":"13433","miles_from_dt":14.77},{"city":"Hoffmeister","state_name":"New York","lat":43.47123,"lng":-74.72732,"zip":"13353","miles_from_dt":17.09},{"city":"Raquette Lake","state_name":"New York","lat":43.80501,"lng":-74.67034,"zip":"13436","miles_from_dt":18.07},{"city":"Lyons Falls","state_name":"New York","lat":43.6446,"lng":-75.33209,"zip":"13368","miles_from_dt":18.56},{"city":"Greig","state_name":"New York","lat":43.6889,"lng":-75.33153,"zip":"13345","miles_from_dt":18.71},{"city":"Glenfield","state_name":"New York","lat":43.75271,"lng":-75.31062,"zip":"13343","miles_from_dt":18.83},{"city":"Alder Creek","state_name":"New York","lat":43.42225,"lng":-75.21546,"zip":"13301","miles_from_dt":20.27},{"city":"Piseco","state_name":"New York","lat":43.52096,"lng":-74.56552,"zip":"12139","miles_from_dt":21.81},{"city":"Boonville","state_name":"New York","lat":43.47398,"lng":-75.34103,"zip":"13309","miles_from_dt":22.61},{"city":"Lowville","state_name":"New York","lat":43.85563,"lng":-75.31772,"zip":"13367","miles_from_dt":22.74},{"city":"Remsen","state_name":"New York","lat":43.35171,"lng":-75.15527,"zip":"13438","miles_from_dt":22.81},{"city":"Cold Brook","state_name":"New York","lat":43.3165,"lng":-74.93325,"zip":"13324","miles_from_dt":23.12},{"city":"Turin","state_name":"New York","lat":43.64414,"lng":-75.44517,"zip":"13473","miles_from_dt":24.23},{"city":"Hinckley","state_name":"New York","lat":43.31122,"lng":-75.12058,"zip":"13352","miles_from_dt":24.76},{"city":"Prospect","state_name":"New York","lat":43.30255,"lng":-75.15134,"zip":"13435","miles_from_dt":25.85},{"city":"Martinsburg","state_name":"New York","lat":43.73842,"lng":-75.48089,"zip":"13404","miles_from_dt":26.69},{"city":"Croghan","state_name":"New York","lat":43.96047,"lng":-75.28474,"zip":"13327","miles_from_dt":26.79},{"city":"Speculator","state_name":"New York","lat":43.62883,"lng":-74.42717,"zip":"12164","miles_from_dt":26.85},{"city":"Westernville","state_name":"New York","lat":43.35707,"lng":-75.34088,"zip":"13486","miles_from_dt":27.81},{"city":"Beaver Falls","state_name":"New York","lat":43.89329,"lng":-75.43144,"zip":"13305","miles_from_dt":28.85},{"city":"Constableville","state_name":"New York","lat":43.58398,"lng":-75.54091,"zip":"13325","miles_from_dt":29.4},{"city":"Lake Pleasant","state_name":"New York","lat":43.47045,"lng":-74.42768,"zip":"12108","miles_from_dt":29.57},{"city":"Long Lake","state_name":"New York","lat":43.98698,"lng":-74.59024,"zip":"12847","miles_from_dt":29.74},{"city":"Castorland","state_name":"New York","lat":43.89989,"lng":-75.45265,"zip":"13620","miles_from_dt":29.98}],"targetCityZipCode":"13420","targetCityState":"New York"},"__N_SSG":true}