{"pageProps":{"stateName":"New-york","cityName":"pattersonville","nearbyCities":[{"city":"Rotterdam Junction","state_name":"New York","lat":42.87613,"lng":-74.04923,"zip":"12150","miles_from_dt":4.27},{"city":"Amsterdam","state_name":"New York","lat":42.93752,"lng":-74.17287,"zip":"12010","miles_from_dt":5.97},{"city":"Schenectady","state_name":"New York","lat":42.80686,"lng":-74.03344,"zip":"12306","miles_from_dt":5.98},{"city":"Duanesburg","state_name":"New York","lat":42.76761,"lng":-74.0905,"zip":"12056","miles_from_dt":6.49},{"city":"Schenectady","state_name":"New York","lat":42.88188,"lng":-73.98323,"zip":"12302","miles_from_dt":7.6},{"city":"Delanson","state_name":"New York","lat":42.75283,"lng":-74.18791,"zip":"12053","miles_from_dt":7.8},{"city":"Quaker Street","state_name":"New York","lat":42.733,"lng":-74.1866,"zip":"12141","miles_from_dt":9.06},{"city":"Schenectady","state_name":"New York","lat":42.81219,"lng":-73.95036,"zip":"12305","miles_from_dt":9.6},{"city":"Hagaman","state_name":"New York","lat":42.99684,"lng":-74.10508,"zip":"12086","miles_from_dt":9.71},{"city":"Fort Hunter","state_name":"New York","lat":42.94336,"lng":-74.28193,"zip":"12069","miles_from_dt":9.77},{"city":"Schenectady","state_name":"New York","lat":42.81566,"lng":-73.94232,"zip":"12345","miles_from_dt":9.92},{"city":"Schenectady","state_name":"New York","lat":42.81417,"lng":-73.94,"zip":"12325","miles_from_dt":10.06},{"city":"Schenectady","state_name":"New York","lat":42.81324,"lng":-73.9394,"zip":"12301","miles_from_dt":10.11},{"city":"Tribes Hill","state_name":"New York","lat":42.95184,"lng":-74.28459,"zip":"12177","miles_from_dt":10.24},{"city":"Esperance","state_name":"New York","lat":42.78011,"lng":-74.30291,"zip":"12066","miles_from_dt":10.31},{"city":"Schenectady","state_name":"New York","lat":42.80507,"lng":-73.93341,"zip":"12307","miles_from_dt":10.58},{"city":"Auriesville","state_name":"New York","lat":42.92878,"lng":-74.31964,"zip":"12016","miles_from_dt":10.85},{"city":"Fort Johnson","state_name":"New York","lat":42.98513,"lng":-74.25441,"zip":"12070","miles_from_dt":10.87},{"city":"Schenectady","state_name":"New York","lat":42.82152,"lng":-73.92006,"zip":"12308","miles_from_dt":10.91},{"city":"Alplaus","state_name":"New York","lat":42.85367,"lng":-73.9063,"zip":"12008","miles_from_dt":11.32},{"city":"Fultonville","state_name":"New York","lat":42.88102,"lng":-74.36164,"zip":"12072","miles_from_dt":11.91},{"city":"Altamont","state_name":"New York","lat":42.69824,"lng":-74.03398,"zip":"12009","miles_from_dt":12},{"city":"Burnt Hills","state_name":"New York","lat":42.92122,"lng":-73.90872,"zip":"12027","miles_from_dt":12.03},{"city":"Schenectady","state_name":"New York","lat":42.74938,"lng":-73.92562,"zip":"12303","miles_from_dt":12.75},{"city":"Knox","state_name":"New York","lat":42.66981,"lng":-74.11989,"zip":"12107","miles_from_dt":12.95},{"city":"Albany","state_name":"New York","lat":42.69718,"lng":-73.99431,"zip":"12249","miles_from_dt":13.01},{"city":"Schenectady","state_name":"New York","lat":42.77375,"lng":-73.89742,"zip":"12304","miles_from_dt":13.11},{"city":"Ballston Lake","state_name":"New York","lat":42.92993,"lng":-73.88245,"zip":"12019","miles_from_dt":13.49},{"city":"Guilderland Center","state_name":"New York","lat":42.70043,"lng":-73.96659,"zip":"12085","miles_from_dt":13.62},{"city":"Sloansville","state_name":"New York","lat":42.76325,"lng":-74.36619,"zip":"12160","miles_from_dt":13.68},{"city":"Schenectady","state_name":"New York","lat":42.79693,"lng":-73.86785,"zip":"12309","miles_from_dt":13.92},{"city":"Galway","state_name":"New York","lat":43.05219,"lng":-74.04709,"zip":"12074","miles_from_dt":14.08},{"city":"Gallupville","state_name":"New York","lat":42.66207,"lng":-74.22992,"zip":"12073","miles_from_dt":14.41},{"city":"Rexford","state_name":"New York","lat":42.83361,"lng":-73.84652,"zip":"12148","miles_from_dt":14.45},{"city":"Central Bridge","state_name":"New York","lat":42.73453,"lng":-74.37534,"zip":"12035","miles_from_dt":15.11},{"city":"Fonda","state_name":"New York","lat":42.95701,"lng":-74.40467,"zip":"12068","miles_from_dt":15.58},{"city":"Guilderland","state_name":"New York","lat":42.70411,"lng":-73.90182,"zip":"12084","miles_from_dt":15.67},{"city":"Schoharie","state_name":"New York","lat":42.66742,"lng":-74.29892,"zip":"12157","miles_from_dt":15.69},{"city":"Broadalbin","state_name":"New York","lat":43.09142,"lng":-74.11924,"zip":"12025","miles_from_dt":16.17},{"city":"Ballston Spa","state_name":"New York","lat":43.00208,"lng":-73.87401,"zip":"12020","miles_from_dt":16.36},{"city":"Sprakers","state_name":"New York","lat":42.83846,"lng":-74.45644,"zip":"12166","miles_from_dt":16.67},{"city":"Howes Cave","state_name":"New York","lat":42.70396,"lng":-74.38456,"zip":"12092","miles_from_dt":16.75},{"city":"Albany","state_name":"New York","lat":42.72872,"lng":-73.84776,"zip":"12288","miles_from_dt":16.84},{"city":"East Berne","state_name":"New York","lat":42.61403,"lng":-74.05811,"zip":"12059","miles_from_dt":17.18},{"city":"Rock City Falls","state_name":"New York","lat":43.06031,"lng":-73.93162,"zip":"12863","miles_from_dt":17.23},{"city":"Clifton Park","state_name":"New York","lat":42.85402,"lng":-73.78654,"zip":"12065","miles_from_dt":17.4},{"city":"Berne","state_name":"New York","lat":42.60656,"lng":-74.16573,"zip":"12023","miles_from_dt":17.41},{"city":"Voorheesville","state_name":"New York","lat":42.62502,"lng":-73.9737,"zip":"12186","miles_from_dt":17.88},{"city":"Round Lake","state_name":"New York","lat":42.92553,"lng":-73.78874,"zip":"12151","miles_from_dt":17.91},{"city":"Albany","state_name":"New York","lat":42.71719,"lng":-73.83006,"zip":"12205","miles_from_dt":18.02},{"city":"Albany","state_name":"New York","lat":42.6649,"lng":-73.88326,"zip":"12220","miles_from_dt":18.24},{"city":"Carlisle","state_name":"New York","lat":42.76579,"lng":-74.46617,"zip":"12031","miles_from_dt":18.25},{"city":"Middle Grove","state_name":"New York","lat":43.09886,"lng":-73.97941,"zip":"12850","miles_from_dt":18.32},{"city":"Albany","state_name":"New York","lat":42.68955,"lng":-73.84598,"zip":"12227","miles_from_dt":18.48},{"city":"Albany","state_name":"New York","lat":42.68632,"lng":-73.84693,"zip":"12214","miles_from_dt":18.58},{"city":"Albany","state_name":"New York","lat":42.68138,"lng":-73.85099,"zip":"12203","miles_from_dt":18.64},{"city":"Johnstown","state_name":"New York","lat":43.03151,"lng":-74.41553,"zip":"12095","miles_from_dt":18.85},{"city":"Albany","state_name":"New York","lat":42.68226,"lng":-73.83811,"zip":"12225","miles_from_dt":19.11},{"city":"Albany","state_name":"New York","lat":42.67967,"lng":-73.84011,"zip":"12212","miles_from_dt":19.14},{"city":"Latham","state_name":"New York","lat":42.75349,"lng":-73.77671,"zip":"12110","miles_from_dt":19.3},{"city":"Slingerlands","state_name":"New York","lat":42.64328,"lng":-73.88503,"zip":"12159","miles_from_dt":19.3},{"city":"Albany","state_name":"New York","lat":42.68637,"lng":-73.82656,"zip":"12222","miles_from_dt":19.39},{"city":"Albany","state_name":"New York","lat":42.68901,"lng":-73.82116,"zip":"12246","miles_from_dt":19.5},{"city":"Albany","state_name":"New York","lat":42.66466,"lng":-73.84173,"zip":"12224","miles_from_dt":19.76},{"city":"Albany","state_name":"New York","lat":42.67931,"lng":-73.80987,"zip":"12226","miles_from_dt":20.36},{"city":"Palatine Bridge","state_name":"New York","lat":42.92096,"lng":-74.53311,"zip":"13428","miles_from_dt":20.97},{"city":"Cohoes","state_name":"New York","lat":42.78396,"lng":-73.72655,"zip":"12047","miles_from_dt":21.08},{"city":"Mechanicville","state_name":"New York","lat":42.92096,"lng":-73.72049,"zip":"12118","miles_from_dt":21.21},{"city":"Albany","state_name":"New York","lat":42.7083,"lng":-73.76393,"zip":"12211","miles_from_dt":21.23},{"city":"Newtonville","state_name":"New York","lat":42.72445,"lng":-73.75091,"zip":"12128","miles_from_dt":21.31},{"city":"Albany","state_name":"New York","lat":42.65042,"lng":-73.81441,"zip":"12229","miles_from_dt":21.45},{"city":"Albany","state_name":"New York","lat":42.67906,"lng":-73.78299,"zip":"12261","miles_from_dt":21.48},{"city":"Albany","state_name":"New York","lat":42.65293,"lng":-73.80835,"zip":"12208","miles_from_dt":21.57},{"city":"Albany","state_name":"New York","lat":42.67415,"lng":-73.78196,"zip":"12206","miles_from_dt":21.72},{"city":"Delmar","state_name":"New York","lat":42.60764,"lng":-73.86864,"zip":"12054","miles_from_dt":21.74},{"city":"Gloversville","state_name":"New York","lat":43.12338,"lng":-74.36255,"zip":"12078","miles_from_dt":21.85},{"city":"Clarksville","state_name":"New York","lat":42.55893,"lng":-73.97028,"zip":"12041","miles_from_dt":22.13},{"city":"Waterford","state_name":"New York","lat":42.8199,"lng":-73.69589,"zip":"12188","miles_from_dt":22.16},{"city":"Albany","state_name":"New York","lat":42.67122,"lng":-73.7729,"zip":"12245","miles_from_dt":22.21},{"city":"Albany","state_name":"New York","lat":42.66939,"lng":-73.77355,"zip":"12260","miles_from_dt":22.26},{"city":"Albany","state_name":"New York","lat":42.64589,"lng":-73.79766,"zip":"12237","miles_from_dt":22.3},{"city":"Mayfield","state_name":"New York","lat":43.16894,"lng":-74.25557,"zip":"12117","miles_from_dt":22.45},{"city":"Watervliet","state_name":"New York","lat":42.73618,"lng":-73.71688,"zip":"12189","miles_from_dt":22.57},{"city":"Cobleskill","state_name":"New York","lat":42.70357,"lng":-74.5267,"zip":"12043","miles_from_dt":22.83},{"city":"Albany","state_name":"New York","lat":42.6382,"lng":-73.78976,"zip":"12209","miles_from_dt":22.95},{"city":"Albany","state_name":"New York","lat":42.66399,"lng":-73.75985,"zip":"12210","miles_from_dt":23.04},{"city":"Feura Bush","state_name":"New York","lat":42.56083,"lng":-73.91663,"zip":"12067","miles_from_dt":23.15},{"city":"Canajoharie","state_name":"New York","lat":42.85638,"lng":-74.58844,"zip":"13317","miles_from_dt":23.32},{"city":"Albany","state_name":"New York","lat":42.65606,"lng":-73.76013,"zip":"12231","miles_from_dt":23.35},{"city":"Warnerville","state_name":"New York","lat":42.62632,"lng":-74.46537,"zip":"12187","miles_from_dt":23.38},{"city":"Albany","state_name":"New York","lat":42.65447,"lng":-73.75972,"zip":"12255","miles_from_dt":23.44},{"city":"Troy","state_name":"New York","lat":42.74742,"lng":-73.69259,"zip":"12183","miles_from_dt":23.45},{"city":"Albany","state_name":"New York","lat":42.65203,"lng":-73.76145,"zip":"12238","miles_from_dt":23.47},{"city":"Albany","state_name":"New York","lat":42.65152,"lng":-73.76117,"zip":"12244","miles_from_dt":23.5},{"city":"Albany","state_name":"New York","lat":42.6547,"lng":-73.75777,"zip":"12230","miles_from_dt":23.51},{"city":"Albany","state_name":"New York","lat":42.68723,"lng":-73.72869,"zip":"12204","miles_from_dt":23.51},{"city":"Albany","state_name":"New York","lat":42.65398,"lng":-73.75837,"zip":"12248","miles_from_dt":23.51},{"city":"Albany","state_name":"New York","lat":42.65357,"lng":-73.75747,"zip":"12257","miles_from_dt":23.56},{"city":"Middleburgh","state_name":"New York","lat":42.54341,"lng":-74.31138,"zip":"12122","miles_from_dt":23.57},{"city":"Albany","state_name":"New York","lat":42.65275,"lng":-73.75755,"zip":"12242","miles_from_dt":23.6},{"city":"Albany","state_name":"New York","lat":42.65188,"lng":-73.75841,"zip":"12236","miles_from_dt":23.6},{"city":"Albany","state_name":"New York","lat":42.65178,"lng":-73.75795,"zip":"12223","miles_from_dt":23.62},{"city":"Albany","state_name":"New York","lat":42.65082,"lng":-73.75855,"zip":"12239","miles_from_dt":23.63},{"city":"Albany","state_name":"New York","lat":42.65149,"lng":-73.7569,"zip":"12240","miles_from_dt":23.67},{"city":"Albany","state_name":"New York","lat":42.68227,"lng":-73.72788,"zip":"12247","miles_from_dt":23.72},{"city":"Albany","state_name":"New York","lat":42.67181,"lng":-73.7365,"zip":"12234","miles_from_dt":23.72},{"city":"Albany","state_name":"New York","lat":42.67301,"lng":-73.73524,"zip":"12250","miles_from_dt":23.73},{"city":"Albany","state_name":"New York","lat":42.6526,"lng":-73.75405,"zip":"12232","miles_from_dt":23.74},{"city":"Rensselaerville","state_name":"New York","lat":42.51365,"lng":-74.15147,"zip":"12147","miles_from_dt":23.75},{"city":"Albany","state_name":"New York","lat":42.64974,"lng":-73.75606,"zip":"12235","miles_from_dt":23.78},{"city":"Albany","state_name":"New York","lat":42.64924,"lng":-73.75555,"zip":"12233","miles_from_dt":23.82},{"city":"Albany","state_name":"New York","lat":42.65657,"lng":-73.74749,"zip":"12207","miles_from_dt":23.85},{"city":"Westerlo","state_name":"New York","lat":42.51713,"lng":-74.04327,"zip":"12193","miles_from_dt":23.88},{"city":"Albany","state_name":"New York","lat":42.64568,"lng":-73.75666,"zip":"12228","miles_from_dt":23.93},{"city":"Albany","state_name":"New York","lat":42.65379,"lng":-73.74642,"zip":"12243","miles_from_dt":24.01},{"city":"Albany","state_name":"New York","lat":42.64832,"lng":-73.75161,"zip":"12201","miles_from_dt":24.02},{"city":"Troy","state_name":"New York","lat":42.73192,"lng":-73.6868,"zip":"12181","miles_from_dt":24.1},{"city":"Porter Corners","state_name":"New York","lat":43.16587,"lng":-73.90569,"zip":"12859","miles_from_dt":24.13},{"city":"Albany","state_name":"New York","lat":42.63355,"lng":-73.763,"zip":"12202","miles_from_dt":24.2},{"city":"Sharon Springs","state_name":"New York","lat":42.77721,"lng":-74.59315,"zip":"13459","miles_from_dt":24.21},{"city":"Greenfield Center","state_name":"New York","lat":43.13866,"lng":-73.84355,"zip":"12833","miles_from_dt":24.22},{"city":"Albany","state_name":"New York","lat":42.63039,"lng":-73.76198,"zip":"12241","miles_from_dt":24.38},{"city":"Fultonham","state_name":"New York","lat":42.56971,"lng":-74.41521,"zip":"12071","miles_from_dt":24.62},{"city":"Saratoga Springs","state_name":"New York","lat":43.07537,"lng":-73.7401,"zip":"12866","miles_from_dt":24.82},{"city":"Nelliston","state_name":"New York","lat":42.92908,"lng":-74.60922,"zip":"13410","miles_from_dt":24.86},{"city":"Glenmont","state_name":"New York","lat":42.59426,"lng":-73.7841,"zip":"12077","miles_from_dt":25.26},{"city":"Troy","state_name":"New York","lat":42.80044,"lng":-73.63519,"zip":"12182","miles_from_dt":25.41},{"city":"Stillwater","state_name":"New York","lat":42.99936,"lng":-73.66234,"zip":"12170","miles_from_dt":25.63},{"city":"Rensselaer","state_name":"New York","lat":42.63106,"lng":-73.71801,"zip":"12144","miles_from_dt":26.11},{"city":"South Bethlehem","state_name":"New York","lat":42.53369,"lng":-73.84606,"zip":"12161","miles_from_dt":26.58},{"city":"Melrose","state_name":"New York","lat":42.84368,"lng":-73.60398,"zip":"12121","miles_from_dt":26.69},{"city":"Selkirk","state_name":"New York","lat":42.53927,"lng":-73.81903,"zip":"12158","miles_from_dt":27.04},{"city":"Alcove","state_name":"New York","lat":42.48889,"lng":-73.93159,"zip":"12007","miles_from_dt":27.35},{"city":"Schaghticoke","state_name":"New York","lat":42.93713,"lng":-73.60124,"zip":"12154","miles_from_dt":27.36},{"city":"West Fulton","state_name":"New York","lat":42.53839,"lng":-74.45431,"zip":"12194","miles_from_dt":27.54},{"city":"Coeymans Hollow","state_name":"New York","lat":42.48864,"lng":-73.92119,"zip":"12046","miles_from_dt":27.56},{"city":"Medusa","state_name":"New York","lat":42.45781,"lng":-74.1409,"zip":"12120","miles_from_dt":27.58},{"city":"Richmondville","state_name":"New York","lat":42.62011,"lng":-74.56692,"zip":"12149","miles_from_dt":27.64},{"city":"Fort Plain","state_name":"New York","lat":42.93995,"lng":-74.66631,"zip":"13339","miles_from_dt":27.85},{"city":"Troy","state_name":"New York","lat":42.7516,"lng":-73.59997,"zip":"12180","miles_from_dt":27.87},{"city":"Wynantskill","state_name":"New York","lat":42.67819,"lng":-73.63285,"zip":"12198","miles_from_dt":28.11},{"city":"Saint Johnsville","state_name":"New York","lat":43.03718,"lng":-74.63001,"zip":"13452","miles_from_dt":28.27},{"city":"Northville","state_name":"New York","lat":43.26533,"lng":-74.23059,"zip":"12134","miles_from_dt":28.63},{"city":"Preston Hollow","state_name":"New York","lat":42.44521,"lng":-74.2421,"zip":"12469","miles_from_dt":29.02},{"city":"Corinth","state_name":"New York","lat":43.2407,"lng":-73.88959,"zip":"12822","miles_from_dt":29.12},{"city":"Dormansville","state_name":"New York","lat":42.43842,"lng":-74.20308,"zip":"12055","miles_from_dt":29.16},{"city":"Ravena","state_name":"New York","lat":42.48525,"lng":-73.85218,"zip":"12143","miles_from_dt":29.3},{"city":"Greenville","state_name":"New York","lat":42.43151,"lng":-74.03155,"zip":"12083","miles_from_dt":29.81},{"city":"East Greenbush","state_name":"New York","lat":42.59915,"lng":-73.65658,"zip":"12061","miles_from_dt":29.93},{"city":"Oak Hill","state_name":"New York","lat":42.42357,"lng":-74.16676,"zip":"12460","miles_from_dt":30}],"targetCityZipCode":"12137","targetCityState":"New York"},"__N_SSG":true}