{"pageProps":{"stateName":"New-york","cityName":"red-creek","nearbyCities":[{"city":"Martville","state_name":"New York","lat":43.25988,"lng":-76.61858,"zip":"13111","miles_from_dt":5.22},{"city":"Wolcott","state_name":"New York","lat":43.24533,"lng":-76.83099,"zip":"14590","miles_from_dt":5.89},{"city":"Fair Haven","state_name":"New York","lat":43.31943,"lng":-76.70275,"zip":"13064","miles_from_dt":5.98},{"city":"South Butler","state_name":"New York","lat":43.13378,"lng":-76.76192,"zip":"13154","miles_from_dt":7.26},{"city":"Sterling","state_name":"New York","lat":43.33355,"lng":-76.66249,"zip":"13156","miles_from_dt":7.42},{"city":"Cato","state_name":"New York","lat":43.1852,"lng":-76.57044,"zip":"13033","miles_from_dt":8.04},{"city":"Savannah","state_name":"New York","lat":43.09711,"lng":-76.76031,"zip":"13146","miles_from_dt":9.67},{"city":"Rose","state_name":"New York","lat":43.15306,"lng":-76.87595,"zip":"14542","miles_from_dt":9.82},{"city":"Hannibal","state_name":"New York","lat":43.31035,"lng":-76.54786,"zip":"13074","miles_from_dt":9.99},{"city":"North Rose","state_name":"New York","lat":43.19855,"lng":-76.91153,"zip":"14516","miles_from_dt":10.19},{"city":"Meridian","state_name":"New York","lat":43.16425,"lng":-76.53488,"zip":"13113","miles_from_dt":10.29},{"city":"Port Byron","state_name":"New York","lat":43.05891,"lng":-76.65841,"zip":"13140","miles_from_dt":12.38},{"city":"Alton","state_name":"New York","lat":43.2229,"lng":-76.97067,"zip":"14413","miles_from_dt":12.9},{"city":"Clyde","state_name":"New York","lat":43.07939,"lng":-76.87779,"zip":"14433","miles_from_dt":13.42},{"city":"Weedsport","state_name":"New York","lat":43.07219,"lng":-76.5568,"zip":"13166","miles_from_dt":13.71},{"city":"Sodus Point","state_name":"New York","lat":43.25946,"lng":-76.98665,"zip":"14555","miles_from_dt":13.81},{"city":"Plainville","state_name":"New York","lat":43.15165,"lng":-76.446,"zip":"13137","miles_from_dt":14.73},{"city":"Montezuma","state_name":"New York","lat":43.01007,"lng":-76.70838,"zip":"13117","miles_from_dt":15.41},{"city":"Jordan","state_name":"New York","lat":43.08338,"lng":-76.47776,"zip":"13080","miles_from_dt":15.85},{"city":"Minetto","state_name":"New York","lat":43.3937,"lng":-76.47462,"zip":"13115","miles_from_dt":16.43},{"city":"Sodus","state_name":"New York","lat":43.21886,"lng":-77.04596,"zip":"14551","miles_from_dt":16.71},{"city":"Lyons","state_name":"New York","lat":43.09008,"lng":-76.99238,"zip":"14489","miles_from_dt":17.13},{"city":"Memphis","state_name":"New York","lat":43.10306,"lng":-76.41926,"zip":"13112","miles_from_dt":17.46},{"city":"Fulton","state_name":"New York","lat":43.33081,"lng":-76.37867,"zip":"13069","miles_from_dt":18.27},{"city":"Baldwinsville","state_name":"New York","lat":43.16741,"lng":-76.36258,"zip":"13027","miles_from_dt":18.39},{"city":"Oswego","state_name":"New York","lat":43.43469,"lng":-76.46331,"zip":"13126","miles_from_dt":18.84},{"city":"Phoenix","state_name":"New York","lat":43.25801,"lng":-76.31676,"zip":"13135","miles_from_dt":20.19},{"city":"Elbridge","state_name":"New York","lat":43.02381,"lng":-76.41926,"zip":"13060","miles_from_dt":20.82},{"city":"Skaneateles Falls","state_name":"New York","lat":42.9945,"lng":-76.45476,"zip":"13153","miles_from_dt":21.11},{"city":"Seneca Falls","state_name":"New York","lat":42.9208,"lng":-76.78106,"zip":"13148","miles_from_dt":21.82},{"city":"Auburn","state_name":"New York","lat":42.93453,"lng":-76.57424,"zip":"13024","miles_from_dt":21.82},{"city":"East Williamson","state_name":"New York","lat":43.23274,"lng":-77.15012,"zip":"14449","miles_from_dt":21.94},{"city":"Cayuga","state_name":"New York","lat":42.91366,"lng":-76.69502,"zip":"13034","miles_from_dt":22.09},{"city":"Newark","state_name":"New York","lat":43.07204,"lng":-77.0961,"zip":"14513","miles_from_dt":22.23},{"city":"Warners","state_name":"New York","lat":43.09377,"lng":-76.31626,"zip":"13164","miles_from_dt":22.35},{"city":"Mottville","state_name":"New York","lat":42.97655,"lng":-76.44488,"zip":"13119","miles_from_dt":22.39},{"city":"Williamson","state_name":"New York","lat":43.23997,"lng":-77.17224,"zip":"14589","miles_from_dt":23.06},{"city":"Auburn","state_name":"New York","lat":42.91996,"lng":-76.55292,"zip":"13022","miles_from_dt":23.14},{"city":"Pultneyville","state_name":"New York","lat":43.27804,"lng":-77.1722,"zip":"14538","miles_from_dt":23.25},{"city":"Auburn","state_name":"New York","lat":42.91713,"lng":-76.5542,"zip":"13021","miles_from_dt":23.3},{"city":"Waterloo","state_name":"New York","lat":42.91185,"lng":-76.87601,"zip":"13165","miles_from_dt":23.63},{"city":"Marion","state_name":"New York","lat":43.15846,"lng":-77.17503,"zip":"14505","miles_from_dt":23.78},{"city":"Pennellville","state_name":"New York","lat":43.26547,"lng":-76.24446,"zip":"13132","miles_from_dt":23.87},{"city":"Phelps","state_name":"New York","lat":42.96462,"lng":-77.02601,"zip":"14532","miles_from_dt":24.3},{"city":"Camillus","state_name":"New York","lat":43.0448,"lng":-76.30775,"zip":"13031","miles_from_dt":24.37},{"city":"Lycoming","state_name":"New York","lat":43.50137,"lng":-76.38857,"zip":"13093","miles_from_dt":24.77},{"city":"Liverpool","state_name":"New York","lat":43.13977,"lng":-76.22722,"zip":"13089","miles_from_dt":25.49},{"city":"Oaks Corners","state_name":"New York","lat":42.93017,"lng":-77.01246,"zip":"14518","miles_from_dt":25.76},{"city":"Syracuse","state_name":"New York","lat":43.08581,"lng":-76.24355,"zip":"13209","miles_from_dt":25.93},{"city":"Liverpool","state_name":"New York","lat":43.15162,"lng":-76.21344,"zip":"13090","miles_from_dt":25.97},{"city":"Port Gibson","state_name":"New York","lat":43.03539,"lng":-77.15604,"zip":"14537","miles_from_dt":26.13},{"city":"Clay","state_name":"New York","lat":43.19079,"lng":-76.19711,"zip":"13041","miles_from_dt":26.34},{"city":"Marcellus","state_name":"New York","lat":42.97349,"lng":-76.33069,"zip":"13108","miles_from_dt":26.46},{"city":"New Haven","state_name":"New York","lat":43.48491,"lng":-76.30966,"zip":"13121","miles_from_dt":26.83},{"city":"Liverpool","state_name":"New York","lat":43.10787,"lng":-76.19096,"zip":"13088","miles_from_dt":27.88},{"city":"Central Square","state_name":"New York","lat":43.32268,"lng":-76.17402,"zip":"13036","miles_from_dt":28},{"city":"Palmyra","state_name":"New York","lat":43.05911,"lng":-77.22152,"zip":"14522","miles_from_dt":28.26},{"city":"Syracuse","state_name":"New York","lat":43.03969,"lng":-76.22277,"zip":"13219","miles_from_dt":28.27},{"city":"Union Springs","state_name":"New York","lat":42.82613,"lng":-76.65157,"zip":"13160","miles_from_dt":28.29},{"city":"Brewerton","state_name":"New York","lat":43.2236,"lng":-76.14993,"zip":"13029","miles_from_dt":28.55},{"city":"Mexico","state_name":"New York","lat":43.46386,"lng":-76.24328,"zip":"13114","miles_from_dt":28.62},{"city":"Skaneateles","state_name":"New York","lat":42.89323,"lng":-76.38518,"zip":"13152","miles_from_dt":28.82},{"city":"Clifton Springs","state_name":"New York","lat":42.95696,"lng":-77.14333,"zip":"14432","miles_from_dt":28.85},{"city":"Fayette","state_name":"New York","lat":42.81884,"lng":-76.81577,"zip":"13065","miles_from_dt":29.05},{"city":"Walworth","state_name":"New York","lat":43.14657,"lng":-77.28365,"zip":"14568","miles_from_dt":29.32},{"city":"Syracuse","state_name":"New York","lat":43.07132,"lng":-76.17368,"zip":"13290","miles_from_dt":29.58},{"city":"Hastings","state_name":"New York","lat":43.35364,"lng":-76.15182,"zip":"13076","miles_from_dt":29.61},{"city":"Ontario Center","state_name":"New York","lat":43.22743,"lng":-77.30696,"zip":"14520","miles_from_dt":29.86},{"city":"Syracuse","state_name":"New York","lat":43.05204,"lng":-76.17666,"zip":"13204","miles_from_dt":29.97}],"targetCityZipCode":"13143","targetCityState":"New York"},"__N_SSG":true}