{"pageProps":{"stateName":"New-york","cityName":"sandusky","nearbyCities":[{"city":"Freedom","state_name":"New York","lat":42.48741,"lng":-78.31158,"zip":"14065","miles_from_dt":3.54},{"city":"Yorkshire","state_name":"New York","lat":42.52594,"lng":-78.47306,"zip":"14173","miles_from_dt":5.14},{"city":"Arcade","state_name":"New York","lat":42.57542,"lng":-78.39241,"zip":"14009","miles_from_dt":5.28},{"city":"Farmersville Station","state_name":"New York","lat":42.43986,"lng":-78.30884,"zip":"14060","miles_from_dt":5.46},{"city":"Delevan","state_name":"New York","lat":42.46882,"lng":-78.48377,"zip":"14042","miles_from_dt":5.77},{"city":"Centerville","state_name":"New York","lat":42.47293,"lng":-78.26346,"zip":"14029","miles_from_dt":6.18},{"city":"Sardinia","state_name":"New York","lat":42.53057,"lng":-78.51738,"zip":"14134","miles_from_dt":7.39},{"city":"Chaffee","state_name":"New York","lat":42.56518,"lng":-78.50052,"zip":"14030","miles_from_dt":7.68},{"city":"Bliss","state_name":"New York","lat":42.58111,"lng":-78.24431,"zip":"14024","miles_from_dt":8.88},{"city":"Rushford","state_name":"New York","lat":42.38999,"lng":-78.26167,"zip":"14777","miles_from_dt":9.65},{"city":"Houghton","state_name":"New York","lat":42.4219,"lng":-78.21516,"zip":"14744","miles_from_dt":9.94},{"city":"Java Center","state_name":"New York","lat":42.65689,"lng":-78.38435,"zip":"14082","miles_from_dt":10.86},{"city":"Machias","state_name":"New York","lat":42.3863,"lng":-78.54292,"zip":"14101","miles_from_dt":11.47},{"city":"Franklinville","state_name":"New York","lat":42.33524,"lng":-78.42926,"zip":"14737","miles_from_dt":11.64},{"city":"North Java","state_name":"New York","lat":42.66813,"lng":-78.33624,"zip":"14113","miles_from_dt":11.83},{"city":"East Concord","state_name":"New York","lat":42.5536,"lng":-78.60121,"zip":"14055","miles_from_dt":11.95},{"city":"Pike","state_name":"New York","lat":42.55318,"lng":-78.14959,"zip":"14130","miles_from_dt":12.28},{"city":"Hume","state_name":"New York","lat":42.471,"lng":-78.13772,"zip":"14745","miles_from_dt":12.48},{"city":"Java Village","state_name":"New York","lat":42.67921,"lng":-78.43446,"zip":"14083","miles_from_dt":12.71},{"city":"Holland","state_name":"New York","lat":42.64289,"lng":-78.54886,"zip":"14080","miles_from_dt":13.15},{"city":"Gainesville","state_name":"New York","lat":42.62381,"lng":-78.18051,"zip":"14066","miles_from_dt":13.26},{"city":"Caneadea","state_name":"New York","lat":42.36258,"lng":-78.18235,"zip":"14717","miles_from_dt":13.8},{"city":"West Valley","state_name":"New York","lat":42.42491,"lng":-78.64286,"zip":"14171","miles_from_dt":14.44},{"city":"Glenwood","state_name":"New York","lat":42.59984,"lng":-78.62984,"zip":"14069","miles_from_dt":14.56},{"city":"Fillmore","state_name":"New York","lat":42.45027,"lng":-78.09681,"zip":"14735","miles_from_dt":14.81},{"city":"Portageville","state_name":"New York","lat":42.53958,"lng":-78.08358,"zip":"14536","miles_from_dt":15.33},{"city":"Strykersville","state_name":"New York","lat":42.73154,"lng":-78.43205,"zip":"14145","miles_from_dt":16.23},{"city":"Black Creek","state_name":"New York","lat":42.28368,"lng":-78.23493,"zip":"14714","miles_from_dt":16.63},{"city":"South Wales","state_name":"New York","lat":42.71723,"lng":-78.53606,"zip":"14139","miles_from_dt":17.02},{"city":"Varysburg","state_name":"New York","lat":42.74327,"lng":-78.32629,"zip":"14167","miles_from_dt":17.03},{"city":"Springville","state_name":"New York","lat":42.52366,"lng":-78.7109,"zip":"14141","miles_from_dt":17.04},{"city":"Belfast","state_name":"New York","lat":42.32088,"lng":-78.12625,"zip":"14711","miles_from_dt":17.87},{"city":"Castile","state_name":"New York","lat":42.61828,"lng":-78.05442,"zip":"14427","miles_from_dt":18.47},{"city":"Colden","state_name":"New York","lat":42.65865,"lng":-78.68436,"zip":"14033","miles_from_dt":19.06},{"city":"Silver Springs","state_name":"New York","lat":42.67757,"lng":-78.09166,"zip":"14550","miles_from_dt":19.12},{"city":"Hunt","state_name":"New York","lat":42.5301,"lng":-78.00319,"zip":"14846","miles_from_dt":19.3},{"city":"East Otto","state_name":"New York","lat":42.40404,"lng":-78.73628,"zip":"14729","miles_from_dt":19.42},{"city":"Ellicottville","state_name":"New York","lat":42.30063,"lng":-78.65092,"zip":"14731","miles_from_dt":19.55},{"city":"Warsaw","state_name":"New York","lat":42.74012,"lng":-78.17269,"zip":"14569","miles_from_dt":19.65},{"city":"Boston","state_name":"New York","lat":42.6232,"lng":-78.72609,"zip":"14025","miles_from_dt":19.66},{"city":"Wales Center","state_name":"New York","lat":42.76446,"lng":-78.52938,"zip":"14169","miles_from_dt":19.82},{"city":"Cuba","state_name":"New York","lat":42.2129,"lng":-78.29358,"zip":"14727","miles_from_dt":20.27},{"city":"Hinsdale","state_name":"New York","lat":42.20532,"lng":-78.40631,"zip":"14743","miles_from_dt":20.36},{"city":"West Falls","state_name":"New York","lat":42.70115,"lng":-78.67294,"zip":"14170","miles_from_dt":20.45},{"city":"East Aurora","state_name":"New York","lat":42.77054,"lng":-78.58084,"zip":"14052","miles_from_dt":21.34},{"city":"Cowlesville","state_name":"New York","lat":42.80637,"lng":-78.45448,"zip":"14037","miles_from_dt":21.52},{"city":"Great Valley","state_name":"New York","lat":42.21868,"lng":-78.5963,"zip":"14741","miles_from_dt":22.36},{"city":"Angelica","state_name":"New York","lat":42.35279,"lng":-77.98267,"zip":"14709","miles_from_dt":22.66},{"city":"Silver Lake","state_name":"New York","lat":42.69667,"lng":-78.02212,"zip":"14549","miles_from_dt":22.71},{"city":"Attica","state_name":"New York","lat":42.83158,"lng":-78.29784,"zip":"14011","miles_from_dt":23.28},{"city":"Dalton","state_name":"New York","lat":42.51526,"lng":-77.91526,"zip":"14836","miles_from_dt":23.7},{"city":"North Boston","state_name":"New York","lat":42.68453,"lng":-78.77449,"zip":"14110","miles_from_dt":23.87},{"city":"Friendship","state_name":"New York","lat":42.1925,"lng":-78.14932,"zip":"14739","miles_from_dt":24.24},{"city":"Collins Center","state_name":"New York","lat":42.49099,"lng":-78.85936,"zip":"14035","miles_from_dt":24.55},{"city":"Collins","state_name":"New York","lat":42.4985,"lng":-78.86238,"zip":"14034","miles_from_dt":24.7},{"city":"Perry","state_name":"New York","lat":42.73446,"lng":-78.00276,"zip":"14530","miles_from_dt":25.11},{"city":"Swain","state_name":"New York","lat":42.47613,"lng":-77.88724,"zip":"14884","miles_from_dt":25.17},{"city":"Otto","state_name":"New York","lat":42.34931,"lng":-78.8288,"zip":"14766","miles_from_dt":25.24},{"city":"Marilla","state_name":"New York","lat":42.84272,"lng":-78.55481,"zip":"14102","miles_from_dt":25.32},{"city":"Nunda","state_name":"New York","lat":42.59217,"lng":-77.8971,"zip":"14517","miles_from_dt":25.41},{"city":"Spring Brook","state_name":"New York","lat":42.80125,"lng":-78.66507,"zip":"14140","miles_from_dt":25.42},{"city":"Orchard Park","state_name":"New York","lat":42.75204,"lng":-78.74402,"zip":"14127","miles_from_dt":25.49},{"city":"Dale","state_name":"New York","lat":42.83593,"lng":-78.17101,"zip":"14039","miles_from_dt":25.51},{"city":"Lawtons","state_name":"New York","lat":42.54224,"lng":-78.88868,"zip":"14091","miles_from_dt":26.19},{"city":"Belmont","state_name":"New York","lat":42.24638,"lng":-77.99209,"zip":"14813","miles_from_dt":26.41},{"city":"Elma","state_name":"New York","lat":42.83241,"lng":-78.63678,"zip":"14059","miles_from_dt":26.46},{"city":"Darien Center","state_name":"New York","lat":42.88809,"lng":-78.37847,"zip":"14040","miles_from_dt":26.81},{"city":"West Clarksville","state_name":"New York","lat":42.12521,"lng":-78.22988,"zip":"14786","miles_from_dt":26.95},{"city":"Wyoming","state_name":"New York","lat":42.82865,"lng":-78.09364,"zip":"14591","miles_from_dt":26.96},{"city":"North Collins","state_name":"New York","lat":42.58206,"lng":-78.89803,"zip":"14111","miles_from_dt":27.1},{"city":"Eden","state_name":"New York","lat":42.64587,"lng":-78.87542,"zip":"14057","miles_from_dt":27.27},{"city":"Hamburg","state_name":"New York","lat":42.71297,"lng":-78.82985,"zip":"14075","miles_from_dt":27.3},{"city":"Cattaraugus","state_name":"New York","lat":42.34323,"lng":-78.87198,"zip":"14719","miles_from_dt":27.43},{"city":"Canaseraga","state_name":"New York","lat":42.43522,"lng":-77.84702,"zip":"14822","miles_from_dt":27.54},{"city":"Alden","state_name":"New York","lat":42.89487,"lng":-78.51008,"zip":"14004","miles_from_dt":28.09},{"city":"Kill Buck","state_name":"New York","lat":42.1392,"lng":-78.63636,"zip":"14748","miles_from_dt":28.16},{"city":"Allegany","state_name":"New York","lat":42.10663,"lng":-78.52795,"zip":"14706","miles_from_dt":28.18},{"city":"Gowanda","state_name":"New York","lat":42.43673,"lng":-78.92798,"zip":"14070","miles_from_dt":28.39},{"city":"Little Valley","state_name":"New York","lat":42.23477,"lng":-78.81398,"zip":"14755","miles_from_dt":28.81},{"city":"Mount Morris","state_name":"New York","lat":42.69485,"lng":-77.87167,"zip":"14510","miles_from_dt":29.17},{"city":"Saint Bonaventure","state_name":"New York","lat":42.07759,"lng":-78.4827,"zip":"14778","miles_from_dt":29.61},{"city":"Alexander","state_name":"New York","lat":42.91788,"lng":-78.24703,"zip":"14005","miles_from_dt":29.64},{"city":"Olean","state_name":"New York","lat":42.07098,"lng":-78.41421,"zip":"14760","miles_from_dt":29.64},{"city":"Buffalo","state_name":"New York","lat":42.83767,"lng":-78.74771,"zip":"14224","miles_from_dt":29.96},{"city":"Almond","state_name":"New York","lat":42.31587,"lng":-77.8476,"zip":"14804","miles_from_dt":29.99}],"targetCityZipCode":"14133","targetCityState":"New York"},"__N_SSG":true}