{"pageProps":{"stateName":"New-york","cityName":"slate-hill","nearbyCities":[{"city":"Johnson","state_name":"New York","lat":41.36527,"lng":-74.51106,"zip":"10933","miles_from_dt":2.27},{"city":"New Hampton","state_name":"New York","lat":41.3764,"lng":-74.42881,"zip":"10958","miles_from_dt":2.5},{"city":"Middletown","state_name":"New York","lat":41.45149,"lng":-74.46997,"zip":"10940","miles_from_dt":4.64},{"city":"Westtown","state_name":"New York","lat":41.33118,"lng":-74.53989,"zip":"10998","miles_from_dt":4.97},{"city":"Pine Island","state_name":"New York","lat":41.292,"lng":-74.48879,"zip":"10969","miles_from_dt":6.41},{"city":"Goshen","state_name":"New York","lat":41.3788,"lng":-74.3512,"zip":"10924","miles_from_dt":6.48},{"city":"Otisville","state_name":"New York","lat":41.4669,"lng":-74.54121,"zip":"10963","miles_from_dt":6.63},{"city":"Howells","state_name":"New York","lat":41.482,"lng":-74.46352,"zip":"10932","miles_from_dt":6.76},{"city":"Florida","state_name":"New York","lat":41.3292,"lng":-74.3651,"zip":"10921","miles_from_dt":6.9},{"city":"Unionville","state_name":"New York","lat":41.30133,"lng":-74.56218,"zip":"10988","miles_from_dt":7.29},{"city":"Port Jervis","state_name":"New York","lat":41.37394,"lng":-74.62429,"zip":"12771","miles_from_dt":7.76},{"city":"Middletown","state_name":"New York","lat":41.48923,"lng":-74.34556,"zip":"10941","miles_from_dt":9.9},{"city":"Warwick","state_name":"New York","lat":41.2651,"lng":-74.3663,"zip":"10990","miles_from_dt":10.01},{"city":"Glenwood","state_name":"New Jersey","lat":41.2387,"lng":-74.4873,"zip":"07418","miles_from_dt":10.07},{"city":"Huguenot","state_name":"New York","lat":41.44929,"lng":-74.65582,"zip":"12746","miles_from_dt":10.37},{"city":"Cuddebackville","state_name":"New York","lat":41.49411,"lng":-74.61582,"zip":"12729","miles_from_dt":10.5},{"city":"Sugar Loaf","state_name":"New York","lat":41.32301,"lng":-74.28559,"zip":"10981","miles_from_dt":10.75},{"city":"New Milford","state_name":"New York","lat":41.23454,"lng":-74.41307,"zip":"10959","miles_from_dt":10.84},{"city":"Circleville","state_name":"New York","lat":41.52836,"lng":-74.38327,"zip":"10919","miles_from_dt":11.03},{"city":"Westbrookville","state_name":"New York","lat":41.52429,"lng":-74.58051,"zip":"12785","miles_from_dt":11.08},{"city":"Chester","state_name":"New York","lat":41.34816,"lng":-74.25828,"zip":"10918","miles_from_dt":11.58},{"city":"Sussex","state_name":"New Jersey","lat":41.24213,"lng":-74.60648,"zip":"07461","miles_from_dt":11.95},{"city":"Bullville","state_name":"New York","lat":41.54022,"lng":-74.35714,"zip":"10915","miles_from_dt":12.39},{"city":"Vernon","state_name":"New Jersey","lat":41.19873,"lng":-74.48911,"zip":"07462","miles_from_dt":12.83},{"city":"Campbell Hall","state_name":"New York","lat":41.44881,"lng":-74.24311,"zip":"10916","miles_from_dt":12.87},{"city":"Bloomingburg","state_name":"New York","lat":41.56741,"lng":-74.42832,"zip":"12721","miles_from_dt":12.87},{"city":"Bellvale","state_name":"New York","lat":41.24733,"lng":-74.30386,"zip":"10912","miles_from_dt":13.02},{"city":"Sparrow Bush","state_name":"New York","lat":41.44514,"lng":-74.71989,"zip":"12780","miles_from_dt":13.36},{"city":"Matamoras","state_name":"Pennsylvania","lat":41.37566,"lng":-74.73674,"zip":"18336","miles_from_dt":13.58},{"city":"Wurtsboro","state_name":"New York","lat":41.5863,"lng":-74.51705,"zip":"12790","miles_from_dt":14.1},{"city":"Highland Lakes","state_name":"New Jersey","lat":41.17984,"lng":-74.44177,"zip":"07422","miles_from_dt":14.23},{"city":"McAfee","state_name":"New Jersey","lat":41.18538,"lng":-74.55155,"zip":"07428","miles_from_dt":14.29},{"city":"Blooming Grove","state_name":"New York","lat":41.41671,"lng":-74.20087,"zip":"10914","miles_from_dt":14.45},{"city":"Thompson Ridge","state_name":"New York","lat":41.57697,"lng":-74.35782,"zip":"10985","miles_from_dt":14.63},{"city":"Maybrook","state_name":"New York","lat":41.48602,"lng":-74.22354,"zip":"12543","miles_from_dt":14.85},{"city":"Montgomery","state_name":"New York","lat":41.52957,"lng":-74.25843,"zip":"12549","miles_from_dt":15.08},{"city":"Monroe","state_name":"New York","lat":41.31919,"lng":-74.19825,"zip":"10950","miles_from_dt":15.11},{"city":"Burlingham","state_name":"New York","lat":41.59042,"lng":-74.3748,"zip":"12722","miles_from_dt":15.15},{"city":"Monroe","state_name":"New York","lat":41.33,"lng":-74.19219,"zip":"10949","miles_from_dt":15.21},{"city":"Montague","state_name":"New Jersey","lat":41.28918,"lng":-74.74351,"zip":"07827","miles_from_dt":15.4},{"city":"Millrift","state_name":"Pennsylvania","lat":41.42027,"lng":-74.77503,"zip":"18340","miles_from_dt":15.75},{"city":"Greenwood Lake","state_name":"New York","lat":41.20076,"lng":-74.29535,"zip":"10925","miles_from_dt":15.77},{"city":"Summitville","state_name":"New York","lat":41.61448,"lng":-74.47208,"zip":"12781","miles_from_dt":15.88},{"city":"Sterling Forest","state_name":"New York","lat":41.18237,"lng":-74.31877,"zip":"10979","miles_from_dt":16.16},{"city":"Washingtonville","state_name":"New York","lat":41.42648,"lng":-74.16567,"zip":"10992","miles_from_dt":16.37},{"city":"Hewitt","state_name":"New Jersey","lat":41.1624,"lng":-74.35586,"zip":"07421","miles_from_dt":16.54},{"city":"Hamburg","state_name":"New Jersey","lat":41.15394,"lng":-74.57106,"zip":"07419","miles_from_dt":16.66},{"city":"Forestburgh","state_name":"New York","lat":41.55172,"lng":-74.71067,"zip":"12777","miles_from_dt":16.8},{"city":"Rock Hill","state_name":"New York","lat":41.62266,"lng":-74.58232,"zip":"12775","miles_from_dt":17.35},{"city":"Walker Valley","state_name":"New York","lat":41.6335,"lng":-74.37718,"zip":"12588","miles_from_dt":17.93},{"city":"Rock Tavern","state_name":"New York","lat":41.48514,"lng":-74.15714,"zip":"12575","miles_from_dt":17.94},{"city":"Tuxedo Park","state_name":"New York","lat":41.20737,"lng":-74.22284,"zip":"10987","miles_from_dt":17.96},{"city":"Pine Bush","state_name":"New York","lat":41.62223,"lng":-74.33256,"zip":"12566","miles_from_dt":18.01},{"city":"Southfields","state_name":"New York","lat":41.25951,"lng":-74.17042,"zip":"10975","miles_from_dt":18.07},{"city":"Stockholm","state_name":"New Jersey","lat":41.11341,"lng":-74.49006,"zip":"07460","miles_from_dt":18.72},{"city":"Glen Spey","state_name":"New York","lat":41.50529,"lng":-74.79941,"zip":"12737","miles_from_dt":18.77},{"city":"Salisbury Mills","state_name":"New York","lat":41.42048,"lng":-74.11678,"zip":"12577","miles_from_dt":18.81},{"city":"Phillipsport","state_name":"New York","lat":41.65925,"lng":-74.47071,"zip":"12769","miles_from_dt":18.97},{"city":"Highland Mills","state_name":"New York","lat":41.3667,"lng":-74.11035,"zip":"10930","miles_from_dt":19.03},{"city":"Arden","state_name":"New York","lat":41.2773,"lng":-74.13625,"zip":"10910","miles_from_dt":19.14},{"city":"Central Valley","state_name":"New York","lat":41.31851,"lng":-74.11094,"zip":"10917","miles_from_dt":19.5},{"city":"Spring Glen","state_name":"New York","lat":41.66796,"lng":-74.44184,"zip":"12483","miles_from_dt":19.65},{"city":"Franklin","state_name":"New Jersey","lat":41.10892,"lng":-74.58891,"zip":"07416","miles_from_dt":19.91},{"city":"Pond Eddy","state_name":"New York","lat":41.44681,"lng":-74.85028,"zip":"12770","miles_from_dt":19.93},{"city":"Harriman","state_name":"New York","lat":41.25856,"lng":-74.1307,"zip":"10926","miles_from_dt":19.94},{"city":"Glen Wild","state_name":"New York","lat":41.66009,"lng":-74.59119,"zip":"12738","miles_from_dt":19.95},{"city":"Walden","state_name":"New York","lat":41.5657,"lng":-74.17289,"zip":"12586","miles_from_dt":20.09},{"city":"Augusta","state_name":"New Jersey","lat":41.1409,"lng":-74.70373,"zip":"07822","miles_from_dt":20.58},{"city":"Cragsmoor","state_name":"New York","lat":41.6743,"lng":-74.37769,"zip":"12420","miles_from_dt":20.64},{"city":"Mountain Dale","state_name":"New York","lat":41.68221,"lng":-74.52205,"zip":"12763","miles_from_dt":20.69},{"city":"Mountainville","state_name":"New York","lat":41.40581,"lng":-74.07783,"zip":"10953","miles_from_dt":20.73},{"city":"Thompsonville","state_name":"New York","lat":41.66907,"lng":-74.61485,"zip":"12784","miles_from_dt":20.93},{"city":"Milford","state_name":"Pennsylvania","lat":41.33406,"lng":-74.87342,"zip":"18337","miles_from_dt":20.97},{"city":"West Milford","state_name":"New Jersey","lat":41.08713,"lng":-74.3779,"zip":"07480","miles_from_dt":21.14},{"city":"Sloatsburg","state_name":"New York","lat":41.15826,"lng":-74.18993,"zip":"10974","miles_from_dt":21.56},{"city":"New Windsor","state_name":"New York","lat":41.46146,"lng":-74.07311,"zip":"12553","miles_from_dt":21.58},{"city":"Monticello","state_name":"New York","lat":41.65125,"lng":-74.6982,"zip":"12701","miles_from_dt":21.73},{"city":"Branchville","state_name":"New Jersey","lat":41.17633,"lng":-74.79042,"zip":"07826","miles_from_dt":21.79},{"city":"Ringwood","state_name":"New Jersey","lat":41.10647,"lng":-74.27487,"zip":"07456","miles_from_dt":21.85},{"city":"Branchville","state_name":"New Jersey","lat":41.14489,"lng":-74.75209,"zip":"07890","miles_from_dt":21.92},{"city":"Highland Lake","state_name":"New York","lat":41.54065,"lng":-74.84687,"zip":"12743","miles_from_dt":22.08},{"city":"Ogdensburg","state_name":"New Jersey","lat":41.0769,"lng":-74.59734,"zip":"07439","miles_from_dt":22.15},{"city":"Lafayette","state_name":"New Jersey","lat":41.10339,"lng":-74.68312,"zip":"07848","miles_from_dt":22.2},{"city":"Vails Gate","state_name":"New York","lat":41.46623,"lng":-74.04924,"zip":"12584","miles_from_dt":22.86},{"city":"Cornwall","state_name":"New York","lat":41.41847,"lng":-74.03571,"zip":"12518","miles_from_dt":22.98},{"city":"South Fallsburg","state_name":"New York","lat":41.69804,"lng":-74.62703,"zip":"12779","miles_from_dt":23.02},{"city":"Shohola","state_name":"Pennsylvania","lat":41.40916,"lng":-74.91757,"zip":"18458","miles_from_dt":23.03},{"city":"Woodridge","state_name":"New York","lat":41.71374,"lng":-74.57233,"zip":"12789","miles_from_dt":23.27},{"city":"Kiamesha Lake","state_name":"New York","lat":41.69209,"lng":-74.66119,"zip":"12751","miles_from_dt":23.31},{"city":"Barryville","state_name":"New York","lat":41.48431,"lng":-74.90543,"zip":"12719","miles_from_dt":23.36},{"city":"West Point","state_name":"New York","lat":41.3615,"lng":-74.02705,"zip":"10997","miles_from_dt":23.37},{"city":"Wallkill","state_name":"New York","lat":41.6278,"lng":-74.15875,"zip":"12589","miles_from_dt":23.5},{"city":"Newfoundland","state_name":"New Jersey","lat":41.0425,"lng":-74.44159,"zip":"07435","miles_from_dt":23.66},{"city":"Layton","state_name":"New Jersey","lat":41.19883,"lng":-74.85923,"zip":"07851","miles_from_dt":23.72},{"city":"Greenfield Park","state_name":"New York","lat":41.72715,"lng":-74.51148,"zip":"12435","miles_from_dt":23.73},{"city":"Hillburn","state_name":"New York","lat":41.12769,"lng":-74.17012,"zip":"10931","miles_from_dt":23.81},{"city":"Eldred","state_name":"New York","lat":41.56075,"lng":-74.87353,"zip":"12732","miles_from_dt":23.97},{"city":"Stony Point","state_name":"New York","lat":41.23157,"lng":-74.05709,"zip":"10980","miles_from_dt":24.2},{"city":"Newburgh","state_name":"New York","lat":41.53671,"lng":-74.05196,"zip":"12550","miles_from_dt":24.38},{"city":"Ellenville","state_name":"New York","lat":41.73817,"lng":-74.44615,"zip":"12428","miles_from_dt":24.46},{"city":"Newburgh","state_name":"New York","lat":41.53802,"lng":-74.04901,"zip":"12552","miles_from_dt":24.55},{"city":"Cornwall On Hudson","state_name":"New York","lat":41.43362,"lng":-74.00693,"zip":"12520","miles_from_dt":24.59},{"city":"Suffern","state_name":"New York","lat":41.14554,"lng":-74.12504,"zip":"10901","miles_from_dt":24.6},{"city":"Sparta","state_name":"New Jersey","lat":41.04666,"lng":-74.62793,"zip":"07871","miles_from_dt":24.62},{"city":"Oak Ridge","state_name":"New Jersey","lat":41.0287,"lng":-74.52038,"zip":"07438","miles_from_dt":24.66},{"city":"Newburgh","state_name":"New York","lat":41.54077,"lng":-74.04673,"zip":"12551","miles_from_dt":24.74},{"city":"Highland Falls","state_name":"New York","lat":41.3457,"lng":-74.00265,"zip":"10928","miles_from_dt":24.74},{"city":"Wanaque","state_name":"New Jersey","lat":41.05015,"lng":-74.29849,"zip":"07465","miles_from_dt":24.85},{"city":"Mongaup Valley","state_name":"New York","lat":41.65582,"lng":-74.79462,"zip":"12762","miles_from_dt":24.99},{"city":"Fallsburg","state_name":"New York","lat":41.73378,"lng":-74.6102,"zip":"12733","miles_from_dt":25.1},{"city":"Fort Montgomery","state_name":"New York","lat":41.32794,"lng":-73.99604,"zip":"10922","miles_from_dt":25.24},{"city":"Pomona","state_name":"New York","lat":41.1852,"lng":-74.06568,"zip":"10970","miles_from_dt":25.39},{"city":"Newburgh","state_name":"New York","lat":41.5086,"lng":-74.01337,"zip":"12555","miles_from_dt":25.49},{"city":"Gardiner","state_name":"New York","lat":41.68115,"lng":-74.17751,"zip":"12525","miles_from_dt":25.66},{"city":"Bear Mountain","state_name":"New York","lat":41.30798,"lng":-73.99243,"zip":"10911","miles_from_dt":25.68},{"city":"Mahwah","state_name":"New Jersey","lat":41.08113,"lng":-74.18666,"zip":"07495","miles_from_dt":25.78},{"city":"Mahwah","state_name":"New Jersey","lat":41.08157,"lng":-74.18562,"zip":"07430","miles_from_dt":25.79},{"city":"Smallwood","state_name":"New York","lat":41.66174,"lng":-74.8138,"zip":"12778","miles_from_dt":25.96},{"city":"Tomkins Cove","state_name":"New York","lat":41.27917,"lng":-73.99445,"zip":"10986","miles_from_dt":26.06},{"city":"Haskell","state_name":"New Jersey","lat":41.02926,"lng":-74.30281,"zip":"07420","miles_from_dt":26.11},{"city":"West Point","state_name":"New York","lat":41.38996,"lng":-73.97257,"zip":"10996","miles_from_dt":26.15},{"city":"Bloomingdale","state_name":"New Jersey","lat":41.02059,"lng":-74.33239,"zip":"07403","miles_from_dt":26.19},{"city":"Harris","state_name":"New York","lat":41.71796,"lng":-74.72108,"zip":"12742","miles_from_dt":26.3},{"city":"Yulan","state_name":"New York","lat":41.51447,"lng":-74.95172,"zip":"12792","miles_from_dt":26.3},{"city":"Wawarsing","state_name":"New York","lat":41.75597,"lng":-74.35462,"zip":"12489","miles_from_dt":26.4},{"city":"White Lake","state_name":"New York","lat":41.64306,"lng":-74.85393,"zip":"12786","miles_from_dt":26.53},{"city":"Plattekill","state_name":"New York","lat":41.61227,"lng":-74.06228,"zip":"12568","miles_from_dt":26.59},{"city":"Thiells","state_name":"New York","lat":41.20928,"lng":-74.02008,"zip":"10984","miles_from_dt":26.61},{"city":"Oakland","state_name":"New Jersey","lat":41.03135,"lng":-74.24081,"zip":"07436","miles_from_dt":27.27},{"city":"Modena","state_name":"New York","lat":41.66307,"lng":-74.10157,"zip":"12548","miles_from_dt":27.32},{"city":"Tallman","state_name":"New York","lat":41.10654,"lng":-74.09865,"zip":"10982","miles_from_dt":27.45},{"city":"Swartswood","state_name":"New Jersey","lat":41.08723,"lng":-74.829,"zip":"07877","miles_from_dt":27.56},{"city":"Garnerville","state_name":"New York","lat":41.20265,"lng":-74.00031,"zip":"10923","miles_from_dt":27.74},{"city":"Monsey","state_name":"New York","lat":41.11385,"lng":-74.07975,"zip":"10952","miles_from_dt":27.82},{"city":"Butler","state_name":"New Jersey","lat":40.98646,"lng":-74.38302,"zip":"07405","miles_from_dt":27.88},{"city":"Kauneonga Lake","state_name":"New York","lat":41.69149,"lng":-74.82768,"zip":"12749","miles_from_dt":27.97},{"city":"Hurleyville","state_name":"New York","lat":41.76596,"lng":-74.65934,"zip":"12747","miles_from_dt":28},{"city":"Pompton Lakes","state_name":"New Jersey","lat":41.0024,"lng":-74.28589,"zip":"07442","miles_from_dt":28.16},{"city":"Ferndale","state_name":"New York","lat":41.7354,"lng":-74.7531,"zip":"12734","miles_from_dt":28.17},{"city":"Beacon","state_name":"New York","lat":41.49637,"lng":-73.95351,"zip":"12508","miles_from_dt":28.19},{"city":"Ramsey","state_name":"New Jersey","lat":41.05944,"lng":-74.14532,"zip":"07446","miles_from_dt":28.27},{"city":"Verplanck","state_name":"New York","lat":41.25552,"lng":-73.95854,"zip":"10596","miles_from_dt":28.34},{"city":"Riverdale","state_name":"New Jersey","lat":40.99212,"lng":-74.3125,"zip":"07457","miles_from_dt":28.38},{"city":"Castle Point","state_name":"New York","lat":41.52822,"lng":-73.96344,"zip":"12511","miles_from_dt":28.38},{"city":"Newton","state_name":"New Jersey","lat":41.0595,"lng":-74.81159,"zip":"07860","miles_from_dt":28.44},{"city":"Greeley","state_name":"Pennsylvania","lat":41.42263,"lng":-75.02206,"zip":"18425","miles_from_dt":28.51},{"city":"Lackawaxen","state_name":"Pennsylvania","lat":41.49221,"lng":-75.00661,"zip":"18435","miles_from_dt":28.56},{"city":"West Haverstraw","state_name":"New York","lat":41.21011,"lng":-73.97565,"zip":"10993","miles_from_dt":28.67},{"city":"Garrison","state_name":"New York","lat":41.37076,"lng":-73.92201,"zip":"10524","miles_from_dt":28.79},{"city":"Spring Valley","state_name":"New York","lat":41.11749,"lng":-74.04825,"zip":"10977","miles_from_dt":28.89},{"city":"Buchanan","state_name":"New York","lat":41.26302,"lng":-73.94391,"zip":"10511","miles_from_dt":28.9},{"city":"Woodbourne","state_name":"New York","lat":41.79552,"lng":-74.58846,"zip":"12788","miles_from_dt":28.97},{"city":"Chelsea","state_name":"New York","lat":41.5542,"lng":-73.96471,"zip":"12512","miles_from_dt":28.99},{"city":"Bethel","state_name":"New York","lat":41.65794,"lng":-74.90029,"zip":"12720","miles_from_dt":29.01},{"city":"Loch Sheldrake","state_name":"New York","lat":41.78399,"lng":-74.65758,"zip":"12759","miles_from_dt":29.14},{"city":"Kerhonkson","state_name":"New York","lat":41.79063,"lng":-74.31655,"zip":"12446","miles_from_dt":29.22},{"city":"Marlboro","state_name":"New York","lat":41.60772,"lng":-73.99666,"zip":"12542","miles_from_dt":29.24},{"city":"Franklin Lakes","state_name":"New Jersey","lat":41.00859,"lng":-74.20836,"zip":"07417","miles_from_dt":29.44},{"city":"Glenham","state_name":"New York","lat":41.51931,"lng":-73.93703,"zip":"12527","miles_from_dt":29.47},{"city":"Clintondale","state_name":"New York","lat":41.68008,"lng":-74.06451,"zip":"12515","miles_from_dt":29.51},{"city":"Lake Hopatcong","state_name":"New Jersey","lat":40.96861,"lng":-74.61066,"zip":"07849","miles_from_dt":29.54},{"city":"Haverstraw","state_name":"New York","lat":41.19263,"lng":-73.96735,"zip":"10927","miles_from_dt":29.58},{"city":"Montrose","state_name":"New York","lat":41.24599,"lng":-73.93643,"zip":"10548","miles_from_dt":29.64},{"city":"Glasser","state_name":"New Jersey","lat":40.97232,"lng":-74.63688,"zip":"07837","miles_from_dt":29.65},{"city":"New City","state_name":"New York","lat":41.15562,"lng":-73.99314,"zip":"10956","miles_from_dt":29.67},{"city":"Dingmans Ferry","state_name":"Pennsylvania","lat":41.22531,"lng":-75.00633,"zip":"18328","miles_from_dt":29.72},{"city":"Peekskill","state_name":"New York","lat":41.28924,"lng":-73.91837,"zip":"10566","miles_from_dt":29.72},{"city":"Rockaway","state_name":"New Jersey","lat":40.9531,"lng":-74.48639,"zip":"07866","miles_from_dt":29.77},{"city":"Wallpack Center","state_name":"New Jersey","lat":41.12213,"lng":-74.93249,"zip":"07881","miles_from_dt":29.89}],"targetCityZipCode":"10973","targetCityState":"New York"},"__N_SSG":true}