{"pageProps":{"stateName":"New-york","cityName":"taberg","nearbyCities":[{"city":"Lee Center","state_name":"New York","lat":43.33127,"lng":-75.50984,"zip":"13363","miles_from_dt":6.01},{"city":"McConnellsville","state_name":"New York","lat":43.29132,"lng":-75.66852,"zip":"13401","miles_from_dt":6.5},{"city":"Camden","state_name":"New York","lat":43.41492,"lng":-75.73963,"zip":"13316","miles_from_dt":6.95},{"city":"Ava","state_name":"New York","lat":43.36992,"lng":-75.46636,"zip":"13303","miles_from_dt":7.36},{"city":"West Leyden","state_name":"New York","lat":43.46698,"lng":-75.52928,"zip":"13489","miles_from_dt":7.54},{"city":"Blossvale","state_name":"New York","lat":43.24865,"lng":-75.66686,"zip":"13308","miles_from_dt":9.22},{"city":"Westdale","state_name":"New York","lat":43.40075,"lng":-75.81995,"zip":"13483","miles_from_dt":10.6},{"city":"Rome","state_name":"New York","lat":43.22549,"lng":-75.49228,"zip":"13449","miles_from_dt":12.02},{"city":"North Bay","state_name":"New York","lat":43.22796,"lng":-75.75325,"zip":"13123","miles_from_dt":12.45},{"city":"Sylvan Beach","state_name":"New York","lat":43.20288,"lng":-75.7254,"zip":"13157","miles_from_dt":13.25},{"city":"Rome","state_name":"New York","lat":43.21807,"lng":-75.45941,"zip":"13440","miles_from_dt":13.35},{"city":"Westernville","state_name":"New York","lat":43.35707,"lng":-75.34088,"zip":"13486","miles_from_dt":13.73},{"city":"Rome","state_name":"New York","lat":43.21762,"lng":-75.44742,"zip":"13442","miles_from_dt":13.74},{"city":"Verona Beach","state_name":"New York","lat":43.18833,"lng":-75.71823,"zip":"13162","miles_from_dt":14.02},{"city":"Cleveland","state_name":"New York","lat":43.26565,"lng":-75.85154,"zip":"13042","miles_from_dt":14.27},{"city":"Durhamville","state_name":"New York","lat":43.16947,"lng":-75.66923,"zip":"13054","miles_from_dt":14.55},{"city":"Rome","state_name":"New York","lat":43.22711,"lng":-75.40758,"zip":"13441","miles_from_dt":14.57},{"city":"Constableville","state_name":"New York","lat":43.58398,"lng":-75.54091,"zip":"13325","miles_from_dt":14.79},{"city":"Williamstown","state_name":"New York","lat":43.43162,"lng":-75.90102,"zip":"13493","miles_from_dt":15.03},{"city":"Boonville","state_name":"New York","lat":43.47398,"lng":-75.34103,"zip":"13309","miles_from_dt":15.23},{"city":"Verona","state_name":"New York","lat":43.14916,"lng":-75.58009,"zip":"13478","miles_from_dt":15.75},{"city":"Bernhards Bay","state_name":"New York","lat":43.29226,"lng":-75.93107,"zip":"13028","miles_from_dt":17.08},{"city":"Redfield","state_name":"New York","lat":43.59677,"lng":-75.80383,"zip":"13437","miles_from_dt":18.03},{"city":"Holland Patent","state_name":"New York","lat":43.26612,"lng":-75.27199,"zip":"13354","miles_from_dt":18.75},{"city":"Altmar","state_name":"New York","lat":43.50261,"lng":-75.95044,"zip":"13302","miles_from_dt":19.13},{"city":"Stittville","state_name":"New York","lat":43.22028,"lng":-75.29853,"zip":"13469","miles_from_dt":19.13},{"city":"Oriskany","state_name":"New York","lat":43.15228,"lng":-75.36291,"zip":"13424","miles_from_dt":19.92},{"city":"Constantia","state_name":"New York","lat":43.2977,"lng":-75.99595,"zip":"13044","miles_from_dt":20.08},{"city":"Alder Creek","state_name":"New York","lat":43.42225,"lng":-75.21546,"zip":"13301","miles_from_dt":20.22},{"city":"Turin","state_name":"New York","lat":43.64414,"lng":-75.44517,"zip":"13473","miles_from_dt":20.32},{"city":"Vernon","state_name":"New York","lat":43.08728,"lng":-75.51219,"zip":"13476","miles_from_dt":20.56},{"city":"Westmoreland","state_name":"New York","lat":43.10612,"lng":-75.42991,"zip":"13490","miles_from_dt":20.78},{"city":"Wampsville","state_name":"New York","lat":43.08194,"lng":-75.70841,"zip":"13163","miles_from_dt":20.88},{"city":"Sherrill","state_name":"New York","lat":43.07115,"lng":-75.59866,"zip":"13461","miles_from_dt":21.06},{"city":"Oneida","state_name":"New York","lat":43.06293,"lng":-75.64654,"zip":"13421","miles_from_dt":21.69},{"city":"Canastota","state_name":"New York","lat":43.07793,"lng":-75.76275,"zip":"13032","miles_from_dt":21.94},{"city":"Marcy","state_name":"New York","lat":43.17041,"lng":-75.27188,"zip":"13403","miles_from_dt":22.28},{"city":"Richland","state_name":"New York","lat":43.57034,"lng":-75.97464,"zip":"13144","miles_from_dt":22.63},{"city":"West Monroe","state_name":"New York","lat":43.3171,"lng":-76.0571,"zip":"13167","miles_from_dt":22.78},{"city":"Whitesboro","state_name":"New York","lat":43.1172,"lng":-75.33023,"zip":"13492","miles_from_dt":22.84},{"city":"Orwell","state_name":"New York","lat":43.56057,"lng":-75.9931,"zip":"13426","miles_from_dt":23},{"city":"Bridgeport","state_name":"New York","lat":43.15962,"lng":-75.96052,"zip":"13030","miles_from_dt":23.07},{"city":"Remsen","state_name":"New York","lat":43.35171,"lng":-75.15527,"zip":"13438","miles_from_dt":23.08},{"city":"Clark Mills","state_name":"New York","lat":43.08901,"lng":-75.37259,"zip":"13321","miles_from_dt":23.22},{"city":"Lyons Falls","state_name":"New York","lat":43.6446,"lng":-75.33209,"zip":"13368","miles_from_dt":23.28},{"city":"Prospect","state_name":"New York","lat":43.30255,"lng":-75.15134,"zip":"13435","miles_from_dt":23.77},{"city":"Port Leyden","state_name":"New York","lat":43.59914,"lng":-75.24765,"zip":"13433","miles_from_dt":23.94},{"city":"Vernon Center","state_name":"New York","lat":43.03633,"lng":-75.51441,"zip":"13477","miles_from_dt":23.97},{"city":"Clockville","state_name":"New York","lat":43.0398,"lng":-75.74409,"zip":"13043","miles_from_dt":24.15},{"city":"Parish","state_name":"New York","lat":43.41964,"lng":-76.09539,"zip":"13131","miles_from_dt":24.51},{"city":"Barneveld","state_name":"New York","lat":43.23954,"lng":-75.1589,"zip":"13304","miles_from_dt":24.72},{"city":"Yorkville","state_name":"New York","lat":43.11087,"lng":-75.27744,"zip":"13495","miles_from_dt":24.91},{"city":"New York Mills","state_name":"New York","lat":43.10002,"lng":-75.29399,"zip":"13417","miles_from_dt":24.92},{"city":"Mallory","state_name":"New York","lat":43.32652,"lng":-76.10507,"zip":"13103","miles_from_dt":25.06},{"city":"Hinckley","state_name":"New York","lat":43.31122,"lng":-75.12058,"zip":"13352","miles_from_dt":25.17},{"city":"Chittenango","state_name":"New York","lat":43.06046,"lng":-75.86521,"zip":"13037","miles_from_dt":25.26},{"city":"Kirkville","state_name":"New York","lat":43.10148,"lng":-75.95253,"zip":"13082","miles_from_dt":25.58},{"city":"Greig","state_name":"New York","lat":43.6889,"lng":-75.33153,"zip":"13345","miles_from_dt":25.79},{"city":"Clinton","state_name":"New York","lat":43.04198,"lng":-75.38144,"zip":"13323","miles_from_dt":25.84},{"city":"Martinsburg","state_name":"New York","lat":43.73842,"lng":-75.48089,"zip":"13404","miles_from_dt":25.87},{"city":"Woodgate","state_name":"New York","lat":43.53136,"lng":-75.14198,"zip":"13494","miles_from_dt":25.97},{"city":"Franklin Springs","state_name":"New York","lat":43.03468,"lng":-75.39075,"zip":"13341","miles_from_dt":26.08},{"city":"Lacona","state_name":"New York","lat":43.64853,"lng":-75.98091,"zip":"13083","miles_from_dt":26.4},{"city":"Utica","state_name":"New York","lat":43.10014,"lng":-75.23291,"zip":"13503","miles_from_dt":27},{"city":"Cicero","state_name":"New York","lat":43.16678,"lng":-76.0654,"zip":"13039","miles_from_dt":27.04},{"city":"Utica","state_name":"New York","lat":43.10041,"lng":-75.23047,"zip":"13505","miles_from_dt":27.08},{"city":"Hastings","state_name":"New York","lat":43.35364,"lng":-76.15182,"zip":"13076","miles_from_dt":27.22},{"city":"Utica","state_name":"New York","lat":43.0977,"lng":-75.22926,"zip":"13599","miles_from_dt":27.25},{"city":"Knoxboro","state_name":"New York","lat":42.98434,"lng":-75.51901,"zip":"13362","miles_from_dt":27.45},{"city":"Maple View","state_name":"New York","lat":43.46048,"lng":-76.147,"zip":"13107","miles_from_dt":27.54},{"city":"Munnsville","state_name":"New York","lat":42.97602,"lng":-75.59131,"zip":"13409","miles_from_dt":27.64},{"city":"Utica","state_name":"New York","lat":43.14121,"lng":-75.16584,"zip":"13502","miles_from_dt":27.75},{"city":"New Hartford","state_name":"New York","lat":43.0576,"lng":-75.27495,"zip":"13413","miles_from_dt":27.81},{"city":"Washington Mills","state_name":"New York","lat":43.0566,"lng":-75.27399,"zip":"13479","miles_from_dt":27.89},{"city":"Lorraine","state_name":"New York","lat":43.73783,"lng":-75.8707,"zip":"13659","miles_from_dt":28.15},{"city":"Utica","state_name":"New York","lat":43.08138,"lng":-75.22611,"zip":"13501","miles_from_dt":28.17},{"city":"Peterboro","state_name":"New York","lat":42.96731,"lng":-75.68476,"zip":"13134","miles_from_dt":28.45},{"city":"Central Square","state_name":"New York","lat":43.32268,"lng":-76.17402,"zip":"13036","miles_from_dt":28.54},{"city":"Deansboro","state_name":"New York","lat":42.98247,"lng":-75.42836,"zip":"13328","miles_from_dt":28.71},{"city":"Pulaski","state_name":"New York","lat":43.55189,"lng":-76.12959,"zip":"13142","miles_from_dt":28.71},{"city":"Minoa","state_name":"New York","lat":43.07449,"lng":-76.00796,"zip":"13116","miles_from_dt":28.85},{"city":"East Syracuse","state_name":"New York","lat":43.09543,"lng":-76.04014,"zip":"13057","miles_from_dt":29.01},{"city":"Brewerton","state_name":"New York","lat":43.2236,"lng":-76.14993,"zip":"13029","miles_from_dt":29.08},{"city":"Oriskany Falls","state_name":"New York","lat":42.9635,"lng":-75.48675,"zip":"13425","miles_from_dt":29.18},{"city":"Utica","state_name":"New York","lat":43.08521,"lng":-75.18838,"zip":"13504","miles_from_dt":29.34},{"city":"Poland","state_name":"New York","lat":43.20691,"lng":-75.07608,"zip":"13431","miles_from_dt":29.45},{"city":"Chadwicks","state_name":"New York","lat":43.02705,"lng":-75.26593,"zip":"13319","miles_from_dt":29.77}],"targetCityZipCode":"13471","targetCityState":"New York"},"__N_SSG":true}