{"pageProps":{"stateName":"New-york","cityName":"wampsville","nearbyCities":[{"city":"Canastota","state_name":"New York","lat":43.07793,"lng":-75.76275,"zip":"13032","miles_from_dt":2.76},{"city":"Oneida","state_name":"New York","lat":43.06293,"lng":-75.64654,"zip":"13421","miles_from_dt":3.39},{"city":"Clockville","state_name":"New York","lat":43.0398,"lng":-75.74409,"zip":"13043","miles_from_dt":3.42},{"city":"Sherrill","state_name":"New York","lat":43.07115,"lng":-75.59866,"zip":"13461","miles_from_dt":5.6},{"city":"Durhamville","state_name":"New York","lat":43.16947,"lng":-75.66923,"zip":"13054","miles_from_dt":6.36},{"city":"Verona Beach","state_name":"New York","lat":43.18833,"lng":-75.71823,"zip":"13162","miles_from_dt":7.36},{"city":"Verona","state_name":"New York","lat":43.14916,"lng":-75.58009,"zip":"13478","miles_from_dt":7.98},{"city":"Peterboro","state_name":"New York","lat":42.96731,"lng":-75.68476,"zip":"13134","miles_from_dt":8},{"city":"Chittenango","state_name":"New York","lat":43.06046,"lng":-75.86521,"zip":"13037","miles_from_dt":8.07},{"city":"Sylvan Beach","state_name":"New York","lat":43.20288,"lng":-75.7254,"zip":"13157","miles_from_dt":8.39},{"city":"Munnsville","state_name":"New York","lat":42.97602,"lng":-75.59131,"zip":"13409","miles_from_dt":9.41},{"city":"Vernon","state_name":"New York","lat":43.08728,"lng":-75.51219,"zip":"13476","miles_from_dt":9.94},{"city":"Vernon Center","state_name":"New York","lat":43.03633,"lng":-75.51441,"zip":"13477","miles_from_dt":10.31},{"city":"North Bay","state_name":"New York","lat":43.22796,"lng":-75.75325,"zip":"13123","miles_from_dt":10.33},{"city":"Morrisville","state_name":"New York","lat":42.92205,"lng":-75.66722,"zip":"13408","miles_from_dt":11.23},{"city":"Cazenovia","state_name":"New York","lat":42.93828,"lng":-75.82551,"zip":"13035","miles_from_dt":11.56},{"city":"Blossvale","state_name":"New York","lat":43.24865,"lng":-75.66686,"zip":"13308","miles_from_dt":11.7},{"city":"Knoxboro","state_name":"New York","lat":42.98434,"lng":-75.51901,"zip":"13362","miles_from_dt":11.72},{"city":"Kirkville","state_name":"New York","lat":43.10148,"lng":-75.95253,"zip":"13082","miles_from_dt":12.42},{"city":"Bridgeport","state_name":"New York","lat":43.15962,"lng":-75.96052,"zip":"13030","miles_from_dt":13.83},{"city":"Oriskany Falls","state_name":"New York","lat":42.9635,"lng":-75.48675,"zip":"13425","miles_from_dt":13.89},{"city":"Westmoreland","state_name":"New York","lat":43.10612,"lng":-75.42991,"zip":"13490","miles_from_dt":14.19},{"city":"McConnellsville","state_name":"New York","lat":43.29132,"lng":-75.66852,"zip":"13401","miles_from_dt":14.59},{"city":"Cleveland","state_name":"New York","lat":43.26565,"lng":-75.85154,"zip":"13042","miles_from_dt":14.6},{"city":"Rome","state_name":"New York","lat":43.22549,"lng":-75.49228,"zip":"13449","miles_from_dt":14.75},{"city":"Manlius","state_name":"New York","lat":42.96378,"lng":-75.95523,"zip":"13104","miles_from_dt":14.93},{"city":"Bouckville","state_name":"New York","lat":42.89055,"lng":-75.57065,"zip":"13310","miles_from_dt":14.94},{"city":"Erieville","state_name":"New York","lat":42.86493,"lng":-75.75173,"zip":"13061","miles_from_dt":15.14},{"city":"Solsville","state_name":"New York","lat":42.91064,"lng":-75.52102,"zip":"13465","miles_from_dt":15.17},{"city":"Minoa","state_name":"New York","lat":43.07449,"lng":-76.00796,"zip":"13116","miles_from_dt":15.17},{"city":"Fayetteville","state_name":"New York","lat":43.03297,"lng":-76.00259,"zip":"13066","miles_from_dt":15.27},{"city":"Rome","state_name":"New York","lat":43.21807,"lng":-75.45941,"zip":"13440","miles_from_dt":15.71},{"city":"Deansboro","state_name":"New York","lat":42.98247,"lng":-75.42836,"zip":"13328","miles_from_dt":15.76},{"city":"West Eaton","state_name":"New York","lat":42.85426,"lng":-75.65549,"zip":"13484","miles_from_dt":15.94},{"city":"Madison","state_name":"New York","lat":42.90209,"lng":-75.50728,"zip":"13402","miles_from_dt":16.06},{"city":"Rome","state_name":"New York","lat":43.21762,"lng":-75.44742,"zip":"13442","miles_from_dt":16.18},{"city":"Franklin Springs","state_name":"New York","lat":43.03468,"lng":-75.39075,"zip":"13341","miles_from_dt":16.41},{"city":"Clinton","state_name":"New York","lat":43.04198,"lng":-75.38144,"zip":"13323","miles_from_dt":16.78},{"city":"East Syracuse","state_name":"New York","lat":43.09543,"lng":-76.04014,"zip":"13057","miles_from_dt":16.81},{"city":"Clark Mills","state_name":"New York","lat":43.08901,"lng":-75.37259,"zip":"13321","miles_from_dt":17},{"city":"Delphi Falls","state_name":"New York","lat":42.88339,"lng":-75.91021,"zip":"13051","miles_from_dt":17.1},{"city":"Eaton","state_name":"New York","lat":42.83445,"lng":-75.65986,"zip":"13334","miles_from_dt":17.26},{"city":"Oriskany","state_name":"New York","lat":43.15228,"lng":-75.36291,"zip":"13424","miles_from_dt":18.13},{"city":"Rome","state_name":"New York","lat":43.22711,"lng":-75.40758,"zip":"13441","miles_from_dt":18.21},{"city":"Bernhards Bay","state_name":"New York","lat":43.29226,"lng":-75.93107,"zip":"13028","miles_from_dt":18.37},{"city":"New Woodstock","state_name":"New York","lat":42.83857,"lng":-75.85919,"zip":"13122","miles_from_dt":18.46},{"city":"Syracuse","state_name":"New York","lat":43.03865,"lng":-76.0741,"zip":"13214","miles_from_dt":18.75},{"city":"Cicero","state_name":"New York","lat":43.16678,"lng":-76.0654,"zip":"13039","miles_from_dt":18.98},{"city":"Whitesboro","state_name":"New York","lat":43.1172,"lng":-75.33023,"zip":"13492","miles_from_dt":19.28},{"city":"Jamesville","state_name":"New York","lat":42.96206,"lng":-76.06171,"zip":"13078","miles_from_dt":19.72},{"city":"Hamilton","state_name":"New York","lat":42.82093,"lng":-75.54453,"zip":"13346","miles_from_dt":19.84},{"city":"Lee Center","state_name":"New York","lat":43.33127,"lng":-75.50984,"zip":"13363","miles_from_dt":19.92},{"city":"Pompey","state_name":"New York","lat":42.89915,"lng":-76.01461,"zip":"13138","miles_from_dt":20},{"city":"Syracuse","state_name":"New York","lat":43.07354,"lng":-76.10584,"zip":"13206","miles_from_dt":20.12},{"city":"Syracuse","state_name":"New York","lat":43.03892,"lng":-76.10264,"zip":"13224","miles_from_dt":20.17},{"city":"Sangerfield","state_name":"New York","lat":42.91791,"lng":-75.37655,"zip":"13455","miles_from_dt":20.27},{"city":"Constantia","state_name":"New York","lat":43.2977,"lng":-75.99595,"zip":"13044","miles_from_dt":20.8},{"city":"Waterville","state_name":"New York","lat":42.91424,"lng":-75.36699,"zip":"13480","miles_from_dt":20.82},{"city":"Syracuse","state_name":"New York","lat":43.10333,"lng":-76.11954,"zip":"13211","miles_from_dt":20.85},{"city":"Taberg","state_name":"New York","lat":43.37606,"lng":-75.6122,"zip":"13471","miles_from_dt":20.88},{"city":"New York Mills","state_name":"New York","lat":43.10002,"lng":-75.29399,"zip":"13417","miles_from_dt":21},{"city":"Syracuse","state_name":"New York","lat":43.05184,"lng":-76.12316,"zip":"13217","miles_from_dt":21.09},{"city":"Syracuse","state_name":"New York","lat":43.02318,"lng":-76.12329,"zip":"13244","miles_from_dt":21.39},{"city":"Fabius","state_name":"New York","lat":42.84429,"lng":-75.98023,"zip":"13063","miles_from_dt":21.42},{"city":"Syracuse","state_name":"New York","lat":43.03186,"lng":-76.12653,"zip":"13210","miles_from_dt":21.45},{"city":"Syracuse","state_name":"New York","lat":43.12839,"lng":-76.12889,"zip":"13212","miles_from_dt":21.51},{"city":"Syracuse","state_name":"New York","lat":43.12549,"lng":-76.12973,"zip":"13220","miles_from_dt":21.52},{"city":"Syracuse","state_name":"New York","lat":43.061,"lng":-76.13486,"zip":"13203","miles_from_dt":21.63},{"city":"Syracuse","state_name":"New York","lat":43.12951,"lng":-76.13135,"zip":"13225","miles_from_dt":21.64},{"city":"Syracuse","state_name":"New York","lat":43.12257,"lng":-76.13287,"zip":"13250","miles_from_dt":21.65},{"city":"Syracuse","state_name":"New York","lat":43.12374,"lng":-76.1351,"zip":"13251","miles_from_dt":21.78},{"city":"Syracuse","state_name":"New York","lat":43.04241,"lng":-76.13669,"zip":"13235","miles_from_dt":21.85},{"city":"Yorkville","state_name":"New York","lat":43.11087,"lng":-75.27744,"zip":"13495","miles_from_dt":21.89},{"city":"New Hartford","state_name":"New York","lat":43.0576,"lng":-75.27495,"zip":"13413","miles_from_dt":22},{"city":"Washington Mills","state_name":"New York","lat":43.0566,"lng":-75.27399,"zip":"13479","miles_from_dt":22.06},{"city":"Syracuse","state_name":"New York","lat":43.07878,"lng":-76.14521,"zip":"13208","miles_from_dt":22.1},{"city":"Georgetown","state_name":"New York","lat":42.76243,"lng":-75.76296,"zip":"13072","miles_from_dt":22.23},{"city":"Syracuse","state_name":"New York","lat":43.04708,"lng":-76.14842,"zip":"13218","miles_from_dt":22.4},{"city":"Syracuse","state_name":"New York","lat":43.0488,"lng":-76.14983,"zip":"13221","miles_from_dt":22.46},{"city":"Syracuse","state_name":"New York","lat":43.04356,"lng":-76.15065,"zip":"13202","miles_from_dt":22.54},{"city":"Syracuse","state_name":"New York","lat":43.00474,"lng":-76.14163,"zip":"13205","miles_from_dt":22.57},{"city":"Syracuse","state_name":"New York","lat":43.04092,"lng":-76.15264,"zip":"13201","miles_from_dt":22.66},{"city":"Syracuse","state_name":"New York","lat":43.05008,"lng":-76.15453,"zip":"13261","miles_from_dt":22.69},{"city":"Chadwicks","state_name":"New York","lat":43.02705,"lng":-75.26593,"zip":"13319","miles_from_dt":22.72},{"city":"Westdale","state_name":"New York","lat":43.40075,"lng":-75.81995,"zip":"13483","miles_from_dt":22.72},{"city":"Syracuse","state_name":"New York","lat":43.04858,"lng":-76.15656,"zip":"13252","miles_from_dt":22.8},{"city":"Stittville","state_name":"New York","lat":43.22028,"lng":-75.29853,"zip":"13469","miles_from_dt":22.81},{"city":"Marcy","state_name":"New York","lat":43.17041,"lng":-75.27188,"zip":"13403","miles_from_dt":22.9},{"city":"Camden","state_name":"New York","lat":43.41492,"lng":-75.73963,"zip":"13316","miles_from_dt":23.04},{"city":"North Brookfield","state_name":"New York","lat":42.84519,"lng":-75.38213,"zip":"13418","miles_from_dt":23.25},{"city":"Ava","state_name":"New York","lat":43.36992,"lng":-75.46636,"zip":"13303","miles_from_dt":23.33},{"city":"Earlville","state_name":"New York","lat":42.75831,"lng":-75.57452,"zip":"13332","miles_from_dt":23.35},{"city":"Sauquoit","state_name":"New York","lat":43.00145,"lng":-75.25855,"zip":"13456","miles_from_dt":23.45},{"city":"Syracuse","state_name":"New York","lat":43.01221,"lng":-76.16354,"zip":"13207","miles_from_dt":23.54},{"city":"Syracuse","state_name":"New York","lat":43.07132,"lng":-76.17368,"zip":"13290","miles_from_dt":23.56},{"city":"Hubbardsville","state_name":"New York","lat":42.80971,"lng":-75.42401,"zip":"13355","miles_from_dt":23.69},{"city":"Syracuse","state_name":"New York","lat":43.05204,"lng":-76.17666,"zip":"13204","miles_from_dt":23.79},{"city":"West Monroe","state_name":"New York","lat":43.3171,"lng":-76.0571,"zip":"13167","miles_from_dt":23.95},{"city":"Utica","state_name":"New York","lat":43.10014,"lng":-75.23291,"zip":"13503","miles_from_dt":24.09},{"city":"Utica","state_name":"New York","lat":43.10041,"lng":-75.23047,"zip":"13505","miles_from_dt":24.21},{"city":"Utica","state_name":"New York","lat":43.0977,"lng":-75.22926,"zip":"13599","miles_from_dt":24.27},{"city":"Brewerton","state_name":"New York","lat":43.2236,"lng":-76.14993,"zip":"13029","miles_from_dt":24.36},{"city":"Utica","state_name":"New York","lat":43.08138,"lng":-75.22611,"zip":"13501","miles_from_dt":24.4},{"city":"La Fayette","state_name":"New York","lat":42.88938,"lng":-76.11314,"zip":"13084","miles_from_dt":24.44},{"city":"Liverpool","state_name":"New York","lat":43.10787,"lng":-76.19096,"zip":"13088","miles_from_dt":24.48},{"city":"Cassville","state_name":"New York","lat":42.92366,"lng":-75.25958,"zip":"13318","miles_from_dt":25.23},{"city":"Nedrow","state_name":"New York","lat":42.94233,"lng":-76.1695,"zip":"13120","miles_from_dt":25.27},{"city":"Holland Patent","state_name":"New York","lat":43.26612,"lng":-75.27199,"zip":"13354","miles_from_dt":25.45},{"city":"De Ruyter","state_name":"New York","lat":42.72838,"lng":-75.86957,"zip":"13052","miles_from_dt":25.74},{"city":"Clay","state_name":"New York","lat":43.19079,"lng":-76.19711,"zip":"13041","miles_from_dt":25.82},{"city":"Liverpool","state_name":"New York","lat":43.15162,"lng":-76.21344,"zip":"13090","miles_from_dt":25.99},{"city":"Williamstown","state_name":"New York","lat":43.43162,"lng":-75.90102,"zip":"13493","miles_from_dt":26.02},{"city":"Apulia Station","state_name":"New York","lat":42.81646,"lng":-76.07458,"zip":"13020","miles_from_dt":26.09},{"city":"Syracuse","state_name":"New York","lat":43.03969,"lng":-76.22277,"zip":"13219","miles_from_dt":26.2},{"city":"Mallory","state_name":"New York","lat":43.32652,"lng":-76.10507,"zip":"13103","miles_from_dt":26.2},{"city":"Bridgewater","state_name":"New York","lat":42.88715,"lng":-75.26228,"zip":"13313","miles_from_dt":26.31},{"city":"Utica","state_name":"New York","lat":43.08521,"lng":-75.18838,"zip":"13504","miles_from_dt":26.31},{"city":"Liverpool","state_name":"New York","lat":43.13977,"lng":-76.22722,"zip":"13089","miles_from_dt":26.54},{"city":"Westernville","state_name":"New York","lat":43.35707,"lng":-75.34088,"zip":"13486","miles_from_dt":26.55},{"city":"Brookfield","state_name":"New York","lat":42.82476,"lng":-75.31568,"zip":"13314","miles_from_dt":26.68},{"city":"Clayville","state_name":"New York","lat":42.96661,"lng":-75.20445,"zip":"13322","miles_from_dt":26.74},{"city":"Syracuse","state_name":"New York","lat":43.08581,"lng":-76.24355,"zip":"13209","miles_from_dt":27.08},{"city":"Syracuse","state_name":"New York","lat":42.97852,"lng":-76.22979,"zip":"13215","miles_from_dt":27.35},{"city":"Smyrna","state_name":"New York","lat":42.68632,"lng":-75.61998,"zip":"13464","miles_from_dt":27.68},{"city":"Utica","state_name":"New York","lat":43.14121,"lng":-75.16584,"zip":"13502","miles_from_dt":27.74},{"city":"West Leyden","state_name":"New York","lat":43.46698,"lng":-75.52928,"zip":"13489","miles_from_dt":28.07},{"city":"Tully","state_name":"New York","lat":42.80321,"lng":-76.11545,"zip":"13159","miles_from_dt":28.22},{"city":"West Edmeston","state_name":"New York","lat":42.7865,"lng":-75.3165,"zip":"13485","miles_from_dt":28.48},{"city":"Truxton","state_name":"New York","lat":42.71603,"lng":-75.97626,"zip":"13158","miles_from_dt":28.68},{"city":"Central Square","state_name":"New York","lat":43.32268,"lng":-76.17402,"zip":"13036","miles_from_dt":28.79},{"city":"Hastings","state_name":"New York","lat":43.35364,"lng":-76.15182,"zip":"13076","miles_from_dt":29.21},{"city":"South Otselic","state_name":"New York","lat":42.65945,"lng":-75.77136,"zip":"13155","miles_from_dt":29.34},{"city":"Leonardsville","state_name":"New York","lat":42.80501,"lng":-75.26105,"zip":"13364","miles_from_dt":29.67},{"city":"Plymouth","state_name":"New York","lat":42.6531,"lng":-75.66286,"zip":"13832","miles_from_dt":29.69},{"city":"Barneveld","state_name":"New York","lat":43.23954,"lng":-75.1589,"zip":"13304","miles_from_dt":29.82},{"city":"Pennellville","state_name":"New York","lat":43.26547,"lng":-76.24446,"zip":"13132","miles_from_dt":29.9}],"targetCityZipCode":"13163","targetCityState":"New York"},"__N_SSG":true}