{"pageProps":{"stateName":"New-york","cityName":"wanakena","nearbyCities":[{"city":"Star Lake","state_name":"New York","lat":44.12612,"lng":-75.02319,"zip":"13690","miles_from_dt":4.92},{"city":"Newton Falls","state_name":"New York","lat":44.21404,"lng":-74.95557,"zip":"13666","miles_from_dt":7.64},{"city":"Cranberry Lake","state_name":"New York","lat":44.2005,"lng":-74.81818,"zip":"12927","miles_from_dt":8.58},{"city":"Oswegatchie","state_name":"New York","lat":44.18264,"lng":-75.11635,"zip":"13670","miles_from_dt":10.76},{"city":"Fine","state_name":"New York","lat":44.2594,"lng":-75.14324,"zip":"13639","miles_from_dt":15.07},{"city":"Childwold","state_name":"New York","lat":44.33381,"lng":-74.7827,"zip":"12922","miles_from_dt":17.38},{"city":"Harrisville","state_name":"New York","lat":44.14977,"lng":-75.29908,"zip":"13648","miles_from_dt":18.68},{"city":"Long Lake","state_name":"New York","lat":43.98698,"lng":-74.59024,"zip":"12847","miles_from_dt":18.72},{"city":"Russell","state_name":"New York","lat":44.36577,"lng":-75.0464,"zip":"13684","miles_from_dt":18.93},{"city":"Eagle Bay","state_name":"New York","lat":43.81706,"lng":-74.97284,"zip":"13331","miles_from_dt":20},{"city":"Croghan","state_name":"New York","lat":43.96047,"lng":-75.28474,"zip":"13327","miles_from_dt":20.35},{"city":"Edwards","state_name":"New York","lat":44.29915,"lng":-75.26188,"zip":"13635","miles_from_dt":21.29},{"city":"Piercefield","state_name":"New York","lat":44.30279,"lng":-74.59187,"zip":"12973","miles_from_dt":21.59},{"city":"South Colton","state_name":"New York","lat":44.44744,"lng":-74.82516,"zip":"13687","miles_from_dt":24.19},{"city":"Raquette Lake","state_name":"New York","lat":43.80501,"lng":-74.67034,"zip":"13436","miles_from_dt":24.4},{"city":"Tupper Lake","state_name":"New York","lat":44.22279,"lng":-74.44056,"zip":"12986","miles_from_dt":25.59},{"city":"Lowville","state_name":"New York","lat":43.85563,"lng":-75.31772,"zip":"13367","miles_from_dt":25.94},{"city":"Natural Bridge","state_name":"New York","lat":44.05227,"lng":-75.44933,"zip":"13665","miles_from_dt":26.17},{"city":"Hermon","state_name":"New York","lat":44.43579,"lng":-75.21338,"zip":"13652","miles_from_dt":26.85},{"city":"Inlet","state_name":"New York","lat":43.72457,"lng":-74.73577,"zip":"13360","miles_from_dt":27.98},{"city":"Parishville","state_name":"New York","lat":44.48166,"lng":-74.67987,"zip":"13672","miles_from_dt":28.78},{"city":"Beaver Falls","state_name":"New York","lat":43.89329,"lng":-75.43144,"zip":"13305","miles_from_dt":29.01},{"city":"Thendara","state_name":"New York","lat":43.69491,"lng":-75.06072,"zip":"13472","miles_from_dt":29.07},{"city":"Hailesboro","state_name":"New York","lat":44.30878,"lng":-75.44655,"zip":"13645","miles_from_dt":29.31},{"city":"Castorland","state_name":"New York","lat":43.89989,"lng":-75.45265,"zip":"13620","miles_from_dt":29.71},{"city":"Colton","state_name":"New York","lat":44.5384,"lng":-74.92135,"zip":"13625","miles_from_dt":29.92}],"targetCityZipCode":"13695","targetCityState":"New York"},"__N_SSG":true}