{"pageProps":{"stateName":"New-york","cityName":"west-oneonta","nearbyCities":[{"city":"Laurens","state_name":"New York","lat":42.5513,"lng":-75.13644,"zip":"13796","miles_from_dt":3.22},{"city":"Otego","state_name":"New York","lat":42.44329,"lng":-75.20154,"zip":"13825","miles_from_dt":5.24},{"city":"Oneonta","state_name":"New York","lat":42.47204,"lng":-75.03893,"zip":"13820","miles_from_dt":5.71},{"city":"Morris","state_name":"New York","lat":42.52797,"lng":-75.25657,"zip":"13808","miles_from_dt":6.09},{"city":"New Lisbon","state_name":"New York","lat":42.59714,"lng":-75.19729,"zip":"13415","miles_from_dt":6.98},{"city":"Mount Vision","state_name":"New York","lat":42.61188,"lng":-75.11157,"zip":"13810","miles_from_dt":7.55},{"city":"Colliersville","state_name":"New York","lat":42.49003,"lng":-74.98209,"zip":"13747","miles_from_dt":8.21},{"city":"Portlandville","state_name":"New York","lat":42.54903,"lng":-74.96727,"zip":"13834","miles_from_dt":9.41},{"city":"Gilbertsville","state_name":"New York","lat":42.47023,"lng":-75.33458,"zip":"13776","miles_from_dt":10.15},{"city":"Garrattsville","state_name":"New York","lat":42.64766,"lng":-75.18918,"zip":"13342","miles_from_dt":10.16},{"city":"West Davenport","state_name":"New York","lat":42.45573,"lng":-74.94989,"zip":"13860","miles_from_dt":10.36},{"city":"Wells Bridge","state_name":"New York","lat":42.37123,"lng":-75.24916,"zip":"13859","miles_from_dt":10.74},{"city":"Treadwell","state_name":"New York","lat":42.36037,"lng":-75.05465,"zip":"13846","miles_from_dt":10.91},{"city":"Milford","state_name":"New York","lat":42.61718,"lng":-74.98612,"zip":"13807","miles_from_dt":11.09},{"city":"Franklin","state_name":"New York","lat":42.33706,"lng":-75.14728,"zip":"13775","miles_from_dt":11.58},{"city":"Maryland","state_name":"New York","lat":42.53849,"lng":-74.91278,"zip":"12116","miles_from_dt":11.91},{"city":"South New Berlin","state_name":"New York","lat":42.53468,"lng":-75.37584,"zip":"13843","miles_from_dt":12.14},{"city":"Meridale","state_name":"New York","lat":42.37894,"lng":-74.97315,"zip":"13806","miles_from_dt":12.23},{"city":"New Berlin","state_name":"New York","lat":42.63723,"lng":-75.30981,"zip":"13411","miles_from_dt":12.54},{"city":"West Burlington","state_name":"New York","lat":42.69661,"lng":-75.17695,"zip":"13482","miles_from_dt":13.36},{"city":"Davenport Center","state_name":"New York","lat":42.45745,"lng":-74.88363,"zip":"13751","miles_from_dt":13.58},{"city":"Hartwick","state_name":"New York","lat":42.70202,"lng":-75.06398,"zip":"13348","miles_from_dt":14.18},{"city":"East Meredith","state_name":"New York","lat":42.40915,"lng":-74.89321,"zip":"13757","miles_from_dt":14.31},{"city":"Mount Upton","state_name":"New York","lat":42.40849,"lng":-75.3914,"zip":"13809","miles_from_dt":14.4},{"city":"Unadilla","state_name":"New York","lat":42.33785,"lng":-75.31392,"zip":"13849","miles_from_dt":14.51},{"city":"Edmeston","state_name":"New York","lat":42.70193,"lng":-75.24847,"zip":"13335","miles_from_dt":14.66},{"city":"Davenport","state_name":"New York","lat":42.47739,"lng":-74.83904,"zip":"13750","miles_from_dt":15.57},{"city":"Burlington Flats","state_name":"New York","lat":42.7438,"lng":-75.1385,"zip":"13315","miles_from_dt":16.5},{"city":"Schenevus","state_name":"New York","lat":42.59229,"lng":-74.82337,"zip":"12155","miles_from_dt":17.33},{"city":"Delhi","state_name":"New York","lat":42.30873,"lng":-74.92538,"zip":"13753","miles_from_dt":17.48},{"city":"Guilford","state_name":"New York","lat":42.42496,"lng":-75.48128,"zip":"13780","miles_from_dt":18.21},{"city":"Sidney Center","state_name":"New York","lat":42.24824,"lng":-75.26007,"zip":"13839","miles_from_dt":18.72},{"city":"Fly Creek","state_name":"New York","lat":42.75114,"lng":-74.9816,"zip":"13337","miles_from_dt":18.86},{"city":"Cooperstown","state_name":"New York","lat":42.71865,"lng":-74.90374,"zip":"13326","miles_from_dt":19.1},{"city":"Schuyler Lake","state_name":"New York","lat":42.77527,"lng":-75.03691,"zip":"13457","miles_from_dt":19.42},{"city":"Sidney","state_name":"New York","lat":42.28423,"lng":-75.39595,"zip":"13838","miles_from_dt":20.03},{"city":"Norwich","state_name":"New York","lat":42.54712,"lng":-75.53413,"zip":"13815","miles_from_dt":20.25},{"city":"Sherburne","state_name":"New York","lat":42.68492,"lng":-75.45572,"zip":"13460","miles_from_dt":20.28},{"city":"Bloomville","state_name":"New York","lat":42.36614,"lng":-74.78982,"zip":"13739","miles_from_dt":20.37},{"city":"North Norwich","state_name":"New York","lat":42.61655,"lng":-75.52584,"zip":"13814","miles_from_dt":21.07},{"city":"West Edmeston","state_name":"New York","lat":42.7865,"lng":-75.3165,"zip":"13485","miles_from_dt":21.39},{"city":"Leonardsville","state_name":"New York","lat":42.80501,"lng":-75.26105,"zip":"13364","miles_from_dt":21.6},{"city":"Roseboom","state_name":"New York","lat":42.7026,"lng":-74.81263,"zip":"13450","miles_from_dt":21.63},{"city":"Trout Creek","state_name":"New York","lat":42.20443,"lng":-75.27777,"zip":"13847","miles_from_dt":21.87},{"city":"Bainbridge","state_name":"New York","lat":42.30459,"lng":-75.4793,"zip":"13733","miles_from_dt":22.12},{"city":"Westford","state_name":"New York","lat":42.67447,"lng":-74.76796,"zip":"13488","miles_from_dt":22.37},{"city":"Worcester","state_name":"New York","lat":42.6094,"lng":-74.72587,"zip":"12197","miles_from_dt":22.41},{"city":"South Kortright","state_name":"New York","lat":42.37922,"lng":-74.72302,"zip":"13842","miles_from_dt":23.09},{"city":"Harpersfield","state_name":"New York","lat":42.4485,"lng":-74.69563,"zip":"13786","miles_from_dt":23.11},{"city":"Walton","state_name":"New York","lat":42.16666,"lng":-75.16633,"zip":"13856","miles_from_dt":23.37},{"city":"Charlotteville","state_name":"New York","lat":42.53564,"lng":-74.68468,"zip":"12036","miles_from_dt":23.43},{"city":"Masonville","state_name":"New York","lat":42.20708,"lng":-75.37562,"zip":"13804","miles_from_dt":23.79},{"city":"Brookfield","state_name":"New York","lat":42.82476,"lng":-75.31568,"zip":"13314","miles_from_dt":23.8},{"city":"Hamden","state_name":"New York","lat":42.17304,"lng":-74.9836,"zip":"13782","miles_from_dt":24.29},{"city":"West Winfield","state_name":"New York","lat":42.85957,"lng":-75.17698,"zip":"13491","miles_from_dt":24.55},{"city":"Richfield Springs","state_name":"New York","lat":42.85491,"lng":-74.99724,"zip":"13439","miles_from_dt":25.26},{"city":"Oxford","state_name":"New York","lat":42.43868,"lng":-75.6295,"zip":"13830","miles_from_dt":25.35},{"city":"Hubbardsville","state_name":"New York","lat":42.80971,"lng":-75.42401,"zip":"13355","miles_from_dt":25.5},{"city":"East Worcester","state_name":"New York","lat":42.60711,"lng":-74.65887,"zip":"12064","miles_from_dt":25.62},{"city":"Bovina Center","state_name":"New York","lat":42.27535,"lng":-74.74498,"zip":"13740","miles_from_dt":25.74},{"city":"Delancey","state_name":"New York","lat":42.17257,"lng":-74.90379,"zip":"13752","miles_from_dt":25.96},{"city":"Jefferson","state_name":"New York","lat":42.49599,"lng":-74.6262,"zip":"12093","miles_from_dt":26.33},{"city":"North Brookfield","state_name":"New York","lat":42.84519,"lng":-75.38213,"zip":"13418","miles_from_dt":26.5},{"city":"Hobart","state_name":"New York","lat":42.34914,"lng":-74.65658,"zip":"13788","miles_from_dt":27.03},{"city":"Bridgewater","state_name":"New York","lat":42.88715,"lng":-75.26228,"zip":"13313","miles_from_dt":27.1},{"city":"Smyrna","state_name":"New York","lat":42.68632,"lng":-75.61998,"zip":"13464","miles_from_dt":27.43},{"city":"Afton","state_name":"New York","lat":42.23201,"lng":-75.53127,"zip":"13730","miles_from_dt":27.43},{"city":"Cherry Valley","state_name":"New York","lat":42.77353,"lng":-74.74325,"zip":"13320","miles_from_dt":27.5},{"city":"Springfield Center","state_name":"New York","lat":42.84696,"lng":-74.86448,"zip":"13468","miles_from_dt":27.51},{"city":"East Springfield","state_name":"New York","lat":42.83091,"lng":-74.82207,"zip":"13333","miles_from_dt":27.78},{"city":"Earlville","state_name":"New York","lat":42.75831,"lng":-75.57452,"zip":"13332","miles_from_dt":28.16},{"city":"South Plymouth","state_name":"New York","lat":42.60927,"lng":-75.68083,"zip":"13844","miles_from_dt":28.45},{"city":"Plymouth","state_name":"New York","lat":42.6531,"lng":-75.66286,"zip":"13832","miles_from_dt":28.49},{"city":"Stamford","state_name":"New York","lat":42.42101,"lng":-74.59011,"zip":"12167","miles_from_dt":28.77},{"city":"Cassville","state_name":"New York","lat":42.92366,"lng":-75.25958,"zip":"13318","miles_from_dt":29.53},{"city":"East Pharsalia","state_name":"New York","lat":42.55502,"lng":-75.71657,"zip":"13758","miles_from_dt":29.56},{"city":"Summit","state_name":"New York","lat":42.55489,"lng":-74.56161,"zip":"12175","miles_from_dt":29.81},{"city":"New Kingston","state_name":"New York","lat":42.23976,"lng":-74.6805,"zip":"12459","miles_from_dt":29.86},{"city":"Hamilton","state_name":"New York","lat":42.82093,"lng":-75.54453,"zip":"13346","miles_from_dt":29.96}],"targetCityZipCode":"13861","targetCityState":"New York"},"__N_SSG":true}