{"pageProps":{"stateName":"New-york","cityName":"westerlo","nearbyCities":[{"city":"Clarksville","state_name":"New York","lat":42.55893,"lng":-73.97028,"zip":"12041","miles_from_dt":4.71},{"city":"Rensselaerville","state_name":"New York","lat":42.51365,"lng":-74.15147,"zip":"12147","miles_from_dt":5.53},{"city":"Greenville","state_name":"New York","lat":42.43151,"lng":-74.03155,"zip":"12083","miles_from_dt":5.94},{"city":"Alcove","state_name":"New York","lat":42.48889,"lng":-73.93159,"zip":"12007","miles_from_dt":6.03},{"city":"Medusa","state_name":"New York","lat":42.45781,"lng":-74.1409,"zip":"12120","miles_from_dt":6.45},{"city":"Coeymans Hollow","state_name":"New York","lat":42.48864,"lng":-73.92119,"zip":"12046","miles_from_dt":6.54},{"city":"East Berne","state_name":"New York","lat":42.61403,"lng":-74.05811,"zip":"12059","miles_from_dt":6.73},{"city":"Feura Bush","state_name":"New York","lat":42.56083,"lng":-73.91663,"zip":"12067","miles_from_dt":7.13},{"city":"Voorheesville","state_name":"New York","lat":42.62502,"lng":-73.9737,"zip":"12186","miles_from_dt":8.25},{"city":"Berne","state_name":"New York","lat":42.60656,"lng":-74.16573,"zip":"12023","miles_from_dt":8.78},{"city":"Oak Hill","state_name":"New York","lat":42.42357,"lng":-74.16676,"zip":"12460","miles_from_dt":9.03},{"city":"Surprise","state_name":"New York","lat":42.38839,"lng":-73.96787,"zip":"12176","miles_from_dt":9.69},{"city":"Dormansville","state_name":"New York","lat":42.43842,"lng":-74.20308,"zip":"12055","miles_from_dt":9.81},{"city":"Hannacroix","state_name":"New York","lat":42.42794,"lng":-73.8931,"zip":"12087","miles_from_dt":9.84},{"city":"Ravena","state_name":"New York","lat":42.48525,"lng":-73.85218,"zip":"12143","miles_from_dt":10},{"city":"East Durham","state_name":"New York","lat":42.37968,"lng":-74.11136,"zip":"12423","miles_from_dt":10.11},{"city":"South Bethlehem","state_name":"New York","lat":42.53369,"lng":-73.84606,"zip":"12161","miles_from_dt":10.13},{"city":"Delmar","state_name":"New York","lat":42.60764,"lng":-73.86864,"zip":"12054","miles_from_dt":10.88},{"city":"Freehold","state_name":"New York","lat":42.35877,"lng":-74.01843,"zip":"12431","miles_from_dt":11},{"city":"Knox","state_name":"New York","lat":42.66981,"lng":-74.11989,"zip":"12107","miles_from_dt":11.24},{"city":"Preston Hollow","state_name":"New York","lat":42.44521,"lng":-74.2421,"zip":"12469","miles_from_dt":11.31},{"city":"Selkirk","state_name":"New York","lat":42.53927,"lng":-73.81903,"zip":"12158","miles_from_dt":11.55},{"city":"Durham","state_name":"New York","lat":42.39205,"lng":-74.20232,"zip":"12422","miles_from_dt":11.86},{"city":"Slingerlands","state_name":"New York","lat":42.64328,"lng":-73.88503,"zip":"12159","miles_from_dt":11.87},{"city":"Climax","state_name":"New York","lat":42.38185,"lng":-73.89162,"zip":"12042","miles_from_dt":12.14},{"city":"Cornwallville","state_name":"New York","lat":42.35863,"lng":-74.1609,"zip":"12418","miles_from_dt":12.48},{"city":"Altamont","state_name":"New York","lat":42.69824,"lng":-74.03398,"zip":"12009","miles_from_dt":12.51},{"city":"Albany","state_name":"New York","lat":42.69718,"lng":-73.99431,"zip":"12249","miles_from_dt":12.68},{"city":"Coeymans","state_name":"New York","lat":42.47974,"lng":-73.79682,"zip":"12045","miles_from_dt":12.85},{"city":"Albany","state_name":"New York","lat":42.6649,"lng":-73.88326,"zip":"12220","miles_from_dt":13.06},{"city":"Earlton","state_name":"New York","lat":42.3498,"lng":-73.923,"zip":"12058","miles_from_dt":13.08},{"city":"Guilderland Center","state_name":"New York","lat":42.70043,"lng":-73.96659,"zip":"12085","miles_from_dt":13.24},{"city":"West Coxsackie","state_name":"New York","lat":42.40428,"lng":-73.82136,"zip":"12192","miles_from_dt":13.76},{"city":"Middleburgh","state_name":"New York","lat":42.54341,"lng":-74.31138,"zip":"12122","miles_from_dt":13.81},{"city":"Gallupville","state_name":"New York","lat":42.66207,"lng":-74.22992,"zip":"12073","miles_from_dt":13.81},{"city":"New Baltimore","state_name":"New York","lat":42.44652,"lng":-73.78494,"zip":"12124","miles_from_dt":14.07},{"city":"Cairo","state_name":"New York","lat":42.31338,"lng":-74.02628,"zip":"12413","miles_from_dt":14.09},{"city":"Acra","state_name":"New York","lat":42.31585,"lng":-74.0989,"zip":"12405","miles_from_dt":14.18},{"city":"Glenmont","state_name":"New York","lat":42.59426,"lng":-73.7841,"zip":"12077","miles_from_dt":14.26},{"city":"Albany","state_name":"New York","lat":42.66466,"lng":-73.84173,"zip":"12224","miles_from_dt":14.47},{"city":"Guilderland","state_name":"New York","lat":42.70411,"lng":-73.90182,"zip":"12084","miles_from_dt":14.78},{"city":"Albany","state_name":"New York","lat":42.65042,"lng":-73.81441,"zip":"12229","miles_from_dt":14.86},{"city":"Albany","state_name":"New York","lat":42.68138,"lng":-73.85099,"zip":"12203","miles_from_dt":14.99},{"city":"Albany","state_name":"New York","lat":42.65293,"lng":-73.80835,"zip":"12208","miles_from_dt":15.21},{"city":"Albany","state_name":"New York","lat":42.67967,"lng":-73.84011,"zip":"12212","miles_from_dt":15.27},{"city":"Albany","state_name":"New York","lat":42.64589,"lng":-73.79766,"zip":"12237","miles_from_dt":15.36},{"city":"Albany","state_name":"New York","lat":42.68632,"lng":-73.84693,"zip":"12214","miles_from_dt":15.38},{"city":"Albany","state_name":"New York","lat":42.6382,"lng":-73.78976,"zip":"12209","miles_from_dt":15.4},{"city":"Albany","state_name":"New York","lat":42.68226,"lng":-73.83811,"zip":"12225","miles_from_dt":15.47},{"city":"Leeds","state_name":"New York","lat":42.30337,"lng":-73.94802,"zip":"12451","miles_from_dt":15.54},{"city":"Schodack Landing","state_name":"New York","lat":42.47764,"lng":-73.74354,"zip":"12156","miles_from_dt":15.55},{"city":"Albany","state_name":"New York","lat":42.68955,"lng":-73.84598,"zip":"12227","miles_from_dt":15.58},{"city":"Coxsackie","state_name":"New York","lat":42.34493,"lng":-73.83938,"zip":"12051","miles_from_dt":15.81},{"city":"Albany","state_name":"New York","lat":42.68637,"lng":-73.82656,"zip":"12222","miles_from_dt":16.08},{"city":"Albany","state_name":"New York","lat":42.63039,"lng":-73.76198,"zip":"12241","miles_from_dt":16.34},{"city":"Albany","state_name":"New York","lat":42.67931,"lng":-73.80987,"zip":"12226","miles_from_dt":16.34},{"city":"Albany","state_name":"New York","lat":42.63355,"lng":-73.763,"zip":"12202","miles_from_dt":16.4},{"city":"Albany","state_name":"New York","lat":42.68901,"lng":-73.82116,"zip":"12246","miles_from_dt":16.4},{"city":"Quaker Street","state_name":"New York","lat":42.733,"lng":-74.1866,"zip":"12141","miles_from_dt":16.6},{"city":"Schoharie","state_name":"New York","lat":42.66742,"lng":-74.29892,"zip":"12157","miles_from_dt":16.66},{"city":"Maplecrest","state_name":"New York","lat":42.2869,"lng":-74.15038,"zip":"12454","miles_from_dt":16.81},{"city":"Stuyvesant","state_name":"New York","lat":42.39042,"lng":-73.76196,"zip":"12173","miles_from_dt":16.83},{"city":"Hensonville","state_name":"New York","lat":42.29674,"lng":-74.18789,"zip":"12439","miles_from_dt":16.92},{"city":"Albany","state_name":"New York","lat":42.64568,"lng":-73.75666,"zip":"12228","miles_from_dt":17.1},{"city":"Purling","state_name":"New York","lat":42.26932,"lng":-74.05515,"zip":"12470","miles_from_dt":17.12},{"city":"Albany","state_name":"New York","lat":42.65152,"lng":-73.76117,"zip":"12244","miles_from_dt":17.12},{"city":"Schenectady","state_name":"New York","lat":42.74938,"lng":-73.92562,"zip":"12303","miles_from_dt":17.12},{"city":"Albany","state_name":"New York","lat":42.65203,"lng":-73.76145,"zip":"12238","miles_from_dt":17.13},{"city":"Albany","state_name":"New York","lat":42.67415,"lng":-73.78196,"zip":"12206","miles_from_dt":17.18},{"city":"Albany","state_name":"New York","lat":42.65082,"lng":-73.75855,"zip":"12239","miles_from_dt":17.21},{"city":"Albany","state_name":"New York","lat":42.65188,"lng":-73.75841,"zip":"12236","miles_from_dt":17.25},{"city":"Albany","state_name":"New York","lat":42.65178,"lng":-73.75795,"zip":"12223","miles_from_dt":17.27},{"city":"Albany","state_name":"New York","lat":42.64974,"lng":-73.75606,"zip":"12235","miles_from_dt":17.27},{"city":"Albany","state_name":"New York","lat":42.64924,"lng":-73.75555,"zip":"12233","miles_from_dt":17.28},{"city":"Castleton On Hudson","state_name":"New York","lat":42.53665,"lng":-73.70558,"zip":"12033","miles_from_dt":17.29},{"city":"Albany","state_name":"New York","lat":42.65447,"lng":-73.75972,"zip":"12255","miles_from_dt":17.29},{"city":"Albany","state_name":"New York","lat":42.65149,"lng":-73.7569,"zip":"12240","miles_from_dt":17.3},{"city":"Albany","state_name":"New York","lat":42.66939,"lng":-73.77355,"zip":"12260","miles_from_dt":17.31},{"city":"Albany","state_name":"New York","lat":42.65275,"lng":-73.75755,"zip":"12242","miles_from_dt":17.32},{"city":"Albany","state_name":"New York","lat":42.65398,"lng":-73.75837,"zip":"12248","miles_from_dt":17.33},{"city":"Albany","state_name":"New York","lat":42.65606,"lng":-73.76013,"zip":"12231","miles_from_dt":17.34},{"city":"Albany","state_name":"New York","lat":42.67906,"lng":-73.78299,"zip":"12261","miles_from_dt":17.35},{"city":"Albany","state_name":"New York","lat":42.65357,"lng":-73.75747,"zip":"12257","miles_from_dt":17.36},{"city":"Albany","state_name":"New York","lat":42.6547,"lng":-73.75777,"zip":"12230","miles_from_dt":17.38},{"city":"Albany","state_name":"New York","lat":42.67122,"lng":-73.7729,"zip":"12245","miles_from_dt":17.41},{"city":"Albany","state_name":"New York","lat":42.64832,"lng":-73.75161,"zip":"12201","miles_from_dt":17.42},{"city":"Duanesburg","state_name":"New York","lat":42.76761,"lng":-74.0905,"zip":"12056","miles_from_dt":17.46},{"city":"Albany","state_name":"New York","lat":42.6526,"lng":-73.75405,"zip":"12232","miles_from_dt":17.47},{"city":"Albany","state_name":"New York","lat":42.71719,"lng":-73.83006,"zip":"12205","miles_from_dt":17.57},{"city":"Windham","state_name":"New York","lat":42.32669,"lng":-74.27256,"zip":"12496","miles_from_dt":17.61},{"city":"Albany","state_name":"New York","lat":42.66399,"lng":-73.75985,"zip":"12210","miles_from_dt":17.66},{"city":"Round Top","state_name":"New York","lat":42.26157,"lng":-74.02827,"zip":"12473","miles_from_dt":17.66},{"city":"Albany","state_name":"New York","lat":42.72872,"lng":-73.84776,"zip":"12288","miles_from_dt":17.68},{"city":"South Cairo","state_name":"New York","lat":42.26841,"lng":-73.95587,"zip":"12482","miles_from_dt":17.74},{"city":"Albany","state_name":"New York","lat":42.65379,"lng":-73.74642,"zip":"12243","miles_from_dt":17.84},{"city":"Delanson","state_name":"New York","lat":42.75283,"lng":-74.18791,"zip":"12053","miles_from_dt":17.86},{"city":"Albany","state_name":"New York","lat":42.65657,"lng":-73.74749,"zip":"12207","miles_from_dt":17.9},{"city":"Rensselaer","state_name":"New York","lat":42.63106,"lng":-73.71801,"zip":"12144","miles_from_dt":18.36},{"city":"Albany","state_name":"New York","lat":42.67181,"lng":-73.7365,"zip":"12234","miles_from_dt":18.94},{"city":"Gilboa","state_name":"New York","lat":42.40868,"lng":-74.38506,"zip":"12076","miles_from_dt":19},{"city":"Albany","state_name":"New York","lat":42.67301,"lng":-73.73524,"zip":"12250","miles_from_dt":19.04},{"city":"Kinderhook","state_name":"New York","lat":42.38871,"lng":-73.71228,"zip":"12106","miles_from_dt":19.1},{"city":"Schenectady","state_name":"New York","lat":42.77375,"lng":-73.89742,"zip":"12304","miles_from_dt":19.21},{"city":"Fultonham","state_name":"New York","lat":42.56971,"lng":-74.41521,"zip":"12071","miles_from_dt":19.33},{"city":"East Jewett","state_name":"New York","lat":42.24689,"lng":-74.14358,"zip":"12424","miles_from_dt":19.35},{"city":"Albany","state_name":"New York","lat":42.7083,"lng":-73.76393,"zip":"12211","miles_from_dt":19.42},{"city":"Athens","state_name":"New York","lat":42.28315,"lng":-73.82543,"zip":"12015","miles_from_dt":19.62},{"city":"Stuyvesant Falls","state_name":"New York","lat":42.35314,"lng":-73.72802,"zip":"12174","miles_from_dt":19.7},{"city":"Albany","state_name":"New York","lat":42.68227,"lng":-73.72788,"zip":"12247","miles_from_dt":19.71},{"city":"Albany","state_name":"New York","lat":42.68723,"lng":-73.72869,"zip":"12204","miles_from_dt":19.88},{"city":"Schenectady","state_name":"New York","lat":42.80686,"lng":-74.03344,"zip":"12306","miles_from_dt":20.01},{"city":"Niverville","state_name":"New York","lat":42.44156,"lng":-73.65835,"zip":"12130","miles_from_dt":20.35},{"city":"Columbiaville","state_name":"New York","lat":42.31504,"lng":-73.74881,"zip":"12050","miles_from_dt":20.53},{"city":"East Greenbush","state_name":"New York","lat":42.59915,"lng":-73.65658,"zip":"12061","miles_from_dt":20.53},{"city":"Schenectady","state_name":"New York","lat":42.80507,"lng":-73.93341,"zip":"12307","miles_from_dt":20.65},{"city":"Newtonville","state_name":"New York","lat":42.72445,"lng":-73.75091,"zip":"12128","miles_from_dt":20.66},{"city":"Schenectady","state_name":"New York","lat":42.81219,"lng":-73.95036,"zip":"12305","miles_from_dt":20.91},{"city":"East Schodack","state_name":"New York","lat":42.56442,"lng":-73.63826,"zip":"12063","miles_from_dt":20.93},{"city":"Valatie","state_name":"New York","lat":42.42272,"lng":-73.65387,"zip":"12184","miles_from_dt":20.94},{"city":"West Fulton","state_name":"New York","lat":42.53839,"lng":-74.45431,"zip":"12194","miles_from_dt":21.04},{"city":"Schenectady","state_name":"New York","lat":42.81324,"lng":-73.9394,"zip":"12301","miles_from_dt":21.11},{"city":"North Chatham","state_name":"New York","lat":42.47102,"lng":-73.63362,"zip":"12132","miles_from_dt":21.17},{"city":"Schenectady","state_name":"New York","lat":42.81417,"lng":-73.94,"zip":"12325","miles_from_dt":21.17},{"city":"Latham","state_name":"New York","lat":42.75349,"lng":-73.77671,"zip":"12110","miles_from_dt":21.23},{"city":"Schenectady","state_name":"New York","lat":42.81566,"lng":-73.94232,"zip":"12345","miles_from_dt":21.24},{"city":"Schenectady","state_name":"New York","lat":42.79693,"lng":-73.86785,"zip":"12309","miles_from_dt":21.28},{"city":"Catskill","state_name":"New York","lat":42.2211,"lng":-73.92356,"zip":"12414","miles_from_dt":21.33},{"city":"Haines Falls","state_name":"New York","lat":42.20447,"lng":-74.0746,"zip":"12436","miles_from_dt":21.64},{"city":"Howes Cave","state_name":"New York","lat":42.70396,"lng":-74.38456,"zip":"12092","miles_from_dt":21.66},{"city":"North Blenheim","state_name":"New York","lat":42.46573,"lng":-74.46249,"zip":"12131","miles_from_dt":21.71},{"city":"Ashland","state_name":"New York","lat":42.30075,"lng":-74.35343,"zip":"12407","miles_from_dt":21.79},{"city":"Schenectady","state_name":"New York","lat":42.82152,"lng":-73.92006,"zip":"12308","miles_from_dt":21.93},{"city":"Stottville","state_name":"New York","lat":42.28915,"lng":-73.73895,"zip":"12172","miles_from_dt":22.14},{"city":"Tannersville","state_name":"New York","lat":42.20507,"lng":-74.15288,"zip":"12485","miles_from_dt":22.26},{"city":"Nassau","state_name":"New York","lat":42.52239,"lng":-73.60636,"zip":"12123","miles_from_dt":22.31},{"city":"Jewett","state_name":"New York","lat":42.24942,"lng":-74.28993,"zip":"12444","miles_from_dt":22.38},{"city":"Esperance","state_name":"New York","lat":42.78011,"lng":-74.30291,"zip":"12066","miles_from_dt":22.46},{"city":"Watervliet","state_name":"New York","lat":42.73618,"lng":-73.71688,"zip":"12189","miles_from_dt":22.48},{"city":"Hunter","state_name":"New York","lat":42.22275,"lng":-74.23545,"zip":"12442","miles_from_dt":22.57},{"city":"Central Bridge","state_name":"New York","lat":42.73453,"lng":-74.37534,"zip":"12035","miles_from_dt":22.62},{"city":"Palenville","state_name":"New York","lat":42.1895,"lng":-74.01573,"zip":"12463","miles_from_dt":22.66},{"city":"Warnerville","state_name":"New York","lat":42.62632,"lng":-74.46537,"zip":"12187","miles_from_dt":22.82},{"city":"West Sand Lake","state_name":"New York","lat":42.63149,"lng":-73.61708,"zip":"12196","miles_from_dt":23.13},{"city":"Malden Bridge","state_name":"New York","lat":42.46747,"lng":-73.59338,"zip":"12115","miles_from_dt":23.24},{"city":"Troy","state_name":"New York","lat":42.73192,"lng":-73.6868,"zip":"12181","miles_from_dt":23.45},{"city":"Sloansville","state_name":"New York","lat":42.76325,"lng":-74.36619,"zip":"12160","miles_from_dt":23.65},{"city":"Wynantskill","state_name":"New York","lat":42.67819,"lng":-73.63285,"zip":"12198","miles_from_dt":23.7},{"city":"Pattersonville","state_name":"New York","lat":42.85727,"lng":-74.12922,"zip":"12137","miles_from_dt":23.88},{"city":"Troy","state_name":"New York","lat":42.74742,"lng":-73.69259,"zip":"12183","miles_from_dt":23.92},{"city":"Rexford","state_name":"New York","lat":42.83361,"lng":-73.84652,"zip":"12148","miles_from_dt":24.03},{"city":"Prattsville","state_name":"New York","lat":42.29998,"lng":-74.41375,"zip":"12468","miles_from_dt":24.16},{"city":"Alplaus","state_name":"New York","lat":42.85367,"lng":-73.9063,"zip":"12008","miles_from_dt":24.25},{"city":"Cohoes","state_name":"New York","lat":42.78396,"lng":-73.72655,"zip":"12047","miles_from_dt":24.49},{"city":"Rotterdam Junction","state_name":"New York","lat":42.87613,"lng":-74.04923,"zip":"12150","miles_from_dt":24.78},{"city":"Lexington","state_name":"New York","lat":42.23891,"lng":-74.34986,"zip":"12452","miles_from_dt":24.8},{"city":"Hudson","state_name":"New York","lat":42.22434,"lng":-73.75427,"zip":"12534","miles_from_dt":25.04},{"city":"Schenectady","state_name":"New York","lat":42.88188,"lng":-73.98323,"zip":"12302","miles_from_dt":25.36},{"city":"Old Chatham","state_name":"New York","lat":42.43249,"lng":-73.56016,"zip":"12136","miles_from_dt":25.37},{"city":"Ghent","state_name":"New York","lat":42.30145,"lng":-73.64046,"zip":"12075","miles_from_dt":25.42},{"city":"Elka Park","state_name":"New York","lat":42.14771,"lng":-74.11921,"zip":"12427","miles_from_dt":25.79},{"city":"Grand Gorge","state_name":"New York","lat":42.36491,"lng":-74.50793,"zip":"12434","miles_from_dt":25.98},{"city":"Mellenville","state_name":"New York","lat":42.26129,"lng":-73.66822,"zip":"12544","miles_from_dt":26.08},{"city":"Brainard","state_name":"New York","lat":42.48134,"lng":-73.53419,"zip":"12024","miles_from_dt":26.12},{"city":"Summit","state_name":"New York","lat":42.55489,"lng":-74.56161,"zip":"12175","miles_from_dt":26.59},{"city":"Claverack","state_name":"New York","lat":42.21661,"lng":-73.71639,"zip":"12513","miles_from_dt":26.65},{"city":"Clifton Park","state_name":"New York","lat":42.85402,"lng":-73.78654,"zip":"12065","miles_from_dt":26.68},{"city":"Poestenkill","state_name":"New York","lat":42.689,"lng":-73.56689,"zip":"12140","miles_from_dt":27.03},{"city":"West Kill","state_name":"New York","lat":42.18758,"lng":-74.33453,"zip":"12492","miles_from_dt":27.2},{"city":"Waterford","state_name":"New York","lat":42.8199,"lng":-73.69589,"zip":"12188","miles_from_dt":27.38},{"city":"Averill Park","state_name":"New York","lat":42.62926,"lng":-73.52662,"zip":"12018","miles_from_dt":27.47},{"city":"Philmont","state_name":"New York","lat":42.24849,"lng":-73.64584,"zip":"12565","miles_from_dt":27.52},{"city":"Carlisle","state_name":"New York","lat":42.76579,"lng":-74.46617,"zip":"12031","miles_from_dt":27.55},{"city":"Richmondville","state_name":"New York","lat":42.62011,"lng":-74.56692,"zip":"12149","miles_from_dt":27.65},{"city":"East Nassau","state_name":"New York","lat":42.52871,"lng":-73.501,"zip":"12062","miles_from_dt":27.7},{"city":"Lanesville","state_name":"New York","lat":42.13804,"lng":-74.22176,"zip":"12450","miles_from_dt":27.72},{"city":"Troy","state_name":"New York","lat":42.7516,"lng":-73.59997,"zip":"12180","miles_from_dt":27.79},{"city":"Cobleskill","state_name":"New York","lat":42.70357,"lng":-74.5267,"zip":"12043","miles_from_dt":27.81},{"city":"West Camp","state_name":"New York","lat":42.12355,"lng":-73.9251,"zip":"12490","miles_from_dt":27.83},{"city":"Chatham","state_name":"New York","lat":42.33506,"lng":-73.55714,"zip":"12037","miles_from_dt":27.85},{"city":"Hollowville","state_name":"New York","lat":42.20692,"lng":-73.68413,"zip":"12530","miles_from_dt":28.22},{"city":"Troy","state_name":"New York","lat":42.80044,"lng":-73.63519,"zip":"12182","miles_from_dt":28.54},{"city":"Stamford","state_name":"New York","lat":42.42101,"lng":-74.59011,"zip":"12167","miles_from_dt":28.72},{"city":"Burnt Hills","state_name":"New York","lat":42.92122,"lng":-73.90872,"zip":"12027","miles_from_dt":28.72},{"city":"Germantown","state_name":"New York","lat":42.12236,"lng":-73.85938,"zip":"12526","miles_from_dt":28.83},{"city":"East Chatham","state_name":"New York","lat":42.41325,"lng":-73.49284,"zip":"12060","miles_from_dt":29.03},{"city":"Livingston","state_name":"New York","lat":42.14151,"lng":-73.7782,"zip":"12541","miles_from_dt":29.27},{"city":"Ballston Lake","state_name":"New York","lat":42.92993,"lng":-73.88245,"zip":"12019","miles_from_dt":29.65},{"city":"West Lebanon","state_name":"New York","lat":42.47876,"lng":-73.46505,"zip":"12195","miles_from_dt":29.65},{"city":"Amsterdam","state_name":"New York","lat":42.93752,"lng":-74.17287,"zip":"12010","miles_from_dt":29.76},{"city":"Malden On Hudson","state_name":"New York","lat":42.0929,"lng":-73.93629,"zip":"12453","miles_from_dt":29.79},{"city":"Jefferson","state_name":"New York","lat":42.49599,"lng":-74.6262,"zip":"12093","miles_from_dt":29.81},{"city":"Fultonville","state_name":"New York","lat":42.88102,"lng":-74.36164,"zip":"12072","miles_from_dt":29.89},{"city":"Saugerties","state_name":"New York","lat":42.08528,"lng":-74.00028,"zip":"12477","miles_from_dt":29.89}],"targetCityZipCode":"12193","targetCityState":"New York"},"__N_SSG":true}