{"pageProps":{"stateName":"Nebraska","cityName":"belgrade","nearbyCities":[{"city":"Cedar Rapids","state_name":"Nebraska","lat":41.54445,"lng":-98.17041,"zip":"68627","miles_from_dt":7.53},{"city":"Fullerton","state_name":"Nebraska","lat":41.36848,"lng":-97.98977,"zip":"68638","miles_from_dt":8.35},{"city":"Palmer","state_name":"Nebraska","lat":41.2608,"lng":-98.24046,"zip":"68864","miles_from_dt":14.16},{"city":"Wolbach","state_name":"Nebraska","lat":41.42362,"lng":-98.40366,"zip":"68882","miles_from_dt":15},{"city":"Saint Edward","state_name":"Nebraska","lat":41.57398,"lng":-97.86792,"zip":"68660","miles_from_dt":15.72},{"city":"Primrose","state_name":"Nebraska","lat":41.64881,"lng":-98.26222,"zip":"68655","miles_from_dt":16.08},{"city":"Genoa","state_name":"Nebraska","lat":41.46111,"lng":-97.77237,"zip":"68640","miles_from_dt":17.88},{"city":"Archer","state_name":"Nebraska","lat":41.17484,"lng":-98.13373,"zip":"68816","miles_from_dt":18.55},{"city":"Albion","state_name":"Nebraska","lat":41.72452,"lng":-98.05814,"zip":"68620","miles_from_dt":19.64},{"city":"Central City","state_name":"Nebraska","lat":41.16341,"lng":-98.0191,"zip":"68826","miles_from_dt":19.96},{"city":"Clarks","state_name":"Nebraska","lat":41.21694,"lng":-97.84355,"zip":"68628","miles_from_dt":21.09},{"city":"Saint Paul","state_name":"Nebraska","lat":41.24696,"lng":-98.45149,"zip":"68873","miles_from_dt":22.09},{"city":"Silver Creek","state_name":"Nebraska","lat":41.31193,"lng":-97.69927,"zip":"68663","miles_from_dt":23.48},{"city":"Greeley","state_name":"Nebraska","lat":41.58068,"lng":-98.53462,"zip":"68842","miles_from_dt":23.69},{"city":"Spalding","state_name":"Nebraska","lat":41.70543,"lng":-98.41445,"zip":"68665","miles_from_dt":23.8},{"city":"Monroe","state_name":"Nebraska","lat":41.51971,"lng":-97.62021,"zip":"68647","miles_from_dt":26.27},{"city":"Saint Libory","state_name":"Nebraska","lat":41.09286,"lng":-98.33216,"zip":"68872","miles_from_dt":26.67},{"city":"Elba","state_name":"Nebraska","lat":41.33326,"lng":-98.61769,"zip":"68835","miles_from_dt":27.16},{"city":"Chapman","state_name":"Nebraska","lat":41.04247,"lng":-98.1811,"zip":"68827","miles_from_dt":27.87},{"city":"Hordville","state_name":"Nebraska","lat":41.06499,"lng":-97.88533,"zip":"68846","miles_from_dt":28.74},{"city":"Petersburg","state_name":"Nebraska","lat":41.86174,"lng":-98.08906,"zip":"68652","miles_from_dt":28.91},{"city":"Newman Grove","state_name":"Nebraska","lat":41.7829,"lng":-97.78863,"zip":"68758","miles_from_dt":28.93},{"city":"Lindsay","state_name":"Nebraska","lat":41.7079,"lng":-97.67579,"zip":"68644","miles_from_dt":29.22},{"city":"Scotia","state_name":"Nebraska","lat":41.51328,"lng":-98.68197,"zip":"68875","miles_from_dt":29.77}],"targetCityZipCode":"68623","targetCityState":"Nebraska"},"__N_SSG":true}