{"pageProps":{"stateName":"Nebraska","cityName":"brule","nearbyCities":[{"city":"Big Springs","state_name":"Nebraska","lat":41.09713,"lng":-102.08834,"zip":"69122","miles_from_dt":9.43},{"city":"Ogallala","state_name":"Nebraska","lat":41.08018,"lng":-101.67866,"zip":"69153","miles_from_dt":12.06},{"city":"Lemoyne","state_name":"Nebraska","lat":41.34986,"lng":-101.82892,"zip":"69146","miles_from_dt":17.57},{"city":"Grant","state_name":"Nebraska","lat":40.84129,"lng":-101.7724,"zip":"69140","miles_from_dt":19.35},{"city":"Julesburg","state_name":"Colorado","lat":40.88974,"lng":-102.19267,"zip":"80737","miles_from_dt":20.91},{"city":"Keystone","state_name":"Nebraska","lat":41.317,"lng":-101.60261,"zip":"69144","miles_from_dt":21.73},{"city":"Chappell","state_name":"Nebraska","lat":41.14089,"lng":-102.37823,"zip":"69129","miles_from_dt":24.7},{"city":"Venango","state_name":"Nebraska","lat":40.74817,"lng":-101.98129,"zip":"69168","miles_from_dt":24.74},{"city":"Madrid","state_name":"Nebraska","lat":40.82763,"lng":-101.54599,"zip":"69150","miles_from_dt":26.78},{"city":"Paxton","state_name":"Nebraska","lat":41.18974,"lng":-101.39008,"zip":"69155","miles_from_dt":27.67},{"city":"Ovid","state_name":"Colorado","lat":40.87471,"lng":-102.38355,"zip":"80744","miles_from_dt":29.42},{"city":"Lewellen","state_name":"Nebraska","lat":41.51514,"lng":-102.08813,"zip":"69147","miles_from_dt":30}],"targetCityZipCode":"69127","targetCityState":"Nebraska"},"__N_SSG":true}