{"pageProps":{"stateName":"Nebraska","cityName":"cook","nearbyCities":[{"city":"Burr","state_name":"Nebraska","lat":40.55407,"lng":-96.29014,"zip":"68324","miles_from_dt":7.42},{"city":"Talmage","state_name":"Nebraska","lat":40.54429,"lng":-96.035,"zip":"68448","miles_from_dt":7.6},{"city":"Tecumseh","state_name":"Nebraska","lat":40.36197,"lng":-96.22383,"zip":"68450","miles_from_dt":10.03},{"city":"Lorton","state_name":"Nebraska","lat":40.59724,"lng":-96.02425,"zip":"68382","miles_from_dt":10.06},{"city":"Syracuse","state_name":"Nebraska","lat":40.65002,"lng":-96.17535,"zip":"68446","miles_from_dt":10.3},{"city":"Johnson","state_name":"Nebraska","lat":40.39355,"lng":-96.02615,"zip":"68378","miles_from_dt":10.51},{"city":"Sterling","state_name":"Nebraska","lat":40.45627,"lng":-96.36758,"zip":"68443","miles_from_dt":10.97},{"city":"Brock","state_name":"Nebraska","lat":40.48148,"lng":-95.9533,"zip":"68320","miles_from_dt":11.37},{"city":"Douglas","state_name":"Nebraska","lat":40.57159,"lng":-96.39544,"zip":"68344","miles_from_dt":12.94},{"city":"Dunbar","state_name":"Nebraska","lat":40.66195,"lng":-96.03066,"zip":"68346","miles_from_dt":13.25},{"city":"Elk Creek","state_name":"Nebraska","lat":40.29569,"lng":-96.12208,"zip":"68348","miles_from_dt":14.36},{"city":"Unadilla","state_name":"Nebraska","lat":40.69275,"lng":-96.28686,"zip":"68454","miles_from_dt":14.65},{"city":"Julian","state_name":"Nebraska","lat":40.52908,"lng":-95.86979,"zip":"68379","miles_from_dt":15.81},{"city":"Otoe","state_name":"Nebraska","lat":40.7359,"lng":-96.09199,"zip":"68417","miles_from_dt":16.7},{"city":"Crab Orchard","state_name":"Nebraska","lat":40.32829,"lng":-96.41123,"zip":"68332","miles_from_dt":17.51},{"city":"Nebraska City","state_name":"Nebraska","lat":40.63729,"lng":-95.88584,"zip":"68410","miles_from_dt":17.57},{"city":"Palmyra","state_name":"Nebraska","lat":40.69568,"lng":-96.38435,"zip":"68418","miles_from_dt":17.62},{"city":"Adams","state_name":"Nebraska","lat":40.46847,"lng":-96.52244,"zip":"68301","miles_from_dt":18.82},{"city":"Auburn","state_name":"Nebraska","lat":40.36392,"lng":-95.85788,"zip":"68305","miles_from_dt":18.87},{"city":"Panama","state_name":"Nebraska","lat":40.60297,"lng":-96.51129,"zip":"68419","miles_from_dt":19.41},{"city":"Steinauer","state_name":"Nebraska","lat":40.22581,"lng":-96.25461,"zip":"68441","miles_from_dt":19.53},{"city":"Avoca","state_name":"Nebraska","lat":40.78769,"lng":-96.14054,"zip":"68307","miles_from_dt":19.84},{"city":"Table Rock","state_name":"Nebraska","lat":40.20044,"lng":-96.07366,"zip":"68447","miles_from_dt":21.32},{"city":"Bennet","state_name":"Nebraska","lat":40.67325,"lng":-96.50451,"zip":"68317","miles_from_dt":21.34},{"city":"Lewiston","state_name":"Nebraska","lat":40.24283,"lng":-96.4059,"zip":"68380","miles_from_dt":21.8},{"city":"Peru","state_name":"Nebraska","lat":40.492,"lng":-95.74426,"zip":"68421","miles_from_dt":22.31},{"city":"Firth","state_name":"Nebraska","lat":40.53321,"lng":-96.60973,"zip":"68358","miles_from_dt":23.38},{"city":"Elmwood","state_name":"Nebraska","lat":40.82962,"lng":-96.30028,"zip":"68349","miles_from_dt":23.73},{"city":"Filley","state_name":"Nebraska","lat":40.31541,"lng":-96.54658,"zip":"68357","miles_from_dt":23.73},{"city":"Hickman","state_name":"Nebraska","lat":40.60498,"lng":-96.60539,"zip":"68372","miles_from_dt":24.13},{"city":"Nehawka","state_name":"Nebraska","lat":40.83775,"lng":-96.01053,"zip":"68413","miles_from_dt":24.67},{"city":"Eagle","state_name":"Nebraska","lat":40.80347,"lng":-96.42274,"zip":"68347","miles_from_dt":24.81},{"city":"Virginia","state_name":"Nebraska","lat":40.23107,"lng":-96.48742,"zip":"68458","miles_from_dt":25.13},{"city":"Percival","state_name":"Iowa","lat":40.74215,"lng":-95.80325,"zip":"51648","miles_from_dt":25.38},{"city":"Humboldt","state_name":"Nebraska","lat":40.171,"lng":-95.93809,"zip":"68376","miles_from_dt":25.79},{"city":"Walton","state_name":"Nebraska","lat":40.76682,"lng":-96.51419,"zip":"68461","miles_from_dt":25.85},{"city":"Weeping Water","state_name":"Nebraska","lat":40.8759,"lng":-96.13518,"zip":"68463","miles_from_dt":25.93},{"city":"Brownville","state_name":"Nebraska","lat":40.39491,"lng":-95.69371,"zip":"68321","miles_from_dt":26.03},{"city":"Union","state_name":"Nebraska","lat":40.82286,"lng":-95.90123,"zip":"68455","miles_from_dt":26.26},{"city":"Lincoln","state_name":"Nebraska","lat":40.7324,"lng":-96.58269,"zip":"68526","miles_from_dt":27.04},{"city":"Stella","state_name":"Nebraska","lat":40.239,"lng":-95.7729,"zip":"68442","miles_from_dt":27.58},{"city":"Burchard","state_name":"Nebraska","lat":40.13197,"lng":-96.37034,"zip":"68323","miles_from_dt":27.61},{"city":"Nemaha","state_name":"Nebraska","lat":40.31966,"lng":-95.6991,"zip":"68414","miles_from_dt":27.7},{"city":"Hamburg","state_name":"Iowa","lat":40.62262,"lng":-95.6634,"zip":"51640","miles_from_dt":27.84},{"city":"Roca","state_name":"Nebraska","lat":40.66599,"lng":-96.66012,"zip":"68430","miles_from_dt":28.3},{"city":"Cortland","state_name":"Nebraska","lat":40.4712,"lng":-96.70863,"zip":"68331","miles_from_dt":28.57},{"city":"Watson","state_name":"Missouri","lat":40.49563,"lng":-95.62372,"zip":"64496","miles_from_dt":28.66},{"city":"Pawnee City","state_name":"Nebraska","lat":40.08556,"lng":-96.19125,"zip":"68420","miles_from_dt":28.68},{"city":"Lincoln","state_name":"Nebraska","lat":40.79827,"lng":-96.55313,"zip":"68520","miles_from_dt":28.83},{"city":"Manley","state_name":"Nebraska","lat":40.92045,"lng":-96.16707,"zip":"68403","miles_from_dt":28.95},{"city":"Pickrell","state_name":"Nebraska","lat":40.38863,"lng":-96.69755,"zip":"68422","miles_from_dt":28.98},{"city":"Alvo","state_name":"Nebraska","lat":40.88971,"lng":-96.38781,"zip":"68304","miles_from_dt":29.21},{"city":"Murdock","state_name":"Nebraska","lat":40.921,"lng":-96.26263,"zip":"68407","miles_from_dt":29.41},{"city":"Lincoln","state_name":"Nebraska","lat":40.73493,"lng":-96.6428,"zip":"68516","miles_from_dt":29.75}],"targetCityZipCode":"68329","targetCityState":"Nebraska"},"__N_SSG":true}