{"pageProps":{"stateName":"Nebraska","cityName":"cozad","nearbyCities":[{"city":"Willow Island","state_name":"Nebraska","lat":40.89065,"lng":-100.06814,"zip":"69171","miles_from_dt":5.37},{"city":"Gothenburg","state_name":"Nebraska","lat":40.99923,"lng":-100.17684,"zip":"69138","miles_from_dt":13},{"city":"Lexington","state_name":"Nebraska","lat":40.82548,"lng":-99.73574,"zip":"68850","miles_from_dt":13.11},{"city":"Eustis","state_name":"Nebraska","lat":40.64107,"lng":-100.04708,"zip":"69028","miles_from_dt":18.31},{"city":"Eddyville","state_name":"Nebraska","lat":41.01834,"lng":-99.65049,"zip":"68834","miles_from_dt":18.45},{"city":"Oconto","state_name":"Nebraska","lat":41.13378,"lng":-99.79167,"zip":"68860","miles_from_dt":18.58},{"city":"Farnam","state_name":"Nebraska","lat":40.68537,"lng":-100.24277,"zip":"69029","miles_from_dt":20.69},{"city":"Elwood","state_name":"Nebraska","lat":40.57262,"lng":-99.85494,"zip":"68937","miles_from_dt":23.28},{"city":"Brady","state_name":"Nebraska","lat":41.04981,"lng":-100.36627,"zip":"69123","miles_from_dt":23.36},{"city":"Smithfield","state_name":"Nebraska","lat":40.6023,"lng":-99.70918,"zip":"68976","miles_from_dt":24.53},{"city":"Sumner","state_name":"Nebraska","lat":40.98623,"lng":-99.50567,"zip":"68878","miles_from_dt":24.84},{"city":"Overton","state_name":"Nebraska","lat":40.76628,"lng":-99.5252,"zip":"68863","miles_from_dt":24.87},{"city":"Callaway","state_name":"Nebraska","lat":41.27347,"lng":-99.95758,"zip":"68825","miles_from_dt":25.83},{"city":"Moorefield","state_name":"Nebraska","lat":40.7013,"lng":-100.38529,"zip":"69039","miles_from_dt":25.87}],"targetCityZipCode":"69130","targetCityState":"Nebraska"},"__N_SSG":true}