{"pageProps":{"stateName":"Nebraska","cityName":"elwood","nearbyCities":[{"city":"Smithfield","state_name":"Nebraska","lat":40.6023,"lng":-99.70918,"zip":"68976","miles_from_dt":7.94},{"city":"Eustis","state_name":"Nebraska","lat":40.64107,"lng":-100.04708,"zip":"69028","miles_from_dt":11.15},{"city":"Bertrand","state_name":"Nebraska","lat":40.51146,"lng":-99.62665,"zip":"68927","miles_from_dt":12.74},{"city":"Arapahoe","state_name":"Nebraska","lat":40.33653,"lng":-99.89976,"zip":"68922","miles_from_dt":16.46},{"city":"Edison","state_name":"Nebraska","lat":40.31655,"lng":-99.77868,"zip":"68936","miles_from_dt":18.12},{"city":"Holbrook","state_name":"Nebraska","lat":40.34151,"lng":-100.02639,"zip":"68948","miles_from_dt":18.33},{"city":"Lexington","state_name":"Nebraska","lat":40.82548,"lng":-99.73574,"zip":"68850","miles_from_dt":18.54},{"city":"Loomis","state_name":"Nebraska","lat":40.52772,"lng":-99.50394,"zip":"68958","miles_from_dt":18.73},{"city":"Farnam","state_name":"Nebraska","lat":40.68537,"lng":-100.24277,"zip":"69029","miles_from_dt":21.82},{"city":"Overton","state_name":"Nebraska","lat":40.76628,"lng":-99.5252,"zip":"68863","miles_from_dt":21.88},{"city":"Cozad","state_name":"Nebraska","lat":40.89924,"lng":-99.96628,"zip":"69130","miles_from_dt":23.28},{"city":"Cambridge","state_name":"Nebraska","lat":40.33938,"lng":-100.18413,"zip":"69022","miles_from_dt":23.67},{"city":"Atlanta","state_name":"Nebraska","lat":40.36835,"lng":-99.47314,"zip":"68923","miles_from_dt":24.56},{"city":"Willow Island","state_name":"Nebraska","lat":40.89065,"lng":-100.06814,"zip":"69171","miles_from_dt":24.63},{"city":"Oxford","state_name":"Nebraska","lat":40.25263,"lng":-99.63085,"zip":"68967","miles_from_dt":25.04},{"city":"Holdrege","state_name":"Nebraska","lat":40.43193,"lng":-99.39481,"zip":"68949","miles_from_dt":26.11},{"city":"Elm Creek","state_name":"Nebraska","lat":40.70709,"lng":-99.37865,"zip":"68836","miles_from_dt":26.7},{"city":"Stockville","state_name":"Nebraska","lat":40.47547,"lng":-100.37903,"zip":"69042","miles_from_dt":28.4},{"city":"Moorefield","state_name":"Nebraska","lat":40.7013,"lng":-100.38529,"zip":"69039","miles_from_dt":29.26}],"targetCityZipCode":"68937","targetCityState":"Nebraska"},"__N_SSG":true}