{"pageProps":{"stateName":"Nebraska","cityName":"heartwell","nearbyCities":[{"city":"Kenesaw","state_name":"Nebraska","lat":40.63088,"lng":-98.6891,"zip":"68956","miles_from_dt":6.55},{"city":"Minden","state_name":"Nebraska","lat":40.49009,"lng":-98.91487,"zip":"68959","miles_from_dt":8.92},{"city":"Holstein","state_name":"Nebraska","lat":40.45586,"lng":-98.66413,"zip":"68950","miles_from_dt":9.25},{"city":"Juniata","state_name":"Nebraska","lat":40.59288,"lng":-98.53966,"zip":"68955","miles_from_dt":12.49},{"city":"Roseland","state_name":"Nebraska","lat":40.45014,"lng":-98.55962,"zip":"68973","miles_from_dt":13.61},{"city":"Gibbon","state_name":"Nebraska","lat":40.75728,"lng":-98.88027,"zip":"68840","miles_from_dt":14.67},{"city":"Kearney","state_name":"Nebraska","lat":40.73465,"lng":-99.02272,"zip":"68847","miles_from_dt":17.76},{"city":"Campbell","state_name":"Nebraska","lat":40.30258,"lng":-98.73851,"zip":"68932","miles_from_dt":17.92},{"city":"Shelton","state_name":"Nebraska","lat":40.82492,"lng":-98.74663,"zip":"68876","miles_from_dt":18.27},{"city":"Kearney","state_name":"Nebraska","lat":40.69941,"lng":-99.08167,"zip":"68848","miles_from_dt":18.82},{"city":"Axtell","state_name":"Nebraska","lat":40.49557,"lng":-99.12469,"zip":"68924","miles_from_dt":19.04},{"city":"Kearney","state_name":"Nebraska","lat":40.70148,"lng":-99.10082,"zip":"68849","miles_from_dt":19.76},{"city":"Upland","state_name":"Nebraska","lat":40.28601,"lng":-98.89237,"zip":"68981","miles_from_dt":19.99},{"city":"Ayr","state_name":"Nebraska","lat":40.42366,"lng":-98.43821,"zip":"68925","miles_from_dt":20.03},{"city":"Wood River","state_name":"Nebraska","lat":40.81823,"lng":-98.58558,"zip":"68883","miles_from_dt":20.3},{"city":"Hastings","state_name":"Nebraska","lat":40.58543,"lng":-98.38512,"zip":"68902","miles_from_dt":20.49},{"city":"Bladen","state_name":"Nebraska","lat":40.2874,"lng":-98.60728,"zip":"68928","miles_from_dt":20.81},{"city":"Hastings","state_name":"Nebraska","lat":40.59092,"lng":-98.36599,"zip":"68901","miles_from_dt":21.53},{"city":"Hildreth","state_name":"Nebraska","lat":40.30139,"lng":-99.05188,"zip":"68947","miles_from_dt":23.16},{"city":"Kearney","state_name":"Nebraska","lat":40.71583,"lng":-99.17059,"zip":"68845","miles_from_dt":23.46},{"city":"Funk","state_name":"Nebraska","lat":40.53815,"lng":-99.25086,"zip":"68940","miles_from_dt":25.19},{"city":"Doniphan","state_name":"Nebraska","lat":40.76963,"lng":-98.36608,"zip":"68832","miles_from_dt":25.79},{"city":"Alda","state_name":"Nebraska","lat":40.86238,"lng":-98.4675,"zip":"68810","miles_from_dt":26.27},{"city":"Blue Hill","state_name":"Nebraska","lat":40.28514,"lng":-98.41846,"zip":"68930","miles_from_dt":26.69},{"city":"Wilcox","state_name":"Nebraska","lat":40.33081,"lng":-99.19521,"zip":"68982","miles_from_dt":27.33},{"city":"Glenvil","state_name":"Nebraska","lat":40.46882,"lng":-98.26792,"zip":"68941","miles_from_dt":27.36},{"city":"Odessa","state_name":"Nebraska","lat":40.69892,"lng":-99.2639,"zip":"68861","miles_from_dt":27.49},{"city":"Riverdale","state_name":"Nebraska","lat":40.8453,"lng":-99.15835,"zip":"68870","miles_from_dt":28.17},{"city":"Trumbull","state_name":"Nebraska","lat":40.68213,"lng":-98.25814,"zip":"68980","miles_from_dt":28.34},{"city":"Inland","state_name":"Nebraska","lat":40.61215,"lng":-98.23512,"zip":"68954","miles_from_dt":28.53}],"targetCityZipCode":"68945","targetCityState":"Nebraska"},"__N_SSG":true}