{"pageProps":{"stateName":"Nebraska","cityName":"magnet","nearbyCities":[{"city":"Mclean","state_name":"Nebraska","lat":42.39398,"lng":-97.48873,"zip":"68747","miles_from_dt":4.63},{"city":"Wausa","state_name":"Nebraska","lat":42.50351,"lng":-97.55855,"zip":"68786","miles_from_dt":5.19},{"city":"Randolph","state_name":"Nebraska","lat":42.38419,"lng":-97.35706,"zip":"68771","miles_from_dt":8.01},{"city":"Osmond","state_name":"Nebraska","lat":42.33397,"lng":-97.6232,"zip":"68765","miles_from_dt":11.55},{"city":"Belden","state_name":"Nebraska","lat":42.38962,"lng":-97.2192,"zip":"68717","miles_from_dt":13.98},{"city":"Coleridge","state_name":"Nebraska","lat":42.5116,"lng":-97.20596,"zip":"68727","miles_from_dt":14.21},{"city":"Hartington","state_name":"Nebraska","lat":42.6284,"lng":-97.26265,"zip":"68739","miles_from_dt":15.89},{"city":"Carroll","state_name":"Nebraska","lat":42.28759,"lng":-97.21456,"zip":"68723","miles_from_dt":17.89},{"city":"Bloomfield","state_name":"Nebraska","lat":42.6619,"lng":-97.69844,"zip":"68718","miles_from_dt":17.98},{"city":"Pierce","state_name":"Nebraska","lat":42.1969,"lng":-97.53622,"zip":"68767","miles_from_dt":18.45},{"city":"Laurel","state_name":"Nebraska","lat":42.44662,"lng":-97.08781,"zip":"68745","miles_from_dt":19.83},{"city":"Plainview","state_name":"Nebraska","lat":42.3158,"lng":-97.81636,"zip":"68769","miles_from_dt":20.1},{"city":"Fordyce","state_name":"Nebraska","lat":42.74481,"lng":-97.37136,"zip":"68736","miles_from_dt":20.34},{"city":"Crofton","state_name":"Nebraska","lat":42.76688,"lng":-97.53488,"zip":"68730","miles_from_dt":21.38},{"city":"Creighton","state_name":"Nebraska","lat":42.47479,"lng":-97.90784,"zip":"68729","miles_from_dt":22.13},{"city":"Hoskins","state_name":"Nebraska","lat":42.14561,"lng":-97.29245,"zip":"68740","miles_from_dt":23.66},{"city":"Center","state_name":"Nebraska","lat":42.6276,"lng":-97.88496,"zip":"68724","miles_from_dt":23.88},{"city":"Hadar","state_name":"Nebraska","lat":42.10699,"lng":-97.44953,"zip":"68738","miles_from_dt":24.42},{"city":"Winside","state_name":"Nebraska","lat":42.17384,"lng":-97.18616,"zip":"68790","miles_from_dt":24.71},{"city":"Dixon","state_name":"Nebraska","lat":42.48176,"lng":-96.97387,"zip":"68732","miles_from_dt":25.67},{"city":"Wynot","state_name":"Nebraska","lat":42.73323,"lng":-97.11427,"zip":"68792","miles_from_dt":26.34},{"city":"Saint Helena","state_name":"Nebraska","lat":42.81403,"lng":-97.27747,"zip":"68774","miles_from_dt":26.42},{"city":"Winnetoon","state_name":"Nebraska","lat":42.53642,"lng":-97.99182,"zip":"68789","miles_from_dt":26.9},{"city":"Concord","state_name":"Nebraska","lat":42.38085,"lng":-96.93641,"zip":"68728","miles_from_dt":28.1},{"city":"Wayne","state_name":"Nebraska","lat":42.21372,"lng":-97.03351,"zip":"68787","miles_from_dt":28.31},{"city":"Brunswick","state_name":"Nebraska","lat":42.34659,"lng":-98.01418,"zip":"68720","miles_from_dt":28.66},{"city":"Maskell","state_name":"Nebraska","lat":42.69035,"lng":-96.98138,"zip":"68751","miles_from_dt":29.78}],"targetCityZipCode":"68749","targetCityState":"Nebraska"},"__N_SSG":true}