{"pageProps":{"stateName":"Nebraska","cityName":"maywood","nearbyCities":[{"city":"Curtis","state_name":"Nebraska","lat":40.61957,"lng":-100.50814,"zip":"69025","miles_from_dt":12.06},{"city":"Wellfleet","state_name":"Nebraska","lat":40.79563,"lng":-100.74068,"zip":"69170","miles_from_dt":12.86},{"city":"Hayes Center","state_name":"Nebraska","lat":40.56766,"lng":-101.0471,"zip":"69032","miles_from_dt":16.56},{"city":"Moorefield","state_name":"Nebraska","lat":40.7013,"lng":-100.38529,"zip":"69039","miles_from_dt":19.54},{"city":"Dickens","state_name":"Nebraska","lat":40.81495,"lng":-101.00664,"zip":"69132","miles_from_dt":20.04},{"city":"Stockville","state_name":"Nebraska","lat":40.47547,"lng":-100.37903,"zip":"69042","miles_from_dt":20.99},{"city":"McCook","state_name":"Nebraska","lat":40.25232,"lng":-100.65782,"zip":"69001","miles_from_dt":24.98},{"city":"Culbertson","state_name":"Nebraska","lat":40.23918,"lng":-100.856,"zip":"69024","miles_from_dt":26.3},{"city":"Farnam","state_name":"Nebraska","lat":40.68537,"lng":-100.24277,"zip":"69029","miles_from_dt":26.5},{"city":"Palisade","state_name":"Nebraska","lat":40.35565,"lng":-101.12027,"zip":"69040","miles_from_dt":26.72},{"city":"Wallace","state_name":"Nebraska","lat":40.82144,"lng":-101.17663,"zip":"69169","miles_from_dt":27.33},{"city":"Indianola","state_name":"Nebraska","lat":40.24929,"lng":-100.43866,"zip":"69034","miles_from_dt":29.4}],"targetCityZipCode":"69038","targetCityState":"Nebraska"},"__N_SSG":true}