{"pageProps":{"stateName":"Nebraska","cityName":"moorefield","nearbyCities":[{"city":"Farnam","state_name":"Nebraska","lat":40.68537,"lng":-100.24277,"zip":"69029","miles_from_dt":7.57},{"city":"Curtis","state_name":"Nebraska","lat":40.61957,"lng":-100.50814,"zip":"69025","miles_from_dt":8.57},{"city":"Stockville","state_name":"Nebraska","lat":40.47547,"lng":-100.37903,"zip":"69042","miles_from_dt":15.59},{"city":"Eustis","state_name":"Nebraska","lat":40.64107,"lng":-100.04708,"zip":"69028","miles_from_dt":18.25},{"city":"Maywood","state_name":"Nebraska","lat":40.60932,"lng":-100.73703,"zip":"69038","miles_from_dt":19.54},{"city":"Wellfleet","state_name":"Nebraska","lat":40.79563,"lng":-100.74068,"zip":"69170","miles_from_dt":19.75},{"city":"Willow Island","state_name":"Nebraska","lat":40.89065,"lng":-100.06814,"zip":"69171","miles_from_dt":21.15},{"city":"Gothenburg","state_name":"Nebraska","lat":40.99923,"lng":-100.17684,"zip":"69138","miles_from_dt":23.28},{"city":"Brady","state_name":"Nebraska","lat":41.04981,"lng":-100.36627,"zip":"69123","miles_from_dt":24.07},{"city":"Cozad","state_name":"Nebraska","lat":40.89924,"lng":-99.96628,"zip":"69130","miles_from_dt":25.87},{"city":"Cambridge","state_name":"Nebraska","lat":40.33938,"lng":-100.18413,"zip":"69022","miles_from_dt":27.13},{"city":"Maxwell","state_name":"Nebraska","lat":41.10153,"lng":-100.52011,"zip":"69151","miles_from_dt":28.51},{"city":"Elwood","state_name":"Nebraska","lat":40.57262,"lng":-99.85494,"zip":"68937","miles_from_dt":29.26}],"targetCityZipCode":"69039","targetCityState":"Nebraska"},"__N_SSG":true}