{"pageProps":{"stateName":"Nebraska","cityName":"orchard","nearbyCities":[{"city":"Royal","state_name":"Nebraska","lat":42.36245,"lng":-98.1199,"zip":"68773","miles_from_dt":6.25},{"city":"Page","state_name":"Nebraska","lat":42.42375,"lng":-98.40321,"zip":"68766","miles_from_dt":8.94},{"city":"Brunswick","state_name":"Nebraska","lat":42.34659,"lng":-98.01418,"zip":"68720","miles_from_dt":11.7},{"city":"Inman","state_name":"Nebraska","lat":42.3572,"lng":-98.51459,"zip":"68742","miles_from_dt":14.76},{"city":"Clearwater","state_name":"Nebraska","lat":42.17877,"lng":-98.19954,"zip":"68726","miles_from_dt":15.28},{"city":"Winnetoon","state_name":"Nebraska","lat":42.53642,"lng":-97.99182,"zip":"68789","miles_from_dt":15.51},{"city":"Verdigre","state_name":"Nebraska","lat":42.62523,"lng":-98.14612,"zip":"68783","miles_from_dt":16.23},{"city":"Creighton","state_name":"Nebraska","lat":42.47479,"lng":-97.90784,"zip":"68729","miles_from_dt":17.37},{"city":"Neligh","state_name":"Nebraska","lat":42.18544,"lng":-97.97985,"zip":"68756","miles_from_dt":19.58},{"city":"Oneill","state_name":"Nebraska","lat":42.51809,"lng":-98.58254,"zip":"68763","miles_from_dt":19.73},{"city":"Ewing","state_name":"Nebraska","lat":42.14911,"lng":-98.45402,"zip":"68735","miles_from_dt":20.66},{"city":"Plainview","state_name":"Nebraska","lat":42.3158,"lng":-97.81636,"zip":"68769","miles_from_dt":22.02},{"city":"Center","state_name":"Nebraska","lat":42.6276,"lng":-97.88496,"zip":"68724","miles_from_dt":23.73},{"city":"Niobrara","state_name":"Nebraska","lat":42.76616,"lng":-98.03831,"zip":"68760","miles_from_dt":27.21},{"city":"Elgin","state_name":"Nebraska","lat":42.00494,"lng":-98.15674,"zip":"68636","miles_from_dt":27.46},{"city":"Emmet","state_name":"Nebraska","lat":42.42528,"lng":-98.8044,"zip":"68734","miles_from_dt":29.35},{"city":"Oakdale","state_name":"Nebraska","lat":42.02287,"lng":-97.9601,"zip":"68761","miles_from_dt":29.45}],"targetCityZipCode":"68764","targetCityState":"Nebraska"},"__N_SSG":true}