{"pageProps":{"stateName":"Nebraska","cityName":"paxton","nearbyCities":[{"city":"Sutherland","state_name":"Nebraska","lat":41.35102,"lng":-101.27268,"zip":"69165","miles_from_dt":12.7},{"city":"Keystone","state_name":"Nebraska","lat":41.317,"lng":-101.60261,"zip":"69144","miles_from_dt":14.13},{"city":"Ogallala","state_name":"Nebraska","lat":41.08018,"lng":-101.67866,"zip":"69153","miles_from_dt":16.85},{"city":"Hershey","state_name":"Nebraska","lat":41.19184,"lng":-101.01934,"zip":"69143","miles_from_dt":19.33},{"city":"Lemoyne","state_name":"Nebraska","lat":41.34986,"lng":-101.82892,"zip":"69146","miles_from_dt":25.38},{"city":"Madrid","state_name":"Nebraska","lat":40.82763,"lng":-101.54599,"zip":"69150","miles_from_dt":26.28},{"city":"Elsie","state_name":"Nebraska","lat":40.80733,"lng":-101.36968,"zip":"69134","miles_from_dt":26.41},{"city":"Brule","state_name":"Nebraska","lat":41.10231,"lng":-101.90774,"zip":"69127","miles_from_dt":27.67},{"city":"Wallace","state_name":"Nebraska","lat":40.82144,"lng":-101.17663,"zip":"69169","miles_from_dt":27.76}],"targetCityZipCode":"69155","targetCityState":"Nebraska"},"__N_SSG":true}