{"pageProps":{"stateName":"Nebraska","cityName":"syracuse","nearbyCities":[{"city":"Unadilla","state_name":"Nebraska","lat":40.69275,"lng":-96.28686,"zip":"68454","miles_from_dt":6.56},{"city":"Otoe","state_name":"Nebraska","lat":40.7359,"lng":-96.09199,"zip":"68417","miles_from_dt":7.37},{"city":"Dunbar","state_name":"Nebraska","lat":40.66195,"lng":-96.03066,"zip":"68346","miles_from_dt":7.65},{"city":"Lorton","state_name":"Nebraska","lat":40.59724,"lng":-96.02425,"zip":"68382","miles_from_dt":8.74},{"city":"Burr","state_name":"Nebraska","lat":40.55407,"lng":-96.29014,"zip":"68324","miles_from_dt":8.96},{"city":"Avoca","state_name":"Nebraska","lat":40.78769,"lng":-96.14054,"zip":"68307","miles_from_dt":9.67},{"city":"Cook","state_name":"Nebraska","lat":40.50089,"lng":-96.16772,"zip":"68329","miles_from_dt":10.3},{"city":"Talmage","state_name":"Nebraska","lat":40.54429,"lng":-96.035,"zip":"68448","miles_from_dt":10.38},{"city":"Palmyra","state_name":"Nebraska","lat":40.69568,"lng":-96.38435,"zip":"68418","miles_from_dt":11.42},{"city":"Douglas","state_name":"Nebraska","lat":40.57159,"lng":-96.39544,"zip":"68344","miles_from_dt":12.78},{"city":"Elmwood","state_name":"Nebraska","lat":40.82962,"lng":-96.30028,"zip":"68349","miles_from_dt":14.02},{"city":"Nebraska City","state_name":"Nebraska","lat":40.63729,"lng":-95.88584,"zip":"68410","miles_from_dt":15.24},{"city":"Nehawka","state_name":"Nebraska","lat":40.83775,"lng":-96.01053,"zip":"68413","miles_from_dt":15.58},{"city":"Weeping Water","state_name":"Nebraska","lat":40.8759,"lng":-96.13518,"zip":"68463","miles_from_dt":15.73},{"city":"Brock","state_name":"Nebraska","lat":40.48148,"lng":-95.9533,"zip":"68320","miles_from_dt":16.49},{"city":"Eagle","state_name":"Nebraska","lat":40.80347,"lng":-96.42274,"zip":"68347","miles_from_dt":16.76},{"city":"Sterling","state_name":"Nebraska","lat":40.45627,"lng":-96.36758,"zip":"68443","miles_from_dt":16.77},{"city":"Bennet","state_name":"Nebraska","lat":40.67325,"lng":-96.50451,"zip":"68317","miles_from_dt":17.37},{"city":"Panama","state_name":"Nebraska","lat":40.60297,"lng":-96.51129,"zip":"68419","miles_from_dt":17.96},{"city":"Julian","state_name":"Nebraska","lat":40.52908,"lng":-95.86979,"zip":"68379","miles_from_dt":18.11},{"city":"Manley","state_name":"Nebraska","lat":40.92045,"lng":-96.16707,"zip":"68403","miles_from_dt":18.67},{"city":"Union","state_name":"Nebraska","lat":40.82286,"lng":-95.90123,"zip":"68455","miles_from_dt":18.69},{"city":"Murdock","state_name":"Nebraska","lat":40.921,"lng":-96.26263,"zip":"68407","miles_from_dt":19.25},{"city":"Johnson","state_name":"Nebraska","lat":40.39355,"lng":-96.02615,"zip":"68378","miles_from_dt":19.36},{"city":"Walton","state_name":"Nebraska","lat":40.76682,"lng":-96.51419,"zip":"68461","miles_from_dt":19.53},{"city":"Alvo","state_name":"Nebraska","lat":40.88971,"lng":-96.38781,"zip":"68304","miles_from_dt":19.94},{"city":"Tecumseh","state_name":"Nebraska","lat":40.36197,"lng":-96.22383,"zip":"68450","miles_from_dt":20.04},{"city":"Percival","state_name":"Iowa","lat":40.74215,"lng":-95.80325,"zip":"51648","miles_from_dt":20.55},{"city":"Murray","state_name":"Nebraska","lat":40.90906,"lng":-95.95074,"zip":"68409","miles_from_dt":21.41},{"city":"Lincoln","state_name":"Nebraska","lat":40.7324,"lng":-96.58269,"zip":"68526","miles_from_dt":22.14},{"city":"Adams","state_name":"Nebraska","lat":40.46847,"lng":-96.52244,"zip":"68301","miles_from_dt":22.15},{"city":"Lincoln","state_name":"Nebraska","lat":40.79827,"lng":-96.55313,"zip":"68520","miles_from_dt":22.31},{"city":"Lincoln","state_name":"Nebraska","lat":40.84573,"lng":-96.51753,"zip":"68527","miles_from_dt":22.47},{"city":"Hickman","state_name":"Nebraska","lat":40.60498,"lng":-96.60539,"zip":"68372","miles_from_dt":22.82},{"city":"Louisville","state_name":"Nebraska","lat":40.9844,"lng":-96.12673,"zip":"68037","miles_from_dt":23.21},{"city":"Firth","state_name":"Nebraska","lat":40.53321,"lng":-96.60973,"zip":"68358","miles_from_dt":24.23},{"city":"Elk Creek","state_name":"Nebraska","lat":40.29569,"lng":-96.12208,"zip":"68348","miles_from_dt":24.61},{"city":"South Bend","state_name":"Nebraska","lat":41.00842,"lng":-96.2483,"zip":"68058","miles_from_dt":25.02},{"city":"Thurman","state_name":"Iowa","lat":40.831,"lng":-95.76038,"zip":"51654","miles_from_dt":25.11},{"city":"Peru","state_name":"Nebraska","lat":40.492,"lng":-95.74426,"zip":"68421","miles_from_dt":25.17},{"city":"Lincoln","state_name":"Nebraska","lat":40.73493,"lng":-96.6428,"zip":"68516","miles_from_dt":25.24},{"city":"Crab Orchard","state_name":"Nebraska","lat":40.32829,"lng":-96.41123,"zip":"68332","miles_from_dt":25.44},{"city":"Roca","state_name":"Nebraska","lat":40.66599,"lng":-96.66012,"zip":"68430","miles_from_dt":25.5},{"city":"Auburn","state_name":"Nebraska","lat":40.36392,"lng":-95.85788,"zip":"68305","miles_from_dt":25.87},{"city":"Lincoln","state_name":"Nebraska","lat":40.82446,"lng":-96.61562,"zip":"68505","miles_from_dt":26.06},{"city":"Lincoln","state_name":"Nebraska","lat":40.78422,"lng":-96.63959,"zip":"68506","miles_from_dt":26.07},{"city":"Cedar Creek","state_name":"Nebraska","lat":41.02518,"lng":-96.1063,"zip":"68016","miles_from_dt":26.14},{"city":"Plattsmouth","state_name":"Nebraska","lat":40.98304,"lng":-95.9345,"zip":"68048","miles_from_dt":26.22},{"city":"Greenwood","state_name":"Nebraska","lat":40.98215,"lng":-96.44222,"zip":"68366","miles_from_dt":26.85},{"city":"Lincoln","state_name":"Nebraska","lat":40.8529,"lng":-96.61311,"zip":"68529","miles_from_dt":26.9},{"city":"Hamburg","state_name":"Iowa","lat":40.62262,"lng":-95.6634,"zip":"51640","miles_from_dt":26.98},{"city":"Lincoln","state_name":"Nebraska","lat":40.85954,"lng":-96.61172,"zip":"68507","miles_from_dt":27.08},{"city":"Lincoln","state_name":"Nebraska","lat":40.80654,"lng":-96.64835,"zip":"68510","miles_from_dt":27.08},{"city":"Waverly","state_name":"Nebraska","lat":40.94804,"lng":-96.52806,"zip":"68462","miles_from_dt":27.66},{"city":"Lincoln","state_name":"Nebraska","lat":40.8284,"lng":-96.66302,"zip":"68583","miles_from_dt":28.4},{"city":"Lincoln","state_name":"Nebraska","lat":40.73746,"lng":-96.70567,"zip":"68512","miles_from_dt":28.5},{"city":"Springfield","state_name":"Nebraska","lat":41.06673,"lng":-96.1595,"zip":"68059","miles_from_dt":28.77},{"city":"Lincoln","state_name":"Nebraska","lat":40.82447,"lng":-96.67387,"zip":"68503","miles_from_dt":28.8},{"city":"Lincoln","state_name":"Nebraska","lat":40.78361,"lng":-96.70083,"zip":"68502","miles_from_dt":29.09},{"city":"Lincoln","state_name":"Nebraska","lat":40.85451,"lng":-96.66104,"zip":"68504","miles_from_dt":29.13},{"city":"Lincoln","state_name":"Nebraska","lat":40.7873,"lng":-96.70053,"zip":"68542","miles_from_dt":29.15},{"city":"Steinauer","state_name":"Nebraska","lat":40.22581,"lng":-96.25461,"zip":"68441","miles_from_dt":29.57},{"city":"Lincoln","state_name":"Nebraska","lat":40.93341,"lng":-96.60487,"zip":"68517","miles_from_dt":29.83},{"city":"Lincoln","state_name":"Nebraska","lat":40.82482,"lng":-96.69644,"zip":"68588","miles_from_dt":29.89},{"city":"Sidney","state_name":"Iowa","lat":40.77032,"lng":-95.62815,"zip":"51652","miles_from_dt":29.91},{"city":"Sprague","state_name":"Nebraska","lat":40.62656,"lng":-96.74463,"zip":"68438","miles_from_dt":29.97}],"targetCityZipCode":"68446","targetCityState":"Nebraska"},"__N_SSG":true}