{"pageProps":{"stateName":"Nebraska","cityName":"wilsonville","nearbyCities":[{"city":"Hendley","state_name":"Nebraska","lat":40.1067,"lng":-99.99048,"zip":"68946","miles_from_dt":6.58},{"city":"Lebanon","state_name":"Nebraska","lat":40.02788,"lng":-100.29782,"zip":"69036","miles_from_dt":10.65},{"city":"Norcatur","state_name":"Kansas","lat":39.90873,"lng":-100.20554,"zip":"67653","miles_from_dt":12.25},{"city":"Beaver City","state_name":"Nebraska","lat":40.09311,"lng":-99.85139,"zip":"68926","miles_from_dt":13.5},{"city":"Bartley","state_name":"Nebraska","lat":40.23522,"lng":-100.31448,"zip":"69020","miles_from_dt":16.03},{"city":"Danbury","state_name":"Nebraska","lat":40.01975,"lng":-100.41332,"zip":"69026","miles_from_dt":16.74},{"city":"Norton","state_name":"Kansas","lat":39.83067,"lng":-99.95573,"zip":"67654","miles_from_dt":18.18},{"city":"Cambridge","state_name":"Nebraska","lat":40.33938,"lng":-100.18413,"zip":"69022","miles_from_dt":19.18},{"city":"Holbrook","state_name":"Nebraska","lat":40.34151,"lng":-100.02639,"zip":"68948","miles_from_dt":19.3},{"city":"Arapahoe","state_name":"Nebraska","lat":40.33653,"lng":-99.89976,"zip":"68922","miles_from_dt":21.44},{"city":"Indianola","state_name":"Nebraska","lat":40.24929,"lng":-100.43866,"zip":"69034","miles_from_dt":21.68},{"city":"Almena","state_name":"Kansas","lat":39.89983,"lng":-99.72522,"zip":"67622","miles_from_dt":23.22},{"city":"Edison","state_name":"Nebraska","lat":40.31655,"lng":-99.77868,"zip":"68936","miles_from_dt":24.29},{"city":"Stamford","state_name":"Nebraska","lat":40.06697,"lng":-99.63045,"zip":"68977","miles_from_dt":25.1},{"city":"Clayton","state_name":"Kansas","lat":39.70199,"lng":-100.18031,"zip":"67629","miles_from_dt":25.59},{"city":"Oxford","state_name":"Nebraska","lat":40.25263,"lng":-99.63085,"zip":"68967","miles_from_dt":28.1},{"city":"Oberlin","state_name":"Kansas","lat":39.83214,"lng":-100.56728,"zip":"67749","miles_from_dt":29.5}],"targetCityZipCode":"69046","targetCityState":"Nebraska"},"__N_SSG":true}