{"pageProps":{"stateName":"Nebraska","cityName":"yutan","nearbyCities":[{"city":"Mead","state_name":"Nebraska","lat":41.23633,"lng":-96.48793,"zip":"68041","miles_from_dt":4.1},{"city":"Waterloo","state_name":"Nebraska","lat":41.24166,"lng":-96.31542,"zip":"68069","miles_from_dt":4.89},{"city":"Valley","state_name":"Nebraska","lat":41.34925,"lng":-96.35545,"zip":"68064","miles_from_dt":8.09},{"city":"Elkhorn","state_name":"Nebraska","lat":41.27744,"lng":-96.24558,"zip":"68022","miles_from_dt":8.92},{"city":"Ithaca","state_name":"Nebraska","lat":41.12933,"lng":-96.52425,"zip":"68033","miles_from_dt":9.67},{"city":"Memphis","state_name":"Nebraska","lat":41.09426,"lng":-96.43683,"zip":"68042","miles_from_dt":10.11},{"city":"Omaha","state_name":"Nebraska","lat":41.23394,"lng":-96.19613,"zip":"68130","miles_from_dt":11.11},{"city":"Omaha","state_name":"Nebraska","lat":41.2052,"lng":-96.19576,"zip":"68135","miles_from_dt":11.37},{"city":"Colon","state_name":"Nebraska","lat":41.30207,"lng":-96.61573,"zip":"68018","miles_from_dt":11.59},{"city":"Wahoo","state_name":"Nebraska","lat":41.18451,"lng":-96.61996,"zip":"68066","miles_from_dt":11.61},{"city":"Ashland","state_name":"Nebraska","lat":41.07161,"lng":-96.38013,"zip":"68003","miles_from_dt":11.67},{"city":"Gretna","state_name":"Nebraska","lat":41.10513,"lng":-96.26098,"zip":"68028","miles_from_dt":12.06},{"city":"Omaha","state_name":"Nebraska","lat":41.263,"lng":-96.1772,"zip":"68118","miles_from_dt":12.2},{"city":"Omaha","state_name":"Nebraska","lat":41.16932,"lng":-96.18783,"zip":"68136","miles_from_dt":12.51},{"city":"Omaha","state_name":"Nebraska","lat":41.29842,"lng":-96.16629,"zip":"68116","miles_from_dt":13.29},{"city":"Fremont","state_name":"Nebraska","lat":41.43749,"lng":-96.49158,"zip":"68025","miles_from_dt":14.33},{"city":"Bennington","state_name":"Nebraska","lat":41.37184,"lng":-96.19524,"zip":"68007","miles_from_dt":14.41},{"city":"Boys Town","state_name":"Nebraska","lat":41.25616,"lng":-96.13352,"zip":"68010","miles_from_dt":14.41},{"city":"Fremont","state_name":"Nebraska","lat":41.44032,"lng":-96.48975,"zip":"68026","miles_from_dt":14.49},{"city":"Omaha","state_name":"Nebraska","lat":41.22151,"lng":-96.12024,"zip":"68139","miles_from_dt":15.11},{"city":"Omaha","state_name":"Nebraska","lat":41.23473,"lng":-96.11909,"zip":"68144","miles_from_dt":15.12},{"city":"Washington","state_name":"Nebraska","lat":41.39759,"lng":-96.20741,"zip":"68068","miles_from_dt":15.15},{"city":"Omaha","state_name":"Nebraska","lat":41.15661,"lng":-96.13891,"zip":"68138","miles_from_dt":15.21},{"city":"Omaha","state_name":"Nebraska","lat":41.20595,"lng":-96.11924,"zip":"68137","miles_from_dt":15.29},{"city":"Omaha","state_name":"Nebraska","lat":41.26408,"lng":-96.11665,"zip":"68154","miles_from_dt":15.34},{"city":"Cedar Bluffs","state_name":"Nebraska","lat":41.38351,"lng":-96.64737,"zip":"68015","miles_from_dt":15.89},{"city":"Omaha","state_name":"Nebraska","lat":41.29886,"lng":-96.10949,"zip":"68164","miles_from_dt":16.14},{"city":"Malmo","state_name":"Nebraska","lat":41.28555,"lng":-96.73815,"zip":"68040","miles_from_dt":17.42},{"city":"Springfield","state_name":"Nebraska","lat":41.06673,"lng":-96.1595,"zip":"68059","miles_from_dt":17.65},{"city":"Greenwood","state_name":"Nebraska","lat":40.98215,"lng":-96.44222,"zip":"68366","miles_from_dt":17.83},{"city":"Kennard","state_name":"Nebraska","lat":41.45558,"lng":-96.2203,"zip":"68034","miles_from_dt":17.87},{"city":"South Bend","state_name":"Nebraska","lat":41.00842,"lng":-96.2483,"zip":"68058","miles_from_dt":18.01},{"city":"Ceresco","state_name":"Nebraska","lat":41.05938,"lng":-96.66179,"zip":"68017","miles_from_dt":18.1},{"city":"La Vista","state_name":"Nebraska","lat":41.17972,"lng":-96.07081,"zip":"68128","miles_from_dt":18.11},{"city":"Omaha","state_name":"Nebraska","lat":41.37012,"lng":-96.10276,"zip":"68142","miles_from_dt":18.33},{"city":"Arlington","state_name":"Nebraska","lat":41.50163,"lng":-96.33975,"zip":"68002","miles_from_dt":18.46},{"city":"Omaha","state_name":"Nebraska","lat":41.23322,"lng":-96.053,"zip":"68180","miles_from_dt":18.57},{"city":"Omaha","state_name":"Nebraska","lat":41.23515,"lng":-96.0522,"zip":"68124","miles_from_dt":18.6},{"city":"Omaha","state_name":"Nebraska","lat":41.26318,"lng":-96.05208,"zip":"68114","miles_from_dt":18.68},{"city":"Omaha","state_name":"Nebraska","lat":41.2061,"lng":-96.05245,"zip":"68127","miles_from_dt":18.73},{"city":"Omaha","state_name":"Nebraska","lat":41.29776,"lng":-96.0503,"zip":"68134","miles_from_dt":19.12},{"city":"Papillion","state_name":"Nebraska","lat":41.12206,"lng":-96.06138,"zip":"68046","miles_from_dt":19.86},{"city":"Omaha","state_name":"Nebraska","lat":41.36451,"lng":-96.05036,"zip":"68122","miles_from_dt":20.58},{"city":"Weston","state_name":"Nebraska","lat":41.1924,"lng":-96.79973,"zip":"68070","miles_from_dt":20.6},{"city":"Omaha","state_name":"Nebraska","lat":41.25775,"lng":-96.01072,"zip":"68182","miles_from_dt":20.8},{"city":"Omaha","state_name":"Nebraska","lat":41.266,"lng":-96.01003,"zip":"68198","miles_from_dt":20.88},{"city":"Ames","state_name":"Nebraska","lat":41.48963,"lng":-96.63911,"zip":"68621","miles_from_dt":21},{"city":"Waverly","state_name":"Nebraska","lat":40.94804,"lng":-96.52806,"zip":"68462","miles_from_dt":21.03},{"city":"Omaha","state_name":"Nebraska","lat":41.23885,"lng":-96.00244,"zip":"68106","miles_from_dt":21.19},{"city":"Omaha","state_name":"Nebraska","lat":41.26506,"lng":-96.00153,"zip":"68132","miles_from_dt":21.31},{"city":"Omaha","state_name":"Nebraska","lat":41.2062,"lng":-96.00138,"zip":"68117","miles_from_dt":21.38},{"city":"Nickerson","state_name":"Nebraska","lat":41.54798,"lng":-96.44871,"zip":"68044","miles_from_dt":21.4},{"city":"Omaha","state_name":"Nebraska","lat":41.29525,"lng":-96.00104,"zip":"68104","miles_from_dt":21.61},{"city":"Cedar Creek","state_name":"Nebraska","lat":41.02518,"lng":-96.1063,"zip":"68016","miles_from_dt":21.64},{"city":"Omaha","state_name":"Nebraska","lat":41.17902,"lng":-95.99536,"zip":"68157","miles_from_dt":21.97},{"city":"Papillion","state_name":"Nebraska","lat":41.11754,"lng":-96.00292,"zip":"68133","miles_from_dt":22.79},{"city":"Morse Bluff","state_name":"Nebraska","lat":41.40482,"lng":-96.78949,"zip":"68648","miles_from_dt":22.84},{"city":"Omaha","state_name":"Nebraska","lat":41.36282,"lng":-95.99995,"zip":"68152","miles_from_dt":22.95},{"city":"Louisville","state_name":"Nebraska","lat":40.9844,"lng":-96.12673,"zip":"68037","miles_from_dt":22.96},{"city":"Prague","state_name":"Nebraska","lat":41.30593,"lng":-96.84303,"zip":"68050","miles_from_dt":23.04},{"city":"Omaha","state_name":"Nebraska","lat":41.2406,"lng":-95.96429,"zip":"68105","miles_from_dt":23.18},{"city":"Omaha","state_name":"Nebraska","lat":41.26435,"lng":-95.96479,"zip":"68131","miles_from_dt":23.21},{"city":"Omaha","state_name":"Nebraska","lat":41.26626,"lng":-95.96434,"zip":"68175","miles_from_dt":23.25},{"city":"Murdock","state_name":"Nebraska","lat":40.921,"lng":-96.26263,"zip":"68407","miles_from_dt":23.26},{"city":"Lincoln","state_name":"Nebraska","lat":40.93341,"lng":-96.60487,"zip":"68517","miles_from_dt":23.45},{"city":"Omaha","state_name":"Nebraska","lat":41.29564,"lng":-95.96395,"zip":"68111","miles_from_dt":23.51},{"city":"Davey","state_name":"Nebraska","lat":40.9615,"lng":-96.68405,"zip":"68336","miles_from_dt":23.94},{"city":"Omaha","state_name":"Nebraska","lat":41.20888,"lng":-95.95126,"zip":"68107","miles_from_dt":23.96},{"city":"Bellevue","state_name":"Nebraska","lat":41.17655,"lng":-95.95678,"zip":"68147","miles_from_dt":23.98},{"city":"Alvo","state_name":"Nebraska","lat":40.88971,"lng":-96.38781,"zip":"68304","miles_from_dt":24.15},{"city":"Omaha","state_name":"Nebraska","lat":41.25711,"lng":-95.945,"zip":"68103","miles_from_dt":24.21},{"city":"Omaha","state_name":"Nebraska","lat":41.26535,"lng":-95.94535,"zip":"68178","miles_from_dt":24.23},{"city":"Blair","state_name":"Nebraska","lat":41.54573,"lng":-96.17421,"zip":"68008","miles_from_dt":24.42},{"city":"Omaha","state_name":"Nebraska","lat":41.26069,"lng":-95.94059,"zip":"68172","miles_from_dt":24.46},{"city":"Omaha","state_name":"Nebraska","lat":41.26069,"lng":-95.94059,"zip":"68176","miles_from_dt":24.46},{"city":"Omaha","state_name":"Nebraska","lat":41.25709,"lng":-95.93977,"zip":"68183","miles_from_dt":24.49},{"city":"Lincoln","state_name":"Nebraska","lat":40.93408,"lng":-96.65076,"zip":"68514","miles_from_dt":24.55},{"city":"Omaha","state_name":"Nebraska","lat":41.26144,"lng":-95.93865,"zip":"68197","miles_from_dt":24.56},{"city":"Omaha","state_name":"Nebraska","lat":41.25762,"lng":-95.93666,"zip":"68145","miles_from_dt":24.65},{"city":"Omaha","state_name":"Nebraska","lat":41.26277,"lng":-95.93439,"zip":"68179","miles_from_dt":24.79},{"city":"Omaha","state_name":"Nebraska","lat":41.26231,"lng":-95.93224,"zip":"68102","miles_from_dt":24.9},{"city":"Omaha","state_name":"Nebraska","lat":41.23753,"lng":-95.93118,"zip":"68108","miles_from_dt":24.91},{"city":"Omaha","state_name":"Nebraska","lat":41.26219,"lng":-95.93133,"zip":"68101","miles_from_dt":24.94},{"city":"Omaha","state_name":"Nebraska","lat":41.23759,"lng":-95.92759,"zip":"68109","miles_from_dt":25.09},{"city":"Fort Calhoun","state_name":"Nebraska","lat":41.46191,"lng":-96.02226,"zip":"68023","miles_from_dt":25.32},{"city":"Manley","state_name":"Nebraska","lat":40.92045,"lng":-96.16707,"zip":"68403","miles_from_dt":25.38},{"city":"Omaha","state_name":"Nebraska","lat":41.38183,"lng":-95.95804,"zip":"68112","miles_from_dt":25.46},{"city":"Valparaiso","state_name":"Nebraska","lat":41.0766,"lng":-96.84854,"zip":"68065","miles_from_dt":25.51},{"city":"Carter Lake","state_name":"Iowa","lat":41.28844,"lng":-95.91715,"zip":"51510","miles_from_dt":25.85},{"city":"Bellevue","state_name":"Nebraska","lat":41.10108,"lng":-95.94774,"zip":"68123","miles_from_dt":25.89},{"city":"Winslow","state_name":"Nebraska","lat":41.61016,"lng":-96.50473,"zip":"68072","miles_from_dt":26.07},{"city":"Omaha","state_name":"Nebraska","lat":41.29867,"lng":-95.91143,"zip":"68110","miles_from_dt":26.24},{"city":"Omaha","state_name":"Nebraska","lat":41.3066,"lng":-95.90513,"zip":"68119","miles_from_dt":26.66},{"city":"North Bend","state_name":"Nebraska","lat":41.50784,"lng":-96.78896,"zip":"68649","miles_from_dt":27.07},{"city":"St Columbans","state_name":"Nebraska","lat":41.14123,"lng":-95.90438,"zip":"68056","miles_from_dt":27.18},{"city":"Raymond","state_name":"Nebraska","lat":40.97244,"lng":-96.79624,"zip":"68428","miles_from_dt":27.33},{"city":"Offutt Afb","state_name":"Nebraska","lat":41.11745,"lng":-95.90889,"zip":"68113","miles_from_dt":27.41},{"city":"Council Bluffs","state_name":"Iowa","lat":41.22828,"lng":-95.87889,"zip":"51501","miles_from_dt":27.64},{"city":"Bellevue","state_name":"Nebraska","lat":41.14161,"lng":-95.89394,"zip":"68005","miles_from_dt":27.7},{"city":"Lincoln","state_name":"Nebraska","lat":40.84573,"lng":-96.51753,"zip":"68527","miles_from_dt":27.74},{"city":"Lincoln","state_name":"Nebraska","lat":40.90211,"lng":-96.71415,"zip":"68531","miles_from_dt":28.19},{"city":"Lincoln","state_name":"Nebraska","lat":40.85954,"lng":-96.61172,"zip":"68507","miles_from_dt":28.26},{"city":"Hooper","state_name":"Nebraska","lat":41.64041,"lng":-96.53046,"zip":"68031","miles_from_dt":28.39},{"city":"Lincoln","state_name":"Nebraska","lat":40.8529,"lng":-96.61311,"zip":"68529","miles_from_dt":28.71},{"city":"Elmwood","state_name":"Nebraska","lat":40.82962,"lng":-96.30028,"zip":"68349","miles_from_dt":28.84},{"city":"Weeping Water","state_name":"Nebraska","lat":40.8759,"lng":-96.13518,"zip":"68463","miles_from_dt":28.88},{"city":"Bruno","state_name":"Nebraska","lat":41.28219,"lng":-96.96458,"zip":"68014","miles_from_dt":29.07},{"city":"Crescent","state_name":"Iowa","lat":41.37186,"lng":-95.87818,"zip":"51526","miles_from_dt":29.11},{"city":"Abie","state_name":"Nebraska","lat":41.33369,"lng":-96.95489,"zip":"68001","miles_from_dt":29.14},{"city":"Council Bluffs","state_name":"Iowa","lat":41.26139,"lng":-95.84988,"zip":"51502","miles_from_dt":29.18},{"city":"Lincoln","state_name":"Nebraska","lat":40.85451,"lng":-96.66104,"zip":"68504","miles_from_dt":29.63},{"city":"Herman","state_name":"Nebraska","lat":41.65873,"lng":-96.27394,"zip":"68029","miles_from_dt":29.79}],"targetCityZipCode":"68073","targetCityState":"Nebraska"},"__N_SSG":true}