{"pageProps":{"stateName":"Mississippi","cityName":"brooksville","nearbyCities":[{"city":"Crawford","state_name":"Mississippi","lat":33.31913,"lng":-88.61308,"zip":"39743","miles_from_dt":5.91},{"city":"Macon","state_name":"Mississippi","lat":33.0998,"lng":-88.55702,"zip":"39341","miles_from_dt":9.63},{"city":"Columbus","state_name":"Mississippi","lat":33.41091,"lng":-88.50807,"zip":"39701","miles_from_dt":12.57},{"city":"Artesia","state_name":"Mississippi","lat":33.4169,"lng":-88.64178,"zip":"39736","miles_from_dt":12.83},{"city":"Mayhew","state_name":"Mississippi","lat":33.48441,"lng":-88.63052,"zip":"39753","miles_from_dt":17.22},{"city":"Shuqualak","state_name":"Mississippi","lat":32.97952,"lng":-88.61234,"zip":"39361","miles_from_dt":17.95},{"city":"Mississippi State","state_name":"Mississippi","lat":33.44648,"lng":-88.79576,"zip":"39762","miles_from_dt":19.06},{"city":"Columbus","state_name":"Mississippi","lat":33.43876,"lng":-88.34493,"zip":"39702","miles_from_dt":19.32},{"city":"Starkville","state_name":"Mississippi","lat":33.43491,"lng":-88.82631,"zip":"39759","miles_from_dt":19.72},{"city":"Columbus","state_name":"Mississippi","lat":33.51615,"lng":-88.4835,"zip":"39703","miles_from_dt":19.91},{"city":"Columbus","state_name":"Mississippi","lat":33.51744,"lng":-88.47993,"zip":"39704","miles_from_dt":20.06},{"city":"Starkville","state_name":"Mississippi","lat":33.44994,"lng":-88.82,"zip":"39760","miles_from_dt":20.19},{"city":"Carrollton","state_name":"Alabama","lat":33.25701,"lng":-88.15716,"zip":"35447","miles_from_dt":24.43},{"city":"Ethelsville","state_name":"Alabama","lat":33.41749,"lng":-88.21158,"zip":"35461","miles_from_dt":24.56},{"city":"Aliceville","state_name":"Alabama","lat":33.06016,"lng":-88.20159,"zip":"35442","miles_from_dt":25.07},{"city":"Columbus","state_name":"Mississippi","lat":33.58669,"lng":-88.43705,"zip":"39705","miles_from_dt":25.36},{"city":"Sturgis","state_name":"Mississippi","lat":33.31867,"lng":-89.01136,"zip":"39769","miles_from_dt":25.66},{"city":"Louisville","state_name":"Mississippi","lat":33.10417,"lng":-89.00259,"zip":"39339","miles_from_dt":26.26},{"city":"McShan","state_name":"Alabama","lat":33.38104,"lng":-88.14272,"zip":"35471","miles_from_dt":27.07},{"city":"Panola","state_name":"Alabama","lat":32.96304,"lng":-88.23121,"zip":"35477","miles_from_dt":27.68},{"city":"West Point","state_name":"Mississippi","lat":33.63892,"lng":-88.67558,"zip":"39773","miles_from_dt":28.16},{"city":"Columbus","state_name":"Mississippi","lat":33.63637,"lng":-88.45507,"zip":"39710","miles_from_dt":28.34},{"city":"Steens","state_name":"Mississippi","lat":33.5876,"lng":-88.31598,"zip":"39766","miles_from_dt":28.45},{"city":"Scooba","state_name":"Mississippi","lat":32.83317,"lng":-88.45605,"zip":"39358","miles_from_dt":28.82},{"city":"Preston","state_name":"Mississippi","lat":32.87945,"lng":-88.83625,"zip":"39354","miles_from_dt":28.91}],"targetCityZipCode":"39739","targetCityState":"Mississippi"},"__N_SSG":true}