{"pageProps":{"stateName":"Mississippi","cityName":"courtland","nearbyCities":[{"city":"Pope","state_name":"Mississippi","lat":34.19011,"lng":-89.89906,"zip":"38658","miles_from_dt":3.04},{"city":"Batesville","state_name":"Mississippi","lat":34.30375,"lng":-89.9581,"zip":"38606","miles_from_dt":5.51},{"city":"Enid","state_name":"Mississippi","lat":34.13394,"lng":-90.01827,"zip":"38927","miles_from_dt":8.96},{"city":"Oakland","state_name":"Mississippi","lat":34.07635,"lng":-89.89364,"zip":"38948","miles_from_dt":10.81},{"city":"Sardis","state_name":"Mississippi","lat":34.42007,"lng":-89.92708,"zip":"38666","miles_from_dt":12.98},{"city":"Crowder","state_name":"Mississippi","lat":34.16944,"lng":-90.13448,"zip":"38622","miles_from_dt":13.26},{"city":"Taylor","state_name":"Mississippi","lat":34.29607,"lng":-89.62485,"zip":"38673","miles_from_dt":17.21},{"city":"Tillatoba","state_name":"Mississippi","lat":33.96463,"lng":-89.8859,"zip":"38961","miles_from_dt":18.51},{"city":"Water Valley","state_name":"Mississippi","lat":34.13486,"lng":-89.59257,"zip":"38965","miles_from_dt":19.68},{"city":"Como","state_name":"Mississippi","lat":34.51288,"lng":-89.82678,"zip":"38619","miles_from_dt":20.01},{"city":"Lambert","state_name":"Mississippi","lat":34.15082,"lng":-90.26281,"zip":"38643","miles_from_dt":20.66},{"city":"Crenshaw","state_name":"Mississippi","lat":34.4528,"lng":-90.1731,"zip":"38621","miles_from_dt":21.17},{"city":"Charleston","state_name":"Mississippi","lat":33.98328,"lng":-90.1425,"zip":"38921","miles_from_dt":21.52},{"city":"Marks","state_name":"Mississippi","lat":34.2327,"lng":-90.29265,"zip":"38609","miles_from_dt":21.59},{"city":"Scobey","state_name":"Mississippi","lat":33.91821,"lng":-89.92325,"zip":"38953","miles_from_dt":21.64},{"city":"Marks","state_name":"Mississippi","lat":34.28141,"lng":-90.29673,"zip":"38646","miles_from_dt":22.08},{"city":"Sledge","state_name":"Mississippi","lat":34.39527,"lng":-90.25492,"zip":"38628","miles_from_dt":22.43},{"city":"University","state_name":"Mississippi","lat":34.36402,"lng":-89.53859,"zip":"38677","miles_from_dt":23.41},{"city":"Darling","state_name":"Mississippi","lat":34.36131,"lng":-90.29692,"zip":"38623","miles_from_dt":23.56},{"city":"Memphis Stc","state_name":"Mississippi","lat":34.36481,"lng":-89.52665,"zip":"38675","miles_from_dt":24.06},{"city":"Swan Lake","state_name":"Mississippi","lat":33.94923,"lng":-90.17468,"zip":"38958","miles_from_dt":24.51},{"city":"Sledge","state_name":"Mississippi","lat":34.42815,"lng":-90.28899,"zip":"38670","miles_from_dt":25.27},{"city":"Cascilla","state_name":"Mississippi","lat":33.8823,"lng":-90.05018,"zip":"38920","miles_from_dt":25.31},{"city":"Senatobia","state_name":"Mississippi","lat":34.60109,"lng":-89.92505,"zip":"38668","miles_from_dt":25.44},{"city":"Coffeeville","state_name":"Mississippi","lat":33.93641,"lng":-89.64878,"zip":"38922","miles_from_dt":25.48},{"city":"Oxford","state_name":"Mississippi","lat":34.33114,"lng":-89.4825,"zip":"38655","miles_from_dt":25.7},{"city":"Sarah","state_name":"Mississippi","lat":34.58165,"lng":-90.16693,"zip":"38665","miles_from_dt":28.05},{"city":"Independence","state_name":"Mississippi","lat":34.63309,"lng":-89.82378,"zip":"38638","miles_from_dt":28.14},{"city":"Vance","state_name":"Mississippi","lat":34.11035,"lng":-90.38868,"zip":"38964","miles_from_dt":28.37},{"city":"Paris","state_name":"Mississippi","lat":34.18542,"lng":-89.4151,"zip":"38949","miles_from_dt":28.84},{"city":"Tippo","state_name":"Mississippi","lat":33.87201,"lng":-90.18465,"zip":"38962","miles_from_dt":29.22},{"city":"Jonestown","state_name":"Mississippi","lat":34.30909,"lng":-90.4285,"zip":"38639","miles_from_dt":29.83}],"targetCityZipCode":"38620","targetCityState":"Mississippi"},"__N_SSG":true}