{"pageProps":{"stateName":"Mississippi","cityName":"kilmichael","nearbyCities":[{"city":"Stewart","state_name":"Mississippi","lat":33.47263,"lng":-89.45001,"zip":"39767","miles_from_dt":6.91},{"city":"Winona","state_name":"Mississippi","lat":33.45832,"lng":-89.72026,"zip":"38967","miles_from_dt":9.92},{"city":"French Camp","state_name":"Mississippi","lat":33.29984,"lng":-89.46277,"zip":"39745","miles_from_dt":9.98},{"city":"Vaiden","state_name":"Mississippi","lat":33.30398,"lng":-89.74859,"zip":"39176","miles_from_dt":13.93},{"city":"Duck Hill","state_name":"Mississippi","lat":33.62917,"lng":-89.61961,"zip":"38925","miles_from_dt":14.72},{"city":"Weir","state_name":"Mississippi","lat":33.30509,"lng":-89.29893,"zip":"39772","miles_from_dt":16.82},{"city":"McCarley","state_name":"Mississippi","lat":33.52033,"lng":-89.84525,"zip":"38943","miles_from_dt":18.13},{"city":"Eupora","state_name":"Mississippi","lat":33.58344,"lng":-89.30374,"zip":"39744","miles_from_dt":18.19},{"city":"West","state_name":"Mississippi","lat":33.19153,"lng":-89.75324,"zip":"39192","miles_from_dt":19.68},{"city":"Bellefontaine","state_name":"Mississippi","lat":33.65211,"lng":-89.33573,"zip":"39737","miles_from_dt":20.2},{"city":"Walthall","state_name":"Mississippi","lat":33.60694,"lng":-89.27873,"zip":"39771","miles_from_dt":20.33},{"city":"Ackerman","state_name":"Mississippi","lat":33.34511,"lng":-89.18998,"zip":"39735","miles_from_dt":21.71},{"city":"Gore Springs","state_name":"Mississippi","lat":33.74014,"lng":-89.52425,"zip":"38929","miles_from_dt":21.94},{"city":"Ethel","state_name":"Mississippi","lat":33.11574,"lng":-89.44853,"zip":"39067","miles_from_dt":22.02},{"city":"North Carrollton","state_name":"Mississippi","lat":33.51718,"lng":-89.92128,"zip":"38947","miles_from_dt":22.2},{"city":"McCool","state_name":"Mississippi","lat":33.15684,"lng":-89.33033,"zip":"39108","miles_from_dt":22.43},{"city":"Mathiston","state_name":"Mississippi","lat":33.5198,"lng":-89.15427,"zip":"39752","miles_from_dt":24.02},{"city":"Slate Spring","state_name":"Mississippi","lat":33.74056,"lng":-89.37111,"zip":"38955","miles_from_dt":24.3},{"city":"Carrollton","state_name":"Mississippi","lat":33.54902,"lng":-89.95501,"zip":"38917","miles_from_dt":24.75},{"city":"Coila","state_name":"Mississippi","lat":33.37829,"lng":-89.99354,"zip":"38923","miles_from_dt":25.6},{"city":"Tie Plant","state_name":"Mississippi","lat":33.73882,"lng":-89.78941,"zip":"38960","miles_from_dt":25.67},{"city":"Grenada","state_name":"Mississippi","lat":33.76275,"lng":-89.79799,"zip":"38901","miles_from_dt":27.33},{"city":"Kosciusko","state_name":"Mississippi","lat":33.00775,"lng":-89.54503,"zip":"39090","miles_from_dt":28.61},{"city":"Grenada","state_name":"Mississippi","lat":33.77883,"lng":-89.81228,"zip":"38902","miles_from_dt":28.71},{"city":"McAdams","state_name":"Mississippi","lat":33.01949,"lng":-89.68708,"zip":"39107","miles_from_dt":28.85},{"city":"Durant","state_name":"Mississippi","lat":33.11698,"lng":-89.89975,"zip":"39063","miles_from_dt":29.08},{"city":"Elliott","state_name":"Mississippi","lat":33.78008,"lng":-89.82708,"zip":"38926","miles_from_dt":29.23},{"city":"Calhoun City","state_name":"Mississippi","lat":33.81815,"lng":-89.35158,"zip":"38916","miles_from_dt":29.64}],"targetCityZipCode":"39747","targetCityState":"Mississippi"},"__N_SSG":true}