{"pageProps":{"stateName":"Mississippi","cityName":"lexington","nearbyCities":[{"city":"Durant","state_name":"Mississippi","lat":33.11698,"lng":-89.89975,"zip":"39063","miles_from_dt":11.3},{"city":"Tchula","state_name":"Mississippi","lat":33.13515,"lng":-90.29371,"zip":"39169","miles_from_dt":11.6},{"city":"Cruger","state_name":"Mississippi","lat":33.29342,"lng":-90.22392,"zip":"38924","miles_from_dt":14.15},{"city":"Pickens","state_name":"Mississippi","lat":32.88078,"lng":-89.99316,"zip":"39146","miles_from_dt":17.46},{"city":"Goodman","state_name":"Mississippi","lat":32.93178,"lng":-89.88449,"zip":"39079","miles_from_dt":17.77},{"city":"Coila","state_name":"Mississippi","lat":33.37829,"lng":-89.99354,"zip":"38923","miles_from_dt":18.78},{"city":"West","state_name":"Mississippi","lat":33.19153,"lng":-89.75324,"zip":"39192","miles_from_dt":20.4},{"city":"Vaughan","state_name":"Mississippi","lat":32.80873,"lng":-90.0984,"zip":"39179","miles_from_dt":21.4},{"city":"Sidon","state_name":"Mississippi","lat":33.41301,"lng":-90.21536,"zip":"38954","miles_from_dt":21.42},{"city":"Sallis","state_name":"Mississippi","lat":32.99756,"lng":-89.75336,"zip":"39160","miles_from_dt":21.5},{"city":"Benton","state_name":"Mississippi","lat":32.82216,"lng":-90.22757,"zip":"39039","miles_from_dt":21.89},{"city":"Belzoni","state_name":"Mississippi","lat":33.20179,"lng":-90.47023,"zip":"39038","miles_from_dt":22.51},{"city":"Silver City","state_name":"Mississippi","lat":33.05161,"lng":-90.48208,"zip":"39166","miles_from_dt":22.96},{"city":"Morgan City","state_name":"Mississippi","lat":33.37701,"lng":-90.35591,"zip":"38946","miles_from_dt":23.34},{"city":"Vaiden","state_name":"Mississippi","lat":33.30398,"lng":-89.74859,"zip":"39176","miles_from_dt":23.74},{"city":"McAdams","state_name":"Mississippi","lat":33.01949,"lng":-89.68708,"zip":"39107","miles_from_dt":24.62},{"city":"Swiftown","state_name":"Mississippi","lat":33.40762,"lng":-90.37472,"zip":"38959","miles_from_dt":25.65},{"city":"Midnight","state_name":"Mississippi","lat":33.04679,"lng":-90.56133,"zip":"39115","miles_from_dt":27.54},{"city":"Camden","state_name":"Mississippi","lat":32.78735,"lng":-89.8173,"zip":"39045","miles_from_dt":27.98},{"city":"Greenwood","state_name":"Mississippi","lat":33.52027,"lng":-90.18058,"zip":"38945","miles_from_dt":28.08},{"city":"Greenwood","state_name":"Mississippi","lat":33.52226,"lng":-90.17898,"zip":"38935","miles_from_dt":28.2},{"city":"Greenwood","state_name":"Mississippi","lat":33.52845,"lng":-90.14245,"zip":"38930","miles_from_dt":28.33},{"city":"North Carrollton","state_name":"Mississippi","lat":33.51718,"lng":-89.92128,"zip":"38947","miles_from_dt":29.2},{"city":"Itta Bena","state_name":"Mississippi","lat":33.48655,"lng":-90.35909,"zip":"38941","miles_from_dt":29.58}],"targetCityZipCode":"39095","targetCityState":"Mississippi"},"__N_SSG":true}