{"pageProps":{"stateName":"Mississippi","cityName":"magee","nearbyCities":[{"city":"Mendenhall","state_name":"Mississippi","lat":31.95331,"lng":-89.83257,"zip":"39114","miles_from_dt":7.82},{"city":"Mize","state_name":"Mississippi","lat":31.89165,"lng":-89.54925,"zip":"39116","miles_from_dt":9.93},{"city":"Mount Olive","state_name":"Mississippi","lat":31.75236,"lng":-89.67509,"zip":"39119","miles_from_dt":10.17},{"city":"D Lo","state_name":"Mississippi","lat":31.98479,"lng":-89.89815,"zip":"39062","miles_from_dt":12.24},{"city":"Puckett","state_name":"Mississippi","lat":32.10104,"lng":-89.78709,"zip":"39151","miles_from_dt":14.74},{"city":"Raleigh","state_name":"Mississippi","lat":32.05133,"lng":-89.50159,"zip":"39153","miles_from_dt":16.65},{"city":"Braxton","state_name":"Mississippi","lat":32.02869,"lng":-89.97161,"zip":"39044","miles_from_dt":17.49},{"city":"Pinola","state_name":"Mississippi","lat":31.83354,"lng":-90.00985,"zip":"39149","miles_from_dt":17.67},{"city":"Taylorsville","state_name":"Mississippi","lat":31.82994,"lng":-89.40974,"zip":"39168","miles_from_dt":18.69},{"city":"Collins","state_name":"Mississippi","lat":31.65017,"lng":-89.57215,"zip":"39428","miles_from_dt":18.95},{"city":"Newhebron","state_name":"Mississippi","lat":31.75211,"lng":-90.00512,"zip":"39140","miles_from_dt":19.55},{"city":"Piney Woods","state_name":"Mississippi","lat":32.06159,"lng":-89.99459,"zip":"39148","miles_from_dt":19.87},{"city":"Prentiss","state_name":"Mississippi","lat":31.61739,"lng":-89.85458,"zip":"39474","miles_from_dt":20.77},{"city":"Pulaski","state_name":"Mississippi","lat":32.2011,"lng":-89.57779,"zip":"39152","miles_from_dt":22.62},{"city":"Star","state_name":"Mississippi","lat":32.09316,"lng":-90.04003,"zip":"39167","miles_from_dt":23.3},{"city":"Harrisville","state_name":"Mississippi","lat":31.94663,"lng":-90.12369,"zip":"39082","miles_from_dt":24.09},{"city":"Brandon","state_name":"Mississippi","lat":32.2135,"lng":-89.88966,"zip":"39042","miles_from_dt":24.12},{"city":"Bay Springs","state_name":"Mississippi","lat":31.95953,"lng":-89.26745,"zip":"39422","miles_from_dt":26.85},{"city":"Soso","state_name":"Mississippi","lat":31.70889,"lng":-89.31529,"zip":"39480","miles_from_dt":26.96},{"city":"Stringer","state_name":"Mississippi","lat":31.86738,"lng":-89.24457,"zip":"39481","miles_from_dt":27.91},{"city":"Silver Creek","state_name":"Mississippi","lat":31.58615,"lng":-90.02955,"zip":"39663","miles_from_dt":28.11},{"city":"Georgetown","state_name":"Mississippi","lat":31.87901,"lng":-90.19596,"zip":"39078","miles_from_dt":28.11},{"city":"Florence","state_name":"Mississippi","lat":32.10269,"lng":-90.13049,"zip":"39073","miles_from_dt":28.11},{"city":"Bassfield","state_name":"Mississippi","lat":31.48411,"lng":-89.71179,"zip":"39421","miles_from_dt":28.34},{"city":"Morton","state_name":"Mississippi","lat":32.31096,"lng":-89.66413,"zip":"39117","miles_from_dt":28.81},{"city":"Carson","state_name":"Mississippi","lat":31.48693,"lng":-89.82701,"zip":"39427","miles_from_dt":28.86},{"city":"Seminary","state_name":"Mississippi","lat":31.53775,"lng":-89.46065,"zip":"39479","miles_from_dt":28.93}],"targetCityZipCode":"39111","targetCityState":"Mississippi"},"__N_SSG":true}