{"pageProps":{"stateName":"Mississippi","cityName":"mccool","nearbyCities":[{"city":"Ethel","state_name":"Mississippi","lat":33.11574,"lng":-89.44853,"zip":"39067","miles_from_dt":7.42},{"city":"Weir","state_name":"Mississippi","lat":33.30509,"lng":-89.29893,"zip":"39772","miles_from_dt":10.38},{"city":"French Camp","state_name":"Mississippi","lat":33.29984,"lng":-89.46277,"zip":"39745","miles_from_dt":12.49},{"city":"Ackerman","state_name":"Mississippi","lat":33.34511,"lng":-89.18998,"zip":"39735","miles_from_dt":15.31},{"city":"Kosciusko","state_name":"Mississippi","lat":33.00775,"lng":-89.54503,"zip":"39090","miles_from_dt":16.15},{"city":"Louisville","state_name":"Mississippi","lat":33.10417,"lng":-89.00259,"zip":"39339","miles_from_dt":19.35},{"city":"Noxapater","state_name":"Mississippi","lat":32.96171,"lng":-89.089,"zip":"39346","miles_from_dt":19.42},{"city":"Sturgis","state_name":"Mississippi","lat":33.31867,"lng":-89.01136,"zip":"39769","miles_from_dt":21.58},{"city":"Kilmichael","state_name":"Mississippi","lat":33.42283,"lng":-89.5538,"zip":"39747","miles_from_dt":22.43},{"city":"McAdams","state_name":"Mississippi","lat":33.01949,"lng":-89.68708,"zip":"39107","miles_from_dt":22.76},{"city":"Stewart","state_name":"Mississippi","lat":33.47263,"lng":-89.45001,"zip":"39767","miles_from_dt":22.84},{"city":"West","state_name":"Mississippi","lat":33.19153,"lng":-89.75324,"zip":"39192","miles_from_dt":24.63},{"city":"Vaiden","state_name":"Mississippi","lat":33.30398,"lng":-89.74859,"zip":"39176","miles_from_dt":26.26},{"city":"Sallis","state_name":"Mississippi","lat":32.99756,"lng":-89.75336,"zip":"39160","miles_from_dt":26.89},{"city":"Mathiston","state_name":"Mississippi","lat":33.5198,"lng":-89.15427,"zip":"39752","miles_from_dt":27.01},{"city":"Philadelphia","state_name":"Mississippi","lat":32.79674,"lng":-89.12984,"zip":"39350","miles_from_dt":27.41},{"city":"Carthage","state_name":"Mississippi","lat":32.7868,"lng":-89.50718,"zip":"39051","miles_from_dt":27.49},{"city":"Thomastown","state_name":"Mississippi","lat":32.86351,"lng":-89.67094,"zip":"39171","miles_from_dt":28.28},{"city":"Eupora","state_name":"Mississippi","lat":33.58344,"lng":-89.30374,"zip":"39744","miles_from_dt":29.44}],"targetCityZipCode":"39108","targetCityState":"Mississippi"},"__N_SSG":true}