{"pageProps":{"stateName":"Mississippi","cityName":"porterville","nearbyCities":[{"city":"Lauderdale","state_name":"Mississippi","lat":32.53214,"lng":-88.49263,"zip":"39335","miles_from_dt":9.42},{"city":"Meridian","state_name":"Mississippi","lat":32.55417,"lng":-88.57422,"zip":"39309","miles_from_dt":9.66},{"city":"Scooba","state_name":"Mississippi","lat":32.83317,"lng":-88.45605,"zip":"39358","miles_from_dt":11.43},{"city":"Daleville","state_name":"Mississippi","lat":32.59814,"lng":-88.67904,"zip":"39326","miles_from_dt":12.68},{"city":"Emelle","state_name":"Alabama","lat":32.79337,"lng":-88.3003,"zip":"35459","miles_from_dt":13.47},{"city":"De Kalb","state_name":"Mississippi","lat":32.75012,"lng":-88.69564,"zip":"39328","miles_from_dt":13.87},{"city":"Epes","state_name":"Alabama","lat":32.71882,"lng":-88.19452,"zip":"35460","miles_from_dt":16.88},{"city":"Bailey","state_name":"Mississippi","lat":32.56169,"lng":-88.74507,"zip":"39320","miles_from_dt":17.22},{"city":"Cuba","state_name":"Alabama","lat":32.43895,"lng":-88.34797,"zip":"36907","miles_from_dt":17.54},{"city":"Toomsuba","state_name":"Mississippi","lat":32.40597,"lng":-88.49617,"zip":"39364","miles_from_dt":18.11},{"city":"Marion","state_name":"Mississippi","lat":32.42566,"lng":-88.64968,"zip":"39342","miles_from_dt":19.49},{"city":"Meridian","state_name":"Mississippi","lat":32.46392,"lng":-88.72465,"zip":"39305","miles_from_dt":20.14},{"city":"Gainesville","state_name":"Alabama","lat":32.78369,"lng":-88.14383,"zip":"35464","miles_from_dt":21.03},{"city":"Meridian","state_name":"Mississippi","lat":32.42443,"lng":-88.70486,"zip":"39303","miles_from_dt":21.39},{"city":"Shuqualak","state_name":"Mississippi","lat":32.97952,"lng":-88.61234,"zip":"39361","miles_from_dt":22.82},{"city":"Livingston","state_name":"Alabama","lat":32.56801,"lng":-88.09894,"zip":"35470","miles_from_dt":23.17},{"city":"York","state_name":"Alabama","lat":32.43468,"lng":-88.1791,"zip":"36925","miles_from_dt":23.74},{"city":"Collinsville","state_name":"Mississippi","lat":32.56198,"lng":-88.87362,"zip":"39325","miles_from_dt":24.2},{"city":"Meridian","state_name":"Mississippi","lat":32.36429,"lng":-88.68699,"zip":"39304","miles_from_dt":24.24},{"city":"Meridian","state_name":"Mississippi","lat":32.36541,"lng":-88.70025,"zip":"39302","miles_from_dt":24.58},{"city":"Panola","state_name":"Alabama","lat":32.96304,"lng":-88.23121,"zip":"35477","miles_from_dt":24.88},{"city":"Preston","state_name":"Mississippi","lat":32.87945,"lng":-88.83625,"zip":"39354","miles_from_dt":25.42},{"city":"Bellamy","state_name":"Alabama","lat":32.42284,"lng":-88.1465,"zip":"36901","miles_from_dt":25.7},{"city":"Boligee","state_name":"Alabama","lat":32.76538,"lng":-88.01908,"zip":"35443","miles_from_dt":27.56},{"city":"Meridian","state_name":"Mississippi","lat":32.27289,"lng":-88.59226,"zip":"39301","miles_from_dt":28.05},{"city":"West Greene","state_name":"Alabama","lat":32.93665,"lng":-88.09774,"zip":"35491","miles_from_dt":28.84},{"city":"Meridian","state_name":"Mississippi","lat":32.33847,"lng":-88.79217,"zip":"39307","miles_from_dt":29.21}],"targetCityZipCode":"39352","targetCityState":"Mississippi"},"__N_SSG":true}