{"pageProps":{"stateName":"Mississippi","cityName":"raleigh","nearbyCities":[{"city":"Pulaski","state_name":"Mississippi","lat":32.2011,"lng":-89.57779,"zip":"39152","miles_from_dt":11.25},{"city":"Mize","state_name":"Mississippi","lat":31.89165,"lng":-89.54925,"zip":"39116","miles_from_dt":11.35},{"city":"Bay Springs","state_name":"Mississippi","lat":31.95953,"lng":-89.26745,"zip":"39422","miles_from_dt":15.13},{"city":"Taylorsville","state_name":"Mississippi","lat":31.82994,"lng":-89.40974,"zip":"39168","miles_from_dt":16.18},{"city":"Louin","state_name":"Mississippi","lat":32.11034,"lng":-89.23274,"zip":"39338","miles_from_dt":16.29},{"city":"Magee","state_name":"Mississippi","lat":31.89536,"lng":-89.71816,"zip":"39111","miles_from_dt":16.65},{"city":"Puckett","state_name":"Mississippi","lat":32.10104,"lng":-89.78709,"zip":"39151","miles_from_dt":17.1},{"city":"Stringer","state_name":"Mississippi","lat":31.86738,"lng":-89.24457,"zip":"39481","miles_from_dt":19.71},{"city":"Lake","state_name":"Mississippi","lat":32.31489,"lng":-89.36833,"zip":"39092","miles_from_dt":19.77},{"city":"Morton","state_name":"Mississippi","lat":32.31096,"lng":-89.66413,"zip":"39117","miles_from_dt":20.27},{"city":"Mendenhall","state_name":"Mississippi","lat":31.95331,"lng":-89.83257,"zip":"39114","miles_from_dt":20.57},{"city":"Lawrence","state_name":"Mississippi","lat":32.29081,"lng":-89.27253,"zip":"39336","miles_from_dt":21.27},{"city":"Mount Olive","state_name":"Mississippi","lat":31.75236,"lng":-89.67509,"zip":"39119","miles_from_dt":22.99},{"city":"Forest","state_name":"Mississippi","lat":32.3872,"lng":-89.47398,"zip":"39074","miles_from_dt":23.2},{"city":"D Lo","state_name":"Mississippi","lat":31.98479,"lng":-89.89815,"zip":"39062","miles_from_dt":23.73},{"city":"Moss","state_name":"Mississippi","lat":31.81504,"lng":-89.17748,"zip":"39460","miles_from_dt":25.05},{"city":"Brandon","state_name":"Mississippi","lat":32.2135,"lng":-89.88966,"zip":"39042","miles_from_dt":25.35},{"city":"Soso","state_name":"Mississippi","lat":31.70889,"lng":-89.31529,"zip":"39480","miles_from_dt":26.01},{"city":"Pelahatchie","state_name":"Mississippi","lat":32.33862,"lng":-89.79819,"zip":"39145","miles_from_dt":26.34},{"city":"Newton","state_name":"Mississippi","lat":32.28717,"lng":-89.12974,"zip":"39345","miles_from_dt":27.18},{"city":"Paulding","state_name":"Mississippi","lat":32.00007,"lng":-89.03475,"zip":"39348","miles_from_dt":27.63},{"city":"Braxton","state_name":"Mississippi","lat":32.02869,"lng":-89.97161,"zip":"39044","miles_from_dt":27.63},{"city":"Hillsboro","state_name":"Mississippi","lat":32.4565,"lng":-89.51124,"zip":"39087","miles_from_dt":27.92},{"city":"Collins","state_name":"Mississippi","lat":31.65017,"lng":-89.57215,"zip":"39428","miles_from_dt":27.95},{"city":"Rose Hill","state_name":"Mississippi","lat":32.13632,"lng":-89.0283,"zip":"39356","miles_from_dt":28.37},{"city":"Piney Woods","state_name":"Mississippi","lat":32.06159,"lng":-89.99459,"zip":"39148","miles_from_dt":28.94}],"targetCityZipCode":"39153","targetCityState":"Mississippi"},"__N_SSG":true}