{"pageProps":{"stateName":"Mississippi","cityName":"seminary","nearbyCities":[{"city":"Eastabuchie","state_name":"Mississippi","lat":31.47293,"lng":-89.3263,"zip":"39436","miles_from_dt":9.1},{"city":"Moselle","state_name":"Mississippi","lat":31.49021,"lng":-89.30216,"zip":"39459","miles_from_dt":9.91},{"city":"Collins","state_name":"Mississippi","lat":31.65017,"lng":-89.57215,"zip":"39428","miles_from_dt":10.16},{"city":"Sumrall","state_name":"Mississippi","lat":31.37271,"lng":-89.57966,"zip":"39482","miles_from_dt":13.37},{"city":"Hattiesburg","state_name":"Mississippi","lat":31.33446,"lng":-89.4132,"zip":"39402","miles_from_dt":14.28},{"city":"Ellisville","state_name":"Mississippi","lat":31.57883,"lng":-89.21981,"zip":"39437","miles_from_dt":14.49},{"city":"Soso","state_name":"Mississippi","lat":31.70889,"lng":-89.31529,"zip":"39480","miles_from_dt":14.58},{"city":"Bassfield","state_name":"Mississippi","lat":31.48411,"lng":-89.71179,"zip":"39421","miles_from_dt":15.28},{"city":"Hattiesburg","state_name":"Mississippi","lat":31.32895,"lng":-89.33515,"zip":"39406","miles_from_dt":16.18},{"city":"Hattiesburg","state_name":"Mississippi","lat":31.29639,"lng":-89.42929,"zip":"39404","miles_from_dt":16.73},{"city":"Hattiesburg","state_name":"Mississippi","lat":31.31353,"lng":-89.30539,"zip":"39407","miles_from_dt":17.97},{"city":"Hattiesburg","state_name":"Mississippi","lat":31.32237,"lng":-89.27897,"zip":"39403","miles_from_dt":18.31},{"city":"Mount Olive","state_name":"Mississippi","lat":31.75236,"lng":-89.67509,"zip":"39119","miles_from_dt":19.45},{"city":"Taylorsville","state_name":"Mississippi","lat":31.82994,"lng":-89.40974,"zip":"39168","miles_from_dt":20.35},{"city":"Petal","state_name":"Mississippi","lat":31.34456,"lng":-89.18751,"zip":"39465","miles_from_dt":20.92},{"city":"Laurel","state_name":"Mississippi","lat":31.694,"lng":-89.14791,"zip":"39440","miles_from_dt":21.35},{"city":"Laurel","state_name":"Mississippi","lat":31.69316,"lng":-89.14322,"zip":"39442","miles_from_dt":21.56},{"city":"Carson","state_name":"Mississippi","lat":31.48693,"lng":-89.82701,"zip":"39427","miles_from_dt":21.91},{"city":"Laurel","state_name":"Mississippi","lat":31.70494,"lng":-89.12324,"zip":"39441","miles_from_dt":22.99},{"city":"Hattiesburg","state_name":"Mississippi","lat":31.23496,"lng":-89.26912,"zip":"39401","miles_from_dt":23.73},{"city":"Ovett","state_name":"Mississippi","lat":31.49268,"lng":-89.06129,"zip":"39464","miles_from_dt":23.77},{"city":"Prentiss","state_name":"Mississippi","lat":31.61739,"lng":-89.85458,"zip":"39474","miles_from_dt":23.87},{"city":"Mize","state_name":"Mississippi","lat":31.89165,"lng":-89.54925,"zip":"39116","miles_from_dt":24.94},{"city":"Moss","state_name":"Mississippi","lat":31.81504,"lng":-89.17748,"zip":"39460","miles_from_dt":25.36},{"city":"Laurel","state_name":"Mississippi","lat":31.71932,"lng":-89.07376,"zip":"39443","miles_from_dt":26.01},{"city":"Stringer","state_name":"Mississippi","lat":31.86738,"lng":-89.24457,"zip":"39481","miles_from_dt":26.03},{"city":"Purvis","state_name":"Mississippi","lat":31.15496,"lng":-89.4129,"zip":"39475","miles_from_dt":26.52},{"city":"Columbia","state_name":"Mississippi","lat":31.25052,"lng":-89.76337,"zip":"39429","miles_from_dt":26.68},{"city":"Oak Vale","state_name":"Mississippi","lat":31.45055,"lng":-89.92843,"zip":"39656","miles_from_dt":28.26},{"city":"Magee","state_name":"Mississippi","lat":31.89536,"lng":-89.71816,"zip":"39111","miles_from_dt":28.93}],"targetCityZipCode":"39479","targetCityState":"Mississippi"},"__N_SSG":true}