{"pageProps":{"stateName":"Mississippi","cityName":"state-line","nearbyCities":[{"city":"Fruitdale","state_name":"Alabama","lat":31.3475,"lng":-88.39358,"zip":"36539","miles_from_dt":9.2},{"city":"Buckatunna","state_name":"Mississippi","lat":31.58344,"lng":-88.53203,"zip":"39322","miles_from_dt":13.11},{"city":"Clara","state_name":"Mississippi","lat":31.58032,"lng":-88.69755,"zip":"39324","miles_from_dt":15.9},{"city":"Leakesville","state_name":"Mississippi","lat":31.16722,"lng":-88.61757,"zip":"39451","miles_from_dt":16.24},{"city":"Vinegar Bend","state_name":"Alabama","lat":31.19579,"lng":-88.38385,"zip":"36584","miles_from_dt":16.44},{"city":"Chatom","state_name":"Alabama","lat":31.47082,"lng":-88.27546,"zip":"36518","miles_from_dt":16.51},{"city":"Deer Park","state_name":"Alabama","lat":31.29279,"lng":-88.27281,"zip":"36529","miles_from_dt":17.24},{"city":"Neely","state_name":"Mississippi","lat":31.18703,"lng":-88.73992,"zip":"39461","miles_from_dt":18.49},{"city":"Richton","state_name":"Mississippi","lat":31.37855,"lng":-88.86764,"zip":"39476","miles_from_dt":19.4},{"city":"Millry","state_name":"Alabama","lat":31.61606,"lng":-88.33034,"zip":"36558","miles_from_dt":19.71},{"city":"Tibbie","state_name":"Alabama","lat":31.36677,"lng":-88.1869,"zip":"36583","miles_from_dt":20.94},{"city":"Waynesboro","state_name":"Mississippi","lat":31.68219,"lng":-88.6644,"zip":"39367","miles_from_dt":21.22},{"city":"Citronelle","state_name":"Alabama","lat":31.08296,"lng":-88.27795,"zip":"36522","miles_from_dt":26.41},{"city":"Beaumont","state_name":"Mississippi","lat":31.17553,"lng":-88.91103,"zip":"39423","miles_from_dt":26.59},{"city":"McIntosh","state_name":"Alabama","lat":31.22852,"lng":-88.08658,"zip":"36553","miles_from_dt":29.12},{"city":"Saint Stephens","state_name":"Alabama","lat":31.54418,"lng":-88.07907,"zip":"36569","miles_from_dt":29.13},{"city":"Silas","state_name":"Alabama","lat":31.76765,"lng":-88.2894,"zip":"36919","miles_from_dt":29.73},{"city":"Frankville","state_name":"Alabama","lat":31.65948,"lng":-88.13836,"zip":"36538","miles_from_dt":29.97}],"targetCityZipCode":"39362","targetCityState":"Mississippi"},"__N_SSG":true}