{"pageProps":{"stateName":"Mississippi","cityName":"tchula","nearbyCities":[{"city":"Belzoni","state_name":"Mississippi","lat":33.20179,"lng":-90.47023,"zip":"39038","miles_from_dt":11.21},{"city":"Lexington","state_name":"Mississippi","lat":33.11929,"lng":-90.09452,"zip":"39095","miles_from_dt":11.6},{"city":"Cruger","state_name":"Mississippi","lat":33.29342,"lng":-90.22392,"zip":"38924","miles_from_dt":11.63},{"city":"Silver City","state_name":"Mississippi","lat":33.05161,"lng":-90.48208,"zip":"39166","miles_from_dt":12.35},{"city":"Midnight","state_name":"Mississippi","lat":33.04679,"lng":-90.56133,"zip":"39115","miles_from_dt":16.68},{"city":"Morgan City","state_name":"Mississippi","lat":33.37701,"lng":-90.35591,"zip":"38946","miles_from_dt":17.05},{"city":"Swiftown","state_name":"Mississippi","lat":33.40762,"lng":-90.37472,"zip":"38959","miles_from_dt":19.35},{"city":"Sidon","state_name":"Mississippi","lat":33.41301,"lng":-90.21536,"zip":"38954","miles_from_dt":19.68},{"city":"Louise","state_name":"Mississippi","lat":32.99105,"lng":-90.59478,"zip":"39097","miles_from_dt":20.1},{"city":"Isola","state_name":"Mississippi","lat":33.24816,"lng":-90.62066,"zip":"38754","miles_from_dt":20.48},{"city":"Benton","state_name":"Mississippi","lat":32.82216,"lng":-90.22757,"zip":"39039","miles_from_dt":21.91},{"city":"Inverness","state_name":"Mississippi","lat":33.34845,"lng":-90.58583,"zip":"38753","miles_from_dt":22.41},{"city":"Moorhead","state_name":"Mississippi","lat":33.42507,"lng":-90.47658,"zip":"38761","miles_from_dt":22.61},{"city":"Durant","state_name":"Mississippi","lat":33.11698,"lng":-89.89975,"zip":"39063","miles_from_dt":22.88},{"city":"Yazoo City","state_name":"Mississippi","lat":32.83423,"lng":-90.49856,"zip":"39194","miles_from_dt":23.91},{"city":"Coila","state_name":"Mississippi","lat":33.37829,"lng":-89.99354,"zip":"38923","miles_from_dt":24.14},{"city":"Itta Bena","state_name":"Mississippi","lat":33.48655,"lng":-90.35909,"zip":"38941","miles_from_dt":24.51},{"city":"Pickens","state_name":"Mississippi","lat":32.88078,"lng":-89.99316,"zip":"39146","miles_from_dt":24.73},{"city":"Vaughan","state_name":"Mississippi","lat":32.80873,"lng":-90.0984,"zip":"39179","miles_from_dt":25.19},{"city":"Greenwood","state_name":"Mississippi","lat":33.52027,"lng":-90.18058,"zip":"38945","miles_from_dt":27.34},{"city":"Greenwood","state_name":"Mississippi","lat":33.52226,"lng":-90.17898,"zip":"38935","miles_from_dt":27.49},{"city":"Goodman","state_name":"Mississippi","lat":32.93178,"lng":-89.88449,"zip":"39079","miles_from_dt":27.58},{"city":"Greenwood","state_name":"Mississippi","lat":33.52845,"lng":-90.14245,"zip":"38930","miles_from_dt":28.48},{"city":"Tinsley","state_name":"Mississippi","lat":32.74247,"lng":-90.47219,"zip":"39173","miles_from_dt":28.98},{"city":"Anguilla","state_name":"Mississippi","lat":32.96598,"lng":-90.75876,"zip":"38721","miles_from_dt":29.4},{"city":"Delta City","state_name":"Mississippi","lat":33.08597,"lng":-90.80324,"zip":"39061","miles_from_dt":29.74}],"targetCityZipCode":"39169","targetCityState":"Mississippi"},"__N_SSG":true}