{"pageProps":{"stateName":"Mississippi","cityName":"tishomingo","nearbyCities":[{"city":"Dennis","state_name":"Mississippi","lat":34.5448,"lng":-88.2643,"zip":"38838","miles_from_dt":8.09},{"city":"Belmont","state_name":"Mississippi","lat":34.53,"lng":-88.20244,"zip":"38827","miles_from_dt":9.5},{"city":"New Site","state_name":"Mississippi","lat":34.52865,"lng":-88.37548,"zip":"38859","miles_from_dt":11.58},{"city":"Burnsville","state_name":"Mississippi","lat":34.82259,"lng":-88.34274,"zip":"38833","miles_from_dt":12.25},{"city":"Iuka","state_name":"Mississippi","lat":34.84484,"lng":-88.21598,"zip":"38852","miles_from_dt":12.78},{"city":"Cherokee","state_name":"Alabama","lat":34.7382,"lng":-88.01889,"zip":"35616","miles_from_dt":14.25},{"city":"Red Bay","state_name":"Alabama","lat":34.48577,"lng":-88.09536,"zip":"35582","miles_from_dt":15.04},{"city":"Glen","state_name":"Mississippi","lat":34.85135,"lng":-88.39501,"zip":"38846","miles_from_dt":15.42},{"city":"Booneville","state_name":"Mississippi","lat":34.65229,"lng":-88.53639,"zip":"38829","miles_from_dt":16.25},{"city":"Marietta","state_name":"Mississippi","lat":34.46835,"lng":-88.44553,"zip":"38856","miles_from_dt":17.32},{"city":"Golden","state_name":"Mississippi","lat":34.40772,"lng":-88.24074,"zip":"38847","miles_from_dt":17.52},{"city":"Rienzi","state_name":"Mississippi","lat":34.78003,"lng":-88.58821,"zip":"38865","miles_from_dt":20.83},{"city":"Vina","state_name":"Alabama","lat":34.35721,"lng":-88.07328,"zip":"35593","miles_from_dt":23.32},{"city":"Russellville","state_name":"Alabama","lat":34.53131,"lng":-87.86974,"zip":"35653","miles_from_dt":23.54},{"city":"Wheeler","state_name":"Mississippi","lat":34.53513,"lng":-88.63686,"zip":"38880","miles_from_dt":23.64},{"city":"Waterloo","state_name":"Alabama","lat":34.95367,"lng":-88.02529,"zip":"35677","miles_from_dt":23.88},{"city":"Corinth","state_name":"Mississippi","lat":34.93228,"lng":-88.51865,"zip":"38835","miles_from_dt":24.06},{"city":"Baldwyn","state_name":"Mississippi","lat":34.52303,"lng":-88.64334,"zip":"38824","miles_from_dt":24.3},{"city":"Corinth","state_name":"Mississippi","lat":34.91627,"lng":-88.56027,"zip":"38834","miles_from_dt":24.83},{"city":"Counce","state_name":"Tennessee","lat":35.04419,"lng":-88.27514,"zip":"38326","miles_from_dt":26.4},{"city":"Mantachie","state_name":"Mississippi","lat":34.32646,"lng":-88.48659,"zip":"38855","miles_from_dt":26.72},{"city":"Pickwick Dam","state_name":"Tennessee","lat":35.05383,"lng":-88.23627,"zip":"38365","miles_from_dt":27.05},{"city":"Hodges","state_name":"Alabama","lat":34.35153,"lng":-87.94672,"zip":"35571","miles_from_dt":27.56},{"city":"Tuscumbia","state_name":"Alabama","lat":34.66343,"lng":-87.75996,"zip":"35674","miles_from_dt":27.99},{"city":"Fulton","state_name":"Mississippi","lat":34.26753,"lng":-88.37437,"zip":"38843","miles_from_dt":28.06},{"city":"Michie","state_name":"Tennessee","lat":35.04888,"lng":-88.4112,"zip":"38357","miles_from_dt":28.19},{"city":"Guntown","state_name":"Mississippi","lat":34.45442,"lng":-88.69319,"zip":"38849","miles_from_dt":28.96},{"city":"Spruce Pine","state_name":"Alabama","lat":34.41868,"lng":-87.82008,"zip":"35585","miles_from_dt":29.76},{"city":"Florence","state_name":"Alabama","lat":34.87586,"lng":-87.79645,"zip":"35633","miles_from_dt":29.79}],"targetCityZipCode":"38873","targetCityState":"Mississippi"},"__N_SSG":true}