{"pageProps":{"stateName":"Mississippi","cityName":"tremont","nearbyCities":[{"city":"Fulton","state_name":"Mississippi","lat":34.26753,"lng":-88.37437,"zip":"38843","miles_from_dt":8.98},{"city":"Detroit","state_name":"Alabama","lat":34.07311,"lng":-88.14266,"zip":"35552","miles_from_dt":10.99},{"city":"Smithville","state_name":"Mississippi","lat":34.06886,"lng":-88.34125,"zip":"38870","miles_from_dt":11.86},{"city":"Golden","state_name":"Mississippi","lat":34.40772,"lng":-88.24074,"zip":"38847","miles_from_dt":13.32},{"city":"Vina","state_name":"Alabama","lat":34.35721,"lng":-88.07328,"zip":"35593","miles_from_dt":13.35},{"city":"Hamilton","state_name":"Alabama","lat":34.16532,"lng":-87.99466,"zip":"35570","miles_from_dt":13.96},{"city":"Mantachie","state_name":"Mississippi","lat":34.32646,"lng":-88.48659,"zip":"38855","miles_from_dt":16.53},{"city":"Greenwood Springs","state_name":"Mississippi","lat":33.94523,"lng":-88.27797,"zip":"38848","miles_from_dt":18.76},{"city":"Hodges","state_name":"Alabama","lat":34.35153,"lng":-87.94672,"zip":"35571","miles_from_dt":18.81},{"city":"Nettleton","state_name":"Mississippi","lat":34.10145,"lng":-88.53726,"zip":"38858","miles_from_dt":19.2},{"city":"Red Bay","state_name":"Alabama","lat":34.48577,"lng":-88.09536,"zip":"35582","miles_from_dt":20.24},{"city":"Mooreville","state_name":"Mississippi","lat":34.28004,"lng":-88.57808,"zip":"38857","miles_from_dt":20.37},{"city":"Amory","state_name":"Mississippi","lat":33.97503,"lng":-88.43918,"zip":"38821","miles_from_dt":20.37},{"city":"Becker","state_name":"Mississippi","lat":33.98792,"lng":-88.47018,"zip":"38825","miles_from_dt":20.78},{"city":"Marietta","state_name":"Mississippi","lat":34.46835,"lng":-88.44553,"zip":"38856","miles_from_dt":21.36},{"city":"Beaverton","state_name":"Alabama","lat":33.95392,"lng":-88.02022,"zip":"35544","miles_from_dt":21.66},{"city":"Belmont","state_name":"Mississippi","lat":34.53,"lng":-88.20244,"zip":"38827","miles_from_dt":21.8},{"city":"Hackleburg","state_name":"Alabama","lat":34.25733,"lng":-87.84306,"zip":"35564","miles_from_dt":22.41},{"city":"Plantersville","state_name":"Mississippi","lat":34.16871,"lng":-88.62048,"zip":"38862","miles_from_dt":22.52},{"city":"Dennis","state_name":"Mississippi","lat":34.5448,"lng":-88.2643,"zip":"38838","miles_from_dt":22.84},{"city":"New Site","state_name":"Mississippi","lat":34.52865,"lng":-88.37548,"zip":"38859","miles_from_dt":23.17},{"city":"Sulligent","state_name":"Alabama","lat":33.87332,"lng":-88.13837,"zip":"35586","miles_from_dt":24.11},{"city":"Guin","state_name":"Alabama","lat":33.99678,"lng":-87.90149,"zip":"35563","miles_from_dt":24.14},{"city":"Tupelo","state_name":"Mississippi","lat":34.28094,"lng":-88.67246,"zip":"38804","miles_from_dt":25.67},{"city":"Gattman","state_name":"Mississippi","lat":33.839,"lng":-88.25593,"zip":"38844","miles_from_dt":25.93},{"city":"Tupelo","state_name":"Mississippi","lat":34.27274,"lng":-88.70048,"zip":"38802","miles_from_dt":27.16},{"city":"Tupelo","state_name":"Mississippi","lat":34.27134,"lng":-88.70311,"zip":"38803","miles_from_dt":27.3},{"city":"Spruce Pine","state_name":"Alabama","lat":34.41868,"lng":-87.82008,"zip":"35585","miles_from_dt":27.4},{"city":"Bear Creek","state_name":"Alabama","lat":34.21219,"lng":-87.75197,"zip":"35543","miles_from_dt":27.44},{"city":"Verona","state_name":"Mississippi","lat":34.19519,"lng":-88.71209,"zip":"38879","miles_from_dt":27.58},{"city":"Saltillo","state_name":"Mississippi","lat":34.36644,"lng":-88.68187,"zip":"38866","miles_from_dt":27.83},{"city":"Brilliant","state_name":"Alabama","lat":34.06263,"lng":-87.75251,"zip":"35548","miles_from_dt":29.36}],"targetCityZipCode":"38876","targetCityState":"Mississippi"},"__N_SSG":true}