{"pageProps":{"stateName":"Mississippi","cityName":"union-church","nearbyCities":[{"city":"Pattison","state_name":"Mississippi","lat":31.82971,"lng":-90.80155,"zip":"39144","miles_from_dt":9.56},{"city":"McCall Creek","state_name":"Mississippi","lat":31.51498,"lng":-90.7143,"zip":"39647","miles_from_dt":12.97},{"city":"Fayette","state_name":"Mississippi","lat":31.71806,"lng":-91.03849,"zip":"39081","miles_from_dt":14.68},{"city":"Fayette","state_name":"Mississippi","lat":31.6836,"lng":-91.04038,"zip":"39069","miles_from_dt":14.69},{"city":"Bude","state_name":"Mississippi","lat":31.45939,"lng":-90.84544,"zip":"39630","miles_from_dt":16.29},{"city":"Meadville","state_name":"Mississippi","lat":31.46055,"lng":-90.86727,"zip":"39653","miles_from_dt":16.52},{"city":"Hermanville","state_name":"Mississippi","lat":31.96275,"lng":-90.75964,"zip":"39086","miles_from_dt":18.8},{"city":"Brookhaven","state_name":"Mississippi","lat":31.57769,"lng":-90.4776,"zip":"39603","miles_from_dt":20.08},{"city":"Brookhaven","state_name":"Mississippi","lat":31.59307,"lng":-90.46996,"zip":"39602","miles_from_dt":20.11},{"city":"Brookhaven","state_name":"Mississippi","lat":31.56548,"lng":-90.47762,"zip":"39601","miles_from_dt":20.42},{"city":"Lorman","state_name":"Mississippi","lat":31.82508,"lng":-91.11672,"zip":"39096","miles_from_dt":21.26},{"city":"Hazlehurst","state_name":"Mississippi","lat":31.83467,"lng":-90.46997,"zip":"39083","miles_from_dt":21.34},{"city":"Roxie","state_name":"Mississippi","lat":31.48704,"lng":-91.07952,"zip":"39661","miles_from_dt":22.07},{"city":"Wesson","state_name":"Mississippi","lat":31.71492,"lng":-90.40764,"zip":"39191","miles_from_dt":22.66},{"city":"Port Gibson","state_name":"Mississippi","lat":31.99264,"lng":-90.98487,"zip":"39150","miles_from_dt":23.68},{"city":"Smithdale","state_name":"Mississippi","lat":31.32894,"lng":-90.68252,"zip":"39664","miles_from_dt":25.77},{"city":"Bogue Chitto","state_name":"Mississippi","lat":31.43729,"lng":-90.45737,"zip":"39629","miles_from_dt":26.35},{"city":"Gallman","state_name":"Mississippi","lat":31.93368,"lng":-90.38689,"zip":"39077","miles_from_dt":29.07},{"city":"Utica","state_name":"Mississippi","lat":32.09238,"lng":-90.62097,"zip":"39175","miles_from_dt":29.39}],"targetCityZipCode":"39668","targetCityState":"Mississippi"},"__N_SSG":true}