{"pageProps":{"stateName":"South-dakota","cityName":"alcester","nearbyCities":[{"city":"Beresford","state_name":"South Dakota","lat":43.07571,"lng":-96.79376,"zip":"57004","miles_from_dt":8.84},{"city":"Chatsworth","state_name":"Iowa","lat":42.91562,"lng":-96.51388,"zip":"51011","miles_from_dt":9.14},{"city":"Hawarden","state_name":"Iowa","lat":43.00893,"lng":-96.46845,"zip":"51023","miles_from_dt":9.48},{"city":"Hudson","state_name":"South Dakota","lat":43.12493,"lng":-96.54575,"zip":"57034","miles_from_dt":10.35},{"city":"Akron","state_name":"Iowa","lat":42.83854,"lng":-96.54551,"zip":"51001","miles_from_dt":12.33},{"city":"Fairview","state_name":"South Dakota","lat":43.19461,"lng":-96.50933,"zip":"57027","miles_from_dt":15.44},{"city":"Burbank","state_name":"South Dakota","lat":42.8119,"lng":-96.82403,"zip":"57010","miles_from_dt":15.45},{"city":"Ireton","state_name":"Iowa","lat":42.96575,"lng":-96.32791,"zip":"51027","miles_from_dt":16.72},{"city":"Centerville","state_name":"South Dakota","lat":43.11238,"lng":-96.95347,"zip":"57014","miles_from_dt":17.05},{"city":"Elk Point","state_name":"South Dakota","lat":42.71718,"lng":-96.68894,"zip":"57025","miles_from_dt":19.47},{"city":"Canton","state_name":"South Dakota","lat":43.28595,"lng":-96.62178,"zip":"57013","miles_from_dt":19.94},{"city":"Vermillion","state_name":"South Dakota","lat":42.84348,"lng":-96.98774,"zip":"57069","miles_from_dt":19.98},{"city":"Wakonda","state_name":"South Dakota","lat":43.00227,"lng":-97.05754,"zip":"57073","miles_from_dt":20.4},{"city":"Rock Valley","state_name":"Iowa","lat":43.19259,"lng":-96.33723,"zip":"51247","miles_from_dt":20.94},{"city":"Westfield","state_name":"Iowa","lat":42.70623,"lng":-96.53511,"zip":"51062","miles_from_dt":21.05},{"city":"Worthing","state_name":"South Dakota","lat":43.31574,"lng":-96.75699,"zip":"57077","miles_from_dt":22.53},{"city":"Sioux Center","state_name":"Iowa","lat":43.08437,"lng":-96.21232,"zip":"51250","miles_from_dt":23.19},{"city":"Brunsville","state_name":"Iowa","lat":42.81127,"lng":-96.26724,"zip":"51008","miles_from_dt":23.52},{"city":"Maurice","state_name":"Iowa","lat":42.97074,"lng":-96.18938,"zip":"51036","miles_from_dt":23.67},{"city":"Inwood","state_name":"Iowa","lat":43.30986,"lng":-96.45727,"zip":"51240","miles_from_dt":23.73},{"city":"Davis","state_name":"South Dakota","lat":43.2723,"lng":-96.97797,"zip":"57021","miles_from_dt":25},{"city":"Lennox","state_name":"South Dakota","lat":43.33659,"lng":-96.86755,"zip":"57039","miles_from_dt":25.72},{"city":"Merrill","state_name":"Iowa","lat":42.7056,"lng":-96.31569,"zip":"51038","miles_from_dt":26.54},{"city":"Maskell","state_name":"Nebraska","lat":42.69035,"lng":-96.98138,"zip":"68751","miles_from_dt":26.95},{"city":"Newcastle","state_name":"Nebraska","lat":42.65247,"lng":-96.92554,"zip":"68757","miles_from_dt":27.54},{"city":"Le Mars","state_name":"Iowa","lat":42.80282,"lng":-96.18092,"zip":"51031","miles_from_dt":27.57},{"city":"Volin","state_name":"South Dakota","lat":42.98747,"lng":-97.20363,"zip":"57072","miles_from_dt":27.81},{"city":"Gayville","state_name":"South Dakota","lat":42.87058,"lng":-97.18655,"zip":"57031","miles_from_dt":28.37},{"city":"Sioux City","state_name":"Iowa","lat":42.59873,"lng":-96.47804,"zip":"51109","miles_from_dt":29},{"city":"Viborg","state_name":"South Dakota","lat":43.182,"lng":-97.1702,"zip":"57070","miles_from_dt":29},{"city":"Jefferson","state_name":"South Dakota","lat":42.57924,"lng":-96.57957,"zip":"57038","miles_from_dt":29.17},{"city":"Orange City","state_name":"Iowa","lat":43.02443,"lng":-96.07701,"zip":"51041","miles_from_dt":29.33},{"city":"Hull","state_name":"Iowa","lat":43.20238,"lng":-96.14522,"zip":"51239","miles_from_dt":29.39},{"city":"Harrisburg","state_name":"South Dakota","lat":43.42326,"lng":-96.68708,"zip":"57032","miles_from_dt":29.39},{"city":"Wynot","state_name":"Nebraska","lat":42.73323,"lng":-97.11427,"zip":"68792","miles_from_dt":29.64},{"city":"Alvord","state_name":"Iowa","lat":43.3562,"lng":-96.32217,"zip":"51230","miles_from_dt":29.89}],"targetCityZipCode":"57001","targetCityState":"South Dakota"},"__N_SSG":true}