{"pageProps":{"stateName":"South-dakota","cityName":"avon","nearbyCities":[{"city":"Dante","state_name":"South Dakota","lat":42.97814,"lng":-98.1522,"zip":"57329","miles_from_dt":5.37},{"city":"Tyndall","state_name":"South Dakota","lat":42.98874,"lng":-97.86703,"zip":"57066","miles_from_dt":9.2},{"city":"Springfield","state_name":"South Dakota","lat":42.85046,"lng":-97.95327,"zip":"57062","miles_from_dt":11.02},{"city":"Wagner","state_name":"South Dakota","lat":43.03387,"lng":-98.28916,"zip":"57380","miles_from_dt":12.5},{"city":"Niobrara","state_name":"Nebraska","lat":42.76616,"lng":-98.03831,"zip":"68760","miles_from_dt":15.73},{"city":"Tripp","state_name":"South Dakota","lat":43.21948,"lng":-97.94176,"zip":"57376","miles_from_dt":16.48},{"city":"Scotland","state_name":"South Dakota","lat":43.12476,"lng":-97.76365,"zip":"57059","miles_from_dt":17.02},{"city":"Kaylor","state_name":"South Dakota","lat":43.19099,"lng":-97.84236,"zip":"57354","miles_from_dt":17.14},{"city":"Tabor","state_name":"South Dakota","lat":42.92483,"lng":-97.68668,"zip":"57063","miles_from_dt":18.96},{"city":"Delmont","state_name":"South Dakota","lat":43.26147,"lng":-98.16082,"zip":"57330","miles_from_dt":19.32},{"city":"Marty","state_name":"South Dakota","lat":42.99459,"lng":-98.43463,"zip":"57361","miles_from_dt":19.56},{"city":"Lynch","state_name":"Nebraska","lat":42.80726,"lng":-98.4354,"zip":"68746","miles_from_dt":23.48},{"city":"Lesterville","state_name":"South Dakota","lat":43.06206,"lng":-97.58582,"zip":"57040","miles_from_dt":23.9},{"city":"Pickstown","state_name":"South Dakota","lat":43.06348,"lng":-98.5133,"zip":"57367","miles_from_dt":24.02},{"city":"Verdigre","state_name":"Nebraska","lat":42.62523,"lng":-98.14612,"zip":"68783","miles_from_dt":25.93},{"city":"Lake Andes","state_name":"South Dakota","lat":43.1468,"lng":-98.51803,"zip":"57356","miles_from_dt":26},{"city":"Center","state_name":"Nebraska","lat":42.6276,"lng":-97.88496,"zip":"68724","miles_from_dt":26.62},{"city":"Bristow","state_name":"Nebraska","lat":42.96446,"lng":-98.57426,"zip":"68719","miles_from_dt":26.72},{"city":"Armour","state_name":"South Dakota","lat":43.31085,"lng":-98.36327,"zip":"57313","miles_from_dt":27.05},{"city":"Olivet","state_name":"South Dakota","lat":43.29471,"lng":-97.7054,"zip":"57052","miles_from_dt":27.06},{"city":"Parkston","state_name":"South Dakota","lat":43.3855,"lng":-97.94306,"zip":"57366","miles_from_dt":27.55},{"city":"Bloomfield","state_name":"Nebraska","lat":42.6619,"lng":-97.69844,"zip":"68718","miles_from_dt":29.01},{"city":"Utica","state_name":"South Dakota","lat":43.04095,"lng":-97.47169,"zip":"57067","miles_from_dt":29.4}],"targetCityZipCode":"57315","targetCityState":"South Dakota"},"__N_SSG":true}