{"pageProps":{"stateName":"South-dakota","cityName":"brookings","nearbyCities":[{"city":"Brookings","state_name":"South Dakota","lat":44.31924,"lng":-96.78408,"zip":"57007","miles_from_dt":0.6},{"city":"Aurora","state_name":"South Dakota","lat":44.28785,"lng":-96.67752,"zip":"57002","miles_from_dt":6.15},{"city":"Volga","state_name":"South Dakota","lat":44.26986,"lng":-96.95934,"zip":"57071","miles_from_dt":8.74},{"city":"Bruce","state_name":"South Dakota","lat":44.45927,"lng":-96.92022,"zip":"57220","miles_from_dt":11.68},{"city":"White","state_name":"South Dakota","lat":44.43308,"lng":-96.61983,"zip":"57276","miles_from_dt":11.87},{"city":"Sinai","state_name":"South Dakota","lat":44.24452,"lng":-97.04399,"zip":"57061","miles_from_dt":13.29},{"city":"Elkton","state_name":"South Dakota","lat":44.24996,"lng":-96.50149,"zip":"57026","miles_from_dt":15.26},{"city":"Nunda","state_name":"South Dakota","lat":44.15725,"lng":-97.01467,"zip":"57050","miles_from_dt":15.45},{"city":"Rutland","state_name":"South Dakota","lat":44.10261,"lng":-96.95717,"zip":"57057","miles_from_dt":16.78},{"city":"Arlington","state_name":"South Dakota","lat":44.38111,"lng":-97.14344,"zip":"57212","miles_from_dt":17.83},{"city":"Toronto","state_name":"South Dakota","lat":44.56885,"lng":-96.68781,"zip":"57268","miles_from_dt":18.26},{"city":"Estelline","state_name":"South Dakota","lat":44.59719,"lng":-96.89929,"zip":"57234","miles_from_dt":20.09},{"city":"Flandreau","state_name":"South Dakota","lat":44.05766,"lng":-96.60443,"zip":"57028","miles_from_dt":20.19},{"city":"Colman","state_name":"South Dakota","lat":44.02246,"lng":-96.82788,"zip":"57017","miles_from_dt":20.32},{"city":"Astoria","state_name":"South Dakota","lat":44.57112,"lng":-96.5323,"zip":"57213","miles_from_dt":21.9},{"city":"Hendricks","state_name":"Minnesota","lat":44.50187,"lng":-96.41645,"zip":"56136","miles_from_dt":22.72},{"city":"Badger","state_name":"South Dakota","lat":44.47764,"lng":-97.19575,"zip":"57214","miles_from_dt":22.76},{"city":"Egan","state_name":"South Dakota","lat":43.98538,"lng":-96.68146,"zip":"57024","miles_from_dt":23.51},{"city":"Wentworth","state_name":"South Dakota","lat":43.99605,"lng":-96.96749,"zip":"57075","miles_from_dt":23.69},{"city":"Lake Benton","state_name":"Minnesota","lat":44.30059,"lng":-96.30454,"zip":"56149","miles_from_dt":24.35},{"city":"Brandt","state_name":"South Dakota","lat":44.65787,"lng":-96.59624,"zip":"57218","miles_from_dt":25.58},{"city":"Ramona","state_name":"South Dakota","lat":44.12162,"lng":-97.25799,"zip":"57054","miles_from_dt":26.61},{"city":"Lake Norden","state_name":"South Dakota","lat":44.58063,"lng":-97.19328,"zip":"57248","miles_from_dt":26.87},{"city":"Oldham","state_name":"South Dakota","lat":44.21741,"lng":-97.35066,"zip":"57051","miles_from_dt":28.39},{"city":"Lake Preston","state_name":"South Dakota","lat":44.37111,"lng":-97.3646,"zip":"57249","miles_from_dt":28.47},{"city":"Castlewood","state_name":"South Dakota","lat":44.71019,"lng":-97.00567,"zip":"57223","miles_from_dt":29.14},{"city":"Madison","state_name":"South Dakota","lat":43.97744,"lng":-97.15133,"zip":"57042","miles_from_dt":29.32},{"city":"Pipestone","state_name":"Minnesota","lat":44.04936,"lng":-96.33361,"zip":"56164","miles_from_dt":29.4},{"city":"Ivanhoe","state_name":"Minnesota","lat":44.4711,"lng":-96.2327,"zip":"56142","miles_from_dt":29.84}],"targetCityZipCode":"57006","targetCityState":"South Dakota"},"__N_SSG":true}