{"pageProps":{"stateName":"South-dakota","cityName":"carpenter","nearbyCities":[{"city":"Yale","state_name":"South Dakota","lat":44.50908,"lng":-97.99845,"zip":"57386","miles_from_dt":8.88},{"city":"Willow Lake","state_name":"South Dakota","lat":44.64689,"lng":-97.68227,"zip":"57278","miles_from_dt":13.78},{"city":"Doland","state_name":"South Dakota","lat":44.84864,"lng":-98.09131,"zip":"57436","miles_from_dt":16.08},{"city":"Raymond","state_name":"South Dakota","lat":44.88434,"lng":-97.9246,"zip":"57258","miles_from_dt":17.31},{"city":"Iroquois","state_name":"South Dakota","lat":44.36944,"lng":-97.83438,"zip":"57353","miles_from_dt":19.38},{"city":"Hitchcock","state_name":"South Dakota","lat":44.62147,"lng":-98.36483,"zip":"57348","miles_from_dt":19.92},{"city":"Huron","state_name":"South Dakota","lat":44.3948,"lng":-98.20037,"zip":"57350","miles_from_dt":20.36},{"city":"Clark","state_name":"South Dakota","lat":44.88359,"lng":-97.72676,"zip":"57225","miles_from_dt":20.68},{"city":"Frankfort","state_name":"South Dakota","lat":44.8502,"lng":-98.25956,"zip":"57440","miles_from_dt":20.89},{"city":"Vienna","state_name":"South Dakota","lat":44.75179,"lng":-97.55161,"zip":"57271","miles_from_dt":21.73},{"city":"Huron","state_name":"South Dakota","lat":44.36319,"lng":-98.21892,"zip":"57399","miles_from_dt":22.68},{"city":"Cavour","state_name":"South Dakota","lat":44.30154,"lng":-98.04535,"zip":"57324","miles_from_dt":23.4},{"city":"Bryant","state_name":"South Dakota","lat":44.60654,"lng":-97.44853,"zip":"57221","miles_from_dt":25.36},{"city":"De Smet","state_name":"South Dakota","lat":44.3749,"lng":-97.58243,"zip":"57231","miles_from_dt":25.94},{"city":"Erwin","state_name":"South Dakota","lat":44.50992,"lng":-97.3993,"zip":"57233","miles_from_dt":29.05},{"city":"Turton","state_name":"South Dakota","lat":45.03363,"lng":-98.15024,"zip":"57477","miles_from_dt":29.05},{"city":"Wolsey","state_name":"South Dakota","lat":44.42044,"lng":-98.48477,"zip":"57384","miles_from_dt":29.8}],"targetCityZipCode":"57322","targetCityState":"South Dakota"},"__N_SSG":true}