{"pageProps":{"stateName":"South-dakota","cityName":"gary","nearbyCities":[{"city":"Clear Lake","state_name":"South Dakota","lat":44.78565,"lng":-96.72368,"zip":"57226","miles_from_dt":10.03},{"city":"Brandt","state_name":"South Dakota","lat":44.65787,"lng":-96.59624,"zip":"57218","miles_from_dt":10.07},{"city":"Canby","state_name":"Minnesota","lat":44.73125,"lng":-96.29339,"zip":"56220","miles_from_dt":11.94},{"city":"Marietta","state_name":"Minnesota","lat":44.9684,"lng":-96.40275,"zip":"56257","miles_from_dt":13.39},{"city":"Revillo","state_name":"South Dakota","lat":45.00047,"lng":-96.56786,"zip":"57259","miles_from_dt":14.5},{"city":"Astoria","state_name":"South Dakota","lat":44.57112,"lng":-96.5323,"zip":"57213","miles_from_dt":15.35},{"city":"Toronto","state_name":"South Dakota","lat":44.56885,"lng":-96.68781,"zip":"57268","miles_from_dt":17.56},{"city":"Goodwin","state_name":"South Dakota","lat":44.87287,"lng":-96.86231,"zip":"57238","miles_from_dt":17.7},{"city":"Strandburg","state_name":"South Dakota","lat":44.98866,"lng":-96.79591,"zip":"57265","miles_from_dt":19.12},{"city":"Labolt","state_name":"South Dakota","lat":45.05639,"lng":-96.66914,"zip":"57246","miles_from_dt":19.59},{"city":"Porter","state_name":"Minnesota","lat":44.63212,"lng":-96.16719,"zip":"56280","miles_from_dt":20.62},{"city":"Hendricks","state_name":"Minnesota","lat":44.50187,"lng":-96.41645,"zip":"56136","miles_from_dt":20.75},{"city":"Kranzburg","state_name":"South Dakota","lat":44.89365,"lng":-96.91835,"zip":"57245","miles_from_dt":20.77},{"city":"Madison","state_name":"Minnesota","lat":45.02306,"lng":-96.19986,"zip":"56256","miles_from_dt":22.33},{"city":"Estelline","state_name":"South Dakota","lat":44.59719,"lng":-96.89929,"zip":"57234","miles_from_dt":23.07},{"city":"Castlewood","state_name":"South Dakota","lat":44.71019,"lng":-97.00567,"zip":"57223","miles_from_dt":24.58},{"city":"Taunton","state_name":"Minnesota","lat":44.62254,"lng":-96.06933,"zip":"56291","miles_from_dt":25.12},{"city":"White","state_name":"South Dakota","lat":44.43308,"lng":-96.61983,"zip":"57276","miles_from_dt":25.35},{"city":"Dawson","state_name":"Minnesota","lat":44.92836,"lng":-96.03968,"zip":"56232","miles_from_dt":25.36},{"city":"Bellingham","state_name":"Minnesota","lat":45.13499,"lng":-96.32459,"zip":"56212","miles_from_dt":25.47},{"city":"Stockholm","state_name":"South Dakota","lat":45.10863,"lng":-96.80254,"zip":"57264","miles_from_dt":25.81},{"city":"Ivanhoe","state_name":"Minnesota","lat":44.4711,"lng":-96.2327,"zip":"56142","miles_from_dt":26.37},{"city":"Boyd","state_name":"Minnesota","lat":44.82642,"lng":-95.94363,"zip":"56218","miles_from_dt":28.42},{"city":"Milbank","state_name":"South Dakota","lat":45.20507,"lng":-96.61053,"zip":"57252","miles_from_dt":28.78},{"city":"Watertown","state_name":"South Dakota","lat":44.93412,"lng":-97.09424,"zip":"57201","miles_from_dt":29.84}],"targetCityZipCode":"57237","targetCityState":"South Dakota"},"__N_SSG":true}