{"pageProps":{"stateName":"South-dakota","cityName":"holabird","nearbyCities":[{"city":"Harrold","state_name":"South Dakota","lat":44.41502,"lng":-99.76694,"zip":"57536","miles_from_dt":8.77},{"city":"Highmore","state_name":"South Dakota","lat":44.5687,"lng":-99.45009,"zip":"57345","miles_from_dt":10.45},{"city":"Stephan","state_name":"South Dakota","lat":44.24818,"lng":-99.45756,"zip":"57346","miles_from_dt":16.62},{"city":"Blunt","state_name":"South Dakota","lat":44.51014,"lng":-99.96352,"zip":"57522","miles_from_dt":18.06},{"city":"Ree Heights","state_name":"South Dakota","lat":44.43146,"lng":-99.23104,"zip":"57371","miles_from_dt":18.58},{"city":"Fort Thompson","state_name":"South Dakota","lat":44.11233,"lng":-99.47862,"zip":"57339","miles_from_dt":25.11},{"city":"Lower Brule","state_name":"South Dakota","lat":44.08429,"lng":-99.62373,"zip":"57548","miles_from_dt":26.29},{"city":"Miller","state_name":"South Dakota","lat":44.47488,"lng":-99.06447,"zip":"57362","miles_from_dt":26.67},{"city":"Onida","state_name":"South Dakota","lat":44.72401,"lng":-100.0121,"zip":"57564","miles_from_dt":26.95}],"targetCityZipCode":"57540","targetCityState":"South Dakota"},"__N_SSG":true}