{"pageProps":{"stateName":"South-dakota","cityName":"iroquois","nearbyCities":[{"city":"Cavour","state_name":"South Dakota","lat":44.30154,"lng":-98.04535,"zip":"57324","miles_from_dt":11.46},{"city":"De Smet","state_name":"South Dakota","lat":44.3749,"lng":-97.58243,"zip":"57231","miles_from_dt":12.48},{"city":"Yale","state_name":"South Dakota","lat":44.50908,"lng":-97.99845,"zip":"57386","miles_from_dt":12.6},{"city":"Carthage","state_name":"South Dakota","lat":44.16259,"lng":-97.72115,"zip":"57323","miles_from_dt":15.35},{"city":"Huron","state_name":"South Dakota","lat":44.3948,"lng":-98.20037,"zip":"57350","miles_from_dt":18.21},{"city":"Huron","state_name":"South Dakota","lat":44.36319,"lng":-98.21892,"zip":"57399","miles_from_dt":19.05},{"city":"Carpenter","state_name":"South Dakota","lat":44.63498,"lng":-97.96129,"zip":"57322","miles_from_dt":19.38},{"city":"Willow Lake","state_name":"South Dakota","lat":44.64689,"lng":-97.68227,"zip":"57278","miles_from_dt":20.58},{"city":"Lake Preston","state_name":"South Dakota","lat":44.37111,"lng":-97.3646,"zip":"57249","miles_from_dt":23.27},{"city":"Artesian","state_name":"South Dakota","lat":44.0509,"lng":-97.98904,"zip":"57314","miles_from_dt":23.3},{"city":"Erwin","state_name":"South Dakota","lat":44.50992,"lng":-97.3993,"zip":"57233","miles_from_dt":23.61},{"city":"Bryant","state_name":"South Dakota","lat":44.60654,"lng":-97.44853,"zip":"57221","miles_from_dt":25.13},{"city":"Fedora","state_name":"South Dakota","lat":44.00108,"lng":-97.79048,"zip":"57337","miles_from_dt":25.53},{"city":"Oldham","state_name":"South Dakota","lat":44.21741,"lng":-97.35066,"zip":"57051","miles_from_dt":26.18},{"city":"Howard","state_name":"South Dakota","lat":44.02671,"lng":-97.57521,"zip":"57349","miles_from_dt":26.94},{"city":"Alpena","state_name":"South Dakota","lat":44.19646,"lng":-98.38564,"zip":"57312","miles_from_dt":29.84},{"city":"Vienna","state_name":"South Dakota","lat":44.75179,"lng":-97.55161,"zip":"57271","miles_from_dt":29.86}],"targetCityZipCode":"57353","targetCityState":"South Dakota"},"__N_SSG":true}