{"pageProps":{"stateName":"South-dakota","cityName":"lake-city","nearbyCities":[{"city":"Eden","state_name":"South Dakota","lat":45.61752,"lng":-97.38393,"zip":"57232","miles_from_dt":7.74},{"city":"Veblen","state_name":"South Dakota","lat":45.84824,"lng":-97.32999,"zip":"57270","miles_from_dt":10.99},{"city":"Roslyn","state_name":"South Dakota","lat":45.54051,"lng":-97.49412,"zip":"57261","miles_from_dt":12.3},{"city":"Britton","state_name":"South Dakota","lat":45.82203,"lng":-97.72205,"zip":"57430","miles_from_dt":14.68},{"city":"Grenville","state_name":"South Dakota","lat":45.51223,"lng":-97.30938,"zip":"57239","miles_from_dt":15.86},{"city":"Claire City","state_name":"South Dakota","lat":45.81332,"lng":-97.15672,"zip":"57224","miles_from_dt":16.02},{"city":"Langford","state_name":"South Dakota","lat":45.61058,"lng":-97.77286,"zip":"57454","miles_from_dt":16.91},{"city":"Havana","state_name":"North Dakota","lat":45.97356,"lng":-97.53205,"zip":"58043","miles_from_dt":18.09},{"city":"Sisseton","state_name":"South Dakota","lat":45.67288,"lng":-97.06641,"zip":"57262","miles_from_dt":19.2},{"city":"Pierpont","state_name":"South Dakota","lat":45.49797,"lng":-97.75318,"zip":"57468","miles_from_dt":20.8},{"city":"Amherst","state_name":"South Dakota","lat":45.75045,"lng":-97.90618,"zip":"57421","miles_from_dt":21.79},{"city":"Cayuga","state_name":"North Dakota","lat":46.06037,"lng":-97.35877,"zip":"58013","miles_from_dt":24.21},{"city":"Rutland","state_name":"North Dakota","lat":46.06826,"lng":-97.48906,"zip":"58067","miles_from_dt":24.32},{"city":"Peever","state_name":"South Dakota","lat":45.49975,"lng":-97.02982,"zip":"57257","miles_from_dt":25.61},{"city":"Forman","state_name":"North Dakota","lat":46.07071,"lng":-97.64413,"zip":"58032","miles_from_dt":26.04},{"city":"New Effington","state_name":"South Dakota","lat":45.86702,"lng":-96.94985,"zip":"57255","miles_from_dt":26.66},{"city":"Lidgerwood","state_name":"North Dakota","lat":46.05058,"lng":-97.18007,"zip":"58053","miles_from_dt":26.67},{"city":"Claremont","state_name":"South Dakota","lat":45.6839,"lng":-98.02453,"zip":"57432","miles_from_dt":27.5},{"city":"Waubay","state_name":"South Dakota","lat":45.33334,"lng":-97.27574,"zip":"57273","miles_from_dt":27.92},{"city":"Webster","state_name":"South Dakota","lat":45.30943,"lng":-97.55533,"zip":"57274","miles_from_dt":28.52},{"city":"Cogswell","state_name":"North Dakota","lat":46.04157,"lng":-97.84535,"zip":"58017","miles_from_dt":29.19}],"targetCityZipCode":"57247","targetCityState":"South Dakota"},"__N_SSG":true}