{"pageProps":{"stateName":"South-dakota","cityName":"lane","nearbyCities":[{"city":"Woonsocket","state_name":"South Dakota","lat":44.04433,"lng":-98.29507,"zip":"57385","miles_from_dt":6.67},{"city":"Alpena","state_name":"South Dakota","lat":44.19646,"lng":-98.38564,"zip":"57312","miles_from_dt":8.56},{"city":"Wessington Springs","state_name":"South Dakota","lat":44.05561,"lng":-98.67303,"zip":"57382","miles_from_dt":12.57},{"city":"Virgil","state_name":"South Dakota","lat":44.26428,"lng":-98.53795,"zip":"57379","miles_from_dt":14.27},{"city":"Letcher","state_name":"South Dakota","lat":43.90105,"lng":-98.15589,"zip":"57359","miles_from_dt":17.9},{"city":"Artesian","state_name":"South Dakota","lat":44.0509,"lng":-97.98904,"zip":"57314","miles_from_dt":21.62},{"city":"Huron","state_name":"South Dakota","lat":44.36319,"lng":-98.21892,"zip":"57399","miles_from_dt":22.29},{"city":"Plankinton","state_name":"South Dakota","lat":43.75117,"lng":-98.47593,"zip":"57368","miles_from_dt":22.53},{"city":"Wolsey","state_name":"South Dakota","lat":44.42044,"lng":-98.48477,"zip":"57384","miles_from_dt":24.04},{"city":"Cavour","state_name":"South Dakota","lat":44.30154,"lng":-98.04535,"zip":"57324","miles_from_dt":24.38},{"city":"Huron","state_name":"South Dakota","lat":44.3948,"lng":-98.20037,"zip":"57350","miles_from_dt":24.66},{"city":"Wessington","state_name":"South Dakota","lat":44.38717,"lng":-98.73267,"zip":"57381","miles_from_dt":26.49},{"city":"Mount Vernon","state_name":"South Dakota","lat":43.68723,"lng":-98.25491,"zip":"57363","miles_from_dt":28.06},{"city":"White Lake","state_name":"South Dakota","lat":43.7177,"lng":-98.71382,"zip":"57383","miles_from_dt":28.66}],"targetCityZipCode":"57358","targetCityState":"South Dakota"},"__N_SSG":true}