{"pageProps":{"stateName":"South-dakota","cityName":"long-valley","nearbyCities":[{"city":"Wanblee","state_name":"South Dakota","lat":43.52353,"lng":-101.66029,"zip":"57577","miles_from_dt":11.39},{"city":"Norris","state_name":"South Dakota","lat":43.44006,"lng":-101.21226,"zip":"57560","miles_from_dt":11.86},{"city":"Kadoka","state_name":"South Dakota","lat":43.74785,"lng":-101.52268,"zip":"57543","miles_from_dt":18.72},{"city":"Parmelee","state_name":"South Dakota","lat":43.31237,"lng":-101.10019,"zip":"57566","miles_from_dt":20.81},{"city":"Martin","state_name":"South Dakota","lat":43.18087,"lng":-101.70012,"zip":"57551","miles_from_dt":24.64},{"city":"Belvidere","state_name":"South Dakota","lat":43.79349,"lng":-101.18682,"zip":"57521","miles_from_dt":24.9},{"city":"Tuthill","state_name":"South Dakota","lat":43.10954,"lng":-101.36238,"zip":"57574","miles_from_dt":26.11},{"city":"Allen","state_name":"South Dakota","lat":43.32689,"lng":-101.91843,"zip":"57714","miles_from_dt":26.37},{"city":"Interior","state_name":"South Dakota","lat":43.60109,"lng":-101.94858,"zip":"57750","miles_from_dt":26.78}],"targetCityZipCode":"57547","targetCityState":"South Dakota"},"__N_SSG":true}