{"pageProps":{"stateName":"South-dakota","cityName":"montrose","nearbyCities":[{"city":"Humboldt","state_name":"South Dakota","lat":43.64651,"lng":-97.07627,"zip":"57035","miles_from_dt":9},{"city":"Salem","state_name":"South Dakota","lat":43.74602,"lng":-97.40468,"zip":"57058","miles_from_dt":10.23},{"city":"Canistota","state_name":"South Dakota","lat":43.59683,"lng":-97.27986,"zip":"57012","miles_from_dt":10.71},{"city":"Colton","state_name":"South Dakota","lat":43.79995,"lng":-96.97901,"zip":"57018","miles_from_dt":11.8},{"city":"Hartford","state_name":"South Dakota","lat":43.61613,"lng":-96.96037,"zip":"57033","miles_from_dt":14.79},{"city":"Monroe","state_name":"South Dakota","lat":43.51755,"lng":-97.21525,"zip":"57047","miles_from_dt":15.43},{"city":"Chester","state_name":"South Dakota","lat":43.88874,"lng":-96.96139,"zip":"57016","miles_from_dt":15.72},{"city":"Lyons","state_name":"South Dakota","lat":43.72184,"lng":-96.88415,"zip":"57041","miles_from_dt":15.88},{"city":"Madison","state_name":"South Dakota","lat":43.97744,"lng":-97.15133,"zip":"57042","miles_from_dt":16.52},{"city":"Winfred","state_name":"South Dakota","lat":43.97673,"lng":-97.35307,"zip":"57076","miles_from_dt":17.99},{"city":"Crooks","state_name":"South Dakota","lat":43.67796,"lng":-96.82665,"zip":"57020","miles_from_dt":19.21},{"city":"Canova","state_name":"South Dakota","lat":43.87294,"lng":-97.54864,"zip":"57321","miles_from_dt":19.66},{"city":"Bridgewater","state_name":"South Dakota","lat":43.53853,"lng":-97.48353,"zip":"57319","miles_from_dt":19.92},{"city":"Spencer","state_name":"South Dakota","lat":43.75582,"lng":-97.60361,"zip":"57374","miles_from_dt":20.21},{"city":"Wentworth","state_name":"South Dakota","lat":43.99605,"lng":-96.96749,"zip":"57075","miles_from_dt":21.11},{"city":"Sioux Falls","state_name":"South Dakota","lat":43.59468,"lng":-96.81962,"zip":"57107","miles_from_dt":21.58},{"city":"Baltic","state_name":"South Dakota","lat":43.73705,"lng":-96.75784,"zip":"57003","miles_from_dt":22.15},{"city":"Marion","state_name":"South Dakota","lat":43.41954,"lng":-97.30889,"zip":"57043","miles_from_dt":22.84},{"city":"Parker","state_name":"South Dakota","lat":43.40963,"lng":-97.13716,"zip":"57053","miles_from_dt":23.08},{"city":"Renner","state_name":"South Dakota","lat":43.66638,"lng":-96.73973,"zip":"57055","miles_from_dt":23.64},{"city":"Sioux Falls","state_name":"South Dakota","lat":43.50953,"lng":-96.83919,"zip":"57106","miles_from_dt":24.15},{"city":"Dell Rapids","state_name":"South Dakota","lat":43.85081,"lng":-96.7327,"zip":"57022","miles_from_dt":24.59},{"city":"Chancellor","state_name":"South Dakota","lat":43.42182,"lng":-96.98006,"zip":"57015","miles_from_dt":24.64},{"city":"Tea","state_name":"South Dakota","lat":43.45563,"lng":-96.87489,"zip":"57064","miles_from_dt":25.58},{"city":"Emery","state_name":"South Dakota","lat":43.5465,"lng":-97.64762,"zip":"57332","miles_from_dt":26.13},{"city":"Sioux Falls","state_name":"South Dakota","lat":43.60478,"lng":-96.70697,"zip":"57118","miles_from_dt":26.45},{"city":"Ramona","state_name":"South Dakota","lat":44.12162,"lng":-97.25799,"zip":"57054","miles_from_dt":26.45},{"city":"Sioux Falls","state_name":"South Dakota","lat":43.6041,"lng":-96.70442,"zip":"57104","miles_from_dt":26.58},{"city":"Sioux Falls","state_name":"South Dakota","lat":43.53124,"lng":-96.75497,"zip":"57117","miles_from_dt":26.61},{"city":"Sioux Falls","state_name":"South Dakota","lat":43.60131,"lng":-96.70485,"zip":"57101","miles_from_dt":26.63},{"city":"Colman","state_name":"South Dakota","lat":44.02246,"lng":-96.82788,"zip":"57017","miles_from_dt":26.91},{"city":"Howard","state_name":"South Dakota","lat":44.02671,"lng":-97.57521,"zip":"57349","miles_from_dt":27.2},{"city":"Sioux Falls","state_name":"South Dakota","lat":43.52455,"lng":-96.73862,"zip":"57197","miles_from_dt":27.55},{"city":"Sioux Falls","state_name":"South Dakota","lat":43.54555,"lng":-96.72077,"zip":"57193","miles_from_dt":27.56},{"city":"Sioux Falls","state_name":"South Dakota","lat":43.52054,"lng":-96.73836,"zip":"57109","miles_from_dt":27.71},{"city":"Rutland","state_name":"South Dakota","lat":44.10261,"lng":-96.95717,"zip":"57057","miles_from_dt":27.77},{"city":"Sioux Falls","state_name":"South Dakota","lat":43.52125,"lng":-96.73587,"zip":"57105","miles_from_dt":27.79},{"city":"Sioux Falls","state_name":"South Dakota","lat":43.55,"lng":-96.70219,"zip":"57186","miles_from_dt":28.24},{"city":"Sioux Falls","state_name":"South Dakota","lat":43.73374,"lng":-96.62827,"zip":"57198","miles_from_dt":28.64},{"city":"Alexandria","state_name":"South Dakota","lat":43.65112,"lng":-97.76483,"zip":"57311","miles_from_dt":28.95},{"city":"Sioux Falls","state_name":"South Dakota","lat":43.538,"lng":-96.69241,"zip":"57103","miles_from_dt":29.06}],"targetCityZipCode":"57048","targetCityState":"South Dakota"},"__N_SSG":true}