{"pageProps":{"stateName":"South-dakota","cityName":"new-underwood","nearbyCities":[{"city":"Owanka","state_name":"South Dakota","lat":44.13841,"lng":-102.5721,"zip":"57767","miles_from_dt":10.83},{"city":"Box Elder","state_name":"South Dakota","lat":44.23059,"lng":-102.98312,"zip":"57719","miles_from_dt":11.14},{"city":"Wasta","state_name":"South Dakota","lat":44.24388,"lng":-102.46514,"zip":"57791","miles_from_dt":14.71},{"city":"Ellsworth Afb","state_name":"South Dakota","lat":44.1564,"lng":-103.09561,"zip":"57706","miles_from_dt":17.24},{"city":"Caputa","state_name":"South Dakota","lat":43.93723,"lng":-102.80324,"zip":"57725","miles_from_dt":19.55},{"city":"Rapid City","state_name":"South Dakota","lat":44.00331,"lng":-103.04528,"zip":"57703","miles_from_dt":20.57},{"city":"Rapid City","state_name":"South Dakota","lat":44.1209,"lng":-103.20562,"zip":"57701","miles_from_dt":23.18},{"city":"Enning","state_name":"South Dakota","lat":44.55618,"lng":-102.52096,"zip":"57737","miles_from_dt":26.13},{"city":"Sturgis","state_name":"South Dakota","lat":44.41905,"lng":-103.21534,"zip":"57785","miles_from_dt":26.5},{"city":"Piedmont","state_name":"South Dakota","lat":44.24326,"lng":-103.29704,"zip":"57769","miles_from_dt":26.74},{"city":"Wall","state_name":"South Dakota","lat":44.10378,"lng":-102.20683,"zip":"57790","miles_from_dt":28.59}],"targetCityZipCode":"57761","targetCityState":"South Dakota"},"__N_SSG":true}