{"pageProps":{"stateName":"South-dakota","cityName":"peever","nearbyCities":[{"city":"Wilmot","state_name":"South Dakota","lat":45.41816,"lng":-96.87274,"zip":"57279","miles_from_dt":9.49},{"city":"Sisseton","state_name":"South Dakota","lat":45.67288,"lng":-97.06641,"zip":"57262","miles_from_dt":12.09},{"city":"Browns Valley","state_name":"Minnesota","lat":45.5977,"lng":-96.81913,"zip":"56219","miles_from_dt":12.26},{"city":"Grenville","state_name":"South Dakota","lat":45.51223,"lng":-97.30938,"zip":"57239","miles_from_dt":13.6},{"city":"Summit","state_name":"South Dakota","lat":45.28619,"lng":-97.08985,"zip":"57266","miles_from_dt":15.03},{"city":"Marvin","state_name":"South Dakota","lat":45.27717,"lng":-96.93677,"zip":"57251","miles_from_dt":16.02},{"city":"Waubay","state_name":"South Dakota","lat":45.33334,"lng":-97.27574,"zip":"57273","miles_from_dt":16.59},{"city":"Corona","state_name":"South Dakota","lat":45.36184,"lng":-96.72105,"zip":"57227","miles_from_dt":17.78},{"city":"Beardsley","state_name":"Minnesota","lat":45.58641,"lng":-96.6828,"zip":"56211","miles_from_dt":17.87},{"city":"Eden","state_name":"South Dakota","lat":45.61752,"lng":-97.38393,"zip":"57232","miles_from_dt":19.01},{"city":"Ortley","state_name":"South Dakota","lat":45.24918,"lng":-97.20156,"zip":"57256","miles_from_dt":19.22},{"city":"Twin Brooks","state_name":"South Dakota","lat":45.22273,"lng":-96.80182,"zip":"57269","miles_from_dt":22.12},{"city":"Claire City","state_name":"South Dakota","lat":45.81332,"lng":-97.15672,"zip":"57224","miles_from_dt":22.51},{"city":"Roslyn","state_name":"South Dakota","lat":45.54051,"lng":-97.49412,"zip":"57261","miles_from_dt":22.72},{"city":"Barry","state_name":"Minnesota","lat":45.55739,"lng":-96.55958,"zip":"56210","miles_from_dt":23.17},{"city":"South Shore","state_name":"South Dakota","lat":45.14106,"lng":-97.00589,"zip":"57263","miles_from_dt":24.8},{"city":"Lake City","state_name":"South Dakota","lat":45.71675,"lng":-97.45817,"zip":"57247","miles_from_dt":25.61},{"city":"New Effington","state_name":"South Dakota","lat":45.86702,"lng":-96.94985,"zip":"57255","miles_from_dt":25.66},{"city":"Graceville","state_name":"Minnesota","lat":45.56327,"lng":-96.47475,"zip":"56240","miles_from_dt":27.3},{"city":"Rosholt","state_name":"South Dakota","lat":45.83641,"lng":-96.7172,"zip":"57260","miles_from_dt":27.74},{"city":"Veblen","state_name":"South Dakota","lat":45.84824,"lng":-97.32999,"zip":"57270","miles_from_dt":28.11},{"city":"Big Stone City","state_name":"South Dakota","lat":45.30041,"lng":-96.52471,"zip":"57216","miles_from_dt":28.17},{"city":"Clinton","state_name":"Minnesota","lat":45.45325,"lng":-96.4482,"zip":"56225","miles_from_dt":28.44},{"city":"Webster","state_name":"South Dakota","lat":45.30943,"lng":-97.55533,"zip":"57274","miles_from_dt":28.75},{"city":"Milbank","state_name":"South Dakota","lat":45.20507,"lng":-96.61053,"zip":"57252","miles_from_dt":28.83},{"city":"Stockholm","state_name":"South Dakota","lat":45.10863,"lng":-96.80254,"zip":"57264","miles_from_dt":29.19}],"targetCityZipCode":"57257","targetCityState":"South Dakota"},"__N_SSG":true}