{"pageProps":{"stateName":"South-dakota","cityName":"pollock","nearbyCities":[{"city":"Herreid","state_name":"South Dakota","lat":45.82924,"lng":-100.04927,"zip":"57632","miles_from_dt":14.6},{"city":"Strasburg","state_name":"North Dakota","lat":46.12542,"lng":-100.20709,"zip":"58573","miles_from_dt":14.68},{"city":"Hague","state_name":"North Dakota","lat":46.04976,"lng":-100.00269,"zip":"58542","miles_from_dt":17.36},{"city":"Fort Yates","state_name":"North Dakota","lat":46.08833,"lng":-100.66983,"zip":"58538","miles_from_dt":20.28},{"city":"Mound City","state_name":"South Dakota","lat":45.68753,"lng":-100.05395,"zip":"57646","miles_from_dt":20.88},{"city":"McLaughlin","state_name":"South Dakota","lat":45.78609,"lng":-100.72458,"zip":"57642","miles_from_dt":21.93},{"city":"Wakpala","state_name":"South Dakota","lat":45.65744,"lng":-100.55835,"zip":"57658","miles_from_dt":21.97},{"city":"Linton","state_name":"North Dakota","lat":46.26042,"lng":-100.29955,"zip":"58552","miles_from_dt":23.03},{"city":"Glenham","state_name":"South Dakota","lat":45.58195,"lng":-100.28779,"zip":"57631","miles_from_dt":23.89},{"city":"Zeeland","state_name":"North Dakota","lat":46.04646,"lng":-99.7983,"zip":"58581","miles_from_dt":26.32},{"city":"Little Eagle","state_name":"South Dakota","lat":45.679,"lng":-100.80324,"zip":"57639","miles_from_dt":29.06}],"targetCityZipCode":"57648","targetCityState":"South Dakota"},"__N_SSG":true}