{"pageProps":{"stateName":"South-dakota","cityName":"ree-heights","nearbyCities":[{"city":"Miller","state_name":"South Dakota","lat":44.47488,"lng":-99.06447,"zip":"57362","miles_from_dt":8.77},{"city":"Highmore","state_name":"South Dakota","lat":44.5687,"lng":-99.45009,"zip":"57345","miles_from_dt":14.39},{"city":"Stephan","state_name":"South Dakota","lat":44.24818,"lng":-99.45756,"zip":"57346","miles_from_dt":16.92},{"city":"Holabird","state_name":"South Dakota","lat":44.46477,"lng":-99.60377,"zip":"57540","miles_from_dt":18.58},{"city":"Saint Lawrence","state_name":"South Dakota","lat":44.52936,"lng":-98.86987,"zip":"57373","miles_from_dt":19.09},{"city":"Wessington","state_name":"South Dakota","lat":44.38717,"lng":-98.73267,"zip":"57381","miles_from_dt":24.86},{"city":"Gann Valley","state_name":"South Dakota","lat":44.08077,"lng":-99.08974,"zip":"57341","miles_from_dt":25.21},{"city":"Fort Thompson","state_name":"South Dakota","lat":44.11233,"lng":-99.47862,"zip":"57339","miles_from_dt":25.23},{"city":"Harrold","state_name":"South Dakota","lat":44.41502,"lng":-99.76694,"zip":"57536","miles_from_dt":26.54},{"city":"Orient","state_name":"South Dakota","lat":44.82754,"lng":-99.14221,"zip":"57467","miles_from_dt":27.7}],"targetCityZipCode":"57371","targetCityState":"South Dakota"},"__N_SSG":true}