{"pageProps":{"stateName":"South-dakota","cityName":"saint-onge","nearbyCities":[{"city":"Spearfish","state_name":"South Dakota","lat":44.49817,"lng":-103.87256,"zip":"57799","miles_from_dt":7.21},{"city":"Whitewood","state_name":"South Dakota","lat":44.51824,"lng":-103.581,"zip":"57793","miles_from_dt":9.38},{"city":"Spearfish","state_name":"South Dakota","lat":44.47106,"lng":-103.9219,"zip":"57783","miles_from_dt":10.29},{"city":"Nisland","state_name":"South Dakota","lat":44.75285,"lng":-103.60902,"zip":"57762","miles_from_dt":14.98},{"city":"Fort Meade","state_name":"South Dakota","lat":44.41044,"lng":-103.47273,"zip":"57741","miles_from_dt":17.73},{"city":"Beulah","state_name":"Wyoming","lat":44.52594,"lng":-104.12372,"zip":"82712","miles_from_dt":18.17},{"city":"Lead","state_name":"South Dakota","lat":44.26193,"lng":-103.87478,"zip":"57754","miles_from_dt":21.65},{"city":"Deadwood","state_name":"South Dakota","lat":44.23782,"lng":-103.64335,"zip":"57732","miles_from_dt":23.28},{"city":"Nemo","state_name":"South Dakota","lat":44.2202,"lng":-103.55373,"zip":"57759","miles_from_dt":25.87},{"city":"Vale","state_name":"South Dakota","lat":44.61855,"lng":-103.2167,"zip":"57788","miles_from_dt":27.05},{"city":"Aladdin","state_name":"Wyoming","lat":44.71488,"lng":-104.28465,"zip":"82710","miles_from_dt":27.89},{"city":"Sturgis","state_name":"South Dakota","lat":44.41905,"lng":-103.21534,"zip":"57785","miles_from_dt":28.72},{"city":"Belle Fourche","state_name":"South Dakota","lat":44.96667,"lng":-103.92396,"zip":"57717","miles_from_dt":28.92},{"city":"Rapid City","state_name":"South Dakota","lat":44.2321,"lng":-103.38932,"zip":"57709","miles_from_dt":29.37}],"targetCityZipCode":"57779","targetCityState":"South Dakota"},"__N_SSG":true}