{"pageProps":{"stateName":"South-dakota","cityName":"spencer","nearbyCities":[{"city":"Canova","state_name":"South Dakota","lat":43.87294,"lng":-97.54864,"zip":"57321","miles_from_dt":8.54},{"city":"Salem","state_name":"South Dakota","lat":43.74602,"lng":-97.40468,"zip":"57058","miles_from_dt":9.98},{"city":"Alexandria","state_name":"South Dakota","lat":43.65112,"lng":-97.76483,"zip":"57311","miles_from_dt":10.84},{"city":"Fulton","state_name":"South Dakota","lat":43.79392,"lng":-97.85036,"zip":"57340","miles_from_dt":12.62},{"city":"Emery","state_name":"South Dakota","lat":43.5465,"lng":-97.64762,"zip":"57332","miles_from_dt":14.62},{"city":"Bridgewater","state_name":"South Dakota","lat":43.53853,"lng":-97.48353,"zip":"57319","miles_from_dt":16.16},{"city":"Howard","state_name":"South Dakota","lat":44.02671,"lng":-97.57521,"zip":"57349","miles_from_dt":18.76},{"city":"Fedora","state_name":"South Dakota","lat":44.00108,"lng":-97.79048,"zip":"57337","miles_from_dt":19.33},{"city":"Canistota","state_name":"South Dakota","lat":43.59683,"lng":-97.27986,"zip":"57012","miles_from_dt":19.59},{"city":"Winfred","state_name":"South Dakota","lat":43.97673,"lng":-97.35307,"zip":"57076","miles_from_dt":19.73},{"city":"Montrose","state_name":"South Dakota","lat":43.74081,"lng":-97.20034,"zip":"57048","miles_from_dt":20.21},{"city":"Mitchell","state_name":"South Dakota","lat":43.71136,"lng":-98.04155,"zip":"57301","miles_from_dt":22.14},{"city":"Ethan","state_name":"South Dakota","lat":43.54199,"lng":-97.99492,"zip":"57334","miles_from_dt":24.55},{"city":"Monroe","state_name":"South Dakota","lat":43.51755,"lng":-97.21525,"zip":"57047","miles_from_dt":25.49},{"city":"Madison","state_name":"South Dakota","lat":43.97744,"lng":-97.15133,"zip":"57042","miles_from_dt":27.28},{"city":"Humboldt","state_name":"South Dakota","lat":43.64651,"lng":-97.07627,"zip":"57035","miles_from_dt":27.47},{"city":"Marion","state_name":"South Dakota","lat":43.41954,"lng":-97.30889,"zip":"57043","miles_from_dt":27.53},{"city":"Artesian","state_name":"South Dakota","lat":44.0509,"lng":-97.98904,"zip":"57314","miles_from_dt":28.02},{"city":"Carthage","state_name":"South Dakota","lat":44.16259,"lng":-97.72115,"zip":"57323","miles_from_dt":28.69},{"city":"Letcher","state_name":"South Dakota","lat":43.90105,"lng":-98.15589,"zip":"57359","miles_from_dt":29.37},{"city":"Dimock","state_name":"South Dakota","lat":43.47337,"lng":-98.04619,"zip":"57331","miles_from_dt":29.55},{"city":"Freeman","state_name":"South Dakota","lat":43.33696,"lng":-97.47936,"zip":"57029","miles_from_dt":29.58}],"targetCityZipCode":"57374","targetCityState":"South Dakota"},"__N_SSG":true}