{"pageProps":{"stateName":"South-dakota","cityName":"stockholm","nearbyCities":[{"city":"Labolt","state_name":"South Dakota","lat":45.05639,"lng":-96.66914,"zip":"57246","miles_from_dt":7.46},{"city":"Twin Brooks","state_name":"South Dakota","lat":45.22273,"lng":-96.80182,"zip":"57269","miles_from_dt":7.88},{"city":"Strandburg","state_name":"South Dakota","lat":44.98866,"lng":-96.79591,"zip":"57265","miles_from_dt":8.29},{"city":"South Shore","state_name":"South Dakota","lat":45.14106,"lng":-97.00589,"zip":"57263","miles_from_dt":10.19},{"city":"Milbank","state_name":"South Dakota","lat":45.20507,"lng":-96.61053,"zip":"57252","miles_from_dt":11.5},{"city":"Marvin","state_name":"South Dakota","lat":45.27717,"lng":-96.93677,"zip":"57251","miles_from_dt":13.36},{"city":"Revillo","state_name":"South Dakota","lat":45.00047,"lng":-96.56786,"zip":"57259","miles_from_dt":13.7},{"city":"Kranzburg","state_name":"South Dakota","lat":44.89365,"lng":-96.91835,"zip":"57245","miles_from_dt":15.89},{"city":"Goodwin","state_name":"South Dakota","lat":44.87287,"lng":-96.86231,"zip":"57238","miles_from_dt":16.54},{"city":"Corona","state_name":"South Dakota","lat":45.36184,"lng":-96.72105,"zip":"57227","miles_from_dt":17.93},{"city":"Summit","state_name":"South Dakota","lat":45.28619,"lng":-97.08985,"zip":"57266","miles_from_dt":18.63},{"city":"Watertown","state_name":"South Dakota","lat":44.93412,"lng":-97.09424,"zip":"57201","miles_from_dt":18.69},{"city":"Big Stone City","state_name":"South Dakota","lat":45.30041,"lng":-96.52471,"zip":"57216","miles_from_dt":18.96},{"city":"Wilmot","state_name":"South Dakota","lat":45.41816,"lng":-96.87274,"zip":"57279","miles_from_dt":21.65},{"city":"Ortley","state_name":"South Dakota","lat":45.24918,"lng":-97.20156,"zip":"57256","miles_from_dt":21.77},{"city":"Marietta","state_name":"Minnesota","lat":44.9684,"lng":-96.40275,"zip":"56257","miles_from_dt":21.84},{"city":"Clear Lake","state_name":"South Dakota","lat":44.78565,"lng":-96.72368,"zip":"57226","miles_from_dt":22.64},{"city":"Bellingham","state_name":"Minnesota","lat":45.13499,"lng":-96.32459,"zip":"56212","miles_from_dt":23.44},{"city":"Florence","state_name":"South Dakota","lat":45.06896,"lng":-97.31338,"zip":"57235","miles_from_dt":25.14},{"city":"Odessa","state_name":"Minnesota","lat":45.24134,"lng":-96.31249,"zip":"56276","miles_from_dt":25.63},{"city":"Gary","state_name":"South Dakota","lat":44.79323,"lng":-96.51991,"zip":"57237","miles_from_dt":25.81},{"city":"Ortonville","state_name":"Minnesota","lat":45.345,"lng":-96.37718,"zip":"56278","miles_from_dt":26.41},{"city":"Waubay","state_name":"South Dakota","lat":45.33334,"lng":-97.27574,"zip":"57273","miles_from_dt":27.82},{"city":"Peever","state_name":"South Dakota","lat":45.49975,"lng":-97.02982,"zip":"57257","miles_from_dt":29.19},{"city":"Castlewood","state_name":"South Dakota","lat":44.71019,"lng":-97.00567,"zip":"57223","miles_from_dt":29.26},{"city":"Clinton","state_name":"Minnesota","lat":45.45325,"lng":-96.4482,"zip":"56225","miles_from_dt":29.41}],"targetCityZipCode":"57264","targetCityState":"South Dakota"},"__N_SSG":true}