{"pageProps":{"stateName":"South-dakota","cityName":"summit","nearbyCities":[{"city":"Ortley","state_name":"South Dakota","lat":45.24918,"lng":-97.20156,"zip":"57256","miles_from_dt":6.02},{"city":"Marvin","state_name":"South Dakota","lat":45.27717,"lng":-96.93677,"zip":"57251","miles_from_dt":7.49},{"city":"Waubay","state_name":"South Dakota","lat":45.33334,"lng":-97.27574,"zip":"57273","miles_from_dt":9.63},{"city":"South Shore","state_name":"South Dakota","lat":45.14106,"lng":-97.00589,"zip":"57263","miles_from_dt":10.83},{"city":"Wilmot","state_name":"South Dakota","lat":45.41816,"lng":-96.87274,"zip":"57279","miles_from_dt":13.96},{"city":"Twin Brooks","state_name":"South Dakota","lat":45.22273,"lng":-96.80182,"zip":"57269","miles_from_dt":14.72},{"city":"Peever","state_name":"South Dakota","lat":45.49975,"lng":-97.02982,"zip":"57257","miles_from_dt":15.03},{"city":"Florence","state_name":"South Dakota","lat":45.06896,"lng":-97.31338,"zip":"57235","miles_from_dt":18.55},{"city":"Stockholm","state_name":"South Dakota","lat":45.10863,"lng":-96.80254,"zip":"57264","miles_from_dt":18.63},{"city":"Corona","state_name":"South Dakota","lat":45.36184,"lng":-96.72105,"zip":"57227","miles_from_dt":18.71},{"city":"Grenville","state_name":"South Dakota","lat":45.51223,"lng":-97.30938,"zip":"57239","miles_from_dt":18.91},{"city":"Webster","state_name":"South Dakota","lat":45.30943,"lng":-97.55533,"zip":"57274","miles_from_dt":22.74},{"city":"Wallace","state_name":"South Dakota","lat":45.09564,"lng":-97.48002,"zip":"57272","miles_from_dt":23.15},{"city":"Milbank","state_name":"South Dakota","lat":45.20507,"lng":-96.61053,"zip":"57252","miles_from_dt":24.04},{"city":"Watertown","state_name":"South Dakota","lat":44.93412,"lng":-97.09424,"zip":"57201","miles_from_dt":24.31},{"city":"Strandburg","state_name":"South Dakota","lat":44.98866,"lng":-96.79591,"zip":"57265","miles_from_dt":25.07},{"city":"Browns Valley","state_name":"Minnesota","lat":45.5977,"lng":-96.81913,"zip":"56219","miles_from_dt":25.22},{"city":"Labolt","state_name":"South Dakota","lat":45.05639,"lng":-96.66914,"zip":"57246","miles_from_dt":25.96},{"city":"Roslyn","state_name":"South Dakota","lat":45.54051,"lng":-97.49412,"zip":"57261","miles_from_dt":26.37},{"city":"Sisseton","state_name":"South Dakota","lat":45.67288,"lng":-97.06641,"zip":"57262","miles_from_dt":26.73},{"city":"Eden","state_name":"South Dakota","lat":45.61752,"lng":-97.38393,"zip":"57232","miles_from_dt":26.98},{"city":"Big Stone City","state_name":"South Dakota","lat":45.30041,"lng":-96.52471,"zip":"57216","miles_from_dt":27.56},{"city":"Kranzburg","state_name":"South Dakota","lat":44.89365,"lng":-96.91835,"zip":"57245","miles_from_dt":28.38},{"city":"Beardsley","state_name":"Minnesota","lat":45.58641,"lng":-96.6828,"zip":"56211","miles_from_dt":28.66}],"targetCityZipCode":"57266","targetCityState":"South Dakota"},"__N_SSG":true}