{"pageProps":{"stateName":"South-dakota","cityName":"toronto","nearbyCities":[{"city":"Brandt","state_name":"South Dakota","lat":44.65787,"lng":-96.59624,"zip":"57218","miles_from_dt":7.63},{"city":"Astoria","state_name":"South Dakota","lat":44.57112,"lng":-96.5323,"zip":"57213","miles_from_dt":7.68},{"city":"White","state_name":"South Dakota","lat":44.43308,"lng":-96.61983,"zip":"57276","miles_from_dt":9.96},{"city":"Estelline","state_name":"South Dakota","lat":44.59719,"lng":-96.89929,"zip":"57234","miles_from_dt":10.62},{"city":"Bruce","state_name":"South Dakota","lat":44.45927,"lng":-96.92022,"zip":"57220","miles_from_dt":13.75},{"city":"Hendricks","state_name":"Minnesota","lat":44.50187,"lng":-96.41645,"zip":"56136","miles_from_dt":14.18},{"city":"Clear Lake","state_name":"South Dakota","lat":44.78565,"lng":-96.72368,"zip":"57226","miles_from_dt":15.07},{"city":"Gary","state_name":"South Dakota","lat":44.79323,"lng":-96.51991,"zip":"57237","miles_from_dt":17.56},{"city":"Brookings","state_name":"South Dakota","lat":44.31924,"lng":-96.78408,"zip":"57007","miles_from_dt":17.88},{"city":"Brookings","state_name":"South Dakota","lat":44.31588,"lng":-96.79518,"zip":"57006","miles_from_dt":18.26},{"city":"Castlewood","state_name":"South Dakota","lat":44.71019,"lng":-97.00567,"zip":"57223","miles_from_dt":18.46},{"city":"Aurora","state_name":"South Dakota","lat":44.28785,"lng":-96.67752,"zip":"57002","miles_from_dt":19.41},{"city":"Canby","state_name":"Minnesota","lat":44.73125,"lng":-96.29339,"zip":"56220","miles_from_dt":22.44},{"city":"Goodwin","state_name":"South Dakota","lat":44.87287,"lng":-96.86231,"zip":"57238","miles_from_dt":22.68},{"city":"Ivanhoe","state_name":"Minnesota","lat":44.4711,"lng":-96.2327,"zip":"56142","miles_from_dt":23.47},{"city":"Elkton","state_name":"South Dakota","lat":44.24996,"lng":-96.50149,"zip":"57026","miles_from_dt":23.87},{"city":"Volga","state_name":"South Dakota","lat":44.26986,"lng":-96.95934,"zip":"57071","miles_from_dt":24.63},{"city":"Lake Norden","state_name":"South Dakota","lat":44.58063,"lng":-97.19328,"zip":"57248","miles_from_dt":24.96},{"city":"Kranzburg","state_name":"South Dakota","lat":44.89365,"lng":-96.91835,"zip":"57245","miles_from_dt":25.13},{"city":"Badger","state_name":"South Dakota","lat":44.47764,"lng":-97.19575,"zip":"57214","miles_from_dt":25.87},{"city":"Arlington","state_name":"South Dakota","lat":44.38111,"lng":-97.14344,"zip":"57212","miles_from_dt":25.99},{"city":"Porter","state_name":"Minnesota","lat":44.63212,"lng":-96.16719,"zip":"56280","miles_from_dt":26.05},{"city":"Lake Benton","state_name":"Minnesota","lat":44.30059,"lng":-96.30454,"zip":"56149","miles_from_dt":26.51},{"city":"Hayti","state_name":"South Dakota","lat":44.69742,"lng":-97.21747,"zip":"57241","miles_from_dt":27.58},{"city":"Sinai","state_name":"South Dakota","lat":44.24452,"lng":-97.04399,"zip":"57061","miles_from_dt":28.5},{"city":"Arco","state_name":"Minnesota","lat":44.40218,"lng":-96.14904,"zip":"56113","miles_from_dt":29.01},{"city":"Strandburg","state_name":"South Dakota","lat":44.98866,"lng":-96.79591,"zip":"57265","miles_from_dt":29.47}],"targetCityZipCode":"57268","targetCityState":"South Dakota"},"__N_SSG":true}