{"pageProps":{"stateName":"South-dakota","cityName":"white","nearbyCities":[{"city":"Toronto","state_name":"South Dakota","lat":44.56885,"lng":-96.68781,"zip":"57268","miles_from_dt":9.96},{"city":"Aurora","state_name":"South Dakota","lat":44.28785,"lng":-96.67752,"zip":"57002","miles_from_dt":10.43},{"city":"Astoria","state_name":"South Dakota","lat":44.57112,"lng":-96.5323,"zip":"57213","miles_from_dt":10.47},{"city":"Hendricks","state_name":"Minnesota","lat":44.50187,"lng":-96.41645,"zip":"56136","miles_from_dt":11.12},{"city":"Brookings","state_name":"South Dakota","lat":44.31924,"lng":-96.78408,"zip":"57007","miles_from_dt":11.31},{"city":"Brookings","state_name":"South Dakota","lat":44.31588,"lng":-96.79518,"zip":"57006","miles_from_dt":11.87},{"city":"Elkton","state_name":"South Dakota","lat":44.24996,"lng":-96.50149,"zip":"57026","miles_from_dt":13.94},{"city":"Bruce","state_name":"South Dakota","lat":44.45927,"lng":-96.92022,"zip":"57220","miles_from_dt":14.97},{"city":"Brandt","state_name":"South Dakota","lat":44.65787,"lng":-96.59624,"zip":"57218","miles_from_dt":15.57},{"city":"Estelline","state_name":"South Dakota","lat":44.59719,"lng":-96.89929,"zip":"57234","miles_from_dt":17.86},{"city":"Lake Benton","state_name":"Minnesota","lat":44.30059,"lng":-96.30454,"zip":"56149","miles_from_dt":18.1},{"city":"Ivanhoe","state_name":"Minnesota","lat":44.4711,"lng":-96.2327,"zip":"56142","miles_from_dt":19.33},{"city":"Volga","state_name":"South Dakota","lat":44.26986,"lng":-96.95934,"zip":"57071","miles_from_dt":20.25},{"city":"Arco","state_name":"Minnesota","lat":44.40218,"lng":-96.14904,"zip":"56113","miles_from_dt":23.4},{"city":"Sinai","state_name":"South Dakota","lat":44.24452,"lng":-97.04399,"zip":"57061","miles_from_dt":24.72},{"city":"Clear Lake","state_name":"South Dakota","lat":44.78565,"lng":-96.72368,"zip":"57226","miles_from_dt":24.88},{"city":"Gary","state_name":"South Dakota","lat":44.79323,"lng":-96.51991,"zip":"57237","miles_from_dt":25.35},{"city":"Flandreau","state_name":"South Dakota","lat":44.05766,"lng":-96.60443,"zip":"57028","miles_from_dt":25.93},{"city":"Canby","state_name":"Minnesota","lat":44.73125,"lng":-96.29339,"zip":"56220","miles_from_dt":26.14},{"city":"Arlington","state_name":"South Dakota","lat":44.38111,"lng":-97.14344,"zip":"57212","miles_from_dt":26.16},{"city":"Porter","state_name":"Minnesota","lat":44.63212,"lng":-96.16719,"zip":"56280","miles_from_dt":26.24},{"city":"Tyler","state_name":"Minnesota","lat":44.28593,"lng":-96.12997,"zip":"56178","miles_from_dt":26.31},{"city":"Castlewood","state_name":"South Dakota","lat":44.71019,"lng":-97.00567,"zip":"57223","miles_from_dt":27},{"city":"Nunda","state_name":"South Dakota","lat":44.15725,"lng":-97.01467,"zip":"57050","miles_from_dt":27.31},{"city":"Rutland","state_name":"South Dakota","lat":44.10261,"lng":-96.95717,"zip":"57057","miles_from_dt":28.3},{"city":"Badger","state_name":"South Dakota","lat":44.47764,"lng":-97.19575,"zip":"57214","miles_from_dt":28.65}],"targetCityZipCode":"57276","targetCityState":"South Dakota"},"__N_SSG":true}