{"pageProps":{"stateName":"South-carolina","cityName":"alcolu","nearbyCities":[{"city":"Gable","state_name":"South Carolina","lat":33.8669,"lng":-80.12231,"zip":"29051","miles_from_dt":6.35},{"city":"Sardinia","state_name":"South Carolina","lat":33.83662,"lng":-80.08072,"zip":"29143","miles_from_dt":6.4},{"city":"New Zion","state_name":"South Carolina","lat":33.78648,"lng":-80.01433,"zip":"29111","miles_from_dt":9.15},{"city":"Manning","state_name":"South Carolina","lat":33.6437,"lng":-80.19225,"zip":"29102","miles_from_dt":9.82},{"city":"Turbeville","state_name":"South Carolina","lat":33.88751,"lng":-80.00865,"zip":"29162","miles_from_dt":11.81},{"city":"Sumter","state_name":"South Carolina","lat":33.87621,"lng":-80.35609,"zip":"29150","miles_from_dt":12.24},{"city":"Davis Station","state_name":"South Carolina","lat":33.60173,"lng":-80.26475,"zip":"29041","miles_from_dt":13.7},{"city":"Sumter","state_name":"South Carolina","lat":33.90864,"lng":-80.36259,"zip":"29151","miles_from_dt":13.81},{"city":"Sumter","state_name":"South Carolina","lat":33.96515,"lng":-80.30675,"zip":"29153","miles_from_dt":14.58},{"city":"Mayesville","state_name":"South Carolina","lat":33.99524,"lng":-80.21373,"zip":"29104","miles_from_dt":14.66},{"city":"Greeleyville","state_name":"South Carolina","lat":33.60798,"lng":-79.99473,"zip":"29056","miles_from_dt":15.98},{"city":"Lynchburg","state_name":"South Carolina","lat":34.01525,"lng":-80.08374,"zip":"29080","miles_from_dt":16.67},{"city":"Olanta","state_name":"South Carolina","lat":33.95436,"lng":-79.93537,"zip":"29114","miles_from_dt":17.97},{"city":"Pinewood","state_name":"South Carolina","lat":33.70165,"lng":-80.47434,"zip":"29125","miles_from_dt":18.26},{"city":"Sumter","state_name":"South Carolina","lat":33.88515,"lng":-80.47547,"zip":"29154","miles_from_dt":18.69},{"city":"Cades","state_name":"South Carolina","lat":33.7892,"lng":-79.84851,"zip":"29518","miles_from_dt":18.7},{"city":"Summerton","state_name":"South Carolina","lat":33.53731,"lng":-80.34386,"zip":"29148","miles_from_dt":19.71},{"city":"Shaw Afb","state_name":"South Carolina","lat":33.97517,"lng":-80.47019,"zip":"29152","miles_from_dt":21.5},{"city":"Wedgefield","state_name":"South Carolina","lat":33.84848,"lng":-80.54483,"zip":"29168","miles_from_dt":21.81},{"city":"Elliott","state_name":"South Carolina","lat":34.11252,"lng":-80.16131,"zip":"29046","miles_from_dt":22.57},{"city":"Dalzell","state_name":"South Carolina","lat":34.06253,"lng":-80.43455,"zip":"29040","miles_from_dt":24.3},{"city":"Salters","state_name":"South Carolina","lat":33.55892,"lng":-79.84784,"zip":"29590","miles_from_dt":24.4},{"city":"Lake City","state_name":"South Carolina","lat":33.83535,"lng":-79.74747,"zip":"29560","miles_from_dt":24.75},{"city":"Kingstree","state_name":"South Carolina","lat":33.66849,"lng":-79.76403,"zip":"29556","miles_from_dt":24.91},{"city":"Pineville","state_name":"South Carolina","lat":33.42624,"lng":-80.06856,"zip":"29468","miles_from_dt":25.47},{"city":"Timmonsville","state_name":"South Carolina","lat":34.10532,"lng":-79.94143,"zip":"29161","miles_from_dt":25.77},{"city":"Scranton","state_name":"South Carolina","lat":33.93894,"lng":-79.759,"zip":"29591","miles_from_dt":26.07},{"city":"Lane","state_name":"South Carolina","lat":33.47686,"lng":-79.85522,"zip":"29564","miles_from_dt":28.08},{"city":"Lamar","state_name":"South Carolina","lat":34.18798,"lng":-80.09654,"zip":"29069","miles_from_dt":28.1},{"city":"Eutawville","state_name":"South Carolina","lat":33.39057,"lng":-80.29702,"zip":"29048","miles_from_dt":28.12},{"city":"Coward","state_name":"South Carolina","lat":33.98984,"lng":-79.74222,"zip":"29530","miles_from_dt":28.51},{"city":"Horatio","state_name":"South Carolina","lat":33.99818,"lng":-80.60785,"zip":"29062","miles_from_dt":28.96},{"city":"Russellville","state_name":"South Carolina","lat":33.39796,"lng":-79.97478,"zip":"29476","miles_from_dt":29.05},{"city":"Elloree","state_name":"South Carolina","lat":33.53218,"lng":-80.57956,"zip":"29047","miles_from_dt":29.19},{"city":"Vance","state_name":"South Carolina","lat":33.42019,"lng":-80.43918,"zip":"29163","miles_from_dt":29.46},{"city":"Rembert","state_name":"South Carolina","lat":34.0963,"lng":-80.53268,"zip":"29128","miles_from_dt":29.76},{"city":"Santee","state_name":"South Carolina","lat":33.46491,"lng":-80.52329,"zip":"29142","miles_from_dt":29.91}],"targetCityZipCode":"29001","targetCityState":"South Carolina"},"__N_SSG":true}