{"pageProps":{"stateName":"South-carolina","cityName":"bennettsville","nearbyCities":[{"city":"Tatum","state_name":"South Carolina","lat":34.64017,"lng":-79.57728,"zip":"29594","miles_from_dt":7.66},{"city":"McColl","state_name":"South Carolina","lat":34.67495,"lng":-79.5624,"zip":"29570","miles_from_dt":9.07},{"city":"Clio","state_name":"South Carolina","lat":34.5722,"lng":-79.53327,"zip":"29525","miles_from_dt":10.81},{"city":"Wallace","state_name":"South Carolina","lat":34.74456,"lng":-79.83978,"zip":"29596","miles_from_dt":10.92},{"city":"Gibson","state_name":"North Carolina","lat":34.76454,"lng":-79.58129,"zip":"28343","miles_from_dt":12},{"city":"Society Hill","state_name":"South Carolina","lat":34.49462,"lng":-79.85429,"zip":"29593","miles_from_dt":12.27},{"city":"Cheraw","state_name":"South Carolina","lat":34.68083,"lng":-79.92601,"zip":"29520","miles_from_dt":12.8},{"city":"Blenheim","state_name":"South Carolina","lat":34.44323,"lng":-79.62414,"zip":"29516","miles_from_dt":13.62},{"city":"Little Rock","state_name":"South Carolina","lat":34.55325,"lng":-79.42649,"zip":"29567","miles_from_dt":17},{"city":"Laurel Hill","state_name":"North Carolina","lat":34.84098,"lng":-79.56102,"zip":"28351","miles_from_dt":17.02},{"city":"Hamlet","state_name":"North Carolina","lat":34.87464,"lng":-79.6716,"zip":"28345","miles_from_dt":17.19},{"city":"Laurinburg","state_name":"North Carolina","lat":34.77702,"lng":-79.46508,"zip":"28353","miles_from_dt":17.39},{"city":"Laurinburg","state_name":"North Carolina","lat":34.76762,"lng":-79.45321,"zip":"28352","miles_from_dt":17.57},{"city":"Darlington","state_name":"South Carolina","lat":34.38903,"lng":-79.85028,"zip":"29540","miles_from_dt":18.25},{"city":"Patrick","state_name":"South Carolina","lat":34.5764,"lng":-80.05419,"zip":"29584","miles_from_dt":19.88},{"city":"McFarlan","state_name":"North Carolina","lat":34.81482,"lng":-79.97663,"zip":"28102","miles_from_dt":19.89},{"city":"Cordova","state_name":"North Carolina","lat":34.91077,"lng":-79.82332,"zip":"28330","miles_from_dt":20.56},{"city":"Rockingham","state_name":"North Carolina","lat":34.93073,"lng":-79.78252,"zip":"28379","miles_from_dt":21.31},{"city":"Rockingham","state_name":"North Carolina","lat":34.94305,"lng":-79.76084,"zip":"28380","miles_from_dt":21.95},{"city":"Latta","state_name":"South Carolina","lat":34.35841,"lng":-79.50457,"zip":"29565","miles_from_dt":21.96},{"city":"Maxton","state_name":"North Carolina","lat":34.71447,"lng":-79.32759,"zip":"28364","miles_from_dt":22.64},{"city":"Chesterfield","state_name":"South Carolina","lat":34.71882,"lng":-80.09752,"zip":"29709","miles_from_dt":22.9},{"city":"Morven","state_name":"North Carolina","lat":34.85112,"lng":-80.01492,"zip":"28119","miles_from_dt":23.18},{"city":"Hamer","state_name":"South Carolina","lat":34.48684,"lng":-79.33243,"zip":"29547","miles_from_dt":23.66},{"city":"Dillon","state_name":"South Carolina","lat":34.41911,"lng":-79.37241,"zip":"29536","miles_from_dt":24.06},{"city":"Marston","state_name":"North Carolina","lat":34.95772,"lng":-79.53384,"zip":"28363","miles_from_dt":24.9},{"city":"Darlington","state_name":"South Carolina","lat":34.28421,"lng":-79.85119,"zip":"29532","miles_from_dt":24.97},{"city":"Rowland","state_name":"North Carolina","lat":34.57553,"lng":-79.26856,"zip":"28383","miles_from_dt":25.46},{"city":"Hartsville","state_name":"South Carolina","lat":34.39309,"lng":-80.07595,"zip":"29550","miles_from_dt":26.35},{"city":"Wagram","state_name":"North Carolina","lat":34.93948,"lng":-79.40971,"zip":"28396","miles_from_dt":27.5},{"city":"Lilesville","state_name":"North Carolina","lat":34.98628,"lng":-79.93171,"zip":"28091","miles_from_dt":27.75},{"city":"Hartsville","state_name":"South Carolina","lat":34.36896,"lng":-80.08632,"zip":"29551","miles_from_dt":27.86},{"city":"Sellers","state_name":"South Carolina","lat":34.26941,"lng":-79.47704,"zip":"29592","miles_from_dt":28.05},{"city":"Ruby","state_name":"South Carolina","lat":34.72511,"lng":-80.20138,"zip":"29741","miles_from_dt":28.73},{"city":"Florence","state_name":"South Carolina","lat":34.2103,"lng":-79.64432,"zip":"29506","miles_from_dt":29},{"city":"Florence","state_name":"South Carolina","lat":34.20414,"lng":-79.82654,"zip":"29501","miles_from_dt":29.91}],"targetCityZipCode":"29512","targetCityState":"South Carolina"},"__N_SSG":true}