{"pageProps":{"stateName":"South-carolina","cityName":"bethune","nearbyCities":[{"city":"Cassatt","state_name":"South Carolina","lat":34.34002,"lng":-80.44374,"zip":"29032","miles_from_dt":7.95},{"city":"McBee","state_name":"South Carolina","lat":34.47798,"lng":-80.24038,"zip":"29101","miles_from_dt":8.18},{"city":"Kershaw","state_name":"South Carolina","lat":34.54976,"lng":-80.53268,"zip":"29067","miles_from_dt":11.65},{"city":"Jefferson","state_name":"South Carolina","lat":34.6291,"lng":-80.35469,"zip":"29718","miles_from_dt":13.03},{"city":"Westville","state_name":"South Carolina","lat":34.44266,"lng":-80.60666,"zip":"29175","miles_from_dt":13.15},{"city":"Camden","state_name":"South Carolina","lat":34.56,"lng":-80.58219,"zip":"29021","miles_from_dt":14.32},{"city":"Camden","state_name":"South Carolina","lat":34.31036,"lng":-80.59334,"zip":"29020","miles_from_dt":15.32},{"city":"Bishopville","state_name":"South Carolina","lat":34.21487,"lng":-80.26946,"zip":"29010","miles_from_dt":16.74},{"city":"Hartsville","state_name":"South Carolina","lat":34.36896,"lng":-80.08632,"zip":"29551","miles_from_dt":17.3},{"city":"Hartsville","state_name":"South Carolina","lat":34.39309,"lng":-80.07595,"zip":"29550","miles_from_dt":17.48},{"city":"Lydia","state_name":"South Carolina","lat":34.289,"lng":-80.11318,"zip":"29079","miles_from_dt":18.33},{"city":"Mount Croghan","state_name":"South Carolina","lat":34.71566,"lng":-80.2684,"zip":"29727","miles_from_dt":19.91},{"city":"Patrick","state_name":"South Carolina","lat":34.5764,"lng":-80.05419,"zip":"29584","miles_from_dt":20.62},{"city":"Ruby","state_name":"South Carolina","lat":34.72511,"lng":-80.20138,"zip":"29741","miles_from_dt":21.98},{"city":"Heath Springs","state_name":"South Carolina","lat":34.56297,"lng":-80.73473,"zip":"29058","miles_from_dt":22.11},{"city":"Pageland","state_name":"South Carolina","lat":34.76831,"lng":-80.40445,"zip":"29728","miles_from_dt":22.62},{"city":"Lamar","state_name":"South Carolina","lat":34.18798,"lng":-80.09654,"zip":"29069","miles_from_dt":23.67},{"city":"Chesterfield","state_name":"South Carolina","lat":34.71882,"lng":-80.09752,"zip":"29709","miles_from_dt":24.89},{"city":"Liberty Hill","state_name":"South Carolina","lat":34.4512,"lng":-80.8144,"zip":"29074","miles_from_dt":25.02},{"city":"Rembert","state_name":"South Carolina","lat":34.0963,"lng":-80.53268,"zip":"29128","miles_from_dt":25.38},{"city":"Lugoff","state_name":"South Carolina","lat":34.18162,"lng":-80.6994,"zip":"29078","miles_from_dt":25.71},{"city":"Elliott","state_name":"South Carolina","lat":34.11252,"lng":-80.16131,"zip":"29046","miles_from_dt":25.77},{"city":"Dalzell","state_name":"South Carolina","lat":34.06253,"lng":-80.43455,"zip":"29040","miles_from_dt":26.3},{"city":"Lancaster","state_name":"South Carolina","lat":34.7471,"lng":-80.71842,"zip":"29721","miles_from_dt":28.73},{"city":"Lancaster","state_name":"South Carolina","lat":34.74958,"lng":-80.72082,"zip":"29722","miles_from_dt":28.95},{"city":"Rock Hill","state_name":"South Carolina","lat":34.74958,"lng":-80.72082,"zip":"29731","miles_from_dt":28.95},{"city":"Rock Hill","state_name":"South Carolina","lat":34.74958,"lng":-80.72082,"zip":"29734","miles_from_dt":28.95},{"city":"Lancaster","state_name":"South Carolina","lat":34.74265,"lng":-80.73684,"zip":"29720","miles_from_dt":29.23}],"targetCityZipCode":"29009","targetCityState":"South Carolina"},"__N_SSG":true}