{"pageProps":{"stateName":"South-carolina","cityName":"buffalo","nearbyCities":[{"city":"Pauline","state_name":"South Carolina","lat":34.7861,"lng":-81.84854,"zip":"29374","miles_from_dt":7.62},{"city":"Union","state_name":"South Carolina","lat":34.68772,"lng":-81.60403,"zip":"29379","miles_from_dt":8.13},{"city":"Cross Anchor","state_name":"South Carolina","lat":34.64351,"lng":-81.85836,"zip":"29331","miles_from_dt":8.48},{"city":"Jonesville","state_name":"South Carolina","lat":34.83064,"lng":-81.65636,"zip":"29353","miles_from_dt":9.05},{"city":"Jonesville","state_name":"South Carolina","lat":34.8546,"lng":-81.74021,"zip":"29395","miles_from_dt":9.3},{"city":"Enoree","state_name":"South Carolina","lat":34.65714,"lng":-81.90035,"zip":"29335","miles_from_dt":10.02},{"city":"White Stone","state_name":"South Carolina","lat":34.88336,"lng":-81.80693,"zip":"29386","miles_from_dt":11.88},{"city":"Pacolet","state_name":"South Carolina","lat":34.9059,"lng":-81.70878,"zip":"29372","miles_from_dt":12.97},{"city":"Spartanburg","state_name":"South Carolina","lat":34.89399,"lng":-81.84151,"zip":"29302","miles_from_dt":13.29},{"city":"Roebuck","state_name":"South Carolina","lat":34.81564,"lng":-81.94921,"zip":"29376","miles_from_dt":13.54},{"city":"Pacolet Mills","state_name":"South Carolina","lat":34.92442,"lng":-81.74276,"zip":"29373","miles_from_dt":14.11},{"city":"Spartanburg","state_name":"South Carolina","lat":34.89338,"lng":-81.92177,"zip":"29306","miles_from_dt":15.76},{"city":"Glendale","state_name":"South Carolina","lat":34.94524,"lng":-81.83627,"zip":"29346","miles_from_dt":16.45},{"city":"Lockhart","state_name":"South Carolina","lat":34.78846,"lng":-81.46202,"zip":"29364","miles_from_dt":16.59},{"city":"Whitmire","state_name":"South Carolina","lat":34.4992,"lng":-81.5961,"zip":"29178","miles_from_dt":17.31},{"city":"Woodruff","state_name":"South Carolina","lat":34.76292,"lng":-82.04299,"zip":"29388","miles_from_dt":17.41},{"city":"Clinton","state_name":"South Carolina","lat":34.47682,"lng":-81.83973,"zip":"29325","miles_from_dt":17.66},{"city":"Moore","state_name":"South Carolina","lat":34.86535,"lng":-82.02207,"zip":"29369","miles_from_dt":18.85},{"city":"Spartanburg","state_name":"South Carolina","lat":34.94718,"lng":-81.92678,"zip":"29319","miles_from_dt":18.89},{"city":"Spartanburg","state_name":"South Carolina","lat":34.95809,"lng":-81.90577,"zip":"29304","miles_from_dt":18.9},{"city":"Spartanburg","state_name":"South Carolina","lat":34.98381,"lng":-81.83146,"zip":"29307","miles_from_dt":18.91},{"city":"Gaffney","state_name":"South Carolina","lat":34.98563,"lng":-81.65913,"zip":"29342","miles_from_dt":18.92},{"city":"Clifton","state_name":"South Carolina","lat":34.98944,"lng":-81.82523,"zip":"29324","miles_from_dt":19.19},{"city":"Carlisle","state_name":"South Carolina","lat":34.60624,"lng":-81.42665,"zip":"29031","miles_from_dt":19.57},{"city":"Converse","state_name":"South Carolina","lat":34.99262,"lng":-81.83682,"zip":"29329","miles_from_dt":19.57},{"city":"Drayton","state_name":"South Carolina","lat":34.97092,"lng":-81.91069,"zip":"29333","miles_from_dt":19.8},{"city":"Gaffney","state_name":"South Carolina","lat":34.98225,"lng":-81.59427,"zip":"29340","miles_from_dt":19.94},{"city":"Joanna","state_name":"South Carolina","lat":34.42177,"lng":-81.80967,"zip":"29351","miles_from_dt":20.9},{"city":"Una","state_name":"South Carolina","lat":34.96684,"lng":-81.96857,"zip":"29378","miles_from_dt":21.37},{"city":"Spartanburg","state_name":"South Carolina","lat":34.93516,"lng":-82.01301,"zip":"29301","miles_from_dt":21.42},{"city":"Arcadia","state_name":"South Carolina","lat":34.95847,"lng":-81.9922,"zip":"29320","miles_from_dt":21.77},{"city":"Spartanburg","state_name":"South Carolina","lat":34.98926,"lng":-81.95461,"zip":"29305","miles_from_dt":22.18},{"city":"Fairforest","state_name":"South Carolina","lat":34.95037,"lng":-82.01495,"zip":"29336","miles_from_dt":22.23},{"city":"Spartanburg","state_name":"South Carolina","lat":34.99424,"lng":-81.96883,"zip":"29303","miles_from_dt":22.91},{"city":"Sharon","state_name":"South Carolina","lat":34.86939,"lng":-81.38155,"zip":"29742","miles_from_dt":22.92},{"city":"Hickory Grove","state_name":"South Carolina","lat":34.95119,"lng":-81.44304,"zip":"29717","miles_from_dt":23.29},{"city":"Cowpens","state_name":"South Carolina","lat":35.05362,"lng":-81.80463,"zip":"29330","miles_from_dt":23.29},{"city":"Reidville","state_name":"South Carolina","lat":34.86049,"lng":-82.11386,"zip":"29375","miles_from_dt":23.29},{"city":"Gray Court","state_name":"South Carolina","lat":34.59453,"lng":-82.12375,"zip":"29645","miles_from_dt":23.42},{"city":"Laurens","state_name":"South Carolina","lat":34.49361,"lng":-82.04884,"zip":"29360","miles_from_dt":23.45},{"city":"Kinards","state_name":"South Carolina","lat":34.37012,"lng":-81.75894,"zip":"29355","miles_from_dt":24.12},{"city":"Startex","state_name":"South Carolina","lat":34.93036,"lng":-82.0971,"zip":"29377","miles_from_dt":24.89},{"city":"Duncan","state_name":"South Carolina","lat":34.90372,"lng":-82.12526,"zip":"29334","miles_from_dt":25.24},{"city":"Boiling Springs","state_name":"South Carolina","lat":35.04179,"lng":-81.9766,"zip":"29316","miles_from_dt":25.91},{"city":"Mayo","state_name":"South Carolina","lat":35.08262,"lng":-81.86281,"zip":"29368","miles_from_dt":25.95},{"city":"Fountain Inn","state_name":"South Carolina","lat":34.66864,"lng":-82.19714,"zip":"29644","miles_from_dt":26.18},{"city":"Wellford","state_name":"South Carolina","lat":34.97623,"lng":-82.1024,"zip":"29385","miles_from_dt":27.08},{"city":"Mountville","state_name":"South Carolina","lat":34.37315,"lng":-81.96816,"zip":"29370","miles_from_dt":27.16},{"city":"Gaffney","state_name":"South Carolina","lat":35.1184,"lng":-81.71321,"zip":"29341","miles_from_dt":27.53},{"city":"Simpsonville","state_name":"South Carolina","lat":34.76988,"lng":-82.22218,"zip":"29681","miles_from_dt":27.57},{"city":"Smyrna","state_name":"South Carolina","lat":35.02865,"lng":-81.40772,"zip":"29743","miles_from_dt":28.51},{"city":"Chester","state_name":"South Carolina","lat":34.71773,"lng":-81.23055,"zip":"29706","miles_from_dt":29.08},{"city":"Chesnee","state_name":"South Carolina","lat":35.12911,"lng":-81.90902,"zip":"29323","miles_from_dt":29.78},{"city":"Newberry","state_name":"South Carolina","lat":34.29805,"lng":-81.62433,"zip":"29108","miles_from_dt":29.83},{"city":"Blair","state_name":"South Carolina","lat":34.4412,"lng":-81.33807,"zip":"29015","miles_from_dt":29.96}],"targetCityZipCode":"29321","targetCityState":"South Carolina"},"__N_SSG":true}