{"pageProps":{"stateName":"South-carolina","cityName":"cassatt","nearbyCities":[{"city":"Bethune","state_name":"South Carolina","lat":34.44097,"lng":-80.37642,"zip":"29009","miles_from_dt":7.95},{"city":"Camden","state_name":"South Carolina","lat":34.31036,"lng":-80.59334,"zip":"29020","miles_from_dt":8.8},{"city":"Westville","state_name":"South Carolina","lat":34.44266,"lng":-80.60666,"zip":"29175","miles_from_dt":11.69},{"city":"Bishopville","state_name":"South Carolina","lat":34.21487,"lng":-80.26946,"zip":"29010","miles_from_dt":13.19},{"city":"McBee","state_name":"South Carolina","lat":34.47798,"lng":-80.24038,"zip":"29101","miles_from_dt":15.01},{"city":"Kershaw","state_name":"South Carolina","lat":34.54976,"lng":-80.53268,"zip":"29067","miles_from_dt":15.32},{"city":"Camden","state_name":"South Carolina","lat":34.56,"lng":-80.58219,"zip":"29021","miles_from_dt":17.1},{"city":"Rembert","state_name":"South Carolina","lat":34.0963,"lng":-80.53268,"zip":"29128","miles_from_dt":17.55},{"city":"Lugoff","state_name":"South Carolina","lat":34.18162,"lng":-80.6994,"zip":"29078","miles_from_dt":18.26},{"city":"Dalzell","state_name":"South Carolina","lat":34.06253,"lng":-80.43455,"zip":"29040","miles_from_dt":19.13},{"city":"Lydia","state_name":"South Carolina","lat":34.289,"lng":-80.11318,"zip":"29079","miles_from_dt":19.23},{"city":"Hartsville","state_name":"South Carolina","lat":34.36896,"lng":-80.08632,"zip":"29551","miles_from_dt":20.53},{"city":"Jefferson","state_name":"South Carolina","lat":34.6291,"lng":-80.35469,"zip":"29718","miles_from_dt":20.56},{"city":"Hartsville","state_name":"South Carolina","lat":34.39309,"lng":-80.07595,"zip":"29550","miles_from_dt":21.34},{"city":"Lamar","state_name":"South Carolina","lat":34.18798,"lng":-80.09654,"zip":"29069","miles_from_dt":22.46},{"city":"Liberty Hill","state_name":"South Carolina","lat":34.4512,"lng":-80.8144,"zip":"29074","miles_from_dt":22.52},{"city":"Elliott","state_name":"South Carolina","lat":34.11252,"lng":-80.16131,"zip":"29046","miles_from_dt":22.52},{"city":"Heath Springs","state_name":"South Carolina","lat":34.56297,"lng":-80.73473,"zip":"29058","miles_from_dt":22.63},{"city":"Elgin","state_name":"South Carolina","lat":34.18389,"lng":-80.8141,"zip":"29045","miles_from_dt":23.77},{"city":"Shaw Afb","state_name":"South Carolina","lat":33.97517,"lng":-80.47019,"zip":"29152","miles_from_dt":25.19},{"city":"Horatio","state_name":"South Carolina","lat":33.99818,"lng":-80.60785,"zip":"29062","miles_from_dt":25.37},{"city":"Ridgeway","state_name":"South Carolina","lat":34.32757,"lng":-80.89205,"zip":"29130","miles_from_dt":25.65},{"city":"Sumter","state_name":"South Carolina","lat":33.96515,"lng":-80.30675,"zip":"29153","miles_from_dt":27},{"city":"Mayesville","state_name":"South Carolina","lat":33.99524,"lng":-80.21373,"zip":"29104","miles_from_dt":27.17},{"city":"Patrick","state_name":"South Carolina","lat":34.5764,"lng":-80.05419,"zip":"29584","miles_from_dt":27.57},{"city":"Mount Croghan","state_name":"South Carolina","lat":34.71566,"lng":-80.2684,"zip":"29727","miles_from_dt":27.76},{"city":"Columbia","state_name":"South Carolina","lat":34.14697,"lng":-80.89316,"zip":"29229","miles_from_dt":28.96},{"city":"Pageland","state_name":"South Carolina","lat":34.76831,"lng":-80.40445,"zip":"29728","miles_from_dt":29.61},{"city":"Ruby","state_name":"South Carolina","lat":34.72511,"lng":-80.20138,"zip":"29741","miles_from_dt":29.93},{"city":"Columbia","state_name":"South Carolina","lat":34.05799,"lng":-80.84161,"zip":"29224","miles_from_dt":29.95}],"targetCityZipCode":"29032","targetCityState":"South Carolina"},"__N_SSG":true}