{"pageProps":{"stateName":"South-carolina","cityName":"cowpens","nearbyCities":[{"city":"Mayo","state_name":"South Carolina","lat":35.08262,"lng":-81.86281,"zip":"29368","miles_from_dt":3.86},{"city":"Clifton","state_name":"South Carolina","lat":34.98944,"lng":-81.82523,"zip":"29324","miles_from_dt":4.58},{"city":"Converse","state_name":"South Carolina","lat":34.99262,"lng":-81.83682,"zip":"29329","miles_from_dt":4.58},{"city":"Spartanburg","state_name":"South Carolina","lat":34.98381,"lng":-81.83146,"zip":"29307","miles_from_dt":5.05},{"city":"Gaffney","state_name":"South Carolina","lat":35.1184,"lng":-81.71321,"zip":"29341","miles_from_dt":6.84},{"city":"Glendale","state_name":"South Carolina","lat":34.94524,"lng":-81.83627,"zip":"29346","miles_from_dt":7.68},{"city":"Chesnee","state_name":"South Carolina","lat":35.12911,"lng":-81.90902,"zip":"29323","miles_from_dt":7.88},{"city":"Drayton","state_name":"South Carolina","lat":34.97092,"lng":-81.91069,"zip":"29333","miles_from_dt":8.29},{"city":"Spartanburg","state_name":"South Carolina","lat":34.95809,"lng":-81.90577,"zip":"29304","miles_from_dt":8.73},{"city":"Gaffney","state_name":"South Carolina","lat":34.98563,"lng":-81.65913,"zip":"29342","miles_from_dt":9.49},{"city":"Pacolet Mills","state_name":"South Carolina","lat":34.92442,"lng":-81.74276,"zip":"29373","miles_from_dt":9.57},{"city":"Spartanburg","state_name":"South Carolina","lat":34.98926,"lng":-81.95461,"zip":"29305","miles_from_dt":9.59},{"city":"Boiling Springs","state_name":"South Carolina","lat":35.04179,"lng":-81.9766,"zip":"29316","miles_from_dt":9.78},{"city":"Spartanburg","state_name":"South Carolina","lat":34.94718,"lng":-81.92678,"zip":"29319","miles_from_dt":10.09},{"city":"Spartanburg","state_name":"South Carolina","lat":34.99424,"lng":-81.96883,"zip":"29303","miles_from_dt":10.17},{"city":"Una","state_name":"South Carolina","lat":34.96684,"lng":-81.96857,"zip":"29378","miles_from_dt":11.06},{"city":"Spartanburg","state_name":"South Carolina","lat":34.89399,"lng":-81.84151,"zip":"29302","miles_from_dt":11.2},{"city":"Pacolet","state_name":"South Carolina","lat":34.9059,"lng":-81.70878,"zip":"29372","miles_from_dt":11.54},{"city":"White Stone","state_name":"South Carolina","lat":34.88336,"lng":-81.80693,"zip":"29386","miles_from_dt":11.74},{"city":"Fingerville","state_name":"South Carolina","lat":35.13444,"lng":-82.00172,"zip":"29338","miles_from_dt":12.48},{"city":"Arcadia","state_name":"South Carolina","lat":34.95847,"lng":-81.9922,"zip":"29320","miles_from_dt":12.5},{"city":"Mooresboro","state_name":"North Carolina","lat":35.23,"lng":-81.74814,"zip":"28114","miles_from_dt":12.57},{"city":"Spartanburg","state_name":"South Carolina","lat":34.89338,"lng":-81.92177,"zip":"29306","miles_from_dt":12.89},{"city":"Gaffney","state_name":"South Carolina","lat":34.98225,"lng":-81.59427,"zip":"29340","miles_from_dt":12.9},{"city":"Cliffside","state_name":"North Carolina","lat":35.24347,"lng":-81.77066,"zip":"28024","miles_from_dt":13.23},{"city":"Harris","state_name":"North Carolina","lat":35.23933,"lng":-81.8783,"zip":"28074","miles_from_dt":13.46},{"city":"Fairforest","state_name":"South Carolina","lat":34.95037,"lng":-82.01495,"zip":"29336","miles_from_dt":13.89},{"city":"Henrietta","state_name":"North Carolina","lat":35.25904,"lng":-81.79074,"zip":"28076","miles_from_dt":14.18},{"city":"Jonesville","state_name":"South Carolina","lat":34.8546,"lng":-81.74021,"zip":"29395","miles_from_dt":14.2},{"city":"Spartanburg","state_name":"South Carolina","lat":34.93516,"lng":-82.01301,"zip":"29301","miles_from_dt":14.37},{"city":"Inman","state_name":"South Carolina","lat":35.07045,"lng":-82.0688,"zip":"29349","miles_from_dt":15.02},{"city":"Boiling Springs","state_name":"North Carolina","lat":35.24708,"lng":-81.67059,"zip":"28017","miles_from_dt":15.34},{"city":"Caroleen","state_name":"North Carolina","lat":35.28395,"lng":-81.79396,"zip":"28019","miles_from_dt":15.89},{"city":"Jonesville","state_name":"South Carolina","lat":34.83064,"lng":-81.65636,"zip":"29353","miles_from_dt":17.52},{"city":"Shelby","state_name":"North Carolina","lat":35.24188,"lng":-81.59289,"zip":"28152","miles_from_dt":17.67},{"city":"Wellford","state_name":"South Carolina","lat":34.97623,"lng":-82.1024,"zip":"29385","miles_from_dt":17.71},{"city":"Earl","state_name":"North Carolina","lat":35.19966,"lng":-81.54335,"zip":"28038","miles_from_dt":17.9},{"city":"Moore","state_name":"South Carolina","lat":34.86535,"lng":-82.02207,"zip":"29369","miles_from_dt":17.91},{"city":"Forest City","state_name":"North Carolina","lat":35.31301,"lng":-81.86971,"zip":"28043","miles_from_dt":18.26},{"city":"Roebuck","state_name":"South Carolina","lat":34.81564,"lng":-81.94921,"zip":"29376","miles_from_dt":18.34},{"city":"Gramling","state_name":"South Carolina","lat":35.08222,"lng":-82.12646,"zip":"29348","miles_from_dt":18.35},{"city":"Pauline","state_name":"South Carolina","lat":34.7861,"lng":-81.84854,"zip":"29374","miles_from_dt":18.61},{"city":"Startex","state_name":"South Carolina","lat":34.93036,"lng":-82.0971,"zip":"29377","miles_from_dt":18.64},{"city":"Blacksburg","state_name":"South Carolina","lat":35.11674,"lng":-81.47884,"zip":"29702","miles_from_dt":18.97},{"city":"Campobello","state_name":"South Carolina","lat":35.12254,"lng":-82.13157,"zip":"29322","miles_from_dt":19.12},{"city":"Lattimore","state_name":"North Carolina","lat":35.3202,"lng":-81.66067,"zip":"28089","miles_from_dt":20.1},{"city":"Grover","state_name":"North Carolina","lat":35.19776,"lng":-81.48126,"zip":"28073","miles_from_dt":20.84},{"city":"Duncan","state_name":"South Carolina","lat":34.90372,"lng":-82.12526,"zip":"29334","miles_from_dt":20.92},{"city":"Lyman","state_name":"South Carolina","lat":34.98079,"lng":-82.16869,"zip":"29365","miles_from_dt":21.25},{"city":"Hickory Grove","state_name":"South Carolina","lat":34.95119,"lng":-81.44304,"zip":"29717","miles_from_dt":21.69},{"city":"Shelby","state_name":"North Carolina","lat":35.28834,"lng":-81.54386,"zip":"28151","miles_from_dt":21.9},{"city":"Reidville","state_name":"South Carolina","lat":34.86049,"lng":-82.11386,"zip":"29375","miles_from_dt":22.03},{"city":"Columbus","state_name":"North Carolina","lat":35.23408,"lng":-82.12794,"zip":"28722","miles_from_dt":22.13},{"city":"Spindale","state_name":"North Carolina","lat":35.36064,"lng":-81.92234,"zip":"28160","miles_from_dt":22.19},{"city":"Smyrna","state_name":"South Carolina","lat":35.02865,"lng":-81.40772,"zip":"29743","miles_from_dt":22.57},{"city":"Rutherfordton","state_name":"North Carolina","lat":35.34736,"lng":-81.99702,"zip":"28139","miles_from_dt":22.99},{"city":"Ellenboro","state_name":"North Carolina","lat":35.38738,"lng":-81.74762,"zip":"28040","miles_from_dt":23.23},{"city":"Buffalo","state_name":"South Carolina","lat":34.71975,"lng":-81.74151,"zip":"29321","miles_from_dt":23.29},{"city":"Tryon","state_name":"North Carolina","lat":35.23569,"lng":-82.1519,"zip":"28782","miles_from_dt":23.33},{"city":"Greer","state_name":"South Carolina","lat":34.93786,"lng":-82.20294,"zip":"29652","miles_from_dt":23.96},{"city":"Shelby","state_name":"North Carolina","lat":35.34712,"lng":-81.57502,"zip":"28150","miles_from_dt":24.05},{"city":"Woodruff","state_name":"South Carolina","lat":34.76292,"lng":-82.04299,"zip":"29388","miles_from_dt":24.18},{"city":"Greer","state_name":"South Carolina","lat":34.94653,"lng":-82.22649,"zip":"29651","miles_from_dt":25.04},{"city":"Lynn","state_name":"North Carolina","lat":35.22687,"lng":-82.2228,"zip":"28750","miles_from_dt":26.52},{"city":"Landrum","state_name":"South Carolina","lat":35.14411,"lng":-82.26187,"zip":"29356","miles_from_dt":26.65},{"city":"Lockhart","state_name":"South Carolina","lat":34.78846,"lng":-81.46202,"zip":"29364","miles_from_dt":26.69},{"city":"Polkville","state_name":"North Carolina","lat":35.4206,"lng":-81.64241,"zip":"28136","miles_from_dt":26.91},{"city":"Sharon","state_name":"South Carolina","lat":34.86939,"lng":-81.38155,"zip":"29742","miles_from_dt":27.16},{"city":"Union","state_name":"South Carolina","lat":34.68772,"lng":-81.60403,"zip":"29379","miles_from_dt":27.68},{"city":"Kings Mountain","state_name":"North Carolina","lat":35.24381,"lng":-81.37028,"zip":"28086","miles_from_dt":27.87},{"city":"Enoree","state_name":"South Carolina","lat":34.65714,"lng":-81.90035,"zip":"29335","miles_from_dt":27.87},{"city":"Greer","state_name":"South Carolina","lat":34.89805,"lng":-82.25826,"zip":"29650","miles_from_dt":27.88},{"city":"Cross Anchor","state_name":"South Carolina","lat":34.64351,"lng":-81.85836,"zip":"29331","miles_from_dt":28.43},{"city":"Mill Spring","state_name":"North Carolina","lat":35.34256,"lng":-82.18219,"zip":"28756","miles_from_dt":29.21},{"city":"Bostic","state_name":"North Carolina","lat":35.48458,"lng":-81.79393,"zip":"28018","miles_from_dt":29.72},{"city":"Waco","state_name":"North Carolina","lat":35.36036,"lng":-81.42935,"zip":"28169","miles_from_dt":29.97}],"targetCityZipCode":"29330","targetCityState":"South Carolina"},"__N_SSG":true}