{"pageProps":{"stateName":"South-carolina","cityName":"eutawville","nearbyCities":[{"city":"Holly Hill","state_name":"South Carolina","lat":33.32853,"lng":-80.41891,"zip":"29059","miles_from_dt":8.24},{"city":"Cross","state_name":"South Carolina","lat":33.31658,"lng":-80.18457,"zip":"29436","miles_from_dt":8.26},{"city":"Vance","state_name":"South Carolina","lat":33.42019,"lng":-80.43918,"zip":"29163","miles_from_dt":8.47},{"city":"Summerton","state_name":"South Carolina","lat":33.53731,"lng":-80.34386,"zip":"29148","miles_from_dt":10.47},{"city":"Pineville","state_name":"South Carolina","lat":33.42624,"lng":-80.06856,"zip":"29468","miles_from_dt":13.43},{"city":"Harleyville","state_name":"South Carolina","lat":33.24062,"lng":-80.44639,"zip":"29448","miles_from_dt":13.47},{"city":"Pinopolis","state_name":"South Carolina","lat":33.24366,"lng":-80.13106,"zip":"29469","miles_from_dt":13.95},{"city":"Santee","state_name":"South Carolina","lat":33.46491,"lng":-80.52329,"zip":"29142","miles_from_dt":14.04},{"city":"Davis Station","state_name":"South Carolina","lat":33.60173,"lng":-80.26475,"zip":"29041","miles_from_dt":14.67},{"city":"Manning","state_name":"South Carolina","lat":33.6437,"lng":-80.19225,"zip":"29102","miles_from_dt":18.46},{"city":"Russellville","state_name":"South Carolina","lat":33.39796,"lng":-79.97478,"zip":"29476","miles_from_dt":18.64},{"city":"Dorchester","state_name":"South Carolina","lat":33.13673,"lng":-80.42319,"zip":"29437","miles_from_dt":18.96},{"city":"Elloree","state_name":"South Carolina","lat":33.53218,"lng":-80.57956,"zip":"29047","miles_from_dt":19.02},{"city":"Bowman","state_name":"South Carolina","lat":33.34619,"lng":-80.64373,"zip":"29018","miles_from_dt":20.28},{"city":"Summerville","state_name":"South Carolina","lat":33.10744,"lng":-80.1458,"zip":"29486","miles_from_dt":21.39},{"city":"Saint George","state_name":"South Carolina","lat":33.16626,"lng":-80.57176,"zip":"29477","miles_from_dt":22.18},{"city":"Moncks Corner","state_name":"South Carolina","lat":33.17009,"lng":-80.00773,"zip":"29461","miles_from_dt":22.61},{"city":"Greeleyville","state_name":"South Carolina","lat":33.60798,"lng":-79.99473,"zip":"29056","miles_from_dt":23},{"city":"Saint Stephen","state_name":"South Carolina","lat":33.3808,"lng":-79.89499,"zip":"29479","miles_from_dt":23.25},{"city":"Ridgeville","state_name":"South Carolina","lat":33.05379,"lng":-80.31928,"zip":"29472","miles_from_dt":23.25},{"city":"Pinewood","state_name":"South Carolina","lat":33.70165,"lng":-80.47434,"zip":"29125","miles_from_dt":23.76},{"city":"Cameron","state_name":"South Carolina","lat":33.57917,"lng":-80.65441,"zip":"29030","miles_from_dt":24.39},{"city":"Summerville","state_name":"South Carolina","lat":33.03126,"lng":-80.23205,"zip":"29483","miles_from_dt":25.05},{"city":"Bonneau","state_name":"South Carolina","lat":33.27708,"lng":-79.87711,"zip":"29431","miles_from_dt":25.52},{"city":"Reevesville","state_name":"South Carolina","lat":33.18714,"lng":-80.66955,"zip":"29471","miles_from_dt":25.72},{"city":"Grover","state_name":"South Carolina","lat":33.10771,"lng":-80.59292,"zip":"29447","miles_from_dt":25.95},{"city":"Lane","state_name":"South Carolina","lat":33.47686,"lng":-79.85522,"zip":"29564","miles_from_dt":26.21},{"city":"Summerville","state_name":"South Carolina","lat":33.01644,"lng":-80.20376,"zip":"29484","miles_from_dt":26.34},{"city":"Alcolu","state_name":"South Carolina","lat":33.78528,"lng":-80.17338,"zip":"29001","miles_from_dt":28.12},{"city":"Salters","state_name":"South Carolina","lat":33.55892,"lng":-79.84784,"zip":"29590","miles_from_dt":28.42},{"city":"North Charleston","state_name":"South Carolina","lat":33.0275,"lng":-80.04617,"zip":"29415","miles_from_dt":28.94},{"city":"Rowesville","state_name":"South Carolina","lat":33.35726,"lng":-80.80698,"zip":"29133","miles_from_dt":29.58},{"city":"Canadys","state_name":"South Carolina","lat":33.05468,"lng":-80.62073,"zip":"29433","miles_from_dt":29.79},{"city":"Ladson","state_name":"South Carolina","lat":32.98433,"lng":-80.11206,"zip":"29456","miles_from_dt":29.98}],"targetCityZipCode":"29048","targetCityState":"South Carolina"},"__N_SSG":true}