{"pageProps":{"stateName":"South-carolina","cityName":"hemingway","nearbyCities":[{"city":"Nesmith","state_name":"South Carolina","lat":33.65827,"lng":-79.56164,"zip":"29580","miles_from_dt":10.38},{"city":"Johnsonville","state_name":"South Carolina","lat":33.83864,"lng":-79.46191,"zip":"29555","miles_from_dt":10.53},{"city":"Gresham","state_name":"South Carolina","lat":33.89001,"lng":-79.35151,"zip":"29546","miles_from_dt":13.35},{"city":"Conway","state_name":"South Carolina","lat":33.78271,"lng":-79.14715,"zip":"29527","miles_from_dt":15.03},{"city":"Pawleys Island","state_name":"South Carolina","lat":33.50537,"lng":-79.13557,"zip":"29585","miles_from_dt":19.75},{"city":"Myrtle Beach","state_name":"South Carolina","lat":33.67112,"lng":-79.02574,"zip":"29588","miles_from_dt":20.97},{"city":"Conway","state_name":"South Carolina","lat":33.84017,"lng":-79.06079,"zip":"29528","miles_from_dt":21.21},{"city":"Andrews","state_name":"South Carolina","lat":33.45326,"lng":-79.61068,"zip":"29510","miles_from_dt":21.24},{"city":"Murrells Inlet","state_name":"South Carolina","lat":33.56952,"lng":-79.05076,"zip":"29576","miles_from_dt":21.39},{"city":"Pamplico","state_name":"South Carolina","lat":33.9724,"lng":-79.57045,"zip":"29583","miles_from_dt":21.58},{"city":"Kingstree","state_name":"South Carolina","lat":33.66849,"lng":-79.76403,"zip":"29556","miles_from_dt":21.76},{"city":"Centenary","state_name":"South Carolina","lat":34.01622,"lng":-79.36048,"zip":"29519","miles_from_dt":21.94},{"city":"Georgetown","state_name":"South Carolina","lat":33.38229,"lng":-79.32908,"zip":"29440","miles_from_dt":22.08},{"city":"Georgetown","state_name":"South Carolina","lat":33.38379,"lng":-79.28696,"zip":"29442","miles_from_dt":22.48},{"city":"Lake City","state_name":"South Carolina","lat":33.83535,"lng":-79.74747,"zip":"29560","miles_from_dt":22.72},{"city":"Galivants Ferry","state_name":"South Carolina","lat":34.00067,"lng":-79.21083,"zip":"29544","miles_from_dt":23.17},{"city":"Myrtle Beach","state_name":"South Carolina","lat":33.61787,"lng":-78.98793,"zip":"29587","miles_from_dt":23.73},{"city":"Myrtle Beach","state_name":"South Carolina","lat":33.628,"lng":-78.97369,"zip":"29575","miles_from_dt":24.38},{"city":"Aynor","state_name":"South Carolina","lat":33.97519,"lng":-79.11043,"zip":"29511","miles_from_dt":24.86},{"city":"Conway","state_name":"South Carolina","lat":33.86696,"lng":-78.9718,"zip":"29526","miles_from_dt":26.62},{"city":"Scranton","state_name":"South Carolina","lat":33.93894,"lng":-79.759,"zip":"29591","miles_from_dt":27},{"city":"Cades","state_name":"South Carolina","lat":33.7892,"lng":-79.84851,"zip":"29518","miles_from_dt":27.23},{"city":"Myrtle Beach","state_name":"South Carolina","lat":33.76052,"lng":-78.91463,"zip":"29579","miles_from_dt":27.6},{"city":"Myrtle Beach","state_name":"South Carolina","lat":33.69711,"lng":-78.90495,"zip":"29577","miles_from_dt":27.84},{"city":"Rains","state_name":"South Carolina","lat":34.10037,"lng":-79.32015,"zip":"29589","miles_from_dt":27.95},{"city":"Salters","state_name":"South Carolina","lat":33.55892,"lng":-79.84784,"zip":"29590","miles_from_dt":28.2},{"city":"Coward","state_name":"South Carolina","lat":33.98984,"lng":-79.74222,"zip":"29530","miles_from_dt":28.58}],"targetCityZipCode":"29554","targetCityState":"South Carolina"},"__N_SSG":true}