{"pageProps":{"stateName":"South-carolina","cityName":"johns-island","nearbyCities":[{"city":"Johns Island","state_name":"South Carolina","lat":32.74506,"lng":-80.03271,"zip":"29457","miles_from_dt":5.13},{"city":"Wadmalaw Island","state_name":"South Carolina","lat":32.65691,"lng":-80.18476,"zip":"29487","miles_from_dt":6.09},{"city":"Charleston","state_name":"South Carolina","lat":32.7868,"lng":-80.03262,"zip":"29417","miles_from_dt":7.62},{"city":"Charleston","state_name":"South Carolina","lat":32.68124,"lng":-79.95364,"zip":"29422","miles_from_dt":7.72},{"city":"Charleston","state_name":"South Carolina","lat":32.70979,"lng":-79.95115,"zip":"29412","miles_from_dt":8.03},{"city":"Folly Beach","state_name":"South Carolina","lat":32.66636,"lng":-79.92902,"zip":"29439","miles_from_dt":9.25},{"city":"Charleston","state_name":"South Carolina","lat":32.79912,"lng":-79.99872,"zip":"29407","miles_from_dt":9.32},{"city":"Charleston","state_name":"South Carolina","lat":32.78516,"lng":-79.94828,"zip":"29425","miles_from_dt":10.55},{"city":"Charleston","state_name":"South Carolina","lat":32.79662,"lng":-79.96072,"zip":"29409","miles_from_dt":10.56},{"city":"Charleston","state_name":"South Carolina","lat":32.77868,"lng":-79.9354,"zip":"29401","miles_from_dt":10.86},{"city":"Charleston","state_name":"South Carolina","lat":32.77446,"lng":-79.93066,"zip":"29402","miles_from_dt":10.92},{"city":"Charleston","state_name":"South Carolina","lat":32.78494,"lng":-79.93778,"zip":"29424","miles_from_dt":11.01},{"city":"Charleston","state_name":"South Carolina","lat":32.84479,"lng":-80.10756,"zip":"29414","miles_from_dt":11.03},{"city":"Hollywood","state_name":"South Carolina","lat":32.70183,"lng":-80.28038,"zip":"29449","miles_from_dt":11.38},{"city":"Charleston","state_name":"South Carolina","lat":32.80347,"lng":-79.94561,"zip":"29403","miles_from_dt":11.52},{"city":"Charleston","state_name":"South Carolina","lat":32.79363,"lng":-79.92951,"zip":"29413","miles_from_dt":11.76},{"city":"Charleston","state_name":"South Carolina","lat":32.8456,"lng":-79.97775,"zip":"29423","miles_from_dt":12.69},{"city":"Ravenel","state_name":"South Carolina","lat":32.81904,"lng":-80.23855,"zip":"29470","miles_from_dt":12.77},{"city":"North Charleston","state_name":"South Carolina","lat":32.85207,"lng":-79.97903,"zip":"29405","miles_from_dt":13.04},{"city":"Charleston","state_name":"South Carolina","lat":32.87767,"lng":-80.05486,"zip":"29416","miles_from_dt":13.35},{"city":"North Charleston","state_name":"South Carolina","lat":32.88896,"lng":-80.0644,"zip":"29418","miles_from_dt":14.06},{"city":"Charleston Afb","state_name":"South Carolina","lat":32.89783,"lng":-80.05246,"zip":"29404","miles_from_dt":14.74},{"city":"Mount Pleasant","state_name":"South Carolina","lat":32.79433,"lng":-79.86081,"zip":"29465","miles_from_dt":15.1},{"city":"Sullivans Island","state_name":"South Carolina","lat":32.76845,"lng":-79.83556,"zip":"29482","miles_from_dt":15.66},{"city":"Edisto Island","state_name":"South Carolina","lat":32.5722,"lng":-80.31893,"zip":"29438","miles_from_dt":15.68},{"city":"Mount Pleasant","state_name":"South Carolina","lat":32.82082,"lng":-79.85583,"zip":"29464","miles_from_dt":16.32},{"city":"North Charleston","state_name":"South Carolina","lat":32.93202,"lng":-80.09938,"zip":"29420","miles_from_dt":16.98},{"city":"North Charleston","state_name":"South Carolina","lat":32.93605,"lng":-80.10009,"zip":"29419","miles_from_dt":17.26},{"city":"Charleston","state_name":"South Carolina","lat":32.93417,"lng":-80.03083,"zip":"29406","miles_from_dt":17.41},{"city":"Hanahan","state_name":"South Carolina","lat":32.93258,"lng":-80.0056,"zip":"29410","miles_from_dt":17.64},{"city":"Adams Run","state_name":"South Carolina","lat":32.79275,"lng":-80.37023,"zip":"29426","miles_from_dt":18.12},{"city":"Summerville","state_name":"South Carolina","lat":32.94398,"lng":-80.19362,"zip":"29485","miles_from_dt":18.86},{"city":"Charleston","state_name":"South Carolina","lat":32.91657,"lng":-79.87818,"zip":"29492","miles_from_dt":19.98},{"city":"Ladson","state_name":"South Carolina","lat":32.98433,"lng":-80.11206,"zip":"29456","miles_from_dt":20.63},{"city":"Isle Of Palms","state_name":"South Carolina","lat":32.81633,"lng":-79.75266,"zip":"29451","miles_from_dt":21.4},{"city":"Mount Pleasant","state_name":"South Carolina","lat":32.87486,"lng":-79.78785,"zip":"29466","miles_from_dt":21.7},{"city":"Goose Creek","state_name":"South Carolina","lat":32.9976,"lng":-79.98757,"zip":"29445","miles_from_dt":22.24},{"city":"Jacksonboro","state_name":"South Carolina","lat":32.6997,"lng":-80.46998,"zip":"29452","miles_from_dt":22.39},{"city":"North Charleston","state_name":"South Carolina","lat":33.0275,"lng":-80.04617,"zip":"29415","miles_from_dt":23.66},{"city":"Summerville","state_name":"South Carolina","lat":33.01644,"lng":-80.20376,"zip":"29484","miles_from_dt":23.79},{"city":"Summerville","state_name":"South Carolina","lat":33.03126,"lng":-80.23205,"zip":"29483","miles_from_dt":25.27},{"city":"Green Pond","state_name":"South Carolina","lat":32.6281,"lng":-80.54028,"zip":"29446","miles_from_dt":26.78},{"city":"Ridgeville","state_name":"South Carolina","lat":33.05379,"lng":-80.31928,"zip":"29472","miles_from_dt":28.76},{"city":"Cottageville","state_name":"South Carolina","lat":32.9526,"lng":-80.4672,"zip":"29435","miles_from_dt":28.81},{"city":"Summerville","state_name":"South Carolina","lat":33.10744,"lng":-80.1458,"zip":"29486","miles_from_dt":29.26},{"city":"Round O","state_name":"South Carolina","lat":32.90833,"lng":-80.52448,"zip":"29474","miles_from_dt":29.77}],"targetCityZipCode":"29455","targetCityState":"South Carolina"},"__N_SSG":true}