{"pageProps":{"stateName":"South-carolina","cityName":"laurens","nearbyCities":[{"city":"Gray Court","state_name":"South Carolina","lat":34.59453,"lng":-82.12375,"zip":"29645","miles_from_dt":8.16},{"city":"Mountville","state_name":"South Carolina","lat":34.37315,"lng":-81.96816,"zip":"29370","miles_from_dt":9.5},{"city":"Waterloo","state_name":"South Carolina","lat":34.33976,"lng":-82.0904,"zip":"29384","miles_from_dt":10.87},{"city":"Ware Shoals","state_name":"South Carolina","lat":34.42142,"lng":-82.22208,"zip":"29692","miles_from_dt":11.07},{"city":"Clinton","state_name":"South Carolina","lat":34.47682,"lng":-81.83973,"zip":"29325","miles_from_dt":11.99},{"city":"Enoree","state_name":"South Carolina","lat":34.65714,"lng":-81.90035,"zip":"29335","miles_from_dt":14.1},{"city":"Joanna","state_name":"South Carolina","lat":34.42177,"lng":-81.80967,"zip":"29351","miles_from_dt":14.53},{"city":"Fountain Inn","state_name":"South Carolina","lat":34.66864,"lng":-82.19714,"zip":"29644","miles_from_dt":14.73},{"city":"Cross Anchor","state_name":"South Carolina","lat":34.64351,"lng":-81.85836,"zip":"29331","miles_from_dt":14.99},{"city":"Cross Hill","state_name":"South Carolina","lat":34.28329,"lng":-81.97292,"zip":"29332","miles_from_dt":15.13},{"city":"Hodges","state_name":"South Carolina","lat":34.30028,"lng":-82.23173,"zip":"29653","miles_from_dt":16.93},{"city":"Greenwood","state_name":"South Carolina","lat":34.24354,"lng":-82.13825,"zip":"29649","miles_from_dt":17.98},{"city":"Honea Path","state_name":"South Carolina","lat":34.46621,"lng":-82.36354,"zip":"29654","miles_from_dt":18.06},{"city":"Hodges","state_name":"South Carolina","lat":34.28745,"lng":-82.24521,"zip":"29695","miles_from_dt":18.11},{"city":"Woodruff","state_name":"South Carolina","lat":34.76292,"lng":-82.04299,"zip":"29388","miles_from_dt":18.57},{"city":"Kinards","state_name":"South Carolina","lat":34.37012,"lng":-81.75894,"zip":"29355","miles_from_dt":18.62},{"city":"Donalds","state_name":"South Carolina","lat":34.36087,"lng":-82.3346,"zip":"29638","miles_from_dt":18.71},{"city":"Simpsonville","state_name":"South Carolina","lat":34.69011,"lng":-82.29073,"zip":"29680","miles_from_dt":19.33},{"city":"Simpsonville","state_name":"South Carolina","lat":34.76988,"lng":-82.22218,"zip":"29681","miles_from_dt":21.45},{"city":"Greenwood","state_name":"South Carolina","lat":34.18975,"lng":-82.15384,"zip":"29647","miles_from_dt":21.79},{"city":"Greenwood","state_name":"South Carolina","lat":34.18915,"lng":-82.15613,"zip":"29648","miles_from_dt":21.86},{"city":"Roebuck","state_name":"South Carolina","lat":34.81564,"lng":-81.94921,"zip":"29376","miles_from_dt":22.91},{"city":"Pauline","state_name":"South Carolina","lat":34.7861,"lng":-81.84854,"zip":"29374","miles_from_dt":23.17},{"city":"Pelzer","state_name":"South Carolina","lat":34.6405,"lng":-82.41495,"zip":"29669","miles_from_dt":23.2},{"city":"Chappells","state_name":"South Carolina","lat":34.18961,"lng":-81.86868,"zip":"29037","miles_from_dt":23.35},{"city":"Buffalo","state_name":"South Carolina","lat":34.71975,"lng":-81.74151,"zip":"29321","miles_from_dt":23.45},{"city":"Mauldin","state_name":"South Carolina","lat":34.77837,"lng":-82.30557,"zip":"29662","miles_from_dt":24.48},{"city":"Due West","state_name":"South Carolina","lat":34.31402,"lng":-82.4205,"zip":"29639","miles_from_dt":24.58},{"city":"Belton","state_name":"South Carolina","lat":34.51807,"lng":-82.47861,"zip":"29627","miles_from_dt":24.58},{"city":"Silverstreet","state_name":"South Carolina","lat":34.21905,"lng":-81.77453,"zip":"29145","miles_from_dt":24.58},{"city":"Greenwood","state_name":"South Carolina","lat":34.13995,"lng":-82.15032,"zip":"29646","miles_from_dt":25.06},{"city":"Reidville","state_name":"South Carolina","lat":34.86049,"lng":-82.11386,"zip":"29375","miles_from_dt":25.56},{"city":"Moore","state_name":"South Carolina","lat":34.86535,"lng":-82.02207,"zip":"29369","miles_from_dt":25.67},{"city":"Conestee","state_name":"South Carolina","lat":34.76961,"lng":-82.35229,"zip":"29636","miles_from_dt":25.71},{"city":"Ninety Six","state_name":"South Carolina","lat":34.12345,"lng":-81.99121,"zip":"29666","miles_from_dt":25.73},{"city":"Whitmire","state_name":"South Carolina","lat":34.4992,"lng":-81.5961,"zip":"29178","miles_from_dt":25.84},{"city":"Greenville","state_name":"South Carolina","lat":34.80952,"lng":-82.33193,"zip":"29607","miles_from_dt":27.1},{"city":"Greenville","state_name":"South Carolina","lat":34.77693,"lng":-82.38064,"zip":"29605","miles_from_dt":27.18},{"city":"Newberry","state_name":"South Carolina","lat":34.29805,"lng":-81.62433,"zip":"29108","miles_from_dt":27.75},{"city":"Piedmont","state_name":"South Carolina","lat":34.71901,"lng":-82.455,"zip":"29673","miles_from_dt":27.88},{"city":"Spartanburg","state_name":"South Carolina","lat":34.89338,"lng":-81.92177,"zip":"29306","miles_from_dt":28.49},{"city":"Duncan","state_name":"South Carolina","lat":34.90372,"lng":-82.12526,"zip":"29334","miles_from_dt":28.6},{"city":"Greenville","state_name":"South Carolina","lat":34.85591,"lng":-82.29553,"zip":"29615","miles_from_dt":28.65},{"city":"Union","state_name":"South Carolina","lat":34.68772,"lng":-81.60403,"zip":"29379","miles_from_dt":28.67},{"city":"Greenville","state_name":"South Carolina","lat":34.85805,"lng":-82.3217,"zip":"29606","miles_from_dt":29.54},{"city":"Williamston","state_name":"South Carolina","lat":34.62887,"lng":-82.54786,"zip":"29697","miles_from_dt":29.95}],"targetCityZipCode":"29360","targetCityState":"South Carolina"},"__N_SSG":true}