{"pageProps":{"stateName":"South-carolina","cityName":"manning","nearbyCities":[{"city":"Davis Station","state_name":"South Carolina","lat":33.60173,"lng":-80.26475,"zip":"29041","miles_from_dt":5.08},{"city":"Alcolu","state_name":"South Carolina","lat":33.78528,"lng":-80.17338,"zip":"29001","miles_from_dt":9.82},{"city":"Summerton","state_name":"South Carolina","lat":33.53731,"lng":-80.34386,"zip":"29148","miles_from_dt":11.41},{"city":"Greeleyville","state_name":"South Carolina","lat":33.60798,"lng":-79.99473,"zip":"29056","miles_from_dt":11.65},{"city":"New Zion","state_name":"South Carolina","lat":33.78648,"lng":-80.01433,"zip":"29111","miles_from_dt":14.21},{"city":"Sardinia","state_name":"South Carolina","lat":33.83662,"lng":-80.08072,"zip":"29143","miles_from_dt":14.77},{"city":"Gable","state_name":"South Carolina","lat":33.8669,"lng":-80.12231,"zip":"29051","miles_from_dt":15.9},{"city":"Pineville","state_name":"South Carolina","lat":33.42624,"lng":-80.06856,"zip":"29468","miles_from_dt":16.6},{"city":"Pinewood","state_name":"South Carolina","lat":33.70165,"lng":-80.47434,"zip":"29125","miles_from_dt":16.74},{"city":"Eutawville","state_name":"South Carolina","lat":33.39057,"lng":-80.29702,"zip":"29048","miles_from_dt":18.46},{"city":"Sumter","state_name":"South Carolina","lat":33.87621,"lng":-80.35609,"zip":"29150","miles_from_dt":18.59},{"city":"Turbeville","state_name":"South Carolina","lat":33.88751,"lng":-80.00865,"zip":"29162","miles_from_dt":19.85},{"city":"Salters","state_name":"South Carolina","lat":33.55892,"lng":-79.84784,"zip":"29590","miles_from_dt":20.7},{"city":"Sumter","state_name":"South Carolina","lat":33.90864,"lng":-80.36259,"zip":"29151","miles_from_dt":20.73},{"city":"Vance","state_name":"South Carolina","lat":33.42019,"lng":-80.43918,"zip":"29163","miles_from_dt":20.99},{"city":"Russellville","state_name":"South Carolina","lat":33.39796,"lng":-79.97478,"zip":"29476","miles_from_dt":21.08},{"city":"Cades","state_name":"South Carolina","lat":33.7892,"lng":-79.84851,"zip":"29518","miles_from_dt":22.19},{"city":"Cross","state_name":"South Carolina","lat":33.31658,"lng":-80.18457,"zip":"29436","miles_from_dt":22.55},{"city":"Lane","state_name":"South Carolina","lat":33.47686,"lng":-79.85522,"zip":"29564","miles_from_dt":22.59},{"city":"Santee","state_name":"South Carolina","lat":33.46491,"lng":-80.52329,"zip":"29142","miles_from_dt":22.73},{"city":"Sumter","state_name":"South Carolina","lat":33.96515,"lng":-80.30675,"zip":"29153","miles_from_dt":23.11},{"city":"Sumter","state_name":"South Carolina","lat":33.88515,"lng":-80.47547,"zip":"29154","miles_from_dt":23.3},{"city":"Elloree","state_name":"South Carolina","lat":33.53218,"lng":-80.57956,"zip":"29047","miles_from_dt":23.63},{"city":"Mayesville","state_name":"South Carolina","lat":33.99524,"lng":-80.21373,"zip":"29104","miles_from_dt":24.26},{"city":"Wedgefield","state_name":"South Carolina","lat":33.84848,"lng":-80.54483,"zip":"29168","miles_from_dt":24.72},{"city":"Kingstree","state_name":"South Carolina","lat":33.66849,"lng":-79.76403,"zip":"29556","miles_from_dt":24.74},{"city":"Saint Stephen","state_name":"South Carolina","lat":33.3808,"lng":-79.89499,"zip":"29479","miles_from_dt":24.96},{"city":"Holly Hill","state_name":"South Carolina","lat":33.32853,"lng":-80.41891,"zip":"29059","miles_from_dt":25.36},{"city":"Olanta","state_name":"South Carolina","lat":33.95436,"lng":-79.93537,"zip":"29114","miles_from_dt":26.02},{"city":"Lynchburg","state_name":"South Carolina","lat":34.01525,"lng":-80.08374,"zip":"29080","miles_from_dt":26.36},{"city":"Cameron","state_name":"South Carolina","lat":33.57917,"lng":-80.65441,"zip":"29030","miles_from_dt":27.02},{"city":"Pinopolis","state_name":"South Carolina","lat":33.24366,"lng":-80.13106,"zip":"29469","miles_from_dt":27.8},{"city":"Shaw Afb","state_name":"South Carolina","lat":33.97517,"lng":-80.47019,"zip":"29152","miles_from_dt":27.89},{"city":"Lake City","state_name":"South Carolina","lat":33.83535,"lng":-79.74747,"zip":"29560","miles_from_dt":28.82}],"targetCityZipCode":"29102","targetCityState":"South Carolina"},"__N_SSG":true}