{"pageProps":{"stateName":"South-carolina","cityName":"pomaria","nearbyCities":[{"city":"Jenkinsville","state_name":"South Carolina","lat":34.29495,"lng":-81.29239,"zip":"29065","miles_from_dt":7.49},{"city":"Peak","state_name":"South Carolina","lat":34.24015,"lng":-81.32532,"zip":"29122","miles_from_dt":7.79},{"city":"Little Mountain","state_name":"South Carolina","lat":34.19985,"lng":-81.37581,"zip":"29075","miles_from_dt":8.78},{"city":"Blair","state_name":"South Carolina","lat":34.4412,"lng":-81.33807,"zip":"29015","miles_from_dt":9.44},{"city":"Newberry","state_name":"South Carolina","lat":34.29805,"lng":-81.62433,"zip":"29108","miles_from_dt":11.84},{"city":"Prosperity","state_name":"South Carolina","lat":34.16568,"lng":-81.51192,"zip":"29127","miles_from_dt":12},{"city":"Chapin","state_name":"South Carolina","lat":34.13396,"lng":-81.33622,"zip":"29036","miles_from_dt":13.8},{"city":"Ballentine","state_name":"South Carolina","lat":34.16061,"lng":-81.262,"zip":"29002","miles_from_dt":14.31},{"city":"White Rock","state_name":"South Carolina","lat":34.1405,"lng":-81.2675,"zip":"29177","miles_from_dt":15.23},{"city":"Whitmire","state_name":"South Carolina","lat":34.4992,"lng":-81.5961,"zip":"29178","miles_from_dt":15.85},{"city":"Rion","state_name":"South Carolina","lat":34.30373,"lng":-81.12414,"zip":"29132","miles_from_dt":16.93},{"city":"Irmo","state_name":"South Carolina","lat":34.13948,"lng":-81.20457,"zip":"29063","miles_from_dt":17.59},{"city":"Winnsboro","state_name":"South Carolina","lat":34.36472,"lng":-81.09821,"zip":"29180","miles_from_dt":18.59},{"city":"Carlisle","state_name":"South Carolina","lat":34.60624,"lng":-81.42665,"zip":"29031","miles_from_dt":19.6},{"city":"Kinards","state_name":"South Carolina","lat":34.37012,"lng":-81.75894,"zip":"29355","miles_from_dt":19.7},{"city":"Columbia","state_name":"South Carolina","lat":34.0777,"lng":-81.2022,"zip":"29212","miles_from_dt":20.93},{"city":"Silverstreet","state_name":"South Carolina","lat":34.21905,"lng":-81.77453,"zip":"29145","miles_from_dt":21.53},{"city":"Columbia","state_name":"South Carolina","lat":34.0242,"lng":-81.29359,"zip":"29211","miles_from_dt":21.75},{"city":"Blackstock","state_name":"South Carolina","lat":34.54368,"lng":-81.13553,"zip":"29014","miles_from_dt":22.28},{"city":"Joanna","state_name":"South Carolina","lat":34.42177,"lng":-81.80967,"zip":"29351","miles_from_dt":23.35},{"city":"Lexington","state_name":"South Carolina","lat":33.9985,"lng":-81.27098,"zip":"29072","miles_from_dt":23.86},{"city":"Columbia","state_name":"South Carolina","lat":34.13819,"lng":-81.06596,"zip":"29230","miles_from_dt":23.87},{"city":"Blythewood","state_name":"South Carolina","lat":34.20367,"lng":-80.99296,"zip":"29016","miles_from_dt":25.73},{"city":"Lexington","state_name":"South Carolina","lat":33.98098,"lng":-81.23501,"zip":"29071","miles_from_dt":25.77},{"city":"Gilbert","state_name":"South Carolina","lat":33.94834,"lng":-81.37875,"zip":"29054","miles_from_dt":25.86},{"city":"Columbia","state_name":"South Carolina","lat":34.04764,"lng":-81.10697,"zip":"29210","miles_from_dt":26.03},{"city":"Columbia","state_name":"South Carolina","lat":34.04456,"lng":-81.10966,"zip":"29221","miles_from_dt":26.08},{"city":"Clinton","state_name":"South Carolina","lat":34.47682,"lng":-81.83973,"zip":"29325","miles_from_dt":26.29},{"city":"Columbia","state_name":"South Carolina","lat":34.10198,"lng":-81.04009,"zip":"29203","miles_from_dt":26.48},{"city":"Columbia","state_name":"South Carolina","lat":34.03361,"lng":-81.10874,"zip":"29227","miles_from_dt":26.67},{"city":"Columbia","state_name":"South Carolina","lat":34.03195,"lng":-81.10492,"zip":"29226","miles_from_dt":26.91},{"city":"Chappells","state_name":"South Carolina","lat":34.18961,"lng":-81.86868,"zip":"29037","miles_from_dt":27.29},{"city":"Union","state_name":"South Carolina","lat":34.68772,"lng":-81.60403,"zip":"29379","miles_from_dt":27.33},{"city":"Saluda","state_name":"South Carolina","lat":34.04491,"lng":-81.77152,"zip":"29138","miles_from_dt":27.78},{"city":"Leesville","state_name":"South Carolina","lat":33.91742,"lng":-81.45517,"zip":"29070","miles_from_dt":27.96},{"city":"West Columbia","state_name":"South Carolina","lat":33.9967,"lng":-81.09676,"zip":"29169","miles_from_dt":29.05},{"city":"Chester","state_name":"South Carolina","lat":34.71773,"lng":-81.23055,"zip":"29706","miles_from_dt":29.33}],"targetCityZipCode":"29126","targetCityState":"South Carolina"},"__N_SSG":true}