{"pageProps":{"stateName":"South-carolina","cityName":"rains","nearbyCities":[{"city":"Mullins","state_name":"South Carolina","lat":34.17134,"lng":-79.26695,"zip":"29574","miles_from_dt":5.76},{"city":"Centenary","state_name":"South Carolina","lat":34.01622,"lng":-79.36048,"zip":"29519","miles_from_dt":6.24},{"city":"Marion","state_name":"South Carolina","lat":34.138,"lng":-79.42205,"zip":"29571","miles_from_dt":6.39},{"city":"Galivants Ferry","state_name":"South Carolina","lat":34.00067,"lng":-79.21083,"zip":"29544","miles_from_dt":9.3},{"city":"Fork","state_name":"South Carolina","lat":34.28759,"lng":-79.26591,"zip":"29543","miles_from_dt":13.27},{"city":"Nichols","state_name":"South Carolina","lat":34.19864,"lng":-79.11295,"zip":"29581","miles_from_dt":13.67},{"city":"Gresham","state_name":"South Carolina","lat":33.89001,"lng":-79.35151,"zip":"29546","miles_from_dt":14.61},{"city":"Sellers","state_name":"South Carolina","lat":34.26941,"lng":-79.47704,"zip":"29592","miles_from_dt":14.71},{"city":"Aynor","state_name":"South Carolina","lat":33.97519,"lng":-79.11043,"zip":"29511","miles_from_dt":14.81},{"city":"Pamplico","state_name":"South Carolina","lat":33.9724,"lng":-79.57045,"zip":"29583","miles_from_dt":16.85},{"city":"Lake View","state_name":"South Carolina","lat":34.35301,"lng":-79.2044,"zip":"29563","miles_from_dt":18.63},{"city":"Johnsonville","state_name":"South Carolina","lat":33.83864,"lng":-79.46191,"zip":"29555","miles_from_dt":19.79},{"city":"Florence","state_name":"South Carolina","lat":34.2103,"lng":-79.64432,"zip":"29506","miles_from_dt":20.06},{"city":"Latta","state_name":"South Carolina","lat":34.35841,"lng":-79.50457,"zip":"29565","miles_from_dt":20.68},{"city":"Green Sea","state_name":"South Carolina","lat":34.16175,"lng":-78.96635,"zip":"29545","miles_from_dt":20.72},{"city":"Florence","state_name":"South Carolina","lat":34.12348,"lng":-79.68974,"zip":"29505","miles_from_dt":21.25},{"city":"Marietta","state_name":"North Carolina","lat":34.36961,"lng":-79.12882,"zip":"28362","miles_from_dt":21.55},{"city":"Dillon","state_name":"South Carolina","lat":34.41911,"lng":-79.37241,"zip":"29536","miles_from_dt":22.17},{"city":"Fair Bluff","state_name":"North Carolina","lat":34.29411,"lng":-79.00947,"zip":"28439","miles_from_dt":22.25},{"city":"Conway","state_name":"South Carolina","lat":33.84017,"lng":-79.06079,"zip":"29528","miles_from_dt":23.31},{"city":"Conway","state_name":"South Carolina","lat":33.78271,"lng":-79.14715,"zip":"29527","miles_from_dt":24.04},{"city":"Effingham","state_name":"South Carolina","lat":34.0653,"lng":-79.74087,"zip":"29541","miles_from_dt":24.25},{"city":"Loris","state_name":"South Carolina","lat":34.0326,"lng":-78.90359,"zip":"29569","miles_from_dt":24.35},{"city":"Barnesville","state_name":"North Carolina","lat":34.38429,"lng":-79.06613,"zip":"28319","miles_from_dt":24.38},{"city":"Coward","state_name":"South Carolina","lat":33.98984,"lng":-79.74222,"zip":"29530","miles_from_dt":25.39},{"city":"Cerro Gordo","state_name":"North Carolina","lat":34.28419,"lng":-78.93333,"zip":"28430","miles_from_dt":25.52},{"city":"Conway","state_name":"South Carolina","lat":33.86696,"lng":-78.9718,"zip":"29526","miles_from_dt":25.67},{"city":"Hamer","state_name":"South Carolina","lat":34.48684,"lng":-79.33243,"zip":"29547","miles_from_dt":26.65},{"city":"Florence","state_name":"South Carolina","lat":34.18424,"lng":-79.78254,"zip":"29504","miles_from_dt":27.12},{"city":"Scranton","state_name":"South Carolina","lat":33.93894,"lng":-79.759,"zip":"29591","miles_from_dt":27.53},{"city":"Fairmont","state_name":"North Carolina","lat":34.47136,"lng":-79.1403,"zip":"28340","miles_from_dt":27.56},{"city":"Orrum","state_name":"North Carolina","lat":34.42184,"lng":-79.02901,"zip":"28369","miles_from_dt":27.72},{"city":"Florence","state_name":"South Carolina","lat":34.19517,"lng":-79.79222,"zip":"29502","miles_from_dt":27.83},{"city":"Hemingway","state_name":"South Carolina","lat":33.69879,"lng":-79.38816,"zip":"29554","miles_from_dt":27.95},{"city":"Florence","state_name":"South Carolina","lat":34.19232,"lng":-79.80372,"zip":"29503","miles_from_dt":28.43},{"city":"Blenheim","state_name":"South Carolina","lat":34.44323,"lng":-79.62414,"zip":"29516","miles_from_dt":29.34},{"city":"Florence","state_name":"South Carolina","lat":34.20414,"lng":-79.82654,"zip":"29501","miles_from_dt":29.89}],"targetCityZipCode":"29589","targetCityState":"South Carolina"},"__N_SSG":true}