{"pageProps":{"stateName":"South-carolina","cityName":"reidville","nearbyCities":[{"city":"Duncan","state_name":"South Carolina","lat":34.90372,"lng":-82.12526,"zip":"29334","miles_from_dt":3.05},{"city":"Startex","state_name":"South Carolina","lat":34.93036,"lng":-82.0971,"zip":"29377","miles_from_dt":4.91},{"city":"Moore","state_name":"South Carolina","lat":34.86535,"lng":-82.02207,"zip":"29369","miles_from_dt":5.23},{"city":"Greer","state_name":"South Carolina","lat":34.93786,"lng":-82.20294,"zip":"29652","miles_from_dt":7.35},{"city":"Spartanburg","state_name":"South Carolina","lat":34.93516,"lng":-82.01301,"zip":"29301","miles_from_dt":7.7},{"city":"Woodruff","state_name":"South Carolina","lat":34.76292,"lng":-82.04299,"zip":"29388","miles_from_dt":7.84},{"city":"Wellford","state_name":"South Carolina","lat":34.97623,"lng":-82.1024,"zip":"29385","miles_from_dt":8},{"city":"Fairforest","state_name":"South Carolina","lat":34.95037,"lng":-82.01495,"zip":"29336","miles_from_dt":8.36},{"city":"Greer","state_name":"South Carolina","lat":34.89805,"lng":-82.25826,"zip":"29650","miles_from_dt":8.6},{"city":"Greer","state_name":"South Carolina","lat":34.94653,"lng":-82.22649,"zip":"29651","miles_from_dt":8.72},{"city":"Simpsonville","state_name":"South Carolina","lat":34.76988,"lng":-82.22218,"zip":"29681","miles_from_dt":8.77},{"city":"Lyman","state_name":"South Carolina","lat":34.98079,"lng":-82.16869,"zip":"29365","miles_from_dt":8.86},{"city":"Arcadia","state_name":"South Carolina","lat":34.95847,"lng":-81.9922,"zip":"29320","miles_from_dt":9.66},{"city":"Roebuck","state_name":"South Carolina","lat":34.81564,"lng":-81.94921,"zip":"29376","miles_from_dt":9.86},{"city":"Greenville","state_name":"South Carolina","lat":34.85591,"lng":-82.29553,"zip":"29615","miles_from_dt":10.33},{"city":"Una","state_name":"South Carolina","lat":34.96684,"lng":-81.96857,"zip":"29378","miles_from_dt":11.04},{"city":"Spartanburg","state_name":"South Carolina","lat":34.89338,"lng":-81.92177,"zip":"29306","miles_from_dt":11.15},{"city":"Greenville","state_name":"South Carolina","lat":34.85805,"lng":-82.3217,"zip":"29606","miles_from_dt":11.81},{"city":"Spartanburg","state_name":"South Carolina","lat":34.94718,"lng":-81.92678,"zip":"29319","miles_from_dt":12.19},{"city":"Mauldin","state_name":"South Carolina","lat":34.77837,"lng":-82.30557,"zip":"29662","miles_from_dt":12.28},{"city":"Spartanburg","state_name":"South Carolina","lat":34.99424,"lng":-81.96883,"zip":"29303","miles_from_dt":12.36},{"city":"Spartanburg","state_name":"South Carolina","lat":34.98926,"lng":-81.95461,"zip":"29305","miles_from_dt":12.67},{"city":"Greenville","state_name":"South Carolina","lat":34.80952,"lng":-82.33193,"zip":"29607","miles_from_dt":12.88},{"city":"Spartanburg","state_name":"South Carolina","lat":34.95809,"lng":-81.90577,"zip":"29304","miles_from_dt":13.6},{"city":"Drayton","state_name":"South Carolina","lat":34.97092,"lng":-81.91069,"zip":"29333","miles_from_dt":13.82},{"city":"Fountain Inn","state_name":"South Carolina","lat":34.66864,"lng":-82.19714,"zip":"29644","miles_from_dt":14.05},{"city":"Greenville","state_name":"South Carolina","lat":34.87386,"lng":-82.36302,"zip":"29614","miles_from_dt":14.19},{"city":"Inman","state_name":"South Carolina","lat":35.07045,"lng":-82.0688,"zip":"29349","miles_from_dt":14.7},{"city":"Boiling Springs","state_name":"South Carolina","lat":35.04179,"lng":-81.9766,"zip":"29316","miles_from_dt":14.73},{"city":"Taylors","state_name":"South Carolina","lat":34.9855,"lng":-82.32833,"zip":"29687","miles_from_dt":14.92},{"city":"Conestee","state_name":"South Carolina","lat":34.76961,"lng":-82.35229,"zip":"29636","miles_from_dt":14.93},{"city":"Gramling","state_name":"South Carolina","lat":35.08222,"lng":-82.12646,"zip":"29348","miles_from_dt":15.3},{"city":"Simpsonville","state_name":"South Carolina","lat":34.69011,"lng":-82.29073,"zip":"29680","miles_from_dt":15.46},{"city":"Spartanburg","state_name":"South Carolina","lat":34.89399,"lng":-81.84151,"zip":"29302","miles_from_dt":15.64},{"city":"Greenville","state_name":"South Carolina","lat":34.85482,"lng":-82.39311,"zip":"29616","miles_from_dt":15.87},{"city":"Pauline","state_name":"South Carolina","lat":34.7861,"lng":-81.84854,"zip":"29374","miles_from_dt":15.93},{"city":"Greenville","state_name":"South Carolina","lat":34.91209,"lng":-82.38928,"zip":"29609","miles_from_dt":16.04},{"city":"Greenville","state_name":"South Carolina","lat":34.8303,"lng":-82.39426,"zip":"29604","miles_from_dt":16.07},{"city":"Greenville","state_name":"South Carolina","lat":34.85062,"lng":-82.39669,"zip":"29603","miles_from_dt":16.09},{"city":"Greenville","state_name":"South Carolina","lat":34.77693,"lng":-82.38064,"zip":"29605","miles_from_dt":16.22},{"city":"Greenville","state_name":"South Carolina","lat":34.84744,"lng":-82.40257,"zip":"29601","miles_from_dt":16.43},{"city":"Greenville","state_name":"South Carolina","lat":34.84784,"lng":-82.40396,"zip":"29612","miles_from_dt":16.51},{"city":"Greenville","state_name":"South Carolina","lat":34.85503,"lng":-82.40815,"zip":"29602","miles_from_dt":16.73},{"city":"Glendale","state_name":"South Carolina","lat":34.94524,"lng":-81.83627,"zip":"29346","miles_from_dt":16.81},{"city":"Greenville","state_name":"South Carolina","lat":34.90196,"lng":-82.4096,"zip":"29608","miles_from_dt":17.04},{"city":"White Stone","state_name":"South Carolina","lat":34.88336,"lng":-81.80693,"zip":"29386","miles_from_dt":17.51},{"city":"Campobello","state_name":"South Carolina","lat":35.12254,"lng":-82.13157,"zip":"29322","miles_from_dt":18.09},{"city":"Spartanburg","state_name":"South Carolina","lat":34.98381,"lng":-81.83146,"zip":"29307","miles_from_dt":18.15},{"city":"Converse","state_name":"South Carolina","lat":34.99262,"lng":-81.83682,"zip":"29329","miles_from_dt":18.18},{"city":"Gray Court","state_name":"South Carolina","lat":34.59453,"lng":-82.12375,"zip":"29645","miles_from_dt":18.34},{"city":"Enoree","state_name":"South Carolina","lat":34.65714,"lng":-81.90035,"zip":"29335","miles_from_dt":18.55},{"city":"Clifton","state_name":"South Carolina","lat":34.98944,"lng":-81.82523,"zip":"29324","miles_from_dt":18.64},{"city":"Greenville","state_name":"South Carolina","lat":34.9257,"lng":-82.4384,"zip":"29613","miles_from_dt":18.97},{"city":"Tigerville","state_name":"South Carolina","lat":35.06245,"lng":-82.35226,"zip":"29688","miles_from_dt":19.41},{"city":"Greenville","state_name":"South Carolina","lat":34.83137,"lng":-82.45965,"zip":"29611","miles_from_dt":19.75},{"city":"Fingerville","state_name":"South Carolina","lat":35.13444,"lng":-82.00172,"zip":"29338","miles_from_dt":19.93},{"city":"Greenville","state_name":"South Carolina","lat":34.91262,"lng":-82.4666,"zip":"29617","miles_from_dt":20.36},{"city":"Cross Anchor","state_name":"South Carolina","lat":34.64351,"lng":-81.85836,"zip":"29331","miles_from_dt":20.86},{"city":"Mayo","state_name":"South Carolina","lat":35.08262,"lng":-81.86281,"zip":"29368","miles_from_dt":20.91},{"city":"Greenville","state_name":"South Carolina","lat":34.93178,"lng":-82.47194,"zip":"29610","miles_from_dt":20.92},{"city":"Jonesville","state_name":"South Carolina","lat":34.8546,"lng":-81.74021,"zip":"29395","miles_from_dt":21.24},{"city":"Landrum","state_name":"South Carolina","lat":35.14411,"lng":-82.26187,"zip":"29356","miles_from_dt":21.28},{"city":"Pacolet Mills","state_name":"South Carolina","lat":34.92442,"lng":-81.74276,"zip":"29373","miles_from_dt":21.53},{"city":"Piedmont","state_name":"South Carolina","lat":34.71901,"lng":-82.455,"zip":"29673","miles_from_dt":21.71},{"city":"Chesnee","state_name":"South Carolina","lat":35.12911,"lng":-81.90902,"zip":"29323","miles_from_dt":21.86},{"city":"Cowpens","state_name":"South Carolina","lat":35.05362,"lng":-81.80463,"zip":"29330","miles_from_dt":22.03},{"city":"Travelers Rest","state_name":"South Carolina","lat":35.06008,"lng":-82.42136,"zip":"29690","miles_from_dt":22.22},{"city":"Pelzer","state_name":"South Carolina","lat":34.6405,"lng":-82.41495,"zip":"29669","miles_from_dt":22.88},{"city":"Pacolet","state_name":"South Carolina","lat":34.9059,"lng":-81.70878,"zip":"29372","miles_from_dt":23.22},{"city":"Buffalo","state_name":"South Carolina","lat":34.71975,"lng":-81.74151,"zip":"29321","miles_from_dt":23.29},{"city":"Slater","state_name":"South Carolina","lat":35.03032,"lng":-82.49306,"zip":"29683","miles_from_dt":24.5},{"city":"Laurens","state_name":"South Carolina","lat":34.49361,"lng":-82.04884,"zip":"29360","miles_from_dt":25.56},{"city":"Columbus","state_name":"North Carolina","lat":35.23408,"lng":-82.12794,"zip":"28722","miles_from_dt":25.77},{"city":"Tryon","state_name":"North Carolina","lat":35.23569,"lng":-82.1519,"zip":"28782","miles_from_dt":25.95},{"city":"Lynn","state_name":"North Carolina","lat":35.22687,"lng":-82.2228,"zip":"28750","miles_from_dt":26},{"city":"Jonesville","state_name":"South Carolina","lat":34.83064,"lng":-81.65636,"zip":"29353","miles_from_dt":26.08},{"city":"Easley","state_name":"South Carolina","lat":34.77487,"lng":-82.56538,"zip":"29642","miles_from_dt":26.34},{"city":"Easley","state_name":"South Carolina","lat":34.88706,"lng":-82.57725,"zip":"29640","miles_from_dt":26.39},{"city":"Gaffney","state_name":"South Carolina","lat":34.98563,"lng":-81.65913,"zip":"29342","miles_from_dt":27.22},{"city":"Easley","state_name":"South Carolina","lat":34.84368,"lng":-82.59507,"zip":"29641","miles_from_dt":27.37},{"city":"Marietta","state_name":"South Carolina","lat":35.06706,"lng":-82.53852,"zip":"29661","miles_from_dt":27.99},{"city":"Gaffney","state_name":"South Carolina","lat":35.1184,"lng":-81.71321,"zip":"29341","miles_from_dt":28.86},{"city":"Saluda","state_name":"North Carolina","lat":35.25246,"lng":-82.31166,"zip":"28773","miles_from_dt":29.25},{"city":"Harris","state_name":"North Carolina","lat":35.23933,"lng":-81.8783,"zip":"28074","miles_from_dt":29.33},{"city":"Williamston","state_name":"South Carolina","lat":34.62887,"lng":-82.54786,"zip":"29697","miles_from_dt":29.41}],"targetCityZipCode":"29375","targetCityState":"South Carolina"},"__N_SSG":true}