{"pageProps":{"stateName":"South-carolina","cityName":"roebuck","nearbyCities":[{"city":"Moore","state_name":"South Carolina","lat":34.86535,"lng":-82.02207,"zip":"29369","miles_from_dt":5.37},{"city":"Spartanburg","state_name":"South Carolina","lat":34.89338,"lng":-81.92177,"zip":"29306","miles_from_dt":5.58},{"city":"Pauline","state_name":"South Carolina","lat":34.7861,"lng":-81.84854,"zip":"29374","miles_from_dt":6.08},{"city":"Woodruff","state_name":"South Carolina","lat":34.76292,"lng":-82.04299,"zip":"29388","miles_from_dt":6.45},{"city":"Spartanburg","state_name":"South Carolina","lat":34.89399,"lng":-81.84151,"zip":"29302","miles_from_dt":8.16},{"city":"Spartanburg","state_name":"South Carolina","lat":34.93516,"lng":-82.01301,"zip":"29301","miles_from_dt":9},{"city":"Spartanburg","state_name":"South Carolina","lat":34.94718,"lng":-81.92678,"zip":"29319","miles_from_dt":9.16},{"city":"White Stone","state_name":"South Carolina","lat":34.88336,"lng":-81.80693,"zip":"29386","miles_from_dt":9.34},{"city":"Reidville","state_name":"South Carolina","lat":34.86049,"lng":-82.11386,"zip":"29375","miles_from_dt":9.86},{"city":"Fairforest","state_name":"South Carolina","lat":34.95037,"lng":-82.01495,"zip":"29336","miles_from_dt":10.01},{"city":"Spartanburg","state_name":"South Carolina","lat":34.95809,"lng":-81.90577,"zip":"29304","miles_from_dt":10.12},{"city":"Arcadia","state_name":"South Carolina","lat":34.95847,"lng":-81.9922,"zip":"29320","miles_from_dt":10.14},{"city":"Una","state_name":"South Carolina","lat":34.96684,"lng":-81.96857,"zip":"29378","miles_from_dt":10.48},{"city":"Drayton","state_name":"South Carolina","lat":34.97092,"lng":-81.91069,"zip":"29333","miles_from_dt":10.93},{"city":"Glendale","state_name":"South Carolina","lat":34.94524,"lng":-81.83627,"zip":"29346","miles_from_dt":11},{"city":"Enoree","state_name":"South Carolina","lat":34.65714,"lng":-81.90035,"zip":"29335","miles_from_dt":11.27},{"city":"Startex","state_name":"South Carolina","lat":34.93036,"lng":-82.0971,"zip":"29377","miles_from_dt":11.54},{"city":"Duncan","state_name":"South Carolina","lat":34.90372,"lng":-82.12526,"zip":"29334","miles_from_dt":11.7},{"city":"Spartanburg","state_name":"South Carolina","lat":34.98926,"lng":-81.95461,"zip":"29305","miles_from_dt":11.97},{"city":"Jonesville","state_name":"South Carolina","lat":34.8546,"lng":-81.74021,"zip":"29395","miles_from_dt":12.18},{"city":"Spartanburg","state_name":"South Carolina","lat":34.99424,"lng":-81.96883,"zip":"29303","miles_from_dt":12.36},{"city":"Cross Anchor","state_name":"South Carolina","lat":34.64351,"lng":-81.85836,"zip":"29331","miles_from_dt":12.94},{"city":"Spartanburg","state_name":"South Carolina","lat":34.98381,"lng":-81.83146,"zip":"29307","miles_from_dt":13.38},{"city":"Buffalo","state_name":"South Carolina","lat":34.71975,"lng":-81.74151,"zip":"29321","miles_from_dt":13.54},{"city":"Converse","state_name":"South Carolina","lat":34.99262,"lng":-81.83682,"zip":"29329","miles_from_dt":13.77},{"city":"Clifton","state_name":"South Carolina","lat":34.98944,"lng":-81.82523,"zip":"29324","miles_from_dt":13.9},{"city":"Pacolet Mills","state_name":"South Carolina","lat":34.92442,"lng":-81.74276,"zip":"29373","miles_from_dt":13.92},{"city":"Wellford","state_name":"South Carolina","lat":34.97623,"lng":-82.1024,"zip":"29385","miles_from_dt":14.08},{"city":"Pacolet","state_name":"South Carolina","lat":34.9059,"lng":-81.70878,"zip":"29372","miles_from_dt":15.01},{"city":"Boiling Springs","state_name":"South Carolina","lat":35.04179,"lng":-81.9766,"zip":"29316","miles_from_dt":15.67},{"city":"Simpsonville","state_name":"South Carolina","lat":34.76988,"lng":-82.22218,"zip":"29681","miles_from_dt":15.84},{"city":"Jonesville","state_name":"South Carolina","lat":34.83064,"lng":-81.65636,"zip":"29353","miles_from_dt":16.68},{"city":"Greer","state_name":"South Carolina","lat":34.93786,"lng":-82.20294,"zip":"29652","miles_from_dt":16.7},{"city":"Lyman","state_name":"South Carolina","lat":34.98079,"lng":-82.16869,"zip":"29365","miles_from_dt":16.88},{"city":"Fountain Inn","state_name":"South Carolina","lat":34.66864,"lng":-82.19714,"zip":"29644","miles_from_dt":17.37},{"city":"Greer","state_name":"South Carolina","lat":34.94653,"lng":-82.22649,"zip":"29651","miles_from_dt":18.15},{"city":"Gray Court","state_name":"South Carolina","lat":34.59453,"lng":-82.12375,"zip":"29645","miles_from_dt":18.19},{"city":"Cowpens","state_name":"South Carolina","lat":35.05362,"lng":-81.80463,"zip":"29330","miles_from_dt":18.34},{"city":"Greer","state_name":"South Carolina","lat":34.89805,"lng":-82.25826,"zip":"29650","miles_from_dt":18.46},{"city":"Inman","state_name":"South Carolina","lat":35.07045,"lng":-82.0688,"zip":"29349","miles_from_dt":18.83},{"city":"Mayo","state_name":"South Carolina","lat":35.08262,"lng":-81.86281,"zip":"29368","miles_from_dt":19.05},{"city":"Greenville","state_name":"South Carolina","lat":34.85591,"lng":-82.29553,"zip":"29615","miles_from_dt":19.88},{"city":"Gaffney","state_name":"South Carolina","lat":34.98563,"lng":-81.65913,"zip":"29342","miles_from_dt":20.22},{"city":"Mauldin","state_name":"South Carolina","lat":34.77837,"lng":-82.30557,"zip":"29662","miles_from_dt":20.43},{"city":"Gramling","state_name":"South Carolina","lat":35.08222,"lng":-82.12646,"zip":"29348","miles_from_dt":20.95},{"city":"Simpsonville","state_name":"South Carolina","lat":34.69011,"lng":-82.29073,"zip":"29680","miles_from_dt":21.27},{"city":"Greenville","state_name":"South Carolina","lat":34.85805,"lng":-82.3217,"zip":"29606","miles_from_dt":21.37},{"city":"Union","state_name":"South Carolina","lat":34.68772,"lng":-81.60403,"zip":"29379","miles_from_dt":21.53},{"city":"Chesnee","state_name":"South Carolina","lat":35.12911,"lng":-81.90902,"zip":"29323","miles_from_dt":21.73},{"city":"Greenville","state_name":"South Carolina","lat":34.80952,"lng":-82.33193,"zip":"29607","miles_from_dt":21.76},{"city":"Fingerville","state_name":"South Carolina","lat":35.13444,"lng":-82.00172,"zip":"29338","miles_from_dt":22.18},{"city":"Laurens","state_name":"South Carolina","lat":34.49361,"lng":-82.04884,"zip":"29360","miles_from_dt":22.91},{"city":"Conestee","state_name":"South Carolina","lat":34.76961,"lng":-82.35229,"zip":"29636","miles_from_dt":23.14},{"city":"Gaffney","state_name":"South Carolina","lat":34.98225,"lng":-81.59427,"zip":"29340","miles_from_dt":23.2},{"city":"Campobello","state_name":"South Carolina","lat":35.12254,"lng":-82.13157,"zip":"29322","miles_from_dt":23.55},{"city":"Greenville","state_name":"South Carolina","lat":34.87386,"lng":-82.36302,"zip":"29614","miles_from_dt":23.86},{"city":"Clinton","state_name":"South Carolina","lat":34.47682,"lng":-81.83973,"zip":"29325","miles_from_dt":24.17},{"city":"Taylors","state_name":"South Carolina","lat":34.9855,"lng":-82.32833,"zip":"29687","miles_from_dt":24.51},{"city":"Greenville","state_name":"South Carolina","lat":34.77693,"lng":-82.38064,"zip":"29605","miles_from_dt":24.68},{"city":"Gaffney","state_name":"South Carolina","lat":35.1184,"lng":-81.71321,"zip":"29341","miles_from_dt":24.8},{"city":"Greenville","state_name":"South Carolina","lat":34.8303,"lng":-82.39426,"zip":"29604","miles_from_dt":25.32},{"city":"Greenville","state_name":"South Carolina","lat":34.85482,"lng":-82.39311,"zip":"29616","miles_from_dt":25.37},{"city":"Greenville","state_name":"South Carolina","lat":34.85062,"lng":-82.39669,"zip":"29603","miles_from_dt":25.55},{"city":"Greenville","state_name":"South Carolina","lat":34.84744,"lng":-82.40257,"zip":"29601","miles_from_dt":25.86},{"city":"Greenville","state_name":"South Carolina","lat":34.91209,"lng":-82.38928,"zip":"29609","miles_from_dt":25.87},{"city":"Greenville","state_name":"South Carolina","lat":34.84784,"lng":-82.40396,"zip":"29612","miles_from_dt":25.94},{"city":"Greenville","state_name":"South Carolina","lat":34.85503,"lng":-82.40815,"zip":"29602","miles_from_dt":26.23},{"city":"Greenville","state_name":"South Carolina","lat":34.90196,"lng":-82.4096,"zip":"29608","miles_from_dt":26.83},{"city":"Lockhart","state_name":"South Carolina","lat":34.78846,"lng":-81.46202,"zip":"29364","miles_from_dt":27.76},{"city":"Joanna","state_name":"South Carolina","lat":34.42177,"lng":-81.80967,"zip":"29351","miles_from_dt":28.29},{"city":"Tigerville","state_name":"South Carolina","lat":35.06245,"lng":-82.35226,"zip":"29688","miles_from_dt":28.51},{"city":"Landrum","state_name":"South Carolina","lat":35.14411,"lng":-82.26187,"zip":"29356","miles_from_dt":28.76},{"city":"Greenville","state_name":"South Carolina","lat":34.9257,"lng":-82.4384,"zip":"29613","miles_from_dt":28.81},{"city":"Greenville","state_name":"South Carolina","lat":34.83137,"lng":-82.45965,"zip":"29611","miles_from_dt":29.04},{"city":"Pelzer","state_name":"South Carolina","lat":34.6405,"lng":-82.41495,"zip":"29669","miles_from_dt":29.13},{"city":"Harris","state_name":"North Carolina","lat":35.23933,"lng":-81.8783,"zip":"28074","miles_from_dt":29.48},{"city":"Piedmont","state_name":"South Carolina","lat":34.71901,"lng":-82.455,"zip":"29673","miles_from_dt":29.53},{"city":"Whitmire","state_name":"South Carolina","lat":34.4992,"lng":-81.5961,"zip":"29178","miles_from_dt":29.67}],"targetCityZipCode":"29376","targetCityState":"South Carolina"},"__N_SSG":true}