{"pageProps":{"stateName":"South-carolina","cityName":"rowesville","nearbyCities":[{"city":"Cordova","state_name":"South Carolina","lat":33.41855,"lng":-80.90556,"zip":"29039","miles_from_dt":7.09},{"city":"Orangeburg","state_name":"South Carolina","lat":33.47673,"lng":-80.84758,"zip":"29115","miles_from_dt":8.56},{"city":"Orangeburg","state_name":"South Carolina","lat":33.48145,"lng":-80.81091,"zip":"29116","miles_from_dt":8.56},{"city":"Branchville","state_name":"South Carolina","lat":33.2294,"lng":-80.81428,"zip":"29432","miles_from_dt":8.82},{"city":"Bowman","state_name":"South Carolina","lat":33.34619,"lng":-80.64373,"zip":"29018","miles_from_dt":9.47},{"city":"Orangeburg","state_name":"South Carolina","lat":33.49828,"lng":-80.85,"zip":"29117","miles_from_dt":10.03},{"city":"Cope","state_name":"South Carolina","lat":33.37494,"lng":-80.98095,"zip":"29038","miles_from_dt":10.13},{"city":"Reevesville","state_name":"South Carolina","lat":33.18714,"lng":-80.66955,"zip":"29471","miles_from_dt":14.17},{"city":"Bamberg","state_name":"South Carolina","lat":33.24135,"lng":-81.01838,"zip":"29003","miles_from_dt":14.61},{"city":"Orangeburg","state_name":"South Carolina","lat":33.57056,"lng":-80.89501,"zip":"29118","miles_from_dt":15.55},{"city":"Smoaks","state_name":"South Carolina","lat":33.11382,"lng":-80.80301,"zip":"29481","miles_from_dt":16.78},{"city":"Cameron","state_name":"South Carolina","lat":33.57917,"lng":-80.65441,"zip":"29030","miles_from_dt":17.65},{"city":"Elloree","state_name":"South Carolina","lat":33.53218,"lng":-80.57956,"zip":"29047","miles_from_dt":17.83},{"city":"Santee","state_name":"South Carolina","lat":33.46491,"lng":-80.52329,"zip":"29142","miles_from_dt":18},{"city":"Saint George","state_name":"South Carolina","lat":33.16626,"lng":-80.57176,"zip":"29477","miles_from_dt":18.94},{"city":"Norway","state_name":"South Carolina","lat":33.43514,"lng":-81.13173,"zip":"29113","miles_from_dt":19.53},{"city":"Denmark","state_name":"South Carolina","lat":33.30735,"lng":-81.14723,"zip":"29042","miles_from_dt":19.98},{"city":"Grover","state_name":"South Carolina","lat":33.10771,"lng":-80.59292,"zip":"29447","miles_from_dt":21.2},{"city":"Neeses","state_name":"South Carolina","lat":33.52348,"lng":-81.11856,"zip":"29107","miles_from_dt":21.34},{"city":"Williams","state_name":"South Carolina","lat":33.04536,"lng":-80.84276,"zip":"29493","miles_from_dt":21.59},{"city":"Vance","state_name":"South Carolina","lat":33.42019,"lng":-80.43918,"zip":"29163","miles_from_dt":21.7},{"city":"Harleyville","state_name":"South Carolina","lat":33.24062,"lng":-80.44639,"zip":"29448","miles_from_dt":22.36},{"city":"Holly Hill","state_name":"South Carolina","lat":33.32853,"lng":-80.41891,"zip":"29059","miles_from_dt":22.53},{"city":"Ehrhardt","state_name":"South Carolina","lat":33.09161,"lng":-81.0426,"zip":"29081","miles_from_dt":22.83},{"city":"Saint Matthews","state_name":"South Carolina","lat":33.68834,"lng":-80.7875,"zip":"29135","miles_from_dt":22.85},{"city":"Lodge","state_name":"South Carolina","lat":33.04012,"lng":-80.93868,"zip":"29082","miles_from_dt":23.15},{"city":"Canadys","state_name":"South Carolina","lat":33.05468,"lng":-80.62073,"zip":"29433","miles_from_dt":23.48},{"city":"North","state_name":"South Carolina","lat":33.62662,"lng":-81.0837,"zip":"29112","miles_from_dt":24.49},{"city":"Olar","state_name":"South Carolina","lat":33.18385,"lng":-81.18218,"zip":"29843","miles_from_dt":24.79},{"city":"Blackville","state_name":"South Carolina","lat":33.36989,"lng":-81.27096,"zip":"29817","miles_from_dt":26.85},{"city":"Ruffin","state_name":"South Carolina","lat":32.96687,"lng":-80.8189,"zip":"29475","miles_from_dt":26.91},{"city":"Dorchester","state_name":"South Carolina","lat":33.13673,"lng":-80.42319,"zip":"29437","miles_from_dt":26.92},{"city":"Summerton","state_name":"South Carolina","lat":33.53731,"lng":-80.34386,"zip":"29148","miles_from_dt":29.49},{"city":"Eutawville","state_name":"South Carolina","lat":33.39057,"lng":-80.29702,"zip":"29048","miles_from_dt":29.58},{"city":"Swansea","state_name":"South Carolina","lat":33.74358,"lng":-81.04188,"zip":"29160","miles_from_dt":29.88},{"city":"Islandton","state_name":"South Carolina","lat":32.93805,"lng":-80.9434,"zip":"29929","miles_from_dt":29.95}],"targetCityZipCode":"29133","targetCityState":"South Carolina"},"__N_SSG":true}