{"pageProps":{"stateName":"South-carolina","cityName":"varnville","nearbyCities":[{"city":"Early Branch","state_name":"South Carolina","lat":32.72863,"lng":-80.95708,"zip":"29916","miles_from_dt":6.22},{"city":"Hampton","state_name":"South Carolina","lat":32.87737,"lng":-81.10749,"zip":"29924","miles_from_dt":7.31},{"city":"Crocketville","state_name":"South Carolina","lat":32.91322,"lng":-81.07413,"zip":"29913","miles_from_dt":8.72},{"city":"Miley","state_name":"South Carolina","lat":32.94857,"lng":-81.03106,"zip":"29933","miles_from_dt":10.84},{"city":"Furman","state_name":"South Carolina","lat":32.68664,"lng":-81.18011,"zip":"29921","miles_from_dt":11.15},{"city":"Islandton","state_name":"South Carolina","lat":32.93805,"lng":-80.9434,"zip":"29929","miles_from_dt":11.41},{"city":"Brunson","state_name":"South Carolina","lat":32.9327,"lng":-81.14536,"zip":"29911","miles_from_dt":11.7},{"city":"Gifford","state_name":"South Carolina","lat":32.84821,"lng":-81.23856,"zip":"29923","miles_from_dt":12.53},{"city":"Estill","state_name":"South Carolina","lat":32.74461,"lng":-81.24899,"zip":"29918","miles_from_dt":12.92},{"city":"Pineland","state_name":"South Carolina","lat":32.59651,"lng":-81.11245,"zip":"29934","miles_from_dt":14.18},{"city":"Scotia","state_name":"South Carolina","lat":32.68127,"lng":-81.24538,"zip":"29939","miles_from_dt":14.45},{"city":"Yemassee","state_name":"South Carolina","lat":32.68694,"lng":-80.80912,"zip":"29945","miles_from_dt":14.95},{"city":"Coosawhatchie","state_name":"South Carolina","lat":32.58262,"lng":-80.93102,"zip":"29912","miles_from_dt":15.58},{"city":"Fairfax","state_name":"South Carolina","lat":32.96951,"lng":-81.24542,"zip":"29827","miles_from_dt":17.37},{"city":"Ruffin","state_name":"South Carolina","lat":32.96687,"lng":-80.8189,"zip":"29475","miles_from_dt":17.41},{"city":"Lodge","state_name":"South Carolina","lat":33.04012,"lng":-80.93868,"zip":"29082","miles_from_dt":18.02},{"city":"Luray","state_name":"South Carolina","lat":32.82529,"lng":-81.34853,"zip":"29932","miles_from_dt":18.45},{"city":"Garnett","state_name":"South Carolina","lat":32.59632,"lng":-81.27407,"zip":"29922","miles_from_dt":19.39},{"city":"Sycamore","state_name":"South Carolina","lat":33.03781,"lng":-81.22462,"zip":"29846","miles_from_dt":20.28},{"city":"Ehrhardt","state_name":"South Carolina","lat":33.09161,"lng":-81.0426,"zip":"29081","miles_from_dt":20.7},{"city":"Williams","state_name":"South Carolina","lat":33.04536,"lng":-80.84276,"zip":"29493","miles_from_dt":20.74},{"city":"Sheldon","state_name":"South Carolina","lat":32.54357,"lng":-80.81509,"zip":"29941","miles_from_dt":21.31},{"city":"Ridgeland","state_name":"South Carolina","lat":32.48475,"lng":-80.96766,"zip":"29936","miles_from_dt":21.48},{"city":"Tillman","state_name":"South Carolina","lat":32.4821,"lng":-81.14952,"zip":"29943","miles_from_dt":22.34},{"city":"Walterboro","state_name":"South Carolina","lat":32.90664,"lng":-80.67458,"zip":"29488","miles_from_dt":22.37},{"city":"Lobeco","state_name":"South Carolina","lat":32.55392,"lng":-80.74539,"zip":"29931","miles_from_dt":23.47},{"city":"Ulmer","state_name":"South Carolina","lat":33.10168,"lng":-81.23641,"zip":"29849","miles_from_dt":24.41},{"city":"Allendale","state_name":"South Carolina","lat":32.99358,"lng":-81.3798,"zip":"29810","miles_from_dt":24.46},{"city":"Dale","state_name":"South Carolina","lat":32.55448,"lng":-80.6925,"zip":"29914","miles_from_dt":25.74},{"city":"Clyo","state_name":"Georgia","lat":32.49631,"lng":-81.30616,"zip":"31303","miles_from_dt":25.78},{"city":"Smoaks","state_name":"South Carolina","lat":33.11382,"lng":-80.80301,"zip":"29481","miles_from_dt":25.97},{"city":"Seabrook","state_name":"South Carolina","lat":32.5524,"lng":-80.67511,"zip":"29940","miles_from_dt":26.62},{"city":"Beaufort","state_name":"South Carolina","lat":32.47899,"lng":-80.72198,"zip":"29904","miles_from_dt":28.18},{"city":"Olar","state_name":"South Carolina","lat":33.18385,"lng":-81.18218,"zip":"29843","miles_from_dt":28.39},{"city":"Beaufort","state_name":"South Carolina","lat":32.44521,"lng":-80.75159,"zip":"29906","miles_from_dt":28.99},{"city":"Newington","state_name":"Georgia","lat":32.5599,"lng":-81.46734,"zip":"30446","miles_from_dt":29.86}],"targetCityZipCode":"29944","targetCityState":"South Carolina"},"__N_SSG":true}