{"pageProps":{"stateName":"South-carolina","cityName":"wagener","nearbyCities":[{"city":"Salley","state_name":"South Carolina","lat":33.59626,"lng":-81.32226,"zip":"29137","miles_from_dt":7.29},{"city":"Aiken","state_name":"South Carolina","lat":33.6495,"lng":-81.61044,"zip":"29805","miles_from_dt":10.65},{"city":"Aiken","state_name":"South Carolina","lat":33.5323,"lng":-81.57088,"zip":"29804","miles_from_dt":11.99},{"city":"Pelion","state_name":"South Carolina","lat":33.76563,"lng":-81.25844,"zip":"29123","miles_from_dt":12.21},{"city":"Springfield","state_name":"South Carolina","lat":33.50816,"lng":-81.29812,"zip":"29146","miles_from_dt":12.63},{"city":"Windsor","state_name":"South Carolina","lat":33.48365,"lng":-81.51276,"zip":"29856","miles_from_dt":12.96},{"city":"Monetta","state_name":"South Carolina","lat":33.80764,"lng":-81.59047,"zip":"29105","miles_from_dt":14.06},{"city":"Montmorenci","state_name":"South Carolina","lat":33.50628,"lng":-81.60047,"zip":"29839","miles_from_dt":14.47},{"city":"Aiken","state_name":"South Carolina","lat":33.58675,"lng":-81.69701,"zip":"29801","miles_from_dt":16.37},{"city":"Ridge Spring","state_name":"South Carolina","lat":33.79236,"lng":-81.66823,"zip":"29129","miles_from_dt":16.79},{"city":"Batesburg","state_name":"South Carolina","lat":33.87673,"lng":-81.55294,"zip":"29006","miles_from_dt":16.82},{"city":"Williston","state_name":"South Carolina","lat":33.39871,"lng":-81.43217,"zip":"29853","miles_from_dt":17.8},{"city":"Leesville","state_name":"South Carolina","lat":33.91742,"lng":-81.45517,"zip":"29070","miles_from_dt":18.03},{"city":"Aiken","state_name":"South Carolina","lat":33.56256,"lng":-81.72033,"zip":"29802","miles_from_dt":18.19},{"city":"Elko","state_name":"South Carolina","lat":33.383,"lng":-81.36697,"zip":"29826","miles_from_dt":19.19},{"city":"Lexington","state_name":"South Carolina","lat":33.89299,"lng":-81.23774,"zip":"29073","miles_from_dt":19.54},{"city":"North","state_name":"South Carolina","lat":33.62662,"lng":-81.0837,"zip":"29112","miles_from_dt":19.83},{"city":"Neeses","state_name":"South Carolina","lat":33.52348,"lng":-81.11856,"zip":"29107","miles_from_dt":19.97},{"city":"Gilbert","state_name":"South Carolina","lat":33.94834,"lng":-81.37875,"zip":"29054","miles_from_dt":20.26},{"city":"Aiken","state_name":"South Carolina","lat":33.45889,"lng":-81.70076,"zip":"29803","miles_from_dt":20.93},{"city":"Blackville","state_name":"South Carolina","lat":33.36989,"lng":-81.27096,"zip":"29817","miles_from_dt":21.71},{"city":"Vaucluse","state_name":"South Carolina","lat":33.60853,"lng":-81.80544,"zip":"29850","miles_from_dt":22.14},{"city":"New Ellenton","state_name":"South Carolina","lat":33.41653,"lng":-81.6889,"zip":"29809","miles_from_dt":22.47},{"city":"Gaston","state_name":"South Carolina","lat":33.82734,"lng":-81.08646,"zip":"29053","miles_from_dt":22.8},{"city":"Norway","state_name":"South Carolina","lat":33.43514,"lng":-81.13173,"zip":"29113","miles_from_dt":22.84},{"city":"Swansea","state_name":"South Carolina","lat":33.74358,"lng":-81.04188,"zip":"29160","miles_from_dt":22.91},{"city":"Ward","state_name":"South Carolina","lat":33.90102,"lng":-81.71304,"zip":"29166","miles_from_dt":23.58},{"city":"Trenton","state_name":"South Carolina","lat":33.69941,"lng":-81.84878,"zip":"29847","miles_from_dt":24.54},{"city":"Warrenville","state_name":"South Carolina","lat":33.51098,"lng":-81.81597,"zip":"29851","miles_from_dt":24.65},{"city":"Lexington","state_name":"South Carolina","lat":33.98098,"lng":-81.23501,"zip":"29071","miles_from_dt":24.88},{"city":"Gloverville","state_name":"South Carolina","lat":33.52299,"lng":-81.82891,"zip":"29828","miles_from_dt":25.01},{"city":"Lexington","state_name":"South Carolina","lat":33.9985,"lng":-81.27098,"zip":"29072","miles_from_dt":25.17},{"city":"Johnston","state_name":"South Carolina","lat":33.83922,"lng":-81.80656,"zip":"29832","miles_from_dt":25.26},{"city":"West Columbia","state_name":"South Carolina","lat":33.93929,"lng":-81.14487,"zip":"29170","miles_from_dt":25.3},{"city":"Graniteville","state_name":"South Carolina","lat":33.57715,"lng":-81.85537,"zip":"29829","miles_from_dt":25.37},{"city":"Langley","state_name":"South Carolina","lat":33.5178,"lng":-81.84216,"zip":"29834","miles_from_dt":25.86},{"city":"Columbia","state_name":"South Carolina","lat":34.0242,"lng":-81.29359,"zip":"29211","miles_from_dt":26.43},{"city":"Columbia","state_name":"South Carolina","lat":33.92082,"lng":-81.0903,"zip":"29228","miles_from_dt":26.52},{"city":"Columbia","state_name":"South Carolina","lat":33.90936,"lng":-81.07672,"zip":"29292","miles_from_dt":26.58},{"city":"West Columbia","state_name":"South Carolina","lat":33.90603,"lng":-81.07264,"zip":"29172","miles_from_dt":26.61},{"city":"Bath","state_name":"South Carolina","lat":33.50105,"lng":-81.87164,"zip":"29816","miles_from_dt":27.87},{"city":"Hilda","state_name":"South Carolina","lat":33.24191,"lng":-81.36178,"zip":"29813","miles_from_dt":28.84},{"city":"Denmark","state_name":"South Carolina","lat":33.30735,"lng":-81.14723,"zip":"29042","miles_from_dt":28.98},{"city":"Clearwater","state_name":"South Carolina","lat":33.49771,"lng":-81.89357,"zip":"29822","miles_from_dt":29.13},{"city":"Beech Island","state_name":"South Carolina","lat":33.44559,"lng":-81.8645,"zip":"29842","miles_from_dt":29.21},{"city":"West Columbia","state_name":"South Carolina","lat":33.97006,"lng":-81.07858,"zip":"29171","miles_from_dt":29.41},{"city":"Cayce","state_name":"South Carolina","lat":33.9552,"lng":-81.05691,"zip":"29033","miles_from_dt":29.55}],"targetCityZipCode":"29164","targetCityState":"South Carolina"},"__N_SSG":true}