{"pageProps":{"stateName":"South-carolina","cityName":"ward","nearbyCities":[{"city":"Johnston","state_name":"South Carolina","lat":33.83922,"lng":-81.80656,"zip":"29832","miles_from_dt":6.86},{"city":"Ridge Spring","state_name":"South Carolina","lat":33.79236,"lng":-81.66823,"zip":"29129","miles_from_dt":7.92},{"city":"Batesburg","state_name":"South Carolina","lat":33.87673,"lng":-81.55294,"zip":"29006","miles_from_dt":9.35},{"city":"Monetta","state_name":"South Carolina","lat":33.80764,"lng":-81.59047,"zip":"29105","miles_from_dt":9.54},{"city":"Saluda","state_name":"South Carolina","lat":34.04491,"lng":-81.77152,"zip":"29138","miles_from_dt":10.47},{"city":"Leesville","state_name":"South Carolina","lat":33.91742,"lng":-81.45517,"zip":"29070","miles_from_dt":14.86},{"city":"Trenton","state_name":"South Carolina","lat":33.69941,"lng":-81.84878,"zip":"29847","miles_from_dt":15.94},{"city":"Edgefield","state_name":"South Carolina","lat":33.81647,"lng":-81.99666,"zip":"29824","miles_from_dt":17.32},{"city":"Aiken","state_name":"South Carolina","lat":33.6495,"lng":-81.61044,"zip":"29805","miles_from_dt":18.31},{"city":"Gilbert","state_name":"South Carolina","lat":33.94834,"lng":-81.37875,"zip":"29054","miles_from_dt":19.48},{"city":"Vaucluse","state_name":"South Carolina","lat":33.60853,"lng":-81.80544,"zip":"29850","miles_from_dt":20.85},{"city":"Prosperity","state_name":"South Carolina","lat":34.16568,"lng":-81.51192,"zip":"29127","miles_from_dt":21.59},{"city":"Aiken","state_name":"South Carolina","lat":33.58675,"lng":-81.69701,"zip":"29801","miles_from_dt":21.68},{"city":"Chappells","state_name":"South Carolina","lat":34.18961,"lng":-81.86868,"zip":"29037","miles_from_dt":21.8},{"city":"Ninety Six","state_name":"South Carolina","lat":34.12345,"lng":-81.99121,"zip":"29666","miles_from_dt":22.13},{"city":"Silverstreet","state_name":"South Carolina","lat":34.21905,"lng":-81.77453,"zip":"29145","miles_from_dt":22.2},{"city":"Aiken","state_name":"South Carolina","lat":33.56256,"lng":-81.72033,"zip":"29802","miles_from_dt":23.33},{"city":"Wagener","state_name":"South Carolina","lat":33.65699,"lng":-81.42586,"zip":"29164","miles_from_dt":23.58},{"city":"Graniteville","state_name":"South Carolina","lat":33.57715,"lng":-81.85537,"zip":"29829","miles_from_dt":23.78},{"city":"North Augusta","state_name":"South Carolina","lat":33.60667,"lng":-81.97776,"zip":"29860","miles_from_dt":25.37},{"city":"Columbia","state_name":"South Carolina","lat":34.0242,"lng":-81.29359,"zip":"29211","miles_from_dt":25.54},{"city":"Lexington","state_name":"South Carolina","lat":33.9985,"lng":-81.27098,"zip":"29072","miles_from_dt":26.27},{"city":"Aiken","state_name":"South Carolina","lat":33.5323,"lng":-81.57088,"zip":"29804","miles_from_dt":26.7},{"city":"Gloverville","state_name":"South Carolina","lat":33.52299,"lng":-81.82891,"zip":"29828","miles_from_dt":26.9},{"city":"Chapin","state_name":"South Carolina","lat":34.13396,"lng":-81.33622,"zip":"29036","miles_from_dt":26.94},{"city":"Lexington","state_name":"South Carolina","lat":33.89299,"lng":-81.23774,"zip":"29073","miles_from_dt":27.32},{"city":"Langley","state_name":"South Carolina","lat":33.5178,"lng":-81.84216,"zip":"29834","miles_from_dt":27.44},{"city":"Warrenville","state_name":"South Carolina","lat":33.51098,"lng":-81.81597,"zip":"29851","miles_from_dt":27.53},{"city":"Pelion","state_name":"South Carolina","lat":33.76563,"lng":-81.25844,"zip":"29123","miles_from_dt":27.76},{"city":"Troy","state_name":"South Carolina","lat":33.99616,"lng":-82.18304,"zip":"29848","miles_from_dt":27.78},{"city":"Newberry","state_name":"South Carolina","lat":34.29805,"lng":-81.62433,"zip":"29108","miles_from_dt":27.83},{"city":"Montmorenci","state_name":"South Carolina","lat":33.50628,"lng":-81.60047,"zip":"29839","miles_from_dt":27.97},{"city":"Lexington","state_name":"South Carolina","lat":33.98098,"lng":-81.23501,"zip":"29071","miles_from_dt":28.01},{"city":"Little Mountain","state_name":"South Carolina","lat":34.19985,"lng":-81.37581,"zip":"29075","miles_from_dt":28.26},{"city":"Modoc","state_name":"South Carolina","lat":33.73452,"lng":-82.1667,"zip":"29838","miles_from_dt":28.51},{"city":"Plum Branch","state_name":"South Carolina","lat":33.8231,"lng":-82.20788,"zip":"29845","miles_from_dt":28.95},{"city":"North Augusta","state_name":"South Carolina","lat":33.52508,"lng":-81.93954,"zip":"29841","miles_from_dt":29.01},{"city":"Bath","state_name":"South Carolina","lat":33.50105,"lng":-81.87164,"zip":"29816","miles_from_dt":29.04},{"city":"Clarks Hill","state_name":"South Carolina","lat":33.64242,"lng":-82.11667,"zip":"29821","miles_from_dt":29.28},{"city":"Clearwater","state_name":"South Carolina","lat":33.49771,"lng":-81.89357,"zip":"29822","miles_from_dt":29.68},{"city":"Parksville","state_name":"South Carolina","lat":33.78528,"lng":-82.2142,"zip":"29844","miles_from_dt":29.91},{"city":"North Augusta","state_name":"South Carolina","lat":33.51754,"lng":-81.95859,"zip":"29861","miles_from_dt":29.98}],"targetCityZipCode":"29166","targetCityState":"South Carolina"},"__N_SSG":true}