{"pageProps":{"stateName":"Maine","cityName":"aurora","nearbyCities":[{"city":"Greenbush","state_name":"Maine","lat":45.07572,"lng":-68.50689,"zip":"04418","miles_from_dt":14.75},{"city":"Burlington","state_name":"Maine","lat":45.19923,"lng":-68.36728,"zip":"04417","miles_from_dt":16.03},{"city":"Milford","state_name":"Maine","lat":44.98057,"lng":-68.57243,"zip":"04461","miles_from_dt":16.67},{"city":"Bradley","state_name":"Maine","lat":44.88634,"lng":-68.56672,"zip":"04411","miles_from_dt":17.83},{"city":"Eddington","state_name":"Maine","lat":44.80643,"lng":-68.55584,"zip":"04428","miles_from_dt":20.21},{"city":"Cherryfield","state_name":"Maine","lat":44.75555,"lng":-67.95143,"zip":"04622","miles_from_dt":21.15},{"city":"Passadumkeag","state_name":"Maine","lat":45.1845,"lng":-68.58681,"zip":"04475","miles_from_dt":22.03},{"city":"Orono","state_name":"Maine","lat":44.90251,"lng":-68.66624,"zip":"04469","miles_from_dt":22.07},{"city":"West Enfield","state_name":"Maine","lat":45.23853,"lng":-68.53301,"zip":"04493","miles_from_dt":22.72},{"city":"Stillwater","state_name":"Maine","lat":44.91074,"lng":-68.69119,"zip":"04489","miles_from_dt":23.11},{"city":"Lee","state_name":"Maine","lat":45.3223,"lng":-68.27511,"zip":"04455","miles_from_dt":23.2},{"city":"Old Town","state_name":"Maine","lat":45.0263,"lng":-68.72323,"zip":"04468","miles_from_dt":24.19},{"city":"Ellsworth","state_name":"Maine","lat":44.66038,"lng":-68.41623,"zip":"04605","miles_from_dt":24.34},{"city":"Franklin","state_name":"Maine","lat":44.63457,"lng":-68.22253,"zip":"04634","miles_from_dt":24.39},{"city":"Orono","state_name":"Maine","lat":44.88594,"lng":-68.71888,"zip":"04473","miles_from_dt":24.87},{"city":"Holden","state_name":"Maine","lat":44.72039,"lng":-68.6171,"zip":"04429","miles_from_dt":26.41},{"city":"Wesley","state_name":"Maine","lat":44.98619,"lng":-67.69015,"zip":"04686","miles_from_dt":26.58},{"city":"Brewer","state_name":"Maine","lat":44.78354,"lng":-68.73517,"zip":"04412","miles_from_dt":28.42},{"city":"Springfield","state_name":"Maine","lat":45.39371,"lng":-68.1006,"zip":"04487","miles_from_dt":28.77},{"city":"Bangor","state_name":"Maine","lat":44.83297,"lng":-68.78927,"zip":"04402","miles_from_dt":29.34},{"city":"Princeton","state_name":"Maine","lat":45.19846,"lng":-67.70543,"zip":"04668","miles_from_dt":29.6}],"targetCityZipCode":"04408","targetCityState":"Maine"},"__N_SSG":true}