{"pageProps":{"stateName":"Maine","cityName":"freedom","nearbyCities":[{"city":"Liberty","state_name":"Maine","lat":44.36712,"lng":-69.34029,"zip":"04949","miles_from_dt":7.05},{"city":"Thorndike","state_name":"Maine","lat":44.55286,"lng":-69.22354,"zip":"04986","miles_from_dt":7.17},{"city":"Albion","state_name":"Maine","lat":44.517,"lng":-69.44123,"zip":"04910","miles_from_dt":7.76},{"city":"Palermo","state_name":"Maine","lat":44.39602,"lng":-69.42709,"zip":"04354","miles_from_dt":7.84},{"city":"Morrill","state_name":"Maine","lat":44.40934,"lng":-69.14261,"zip":"04952","miles_from_dt":8.77},{"city":"Searsmont","state_name":"Maine","lat":44.36229,"lng":-69.19303,"zip":"04973","miles_from_dt":8.92},{"city":"Unity","state_name":"Maine","lat":44.59588,"lng":-69.35959,"zip":"04988","miles_from_dt":9.45},{"city":"China Village","state_name":"Maine","lat":44.48035,"lng":-69.51521,"zip":"04926","miles_from_dt":10.61},{"city":"Brooks","state_name":"Maine","lat":44.57256,"lng":-69.13326,"zip":"04921","miles_from_dt":11.14},{"city":"South China","state_name":"Maine","lat":44.41821,"lng":-69.53286,"zip":"04358","miles_from_dt":11.89},{"city":"Belfast","state_name":"Maine","lat":44.46643,"lng":-69.04156,"zip":"04915","miles_from_dt":12.86},{"city":"Washington","state_name":"Maine","lat":44.2734,"lng":-69.39105,"zip":"04574","miles_from_dt":13.98},{"city":"Union","state_name":"Maine","lat":44.26186,"lng":-69.27703,"zip":"04862","miles_from_dt":14.11},{"city":"Waterville","state_name":"Maine","lat":44.55449,"lng":-69.57037,"zip":"04901","miles_from_dt":14.63},{"city":"Troy","state_name":"Maine","lat":44.67915,"lng":-69.25361,"zip":"04987","miles_from_dt":14.95},{"city":"Lincolnville Center","state_name":"Maine","lat":44.29488,"lng":-69.10973,"zip":"04850","miles_from_dt":15.13},{"city":"East Vassalboro","state_name":"Maine","lat":44.44977,"lng":-69.60836,"zip":"04935","miles_from_dt":15.2},{"city":"Hope","state_name":"Maine","lat":44.25104,"lng":-69.18962,"zip":"04847","miles_from_dt":15.81},{"city":"Burnham","state_name":"Maine","lat":44.68739,"lng":-69.38255,"zip":"04922","miles_from_dt":15.84},{"city":"North Vassalboro","state_name":"Maine","lat":44.4757,"lng":-69.62456,"zip":"04962","miles_from_dt":15.98},{"city":"Monroe","state_name":"Maine","lat":44.60716,"lng":-69.04575,"zip":"04951","miles_from_dt":15.99},{"city":"Lincolnville","state_name":"Maine","lat":44.3179,"lng":-69.04753,"zip":"04849","miles_from_dt":16.19},{"city":"Waterville","state_name":"Maine","lat":44.54033,"lng":-69.63501,"zip":"04903","miles_from_dt":17.26},{"city":"Vassalboro","state_name":"Maine","lat":44.4299,"lng":-69.64784,"zip":"04989","miles_from_dt":17.3},{"city":"Windsor","state_name":"Maine","lat":44.31101,"lng":-69.57807,"zip":"04363","miles_from_dt":17.35},{"city":"Dixmont","state_name":"Maine","lat":44.6957,"lng":-69.13335,"zip":"04932","miles_from_dt":17.94},{"city":"Shawmut","state_name":"Maine","lat":44.62549,"lng":-69.58837,"zip":"04975","miles_from_dt":17.96},{"city":"Clinton","state_name":"Maine","lat":44.67021,"lng":-69.53589,"zip":"04927","miles_from_dt":18.27},{"city":"Searsport","state_name":"Maine","lat":44.4893,"lng":-68.92996,"zip":"04974","miles_from_dt":18.45},{"city":"Coopers Mills","state_name":"Maine","lat":44.25997,"lng":-69.55485,"zip":"04341","miles_from_dt":18.93},{"city":"Camden","state_name":"Maine","lat":44.22929,"lng":-69.08924,"zip":"04843","miles_from_dt":19.41},{"city":"Jefferson","state_name":"Maine","lat":44.21521,"lng":-69.49922,"zip":"04348","miles_from_dt":19.85},{"city":"West Rockport","state_name":"Maine","lat":44.18957,"lng":-69.15183,"zip":"04865","miles_from_dt":20.44},{"city":"Detroit","state_name":"Maine","lat":44.76238,"lng":-69.31131,"zip":"04929","miles_from_dt":20.51},{"city":"Frankfort","state_name":"Maine","lat":44.59856,"lng":-68.91904,"zip":"04438","miles_from_dt":21.02},{"city":"Plymouth","state_name":"Maine","lat":44.77019,"lng":-69.22461,"zip":"04969","miles_from_dt":21.39},{"city":"Rockport","state_name":"Maine","lat":44.17798,"lng":-69.12007,"zip":"04856","miles_from_dt":21.79},{"city":"Fairfield","state_name":"Maine","lat":44.63546,"lng":-69.67635,"zip":"04937","miles_from_dt":21.91},{"city":"Islesboro","state_name":"Maine","lat":44.31083,"lng":-68.90896,"zip":"04848","miles_from_dt":22.18},{"city":"Pittsfield","state_name":"Maine","lat":44.77138,"lng":-69.43866,"zip":"04967","miles_from_dt":22.18},{"city":"Stockton Springs","state_name":"Maine","lat":44.53228,"lng":-68.85941,"zip":"04981","miles_from_dt":22.34},{"city":"Augusta","state_name":"Maine","lat":44.36387,"lng":-69.73729,"zip":"04330","miles_from_dt":22.67},{"city":"Hinckley","state_name":"Maine","lat":44.68737,"lng":-69.64237,"zip":"04944","miles_from_dt":22.75},{"city":"Warren","state_name":"Maine","lat":44.12946,"lng":-69.24481,"zip":"04864","miles_from_dt":23.37},{"city":"Winterport","state_name":"Maine","lat":44.65839,"lng":-68.91189,"zip":"04496","miles_from_dt":23.41},{"city":"Etna","state_name":"Maine","lat":44.78529,"lng":-69.13385,"zip":"04434","miles_from_dt":23.59},{"city":"Augusta","state_name":"Maine","lat":44.3348,"lng":-69.74285,"zip":"04336","miles_from_dt":23.63},{"city":"Whitefield","state_name":"Maine","lat":44.2052,"lng":-69.6126,"zip":"04353","miles_from_dt":23.67},{"city":"Augusta","state_name":"Maine","lat":44.33536,"lng":-69.74456,"zip":"04332","miles_from_dt":23.69},{"city":"Sandy Point","state_name":"Maine","lat":44.51252,"lng":-68.81108,"zip":"04972","miles_from_dt":24.47},{"city":"Rockland","state_name":"Maine","lat":44.12739,"lng":-69.13686,"zip":"04841","miles_from_dt":24.73},{"city":"Waldoboro","state_name":"Maine","lat":44.10984,"lng":-69.36956,"zip":"04572","miles_from_dt":24.78},{"city":"East Newport","state_name":"Maine","lat":44.82036,"lng":-69.22429,"zip":"04933","miles_from_dt":24.81},{"city":"Canaan","state_name":"Maine","lat":44.77922,"lng":-69.54967,"zip":"04924","miles_from_dt":24.88},{"city":"Hampden","state_name":"Maine","lat":44.72591,"lng":-68.94585,"zip":"04444","miles_from_dt":25.14},{"city":"Castine","state_name":"Maine","lat":44.4111,"lng":-68.79524,"zip":"04421","miles_from_dt":25.33},{"city":"Augusta","state_name":"Maine","lat":44.31971,"lng":-69.77657,"zip":"04338","miles_from_dt":25.57},{"city":"Castine","state_name":"Maine","lat":44.39467,"lng":-68.78946,"zip":"04420","miles_from_dt":25.81},{"city":"Augusta","state_name":"Maine","lat":44.30952,"lng":-69.78352,"zip":"04333","miles_from_dt":26.17},{"city":"Oakland","state_name":"Maine","lat":44.56621,"lng":-69.81463,"zip":"04963","miles_from_dt":26.28},{"city":"Nobleboro","state_name":"Maine","lat":44.10597,"lng":-69.47687,"zip":"04555","miles_from_dt":26.29},{"city":"Palmyra","state_name":"Maine","lat":44.84563,"lng":-69.36272,"zip":"04965","miles_from_dt":26.43},{"city":"Thomaston","state_name":"Maine","lat":44.09302,"lng":-69.17483,"zip":"04861","miles_from_dt":26.47},{"city":"Carmel","state_name":"Maine","lat":44.7969,"lng":-69.03154,"zip":"04419","miles_from_dt":26.48},{"city":"Harborside","state_name":"Maine","lat":44.33906,"lng":-68.79591,"zip":"04642","miles_from_dt":26.51},{"city":"Belgrade","state_name":"Maine","lat":44.48959,"lng":-69.84167,"zip":"04917","miles_from_dt":26.75},{"city":"Randolph","state_name":"Maine","lat":44.23469,"lng":-69.75068,"zip":"04346","miles_from_dt":27.36},{"city":"Newport","state_name":"Maine","lat":44.86017,"lng":-69.23297,"zip":"04953","miles_from_dt":27.47},{"city":"Smithfield","state_name":"Maine","lat":44.63466,"lng":-69.80789,"zip":"04978","miles_from_dt":27.59},{"city":"Hallowell","state_name":"Maine","lat":44.29047,"lng":-69.81399,"zip":"04347","miles_from_dt":28.1},{"city":"Sunset","state_name":"Maine","lat":44.23596,"lng":-68.82368,"zip":"04683","miles_from_dt":28.49},{"city":"Belgrade Lakes","state_name":"Maine","lat":44.55027,"lng":-69.86651,"zip":"04918","miles_from_dt":28.52},{"city":"Brooksville","state_name":"Maine","lat":44.36929,"lng":-68.73081,"zip":"04617","miles_from_dt":29.02},{"city":"Manchester","state_name":"Maine","lat":44.33174,"lng":-69.86082,"zip":"04351","miles_from_dt":29.18},{"city":"Skowhegan","state_name":"Maine","lat":44.79873,"lng":-69.66951,"zip":"04976","miles_from_dt":29.3},{"city":"Bucksport","state_name":"Maine","lat":44.62725,"lng":-68.75286,"zip":"04416","miles_from_dt":29.31},{"city":"Farmingdale","state_name":"Maine","lat":44.2588,"lng":-69.82125,"zip":"04344","miles_from_dt":29.42},{"city":"Penobscot","state_name":"Maine","lat":44.47474,"lng":-68.70521,"zip":"04476","miles_from_dt":29.5},{"city":"Stetson","state_name":"Maine","lat":44.87586,"lng":-69.11143,"zip":"04488","miles_from_dt":29.85},{"city":"South Thomaston","state_name":"Maine","lat":44.04638,"lng":-69.1452,"zip":"04858","miles_from_dt":29.96}],"targetCityZipCode":"04941","targetCityState":"Maine"},"__N_SSG":true}