{"pageProps":{"stateName":"Maine","cityName":"plymouth","nearbyCities":[{"city":"East Newport","state_name":"Maine","lat":44.82036,"lng":-69.22429,"zip":"04933","miles_from_dt":3.46},{"city":"Detroit","state_name":"Maine","lat":44.76238,"lng":-69.31131,"zip":"04929","miles_from_dt":4.3},{"city":"Etna","state_name":"Maine","lat":44.78529,"lng":-69.13385,"zip":"04434","miles_from_dt":4.58},{"city":"Newport","state_name":"Maine","lat":44.86017,"lng":-69.23297,"zip":"04953","miles_from_dt":6.23},{"city":"Troy","state_name":"Maine","lat":44.67915,"lng":-69.25361,"zip":"04987","miles_from_dt":6.45},{"city":"Dixmont","state_name":"Maine","lat":44.6957,"lng":-69.13335,"zip":"04932","miles_from_dt":6.83},{"city":"Palmyra","state_name":"Maine","lat":44.84563,"lng":-69.36272,"zip":"04965","miles_from_dt":8.56},{"city":"Stetson","state_name":"Maine","lat":44.87586,"lng":-69.11143,"zip":"04488","miles_from_dt":9.17},{"city":"Burnham","state_name":"Maine","lat":44.68739,"lng":-69.38255,"zip":"04922","miles_from_dt":9.65},{"city":"Carmel","state_name":"Maine","lat":44.7969,"lng":-69.03154,"zip":"04419","miles_from_dt":9.67},{"city":"Pittsfield","state_name":"Maine","lat":44.77138,"lng":-69.43866,"zip":"04967","miles_from_dt":10.53},{"city":"Corinna","state_name":"Maine","lat":44.94973,"lng":-69.25695,"zip":"04928","miles_from_dt":12.5},{"city":"Levant","state_name":"Maine","lat":44.88645,"lng":-68.9977,"zip":"04456","miles_from_dt":13.74},{"city":"Unity","state_name":"Maine","lat":44.59588,"lng":-69.35959,"zip":"04988","miles_from_dt":13.75},{"city":"Saint Albans","state_name":"Maine","lat":44.93191,"lng":-69.39225,"zip":"04971","miles_from_dt":13.87},{"city":"Hampden","state_name":"Maine","lat":44.72591,"lng":-68.94585,"zip":"04444","miles_from_dt":14.05},{"city":"Exeter","state_name":"Maine","lat":44.96435,"lng":-69.13539,"zip":"04435","miles_from_dt":14.1},{"city":"Monroe","state_name":"Maine","lat":44.60716,"lng":-69.04575,"zip":"04951","miles_from_dt":14.29},{"city":"Brooks","state_name":"Maine","lat":44.57256,"lng":-69.13326,"zip":"04921","miles_from_dt":14.37},{"city":"Thorndike","state_name":"Maine","lat":44.55286,"lng":-69.22354,"zip":"04986","miles_from_dt":15.01},{"city":"Canaan","state_name":"Maine","lat":44.77922,"lng":-69.54967,"zip":"04924","miles_from_dt":16},{"city":"Hartland","state_name":"Maine","lat":44.87994,"lng":-69.52054,"zip":"04943","miles_from_dt":16.4},{"city":"Clinton","state_name":"Maine","lat":44.67021,"lng":-69.53589,"zip":"04927","miles_from_dt":16.81},{"city":"Winterport","state_name":"Maine","lat":44.65839,"lng":-68.91189,"zip":"04496","miles_from_dt":17.22},{"city":"Kenduskeag","state_name":"Maine","lat":44.91593,"lng":-68.92797,"zip":"04450","miles_from_dt":17.71},{"city":"Corinth","state_name":"Maine","lat":44.9805,"lng":-69.01063,"zip":"04427","miles_from_dt":17.92},{"city":"Dexter","state_name":"Maine","lat":45.02656,"lng":-69.32835,"zip":"04930","miles_from_dt":18.42},{"city":"Frankfort","state_name":"Maine","lat":44.59856,"lng":-68.91904,"zip":"04438","miles_from_dt":19.16},{"city":"Bangor","state_name":"Maine","lat":44.84711,"lng":-68.84654,"zip":"04401","miles_from_dt":19.33},{"city":"Garland","state_name":"Maine","lat":45.05436,"lng":-69.15859,"zip":"04939","miles_from_dt":19.89},{"city":"Albion","state_name":"Maine","lat":44.517,"lng":-69.44123,"zip":"04910","miles_from_dt":20.49},{"city":"Shawmut","state_name":"Maine","lat":44.62549,"lng":-69.58837,"zip":"04975","miles_from_dt":20.51},{"city":"Hinckley","state_name":"Maine","lat":44.68737,"lng":-69.64237,"zip":"04944","miles_from_dt":21.34},{"city":"Cambridge","state_name":"Maine","lat":45.03722,"lng":-69.44533,"zip":"04923","miles_from_dt":21.39},{"city":"Freedom","state_name":"Maine","lat":44.4654,"lng":-69.3017,"zip":"04941","miles_from_dt":21.39},{"city":"Bangor","state_name":"Maine","lat":44.83297,"lng":-68.78927,"zip":"04402","miles_from_dt":21.84},{"city":"Skowhegan","state_name":"Maine","lat":44.79873,"lng":-69.66951,"zip":"04976","miles_from_dt":21.97},{"city":"Orrington","state_name":"Maine","lat":44.71501,"lng":-68.77901,"zip":"04474","miles_from_dt":22.26},{"city":"Waterville","state_name":"Maine","lat":44.55449,"lng":-69.57037,"zip":"04901","miles_from_dt":22.63},{"city":"Charleston","state_name":"Maine","lat":45.07097,"lng":-69.03408,"zip":"04422","miles_from_dt":22.78},{"city":"Belfast","state_name":"Maine","lat":44.46643,"lng":-69.04156,"zip":"04915","miles_from_dt":22.83},{"city":"Hudson","state_name":"Maine","lat":44.99761,"lng":-68.88357,"zip":"04449","miles_from_dt":22.95},{"city":"Brewer","state_name":"Maine","lat":44.78354,"lng":-68.73517,"zip":"04412","miles_from_dt":24.09},{"city":"Fairfield","state_name":"Maine","lat":44.63546,"lng":-69.67635,"zip":"04937","miles_from_dt":24.11},{"city":"Searsport","state_name":"Maine","lat":44.4893,"lng":-68.92996,"zip":"04974","miles_from_dt":24.23},{"city":"Stockton Springs","state_name":"Maine","lat":44.53228,"lng":-68.85941,"zip":"04981","miles_from_dt":24.37},{"city":"China Village","state_name":"Maine","lat":44.48035,"lng":-69.51521,"zip":"04926","miles_from_dt":24.61},{"city":"Sangerville","state_name":"Maine","lat":45.12755,"lng":-69.30688,"zip":"04479","miles_from_dt":25},{"city":"Bucksport","state_name":"Maine","lat":44.62725,"lng":-68.75286,"zip":"04416","miles_from_dt":25.24},{"city":"Morrill","state_name":"Maine","lat":44.40934,"lng":-69.14261,"zip":"04952","miles_from_dt":25.24},{"city":"Waterville","state_name":"Maine","lat":44.54033,"lng":-69.63501,"zip":"04903","miles_from_dt":25.71},{"city":"Harmony","state_name":"Maine","lat":45.04148,"lng":-69.59241,"zip":"04942","miles_from_dt":26.01},{"city":"Orono","state_name":"Maine","lat":44.88594,"lng":-68.71888,"zip":"04473","miles_from_dt":26.1},{"city":"Athens","state_name":"Maine","lat":44.97286,"lng":-69.68045,"zip":"04912","miles_from_dt":26.4},{"city":"Bradford","state_name":"Maine","lat":45.08821,"lng":-68.90696,"zip":"04410","miles_from_dt":26.93},{"city":"Sandy Point","state_name":"Maine","lat":44.51252,"lng":-68.81108,"zip":"04972","miles_from_dt":27.06},{"city":"Palermo","state_name":"Maine","lat":44.39602,"lng":-69.42709,"zip":"04354","miles_from_dt":27.7},{"city":"Stillwater","state_name":"Maine","lat":44.91074,"lng":-68.69119,"zip":"04489","miles_from_dt":27.95},{"city":"Searsmont","state_name":"Maine","lat":44.36229,"lng":-69.19303,"zip":"04973","miles_from_dt":28.21},{"city":"North Vassalboro","state_name":"Maine","lat":44.4757,"lng":-69.62456,"zip":"04962","miles_from_dt":28.33},{"city":"Liberty","state_name":"Maine","lat":44.36712,"lng":-69.34029,"zip":"04949","miles_from_dt":28.41},{"city":"South China","state_name":"Maine","lat":44.41821,"lng":-69.53286,"zip":"04358","miles_from_dt":28.67},{"city":"Dover Foxcroft","state_name":"Maine","lat":45.1849,"lng":-69.15827,"zip":"04426","miles_from_dt":28.82},{"city":"Madison","state_name":"Maine","lat":44.83241,"lng":-69.80556,"zip":"04950","miles_from_dt":28.88},{"city":"Orono","state_name":"Maine","lat":44.90251,"lng":-68.66624,"zip":"04469","miles_from_dt":28.92},{"city":"East Vassalboro","state_name":"Maine","lat":44.44977,"lng":-69.60836,"zip":"04935","miles_from_dt":29.12}],"targetCityZipCode":"04969","targetCityState":"Maine"},"__N_SSG":true}