{"pageProps":{"stateName":"Maine","cityName":"shirley-mills","nearbyCities":[{"city":"Monson","state_name":"Maine","lat":45.29104,"lng":-69.50202,"zip":"04464","miles_from_dt":7.39},{"city":"Greenville Junction","state_name":"Maine","lat":45.47446,"lng":-69.69538,"zip":"04442","miles_from_dt":8.68},{"city":"Abbot","state_name":"Maine","lat":45.2186,"lng":-69.57816,"zip":"04406","miles_from_dt":10.07},{"city":"West Forks","state_name":"Maine","lat":45.3751,"lng":-69.8746,"zip":"04985","miles_from_dt":12.64},{"city":"Guilford","state_name":"Maine","lat":45.24412,"lng":-69.40572,"zip":"04443","miles_from_dt":13.07},{"city":"Caratunk","state_name":"Maine","lat":45.21477,"lng":-69.90509,"zip":"04925","miles_from_dt":17.39},{"city":"Bingham","state_name":"Maine","lat":45.11323,"lng":-69.83863,"zip":"04920","miles_from_dt":20.34},{"city":"Sangerville","state_name":"Maine","lat":45.12755,"lng":-69.30688,"zip":"04479","miles_from_dt":22.11},{"city":"Harmony","state_name":"Maine","lat":45.04148,"lng":-69.59241,"zip":"04942","miles_from_dt":22.16},{"city":"Cambridge","state_name":"Maine","lat":45.03722,"lng":-69.44533,"zip":"04923","miles_from_dt":23.92},{"city":"Dover Foxcroft","state_name":"Maine","lat":45.1849,"lng":-69.15827,"zip":"04426","miles_from_dt":25.43},{"city":"Brownville","state_name":"Maine","lat":45.40654,"lng":-69.08568,"zip":"04414","miles_from_dt":25.97},{"city":"Sebec","state_name":"Maine","lat":45.24298,"lng":-69.10423,"zip":"04481","miles_from_dt":26.24},{"city":"Rockwood","state_name":"Maine","lat":45.7299,"lng":-69.76857,"zip":"04478","miles_from_dt":26.47},{"city":"Greenville","state_name":"Maine","lat":45.68984,"lng":-69.32252,"zip":"04441","miles_from_dt":26.74},{"city":"Athens","state_name":"Maine","lat":44.97286,"lng":-69.68045,"zip":"04912","miles_from_dt":27.06},{"city":"Dexter","state_name":"Maine","lat":45.02656,"lng":-69.32835,"zip":"04930","miles_from_dt":27.08},{"city":"Brownville Junction","state_name":"Maine","lat":45.35308,"lng":-69.05832,"zip":"04415","miles_from_dt":27.14}],"targetCityZipCode":"04485","targetCityState":"Maine"},"__N_SSG":true}