{"pageProps":{"stateName":"Washington","cityName":"anacortes","nearbyCities":[{"city":"Blakely Island","state_name":"Washington","lat":48.56085,"lng":-122.80263,"zip":"98222","miles_from_dt":7.86},{"city":"La Conner","state_name":"Washington","lat":48.415,"lng":-122.50879,"zip":"98257","miles_from_dt":9.09},{"city":"Lopez Island","state_name":"Washington","lat":48.48381,"lng":-122.88302,"zip":"98261","miles_from_dt":10.59},{"city":"Oak Harbor","state_name":"Washington","lat":48.34388,"lng":-122.66491,"zip":"98278","miles_from_dt":11.07},{"city":"Bow","state_name":"Washington","lat":48.56531,"lng":-122.41498,"zip":"98232","miles_from_dt":11.77},{"city":"Olga","state_name":"Washington","lat":48.64474,"lng":-122.80602,"zip":"98279","miles_from_dt":11.96},{"city":"Oak Harbor","state_name":"Washington","lat":48.31688,"lng":-122.63152,"zip":"98277","miles_from_dt":12.97},{"city":"Lummi Island","state_name":"Washington","lat":48.69317,"lng":-122.66406,"zip":"98262","miles_from_dt":13.08},{"city":"Orcas","state_name":"Washington","lat":48.60866,"lng":-122.90554,"zip":"98280","miles_from_dt":13.6},{"city":"Burlington","state_name":"Washington","lat":48.50309,"lng":-122.35102,"zip":"98233","miles_from_dt":13.93},{"city":"Shaw Island","state_name":"Washington","lat":48.57262,"lng":-122.95712,"zip":"98286","miles_from_dt":14.68},{"city":"Mount Vernon","state_name":"Washington","lat":48.40522,"lng":-122.36841,"zip":"98273","miles_from_dt":14.81},{"city":"Eastsound","state_name":"Washington","lat":48.66241,"lng":-122.91616,"zip":"98245","miles_from_dt":16.24},{"city":"Bellingham","state_name":"Washington","lat":48.69615,"lng":-122.40979,"zip":"98229","miles_from_dt":17.37},{"city":"Deer Harbor","state_name":"Washington","lat":48.61512,"lng":-122.99882,"zip":"98243","miles_from_dt":17.57},{"city":"Conway","state_name":"Washington","lat":48.33563,"lng":-122.34444,"zip":"98238","miles_from_dt":18.4},{"city":"Bellingham","state_name":"Washington","lat":48.74372,"lng":-122.46766,"zip":"98228","miles_from_dt":18.64},{"city":"Bellingham","state_name":"Washington","lat":48.75461,"lng":-122.50307,"zip":"98225","miles_from_dt":18.65},{"city":"Clearlake","state_name":"Washington","lat":48.4602,"lng":-122.22846,"zip":"98235","miles_from_dt":19.8},{"city":"Friday Harbor","state_name":"Washington","lat":48.55264,"lng":-123.09631,"zip":"98250","miles_from_dt":20.56},{"city":"Coupeville","state_name":"Washington","lat":48.18926,"lng":-122.65756,"zip":"98239","miles_from_dt":21.75},{"city":"Waldron","state_name":"Washington","lat":48.7005,"lng":-123.02834,"zip":"98297","miles_from_dt":21.87},{"city":"Bellingham","state_name":"Washington","lat":48.80064,"lng":-122.42299,"zip":"98226","miles_from_dt":23.07},{"city":"Bellingham","state_name":"Washington","lat":48.80007,"lng":-122.40786,"zip":"98227","miles_from_dt":23.36},{"city":"Camano Island","state_name":"Washington","lat":48.18719,"lng":-122.46966,"zip":"98282","miles_from_dt":23.49},{"city":"Acme","state_name":"Washington","lat":48.68526,"lng":-122.19678,"zip":"98220","miles_from_dt":24.43},{"city":"Sedro Woolley","state_name":"Washington","lat":48.55211,"lng":-122.11763,"zip":"98284","miles_from_dt":24.86},{"city":"Ferndale","state_name":"Washington","lat":48.86494,"lng":-122.62211,"zip":"98248","miles_from_dt":24.98},{"city":"Stanwood","state_name":"Washington","lat":48.22455,"lng":-122.3032,"zip":"98292","miles_from_dt":25.18},{"city":"Mount Vernon","state_name":"Washington","lat":48.36013,"lng":-122.14346,"zip":"98274","miles_from_dt":25.51},{"city":"Lyman","state_name":"Washington","lat":48.52281,"lng":-122.0657,"zip":"98263","miles_from_dt":27.05},{"city":"Silvana","state_name":"Washington","lat":48.19051,"lng":-122.25032,"zip":"98287","miles_from_dt":28.56},{"city":"North Lakewood","state_name":"Washington","lat":48.16499,"lng":-122.2992,"zip":"98259","miles_from_dt":28.57},{"city":"Greenbank","state_name":"Washington","lat":48.079,"lng":-122.57568,"zip":"98253","miles_from_dt":29.59}],"targetCityZipCode":"98221","targetCityState":"Washington"},"__N_SSG":true}