{"pageProps":{"stateName":"Washington","cityName":"ariel","nearbyCities":[{"city":"Amboy","state_name":"Washington","lat":45.93439,"lng":-122.43857,"zip":"98601","miles_from_dt":7.5},{"city":"Kalama","state_name":"Washington","lat":46.10871,"lng":-122.56093,"zip":"98625","miles_from_dt":8.18},{"city":"Yacolt","state_name":"Washington","lat":45.86349,"lng":-122.33104,"zip":"98675","miles_from_dt":13.07},{"city":"Woodland","state_name":"Washington","lat":45.94672,"lng":-122.65568,"zip":"98674","miles_from_dt":13.12},{"city":"Cougar","state_name":"Washington","lat":46.06227,"lng":-122.14599,"zip":"98616","miles_from_dt":13.25},{"city":"La Center","state_name":"Washington","lat":45.88109,"lng":-122.6148,"zip":"98629","miles_from_dt":14.56},{"city":"Heisson","state_name":"Washington","lat":45.82505,"lng":-122.48582,"zip":"98622","miles_from_dt":15.33},{"city":"Battle Ground","state_name":"Washington","lat":45.80013,"lng":-122.5054,"zip":"98604","miles_from_dt":17.22},{"city":"Kelso","state_name":"Washington","lat":46.15317,"lng":-122.78564,"zip":"98626","miles_from_dt":19.17},{"city":"Toutle","state_name":"Washington","lat":46.31504,"lng":-122.53415,"zip":"98649","miles_from_dt":19.62},{"city":"Columbia City","state_name":"Oregon","lat":45.8957,"lng":-122.81165,"zip":"97018","miles_from_dt":21.41},{"city":"Ridgefield","state_name":"Washington","lat":45.80262,"lng":-122.7019,"zip":"98642","miles_from_dt":21.41},{"city":"Carrolls","state_name":"Washington","lat":46.0717,"lng":-122.86569,"zip":"98609","miles_from_dt":21.53},{"city":"Brush Prairie","state_name":"Washington","lat":45.72921,"lng":-122.45615,"zip":"98606","miles_from_dt":21.69},{"city":"Vancouver","state_name":"Washington","lat":45.7239,"lng":-122.62305,"zip":"98686","miles_from_dt":24.07},{"city":"Vancouver","state_name":"Washington","lat":45.71241,"lng":-122.59705,"zip":"98666","miles_from_dt":24.33},{"city":"Vancouver","state_name":"Washington","lat":45.72107,"lng":-122.63074,"zip":"98668","miles_from_dt":24.4},{"city":"Deer Island","state_name":"Oregon","lat":45.95406,"lng":-122.92995,"zip":"97054","miles_from_dt":25.29},{"city":"Vancouver","state_name":"Washington","lat":45.68911,"lng":-122.57742,"zip":"98662","miles_from_dt":25.54},{"city":"Vancouver","state_name":"Washington","lat":45.67296,"lng":-122.48327,"zip":"98682","miles_from_dt":25.69},{"city":"Vancouver","state_name":"Washington","lat":45.71596,"lng":-122.69105,"zip":"98685","miles_from_dt":26.05},{"city":"Silverlake","state_name":"Washington","lat":46.32509,"lng":-122.77993,"zip":"98645","miles_from_dt":26.07},{"city":"Saint Helens","state_name":"Oregon","lat":45.88902,"lng":-122.92011,"zip":"97051","miles_from_dt":26.31},{"city":"Carson","state_name":"Washington","lat":45.77765,"lng":-122.01401,"zip":"98610","miles_from_dt":26.78},{"city":"Warren","state_name":"Oregon","lat":45.82695,"lng":-122.88401,"zip":"97053","miles_from_dt":26.85},{"city":"Vancouver","state_name":"Washington","lat":45.68155,"lng":-122.65417,"zip":"98665","miles_from_dt":27.35},{"city":"Camas","state_name":"Washington","lat":45.64395,"lng":-122.38242,"zip":"98607","miles_from_dt":27.57},{"city":"Rainier","state_name":"Oregon","lat":46.03905,"lng":-122.99483,"zip":"97048","miles_from_dt":27.65},{"city":"Mossyrock","state_name":"Washington","lat":46.45666,"lng":-122.43627,"zip":"98564","miles_from_dt":28.63},{"city":"Vancouver","state_name":"Washington","lat":45.6308,"lng":-122.51615,"zip":"98684","miles_from_dt":28.79},{"city":"Vancouver","state_name":"Washington","lat":45.6866,"lng":-122.73152,"zip":"98660","miles_from_dt":28.8},{"city":"Vancouver","state_name":"Washington","lat":45.62919,"lng":-122.51754,"zip":"98687","miles_from_dt":28.91},{"city":"Vancouver","state_name":"Washington","lat":45.65449,"lng":-122.66228,"zip":"98663","miles_from_dt":29.22},{"city":"Vancouver","state_name":"Washington","lat":45.63935,"lng":-122.62586,"zip":"98661","miles_from_dt":29.55},{"city":"Castle Rock","state_name":"Washington","lat":46.30642,"lng":-122.90479,"zip":"98611","miles_from_dt":29.56}],"targetCityZipCode":"98603","targetCityState":"Washington"},"__N_SSG":true}