{"pageProps":{"stateName":"Washington","cityName":"clinton","nearbyCities":[{"city":"Langley","state_name":"Washington","lat":48.03074,"lng":-122.45106,"zip":"98260","miles_from_dt":5.46},{"city":"Everett","state_name":"Washington","lat":48.01447,"lng":-122.32201,"zip":"98206","miles_from_dt":5.47},{"city":"Mukilteo","state_name":"Washington","lat":47.90994,"lng":-122.30113,"zip":"98275","miles_from_dt":5.84},{"city":"Freeland","state_name":"Washington","lat":48.01888,"lng":-122.53947,"zip":"98249","miles_from_dt":7.53},{"city":"Everett","state_name":"Washington","lat":47.90105,"lng":-122.2586,"zip":"98204","miles_from_dt":7.84},{"city":"Everett","state_name":"Washington","lat":47.94236,"lng":-122.23651,"zip":"98203","miles_from_dt":7.88},{"city":"Hansville","state_name":"Washington","lat":47.90622,"lng":-122.56406,"zip":"98340","miles_from_dt":8.22},{"city":"Everett","state_name":"Washington","lat":47.98793,"lng":-122.2229,"zip":"98207","miles_from_dt":8.68},{"city":"Everett","state_name":"Washington","lat":47.976,"lng":-122.21,"zip":"98213","miles_from_dt":9.12},{"city":"Edmonds","state_name":"Washington","lat":47.83555,"lng":-122.3316,"zip":"98026","miles_from_dt":9.12},{"city":"Lynnwood","state_name":"Washington","lat":47.8624,"lng":-122.2664,"zip":"98087","miles_from_dt":9.22},{"city":"Lynnwood","state_name":"Washington","lat":47.83873,"lng":-122.28463,"zip":"98037","miles_from_dt":9.95},{"city":"Lynnwood","state_name":"Washington","lat":47.83017,"lng":-122.30401,"zip":"98046","miles_from_dt":10},{"city":"Everett","state_name":"Washington","lat":47.99373,"lng":-122.18563,"zip":"98201","miles_from_dt":10.46},{"city":"Everett","state_name":"Washington","lat":47.90072,"lng":-122.18852,"zip":"98208","miles_from_dt":10.79},{"city":"Edmonds","state_name":"Washington","lat":47.80015,"lng":-122.37267,"zip":"98020","miles_from_dt":11.01},{"city":"Port Gamble","state_name":"Washington","lat":47.85455,"lng":-122.58638,"zip":"98364","miles_from_dt":11.06},{"city":"Mill Creek","state_name":"Washington","lat":47.85524,"lng":-122.22102,"zip":"98082","miles_from_dt":11.1},{"city":"Kingston","state_name":"Washington","lat":47.82005,"lng":-122.53399,"zip":"98346","miles_from_dt":11.27},{"city":"Greenbank","state_name":"Washington","lat":48.079,"lng":-122.57568,"zip":"98253","miles_from_dt":11.52},{"city":"Lynnwood","state_name":"Washington","lat":47.81094,"lng":-122.28155,"zip":"98036","miles_from_dt":11.66},{"city":"Marysville","state_name":"Washington","lat":48.09373,"lng":-122.23559,"zip":"98271","miles_from_dt":12.22},{"city":"Mountlake Terrace","state_name":"Washington","lat":47.7921,"lng":-122.30758,"zip":"98043","miles_from_dt":12.32},{"city":"Bothell","state_name":"Washington","lat":47.84205,"lng":-122.19813,"zip":"98012","miles_from_dt":12.5},{"city":"Seattle","state_name":"Washington","lat":47.77112,"lng":-122.38237,"zip":"98160","miles_from_dt":12.96},{"city":"Marysville","state_name":"Washington","lat":48.05952,"lng":-122.1443,"zip":"98270","miles_from_dt":13.96},{"city":"Snohomish","state_name":"Washington","lat":47.92897,"lng":-122.09989,"zip":"98291","miles_from_dt":14.29},{"city":"Port Ludlow","state_name":"Washington","lat":47.89545,"lng":-122.70271,"zip":"98365","miles_from_dt":14.5},{"city":"Bothell","state_name":"Washington","lat":47.79257,"lng":-122.20846,"zip":"98021","miles_from_dt":14.62},{"city":"Seattle","state_name":"Washington","lat":47.75609,"lng":-122.30039,"zip":"98155","miles_from_dt":14.77},{"city":"Seattle","state_name":"Washington","lat":47.74237,"lng":-122.37085,"zip":"98177","miles_from_dt":14.98},{"city":"Indianola","state_name":"Washington","lat":47.75475,"lng":-122.51952,"zip":"98342","miles_from_dt":15.03},{"city":"North Lakewood","state_name":"Washington","lat":48.16499,"lng":-122.2992,"zip":"98259","miles_from_dt":15.11},{"city":"Seattle","state_name":"Washington","lat":47.7399,"lng":-122.34432,"zip":"98133","miles_from_dt":15.33},{"city":"Nordland","state_name":"Washington","lat":48.05796,"lng":-122.70008,"zip":"98358","miles_from_dt":15.34},{"city":"Kenmore","state_name":"Washington","lat":47.75162,"lng":-122.24892,"zip":"98028","miles_from_dt":16},{"city":"Lake Stevens","state_name":"Washington","lat":48.03252,"lng":-122.07762,"zip":"98258","miles_from_dt":16.02},{"city":"Camano Island","state_name":"Washington","lat":48.18719,"lng":-122.46966,"zip":"98282","miles_from_dt":16.12},{"city":"Snohomish","state_name":"Washington","lat":47.84266,"lng":-122.10199,"zip":"98296","miles_from_dt":16.16},{"city":"Port Hadlock","state_name":"Washington","lat":48.02991,"lng":-122.74364,"zip":"98339","miles_from_dt":16.49},{"city":"Bothell","state_name":"Washington","lat":47.75402,"lng":-122.21613,"zip":"98041","miles_from_dt":16.6},{"city":"Bothell","state_name":"Washington","lat":47.75736,"lng":-122.19871,"zip":"98011","miles_from_dt":16.85},{"city":"Suquamish","state_name":"Washington","lat":47.73425,"lng":-122.5631,"zip":"98392","miles_from_dt":17.13},{"city":"Seattle","state_name":"Washington","lat":47.71706,"lng":-122.29969,"zip":"98125","miles_from_dt":17.35},{"city":"Chimacum","state_name":"Washington","lat":47.96093,"lng":-122.77911,"zip":"98325","miles_from_dt":17.38},{"city":"Poulsbo","state_name":"Washington","lat":47.75114,"lng":-122.62373,"zip":"98370","miles_from_dt":17.55},{"city":"Silvana","state_name":"Washington","lat":48.19051,"lng":-122.25032,"zip":"98287","miles_from_dt":17.58},{"city":"Woodinville","state_name":"Washington","lat":47.76151,"lng":-122.13153,"zip":"98072","miles_from_dt":18.59},{"city":"Seattle","state_name":"Washington","lat":47.6882,"lng":-122.38157,"zip":"98117","miles_from_dt":18.67},{"city":"Kirkland","state_name":"Washington","lat":47.71612,"lng":-122.21332,"zip":"98034","miles_from_dt":18.94},{"city":"Stanwood","state_name":"Washington","lat":48.22455,"lng":-122.3032,"zip":"98292","miles_from_dt":19},{"city":"Snohomish","state_name":"Washington","lat":47.95141,"lng":-121.98421,"zip":"98290","miles_from_dt":19.52},{"city":"Seattle","state_name":"Washington","lat":47.68547,"lng":-122.28234,"zip":"98115","miles_from_dt":19.67},{"city":"Seattle","state_name":"Washington","lat":47.67513,"lng":-122.34416,"zip":"98113","miles_from_dt":19.75},{"city":"Coupeville","state_name":"Washington","lat":48.18926,"lng":-122.65756,"zip":"98239","miles_from_dt":19.81},{"city":"Seattle","state_name":"Washington","lat":47.6732,"lng":-122.34258,"zip":"98103","miles_from_dt":19.89},{"city":"Seattle","state_name":"Washington","lat":47.66757,"lng":-122.37789,"zip":"98107","miles_from_dt":20.11},{"city":"Keyport","state_name":"Washington","lat":47.69972,"lng":-122.62366,"zip":"98345","miles_from_dt":20.55},{"city":"Seattle","state_name":"Washington","lat":47.66528,"lng":-122.29198,"zip":"98185","miles_from_dt":20.9},{"city":"Port Townsend","state_name":"Washington","lat":48.03879,"lng":-122.84406,"zip":"98368","miles_from_dt":21.12},{"city":"Seattle","state_name":"Washington","lat":47.65861,"lng":-122.31248,"zip":"98145","miles_from_dt":21.13},{"city":"Seattle","state_name":"Washington","lat":47.65139,"lng":-122.40223,"zip":"98199","miles_from_dt":21.19},{"city":"Seattle","state_name":"Washington","lat":47.66094,"lng":-122.28321,"zip":"98105","miles_from_dt":21.29},{"city":"Seattle","state_name":"Washington","lat":47.65466,"lng":-122.30752,"zip":"98195","miles_from_dt":21.44},{"city":"Kirkland","state_name":"Washington","lat":47.68257,"lng":-122.19107,"zip":"98083","miles_from_dt":21.47},{"city":"Woodinville","state_name":"Washington","lat":47.75263,"lng":-122.05754,"zip":"98077","miles_from_dt":21.49},{"city":"Silverdale","state_name":"Washington","lat":47.72263,"lng":-122.71444,"zip":"98315","miles_from_dt":21.73},{"city":"Kirkland","state_name":"Washington","lat":47.67616,"lng":-122.19267,"zip":"98033","miles_from_dt":21.83},{"city":"Seattle","state_name":"Washington","lat":47.64,"lng":-122.398,"zip":"98139","miles_from_dt":21.97},{"city":"Seattle","state_name":"Washington","lat":47.63943,"lng":-122.36932,"zip":"98119","miles_from_dt":22.07},{"city":"Rollingbay","state_name":"Washington","lat":47.65218,"lng":-122.54899,"zip":"98061","miles_from_dt":22.17},{"city":"Quilcene","state_name":"Washington","lat":47.8455,"lng":-122.85916,"zip":"98376","miles_from_dt":22.5},{"city":"Seattle","state_name":"Washington","lat":47.63627,"lng":-122.32337,"zip":"98102","miles_from_dt":22.55},{"city":"Bainbridge Island","state_name":"Washington","lat":47.64389,"lng":-122.54335,"zip":"98110","miles_from_dt":22.64},{"city":"Seattle","state_name":"Washington","lat":47.63128,"lng":-122.34486,"zip":"98109","miles_from_dt":22.75},{"city":"Seattle","state_name":"Washington","lat":47.63242,"lng":-122.28732,"zip":"98112","miles_from_dt":23.15},{"city":"Redmond","state_name":"Washington","lat":47.68148,"lng":-122.1203,"zip":"98052","miles_from_dt":23.24},{"city":"Redmond","state_name":"Washington","lat":47.67656,"lng":-122.11487,"zip":"98073","miles_from_dt":23.67},{"city":"Medina","state_name":"Washington","lat":47.63308,"lng":-122.23963,"zip":"98039","miles_from_dt":23.73},{"city":"Seattle","state_name":"Washington","lat":47.61548,"lng":-122.34668,"zip":"98121","miles_from_dt":23.82},{"city":"Seattle","state_name":"Washington","lat":47.61511,"lng":-122.33819,"zip":"98129","miles_from_dt":23.89},{"city":"Seattle","state_name":"Washington","lat":47.61361,"lng":-122.33502,"zip":"98191","miles_from_dt":24.02},{"city":"Seattle","state_name":"Washington","lat":47.61073,"lng":-122.3414,"zip":"98181","miles_from_dt":24.18},{"city":"Seattle","state_name":"Washington","lat":47.61119,"lng":-122.33454,"zip":"98101","miles_from_dt":24.18},{"city":"Seattle","state_name":"Washington","lat":47.61,"lng":-122.339,"zip":"98170","miles_from_dt":24.24},{"city":"Seattle","state_name":"Washington","lat":47.61024,"lng":-122.3347,"zip":"98111","miles_from_dt":24.25},{"city":"Seattle","state_name":"Washington","lat":47.60955,"lng":-122.33761,"zip":"98161","miles_from_dt":24.28},{"city":"Seattle","state_name":"Washington","lat":47.609,"lng":-122.337,"zip":"98141","miles_from_dt":24.32},{"city":"Seattle","state_name":"Washington","lat":47.60621,"lng":-122.33379,"zip":"98154","miles_from_dt":24.53},{"city":"Seattle","state_name":"Washington","lat":47.60639,"lng":-122.33083,"zip":"98127","miles_from_dt":24.54},{"city":"Seattle","state_name":"Washington","lat":47.60596,"lng":-122.33203,"zip":"98164","miles_from_dt":24.56},{"city":"Seattle","state_name":"Washington","lat":47.60985,"lng":-122.29569,"zip":"98122","miles_from_dt":24.59},{"city":"Seattle","state_name":"Washington","lat":47.60477,"lng":-122.33528,"zip":"98174","miles_from_dt":24.62},{"city":"Seattle","state_name":"Washington","lat":47.60356,"lng":-122.32944,"zip":"98165","miles_from_dt":24.74},{"city":"Seattle","state_name":"Washington","lat":47.60356,"lng":-122.32944,"zip":"98175","miles_from_dt":24.74},{"city":"Seattle","state_name":"Washington","lat":47.60044,"lng":-122.33004,"zip":"98104","miles_from_dt":24.95},{"city":"Seattle","state_name":"Washington","lat":47.599,"lng":-122.334,"zip":"98194","miles_from_dt":25.02},{"city":"Silverdale","state_name":"Washington","lat":47.66212,"lng":-122.71652,"zip":"98383","miles_from_dt":25.07},{"city":"Monroe","state_name":"Washington","lat":47.85834,"lng":-121.88457,"zip":"98272","miles_from_dt":25.12},{"city":"Bellevue","state_name":"Washington","lat":47.62002,"lng":-122.20499,"zip":"98015","miles_from_dt":25.14},{"city":"Bellevue","state_name":"Washington","lat":47.61865,"lng":-122.20548,"zip":"98004","miles_from_dt":25.22},{"city":"Bremerton","state_name":"Washington","lat":47.62829,"lng":-122.63793,"zip":"98311","miles_from_dt":25.24},{"city":"Bellevue","state_name":"Washington","lat":47.61802,"lng":-122.20183,"zip":"98009","miles_from_dt":25.32},{"city":"Tracyton","state_name":"Washington","lat":47.62011,"lng":-122.65127,"zip":"98393","miles_from_dt":26.02},{"city":"Bellevue","state_name":"Washington","lat":47.61494,"lng":-122.16814,"zip":"98005","miles_from_dt":26.14},{"city":"Conway","state_name":"Washington","lat":48.33563,"lng":-122.34444,"zip":"98238","miles_from_dt":26.24},{"city":"Seattle","state_name":"Washington","lat":47.58582,"lng":-122.29205,"zip":"98144","miles_from_dt":26.25},{"city":"Seattle","state_name":"Washington","lat":47.58006,"lng":-122.31255,"zip":"98114","miles_from_dt":26.46},{"city":"Duvall","state_name":"Washington","lat":47.74083,"lng":-121.93494,"zip":"98019","miles_from_dt":26.5},{"city":"Seattle","state_name":"Washington","lat":47.57722,"lng":-122.33354,"zip":"98124","miles_from_dt":26.52},{"city":"Seattle","state_name":"Washington","lat":47.57691,"lng":-122.33686,"zip":"98134","miles_from_dt":26.52},{"city":"Seattle","state_name":"Washington","lat":47.57399,"lng":-122.39503,"zip":"98116","miles_from_dt":26.54},{"city":"Bellevue","state_name":"Washington","lat":47.61392,"lng":-122.14378,"zip":"98007","miles_from_dt":26.7},{"city":"Oak Harbor","state_name":"Washington","lat":48.31688,"lng":-122.63152,"zip":"98277","miles_from_dt":26.92},{"city":"Redmond","state_name":"Washington","lat":47.66491,"lng":-122.02071,"zip":"98053","miles_from_dt":27.01},{"city":"Arlington","state_name":"Washington","lat":48.20994,"lng":-121.95081,"zip":"98223","miles_from_dt":27.28},{"city":"Bremerton","state_name":"Washington","lat":47.58939,"lng":-122.6175,"zip":"98310","miles_from_dt":27.33},{"city":"Bellevue","state_name":"Washington","lat":47.60551,"lng":-122.11219,"zip":"98008","miles_from_dt":27.91},{"city":"Mercer Island","state_name":"Washington","lat":47.56611,"lng":-122.232,"zip":"98040","miles_from_dt":28.25},{"city":"Seattle","state_name":"Washington","lat":47.54732,"lng":-122.37454,"zip":"98126","miles_from_dt":28.41},{"city":"Sammamish","state_name":"Washington","lat":47.62206,"lng":-122.04437,"zip":"98074","miles_from_dt":28.64},{"city":"Seattle","state_name":"Washington","lat":47.54339,"lng":-122.35366,"zip":"98106","miles_from_dt":28.75},{"city":"Seattle","state_name":"Washington","lat":47.53686,"lng":-122.38992,"zip":"98136","miles_from_dt":29.11},{"city":"Seattle","state_name":"Washington","lat":47.54113,"lng":-122.3126,"zip":"98108","miles_from_dt":29.12},{"city":"Manchester","state_name":"Washington","lat":47.53885,"lng":-122.49294,"zip":"98353","miles_from_dt":29.25},{"city":"Oak Harbor","state_name":"Washington","lat":48.34388,"lng":-122.66491,"zip":"98278","miles_from_dt":29.25},{"city":"Bremerton","state_name":"Washington","lat":47.56345,"lng":-122.63405,"zip":"98337","miles_from_dt":29.28},{"city":"Seattle","state_name":"Washington","lat":47.54235,"lng":-122.26872,"zip":"98118","miles_from_dt":29.41},{"city":"Bremerton","state_name":"Washington","lat":47.56243,"lng":-122.63893,"zip":"98314","miles_from_dt":29.43}],"targetCityZipCode":"98236","targetCityState":"Washington"},"__N_SSG":true}