{"pageProps":{"stateName":"Washington","cityName":"deer-park","nearbyCities":[{"city":"Clayton","state_name":"Washington","lat":48.0083,"lng":-117.58112,"zip":"99110","miles_from_dt":5.09},{"city":"Colbert","state_name":"Washington","lat":47.84405,"lng":-117.36346,"zip":"99005","miles_from_dt":10.11},{"city":"Chattaroy","state_name":"Washington","lat":47.91997,"lng":-117.27608,"zip":"99003","miles_from_dt":11.09},{"city":"Loon Lake","state_name":"Washington","lat":48.10874,"lng":-117.57514,"zip":"99148","miles_from_dt":11.23},{"city":"Nine Mile Falls","state_name":"Washington","lat":47.80375,"lng":-117.625,"zip":"99026","miles_from_dt":11.55},{"city":"Spokane","state_name":"Washington","lat":47.79976,"lng":-117.38468,"zip":"99228","miles_from_dt":12.03},{"city":"Spokane","state_name":"Washington","lat":47.78071,"lng":-117.46135,"zip":"99208","miles_from_dt":12.06},{"city":"Tumtum","state_name":"Washington","lat":47.8862,"lng":-117.76245,"zip":"99034","miles_from_dt":12.57},{"city":"Elk","state_name":"Washington","lat":48.0253,"lng":-117.24993,"zip":"99009","miles_from_dt":13.09},{"city":"Spokane","state_name":"Washington","lat":47.75894,"lng":-117.4087,"zip":"99218","miles_from_dt":14.15},{"city":"Spokane","state_name":"Washington","lat":47.75385,"lng":-117.41797,"zip":"99251","miles_from_dt":14.35},{"city":"Ford","state_name":"Washington","lat":47.88498,"lng":-117.83495,"zip":"99013","miles_from_dt":15.78},{"city":"Mead","state_name":"Washington","lat":47.84951,"lng":-117.18721,"zip":"99021","miles_from_dt":16.59},{"city":"Springdale","state_name":"Washington","lat":48.03702,"lng":-117.85708,"zip":"99173","miles_from_dt":17.13},{"city":"Spokane","state_name":"Washington","lat":47.69904,"lng":-117.44508,"zip":"99209","miles_from_dt":17.74},{"city":"Valley","state_name":"Washington","lat":48.1456,"lng":-117.76526,"zip":"99181","miles_from_dt":17.84},{"city":"Spokane","state_name":"Washington","lat":47.69657,"lng":-117.44609,"zip":"99205","miles_from_dt":17.9},{"city":"Spokane","state_name":"Washington","lat":47.7406,"lng":-117.26241,"zip":"99217","miles_from_dt":18.61},{"city":"Spokane","state_name":"Washington","lat":47.68941,"lng":-117.38911,"zip":"99207","miles_from_dt":19},{"city":"Spokane","state_name":"Washington","lat":47.66271,"lng":-117.43609,"zip":"99201","miles_from_dt":20.29},{"city":"Spokane","state_name":"Washington","lat":47.66346,"lng":-117.42294,"zip":"99260","miles_from_dt":20.35},{"city":"Spokane","state_name":"Washington","lat":47.66612,"lng":-117.40246,"zip":"99258","miles_from_dt":20.38},{"city":"Spokane","state_name":"Washington","lat":47.66255,"lng":-117.42316,"zip":"99256","miles_from_dt":20.41},{"city":"Newport","state_name":"Washington","lat":48.16211,"lng":-117.18826,"zip":"99156","miles_from_dt":20.81},{"city":"Spokane","state_name":"Washington","lat":47.64729,"lng":-117.53552,"zip":"99224","miles_from_dt":21.09},{"city":"Spokane","state_name":"Washington","lat":47.65088,"lng":-117.42189,"zip":"99210","miles_from_dt":21.21},{"city":"Spokane","state_name":"Washington","lat":47.65709,"lng":-117.37854,"zip":"99202","miles_from_dt":21.28},{"city":"Spokane","state_name":"Washington","lat":47.65726,"lng":-117.37767,"zip":"99252","miles_from_dt":21.28},{"city":"Spokane","state_name":"Washington","lat":47.64726,"lng":-117.42665,"zip":"99204","miles_from_dt":21.42},{"city":"Spokane","state_name":"Washington","lat":47.64887,"lng":-117.41245,"zip":"99220","miles_from_dt":21.44},{"city":"Spokane","state_name":"Washington","lat":47.71139,"lng":-117.20677,"zip":"99214","miles_from_dt":21.81},{"city":"Spokane","state_name":"Washington","lat":47.6653,"lng":-117.31012,"zip":"99211","miles_from_dt":21.89},{"city":"Airway Heights","state_name":"Washington","lat":47.63874,"lng":-117.58582,"zip":"99001","miles_from_dt":21.93},{"city":"Spokane","state_name":"Washington","lat":47.66504,"lng":-117.30914,"zip":"99212","miles_from_dt":21.93},{"city":"Spokane","state_name":"Washington","lat":47.62975,"lng":-117.54236,"zip":"99219","miles_from_dt":22.32},{"city":"Reardan","state_name":"Washington","lat":47.70639,"lng":-117.82406,"zip":"99029","miles_from_dt":22.39},{"city":"Newman Lake","state_name":"Washington","lat":47.78963,"lng":-117.08751,"zip":"99025","miles_from_dt":22.63},{"city":"Spokane","state_name":"Washington","lat":47.65658,"lng":-117.2911,"zip":"99213","miles_from_dt":22.82},{"city":"Spokane","state_name":"Washington","lat":47.69087,"lng":-117.20983,"zip":"99215","miles_from_dt":22.82},{"city":"Spokane","state_name":"Washington","lat":47.62945,"lng":-117.40291,"zip":"99203","miles_from_dt":22.84},{"city":"Wellpinit","state_name":"Washington","lat":47.90355,"lng":-117.99885,"zip":"99040","miles_from_dt":22.94},{"city":"Spokane","state_name":"Washington","lat":47.68142,"lng":-117.20826,"zip":"99216","miles_from_dt":23.39},{"city":"Fairchild Air Force Base","state_name":"Washington","lat":47.61867,"lng":-117.64839,"zip":"99011","miles_from_dt":23.92},{"city":"Otis Orchards","state_name":"Washington","lat":47.71107,"lng":-117.12795,"zip":"99027","miles_from_dt":24.36},{"city":"Spokane","state_name":"Washington","lat":47.62755,"lng":-117.25448,"zip":"99206","miles_from_dt":25.39},{"city":"Chewelah","state_name":"Washington","lat":48.29787,"lng":-117.69852,"zip":"99109","miles_from_dt":25.43},{"city":"Blanchard","state_name":"Idaho","lat":48.03714,"lng":-116.97315,"zip":"83804","miles_from_dt":25.59},{"city":"Medical Lake","state_name":"Washington","lat":47.60084,"lng":-117.70869,"zip":"99022","miles_from_dt":25.97},{"city":"Veradale","state_name":"Washington","lat":47.63734,"lng":-117.19756,"zip":"99037","miles_from_dt":26.17},{"city":"Spokane","state_name":"Washington","lat":47.58876,"lng":-117.334,"zip":"99223","miles_from_dt":26.41},{"city":"Usk","state_name":"Washington","lat":48.30925,"lng":-117.30663,"zip":"99180","miles_from_dt":26.41},{"city":"Marshall","state_name":"Washington","lat":47.56314,"lng":-117.49702,"zip":"99020","miles_from_dt":26.88},{"city":"Four Lakes","state_name":"Washington","lat":47.56111,"lng":-117.59666,"zip":"99014","miles_from_dt":27.31},{"city":"Oldtown","state_name":"Idaho","lat":48.16785,"lng":-117.0014,"zip":"83822","miles_from_dt":27.88},{"city":"Greenacres","state_name":"Washington","lat":47.6217,"lng":-117.14623,"zip":"99016","miles_from_dt":28.43},{"city":"Spirit Lake","state_name":"Idaho","lat":47.98095,"lng":-116.89239,"zip":"83869","miles_from_dt":28.73},{"city":"Rathdrum","state_name":"Idaho","lat":47.85245,"lng":-116.90173,"zip":"83858","miles_from_dt":29.09},{"city":"Post Falls","state_name":"Idaho","lat":47.7267,"lng":-116.97511,"zip":"83854","miles_from_dt":29.36},{"city":"Liberty Lake","state_name":"Washington","lat":47.64222,"lng":-117.07688,"zip":"99019","miles_from_dt":29.41}],"targetCityZipCode":"99006","targetCityState":"Washington"},"__N_SSG":true}