{"pageProps":{"stateName":"Washington","cityName":"deming","nearbyCities":[{"city":"Maple Falls","state_name":"Washington","lat":48.9576,"lng":-122.06189,"zip":"98266","miles_from_dt":12.67},{"city":"Acme","state_name":"Washington","lat":48.68526,"lng":-122.19678,"zip":"98220","miles_from_dt":14.11},{"city":"Sumas","state_name":"Washington","lat":48.97163,"lng":-122.2213,"zip":"98295","miles_from_dt":17.88},{"city":"Sedro Woolley","state_name":"Washington","lat":48.55211,"lng":-122.11763,"zip":"98284","miles_from_dt":18.69},{"city":"Hamilton","state_name":"Washington","lat":48.52353,"lng":-121.99203,"zip":"98255","miles_from_dt":18.88},{"city":"Everson","state_name":"Washington","lat":48.90459,"lng":-122.31732,"zip":"98247","miles_from_dt":19.01},{"city":"Lyman","state_name":"Washington","lat":48.52281,"lng":-122.0657,"zip":"98263","miles_from_dt":19.68},{"city":"Nooksack","state_name":"Washington","lat":48.92765,"lng":-122.32096,"zip":"98276","miles_from_dt":19.84},{"city":"Concrete","state_name":"Washington","lat":48.53272,"lng":-121.69748,"zip":"98237","miles_from_dt":21.1},{"city":"Bellingham","state_name":"Washington","lat":48.80007,"lng":-122.40786,"zip":"98227","miles_from_dt":21.56},{"city":"Bellingham","state_name":"Washington","lat":48.80064,"lng":-122.42299,"zip":"98226","miles_from_dt":22.26},{"city":"Bellingham","state_name":"Washington","lat":48.69615,"lng":-122.40979,"zip":"98229","miles_from_dt":22.71},{"city":"Bellingham","state_name":"Washington","lat":48.74372,"lng":-122.46766,"zip":"98228","miles_from_dt":24.55},{"city":"Bellingham","state_name":"Washington","lat":48.75461,"lng":-122.50307,"zip":"98225","miles_from_dt":26.06},{"city":"Lynden","state_name":"Washington","lat":48.94972,"lng":-122.45672,"zip":"98264","miles_from_dt":26.07},{"city":"Clearlake","state_name":"Washington","lat":48.4602,"lng":-122.22846,"zip":"98235","miles_from_dt":26.7},{"city":"Bow","state_name":"Washington","lat":48.56531,"lng":-122.41498,"zip":"98232","miles_from_dt":27.04},{"city":"Burlington","state_name":"Washington","lat":48.50309,"lng":-122.35102,"zip":"98233","miles_from_dt":27.69},{"city":"Rockport","state_name":"Washington","lat":48.80137,"lng":-121.29997,"zip":"98283","miles_from_dt":29.02}],"targetCityZipCode":"98244","targetCityState":"Washington"},"__N_SSG":true}