{"pageProps":{"stateName":"Washington","cityName":"doty","nearbyCities":[{"city":"Adna","state_name":"Washington","lat":46.57414,"lng":-123.29683,"zip":"98522","miles_from_dt":4.53},{"city":"Pe Ell","state_name":"Washington","lat":46.55256,"lng":-123.32429,"zip":"98572","miles_from_dt":6.37},{"city":"Chehalis","state_name":"Washington","lat":46.63628,"lng":-123.03444,"zip":"98532","miles_from_dt":11.36},{"city":"Curtis","state_name":"Washington","lat":46.47422,"lng":-123.15884,"zip":"98538","miles_from_dt":12.54},{"city":"Rochester","state_name":"Washington","lat":46.79406,"lng":-123.11952,"zip":"98579","miles_from_dt":13.03},{"city":"Galvin","state_name":"Washington","lat":46.73912,"lng":-123.02712,"zip":"98544","miles_from_dt":13.63},{"city":"Lebam","state_name":"Washington","lat":46.5583,"lng":-123.54985,"zip":"98554","miles_from_dt":14.27},{"city":"Raymond","state_name":"Washington","lat":46.6418,"lng":-123.60031,"zip":"98577","miles_from_dt":15.57},{"city":"Oakville","state_name":"Washington","lat":46.86467,"lng":-123.30235,"zip":"98568","miles_from_dt":15.74},{"city":"Menlo","state_name":"Washington","lat":46.62231,"lng":-123.64786,"zip":"98561","miles_from_dt":17.86},{"city":"Napavine","state_name":"Washington","lat":46.57838,"lng":-122.90693,"zip":"98565","miles_from_dt":17.91},{"city":"Winlock","state_name":"Washington","lat":46.49556,"lng":-122.95364,"zip":"98596","miles_from_dt":18.11},{"city":"Littlerock","state_name":"Washington","lat":46.88565,"lng":-123.1409,"zip":"98556","miles_from_dt":18.24},{"city":"Centralia","state_name":"Washington","lat":46.73646,"lng":-122.91364,"zip":"98531","miles_from_dt":18.4},{"city":"Cosmopolis","state_name":"Washington","lat":46.81719,"lng":-123.59768,"zip":"98537","miles_from_dt":19.78},{"city":"Vader","state_name":"Washington","lat":46.40767,"lng":-123.00807,"zip":"98593","miles_from_dt":20.3},{"city":"Grays River","state_name":"Washington","lat":46.4006,"lng":-123.54428,"zip":"98621","miles_from_dt":20.87},{"city":"Ryderwood","state_name":"Washington","lat":46.35875,"lng":-123.06865,"zip":"98581","miles_from_dt":21.6},{"city":"Malone","state_name":"Washington","lat":46.95884,"lng":-123.32749,"zip":"98559","miles_from_dt":22.33},{"city":"Bucoda","state_name":"Washington","lat":46.80519,"lng":-122.86804,"zip":"98530","miles_from_dt":22.45},{"city":"Skamokawa","state_name":"Washington","lat":46.32137,"lng":-123.4354,"zip":"98647","miles_from_dt":23.18},{"city":"Olympia","state_name":"Washington","lat":46.95326,"lng":-123.04259,"zip":"98512","miles_from_dt":24.39},{"city":"Tenino","state_name":"Washington","lat":46.84133,"lng":-122.82087,"zip":"98589","miles_from_dt":25.67},{"city":"Ethel","state_name":"Washington","lat":46.5293,"lng":-122.73155,"zip":"98542","miles_from_dt":26.86},{"city":"Satsop","state_name":"Washington","lat":47.00122,"lng":-123.4875,"zip":"98583","miles_from_dt":27.09},{"city":"Naselle","state_name":"Washington","lat":46.4047,"lng":-123.73588,"zip":"98638","miles_from_dt":27.31},{"city":"South Bend","state_name":"Washington","lat":46.55909,"lng":-123.8391,"zip":"98586","miles_from_dt":27.49},{"city":"Cathlamet","state_name":"Washington","lat":46.23462,"lng":-123.31194,"zip":"98612","miles_from_dt":27.9},{"city":"Mccleary","state_name":"Washington","lat":47.04332,"lng":-123.2681,"zip":"98557","miles_from_dt":28.02},{"city":"Rosburg","state_name":"Washington","lat":46.30326,"lng":-123.62117,"zip":"98643","miles_from_dt":28.45},{"city":"Toledo","state_name":"Washington","lat":46.44224,"lng":-122.74671,"zip":"98591","miles_from_dt":28.49},{"city":"Castle Rock","state_name":"Washington","lat":46.30642,"lng":-122.90479,"zip":"98611","miles_from_dt":28.86},{"city":"Tumwater","state_name":"Washington","lat":46.986,"lng":-122.906,"zip":"98511","miles_from_dt":29.7}],"targetCityZipCode":"98539","targetCityState":"Washington"},"__N_SSG":true}