{"pageProps":{"stateName":"Washington","cityName":"evans","nearbyCities":[{"city":"Marcus","state_name":"Washington","lat":48.66443,"lng":-118.06125,"zip":"99151","miles_from_dt":6.33},{"city":"Kettle Falls","state_name":"Washington","lat":48.72571,"lng":-118.17509,"zip":"99141","miles_from_dt":9.2},{"city":"Colville","state_name":"Washington","lat":48.66067,"lng":-117.74333,"zip":"99114","miles_from_dt":11.78},{"city":"Northport","state_name":"Washington","lat":48.93007,"lng":-117.81753,"zip":"99157","miles_from_dt":15.22},{"city":"Orient","state_name":"Washington","lat":48.86895,"lng":-118.30122,"zip":"99160","miles_from_dt":17.53},{"city":"Laurier","state_name":"Washington","lat":48.95766,"lng":-118.29768,"zip":"99146","miles_from_dt":21.27},{"city":"Rice","state_name":"Washington","lat":48.41307,"lng":-118.11733,"zip":"99167","miles_from_dt":23.24},{"city":"Danville","state_name":"Washington","lat":48.94382,"lng":-118.45568,"zip":"99121","miles_from_dt":26.24},{"city":"Metaline","state_name":"Washington","lat":48.85066,"lng":-117.39748,"zip":"99152","miles_from_dt":27.51},{"city":"Addy","state_name":"Washington","lat":48.31889,"lng":-117.9483,"zip":"99101","miles_from_dt":28.83},{"city":"Malo","state_name":"Washington","lat":48.80622,"lng":-118.61071,"zip":"99150","miles_from_dt":29.47}],"targetCityZipCode":"99126","targetCityState":"Washington"},"__N_SSG":true}