{"pageProps":{"stateName":"Washington","cityName":"graham","nearbyCities":[{"city":"Kapowsin","state_name":"Washington","lat":46.98672,"lng":-122.22783,"zip":"98344","miles_from_dt":3.46},{"city":"Spanaway","state_name":"Washington","lat":47.0562,"lng":-122.39111,"zip":"98387","miles_from_dt":5.69},{"city":"Orting","state_name":"Washington","lat":47.03246,"lng":-122.1575,"zip":"98360","miles_from_dt":6.02},{"city":"Puyallup","state_name":"Washington","lat":47.10394,"lng":-122.32383,"zip":"98375","miles_from_dt":6.15},{"city":"Puyallup","state_name":"Washington","lat":47.12904,"lng":-122.26156,"zip":"98374","miles_from_dt":7.65},{"city":"Tacoma","state_name":"Washington","lat":47.12935,"lng":-122.37424,"zip":"98446","miles_from_dt":8.73},{"city":"Puyallup","state_name":"Washington","lat":47.14761,"lng":-122.32506,"zip":"98373","miles_from_dt":9.08},{"city":"Sumner","state_name":"Washington","lat":47.16432,"lng":-122.24237,"zip":"98352","miles_from_dt":10.21},{"city":"Tacoma","state_name":"Washington","lat":47.13985,"lng":-122.40965,"zip":"98445","miles_from_dt":10.24},{"city":"Roy","state_name":"Washington","lat":46.9918,"lng":-122.50101,"zip":"98580","miles_from_dt":10.45},{"city":"Tacoma","state_name":"Washington","lat":47.14531,"lng":-122.44392,"zip":"98447","miles_from_dt":11.54},{"city":"Bonney Lake","state_name":"Washington","lat":47.17654,"lng":-122.17362,"zip":"98391","miles_from_dt":12.04},{"city":"Tacoma","state_name":"Washington","lat":47.15228,"lng":-122.44887,"zip":"98444","miles_from_dt":12.06},{"city":"South Prairie","state_name":"Washington","lat":47.13791,"lng":-122.09469,"zip":"98385","miles_from_dt":12.1},{"city":"Eatonville","state_name":"Washington","lat":46.86055,"lng":-122.17227,"zip":"98328","miles_from_dt":12.16},{"city":"Puyallup","state_name":"Washington","lat":47.19957,"lng":-122.32191,"zip":"98371","miles_from_dt":12.59},{"city":"Lakewood","state_name":"Washington","lat":47.13164,"lng":-122.49603,"zip":"98439","miles_from_dt":12.68},{"city":"Mcchord Afb","state_name":"Washington","lat":47.13514,"lng":-122.49211,"zip":"98438","miles_from_dt":12.69},{"city":"Tacoma","state_name":"Washington","lat":47.05336,"lng":-122.55124,"zip":"98493","miles_from_dt":12.86},{"city":"Tacoma","state_name":"Washington","lat":47.05551,"lng":-122.55208,"zip":"98431","miles_from_dt":12.93},{"city":"Puyallup","state_name":"Washington","lat":47.2064,"lng":-122.26689,"zip":"98372","miles_from_dt":12.95},{"city":"Tacoma","state_name":"Washington","lat":47.17453,"lng":-122.44152,"zip":"98412","miles_from_dt":13.06},{"city":"Carbonado","state_name":"Washington","lat":46.98059,"lng":-122.006,"zip":"98323","miles_from_dt":13.38},{"city":"Sumner","state_name":"Washington","lat":47.21195,"lng":-122.22894,"zip":"98390","miles_from_dt":13.56},{"city":"Tacoma","state_name":"Washington","lat":47.20522,"lng":-122.37592,"zip":"98443","miles_from_dt":13.57},{"city":"La Grande","state_name":"Washington","lat":46.81989,"lng":-122.27713,"zip":"98348","miles_from_dt":13.78},{"city":"Buckley","state_name":"Washington","lat":47.15564,"lng":-122.06576,"zip":"98321","miles_from_dt":13.94},{"city":"Wilkeson","state_name":"Washington","lat":47.10669,"lng":-122.01052,"zip":"98396","miles_from_dt":14.23},{"city":"Mckenna","state_name":"Washington","lat":46.93579,"lng":-122.55998,"zip":"98558","miles_from_dt":14.29},{"city":"Tacoma","state_name":"Washington","lat":47.20927,"lng":-122.41139,"zip":"98404","miles_from_dt":14.45},{"city":"Tacoma","state_name":"Washington","lat":47.19811,"lng":-122.44638,"zip":"98408","miles_from_dt":14.55},{"city":"Lakewood","state_name":"Washington","lat":47.16662,"lng":-122.50624,"zip":"98499","miles_from_dt":14.63},{"city":"Lakewood","state_name":"Washington","lat":47.167,"lng":-122.509,"zip":"98496","miles_from_dt":14.74},{"city":"Camp Murray","state_name":"Washington","lat":47.11733,"lng":-122.56896,"zip":"98430","miles_from_dt":15.08},{"city":"Yelm","state_name":"Washington","lat":46.85241,"lng":-122.49212,"zip":"98597","miles_from_dt":15.18},{"city":"Fife","state_name":"Washington","lat":47.2343,"lng":-122.3523,"zip":"98424","miles_from_dt":15.2},{"city":"Tacoma","state_name":"Washington","lat":47.20848,"lng":-122.48047,"zip":"98413","miles_from_dt":16.04},{"city":"Tacoma","state_name":"Washington","lat":47.22325,"lng":-122.44642,"zip":"98418","miles_from_dt":16.05},{"city":"Tacoma","state_name":"Washington","lat":47.09121,"lng":-122.60772,"zip":"98433","miles_from_dt":16.09},{"city":"Milton","state_name":"Washington","lat":47.25113,"lng":-122.31557,"zip":"98354","miles_from_dt":16.09},{"city":"Tacoma","state_name":"Washington","lat":47.21084,"lng":-122.48197,"zip":"98409","miles_from_dt":16.21},{"city":"Lakewood","state_name":"Washington","lat":47.16001,"lng":-122.55971,"zip":"98498","miles_from_dt":16.26},{"city":"Tacoma","state_name":"Washington","lat":47.21956,"lng":-122.47405,"zip":"98411","miles_from_dt":16.5},{"city":"Tacoma","state_name":"Washington","lat":47.221,"lng":-122.474,"zip":"98417","miles_from_dt":16.58},{"city":"Tacoma","state_name":"Washington","lat":47.221,"lng":-122.474,"zip":"98448","miles_from_dt":16.58},{"city":"Tacoma","state_name":"Washington","lat":47.221,"lng":-122.474,"zip":"98490","miles_from_dt":16.58},{"city":"Lakewood","state_name":"Washington","lat":47.17794,"lng":-122.54722,"zip":"98497","miles_from_dt":16.58},{"city":"Tacoma","state_name":"Washington","lat":47.221,"lng":-122.474,"zip":"98419","miles_from_dt":16.58},{"city":"Tacoma","state_name":"Washington","lat":47.22282,"lng":-122.47211,"zip":"98481","miles_from_dt":16.64},{"city":"Pacific","state_name":"Washington","lat":47.26079,"lng":-122.24822,"zip":"98047","miles_from_dt":16.77},{"city":"Tacoma","state_name":"Washington","lat":47.25819,"lng":-122.40107,"zip":"98421","miles_from_dt":17.41},{"city":"Tacoma","state_name":"Washington","lat":47.25021,"lng":-122.44056,"zip":"98402","miles_from_dt":17.59},{"city":"Auburn","state_name":"Washington","lat":47.24877,"lng":-122.11685,"zip":"98071","miles_from_dt":17.69},{"city":"University Place","state_name":"Washington","lat":47.2038,"lng":-122.5447,"zip":"98467","miles_from_dt":17.73},{"city":"Tacoma","state_name":"Washington","lat":47.25028,"lng":-122.44876,"zip":"98415","miles_from_dt":17.76},{"city":"Tacoma","state_name":"Washington","lat":47.25587,"lng":-122.44165,"zip":"98401","miles_from_dt":17.96},{"city":"Tacoma","state_name":"Washington","lat":47.24599,"lng":-122.47222,"zip":"98405","miles_from_dt":18.01},{"city":"Tacoma","state_name":"Washington","lat":47.25251,"lng":-122.47648,"zip":"98471","miles_from_dt":18.5},{"city":"Tacoma","state_name":"Washington","lat":47.22545,"lng":-122.53731,"zip":"98464","miles_from_dt":18.6},{"city":"Tacoma","state_name":"Washington","lat":47.22842,"lng":-122.53479,"zip":"98466","miles_from_dt":18.69},{"city":"Dupont","state_name":"Washington","lat":47.10203,"lng":-122.66061,"zip":"98327","miles_from_dt":18.7},{"city":"Tacoma","state_name":"Washington","lat":47.26581,"lng":-122.45921,"zip":"98403","miles_from_dt":18.94},{"city":"Elbe","state_name":"Washington","lat":46.75874,"lng":-122.15894,"zip":"98330","miles_from_dt":18.94},{"city":"Tacoma","state_name":"Washington","lat":47.26271,"lng":-122.48196,"zip":"98416","miles_from_dt":19.24},{"city":"Tacoma","state_name":"Washington","lat":47.28907,"lng":-122.39123,"zip":"98422","miles_from_dt":19.32},{"city":"Tacoma","state_name":"Washington","lat":47.24868,"lng":-122.53043,"zip":"98465","miles_from_dt":19.66},{"city":"Federal Way","state_name":"Washington","lat":47.30555,"lng":-122.3209,"zip":"98063","miles_from_dt":19.85},{"city":"Federal Way","state_name":"Washington","lat":47.30195,"lng":-122.35883,"zip":"98093","miles_from_dt":19.85},{"city":"Federal Way","state_name":"Washington","lat":47.30596,"lng":-122.31465,"zip":"98003","miles_from_dt":19.86},{"city":"Tacoma","state_name":"Washington","lat":47.26283,"lng":-122.50857,"zip":"98406","miles_from_dt":19.89},{"city":"Auburn","state_name":"Washington","lat":47.28851,"lng":-122.13123,"zip":"98092","miles_from_dt":19.93},{"city":"Auburn","state_name":"Washington","lat":47.30919,"lng":-122.26426,"zip":"98001","miles_from_dt":20.05},{"city":"Auburn","state_name":"Washington","lat":47.3082,"lng":-122.21567,"zip":"98002","miles_from_dt":20.21},{"city":"Federal Way","state_name":"Washington","lat":47.30881,"lng":-122.36198,"zip":"98023","miles_from_dt":20.34},{"city":"Rainier","state_name":"Washington","lat":46.84417,"lng":-122.64687,"zip":"98576","miles_from_dt":21.02},{"city":"Olympia","state_name":"Washington","lat":46.99074,"lng":-122.73298,"zip":"98513","miles_from_dt":21.33},{"city":"Tacoma","state_name":"Washington","lat":47.28889,"lng":-122.5111,"zip":"98407","miles_from_dt":21.49},{"city":"Steilacoom","state_name":"Washington","lat":47.19892,"lng":-122.66268,"zip":"98388","miles_from_dt":21.77},{"city":"Anderson Island","state_name":"Washington","lat":47.15783,"lng":-122.70387,"zip":"98303","miles_from_dt":22.02},{"city":"Fox Island","state_name":"Washington","lat":47.24771,"lng":-122.62561,"zip":"98333","miles_from_dt":22.56},{"city":"Black Diamond","state_name":"Washington","lat":47.31173,"lng":-122.00326,"zip":"98010","miles_from_dt":24.13},{"city":"Olympia","state_name":"Washington","lat":47.09647,"lng":-122.78265,"zip":"98516","miles_from_dt":24.16},{"city":"Lacey","state_name":"Washington","lat":47.02528,"lng":-122.799,"zip":"98503","miles_from_dt":24.36},{"city":"Kent","state_name":"Washington","lat":47.36817,"lng":-122.19749,"zip":"98030","miles_from_dt":24.44},{"city":"Cinebar","state_name":"Washington","lat":46.67304,"lng":-122.43115,"zip":"98533","miles_from_dt":24.92},{"city":"Lacey","state_name":"Washington","lat":47.03624,"lng":-122.81069,"zip":"98509","miles_from_dt":24.93},{"city":"Gig Harbor","state_name":"Washington","lat":47.29909,"lng":-122.61911,"zip":"98335","miles_from_dt":24.98},{"city":"Kent","state_name":"Washington","lat":47.36508,"lng":-122.11623,"zip":"98042","miles_from_dt":25.15},{"city":"Mineral","state_name":"Washington","lat":46.69179,"lng":-122.03978,"zip":"98355","miles_from_dt":25.4},{"city":"Kent","state_name":"Washington","lat":47.38564,"lng":-122.20189,"zip":"98035","miles_from_dt":25.6},{"city":"Kent","state_name":"Washington","lat":47.387,"lng":-122.198,"zip":"98089","miles_from_dt":25.72},{"city":"Kent","state_name":"Washington","lat":47.3922,"lng":-122.25819,"zip":"98032","miles_from_dt":25.79},{"city":"East Olympia","state_name":"Washington","lat":46.96339,"lng":-122.82376,"zip":"98540","miles_from_dt":25.83},{"city":"Seattle","state_name":"Washington","lat":47.39469,"lng":-122.31111,"zip":"98198","miles_from_dt":25.97},{"city":"Kent","state_name":"Washington","lat":47.3959,"lng":-122.2392,"zip":"98064","miles_from_dt":26.1},{"city":"Longbranch","state_name":"Washington","lat":47.20353,"lng":-122.76773,"zip":"98351","miles_from_dt":26.15},{"city":"Burton","state_name":"Washington","lat":47.38908,"lng":-122.4594,"zip":"98013","miles_from_dt":26.86},{"city":"Kent","state_name":"Washington","lat":47.4055,"lng":-122.1943,"zip":"98031","miles_from_dt":27.01},{"city":"Olympia","state_name":"Washington","lat":47.02112,"lng":-122.86804,"zip":"98504","miles_from_dt":27.62},{"city":"Ashford","state_name":"Washington","lat":46.87036,"lng":-121.73985,"zip":"98304","miles_from_dt":27.7},{"city":"Olympia","state_name":"Washington","lat":47.03146,"lng":-122.87048,"zip":"98507","miles_from_dt":27.74},{"city":"Olympia","state_name":"Washington","lat":46.9783,"lng":-122.86989,"zip":"98501","miles_from_dt":27.86},{"city":"Olympia","state_name":"Washington","lat":46.99733,"lng":-122.87474,"zip":"98599","miles_from_dt":27.98},{"city":"Gig Harbor","state_name":"Washington","lat":47.36514,"lng":-122.59858,"zip":"98332","miles_from_dt":28.13},{"city":"Tenino","state_name":"Washington","lat":46.84133,"lng":-122.82087,"zip":"98589","miles_from_dt":28.24},{"city":"Olympia","state_name":"Washington","lat":47.10286,"lng":-122.87307,"zip":"98506","miles_from_dt":28.42},{"city":"Vashon","state_name":"Washington","lat":47.41219,"lng":-122.4726,"zip":"98070","miles_from_dt":28.57},{"city":"Lakebay","state_name":"Washington","lat":47.26583,"lng":-122.77366,"zip":"98349","miles_from_dt":28.7},{"city":"Ravensdale","state_name":"Washington","lat":47.3396,"lng":-121.89049,"zip":"98051","miles_from_dt":28.85},{"city":"Longmire","state_name":"Washington","lat":46.75076,"lng":-121.812,"zip":"98397","miles_from_dt":29.03},{"city":"Seattle","state_name":"Washington","lat":47.44494,"lng":-122.32587,"zip":"98148","miles_from_dt":29.47},{"city":"Tumwater","state_name":"Washington","lat":46.986,"lng":-122.906,"zip":"98511","miles_from_dt":29.51},{"city":"Seattle","state_name":"Washington","lat":47.44754,"lng":-122.27398,"zip":"98188","miles_from_dt":29.59},{"city":"Seattle","state_name":"Washington","lat":47.45043,"lng":-122.30805,"zip":"98158","miles_from_dt":29.81},{"city":"Renton","state_name":"Washington","lat":47.44775,"lng":-122.20205,"zip":"98055","miles_from_dt":29.85}],"targetCityZipCode":"98338","targetCityState":"Washington"},"__N_SSG":true}