{"pageProps":{"stateName":"Washington","cityName":"granite-falls","nearbyCities":[{"city":"Startup","state_name":"Washington","lat":47.87181,"lng":-121.74655,"zip":"98293","miles_from_dt":13.23},{"city":"Gold Bar","state_name":"Washington","lat":47.89812,"lng":-121.55752,"zip":"98251","miles_from_dt":13.32},{"city":"Snohomish","state_name":"Washington","lat":47.95141,"lng":-121.98421,"zip":"98290","miles_from_dt":14.85},{"city":"Arlington","state_name":"Washington","lat":48.20994,"lng":-121.95081,"zip":"98223","miles_from_dt":15.15},{"city":"Sultan","state_name":"Washington","lat":47.84431,"lng":-121.75822,"zip":"98294","miles_from_dt":15.19},{"city":"Monroe","state_name":"Washington","lat":47.85834,"lng":-121.88457,"zip":"98272","miles_from_dt":16.23},{"city":"Lake Stevens","state_name":"Washington","lat":48.03252,"lng":-122.07762,"zip":"98258","miles_from_dt":17.18},{"city":"Marysville","state_name":"Washington","lat":48.05952,"lng":-122.1443,"zip":"98270","miles_from_dt":20.14},{"city":"Snohomish","state_name":"Washington","lat":47.92897,"lng":-122.09989,"zip":"98291","miles_from_dt":20.3},{"city":"Darrington","state_name":"Washington","lat":48.21425,"lng":-121.33219,"zip":"98241","miles_from_dt":20.38},{"city":"Index","state_name":"Washington","lat":47.82883,"lng":-121.41464,"zip":"98256","miles_from_dt":21.12},{"city":"Everett","state_name":"Washington","lat":47.99373,"lng":-122.18563,"zip":"98201","miles_from_dt":22.57},{"city":"Baring","state_name":"Washington","lat":47.7357,"lng":-121.56859,"zip":"98224","miles_from_dt":23.46},{"city":"Snohomish","state_name":"Washington","lat":47.84266,"lng":-122.10199,"zip":"98296","miles_from_dt":23.69},{"city":"Everett","state_name":"Washington","lat":47.976,"lng":-122.21,"zip":"98213","miles_from_dt":23.95},{"city":"Everett","state_name":"Washington","lat":47.98793,"lng":-122.2229,"zip":"98207","miles_from_dt":24.34},{"city":"Marysville","state_name":"Washington","lat":48.09373,"lng":-122.23559,"zip":"98271","miles_from_dt":24.46},{"city":"Duvall","state_name":"Washington","lat":47.74083,"lng":-121.93494,"zip":"98019","miles_from_dt":24.52},{"city":"Everett","state_name":"Washington","lat":47.90072,"lng":-122.18852,"zip":"98208","miles_from_dt":24.85},{"city":"Everett","state_name":"Washington","lat":47.94236,"lng":-122.23651,"zip":"98203","miles_from_dt":25.8},{"city":"Carnation","state_name":"Washington","lat":47.69664,"lng":-121.84024,"zip":"98014","miles_from_dt":25.95},{"city":"Silvana","state_name":"Washington","lat":48.19051,"lng":-122.25032,"zip":"98287","miles_from_dt":26.56},{"city":"Woodinville","state_name":"Washington","lat":47.75263,"lng":-122.05754,"zip":"98077","miles_from_dt":26.79},{"city":"Bothell","state_name":"Washington","lat":47.84205,"lng":-122.19813,"zip":"98012","miles_from_dt":27.29},{"city":"Mill Creek","state_name":"Washington","lat":47.85524,"lng":-122.22102,"zip":"98082","miles_from_dt":27.7},{"city":"Everett","state_name":"Washington","lat":47.90105,"lng":-122.2586,"zip":"98204","miles_from_dt":27.79},{"city":"North Lakewood","state_name":"Washington","lat":48.16499,"lng":-122.2992,"zip":"98259","miles_from_dt":28.21},{"city":"Woodinville","state_name":"Washington","lat":47.76151,"lng":-122.13153,"zip":"98072","miles_from_dt":28.54},{"city":"Everett","state_name":"Washington","lat":48.01447,"lng":-122.32201,"zip":"98206","miles_from_dt":28.57},{"city":"Mount Vernon","state_name":"Washington","lat":48.36013,"lng":-122.14346,"zip":"98274","miles_from_dt":28.76},{"city":"Lynnwood","state_name":"Washington","lat":47.8624,"lng":-122.2664,"zip":"98087","miles_from_dt":29.29},{"city":"Mukilteo","state_name":"Washington","lat":47.90994,"lng":-122.30113,"zip":"98275","miles_from_dt":29.38},{"city":"Stanwood","state_name":"Washington","lat":48.22455,"lng":-122.3032,"zip":"98292","miles_from_dt":29.67},{"city":"Bothell","state_name":"Washington","lat":47.79257,"lng":-122.20846,"zip":"98021","miles_from_dt":29.71}],"targetCityZipCode":"98252","targetCityState":"Washington"},"__N_SSG":true}