{"pageProps":{"stateName":"Washington","cityName":"latah","nearbyCities":[{"city":"Waverly","state_name":"Washington","lat":47.33808,"lng":-117.23131,"zip":"99039","miles_from_dt":4.91},{"city":"Tekoa","state_name":"Washington","lat":47.23061,"lng":-117.09782,"zip":"99033","miles_from_dt":4.93},{"city":"Fairfield","state_name":"Washington","lat":47.38137,"lng":-117.19145,"zip":"99012","miles_from_dt":6.46},{"city":"Plummer","state_name":"Idaho","lat":47.29899,"lng":-116.90513,"zip":"83851","miles_from_dt":11.62},{"city":"Oakesdale","state_name":"Washington","lat":47.13305,"lng":-117.24008,"zip":"99158","miles_from_dt":11.72},{"city":"Rosalia","state_name":"Washington","lat":47.25132,"lng":-117.40203,"zip":"99170","miles_from_dt":12.08},{"city":"Rockford","state_name":"Washington","lat":47.47782,"lng":-117.11302,"zip":"99030","miles_from_dt":12.99},{"city":"Spangle","state_name":"Washington","lat":47.41973,"lng":-117.35991,"zip":"99031","miles_from_dt":13.17},{"city":"Farmington","state_name":"Washington","lat":47.10045,"lng":-117.08523,"zip":"99128","miles_from_dt":13.58},{"city":"Belmont","state_name":"Washington","lat":47.08531,"lng":-117.16111,"zip":"99104","miles_from_dt":14.26},{"city":"Worley","state_name":"Idaho","lat":47.44842,"lng":-116.93161,"zip":"83876","miles_from_dt":14.98},{"city":"Malden","state_name":"Washington","lat":47.225,"lng":-117.46794,"zip":"99149","miles_from_dt":15.55},{"city":"Desmet","state_name":"Idaho","lat":47.10638,"lng":-116.93901,"zip":"83824","miles_from_dt":16.27},{"city":"Valleyford","state_name":"Washington","lat":47.52005,"lng":-117.27197,"zip":"99036","miles_from_dt":16.75},{"city":"Tensed","state_name":"Idaho","lat":47.13862,"lng":-116.85372,"zip":"83870","miles_from_dt":17.58},{"city":"Thornton","state_name":"Washington","lat":47.09221,"lng":-117.41224,"zip":"99176","miles_from_dt":18.44},{"city":"Mica","state_name":"Washington","lat":47.56474,"lng":-117.14466,"zip":"99023","miles_from_dt":18.87},{"city":"Garfield","state_name":"Washington","lat":46.99917,"lng":-117.18556,"zip":"99130","miles_from_dt":20.27},{"city":"Steptoe","state_name":"Washington","lat":47.00719,"lng":-117.35682,"zip":"99174","miles_from_dt":21.89},{"city":"Spokane","state_name":"Washington","lat":47.58876,"lng":-117.334,"zip":"99223","miles_from_dt":22.22},{"city":"Greenacres","state_name":"Washington","lat":47.6217,"lng":-117.14623,"zip":"99016","miles_from_dt":22.8},{"city":"Spokane","state_name":"Washington","lat":47.62755,"lng":-117.25448,"zip":"99206","miles_from_dt":23.69},{"city":"Veradale","state_name":"Washington","lat":47.63734,"lng":-117.19756,"zip":"99037","miles_from_dt":23.97},{"city":"Cheney","state_name":"Washington","lat":47.40869,"lng":-117.63575,"zip":"99004","miles_from_dt":24.1},{"city":"Liberty Lake","state_name":"Washington","lat":47.64222,"lng":-117.07688,"zip":"99019","miles_from_dt":24.47},{"city":"Potlatch","state_name":"Idaho","lat":46.97188,"lng":-116.92464,"zip":"83855","miles_from_dt":24.56},{"city":"Marshall","state_name":"Washington","lat":47.56314,"lng":-117.49702,"zip":"99020","miles_from_dt":24.76},{"city":"Harrison","state_name":"Idaho","lat":47.51484,"lng":-116.73284,"zip":"83833","miles_from_dt":24.99},{"city":"Spokane","state_name":"Washington","lat":47.65658,"lng":-117.2911,"zip":"99213","miles_from_dt":26.03},{"city":"Spokane","state_name":"Washington","lat":47.62945,"lng":-117.40291,"zip":"99203","miles_from_dt":26.12},{"city":"Saint John","state_name":"Washington","lat":47.10485,"lng":-117.6495,"zip":"99171","miles_from_dt":26.74},{"city":"Spokane","state_name":"Washington","lat":47.66504,"lng":-117.30914,"zip":"99212","miles_from_dt":26.82},{"city":"Spokane","state_name":"Washington","lat":47.6653,"lng":-117.31012,"zip":"99211","miles_from_dt":26.85},{"city":"Spokane","state_name":"Washington","lat":47.68142,"lng":-117.20826,"zip":"99216","miles_from_dt":27.05},{"city":"Saint Maries","state_name":"Idaho","lat":47.2488,"lng":-116.57821,"zip":"83861","miles_from_dt":27.15},{"city":"Spokane","state_name":"Washington","lat":47.65709,"lng":-117.37854,"zip":"99202","miles_from_dt":27.38},{"city":"Spokane","state_name":"Washington","lat":47.65726,"lng":-117.37767,"zip":"99252","miles_from_dt":27.38},{"city":"Palouse","state_name":"Washington","lat":46.89496,"lng":-117.13169,"zip":"99161","miles_from_dt":27.42},{"city":"Spokane","state_name":"Washington","lat":47.64887,"lng":-117.41245,"zip":"99220","miles_from_dt":27.52},{"city":"Spokane","state_name":"Washington","lat":47.69087,"lng":-117.20983,"zip":"99215","miles_from_dt":27.71},{"city":"Spokane","state_name":"Washington","lat":47.64726,"lng":-117.42665,"zip":"99204","miles_from_dt":27.73},{"city":"Spokane","state_name":"Washington","lat":47.65088,"lng":-117.42189,"zip":"99210","miles_from_dt":27.85},{"city":"Four Lakes","state_name":"Washington","lat":47.56111,"lng":-117.59666,"zip":"99014","miles_from_dt":27.94},{"city":"Spokane","state_name":"Washington","lat":47.66612,"lng":-117.40246,"zip":"99258","miles_from_dt":28.4},{"city":"Spokane","state_name":"Washington","lat":47.66255,"lng":-117.42316,"zip":"99256","miles_from_dt":28.59},{"city":"Spokane","state_name":"Washington","lat":47.66346,"lng":-117.42294,"zip":"99260","miles_from_dt":28.64},{"city":"Spokane","state_name":"Washington","lat":47.66271,"lng":-117.43609,"zip":"99201","miles_from_dt":28.88},{"city":"Otis Orchards","state_name":"Washington","lat":47.71107,"lng":-117.12795,"zip":"99027","miles_from_dt":28.99},{"city":"Spokane","state_name":"Washington","lat":47.71139,"lng":-117.20677,"zip":"99214","miles_from_dt":29.11},{"city":"Spokane","state_name":"Washington","lat":47.68941,"lng":-117.38911,"zip":"99207","miles_from_dt":29.63},{"city":"Spokane","state_name":"Washington","lat":47.62975,"lng":-117.54236,"zip":"99219","miles_from_dt":29.66}],"targetCityZipCode":"99018","targetCityState":"Washington"},"__N_SSG":true}