{"pageProps":{"stateName":"Washington","cityName":"newport","nearbyCities":[{"city":"Oldtown","state_name":"Idaho","lat":48.16785,"lng":-117.0014,"zip":"83822","miles_from_dt":8.65},{"city":"Elk","state_name":"Washington","lat":48.0253,"lng":-117.24993,"zip":"99009","miles_from_dt":9.87},{"city":"Usk","state_name":"Washington","lat":48.30925,"lng":-117.30663,"zip":"99180","miles_from_dt":11.54},{"city":"Blanchard","state_name":"Idaho","lat":48.03714,"lng":-116.97315,"zip":"83804","miles_from_dt":13.18},{"city":"Chattaroy","state_name":"Washington","lat":47.91997,"lng":-117.27608,"zip":"99003","miles_from_dt":17.22},{"city":"Priest River","state_name":"Idaho","lat":48.34228,"lng":-116.91058,"zip":"83856","miles_from_dt":17.86},{"city":"Loon Lake","state_name":"Washington","lat":48.10874,"lng":-117.57514,"zip":"99148","miles_from_dt":18.27},{"city":"Spirit Lake","state_name":"Idaho","lat":47.98095,"lng":-116.89239,"zip":"83869","miles_from_dt":18.56},{"city":"Laclede","state_name":"Idaho","lat":48.19911,"lng":-116.77851,"zip":"83841","miles_from_dt":19.11},{"city":"Deer Park","state_name":"Washington","lat":47.95208,"lng":-117.51016,"zip":"99006","miles_from_dt":20.81},{"city":"Clayton","state_name":"Washington","lat":48.0083,"lng":-117.58112,"zip":"99110","miles_from_dt":21.06},{"city":"Mead","state_name":"Washington","lat":47.84951,"lng":-117.18721,"zip":"99021","miles_from_dt":21.6},{"city":"Colbert","state_name":"Washington","lat":47.84405,"lng":-117.36346,"zip":"99005","miles_from_dt":23.43},{"city":"Cusick","state_name":"Washington","lat":48.50946,"lng":-117.29994,"zip":"99119","miles_from_dt":24.55},{"city":"Rathdrum","state_name":"Idaho","lat":47.85245,"lng":-116.90173,"zip":"83858","miles_from_dt":25.18},{"city":"Chewelah","state_name":"Washington","lat":48.29787,"lng":-117.69852,"zip":"99109","miles_from_dt":25.35},{"city":"Cocolalla","state_name":"Idaho","lat":48.10462,"lng":-116.63734,"zip":"83813","miles_from_dt":25.79},{"city":"Newman Lake","state_name":"Washington","lat":47.78963,"lng":-117.08751,"zip":"99025","miles_from_dt":26.16},{"city":"Spokane","state_name":"Washington","lat":47.79976,"lng":-117.38468,"zip":"99228","miles_from_dt":26.64},{"city":"Valley","state_name":"Washington","lat":48.1456,"lng":-117.76526,"zip":"99181","miles_from_dt":26.7},{"city":"Dover","state_name":"Idaho","lat":48.24694,"lng":-116.6076,"zip":"83825","miles_from_dt":27.45},{"city":"Careywood","state_name":"Idaho","lat":48.06234,"lng":-116.58116,"zip":"83809","miles_from_dt":28.92},{"city":"Athol","state_name":"Idaho","lat":47.95631,"lng":-116.6434,"zip":"83801","miles_from_dt":28.97},{"city":"Spokane","state_name":"Washington","lat":47.78071,"lng":-117.46135,"zip":"99208","miles_from_dt":29.24},{"city":"Spokane","state_name":"Washington","lat":47.7406,"lng":-117.26241,"zip":"99217","miles_from_dt":29.32},{"city":"Spokane","state_name":"Washington","lat":47.75894,"lng":-117.4087,"zip":"99218","miles_from_dt":29.67}],"targetCityZipCode":"99156","targetCityState":"Washington"},"__N_SSG":true}