{"pageProps":{"stateName":"Washington","cityName":"seabeck","nearbyCities":[{"city":"Bremerton","state_name":"Washington","lat":47.56435,"lng":-122.75706,"zip":"98312","miles_from_dt":6.85},{"city":"Lilliwaup","state_name":"Washington","lat":47.54634,"lng":-123.06369,"zip":"98555","miles_from_dt":7.76},{"city":"Belfair","state_name":"Washington","lat":47.44605,"lng":-122.89618,"zip":"98528","miles_from_dt":8.87},{"city":"Brinnon","state_name":"Washington","lat":47.69861,"lng":-123.01742,"zip":"98320","miles_from_dt":10.12},{"city":"Silverdale","state_name":"Washington","lat":47.66212,"lng":-122.71652,"zip":"98383","miles_from_dt":10.61},{"city":"Tahuya","state_name":"Washington","lat":47.43555,"lng":-123.02261,"zip":"98588","miles_from_dt":11.1},{"city":"Tracyton","state_name":"Washington","lat":47.62011,"lng":-122.65127,"zip":"98393","miles_from_dt":12.18},{"city":"Bremerton","state_name":"Washington","lat":47.56243,"lng":-122.63893,"zip":"98314","miles_from_dt":12.37},{"city":"Bremerton","state_name":"Washington","lat":47.56345,"lng":-122.63405,"zip":"98337","miles_from_dt":12.59},{"city":"Bremerton","state_name":"Washington","lat":47.62829,"lng":-122.63793,"zip":"98311","miles_from_dt":12.93},{"city":"Port Orchard","state_name":"Washington","lat":47.46141,"lng":-122.67662,"zip":"98367","miles_from_dt":13.15},{"city":"Bremerton","state_name":"Washington","lat":47.58939,"lng":-122.6175,"zip":"98310","miles_from_dt":13.38},{"city":"Retsil","state_name":"Washington","lat":47.54489,"lng":-122.618,"zip":"98378","miles_from_dt":13.48},{"city":"Silverdale","state_name":"Washington","lat":47.72263,"lng":-122.71444,"zip":"98315","miles_from_dt":13.51},{"city":"Allyn","state_name":"Washington","lat":47.36703,"lng":-122.84548,"zip":"98524","miles_from_dt":14.57},{"city":"Port Orchard","state_name":"Washington","lat":47.53732,"lng":-122.58647,"zip":"98366","miles_from_dt":15.02},{"city":"Keyport","state_name":"Washington","lat":47.69972,"lng":-122.62366,"zip":"98345","miles_from_dt":15.65},{"city":"Gig Harbor","state_name":"Washington","lat":47.37731,"lng":-122.72523,"zip":"98329","miles_from_dt":15.95},{"city":"Burley","state_name":"Washington","lat":47.41229,"lng":-122.62983,"zip":"98322","miles_from_dt":16.99},{"city":"Grapeview","state_name":"Washington","lat":47.32439,"lng":-122.92362,"zip":"98546","miles_from_dt":17.29},{"city":"Rollingbay","state_name":"Washington","lat":47.65218,"lng":-122.54899,"zip":"98061","miles_from_dt":17.39},{"city":"Wauna","state_name":"Washington","lat":47.36328,"lng":-122.70006,"zip":"98395","miles_from_dt":17.4},{"city":"South Colby","state_name":"Washington","lat":47.51947,"lng":-122.53895,"zip":"98384","miles_from_dt":17.44},{"city":"Bainbridge Island","state_name":"Washington","lat":47.64389,"lng":-122.54335,"zip":"98110","miles_from_dt":17.47},{"city":"Poulsbo","state_name":"Washington","lat":47.75114,"lng":-122.62373,"zip":"98370","miles_from_dt":17.86},{"city":"Olalla","state_name":"Washington","lat":47.43047,"lng":-122.57631,"zip":"98359","miles_from_dt":18.23},{"city":"Vaughn","state_name":"Washington","lat":47.32011,"lng":-122.77791,"zip":"98394","miles_from_dt":18.51},{"city":"Union","state_name":"Washington","lat":47.32895,"lng":-123.07907,"zip":"98592","miles_from_dt":18.85},{"city":"Quilcene","state_name":"Washington","lat":47.8455,"lng":-122.85916,"zip":"98376","miles_from_dt":18.85},{"city":"Southworth","state_name":"Washington","lat":47.50945,"lng":-122.50156,"zip":"98386","miles_from_dt":19.3},{"city":"Suquamish","state_name":"Washington","lat":47.73425,"lng":-122.5631,"zip":"98392","miles_from_dt":19.33},{"city":"Manchester","state_name":"Washington","lat":47.53885,"lng":-122.49294,"zip":"98353","miles_from_dt":19.33},{"city":"Hoodsport","state_name":"Washington","lat":47.47064,"lng":-123.29273,"zip":"98548","miles_from_dt":19.6},{"city":"Gig Harbor","state_name":"Washington","lat":47.36514,"lng":-122.59858,"zip":"98332","miles_from_dt":20.3},{"city":"Indianola","state_name":"Washington","lat":47.75475,"lng":-122.51952,"zip":"98342","miles_from_dt":21.81},{"city":"Lakebay","state_name":"Washington","lat":47.26583,"lng":-122.77366,"zip":"98349","miles_from_dt":22.15},{"city":"Vashon","state_name":"Washington","lat":47.41219,"lng":-122.4726,"zip":"98070","miles_from_dt":23.05},{"city":"Gig Harbor","state_name":"Washington","lat":47.29909,"lng":-122.61911,"zip":"98335","miles_from_dt":23.2},{"city":"Seattle","state_name":"Washington","lat":47.57399,"lng":-122.39503,"zip":"98116","miles_from_dt":23.74},{"city":"Seattle","state_name":"Washington","lat":47.65139,"lng":-122.40223,"zip":"98199","miles_from_dt":23.99},{"city":"Seattle","state_name":"Washington","lat":47.64,"lng":-122.398,"zip":"98139","miles_from_dt":24.02},{"city":"Port Ludlow","state_name":"Washington","lat":47.89545,"lng":-122.70271,"zip":"98365","miles_from_dt":24.07},{"city":"Seattle","state_name":"Washington","lat":47.53686,"lng":-122.38992,"zip":"98136","miles_from_dt":24.13},{"city":"Kingston","state_name":"Washington","lat":47.82005,"lng":-122.53399,"zip":"98346","miles_from_dt":24.17},{"city":"Port Gamble","state_name":"Washington","lat":47.85455,"lng":-122.58638,"zip":"98364","miles_from_dt":24.34},{"city":"Burton","state_name":"Washington","lat":47.38908,"lng":-122.4594,"zip":"98013","miles_from_dt":24.39},{"city":"Seattle","state_name":"Washington","lat":47.54732,"lng":-122.37454,"zip":"98126","miles_from_dt":24.78},{"city":"Seattle","state_name":"Washington","lat":47.63943,"lng":-122.36932,"zip":"98119","miles_from_dt":25.33},{"city":"Seattle","state_name":"Washington","lat":47.66757,"lng":-122.37789,"zip":"98107","miles_from_dt":25.35},{"city":"Seattle","state_name":"Washington","lat":47.6882,"lng":-122.38157,"zip":"98117","miles_from_dt":25.58},{"city":"Shelton","state_name":"Washington","lat":47.24608,"lng":-123.16209,"zip":"98584","miles_from_dt":25.73},{"city":"Seattle","state_name":"Washington","lat":47.54339,"lng":-122.35366,"zip":"98106","miles_from_dt":25.77},{"city":"Seattle","state_name":"Washington","lat":47.50008,"lng":-122.35768,"zip":"98146","miles_from_dt":26.02},{"city":"Fox Island","state_name":"Washington","lat":47.24771,"lng":-122.62561,"zip":"98333","miles_from_dt":26.04},{"city":"Seattle","state_name":"Washington","lat":47.61548,"lng":-122.34668,"zip":"98121","miles_from_dt":26.15},{"city":"Seattle","state_name":"Washington","lat":47.61073,"lng":-122.3414,"zip":"98181","miles_from_dt":26.36},{"city":"Seattle","state_name":"Washington","lat":47.63128,"lng":-122.34486,"zip":"98109","miles_from_dt":26.37},{"city":"Longbranch","state_name":"Washington","lat":47.20353,"lng":-122.76773,"zip":"98351","miles_from_dt":26.39},{"city":"Seahurst","state_name":"Washington","lat":47.46914,"lng":-122.36002,"zip":"98062","miles_from_dt":26.42},{"city":"Seattle","state_name":"Washington","lat":47.57691,"lng":-122.33686,"zip":"98134","miles_from_dt":26.46},{"city":"Seattle","state_name":"Washington","lat":47.61,"lng":-122.339,"zip":"98170","miles_from_dt":26.47},{"city":"Seattle","state_name":"Washington","lat":47.60955,"lng":-122.33761,"zip":"98161","miles_from_dt":26.53},{"city":"Seattle","state_name":"Washington","lat":47.61511,"lng":-122.33819,"zip":"98129","miles_from_dt":26.54},{"city":"Seattle","state_name":"Washington","lat":47.609,"lng":-122.337,"zip":"98141","miles_from_dt":26.55},{"city":"Seattle","state_name":"Washington","lat":47.60477,"lng":-122.33528,"zip":"98174","miles_from_dt":26.61},{"city":"Seattle","state_name":"Washington","lat":47.57722,"lng":-122.33354,"zip":"98124","miles_from_dt":26.62},{"city":"Seattle","state_name":"Washington","lat":47.599,"lng":-122.334,"zip":"98194","miles_from_dt":26.64},{"city":"Seattle","state_name":"Washington","lat":47.61024,"lng":-122.3347,"zip":"98111","miles_from_dt":26.67},{"city":"Seattle","state_name":"Washington","lat":47.61119,"lng":-122.33454,"zip":"98101","miles_from_dt":26.68},{"city":"Seattle","state_name":"Washington","lat":47.61361,"lng":-122.33502,"zip":"98191","miles_from_dt":26.68},{"city":"Seattle","state_name":"Washington","lat":47.60621,"lng":-122.33379,"zip":"98154","miles_from_dt":26.69},{"city":"Seattle","state_name":"Washington","lat":47.60596,"lng":-122.33203,"zip":"98164","miles_from_dt":26.77},{"city":"Seattle","state_name":"Washington","lat":47.60639,"lng":-122.33083,"zip":"98127","miles_from_dt":26.83},{"city":"Seattle","state_name":"Washington","lat":47.60044,"lng":-122.33004,"zip":"98104","miles_from_dt":26.83},{"city":"Seattle","state_name":"Washington","lat":47.60356,"lng":-122.32944,"zip":"98165","miles_from_dt":26.88},{"city":"Seattle","state_name":"Washington","lat":47.60356,"lng":-122.32944,"zip":"98175","miles_from_dt":26.88},{"city":"Tacoma","state_name":"Washington","lat":47.28889,"lng":-122.5111,"zip":"98407","miles_from_dt":26.95},{"city":"Seattle","state_name":"Washington","lat":47.67513,"lng":-122.34416,"zip":"98113","miles_from_dt":27.01},{"city":"Seattle","state_name":"Washington","lat":47.6732,"lng":-122.34258,"zip":"98103","miles_from_dt":27.05},{"city":"Seattle","state_name":"Washington","lat":47.45256,"lng":-122.34978,"zip":"98166","miles_from_dt":27.22},{"city":"Chimacum","state_name":"Washington","lat":47.96093,"lng":-122.77911,"zip":"98325","miles_from_dt":27.33},{"city":"Seattle","state_name":"Washington","lat":47.74237,"lng":-122.37085,"zip":"98177","miles_from_dt":27.41},{"city":"Seattle","state_name":"Washington","lat":47.63627,"lng":-122.32337,"zip":"98102","miles_from_dt":27.41},{"city":"Seattle","state_name":"Washington","lat":47.58006,"lng":-122.31255,"zip":"98114","miles_from_dt":27.6},{"city":"Seattle","state_name":"Washington","lat":47.54113,"lng":-122.3126,"zip":"98108","miles_from_dt":27.7},{"city":"Seattle","state_name":"Washington","lat":47.77112,"lng":-122.38237,"zip":"98160","miles_from_dt":27.84},{"city":"Hansville","state_name":"Washington","lat":47.90622,"lng":-122.56406,"zip":"98340","miles_from_dt":27.84},{"city":"Seattle","state_name":"Washington","lat":47.65861,"lng":-122.31248,"zip":"98145","miles_from_dt":28.19},{"city":"Steilacoom","state_name":"Washington","lat":47.19892,"lng":-122.66268,"zip":"98388","miles_from_dt":28.28},{"city":"Seattle","state_name":"Washington","lat":47.65466,"lng":-122.30752,"zip":"98195","miles_from_dt":28.36},{"city":"Tacoma","state_name":"Washington","lat":47.26283,"lng":-122.50857,"zip":"98406","miles_from_dt":28.37},{"city":"Seattle","state_name":"Washington","lat":47.44494,"lng":-122.32587,"zip":"98148","miles_from_dt":28.45},{"city":"Seattle","state_name":"Washington","lat":47.7399,"lng":-122.34432,"zip":"98133","miles_from_dt":28.47},{"city":"Seattle","state_name":"Washington","lat":47.60985,"lng":-122.29569,"zip":"98122","miles_from_dt":28.48},{"city":"Tacoma","state_name":"Washington","lat":47.24868,"lng":-122.53043,"zip":"98465","miles_from_dt":28.48},{"city":"Seattle","state_name":"Washington","lat":47.58582,"lng":-122.29205,"zip":"98144","miles_from_dt":28.56},{"city":"Seattle","state_name":"Washington","lat":47.48898,"lng":-122.30175,"zip":"98168","miles_from_dt":28.74},{"city":"Seattle","state_name":"Washington","lat":47.50389,"lng":-122.29497,"zip":"98190","miles_from_dt":28.85},{"city":"Seattle","state_name":"Washington","lat":47.63242,"lng":-122.28732,"zip":"98112","miles_from_dt":29.04},{"city":"Seattle","state_name":"Washington","lat":47.45043,"lng":-122.30805,"zip":"98158","miles_from_dt":29.13},{"city":"Tacoma","state_name":"Washington","lat":47.26271,"lng":-122.48196,"zip":"98416","miles_from_dt":29.2},{"city":"Seattle","state_name":"Washington","lat":47.66528,"lng":-122.29198,"zip":"98185","miles_from_dt":29.22},{"city":"Edmonds","state_name":"Washington","lat":47.80015,"lng":-122.37267,"zip":"98020","miles_from_dt":29.24},{"city":"Tacoma","state_name":"Washington","lat":47.22842,"lng":-122.53479,"zip":"98466","miles_from_dt":29.48},{"city":"Seattle","state_name":"Washington","lat":47.46859,"lng":-122.29188,"zip":"98131","miles_from_dt":29.51},{"city":"Seattle","state_name":"Washington","lat":47.66094,"lng":-122.28321,"zip":"98105","miles_from_dt":29.56},{"city":"Tacoma","state_name":"Washington","lat":47.22545,"lng":-122.53731,"zip":"98464","miles_from_dt":29.58},{"city":"Seattle","state_name":"Washington","lat":47.54235,"lng":-122.26872,"zip":"98118","miles_from_dt":29.74},{"city":"Tacoma","state_name":"Washington","lat":47.26581,"lng":-122.45921,"zip":"98403","miles_from_dt":29.78},{"city":"Seattle","state_name":"Washington","lat":47.71706,"lng":-122.29969,"zip":"98125","miles_from_dt":29.84},{"city":"Tacoma","state_name":"Washington","lat":47.25251,"lng":-122.47648,"zip":"98471","miles_from_dt":29.9},{"city":"Seattle","state_name":"Washington","lat":47.68547,"lng":-122.28234,"zip":"98115","miles_from_dt":29.98}],"targetCityZipCode":"98380","targetCityState":"Washington"},"__N_SSG":true}