{"pageProps":{"stateName":"Washington","cityName":"silvana","nearbyCities":[{"city":"North Lakewood","state_name":"Washington","lat":48.16499,"lng":-122.2992,"zip":"98259","miles_from_dt":2.87},{"city":"Stanwood","state_name":"Washington","lat":48.22455,"lng":-122.3032,"zip":"98292","miles_from_dt":3.39},{"city":"Marysville","state_name":"Washington","lat":48.09373,"lng":-122.23559,"zip":"98271","miles_from_dt":6.72},{"city":"Camano Island","state_name":"Washington","lat":48.18719,"lng":-122.46966,"zip":"98282","miles_from_dt":10.14},{"city":"Marysville","state_name":"Washington","lat":48.05952,"lng":-122.1443,"zip":"98270","miles_from_dt":10.29},{"city":"Conway","state_name":"Washington","lat":48.33563,"lng":-122.34444,"zip":"98238","miles_from_dt":10.93},{"city":"Everett","state_name":"Washington","lat":48.01447,"lng":-122.32201,"zip":"98206","miles_from_dt":12.61},{"city":"Mount Vernon","state_name":"Washington","lat":48.36013,"lng":-122.14346,"zip":"98274","miles_from_dt":12.71},{"city":"Lake Stevens","state_name":"Washington","lat":48.03252,"lng":-122.07762,"zip":"98258","miles_from_dt":13.53},{"city":"Arlington","state_name":"Washington","lat":48.20994,"lng":-121.95081,"zip":"98223","miles_from_dt":13.9},{"city":"Everett","state_name":"Washington","lat":47.99373,"lng":-122.18563,"zip":"98201","miles_from_dt":13.92},{"city":"Everett","state_name":"Washington","lat":47.98793,"lng":-122.2229,"zip":"98207","miles_from_dt":14.05},{"city":"Langley","state_name":"Washington","lat":48.03074,"lng":-122.45106,"zip":"98260","miles_from_dt":14.43},{"city":"Everett","state_name":"Washington","lat":47.976,"lng":-122.21,"zip":"98213","miles_from_dt":14.94},{"city":"Mount Vernon","state_name":"Washington","lat":48.40522,"lng":-122.36841,"zip":"98273","miles_from_dt":15.8},{"city":"Greenbank","state_name":"Washington","lat":48.079,"lng":-122.57568,"zip":"98253","miles_from_dt":16.91},{"city":"Everett","state_name":"Washington","lat":47.94236,"lng":-122.23651,"zip":"98203","miles_from_dt":17.16},{"city":"Clinton","state_name":"Washington","lat":47.95804,"lng":-122.40468,"zip":"98236","miles_from_dt":17.58},{"city":"Freeland","state_name":"Washington","lat":48.01888,"lng":-122.53947,"zip":"98249","miles_from_dt":17.88},{"city":"Clearlake","state_name":"Washington","lat":48.4602,"lng":-122.22846,"zip":"98235","miles_from_dt":18.66},{"city":"Coupeville","state_name":"Washington","lat":48.18926,"lng":-122.65756,"zip":"98239","miles_from_dt":18.81},{"city":"Snohomish","state_name":"Washington","lat":47.92897,"lng":-122.09989,"zip":"98291","miles_from_dt":19.37},{"city":"Mukilteo","state_name":"Washington","lat":47.90994,"lng":-122.30113,"zip":"98275","miles_from_dt":19.53},{"city":"La Conner","state_name":"Washington","lat":48.415,"lng":-122.50879,"zip":"98257","miles_from_dt":19.56},{"city":"Oak Harbor","state_name":"Washington","lat":48.31688,"lng":-122.63152,"zip":"98277","miles_from_dt":19.64},{"city":"Everett","state_name":"Washington","lat":47.90105,"lng":-122.2586,"zip":"98204","miles_from_dt":20},{"city":"Everett","state_name":"Washington","lat":47.90072,"lng":-122.18852,"zip":"98208","miles_from_dt":20.23},{"city":"Snohomish","state_name":"Washington","lat":47.95141,"lng":-121.98421,"zip":"98290","miles_from_dt":20.61},{"city":"Oak Harbor","state_name":"Washington","lat":48.34388,"lng":-122.66491,"zip":"98278","miles_from_dt":21.86},{"city":"Burlington","state_name":"Washington","lat":48.50309,"lng":-122.35102,"zip":"98233","miles_from_dt":22.09},{"city":"Lynnwood","state_name":"Washington","lat":47.8624,"lng":-122.2664,"zip":"98087","miles_from_dt":22.68},{"city":"Nordland","state_name":"Washington","lat":48.05796,"lng":-122.70008,"zip":"98358","miles_from_dt":22.73},{"city":"Mill Creek","state_name":"Washington","lat":47.85524,"lng":-122.22102,"zip":"98082","miles_from_dt":23.2},{"city":"Bothell","state_name":"Washington","lat":47.84205,"lng":-122.19813,"zip":"98012","miles_from_dt":24.2},{"city":"Lynnwood","state_name":"Washington","lat":47.83873,"lng":-122.28463,"zip":"98037","miles_from_dt":24.36},{"city":"Hansville","state_name":"Washington","lat":47.90622,"lng":-122.56406,"zip":"98340","miles_from_dt":24.43},{"city":"Lyman","state_name":"Washington","lat":48.52281,"lng":-122.0657,"zip":"98263","miles_from_dt":24.48},{"city":"Edmonds","state_name":"Washington","lat":47.83555,"lng":-122.3316,"zip":"98026","miles_from_dt":24.81},{"city":"Snohomish","state_name":"Washington","lat":47.84266,"lng":-122.10199,"zip":"98296","miles_from_dt":25},{"city":"Lynnwood","state_name":"Washington","lat":47.83017,"lng":-122.30401,"zip":"98046","miles_from_dt":25.02},{"city":"Port Hadlock","state_name":"Washington","lat":48.02991,"lng":-122.74364,"zip":"98339","miles_from_dt":25.38},{"city":"Sedro Woolley","state_name":"Washington","lat":48.55211,"lng":-122.11763,"zip":"98284","miles_from_dt":25.72},{"city":"Hamilton","state_name":"Washington","lat":48.52353,"lng":-121.99203,"zip":"98255","miles_from_dt":25.9},{"city":"Lynnwood","state_name":"Washington","lat":47.81094,"lng":-122.28155,"zip":"98036","miles_from_dt":26.26},{"city":"Granite Falls","state_name":"Washington","lat":48.06173,"lng":-121.70939,"zip":"98252","miles_from_dt":26.56},{"city":"Bow","state_name":"Washington","lat":48.56531,"lng":-122.41498,"zip":"98232","miles_from_dt":26.98},{"city":"Edmonds","state_name":"Washington","lat":47.80015,"lng":-122.37267,"zip":"98020","miles_from_dt":27.56},{"city":"Bothell","state_name":"Washington","lat":47.79257,"lng":-122.20846,"zip":"98021","miles_from_dt":27.56},{"city":"Mountlake Terrace","state_name":"Washington","lat":47.7921,"lng":-122.30758,"zip":"98043","miles_from_dt":27.65},{"city":"Port Gamble","state_name":"Washington","lat":47.85455,"lng":-122.58638,"zip":"98364","miles_from_dt":27.95},{"city":"Monroe","state_name":"Washington","lat":47.85834,"lng":-121.88457,"zip":"98272","miles_from_dt":28.53},{"city":"Anacortes","state_name":"Washington","lat":48.50401,"lng":-122.65435,"zip":"98221","miles_from_dt":28.56},{"city":"Kingston","state_name":"Washington","lat":47.82005,"lng":-122.53399,"zip":"98346","miles_from_dt":28.78},{"city":"Chimacum","state_name":"Washington","lat":47.96093,"lng":-122.77911,"zip":"98325","miles_from_dt":29.17},{"city":"Port Ludlow","state_name":"Washington","lat":47.89545,"lng":-122.70271,"zip":"98365","miles_from_dt":29.24},{"city":"Port Townsend","state_name":"Washington","lat":48.03879,"lng":-122.84406,"zip":"98368","miles_from_dt":29.4},{"city":"Seattle","state_name":"Washington","lat":47.77112,"lng":-122.38237,"zip":"98160","miles_from_dt":29.62}],"targetCityZipCode":"98287","targetCityState":"Washington"},"__N_SSG":true}