{"pageProps":{"stateName":"Washington","cityName":"sunnyside","nearbyCities":[{"city":"Benton City","state_name":"Washington","lat":46.32706,"lng":-119.52483,"zip":"99320","miles_from_dt":13.7},{"city":"Mattawa","state_name":"Washington","lat":46.73078,"lng":-119.6996,"zip":"99349","miles_from_dt":16.03},{"city":"West Richland","state_name":"Washington","lat":46.31747,"lng":-119.37942,"zip":"99353","miles_from_dt":18.59},{"city":"Grandview","state_name":"Washington","lat":46.26903,"lng":-119.8953,"zip":"98930","miles_from_dt":19.37},{"city":"Richland","state_name":"Washington","lat":46.33153,"lng":-119.30106,"zip":"99354","miles_from_dt":20.93},{"city":"Outlook","state_name":"Washington","lat":46.38842,"lng":-120.09662,"zip":"98938","miles_from_dt":21.99},{"city":"Moxee","state_name":"Washington","lat":46.53597,"lng":-120.15391,"zip":"98936","miles_from_dt":23.43},{"city":"Mesa","state_name":"Washington","lat":46.59188,"lng":-119.17065,"zip":"99343","miles_from_dt":24.41},{"city":"Prosser","state_name":"Washington","lat":46.14477,"lng":-119.70944,"zip":"99350","miles_from_dt":24.63},{"city":"Richland","state_name":"Washington","lat":46.24199,"lng":-119.29067,"zip":"99352","miles_from_dt":25.27},{"city":"Granger","state_name":"Washington","lat":46.33217,"lng":-120.16091,"zip":"98932","miles_from_dt":26.36},{"city":"Royal City","state_name":"Washington","lat":46.89295,"lng":-119.67902,"zip":"99357","miles_from_dt":27.15},{"city":"Zillah","state_name":"Washington","lat":46.44149,"lng":-120.23284,"zip":"98953","miles_from_dt":27.38},{"city":"Beverly","state_name":"Washington","lat":46.86576,"lng":-119.88925,"zip":"99321","miles_from_dt":27.42},{"city":"Vantage","state_name":"Washington","lat":46.84642,"lng":-119.9877,"zip":"98950","miles_from_dt":28.42},{"city":"Kennewick","state_name":"Washington","lat":46.17362,"lng":-119.27403,"zip":"99338","miles_from_dt":29.3}],"targetCityZipCode":"98944","targetCityState":"Washington"},"__N_SSG":true}