{"pageProps":{"stateName":"New-jersey","cityName":"bayville","nearbyCities":[{"city":"Beachwood","state_name":"New Jersey","lat":39.92863,"lng":-74.20224,"zip":"08722","miles_from_dt":1.76},{"city":"Pine Beach","state_name":"New Jersey","lat":39.93632,"lng":-74.16779,"zip":"08741","miles_from_dt":2.2},{"city":"Lanoka Harbor","state_name":"New Jersey","lat":39.86331,"lng":-74.16608,"zip":"08734","miles_from_dt":3.18},{"city":"Island Heights","state_name":"New Jersey","lat":39.94177,"lng":-74.14497,"zip":"08732","miles_from_dt":3.19},{"city":"Ocean Gate","state_name":"New Jersey","lat":39.93006,"lng":-74.12811,"zip":"08740","miles_from_dt":3.39},{"city":"Baptistown","state_name":"New Jersey","lat":39.94625,"lng":-74.25247,"zip":"08803","miles_from_dt":4.5},{"city":"Toms River","state_name":"New Jersey","lat":39.94625,"lng":-74.25247,"zip":"08756","miles_from_dt":4.5},{"city":"Toms River","state_name":"New Jersey","lat":39.98198,"lng":-74.15887,"zip":"08754","miles_from_dt":5.34},{"city":"Toms River","state_name":"New Jersey","lat":39.96061,"lng":-74.25884,"zip":"08757","miles_from_dt":5.4},{"city":"Toms River","state_name":"New Jersey","lat":39.98091,"lng":-74.15055,"zip":"08753","miles_from_dt":5.4},{"city":"Seaside Park","state_name":"New Jersey","lat":39.85233,"lng":-74.0963,"zip":"08752","miles_from_dt":6.03},{"city":"Seaside Heights","state_name":"New Jersey","lat":39.95012,"lng":-74.08147,"zip":"08751","miles_from_dt":6.23},{"city":"Forked River","state_name":"New Jersey","lat":39.85946,"lng":-74.29363,"zip":"08731","miles_from_dt":6.66},{"city":"Toms River","state_name":"New Jersey","lat":40.00968,"lng":-74.22457,"zip":"08755","miles_from_dt":7.39},{"city":"Lavallette","state_name":"New Jersey","lat":39.98288,"lng":-74.08121,"zip":"08735","miles_from_dt":7.58},{"city":"Waretown","state_name":"New Jersey","lat":39.79529,"lng":-74.25296,"zip":"08758","miles_from_dt":8.53},{"city":"Normandy Beach","state_name":"New Jersey","lat":39.99975,"lng":-74.06422,"zip":"08739","miles_from_dt":9.04},{"city":"Brick","state_name":"New Jersey","lat":40.03896,"lng":-74.11091,"zip":"08723","miles_from_dt":9.9},{"city":"Manchester Township","state_name":"New Jersey","lat":39.96239,"lng":-74.35902,"zip":"08759","miles_from_dt":10.02},{"city":"Mantoloking","state_name":"New Jersey","lat":40.02101,"lng":-74.06282,"zip":"08738","miles_from_dt":10.18},{"city":"Barnegat Light","state_name":"New Jersey","lat":39.75299,"lng":-74.10953,"zip":"08006","miles_from_dt":11.36},{"city":"Lakewood","state_name":"New Jersey","lat":40.07635,"lng":-74.20311,"zip":"08701","miles_from_dt":11.72},{"city":"Barnegat","state_name":"New Jersey","lat":39.75503,"lng":-74.30626,"zip":"08005","miles_from_dt":12.33},{"city":"Lakehurst","state_name":"New Jersey","lat":40.0262,"lng":-74.3713,"zip":"08733","miles_from_dt":12.87},{"city":"Brick","state_name":"New Jersey","lat":40.09034,"lng":-74.115,"zip":"08724","miles_from_dt":13.17},{"city":"Point Pleasant Beach","state_name":"New Jersey","lat":40.08076,"lng":-74.06213,"zip":"08742","miles_from_dt":13.63},{"city":"Manahawkin","state_name":"New Jersey","lat":39.70291,"lng":-74.24576,"zip":"08050","miles_from_dt":14.46},{"city":"Brielle","state_name":"New Jersey","lat":40.10483,"lng":-74.06366,"zip":"08730","miles_from_dt":15.08},{"city":"Manasquan","state_name":"New Jersey","lat":40.12028,"lng":-74.06862,"zip":"08736","miles_from_dt":15.94},{"city":"Jackson","state_name":"New Jersey","lat":40.10478,"lng":-74.35035,"zip":"08527","miles_from_dt":16.23},{"city":"Allenwood","state_name":"New Jersey","lat":40.14073,"lng":-74.11431,"zip":"08720","miles_from_dt":16.54},{"city":"Howell","state_name":"New Jersey","lat":40.15014,"lng":-74.20316,"zip":"07731","miles_from_dt":16.8},{"city":"New Egypt","state_name":"New Jersey","lat":40.01293,"lng":-74.47138,"zip":"08533","miles_from_dt":16.89},{"city":"Sea Girt","state_name":"New Jersey","lat":40.13389,"lng":-74.0444,"zip":"08750","miles_from_dt":17.32},{"city":"West Creek","state_name":"New Jersey","lat":39.65438,"lng":-74.28428,"zip":"08092","miles_from_dt":18.22},{"city":"Spring Lake","state_name":"New Jersey","lat":40.15294,"lng":-74.0359,"zip":"07762","miles_from_dt":18.71},{"city":"Browns Mills","state_name":"New Jersey","lat":39.92981,"lng":-74.53966,"zip":"08015","miles_from_dt":18.93},{"city":"Belmar","state_name":"New Jersey","lat":40.16864,"lng":-74.07271,"zip":"07719","miles_from_dt":19},{"city":"Beach Haven","state_name":"New Jersey","lat":39.62188,"lng":-74.22421,"zip":"08008","miles_from_dt":19.79},{"city":"Farmingdale","state_name":"New Jersey","lat":40.20352,"lng":-74.15863,"zip":"07727","miles_from_dt":20.5},{"city":"Chatsworth","state_name":"New Jersey","lat":39.76733,"lng":-74.52781,"zip":"08019","miles_from_dt":20.64},{"city":"Belmar","state_name":"New Jersey","lat":40.18188,"lng":-74.0229,"zip":"07715","miles_from_dt":20.81},{"city":"Avon By The Sea","state_name":"New Jersey","lat":40.19129,"lng":-74.01657,"zip":"07717","miles_from_dt":21.54},{"city":"Adelphia","state_name":"New Jersey","lat":40.2141,"lng":-74.26225,"zip":"07710","miles_from_dt":21.58},{"city":"Cookstown","state_name":"New Jersey","lat":40.04441,"lng":-74.55384,"zip":"08511","miles_from_dt":21.77},{"city":"Neptune","state_name":"New Jersey","lat":40.21184,"lng":-74.07421,"zip":"07753","miles_from_dt":21.82},{"city":"Neptune","state_name":"New Jersey","lat":40.20198,"lng":-74.03369,"zip":"07754","miles_from_dt":21.86},{"city":"Bradley Beach","state_name":"New Jersey","lat":40.20176,"lng":-74.01276,"zip":"07720","miles_from_dt":22.28},{"city":"Joint Base Mdl","state_name":"New Jersey","lat":40.0093,"lng":-74.58424,"zip":"08640","miles_from_dt":22.36},{"city":"Freehold","state_name":"New Jersey","lat":40.22522,"lng":-74.28447,"zip":"07728","miles_from_dt":22.58},{"city":"New Lisbon","state_name":"New Jersey","lat":39.93657,"lng":-74.61095,"zip":"08064","miles_from_dt":22.74},{"city":"Cream Ridge","state_name":"New Jersey","lat":40.13269,"lng":-74.49811,"zip":"08514","miles_from_dt":22.78},{"city":"Joint Base Mdl","state_name":"New Jersey","lat":40.02819,"lng":-74.58715,"zip":"08641","miles_from_dt":22.94},{"city":"Ocean Grove","state_name":"New Jersey","lat":40.21184,"lng":-74.00832,"zip":"07756","miles_from_dt":23.01},{"city":"Tuckerton","state_name":"New Jersey","lat":39.60751,"lng":-74.37994,"zip":"08087","miles_from_dt":23.14},{"city":"Millstone Township","state_name":"New Jersey","lat":40.18798,"lng":-74.42351,"zip":"08510","miles_from_dt":23.15},{"city":"Imlaystown","state_name":"New Jersey","lat":40.1649,"lng":-74.49606,"zip":"08526","miles_from_dt":24.27},{"city":"Wrightstown","state_name":"New Jersey","lat":40.06812,"lng":-74.59401,"zip":"08562","miles_from_dt":24.4},{"city":"Asbury Park","state_name":"New Jersey","lat":40.24805,"lng":-74.05531,"zip":"07712","miles_from_dt":24.5},{"city":"Allenhurst","state_name":"New Jersey","lat":40.2379,"lng":-74.0076,"zip":"07711","miles_from_dt":24.68},{"city":"Deal","state_name":"New Jersey","lat":40.25016,"lng":-74.00081,"zip":"07723","miles_from_dt":25.6},{"city":"Pemberton","state_name":"New Jersey","lat":39.9617,"lng":-74.667,"zip":"08068","miles_from_dt":25.9},{"city":"Oakhurst","state_name":"New Jersey","lat":40.26351,"lng":-74.02344,"zip":"07755","miles_from_dt":26.03},{"city":"New Gretna","state_name":"New Jersey","lat":39.59548,"lng":-74.46352,"zip":"08224","miles_from_dt":26.13},{"city":"Allentown","state_name":"New Jersey","lat":40.16022,"lng":-74.55237,"zip":"08501","miles_from_dt":26.18},{"city":"Colts Neck","state_name":"New Jersey","lat":40.28765,"lng":-74.16745,"zip":"07722","miles_from_dt":26.27},{"city":"Millstone Township","state_name":"New Jersey","lat":40.23506,"lng":-74.437,"zip":"08535","miles_from_dt":26.29},{"city":"Juliustown","state_name":"New Jersey","lat":40.01363,"lng":-74.662,"zip":"08042","miles_from_dt":26.39},{"city":"Roosevelt","state_name":"New Jersey","lat":40.22116,"lng":-74.473,"zip":"08555","miles_from_dt":26.52},{"city":"Tennent","state_name":"New Jersey","lat":40.27534,"lng":-74.33709,"zip":"07763","miles_from_dt":26.66},{"city":"Englishtown","state_name":"New Jersey","lat":40.28318,"lng":-74.34232,"zip":"07726","miles_from_dt":27.26},{"city":"Vincentown","state_name":"New Jersey","lat":39.84196,"lng":-74.69075,"zip":"08088","miles_from_dt":27.28},{"city":"Eatontown","state_name":"New Jersey","lat":40.29801,"lng":-74.07517,"zip":"07724","miles_from_dt":27.59},{"city":"West Long Branch","state_name":"New Jersey","lat":40.28832,"lng":-74.01854,"zip":"07764","miles_from_dt":27.73},{"city":"Jobstown","state_name":"New Jersey","lat":40.03852,"lng":-74.68263,"zip":"08041","miles_from_dt":27.95},{"city":"Trenton","state_name":"New Jersey","lat":40.13783,"lng":-74.62782,"zip":"08650","miles_from_dt":28.39},{"city":"Chesterfield","state_name":"New Jersey","lat":40.1163,"lng":-74.64568,"zip":"08515","miles_from_dt":28.4},{"city":"Marlboro","state_name":"New Jersey","lat":40.31675,"lng":-74.25029,"zip":"07746","miles_from_dt":28.48},{"city":"Birmingham","state_name":"New Jersey","lat":39.97504,"lng":-74.71371,"zip":"08011","miles_from_dt":28.49},{"city":"Long Branch","state_name":"New Jersey","lat":40.29581,"lng":-73.9919,"zip":"07740","miles_from_dt":28.7},{"city":"Fort Monmouth","state_name":"New Jersey","lat":40.31411,"lng":-74.046,"zip":"07703","miles_from_dt":29.03},{"city":"Oceanport","state_name":"New Jersey","lat":40.31583,"lng":-74.01855,"zip":"07757","miles_from_dt":29.54},{"city":"Shrewsbury","state_name":"New Jersey","lat":40.32489,"lng":-74.06002,"zip":"07702","miles_from_dt":29.57},{"city":"Trenton","state_name":"New Jersey","lat":40.21804,"lng":-74.57625,"zip":"08602","miles_from_dt":29.85},{"city":"Columbus","state_name":"New Jersey","lat":40.06516,"lng":-74.70905,"zip":"08022","miles_from_dt":29.89},{"city":"Trenton","state_name":"New Jersey","lat":40.22019,"lng":-74.57602,"zip":"08606","miles_from_dt":29.95},{"city":"Lincroft","state_name":"New Jersey","lat":40.33918,"lng":-74.12841,"zip":"07738","miles_from_dt":29.96}],"targetCityZipCode":"08721","targetCityState":"New Jersey"},"__N_SSG":true}