{"pageProps":{"stateName":"New-jersey","cityName":"lawnside","nearbyCities":[{"city":"Magnolia","state_name":"New Jersey","lat":39.85463,"lng":-75.03816,"zip":"08049","miles_from_dt":0.99},{"city":"Barrington","state_name":"New Jersey","lat":39.86509,"lng":-75.05379,"zip":"08007","miles_from_dt":1.32},{"city":"Somerdale","state_name":"New Jersey","lat":39.84138,"lng":-75.02867,"zip":"08083","miles_from_dt":1.78},{"city":"Haddonfield","state_name":"New Jersey","lat":39.89332,"lng":-75.03723,"zip":"08033","miles_from_dt":1.85},{"city":"Haddon Heights","state_name":"New Jersey","lat":39.87914,"lng":-75.06435,"zip":"08035","miles_from_dt":2.05},{"city":"Runnemede","state_name":"New Jersey","lat":39.85202,"lng":-75.07542,"zip":"08078","miles_from_dt":2.68},{"city":"Glendora","state_name":"New Jersey","lat":39.84097,"lng":-75.06717,"zip":"08029","miles_from_dt":2.72},{"city":"Stratford","state_name":"New Jersey","lat":39.82905,"lng":-75.01557,"zip":"08084","miles_from_dt":2.73},{"city":"Audubon","state_name":"New Jersey","lat":39.89119,"lng":-75.07388,"zip":"08106","miles_from_dt":2.9},{"city":"Cherry Hill","state_name":"New Jersey","lat":39.90593,"lng":-74.99935,"zip":"08034","miles_from_dt":3.1},{"city":"Cherry Hill","state_name":"New Jersey","lat":39.88334,"lng":-74.97191,"zip":"08003","miles_from_dt":3.24},{"city":"Bellmawr","state_name":"New Jersey","lat":39.86876,"lng":-75.09225,"zip":"08099","miles_from_dt":3.36},{"city":"Bellmawr","state_name":"New Jersey","lat":39.86655,"lng":-75.09408,"zip":"08031","miles_from_dt":3.45},{"city":"Mount Ephraim","state_name":"New Jersey","lat":39.88462,"lng":-75.09309,"zip":"08059","miles_from_dt":3.61},{"city":"Collingswood","state_name":"New Jersey","lat":39.91453,"lng":-75.06192,"zip":"08108","miles_from_dt":3.7},{"city":"Oaklyn","state_name":"New Jersey","lat":39.90767,"lng":-75.08344,"zip":"08107","miles_from_dt":4.02},{"city":"Gibbsboro","state_name":"New Jersey","lat":39.83329,"lng":-74.9657,"zip":"08026","miles_from_dt":4.11},{"city":"Voorhees","state_name":"New Jersey","lat":39.84502,"lng":-74.95492,"zip":"08043","miles_from_dt":4.23},{"city":"Cherry Hill","state_name":"New Jersey","lat":39.93142,"lng":-75.02515,"zip":"08002","miles_from_dt":4.43},{"city":"Clementon","state_name":"New Jersey","lat":39.80604,"lng":-75.00025,"zip":"08021","miles_from_dt":4.49},{"city":"Gloucester City","state_name":"New Jersey","lat":39.89023,"lng":-75.1178,"zip":"08030","miles_from_dt":4.97},{"city":"Westville","state_name":"New Jersey","lat":39.86098,"lng":-75.13265,"zip":"08093","miles_from_dt":5.52},{"city":"Camden","state_name":"New Jersey","lat":39.91672,"lng":-75.11203,"zip":"08104","miles_from_dt":5.57},{"city":"Merchantville","state_name":"New Jersey","lat":39.95006,"lng":-75.05094,"zip":"08109","miles_from_dt":5.83},{"city":"Woodbury","state_name":"New Jersey","lat":39.82921,"lng":-75.12871,"zip":"08096","miles_from_dt":5.91},{"city":"Blackwood","state_name":"New Jersey","lat":39.78409,"lng":-75.05586,"zip":"08012","miles_from_dt":5.91},{"city":"Maple Shade","state_name":"New Jersey","lat":39.952,"lng":-74.99502,"zip":"08052","miles_from_dt":6.12},{"city":"Grenloch","state_name":"New Jersey","lat":39.78048,"lng":-75.05952,"zip":"08032","miles_from_dt":6.2},{"city":"Camden","state_name":"New Jersey","lat":39.93533,"lng":-75.11275,"zip":"08103","miles_from_dt":6.47},{"city":"Camden","state_name":"New Jersey","lat":39.95174,"lng":-75.09107,"zip":"08105","miles_from_dt":6.7},{"city":"West Berlin","state_name":"New Jersey","lat":39.80545,"lng":-74.92558,"zip":"08091","miles_from_dt":6.96},{"city":"Marlton","state_name":"New Jersey","lat":39.86051,"lng":-74.89469,"zip":"08053","miles_from_dt":7.16},{"city":"Philadelphia","state_name":"Pennsylvania","lat":39.91175,"lng":-75.1514,"zip":"19148","miles_from_dt":7.19},{"city":"Camden","state_name":"New Jersey","lat":39.9409,"lng":-75.12616,"zip":"08101","miles_from_dt":7.24},{"city":"Woodbury Heights","state_name":"New Jersey","lat":39.81571,"lng":-75.15117,"zip":"08097","miles_from_dt":7.4},{"city":"Pennsauken","state_name":"New Jersey","lat":39.97243,"lng":-75.06021,"zip":"08110","miles_from_dt":7.44},{"city":"Camden","state_name":"New Jersey","lat":39.95203,"lng":-75.12134,"zip":"08102","miles_from_dt":7.63},{"city":"Philadelphia","state_name":"Pennsylvania","lat":39.88999,"lng":-75.16985,"zip":"19112","miles_from_dt":7.64},{"city":"Philadelphia","state_name":"Pennsylvania","lat":39.89154,"lng":-75.16942,"zip":"19185","miles_from_dt":7.64},{"city":"Wenonah","state_name":"New Jersey","lat":39.79777,"lng":-75.14849,"zip":"08090","miles_from_dt":7.95},{"city":"Philadelphia","state_name":"Pennsylvania","lat":39.94589,"lng":-75.14224,"zip":"19106","miles_from_dt":8.1},{"city":"Philadelphia","state_name":"Pennsylvania","lat":39.93645,"lng":-75.15468,"zip":"19147","miles_from_dt":8.21},{"city":"National Park","state_name":"New Jersey","lat":39.86758,"lng":-75.18509,"zip":"08063","miles_from_dt":8.29},{"city":"Thorofare","state_name":"New Jersey","lat":39.85136,"lng":-75.18582,"zip":"08086","miles_from_dt":8.4},{"city":"Philadelphia","state_name":"Pennsylvania","lat":39.94534,"lng":-75.15108,"zip":"19172","miles_from_dt":8.43},{"city":"Philadelphia","state_name":"Pennsylvania","lat":39.95145,"lng":-75.14702,"zip":"19181","miles_from_dt":8.54},{"city":"Philadelphia","state_name":"Pennsylvania","lat":39.951,"lng":-75.14975,"zip":"19177","miles_from_dt":8.63},{"city":"Mount Laurel","state_name":"New Jersey","lat":39.94835,"lng":-74.90472,"zip":"08054","miles_from_dt":8.66},{"city":"Philadelphia","state_name":"Pennsylvania","lat":39.95144,"lng":-75.15151,"zip":"19244","miles_from_dt":8.72},{"city":"Philadelphia","state_name":"Pennsylvania","lat":39.94999,"lng":-75.15464,"zip":"19175","miles_from_dt":8.78},{"city":"Berlin","state_name":"New Jersey","lat":39.76154,"lng":-74.93279,"zip":"08009","miles_from_dt":8.91},{"city":"Sewell","state_name":"New Jersey","lat":39.75714,"lng":-75.11801,"zip":"08080","miles_from_dt":8.95},{"city":"Philadelphia","state_name":"Pennsylvania","lat":39.95,"lng":-75.1601,"zip":"19182","miles_from_dt":9},{"city":"Philadelphia","state_name":"Pennsylvania","lat":39.9518,"lng":-75.15864,"zip":"19107","miles_from_dt":9.02},{"city":"Moorestown","state_name":"New Jersey","lat":39.97948,"lng":-74.94105,"zip":"08057","miles_from_dt":9.05},{"city":"Philadelphia","state_name":"Pennsylvania","lat":39.95563,"lng":-75.15526,"zip":"19171","miles_from_dt":9.06},{"city":"Philadelphia","state_name":"Pennsylvania","lat":39.97611,"lng":-75.12472,"zip":"19125","miles_from_dt":9.07},{"city":"Philadelphia","state_name":"Pennsylvania","lat":39.95,"lng":-75.16219,"zip":"19190","miles_from_dt":9.09},{"city":"Philadelphia","state_name":"Pennsylvania","lat":39.95,"lng":-75.16219,"zip":"19195","miles_from_dt":9.09},{"city":"Philadelphia","state_name":"Pennsylvania","lat":39.99455,"lng":-75.074,"zip":"19137","miles_from_dt":9.1},{"city":"Philadelphia","state_name":"Pennsylvania","lat":39.95193,"lng":-75.16046,"zip":"19105","miles_from_dt":9.1},{"city":"Philadelphia","state_name":"Pennsylvania","lat":39.96399,"lng":-75.14568,"zip":"19123","miles_from_dt":9.11},{"city":"Philadelphia","state_name":"Pennsylvania","lat":39.94958,"lng":-75.16387,"zip":"19109","miles_from_dt":9.14},{"city":"Philadelphia","state_name":"Pennsylvania","lat":39.95126,"lng":-75.1631,"zip":"19255","miles_from_dt":9.18},{"city":"Philadelphia","state_name":"Pennsylvania","lat":39.95307,"lng":-75.16103,"zip":"19099","miles_from_dt":9.18},{"city":"Philadelphia","state_name":"Pennsylvania","lat":39.95253,"lng":-75.1628,"zip":"19101","miles_from_dt":9.22},{"city":"Philadelphia","state_name":"Pennsylvania","lat":39.91469,"lng":-75.19194,"zip":"19145","miles_from_dt":9.25},{"city":"Palmyra","state_name":"New Jersey","lat":40.00234,"lng":-75.03589,"zip":"08065","miles_from_dt":9.33},{"city":"Philadelphia","state_name":"Pennsylvania","lat":39.95228,"lng":-75.16597,"zip":"19191","miles_from_dt":9.34},{"city":"Philadelphia","state_name":"Pennsylvania","lat":39.95301,"lng":-75.16544,"zip":"19102","miles_from_dt":9.35},{"city":"Philadelphia","state_name":"Pennsylvania","lat":39.95356,"lng":-75.16602,"zip":"19110","miles_from_dt":9.4},{"city":"Philadelphia","state_name":"Pennsylvania","lat":39.95173,"lng":-75.16796,"zip":"19192","miles_from_dt":9.4},{"city":"Philadelphia","state_name":"Pennsylvania","lat":39.98953,"lng":-75.10838,"zip":"19134","miles_from_dt":9.43},{"city":"Philadelphia","state_name":"Pennsylvania","lat":39.9516,"lng":-75.169,"zip":"19183","miles_from_dt":9.44},{"city":"Riverton","state_name":"New Jersey","lat":40.00193,"lng":-74.99515,"zip":"08077","miles_from_dt":9.47},{"city":"Philadelphia","state_name":"Pennsylvania","lat":39.95987,"lng":-75.16083,"zip":"19108","miles_from_dt":9.48},{"city":"Philadelphia","state_name":"Pennsylvania","lat":39.95477,"lng":-75.16769,"zip":"19187","miles_from_dt":9.52},{"city":"Philadelphia","state_name":"Pennsylvania","lat":39.96334,"lng":-75.15953,"zip":"19188","miles_from_dt":9.59},{"city":"Philadelphia","state_name":"Pennsylvania","lat":39.95473,"lng":-75.16986,"zip":"19173","miles_from_dt":9.61},{"city":"Philadelphia","state_name":"Pennsylvania","lat":39.93917,"lng":-75.18398,"zip":"19146","miles_from_dt":9.61},{"city":"Sicklerville","state_name":"New Jersey","lat":39.73421,"lng":-74.97564,"zip":"08081","miles_from_dt":9.61},{"city":"Philadelphia","state_name":"Pennsylvania","lat":39.95303,"lng":-75.17386,"zip":"19103","miles_from_dt":9.71},{"city":"Mantua","state_name":"New Jersey","lat":39.78583,"lng":-75.17903,"zip":"08051","miles_from_dt":9.75},{"city":"Philadelphia","state_name":"Pennsylvania","lat":39.97767,"lng":-75.14571,"zip":"19122","miles_from_dt":9.82},{"city":"Riverton","state_name":"New Jersey","lat":40.01068,"lng":-75.01553,"zip":"08076","miles_from_dt":9.92},{"city":"Philadelphia","state_name":"Pennsylvania","lat":39.95,"lng":-75.18219,"zip":"19194","miles_from_dt":9.94},{"city":"Philadelphia","state_name":"Pennsylvania","lat":39.9547,"lng":-75.17878,"zip":"19197","miles_from_dt":9.98},{"city":"Philadelphia","state_name":"Pennsylvania","lat":39.95258,"lng":-75.18178,"zip":"19092","miles_from_dt":10.02},{"city":"Philadelphia","state_name":"Pennsylvania","lat":39.95201,"lng":-75.18332,"zip":"19170","miles_from_dt":10.07},{"city":"Philadelphia","state_name":"Pennsylvania","lat":39.9557,"lng":-75.18101,"zip":"19162","miles_from_dt":10.12},{"city":"Philadelphia","state_name":"Pennsylvania","lat":39.9532,"lng":-75.1839,"zip":"19184","miles_from_dt":10.14},{"city":"Philadelphia","state_name":"Pennsylvania","lat":39.95309,"lng":-75.18496,"zip":"19178","miles_from_dt":10.18},{"city":"Philadelphia","state_name":"Pennsylvania","lat":39.95591,"lng":-75.18238,"zip":"19093","miles_from_dt":10.19},{"city":"Philadelphia","state_name":"Pennsylvania","lat":39.95568,"lng":-75.18406,"zip":"19193","miles_from_dt":10.25},{"city":"Philadelphia","state_name":"Pennsylvania","lat":39.95744,"lng":-75.18426,"zip":"19196","miles_from_dt":10.33},{"city":"Philadelphia","state_name":"Pennsylvania","lat":39.9676,"lng":-75.17495,"zip":"19130","miles_from_dt":10.39},{"city":"Mount Royal","state_name":"New Jersey","lat":39.80459,"lng":-75.207,"zip":"08061","miles_from_dt":10.4},{"city":"Philadelphia","state_name":"Pennsylvania","lat":39.99238,"lng":-75.14149,"zip":"19133","miles_from_dt":10.5},{"city":"Philadelphia","state_name":"Pennsylvania","lat":40.02192,"lng":-75.04966,"zip":"19135","miles_from_dt":10.73},{"city":"Pitman","state_name":"New Jersey","lat":39.73227,"lng":-75.13457,"zip":"08071","miles_from_dt":10.87},{"city":"Philadelphia","state_name":"Pennsylvania","lat":40.01728,"lng":-75.09387,"zip":"19124","miles_from_dt":10.91},{"city":"Paulsboro","state_name":"New Jersey","lat":39.83475,"lng":-75.23017,"zip":"08066","miles_from_dt":10.92},{"city":"Philadelphia","state_name":"Pennsylvania","lat":39.88391,"lng":-75.2343,"zip":"19153","miles_from_dt":10.97},{"city":"Philadelphia","state_name":"Pennsylvania","lat":39.95891,"lng":-75.19836,"zip":"19104","miles_from_dt":10.99},{"city":"Medford","state_name":"New Jersey","lat":39.86373,"lng":-74.82249,"zip":"08055","miles_from_dt":10.99},{"city":"Philadelphia","state_name":"Pennsylvania","lat":39.98231,"lng":-75.17995,"zip":"19121","miles_from_dt":11.28},{"city":"Clarksboro","state_name":"New Jersey","lat":39.79674,"lng":-75.22271,"zip":"08020","miles_from_dt":11.39},{"city":"Philadelphia","state_name":"Pennsylvania","lat":39.90264,"lng":-75.24032,"zip":"19176","miles_from_dt":11.49},{"city":"Philadelphia","state_name":"Pennsylvania","lat":39.92278,"lng":-75.23375,"zip":"19142","miles_from_dt":11.53},{"city":"Philadelphia","state_name":"Pennsylvania","lat":39.99649,"lng":-75.17102,"zip":"19132","miles_from_dt":11.68},{"city":"Philadelphia","state_name":"Pennsylvania","lat":39.94315,"lng":-75.22664,"zip":"19143","miles_from_dt":11.73},{"city":"Philadelphia","state_name":"Pennsylvania","lat":40.01224,"lng":-75.14512,"zip":"19140","miles_from_dt":11.75},{"city":"Philadelphia","state_name":"Pennsylvania","lat":40.01,"lng":-75.15001,"zip":"19160","miles_from_dt":11.76},{"city":"Philadelphia","state_name":"Pennsylvania","lat":40.03973,"lng":-75.01932,"zip":"19136","miles_from_dt":11.91},{"city":"Philadelphia","state_name":"Pennsylvania","lat":40.03781,"lng":-75.06544,"zip":"19149","miles_from_dt":11.93},{"city":"Riverside","state_name":"New Jersey","lat":40.02937,"lng":-74.94999,"zip":"08075","miles_from_dt":11.95},{"city":"Philadelphia","state_name":"Pennsylvania","lat":39.96144,"lng":-75.22964,"zip":"19139","miles_from_dt":12.48},{"city":"Philadelphia","state_name":"Pennsylvania","lat":40.03417,"lng":-75.11986,"zip":"19120","miles_from_dt":12.49},{"city":"Hainesport","state_name":"New Jersey","lat":39.97669,"lng":-74.83708,"zip":"08036","miles_from_dt":12.69},{"city":"Cedar Brook","state_name":"New Jersey","lat":39.71074,"lng":-74.9013,"zip":"08018","miles_from_dt":12.76},{"city":"Sharon Hill","state_name":"Pennsylvania","lat":39.90238,"lng":-75.26591,"zip":"19079","miles_from_dt":12.82},{"city":"Richwood","state_name":"New Jersey","lat":39.71289,"lng":-75.16379,"zip":"08074","miles_from_dt":12.84},{"city":"Glassboro","state_name":"New Jersey","lat":39.69336,"lng":-75.11949,"zip":"08028","miles_from_dt":12.92},{"city":"Philadelphia","state_name":"Pennsylvania","lat":40.01338,"lng":-75.18454,"zip":"19129","miles_from_dt":13.03},{"city":"Rancocas","state_name":"New Jersey","lat":40.00952,"lng":-74.86698,"zip":"08073","miles_from_dt":13.06},{"city":"Philadelphia","state_name":"Pennsylvania","lat":39.98865,"lng":-75.21835,"zip":"19131","miles_from_dt":13.08},{"city":"Darby","state_name":"Pennsylvania","lat":39.91724,"lng":-75.26708,"zip":"19023","miles_from_dt":13.11},{"city":"Atco","state_name":"New Jersey","lat":39.75494,"lng":-74.83007,"zip":"08004","miles_from_dt":13.12},{"city":"Mickleton","state_name":"New Jersey","lat":39.78355,"lng":-75.25155,"zip":"08056","miles_from_dt":13.17},{"city":"Folcroft","state_name":"Pennsylvania","lat":39.88907,"lng":-75.277,"zip":"19032","miles_from_dt":13.26},{"city":"Philadelphia","state_name":"Pennsylvania","lat":39.86679,"lng":-75.27911,"zip":"19113","miles_from_dt":13.29},{"city":"Philadelphia","state_name":"Pennsylvania","lat":40.03788,"lng":-75.14541,"zip":"19141","miles_from_dt":13.3},{"city":"Lumberton","state_name":"New Jersey","lat":39.95644,"lng":-74.80627,"zip":"08048","miles_from_dt":13.34},{"city":"Lansdowne","state_name":"Pennsylvania","lat":39.93764,"lng":-75.26355,"zip":"19050","miles_from_dt":13.37},{"city":"Willingboro","state_name":"New Jersey","lat":40.02787,"lng":-74.88709,"zip":"08046","miles_from_dt":13.41},{"city":"Philadelphia","state_name":"Pennsylvania","lat":40.06158,"lng":-75.04663,"zip":"19152","miles_from_dt":13.44},{"city":"Philadelphia","state_name":"Pennsylvania","lat":40.06065,"lng":-75.08019,"zip":"19111","miles_from_dt":13.62},{"city":"Philadelphia","state_name":"Pennsylvania","lat":40.03278,"lng":-75.17523,"zip":"19144","miles_from_dt":13.81},{"city":"Philadelphia","state_name":"Pennsylvania","lat":40.03206,"lng":-75.17755,"zip":"19179","miles_from_dt":13.84},{"city":"Philadelphia","state_name":"Pennsylvania","lat":40.06743,"lng":-75.00361,"zip":"19114","miles_from_dt":13.88},{"city":"Cheltenham","state_name":"Pennsylvania","lat":40.05966,"lng":-75.10586,"zip":"19012","miles_from_dt":13.89},{"city":"Philadelphia","state_name":"Pennsylvania","lat":40.06546,"lng":-75.0807,"zip":"19161","miles_from_dt":13.95},{"city":"Essington","state_name":"Pennsylvania","lat":39.86345,"lng":-75.29271,"zip":"19029","miles_from_dt":14.02},{"city":"Philadelphia","state_name":"Pennsylvania","lat":40.05516,"lng":-75.13728,"zip":"19126","miles_from_dt":14.18},{"city":"Philadelphia","state_name":"Pennsylvania","lat":39.97562,"lng":-75.25616,"zip":"19151","miles_from_dt":14.19},{"city":"Glenolden","state_name":"Pennsylvania","lat":39.90368,"lng":-75.29323,"zip":"19036","miles_from_dt":14.26},{"city":"Norwood","state_name":"Pennsylvania","lat":39.88642,"lng":-75.29643,"zip":"19074","miles_from_dt":14.27},{"city":"Ewan","state_name":"New Jersey","lat":39.69757,"lng":-75.18274,"zip":"08025","miles_from_dt":14.28},{"city":"Gibbstown","state_name":"New Jersey","lat":39.82883,"lng":-75.29345,"zip":"08027","miles_from_dt":14.3},{"city":"Beverly","state_name":"New Jersey","lat":40.05484,"lng":-74.91407,"zip":"08010","miles_from_dt":14.31},{"city":"Upper Darby","state_name":"Pennsylvania","lat":39.96043,"lng":-75.27032,"zip":"19082","miles_from_dt":14.34},{"city":"Clayton","state_name":"New Jersey","lat":39.66143,"lng":-75.08375,"zip":"08312","miles_from_dt":14.49},{"city":"Mullica Hill","state_name":"New Jersey","lat":39.71465,"lng":-75.22124,"zip":"08062","miles_from_dt":14.67},{"city":"Bala Cynwyd","state_name":"Pennsylvania","lat":40.01362,"lng":-75.22979,"zip":"19004","miles_from_dt":14.68},{"city":"Philadelphia","state_name":"Pennsylvania","lat":40.05594,"lng":-75.15947,"zip":"19138","miles_from_dt":14.75},{"city":"Clifton Heights","state_name":"Pennsylvania","lat":39.92312,"lng":-75.29834,"zip":"19018","miles_from_dt":14.82},{"city":"Prospect Park","state_name":"Pennsylvania","lat":39.88586,"lng":-75.30763,"zip":"19076","miles_from_dt":14.86},{"city":"Merion Station","state_name":"Pennsylvania","lat":40.0022,"lng":-75.2489,"zip":"19066","miles_from_dt":14.93},{"city":"Waterford Works","state_name":"New Jersey","lat":39.71591,"lng":-74.82686,"zip":"08089","miles_from_dt":15},{"city":"Holmes","state_name":"Pennsylvania","lat":39.90042,"lng":-75.30891,"zip":"19043","miles_from_dt":15.05},{"city":"Holmes","state_name":"Pennsylvania","lat":39.90438,"lng":-75.30854,"zip":"19098","miles_from_dt":15.07},{"city":"Elkins Park","state_name":"Pennsylvania","lat":40.07347,"lng":-75.12453,"zip":"19027","miles_from_dt":15.1},{"city":"Williamstown","state_name":"New Jersey","lat":39.65096,"lng":-74.96529,"zip":"08094","miles_from_dt":15.3},{"city":"Philadelphia","state_name":"Pennsylvania","lat":40.02854,"lng":-75.22746,"zip":"19127","miles_from_dt":15.32},{"city":"Philadelphia","state_name":"Pennsylvania","lat":40.09094,"lng":-75.04595,"zip":"19115","miles_from_dt":15.46},{"city":"Philadelphia","state_name":"Pennsylvania","lat":40.05303,"lng":-75.19223,"zip":"19119","miles_from_dt":15.47},{"city":"Ridley Park","state_name":"Pennsylvania","lat":39.87328,"lng":-75.32159,"zip":"19078","miles_from_dt":15.55},{"city":"Philadelphia","state_name":"Pennsylvania","lat":40.09002,"lng":-74.98002,"zip":"19155","miles_from_dt":15.59},{"city":"Drexel Hill","state_name":"Pennsylvania","lat":39.95035,"lng":-75.304,"zip":"19026","miles_from_dt":15.69},{"city":"Wynnewood","state_name":"Pennsylvania","lat":39.99813,"lng":-75.27388,"zip":"19096","miles_from_dt":15.83},{"city":"Philadelphia","state_name":"Pennsylvania","lat":40.0951,"lng":-74.98159,"zip":"19154","miles_from_dt":15.92},{"city":"Morton","state_name":"Pennsylvania","lat":39.90628,"lng":-75.32452,"zip":"19070","miles_from_dt":15.93},{"city":"Mount Holly","state_name":"New Jersey","lat":40.00983,"lng":-74.79105,"zip":"08060","miles_from_dt":16.02},{"city":"Folsom","state_name":"Pennsylvania","lat":39.89077,"lng":-75.32892,"zip":"19033","miles_from_dt":16.02},{"city":"Philadelphia","state_name":"Pennsylvania","lat":40.07251,"lng":-75.17165,"zip":"19150","miles_from_dt":16.06},{"city":"Narberth","state_name":"Pennsylvania","lat":40.02419,"lng":-75.25697,"zip":"19072","miles_from_dt":16.24},{"city":"Crum Lynne","state_name":"Pennsylvania","lat":39.85862,"lng":-75.33507,"zip":"19022","miles_from_dt":16.28},{"city":"Wyncote","state_name":"Pennsylvania","lat":40.08588,"lng":-75.15137,"zip":"19095","miles_from_dt":16.42},{"city":"Philadelphia","state_name":"Pennsylvania","lat":40.05003,"lng":-75.23003,"zip":"19128","miles_from_dt":16.52},{"city":"Jenkintown","state_name":"Pennsylvania","lat":40.10133,"lng":-75.10558,"zip":"19046","miles_from_dt":16.65},{"city":"Havertown","state_name":"Pennsylvania","lat":39.97715,"lng":-75.31192,"zip":"19083","miles_from_dt":16.83},{"city":"Woodlyn","state_name":"Pennsylvania","lat":39.87499,"lng":-75.3467,"zip":"19094","miles_from_dt":16.89},{"city":"Croydon","state_name":"Pennsylvania","lat":40.08874,"lng":-74.89385,"zip":"19021","miles_from_dt":16.89},{"city":"Springfield","state_name":"Pennsylvania","lat":39.93214,"lng":-75.33873,"zip":"19064","miles_from_dt":17.05},{"city":"Bensalem","state_name":"Pennsylvania","lat":40.10453,"lng":-74.93853,"zip":"19020","miles_from_dt":17.06},{"city":"Swarthmore","state_name":"Pennsylvania","lat":39.89864,"lng":-75.34751,"zip":"19081","miles_from_dt":17.06},{"city":"Ardmore","state_name":"Pennsylvania","lat":40.00217,"lng":-75.29841,"zip":"19003","miles_from_dt":17.07},{"city":"Philadelphia","state_name":"Pennsylvania","lat":40.07233,"lng":-75.21247,"zip":"19118","miles_from_dt":17.18},{"city":"Philadelphia","state_name":"Pennsylvania","lat":40.11655,"lng":-75.01399,"zip":"19116","miles_from_dt":17.22},{"city":"Philadelphia","state_name":"Pennsylvania","lat":40.1176,"lng":-75.01451,"zip":"19019","miles_from_dt":17.29},{"city":"Monroeville","state_name":"New Jersey","lat":39.64057,"lng":-75.1699,"zip":"08343","miles_from_dt":17.34},{"city":"Franklinville","state_name":"New Jersey","lat":39.61463,"lng":-75.03385,"zip":"08322","miles_from_dt":17.43},{"city":"Burlington","state_name":"New Jersey","lat":40.06926,"lng":-74.83198,"zip":"08016","miles_from_dt":17.43},{"city":"Chester","state_name":"Pennsylvania","lat":39.84699,"lng":-75.36099,"zip":"19016","miles_from_dt":17.7},{"city":"Swedesboro","state_name":"New Jersey","lat":39.75579,"lng":-75.33017,"zip":"08085","miles_from_dt":17.77},{"city":"Glenside","state_name":"Pennsylvania","lat":40.10197,"lng":-75.17214,"zip":"19038","miles_from_dt":17.89},{"city":"Winslow","state_name":"New Jersey","lat":39.64514,"lng":-74.85576,"zip":"08095","miles_from_dt":17.89},{"city":"Haverford","state_name":"Pennsylvania","lat":40.00663,"lng":-75.31747,"zip":"19041","miles_from_dt":18.08},{"city":"Vincentown","state_name":"New Jersey","lat":39.84196,"lng":-74.69075,"zip":"08088","miles_from_dt":18.08},{"city":"Harrisonville","state_name":"New Jersey","lat":39.68662,"lng":-75.27661,"zip":"08039","miles_from_dt":18.13},{"city":"Bridgeport","state_name":"New Jersey","lat":39.81186,"lng":-75.36286,"zip":"08014","miles_from_dt":18.16},{"city":"Wallingford","state_name":"Pennsylvania","lat":39.89094,"lng":-75.37014,"zip":"19086","miles_from_dt":18.2},{"city":"Gladwyne","state_name":"Pennsylvania","lat":40.04851,"lng":-75.28126,"zip":"19035","miles_from_dt":18.32},{"city":"Birmingham","state_name":"New Jersey","lat":39.97504,"lng":-74.71371,"zip":"08011","miles_from_dt":18.33},{"city":"Huntingdon Valley","state_name":"Pennsylvania","lat":40.13323,"lng":-75.06222,"zip":"19006","miles_from_dt":18.44},{"city":"Chester","state_name":"Pennsylvania","lat":39.84529,"lng":-75.37474,"zip":"19013","miles_from_dt":18.44},{"city":"Abington","state_name":"Pennsylvania","lat":40.12624,"lng":-75.12652,"zip":"19001","miles_from_dt":18.6},{"city":"Bryn Athyn","state_name":"Pennsylvania","lat":40.13775,"lng":-75.06308,"zip":"19009","miles_from_dt":18.75},{"city":"Oreland","state_name":"Pennsylvania","lat":40.1136,"lng":-75.18852,"zip":"19075","miles_from_dt":18.99},{"city":"Broomall","state_name":"Pennsylvania","lat":39.97425,"lng":-75.36107,"zip":"19008","miles_from_dt":19.12},{"city":"Brookhaven","state_name":"Pennsylvania","lat":39.86811,"lng":-75.39164,"zip":"19015","miles_from_dt":19.27},{"city":"Bryn Mawr","state_name":"Pennsylvania","lat":40.02362,"lng":-75.3298,"zip":"19010","miles_from_dt":19.27},{"city":"Media","state_name":"Pennsylvania","lat":39.90495,"lng":-75.38863,"zip":"19065","miles_from_dt":19.28},{"city":"Lafayette Hill","state_name":"Pennsylvania","lat":40.08686,"lng":-75.25427,"zip":"19444","miles_from_dt":19.3},{"city":"Glen Riddle Lima","state_name":"Pennsylvania","lat":39.90513,"lng":-75.38884,"zip":"19037","miles_from_dt":19.3},{"city":"Media","state_name":"Pennsylvania","lat":39.91905,"lng":-75.38738,"zip":"19091","miles_from_dt":19.37},{"city":"Flourtown","state_name":"Pennsylvania","lat":40.1083,"lng":-75.21747,"zip":"19031","miles_from_dt":19.41},{"city":"Bristol","state_name":"Pennsylvania","lat":40.11483,"lng":-74.85474,"zip":"19007","miles_from_dt":19.43},{"city":"Malaga","state_name":"New Jersey","lat":39.5797,"lng":-75.06015,"zip":"08328","miles_from_dt":19.9},{"city":"Feasterville Trevose","state_name":"Pennsylvania","lat":40.15475,"lng":-74.97918,"zip":"19053","miles_from_dt":20.01},{"city":"Willow Grove","state_name":"Pennsylvania","lat":40.1484,"lng":-75.12378,"zip":"19090","miles_from_dt":20.04},{"city":"Pemberton","state_name":"New Jersey","lat":39.9617,"lng":-74.667,"zip":"08068","miles_from_dt":20.31},{"city":"Dresher","state_name":"Pennsylvania","lat":40.14556,"lng":-75.1632,"zip":"19025","miles_from_dt":20.48},{"city":"Conshohocken","state_name":"Pennsylvania","lat":40.08051,"lng":-75.30008,"zip":"19429","miles_from_dt":20.58},{"city":"Conshohocken","state_name":"Pennsylvania","lat":40.08011,"lng":-75.30317,"zip":"19428","miles_from_dt":20.67},{"city":"Villanova","state_name":"Pennsylvania","lat":40.03759,"lng":-75.34969,"zip":"19085","miles_from_dt":20.69},{"city":"Fort Washington","state_name":"Pennsylvania","lat":40.13353,"lng":-75.20953,"zip":"19034","miles_from_dt":20.72},{"city":"Newfield","state_name":"New Jersey","lat":39.56707,"lng":-74.99185,"zip":"08344","miles_from_dt":20.8},{"city":"Media","state_name":"Pennsylvania","lat":39.92248,"lng":-75.41419,"zip":"19063","miles_from_dt":20.82},{"city":"Florence","state_name":"New Jersey","lat":40.11541,"lng":-74.80357,"zip":"08518","miles_from_dt":20.89},{"city":"Levittown","state_name":"Pennsylvania","lat":40.14013,"lng":-74.85718,"zip":"19057","miles_from_dt":20.92},{"city":"Levittown","state_name":"Pennsylvania","lat":40.15044,"lng":-74.88534,"zip":"19056","miles_from_dt":20.98},{"city":"Hammonton","state_name":"New Jersey","lat":39.63272,"lng":-74.77226,"zip":"08037","miles_from_dt":21.19},{"city":"Aston","state_name":"Pennsylvania","lat":39.8637,"lng":-75.4338,"zip":"19014","miles_from_dt":21.52},{"city":"Marcus Hook","state_name":"Pennsylvania","lat":39.82741,"lng":-75.432,"zip":"19061","miles_from_dt":21.6},{"city":"Roebling","state_name":"New Jersey","lat":40.11556,"lng":-74.77966,"zip":"08554","miles_from_dt":21.65},{"city":"Hatboro","state_name":"Pennsylvania","lat":40.17732,"lng":-75.10624,"zip":"19040","miles_from_dt":21.78},{"city":"Columbus","state_name":"New Jersey","lat":40.06516,"lng":-74.70905,"zip":"08022","miles_from_dt":21.8},{"city":"Plymouth Meeting","state_name":"Pennsylvania","lat":40.11542,"lng":-75.28453,"zip":"19462","miles_from_dt":21.84},{"city":"Jobstown","state_name":"New Jersey","lat":40.03852,"lng":-74.68263,"zip":"08041","miles_from_dt":21.87},{"city":"Levittown","state_name":"Pennsylvania","lat":40.155,"lng":-74.85441,"zip":"19058","miles_from_dt":21.91},{"city":"Levittown","state_name":"Pennsylvania","lat":40.14984,"lng":-74.83881,"zip":"19055","miles_from_dt":21.96},{"city":"Juliustown","state_name":"New Jersey","lat":40.01363,"lng":-74.662,"zip":"08042","miles_from_dt":21.96},{"city":"Fort Washington","state_name":"Pennsylvania","lat":40.17607,"lng":-74.92482,"zip":"19048","miles_from_dt":22.02},{"city":"Fort Washington","state_name":"Pennsylvania","lat":40.17527,"lng":-74.91979,"zip":"19049","miles_from_dt":22.03},{"city":"Southampton","state_name":"Pennsylvania","lat":40.1879,"lng":-75.00557,"zip":"18966","miles_from_dt":22.16},{"city":"Lenni","state_name":"Pennsylvania","lat":39.89721,"lng":-75.44532,"zip":"19052","miles_from_dt":22.22},{"city":"Pedricktown","state_name":"New Jersey","lat":39.7388,"lng":-75.41281,"zip":"08067","miles_from_dt":22.26},{"city":"Bordentown","state_name":"New Jersey","lat":40.10413,"lng":-74.73959,"zip":"08505","miles_from_dt":22.43},{"city":"Newtonville","state_name":"New Jersey","lat":39.56926,"lng":-74.85827,"zip":"08346","miles_from_dt":22.48},{"city":"Woodstown","state_name":"New Jersey","lat":39.63934,"lng":-75.3316,"zip":"08098","miles_from_dt":22.51},{"city":"Langhorne","state_name":"Pennsylvania","lat":40.18207,"lng":-74.91062,"zip":"19047","miles_from_dt":22.61},{"city":"New Lisbon","state_name":"New Jersey","lat":39.93657,"lng":-74.61095,"zip":"08064","miles_from_dt":22.73},{"city":"Bridgeport","state_name":"Pennsylvania","lat":40.09949,"lng":-75.33497,"zip":"19405","miles_from_dt":22.81},{"city":"Elmer","state_name":"New Jersey","lat":39.55657,"lng":-75.17776,"zip":"08318","miles_from_dt":22.85},{"city":"Newtown Square","state_name":"Pennsylvania","lat":39.98093,"lng":-75.4346,"zip":"19073","miles_from_dt":22.92},{"city":"Chester Heights","state_name":"Pennsylvania","lat":39.89078,"lng":-75.46295,"zip":"19017","miles_from_dt":23.12},{"city":"Blue Bell","state_name":"Pennsylvania","lat":40.14862,"lng":-75.26616,"zip":"19424","miles_from_dt":23.13},{"city":"Horsham","state_name":"Pennsylvania","lat":40.18901,"lng":-75.15253,"zip":"19044","miles_from_dt":23.15},{"city":"Claymont","state_name":"Delaware","lat":39.8043,"lng":-75.45794,"zip":"19703","miles_from_dt":23.22},{"city":"Landisville","state_name":"New Jersey","lat":39.53847,"lng":-74.92761,"zip":"08326","miles_from_dt":23.32},{"city":"Edgemont","state_name":"Pennsylvania","lat":39.97442,"lng":-75.45261,"zip":"19028","miles_from_dt":23.68},{"city":"Levittown","state_name":"Pennsylvania","lat":40.17055,"lng":-74.82016,"zip":"19054","miles_from_dt":23.68},{"city":"Wayne","state_name":"Pennsylvania","lat":40.06172,"lng":-75.40004,"zip":"19087","miles_from_dt":23.83},{"city":"Gradyville","state_name":"Pennsylvania","lat":39.94291,"lng":-75.4676,"zip":"19039","miles_from_dt":23.88},{"city":"Ambler","state_name":"Pennsylvania","lat":40.18386,"lng":-75.21104,"zip":"19002","miles_from_dt":23.88},{"city":"Southeastern","state_name":"Pennsylvania","lat":40.04122,"lng":-75.42075,"zip":"19398","miles_from_dt":24.01},{"city":"Norristown","state_name":"Pennsylvania","lat":40.12022,"lng":-75.34019,"zip":"19404","miles_from_dt":24.02},{"city":"Fairless Hills","state_name":"Pennsylvania","lat":40.1812,"lng":-74.83269,"zip":"19030","miles_from_dt":24.04},{"city":"Blue Bell","state_name":"Pennsylvania","lat":40.15835,"lng":-75.27858,"zip":"19422","miles_from_dt":24.05},{"city":"Eagleville","state_name":"Pennsylvania","lat":40.12,"lng":-75.34219,"zip":"19415","miles_from_dt":24.09},{"city":"Fairview Village","state_name":"Pennsylvania","lat":40.12139,"lng":-75.34028,"zip":"19409","miles_from_dt":24.09},{"city":"Devon","state_name":"Pennsylvania","lat":40.04208,"lng":-75.42331,"zip":"19333","miles_from_dt":24.16},{"city":"Norristown","state_name":"Pennsylvania","lat":40.13042,"lng":-75.33143,"zip":"19401","miles_from_dt":24.23},{"city":"Warminster","state_name":"Pennsylvania","lat":40.21675,"lng":-75.07321,"zip":"18974","miles_from_dt":24.23},{"city":"Minotola","state_name":"New Jersey","lat":39.52002,"lng":-74.9524,"zip":"08341","miles_from_dt":24.3},{"city":"Warminster","state_name":"Pennsylvania","lat":40.21869,"lng":-75.07568,"zip":"18991","miles_from_dt":24.37},{"city":"Spring House","state_name":"Pennsylvania","lat":40.18447,"lng":-75.23583,"zip":"19477","miles_from_dt":24.48},{"city":"Buena","state_name":"New Jersey","lat":39.52723,"lng":-74.89769,"zip":"08310","miles_from_dt":24.48},{"city":"King Of Prussia","state_name":"Pennsylvania","lat":40.09467,"lng":-75.38402,"zip":"19406","miles_from_dt":24.52},{"city":"Richboro","state_name":"Pennsylvania","lat":40.2224,"lng":-75.00032,"zip":"18954","miles_from_dt":24.55},{"city":"Garnet Valley","state_name":"Pennsylvania","lat":39.85048,"lng":-75.4921,"zip":"19060","miles_from_dt":24.64},{"city":"Gwynedd Valley","state_name":"Pennsylvania","lat":40.18706,"lng":-75.25274,"zip":"19437","miles_from_dt":25.05},{"city":"Berwyn","state_name":"Pennsylvania","lat":40.0309,"lng":-75.45083,"zip":"19312","miles_from_dt":25.08},{"city":"Penns Grove","state_name":"New Jersey","lat":39.70209,"lng":-75.4501,"zip":"08069","miles_from_dt":25.14},{"city":"Glen Mills","state_name":"Pennsylvania","lat":39.90458,"lng":-75.50243,"zip":"19342","miles_from_dt":25.29},{"city":"Concordville","state_name":"Pennsylvania","lat":39.89912,"lng":-75.5042,"zip":"19339","miles_from_dt":25.35},{"city":"Valley Forge","state_name":"Pennsylvania","lat":40.10016,"lng":-75.40009,"zip":"19484","miles_from_dt":25.42},{"city":"Southeastern","state_name":"Pennsylvania","lat":40.0716,"lng":-75.42816,"zip":"19399","miles_from_dt":25.45},{"city":"Morrisville","state_name":"Pennsylvania","lat":40.19595,"lng":-74.80976,"zip":"19067","miles_from_dt":25.49},{"city":"Joint Base Mdl","state_name":"New Jersey","lat":40.0093,"lng":-74.58424,"zip":"08640","miles_from_dt":25.58},{"city":"Deerfield Street","state_name":"New Jersey","lat":39.53065,"lng":-75.23101,"zip":"08313","miles_from_dt":25.59},{"city":"Wilmington","state_name":"Delaware","lat":39.81855,"lng":-75.50628,"zip":"19810","miles_from_dt":25.6},{"city":"Vineland","state_name":"New Jersey","lat":39.49374,"lng":-75.00352,"zip":"08360","miles_from_dt":25.8},{"city":"Gwynedd","state_name":"Pennsylvania","lat":40.20253,"lng":-75.24842,"zip":"19436","miles_from_dt":25.89},{"city":"Norma","state_name":"New Jersey","lat":39.49378,"lng":-75.08778,"zip":"08347","miles_from_dt":25.95},{"city":"Joint Base Mdl","state_name":"New Jersey","lat":40.02819,"lng":-74.58715,"zip":"08641","miles_from_dt":25.96},{"city":"Elwood","state_name":"New Jersey","lat":39.57702,"lng":-74.71879,"zip":"08217","miles_from_dt":25.96},{"city":"Concordville","state_name":"Pennsylvania","lat":39.88672,"lng":-75.51889,"zip":"19340","miles_from_dt":26.07},{"city":"Concordville","state_name":"Pennsylvania","lat":39.89003,"lng":-75.52008,"zip":"19331","miles_from_dt":26.14},{"city":"Wilmington","state_name":"Delaware","lat":39.75801,"lng":-75.50218,"zip":"19809","miles_from_dt":26.27},{"city":"Browns Mills","state_name":"New Jersey","lat":39.92981,"lng":-74.53966,"zip":"08015","miles_from_dt":26.37},{"city":"Cheyney","state_name":"Pennsylvania","lat":39.92723,"lng":-75.52319,"zip":"19319","miles_from_dt":26.58},{"city":"Chesterfield","state_name":"New Jersey","lat":40.1163,"lng":-74.64568,"zip":"08515","miles_from_dt":26.63},{"city":"Southeastern","state_name":"Pennsylvania","lat":39.98224,"lng":-75.50887,"zip":"19397","miles_from_dt":26.69},{"city":"Paoli","state_name":"Pennsylvania","lat":40.0414,"lng":-75.4809,"zip":"19301","miles_from_dt":26.83},{"city":"Warrington","state_name":"Pennsylvania","lat":40.24676,"lng":-75.14321,"zip":"18976","miles_from_dt":26.88},{"city":"Thornton","state_name":"Pennsylvania","lat":39.90674,"lng":-75.53255,"zip":"19373","miles_from_dt":26.9},{"city":"Norristown","state_name":"Pennsylvania","lat":40.14898,"lng":-75.38034,"zip":"19403","miles_from_dt":26.93},{"city":"Wrightstown","state_name":"New Jersey","lat":40.06812,"lng":-74.59401,"zip":"08562","miles_from_dt":26.94},{"city":"Jamison","state_name":"Pennsylvania","lat":40.25674,"lng":-75.07885,"zip":"18929","miles_from_dt":27},{"city":"Trenton","state_name":"New Jersey","lat":40.19107,"lng":-74.74299,"zip":"08611","miles_from_dt":27.01},{"city":"North Wales","state_name":"Pennsylvania","lat":40.22303,"lng":-75.24365,"zip":"19454","miles_from_dt":27.06},{"city":"North Wales","state_name":"Pennsylvania","lat":40.21106,"lng":-75.2779,"zip":"19455","miles_from_dt":27.14},{"city":"Rushland","state_name":"Pennsylvania","lat":40.26162,"lng":-75.02725,"zip":"18956","miles_from_dt":27.21},{"city":"Richland","state_name":"New Jersey","lat":39.49134,"lng":-74.87413,"zip":"08350","miles_from_dt":27.22},{"city":"Montgomeryville","state_name":"Pennsylvania","lat":40.22993,"lng":-75.23154,"zip":"18936","miles_from_dt":27.23},{"city":"West Point","state_name":"Pennsylvania","lat":40.20665,"lng":-75.2985,"zip":"19486","miles_from_dt":27.43},{"city":"Trenton","state_name":"New Jersey","lat":40.2059,"lng":-74.75706,"zip":"08625","miles_from_dt":27.46},{"city":"Rosenhayn","state_name":"New Jersey","lat":39.47545,"lng":-75.12724,"zip":"08352","miles_from_dt":27.53},{"city":"Chatsworth","state_name":"New Jersey","lat":39.76733,"lng":-74.52781,"zip":"08019","miles_from_dt":27.55},{"city":"Wilmington","state_name":"Delaware","lat":39.75842,"lng":-75.52771,"zip":"19896","miles_from_dt":27.57},{"city":"Wilmington","state_name":"Delaware","lat":39.75715,"lng":-75.52873,"zip":"19802","miles_from_dt":27.65},{"city":"Newtown","state_name":"Pennsylvania","lat":40.26349,"lng":-74.9483,"zip":"18940","miles_from_dt":27.67},{"city":"Wilmington","state_name":"Delaware","lat":39.79912,"lng":-75.5422,"zip":"19803","miles_from_dt":27.69},{"city":"Vineland","state_name":"New Jersey","lat":39.46556,"lng":-74.9992,"zip":"08362","miles_from_dt":27.76},{"city":"Alloway","state_name":"New Jersey","lat":39.55423,"lng":-75.35683,"zip":"08001","miles_from_dt":27.77},{"city":"Trenton","state_name":"New Jersey","lat":40.21719,"lng":-74.76963,"zip":"08645","miles_from_dt":27.79},{"city":"Deepwater","state_name":"New Jersey","lat":39.68825,"lng":-75.49761,"zip":"08023","miles_from_dt":27.83},{"city":"Wilmington","state_name":"Delaware","lat":39.79805,"lng":-75.54565,"zip":"19897","miles_from_dt":27.89},{"city":"Trenton","state_name":"New Jersey","lat":40.21857,"lng":-74.76894,"zip":"08647","miles_from_dt":27.89},{"city":"Trenton","state_name":"New Jersey","lat":40.21954,"lng":-74.76969,"zip":"08666","miles_from_dt":27.93},{"city":"Trenton","state_name":"New Jersey","lat":40.21947,"lng":-74.76693,"zip":"08608","miles_from_dt":28},{"city":"Trenton","state_name":"New Jersey","lat":40.21789,"lng":-74.76342,"zip":"08646","miles_from_dt":28},{"city":"Wycombe","state_name":"Pennsylvania","lat":40.27276,"lng":-75.01105,"zip":"18980","miles_from_dt":28},{"city":"Trenton","state_name":"New Jersey","lat":40.19377,"lng":-74.71565,"zip":"08610","miles_from_dt":28},{"city":"Westtown","state_name":"Pennsylvania","lat":39.93217,"lng":-75.54945,"zip":"19395","miles_from_dt":28.01},{"city":"Trenton","state_name":"New Jersey","lat":40.21927,"lng":-74.76518,"zip":"08605","miles_from_dt":28.03},{"city":"Cookstown","state_name":"New Jersey","lat":40.04441,"lng":-74.55384,"zip":"08511","miles_from_dt":28.04},{"city":"Trenton","state_name":"New Jersey","lat":40.2196,"lng":-74.76437,"zip":"08604","miles_from_dt":28.07},{"city":"Trenton","state_name":"New Jersey","lat":40.22185,"lng":-74.76973,"zip":"08607","miles_from_dt":28.07},{"city":"Trenton","state_name":"New Jersey","lat":40.22051,"lng":-74.76526,"zip":"08603","miles_from_dt":28.11},{"city":"Trenton","state_name":"New Jersey","lat":40.2199,"lng":-74.76374,"zip":"08601","miles_from_dt":28.11},{"city":"Trenton","state_name":"New Jersey","lat":40.22086,"lng":-74.76486,"zip":"08695","miles_from_dt":28.14},{"city":"Mizpah","state_name":"New Jersey","lat":39.48808,"lng":-74.83431,"zip":"08342","miles_from_dt":28.14},{"city":"Audubon","state_name":"Pennsylvania","lat":40.12856,"lng":-75.43766,"zip":"19407","miles_from_dt":28.2},{"city":"Eagleville","state_name":"Pennsylvania","lat":40.16003,"lng":-75.40007,"zip":"19408","miles_from_dt":28.2},{"city":"Valley Forge","state_name":"Pennsylvania","lat":40.09729,"lng":-75.46849,"zip":"19496","miles_from_dt":28.21},{"city":"Trenton","state_name":"New Jersey","lat":40.13783,"lng":-74.62782,"zip":"08650","miles_from_dt":28.32},{"city":"Valley Forge","state_name":"Pennsylvania","lat":40.10004,"lng":-75.47003,"zip":"19482","miles_from_dt":28.38},{"city":"Worcester","state_name":"Pennsylvania","lat":40.19673,"lng":-75.35401,"zip":"19490","miles_from_dt":28.53},{"city":"Wilmington","state_name":"Delaware","lat":39.74852,"lng":-75.54409,"zip":"19894","miles_from_dt":28.6},{"city":"Wilmington","state_name":"Delaware","lat":39.74827,"lng":-75.54565,"zip":"19886","miles_from_dt":28.68},{"city":"Wilmington","state_name":"Delaware","lat":39.72894,"lng":-75.53734,"zip":"19850","miles_from_dt":28.68},{"city":"Wilmington","state_name":"Delaware","lat":39.73018,"lng":-75.53862,"zip":"19880","miles_from_dt":28.72},{"city":"Penns Park","state_name":"Pennsylvania","lat":40.28283,"lng":-74.9954,"zip":"18943","miles_from_dt":28.73},{"city":"Wilmington","state_name":"Delaware","lat":39.74325,"lng":-75.54538,"zip":"19884","miles_from_dt":28.77},{"city":"Wilmington","state_name":"Delaware","lat":39.74328,"lng":-75.54713,"zip":"19885","miles_from_dt":28.86},{"city":"Furlong","state_name":"Pennsylvania","lat":40.2851,"lng":-75.05934,"zip":"18925","miles_from_dt":28.88},{"city":"Trenton","state_name":"New Jersey","lat":40.16825,"lng":-74.64956,"zip":"08620","miles_from_dt":28.93},{"city":"Wilmington","state_name":"Delaware","lat":39.74384,"lng":-75.54947,"zip":"19895","miles_from_dt":28.97},{"city":"Wilmington","state_name":"Delaware","lat":39.74245,"lng":-75.54941,"zip":"19898","miles_from_dt":28.99},{"city":"Lansdale","state_name":"Pennsylvania","lat":40.23068,"lng":-75.30369,"zip":"19446","miles_from_dt":29},{"city":"Wilmington","state_name":"Delaware","lat":39.73563,"lng":-75.54766,"zip":"19899","miles_from_dt":29.05},{"city":"Trenton","state_name":"New Jersey","lat":40.22066,"lng":-74.73127,"zip":"08629","miles_from_dt":29.05},{"city":"Trenton","state_name":"New Jersey","lat":40.22594,"lng":-74.74109,"zip":"08609","miles_from_dt":29.08},{"city":"Pineville","state_name":"Pennsylvania","lat":40.28923,"lng":-75.01009,"zip":"18946","miles_from_dt":29.13},{"city":"Vineland","state_name":"New Jersey","lat":39.44843,"lng":-74.95943,"zip":"08361","miles_from_dt":29.13},{"city":"Wilmington","state_name":"Delaware","lat":39.73822,"lng":-75.55029,"zip":"19890","miles_from_dt":29.13},{"city":"Wilmington","state_name":"Delaware","lat":39.72782,"lng":-75.54615,"zip":"19801","miles_from_dt":29.15},{"city":"Trenton","state_name":"New Jersey","lat":40.24878,"lng":-74.78734,"zip":"08618","miles_from_dt":29.28},{"city":"Wilmington","state_name":"Delaware","lat":39.74769,"lng":-75.55791,"zip":"19893","miles_from_dt":29.32},{"city":"Malvern","state_name":"Pennsylvania","lat":40.0466,"lng":-75.5302,"zip":"19355","miles_from_dt":29.34},{"city":"Wilmington","state_name":"Delaware","lat":39.762,"lng":-75.56336,"zip":"19806","miles_from_dt":29.34},{"city":"Rockland","state_name":"Delaware","lat":39.80033,"lng":-75.57455,"zip":"19732","miles_from_dt":29.38},{"city":"Oaks","state_name":"Pennsylvania","lat":40.1367,"lng":-75.45962,"zip":"19456","miles_from_dt":29.45},{"city":"Trenton","state_name":"New Jersey","lat":40.26705,"lng":-74.82235,"zip":"08628","miles_from_dt":29.68},{"city":"Forest Grove","state_name":"Pennsylvania","lat":40.29883,"lng":-75.05717,"zip":"18922","miles_from_dt":29.82}],"targetCityZipCode":"08045","targetCityState":"New Jersey"},"__N_SSG":true}