{"pageProps":{"stateName":"New-jersey","cityName":"stanhope","nearbyCities":[{"city":"Netcong","state_name":"New Jersey","lat":40.89733,"lng":-74.69998,"zip":"07857","miles_from_dt":2.21},{"city":"Hopatcong","state_name":"New Jersey","lat":40.93989,"lng":-74.65928,"zip":"07843","miles_from_dt":2.77},{"city":"Landing","state_name":"New Jersey","lat":40.90716,"lng":-74.66158,"zip":"07850","miles_from_dt":2.93},{"city":"Andover","state_name":"New Jersey","lat":40.96461,"lng":-74.74807,"zip":"07821","miles_from_dt":3.19},{"city":"Budd Lake","state_name":"New Jersey","lat":40.88559,"lng":-74.75237,"zip":"07828","miles_from_dt":3.7},{"city":"Ledgewood","state_name":"New Jersey","lat":40.88374,"lng":-74.66531,"zip":"07852","miles_from_dt":3.87},{"city":"Mount Arlington","state_name":"New Jersey","lat":40.9189,"lng":-74.6336,"zip":"07856","miles_from_dt":4.05},{"city":"Glasser","state_name":"New Jersey","lat":40.97232,"lng":-74.63688,"zip":"07837","miles_from_dt":4.87},{"city":"Allamuchy","state_name":"New Jersey","lat":40.93104,"lng":-74.80424,"zip":"07820","miles_from_dt":4.94},{"city":"Kenvil","state_name":"New Jersey","lat":40.8856,"lng":-74.6237,"zip":"07847","miles_from_dt":5.4},{"city":"Tranquility","state_name":"New Jersey","lat":40.95713,"lng":-74.8072,"zip":"07879","miles_from_dt":5.46},{"city":"Flanders","state_name":"New Jersey","lat":40.84767,"lng":-74.70163,"zip":"07836","miles_from_dt":5.59},{"city":"Lake Hopatcong","state_name":"New Jersey","lat":40.96861,"lng":-74.61066,"zip":"07849","miles_from_dt":5.89},{"city":"Succasunna","state_name":"New Jersey","lat":40.85302,"lng":-74.65627,"zip":"07876","miles_from_dt":5.92},{"city":"Greendell","state_name":"New Jersey","lat":40.97469,"lng":-74.82071,"zip":"07839","miles_from_dt":6.61},{"city":"Mine Hill","state_name":"New Jersey","lat":40.87819,"lng":-74.60003,"zip":"07803","miles_from_dt":6.72},{"city":"Wharton","state_name":"New Jersey","lat":40.93172,"lng":-74.57688,"zip":"07885","miles_from_dt":6.97},{"city":"Hackettstown","state_name":"New Jersey","lat":40.86034,"lng":-74.83192,"zip":"07840","miles_from_dt":7.93},{"city":"Picatinny Arsenal","state_name":"New Jersey","lat":40.93939,"lng":-74.55845,"zip":"07806","miles_from_dt":7.96},{"city":"Ironia","state_name":"New Jersey","lat":40.83013,"lng":-74.62683,"zip":"07845","miles_from_dt":8.06},{"city":"Dover","state_name":"New Jersey","lat":40.93167,"lng":-74.54643,"zip":"07801","miles_from_dt":8.56},{"city":"Dover","state_name":"New Jersey","lat":40.85424,"lng":-74.57469,"zip":"07802","miles_from_dt":8.74},{"city":"Randolph","state_name":"New Jersey","lat":40.84528,"lng":-74.5807,"zip":"07869","miles_from_dt":8.88},{"city":"Johnsonburg","state_name":"New Jersey","lat":40.96694,"lng":-74.87671,"zip":"07846","miles_from_dt":9.12},{"city":"Sparta","state_name":"New Jersey","lat":41.04666,"lng":-74.62793,"zip":"07871","miles_from_dt":9.21},{"city":"Vienna","state_name":"New Jersey","lat":40.874,"lng":-74.88503,"zip":"07880","miles_from_dt":9.91},{"city":"Chester","state_name":"New Jersey","lat":40.78222,"lng":-74.68642,"zip":"07930","miles_from_dt":10.17},{"city":"Schooleys Mountain","state_name":"New Jersey","lat":40.80535,"lng":-74.82303,"zip":"07870","miles_from_dt":10.36},{"city":"Long Valley","state_name":"New Jersey","lat":40.78785,"lng":-74.78315,"zip":"07853","miles_from_dt":10.44},{"city":"Newton","state_name":"New Jersey","lat":41.0595,"lng":-74.81159,"zip":"07860","miles_from_dt":10.49},{"city":"Great Meadows","state_name":"New Jersey","lat":40.88925,"lng":-74.91042,"zip":"07838","miles_from_dt":10.84},{"city":"Mount Freedom","state_name":"New Jersey","lat":40.80831,"lng":-74.5727,"zip":"07970","miles_from_dt":10.98},{"city":"Hibernia","state_name":"New Jersey","lat":40.94477,"lng":-74.50065,"zip":"07842","miles_from_dt":11.01},{"city":"Brookside","state_name":"New Jersey","lat":40.80029,"lng":-74.56879,"zip":"07926","miles_from_dt":11.53},{"city":"Stillwater","state_name":"New Jersey","lat":41.03594,"lng":-74.87994,"zip":"07875","miles_from_dt":11.58},{"city":"Mendham","state_name":"New Jersey","lat":40.78065,"lng":-74.59928,"zip":"07945","miles_from_dt":11.73},{"city":"Middleville","state_name":"New Jersey","lat":41.05443,"lng":-74.86272,"zip":"07855","miles_from_dt":11.8},{"city":"Ogdensburg","state_name":"New Jersey","lat":41.0769,"lng":-74.59734,"zip":"07439","miles_from_dt":11.81},{"city":"Rockaway","state_name":"New Jersey","lat":40.9531,"lng":-74.48639,"zip":"07866","miles_from_dt":11.82},{"city":"Denville","state_name":"New Jersey","lat":40.88752,"lng":-74.48689,"zip":"07834","miles_from_dt":12.01},{"city":"Oak Ridge","state_name":"New Jersey","lat":41.0287,"lng":-74.52038,"zip":"07438","miles_from_dt":12.09},{"city":"Lafayette","state_name":"New Jersey","lat":41.10339,"lng":-74.68312,"zip":"07848","miles_from_dt":12.15},{"city":"Swartswood","state_name":"New Jersey","lat":41.08723,"lng":-74.829,"zip":"07877","miles_from_dt":12.6},{"city":"Mount Tabor","state_name":"New Jersey","lat":40.87152,"lng":-74.47826,"zip":"07878","miles_from_dt":12.75},{"city":"Morris Plains","state_name":"New Jersey","lat":40.84569,"lng":-74.48271,"zip":"07950","miles_from_dt":13.2},{"city":"Hope","state_name":"New Jersey","lat":40.90861,"lng":-74.96961,"zip":"07844","miles_from_dt":13.66},{"city":"Blairstown","state_name":"New Jersey","lat":40.98308,"lng":-74.9623,"zip":"07825","miles_from_dt":13.73},{"city":"Morristown","state_name":"New Jersey","lat":40.8064,"lng":-74.50061,"zip":"07962","miles_from_dt":13.83},{"city":"Port Murray","state_name":"New Jersey","lat":40.78722,"lng":-74.89845,"zip":"07865","miles_from_dt":13.88},{"city":"Franklin","state_name":"New Jersey","lat":41.10892,"lng":-74.58891,"zip":"07416","miles_from_dt":13.96},{"city":"Mountain Lakes","state_name":"New Jersey","lat":40.89067,"lng":-74.44072,"zip":"07046","miles_from_dt":14.33},{"city":"Gladstone","state_name":"New Jersey","lat":40.72044,"lng":-74.68159,"zip":"07934","miles_from_dt":14.43},{"city":"Augusta","state_name":"New Jersey","lat":41.1409,"lng":-74.70373,"zip":"07822","miles_from_dt":14.66},{"city":"Morristown","state_name":"New Jersey","lat":40.78452,"lng":-74.49813,"zip":"07960","miles_from_dt":14.89},{"city":"Pottersville","state_name":"New Jersey","lat":40.71225,"lng":-74.72581,"zip":"07979","miles_from_dt":14.95},{"city":"Califon","state_name":"New Jersey","lat":40.72099,"lng":-74.80033,"zip":"07830","miles_from_dt":15.08},{"city":"Branchville","state_name":"New Jersey","lat":41.14489,"lng":-74.75209,"zip":"07890","miles_from_dt":15.09},{"city":"Morristown","state_name":"New Jersey","lat":40.79547,"lng":-74.47775,"zip":"07963","miles_from_dt":15.24},{"city":"Bernardsville","state_name":"New Jersey","lat":40.727,"lng":-74.58941,"zip":"07924","miles_from_dt":15.27},{"city":"Cedar Knolls","state_name":"New Jersey","lat":40.82085,"lng":-74.45479,"zip":"07927","miles_from_dt":15.29},{"city":"Boonton","state_name":"New Jersey","lat":40.92738,"lng":-74.41706,"zip":"07005","miles_from_dt":15.33},{"city":"Peapack","state_name":"New Jersey","lat":40.70969,"lng":-74.64786,"zip":"07977","miles_from_dt":15.45},{"city":"Far Hills","state_name":"New Jersey","lat":40.70791,"lng":-74.65732,"zip":"07931","miles_from_dt":15.47},{"city":"Oxford","state_name":"New Jersey","lat":40.81515,"lng":-74.96562,"zip":"07863","miles_from_dt":15.51},{"city":"Whippany","state_name":"New Jersey","lat":40.8214,"lng":-74.43954,"zip":"07999","miles_from_dt":15.98},{"city":"Newfoundland","state_name":"New Jersey","lat":41.0425,"lng":-74.44159,"zip":"07435","miles_from_dt":16.09},{"city":"Whippany","state_name":"New Jersey","lat":40.82375,"lng":-74.42029,"zip":"07981","miles_from_dt":16.8},{"city":"Parsippany","state_name":"New Jersey","lat":40.85527,"lng":-74.40239,"zip":"07054","miles_from_dt":16.88},{"city":"Hamburg","state_name":"New Jersey","lat":41.15394,"lng":-74.57106,"zip":"07419","miles_from_dt":17.17},{"city":"Stockholm","state_name":"New Jersey","lat":41.11341,"lng":-74.49006,"zip":"07460","miles_from_dt":17.17},{"city":"Oldwick","state_name":"New Jersey","lat":40.67903,"lng":-74.73748,"zip":"08858","miles_from_dt":17.27},{"city":"Butler","state_name":"New Jersey","lat":40.98646,"lng":-74.38302,"zip":"07405","miles_from_dt":17.56},{"city":"Branchville","state_name":"New Jersey","lat":41.17633,"lng":-74.79042,"zip":"07826","miles_from_dt":17.61},{"city":"Lake Hiawatha","state_name":"New Jersey","lat":40.87953,"lng":-74.37965,"zip":"07034","miles_from_dt":17.62},{"city":"Convent Station","state_name":"New Jersey","lat":40.78105,"lng":-74.43517,"zip":"07961","miles_from_dt":17.63},{"city":"Glen Gardner","state_name":"New Jersey","lat":40.71912,"lng":-74.90527,"zip":"08826","miles_from_dt":17.71},{"city":"Wallpack Center","state_name":"New Jersey","lat":41.12213,"lng":-74.93249,"zip":"07881","miles_from_dt":17.71},{"city":"Montville","state_name":"New Jersey","lat":40.90736,"lng":-74.3671,"zip":"07045","miles_from_dt":18},{"city":"Changewater","state_name":"New Jersey","lat":40.73909,"lng":-74.94678,"zip":"07831","miles_from_dt":18.03},{"city":"New Vernon","state_name":"New Jersey","lat":40.72747,"lng":-74.47704,"zip":"07976","miles_from_dt":18.48},{"city":"Columbia","state_name":"New Jersey","lat":40.94755,"lng":-75.06385,"zip":"07832","miles_from_dt":18.57},{"city":"Belvidere","state_name":"New Jersey","lat":40.82589,"lng":-75.03781,"zip":"07823","miles_from_dt":18.57},{"city":"Basking Ridge","state_name":"New Jersey","lat":40.68374,"lng":-74.55444,"zip":"07920","miles_from_dt":18.75},{"city":"Green Village","state_name":"New Jersey","lat":40.7371,"lng":-74.45296,"zip":"07935","miles_from_dt":18.86},{"city":"Bedminster","state_name":"New Jersey","lat":40.65599,"lng":-74.6771,"zip":"07921","miles_from_dt":18.88},{"city":"Delaware","state_name":"New Jersey","lat":40.89422,"lng":-75.06979,"zip":"07833","miles_from_dt":18.99},{"city":"Towaco","state_name":"New Jersey","lat":40.92643,"lng":-74.34524,"zip":"07082","miles_from_dt":19.09},{"city":"Madison","state_name":"New Jersey","lat":40.76006,"lng":-74.41889,"zip":"07940","miles_from_dt":19.18},{"city":"Liberty Corner","state_name":"New Jersey","lat":40.6647,"lng":-74.57772,"zip":"07938","miles_from_dt":19.48},{"city":"McAfee","state_name":"New Jersey","lat":41.18538,"lng":-74.55155,"zip":"07428","miles_from_dt":19.56},{"city":"East Hanover","state_name":"New Jersey","lat":40.81918,"lng":-74.36382,"zip":"07936","miles_from_dt":19.64},{"city":"Florham Park","state_name":"New Jersey","lat":40.77717,"lng":-74.39246,"zip":"07932","miles_from_dt":19.64},{"city":"Pine Brook","state_name":"New Jersey","lat":40.86701,"lng":-74.34283,"zip":"07058","miles_from_dt":19.68},{"city":"Washington","state_name":"New Jersey","lat":40.75327,"lng":-75.00748,"zip":"07882","miles_from_dt":19.73},{"city":"Lyons","state_name":"New Jersey","lat":40.66723,"lng":-74.55215,"zip":"07939","miles_from_dt":19.84},{"city":"Pluckemin","state_name":"New Jersey","lat":40.64409,"lng":-74.63553,"zip":"07978","miles_from_dt":20.01},{"city":"Layton","state_name":"New Jersey","lat":41.19883,"lng":-74.85923,"zip":"07851","miles_from_dt":20.22},{"city":"Millington","state_name":"New Jersey","lat":40.67698,"lng":-74.51143,"zip":"07946","miles_from_dt":20.24},{"city":"Lebanon","state_name":"New Jersey","lat":40.645,"lng":-74.81989,"zip":"08833","miles_from_dt":20.39},{"city":"High Bridge","state_name":"New Jersey","lat":40.66828,"lng":-74.89414,"zip":"08829","miles_from_dt":20.39},{"city":"Portland","state_name":"Pennsylvania","lat":40.92321,"lng":-75.10063,"zip":"18351","miles_from_dt":20.45},{"city":"West Milford","state_name":"New Jersey","lat":41.08713,"lng":-74.3779,"zip":"07480","miles_from_dt":20.52},{"city":"Gillette","state_name":"New Jersey","lat":40.69198,"lng":-74.46658,"zip":"07933","miles_from_dt":20.72},{"city":"Stirling","state_name":"New Jersey","lat":40.6765,"lng":-74.49465,"zip":"07980","miles_from_dt":20.73},{"city":"Bloomingdale","state_name":"New Jersey","lat":41.02059,"lng":-74.33239,"zip":"07403","miles_from_dt":20.74},{"city":"Chatham","state_name":"New Jersey","lat":40.7262,"lng":-74.41381,"zip":"07928","miles_from_dt":20.88},{"city":"Mount Bethel","state_name":"Pennsylvania","lat":40.89043,"lng":-75.1058,"zip":"18343","miles_from_dt":20.89},{"city":"Whitehouse","state_name":"New Jersey","lat":40.625,"lng":-74.74164,"zip":"08888","miles_from_dt":21.01},{"city":"Lincoln Park","state_name":"New Jersey","lat":40.925,"lng":-74.30462,"zip":"07035","miles_from_dt":21.21},{"city":"Pompton Plains","state_name":"New Jersey","lat":40.96782,"lng":-74.30724,"zip":"07444","miles_from_dt":21.24},{"city":"Riverdale","state_name":"New Jersey","lat":40.99212,"lng":-74.3125,"zip":"07457","miles_from_dt":21.25},{"city":"Bushkill","state_name":"Pennsylvania","lat":41.14712,"lng":-75.0001,"zip":"18324","miles_from_dt":21.39},{"city":"Fairfield","state_name":"New Jersey","lat":40.88282,"lng":-74.30413,"zip":"07004","miles_from_dt":21.48},{"city":"Pequannock","state_name":"New Jersey","lat":40.94668,"lng":-74.29421,"zip":"07440","miles_from_dt":21.79},{"city":"Shawnee On Delaware","state_name":"Pennsylvania","lat":41.01574,"lng":-75.11192,"zip":"18356","miles_from_dt":21.87},{"city":"Vernon","state_name":"New Jersey","lat":41.19873,"lng":-74.48911,"zip":"07462","miles_from_dt":21.93},{"city":"Caldwell","state_name":"New Jersey","lat":40.84083,"lng":-74.30222,"zip":"07007","miles_from_dt":22.19},{"city":"Livingston","state_name":"New Jersey","lat":40.78554,"lng":-74.32909,"zip":"07039","miles_from_dt":22.26},{"city":"Highland Lakes","state_name":"New Jersey","lat":41.17984,"lng":-74.44177,"zip":"07422","miles_from_dt":22.29},{"city":"Roseland","state_name":"New Jersey","lat":40.82077,"lng":-74.30862,"zip":"07068","miles_from_dt":22.3},{"city":"Clinton","state_name":"New Jersey","lat":40.64973,"lng":-74.92503,"zip":"08809","miles_from_dt":22.3},{"city":"Whitehouse Station","state_name":"New Jersey","lat":40.60744,"lng":-74.75936,"zip":"08889","miles_from_dt":22.31},{"city":"Sussex","state_name":"New Jersey","lat":41.24213,"lng":-74.60648,"zip":"07461","miles_from_dt":22.31},{"city":"Haskell","state_name":"New Jersey","lat":41.02926,"lng":-74.30281,"zip":"07420","miles_from_dt":22.4},{"city":"Broadway","state_name":"New Jersey","lat":40.72559,"lng":-75.04837,"zip":"08808","miles_from_dt":22.6},{"city":"New Providence","state_name":"New Jersey","lat":40.69732,"lng":-74.40321,"zip":"07974","miles_from_dt":22.65},{"city":"Marshalls Creek","state_name":"Pennsylvania","lat":41.06413,"lng":-75.10455,"zip":"18335","miles_from_dt":22.65},{"city":"Hampton","state_name":"New Jersey","lat":40.66775,"lng":-74.97351,"zip":"08827","miles_from_dt":22.69},{"city":"Annandale","state_name":"New Jersey","lat":40.62774,"lng":-74.88655,"zip":"08801","miles_from_dt":22.73},{"city":"Pompton Lakes","state_name":"New Jersey","lat":41.0024,"lng":-74.28589,"zip":"07442","miles_from_dt":22.76},{"city":"Minisink Hills","state_name":"Pennsylvania","lat":41,"lng":-75.13618,"zip":"18341","miles_from_dt":22.83},{"city":"Warren","state_name":"New Jersey","lat":40.63199,"lng":-74.51463,"zip":"07059","miles_from_dt":22.88},{"city":"Berkeley Heights","state_name":"New Jersey","lat":40.67525,"lng":-74.42806,"zip":"07922","miles_from_dt":22.89},{"city":"Caldwell","state_name":"New Jersey","lat":40.85221,"lng":-74.2817,"zip":"07006","miles_from_dt":23.03},{"city":"Wanaque","state_name":"New Jersey","lat":41.05015,"lng":-74.29849,"zip":"07465","miles_from_dt":23.09},{"city":"Delaware Water Gap","state_name":"Pennsylvania","lat":40.98341,"lng":-75.14665,"zip":"18327","miles_from_dt":23.16},{"city":"Tamiment","state_name":"Pennsylvania","lat":41.15837,"lng":-75.03658,"zip":"18371","miles_from_dt":23.3},{"city":"Summit","state_name":"New Jersey","lat":40.71462,"lng":-74.36604,"zip":"07901","miles_from_dt":23.3},{"city":"Summit","state_name":"New Jersey","lat":40.71414,"lng":-74.36589,"zip":"07902","miles_from_dt":23.33},{"city":"Somerville","state_name":"New Jersey","lat":40.58925,"lng":-74.68871,"zip":"08876","miles_from_dt":23.44},{"city":"Essex Fells","state_name":"New Jersey","lat":40.82708,"lng":-74.27981,"zip":"07021","miles_from_dt":23.59},{"city":"Westfield","state_name":"New Jersey","lat":40.6938,"lng":-74.38262,"zip":"07091","miles_from_dt":23.6},{"city":"Bridgewater","state_name":"New Jersey","lat":40.59241,"lng":-74.6202,"zip":"08807","miles_from_dt":23.66},{"city":"Short Hills","state_name":"New Jersey","lat":40.74196,"lng":-74.3277,"zip":"07078","miles_from_dt":23.81},{"city":"Asbury","state_name":"New Jersey","lat":40.6783,"lng":-75.02515,"zip":"08802","miles_from_dt":23.9},{"city":"East Stroudsburg","state_name":"Pennsylvania","lat":41.09243,"lng":-75.11783,"zip":"18302","miles_from_dt":24.14},{"city":"Wayne","state_name":"New Jersey","lat":40.94936,"lng":-74.24745,"zip":"07474","miles_from_dt":24.24},{"city":"Martinsville","state_name":"New Jersey","lat":40.59705,"lng":-74.55446,"zip":"08836","miles_from_dt":24.28},{"city":"Watchung","state_name":"New Jersey","lat":40.64249,"lng":-74.4396,"zip":"07069","miles_from_dt":24.3},{"city":"Wayne","state_name":"New Jersey","lat":40.94805,"lng":-74.24504,"zip":"07470","miles_from_dt":24.36},{"city":"Glenwood","state_name":"New Jersey","lat":41.2387,"lng":-74.4873,"zip":"07418","miles_from_dt":24.36},{"city":"Hewitt","state_name":"New Jersey","lat":41.1624,"lng":-74.35586,"zip":"07421","miles_from_dt":24.55},{"city":"Bangor","state_name":"Pennsylvania","lat":40.85511,"lng":-75.17114,"zip":"18013","miles_from_dt":24.68},{"city":"Raritan","state_name":"New Jersey","lat":40.57316,"lng":-74.64305,"zip":"08869","miles_from_dt":24.77},{"city":"Montague","state_name":"New Jersey","lat":41.28918,"lng":-74.74351,"zip":"07827","miles_from_dt":24.95},{"city":"Readington","state_name":"New Jersey","lat":40.56649,"lng":-74.73994,"zip":"08870","miles_from_dt":25.03},{"city":"Mountainside","state_name":"New Jersey","lat":40.68106,"lng":-74.36038,"zip":"07092","miles_from_dt":25.05},{"city":"West Orange","state_name":"New Jersey","lat":40.78928,"lng":-74.26281,"zip":"07052","miles_from_dt":25.32},{"city":"Verona","state_name":"New Jersey","lat":40.83228,"lng":-74.24308,"zip":"07044","miles_from_dt":25.34},{"city":"Stanton","state_name":"New Jersey","lat":40.57427,"lng":-74.83818,"zip":"08885","miles_from_dt":25.35},{"city":"Oakland","state_name":"New Jersey","lat":41.03135,"lng":-74.24081,"zip":"07436","miles_from_dt":25.54},{"city":"Springfield","state_name":"New Jersey","lat":40.69949,"lng":-74.32542,"zip":"07081","miles_from_dt":25.61},{"city":"Totowa","state_name":"New Jersey","lat":40.90385,"lng":-74.22118,"zip":"07512","miles_from_dt":25.64},{"city":"Totowa","state_name":"New Jersey","lat":40.90243,"lng":-74.22109,"zip":"07511","miles_from_dt":25.65},{"city":"Dingmans Ferry","state_name":"Pennsylvania","lat":41.22531,"lng":-75.00633,"zip":"18328","miles_from_dt":25.67},{"city":"Cedar Grove","state_name":"New Jersey","lat":40.85651,"lng":-74.22871,"zip":"07009","miles_from_dt":25.68},{"city":"Dunellen","state_name":"New Jersey","lat":40.5999,"lng":-74.47979,"zip":"08812","miles_from_dt":25.69},{"city":"Millburn","state_name":"New Jersey","lat":40.72301,"lng":-74.30065,"zip":"07041","miles_from_dt":25.72},{"city":"East Stroudsburg","state_name":"Pennsylvania","lat":41.03141,"lng":-75.18316,"zip":"18301","miles_from_dt":25.75},{"city":"Ringwood","state_name":"New Jersey","lat":41.10647,"lng":-74.27487,"zip":"07456","miles_from_dt":25.84},{"city":"Plainfield","state_name":"New Jersey","lat":40.63174,"lng":-74.40391,"zip":"07062","miles_from_dt":26.02},{"city":"Fanwood","state_name":"New Jersey","lat":40.64171,"lng":-74.38575,"zip":"07023","miles_from_dt":26.09},{"city":"New Milford","state_name":"New York","lat":41.23454,"lng":-74.41307,"zip":"10959","miles_from_dt":26.2},{"city":"Bound Brook","state_name":"New Jersey","lat":40.57165,"lng":-74.53783,"zip":"08805","miles_from_dt":26.23},{"city":"Plainfield","state_name":"New Jersey","lat":40.60524,"lng":-74.44615,"zip":"07063","miles_from_dt":26.25},{"city":"Plainfield","state_name":"New Jersey","lat":40.61606,"lng":-74.42164,"zip":"07060","miles_from_dt":26.33},{"city":"Stewartsville","state_name":"New Jersey","lat":40.69302,"lng":-75.10565,"zip":"08886","miles_from_dt":26.35},{"city":"Little Falls","state_name":"New Jersey","lat":40.88361,"lng":-74.2059,"zip":"07424","miles_from_dt":26.57},{"city":"Plainfield","state_name":"New Jersey","lat":40.61505,"lng":-74.41449,"zip":"07061","miles_from_dt":26.61},{"city":"South Orange","state_name":"New Jersey","lat":40.74908,"lng":-74.26022,"zip":"07079","miles_from_dt":26.62},{"city":"Vauxhall","state_name":"New Jersey","lat":40.71832,"lng":-74.28375,"zip":"07088","miles_from_dt":26.64},{"city":"Maplewood","state_name":"New Jersey","lat":40.73302,"lng":-74.27117,"zip":"07040","miles_from_dt":26.66},{"city":"Martins Creek","state_name":"Pennsylvania","lat":40.78229,"lng":-75.18164,"zip":"18063","miles_from_dt":26.69},{"city":"Middlesex","state_name":"New Jersey","lat":40.57439,"lng":-74.5011,"zip":"08846","miles_from_dt":26.78},{"city":"Franklin Lakes","state_name":"New Jersey","lat":41.00859,"lng":-74.20836,"zip":"07417","miles_from_dt":26.81},{"city":"Unionville","state_name":"New York","lat":41.30133,"lng":-74.56218,"zip":"10988","miles_from_dt":26.86},{"city":"Sterling Forest","state_name":"New York","lat":41.18237,"lng":-74.31877,"zip":"10979","miles_from_dt":26.91},{"city":"Scotch Plains","state_name":"New Jersey","lat":40.63308,"lng":-74.37387,"zip":"07076","miles_from_dt":26.95},{"city":"Montclair","state_name":"New Jersey","lat":40.81382,"lng":-74.21775,"zip":"07042","miles_from_dt":26.97},{"city":"Orange","state_name":"New Jersey","lat":40.77059,"lng":-74.23915,"zip":"07051","miles_from_dt":26.97},{"city":"Paterson","state_name":"New Jersey","lat":40.91903,"lng":-74.19461,"zip":"07502","miles_from_dt":26.98},{"city":"Westfield","state_name":"New Jersey","lat":40.65172,"lng":-74.34328,"zip":"07090","miles_from_dt":27.1},{"city":"Orange","state_name":"New Jersey","lat":40.76817,"lng":-74.2348,"zip":"07050","miles_from_dt":27.24},{"city":"Haledon","state_name":"New Jersey","lat":40.9366,"lng":-74.18961,"zip":"07538","miles_from_dt":27.24},{"city":"Montclair","state_name":"New Jersey","lat":40.84411,"lng":-74.20041,"zip":"07043","miles_from_dt":27.31},{"city":"Manville","state_name":"New Jersey","lat":40.54147,"lng":-74.58876,"zip":"08835","miles_from_dt":27.45},{"city":"Haledon","state_name":"New Jersey","lat":40.95448,"lng":-74.18423,"zip":"07508","miles_from_dt":27.57},{"city":"South Bound Brook","state_name":"New Jersey","lat":40.55354,"lng":-74.52771,"zip":"08880","miles_from_dt":27.58},{"city":"Pine Island","state_name":"New York","lat":41.292,"lng":-74.48879,"zip":"10969","miles_from_dt":27.61},{"city":"Phillipsburg","state_name":"New Jersey","lat":40.7094,"lng":-75.15109,"zip":"08865","miles_from_dt":27.63},{"city":"Neshanic Station","state_name":"New Jersey","lat":40.52879,"lng":-74.74246,"zip":"08853","miles_from_dt":27.63},{"city":"Paterson","state_name":"New Jersey","lat":40.92413,"lng":-74.17928,"zip":"07522","miles_from_dt":27.77},{"city":"Zarephath","state_name":"New Jersey","lat":40.53877,"lng":-74.57531,"zip":"08890","miles_from_dt":27.81},{"city":"Glen Ridge","state_name":"New Jersey","lat":40.80421,"lng":-74.20428,"zip":"07028","miles_from_dt":27.84},{"city":"Quakertown","state_name":"New Jersey","lat":40.56607,"lng":-74.94355,"zip":"08868","miles_from_dt":27.85},{"city":"Garwood","state_name":"New Jersey","lat":40.65132,"lng":-74.32313,"zip":"07027","miles_from_dt":27.88},{"city":"Pittstown","state_name":"New Jersey","lat":40.57513,"lng":-74.96777,"zip":"08867","miles_from_dt":27.89},{"city":"Analomink","state_name":"Pennsylvania","lat":41.05183,"lng":-75.21989,"zip":"18320","miles_from_dt":27.99},{"city":"Kenilworth","state_name":"New Jersey","lat":40.67812,"lng":-74.28898,"zip":"07033","miles_from_dt":28.03},{"city":"Paterson","state_name":"New Jersey","lat":40.91694,"lng":-74.17222,"zip":"07505","miles_from_dt":28.16},{"city":"Hawthorne","state_name":"New Jersey","lat":40.91667,"lng":-74.17222,"zip":"07507","miles_from_dt":28.16},{"city":"Flagtown","state_name":"New Jersey","lat":40.52074,"lng":-74.68835,"zip":"08821","miles_from_dt":28.16},{"city":"Paterson","state_name":"New Jersey","lat":40.91085,"lng":-74.17217,"zip":"07510","miles_from_dt":28.17},{"city":"Paterson","state_name":"New Jersey","lat":40.91199,"lng":-74.17223,"zip":"07509","miles_from_dt":28.17},{"city":"Union","state_name":"New Jersey","lat":40.69443,"lng":-74.2692,"zip":"07083","miles_from_dt":28.19},{"city":"Paterson","state_name":"New Jersey","lat":40.9125,"lng":-74.17099,"zip":"07501","miles_from_dt":28.23},{"city":"Newark","state_name":"New Jersey","lat":40.74177,"lng":-74.23047,"zip":"07106","miles_from_dt":28.24},{"city":"Bloomsbury","state_name":"New Jersey","lat":40.64412,"lng":-75.09936,"zip":"08804","miles_from_dt":28.32},{"city":"Three Bridges","state_name":"New Jersey","lat":40.52219,"lng":-74.79428,"zip":"08887","miles_from_dt":28.38},{"city":"Cranford","state_name":"New Jersey","lat":40.65678,"lng":-74.30354,"zip":"07016","miles_from_dt":28.39},{"city":"East Orange","state_name":"New Jersey","lat":40.75572,"lng":-74.21793,"zip":"07018","miles_from_dt":28.41},{"city":"Clifton","state_name":"New Jersey","lat":40.86935,"lng":-74.17267,"zip":"07013","miles_from_dt":28.43},{"city":"East Orange","state_name":"New Jersey","lat":40.77192,"lng":-74.20712,"zip":"07017","miles_from_dt":28.48},{"city":"Bloomfield","state_name":"New Jersey","lat":40.80976,"lng":-74.18683,"zip":"07003","miles_from_dt":28.6},{"city":"Greenwood Lake","state_name":"New York","lat":41.20076,"lng":-74.29535,"zip":"10925","miles_from_dt":28.67},{"city":"Little York","state_name":"New Jersey","lat":40.60764,"lng":-75.05804,"zip":"08834","miles_from_dt":28.7},{"city":"East Orange","state_name":"New Jersey","lat":40.75994,"lng":-74.20793,"zip":"07019","miles_from_dt":28.76},{"city":"Irvington","state_name":"New Jersey","lat":40.72426,"lng":-74.23173,"zip":"07111","miles_from_dt":28.76},{"city":"Wyckoff","state_name":"New Jersey","lat":40.99891,"lng":-74.16757,"zip":"07481","miles_from_dt":28.78},{"city":"South Plainfield","state_name":"New Jersey","lat":40.57483,"lng":-74.41542,"zip":"07080","miles_from_dt":28.89},{"city":"Paterson","state_name":"New Jersey","lat":40.93042,"lng":-74.1575,"zip":"07544","miles_from_dt":28.91},{"city":"Hawthorne","state_name":"New Jersey","lat":40.95794,"lng":-74.15815,"zip":"07506","miles_from_dt":28.94},{"city":"Paterson","state_name":"New Jersey","lat":40.93226,"lng":-74.15674,"zip":"07524","miles_from_dt":28.95},{"city":"Flemington","state_name":"New Jersey","lat":40.52281,"lng":-74.86576,"zip":"08822","miles_from_dt":29.16},{"city":"Paterson","state_name":"New Jersey","lat":40.89787,"lng":-74.15427,"zip":"07533","miles_from_dt":29.16},{"city":"Westtown","state_name":"New York","lat":41.33118,"lng":-74.53989,"zip":"10998","miles_from_dt":29.17},{"city":"Paterson","state_name":"New Jersey","lat":40.89768,"lng":-74.15353,"zip":"07503","miles_from_dt":29.2},{"city":"Milford","state_name":"Pennsylvania","lat":41.33406,"lng":-74.87342,"zip":"18337","miles_from_dt":29.26},{"city":"Pen Argyl","state_name":"Pennsylvania","lat":40.84548,"lng":-75.25842,"zip":"18072","miles_from_dt":29.29},{"city":"Mahwah","state_name":"New Jersey","lat":41.08113,"lng":-74.18666,"zip":"07495","miles_from_dt":29.31},{"city":"Newark","state_name":"New Jersey","lat":40.72559,"lng":-74.21849,"zip":"07184","miles_from_dt":29.32},{"city":"Warwick","state_name":"New York","lat":41.2651,"lng":-74.3663,"zip":"10990","miles_from_dt":29.35},{"city":"Piscataway","state_name":"New Jersey","lat":40.54648,"lng":-74.46342,"zip":"08854","miles_from_dt":29.36},{"city":"Clifton","state_name":"New Jersey","lat":40.84694,"lng":-74.1596,"zip":"07012","miles_from_dt":29.36},{"city":"Mahwah","state_name":"New Jersey","lat":41.08157,"lng":-74.18562,"zip":"07430","miles_from_dt":29.37},{"city":"Paterson","state_name":"New Jersey","lat":40.905,"lng":-74.1487,"zip":"07543","miles_from_dt":29.42},{"city":"Paterson","state_name":"New Jersey","lat":40.90565,"lng":-74.14869,"zip":"07513","miles_from_dt":29.42},{"city":"Roselle Park","state_name":"New Jersey","lat":40.66532,"lng":-74.2666,"zip":"07204","miles_from_dt":29.5},{"city":"Paterson","state_name":"New Jersey","lat":40.92596,"lng":-74.14452,"zip":"07514","miles_from_dt":29.59},{"city":"Easton","state_name":"Pennsylvania","lat":40.7459,"lng":-75.22172,"zip":"18040","miles_from_dt":29.63},{"city":"Clark","state_name":"New Jersey","lat":40.62061,"lng":-74.31335,"zip":"07066","miles_from_dt":29.73},{"city":"Hillsborough","state_name":"New Jersey","lat":40.49858,"lng":-74.67274,"zip":"08844","miles_from_dt":29.73},{"city":"Newark","state_name":"New Jersey","lat":40.76181,"lng":-74.18653,"zip":"07107","miles_from_dt":29.74},{"city":"Clifton","state_name":"New Jersey","lat":40.8801,"lng":-74.14449,"zip":"07011","miles_from_dt":29.79},{"city":"Paterson","state_name":"New Jersey","lat":40.912,"lng":-74.14121,"zip":"07504","miles_from_dt":29.79},{"city":"Reeders","state_name":"Pennsylvania","lat":40.9897,"lng":-75.27501,"zip":"18352","miles_from_dt":29.86},{"city":"Hillside","state_name":"New Jersey","lat":40.69612,"lng":-74.22857,"zip":"07205","miles_from_dt":29.9},{"city":"Nutley","state_name":"New Jersey","lat":40.81926,"lng":-74.15715,"zip":"07110","miles_from_dt":29.92},{"city":"Newark","state_name":"New Jersey","lat":40.73886,"lng":-74.19529,"zip":"07103","miles_from_dt":29.98}],"targetCityZipCode":"07874","targetCityState":"New Jersey"},"__N_SSG":true}