{"pageProps":{"stateName":"Oklahoma","cityName":"albion","nearbyCities":[{"city":"Talihina","state_name":"Oklahoma","lat":34.71915,"lng":-95.04948,"zip":"74571","miles_from_dt":4.84},{"city":"Tuskahoma","state_name":"Oklahoma","lat":34.67885,"lng":-95.27335,"zip":"74574","miles_from_dt":9.98},{"city":"Nashoba","state_name":"Oklahoma","lat":34.49174,"lng":-95.15081,"zip":"74558","miles_from_dt":12.11},{"city":"Honobia","state_name":"Oklahoma","lat":34.57483,"lng":-94.90993,"zip":"74549","miles_from_dt":12.36},{"city":"Whitesboro","state_name":"Oklahoma","lat":34.71967,"lng":-94.85689,"zip":"74577","miles_from_dt":14.36},{"city":"Leflore","state_name":"Oklahoma","lat":34.89799,"lng":-94.97661,"zip":"74942","miles_from_dt":17.69},{"city":"Muse","state_name":"Oklahoma","lat":34.68324,"lng":-94.7739,"zip":"74949","miles_from_dt":18.59},{"city":"Pickens","state_name":"Oklahoma","lat":34.39499,"lng":-95.01219,"zip":"74752","miles_from_dt":19.08},{"city":"Panola","state_name":"Oklahoma","lat":34.92827,"lng":-95.21106,"zip":"74559","miles_from_dt":19.41},{"city":"Wister","state_name":"Oklahoma","lat":34.89556,"lng":-94.86894,"zip":"74966","miles_from_dt":20.75},{"city":"Snow","state_name":"Oklahoma","lat":34.44871,"lng":-95.35575,"zip":"74567","miles_from_dt":20.75},{"city":"Battiest","state_name":"Oklahoma","lat":34.38938,"lng":-94.91671,"zip":"74722","miles_from_dt":21.5},{"city":"Wilburton","state_name":"Oklahoma","lat":34.90045,"lng":-95.34872,"zip":"74578","miles_from_dt":21.7},{"city":"Clayton","state_name":"Oklahoma","lat":34.55697,"lng":-95.45955,"zip":"74536","miles_from_dt":21.77},{"city":"Red Oak","state_name":"Oklahoma","lat":34.97903,"lng":-95.07556,"zip":"74563","miles_from_dt":21.88},{"city":"Fanshawe","state_name":"Oklahoma","lat":34.95433,"lng":-94.89687,"zip":"74935","miles_from_dt":23.19},{"city":"Bethel","state_name":"Oklahoma","lat":34.33926,"lng":-94.85833,"zip":"74724","miles_from_dt":26.17},{"city":"Finley","state_name":"Oklahoma","lat":34.35927,"lng":-95.37907,"zip":"74543","miles_from_dt":26.28},{"city":"Gowen","state_name":"Oklahoma","lat":34.88182,"lng":-95.47904,"zip":"74545","miles_from_dt":26.37},{"city":"Hodgen","state_name":"Oklahoma","lat":34.70875,"lng":-94.63843,"zip":"74939","miles_from_dt":26.44},{"city":"Smithville","state_name":"Oklahoma","lat":34.52522,"lng":-94.65558,"zip":"74957","miles_from_dt":27},{"city":"Rattan","state_name":"Oklahoma","lat":34.29683,"lng":-95.29637,"zip":"74562","miles_from_dt":27.58}],"targetCityZipCode":"74521","targetCityState":"Oklahoma"},"__N_SSG":true}