{"pageProps":{"stateName":"Oklahoma","cityName":"antlers","nearbyCities":[{"city":"Moyers","state_name":"Oklahoma","lat":34.40355,"lng":-95.69344,"zip":"74557","miles_from_dt":11.75},{"city":"Soper","state_name":"Oklahoma","lat":34.06088,"lng":-95.71278,"zip":"74759","miles_from_dt":14.65},{"city":"Finley","state_name":"Oklahoma","lat":34.35927,"lng":-95.37907,"zip":"74543","miles_from_dt":14.66},{"city":"Spencerville","state_name":"Oklahoma","lat":34.15996,"lng":-95.3612,"zip":"74760","miles_from_dt":15.08},{"city":"Hugo","state_name":"Oklahoma","lat":34.00647,"lng":-95.5107,"zip":"74743","miles_from_dt":17.66},{"city":"Rattan","state_name":"Oklahoma","lat":34.29683,"lng":-95.29637,"zip":"74562","miles_from_dt":17.66},{"city":"Sawyer","state_name":"Oklahoma","lat":34.07049,"lng":-95.37367,"zip":"74756","miles_from_dt":18.01},{"city":"Snow","state_name":"Oklahoma","lat":34.44871,"lng":-95.35575,"zip":"74567","miles_from_dt":19.48},{"city":"Lane","state_name":"Oklahoma","lat":34.2459,"lng":-95.96944,"zip":"74555","miles_from_dt":21.14},{"city":"Daisy","state_name":"Oklahoma","lat":34.55776,"lng":-95.70167,"zip":"74540","miles_from_dt":21.88},{"city":"Boswell","state_name":"Oklahoma","lat":34.01907,"lng":-95.86018,"zip":"74727","miles_from_dt":21.89},{"city":"Fort Towson","state_name":"Oklahoma","lat":34.10142,"lng":-95.25595,"zip":"74735","miles_from_dt":22.27},{"city":"Clayton","state_name":"Oklahoma","lat":34.55697,"lng":-95.45955,"zip":"74536","miles_from_dt":22.52},{"city":"Stringtown","state_name":"Oklahoma","lat":34.47921,"lng":-95.90315,"zip":"74569","miles_from_dt":23.36},{"city":"Grant","state_name":"Oklahoma","lat":33.90131,"lng":-95.444,"zip":"74738","miles_from_dt":25.76},{"city":"Atoka","state_name":"Oklahoma","lat":34.33441,"lng":-96.05563,"zip":"74525","miles_from_dt":26.67},{"city":"Arthur City","state_name":"Texas","lat":33.86275,"lng":-95.63955,"zip":"75411","miles_from_dt":26.9},{"city":"Ringold","state_name":"Oklahoma","lat":34.19367,"lng":-95.12231,"zip":"74754","miles_from_dt":27.65},{"city":"Rufe","state_name":"Oklahoma","lat":34.11799,"lng":-95.14196,"zip":"74755","miles_from_dt":27.82},{"city":"Swink","state_name":"Oklahoma","lat":34.00938,"lng":-95.20134,"zip":"74761","miles_from_dt":28.31},{"city":"Pittsburg","state_name":"Oklahoma","lat":34.64717,"lng":-95.74679,"zip":"74560","miles_from_dt":28.52}],"targetCityZipCode":"74523","targetCityState":"Oklahoma"},"__N_SSG":true}