{"pageProps":{"stateName":"Oklahoma","cityName":"cromwell","nearbyCities":[{"city":"Okemah","state_name":"Oklahoma","lat":35.46237,"lng":-96.31792,"zip":"74859","miles_from_dt":11.33},{"city":"Wewoka","state_name":"Oklahoma","lat":35.18635,"lng":-96.51882,"zip":"74884","miles_from_dt":11.38},{"city":"Seminole","state_name":"Oklahoma","lat":35.26699,"lng":-96.64193,"zip":"74868","miles_from_dt":11.74},{"city":"Boley","state_name":"Oklahoma","lat":35.51332,"lng":-96.47392,"zip":"74829","miles_from_dt":11.77},{"city":"Paden","state_name":"Oklahoma","lat":35.52788,"lng":-96.56913,"zip":"74860","miles_from_dt":14.24},{"city":"Wetumka","state_name":"Oklahoma","lat":35.22766,"lng":-96.24346,"zip":"74883","miles_from_dt":14.42},{"city":"Seminole","state_name":"Oklahoma","lat":35.22504,"lng":-96.67054,"zip":"74818","miles_from_dt":14.6},{"city":"Castle","state_name":"Oklahoma","lat":35.58262,"lng":-96.41193,"zip":"74833","miles_from_dt":16.69},{"city":"Prague","state_name":"Oklahoma","lat":35.4921,"lng":-96.70269,"zip":"74864","miles_from_dt":17.29},{"city":"Earlsboro","state_name":"Oklahoma","lat":35.30488,"lng":-96.7665,"zip":"74840","miles_from_dt":17.74},{"city":"Bowlegs","state_name":"Oklahoma","lat":35.14452,"lng":-96.66464,"zip":"74830","miles_from_dt":18.08},{"city":"Holdenville","state_name":"Oklahoma","lat":35.08197,"lng":-96.34804,"zip":"74848","miles_from_dt":19.02},{"city":"Weleetka","state_name":"Oklahoma","lat":35.38039,"lng":-96.1212,"zip":"74880","miles_from_dt":19.09},{"city":"Maud","state_name":"Oklahoma","lat":35.11527,"lng":-96.762,"zip":"74854","miles_from_dt":23.37},{"city":"Sparks","state_name":"Oklahoma","lat":35.59117,"lng":-96.75763,"zip":"74869","miles_from_dt":24.11},{"city":"Dustin","state_name":"Oklahoma","lat":35.2413,"lng":-96.04642,"zip":"74839","miles_from_dt":24.2},{"city":"Lamar","state_name":"Oklahoma","lat":35.11169,"lng":-96.09045,"zip":"74850","miles_from_dt":26.13},{"city":"Shawnee","state_name":"Oklahoma","lat":35.32536,"lng":-96.92224,"zip":"74802","miles_from_dt":26.36},{"city":"Shawnee","state_name":"Oklahoma","lat":35.39358,"lng":-96.92399,"zip":"74804","miles_from_dt":26.65},{"city":"Sasakwa","state_name":"Oklahoma","lat":34.96335,"lng":-96.54663,"zip":"74867","miles_from_dt":26.68},{"city":"Meeker","state_name":"Oklahoma","lat":35.51911,"lng":-96.90376,"zip":"74855","miles_from_dt":28.02},{"city":"Atwood","state_name":"Oklahoma","lat":34.94101,"lng":-96.34208,"zip":"74827","miles_from_dt":28.47},{"city":"Shawnee","state_name":"Oklahoma","lat":35.31749,"lng":-96.96824,"zip":"74801","miles_from_dt":28.99},{"city":"Milfay","state_name":"Oklahoma","lat":35.75455,"lng":-96.56969,"zip":"74046","miles_from_dt":29.07},{"city":"Saint Louis","state_name":"Oklahoma","lat":35.06647,"lng":-96.84691,"zip":"74866","miles_from_dt":29.21},{"city":"Konawa","state_name":"Oklahoma","lat":34.9846,"lng":-96.73597,"zip":"74849","miles_from_dt":29.36},{"city":"Henryetta","state_name":"Oklahoma","lat":35.44825,"lng":-95.94417,"zip":"74437","miles_from_dt":29.79},{"city":"Stroud","state_name":"Oklahoma","lat":35.74368,"lng":-96.65592,"zip":"74079","miles_from_dt":29.82},{"city":"Schulter","state_name":"Oklahoma","lat":35.50473,"lng":-95.96452,"zip":"74460","miles_from_dt":29.89}],"targetCityZipCode":"74837","targetCityState":"Oklahoma"},"__N_SSG":true}