{"pageProps":{"stateName":"Oklahoma","cityName":"lebanon","nearbyCities":[{"city":"Kingston","state_name":"Oklahoma","lat":33.93643,"lng":-96.74708,"zip":"73439","miles_from_dt":8.64},{"city":"Gordonville","state_name":"Texas","lat":33.82885,"lng":-96.85422,"zip":"76245","miles_from_dt":8.8},{"city":"Madill","state_name":"Oklahoma","lat":34.0891,"lng":-96.77806,"zip":"73446","miles_from_dt":11.66},{"city":"Marietta","state_name":"Oklahoma","lat":33.94813,"lng":-97.10581,"zip":"73448","miles_from_dt":12.03},{"city":"Whitesboro","state_name":"Texas","lat":33.74794,"lng":-96.93935,"zip":"76273","miles_from_dt":14.25},{"city":"Pottsboro","state_name":"Texas","lat":33.79608,"lng":-96.71913,"zip":"75076","miles_from_dt":14.79},{"city":"Sadler","state_name":"Texas","lat":33.74172,"lng":-96.83509,"zip":"76264","miles_from_dt":14.89},{"city":"Thackerville","state_name":"Oklahoma","lat":33.77534,"lng":-97.14213,"zip":"73459","miles_from_dt":18.64},{"city":"Mannsville","state_name":"Oklahoma","lat":34.22463,"lng":-96.84616,"zip":"73447","miles_from_dt":19.04},{"city":"Ardmore","state_name":"Oklahoma","lat":34.16695,"lng":-97.10557,"zip":"73402","miles_from_dt":19.09},{"city":"Cartwright","state_name":"Oklahoma","lat":33.8753,"lng":-96.57313,"zip":"74731","miles_from_dt":19.3},{"city":"Ravia","state_name":"Oklahoma","lat":34.22651,"lng":-96.75997,"zip":"73455","miles_from_dt":20.5},{"city":"Mead","state_name":"Oklahoma","lat":33.99471,"lng":-96.54114,"zip":"73449","miles_from_dt":20.61},{"city":"Denison","state_name":"Texas","lat":33.77264,"lng":-96.60391,"zip":"75020","miles_from_dt":20.85},{"city":"Ardmore","state_name":"Oklahoma","lat":34.17286,"lng":-97.14441,"zip":"73403","miles_from_dt":20.86},{"city":"Platter","state_name":"Oklahoma","lat":33.90777,"lng":-96.53496,"zip":"74753","miles_from_dt":20.98},{"city":"Ardmore","state_name":"Oklahoma","lat":34.21045,"lng":-97.11434,"zip":"73401","miles_from_dt":21.78},{"city":"Overbrook","state_name":"Oklahoma","lat":34.03473,"lng":-97.27046,"zip":"73453","miles_from_dt":22.23},{"city":"Southmayd","state_name":"Texas","lat":33.62785,"lng":-96.76539,"zip":"76268","miles_from_dt":23.55},{"city":"Sherman","state_name":"Texas","lat":33.64869,"lng":-96.70011,"zip":"75092","miles_from_dt":23.74},{"city":"Gene Autry","state_name":"Oklahoma","lat":34.28406,"lng":-97.03856,"zip":"73436","miles_from_dt":24.32},{"city":"Colbert","state_name":"Oklahoma","lat":33.83053,"lng":-96.47546,"zip":"74733","miles_from_dt":25.59},{"city":"Gainesville","state_name":"Texas","lat":33.65654,"lng":-97.17766,"zip":"76240","miles_from_dt":25.99},{"city":"Durant","state_name":"Oklahoma","lat":33.9322,"lng":-96.43523,"zip":"74702","miles_from_dt":26.52},{"city":"Gainesville","state_name":"Texas","lat":33.64542,"lng":-97.17628,"zip":"76241","miles_from_dt":26.55},{"city":"Tishomingo","state_name":"Oklahoma","lat":34.28789,"lng":-96.66689,"zip":"73460","miles_from_dt":26.65},{"city":"Calera","state_name":"Oklahoma","lat":33.90466,"lng":-96.43361,"zip":"74730","miles_from_dt":26.78},{"city":"Burneyville","state_name":"Oklahoma","lat":33.91,"lng":-97.36106,"zip":"73430","miles_from_dt":26.85},{"city":"Lone Grove","state_name":"Oklahoma","lat":34.16258,"lng":-97.29081,"zip":"73443","miles_from_dt":26.9},{"city":"Sherman","state_name":"Texas","lat":33.63487,"lng":-96.60905,"zip":"75091","miles_from_dt":27.38},{"city":"Collinsville","state_name":"Texas","lat":33.54025,"lng":-96.89696,"zip":"76233","miles_from_dt":28.35},{"city":"Denison","state_name":"Texas","lat":33.72686,"lng":-96.47552,"zip":"75021","miles_from_dt":28.74},{"city":"Kenefic","state_name":"Oklahoma","lat":34.16082,"lng":-96.44879,"zip":"74748","miles_from_dt":29.45},{"city":"Lindsay","state_name":"Texas","lat":33.63006,"lng":-97.24237,"zip":"76250","miles_from_dt":29.79},{"city":"Milburn","state_name":"Oklahoma","lat":34.26689,"lng":-96.53801,"zip":"73450","miles_from_dt":29.9}],"targetCityZipCode":"73440","targetCityState":"Oklahoma"},"__N_SSG":true}