{"pageProps":{"stateName":"Oklahoma","cityName":"loco","nearbyCities":[{"city":"Velma","state_name":"Oklahoma","lat":34.4637,"lng":-97.65845,"zip":"73491","miles_from_dt":10.14},{"city":"Healdton","state_name":"Oklahoma","lat":34.27967,"lng":-97.49808,"zip":"73438","miles_from_dt":11.64},{"city":"Duncan","state_name":"Oklahoma","lat":34.4497,"lng":-97.83221,"zip":"73536","miles_from_dt":11.87},{"city":"Fox","state_name":"Oklahoma","lat":34.36008,"lng":-97.49281,"zip":"73435","miles_from_dt":11.93},{"city":"Countyline","state_name":"Oklahoma","lat":34.45838,"lng":-97.56239,"zip":"73425","miles_from_dt":12.22},{"city":"Ratliff City","state_name":"Oklahoma","lat":34.42229,"lng":-97.51955,"zip":"73481","miles_from_dt":12.3},{"city":"Ringling","state_name":"Oklahoma","lat":34.12211,"lng":-97.62412,"zip":"73456","miles_from_dt":14.23},{"city":"Comanche","state_name":"Oklahoma","lat":34.34146,"lng":-97.94619,"zip":"73529","miles_from_dt":14.4},{"city":"Tussy","state_name":"Oklahoma","lat":34.49502,"lng":-97.54724,"zip":"73488","miles_from_dt":14.76},{"city":"Duncan","state_name":"Oklahoma","lat":34.49484,"lng":-97.84774,"zip":"73533","miles_from_dt":14.87},{"city":"Graham","state_name":"Oklahoma","lat":34.36193,"lng":-97.41558,"zip":"73437","miles_from_dt":16.28},{"city":"Addington","state_name":"Oklahoma","lat":34.26148,"lng":-97.97856,"zip":"73520","miles_from_dt":16.67},{"city":"Tatums","state_name":"Oklahoma","lat":34.47327,"lng":-97.4428,"zip":"73487","miles_from_dt":17.91},{"city":"Waurika","state_name":"Oklahoma","lat":34.1556,"lng":-97.95412,"zip":"73573","miles_from_dt":18.63},{"city":"Duncan","state_name":"Oklahoma","lat":34.50853,"lng":-97.96589,"zip":"73534","miles_from_dt":20.19},{"city":"Wilson","state_name":"Oklahoma","lat":34.11584,"lng":-97.42905,"zip":"73463","miles_from_dt":20.75},{"city":"Hennepin","state_name":"Oklahoma","lat":34.4875,"lng":-97.38256,"zip":"73444","miles_from_dt":21.3},{"city":"Foster","state_name":"Oklahoma","lat":34.62083,"lng":-97.58286,"zip":"73434","miles_from_dt":21.73},{"city":"Ryan","state_name":"Oklahoma","lat":34.02326,"lng":-97.8751,"zip":"73565","miles_from_dt":22.88},{"city":"Springer","state_name":"Oklahoma","lat":34.35818,"lng":-97.29782,"zip":"73458","miles_from_dt":22.9},{"city":"Davis","state_name":"Oklahoma","lat":34.6149,"lng":-97.4911,"zip":"73039","miles_from_dt":23.45},{"city":"Oscar","state_name":"Oklahoma","lat":33.95997,"lng":-97.76134,"zip":"73561","miles_from_dt":25.09},{"city":"Marlow","state_name":"Oklahoma","lat":34.64301,"lng":-97.91624,"zip":"73055","miles_from_dt":25.59},{"city":"Lone Grove","state_name":"Oklahoma","lat":34.16258,"lng":-97.29081,"zip":"73443","miles_from_dt":25.59},{"city":"Hastings","state_name":"Oklahoma","lat":34.21427,"lng":-98.13818,"zip":"73548","miles_from_dt":26.35},{"city":"Elmore City","state_name":"Oklahoma","lat":34.62352,"lng":-97.40868,"zip":"73433","miles_from_dt":26.58},{"city":"Terral","state_name":"Oklahoma","lat":33.93772,"lng":-97.80363,"zip":"73569","miles_from_dt":27.05}],"targetCityZipCode":"73442","targetCityState":"Oklahoma"},"__N_SSG":true}