{"pageProps":{"stateName":"Oklahoma","cityName":"mounds","nearbyCities":[{"city":"Kiefer","state_name":"Oklahoma","lat":35.93808,"lng":-96.05545,"zip":"74041","miles_from_dt":5.95},{"city":"Glenpool","state_name":"Oklahoma","lat":35.94711,"lng":-96.00636,"zip":"74033","miles_from_dt":6.43},{"city":"Beggs","state_name":"Oklahoma","lat":35.75928,"lng":-96.03615,"zip":"74421","miles_from_dt":6.64},{"city":"Bixby","state_name":"Oklahoma","lat":35.92614,"lng":-95.87575,"zip":"74008","miles_from_dt":9.74},{"city":"Preston","state_name":"Oklahoma","lat":35.71083,"lng":-95.99262,"zip":"74456","miles_from_dt":10.13},{"city":"Jenks","state_name":"Oklahoma","lat":36.00149,"lng":-95.98171,"zip":"74037","miles_from_dt":10.38},{"city":"Sapulpa","state_name":"Oklahoma","lat":35.98647,"lng":-96.11735,"zip":"74067","miles_from_dt":10.4},{"city":"Kellyville","state_name":"Oklahoma","lat":35.89822,"lng":-96.22842,"zip":"74039","miles_from_dt":11.75},{"city":"Sapulpa","state_name":"Oklahoma","lat":35.99379,"lng":-96.1676,"zip":"74066","miles_from_dt":12.43},{"city":"Tulsa","state_name":"Oklahoma","lat":36.02038,"lng":-95.92932,"zip":"74137","miles_from_dt":12.61},{"city":"Tulsa","state_name":"Oklahoma","lat":36.04869,"lng":-96.01315,"zip":"74132","miles_from_dt":13.36},{"city":"Tulsa","state_name":"Oklahoma","lat":36.04218,"lng":-95.94747,"zip":"74170","miles_from_dt":13.62},{"city":"Tulsa","state_name":"Oklahoma","lat":36.05172,"lng":-96.07291,"zip":"74131","miles_from_dt":13.8},{"city":"Tulsa","state_name":"Oklahoma","lat":36.05064,"lng":-95.95253,"zip":"74171","miles_from_dt":14.09},{"city":"Okmulgee","state_name":"Oklahoma","lat":35.64975,"lng":-96.00628,"zip":"74447","miles_from_dt":14.21},{"city":"Slick","state_name":"Oklahoma","lat":35.77835,"lng":-96.26467,"zip":"74071","miles_from_dt":14.42},{"city":"Leonard","state_name":"Oklahoma","lat":35.94667,"lng":-95.78502,"zip":"74043","miles_from_dt":14.91},{"city":"Broken Arrow","state_name":"Oklahoma","lat":35.98154,"lng":-95.81007,"zip":"74011","miles_from_dt":14.91},{"city":"Tulsa","state_name":"Oklahoma","lat":36.06188,"lng":-95.9419,"zip":"74136","miles_from_dt":15.01},{"city":"Oakhurst","state_name":"Oklahoma","lat":36.07221,"lng":-96.06546,"zip":"74050","miles_from_dt":15.12},{"city":"Tulsa","state_name":"Oklahoma","lat":36.04113,"lng":-95.87955,"zip":"74133","miles_from_dt":15.22},{"city":"Tulsa","state_name":"Oklahoma","lat":36.06165,"lng":-95.9233,"zip":"74193","miles_from_dt":15.35},{"city":"Tulsa","state_name":"Oklahoma","lat":36.0774,"lng":-96.05485,"zip":"74157","miles_from_dt":15.4},{"city":"Tulsa","state_name":"Oklahoma","lat":36.07229,"lng":-95.902,"zip":"74101","miles_from_dt":16.5},{"city":"Tulsa","state_name":"Oklahoma","lat":36.0975,"lng":-95.9641,"zip":"74105","miles_from_dt":17.06},{"city":"Tulsa","state_name":"Oklahoma","lat":36.10737,"lng":-96.04095,"zip":"74107","miles_from_dt":17.41},{"city":"Tulsa","state_name":"Oklahoma","lat":36.09725,"lng":-95.92315,"zip":"74135","miles_from_dt":17.65},{"city":"Tulsa","state_name":"Oklahoma","lat":36.0969,"lng":-95.92193,"zip":"74153","miles_from_dt":17.65},{"city":"Tulsa","state_name":"Oklahoma","lat":36.09728,"lng":-95.88731,"zip":"74145","miles_from_dt":18.41},{"city":"Tulsa","state_name":"Oklahoma","lat":36.09739,"lng":-95.88718,"zip":"74147","miles_from_dt":18.42},{"city":"Broken Arrow","state_name":"Oklahoma","lat":36.05381,"lng":-95.80509,"zip":"74012","miles_from_dt":18.46},{"city":"Haskell","state_name":"Oklahoma","lat":35.80034,"lng":-95.70175,"zip":"74436","miles_from_dt":18.59},{"city":"Broken Arrow","state_name":"Oklahoma","lat":36.04595,"lng":-95.7896,"zip":"74013","miles_from_dt":18.66},{"city":"Tulsa","state_name":"Oklahoma","lat":36.09879,"lng":-95.87666,"zip":"74155","miles_from_dt":18.76},{"city":"Bristow","state_name":"Oklahoma","lat":35.80945,"lng":-96.36101,"zip":"74010","miles_from_dt":19.08},{"city":"Tulsa","state_name":"Oklahoma","lat":36.12696,"lng":-95.94661,"zip":"74114","miles_from_dt":19.25},{"city":"Tulsa","state_name":"Oklahoma","lat":36.12679,"lng":-95.94493,"zip":"74152","miles_from_dt":19.26},{"city":"Morris","state_name":"Oklahoma","lat":35.62729,"lng":-95.82605,"zip":"74445","miles_from_dt":19.31},{"city":"Tulsa","state_name":"Oklahoma","lat":36.09784,"lng":-95.85344,"zip":"74146","miles_from_dt":19.32},{"city":"Tulsa","state_name":"Oklahoma","lat":36.14205,"lng":-95.9894,"zip":"74119","miles_from_dt":19.88},{"city":"Tulsa","state_name":"Oklahoma","lat":36.14792,"lng":-95.99433,"zip":"74187","miles_from_dt":20.26},{"city":"Tulsa","state_name":"Oklahoma","lat":36.14869,"lng":-95.98033,"zip":"74121","miles_from_dt":20.39},{"city":"Tulsa","state_name":"Oklahoma","lat":36.14627,"lng":-95.9542,"zip":"74104","miles_from_dt":20.46},{"city":"Tulsa","state_name":"Oklahoma","lat":36.1504,"lng":-95.97689,"zip":"74120","miles_from_dt":20.54},{"city":"Tulsa","state_name":"Oklahoma","lat":36.1476,"lng":-95.9547,"zip":"74159","miles_from_dt":20.55},{"city":"Tulsa","state_name":"Oklahoma","lat":36.15216,"lng":-95.995,"zip":"74186","miles_from_dt":20.55},{"city":"Tulsa","state_name":"Oklahoma","lat":36.15046,"lng":-95.97272,"zip":"74172","miles_from_dt":20.57},{"city":"Tulsa","state_name":"Oklahoma","lat":36.15359,"lng":-95.99561,"zip":"74192","miles_from_dt":20.64},{"city":"Tulsa","state_name":"Oklahoma","lat":36.12669,"lng":-95.8701,"zip":"74129","miles_from_dt":20.65},{"city":"Tulsa","state_name":"Oklahoma","lat":36.1541,"lng":-95.9949,"zip":"74182","miles_from_dt":20.68},{"city":"Tulsa","state_name":"Oklahoma","lat":36.12787,"lng":-95.86887,"zip":"74169","miles_from_dt":20.75},{"city":"Tulsa","state_name":"Oklahoma","lat":36.15617,"lng":-95.9957,"zip":"74103","miles_from_dt":20.82},{"city":"Tulsa","state_name":"Oklahoma","lat":36.15894,"lng":-96.03279,"zip":"74149","miles_from_dt":20.94},{"city":"Tulsa","state_name":"Oklahoma","lat":36.13384,"lng":-95.87696,"zip":"74141","miles_from_dt":20.94},{"city":"Tulsa","state_name":"Oklahoma","lat":36.14696,"lng":-95.90437,"zip":"74112","miles_from_dt":21.23},{"city":"Tulsa","state_name":"Oklahoma","lat":36.16085,"lng":-95.95618,"zip":"74150","miles_from_dt":21.43},{"city":"Tulsa","state_name":"Oklahoma","lat":36.1106,"lng":-95.80156,"zip":"74134","miles_from_dt":21.63},{"city":"Tulsa","state_name":"Oklahoma","lat":36.17462,"lng":-96.04511,"zip":"74127","miles_from_dt":22.05},{"city":"Tulsa","state_name":"Oklahoma","lat":36.16781,"lng":-95.91838,"zip":"74158","miles_from_dt":22.38},{"city":"Tulsa","state_name":"Oklahoma","lat":36.1472,"lng":-95.85089,"zip":"74128","miles_from_dt":22.39},{"city":"Sand Springs","state_name":"Oklahoma","lat":36.15201,"lng":-96.19206,"zip":"74063","miles_from_dt":22.48},{"city":"Coweta","state_name":"Oklahoma","lat":35.94872,"lng":-95.63065,"zip":"74429","miles_from_dt":23.09},{"city":"Tulsa","state_name":"Oklahoma","lat":36.19011,"lng":-96.0049,"zip":"74148","miles_from_dt":23.12},{"city":"Tulsa","state_name":"Oklahoma","lat":36.18856,"lng":-95.95377,"zip":"74110","miles_from_dt":23.33},{"city":"Tulsa","state_name":"Oklahoma","lat":36.19191,"lng":-95.98416,"zip":"74106","miles_from_dt":23.33},{"city":"Boynton","state_name":"Oklahoma","lat":35.64156,"lng":-95.69143,"zip":"74422","miles_from_dt":23.88},{"city":"Tulsa","state_name":"Oklahoma","lat":36.14723,"lng":-95.79154,"zip":"74108","miles_from_dt":24.03},{"city":"Tulsa","state_name":"Oklahoma","lat":36.1923,"lng":-95.90903,"zip":"74115","miles_from_dt":24.14},{"city":"Broken Arrow","state_name":"Oklahoma","lat":36.05538,"lng":-95.66819,"zip":"74014","miles_from_dt":24.34},{"city":"Schulter","state_name":"Oklahoma","lat":35.50473,"lng":-95.96452,"zip":"74460","miles_from_dt":24.41},{"city":"Redbird","state_name":"Oklahoma","lat":35.88231,"lng":-95.58786,"zip":"74458","miles_from_dt":24.65},{"city":"Tulsa","state_name":"Oklahoma","lat":36.18814,"lng":-95.83621,"zip":"74116","miles_from_dt":25.29},{"city":"Mannford","state_name":"Oklahoma","lat":36.08964,"lng":-96.38117,"zip":"74044","miles_from_dt":25.65},{"city":"Tulsa","state_name":"Oklahoma","lat":36.23502,"lng":-96.0331,"zip":"74126","miles_from_dt":26.19},{"city":"Tulsa","state_name":"Oklahoma","lat":36.24172,"lng":-95.95536,"zip":"74130","miles_from_dt":26.94},{"city":"Tulsa","state_name":"Oklahoma","lat":36.2461,"lng":-95.99701,"zip":"74156","miles_from_dt":27},{"city":"Taft","state_name":"Oklahoma","lat":35.76943,"lng":-95.54843,"zip":"74463","miles_from_dt":27.45},{"city":"Tulsa","state_name":"Oklahoma","lat":36.24146,"lng":-95.89854,"zip":"74117","miles_from_dt":27.57},{"city":"Dewar","state_name":"Oklahoma","lat":35.45743,"lng":-95.93934,"zip":"74431","miles_from_dt":27.85},{"city":"Hitchita","state_name":"Oklahoma","lat":35.51382,"lng":-95.75935,"zip":"74438","miles_from_dt":27.9},{"city":"Depew","state_name":"Oklahoma","lat":35.79554,"lng":-96.52259,"zip":"74028","miles_from_dt":28.19},{"city":"Henryetta","state_name":"Oklahoma","lat":35.44825,"lng":-95.94417,"zip":"74437","miles_from_dt":28.43},{"city":"Catoosa","state_name":"Oklahoma","lat":36.18012,"lng":-95.70952,"zip":"74015","miles_from_dt":28.56},{"city":"Castle","state_name":"Oklahoma","lat":35.58262,"lng":-96.41193,"zip":"74833","miles_from_dt":28.71},{"city":"Porter","state_name":"Oklahoma","lat":35.85464,"lng":-95.51253,"zip":"74454","miles_from_dt":28.81},{"city":"Tulsa","state_name":"Oklahoma","lat":36.24411,"lng":-95.82807,"zip":"74102","miles_from_dt":29.01},{"city":"Wainwright","state_name":"Oklahoma","lat":35.62121,"lng":-95.59025,"zip":"74468","miles_from_dt":29.32},{"city":"Prue","state_name":"Oklahoma","lat":36.2472,"lng":-96.25434,"zip":"74060","miles_from_dt":29.9}],"targetCityZipCode":"74047","targetCityState":"Oklahoma"},"__N_SSG":true}