{"pageProps":{"stateName":"Oklahoma","cityName":"okemah","nearbyCities":[{"city":"Boley","state_name":"Oklahoma","lat":35.51332,"lng":-96.47392,"zip":"74829","miles_from_dt":9.47},{"city":"Castle","state_name":"Oklahoma","lat":35.58262,"lng":-96.41193,"zip":"74833","miles_from_dt":9.84},{"city":"Cromwell","state_name":"Oklahoma","lat":35.34321,"lng":-96.4561,"zip":"74837","miles_from_dt":11.33},{"city":"Weleetka","state_name":"Oklahoma","lat":35.38039,"lng":-96.1212,"zip":"74880","miles_from_dt":12.46},{"city":"Paden","state_name":"Oklahoma","lat":35.52788,"lng":-96.56913,"zip":"74860","miles_from_dt":14.87},{"city":"Wetumka","state_name":"Oklahoma","lat":35.22766,"lng":-96.24346,"zip":"74883","miles_from_dt":16.72},{"city":"Schulter","state_name":"Oklahoma","lat":35.50473,"lng":-95.96452,"zip":"74460","miles_from_dt":20.14},{"city":"Henryetta","state_name":"Oklahoma","lat":35.44825,"lng":-95.94417,"zip":"74437","miles_from_dt":21.1},{"city":"Dewar","state_name":"Oklahoma","lat":35.45743,"lng":-95.93934,"zip":"74431","miles_from_dt":21.36},{"city":"Dustin","state_name":"Oklahoma","lat":35.2413,"lng":-96.04642,"zip":"74839","miles_from_dt":21.62},{"city":"Prague","state_name":"Oklahoma","lat":35.4921,"lng":-96.70269,"zip":"74864","miles_from_dt":21.79},{"city":"Okmulgee","state_name":"Oklahoma","lat":35.64975,"lng":-96.00628,"zip":"74447","miles_from_dt":21.8},{"city":"Slick","state_name":"Oklahoma","lat":35.77835,"lng":-96.26467,"zip":"74071","miles_from_dt":21.99},{"city":"Wewoka","state_name":"Oklahoma","lat":35.18635,"lng":-96.51882,"zip":"74884","miles_from_dt":22.16},{"city":"Seminole","state_name":"Oklahoma","lat":35.26699,"lng":-96.64193,"zip":"74868","miles_from_dt":22.72},{"city":"Bristow","state_name":"Oklahoma","lat":35.80945,"lng":-96.36101,"zip":"74010","miles_from_dt":24.05},{"city":"Milfay","state_name":"Oklahoma","lat":35.75455,"lng":-96.56969,"zip":"74046","miles_from_dt":24.63},{"city":"Preston","state_name":"Oklahoma","lat":35.71083,"lng":-95.99262,"zip":"74456","miles_from_dt":25.08},{"city":"Depew","state_name":"Oklahoma","lat":35.79554,"lng":-96.52259,"zip":"74028","miles_from_dt":25.7},{"city":"Seminole","state_name":"Oklahoma","lat":35.22504,"lng":-96.67054,"zip":"74818","miles_from_dt":25.78},{"city":"Beggs","state_name":"Oklahoma","lat":35.75928,"lng":-96.03615,"zip":"74421","miles_from_dt":25.9},{"city":"Holdenville","state_name":"Oklahoma","lat":35.08197,"lng":-96.34804,"zip":"74848","miles_from_dt":26.28},{"city":"Sparks","state_name":"Oklahoma","lat":35.59117,"lng":-96.75763,"zip":"74869","miles_from_dt":26.32},{"city":"Stroud","state_name":"Oklahoma","lat":35.74368,"lng":-96.65592,"zip":"74079","miles_from_dt":27.17},{"city":"Lamar","state_name":"Oklahoma","lat":35.11169,"lng":-96.09045,"zip":"74850","miles_from_dt":27.38},{"city":"Earlsboro","state_name":"Oklahoma","lat":35.30488,"lng":-96.7665,"zip":"74840","miles_from_dt":27.55},{"city":"Hanna","state_name":"Oklahoma","lat":35.25856,"lng":-95.88302,"zip":"74845","miles_from_dt":28.3},{"city":"Bowlegs","state_name":"Oklahoma","lat":35.14452,"lng":-96.66464,"zip":"74830","miles_from_dt":29.4},{"city":"Morris","state_name":"Oklahoma","lat":35.62729,"lng":-95.82605,"zip":"74445","miles_from_dt":29.96}],"targetCityZipCode":"74859","targetCityState":"Oklahoma"},"__N_SSG":true}