{"pageProps":{"stateName":"Oklahoma","cityName":"ravia","nearbyCities":[{"city":"Mannsville","state_name":"Oklahoma","lat":34.22463,"lng":-96.84616,"zip":"73447","miles_from_dt":4.94},{"city":"Tishomingo","state_name":"Oklahoma","lat":34.28789,"lng":-96.66689,"zip":"73460","miles_from_dt":6.8},{"city":"Madill","state_name":"Oklahoma","lat":34.0891,"lng":-96.77806,"zip":"73446","miles_from_dt":9.53},{"city":"Mill Creek","state_name":"Oklahoma","lat":34.39853,"lng":-96.81829,"zip":"74856","miles_from_dt":12.32},{"city":"Milburn","state_name":"Oklahoma","lat":34.26689,"lng":-96.53801,"zip":"73450","miles_from_dt":13.01},{"city":"Gene Autry","state_name":"Oklahoma","lat":34.28406,"lng":-97.03856,"zip":"73436","miles_from_dt":16.43},{"city":"Connerville","state_name":"Oklahoma","lat":34.44436,"lng":-96.62581,"zip":"74836","miles_from_dt":16.86},{"city":"Kenefic","state_name":"Oklahoma","lat":34.16082,"lng":-96.44879,"zip":"74748","miles_from_dt":18.39},{"city":"Coleman","state_name":"Oklahoma","lat":34.25605,"lng":-96.42311,"zip":"73432","miles_from_dt":19.39},{"city":"Bromide","state_name":"Oklahoma","lat":34.42677,"lng":-96.5152,"zip":"74530","miles_from_dt":19.66},{"city":"Kingston","state_name":"Oklahoma","lat":33.93643,"lng":-96.74708,"zip":"73439","miles_from_dt":20.01},{"city":"Ardmore","state_name":"Oklahoma","lat":34.16695,"lng":-97.10557,"zip":"73402","miles_from_dt":20.21},{"city":"Mead","state_name":"Oklahoma","lat":33.99471,"lng":-96.54114,"zip":"73449","miles_from_dt":20.31},{"city":"Ardmore","state_name":"Oklahoma","lat":34.21045,"lng":-97.11434,"zip":"73401","miles_from_dt":20.32},{"city":"Lebanon","state_name":"Oklahoma","lat":33.95163,"lng":-96.89635,"zip":"73440","miles_from_dt":20.5},{"city":"Dougherty","state_name":"Oklahoma","lat":34.40051,"lng":-97.05137,"zip":"73032","miles_from_dt":20.53},{"city":"Wapanucka","state_name":"Oklahoma","lat":34.35726,"lng":-96.43418,"zip":"73461","miles_from_dt":20.7},{"city":"Sulphur","state_name":"Oklahoma","lat":34.48915,"lng":-96.97251,"zip":"73086","miles_from_dt":21.8},{"city":"Ardmore","state_name":"Oklahoma","lat":34.17286,"lng":-97.14441,"zip":"73403","miles_from_dt":22.33},{"city":"Clarita","state_name":"Oklahoma","lat":34.48384,"lng":-96.44202,"zip":"74535","miles_from_dt":25.4},{"city":"Platter","state_name":"Oklahoma","lat":33.90777,"lng":-96.53496,"zip":"74753","miles_from_dt":25.48},{"city":"Roff","state_name":"Oklahoma","lat":34.60599,"lng":-96.80922,"zip":"74865","miles_from_dt":26.31},{"city":"Cartwright","state_name":"Oklahoma","lat":33.8753,"lng":-96.57313,"zip":"74731","miles_from_dt":26.47},{"city":"Durant","state_name":"Oklahoma","lat":34.00974,"lng":-96.3769,"zip":"74701","miles_from_dt":26.56},{"city":"Durant","state_name":"Oklahoma","lat":33.9322,"lng":-96.43523,"zip":"74702","miles_from_dt":27.54},{"city":"Marietta","state_name":"Oklahoma","lat":33.94813,"lng":-97.10581,"zip":"73448","miles_from_dt":27.6},{"city":"Gordonville","state_name":"Texas","lat":33.82885,"lng":-96.85422,"zip":"76245","miles_from_dt":27.94},{"city":"Fittstown","state_name":"Oklahoma","lat":34.6166,"lng":-96.61456,"zip":"74842","miles_from_dt":28.14},{"city":"Stonewall","state_name":"Oklahoma","lat":34.59942,"lng":-96.5528,"zip":"74871","miles_from_dt":28.3},{"city":"Calera","state_name":"Oklahoma","lat":33.90466,"lng":-96.43361,"zip":"74730","miles_from_dt":29.03},{"city":"Caddo","state_name":"Oklahoma","lat":34.14674,"lng":-96.25289,"zip":"74729","miles_from_dt":29.56},{"city":"Davis","state_name":"Oklahoma","lat":34.47142,"lng":-97.18584,"zip":"73030","miles_from_dt":29.63},{"city":"Pottsboro","state_name":"Texas","lat":33.79608,"lng":-96.71913,"zip":"75076","miles_from_dt":29.76},{"city":"Fitzhugh","state_name":"Oklahoma","lat":34.65763,"lng":-96.7125,"zip":"74843","miles_from_dt":29.84}],"targetCityZipCode":"73455","targetCityState":"Oklahoma"},"__N_SSG":true}