{"pageProps":{"stateName":"Oklahoma","cityName":"weleetka","nearbyCities":[{"city":"Dustin","state_name":"Oklahoma","lat":35.2413,"lng":-96.04642,"zip":"74839","miles_from_dt":10.48},{"city":"Henryetta","state_name":"Oklahoma","lat":35.44825,"lng":-95.94417,"zip":"74437","miles_from_dt":11.03},{"city":"Dewar","state_name":"Oklahoma","lat":35.45743,"lng":-95.93934,"zip":"74431","miles_from_dt":11.56},{"city":"Schulter","state_name":"Oklahoma","lat":35.50473,"lng":-95.96452,"zip":"74460","miles_from_dt":12.31},{"city":"Okemah","state_name":"Oklahoma","lat":35.46237,"lng":-96.31792,"zip":"74859","miles_from_dt":12.46},{"city":"Wetumka","state_name":"Oklahoma","lat":35.22766,"lng":-96.24346,"zip":"74883","miles_from_dt":12.59},{"city":"Hanna","state_name":"Oklahoma","lat":35.25856,"lng":-95.88302,"zip":"74845","miles_from_dt":15.86},{"city":"Lamar","state_name":"Oklahoma","lat":35.11169,"lng":-96.09045,"zip":"74850","miles_from_dt":18.61},{"city":"Cromwell","state_name":"Oklahoma","lat":35.34321,"lng":-96.4561,"zip":"74837","miles_from_dt":19.09},{"city":"Okmulgee","state_name":"Oklahoma","lat":35.64975,"lng":-96.00628,"zip":"74447","miles_from_dt":19.67},{"city":"Castle","state_name":"Oklahoma","lat":35.58262,"lng":-96.41193,"zip":"74833","miles_from_dt":21.52},{"city":"Boley","state_name":"Oklahoma","lat":35.51332,"lng":-96.47392,"zip":"74829","miles_from_dt":21.91},{"city":"Hitchita","state_name":"Oklahoma","lat":35.51382,"lng":-95.75935,"zip":"74438","miles_from_dt":22.39},{"city":"Stidham","state_name":"Oklahoma","lat":35.38673,"lng":-95.70851,"zip":"74461","miles_from_dt":23.3},{"city":"Morris","state_name":"Oklahoma","lat":35.62729,"lng":-95.82605,"zip":"74445","miles_from_dt":23.8},{"city":"Preston","state_name":"Oklahoma","lat":35.71083,"lng":-95.99262,"zip":"74456","miles_from_dt":23.91},{"city":"Holdenville","state_name":"Oklahoma","lat":35.08197,"lng":-96.34804,"zip":"74848","miles_from_dt":24.25},{"city":"Indianola","state_name":"Oklahoma","lat":35.12983,"lng":-95.8151,"zip":"74442","miles_from_dt":24.45},{"city":"Wewoka","state_name":"Oklahoma","lat":35.18635,"lng":-96.51882,"zip":"74884","miles_from_dt":26.16},{"city":"Beggs","state_name":"Oklahoma","lat":35.75928,"lng":-96.03615,"zip":"74421","miles_from_dt":26.56},{"city":"Paden","state_name":"Oklahoma","lat":35.52788,"lng":-96.56913,"zip":"74860","miles_from_dt":27.24},{"city":"Eufaula","state_name":"Oklahoma","lat":35.28371,"lng":-95.64911,"zip":"74432","miles_from_dt":27.49},{"city":"Slick","state_name":"Oklahoma","lat":35.77835,"lng":-96.26467,"zip":"74071","miles_from_dt":28.6},{"city":"Council Hill","state_name":"Oklahoma","lat":35.54835,"lng":-95.64683,"zip":"74428","miles_from_dt":29.15}],"targetCityZipCode":"74880","targetCityState":"Oklahoma"},"__N_SSG":true}