{"pageProps":{"stateName":"Oklahoma","cityName":"wynnewood","nearbyCities":[{"city":"Pauls Valley","state_name":"Oklahoma","lat":34.75187,"lng":-97.23428,"zip":"73075","miles_from_dt":9.43},{"city":"Davis","state_name":"Oklahoma","lat":34.47142,"lng":-97.18584,"zip":"73030","miles_from_dt":10.82},{"city":"Elmore City","state_name":"Oklahoma","lat":34.62352,"lng":-97.40868,"zip":"73433","miles_from_dt":13.87},{"city":"Sulphur","state_name":"Oklahoma","lat":34.48915,"lng":-96.97251,"zip":"73086","miles_from_dt":14.56},{"city":"Stratford","state_name":"Oklahoma","lat":34.77989,"lng":-96.97913,"zip":"74872","miles_from_dt":14.92},{"city":"Paoli","state_name":"Oklahoma","lat":34.83269,"lng":-97.27917,"zip":"73074","miles_from_dt":15.55},{"city":"Hennepin","state_name":"Oklahoma","lat":34.4875,"lng":-97.38256,"zip":"73444","miles_from_dt":15.7},{"city":"Dougherty","state_name":"Oklahoma","lat":34.40051,"lng":-97.05137,"zip":"73032","miles_from_dt":16.95},{"city":"Davis","state_name":"Oklahoma","lat":34.6149,"lng":-97.4911,"zip":"73039","miles_from_dt":18.58},{"city":"Tatums","state_name":"Oklahoma","lat":34.47327,"lng":-97.4428,"zip":"73487","miles_from_dt":19.06},{"city":"Byars","state_name":"Oklahoma","lat":34.89841,"lng":-97.04298,"zip":"74831","miles_from_dt":19.93},{"city":"Springer","state_name":"Oklahoma","lat":34.35818,"lng":-97.29782,"zip":"73458","miles_from_dt":20.05},{"city":"Roff","state_name":"Oklahoma","lat":34.60599,"lng":-96.80922,"zip":"74865","miles_from_dt":20.35},{"city":"Wayne","state_name":"Oklahoma","lat":34.90677,"lng":-97.28423,"zip":"73095","miles_from_dt":20.4},{"city":"Maysville","state_name":"Oklahoma","lat":34.82998,"lng":-97.43176,"zip":"73057","miles_from_dt":20.61},{"city":"Graham","state_name":"Oklahoma","lat":34.36193,"lng":-97.41558,"zip":"73437","miles_from_dt":23.22},{"city":"Tussy","state_name":"Oklahoma","lat":34.49502,"lng":-97.54724,"zip":"73488","miles_from_dt":23.61},{"city":"Foster","state_name":"Oklahoma","lat":34.62083,"lng":-97.58286,"zip":"73434","miles_from_dt":23.79},{"city":"Ratliff City","state_name":"Oklahoma","lat":34.42229,"lng":-97.51955,"zip":"73481","miles_from_dt":24.67},{"city":"Gene Autry","state_name":"Oklahoma","lat":34.28406,"lng":-97.03856,"zip":"73436","miles_from_dt":24.76},{"city":"Mill Creek","state_name":"Oklahoma","lat":34.39853,"lng":-96.81829,"zip":"74856","miles_from_dt":25.32},{"city":"Countyline","state_name":"Oklahoma","lat":34.45838,"lng":-97.56239,"zip":"73425","miles_from_dt":25.47},{"city":"Fitzhugh","state_name":"Oklahoma","lat":34.65763,"lng":-96.7125,"zip":"74843","miles_from_dt":25.88},{"city":"Fox","state_name":"Oklahoma","lat":34.36008,"lng":-97.49281,"zip":"73435","miles_from_dt":26.25},{"city":"Wanette","state_name":"Oklahoma","lat":35.00768,"lng":-97.06999,"zip":"74878","miles_from_dt":26.76},{"city":"Lexington","state_name":"Oklahoma","lat":35.03175,"lng":-97.24629,"zip":"73051","miles_from_dt":28.24},{"city":"Lindsay","state_name":"Oklahoma","lat":34.83359,"lng":-97.59526,"zip":"73052","miles_from_dt":28.29},{"city":"Ada","state_name":"Oklahoma","lat":34.80691,"lng":-96.71348,"zip":"74820","miles_from_dt":28.54},{"city":"Ardmore","state_name":"Oklahoma","lat":34.21045,"lng":-97.11434,"zip":"73401","miles_from_dt":28.9},{"city":"Ada","state_name":"Oklahoma","lat":34.77708,"lng":-96.67943,"zip":"74821","miles_from_dt":29.52}],"targetCityZipCode":"73098","targetCityState":"Oklahoma"},"__N_SSG":true}