{"pageProps":{"stateName":"Virginia","cityName":"christiansburg","nearbyCities":[{"city":"Christiansburg","state_name":"Virginia","lat":37.13053,"lng":-80.4225,"zip":"24073","miles_from_dt":1.45},{"city":"Blacksburg","state_name":"Virginia","lat":37.22539,"lng":-80.42658,"zip":"24061","miles_from_dt":5.89},{"city":"Blacksburg","state_name":"Virginia","lat":37.22844,"lng":-80.41562,"zip":"24062","miles_from_dt":5.99},{"city":"Blacksburg","state_name":"Virginia","lat":37.22884,"lng":-80.41576,"zip":"24063","miles_from_dt":6.01},{"city":"Pilot","state_name":"Virginia","lat":37.05052,"lng":-80.31684,"zip":"24138","miles_from_dt":7.86},{"city":"Shawsville","state_name":"Virginia","lat":37.13735,"lng":-80.25828,"zip":"24162","miles_from_dt":7.88},{"city":"Blacksburg","state_name":"Virginia","lat":37.25772,"lng":-80.41961,"zip":"24060","miles_from_dt":8.02},{"city":"McCoy","state_name":"Virginia","lat":37.25889,"lng":-80.42978,"zip":"24111","miles_from_dt":8.19},{"city":"Radford","state_name":"Virginia","lat":37.13833,"lng":-80.55084,"zip":"24142","miles_from_dt":8.29},{"city":"Riner","state_name":"Virginia","lat":37.02277,"lng":-80.43424,"zip":"24149","miles_from_dt":8.46},{"city":"Radford","state_name":"Virginia","lat":37.10105,"lng":-80.56677,"zip":"24141","miles_from_dt":9.6},{"city":"Radford","state_name":"Virginia","lat":37.12589,"lng":-80.57524,"zip":"24143","miles_from_dt":9.7},{"city":"Elliston","state_name":"Virginia","lat":37.22594,"lng":-80.24748,"zip":"24087","miles_from_dt":10.23},{"city":"New River","state_name":"Virginia","lat":37.13947,"lng":-80.5918,"zip":"24129","miles_from_dt":10.55},{"city":"Check","state_name":"Virginia","lat":37.03809,"lng":-80.23113,"zip":"24072","miles_from_dt":11.82},{"city":"Belspring","state_name":"Virginia","lat":37.18257,"lng":-80.61637,"zip":"24058","miles_from_dt":12.22},{"city":"Parrott","state_name":"Virginia","lat":37.20534,"lng":-80.64707,"zip":"24132","miles_from_dt":14.27},{"city":"Newport","state_name":"Virginia","lat":37.3426,"lng":-80.47196,"zip":"24128","miles_from_dt":14.35},{"city":"Newbern","state_name":"Virginia","lat":37.09119,"lng":-80.65566,"zip":"24126","miles_from_dt":14.51},{"city":"Bent Mountain","state_name":"Virginia","lat":37.15577,"lng":-80.13159,"zip":"24059","miles_from_dt":14.89},{"city":"Copper Hill","state_name":"Virginia","lat":37.0539,"lng":-80.15418,"zip":"24079","miles_from_dt":14.93},{"city":"Eggleston","state_name":"Virginia","lat":37.27268,"lng":-80.63585,"zip":"24086","miles_from_dt":15.77},{"city":"Floyd","state_name":"Virginia","lat":36.92131,"lng":-80.32264,"zip":"24091","miles_from_dt":15.85},{"city":"Pembroke","state_name":"Virginia","lat":37.31927,"lng":-80.60686,"zip":"24136","miles_from_dt":16.67},{"city":"Hiwassee","state_name":"Virginia","lat":36.95958,"lng":-80.65598,"zip":"24347","miles_from_dt":18.92},{"city":"Salem","state_name":"Virginia","lat":37.29674,"lng":-80.11609,"zip":"24153","miles_from_dt":18.97},{"city":"Catawba","state_name":"Virginia","lat":37.37316,"lng":-80.21238,"zip":"24070","miles_from_dt":19},{"city":"Callaway","state_name":"Virginia","lat":37.03737,"lng":-80.06884,"zip":"24067","miles_from_dt":19.72},{"city":"Staffordsville","state_name":"Virginia","lat":37.24718,"lng":-80.7345,"zip":"24167","miles_from_dt":19.78},{"city":"Indian Valley","state_name":"Virginia","lat":36.90278,"lng":-80.60127,"zip":"24105","miles_from_dt":19.9},{"city":"Roanoke","state_name":"Virginia","lat":37.21238,"lng":-80.04261,"zip":"24018","miles_from_dt":20.34},{"city":"Willis","state_name":"Virginia","lat":36.85672,"lng":-80.50183,"zip":"24380","miles_from_dt":20.48},{"city":"Ripplemead","state_name":"Virginia","lat":37.40229,"lng":-80.59694,"zip":"24150","miles_from_dt":20.93},{"city":"Roanoke","state_name":"Virginia","lat":37.29241,"lng":-80.06396,"zip":"24157","miles_from_dt":21.26},{"city":"Roanoke","state_name":"Virginia","lat":37.29,"lng":-80.06219,"zip":"24155","miles_from_dt":21.27},{"city":"Dublin","state_name":"Virginia","lat":37.11468,"lng":-80.79088,"zip":"24084","miles_from_dt":21.62},{"city":"Pearisburg","state_name":"Virginia","lat":37.24595,"lng":-80.77901,"zip":"24134","miles_from_dt":22.05},{"city":"Pulaski","state_name":"Virginia","lat":37.06319,"lng":-80.79735,"zip":"24301","miles_from_dt":22.58},{"city":"Waiteville","state_name":"West Virginia","lat":37.48942,"lng":-80.41749,"zip":"24984","miles_from_dt":23.94},{"city":"Woolwine","state_name":"Virginia","lat":36.80868,"lng":-80.27557,"zip":"24185","miles_from_dt":24.04},{"city":"Boones Mill","state_name":"Virginia","lat":37.11814,"lng":-79.96453,"zip":"24065","miles_from_dt":24.15},{"city":"Draper","state_name":"Virginia","lat":36.97461,"lng":-80.78836,"zip":"24324","miles_from_dt":24.35},{"city":"Roanoke","state_name":"Virginia","lat":37.25588,"lng":-79.97979,"zip":"24015","miles_from_dt":24.51},{"city":"Ferrum","state_name":"Virginia","lat":36.89492,"lng":-80.0798,"zip":"24088","miles_from_dt":24.63},{"city":"Roanoke","state_name":"Virginia","lat":37.29472,"lng":-79.99183,"zip":"24017","miles_from_dt":24.88},{"city":"Dugspur","state_name":"Virginia","lat":36.80918,"lng":-80.60608,"zip":"24325","miles_from_dt":25.64},{"city":"New Castle","state_name":"Virginia","lat":37.47949,"lng":-80.19468,"zip":"24127","miles_from_dt":25.87},{"city":"Roanoke","state_name":"Virginia","lat":37.27169,"lng":-79.95629,"zip":"24038","miles_from_dt":26.09},{"city":"Roanoke","state_name":"Virginia","lat":37.27219,"lng":-79.95606,"zip":"24031","miles_from_dt":26.11},{"city":"Roanoke","state_name":"Virginia","lat":37.27342,"lng":-79.95596,"zip":"24033","miles_from_dt":26.15},{"city":"Roanoke","state_name":"Virginia","lat":37.27096,"lng":-79.95433,"zip":"24030","miles_from_dt":26.17},{"city":"Roanoke","state_name":"Virginia","lat":37.27208,"lng":-79.95468,"zip":"24016","miles_from_dt":26.18},{"city":"Roanoke","state_name":"Virginia","lat":37.27791,"lng":-79.95694,"zip":"24002","miles_from_dt":26.2},{"city":"Roanoke","state_name":"Virginia","lat":37.27362,"lng":-79.95503,"zip":"24027","miles_from_dt":26.2},{"city":"Roanoke","state_name":"Virginia","lat":37.27159,"lng":-79.9527,"zip":"24029","miles_from_dt":26.27},{"city":"Roanoke","state_name":"Virginia","lat":37.26997,"lng":-79.9517,"zip":"24023","miles_from_dt":26.29},{"city":"Roanoke","state_name":"Virginia","lat":37.27292,"lng":-79.95282,"zip":"24025","miles_from_dt":26.3},{"city":"Roanoke","state_name":"Virginia","lat":37.27224,"lng":-79.95112,"zip":"24026","miles_from_dt":26.37},{"city":"Roanoke","state_name":"Virginia","lat":37.27019,"lng":-79.94467,"zip":"24004","miles_from_dt":26.66},{"city":"Roanoke","state_name":"Virginia","lat":37.27134,"lng":-79.94435,"zip":"24008","miles_from_dt":26.7},{"city":"Lindside","state_name":"West Virginia","lat":37.48358,"lng":-80.63103,"zip":"24951","miles_from_dt":26.72},{"city":"Roanoke","state_name":"Virginia","lat":37.27307,"lng":-79.94332,"zip":"24006","miles_from_dt":26.79},{"city":"Roanoke","state_name":"Virginia","lat":37.2715,"lng":-79.94234,"zip":"24010","miles_from_dt":26.81},{"city":"Roanoke","state_name":"Virginia","lat":37.2706,"lng":-79.9415,"zip":"24007","miles_from_dt":26.83},{"city":"Roanoke","state_name":"Virginia","lat":37.27048,"lng":-79.94128,"zip":"24011","miles_from_dt":26.84},{"city":"Roanoke","state_name":"Virginia","lat":37.27119,"lng":-79.94097,"zip":"24005","miles_from_dt":26.87},{"city":"Roanoke","state_name":"Virginia","lat":37.27347,"lng":-79.9421,"zip":"24003","miles_from_dt":26.87},{"city":"Roanoke","state_name":"Virginia","lat":37.27587,"lng":-79.94159,"zip":"24042","miles_from_dt":26.95},{"city":"Roanoke","state_name":"Virginia","lat":37.27076,"lng":-79.93933,"zip":"24001","miles_from_dt":26.95},{"city":"Roanoke","state_name":"Virginia","lat":37.27066,"lng":-79.93851,"zip":"24009","miles_from_dt":26.99},{"city":"Roanoke","state_name":"Virginia","lat":37.28178,"lng":-79.94288,"zip":"24028","miles_from_dt":27.02},{"city":"Barren Springs","state_name":"Virginia","lat":36.9105,"lng":-80.79805,"zip":"24313","miles_from_dt":27.17},{"city":"Roanoke","state_name":"Virginia","lat":37.28012,"lng":-79.93826,"zip":"24034","miles_from_dt":27.22},{"city":"Roanoke","state_name":"Virginia","lat":37.27828,"lng":-79.9353,"zip":"24032","miles_from_dt":27.33},{"city":"Roanoke","state_name":"Virginia","lat":37.27579,"lng":-79.93424,"zip":"24024","miles_from_dt":27.33},{"city":"Roanoke","state_name":"Virginia","lat":37.2771,"lng":-79.93464,"zip":"24040","miles_from_dt":27.34},{"city":"Roanoke","state_name":"Virginia","lat":37.27689,"lng":-79.93429,"zip":"24022","miles_from_dt":27.35},{"city":"Roanoke","state_name":"Virginia","lat":37.28023,"lng":-79.9357,"zip":"24037","miles_from_dt":27.36},{"city":"Roanoke","state_name":"Virginia","lat":37.27891,"lng":-79.93298,"zip":"24036","miles_from_dt":27.46},{"city":"Roanoke","state_name":"Virginia","lat":37.22427,"lng":-79.91282,"zip":"24014","miles_from_dt":27.51},{"city":"Roanoke","state_name":"Virginia","lat":37.26691,"lng":-79.92219,"zip":"24013","miles_from_dt":27.76},{"city":"Roanoke","state_name":"Virginia","lat":37.2824,"lng":-79.92859,"zip":"24035","miles_from_dt":27.77},{"city":"Roanoke","state_name":"Virginia","lat":37.27017,"lng":-79.92206,"zip":"24043","miles_from_dt":27.84},{"city":"Roanoke","state_name":"Virginia","lat":37.34622,"lng":-79.95718,"zip":"24050","miles_from_dt":28.21},{"city":"Roanoke","state_name":"Virginia","lat":37.3446,"lng":-79.95564,"zip":"24019","miles_from_dt":28.22},{"city":"Narrows","state_name":"Virginia","lat":37.30996,"lng":-80.86774,"zip":"24124","miles_from_dt":28.22},{"city":"Vesta","state_name":"Virginia","lat":36.72266,"lng":-80.40026,"zip":"24177","miles_from_dt":28.95},{"city":"Peterstown","state_name":"West Virginia","lat":37.43743,"lng":-80.77617,"zip":"24963","miles_from_dt":29.01},{"city":"Meadows Of Dan","state_name":"Virginia","lat":36.71891,"lng":-80.41277,"zip":"24120","miles_from_dt":29.21},{"city":"Roanoke","state_name":"Virginia","lat":37.35739,"lng":-79.94279,"zip":"24020","miles_from_dt":29.28},{"city":"Rich Creek","state_name":"Virginia","lat":37.40178,"lng":-80.82815,"zip":"24147","miles_from_dt":29.57}],"targetCityZipCode":"24068","targetCityState":"Virginia"},"__N_SSG":true}