{"pageProps":{"stateName":"Virginia","cityName":"coleman-falls","nearbyCities":[{"city":"Lynchburg","state_name":"Virginia","lat":37.45272,"lng":-79.24286,"zip":"24503","miles_from_dt":5},{"city":"Big Island","state_name":"Virginia","lat":37.55452,"lng":-79.40169,"zip":"24526","miles_from_dt":6.28},{"city":"Monroe","state_name":"Virginia","lat":37.57589,"lng":-79.24714,"zip":"24574","miles_from_dt":7.18},{"city":"Forest","state_name":"Virginia","lat":37.36655,"lng":-79.3268,"zip":"24551","miles_from_dt":8.52},{"city":"Goode","state_name":"Virginia","lat":37.38093,"lng":-79.4021,"zip":"24556","miles_from_dt":8.74},{"city":"Lynchburg","state_name":"Virginia","lat":37.40369,"lng":-79.18986,"zip":"24513","miles_from_dt":9.35},{"city":"Lynchburg","state_name":"Virginia","lat":37.36583,"lng":-79.21529,"zip":"24514","miles_from_dt":10.35},{"city":"Lynchburg","state_name":"Virginia","lat":37.35624,"lng":-79.2194,"zip":"24502","miles_from_dt":10.78},{"city":"Lynchburg","state_name":"Virginia","lat":37.41625,"lng":-79.14179,"zip":"24505","miles_from_dt":11.09},{"city":"Lowry","state_name":"Virginia","lat":37.3486,"lng":-79.4272,"zip":"24570","miles_from_dt":11.37},{"city":"Natural Bridge Station","state_name":"Virginia","lat":37.58763,"lng":-79.50483,"zip":"24579","miles_from_dt":12.14},{"city":"Lynchburg","state_name":"Virginia","lat":37.35261,"lng":-79.17827,"zip":"24515","miles_from_dt":12.3},{"city":"Madison Heights","state_name":"Virginia","lat":37.46514,"lng":-79.09628,"zip":"24572","miles_from_dt":12.47},{"city":"Lynchburg","state_name":"Virginia","lat":37.35591,"lng":-79.16674,"zip":"24506","miles_from_dt":12.55},{"city":"Lynchburg","state_name":"Virginia","lat":37.35565,"lng":-79.15608,"zip":"24501","miles_from_dt":12.96},{"city":"Sweet Briar","state_name":"Virginia","lat":37.55904,"lng":-79.08421,"zip":"24595","miles_from_dt":13.85},{"city":"Glasgow","state_name":"Virginia","lat":37.6678,"lng":-79.47007,"zip":"24555","miles_from_dt":14.74},{"city":"Bedford","state_name":"Virginia","lat":37.3364,"lng":-79.52347,"zip":"24523","miles_from_dt":15.37},{"city":"Amherst","state_name":"Virginia","lat":37.63672,"lng":-79.09539,"zip":"24521","miles_from_dt":15.99},{"city":"Buena Vista","state_name":"Virginia","lat":37.72892,"lng":-79.35534,"zip":"24416","miles_from_dt":16.59},{"city":"Lynchburg","state_name":"Virginia","lat":37.36673,"lng":-79.04953,"zip":"24504","miles_from_dt":17.18},{"city":"Clifford","state_name":"Virginia","lat":37.63588,"lng":-79.06243,"zip":"24533","miles_from_dt":17.4},{"city":"Natural Bridge","state_name":"Virginia","lat":37.66269,"lng":-79.55693,"zip":"24578","miles_from_dt":17.6},{"city":"Evington","state_name":"Virginia","lat":37.23493,"lng":-79.26898,"zip":"24550","miles_from_dt":17.82},{"city":"Rustburg","state_name":"Virginia","lat":37.26408,"lng":-79.09997,"zip":"24588","miles_from_dt":19.76},{"city":"Buchanan","state_name":"Virginia","lat":37.5382,"lng":-79.67822,"zip":"24066","miles_from_dt":19.91},{"city":"Montvale","state_name":"Virginia","lat":37.4212,"lng":-79.69372,"zip":"24122","miles_from_dt":21.03},{"city":"Thaxton","state_name":"Virginia","lat":37.35087,"lng":-79.66762,"zip":"24174","miles_from_dt":21.34},{"city":"Villamont","state_name":"Virginia","lat":37.42527,"lng":-79.70855,"zip":"24178","miles_from_dt":21.77},{"city":"Vesuvius","state_name":"Virginia","lat":37.81484,"lng":-79.2256,"zip":"24483","miles_from_dt":23.01},{"city":"Concord","state_name":"Virginia","lat":37.32908,"lng":-78.95367,"zip":"24538","miles_from_dt":23.05},{"city":"Lexington","state_name":"Virginia","lat":37.77883,"lng":-79.53888,"zip":"24450","miles_from_dt":23.23},{"city":"Piney River","state_name":"Virginia","lat":37.71722,"lng":-78.98861,"zip":"22964","miles_from_dt":24.05},{"city":"Altavista","state_name":"Virginia","lat":37.14532,"lng":-79.23258,"zip":"24517","miles_from_dt":24.26},{"city":"Lynch Station","state_name":"Virginia","lat":37.13671,"lng":-79.37983,"zip":"24571","miles_from_dt":24.58},{"city":"Spout Spring","state_name":"Virginia","lat":37.32651,"lng":-78.91342,"zip":"24593","miles_from_dt":25.09},{"city":"Arrington","state_name":"Virginia","lat":37.68621,"lng":-78.92511,"zip":"22922","miles_from_dt":25.6},{"city":"Fairfield","state_name":"Virginia","lat":37.86716,"lng":-79.30663,"zip":"24435","miles_from_dt":26.03},{"city":"Huddleston","state_name":"Virginia","lat":37.13546,"lng":-79.48773,"zip":"24104","miles_from_dt":26.12},{"city":"Blue Ridge","state_name":"Virginia","lat":37.37237,"lng":-79.7759,"zip":"24064","miles_from_dt":26.3},{"city":"Roseland","state_name":"Virginia","lat":37.79945,"lng":-79.0192,"zip":"22967","miles_from_dt":27.01},{"city":"Gladstone","state_name":"Virginia","lat":37.54845,"lng":-78.81907,"zip":"24553","miles_from_dt":27.86},{"city":"Gladys","state_name":"Virginia","lat":37.13674,"lng":-79.06639,"zip":"24554","miles_from_dt":28.11},{"city":"Moneta","state_name":"Virginia","lat":37.1709,"lng":-79.64141,"zip":"24121","miles_from_dt":28.21},{"city":"Montebello","state_name":"Virginia","lat":37.86082,"lng":-79.10398,"zip":"24464","miles_from_dt":28.21},{"city":"Tyro","state_name":"Virginia","lat":37.84555,"lng":-79.04036,"zip":"22976","miles_from_dt":28.95},{"city":"Brownsburg","state_name":"Virginia","lat":37.91099,"lng":-79.31126,"zip":"24415","miles_from_dt":29.04},{"city":"Goodview","state_name":"Virginia","lat":37.22304,"lng":-79.73787,"zip":"24095","miles_from_dt":29.42},{"city":"Rockbridge Baths","state_name":"Virginia","lat":37.9129,"lng":-79.41052,"zip":"24473","miles_from_dt":29.58},{"city":"Hurt","state_name":"Virginia","lat":37.06106,"lng":-79.27385,"zip":"24563","miles_from_dt":29.69},{"city":"Vinton","state_name":"Virginia","lat":37.2855,"lng":-79.79963,"zip":"24179","miles_from_dt":29.88}],"targetCityZipCode":"24536","targetCityState":"Virginia"},"__N_SSG":true}