{"pageProps":{"stateName":"Virginia","cityName":"louisa","nearbyCities":[{"city":"Trevilians","state_name":"Virginia","lat":38.05374,"lng":-78.07248,"zip":"23170","miles_from_dt":4.12},{"city":"Kents Store","state_name":"Virginia","lat":37.8864,"lng":-78.11162,"zip":"23084","miles_from_dt":8.95},{"city":"Mineral","state_name":"Virginia","lat":37.97736,"lng":-77.87365,"zip":"23117","miles_from_dt":9.01},{"city":"Gordonsville","state_name":"Virginia","lat":38.10397,"lng":-78.19684,"zip":"22942","miles_from_dt":11.27},{"city":"Hadensville","state_name":"Virginia","lat":37.81371,"lng":-78.01301,"zip":"23067","miles_from_dt":13.01},{"city":"Troy","state_name":"Virginia","lat":37.96207,"lng":-78.2753,"zip":"22974","miles_from_dt":13.35},{"city":"Gum Spring","state_name":"Virginia","lat":37.8016,"lng":-77.92979,"zip":"23065","miles_from_dt":14.96},{"city":"Orange","state_name":"Virginia","lat":38.21992,"lng":-78.06624,"zip":"22960","miles_from_dt":15.15},{"city":"Bumpass","state_name":"Virginia","lat":37.92448,"lng":-77.77554,"zip":"23024","miles_from_dt":15.18},{"city":"Keswick","state_name":"Virginia","lat":38.04326,"lng":-78.32624,"zip":"22947","miles_from_dt":16.1},{"city":"Sandy Hook","state_name":"Virginia","lat":37.77641,"lng":-77.95719,"zip":"23153","miles_from_dt":16.11},{"city":"Unionville","state_name":"Virginia","lat":38.23395,"lng":-77.92401,"zip":"22567","miles_from_dt":17.15},{"city":"Palmyra","state_name":"Virginia","lat":37.84793,"lng":-78.28524,"zip":"22963","miles_from_dt":17.25},{"city":"Montpelier Station","state_name":"Virginia","lat":38.22998,"lng":-78.1918,"zip":"22957","miles_from_dt":17.9},{"city":"Columbia","state_name":"Virginia","lat":37.75627,"lng":-78.14552,"zip":"23038","miles_from_dt":17.94},{"city":"Somerset","state_name":"Virginia","lat":38.21746,"lng":-78.23451,"zip":"22972","miles_from_dt":18.41},{"city":"Fork Union","state_name":"Virginia","lat":37.7706,"lng":-78.21852,"zip":"23055","miles_from_dt":18.8},{"city":"Goochland","state_name":"Virginia","lat":37.71694,"lng":-77.99882,"zip":"23063","miles_from_dt":19.73},{"city":"Barboursville","state_name":"Virginia","lat":38.18671,"lng":-78.32405,"zip":"22923","miles_from_dt":20.24},{"city":"Woodberry Forest","state_name":"Virginia","lat":38.29328,"lng":-78.11943,"zip":"22989","miles_from_dt":20.63},{"city":"Partlow","state_name":"Virginia","lat":38.08473,"lng":-77.67062,"zip":"22534","miles_from_dt":20.74},{"city":"Charlottesville","state_name":"Virginia","lat":38.09522,"lng":-78.4078,"zip":"22911","miles_from_dt":21.29},{"city":"Spotsylvania","state_name":"Virginia","lat":38.17273,"lng":-77.70575,"zip":"22551","miles_from_dt":21.53},{"city":"Rhoadesville","state_name":"Virginia","lat":38.29348,"lng":-77.88837,"zip":"22542","miles_from_dt":21.68},{"city":"Bremo Bluff","state_name":"Virginia","lat":37.7353,"lng":-78.26432,"zip":"23022","miles_from_dt":22.2},{"city":"Beaverdam","state_name":"Virginia","lat":37.93127,"lng":-77.63124,"zip":"23015","miles_from_dt":22.62},{"city":"Rapidan","state_name":"Virginia","lat":38.33191,"lng":-78.0467,"zip":"22733","miles_from_dt":22.79},{"city":"Radiant","state_name":"Virginia","lat":38.30886,"lng":-78.19153,"zip":"22732","miles_from_dt":22.83},{"city":"Maidens","state_name":"Virginia","lat":37.71053,"lng":-77.83325,"zip":"23102","miles_from_dt":22.93},{"city":"Montpelier","state_name":"Virginia","lat":37.81732,"lng":-77.68209,"zip":"23192","miles_from_dt":23.14},{"city":"Beaumont","state_name":"Virginia","lat":37.67773,"lng":-77.89517,"zip":"23014","miles_from_dt":23.62},{"city":"Rochelle","state_name":"Virginia","lat":38.28692,"lng":-78.27685,"zip":"22738","miles_from_dt":23.66},{"city":"Charlottesville","state_name":"Virginia","lat":37.95566,"lng":-78.46883,"zip":"22902","miles_from_dt":23.84},{"city":"Charlottesville","state_name":"Virginia","lat":38.03018,"lng":-78.47555,"zip":"22906","miles_from_dt":24.07},{"city":"Charlottesville","state_name":"Virginia","lat":38.04321,"lng":-78.47404,"zip":"22909","miles_from_dt":24.07},{"city":"Mitchells","state_name":"Virginia","lat":38.35658,"lng":-78.01596,"zip":"22729","miles_from_dt":24.51},{"city":"Aroda","state_name":"Virginia","lat":38.32769,"lng":-78.21732,"zip":"22709","miles_from_dt":24.57},{"city":"Locust Dale","state_name":"Virginia","lat":38.35154,"lng":-78.12264,"zip":"22948","miles_from_dt":24.6},{"city":"Oilville","state_name":"Virginia","lat":37.705,"lng":-77.78261,"zip":"23129","miles_from_dt":24.7},{"city":"Charlottesville","state_name":"Virginia","lat":38.02319,"lng":-78.48987,"zip":"22905","miles_from_dt":24.81},{"city":"Cartersville","state_name":"Virginia","lat":37.64551,"lng":-78.13183,"zip":"23027","miles_from_dt":25.11},{"city":"Charlottesville","state_name":"Virginia","lat":37.95245,"lng":-78.49291,"zip":"22907","miles_from_dt":25.18},{"city":"Charlottesville","state_name":"Virginia","lat":38.03103,"lng":-78.49639,"zip":"22908","miles_from_dt":25.21},{"city":"Locust Grove","state_name":"Virginia","lat":38.31732,"lng":-77.7913,"zip":"22508","miles_from_dt":25.53},{"city":"Ruckersville","state_name":"Virginia","lat":38.24111,"lng":-78.39407,"zip":"22968","miles_from_dt":25.57},{"city":"Rockville","state_name":"Virginia","lat":37.7273,"lng":-77.70928,"zip":"23146","miles_from_dt":26.01},{"city":"Charlottesville","state_name":"Virginia","lat":38.03492,"lng":-78.51161,"zip":"22904","miles_from_dt":26.06},{"city":"Oakpark","state_name":"Virginia","lat":38.36782,"lng":-78.16635,"zip":"22730","miles_from_dt":26.24},{"city":"Burr Hill","state_name":"Virginia","lat":38.35875,"lng":-77.86093,"zip":"22433","miles_from_dt":26.42},{"city":"Pratts","state_name":"Virginia","lat":38.34413,"lng":-78.26151,"zip":"22731","miles_from_dt":26.63},{"city":"Crozier","state_name":"Virginia","lat":37.65503,"lng":-77.80596,"zip":"23039","miles_from_dt":27.01},{"city":"Earlysville","state_name":"Virginia","lat":38.1671,"lng":-78.49974,"zip":"22936","miles_from_dt":27.74},{"city":"State Farm","state_name":"Virginia","lat":37.62757,"lng":-77.84028,"zip":"23160","miles_from_dt":27.92},{"city":"Scottsville","state_name":"Virginia","lat":37.79353,"lng":-78.47767,"zip":"24590","miles_from_dt":28.08},{"city":"New Canton","state_name":"Virginia","lat":37.65238,"lng":-78.3031,"zip":"23123","miles_from_dt":28.17},{"city":"Spotsylvania","state_name":"Virginia","lat":38.26594,"lng":-77.6397,"zip":"22553","miles_from_dt":28.26},{"city":"Ladysmith","state_name":"Virginia","lat":38.01636,"lng":-77.51743,"zip":"22501","miles_from_dt":28.31},{"city":"Quinque","state_name":"Virginia","lat":38.27941,"lng":-78.43045,"zip":"22965","miles_from_dt":28.79},{"city":"Charlottesville","state_name":"Virginia","lat":38.08874,"lng":-78.55569,"zip":"22901","miles_from_dt":28.98},{"city":"Brightwood","state_name":"Virginia","lat":38.41032,"lng":-78.18541,"zip":"22715","miles_from_dt":29.35},{"city":"Manakin Sabot","state_name":"Virginia","lat":37.6506,"lng":-77.72754,"zip":"23103","miles_from_dt":29.5},{"city":"Thornburg","state_name":"Virginia","lat":38.13336,"lng":-77.51978,"zip":"22565","miles_from_dt":29.58},{"city":"Arvonia","state_name":"Virginia","lat":37.68307,"lng":-78.40567,"zip":"23004","miles_from_dt":29.85},{"city":"Wolftown","state_name":"Virginia","lat":38.35812,"lng":-78.3482,"zip":"22748","miles_from_dt":29.9}],"targetCityZipCode":"23093","targetCityState":"Virginia"},"__N_SSG":true}