{"pageProps":{"stateName":"Virginia","cityName":"nora","nearbyCities":[{"city":"Dante","state_name":"Virginia","lat":37.03939,"lng":-82.26424,"zip":"24237","miles_from_dt":3.91},{"city":"McClure","state_name":"Virginia","lat":37.0803,"lng":-82.37894,"zip":"24269","miles_from_dt":4.25},{"city":"Saint Paul","state_name":"Virginia","lat":36.94155,"lng":-82.34554,"zip":"24283","miles_from_dt":6.15},{"city":"Clinchco","state_name":"Virginia","lat":37.14223,"lng":-82.33384,"zip":"24226","miles_from_dt":7.73},{"city":"Coeburn","state_name":"Virginia","lat":36.96928,"lng":-82.45449,"zip":"24230","miles_from_dt":7.88},{"city":"Birchleaf","state_name":"Virginia","lat":37.11957,"lng":-82.22641,"zip":"24220","miles_from_dt":8.56},{"city":"Bee","state_name":"Virginia","lat":37.1014,"lng":-82.17783,"zip":"24217","miles_from_dt":9.93},{"city":"Cleveland","state_name":"Virginia","lat":36.97543,"lng":-82.14115,"zip":"24225","miles_from_dt":11.32},{"city":"Andover","state_name":"Virginia","lat":36.99383,"lng":-82.53593,"zip":"24215","miles_from_dt":11.44},{"city":"Clintwood","state_name":"Virginia","lat":37.17047,"lng":-82.44963,"zip":"24228","miles_from_dt":11.59},{"city":"Davenport","state_name":"Virginia","lat":37.1136,"lng":-82.14577,"zip":"24239","miles_from_dt":11.89},{"city":"Castlewood","state_name":"Virginia","lat":36.86059,"lng":-82.28322,"zip":"24224","miles_from_dt":12.03},{"city":"Mavisdale","state_name":"Virginia","lat":37.18299,"lng":-82.21519,"zip":"24627","miles_from_dt":12.41},{"city":"Wise","state_name":"Virginia","lat":37.00559,"lng":-82.56458,"zip":"24293","miles_from_dt":12.86},{"city":"Haysi","state_name":"Virginia","lat":37.22344,"lng":-82.28503,"zip":"24256","miles_from_dt":13.6},{"city":"Vansant","state_name":"Virginia","lat":37.1743,"lng":-82.12364,"zip":"24656","miles_from_dt":15.29},{"city":"Dungannon","state_name":"Virginia","lat":36.84045,"lng":-82.51598,"zip":"24245","miles_from_dt":16.51},{"city":"Pound","state_name":"Virginia","lat":37.10383,"lng":-82.61909,"zip":"24279","miles_from_dt":16.55},{"city":"Lebanon","state_name":"Virginia","lat":36.8671,"lng":-82.10523,"zip":"24266","miles_from_dt":16.94},{"city":"Ashcamp","state_name":"Kentucky","lat":37.25251,"lng":-82.47772,"zip":"41512","miles_from_dt":17.26},{"city":"Shelby Gap","state_name":"Kentucky","lat":37.22628,"lng":-82.53694,"zip":"41563","miles_from_dt":17.56},{"city":"Burdine","state_name":"Kentucky","lat":37.18919,"lng":-82.60026,"zip":"41517","miles_from_dt":18.34},{"city":"Rowe","state_name":"Virginia","lat":37.13751,"lng":-82.02976,"zip":"24646","miles_from_dt":18.37},{"city":"Honaker","state_name":"Virginia","lat":37.02291,"lng":-82.00059,"zip":"24260","miles_from_dt":18.44},{"city":"Norton","state_name":"Virginia","lat":36.96142,"lng":-82.65632,"zip":"24273","miles_from_dt":18.45},{"city":"Breaks","state_name":"Virginia","lat":37.29498,"lng":-82.26533,"zip":"24607","miles_from_dt":18.65},{"city":"Hellier","state_name":"Kentucky","lat":37.27748,"lng":-82.49644,"zip":"41534","miles_from_dt":19.27},{"city":"Nickelsville","state_name":"Virginia","lat":36.74712,"lng":-82.41714,"zip":"24271","miles_from_dt":20.06},{"city":"Elkhorn City","state_name":"Kentucky","lat":37.31644,"lng":-82.40088,"zip":"41522","miles_from_dt":20.08},{"city":"Jenkins","state_name":"Kentucky","lat":37.22221,"lng":-82.61619,"zip":"41537","miles_from_dt":20.45},{"city":"Maxie","state_name":"Virginia","lat":37.30347,"lng":-82.17337,"zip":"24628","miles_from_dt":20.83},{"city":"Lookout","state_name":"Kentucky","lat":37.31592,"lng":-82.47079,"zip":"41542","miles_from_dt":21.1},{"city":"Mendota","state_name":"Virginia","lat":36.72846,"lng":-82.24693,"zip":"24270","miles_from_dt":21.36},{"city":"Rockhouse","state_name":"Kentucky","lat":37.32691,"lng":-82.45338,"zip":"41561","miles_from_dt":21.5},{"city":"Cromona","state_name":"Kentucky","lat":37.18492,"lng":-82.67278,"zip":"41810","miles_from_dt":21.54},{"city":"Dorton","state_name":"Kentucky","lat":37.27655,"lng":-82.58176,"zip":"41520","miles_from_dt":21.81},{"city":"Belcher","state_name":"Kentucky","lat":37.35282,"lng":-82.34329,"zip":"41513","miles_from_dt":22.25},{"city":"Rosedale","state_name":"Virginia","lat":36.95575,"lng":-81.94167,"zip":"24280","miles_from_dt":22.3},{"city":"McRoberts","state_name":"Kentucky","lat":37.21196,"lng":-82.67114,"zip":"41835","miles_from_dt":22.44},{"city":"Keen Mountain","state_name":"Virginia","lat":37.20438,"lng":-81.98706,"zip":"24624","miles_from_dt":22.61},{"city":"Oakwood","state_name":"Virginia","lat":37.2202,"lng":-81.99714,"zip":"24631","miles_from_dt":22.75},{"city":"Myra","state_name":"Kentucky","lat":37.2935,"lng":-82.59021,"zip":"41549","miles_from_dt":23.01},{"city":"Swords Creek","state_name":"Virginia","lat":37.08303,"lng":-81.92198,"zip":"24649","miles_from_dt":23.06},{"city":"Fort Blackmore","state_name":"Virginia","lat":36.75752,"lng":-82.58705,"zip":"24250","miles_from_dt":23.45},{"city":"Jonancy","state_name":"Kentucky","lat":37.30338,"lng":-82.58891,"zip":"41538","miles_from_dt":23.51},{"city":"Big Rock","state_name":"Virginia","lat":37.35607,"lng":-82.1914,"zip":"24603","miles_from_dt":23.81},{"city":"Mayking","state_name":"Kentucky","lat":37.1215,"lng":-82.75231,"zip":"41837","miles_from_dt":23.96},{"city":"Seco","state_name":"Kentucky","lat":37.1744,"lng":-82.73251,"zip":"41849","miles_from_dt":24.15},{"city":"Neon","state_name":"Kentucky","lat":37.19962,"lng":-82.71813,"zip":"41840","miles_from_dt":24.22},{"city":"Regina","state_name":"Kentucky","lat":37.37997,"lng":-82.39017,"zip":"41559","miles_from_dt":24.32},{"city":"Grundy","state_name":"Virginia","lat":37.31466,"lng":-82.07181,"zip":"24614","miles_from_dt":24.38},{"city":"Mouthcard","state_name":"Kentucky","lat":37.37847,"lng":-82.25372,"zip":"41548","miles_from_dt":24.42},{"city":"Eolia","state_name":"Kentucky","lat":37.05637,"lng":-82.7783,"zip":"40826","miles_from_dt":24.63},{"city":"Abingdon","state_name":"Virginia","lat":36.77231,"lng":-82.02244,"zip":"24210","miles_from_dt":24.78},{"city":"Lick Creek","state_name":"Kentucky","lat":37.39013,"lng":-82.32318,"zip":"41540","miles_from_dt":24.83},{"city":"Jackhorn","state_name":"Kentucky","lat":37.23323,"lng":-82.70854,"zip":"41825","miles_from_dt":24.97},{"city":"East Stone Gap","state_name":"Virginia","lat":36.86609,"lng":-82.74395,"zip":"24246","miles_from_dt":25.35},{"city":"Raven","state_name":"Virginia","lat":37.17357,"lng":-81.90461,"zip":"24639","miles_from_dt":25.7},{"city":"Millstone","state_name":"Kentucky","lat":37.19677,"lng":-82.75144,"zip":"41838","miles_from_dt":25.76},{"city":"Virgie","state_name":"Kentucky","lat":37.31342,"lng":-82.64368,"zip":"41572","miles_from_dt":25.95},{"city":"Big Stone Gap","state_name":"Virginia","lat":36.84831,"lng":-82.74645,"zip":"24219","miles_from_dt":26.05},{"city":"Appalachia","state_name":"Virginia","lat":36.94237,"lng":-82.79571,"zip":"24216","miles_from_dt":26.25},{"city":"Bristol","state_name":"Virginia","lat":36.65904,"lng":-82.21564,"zip":"24202","miles_from_dt":26.42},{"city":"Hiltons","state_name":"Virginia","lat":36.6517,"lng":-82.41199,"zip":"24258","miles_from_dt":26.46},{"city":"Shelbiana","state_name":"Kentucky","lat":37.3991,"lng":-82.47052,"zip":"41562","miles_from_dt":26.53},{"city":"Red Ash","state_name":"Virginia","lat":37.10647,"lng":-81.86272,"zip":"24640","miles_from_dt":26.57},{"city":"Shortt Gap","state_name":"Virginia","lat":37.15848,"lng":-81.87377,"zip":"24647","miles_from_dt":26.92},{"city":"Ermine","state_name":"Kentucky","lat":37.15821,"lng":-82.79799,"zip":"41815","miles_from_dt":27.11},{"city":"Deane","state_name":"Kentucky","lat":37.2473,"lng":-82.74445,"zip":"41812","miles_from_dt":27.16},{"city":"Thornton","state_name":"Kentucky","lat":37.18874,"lng":-82.78496,"zip":"41855","miles_from_dt":27.2},{"city":"Steele","state_name":"Kentucky","lat":37.40836,"lng":-82.1922,"zip":"41566","miles_from_dt":27.23},{"city":"Doran","state_name":"Virginia","lat":37.09728,"lng":-81.84461,"zip":"24612","miles_from_dt":27.44},{"city":"Weeksbury","state_name":"Kentucky","lat":37.31138,"lng":-82.69881,"zip":"41667","miles_from_dt":27.95},{"city":"Phyllis","state_name":"Kentucky","lat":37.43919,"lng":-82.32446,"zip":"41554","miles_from_dt":28.21},{"city":"Fedscreek","state_name":"Kentucky","lat":37.43345,"lng":-82.23444,"zip":"41524","miles_from_dt":28.35},{"city":"Robinson Creek","state_name":"Kentucky","lat":37.39423,"lng":-82.57875,"zip":"41560","miles_from_dt":28.5},{"city":"Melvin","state_name":"Kentucky","lat":37.34722,"lng":-82.68166,"zip":"41650","miles_from_dt":29.08},{"city":"Pilgrims Knob","state_name":"Virginia","lat":37.27411,"lng":-81.90253,"zip":"24634","miles_from_dt":29.16},{"city":"Wolford","state_name":"Virginia","lat":37.35254,"lng":-81.99172,"zip":"24658","miles_from_dt":29.17},{"city":"Whitesburg","state_name":"Kentucky","lat":37.1454,"lng":-82.84697,"zip":"41858","miles_from_dt":29.43},{"city":"Fords Branch","state_name":"Kentucky","lat":37.43372,"lng":-82.51256,"zip":"41526","miles_from_dt":29.52},{"city":"Wheelwright","state_name":"Kentucky","lat":37.33375,"lng":-82.71469,"zip":"41669","miles_from_dt":29.65},{"city":"Richlands","state_name":"Virginia","lat":37.11797,"lng":-81.80802,"zip":"24641","miles_from_dt":29.69},{"city":"Partridge","state_name":"Kentucky","lat":37.01418,"lng":-82.87096,"zip":"40862","miles_from_dt":29.71},{"city":"Gate City","state_name":"Virginia","lat":36.65807,"lng":-82.60582,"zip":"24251","miles_from_dt":29.76},{"city":"Cedar Bluff","state_name":"Virginia","lat":37.02955,"lng":-81.795,"zip":"24609","miles_from_dt":29.8},{"city":"Abingdon","state_name":"Virginia","lat":36.70693,"lng":-81.97439,"zip":"24212","miles_from_dt":29.9},{"city":"Whitewood","state_name":"Virginia","lat":37.22363,"lng":-81.84737,"zip":"24657","miles_from_dt":30}],"targetCityZipCode":"24272","targetCityState":"Virginia"},"__N_SSG":true}