{"pageProps":{"stateName":"Oregon","cityName":"central-point","nearbyCities":[{"city":"Gold Hill","state_name":"Oregon","lat":42.43557,"lng":-123.07606,"zip":"97525","miles_from_dt":6.84},{"city":"Medford","state_name":"Oregon","lat":42.2856,"lng":-122.89459,"zip":"97501","miles_from_dt":8.95},{"city":"Medford","state_name":"Oregon","lat":42.32757,"lng":-122.80068,"zip":"97504","miles_from_dt":9.38},{"city":"Phoenix","state_name":"Oregon","lat":42.26799,"lng":-122.81238,"zip":"97535","miles_from_dt":11.95},{"city":"White City","state_name":"Oregon","lat":42.5836,"lng":-122.92721,"zip":"97503","miles_from_dt":12.08},{"city":"Rogue River","state_name":"Oregon","lat":42.55041,"lng":-123.13357,"zip":"97537","miles_from_dt":13.62},{"city":"Eagle Point","state_name":"Oregon","lat":42.46271,"lng":-122.66327,"zip":"97524","miles_from_dt":14.98},{"city":"Shady Cove","state_name":"Oregon","lat":42.59999,"lng":-122.79024,"zip":"97539","miles_from_dt":15.41},{"city":"Talent","state_name":"Oregon","lat":42.18615,"lng":-122.80027,"zip":"97540","miles_from_dt":17.14},{"city":"Murphy","state_name":"Oregon","lat":42.33902,"lng":-123.28631,"zip":"97533","miles_from_dt":18.02},{"city":"Grants Pass","state_name":"Oregon","lat":42.43969,"lng":-123.32472,"zip":"97528","miles_from_dt":19.42},{"city":"Jacksonville","state_name":"Oregon","lat":42.13778,"lng":-123.10507,"zip":"97530","miles_from_dt":20.41},{"city":"Grants Pass","state_name":"Oregon","lat":42.51275,"lng":-123.33964,"zip":"97526","miles_from_dt":21.29},{"city":"Grants Pass","state_name":"Oregon","lat":42.37615,"lng":-123.38288,"zip":"97527","miles_from_dt":22.41},{"city":"Williams","state_name":"Oregon","lat":42.207,"lng":-123.30006,"zip":"97544","miles_from_dt":22.84},{"city":"Trail","state_name":"Oregon","lat":42.72983,"lng":-122.75359,"zip":"97541","miles_from_dt":24.23},{"city":"Butte Falls","state_name":"Oregon","lat":42.56594,"lng":-122.46886,"zip":"97522","miles_from_dt":26.72},{"city":"Ashland","state_name":"Oregon","lat":42.15472,"lng":-122.53168,"zip":"97520","miles_from_dt":27.61},{"city":"Azalea","state_name":"Oregon","lat":42.80159,"lng":-123.11931,"zip":"97410","miles_from_dt":28.47},{"city":"Wolf Creek","state_name":"Oregon","lat":42.66015,"lng":-123.40929,"zip":"97497","miles_from_dt":29.26}],"targetCityZipCode":"97502","targetCityState":"Oregon"},"__N_SSG":true}