{"pageProps":{"stateName":"Oregon","cityName":"cloverdale","nearbyCities":[{"city":"Hebo","state_name":"Oregon","lat":45.17331,"lng":-123.8164,"zip":"97122","miles_from_dt":6.6},{"city":"Pacific City","state_name":"Oregon","lat":45.18749,"lng":-123.95494,"zip":"97135","miles_from_dt":6.73},{"city":"Beaver","state_name":"Oregon","lat":45.27423,"lng":-123.67544,"zip":"97108","miles_from_dt":9.34},{"city":"Neskowin","state_name":"Oregon","lat":45.09957,"lng":-123.94455,"zip":"97149","miles_from_dt":11.86},{"city":"Netarts","state_name":"Oregon","lat":45.43607,"lng":-123.94251,"zip":"97143","miles_from_dt":12.57},{"city":"Oceanside","state_name":"Oregon","lat":45.45587,"lng":-123.96513,"zip":"97134","miles_from_dt":14.22},{"city":"Tillamook","state_name":"Oregon","lat":45.47142,"lng":-123.73791,"zip":"97141","miles_from_dt":15.74},{"city":"Grand Ronde","state_name":"Oregon","lat":45.07836,"lng":-123.65943,"zip":"97347","miles_from_dt":16.22},{"city":"Otis","state_name":"Oregon","lat":45.0073,"lng":-123.89155,"zip":"97368","miles_from_dt":17.64},{"city":"Neotsu","state_name":"Oregon","lat":44.99889,"lng":-123.98703,"zip":"97364","miles_from_dt":19.12},{"city":"Willamina","state_name":"Oregon","lat":45.11528,"lng":-123.5275,"zip":"97396","miles_from_dt":19.41},{"city":"Garibaldi","state_name":"Oregon","lat":45.55697,"lng":-123.91619,"zip":"97118","miles_from_dt":20.5},{"city":"Bay City","state_name":"Oregon","lat":45.56172,"lng":-123.88291,"zip":"97107","miles_from_dt":20.7},{"city":"Sheridan","state_name":"Oregon","lat":45.08058,"lng":-123.43127,"zip":"97378","miles_from_dt":24.67},{"city":"Lincoln City","state_name":"Oregon","lat":44.9122,"lng":-123.96914,"zip":"97367","miles_from_dt":24.69},{"city":"Rockaway Beach","state_name":"Oregon","lat":45.6341,"lng":-123.91353,"zip":"97136","miles_from_dt":25.79},{"city":"Gleneden Beach","state_name":"Oregon","lat":44.87418,"lng":-124.01169,"zip":"97388","miles_from_dt":27.72},{"city":"Wheeler","state_name":"Oregon","lat":45.6871,"lng":-123.8873,"zip":"97147","miles_from_dt":29.36}],"targetCityZipCode":"97112","targetCityState":"Oregon"},"__N_SSG":true}