{"pageProps":{"stateName":"Oregon","cityName":"gresham","nearbyCities":[{"city":"Fairview","state_name":"Oregon","lat":45.54576,"lng":-122.44142,"zip":"97024","miles_from_dt":2.59},{"city":"Gresham","state_name":"Oregon","lat":45.47848,"lng":-122.39001,"zip":"97080","miles_from_dt":2.91},{"city":"Portland","state_name":"Oregon","lat":45.51391,"lng":-122.49887,"zip":"97233","miles_from_dt":3.3},{"city":"Troutdale","state_name":"Oregon","lat":45.5342,"lng":-122.36989,"zip":"97060","miles_from_dt":3.46},{"city":"Portland","state_name":"Oregon","lat":45.54231,"lng":-122.49685,"zip":"97294","miles_from_dt":3.93},{"city":"Portland","state_name":"Oregon","lat":45.48474,"lng":-122.51055,"zip":"97236","miles_from_dt":4.19},{"city":"Portland","state_name":"Oregon","lat":45.5582,"lng":-122.506,"zip":"97230","miles_from_dt":4.97},{"city":"Damascus","state_name":"Oregon","lat":45.4256,"lng":-122.44342,"zip":"97089","miles_from_dt":5.79},{"city":"Portland","state_name":"Oregon","lat":45.51543,"lng":-122.55544,"zip":"97292","miles_from_dt":6.04},{"city":"Portland","state_name":"Oregon","lat":45.51393,"lng":-122.5585,"zip":"97216","miles_from_dt":6.18},{"city":"Happy Valley","state_name":"Oregon","lat":45.44531,"lng":-122.52793,"zip":"97086","miles_from_dt":6.43},{"city":"Portland","state_name":"Oregon","lat":45.48268,"lng":-122.55838,"zip":"97266","miles_from_dt":6.43},{"city":"Portland","state_name":"Oregon","lat":45.55107,"lng":-122.55915,"zip":"97220","miles_from_dt":6.85},{"city":"Boring","state_name":"Oregon","lat":45.42409,"lng":-122.33962,"zip":"97009","miles_from_dt":7.36},{"city":"Vancouver","state_name":"Washington","lat":45.6027,"lng":-122.50984,"zip":"98683","miles_from_dt":7.51},{"city":"Portland","state_name":"Oregon","lat":45.51436,"lng":-122.59923,"zip":"97215","miles_from_dt":8.16},{"city":"Clackamas","state_name":"Oregon","lat":45.41477,"lng":-122.53767,"zip":"97015","miles_from_dt":8.31},{"city":"Portland","state_name":"Oregon","lat":45.47983,"lng":-122.59789,"zip":"97286","miles_from_dt":8.34},{"city":"Portland","state_name":"Oregon","lat":45.48173,"lng":-122.5988,"zip":"97206","miles_from_dt":8.35},{"city":"Portland","state_name":"Oregon","lat":45.53776,"lng":-122.59957,"zip":"97213","miles_from_dt":8.4},{"city":"Vancouver","state_name":"Washington","lat":45.62919,"lng":-122.51754,"zip":"98687","miles_from_dt":9.3},{"city":"Vancouver","state_name":"Washington","lat":45.6308,"lng":-122.51615,"zip":"98684","miles_from_dt":9.37},{"city":"Portland","state_name":"Oregon","lat":45.5759,"lng":-122.60023,"zip":"97218","miles_from_dt":9.41},{"city":"Portland","state_name":"Oregon","lat":45.57644,"lng":-122.60045,"zip":"97238","miles_from_dt":9.44},{"city":"Camas","state_name":"Washington","lat":45.64395,"lng":-122.38242,"zip":"98607","miles_from_dt":9.62},{"city":"Portland","state_name":"Oregon","lat":45.43845,"lng":-122.61132,"zip":"97269","miles_from_dt":10.01},{"city":"Portland","state_name":"Oregon","lat":45.44114,"lng":-122.61682,"zip":"97222","miles_from_dt":10.16},{"city":"Portland","state_name":"Oregon","lat":45.51122,"lng":-122.64134,"zip":"97293","miles_from_dt":10.2},{"city":"Portland","state_name":"Oregon","lat":45.48326,"lng":-122.63843,"zip":"97242","miles_from_dt":10.21},{"city":"Portland","state_name":"Oregon","lat":45.48165,"lng":-122.63928,"zip":"97282","miles_from_dt":10.27},{"city":"Portland","state_name":"Oregon","lat":45.51395,"lng":-122.64424,"zip":"97214","miles_from_dt":10.34},{"city":"Portland","state_name":"Oregon","lat":45.5292,"lng":-122.64376,"zip":"97232","miles_from_dt":10.41},{"city":"Vancouver","state_name":"Washington","lat":45.61966,"lng":-122.57738,"zip":"98664","miles_from_dt":10.42},{"city":"Portland","state_name":"Oregon","lat":45.48232,"lng":-122.64365,"zip":"97202","miles_from_dt":10.47},{"city":"Portland","state_name":"Oregon","lat":45.54428,"lng":-122.64322,"zip":"97212","miles_from_dt":10.57},{"city":"Portland","state_name":"Oregon","lat":45.50242,"lng":-122.65644,"zip":"97240","miles_from_dt":10.94},{"city":"Portland","state_name":"Oregon","lat":45.53788,"lng":-122.65452,"zip":"97283","miles_from_dt":11.02},{"city":"Portland","state_name":"Oregon","lat":45.58174,"lng":-122.63548,"zip":"97211","miles_from_dt":11.11},{"city":"Portland","state_name":"Oregon","lat":45.57414,"lng":-122.64332,"zip":"97290","miles_from_dt":11.23},{"city":"Washougal","state_name":"Washington","lat":45.61143,"lng":-122.24955,"zip":"98671","miles_from_dt":11.31},{"city":"Portland","state_name":"Oregon","lat":45.40744,"lng":-122.61472,"zip":"97267","miles_from_dt":11.34},{"city":"Gladstone","state_name":"Oregon","lat":45.38697,"lng":-122.59271,"zip":"97027","miles_from_dt":11.51},{"city":"Vancouver","state_name":"Washington","lat":45.67296,"lng":-122.48327,"zip":"98682","miles_from_dt":11.6},{"city":"Portland","state_name":"Oregon","lat":45.5199,"lng":-122.672,"zip":"97251","miles_from_dt":11.71},{"city":"Portland","state_name":"Oregon","lat":45.5183,"lng":-122.67378,"zip":"97204","miles_from_dt":11.79},{"city":"Corbett","state_name":"Oregon","lat":45.494,"lng":-122.18885,"zip":"97019","miles_from_dt":11.82},{"city":"Portland","state_name":"Oregon","lat":45.512,"lng":-122.676,"zip":"97250","miles_from_dt":11.88},{"city":"Portland","state_name":"Oregon","lat":45.512,"lng":-122.676,"zip":"97252","miles_from_dt":11.88},{"city":"Portland","state_name":"Oregon","lat":45.41694,"lng":-122.63889,"zip":"97268","miles_from_dt":11.92},{"city":"Portland","state_name":"Oregon","lat":45.5216,"lng":-122.677,"zip":"97253","miles_from_dt":11.96},{"city":"Portland","state_name":"Oregon","lat":45.52866,"lng":-122.67898,"zip":"97208","miles_from_dt":12.1},{"city":"Portland","state_name":"Oregon","lat":45.51599,"lng":-122.68094,"zip":"97256","miles_from_dt":12.13},{"city":"Portland","state_name":"Oregon","lat":45.54432,"lng":-122.67721,"zip":"97227","miles_from_dt":12.18},{"city":"Portland","state_name":"Oregon","lat":45.52991,"lng":-122.68258,"zip":"97228","miles_from_dt":12.28},{"city":"Eagle Creek","state_name":"Oregon","lat":45.34562,"lng":-122.3306,"zip":"97022","miles_from_dt":12.3},{"city":"Portland","state_name":"Oregon","lat":45.52289,"lng":-122.68452,"zip":"97207","miles_from_dt":12.33},{"city":"Portland","state_name":"Oregon","lat":45.53093,"lng":-122.68429,"zip":"97209","miles_from_dt":12.37},{"city":"Portland","state_name":"Oregon","lat":45.50796,"lng":-122.68959,"zip":"97201","miles_from_dt":12.54},{"city":"Portland","state_name":"Oregon","lat":45.48893,"lng":-122.69053,"zip":"97239","miles_from_dt":12.66},{"city":"Bridal Veil","state_name":"Oregon","lat":45.55828,"lng":-122.17538,"zip":"97010","miles_from_dt":12.88},{"city":"Vancouver","state_name":"Washington","lat":45.63935,"lng":-122.62586,"zip":"98661","miles_from_dt":13.04},{"city":"Marylhurst","state_name":"Oregon","lat":45.39711,"lng":-122.64846,"zip":"97036","miles_from_dt":13.08},{"city":"Portland","state_name":"Oregon","lat":45.51924,"lng":-122.70127,"zip":"97205","miles_from_dt":13.12},{"city":"Oregon City","state_name":"Oregon","lat":45.32834,"lng":-122.53058,"zip":"97045","miles_from_dt":13.37},{"city":"Portland","state_name":"Oregon","lat":45.45354,"lng":-122.69884,"zip":"97280","miles_from_dt":13.55},{"city":"Portland","state_name":"Oregon","lat":45.45413,"lng":-122.69972,"zip":"97219","miles_from_dt":13.58},{"city":"Portland","state_name":"Oregon","lat":45.5418,"lng":-122.711,"zip":"97254","miles_from_dt":13.76},{"city":"Lake Oswego","state_name":"Oregon","lat":45.4095,"lng":-122.68467,"zip":"97034","miles_from_dt":14.1},{"city":"Portland","state_name":"Oregon","lat":45.59686,"lng":-122.69717,"zip":"97217","miles_from_dt":14.25},{"city":"Vancouver","state_name":"Washington","lat":45.68911,"lng":-122.57742,"zip":"98662","miles_from_dt":14.32},{"city":"Portland","state_name":"Oregon","lat":45.49799,"lng":-122.72749,"zip":"97221","miles_from_dt":14.4},{"city":"Portland","state_name":"Oregon","lat":45.54738,"lng":-122.72617,"zip":"97291","miles_from_dt":14.55},{"city":"Portland","state_name":"Oregon","lat":45.54954,"lng":-122.73549,"zip":"97210","miles_from_dt":15.03},{"city":"Vancouver","state_name":"Washington","lat":45.65449,"lng":-122.66228,"zip":"98663","miles_from_dt":15.05},{"city":"Brush Prairie","state_name":"Washington","lat":45.72921,"lng":-122.45615,"zip":"98606","miles_from_dt":15.26},{"city":"Lake Oswego","state_name":"Oregon","lat":45.41291,"lng":-122.72616,"zip":"97035","miles_from_dt":15.79},{"city":"West Linn","state_name":"Oregon","lat":45.35195,"lng":-122.66876,"zip":"97068","miles_from_dt":15.84},{"city":"Vancouver","state_name":"Washington","lat":45.68155,"lng":-122.65417,"zip":"98665","miles_from_dt":16.09},{"city":"Vancouver","state_name":"Washington","lat":45.71241,"lng":-122.59705,"zip":"98666","miles_from_dt":16.18},{"city":"Portland","state_name":"Oregon","lat":45.502,"lng":-122.76994,"zip":"97225","miles_from_dt":16.45},{"city":"Portland","state_name":"Oregon","lat":45.50195,"lng":-122.77304,"zip":"97298","miles_from_dt":16.6},{"city":"Portland","state_name":"Oregon","lat":45.532,"lng":-122.77341,"zip":"97296","miles_from_dt":16.68},{"city":"Portland","state_name":"Oregon","lat":45.60764,"lng":-122.74923,"zip":"97203","miles_from_dt":16.86},{"city":"Sandy","state_name":"Oregon","lat":45.35975,"lng":-122.15396,"zip":"97055","miles_from_dt":16.97},{"city":"Vancouver","state_name":"Washington","lat":45.7239,"lng":-122.62305,"zip":"98686","miles_from_dt":17.51},{"city":"Portland","state_name":"Oregon","lat":45.44023,"lng":-122.77838,"zip":"97223","miles_from_dt":17.52},{"city":"Portland","state_name":"Oregon","lat":45.44112,"lng":-122.77933,"zip":"97281","miles_from_dt":17.54},{"city":"Vancouver","state_name":"Washington","lat":45.72107,"lng":-122.63074,"zip":"98668","miles_from_dt":17.55},{"city":"Beaverton","state_name":"Oregon","lat":45.485,"lng":-122.796,"zip":"97079","miles_from_dt":17.79},{"city":"Beavercreek","state_name":"Oregon","lat":45.25068,"lng":-122.45399,"zip":"97004","miles_from_dt":17.87},{"city":"Beaverton","state_name":"Oregon","lat":45.48934,"lng":-122.79982,"zip":"97076","miles_from_dt":17.95},{"city":"Beaverton","state_name":"Oregon","lat":45.49361,"lng":-122.8003,"zip":"97077","miles_from_dt":17.95},{"city":"Beaverton","state_name":"Oregon","lat":45.49144,"lng":-122.80397,"zip":"97005","miles_from_dt":18.14},{"city":"Beaverton","state_name":"Oregon","lat":45.49249,"lng":-122.80465,"zip":"97075","miles_from_dt":18.16},{"city":"Beaverton","state_name":"Oregon","lat":45.46044,"lng":-122.80252,"zip":"97008","miles_from_dt":18.34},{"city":"Portland","state_name":"Oregon","lat":45.55032,"lng":-122.81026,"zip":"97229","miles_from_dt":18.61},{"city":"Tualatin","state_name":"Oregon","lat":45.36821,"lng":-122.76169,"zip":"97062","miles_from_dt":18.77},{"city":"Vancouver","state_name":"Washington","lat":45.6866,"lng":-122.73152,"zip":"98660","miles_from_dt":19.03},{"city":"Vancouver","state_name":"Washington","lat":45.71596,"lng":-122.69105,"zip":"98685","miles_from_dt":19.05},{"city":"Portland","state_name":"Oregon","lat":45.40568,"lng":-122.7958,"zip":"97224","miles_from_dt":19.1},{"city":"Battle Ground","state_name":"Washington","lat":45.80013,"lng":-122.5054,"zip":"98604","miles_from_dt":20.43},{"city":"Beaverton","state_name":"Oregon","lat":45.52598,"lng":-122.85591,"zip":"97006","miles_from_dt":20.65},{"city":"Brightwood","state_name":"Oregon","lat":45.38738,"lng":-122.03671,"zip":"97011","miles_from_dt":20.94},{"city":"Beaverton","state_name":"Oregon","lat":45.50372,"lng":-122.86482,"zip":"97003","miles_from_dt":21.05},{"city":"Mulino","state_name":"Oregon","lat":45.20679,"lng":-122.53247,"zip":"97042","miles_from_dt":21.44},{"city":"Wilsonville","state_name":"Oregon","lat":45.308,"lng":-122.77059,"zip":"97070","miles_from_dt":21.56},{"city":"Beaverton","state_name":"Oregon","lat":45.44282,"lng":-122.87112,"zip":"97007","miles_from_dt":21.85},{"city":"Heisson","state_name":"Washington","lat":45.82505,"lng":-122.48582,"zip":"98622","miles_from_dt":21.99},{"city":"Beaverton","state_name":"Oregon","lat":45.47628,"lng":-122.89088,"zip":"97078","miles_from_dt":22.43},{"city":"Portland","state_name":"Oregon","lat":45.68197,"lng":-122.82687,"zip":"97231","miles_from_dt":22.59},{"city":"Canby","state_name":"Oregon","lat":45.21799,"lng":-122.67277,"zip":"97013","miles_from_dt":23.28},{"city":"Colton","state_name":"Oregon","lat":45.17017,"lng":-122.37676,"zip":"97017","miles_from_dt":23.55},{"city":"Sherwood","state_name":"Oregon","lat":45.35359,"lng":-122.86339,"zip":"97140","miles_from_dt":23.59},{"city":"Ridgefield","state_name":"Washington","lat":45.80262,"lng":-122.7019,"zip":"98642","miles_from_dt":24.15},{"city":"Estacada","state_name":"Oregon","lat":45.19147,"lng":-122.20501,"zip":"97023","miles_from_dt":24.54},{"city":"North Bonneville","state_name":"Washington","lat":45.64364,"lng":-121.96288,"zip":"98639","miles_from_dt":24.55},{"city":"Yacolt","state_name":"Washington","lat":45.86349,"lng":-122.33104,"zip":"98675","miles_from_dt":24.96},{"city":"Hillsboro","state_name":"Oregon","lat":45.57088,"lng":-122.94584,"zip":"97124","miles_from_dt":25.33},{"city":"Welches","state_name":"Oregon","lat":45.31302,"lng":-121.97733,"zip":"97067","miles_from_dt":25.9},{"city":"Aurora","state_name":"Oregon","lat":45.23774,"lng":-122.8003,"zip":"97002","miles_from_dt":25.95},{"city":"Stevenson","state_name":"Washington","lat":45.70563,"lng":-121.9489,"zip":"98648","miles_from_dt":27.04},{"city":"Hillsboro","state_name":"Oregon","lat":45.44353,"lng":-122.98048,"zip":"97123","miles_from_dt":27.06},{"city":"La Center","state_name":"Washington","lat":45.88109,"lng":-122.6148,"zip":"98629","miles_from_dt":27.19},{"city":"Hillsboro","state_name":"Oregon","lat":45.523,"lng":-122.991,"zip":"97129","miles_from_dt":27.19},{"city":"Carson","state_name":"Washington","lat":45.77765,"lng":-122.01401,"zip":"98610","miles_from_dt":27.44},{"city":"Cascade Locks","state_name":"Oregon","lat":45.61354,"lng":-121.87405,"zip":"97014","miles_from_dt":27.98},{"city":"Donald","state_name":"Oregon","lat":45.22267,"lng":-122.83887,"zip":"97020","miles_from_dt":28.01},{"city":"Hubbard","state_name":"Oregon","lat":45.17949,"lng":-122.78559,"zip":"97032","miles_from_dt":28.55},{"city":"Rhododendron","state_name":"Oregon","lat":45.35931,"lng":-121.86829,"zip":"97049","miles_from_dt":29.26},{"city":"Amboy","state_name":"Washington","lat":45.93439,"lng":-122.43857,"zip":"98601","miles_from_dt":29.38},{"city":"Molalla","state_name":"Oregon","lat":45.08575,"lng":-122.55288,"zip":"97038","miles_from_dt":29.82},{"city":"Cornelius","state_name":"Oregon","lat":45.50746,"lng":-123.04544,"zip":"97113","miles_from_dt":29.82},{"city":"Newberg","state_name":"Oregon","lat":45.32272,"lng":-122.98854,"zip":"97132","miles_from_dt":30}],"targetCityZipCode":"97030","targetCityState":"Oregon"},"__N_SSG":true}