{"pageProps":{"stateName":"Oregon","cityName":"hammond","nearbyCities":[{"city":"Warrenton","state_name":"Oregon","lat":46.11849,"lng":-123.91399,"zip":"97146","miles_from_dt":5.87},{"city":"Chinook","state_name":"Washington","lat":46.29459,"lng":-123.9034,"zip":"98614","miles_from_dt":7.71},{"city":"Seaview","state_name":"Washington","lat":46.32861,"lng":-124.04009,"zip":"98644","miles_from_dt":9.9},{"city":"Ilwaco","state_name":"Washington","lat":46.3578,"lng":-123.94094,"zip":"98624","miles_from_dt":11.44},{"city":"Long Beach","state_name":"Washington","lat":46.37988,"lng":-124.02241,"zip":"98631","miles_from_dt":13.1},{"city":"Astoria","state_name":"Oregon","lat":46.13327,"lng":-123.69648,"zip":"97103","miles_from_dt":13.83},{"city":"Rosburg","state_name":"Washington","lat":46.30326,"lng":-123.62117,"zip":"98643","miles_from_dt":18.42},{"city":"Naselle","state_name":"Washington","lat":46.4047,"lng":-123.73588,"zip":"98638","miles_from_dt":18.44},{"city":"Cannon Beach","state_name":"Oregon","lat":45.89186,"lng":-123.95128,"zip":"97110","miles_from_dt":20.85},{"city":"Nahcotta","state_name":"Washington","lat":46.4979,"lng":-124.03357,"zip":"98637","miles_from_dt":21.24},{"city":"Seaside","state_name":"Oregon","lat":45.90946,"lng":-123.70036,"zip":"97138","miles_from_dt":23.55},{"city":"Tolovana Park","state_name":"Oregon","lat":45.84357,"lng":-123.9516,"zip":"97145","miles_from_dt":24.19},{"city":"Ocean Park","state_name":"Washington","lat":46.5429,"lng":-124.04938,"zip":"98640","miles_from_dt":24.42},{"city":"Grays River","state_name":"Washington","lat":46.4006,"lng":-123.54428,"zip":"98621","miles_from_dt":24.96},{"city":"Oysterville","state_name":"Washington","lat":46.56484,"lng":-124.03932,"zip":"98641","miles_from_dt":25.86},{"city":"South Bend","state_name":"Washington","lat":46.55909,"lng":-123.8391,"zip":"98586","miles_from_dt":26.03},{"city":"Skamokawa","state_name":"Washington","lat":46.32137,"lng":-123.4354,"zip":"98647","miles_from_dt":27.16},{"city":"Bay Center","state_name":"Washington","lat":46.58917,"lng":-123.90939,"zip":"98527","miles_from_dt":27.49},{"city":"Arch Cape","state_name":"Oregon","lat":45.7934,"lng":-123.94793,"zip":"97102","miles_from_dt":27.65}],"targetCityZipCode":"97121","targetCityState":"Oregon"},"__N_SSG":true}