{"pageProps":{"stateName":"Oregon","cityName":"jacksonville","nearbyCities":[{"city":"Williams","state_name":"Oregon","lat":42.207,"lng":-123.30006,"zip":"97544","miles_from_dt":11.09},{"city":"Medford","state_name":"Oregon","lat":42.2856,"lng":-122.89459,"zip":"97501","miles_from_dt":14.86},{"city":"Talent","state_name":"Oregon","lat":42.18615,"lng":-122.80027,"zip":"97540","miles_from_dt":16},{"city":"Murphy","state_name":"Oregon","lat":42.33902,"lng":-123.28631,"zip":"97533","miles_from_dt":16.71},{"city":"Phoenix","state_name":"Oregon","lat":42.26799,"lng":-122.81238,"zip":"97535","miles_from_dt":17.5},{"city":"Seiad Valley","state_name":"California","lat":41.87407,"lng":-123.23012,"zip":"96086","miles_from_dt":19.31},{"city":"Medford","state_name":"Oregon","lat":42.32757,"lng":-122.80068,"zip":"97504","miles_from_dt":20.38},{"city":"Central Point","state_name":"Oregon","lat":42.40927,"lng":-122.94718,"zip":"97502","miles_from_dt":20.41},{"city":"Gold Hill","state_name":"Oregon","lat":42.43557,"lng":-123.07606,"zip":"97525","miles_from_dt":20.61},{"city":"Klamath River","state_name":"California","lat":41.85389,"lng":-122.95689,"zip":"96050","miles_from_dt":21.03},{"city":"Grants Pass","state_name":"Oregon","lat":42.37615,"lng":-123.38288,"zip":"97527","miles_from_dt":21.76},{"city":"Grants Pass","state_name":"Oregon","lat":42.43969,"lng":-123.32472,"zip":"97528","miles_from_dt":23.68},{"city":"Hornbrook","state_name":"California","lat":41.95384,"lng":-122.64853,"zip":"96044","miles_from_dt":26.7},{"city":"Cave Junction","state_name":"Oregon","lat":42.11349,"lng":-123.62961,"zip":"97523","miles_from_dt":27},{"city":"Kerby","state_name":"Oregon","lat":42.20739,"lng":-123.64391,"zip":"97531","miles_from_dt":28.08},{"city":"Scott Bar","state_name":"California","lat":41.73245,"lng":-123.05145,"zip":"96085","miles_from_dt":28.11},{"city":"Rogue River","state_name":"Oregon","lat":42.55041,"lng":-123.13357,"zip":"97537","miles_from_dt":28.52},{"city":"Grants Pass","state_name":"Oregon","lat":42.51275,"lng":-123.33964,"zip":"97526","miles_from_dt":28.53},{"city":"Wilderville","state_name":"Oregon","lat":42.37724,"lng":-123.56031,"zip":"97543","miles_from_dt":28.6},{"city":"Ashland","state_name":"Oregon","lat":42.15472,"lng":-122.53168,"zip":"97520","miles_from_dt":29.47}],"targetCityZipCode":"97530","targetCityState":"Oregon"},"__N_SSG":true}