{"pageProps":{"stateName":"Oregon","cityName":"maupin","nearbyCities":[{"city":"Shaniko","state_name":"Oregon","lat":45.00422,"lng":-120.7516,"zip":"97057","miles_from_dt":14.34},{"city":"Tygh Valley","state_name":"Oregon","lat":45.22319,"lng":-121.28306,"zip":"97063","miles_from_dt":16.42},{"city":"Grass Valley","state_name":"Oregon","lat":45.29901,"lng":-120.81003,"zip":"97029","miles_from_dt":19.4},{"city":"Warm Springs","state_name":"Oregon","lat":44.8433,"lng":-121.29807,"zip":"97761","miles_from_dt":20.17},{"city":"Antelope","state_name":"Oregon","lat":44.93328,"lng":-120.64169,"zip":"97001","miles_from_dt":21.17},{"city":"Dufur","state_name":"Oregon","lat":45.39048,"lng":-121.13425,"zip":"97021","miles_from_dt":22.98},{"city":"Kent","state_name":"Oregon","lat":45.23361,"lng":-120.5876,"zip":"97033","miles_from_dt":24.59},{"city":"Madras","state_name":"Oregon","lat":44.65771,"lng":-121.04291,"zip":"97741","miles_from_dt":28.18}],"targetCityZipCode":"97037","targetCityState":"Oregon"},"__N_SSG":true}