{"pageProps":{"stateName":"Oregon","cityName":"wasco","nearbyCities":[{"city":"Rufus","state_name":"Oregon","lat":45.68256,"lng":-120.7727,"zip":"97050","miles_from_dt":8.09},{"city":"Moro","state_name":"Oregon","lat":45.47226,"lng":-120.62428,"zip":"97039","miles_from_dt":8.83},{"city":"Wishram","state_name":"Washington","lat":45.67367,"lng":-120.98129,"zip":"98673","miles_from_dt":16.56},{"city":"Centerville","state_name":"Washington","lat":45.7542,"lng":-120.97235,"zip":"98613","miles_from_dt":18.69},{"city":"Goldendale","state_name":"Washington","lat":45.87096,"lng":-120.77846,"zip":"98620","miles_from_dt":19.74},{"city":"Arlington","state_name":"Oregon","lat":45.58138,"lng":-120.21907,"zip":"97812","miles_from_dt":21.26},{"city":"Roosevelt","state_name":"Washington","lat":45.83459,"lng":-120.36258,"zip":"99356","miles_from_dt":21.67},{"city":"Grass Valley","state_name":"Oregon","lat":45.29901,"lng":-120.81003,"zip":"97029","miles_from_dt":21.95},{"city":"Mikkalo","state_name":"Oregon","lat":45.71683,"lng":-120.19903,"zip":"97861","miles_from_dt":23.65},{"city":"Dallesport","state_name":"Washington","lat":45.64283,"lng":-121.14229,"zip":"98617","miles_from_dt":23.72},{"city":"The Dalles","state_name":"Oregon","lat":45.54239,"lng":-121.15447,"zip":"97058","miles_from_dt":24.44},{"city":"Kent","state_name":"Oregon","lat":45.23361,"lng":-120.5876,"zip":"97033","miles_from_dt":25.39},{"city":"Dufur","state_name":"Oregon","lat":45.39048,"lng":-121.13425,"zip":"97021","miles_from_dt":27.26},{"city":"Klickitat","state_name":"Washington","lat":45.85015,"lng":-121.09887,"zip":"98628","miles_from_dt":27.57},{"city":"Lyle","state_name":"Washington","lat":45.74364,"lng":-121.20915,"zip":"98635","miles_from_dt":28.56},{"city":"Wahkiacus","state_name":"Washington","lat":45.86372,"lng":-121.14599,"zip":"98670","miles_from_dt":29.94}],"targetCityZipCode":"97065","targetCityState":"Oregon"},"__N_SSG":true}