{"pageProps":{"stateName":"Oregon","cityName":"agness","nearbyCities":[{"city":"Powers","state_name":"Oregon","lat":42.86459,"lng":-124.08632,"zip":"97466","miles_from_dt":17.04},{"city":"Port Orford","state_name":"Oregon","lat":42.7376,"lng":-124.3795,"zip":"97465","miles_from_dt":20.86},{"city":"Gold Beach","state_name":"Oregon","lat":42.44453,"lng":-124.33223,"zip":"97444","miles_from_dt":21.15},{"city":"Merlin","state_name":"Oregon","lat":42.56142,"lng":-123.58586,"zip":"97532","miles_from_dt":21.53},{"city":"Ophir","state_name":"Oregon","lat":42.50207,"lng":-124.41247,"zip":"97464","miles_from_dt":22.79},{"city":"Wedderburn","state_name":"Oregon","lat":42.45681,"lng":-124.40221,"zip":"97491","miles_from_dt":23.69},{"city":"Broadbent","state_name":"Oregon","lat":42.96653,"lng":-124.15026,"zip":"97414","miles_from_dt":24.71},{"city":"Sixes","state_name":"Oregon","lat":42.84075,"lng":-124.43806,"zip":"97476","miles_from_dt":26.81},{"city":"Langlois","state_name":"Oregon","lat":42.91026,"lng":-124.37398,"zip":"97450","miles_from_dt":27.36},{"city":"Wilderville","state_name":"Oregon","lat":42.37724,"lng":-123.56031,"zip":"97543","miles_from_dt":28.23},{"city":"Selma","state_name":"Oregon","lat":42.29623,"lng":-123.65723,"zip":"97538","miles_from_dt":28.7}],"targetCityZipCode":"97406","targetCityState":"Oregon"},"__N_SSG":true}