{"pageProps":{"stateName":"Oregon","cityName":"azalea","nearbyCities":[{"city":"Canyonville","state_name":"Oregon","lat":42.94014,"lng":-123.21802,"zip":"97417","miles_from_dt":10.8},{"city":"Days Creek","state_name":"Oregon","lat":42.96778,"lng":-123.05442,"zip":"97429","miles_from_dt":11.94},{"city":"Glendale","state_name":"Oregon","lat":42.76982,"lng":-123.40365,"zip":"97442","miles_from_dt":14.62},{"city":"Tiller","state_name":"Oregon","lat":42.93373,"lng":-122.84585,"zip":"97484","miles_from_dt":16.61},{"city":"Riddle","state_name":"Oregon","lat":42.91994,"lng":-123.41459,"zip":"97469","miles_from_dt":17.08},{"city":"Rogue River","state_name":"Oregon","lat":42.55041,"lng":-123.13357,"zip":"97537","miles_from_dt":17.35},{"city":"Wolf Creek","state_name":"Oregon","lat":42.66015,"lng":-123.40929,"zip":"97497","miles_from_dt":17.69},{"city":"White City","state_name":"Oregon","lat":42.5836,"lng":-122.92721,"zip":"97503","miles_from_dt":17.95},{"city":"Myrtle Creek","state_name":"Oregon","lat":43.05484,"lng":-123.2229,"zip":"97457","miles_from_dt":18.25},{"city":"Trail","state_name":"Oregon","lat":42.72983,"lng":-122.75359,"zip":"97541","miles_from_dt":19.25},{"city":"Shady Cove","state_name":"Oregon","lat":42.59999,"lng":-122.79024,"zip":"97539","miles_from_dt":21.78},{"city":"Grants Pass","state_name":"Oregon","lat":42.51275,"lng":-123.33964,"zip":"97526","miles_from_dt":22.88},{"city":"Gold Hill","state_name":"Oregon","lat":42.43557,"lng":-123.07606,"zip":"97525","miles_from_dt":25.36},{"city":"Winston","state_name":"Oregon","lat":43.05261,"lng":-123.49992,"zip":"97496","miles_from_dt":25.94},{"city":"Dillard","state_name":"Oregon","lat":43.10445,"lng":-123.4294,"zip":"97432","miles_from_dt":26.16},{"city":"Grants Pass","state_name":"Oregon","lat":42.43969,"lng":-123.32472,"zip":"97528","miles_from_dt":27.09},{"city":"Central Point","state_name":"Oregon","lat":42.40927,"lng":-122.94718,"zip":"97502","miles_from_dt":28.47},{"city":"Merlin","state_name":"Oregon","lat":42.56142,"lng":-123.58586,"zip":"97532","miles_from_dt":28.97}],"targetCityZipCode":"97410","targetCityState":"Oregon"},"__N_SSG":true}