{"pageProps":{"stateName":"Oregon","cityName":"blodgett","nearbyCities":[{"city":"Eddyville","state_name":"Oregon","lat":44.56934,"lng":-123.73091,"zip":"97343","miles_from_dt":6.98},{"city":"Philomath","state_name":"Oregon","lat":44.57901,"lng":-123.46907,"zip":"97370","miles_from_dt":7.98},{"city":"Logsden","state_name":"Oregon","lat":44.73934,"lng":-123.81592,"zip":"97357","miles_from_dt":12.51},{"city":"Toledo","state_name":"Oregon","lat":44.59593,"lng":-123.8816,"zip":"97391","miles_from_dt":13.3},{"city":"Corvallis","state_name":"Oregon","lat":44.63796,"lng":-123.27814,"zip":"97330","miles_from_dt":16.66},{"city":"Corvallis","state_name":"Oregon","lat":44.56343,"lng":-123.28113,"zip":"97331","miles_from_dt":17.1},{"city":"Monmouth","state_name":"Oregon","lat":44.77251,"lng":-123.32999,"zip":"97361","miles_from_dt":17.25},{"city":"Corvallis","state_name":"Oregon","lat":44.5616,"lng":-123.26863,"zip":"97339","miles_from_dt":17.73},{"city":"Falls City","state_name":"Oregon","lat":44.86887,"lng":-123.46596,"zip":"97344","miles_from_dt":18.2},{"city":"Corvallis","state_name":"Oregon","lat":44.4735,"lng":-123.3067,"zip":"97333","miles_from_dt":18.62},{"city":"Siletz","state_name":"Oregon","lat":44.77268,"lng":-123.94202,"zip":"97380","miles_from_dt":18.92},{"city":"Seal Rock","state_name":"Oregon","lat":44.50854,"lng":-123.9768,"zip":"97376","miles_from_dt":19.64},{"city":"Alsea","state_name":"Oregon","lat":44.34345,"lng":-123.63042,"zip":"97324","miles_from_dt":19.66},{"city":"Newport","state_name":"Oregon","lat":44.67113,"lng":-124.01825,"zip":"97365","miles_from_dt":20.06},{"city":"South Beach","state_name":"Oregon","lat":44.58288,"lng":-124.04748,"zip":"97366","miles_from_dt":21.52},{"city":"Tidewater","state_name":"Oregon","lat":44.33781,"lng":-123.85717,"zip":"97390","miles_from_dt":23.32},{"city":"Otter Rock","state_name":"Oregon","lat":44.76015,"lng":-124.05676,"zip":"97369","miles_from_dt":23.56},{"city":"Monroe","state_name":"Oregon","lat":44.34036,"lng":-123.35893,"zip":"97456","miles_from_dt":23.57},{"city":"Albany","state_name":"Oregon","lat":44.64994,"lng":-123.13474,"zip":"97321","miles_from_dt":23.76},{"city":"Waldport","state_name":"Oregon","lat":44.40607,"lng":-124.00258,"zip":"97394","miles_from_dt":24.49},{"city":"Depoe Bay","state_name":"Oregon","lat":44.81525,"lng":-124.04513,"zip":"97341","miles_from_dt":24.78},{"city":"Dallas","state_name":"Oregon","lat":44.93654,"lng":-123.33868,"zip":"97338","miles_from_dt":25.29},{"city":"Gleneden Beach","state_name":"Oregon","lat":44.87418,"lng":-124.01169,"zip":"97388","miles_from_dt":25.86},{"city":"Independence","state_name":"Oregon","lat":44.83857,"lng":-123.17449,"zip":"97351","miles_from_dt":26.14},{"city":"Lincoln City","state_name":"Oregon","lat":44.9122,"lng":-123.96914,"zip":"97367","miles_from_dt":26.22},{"city":"Tangent","state_name":"Oregon","lat":44.53269,"lng":-123.09028,"zip":"97389","miles_from_dt":26.75},{"city":"Shedd","state_name":"Oregon","lat":44.46403,"lng":-123.10156,"zip":"97377","miles_from_dt":27.8},{"city":"Halsey","state_name":"Oregon","lat":44.38768,"lng":-123.12582,"zip":"97348","miles_from_dt":29.35},{"city":"Albany","state_name":"Oregon","lat":44.62524,"lng":-123.01975,"zip":"97322","miles_from_dt":29.39},{"city":"Otis","state_name":"Oregon","lat":45.0073,"lng":-123.89155,"zip":"97368","miles_from_dt":29.5},{"city":"Blachly","state_name":"Oregon","lat":44.19625,"lng":-123.56106,"zip":"97412","miles_from_dt":29.93}],"targetCityZipCode":"97326","targetCityState":"Oregon"},"__N_SSG":true}