{"pageProps":{"stateName":"Oregon","cityName":"boardman","nearbyCities":[{"city":"Paterson","state_name":"Washington","lat":45.93623,"lng":-119.65919,"zip":"99345","miles_from_dt":13.79},{"city":"Irrigon","state_name":"Oregon","lat":45.87867,"lng":-119.54676,"zip":"97844","miles_from_dt":14.24},{"city":"Lexington","state_name":"Oregon","lat":45.58272,"lng":-119.60005,"zip":"97839","miles_from_dt":14.97},{"city":"Ione","state_name":"Oregon","lat":45.50479,"lng":-119.88066,"zip":"97843","miles_from_dt":18.01},{"city":"Mikkalo","state_name":"Oregon","lat":45.71683,"lng":-120.19903,"zip":"97861","miles_from_dt":20.24},{"city":"Bickleton","state_name":"Washington","lat":45.93176,"lng":-120.14083,"zip":"99322","miles_from_dt":21.03},{"city":"Umatilla","state_name":"Oregon","lat":45.90741,"lng":-119.34944,"zip":"97882","miles_from_dt":23.44},{"city":"Arlington","state_name":"Oregon","lat":45.58138,"lng":-120.21907,"zip":"97812","miles_from_dt":24.28},{"city":"Hermiston","state_name":"Oregon","lat":45.85266,"lng":-119.28878,"zip":"97838","miles_from_dt":24.84},{"city":"Prosser","state_name":"Washington","lat":46.14477,"lng":-119.70944,"zip":"99350","miles_from_dt":27.04},{"city":"Echo","state_name":"Oregon","lat":45.65508,"lng":-119.22586,"zip":"97826","miles_from_dt":27.92},{"city":"Roosevelt","state_name":"Washington","lat":45.83459,"lng":-120.36258,"zip":"99356","miles_from_dt":28.44},{"city":"Mabton","state_name":"Washington","lat":46.13417,"lng":-120.06877,"zip":"98935","miles_from_dt":29.45},{"city":"Plymouth","state_name":"Washington","lat":46.02685,"lng":-119.306,"zip":"99346","miles_from_dt":29.67}],"targetCityZipCode":"97818","targetCityState":"Oregon"},"__N_SSG":true}