{"pageProps":{"stateName":"Oregon","cityName":"clatskanie","nearbyCities":[{"city":"Cathlamet","state_name":"Washington","lat":46.23462,"lng":-123.31194,"zip":"98612","miles_from_dt":12.52},{"city":"Vernonia","state_name":"Oregon","lat":45.87276,"lng":-123.2309,"zip":"97064","miles_from_dt":12.78},{"city":"Rainier","state_name":"Oregon","lat":46.03905,"lng":-122.99483,"zip":"97048","miles_from_dt":13.3},{"city":"Longview","state_name":"Washington","lat":46.21223,"lng":-123.06855,"zip":"98632","miles_from_dt":14.52},{"city":"Deer Island","state_name":"Oregon","lat":45.95406,"lng":-122.92995,"zip":"97054","miles_from_dt":17.82},{"city":"Carrolls","state_name":"Washington","lat":46.0717,"lng":-122.86569,"zip":"98609","miles_from_dt":19.49},{"city":"Skamokawa","state_name":"Washington","lat":46.32137,"lng":-123.4354,"zip":"98647","miles_from_dt":19.98},{"city":"Saint Helens","state_name":"Oregon","lat":45.88902,"lng":-122.92011,"zip":"97051","miles_from_dt":20.42},{"city":"Astoria","state_name":"Oregon","lat":46.13327,"lng":-123.69648,"zip":"97103","miles_from_dt":21.17},{"city":"Timber","state_name":"Oregon","lat":45.74349,"lng":-123.30305,"zip":"97144","miles_from_dt":21.62},{"city":"Buxton","state_name":"Oregon","lat":45.73777,"lng":-123.1946,"zip":"97109","miles_from_dt":22.26},{"city":"Seaside","state_name":"Oregon","lat":45.90946,"lng":-123.70036,"zip":"97138","miles_from_dt":23.04},{"city":"Ryderwood","state_name":"Washington","lat":46.35875,"lng":-123.06865,"zip":"98581","miles_from_dt":23.06},{"city":"Scappoose","state_name":"Oregon","lat":45.78935,"lng":-122.96941,"zip":"97056","miles_from_dt":23.43},{"city":"Rosburg","state_name":"Washington","lat":46.30326,"lng":-123.62117,"zip":"98643","miles_from_dt":23.99},{"city":"Kelso","state_name":"Washington","lat":46.15317,"lng":-122.78564,"zip":"98626","miles_from_dt":24.24},{"city":"Warren","state_name":"Oregon","lat":45.82695,"lng":-122.88401,"zip":"97053","miles_from_dt":24.42},{"city":"Castle Rock","state_name":"Washington","lat":46.30642,"lng":-122.90479,"zip":"98611","miles_from_dt":24.64},{"city":"Columbia City","state_name":"Oregon","lat":45.8957,"lng":-122.81165,"zip":"97018","miles_from_dt":24.7},{"city":"Grays River","state_name":"Washington","lat":46.4006,"lng":-123.54428,"zip":"98621","miles_from_dt":27.2},{"city":"Manning","state_name":"Oregon","lat":45.66243,"lng":-123.21117,"zip":"97125","miles_from_dt":27.31},{"city":"Vader","state_name":"Washington","lat":46.40767,"lng":-123.00807,"zip":"98593","miles_from_dt":27.37},{"city":"North Plains","state_name":"Oregon","lat":45.68719,"lng":-123.02861,"zip":"97133","miles_from_dt":28},{"city":"Banks","state_name":"Oregon","lat":45.65419,"lng":-123.13417,"zip":"97106","miles_from_dt":28.5},{"city":"Curtis","state_name":"Washington","lat":46.47422,"lng":-123.15884,"zip":"98538","miles_from_dt":29.39},{"city":"Silverlake","state_name":"Washington","lat":46.32509,"lng":-122.77993,"zip":"98645","miles_from_dt":29.99}],"targetCityZipCode":"97016","targetCityState":"Oregon"},"__N_SSG":true}