{"pageProps":{"stateName":"Oregon","cityName":"durkee","nearbyCities":[{"city":"Huntington","state_name":"Oregon","lat":44.41893,"lng":-117.35568,"zip":"97907","miles_from_dt":12.49},{"city":"Bridgeport","state_name":"Oregon","lat":44.48603,"lng":-117.76317,"zip":"97819","miles_from_dt":16.13},{"city":"Richland","state_name":"Oregon","lat":44.79434,"lng":-117.19033,"zip":"97870","miles_from_dt":19.97},{"city":"Baker City","state_name":"Oregon","lat":44.80075,"lng":-117.77034,"zip":"97814","miles_from_dt":21.31},{"city":"Brogan","state_name":"Oregon","lat":44.27772,"lng":-117.59775,"zip":"97903","miles_from_dt":22},{"city":"Jamieson","state_name":"Oregon","lat":44.21096,"lng":-117.37909,"zip":"97909","miles_from_dt":25.96},{"city":"Weiser","state_name":"Idaho","lat":44.38095,"lng":-116.97188,"zip":"83672","miles_from_dt":28.06},{"city":"Hereford","state_name":"Oregon","lat":44.51127,"lng":-118.0483,"zip":"97837","miles_from_dt":29.19},{"city":"Halfway","state_name":"Oregon","lat":44.97251,"lng":-117.20509,"zip":"97834","miles_from_dt":29.86}],"targetCityZipCode":"97905","targetCityState":"Oregon"},"__N_SSG":true}