{"pageProps":{"stateName":"Oregon","cityName":"elkton","nearbyCities":[{"city":"Drain","state_name":"Oregon","lat":43.7016,"lng":-123.33839,"zip":"97435","miles_from_dt":12.96},{"city":"Oakland","state_name":"Oregon","lat":43.49047,"lng":-123.38828,"zip":"97462","miles_from_dt":14.18},{"city":"Scottsburg","state_name":"Oregon","lat":43.6773,"lng":-123.8726,"zip":"97473","miles_from_dt":14.77},{"city":"Reedsport","state_name":"Oregon","lat":43.73557,"lng":-123.90442,"zip":"97467","miles_from_dt":17.43},{"city":"Yoncalla","state_name":"Oregon","lat":43.59495,"lng":-123.23356,"zip":"97499","miles_from_dt":17.77},{"city":"Umpqua","state_name":"Oregon","lat":43.37778,"lng":-123.5351,"zip":"97486","miles_from_dt":18.23},{"city":"Lorane","state_name":"Oregon","lat":43.83998,"lng":-123.31383,"zip":"97451","miles_from_dt":19.3},{"city":"Wilbur","state_name":"Oregon","lat":43.33059,"lng":-123.32779,"zip":"97494","miles_from_dt":24.88},{"city":"Walton","state_name":"Oregon","lat":44.00795,"lng":-123.60522,"zip":"97490","miles_from_dt":25.46},{"city":"Sutherlin","state_name":"Oregon","lat":43.40194,"lng":-123.19426,"zip":"97479","miles_from_dt":25.49},{"city":"Lakeside","state_name":"Oregon","lat":43.57571,"lng":-124.08581,"zip":"97449","miles_from_dt":25.63},{"city":"Veneta","state_name":"Oregon","lat":43.99441,"lng":-123.39303,"zip":"97487","miles_from_dt":26.27},{"city":"Allegany","state_name":"Oregon","lat":43.42519,"lng":-124.03361,"zip":"97407","miles_from_dt":27.06},{"city":"Cottage Grove","state_name":"Oregon","lat":43.74712,"lng":-123.05496,"zip":"97424","miles_from_dt":27.45},{"city":"Winchester","state_name":"Oregon","lat":43.28765,"lng":-123.30463,"zip":"97495","miles_from_dt":28.03},{"city":"Mapleton","state_name":"Oregon","lat":43.99422,"lng":-123.86344,"zip":"97453","miles_from_dt":28.22},{"city":"Westlake","state_name":"Oregon","lat":43.90256,"lng":-124.01602,"zip":"97493","miles_from_dt":28.28},{"city":"Roseburg","state_name":"Oregon","lat":43.22215,"lng":-123.47486,"zip":"97471","miles_from_dt":29.32},{"city":"Gardiner","state_name":"Oregon","lat":43.77659,"lng":-124.14414,"zip":"97441","miles_from_dt":29.67}],"targetCityZipCode":"97436","targetCityState":"Oregon"},"__N_SSG":true}