{"pageProps":{"stateName":"Oregon","cityName":"jamieson","nearbyCities":[{"city":"Brogan","state_name":"Oregon","lat":44.27772,"lng":-117.59775,"zip":"97903","miles_from_dt":11.79},{"city":"Huntington","state_name":"Oregon","lat":44.41893,"lng":-117.35568,"zip":"97907","miles_from_dt":14.41},{"city":"Ontario","state_name":"Oregon","lat":44.11085,"lng":-117.07383,"zip":"97914","miles_from_dt":16.67},{"city":"Vale","state_name":"Oregon","lat":43.96255,"lng":-117.38073,"zip":"97918","miles_from_dt":17.15},{"city":"Westfall","state_name":"Oregon","lat":44.06595,"lng":-117.75997,"zip":"97920","miles_from_dt":21.42},{"city":"Weiser","state_name":"Idaho","lat":44.38095,"lng":-116.97188,"zip":"83672","miles_from_dt":23.36},{"city":"Durkee","state_name":"Oregon","lat":44.58183,"lng":-117.4654,"zip":"97905","miles_from_dt":25.96},{"city":"Bridgeport","state_name":"Oregon","lat":44.48603,"lng":-117.76317,"zip":"97819","miles_from_dt":26.89},{"city":"Ironside","state_name":"Oregon","lat":44.25679,"lng":-117.94828,"zip":"97908","miles_from_dt":28.43},{"city":"Fruitland","state_name":"Idaho","lat":43.96982,"lng":-116.91204,"zip":"83619","miles_from_dt":28.59}],"targetCityZipCode":"97909","targetCityState":"Oregon"},"__N_SSG":true}