{"pageProps":{"stateName":"Oregon","cityName":"lexington","nearbyCities":[{"city":"Ione","state_name":"Oregon","lat":45.50479,"lng":-119.88066,"zip":"97843","miles_from_dt":14.64},{"city":"Boardman","state_name":"Oregon","lat":45.7567,"lng":-119.78444,"zip":"97818","miles_from_dt":14.97},{"city":"Echo","state_name":"Oregon","lat":45.65508,"lng":-119.22586,"zip":"97826","miles_from_dt":18.81},{"city":"Irrigon","state_name":"Oregon","lat":45.87867,"lng":-119.54676,"zip":"97844","miles_from_dt":20.6},{"city":"Heppner","state_name":"Oregon","lat":45.29166,"lng":-119.50144,"zip":"97836","miles_from_dt":20.66},{"city":"Hermiston","state_name":"Oregon","lat":45.85266,"lng":-119.28878,"zip":"97838","miles_from_dt":23.96},{"city":"Paterson","state_name":"Washington","lat":45.93623,"lng":-119.65919,"zip":"99345","miles_from_dt":24.58},{"city":"Umatilla","state_name":"Oregon","lat":45.90741,"lng":-119.34944,"zip":"97882","miles_from_dt":25.49},{"city":"Stanfield","state_name":"Oregon","lat":45.81481,"lng":-119.14898,"zip":"97875","miles_from_dt":27.08}],"targetCityZipCode":"97839","targetCityState":"Oregon"},"__N_SSG":true}