{"pageProps":{"stateName":"Oregon","cityName":"scottsburg","nearbyCities":[{"city":"Reedsport","state_name":"Oregon","lat":43.73557,"lng":-123.90442,"zip":"97467","miles_from_dt":4.33},{"city":"Lakeside","state_name":"Oregon","lat":43.57571,"lng":-124.08581,"zip":"97449","miles_from_dt":12.79},{"city":"Elkton","state_name":"Oregon","lat":43.63958,"lng":-123.58256,"zip":"97436","miles_from_dt":14.77},{"city":"Gardiner","state_name":"Oregon","lat":43.77659,"lng":-124.14414,"zip":"97441","miles_from_dt":15.23},{"city":"Westlake","state_name":"Oregon","lat":43.90256,"lng":-124.01602,"zip":"97493","miles_from_dt":17.13},{"city":"Allegany","state_name":"Oregon","lat":43.42519,"lng":-124.03361,"zip":"97407","miles_from_dt":19.19},{"city":"North Bend","state_name":"Oregon","lat":43.47444,"lng":-124.18216,"zip":"97459","miles_from_dt":20.92},{"city":"Mapleton","state_name":"Oregon","lat":43.99422,"lng":-123.86344,"zip":"97453","miles_from_dt":21.88},{"city":"Coos Bay","state_name":"Oregon","lat":43.34839,"lng":-124.10825,"zip":"97420","miles_from_dt":25.61},{"city":"Walton","state_name":"Oregon","lat":44.00795,"lng":-123.60522,"zip":"97490","miles_from_dt":26.45},{"city":"Umpqua","state_name":"Oregon","lat":43.37778,"lng":-123.5351,"zip":"97486","miles_from_dt":26.74},{"city":"Drain","state_name":"Oregon","lat":43.7016,"lng":-123.33839,"zip":"97435","miles_from_dt":26.81},{"city":"Oakland","state_name":"Oregon","lat":43.49047,"lng":-123.38828,"zip":"97462","miles_from_dt":27.52},{"city":"Florence","state_name":"Oregon","lat":44.06573,"lng":-124.03705,"zip":"97439","miles_from_dt":28.05}],"targetCityZipCode":"97473","targetCityState":"Oregon"},"__N_SSG":true}