{"pageProps":{"stateName":"Oregon","cityName":"sixes","nearbyCities":[{"city":"Langlois","state_name":"Oregon","lat":42.91026,"lng":-124.37398,"zip":"97450","miles_from_dt":5.8},{"city":"Port Orford","state_name":"Oregon","lat":42.7376,"lng":-124.3795,"zip":"97465","miles_from_dt":7.72},{"city":"Bandon","state_name":"Oregon","lat":43.07557,"lng":-124.3624,"zip":"97411","miles_from_dt":16.66},{"city":"Broadbent","state_name":"Oregon","lat":42.96653,"lng":-124.15026,"zip":"97414","miles_from_dt":16.99},{"city":"Powers","state_name":"Oregon","lat":42.86459,"lng":-124.08632,"zip":"97466","miles_from_dt":17.94},{"city":"Ophir","state_name":"Oregon","lat":42.50207,"lng":-124.41247,"zip":"97464","miles_from_dt":23.41},{"city":"Myrtle Point","state_name":"Oregon","lat":43.06372,"lng":-124.01287,"zip":"97458","miles_from_dt":26.49},{"city":"Wedderburn","state_name":"Oregon","lat":42.45681,"lng":-124.40221,"zip":"97491","miles_from_dt":26.56},{"city":"Agness","state_name":"Oregon","lat":42.62638,"lng":-123.99867,"zip":"97406","miles_from_dt":26.81},{"city":"Coquille","state_name":"Oregon","lat":43.19137,"lng":-124.17177,"zip":"97423","miles_from_dt":27.71},{"city":"Gold Beach","state_name":"Oregon","lat":42.44453,"lng":-124.33223,"zip":"97444","miles_from_dt":27.88}],"targetCityZipCode":"97476","targetCityState":"Oregon"},"__N_SSG":true}