{"pageProps":{"stateName":"Arkansas","cityName":"bay","nearbyCities":[{"city":"State University","state_name":"Arkansas","lat":35.84223,"lng":-90.6776,"zip":"72467","miles_from_dt":8.83},{"city":"Jonesboro","state_name":"Arkansas","lat":35.86977,"lng":-90.64049,"zip":"72403","miles_from_dt":9.46},{"city":"Lake City","state_name":"Arkansas","lat":35.8343,"lng":-90.45401,"zip":"72437","miles_from_dt":9.54},{"city":"Jonesboro","state_name":"Arkansas","lat":35.86835,"lng":-90.66193,"zip":"72401","miles_from_dt":9.87},{"city":"Trumann","state_name":"Arkansas","lat":35.59264,"lng":-90.54459,"zip":"72472","miles_from_dt":10.47},{"city":"Jonesboro","state_name":"Arkansas","lat":35.77656,"lng":-90.78356,"zip":"72404","miles_from_dt":11.68},{"city":"Jonesboro","state_name":"Arkansas","lat":35.8061,"lng":-90.77455,"zip":"72402","miles_from_dt":11.79},{"city":"Jonesboro","state_name":"Arkansas","lat":35.90446,"lng":-90.64869,"zip":"72405","miles_from_dt":11.87},{"city":"Brookland","state_name":"Arkansas","lat":35.91994,"lng":-90.54791,"zip":"72417","miles_from_dt":12.43},{"city":"Caraway","state_name":"Arkansas","lat":35.74158,"lng":-90.35544,"zip":"72419","miles_from_dt":12.63},{"city":"Black Oak","state_name":"Arkansas","lat":35.82288,"lng":-90.368,"zip":"72414","miles_from_dt":13.17},{"city":"Rivervale","state_name":"Arkansas","lat":35.67392,"lng":-90.34158,"zip":"72377","miles_from_dt":14.21},{"city":"Harrisburg","state_name":"Arkansas","lat":35.55438,"lng":-90.72457,"zip":"72432","miles_from_dt":15.25},{"city":"Marked Tree","state_name":"Arkansas","lat":35.56181,"lng":-90.41857,"zip":"72365","miles_from_dt":15.38},{"city":"Lepanto","state_name":"Arkansas","lat":35.63118,"lng":-90.31797,"zip":"72354","miles_from_dt":16.6},{"city":"West Ridge","state_name":"Arkansas","lat":35.6765,"lng":-90.26953,"zip":"72391","miles_from_dt":18.04},{"city":"Monette","state_name":"Arkansas","lat":35.9102,"lng":-90.33428,"zip":"72447","miles_from_dt":18.05},{"city":"Bono","state_name":"Arkansas","lat":35.95731,"lng":-90.79699,"zip":"72416","miles_from_dt":19.21},{"city":"Weiner","state_name":"Arkansas","lat":35.62924,"lng":-90.90535,"zip":"72479","miles_from_dt":19.86},{"city":"Etowah","state_name":"Arkansas","lat":35.7414,"lng":-90.21672,"zip":"72428","miles_from_dt":20.43},{"city":"Walcott","state_name":"Arkansas","lat":36.04462,"lng":-90.67259,"zip":"72474","miles_from_dt":21.52},{"city":"Paragould","state_name":"Arkansas","lat":36.05879,"lng":-90.49971,"zip":"72451","miles_from_dt":22.33},{"city":"Egypt","state_name":"Arkansas","lat":35.86872,"lng":-90.94901,"zip":"72427","miles_from_dt":22.49},{"city":"Cash","state_name":"Arkansas","lat":35.77851,"lng":-90.97869,"zip":"72421","miles_from_dt":22.54},{"city":"Manila","state_name":"Arkansas","lat":35.82458,"lng":-90.17948,"zip":"72442","miles_from_dt":23.23},{"city":"Tyronza","state_name":"Arkansas","lat":35.45548,"lng":-90.36183,"zip":"72386","miles_from_dt":23.25},{"city":"Waldenburg","state_name":"Arkansas","lat":35.56562,"lng":-90.93617,"zip":"72475","miles_from_dt":23.42},{"city":"Paragould","state_name":"Arkansas","lat":36.0784,"lng":-90.51695,"zip":"72450","miles_from_dt":23.49},{"city":"Dyess","state_name":"Arkansas","lat":35.59136,"lng":-90.20184,"zip":"72330","miles_from_dt":23.67},{"city":"Sedgwick","state_name":"Arkansas","lat":35.98695,"lng":-90.87929,"zip":"72465","miles_from_dt":23.83},{"city":"Leachville","state_name":"Arkansas","lat":35.94375,"lng":-90.22787,"zip":"72438","miles_from_dt":24.19},{"city":"Cardwell","state_name":"Missouri","lat":36.03652,"lng":-90.31173,"zip":"63829","miles_from_dt":25.3},{"city":"Fisher","state_name":"Arkansas","lat":35.48895,"lng":-90.93972,"zip":"72429","miles_from_dt":26.71},{"city":"Cherry Valley","state_name":"Arkansas","lat":35.38872,"lng":-90.78116,"zip":"72324","miles_from_dt":26.84},{"city":"Beech Grove","state_name":"Arkansas","lat":36.12572,"lng":-90.69172,"zip":"72412","miles_from_dt":27.21},{"city":"Keiser","state_name":"Arkansas","lat":35.67595,"lng":-90.09771,"zip":"72351","miles_from_dt":27.51},{"city":"Walnut Ridge","state_name":"Arkansas","lat":36.04533,"lng":-90.91692,"zip":"72476","miles_from_dt":28.2},{"city":"Arbyrd","state_name":"Missouri","lat":36.04878,"lng":-90.23963,"zip":"63821","miles_from_dt":28.52},{"city":"Osceola","state_name":"Arkansas","lat":35.68443,"lng":-90.07734,"zip":"72370","miles_from_dt":28.55},{"city":"Gilmore","state_name":"Arkansas","lat":35.41606,"lng":-90.26492,"zip":"72339","miles_from_dt":28.62},{"city":"Bassett","state_name":"Arkansas","lat":35.53077,"lng":-90.13952,"zip":"72313","miles_from_dt":28.75},{"city":"Grubbs","state_name":"Arkansas","lat":35.63396,"lng":-91.08184,"zip":"72431","miles_from_dt":29.18},{"city":"Minturn","state_name":"Arkansas","lat":35.97812,"lng":-91.02669,"zip":"72445","miles_from_dt":29.9}],"targetCityZipCode":"72411","targetCityState":"Arkansas"},"__N_SSG":true}