{"pageProps":{"stateName":"Arkansas","cityName":"crumrod","nearbyCities":[{"city":"Snow Lake","state_name":"Arkansas","lat":34.07479,"lng":-91.05019,"zip":"72379","miles_from_dt":2.59},{"city":"Mellwood","state_name":"Arkansas","lat":34.1891,"lng":-91.02567,"zip":"72367","miles_from_dt":8.4},{"city":"Gunnison","state_name":"Mississippi","lat":33.95677,"lng":-90.94112,"zip":"38746","miles_from_dt":8.54},{"city":"Rena Lara","state_name":"Mississippi","lat":34.12809,"lng":-90.80552,"zip":"38767","miles_from_dt":12.19},{"city":"Duncan","state_name":"Mississippi","lat":34.04825,"lng":-90.79039,"zip":"38740","miles_from_dt":12.43},{"city":"Alligator","state_name":"Mississippi","lat":34.11907,"lng":-90.78741,"zip":"38720","miles_from_dt":13},{"city":"Ethel","state_name":"Arkansas","lat":34.23436,"lng":-91.12433,"zip":"72048","miles_from_dt":13.31},{"city":"Tichnor","state_name":"Arkansas","lat":34.04821,"lng":-91.23711,"zip":"72166","miles_from_dt":13.35},{"city":"Shelby","state_name":"Mississippi","lat":33.9659,"lng":-90.76695,"zip":"38774","miles_from_dt":15.42},{"city":"Rosedale","state_name":"Mississippi","lat":33.84255,"lng":-90.97678,"zip":"38769","miles_from_dt":15.65},{"city":"Lambrook","state_name":"Arkansas","lat":34.3162,"lng":-91.00708,"zip":"72353","miles_from_dt":17.08},{"city":"Elaine","state_name":"Arkansas","lat":34.29004,"lng":-90.86971,"zip":"72333","miles_from_dt":17.15},{"city":"Winstonville","state_name":"Mississippi","lat":33.90876,"lng":-90.75684,"zip":"38781","miles_from_dt":18.03},{"city":"Watson","state_name":"Arkansas","lat":33.82694,"lng":-91.18261,"zip":"71674","miles_from_dt":19.5},{"city":"Pace","state_name":"Mississippi","lat":33.79878,"lng":-90.87965,"zip":"38764","miles_from_dt":19.94},{"city":"Mound Bayou","state_name":"Mississippi","lat":33.8885,"lng":-90.72681,"zip":"38762","miles_from_dt":20.25},{"city":"Gillett","state_name":"Arkansas","lat":34.10391,"lng":-91.36196,"zip":"72055","miles_from_dt":20.58},{"city":"Beulah","state_name":"Mississippi","lat":33.75207,"lng":-90.97664,"zip":"38726","miles_from_dt":21.87},{"city":"Saint Charles","state_name":"Arkansas","lat":34.36052,"lng":-91.1549,"zip":"72140","miles_from_dt":21.87},{"city":"Wabash","state_name":"Arkansas","lat":34.36985,"lng":-90.88596,"zip":"72389","miles_from_dt":21.88},{"city":"De Witt","state_name":"Arkansas","lat":34.26937,"lng":-91.31567,"zip":"72042","miles_from_dt":22.52},{"city":"Merigold","state_name":"Mississippi","lat":33.82495,"lng":-90.73501,"zip":"38759","miles_from_dt":22.88},{"city":"Sherard","state_name":"Mississippi","lat":34.18965,"lng":-90.62667,"zip":"38669","miles_from_dt":23.28},{"city":"Dublin","state_name":"Mississippi","lat":34.18813,"lng":-90.6254,"zip":"38739","miles_from_dt":23.31},{"city":"Clarksdale","state_name":"Mississippi","lat":34.15914,"lng":-90.60747,"zip":"38614","miles_from_dt":23.67},{"city":"Farrell","state_name":"Mississippi","lat":34.20102,"lng":-90.57089,"zip":"38630","miles_from_dt":26.54},{"city":"Rohwer","state_name":"Arkansas","lat":33.7372,"lng":-91.24736,"zip":"71666","miles_from_dt":26.72},{"city":"Cleveland","state_name":"Mississippi","lat":33.75556,"lng":-90.72558,"zip":"38732","miles_from_dt":26.91},{"city":"Cleveland","state_name":"Mississippi","lat":33.74463,"lng":-90.73504,"zip":"38733","miles_from_dt":27.2},{"city":"Parchman","state_name":"Mississippi","lat":33.93049,"lng":-90.53653,"zip":"38738","miles_from_dt":28.56},{"city":"Boyle","state_name":"Mississippi","lat":33.6883,"lng":-90.79932,"zip":"38730","miles_from_dt":28.76},{"city":"Crocketts Bluff","state_name":"Arkansas","lat":34.44606,"lng":-91.2349,"zip":"72038","miles_from_dt":29.15},{"city":"Turner","state_name":"Arkansas","lat":34.49117,"lng":-91.03962,"zip":"72383","miles_from_dt":29.2},{"city":"Oneida","state_name":"Arkansas","lat":34.45522,"lng":-90.78954,"zip":"72369","miles_from_dt":29.39},{"city":"Friars Point","state_name":"Mississippi","lat":34.35891,"lng":-90.62765,"zip":"38631","miles_from_dt":29.49},{"city":"Benoit","state_name":"Mississippi","lat":33.63834,"lng":-91.05543,"zip":"38725","miles_from_dt":29.78}],"targetCityZipCode":"72328","targetCityState":"Arkansas"},"__N_SSG":true}