{"pageProps":{"stateName":"Arkansas","cityName":"de-valls-bluff","nearbyCities":[{"city":"Hazen","state_name":"Arkansas","lat":34.79457,"lng":-91.61226,"zip":"72064","miles_from_dt":9.22},{"city":"Roe","state_name":"Arkansas","lat":34.61189,"lng":-91.37247,"zip":"72134","miles_from_dt":10},{"city":"Ulm","state_name":"Arkansas","lat":34.57819,"lng":-91.42655,"zip":"72170","miles_from_dt":10.96},{"city":"Clarendon","state_name":"Arkansas","lat":34.71029,"lng":-91.27679,"zip":"72029","miles_from_dt":11.01},{"city":"Biscoe","state_name":"Arkansas","lat":34.89215,"lng":-91.40714,"zip":"72017","miles_from_dt":11.47},{"city":"Carlisle","state_name":"Arkansas","lat":34.75168,"lng":-91.74902,"zip":"72024","miles_from_dt":16.03},{"city":"Des Arc","state_name":"Arkansas","lat":34.96957,"lng":-91.52129,"zip":"72040","miles_from_dt":16.55},{"city":"Brinkley","state_name":"Arkansas","lat":34.85953,"lng":-91.21193,"zip":"72021","miles_from_dt":16.96},{"city":"Casscoe","state_name":"Arkansas","lat":34.51397,"lng":-91.31687,"zip":"72026","miles_from_dt":17.41},{"city":"Stuttgart","state_name":"Arkansas","lat":34.44284,"lng":-91.53136,"zip":"72160","miles_from_dt":20.36},{"city":"Monroe","state_name":"Arkansas","lat":34.72803,"lng":-91.10349,"zip":"72108","miles_from_dt":20.75},{"city":"Cotton Plant","state_name":"Arkansas","lat":35.00673,"lng":-91.27205,"zip":"72036","miles_from_dt":21.88},{"city":"Hickory Plains","state_name":"Arkansas","lat":34.98141,"lng":-91.7171,"zip":"72066","miles_from_dt":22.19},{"city":"Humnoke","state_name":"Arkansas","lat":34.51279,"lng":-91.75802,"zip":"72072","miles_from_dt":22.46},{"city":"Holly Grove","state_name":"Arkansas","lat":34.53904,"lng":-91.13242,"zip":"72069","miles_from_dt":23.35},{"city":"Crocketts Bluff","state_name":"Arkansas","lat":34.44606,"lng":-91.2349,"zip":"72038","miles_from_dt":23.86},{"city":"Almyra","state_name":"Arkansas","lat":34.38276,"lng":-91.40754,"zip":"72003","miles_from_dt":24.42},{"city":"Griffithville","state_name":"Arkansas","lat":35.07609,"lng":-91.57779,"zip":"72060","miles_from_dt":24.42},{"city":"Lonoke","state_name":"Arkansas","lat":34.80418,"lng":-91.90619,"zip":"72086","miles_from_dt":25.39},{"city":"Moro","state_name":"Arkansas","lat":34.81146,"lng":-91.01996,"zip":"72368","miles_from_dt":26.05},{"city":"Wheatley","state_name":"Arkansas","lat":34.95551,"lng":-91.09466,"zip":"72392","miles_from_dt":26.17},{"city":"Coy","state_name":"Arkansas","lat":34.53778,"lng":-91.8739,"zip":"72037","miles_from_dt":26.77},{"city":"Humphrey","state_name":"Arkansas","lat":34.36529,"lng":-91.65251,"zip":"72073","miles_from_dt":27.47},{"city":"Ward","state_name":"Arkansas","lat":35.00279,"lng":-91.84212,"zip":"72176","miles_from_dt":28.22},{"city":"Goodwin","state_name":"Arkansas","lat":34.95687,"lng":-91.03202,"zip":"72340","miles_from_dt":29.18},{"city":"England","state_name":"Arkansas","lat":34.55542,"lng":-91.9403,"zip":"72046","miles_from_dt":29.57},{"city":"Turner","state_name":"Arkansas","lat":34.49117,"lng":-91.03962,"zip":"72383","miles_from_dt":29.59},{"city":"Gregory","state_name":"Arkansas","lat":35.15455,"lng":-91.34209,"zip":"72059","miles_from_dt":29.89}],"targetCityZipCode":"72041","targetCityState":"Arkansas"},"__N_SSG":true}