{"pageProps":{"stateName":"Arkansas","cityName":"dumas","nearbyCities":[{"city":"Pickens","state_name":"Arkansas","lat":33.82355,"lng":-91.50391,"zip":"71662","miles_from_dt":5.22},{"city":"Gould","state_name":"Arkansas","lat":34.01953,"lng":-91.57945,"zip":"71643","miles_from_dt":9.06},{"city":"Winchester","state_name":"Arkansas","lat":33.76572,"lng":-91.4884,"zip":"71677","miles_from_dt":9.24},{"city":"Tillar","state_name":"Arkansas","lat":33.74439,"lng":-91.40974,"zip":"71670","miles_from_dt":12.75},{"city":"Reydell","state_name":"Arkansas","lat":34.10821,"lng":-91.53718,"zip":"72133","miles_from_dt":14.95},{"city":"Star City","state_name":"Arkansas","lat":33.93588,"lng":-91.84412,"zip":"71667","miles_from_dt":17.51},{"city":"Grady","state_name":"Arkansas","lat":34.11045,"lng":-91.71213,"zip":"71644","miles_from_dt":17.91},{"city":"Gillett","state_name":"Arkansas","lat":34.10391,"lng":-91.36196,"zip":"72055","miles_from_dt":18},{"city":"Yorktown","state_name":"Arkansas","lat":34.0254,"lng":-91.81548,"zip":"71678","miles_from_dt":18.11},{"city":"Rohwer","state_name":"Arkansas","lat":33.7372,"lng":-91.24736,"zip":"71666","miles_from_dt":20.11},{"city":"Tichnor","state_name":"Arkansas","lat":34.04821,"lng":-91.23711,"zip":"72166","miles_from_dt":20.68},{"city":"McGehee","state_name":"Arkansas","lat":33.62476,"lng":-91.37234,"zip":"71654","miles_from_dt":20.87},{"city":"Watson","state_name":"Arkansas","lat":33.82694,"lng":-91.18261,"zip":"71674","miles_from_dt":21.26},{"city":"Moscow","state_name":"Arkansas","lat":34.13505,"lng":-91.78071,"zip":"71659","miles_from_dt":21.59},{"city":"Monticello","state_name":"Arkansas","lat":33.62874,"lng":-91.7486,"zip":"71655","miles_from_dt":21.59},{"city":"Monticello","state_name":"Arkansas","lat":33.63072,"lng":-91.79108,"zip":"71656","miles_from_dt":22.91},{"city":"Monticello","state_name":"Arkansas","lat":33.6253,"lng":-91.78934,"zip":"71657","miles_from_dt":23.14},{"city":"Dermott","state_name":"Arkansas","lat":33.52008,"lng":-91.47927,"zip":"71638","miles_from_dt":25.87},{"city":"Arkansas City","state_name":"Arkansas","lat":33.61827,"lng":-91.23004,"zip":"71630","miles_from_dt":26.1},{"city":"Pine Bluff","state_name":"Arkansas","lat":34.17409,"lng":-91.89811,"zip":"71601","miles_from_dt":28.14},{"city":"De Witt","state_name":"Arkansas","lat":34.26937,"lng":-91.31567,"zip":"72042","miles_from_dt":29.16}],"targetCityZipCode":"71639","targetCityState":"Arkansas"},"__N_SSG":true}