{"pageProps":{"stateName":"Arkansas","cityName":"heth","nearbyCities":[{"city":"Widener","state_name":"Arkansas","lat":35.05271,"lng":-90.61599,"zip":"72394","miles_from_dt":7.91},{"city":"Proctor","state_name":"Arkansas","lat":35.0883,"lng":-90.30625,"zip":"72376","miles_from_dt":9.96},{"city":"Edmondson","state_name":"Arkansas","lat":35.10117,"lng":-90.30238,"zip":"72332","miles_from_dt":10.24},{"city":"Hughes","state_name":"Arkansas","lat":34.93739,"lng":-90.42016,"zip":"72348","miles_from_dt":10.74},{"city":"Crawfordsville","state_name":"Arkansas","lat":35.2401,"lng":-90.32783,"zip":"72327","miles_from_dt":13.82},{"city":"Earle","state_name":"Arkansas","lat":35.28537,"lng":-90.46733,"zip":"72331","miles_from_dt":13.86},{"city":"Madison","state_name":"Arkansas","lat":35.01422,"lng":-90.7239,"zip":"72359","miles_from_dt":14.55},{"city":"Parkin","state_name":"Arkansas","lat":35.28861,"lng":-90.60269,"zip":"72373","miles_from_dt":15.63},{"city":"Forrest City","state_name":"Arkansas","lat":34.99042,"lng":-90.75645,"zip":"72335","miles_from_dt":16.86},{"city":"West Memphis","state_name":"Arkansas","lat":35.14701,"lng":-90.18592,"zip":"72303","miles_from_dt":17.31},{"city":"West Memphis","state_name":"Arkansas","lat":35.13363,"lng":-90.17883,"zip":"72301","miles_from_dt":17.5},{"city":"Forrest City","state_name":"Arkansas","lat":35.01316,"lng":-90.78545,"zip":"72336","miles_from_dt":17.9},{"city":"Caldwell","state_name":"Arkansas","lat":35.0688,"lng":-90.808,"zip":"72322","miles_from_dt":18.51},{"city":"Brickeys","state_name":"Arkansas","lat":34.81439,"lng":-90.5411,"zip":"72320","miles_from_dt":18.93},{"city":"Marion","state_name":"Arkansas","lat":35.2126,"lng":-90.18573,"zip":"72364","miles_from_dt":18.95},{"city":"Memphis","state_name":"Tennessee","lat":35.10198,"lng":-90.13285,"zip":"38113","miles_from_dt":19.82},{"city":"Memphis","state_name":"Tennessee","lat":35.0341,"lng":-90.13533,"zip":"38109","miles_from_dt":19.96},{"city":"Walls","state_name":"Mississippi","lat":34.95664,"lng":-90.15204,"zip":"38686","miles_from_dt":20.69},{"city":"Lake Cormorant","state_name":"Mississippi","lat":34.90616,"lng":-90.1857,"zip":"38641","miles_from_dt":20.83},{"city":"Walls","state_name":"Mississippi","lat":34.96152,"lng":-90.14463,"zip":"38680","miles_from_dt":20.93},{"city":"Robinsonville","state_name":"Mississippi","lat":34.80434,"lng":-90.33217,"zip":"38664","miles_from_dt":21.11},{"city":"Haynes","state_name":"Arkansas","lat":34.88746,"lng":-90.7705,"zip":"72341","miles_from_dt":21.28},{"city":"Clarkedale","state_name":"Arkansas","lat":35.33067,"lng":-90.25395,"zip":"72325","miles_from_dt":21.31},{"city":"Wynne","state_name":"Arkansas","lat":35.22966,"lng":-90.83559,"zip":"72396","miles_from_dt":22.38},{"city":"Vanndale","state_name":"Arkansas","lat":35.31572,"lng":-90.77274,"zip":"72387","miles_from_dt":22.9},{"city":"Colt","state_name":"Arkansas","lat":35.11183,"lng":-90.89333,"zip":"72326","miles_from_dt":23.38},{"city":"Memphis","state_name":"Tennessee","lat":35.05621,"lng":-90.06015,"zip":"38190","miles_from_dt":23.99},{"city":"Memphis","state_name":"Tennessee","lat":35.13107,"lng":-90.05459,"zip":"38101","miles_from_dt":24.42},{"city":"Memphis","state_name":"Tennessee","lat":35.14325,"lng":-90.05446,"zip":"38173","miles_from_dt":24.55},{"city":"Memphis","state_name":"Tennessee","lat":35.14859,"lng":-90.05473,"zip":"38159","miles_from_dt":24.6},{"city":"Memphis","state_name":"Tennessee","lat":35.15308,"lng":-90.05518,"zip":"38103","miles_from_dt":24.63},{"city":"Memphis","state_name":"Tennessee","lat":35.15,"lng":-90.05219,"zip":"37544","miles_from_dt":24.76},{"city":"Memphis","state_name":"Tennessee","lat":35.14237,"lng":-90.0506,"zip":"38145","miles_from_dt":24.76},{"city":"Memphis","state_name":"Tennessee","lat":35.14731,"lng":-90.0482,"zip":"38150","miles_from_dt":24.95},{"city":"Turrell","state_name":"Arkansas","lat":35.37487,"lng":-90.21825,"zip":"72384","miles_from_dt":24.96},{"city":"Memphis","state_name":"Tennessee","lat":35.12695,"lng":-90.04378,"zip":"38126","miles_from_dt":25},{"city":"Memphis","state_name":"Tennessee","lat":35.14694,"lng":-90.04649,"zip":"38148","miles_from_dt":25.04},{"city":"Memphis","state_name":"Tennessee","lat":35.10067,"lng":-90.0375,"zip":"38106","miles_from_dt":25.21},{"city":"Memphis","state_name":"Tennessee","lat":35.09962,"lng":-90.03627,"zip":"38136","miles_from_dt":25.28},{"city":"Memphis","state_name":"Tennessee","lat":35.14145,"lng":-90.03529,"zip":"38163","miles_from_dt":25.6},{"city":"Memphis","state_name":"Tennessee","lat":35.1512,"lng":-90.03541,"zip":"38105","miles_from_dt":25.71},{"city":"Gilmore","state_name":"Arkansas","lat":35.41606,"lng":-90.26492,"zip":"72339","miles_from_dt":25.94},{"city":"Horn Lake","state_name":"Mississippi","lat":34.95105,"lng":-90.05004,"zip":"38637","miles_from_dt":26.17},{"city":"Tyronza","state_name":"Arkansas","lat":35.45548,"lng":-90.36183,"zip":"72386","miles_from_dt":26.45},{"city":"Memphis","state_name":"Tennessee","lat":35.17054,"lng":-90.02397,"zip":"38107","miles_from_dt":26.61},{"city":"Memphis","state_name":"Tennessee","lat":35.03535,"lng":-90.01596,"zip":"38186","miles_from_dt":26.63},{"city":"Cherry Valley","state_name":"Arkansas","lat":35.38872,"lng":-90.78116,"zip":"72324","miles_from_dt":26.94},{"city":"Memphis","state_name":"Tennessee","lat":35.03213,"lng":-90.01001,"zip":"38116","miles_from_dt":27},{"city":"Memphis","state_name":"Tennessee","lat":35.13076,"lng":-90.00467,"zip":"38166","miles_from_dt":27.23},{"city":"Memphis","state_name":"Tennessee","lat":35.13253,"lng":-90.00435,"zip":"38104","miles_from_dt":27.26},{"city":"Memphis","state_name":"Tennessee","lat":35.07069,"lng":-90.00033,"zip":"38132","miles_from_dt":27.31},{"city":"Memphis","state_name":"Tennessee","lat":35.13227,"lng":-90.00226,"zip":"38174","miles_from_dt":27.37},{"city":"Memphis","state_name":"Tennessee","lat":35.06413,"lng":-89.99949,"zip":"38194","miles_from_dt":27.38},{"city":"Palestine","state_name":"Arkansas","lat":34.96623,"lng":-90.94726,"zip":"72372","miles_from_dt":27.62},{"city":"Memphis","state_name":"Tennessee","lat":35.06603,"lng":-89.99266,"zip":"38131","miles_from_dt":27.76},{"city":"Memphis","state_name":"Tennessee","lat":35.09648,"lng":-89.98596,"zip":"38114","miles_from_dt":28.12},{"city":"Memphis","state_name":"Tennessee","lat":35.25531,"lng":-90.03034,"zip":"38167","miles_from_dt":28.14},{"city":"Memphis","state_name":"Tennessee","lat":35.23795,"lng":-90.01753,"zip":"38127","miles_from_dt":28.34},{"city":"Marianna","state_name":"Arkansas","lat":34.75352,"lng":-90.78875,"zip":"72360","miles_from_dt":28.71},{"city":"Southaven","state_name":"Mississippi","lat":34.96376,"lng":-89.99567,"zip":"38671","miles_from_dt":28.81},{"city":"Memphis","state_name":"Tennessee","lat":35.14905,"lng":-89.97775,"zip":"38151","miles_from_dt":28.9},{"city":"Memphis","state_name":"Tennessee","lat":35.14791,"lng":-89.97661,"zip":"38112","miles_from_dt":28.96},{"city":"Tunica","state_name":"Mississippi","lat":34.67274,"lng":-90.3682,"zip":"38676","miles_from_dt":29.12},{"city":"Memphis","state_name":"Tennessee","lat":35.1453,"lng":-89.97064,"zip":"38182","miles_from_dt":29.27},{"city":"Memphis","state_name":"Tennessee","lat":35.06806,"lng":-89.95758,"zip":"37501","miles_from_dt":29.74}],"targetCityZipCode":"72346","targetCityState":"Arkansas"},"__N_SSG":true}