{"pageProps":{"stateName":"Arkansas","cityName":"kingsland","nearbyCities":[{"city":"Ivan","state_name":"Arkansas","lat":33.90296,"lng":-92.43322,"zip":"71748","miles_from_dt":6.79},{"city":"Fordyce","state_name":"Arkansas","lat":33.83435,"lng":-92.44545,"zip":"71742","miles_from_dt":8.5},{"city":"Rison","state_name":"Arkansas","lat":33.93812,"lng":-92.13163,"zip":"71665","miles_from_dt":11.01},{"city":"New Edinburg","state_name":"Arkansas","lat":33.7627,"lng":-92.19728,"zip":"71660","miles_from_dt":11.29},{"city":"Thornton","state_name":"Arkansas","lat":33.7362,"lng":-92.50205,"zip":"71766","miles_from_dt":15.24},{"city":"Carthage","state_name":"Arkansas","lat":34.03791,"lng":-92.53252,"zip":"71725","miles_from_dt":15.95},{"city":"Grapevine","state_name":"Arkansas","lat":34.14417,"lng":-92.31507,"zip":"72057","miles_from_dt":17.29},{"city":"Bearden","state_name":"Arkansas","lat":33.79075,"lng":-92.64163,"zip":"71720","miles_from_dt":20.04},{"city":"Pine Bluff","state_name":"Arkansas","lat":34.1402,"lng":-92.10718,"zip":"71613","miles_from_dt":20.8},{"city":"Pine Bluff","state_name":"Arkansas","lat":34.12881,"lng":-92.08492,"zip":"71603","miles_from_dt":20.94},{"city":"Banks","state_name":"Arkansas","lat":33.58205,"lng":-92.26415,"zip":"71631","miles_from_dt":21.66},{"city":"Warren","state_name":"Arkansas","lat":33.60652,"lng":-92.10006,"zip":"71671","miles_from_dt":23.34},{"city":"Leola","state_name":"Arkansas","lat":34.13687,"lng":-92.6887,"zip":"72084","miles_from_dt":27.21},{"city":"Star City","state_name":"Arkansas","lat":33.93588,"lng":-91.84412,"zip":"71667","miles_from_dt":27.25},{"city":"Harrell","state_name":"Arkansas","lat":33.4997,"lng":-92.39496,"zip":"71745","miles_from_dt":27.51},{"city":"Sparkman","state_name":"Arkansas","lat":33.90885,"lng":-92.80648,"zip":"71763","miles_from_dt":28.23},{"city":"White Hall","state_name":"Arkansas","lat":34.27463,"lng":-92.13302,"zip":"71602","miles_from_dt":28.29},{"city":"Sheridan","state_name":"Arkansas","lat":34.30999,"lng":-92.39642,"zip":"72150","miles_from_dt":29.09},{"city":"Hampton","state_name":"Arkansas","lat":33.49201,"lng":-92.47536,"zip":"71744","miles_from_dt":29.15},{"city":"White Hall","state_name":"Arkansas","lat":34.22887,"lng":-92.00089,"zip":"71612","miles_from_dt":29.34},{"city":"Wilmar","state_name":"Arkansas","lat":33.60424,"lng":-91.93805,"zip":"71675","miles_from_dt":29.49}],"targetCityZipCode":"71652","targetCityState":"Arkansas"},"__N_SSG":true}