{"pageProps":{"stateName":"Arkansas","cityName":"lockesburg","nearbyCities":[{"city":"Ben Lomond","state_name":"Arkansas","lat":33.83101,"lng":-94.12547,"zip":"71823","miles_from_dt":6.58},{"city":"Horatio","state_name":"Arkansas","lat":33.90051,"lng":-94.29297,"zip":"71842","miles_from_dt":9.89},{"city":"Mineral Springs","state_name":"Arkansas","lat":33.85728,"lng":-93.94658,"zip":"71851","miles_from_dt":11.24},{"city":"Alleene","state_name":"Arkansas","lat":33.78886,"lng":-94.24421,"zip":"71820","miles_from_dt":11.75},{"city":"Wilton","state_name":"Arkansas","lat":33.74169,"lng":-94.14598,"zip":"71865","miles_from_dt":12.8},{"city":"De Queen","state_name":"Arkansas","lat":34.0397,"lng":-94.34791,"zip":"71832","miles_from_dt":15.05},{"city":"Winthrop","state_name":"Arkansas","lat":33.86738,"lng":-94.38042,"zip":"71866","miles_from_dt":15.31},{"city":"Dierks","state_name":"Arkansas","lat":34.13409,"lng":-94.02665,"zip":"71833","miles_from_dt":15.35},{"city":"Nashville","state_name":"Arkansas","lat":33.99489,"lng":-93.85831,"zip":"71852","miles_from_dt":15.95},{"city":"Ashdown","state_name":"Arkansas","lat":33.66946,"lng":-94.14755,"zip":"71822","miles_from_dt":17.77},{"city":"Columbus","state_name":"Arkansas","lat":33.7762,"lng":-93.85971,"zip":"71831","miles_from_dt":18.38},{"city":"Saratoga","state_name":"Arkansas","lat":33.7143,"lng":-93.92379,"zip":"71859","miles_from_dt":18.6},{"city":"Gillham","state_name":"Arkansas","lat":34.1639,"lng":-94.34718,"zip":"71841","miles_from_dt":20.79},{"city":"Foreman","state_name":"Arkansas","lat":33.71297,"lng":-94.39584,"zip":"71836","miles_from_dt":21.49},{"city":"Ozan","state_name":"Arkansas","lat":33.86612,"lng":-93.74351,"zip":"71855","miles_from_dt":22.24},{"city":"Grannis","state_name":"Arkansas","lat":34.23922,"lng":-94.32517,"zip":"71944","miles_from_dt":24.46},{"city":"Ogden","state_name":"Arkansas","lat":33.59442,"lng":-93.95635,"zip":"71853","miles_from_dt":24.83},{"city":"Newhope","state_name":"Arkansas","lat":34.25081,"lng":-93.92633,"zip":"71959","miles_from_dt":25.05},{"city":"Washington","state_name":"Arkansas","lat":33.76814,"lng":-93.72321,"zip":"71862","miles_from_dt":25.49},{"city":"Umpire","state_name":"Arkansas","lat":34.30411,"lng":-94.0313,"zip":"71971","miles_from_dt":26.56},{"city":"Fulton","state_name":"Arkansas","lat":33.64916,"lng":-93.79753,"zip":"71838","miles_from_dt":26.79},{"city":"Eagletown","state_name":"Oklahoma","lat":34.0888,"lng":-94.54786,"zip":"74734","miles_from_dt":26.8},{"city":"Wickes","state_name":"Arkansas","lat":34.28755,"lng":-94.30523,"zip":"71973","miles_from_dt":26.97},{"city":"McCaskill","state_name":"Arkansas","lat":33.92616,"lng":-93.63361,"zip":"71847","miles_from_dt":28.16},{"city":"Texarkana","state_name":"Texas","lat":33.51345,"lng":-94.13038,"zip":"75503","miles_from_dt":28.47},{"city":"Haworth","state_name":"Oklahoma","lat":33.7938,"lng":-94.59614,"zip":"74740","miles_from_dt":28.66},{"city":"Hooks","state_name":"Texas","lat":33.517,"lng":-94.27855,"zip":"75561","miles_from_dt":29.6},{"city":"Murfreesboro","state_name":"Arkansas","lat":34.1114,"lng":-93.6556,"zip":"71958","miles_from_dt":29.73}],"targetCityZipCode":"71846","targetCityState":"Arkansas"},"__N_SSG":true}