{"pageProps":{"stateName":"Arkansas","cityName":"marble-falls","nearbyCities":[{"city":"Hasty","state_name":"Arkansas","lat":36.00708,"lng":-93.05061,"zip":"72640","miles_from_dt":7.03},{"city":"Jasper","state_name":"Arkansas","lat":35.98829,"lng":-93.21978,"zip":"72641","miles_from_dt":7.34},{"city":"Western Grove","state_name":"Arkansas","lat":36.05539,"lng":-92.98194,"zip":"72685","miles_from_dt":9.17},{"city":"Vendor","state_name":"Arkansas","lat":35.93102,"lng":-93.11629,"zip":"72683","miles_from_dt":10.06},{"city":"Harrison","state_name":"Arkansas","lat":36.22696,"lng":-93.11509,"zip":"72602","miles_from_dt":10.59},{"city":"Harrison","state_name":"Arkansas","lat":36.23669,"lng":-93.09181,"zip":"72601","miles_from_dt":11.51},{"city":"Parthenon","state_name":"Arkansas","lat":35.94876,"lng":-93.28706,"zip":"72666","miles_from_dt":11.84},{"city":"Compton","state_name":"Arkansas","lat":36.08208,"lng":-93.35655,"zip":"72624","miles_from_dt":11.91},{"city":"Mount Judea","state_name":"Arkansas","lat":35.89346,"lng":-93.03421,"zip":"72655","miles_from_dt":13.96},{"city":"Ponca","state_name":"Arkansas","lat":35.98726,"lng":-93.37775,"zip":"72670","miles_from_dt":14.43},{"city":"Pindall","state_name":"Arkansas","lat":36.06477,"lng":-92.87359,"zip":"72669","miles_from_dt":15.15},{"city":"Alpena","state_name":"Arkansas","lat":36.24532,"lng":-93.32705,"zip":"72611","miles_from_dt":15.57},{"city":"Everton","state_name":"Arkansas","lat":36.14023,"lng":-92.87572,"zip":"72633","miles_from_dt":15.67},{"city":"Bergman","state_name":"Arkansas","lat":36.31532,"lng":-93.01207,"zip":"72615","miles_from_dt":18.13},{"city":"Deer","state_name":"Arkansas","lat":35.82717,"lng":-93.28785,"zip":"72628","miles_from_dt":18.9},{"city":"Saint Joe","state_name":"Arkansas","lat":36.00711,"lng":-92.79283,"zip":"72675","miles_from_dt":20.22},{"city":"Kingston","state_name":"Arkansas","lat":35.98159,"lng":-93.49528,"zip":"72742","miles_from_dt":20.7},{"city":"Pelsor","state_name":"Arkansas","lat":35.76773,"lng":-93.05658,"zip":"72856","miles_from_dt":21.76},{"city":"Pyatt","state_name":"Arkansas","lat":36.27725,"lng":-92.83685,"zip":"72672","miles_from_dt":22.11},{"city":"Green Forest","state_name":"Arkansas","lat":36.3245,"lng":-93.40496,"zip":"72638","miles_from_dt":22.54},{"city":"Valley Springs","state_name":"Arkansas","lat":36.13405,"lng":-92.72911,"zip":"72682","miles_from_dt":23.57},{"city":"Gilbert","state_name":"Arkansas","lat":35.99121,"lng":-92.71651,"zip":"72636","miles_from_dt":24.63},{"city":"Omaha","state_name":"Arkansas","lat":36.43184,"lng":-93.18297,"zip":"72662","miles_from_dt":24.69},{"city":"Lead Hill","state_name":"Arkansas","lat":36.42477,"lng":-92.96673,"zip":"72644","miles_from_dt":26.06},{"city":"Summit","state_name":"Arkansas","lat":36.26442,"lng":-92.70074,"zip":"72677","miles_from_dt":28.01},{"city":"Yellville","state_name":"Arkansas","lat":36.25628,"lng":-92.68679,"zip":"72687","miles_from_dt":28.45},{"city":"Witts Springs","state_name":"Arkansas","lat":35.70352,"lng":-92.918,"zip":"72686","miles_from_dt":28.59},{"city":"Marshall","state_name":"Arkansas","lat":35.87938,"lng":-92.69308,"zip":"72650","miles_from_dt":28.65},{"city":"Diamond City","state_name":"Arkansas","lat":36.45856,"lng":-92.92032,"zip":"72630","miles_from_dt":29.24},{"city":"Pettigrew","state_name":"Arkansas","lat":35.82077,"lng":-93.56357,"zip":"72752","miles_from_dt":29.34},{"city":"Huntsville","state_name":"Arkansas","lat":36.10889,"lng":-93.67599,"zip":"72740","miles_from_dt":29.86},{"city":"Berryville","state_name":"Arkansas","lat":36.35047,"lng":-93.55736,"zip":"72616","miles_from_dt":29.9},{"city":"Hagarville","state_name":"Arkansas","lat":35.65131,"lng":-93.26384,"zip":"72839","miles_from_dt":29.99}],"targetCityZipCode":"72648","targetCityState":"Arkansas"},"__N_SSG":true}