{"pageProps":{"stateName":"Arkansas","cityName":"maynard","nearbyCities":[{"city":"Reyno","state_name":"Arkansas","lat":36.38243,"lng":-90.75916,"zip":"72462","miles_from_dt":6.44},{"city":"Datto","state_name":"Arkansas","lat":36.39185,"lng":-90.72874,"zip":"72424","miles_from_dt":7.75},{"city":"Biggers","state_name":"Arkansas","lat":36.30564,"lng":-90.81251,"zip":"72413","miles_from_dt":8.77},{"city":"Success","state_name":"Arkansas","lat":36.4668,"lng":-90.70309,"zip":"72470","miles_from_dt":9.23},{"city":"Warm Springs","state_name":"Arkansas","lat":36.46249,"lng":-91.05373,"zip":"72478","miles_from_dt":11.02},{"city":"Pocahontas","state_name":"Arkansas","lat":36.3229,"lng":-91.04909,"zip":"72455","miles_from_dt":12.69},{"city":"Peach Orchard","state_name":"Arkansas","lat":36.30909,"lng":-90.67887,"zip":"72453","miles_from_dt":12.99},{"city":"Gatewood","state_name":"Missouri","lat":36.55434,"lng":-91.07821,"zip":"63942","miles_from_dt":14.96},{"city":"Delaplaine","state_name":"Arkansas","lat":36.22138,"lng":-90.74308,"zip":"72425","miles_from_dt":15.61},{"city":"Briar","state_name":"Missouri","lat":36.64159,"lng":-90.95927,"zip":"63931","miles_from_dt":15.8},{"city":"Oxly","state_name":"Missouri","lat":36.60211,"lng":-90.67864,"zip":"63955","miles_from_dt":15.8},{"city":"Doniphan","state_name":"Missouri","lat":36.67053,"lng":-90.92055,"zip":"63935","miles_from_dt":17.14},{"city":"Naylor","state_name":"Missouri","lat":36.59134,"lng":-90.62995,"zip":"63953","miles_from_dt":17.16},{"city":"Ravenden Springs","state_name":"Arkansas","lat":36.35792,"lng":-91.15967,"zip":"72460","miles_from_dt":17.31},{"city":"Corning","state_name":"Arkansas","lat":36.41893,"lng":-90.54385,"zip":"72422","miles_from_dt":17.68},{"city":"O'Kean","state_name":"Arkansas","lat":36.16662,"lng":-90.81719,"zip":"72449","miles_from_dt":18.09},{"city":"Knobel","state_name":"Arkansas","lat":36.31177,"lng":-90.54593,"zip":"72435","miles_from_dt":19.27},{"city":"Fairdealing","state_name":"Missouri","lat":36.68456,"lng":-90.68253,"zip":"63939","miles_from_dt":20.37},{"city":"Imboden","state_name":"Arkansas","lat":36.21847,"lng":-91.16025,"zip":"72434","miles_from_dt":22.01},{"city":"Harviell","state_name":"Missouri","lat":36.6381,"lng":-90.5524,"zip":"63945","miles_from_dt":22.53},{"city":"Beech Grove","state_name":"Arkansas","lat":36.12572,"lng":-90.69172,"zip":"72412","miles_from_dt":22.8},{"city":"Neelyville","state_name":"Missouri","lat":36.56365,"lng":-90.47337,"zip":"63954","miles_from_dt":23.56},{"city":"Myrtle","state_name":"Missouri","lat":36.52846,"lng":-91.2719,"zip":"65778","miles_from_dt":23.93},{"city":"Lafe","state_name":"Arkansas","lat":36.23574,"lng":-90.48281,"zip":"72436","miles_from_dt":24.87},{"city":"Couch","state_name":"Missouri","lat":36.5856,"lng":-91.26657,"zip":"65690","miles_from_dt":25.09},{"city":"Portia","state_name":"Arkansas","lat":36.08545,"lng":-91.06827,"zip":"72457","miles_from_dt":26.21},{"city":"McDougal","state_name":"Arkansas","lat":36.4355,"lng":-90.38944,"zip":"72441","miles_from_dt":26.29},{"city":"Walnut Ridge","state_name":"Arkansas","lat":36.04533,"lng":-90.91692,"zip":"72476","miles_from_dt":26.47},{"city":"Ravenden","state_name":"Arkansas","lat":36.27904,"lng":-91.29976,"zip":"72459","miles_from_dt":26.5},{"city":"Black Rock","state_name":"Arkansas","lat":36.12643,"lng":-91.17745,"zip":"72415","miles_from_dt":27.21},{"city":"Walcott","state_name":"Arkansas","lat":36.04462,"lng":-90.67259,"zip":"72474","miles_from_dt":28.36},{"city":"Grandin","state_name":"Missouri","lat":36.84046,"lng":-90.79995,"zip":"63943","miles_from_dt":28.74},{"city":"Hoxie","state_name":"Arkansas","lat":36.02582,"lng":-91.04446,"zip":"72433","miles_from_dt":29.47},{"city":"Powhatan","state_name":"Arkansas","lat":36.06844,"lng":-91.15619,"zip":"72458","miles_from_dt":29.69}],"targetCityZipCode":"72444","targetCityState":"Arkansas"},"__N_SSG":true}