{"pageProps":{"stateName":"Arkansas","cityName":"murfreesboro","nearbyCities":[{"city":"Kirby","state_name":"Arkansas","lat":34.25072,"lng":-93.72767,"zip":"71950","miles_from_dt":10.45},{"city":"Delight","state_name":"Arkansas","lat":34.01527,"lng":-93.50705,"zip":"71940","miles_from_dt":10.79},{"city":"McCaskill","state_name":"Arkansas","lat":33.92616,"lng":-93.63361,"zip":"71847","miles_from_dt":12.83},{"city":"Nashville","state_name":"Arkansas","lat":33.99489,"lng":-93.85831,"zip":"71852","miles_from_dt":14.13},{"city":"Antoine","state_name":"Arkansas","lat":34.02444,"lng":-93.41943,"zip":"71922","miles_from_dt":14.81},{"city":"Alpine","state_name":"Arkansas","lat":34.26472,"lng":-93.46083,"zip":"71920","miles_from_dt":15.37},{"city":"Glenwood","state_name":"Arkansas","lat":34.33488,"lng":-93.60633,"zip":"71943","miles_from_dt":15.66},{"city":"Blevins","state_name":"Arkansas","lat":33.87554,"lng":-93.56489,"zip":"71825","miles_from_dt":17.07},{"city":"Amity","state_name":"Arkansas","lat":34.25435,"lng":-93.40109,"zip":"71921","miles_from_dt":17.6},{"city":"Ozan","state_name":"Arkansas","lat":33.86612,"lng":-93.74351,"zip":"71855","miles_from_dt":17.64},{"city":"Langley","state_name":"Arkansas","lat":34.31067,"lng":-93.84992,"zip":"71952","miles_from_dt":17.68},{"city":"Newhope","state_name":"Arkansas","lat":34.25081,"lng":-93.92633,"zip":"71959","miles_from_dt":18.24},{"city":"Okolona","state_name":"Arkansas","lat":34.03756,"lng":-93.33288,"zip":"71962","miles_from_dt":19.2},{"city":"Caddo Gap","state_name":"Arkansas","lat":34.39338,"lng":-93.75009,"zip":"71935","miles_from_dt":20.17},{"city":"Dierks","state_name":"Arkansas","lat":34.13409,"lng":-94.02665,"zip":"71833","miles_from_dt":21.33},{"city":"Washington","state_name":"Arkansas","lat":33.76814,"lng":-93.72321,"zip":"71862","miles_from_dt":23.98},{"city":"Mineral Springs","state_name":"Arkansas","lat":33.85728,"lng":-93.94658,"zip":"71851","miles_from_dt":24.21},{"city":"Norman","state_name":"Arkansas","lat":34.47408,"lng":-93.69281,"zip":"71960","miles_from_dt":25.09},{"city":"Umpire","state_name":"Arkansas","lat":34.30411,"lng":-94.0313,"zip":"71971","miles_from_dt":25.28},{"city":"Bonnerdale","state_name":"Arkansas","lat":34.41037,"lng":-93.39124,"zip":"71933","miles_from_dt":25.56},{"city":"Columbus","state_name":"Arkansas","lat":33.7762,"lng":-93.85971,"zip":"71831","miles_from_dt":25.91},{"city":"Prescott","state_name":"Arkansas","lat":33.80422,"lng":-93.34795,"zip":"71857","miles_from_dt":27.58},{"city":"Lockesburg","state_name":"Arkansas","lat":33.9265,"lng":-94.12367,"zip":"71846","miles_from_dt":29.73},{"city":"Beirne","state_name":"Arkansas","lat":33.89091,"lng":-93.20635,"zip":"71721","miles_from_dt":29.93}],"targetCityZipCode":"71958","targetCityState":"Arkansas"},"__N_SSG":true}