{"pageProps":{"stateName":"Arkansas","cityName":"poplar-grove","nearbyCities":[{"city":"Lexa","state_name":"Arkansas","lat":34.53902,"lng":-90.77789,"zip":"72355","miles_from_dt":3.86},{"city":"Marvell","state_name":"Arkansas","lat":34.52612,"lng":-90.95307,"zip":"72366","miles_from_dt":6.89},{"city":"Oneida","state_name":"Arkansas","lat":34.45522,"lng":-90.78954,"zip":"72369","miles_from_dt":7.86},{"city":"Barton","state_name":"Arkansas","lat":34.49379,"lng":-90.71316,"zip":"72312","miles_from_dt":8.6},{"city":"La Grange","state_name":"Arkansas","lat":34.65562,"lng":-90.7344,"zip":"72352","miles_from_dt":8.86},{"city":"West Helena","state_name":"Arkansas","lat":34.55426,"lng":-90.67756,"zip":"72390","miles_from_dt":9.27},{"city":"Aubrey","state_name":"Arkansas","lat":34.72072,"lng":-90.89688,"zip":"72311","miles_from_dt":11.46},{"city":"Helena","state_name":"Arkansas","lat":34.44492,"lng":-90.67733,"zip":"72342","miles_from_dt":12.27},{"city":"Turner","state_name":"Arkansas","lat":34.49117,"lng":-91.03962,"zip":"72383","miles_from_dt":12.37},{"city":"Wabash","state_name":"Arkansas","lat":34.36985,"lng":-90.88596,"zip":"72389","miles_from_dt":13.45},{"city":"Marianna","state_name":"Arkansas","lat":34.75352,"lng":-90.78875,"zip":"72360","miles_from_dt":13.57},{"city":"Holly Grove","state_name":"Arkansas","lat":34.53904,"lng":-91.13242,"zip":"72069","miles_from_dt":16.75},{"city":"Friars Point","state_name":"Mississippi","lat":34.35891,"lng":-90.62765,"zip":"38631","miles_from_dt":18.48},{"city":"Elaine","state_name":"Arkansas","lat":34.29004,"lng":-90.86971,"zip":"72333","miles_from_dt":18.77},{"city":"Monroe","state_name":"Arkansas","lat":34.72803,"lng":-91.10349,"zip":"72108","miles_from_dt":18.91},{"city":"Lambrook","state_name":"Arkansas","lat":34.3162,"lng":-91.00708,"zip":"72353","miles_from_dt":19.4},{"city":"Moro","state_name":"Arkansas","lat":34.81146,"lng":-91.01996,"zip":"72368","miles_from_dt":20.06},{"city":"Lula","state_name":"Mississippi","lat":34.45899,"lng":-90.47576,"zip":"38644","miles_from_dt":21.94},{"city":"Saint Charles","state_name":"Arkansas","lat":34.36052,"lng":-91.1549,"zip":"72140","miles_from_dt":22.69},{"city":"Haynes","state_name":"Arkansas","lat":34.88746,"lng":-90.7705,"zip":"72341","miles_from_dt":22.83},{"city":"Dundee","state_name":"Mississippi","lat":34.5182,"lng":-90.43966,"zip":"38626","miles_from_dt":23.03},{"city":"Crocketts Bluff","state_name":"Arkansas","lat":34.44606,"lng":-91.2349,"zip":"72038","miles_from_dt":23.89},{"city":"Coahoma","state_name":"Mississippi","lat":34.36261,"lng":-90.49342,"zip":"38617","miles_from_dt":24.06},{"city":"Brickeys","state_name":"Arkansas","lat":34.81439,"lng":-90.5411,"zip":"72320","miles_from_dt":24.37},{"city":"Clarendon","state_name":"Arkansas","lat":34.71029,"lng":-91.27679,"zip":"72029","miles_from_dt":26.92},{"city":"Casscoe","state_name":"Arkansas","lat":34.51397,"lng":-91.31687,"zip":"72026","miles_from_dt":27.4},{"city":"Mellwood","state_name":"Arkansas","lat":34.1891,"lng":-91.02567,"zip":"72367","miles_from_dt":27.76},{"city":"Ethel","state_name":"Arkansas","lat":34.23436,"lng":-91.12433,"zip":"72048","miles_from_dt":27.78},{"city":"Tunica","state_name":"Mississippi","lat":34.67274,"lng":-90.3682,"zip":"38676","miles_from_dt":27.96},{"city":"Sherard","state_name":"Mississippi","lat":34.18965,"lng":-90.62667,"zip":"38669","miles_from_dt":28.37},{"city":"Dublin","state_name":"Mississippi","lat":34.18813,"lng":-90.6254,"zip":"38739","miles_from_dt":28.49},{"city":"Palestine","state_name":"Arkansas","lat":34.96623,"lng":-90.94726,"zip":"72372","miles_from_dt":28.58},{"city":"Farrell","state_name":"Mississippi","lat":34.20102,"lng":-90.57089,"zip":"38630","miles_from_dt":29.21},{"city":"Jonestown","state_name":"Mississippi","lat":34.30909,"lng":-90.4285,"zip":"38639","miles_from_dt":29.23},{"city":"Goodwin","state_name":"Arkansas","lat":34.95687,"lng":-91.03202,"zip":"72340","miles_from_dt":29.38},{"city":"Brinkley","state_name":"Arkansas","lat":34.85953,"lng":-91.21193,"zip":"72021","miles_from_dt":29.51},{"city":"Rena Lara","state_name":"Mississippi","lat":34.12809,"lng":-90.80552,"zip":"38767","miles_from_dt":29.92},{"city":"Forrest City","state_name":"Arkansas","lat":34.99042,"lng":-90.75645,"zip":"72335","miles_from_dt":29.96}],"targetCityZipCode":"72374","targetCityState":"Arkansas"},"__N_SSG":true}