{"pageProps":{"stateName":"Arkansas","cityName":"strong","nearbyCities":[{"city":"Huttig","state_name":"Arkansas","lat":33.05892,"lng":-92.22238,"zip":"71747","miles_from_dt":8.37},{"city":"Lawson","state_name":"Arkansas","lat":33.19521,"lng":-92.48152,"zip":"71750","miles_from_dt":9.43},{"city":"Jersey","state_name":"Arkansas","lat":33.31472,"lng":-92.28377,"zip":"71651","miles_from_dt":12.85},{"city":"Marion","state_name":"Louisiana","lat":32.90615,"lng":-92.23793,"zip":"71260","miles_from_dt":16.68},{"city":"Calion","state_name":"Arkansas","lat":33.326,"lng":-92.54053,"zip":"71724","miles_from_dt":17.77},{"city":"El Dorado","state_name":"Arkansas","lat":33.20303,"lng":-92.63458,"zip":"71730","miles_from_dt":17.94},{"city":"Spearsville","state_name":"Louisiana","lat":32.94902,"lng":-92.55554,"zip":"71277","miles_from_dt":17.99},{"city":"Crossett","state_name":"Arkansas","lat":33.1369,"lng":-92.00133,"zip":"71635","miles_from_dt":19.42},{"city":"El Dorado","state_name":"Arkansas","lat":33.20937,"lng":-92.66693,"zip":"71731","miles_from_dt":19.86},{"city":"Hermitage","state_name":"Arkansas","lat":33.36678,"lng":-92.12219,"zip":"71647","miles_from_dt":20.3},{"city":"Norphlet","state_name":"Arkansas","lat":33.31506,"lng":-92.65967,"zip":"71759","miles_from_dt":22.52},{"city":"Farmerville","state_name":"Louisiana","lat":32.77107,"lng":-92.36531,"zip":"71241","miles_from_dt":25.04},{"city":"Lillie","state_name":"Louisiana","lat":32.94852,"lng":-92.71471,"zip":"71256","miles_from_dt":25.4},{"city":"Harrell","state_name":"Arkansas","lat":33.4997,"lng":-92.39496,"zip":"71745","miles_from_dt":25.46},{"city":"Hampton","state_name":"Arkansas","lat":33.49201,"lng":-92.47536,"zip":"71744","miles_from_dt":25.98},{"city":"Bernice","state_name":"Louisiana","lat":32.82859,"lng":-92.65918,"zip":"71222","miles_from_dt":28.17},{"city":"Junction City","state_name":"Arkansas","lat":33.07049,"lng":-92.81964,"zip":"71749","miles_from_dt":28.37},{"city":"Smackover","state_name":"Arkansas","lat":33.33668,"lng":-92.76767,"zip":"71762","miles_from_dt":28.64}],"targetCityZipCode":"71765","targetCityState":"Arkansas"},"__N_SSG":true}