{"pageProps":{"stateName":"Arkansas","cityName":"sweet-home","nearbyCities":[{"city":"College Station","state_name":"Arkansas","lat":34.70579,"lng":-92.22852,"zip":"72053","miles_from_dt":2.13},{"city":"Little Rock","state_name":"Arkansas","lat":34.63332,"lng":-92.22671,"zip":"72203","miles_from_dt":2.99},{"city":"Little Rock","state_name":"Arkansas","lat":34.63042,"lng":-92.23833,"zip":"72206","miles_from_dt":3.13},{"city":"Little Rock","state_name":"Arkansas","lat":34.74626,"lng":-92.27016,"zip":"72202","miles_from_dt":5.21},{"city":"Little Rock","state_name":"Arkansas","lat":34.74626,"lng":-92.27666,"zip":"72231","miles_from_dt":5.35},{"city":"Little Rock","state_name":"Arkansas","lat":34.74571,"lng":-92.27978,"zip":"72295","miles_from_dt":5.39},{"city":"Little Rock","state_name":"Arkansas","lat":34.74725,"lng":-92.28053,"zip":"72201","miles_from_dt":5.51},{"city":"Little Rock","state_name":"Arkansas","lat":34.75,"lng":-92.28219,"zip":"72260","miles_from_dt":5.72},{"city":"Wrightsville","state_name":"Arkansas","lat":34.60002,"lng":-92.19305,"zip":"72183","miles_from_dt":5.8},{"city":"Little Rock","state_name":"Arkansas","lat":34.6805,"lng":-92.33974,"zip":"72209","miles_from_dt":5.84},{"city":"North Little Rock","state_name":"Arkansas","lat":34.7645,"lng":-92.26024,"zip":"72114","miles_from_dt":6.25},{"city":"Little Rock","state_name":"Arkansas","lat":34.68093,"lng":-92.3472,"zip":"72219","miles_from_dt":6.27},{"city":"North Little Rock","state_name":"Arkansas","lat":34.76629,"lng":-92.25907,"zip":"72115","miles_from_dt":6.36},{"city":"Little Rock","state_name":"Arkansas","lat":34.77589,"lng":-92.27715,"zip":"72214","miles_from_dt":7.27},{"city":"Little Rock","state_name":"Arkansas","lat":34.72453,"lng":-92.3537,"zip":"72222","miles_from_dt":7.43},{"city":"Little Rock","state_name":"Arkansas","lat":34.71739,"lng":-92.3582,"zip":"72204","miles_from_dt":7.46},{"city":"Little Rock","state_name":"Arkansas","lat":34.75792,"lng":-92.32695,"zip":"72255","miles_from_dt":7.62},{"city":"Little Rock","state_name":"Arkansas","lat":34.75307,"lng":-92.347,"zip":"72215","miles_from_dt":8.21},{"city":"Little Rock","state_name":"Arkansas","lat":34.7528,"lng":-92.34919,"zip":"72225","miles_from_dt":8.29},{"city":"Little Rock","state_name":"Arkansas","lat":34.74948,"lng":-92.3524,"zip":"72205","miles_from_dt":8.29},{"city":"North Little Rock","state_name":"Arkansas","lat":34.7981,"lng":-92.25602,"zip":"72190","miles_from_dt":8.5},{"city":"North Little Rock","state_name":"Arkansas","lat":34.80025,"lng":-92.24505,"zip":"72116","miles_from_dt":8.59},{"city":"North Little Rock","state_name":"Arkansas","lat":34.78076,"lng":-92.14548,"zip":"72117","miles_from_dt":8.93},{"city":"Little Rock","state_name":"Arkansas","lat":34.77493,"lng":-92.34271,"zip":"72207","miles_from_dt":9.09},{"city":"Scott","state_name":"Arkansas","lat":34.67681,"lng":-92.07488,"zip":"72142","miles_from_dt":9.25},{"city":"North Little Rock","state_name":"Arkansas","lat":34.81133,"lng":-92.23488,"zip":"72124","miles_from_dt":9.35},{"city":"Little Rock","state_name":"Arkansas","lat":34.77592,"lng":-92.35763,"zip":"72217","miles_from_dt":9.72},{"city":"Woodson","state_name":"Arkansas","lat":34.53104,"lng":-92.21495,"zip":"72180","miles_from_dt":10.06},{"city":"Mabelvale","state_name":"Arkansas","lat":34.59133,"lng":-92.38316,"zip":"72103","miles_from_dt":10.14},{"city":"Little Rock","state_name":"Arkansas","lat":34.82589,"lng":-92.21691,"zip":"72216","miles_from_dt":10.41},{"city":"Little Rock","state_name":"Arkansas","lat":34.7782,"lng":-92.37498,"zip":"72227","miles_from_dt":10.55},{"city":"North Little Rock","state_name":"Arkansas","lat":34.82816,"lng":-92.28608,"zip":"72199","miles_from_dt":10.87},{"city":"Hensley","state_name":"Arkansas","lat":34.52102,"lng":-92.28648,"zip":"72065","miles_from_dt":11.03},{"city":"Little Rock","state_name":"Arkansas","lat":34.74792,"lng":-92.41675,"zip":"72211","miles_from_dt":11.36},{"city":"North Little Rock","state_name":"Arkansas","lat":34.8369,"lng":-92.29505,"zip":"72119","miles_from_dt":11.58},{"city":"North Little Rock","state_name":"Arkansas","lat":34.83872,"lng":-92.32694,"zip":"72118","miles_from_dt":12.34},{"city":"Little Rock","state_name":"Arkansas","lat":34.78498,"lng":-92.4141,"zip":"72212","miles_from_dt":12.56},{"city":"Keo","state_name":"Arkansas","lat":34.6049,"lng":-92.01189,"zip":"72083","miles_from_dt":13.74},{"city":"Jacksonville","state_name":"Arkansas","lat":34.86416,"lng":-92.12249,"zip":"72078","miles_from_dt":14.54},{"city":"Bryant","state_name":"Arkansas","lat":34.59625,"lng":-92.48689,"zip":"72089","miles_from_dt":15.24},{"city":"Sherwood","state_name":"Arkansas","lat":34.89776,"lng":-92.24431,"zip":"72120","miles_from_dt":15.31},{"city":"Little Rock","state_name":"Arkansas","lat":34.71506,"lng":-92.50378,"zip":"72210","miles_from_dt":15.41},{"city":"Bryant","state_name":"Arkansas","lat":34.60859,"lng":-92.49651,"zip":"72022","miles_from_dt":15.47},{"city":"Maumelle","state_name":"Arkansas","lat":34.85926,"lng":-92.39875,"zip":"72113","miles_from_dt":15.63},{"city":"Little Rock Air Force Base","state_name":"Arkansas","lat":34.90103,"lng":-92.15202,"zip":"72099","miles_from_dt":16.27},{"city":"Redfield","state_name":"Arkansas","lat":34.44,"lng":-92.19468,"zip":"72132","miles_from_dt":16.43},{"city":"Little Rock","state_name":"Arkansas","lat":34.79251,"lng":-92.49091,"zip":"72223","miles_from_dt":16.52},{"city":"Alexander","state_name":"Arkansas","lat":34.6646,"lng":-92.5362,"zip":"72002","miles_from_dt":17.04},{"city":"Jacksonville","state_name":"Arkansas","lat":34.91072,"lng":-92.14303,"zip":"72076","miles_from_dt":17.06},{"city":"Bauxite","state_name":"Arkansas","lat":34.50967,"lng":-92.46628,"zip":"72011","miles_from_dt":17.36},{"city":"Little Rock","state_name":"Arkansas","lat":34.79304,"lng":-92.536,"zip":"72221","miles_from_dt":18.82},{"city":"England","state_name":"Arkansas","lat":34.55542,"lng":-91.9403,"zip":"72046","miles_from_dt":18.85},{"city":"Wright","state_name":"Arkansas","lat":34.43161,"lng":-92.08721,"zip":"72182","miles_from_dt":18.88},{"city":"Jefferson","state_name":"Arkansas","lat":34.38958,"lng":-92.19919,"zip":"72079","miles_from_dt":19.85},{"city":"Benton","state_name":"Arkansas","lat":34.56921,"lng":-92.57891,"zip":"72158","miles_from_dt":20.8},{"city":"Lonoke","state_name":"Arkansas","lat":34.80418,"lng":-91.90619,"zip":"72086","miles_from_dt":20.82},{"city":"Benton","state_name":"Arkansas","lat":34.56274,"lng":-92.58616,"zip":"72018","miles_from_dt":21.35},{"city":"Cabot","state_name":"Arkansas","lat":34.95909,"lng":-92.05925,"zip":"72023","miles_from_dt":22},{"city":"Tucker","state_name":"Arkansas","lat":34.43719,"lng":-91.96771,"zip":"72168","miles_from_dt":22.51},{"city":"Coy","state_name":"Arkansas","lat":34.53778,"lng":-91.8739,"zip":"72037","miles_from_dt":22.79},{"city":"Roland","state_name":"Arkansas","lat":34.87698,"lng":-92.56087,"zip":"72135","miles_from_dt":23.04},{"city":"Benton","state_name":"Arkansas","lat":34.49298,"lng":-92.58974,"zip":"72015","miles_from_dt":23.71},{"city":"Mayflower","state_name":"Arkansas","lat":34.96997,"lng":-92.48727,"zip":"72106","miles_from_dt":24.76},{"city":"Benton","state_name":"Arkansas","lat":34.63498,"lng":-92.69926,"zip":"72019","miles_from_dt":26.46},{"city":"Sherrill","state_name":"Arkansas","lat":34.35194,"lng":-91.98009,"zip":"72152","miles_from_dt":26.71},{"city":"Austin","state_name":"Arkansas","lat":35.0004,"lng":-91.97902,"zip":"72007","miles_from_dt":26.77},{"city":"Sheridan","state_name":"Arkansas","lat":34.30999,"lng":-92.39642,"zip":"72150","miles_from_dt":26.8},{"city":"White Hall","state_name":"Arkansas","lat":34.27463,"lng":-92.13302,"zip":"71602","miles_from_dt":28.28},{"city":"Carlisle","state_name":"Arkansas","lat":34.75168,"lng":-91.74902,"zip":"72024","miles_from_dt":28.28},{"city":"Conway","state_name":"Arkansas","lat":35.07393,"lng":-92.36451,"zip":"72032","miles_from_dt":28.38},{"city":"Conway","state_name":"Arkansas","lat":35.08248,"lng":-92.37509,"zip":"72033","miles_from_dt":29.11},{"city":"Vilonia","state_name":"Arkansas","lat":35.10001,"lng":-92.20807,"zip":"72173","miles_from_dt":29.29},{"city":"Conway","state_name":"Arkansas","lat":35.05405,"lng":-92.47945,"zip":"72034","miles_from_dt":29.48},{"city":"Traskwood","state_name":"Arkansas","lat":34.42223,"lng":-92.65477,"zip":"72167","miles_from_dt":29.53},{"city":"Humnoke","state_name":"Arkansas","lat":34.51279,"lng":-91.75802,"zip":"72072","miles_from_dt":29.54}],"targetCityZipCode":"72164","targetCityState":"Arkansas"},"__N_SSG":true}