{"pageProps":{"stateName":"Arkansas","cityName":"thornton","nearbyCities":[{"city":"Fordyce","state_name":"Arkansas","lat":33.83435,"lng":-92.44545,"zip":"71742","miles_from_dt":7.51},{"city":"Bearden","state_name":"Arkansas","lat":33.79075,"lng":-92.64163,"zip":"71720","miles_from_dt":8.87},{"city":"Ivan","state_name":"Arkansas","lat":33.90296,"lng":-92.43322,"zip":"71748","miles_from_dt":12.16},{"city":"Kingsland","state_name":"Arkansas","lat":33.89338,"lng":-92.31562,"zip":"71652","miles_from_dt":15.24},{"city":"Hampton","state_name":"Arkansas","lat":33.49201,"lng":-92.47536,"zip":"71744","miles_from_dt":16.9},{"city":"Banks","state_name":"Arkansas","lat":33.58205,"lng":-92.26415,"zip":"71631","miles_from_dt":17.35},{"city":"Harrell","state_name":"Arkansas","lat":33.4997,"lng":-92.39496,"zip":"71745","miles_from_dt":17.43},{"city":"New Edinburg","state_name":"Arkansas","lat":33.7627,"lng":-92.19728,"zip":"71660","miles_from_dt":17.64},{"city":"Carthage","state_name":"Arkansas","lat":34.03791,"lng":-92.53252,"zip":"71725","miles_from_dt":20.87},{"city":"Camden","state_name":"Arkansas","lat":33.57837,"lng":-92.81309,"zip":"71701","miles_from_dt":20.97},{"city":"Sparkman","state_name":"Arkansas","lat":33.90885,"lng":-92.80648,"zip":"71763","miles_from_dt":21.17},{"city":"Camden","state_name":"Arkansas","lat":33.58194,"lng":-92.83404,"zip":"71711","miles_from_dt":21.89},{"city":"Warren","state_name":"Arkansas","lat":33.60652,"lng":-92.10006,"zip":"71671","miles_from_dt":24.83},{"city":"Rison","state_name":"Arkansas","lat":33.93812,"lng":-92.13163,"zip":"71665","miles_from_dt":25.45},{"city":"Louann","state_name":"Arkansas","lat":33.40835,"lng":-92.77252,"zip":"71751","miles_from_dt":27.46},{"city":"Calion","state_name":"Arkansas","lat":33.326,"lng":-92.54053,"zip":"71724","miles_from_dt":28.36},{"city":"Chidester","state_name":"Arkansas","lat":33.68016,"lng":-92.99584,"zip":"71726","miles_from_dt":28.7},{"city":"Leola","state_name":"Arkansas","lat":34.13687,"lng":-92.6887,"zip":"72084","miles_from_dt":29.62}],"targetCityZipCode":"71766","targetCityState":"Arkansas"},"__N_SSG":true}