{"pageProps":{"stateName":"Arkansas","cityName":"ulm","nearbyCities":[{"city":"Roe","state_name":"Arkansas","lat":34.61189,"lng":-91.37247,"zip":"72134","miles_from_dt":3.86},{"city":"Casscoe","state_name":"Arkansas","lat":34.51397,"lng":-91.31687,"zip":"72026","miles_from_dt":7.66},{"city":"De Valls Bluff","state_name":"Arkansas","lat":34.73348,"lng":-91.46812,"zip":"72041","miles_from_dt":10.96},{"city":"Stuttgart","state_name":"Arkansas","lat":34.44284,"lng":-91.53136,"zip":"72160","miles_from_dt":11.08},{"city":"Clarendon","state_name":"Arkansas","lat":34.71029,"lng":-91.27679,"zip":"72029","miles_from_dt":12.48},{"city":"Almyra","state_name":"Arkansas","lat":34.38276,"lng":-91.40754,"zip":"72003","miles_from_dt":13.51},{"city":"Crocketts Bluff","state_name":"Arkansas","lat":34.44606,"lng":-91.2349,"zip":"72038","miles_from_dt":14.23},{"city":"Holly Grove","state_name":"Arkansas","lat":34.53904,"lng":-91.13242,"zip":"72069","miles_from_dt":16.99},{"city":"Hazen","state_name":"Arkansas","lat":34.79457,"lng":-91.61226,"zip":"72064","miles_from_dt":18.28},{"city":"Humnoke","state_name":"Arkansas","lat":34.51279,"lng":-91.75802,"zip":"72072","miles_from_dt":19.44},{"city":"Humphrey","state_name":"Arkansas","lat":34.36529,"lng":-91.65251,"zip":"72073","miles_from_dt":19.54},{"city":"Monroe","state_name":"Arkansas","lat":34.72803,"lng":-91.10349,"zip":"72108","miles_from_dt":21.1},{"city":"Saint Charles","state_name":"Arkansas","lat":34.36052,"lng":-91.1549,"zip":"72140","miles_from_dt":21.58},{"city":"Biscoe","state_name":"Arkansas","lat":34.89215,"lng":-91.40714,"zip":"72017","miles_from_dt":21.67},{"city":"Carlisle","state_name":"Arkansas","lat":34.75168,"lng":-91.74902,"zip":"72024","miles_from_dt":21.92},{"city":"De Witt","state_name":"Arkansas","lat":34.26937,"lng":-91.31567,"zip":"72042","miles_from_dt":22.21},{"city":"Turner","state_name":"Arkansas","lat":34.49117,"lng":-91.03962,"zip":"72383","miles_from_dt":22.87},{"city":"Brinkley","state_name":"Arkansas","lat":34.85953,"lng":-91.21193,"zip":"72021","miles_from_dt":22.92},{"city":"Wabbaseka","state_name":"Arkansas","lat":34.33792,"lng":-91.75495,"zip":"72175","miles_from_dt":25.02},{"city":"Coy","state_name":"Arkansas","lat":34.53778,"lng":-91.8739,"zip":"72037","miles_from_dt":25.66},{"city":"Marvell","state_name":"Arkansas","lat":34.52612,"lng":-90.95307,"zip":"72366","miles_from_dt":27.24},{"city":"Des Arc","state_name":"Arkansas","lat":34.96957,"lng":-91.52129,"zip":"72040","miles_from_dt":27.51},{"city":"Moro","state_name":"Arkansas","lat":34.81146,"lng":-91.01996,"zip":"72368","miles_from_dt":28.19},{"city":"Altheimer","state_name":"Arkansas","lat":34.29722,"lng":-91.7856,"zip":"72004","miles_from_dt":28.21},{"city":"Ethel","state_name":"Arkansas","lat":34.23436,"lng":-91.12433,"zip":"72048","miles_from_dt":29.32},{"city":"England","state_name":"Arkansas","lat":34.55542,"lng":-91.9403,"zip":"72046","miles_from_dt":29.34},{"city":"Lambrook","state_name":"Arkansas","lat":34.3162,"lng":-91.00708,"zip":"72353","miles_from_dt":30}],"targetCityZipCode":"72170","targetCityState":"Arkansas"},"__N_SSG":true}