{"pageProps":{"stateName":"Arkansas","cityName":"vilonia","nearbyCities":[{"city":"Enola","state_name":"Arkansas","lat":35.22809,"lng":-92.21055,"zip":"72047","miles_from_dt":8.83},{"city":"El Paso","state_name":"Arkansas","lat":35.12618,"lng":-92.05483,"zip":"72045","miles_from_dt":8.87},{"city":"Conway","state_name":"Arkansas","lat":35.07393,"lng":-92.36451,"zip":"72032","miles_from_dt":9.04},{"city":"Conway","state_name":"Arkansas","lat":35.08248,"lng":-92.37509,"zip":"72033","miles_from_dt":9.54},{"city":"Mount Vernon","state_name":"Arkansas","lat":35.23688,"lng":-92.13307,"zip":"72111","miles_from_dt":10.35},{"city":"Cabot","state_name":"Arkansas","lat":34.95909,"lng":-92.05925,"zip":"72023","miles_from_dt":12.87},{"city":"Greenbrier","state_name":"Arkansas","lat":35.24273,"lng":-92.36998,"zip":"72058","miles_from_dt":13.45},{"city":"Jacksonville","state_name":"Arkansas","lat":34.91072,"lng":-92.14303,"zip":"72076","miles_from_dt":13.56},{"city":"Little Rock Air Force Base","state_name":"Arkansas","lat":34.90103,"lng":-92.15202,"zip":"72099","miles_from_dt":14.08},{"city":"Wooster","state_name":"Arkansas","lat":35.16237,"lng":-92.44503,"zip":"72181","miles_from_dt":14.09},{"city":"Sherwood","state_name":"Arkansas","lat":34.89776,"lng":-92.24431,"zip":"72120","miles_from_dt":14.09},{"city":"Romance","state_name":"Arkansas","lat":35.23538,"lng":-92.02129,"zip":"72136","miles_from_dt":14.1},{"city":"Conway","state_name":"Arkansas","lat":35.07902,"lng":-92.45829,"zip":"72035","miles_from_dt":14.25},{"city":"Austin","state_name":"Arkansas","lat":35.0004,"lng":-91.97902,"zip":"72007","miles_from_dt":14.69},{"city":"Conway","state_name":"Arkansas","lat":35.05405,"lng":-92.47945,"zip":"72034","miles_from_dt":15.7},{"city":"Guy","state_name":"Arkansas","lat":35.32437,"lng":-92.28992,"zip":"72061","miles_from_dt":16.15},{"city":"Beebe","state_name":"Arkansas","lat":35.10199,"lng":-91.91789,"zip":"72012","miles_from_dt":16.44},{"city":"Jacksonville","state_name":"Arkansas","lat":34.86416,"lng":-92.12249,"zip":"72078","miles_from_dt":16.97},{"city":"Mayflower","state_name":"Arkansas","lat":34.96997,"lng":-92.48727,"zip":"72106","miles_from_dt":18.19},{"city":"North Little Rock","state_name":"Arkansas","lat":34.8369,"lng":-92.29505,"zip":"72119","miles_from_dt":18.8},{"city":"Little Rock","state_name":"Arkansas","lat":34.82589,"lng":-92.21691,"zip":"72216","miles_from_dt":18.9},{"city":"Menifee","state_name":"Arkansas","lat":35.14255,"lng":-92.53844,"zip":"72107","miles_from_dt":18.94},{"city":"North Little Rock","state_name":"Arkansas","lat":34.83872,"lng":-92.32694,"zip":"72118","miles_from_dt":19.23},{"city":"Rose Bud","state_name":"Arkansas","lat":35.33756,"lng":-92.02933,"zip":"72137","miles_from_dt":19.25},{"city":"North Little Rock","state_name":"Arkansas","lat":34.82816,"lng":-92.28608,"zip":"72199","miles_from_dt":19.26},{"city":"Maumelle","state_name":"Arkansas","lat":34.85926,"lng":-92.39875,"zip":"72113","miles_from_dt":19.81},{"city":"North Little Rock","state_name":"Arkansas","lat":34.81133,"lng":-92.23488,"zip":"72124","miles_from_dt":19.96},{"city":"North Little Rock","state_name":"Arkansas","lat":34.80025,"lng":-92.24505,"zip":"72116","miles_from_dt":20.77},{"city":"Damascus","state_name":"Arkansas","lat":35.35636,"lng":-92.40338,"zip":"72039","miles_from_dt":20.84},{"city":"North Little Rock","state_name":"Arkansas","lat":34.7981,"lng":-92.25602,"zip":"72190","miles_from_dt":20.99},{"city":"Quitman","state_name":"Arkansas","lat":35.40792,"lng":-92.19362,"zip":"72131","miles_from_dt":21.24},{"city":"McRae","state_name":"Arkansas","lat":35.14556,"lng":-91.83352,"zip":"72102","miles_from_dt":21.45},{"city":"Ward","state_name":"Arkansas","lat":35.00279,"lng":-91.84212,"zip":"72176","miles_from_dt":21.8},{"city":"Plumerville","state_name":"Arkansas","lat":35.16237,"lng":-92.59419,"zip":"72127","miles_from_dt":22.29},{"city":"North Little Rock","state_name":"Arkansas","lat":34.78076,"lng":-92.14548,"zip":"72117","miles_from_dt":22.29},{"city":"Little Rock","state_name":"Arkansas","lat":34.77589,"lng":-92.27715,"zip":"72214","miles_from_dt":22.68},{"city":"North Little Rock","state_name":"Arkansas","lat":34.76629,"lng":-92.25907,"zip":"72115","miles_from_dt":23.19},{"city":"North Little Rock","state_name":"Arkansas","lat":34.7645,"lng":-92.26024,"zip":"72114","miles_from_dt":23.32},{"city":"Springfield","state_name":"Arkansas","lat":35.2714,"lng":-92.56412,"zip":"72157","miles_from_dt":23.36},{"city":"Little Rock","state_name":"Arkansas","lat":34.77493,"lng":-92.34271,"zip":"72207","miles_from_dt":23.68},{"city":"Little Rock","state_name":"Arkansas","lat":34.77592,"lng":-92.35763,"zip":"72217","miles_from_dt":23.9},{"city":"Little Rock","state_name":"Arkansas","lat":34.7782,"lng":-92.37498,"zip":"72227","miles_from_dt":24.12},{"city":"Garner","state_name":"Arkansas","lat":35.13965,"lng":-91.78097,"zip":"72052","miles_from_dt":24.35},{"city":"Little Rock","state_name":"Arkansas","lat":34.75,"lng":-92.28219,"zip":"72260","miles_from_dt":24.49},{"city":"Little Rock","state_name":"Arkansas","lat":34.75792,"lng":-92.32695,"zip":"72255","miles_from_dt":24.53},{"city":"Little Rock","state_name":"Arkansas","lat":34.74626,"lng":-92.27016,"zip":"72202","miles_from_dt":24.64},{"city":"Little Rock","state_name":"Arkansas","lat":34.74725,"lng":-92.28053,"zip":"72201","miles_from_dt":24.66},{"city":"Little Rock","state_name":"Arkansas","lat":34.78498,"lng":-92.4141,"zip":"72212","miles_from_dt":24.67},{"city":"Little Rock","state_name":"Arkansas","lat":34.74626,"lng":-92.27666,"zip":"72231","miles_from_dt":24.69},{"city":"Little Rock","state_name":"Arkansas","lat":34.74571,"lng":-92.27978,"zip":"72295","miles_from_dt":24.76},{"city":"Little Rock","state_name":"Arkansas","lat":34.75307,"lng":-92.347,"zip":"72215","miles_from_dt":25.18},{"city":"Roland","state_name":"Arkansas","lat":34.87698,"lng":-92.56087,"zip":"72135","miles_from_dt":25.24},{"city":"Little Rock","state_name":"Arkansas","lat":34.7528,"lng":-92.34919,"zip":"72225","miles_from_dt":25.24},{"city":"Bigelow","state_name":"Arkansas","lat":34.97702,"lng":-92.62763,"zip":"72016","miles_from_dt":25.25},{"city":"Little Rock","state_name":"Arkansas","lat":34.74948,"lng":-92.3524,"zip":"72205","miles_from_dt":25.52},{"city":"Bee Branch","state_name":"Arkansas","lat":35.45709,"lng":-92.3644,"zip":"72013","miles_from_dt":26.15},{"city":"Little Rock","state_name":"Arkansas","lat":34.79251,"lng":-92.49091,"zip":"72223","miles_from_dt":26.59},{"city":"Lonoke","state_name":"Arkansas","lat":34.80418,"lng":-91.90619,"zip":"72086","miles_from_dt":26.64},{"city":"Little Rock","state_name":"Arkansas","lat":34.74792,"lng":-92.41675,"zip":"72211","miles_from_dt":27.01},{"city":"Little Rock","state_name":"Arkansas","lat":34.72453,"lng":-92.3537,"zip":"72222","miles_from_dt":27.17},{"city":"College Station","state_name":"Arkansas","lat":34.70579,"lng":-92.22852,"zip":"72053","miles_from_dt":27.2},{"city":"Heber Springs","state_name":"Arkansas","lat":35.45528,"lng":-91.99407,"zip":"72543","miles_from_dt":27.32},{"city":"Little Rock","state_name":"Arkansas","lat":34.71739,"lng":-92.3582,"zip":"72204","miles_from_dt":27.72},{"city":"Center Ridge","state_name":"Arkansas","lat":35.37021,"lng":-92.57494,"zip":"72027","miles_from_dt":27.88},{"city":"Heber Springs","state_name":"Arkansas","lat":35.48791,"lng":-92.05573,"zip":"72545","miles_from_dt":28.09},{"city":"Searcy","state_name":"Arkansas","lat":35.2279,"lng":-91.73613,"zip":"72143","miles_from_dt":28.13},{"city":"Little Rock","state_name":"Arkansas","lat":34.79304,"lng":-92.536,"zip":"72221","miles_from_dt":28.18},{"city":"Higginson","state_name":"Arkansas","lat":35.15766,"lng":-91.71547,"zip":"72068","miles_from_dt":28.18},{"city":"Letona","state_name":"Arkansas","lat":35.36665,"lng":-91.82772,"zip":"72085","miles_from_dt":28.3},{"city":"Searcy","state_name":"Arkansas","lat":35.25209,"lng":-91.74286,"zip":"72145","miles_from_dt":28.34},{"city":"Houston","state_name":"Arkansas","lat":35.01346,"lng":-92.6995,"zip":"72070","miles_from_dt":28.49},{"city":"Hickory Plains","state_name":"Arkansas","lat":34.98141,"lng":-91.7171,"zip":"72066","miles_from_dt":29.01},{"city":"Searcy","state_name":"Arkansas","lat":35.24748,"lng":-91.72668,"zip":"72149","miles_from_dt":29.08},{"city":"Sweet Home","state_name":"Arkansas","lat":34.67575,"lng":-92.23735,"zip":"72164","miles_from_dt":29.29},{"city":"Solgohachia","state_name":"Arkansas","lat":35.28595,"lng":-92.68331,"zip":"72156","miles_from_dt":29.79},{"city":"Little Rock","state_name":"Arkansas","lat":34.6805,"lng":-92.33974,"zip":"72209","miles_from_dt":29.87},{"city":"Little Rock","state_name":"Arkansas","lat":34.68093,"lng":-92.3472,"zip":"72219","miles_from_dt":29.95}],"targetCityZipCode":"72173","targetCityState":"Arkansas"},"__N_SSG":true}