{"pageProps":{"stateName":"Montana","cityName":"grantsdale","nearbyCities":[{"city":"Hamilton","state_name":"Montana","lat":46.17558,"lng":-114.11674,"zip":"59840","miles_from_dt":2.14},{"city":"Pinesdale","state_name":"Montana","lat":46.33384,"lng":-114.22319,"zip":"59841","miles_from_dt":9.96},{"city":"Corvallis","state_name":"Montana","lat":46.33478,"lng":-113.96444,"zip":"59828","miles_from_dt":12.58},{"city":"Victor","state_name":"Montana","lat":46.40793,"lng":-114.26151,"zip":"59875","miles_from_dt":15.39},{"city":"Conner","state_name":"Montana","lat":45.88649,"lng":-114.08346,"zip":"59827","miles_from_dt":21.9},{"city":"Stevensville","state_name":"Montana","lat":46.51596,"lng":-114.0618,"zip":"59870","miles_from_dt":22.1},{"city":"Sula","state_name":"Montana","lat":45.89666,"lng":-113.81366,"zip":"59871","miles_from_dt":26.3},{"city":"Darby","state_name":"Montana","lat":45.79814,"lng":-114.2614,"zip":"59829","miles_from_dt":28.4}],"targetCityZipCode":"59835","targetCityState":"Montana"},"__N_SSG":true}