{"pageProps":{"stateName":"Montana","cityName":"missoula","nearbyCities":[{"city":"Missoula","state_name":"Montana","lat":46.86121,"lng":-113.98442,"zip":"59812","miles_from_dt":1.29},{"city":"Missoula","state_name":"Montana","lat":46.90569,"lng":-113.92077,"zip":"59802","miles_from_dt":5.49},{"city":"Missoula","state_name":"Montana","lat":46.77781,"lng":-113.95826,"zip":"59803","miles_from_dt":5.87},{"city":"Milltown","state_name":"Montana","lat":46.87215,"lng":-113.87348,"zip":"59851","miles_from_dt":6.58},{"city":"Missoula","state_name":"Montana","lat":46.91629,"lng":-114.15201,"zip":"59806","miles_from_dt":7.94},{"city":"Missoula","state_name":"Montana","lat":46.96867,"lng":-113.96746,"zip":"59807","miles_from_dt":8.1},{"city":"Missoula","state_name":"Montana","lat":46.97984,"lng":-114.064,"zip":"59808","miles_from_dt":8.99},{"city":"Missoula","state_name":"Montana","lat":46.90084,"lng":-114.25066,"zip":"59804","miles_from_dt":11.83},{"city":"Florence","state_name":"Montana","lat":46.64437,"lng":-114.07678,"zip":"59833","miles_from_dt":14.89},{"city":"Frenchtown","state_name":"Montana","lat":47.06979,"lng":-114.2221,"zip":"59834","miles_from_dt":17.9},{"city":"Lolo","state_name":"Montana","lat":46.73105,"lng":-114.37782,"zip":"59847","miles_from_dt":19.43},{"city":"Bonner","state_name":"Montana","lat":46.96334,"lng":-113.59753,"zip":"59823","miles_from_dt":20.91},{"city":"Clinton","state_name":"Montana","lat":46.66009,"lng":-113.66421,"zip":"59825","miles_from_dt":21.24},{"city":"Arlee","state_name":"Montana","lat":47.17603,"lng":-114.00431,"zip":"59821","miles_from_dt":22.17},{"city":"Stevensville","state_name":"Montana","lat":46.51596,"lng":-114.0618,"zip":"59870","miles_from_dt":23.55},{"city":"Alberton","state_name":"Montana","lat":46.89803,"lng":-114.61474,"zip":"59820","miles_from_dt":28.79}],"targetCityZipCode":"59801","targetCityState":"Montana"},"__N_SSG":true}