{"pageProps":{"stateName":"Montana","cityName":"pablo","nearbyCities":[{"city":"Ronan","state_name":"Montana","lat":47.53324,"lng":-114.11741,"zip":"59864","miles_from_dt":4.63},{"city":"Polson","state_name":"Montana","lat":47.71314,"lng":-114.17832,"zip":"59860","miles_from_dt":8.29},{"city":"Charlo","state_name":"Montana","lat":47.41817,"lng":-114.20362,"zip":"59824","miles_from_dt":13.21},{"city":"Big Arm","state_name":"Montana","lat":47.82409,"lng":-114.23271,"zip":"59910","miles_from_dt":16.36},{"city":"Saint Ignatius","state_name":"Montana","lat":47.33184,"lng":-114.0045,"zip":"59865","miles_from_dt":19.29},{"city":"Dayton","state_name":"Montana","lat":47.86878,"lng":-114.29546,"zip":"59914","miles_from_dt":20.31},{"city":"Elmo","state_name":"Montana","lat":47.82025,"lng":-114.41124,"zip":"59915","miles_from_dt":20.44},{"city":"Hot Springs","state_name":"Montana","lat":47.65892,"lng":-114.54734,"zip":"59845","miles_from_dt":20.46},{"city":"Bigfork","state_name":"Montana","lat":47.86041,"lng":-113.88552,"zip":"59911","miles_from_dt":20.98},{"city":"Ravalli","state_name":"Montana","lat":47.29397,"lng":-114.17637,"zip":"59863","miles_from_dt":21.34},{"city":"Condon","state_name":"Montana","lat":47.46339,"lng":-113.69827,"zip":"59826","miles_from_dt":21.79},{"city":"Rollins","state_name":"Montana","lat":47.9208,"lng":-114.25486,"zip":"59931","miles_from_dt":23.04},{"city":"Dixon","state_name":"Montana","lat":47.27732,"lng":-114.36296,"zip":"59831","miles_from_dt":25.1},{"city":"Proctor","state_name":"Montana","lat":47.92365,"lng":-114.40272,"zip":"59929","miles_from_dt":25.98},{"city":"Lonepine","state_name":"Montana","lat":47.71526,"lng":-114.68162,"zip":"59848","miles_from_dt":27.49},{"city":"Lakeside","state_name":"Montana","lat":47.99962,"lng":-114.22227,"zip":"59922","miles_from_dt":28.01},{"city":"Arlee","state_name":"Montana","lat":47.17603,"lng":-114.00431,"zip":"59821","miles_from_dt":29.79}],"targetCityZipCode":"59855","targetCityState":"Montana"},"__N_SSG":true}