{"pageProps":{"stateName":"Montana","cityName":"pompeys-pillar","nearbyCities":[{"city":"Ballantine","state_name":"Montana","lat":45.90755,"lng":-108.08535,"zip":"59006","miles_from_dt":10.44},{"city":"Hardin","state_name":"Montana","lat":45.70121,"lng":-107.7078,"zip":"59034","miles_from_dt":14.69},{"city":"Huntley","state_name":"Montana","lat":45.852,"lng":-108.20927,"zip":"59037","miles_from_dt":16.37},{"city":"Worden","state_name":"Montana","lat":46.13006,"lng":-108.02933,"zip":"59088","miles_from_dt":18.84},{"city":"Custer","state_name":"Montana","lat":46.20549,"lng":-107.71464,"zip":"59024","miles_from_dt":23.72},{"city":"Shepherd","state_name":"Montana","lat":46.0607,"lng":-108.36718,"zip":"59079","miles_from_dt":26.89},{"city":"Bighorn","state_name":"Montana","lat":45.97505,"lng":-107.3037,"zip":"59010","miles_from_dt":28.18},{"city":"Billings","state_name":"Montana","lat":45.63794,"lng":-108.36133,"zip":"59103","miles_from_dt":28.95},{"city":"Billings","state_name":"Montana","lat":45.63416,"lng":-108.36105,"zip":"59111","miles_from_dt":29.09},{"city":"Billings","state_name":"Montana","lat":45.63013,"lng":-108.36445,"zip":"59101","miles_from_dt":29.39}],"targetCityZipCode":"59064","targetCityState":"Montana"},"__N_SSG":true}