{"pageProps":{"stateName":"Montana","cityName":"somers","nearbyCities":[{"city":"Lakeside","state_name":"Montana","lat":47.99962,"lng":-114.22227,"zip":"59922","miles_from_dt":3.67},{"city":"Rollins","state_name":"Montana","lat":47.9208,"lng":-114.25486,"zip":"59931","miles_from_dt":8.95},{"city":"Kalispell","state_name":"Montana","lat":48.19452,"lng":-114.31226,"zip":"59904","miles_from_dt":10.43},{"city":"Kalispell","state_name":"Montana","lat":48.19303,"lng":-114.35788,"zip":"59903","miles_from_dt":11.14},{"city":"Proctor","state_name":"Montana","lat":47.92365,"lng":-114.40272,"zip":"59929","miles_from_dt":11.36},{"city":"Dayton","state_name":"Montana","lat":47.86878,"lng":-114.29546,"zip":"59914","miles_from_dt":12.74},{"city":"Kila","state_name":"Montana","lat":48.06412,"lng":-114.53464,"zip":"59920","miles_from_dt":13.39},{"city":"Kalispell","state_name":"Montana","lat":48.22873,"lng":-114.40564,"zip":"59901","miles_from_dt":14.37},{"city":"Big Arm","state_name":"Montana","lat":47.82409,"lng":-114.23271,"zip":"59910","miles_from_dt":15.63},{"city":"Elmo","state_name":"Montana","lat":47.82025,"lng":-114.41124,"zip":"59915","miles_from_dt":17.64},{"city":"Bigfork","state_name":"Montana","lat":47.86041,"lng":-113.88552,"zip":"59911","miles_from_dt":21.27},{"city":"Polson","state_name":"Montana","lat":47.71314,"lng":-114.17832,"zip":"59860","miles_from_dt":23.5},{"city":"Hungry Horse","state_name":"Montana","lat":48.3776,"lng":-114.05645,"zip":"59919","miles_from_dt":24.26},{"city":"Martin City","state_name":"Montana","lat":48.36294,"lng":-114.00459,"zip":"59926","miles_from_dt":24.32},{"city":"Marion","state_name":"Montana","lat":48.04732,"lng":-114.83045,"zip":"59925","miles_from_dt":27.06},{"city":"Columbia Falls","state_name":"Montana","lat":48.43879,"lng":-114.16898,"zip":"59912","miles_from_dt":27.08},{"city":"Coram","state_name":"Montana","lat":48.41391,"lng":-113.95045,"zip":"59913","miles_from_dt":28.6},{"city":"Whitefish","state_name":"Montana","lat":48.43893,"lng":-114.49769,"zip":"59937","miles_from_dt":29.26}],"targetCityZipCode":"59932","targetCityState":"Montana"},"__N_SSG":true}