{"pageProps":{"stateName":"New-hampshire","cityName":"jefferson","nearbyCities":[{"city":"Mount Washington","state_name":"New Hampshire","lat":44.34785,"lng":-71.55185,"zip":"03589","miles_from_dt":5.93},{"city":"Lancaster","state_name":"New Hampshire","lat":44.48696,"lng":-71.54278,"zip":"03584","miles_from_dt":7.23},{"city":"Twin Mountain","state_name":"New Hampshire","lat":44.30616,"lng":-71.527,"zip":"03595","miles_from_dt":7.41},{"city":"Bretton Woods","state_name":"New Hampshire","lat":44.28946,"lng":-71.41722,"zip":"03575","miles_from_dt":8},{"city":"Whitefield","state_name":"New Hampshire","lat":44.37998,"lng":-71.63179,"zip":"03598","miles_from_dt":8.72},{"city":"Randolph","state_name":"New Hampshire","lat":44.29816,"lng":-71.31774,"zip":"03593","miles_from_dt":9.97},{"city":"Bethlehem","state_name":"New Hampshire","lat":44.25386,"lng":-71.59924,"zip":"03574","miles_from_dt":12.36},{"city":"Gilman","state_name":"Vermont","lat":44.41597,"lng":-71.70762,"zip":"05904","miles_from_dt":12.38},{"city":"Groveton","state_name":"New Hampshire","lat":44.59777,"lng":-71.43703,"zip":"03582","miles_from_dt":13.59},{"city":"Lunenburg","state_name":"Vermont","lat":44.47431,"lng":-71.71538,"zip":"05906","miles_from_dt":13.68},{"city":"Berlin","state_name":"New Hampshire","lat":44.49953,"lng":-71.20396,"zip":"03570","miles_from_dt":14.29},{"city":"Gorham","state_name":"New Hampshire","lat":44.34227,"lng":-71.13413,"zip":"03581","miles_from_dt":16.57},{"city":"Milan","state_name":"New Hampshire","lat":44.60545,"lng":-71.23204,"zip":"03588","miles_from_dt":17.98},{"city":"Littleton","state_name":"New Hampshire","lat":44.33222,"lng":-71.80973,"zip":"03561","miles_from_dt":18.05},{"city":"North Concord","state_name":"Vermont","lat":44.53587,"lng":-71.8046,"zip":"05858","miles_from_dt":19.48},{"city":"Franconia","state_name":"New Hampshire","lat":44.17347,"lng":-71.69519,"zip":"03580","miles_from_dt":19.64},{"city":"Granby","state_name":"Vermont","lat":44.61297,"lng":-71.73129,"zip":"05840","miles_from_dt":19.88},{"city":"Jackson","state_name":"New Hampshire","lat":44.18445,"lng":-71.18899,"zip":"03846","miles_from_dt":20.07},{"city":"Concord","state_name":"Vermont","lat":44.43741,"lng":-71.86449,"zip":"05824","miles_from_dt":20.25},{"city":"Sugar Hill","state_name":"New Hampshire","lat":44.22058,"lng":-71.7963,"zip":"03586","miles_from_dt":20.9},{"city":"Lower Waterford","state_name":"Vermont","lat":44.35558,"lng":-71.90806,"zip":"05848","miles_from_dt":22.5},{"city":"Glen","state_name":"New Hampshire","lat":44.11257,"lng":-71.24036,"zip":"03838","miles_from_dt":22.69},{"city":"Guildhall","state_name":"Vermont","lat":44.70151,"lng":-71.66672,"zip":"05905","miles_from_dt":23.13},{"city":"West Stewartstown","state_name":"New Hampshire","lat":44.73439,"lng":-71.38243,"zip":"03597","miles_from_dt":23.29},{"city":"Bartlett","state_name":"New Hampshire","lat":44.08148,"lng":-71.29643,"zip":"03812","miles_from_dt":23.51},{"city":"North Stratford","state_name":"New Hampshire","lat":44.74195,"lng":-71.51485,"zip":"03590","miles_from_dt":23.67},{"city":"East Saint Johnsbury","state_name":"Vermont","lat":44.43944,"lng":-71.94369,"zip":"05838","miles_from_dt":24.16},{"city":"Lincoln","state_name":"New Hampshire","lat":44.0796,"lng":-71.65276,"zip":"03251","miles_from_dt":24.23},{"city":"Lisbon","state_name":"New Hampshire","lat":44.22538,"lng":-71.89703,"zip":"03585","miles_from_dt":24.92},{"city":"Waterville Valley","state_name":"New Hampshire","lat":44.03605,"lng":-71.48109,"zip":"03215","miles_from_dt":25.26},{"city":"East Burke","state_name":"Vermont","lat":44.59546,"lng":-71.91027,"zip":"05832","miles_from_dt":26.04},{"city":"Saint Johnsbury","state_name":"Vermont","lat":44.40397,"lng":-71.98837,"zip":"05819","miles_from_dt":26.24},{"city":"East Haven","state_name":"Vermont","lat":44.66868,"lng":-71.8386,"zip":"05837","miles_from_dt":26.33},{"city":"Intervale","state_name":"New Hampshire","lat":44.10317,"lng":-71.1271,"zip":"03845","miles_from_dt":26.35},{"city":"Saint Johnsbury Center","state_name":"Vermont","lat":44.4529,"lng":-72.01214,"zip":"05863","miles_from_dt":27.63},{"city":"Lyndon","state_name":"Vermont","lat":44.53289,"lng":-72.00029,"zip":"05849","miles_from_dt":28.29},{"city":"Kearsarge","state_name":"New Hampshire","lat":44.06875,"lng":-71.12162,"zip":"03847","miles_from_dt":28.41},{"city":"Passumpsic","state_name":"Vermont","lat":44.37735,"lng":-72.03142,"zip":"05861","miles_from_dt":28.42},{"city":"Monroe","state_name":"New Hampshire","lat":44.28443,"lng":-72.0098,"zip":"03771","miles_from_dt":28.5},{"city":"Newry","state_name":"Maine","lat":44.5631,"lng":-70.91907,"zip":"04261","miles_from_dt":28.9},{"city":"Center Conway","state_name":"New Hampshire","lat":44.09408,"lng":-71.04573,"zip":"03813","miles_from_dt":29.49},{"city":"West Bethel","state_name":"Maine","lat":44.4032,"lng":-70.86019,"zip":"04286","miles_from_dt":29.61},{"city":"North Conway","state_name":"New Hampshire","lat":44.0427,"lng":-71.12422,"zip":"03860","miles_from_dt":29.81},{"city":"Stoneham","state_name":"Maine","lat":44.26438,"lng":-70.88777,"zip":"04231","miles_from_dt":29.82}],"targetCityZipCode":"03583","targetCityState":"New Hampshire"},"__N_SSG":true}