{"pageProps":{"stateName":"Maryland","cityName":"childs","nearbyCities":[{"city":"Elkton","state_name":"Maryland","lat":39.62568,"lng":-75.85904,"zip":"21921","miles_from_dt":1.74},{"city":"Elk Mills","state_name":"Maryland","lat":39.65675,"lng":-75.83449,"zip":"21920","miles_from_dt":2.01},{"city":"Elkton","state_name":"Maryland","lat":39.60804,"lng":-75.83567,"zip":"21922","miles_from_dt":3.41},{"city":"Lewisville","state_name":"Pennsylvania","lat":39.72265,"lng":-75.8748,"zip":"19351","miles_from_dt":5.07},{"city":"North East","state_name":"Maryland","lat":39.58593,"lng":-75.95821,"zip":"21901","miles_from_dt":6.38},{"city":"Newark","state_name":"Delaware","lat":39.68121,"lng":-75.75343,"zip":"19717","miles_from_dt":6.64},{"city":"Newark","state_name":"Delaware","lat":39.66779,"lng":-75.74595,"zip":"19716","miles_from_dt":6.79},{"city":"Kemblesville","state_name":"Pennsylvania","lat":39.74633,"lng":-75.82436,"zip":"19347","miles_from_dt":7.15},{"city":"Newark","state_name":"Delaware","lat":39.68567,"lng":-75.73728,"zip":"19725","miles_from_dt":7.56},{"city":"New Castle","state_name":"Delaware","lat":39.68458,"lng":-75.73524,"zip":"19726","miles_from_dt":7.64},{"city":"Newark","state_name":"Delaware","lat":39.62199,"lng":-75.72803,"zip":"19702","miles_from_dt":7.85},{"city":"Charlestown","state_name":"Maryland","lat":39.57256,"lng":-75.98158,"zip":"21914","miles_from_dt":7.93},{"city":"Newark","state_name":"Delaware","lat":39.71416,"lng":-75.74145,"zip":"19714","miles_from_dt":8.23},{"city":"Newark","state_name":"Delaware","lat":39.71379,"lng":-75.74033,"zip":"19711","miles_from_dt":8.27},{"city":"Newark","state_name":"Delaware","lat":39.71404,"lng":-75.73776,"zip":"19715","miles_from_dt":8.39},{"city":"Newark","state_name":"Delaware","lat":39.68293,"lng":-75.71918,"zip":"19712","miles_from_dt":8.42},{"city":"Newark","state_name":"Delaware","lat":39.67097,"lng":-75.70972,"zip":"19713","miles_from_dt":8.73},{"city":"Landenberg","state_name":"Pennsylvania","lat":39.76244,"lng":-75.79528,"zip":"19350","miles_from_dt":8.79},{"city":"Newark","state_name":"Delaware","lat":39.6665,"lng":-75.70752,"zip":"19718","miles_from_dt":8.8},{"city":"New London","state_name":"Pennsylvania","lat":39.78001,"lng":-75.88005,"zip":"19360","miles_from_dt":9.04},{"city":"Lincoln University","state_name":"Pennsylvania","lat":39.78036,"lng":-75.89054,"zip":"19352","miles_from_dt":9.11},{"city":"Rising Sun","state_name":"Maryland","lat":39.68931,"lng":-76.03886,"zip":"21911","miles_from_dt":9.37},{"city":"Wilmington","state_name":"Delaware","lat":39.68227,"lng":-75.69312,"zip":"19891","miles_from_dt":9.75},{"city":"Bear","state_name":"Delaware","lat":39.58427,"lng":-75.69914,"zip":"19701","miles_from_dt":10.2},{"city":"Chesapeake City","state_name":"Maryland","lat":39.50095,"lng":-75.84764,"zip":"21915","miles_from_dt":10.3},{"city":"Perryville","state_name":"Maryland","lat":39.57274,"lng":-76.04378,"zip":"21903","miles_from_dt":10.62},{"city":"Oxford","state_name":"Pennsylvania","lat":39.7864,"lng":-75.97279,"zip":"19363","miles_from_dt":10.91},{"city":"Kelton","state_name":"Pennsylvania","lat":39.80935,"lng":-75.87654,"zip":"19346","miles_from_dt":11.05},{"city":"Port Deposit","state_name":"Maryland","lat":39.62303,"lng":-76.07812,"zip":"21904","miles_from_dt":11.2},{"city":"Perry Point","state_name":"Maryland","lat":39.55229,"lng":-76.06157,"zip":"21902","miles_from_dt":12.17},{"city":"Colora","state_name":"Maryland","lat":39.67106,"lng":-76.09823,"zip":"21917","miles_from_dt":12.21},{"city":"Wilmington","state_name":"Delaware","lat":39.73777,"lng":-75.66596,"zip":"19808","miles_from_dt":12.52},{"city":"Nottingham","state_name":"Pennsylvania","lat":39.75175,"lng":-76.06576,"zip":"19362","miles_from_dt":12.56},{"city":"West Grove","state_name":"Pennsylvania","lat":39.83683,"lng":-75.83962,"zip":"19390","miles_from_dt":13.05},{"city":"Avondale","state_name":"Pennsylvania","lat":39.82163,"lng":-75.76887,"zip":"19311","miles_from_dt":13.08},{"city":"Saint Georges","state_name":"Delaware","lat":39.55928,"lng":-75.65143,"zip":"19733","miles_from_dt":13.26},{"city":"Hockessin","state_name":"Delaware","lat":39.78512,"lng":-75.68147,"zip":"19707","miles_from_dt":13.78},{"city":"Wilmington","state_name":"Delaware","lat":39.6836,"lng":-75.61307,"zip":"19892","miles_from_dt":13.95},{"city":"New Castle","state_name":"Delaware","lat":39.645,"lng":-75.60678,"zip":"19720","miles_from_dt":14.09},{"city":"Wilmington","state_name":"Delaware","lat":39.7166,"lng":-75.62094,"zip":"19804","miles_from_dt":14.11},{"city":"Toughkenamon","state_name":"Pennsylvania","lat":39.83333,"lng":-75.75267,"zip":"19374","miles_from_dt":14.18},{"city":"Kirkwood","state_name":"Delaware","lat":39.49842,"lng":-75.68489,"zip":"19708","miles_from_dt":14.38},{"city":"Chatham","state_name":"Pennsylvania","lat":39.85597,"lng":-75.82292,"zip":"19318","miles_from_dt":14.49},{"city":"Middletown","state_name":"Delaware","lat":39.48923,"lng":-75.68314,"zip":"19709","miles_from_dt":14.91},{"city":"Yorklyn","state_name":"Delaware","lat":39.78031,"lng":-75.64274,"zip":"19736","miles_from_dt":15.15},{"city":"Cochranville","state_name":"Pennsylvania","lat":39.87359,"lng":-75.91695,"zip":"19330","miles_from_dt":15.67},{"city":"Warwick","state_name":"Maryland","lat":39.42486,"lng":-75.81607,"zip":"21912","miles_from_dt":15.75},{"city":"Havre De Grace","state_name":"Maryland","lat":39.56911,"lng":-76.14776,"zip":"21078","miles_from_dt":15.77},{"city":"Delaware City","state_name":"Delaware","lat":39.5715,"lng":-75.5905,"zip":"19706","miles_from_dt":15.9},{"city":"Conowingo","state_name":"Maryland","lat":39.68327,"lng":-76.16662,"zip":"21918","miles_from_dt":15.94},{"city":"Earleville","state_name":"Maryland","lat":39.42047,"lng":-75.93372,"zip":"21919","miles_from_dt":16.13},{"city":"New Castle","state_name":"Delaware","lat":39.66366,"lng":-75.5682,"zip":"19721","miles_from_dt":16.18},{"city":"Wilmington","state_name":"Delaware","lat":39.74523,"lng":-75.59373,"zip":"19805","miles_from_dt":16.19},{"city":"Cecilton","state_name":"Maryland","lat":39.40973,"lng":-75.87073,"zip":"21913","miles_from_dt":16.52},{"city":"Kennett Square","state_name":"Pennsylvania","lat":39.86706,"lng":-75.71763,"zip":"19348","miles_from_dt":17.1},{"city":"Wilmington","state_name":"Delaware","lat":39.79767,"lng":-75.61284,"zip":"19807","miles_from_dt":17.15},{"city":"Kirkwood","state_name":"Pennsylvania","lat":39.84345,"lng":-76.07316,"zip":"17536","miles_from_dt":17.19},{"city":"Odessa","state_name":"Delaware","lat":39.45443,"lng":-75.66077,"zip":"19730","miles_from_dt":17.51},{"city":"Port Penn","state_name":"Delaware","lat":39.5102,"lng":-75.59616,"zip":"19731","miles_from_dt":17.53},{"city":"Wilmington","state_name":"Delaware","lat":39.74769,"lng":-75.55791,"zip":"19893","miles_from_dt":18.01},{"city":"Montchanin","state_name":"Delaware","lat":39.78964,"lng":-75.58458,"zip":"19710","miles_from_dt":18.07},{"city":"Wilmington","state_name":"Delaware","lat":39.72782,"lng":-75.54615,"zip":"19801","miles_from_dt":18.14},{"city":"Wilmington","state_name":"Delaware","lat":39.762,"lng":-75.56336,"zip":"19806","miles_from_dt":18.14},{"city":"Wilmington","state_name":"Delaware","lat":39.73822,"lng":-75.55029,"zip":"19890","miles_from_dt":18.16},{"city":"Winterthur","state_name":"Delaware","lat":39.80666,"lng":-75.5973,"zip":"19735","miles_from_dt":18.18},{"city":"Wilmington","state_name":"Delaware","lat":39.73563,"lng":-75.54766,"zip":"19899","miles_from_dt":18.23},{"city":"Wilmington","state_name":"Delaware","lat":39.74245,"lng":-75.54941,"zip":"19898","miles_from_dt":18.3},{"city":"Wilmington","state_name":"Delaware","lat":39.74384,"lng":-75.54947,"zip":"19895","miles_from_dt":18.34},{"city":"Wilmington","state_name":"Delaware","lat":39.74328,"lng":-75.54713,"zip":"19885","miles_from_dt":18.44},{"city":"Wilmington","state_name":"Delaware","lat":39.74325,"lng":-75.54538,"zip":"19884","miles_from_dt":18.52},{"city":"Wilmington","state_name":"Delaware","lat":39.73018,"lng":-75.53862,"zip":"19880","miles_from_dt":18.57},{"city":"Peach Bottom","state_name":"Pennsylvania","lat":39.76404,"lng":-76.18649,"zip":"17563","miles_from_dt":18.59},{"city":"Wilmington","state_name":"Delaware","lat":39.72894,"lng":-75.53734,"zip":"19850","miles_from_dt":18.61},{"city":"Wilmington","state_name":"Delaware","lat":39.74827,"lng":-75.54565,"zip":"19886","miles_from_dt":18.63},{"city":"Unionville","state_name":"Pennsylvania","lat":39.8996,"lng":-75.73993,"zip":"19375","miles_from_dt":18.63},{"city":"Mendenhall","state_name":"Pennsylvania","lat":39.85343,"lng":-75.64103,"zip":"19357","miles_from_dt":18.67},{"city":"Wilmington","state_name":"Delaware","lat":39.74852,"lng":-75.54409,"zip":"19894","miles_from_dt":18.72},{"city":"Darlington","state_name":"Maryland","lat":39.64905,"lng":-76.22261,"zip":"21034","miles_from_dt":18.75},{"city":"Rockland","state_name":"Delaware","lat":39.80033,"lng":-75.57455,"zip":"19732","miles_from_dt":18.92},{"city":"Georgetown","state_name":"Maryland","lat":39.37198,"lng":-75.89115,"zip":"21930","miles_from_dt":19.16},{"city":"Pennsville","state_name":"New Jersey","lat":39.62494,"lng":-75.50902,"zip":"08070","miles_from_dt":19.38},{"city":"Wilmington","state_name":"Delaware","lat":39.75715,"lng":-75.52873,"zip":"19802","miles_from_dt":19.7},{"city":"Wilmington","state_name":"Delaware","lat":39.75842,"lng":-75.52771,"zip":"19896","miles_from_dt":19.78},{"city":"Christiana","state_name":"Pennsylvania","lat":39.90923,"lng":-76.03073,"zip":"17509","miles_from_dt":19.85},{"city":"Deepwater","state_name":"New Jersey","lat":39.68825,"lng":-75.49761,"zip":"08023","miles_from_dt":20.09},{"city":"Aberdeen","state_name":"Maryland","lat":39.51077,"lng":-76.20274,"zip":"21001","miles_from_dt":20.12},{"city":"Wilmington","state_name":"Delaware","lat":39.79805,"lng":-75.54565,"zip":"19897","miles_from_dt":20.14},{"city":"Chadds Ford","state_name":"Pennsylvania","lat":39.85722,"lng":-75.60244,"zip":"19317","miles_from_dt":20.26},{"city":"Wilmington","state_name":"Delaware","lat":39.79912,"lng":-75.5422,"zip":"19803","miles_from_dt":20.34},{"city":"Atglen","state_name":"Pennsylvania","lat":39.93478,"lng":-75.97038,"zip":"19310","miles_from_dt":20.4},{"city":"Churchville","state_name":"Maryland","lat":39.56832,"lng":-76.24162,"zip":"21028","miles_from_dt":20.55},{"city":"Perryman","state_name":"Maryland","lat":39.47495,"lng":-76.18921,"zip":"21130","miles_from_dt":20.82},{"city":"Wilmington","state_name":"Delaware","lat":39.75801,"lng":-75.50218,"zip":"19809","miles_from_dt":21.04},{"city":"Quarryville","state_name":"Pennsylvania","lat":39.86924,"lng":-76.1476,"zip":"17566","miles_from_dt":21.15},{"city":"Aberdeen Proving Ground","state_name":"Maryland","lat":39.44101,"lng":-76.16509,"zip":"21005","miles_from_dt":21.29},{"city":"Galena","state_name":"Maryland","lat":39.34006,"lng":-75.83826,"zip":"21635","miles_from_dt":21.4},{"city":"Pomeroy","state_name":"Pennsylvania","lat":39.96285,"lng":-75.88395,"zip":"19367","miles_from_dt":21.65},{"city":"Pocopson","state_name":"Pennsylvania","lat":39.90149,"lng":-75.6267,"zip":"19366","miles_from_dt":21.73},{"city":"Townsend","state_name":"Delaware","lat":39.38377,"lng":-75.65026,"zip":"19734","miles_from_dt":21.78},{"city":"Modena","state_name":"Pennsylvania","lat":39.96362,"lng":-75.80659,"zip":"19358","miles_from_dt":21.96},{"city":"Parkesburg","state_name":"Pennsylvania","lat":39.9655,"lng":-75.92766,"zip":"19365","miles_from_dt":22.03},{"city":"Betterton","state_name":"Maryland","lat":39.3652,"lng":-76.06845,"zip":"21610","miles_from_dt":22.26},{"city":"Coatesville","state_name":"Pennsylvania","lat":39.97046,"lng":-75.83069,"zip":"19320","miles_from_dt":22.27},{"city":"Wilmington","state_name":"Delaware","lat":39.81855,"lng":-75.50628,"zip":"19810","miles_from_dt":22.67},{"city":"Penns Grove","state_name":"New Jersey","lat":39.70209,"lng":-75.4501,"zip":"08069","miles_from_dt":22.73},{"city":"Sadsburyville","state_name":"Pennsylvania","lat":39.98082,"lng":-75.89496,"zip":"19369","miles_from_dt":22.91},{"city":"Bart","state_name":"Pennsylvania","lat":39.93825,"lng":-76.08325,"zip":"17503","miles_from_dt":22.92},{"city":"Belcamp","state_name":"Maryland","lat":39.47498,"lng":-76.23667,"zip":"21017","miles_from_dt":22.93},{"city":"Still Pond","state_name":"Maryland","lat":39.34377,"lng":-76.05188,"zip":"21667","miles_from_dt":23.18},{"city":"Kennedyville","state_name":"Maryland","lat":39.31979,"lng":-75.96216,"zip":"21645","miles_from_dt":23.24},{"city":"Drumore","state_name":"Pennsylvania","lat":39.80519,"lng":-76.25932,"zip":"17518","miles_from_dt":23.32},{"city":"Massey","state_name":"Maryland","lat":39.31286,"lng":-75.80795,"zip":"21650","miles_from_dt":23.45},{"city":"West Chester","state_name":"Pennsylvania","lat":39.92766,"lng":-75.61475,"zip":"19382","miles_from_dt":23.56},{"city":"Whiteford","state_name":"Maryland","lat":39.70728,"lng":-76.30754,"zip":"21160","miles_from_dt":23.62},{"city":"Hancocks Bridge","state_name":"New Jersey","lat":39.47391,"lng":-75.48852,"zip":"08038","miles_from_dt":23.73},{"city":"Bel Air","state_name":"Maryland","lat":39.54691,"lng":-76.29619,"zip":"21015","miles_from_dt":23.77},{"city":"Claymont","state_name":"Delaware","lat":39.8043,"lng":-75.45794,"zip":"19703","miles_from_dt":24.47},{"city":"Garnet Valley","state_name":"Pennsylvania","lat":39.85048,"lng":-75.4921,"zip":"19060","miles_from_dt":24.49},{"city":"Salem","state_name":"New Jersey","lat":39.54284,"lng":-75.43184,"zip":"08079","miles_from_dt":24.56},{"city":"West Chester","state_name":"Pennsylvania","lat":39.94303,"lng":-75.60155,"zip":"19383","miles_from_dt":24.83},{"city":"Thorndale","state_name":"Pennsylvania","lat":39.99941,"lng":-75.75972,"zip":"19372","miles_from_dt":24.87},{"city":"Concordville","state_name":"Pennsylvania","lat":39.88672,"lng":-75.51889,"zip":"19340","miles_from_dt":24.9},{"city":"Wagontown","state_name":"Pennsylvania","lat":40.00958,"lng":-75.84113,"zip":"19376","miles_from_dt":24.91},{"city":"Concordville","state_name":"Pennsylvania","lat":39.89003,"lng":-75.52008,"zip":"19331","miles_from_dt":25},{"city":"Pedricktown","state_name":"New Jersey","lat":39.7388,"lng":-75.41281,"zip":"08067","miles_from_dt":25.19},{"city":"Thornton","state_name":"Pennsylvania","lat":39.90674,"lng":-75.53255,"zip":"19373","miles_from_dt":25.3},{"city":"Delta","state_name":"Pennsylvania","lat":39.75469,"lng":-76.32852,"zip":"17314","miles_from_dt":25.45},{"city":"Paradise","state_name":"Pennsylvania","lat":39.97636,"lng":-76.09264,"zip":"17562","miles_from_dt":25.47},{"city":"Quinton","state_name":"New Jersey","lat":39.54495,"lng":-75.41258,"zip":"08072","miles_from_dt":25.5},{"city":"Abingdon","state_name":"Maryland","lat":39.47032,"lng":-76.29378,"zip":"21009","miles_from_dt":25.73},{"city":"Westtown","state_name":"Pennsylvania","lat":39.93217,"lng":-75.54945,"zip":"19395","miles_from_dt":25.96},{"city":"Concordville","state_name":"Pennsylvania","lat":39.89912,"lng":-75.5042,"zip":"19339","miles_from_dt":26.05},{"city":"Gap","state_name":"Pennsylvania","lat":40.01495,"lng":-75.99333,"zip":"17527","miles_from_dt":26.06},{"city":"Street","state_name":"Maryland","lat":39.65314,"lng":-76.36087,"zip":"21154","miles_from_dt":26.13},{"city":"New Providence","state_name":"Pennsylvania","lat":39.91117,"lng":-76.22712,"zip":"17560","miles_from_dt":26.19},{"city":"Glen Mills","state_name":"Pennsylvania","lat":39.90458,"lng":-75.50243,"zip":"19342","miles_from_dt":26.37},{"city":"Marcus Hook","state_name":"Pennsylvania","lat":39.82741,"lng":-75.432,"zip":"19061","miles_from_dt":26.42},{"city":"Worton","state_name":"Maryland","lat":39.30889,"lng":-76.10336,"zip":"21678","miles_from_dt":26.56},{"city":"Kinzers","state_name":"Pennsylvania","lat":40.01224,"lng":-76.03813,"zip":"17535","miles_from_dt":26.58},{"city":"Holtwood","state_name":"Pennsylvania","lat":39.85731,"lng":-76.2923,"zip":"17532","miles_from_dt":26.64},{"city":"Cheyney","state_name":"Pennsylvania","lat":39.92723,"lng":-75.52319,"zip":"19319","miles_from_dt":26.66},{"city":"Bel Air","state_name":"Maryland","lat":39.53606,"lng":-76.35164,"zip":"21014","miles_from_dt":26.82},{"city":"Downingtown","state_name":"Pennsylvania","lat":40.02271,"lng":-75.72045,"zip":"19335","miles_from_dt":26.98},{"city":"Millington","state_name":"Maryland","lat":39.25821,"lng":-75.85802,"zip":"21651","miles_from_dt":26.98},{"city":"Strasburg","state_name":"Pennsylvania","lat":39.95938,"lng":-76.18032,"zip":"17579","miles_from_dt":27},{"city":"Edgewood","state_name":"Maryland","lat":39.42953,"lng":-76.28947,"zip":"21040","miles_from_dt":27.01},{"city":"West Chester","state_name":"Pennsylvania","lat":39.98594,"lng":-75.60358,"zip":"19380","miles_from_dt":27.24},{"city":"Chester Heights","state_name":"Pennsylvania","lat":39.89078,"lng":-75.46295,"zip":"19017","miles_from_dt":27.38},{"city":"Aston","state_name":"Pennsylvania","lat":39.8637,"lng":-75.4338,"zip":"19014","miles_from_dt":27.58},{"city":"Brandamore","state_name":"Pennsylvania","lat":40.05597,"lng":-75.83804,"zip":"19316","miles_from_dt":28.12},{"city":"Forest Hill","state_name":"Maryland","lat":39.58569,"lng":-76.39228,"zip":"21050","miles_from_dt":28.16},{"city":"Alloway","state_name":"New Jersey","lat":39.55423,"lng":-75.35683,"zip":"08001","miles_from_dt":28.21},{"city":"Refton","state_name":"Pennsylvania","lat":39.94806,"lng":-76.23416,"zip":"17568","miles_from_dt":28.26},{"city":"Lenni","state_name":"Pennsylvania","lat":39.89721,"lng":-75.44532,"zip":"19052","miles_from_dt":28.39},{"city":"West Chester","state_name":"Pennsylvania","lat":39.99742,"lng":-75.58076,"zip":"19381","miles_from_dt":28.56},{"city":"Clayton","state_name":"Delaware","lat":39.25646,"lng":-75.69884,"zip":"19938","miles_from_dt":28.62},{"city":"Crumpton","state_name":"Maryland","lat":39.23577,"lng":-75.92238,"zip":"21628","miles_from_dt":28.65},{"city":"Woodstown","state_name":"New Jersey","lat":39.63934,"lng":-75.3316,"zip":"08098","miles_from_dt":28.77},{"city":"Ronks","state_name":"Pennsylvania","lat":40.00937,"lng":-76.15105,"zip":"17572","miles_from_dt":28.97},{"city":"Gunpowder","state_name":"Maryland","lat":39.38953,"lng":-76.29851,"zip":"21010","miles_from_dt":29.03},{"city":"Lyndell","state_name":"Pennsylvania","lat":40.05937,"lng":-75.74483,"zip":"19354","miles_from_dt":29.08},{"city":"Benson","state_name":"Maryland","lat":39.50417,"lng":-76.38647,"zip":"21018","miles_from_dt":29.28},{"city":"Bridgeport","state_name":"New Jersey","lat":39.81186,"lng":-75.36286,"zip":"08014","miles_from_dt":29.3},{"city":"Joppa","state_name":"Maryland","lat":39.44462,"lng":-76.35601,"zip":"21085","miles_from_dt":29.5},{"city":"Gradyville","state_name":"Pennsylvania","lat":39.94291,"lng":-75.4676,"zip":"19039","miles_from_dt":29.52},{"city":"Lionville","state_name":"Pennsylvania","lat":40.03277,"lng":-75.62202,"zip":"19353","miles_from_dt":29.59},{"city":"Gordonville","state_name":"Pennsylvania","lat":40.04036,"lng":-76.10008,"zip":"17529","miles_from_dt":29.61},{"city":"Pequea","state_name":"Pennsylvania","lat":39.89191,"lng":-76.32994,"zip":"17565","miles_from_dt":29.62},{"city":"Intercourse","state_name":"Pennsylvania","lat":40.03665,"lng":-76.11214,"zip":"17534","miles_from_dt":29.65},{"city":"Brookhaven","state_name":"Pennsylvania","lat":39.86811,"lng":-75.39164,"zip":"19015","miles_from_dt":29.66},{"city":"Chester","state_name":"Pennsylvania","lat":39.84529,"lng":-75.37474,"zip":"19013","miles_from_dt":29.69},{"city":"Smyrna","state_name":"Delaware","lat":39.29653,"lng":-75.55132,"zip":"19977","miles_from_dt":29.73},{"city":"Swedesboro","state_name":"New Jersey","lat":39.75579,"lng":-75.33017,"zip":"08085","miles_from_dt":29.74},{"city":"Pylesville","state_name":"Maryland","lat":39.69601,"lng":-76.42577,"zip":"21132","miles_from_dt":29.76},{"city":"Exton","state_name":"Pennsylvania","lat":40.04213,"lng":-75.63814,"zip":"19341","miles_from_dt":29.8},{"city":"Honey Brook","state_name":"Pennsylvania","lat":40.08279,"lng":-75.88338,"zip":"19344","miles_from_dt":29.92},{"city":"Willow Street","state_name":"Pennsylvania","lat":39.95981,"lng":-76.26463,"zip":"17584","miles_from_dt":29.97},{"city":"Southeastern","state_name":"Pennsylvania","lat":39.98224,"lng":-75.50887,"zip":"19397","miles_from_dt":29.98}],"targetCityZipCode":"21916","targetCityState":"Maryland"},"__N_SSG":true}