{"pageProps":{"stateName":"Maryland","cityName":"thurmont","nearbyCities":[{"city":"Rocky Ridge","state_name":"Maryland","lat":39.61576,"lng":-77.33754,"zip":"21778","miles_from_dt":4.62},{"city":"Sabillasville","state_name":"Maryland","lat":39.67676,"lng":-77.46777,"zip":"21780","miles_from_dt":6.24},{"city":"New Midway","state_name":"Maryland","lat":39.55622,"lng":-77.30221,"zip":"21775","miles_from_dt":6.79},{"city":"Woodsboro","state_name":"Maryland","lat":39.53858,"lng":-77.29985,"zip":"21798","miles_from_dt":7.46},{"city":"Emmitsburg","state_name":"Maryland","lat":39.68865,"lng":-77.33096,"zip":"21727","miles_from_dt":8.04},{"city":"Frederick","state_name":"Maryland","lat":39.48019,"lng":-77.4578,"zip":"21702","miles_from_dt":8.13},{"city":"Myersville","state_name":"Maryland","lat":39.53725,"lng":-77.55301,"zip":"21773","miles_from_dt":8.14},{"city":"Walkersville","state_name":"Maryland","lat":39.48963,"lng":-77.34357,"zip":"21793","miles_from_dt":8.28},{"city":"Smithsburg","state_name":"Maryland","lat":39.64885,"lng":-77.55903,"zip":"21783","miles_from_dt":8.34},{"city":"Ladiesburg","state_name":"Maryland","lat":39.57501,"lng":-77.26392,"zip":"21759","miles_from_dt":8.42},{"city":"Keymar","state_name":"Maryland","lat":39.59902,"lng":-77.25906,"zip":"21757","miles_from_dt":8.57},{"city":"Cascade","state_name":"Maryland","lat":39.70501,"lng":-77.49977,"zip":"21719","miles_from_dt":8.75},{"city":"Cavetown","state_name":"Maryland","lat":39.64237,"lng":-77.58285,"zip":"21720","miles_from_dt":9.32},{"city":"Blue Ridge Summit","state_name":"Pennsylvania","lat":39.74811,"lng":-77.47025,"zip":"17214","miles_from_dt":10.95},{"city":"Frederick","state_name":"Maryland","lat":39.44729,"lng":-77.33512,"zip":"21701","miles_from_dt":11.1},{"city":"Rouzerville","state_name":"Pennsylvania","lat":39.73668,"lng":-77.52338,"zip":"17250","miles_from_dt":11.28},{"city":"Frederick","state_name":"Maryland","lat":39.42776,"lng":-77.41549,"zip":"21709","miles_from_dt":11.49},{"city":"Chewsville","state_name":"Maryland","lat":39.64822,"lng":-77.62758,"zip":"21721","miles_from_dt":11.7},{"city":"Libertytown","state_name":"Maryland","lat":39.48058,"lng":-77.24842,"zip":"21762","miles_from_dt":12.05},{"city":"Fairfield","state_name":"Pennsylvania","lat":39.7695,"lng":-77.38749,"zip":"17320","miles_from_dt":12.21},{"city":"Frederick","state_name":"Maryland","lat":39.40887,"lng":-77.41002,"zip":"21705","miles_from_dt":12.8},{"city":"Middletown","state_name":"Maryland","lat":39.44582,"lng":-77.56489,"zip":"21769","miles_from_dt":12.85},{"city":"Union Bridge","state_name":"Maryland","lat":39.54267,"lng":-77.18713,"zip":"21791","miles_from_dt":12.91},{"city":"Braddock Heights","state_name":"Maryland","lat":39.41059,"lng":-77.51003,"zip":"21714","miles_from_dt":13.56},{"city":"Hagerstown","state_name":"Maryland","lat":39.67363,"lng":-77.65928,"zip":"21742","miles_from_dt":13.91},{"city":"Boonsboro","state_name":"Maryland","lat":39.52618,"lng":-77.66933,"zip":"21713","miles_from_dt":14.14},{"city":"Taneytown","state_name":"Maryland","lat":39.67169,"lng":-77.17317,"zip":"21787","miles_from_dt":14.19},{"city":"New Market","state_name":"Maryland","lat":39.4088,"lng":-77.27844,"zip":"21774","miles_from_dt":14.85},{"city":"Waynesboro","state_name":"Pennsylvania","lat":39.77421,"lng":-77.57354,"zip":"17268","miles_from_dt":14.88},{"city":"Unionville","state_name":"Maryland","lat":39.47481,"lng":-77.18722,"zip":"21792","miles_from_dt":14.9},{"city":"Funkstown","state_name":"Maryland","lat":39.60583,"lng":-77.70382,"zip":"21734","miles_from_dt":15.19},{"city":"Frederick","state_name":"Maryland","lat":39.36961,"lng":-77.47088,"zip":"21703","miles_from_dt":15.74},{"city":"Hagerstown","state_name":"Maryland","lat":39.56591,"lng":-77.71409,"zip":"21746","miles_from_dt":15.84},{"city":"Zullinger","state_name":"Pennsylvania","lat":39.76764,"lng":-77.62183,"zip":"17272","miles_from_dt":16.1},{"city":"Hagerstown","state_name":"Maryland","lat":39.64139,"lng":-77.71879,"zip":"21741","miles_from_dt":16.29},{"city":"Quincy","state_name":"Pennsylvania","lat":39.79883,"lng":-77.57933,"zip":"17247","miles_from_dt":16.48},{"city":"Frederick","state_name":"Maryland","lat":39.3506,"lng":-77.3735,"zip":"21704","miles_from_dt":16.99},{"city":"Rohrersville","state_name":"Maryland","lat":39.42447,"lng":-77.65398,"zip":"21779","miles_from_dt":17.15},{"city":"Hagerstown","state_name":"Maryland","lat":39.63233,"lng":-77.73902,"zip":"21740","miles_from_dt":17.25},{"city":"Hagerstown","state_name":"Maryland","lat":39.63737,"lng":-77.74454,"zip":"21749","miles_from_dt":17.59},{"city":"Hagerstown","state_name":"Maryland","lat":39.63447,"lng":-77.74596,"zip":"21747","miles_from_dt":17.63},{"city":"Buckeystown","state_name":"Maryland","lat":39.33865,"lng":-77.43147,"zip":"21717","miles_from_dt":17.65},{"city":"New Windsor","state_name":"Maryland","lat":39.51861,"lng":-77.10376,"zip":"21776","miles_from_dt":17.66},{"city":"Burkittsville","state_name":"Maryland","lat":39.39343,"lng":-77.62734,"zip":"21718","miles_from_dt":17.76},{"city":"Keedysville","state_name":"Maryland","lat":39.45758,"lng":-77.70118,"zip":"21756","miles_from_dt":17.76},{"city":"Mont Alto","state_name":"Pennsylvania","lat":39.83705,"lng":-77.54091,"zip":"17237","miles_from_dt":17.95},{"city":"Jefferson","state_name":"Maryland","lat":39.36101,"lng":-77.56887,"zip":"21755","miles_from_dt":17.96},{"city":"Saint James","state_name":"Maryland","lat":39.57123,"lng":-77.75981,"zip":"21781","miles_from_dt":18.23},{"city":"State Line","state_name":"Pennsylvania","lat":39.72409,"lng":-77.71727,"zip":"17263","miles_from_dt":18.23},{"city":"Fairplay","state_name":"Maryland","lat":39.55004,"lng":-77.75838,"zip":"21733","miles_from_dt":18.34},{"city":"Shady Grove","state_name":"Pennsylvania","lat":39.77776,"lng":-77.66873,"zip":"17256","miles_from_dt":18.35},{"city":"Ijamsville","state_name":"Maryland","lat":39.33684,"lng":-77.31131,"zip":"21754","miles_from_dt":18.68},{"city":"Monrovia","state_name":"Maryland","lat":39.35245,"lng":-77.25791,"zip":"21770","miles_from_dt":18.79},{"city":"Maugansville","state_name":"Maryland","lat":39.69773,"lng":-77.74638,"zip":"21767","miles_from_dt":18.83},{"city":"South Mountain","state_name":"Pennsylvania","lat":39.85981,"lng":-77.51164,"zip":"17261","miles_from_dt":18.96},{"city":"Gettysburg","state_name":"Pennsylvania","lat":39.82762,"lng":-77.22641,"zip":"17325","miles_from_dt":19.11},{"city":"McKnightstown","state_name":"Pennsylvania","lat":39.86863,"lng":-77.32948,"zip":"17343","miles_from_dt":19.53},{"city":"Mount Airy","state_name":"Maryland","lat":39.3955,"lng":-77.15869,"zip":"21771","miles_from_dt":19.56},{"city":"Brownsville","state_name":"Maryland","lat":39.37879,"lng":-77.66063,"zip":"21715","miles_from_dt":19.67},{"city":"Littlestown","state_name":"Pennsylvania","lat":39.75566,"lng":-77.11183,"zip":"17340","miles_from_dt":19.83},{"city":"Orrtanna","state_name":"Pennsylvania","lat":39.88741,"lng":-77.38714,"zip":"17353","miles_from_dt":20.3},{"city":"Cashtown","state_name":"Pennsylvania","lat":39.88481,"lng":-77.35878,"zip":"17310","miles_from_dt":20.3},{"city":"Sharpsburg","state_name":"Maryland","lat":39.4552,"lng":-77.75995,"zip":"21782","miles_from_dt":20.56},{"city":"Adamstown","state_name":"Maryland","lat":39.29652,"lng":-77.44941,"zip":"21710","miles_from_dt":20.6},{"city":"Westminster","state_name":"Maryland","lat":39.6466,"lng":-77.03217,"zip":"21158","miles_from_dt":20.98},{"city":"Fayetteville","state_name":"Pennsylvania","lat":39.89983,"lng":-77.49242,"zip":"17222","miles_from_dt":21.43},{"city":"Knoxville","state_name":"Maryland","lat":39.34567,"lng":-77.66265,"zip":"21758","miles_from_dt":21.52},{"city":"Williamsport","state_name":"Maryland","lat":39.582,"lng":-77.82733,"zip":"21795","miles_from_dt":21.78},{"city":"Brunswick","state_name":"Maryland","lat":39.31798,"lng":-77.6262,"zip":"21716","miles_from_dt":22.03},{"city":"Greencastle","state_name":"Pennsylvania","lat":39.78706,"lng":-77.75709,"zip":"17225","miles_from_dt":22.37},{"city":"Point Of Rocks","state_name":"Maryland","lat":39.27918,"lng":-77.5287,"zip":"21777","miles_from_dt":22.51},{"city":"Marion","state_name":"Pennsylvania","lat":39.85699,"lng":-77.69743,"zip":"17235","miles_from_dt":23.4},{"city":"Tuscarora","state_name":"Maryland","lat":39.25908,"lng":-77.49559,"zip":"21790","miles_from_dt":23.48},{"city":"Damascus","state_name":"Maryland","lat":39.29142,"lng":-77.21619,"zip":"20872","miles_from_dt":23.56},{"city":"Westminster","state_name":"Maryland","lat":39.54889,"lng":-76.98162,"zip":"21157","miles_from_dt":23.59},{"city":"Shepherdstown","state_name":"West Virginia","lat":39.43835,"lng":-77.81477,"zip":"25443","miles_from_dt":23.7},{"city":"Arendtsville","state_name":"Pennsylvania","lat":39.92615,"lng":-77.29755,"zip":"17303","miles_from_dt":23.8},{"city":"Clarksburg","state_name":"Maryland","lat":39.2592,"lng":-77.28187,"zip":"20871","miles_from_dt":24.26},{"city":"Falling Waters","state_name":"West Virginia","lat":39.58286,"lng":-77.88493,"zip":"25419","miles_from_dt":24.85},{"city":"Biglerville","state_name":"Pennsylvania","lat":39.94853,"lng":-77.314,"zip":"17307","miles_from_dt":25.08},{"city":"Lovettsville","state_name":"Virginia","lat":39.26775,"lng":-77.63804,"zip":"20180","miles_from_dt":25.38},{"city":"Barnesville","state_name":"Maryland","lat":39.22341,"lng":-77.37223,"zip":"20838","miles_from_dt":25.71},{"city":"McSherrystown","state_name":"Pennsylvania","lat":39.80535,"lng":-77.01887,"zip":"17344","miles_from_dt":25.85},{"city":"Lisbon","state_name":"Maryland","lat":39.33483,"lng":-77.06811,"zip":"21765","miles_from_dt":25.95},{"city":"Woodbine","state_name":"Maryland","lat":39.33284,"lng":-77.07002,"zip":"21797","miles_from_dt":25.98},{"city":"Chambersburg","state_name":"Pennsylvania","lat":39.92133,"lng":-77.67442,"zip":"17202","miles_from_dt":26.33},{"city":"Martinsburg","state_name":"West Virginia","lat":39.48631,"lng":-77.89782,"zip":"25404","miles_from_dt":26.61},{"city":"Dickerson","state_name":"Maryland","lat":39.20831,"lng":-77.42473,"zip":"20842","miles_from_dt":26.63},{"city":"Bakerton","state_name":"West Virginia","lat":39.32699,"lng":-77.78005,"zip":"25410","miles_from_dt":26.68},{"city":"Clear Spring","state_name":"Maryland","lat":39.66575,"lng":-77.91457,"zip":"21722","miles_from_dt":26.86},{"city":"Shenandoah Junction","state_name":"West Virginia","lat":39.37157,"lng":-77.83181,"zip":"25442","miles_from_dt":26.87},{"city":"Hanover","state_name":"Pennsylvania","lat":39.7981,"lng":-76.9882,"zip":"17332","miles_from_dt":26.95},{"city":"Hanover","state_name":"Pennsylvania","lat":39.79085,"lng":-76.98028,"zip":"17331","miles_from_dt":27.06},{"city":"New Oxford","state_name":"Pennsylvania","lat":39.88918,"lng":-77.07896,"zip":"17350","miles_from_dt":27.26},{"city":"Hanover","state_name":"Pennsylvania","lat":39.8,"lng":-76.98219,"zip":"17334","miles_from_dt":27.29},{"city":"Scotland","state_name":"Pennsylvania","lat":39.96853,"lng":-77.58917,"zip":"17254","miles_from_dt":27.35},{"city":"Sykesville","state_name":"Maryland","lat":39.40087,"lng":-76.9726,"zip":"21784","miles_from_dt":27.36},{"city":"Hanover","state_name":"Pennsylvania","lat":39.82421,"lng":-76.9907,"zip":"17333","miles_from_dt":27.82},{"city":"Halltown","state_name":"West Virginia","lat":39.31449,"lng":-77.79823,"zip":"25423","miles_from_dt":27.98},{"city":"Peach Glen","state_name":"Pennsylvania","lat":39.97383,"lng":-77.23158,"zip":"17375","miles_from_dt":28.03},{"city":"Finksburg","state_name":"Maryland","lat":39.49568,"lng":-76.91057,"zip":"21048","miles_from_dt":28.03},{"city":"Hanover","state_name":"Pennsylvania","lat":39.80769,"lng":-76.97011,"zip":"17335","miles_from_dt":28.12},{"city":"Aspers","state_name":"Pennsylvania","lat":39.97696,"lng":-77.23099,"zip":"17304","miles_from_dt":28.24},{"city":"Chambersburg","state_name":"Pennsylvania","lat":39.96229,"lng":-77.65677,"zip":"17201","miles_from_dt":28.36},{"city":"Bendersville","state_name":"Pennsylvania","lat":39.98383,"lng":-77.24966,"zip":"17306","miles_from_dt":28.36},{"city":"Millville","state_name":"West Virginia","lat":39.29562,"lng":-77.78663,"zip":"25432","miles_from_dt":28.46},{"city":"Germantown","state_name":"Maryland","lat":39.20706,"lng":-77.23284,"zip":"20876","miles_from_dt":28.52},{"city":"Cooksville","state_name":"Maryland","lat":39.32825,"lng":-77.01056,"zip":"21723","miles_from_dt":28.55},{"city":"Boyds","state_name":"Maryland","lat":39.1858,"lng":-77.32581,"zip":"20841","miles_from_dt":28.62},{"city":"Beallsville","state_name":"Maryland","lat":39.17909,"lng":-77.41438,"zip":"20839","miles_from_dt":28.64},{"city":"Gaithersburg","state_name":"Maryland","lat":39.23182,"lng":-77.14514,"zip":"20882","miles_from_dt":29},{"city":"Leesburg","state_name":"Virginia","lat":39.18147,"lng":-77.5345,"zip":"20176","miles_from_dt":29.14},{"city":"Harpers Ferry","state_name":"West Virginia","lat":39.27613,"lng":-77.79184,"zip":"25425","miles_from_dt":29.64},{"city":"Waterford","state_name":"Virginia","lat":39.19379,"lng":-77.62252,"zip":"20197","miles_from_dt":29.69},{"city":"Lemasters","state_name":"Pennsylvania","lat":39.86021,"lng":-77.85934,"zip":"17231","miles_from_dt":29.76}],"targetCityZipCode":"21788","targetCityState":"Maryland"},"__N_SSG":true}