{"pageProps":{"stateName":"Wisconsin","cityName":"adams","nearbyCities":[{"city":"Grand Marsh","state_name":"Wisconsin","lat":43.87477,"lng":-89.71071,"zip":"53936","miles_from_dt":4.94},{"city":"Friendship","state_name":"Wisconsin","lat":43.98044,"lng":-89.82184,"zip":"53934","miles_from_dt":6.24},{"city":"Oxford","state_name":"Wisconsin","lat":43.78718,"lng":-89.5963,"zip":"53952","miles_from_dt":12.73},{"city":"Arkdale","state_name":"Wisconsin","lat":44.07549,"lng":-89.92131,"zip":"54613","miles_from_dt":13.97},{"city":"Mauston","state_name":"Wisconsin","lat":43.77846,"lng":-90.05161,"zip":"53948","miles_from_dt":14.47},{"city":"Wisconsin Dells","state_name":"Wisconsin","lat":43.67651,"lng":-89.75681,"zip":"53965","miles_from_dt":15},{"city":"Lyndon Station","state_name":"Wisconsin","lat":43.68759,"lng":-89.92791,"zip":"53944","miles_from_dt":15.27},{"city":"Westfield","state_name":"Wisconsin","lat":43.91253,"lng":-89.5025,"zip":"53964","miles_from_dt":15.28},{"city":"Coloma","state_name":"Wisconsin","lat":44.02884,"lng":-89.56383,"zip":"54930","miles_from_dt":15.43},{"city":"New Lisbon","state_name":"Wisconsin","lat":43.90477,"lng":-90.13463,"zip":"53950","miles_from_dt":16.38},{"city":"Briggsville","state_name":"Wisconsin","lat":43.66579,"lng":-89.60364,"zip":"53920","miles_from_dt":18.57},{"city":"Packwaukee","state_name":"Wisconsin","lat":43.76606,"lng":-89.458,"zip":"53953","miles_from_dt":19.45},{"city":"Hancock","state_name":"Wisconsin","lat":44.12377,"lng":-89.58199,"zip":"54943","miles_from_dt":19.61},{"city":"Necedah","state_name":"Wisconsin","lat":44.08807,"lng":-90.0912,"zip":"54646","miles_from_dt":19.65},{"city":"Lake Delton","state_name":"Wisconsin","lat":43.59126,"lng":-89.7944,"zip":"53940","miles_from_dt":20.68},{"city":"Endeavor","state_name":"Wisconsin","lat":43.683,"lng":-89.49506,"zip":"53930","miles_from_dt":21.19},{"city":"Hustler","state_name":"Wisconsin","lat":43.87874,"lng":-90.27076,"zip":"54637","miles_from_dt":23.17},{"city":"Nekoosa","state_name":"Wisconsin","lat":44.22965,"lng":-89.89502,"zip":"54457","miles_from_dt":23.81},{"city":"Montello","state_name":"Wisconsin","lat":43.78323,"lng":-89.33978,"zip":"53949","miles_from_dt":24.5},{"city":"Camp Douglas","state_name":"Wisconsin","lat":43.95921,"lng":-90.28967,"zip":"54618","miles_from_dt":24.54},{"city":"Reedsburg","state_name":"Wisconsin","lat":43.54327,"lng":-89.98668,"zip":"53958","miles_from_dt":25.62},{"city":"Elroy","state_name":"Wisconsin","lat":43.75415,"lng":-90.28376,"zip":"53929","miles_from_dt":25.63},{"city":"Reedsburg","state_name":"Wisconsin","lat":43.53407,"lng":-89.99702,"zip":"53959","miles_from_dt":26.4},{"city":"Plainfield","state_name":"Wisconsin","lat":44.21276,"lng":-89.50579,"zip":"54966","miles_from_dt":26.82},{"city":"Union Center","state_name":"Wisconsin","lat":43.68352,"lng":-90.2652,"zip":"53962","miles_from_dt":27.01},{"city":"La Valle","state_name":"Wisconsin","lat":43.57947,"lng":-90.13694,"zip":"53941","miles_from_dt":27.1},{"city":"Wonewoc","state_name":"Wisconsin","lat":43.64072,"lng":-90.2326,"zip":"53968","miles_from_dt":27.41},{"city":"Baraboo","state_name":"Wisconsin","lat":43.49213,"lng":-89.72858,"zip":"53913","miles_from_dt":27.8},{"city":"Portage","state_name":"Wisconsin","lat":43.55606,"lng":-89.48606,"zip":"53901","miles_from_dt":28.15},{"city":"Wautoma","state_name":"Wisconsin","lat":44.07007,"lng":-89.29223,"zip":"54982","miles_from_dt":28.5},{"city":"Oakdale","state_name":"Wisconsin","lat":43.96062,"lng":-90.38127,"zip":"54649","miles_from_dt":29.06},{"city":"Neshkoro","state_name":"Wisconsin","lat":43.94569,"lng":-89.22386,"zip":"54960","miles_from_dt":29.35},{"city":"Kendall","state_name":"Wisconsin","lat":43.79088,"lng":-90.3875,"zip":"54638","miles_from_dt":29.81}],"targetCityZipCode":"53910","targetCityState":"Wisconsin"},"__N_SSG":true}