{"pageProps":{"stateName":"Wisconsin","cityName":"clayton","nearbyCities":[{"city":"Clear Lake","state_name":"Wisconsin","lat":45.23447,"lng":-92.23051,"zip":"54005","miles_from_dt":7.21},{"city":"Prairie Farm","state_name":"Wisconsin","lat":45.25107,"lng":-91.98967,"zip":"54762","miles_from_dt":7.61},{"city":"Turtle Lake","state_name":"Wisconsin","lat":45.41374,"lng":-92.17112,"zip":"54889","miles_from_dt":7.72},{"city":"Almena","state_name":"Wisconsin","lat":45.41465,"lng":-92.02311,"zip":"54805","miles_from_dt":8.91},{"city":"Amery","state_name":"Wisconsin","lat":45.33417,"lng":-92.38703,"zip":"54001","miles_from_dt":12.94},{"city":"Dallas","state_name":"Wisconsin","lat":45.28331,"lng":-91.85641,"zip":"54733","miles_from_dt":13.15},{"city":"Barron","state_name":"Wisconsin","lat":45.39911,"lng":-91.88103,"zip":"54812","miles_from_dt":13.44},{"city":"Comstock","state_name":"Wisconsin","lat":45.49971,"lng":-92.16422,"zip":"54826","miles_from_dt":13.45},{"city":"Deer Park","state_name":"Wisconsin","lat":45.18781,"lng":-92.35734,"zip":"54007","miles_from_dt":14.04},{"city":"Ridgeland","state_name":"Wisconsin","lat":45.179,"lng":-91.87683,"zip":"54763","miles_from_dt":14.96},{"city":"Downing","state_name":"Wisconsin","lat":45.09045,"lng":-92.11358,"zip":"54734","miles_from_dt":14.96},{"city":"Glenwood City","state_name":"Wisconsin","lat":45.08134,"lng":-92.22929,"zip":"54013","miles_from_dt":16.41},{"city":"Balsam Lake","state_name":"Wisconsin","lat":45.46126,"lng":-92.38403,"zip":"54810","miles_from_dt":16.54},{"city":"Boyceville","state_name":"Wisconsin","lat":45.07103,"lng":-92.01062,"zip":"54725","miles_from_dt":17.21},{"city":"Cumberland","state_name":"Wisconsin","lat":45.5592,"lng":-92.06603,"zip":"54829","miles_from_dt":17.65},{"city":"Wheeler","state_name":"Wisconsin","lat":45.09668,"lng":-91.87303,"zip":"54772","miles_from_dt":19.01},{"city":"Star Prairie","state_name":"Wisconsin","lat":45.22688,"lng":-92.53459,"zip":"54026","miles_from_dt":20.77},{"city":"Cameron","state_name":"Wisconsin","lat":45.3944,"lng":-91.69995,"zip":"54822","miles_from_dt":21.52},{"city":"Milltown","state_name":"Wisconsin","lat":45.51824,"lng":-92.46031,"zip":"54858","miles_from_dt":21.91},{"city":"Dresser","state_name":"Wisconsin","lat":45.35358,"lng":-92.57693,"zip":"54009","miles_from_dt":22.29},{"city":"Sand Creek","state_name":"Wisconsin","lat":45.17092,"lng":-91.7028,"zip":"54765","miles_from_dt":22.6},{"city":"New Richmond","state_name":"Wisconsin","lat":45.11907,"lng":-92.52091,"zip":"54017","miles_from_dt":23.31},{"city":"Centuria","state_name":"Wisconsin","lat":45.4753,"lng":-92.54017,"zip":"54824","miles_from_dt":23.34},{"city":"Chetek","state_name":"Wisconsin","lat":45.30778,"lng":-91.6417,"zip":"54728","miles_from_dt":23.51},{"city":"Luck","state_name":"Wisconsin","lat":45.57106,"lng":-92.45211,"zip":"54853","miles_from_dt":24.22},{"city":"Barronett","state_name":"Wisconsin","lat":45.65477,"lng":-92.03071,"zip":"54813","miles_from_dt":24.44},{"city":"Knapp","state_name":"Wisconsin","lat":44.94862,"lng":-92.09785,"zip":"54749","miles_from_dt":24.78},{"city":"Rice Lake","state_name":"Wisconsin","lat":45.52723,"lng":-91.70977,"zip":"54868","miles_from_dt":25.25},{"city":"Woodville","state_name":"Wisconsin","lat":44.95532,"lng":-92.28279,"zip":"54028","miles_from_dt":25.49},{"city":"Osceola","state_name":"Wisconsin","lat":45.27937,"lng":-92.65235,"zip":"54020","miles_from_dt":25.82},{"city":"Wilson","state_name":"Wisconsin","lat":44.92403,"lng":-92.19985,"zip":"54027","miles_from_dt":26.7},{"city":"Haugen","state_name":"Wisconsin","lat":45.60776,"lng":-91.77887,"zip":"54841","miles_from_dt":26.7},{"city":"Baldwin","state_name":"Wisconsin","lat":44.95871,"lng":-92.37121,"zip":"54002","miles_from_dt":26.91},{"city":"Frederic","state_name":"Wisconsin","lat":45.6746,"lng":-92.35754,"zip":"54837","miles_from_dt":27.8},{"city":"Colfax","state_name":"Wisconsin","lat":45.01836,"lng":-91.72143,"zip":"54730","miles_from_dt":28.01},{"city":"Hammond","state_name":"Wisconsin","lat":44.96899,"lng":-92.45419,"zip":"54015","miles_from_dt":28.37},{"city":"Saint Croix Falls","state_name":"Wisconsin","lat":45.49873,"lng":-92.64781,"zip":"54024","miles_from_dt":28.71},{"city":"New Auburn","state_name":"Wisconsin","lat":45.23085,"lng":-91.52498,"zip":"54757","miles_from_dt":29.69},{"city":"Somerset","state_name":"Wisconsin","lat":45.14184,"lng":-92.68997,"zip":"54025","miles_from_dt":29.88}],"targetCityZipCode":"54004","targetCityState":"Wisconsin"},"__N_SSG":true}