{"pageProps":{"stateName":"Wisconsin","cityName":"danbury","nearbyCities":[{"city":"Webster","state_name":"Wisconsin","lat":45.87094,"lng":-92.30837,"zip":"54893","miles_from_dt":16.73},{"city":"Sandstone","state_name":"Minnesota","lat":46.15118,"lng":-92.59274,"zip":"55072","miles_from_dt":18.03},{"city":"Trego","state_name":"Wisconsin","lat":45.98046,"lng":-91.88803,"zip":"54888","miles_from_dt":18.29},{"city":"Minong","state_name":"Wisconsin","lat":46.12121,"lng":-91.82337,"zip":"54859","miles_from_dt":19.23},{"city":"Bruno","state_name":"Minnesota","lat":46.29398,"lng":-92.52513,"zip":"55712","miles_from_dt":19.47},{"city":"Wascott","state_name":"Wisconsin","lat":46.1759,"lng":-91.79852,"zip":"54890","miles_from_dt":20.95},{"city":"Hertel","state_name":"Wisconsin","lat":45.80724,"lng":-92.13786,"zip":"54845","miles_from_dt":21.02},{"city":"Spooner","state_name":"Wisconsin","lat":45.86711,"lng":-91.92266,"zip":"54801","miles_from_dt":21.93},{"city":"Foxboro","state_name":"Wisconsin","lat":46.43238,"lng":-92.19225,"zip":"54836","miles_from_dt":22.61},{"city":"Gordon","state_name":"Wisconsin","lat":46.24836,"lng":-91.79179,"zip":"54838","miles_from_dt":22.92},{"city":"Siren","state_name":"Wisconsin","lat":45.76965,"lng":-92.39622,"zip":"54872","miles_from_dt":24.66},{"city":"Holyoke","state_name":"Minnesota","lat":46.44701,"lng":-92.43128,"zip":"55749","miles_from_dt":25.6},{"city":"Kerrick","state_name":"Minnesota","lat":46.37535,"lng":-92.60128,"zip":"55756","miles_from_dt":25.99},{"city":"Askov","state_name":"Minnesota","lat":46.2057,"lng":-92.76581,"zip":"55704","miles_from_dt":26.95},{"city":"Springbrook","state_name":"Wisconsin","lat":45.97405,"lng":-91.6948,"zip":"54875","miles_from_dt":26.99},{"city":"Shell Lake","state_name":"Wisconsin","lat":45.7412,"lng":-92.01503,"zip":"54871","miles_from_dt":27.1},{"city":"Hinckley","state_name":"Minnesota","lat":46.01071,"lng":-92.78934,"zip":"55037","miles_from_dt":28.01}],"targetCityZipCode":"54830","targetCityState":"Wisconsin"},"__N_SSG":true}