{"pageProps":{"stateName":"Wisconsin","cityName":"green-lake","nearbyCities":[{"city":"Princeton","state_name":"Wisconsin","lat":43.84872,"lng":-89.13255,"zip":"54968","miles_from_dt":7.07},{"city":"Ripon","state_name":"Wisconsin","lat":43.85546,"lng":-88.83109,"zip":"54971","miles_from_dt":8},{"city":"Markesan","state_name":"Wisconsin","lat":43.71822,"lng":-89.02189,"zip":"53946","miles_from_dt":9.27},{"city":"Fairwater","state_name":"Wisconsin","lat":43.74236,"lng":-88.86798,"zip":"53931","miles_from_dt":9.68},{"city":"Berlin","state_name":"Wisconsin","lat":43.99456,"lng":-88.96883,"zip":"54923","miles_from_dt":10},{"city":"Marquette","state_name":"Wisconsin","lat":43.74676,"lng":-89.13769,"zip":"53947","miles_from_dt":10.26},{"city":"Kingston","state_name":"Wisconsin","lat":43.69185,"lng":-89.13199,"zip":"53939","miles_from_dt":13.04},{"city":"Neshkoro","state_name":"Wisconsin","lat":43.94569,"lng":-89.22386,"zip":"54960","miles_from_dt":13.35},{"city":"Brandon","state_name":"Wisconsin","lat":43.73462,"lng":-88.77564,"zip":"53919","miles_from_dt":13.42},{"city":"Pickett","state_name":"Wisconsin","lat":43.9178,"lng":-88.71836,"zip":"54964","miles_from_dt":14.38},{"city":"Waukau","state_name":"Wisconsin","lat":43.98625,"lng":-88.76906,"zip":"54980","miles_from_dt":14.5},{"city":"Redgranite","state_name":"Wisconsin","lat":44.07091,"lng":-89.09352,"zip":"54970","miles_from_dt":16.04},{"city":"Dalton","state_name":"Wisconsin","lat":43.67164,"lng":-89.21497,"zip":"53926","miles_from_dt":16.68},{"city":"Rosendale","state_name":"Wisconsin","lat":43.7801,"lng":-88.65997,"zip":"54974","miles_from_dt":17.25},{"city":"Omro","state_name":"Wisconsin","lat":44.04524,"lng":-88.76661,"zip":"54963","miles_from_dt":17.49},{"city":"Montello","state_name":"Wisconsin","lat":43.78323,"lng":-89.33978,"zip":"53949","miles_from_dt":18.05},{"city":"Friesland","state_name":"Wisconsin","lat":43.58864,"lng":-89.06697,"zip":"53935","miles_from_dt":18.49},{"city":"Eldorado","state_name":"Wisconsin","lat":43.83143,"lng":-88.61861,"zip":"54932","miles_from_dt":18.66},{"city":"Poy Sippi","state_name":"Wisconsin","lat":44.12954,"lng":-88.98487,"zip":"54967","miles_from_dt":19.26},{"city":"Waupun","state_name":"Wisconsin","lat":43.63492,"lng":-88.73828,"zip":"53963","miles_from_dt":19.54},{"city":"Fox Lake","state_name":"Wisconsin","lat":43.57235,"lng":-88.88338,"zip":"53933","miles_from_dt":19.96},{"city":"Cambria","state_name":"Wisconsin","lat":43.57326,"lng":-89.13753,"zip":"53923","miles_from_dt":20.51},{"city":"Wautoma","state_name":"Wisconsin","lat":44.07007,"lng":-89.29223,"zip":"54982","miles_from_dt":21.33},{"city":"Randolph","state_name":"Wisconsin","lat":43.54166,"lng":-89.01849,"zip":"53956","miles_from_dt":21.38},{"city":"Randolph","state_name":"Wisconsin","lat":43.5378,"lng":-89.0022,"zip":"53957","miles_from_dt":21.61},{"city":"Pine River","state_name":"Wisconsin","lat":44.16429,"lng":-89.0324,"zip":"54965","miles_from_dt":21.75},{"city":"Oshkosh","state_name":"Wisconsin","lat":44.02346,"lng":-88.62592,"zip":"54904","miles_from_dt":21.77},{"city":"Winneconne","state_name":"Wisconsin","lat":44.11981,"lng":-88.75127,"zip":"54986","miles_from_dt":22.09},{"city":"Van Dyne","state_name":"Wisconsin","lat":43.8688,"lng":-88.53875,"zip":"54979","miles_from_dt":22.63},{"city":"Saxeville","state_name":"Wisconsin","lat":44.1753,"lng":-89.1141,"zip":"54976","miles_from_dt":23.24},{"city":"Oshkosh","state_name":"Wisconsin","lat":43.94934,"lng":-88.53969,"zip":"54902","miles_from_dt":23.54},{"city":"Oshkosh","state_name":"Wisconsin","lat":43.9977,"lng":-88.56034,"zip":"54903","miles_from_dt":23.77},{"city":"Packwaukee","state_name":"Wisconsin","lat":43.76606,"lng":-89.458,"zip":"53953","miles_from_dt":24.07},{"city":"Oakfield","state_name":"Wisconsin","lat":43.68227,"lng":-88.56866,"zip":"53065","miles_from_dt":24.12},{"city":"Butte Des Morts","state_name":"Wisconsin","lat":44.10192,"lng":-88.6548,"zip":"54927","miles_from_dt":24.12},{"city":"Oshkosh","state_name":"Wisconsin","lat":44.019,"lng":-88.55343,"zip":"54906","miles_from_dt":24.73},{"city":"Wild Rose","state_name":"Wisconsin","lat":44.18728,"lng":-89.21967,"zip":"54984","miles_from_dt":25.88},{"city":"Westfield","state_name":"Wisconsin","lat":43.91253,"lng":-89.5025,"zip":"53964","miles_from_dt":25.9},{"city":"Pardeeville","state_name":"Wisconsin","lat":43.55518,"lng":-89.31325,"zip":"53954","miles_from_dt":26.01},{"city":"Fremont","state_name":"Wisconsin","lat":44.22696,"lng":-88.84446,"zip":"54940","miles_from_dt":26.99},{"city":"Burnett","state_name":"Wisconsin","lat":43.51558,"lng":-88.70916,"zip":"53922","miles_from_dt":27.1},{"city":"Oshkosh","state_name":"Wisconsin","lat":44.06265,"lng":-88.53335,"zip":"54901","miles_from_dt":27.12},{"city":"Fond Du Lac","state_name":"Wisconsin","lat":43.77351,"lng":-88.4478,"zip":"54936","miles_from_dt":27.68},{"city":"Endeavor","state_name":"Wisconsin","lat":43.683,"lng":-89.49506,"zip":"53930","miles_from_dt":27.75},{"city":"Brownsville","state_name":"Wisconsin","lat":43.62103,"lng":-88.53534,"zip":"53006","miles_from_dt":27.78},{"city":"Beaver Dam","state_name":"Wisconsin","lat":43.45538,"lng":-88.85813,"zip":"53916","miles_from_dt":28.09},{"city":"Winnebago","state_name":"Wisconsin","lat":44.07562,"lng":-88.51953,"zip":"54985","miles_from_dt":28.18},{"city":"Fond Du Lac","state_name":"Wisconsin","lat":43.77542,"lng":-88.43396,"zip":"54935","miles_from_dt":28.33},{"city":"Larsen","state_name":"Wisconsin","lat":44.20003,"lng":-88.68995,"zip":"54947","miles_from_dt":28.4},{"city":"Fond Du Lac","state_name":"Wisconsin","lat":43.75959,"lng":-88.43335,"zip":"54937","miles_from_dt":28.58},{"city":"Wyocena","state_name":"Wisconsin","lat":43.49567,"lng":-89.30176,"zip":"53969","miles_from_dt":29.04},{"city":"Fall River","state_name":"Wisconsin","lat":43.4202,"lng":-89.06543,"zip":"53932","miles_from_dt":29.95}],"targetCityZipCode":"54941","targetCityState":"Wisconsin"},"__N_SSG":true}