{"pageProps":{"stateName":"Wisconsin","cityName":"jim-falls","nearbyCities":[{"city":"Cornell","state_name":"Wisconsin","lat":45.14571,"lng":-91.16543,"zip":"54732","miles_from_dt":6.72},{"city":"Cadott","state_name":"Wisconsin","lat":44.95827,"lng":-91.15873,"zip":"54727","miles_from_dt":9.86},{"city":"Bloomer","state_name":"Wisconsin","lat":45.10793,"lng":-91.48458,"zip":"54724","miles_from_dt":10.88},{"city":"Chippewa Falls","state_name":"Wisconsin","lat":44.94533,"lng":-91.39342,"zip":"54729","miles_from_dt":11.16},{"city":"Chippewa Falls","state_name":"Wisconsin","lat":44.93371,"lng":-91.39151,"zip":"54774","miles_from_dt":11.78},{"city":"Holcombe","state_name":"Wisconsin","lat":45.24875,"lng":-91.13494,"zip":"54745","miles_from_dt":13.34},{"city":"Boyd","state_name":"Wisconsin","lat":44.94151,"lng":-91.01975,"zip":"54726","miles_from_dt":15.35},{"city":"New Auburn","state_name":"Wisconsin","lat":45.23085,"lng":-91.52498,"zip":"54757","miles_from_dt":16.43},{"city":"Stanley","state_name":"Wisconsin","lat":44.96312,"lng":-90.92761,"zip":"54768","miles_from_dt":18.4},{"city":"Conrath","state_name":"Wisconsin","lat":45.34656,"lng":-91.08304,"zip":"54731","miles_from_dt":20.51},{"city":"Altoona","state_name":"Wisconsin","lat":44.80511,"lng":-91.43646,"zip":"54720","miles_from_dt":20.69},{"city":"Eau Claire","state_name":"Wisconsin","lat":44.83311,"lng":-91.5185,"zip":"54703","miles_from_dt":21.03},{"city":"Eau Claire","state_name":"Wisconsin","lat":44.81426,"lng":-91.50198,"zip":"54702","miles_from_dt":21.65},{"city":"Fall Creek","state_name":"Wisconsin","lat":44.76319,"lng":-91.2722,"zip":"54742","miles_from_dt":21.82},{"city":"Sand Creek","state_name":"Wisconsin","lat":45.17092,"lng":-91.7028,"zip":"54765","miles_from_dt":22.28},{"city":"Colfax","state_name":"Wisconsin","lat":45.01836,"lng":-91.72143,"zip":"54730","miles_from_dt":22.69},{"city":"Gilman","state_name":"Wisconsin","lat":45.20649,"lng":-90.81756,"zip":"54433","miles_from_dt":23.61},{"city":"Chetek","state_name":"Wisconsin","lat":45.30778,"lng":-91.6417,"zip":"54728","miles_from_dt":24.21},{"city":"Thorp","state_name":"Wisconsin","lat":44.92356,"lng":-90.80579,"zip":"54771","miles_from_dt":24.97},{"city":"Elk Mound","state_name":"Wisconsin","lat":44.86177,"lng":-91.70097,"zip":"54739","miles_from_dt":26.08},{"city":"Eau Claire","state_name":"Wisconsin","lat":44.7432,"lng":-91.50899,"zip":"54701","miles_from_dt":26.09},{"city":"Lublin","state_name":"Wisconsin","lat":45.09061,"lng":-90.72911,"zip":"54447","miles_from_dt":26.27},{"city":"Augusta","state_name":"Wisconsin","lat":44.71702,"lng":-91.09874,"zip":"54722","miles_from_dt":26.32},{"city":"Sheldon","state_name":"Wisconsin","lat":45.33667,"lng":-90.86566,"zip":"54766","miles_from_dt":26.42},{"city":"Weyerhaeuser","state_name":"Wisconsin","lat":45.44233,"lng":-91.44605,"zip":"54895","miles_from_dt":26.57},{"city":"Bruce","state_name":"Wisconsin","lat":45.47636,"lng":-91.30307,"zip":"54819","miles_from_dt":27.49},{"city":"Wheeler","state_name":"Wisconsin","lat":45.09668,"lng":-91.87303,"zip":"54772","miles_from_dt":29.73}],"targetCityZipCode":"54748","targetCityState":"Wisconsin"},"__N_SSG":true}