{"pageProps":{"stateName":"Wisconsin","cityName":"lac-du-flambeau","nearbyCities":[{"city":"Minocqua","state_name":"Wisconsin","lat":45.86218,"lng":-89.82663,"zip":"54548","miles_from_dt":8.72},{"city":"Manitowish Waters","state_name":"Wisconsin","lat":46.1326,"lng":-89.85208,"zip":"54545","miles_from_dt":11.47},{"city":"Woodruff","state_name":"Wisconsin","lat":45.94876,"lng":-89.67546,"zip":"54568","miles_from_dt":11.65},{"city":"Boulder Junction","state_name":"Wisconsin","lat":46.0957,"lng":-89.66748,"zip":"54512","miles_from_dt":14.63},{"city":"Hazelhurst","state_name":"Wisconsin","lat":45.74968,"lng":-89.78822,"zip":"54531","miles_from_dt":16.55},{"city":"Mercer","state_name":"Wisconsin","lat":46.18951,"lng":-90.0994,"zip":"54547","miles_from_dt":17.42},{"city":"Sayner","state_name":"Wisconsin","lat":46.00997,"lng":-89.54365,"zip":"54560","miles_from_dt":18.06},{"city":"Park Falls","state_name":"Wisconsin","lat":45.93615,"lng":-90.29081,"zip":"54552","miles_from_dt":18.28},{"city":"Presque Isle","state_name":"Wisconsin","lat":46.22178,"lng":-89.75453,"zip":"54557","miles_from_dt":18.87},{"city":"Lake Tomahawk","state_name":"Wisconsin","lat":45.80705,"lng":-89.5762,"zip":"54539","miles_from_dt":19.93},{"city":"Saint Germain","state_name":"Wisconsin","lat":45.92417,"lng":-89.49746,"zip":"54558","miles_from_dt":20.38},{"city":"Star Lake","state_name":"Wisconsin","lat":46.07102,"lng":-89.46451,"zip":"54561","miles_from_dt":22.71},{"city":"Harshaw","state_name":"Wisconsin","lat":45.67821,"lng":-89.66006,"zip":"54529","miles_from_dt":23.75},{"city":"McNaughton","state_name":"Wisconsin","lat":45.76708,"lng":-89.51497,"zip":"54543","miles_from_dt":23.94},{"city":"Fifield","state_name":"Wisconsin","lat":45.84416,"lng":-90.38922,"zip":"54524","miles_from_dt":24.53},{"city":"Tripoli","state_name":"Wisconsin","lat":45.6105,"lng":-89.97223,"zip":"54564","miles_from_dt":25.15},{"city":"Phillips","state_name":"Wisconsin","lat":45.71977,"lng":-90.36403,"zip":"54555","miles_from_dt":27.83},{"city":"Butternut","state_name":"Wisconsin","lat":46.03761,"lng":-90.49378,"zip":"54514","miles_from_dt":28.22},{"city":"Land O'Lakes","state_name":"Wisconsin","lat":46.15505,"lng":-89.38216,"zip":"54540","miles_from_dt":28.55},{"city":"Brantwood","state_name":"Wisconsin","lat":45.58246,"lng":-90.11986,"zip":"54513","miles_from_dt":28.7}],"targetCityZipCode":"54538","targetCityState":"Wisconsin"},"__N_SSG":true}