{"pageProps":{"stateName":"Wisconsin","cityName":"milton","nearbyCities":[{"city":"Janesville","state_name":"Wisconsin","lat":42.73113,"lng":-89.03613,"zip":"53545","miles_from_dt":6.41},{"city":"Janesville","state_name":"Wisconsin","lat":42.70503,"lng":-89.00642,"zip":"53547","miles_from_dt":6.59},{"city":"Janesville","state_name":"Wisconsin","lat":42.65126,"lng":-88.94854,"zip":"53546","miles_from_dt":9.12},{"city":"Edgerton","state_name":"Wisconsin","lat":42.84763,"lng":-89.09032,"zip":"53534","miles_from_dt":9.24},{"city":"Fort Atkinson","state_name":"Wisconsin","lat":42.91697,"lng":-88.87194,"zip":"53538","miles_from_dt":9.74},{"city":"Avalon","state_name":"Wisconsin","lat":42.66063,"lng":-88.8176,"zip":"53505","miles_from_dt":10.22},{"city":"Whitewater","state_name":"Wisconsin","lat":42.80775,"lng":-88.73129,"zip":"53190","miles_from_dt":10.31},{"city":"Janesville","state_name":"Wisconsin","lat":42.68907,"lng":-89.13095,"zip":"53548","miles_from_dt":12.04},{"city":"Afton","state_name":"Wisconsin","lat":42.60484,"lng":-89.07165,"zip":"53501","miles_from_dt":14.21},{"city":"Cambridge","state_name":"Wisconsin","lat":42.98338,"lng":-89.03172,"zip":"53523","miles_from_dt":14.76},{"city":"Darien","state_name":"Wisconsin","lat":42.60721,"lng":-88.75089,"zip":"53114","miles_from_dt":15.2},{"city":"Hanover","state_name":"Wisconsin","lat":42.63262,"lng":-89.16567,"zip":"53542","miles_from_dt":15.8},{"city":"Delavan","state_name":"Wisconsin","lat":42.65443,"lng":-88.6713,"zip":"53115","miles_from_dt":15.92},{"city":"Footville","state_name":"Wisconsin","lat":42.67267,"lng":-89.21056,"zip":"53537","miles_from_dt":16.12},{"city":"Jefferson","state_name":"Wisconsin","lat":42.99056,"lng":-88.77675,"zip":"53549","miles_from_dt":16.35},{"city":"Clinton","state_name":"Wisconsin","lat":42.54579,"lng":-88.84907,"zip":"53525","miles_from_dt":16.88},{"city":"Evansville","state_name":"Wisconsin","lat":42.76366,"lng":-89.26983,"zip":"53536","miles_from_dt":17.27},{"city":"Stoughton","state_name":"Wisconsin","lat":42.92684,"lng":-89.21182,"zip":"53589","miles_from_dt":17.38},{"city":"Beloit","state_name":"Wisconsin","lat":42.54627,"lng":-89.09792,"zip":"53511","miles_from_dt":18.4},{"city":"Palmyra","state_name":"Wisconsin","lat":42.89069,"lng":-88.59012,"zip":"53156","miles_from_dt":18.86},{"city":"Orfordville","state_name":"Wisconsin","lat":42.62543,"lng":-89.23949,"zip":"53576","miles_from_dt":19.08},{"city":"Beloit","state_name":"Wisconsin","lat":42.50764,"lng":-89.0322,"zip":"53512","miles_from_dt":19.67},{"city":"Helenville","state_name":"Wisconsin","lat":43.00472,"lng":-88.66975,"zip":"53137","miles_from_dt":20.27},{"city":"Lake Mills","state_name":"Wisconsin","lat":43.07831,"lng":-88.91508,"zip":"53551","miles_from_dt":20.42},{"city":"Sharon","state_name":"Wisconsin","lat":42.53049,"lng":-88.72056,"zip":"53585","miles_from_dt":20.46},{"city":"Deerfield","state_name":"Wisconsin","lat":43.05696,"lng":-89.10114,"zip":"53531","miles_from_dt":20.8},{"city":"Elkhorn","state_name":"Wisconsin","lat":42.70989,"lng":-88.53028,"zip":"53121","miles_from_dt":21.01},{"city":"South Beloit","state_name":"Illinois","lat":42.47992,"lng":-88.98989,"zip":"61080","miles_from_dt":21.12},{"city":"Johnson Creek","state_name":"Wisconsin","lat":43.08592,"lng":-88.79031,"zip":"53038","miles_from_dt":22.11},{"city":"Cottage Grove","state_name":"Wisconsin","lat":43.06346,"lng":-89.19141,"zip":"53527","miles_from_dt":23.44},{"city":"Mcfarland","state_name":"Wisconsin","lat":43.00286,"lng":-89.28409,"zip":"53558","miles_from_dt":23.48},{"city":"Eagle","state_name":"Wisconsin","lat":42.88356,"lng":-88.4862,"zip":"53119","miles_from_dt":23.66},{"city":"Sullivan","state_name":"Wisconsin","lat":43.02335,"lng":-88.59894,"zip":"53178","miles_from_dt":23.67},{"city":"Walworth","state_name":"Wisconsin","lat":42.53075,"lng":-88.60945,"zip":"53184","miles_from_dt":23.9},{"city":"Williams Bay","state_name":"Wisconsin","lat":42.5776,"lng":-88.54574,"zip":"53191","miles_from_dt":24.21},{"city":"Brooklyn","state_name":"Wisconsin","lat":42.84217,"lng":-89.40814,"zip":"53521","miles_from_dt":24.58},{"city":"Fontana","state_name":"Wisconsin","lat":42.54532,"lng":-88.56216,"zip":"53125","miles_from_dt":24.94},{"city":"Roscoe","state_name":"Illinois","lat":42.42434,"lng":-88.99346,"zip":"61073","miles_from_dt":24.94},{"city":"Brodhead","state_name":"Wisconsin","lat":42.60133,"lng":-89.36123,"zip":"53520","miles_from_dt":25.22},{"city":"Oregon","state_name":"Wisconsin","lat":42.93148,"lng":-89.38627,"zip":"53575","miles_from_dt":25.28},{"city":"Rockton","state_name":"Illinois","lat":42.44661,"lng":-89.14109,"zip":"61072","miles_from_dt":25.55},{"city":"Dousman","state_name":"Wisconsin","lat":42.9725,"lng":-88.48859,"zip":"53118","miles_from_dt":26.01},{"city":"East Troy","state_name":"Wisconsin","lat":42.80066,"lng":-88.41783,"zip":"53120","miles_from_dt":26.13},{"city":"Albany","state_name":"Wisconsin","lat":42.73219,"lng":-89.44071,"zip":"53502","miles_from_dt":26.15},{"city":"Poplar Grove","state_name":"Illinois","lat":42.40786,"lng":-88.82747,"zip":"61065","miles_from_dt":26.41},{"city":"Watertown","state_name":"Wisconsin","lat":43.1462,"lng":-88.73365,"zip":"53094","miles_from_dt":27.01},{"city":"Caledonia","state_name":"Illinois","lat":42.38926,"lng":-88.91266,"zip":"61011","miles_from_dt":27.18},{"city":"Shirland","state_name":"Illinois","lat":42.44681,"lng":-89.20955,"zip":"61079","miles_from_dt":27.18},{"city":"Capron","state_name":"Illinois","lat":42.40749,"lng":-88.75446,"zip":"61012","miles_from_dt":27.43},{"city":"Madison","state_name":"Wisconsin","lat":43.06321,"lng":-89.31519,"zip":"53782","miles_from_dt":27.46},{"city":"Marshall","state_name":"Wisconsin","lat":43.16557,"lng":-89.08066,"zip":"53559","miles_from_dt":27.49},{"city":"Madison","state_name":"Wisconsin","lat":43.06506,"lng":-89.31454,"zip":"53716","miles_from_dt":27.53},{"city":"Waterloo","state_name":"Wisconsin","lat":43.18291,"lng":-88.97168,"zip":"53594","miles_from_dt":27.7},{"city":"Madison","state_name":"Wisconsin","lat":43.0977,"lng":-89.27332,"zip":"53718","miles_from_dt":27.81},{"city":"Springfield","state_name":"Wisconsin","lat":42.64307,"lng":-88.41444,"zip":"53176","miles_from_dt":28.02},{"city":"Lake Geneva","state_name":"Wisconsin","lat":42.57075,"lng":-88.45024,"zip":"53147","miles_from_dt":28.54},{"city":"Madison","state_name":"Wisconsin","lat":43.01521,"lng":-89.40641,"zip":"53711","miles_from_dt":28.96},{"city":"North Prairie","state_name":"Wisconsin","lat":42.94056,"lng":-88.40237,"zip":"53153","miles_from_dt":28.98},{"city":"Madison","state_name":"Wisconsin","lat":43.09856,"lng":-89.31113,"zip":"53707","miles_from_dt":29.09},{"city":"Zenda","state_name":"Wisconsin","lat":42.51397,"lng":-88.49016,"zip":"53195","miles_from_dt":29.15},{"city":"Madison","state_name":"Wisconsin","lat":43.09884,"lng":-89.31287,"zip":"53714","miles_from_dt":29.17},{"city":"Madison","state_name":"Wisconsin","lat":43.10095,"lng":-89.31233,"zip":"53708","miles_from_dt":29.26},{"city":"Madison","state_name":"Wisconsin","lat":43.03743,"lng":-89.39254,"zip":"53713","miles_from_dt":29.27},{"city":"Madison","state_name":"Wisconsin","lat":43.01563,"lng":-89.41452,"zip":"53744","miles_from_dt":29.32},{"city":"Machesney Park","state_name":"Illinois","lat":42.36365,"lng":-89.02869,"zip":"61115","miles_from_dt":29.35},{"city":"Madison","state_name":"Wisconsin","lat":43.04096,"lng":-89.39459,"zip":"53784","miles_from_dt":29.5},{"city":"Madison","state_name":"Wisconsin","lat":43.09837,"lng":-89.32492,"zip":"53794","miles_from_dt":29.55},{"city":"Madison","state_name":"Wisconsin","lat":43.09836,"lng":-89.3256,"zip":"53793","miles_from_dt":29.57},{"city":"Harvard","state_name":"Illinois","lat":42.42333,"lng":-88.61104,"zip":"60033","miles_from_dt":29.7},{"city":"Loves Park","state_name":"Illinois","lat":42.35218,"lng":-88.9962,"zip":"61132","miles_from_dt":29.9},{"city":"Loves Park","state_name":"Illinois","lat":42.35191,"lng":-88.99591,"zip":"61131","miles_from_dt":29.92}],"targetCityZipCode":"53563","targetCityState":"Wisconsin"},"__N_SSG":true}