{"pageProps":{"stateName":"Wisconsin","cityName":"osceola","nearbyCities":[{"city":"Dresser","state_name":"Wisconsin","lat":45.35358,"lng":-92.57693,"zip":"54009","miles_from_dt":6.31},{"city":"Star Prairie","state_name":"Wisconsin","lat":45.22688,"lng":-92.53459,"zip":"54026","miles_from_dt":6.79},{"city":"Shafer","state_name":"Minnesota","lat":45.38351,"lng":-92.73292,"zip":"55074","miles_from_dt":8.19},{"city":"Scandia","state_name":"Minnesota","lat":45.27363,"lng":-92.82783,"zip":"55073","miles_from_dt":8.57},{"city":"Somerset","state_name":"Wisconsin","lat":45.14184,"lng":-92.68997,"zip":"54025","miles_from_dt":9.67},{"city":"Marine On Saint Croix","state_name":"Minnesota","lat":45.20553,"lng":-92.82137,"zip":"55047","miles_from_dt":9.7},{"city":"Lindstrom","state_name":"Minnesota","lat":45.39777,"lng":-92.83074,"zip":"55045","miles_from_dt":11.93},{"city":"Taylors Falls","state_name":"Minnesota","lat":45.46029,"lng":-92.70747,"zip":"55084","miles_from_dt":12.78},{"city":"New Richmond","state_name":"Wisconsin","lat":45.11907,"lng":-92.52091,"zip":"54017","miles_from_dt":12.8},{"city":"Chisago City","state_name":"Minnesota","lat":45.35558,"lng":-92.89469,"zip":"55013","miles_from_dt":12.93},{"city":"Center City","state_name":"Minnesota","lat":45.44166,"lng":-92.78952,"zip":"55012","miles_from_dt":13.05},{"city":"Amery","state_name":"Wisconsin","lat":45.33417,"lng":-92.38703,"zip":"54001","miles_from_dt":13.47},{"city":"Centuria","state_name":"Wisconsin","lat":45.4753,"lng":-92.54017,"zip":"54824","miles_from_dt":14.59},{"city":"Saint Croix Falls","state_name":"Wisconsin","lat":45.49873,"lng":-92.64781,"zip":"54024","miles_from_dt":15.15},{"city":"Houlton","state_name":"Wisconsin","lat":45.0696,"lng":-92.75403,"zip":"54082","miles_from_dt":15.31},{"city":"Deer Park","state_name":"Wisconsin","lat":45.18781,"lng":-92.35734,"zip":"54007","miles_from_dt":15.72},{"city":"Stillwater","state_name":"Minnesota","lat":45.07446,"lng":-92.84006,"zip":"55082","miles_from_dt":16.86},{"city":"Stillwater","state_name":"Minnesota","lat":45.0584,"lng":-92.82583,"zip":"55083","miles_from_dt":17.45},{"city":"Hugo","state_name":"Minnesota","lat":45.169,"lng":-92.98059,"zip":"55038","miles_from_dt":17.74},{"city":"Forest Lake","state_name":"Minnesota","lat":45.26391,"lng":-93.0212,"zip":"55025","miles_from_dt":18.02},{"city":"Balsam Lake","state_name":"Wisconsin","lat":45.46126,"lng":-92.38403,"zip":"54810","miles_from_dt":18.12},{"city":"Stacy","state_name":"Minnesota","lat":45.39751,"lng":-92.98934,"zip":"55078","miles_from_dt":18.33},{"city":"Milltown","state_name":"Wisconsin","lat":45.51824,"lng":-92.46031,"zip":"54858","miles_from_dt":18.96},{"city":"Bayport","state_name":"Minnesota","lat":45.01183,"lng":-92.77883,"zip":"55003","miles_from_dt":19.48},{"city":"Stacy","state_name":"Minnesota","lat":45.41385,"lng":-93.03117,"zip":"55079","miles_from_dt":20.65},{"city":"Saint Paul","state_name":"Minnesota","lat":45.06675,"lng":-92.95087,"zip":"55115","miles_from_dt":20.69},{"city":"Hudson","state_name":"Wisconsin","lat":44.97949,"lng":-92.69305,"zip":"54016","miles_from_dt":20.8},{"city":"Clear Lake","state_name":"Wisconsin","lat":45.23447,"lng":-92.23051,"zip":"54005","miles_from_dt":20.81},{"city":"Wyoming","state_name":"Minnesota","lat":45.33647,"lng":-93.07214,"zip":"55092","miles_from_dt":20.83},{"city":"Cushing","state_name":"Wisconsin","lat":45.58958,"lng":-92.64824,"zip":"54006","miles_from_dt":21.42},{"city":"Roberts","state_name":"Wisconsin","lat":44.97708,"lng":-92.55218,"zip":"54023","miles_from_dt":21.44},{"city":"Willernie","state_name":"Minnesota","lat":45.05382,"lng":-92.9573,"zip":"55090","miles_from_dt":21.55},{"city":"Saint Paul","state_name":"Minnesota","lat":45.08961,"lng":-93.00418,"zip":"55110","miles_from_dt":21.61},{"city":"North Branch","state_name":"Minnesota","lat":45.50915,"lng":-92.9543,"zip":"55056","miles_from_dt":21.63},{"city":"Luck","state_name":"Wisconsin","lat":45.57106,"lng":-92.45211,"zip":"54853","miles_from_dt":22.37},{"city":"Lake Elmo","state_name":"Minnesota","lat":44.99253,"lng":-92.898,"zip":"55042","miles_from_dt":23.16},{"city":"Hammond","state_name":"Wisconsin","lat":44.96899,"lng":-92.45419,"zip":"54015","miles_from_dt":23.52},{"city":"Lakeland","state_name":"Minnesota","lat":44.94064,"lng":-92.76902,"zip":"55043","miles_from_dt":24.08},{"city":"Circle Pines","state_name":"Minnesota","lat":45.16802,"lng":-93.12431,"zip":"55014","miles_from_dt":24.28},{"city":"Glenwood City","state_name":"Wisconsin","lat":45.08134,"lng":-92.22929,"zip":"54013","miles_from_dt":24.78},{"city":"Saint Paul","state_name":"Minnesota","lat":45.08394,"lng":-93.08243,"zip":"55127","miles_from_dt":24.97},{"city":"Turtle Lake","state_name":"Wisconsin","lat":45.41374,"lng":-92.17112,"zip":"54889","miles_from_dt":25.2},{"city":"Saint Paul","state_name":"Minnesota","lat":44.98812,"lng":-92.96405,"zip":"55128","miles_from_dt":25.23},{"city":"Clayton","state_name":"Wisconsin","lat":45.30699,"lng":-92.12414,"zip":"54004","miles_from_dt":25.82},{"city":"Saint Paul","state_name":"Minnesota","lat":45.0144,"lng":-93.02616,"zip":"55109","miles_from_dt":25.86},{"city":"Baldwin","state_name":"Wisconsin","lat":44.95871,"lng":-92.37121,"zip":"54002","miles_from_dt":26.06},{"city":"Harris","state_name":"Minnesota","lat":45.58851,"lng":-92.99279,"zip":"55032","miles_from_dt":27.01},{"city":"Saint Paul","state_name":"Minnesota","lat":45.08614,"lng":-93.13581,"zip":"55126","miles_from_dt":27.12},{"city":"Afton","state_name":"Minnesota","lat":44.90138,"lng":-92.81969,"zip":"55001","miles_from_dt":27.36},{"city":"Minneapolis","state_name":"Minnesota","lat":45.17284,"lng":-93.1953,"zip":"55449","miles_from_dt":27.5},{"city":"Comstock","state_name":"Wisconsin","lat":45.49971,"lng":-92.16422,"zip":"54826","miles_from_dt":28.21},{"city":"Bethel","state_name":"Minnesota","lat":45.39281,"lng":-93.21725,"zip":"55005","miles_from_dt":28.61},{"city":"Saint Paul","state_name":"Minnesota","lat":44.91998,"lng":-92.94388,"zip":"55125","miles_from_dt":28.62},{"city":"Woodville","state_name":"Wisconsin","lat":44.95532,"lng":-92.28279,"zip":"54028","miles_from_dt":28.76},{"city":"Saint Paul","state_name":"Minnesota","lat":44.94452,"lng":-93.0058,"zip":"55133","miles_from_dt":28.87},{"city":"Saint Paul","state_name":"Minnesota","lat":44.99918,"lng":-93.09713,"zip":"55117","miles_from_dt":29.1},{"city":"Saint Paul","state_name":"Minnesota","lat":44.93972,"lng":-93.0066,"zip":"55119","miles_from_dt":29.16},{"city":"Saint Paul","state_name":"Minnesota","lat":44.89422,"lng":-92.90638,"zip":"55129","miles_from_dt":29.36},{"city":"Downing","state_name":"Wisconsin","lat":45.09045,"lng":-92.11358,"zip":"54734","miles_from_dt":29.37},{"city":"Saint Paul","state_name":"Minnesota","lat":44.95743,"lng":-93.04679,"zip":"55106","miles_from_dt":29.43},{"city":"Cedar","state_name":"Minnesota","lat":45.34108,"lng":-93.2521,"zip":"55011","miles_from_dt":29.53},{"city":"Saint Paul","state_name":"Minnesota","lat":44.97315,"lng":-93.08241,"zip":"55130","miles_from_dt":29.82},{"city":"River Falls","state_name":"Wisconsin","lat":44.84796,"lng":-92.6096,"zip":"54022","miles_from_dt":29.86},{"city":"Andover","state_name":"Minnesota","lat":45.25583,"lng":-93.26455,"zip":"55304","miles_from_dt":29.9},{"city":"Saint Paul","state_name":"Minnesota","lat":45.07443,"lng":-93.19169,"zip":"55112","miles_from_dt":29.9}],"targetCityZipCode":"54020","targetCityState":"Wisconsin"},"__N_SSG":true}