{"pageProps":{"stateName":"Wisconsin","cityName":"pine-river","nearbyCities":[{"city":"Poy Sippi","state_name":"Wisconsin","lat":44.12954,"lng":-88.98487,"zip":"54967","miles_from_dt":3.37},{"city":"Saxeville","state_name":"Wisconsin","lat":44.1753,"lng":-89.1141,"zip":"54976","miles_from_dt":4.13},{"city":"Redgranite","state_name":"Wisconsin","lat":44.07091,"lng":-89.09352,"zip":"54970","miles_from_dt":7.13},{"city":"Wild Rose","state_name":"Wisconsin","lat":44.18728,"lng":-89.21967,"zip":"54984","miles_from_dt":9.44},{"city":"Fremont","state_name":"Wisconsin","lat":44.22696,"lng":-88.84446,"zip":"54940","miles_from_dt":10.29},{"city":"Weyauwega","state_name":"Wisconsin","lat":44.31651,"lng":-88.93614,"zip":"54983","miles_from_dt":11.55},{"city":"Berlin","state_name":"Wisconsin","lat":43.99456,"lng":-88.96883,"zip":"54923","miles_from_dt":12.14},{"city":"Waupaca","state_name":"Wisconsin","lat":44.32733,"lng":-89.12558,"zip":"54981","miles_from_dt":12.17},{"city":"King","state_name":"Wisconsin","lat":44.33704,"lng":-89.14503,"zip":"54946","miles_from_dt":13.17},{"city":"Winneconne","state_name":"Wisconsin","lat":44.11981,"lng":-88.75127,"zip":"54986","miles_from_dt":14.31},{"city":"Wautoma","state_name":"Wisconsin","lat":44.07007,"lng":-89.29223,"zip":"54982","miles_from_dt":14.47},{"city":"Readfield","state_name":"Wisconsin","lat":44.27353,"lng":-88.76787,"zip":"54969","miles_from_dt":15.15},{"city":"Omro","state_name":"Wisconsin","lat":44.04524,"lng":-88.76661,"zip":"54963","miles_from_dt":15.57},{"city":"Larsen","state_name":"Wisconsin","lat":44.20003,"lng":-88.68995,"zip":"54947","miles_from_dt":17.19},{"city":"Neshkoro","state_name":"Wisconsin","lat":43.94569,"lng":-89.22386,"zip":"54960","miles_from_dt":17.85},{"city":"Waukau","state_name":"Wisconsin","lat":43.98625,"lng":-88.76906,"zip":"54980","miles_from_dt":17.97},{"city":"Almond","state_name":"Wisconsin","lat":44.28575,"lng":-89.35343,"zip":"54909","miles_from_dt":18.01},{"city":"Butte Des Morts","state_name":"Wisconsin","lat":44.10192,"lng":-88.6548,"zip":"54927","miles_from_dt":19.26},{"city":"Dale","state_name":"Wisconsin","lat":44.2703,"lng":-88.66835,"zip":"54931","miles_from_dt":19.5},{"city":"Scandinavia","state_name":"Wisconsin","lat":44.45696,"lng":-89.16471,"zip":"54977","miles_from_dt":21.25},{"city":"New London","state_name":"Wisconsin","lat":44.41173,"lng":-88.7628,"zip":"54961","miles_from_dt":21.69},{"city":"Green Lake","state_name":"Wisconsin","lat":43.85067,"lng":-88.99103,"zip":"54941","miles_from_dt":21.75},{"city":"Ogdensburg","state_name":"Wisconsin","lat":44.48059,"lng":-89.02486,"zip":"54962","miles_from_dt":21.84},{"city":"Amherst","state_name":"Wisconsin","lat":44.41122,"lng":-89.31211,"zip":"54406","miles_from_dt":21.98},{"city":"Princeton","state_name":"Wisconsin","lat":43.84872,"lng":-89.13255,"zip":"54968","miles_from_dt":22.35},{"city":"Oshkosh","state_name":"Wisconsin","lat":44.02346,"lng":-88.62592,"zip":"54904","miles_from_dt":22.44},{"city":"Hortonville","state_name":"Wisconsin","lat":44.32409,"lng":-88.6274,"zip":"54944","miles_from_dt":22.93},{"city":"Manawa","state_name":"Wisconsin","lat":44.48561,"lng":-88.91416,"zip":"54949","miles_from_dt":22.95},{"city":"Pickett","state_name":"Wisconsin","lat":43.9178,"lng":-88.71836,"zip":"54964","miles_from_dt":23.11},{"city":"Ripon","state_name":"Wisconsin","lat":43.85546,"lng":-88.83109,"zip":"54971","miles_from_dt":23.56},{"city":"Plainfield","state_name":"Wisconsin","lat":44.21276,"lng":-89.50579,"zip":"54966","miles_from_dt":23.75},{"city":"Neenah","state_name":"Wisconsin","lat":44.18444,"lng":-88.52778,"zip":"54956","miles_from_dt":25.11},{"city":"Oshkosh","state_name":"Wisconsin","lat":44.06265,"lng":-88.53335,"zip":"54901","miles_from_dt":25.8},{"city":"Oshkosh","state_name":"Wisconsin","lat":44.019,"lng":-88.55343,"zip":"54906","miles_from_dt":25.86},{"city":"Greenville","state_name":"Wisconsin","lat":44.29904,"lng":-88.54265,"zip":"54942","miles_from_dt":26.03},{"city":"Oshkosh","state_name":"Wisconsin","lat":43.9977,"lng":-88.56034,"zip":"54903","miles_from_dt":26.16},{"city":"Winnebago","state_name":"Wisconsin","lat":44.07562,"lng":-88.51953,"zip":"54985","miles_from_dt":26.23},{"city":"Nelsonville","state_name":"Wisconsin","lat":44.49867,"lng":-89.31027,"zip":"54458","miles_from_dt":26.88},{"city":"Hancock","state_name":"Wisconsin","lat":44.12377,"lng":-89.58199,"zip":"54943","miles_from_dt":27.47},{"city":"Coloma","state_name":"Wisconsin","lat":44.02884,"lng":-89.56383,"zip":"54930","miles_from_dt":28.05},{"city":"Appleton","state_name":"Wisconsin","lat":44.26353,"lng":-88.48239,"zip":"54914","miles_from_dt":28.16},{"city":"Amherst Junction","state_name":"Wisconsin","lat":44.52712,"lng":-89.29418,"zip":"54407","miles_from_dt":28.21},{"city":"Neenah","state_name":"Wisconsin","lat":44.18333,"lng":-88.4634,"zip":"54957","miles_from_dt":28.31},{"city":"Bancroft","state_name":"Wisconsin","lat":44.30155,"lng":-89.57341,"zip":"54921","miles_from_dt":28.48},{"city":"Oshkosh","state_name":"Wisconsin","lat":43.94934,"lng":-88.53969,"zip":"54902","miles_from_dt":28.67},{"city":"Iola","state_name":"Wisconsin","lat":44.57604,"lng":-89.13739,"zip":"54945","miles_from_dt":28.9},{"city":"Westfield","state_name":"Wisconsin","lat":43.91253,"lng":-89.5025,"zip":"53964","miles_from_dt":29.16},{"city":"Marquette","state_name":"Wisconsin","lat":43.74676,"lng":-89.13769,"zip":"53947","miles_from_dt":29.3},{"city":"Bear Creek","state_name":"Wisconsin","lat":44.54281,"lng":-88.74529,"zip":"54922","miles_from_dt":29.76}],"targetCityZipCode":"54965","targetCityState":"Wisconsin"},"__N_SSG":true}