{"pageProps":{"stateName":"Wisconsin","cityName":"prentice","nearbyCities":[{"city":"Ogema","state_name":"Wisconsin","lat":45.42515,"lng":-90.26924,"zip":"54459","miles_from_dt":7.95},{"city":"Catawba","state_name":"Wisconsin","lat":45.5146,"lng":-90.50217,"zip":"54515","miles_from_dt":9.26},{"city":"Brantwood","state_name":"Wisconsin","lat":45.58246,"lng":-90.11986,"zip":"54513","miles_from_dt":9.95},{"city":"Phillips","state_name":"Wisconsin","lat":45.71977,"lng":-90.36403,"zip":"54555","miles_from_dt":12.93},{"city":"Kennan","state_name":"Wisconsin","lat":45.53136,"lng":-90.60213,"zip":"54537","miles_from_dt":13.99},{"city":"Westboro","state_name":"Wisconsin","lat":45.33622,"lng":-90.41102,"zip":"54490","miles_from_dt":14.57},{"city":"Tripoli","state_name":"Wisconsin","lat":45.6105,"lng":-89.97223,"zip":"54564","miles_from_dt":17.35},{"city":"Rib Lake","state_name":"Wisconsin","lat":45.29419,"lng":-90.13852,"zip":"54470","miles_from_dt":18.74},{"city":"Hawkins","state_name":"Wisconsin","lat":45.53202,"lng":-90.71537,"zip":"54530","miles_from_dt":19.49},{"city":"Fifield","state_name":"Wisconsin","lat":45.84416,"lng":-90.38922,"zip":"54524","miles_from_dt":21.6},{"city":"Medford","state_name":"Wisconsin","lat":45.19131,"lng":-90.40172,"zip":"54451","miles_from_dt":24.18},{"city":"Glen Flora","state_name":"Wisconsin","lat":45.50969,"lng":-90.85872,"zip":"54526","miles_from_dt":26.51},{"city":"Tomahawk","state_name":"Wisconsin","lat":45.50429,"lng":-89.75114,"zip":"54487","miles_from_dt":27.41},{"city":"Park Falls","state_name":"Wisconsin","lat":45.93615,"lng":-90.29081,"zip":"54552","miles_from_dt":27.67},{"city":"Heafford Junction","state_name":"Wisconsin","lat":45.5472,"lng":-89.71518,"zip":"54532","miles_from_dt":29.06},{"city":"Hazelhurst","state_name":"Wisconsin","lat":45.74968,"lng":-89.78822,"zip":"54531","miles_from_dt":29.44}],"targetCityZipCode":"54556","targetCityState":"Wisconsin"},"__N_SSG":true}