{"pageProps":{"stateName":"Wisconsin","cityName":"stevens-point","nearbyCities":[{"city":"Stevens Point","state_name":"Wisconsin","lat":44.4916,"lng":-89.52973,"zip":"54492","miles_from_dt":5.63},{"city":"Stevens Point","state_name":"Wisconsin","lat":44.55174,"lng":-89.5092,"zip":"54482","miles_from_dt":6.69},{"city":"Rudolph","state_name":"Wisconsin","lat":44.48204,"lng":-89.78825,"zip":"54475","miles_from_dt":7.92},{"city":"Plover","state_name":"Wisconsin","lat":44.41575,"lng":-89.54062,"zip":"54467","miles_from_dt":8.59},{"city":"Junction City","state_name":"Wisconsin","lat":44.61243,"lng":-89.75264,"zip":"54443","miles_from_dt":8.6},{"city":"Custer","state_name":"Wisconsin","lat":44.58049,"lng":-89.41642,"zip":"54423","miles_from_dt":11.67},{"city":"Wisconsin Rapids","state_name":"Wisconsin","lat":44.34414,"lng":-89.74054,"zip":"54494","miles_from_dt":13.14},{"city":"Milladore","state_name":"Wisconsin","lat":44.60259,"lng":-89.8846,"zip":"54454","miles_from_dt":13.52},{"city":"Bancroft","state_name":"Wisconsin","lat":44.30155,"lng":-89.57341,"zip":"54921","miles_from_dt":15.36},{"city":"Blenker","state_name":"Wisconsin","lat":44.61838,"lng":-89.91807,"zip":"54415","miles_from_dt":15.48},{"city":"Nelsonville","state_name":"Wisconsin","lat":44.49867,"lng":-89.31027,"zip":"54458","miles_from_dt":16.2},{"city":"Rosholt","state_name":"Wisconsin","lat":44.64984,"lng":-89.35634,"zip":"54473","miles_from_dt":16.51},{"city":"Port Edwards","state_name":"Wisconsin","lat":44.34642,"lng":-89.87028,"zip":"54469","miles_from_dt":16.61},{"city":"Amherst Junction","state_name":"Wisconsin","lat":44.52712,"lng":-89.29418,"zip":"54407","miles_from_dt":16.93},{"city":"Mosinee","state_name":"Wisconsin","lat":44.7625,"lng":-89.68559,"zip":"54455","miles_from_dt":16.96},{"city":"Amherst","state_name":"Wisconsin","lat":44.41122,"lng":-89.31211,"zip":"54406","miles_from_dt":17.71},{"city":"Wisconsin Rapids","state_name":"Wisconsin","lat":44.39081,"lng":-89.95351,"zip":"54495","miles_from_dt":18},{"city":"Vesper","state_name":"Wisconsin","lat":44.45445,"lng":-90.0075,"zip":"54489","miles_from_dt":18.86},{"city":"Arpin","state_name":"Wisconsin","lat":44.54158,"lng":-90.02877,"zip":"54410","miles_from_dt":19.42},{"city":"Auburndale","state_name":"Wisconsin","lat":44.66859,"lng":-89.98238,"zip":"54412","miles_from_dt":19.92},{"city":"Almond","state_name":"Wisconsin","lat":44.28575,"lng":-89.35343,"zip":"54909","miles_from_dt":21.37},{"city":"Plainfield","state_name":"Wisconsin","lat":44.21276,"lng":-89.50579,"zip":"54966","miles_from_dt":22.14},{"city":"Hatley","state_name":"Wisconsin","lat":44.80621,"lng":-89.38838,"zip":"54440","miles_from_dt":23.28},{"city":"Scandinavia","state_name":"Wisconsin","lat":44.45696,"lng":-89.16471,"zip":"54977","miles_from_dt":23.73},{"city":"Nekoosa","state_name":"Wisconsin","lat":44.22965,"lng":-89.89502,"zip":"54457","miles_from_dt":23.74},{"city":"Rothschild","state_name":"Wisconsin","lat":44.87395,"lng":-89.62223,"zip":"54474","miles_from_dt":24.5},{"city":"Hewitt","state_name":"Wisconsin","lat":44.64202,"lng":-90.10604,"zip":"54441","miles_from_dt":24.66},{"city":"Iola","state_name":"Wisconsin","lat":44.57604,"lng":-89.13739,"zip":"54945","miles_from_dt":24.97},{"city":"Schofield","state_name":"Wisconsin","lat":44.88816,"lng":-89.52389,"zip":"54476","miles_from_dt":26.07},{"city":"Elderon","state_name":"Wisconsin","lat":44.78231,"lng":-89.24601,"zip":"54429","miles_from_dt":26.47},{"city":"King","state_name":"Wisconsin","lat":44.33704,"lng":-89.14503,"zip":"54946","miles_from_dt":27.39},{"city":"Hancock","state_name":"Wisconsin","lat":44.12377,"lng":-89.58199,"zip":"54943","miles_from_dt":27.45},{"city":"Eland","state_name":"Wisconsin","lat":44.82401,"lng":-89.25789,"zip":"54427","miles_from_dt":28.13},{"city":"Marshfield","state_name":"Wisconsin","lat":44.66796,"lng":-90.16845,"zip":"54404","miles_from_dt":28.17},{"city":"Waupaca","state_name":"Wisconsin","lat":44.32733,"lng":-89.12558,"zip":"54981","miles_from_dt":28.56},{"city":"Marshfield","state_name":"Wisconsin","lat":44.63914,"lng":-90.19755,"zip":"54449","miles_from_dt":28.88},{"city":"Stratford","state_name":"Wisconsin","lat":44.79988,"lng":-90.07962,"zip":"54484","miles_from_dt":29.18},{"city":"Wittenberg","state_name":"Wisconsin","lat":44.78963,"lng":-89.1801,"zip":"54499","miles_from_dt":29.24}],"targetCityZipCode":"54481","targetCityState":"Wisconsin"},"__N_SSG":true}