{"pageProps":{"stateName":"Wisconsin","cityName":"sturtevant","nearbyCities":[{"city":"Racine","state_name":"Wisconsin","lat":42.73014,"lng":-87.86549,"zip":"53406","miles_from_dt":4.08},{"city":"Somers","state_name":"Wisconsin","lat":42.6361,"lng":-87.90979,"zip":"53171","miles_from_dt":4.62},{"city":"Union Grove","state_name":"Wisconsin","lat":42.69815,"lng":-88.04096,"zip":"53182","miles_from_dt":5.41},{"city":"Kenosha","state_name":"Wisconsin","lat":42.61991,"lng":-87.92291,"zip":"53144","miles_from_dt":5.59},{"city":"Racine","state_name":"Wisconsin","lat":42.68738,"lng":-87.82587,"zip":"53403","miles_from_dt":5.62},{"city":"Racine","state_name":"Wisconsin","lat":42.72712,"lng":-87.82588,"zip":"53405","miles_from_dt":5.84},{"city":"Racine","state_name":"Wisconsin","lat":42.69196,"lng":-87.81478,"zip":"53401","miles_from_dt":6.14},{"city":"Racine","state_name":"Wisconsin","lat":42.7253,"lng":-87.80891,"zip":"53408","miles_from_dt":6.63},{"city":"Franksville","state_name":"Wisconsin","lat":42.78848,"lng":-87.9966,"zip":"53126","miles_from_dt":6.84},{"city":"Racine","state_name":"Wisconsin","lat":42.7572,"lng":-87.81246,"zip":"53404","miles_from_dt":7.35},{"city":"Kenosha","state_name":"Wisconsin","lat":42.61963,"lng":-87.82987,"zip":"53140","miles_from_dt":7.73},{"city":"Racine","state_name":"Wisconsin","lat":42.72608,"lng":-87.78338,"zip":"53407","miles_from_dt":7.9},{"city":"Caledonia","state_name":"Wisconsin","lat":42.82043,"lng":-87.94696,"zip":"53108","miles_from_dt":8.3},{"city":"Racine","state_name":"Wisconsin","lat":42.7989,"lng":-87.82385,"zip":"53402","miles_from_dt":8.83},{"city":"Kansasville","state_name":"Wisconsin","lat":42.68795,"lng":-88.12,"zip":"53139","miles_from_dt":9.47},{"city":"Kenosha","state_name":"Wisconsin","lat":42.58387,"lng":-87.82244,"zip":"53141","miles_from_dt":9.88},{"city":"Kenosha","state_name":"Wisconsin","lat":42.54464,"lng":-87.93765,"zip":"53142","miles_from_dt":10.76},{"city":"Kenosha","state_name":"Wisconsin","lat":42.56109,"lng":-87.83038,"zip":"53143","miles_from_dt":10.99},{"city":"Bristol","state_name":"Wisconsin","lat":42.55731,"lng":-88.03416,"zip":"53104","miles_from_dt":11.11},{"city":"Woodworth","state_name":"Wisconsin","lat":42.56281,"lng":-88.07223,"zip":"53194","miles_from_dt":11.81},{"city":"Pleasant Prairie","state_name":"Wisconsin","lat":42.52418,"lng":-87.88869,"zip":"53158","miles_from_dt":12.39},{"city":"Oak Creek","state_name":"Wisconsin","lat":42.8803,"lng":-87.90092,"zip":"53154","miles_from_dt":12.53},{"city":"Salem","state_name":"Wisconsin","lat":42.57858,"lng":-88.12999,"zip":"53168","miles_from_dt":13.03},{"city":"Franklin","state_name":"Wisconsin","lat":42.88589,"lng":-88.01063,"zip":"53132","miles_from_dt":13.37},{"city":"Russell","state_name":"Illinois","lat":42.49245,"lng":-87.91205,"zip":"60075","miles_from_dt":14.41},{"city":"Waterford","state_name":"Wisconsin","lat":42.79519,"lng":-88.19313,"zip":"53185","miles_from_dt":14.68},{"city":"Rochester","state_name":"Wisconsin","lat":42.73526,"lng":-88.22552,"zip":"53167","miles_from_dt":14.99},{"city":"South Milwaukee","state_name":"Wisconsin","lat":42.91197,"lng":-87.86266,"zip":"53172","miles_from_dt":15.05},{"city":"Camp Lake","state_name":"Wisconsin","lat":42.54094,"lng":-88.14002,"zip":"53109","miles_from_dt":15.19},{"city":"Benet Lake","state_name":"Wisconsin","lat":42.50437,"lng":-88.07726,"zip":"53102","miles_from_dt":15.36},{"city":"Silver Lake","state_name":"Wisconsin","lat":42.5519,"lng":-88.16149,"zip":"53170","miles_from_dt":15.45},{"city":"Muskego","state_name":"Wisconsin","lat":42.8845,"lng":-88.12824,"zip":"53150","miles_from_dt":16.07},{"city":"Winthrop Harbor","state_name":"Illinois","lat":42.48091,"lng":-87.82978,"zip":"60096","miles_from_dt":16.07},{"city":"Trevor","state_name":"Wisconsin","lat":42.5133,"lng":-88.13159,"zip":"53179","miles_from_dt":16.36},{"city":"Greendale","state_name":"Wisconsin","lat":42.93795,"lng":-88.00003,"zip":"53129","miles_from_dt":16.73},{"city":"Zion","state_name":"Illinois","lat":42.46053,"lng":-87.86901,"zip":"60099","miles_from_dt":16.9},{"city":"New Munster","state_name":"Wisconsin","lat":42.57724,"lng":-88.22602,"zip":"53152","miles_from_dt":17.11},{"city":"Cudahy","state_name":"Wisconsin","lat":42.94671,"lng":-87.86403,"zip":"53110","miles_from_dt":17.37},{"city":"Milwaukee","state_name":"Wisconsin","lat":42.95445,"lng":-87.94374,"zip":"53221","miles_from_dt":17.54},{"city":"Hales Corners","state_name":"Wisconsin","lat":42.94092,"lng":-88.04909,"zip":"53130","miles_from_dt":17.59},{"city":"Burlington","state_name":"Wisconsin","lat":42.66412,"lng":-88.28045,"zip":"53105","miles_from_dt":17.78},{"city":"Antioch","state_name":"Illinois","lat":42.4674,"lng":-88.09419,"zip":"60002","miles_from_dt":18.03},{"city":"Wadsworth","state_name":"Illinois","lat":42.43716,"lng":-87.94663,"zip":"60083","miles_from_dt":18.18},{"city":"Wilmot","state_name":"Wisconsin","lat":42.51172,"lng":-88.18412,"zip":"53192","miles_from_dt":18.21},{"city":"Milwaukee","state_name":"Wisconsin","lat":42.96515,"lng":-87.99142,"zip":"53220","miles_from_dt":18.5},{"city":"Bassett","state_name":"Wisconsin","lat":42.5386,"lng":-88.22784,"zip":"53101","miles_from_dt":18.66},{"city":"Milwaukee","state_name":"Wisconsin","lat":42.97148,"lng":-87.90152,"zip":"53207","miles_from_dt":18.78},{"city":"Saint Francis","state_name":"Wisconsin","lat":42.97161,"lng":-87.87298,"zip":"53235","miles_from_dt":18.98},{"city":"Big Bend","state_name":"Wisconsin","lat":42.88175,"lng":-88.21542,"zip":"53103","miles_from_dt":18.98},{"city":"Honey Creek","state_name":"Wisconsin","lat":42.74557,"lng":-88.30545,"zip":"53138","miles_from_dt":19.12},{"city":"Milwaukee","state_name":"Wisconsin","lat":42.96678,"lng":-88.04333,"zip":"53228","miles_from_dt":19.19},{"city":"Twin Lakes","state_name":"Wisconsin","lat":42.51711,"lng":-88.24305,"zip":"53181","miles_from_dt":20.18},{"city":"Milwaukee","state_name":"Wisconsin","lat":42.99537,"lng":-87.99171,"zip":"53219","miles_from_dt":20.56},{"city":"Milwaukee","state_name":"Wisconsin","lat":42.99931,"lng":-87.94625,"zip":"53215","miles_from_dt":20.64},{"city":"New Berlin","state_name":"Wisconsin","lat":42.97467,"lng":-88.09845,"zip":"53151","miles_from_dt":20.67},{"city":"Lake Villa","state_name":"Illinois","lat":42.41572,"lng":-88.06094,"zip":"60046","miles_from_dt":20.68},{"city":"Waukegan","state_name":"Illinois","lat":42.40444,"lng":-87.85631,"zip":"60087","miles_from_dt":20.82},{"city":"Milwaukee","state_name":"Wisconsin","lat":43.00174,"lng":-87.97075,"zip":"53234","miles_from_dt":20.88},{"city":"Powers Lake","state_name":"Wisconsin","lat":42.55316,"lng":-88.29399,"zip":"53159","miles_from_dt":20.95},{"city":"Milwaukee","state_name":"Wisconsin","lat":42.99562,"lng":-88.04264,"zip":"53227","miles_from_dt":21.1},{"city":"Lyons","state_name":"Wisconsin","lat":42.64919,"lng":-88.35589,"zip":"53148","miles_from_dt":21.74},{"city":"New Berlin","state_name":"Wisconsin","lat":42.9718,"lng":-88.15885,"zip":"53146","miles_from_dt":21.92},{"city":"Milwaukee","state_name":"Wisconsin","lat":43.01806,"lng":-87.92552,"zip":"53204","miles_from_dt":21.93},{"city":"Milwaukee","state_name":"Wisconsin","lat":43.02222,"lng":-87.97665,"zip":"53295","miles_from_dt":22.31},{"city":"Gurnee","state_name":"Illinois","lat":42.37494,"lng":-87.94119,"zip":"60031","miles_from_dt":22.47},{"city":"Milwaukee","state_name":"Wisconsin","lat":43.02061,"lng":-88.01634,"zip":"53214","miles_from_dt":22.48},{"city":"Spring Grove","state_name":"Illinois","lat":42.45115,"lng":-88.22173,"zip":"60081","miles_from_dt":22.59},{"city":"Waukegan","state_name":"Illinois","lat":42.37022,"lng":-87.86854,"zip":"60079","miles_from_dt":23.04},{"city":"Milwaukee","state_name":"Wisconsin","lat":43.03618,"lng":-87.91696,"zip":"53201","miles_from_dt":23.19},{"city":"Milwaukee","state_name":"Wisconsin","lat":43.03629,"lng":-87.91285,"zip":"53259","miles_from_dt":23.21},{"city":"Milwaukee","state_name":"Wisconsin","lat":43.03661,"lng":-87.91206,"zip":"53290","miles_from_dt":23.23},{"city":"Milwaukee","state_name":"Wisconsin","lat":43.03694,"lng":-87.93364,"zip":"53233","miles_from_dt":23.23},{"city":"Milwaukee","state_name":"Wisconsin","lat":43.03828,"lng":-87.91603,"zip":"53203","miles_from_dt":23.34},{"city":"Milwaukee","state_name":"Wisconsin","lat":43.03945,"lng":-87.90029,"zip":"53278","miles_from_dt":23.46},{"city":"Milwaukee","state_name":"Wisconsin","lat":43.04027,"lng":-87.90747,"zip":"53274","miles_from_dt":23.5},{"city":"Milwaukee","state_name":"Wisconsin","lat":43.04181,"lng":-87.90684,"zip":"53237","miles_from_dt":23.6},{"city":"Milwaukee","state_name":"Wisconsin","lat":43.04219,"lng":-87.92019,"zip":"53293","miles_from_dt":23.6},{"city":"Milwaukee","state_name":"Wisconsin","lat":43.04345,"lng":-87.91241,"zip":"53288","miles_from_dt":23.7},{"city":"Genoa City","state_name":"Wisconsin","lat":42.52979,"lng":-88.33857,"zip":"53128","miles_from_dt":23.72},{"city":"Milwaukee","state_name":"Wisconsin","lat":43.04556,"lng":-87.96556,"zip":"53208","miles_from_dt":23.87},{"city":"Mukwonago","state_name":"Wisconsin","lat":42.87436,"lng":-88.34077,"zip":"53149","miles_from_dt":23.88},{"city":"Milwaukee","state_name":"Wisconsin","lat":43.04561,"lng":-87.89893,"zip":"53202","miles_from_dt":23.89},{"city":"Waukegan","state_name":"Illinois","lat":42.35498,"lng":-87.86467,"zip":"60085","miles_from_dt":24.11},{"city":"Milwaukee","state_name":"Wisconsin","lat":43.04889,"lng":-88.00176,"zip":"53213","miles_from_dt":24.29},{"city":"Fox Lake","state_name":"Illinois","lat":42.39543,"lng":-88.17349,"zip":"60020","miles_from_dt":24.33},{"city":"Milwaukee","state_name":"Wisconsin","lat":43.05359,"lng":-87.93363,"zip":"53205","miles_from_dt":24.38},{"city":"Waukesha","state_name":"Wisconsin","lat":42.95216,"lng":-88.28068,"zip":"53189","miles_from_dt":24.71},{"city":"Milwaukee","state_name":"Wisconsin","lat":43.04975,"lng":-88.04209,"zip":"53226","miles_from_dt":24.72},{"city":"Springfield","state_name":"Wisconsin","lat":42.64307,"lng":-88.41444,"zip":"53176","miles_from_dt":24.75},{"city":"Pell Lake","state_name":"Wisconsin","lat":42.5377,"lng":-88.36855,"zip":"53157","miles_from_dt":24.81},{"city":"Richmond","state_name":"Illinois","lat":42.46403,"lng":-88.30975,"zip":"60071","miles_from_dt":25.14},{"city":"Elm Grove","state_name":"Wisconsin","lat":43.04811,"lng":-88.08674,"zip":"53122","miles_from_dt":25.21},{"city":"Ingleside","state_name":"Illinois","lat":42.36939,"lng":-88.15309,"zip":"60041","miles_from_dt":25.43},{"city":"Milwaukee","state_name":"Wisconsin","lat":43.06889,"lng":-87.97381,"zip":"53210","miles_from_dt":25.51},{"city":"East Troy","state_name":"Wisconsin","lat":42.80066,"lng":-88.41783,"zip":"53120","miles_from_dt":25.53},{"city":"Round Lake","state_name":"Illinois","lat":42.3516,"lng":-88.10597,"zip":"60073","miles_from_dt":25.62},{"city":"Waukesha","state_name":"Wisconsin","lat":43.00888,"lng":-88.2214,"zip":"53187","miles_from_dt":25.79},{"city":"Grayslake","state_name":"Illinois","lat":42.33536,"lng":-88.04519,"zip":"60030","miles_from_dt":25.82},{"city":"Milwaukee","state_name":"Wisconsin","lat":43.07464,"lng":-87.90845,"zip":"53212","miles_from_dt":25.86},{"city":"Milwaukee","state_name":"Wisconsin","lat":43.07524,"lng":-87.93349,"zip":"53206","miles_from_dt":25.87},{"city":"Waukesha","state_name":"Wisconsin","lat":43.02305,"lng":-88.20319,"zip":"53186","miles_from_dt":26.11},{"city":"North Chicago","state_name":"Illinois","lat":42.3237,"lng":-87.86122,"zip":"60064","miles_from_dt":26.28},{"city":"Brookfield","state_name":"Wisconsin","lat":43.0625,"lng":-88.0992,"zip":"53005","miles_from_dt":26.35},{"city":"Brookfield","state_name":"Wisconsin","lat":43.06199,"lng":-88.10964,"zip":"53008","miles_from_dt":26.49},{"city":"North Chicago","state_name":"Illinois","lat":42.32027,"lng":-87.85965,"zip":"60086","miles_from_dt":26.52},{"city":"Milwaukee","state_name":"Wisconsin","lat":43.08308,"lng":-87.88485,"zip":"53211","miles_from_dt":26.53},{"city":"Milwaukee","state_name":"Wisconsin","lat":43.08634,"lng":-87.97636,"zip":"53216","miles_from_dt":26.72},{"city":"Milwaukee","state_name":"Wisconsin","lat":43.08205,"lng":-88.03496,"zip":"53222","miles_from_dt":26.83},{"city":"Milwaukee","state_name":"Wisconsin","lat":43.08412,"lng":-88.03594,"zip":"53263","miles_from_dt":26.98},{"city":"Brookfield","state_name":"Wisconsin","lat":43.061,"lng":-88.15145,"zip":"53045","miles_from_dt":27.21},{"city":"Great Lakes","state_name":"Illinois","lat":42.30685,"lng":-87.85232,"zip":"60088","miles_from_dt":27.49},{"city":"Lake Geneva","state_name":"Wisconsin","lat":42.57075,"lng":-88.45024,"zip":"53147","miles_from_dt":27.76},{"city":"Ringwood","state_name":"Illinois","lat":42.40647,"lng":-88.30637,"zip":"60072","miles_from_dt":27.78},{"city":"Libertyville","state_name":"Illinois","lat":42.29494,"lng":-87.9466,"zip":"60048","miles_from_dt":28},{"city":"Mchenry","state_name":"Illinois","lat":42.35099,"lng":-88.22412,"zip":"60051","miles_from_dt":28.29},{"city":"Waukesha","state_name":"Wisconsin","lat":43.02106,"lng":-88.29265,"zip":"53188","miles_from_dt":28.64},{"city":"Milwaukee","state_name":"Wisconsin","lat":43.11469,"lng":-87.99301,"zip":"53218","miles_from_dt":28.75},{"city":"Genesee Depot","state_name":"Wisconsin","lat":42.95991,"lng":-88.3777,"zip":"53127","miles_from_dt":28.76},{"city":"Lake Bluff","state_name":"Illinois","lat":42.2842,"lng":-87.86392,"zip":"60044","miles_from_dt":28.96},{"city":"North Prairie","state_name":"Wisconsin","lat":42.94056,"lng":-88.40237,"zip":"53153","miles_from_dt":28.97},{"city":"Butler","state_name":"Wisconsin","lat":43.10825,"lng":-88.07116,"zip":"53007","miles_from_dt":28.99},{"city":"Milwaukee","state_name":"Wisconsin","lat":43.11443,"lng":-88.042,"zip":"53225","miles_from_dt":29.09},{"city":"Milwaukee","state_name":"Wisconsin","lat":43.12871,"lng":-87.94717,"zip":"53209","miles_from_dt":29.57}],"targetCityZipCode":"53177","targetCityState":"Wisconsin"},"__N_SSG":true}