{"pageProps":{"stateName":"Wisconsin","cityName":"wausau","nearbyCities":[{"city":"Wausau","state_name":"Wisconsin","lat":45.02066,"lng":-89.6472,"zip":"54402","miles_from_dt":4.78},{"city":"Brokaw","state_name":"Wisconsin","lat":45.02749,"lng":-89.65418,"zip":"54417","miles_from_dt":4.97},{"city":"Marathon","state_name":"Wisconsin","lat":44.93094,"lng":-89.83422,"zip":"54448","miles_from_dt":6.66},{"city":"Rothschild","state_name":"Wisconsin","lat":44.87395,"lng":-89.62223,"zip":"54474","miles_from_dt":7.65},{"city":"Schofield","state_name":"Wisconsin","lat":44.88816,"lng":-89.52389,"zip":"54476","miles_from_dt":10.52},{"city":"Wausau","state_name":"Wisconsin","lat":45.03142,"lng":-89.51343,"zip":"54403","miles_from_dt":10.53},{"city":"Mosinee","state_name":"Wisconsin","lat":44.7625,"lng":-89.68559,"zip":"54455","miles_from_dt":14.13},{"city":"Edgar","state_name":"Wisconsin","lat":44.90804,"lng":-89.98832,"zip":"54426","miles_from_dt":14.33},{"city":"Ringle","state_name":"Wisconsin","lat":44.93361,"lng":-89.41914,"zip":"54471","miles_from_dt":14.34},{"city":"Athens","state_name":"Wisconsin","lat":45.05023,"lng":-90.02837,"zip":"54411","miles_from_dt":16.73},{"city":"Merrill","state_name":"Wisconsin","lat":45.20879,"lng":-89.76743,"zip":"54452","miles_from_dt":16.98},{"city":"Hatley","state_name":"Wisconsin","lat":44.80621,"lng":-89.38838,"zip":"54440","miles_from_dt":19.2},{"city":"Aniwa","state_name":"Wisconsin","lat":45.02861,"lng":-89.30922,"zip":"54408","miles_from_dt":20},{"city":"Stratford","state_name":"Wisconsin","lat":44.79988,"lng":-90.07962,"zip":"54484","miles_from_dt":21.57},{"city":"Eland","state_name":"Wisconsin","lat":44.82401,"lng":-89.25789,"zip":"54427","miles_from_dt":24.18},{"city":"Junction City","state_name":"Wisconsin","lat":44.61243,"lng":-89.75264,"zip":"54443","miles_from_dt":24.55},{"city":"Auburndale","state_name":"Wisconsin","lat":44.66859,"lng":-89.98238,"zip":"54412","miles_from_dt":24.6},{"city":"Birnamwood","state_name":"Wisconsin","lat":44.95589,"lng":-89.18202,"zip":"54414","miles_from_dt":25.79},{"city":"Elderon","state_name":"Wisconsin","lat":44.78231,"lng":-89.24601,"zip":"54429","miles_from_dt":26},{"city":"Blenker","state_name":"Wisconsin","lat":44.61838,"lng":-89.91807,"zip":"54415","miles_from_dt":26.16},{"city":"Milladore","state_name":"Wisconsin","lat":44.60259,"lng":-89.8846,"zip":"54454","miles_from_dt":26.59},{"city":"Irma","state_name":"Wisconsin","lat":45.36532,"lng":-89.65439,"zip":"54442","miles_from_dt":27.67},{"city":"Rosholt","state_name":"Wisconsin","lat":44.64984,"lng":-89.35634,"zip":"54473","miles_from_dt":27.87},{"city":"Abbotsford","state_name":"Wisconsin","lat":44.96289,"lng":-90.2797,"zip":"54405","miles_from_dt":28.03},{"city":"Antigo","state_name":"Wisconsin","lat":45.11928,"lng":-89.16909,"zip":"54409","miles_from_dt":28.41},{"city":"Stetsonville","state_name":"Wisconsin","lat":45.05908,"lng":-90.27597,"zip":"54480","miles_from_dt":28.55},{"city":"Wittenberg","state_name":"Wisconsin","lat":44.78963,"lng":-89.1801,"zip":"54499","miles_from_dt":28.65},{"city":"Colby","state_name":"Wisconsin","lat":44.89866,"lng":-90.29532,"zip":"54421","miles_from_dt":29.19},{"city":"Gleason","state_name":"Wisconsin","lat":45.35084,"lng":-89.44349,"zip":"54435","miles_from_dt":29.52},{"city":"Hewitt","state_name":"Wisconsin","lat":44.64202,"lng":-90.10604,"zip":"54441","miles_from_dt":29.75}],"targetCityZipCode":"54401","targetCityState":"Wisconsin"},"__N_SSG":true}