{"pageProps":{"stateName":"Wisconsin","cityName":"weyauwega","nearbyCities":[{"city":"Fremont","state_name":"Wisconsin","lat":44.22696,"lng":-88.84446,"zip":"54940","miles_from_dt":7.68},{"city":"Readfield","state_name":"Wisconsin","lat":44.27353,"lng":-88.76787,"zip":"54969","miles_from_dt":8.86},{"city":"Waupaca","state_name":"Wisconsin","lat":44.32733,"lng":-89.12558,"zip":"54981","miles_from_dt":9.42},{"city":"King","state_name":"Wisconsin","lat":44.33704,"lng":-89.14503,"zip":"54946","miles_from_dt":10.45},{"city":"New London","state_name":"Wisconsin","lat":44.41173,"lng":-88.7628,"zip":"54961","miles_from_dt":10.81},{"city":"Pine River","state_name":"Wisconsin","lat":44.16429,"lng":-89.0324,"zip":"54965","miles_from_dt":11.55},{"city":"Manawa","state_name":"Wisconsin","lat":44.48561,"lng":-88.91416,"zip":"54949","miles_from_dt":11.73},{"city":"Ogdensburg","state_name":"Wisconsin","lat":44.48059,"lng":-89.02486,"zip":"54962","miles_from_dt":12.15},{"city":"Poy Sippi","state_name":"Wisconsin","lat":44.12954,"lng":-88.98487,"zip":"54967","miles_from_dt":13.13},{"city":"Saxeville","state_name":"Wisconsin","lat":44.1753,"lng":-89.1141,"zip":"54976","miles_from_dt":13.16},{"city":"Dale","state_name":"Wisconsin","lat":44.2703,"lng":-88.66835,"zip":"54931","miles_from_dt":13.66},{"city":"Larsen","state_name":"Wisconsin","lat":44.20003,"lng":-88.68995,"zip":"54947","miles_from_dt":14.63},{"city":"Scandinavia","state_name":"Wisconsin","lat":44.45696,"lng":-89.16471,"zip":"54977","miles_from_dt":14.9},{"city":"Hortonville","state_name":"Wisconsin","lat":44.32409,"lng":-88.6274,"zip":"54944","miles_from_dt":15.31},{"city":"Winneconne","state_name":"Wisconsin","lat":44.11981,"lng":-88.75127,"zip":"54986","miles_from_dt":16.39},{"city":"Wild Rose","state_name":"Wisconsin","lat":44.18728,"lng":-89.21967,"zip":"54984","miles_from_dt":16.66},{"city":"Bear Creek","state_name":"Wisconsin","lat":44.54281,"lng":-88.74529,"zip":"54922","miles_from_dt":18.26},{"city":"Redgranite","state_name":"Wisconsin","lat":44.07091,"lng":-89.09352,"zip":"54970","miles_from_dt":18.67},{"city":"Greenville","state_name":"Wisconsin","lat":44.29904,"lng":-88.54265,"zip":"54942","miles_from_dt":19.55},{"city":"Amherst","state_name":"Wisconsin","lat":44.41122,"lng":-89.31211,"zip":"54406","miles_from_dt":19.74},{"city":"Butte Des Morts","state_name":"Wisconsin","lat":44.10192,"lng":-88.6548,"zip":"54927","miles_from_dt":20.37},{"city":"Iola","state_name":"Wisconsin","lat":44.57604,"lng":-89.13739,"zip":"54945","miles_from_dt":20.5},{"city":"Omro","state_name":"Wisconsin","lat":44.04524,"lng":-88.76661,"zip":"54963","miles_from_dt":20.54},{"city":"Almond","state_name":"Wisconsin","lat":44.28575,"lng":-89.35343,"zip":"54909","miles_from_dt":20.8},{"city":"Big Falls","state_name":"Wisconsin","lat":44.61553,"lng":-89.01823,"zip":"54926","miles_from_dt":21.04},{"city":"Neenah","state_name":"Wisconsin","lat":44.18444,"lng":-88.52778,"zip":"54956","miles_from_dt":22.22},{"city":"Berlin","state_name":"Wisconsin","lat":43.99456,"lng":-88.96883,"zip":"54923","miles_from_dt":22.29},{"city":"Nelsonville","state_name":"Wisconsin","lat":44.49867,"lng":-89.31027,"zip":"54458","miles_from_dt":22.39},{"city":"Shiocton","state_name":"Wisconsin","lat":44.51783,"lng":-88.57241,"zip":"54170","miles_from_dt":22.74},{"city":"Appleton","state_name":"Wisconsin","lat":44.26353,"lng":-88.48239,"zip":"54914","miles_from_dt":22.8},{"city":"Amherst Junction","state_name":"Wisconsin","lat":44.52712,"lng":-89.29418,"zip":"54407","miles_from_dt":22.92},{"city":"Marion","state_name":"Wisconsin","lat":44.65408,"lng":-88.90614,"zip":"54950","miles_from_dt":23.36},{"city":"Clintonville","state_name":"Wisconsin","lat":44.63704,"lng":-88.7372,"zip":"54929","miles_from_dt":24.22},{"city":"Waukau","state_name":"Wisconsin","lat":43.98625,"lng":-88.76906,"zip":"54980","miles_from_dt":24.27},{"city":"Wautoma","state_name":"Wisconsin","lat":44.07007,"lng":-89.29223,"zip":"54982","miles_from_dt":24.54},{"city":"Appleton","state_name":"Wisconsin","lat":44.26662,"lng":-88.43467,"zip":"54912","miles_from_dt":25.11},{"city":"Neenah","state_name":"Wisconsin","lat":44.18333,"lng":-88.4634,"zip":"54957","miles_from_dt":25.2},{"city":"Oshkosh","state_name":"Wisconsin","lat":44.02346,"lng":-88.62592,"zip":"54904","miles_from_dt":25.44},{"city":"Black Creek","state_name":"Wisconsin","lat":44.48172,"lng":-88.45551,"zip":"54106","miles_from_dt":26.39},{"city":"Winnebago","state_name":"Wisconsin","lat":44.07562,"lng":-88.51953,"zip":"54985","miles_from_dt":26.55},{"city":"Embarrass","state_name":"Wisconsin","lat":44.66535,"lng":-88.70966,"zip":"54933","miles_from_dt":26.56},{"city":"Appleton","state_name":"Wisconsin","lat":44.34145,"lng":-88.40136,"zip":"54913","miles_from_dt":26.56},{"city":"Oshkosh","state_name":"Wisconsin","lat":44.06265,"lng":-88.53335,"zip":"54901","miles_from_dt":26.6},{"city":"Appleton","state_name":"Wisconsin","lat":44.2683,"lng":-88.39632,"zip":"54919","miles_from_dt":26.98},{"city":"Appleton","state_name":"Wisconsin","lat":44.28174,"lng":-88.38086,"zip":"54911","miles_from_dt":27.64},{"city":"Oshkosh","state_name":"Wisconsin","lat":44.019,"lng":-88.55343,"zip":"54906","miles_from_dt":27.99},{"city":"Nichols","state_name":"Wisconsin","lat":44.56645,"lng":-88.47049,"zip":"54152","miles_from_dt":28.78},{"city":"Tigerton","state_name":"Wisconsin","lat":44.72595,"lng":-89.05124,"zip":"54486","miles_from_dt":28.84},{"city":"Oshkosh","state_name":"Wisconsin","lat":43.9977,"lng":-88.56034,"zip":"54903","miles_from_dt":28.87},{"city":"Appleton","state_name":"Wisconsin","lat":44.24279,"lng":-88.35928,"zip":"54915","miles_from_dt":29.06},{"city":"Plainfield","state_name":"Wisconsin","lat":44.21276,"lng":-89.50579,"zip":"54966","miles_from_dt":29.16},{"city":"Caroline","state_name":"Wisconsin","lat":44.73894,"lng":-88.88546,"zip":"54928","miles_from_dt":29.28},{"city":"Neshkoro","state_name":"Wisconsin","lat":43.94569,"lng":-89.22386,"zip":"54960","miles_from_dt":29.33},{"city":"Pickett","state_name":"Wisconsin","lat":43.9178,"lng":-88.71836,"zip":"54964","miles_from_dt":29.58},{"city":"Kimberly","state_name":"Wisconsin","lat":44.26834,"lng":-88.33852,"zip":"54136","miles_from_dt":29.82},{"city":"Custer","state_name":"Wisconsin","lat":44.58049,"lng":-89.41642,"zip":"54423","miles_from_dt":29.94}],"targetCityZipCode":"54983","targetCityState":"Wisconsin"},"__N_SSG":true}