{"pageProps":{"stateName":"Wisconsin","cityName":"wittenberg","nearbyCities":[{"city":"Elderon","state_name":"Wisconsin","lat":44.78231,"lng":-89.24601,"zip":"54429","miles_from_dt":3.28},{"city":"Eland","state_name":"Wisconsin","lat":44.82401,"lng":-89.25789,"zip":"54427","miles_from_dt":4.5},{"city":"Tigerton","state_name":"Wisconsin","lat":44.72595,"lng":-89.05124,"zip":"54486","miles_from_dt":7.72},{"city":"Hatley","state_name":"Wisconsin","lat":44.80621,"lng":-89.38838,"zip":"54440","miles_from_dt":10.3},{"city":"Birnamwood","state_name":"Wisconsin","lat":44.95589,"lng":-89.18202,"zip":"54414","miles_from_dt":11.48},{"city":"Rosholt","state_name":"Wisconsin","lat":44.64984,"lng":-89.35634,"zip":"54473","miles_from_dt":12.98},{"city":"Tilleda","state_name":"Wisconsin","lat":44.79423,"lng":-88.91405,"zip":"54978","miles_from_dt":13.09},{"city":"Bowler","state_name":"Wisconsin","lat":44.8822,"lng":-88.94153,"zip":"54416","miles_from_dt":13.35},{"city":"Leopolis","state_name":"Wisconsin","lat":44.7774,"lng":-88.88823,"zip":"54948","miles_from_dt":14.38},{"city":"Big Falls","state_name":"Wisconsin","lat":44.61553,"lng":-89.01823,"zip":"54926","miles_from_dt":14.42},{"city":"Iola","state_name":"Wisconsin","lat":44.57604,"lng":-89.13739,"zip":"54945","miles_from_dt":14.9},{"city":"Caroline","state_name":"Wisconsin","lat":44.73894,"lng":-88.88546,"zip":"54928","miles_from_dt":14.91},{"city":"Ringle","state_name":"Wisconsin","lat":44.93361,"lng":-89.41914,"zip":"54471","miles_from_dt":15.38},{"city":"Mattoon","state_name":"Wisconsin","lat":45.00367,"lng":-89.04172,"zip":"54450","miles_from_dt":16.27},{"city":"Marion","state_name":"Wisconsin","lat":44.65408,"lng":-88.90614,"zip":"54950","miles_from_dt":16.42},{"city":"Aniwa","state_name":"Wisconsin","lat":45.02861,"lng":-89.30922,"zip":"54408","miles_from_dt":17.68},{"city":"Schofield","state_name":"Wisconsin","lat":44.88816,"lng":-89.52389,"zip":"54476","miles_from_dt":18.21},{"city":"Custer","state_name":"Wisconsin","lat":44.58049,"lng":-89.41642,"zip":"54423","miles_from_dt":18.55},{"city":"Amherst Junction","state_name":"Wisconsin","lat":44.52712,"lng":-89.29418,"zip":"54407","miles_from_dt":18.98},{"city":"Gresham","state_name":"Wisconsin","lat":44.86675,"lng":-88.80525,"zip":"54128","miles_from_dt":19.17},{"city":"Phlox","state_name":"Wisconsin","lat":45.05486,"lng":-89.01748,"zip":"54464","miles_from_dt":19.98},{"city":"Nelsonville","state_name":"Wisconsin","lat":44.49867,"lng":-89.31027,"zip":"54458","miles_from_dt":21.09},{"city":"Rothschild","state_name":"Wisconsin","lat":44.87395,"lng":-89.62223,"zip":"54474","miles_from_dt":22.49},{"city":"Ogdensburg","state_name":"Wisconsin","lat":44.48059,"lng":-89.02486,"zip":"54962","miles_from_dt":22.67},{"city":"Antigo","state_name":"Wisconsin","lat":45.11928,"lng":-89.16909,"zip":"54409","miles_from_dt":22.77},{"city":"Neopit","state_name":"Wisconsin","lat":44.97237,"lng":-88.7906,"zip":"54150","miles_from_dt":22.91},{"city":"Scandinavia","state_name":"Wisconsin","lat":44.45696,"lng":-89.16471,"zip":"54977","miles_from_dt":22.98},{"city":"Stevens Point","state_name":"Wisconsin","lat":44.55174,"lng":-89.5092,"zip":"54482","miles_from_dt":23.08},{"city":"Wausau","state_name":"Wisconsin","lat":45.03142,"lng":-89.51343,"zip":"54403","miles_from_dt":23.37},{"city":"Clintonville","state_name":"Wisconsin","lat":44.63704,"lng":-88.7372,"zip":"54929","miles_from_dt":24.22},{"city":"Embarrass","state_name":"Wisconsin","lat":44.66535,"lng":-88.70966,"zip":"54933","miles_from_dt":24.7},{"city":"Manawa","state_name":"Wisconsin","lat":44.48561,"lng":-88.91416,"zip":"54949","miles_from_dt":24.75},{"city":"Mosinee","state_name":"Wisconsin","lat":44.7625,"lng":-89.68559,"zip":"54455","miles_from_dt":24.93},{"city":"Shawano","state_name":"Wisconsin","lat":44.77894,"lng":-88.63567,"zip":"54166","miles_from_dt":26.78},{"city":"Stevens Point","state_name":"Wisconsin","lat":44.4916,"lng":-89.52973,"zip":"54492","miles_from_dt":26.84},{"city":"Amherst","state_name":"Wisconsin","lat":44.41122,"lng":-89.31211,"zip":"54406","miles_from_dt":26.93},{"city":"Bear Creek","state_name":"Wisconsin","lat":44.54281,"lng":-88.74529,"zip":"54922","miles_from_dt":27.38},{"city":"Wausau","state_name":"Wisconsin","lat":45.02066,"lng":-89.6472,"zip":"54402","miles_from_dt":27.93},{"city":"Elton","state_name":"Wisconsin","lat":45.1395,"lng":-88.8872,"zip":"54430","miles_from_dt":28.1},{"city":"Brokaw","state_name":"Wisconsin","lat":45.02749,"lng":-89.65418,"zip":"54417","miles_from_dt":28.48},{"city":"Wausau","state_name":"Wisconsin","lat":44.96647,"lng":-89.70794,"zip":"54401","miles_from_dt":28.65},{"city":"Keshena","state_name":"Wisconsin","lat":44.91468,"lng":-88.61209,"zip":"54135","miles_from_dt":29.21},{"city":"Stevens Point","state_name":"Wisconsin","lat":44.51935,"lng":-89.63678,"zip":"54481","miles_from_dt":29.24}],"targetCityZipCode":"54499","targetCityState":"Wisconsin"},"__N_SSG":true}