{"pageProps":{"stateName":"California","cityName":"anderson","nearbyCities":[{"city":"Redding","state_name":"California","lat":40.5299,"lng":-122.31679,"zip":"96002","miles_from_dt":5.2},{"city":"Redding","state_name":"California","lat":40.56449,"lng":-122.29627,"zip":"96049","miles_from_dt":7.56},{"city":"Palo Cedro","state_name":"California","lat":40.59047,"lng":-122.20537,"zip":"96073","miles_from_dt":10.71},{"city":"Cottonwood","state_name":"California","lat":40.34232,"lng":-122.44814,"zip":"96022","miles_from_dt":10.85},{"city":"Redding","state_name":"California","lat":40.57731,"lng":-122.45443,"zip":"96001","miles_from_dt":11.55},{"city":"Redding","state_name":"California","lat":40.66664,"lng":-122.31564,"zip":"96003","miles_from_dt":14.61},{"city":"Millville","state_name":"California","lat":40.56373,"lng":-122.06646,"zip":"96062","miles_from_dt":14.62},{"city":"Shasta Lake","state_name":"California","lat":40.69141,"lng":-122.34477,"zip":"96079","miles_from_dt":16.44},{"city":"Shasta Lake","state_name":"California","lat":40.6831,"lng":-122.40046,"zip":"96089","miles_from_dt":16.52},{"city":"Redding","state_name":"California","lat":40.64146,"lng":-122.5061,"zip":"96099","miles_from_dt":16.67},{"city":"Shasta Lake","state_name":"California","lat":40.68729,"lng":-122.39927,"zip":"96019","miles_from_dt":16.78},{"city":"Shasta","state_name":"California","lat":40.63296,"lng":-122.58067,"zip":"96087","miles_from_dt":19.02},{"city":"Red Bluff","state_name":"California","lat":40.16386,"lng":-122.39171,"zip":"96080","miles_from_dt":20.61},{"city":"Igo","state_name":"California","lat":40.47695,"lng":-122.69889,"zip":"96047","miles_from_dt":20.83},{"city":"Oak Run","state_name":"California","lat":40.68226,"lng":-122.02341,"zip":"96069","miles_from_dt":21.56},{"city":"Bella Vista","state_name":"California","lat":40.73559,"lng":-122.11091,"zip":"96008","miles_from_dt":21.88},{"city":"Shingletown","state_name":"California","lat":40.50983,"lng":-121.88848,"zip":"96088","miles_from_dt":22.25},{"city":"Whiskeytown","state_name":"California","lat":40.7116,"lng":-122.60178,"zip":"96095","miles_from_dt":23.61},{"city":"Paynes Creek","state_name":"California","lat":40.35582,"lng":-121.87196,"zip":"96075","miles_from_dt":23.83},{"city":"Obrien","state_name":"California","lat":40.81222,"lng":-122.32306,"zip":"96070","miles_from_dt":24.66},{"city":"Manton","state_name":"California","lat":40.42947,"lng":-121.83465,"zip":"96059","miles_from_dt":24.84},{"city":"French Gulch","state_name":"California","lat":40.75076,"lng":-122.60004,"zip":"96033","miles_from_dt":25.64},{"city":"Whitmore","state_name":"California","lat":40.63738,"lng":-121.87552,"zip":"96096","miles_from_dt":25.86},{"city":"Proberta","state_name":"California","lat":40.08245,"lng":-122.17607,"zip":"96078","miles_from_dt":26.59},{"city":"Los Molinos","state_name":"California","lat":40.10249,"lng":-122.03213,"zip":"96055","miles_from_dt":28.27},{"city":"Gerber","state_name":"California","lat":40.04168,"lng":-122.18254,"zip":"96035","miles_from_dt":29.24}],"targetCityZipCode":"96007","targetCityState":"California"},"__N_SSG":true}