{"pageProps":{"stateName":"California","cityName":"atascadero","nearbyCities":[{"city":"Atascadero","state_name":"California","lat":35.4874,"lng":-120.64526,"zip":"93423","miles_from_dt":3.01},{"city":"Templeton","state_name":"California","lat":35.54267,"lng":-120.73417,"zip":"93465","miles_from_dt":5.98},{"city":"Morro Bay","state_name":"California","lat":35.4,"lng":-120.80495,"zip":"93442","miles_from_dt":7.83},{"city":"San Luis Obispo","state_name":"California","lat":35.32352,"lng":-120.69743,"zip":"93409","miles_from_dt":9.68},{"city":"San Luis Obispo","state_name":"California","lat":35.32117,"lng":-120.71889,"zip":"93408","miles_from_dt":9.97},{"city":"San Luis Obispo","state_name":"California","lat":35.30747,"lng":-120.66986,"zip":"93407","miles_from_dt":10.84},{"city":"San Luis Obispo","state_name":"California","lat":35.30428,"lng":-120.65683,"zip":"93410","miles_from_dt":11.16},{"city":"Morro Bay","state_name":"California","lat":35.36719,"lng":-120.85168,"zip":"93443","miles_from_dt":11.29},{"city":"San Luis Obispo","state_name":"California","lat":35.29672,"lng":-120.72618,"zip":"93405","miles_from_dt":11.7},{"city":"Creston","state_name":"California","lat":35.47686,"lng":-120.47228,"zip":"93432","miles_from_dt":12.32},{"city":"San Luis Obispo","state_name":"California","lat":35.28016,"lng":-120.65682,"zip":"93403","miles_from_dt":12.8},{"city":"Los Osos","state_name":"California","lat":35.31168,"lng":-120.83478,"zip":"93412","miles_from_dt":13.29},{"city":"Cayucos","state_name":"California","lat":35.49214,"lng":-120.92422,"zip":"93430","miles_from_dt":13.35},{"city":"Paso Robles","state_name":"California","lat":35.65888,"lng":-120.69535,"zip":"93447","miles_from_dt":13.45},{"city":"Paso Robles","state_name":"California","lat":35.65861,"lng":-120.71888,"zip":"93446","miles_from_dt":13.53},{"city":"Los Osos","state_name":"California","lat":35.29082,"lng":-120.8392,"zip":"93402","miles_from_dt":14.6},{"city":"San Luis Obispo","state_name":"California","lat":35.24625,"lng":-120.63933,"zip":"93406","miles_from_dt":15.27},{"city":"San Luis Obispo","state_name":"California","lat":35.23539,"lng":-120.61834,"zip":"93401","miles_from_dt":16.26},{"city":"Harmony","state_name":"California","lat":35.5129,"lng":-121.00844,"zip":"93435","miles_from_dt":18.27},{"city":"Avila Beach","state_name":"California","lat":35.20141,"lng":-120.78394,"zip":"93424","miles_from_dt":18.85},{"city":"Cambria","state_name":"California","lat":35.58995,"lng":-121.02943,"zip":"93428","miles_from_dt":21.01},{"city":"Pismo Beach","state_name":"California","lat":35.15803,"lng":-120.6504,"zip":"93449","miles_from_dt":21.2},{"city":"Pismo Beach","state_name":"California","lat":35.15528,"lng":-120.67139,"zip":"93448","miles_from_dt":21.3},{"city":"Grover Beach","state_name":"California","lat":35.12045,"lng":-120.61894,"zip":"93433","miles_from_dt":24.01},{"city":"Arroyo Grande","state_name":"California","lat":35.16682,"lng":-120.46617,"zip":"93420","miles_from_dt":24.07},{"city":"Grover Beach","state_name":"California","lat":35.11917,"lng":-120.62088,"zip":"93483","miles_from_dt":24.08},{"city":"Arroyo Grande","state_name":"California","lat":35.12068,"lng":-120.57442,"zip":"93421","miles_from_dt":24.54},{"city":"Oceano","state_name":"California","lat":35.099,"lng":-120.612,"zip":"93475","miles_from_dt":25.53},{"city":"Shandon","state_name":"California","lat":35.63519,"lng":-120.26951,"zip":"93461","miles_from_dt":26.48},{"city":"Oceano","state_name":"California","lat":35.03319,"lng":-120.62002,"zip":"93445","miles_from_dt":29.95}],"targetCityZipCode":"93422","targetCityState":"California"},"__N_SSG":true}