{"pageProps":{"stateName":"California","cityName":"auberry","nearbyCities":[{"city":"Tollhouse","state_name":"California","lat":36.96585,"lng":-119.31511,"zip":"93667","miles_from_dt":7.56},{"city":"Prather","state_name":"California","lat":37.00296,"lng":-119.521,"zip":"93651","miles_from_dt":9.12},{"city":"Big Creek","state_name":"California","lat":37.17622,"lng":-119.24953,"zip":"93605","miles_from_dt":10.36},{"city":"Shaver Lake","state_name":"California","lat":37.05671,"lng":-119.17981,"zip":"93664","miles_from_dt":10.79},{"city":"North Fork","state_name":"California","lat":37.27155,"lng":-119.45004,"zip":"93643","miles_from_dt":14.88},{"city":"Clovis","state_name":"California","lat":36.91656,"lng":-119.57372,"zip":"93619","miles_from_dt":15},{"city":"O'Neals","state_name":"California","lat":37.1641,"lng":-119.61824,"zip":"93645","miles_from_dt":15.1},{"city":"Piedra","state_name":"California","lat":36.824,"lng":-119.35505,"zip":"93649","miles_from_dt":16.61},{"city":"Friant","state_name":"California","lat":37.03278,"lng":-119.68601,"zip":"93626","miles_from_dt":17.34},{"city":"Wishon","state_name":"California","lat":37.28334,"lng":-119.54297,"zip":"93669","miles_from_dt":17.72},{"city":"Sanger","state_name":"California","lat":36.78853,"lng":-119.4378,"zip":"93657","miles_from_dt":19.34},{"city":"Coarsegold","state_name":"California","lat":37.21282,"lng":-119.72659,"zip":"93614","miles_from_dt":21.95},{"city":"Dunlap","state_name":"California","lat":36.8067,"lng":-119.13602,"zip":"93621","miles_from_dt":22.15},{"city":"Bass Lake","state_name":"California","lat":37.3717,"lng":-119.52215,"zip":"93604","miles_from_dt":22.7},{"city":"Clovis","state_name":"California","lat":36.79785,"lng":-119.6406,"zip":"93613","miles_from_dt":23.54},{"city":"Clovis","state_name":"California","lat":36.82552,"lng":-119.68115,"zip":"93611","miles_from_dt":23.64},{"city":"Fresno","state_name":"California","lat":36.90354,"lng":-119.75512,"zip":"93730","miles_from_dt":23.78},{"city":"Fresno","state_name":"California","lat":36.80321,"lng":-119.67992,"zip":"93747","miles_from_dt":24.69},{"city":"Squaw Valley","state_name":"California","lat":36.73251,"lng":-119.19285,"zip":"93675","miles_from_dt":25.01},{"city":"Clovis","state_name":"California","lat":36.81548,"lng":-119.71076,"zip":"93612","miles_from_dt":25.31},{"city":"Fresno","state_name":"California","lat":36.8606,"lng":-119.76228,"zip":"93720","miles_from_dt":25.64},{"city":"Lakeshore","state_name":"California","lat":37.20583,"lng":-118.93652,"zip":"93634","miles_from_dt":26.09},{"city":"Fresno","state_name":"California","lat":36.85244,"lng":-119.76557,"zip":"93729","miles_from_dt":26.1},{"city":"Fresno","state_name":"California","lat":36.75358,"lng":-119.6456,"zip":"93737","miles_from_dt":26.16},{"city":"Fresno","state_name":"California","lat":36.81638,"lng":-119.74613,"zip":"93740","miles_from_dt":26.74},{"city":"Mono Hot Springs","state_name":"California","lat":37.32667,"lng":-119.01667,"zip":"93642","miles_from_dt":26.79},{"city":"Oakhurst","state_name":"California","lat":37.41245,"lng":-119.59431,"zip":"93644","miles_from_dt":26.88},{"city":"Fresno","state_name":"California","lat":36.75363,"lng":-119.67343,"zip":"93844","miles_from_dt":27.07},{"city":"Fresno","state_name":"California","lat":36.82335,"lng":-119.76251,"zip":"93710","miles_from_dt":27.14},{"city":"Fresno","state_name":"California","lat":36.7536,"lng":-119.67814,"zip":"93888","miles_from_dt":27.23},{"city":"Fresno","state_name":"California","lat":36.83872,"lng":-119.78801,"zip":"93750","miles_from_dt":27.66},{"city":"Fresno","state_name":"California","lat":36.75119,"lng":-119.69736,"zip":"93727","miles_from_dt":28.03},{"city":"Reedley","state_name":"California","lat":36.65747,"lng":-119.402,"zip":"93654","miles_from_dt":28.1},{"city":"Fresno","state_name":"California","lat":36.84026,"lng":-119.80038,"zip":"93650","miles_from_dt":28.17},{"city":"Madera","state_name":"California","lat":36.98171,"lng":-119.87706,"zip":"93636","miles_from_dt":28.35},{"city":"Fresno","state_name":"California","lat":36.79374,"lng":-119.76161,"zip":"93726","miles_from_dt":28.4},{"city":"Fresno","state_name":"California","lat":36.76884,"lng":-119.76249,"zip":"93703","miles_from_dt":29.6},{"city":"Fresno","state_name":"California","lat":36.83387,"lng":-119.82897,"zip":"93765","miles_from_dt":29.74},{"city":"Fresno","state_name":"California","lat":36.80012,"lng":-119.80202,"zip":"93704","miles_from_dt":29.86},{"city":"Fresno","state_name":"California","lat":36.83508,"lng":-119.83309,"zip":"93711","miles_from_dt":29.89}],"targetCityZipCode":"93602","targetCityState":"California"},"__N_SSG":true}