{"pageProps":{"stateName":"California","cityName":"bakersfield","nearbyCities":[{"city":"Bakersfield","state_name":"California","lat":35.37535,"lng":-119.02189,"zip":"93302","miles_from_dt":0.62},{"city":"Bakersfield","state_name":"California","lat":35.3732,"lng":-119.01767,"zip":"93384","miles_from_dt":0.78},{"city":"Bakersfield","state_name":"California","lat":35.37911,"lng":-118.98965,"zip":"93385","miles_from_dt":1.78},{"city":"Bakersfield","state_name":"California","lat":35.38989,"lng":-118.98515,"zip":"93305","miles_from_dt":2.04},{"city":"Bakersfield","state_name":"California","lat":35.35641,"lng":-119.00229,"zip":"93390","miles_from_dt":2.18},{"city":"Bakersfield","state_name":"California","lat":35.41886,"lng":-119.02293,"zip":"93388","miles_from_dt":2.39},{"city":"Bakersfield","state_name":"California","lat":35.35564,"lng":-119.063,"zip":"93389","miles_from_dt":3.1},{"city":"Bakersfield","state_name":"California","lat":35.33938,"lng":-119.02368,"zip":"93304","miles_from_dt":3.1},{"city":"Bakersfield","state_name":"California","lat":35.37557,"lng":-118.95466,"zip":"93386","miles_from_dt":3.77},{"city":"Bakersfield","state_name":"California","lat":35.34266,"lng":-119.06461,"zip":"93309","miles_from_dt":3.8},{"city":"Bakersfield","state_name":"California","lat":35.35151,"lng":-118.96243,"zip":"93387","miles_from_dt":3.99},{"city":"Bakersfield","state_name":"California","lat":35.39186,"lng":-119.11954,"zip":"93312","miles_from_dt":5.61},{"city":"Bakersfield","state_name":"California","lat":35.26499,"lng":-119.03195,"zip":"93383","miles_from_dt":8.25},{"city":"Bakersfield","state_name":"California","lat":35.2487,"lng":-118.93253,"zip":"93307","miles_from_dt":10.59},{"city":"Lamont","state_name":"California","lat":35.24922,"lng":-118.91224,"zip":"93241","miles_from_dt":11.14},{"city":"Bakersfield","state_name":"California","lat":35.385,"lng":-119.23741,"zip":"93314","miles_from_dt":12.24},{"city":"Bakersfield","state_name":"California","lat":35.5498,"lng":-118.93389,"zip":"93308","miles_from_dt":12.41},{"city":"Bakersfield","state_name":"California","lat":35.55048,"lng":-118.92102,"zip":"93380","miles_from_dt":12.76},{"city":"Bakersfield","state_name":"California","lat":35.55218,"lng":-118.91904,"zip":"93303","miles_from_dt":12.91},{"city":"Edison","state_name":"California","lat":35.3705,"lng":-118.78369,"zip":"93220","miles_from_dt":13.41},{"city":"Bakersfield","state_name":"California","lat":35.46595,"lng":-118.78445,"zip":"93306","miles_from_dt":14.46},{"city":"Bakersfield","state_name":"California","lat":35.16363,"lng":-119.04715,"zip":"93313","miles_from_dt":15.29},{"city":"Shafter","state_name":"California","lat":35.48722,"lng":-119.27835,"zip":"93263","miles_from_dt":16.18},{"city":"Bakersfield","state_name":"California","lat":35.15378,"lng":-119.16567,"zip":"93311","miles_from_dt":17.88},{"city":"Arvin","state_name":"California","lat":35.12158,"lng":-118.8468,"zip":"93203","miles_from_dt":20.6},{"city":"McFarland","state_name":"California","lat":35.66456,"lng":-119.20278,"zip":"93250","miles_from_dt":21.88},{"city":"Tupman","state_name":"California","lat":35.31756,"lng":-119.4092,"zip":"93276","miles_from_dt":22.43},{"city":"Woody","state_name":"California","lat":35.72387,"lng":-118.91958,"zip":"93287","miles_from_dt":24.09},{"city":"Keene","state_name":"California","lat":35.22937,"lng":-118.60781,"zip":"93531","miles_from_dt":25.65},{"city":"Buttonwillow","state_name":"California","lat":35.44402,"lng":-119.47578,"zip":"93206","miles_from_dt":26.02},{"city":"Taft","state_name":"California","lat":35.16725,"lng":-119.40785,"zip":"93268","miles_from_dt":26.52},{"city":"Delano","state_name":"California","lat":35.7764,"lng":-119.18835,"zip":"93215","miles_from_dt":28.64},{"city":"Delano","state_name":"California","lat":35.75515,"lng":-119.27606,"zip":"93216","miles_from_dt":29.34},{"city":"Glennville","state_name":"California","lat":35.7476,"lng":-118.73462,"zip":"93226","miles_from_dt":29.78},{"city":"Richgrove","state_name":"California","lat":35.81147,"lng":-119.11673,"zip":"93261","miles_from_dt":29.94}],"targetCityZipCode":"93301","targetCityState":"California"},"__N_SSG":true}