{"pageProps":{"stateName":"California","cityName":"brooks","nearbyCities":[{"city":"Capay","state_name":"California","lat":38.7899,"lng":-122.12585,"zip":"95607","miles_from_dt":4.35},{"city":"Guinda","state_name":"California","lat":38.85283,"lng":-122.2729,"zip":"95637","miles_from_dt":7.92},{"city":"Esparto","state_name":"California","lat":38.72936,"lng":-122.00959,"zip":"95627","miles_from_dt":10.12},{"city":"Rumsey","state_name":"California","lat":38.90524,"lng":-122.26727,"zip":"95679","miles_from_dt":11.03},{"city":"Madison","state_name":"California","lat":38.69151,"lng":-121.97723,"zip":"95653","miles_from_dt":12.52},{"city":"Dunnigan","state_name":"California","lat":38.88403,"lng":-121.99847,"zip":"95937","miles_from_dt":13.75},{"city":"Pope Valley","state_name":"California","lat":38.66342,"lng":-122.4349,"zip":"94567","miles_from_dt":14.51},{"city":"Zamora","state_name":"California","lat":38.8187,"lng":-121.91012,"zip":"95698","miles_from_dt":15.92},{"city":"Winters","state_name":"California","lat":38.56163,"lng":-122.00609,"zip":"95694","miles_from_dt":16.82},{"city":"Napa","state_name":"California","lat":38.50846,"lng":-122.26497,"zip":"94558","miles_from_dt":17.51},{"city":"Arbuckle","state_name":"California","lat":39.0016,"lng":-122.07462,"zip":"95912","miles_from_dt":18.12},{"city":"Angwin","state_name":"California","lat":38.57909,"lng":-122.44451,"zip":"94508","miles_from_dt":18.24},{"city":"Woodland","state_name":"California","lat":38.68847,"lng":-121.85666,"zip":"95695","miles_from_dt":18.81},{"city":"Saint Helena","state_name":"California","lat":38.52742,"lng":-122.39261,"zip":"94574","miles_from_dt":19.09},{"city":"Hidden Valley Lake","state_name":"California","lat":38.80453,"lng":-122.54948,"zip":"95467","miles_from_dt":19.49},{"city":"Lower Lake","state_name":"California","lat":38.87967,"lng":-122.52753,"zip":"95457","miles_from_dt":19.92},{"city":"Deer Park","state_name":"California","lat":38.54932,"lng":-122.47581,"zip":"94576","miles_from_dt":20.88},{"city":"Yolo","state_name":"California","lat":38.73284,"lng":-121.80701,"zip":"95697","miles_from_dt":20.96},{"city":"Middletown","state_name":"California","lat":38.762,"lng":-122.59314,"zip":"95461","miles_from_dt":21.57},{"city":"Knights Landing","state_name":"California","lat":38.89025,"lng":-121.79992,"zip":"95645","miles_from_dt":23.19},{"city":"Rutherford","state_name":"California","lat":38.45726,"lng":-122.42348,"zip":"94573","miles_from_dt":24.07},{"city":"Williams","state_name":"California","lat":39.10299,"lng":-122.2726,"zip":"95987","miles_from_dt":24.31},{"city":"Vacaville","state_name":"California","lat":38.41901,"lng":-122.02571,"zip":"95688","miles_from_dt":24.97},{"city":"Calistoga","state_name":"California","lat":38.62449,"lng":-122.62503,"zip":"94515","miles_from_dt":25.01},{"city":"Grimes","state_name":"California","lat":39.05144,"lng":-121.92196,"zip":"95950","miles_from_dt":25.1},{"city":"Davis","state_name":"California","lat":38.55819,"lng":-121.80044,"zip":"95616","miles_from_dt":25.28},{"city":"Oakville","state_name":"California","lat":38.43071,"lng":-122.40874,"zip":"94562","miles_from_dt":25.28},{"city":"Yountville","state_name":"California","lat":38.41012,"lng":-122.37365,"zip":"94599","miles_from_dt":25.77},{"city":"Woodland","state_name":"California","lat":38.68889,"lng":-121.70776,"zip":"95776","miles_from_dt":26.67},{"city":"Robbins","state_name":"California","lat":38.87224,"lng":-121.71664,"zip":"95676","miles_from_dt":26.97},{"city":"Meridian","state_name":"California","lat":39.05366,"lng":-121.82379,"zip":"95957","miles_from_dt":28.62},{"city":"Clearlake","state_name":"California","lat":38.97829,"lng":-122.6423,"zip":"95422","miles_from_dt":28.63},{"city":"Kenwood","state_name":"California","lat":38.42969,"lng":-122.5362,"zip":"95452","miles_from_dt":29.16},{"city":"Clearlake Park","state_name":"California","lat":38.9688,"lng":-122.66158,"zip":"95424","miles_from_dt":29.18},{"city":"Davis","state_name":"California","lat":38.5477,"lng":-121.72218,"zip":"95617","miles_from_dt":29.28},{"city":"Santa Rosa","state_name":"California","lat":38.47181,"lng":-122.60759,"zip":"95402","miles_from_dt":29.76},{"city":"Cobb","state_name":"California","lat":38.83449,"lng":-122.7361,"zip":"95426","miles_from_dt":29.77}],"targetCityZipCode":"95606","targetCityState":"California"},"__N_SSG":true}