{"pageProps":{"stateName":"California","cityName":"camp-nelson","nearbyCities":[{"city":"Springville","state_name":"California","lat":36.20713,"lng":-118.70876,"zip":"93265","miles_from_dt":6.58},{"city":"California Hot Springs","state_name":"California","lat":35.88721,"lng":-118.63153,"zip":"93207","miles_from_dt":16.73},{"city":"Porterville","state_name":"California","lat":35.98708,"lng":-118.89493,"zip":"93257","miles_from_dt":17.34},{"city":"Posey","state_name":"California","lat":35.81909,"lng":-118.66116,"zip":"93260","miles_from_dt":21.46},{"city":"Kernville","state_name":"California","lat":35.82799,"lng":-118.47137,"zip":"93238","miles_from_dt":22.85},{"city":"Strathmore","state_name":"California","lat":36.14279,"lng":-119.0742,"zip":"93267","miles_from_dt":24.31},{"city":"Exeter","state_name":"California","lat":36.29637,"lng":-119.02992,"zip":"93221","miles_from_dt":24.64},{"city":"Three Rivers","state_name":"California","lat":36.43661,"lng":-118.86903,"zip":"93271","miles_from_dt":24.72},{"city":"Lindsay","state_name":"California","lat":36.20234,"lng":-119.08277,"zip":"93247","miles_from_dt":25.26},{"city":"Sequoia National Park","state_name":"California","lat":36.50256,"lng":-118.68109,"zip":"93262","miles_from_dt":25.8},{"city":"Terra Bella","state_name":"California","lat":35.94703,"lng":-119.05669,"zip":"93270","miles_from_dt":26.53},{"city":"Glennville","state_name":"California","lat":35.7476,"lng":-118.73462,"zip":"93226","miles_from_dt":26.88},{"city":"Lemon Cove","state_name":"California","lat":36.3908,"lng":-118.99733,"zip":"93244","miles_from_dt":26.88},{"city":"Kaweah","state_name":"California","lat":36.47452,"lng":-118.90426,"zip":"93237","miles_from_dt":27.98},{"city":"Ducor","state_name":"California","lat":35.86194,"lng":-119.03822,"zip":"93218","miles_from_dt":28.97},{"city":"Wofford Heights","state_name":"California","lat":35.72233,"lng":-118.50871,"zip":"93285","miles_from_dt":29.04},{"city":"Porterville","state_name":"California","lat":36.05833,"lng":-119.15209,"zip":"93258","miles_from_dt":29.09}],"targetCityZipCode":"93208","targetCityState":"California"},"__N_SSG":true}