{"pageProps":{"stateName":"California","cityName":"dobbins","nearbyCities":[{"city":"Oregon House","state_name":"California","lat":39.32669,"lng":-121.26876,"zip":"95962","miles_from_dt":5.06},{"city":"Brownsville","state_name":"California","lat":39.43445,"lng":-121.26554,"zip":"95919","miles_from_dt":5.6},{"city":"Challenge","state_name":"California","lat":39.46798,"lng":-121.18006,"zip":"95925","miles_from_dt":6.56},{"city":"North San Juan","state_name":"California","lat":39.39121,"lng":-121.0583,"zip":"95960","miles_from_dt":7.48},{"city":"Rackerby","state_name":"California","lat":39.42955,"lng":-121.33624,"zip":"95972","miles_from_dt":8.43},{"city":"Camptonville","state_name":"California","lat":39.47033,"lng":-121.07736,"zip":"95922","miles_from_dt":9.21},{"city":"Browns Valley","state_name":"California","lat":39.301,"lng":-121.34547,"zip":"95918","miles_from_dt":9.44},{"city":"Bangor","state_name":"California","lat":39.40756,"lng":-121.37878,"zip":"95914","miles_from_dt":10.05},{"city":"Rough And Ready","state_name":"California","lat":39.22436,"lng":-121.15367,"zip":"95975","miles_from_dt":10.55},{"city":"Penn Valley","state_name":"California","lat":39.21052,"lng":-121.20467,"zip":"95946","miles_from_dt":11.27},{"city":"Clipper Mills","state_name":"California","lat":39.54679,"lng":-121.1606,"zip":"95930","miles_from_dt":12.09},{"city":"Forbestown","state_name":"California","lat":39.5588,"lng":-121.24157,"zip":"95941","miles_from_dt":13},{"city":"Smartsville","state_name":"California","lat":39.17967,"lng":-121.29007,"zip":"95977","miles_from_dt":14.3},{"city":"Oroville","state_name":"California","lat":39.47332,"lng":-121.43284,"zip":"95966","miles_from_dt":14.41},{"city":"Cedar Ridge","state_name":"California","lat":39.19808,"lng":-121.01896,"zip":"95924","miles_from_dt":15.39},{"city":"Grass Valley","state_name":"California","lat":39.19426,"lng":-120.98199,"zip":"95945","miles_from_dt":16.88},{"city":"Nevada City","state_name":"California","lat":39.34509,"lng":-120.86797,"zip":"95959","miles_from_dt":17.69},{"city":"Marysville","state_name":"California","lat":39.2225,"lng":-121.48855,"zip":"95901","miles_from_dt":18.83},{"city":"Grass Valley","state_name":"California","lat":39.102,"lng":-121.13343,"zip":"95949","miles_from_dt":19.04},{"city":"Chicago Park","state_name":"California","lat":39.16232,"lng":-120.95675,"zip":"95712","miles_from_dt":19.43},{"city":"Palermo","state_name":"California","lat":39.43514,"lng":-121.55179,"zip":"95968","miles_from_dt":19.5},{"city":"Beale Afb","state_name":"California","lat":39.11337,"lng":-121.37192,"zip":"95903","miles_from_dt":20.28},{"city":"Alleghany","state_name":"California","lat":39.46742,"lng":-120.83158,"zip":"95910","miles_from_dt":20.55},{"city":"Goodyears Bar","state_name":"California","lat":39.53482,"lng":-120.86159,"zip":"95944","miles_from_dt":21.06},{"city":"Strawberry Valley","state_name":"California","lat":39.65237,"lng":-121.03447,"zip":"95981","miles_from_dt":21.08},{"city":"Feather Falls","state_name":"California","lat":39.51162,"lng":-121.55652,"zip":"95940","miles_from_dt":21.5},{"city":"Berry Creek","state_name":"California","lat":39.65945,"lng":-121.37375,"zip":"95916","miles_from_dt":21.88},{"city":"Dutch Flat","state_name":"California","lat":39.2013,"lng":-120.83677,"zip":"95714","miles_from_dt":22.64},{"city":"Washington","state_name":"California","lat":39.36149,"lng":-120.7652,"zip":"95986","miles_from_dt":23.09},{"city":"Colfax","state_name":"California","lat":39.08477,"lng":-120.92788,"zip":"95713","miles_from_dt":24.58},{"city":"Gold Run","state_name":"California","lat":39.14258,"lng":-120.84268,"zip":"95717","miles_from_dt":24.77},{"city":"Alta","state_name":"California","lat":39.22633,"lng":-120.76741,"zip":"95701","miles_from_dt":25.13},{"city":"Wheatland","state_name":"California","lat":39.04699,"lng":-121.40471,"zip":"95692","miles_from_dt":25.16},{"city":"Downieville","state_name":"California","lat":39.56336,"lng":-120.79279,"zip":"95936","miles_from_dt":25.23},{"city":"Oroville","state_name":"California","lat":39.59169,"lng":-121.59034,"zip":"95965","miles_from_dt":25.89},{"city":"Weimar","state_name":"California","lat":39.03905,"lng":-120.97738,"zip":"95736","miles_from_dt":25.9},{"city":"Auburn","state_name":"California","lat":38.99039,"lng":-121.10991,"zip":"95602","miles_from_dt":26.84},{"city":"Meadow Vista","state_name":"California","lat":39.00467,"lng":-121.02891,"zip":"95722","miles_from_dt":26.99},{"city":"Sheridan","state_name":"California","lat":38.99809,"lng":-121.35422,"zip":"95681","miles_from_dt":27.26},{"city":"Applegate","state_name":"California","lat":38.99156,"lng":-120.9864,"zip":"95703","miles_from_dt":28.67}],"targetCityZipCode":"95935","targetCityState":"California"},"__N_SSG":true}