{"pageProps":{"stateName":"California","cityName":"ducor","nearbyCities":[{"city":"Richgrove","state_name":"California","lat":35.81147,"lng":-119.11673,"zip":"93261","miles_from_dt":5.62},{"city":"Terra Bella","state_name":"California","lat":35.94703,"lng":-119.05669,"zip":"93270","miles_from_dt":5.96},{"city":"Delano","state_name":"California","lat":35.7764,"lng":-119.18835,"zip":"93215","miles_from_dt":10.29},{"city":"Woody","state_name":"California","lat":35.72387,"lng":-118.91958,"zip":"93287","miles_from_dt":11.62},{"city":"Porterville","state_name":"California","lat":35.98708,"lng":-118.89493,"zip":"93257","miles_from_dt":11.79},{"city":"Earlimart","state_name":"California","lat":35.87908,"lng":-119.28818,"zip":"93219","miles_from_dt":14.08},{"city":"Porterville","state_name":"California","lat":36.05833,"lng":-119.15209,"zip":"93258","miles_from_dt":14.97},{"city":"Delano","state_name":"California","lat":35.75515,"lng":-119.27606,"zip":"93216","miles_from_dt":15.25},{"city":"McFarland","state_name":"California","lat":35.66456,"lng":-119.20278,"zip":"93250","miles_from_dt":16.45},{"city":"Pixley","state_name":"California","lat":35.96805,"lng":-119.31251,"zip":"93256","miles_from_dt":17.03},{"city":"Glennville","state_name":"California","lat":35.7476,"lng":-118.73462,"zip":"93226","miles_from_dt":18.79},{"city":"Strathmore","state_name":"California","lat":36.14279,"lng":-119.0742,"zip":"93267","miles_from_dt":19.47},{"city":"Posey","state_name":"California","lat":35.81909,"lng":-118.66116,"zip":"93260","miles_from_dt":21.37},{"city":"Tipton","state_name":"California","lat":36.04818,"lng":-119.34535,"zip":"93272","miles_from_dt":21.48},{"city":"Bakersfield","state_name":"California","lat":35.5498,"lng":-118.93389,"zip":"93308","miles_from_dt":22.31},{"city":"Bakersfield","state_name":"California","lat":35.55218,"lng":-118.91904,"zip":"93303","miles_from_dt":22.38},{"city":"Bakersfield","state_name":"California","lat":35.55048,"lng":-118.92102,"zip":"93380","miles_from_dt":22.46},{"city":"California Hot Springs","state_name":"California","lat":35.88721,"lng":-118.63153,"zip":"93207","miles_from_dt":22.89},{"city":"Lindsay","state_name":"California","lat":36.20234,"lng":-119.08277,"zip":"93247","miles_from_dt":23.6},{"city":"Alpaugh","state_name":"California","lat":35.8555,"lng":-119.48338,"zip":"93201","miles_from_dt":24.99},{"city":"Wasco","state_name":"California","lat":35.65204,"lng":-119.44716,"zip":"93280","miles_from_dt":27.16},{"city":"Camp Nelson","state_name":"California","lat":36.1298,"lng":-118.63982,"zip":"93208","miles_from_dt":28.97},{"city":"Tulare","state_name":"California","lat":36.17978,"lng":-119.37949,"zip":"93274","miles_from_dt":29.08},{"city":"Shafter","state_name":"California","lat":35.48722,"lng":-119.27835,"zip":"93263","miles_from_dt":29.15},{"city":"Tulare","state_name":"California","lat":36.20753,"lng":-119.34371,"zip":"93275","miles_from_dt":29.33},{"city":"Exeter","state_name":"California","lat":36.29637,"lng":-119.02992,"zip":"93221","miles_from_dt":29.96}],"targetCityZipCode":"93218","targetCityState":"California"},"__N_SSG":true}