{"pageProps":{"stateName":"California","cityName":"gridley","nearbyCities":[{"city":"Biggs","state_name":"California","lat":39.42392,"lng":-121.77178,"zip":"95917","miles_from_dt":5.64},{"city":"Live Oak","state_name":"California","lat":39.25018,"lng":-121.77309,"zip":"95953","miles_from_dt":6.45},{"city":"Richvale","state_name":"California","lat":39.4973,"lng":-121.75569,"zip":"95974","miles_from_dt":10.65},{"city":"Sutter","state_name":"California","lat":39.18051,"lng":-121.80746,"zip":"95982","miles_from_dt":11.51},{"city":"Butte City","state_name":"California","lat":39.46071,"lng":-121.93702,"zip":"95920","miles_from_dt":12.56},{"city":"Palermo","state_name":"California","lat":39.43514,"lng":-121.55179,"zip":"95968","miles_from_dt":12.75},{"city":"Colusa","state_name":"California","lat":39.26839,"lng":-122.00426,"zip":"95932","miles_from_dt":14.15},{"city":"Nelson","state_name":"California","lat":39.56417,"lng":-121.79804,"zip":"95958","miles_from_dt":15.41},{"city":"Feather Falls","state_name":"California","lat":39.51162,"lng":-121.55652,"zip":"95940","miles_from_dt":15.87},{"city":"Princeton","state_name":"California","lat":39.41159,"lng":-122.05176,"zip":"95970","miles_from_dt":16.42},{"city":"Marysville","state_name":"California","lat":39.2225,"lng":-121.48855,"zip":"95901","miles_from_dt":16.67},{"city":"Durham","state_name":"California","lat":39.60504,"lng":-121.79708,"zip":"95938","miles_from_dt":18.2},{"city":"Yuba City","state_name":"California","lat":39.08171,"lng":-121.68798,"zip":"95993","miles_from_dt":18.41},{"city":"Oroville","state_name":"California","lat":39.59169,"lng":-121.59034,"zip":"95965","miles_from_dt":19.37},{"city":"Oroville","state_name":"California","lat":39.47332,"lng":-121.43284,"zip":"95966","miles_from_dt":19.6},{"city":"Meridian","state_name":"California","lat":39.05366,"lng":-121.82379,"zip":"95957","miles_from_dt":20.26},{"city":"Bangor","state_name":"California","lat":39.40756,"lng":-121.37878,"zip":"95914","miles_from_dt":20.8},{"city":"Grimes","state_name":"California","lat":39.05144,"lng":-121.92196,"zip":"95950","miles_from_dt":21.94},{"city":"Glenn","state_name":"California","lat":39.57692,"lng":-122.0367,"zip":"95943","miles_from_dt":21.97},{"city":"Browns Valley","state_name":"California","lat":39.301,"lng":-121.34547,"zip":"95918","miles_from_dt":22.3},{"city":"Rackerby","state_name":"California","lat":39.42955,"lng":-121.33624,"zip":"95972","miles_from_dt":23.37},{"city":"Yuba City","state_name":"California","lat":39.02205,"lng":-121.61317,"zip":"95991","miles_from_dt":23.46},{"city":"Yuba City","state_name":"California","lat":39.0236,"lng":-121.60704,"zip":"95992","miles_from_dt":23.47},{"city":"Chico","state_name":"California","lat":39.68317,"lng":-121.83528,"zip":"95928","miles_from_dt":23.83},{"city":"Olivehurst","state_name":"California","lat":39.03343,"lng":-121.55754,"zip":"95961","miles_from_dt":23.91},{"city":"Maxwell","state_name":"California","lat":39.29657,"lng":-122.20454,"zip":"95955","miles_from_dt":24.13},{"city":"Beale Afb","state_name":"California","lat":39.11337,"lng":-121.37192,"zip":"95903","miles_from_dt":26.08},{"city":"Oregon House","state_name":"California","lat":39.32669,"lng":-121.26876,"zip":"95962","miles_from_dt":26.24},{"city":"Chico","state_name":"California","lat":39.72578,"lng":-121.85022,"zip":"95929","miles_from_dt":26.87},{"city":"Paradise","state_name":"California","lat":39.72178,"lng":-121.63388,"zip":"95969","miles_from_dt":26.97},{"city":"Brownsville","state_name":"California","lat":39.43445,"lng":-121.26554,"zip":"95919","miles_from_dt":27.12},{"city":"Smartsville","state_name":"California","lat":39.17967,"lng":-121.29007,"zip":"95977","miles_from_dt":27.51},{"city":"Wheatland","state_name":"California","lat":39.04699,"lng":-121.40471,"zip":"95692","miles_from_dt":27.87},{"city":"Chico","state_name":"California","lat":39.74573,"lng":-121.84396,"zip":"95926","miles_from_dt":28.17},{"city":"Chico","state_name":"California","lat":39.75174,"lng":-121.81253,"zip":"95927","miles_from_dt":28.35},{"city":"Paradise","state_name":"California","lat":39.74257,"lng":-121.60453,"zip":"95967","miles_from_dt":28.77},{"city":"Hamilton City","state_name":"California","lat":39.71473,"lng":-122.00197,"zip":"95951","miles_from_dt":28.77},{"city":"Chico","state_name":"California","lat":39.75384,"lng":-121.87011,"zip":"95976","miles_from_dt":28.97},{"city":"Arbuckle","state_name":"California","lat":39.0016,"lng":-122.07462,"zip":"95912","miles_from_dt":29.03},{"city":"Berry Creek","state_name":"California","lat":39.65945,"lng":-121.37375,"zip":"95916","miles_from_dt":29.98}],"targetCityZipCode":"95948","targetCityState":"California"},"__N_SSG":true}