{"pageProps":{"stateName":"California","cityName":"lewiston","nearbyCities":[{"city":"Douglas City","state_name":"California","lat":40.58767,"lng":-122.90143,"zip":"96024","miles_from_dt":8.47},{"city":"Weaverville","state_name":"California","lat":40.77237,"lng":-122.94329,"zip":"96093","miles_from_dt":9.49},{"city":"Whiskeytown","state_name":"California","lat":40.7116,"lng":-122.60178,"zip":"96095","miles_from_dt":10.75},{"city":"French Gulch","state_name":"California","lat":40.75076,"lng":-122.60004,"zip":"96033","miles_from_dt":11.6},{"city":"Shasta","state_name":"California","lat":40.63296,"lng":-122.58067,"zip":"96087","miles_from_dt":12.25},{"city":"Igo","state_name":"California","lat":40.47695,"lng":-122.69889,"zip":"96047","miles_from_dt":15.38},{"city":"Redding","state_name":"California","lat":40.64146,"lng":-122.5061,"zip":"96099","miles_from_dt":15.91},{"city":"Junction City","state_name":"California","lat":40.82613,"lng":-123.05594,"zip":"96048","miles_from_dt":16.44},{"city":"Redding","state_name":"California","lat":40.57731,"lng":-122.45443,"zip":"96001","miles_from_dt":19.8},{"city":"Shasta Lake","state_name":"California","lat":40.6831,"lng":-122.40046,"zip":"96089","miles_from_dt":21.17},{"city":"Shasta Lake","state_name":"California","lat":40.68729,"lng":-122.39927,"zip":"96019","miles_from_dt":21.23},{"city":"Platina","state_name":"California","lat":40.37547,"lng":-122.92996,"zip":"96076","miles_from_dt":22.38},{"city":"Hayfork","state_name":"California","lat":40.52059,"lng":-123.19991,"zip":"96041","miles_from_dt":23.74},{"city":"Shasta Lake","state_name":"California","lat":40.69141,"lng":-122.34477,"zip":"96079","miles_from_dt":24.09},{"city":"Trinity Center","state_name":"California","lat":41.04567,"lng":-122.78053,"zip":"96091","miles_from_dt":24.91},{"city":"Redding","state_name":"California","lat":40.66664,"lng":-122.31564,"zip":"96003","miles_from_dt":25.66},{"city":"Obrien","state_name":"California","lat":40.81222,"lng":-122.32306,"zip":"96070","miles_from_dt":26.69},{"city":"Big Bar","state_name":"California","lat":40.89735,"lng":-123.24365,"zip":"96010","miles_from_dt":27.34},{"city":"Redding","state_name":"California","lat":40.5299,"lng":-122.31679,"zip":"96002","miles_from_dt":27.74},{"city":"Lakehead","state_name":"California","lat":40.90112,"lng":-122.35664,"zip":"96051","miles_from_dt":27.77},{"city":"Redding","state_name":"California","lat":40.56449,"lng":-122.29627,"zip":"96049","miles_from_dt":27.93}],"targetCityZipCode":"96052","targetCityState":"California"},"__N_SSG":true}