{"pageProps":{"stateName":"California","cityName":"los-alamos","nearbyCities":[{"city":"Buellton","state_name":"California","lat":34.62724,"lng":-120.22465,"zip":"93427","miles_from_dt":8.35},{"city":"Los Olivos","state_name":"California","lat":34.73296,"lng":-120.09721,"zip":"93441","miles_from_dt":8.91},{"city":"Solvang","state_name":"California","lat":34.60688,"lng":-120.13495,"zip":"93463","miles_from_dt":11.71},{"city":"Lompoc","state_name":"California","lat":34.60888,"lng":-120.4002,"zip":"93436","miles_from_dt":12.64},{"city":"Santa Maria","state_name":"California","lat":34.86528,"lng":-120.435,"zip":"93457","miles_from_dt":13.22},{"city":"Santa Maria","state_name":"California","lat":34.84195,"lng":-120.45522,"zip":"93455","miles_from_dt":13.27},{"city":"Santa Maria","state_name":"California","lat":34.94834,"lng":-120.23425,"zip":"93454","miles_from_dt":13.98},{"city":"Lompoc","state_name":"California","lat":34.63638,"lng":-120.46903,"zip":"93438","miles_from_dt":14.44},{"city":"Solvang","state_name":"California","lat":34.55422,"lng":-120.14178,"zip":"93464","miles_from_dt":14.66},{"city":"Lompoc","state_name":"California","lat":34.76049,"lng":-120.51102,"zip":"93437","miles_from_dt":14.72},{"city":"Santa Maria","state_name":"California","lat":34.94212,"lng":-120.46167,"zip":"93456","miles_from_dt":17.98},{"city":"Casmalia","state_name":"California","lat":34.86682,"lng":-120.53582,"zip":"93429","miles_from_dt":18.11},{"city":"Santa Maria","state_name":"California","lat":34.95477,"lng":-120.49042,"zip":"93458","miles_from_dt":19.73},{"city":"Goleta","state_name":"California","lat":34.49102,"lng":-120.08201,"zip":"93117","miles_from_dt":20.1},{"city":"Santa Ynez","state_name":"California","lat":34.66214,"lng":-119.90091,"zip":"93460","miles_from_dt":20.86},{"city":"Goleta","state_name":"California","lat":34.49117,"lng":-120.03883,"zip":"93116","miles_from_dt":21.39},{"city":"Goleta","state_name":"California","lat":34.48974,"lng":-120.03953,"zip":"93199","miles_from_dt":21.45},{"city":"Guadalupe","state_name":"California","lat":34.94086,"lng":-120.6113,"zip":"93434","miles_from_dt":24.4},{"city":"Nipomo","state_name":"California","lat":35.03553,"lng":-120.50293,"zip":"93444","miles_from_dt":24.49},{"city":"Oceano","state_name":"California","lat":35.03319,"lng":-120.62002,"zip":"93445","miles_from_dt":28.75}],"targetCityZipCode":"93440","targetCityState":"California"},"__N_SSG":true}