{"pageProps":{"stateName":"California","cityName":"malibu","nearbyCities":[{"city":"Malibu","state_name":"California","lat":34.04351,"lng":-118.77104,"zip":"90264","miles_from_dt":3.62},{"city":"Calabasas","state_name":"California","lat":34.12295,"lng":-118.67193,"zip":"91302","miles_from_dt":6.13},{"city":"Agoura Hills","state_name":"California","lat":34.12314,"lng":-118.75685,"zip":"91301","miles_from_dt":6.43},{"city":"Topanga","state_name":"California","lat":34.09725,"lng":-118.6125,"zip":"90290","miles_from_dt":6.79},{"city":"Agoura Hills","state_name":"California","lat":34.14044,"lng":-118.75157,"zip":"91376","miles_from_dt":7.41},{"city":"Malibu","state_name":"California","lat":34.07282,"lng":-118.84995,"zip":"90265","miles_from_dt":8.46},{"city":"Calabasas","state_name":"California","lat":34.1545,"lng":-118.64317,"zip":"91372","miles_from_dt":8.78},{"city":"Pacific Palisades","state_name":"California","lat":34.08066,"lng":-118.54459,"zip":"90272","miles_from_dt":9.81},{"city":"Woodland Hills","state_name":"California","lat":34.1548,"lng":-118.59492,"zip":"91364","miles_from_dt":10.28},{"city":"Oak Park","state_name":"California","lat":34.1847,"lng":-118.76652,"zip":"91377","miles_from_dt":10.57},{"city":"Woodland Hills","state_name":"California","lat":34.17708,"lng":-118.61518,"zip":"91367","miles_from_dt":10.9},{"city":"Woodland Hills","state_name":"California","lat":34.17284,"lng":-118.60572,"zip":"91365","miles_from_dt":10.92},{"city":"Van Nuys","state_name":"California","lat":34.17779,"lng":-118.61468,"zip":"91470","miles_from_dt":10.95},{"city":"West Hills","state_name":"California","lat":34.20177,"lng":-118.66226,"zip":"91307","miles_from_dt":11.51},{"city":"Santa Monica","state_name":"California","lat":34.03598,"lng":-118.50391,"zip":"90402","miles_from_dt":11.72},{"city":"Santa Monica","state_name":"California","lat":34.01818,"lng":-118.4972,"zip":"90406","miles_from_dt":12.19},{"city":"Tarzana","state_name":"California","lat":34.15504,"lng":-118.54757,"zip":"91356","miles_from_dt":12.19},{"city":"Westlake Village","state_name":"California","lat":34.14016,"lng":-118.88398,"zip":"91361","miles_from_dt":12.25},{"city":"Thousand Oaks","state_name":"California","lat":34.19244,"lng":-118.81949,"zip":"91362","miles_from_dt":12.34},{"city":"Santa Monica","state_name":"California","lat":34.02616,"lng":-118.49197,"zip":"90408","miles_from_dt":12.43},{"city":"Santa Monica","state_name":"California","lat":34.01322,"lng":-118.49306,"zip":"90407","miles_from_dt":12.47},{"city":"Westlake Village","state_name":"California","lat":34.19444,"lng":-118.82001,"zip":"91359","miles_from_dt":12.48},{"city":"Santa Monica","state_name":"California","lat":34.01584,"lng":-118.49251,"zip":"90401","miles_from_dt":12.48},{"city":"Canoga Park","state_name":"California","lat":34.19784,"lng":-118.6017,"zip":"91303","miles_from_dt":12.52},{"city":"Santa Monica","state_name":"California","lat":34.03164,"lng":-118.48975,"zip":"90403","miles_from_dt":12.54},{"city":"Woodland Hills","state_name":"California","lat":34.18505,"lng":-118.57605,"zip":"91371","miles_from_dt":12.58},{"city":"Canoga Park","state_name":"California","lat":34.20105,"lng":-118.60416,"zip":"91305","miles_from_dt":12.65},{"city":"West Hills","state_name":"California","lat":34.20111,"lng":-118.59722,"zip":"91308","miles_from_dt":12.84},{"city":"Los Angeles","state_name":"California","lat":34.08749,"lng":-118.48976,"zip":"90049","miles_from_dt":12.96},{"city":"Santa Monica","state_name":"California","lat":34.00302,"lng":-118.48562,"zip":"90409","miles_from_dt":13.01},{"city":"Tarzana","state_name":"California","lat":34.17264,"lng":-118.54041,"zip":"91357","miles_from_dt":13.31},{"city":"Santa Monica","state_name":"California","lat":34.02665,"lng":-118.47381,"zip":"90404","miles_from_dt":13.47},{"city":"Canoga Park","state_name":"California","lat":34.22472,"lng":-118.63261,"zip":"91304","miles_from_dt":13.5},{"city":"Thousand Oaks","state_name":"California","lat":34.17891,"lng":-118.8744,"zip":"91358","miles_from_dt":13.55},{"city":"Encino","state_name":"California","lat":34.15501,"lng":-118.51595,"zip":"91426","miles_from_dt":13.61},{"city":"Encino","state_name":"California","lat":34.15836,"lng":-118.51658,"zip":"91316","miles_from_dt":13.71},{"city":"Santa Monica","state_name":"California","lat":34.01245,"lng":-118.47128,"zip":"90411","miles_from_dt":13.71},{"city":"Santa Monica","state_name":"California","lat":34.01208,"lng":-118.4679,"zip":"90405","miles_from_dt":13.91},{"city":"Canoga Park","state_name":"California","lat":34.2181,"lng":-118.59548,"zip":"91309","miles_from_dt":13.92},{"city":"Santa Monica","state_name":"California","lat":34.01465,"lng":-118.4674,"zip":"90410","miles_from_dt":13.92},{"city":"Winnetka","state_name":"California","lat":34.20926,"lng":-118.5755,"zip":"91306","miles_from_dt":13.97},{"city":"Winnetka","state_name":"California","lat":34.21026,"lng":-118.57059,"zip":"91396","miles_from_dt":14.18},{"city":"Brandeis","state_name":"California","lat":34.24527,"lng":-118.69984,"zip":"93064","miles_from_dt":14.21},{"city":"Venice","state_name":"California","lat":33.98621,"lng":-118.46828,"zip":"90294","miles_from_dt":14.24},{"city":"Los Angeles","state_name":"California","lat":34.05738,"lng":-118.45956,"zip":"90073","miles_from_dt":14.31},{"city":"Venice","state_name":"California","lat":33.99447,"lng":-118.46315,"zip":"90291","miles_from_dt":14.39},{"city":"Encino","state_name":"California","lat":34.17804,"lng":-118.51744,"zip":"91416","miles_from_dt":14.53},{"city":"Encino","state_name":"California","lat":34.15219,"lng":-118.49053,"zip":"91436","miles_from_dt":14.71},{"city":"Reseda","state_name":"California","lat":34.20107,"lng":-118.5407,"zip":"91335","miles_from_dt":14.72},{"city":"Reseda","state_name":"California","lat":34.20264,"lng":-118.53461,"zip":"91337","miles_from_dt":15.03},{"city":"Los Angeles","state_name":"California","lat":34.04551,"lng":-118.44583,"zip":"90025","miles_from_dt":15.05},{"city":"Los Angeles","state_name":"California","lat":34.10536,"lng":-118.45591,"zip":"90077","miles_from_dt":15.17},{"city":"Los Angeles","state_name":"California","lat":34.07121,"lng":-118.44334,"zip":"90095","miles_from_dt":15.35},{"city":"Chatsworth","state_name":"California","lat":34.23948,"lng":-118.58849,"zip":"91313","miles_from_dt":15.41},{"city":"Thousand Oaks","state_name":"California","lat":34.21475,"lng":-118.87735,"zip":"91360","miles_from_dt":15.51},{"city":"Marina Del Rey","state_name":"California","lat":33.97865,"lng":-118.44707,"zip":"90292","miles_from_dt":15.55},{"city":"Newbury Park","state_name":"California","lat":34.18485,"lng":-118.91642,"zip":"91319","miles_from_dt":15.6},{"city":"Simi Valley","state_name":"California","lat":34.26293,"lng":-118.75053,"zip":"93099","miles_from_dt":15.61},{"city":"Los Angeles","state_name":"California","lat":34.06565,"lng":-118.43521,"zip":"90024","miles_from_dt":15.76},{"city":"Simi Valley","state_name":"California","lat":34.26206,"lng":-118.77151,"zip":"93065","miles_from_dt":15.79},{"city":"Playa Del Rey","state_name":"California","lat":33.9561,"lng":-118.44985,"zip":"90296","miles_from_dt":15.89},{"city":"Sherman Oaks","state_name":"California","lat":34.14716,"lng":-118.46311,"zip":"91403","miles_from_dt":15.9},{"city":"Northridge","state_name":"California","lat":34.21786,"lng":-118.53117,"zip":"91328","miles_from_dt":15.95},{"city":"Marina Del Rey","state_name":"California","lat":33.98088,"lng":-118.43814,"zip":"90295","miles_from_dt":16.01},{"city":"Los Angeles","state_name":"California","lat":34.00166,"lng":-118.43104,"zip":"90066","miles_from_dt":16.11},{"city":"Los Angeles","state_name":"California","lat":34.0358,"lng":-118.42653,"zip":"90064","miles_from_dt":16.16},{"city":"Northridge","state_name":"California","lat":34.23855,"lng":-118.55015,"zip":"91324","miles_from_dt":16.45},{"city":"Newbury Park","state_name":"California","lat":34.17339,"lng":-118.94795,"zip":"91320","miles_from_dt":16.57},{"city":"Van Nuys","state_name":"California","lat":34.19791,"lng":-118.48987,"zip":"91406","miles_from_dt":16.62},{"city":"Playa Del Rey","state_name":"California","lat":33.95071,"lng":-118.43745,"zip":"90293","miles_from_dt":16.69},{"city":"Los Angeles","state_name":"California","lat":33.99574,"lng":-118.42202,"zip":"90060","miles_from_dt":16.69},{"city":"Sherman Oaks","state_name":"California","lat":34.16436,"lng":-118.45835,"zip":"91413","miles_from_dt":16.72},{"city":"Van Nuys","state_name":"California","lat":34.20364,"lng":-118.49292,"zip":"91410","miles_from_dt":16.75},{"city":"Van Nuys","state_name":"California","lat":34.16319,"lng":-118.45661,"zip":"91496","miles_from_dt":16.76},{"city":"Sherman Oaks","state_name":"California","lat":34.15111,"lng":-118.44833,"zip":"91495","miles_from_dt":16.77},{"city":"Simi Valley","state_name":"California","lat":34.27217,"lng":-118.79529,"zip":"93094","miles_from_dt":16.82},{"city":"Van Nuys","state_name":"California","lat":34.20356,"lng":-118.48977,"zip":"91409","miles_from_dt":16.88},{"city":"Los Angeles","state_name":"California","lat":34.0565,"lng":-118.41373,"zip":"90067","miles_from_dt":16.93},{"city":"Van Nuys","state_name":"California","lat":34.17853,"lng":-118.45956,"zip":"91411","miles_from_dt":17.18},{"city":"Playa Vista","state_name":"California","lat":33.97523,"lng":-118.41837,"zip":"90094","miles_from_dt":17.2},{"city":"Simi Valley","state_name":"California","lat":34.28784,"lng":-118.74102,"zip":"93062","miles_from_dt":17.24},{"city":"Beverly Hills","state_name":"California","lat":34.10251,"lng":-118.41505,"zip":"90210","miles_from_dt":17.37},{"city":"Van Nuys","state_name":"California","lat":34.20102,"lng":-118.47521,"zip":"91482","miles_from_dt":17.4},{"city":"Northridge","state_name":"California","lat":34.23636,"lng":-118.51777,"zip":"91325","miles_from_dt":17.43},{"city":"Beverly Hills","state_name":"California","lat":34.05481,"lng":-118.40416,"zip":"90213","miles_from_dt":17.47},{"city":"Northridge","state_name":"California","lat":34.24604,"lng":-118.53191,"zip":"91329","miles_from_dt":17.47},{"city":"Sherman Oaks","state_name":"California","lat":34.14924,"lng":-118.43239,"zip":"91423","miles_from_dt":17.53},{"city":"Northridge","state_name":"California","lat":34.2446,"lng":-118.52669,"zip":"91330","miles_from_dt":17.56},{"city":"Beverly Hills","state_name":"California","lat":34.06208,"lng":-118.40173,"zip":"90212","miles_from_dt":17.65},{"city":"Los Angeles","state_name":"California","lat":34.03059,"lng":-118.39936,"zip":"90034","miles_from_dt":17.73},{"city":"Los Angeles","state_name":"California","lat":34.1141,"lng":-118.4068,"zip":"90134","miles_from_dt":18.03},{"city":"Culver City","state_name":"California","lat":33.99691,"lng":-118.39487,"zip":"90230","miles_from_dt":18.21},{"city":"Culver City","state_name":"California","lat":34.01859,"lng":-118.39157,"zip":"90232","miles_from_dt":18.22},{"city":"Chatsworth","state_name":"California","lat":34.29011,"lng":-118.60776,"zip":"91311","miles_from_dt":18.23},{"city":"Van Nuys","state_name":"California","lat":34.19385,"lng":-118.44845,"zip":"91407","miles_from_dt":18.31},{"city":"Beverly Hills","state_name":"California","lat":34.072,"lng":-118.39142,"zip":"90209","miles_from_dt":18.31},{"city":"Van Nuys","state_name":"California","lat":34.2019,"lng":-118.4544,"zip":"91499","miles_from_dt":18.36},{"city":"Culver City","state_name":"California","lat":33.99949,"lng":-118.3913,"zip":"90231","miles_from_dt":18.39},{"city":"Northridge","state_name":"California","lat":34.27302,"lng":-118.55143,"zip":"91327","miles_from_dt":18.45},{"city":"Van Nuys","state_name":"California","lat":34.1775,"lng":-118.43194,"zip":"91404","miles_from_dt":18.48},{"city":"Van Nuys","state_name":"California","lat":34.17569,"lng":-118.43016,"zip":"91408","miles_from_dt":18.5},{"city":"Van Nuys","state_name":"California","lat":34.17801,"lng":-118.43183,"zip":"91401","miles_from_dt":18.5},{"city":"Los Angeles","state_name":"California","lat":34.05139,"lng":-118.38577,"zip":"90035","miles_from_dt":18.51},{"city":"Los Angeles","state_name":"California","lat":33.95486,"lng":-118.40083,"zip":"90083","miles_from_dt":18.57},{"city":"Van Nuys","state_name":"California","lat":34.20153,"lng":-118.44863,"zip":"91405","miles_from_dt":18.61},{"city":"Simi Valley","state_name":"California","lat":34.30922,"lng":-118.69041,"zip":"93063","miles_from_dt":18.64},{"city":"Los Angeles","state_name":"California","lat":33.95302,"lng":-118.40028,"zip":"90045","miles_from_dt":18.64},{"city":"Granada Hills","state_name":"California","lat":34.26351,"lng":-118.52605,"zip":"91394","miles_from_dt":18.65},{"city":"Porter Ranch","state_name":"California","lat":34.28022,"lng":-118.5566,"zip":"91326","miles_from_dt":18.74},{"city":"Beverly Hills","state_name":"California","lat":34.06498,"lng":-118.38293,"zip":"90211","miles_from_dt":18.74},{"city":"Los Angeles","state_name":"California","lat":33.95477,"lng":-118.39609,"zip":"90080","miles_from_dt":18.83},{"city":"North Hills","state_name":"California","lat":34.23837,"lng":-118.48076,"zip":"91343","miles_from_dt":18.93},{"city":"North Hills","state_name":"California","lat":34.23054,"lng":-118.46699,"zip":"91393","miles_from_dt":19.1},{"city":"West Hollywood","state_name":"California","lat":34.09401,"lng":-118.38154,"zip":"90069","miles_from_dt":19.11},{"city":"Studio City","state_name":"California","lat":34.13985,"lng":-118.39435,"zip":"91604","miles_from_dt":19.28},{"city":"Los Angeles","state_name":"California","lat":34.07293,"lng":-118.3727,"zip":"90048","miles_from_dt":19.38},{"city":"Studio City","state_name":"California","lat":34.14452,"lng":-118.39382,"zip":"91614","miles_from_dt":19.43},{"city":"Los Angeles","state_name":"California","lat":33.971,"lng":-118.379,"zip":"90189","miles_from_dt":19.47},{"city":"Valley Village","state_name":"California","lat":34.16499,"lng":-118.40356,"zip":"91617","miles_from_dt":19.5},{"city":"El Segundo","state_name":"California","lat":33.91709,"lng":-118.40161,"zip":"90245","miles_from_dt":19.51},{"city":"Panorama City","state_name":"California","lat":34.22208,"lng":-118.44603,"zip":"91412","miles_from_dt":19.61},{"city":"Moorpark","state_name":"California","lat":34.28483,"lng":-118.8814,"zip":"93020","miles_from_dt":19.63},{"city":"Los Angeles","state_name":"California","lat":33.99361,"lng":-118.36884,"zip":"90056","miles_from_dt":19.72},{"city":"Valley Village","state_name":"California","lat":34.16633,"lng":-118.39982,"zip":"91607","miles_from_dt":19.73},{"city":"Panorama City","state_name":"California","lat":34.22413,"lng":-118.4448,"zip":"91402","miles_from_dt":19.75},{"city":"Los Angeles","state_name":"California","lat":33.94635,"lng":-118.37988,"zip":"90009","miles_from_dt":19.9},{"city":"Camarillo","state_name":"California","lat":34.20518,"lng":-118.99309,"zip":"93012","miles_from_dt":19.94},{"city":"Inglewood","state_name":"California","lat":33.95468,"lng":-118.37361,"zip":"90307","miles_from_dt":20.07},{"city":"Los Angeles","state_name":"California","lat":34.10752,"lng":-118.36575,"zip":"90046","miles_from_dt":20.19},{"city":"North Hollywood","state_name":"California","lat":34.11274,"lng":-118.36583,"zip":"91618","miles_from_dt":20.27},{"city":"Los Angeles","state_name":"California","lat":34.02881,"lng":-118.35436,"zip":"90016","miles_from_dt":20.31},{"city":"Mission Hills","state_name":"California","lat":34.25395,"lng":-118.46462,"zip":"91395","miles_from_dt":20.34},{"city":"North Hollywood","state_name":"California","lat":34.1842,"lng":-118.39605,"zip":"91616","miles_from_dt":20.49},{"city":"Toluca Lake","state_name":"California","lat":34.15584,"lng":-118.37919,"zip":"91610","miles_from_dt":20.5},{"city":"North Hollywood","state_name":"California","lat":34.18655,"lng":-118.39689,"zip":"91612","miles_from_dt":20.53},{"city":"North Hollywood","state_name":"California","lat":34.18647,"lng":-118.39575,"zip":"91611","miles_from_dt":20.58},{"city":"Manhattan Beach","state_name":"California","lat":33.88968,"lng":-118.39705,"zip":"90266","miles_from_dt":20.62},{"city":"Inglewood","state_name":"California","lat":33.97342,"lng":-118.35707,"zip":"90309","miles_from_dt":20.65},{"city":"Los Angeles","state_name":"California","lat":34.07013,"lng":-118.34978,"zip":"90036","miles_from_dt":20.67},{"city":"Inglewood","state_name":"California","lat":33.97472,"lng":-118.35565,"zip":"90302","miles_from_dt":20.71},{"city":"Moorpark","state_name":"California","lat":34.30417,"lng":-118.88274,"zip":"93021","miles_from_dt":20.83},{"city":"Granada Hills","state_name":"California","lat":34.28991,"lng":-118.5047,"zip":"91344","miles_from_dt":20.84},{"city":"Inglewood","state_name":"California","lat":33.95731,"lng":-118.35838,"zip":"90311","miles_from_dt":20.85},{"city":"Inglewood","state_name":"California","lat":33.95647,"lng":-118.35863,"zip":"90301","miles_from_dt":20.86},{"city":"North Hollywood","state_name":"California","lat":34.18655,"lng":-118.38867,"zip":"91606","miles_from_dt":20.94},{"city":"Mission Hills","state_name":"California","lat":34.26798,"lng":-118.46628,"zip":"91346","miles_from_dt":20.99},{"city":"North Hollywood","state_name":"California","lat":34.15078,"lng":-118.36633,"zip":"91602","miles_from_dt":21.05},{"city":"Los Angeles","state_name":"California","lat":34.01037,"lng":-118.3428,"zip":"90008","miles_from_dt":21.06},{"city":"North Hollywood","state_name":"California","lat":34.20699,"lng":-118.40067,"zip":"91605","miles_from_dt":21.08},{"city":"North Hollywood","state_name":"California","lat":34.17207,"lng":-118.37692,"zip":"91603","miles_from_dt":21.08},{"city":"North Hollywood","state_name":"California","lat":34.18827,"lng":-118.38678,"zip":"91609","miles_from_dt":21.09},{"city":"North Hollywood","state_name":"California","lat":34.20089,"lng":-118.39482,"zip":"91615","miles_from_dt":21.14},{"city":"Mission Hills","state_name":"California","lat":34.26591,"lng":-118.45948,"zip":"91345","miles_from_dt":21.15},{"city":"Inglewood","state_name":"California","lat":33.96045,"lng":-118.35147,"zip":"90308","miles_from_dt":21.18},{"city":"Los Angeles","state_name":"California","lat":34.04861,"lng":-118.33874,"zip":"90019","miles_from_dt":21.2},{"city":"North Hollywood","state_name":"California","lat":34.16827,"lng":-118.37222,"zip":"91601","miles_from_dt":21.21},{"city":"Manhattan Beach","state_name":"California","lat":33.87432,"lng":-118.39546,"zip":"90267","miles_from_dt":21.25},{"city":"Inglewood","state_name":"California","lat":33.96063,"lng":-118.35022,"zip":"90312","miles_from_dt":21.25},{"city":"Inglewood","state_name":"California","lat":33.93736,"lng":-118.35879,"zip":"90304","miles_from_dt":21.25},{"city":"Inglewood","state_name":"California","lat":33.96082,"lng":-118.35013,"zip":"90306","miles_from_dt":21.25},{"city":"Pacoima","state_name":"California","lat":34.24428,"lng":-118.42602,"zip":"91334","miles_from_dt":21.47},{"city":"Universal City","state_name":"California","lat":34.13839,"lng":-118.35272,"zip":"91608","miles_from_dt":21.5},{"city":"Hermosa Beach","state_name":"California","lat":33.86532,"lng":-118.39616,"zip":"90254","miles_from_dt":21.55},{"city":"Los Angeles","state_name":"California","lat":33.98876,"lng":-118.33519,"zip":"90043","miles_from_dt":21.68},{"city":"Los Angeles","state_name":"California","lat":34.09808,"lng":-118.3364,"zip":"90093","miles_from_dt":21.7},{"city":"Hawthorne","state_name":"California","lat":33.91694,"lng":-118.35944,"zip":"90251","miles_from_dt":21.72},{"city":"Los Angeles","state_name":"California","lat":34.08882,"lng":-118.32671,"zip":"90038","miles_from_dt":22.14},{"city":"Los Angeles","state_name":"California","lat":34.09965,"lng":-118.32804,"zip":"90078","miles_from_dt":22.19},{"city":"Los Angeles","state_name":"California","lat":34.09982,"lng":-118.3268,"zip":"90028","miles_from_dt":22.27},{"city":"Pacoima","state_name":"California","lat":34.25602,"lng":-118.41939,"zip":"91331","miles_from_dt":22.29},{"city":"Hawthorne","state_name":"California","lat":33.91383,"lng":-118.34996,"zip":"90250","miles_from_dt":22.31},{"city":"Camarillo","state_name":"California","lat":34.21466,"lng":-119.03559,"zip":"93011","miles_from_dt":22.33},{"city":"Inglewood","state_name":"California","lat":33.9583,"lng":-118.33113,"zip":"90305","miles_from_dt":22.35},{"city":"Los Angeles","state_name":"California","lat":34.0286,"lng":-118.31737,"zip":"90018","miles_from_dt":22.43},{"city":"Pacoima","state_name":"California","lat":34.26607,"lng":-118.42687,"zip":"91333","miles_from_dt":22.45},{"city":"Burbank","state_name":"California","lat":34.16869,"lng":-118.3478,"zip":"91507","miles_from_dt":22.5},{"city":"Burbank","state_name":"California","lat":34.1469,"lng":-118.33757,"zip":"91522","miles_from_dt":22.51},{"city":"Redondo Beach","state_name":"California","lat":33.87362,"lng":-118.37028,"zip":"90278","miles_from_dt":22.51},{"city":"Los Angeles","state_name":"California","lat":34.12794,"lng":-118.32914,"zip":"90068","miles_from_dt":22.58},{"city":"San Fernando","state_name":"California","lat":34.28222,"lng":-118.44278,"zip":"91341","miles_from_dt":22.62},{"city":"Burbank","state_name":"California","lat":34.17328,"lng":-118.34591,"zip":"91510","miles_from_dt":22.73},{"city":"Los Angeles","state_name":"California","lat":34.06209,"lng":-118.31262,"zip":"90010","miles_from_dt":22.74},{"city":"Burbank","state_name":"California","lat":34.17583,"lng":-118.34692,"zip":"91505","miles_from_dt":22.75},{"city":"Inglewood","state_name":"California","lat":33.93601,"lng":-118.33112,"zip":"90303","miles_from_dt":22.78},{"city":"Lawndale","state_name":"California","lat":33.88958,"lng":-118.35275,"zip":"90261","miles_from_dt":22.86},{"city":"Los Angeles","state_name":"California","lat":34.06244,"lng":-118.31044,"zip":"90070","miles_from_dt":22.87},{"city":"Los Angeles","state_name":"California","lat":34.07624,"lng":-118.31101,"zip":"90004","miles_from_dt":22.92},{"city":"Los Angeles","state_name":"California","lat":34.06638,"lng":-118.30986,"zip":"90020","miles_from_dt":22.92},{"city":"Los Angeles","state_name":"California","lat":34.05939,"lng":-118.30909,"zip":"90005","miles_from_dt":22.93},{"city":"Los Angeles","state_name":"California","lat":34.06449,"lng":-118.30956,"zip":"90075","miles_from_dt":22.93},{"city":"Los Angeles","state_name":"California","lat":34.06253,"lng":-118.30884,"zip":"90076","miles_from_dt":22.96},{"city":"Los Angeles","state_name":"California","lat":34.0035,"lng":-118.30904,"zip":"90062","miles_from_dt":23.03},{"city":"Sun Valley","state_name":"California","lat":34.21753,"lng":-118.36751,"zip":"91353","miles_from_dt":23.07},{"city":"Lawndale","state_name":"California","lat":33.88768,"lng":-118.34952,"zip":"90260","miles_from_dt":23.09},{"city":"Burbank","state_name":"California","lat":34.16911,"lng":-118.3366,"zip":"91523","miles_from_dt":23.11},{"city":"San Fernando","state_name":"California","lat":34.28668,"lng":-118.43479,"zip":"91340","miles_from_dt":23.16},{"city":"Los Angeles","state_name":"California","lat":34.09719,"lng":-118.30902,"zip":"90072","miles_from_dt":23.24},{"city":"Burbank","state_name":"California","lat":34.15487,"lng":-118.32628,"zip":"91521","miles_from_dt":23.3},{"city":"Redondo Beach","state_name":"California","lat":33.83099,"lng":-118.38441,"zip":"90277","miles_from_dt":23.49},{"city":"Inglewood","state_name":"California","lat":33.92776,"lng":-118.31992,"zip":"90310","miles_from_dt":23.57},{"city":"Los Angeles","state_name":"California","lat":33.95456,"lng":-118.30899,"zip":"90047","miles_from_dt":23.64},{"city":"Sun Valley","state_name":"California","lat":34.23183,"lng":-118.36596,"zip":"91352","miles_from_dt":23.68},{"city":"Los Angeles","state_name":"California","lat":34.04807,"lng":-118.29411,"zip":"90006","miles_from_dt":23.76},{"city":"Burbank","state_name":"California","lat":34.17134,"lng":-118.32384,"zip":"91506","miles_from_dt":23.84},{"city":"Stevenson Ranch","state_name":"California","lat":34.3753,"lng":-118.60744,"zip":"91381","miles_from_dt":23.87},{"city":"Los Angeles","state_name":"California","lat":34.08983,"lng":-118.29467,"zip":"90029","miles_from_dt":23.97},{"city":"Torrance","state_name":"California","lat":33.88493,"lng":-118.33044,"zip":"90506","miles_from_dt":24.15},{"city":"Burbank","state_name":"California","lat":34.19119,"lng":-118.32848,"zip":"91508","miles_from_dt":24.15},{"city":"Burbank","state_name":"California","lat":34.19045,"lng":-118.3259,"zip":"91526","miles_from_dt":24.26},{"city":"Los Angeles","state_name":"California","lat":34.00271,"lng":-118.28747,"zip":"90037","miles_from_dt":24.27},{"city":"Los Angeles","state_name":"California","lat":34.02158,"lng":-118.2856,"zip":"90089","miles_from_dt":24.27},{"city":"Los Angeles","state_name":"California","lat":34.02819,"lng":-118.28486,"zip":"90007","miles_from_dt":24.3},{"city":"Gardena","state_name":"California","lat":33.90152,"lng":-118.31707,"zip":"90249","miles_from_dt":24.38},{"city":"Sylmar","state_name":"California","lat":34.31001,"lng":-118.43191,"zip":"91392","miles_from_dt":24.47},{"city":"Torrance","state_name":"California","lat":33.84089,"lng":-118.3538,"zip":"90503","miles_from_dt":24.52},{"city":"Los Angeles","state_name":"California","lat":33.95253,"lng":-118.29194,"zip":"90044","miles_from_dt":24.63},{"city":"Los Angeles","state_name":"California","lat":34.12515,"lng":-118.29049,"zip":"90027","miles_from_dt":24.67},{"city":"Torrance","state_name":"California","lat":33.86693,"lng":-118.33135,"zip":"90504","miles_from_dt":24.68},{"city":"Burbank","state_name":"California","lat":34.17684,"lng":-118.30936,"zip":"91502","miles_from_dt":24.75},{"city":"Los Angeles","state_name":"California","lat":34.00055,"lng":-118.27907,"zip":"90082","miles_from_dt":24.77},{"city":"Camarillo","state_name":"California","lat":34.23007,"lng":-119.07437,"zip":"93010","miles_from_dt":24.78},{"city":"Los Angeles","state_name":"California","lat":34.06205,"lng":-118.27704,"zip":"90057","miles_from_dt":24.78},{"city":"Burbank","state_name":"California","lat":34.18067,"lng":-118.30753,"zip":"91503","miles_from_dt":24.95},{"city":"Oxnard","state_name":"California","lat":34.15401,"lng":-119.12296,"zip":"93033","miles_from_dt":25.07},{"city":"Somis","state_name":"California","lat":34.28851,"lng":-119.02848,"zip":"93066","miles_from_dt":25.15},{"city":"Los Angeles","state_name":"California","lat":34.05258,"lng":-118.26801,"zip":"90074","miles_from_dt":25.27},{"city":"Los Angeles","state_name":"California","lat":34.03932,"lng":-118.26625,"zip":"90015","miles_from_dt":25.35},{"city":"Los Angeles","state_name":"California","lat":34.05701,"lng":-118.26656,"zip":"90081","miles_from_dt":25.36},{"city":"Los Angeles","state_name":"California","lat":34.05652,"lng":-118.26525,"zip":"90084","miles_from_dt":25.44},{"city":"Los Angeles","state_name":"California","lat":34.05306,"lng":-118.26447,"zip":"90017","miles_from_dt":25.47},{"city":"Los Angeles","state_name":"California","lat":33.96409,"lng":-118.27368,"zip":"90003","miles_from_dt":25.47},{"city":"Glendale","state_name":"California","lat":34.16533,"lng":-118.28942,"zip":"91221","miles_from_dt":25.53},{"city":"Burbank","state_name":"California","lat":34.21349,"lng":-118.31478,"zip":"91504","miles_from_dt":25.55},{"city":"Torrance","state_name":"California","lat":33.84435,"lng":-118.32878,"zip":"90509","miles_from_dt":25.6},{"city":"Los Angeles","state_name":"California","lat":34.05513,"lng":-118.26196,"zip":"90088","miles_from_dt":25.62},{"city":"Newhall","state_name":"California","lat":34.36479,"lng":-118.4922,"zip":"91321","miles_from_dt":25.62},{"city":"Valencia","state_name":"California","lat":34.3898,"lng":-118.55845,"zip":"91385","miles_from_dt":25.64},{"city":"Los Angeles","state_name":"California","lat":34.07883,"lng":-118.2637,"zip":"90026","miles_from_dt":25.64},{"city":"Glendale","state_name":"California","lat":34.17041,"lng":-118.28902,"zip":"91201","miles_from_dt":25.67},{"city":"Gardena","state_name":"California","lat":33.89159,"lng":-118.29735,"zip":"90247","miles_from_dt":25.69},{"city":"Los Angeles","state_name":"California","lat":34.00689,"lng":-118.25861,"zip":"90011","miles_from_dt":25.89},{"city":"Newhall","state_name":"California","lat":34.38467,"lng":-118.53002,"zip":"91322","miles_from_dt":25.9},{"city":"Los Angeles","state_name":"California","lat":34.04754,"lng":-118.25656,"zip":"90055","miles_from_dt":25.91},{"city":"Los Angeles","state_name":"California","lat":34.04058,"lng":-118.25541,"zip":"90079","miles_from_dt":25.97},{"city":"Los Angeles","state_name":"California","lat":34.05239,"lng":-118.25518,"zip":"90071","miles_from_dt":26},{"city":"Burbank","state_name":"California","lat":34.19469,"lng":-118.29431,"zip":"91501","miles_from_dt":26.03},{"city":"Torrance","state_name":"California","lat":33.80904,"lng":-118.34775,"zip":"90505","miles_from_dt":26.08},{"city":"Los Angeles","state_name":"California","lat":34.11242,"lng":-118.26153,"zip":"90039","miles_from_dt":26.1},{"city":"Los Angeles","state_name":"California","lat":33.9783,"lng":-118.25891,"zip":"90052","miles_from_dt":26.12},{"city":"Los Angeles","state_name":"California","lat":34.04302,"lng":-118.25182,"zip":"90014","miles_from_dt":26.18},{"city":"Sunland","state_name":"California","lat":34.25861,"lng":-118.33468,"zip":"91040","miles_from_dt":26.2},{"city":"Los Angeles","state_name":"California","lat":33.92037,"lng":-118.27383,"zip":"90061","miles_from_dt":26.25},{"city":"Torrance","state_name":"California","lat":33.8256,"lng":-118.32842,"zip":"90510","miles_from_dt":26.32},{"city":"Santa Clarita","state_name":"California","lat":34.35885,"lng":-118.45563,"zip":"91383","miles_from_dt":26.35},{"city":"Sylmar","state_name":"California","lat":34.31778,"lng":-118.39207,"zip":"91342","miles_from_dt":26.39},{"city":"Glendale","state_name":"California","lat":34.13554,"lng":-118.26093,"zip":"91204","miles_from_dt":26.49},{"city":"Torrance","state_name":"California","lat":33.8318,"lng":-118.31821,"zip":"90507","miles_from_dt":26.57},{"city":"Palos Verdes Peninsula","state_name":"California","lat":33.77732,"lng":-118.3684,"zip":"90274","miles_from_dt":26.59},{"city":"Torrance","state_name":"California","lat":33.8346,"lng":-118.31539,"zip":"90508","miles_from_dt":26.6},{"city":"Glendale","state_name":"California","lat":34.15287,"lng":-118.26355,"zip":"91203","miles_from_dt":26.67},{"city":"Glendale","state_name":"California","lat":34.12426,"lng":-118.25429,"zip":"91225","miles_from_dt":26.68},{"city":"Torrance","state_name":"California","lat":33.8336,"lng":-118.31419,"zip":"90501","miles_from_dt":26.7},{"city":"Los Angeles","state_name":"California","lat":34.06274,"lng":-118.24314,"zip":"90051","miles_from_dt":26.72},{"city":"Los Angeles","state_name":"California","lat":33.97365,"lng":-118.24904,"zip":"90001","miles_from_dt":26.73},{"city":"Glendale","state_name":"California","lat":34.14468,"lng":-118.25809,"zip":"91210","miles_from_dt":26.81},{"city":"Gardena","state_name":"California","lat":33.87689,"lng":-118.28362,"zip":"90248","miles_from_dt":26.82},{"city":"Glendale","state_name":"California","lat":34.15922,"lng":-118.26256,"zip":"91222","miles_from_dt":26.85},{"city":"Los Angeles","state_name":"California","lat":34.05565,"lng":-118.24047,"zip":"90053","miles_from_dt":26.85},{"city":"Los Angeles","state_name":"California","lat":34.04435,"lng":-118.24,"zip":"90013","miles_from_dt":26.86},{"city":"Los Angeles","state_name":"California","lat":34.06438,"lng":-118.24066,"zip":"90087","miles_from_dt":26.87},{"city":"Los Angeles","state_name":"California","lat":34.02909,"lng":-118.23889,"zip":"90021","miles_from_dt":26.93},{"city":"Los Angeles","state_name":"California","lat":34.06636,"lng":-118.23972,"zip":"90086","miles_from_dt":26.94},{"city":"Los Angeles","state_name":"California","lat":34.06679,"lng":-118.23878,"zip":"90012","miles_from_dt":26.99},{"city":"Los Angeles","state_name":"California","lat":34.06207,"lng":-118.2385,"zip":"90030","miles_from_dt":26.99},{"city":"Glendale","state_name":"California","lat":34.18221,"lng":-118.26761,"zip":"91202","miles_from_dt":27.11},{"city":"Los Angeles","state_name":"California","lat":34.06294,"lng":-118.23623,"zip":"90099","miles_from_dt":27.12},{"city":"Los Angeles","state_name":"California","lat":34.05937,"lng":-118.23609,"zip":"90054","miles_from_dt":27.12},{"city":"Sunland","state_name":"California","lat":34.26251,"lng":-118.31811,"zip":"91041","miles_from_dt":27.14},{"city":"Los Angeles","state_name":"California","lat":33.94906,"lng":-118.24679,"zip":"90002","miles_from_dt":27.2},{"city":"Glendale","state_name":"California","lat":34.14464,"lng":-118.25026,"zip":"91209","miles_from_dt":27.24},{"city":"Fillmore","state_name":"California","lat":34.40969,"lng":-118.87807,"zip":"93015","miles_from_dt":27.33},{"city":"Valencia","state_name":"California","lat":34.42379,"lng":-118.58437,"zip":"91355","miles_from_dt":27.44},{"city":"Los Angeles","state_name":"California","lat":33.92709,"lng":-118.2491,"zip":"90059","miles_from_dt":27.46},{"city":"Glendale","state_name":"California","lat":34.13679,"lng":-118.24339,"zip":"91205","miles_from_dt":27.48},{"city":"Fillmore","state_name":"California","lat":34.40111,"lng":-118.91178,"zip":"93016","miles_from_dt":27.54},{"city":"Torrance","state_name":"California","lat":33.83497,"lng":-118.29291,"zip":"90502","miles_from_dt":27.69},{"city":"Port Hueneme","state_name":"California","lat":34.14956,"lng":-119.17458,"zip":"93041","miles_from_dt":27.81},{"city":"Compton","state_name":"California","lat":33.87197,"lng":-118.26677,"zip":"90224","miles_from_dt":27.84},{"city":"Rancho Palos Verdes","state_name":"California","lat":33.7555,"lng":-118.36338,"zip":"90275","miles_from_dt":27.84},{"city":"Los Angeles","state_name":"California","lat":34.10867,"lng":-118.22813,"zip":"90065","miles_from_dt":27.94},{"city":"Tujunga","state_name":"California","lat":34.25201,"lng":-118.29279,"zip":"91043","miles_from_dt":27.96},{"city":"Glendale","state_name":"California","lat":34.16872,"lng":-118.24477,"zip":"91207","miles_from_dt":28.02},{"city":"Santa Clarita","state_name":"California","lat":34.41289,"lng":-118.51073,"zip":"91382","miles_from_dt":28.13},{"city":"Lomita","state_name":"California","lat":33.79345,"lng":-118.31706,"zip":"90717","miles_from_dt":28.14},{"city":"Compton","state_name":"California","lat":33.91213,"lng":-118.23721,"zip":"90222","miles_from_dt":28.42},{"city":"Oxnard","state_name":"California","lat":34.17255,"lng":-119.17736,"zip":"93034","miles_from_dt":28.43},{"city":"Los Angeles","state_name":"California","lat":34.00264,"lng":-118.21452,"zip":"90058","miles_from_dt":28.44},{"city":"Huntington Park","state_name":"California","lat":33.97697,"lng":-118.21725,"zip":"90255","miles_from_dt":28.5},{"city":"Los Angeles","state_name":"California","lat":34.05117,"lng":-118.21165,"zip":"90033","miles_from_dt":28.5},{"city":"Port Hueneme","state_name":"California","lat":34.15421,"lng":-119.18796,"zip":"93044","miles_from_dt":28.64},{"city":"Los Angeles","state_name":"California","lat":34.08122,"lng":-118.21081,"zip":"90031","miles_from_dt":28.67},{"city":"Harbor City","state_name":"California","lat":33.79806,"lng":-118.29918,"zip":"90710","miles_from_dt":28.78},{"city":"Carson","state_name":"California","lat":33.85855,"lng":-118.25518,"zip":"90746","miles_from_dt":28.84},{"city":"Carson","state_name":"California","lat":33.86372,"lng":-118.25142,"zip":"90747","miles_from_dt":28.88},{"city":"Glendale","state_name":"California","lat":34.19333,"lng":-118.23839,"zip":"91208","miles_from_dt":28.95},{"city":"Oxnard","state_name":"California","lat":34.19953,"lng":-119.17667,"zip":"93032","miles_from_dt":29.05},{"city":"Oxnard","state_name":"California","lat":34.2051,"lng":-119.1753,"zip":"93030","miles_from_dt":29.12},{"city":"Los Angeles","state_name":"California","lat":34.02264,"lng":-118.19986,"zip":"90023","miles_from_dt":29.19},{"city":"Compton","state_name":"California","lat":33.88058,"lng":-118.23591,"zip":"90220","miles_from_dt":29.24},{"city":"Los Angeles","state_name":"California","lat":34.12138,"lng":-118.20691,"zip":"90050","miles_from_dt":29.3},{"city":"Verdugo City","state_name":"California","lat":34.2117,"lng":-118.24092,"zip":"91046","miles_from_dt":29.3},{"city":"Santa Clarita","state_name":"California","lat":34.43028,"lng":-118.50283,"zip":"91350","miles_from_dt":29.41},{"city":"Santa Paula","state_name":"California","lat":34.35265,"lng":-119.05691,"zip":"93061","miles_from_dt":29.43},{"city":"Compton","state_name":"California","lat":33.8925,"lng":-118.22645,"zip":"90223","miles_from_dt":29.45},{"city":"La Crescenta","state_name":"California","lat":34.22796,"lng":-118.2464,"zip":"91224","miles_from_dt":29.49},{"city":"Los Angeles","state_name":"California","lat":34.13749,"lng":-118.20746,"zip":"90041","miles_from_dt":29.5},{"city":"Glendale","state_name":"California","lat":34.16003,"lng":-118.21322,"zip":"91226","miles_from_dt":29.57},{"city":"Carson","state_name":"California","lat":33.82117,"lng":-118.26458,"zip":"90745","miles_from_dt":29.58},{"city":"Glendale","state_name":"California","lat":34.16076,"lng":-118.21311,"zip":"91206","miles_from_dt":29.59},{"city":"Oxnard","state_name":"California","lat":34.24911,"lng":-119.15977,"zip":"93036","miles_from_dt":29.65},{"city":"La Crescenta","state_name":"California","lat":34.23759,"lng":-118.24778,"zip":"91214","miles_from_dt":29.71},{"city":"Carson","state_name":"California","lat":33.81915,"lng":-118.26311,"zip":"90749","miles_from_dt":29.73},{"city":"Port Hueneme Cbc Base","state_name":"California","lat":34.17001,"lng":-119.2026,"zip":"93043","miles_from_dt":29.75},{"city":"Montrose","state_name":"California","lat":34.21144,"lng":-118.23065,"zip":"91020","miles_from_dt":29.83},{"city":"Oxnard","state_name":"California","lat":34.22047,"lng":-119.18124,"zip":"93031","miles_from_dt":29.86},{"city":"Los Angeles","state_name":"California","lat":34.0452,"lng":-118.18583,"zip":"90063","miles_from_dt":29.97},{"city":"Canyon Country","state_name":"California","lat":34.41749,"lng":-118.44966,"zip":"91386","miles_from_dt":29.98},{"city":"Montrose","state_name":"California","lat":34.20693,"lng":-118.22532,"zip":"91021","miles_from_dt":29.99}],"targetCityZipCode":"90263","targetCityState":"California"},"__N_SSG":true}