{"pageProps":{"stateName":"California","cityName":"mill-creek","nearbyCities":[{"city":"Mineral","state_name":"California","lat":40.35708,"lng":-121.60236,"zip":"96063","miles_from_dt":6.12},{"city":"Chester","state_name":"California","lat":40.30089,"lng":-121.26286,"zip":"96020","miles_from_dt":12.24},{"city":"Manton","state_name":"California","lat":40.42947,"lng":-121.83465,"zip":"96059","miles_from_dt":19.23},{"city":"Westwood","state_name":"California","lat":40.38554,"lng":-121.12478,"zip":"96137","miles_from_dt":19.37},{"city":"Paynes Creek","state_name":"California","lat":40.35582,"lng":-121.87196,"zip":"96075","miles_from_dt":20.3},{"city":"Canyon Dam","state_name":"California","lat":40.18385,"lng":-121.13672,"zip":"95923","miles_from_dt":21.59},{"city":"Old Station","state_name":"California","lat":40.68134,"lng":-121.45275,"zip":"96071","miles_from_dt":23.34},{"city":"Shingletown","state_name":"California","lat":40.50983,"lng":-121.88848,"zip":"96088","miles_from_dt":24.03},{"city":"Forest Ranch","state_name":"California","lat":39.98954,"lng":-121.58872,"zip":"95942","miles_from_dt":25.04},{"city":"Magalia","state_name":"California","lat":39.94916,"lng":-121.54088,"zip":"95954","miles_from_dt":27.39},{"city":"Whitmore","state_name":"California","lat":40.63738,"lng":-121.87552,"zip":"96096","miles_from_dt":28.76},{"city":"Belden","state_name":"California","lat":39.97926,"lng":-121.21492,"zip":"95915","miles_from_dt":29.02}],"targetCityZipCode":"96061","targetCityState":"California"},"__N_SSG":true}