{"pageProps":{"stateName":"California","cityName":"monterey","nearbyCities":[{"city":"Carmel","state_name":"California","lat":36.40394,"lng":-121.79867,"zip":"93923","miles_from_dt":4.42},{"city":"Carmel","state_name":"California","lat":36.48919,"lng":-121.74475,"zip":"93922","miles_from_dt":6.36},{"city":"Carmel By The Sea","state_name":"California","lat":36.55359,"lng":-121.92259,"zip":"93921","miles_from_dt":8.04},{"city":"Monterey","state_name":"California","lat":36.59736,"lng":-121.87332,"zip":"93943","miles_from_dt":10.04},{"city":"Pebble Beach","state_name":"California","lat":36.58566,"lng":-121.94329,"zip":"93953","miles_from_dt":10.53},{"city":"Monterey","state_name":"California","lat":36.60058,"lng":-121.91858,"zip":"93944","miles_from_dt":10.88},{"city":"Monterey","state_name":"California","lat":36.61697,"lng":-121.89881,"zip":"93942","miles_from_dt":11.63},{"city":"Seaside","state_name":"California","lat":36.62153,"lng":-121.79562,"zip":"93955","miles_from_dt":12.01},{"city":"Pacific Grove","state_name":"California","lat":36.61899,"lng":-121.92575,"zip":"93950","miles_from_dt":12.2},{"city":"Carmel Valley","state_name":"California","lat":36.39489,"lng":-121.63406,"zip":"93924","miles_from_dt":12.67},{"city":"Marina","state_name":"California","lat":36.67566,"lng":-121.78237,"zip":"93933","miles_from_dt":15.81},{"city":"Spreckels","state_name":"California","lat":36.62472,"lng":-121.64649,"zip":"93962","miles_from_dt":16.38},{"city":"Salinas","state_name":"California","lat":36.62153,"lng":-121.60048,"zip":"93908","miles_from_dt":18.1},{"city":"Salinas","state_name":"California","lat":36.64794,"lng":-121.63044,"zip":"93901","miles_from_dt":18.16},{"city":"Salinas","state_name":"California","lat":36.6726,"lng":-121.65745,"zip":"93902","miles_from_dt":18.54},{"city":"Salinas","state_name":"California","lat":36.67573,"lng":-121.62799,"zip":"93915","miles_from_dt":19.7},{"city":"Salinas","state_name":"California","lat":36.6849,"lng":-121.60562,"zip":"93905","miles_from_dt":20.98},{"city":"Salinas","state_name":"California","lat":36.73865,"lng":-121.68159,"zip":"93912","miles_from_dt":21.81},{"city":"Salinas","state_name":"California","lat":36.72258,"lng":-121.63218,"zip":"93906","miles_from_dt":22.18},{"city":"Castroville","state_name":"California","lat":36.78373,"lng":-121.74164,"zip":"95012","miles_from_dt":23.59},{"city":"Salinas","state_name":"California","lat":36.76643,"lng":-121.66816,"zip":"93907","miles_from_dt":23.86},{"city":"Moss Landing","state_name":"California","lat":36.81515,"lng":-121.7779,"zip":"95039","miles_from_dt":25.29},{"city":"Gonzales","state_name":"California","lat":36.52567,"lng":-121.3991,"zip":"93926","miles_from_dt":25.59},{"city":"Chualar","state_name":"California","lat":36.60209,"lng":-121.42526,"zip":"93925","miles_from_dt":25.77},{"city":"Greenfield","state_name":"California","lat":36.26978,"lng":-121.38018,"zip":"93927","miles_from_dt":29.08},{"city":"Soledad","state_name":"California","lat":36.40489,"lng":-121.32121,"zip":"93960","miles_from_dt":29.64}],"targetCityZipCode":"93940","targetCityState":"California"},"__N_SSG":true}