{"pageProps":{"stateName":"California","cityName":"murphys","nearbyCities":[{"city":"Douglas Flat","state_name":"California","lat":38.11643,"lng":-120.45775,"zip":"95229","miles_from_dt":1.97},{"city":"Vallecito","state_name":"California","lat":38.08024,"lng":-120.45769,"zip":"95251","miles_from_dt":4.37},{"city":"Hathaway Pines","state_name":"California","lat":38.18622,"lng":-120.36859,"zip":"95233","miles_from_dt":5.07},{"city":"Columbia","state_name":"California","lat":38.09944,"lng":-120.36171,"zip":"95310","miles_from_dt":5.36},{"city":"Mountain Ranch","state_name":"California","lat":38.23662,"lng":-120.49589,"zip":"95246","miles_from_dt":7.08},{"city":"Altaville","state_name":"California","lat":38.0724,"lng":-120.54852,"zip":"95221","miles_from_dt":7.49},{"city":"Avery","state_name":"California","lat":38.22706,"lng":-120.32562,"zip":"95224","miles_from_dt":8.67},{"city":"San Andreas","state_name":"California","lat":38.18986,"lng":-120.61784,"zip":"95249","miles_from_dt":10.03},{"city":"Angels Camp","state_name":"California","lat":38.06127,"lng":-120.61791,"zip":"95222","miles_from_dt":11.03},{"city":"Sonora","state_name":"California","lat":37.98484,"lng":-120.34515,"zip":"95370","miles_from_dt":12.14},{"city":"Twain Harte","state_name":"California","lat":38.09534,"lng":-120.22602,"zip":"95383","miles_from_dt":12.3},{"city":"Rail Road Flat","state_name":"California","lat":38.32433,"lng":-120.46051,"zip":"95248","miles_from_dt":12.57},{"city":"Standard","state_name":"California","lat":37.96662,"lng":-120.3108,"zip":"95373","miles_from_dt":14.14},{"city":"Soulsbyville","state_name":"California","lat":37.98927,"lng":-120.26272,"zip":"95372","miles_from_dt":14.46},{"city":"Mokelumne Hill","state_name":"California","lat":38.30189,"lng":-120.61975,"zip":"95245","miles_from_dt":14.58},{"city":"Mi Wuk Village","state_name":"California","lat":38.07045,"lng":-120.17291,"zip":"95346","miles_from_dt":15.57},{"city":"Wilseyville","state_name":"California","lat":38.38068,"lng":-120.45255,"zip":"95257","miles_from_dt":16.43},{"city":"Glencoe","state_name":"California","lat":38.36051,"lng":-120.57722,"zip":"95232","miles_from_dt":16.69},{"city":"Tuolumne","state_name":"California","lat":37.96174,"lng":-120.21635,"zip":"95379","miles_from_dt":17.59},{"city":"Copperopolis","state_name":"California","lat":37.94669,"lng":-120.68067,"zip":"95228","miles_from_dt":18.7},{"city":"Chinese Camp","state_name":"California","lat":37.87154,"lng":-120.43299,"zip":"95309","miles_from_dt":18.71},{"city":"Long Barn","state_name":"California","lat":38.11894,"lng":-120.09239,"zip":"95335","miles_from_dt":19.2},{"city":"West Point","state_name":"California","lat":38.42055,"lng":-120.47506,"zip":"95255","miles_from_dt":19.24},{"city":"Jamestown","state_name":"California","lat":37.84912,"lng":-120.4858,"zip":"95327","miles_from_dt":20.37},{"city":"Pine Grove","state_name":"California","lat":38.39587,"lng":-120.65238,"zip":"95665","miles_from_dt":20.83},{"city":"Valley Springs","state_name":"California","lat":38.15871,"lng":-120.84214,"zip":"95252","miles_from_dt":21.74},{"city":"Big Oak Flat","state_name":"California","lat":37.8306,"lng":-120.34821,"zip":"95305","miles_from_dt":22.14},{"city":"Kit Carson","state_name":"California","lat":38.45731,"lng":-120.53042,"zip":"95644","miles_from_dt":22.21},{"city":"Jackson","state_name":"California","lat":38.3434,"lng":-120.76398,"zip":"95642","miles_from_dt":22.26},{"city":"Burson","state_name":"California","lat":38.20399,"lng":-120.86488,"zip":"95225","miles_from_dt":23.33},{"city":"Campo Seco","state_name":"California","lat":38.23377,"lng":-120.86232,"zip":"95226","miles_from_dt":23.65},{"city":"Volcano","state_name":"California","lat":38.47088,"lng":-120.61566,"zip":"95689","miles_from_dt":24.5},{"city":"Martell","state_name":"California","lat":38.36681,"lng":-120.79462,"zip":"95654","miles_from_dt":24.57},{"city":"Moccasin","state_name":"California","lat":37.78907,"lng":-120.30625,"zip":"95347","miles_from_dt":25.51},{"city":"Farmington","state_name":"California","lat":37.97361,"lng":-120.86492,"zip":"95230","miles_from_dt":25.76},{"city":"Strawberry","state_name":"California","lat":38.21493,"lng":-119.97031,"zip":"95375","miles_from_dt":26.25},{"city":"Sutter Creek","state_name":"California","lat":38.42716,"lng":-120.76698,"zip":"95685","miles_from_dt":26.35},{"city":"Pioneer","state_name":"California","lat":38.54113,"lng":-120.33076,"zip":"95666","miles_from_dt":28.16},{"city":"Wallace","state_name":"California","lat":38.20323,"lng":-120.95857,"zip":"95254","miles_from_dt":28.35},{"city":"Amador City","state_name":"California","lat":38.42713,"lng":-120.82997,"zip":"95601","miles_from_dt":28.74},{"city":"Fiddletown","state_name":"California","lat":38.51277,"lng":-120.6875,"zip":"95629","miles_from_dt":28.76}],"targetCityZipCode":"95247","targetCityState":"California"},"__N_SSG":true}