{"pageProps":{"stateName":"California","cityName":"novato","nearbyCities":[{"city":"Novato","state_name":"California","lat":38.13578,"lng":-122.56224,"zip":"94948","miles_from_dt":0.81},{"city":"Novato","state_name":"California","lat":38.09973,"lng":-122.57145,"zip":"94998","miles_from_dt":2.02},{"city":"Novato","state_name":"California","lat":38.10705,"lng":-122.62813,"zip":"94947","miles_from_dt":4.22},{"city":"Novato","state_name":"California","lat":38.06576,"lng":-122.53172,"zip":"94949","miles_from_dt":4.32},{"city":"Petaluma","state_name":"California","lat":38.22237,"lng":-122.55618,"zip":"94955","miles_from_dt":6.66},{"city":"San Rafael","state_name":"California","lat":38.02578,"lng":-122.54487,"zip":"94913","miles_from_dt":6.92},{"city":"San Rafael","state_name":"California","lat":38.02485,"lng":-122.5522,"zip":"94903","miles_from_dt":6.96},{"city":"Nicasio","state_name":"California","lat":38.07176,"lng":-122.68785,"zip":"94946","miles_from_dt":8.17},{"city":"Petaluma","state_name":"California","lat":38.24624,"lng":-122.56627,"zip":"94954","miles_from_dt":8.33},{"city":"San Anselmo","state_name":"California","lat":37.99707,"lng":-122.57838,"zip":"94960","miles_from_dt":8.97},{"city":"Woodacre","state_name":"California","lat":38.01259,"lng":-122.63947,"zip":"94973","miles_from_dt":9.08},{"city":"Fairfax","state_name":"California","lat":37.9849,"lng":-122.58005,"zip":"94978","miles_from_dt":9.82},{"city":"San Geronimo","state_name":"California","lat":38.00765,"lng":-122.66484,"zip":"94963","miles_from_dt":10.13},{"city":"Vineburg","state_name":"California","lat":38.25197,"lng":-122.45398,"zip":"95487","miles_from_dt":10.28},{"city":"Sonoma","state_name":"California","lat":38.25531,"lng":-122.46055,"zip":"95476","miles_from_dt":10.29},{"city":"San Rafael","state_name":"California","lat":37.98053,"lng":-122.50249,"zip":"94901","miles_from_dt":10.41},{"city":"Petaluma","state_name":"California","lat":38.26152,"lng":-122.63908,"zip":"94953","miles_from_dt":10.43},{"city":"Forest Knolls","state_name":"California","lat":38.01753,"lng":-122.68814,"zip":"94933","miles_from_dt":10.44},{"city":"San Rafael","state_name":"California","lat":37.97771,"lng":-122.50646,"zip":"94912","miles_from_dt":10.54},{"city":"San Anselmo","state_name":"California","lat":37.97198,"lng":-122.56204,"zip":"94979","miles_from_dt":10.62},{"city":"Fairfax","state_name":"California","lat":37.97048,"lng":-122.61108,"zip":"94930","miles_from_dt":11.15},{"city":"Ross","state_name":"California","lat":37.96343,"lng":-122.56174,"zip":"94957","miles_from_dt":11.21},{"city":"Lagunitas","state_name":"California","lat":38.03024,"lng":-122.72953,"zip":"94938","miles_from_dt":11.6},{"city":"San Quentin","state_name":"California","lat":37.95646,"lng":-122.53935,"zip":"94974","miles_from_dt":11.71},{"city":"San Rafael","state_name":"California","lat":37.9599,"lng":-122.50402,"zip":"94915","miles_from_dt":11.77},{"city":"Greenbrae","state_name":"California","lat":37.94841,"lng":-122.55288,"zip":"94904","miles_from_dt":12.23},{"city":"Kentfield","state_name":"California","lat":37.94739,"lng":-122.53706,"zip":"94914","miles_from_dt":12.34},{"city":"El Verano","state_name":"California","lat":38.29996,"lng":-122.48927,"zip":"95433","miles_from_dt":12.52},{"city":"Larkspur","state_name":"California","lat":37.93802,"lng":-122.53526,"zip":"94977","miles_from_dt":12.99},{"city":"Larkspur","state_name":"California","lat":37.93725,"lng":-122.53518,"zip":"94939","miles_from_dt":13.05},{"city":"San Quentin","state_name":"California","lat":37.94235,"lng":-122.49244,"zip":"94964","miles_from_dt":13.1},{"city":"Vallejo","state_name":"California","lat":38.12009,"lng":-122.3117,"zip":"94592","miles_from_dt":13.23},{"city":"Olema","state_name":"California","lat":38.02122,"lng":-122.76187,"zip":"94950","miles_from_dt":13.41},{"city":"Boyes Hot Springs","state_name":"California","lat":38.31241,"lng":-122.48286,"zip":"95416","miles_from_dt":13.45},{"city":"Petaluma","state_name":"California","lat":38.23007,"lng":-122.76338,"zip":"94952","miles_from_dt":13.46},{"city":"Corte Madera","state_name":"California","lat":37.92743,"lng":-122.52455,"zip":"94976","miles_from_dt":13.78},{"city":"Mill Valley","state_name":"California","lat":37.92562,"lng":-122.60083,"zip":"94941","miles_from_dt":14.04},{"city":"Corte Madera","state_name":"California","lat":37.92386,"lng":-122.5132,"zip":"94925","miles_from_dt":14.11},{"city":"Penngrove","state_name":"California","lat":38.32252,"lng":-122.64492,"zip":"94951","miles_from_dt":14.43},{"city":"Petaluma","state_name":"California","lat":38.32234,"lng":-122.64657,"zip":"94975","miles_from_dt":14.45},{"city":"Petaluma","state_name":"California","lat":38.32395,"lng":-122.64259,"zip":"94999","miles_from_dt":14.48},{"city":"Point Reyes Station","state_name":"California","lat":38.0476,"lng":-122.81046,"zip":"94956","miles_from_dt":14.96},{"city":"Richmond","state_name":"California","lat":37.95217,"lng":-122.38025,"zip":"94801","miles_from_dt":15.29},{"city":"Bolinas","state_name":"California","lat":37.95411,"lng":-122.73171,"zip":"94924","miles_from_dt":15.29},{"city":"Mill Valley","state_name":"California","lat":37.90457,"lng":-122.5229,"zip":"94942","miles_from_dt":15.35},{"city":"Stinson Beach","state_name":"California","lat":37.91694,"lng":-122.65553,"zip":"94970","miles_from_dt":15.43},{"city":"Richmond","state_name":"California","lat":37.9471,"lng":-122.38153,"zip":"94850","miles_from_dt":15.52},{"city":"Eldridge","state_name":"California","lat":38.34897,"lng":-122.51625,"zip":"95431","miles_from_dt":15.53},{"city":"San Pablo","state_name":"California","lat":37.97811,"lng":-122.33618,"zip":"94806","miles_from_dt":15.67},{"city":"Cotati","state_name":"California","lat":38.32229,"lng":-122.71497,"zip":"94931","miles_from_dt":16.12},{"city":"Rohnert Park","state_name":"California","lat":38.32648,"lng":-122.71231,"zip":"94926","miles_from_dt":16.29},{"city":"Napa","state_name":"California","lat":38.25238,"lng":-122.29382,"zip":"94559","miles_from_dt":16.66},{"city":"Vallejo","state_name":"California","lat":38.09546,"lng":-122.24986,"zip":"94590","miles_from_dt":16.73},{"city":"Vallejo","state_name":"California","lat":38.14162,"lng":-122.24596,"zip":"94589","miles_from_dt":16.84},{"city":"Richmond","state_name":"California","lat":37.93711,"lng":-122.35658,"zip":"94802","miles_from_dt":16.91},{"city":"Rohnert Park","state_name":"California","lat":38.3459,"lng":-122.6935,"zip":"94928","miles_from_dt":16.96},{"city":"Marshall","state_name":"California","lat":38.15754,"lng":-122.86376,"zip":"94940","miles_from_dt":16.99},{"city":"Belvedere Tiburon","state_name":"California","lat":37.88732,"lng":-122.46549,"zip":"94920","miles_from_dt":17.15},{"city":"Rohnert Park","state_name":"California","lat":38.34744,"lng":-122.69837,"zip":"94927","miles_from_dt":17.18},{"city":"El Sobrante","state_name":"California","lat":37.97827,"lng":-122.29528,"zip":"94820","miles_from_dt":17.42},{"city":"Richmond","state_name":"California","lat":37.936,"lng":-122.34143,"zip":"94808","miles_from_dt":17.5},{"city":"Richmond","state_name":"California","lat":37.92715,"lng":-122.35385,"zip":"94807","miles_from_dt":17.53},{"city":"Glen Ellen","state_name":"California","lat":38.3785,"lng":-122.51549,"zip":"95442","miles_from_dt":17.56},{"city":"Richmond","state_name":"California","lat":37.94215,"lng":-122.32364,"zip":"94805","miles_from_dt":17.86},{"city":"Hercules","state_name":"California","lat":38.00637,"lng":-122.26117,"zip":"94547","miles_from_dt":17.99},{"city":"Pinole","state_name":"California","lat":37.98896,"lng":-122.27018,"zip":"94564","miles_from_dt":18.15},{"city":"Sausalito","state_name":"California","lat":37.86586,"lng":-122.49689,"zip":"94966","miles_from_dt":18.2},{"city":"American Canyon","state_name":"California","lat":38.19454,"lng":-122.23042,"zip":"94503","miles_from_dt":18.27},{"city":"Richmond","state_name":"California","lat":37.92074,"lng":-122.34204,"zip":"94804","miles_from_dt":18.28},{"city":"Crockett","state_name":"California","lat":38.04811,"lng":-122.2292,"zip":"94525","miles_from_dt":18.52},{"city":"Napa","state_name":"California","lat":38.29728,"lng":-122.28766,"zip":"94581","miles_from_dt":18.73},{"city":"El Sobrante","state_name":"California","lat":37.95683,"lng":-122.28235,"zip":"94803","miles_from_dt":18.87},{"city":"Rodeo","state_name":"California","lat":38.02392,"lng":-122.23285,"zip":"94572","miles_from_dt":18.89},{"city":"Sausalito","state_name":"California","lat":37.85263,"lng":-122.52699,"zip":"94965","miles_from_dt":18.9},{"city":"Vallejo","state_name":"California","lat":38.12702,"lng":-122.19635,"zip":"94591","miles_from_dt":19.51},{"city":"El Cerrito","state_name":"California","lat":37.92076,"lng":-122.30068,"zip":"94530","miles_from_dt":19.79},{"city":"Tomales","state_name":"California","lat":38.23724,"lng":-122.89006,"zip":"94971","miles_from_dt":19.82},{"city":"Inverness","state_name":"California","lat":38.09466,"lng":-122.92719,"zip":"94937","miles_from_dt":20.43},{"city":"Port Costa","state_name":"California","lat":38.04411,"lng":-122.19201,"zip":"94569","miles_from_dt":20.54},{"city":"Kenwood","state_name":"California","lat":38.42969,"lng":-122.5362,"zip":"95452","miles_from_dt":20.98},{"city":"Santa Rosa","state_name":"California","lat":38.39465,"lng":-122.74591,"zip":"95407","miles_from_dt":21.27},{"city":"Albany","state_name":"California","lat":37.88969,"lng":-122.29581,"zip":"94706","miles_from_dt":21.55},{"city":"Berkeley","state_name":"California","lat":37.89843,"lng":-122.27917,"zip":"94707","miles_from_dt":21.71},{"city":"Yountville","state_name":"California","lat":38.41012,"lng":-122.37365,"zip":"94599","miles_from_dt":21.94},{"city":"Berkeley","state_name":"California","lat":37.90276,"lng":-122.26202,"zip":"94708","miles_from_dt":22.16},{"city":"Oakville","state_name":"California","lat":38.43071,"lng":-122.40874,"zip":"94562","miles_from_dt":22.47},{"city":"Santa Rosa","state_name":"California","lat":38.43926,"lng":-122.66908,"zip":"95405","miles_from_dt":22.5},{"city":"Berkeley","state_name":"California","lat":37.86705,"lng":-122.303,"zip":"94710","miles_from_dt":22.51},{"city":"Benicia","state_name":"California","lat":38.09756,"lng":-122.13189,"zip":"94510","miles_from_dt":23.11},{"city":"Berkeley","state_name":"California","lat":37.86619,"lng":-122.28634,"zip":"94702","miles_from_dt":23.12},{"city":"San Francisco","state_name":"California","lat":37.79743,"lng":-122.46662,"zip":"94129","miles_from_dt":23.15},{"city":"Berkeley","state_name":"California","lat":37.87835,"lng":-122.26613,"zip":"94709","miles_from_dt":23.21},{"city":"Santa Rosa","state_name":"California","lat":38.46116,"lng":-122.60425,"zip":"95409","miles_from_dt":23.29},{"city":"San Francisco","state_name":"California","lat":37.80112,"lng":-122.43645,"zip":"94123","miles_from_dt":23.3},{"city":"San Francisco","state_name":"California","lat":37.80083,"lng":-122.43482,"zip":"94147","miles_from_dt":23.35},{"city":"San Francisco","state_name":"California","lat":37.81975,"lng":-122.36898,"zip":"94130","miles_from_dt":23.41},{"city":"Berkeley","state_name":"California","lat":37.86991,"lng":-122.27067,"zip":"94701","miles_from_dt":23.48},{"city":"Berkeley","state_name":"California","lat":37.86397,"lng":-122.27573,"zip":"94703","miles_from_dt":23.61},{"city":"Berkeley","state_name":"California","lat":37.869,"lng":-122.2679,"zip":"94712","miles_from_dt":23.63},{"city":"San Francisco","state_name":"California","lat":37.80193,"lng":-122.41092,"zip":"94133","miles_from_dt":23.67},{"city":"Dillon Beach","state_name":"California","lat":38.25444,"lng":-122.96243,"zip":"94929","miles_from_dt":23.92},{"city":"Rutherford","state_name":"California","lat":38.45726,"lng":-122.42348,"zip":"94573","miles_from_dt":23.94},{"city":"Sebastopol","state_name":"California","lat":38.40074,"lng":-122.82455,"zip":"95473","miles_from_dt":23.99},{"city":"Berkeley","state_name":"California","lat":37.8664,"lng":-122.26088,"zip":"94704","miles_from_dt":24.02},{"city":"Santa Rosa","state_name":"California","lat":38.46488,"lng":-122.65709,"zip":"95404","miles_from_dt":24.04},{"city":"Santa Rosa","state_name":"California","lat":38.47181,"lng":-122.60759,"zip":"95402","miles_from_dt":24.04},{"city":"San Francisco","state_name":"California","lat":37.79334,"lng":-122.42138,"zip":"94109","miles_from_dt":24.05},{"city":"San Francisco","state_name":"California","lat":37.78593,"lng":-122.45519,"zip":"94119","miles_from_dt":24.06},{"city":"Martinez","state_name":"California","lat":37.97999,"lng":-122.15368,"zip":"94553","miles_from_dt":24.06},{"city":"Berkeley","state_name":"California","lat":37.87185,"lng":-122.25226,"zip":"94720","miles_from_dt":24.06},{"city":"San Francisco","state_name":"California","lat":37.79847,"lng":-122.3998,"zip":"94111","miles_from_dt":24.1},{"city":"San Francisco","state_name":"California","lat":37.79853,"lng":-122.39989,"zip":"94161","miles_from_dt":24.1},{"city":"San Francisco","state_name":"California","lat":37.77849,"lng":-122.49548,"zip":"94121","miles_from_dt":24.17},{"city":"San Francisco","state_name":"California","lat":37.78335,"lng":-122.45978,"zip":"94144","miles_from_dt":24.18},{"city":"San Francisco","state_name":"California","lat":37.78402,"lng":-122.4533,"zip":"94159","miles_from_dt":24.21},{"city":"San Francisco","state_name":"California","lat":37.79487,"lng":-122.40619,"zip":"94139","miles_from_dt":24.22},{"city":"Emeryville","state_name":"California","lat":37.84048,"lng":-122.29376,"zip":"94662","miles_from_dt":24.28},{"city":"San Francisco","state_name":"California","lat":37.78608,"lng":-122.43742,"zip":"94115","miles_from_dt":24.29},{"city":"San Francisco","state_name":"California","lat":37.79377,"lng":-122.40216,"zip":"94120","miles_from_dt":24.36},{"city":"San Francisco","state_name":"California","lat":37.79315,"lng":-122.40432,"zip":"94137","miles_from_dt":24.36},{"city":"San Francisco","state_name":"California","lat":37.79189,"lng":-122.40854,"zip":"94108","miles_from_dt":24.37},{"city":"San Francisco","state_name":"California","lat":37.79425,"lng":-122.40038,"zip":"94145","miles_from_dt":24.37},{"city":"San Francisco","state_name":"California","lat":37.7801,"lng":-122.46185,"zip":"94118","miles_from_dt":24.37},{"city":"San Francisco","state_name":"California","lat":37.79349,"lng":-122.40018,"zip":"94151","miles_from_dt":24.42},{"city":"San Francisco","state_name":"California","lat":37.78731,"lng":-122.42206,"zip":"94164","miles_from_dt":24.44},{"city":"San Francisco","state_name":"California","lat":37.79144,"lng":-122.40211,"zip":"94104","miles_from_dt":24.51},{"city":"San Francisco","state_name":"California","lat":37.79193,"lng":-122.39841,"zip":"94177","miles_from_dt":24.55},{"city":"San Francisco","state_name":"California","lat":37.79239,"lng":-122.39707,"zip":"94105","miles_from_dt":24.55},{"city":"San Francisco","state_name":"California","lat":37.79142,"lng":-122.39941,"zip":"94163","miles_from_dt":24.57},{"city":"San Francisco","state_name":"California","lat":37.79185,"lng":-122.39038,"zip":"94126","miles_from_dt":24.71},{"city":"Emeryville","state_name":"California","lat":37.83611,"lng":-122.28621,"zip":"94608","miles_from_dt":24.77},{"city":"San Francisco","state_name":"California","lat":37.78441,"lng":-122.41223,"zip":"94142","miles_from_dt":24.79},{"city":"Fairfield","state_name":"California","lat":38.24112,"lng":-122.12142,"zip":"94534","miles_from_dt":24.88},{"city":"Santa Rosa","state_name":"California","lat":38.45992,"lng":-122.7277,"zip":"95406","miles_from_dt":24.9},{"city":"Berkeley","state_name":"California","lat":37.86523,"lng":-122.2384,"zip":"94705","miles_from_dt":24.91},{"city":"San Francisco","state_name":"California","lat":37.77956,"lng":-122.41931,"zip":"94102","miles_from_dt":24.99},{"city":"San Francisco","state_name":"California","lat":37.77002,"lng":-122.44425,"zip":"94117","miles_from_dt":25.26},{"city":"Sebastopol","state_name":"California","lat":38.39738,"lng":-122.86668,"zip":"95472","miles_from_dt":25.28},{"city":"San Francisco","state_name":"California","lat":37.76113,"lng":-122.48433,"zip":"94122","miles_from_dt":25.44},{"city":"Valley Ford","state_name":"California","lat":38.33665,"lng":-122.93934,"zip":"94972","miles_from_dt":25.5},{"city":"San Francisco","state_name":"California","lat":37.76044,"lng":-122.48316,"zip":"94172","miles_from_dt":25.5},{"city":"San Francisco","state_name":"California","lat":37.76379,"lng":-122.45739,"zip":"94143","miles_from_dt":25.52},{"city":"San Francisco","state_name":"California","lat":37.77299,"lng":-122.41136,"zip":"94103","miles_from_dt":25.56},{"city":"Oakland","state_name":"California","lat":37.83476,"lng":-122.2642,"zip":"94609","miles_from_dt":25.57},{"city":"Santa Rosa","state_name":"California","lat":38.44922,"lng":-122.79307,"zip":"95401","miles_from_dt":25.81},{"city":"Oakland","state_name":"California","lat":37.81067,"lng":-122.29747,"zip":"94623","miles_from_dt":25.87},{"city":"Orinda","state_name":"California","lat":37.88196,"lng":-122.19419,"zip":"94563","miles_from_dt":25.87},{"city":"Oakland","state_name":"California","lat":37.80823,"lng":-122.29898,"zip":"94615","miles_from_dt":25.97},{"city":"Oakland","state_name":"California","lat":37.8442,"lng":-122.23868,"zip":"94618","miles_from_dt":25.97},{"city":"Oakland","state_name":"California","lat":37.80721,"lng":-122.30024,"zip":"94607","miles_from_dt":25.99},{"city":"San Francisco","state_name":"California","lat":37.76684,"lng":-122.40891,"zip":"94141","miles_from_dt":26},{"city":"San Francisco","state_name":"California","lat":37.77116,"lng":-122.39153,"zip":"94158","miles_from_dt":26.03},{"city":"San Francisco","state_name":"California","lat":37.76015,"lng":-122.43328,"zip":"94146","miles_from_dt":26.07},{"city":"San Francisco","state_name":"California","lat":37.75814,"lng":-122.43547,"zip":"94114","miles_from_dt":26.18},{"city":"San Francisco","state_name":"California","lat":37.76473,"lng":-122.39508,"zip":"94107","miles_from_dt":26.38},{"city":"San Francisco","state_name":"California","lat":37.7578,"lng":-122.4127,"zip":"94140","miles_from_dt":26.54},{"city":"San Francisco","state_name":"California","lat":37.74457,"lng":-122.48611,"zip":"94116","miles_from_dt":26.56},{"city":"Oakland","state_name":"California","lat":37.80998,"lng":-122.2692,"zip":"94659","miles_from_dt":26.78},{"city":"Bodega","state_name":"California","lat":38.35683,"lng":-122.95098,"zip":"94922","miles_from_dt":26.82},{"city":"Oakland","state_name":"California","lat":37.80982,"lng":-122.26553,"zip":"94666","miles_from_dt":26.9},{"city":"San Francisco","state_name":"California","lat":37.74569,"lng":-122.44243,"zip":"94131","miles_from_dt":26.92},{"city":"Oakland","state_name":"California","lat":37.80789,"lng":-122.2662,"zip":"94612","miles_from_dt":26.99},{"city":"San Francisco","state_name":"California","lat":37.74975,"lng":-122.41528,"zip":"94110","miles_from_dt":27.03},{"city":"Oakland","state_name":"California","lat":37.80694,"lng":-122.26383,"zip":"94649","miles_from_dt":27.12},{"city":"Graton","state_name":"California","lat":38.43261,"lng":-122.86922,"zip":"95444","miles_from_dt":27.22},{"city":"San Francisco","state_name":"California","lat":37.73642,"lng":-122.45961,"zip":"94127","miles_from_dt":27.35},{"city":"Oakland","state_name":"California","lat":37.80126,"lng":-122.26575,"zip":"94604","miles_from_dt":27.38},{"city":"Oakland","state_name":"California","lat":37.83191,"lng":-122.21592,"zip":"94611","miles_from_dt":27.43},{"city":"Oakland","state_name":"California","lat":37.79591,"lng":-122.26977,"zip":"94660","miles_from_dt":27.56},{"city":"Oakland","state_name":"California","lat":37.81229,"lng":-122.24048,"zip":"94610","miles_from_dt":27.59},{"city":"Oakland","state_name":"California","lat":37.82978,"lng":-122.20989,"zip":"94661","miles_from_dt":27.76},{"city":"Fulton","state_name":"California","lat":38.49055,"lng":-122.77591,"zip":"95439","miles_from_dt":27.89},{"city":"San Francisco","state_name":"California","lat":37.72219,"lng":-122.48475,"zip":"94132","miles_from_dt":28.1},{"city":"Santa Rosa","state_name":"California","lat":38.50326,"lng":-122.75358,"zip":"95403","miles_from_dt":28.19},{"city":"San Francisco","state_name":"California","lat":37.7407,"lng":-122.38091,"zip":"94188","miles_from_dt":28.2},{"city":"Lafayette","state_name":"California","lat":37.90133,"lng":-122.11933,"zip":"94549","miles_from_dt":28.34},{"city":"Oakland","state_name":"California","lat":37.79179,"lng":-122.24455,"zip":"94606","miles_from_dt":28.58},{"city":"Alameda","state_name":"California","lat":37.77525,"lng":-122.27493,"zip":"94501","miles_from_dt":28.59},{"city":"San Francisco","state_name":"California","lat":37.7206,"lng":-122.44311,"zip":"94112","miles_from_dt":28.6},{"city":"Pleasant Hill","state_name":"California","lat":37.95403,"lng":-122.07608,"zip":"94523","miles_from_dt":28.66},{"city":"San Francisco","state_name":"California","lat":37.73204,"lng":-122.3858,"zip":"94124","miles_from_dt":28.68},{"city":"San Francisco","state_name":"California","lat":37.73138,"lng":-122.38496,"zip":"94125","miles_from_dt":28.74},{"city":"Concord","state_name":"California","lat":37.97662,"lng":-122.0564,"zip":"94527","miles_from_dt":29.05},{"city":"Concord","state_name":"California","lat":37.97359,"lng":-122.05763,"zip":"94524","miles_from_dt":29.06},{"city":"Saint Helena","state_name":"California","lat":38.52742,"lng":-122.39261,"zip":"94574","miles_from_dt":29.06},{"city":"San Francisco","state_name":"California","lat":37.71887,"lng":-122.41124,"zip":"94134","miles_from_dt":29.14},{"city":"Oakland","state_name":"California","lat":37.80517,"lng":-122.20422,"zip":"94602","miles_from_dt":29.23},{"city":"San Francisco","state_name":"California","lat":37.71802,"lng":-122.40439,"zip":"94160","miles_from_dt":29.29},{"city":"Daly City","state_name":"California","lat":37.70733,"lng":-122.45493,"zip":"94016","miles_from_dt":29.37},{"city":"Bodega Bay","state_name":"California","lat":38.33588,"lng":-123.02647,"zip":"94923","miles_from_dt":29.49},{"city":"Deer Park","state_name":"California","lat":38.54932,"lng":-122.47581,"zip":"94576","miles_from_dt":29.52},{"city":"Canyon","state_name":"California","lat":37.82748,"lng":-122.16629,"zip":"94516","miles_from_dt":29.54},{"city":"Concord","state_name":"California","lat":37.99344,"lng":-122.03532,"zip":"94520","miles_from_dt":29.74},{"city":"Moraga","state_name":"California","lat":37.85928,"lng":-122.1252,"zip":"94570","miles_from_dt":29.78},{"city":"Concord","state_name":"California","lat":38.01535,"lng":-122.02331,"zip":"94522","miles_from_dt":29.94},{"city":"Walnut Creek","state_name":"California","lat":37.91768,"lng":-122.0718,"zip":"94597","miles_from_dt":29.99}],"targetCityZipCode":"94945","targetCityState":"California"},"__N_SSG":true}