{"pageProps":{"stateName":"California","cityName":"oakville","nearbyCities":[{"city":"Rutherford","state_name":"California","lat":38.45726,"lng":-122.42348,"zip":"94573","miles_from_dt":2},{"city":"Yountville","state_name":"California","lat":38.41012,"lng":-122.37365,"zip":"94599","miles_from_dt":2.38},{"city":"Saint Helena","state_name":"California","lat":38.52742,"lng":-122.39261,"zip":"94574","miles_from_dt":6.73},{"city":"Glen Ellen","state_name":"California","lat":38.3785,"lng":-122.51549,"zip":"95442","miles_from_dt":6.82},{"city":"Kenwood","state_name":"California","lat":38.42969,"lng":-122.5362,"zip":"95452","miles_from_dt":6.92},{"city":"Eldridge","state_name":"California","lat":38.34897,"lng":-122.51625,"zip":"95431","miles_from_dt":8.11},{"city":"Deer Park","state_name":"California","lat":38.54932,"lng":-122.47581,"zip":"94576","miles_from_dt":8.95},{"city":"Boyes Hot Springs","state_name":"California","lat":38.31241,"lng":-122.48286,"zip":"95416","miles_from_dt":9.1},{"city":"Napa","state_name":"California","lat":38.50846,"lng":-122.26497,"zip":"94558","miles_from_dt":9.46},{"city":"El Verano","state_name":"California","lat":38.29996,"lng":-122.48927,"zip":"95433","miles_from_dt":10.02},{"city":"Angwin","state_name":"California","lat":38.57909,"lng":-122.44451,"zip":"94508","miles_from_dt":10.42},{"city":"Santa Rosa","state_name":"California","lat":38.46116,"lng":-122.60425,"zip":"95409","miles_from_dt":10.81},{"city":"Santa Rosa","state_name":"California","lat":38.47181,"lng":-122.60759,"zip":"95402","miles_from_dt":11.15},{"city":"Napa","state_name":"California","lat":38.29728,"lng":-122.28766,"zip":"94581","miles_from_dt":11.31},{"city":"Sonoma","state_name":"California","lat":38.25531,"lng":-122.46055,"zip":"95476","miles_from_dt":12.42},{"city":"Vineburg","state_name":"California","lat":38.25197,"lng":-122.45398,"zip":"95487","miles_from_dt":12.57},{"city":"Santa Rosa","state_name":"California","lat":38.46488,"lng":-122.65709,"zip":"95404","miles_from_dt":13.68},{"city":"Napa","state_name":"California","lat":38.25238,"lng":-122.29382,"zip":"94559","miles_from_dt":13.79},{"city":"Santa Rosa","state_name":"California","lat":38.43926,"lng":-122.66908,"zip":"95405","miles_from_dt":14.14},{"city":"Petaluma","state_name":"California","lat":38.32395,"lng":-122.64259,"zip":"94999","miles_from_dt":14.68},{"city":"Penngrove","state_name":"California","lat":38.32252,"lng":-122.64492,"zip":"94951","miles_from_dt":14.84},{"city":"Petaluma","state_name":"California","lat":38.32234,"lng":-122.64657,"zip":"94975","miles_from_dt":14.92},{"city":"Petaluma","state_name":"California","lat":38.24624,"lng":-122.56627,"zip":"94954","miles_from_dt":15.33},{"city":"Pope Valley","state_name":"California","lat":38.66342,"lng":-122.4349,"zip":"94567","miles_from_dt":16.11},{"city":"Petaluma","state_name":"California","lat":38.22237,"lng":-122.55618,"zip":"94955","miles_from_dt":16.45},{"city":"Rohnert Park","state_name":"California","lat":38.3459,"lng":-122.6935,"zip":"94928","miles_from_dt":16.53},{"city":"Rohnert Park","state_name":"California","lat":38.34744,"lng":-122.69837,"zip":"94927","miles_from_dt":16.74},{"city":"Petaluma","state_name":"California","lat":38.26152,"lng":-122.63908,"zip":"94953","miles_from_dt":17.11},{"city":"Santa Rosa","state_name":"California","lat":38.45992,"lng":-122.7277,"zip":"95406","miles_from_dt":17.42},{"city":"Calistoga","state_name":"California","lat":38.62449,"lng":-122.62503,"zip":"94515","miles_from_dt":17.78},{"city":"Rohnert Park","state_name":"California","lat":38.32648,"lng":-122.71231,"zip":"94926","miles_from_dt":17.98},{"city":"Cotati","state_name":"California","lat":38.32229,"lng":-122.71497,"zip":"94931","miles_from_dt":18.23},{"city":"Santa Rosa","state_name":"California","lat":38.39465,"lng":-122.74591,"zip":"95407","miles_from_dt":18.47},{"city":"American Canyon","state_name":"California","lat":38.19454,"lng":-122.23042,"zip":"94503","miles_from_dt":18.95},{"city":"Santa Rosa","state_name":"California","lat":38.50326,"lng":-122.75358,"zip":"95403","miles_from_dt":19.36},{"city":"Fulton","state_name":"California","lat":38.49055,"lng":-122.77591,"zip":"95439","miles_from_dt":20.34},{"city":"Fairfield","state_name":"California","lat":38.24112,"lng":-122.12142,"zip":"94534","miles_from_dt":20.36},{"city":"Vacaville","state_name":"California","lat":38.41901,"lng":-122.02571,"zip":"95688","miles_from_dt":20.8},{"city":"Santa Rosa","state_name":"California","lat":38.44922,"lng":-122.79307,"zip":"95401","miles_from_dt":20.89},{"city":"Vallejo","state_name":"California","lat":38.14162,"lng":-122.24596,"zip":"94589","miles_from_dt":21.82},{"city":"Novato","state_name":"California","lat":38.13578,"lng":-122.56224,"zip":"94948","miles_from_dt":21.99},{"city":"Vallejo","state_name":"California","lat":38.12009,"lng":-122.3117,"zip":"94592","miles_from_dt":22.06},{"city":"Novato","state_name":"California","lat":38.1258,"lng":-122.55443,"zip":"94945","miles_from_dt":22.47},{"city":"Sebastopol","state_name":"California","lat":38.40074,"lng":-122.82455,"zip":"95473","miles_from_dt":22.66},{"city":"Windsor","state_name":"California","lat":38.53052,"lng":-122.81254,"zip":"95492","miles_from_dt":22.95},{"city":"Winters","state_name":"California","lat":38.56163,"lng":-122.00609,"zip":"95694","miles_from_dt":23.62},{"city":"Petaluma","state_name":"California","lat":38.23007,"lng":-122.76338,"zip":"94952","miles_from_dt":23.72},{"city":"Vallejo","state_name":"California","lat":38.12702,"lng":-122.19635,"zip":"94591","miles_from_dt":23.92},{"city":"Fairfield","state_name":"California","lat":38.28132,"lng":-122.00693,"zip":"94533","miles_from_dt":24.13},{"city":"Novato","state_name":"California","lat":38.09973,"lng":-122.57145,"zip":"94998","miles_from_dt":24.48},{"city":"Vallejo","state_name":"California","lat":38.09546,"lng":-122.24986,"zip":"94590","miles_from_dt":24.68},{"city":"Middletown","state_name":"California","lat":38.762,"lng":-122.59314,"zip":"95461","miles_from_dt":24.94},{"city":"Sebastopol","state_name":"California","lat":38.39738,"lng":-122.86668,"zip":"95472","miles_from_dt":24.96},{"city":"Graton","state_name":"California","lat":38.43261,"lng":-122.86922,"zip":"95444","miles_from_dt":24.98},{"city":"Brooks","state_name":"California","lat":38.75604,"lng":-122.19387,"zip":"95606","miles_from_dt":25.28},{"city":"Novato","state_name":"California","lat":38.10705,"lng":-122.62813,"zip":"94947","miles_from_dt":25.31},{"city":"Novato","state_name":"California","lat":38.06576,"lng":-122.53172,"zip":"94949","miles_from_dt":26.05},{"city":"Hidden Valley Lake","state_name":"California","lat":38.80453,"lng":-122.54948,"zip":"95467","miles_from_dt":26.89},{"city":"Benicia","state_name":"California","lat":38.09756,"lng":-122.13189,"zip":"94510","miles_from_dt":27.47},{"city":"Vacaville","state_name":"California","lat":38.3344,"lng":-121.91765,"zip":"95687","miles_from_dt":27.48},{"city":"Elmira","state_name":"California","lat":38.35728,"lng":-121.90861,"zip":"95625","miles_from_dt":27.62},{"city":"Vacaville","state_name":"California","lat":38.3175,"lng":-121.92079,"zip":"95696","miles_from_dt":27.62},{"city":"Forestville","state_name":"California","lat":38.49108,"lng":-122.91425,"zip":"95436","miles_from_dt":27.73},{"city":"Travis Afb","state_name":"California","lat":38.27048,"lng":-121.93851,"zip":"94535","miles_from_dt":27.83},{"city":"Crockett","state_name":"California","lat":38.04811,"lng":-122.2292,"zip":"94525","miles_from_dt":28.14},{"city":"San Rafael","state_name":"California","lat":38.02578,"lng":-122.54487,"zip":"94913","miles_from_dt":28.89},{"city":"Nicasio","state_name":"California","lat":38.07176,"lng":-122.68785,"zip":"94946","miles_from_dt":29.04},{"city":"San Rafael","state_name":"California","lat":38.02485,"lng":-122.5522,"zip":"94903","miles_from_dt":29.06},{"city":"Capay","state_name":"California","lat":38.7899,"lng":-122.12585,"zip":"95607","miles_from_dt":29.12},{"city":"Port Costa","state_name":"California","lat":38.04411,"lng":-122.19201,"zip":"94569","miles_from_dt":29.16},{"city":"Healdsburg","state_name":"California","lat":38.62309,"lng":-122.89089,"zip":"95448","miles_from_dt":29.3},{"city":"Tomales","state_name":"California","lat":38.23724,"lng":-122.89006,"zip":"94971","miles_from_dt":29.36},{"city":"Madison","state_name":"California","lat":38.69151,"lng":-121.97723,"zip":"95653","miles_from_dt":29.49},{"city":"Valley Ford","state_name":"California","lat":38.33665,"lng":-122.93934,"zip":"94972","miles_from_dt":29.53},{"city":"Rodeo","state_name":"California","lat":38.02392,"lng":-122.23285,"zip":"94572","miles_from_dt":29.64},{"city":"Camp Meeker","state_name":"California","lat":38.42336,"lng":-122.9582,"zip":"95419","miles_from_dt":29.82},{"city":"Esparto","state_name":"California","lat":38.72936,"lng":-122.00959,"zip":"95627","miles_from_dt":29.86},{"city":"Bodega","state_name":"California","lat":38.35683,"lng":-122.95098,"zip":"94922","miles_from_dt":29.87}],"targetCityZipCode":"94562","targetCityState":"California"},"__N_SSG":true}