{"pageProps":{"stateName":"California","cityName":"ocotillo","nearbyCities":[{"city":"Jacumba","state_name":"California","lat":32.66488,"lng":-116.16828,"zip":"91934","miles_from_dt":13.8},{"city":"Seeley","state_name":"California","lat":32.80798,"lng":-115.69592,"zip":"92273","miles_from_dt":15.43},{"city":"Imperial","state_name":"California","lat":32.87129,"lng":-115.71804,"zip":"92251","miles_from_dt":16.28},{"city":"El Centro","state_name":"California","lat":32.77285,"lng":-115.60065,"zip":"92243","miles_from_dt":20.3},{"city":"Boulevard","state_name":"California","lat":32.67773,"lng":-116.30734,"zip":"91905","miles_from_dt":21.4},{"city":"El Centro","state_name":"California","lat":32.79425,"lng":-115.57928,"zip":"92244","miles_from_dt":21.76},{"city":"Calexico","state_name":"California","lat":32.68751,"lng":-115.56433,"zip":"92231","miles_from_dt":22.49},{"city":"Calexico","state_name":"California","lat":32.67927,"lng":-115.50316,"zip":"92232","miles_from_dt":26.1},{"city":"Heber","state_name":"California","lat":32.72606,"lng":-115.48218,"zip":"92249","miles_from_dt":27.04},{"city":"Westmorland","state_name":"California","lat":33.05033,"lng":-115.61264,"zip":"92281","miles_from_dt":29.14}],"targetCityZipCode":"92259","targetCityState":"California"},"__N_SSG":true}