{"pageProps":{"stateName":"California","cityName":"piedmont","nearbyCities":[{"city":"Oakland","state_name":"California","lat":37.77684,"lng":-122.21822,"zip":"94601","miles_from_dt":0.2},{"city":"Oakland","state_name":"California","lat":37.78075,"lng":-122.18308,"zip":"94613","miles_from_dt":1.75},{"city":"Oakland","state_name":"California","lat":37.79179,"lng":-122.24455,"zip":"94606","miles_from_dt":1.9},{"city":"Oakland","state_name":"California","lat":37.80517,"lng":-122.20422,"zip":"94602","miles_from_dt":1.99},{"city":"Oakland","state_name":"California","lat":37.7379,"lng":-122.20794,"zip":"94621","miles_from_dt":2.76},{"city":"Oakland","state_name":"California","lat":37.81229,"lng":-122.24048,"zip":"94610","miles_from_dt":2.78},{"city":"Oakland","state_name":"California","lat":37.7473,"lng":-122.17236,"zip":"94624","miles_from_dt":3.12},{"city":"Alameda","state_name":"California","lat":37.73686,"lng":-122.24114,"zip":"94502","miles_from_dt":3.16},{"city":"Oakland","state_name":"California","lat":37.79262,"lng":-122.16001,"zip":"94619","miles_from_dt":3.17},{"city":"Oakland","state_name":"California","lat":37.80126,"lng":-122.26575,"zip":"94604","miles_from_dt":3.23},{"city":"Oakland","state_name":"California","lat":37.79591,"lng":-122.26977,"zip":"94660","miles_from_dt":3.27},{"city":"Alameda","state_name":"California","lat":37.77525,"lng":-122.27493,"zip":"94501","miles_from_dt":3.3},{"city":"Oakland","state_name":"California","lat":37.80694,"lng":-122.26383,"zip":"94649","miles_from_dt":3.36},{"city":"Oakland","state_name":"California","lat":37.72971,"lng":-122.20067,"zip":"94614","miles_from_dt":3.39},{"city":"Oakland","state_name":"California","lat":37.73923,"lng":-122.17554,"zip":"94603","miles_from_dt":3.41},{"city":"Oakland","state_name":"California","lat":37.80789,"lng":-122.2662,"zip":"94612","miles_from_dt":3.51},{"city":"Oakland","state_name":"California","lat":37.80982,"lng":-122.26553,"zip":"94666","miles_from_dt":3.56},{"city":"Oakland","state_name":"California","lat":37.82978,"lng":-122.20989,"zip":"94661","miles_from_dt":3.61},{"city":"Oakland","state_name":"California","lat":37.80998,"lng":-122.2692,"zip":"94659","miles_from_dt":3.73},{"city":"Oakland","state_name":"California","lat":37.83191,"lng":-122.21592,"zip":"94611","miles_from_dt":3.75},{"city":"Oakland","state_name":"California","lat":37.76062,"lng":-122.14903,"zip":"94605","miles_from_dt":3.78},{"city":"Oakland","state_name":"California","lat":37.75798,"lng":-122.14705,"zip":"94617","miles_from_dt":3.95},{"city":"Canyon","state_name":"California","lat":37.82748,"lng":-122.16629,"zip":"94516","miles_from_dt":4.35},{"city":"Oakland","state_name":"California","lat":37.83476,"lng":-122.2642,"zip":"94609","miles_from_dt":4.78},{"city":"Oakland","state_name":"California","lat":37.8442,"lng":-122.23868,"zip":"94618","miles_from_dt":4.78},{"city":"San Leandro","state_name":"California","lat":37.71595,"lng":-122.16615,"zip":"94577","miles_from_dt":5.01},{"city":"Oakland","state_name":"California","lat":37.80823,"lng":-122.29898,"zip":"94615","miles_from_dt":5.07},{"city":"Oakland","state_name":"California","lat":37.81067,"lng":-122.29747,"zip":"94623","miles_from_dt":5.07},{"city":"Oakland","state_name":"California","lat":37.80721,"lng":-122.30024,"zip":"94607","miles_from_dt":5.11},{"city":"Emeryville","state_name":"California","lat":37.83611,"lng":-122.28621,"zip":"94608","miles_from_dt":5.62},{"city":"Oakland","state_name":"California","lat":37.717,"lng":-122.146,"zip":"94622","miles_from_dt":5.62},{"city":"Emeryville","state_name":"California","lat":37.84048,"lng":-122.29376,"zip":"94662","miles_from_dt":6.12},{"city":"Berkeley","state_name":"California","lat":37.86523,"lng":-122.2384,"zip":"94705","miles_from_dt":6.18},{"city":"Berkeley","state_name":"California","lat":37.8664,"lng":-122.26088,"zip":"94704","miles_from_dt":6.63},{"city":"Berkeley","state_name":"California","lat":37.87185,"lng":-122.25226,"zip":"94720","miles_from_dt":6.82},{"city":"Berkeley","state_name":"California","lat":37.86397,"lng":-122.27573,"zip":"94703","miles_from_dt":6.83},{"city":"San Leandro","state_name":"California","lat":37.70675,"lng":-122.1256,"zip":"94578","miles_from_dt":6.91},{"city":"Berkeley","state_name":"California","lat":37.869,"lng":-122.2679,"zip":"94712","miles_from_dt":6.94},{"city":"San Leandro","state_name":"California","lat":37.68656,"lng":-122.15709,"zip":"94579","miles_from_dt":7.03},{"city":"Berkeley","state_name":"California","lat":37.86991,"lng":-122.27067,"zip":"94701","miles_from_dt":7.07},{"city":"Moraga","state_name":"California","lat":37.83102,"lng":-122.10425,"zip":"94556","miles_from_dt":7.08},{"city":"Berkeley","state_name":"California","lat":37.86619,"lng":-122.28634,"zip":"94702","miles_from_dt":7.26},{"city":"Moraga","state_name":"California","lat":37.84235,"lng":-122.11012,"zip":"94575","miles_from_dt":7.26},{"city":"Orinda","state_name":"California","lat":37.88196,"lng":-122.19419,"zip":"94563","miles_from_dt":7.29},{"city":"Castro Valley","state_name":"California","lat":37.73441,"lng":-122.09056,"zip":"94546","miles_from_dt":7.42},{"city":"Moraga","state_name":"California","lat":37.85928,"lng":-122.1252,"zip":"94570","miles_from_dt":7.47},{"city":"Berkeley","state_name":"California","lat":37.87835,"lng":-122.26613,"zip":"94709","miles_from_dt":7.5},{"city":"Berkeley","state_name":"California","lat":37.86705,"lng":-122.303,"zip":"94710","miles_from_dt":7.84},{"city":"San Lorenzo","state_name":"California","lat":37.67803,"lng":-122.13334,"zip":"94580","miles_from_dt":8.19},{"city":"Albany","state_name":"California","lat":37.88969,"lng":-122.29581,"zip":"94706","miles_from_dt":8.91},{"city":"San Francisco","state_name":"California","lat":37.81975,"lng":-122.36898,"zip":"94130","miles_from_dt":8.93},{"city":"Berkeley","state_name":"California","lat":37.90276,"lng":-122.26202,"zip":"94708","miles_from_dt":9.01},{"city":"Berkeley","state_name":"California","lat":37.89843,"lng":-122.27917,"zip":"94707","miles_from_dt":9.05},{"city":"San Francisco","state_name":"California","lat":37.7407,"lng":-122.38091,"zip":"94188","miles_from_dt":9.45},{"city":"San Francisco","state_name":"California","lat":37.79185,"lng":-122.39038,"zip":"94126","miles_from_dt":9.66},{"city":"San Francisco","state_name":"California","lat":37.77116,"lng":-122.39153,"zip":"94158","miles_from_dt":9.69},{"city":"San Francisco","state_name":"California","lat":37.73138,"lng":-122.38496,"zip":"94125","miles_from_dt":9.85},{"city":"San Francisco","state_name":"California","lat":37.73204,"lng":-122.3858,"zip":"94124","miles_from_dt":9.88},{"city":"San Francisco","state_name":"California","lat":37.76473,"lng":-122.39508,"zip":"94107","miles_from_dt":9.91},{"city":"Lafayette","state_name":"California","lat":37.90133,"lng":-122.11933,"zip":"94549","miles_from_dt":10},{"city":"Hayward","state_name":"California","lat":37.67376,"lng":-122.08707,"zip":"94541","miles_from_dt":10.01},{"city":"San Francisco","state_name":"California","lat":37.79239,"lng":-122.39707,"zip":"94105","miles_from_dt":10.03},{"city":"San Francisco","state_name":"California","lat":37.79193,"lng":-122.39841,"zip":"94177","miles_from_dt":10.1},{"city":"San Francisco","state_name":"California","lat":37.79142,"lng":-122.39941,"zip":"94163","miles_from_dt":10.15},{"city":"San Francisco","state_name":"California","lat":37.79349,"lng":-122.40018,"zip":"94151","miles_from_dt":10.21},{"city":"Hayward","state_name":"California","lat":37.67323,"lng":-122.0822,"zip":"94543","miles_from_dt":10.22},{"city":"San Francisco","state_name":"California","lat":37.79847,"lng":-122.3998,"zip":"94111","miles_from_dt":10.23},{"city":"San Francisco","state_name":"California","lat":37.79425,"lng":-122.40038,"zip":"94145","miles_from_dt":10.23},{"city":"San Francisco","state_name":"California","lat":37.79853,"lng":-122.39989,"zip":"94161","miles_from_dt":10.24},{"city":"Walnut Creek","state_name":"California","lat":37.87206,"lng":-122.06892,"zip":"94595","miles_from_dt":10.3},{"city":"San Francisco","state_name":"California","lat":37.79144,"lng":-122.40211,"zip":"94104","miles_from_dt":10.3},{"city":"San Francisco","state_name":"California","lat":37.79377,"lng":-122.40216,"zip":"94120","miles_from_dt":10.32},{"city":"San Francisco","state_name":"California","lat":37.79315,"lng":-122.40432,"zip":"94137","miles_from_dt":10.43},{"city":"Hayward","state_name":"California","lat":37.65881,"lng":-122.09505,"zip":"94540","miles_from_dt":10.49},{"city":"San Francisco","state_name":"California","lat":37.79487,"lng":-122.40619,"zip":"94139","miles_from_dt":10.55},{"city":"San Francisco","state_name":"California","lat":37.79189,"lng":-122.40854,"zip":"94108","miles_from_dt":10.65},{"city":"San Francisco","state_name":"California","lat":37.76684,"lng":-122.40891,"zip":"94141","miles_from_dt":10.66},{"city":"San Francisco","state_name":"California","lat":37.77299,"lng":-122.41136,"zip":"94103","miles_from_dt":10.77},{"city":"San Francisco","state_name":"California","lat":37.78441,"lng":-122.41223,"zip":"94142","miles_from_dt":10.82},{"city":"San Francisco","state_name":"California","lat":37.80193,"lng":-122.41092,"zip":"94133","miles_from_dt":10.87},{"city":"San Francisco","state_name":"California","lat":37.7578,"lng":-122.4127,"zip":"94140","miles_from_dt":10.92},{"city":"El Cerrito","state_name":"California","lat":37.92076,"lng":-122.30068,"zip":"94530","miles_from_dt":10.94},{"city":"San Francisco","state_name":"California","lat":37.74975,"lng":-122.41528,"zip":"94110","miles_from_dt":11.15},{"city":"San Francisco","state_name":"California","lat":37.71802,"lng":-122.40439,"zip":"94160","miles_from_dt":11.17},{"city":"San Francisco","state_name":"California","lat":37.77956,"lng":-122.41931,"zip":"94102","miles_from_dt":11.2},{"city":"Concord","state_name":"California","lat":37.87462,"lng":-122.04724,"zip":"94529","miles_from_dt":11.35},{"city":"San Francisco","state_name":"California","lat":37.79334,"lng":-122.42138,"zip":"94109","miles_from_dt":11.36},{"city":"San Francisco","state_name":"California","lat":37.78731,"lng":-122.42206,"zip":"94164","miles_from_dt":11.37},{"city":"Hayward","state_name":"California","lat":37.62957,"lng":-122.12048,"zip":"94545","miles_from_dt":11.44},{"city":"San Francisco","state_name":"California","lat":37.71887,"lng":-122.41124,"zip":"94134","miles_from_dt":11.5},{"city":"Hayward","state_name":"California","lat":37.62988,"lng":-122.10303,"zip":"94557","miles_from_dt":11.88},{"city":"San Francisco","state_name":"California","lat":37.76015,"lng":-122.43328,"zip":"94146","miles_from_dt":12.02},{"city":"Richmond","state_name":"California","lat":37.92074,"lng":-122.34204,"zip":"94804","miles_from_dt":12.08},{"city":"Castro Valley","state_name":"California","lat":37.70456,"lng":-122.01359,"zip":"94552","miles_from_dt":12.11},{"city":"San Francisco","state_name":"California","lat":37.80083,"lng":-122.43482,"zip":"94147","miles_from_dt":12.15},{"city":"San Francisco","state_name":"California","lat":37.75814,"lng":-122.43547,"zip":"94114","miles_from_dt":12.16},{"city":"San Francisco","state_name":"California","lat":37.78608,"lng":-122.43742,"zip":"94115","miles_from_dt":12.2},{"city":"San Ramon","state_name":"California","lat":37.77245,"lng":-121.99157,"zip":"94583","miles_from_dt":12.22},{"city":"San Francisco","state_name":"California","lat":37.80112,"lng":-122.43645,"zip":"94123","miles_from_dt":12.24},{"city":"Brisbane","state_name":"California","lat":37.6882,"lng":-122.40873,"zip":"94005","miles_from_dt":12.28},{"city":"Walnut Creek","state_name":"California","lat":37.88902,"lng":-122.03676,"zip":"94596","miles_from_dt":12.4},{"city":"Walnut Creek","state_name":"California","lat":37.91768,"lng":-122.0718,"zip":"94597","miles_from_dt":12.43},{"city":"Alamo","state_name":"California","lat":37.85429,"lng":-122.00664,"zip":"94507","miles_from_dt":12.56},{"city":"San Francisco","state_name":"California","lat":37.77002,"lng":-122.44425,"zip":"94117","miles_from_dt":12.57},{"city":"San Francisco","state_name":"California","lat":37.74569,"lng":-122.44243,"zip":"94131","miles_from_dt":12.66},{"city":"Richmond","state_name":"California","lat":37.94215,"lng":-122.32364,"zip":"94805","miles_from_dt":12.82},{"city":"Richmond","state_name":"California","lat":37.92715,"lng":-122.35385,"zip":"94807","miles_from_dt":12.82},{"city":"Danville","state_name":"California","lat":37.81472,"lng":-121.98451,"zip":"94526","miles_from_dt":12.86},{"city":"El Sobrante","state_name":"California","lat":37.95683,"lng":-122.28235,"zip":"94803","miles_from_dt":12.9},{"city":"Richmond","state_name":"California","lat":37.936,"lng":-122.34143,"zip":"94808","miles_from_dt":12.94},{"city":"San Francisco","state_name":"California","lat":37.78402,"lng":-122.4533,"zip":"94159","miles_from_dt":13.07},{"city":"San Francisco","state_name":"California","lat":37.7206,"lng":-122.44311,"zip":"94112","miles_from_dt":13.11},{"city":"San Francisco","state_name":"California","lat":37.78593,"lng":-122.45519,"zip":"94119","miles_from_dt":13.17},{"city":"Hayward","state_name":"California","lat":37.63352,"lng":-122.05678,"zip":"94544","miles_from_dt":13.18},{"city":"San Francisco","state_name":"California","lat":37.76379,"lng":-122.45739,"zip":"94143","miles_from_dt":13.32},{"city":"Hayward","state_name":"California","lat":37.6553,"lng":-122.02584,"zip":"94542","miles_from_dt":13.35},{"city":"San Francisco","state_name":"California","lat":37.78335,"lng":-122.45978,"zip":"94144","miles_from_dt":13.42},{"city":"Richmond","state_name":"California","lat":37.93711,"lng":-122.35658,"zip":"94802","miles_from_dt":13.46},{"city":"San Francisco","state_name":"California","lat":37.7801,"lng":-122.46185,"zip":"94118","miles_from_dt":13.53},{"city":"San Francisco","state_name":"California","lat":37.73642,"lng":-122.45961,"zip":"94127","miles_from_dt":13.7},{"city":"San Francisco","state_name":"California","lat":37.79743,"lng":-122.46662,"zip":"94129","miles_from_dt":13.85},{"city":"Daly City","state_name":"California","lat":37.70733,"lng":-122.45493,"zip":"94016","miles_from_dt":14.02},{"city":"South San Francisco","state_name":"California","lat":37.65541,"lng":-122.42083,"zip":"94080","miles_from_dt":14.09},{"city":"Daly City","state_name":"California","lat":37.6907,"lng":-122.44769,"zip":"94014","miles_from_dt":14.1},{"city":"San Francisco","state_name":"California","lat":37.62197,"lng":-122.38388,"zip":"94128","miles_from_dt":14.18},{"city":"South San Francisco","state_name":"California","lat":37.64364,"lng":-122.41198,"zip":"94083","miles_from_dt":14.22},{"city":"Pleasant Hill","state_name":"California","lat":37.95403,"lng":-122.07608,"zip":"94523","miles_from_dt":14.34},{"city":"Martinez","state_name":"California","lat":37.97999,"lng":-122.15368,"zip":"94553","miles_from_dt":14.35},{"city":"El Sobrante","state_name":"California","lat":37.97827,"lng":-122.29528,"zip":"94820","miles_from_dt":14.53},{"city":"Diablo","state_name":"California","lat":37.84149,"lng":-121.95819,"zip":"94528","miles_from_dt":14.71},{"city":"San Francisco","state_name":"California","lat":37.76044,"lng":-122.48316,"zip":"94172","miles_from_dt":14.74},{"city":"San Francisco","state_name":"California","lat":37.76113,"lng":-122.48433,"zip":"94122","miles_from_dt":14.8},{"city":"Richmond","state_name":"California","lat":37.9471,"lng":-122.38153,"zip":"94850","miles_from_dt":14.83},{"city":"Pinole","state_name":"California","lat":37.98896,"lng":-122.27018,"zip":"94564","miles_from_dt":14.89},{"city":"Walnut Creek","state_name":"California","lat":37.89238,"lng":-121.98283,"zip":"94598","miles_from_dt":14.95},{"city":"San Francisco","state_name":"California","lat":37.74457,"lng":-122.48611,"zip":"94116","miles_from_dt":15.03},{"city":"Richmond","state_name":"California","lat":37.95217,"lng":-122.38025,"zip":"94801","miles_from_dt":15.06},{"city":"Union City","state_name":"California","lat":37.59142,"lng":-122.06993,"zip":"94587","miles_from_dt":15.09},{"city":"San Mateo","state_name":"California","lat":37.57445,"lng":-122.31942,"zip":"94401","miles_from_dt":15.14},{"city":"Daly City","state_name":"California","lat":37.68878,"lng":-122.46892,"zip":"94017","miles_from_dt":15.21},{"city":"San Francisco","state_name":"California","lat":37.72219,"lng":-122.48475,"zip":"94132","miles_from_dt":15.27},{"city":"San Pablo","state_name":"California","lat":37.97811,"lng":-122.33618,"zip":"94806","miles_from_dt":15.34},{"city":"San Francisco","state_name":"California","lat":37.77849,"lng":-122.49548,"zip":"94121","miles_from_dt":15.37},{"city":"Burlingame","state_name":"California","lat":37.5795,"lng":-122.34432,"zip":"94011","miles_from_dt":15.4},{"city":"San Mateo","state_name":"California","lat":37.5562,"lng":-122.26905,"zip":"94404","miles_from_dt":15.55},{"city":"Belvedere Tiburon","state_name":"California","lat":37.88732,"lng":-122.46549,"zip":"94920","miles_from_dt":15.67},{"city":"San Bruno","state_name":"California","lat":37.62539,"lng":-122.43229,"zip":"94066","miles_from_dt":15.88},{"city":"Concord","state_name":"California","lat":37.95052,"lng":-122.02209,"zip":"94518","miles_from_dt":15.91},{"city":"Hercules","state_name":"California","lat":38.00637,"lng":-122.26117,"zip":"94547","miles_from_dt":15.98},{"city":"San Mateo","state_name":"California","lat":37.56256,"lng":-122.32483,"zip":"94497","miles_from_dt":16.01},{"city":"Daly City","state_name":"California","lat":37.68121,"lng":-122.48074,"zip":"94015","miles_from_dt":16.01},{"city":"Concord","state_name":"California","lat":37.97359,"lng":-122.05763,"zip":"94524","miles_from_dt":16.02},{"city":"Millbrae","state_name":"California","lat":37.59969,"lng":-122.40343,"zip":"94030","miles_from_dt":16.04},{"city":"Concord","state_name":"California","lat":37.97662,"lng":-122.0564,"zip":"94527","miles_from_dt":16.23},{"city":"San Ramon","state_name":"California","lat":37.76357,"lng":-121.91469,"zip":"94582","miles_from_dt":16.46},{"city":"Sausalito","state_name":"California","lat":37.86586,"lng":-122.49689,"zip":"94966","miles_from_dt":16.59},{"city":"Burlingame","state_name":"California","lat":37.57306,"lng":-122.37828,"zip":"94010","miles_from_dt":16.71},{"city":"Redwood City","state_name":"California","lat":37.53504,"lng":-122.24683,"zip":"94065","miles_from_dt":16.82},{"city":"Rodeo","state_name":"California","lat":38.02392,"lng":-122.23285,"zip":"94572","miles_from_dt":17.02},{"city":"Danville","state_name":"California","lat":37.80862,"lng":-121.90498,"zip":"94506","miles_from_dt":17.09},{"city":"San Mateo","state_name":"California","lat":37.53844,"lng":-122.30454,"zip":"94403","miles_from_dt":17.21},{"city":"Fremont","state_name":"California","lat":37.55083,"lng":-122.08043,"zip":"94555","miles_from_dt":17.28},{"city":"San Mateo","state_name":"California","lat":37.54035,"lng":-122.33388,"zip":"94402","miles_from_dt":17.62},{"city":"Dublin","state_name":"California","lat":37.71596,"lng":-121.90113,"zip":"94568","miles_from_dt":17.69},{"city":"Concord","state_name":"California","lat":37.99344,"lng":-122.03532,"zip":"94520","miles_from_dt":17.83},{"city":"Sausalito","state_name":"California","lat":37.85263,"lng":-122.52699,"zip":"94965","miles_from_dt":17.85},{"city":"Concord","state_name":"California","lat":37.95293,"lng":-121.96971,"zip":"94521","miles_from_dt":18.05},{"city":"Concord","state_name":"California","lat":37.98881,"lng":-122.01275,"zip":"94519","miles_from_dt":18.28},{"city":"Port Costa","state_name":"California","lat":38.04411,"lng":-122.19201,"zip":"94569","miles_from_dt":18.42},{"city":"Pleasanton","state_name":"California","lat":37.73801,"lng":-121.88178,"zip":"94588","miles_from_dt":18.43},{"city":"Crockett","state_name":"California","lat":38.04811,"lng":-122.2292,"zip":"94525","miles_from_dt":18.68},{"city":"Fremont","state_name":"California","lat":37.55569,"lng":-122.01734,"zip":"94537","miles_from_dt":18.74},{"city":"Pacifica","state_name":"California","lat":37.60544,"lng":-122.47993,"zip":"94044","miles_from_dt":18.77},{"city":"Belmont","state_name":"California","lat":37.51366,"lng":-122.29853,"zip":"94002","miles_from_dt":18.77},{"city":"San Quentin","state_name":"California","lat":37.94235,"lng":-122.49244,"zip":"94964","miles_from_dt":18.97},{"city":"Mill Valley","state_name":"California","lat":37.90457,"lng":-122.5229,"zip":"94942","miles_from_dt":18.99},{"city":"Fremont","state_name":"California","lat":37.57072,"lng":-121.98555,"zip":"94536","miles_from_dt":19.01},{"city":"Corte Madera","state_name":"California","lat":37.92386,"lng":-122.5132,"zip":"94925","miles_from_dt":19.19},{"city":"Concord","state_name":"California","lat":38.01535,"lng":-122.02331,"zip":"94522","miles_from_dt":19.45},{"city":"San Carlos","state_name":"California","lat":37.49739,"lng":-122.27021,"zip":"94070","miles_from_dt":19.56},{"city":"Redwood City","state_name":"California","lat":37.49367,"lng":-122.20823,"zip":"94063","miles_from_dt":19.58},{"city":"Clayton","state_name":"California","lat":37.8926,"lng":-121.88252,"zip":"94517","miles_from_dt":19.83},{"city":"Corte Madera","state_name":"California","lat":37.92743,"lng":-122.52455,"zip":"94976","miles_from_dt":19.85},{"city":"San Rafael","state_name":"California","lat":37.9599,"lng":-122.50402,"zip":"94915","miles_from_dt":20.21},{"city":"Menlo Park","state_name":"California","lat":37.48113,"lng":-122.18014,"zip":"94026","miles_from_dt":20.53},{"city":"Larkspur","state_name":"California","lat":37.93725,"lng":-122.53518,"zip":"94939","miles_from_dt":20.7},{"city":"Larkspur","state_name":"California","lat":37.93802,"lng":-122.53526,"zip":"94977","miles_from_dt":20.73},{"city":"San Rafael","state_name":"California","lat":37.98053,"lng":-122.50249,"zip":"94901","miles_from_dt":21.06},{"city":"San Rafael","state_name":"California","lat":37.97771,"lng":-122.50646,"zip":"94912","miles_from_dt":21.09},{"city":"Kentfield","state_name":"California","lat":37.94739,"lng":-122.53706,"zip":"94914","miles_from_dt":21.16},{"city":"Newark","state_name":"California","lat":37.50771,"lng":-122.02523,"zip":"94560","miles_from_dt":21.32},{"city":"Pleasanton","state_name":"California","lat":37.65032,"lng":-121.85881,"zip":"94566","miles_from_dt":21.38},{"city":"San Quentin","state_name":"California","lat":37.95646,"lng":-122.53935,"zip":"94974","miles_from_dt":21.61},{"city":"Redwood City","state_name":"California","lat":37.46293,"lng":-122.25544,"zip":"94064","miles_from_dt":21.81},{"city":"Redwood City","state_name":"California","lat":37.46136,"lng":-122.23731,"zip":"94061","miles_from_dt":21.84},{"city":"Montara","state_name":"California","lat":37.55327,"lng":-122.49584,"zip":"94037","miles_from_dt":21.84},{"city":"Greenbrae","state_name":"California","lat":37.94841,"lng":-122.55288,"zip":"94904","miles_from_dt":21.92},{"city":"Vallejo","state_name":"California","lat":38.09546,"lng":-122.24986,"zip":"94590","miles_from_dt":22.01},{"city":"Atherton","state_name":"California","lat":37.45399,"lng":-122.20313,"zip":"94027","miles_from_dt":22.32},{"city":"Pittsburg","state_name":"California","lat":38.00926,"lng":-121.92886,"zip":"94565","miles_from_dt":22.35},{"city":"Benicia","state_name":"California","lat":38.09756,"lng":-122.13189,"zip":"94510","miles_from_dt":22.53},{"city":"Menlo Park","state_name":"California","lat":37.45087,"lng":-122.1829,"zip":"94025","miles_from_dt":22.6},{"city":"Moss Beach","state_name":"California","lat":37.52946,"lng":-122.4849,"zip":"94038","miles_from_dt":22.63},{"city":"Ross","state_name":"California","lat":37.96343,"lng":-122.56174,"zip":"94957","miles_from_dt":22.9},{"city":"Palo Alto","state_name":"California","lat":37.44709,"lng":-122.15608,"zip":"94302","miles_from_dt":23.02},{"city":"Palo Alto","state_name":"California","lat":37.45064,"lng":-122.11928,"zip":"94303","miles_from_dt":23.15},{"city":"Fremont","state_name":"California","lat":37.50653,"lng":-121.96361,"zip":"94538","miles_from_dt":23.22},{"city":"San Anselmo","state_name":"California","lat":37.97198,"lng":-122.56204,"zip":"94979","miles_from_dt":23.24},{"city":"Palo Alto","state_name":"California","lat":37.44424,"lng":-122.14992,"zip":"94301","miles_from_dt":23.26},{"city":"Mill Valley","state_name":"California","lat":37.92562,"lng":-122.60083,"zip":"94941","miles_from_dt":23.45},{"city":"El Granada","state_name":"California","lat":37.50603,"lng":-122.47321,"zip":"94018","miles_from_dt":23.49},{"city":"Vallejo","state_name":"California","lat":38.12702,"lng":-122.19635,"zip":"94591","miles_from_dt":24.12},{"city":"Vallejo","state_name":"California","lat":38.12009,"lng":-122.3117,"zip":"94592","miles_from_dt":24.21},{"city":"Sunol","state_name":"California","lat":37.57327,"lng":-121.85472,"zip":"94586","miles_from_dt":24.25},{"city":"Fremont","state_name":"California","lat":37.51635,"lng":-121.9119,"zip":"94539","miles_from_dt":24.5},{"city":"Fairfax","state_name":"California","lat":37.9849,"lng":-122.58005,"zip":"94978","miles_from_dt":24.56},{"city":"Redwood City","state_name":"California","lat":37.42562,"lng":-122.29653,"zip":"94062","miles_from_dt":24.68},{"city":"San Rafael","state_name":"California","lat":38.02578,"lng":-122.54487,"zip":"94913","miles_from_dt":24.87},{"city":"Livermore","state_name":"California","lat":37.75902,"lng":-121.76026,"zip":"94551","miles_from_dt":24.92},{"city":"Half Moon Bay","state_name":"California","lat":37.44826,"lng":-122.4023,"zip":"94019","miles_from_dt":24.93},{"city":"San Anselmo","state_name":"California","lat":37.99707,"lng":-122.57838,"zip":"94960","miles_from_dt":24.98},{"city":"Palo Alto","state_name":"California","lat":37.41667,"lng":-122.16667,"zip":"94309","miles_from_dt":25.03},{"city":"Stanford","state_name":"California","lat":37.41623,"lng":-122.17069,"zip":"94305","miles_from_dt":25.04},{"city":"San Rafael","state_name":"California","lat":38.02485,"lng":-122.5522,"zip":"94903","miles_from_dt":25.12},{"city":"Vallejo","state_name":"California","lat":38.14162,"lng":-122.24596,"zip":"94589","miles_from_dt":25.17},{"city":"Palo Alto","state_name":"California","lat":37.41627,"lng":-122.13088,"zip":"94306","miles_from_dt":25.34},{"city":"Fairfax","state_name":"California","lat":37.97048,"lng":-122.61108,"zip":"94930","miles_from_dt":25.43},{"city":"Stinson Beach","state_name":"California","lat":37.91694,"lng":-122.65553,"zip":"94970","miles_from_dt":25.95},{"city":"Alviso","state_name":"California","lat":37.44075,"lng":-122.00047,"zip":"95002","miles_from_dt":26.03},{"city":"Mountain View","state_name":"California","lat":37.41077,"lng":-122.08732,"zip":"94042","miles_from_dt":26.25},{"city":"Palo Alto","state_name":"California","lat":37.39744,"lng":-122.16699,"zip":"94304","miles_from_dt":26.35},{"city":"Novato","state_name":"California","lat":38.06576,"lng":-122.53172,"zip":"94949","miles_from_dt":26.36},{"city":"Antioch","state_name":"California","lat":37.99214,"lng":-121.8142,"zip":"94509","miles_from_dt":26.43},{"city":"Mountain View","state_name":"California","lat":37.41188,"lng":-122.06892,"zip":"94043","miles_from_dt":26.46},{"city":"Mountain View","state_name":"California","lat":37.41289,"lng":-122.04989,"zip":"94035","miles_from_dt":26.73},{"city":"Antioch","state_name":"California","lat":37.95665,"lng":-121.77777,"zip":"94531","miles_from_dt":26.9},{"city":"Mountain View","state_name":"California","lat":37.39505,"lng":-122.07666,"zip":"94039","miles_from_dt":27.45},{"city":"Sunnyvale","state_name":"California","lat":37.41192,"lng":-122.01441,"zip":"94089","miles_from_dt":27.51},{"city":"Portola Valley","state_name":"California","lat":37.37492,"lng":-122.21136,"zip":"94028","miles_from_dt":27.77},{"city":"Mountain View","state_name":"California","lat":37.38822,"lng":-122.07529,"zip":"94041","miles_from_dt":27.92},{"city":"San Jose","state_name":"California","lat":37.43003,"lng":-121.94528,"zip":"95134","miles_from_dt":28.16},{"city":"Los Altos","state_name":"California","lat":37.3766,"lng":-122.1144,"zip":"94023","miles_from_dt":28.2},{"city":"Mountain View","state_name":"California","lat":37.38034,"lng":-122.08531,"zip":"94040","miles_from_dt":28.3},{"city":"Woodacre","state_name":"California","lat":38.01259,"lng":-122.63947,"zip":"94973","miles_from_dt":28.31},{"city":"Sunnyvale","state_name":"California","lat":37.39098,"lng":-122.03733,"zip":"94088","miles_from_dt":28.38},{"city":"American Canyon","state_name":"California","lat":38.19454,"lng":-122.23042,"zip":"94503","miles_from_dt":28.77},{"city":"Sunnyvale","state_name":"California","lat":37.38862,"lng":-122.01793,"zip":"94085","miles_from_dt":28.92},{"city":"San Geronimo","state_name":"California","lat":38.00765,"lng":-122.66484,"zip":"94963","miles_from_dt":29.27},{"city":"Los Altos","state_name":"California","lat":37.35534,"lng":-122.14494,"zip":"94022","miles_from_dt":29.37},{"city":"Santa Clara","state_name":"California","lat":37.40059,"lng":-121.96347,"zip":"95056","miles_from_dt":29.43},{"city":"Novato","state_name":"California","lat":38.09973,"lng":-122.57145,"zip":"94998","miles_from_dt":29.55},{"city":"Milpitas","state_name":"California","lat":37.44319,"lng":-121.87632,"zip":"95035","miles_from_dt":29.61},{"city":"Santa Clara","state_name":"California","lat":37.39308,"lng":-121.96483,"zip":"95054","miles_from_dt":29.85},{"city":"Sunnyvale","state_name":"California","lat":37.37164,"lng":-122.02316,"zip":"94086","miles_from_dt":29.91}],"targetCityZipCode":"94620","targetCityState":"California"},"__N_SSG":true}