{"pageProps":{"stateName":"California","cityName":"santa-margarita","nearbyCities":[{"city":"Arroyo Grande","state_name":"California","lat":35.16682,"lng":-120.46617,"zip":"93420","miles_from_dt":19.78},{"city":"Creston","state_name":"California","lat":35.47686,"lng":-120.47228,"zip":"93432","miles_from_dt":20.66},{"city":"Shandon","state_name":"California","lat":35.63519,"lng":-120.26951,"zip":"93461","miles_from_dt":22.95},{"city":"Santa Maria","state_name":"California","lat":34.94834,"lng":-120.23425,"zip":"93454","miles_from_dt":25.46},{"city":"San Luis Obispo","state_name":"California","lat":35.23539,"lng":-120.61834,"zip":"93401","miles_from_dt":26.16},{"city":"Arroyo Grande","state_name":"California","lat":35.12068,"lng":-120.57442,"zip":"93421","miles_from_dt":26.68},{"city":"McKittrick","state_name":"California","lat":35.37059,"lng":-119.69735,"zip":"93251","miles_from_dt":26.74},{"city":"Nipomo","state_name":"California","lat":35.03553,"lng":-120.50293,"zip":"93444","miles_from_dt":27.05},{"city":"San Luis Obispo","state_name":"California","lat":35.24625,"lng":-120.63933,"zip":"93406","miles_from_dt":27.18},{"city":"San Luis Obispo","state_name":"California","lat":35.30428,"lng":-120.65683,"zip":"93410","miles_from_dt":27.77},{"city":"San Luis Obispo","state_name":"California","lat":35.28016,"lng":-120.65682,"zip":"93403","miles_from_dt":27.86},{"city":"San Luis Obispo","state_name":"California","lat":35.30747,"lng":-120.66986,"zip":"93407","miles_from_dt":28.5},{"city":"Grover Beach","state_name":"California","lat":35.12045,"lng":-120.61894,"zip":"93433","miles_from_dt":28.9},{"city":"Grover Beach","state_name":"California","lat":35.11917,"lng":-120.62088,"zip":"93483","miles_from_dt":29.03},{"city":"Oceano","state_name":"California","lat":35.099,"lng":-120.612,"zip":"93475","miles_from_dt":29.27},{"city":"Pismo Beach","state_name":"California","lat":35.15803,"lng":-120.6504,"zip":"93449","miles_from_dt":29.44},{"city":"Atascadero","state_name":"California","lat":35.4874,"lng":-120.64526,"zip":"93423","miles_from_dt":29.62}],"targetCityZipCode":"93453","targetCityState":"California"},"__N_SSG":true}