{"pageProps":{"stateName":"California","cityName":"shingle-springs","nearbyCities":[{"city":"El Dorado","state_name":"California","lat":38.6075,"lng":-120.84873,"zip":"95623","miles_from_dt":6.12},{"city":"El Dorado Hills","state_name":"California","lat":38.67694,"lng":-121.05755,"zip":"95762","miles_from_dt":7.16},{"city":"Plymouth","state_name":"California","lat":38.49522,"lng":-120.89157,"zip":"95669","miles_from_dt":8.5},{"city":"Rescue","state_name":"California","lat":38.72664,"lng":-120.99638,"zip":"95672","miles_from_dt":8.57},{"city":"Diamond Springs","state_name":"California","lat":38.68218,"lng":-120.81401,"zip":"95619","miles_from_dt":9.59},{"city":"Sloughhouse","state_name":"California","lat":38.51018,"lng":-121.09894,"zip":"95683","miles_from_dt":9.92},{"city":"Folsom","state_name":"California","lat":38.66558,"lng":-121.141,"zip":"95630","miles_from_dt":10.55},{"city":"Represa","state_name":"California","lat":38.69529,"lng":-121.15671,"zip":"95671","miles_from_dt":12.23},{"city":"Folsom","state_name":"California","lat":38.67818,"lng":-121.17437,"zip":"95763","miles_from_dt":12.55},{"city":"River Pines","state_name":"California","lat":38.54548,"lng":-120.74277,"zip":"95675","miles_from_dt":12.56},{"city":"Drytown","state_name":"California","lat":38.44074,"lng":-120.85702,"zip":"95699","miles_from_dt":12.69},{"city":"Placerville","state_name":"California","lat":38.73407,"lng":-120.79216,"zip":"95667","miles_from_dt":12.76},{"city":"Rancho Cordova","state_name":"California","lat":38.5735,"lng":-121.19854,"zip":"95742","miles_from_dt":13.01},{"city":"Mount Aukum","state_name":"California","lat":38.56338,"lng":-120.71493,"zip":"95656","miles_from_dt":13.67},{"city":"Pilot Hill","state_name":"California","lat":38.79755,"lng":-121.05136,"zip":"95664","miles_from_dt":14.11},{"city":"Amador City","state_name":"California","lat":38.42713,"lng":-120.82997,"zip":"95601","miles_from_dt":14.22},{"city":"Coloma","state_name":"California","lat":38.81272,"lng":-120.89173,"zip":"95613","miles_from_dt":14.79},{"city":"Lotus","state_name":"California","lat":38.82088,"lng":-120.93515,"zip":"95651","miles_from_dt":14.93},{"city":"Granite Bay","state_name":"California","lat":38.75009,"lng":-121.16712,"zip":"95746","miles_from_dt":14.93},{"city":"Orangevale","state_name":"California","lat":38.68917,"lng":-121.21988,"zip":"95662","miles_from_dt":15.11},{"city":"Fair Oaks","state_name":"California","lat":38.65212,"lng":-121.2543,"zip":"95628","miles_from_dt":16.15},{"city":"Fiddletown","state_name":"California","lat":38.51277,"lng":-120.6875,"zip":"95629","miles_from_dt":16.17},{"city":"Sutter Creek","state_name":"California","lat":38.42716,"lng":-120.76698,"zip":"95685","miles_from_dt":16.2},{"city":"Rancho Cordova","state_name":"California","lat":38.60461,"lng":-121.27963,"zip":"95670","miles_from_dt":17.21},{"city":"Mather","state_name":"California","lat":38.54976,"lng":-121.27898,"zip":"95655","miles_from_dt":17.6},{"city":"Citrus Heights","state_name":"California","lat":38.69494,"lng":-121.27219,"zip":"95610","miles_from_dt":17.89},{"city":"Camino","state_name":"California","lat":38.74886,"lng":-120.68134,"zip":"95709","miles_from_dt":18.11},{"city":"Roseville","state_name":"California","lat":38.74129,"lng":-121.24925,"zip":"95661","miles_from_dt":18.15},{"city":"Loomis","state_name":"California","lat":38.81339,"lng":-121.16831,"zip":"95650","miles_from_dt":18.18},{"city":"Rancho Cordova","state_name":"California","lat":38.58882,"lng":-121.30068,"zip":"95741","miles_from_dt":18.38},{"city":"Ione","state_name":"California","lat":38.33922,"lng":-120.94024,"zip":"95640","miles_from_dt":18.39},{"city":"Garden Valley","state_name":"California","lat":38.84919,"lng":-120.82328,"zip":"95633","miles_from_dt":18.41},{"city":"Citrus Heights","state_name":"California","lat":38.707,"lng":-121.27797,"zip":"95611","miles_from_dt":18.48},{"city":"Sacramento","state_name":"California","lat":38.49415,"lng":-121.27229,"zip":"95830","miles_from_dt":18.49},{"city":"Martell","state_name":"California","lat":38.36681,"lng":-120.79462,"zip":"95654","miles_from_dt":18.78},{"city":"Cool","state_name":"California","lat":38.88649,"lng":-120.98896,"zip":"95614","miles_from_dt":19.45},{"city":"Rocklin","state_name":"California","lat":38.79298,"lng":-121.23133,"zip":"95677","miles_from_dt":19.49},{"city":"Citrus Heights","state_name":"California","lat":38.69551,"lng":-121.30862,"zip":"95621","miles_from_dt":19.77},{"city":"Carmichael","state_name":"California","lat":38.62531,"lng":-121.32742,"zip":"95609","miles_from_dt":19.84},{"city":"Carmichael","state_name":"California","lat":38.62611,"lng":-121.32886,"zip":"95608","miles_from_dt":19.92},{"city":"Wilton","state_name":"California","lat":38.39851,"lng":-121.21956,"zip":"95693","miles_from_dt":19.97},{"city":"Sacramento","state_name":"California","lat":38.55151,"lng":-121.3253,"zip":"95827","miles_from_dt":20.03},{"city":"Herald","state_name":"California","lat":38.33969,"lng":-121.11481,"zip":"95638","miles_from_dt":20.12},{"city":"Roseville","state_name":"California","lat":38.76536,"lng":-121.28847,"zip":"95678","miles_from_dt":20.83},{"city":"Volcano","state_name":"California","lat":38.47088,"lng":-120.61566,"zip":"95689","miles_from_dt":20.92},{"city":"Jackson","state_name":"California","lat":38.3434,"lng":-120.76398,"zip":"95642","miles_from_dt":21.01},{"city":"Penryn","state_name":"California","lat":38.85739,"lng":-121.18251,"zip":"95663","miles_from_dt":21.08},{"city":"Sacramento","state_name":"California","lat":38.66031,"lng":-121.34812,"zip":"95841","miles_from_dt":21.24},{"city":"Greenwood","state_name":"California","lat":38.91111,"lng":-120.90043,"zip":"95635","miles_from_dt":21.35},{"city":"Newcastle","state_name":"California","lat":38.87938,"lng":-121.15173,"zip":"95658","miles_from_dt":21.51},{"city":"Sacramento","state_name":"California","lat":38.687,"lng":-121.34889,"zip":"95842","miles_from_dt":21.69},{"city":"Sacramento","state_name":"California","lat":38.48759,"lng":-121.33326,"zip":"95829","miles_from_dt":21.7},{"city":"Elk Grove","state_name":"California","lat":38.43203,"lng":-121.30506,"zip":"95624","miles_from_dt":22.11},{"city":"Pine Grove","state_name":"California","lat":38.39587,"lng":-120.65238,"zip":"95665","miles_from_dt":22.14},{"city":"Auburn","state_name":"California","lat":38.91167,"lng":-121.08559,"zip":"95603","miles_from_dt":22.16},{"city":"Somerset","state_name":"California","lat":38.59098,"lng":-120.55066,"zip":"95684","miles_from_dt":22.27},{"city":"Auburn","state_name":"California","lat":38.9112,"lng":-121.0982,"zip":"95604","miles_from_dt":22.35},{"city":"Sacramento","state_name":"California","lat":38.58512,"lng":-121.37655,"zip":"95864","miles_from_dt":22.5},{"city":"Rocklin","state_name":"California","lat":38.81982,"lng":-121.27772,"zip":"95765","miles_from_dt":22.59},{"city":"Sacramento","state_name":"California","lat":38.60833,"lng":-121.38169,"zip":"95860","miles_from_dt":22.73},{"city":"Sacramento","state_name":"California","lat":38.62541,"lng":-121.38479,"zip":"95821","miles_from_dt":22.94},{"city":"Sacramento","state_name":"California","lat":38.54554,"lng":-121.37885,"zip":"95826","miles_from_dt":22.96},{"city":"Antelope","state_name":"California","lat":38.71532,"lng":-121.36366,"zip":"95843","miles_from_dt":23.02},{"city":"North Highlands","state_name":"California","lat":38.67883,"lng":-121.3805,"zip":"95660","miles_from_dt":23.21},{"city":"Grizzly Flats","state_name":"California","lat":38.6274,"lng":-120.51852,"zip":"95636","miles_from_dt":24.03},{"city":"Mcclellan","state_name":"California","lat":38.66265,"lng":-121.40079,"zip":"95652","miles_from_dt":24.08},{"city":"Sacramento","state_name":"California","lat":38.5901,"lng":-121.40644,"zip":"95825","miles_from_dt":24.09},{"city":"Sacramento","state_name":"California","lat":38.58868,"lng":-121.40725,"zip":"95865","miles_from_dt":24.14},{"city":"Sacramento","state_name":"California","lat":38.58945,"lng":-121.40784,"zip":"95866","miles_from_dt":24.17},{"city":"Sacramento","state_name":"California","lat":38.48943,"lng":-121.39598,"zip":"95828","miles_from_dt":24.84},{"city":"Roseville","state_name":"California","lat":38.77963,"lng":-121.36798,"zip":"95747","miles_from_dt":25.03},{"city":"Kit Carson","state_name":"California","lat":38.45731,"lng":-120.53042,"zip":"95644","miles_from_dt":25.5},{"city":"Sacramento","state_name":"California","lat":38.508,"lng":-121.41678,"zip":"95813","miles_from_dt":25.54},{"city":"Georgetown","state_name":"California","lat":38.9123,"lng":-120.69443,"zip":"95634","miles_from_dt":25.63},{"city":"Sacramento","state_name":"California","lat":38.56816,"lng":-121.43772,"zip":"95819","miles_from_dt":25.9},{"city":"Sacramento","state_name":"California","lat":38.60559,"lng":-121.44143,"zip":"95852","miles_from_dt":25.96},{"city":"Sacramento","state_name":"California","lat":38.6081,"lng":-121.44154,"zip":"95851","miles_from_dt":25.97},{"city":"Sacramento","state_name":"California","lat":38.6073,"lng":-121.44317,"zip":"95853","miles_from_dt":26.06},{"city":"Sacramento","state_name":"California","lat":38.60544,"lng":-121.44497,"zip":"95815","miles_from_dt":26.15},{"city":"Campo Seco","state_name":"California","lat":38.23377,"lng":-120.86232,"zip":"95226","miles_from_dt":26.19},{"city":"Sacramento","state_name":"California","lat":38.64708,"lng":-121.44312,"zip":"95838","miles_from_dt":26.2},{"city":"Sacramento","state_name":"California","lat":38.60282,"lng":-121.44588,"zip":"94204","miles_from_dt":26.2},{"city":"Elk Grove","state_name":"California","lat":38.40435,"lng":-121.37531,"zip":"95759","miles_from_dt":26.36},{"city":"Sacramento","state_name":"California","lat":38.53491,"lng":-121.4442,"zip":"95820","miles_from_dt":26.57},{"city":"Applegate","state_name":"California","lat":38.99156,"lng":-120.9864,"zip":"95703","miles_from_dt":26.67},{"city":"Sacramento","state_name":"California","lat":38.51746,"lng":-121.44147,"zip":"95824","miles_from_dt":26.68},{"city":"Glencoe","state_name":"California","lat":38.36051,"lng":-120.57722,"zip":"95232","miles_from_dt":26.83},{"city":"Sacramento","state_name":"California","lat":38.55057,"lng":-121.45713,"zip":"95817","miles_from_dt":27.09},{"city":"Sacramento","state_name":"California","lat":38.57555,"lng":-121.46543,"zip":"95816","miles_from_dt":27.34},{"city":"Sacramento","state_name":"California","lat":38.57302,"lng":-121.46736,"zip":"94249","miles_from_dt":27.46},{"city":"Sacramento","state_name":"California","lat":38.49482,"lng":-121.44957,"zip":"94206","miles_from_dt":27.5},{"city":"Sacramento","state_name":"California","lat":38.47658,"lng":-121.44271,"zip":"94205","miles_from_dt":27.53},{"city":"Sacramento","state_name":"California","lat":38.57426,"lng":-121.46893,"zip":"94278","miles_from_dt":27.54},{"city":"Sacramento","state_name":"California","lat":38.47473,"lng":-121.44266,"zip":"95823","miles_from_dt":27.57},{"city":"Sacramento","state_name":"California","lat":38.47736,"lng":-121.44416,"zip":"94283","miles_from_dt":27.58},{"city":"Sacramento","state_name":"California","lat":38.56443,"lng":-121.46914,"zip":"94299","miles_from_dt":27.61},{"city":"Sacramento","state_name":"California","lat":38.47447,"lng":-121.44401,"zip":"94230","miles_from_dt":27.64},{"city":"Wallace","state_name":"California","lat":38.20323,"lng":-120.95857,"zip":"95254","miles_from_dt":27.74},{"city":"Auburn","state_name":"California","lat":38.99039,"lng":-121.10991,"zip":"95602","miles_from_dt":27.74},{"city":"Meadow Vista","state_name":"California","lat":39.00467,"lng":-121.02891,"zip":"95722","miles_from_dt":27.78},{"city":"Clements","state_name":"California","lat":38.20678,"lng":-121.04615,"zip":"95227","miles_from_dt":27.87},{"city":"Galt","state_name":"California","lat":38.27705,"lng":-121.26128,"zip":"95632","miles_from_dt":27.87},{"city":"Rio Linda","state_name":"California","lat":38.69029,"lng":-121.46603,"zip":"95673","miles_from_dt":27.9},{"city":"Mokelumne Hill","state_name":"California","lat":38.30189,"lng":-120.61975,"zip":"95245","miles_from_dt":27.97},{"city":"Burson","state_name":"California","lat":38.20399,"lng":-120.86488,"zip":"95225","miles_from_dt":28.18},{"city":"Sacramento","state_name":"California","lat":38.58169,"lng":-121.48869,"zip":"94207","miles_from_dt":28.57},{"city":"Sacramento","state_name":"California","lat":38.58521,"lng":-121.48958,"zip":"94277","miles_from_dt":28.61},{"city":"Sacramento","state_name":"California","lat":38.58371,"lng":-121.49023,"zip":"95840","miles_from_dt":28.65},{"city":"Sacramento","state_name":"California","lat":38.58761,"lng":-121.49077,"zip":"95811","miles_from_dt":28.66},{"city":"Sacramento","state_name":"California","lat":38.5828,"lng":-121.49057,"zip":"94267","miles_from_dt":28.67},{"city":"Sacramento","state_name":"California","lat":38.58708,"lng":-121.49081,"zip":"94289","miles_from_dt":28.67},{"city":"Sacramento","state_name":"California","lat":38.5832,"lng":-121.49086,"zip":"94236","miles_from_dt":28.68},{"city":"Sacramento","state_name":"California","lat":38.58719,"lng":-121.49154,"zip":"94245","miles_from_dt":28.71},{"city":"Sacramento","state_name":"California","lat":38.58321,"lng":-121.49129,"zip":"94271","miles_from_dt":28.71},{"city":"Sacramento","state_name":"California","lat":38.58162,"lng":-121.4915,"zip":"94250","miles_from_dt":28.72},{"city":"Sacramento","state_name":"California","lat":38.58508,"lng":-121.49166,"zip":"94263","miles_from_dt":28.72},{"city":"Sacramento","state_name":"California","lat":38.58246,"lng":-121.49182,"zip":"94268","miles_from_dt":28.74},{"city":"Sacramento","state_name":"California","lat":38.58508,"lng":-121.49197,"zip":"94254","miles_from_dt":28.74},{"city":"Sacramento","state_name":"California","lat":38.58381,"lng":-121.49215,"zip":"94262","miles_from_dt":28.75},{"city":"Sacramento","state_name":"California","lat":38.58646,"lng":-121.49303,"zip":"94248","miles_from_dt":28.79},{"city":"Sacramento","state_name":"California","lat":38.58712,"lng":-121.49327,"zip":"94257","miles_from_dt":28.8},{"city":"Sacramento","state_name":"California","lat":38.58219,"lng":-121.49289,"zip":"94288","miles_from_dt":28.8},{"city":"Sacramento","state_name":"California","lat":38.58407,"lng":-121.49328,"zip":"94295","miles_from_dt":28.81},{"city":"Sacramento","state_name":"California","lat":38.58547,"lng":-121.49331,"zip":"94237","miles_from_dt":28.81},{"city":"Sacramento","state_name":"California","lat":38.58354,"lng":-121.49338,"zip":"94209","miles_from_dt":28.82},{"city":"Sacramento","state_name":"California","lat":38.5858,"lng":-121.49353,"zip":"94287","miles_from_dt":28.82},{"city":"Sacramento","state_name":"California","lat":38.588,"lng":-121.49379,"zip":"94244","miles_from_dt":28.82},{"city":"Sacramento","state_name":"California","lat":38.58499,"lng":-121.49367,"zip":"94261","miles_from_dt":28.83},{"city":"Sacramento","state_name":"California","lat":38.58486,"lng":-121.49372,"zip":"95867","miles_from_dt":28.83},{"city":"Sacramento","state_name":"California","lat":38.58435,"lng":-121.49376,"zip":"94203","miles_from_dt":28.84},{"city":"Sacramento","state_name":"California","lat":38.58645,"lng":-121.49408,"zip":"94274","miles_from_dt":28.85},{"city":"Sacramento","state_name":"California","lat":38.58712,"lng":-121.49448,"zip":"94273","miles_from_dt":28.87},{"city":"Sacramento","state_name":"California","lat":38.58358,"lng":-121.4943,"zip":"94256","miles_from_dt":28.87},{"city":"Sacramento","state_name":"California","lat":38.58402,"lng":-121.49442,"zip":"94298","miles_from_dt":28.87},{"city":"Sacramento","state_name":"California","lat":38.58606,"lng":-121.49445,"zip":"94234","miles_from_dt":28.87},{"city":"Sacramento","state_name":"California","lat":38.58452,"lng":-121.49449,"zip":"94282","miles_from_dt":28.87},{"city":"Sacramento","state_name":"California","lat":38.58568,"lng":-121.49456,"zip":"94279","miles_from_dt":28.87},{"city":"Sacramento","state_name":"California","lat":38.58232,"lng":-121.49447,"zip":"94280","miles_from_dt":28.88},{"city":"Sacramento","state_name":"California","lat":38.58529,"lng":-121.49479,"zip":"94240","miles_from_dt":28.89},{"city":"Sacramento","state_name":"California","lat":38.58528,"lng":-121.49496,"zip":"94258","miles_from_dt":28.9},{"city":"Sacramento","state_name":"California","lat":38.58643,"lng":-121.49504,"zip":"94247","miles_from_dt":28.9},{"city":"Sacramento","state_name":"California","lat":38.58712,"lng":-121.49513,"zip":"94229","miles_from_dt":28.9},{"city":"Sacramento","state_name":"California","lat":38.58481,"lng":-121.49489,"zip":"94208","miles_from_dt":28.9},{"city":"Sacramento","state_name":"California","lat":38.5862,"lng":-121.49532,"zip":"94252","miles_from_dt":28.91},{"city":"Sacramento","state_name":"California","lat":38.58064,"lng":-121.49488,"zip":"95814","miles_from_dt":28.91},{"city":"Elk Grove","state_name":"California","lat":38.42932,"lng":-121.44603,"zip":"95758","miles_from_dt":28.92},{"city":"Sacramento","state_name":"California","lat":38.58628,"lng":-121.49546,"zip":"94211","miles_from_dt":28.92},{"city":"Sacramento","state_name":"California","lat":38.58447,"lng":-121.49525,"zip":"94235","miles_from_dt":28.92},{"city":"Sacramento","state_name":"California","lat":38.58193,"lng":-121.49635,"zip":"95812","miles_from_dt":28.98},{"city":"Sacramento","state_name":"California","lat":38.55645,"lng":-121.49421,"zip":"94294","miles_from_dt":29.03},{"city":"Lincoln","state_name":"California","lat":38.92643,"lng":-121.31101,"zip":"95648","miles_from_dt":29.09},{"city":"Sacramento","state_name":"California","lat":38.55478,"lng":-121.49562,"zip":"94293","miles_from_dt":29.12},{"city":"Sacramento","state_name":"California","lat":38.55497,"lng":-121.49628,"zip":"94232","miles_from_dt":29.15},{"city":"Sacramento","state_name":"California","lat":38.55651,"lng":-121.49648,"zip":"94239","miles_from_dt":29.15},{"city":"Sacramento","state_name":"California","lat":38.55579,"lng":-121.49669,"zip":"95818","miles_from_dt":29.16},{"city":"Sacramento","state_name":"California","lat":38.55548,"lng":-121.49654,"zip":"94269","miles_from_dt":29.16},{"city":"Sacramento","state_name":"California","lat":38.55905,"lng":-121.49722,"zip":"94291","miles_from_dt":29.17},{"city":"Sacramento","state_name":"California","lat":38.55871,"lng":-121.49752,"zip":"94259","miles_from_dt":29.19},{"city":"Sacramento","state_name":"California","lat":38.553,"lng":-121.49737,"zip":"94297","miles_from_dt":29.22},{"city":"Sacramento","state_name":"California","lat":38.55668,"lng":-121.49807,"zip":"95894","miles_from_dt":29.23},{"city":"West Point","state_name":"California","lat":38.42055,"lng":-120.47506,"zip":"95255","miles_from_dt":29.29},{"city":"Sacramento","state_name":"California","lat":38.55543,"lng":-121.49926,"zip":"94290","miles_from_dt":29.31},{"city":"Sacramento","state_name":"California","lat":38.57092,"lng":-121.50291,"zip":"94296","miles_from_dt":29.39},{"city":"Sacramento","state_name":"California","lat":38.55232,"lng":-121.50072,"zip":"94285","miles_from_dt":29.41},{"city":"Sacramento","state_name":"California","lat":38.5532,"lng":-121.50148,"zip":"94284","miles_from_dt":29.44},{"city":"Sacramento","state_name":"California","lat":38.51273,"lng":-121.49556,"zip":"95822","miles_from_dt":29.61},{"city":"Elverta","state_name":"California","lat":38.73378,"lng":-121.48898,"zip":"95626","miles_from_dt":29.85},{"city":"Weimar","state_name":"California","lat":39.03905,"lng":-120.97738,"zip":"95736","miles_from_dt":29.93},{"city":"Sacramento","state_name":"California","lat":38.61529,"lng":-121.51558,"zip":"95833","miles_from_dt":29.98}],"targetCityZipCode":"95682","targetCityState":"California"},"__N_SSG":true}