{"pageProps":{"stateName":"California","cityName":"stinson-beach","nearbyCities":[{"city":"Mill Valley","state_name":"California","lat":37.92562,"lng":-122.60083,"zip":"94941","miles_from_dt":3.05},{"city":"Fairfax","state_name":"California","lat":37.97048,"lng":-122.61108,"zip":"94930","miles_from_dt":4.42},{"city":"Bolinas","state_name":"California","lat":37.95411,"lng":-122.73171,"zip":"94924","miles_from_dt":4.89},{"city":"Greenbrae","state_name":"California","lat":37.94841,"lng":-122.55288,"zip":"94904","miles_from_dt":6.01},{"city":"Ross","state_name":"California","lat":37.96343,"lng":-122.56174,"zip":"94957","miles_from_dt":6.04},{"city":"Fairfax","state_name":"California","lat":37.9849,"lng":-122.58005,"zip":"94978","miles_from_dt":6.24},{"city":"San Geronimo","state_name":"California","lat":38.00765,"lng":-122.66484,"zip":"94963","miles_from_dt":6.28},{"city":"San Anselmo","state_name":"California","lat":37.97198,"lng":-122.56204,"zip":"94979","miles_from_dt":6.36},{"city":"Woodacre","state_name":"California","lat":38.01259,"lng":-122.63947,"zip":"94973","miles_from_dt":6.65},{"city":"Larkspur","state_name":"California","lat":37.93725,"lng":-122.53518,"zip":"94939","miles_from_dt":6.72},{"city":"Larkspur","state_name":"California","lat":37.93802,"lng":-122.53526,"zip":"94977","miles_from_dt":6.73},{"city":"Kentfield","state_name":"California","lat":37.94739,"lng":-122.53706,"zip":"94914","miles_from_dt":6.8},{"city":"San Quentin","state_name":"California","lat":37.95646,"lng":-122.53935,"zip":"94974","miles_from_dt":6.91},{"city":"San Anselmo","state_name":"California","lat":37.99707,"lng":-122.57838,"zip":"94960","miles_from_dt":6.95},{"city":"Forest Knolls","state_name":"California","lat":38.01753,"lng":-122.68814,"zip":"94933","miles_from_dt":7.16},{"city":"Corte Madera","state_name":"California","lat":37.92743,"lng":-122.52455,"zip":"94976","miles_from_dt":7.19},{"city":"Mill Valley","state_name":"California","lat":37.90457,"lng":-122.5229,"zip":"94942","miles_from_dt":7.3},{"city":"Corte Madera","state_name":"California","lat":37.92386,"lng":-122.5132,"zip":"94925","miles_from_dt":7.79},{"city":"Sausalito","state_name":"California","lat":37.85263,"lng":-122.52699,"zip":"94965","miles_from_dt":8.31},{"city":"San Rafael","state_name":"California","lat":37.9599,"lng":-122.50402,"zip":"94915","miles_from_dt":8.79},{"city":"Lagunitas","state_name":"California","lat":38.03024,"lng":-122.72953,"zip":"94938","miles_from_dt":8.8},{"city":"San Quentin","state_name":"California","lat":37.94235,"lng":-122.49244,"zip":"94964","miles_from_dt":9.08},{"city":"San Rafael","state_name":"California","lat":37.97771,"lng":-122.50646,"zip":"94912","miles_from_dt":9.16},{"city":"Olema","state_name":"California","lat":38.02122,"lng":-122.76187,"zip":"94950","miles_from_dt":9.24},{"city":"San Rafael","state_name":"California","lat":38.02485,"lng":-122.5522,"zip":"94903","miles_from_dt":9.34},{"city":"Sausalito","state_name":"California","lat":37.86586,"lng":-122.49689,"zip":"94966","miles_from_dt":9.36},{"city":"San Rafael","state_name":"California","lat":37.98053,"lng":-122.50249,"zip":"94901","miles_from_dt":9.44},{"city":"San Rafael","state_name":"California","lat":38.02578,"lng":-122.54487,"zip":"94913","miles_from_dt":9.64},{"city":"Belvedere Tiburon","state_name":"California","lat":37.88732,"lng":-122.46549,"zip":"94920","miles_from_dt":10.58},{"city":"Nicasio","state_name":"California","lat":38.07176,"lng":-122.68785,"zip":"94946","miles_from_dt":10.82},{"city":"Novato","state_name":"California","lat":38.06576,"lng":-122.53172,"zip":"94949","miles_from_dt":12.29},{"city":"Point Reyes Station","state_name":"California","lat":38.0476,"lng":-122.81046,"zip":"94956","miles_from_dt":12.36},{"city":"San Francisco","state_name":"California","lat":37.77849,"lng":-122.49548,"zip":"94121","miles_from_dt":12.95},{"city":"Novato","state_name":"California","lat":38.10705,"lng":-122.62813,"zip":"94947","miles_from_dt":13.2},{"city":"San Francisco","state_name":"California","lat":37.79743,"lng":-122.46662,"zip":"94129","miles_from_dt":13.22},{"city":"Novato","state_name":"California","lat":38.09973,"lng":-122.57145,"zip":"94998","miles_from_dt":13.42},{"city":"San Francisco","state_name":"California","lat":37.78335,"lng":-122.45978,"zip":"94144","miles_from_dt":14.12},{"city":"San Francisco","state_name":"California","lat":37.7801,"lng":-122.46185,"zip":"94118","miles_from_dt":14.19},{"city":"San Francisco","state_name":"California","lat":37.78593,"lng":-122.45519,"zip":"94119","miles_from_dt":14.2},{"city":"San Francisco","state_name":"California","lat":37.76113,"lng":-122.48433,"zip":"94122","miles_from_dt":14.25},{"city":"San Francisco","state_name":"California","lat":37.76044,"lng":-122.48316,"zip":"94172","miles_from_dt":14.33},{"city":"San Francisco","state_name":"California","lat":37.78402,"lng":-122.4533,"zip":"94159","miles_from_dt":14.36},{"city":"San Francisco","state_name":"California","lat":37.80112,"lng":-122.43645,"zip":"94123","miles_from_dt":14.4},{"city":"San Francisco","state_name":"California","lat":37.80083,"lng":-122.43482,"zip":"94147","miles_from_dt":14.48},{"city":"San Francisco","state_name":"California","lat":37.78608,"lng":-122.43742,"zip":"94115","miles_from_dt":14.96},{"city":"San Francisco","state_name":"California","lat":37.74457,"lng":-122.48611,"zip":"94116","miles_from_dt":15.07},{"city":"Richmond","state_name":"California","lat":37.9471,"lng":-122.38153,"zip":"94850","miles_from_dt":15.11},{"city":"San Francisco","state_name":"California","lat":37.76379,"lng":-122.45739,"zip":"94143","miles_from_dt":15.13},{"city":"Richmond","state_name":"California","lat":37.95217,"lng":-122.38025,"zip":"94801","miles_from_dt":15.23},{"city":"San Francisco","state_name":"California","lat":37.77002,"lng":-122.44425,"zip":"94117","miles_from_dt":15.37},{"city":"San Francisco","state_name":"California","lat":37.79334,"lng":-122.42138,"zip":"94109","miles_from_dt":15.38},{"city":"Novato","state_name":"California","lat":38.1258,"lng":-122.55443,"zip":"94945","miles_from_dt":15.43},{"city":"San Francisco","state_name":"California","lat":37.80193,"lng":-122.41092,"zip":"94133","miles_from_dt":15.55},{"city":"San Francisco","state_name":"California","lat":37.78731,"lng":-122.42206,"zip":"94164","miles_from_dt":15.59},{"city":"Novato","state_name":"California","lat":38.13578,"lng":-122.56224,"zip":"94948","miles_from_dt":15.93},{"city":"San Francisco","state_name":"California","lat":37.79487,"lng":-122.40619,"zip":"94139","miles_from_dt":16.02},{"city":"San Francisco","state_name":"California","lat":37.77956,"lng":-122.41931,"zip":"94102","miles_from_dt":16.02},{"city":"San Francisco","state_name":"California","lat":37.79189,"lng":-122.40854,"zip":"94108","miles_from_dt":16.03},{"city":"San Francisco","state_name":"California","lat":37.78441,"lng":-122.41223,"zip":"94142","miles_from_dt":16.14},{"city":"San Francisco","state_name":"California","lat":37.79315,"lng":-122.40432,"zip":"94137","miles_from_dt":16.17},{"city":"San Francisco","state_name":"California","lat":37.79853,"lng":-122.39989,"zip":"94161","miles_from_dt":16.19},{"city":"San Francisco","state_name":"California","lat":37.79847,"lng":-122.3998,"zip":"94111","miles_from_dt":16.2},{"city":"San Francisco","state_name":"California","lat":37.79377,"lng":-122.40216,"zip":"94120","miles_from_dt":16.25},{"city":"San Francisco","state_name":"California","lat":37.76015,"lng":-122.43328,"zip":"94146","miles_from_dt":16.27},{"city":"San Francisco","state_name":"California","lat":37.75814,"lng":-122.43547,"zip":"94114","miles_from_dt":16.27},{"city":"San Francisco","state_name":"California","lat":37.79425,"lng":-122.40038,"zip":"94145","miles_from_dt":16.32},{"city":"San Francisco","state_name":"California","lat":37.79144,"lng":-122.40211,"zip":"94104","miles_from_dt":16.34},{"city":"San Francisco","state_name":"California","lat":37.79349,"lng":-122.40018,"zip":"94151","miles_from_dt":16.35},{"city":"San Francisco","state_name":"California","lat":37.72219,"lng":-122.48475,"zip":"94132","miles_from_dt":16.36},{"city":"Richmond","state_name":"California","lat":37.93711,"lng":-122.35658,"zip":"94802","miles_from_dt":16.39},{"city":"San Francisco","state_name":"California","lat":37.73642,"lng":-122.45961,"zip":"94127","miles_from_dt":16.43},{"city":"San Francisco","state_name":"California","lat":37.79142,"lng":-122.39941,"zip":"94163","miles_from_dt":16.47},{"city":"San Francisco","state_name":"California","lat":37.79193,"lng":-122.39841,"zip":"94177","miles_from_dt":16.49},{"city":"Richmond","state_name":"California","lat":37.92715,"lng":-122.35385,"zip":"94807","miles_from_dt":16.5},{"city":"San Francisco","state_name":"California","lat":37.79239,"lng":-122.39707,"zip":"94105","miles_from_dt":16.54},{"city":"San Francisco","state_name":"California","lat":37.74569,"lng":-122.44243,"zip":"94131","miles_from_dt":16.59},{"city":"San Francisco","state_name":"California","lat":37.77299,"lng":-122.41136,"zip":"94103","miles_from_dt":16.64},{"city":"San Francisco","state_name":"California","lat":37.79185,"lng":-122.39038,"zip":"94126","miles_from_dt":16.87},{"city":"San Francisco","state_name":"California","lat":37.76684,"lng":-122.40891,"zip":"94141","miles_from_dt":17},{"city":"San Francisco","state_name":"California","lat":37.81975,"lng":-122.36898,"zip":"94130","miles_from_dt":17.04},{"city":"Richmond","state_name":"California","lat":37.92074,"lng":-122.34204,"zip":"94804","miles_from_dt":17.13},{"city":"Richmond","state_name":"California","lat":37.936,"lng":-122.34143,"zip":"94808","miles_from_dt":17.21},{"city":"San Francisco","state_name":"California","lat":37.7578,"lng":-122.4127,"zip":"94140","miles_from_dt":17.23},{"city":"San Francisco","state_name":"California","lat":37.74975,"lng":-122.41528,"zip":"94110","miles_from_dt":17.48},{"city":"San Francisco","state_name":"California","lat":37.77116,"lng":-122.39153,"zip":"94158","miles_from_dt":17.59},{"city":"San Francisco","state_name":"California","lat":37.76473,"lng":-122.39508,"zip":"94107","miles_from_dt":17.7},{"city":"San Francisco","state_name":"California","lat":37.7206,"lng":-122.44311,"zip":"94112","miles_from_dt":17.84},{"city":"San Pablo","state_name":"California","lat":37.97811,"lng":-122.33618,"zip":"94806","miles_from_dt":17.94},{"city":"Daly City","state_name":"California","lat":37.70733,"lng":-122.45493,"zip":"94016","miles_from_dt":18.15},{"city":"Richmond","state_name":"California","lat":37.94215,"lng":-122.32364,"zip":"94805","miles_from_dt":18.21},{"city":"Daly City","state_name":"California","lat":37.68878,"lng":-122.46892,"zip":"94017","miles_from_dt":18.76},{"city":"Daly City","state_name":"California","lat":37.68121,"lng":-122.48074,"zip":"94015","miles_from_dt":18.86},{"city":"San Francisco","state_name":"California","lat":37.71887,"lng":-122.41124,"zip":"94134","miles_from_dt":19.11},{"city":"Inverness","state_name":"California","lat":38.09466,"lng":-122.92719,"zip":"94937","miles_from_dt":19.24},{"city":"Daly City","state_name":"California","lat":37.6907,"lng":-122.44769,"zip":"94014","miles_from_dt":19.31},{"city":"San Francisco","state_name":"California","lat":37.7407,"lng":-122.38091,"zip":"94188","miles_from_dt":19.32},{"city":"El Cerrito","state_name":"California","lat":37.92076,"lng":-122.30068,"zip":"94530","miles_from_dt":19.39},{"city":"San Francisco","state_name":"California","lat":37.71802,"lng":-122.40439,"zip":"94160","miles_from_dt":19.42},{"city":"San Francisco","state_name":"California","lat":37.73204,"lng":-122.3858,"zip":"94124","miles_from_dt":19.5},{"city":"San Francisco","state_name":"California","lat":37.73138,"lng":-122.38496,"zip":"94125","miles_from_dt":19.57},{"city":"Berkeley","state_name":"California","lat":37.86705,"lng":-122.303,"zip":"94710","miles_from_dt":19.57},{"city":"Albany","state_name":"California","lat":37.88969,"lng":-122.29581,"zip":"94706","miles_from_dt":19.75},{"city":"Marshall","state_name":"California","lat":38.15754,"lng":-122.86376,"zip":"94940","miles_from_dt":20.11},{"city":"El Sobrante","state_name":"California","lat":37.97827,"lng":-122.29528,"zip":"94820","miles_from_dt":20.12},{"city":"Emeryville","state_name":"California","lat":37.84048,"lng":-122.29376,"zip":"94662","miles_from_dt":20.47},{"city":"Berkeley","state_name":"California","lat":37.86619,"lng":-122.28634,"zip":"94702","miles_from_dt":20.48},{"city":"El Sobrante","state_name":"California","lat":37.95683,"lng":-122.28235,"zip":"94803","miles_from_dt":20.57},{"city":"Berkeley","state_name":"California","lat":37.89843,"lng":-122.27917,"zip":"94707","miles_from_dt":20.61},{"city":"Brisbane","state_name":"California","lat":37.6882,"lng":-122.40873,"zip":"94005","miles_from_dt":20.77},{"city":"Oakland","state_name":"California","lat":37.80721,"lng":-122.30024,"zip":"94607","miles_from_dt":20.85},{"city":"Oakland","state_name":"California","lat":37.80823,"lng":-122.29898,"zip":"94615","miles_from_dt":20.89},{"city":"Oakland","state_name":"California","lat":37.81067,"lng":-122.29747,"zip":"94623","miles_from_dt":20.9},{"city":"Emeryville","state_name":"California","lat":37.83611,"lng":-122.28621,"zip":"94608","miles_from_dt":20.95},{"city":"Berkeley","state_name":"California","lat":37.86397,"lng":-122.27573,"zip":"94703","miles_from_dt":21.08},{"city":"Berkeley","state_name":"California","lat":37.86991,"lng":-122.27067,"zip":"94701","miles_from_dt":21.28},{"city":"Berkeley","state_name":"California","lat":37.869,"lng":-122.2679,"zip":"94712","miles_from_dt":21.44},{"city":"Berkeley","state_name":"California","lat":37.87835,"lng":-122.26613,"zip":"94709","miles_from_dt":21.45},{"city":"Berkeley","state_name":"California","lat":37.90276,"lng":-122.26202,"zip":"94708","miles_from_dt":21.52},{"city":"Pinole","state_name":"California","lat":37.98896,"lng":-122.27018,"zip":"94564","miles_from_dt":21.62},{"city":"Petaluma","state_name":"California","lat":38.22237,"lng":-122.55618,"zip":"94955","miles_from_dt":21.75},{"city":"Berkeley","state_name":"California","lat":37.8664,"lng":-122.26088,"zip":"94704","miles_from_dt":21.85},{"city":"Oakland","state_name":"California","lat":37.83476,"lng":-122.2642,"zip":"94609","miles_from_dt":22.13},{"city":"South San Francisco","state_name":"California","lat":37.65541,"lng":-122.42083,"zip":"94080","miles_from_dt":22.14},{"city":"Berkeley","state_name":"California","lat":37.87185,"lng":-122.25226,"zip":"94720","miles_from_dt":22.26},{"city":"Oakland","state_name":"California","lat":37.80998,"lng":-122.2692,"zip":"94659","miles_from_dt":22.37},{"city":"Petaluma","state_name":"California","lat":38.23007,"lng":-122.76338,"zip":"94952","miles_from_dt":22.38},{"city":"Hercules","state_name":"California","lat":38.00637,"lng":-122.26117,"zip":"94547","miles_from_dt":22.4},{"city":"Oakland","state_name":"California","lat":37.80982,"lng":-122.26553,"zip":"94666","miles_from_dt":22.57},{"city":"Oakland","state_name":"California","lat":37.80789,"lng":-122.2662,"zip":"94612","miles_from_dt":22.58},{"city":"Oakland","state_name":"California","lat":37.79591,"lng":-122.26977,"zip":"94660","miles_from_dt":22.69},{"city":"Oakland","state_name":"California","lat":37.80694,"lng":-122.26383,"zip":"94649","miles_from_dt":22.72},{"city":"Oakland","state_name":"California","lat":37.80126,"lng":-122.26575,"zip":"94604","miles_from_dt":22.76},{"city":"Alameda","state_name":"California","lat":37.77525,"lng":-122.27493,"zip":"94501","miles_from_dt":22.99},{"city":"Berkeley","state_name":"California","lat":37.86523,"lng":-122.2384,"zip":"94705","miles_from_dt":23.08},{"city":"South San Francisco","state_name":"California","lat":37.64364,"lng":-122.41198,"zip":"94083","miles_from_dt":23.09},{"city":"Petaluma","state_name":"California","lat":38.24624,"lng":-122.56627,"zip":"94954","miles_from_dt":23.23},{"city":"Oakland","state_name":"California","lat":37.8442,"lng":-122.23868,"zip":"94618","miles_from_dt":23.33},{"city":"Vallejo","state_name":"California","lat":38.12009,"lng":-122.3117,"zip":"94592","miles_from_dt":23.42},{"city":"San Bruno","state_name":"California","lat":37.62539,"lng":-122.43229,"zip":"94066","miles_from_dt":23.53},{"city":"Pacifica","state_name":"California","lat":37.60544,"lng":-122.47993,"zip":"94044","miles_from_dt":23.54},{"city":"Petaluma","state_name":"California","lat":38.26152,"lng":-122.63908,"zip":"94953","miles_from_dt":23.78},{"city":"Oakland","state_name":"California","lat":37.81229,"lng":-122.24048,"zip":"94610","miles_from_dt":23.81},{"city":"Oakland","state_name":"California","lat":37.79179,"lng":-122.24455,"zip":"94606","miles_from_dt":24.07},{"city":"Rodeo","state_name":"California","lat":38.02392,"lng":-122.23285,"zip":"94572","miles_from_dt":24.23},{"city":"Oakland","state_name":"California","lat":37.83191,"lng":-122.21592,"zip":"94611","miles_from_dt":24.74},{"city":"Crockett","state_name":"California","lat":38.04811,"lng":-122.2292,"zip":"94525","miles_from_dt":24.97},{"city":"Oakland","state_name":"California","lat":37.82978,"lng":-122.20989,"zip":"94661","miles_from_dt":25.09},{"city":"San Francisco","state_name":"California","lat":37.62197,"lng":-122.38388,"zip":"94128","miles_from_dt":25.2},{"city":"Vallejo","state_name":"California","lat":38.09546,"lng":-122.24986,"zip":"94590","miles_from_dt":25.33},{"city":"Orinda","state_name":"California","lat":37.88196,"lng":-122.19419,"zip":"94563","miles_from_dt":25.33},{"city":"Tomales","state_name":"California","lat":38.23724,"lng":-122.89006,"zip":"94971","miles_from_dt":25.52},{"city":"Vineburg","state_name":"California","lat":38.25197,"lng":-122.45398,"zip":"95487","miles_from_dt":25.59},{"city":"Sonoma","state_name":"California","lat":38.25531,"lng":-122.46055,"zip":"95476","miles_from_dt":25.64},{"city":"Oakland","state_name":"California","lat":37.77684,"lng":-122.21822,"zip":"94601","miles_from_dt":25.79},{"city":"Alameda","state_name":"California","lat":37.73686,"lng":-122.24114,"zip":"94502","miles_from_dt":25.85},{"city":"Oakland","state_name":"California","lat":37.80517,"lng":-122.20422,"zip":"94602","miles_from_dt":25.85},{"city":"Millbrae","state_name":"California","lat":37.59969,"lng":-122.40343,"zip":"94030","miles_from_dt":25.87},{"city":"Piedmont","state_name":"California","lat":37.77757,"lng":-122.21475,"zip":"94620","miles_from_dt":25.95},{"city":"Montara","state_name":"California","lat":37.55327,"lng":-122.49584,"zip":"94037","miles_from_dt":26.56},{"city":"Port Costa","state_name":"California","lat":38.04411,"lng":-122.19201,"zip":"94569","miles_from_dt":26.78},{"city":"Vallejo","state_name":"California","lat":38.14162,"lng":-122.24596,"zip":"94589","miles_from_dt":27.19},{"city":"Oakland","state_name":"California","lat":37.7379,"lng":-122.20794,"zip":"94621","miles_from_dt":27.42},{"city":"Canyon","state_name":"California","lat":37.82748,"lng":-122.16629,"zip":"94516","miles_from_dt":27.45},{"city":"Oakland","state_name":"California","lat":37.78075,"lng":-122.18308,"zip":"94613","miles_from_dt":27.49},{"city":"Martinez","state_name":"California","lat":37.97999,"lng":-122.15368,"zip":"94553","miles_from_dt":27.75},{"city":"El Verano","state_name":"California","lat":38.29996,"lng":-122.48927,"zip":"95433","miles_from_dt":27.93},{"city":"Petaluma","state_name":"California","lat":38.32234,"lng":-122.64657,"zip":"94975","miles_from_dt":27.97},{"city":"Penngrove","state_name":"California","lat":38.32252,"lng":-122.64492,"zip":"94951","miles_from_dt":27.98},{"city":"Oakland","state_name":"California","lat":37.72971,"lng":-122.20067,"zip":"94614","miles_from_dt":28.03},{"city":"Petaluma","state_name":"California","lat":38.32395,"lng":-122.64259,"zip":"94999","miles_from_dt":28.08},{"city":"Cotati","state_name":"California","lat":38.32229,"lng":-122.71497,"zip":"94931","miles_from_dt":28.14},{"city":"Burlingame","state_name":"California","lat":37.57306,"lng":-122.37828,"zip":"94010","miles_from_dt":28.16},{"city":"Moss Beach","state_name":"California","lat":37.52946,"lng":-122.4849,"zip":"94038","miles_from_dt":28.31},{"city":"Oakland","state_name":"California","lat":37.79262,"lng":-122.16001,"zip":"94619","miles_from_dt":28.42},{"city":"Rohnert Park","state_name":"California","lat":38.32648,"lng":-122.71231,"zip":"94926","miles_from_dt":28.42},{"city":"Dillon Beach","state_name":"California","lat":38.25444,"lng":-122.96243,"zip":"94929","miles_from_dt":28.67},{"city":"Boyes Hot Springs","state_name":"California","lat":38.31241,"lng":-122.48286,"zip":"95416","miles_from_dt":28.85},{"city":"Burlingame","state_name":"California","lat":37.5795,"lng":-122.34432,"zip":"94011","miles_from_dt":28.85},{"city":"Oakland","state_name":"California","lat":37.7473,"lng":-122.17236,"zip":"94624","miles_from_dt":28.9},{"city":"Vallejo","state_name":"California","lat":38.12702,"lng":-122.19635,"zip":"94591","miles_from_dt":28.94},{"city":"Oakland","state_name":"California","lat":37.73923,"lng":-122.17554,"zip":"94603","miles_from_dt":28.98},{"city":"Moraga","state_name":"California","lat":37.85928,"lng":-122.1252,"zip":"94570","miles_from_dt":29.26},{"city":"Lafayette","state_name":"California","lat":37.90133,"lng":-122.11933,"zip":"94549","miles_from_dt":29.32},{"city":"Rohnert Park","state_name":"California","lat":38.3459,"lng":-122.6935,"zip":"94928","miles_from_dt":29.66},{"city":"Oakland","state_name":"California","lat":37.76062,"lng":-122.14903,"zip":"94605","miles_from_dt":29.73},{"city":"Rohnert Park","state_name":"California","lat":38.34744,"lng":-122.69837,"zip":"94927","miles_from_dt":29.78},{"city":"Oakland","state_name":"California","lat":37.75798,"lng":-122.14705,"zip":"94617","miles_from_dt":29.89},{"city":"San Mateo","state_name":"California","lat":37.57445,"lng":-122.31942,"zip":"94401","miles_from_dt":29.95}],"targetCityZipCode":"94970","targetCityState":"California"},"__N_SSG":true}