{"pageProps":{"stateName":"California","cityName":"tupman","nearbyCities":[{"city":"Buttonwillow","state_name":"California","lat":35.44402,"lng":-119.47578,"zip":"93206","miles_from_dt":9.49},{"city":"Taft","state_name":"California","lat":35.16725,"lng":-119.40785,"zip":"93268","miles_from_dt":10.36},{"city":"Bakersfield","state_name":"California","lat":35.385,"lng":-119.23741,"zip":"93314","miles_from_dt":10.76},{"city":"Fellows","state_name":"California","lat":35.21687,"lng":-119.58087,"zip":"93224","miles_from_dt":11.93},{"city":"Shafter","state_name":"California","lat":35.48722,"lng":-119.27835,"zip":"93263","miles_from_dt":13.83},{"city":"McKittrick","state_name":"California","lat":35.37059,"lng":-119.69735,"zip":"93251","miles_from_dt":16.68},{"city":"Bakersfield","state_name":"California","lat":35.39186,"lng":-119.11954,"zip":"93312","miles_from_dt":17.14},{"city":"Bakersfield","state_name":"California","lat":35.15378,"lng":-119.16567,"zip":"93311","miles_from_dt":17.81},{"city":"Bakersfield","state_name":"California","lat":35.34266,"lng":-119.06461,"zip":"93309","miles_from_dt":19.54},{"city":"Bakersfield","state_name":"California","lat":35.35564,"lng":-119.063,"zip":"93389","miles_from_dt":19.73},{"city":"Bakersfield","state_name":"California","lat":35.26499,"lng":-119.03195,"zip":"93383","miles_from_dt":21.63},{"city":"Bakersfield","state_name":"California","lat":35.33938,"lng":-119.02368,"zip":"93304","miles_from_dt":21.83},{"city":"Bakersfield","state_name":"California","lat":35.37535,"lng":-119.02189,"zip":"93302","miles_from_dt":22.24},{"city":"Bakersfield","state_name":"California","lat":35.38428,"lng":-119.02057,"zip":"93301","miles_from_dt":22.43},{"city":"Bakersfield","state_name":"California","lat":35.3732,"lng":-119.01767,"zip":"93384","miles_from_dt":22.45},{"city":"Bakersfield","state_name":"California","lat":35.41886,"lng":-119.02293,"zip":"93388","miles_from_dt":22.9},{"city":"Bakersfield","state_name":"California","lat":35.16363,"lng":-119.04715,"zip":"93313","miles_from_dt":23.06},{"city":"Bakersfield","state_name":"California","lat":35.35641,"lng":-119.00229,"zip":"93390","miles_from_dt":23.14},{"city":"Wasco","state_name":"California","lat":35.65204,"lng":-119.44716,"zip":"93280","miles_from_dt":23.16},{"city":"Bakersfield","state_name":"California","lat":35.37911,"lng":-118.98965,"zip":"93385","miles_from_dt":24.07},{"city":"Bakersfield","state_name":"California","lat":35.38989,"lng":-118.98515,"zip":"93305","miles_from_dt":24.46},{"city":"Bakersfield","state_name":"California","lat":35.35151,"lng":-118.96243,"zip":"93387","miles_from_dt":25.35},{"city":"Bakersfield","state_name":"California","lat":35.37557,"lng":-118.95466,"zip":"93386","miles_from_dt":25.98},{"city":"McFarland","state_name":"California","lat":35.66456,"lng":-119.20278,"zip":"93250","miles_from_dt":26.6},{"city":"Bakersfield","state_name":"California","lat":35.2487,"lng":-118.93253,"zip":"93307","miles_from_dt":27.36},{"city":"Lamont","state_name":"California","lat":35.24922,"lng":-118.91224,"zip":"93241","miles_from_dt":28.48}],"targetCityZipCode":"93276","targetCityState":"California"},"__N_SSG":true}