{"pageProps":{"stateName":"California","cityName":"winters","nearbyCities":[{"city":"Madison","state_name":"California","lat":38.69151,"lng":-121.97723,"zip":"95653","miles_from_dt":9.09},{"city":"Vacaville","state_name":"California","lat":38.41901,"lng":-122.02571,"zip":"95688","miles_from_dt":9.89},{"city":"Davis","state_name":"California","lat":38.55819,"lng":-121.80044,"zip":"95616","miles_from_dt":11.14},{"city":"Esparto","state_name":"California","lat":38.72936,"lng":-122.00959,"zip":"95627","miles_from_dt":11.57},{"city":"Woodland","state_name":"California","lat":38.68847,"lng":-121.85666,"zip":"95695","miles_from_dt":11.91},{"city":"Napa","state_name":"California","lat":38.50846,"lng":-122.26497,"zip":"94558","miles_from_dt":14.5},{"city":"Elmira","state_name":"California","lat":38.35728,"lng":-121.90861,"zip":"95625","miles_from_dt":15.05},{"city":"Davis","state_name":"California","lat":38.5477,"lng":-121.72218,"zip":"95617","miles_from_dt":15.41},{"city":"Yolo","state_name":"California","lat":38.73284,"lng":-121.80701,"zip":"95697","miles_from_dt":15.98},{"city":"Vacaville","state_name":"California","lat":38.3344,"lng":-121.91765,"zip":"95687","miles_from_dt":16.39},{"city":"Brooks","state_name":"California","lat":38.75604,"lng":-122.19387,"zip":"95606","miles_from_dt":16.82},{"city":"Capay","state_name":"California","lat":38.7899,"lng":-122.12585,"zip":"95607","miles_from_dt":17.03},{"city":"Davis","state_name":"California","lat":38.54348,"lng":-121.6917,"zip":"95618","miles_from_dt":17.07},{"city":"Dixon","state_name":"California","lat":38.40599,"lng":-121.75689,"zip":"95620","miles_from_dt":17.26},{"city":"Vacaville","state_name":"California","lat":38.3175,"lng":-121.92079,"zip":"95696","miles_from_dt":17.46},{"city":"Woodland","state_name":"California","lat":38.68889,"lng":-121.70776,"zip":"95776","miles_from_dt":18.37},{"city":"Zamora","state_name":"California","lat":38.8187,"lng":-121.91012,"zip":"95698","miles_from_dt":18.48},{"city":"Fairfield","state_name":"California","lat":38.28132,"lng":-122.00693,"zip":"94533","miles_from_dt":19.33},{"city":"Travis Afb","state_name":"California","lat":38.27048,"lng":-121.93851,"zip":"94535","miles_from_dt":20.41},{"city":"Saint Helena","state_name":"California","lat":38.52742,"lng":-122.39261,"zip":"94574","miles_from_dt":21.07},{"city":"Dunnigan","state_name":"California","lat":38.88403,"lng":-121.99847,"zip":"95937","miles_from_dt":22.24},{"city":"Yountville","state_name":"California","lat":38.41012,"lng":-122.37365,"zip":"94599","miles_from_dt":22.5},{"city":"Fairfield","state_name":"California","lat":38.24112,"lng":-122.12142,"zip":"94534","miles_from_dt":22.98},{"city":"West Sacramento","state_name":"California","lat":38.62394,"lng":-121.58272,"zip":"95691","miles_from_dt":23.32},{"city":"Oakville","state_name":"California","lat":38.43071,"lng":-122.40874,"zip":"94562","miles_from_dt":23.62},{"city":"Rutherford","state_name":"California","lat":38.45726,"lng":-122.42348,"zip":"94573","miles_from_dt":23.74},{"city":"Angwin","state_name":"California","lat":38.57909,"lng":-122.44451,"zip":"94508","miles_from_dt":23.77},{"city":"Napa","state_name":"California","lat":38.29728,"lng":-122.28766,"zip":"94581","miles_from_dt":23.79},{"city":"Sacramento","state_name":"California","lat":38.68925,"lng":-121.59537,"zip":"95837","miles_from_dt":23.9},{"city":"West Sacramento","state_name":"California","lat":38.57492,"lng":-121.56186,"zip":"95798","miles_from_dt":24.07},{"city":"Pope Valley","state_name":"California","lat":38.66342,"lng":-122.4349,"zip":"94567","miles_from_dt":24.25},{"city":"West Sacramento","state_name":"California","lat":38.54078,"lng":-121.557,"zip":"95799","miles_from_dt":24.37},{"city":"Guinda","state_name":"California","lat":38.85283,"lng":-122.2729,"zip":"95637","miles_from_dt":24.73},{"city":"Knights Landing","state_name":"California","lat":38.89025,"lng":-121.79992,"zip":"95645","miles_from_dt":25.26},{"city":"West Sacramento","state_name":"California","lat":38.59289,"lng":-121.53929,"zip":"95605","miles_from_dt":25.37},{"city":"Deer Park","state_name":"California","lat":38.54932,"lng":-122.47581,"zip":"94576","miles_from_dt":25.46},{"city":"Suisun City","state_name":"California","lat":38.19061,"lng":-121.94216,"zip":"94585","miles_from_dt":25.83},{"city":"Sacramento","state_name":"California","lat":38.58071,"lng":-121.52656,"zip":"95899","miles_from_dt":26},{"city":"Clarksburg","state_name":"California","lat":38.38644,"lng":-121.58118,"zip":"95612","miles_from_dt":26.02},{"city":"Sacramento","state_name":"California","lat":38.49599,"lng":-121.52948,"zip":"95831","miles_from_dt":26.22},{"city":"Napa","state_name":"California","lat":38.25238,"lng":-122.29382,"zip":"94559","miles_from_dt":26.44},{"city":"Robbins","state_name":"California","lat":38.87224,"lng":-121.71664,"zip":"95676","miles_from_dt":26.53},{"city":"Sacramento","state_name":"California","lat":38.61529,"lng":-121.51558,"zip":"95833","miles_from_dt":26.81},{"city":"Sacramento","state_name":"California","lat":38.64207,"lng":-121.51967,"zip":"95834","miles_from_dt":26.91},{"city":"Sacramento","state_name":"California","lat":38.67088,"lng":-121.52464,"zip":"95835","miles_from_dt":27.12},{"city":"Sacramento","state_name":"California","lat":38.57092,"lng":-121.50291,"zip":"94296","miles_from_dt":27.26},{"city":"Sacramento","state_name":"California","lat":38.70406,"lng":-121.53555,"zip":"95836","miles_from_dt":27.29},{"city":"Sacramento","state_name":"California","lat":38.5532,"lng":-121.50148,"zip":"94284","miles_from_dt":27.34},{"city":"Sacramento","state_name":"California","lat":38.55232,"lng":-121.50072,"zip":"94285","miles_from_dt":27.38},{"city":"Sacramento","state_name":"California","lat":38.55543,"lng":-121.49926,"zip":"94290","miles_from_dt":27.45},{"city":"Sacramento","state_name":"California","lat":38.55668,"lng":-121.49807,"zip":"95894","miles_from_dt":27.52},{"city":"Sacramento","state_name":"California","lat":38.55871,"lng":-121.49752,"zip":"94259","miles_from_dt":27.54},{"city":"Sacramento","state_name":"California","lat":38.553,"lng":-121.49737,"zip":"94297","miles_from_dt":27.56},{"city":"Sacramento","state_name":"California","lat":38.55905,"lng":-121.49722,"zip":"94291","miles_from_dt":27.56},{"city":"Rumsey","state_name":"California","lat":38.90524,"lng":-122.26727,"zip":"95679","miles_from_dt":27.58},{"city":"Sacramento","state_name":"California","lat":38.55579,"lng":-121.49669,"zip":"95818","miles_from_dt":27.59},{"city":"Sacramento","state_name":"California","lat":38.55548,"lng":-121.49654,"zip":"94269","miles_from_dt":27.6},{"city":"Sacramento","state_name":"California","lat":38.55651,"lng":-121.49648,"zip":"94239","miles_from_dt":27.6},{"city":"Sacramento","state_name":"California","lat":38.55497,"lng":-121.49628,"zip":"94232","miles_from_dt":27.62},{"city":"Sacramento","state_name":"California","lat":38.58193,"lng":-121.49635,"zip":"95812","miles_from_dt":27.64},{"city":"Sacramento","state_name":"California","lat":38.55478,"lng":-121.49562,"zip":"94293","miles_from_dt":27.65},{"city":"Sacramento","state_name":"California","lat":38.58628,"lng":-121.49546,"zip":"94211","miles_from_dt":27.7},{"city":"Sacramento","state_name":"California","lat":38.5862,"lng":-121.49532,"zip":"94252","miles_from_dt":27.71},{"city":"Sacramento","state_name":"California","lat":38.58447,"lng":-121.49525,"zip":"94235","miles_from_dt":27.71},{"city":"Sacramento","state_name":"California","lat":38.58064,"lng":-121.49488,"zip":"95814","miles_from_dt":27.71},{"city":"Sacramento","state_name":"California","lat":38.58712,"lng":-121.49513,"zip":"94229","miles_from_dt":27.72},{"city":"Sacramento","state_name":"California","lat":38.58528,"lng":-121.49496,"zip":"94258","miles_from_dt":27.73},{"city":"Sacramento","state_name":"California","lat":38.58529,"lng":-121.49479,"zip":"94240","miles_from_dt":27.73},{"city":"Sacramento","state_name":"California","lat":38.55645,"lng":-121.49421,"zip":"94294","miles_from_dt":27.73},{"city":"Sacramento","state_name":"California","lat":38.58481,"lng":-121.49489,"zip":"94208","miles_from_dt":27.73},{"city":"Sacramento","state_name":"California","lat":38.58643,"lng":-121.49504,"zip":"94247","miles_from_dt":27.73},{"city":"Sacramento","state_name":"California","lat":38.58232,"lng":-121.49447,"zip":"94280","miles_from_dt":27.74},{"city":"Sacramento","state_name":"California","lat":38.58358,"lng":-121.4943,"zip":"94256","miles_from_dt":27.75},{"city":"Sacramento","state_name":"California","lat":38.58402,"lng":-121.49442,"zip":"94298","miles_from_dt":27.75},{"city":"Sacramento","state_name":"California","lat":38.58452,"lng":-121.49449,"zip":"94282","miles_from_dt":27.75},{"city":"Sacramento","state_name":"California","lat":38.58568,"lng":-121.49456,"zip":"94279","miles_from_dt":27.75},{"city":"Sacramento","state_name":"California","lat":38.58712,"lng":-121.49448,"zip":"94273","miles_from_dt":27.76},{"city":"Sacramento","state_name":"California","lat":38.58606,"lng":-121.49445,"zip":"94234","miles_from_dt":27.76},{"city":"Sacramento","state_name":"California","lat":38.58645,"lng":-121.49408,"zip":"94274","miles_from_dt":27.78},{"city":"Sacramento","state_name":"California","lat":38.58435,"lng":-121.49376,"zip":"94203","miles_from_dt":27.79},{"city":"Sacramento","state_name":"California","lat":38.58499,"lng":-121.49367,"zip":"94261","miles_from_dt":27.79},{"city":"Sacramento","state_name":"California","lat":38.58486,"lng":-121.49372,"zip":"95867","miles_from_dt":27.79},{"city":"Sacramento","state_name":"California","lat":38.58354,"lng":-121.49338,"zip":"94209","miles_from_dt":27.8},{"city":"Sacramento","state_name":"California","lat":38.5858,"lng":-121.49353,"zip":"94287","miles_from_dt":27.8},{"city":"Sacramento","state_name":"California","lat":38.588,"lng":-121.49379,"zip":"94244","miles_from_dt":27.8},{"city":"Sacramento","state_name":"California","lat":38.58407,"lng":-121.49328,"zip":"94295","miles_from_dt":27.81},{"city":"Sacramento","state_name":"California","lat":38.58712,"lng":-121.49327,"zip":"94257","miles_from_dt":27.82},{"city":"Sacramento","state_name":"California","lat":38.58547,"lng":-121.49331,"zip":"94237","miles_from_dt":27.82},{"city":"Sacramento","state_name":"California","lat":38.58219,"lng":-121.49289,"zip":"94288","miles_from_dt":27.83},{"city":"Sacramento","state_name":"California","lat":38.58646,"lng":-121.49303,"zip":"94248","miles_from_dt":27.83},{"city":"Sacramento","state_name":"California","lat":38.51273,"lng":-121.49556,"zip":"95822","miles_from_dt":27.86},{"city":"Sacramento","state_name":"California","lat":38.58381,"lng":-121.49215,"zip":"94262","miles_from_dt":27.87},{"city":"Sacramento","state_name":"California","lat":38.58246,"lng":-121.49182,"zip":"94268","miles_from_dt":27.88},{"city":"Sacramento","state_name":"California","lat":38.58508,"lng":-121.49197,"zip":"94254","miles_from_dt":27.89},{"city":"Sacramento","state_name":"California","lat":38.58162,"lng":-121.4915,"zip":"94250","miles_from_dt":27.9},{"city":"Sacramento","state_name":"California","lat":38.58508,"lng":-121.49166,"zip":"94263","miles_from_dt":27.9},{"city":"Sacramento","state_name":"California","lat":38.58321,"lng":-121.49129,"zip":"94271","miles_from_dt":27.92},{"city":"Sacramento","state_name":"California","lat":38.58719,"lng":-121.49154,"zip":"94245","miles_from_dt":27.92},{"city":"Sacramento","state_name":"California","lat":38.5832,"lng":-121.49086,"zip":"94236","miles_from_dt":27.94},{"city":"Sacramento","state_name":"California","lat":38.5828,"lng":-121.49057,"zip":"94267","miles_from_dt":27.95},{"city":"Sacramento","state_name":"California","lat":38.58708,"lng":-121.49081,"zip":"94289","miles_from_dt":27.96},{"city":"Sacramento","state_name":"California","lat":38.58761,"lng":-121.49077,"zip":"95811","miles_from_dt":27.96},{"city":"Sacramento","state_name":"California","lat":38.58371,"lng":-121.49023,"zip":"95840","miles_from_dt":27.97},{"city":"Sacramento","state_name":"California","lat":38.58521,"lng":-121.48958,"zip":"94277","miles_from_dt":28.02},{"city":"Sacramento","state_name":"California","lat":38.58169,"lng":-121.48869,"zip":"94207","miles_from_dt":28.05},{"city":"American Canyon","state_name":"California","lat":38.19454,"lng":-122.23042,"zip":"94503","miles_from_dt":28.1},{"city":"Sacramento","state_name":"California","lat":38.43979,"lng":-121.49888,"zip":"95832","miles_from_dt":28.75},{"city":"Sacramento","state_name":"California","lat":38.56443,"lng":-121.46914,"zip":"94299","miles_from_dt":29.08},{"city":"Sacramento","state_name":"California","lat":38.57426,"lng":-121.46893,"zip":"94278","miles_from_dt":29.1},{"city":"Sacramento","state_name":"California","lat":38.57302,"lng":-121.46736,"zip":"94249","miles_from_dt":29.18},{"city":"Sacramento","state_name":"California","lat":38.57555,"lng":-121.46543,"zip":"95816","miles_from_dt":29.29},{"city":"Sacramento","state_name":"California","lat":38.55057,"lng":-121.45713,"zip":"95817","miles_from_dt":29.74}],"targetCityZipCode":"95694","targetCityState":"California"},"__N_SSG":true}