{"pageProps":{"stateName":"Vermont","cityName":"corinth","nearbyCities":[{"city":"East Corinth","state_name":"Vermont","lat":44.06796,"lng":-72.20438,"zip":"05040","miles_from_dt":5.19},{"city":"Vershire","state_name":"Vermont","lat":43.95622,"lng":-72.32214,"zip":"05079","miles_from_dt":5.51},{"city":"West Topsham","state_name":"Vermont","lat":44.1182,"lng":-72.30249,"zip":"05086","miles_from_dt":5.81},{"city":"Washington","state_name":"Vermont","lat":44.07386,"lng":-72.41821,"zip":"05675","miles_from_dt":6.61},{"city":"Bradford","state_name":"Vermont","lat":44.00229,"lng":-72.16412,"zip":"05033","miles_from_dt":7},{"city":"East Barre","state_name":"Vermont","lat":44.14004,"lng":-72.36589,"zip":"05649","miles_from_dt":8.07},{"city":"West Fairlee","state_name":"Vermont","lat":43.9184,"lng":-72.26782,"zip":"05083","miles_from_dt":8.12},{"city":"Topsham","state_name":"Vermont","lat":44.14503,"lng":-72.22659,"zip":"05076","miles_from_dt":8.43},{"city":"Chelsea","state_name":"Vermont","lat":43.99313,"lng":-72.45859,"zip":"05038","miles_from_dt":8.51},{"city":"West Newbury","state_name":"Vermont","lat":44.06947,"lng":-72.12163,"zip":"05085","miles_from_dt":9.09},{"city":"Fairlee","state_name":"Vermont","lat":43.9144,"lng":-72.19881,"zip":"05045","miles_from_dt":9.62},{"city":"Newbury","state_name":"Vermont","lat":44.08525,"lng":-72.11753,"zip":"05051","miles_from_dt":9.63},{"city":"Post Mills","state_name":"Vermont","lat":43.87917,"lng":-72.26999,"zip":"05058","miles_from_dt":10.78},{"city":"Strafford","state_name":"Vermont","lat":43.88132,"lng":-72.38545,"zip":"05072","miles_from_dt":11.42},{"city":"Graniteville","state_name":"Vermont","lat":44.14053,"lng":-72.48092,"zip":"05654","miles_from_dt":11.72},{"city":"Websterville","state_name":"Vermont","lat":44.15577,"lng":-72.47445,"zip":"05678","miles_from_dt":12.17},{"city":"Haverhill","state_name":"New Hampshire","lat":44.03452,"lng":-72.05231,"zip":"03765","miles_from_dt":12.21},{"city":"South Ryegate","state_name":"Vermont","lat":44.17366,"lng":-72.14317,"zip":"05069","miles_from_dt":12.32},{"city":"Tunbridge","state_name":"Vermont","lat":43.89961,"lng":-72.47789,"zip":"05077","miles_from_dt":12.93},{"city":"Barre","state_name":"Vermont","lat":44.18602,"lng":-72.45108,"zip":"05641","miles_from_dt":12.98},{"city":"Wells River","state_name":"Vermont","lat":44.14292,"lng":-72.08451,"zip":"05081","miles_from_dt":12.99},{"city":"East Randolph","state_name":"Vermont","lat":43.96702,"lng":-72.54264,"zip":"05041","miles_from_dt":13.06},{"city":"Williamstown","state_name":"Vermont","lat":44.10677,"lng":-72.54052,"zip":"05679","miles_from_dt":13.1},{"city":"Thetford Center","state_name":"Vermont","lat":43.84356,"lng":-72.28255,"zip":"05075","miles_from_dt":13.17},{"city":"South Strafford","state_name":"Vermont","lat":43.84225,"lng":-72.35099,"zip":"05070","miles_from_dt":13.51},{"city":"Piermont","state_name":"New Hampshire","lat":43.97477,"lng":-72.03089,"zip":"03779","miles_from_dt":13.9},{"city":"Brookfield","state_name":"Vermont","lat":44.026,"lng":-72.57843,"zip":"05036","miles_from_dt":14},{"city":"Groton","state_name":"Vermont","lat":44.23864,"lng":-72.25024,"zip":"05046","miles_from_dt":14.32},{"city":"South Barre","state_name":"Vermont","lat":44.17799,"lng":-72.50558,"zip":"05670","miles_from_dt":14.35},{"city":"North Thetford","state_name":"Vermont","lat":43.84231,"lng":-72.1838,"zip":"05054","miles_from_dt":14.4},{"city":"Orford","state_name":"New Hampshire","lat":43.89548,"lng":-72.06672,"zip":"03777","miles_from_dt":14.97},{"city":"Thetford","state_name":"Vermont","lat":43.81917,"lng":-72.22825,"zip":"05074","miles_from_dt":15.23},{"city":"North Haverhill","state_name":"New Hampshire","lat":44.09097,"lng":-71.9947,"zip":"03774","miles_from_dt":15.58},{"city":"Randolph Center","state_name":"Vermont","lat":43.93023,"lng":-72.58087,"zip":"05061","miles_from_dt":15.84},{"city":"Pike","state_name":"New Hampshire","lat":44.03169,"lng":-71.97142,"zip":"03780","miles_from_dt":16.24},{"city":"East Thetford","state_name":"Vermont","lat":43.80658,"lng":-72.21194,"zip":"05043","miles_from_dt":16.28},{"city":"East Ryegate","state_name":"Vermont","lat":44.24013,"lng":-72.1053,"zip":"05042","miles_from_dt":17.14},{"city":"Montpelier","state_name":"Vermont","lat":44.20424,"lng":-72.5551,"zip":"05601","miles_from_dt":17.38},{"city":"Plainfield","state_name":"Vermont","lat":44.28122,"lng":-72.3986,"zip":"05667","miles_from_dt":17.79},{"city":"Sharon","state_name":"Vermont","lat":43.79079,"lng":-72.41617,"zip":"05065","miles_from_dt":17.81},{"city":"Lyme","state_name":"New Hampshire","lat":43.80529,"lng":-72.11573,"zip":"03768","miles_from_dt":18.21},{"city":"Bath","state_name":"New Hampshire","lat":44.18025,"lng":-71.98626,"zip":"03740","miles_from_dt":18.48},{"city":"Norwich","state_name":"Vermont","lat":43.75481,"lng":-72.31145,"zip":"05055","miles_from_dt":19.29},{"city":"East Montpelier","state_name":"Vermont","lat":44.27777,"lng":-72.49246,"zip":"05651","miles_from_dt":19.42},{"city":"McIndoe Falls","state_name":"Vermont","lat":44.26442,"lng":-72.06414,"zip":"05050","miles_from_dt":19.69},{"city":"Northfield Falls","state_name":"Vermont","lat":44.16718,"lng":-72.65316,"zip":"05664","miles_from_dt":19.94},{"city":"Peacham","state_name":"Vermont","lat":44.31971,"lng":-72.23133,"zip":"05862","miles_from_dt":19.99},{"city":"Randolph","state_name":"Vermont","lat":43.96199,"lng":-72.68594,"zip":"05060","miles_from_dt":19.99},{"city":"Lyme Center","state_name":"New Hampshire","lat":43.79468,"lng":-72.06561,"zip":"03769","miles_from_dt":20.18},{"city":"Northfield","state_name":"Vermont","lat":44.14946,"lng":-72.67239,"zip":"05663","miles_from_dt":20.28},{"city":"South Royalton","state_name":"Vermont","lat":43.79188,"lng":-72.52931,"zip":"05068","miles_from_dt":20.33},{"city":"Glencliff","state_name":"New Hampshire","lat":43.98168,"lng":-71.88701,"zip":"03238","miles_from_dt":20.77},{"city":"Montpelier","state_name":"Vermont","lat":44.25908,"lng":-72.58055,"zip":"05633","miles_from_dt":20.96},{"city":"Montpelier","state_name":"Vermont","lat":44.25706,"lng":-72.58779,"zip":"05604","miles_from_dt":21.1},{"city":"Montpelier","state_name":"Vermont","lat":44.26213,"lng":-72.58436,"zip":"05603","miles_from_dt":21.24},{"city":"Montpelier","state_name":"Vermont","lat":44.26268,"lng":-72.58391,"zip":"05620","miles_from_dt":21.26},{"city":"Woodsville","state_name":"New Hampshire","lat":44.06525,"lng":-71.87017,"zip":"03785","miles_from_dt":21.39},{"city":"Warren","state_name":"New Hampshire","lat":43.94468,"lng":-71.88231,"zip":"03279","miles_from_dt":21.6},{"city":"Barnet","state_name":"Vermont","lat":44.3175,"lng":-72.10866,"zip":"05821","miles_from_dt":21.7},{"city":"Wentworth","state_name":"New Hampshire","lat":43.86006,"lng":-71.9295,"zip":"03282","miles_from_dt":21.94},{"city":"Hanover","state_name":"New Hampshire","lat":43.72377,"lng":-72.19563,"zip":"03755","miles_from_dt":22.02},{"city":"North Montpelier","state_name":"Vermont","lat":44.34125,"lng":-72.43873,"zip":"05666","miles_from_dt":22.34},{"city":"Monroe","state_name":"New Hampshire","lat":44.28443,"lng":-72.0098,"zip":"03771","miles_from_dt":22.43},{"city":"West Hartford","state_name":"Vermont","lat":43.72791,"lng":-72.45177,"zip":"05084","miles_from_dt":22.5},{"city":"Marshfield","state_name":"Vermont","lat":44.35921,"lng":-72.35399,"zip":"05658","miles_from_dt":22.62},{"city":"Roxbury","state_name":"Vermont","lat":44.05325,"lng":-72.75155,"zip":"05669","miles_from_dt":22.65},{"city":"Montpelier","state_name":"Vermont","lat":44.28742,"lng":-72.60006,"zip":"05609","miles_from_dt":23.07},{"city":"Etna","state_name":"New Hampshire","lat":43.70681,"lng":-72.19308,"zip":"03750","miles_from_dt":23.19},{"city":"Montpelier","state_name":"Vermont","lat":44.2848,"lng":-72.61498,"zip":"05602","miles_from_dt":23.42},{"city":"North Pomfret","state_name":"Vermont","lat":43.71799,"lng":-72.48362,"zip":"05053","miles_from_dt":23.72},{"city":"Adamant","state_name":"Vermont","lat":44.34734,"lng":-72.49675,"zip":"05640","miles_from_dt":23.79},{"city":"Lisbon","state_name":"New Hampshire","lat":44.22538,"lng":-71.89703,"zip":"03585","miles_from_dt":23.9},{"city":"Bethel","state_name":"Vermont","lat":43.80193,"lng":-72.65708,"zip":"05032","miles_from_dt":24.06},{"city":"Wilder","state_name":"Vermont","lat":43.67332,"lng":-72.30726,"zip":"05088","miles_from_dt":24.91},{"city":"White River Junction","state_name":"Vermont","lat":43.67309,"lng":-72.37943,"zip":"05001","miles_from_dt":25.26},{"city":"Barnard","state_name":"Vermont","lat":43.72361,"lng":-72.5872,"zip":"05031","miles_from_dt":25.86},{"city":"Cabot","state_name":"Vermont","lat":44.41001,"lng":-72.29126,"zip":"05647","miles_from_dt":25.96},{"city":"West Danville","state_name":"Vermont","lat":44.40619,"lng":-72.21841,"zip":"05873","miles_from_dt":25.99},{"city":"Hartford","state_name":"Vermont","lat":43.65859,"lng":-72.33788,"zip":"05047","miles_from_dt":26},{"city":"Calais","state_name":"Vermont","lat":44.38372,"lng":-72.49355,"zip":"05648","miles_from_dt":26.03},{"city":"Rumney","state_name":"New Hampshire","lat":43.79407,"lng":-71.89035,"zip":"03266","miles_from_dt":26.22},{"city":"East Calais","state_name":"Vermont","lat":44.4002,"lng":-72.44235,"zip":"05650","miles_from_dt":26.28},{"city":"South Pomfret","state_name":"Vermont","lat":43.69162,"lng":-72.53944,"zip":"05067","miles_from_dt":26.55},{"city":"White River Junction","state_name":"Vermont","lat":43.64769,"lng":-72.34395,"zip":"05009","miles_from_dt":26.78},{"city":"Passumpsic","state_name":"Vermont","lat":44.37735,"lng":-72.03142,"zip":"05861","miles_from_dt":27.14},{"city":"West Lebanon","state_name":"New Hampshire","lat":43.63675,"lng":-72.30608,"zip":"03784","miles_from_dt":27.43},{"city":"Lebanon","state_name":"New Hampshire","lat":43.63701,"lng":-72.25238,"zip":"03756","miles_from_dt":27.51},{"city":"Moretown","state_name":"Vermont","lat":44.24733,"lng":-72.76808,"zip":"05660","miles_from_dt":27.64},{"city":"Lebanon","state_name":"New Hampshire","lat":43.63491,"lng":-72.23819,"zip":"03766","miles_from_dt":27.72},{"city":"Quechee","state_name":"Vermont","lat":43.64233,"lng":-72.43061,"zip":"05059","miles_from_dt":27.85},{"city":"Granville","state_name":"Vermont","lat":44.00354,"lng":-72.85494,"zip":"05747","miles_from_dt":27.85},{"city":"North Woodstock","state_name":"New Hampshire","lat":43.99885,"lng":-71.73813,"zip":"03262","miles_from_dt":27.98},{"city":"Sugar Hill","state_name":"New Hampshire","lat":44.22058,"lng":-71.7963,"zip":"03586","miles_from_dt":28.06},{"city":"Warren","state_name":"Vermont","lat":44.11112,"lng":-72.86081,"zip":"05674","miles_from_dt":28.54},{"city":"Rochester","state_name":"Vermont","lat":43.87513,"lng":-72.82878,"zip":"05767","miles_from_dt":28.68},{"city":"Canaan","state_name":"New Hampshire","lat":43.67134,"lng":-72.01559,"zip":"03741","miles_from_dt":28.73},{"city":"Worcester","state_name":"Vermont","lat":44.40354,"lng":-72.57219,"zip":"05682","miles_from_dt":28.93},{"city":"Stockbridge","state_name":"Vermont","lat":43.75989,"lng":-72.74003,"zip":"05772","miles_from_dt":29.09},{"city":"Taftsville","state_name":"Vermont","lat":43.62901,"lng":-72.46108,"zip":"05073","miles_from_dt":29.14},{"city":"Danville","state_name":"Vermont","lat":44.43748,"lng":-72.12334,"zip":"05828","miles_from_dt":29.16},{"city":"Woodbury","state_name":"Vermont","lat":44.45377,"lng":-72.38016,"zip":"05681","miles_from_dt":29.27},{"city":"Waitsfield","state_name":"Vermont","lat":44.19371,"lng":-72.84356,"zip":"05673","miles_from_dt":29.31},{"city":"Lower Waterford","state_name":"Vermont","lat":44.35558,"lng":-71.90806,"zip":"05848","miles_from_dt":29.44},{"city":"Woodstock","state_name":"Vermont","lat":43.64707,"lng":-72.55165,"zip":"05091","miles_from_dt":29.58},{"city":"Saint Johnsbury","state_name":"Vermont","lat":44.40397,"lng":-71.98837,"zip":"05819","miles_from_dt":29.8}],"targetCityZipCode":"05039","targetCityState":"Vermont"},"__N_SSG":true}