{"pageProps":{"stateName":"Vermont","cityName":"shelburne","nearbyCities":[{"city":"South Burlington","state_name":"Vermont","lat":44.44635,"lng":-73.17568,"zip":"05407","miles_from_dt":5.04},{"city":"South Burlington","state_name":"Vermont","lat":44.447,"lng":-73.17229,"zip":"05403","miles_from_dt":5.18},{"city":"Charlotte","state_name":"Vermont","lat":44.30896,"lng":-73.23593,"zip":"05445","miles_from_dt":5.64},{"city":"Burlington","state_name":"Vermont","lat":44.47484,"lng":-73.21758,"zip":"05401","miles_from_dt":5.94},{"city":"Burlington","state_name":"Vermont","lat":44.47475,"lng":-73.19649,"zip":"05405","miles_from_dt":6.22},{"city":"Burlington","state_name":"Vermont","lat":44.48717,"lng":-73.22627,"zip":"05406","miles_from_dt":6.71},{"city":"Burlington","state_name":"Vermont","lat":44.48969,"lng":-73.27139,"zip":"05408","miles_from_dt":7},{"city":"Winooski","state_name":"Vermont","lat":44.49483,"lng":-73.18467,"zip":"05404","miles_from_dt":7.73},{"city":"Williston","state_name":"Vermont","lat":44.42901,"lng":-73.09197,"zip":"05495","miles_from_dt":7.85},{"city":"Colchester","state_name":"Vermont","lat":44.49573,"lng":-73.16524,"zip":"05439","miles_from_dt":8.18},{"city":"Hinesburg","state_name":"Vermont","lat":44.32094,"lng":-73.09176,"zip":"05461","miles_from_dt":8.83},{"city":"Willsboro","state_name":"New York","lat":44.36129,"lng":-73.42129,"zip":"12996","miles_from_dt":9.14},{"city":"Burlington","state_name":"Vermont","lat":44.5057,"lng":-73.12665,"zip":"05402","miles_from_dt":9.77},{"city":"Jonesville","state_name":"Vermont","lat":44.54068,"lng":-73.20958,"zip":"05466","miles_from_dt":10.48},{"city":"North Ferrisburgh","state_name":"Vermont","lat":44.24119,"lng":-73.19346,"zip":"05473","miles_from_dt":10.58},{"city":"Essex Junction","state_name":"Vermont","lat":44.4929,"lng":-73.08159,"zip":"05453","miles_from_dt":10.6},{"city":"Monkton","state_name":"Vermont","lat":44.25395,"lng":-73.12095,"zip":"05469","miles_from_dt":11.16},{"city":"Colchester","state_name":"Vermont","lat":44.5541,"lng":-73.21647,"zip":"05446","miles_from_dt":11.36},{"city":"Essex","state_name":"New York","lat":44.26869,"lng":-73.4029,"zip":"12936","miles_from_dt":11.62},{"city":"Colchester","state_name":"Vermont","lat":44.54505,"lng":-73.14596,"zip":"05449","miles_from_dt":11.66},{"city":"Essex","state_name":"Vermont","lat":44.5075,"lng":-73.06948,"zip":"05451","miles_from_dt":11.72},{"city":"Richmond","state_name":"Vermont","lat":44.3936,"lng":-72.99152,"zip":"05477","miles_from_dt":12.37},{"city":"Ferrisburgh","state_name":"Vermont","lat":44.20776,"lng":-73.25796,"zip":"05456","miles_from_dt":12.65},{"city":"Essex Junction","state_name":"Vermont","lat":44.5238,"lng":-73.06479,"zip":"05452","miles_from_dt":12.68},{"city":"Port Kent","state_name":"New York","lat":44.52977,"lng":-73.431,"zip":"12975","miles_from_dt":13.43},{"city":"Keeseville","state_name":"New York","lat":44.44585,"lng":-73.51193,"zip":"12944","miles_from_dt":13.92},{"city":"Keeseville","state_name":"New York","lat":44.53464,"lng":-73.46687,"zip":"12911","miles_from_dt":14.94},{"city":"Huntington","state_name":"Vermont","lat":44.29909,"lng":-72.95228,"zip":"05462","miles_from_dt":15.65},{"city":"Starksboro","state_name":"Vermont","lat":44.23082,"lng":-73.01096,"zip":"05487","miles_from_dt":15.88},{"city":"Jericho","state_name":"Vermont","lat":44.45882,"lng":-72.93058,"zip":"05465","miles_from_dt":16.08},{"city":"South Hero","state_name":"Vermont","lat":44.62958,"lng":-73.31444,"zip":"05486","miles_from_dt":16.89},{"city":"Lewis","state_name":"New York","lat":44.32685,"lng":-73.57675,"zip":"12950","miles_from_dt":17.19},{"city":"Westport","state_name":"New York","lat":44.19711,"lng":-73.48097,"zip":"12993","miles_from_dt":17.88},{"city":"Keeseville","state_name":"New York","lat":44.47589,"lng":-73.58751,"zip":"12924","miles_from_dt":18.11},{"city":"Westford","state_name":"Vermont","lat":44.60472,"lng":-73.01523,"zip":"05494","miles_from_dt":18.53},{"city":"Milton","state_name":"Vermont","lat":44.65378,"lng":-73.15343,"zip":"05468","miles_from_dt":18.69},{"city":"Vergennes","state_name":"Vermont","lat":44.12101,"lng":-73.32111,"zip":"05491","miles_from_dt":19.03},{"city":"Underhill Center","state_name":"Vermont","lat":44.52797,"lng":-72.89695,"zip":"05490","miles_from_dt":19.49},{"city":"New Haven","state_name":"Vermont","lat":44.11377,"lng":-73.1611,"zip":"05472","miles_from_dt":19.52},{"city":"Peru","state_name":"New York","lat":44.559,"lng":-73.56516,"zip":"12972","miles_from_dt":19.79},{"city":"Underhill","state_name":"Vermont","lat":44.5458,"lng":-72.89471,"zip":"05489","miles_from_dt":20.21},{"city":"Bristol","state_name":"Vermont","lat":44.12976,"lng":-73.03347,"zip":"05443","miles_from_dt":20.75},{"city":"Plattsburgh","state_name":"New York","lat":44.65698,"lng":-73.46306,"zip":"12903","miles_from_dt":21.41},{"city":"Waterbury","state_name":"Vermont","lat":44.34825,"lng":-72.80984,"zip":"05676","miles_from_dt":21.57},{"city":"Elizabethtown","state_name":"New York","lat":44.21222,"lng":-73.6082,"zip":"12932","miles_from_dt":21.97},{"city":"Grand Isle","state_name":"Vermont","lat":44.71838,"lng":-73.29837,"zip":"05458","miles_from_dt":22.81},{"city":"Jay","state_name":"New York","lat":44.35147,"lng":-73.7126,"zip":"12941","miles_from_dt":23.5},{"city":"Waitsfield","state_name":"Vermont","lat":44.19371,"lng":-72.84356,"zip":"05673","miles_from_dt":23.96},{"city":"Cambridge","state_name":"Vermont","lat":44.62628,"lng":-72.88242,"zip":"05444","miles_from_dt":24.07},{"city":"Mineville","state_name":"New York","lat":44.09301,"lng":-73.49628,"zip":"12956","miles_from_dt":24.13},{"city":"Waterbury","state_name":"Vermont","lat":44.34129,"lng":-72.75854,"zip":"05671","miles_from_dt":24.15},{"city":"Fairfax","state_name":"Vermont","lat":44.7056,"lng":-73.02294,"zip":"05454","miles_from_dt":24.28},{"city":"Plattsburgh","state_name":"New York","lat":44.70842,"lng":-73.47465,"zip":"12901","miles_from_dt":24.79},{"city":"Au Sable Forks","state_name":"New York","lat":44.46233,"lng":-73.74201,"zip":"12912","miles_from_dt":25.26},{"city":"Moretown","state_name":"Vermont","lat":44.24733,"lng":-72.76808,"zip":"05660","miles_from_dt":25.46},{"city":"Port Henry","state_name":"New York","lat":44.05582,"lng":-73.46931,"zip":"12974","miles_from_dt":25.74},{"city":"Upper Jay","state_name":"New York","lat":44.33948,"lng":-73.76386,"zip":"12987","miles_from_dt":26.12},{"city":"Moscow","state_name":"Vermont","lat":44.44194,"lng":-72.71724,"zip":"05662","miles_from_dt":26.18},{"city":"Waterbury Center","state_name":"Vermont","lat":44.39194,"lng":-72.70841,"zip":"05677","miles_from_dt":26.39},{"city":"Stowe","state_name":"Vermont","lat":44.48151,"lng":-72.72174,"zip":"05672","miles_from_dt":26.46},{"city":"New Russia","state_name":"New York","lat":44.13224,"lng":-73.63625,"zip":"12964","miles_from_dt":26.5},{"city":"Witherbee","state_name":"New York","lat":44.0879,"lng":-73.57584,"zip":"12998","miles_from_dt":26.69},{"city":"Warren","state_name":"Vermont","lat":44.11112,"lng":-72.86081,"zip":"05674","miles_from_dt":27},{"city":"Schuyler Falls","state_name":"New York","lat":44.56413,"lng":-73.73395,"zip":"12985","miles_from_dt":27.14},{"city":"Middlebury","state_name":"Vermont","lat":43.9991,"lng":-73.17403,"zip":"05753","miles_from_dt":27.23},{"city":"Jeffersonville","state_name":"Vermont","lat":44.65469,"lng":-72.81897,"zip":"05464","miles_from_dt":27.71},{"city":"Morrisonville","state_name":"New York","lat":44.70642,"lng":-73.60141,"zip":"12962","miles_from_dt":28.14},{"city":"Moriah Center","state_name":"New York","lat":44.06103,"lng":-73.57972,"zip":"12961","miles_from_dt":28.28},{"city":"Saint Albans","state_name":"Vermont","lat":44.7941,"lng":-73.11714,"zip":"05478","miles_from_dt":28.53},{"city":"Bridport","state_name":"Vermont","lat":43.98243,"lng":-73.33286,"zip":"05734","miles_from_dt":28.54},{"city":"Keene","state_name":"New York","lat":44.26023,"lng":-73.79523,"zip":"12942","miles_from_dt":28.89},{"city":"Saint Albans Bay","state_name":"Vermont","lat":44.80833,"lng":-73.1396,"zip":"05481","miles_from_dt":29.28},{"city":"Moriah","state_name":"New York","lat":44.02226,"lng":-73.54123,"zip":"12960","miles_from_dt":29.47},{"city":"East Middlebury","state_name":"Vermont","lat":43.97299,"lng":-73.10273,"zip":"05740","miles_from_dt":29.64},{"city":"Wilmington","state_name":"New York","lat":44.3755,"lng":-73.84314,"zip":"12997","miles_from_dt":29.82},{"city":"Cadyville","state_name":"New York","lat":44.68975,"lng":-73.67863,"zip":"12918","miles_from_dt":29.88}],"targetCityZipCode":"05482","targetCityState":"Vermont"},"__N_SSG":true}