{"pageProps":{"stateName":"Georgia","cityName":"bostwick","nearbyCities":[{"city":"Good Hope","state_name":"Georgia","lat":33.77872,"lng":-83.56456,"zip":"30641","miles_from_dt":4.31},{"city":"Bishop","state_name":"Georgia","lat":33.80194,"lng":-83.4791,"zip":"30621","miles_from_dt":5.32},{"city":"Farmington","state_name":"Georgia","lat":33.77004,"lng":-83.42241,"zip":"30638","miles_from_dt":6.01},{"city":"High Shoals","state_name":"Georgia","lat":33.82076,"lng":-83.50247,"zip":"30645","miles_from_dt":6.23},{"city":"Watkinsville","state_name":"Georgia","lat":33.7929,"lng":-83.38186,"zip":"30677","miles_from_dt":8.81},{"city":"Rutledge","state_name":"Georgia","lat":33.61572,"lng":-83.60357,"zip":"30663","miles_from_dt":9.42},{"city":"Madison","state_name":"Georgia","lat":33.5907,"lng":-83.46693,"zip":"30650","miles_from_dt":10.08},{"city":"Monroe","state_name":"Georgia","lat":33.78214,"lng":-83.69072,"zip":"30655","miles_from_dt":10.66},{"city":"Social Circle","state_name":"Georgia","lat":33.65689,"lng":-83.69869,"zip":"30025","miles_from_dt":11.71},{"city":"Bogart","state_name":"Georgia","lat":33.92041,"lng":-83.53076,"zip":"30622","miles_from_dt":13.07},{"city":"Monroe","state_name":"Georgia","lat":33.86302,"lng":-83.71903,"zip":"30656","miles_from_dt":14.81},{"city":"Athens","state_name":"Georgia","lat":33.93873,"lng":-83.43305,"zip":"30606","miles_from_dt":15.08},{"city":"Statham","state_name":"Georgia","lat":33.95891,"lng":-83.58266,"zip":"30666","miles_from_dt":16.16},{"city":"Athens","state_name":"Georgia","lat":33.93289,"lng":-83.37223,"zip":"30609","miles_from_dt":16.18},{"city":"Athens","state_name":"Georgia","lat":33.90551,"lng":-83.32405,"zip":"30605","miles_from_dt":16.32},{"city":"Jersey","state_name":"Georgia","lat":33.71737,"lng":-83.80034,"zip":"30018","miles_from_dt":16.41},{"city":"Athens","state_name":"Georgia","lat":33.94252,"lng":-83.37256,"zip":"30602","miles_from_dt":16.74},{"city":"Athens","state_name":"Georgia","lat":33.95563,"lng":-83.3931,"zip":"30612","miles_from_dt":17.01},{"city":"Buckhead","state_name":"Georgia","lat":33.52128,"lng":-83.34211,"zip":"30625","miles_from_dt":17.6},{"city":"Athens","state_name":"Georgia","lat":33.95929,"lng":-83.37689,"zip":"30603","miles_from_dt":17.64},{"city":"Athens","state_name":"Georgia","lat":33.95962,"lng":-83.37699,"zip":"30608","miles_from_dt":17.66},{"city":"Newborn","state_name":"Georgia","lat":33.49496,"lng":-83.65068,"zip":"30056","miles_from_dt":18.04},{"city":"Arnoldsville","state_name":"Georgia","lat":33.85752,"lng":-83.2403,"zip":"30619","miles_from_dt":18.09},{"city":"Athens","state_name":"Georgia","lat":34.00684,"lng":-83.49323,"zip":"30604","miles_from_dt":19.05},{"city":"Bethlehem","state_name":"Georgia","lat":33.92917,"lng":-83.75958,"zip":"30620","miles_from_dt":19.56},{"city":"Athens","state_name":"Georgia","lat":34.01895,"lng":-83.44774,"zip":"30607","miles_from_dt":20.22},{"city":"Covington","state_name":"Georgia","lat":33.58109,"lng":-83.8191,"zip":"30014","miles_from_dt":20.3},{"city":"Stephens","state_name":"Georgia","lat":33.78526,"lng":-83.16634,"zip":"30667","miles_from_dt":20.47},{"city":"Athens","state_name":"Georgia","lat":34.00032,"lng":-83.34851,"zip":"30601","miles_from_dt":20.9},{"city":"Winterville","state_name":"Georgia","lat":33.94703,"lng":-83.25775,"zip":"30683","miles_from_dt":21.02},{"city":"Oxford","state_name":"Georgia","lat":33.67651,"lng":-83.87558,"zip":"30054","miles_from_dt":21.06},{"city":"Mansfield","state_name":"Georgia","lat":33.49055,"lng":-83.74224,"zip":"30055","miles_from_dt":21.1},{"city":"Winder","state_name":"Georgia","lat":33.99725,"lng":-83.69743,"zip":"30680","miles_from_dt":21.1},{"city":"Covington","state_name":"Georgia","lat":33.60047,"lng":-83.85378,"zip":"30015","miles_from_dt":21.45},{"city":"Shady Dale","state_name":"Georgia","lat":33.42557,"lng":-83.631,"zip":"31085","miles_from_dt":22.08},{"city":"Loganville","state_name":"Georgia","lat":33.81654,"lng":-83.89538,"zip":"30052","miles_from_dt":22.62},{"city":"Greensboro","state_name":"Georgia","lat":33.5446,"lng":-83.1832,"zip":"30642","miles_from_dt":23.09},{"city":"Union Point","state_name":"Georgia","lat":33.67159,"lng":-83.11187,"zip":"30669","miles_from_dt":23.63},{"city":"Maxeys","state_name":"Georgia","lat":33.77287,"lng":-83.10717,"zip":"30671","miles_from_dt":23.71},{"city":"Crawford","state_name":"Georgia","lat":33.89894,"lng":-83.14366,"zip":"30630","miles_from_dt":24.34},{"city":"Porterdale","state_name":"Georgia","lat":33.5733,"lng":-83.89546,"zip":"30070","miles_from_dt":24.43},{"city":"Nicholson","state_name":"Georgia","lat":34.08802,"lng":-83.41203,"zip":"30565","miles_from_dt":25.31},{"city":"Jefferson","state_name":"Georgia","lat":34.10731,"lng":-83.57684,"zip":"30549","miles_from_dt":26.16},{"city":"Hull","state_name":"Georgia","lat":34.08011,"lng":-83.31254,"zip":"30646","miles_from_dt":26.74},{"city":"Conyers","state_name":"Georgia","lat":33.643,"lng":-83.97147,"zip":"30013","miles_from_dt":26.94},{"city":"Colbert","state_name":"Georgia","lat":34.03115,"lng":-83.21364,"zip":"30628","miles_from_dt":27.01},{"city":"Dacula","state_name":"Georgia","lat":33.97642,"lng":-83.88252,"zip":"30019","miles_from_dt":27.02},{"city":"Auburn","state_name":"Georgia","lat":34.02281,"lng":-83.8364,"zip":"30011","miles_from_dt":27.27},{"city":"Lawrenceville","state_name":"Georgia","lat":33.93046,"lng":-83.93019,"zip":"30045","miles_from_dt":27.51},{"city":"Conyers","state_name":"Georgia","lat":33.71739,"lng":-83.99913,"zip":"30012","miles_from_dt":27.84},{"city":"Grayson","state_name":"Georgia","lat":33.88939,"lng":-83.96348,"zip":"30017","miles_from_dt":27.96},{"city":"Covington","state_name":"Georgia","lat":33.51836,"lng":-83.93073,"zip":"30016","miles_from_dt":28.05},{"city":"Norcross","state_name":"Georgia","lat":33.68081,"lng":-84.00732,"zip":"30003","miles_from_dt":28.52},{"city":"Eatonton","state_name":"Georgia","lat":33.33,"lng":-83.39219,"zip":"31026","miles_from_dt":28.55},{"city":"Siloam","state_name":"Georgia","lat":33.53707,"lng":-83.07475,"zip":"30665","miles_from_dt":28.74},{"city":"Hoschton","state_name":"Georgia","lat":34.09311,"lng":-83.7646,"zip":"30548","miles_from_dt":28.75},{"city":"Eatonton","state_name":"Georgia","lat":33.32344,"lng":-83.36987,"zip":"31024","miles_from_dt":29.33},{"city":"Lexington","state_name":"Georgia","lat":33.87577,"lng":-83.03319,"zip":"30648","miles_from_dt":29.51}],"targetCityZipCode":"30623","targetCityState":"Georgia"},"__N_SSG":true}