{"pageProps":{"stateName":"Georgia","cityName":"cleveland","nearbyCities":[{"city":"Clermont","state_name":"Georgia","lat":34.47948,"lng":-83.7863,"zip":"30527","miles_from_dt":8.9},{"city":"Sautee Nacoochee","state_name":"Georgia","lat":34.71219,"lng":-83.68322,"zip":"30571","miles_from_dt":8.9},{"city":"Helen","state_name":"Georgia","lat":34.74208,"lng":-83.75813,"zip":"30545","miles_from_dt":9.28},{"city":"Murrayville","state_name":"Georgia","lat":34.47251,"lng":-83.8826,"zip":"30564","miles_from_dt":11.16},{"city":"Demorest","state_name":"Georgia","lat":34.58063,"lng":-83.57652,"zip":"30535","miles_from_dt":11.52},{"city":"Cornelia","state_name":"Georgia","lat":34.51017,"lng":-83.59103,"zip":"30531","miles_from_dt":12.53},{"city":"Dahlonega","state_name":"Georgia","lat":34.52762,"lng":-83.98462,"zip":"30597","miles_from_dt":13.14},{"city":"Dahlonega","state_name":"Georgia","lat":34.57344,"lng":-84.01576,"zip":"30533","miles_from_dt":13.88},{"city":"Turnerville","state_name":"Georgia","lat":34.68976,"lng":-83.52623,"zip":"30580","miles_from_dt":15.29},{"city":"Clarkesville","state_name":"Georgia","lat":34.72012,"lng":-83.54166,"zip":"30523","miles_from_dt":15.41},{"city":"Lula","state_name":"Georgia","lat":34.40093,"lng":-83.65926,"zip":"30554","miles_from_dt":15.77},{"city":"Alto","state_name":"Georgia","lat":34.44194,"lng":-83.58446,"zip":"30510","miles_from_dt":15.84},{"city":"Gainesville","state_name":"Georgia","lat":34.37128,"lng":-83.82255,"zip":"30503","miles_from_dt":16.55},{"city":"Mount Airy","state_name":"Georgia","lat":34.5596,"lng":-83.46283,"zip":"30563","miles_from_dt":18.16},{"city":"Suches","state_name":"Georgia","lat":34.73539,"lng":-84.07364,"zip":"30572","miles_from_dt":19.09},{"city":"Gainesville","state_name":"Georgia","lat":34.34918,"lng":-83.89486,"zip":"30506","miles_from_dt":19.11},{"city":"Baldwin","state_name":"Georgia","lat":34.45674,"lng":-83.47474,"zip":"30511","miles_from_dt":20.11},{"city":"Gainesville","state_name":"Georgia","lat":34.31844,"lng":-83.81636,"zip":"30501","miles_from_dt":20.11},{"city":"Blairsville","state_name":"Georgia","lat":34.85667,"lng":-83.97204,"zip":"30512","miles_from_dt":20.44},{"city":"Hiawassee","state_name":"Georgia","lat":34.90673,"lng":-83.71016,"zip":"30546","miles_from_dt":20.91},{"city":"Buford","state_name":"Georgia","lat":34.87613,"lng":-83.95281,"zip":"30515","miles_from_dt":21.03},{"city":"Blairsville","state_name":"Georgia","lat":34.87613,"lng":-83.95281,"zip":"30514","miles_from_dt":21.03},{"city":"Lakemont","state_name":"Georgia","lat":34.76965,"lng":-83.44575,"zip":"30552","miles_from_dt":21.84},{"city":"Gillsville","state_name":"Georgia","lat":34.29781,"lng":-83.64971,"zip":"30543","miles_from_dt":22.58},{"city":"Tallulah Falls","state_name":"Georgia","lat":34.74242,"lng":-83.39986,"zip":"30573","miles_from_dt":23.32},{"city":"Gainesville","state_name":"Georgia","lat":34.26082,"lng":-83.76622,"zip":"30507","miles_from_dt":23.96},{"city":"Toccoa Falls","state_name":"Georgia","lat":34.59663,"lng":-83.35411,"zip":"30598","miles_from_dt":24.05},{"city":"Wiley","state_name":"Georgia","lat":34.80195,"lng":-83.42405,"zip":"30581","miles_from_dt":24.07},{"city":"Tiger","state_name":"Georgia","lat":34.82682,"lng":-83.44539,"zip":"30576","miles_from_dt":24.1},{"city":"Dawsonville","state_name":"Georgia","lat":34.43085,"lng":-84.1439,"zip":"30534","miles_from_dt":24.3},{"city":"Gainesville","state_name":"Georgia","lat":34.26639,"lng":-83.88751,"zip":"30504","miles_from_dt":24.41},{"city":"Young Harris","state_name":"Georgia","lat":34.9494,"lng":-83.89869,"zip":"30582","miles_from_dt":24.53},{"city":"Homer","state_name":"Georgia","lat":34.35737,"lng":-83.46095,"zip":"30547","miles_from_dt":24.95},{"city":"Toccoa","state_name":"Georgia","lat":34.55549,"lng":-83.32632,"zip":"30577","miles_from_dt":25.89},{"city":"Maysville","state_name":"Georgia","lat":34.2683,"lng":-83.56787,"zip":"30558","miles_from_dt":26.27},{"city":"Oakwood","state_name":"Georgia","lat":34.23747,"lng":-83.89477,"zip":"30566","miles_from_dt":26.45},{"city":"Warne","state_name":"North Carolina","lat":35.00125,"lng":-83.90319,"zip":"28909","miles_from_dt":28.04},{"city":"Talmo","state_name":"Georgia","lat":34.20353,"lng":-83.71556,"zip":"30575","miles_from_dt":28.11},{"city":"Long Creek","state_name":"South Carolina","lat":34.76191,"lng":-83.29858,"zip":"29658","miles_from_dt":29.17},{"city":"Marble Hill","state_name":"Georgia","lat":34.46009,"lng":-84.2648,"zip":"30148","miles_from_dt":29.7},{"city":"Pendergrass","state_name":"Georgia","lat":34.18326,"lng":-83.6814,"zip":"30567","miles_from_dt":29.79},{"city":"Eastanollee","state_name":"Georgia","lat":34.5035,"lng":-83.26888,"zip":"30538","miles_from_dt":29.8}],"targetCityZipCode":"30528","targetCityState":"Georgia"},"__N_SSG":true}