{"pageProps":{"stateName":"Georgia","cityName":"colbert","nearbyCities":[{"city":"Winterville","state_name":"Georgia","lat":33.94703,"lng":-83.25775,"zip":"30683","miles_from_dt":6.33},{"city":"Comer","state_name":"Georgia","lat":34.07779,"lng":-83.11625,"zip":"30629","miles_from_dt":6.45},{"city":"Hull","state_name":"Georgia","lat":34.08011,"lng":-83.31254,"zip":"30646","miles_from_dt":6.6},{"city":"Athens","state_name":"Georgia","lat":34.00032,"lng":-83.34851,"zip":"30601","miles_from_dt":8.03},{"city":"Crawford","state_name":"Georgia","lat":33.89894,"lng":-83.14366,"zip":"30630","miles_from_dt":9.96},{"city":"Danielsville","state_name":"Georgia","lat":34.17896,"lng":-83.24612,"zip":"30633","miles_from_dt":10.36},{"city":"Athens","state_name":"Georgia","lat":33.95962,"lng":-83.37699,"zip":"30608","miles_from_dt":10.59},{"city":"Athens","state_name":"Georgia","lat":33.95929,"lng":-83.37689,"zip":"30603","miles_from_dt":10.6},{"city":"Athens","state_name":"Georgia","lat":33.90551,"lng":-83.32405,"zip":"30605","miles_from_dt":10.73},{"city":"Ila","state_name":"Georgia","lat":34.17269,"lng":-83.29241,"zip":"30647","miles_from_dt":10.75},{"city":"Athens","state_name":"Georgia","lat":33.94252,"lng":-83.37256,"zip":"30602","miles_from_dt":10.98},{"city":"Athens","state_name":"Georgia","lat":33.93289,"lng":-83.37223,"zip":"30609","miles_from_dt":11.35},{"city":"Athens","state_name":"Georgia","lat":33.95563,"lng":-83.3931,"zip":"30612","miles_from_dt":11.54},{"city":"Nicholson","state_name":"Georgia","lat":34.08802,"lng":-83.41203,"zip":"30565","miles_from_dt":12.04},{"city":"Arnoldsville","state_name":"Georgia","lat":33.85752,"lng":-83.2403,"zip":"30619","miles_from_dt":12.06},{"city":"Athens","state_name":"Georgia","lat":34.01895,"lng":-83.44774,"zip":"30607","miles_from_dt":13.46},{"city":"Athens","state_name":"Georgia","lat":33.93873,"lng":-83.43305,"zip":"30606","miles_from_dt":14.12},{"city":"Bowman","state_name":"Georgia","lat":34.18097,"lng":-83.03885,"zip":"30624","miles_from_dt":14.39},{"city":"Carlton","state_name":"Georgia","lat":33.98264,"lng":-82.96265,"zip":"30627","miles_from_dt":14.79},{"city":"Lexington","state_name":"Georgia","lat":33.87577,"lng":-83.03319,"zip":"30648","miles_from_dt":14.9},{"city":"Athens","state_name":"Georgia","lat":34.00684,"lng":-83.49323,"zip":"30604","miles_from_dt":16.13},{"city":"Royston","state_name":"Georgia","lat":34.26383,"lng":-83.14624,"zip":"30662","miles_from_dt":16.5},{"city":"Commerce","state_name":"Georgia","lat":34.22691,"lng":-83.38433,"zip":"30530","miles_from_dt":16.67},{"city":"Stephens","state_name":"Georgia","lat":33.78526,"lng":-83.16634,"zip":"30667","miles_from_dt":17.16},{"city":"Franklin Springs","state_name":"Georgia","lat":34.28283,"lng":-83.15232,"zip":"30639","miles_from_dt":17.7},{"city":"Commerce","state_name":"Georgia","lat":34.2052,"lng":-83.46061,"zip":"30599","miles_from_dt":18.56},{"city":"Maxeys","state_name":"Georgia","lat":33.77287,"lng":-83.10717,"zip":"30671","miles_from_dt":18.82},{"city":"Watkinsville","state_name":"Georgia","lat":33.7929,"lng":-83.38186,"zip":"30677","miles_from_dt":19.05},{"city":"Dewy Rose","state_name":"Georgia","lat":34.20307,"lng":-82.94522,"zip":"30634","miles_from_dt":19.42},{"city":"Bogart","state_name":"Georgia","lat":33.92041,"lng":-83.53076,"zip":"30622","miles_from_dt":19.74},{"city":"Commerce","state_name":"Georgia","lat":34.2155,"lng":-83.482,"zip":"30529","miles_from_dt":19.95},{"city":"Jefferson","state_name":"Georgia","lat":34.10731,"lng":-83.57684,"zip":"30549","miles_from_dt":21.48},{"city":"Farmington","state_name":"Georgia","lat":33.77004,"lng":-83.42241,"zip":"30638","miles_from_dt":21.63},{"city":"Statham","state_name":"Georgia","lat":33.95891,"lng":-83.58266,"zip":"30666","miles_from_dt":21.76},{"city":"Bishop","state_name":"Georgia","lat":33.80194,"lng":-83.4791,"zip":"30621","miles_from_dt":21.96},{"city":"High Shoals","state_name":"Georgia","lat":33.82076,"lng":-83.50247,"zip":"30645","miles_from_dt":22.04},{"city":"Canon","state_name":"Georgia","lat":34.33833,"lng":-83.08661,"zip":"30520","miles_from_dt":22.39},{"city":"Rayle","state_name":"Georgia","lat":33.78237,"lng":-82.94369,"zip":"30660","miles_from_dt":23.12},{"city":"Carnesville","state_name":"Georgia","lat":34.36202,"lng":-83.29355,"zip":"30521","miles_from_dt":23.26},{"city":"Elberton","state_name":"Georgia","lat":34.10346,"lng":-82.80145,"zip":"30635","miles_from_dt":24.16},{"city":"Union Point","state_name":"Georgia","lat":33.67159,"lng":-83.11187,"zip":"30669","miles_from_dt":25.46},{"city":"Bowersville","state_name":"Georgia","lat":34.37535,"lng":-83.03748,"zip":"30516","miles_from_dt":25.78},{"city":"Maysville","state_name":"Georgia","lat":34.2683,"lng":-83.56787,"zip":"30558","miles_from_dt":26.06},{"city":"Homer","state_name":"Georgia","lat":34.35737,"lng":-83.46095,"zip":"30547","miles_from_dt":26.57},{"city":"Good Hope","state_name":"Georgia","lat":33.77872,"lng":-83.56456,"zip":"30641","miles_from_dt":26.63},{"city":"Bostwick","state_name":"Georgia","lat":33.73113,"lng":-83.51592,"zip":"30623","miles_from_dt":27.01},{"city":"Winder","state_name":"Georgia","lat":33.99725,"lng":-83.69743,"zip":"30680","miles_from_dt":27.87},{"city":"Hartwell","state_name":"Georgia","lat":34.36464,"lng":-82.91143,"zip":"30643","miles_from_dt":28.77},{"city":"Pendergrass","state_name":"Georgia","lat":34.18326,"lng":-83.6814,"zip":"30567","miles_from_dt":28.79},{"city":"Lavonia","state_name":"Georgia","lat":34.44473,"lng":-83.08771,"zip":"30553","miles_from_dt":29.4}],"targetCityZipCode":"30628","targetCityState":"Georgia"},"__N_SSG":true}