{"pageProps":{"stateName":"Georgia","cityName":"danville","nearbyCities":[{"city":"Allentown","state_name":"Georgia","lat":32.59688,"lng":-83.22299,"zip":"31003","miles_from_dt":1.75},{"city":"Montrose","state_name":"Georgia","lat":32.56301,"lng":-83.16642,"zip":"31065","miles_from_dt":5.56},{"city":"Jeffersonville","state_name":"Georgia","lat":32.66857,"lng":-83.37612,"zip":"31044","miles_from_dt":8.97},{"city":"Irwinton","state_name":"Georgia","lat":32.74421,"lng":-83.16964,"zip":"31042","miles_from_dt":9.28},{"city":"Dudley","state_name":"Georgia","lat":32.51216,"lng":-83.10954,"zip":"31022","miles_from_dt":10.39},{"city":"Cochran","state_name":"Georgia","lat":32.41439,"lng":-83.34504,"zip":"31014","miles_from_dt":15.65},{"city":"Dry Branch","state_name":"Georgia","lat":32.65376,"lng":-83.501,"zip":"31020","miles_from_dt":15.79},{"city":"Chester","state_name":"Georgia","lat":32.39422,"lng":-83.17717,"zip":"31012","miles_from_dt":15.95},{"city":"Toomsboro","state_name":"Georgia","lat":32.79599,"lng":-83.0512,"zip":"31090","miles_from_dt":16.06},{"city":"Dexter","state_name":"Georgia","lat":32.42622,"lng":-83.0534,"zip":"31019","miles_from_dt":17.02},{"city":"McIntyre","state_name":"Georgia","lat":32.88214,"lng":-83.20723,"zip":"31054","miles_from_dt":18.08},{"city":"Gordon","state_name":"Georgia","lat":32.87424,"lng":-83.32555,"zip":"31031","miles_from_dt":18.28},{"city":"Dublin","state_name":"Georgia","lat":32.49002,"lng":-82.93435,"zip":"31021","miles_from_dt":19.62},{"city":"Warner Robins","state_name":"Georgia","lat":32.61898,"lng":-83.57357,"zip":"31098","miles_from_dt":19.86},{"city":"Dublin","state_name":"Georgia","lat":32.54794,"lng":-82.90164,"zip":"31040","miles_from_dt":19.97},{"city":"Warner Robins","state_name":"Georgia","lat":32.61964,"lng":-83.59943,"zip":"31095","miles_from_dt":21.37},{"city":"Bonaire","state_name":"Georgia","lat":32.54533,"lng":-83.59497,"zip":"31005","miles_from_dt":21.74},{"city":"Macon","state_name":"Georgia","lat":32.84506,"lng":-83.50568,"zip":"31217","miles_from_dt":22.16},{"city":"Oconee","state_name":"Georgia","lat":32.85229,"lng":-82.96471,"zip":"31067","miles_from_dt":22.33},{"city":"Kathleen","state_name":"Georgia","lat":32.46786,"lng":-83.58009,"zip":"31047","miles_from_dt":22.83},{"city":"Warner Robins","state_name":"Georgia","lat":32.64314,"lng":-83.63447,"zip":"31099","miles_from_dt":23.46},{"city":"Macon","state_name":"Georgia","lat":32.8087,"lng":-83.5695,"zip":"31296","miles_from_dt":23.49},{"city":"Macon","state_name":"Georgia","lat":32.81058,"lng":-83.57104,"zip":"31295","miles_from_dt":23.64},{"city":"East Dublin","state_name":"Georgia","lat":32.57405,"lng":-82.81959,"zip":"31027","miles_from_dt":24.33},{"city":"Rentz","state_name":"Georgia","lat":32.35428,"lng":-82.95277,"zip":"31075","miles_from_dt":24.6},{"city":"Warner Robins","state_name":"Georgia","lat":32.58587,"lng":-83.65528,"zip":"31088","miles_from_dt":24.74},{"city":"Warner Robins","state_name":"Georgia","lat":32.64815,"lng":-83.65688,"zip":"31093","miles_from_dt":24.78},{"city":"Macon","state_name":"Georgia","lat":32.81433,"lng":-83.61846,"zip":"31201","miles_from_dt":26.12},{"city":"Centerville","state_name":"Georgia","lat":32.63164,"lng":-83.68459,"zip":"31028","miles_from_dt":26.34},{"city":"Macon","state_name":"Georgia","lat":32.75017,"lng":-83.66114,"zip":"31205","miles_from_dt":26.49},{"city":"Tennille","state_name":"Georgia","lat":32.85239,"lng":-82.86361,"zip":"31089","miles_from_dt":26.79},{"city":"Macon","state_name":"Georgia","lat":32.72885,"lng":-83.67914,"zip":"31216","miles_from_dt":27.04},{"city":"Cadwell","state_name":"Georgia","lat":32.27636,"lng":-83.00564,"zip":"31009","miles_from_dt":27.2},{"city":"Macon","state_name":"Georgia","lat":32.83405,"lng":-83.63221,"zip":"31202","miles_from_dt":27.51},{"city":"Macon","state_name":"Georgia","lat":32.83749,"lng":-83.63235,"zip":"31294","miles_from_dt":27.64},{"city":"Macon","state_name":"Georgia","lat":32.83118,"lng":-83.63993,"zip":"31208","miles_from_dt":27.78},{"city":"Macon","state_name":"Georgia","lat":32.84009,"lng":-83.63937,"zip":"31213","miles_from_dt":28.08},{"city":"Macon","state_name":"Georgia","lat":32.82859,"lng":-83.64928,"zip":"31207","miles_from_dt":28.16},{"city":"Hawkinsville","state_name":"Georgia","lat":32.27055,"lng":-83.49597,"zip":"31036","miles_from_dt":28.61},{"city":"Macon","state_name":"Georgia","lat":32.79383,"lng":-83.6832,"zip":"31206","miles_from_dt":28.81},{"city":"Milledgeville","state_name":"Georgia","lat":33.04336,"lng":-83.21563,"zip":"31062","miles_from_dt":29.14},{"city":"Macon","state_name":"Georgia","lat":32.90665,"lng":-83.60435,"zip":"31211","miles_from_dt":29.25},{"city":"Macon","state_name":"Georgia","lat":32.80886,"lng":-83.69068,"zip":"31297","miles_from_dt":29.64},{"city":"Hardwick","state_name":"Georgia","lat":33.05473,"lng":-83.22538,"zip":"31034","miles_from_dt":29.91}],"targetCityZipCode":"31017","targetCityState":"Georgia"},"__N_SSG":true}