{"pageProps":{"stateName":"Georgia","cityName":"emerson","nearbyCities":[{"city":"Acworth","state_name":"Georgia","lat":34.04355,"lng":-84.71244,"zip":"30101","miles_from_dt":5.89},{"city":"Cartersville","state_name":"Georgia","lat":34.16639,"lng":-84.85597,"zip":"30120","miles_from_dt":6.21},{"city":"Cartersville","state_name":"Georgia","lat":34.21073,"lng":-84.77802,"zip":"30121","miles_from_dt":6.53},{"city":"Acworth","state_name":"Georgia","lat":34.10857,"lng":-84.64622,"zip":"30102","miles_from_dt":6.87},{"city":"Dallas","state_name":"Georgia","lat":33.99042,"lng":-84.85279,"zip":"30132","miles_from_dt":10.03},{"city":"White","state_name":"Georgia","lat":34.26042,"lng":-84.71603,"zip":"30184","miles_from_dt":10.32},{"city":"Cassville","state_name":"Georgia","lat":34.24806,"lng":-84.85599,"zip":"30123","miles_from_dt":10.44},{"city":"Kennesaw","state_name":"Georgia","lat":33.99435,"lng":-84.6474,"zip":"30152","miles_from_dt":10.82},{"city":"Kennesaw","state_name":"Georgia","lat":33.99,"lng":-84.65219,"zip":"30160","miles_from_dt":10.89},{"city":"Kennesaw","state_name":"Georgia","lat":33.99,"lng":-84.65219,"zip":"30156","miles_from_dt":10.89},{"city":"Woodstock","state_name":"Georgia","lat":34.12835,"lng":-84.57148,"zip":"30189","miles_from_dt":11.16},{"city":"Kennesaw","state_name":"Georgia","lat":34.03672,"lng":-84.59174,"zip":"30144","miles_from_dt":11.39},{"city":"Taylorsville","state_name":"Georgia","lat":34.09709,"lng":-84.97051,"zip":"30178","miles_from_dt":11.82},{"city":"Marietta","state_name":"Georgia","lat":33.93809,"lng":-84.61691,"zip":"30064","miles_from_dt":14.97},{"city":"Kingston","state_name":"Georgia","lat":34.24177,"lng":-84.98076,"zip":"30145","miles_from_dt":15.04},{"city":"Canton","state_name":"Georgia","lat":34.24433,"lng":-84.5393,"zip":"30114","miles_from_dt":15.68},{"city":"Marietta","state_name":"Georgia","lat":34.034,"lng":-84.50798,"zip":"30066","miles_from_dt":15.84},{"city":"Holly Springs","state_name":"Georgia","lat":34.17547,"lng":-84.49804,"zip":"30142","miles_from_dt":15.87},{"city":"Marietta","state_name":"Georgia","lat":33.96331,"lng":-84.55106,"zip":"30007","miles_from_dt":16.23},{"city":"Canton","state_name":"Georgia","lat":34.24724,"lng":-84.52159,"zip":"30169","miles_from_dt":16.63},{"city":"Marietta","state_name":"Georgia","lat":33.953,"lng":-84.54837,"zip":"30090","miles_from_dt":16.81},{"city":"Rydal","state_name":"Georgia","lat":34.36122,"lng":-84.73584,"zip":"30171","miles_from_dt":16.95},{"city":"Dallas","state_name":"Georgia","lat":33.88641,"lng":-84.8731,"zip":"30157","miles_from_dt":17.02},{"city":"Powder Springs","state_name":"Georgia","lat":33.87647,"lng":-84.69648,"zip":"30127","miles_from_dt":17.02},{"city":"Marietta","state_name":"Georgia","lat":33.95373,"lng":-84.54116,"zip":"30006","miles_from_dt":17.09},{"city":"Hiram","state_name":"Georgia","lat":33.86244,"lng":-84.77521,"zip":"30141","miles_from_dt":17.52},{"city":"Aragon","state_name":"Georgia","lat":34.0879,"lng":-85.06982,"zip":"30104","miles_from_dt":17.55},{"city":"Woodstock","state_name":"Georgia","lat":34.11873,"lng":-84.45526,"zip":"30188","miles_from_dt":17.8},{"city":"Waleska","state_name":"Georgia","lat":34.33854,"lng":-84.59762,"zip":"30183","miles_from_dt":18.07},{"city":"Marietta","state_name":"Georgia","lat":33.8966,"lng":-84.58847,"zip":"30008","miles_from_dt":18.26},{"city":"Marietta","state_name":"Georgia","lat":33.9209,"lng":-84.543,"zip":"30060","miles_from_dt":18.58},{"city":"Marietta","state_name":"Georgia","lat":33.92008,"lng":-84.54407,"zip":"30061","miles_from_dt":18.58},{"city":"Marietta","state_name":"Georgia","lat":33.99977,"lng":-84.46899,"zip":"30062","miles_from_dt":18.83},{"city":"Marietta","state_name":"Georgia","lat":33.92851,"lng":-84.52209,"zip":"30063","miles_from_dt":19.06},{"city":"Marietta","state_name":"Georgia","lat":34.04721,"lng":-84.44248,"zip":"30065","miles_from_dt":19.14},{"city":"Lebanon","state_name":"Georgia","lat":34.22525,"lng":-84.4583,"zip":"30146","miles_from_dt":19.14},{"city":"Adairsville","state_name":"Georgia","lat":34.36457,"lng":-84.92014,"zip":"30103","miles_from_dt":19.24},{"city":"Rockmart","state_name":"Georgia","lat":33.96678,"lng":-85.05425,"zip":"30153","miles_from_dt":19.51},{"city":"Marietta","state_name":"Georgia","lat":33.91691,"lng":-84.51797,"zip":"30069","miles_from_dt":19.79},{"city":"Clarkdale","state_name":"Georgia","lat":33.8318,"lng":-84.65499,"zip":"30111","miles_from_dt":20.63},{"city":"Austell","state_name":"Georgia","lat":33.83476,"lng":-84.62947,"zip":"30106","miles_from_dt":20.94},{"city":"Marietta","state_name":"Georgia","lat":33.93286,"lng":-84.46187,"zip":"30067","miles_from_dt":21.55},{"city":"Silver Creek","state_name":"Georgia","lat":34.13541,"lng":-85.14217,"zip":"30173","miles_from_dt":21.62},{"city":"Marietta","state_name":"Georgia","lat":33.96887,"lng":-84.43273,"zip":"30068","miles_from_dt":21.65},{"city":"Canton","state_name":"Georgia","lat":34.21296,"lng":-84.40138,"zip":"30115","miles_from_dt":21.91},{"city":"Fairmount","state_name":"Georgia","lat":34.43346,"lng":-84.70575,"zip":"30139","miles_from_dt":22.11},{"city":"Roswell","state_name":"Georgia","lat":34.05282,"lng":-84.38739,"zip":"30075","miles_from_dt":22.14},{"city":"Smyrna","state_name":"Georgia","lat":33.87002,"lng":-84.51826,"zip":"30081","miles_from_dt":22.15},{"city":"Smyrna","state_name":"Georgia","lat":33.87864,"lng":-84.5053,"zip":"30080","miles_from_dt":22.19},{"city":"Smyrna","state_name":"Georgia","lat":33.85517,"lng":-84.5373,"zip":"30082","miles_from_dt":22.28},{"city":"Rome","state_name":"Georgia","lat":34.24631,"lng":-85.12771,"zip":"30162","miles_from_dt":22.58},{"city":"Atlanta","state_name":"Georgia","lat":33.89746,"lng":-84.45155,"zip":"30384","miles_from_dt":23.52},{"city":"Douglasville","state_name":"Georgia","lat":33.77436,"lng":-84.78241,"zip":"30134","miles_from_dt":23.61},{"city":"Shannon","state_name":"Georgia","lat":34.34307,"lng":-85.08376,"zip":"30172","miles_from_dt":23.99},{"city":"Mableton","state_name":"Georgia","lat":33.81588,"lng":-84.55171,"zip":"30126","miles_from_dt":24.09},{"city":"Roswell","state_name":"Georgia","lat":34.04033,"lng":-84.35459,"zip":"30077","miles_from_dt":24.16},{"city":"Atlanta","state_name":"Georgia","lat":33.86786,"lng":-84.46483,"zip":"30339","miles_from_dt":24.34},{"city":"Rome","state_name":"Georgia","lat":34.23758,"lng":-85.17319,"zip":"30161","miles_from_dt":24.79},{"city":"Atlanta","state_name":"Georgia","lat":33.93452,"lng":-84.38865,"zip":"30358","miles_from_dt":25.01},{"city":"Austell","state_name":"Georgia","lat":33.78354,"lng":-84.58765,"zip":"30168","miles_from_dt":25.13},{"city":"Atlanta","state_name":"Georgia","lat":33.93194,"lng":-84.38617,"zip":"30328","miles_from_dt":25.23},{"city":"Atlanta","state_name":"Georgia","lat":33.95996,"lng":-84.36491,"zip":"31156","miles_from_dt":25.4},{"city":"Lithia Springs","state_name":"Georgia","lat":33.76329,"lng":-84.6386,"zip":"30122","miles_from_dt":25.42},{"city":"Douglasville","state_name":"Georgia","lat":33.74428,"lng":-84.74696,"zip":"30154","miles_from_dt":25.68},{"city":"Lindale","state_name":"Georgia","lat":34.13751,"lng":-85.21877,"zip":"30147","miles_from_dt":26.01},{"city":"Plainville","state_name":"Georgia","lat":34.41574,"lng":-85.04349,"zip":"30733","miles_from_dt":26.04},{"city":"Atlanta","state_name":"Georgia","lat":33.86708,"lng":-84.42358,"zip":"30327","miles_from_dt":26.11},{"city":"Roswell","state_name":"Georgia","lat":34.02777,"lng":-84.31723,"zip":"30076","miles_from_dt":26.44},{"city":"Atlanta","state_name":"Georgia","lat":33.98237,"lng":-84.33368,"zip":"31150","miles_from_dt":26.46},{"city":"Atlanta","state_name":"Georgia","lat":33.97881,"lng":-84.33366,"zip":"30350","miles_from_dt":26.54},{"city":"Douglasville","state_name":"Georgia","lat":33.73502,"lng":-84.70208,"zip":"30133","miles_from_dt":26.55},{"city":"Alpharetta","state_name":"Georgia","lat":34.07711,"lng":-84.3029,"zip":"30009","miles_from_dt":26.68},{"city":"Alpharetta","state_name":"Georgia","lat":34.14352,"lng":-84.29926,"zip":"30004","miles_from_dt":26.8},{"city":"Atlanta","state_name":"Georgia","lat":33.80789,"lng":-84.47493,"zip":"31196","miles_from_dt":27.05},{"city":"Atlanta","state_name":"Georgia","lat":33.80607,"lng":-84.47752,"zip":"31195","miles_from_dt":27.05},{"city":"Temple","state_name":"Georgia","lat":33.78088,"lng":-85.01961,"zip":"30179","miles_from_dt":27.35},{"city":"Atlanta","state_name":"Georgia","lat":33.80358,"lng":-84.47134,"zip":"30369","miles_from_dt":27.41},{"city":"Atlanta","state_name":"Georgia","lat":33.94736,"lng":-84.33079,"zip":"30356","miles_from_dt":27.55},{"city":"Atlanta","state_name":"Georgia","lat":33.75762,"lng":-84.55068,"zip":"30378","miles_from_dt":27.65},{"city":"Atlanta","state_name":"Georgia","lat":33.88227,"lng":-84.37429,"zip":"30342","miles_from_dt":27.67},{"city":"Atlanta","state_name":"Georgia","lat":33.92544,"lng":-84.34121,"zip":"31146","miles_from_dt":27.7},{"city":"Atlanta","state_name":"Georgia","lat":33.8559,"lng":-84.3953,"zip":"30301","miles_from_dt":27.84},{"city":"Atlanta","state_name":"Georgia","lat":33.92425,"lng":-84.33881,"zip":"30346","miles_from_dt":27.86},{"city":"Calhoun","state_name":"Georgia","lat":34.49535,"lng":-84.95385,"zip":"30701","miles_from_dt":28.24},{"city":"Ball Ground","state_name":"Georgia","lat":34.3352,"lng":-84.34744,"zip":"30107","miles_from_dt":28.29},{"city":"Atlanta","state_name":"Georgia","lat":33.9437,"lng":-84.31801,"zip":"30338","miles_from_dt":28.32},{"city":"Atlanta","state_name":"Georgia","lat":33.73718,"lng":-84.56768,"zip":"30336","miles_from_dt":28.52},{"city":"Alpharetta","state_name":"Georgia","lat":34.06763,"lng":-84.27115,"zip":"30023","miles_from_dt":28.56},{"city":"Calhoun","state_name":"Georgia","lat":34.50135,"lng":-84.95382,"zip":"30703","miles_from_dt":28.62},{"city":"Villa Rica","state_name":"Georgia","lat":33.72018,"lng":-84.91956,"zip":"30180","miles_from_dt":28.72},{"city":"Atlanta","state_name":"Georgia","lat":33.79305,"lng":-84.45011,"zip":"30377","miles_from_dt":28.74},{"city":"Rome","state_name":"Georgia","lat":34.27643,"lng":-85.23108,"zip":"30164","miles_from_dt":28.84},{"city":"Atlanta","state_name":"Georgia","lat":33.79235,"lng":-84.44831,"zip":"30318","miles_from_dt":28.84},{"city":"Atlanta","state_name":"Georgia","lat":33.83533,"lng":-84.39267,"zip":"30348","miles_from_dt":28.89},{"city":"Atlanta","state_name":"Georgia","lat":33.79199,"lng":-84.44728,"zip":"30325","miles_from_dt":28.9},{"city":"Ranger","state_name":"Georgia","lat":34.53361,"lng":-84.71346,"zip":"30734","miles_from_dt":28.9},{"city":"Atlanta","state_name":"Georgia","lat":33.83518,"lng":-84.38931,"zip":"30305","miles_from_dt":29.04},{"city":"Mount Berry","state_name":"Georgia","lat":34.31107,"lng":-85.21691,"zip":"30149","miles_from_dt":29.11},{"city":"Nelson","state_name":"Georgia","lat":34.3824,"lng":-84.3693,"zip":"30151","miles_from_dt":29.16},{"city":"Atlanta","state_name":"Georgia","lat":33.72004,"lng":-84.58739,"zip":"31136","miles_from_dt":29.19},{"city":"Atlanta","state_name":"Georgia","lat":33.84957,"lng":-84.36342,"zip":"30326","miles_from_dt":29.53},{"city":"Atlanta","state_name":"Georgia","lat":33.87875,"lng":-84.33596,"zip":"30319","miles_from_dt":29.62},{"city":"Atlanta","state_name":"Georgia","lat":33.84792,"lng":-84.35905,"zip":"31126","miles_from_dt":29.8},{"city":"Esom Hill","state_name":"Georgia","lat":34.0018,"lng":-85.26819,"zip":"30138","miles_from_dt":29.89}],"targetCityZipCode":"30137","targetCityState":"Georgia"},"__N_SSG":true}