{"pageProps":{"stateName":"Georgia","cityName":"hiawassee","nearbyCities":[{"city":"Hayesville","state_name":"North Carolina","lat":35.06185,"lng":-83.73041,"zip":"28904","miles_from_dt":10.75},{"city":"Young Harris","state_name":"Georgia","lat":34.9494,"lng":-83.89869,"zip":"30582","miles_from_dt":11.1},{"city":"Helen","state_name":"Georgia","lat":34.74208,"lng":-83.75813,"zip":"30545","miles_from_dt":11.67},{"city":"Warne","state_name":"North Carolina","lat":35.00125,"lng":-83.90319,"zip":"28909","miles_from_dt":12.75},{"city":"Sautee Nacoochee","state_name":"Georgia","lat":34.71219,"lng":-83.68322,"zip":"30571","miles_from_dt":13.5},{"city":"Buford","state_name":"Georgia","lat":34.87613,"lng":-83.95281,"zip":"30515","miles_from_dt":13.94},{"city":"Blairsville","state_name":"Georgia","lat":34.87613,"lng":-83.95281,"zip":"30514","miles_from_dt":13.94},{"city":"Blairsville","state_name":"Georgia","lat":34.85667,"lng":-83.97204,"zip":"30512","miles_from_dt":15.27},{"city":"Tiger","state_name":"Georgia","lat":34.82682,"lng":-83.44539,"zip":"30576","miles_from_dt":16.02},{"city":"Clarkesville","state_name":"Georgia","lat":34.72012,"lng":-83.54166,"zip":"30523","miles_from_dt":16.04},{"city":"Brasstown","state_name":"North Carolina","lat":35.02503,"lng":-83.9571,"zip":"28902","miles_from_dt":16.21},{"city":"Rabun Gap","state_name":"Georgia","lat":34.95348,"lng":-83.41218,"zip":"30568","miles_from_dt":17.22},{"city":"Lakemont","state_name":"Georgia","lat":34.76965,"lng":-83.44575,"zip":"30552","miles_from_dt":17.75},{"city":"Wiley","state_name":"Georgia","lat":34.80195,"lng":-83.42405,"zip":"30581","miles_from_dt":17.79},{"city":"Otto","state_name":"North Carolina","lat":35.03796,"lng":-83.43215,"zip":"28763","miles_from_dt":18.18},{"city":"Turnerville","state_name":"Georgia","lat":34.68976,"lng":-83.52623,"zip":"30580","miles_from_dt":18.25},{"city":"Mountain City","state_name":"Georgia","lat":34.91937,"lng":-83.38177,"zip":"30562","miles_from_dt":18.67},{"city":"Clayton","state_name":"Georgia","lat":34.91289,"lng":-83.35853,"zip":"30525","miles_from_dt":19.97},{"city":"Cleveland","state_name":"Georgia","lat":34.6083,"lng":-83.77589,"zip":"30528","miles_from_dt":20.91},{"city":"Tallulah Falls","state_name":"Georgia","lat":34.74242,"lng":-83.39986,"zip":"30573","miles_from_dt":20.96},{"city":"Andrews","state_name":"North Carolina","lat":35.20127,"lng":-83.80506,"zip":"28901","miles_from_dt":21},{"city":"Topton","state_name":"North Carolina","lat":35.21417,"lng":-83.63877,"zip":"28781","miles_from_dt":21.58},{"city":"Marble","state_name":"North Carolina","lat":35.1631,"lng":-83.9409,"zip":"28905","miles_from_dt":21.99},{"city":"Dillard","state_name":"Georgia","lat":34.97855,"lng":-83.32975,"zip":"30537","miles_from_dt":22.15},{"city":"Scaly Mountain","state_name":"North Carolina","lat":35.01916,"lng":-83.32186,"zip":"28775","miles_from_dt":23.36},{"city":"Demorest","state_name":"Georgia","lat":34.58063,"lng":-83.57652,"zip":"30535","miles_from_dt":23.73},{"city":"Suches","state_name":"Georgia","lat":34.73539,"lng":-84.07364,"zip":"30572","miles_from_dt":23.8},{"city":"Franklin","state_name":"North Carolina","lat":35.1825,"lng":-83.42599,"zip":"28734","miles_from_dt":24.92},{"city":"Long Creek","state_name":"South Carolina","lat":34.76191,"lng":-83.29858,"zip":"29658","miles_from_dt":25.43},{"city":"Franklin","state_name":"North Carolina","lat":35.18074,"lng":-83.38166,"zip":"28744","miles_from_dt":26.53},{"city":"Culberson","state_name":"North Carolina","lat":34.98995,"lng":-84.16769,"zip":"28903","miles_from_dt":26.6},{"city":"Morganton","state_name":"Georgia","lat":34.87785,"lng":-84.19528,"zip":"30560","miles_from_dt":27.63},{"city":"Mount Airy","state_name":"Georgia","lat":34.5596,"lng":-83.46283,"zip":"30563","miles_from_dt":27.76},{"city":"Murphy","state_name":"North Carolina","lat":35.11873,"lng":-84.13343,"zip":"28906","miles_from_dt":28.1},{"city":"Cornelia","state_name":"Georgia","lat":34.51017,"lng":-83.59103,"zip":"30531","miles_from_dt":28.16},{"city":"Dahlonega","state_name":"Georgia","lat":34.57344,"lng":-84.01576,"zip":"30533","miles_from_dt":28.81},{"city":"Toccoa Falls","state_name":"Georgia","lat":34.59663,"lng":-83.35411,"zip":"30598","miles_from_dt":29.45},{"city":"Clermont","state_name":"Georgia","lat":34.47948,"lng":-83.7863,"zip":"30527","miles_from_dt":29.77}],"targetCityZipCode":"30546","targetCityState":"Georgia"},"__N_SSG":true}