{"pageProps":{"stateName":"Georgia","cityName":"high-shoals","nearbyCities":[{"city":"Bishop","state_name":"Georgia","lat":33.80194,"lng":-83.4791,"zip":"30621","miles_from_dt":1.87},{"city":"Good Hope","state_name":"Georgia","lat":33.77872,"lng":-83.56456,"zip":"30641","miles_from_dt":4.6},{"city":"Farmington","state_name":"Georgia","lat":33.77004,"lng":-83.42241,"zip":"30638","miles_from_dt":5.78},{"city":"Bostwick","state_name":"Georgia","lat":33.73113,"lng":-83.51592,"zip":"30623","miles_from_dt":6.23},{"city":"Bogart","state_name":"Georgia","lat":33.92041,"lng":-83.53076,"zip":"30622","miles_from_dt":7.06},{"city":"Watkinsville","state_name":"Georgia","lat":33.7929,"lng":-83.38186,"zip":"30677","miles_from_dt":7.2},{"city":"Athens","state_name":"Georgia","lat":33.93873,"lng":-83.43305,"zip":"30606","miles_from_dt":9.06},{"city":"Statham","state_name":"Georgia","lat":33.95891,"lng":-83.58266,"zip":"30666","miles_from_dt":10.58},{"city":"Athens","state_name":"Georgia","lat":33.93289,"lng":-83.37223,"zip":"30609","miles_from_dt":10.76},{"city":"Monroe","state_name":"Georgia","lat":33.78214,"lng":-83.69072,"zip":"30655","miles_from_dt":11.15},{"city":"Athens","state_name":"Georgia","lat":33.95563,"lng":-83.3931,"zip":"30612","miles_from_dt":11.22},{"city":"Athens","state_name":"Georgia","lat":33.94252,"lng":-83.37256,"zip":"30602","miles_from_dt":11.23},{"city":"Athens","state_name":"Georgia","lat":33.90551,"lng":-83.32405,"zip":"30605","miles_from_dt":11.81},{"city":"Athens","state_name":"Georgia","lat":33.95929,"lng":-83.37689,"zip":"30603","miles_from_dt":11.97},{"city":"Athens","state_name":"Georgia","lat":33.95962,"lng":-83.37699,"zip":"30608","miles_from_dt":11.98},{"city":"Monroe","state_name":"Georgia","lat":33.86302,"lng":-83.71903,"zip":"30656","miles_from_dt":12.79},{"city":"Athens","state_name":"Georgia","lat":34.00684,"lng":-83.49323,"zip":"30604","miles_from_dt":12.84},{"city":"Athens","state_name":"Georgia","lat":34.01895,"lng":-83.44774,"zip":"30607","miles_from_dt":14.02},{"city":"Athens","state_name":"Georgia","lat":34.00032,"lng":-83.34851,"zip":"30601","miles_from_dt":15.21},{"city":"Rutledge","state_name":"Georgia","lat":33.61572,"lng":-83.60357,"zip":"30663","miles_from_dt":15.28},{"city":"Arnoldsville","state_name":"Georgia","lat":33.85752,"lng":-83.2403,"zip":"30619","miles_from_dt":15.29},{"city":"Social Circle","state_name":"Georgia","lat":33.65689,"lng":-83.69869,"zip":"30025","miles_from_dt":15.98},{"city":"Madison","state_name":"Georgia","lat":33.5907,"lng":-83.46693,"zip":"30650","miles_from_dt":15.99},{"city":"Winder","state_name":"Georgia","lat":33.99725,"lng":-83.69743,"zip":"30680","miles_from_dt":16.54},{"city":"Winterville","state_name":"Georgia","lat":33.94703,"lng":-83.25775,"zip":"30683","miles_from_dt":16.54},{"city":"Bethlehem","state_name":"Georgia","lat":33.92917,"lng":-83.75958,"zip":"30620","miles_from_dt":16.56},{"city":"Jersey","state_name":"Georgia","lat":33.71737,"lng":-83.80034,"zip":"30018","miles_from_dt":18.57},{"city":"Nicholson","state_name":"Georgia","lat":34.08802,"lng":-83.41203,"zip":"30565","miles_from_dt":19.14},{"city":"Stephens","state_name":"Georgia","lat":33.78526,"lng":-83.16634,"zip":"30667","miles_from_dt":19.49},{"city":"Jefferson","state_name":"Georgia","lat":34.10731,"lng":-83.57684,"zip":"30549","miles_from_dt":20.21},{"city":"Hull","state_name":"Georgia","lat":34.08011,"lng":-83.31254,"zip":"30646","miles_from_dt":20.94},{"city":"Crawford","state_name":"Georgia","lat":33.89894,"lng":-83.14366,"zip":"30630","miles_from_dt":21.32},{"city":"Colbert","state_name":"Georgia","lat":34.03115,"lng":-83.21364,"zip":"30628","miles_from_dt":22.04},{"city":"Loganville","state_name":"Georgia","lat":33.81654,"lng":-83.89538,"zip":"30052","miles_from_dt":22.6},{"city":"Buckhead","state_name":"Georgia","lat":33.52128,"lng":-83.34211,"zip":"30625","miles_from_dt":22.61},{"city":"Maxeys","state_name":"Georgia","lat":33.77287,"lng":-83.10717,"zip":"30671","miles_from_dt":22.98},{"city":"Oxford","state_name":"Georgia","lat":33.67651,"lng":-83.87558,"zip":"30054","miles_from_dt":23.67},{"city":"Auburn","state_name":"Georgia","lat":34.02281,"lng":-83.8364,"zip":"30011","miles_from_dt":23.71},{"city":"Newborn","state_name":"Georgia","lat":33.49496,"lng":-83.65068,"zip":"30056","miles_from_dt":24.02},{"city":"Hoschton","state_name":"Georgia","lat":34.09311,"lng":-83.7646,"zip":"30548","miles_from_dt":24.06},{"city":"Dacula","state_name":"Georgia","lat":33.97642,"lng":-83.88252,"zip":"30019","miles_from_dt":24.34},{"city":"Covington","state_name":"Georgia","lat":33.58109,"lng":-83.8191,"zip":"30014","miles_from_dt":24.61},{"city":"Union Point","state_name":"Georgia","lat":33.67159,"lng":-83.11187,"zip":"30669","miles_from_dt":24.73},{"city":"Covington","state_name":"Georgia","lat":33.60047,"lng":-83.85378,"zip":"30015","miles_from_dt":25.3},{"city":"Lawrenceville","state_name":"Georgia","lat":33.93046,"lng":-83.93019,"zip":"30045","miles_from_dt":25.73},{"city":"Greensboro","state_name":"Georgia","lat":33.5446,"lng":-83.1832,"zip":"30642","miles_from_dt":26.47},{"city":"Commerce","state_name":"Georgia","lat":34.2052,"lng":-83.46061,"zip":"30599","miles_from_dt":26.61},{"city":"Mansfield","state_name":"Georgia","lat":33.49055,"lng":-83.74224,"zip":"30055","miles_from_dt":26.63},{"city":"Grayson","state_name":"Georgia","lat":33.88939,"lng":-83.96348,"zip":"30017","miles_from_dt":26.93},{"city":"Pendergrass","state_name":"Georgia","lat":34.18326,"lng":-83.6814,"zip":"30567","miles_from_dt":27.01},{"city":"Ila","state_name":"Georgia","lat":34.17269,"lng":-83.29241,"zip":"30647","miles_from_dt":27.09},{"city":"Commerce","state_name":"Georgia","lat":34.2155,"lng":-83.482,"zip":"30529","miles_from_dt":27.23},{"city":"Braselton","state_name":"Georgia","lat":34.13047,"lng":-83.7975,"zip":"30517","miles_from_dt":27.25},{"city":"Lexington","state_name":"Georgia","lat":33.87577,"lng":-83.03319,"zip":"30648","miles_from_dt":27.25},{"city":"Shady Dale","state_name":"Georgia","lat":33.42557,"lng":-83.631,"zip":"31085","miles_from_dt":28.23},{"city":"Porterdale","state_name":"Georgia","lat":33.5733,"lng":-83.89546,"zip":"30070","miles_from_dt":28.34},{"city":"Comer","state_name":"Georgia","lat":34.07779,"lng":-83.11625,"zip":"30629","miles_from_dt":28.39},{"city":"Danielsville","state_name":"Georgia","lat":34.17896,"lng":-83.24612,"zip":"30633","miles_from_dt":28.74},{"city":"Commerce","state_name":"Georgia","lat":34.22691,"lng":-83.38433,"zip":"30530","miles_from_dt":28.8},{"city":"Talmo","state_name":"Georgia","lat":34.20353,"lng":-83.71556,"zip":"30575","miles_from_dt":29.08},{"city":"Conyers","state_name":"Georgia","lat":33.71739,"lng":-83.99913,"zip":"30012","miles_from_dt":29.46},{"city":"Lawrenceville","state_name":"Georgia","lat":33.95634,"lng":-83.99053,"zip":"30049","miles_from_dt":29.57},{"city":"Lawrenceville","state_name":"Georgia","lat":33.9497,"lng":-83.99389,"zip":"30046","miles_from_dt":29.61},{"city":"Conyers","state_name":"Georgia","lat":33.643,"lng":-83.97147,"zip":"30013","miles_from_dt":29.66},{"city":"Snellville","state_name":"Georgia","lat":33.86118,"lng":-84.01795,"zip":"30078","miles_from_dt":29.78}],"targetCityZipCode":"30645","targetCityState":"Georgia"},"__N_SSG":true}