{"pageProps":{"stateName":"Georgia","cityName":"hogansville","nearbyCities":[{"city":"Grantville","state_name":"Georgia","lat":33.22849,"lng":-84.82463,"zip":"30220","miles_from_dt":7},{"city":"Lagrange","state_name":"Georgia","lat":33.06175,"lng":-84.89095,"zip":"30261","miles_from_dt":7.46},{"city":"Lagrange","state_name":"Georgia","lat":33.02115,"lng":-84.95285,"zip":"30241","miles_from_dt":10.22},{"city":"Moreland","state_name":"Georgia","lat":33.26522,"lng":-84.74073,"zip":"30259","miles_from_dt":12.43},{"city":"Luthersville","state_name":"Georgia","lat":33.18871,"lng":-84.69983,"zip":"30251","miles_from_dt":12.89},{"city":"Greenville","state_name":"Georgia","lat":33.04113,"lng":-84.74294,"zip":"30222","miles_from_dt":13.47},{"city":"Lagrange","state_name":"Georgia","lat":33.03757,"lng":-85.12222,"zip":"30240","miles_from_dt":14.7},{"city":"Franklin","state_name":"Georgia","lat":33.28671,"lng":-85.13309,"zip":"30217","miles_from_dt":14.81},{"city":"Newnan","state_name":"Georgia","lat":33.37186,"lng":-84.8115,"zip":"30264","miles_from_dt":15.47},{"city":"Newnan","state_name":"Georgia","lat":33.38852,"lng":-84.85911,"zip":"30263","miles_from_dt":15.68},{"city":"Newnan","state_name":"Georgia","lat":33.37763,"lng":-84.78763,"zip":"30271","miles_from_dt":16.43},{"city":"Sargent","state_name":"Georgia","lat":33.43066,"lng":-84.86798,"zip":"30275","miles_from_dt":18.43},{"city":"Turin","state_name":"Georgia","lat":33.32358,"lng":-84.63368,"zip":"30289","miles_from_dt":19.82},{"city":"Gay","state_name":"Georgia","lat":33.12706,"lng":-84.58093,"zip":"30218","miles_from_dt":19.89},{"city":"Pine Mountain","state_name":"Georgia","lat":32.86708,"lng":-84.91107,"zip":"31822","miles_from_dt":20.68},{"city":"Haralson","state_name":"Georgia","lat":33.22791,"lng":-84.57033,"zip":"30229","miles_from_dt":20.73},{"city":"Senoia","state_name":"Georgia","lat":33.26552,"lng":-84.582,"zip":"30276","miles_from_dt":20.76},{"city":"Newnan","state_name":"Georgia","lat":33.41649,"lng":-84.70749,"zip":"30265","miles_from_dt":21.16},{"city":"Sharpsburg","state_name":"Georgia","lat":33.37962,"lng":-84.64767,"zip":"30277","miles_from_dt":21.55},{"city":"Warm Springs","state_name":"Georgia","lat":32.8951,"lng":-84.72689,"zip":"31830","miles_from_dt":21.86},{"city":"Woodbury","state_name":"Georgia","lat":32.97581,"lng":-84.59612,"zip":"30293","miles_from_dt":22.98},{"city":"Roopville","state_name":"Georgia","lat":33.43065,"lng":-85.16821,"zip":"30170","miles_from_dt":23.14},{"city":"West Point","state_name":"Georgia","lat":32.84963,"lng":-85.09202,"zip":"31833","miles_from_dt":24.03},{"city":"Five Points","state_name":"Alabama","lat":33.03709,"lng":-85.30516,"zip":"36855","miles_from_dt":24.03},{"city":"Whitesburg","state_name":"Georgia","lat":33.51975,"lng":-84.90879,"zip":"30185","miles_from_dt":24.32},{"city":"Peachtree City","state_name":"Georgia","lat":33.4,"lng":-84.60219,"zip":"30270","miles_from_dt":24.45},{"city":"Peachtree City","state_name":"Georgia","lat":33.39406,"lng":-84.59025,"zip":"31169","miles_from_dt":24.71},{"city":"Peachtree City","state_name":"Georgia","lat":33.39375,"lng":-84.56974,"zip":"30269","miles_from_dt":25.63},{"city":"Roanoke","state_name":"Alabama","lat":33.17687,"lng":-85.36283,"zip":"36274","miles_from_dt":25.63},{"city":"Pine Mountain Valley","state_name":"Georgia","lat":32.80061,"lng":-84.81377,"zip":"31823","miles_from_dt":26},{"city":"Concord","state_name":"Georgia","lat":33.09671,"lng":-84.46303,"zip":"30206","miles_from_dt":26.98},{"city":"Lanett","state_name":"Alabama","lat":32.89722,"lng":-85.25916,"zip":"36863","miles_from_dt":27.05},{"city":"Carrollton","state_name":"Georgia","lat":33.55224,"lng":-85.01298,"zip":"30116","miles_from_dt":27.08},{"city":"Brooks","state_name":"Georgia","lat":33.26911,"lng":-84.46634,"zip":"30205","miles_from_dt":27.24},{"city":"Manchester","state_name":"Georgia","lat":32.8762,"lng":-84.60169,"zip":"31816","miles_from_dt":27.29},{"city":"Valley","state_name":"Alabama","lat":32.81741,"lng":-85.17337,"zip":"36872","miles_from_dt":28.21},{"city":"Palmetto","state_name":"Georgia","lat":33.54357,"lng":-84.72262,"zip":"30268","miles_from_dt":28.37},{"city":"Shiloh","state_name":"Georgia","lat":32.79526,"lng":-84.70292,"zip":"31826","miles_from_dt":28.57},{"city":"Tyrone","state_name":"Georgia","lat":33.47675,"lng":-84.58804,"zip":"30290","miles_from_dt":28.74},{"city":"Molena","state_name":"Georgia","lat":32.99278,"lng":-84.47024,"zip":"30258","miles_from_dt":28.76},{"city":"Hamilton","state_name":"Georgia","lat":32.74522,"lng":-84.93327,"zip":"31811","miles_from_dt":29.07},{"city":"Bowdon Junction","state_name":"Georgia","lat":33.56744,"lng":-85.08147,"zip":"30109","miles_from_dt":29.12},{"city":"Carrollton","state_name":"Georgia","lat":33.57288,"lng":-85.09938,"zip":"30118","miles_from_dt":29.82},{"city":"Carrollton","state_name":"Georgia","lat":33.58,"lng":-85.08219,"zip":"30112","miles_from_dt":29.96}],"targetCityZipCode":"30230","targetCityState":"Georgia"},"__N_SSG":true}