{"pageProps":{"stateName":"Georgia","cityName":"ideal","nearbyCities":[{"city":"Oglethorpe","state_name":"Georgia","lat":32.33226,"lng":-84.10704,"zip":"31068","miles_from_dt":4.99},{"city":"Rupert","state_name":"Georgia","lat":32.40824,"lng":-84.27725,"zip":"31081","miles_from_dt":6.47},{"city":"Ellaville","state_name":"Georgia","lat":32.26147,"lng":-84.30043,"zip":"31806","miles_from_dt":11.05},{"city":"Reynolds","state_name":"Georgia","lat":32.54709,"lng":-84.10762,"zip":"31076","miles_from_dt":12.18},{"city":"Andersonville","state_name":"Georgia","lat":32.18766,"lng":-84.12258,"zip":"31711","miles_from_dt":13.5},{"city":"Montezuma","state_name":"Georgia","lat":32.29249,"lng":-83.9648,"zip":"31063","miles_from_dt":13.51},{"city":"Marshallville","state_name":"Georgia","lat":32.43319,"lng":-83.94324,"zip":"31057","miles_from_dt":13.89},{"city":"Butler","state_name":"Georgia","lat":32.58164,"lng":-84.25531,"zip":"31006","miles_from_dt":14.78},{"city":"Mauk","state_name":"Georgia","lat":32.4911,"lng":-84.41273,"zip":"31058","miles_from_dt":16.04},{"city":"Byromville","state_name":"Georgia","lat":32.18917,"lng":-83.93377,"zip":"31007","miles_from_dt":19.13},{"city":"Howard","state_name":"Georgia","lat":32.6024,"lng":-84.38036,"zip":"31039","miles_from_dt":19.62},{"city":"Buena Vista","state_name":"Georgia","lat":32.30501,"lng":-84.51682,"zip":"31803","miles_from_dt":20.8},{"city":"Fort Valley","state_name":"Georgia","lat":32.56861,"lng":-83.89103,"zip":"31030","miles_from_dt":20.98},{"city":"Americus","state_name":"Georgia","lat":32.08261,"lng":-84.29768,"zip":"31719","miles_from_dt":21.71},{"city":"Junction City","state_name":"Georgia","lat":32.63173,"lng":-84.42019,"zip":"31812","miles_from_dt":22.65},{"city":"Americus","state_name":"Georgia","lat":32.05071,"lng":-84.14011,"zip":"31709","miles_from_dt":22.7},{"city":"Roberta","state_name":"Georgia","lat":32.6987,"lng":-84.06456,"zip":"31078","miles_from_dt":22.9},{"city":"Lilly","state_name":"Georgia","lat":32.14456,"lng":-83.87812,"zip":"31051","miles_from_dt":23.61},{"city":"Geneva","state_name":"Georgia","lat":32.56775,"lng":-84.53236,"zip":"31810","miles_from_dt":24.74},{"city":"Perry","state_name":"Georgia","lat":32.4406,"lng":-83.74373,"zip":"31069","miles_from_dt":25.4},{"city":"Elko","state_name":"Georgia","lat":32.33833,"lng":-83.73876,"zip":"31025","miles_from_dt":25.5},{"city":"Clinchfield","state_name":"Georgia","lat":32.33768,"lng":-83.73144,"zip":"31013","miles_from_dt":25.93},{"city":"Pinehurst","state_name":"Georgia","lat":32.18801,"lng":-83.78669,"zip":"31070","miles_from_dt":26.12},{"city":"Box Springs","state_name":"Georgia","lat":32.51765,"lng":-84.5906,"zip":"31801","miles_from_dt":26.25},{"city":"Plains","state_name":"Georgia","lat":32.02898,"lng":-84.39024,"zip":"31780","miles_from_dt":27.3},{"city":"Knoxville","state_name":"Georgia","lat":32.72924,"lng":-83.94096,"zip":"31050","miles_from_dt":27.65},{"city":"Leslie","state_name":"Georgia","lat":31.9772,"lng":-84.08135,"zip":"31764","miles_from_dt":28.2},{"city":"Talbotton","state_name":"Georgia","lat":32.69821,"lng":-84.49847,"zip":"31827","miles_from_dt":29.1},{"city":"Unadilla","state_name":"Georgia","lat":32.23653,"lng":-83.69966,"zip":"31091","miles_from_dt":29.34},{"city":"Byron","state_name":"Georgia","lat":32.65479,"lng":-83.78287,"zip":"31008","miles_from_dt":29.62}],"targetCityZipCode":"31041","targetCityState":"Georgia"},"__N_SSG":true}