{"pageProps":{"stateName":"Georgia","cityName":"irwinville","nearbyCities":[{"city":"Chula","state_name":"Georgia","lat":31.59293,"lng":-83.48599,"zip":"31733","miles_from_dt":6.27},{"city":"Rebecca","state_name":"Georgia","lat":31.76416,"lng":-83.4738,"zip":"31783","miles_from_dt":8.3},{"city":"Sycamore","state_name":"Georgia","lat":31.64823,"lng":-83.5693,"zip":"31790","miles_from_dt":9.4},{"city":"Mystic","state_name":"Georgia","lat":31.56307,"lng":-83.27042,"zip":"31769","miles_from_dt":10.46},{"city":"Ocilla","state_name":"Georgia","lat":31.56102,"lng":-83.27125,"zip":"31774","miles_from_dt":10.51},{"city":"Fitzgerald","state_name":"Georgia","lat":31.73391,"lng":-83.21752,"zip":"31750","miles_from_dt":12.53},{"city":"Tifton","state_name":"Georgia","lat":31.44418,"lng":-83.45151,"zip":"31794","miles_from_dt":14.84},{"city":"Ashburn","state_name":"Georgia","lat":31.71075,"lng":-83.67496,"zip":"31714","miles_from_dt":16.04},{"city":"Brookfield","state_name":"Georgia","lat":31.41778,"lng":-83.3874,"zip":"31727","miles_from_dt":16.51},{"city":"Enigma","state_name":"Georgia","lat":31.42128,"lng":-83.3315,"zip":"31749","miles_from_dt":16.87},{"city":"Tifton","state_name":"Georgia","lat":31.46104,"lng":-83.58386,"zip":"31793","miles_from_dt":16.93},{"city":"Rochelle","state_name":"Georgia","lat":31.94104,"lng":-83.46303,"zip":"31079","miles_from_dt":19.84},{"city":"Ty Ty","state_name":"Georgia","lat":31.47611,"lng":-83.67633,"zip":"31795","miles_from_dt":20.03},{"city":"Wray","state_name":"Georgia","lat":31.64117,"lng":-83.04333,"zip":"31798","miles_from_dt":21.64},{"city":"Arabi","state_name":"Georgia","lat":31.8215,"lng":-83.72806,"zip":"31712","miles_from_dt":21.9},{"city":"Abbeville","state_name":"Georgia","lat":31.97595,"lng":-83.33979,"zip":"31001","miles_from_dt":22.39},{"city":"Sumner","state_name":"Georgia","lat":31.47858,"lng":-83.73257,"zip":"31789","miles_from_dt":22.63},{"city":"Alapaha","state_name":"Georgia","lat":31.37446,"lng":-83.2023,"zip":"31622","miles_from_dt":22.99},{"city":"Pitts","state_name":"Georgia","lat":31.96582,"lng":-83.56619,"zip":"31072","miles_from_dt":23.2},{"city":"Poulan","state_name":"Georgia","lat":31.56062,"lng":-83.79316,"zip":"31781","miles_from_dt":23.53},{"city":"Rhine","state_name":"Georgia","lat":31.93489,"lng":-83.17727,"zip":"31077","miles_from_dt":23.56},{"city":"Seville","state_name":"Georgia","lat":31.96152,"lng":-83.6028,"zip":"31084","miles_from_dt":23.87},{"city":"Ambrose","state_name":"Georgia","lat":31.54535,"lng":-83.01255,"zip":"31512","miles_from_dt":24.67},{"city":"Omega","state_name":"Georgia","lat":31.33418,"lng":-83.60366,"zip":"31775","miles_from_dt":24.98},{"city":"Lenox","state_name":"Georgia","lat":31.293,"lng":-83.44092,"zip":"31637","miles_from_dt":25.12},{"city":"Warwick","state_name":"Georgia","lat":31.77351,"lng":-83.87659,"zip":"31796","miles_from_dt":28.63},{"city":"Cordele","state_name":"Georgia","lat":31.93729,"lng":-83.77444,"zip":"31015","miles_from_dt":28.87},{"city":"Sylvester","state_name":"Georgia","lat":31.53383,"lng":-83.87833,"zip":"31791","miles_from_dt":28.88},{"city":"Willacoochee","state_name":"Georgia","lat":31.38327,"lng":-83.02761,"zip":"31650","miles_from_dt":29.4},{"city":"Jacksonville","state_name":"Georgia","lat":31.83802,"lng":-82.95561,"zip":"31544","miles_from_dt":29.53}],"targetCityZipCode":"31760","targetCityState":"Georgia"},"__N_SSG":true}