{"pageProps":{"stateName":"Georgia","cityName":"jersey","nearbyCities":[{"city":"Oxford","state_name":"Georgia","lat":33.67651,"lng":-83.87558,"zip":"30054","miles_from_dt":5.17},{"city":"Social Circle","state_name":"Georgia","lat":33.65689,"lng":-83.69869,"zip":"30025","miles_from_dt":7.19},{"city":"Monroe","state_name":"Georgia","lat":33.78214,"lng":-83.69072,"zip":"30655","miles_from_dt":7.73},{"city":"Covington","state_name":"Georgia","lat":33.60047,"lng":-83.85378,"zip":"30015","miles_from_dt":8.63},{"city":"Loganville","state_name":"Georgia","lat":33.81654,"lng":-83.89538,"zip":"30052","miles_from_dt":8.75},{"city":"Covington","state_name":"Georgia","lat":33.58109,"lng":-83.8191,"zip":"30014","miles_from_dt":9.45},{"city":"Monroe","state_name":"Georgia","lat":33.86302,"lng":-83.71903,"zip":"30656","miles_from_dt":11.08},{"city":"Conyers","state_name":"Georgia","lat":33.643,"lng":-83.97147,"zip":"30013","miles_from_dt":11.11},{"city":"Porterdale","state_name":"Georgia","lat":33.5733,"lng":-83.89546,"zip":"30070","miles_from_dt":11.34},{"city":"Conyers","state_name":"Georgia","lat":33.71739,"lng":-83.99913,"zip":"30012","miles_from_dt":11.45},{"city":"Norcross","state_name":"Georgia","lat":33.68081,"lng":-84.00732,"zip":"30003","miles_from_dt":12.19},{"city":"Rutledge","state_name":"Georgia","lat":33.61572,"lng":-83.60357,"zip":"30663","miles_from_dt":13.33},{"city":"Good Hope","state_name":"Georgia","lat":33.77872,"lng":-83.56456,"zip":"30641","miles_from_dt":14.22},{"city":"Snellville","state_name":"Georgia","lat":33.79871,"lng":-84.03414,"zip":"30039","miles_from_dt":14.58},{"city":"Bethlehem","state_name":"Georgia","lat":33.92917,"lng":-83.75958,"zip":"30620","miles_from_dt":14.78},{"city":"Grayson","state_name":"Georgia","lat":33.88939,"lng":-83.96348,"zip":"30017","miles_from_dt":15.12},{"city":"Covington","state_name":"Georgia","lat":33.51836,"lng":-83.93073,"zip":"30016","miles_from_dt":15.64},{"city":"Snellville","state_name":"Georgia","lat":33.86118,"lng":-84.01795,"zip":"30078","miles_from_dt":15.97},{"city":"Mansfield","state_name":"Georgia","lat":33.49055,"lng":-83.74224,"zip":"30055","miles_from_dt":15.99},{"city":"Conyers","state_name":"Georgia","lat":33.61243,"lng":-84.0555,"zip":"30094","miles_from_dt":16.39},{"city":"Bostwick","state_name":"Georgia","lat":33.73113,"lng":-83.51592,"zip":"30623","miles_from_dt":16.41},{"city":"Lawrenceville","state_name":"Georgia","lat":33.93046,"lng":-83.93019,"zip":"30045","miles_from_dt":16.48},{"city":"Newborn","state_name":"Georgia","lat":33.49496,"lng":-83.65068,"zip":"30056","miles_from_dt":17.59},{"city":"Lithonia","state_name":"Georgia","lat":33.7377,"lng":-84.10779,"zip":"30058","miles_from_dt":17.76},{"city":"Stone Mountain","state_name":"Georgia","lat":33.80336,"lng":-84.10343,"zip":"30086","miles_from_dt":18.43},{"city":"Dacula","state_name":"Georgia","lat":33.97642,"lng":-83.88252,"zip":"30019","miles_from_dt":18.47},{"city":"High Shoals","state_name":"Georgia","lat":33.82076,"lng":-83.50247,"zip":"30645","miles_from_dt":18.57},{"city":"Bishop","state_name":"Georgia","lat":33.80194,"lng":-83.4791,"zip":"30621","miles_from_dt":19.39},{"city":"Redan","state_name":"Georgia","lat":33.74461,"lng":-84.13599,"zip":"30074","miles_from_dt":19.42},{"city":"Lawrenceville","state_name":"Georgia","lat":33.9497,"lng":-83.99389,"zip":"30046","miles_from_dt":19.5},{"city":"Lawrenceville","state_name":"Georgia","lat":33.95634,"lng":-83.99053,"zip":"30049","miles_from_dt":19.77},{"city":"Lithonia","state_name":"Georgia","lat":33.67078,"lng":-84.14209,"zip":"30038","miles_from_dt":19.95},{"city":"Stone Mountain","state_name":"Georgia","lat":33.81087,"lng":-84.13135,"zip":"30087","miles_from_dt":20.11},{"city":"Winder","state_name":"Georgia","lat":33.99725,"lng":-83.69743,"zip":"30680","miles_from_dt":20.18},{"city":"Statham","state_name":"Georgia","lat":33.95891,"lng":-83.58266,"zip":"30666","miles_from_dt":20.83},{"city":"Lilburn","state_name":"Georgia","lat":33.87104,"lng":-84.11304,"zip":"30047","miles_from_dt":20.88},{"city":"Bogart","state_name":"Georgia","lat":33.92041,"lng":-83.53076,"zip":"30622","miles_from_dt":20.89},{"city":"Lawrenceville","state_name":"Georgia","lat":33.92207,"lng":-84.06924,"zip":"30044","miles_from_dt":20.94},{"city":"Madison","state_name":"Georgia","lat":33.5907,"lng":-83.46693,"zip":"30650","miles_from_dt":21.11},{"city":"Auburn","state_name":"Georgia","lat":34.02281,"lng":-83.8364,"zip":"30011","miles_from_dt":21.15},{"city":"Lawrenceville","state_name":"Georgia","lat":33.92354,"lng":-84.07302,"zip":"30042","miles_from_dt":21.17},{"city":"Stone Mountain","state_name":"Georgia","lat":33.75959,"lng":-84.17918,"zip":"30088","miles_from_dt":22.01},{"city":"Farmington","state_name":"Georgia","lat":33.77004,"lng":-83.42241,"zip":"30638","miles_from_dt":22.06},{"city":"Shady Dale","state_name":"Georgia","lat":33.42557,"lng":-83.631,"zip":"31085","miles_from_dt":22.36},{"city":"Lilburn","state_name":"Georgia","lat":33.90025,"lng":-84.1255,"zip":"30048","miles_from_dt":22.56},{"city":"Mcdonough","state_name":"Georgia","lat":33.47206,"lng":-84.06416,"zip":"30252","miles_from_dt":22.75},{"city":"Lawrenceville","state_name":"Georgia","lat":34.00353,"lng":-84.00703,"zip":"30043","miles_from_dt":23.03},{"city":"Stone Mountain","state_name":"Georgia","lat":33.79641,"lng":-84.19231,"zip":"30083","miles_from_dt":23.21},{"city":"Decatur","state_name":"Georgia","lat":33.72563,"lng":-84.20541,"zip":"30035","miles_from_dt":23.34},{"city":"Pine Lake","state_name":"Georgia","lat":33.79115,"lng":-84.20598,"zip":"30072","miles_from_dt":23.9},{"city":"Watkinsville","state_name":"Georgia","lat":33.7929,"lng":-83.38186,"zip":"30677","miles_from_dt":24.65},{"city":"Stockbridge","state_name":"Georgia","lat":33.56338,"lng":-84.1961,"zip":"30281","miles_from_dt":25.16},{"city":"Norcross","state_name":"Georgia","lat":33.90879,"lng":-84.17839,"zip":"30093","miles_from_dt":25.44},{"city":"Tucker","state_name":"Georgia","lat":33.85457,"lng":-84.21657,"zip":"30084","miles_from_dt":25.75},{"city":"Decatur","state_name":"Georgia","lat":33.69198,"lng":-84.24835,"zip":"30034","miles_from_dt":25.87},{"city":"Hoschton","state_name":"Georgia","lat":34.09311,"lng":-83.7646,"zip":"30548","miles_from_dt":25.98},{"city":"Clarkston","state_name":"Georgia","lat":33.80803,"lng":-84.23909,"zip":"30021","miles_from_dt":26.02},{"city":"Athens","state_name":"Georgia","lat":33.93873,"lng":-83.43305,"zip":"30606","miles_from_dt":26.06},{"city":"Decatur","state_name":"Georgia","lat":33.69156,"lng":-84.25328,"zip":"30037","miles_from_dt":26.15},{"city":"Tucker","state_name":"Georgia","lat":33.85701,"lng":-84.22299,"zip":"30085","miles_from_dt":26.16},{"city":"Athens","state_name":"Georgia","lat":34.00684,"lng":-83.49323,"zip":"30604","miles_from_dt":26.64},{"city":"Norcross","state_name":"Georgia","lat":33.94642,"lng":-84.17501,"zip":"30091","miles_from_dt":26.71},{"city":"Decatur","state_name":"Georgia","lat":33.73987,"lng":-84.2641,"zip":"30032","miles_from_dt":26.75},{"city":"Avondale Estates","state_name":"Georgia","lat":33.77309,"lng":-84.26093,"zip":"30002","miles_from_dt":26.8},{"city":"Buford","state_name":"Georgia","lat":34.08792,"lng":-83.9423,"zip":"30519","miles_from_dt":26.81},{"city":"Duluth","state_name":"Georgia","lat":33.97691,"lng":-84.14791,"zip":"30096","miles_from_dt":26.82},{"city":"Scottdale","state_name":"Georgia","lat":33.79173,"lng":-84.25839,"zip":"30079","miles_from_dt":26.86},{"city":"North Metro","state_name":"Georgia","lat":33.97794,"lng":-84.14769,"zip":"30029","miles_from_dt":26.86},{"city":"Duluth","state_name":"Georgia","lat":33.97752,"lng":-84.1487,"zip":"30095","miles_from_dt":26.89},{"city":"North Metro","state_name":"Georgia","lat":33.97658,"lng":-84.15005,"zip":"30026","miles_from_dt":26.9},{"city":"Duluth","state_name":"Georgia","lat":33.98012,"lng":-84.14934,"zip":"30099","miles_from_dt":27.03},{"city":"Ellenwood","state_name":"Georgia","lat":33.6371,"lng":-84.26289,"zip":"30294","miles_from_dt":27.22},{"city":"Norcross","state_name":"Georgia","lat":33.93977,"lng":-84.20561,"zip":"30071","miles_from_dt":27.9},{"city":"Decatur","state_name":"Georgia","lat":33.7672,"lng":-84.28548,"zip":"30031","miles_from_dt":28.14},{"city":"Braselton","state_name":"Georgia","lat":34.13047,"lng":-83.7975,"zip":"30517","miles_from_dt":28.47},{"city":"Decatur","state_name":"Georgia","lat":33.7721,"lng":-84.29135,"zip":"30030","miles_from_dt":28.52},{"city":"Decatur","state_name":"Georgia","lat":33.77435,"lng":-84.2919,"zip":"30036","miles_from_dt":28.57},{"city":"Decatur","state_name":"Georgia","lat":33.81342,"lng":-84.28355,"zip":"30033","miles_from_dt":28.59},{"city":"Athens","state_name":"Georgia","lat":33.95563,"lng":-83.3931,"zip":"30612","miles_from_dt":28.61},{"city":"Rex","state_name":"Georgia","lat":33.58365,"lng":-84.27208,"zip":"30273","miles_from_dt":28.71},{"city":"Athens","state_name":"Georgia","lat":33.93289,"lng":-83.37223,"zip":"30609","miles_from_dt":28.76},{"city":"Atlanta","state_name":"Georgia","lat":33.89808,"lng":-84.25113,"zip":"30340","miles_from_dt":28.77},{"city":"Mcdonough","state_name":"Georgia","lat":33.45028,"lng":-84.18579,"zip":"30253","miles_from_dt":28.87},{"city":"Athens","state_name":"Georgia","lat":34.01895,"lng":-83.44774,"zip":"30607","miles_from_dt":29.03},{"city":"Duluth","state_name":"Georgia","lat":34.02556,"lng":-84.14541,"zip":"30098","miles_from_dt":29.06},{"city":"Athens","state_name":"Georgia","lat":33.94252,"lng":-83.37256,"zip":"30602","miles_from_dt":29.09},{"city":"Suwanee","state_name":"Georgia","lat":34.06341,"lng":-84.09116,"zip":"30024","miles_from_dt":29.12},{"city":"Atlanta","state_name":"Georgia","lat":33.85314,"lng":-84.27962,"zip":"31145","miles_from_dt":29.13},{"city":"Duluth","state_name":"Georgia","lat":34.0271,"lng":-84.14702,"zip":"30097","miles_from_dt":29.21},{"city":"Atlanta","state_name":"Georgia","lat":33.85082,"lng":-84.28317,"zip":"30345","miles_from_dt":29.27},{"city":"Athens","state_name":"Georgia","lat":33.95929,"lng":-83.37689,"zip":"30603","miles_from_dt":29.51},{"city":"Athens","state_name":"Georgia","lat":33.95962,"lng":-83.37699,"zip":"30608","miles_from_dt":29.52},{"city":"Norcross","state_name":"Georgia","lat":33.96606,"lng":-84.21844,"zip":"30010","miles_from_dt":29.53},{"city":"Buckhead","state_name":"Georgia","lat":33.52128,"lng":-83.34211,"zip":"30625","miles_from_dt":29.68},{"city":"Jenkinsburg","state_name":"Georgia","lat":33.33001,"lng":-84.02617,"zip":"30234","miles_from_dt":29.71},{"city":"Atlanta","state_name":"Georgia","lat":33.74913,"lng":-84.31537,"zip":"30317","miles_from_dt":29.74},{"city":"Jefferson","state_name":"Georgia","lat":34.10731,"lng":-83.57684,"zip":"30549","miles_from_dt":29.79},{"city":"Monticello","state_name":"Georgia","lat":33.29031,"lng":-83.69986,"zip":"31064","miles_from_dt":30}],"targetCityZipCode":"30018","targetCityState":"Georgia"},"__N_SSG":true}