{"pageProps":{"stateName":"Georgia","cityName":"oakfield","nearbyCities":[{"city":"Warwick","state_name":"Georgia","lat":31.77351,"lng":-83.87659,"zip":"31796","miles_from_dt":6.3},{"city":"Leesburg","state_name":"Georgia","lat":31.73889,"lng":-84.14711,"zip":"31763","miles_from_dt":10.78},{"city":"De Soto","state_name":"Georgia","lat":31.90089,"lng":-84.00604,"zip":"31743","miles_from_dt":12.55},{"city":"Albany","state_name":"Georgia","lat":31.551,"lng":-84.05634,"zip":"31704","miles_from_dt":12.96},{"city":"Albany","state_name":"Georgia","lat":31.59339,"lng":-84.14105,"zip":"31708","miles_from_dt":13.65},{"city":"Sylvester","state_name":"Georgia","lat":31.53383,"lng":-83.87833,"zip":"31791","miles_from_dt":13.94},{"city":"Albany","state_name":"Georgia","lat":31.57707,"lng":-84.15307,"zip":"31703","miles_from_dt":14.92},{"city":"Albany","state_name":"Georgia","lat":31.57908,"lng":-84.15624,"zip":"31706","miles_from_dt":14.97},{"city":"Poulan","state_name":"Georgia","lat":31.56062,"lng":-83.79316,"zip":"31781","miles_from_dt":15.05},{"city":"Albany","state_name":"Georgia","lat":31.57376,"lng":-84.15508,"zip":"31701","miles_from_dt":15.16},{"city":"Albany","state_name":"Georgia","lat":31.51169,"lng":-84.05333,"zip":"31705","miles_from_dt":15.4},{"city":"Arabi","state_name":"Georgia","lat":31.8215,"lng":-83.72806,"zip":"31712","miles_from_dt":15.54},{"city":"Albany","state_name":"Georgia","lat":31.59825,"lng":-84.19996,"zip":"31702","miles_from_dt":16.26},{"city":"Albany","state_name":"Georgia","lat":31.58736,"lng":-84.20689,"zip":"31707","miles_from_dt":17.01},{"city":"Ashburn","state_name":"Georgia","lat":31.71075,"lng":-83.67496,"zip":"31714","miles_from_dt":17.1},{"city":"Cobb","state_name":"Georgia","lat":31.97195,"lng":-83.96446,"zip":"31735","miles_from_dt":17.21},{"city":"Putney","state_name":"Georgia","lat":31.46532,"lng":-83.98368,"zip":"31782","miles_from_dt":17.73},{"city":"Cordele","state_name":"Georgia","lat":31.93729,"lng":-83.77444,"zip":"31015","miles_from_dt":18.59},{"city":"Leslie","state_name":"Georgia","lat":31.9772,"lng":-84.08135,"zip":"31764","miles_from_dt":18.86},{"city":"Cordele","state_name":"Georgia","lat":31.95392,"lng":-83.78295,"zip":"31010","miles_from_dt":19.23},{"city":"Smithville","state_name":"Georgia","lat":31.89994,"lng":-84.24947,"zip":"31787","miles_from_dt":20.74},{"city":"Sumner","state_name":"Georgia","lat":31.47858,"lng":-83.73257,"zip":"31789","miles_from_dt":21.67},{"city":"Bronwood","state_name":"Georgia","lat":31.82092,"lng":-84.32423,"zip":"39826","miles_from_dt":22.21},{"city":"Sasser","state_name":"Georgia","lat":31.72189,"lng":-84.34304,"zip":"39885","miles_from_dt":22.26},{"city":"Sycamore","state_name":"Georgia","lat":31.64823,"lng":-83.5693,"zip":"31790","miles_from_dt":23.86},{"city":"Ty Ty","state_name":"Georgia","lat":31.47611,"lng":-83.67633,"zip":"31795","miles_from_dt":24.02},{"city":"Albany","state_name":"Georgia","lat":31.5087,"lng":-84.30331,"zip":"31721","miles_from_dt":24.78},{"city":"Americus","state_name":"Georgia","lat":32.05071,"lng":-84.14011,"zip":"31709","miles_from_dt":24.87},{"city":"Baconton","state_name":"Georgia","lat":31.36512,"lng":-84.11445,"zip":"31716","miles_from_dt":26.13},{"city":"Doerun","state_name":"Georgia","lat":31.33709,"lng":-83.90646,"zip":"31744","miles_from_dt":26.75},{"city":"Seville","state_name":"Georgia","lat":31.96152,"lng":-83.6028,"zip":"31084","miles_from_dt":26.94},{"city":"Vienna","state_name":"Georgia","lat":32.08984,"lng":-83.78304,"zip":"31092","miles_from_dt":27.5},{"city":"Dawson","state_name":"Georgia","lat":31.75837,"lng":-84.44314,"zip":"39842","miles_from_dt":28.26},{"city":"Tifton","state_name":"Georgia","lat":31.46104,"lng":-83.58386,"zip":"31793","miles_from_dt":28.79},{"city":"Pitts","state_name":"Georgia","lat":31.96582,"lng":-83.56619,"zip":"31072","miles_from_dt":28.85},{"city":"Rebecca","state_name":"Georgia","lat":31.76416,"lng":-83.4738,"zip":"31783","miles_from_dt":29.07},{"city":"Lilly","state_name":"Georgia","lat":32.14456,"lng":-83.87812,"zip":"31051","miles_from_dt":29.55},{"city":"Chula","state_name":"Georgia","lat":31.59293,"lng":-83.48599,"zip":"31733","miles_from_dt":29.6}],"targetCityZipCode":"31772","targetCityState":"Georgia"},"__N_SSG":true}