{"pageProps":{"stateName":"Georgia","cityName":"pendergrass","nearbyCities":[{"city":"Talmo","state_name":"Georgia","lat":34.20353,"lng":-83.71556,"zip":"30575","miles_from_dt":2.4},{"city":"Gainesville","state_name":"Georgia","lat":34.26082,"lng":-83.76622,"zip":"30507","miles_from_dt":7.22},{"city":"Braselton","state_name":"Georgia","lat":34.13047,"lng":-83.7975,"zip":"30517","miles_from_dt":7.58},{"city":"Hoschton","state_name":"Georgia","lat":34.09311,"lng":-83.7646,"zip":"30548","miles_from_dt":7.83},{"city":"Jefferson","state_name":"Georgia","lat":34.10731,"lng":-83.57684,"zip":"30549","miles_from_dt":7.96},{"city":"Gillsville","state_name":"Georgia","lat":34.29781,"lng":-83.64971,"zip":"30543","miles_from_dt":8.1},{"city":"Maysville","state_name":"Georgia","lat":34.2683,"lng":-83.56787,"zip":"30558","miles_from_dt":8.75},{"city":"Commerce","state_name":"Georgia","lat":34.2155,"lng":-83.482,"zip":"30529","miles_from_dt":11.63},{"city":"Gainesville","state_name":"Georgia","lat":34.31844,"lng":-83.81636,"zip":"30501","miles_from_dt":12.1},{"city":"Commerce","state_name":"Georgia","lat":34.2052,"lng":-83.46061,"zip":"30599","miles_from_dt":12.74},{"city":"Oakwood","state_name":"Georgia","lat":34.23747,"lng":-83.89477,"zip":"30566","miles_from_dt":12.78},{"city":"Winder","state_name":"Georgia","lat":33.99725,"lng":-83.69743,"zip":"30680","miles_from_dt":12.85},{"city":"Chestnut Mountain","state_name":"Georgia","lat":34.17686,"lng":-83.90784,"zip":"30502","miles_from_dt":12.98},{"city":"Flowery Branch","state_name":"Georgia","lat":34.17846,"lng":-83.90915,"zip":"30542","miles_from_dt":13.05},{"city":"Gainesville","state_name":"Georgia","lat":34.26639,"lng":-83.88751,"zip":"30504","miles_from_dt":13.12},{"city":"Auburn","state_name":"Georgia","lat":34.02281,"lng":-83.8364,"zip":"30011","miles_from_dt":14.19},{"city":"Lula","state_name":"Georgia","lat":34.40093,"lng":-83.65926,"zip":"30554","miles_from_dt":15.06},{"city":"Gainesville","state_name":"Georgia","lat":34.37128,"lng":-83.82255,"zip":"30503","miles_from_dt":15.27},{"city":"Athens","state_name":"Georgia","lat":34.00684,"lng":-83.49323,"zip":"30604","miles_from_dt":16.26},{"city":"Buford","state_name":"Georgia","lat":34.08792,"lng":-83.9423,"zip":"30519","miles_from_dt":16.33},{"city":"Statham","state_name":"Georgia","lat":33.95891,"lng":-83.58266,"zip":"30666","miles_from_dt":16.47},{"city":"Gainesville","state_name":"Georgia","lat":34.34918,"lng":-83.89486,"zip":"30506","miles_from_dt":16.73},{"city":"Nicholson","state_name":"Georgia","lat":34.08802,"lng":-83.41203,"zip":"30565","miles_from_dt":16.78},{"city":"Commerce","state_name":"Georgia","lat":34.22691,"lng":-83.38433,"zip":"30530","miles_from_dt":17.28},{"city":"Homer","state_name":"Georgia","lat":34.35737,"lng":-83.46095,"zip":"30547","miles_from_dt":17.41},{"city":"Athens","state_name":"Georgia","lat":34.01895,"lng":-83.44774,"zip":"30607","miles_from_dt":17.54},{"city":"Bethlehem","state_name":"Georgia","lat":33.92917,"lng":-83.75958,"zip":"30620","miles_from_dt":18.08},{"city":"Dacula","state_name":"Georgia","lat":33.97642,"lng":-83.88252,"zip":"30019","miles_from_dt":18.34},{"city":"Alto","state_name":"Georgia","lat":34.44194,"lng":-83.58446,"zip":"30510","miles_from_dt":18.67},{"city":"Buford","state_name":"Georgia","lat":34.132,"lng":-84.02578,"zip":"30518","miles_from_dt":20.05},{"city":"Bogart","state_name":"Georgia","lat":33.92041,"lng":-83.53076,"zip":"30622","miles_from_dt":20.07},{"city":"Clermont","state_name":"Georgia","lat":34.47948,"lng":-83.7863,"zip":"30527","miles_from_dt":21.28},{"city":"Athens","state_name":"Georgia","lat":33.93873,"lng":-83.43305,"zip":"30606","miles_from_dt":22.07},{"city":"Monroe","state_name":"Georgia","lat":33.86302,"lng":-83.71903,"zip":"30656","miles_from_dt":22.18},{"city":"Baldwin","state_name":"Georgia","lat":34.45674,"lng":-83.47474,"zip":"30511","miles_from_dt":22.25},{"city":"Ila","state_name":"Georgia","lat":34.17269,"lng":-83.29241,"zip":"30647","miles_from_dt":22.3},{"city":"Hull","state_name":"Georgia","lat":34.08011,"lng":-83.31254,"zip":"30646","miles_from_dt":22.31},{"city":"Lawrenceville","state_name":"Georgia","lat":34.00353,"lng":-84.00703,"zip":"30043","miles_from_dt":22.41},{"city":"Lawrenceville","state_name":"Georgia","lat":33.93046,"lng":-83.93019,"zip":"30045","miles_from_dt":22.52},{"city":"Athens","state_name":"Georgia","lat":33.95563,"lng":-83.3931,"zip":"30612","miles_from_dt":22.79},{"city":"Athens","state_name":"Georgia","lat":34.00032,"lng":-83.34851,"zip":"30601","miles_from_dt":22.88},{"city":"Murrayville","state_name":"Georgia","lat":34.47251,"lng":-83.8826,"zip":"30564","miles_from_dt":23.02},{"city":"Cornelia","state_name":"Georgia","lat":34.51017,"lng":-83.59103,"zip":"30531","miles_from_dt":23.12},{"city":"Athens","state_name":"Georgia","lat":33.95962,"lng":-83.37699,"zip":"30608","miles_from_dt":23.29},{"city":"Athens","state_name":"Georgia","lat":33.95929,"lng":-83.37689,"zip":"30603","miles_from_dt":23.31},{"city":"Lawrenceville","state_name":"Georgia","lat":33.95634,"lng":-83.99053,"zip":"30049","miles_from_dt":23.64},{"city":"Cumming","state_name":"Georgia","lat":34.20166,"lng":-84.09371,"zip":"30041","miles_from_dt":23.65},{"city":"Lawrenceville","state_name":"Georgia","lat":33.9497,"lng":-83.99389,"zip":"30046","miles_from_dt":24.09},{"city":"Athens","state_name":"Georgia","lat":33.94252,"lng":-83.37256,"zip":"30602","miles_from_dt":24.27},{"city":"Athens","state_name":"Georgia","lat":33.93289,"lng":-83.37223,"zip":"30609","miles_from_dt":24.75},{"city":"Suwanee","state_name":"Georgia","lat":34.06341,"lng":-84.09116,"zip":"30024","miles_from_dt":24.9},{"city":"Danielsville","state_name":"Georgia","lat":34.17896,"lng":-83.24612,"zip":"30633","miles_from_dt":24.94},{"city":"Carnesville","state_name":"Georgia","lat":34.36202,"lng":-83.29355,"zip":"30521","miles_from_dt":25.38},{"city":"Grayson","state_name":"Georgia","lat":33.88939,"lng":-83.96348,"zip":"30017","miles_from_dt":25.93},{"city":"High Shoals","state_name":"Georgia","lat":33.82076,"lng":-83.50247,"zip":"30645","miles_from_dt":27.01},{"city":"Monroe","state_name":"Georgia","lat":33.78214,"lng":-83.69072,"zip":"30655","miles_from_dt":27.65},{"city":"Demorest","state_name":"Georgia","lat":34.58063,"lng":-83.57652,"zip":"30535","miles_from_dt":28.04},{"city":"Athens","state_name":"Georgia","lat":33.90551,"lng":-83.32405,"zip":"30605","miles_from_dt":28.05},{"city":"Loganville","state_name":"Georgia","lat":33.81654,"lng":-83.89538,"zip":"30052","miles_from_dt":28.1},{"city":"Lawrenceville","state_name":"Georgia","lat":33.92207,"lng":-84.06924,"zip":"30044","miles_from_dt":28.62},{"city":"Cumming","state_name":"Georgia","lat":34.21622,"lng":-84.17978,"zip":"30040","miles_from_dt":28.63},{"city":"Good Hope","state_name":"Georgia","lat":33.77872,"lng":-83.56456,"zip":"30641","miles_from_dt":28.68},{"city":"Lawrenceville","state_name":"Georgia","lat":33.92354,"lng":-84.07302,"zip":"30042","miles_from_dt":28.73},{"city":"Bishop","state_name":"Georgia","lat":33.80194,"lng":-83.4791,"zip":"30621","miles_from_dt":28.73},{"city":"Duluth","state_name":"Georgia","lat":34.02556,"lng":-84.14541,"zip":"30098","miles_from_dt":28.74},{"city":"Duluth","state_name":"Georgia","lat":34.0271,"lng":-84.14702,"zip":"30097","miles_from_dt":28.78},{"city":"Mount Airy","state_name":"Georgia","lat":34.5596,"lng":-83.46283,"zip":"30563","miles_from_dt":28.79},{"city":"Colbert","state_name":"Georgia","lat":34.03115,"lng":-83.21364,"zip":"30628","miles_from_dt":28.79},{"city":"Winterville","state_name":"Georgia","lat":33.94703,"lng":-83.25775,"zip":"30683","miles_from_dt":29.25},{"city":"Dahlonega","state_name":"Georgia","lat":34.52762,"lng":-83.98462,"zip":"30597","miles_from_dt":29.39},{"city":"Snellville","state_name":"Georgia","lat":33.86118,"lng":-84.01795,"zip":"30078","miles_from_dt":29.43},{"city":"Cumming","state_name":"Georgia","lat":34.28928,"lng":-84.17985,"zip":"30028","miles_from_dt":29.46},{"city":"Cleveland","state_name":"Georgia","lat":34.6083,"lng":-83.77589,"zip":"30528","miles_from_dt":29.79}],"targetCityZipCode":"30567","targetCityState":"Georgia"},"__N_SSG":true}