{"pageProps":{"stateName":"Georgia","cityName":"putney","nearbyCities":[{"city":"Albany","state_name":"Georgia","lat":31.51169,"lng":-84.05333,"zip":"31705","miles_from_dt":5.21},{"city":"Albany","state_name":"Georgia","lat":31.551,"lng":-84.05634,"zip":"31704","miles_from_dt":7.3},{"city":"Sylvester","state_name":"Georgia","lat":31.53383,"lng":-83.87833,"zip":"31791","miles_from_dt":7.81},{"city":"Doerun","state_name":"Georgia","lat":31.33709,"lng":-83.90646,"zip":"31744","miles_from_dt":9.94},{"city":"Baconton","state_name":"Georgia","lat":31.36512,"lng":-84.11445,"zip":"31716","miles_from_dt":10.36},{"city":"Albany","state_name":"Georgia","lat":31.57376,"lng":-84.15508,"zip":"31701","miles_from_dt":12.58},{"city":"Albany","state_name":"Georgia","lat":31.57707,"lng":-84.15307,"zip":"31703","miles_from_dt":12.62},{"city":"Albany","state_name":"Georgia","lat":31.59339,"lng":-84.14105,"zip":"31708","miles_from_dt":12.81},{"city":"Albany","state_name":"Georgia","lat":31.57908,"lng":-84.15624,"zip":"31706","miles_from_dt":12.85},{"city":"Poulan","state_name":"Georgia","lat":31.56062,"lng":-83.79316,"zip":"31781","miles_from_dt":13.02},{"city":"Sale City","state_name":"Georgia","lat":31.25671,"lng":-84.0431,"zip":"31784","miles_from_dt":14.8},{"city":"Sumner","state_name":"Georgia","lat":31.47858,"lng":-83.73257,"zip":"31789","miles_from_dt":14.86},{"city":"Albany","state_name":"Georgia","lat":31.58736,"lng":-84.20689,"zip":"31707","miles_from_dt":15.63},{"city":"Albany","state_name":"Georgia","lat":31.59825,"lng":-84.19996,"zip":"31702","miles_from_dt":15.71},{"city":"Oakfield","state_name":"Georgia","lat":31.72213,"lng":-83.96504,"zip":"31772","miles_from_dt":17.73},{"city":"Ty Ty","state_name":"Georgia","lat":31.47611,"lng":-83.67633,"zip":"31795","miles_from_dt":18.16},{"city":"Albany","state_name":"Georgia","lat":31.5087,"lng":-84.30331,"zip":"31721","miles_from_dt":19.11},{"city":"Funston","state_name":"Georgia","lat":31.20044,"lng":-83.87287,"zip":"31753","miles_from_dt":19.39},{"city":"Hartsfield","state_name":"Georgia","lat":31.17558,"lng":-83.96224,"zip":"31756","miles_from_dt":20},{"city":"Moultrie","state_name":"Georgia","lat":31.19329,"lng":-83.84047,"zip":"31768","miles_from_dt":20.57},{"city":"Leesburg","state_name":"Georgia","lat":31.73889,"lng":-84.14711,"zip":"31763","miles_from_dt":21.17},{"city":"Warwick","state_name":"Georgia","lat":31.77351,"lng":-83.87659,"zip":"31796","miles_from_dt":22.15},{"city":"Tifton","state_name":"Georgia","lat":31.46104,"lng":-83.58386,"zip":"31793","miles_from_dt":23.61},{"city":"Moultrie","state_name":"Georgia","lat":31.15565,"lng":-83.7939,"zip":"31776","miles_from_dt":24.11},{"city":"Omega","state_name":"Georgia","lat":31.33418,"lng":-83.60366,"zip":"31775","miles_from_dt":24.21},{"city":"Ashburn","state_name":"Georgia","lat":31.71075,"lng":-83.67496,"zip":"31714","miles_from_dt":24.85},{"city":"Norman Park","state_name":"Georgia","lat":31.24332,"lng":-83.64775,"zip":"31771","miles_from_dt":25.07},{"city":"Camilla","state_name":"Georgia","lat":31.20749,"lng":-84.28438,"zip":"31730","miles_from_dt":25.13},{"city":"Cotton","state_name":"Georgia","lat":31.12337,"lng":-84.15268,"zip":"31739","miles_from_dt":25.59},{"city":"Meigs","state_name":"Georgia","lat":31.09514,"lng":-84.0346,"zip":"31765","miles_from_dt":25.68},{"city":"Newton","state_name":"Georgia","lat":31.31944,"lng":-84.41071,"zip":"39870","miles_from_dt":27.16},{"city":"Sycamore","state_name":"Georgia","lat":31.64823,"lng":-83.5693,"zip":"31790","miles_from_dt":27.5},{"city":"Sasser","state_name":"Georgia","lat":31.72189,"lng":-84.34304,"zip":"39885","miles_from_dt":27.6},{"city":"Pelham","state_name":"Georgia","lat":31.10032,"lng":-84.19117,"zip":"31779","miles_from_dt":27.98},{"city":"Arabi","state_name":"Georgia","lat":31.8215,"lng":-83.72806,"zip":"31712","miles_from_dt":28.8}],"targetCityZipCode":"31782","targetCityState":"Georgia"},"__N_SSG":true}