{"pageProps":{"stateName":"Georgia","cityName":"quitman","nearbyCities":[{"city":"Dixie","state_name":"Georgia","lat":30.82051,"lng":-83.68809,"zip":"31629","miles_from_dt":8.43},{"city":"Morven","state_name":"Georgia","lat":30.90627,"lng":-83.51589,"zip":"31638","miles_from_dt":9.68},{"city":"Barwick","state_name":"Georgia","lat":30.87986,"lng":-83.72297,"zip":"31720","miles_from_dt":12.33},{"city":"Valdosta","state_name":"Georgia","lat":30.74772,"lng":-83.33968,"zip":"31601","miles_from_dt":13.12},{"city":"Valdosta","state_name":"Georgia","lat":30.86734,"lng":-83.34269,"zip":"31602","miles_from_dt":14.46},{"city":"Boston","state_name":"Georgia","lat":30.77609,"lng":-83.80208,"zip":"31626","miles_from_dt":14.49},{"city":"Barney","state_name":"Georgia","lat":30.9918,"lng":-83.52556,"zip":"31625","miles_from_dt":15.36},{"city":"Pavo","state_name":"Georgia","lat":30.9754,"lng":-83.70931,"zip":"31778","miles_from_dt":16.71},{"city":"Valdosta","state_name":"Georgia","lat":30.84749,"lng":-83.29051,"zip":"31698","miles_from_dt":16.8},{"city":"Valdosta","state_name":"Georgia","lat":30.87206,"lng":-83.28537,"zip":"31603","miles_from_dt":17.68},{"city":"Valdosta","state_name":"Georgia","lat":30.88111,"lng":-83.28047,"zip":"31604","miles_from_dt":18.2},{"city":"Pinetta","state_name":"Florida","lat":30.58662,"lng":-83.32242,"zip":"32350","miles_from_dt":18.93},{"city":"Hahira","state_name":"Georgia","lat":30.9876,"lng":-83.36006,"zip":"31632","miles_from_dt":19.04},{"city":"Berlin","state_name":"Georgia","lat":31.05492,"lng":-83.61559,"zip":"31722","miles_from_dt":19.88},{"city":"Cecil","state_name":"Georgia","lat":31.03923,"lng":-83.39238,"zip":"31627","miles_from_dt":20.97},{"city":"Thomasville","state_name":"Georgia","lat":30.87291,"lng":-83.89945,"zip":"31757","miles_from_dt":21.46},{"city":"Greenville","state_name":"Florida","lat":30.45851,"lng":-83.6294,"zip":"32331","miles_from_dt":21.91},{"city":"Valdosta","state_name":"Georgia","lat":30.7963,"lng":-83.18647,"zip":"31606","miles_from_dt":22.2},{"city":"Valdosta","state_name":"Georgia","lat":30.93334,"lng":-83.23482,"zip":"31605","miles_from_dt":22.27},{"city":"Madison","state_name":"Florida","lat":30.46973,"lng":-83.41748,"zip":"32341","miles_from_dt":22.37},{"city":"Madison","state_name":"Florida","lat":30.45651,"lng":-83.42667,"zip":"32340","miles_from_dt":23.02},{"city":"Monticello","state_name":"Florida","lat":30.54402,"lng":-83.87248,"zip":"32345","miles_from_dt":24.35},{"city":"Moultrie","state_name":"Georgia","lat":31.10891,"lng":-83.68099,"zip":"31788","miles_from_dt":24.41},{"city":"Adel","state_name":"Georgia","lat":31.11861,"lng":-83.43731,"zip":"31620","miles_from_dt":25.03},{"city":"Coolidge","state_name":"Georgia","lat":31.01133,"lng":-83.87502,"zip":"31738","miles_from_dt":25.07},{"city":"Thomasville","state_name":"Georgia","lat":30.83761,"lng":-83.97801,"zip":"31799","miles_from_dt":25.36},{"city":"Thomasville","state_name":"Georgia","lat":30.83761,"lng":-83.97854,"zip":"31758","miles_from_dt":25.4},{"city":"Moody Afb","state_name":"Georgia","lat":30.96666,"lng":-83.19237,"zip":"31699","miles_from_dt":25.61},{"city":"Lake Park","state_name":"Georgia","lat":30.7337,"lng":-83.1096,"zip":"31636","miles_from_dt":26.83},{"city":"Ellenton","state_name":"Georgia","lat":31.1753,"lng":-83.58736,"zip":"31747","miles_from_dt":27.93},{"city":"Jennings","state_name":"Florida","lat":30.56417,"lng":-83.1519,"zip":"32053","miles_from_dt":28.08},{"city":"Ray City","state_name":"Georgia","lat":31.06245,"lng":-83.21846,"zip":"31645","miles_from_dt":28.5},{"city":"Thomasville","state_name":"Georgia","lat":30.77079,"lng":-84.04238,"zip":"31792","miles_from_dt":28.78},{"city":"Naylor","state_name":"Georgia","lat":30.93182,"lng":-83.09672,"zip":"31641","miles_from_dt":29.61},{"city":"Moultrie","state_name":"Georgia","lat":31.15565,"lng":-83.7939,"zip":"31776","miles_from_dt":29.98}],"targetCityZipCode":"31643","targetCityState":"Georgia"},"__N_SSG":true}