{"pageProps":{"stateName":"Georgia","cityName":"shellman","nearbyCities":[{"city":"Cuthbert","state_name":"Georgia","lat":31.78874,"lng":-84.75986,"zip":"39840","miles_from_dt":9.28},{"city":"Dawson","state_name":"Georgia","lat":31.75837,"lng":-84.44314,"zip":"39842","miles_from_dt":10.28},{"city":"Morgan","state_name":"Georgia","lat":31.55954,"lng":-84.60553,"zip":"39866","miles_from_dt":12.08},{"city":"Edison","state_name":"Georgia","lat":31.56841,"lng":-84.74271,"zip":"39846","miles_from_dt":13.69},{"city":"Parrott","state_name":"Georgia","lat":31.9183,"lng":-84.50647,"zip":"39877","miles_from_dt":14.18},{"city":"Weston","state_name":"Georgia","lat":31.95501,"lng":-84.61709,"zip":"31832","miles_from_dt":15.18},{"city":"Sasser","state_name":"Georgia","lat":31.72189,"lng":-84.34304,"zip":"39885","miles_from_dt":16.07},{"city":"Coleman","state_name":"Georgia","lat":31.66293,"lng":-84.87726,"zip":"39836","miles_from_dt":16.19},{"city":"Bronwood","state_name":"Georgia","lat":31.82092,"lng":-84.32423,"zip":"39826","miles_from_dt":18.15},{"city":"Leary","state_name":"Georgia","lat":31.45694,"lng":-84.51615,"zip":"39862","miles_from_dt":20.01},{"city":"Morris","state_name":"Georgia","lat":31.84076,"lng":-84.93684,"zip":"39867","miles_from_dt":20.27},{"city":"Bluffton","state_name":"Georgia","lat":31.52882,"lng":-84.86552,"zip":"39824","miles_from_dt":20.45},{"city":"Arlington","state_name":"Georgia","lat":31.42631,"lng":-84.68361,"zip":"39813","miles_from_dt":21.62},{"city":"Preston","state_name":"Georgia","lat":32.05687,"lng":-84.5229,"zip":"31824","miles_from_dt":22.86},{"city":"Fort Gaines","state_name":"Georgia","lat":31.63432,"lng":-85.00086,"zip":"39851","miles_from_dt":23.73},{"city":"Albany","state_name":"Georgia","lat":31.5087,"lng":-84.30331,"zip":"31721","miles_from_dt":24.11},{"city":"Plains","state_name":"Georgia","lat":32.02898,"lng":-84.39024,"zip":"31780","miles_from_dt":24.22},{"city":"Smithville","state_name":"Georgia","lat":31.89994,"lng":-84.24947,"zip":"31787","miles_from_dt":24.36},{"city":"Lumpkin","state_name":"Georgia","lat":32.04117,"lng":-84.85407,"zip":"31815","miles_from_dt":25.35},{"city":"Richland","state_name":"Georgia","lat":32.1081,"lng":-84.6693,"zip":"31825","miles_from_dt":25.92},{"city":"Albany","state_name":"Georgia","lat":31.58736,"lng":-84.20689,"zip":"31707","miles_from_dt":26.13},{"city":"Albany","state_name":"Georgia","lat":31.59825,"lng":-84.19996,"zip":"31702","miles_from_dt":26.23},{"city":"Georgetown","state_name":"Georgia","lat":31.86713,"lng":-85.04881,"zip":"39854","miles_from_dt":27.08},{"city":"Leesburg","state_name":"Georgia","lat":31.73889,"lng":-84.14711,"zip":"31763","miles_from_dt":27.58},{"city":"Albany","state_name":"Georgia","lat":31.57908,"lng":-84.15624,"zip":"31706","miles_from_dt":29.11},{"city":"Albany","state_name":"Georgia","lat":31.57376,"lng":-84.15508,"zip":"31701","miles_from_dt":29.31},{"city":"Albany","state_name":"Georgia","lat":31.57707,"lng":-84.15307,"zip":"31703","miles_from_dt":29.34},{"city":"Albany","state_name":"Georgia","lat":31.59339,"lng":-84.14105,"zip":"31708","miles_from_dt":29.61}],"targetCityZipCode":"39886","targetCityState":"Georgia"},"__N_SSG":true}