{"pageProps":{"stateName":"Georgia","cityName":"sparta","nearbyCities":[{"city":"Jewell","state_name":"Georgia","lat":33.28484,"lng":-82.78933,"zip":"31045","miles_from_dt":12.67},{"city":"White Plains","state_name":"Georgia","lat":33.44626,"lng":-83.07598,"zip":"30678","miles_from_dt":13.04},{"city":"Warthen","state_name":"Georgia","lat":33.11378,"lng":-82.79892,"zip":"31094","miles_from_dt":15.99},{"city":"Mitchell","state_name":"Georgia","lat":33.22457,"lng":-82.71989,"zip":"30820","miles_from_dt":16.88},{"city":"Siloam","state_name":"Georgia","lat":33.53707,"lng":-83.07475,"zip":"30665","miles_from_dt":19.08},{"city":"Milledgeville","state_name":"Georgia","lat":33.06041,"lng":-83.22816,"zip":"31061","miles_from_dt":19.11},{"city":"Hardwick","state_name":"Georgia","lat":33.05473,"lng":-83.22538,"zip":"31034","miles_from_dt":19.29},{"city":"Milledgeville","state_name":"Georgia","lat":33.04336,"lng":-83.21563,"zip":"31062","miles_from_dt":19.54},{"city":"Sandersville","state_name":"Georgia","lat":32.992,"lng":-82.89815,"zip":"31082","miles_from_dt":19.92},{"city":"Eatonton","state_name":"Georgia","lat":33.32344,"lng":-83.36987,"zip":"31024","miles_from_dt":21.36},{"city":"Milledgeville","state_name":"Georgia","lat":33.08,"lng":-83.30219,"zip":"31059","miles_from_dt":21.38},{"city":"Greensboro","state_name":"Georgia","lat":33.5446,"lng":-83.1832,"zip":"30642","miles_from_dt":21.73},{"city":"Warrenton","state_name":"Georgia","lat":33.37281,"lng":-82.65351,"zip":"30828","miles_from_dt":21.74},{"city":"Norwood","state_name":"Georgia","lat":33.48502,"lng":-82.73121,"zip":"30821","miles_from_dt":21.96},{"city":"Crawfordville","state_name":"Georgia","lat":33.56553,"lng":-82.87034,"zip":"30631","miles_from_dt":22.1},{"city":"Eatonton","state_name":"Georgia","lat":33.33,"lng":-83.39219,"zip":"31026","miles_from_dt":22.72},{"city":"Sharon","state_name":"Georgia","lat":33.55786,"lng":-82.79904,"zip":"30664","miles_from_dt":23.43},{"city":"Gibson","state_name":"Georgia","lat":33.23247,"lng":-82.58849,"zip":"30810","miles_from_dt":24.35},{"city":"Camak","state_name":"Georgia","lat":33.45517,"lng":-82.64777,"zip":"30807","miles_from_dt":24.53},{"city":"Buckhead","state_name":"Georgia","lat":33.52128,"lng":-83.34211,"zip":"30625","miles_from_dt":26.16},{"city":"Mesena","state_name":"Georgia","lat":33.46056,"lng":-82.59162,"zip":"30819","miles_from_dt":27.51},{"city":"Avera","state_name":"Georgia","lat":33.13878,"lng":-82.55013,"zip":"30803","miles_from_dt":27.89},{"city":"Haddock","state_name":"Georgia","lat":33.07661,"lng":-83.43643,"zip":"31033","miles_from_dt":28.1},{"city":"Union Point","state_name":"Georgia","lat":33.67159,"lng":-83.11187,"zip":"30669","miles_from_dt":28.59},{"city":"Oconee","state_name":"Georgia","lat":32.85229,"lng":-82.96471,"zip":"31067","miles_from_dt":28.62},{"city":"McIntyre","state_name":"Georgia","lat":32.88214,"lng":-83.20723,"zip":"31054","miles_from_dt":28.89},{"city":"Tennille","state_name":"Georgia","lat":32.85239,"lng":-82.86361,"zip":"31089","miles_from_dt":29.7},{"city":"Davisboro","state_name":"Georgia","lat":32.97888,"lng":-82.62012,"zip":"31018","miles_from_dt":29.92}],"targetCityZipCode":"31087","targetCityState":"Georgia"},"__N_SSG":true}