{"pageProps":{"stateName":"Georgia","cityName":"sylvester","nearbyCities":[{"city":"Poulan","state_name":"Georgia","lat":31.56062,"lng":-83.79316,"zip":"31781","miles_from_dt":5.35},{"city":"Putney","state_name":"Georgia","lat":31.46532,"lng":-83.98368,"zip":"31782","miles_from_dt":7.81},{"city":"Sumner","state_name":"Georgia","lat":31.47858,"lng":-83.73257,"zip":"31789","miles_from_dt":9.41},{"city":"Albany","state_name":"Georgia","lat":31.51169,"lng":-84.05333,"zip":"31705","miles_from_dt":10.44},{"city":"Albany","state_name":"Georgia","lat":31.551,"lng":-84.05634,"zip":"31704","miles_from_dt":10.57},{"city":"Ty Ty","state_name":"Georgia","lat":31.47611,"lng":-83.67633,"zip":"31795","miles_from_dt":12.57},{"city":"Doerun","state_name":"Georgia","lat":31.33709,"lng":-83.90646,"zip":"31744","miles_from_dt":13.66},{"city":"Oakfield","state_name":"Georgia","lat":31.72213,"lng":-83.96504,"zip":"31772","miles_from_dt":13.94},{"city":"Albany","state_name":"Georgia","lat":31.59339,"lng":-84.14105,"zip":"31708","miles_from_dt":16.03},{"city":"Albany","state_name":"Georgia","lat":31.57707,"lng":-84.15307,"zip":"31703","miles_from_dt":16.48},{"city":"Warwick","state_name":"Georgia","lat":31.77351,"lng":-83.87659,"zip":"31796","miles_from_dt":16.51},{"city":"Albany","state_name":"Georgia","lat":31.57376,"lng":-84.15508,"zip":"31701","miles_from_dt":16.56},{"city":"Albany","state_name":"Georgia","lat":31.57908,"lng":-84.15624,"zip":"31706","miles_from_dt":16.69},{"city":"Ashburn","state_name":"Georgia","lat":31.71075,"lng":-83.67496,"zip":"31714","miles_from_dt":17.1},{"city":"Tifton","state_name":"Georgia","lat":31.46104,"lng":-83.58386,"zip":"31793","miles_from_dt":18.09},{"city":"Baconton","state_name":"Georgia","lat":31.36512,"lng":-84.11445,"zip":"31716","miles_from_dt":18.15},{"city":"Albany","state_name":"Georgia","lat":31.59825,"lng":-84.19996,"zip":"31702","miles_from_dt":19.49},{"city":"Albany","state_name":"Georgia","lat":31.58736,"lng":-84.20689,"zip":"31707","miles_from_dt":19.73},{"city":"Sycamore","state_name":"Georgia","lat":31.64823,"lng":-83.5693,"zip":"31790","miles_from_dt":19.86},{"city":"Leesburg","state_name":"Georgia","lat":31.73889,"lng":-84.14711,"zip":"31763","miles_from_dt":21.23},{"city":"Omega","state_name":"Georgia","lat":31.33418,"lng":-83.60366,"zip":"31775","miles_from_dt":21.27},{"city":"Sale City","state_name":"Georgia","lat":31.25671,"lng":-84.0431,"zip":"31784","miles_from_dt":21.43},{"city":"Arabi","state_name":"Georgia","lat":31.8215,"lng":-83.72806,"zip":"31712","miles_from_dt":21.71},{"city":"Funston","state_name":"Georgia","lat":31.20044,"lng":-83.87287,"zip":"31753","miles_from_dt":22.97},{"city":"Chula","state_name":"Georgia","lat":31.59293,"lng":-83.48599,"zip":"31733","miles_from_dt":23.5},{"city":"Moultrie","state_name":"Georgia","lat":31.19329,"lng":-83.84047,"zip":"31768","miles_from_dt":23.57},{"city":"Norman Park","state_name":"Georgia","lat":31.24332,"lng":-83.64775,"zip":"31771","miles_from_dt":24.21},{"city":"Albany","state_name":"Georgia","lat":31.5087,"lng":-84.30331,"zip":"31721","miles_from_dt":25.14},{"city":"Hartsfield","state_name":"Georgia","lat":31.17558,"lng":-83.96224,"zip":"31756","miles_from_dt":25.18},{"city":"Tifton","state_name":"Georgia","lat":31.44418,"lng":-83.45151,"zip":"31794","miles_from_dt":25.94},{"city":"De Soto","state_name":"Georgia","lat":31.90089,"lng":-84.00604,"zip":"31743","miles_from_dt":26.38},{"city":"Moultrie","state_name":"Georgia","lat":31.15565,"lng":-83.7939,"zip":"31776","miles_from_dt":26.53},{"city":"Cordele","state_name":"Georgia","lat":31.93729,"lng":-83.77444,"zip":"31015","miles_from_dt":28.46},{"city":"Rebecca","state_name":"Georgia","lat":31.76416,"lng":-83.4738,"zip":"31783","miles_from_dt":28.64},{"city":"Irwinville","state_name":"Georgia","lat":31.65664,"lng":-83.41012,"zip":"31760","miles_from_dt":28.88},{"city":"Cordele","state_name":"Georgia","lat":31.95392,"lng":-83.78295,"zip":"31010","miles_from_dt":29.48}],"targetCityZipCode":"31791","targetCityState":"Georgia"},"__N_SSG":true}