{"pageProps":{"stateName":"Georgia","cityName":"trion","nearbyCities":[{"city":"Summerville","state_name":"Georgia","lat":34.50179,"lng":-85.29407,"zip":"30747","miles_from_dt":5.33},{"city":"La Fayette","state_name":"Georgia","lat":34.68015,"lng":-85.23417,"zip":"30728","miles_from_dt":7.62},{"city":"Armuchee","state_name":"Georgia","lat":34.47012,"lng":-85.15532,"zip":"30105","miles_from_dt":10.66},{"city":"Menlo","state_name":"Georgia","lat":34.58317,"lng":-85.47894,"zip":"30731","miles_from_dt":10.89},{"city":"Chickamauga","state_name":"Georgia","lat":34.77943,"lng":-85.36028,"zip":"30707","miles_from_dt":14.42},{"city":"Sugar Valley","state_name":"Georgia","lat":34.59214,"lng":-85.03285,"zip":"30746","miles_from_dt":14.58},{"city":"Rock Spring","state_name":"Georgia","lat":34.80345,"lng":-85.21515,"zip":"30739","miles_from_dt":16.02},{"city":"Mentone","state_name":"Alabama","lat":34.52781,"lng":-85.56594,"zip":"35984","miles_from_dt":16.24},{"city":"Lyerly","state_name":"Georgia","lat":34.36017,"lng":-85.42172,"zip":"30730","miles_from_dt":16.9},{"city":"Rocky Face","state_name":"Georgia","lat":34.75407,"lng":-85.07786,"zip":"30740","miles_from_dt":17},{"city":"Plainville","state_name":"Georgia","lat":34.41574,"lng":-85.04349,"zip":"30733","miles_from_dt":17.93},{"city":"Rising Fawn","state_name":"Georgia","lat":34.79534,"lng":-85.47846,"zip":"30738","miles_from_dt":18.44},{"city":"Mount Berry","state_name":"Georgia","lat":34.31107,"lng":-85.21691,"zip":"30149","miles_from_dt":18.91},{"city":"Rome","state_name":"Georgia","lat":34.30279,"lng":-85.27233,"zip":"30165","miles_from_dt":19.06},{"city":"Dalton","state_name":"Georgia","lat":34.73472,"lng":-85.00289,"zip":"30720","miles_from_dt":19.47},{"city":"Valley Head","state_name":"Alabama","lat":34.60858,"lng":-85.63162,"zip":"35989","miles_from_dt":19.69},{"city":"Calhoun","state_name":"Georgia","lat":34.50135,"lng":-84.95382,"zip":"30703","miles_from_dt":19.8},{"city":"Calhoun","state_name":"Georgia","lat":34.49535,"lng":-84.95385,"zip":"30701","miles_from_dt":19.92},{"city":"Shannon","state_name":"Georgia","lat":34.34307,"lng":-85.08376,"zip":"30172","miles_from_dt":20.01},{"city":"Rome","state_name":"Georgia","lat":34.27643,"lng":-85.23108,"zip":"30164","miles_from_dt":21.11},{"city":"Coosa","state_name":"Georgia","lat":34.25862,"lng":-85.33853,"zip":"30129","miles_from_dt":22.27},{"city":"Gaylesville","state_name":"Alabama","lat":34.34222,"lng":-85.5554,"zip":"35973","miles_from_dt":22.34},{"city":"Dalton","state_name":"Georgia","lat":34.77002,"lng":-84.97073,"zip":"30719","miles_from_dt":22.36},{"city":"Ider","state_name":"Alabama","lat":34.72218,"lng":-85.64072,"zip":"35981","miles_from_dt":22.38},{"city":"Resaca","state_name":"Georgia","lat":34.60183,"lng":-84.89375,"zip":"30735","miles_from_dt":22.53},{"city":"Dalton","state_name":"Georgia","lat":34.76101,"lng":-84.94988,"zip":"30722","miles_from_dt":22.99},{"city":"Ringgold","state_name":"Georgia","lat":34.90244,"lng":-85.13306,"zip":"30736","miles_from_dt":23.98},{"city":"Flintstone","state_name":"Georgia","lat":34.92443,"lng":-85.35359,"zip":"30725","miles_from_dt":24.1},{"city":"Rome","state_name":"Georgia","lat":34.23758,"lng":-85.17319,"zip":"30161","miles_from_dt":24.43},{"city":"Tunnel Hill","state_name":"Georgia","lat":34.86944,"lng":-85.04072,"zip":"30755","miles_from_dt":24.48},{"city":"Rome","state_name":"Georgia","lat":34.24631,"lng":-85.12771,"zip":"30162","miles_from_dt":24.69},{"city":"Fort Oglethorpe","state_name":"Georgia","lat":34.93566,"lng":-85.24482,"zip":"30742","miles_from_dt":24.71},{"city":"Higdon","state_name":"Alabama","lat":34.82994,"lng":-85.6125,"zip":"35979","miles_from_dt":25.31},{"city":"Lookout Mountain","state_name":"Georgia","lat":34.93681,"lng":-85.3882,"zip":"30750","miles_from_dt":25.32},{"city":"Henagar","state_name":"Alabama","lat":34.64239,"lng":-85.72983,"zip":"35978","miles_from_dt":25.55},{"city":"Adairsville","state_name":"Georgia","lat":34.36457,"lng":-84.92014,"zip":"30103","miles_from_dt":25.68},{"city":"Rossville","state_name":"Georgia","lat":34.95168,"lng":-85.28213,"zip":"30741","miles_from_dt":25.69},{"city":"Dalton","state_name":"Georgia","lat":34.79168,"lng":-84.91187,"zip":"30721","miles_from_dt":25.96},{"city":"Wildwood","state_name":"Georgia","lat":34.94164,"lng":-85.4324,"zip":"30757","miles_from_dt":26.31},{"city":"Fort Payne","state_name":"Alabama","lat":34.3981,"lng":-85.69698,"zip":"35967","miles_from_dt":26.46},{"city":"Trenton","state_name":"Georgia","lat":34.91136,"lng":-85.53079,"zip":"30752","miles_from_dt":26.75},{"city":"Flat Rock","state_name":"Alabama","lat":34.79696,"lng":-85.68833,"zip":"35966","miles_from_dt":27.3},{"city":"Fort Payne","state_name":"Alabama","lat":34.48095,"lng":-85.77232,"zip":"35968","miles_from_dt":28.44},{"city":"Varnell","state_name":"Georgia","lat":34.90103,"lng":-84.97458,"zip":"30756","miles_from_dt":28.48},{"city":"Graysville","state_name":"Georgia","lat":34.97579,"lng":-85.13959,"zip":"30726","miles_from_dt":28.63},{"city":"Lookout Mountain","state_name":"Tennessee","lat":34.99445,"lng":-85.3516,"zip":"37350","miles_from_dt":28.87},{"city":"Chattanooga","state_name":"Tennessee","lat":34.9974,"lng":-85.22726,"zip":"37412","miles_from_dt":29.05},{"city":"Kingston","state_name":"Georgia","lat":34.24177,"lng":-84.98076,"zip":"30145","miles_from_dt":29.13},{"city":"Chattanooga","state_name":"Tennessee","lat":35.002,"lng":-85.28941,"zip":"37407","miles_from_dt":29.16},{"city":"Chattanooga","state_name":"Tennessee","lat":35.002,"lng":-85.31366,"zip":"37410","miles_from_dt":29.2},{"city":"Sylvania","state_name":"Alabama","lat":34.5589,"lng":-85.79994,"zip":"35988","miles_from_dt":29.22},{"city":"Chattanooga","state_name":"Tennessee","lat":35.0012,"lng":-85.34466,"zip":"37409","miles_from_dt":29.28},{"city":"Cedar Bluff","state_name":"Alabama","lat":34.23968,"lng":-85.60575,"zip":"35959","miles_from_dt":29.6}],"targetCityZipCode":"30753","targetCityState":"Georgia"},"__N_SSG":true}