{"pageProps":{"stateName":"Maine","cityName":"pittsfield","nearbyCities":[{"city":"Canaan","state_name":"Maine","lat":44.77922,"lng":-69.54967,"zip":"04924","miles_from_dt":5.49},{"city":"Detroit","state_name":"Maine","lat":44.76238,"lng":-69.31131,"zip":"04929","miles_from_dt":6.3},{"city":"Palmyra","state_name":"Maine","lat":44.84563,"lng":-69.36272,"zip":"04965","miles_from_dt":6.34},{"city":"Burnham","state_name":"Maine","lat":44.68739,"lng":-69.38255,"zip":"04922","miles_from_dt":6.42},{"city":"Clinton","state_name":"Maine","lat":44.67021,"lng":-69.53589,"zip":"04927","miles_from_dt":8.47},{"city":"Hartland","state_name":"Maine","lat":44.87994,"lng":-69.52054,"zip":"04943","miles_from_dt":8.51},{"city":"Plymouth","state_name":"Maine","lat":44.77019,"lng":-69.22461,"zip":"04969","miles_from_dt":10.53},{"city":"East Newport","state_name":"Maine","lat":44.82036,"lng":-69.22429,"zip":"04933","miles_from_dt":11.07},{"city":"Troy","state_name":"Maine","lat":44.67915,"lng":-69.25361,"zip":"04987","miles_from_dt":11.11},{"city":"Saint Albans","state_name":"Maine","lat":44.93191,"lng":-69.39225,"zip":"04971","miles_from_dt":11.32},{"city":"Skowhegan","state_name":"Maine","lat":44.79873,"lng":-69.66951,"zip":"04976","miles_from_dt":11.51},{"city":"Hinckley","state_name":"Maine","lat":44.68737,"lng":-69.64237,"zip":"04944","miles_from_dt":11.58},{"city":"Newport","state_name":"Maine","lat":44.86017,"lng":-69.23297,"zip":"04953","miles_from_dt":11.82},{"city":"Shawmut","state_name":"Maine","lat":44.62549,"lng":-69.58837,"zip":"04975","miles_from_dt":12.48},{"city":"Unity","state_name":"Maine","lat":44.59588,"lng":-69.35959,"zip":"04988","miles_from_dt":12.73},{"city":"Fairfield","state_name":"Maine","lat":44.63546,"lng":-69.67635,"zip":"04937","miles_from_dt":15},{"city":"Etna","state_name":"Maine","lat":44.78529,"lng":-69.13385,"zip":"04434","miles_from_dt":15.02},{"city":"Corinna","state_name":"Maine","lat":44.94973,"lng":-69.25695,"zip":"04928","miles_from_dt":15.21},{"city":"Dixmont","state_name":"Maine","lat":44.6957,"lng":-69.13335,"zip":"04932","miles_from_dt":15.91},{"city":"Waterville","state_name":"Maine","lat":44.55449,"lng":-69.57037,"zip":"04901","miles_from_dt":16.32},{"city":"Albion","state_name":"Maine","lat":44.517,"lng":-69.44123,"zip":"04910","miles_from_dt":17.57},{"city":"Stetson","state_name":"Maine","lat":44.87586,"lng":-69.11143,"zip":"04488","miles_from_dt":17.63},{"city":"Athens","state_name":"Maine","lat":44.97286,"lng":-69.68045,"zip":"04912","miles_from_dt":18.29},{"city":"Cambridge","state_name":"Maine","lat":45.03722,"lng":-69.44533,"zip":"04923","miles_from_dt":18.36},{"city":"Dexter","state_name":"Maine","lat":45.02656,"lng":-69.32835,"zip":"04930","miles_from_dt":18.43},{"city":"Thorndike","state_name":"Maine","lat":44.55286,"lng":-69.22354,"zip":"04986","miles_from_dt":18.44},{"city":"Madison","state_name":"Maine","lat":44.83241,"lng":-69.80556,"zip":"04950","miles_from_dt":18.52},{"city":"Waterville","state_name":"Maine","lat":44.54033,"lng":-69.63501,"zip":"04903","miles_from_dt":18.66},{"city":"Exeter","state_name":"Maine","lat":44.96435,"lng":-69.13539,"zip":"04435","miles_from_dt":19.98},{"city":"Carmel","state_name":"Maine","lat":44.7969,"lng":-69.03154,"zip":"04419","miles_from_dt":20.1},{"city":"Harmony","state_name":"Maine","lat":45.04148,"lng":-69.59241,"zip":"04942","miles_from_dt":20.12},{"city":"Brooks","state_name":"Maine","lat":44.57256,"lng":-69.13326,"zip":"04921","miles_from_dt":20.37},{"city":"China Village","state_name":"Maine","lat":44.48035,"lng":-69.51521,"zip":"04926","miles_from_dt":20.45},{"city":"Smithfield","state_name":"Maine","lat":44.63466,"lng":-69.80789,"zip":"04978","miles_from_dt":20.49},{"city":"Norridgewock","state_name":"Maine","lat":44.70419,"lng":-69.8471,"zip":"04957","miles_from_dt":20.63},{"city":"Solon","state_name":"Maine","lat":44.94105,"lng":-69.79731,"zip":"04979","miles_from_dt":21.16},{"city":"Freedom","state_name":"Maine","lat":44.4654,"lng":-69.3017,"zip":"04941","miles_from_dt":22.18},{"city":"North Vassalboro","state_name":"Maine","lat":44.4757,"lng":-69.62456,"zip":"04962","miles_from_dt":22.38},{"city":"Monroe","state_name":"Maine","lat":44.60716,"lng":-69.04575,"zip":"04951","miles_from_dt":22.43},{"city":"Levant","state_name":"Maine","lat":44.88645,"lng":-68.9977,"zip":"04456","miles_from_dt":23.08},{"city":"Oakland","state_name":"Maine","lat":44.56621,"lng":-69.81463,"zip":"04963","miles_from_dt":23.32},{"city":"East Vassalboro","state_name":"Maine","lat":44.44977,"lng":-69.60836,"zip":"04935","miles_from_dt":23.73},{"city":"Garland","state_name":"Maine","lat":45.05436,"lng":-69.15859,"zip":"04939","miles_from_dt":23.89},{"city":"Hampden","state_name":"Maine","lat":44.72591,"lng":-68.94585,"zip":"04444","miles_from_dt":24.45},{"city":"South China","state_name":"Maine","lat":44.41821,"lng":-69.53286,"zip":"04358","miles_from_dt":24.83},{"city":"Sangerville","state_name":"Maine","lat":45.12755,"lng":-69.30688,"zip":"04479","miles_from_dt":25.43},{"city":"Corinth","state_name":"Maine","lat":44.9805,"lng":-69.01063,"zip":"04427","miles_from_dt":25.5},{"city":"North Anson","state_name":"Maine","lat":44.90561,"lng":-69.92494,"zip":"04958","miles_from_dt":25.63},{"city":"Anson","state_name":"Maine","lat":44.78039,"lng":-69.96112,"zip":"04911","miles_from_dt":25.7},{"city":"Vassalboro","state_name":"Maine","lat":44.4299,"lng":-69.64784,"zip":"04989","miles_from_dt":25.74},{"city":"Palermo","state_name":"Maine","lat":44.39602,"lng":-69.42709,"zip":"04354","miles_from_dt":25.92},{"city":"Belgrade Lakes","state_name":"Maine","lat":44.55027,"lng":-69.86651,"zip":"04918","miles_from_dt":26.03},{"city":"Kenduskeag","state_name":"Maine","lat":44.91593,"lng":-68.92797,"zip":"04450","miles_from_dt":27},{"city":"Winterport","state_name":"Maine","lat":44.65839,"lng":-68.91189,"zip":"04496","miles_from_dt":27.08},{"city":"Belgrade","state_name":"Maine","lat":44.48959,"lng":-69.84167,"zip":"04917","miles_from_dt":27.81},{"city":"Frankfort","state_name":"Maine","lat":44.59856,"lng":-68.91904,"zip":"04438","miles_from_dt":28.24},{"city":"Liberty","state_name":"Maine","lat":44.36712,"lng":-69.34029,"zip":"04949","miles_from_dt":28.33},{"city":"Charleston","state_name":"Maine","lat":45.07097,"lng":-69.03408,"zip":"04422","miles_from_dt":28.67},{"city":"Belfast","state_name":"Maine","lat":44.46643,"lng":-69.04156,"zip":"04915","miles_from_dt":28.76},{"city":"Morrill","state_name":"Maine","lat":44.40934,"lng":-69.14261,"zip":"04952","miles_from_dt":28.95},{"city":"New Sharon","state_name":"Maine","lat":44.63998,"lng":-70.00799,"zip":"04955","miles_from_dt":29.47},{"city":"Bangor","state_name":"Maine","lat":44.84711,"lng":-68.84654,"zip":"04401","miles_from_dt":29.57}],"targetCityZipCode":"04967","targetCityState":"Maine"},"__N_SSG":true}