{"pageProps":{"stateName":"Michigan","cityName":"algonac","nearbyCities":[{"city":"Harsens Island","state_name":"Michigan","lat":42.58947,"lng":-82.61948,"zip":"48028","miles_from_dt":3.88},{"city":"Marine City","state_name":"Michigan","lat":42.69664,"lng":-82.55052,"zip":"48039","miles_from_dt":4.35},{"city":"Fair Haven","state_name":"Michigan","lat":42.70102,"lng":-82.6593,"zip":"48023","miles_from_dt":5.99},{"city":"Anchorville","state_name":"Michigan","lat":42.7137,"lng":-82.6822,"zip":"48004","miles_from_dt":7.43},{"city":"East China","state_name":"Michigan","lat":42.77054,"lng":-82.54515,"zip":"48054","miles_from_dt":9.36},{"city":"Casco","state_name":"Michigan","lat":42.76719,"lng":-82.67233,"zip":"48064","miles_from_dt":10.13},{"city":"New Baltimore","state_name":"Michigan","lat":42.67754,"lng":-82.77744,"zip":"48047","miles_from_dt":10.46},{"city":"New Baltimore","state_name":"Michigan","lat":42.69067,"lng":-82.82582,"zip":"48051","miles_from_dt":13.08},{"city":"New Haven","state_name":"Michigan","lat":42.7417,"lng":-82.79558,"zip":"48048","miles_from_dt":13.15},{"city":"Harrison Township","state_name":"Michigan","lat":42.59121,"lng":-82.83017,"zip":"48045","miles_from_dt":13.17},{"city":"New Haven","state_name":"Michigan","lat":42.78486,"lng":-82.80139,"zip":"48050","miles_from_dt":15.21},{"city":"Saint Clair","state_name":"Michigan","lat":42.8576,"lng":-82.54721,"zip":"48079","miles_from_dt":15.29},{"city":"Mount Clemens","state_name":"Michigan","lat":42.59763,"lng":-82.88208,"zip":"48043","miles_from_dt":15.67},{"city":"Mount Clemens","state_name":"Michigan","lat":42.59213,"lng":-82.88376,"zip":"48046","miles_from_dt":15.82},{"city":"Columbus","state_name":"Michigan","lat":42.85581,"lng":-82.67676,"zip":"48063","miles_from_dt":15.87},{"city":"Clinton Township","state_name":"Michigan","lat":42.59227,"lng":-82.89971,"zip":"48036","miles_from_dt":16.62},{"city":"Macomb","state_name":"Michigan","lat":42.68673,"lng":-82.90857,"zip":"48042","miles_from_dt":17.11},{"city":"Saint Clair Shores","state_name":"Michigan","lat":42.5271,"lng":-82.88711,"zip":"48082","miles_from_dt":17.44},{"city":"Clinton Township","state_name":"Michigan","lat":42.55615,"lng":-82.90948,"zip":"48035","miles_from_dt":17.74},{"city":"Macomb","state_name":"Michigan","lat":42.64988,"lng":-82.9296,"zip":"48044","miles_from_dt":17.86},{"city":"Richmond","state_name":"Michigan","lat":42.84899,"lng":-82.79989,"zip":"48062","miles_from_dt":18.42},{"city":"Clinton Township","state_name":"Michigan","lat":42.6054,"lng":-82.94152,"zip":"48038","miles_from_dt":18.59},{"city":"Saint Clair Shores","state_name":"Michigan","lat":42.4955,"lng":-82.89912,"zip":"48081","miles_from_dt":19.02},{"city":"Ray","state_name":"Michigan","lat":42.76132,"lng":-82.9199,"zip":"48096","miles_from_dt":19.33},{"city":"Marysville","state_name":"Michigan","lat":42.90983,"lng":-82.48022,"zip":"48040","miles_from_dt":19.48},{"city":"Warren","state_name":"Michigan","lat":42.45537,"lng":-82.88526,"zip":"48090","miles_from_dt":20.03},{"city":"Fraser","state_name":"Michigan","lat":42.53879,"lng":-82.94964,"zip":"48026","miles_from_dt":20.07},{"city":"Saint Clair Shores","state_name":"Michigan","lat":42.46418,"lng":-82.90031,"zip":"48080","miles_from_dt":20.27},{"city":"Roseville","state_name":"Michigan","lat":42.50735,"lng":-82.93697,"zip":"48066","miles_from_dt":20.32},{"city":"Utica","state_name":"Michigan","lat":42.67254,"lng":-82.9963,"zip":"48315","miles_from_dt":21.38},{"city":"Smiths Creek","state_name":"Michigan","lat":42.9484,"lng":-82.56196,"zip":"48074","miles_from_dt":21.49},{"city":"Sterling Heights","state_name":"Michigan","lat":42.59985,"lng":-82.99984,"zip":"48313","miles_from_dt":21.58},{"city":"Grosse Pointe","state_name":"Michigan","lat":42.42504,"lng":-82.89687,"zip":"48236","miles_from_dt":21.85},{"city":"Goodells","state_name":"Michigan","lat":42.94466,"lng":-82.68217,"zip":"48027","miles_from_dt":21.85},{"city":"Eastpointe","state_name":"Michigan","lat":42.46567,"lng":-82.94598,"zip":"48021","miles_from_dt":22.14},{"city":"Warren","state_name":"Michigan","lat":42.51573,"lng":-82.98298,"zip":"48088","miles_from_dt":22.23},{"city":"Detroit","state_name":"Michigan","lat":42.44113,"lng":-82.93099,"zip":"48265","miles_from_dt":22.48},{"city":"Harper Woods","state_name":"Michigan","lat":42.43893,"lng":-82.92965,"zip":"48225","miles_from_dt":22.52},{"city":"Sterling Heights","state_name":"Michigan","lat":42.55831,"lng":-83.00914,"zip":"48312","miles_from_dt":22.58},{"city":"Armada","state_name":"Michigan","lat":42.85022,"lng":-82.92317,"zip":"48005","miles_from_dt":22.84},{"city":"Utica","state_name":"Michigan","lat":42.62446,"lng":-83.03325,"zip":"48318","miles_from_dt":23.14},{"city":"Sterling Heights","state_name":"Michigan","lat":42.57833,"lng":-83.02844,"zip":"48311","miles_from_dt":23.25},{"city":"Memphis","state_name":"Michigan","lat":42.93861,"lng":-82.80271,"zip":"48041","miles_from_dt":23.69},{"city":"Warren","state_name":"Michigan","lat":42.51483,"lng":-83.01554,"zip":"48093","miles_from_dt":23.8},{"city":"Warren","state_name":"Michigan","lat":42.4702,"lng":-82.99549,"zip":"48089","miles_from_dt":24.16},{"city":"Utica","state_name":"Michigan","lat":42.64673,"lng":-83.05334,"zip":"48317","miles_from_dt":24.16},{"city":"Detroit","state_name":"Michigan","lat":42.41074,"lng":-82.94147,"zip":"48224","miles_from_dt":24.21},{"city":"Port Huron","state_name":"Michigan","lat":42.97835,"lng":-82.46297,"zip":"48060","miles_from_dt":24.27},{"city":"Sterling Heights","state_name":"Michigan","lat":42.60978,"lng":-83.05426,"zip":"48314","miles_from_dt":24.28},{"city":"Washington","state_name":"Michigan","lat":42.73645,"lng":-83.03718,"zip":"48094","miles_from_dt":24.29},{"city":"Utica","state_name":"Michigan","lat":42.69059,"lng":-83.05671,"zip":"48316","miles_from_dt":24.59},{"city":"Grosse Pointe","state_name":"Michigan","lat":42.38353,"lng":-82.92304,"zip":"48230","miles_from_dt":24.79},{"city":"Detroit","state_name":"Michigan","lat":42.43317,"lng":-82.98131,"zip":"48205","miles_from_dt":24.89},{"city":"Center Line","state_name":"Michigan","lat":42.48055,"lng":-83.02743,"zip":"48015","miles_from_dt":25.29},{"city":"Washington","state_name":"Michigan","lat":42.77977,"lng":-83.03837,"zip":"48095","miles_from_dt":25.34},{"city":"Sterling Heights","state_name":"Michigan","lat":42.56511,"lng":-83.06694,"zip":"48310","miles_from_dt":25.35},{"city":"Warren","state_name":"Michigan","lat":42.50387,"lng":-83.04567,"zip":"48397","miles_from_dt":25.51},{"city":"Port Huron","state_name":"Michigan","lat":42.99426,"lng":-82.43191,"zip":"48061","miles_from_dt":25.75},{"city":"Warren","state_name":"Michigan","lat":42.51308,"lng":-83.05968,"zip":"48092","miles_from_dt":25.95},{"city":"Detroit","state_name":"Michigan","lat":42.37523,"lng":-82.95428,"zip":"48215","miles_from_dt":26.34},{"city":"Detroit","state_name":"Michigan","lat":42.39787,"lng":-82.9955,"zip":"48213","miles_from_dt":26.91},{"city":"Warren","state_name":"Michigan","lat":42.4681,"lng":-83.05819,"zip":"48091","miles_from_dt":27.08},{"city":"Allenton","state_name":"Michigan","lat":42.93916,"lng":-82.92601,"zip":"48002","miles_from_dt":27.29},{"city":"Detroit","state_name":"Michigan","lat":42.4312,"lng":-83.03952,"zip":"48234","miles_from_dt":27.46},{"city":"Romeo","state_name":"Michigan","lat":42.84554,"lng":-83.04072,"zip":"48065","miles_from_dt":27.52},{"city":"North Street","state_name":"Michigan","lat":43.0361,"lng":-82.57504,"zip":"48049","miles_from_dt":27.53},{"city":"Troy","state_name":"Michigan","lat":42.6006,"lng":-83.11982,"zip":"48085","miles_from_dt":27.66},{"city":"Rochester","state_name":"Michigan","lat":42.65953,"lng":-83.12301,"zip":"48307","miles_from_dt":27.74},{"city":"Troy","state_name":"Michigan","lat":42.557,"lng":-83.11676,"zip":"48083","miles_from_dt":27.95},{"city":"Detroit","state_name":"Michigan","lat":42.36504,"lng":-82.98697,"zip":"48214","miles_from_dt":28.04},{"city":"Madison Heights","state_name":"Michigan","lat":42.50726,"lng":-83.10337,"zip":"48071","miles_from_dt":28.19},{"city":"Rochester","state_name":"Michigan","lat":42.6784,"lng":-83.1341,"zip":"48308","miles_from_dt":28.4},{"city":"Hamtramck","state_name":"Michigan","lat":42.41003,"lng":-83.05601,"zip":"48212","miles_from_dt":28.95},{"city":"Hazel Park","state_name":"Michigan","lat":42.46193,"lng":-83.09769,"zip":"48030","miles_from_dt":29.09},{"city":"Troy","state_name":"Michigan","lat":42.581,"lng":-83.14574,"zip":"48007","miles_from_dt":29.13},{"city":"Troy","state_name":"Michigan","lat":42.56173,"lng":-83.14647,"zip":"48099","miles_from_dt":29.38},{"city":"Emmett","state_name":"Michigan","lat":43.02824,"lng":-82.81111,"zip":"48022","miles_from_dt":29.44},{"city":"Rochester","state_name":"Michigan","lat":42.72243,"lng":-83.14944,"zip":"48306","miles_from_dt":29.62},{"city":"Detroit","state_name":"Michigan","lat":42.38175,"lng":-83.04616,"zip":"48211","miles_from_dt":29.65},{"city":"Detroit","state_name":"Michigan","lat":42.34753,"lng":-83.01104,"zip":"48207","miles_from_dt":29.77},{"city":"Detroit","state_name":"Michigan","lat":42.34445,"lng":-83.00918,"zip":"48266","miles_from_dt":29.84},{"city":"Clawson","state_name":"Michigan","lat":42.53669,"lng":-83.15039,"zip":"48017","miles_from_dt":29.94}],"targetCityZipCode":"48001","targetCityState":"Michigan"},"__N_SSG":true}