{"pageProps":{"stateName":"Michigan","cityName":"amasa","nearbyCities":[{"city":"Covington","state_name":"Michigan","lat":46.50995,"lng":-88.43518,"zip":"49919","miles_from_dt":12.35},{"city":"Watton","state_name":"Michigan","lat":46.53555,"lng":-88.59783,"zip":"49970","miles_from_dt":14.89},{"city":"Iron River","state_name":"Michigan","lat":46.19493,"lng":-88.7463,"zip":"49935","miles_from_dt":15.8},{"city":"Crystal Falls","state_name":"Michigan","lat":46.14087,"lng":-88.30079,"zip":"49920","miles_from_dt":16.03},{"city":"Sidnaw","state_name":"Michigan","lat":46.50667,"lng":-88.74358,"zip":"49961","miles_from_dt":17.14},{"city":"Stambaugh","state_name":"Michigan","lat":46.08148,"lng":-88.62983,"zip":"49964","miles_from_dt":18.81},{"city":"Republic","state_name":"Michigan","lat":46.3437,"lng":-88.08432,"zip":"49879","miles_from_dt":19.18},{"city":"Caspian","state_name":"Michigan","lat":46.06464,"lng":-88.62708,"zip":"49915","miles_from_dt":19.85},{"city":"Alpha","state_name":"Michigan","lat":46.04905,"lng":-88.37744,"zip":"49902","miles_from_dt":20.38},{"city":"Gaastra","state_name":"Michigan","lat":46.04475,"lng":-88.57108,"zip":"49927","miles_from_dt":20.44},{"city":"Michigamme","state_name":"Michigan","lat":46.57639,"lng":-88.16043,"zip":"49861","miles_from_dt":22.78},{"city":"Trout Creek","state_name":"Michigan","lat":46.49377,"lng":-88.95551,"zip":"49967","miles_from_dt":25.03},{"city":"Channing","state_name":"Michigan","lat":46.18465,"lng":-87.95967,"zip":"49815","miles_from_dt":27.21},{"city":"Lanse","state_name":"Michigan","lat":46.7189,"lng":-88.33725,"zip":"49946","miles_from_dt":27.47},{"city":"Nisula","state_name":"Michigan","lat":46.68309,"lng":-88.78408,"zip":"49952","miles_from_dt":27.98},{"city":"Sagola","state_name":"Michigan","lat":46.07852,"lng":-88.03259,"zip":"49881","miles_from_dt":27.99},{"city":"Baraga","state_name":"Michigan","lat":46.75276,"lng":-88.57034,"zip":"49908","miles_from_dt":29.17},{"city":"Champion","state_name":"Michigan","lat":46.54459,"lng":-87.94395,"zip":"49814","miles_from_dt":29.63}],"targetCityZipCode":"49903","targetCityState":"Michigan"},"__N_SSG":true}