{"pageProps":{"stateName":"Michigan","cityName":"applegate","nearbyCities":[{"city":"Carsonville","state_name":"Michigan","lat":43.42884,"lng":-82.65762,"zip":"48419","miles_from_dt":5.27},{"city":"Croswell","state_name":"Michigan","lat":43.26265,"lng":-82.65069,"zip":"48422","miles_from_dt":6.23},{"city":"Port Sanilac","state_name":"Michigan","lat":43.43927,"lng":-82.55849,"zip":"48469","miles_from_dt":7.89},{"city":"Lexington","state_name":"Michigan","lat":43.25289,"lng":-82.54123,"zip":"48450","miles_from_dt":9.14},{"city":"Peck","state_name":"Michigan","lat":43.27693,"lng":-82.81731,"zip":"48466","miles_from_dt":9.47},{"city":"Sandusky","state_name":"Michigan","lat":43.41868,"lng":-82.85369,"zip":"48471","miles_from_dt":10.74},{"city":"Deckerville","state_name":"Michigan","lat":43.53789,"lng":-82.72378,"zip":"48427","miles_from_dt":13.18},{"city":"Melvin","state_name":"Michigan","lat":43.19999,"lng":-82.81833,"zip":"48454","miles_from_dt":13.2},{"city":"Jeddo","state_name":"Michigan","lat":43.13278,"lng":-82.59457,"zip":"48032","miles_from_dt":15.54},{"city":"Yale","state_name":"Michigan","lat":43.12639,"lng":-82.82955,"zip":"48097","miles_from_dt":17.79},{"city":"Palms","state_name":"Michigan","lat":43.61485,"lng":-82.71099,"zip":"48465","miles_from_dt":18.28},{"city":"Snover","state_name":"Michigan","lat":43.51211,"lng":-82.95732,"zip":"48472","miles_from_dt":18.55},{"city":"Brown City","state_name":"Michigan","lat":43.21791,"lng":-82.98476,"zip":"48416","miles_from_dt":18.81},{"city":"Marlette","state_name":"Michigan","lat":43.34374,"lng":-83.03493,"zip":"48453","miles_from_dt":18.87},{"city":"Avoca","state_name":"Michigan","lat":43.0754,"lng":-82.69642,"zip":"48006","miles_from_dt":19.22},{"city":"Argyle","state_name":"Michigan","lat":43.56629,"lng":-82.9362,"zip":"48410","miles_from_dt":20.24},{"city":"Fort Gratiot","state_name":"Michigan","lat":43.08253,"lng":-82.49913,"zip":"48059","miles_from_dt":20.35},{"city":"Forestville","state_name":"Michigan","lat":43.65988,"lng":-82.61263,"zip":"48434","miles_from_dt":21.35},{"city":"North Street","state_name":"Michigan","lat":43.0361,"lng":-82.57504,"zip":"48049","miles_from_dt":22.27},{"city":"Minden City","state_name":"Michigan","lat":43.67102,"lng":-82.75818,"zip":"48456","miles_from_dt":22.52},{"city":"Decker","state_name":"Michigan","lat":43.50856,"lng":-83.06025,"zip":"48426","miles_from_dt":22.81},{"city":"Emmett","state_name":"Michigan","lat":43.02824,"lng":-82.81111,"zip":"48022","miles_from_dt":23.65},{"city":"Ubly","state_name":"Michigan","lat":43.67141,"lng":-82.93732,"zip":"48475","miles_from_dt":26.03},{"city":"Clifford","state_name":"Michigan","lat":43.30695,"lng":-83.17935,"zip":"48727","miles_from_dt":26.33},{"city":"Capac","state_name":"Michigan","lat":43.02466,"lng":-82.93115,"zip":"48014","miles_from_dt":26.44},{"city":"Kingston","state_name":"Michigan","lat":43.40487,"lng":-83.18121,"zip":"48741","miles_from_dt":26.46},{"city":"Ruth","state_name":"Michigan","lat":43.73253,"lng":-82.76158,"zip":"48470","miles_from_dt":26.71},{"city":"Port Huron","state_name":"Michigan","lat":42.99426,"lng":-82.43191,"zip":"48061","miles_from_dt":27.3},{"city":"Port Huron","state_name":"Michigan","lat":42.97835,"lng":-82.46297,"zip":"48060","miles_from_dt":27.7},{"city":"Deford","state_name":"Michigan","lat":43.49621,"lng":-83.17828,"zip":"48729","miles_from_dt":27.87},{"city":"Imlay City","state_name":"Michigan","lat":43.06455,"lng":-83.05471,"zip":"48444","miles_from_dt":28.13},{"city":"Goodells","state_name":"Michigan","lat":42.94466,"lng":-82.68217,"zip":"48027","miles_from_dt":28.18},{"city":"Smiths Creek","state_name":"Michigan","lat":42.9484,"lng":-82.56196,"zip":"48074","miles_from_dt":28.34},{"city":"North Branch","state_name":"Michigan","lat":43.2024,"lng":-83.20669,"zip":"48461","miles_from_dt":29.43},{"city":"Memphis","state_name":"Michigan","lat":42.93861,"lng":-82.80271,"zip":"48041","miles_from_dt":29.47}],"targetCityZipCode":"48401","targetCityState":"Michigan"},"__N_SSG":true}