{"pageProps":{"stateName":"Michigan","cityName":"attica","nearbyCities":[{"city":"Imlay City","state_name":"Michigan","lat":43.06455,"lng":-83.05471,"zip":"48444","miles_from_dt":5.8},{"city":"Lapeer","state_name":"Michigan","lat":43.05259,"lng":-83.33745,"zip":"48446","miles_from_dt":8.55},{"city":"Dryden","state_name":"Michigan","lat":42.93752,"lng":-83.14756,"zip":"48428","miles_from_dt":8.86},{"city":"North Branch","state_name":"Michigan","lat":43.2024,"lng":-83.20669,"zip":"48461","miles_from_dt":9.68},{"city":"Metamora","state_name":"Michigan","lat":42.94028,"lng":-83.29131,"zip":"48455","miles_from_dt":10.59},{"city":"Almont","state_name":"Michigan","lat":42.93228,"lng":-83.04088,"zip":"48003","miles_from_dt":11.23},{"city":"Capac","state_name":"Michigan","lat":43.02466,"lng":-82.93115,"zip":"48014","miles_from_dt":12.37},{"city":"Columbiaville","state_name":"Michigan","lat":43.15321,"lng":-83.39262,"zip":"48421","miles_from_dt":12.84},{"city":"Brown City","state_name":"Michigan","lat":43.21791,"lng":-82.98476,"zip":"48416","miles_from_dt":14.1},{"city":"Hadley","state_name":"Michigan","lat":42.95567,"lng":-83.40785,"zip":"48440","miles_from_dt":14.24},{"city":"Allenton","state_name":"Michigan","lat":42.93916,"lng":-82.92601,"zip":"48002","miles_from_dt":15.07},{"city":"Leonard","state_name":"Michigan","lat":42.84282,"lng":-83.14143,"zip":"48367","miles_from_dt":15.39},{"city":"Oxford","state_name":"Michigan","lat":42.83797,"lng":-83.19981,"zip":"48370","miles_from_dt":15.74},{"city":"Fostoria","state_name":"Michigan","lat":43.24863,"lng":-83.3598,"zip":"48435","miles_from_dt":15.93},{"city":"Oxford","state_name":"Michigan","lat":42.84544,"lng":-83.28785,"zip":"48371","miles_from_dt":16.29},{"city":"Otter Lake","state_name":"Michigan","lat":43.21562,"lng":-83.41884,"zip":"48464","miles_from_dt":16.35},{"city":"Romeo","state_name":"Michigan","lat":42.84554,"lng":-83.04072,"zip":"48065","miles_from_dt":16.48},{"city":"Clifford","state_name":"Michigan","lat":43.30695,"lng":-83.17935,"zip":"48727","miles_from_dt":16.72},{"city":"Lakeville","state_name":"Michigan","lat":42.82169,"lng":-83.15218,"zip":"48366","miles_from_dt":16.81},{"city":"Davison","state_name":"Michigan","lat":43.03982,"lng":-83.51404,"zip":"48423","miles_from_dt":17.54},{"city":"Yale","state_name":"Michigan","lat":43.12639,"lng":-82.82955,"zip":"48097","miles_from_dt":17.71},{"city":"Silverwood","state_name":"Michigan","lat":43.32095,"lng":-83.25595,"zip":"48760","miles_from_dt":18.21},{"city":"Emmett","state_name":"Michigan","lat":43.02824,"lng":-82.81111,"zip":"48022","miles_from_dt":18.31},{"city":"Goodrich","state_name":"Michigan","lat":42.91142,"lng":-83.47819,"zip":"48438","miles_from_dt":18.9},{"city":"Otisville","state_name":"Michigan","lat":43.16418,"lng":-83.52202,"zip":"48463","miles_from_dt":19.11},{"city":"Armada","state_name":"Michigan","lat":42.85022,"lng":-82.92317,"zip":"48005","miles_from_dt":19.37},{"city":"Lake Orion","state_name":"Michigan","lat":42.78444,"lng":-83.23808,"zip":"48361","miles_from_dt":19.67},{"city":"Ortonville","state_name":"Michigan","lat":42.84733,"lng":-83.42576,"zip":"48462","miles_from_dt":19.86},{"city":"Melvin","state_name":"Michigan","lat":43.19999,"lng":-82.81833,"zip":"48454","miles_from_dt":20.05},{"city":"Lake Orion","state_name":"Michigan","lat":42.782,"lng":-83.2696,"zip":"48362","miles_from_dt":20.18},{"city":"Oakland","state_name":"Michigan","lat":42.77209,"lng":-83.16114,"zip":"48363","miles_from_dt":20.21},{"city":"Marlette","state_name":"Michigan","lat":43.34374,"lng":-83.03493,"zip":"48453","miles_from_dt":20.41},{"city":"Atlas","state_name":"Michigan","lat":42.93577,"lng":-83.53202,"zip":"48411","miles_from_dt":20.42},{"city":"Memphis","state_name":"Michigan","lat":42.93861,"lng":-82.80271,"zip":"48041","miles_from_dt":20.52},{"city":"Washington","state_name":"Michigan","lat":42.77977,"lng":-83.03837,"zip":"48095","miles_from_dt":20.77},{"city":"Mayville","state_name":"Michigan","lat":43.34797,"lng":-83.36051,"zip":"48744","miles_from_dt":21.8},{"city":"Burton","state_name":"Michigan","lat":43.02635,"lng":-83.60527,"zip":"48509","miles_from_dt":22.23},{"city":"Lake Orion","state_name":"Michigan","lat":42.74903,"lng":-83.26789,"zip":"48360","miles_from_dt":22.37},{"city":"Burton","state_name":"Michigan","lat":42.98772,"lng":-83.60701,"zip":"48519","miles_from_dt":22.8},{"city":"Flint","state_name":"Michigan","lat":43.06775,"lng":-83.62253,"zip":"48506","miles_from_dt":22.94},{"city":"Genesee","state_name":"Michigan","lat":43.11248,"lng":-83.61893,"zip":"48437","miles_from_dt":22.98},{"city":"Peck","state_name":"Michigan","lat":43.27693,"lng":-82.81731,"zip":"48466","miles_from_dt":23.04},{"city":"Flint","state_name":"Michigan","lat":43.06486,"lng":-83.62639,"zip":"48556","miles_from_dt":23.13},{"city":"Millington","state_name":"Michigan","lat":43.26397,"lng":-83.54155,"zip":"48746","miles_from_dt":23.3},{"city":"Kingston","state_name":"Michigan","lat":43.40487,"lng":-83.18121,"zip":"48741","miles_from_dt":23.48},{"city":"Washington","state_name":"Michigan","lat":42.73645,"lng":-83.03718,"zip":"48094","miles_from_dt":23.64},{"city":"Rochester","state_name":"Michigan","lat":42.72243,"lng":-83.14944,"zip":"48306","miles_from_dt":23.66},{"city":"Clarkston","state_name":"Michigan","lat":42.76677,"lng":-83.40088,"zip":"48348","miles_from_dt":23.69},{"city":"Richmond","state_name":"Michigan","lat":42.84899,"lng":-82.79989,"zip":"48062","miles_from_dt":23.93},{"city":"Avoca","state_name":"Michigan","lat":43.0754,"lng":-82.69642,"zip":"48006","miles_from_dt":23.94},{"city":"Lake Orion","state_name":"Michigan","lat":42.7218,"lng":-83.27801,"zip":"48359","miles_from_dt":24.31},{"city":"Ray","state_name":"Michigan","lat":42.76132,"lng":-82.9199,"zip":"48096","miles_from_dt":24.48},{"city":"Grand Blanc","state_name":"Michigan","lat":42.92595,"lng":-83.6348,"zip":"48480","miles_from_dt":25.46},{"city":"Grand Blanc","state_name":"Michigan","lat":42.91733,"lng":-83.63018,"zip":"48439","miles_from_dt":25.48},{"city":"Burton","state_name":"Michigan","lat":42.97237,"lng":-83.66221,"zip":"48529","miles_from_dt":25.77},{"city":"Clarkston","state_name":"Michigan","lat":42.73562,"lng":-83.41999,"zip":"48347","miles_from_dt":26.04},{"city":"Goodells","state_name":"Michigan","lat":42.94466,"lng":-82.68217,"zip":"48027","miles_from_dt":26.04},{"city":"Flint","state_name":"Michigan","lat":43.06574,"lng":-83.6881,"zip":"48550","miles_from_dt":26.26},{"city":"Mount Morris","state_name":"Michigan","lat":43.1209,"lng":-83.68308,"zip":"48458","miles_from_dt":26.28},{"city":"Flint","state_name":"Michigan","lat":42.98712,"lng":-83.6793,"zip":"48557","miles_from_dt":26.38},{"city":"Flint","state_name":"Michigan","lat":43.06948,"lng":-83.69079,"zip":"48505","miles_from_dt":26.39},{"city":"Utica","state_name":"Michigan","lat":42.69059,"lng":-83.05671,"zip":"48316","miles_from_dt":26.46},{"city":"Flint","state_name":"Michigan","lat":43.01429,"lng":-83.68866,"zip":"48502","miles_from_dt":26.53},{"city":"Flint","state_name":"Michigan","lat":43.01139,"lng":-83.68901,"zip":"48503","miles_from_dt":26.57},{"city":"Rochester","state_name":"Michigan","lat":42.6784,"lng":-83.1341,"zip":"48308","miles_from_dt":26.74},{"city":"New Haven","state_name":"Michigan","lat":42.78486,"lng":-82.80139,"zip":"48050","miles_from_dt":26.87},{"city":"Clarkston","state_name":"Michigan","lat":42.72156,"lng":-83.42388,"zip":"48346","miles_from_dt":26.99},{"city":"Auburn Hills","state_name":"Michigan","lat":42.67434,"lng":-83.2424,"zip":"48321","miles_from_dt":27.21},{"city":"Auburn Hills","state_name":"Michigan","lat":42.67536,"lng":-83.2531,"zip":"48326","miles_from_dt":27.22},{"city":"Pontiac","state_name":"Michigan","lat":42.67065,"lng":-83.29019,"zip":"48340","miles_from_dt":27.89},{"city":"Flint","state_name":"Michigan","lat":42.99091,"lng":-83.71141,"zip":"48552","miles_from_dt":27.92},{"city":"Flint","state_name":"Michigan","lat":42.98726,"lng":-83.71196,"zip":"48551","miles_from_dt":28},{"city":"Rochester","state_name":"Michigan","lat":42.65866,"lng":-83.18348,"zip":"48309","miles_from_dt":28.05},{"city":"Rochester","state_name":"Michigan","lat":42.65953,"lng":-83.12301,"zip":"48307","miles_from_dt":28.08},{"city":"Waterford","state_name":"Michigan","lat":42.68826,"lng":-83.38854,"zip":"48329","miles_from_dt":28.28},{"city":"Drayton Plains","state_name":"Michigan","lat":42.68362,"lng":-83.37719,"zip":"48330","miles_from_dt":28.35},{"city":"Flint","state_name":"Michigan","lat":42.97433,"lng":-83.71617,"zip":"48553","miles_from_dt":28.39},{"city":"Utica","state_name":"Michigan","lat":42.67254,"lng":-82.9963,"zip":"48315","miles_from_dt":28.47},{"city":"Clio","state_name":"Michigan","lat":43.17968,"lng":-83.71176,"zip":"48420","miles_from_dt":28.55},{"city":"Flint","state_name":"Michigan","lat":42.96498,"lng":-83.71687,"zip":"48507","miles_from_dt":28.58},{"city":"Columbus","state_name":"Michigan","lat":42.85581,"lng":-82.67676,"zip":"48063","miles_from_dt":28.84},{"city":"Holly","state_name":"Michigan","lat":42.79316,"lng":-83.60224,"zip":"48442","miles_from_dt":28.88},{"city":"Davisburg","state_name":"Michigan","lat":42.74082,"lng":-83.53374,"zip":"48350","miles_from_dt":29.02},{"city":"Flint","state_name":"Michigan","lat":43.05912,"lng":-83.74424,"zip":"48555","miles_from_dt":29.1},{"city":"Sandusky","state_name":"Michigan","lat":43.41868,"lng":-82.85369,"zip":"48471","miles_from_dt":29.16},{"city":"Macomb","state_name":"Michigan","lat":42.68673,"lng":-82.90857,"zip":"48042","miles_from_dt":29.27},{"city":"New Haven","state_name":"Michigan","lat":42.7417,"lng":-82.79558,"zip":"48048","miles_from_dt":29.28},{"city":"Flint","state_name":"Michigan","lat":43.05632,"lng":-83.74948,"zip":"48504","miles_from_dt":29.37},{"city":"Flint","state_name":"Michigan","lat":43.05508,"lng":-83.75037,"zip":"48531","miles_from_dt":29.42},{"city":"Jeddo","state_name":"Michigan","lat":43.13278,"lng":-82.59457,"zip":"48032","miles_from_dt":29.45},{"city":"Utica","state_name":"Michigan","lat":42.64673,"lng":-83.05334,"zip":"48317","miles_from_dt":29.46},{"city":"Vassar","state_name":"Michigan","lat":43.37077,"lng":-83.57661,"zip":"48768","miles_from_dt":29.48},{"city":"Croswell","state_name":"Michigan","lat":43.26265,"lng":-82.65069,"zip":"48422","miles_from_dt":29.55},{"city":"Pontiac","state_name":"Michigan","lat":42.64389,"lng":-83.27591,"zip":"48342","miles_from_dt":29.56},{"city":"Deford","state_name":"Michigan","lat":43.49621,"lng":-83.17828,"zip":"48729","miles_from_dt":29.78},{"city":"Pontiac","state_name":"Michigan","lat":42.64041,"lng":-83.29074,"zip":"48343","miles_from_dt":29.94}],"targetCityZipCode":"48412","targetCityState":"Michigan"},"__N_SSG":true}