{"pageProps":{"stateName":"Michigan","cityName":"bay-city","nearbyCities":[{"city":"University Center","state_name":"Michigan","lat":43.55649,"lng":-83.98781,"zip":"48710","miles_from_dt":3.36},{"city":"Bay City","state_name":"Michigan","lat":43.55653,"lng":-83.84853,"zip":"48708","miles_from_dt":6.16},{"city":"Kawkawlin","state_name":"Michigan","lat":43.6849,"lng":-84.00155,"zip":"48631","miles_from_dt":6.33},{"city":"Saginaw","state_name":"Michigan","lat":43.49749,"lng":-83.95887,"zip":"48604","miles_from_dt":7.03},{"city":"Auburn","state_name":"Michigan","lat":43.63187,"lng":-84.0936,"zip":"48611","miles_from_dt":7.25},{"city":"Bay City","state_name":"Michigan","lat":43.52942,"lng":-83.84119,"zip":"48707","miles_from_dt":7.53},{"city":"Essexville","state_name":"Michigan","lat":43.60666,"lng":-83.78274,"zip":"48732","miles_from_dt":8.72},{"city":"Carrollton","state_name":"Michigan","lat":43.4569,"lng":-83.92709,"zip":"48724","miles_from_dt":9.94},{"city":"Saginaw","state_name":"Michigan","lat":43.46332,"lng":-84.03115,"zip":"48603","miles_from_dt":10.12},{"city":"Freeland","state_name":"Michigan","lat":43.5198,"lng":-84.13523,"zip":"48623","miles_from_dt":10.53},{"city":"Saginaw","state_name":"Michigan","lat":43.45908,"lng":-84.05217,"zip":"48605","miles_from_dt":10.82},{"city":"Munger","state_name":"Michigan","lat":43.52119,"lng":-83.76085,"zip":"48747","miles_from_dt":11.2},{"city":"Saginaw","state_name":"Michigan","lat":43.43967,"lng":-84.02945,"zip":"48608","miles_from_dt":11.62},{"city":"Saginaw","state_name":"Michigan","lat":43.43156,"lng":-83.93624,"zip":"48606","miles_from_dt":11.63},{"city":"Saginaw","state_name":"Michigan","lat":43.43136,"lng":-83.93409,"zip":"48607","miles_from_dt":11.65},{"city":"Linwood","state_name":"Michigan","lat":43.75405,"lng":-84.05414,"zip":"48634","miles_from_dt":11.75},{"city":"Saginaw","state_name":"Michigan","lat":43.41937,"lng":-83.94781,"zip":"48663","miles_from_dt":12.43},{"city":"Saginaw","state_name":"Michigan","lat":43.41971,"lng":-83.97469,"zip":"48602","miles_from_dt":12.44},{"city":"Midland","state_name":"Michigan","lat":43.60135,"lng":-84.20676,"zip":"48686","miles_from_dt":12.57},{"city":"Saginaw","state_name":"Michigan","lat":43.41681,"lng":-84.01958,"zip":"48638","miles_from_dt":13},{"city":"Saginaw","state_name":"Michigan","lat":43.40096,"lng":-83.8952,"zip":"48601","miles_from_dt":14.04},{"city":"Midland","state_name":"Michigan","lat":43.61046,"lng":-84.23736,"zip":"48667","miles_from_dt":14.12},{"city":"Midland","state_name":"Michigan","lat":43.63697,"lng":-84.25606,"zip":"48670","miles_from_dt":15.26},{"city":"Midland","state_name":"Michigan","lat":43.69945,"lng":-84.22849,"zip":"48642","miles_from_dt":15.3},{"city":"Midland","state_name":"Michigan","lat":43.70746,"lng":-84.22867,"zip":"48674","miles_from_dt":15.56},{"city":"Saginaw","state_name":"Michigan","lat":43.3878,"lng":-84.08786,"zip":"48609","miles_from_dt":16.03},{"city":"Reese","state_name":"Michigan","lat":43.46748,"lng":-83.679,"zip":"48757","miles_from_dt":16.64},{"city":"Pinconning","state_name":"Michigan","lat":43.85181,"lng":-84.01746,"zip":"48650","miles_from_dt":17.7},{"city":"Hemlock","state_name":"Michigan","lat":43.4218,"lng":-84.22686,"zip":"48626","miles_from_dt":18.31},{"city":"Bridgeport","state_name":"Michigan","lat":43.34554,"lng":-83.83961,"zip":"48722","miles_from_dt":18.48},{"city":"Fairgrove","state_name":"Michigan","lat":43.53306,"lng":-83.59029,"zip":"48733","miles_from_dt":18.93},{"city":"Midland","state_name":"Michigan","lat":43.58394,"lng":-84.33648,"zip":"48640","miles_from_dt":19.11},{"city":"Richville","state_name":"Michigan","lat":43.40661,"lng":-83.67325,"zip":"48758","miles_from_dt":19.48},{"city":"Frankenmuth","state_name":"Michigan","lat":43.35519,"lng":-83.74321,"zip":"48734","miles_from_dt":19.97},{"city":"Midland","state_name":"Michigan","lat":43.57818,"lng":-84.35821,"zip":"48641","miles_from_dt":20.22},{"city":"Akron","state_name":"Michigan","lat":43.5879,"lng":-83.54649,"zip":"48701","miles_from_dt":20.57},{"city":"Rhodes","state_name":"Michigan","lat":43.84834,"lng":-84.20716,"zip":"48652","miles_from_dt":21.29},{"city":"Frankenmuth","state_name":"Michigan","lat":43.33156,"lng":-83.74178,"zip":"48787","miles_from_dt":21.4},{"city":"Hope","state_name":"Michigan","lat":43.78166,"lng":-84.32856,"zip":"48628","miles_from_dt":22.5},{"city":"Merrill","state_name":"Michigan","lat":43.41499,"lng":-84.33646,"zip":"48637","miles_from_dt":22.96},{"city":"Burt","state_name":"Michigan","lat":43.25998,"lng":-83.93686,"zip":"48417","miles_from_dt":23.45},{"city":"Saint Charles","state_name":"Michigan","lat":43.29171,"lng":-84.15743,"zip":"48655","miles_from_dt":23.53},{"city":"Birch Run","state_name":"Michigan","lat":43.27165,"lng":-83.80111,"zip":"48415","miles_from_dt":23.93},{"city":"Sanford","state_name":"Michigan","lat":43.70945,"lng":-84.4213,"zip":"48657","miles_from_dt":24.52},{"city":"Vassar","state_name":"Michigan","lat":43.37077,"lng":-83.57661,"zip":"48768","miles_from_dt":24.76},{"city":"Unionville","state_name":"Michigan","lat":43.64172,"lng":-83.45541,"zip":"48767","miles_from_dt":25.29},{"city":"Edenville","state_name":"Michigan","lat":43.80865,"lng":-84.37805,"zip":"48620","miles_from_dt":25.59},{"city":"Bentley","state_name":"Michigan","lat":43.94355,"lng":-84.15791,"zip":"48613","miles_from_dt":25.82},{"city":"Standish","state_name":"Michigan","lat":43.98038,"lng":-83.94072,"zip":"48658","miles_from_dt":26.32},{"city":"Wheeler","state_name":"Michigan","lat":43.40217,"lng":-84.40961,"zip":"48662","miles_from_dt":26.54},{"city":"Montrose","state_name":"Michigan","lat":43.19018,"lng":-83.89306,"zip":"48457","miles_from_dt":28.43},{"city":"Breckenridge","state_name":"Michigan","lat":43.42671,"lng":-84.47326,"zip":"48615","miles_from_dt":28.58},{"city":"Chesaning","state_name":"Michigan","lat":43.19336,"lng":-84.11311,"zip":"48616","miles_from_dt":29.12},{"city":"Sebewaing","state_name":"Michigan","lat":43.7265,"lng":-83.39323,"zip":"48759","miles_from_dt":29.55},{"city":"Brant","state_name":"Michigan","lat":43.25084,"lng":-84.30147,"zip":"48614","miles_from_dt":29.68},{"city":"Caro","state_name":"Michigan","lat":43.4861,"lng":-83.38499,"zip":"48723","miles_from_dt":29.73}],"targetCityZipCode":"48706","targetCityState":"Michigan"},"__N_SSG":true}