{"pageProps":{"stateName":"Michigan","cityName":"bergland","nearbyCities":[{"city":"White Pine","state_name":"Michigan","lat":46.71043,"lng":-89.62866,"zip":"49971","miles_from_dt":7.56},{"city":"Ewen","state_name":"Michigan","lat":46.55088,"lng":-89.37681,"zip":"49925","miles_from_dt":9.18},{"city":"Ontonagon","state_name":"Michigan","lat":46.79328,"lng":-89.42477,"zip":"49953","miles_from_dt":13.34},{"city":"Marenisco","state_name":"Michigan","lat":46.42589,"lng":-89.60536,"zip":"49947","miles_from_dt":13.61},{"city":"Rockland","state_name":"Michigan","lat":46.71139,"lng":-89.25085,"zip":"49960","miles_from_dt":15.32},{"city":"Wakefield","state_name":"Michigan","lat":46.50199,"lng":-89.88314,"zip":"49968","miles_from_dt":18.08},{"city":"Bruce Crossing","state_name":"Michigan","lat":46.49393,"lng":-89.20017,"zip":"49912","miles_from_dt":18.46},{"city":"Ramsay","state_name":"Michigan","lat":46.46987,"lng":-89.99803,"zip":"49959","miles_from_dt":23.98},{"city":"Greenland","state_name":"Michigan","lat":46.79874,"lng":-89.09567,"zip":"49929","miles_from_dt":24.65},{"city":"Bessemer","state_name":"Michigan","lat":46.49247,"lng":-90.05235,"zip":"49911","miles_from_dt":25.77},{"city":"Mass City","state_name":"Michigan","lat":46.74567,"lng":-88.99919,"zip":"49948","miles_from_dt":27.31},{"city":"Ironwood","state_name":"Michigan","lat":46.51493,"lng":-90.13264,"zip":"49938","miles_from_dt":28.98},{"city":"Presque Isle","state_name":"Wisconsin","lat":46.22178,"lng":-89.75453,"zip":"54557","miles_from_dt":29.18},{"city":"Trout Creek","state_name":"Michigan","lat":46.49377,"lng":-88.95551,"zip":"49967","miles_from_dt":29.29}],"targetCityZipCode":"49910","targetCityState":"Michigan"},"__N_SSG":true}