{"pageProps":{"stateName":"Michigan","cityName":"big-bay","nearbyCities":[{"city":"Skanee","state_name":"Michigan","lat":46.82142,"lng":-88.1409,"zip":"49962","miles_from_dt":12.56},{"city":"Champion","state_name":"Michigan","lat":46.54459,"lng":-87.94395,"zip":"49814","miles_from_dt":18.67},{"city":"Negaunee","state_name":"Michigan","lat":46.54989,"lng":-87.66246,"zip":"49866","miles_from_dt":20.7},{"city":"Michigamme","state_name":"Michigan","lat":46.57639,"lng":-88.16043,"zip":"49861","miles_from_dt":21.09},{"city":"Lanse","state_name":"Michigan","lat":46.7189,"lng":-88.33725,"zip":"49946","miles_from_dt":22.78},{"city":"Marquette","state_name":"Michigan","lat":46.56603,"lng":-87.45932,"zip":"49855","miles_from_dt":26.06},{"city":"National Mine","state_name":"Michigan","lat":46.45768,"lng":-87.68183,"zip":"49865","miles_from_dt":26.1},{"city":"Ishpeming","state_name":"Michigan","lat":46.423,"lng":-87.76797,"zip":"49849","miles_from_dt":27.29}],"targetCityZipCode":"49808","targetCityState":"Michigan"},"__N_SSG":true}