{"pageProps":{"stateName":"Michigan","cityName":"branch","nearbyCities":[{"city":"Walhalla","state_name":"Michigan","lat":43.94818,"lng":-86.11529,"zip":"49458","miles_from_dt":4.13},{"city":"Fountain","state_name":"Michigan","lat":44.01986,"lng":-86.14265,"zip":"49410","miles_from_dt":7.66},{"city":"Custer","state_name":"Michigan","lat":43.91051,"lng":-86.18931,"zip":"49405","miles_from_dt":8.11},{"city":"Baldwin","state_name":"Michigan","lat":43.91027,"lng":-85.87417,"zip":"49304","miles_from_dt":8.22},{"city":"Scottville","state_name":"Michigan","lat":43.95208,"lng":-86.28638,"zip":"49454","miles_from_dt":12.67},{"city":"Irons","state_name":"Michigan","lat":44.10787,"lng":-85.91989,"zip":"49644","miles_from_dt":12.74},{"city":"Idlewild","state_name":"Michigan","lat":43.87927,"lng":-85.77059,"zip":"49642","miles_from_dt":13.79},{"city":"Walkerville","state_name":"Michigan","lat":43.73678,"lng":-86.10805,"zip":"49459","miles_from_dt":14.68},{"city":"Bitely","state_name":"Michigan","lat":43.76021,"lng":-85.87842,"zip":"49309","miles_from_dt":14.75},{"city":"Free Soil","state_name":"Michigan","lat":44.11006,"lng":-86.25385,"zip":"49411","miles_from_dt":15.98},{"city":"Chase","state_name":"Michigan","lat":43.90367,"lng":-85.68285,"zip":"49623","miles_from_dt":17.67},{"city":"Ludington","state_name":"Michigan","lat":43.97251,"lng":-86.39792,"zip":"49431","miles_from_dt":18.33},{"city":"Luther","state_name":"Michigan","lat":44.05248,"lng":-85.69789,"zip":"49656","miles_from_dt":18.35},{"city":"Wellston","state_name":"Michigan","lat":44.21165,"lng":-85.91484,"zip":"49689","miles_from_dt":19.5},{"city":"Pentwater","state_name":"Michigan","lat":43.79927,"lng":-86.37496,"zip":"49449","miles_from_dt":19.73},{"city":"Hart","state_name":"Michigan","lat":43.71958,"lng":-86.2811,"zip":"49420","miles_from_dt":19.76},{"city":"Brohman","state_name":"Michigan","lat":43.69009,"lng":-85.79992,"zip":"49312","miles_from_dt":20.95},{"city":"Manistee","state_name":"Michigan","lat":44.23236,"lng":-86.21125,"zip":"49660","miles_from_dt":21.91},{"city":"Filer City","state_name":"Michigan","lat":44.2149,"lng":-86.28896,"zip":"49634","miles_from_dt":22.73},{"city":"Hesperia","state_name":"Michigan","lat":43.59945,"lng":-86.06658,"zip":"49421","miles_from_dt":23.73},{"city":"Eastlake","state_name":"Michigan","lat":44.24284,"lng":-86.29252,"zip":"49626","miles_from_dt":24.45},{"city":"Paris","state_name":"Michigan","lat":43.75888,"lng":-85.61033,"zip":"49338","miles_from_dt":24.62},{"city":"Reed City","state_name":"Michigan","lat":43.89533,"lng":-85.54254,"zip":"49677","miles_from_dt":24.68},{"city":"Brethren","state_name":"Michigan","lat":44.30331,"lng":-85.98784,"zip":"49619","miles_from_dt":25.03},{"city":"Harrietta","state_name":"Michigan","lat":44.28463,"lng":-85.75073,"zip":"49638","miles_from_dt":27.49},{"city":"Mears","state_name":"Michigan","lat":43.68042,"lng":-86.46203,"zip":"49436","miles_from_dt":28.06},{"city":"Shelby","state_name":"Michigan","lat":43.60976,"lng":-86.36723,"zip":"49455","miles_from_dt":28.4},{"city":"White Cloud","state_name":"Michigan","lat":43.58291,"lng":-85.74167,"zip":"49349","miles_from_dt":28.77},{"city":"Kaleva","state_name":"Michigan","lat":44.37157,"lng":-86.02411,"zip":"49645","miles_from_dt":29.64}],"targetCityZipCode":"49402","targetCityState":"Michigan"},"__N_SSG":true}