{"pageProps":{"stateName":"Michigan","cityName":"brethren","nearbyCities":[{"city":"Kaleva","state_name":"Michigan","lat":44.37157,"lng":-86.02411,"zip":"49645","miles_from_dt":5.04},{"city":"Wellston","state_name":"Michigan","lat":44.21165,"lng":-85.91484,"zip":"49689","miles_from_dt":7.29},{"city":"Copemish","state_name":"Michigan","lat":44.42785,"lng":-85.87348,"zip":"49625","miles_from_dt":10.3},{"city":"Bear Lake","state_name":"Michigan","lat":44.43886,"lng":-86.10879,"zip":"49614","miles_from_dt":11.11},{"city":"Harrietta","state_name":"Michigan","lat":44.28463,"lng":-85.75073,"zip":"49638","miles_from_dt":11.83},{"city":"Manistee","state_name":"Michigan","lat":44.23236,"lng":-86.21125,"zip":"49660","miles_from_dt":12.12},{"city":"Onekama","state_name":"Michigan","lat":44.37506,"lng":-86.21978,"zip":"49675","miles_from_dt":12.52},{"city":"Irons","state_name":"Michigan","lat":44.10787,"lng":-85.91989,"zip":"49644","miles_from_dt":13.91},{"city":"Mesick","state_name":"Michigan","lat":44.4028,"lng":-85.70965,"zip":"49668","miles_from_dt":15.4},{"city":"Eastlake","state_name":"Michigan","lat":44.24284,"lng":-86.29252,"zip":"49626","miles_from_dt":15.68},{"city":"Filer City","state_name":"Michigan","lat":44.2149,"lng":-86.28896,"zip":"49634","miles_from_dt":16.14},{"city":"Thompsonville","state_name":"Michigan","lat":44.53948,"lng":-85.93009,"zip":"49683","miles_from_dt":16.56},{"city":"Arcadia","state_name":"Michigan","lat":44.50538,"lng":-86.20412,"zip":"49613","miles_from_dt":17.59},{"city":"Free Soil","state_name":"Michigan","lat":44.11006,"lng":-86.25385,"zip":"49411","miles_from_dt":18.78},{"city":"Boon","state_name":"Michigan","lat":44.30096,"lng":-85.59853,"zip":"49618","miles_from_dt":19.3},{"city":"Benzonia","state_name":"Michigan","lat":44.57491,"lng":-86.08448,"zip":"49616","miles_from_dt":19.35},{"city":"Buckley","state_name":"Michigan","lat":44.5188,"lng":-85.68976,"zip":"49620","miles_from_dt":20.95},{"city":"Fountain","state_name":"Michigan","lat":44.01986,"lng":-86.14265,"zip":"49410","miles_from_dt":21.03},{"city":"Luther","state_name":"Michigan","lat":44.05248,"lng":-85.69789,"zip":"49656","miles_from_dt":22.53},{"city":"Beulah","state_name":"Michigan","lat":44.64105,"lng":-86.03505,"zip":"49617","miles_from_dt":23.44},{"city":"Cadillac","state_name":"Michigan","lat":44.2385,"lng":-85.5211,"zip":"49601","miles_from_dt":23.58},{"city":"Frankfort","state_name":"Michigan","lat":44.62261,"lng":-86.18914,"zip":"49635","miles_from_dt":24.19},{"city":"Interlochen","state_name":"Michigan","lat":44.63959,"lng":-85.83357,"zip":"49643","miles_from_dt":24.44},{"city":"Elberta","state_name":"Michigan","lat":44.62087,"lng":-86.23095,"zip":"49628","miles_from_dt":25.01},{"city":"Branch","state_name":"Michigan","lat":43.94228,"lng":-86.03284,"zip":"49402","miles_from_dt":25.03},{"city":"Walhalla","state_name":"Michigan","lat":43.94818,"lng":-86.11529,"zip":"49458","miles_from_dt":25.33},{"city":"Grawn","state_name":"Michigan","lat":44.62897,"lng":-85.71083,"zip":"49637","miles_from_dt":26.33},{"city":"Baldwin","state_name":"Michigan","lat":43.91027,"lng":-85.87417,"zip":"49304","miles_from_dt":27.72},{"city":"Scottville","state_name":"Michigan","lat":43.95208,"lng":-86.28638,"zip":"49454","miles_from_dt":28.43},{"city":"Custer","state_name":"Michigan","lat":43.91051,"lng":-86.18931,"zip":"49405","miles_from_dt":28.91},{"city":"Honor","state_name":"Michigan","lat":44.72088,"lng":-86.03664,"zip":"49640","miles_from_dt":28.93},{"city":"Kingsley","state_name":"Michigan","lat":44.5685,"lng":-85.52596,"zip":"49649","miles_from_dt":29.28},{"city":"Tustin","state_name":"Michigan","lat":44.12115,"lng":-85.44349,"zip":"49688","miles_from_dt":29.81}],"targetCityZipCode":"49619","targetCityState":"Michigan"},"__N_SSG":true}