{"pageProps":{"stateName":"Michigan","cityName":"brimley","nearbyCities":[{"city":"Rudyard","state_name":"Michigan","lat":46.20913,"lng":-84.6854,"zip":"49780","miles_from_dt":12.66},{"city":"Kincheloe","state_name":"Michigan","lat":46.26667,"lng":-84.48333,"zip":"49786","miles_from_dt":13.33},{"city":"Kinross","state_name":"Michigan","lat":46.27629,"lng":-84.46091,"zip":"49752","miles_from_dt":13.77},{"city":"Kincheloe","state_name":"Michigan","lat":46.26418,"lng":-84.46779,"zip":"49788","miles_from_dt":14.02},{"city":"Eckerman","state_name":"Michigan","lat":46.3702,"lng":-84.99387,"zip":"49728","miles_from_dt":14.37},{"city":"Kincheloe","state_name":"Michigan","lat":46.26458,"lng":-84.44927,"zip":"49785","miles_from_dt":14.7},{"city":"Kincheloe","state_name":"Michigan","lat":46.2577,"lng":-84.45483,"zip":"49784","miles_from_dt":14.78},{"city":"Dafter","state_name":"Michigan","lat":46.32744,"lng":-84.3884,"zip":"49724","miles_from_dt":15.33},{"city":"Sault Sainte Marie","state_name":"Michigan","lat":46.41495,"lng":-84.28006,"zip":"49783","miles_from_dt":19.89},{"city":"Trout Lake","state_name":"Michigan","lat":46.21221,"lng":-85.04417,"zip":"49793","miles_from_dt":20.84},{"city":"Hulbert","state_name":"Michigan","lat":46.37491,"lng":-85.18039,"zip":"49748","miles_from_dt":23.24},{"city":"Pickford","state_name":"Michigan","lat":46.16081,"lng":-84.33798,"zip":"49774","miles_from_dt":23.41},{"city":"Moran","state_name":"Michigan","lat":46.05715,"lng":-84.88881,"zip":"49760","miles_from_dt":24.94},{"city":"Hessel","state_name":"Michigan","lat":46.05065,"lng":-84.519,"zip":"49745","miles_from_dt":25.06},{"city":"Barbeau","state_name":"Michigan","lat":46.27717,"lng":-84.18478,"zip":"49710","miles_from_dt":25.67},{"city":"Paradise","state_name":"Michigan","lat":46.63217,"lng":-85.13434,"zip":"49768","miles_from_dt":26.71}],"targetCityZipCode":"49715","targetCityState":"Michigan"},"__N_SSG":true}