{"pageProps":{"stateName":"Michigan","cityName":"capac","nearbyCities":[{"city":"Allenton","state_name":"Michigan","lat":42.93916,"lng":-82.92601,"zip":"48002","miles_from_dt":5.91},{"city":"Emmett","state_name":"Michigan","lat":43.02824,"lng":-82.81111,"zip":"48022","miles_from_dt":6.08},{"city":"Imlay City","state_name":"Michigan","lat":43.06455,"lng":-83.05471,"zip":"48444","miles_from_dt":6.84},{"city":"Almont","state_name":"Michigan","lat":42.93228,"lng":-83.04088,"zip":"48003","miles_from_dt":8.46},{"city":"Yale","state_name":"Michigan","lat":43.12639,"lng":-82.82955,"zip":"48097","miles_from_dt":8.7},{"city":"Memphis","state_name":"Michigan","lat":42.93861,"lng":-82.80271,"zip":"48041","miles_from_dt":8.81},{"city":"Armada","state_name":"Michigan","lat":42.85022,"lng":-82.92317,"zip":"48005","miles_from_dt":12.05},{"city":"Attica","state_name":"Michigan","lat":43.06484,"lng":-83.16932,"zip":"48412","miles_from_dt":12.37},{"city":"Avoca","state_name":"Michigan","lat":43.0754,"lng":-82.69642,"zip":"48006","miles_from_dt":12.39},{"city":"Dryden","state_name":"Michigan","lat":42.93752,"lng":-83.14756,"zip":"48428","miles_from_dt":12.51},{"city":"Melvin","state_name":"Michigan","lat":43.19999,"lng":-82.81833,"zip":"48454","miles_from_dt":13.38},{"city":"Romeo","state_name":"Michigan","lat":42.84554,"lng":-83.04072,"zip":"48065","miles_from_dt":13.56},{"city":"Brown City","state_name":"Michigan","lat":43.21791,"lng":-82.98476,"zip":"48416","miles_from_dt":13.61},{"city":"Goodells","state_name":"Michigan","lat":42.94466,"lng":-82.68217,"zip":"48027","miles_from_dt":13.77},{"city":"Richmond","state_name":"Michigan","lat":42.84899,"lng":-82.79989,"zip":"48062","miles_from_dt":13.83},{"city":"Leonard","state_name":"Michigan","lat":42.84282,"lng":-83.14143,"zip":"48367","miles_from_dt":16.47},{"city":"Columbus","state_name":"Michigan","lat":42.85581,"lng":-82.67676,"zip":"48063","miles_from_dt":17.39},{"city":"Washington","state_name":"Michigan","lat":42.77977,"lng":-83.03837,"zip":"48095","miles_from_dt":17.76},{"city":"New Haven","state_name":"Michigan","lat":42.78486,"lng":-82.80139,"zip":"48050","miles_from_dt":17.81},{"city":"Lakeville","state_name":"Michigan","lat":42.82169,"lng":-83.15218,"zip":"48366","miles_from_dt":17.95},{"city":"North Street","state_name":"Michigan","lat":43.0361,"lng":-82.57504,"zip":"48049","miles_from_dt":18.05},{"city":"Ray","state_name":"Michigan","lat":42.76132,"lng":-82.9199,"zip":"48096","miles_from_dt":18.19},{"city":"Peck","state_name":"Michigan","lat":43.27693,"lng":-82.81731,"zip":"48466","miles_from_dt":18.34},{"city":"North Branch","state_name":"Michigan","lat":43.2024,"lng":-83.20669,"zip":"48461","miles_from_dt":18.57},{"city":"Jeddo","state_name":"Michigan","lat":43.13278,"lng":-82.59457,"zip":"48032","miles_from_dt":18.6},{"city":"Oxford","state_name":"Michigan","lat":42.83797,"lng":-83.19981,"zip":"48370","miles_from_dt":18.76},{"city":"Metamora","state_name":"Michigan","lat":42.94028,"lng":-83.29131,"zip":"48455","miles_from_dt":19.16},{"city":"Smiths Creek","state_name":"Michigan","lat":42.9484,"lng":-82.56196,"zip":"48074","miles_from_dt":19.44},{"city":"Washington","state_name":"Michigan","lat":42.73645,"lng":-83.03718,"zip":"48094","miles_from_dt":20.61},{"city":"Lapeer","state_name":"Michigan","lat":43.05259,"lng":-83.33745,"zip":"48446","miles_from_dt":20.66},{"city":"New Haven","state_name":"Michigan","lat":42.7417,"lng":-82.79558,"zip":"48048","miles_from_dt":20.71},{"city":"Oakland","state_name":"Michigan","lat":42.77209,"lng":-83.16114,"zip":"48363","miles_from_dt":20.98},{"city":"Croswell","state_name":"Michigan","lat":43.26265,"lng":-82.65069,"zip":"48422","miles_from_dt":21.7},{"city":"Oxford","state_name":"Michigan","lat":42.84544,"lng":-83.28785,"zip":"48371","miles_from_dt":21.92},{"city":"Casco","state_name":"Michigan","lat":42.76719,"lng":-82.67233,"zip":"48064","miles_from_dt":22.1},{"city":"Fort Gratiot","state_name":"Michigan","lat":43.08253,"lng":-82.49913,"zip":"48059","miles_from_dt":22.23},{"city":"Saint Clair","state_name":"Michigan","lat":42.8576,"lng":-82.54721,"zip":"48079","miles_from_dt":22.63},{"city":"Marlette","state_name":"Michigan","lat":43.34374,"lng":-83.03493,"zip":"48453","miles_from_dt":22.64},{"city":"Lake Orion","state_name":"Michigan","lat":42.78444,"lng":-83.23808,"zip":"48361","miles_from_dt":22.75},{"city":"Clifford","state_name":"Michigan","lat":43.30695,"lng":-83.17935,"zip":"48727","miles_from_dt":23.17},{"city":"Macomb","state_name":"Michigan","lat":42.68673,"lng":-82.90857,"zip":"48042","miles_from_dt":23.35},{"city":"Rochester","state_name":"Michigan","lat":42.72243,"lng":-83.14944,"zip":"48306","miles_from_dt":23.62},{"city":"New Baltimore","state_name":"Michigan","lat":42.69067,"lng":-82.82582,"zip":"48051","miles_from_dt":23.67},{"city":"Utica","state_name":"Michigan","lat":42.69059,"lng":-83.05671,"zip":"48316","miles_from_dt":23.93},{"city":"Port Huron","state_name":"Michigan","lat":42.97835,"lng":-82.46297,"zip":"48060","miles_from_dt":23.94},{"city":"Lake Orion","state_name":"Michigan","lat":42.782,"lng":-83.2696,"zip":"48362","miles_from_dt":23.99},{"city":"Marysville","state_name":"Michigan","lat":42.90983,"lng":-82.48022,"zip":"48040","miles_from_dt":24.19},{"city":"Utica","state_name":"Michigan","lat":42.67254,"lng":-82.9963,"zip":"48315","miles_from_dt":24.53},{"city":"Hadley","state_name":"Michigan","lat":42.95567,"lng":-83.40785,"zip":"48440","miles_from_dt":24.62},{"city":"Anchorville","state_name":"Michigan","lat":42.7137,"lng":-82.6822,"zip":"48004","miles_from_dt":24.91},{"city":"Columbiaville","state_name":"Michigan","lat":43.15321,"lng":-83.39262,"zip":"48421","miles_from_dt":24.98},{"city":"New Baltimore","state_name":"Michigan","lat":42.67754,"lng":-82.77744,"zip":"48047","miles_from_dt":25.2},{"city":"Lexington","state_name":"Michigan","lat":43.25289,"lng":-82.54123,"zip":"48450","miles_from_dt":25.23},{"city":"Port Huron","state_name":"Michigan","lat":42.99426,"lng":-82.43191,"zip":"48061","miles_from_dt":25.38},{"city":"Lake Orion","state_name":"Michigan","lat":42.74903,"lng":-83.26789,"zip":"48360","miles_from_dt":25.58},{"city":"Macomb","state_name":"Michigan","lat":42.64988,"lng":-82.9296,"zip":"48044","miles_from_dt":25.87},{"city":"Rochester","state_name":"Michigan","lat":42.6784,"lng":-83.1341,"zip":"48308","miles_from_dt":26.03},{"city":"Silverwood","state_name":"Michigan","lat":43.32095,"lng":-83.25595,"zip":"48760","miles_from_dt":26.22},{"city":"Fair Haven","state_name":"Michigan","lat":42.70102,"lng":-82.6593,"zip":"48023","miles_from_dt":26.26},{"city":"East China","state_name":"Michigan","lat":42.77054,"lng":-82.54515,"zip":"48054","miles_from_dt":26.3},{"city":"Applegate","state_name":"Michigan","lat":43.3526,"lng":-82.66061,"zip":"48401","miles_from_dt":26.44},{"city":"Fostoria","state_name":"Michigan","lat":43.24863,"lng":-83.3598,"zip":"48435","miles_from_dt":26.62},{"city":"Utica","state_name":"Michigan","lat":42.64673,"lng":-83.05334,"zip":"48317","miles_from_dt":26.82},{"city":"Rochester","state_name":"Michigan","lat":42.65953,"lng":-83.12301,"zip":"48307","miles_from_dt":27.02},{"city":"Lake Orion","state_name":"Michigan","lat":42.7218,"lng":-83.27801,"zip":"48359","miles_from_dt":27.33},{"city":"Sandusky","state_name":"Michigan","lat":43.41868,"lng":-82.85369,"zip":"48471","miles_from_dt":27.48},{"city":"Ortonville","state_name":"Michigan","lat":42.84733,"lng":-83.42576,"zip":"48462","miles_from_dt":27.91},{"city":"Otter Lake","state_name":"Michigan","lat":43.21562,"lng":-83.41884,"zip":"48464","miles_from_dt":27.96},{"city":"Utica","state_name":"Michigan","lat":42.62446,"lng":-83.03325,"zip":"48318","miles_from_dt":28.11},{"city":"Rochester","state_name":"Michigan","lat":42.65866,"lng":-83.18348,"zip":"48309","miles_from_dt":28.33},{"city":"Goodrich","state_name":"Michigan","lat":42.91142,"lng":-83.47819,"zip":"48438","miles_from_dt":28.81},{"city":"Auburn Hills","state_name":"Michigan","lat":42.67434,"lng":-83.2424,"zip":"48321","miles_from_dt":28.89},{"city":"Clinton Township","state_name":"Michigan","lat":42.6054,"lng":-82.94152,"zip":"48038","miles_from_dt":28.95},{"city":"Auburn Hills","state_name":"Michigan","lat":42.67536,"lng":-83.2531,"zip":"48326","miles_from_dt":29.13},{"city":"Kingston","state_name":"Michigan","lat":43.40487,"lng":-83.18121,"zip":"48741","miles_from_dt":29.13},{"city":"Sterling Heights","state_name":"Michigan","lat":42.60978,"lng":-83.05426,"zip":"48314","miles_from_dt":29.31},{"city":"Sterling Heights","state_name":"Michigan","lat":42.59985,"lng":-82.99984,"zip":"48313","miles_from_dt":29.53},{"city":"Davison","state_name":"Michigan","lat":43.03982,"lng":-83.51404,"zip":"48423","miles_from_dt":29.54},{"city":"Mount Clemens","state_name":"Michigan","lat":42.59763,"lng":-82.88208,"zip":"48043","miles_from_dt":29.58},{"city":"Clarkston","state_name":"Michigan","lat":42.76677,"lng":-83.40088,"zip":"48348","miles_from_dt":29.75},{"city":"Marine City","state_name":"Michigan","lat":42.69664,"lng":-82.55052,"zip":"48039","miles_from_dt":29.77},{"city":"Clinton Township","state_name":"Michigan","lat":42.59227,"lng":-82.89971,"zip":"48036","miles_from_dt":29.89},{"city":"Mount Clemens","state_name":"Michigan","lat":42.59213,"lng":-82.88376,"zip":"48046","miles_from_dt":29.95}],"targetCityZipCode":"48014","targetCityState":"Michigan"},"__N_SSG":true}