{"pageProps":{"stateName":"Michigan","cityName":"cassopolis","nearbyCities":[{"city":"Vandalia","state_name":"Michigan","lat":41.91008,"lng":-85.8826,"zip":"49095","miles_from_dt":5.51},{"city":"Edwardsburg","state_name":"Michigan","lat":41.79833,"lng":-86.03425,"zip":"49112","miles_from_dt":7.33},{"city":"Jones","state_name":"Michigan","lat":41.87964,"lng":-85.82551,"zip":"49061","miles_from_dt":8.51},{"city":"Dowagiac","state_name":"Michigan","lat":42.00437,"lng":-86.12138,"zip":"49047","miles_from_dt":10},{"city":"Union","state_name":"Michigan","lat":41.78086,"lng":-85.85997,"zip":"49130","miles_from_dt":10.5},{"city":"Elkhart","state_name":"Indiana","lat":41.72328,"lng":-85.97547,"zip":"46514","miles_from_dt":12.13},{"city":"Marcellus","state_name":"Michigan","lat":42.02359,"lng":-85.79982,"zip":"49067","miles_from_dt":12.98},{"city":"Granger","state_name":"Indiana","lat":41.74031,"lng":-86.12749,"zip":"46530","miles_from_dt":13.08},{"city":"Niles","state_name":"Michigan","lat":41.83148,"lng":-86.23162,"zip":"49120","miles_from_dt":13.38},{"city":"Decatur","state_name":"Michigan","lat":42.1038,"lng":-86.00219,"zip":"49045","miles_from_dt":14.16},{"city":"Berrien Center","state_name":"Michigan","lat":41.95194,"lng":-86.26037,"zip":"49102","miles_from_dt":14.48},{"city":"Elkhart","state_name":"Indiana","lat":41.68421,"lng":-85.96953,"zip":"46515","miles_from_dt":14.84},{"city":"Bristol","state_name":"Indiana","lat":41.72138,"lng":-85.81571,"zip":"46507","miles_from_dt":15.15},{"city":"Elkhart","state_name":"Indiana","lat":41.6756,"lng":-85.94584,"zip":"46516","miles_from_dt":15.56},{"city":"Mishawaka","state_name":"Indiana","lat":41.69376,"lng":-86.14602,"zip":"46545","miles_from_dt":16.32},{"city":"Constantine","state_name":"Michigan","lat":41.85665,"lng":-85.67142,"zip":"49042","miles_from_dt":16.61},{"city":"Osceola","state_name":"Indiana","lat":41.66683,"lng":-86.07599,"zip":"46561","miles_from_dt":16.64},{"city":"South Bend","state_name":"Indiana","lat":41.71518,"lng":-86.20832,"zip":"46635","miles_from_dt":17.01},{"city":"South Bend","state_name":"Indiana","lat":41.73358,"lng":-86.24299,"zip":"46637","miles_from_dt":17.4},{"city":"Eau Claire","state_name":"Michigan","lat":42.02544,"lng":-86.28621,"zip":"49111","miles_from_dt":17.65},{"city":"White Pigeon","state_name":"Michigan","lat":41.79139,"lng":-85.67437,"zip":"49099","miles_from_dt":17.83},{"city":"Lawton","state_name":"Michigan","lat":42.13645,"lng":-85.83928,"zip":"49065","miles_from_dt":18.11},{"city":"South Bend","state_name":"Indiana","lat":41.69563,"lng":-86.21444,"zip":"46660","miles_from_dt":18.24},{"city":"Three Rivers","state_name":"Michigan","lat":41.97375,"lng":-85.64665,"zip":"49093","miles_from_dt":18.36},{"city":"Mishawaka","state_name":"Indiana","lat":41.66265,"lng":-86.15762,"zip":"46546","miles_from_dt":18.49},{"city":"Elkhart","state_name":"Indiana","lat":41.62429,"lng":-85.99675,"zip":"46517","miles_from_dt":18.95},{"city":"Notre Dame","state_name":"Indiana","lat":41.70198,"lng":-86.24513,"zip":"46556","miles_from_dt":18.98},{"city":"South Bend","state_name":"Indiana","lat":41.70252,"lng":-86.25164,"zip":"46624","miles_from_dt":19.19},{"city":"South Bend","state_name":"Indiana","lat":41.69237,"lng":-86.23894,"zip":"46634","miles_from_dt":19.24},{"city":"South Bend","state_name":"Indiana","lat":41.67494,"lng":-86.21151,"zip":"46615","miles_from_dt":19.27},{"city":"South Bend","state_name":"Indiana","lat":41.68435,"lng":-86.23513,"zip":"46617","miles_from_dt":19.53},{"city":"Berrien Springs","state_name":"Michigan","lat":41.96348,"lng":-86.35877,"zip":"49104","miles_from_dt":19.6},{"city":"South Bend","state_name":"Indiana","lat":41.69693,"lng":-86.26671,"zip":"46616","miles_from_dt":20.02},{"city":"Berrien Springs","state_name":"Michigan","lat":41.94559,"lng":-86.37519,"zip":"49103","miles_from_dt":20.19},{"city":"South Bend","state_name":"Indiana","lat":41.67171,"lng":-86.25219,"zip":"46699","miles_from_dt":20.77},{"city":"South Bend","state_name":"Indiana","lat":41.67065,"lng":-86.252,"zip":"46601","miles_from_dt":20.82},{"city":"Mishawaka","state_name":"Indiana","lat":41.61778,"lng":-86.13715,"zip":"46544","miles_from_dt":20.86},{"city":"Sodus","state_name":"Michigan","lat":42.02593,"lng":-86.36946,"zip":"49126","miles_from_dt":21.5},{"city":"Middlebury","state_name":"Indiana","lat":41.67571,"lng":-85.69768,"zip":"46540","miles_from_dt":21.51},{"city":"South Bend","state_name":"Indiana","lat":41.72103,"lng":-86.33465,"zip":"46628","miles_from_dt":21.68},{"city":"Hartford","state_name":"Michigan","lat":42.18647,"lng":-86.16691,"zip":"49057","miles_from_dt":21.87},{"city":"Schoolcraft","state_name":"Michigan","lat":42.12209,"lng":-85.68557,"zip":"49087","miles_from_dt":21.92},{"city":"South Bend","state_name":"Indiana","lat":41.65389,"lng":-86.264,"zip":"46613","miles_from_dt":22.1},{"city":"Buchanan","state_name":"Michigan","lat":41.84804,"lng":-86.41396,"zip":"49107","miles_from_dt":22.23},{"city":"Lawrence","state_name":"Michigan","lat":42.22028,"lng":-86.04991,"zip":"49064","miles_from_dt":22.41},{"city":"Goshen","state_name":"Indiana","lat":41.58871,"lng":-85.84344,"zip":"46527","miles_from_dt":22.68},{"city":"Watervliet","state_name":"Michigan","lat":42.16756,"lng":-86.2425,"zip":"49098","miles_from_dt":22.69},{"city":"Goshen","state_name":"Indiana","lat":41.60698,"lng":-85.786,"zip":"46528","miles_from_dt":22.7},{"city":"South Bend","state_name":"Indiana","lat":41.63223,"lng":-86.25004,"zip":"46680","miles_from_dt":22.83},{"city":"South Bend","state_name":"Indiana","lat":41.65728,"lng":-86.29507,"zip":"46626","miles_from_dt":22.99},{"city":"Paw Paw","state_name":"Michigan","lat":42.23997,"lng":-85.90901,"zip":"49079","miles_from_dt":23.9},{"city":"Goshen","state_name":"Indiana","lat":41.55307,"lng":-85.88448,"zip":"46526","miles_from_dt":24.46},{"city":"Benton Harbor","state_name":"Michigan","lat":42.11434,"lng":-86.3675,"zip":"49022","miles_from_dt":24.53},{"city":"Centreville","state_name":"Michigan","lat":41.91779,"lng":-85.50767,"zip":"49032","miles_from_dt":24.82},{"city":"South Bend","state_name":"Indiana","lat":41.65997,"lng":-86.3532,"zip":"46619","miles_from_dt":25.03},{"city":"Wakarusa","state_name":"Indiana","lat":41.53941,"lng":-86.06054,"zip":"46573","miles_from_dt":25.08},{"city":"Mattawan","state_name":"Michigan","lat":42.2275,"lng":-85.78002,"zip":"49071","miles_from_dt":25.09},{"city":"Shipshewana","state_name":"Indiana","lat":41.69285,"lng":-85.5831,"zip":"46565","miles_from_dt":25.31},{"city":"South Bend","state_name":"Indiana","lat":41.60359,"lng":-86.28064,"zip":"46614","miles_from_dt":25.36},{"city":"Baroda","state_name":"Michigan","lat":41.94462,"lng":-86.48429,"zip":"49101","miles_from_dt":25.75},{"city":"Saint Joseph","state_name":"Michigan","lat":42.04883,"lng":-86.45923,"zip":"49085","miles_from_dt":26.36},{"city":"Galien","state_name":"Michigan","lat":41.80259,"lng":-86.50044,"zip":"49113","miles_from_dt":27.24},{"city":"Wyatt","state_name":"Indiana","lat":41.52633,"lng":-86.16367,"zip":"46595","miles_from_dt":27.26},{"city":"Hagar Shores","state_name":"Michigan","lat":42.2,"lng":-86.33333,"zip":"49039","miles_from_dt":27.33},{"city":"Coloma","state_name":"Michigan","lat":42.20554,"lng":-86.32489,"zip":"49038","miles_from_dt":27.34},{"city":"Nottawa","state_name":"Michigan","lat":41.91783,"lng":-85.44899,"zip":"49075","miles_from_dt":27.84},{"city":"Stevensville","state_name":"Michigan","lat":42.00411,"lng":-86.51597,"zip":"49127","miles_from_dt":28.13},{"city":"Riverside","state_name":"Michigan","lat":42.18018,"lng":-86.3852,"zip":"49084","miles_from_dt":28.17},{"city":"Portage","state_name":"Michigan","lat":42.20207,"lng":-85.61917,"zip":"49024","miles_from_dt":28.27},{"city":"Mendon","state_name":"Michigan","lat":42.01295,"lng":-85.45825,"zip":"49072","miles_from_dt":28.43},{"city":"Sturgis","state_name":"Michigan","lat":41.82509,"lng":-85.44627,"zip":"49091","miles_from_dt":28.43},{"city":"Benton Harbor","state_name":"Michigan","lat":42.10754,"lng":-86.46605,"zip":"49023","miles_from_dt":28.49},{"city":"Bangor","state_name":"Michigan","lat":42.30524,"lng":-86.10796,"zip":"49013","miles_from_dt":28.71},{"city":"New Carlisle","state_name":"Indiana","lat":41.70731,"lng":-86.485,"zip":"46552","miles_from_dt":28.85},{"city":"New Troy","state_name":"Michigan","lat":41.87564,"lng":-86.54862,"zip":"49119","miles_from_dt":28.93},{"city":"Bridgman","state_name":"Michigan","lat":41.93452,"lng":-86.55105,"zip":"49106","miles_from_dt":29.1},{"city":"Oshtemo","state_name":"Michigan","lat":42.25552,"lng":-85.677,"zip":"49077","miles_from_dt":29.37},{"city":"Vicksburg","state_name":"Michigan","lat":42.11491,"lng":-85.48985,"zip":"49097","miles_from_dt":29.69},{"city":"New Paris","state_name":"Indiana","lat":41.48004,"lng":-85.85095,"zip":"46553","miles_from_dt":29.77}],"targetCityZipCode":"49031","targetCityState":"Michigan"},"__N_SSG":true}