{"pageProps":{"stateName":"Michigan","cityName":"douglas","nearbyCities":[{"city":"Saugatuck","state_name":"Michigan","lat":42.66511,"lng":-86.17388,"zip":"49453","miles_from_dt":2.39},{"city":"Fennville","state_name":"Michigan","lat":42.57077,"lng":-86.11479,"zip":"49408","miles_from_dt":6.89},{"city":"Glenn","state_name":"Michigan","lat":42.52199,"lng":-86.2326,"zip":"49416","miles_from_dt":8.39},{"city":"Macatawa","state_name":"Michigan","lat":42.76975,"lng":-86.20774,"zip":"49434","miles_from_dt":8.8},{"city":"Holland","state_name":"Michigan","lat":42.73964,"lng":-86.09015,"zip":"49423","miles_from_dt":9.05},{"city":"Holland","state_name":"Michigan","lat":42.78681,"lng":-86.10913,"zip":"49422","miles_from_dt":11.2},{"city":"Hamilton","state_name":"Michigan","lat":42.67768,"lng":-85.97826,"zip":"49419","miles_from_dt":12.01},{"city":"Pullman","state_name":"Michigan","lat":42.48333,"lng":-86.08051,"zip":"49450","miles_from_dt":12.78},{"city":"Holland","state_name":"Michigan","lat":42.84269,"lng":-86.12431,"zip":"49424","miles_from_dt":14.49},{"city":"South Haven","state_name":"Michigan","lat":42.40853,"lng":-86.2168,"zip":"49090","miles_from_dt":16.14},{"city":"Lacota","state_name":"Michigan","lat":42.4098,"lng":-86.1396,"zip":"49063","miles_from_dt":16.43},{"city":"Zeeland","state_name":"Michigan","lat":42.84183,"lng":-85.98338,"zip":"49464","miles_from_dt":17.93},{"city":"Grand Junction","state_name":"Michigan","lat":42.39951,"lng":-86.05967,"zip":"49056","miles_from_dt":18.41},{"city":"Allegan","state_name":"Michigan","lat":42.53418,"lng":-85.87298,"zip":"49010","miles_from_dt":18.69},{"city":"Burnips","state_name":"Michigan","lat":42.73106,"lng":-85.85109,"zip":"49314","miles_from_dt":19.23},{"city":"West Olive","state_name":"Michigan","lat":42.93473,"lng":-86.1429,"zip":"49460","miles_from_dt":20.47},{"city":"Breedsville","state_name":"Michigan","lat":42.3482,"lng":-86.06939,"zip":"49027","miles_from_dt":21.51},{"city":"Bloomingdale","state_name":"Michigan","lat":42.37778,"lng":-85.96273,"zip":"49026","miles_from_dt":22.17},{"city":"Dorr","state_name":"Michigan","lat":42.72541,"lng":-85.7871,"zip":"49323","miles_from_dt":22.24},{"city":"Hudsonville","state_name":"Michigan","lat":42.86636,"lng":-85.89038,"zip":"49426","miles_from_dt":22.41},{"city":"Jamestown","state_name":"Michigan","lat":42.82711,"lng":-85.84694,"zip":"49427","miles_from_dt":22.41},{"city":"Hopkins","state_name":"Michigan","lat":42.6304,"lng":-85.75703,"zip":"49328","miles_from_dt":23.05},{"city":"Bangor","state_name":"Michigan","lat":42.30524,"lng":-86.10796,"zip":"49013","miles_from_dt":23.83},{"city":"Covert","state_name":"Michigan","lat":42.28658,"lng":-86.2656,"zip":"49043","miles_from_dt":24.72},{"city":"Jenison","state_name":"Michigan","lat":42.89011,"lng":-85.8311,"zip":"49429","miles_from_dt":25.73},{"city":"Grand Haven","state_name":"Michigan","lat":43.01519,"lng":-86.14387,"zip":"49417","miles_from_dt":25.96},{"city":"Gobles","state_name":"Michigan","lat":42.37022,"lng":-85.85327,"zip":"49055","miles_from_dt":26.13},{"city":"Allendale","state_name":"Michigan","lat":42.9763,"lng":-85.95604,"zip":"49401","miles_from_dt":26.4},{"city":"Byron Center","state_name":"Michigan","lat":42.80101,"lng":-85.73589,"zip":"49315","miles_from_dt":26.46},{"city":"Jenison","state_name":"Michigan","lat":42.92042,"lng":-85.83712,"zip":"49428","miles_from_dt":26.95},{"city":"Otsego","state_name":"Michigan","lat":42.46585,"lng":-85.72846,"zip":"49078","miles_from_dt":27.38},{"city":"Grandville","state_name":"Michigan","lat":42.8774,"lng":-85.77226,"zip":"49418","miles_from_dt":27.51},{"city":"Kendall","state_name":"Michigan","lat":42.36089,"lng":-85.81547,"zip":"49062","miles_from_dt":27.95},{"city":"Moline","state_name":"Michigan","lat":42.74626,"lng":-85.66907,"zip":"49335","miles_from_dt":28.41},{"city":"Bradley","state_name":"Michigan","lat":42.63859,"lng":-85.64613,"zip":"49311","miles_from_dt":28.69},{"city":"Grandville","state_name":"Michigan","lat":42.90588,"lng":-85.75528,"zip":"49468","miles_from_dt":29.39},{"city":"Lamont","state_name":"Michigan","lat":43.01192,"lng":-85.90053,"zip":"49430","miles_from_dt":29.95}],"targetCityZipCode":"49406","targetCityState":"Michigan"},"__N_SSG":true}