{"pageProps":{"stateName":"Michigan","cityName":"dowling","nearbyCities":[{"city":"Battle Creek","state_name":"Michigan","lat":42.39748,"lng":-85.21971,"zip":"49018","miles_from_dt":7.54},{"city":"Battle Creek","state_name":"Michigan","lat":42.3979,"lng":-85.2111,"zip":"49017","miles_from_dt":7.57},{"city":"Bedford","state_name":"Michigan","lat":42.39545,"lng":-85.23307,"zip":"49020","miles_from_dt":7.63},{"city":"Nashville","state_name":"Michigan","lat":42.57971,"lng":-85.11717,"zip":"49073","miles_from_dt":7.94},{"city":"Cloverdale","state_name":"Michigan","lat":42.55267,"lng":-85.38521,"zip":"49035","miles_from_dt":8.25},{"city":"Delton","state_name":"Michigan","lat":42.51229,"lng":-85.40249,"zip":"49046","miles_from_dt":8.49},{"city":"Hastings","state_name":"Michigan","lat":42.63331,"lng":-85.29316,"zip":"49058","miles_from_dt":9.25},{"city":"Bellevue","state_name":"Michigan","lat":42.4588,"lng":-85.06435,"zip":"49021","miles_from_dt":9.38},{"city":"Hickory Corners","state_name":"Michigan","lat":42.42738,"lng":-85.39589,"zip":"49060","miles_from_dt":9.79},{"city":"Battle Creek","state_name":"Michigan","lat":42.33448,"lng":-85.24706,"zip":"49037","miles_from_dt":11.85},{"city":"Augusta","state_name":"Michigan","lat":42.34626,"lng":-85.34116,"zip":"49012","miles_from_dt":12.25},{"city":"Battle Creek","state_name":"Michigan","lat":42.30587,"lng":-85.1721,"zip":"49016","miles_from_dt":14.2},{"city":"Richland","state_name":"Michigan","lat":42.3784,"lng":-85.45899,"zip":"49083","miles_from_dt":14.38},{"city":"Vermontville","state_name":"Michigan","lat":42.63794,"lng":-85.01409,"zip":"49096","miles_from_dt":14.55},{"city":"Woodland","state_name":"Michigan","lat":42.70498,"lng":-85.13193,"zip":"48897","miles_from_dt":14.73},{"city":"Battle Creek","state_name":"Michigan","lat":42.30996,"lng":-85.10711,"zip":"49014","miles_from_dt":15.06},{"city":"Battle Creek","state_name":"Michigan","lat":42.27467,"lng":-85.23115,"zip":"49015","miles_from_dt":15.97},{"city":"Middleville","state_name":"Michigan","lat":42.69546,"lng":-85.46343,"zip":"49333","miles_from_dt":17.46},{"city":"Galesburg","state_name":"Michigan","lat":42.28877,"lng":-85.41722,"zip":"49053","miles_from_dt":17.61},{"city":"Plainwell","state_name":"Michigan","lat":42.46086,"lng":-85.57711,"zip":"49080","miles_from_dt":17.68},{"city":"Freeport","state_name":"Michigan","lat":42.76155,"lng":-85.30162,"zip":"49325","miles_from_dt":17.95},{"city":"Olivet","state_name":"Michigan","lat":42.4309,"lng":-84.88657,"zip":"49076","miles_from_dt":18.62},{"city":"Shelbyville","state_name":"Michigan","lat":42.5919,"lng":-85.59028,"zip":"49344","miles_from_dt":19},{"city":"Climax","state_name":"Michigan","lat":42.23178,"lng":-85.33403,"zip":"49034","miles_from_dt":19.57},{"city":"Kalamazoo","state_name":"Michigan","lat":42.34903,"lng":-85.55954,"zip":"49004","miles_from_dt":19.75},{"city":"Nazareth","state_name":"Michigan","lat":42.3198,"lng":-85.53991,"zip":"49074","miles_from_dt":20.15},{"city":"Martin","state_name":"Michigan","lat":42.54023,"lng":-85.62879,"zip":"49070","miles_from_dt":20.17},{"city":"Charlotte","state_name":"Michigan","lat":42.57862,"lng":-84.84524,"zip":"48813","miles_from_dt":20.59},{"city":"Ceresco","state_name":"Michigan","lat":42.22654,"lng":-85.09193,"zip":"49033","miles_from_dt":20.66},{"city":"Comstock","state_name":"Michigan","lat":42.28489,"lng":-85.5113,"zip":"49041","miles_from_dt":20.75},{"city":"Lake Odessa","state_name":"Michigan","lat":42.7984,"lng":-85.13298,"zip":"48849","miles_from_dt":20.86},{"city":"Kalamazoo","state_name":"Michigan","lat":42.27202,"lng":-85.49893,"zip":"49048","miles_from_dt":21},{"city":"Marshall","state_name":"Michigan","lat":42.2765,"lng":-84.94063,"zip":"49068","miles_from_dt":21.91},{"city":"East Leroy","state_name":"Michigan","lat":42.18207,"lng":-85.23803,"zip":"49051","miles_from_dt":22.36},{"city":"Mulliken","state_name":"Michigan","lat":42.73002,"lng":-84.91741,"zip":"48861","miles_from_dt":22.45},{"city":"Sunfield","state_name":"Michigan","lat":42.76878,"lng":-84.97167,"zip":"48890","miles_from_dt":22.61},{"city":"Bradley","state_name":"Michigan","lat":42.63859,"lng":-85.64613,"zip":"49311","miles_from_dt":22.81},{"city":"Kalamazoo","state_name":"Michigan","lat":42.30252,"lng":-85.5883,"zip":"49007","miles_from_dt":22.83},{"city":"Wayland","state_name":"Michigan","lat":42.68379,"lng":-85.61619,"zip":"49348","miles_from_dt":22.93},{"city":"Kalamazoo","state_name":"Michigan","lat":42.29116,"lng":-85.5826,"zip":"49005","miles_from_dt":23.09},{"city":"Clarksville","state_name":"Michigan","lat":42.84155,"lng":-85.25387,"zip":"48815","miles_from_dt":23.18},{"city":"Alto","state_name":"Michigan","lat":42.82307,"lng":-85.39871,"zip":"49302","miles_from_dt":23.4},{"city":"Kalamazoo","state_name":"Michigan","lat":42.2647,"lng":-85.56265,"zip":"49001","miles_from_dt":23.58},{"city":"Scotts","state_name":"Michigan","lat":42.18602,"lng":-85.42503,"zip":"49088","miles_from_dt":24.1},{"city":"Kalamazoo","state_name":"Michigan","lat":42.27288,"lng":-85.58742,"zip":"49019","miles_from_dt":24.11},{"city":"Kalamazoo","state_name":"Michigan","lat":42.29539,"lng":-85.6291,"zip":"49006","miles_from_dt":24.79},{"city":"Otsego","state_name":"Michigan","lat":42.46585,"lng":-85.72846,"zip":"49078","miles_from_dt":25.28},{"city":"Kalamazoo","state_name":"Michigan","lat":42.26337,"lng":-85.61528,"zip":"49008","miles_from_dt":25.61},{"city":"Caledonia","state_name":"Michigan","lat":42.79644,"lng":-85.55564,"zip":"49316","miles_from_dt":25.81},{"city":"Burlington","state_name":"Michigan","lat":42.1423,"lng":-85.09107,"zip":"49029","miles_from_dt":26.18},{"city":"Kalamazoo","state_name":"Michigan","lat":42.31239,"lng":-85.68229,"zip":"49003","miles_from_dt":26.43},{"city":"Portage","state_name":"Michigan","lat":42.20562,"lng":-85.56678,"zip":"49081","miles_from_dt":26.75},{"city":"Portage","state_name":"Michigan","lat":42.19867,"lng":-85.55906,"zip":"49002","miles_from_dt":26.88},{"city":"Kalamazoo","state_name":"Michigan","lat":42.30913,"lng":-85.69278,"zip":"49009","miles_from_dt":27.01},{"city":"Fulton","state_name":"Michigan","lat":42.11538,"lng":-85.31936,"zip":"49052","miles_from_dt":27.29},{"city":"Potterville","state_name":"Michigan","lat":42.64757,"lng":-84.73631,"zip":"48876","miles_from_dt":27.32},{"city":"Moline","state_name":"Michigan","lat":42.74626,"lng":-85.66907,"zip":"49335","miles_from_dt":27.59},{"city":"Athens","state_name":"Michigan","lat":42.10288,"lng":-85.22285,"zip":"49011","miles_from_dt":27.83},{"city":"Hopkins","state_name":"Michigan","lat":42.6304,"lng":-85.75703,"zip":"49328","miles_from_dt":27.91},{"city":"Oshtemo","state_name":"Michigan","lat":42.25552,"lng":-85.677,"zip":"49077","miles_from_dt":28.41},{"city":"Portage","state_name":"Michigan","lat":42.20207,"lng":-85.61917,"zip":"49024","miles_from_dt":28.7},{"city":"Portland","state_name":"Michigan","lat":42.8578,"lng":-84.93201,"zip":"48875","miles_from_dt":28.81},{"city":"Grand Ledge","state_name":"Michigan","lat":42.7453,"lng":-84.76701,"zip":"48837","miles_from_dt":29.08},{"city":"Springport","state_name":"Michigan","lat":42.38507,"lng":-84.69128,"zip":"49284","miles_from_dt":29.09},{"city":"Grand Rapids","state_name":"Michigan","lat":42.86678,"lng":-85.54425,"zip":"49530","miles_from_dt":29.42},{"city":"Albion","state_name":"Michigan","lat":42.27982,"lng":-84.74852,"zip":"49224","miles_from_dt":29.45},{"city":"Eaton Rapids","state_name":"Michigan","lat":42.509,"lng":-84.65971,"zip":"48827","miles_from_dt":29.46},{"city":"Saranac","state_name":"Michigan","lat":42.934,"lng":-85.20214,"zip":"48881","miles_from_dt":29.6},{"city":"Vicksburg","state_name":"Michigan","lat":42.11491,"lng":-85.48985,"zip":"49097","miles_from_dt":29.95}],"targetCityZipCode":"49050","targetCityState":"Michigan"},"__N_SSG":true}