{"pageProps":{"stateName":"Michigan","cityName":"fairgrove","nearbyCities":[{"city":"Akron","state_name":"Michigan","lat":43.5879,"lng":-83.54649,"zip":"48701","miles_from_dt":4.38},{"city":"Reese","state_name":"Michigan","lat":43.46748,"lng":-83.679,"zip":"48757","miles_from_dt":6.35},{"city":"Munger","state_name":"Michigan","lat":43.52119,"lng":-83.76085,"zip":"48747","miles_from_dt":8.61},{"city":"Richville","state_name":"Michigan","lat":43.40661,"lng":-83.67325,"zip":"48758","miles_from_dt":9.67},{"city":"Unionville","state_name":"Michigan","lat":43.64172,"lng":-83.45541,"zip":"48767","miles_from_dt":10.1},{"city":"Caro","state_name":"Michigan","lat":43.4861,"lng":-83.38499,"zip":"48723","miles_from_dt":10.81},{"city":"Essexville","state_name":"Michigan","lat":43.60666,"lng":-83.78274,"zip":"48732","miles_from_dt":10.92},{"city":"Vassar","state_name":"Michigan","lat":43.37077,"lng":-83.57661,"zip":"48768","miles_from_dt":11.22},{"city":"Bay City","state_name":"Michigan","lat":43.52942,"lng":-83.84119,"zip":"48707","miles_from_dt":12.6},{"city":"Bay City","state_name":"Michigan","lat":43.55653,"lng":-83.84853,"zip":"48708","miles_from_dt":13.07},{"city":"Frankenmuth","state_name":"Michigan","lat":43.35519,"lng":-83.74321,"zip":"48734","miles_from_dt":14.49},{"city":"Frankenmuth","state_name":"Michigan","lat":43.33156,"lng":-83.74178,"zip":"48787","miles_from_dt":15.86},{"city":"Sebewaing","state_name":"Michigan","lat":43.7265,"lng":-83.39323,"zip":"48759","miles_from_dt":16.61},{"city":"Mayville","state_name":"Michigan","lat":43.34797,"lng":-83.36051,"zip":"48744","miles_from_dt":17.23},{"city":"Carrollton","state_name":"Michigan","lat":43.4569,"lng":-83.92709,"zip":"48724","miles_from_dt":17.72},{"city":"Saginaw","state_name":"Michigan","lat":43.40096,"lng":-83.8952,"zip":"48601","miles_from_dt":17.84},{"city":"Bridgeport","state_name":"Michigan","lat":43.34554,"lng":-83.83961,"zip":"48722","miles_from_dt":18.02},{"city":"Gagetown","state_name":"Michigan","lat":43.66861,"lng":-83.27294,"zip":"48735","miles_from_dt":18.47},{"city":"Saginaw","state_name":"Michigan","lat":43.43136,"lng":-83.93409,"zip":"48607","miles_from_dt":18.65},{"city":"Saginaw","state_name":"Michigan","lat":43.49749,"lng":-83.95887,"zip":"48604","miles_from_dt":18.68},{"city":"Millington","state_name":"Michigan","lat":43.26397,"lng":-83.54155,"zip":"48746","miles_from_dt":18.74},{"city":"Saginaw","state_name":"Michigan","lat":43.43156,"lng":-83.93624,"zip":"48606","miles_from_dt":18.75},{"city":"Bay City","state_name":"Michigan","lat":43.59937,"lng":-83.95623,"zip":"48706","miles_from_dt":18.93},{"city":"Saginaw","state_name":"Michigan","lat":43.41937,"lng":-83.94781,"zip":"48663","miles_from_dt":19.61},{"city":"University Center","state_name":"Michigan","lat":43.55649,"lng":-83.98781,"zip":"48710","miles_from_dt":20.03},{"city":"Saginaw","state_name":"Michigan","lat":43.41971,"lng":-83.97469,"zip":"48602","miles_from_dt":20.85},{"city":"Deford","state_name":"Michigan","lat":43.49621,"lng":-83.17828,"zip":"48729","miles_from_dt":20.86},{"city":"Birch Run","state_name":"Michigan","lat":43.27165,"lng":-83.80111,"zip":"48415","miles_from_dt":20.94},{"city":"Cass City","state_name":"Michigan","lat":43.60776,"lng":-83.16833,"zip":"48726","miles_from_dt":21.8},{"city":"Silverwood","state_name":"Michigan","lat":43.32095,"lng":-83.25595,"zip":"48760","miles_from_dt":22.3},{"city":"Kingston","state_name":"Michigan","lat":43.40487,"lng":-83.18121,"zip":"48741","miles_from_dt":22.39},{"city":"Owendale","state_name":"Michigan","lat":43.734,"lng":-83.23774,"zip":"48754","miles_from_dt":22.47},{"city":"Saginaw","state_name":"Michigan","lat":43.46332,"lng":-84.03115,"zip":"48603","miles_from_dt":22.67},{"city":"Fostoria","state_name":"Michigan","lat":43.24863,"lng":-83.3598,"zip":"48435","miles_from_dt":22.81},{"city":"Saginaw","state_name":"Michigan","lat":43.43967,"lng":-84.02945,"zip":"48608","miles_from_dt":23},{"city":"Saginaw","state_name":"Michigan","lat":43.41681,"lng":-84.01958,"zip":"48638","miles_from_dt":23.03},{"city":"Kawkawlin","state_name":"Michigan","lat":43.6849,"lng":-84.00155,"zip":"48631","miles_from_dt":23.14},{"city":"Otter Lake","state_name":"Michigan","lat":43.21562,"lng":-83.41884,"zip":"48464","miles_from_dt":23.55},{"city":"Saginaw","state_name":"Michigan","lat":43.45908,"lng":-84.05217,"zip":"48605","miles_from_dt":23.77},{"city":"Bay Port","state_name":"Michigan","lat":43.8294,"lng":-83.34808,"zip":"48720","miles_from_dt":23.79},{"city":"Clio","state_name":"Michigan","lat":43.17968,"lng":-83.71176,"zip":"48420","miles_from_dt":25.15},{"city":"Burt","state_name":"Michigan","lat":43.25998,"lng":-83.93686,"zip":"48417","miles_from_dt":25.69},{"city":"Otisville","state_name":"Michigan","lat":43.16418,"lng":-83.52202,"zip":"48463","miles_from_dt":25.7},{"city":"Clifford","state_name":"Michigan","lat":43.30695,"lng":-83.17935,"zip":"48727","miles_from_dt":25.91},{"city":"Auburn","state_name":"Michigan","lat":43.63187,"lng":-84.0936,"zip":"48611","miles_from_dt":26.16},{"city":"Pigeon","state_name":"Michigan","lat":43.83571,"lng":-83.26832,"zip":"48755","miles_from_dt":26.4},{"city":"Decker","state_name":"Michigan","lat":43.50856,"lng":-83.06025,"zip":"48426","miles_from_dt":26.68},{"city":"Saginaw","state_name":"Michigan","lat":43.3878,"lng":-84.08786,"zip":"48609","miles_from_dt":26.96},{"city":"Freeland","state_name":"Michigan","lat":43.5198,"lng":-84.13523,"zip":"48623","miles_from_dt":27.39},{"city":"Linwood","state_name":"Michigan","lat":43.75405,"lng":-84.05414,"zip":"48634","miles_from_dt":27.81},{"city":"Columbiaville","state_name":"Michigan","lat":43.15321,"lng":-83.39262,"zip":"48421","miles_from_dt":28.05},{"city":"Montrose","state_name":"Michigan","lat":43.19018,"lng":-83.89306,"zip":"48457","miles_from_dt":28.16},{"city":"Mount Morris","state_name":"Michigan","lat":43.1209,"lng":-83.68308,"zip":"48458","miles_from_dt":28.83},{"city":"Genesee","state_name":"Michigan","lat":43.11248,"lng":-83.61893,"zip":"48437","miles_from_dt":29.07},{"city":"North Branch","state_name":"Michigan","lat":43.2024,"lng":-83.20669,"zip":"48461","miles_from_dt":29.91}],"targetCityZipCode":"48733","targetCityState":"Michigan"},"__N_SSG":true}