{"pageProps":{"stateName":"Michigan","cityName":"fenton","nearbyCities":[{"city":"Linden","state_name":"Michigan","lat":42.80365,"lng":-83.81683,"zip":"48451","miles_from_dt":4.96},{"city":"Holly","state_name":"Michigan","lat":42.79316,"lng":-83.60224,"zip":"48442","miles_from_dt":7.52},{"city":"Hartland","state_name":"Michigan","lat":42.64736,"lng":-83.71627,"zip":"48353","miles_from_dt":7.72},{"city":"Highland","state_name":"Michigan","lat":42.65358,"lng":-83.6432,"zip":"48357","miles_from_dt":8.76},{"city":"Howell","state_name":"Michigan","lat":42.68759,"lng":-83.91331,"zip":"48855","miles_from_dt":9.96},{"city":"Gaines","state_name":"Michigan","lat":42.87017,"lng":-83.87704,"zip":"48436","miles_from_dt":10.37},{"city":"Highland","state_name":"Michigan","lat":42.65532,"lng":-83.58904,"zip":"48356","miles_from_dt":10.51},{"city":"Davisburg","state_name":"Michigan","lat":42.74082,"lng":-83.53374,"zip":"48350","miles_from_dt":10.66},{"city":"Cohoctah","state_name":"Michigan","lat":42.76151,"lng":-83.95172,"zip":"48816","miles_from_dt":10.67},{"city":"Byron","state_name":"Michigan","lat":42.80427,"lng":-83.97066,"zip":"48418","miles_from_dt":12.06},{"city":"Grand Blanc","state_name":"Michigan","lat":42.91733,"lng":-83.63018,"zip":"48439","miles_from_dt":12.41},{"city":"White Lake","state_name":"Michigan","lat":42.65533,"lng":-83.53485,"zip":"48383","miles_from_dt":12.69},{"city":"Grand Blanc","state_name":"Michigan","lat":42.92595,"lng":-83.6348,"zip":"48480","miles_from_dt":12.84},{"city":"Milford","state_name":"Michigan","lat":42.57902,"lng":-83.66602,"zip":"48380","miles_from_dt":12.92},{"city":"Flint","state_name":"Michigan","lat":42.93686,"lng":-83.82382,"zip":"48554","miles_from_dt":13.06},{"city":"Brighton","state_name":"Michigan","lat":42.56784,"lng":-83.75537,"zip":"48114","miles_from_dt":13.11},{"city":"Swartz Creek","state_name":"Michigan","lat":42.94012,"lng":-83.8274,"zip":"48473","miles_from_dt":13.33},{"city":"Howell","state_name":"Michigan","lat":42.60698,"lng":-83.93198,"zip":"48844","miles_from_dt":14.2},{"city":"Flint","state_name":"Michigan","lat":42.96498,"lng":-83.71687,"zip":"48507","miles_from_dt":14.38},{"city":"Flint","state_name":"Michigan","lat":42.96617,"lng":-83.77784,"zip":"48501","miles_from_dt":14.52},{"city":"Flint","state_name":"Michigan","lat":42.97433,"lng":-83.71617,"zip":"48553","miles_from_dt":15.02},{"city":"White Lake","state_name":"Michigan","lat":42.65826,"lng":-83.47549,"zip":"48386","miles_from_dt":15.2},{"city":"Burton","state_name":"Michigan","lat":42.97237,"lng":-83.66221,"zip":"48529","miles_from_dt":15.38},{"city":"Milford","state_name":"Michigan","lat":42.5628,"lng":-83.59336,"zip":"48381","miles_from_dt":15.43},{"city":"Flint","state_name":"Michigan","lat":42.98726,"lng":-83.71196,"zip":"48551","miles_from_dt":15.93},{"city":"Howell","state_name":"Michigan","lat":42.56891,"lng":-83.92333,"zip":"48843","miles_from_dt":15.96},{"city":"Flint","state_name":"Michigan","lat":42.98712,"lng":-83.6793,"zip":"48557","miles_from_dt":16.17},{"city":"Flint","state_name":"Michigan","lat":42.99091,"lng":-83.71141,"zip":"48552","miles_from_dt":16.19},{"city":"Atlas","state_name":"Michigan","lat":42.93577,"lng":-83.53202,"zip":"48411","miles_from_dt":16.29},{"city":"Clarkston","state_name":"Michigan","lat":42.72156,"lng":-83.42388,"zip":"48346","miles_from_dt":16.38},{"city":"Clarkston","state_name":"Michigan","lat":42.73562,"lng":-83.41999,"zip":"48347","miles_from_dt":16.46},{"city":"Commerce Township","state_name":"Michigan","lat":42.59006,"lng":-83.507,"zip":"48382","miles_from_dt":16.64},{"city":"Durand","state_name":"Michigan","lat":42.90774,"lng":-84.00544,"zip":"48429","miles_from_dt":16.93},{"city":"Goodrich","state_name":"Michigan","lat":42.91142,"lng":-83.47819,"zip":"48438","miles_from_dt":17.11},{"city":"Ortonville","state_name":"Michigan","lat":42.84733,"lng":-83.42576,"zip":"48462","miles_from_dt":17.23},{"city":"Burton","state_name":"Michigan","lat":42.98772,"lng":-83.60701,"zip":"48519","miles_from_dt":17.31},{"city":"Clarkston","state_name":"Michigan","lat":42.76677,"lng":-83.40088,"zip":"48348","miles_from_dt":17.37},{"city":"Brighton","state_name":"Michigan","lat":42.50428,"lng":-83.78069,"zip":"48116","miles_from_dt":17.59},{"city":"Flint","state_name":"Michigan","lat":43.01139,"lng":-83.68901,"zip":"48503","miles_from_dt":17.73},{"city":"Flint","state_name":"Michigan","lat":43.01203,"lng":-83.79429,"zip":"48532","miles_from_dt":17.77},{"city":"Flint","state_name":"Michigan","lat":43.01429,"lng":-83.68866,"zip":"48502","miles_from_dt":17.93},{"city":"Fowlerville","state_name":"Michigan","lat":42.66899,"lng":-84.07421,"zip":"48836","miles_from_dt":17.98},{"city":"Union Lake","state_name":"Michigan","lat":42.61232,"lng":-83.44784,"zip":"48387","miles_from_dt":18.03},{"city":"Waterford","state_name":"Michigan","lat":42.6443,"lng":-83.41417,"zip":"48327","miles_from_dt":18.43},{"city":"Waterford","state_name":"Michigan","lat":42.68826,"lng":-83.38854,"zip":"48329","miles_from_dt":18.62},{"city":"Bancroft","state_name":"Michigan","lat":42.86391,"lng":-84.08098,"zip":"48414","miles_from_dt":18.72},{"city":"New Hudson","state_name":"Michigan","lat":42.49968,"lng":-83.61623,"zip":"48165","miles_from_dt":18.92},{"city":"Wixom","state_name":"Michigan","lat":42.52123,"lng":-83.54532,"zip":"48393","miles_from_dt":19.15},{"city":"Drayton Plains","state_name":"Michigan","lat":42.68362,"lng":-83.37719,"zip":"48330","miles_from_dt":19.26},{"city":"Vernon","state_name":"Michigan","lat":42.93765,"lng":-84.03319,"zip":"48476","miles_from_dt":19.32},{"city":"Lennon","state_name":"Michigan","lat":42.99518,"lng":-83.94552,"zip":"48449","miles_from_dt":19.39},{"city":"Walled Lake","state_name":"Michigan","lat":42.55197,"lng":-83.4752,"zip":"48390","miles_from_dt":19.65},{"city":"Burton","state_name":"Michigan","lat":43.02635,"lng":-83.60527,"zip":"48509","miles_from_dt":19.81},{"city":"Flint","state_name":"Michigan","lat":43.05508,"lng":-83.75037,"zip":"48531","miles_from_dt":20.54},{"city":"Flint","state_name":"Michigan","lat":43.05632,"lng":-83.74948,"zip":"48504","miles_from_dt":20.63},{"city":"Flint","state_name":"Michigan","lat":43.05912,"lng":-83.74424,"zip":"48555","miles_from_dt":20.82},{"city":"West Bloomfield","state_name":"Michigan","lat":42.59702,"lng":-83.39151,"zip":"48324","miles_from_dt":21.01},{"city":"Waterford","state_name":"Michigan","lat":42.64597,"lng":-83.35603,"zip":"48328","miles_from_dt":21.11},{"city":"West Bloomfield","state_name":"Michigan","lat":42.59507,"lng":-83.38994,"zip":"48325","miles_from_dt":21.15},{"city":"Hamburg","state_name":"Michigan","lat":42.45298,"lng":-83.80796,"zip":"48139","miles_from_dt":21.29},{"city":"Lakeland","state_name":"Michigan","lat":42.45877,"lng":-83.84701,"zip":"48143","miles_from_dt":21.3},{"city":"Flint","state_name":"Michigan","lat":43.06574,"lng":-83.6881,"zip":"48550","miles_from_dt":21.45},{"city":"Flint","state_name":"Michigan","lat":43.06948,"lng":-83.69079,"zip":"48505","miles_from_dt":21.69},{"city":"Morrice","state_name":"Michigan","lat":42.84243,"lng":-84.15503,"zip":"48857","miles_from_dt":21.79},{"city":"Hadley","state_name":"Michigan","lat":42.95567,"lng":-83.40785,"zip":"48440","miles_from_dt":21.8},{"city":"South Lyon","state_name":"Michigan","lat":42.44463,"lng":-83.66399,"zip":"48178","miles_from_dt":21.96},{"city":"Flint","state_name":"Michigan","lat":43.06486,"lng":-83.62639,"zip":"48556","miles_from_dt":22.01},{"city":"Novi","state_name":"Michigan","lat":42.50646,"lng":-83.4727,"zip":"48377","miles_from_dt":22.11},{"city":"Flint","state_name":"Michigan","lat":43.06775,"lng":-83.62253,"zip":"48506","miles_from_dt":22.26},{"city":"Davison","state_name":"Michigan","lat":43.03982,"lng":-83.51404,"zip":"48423","miles_from_dt":22.66},{"city":"West Bloomfield","state_name":"Michigan","lat":42.57036,"lng":-83.37651,"zip":"48323","miles_from_dt":22.67},{"city":"Novi","state_name":"Michigan","lat":42.47083,"lng":-83.52384,"zip":"48374","miles_from_dt":22.7},{"city":"Keego Harbor","state_name":"Michigan","lat":42.61274,"lng":-83.33824,"zip":"48320","miles_from_dt":22.87},{"city":"Pinckney","state_name":"Michigan","lat":42.46348,"lng":-83.94955,"zip":"48169","miles_from_dt":22.89},{"city":"Flushing","state_name":"Michigan","lat":43.07632,"lng":-83.8661,"zip":"48433","miles_from_dt":22.89},{"city":"Novi","state_name":"Michigan","lat":42.48859,"lng":-83.47601,"zip":"48376","miles_from_dt":22.99},{"city":"Corunna","state_name":"Michigan","lat":43.01795,"lng":-84.03772,"zip":"48817","miles_from_dt":23.42},{"city":"Webberville","state_name":"Michigan","lat":42.63662,"lng":-84.17477,"zip":"48892","miles_from_dt":23.56},{"city":"West Bloomfield","state_name":"Michigan","lat":42.54214,"lng":-83.38139,"zip":"48322","miles_from_dt":23.64},{"city":"Lake Orion","state_name":"Michigan","lat":42.7218,"lng":-83.27801,"zip":"48359","miles_from_dt":23.74},{"city":"Pontiac","state_name":"Michigan","lat":42.67065,"lng":-83.29019,"zip":"48340","miles_from_dt":23.77},{"city":"Oxford","state_name":"Michigan","lat":42.84544,"lng":-83.28785,"zip":"48371","miles_from_dt":23.87},{"city":"Whitmore Lake","state_name":"Michigan","lat":42.41137,"lng":-83.78306,"zip":"48189","miles_from_dt":23.98},{"city":"Lake Orion","state_name":"Michigan","lat":42.782,"lng":-83.2696,"zip":"48362","miles_from_dt":24.09},{"city":"Lake Orion","state_name":"Michigan","lat":42.74903,"lng":-83.26789,"zip":"48360","miles_from_dt":24.13},{"city":"Pontiac","state_name":"Michigan","lat":42.64041,"lng":-83.29074,"zip":"48343","miles_from_dt":24.36},{"city":"Farmington","state_name":"Michigan","lat":42.50389,"lng":-83.40863,"zip":"48331","miles_from_dt":24.4},{"city":"Perry","state_name":"Michigan","lat":42.80065,"lng":-84.2189,"zip":"48872","miles_from_dt":24.43},{"city":"Pontiac","state_name":"Michigan","lat":42.6275,"lng":-83.29433,"zip":"48341","miles_from_dt":24.5},{"city":"Novi","state_name":"Michigan","lat":42.46537,"lng":-83.46385,"zip":"48375","miles_from_dt":24.66},{"city":"Northville","state_name":"Michigan","lat":42.43455,"lng":-83.5313,"zip":"48167","miles_from_dt":24.75},{"city":"Pontiac","state_name":"Michigan","lat":42.64389,"lng":-83.27591,"zip":"48342","miles_from_dt":25},{"city":"Mount Morris","state_name":"Michigan","lat":43.1209,"lng":-83.68308,"zip":"48458","miles_from_dt":25.26},{"city":"Genesee","state_name":"Michigan","lat":43.11248,"lng":-83.61893,"zip":"48437","miles_from_dt":25.29},{"city":"Auburn Hills","state_name":"Michigan","lat":42.67536,"lng":-83.2531,"zip":"48326","miles_from_dt":25.53},{"city":"Salem","state_name":"Michigan","lat":42.40829,"lng":-83.57749,"zip":"48175","miles_from_dt":25.53},{"city":"Bloomfield Hills","state_name":"Michigan","lat":42.5849,"lng":-83.29608,"zip":"48302","miles_from_dt":25.65},{"city":"Lake Orion","state_name":"Michigan","lat":42.78444,"lng":-83.23808,"zip":"48361","miles_from_dt":25.7},{"city":"Auburn Hills","state_name":"Michigan","lat":42.67434,"lng":-83.2424,"zip":"48321","miles_from_dt":26.07},{"city":"Metamora","state_name":"Michigan","lat":42.94028,"lng":-83.29131,"zip":"48455","miles_from_dt":26.14},{"city":"Northville","state_name":"Michigan","lat":42.40559,"lng":-83.54051,"zip":"48168","miles_from_dt":26.38},{"city":"Farmington","state_name":"Michigan","lat":42.50662,"lng":-83.34964,"zip":"48334","miles_from_dt":26.46},{"city":"Gregory","state_name":"Michigan","lat":42.46191,"lng":-84.07367,"zip":"48137","miles_from_dt":26.5},{"city":"Farmington","state_name":"Michigan","lat":42.46229,"lng":-83.40271,"zip":"48335","miles_from_dt":26.73},{"city":"Farmington","state_name":"Michigan","lat":42.46582,"lng":-83.37868,"zip":"48332","miles_from_dt":27.36},{"city":"Farmington","state_name":"Michigan","lat":42.46222,"lng":-83.37775,"zip":"48333","miles_from_dt":27.58},{"city":"Bloomfield Hills","state_name":"Michigan","lat":42.54441,"lng":-83.28284,"zip":"48301","miles_from_dt":27.64},{"city":"Williamston","state_name":"Michigan","lat":42.68946,"lng":-84.28061,"zip":"48895","miles_from_dt":27.81},{"city":"Bloomfield Hills","state_name":"Michigan","lat":42.5823,"lng":-83.24525,"zip":"48303","miles_from_dt":28.05},{"city":"Oxford","state_name":"Michigan","lat":42.83797,"lng":-83.19981,"zip":"48370","miles_from_dt":28.12},{"city":"Owosso","state_name":"Michigan","lat":43.00537,"lng":-84.18766,"zip":"48867","miles_from_dt":28.36},{"city":"New Lothrop","state_name":"Michigan","lat":43.12734,"lng":-83.98586,"zip":"48460","miles_from_dt":28.36},{"city":"Shaftsburg","state_name":"Michigan","lat":42.80992,"lng":-84.29543,"zip":"48882","miles_from_dt":28.37},{"city":"Bloomfield Hills","state_name":"Michigan","lat":42.58745,"lng":-83.23442,"zip":"48304","miles_from_dt":28.4},{"city":"Farmington","state_name":"Michigan","lat":42.46333,"lng":-83.34803,"zip":"48336","miles_from_dt":28.57},{"city":"Lapeer","state_name":"Michigan","lat":43.05259,"lng":-83.33745,"zip":"48446","miles_from_dt":28.92},{"city":"Plymouth","state_name":"Michigan","lat":42.36758,"lng":-83.53271,"zip":"48170","miles_from_dt":28.96},{"city":"Dexter","state_name":"Michigan","lat":42.3547,"lng":-83.90272,"zip":"48130","miles_from_dt":28.99},{"city":"Clio","state_name":"Michigan","lat":43.17968,"lng":-83.71176,"zip":"48420","miles_from_dt":29.18},{"city":"Southfield","state_name":"Michigan","lat":42.49689,"lng":-83.29102,"zip":"48034","miles_from_dt":29.19},{"city":"Franklin","state_name":"Michigan","lat":42.52032,"lng":-83.26744,"zip":"48025","miles_from_dt":29.21},{"city":"Rochester","state_name":"Michigan","lat":42.65866,"lng":-83.18348,"zip":"48309","miles_from_dt":29.24},{"city":"Ann Arbor","state_name":"Michigan","lat":42.33117,"lng":-83.70587,"zip":"48105","miles_from_dt":29.49},{"city":"Oakland","state_name":"Michigan","lat":42.77209,"lng":-83.16114,"zip":"48363","miles_from_dt":29.56},{"city":"Livonia","state_name":"Michigan","lat":42.42597,"lng":-83.37433,"zip":"48152","miles_from_dt":29.59}],"targetCityZipCode":"48430","targetCityState":"Michigan"},"__N_SSG":true}