{"pageProps":{"stateName":"Michigan","cityName":"garden","nearbyCities":[{"city":"Nahma","state_name":"Michigan","lat":45.84444,"lng":-86.65104,"zip":"49864","miles_from_dt":7.84},{"city":"Cooks","state_name":"Michigan","lat":45.94711,"lng":-86.49946,"zip":"49817","miles_from_dt":14.5},{"city":"Rapid River","state_name":"Michigan","lat":45.95852,"lng":-86.86516,"zip":"49878","miles_from_dt":20.37},{"city":"Wells","state_name":"Michigan","lat":45.78292,"lng":-87.07634,"zip":"49894","miles_from_dt":24.36},{"city":"Manistique","state_name":"Michigan","lat":46.09581,"lng":-86.36453,"zip":"49854","miles_from_dt":26.34},{"city":"Gladstone","state_name":"Michigan","lat":45.87129,"lng":-87.09781,"zip":"49837","miles_from_dt":26.71},{"city":"Escanaba","state_name":"Michigan","lat":45.76773,"lng":-87.16522,"zip":"49829","miles_from_dt":28.55},{"city":"Wetmore","state_name":"Michigan","lat":46.16807,"lng":-86.66593,"zip":"49895","miles_from_dt":29.61},{"city":"Washington Island","state_name":"Wisconsin","lat":45.37538,"lng":-86.89721,"zip":"54246","miles_from_dt":29.86}],"targetCityZipCode":"49835","targetCityState":"Michigan"},"__N_SSG":true}