{"pageProps":{"stateName":"Michigan","cityName":"houghton","nearbyCities":[{"city":"Dodgeville","state_name":"Michigan","lat":47.09084,"lng":-88.5818,"zip":"49921","miles_from_dt":3.36},{"city":"Hancock","state_name":"Michigan","lat":47.15577,"lng":-88.53542,"zip":"49930","miles_from_dt":3.6},{"city":"Dollar Bay","state_name":"Michigan","lat":47.12369,"lng":-88.49522,"zip":"49922","miles_from_dt":5.31},{"city":"Atlantic Mine","state_name":"Michigan","lat":47.10694,"lng":-88.71395,"zip":"49905","miles_from_dt":5.47},{"city":"South Range","state_name":"Michigan","lat":47.04897,"lng":-88.64002,"zip":"49963","miles_from_dt":6.25},{"city":"Hubbell","state_name":"Michigan","lat":47.16539,"lng":-88.43967,"zip":"49934","miles_from_dt":8.1},{"city":"Painesdale","state_name":"Michigan","lat":47.00788,"lng":-88.69373,"zip":"49955","miles_from_dt":9.8},{"city":"Calumet","state_name":"Michigan","lat":47.23746,"lng":-88.44994,"zip":"49913","miles_from_dt":10.14},{"city":"Chassell","state_name":"Michigan","lat":46.97891,"lng":-88.59519,"zip":"49916","miles_from_dt":10.9},{"city":"Kearsarge","state_name":"Michigan","lat":47.26179,"lng":-88.4175,"zip":"49942","miles_from_dt":12.41},{"city":"Lake Linden","state_name":"Michigan","lat":47.16956,"lng":-88.30752,"zip":"49945","miles_from_dt":14.26},{"city":"Ahmeek","state_name":"Michigan","lat":47.29384,"lng":-88.39094,"zip":"49901","miles_from_dt":14.86},{"city":"Copper City","state_name":"Michigan","lat":47.28138,"lng":-88.35908,"zip":"49917","miles_from_dt":15.35},{"city":"Toivola","state_name":"Michigan","lat":46.94752,"lng":-88.85878,"zip":"49965","miles_from_dt":17.68},{"city":"Allouez","state_name":"Michigan","lat":47.3481,"lng":-88.38535,"zip":"49805","miles_from_dt":17.94},{"city":"Pelkie","state_name":"Michigan","lat":46.8165,"lng":-88.67595,"zip":"49958","miles_from_dt":22.35},{"city":"Baraga","state_name":"Michigan","lat":46.75276,"lng":-88.57034,"zip":"49908","miles_from_dt":26.56},{"city":"Mohawk","state_name":"Michigan","lat":47.37834,"lng":-88.12035,"zip":"49950","miles_from_dt":28.31}],"targetCityZipCode":"49931","targetCityState":"Michigan"},"__N_SSG":true}