{"pageProps":{"stateName":"Michigan","cityName":"iron-river","nearbyCities":[{"city":"Stambaugh","state_name":"Michigan","lat":46.08148,"lng":-88.62983,"zip":"49964","miles_from_dt":9.63},{"city":"Caspian","state_name":"Michigan","lat":46.06464,"lng":-88.62708,"zip":"49915","miles_from_dt":10.67},{"city":"Gaastra","state_name":"Michigan","lat":46.04475,"lng":-88.57108,"zip":"49927","miles_from_dt":13.36},{"city":"Amasa","state_name":"Michigan","lat":46.33455,"lng":-88.48496,"zip":"49903","miles_from_dt":15.8},{"city":"Phelps","state_name":"Wisconsin","lat":46.05481,"lng":-89.06138,"zip":"54554","miles_from_dt":17.96},{"city":"Long Lake","state_name":"Wisconsin","lat":45.92127,"lng":-88.72536,"zip":"54542","miles_from_dt":18.93},{"city":"Alpha","state_name":"Michigan","lat":46.04905,"lng":-88.37744,"zip":"49902","miles_from_dt":20.38},{"city":"Sidnaw","state_name":"Michigan","lat":46.50667,"lng":-88.74358,"zip":"49961","miles_from_dt":21.53},{"city":"Crystal Falls","state_name":"Michigan","lat":46.14087,"lng":-88.30079,"zip":"49920","miles_from_dt":21.7},{"city":"Watersmeet","state_name":"Michigan","lat":46.24608,"lng":-89.21431,"zip":"49969","miles_from_dt":22.71},{"city":"Trout Creek","state_name":"Michigan","lat":46.49377,"lng":-88.95551,"zip":"49967","miles_from_dt":22.94},{"city":"Watton","state_name":"Michigan","lat":46.53555,"lng":-88.59783,"zip":"49970","miles_from_dt":24.57},{"city":"Covington","state_name":"Michigan","lat":46.50995,"lng":-88.43518,"zip":"49919","miles_from_dt":26.36},{"city":"Conover","state_name":"Wisconsin","lat":46.05355,"lng":-89.26877,"zip":"54519","miles_from_dt":26.92},{"city":"Bruce Crossing","state_name":"Michigan","lat":46.49393,"lng":-89.20017,"zip":"49912","miles_from_dt":29.96}],"targetCityZipCode":"49935","targetCityState":"Michigan"},"__N_SSG":true}