{"pageProps":{"stateName":"Michigan","cityName":"johannesburg","nearbyCities":[{"city":"Atlanta","state_name":"Michigan","lat":45.03102,"lng":-84.17094,"zip":"49709","miles_from_dt":12.12},{"city":"Gaylord","state_name":"Michigan","lat":44.99576,"lng":-84.67117,"zip":"49735","miles_from_dt":12.65},{"city":"Gaylord","state_name":"Michigan","lat":45.02607,"lng":-84.67301,"zip":"49734","miles_from_dt":12.91},{"city":"Vanderbilt","state_name":"Michigan","lat":45.15835,"lng":-84.57563,"zip":"49795","miles_from_dt":13.8},{"city":"Lewiston","state_name":"Michigan","lat":44.81482,"lng":-84.27339,"zip":"49756","miles_from_dt":14.2},{"city":"Waters","state_name":"Michigan","lat":44.86827,"lng":-84.67004,"zip":"49797","miles_from_dt":15.34},{"city":"Frederic","state_name":"Michigan","lat":44.80368,"lng":-84.7291,"zip":"49733","miles_from_dt":20.37},{"city":"Wolverine","state_name":"Michigan","lat":45.26597,"lng":-84.58177,"zip":"49799","miles_from_dt":20.45},{"city":"Comins","state_name":"Michigan","lat":44.82224,"lng":-84.01996,"zip":"48619","miles_from_dt":22.68},{"city":"Grayling","state_name":"Michigan","lat":44.69296,"lng":-84.60578,"zip":"49738","miles_from_dt":22.9},{"city":"Elmira","state_name":"Michigan","lat":45.04641,"lng":-84.87644,"zip":"49730","miles_from_dt":22.97},{"city":"Hillman","state_name":"Michigan","lat":45.06437,"lng":-83.95239,"zip":"49746","miles_from_dt":23.06},{"city":"Afton","state_name":"Michigan","lat":45.34826,"lng":-84.45824,"zip":"49705","miles_from_dt":24.5},{"city":"Onaway","state_name":"Michigan","lat":45.33379,"lng":-84.25229,"zip":"49765","miles_from_dt":24.68},{"city":"Tower","state_name":"Michigan","lat":45.36698,"lng":-84.30616,"zip":"49792","miles_from_dt":26.22},{"city":"Boyne Falls","state_name":"Michigan","lat":45.21602,"lng":-84.85185,"zip":"49713","miles_from_dt":26.33},{"city":"Alba","state_name":"Michigan","lat":44.97995,"lng":-84.97873,"zip":"49611","miles_from_dt":27.74},{"city":"Fairview","state_name":"Michigan","lat":44.72064,"lng":-83.99408,"zip":"48621","miles_from_dt":27.97},{"city":"Mio","state_name":"Michigan","lat":44.65309,"lng":-84.08148,"zip":"48647","miles_from_dt":28.69},{"city":"Luzerne","state_name":"Michigan","lat":44.58871,"lng":-84.28569,"zip":"48636","miles_from_dt":28.74}],"targetCityZipCode":"49751","targetCityState":"Michigan"},"__N_SSG":true}