{"pageProps":{"stateName":"Michigan","cityName":"kinde","nearbyCities":[{"city":"Filion","state_name":"Michigan","lat":43.90013,"lng":-82.97923,"zip":"48432","miles_from_dt":3.64},{"city":"Port Austin","state_name":"Michigan","lat":44.00768,"lng":-82.98763,"zip":"48467","miles_from_dt":3.81},{"city":"Port Hope","state_name":"Michigan","lat":43.94113,"lng":-82.79021,"zip":"48468","miles_from_dt":9.88},{"city":"Bad Axe","state_name":"Michigan","lat":43.80231,"lng":-82.99663,"zip":"48413","miles_from_dt":10.37},{"city":"Caseville","state_name":"Michigan","lat":43.93763,"lng":-83.20596,"zip":"48725","miles_from_dt":10.94},{"city":"Elkton","state_name":"Michigan","lat":43.83898,"lng":-83.15784,"zip":"48731","miles_from_dt":11.55},{"city":"Pigeon","state_name":"Michigan","lat":43.83571,"lng":-83.26832,"zip":"48755","miles_from_dt":16.16},{"city":"Harbor Beach","state_name":"Michigan","lat":43.80515,"lng":-82.71727,"zip":"48441","miles_from_dt":16.9},{"city":"Ruth","state_name":"Michigan","lat":43.73253,"lng":-82.76158,"zip":"48470","miles_from_dt":18.92},{"city":"Ubly","state_name":"Michigan","lat":43.67141,"lng":-82.93732,"zip":"48475","miles_from_dt":19.56},{"city":"Owendale","state_name":"Michigan","lat":43.734,"lng":-83.23774,"zip":"48754","miles_from_dt":19.58},{"city":"Bay Port","state_name":"Michigan","lat":43.8294,"lng":-83.34808,"zip":"48720","miles_from_dt":19.9},{"city":"Minden City","state_name":"Michigan","lat":43.67102,"lng":-82.75818,"zip":"48456","miles_from_dt":22.56},{"city":"Gagetown","state_name":"Michigan","lat":43.66861,"lng":-83.27294,"zip":"48735","miles_from_dt":24.24},{"city":"Cass City","state_name":"Michigan","lat":43.60776,"lng":-83.16833,"zip":"48726","miles_from_dt":25.45},{"city":"Sebewaing","state_name":"Michigan","lat":43.7265,"lng":-83.39323,"zip":"48759","miles_from_dt":25.57},{"city":"Argyle","state_name":"Michigan","lat":43.56629,"lng":-82.9362,"zip":"48410","miles_from_dt":26.78},{"city":"Palms","state_name":"Michigan","lat":43.61485,"lng":-82.71099,"zip":"48465","miles_from_dt":27.11},{"city":"Forestville","state_name":"Michigan","lat":43.65988,"lng":-82.61263,"zip":"48434","miles_from_dt":27.56}],"targetCityZipCode":"48445","targetCityState":"Michigan"},"__N_SSG":true}