{"pageProps":{"stateName":"Michigan","cityName":"leland","nearbyCities":[{"city":"Empire","state_name":"Michigan","lat":44.92262,"lng":-86.00074,"zip":"49630","miles_from_dt":7.2},{"city":"Glen Arbor","state_name":"Michigan","lat":44.87261,"lng":-85.99292,"zip":"49636","miles_from_dt":10.68},{"city":"Maple City","state_name":"Michigan","lat":44.87457,"lng":-85.89058,"zip":"49664","miles_from_dt":12},{"city":"Lake Leelanau","state_name":"Michigan","lat":44.97184,"lng":-85.7302,"zip":"49653","miles_from_dt":14.17},{"city":"Cedar","state_name":"Michigan","lat":44.86229,"lng":-85.77555,"zip":"49621","miles_from_dt":16.12},{"city":"Suttons Bay","state_name":"Michigan","lat":44.97954,"lng":-85.6512,"zip":"49682","miles_from_dt":17.82},{"city":"Northport","state_name":"Michigan","lat":45.12088,"lng":-85.62096,"zip":"49670","miles_from_dt":20.06},{"city":"Omena","state_name":"Michigan","lat":45.0544,"lng":-85.58882,"zip":"49674","miles_from_dt":20.65},{"city":"Honor","state_name":"Michigan","lat":44.72088,"lng":-86.03664,"zip":"49640","miles_from_dt":21.17},{"city":"Lake Ann","state_name":"Michigan","lat":44.73359,"lng":-85.88033,"zip":"49650","miles_from_dt":21.21},{"city":"Traverse City","state_name":"Michigan","lat":44.80191,"lng":-85.70549,"zip":"49684","miles_from_dt":21.51},{"city":"Old Mission","state_name":"Michigan","lat":44.95461,"lng":-85.48863,"zip":"49673","miles_from_dt":25.97},{"city":"Beulah","state_name":"Michigan","lat":44.64105,"lng":-86.03505,"zip":"49617","miles_from_dt":26.67},{"city":"Traverse City","state_name":"Michigan","lat":44.82841,"lng":-85.53597,"zip":"49686","miles_from_dt":26.94},{"city":"Traverse City","state_name":"Michigan","lat":44.69859,"lng":-85.70425,"zip":"49685","miles_from_dt":27.15},{"city":"Interlochen","state_name":"Michigan","lat":44.63959,"lng":-85.83357,"zip":"49643","miles_from_dt":28.09},{"city":"Frankfort","state_name":"Michigan","lat":44.62261,"lng":-86.18914,"zip":"49635","miles_from_dt":29.28},{"city":"Acme","state_name":"Michigan","lat":44.79302,"lng":-85.49457,"zip":"49610","miles_from_dt":29.95}],"targetCityZipCode":"49654","targetCityState":"Michigan"},"__N_SSG":true}