{"pageProps":{"stateName":"Michigan","cityName":"lewiston","nearbyCities":[{"city":"Comins","state_name":"Michigan","lat":44.82224,"lng":-84.01996,"zip":"48619","miles_from_dt":12.47},{"city":"Johannesburg","state_name":"Michigan","lat":44.99496,"lng":-84.41309,"zip":"49751","miles_from_dt":14.2},{"city":"Mio","state_name":"Michigan","lat":44.65309,"lng":-84.08148,"zip":"48647","miles_from_dt":14.63},{"city":"Fairview","state_name":"Michigan","lat":44.72064,"lng":-83.99408,"zip":"48621","miles_from_dt":15.2},{"city":"Luzerne","state_name":"Michigan","lat":44.58871,"lng":-84.28569,"zip":"48636","miles_from_dt":15.62},{"city":"Atlanta","state_name":"Michigan","lat":45.03102,"lng":-84.17094,"zip":"49709","miles_from_dt":15.75},{"city":"Grayling","state_name":"Michigan","lat":44.69296,"lng":-84.60578,"zip":"49738","miles_from_dt":18.39},{"city":"Waters","state_name":"Michigan","lat":44.86827,"lng":-84.67004,"zip":"49797","miles_from_dt":19.83},{"city":"Frederic","state_name":"Michigan","lat":44.80368,"lng":-84.7291,"zip":"49733","miles_from_dt":22.41},{"city":"Curran","state_name":"Michigan","lat":44.74659,"lng":-83.82344,"zip":"48728","miles_from_dt":22.62},{"city":"Gaylord","state_name":"Michigan","lat":44.99576,"lng":-84.67117,"zip":"49735","miles_from_dt":23.18},{"city":"Hillman","state_name":"Michigan","lat":45.06437,"lng":-83.95239,"zip":"49746","miles_from_dt":23.34},{"city":"Gaylord","state_name":"Michigan","lat":45.02607,"lng":-84.67301,"zip":"49734","miles_from_dt":24.44},{"city":"Rose City","state_name":"Michigan","lat":44.45468,"lng":-84.12627,"zip":"48654","miles_from_dt":25.9},{"city":"Roscommon","state_name":"Michigan","lat":44.48936,"lng":-84.60624,"zip":"48653","miles_from_dt":27.82},{"city":"Vanderbilt","state_name":"Michigan","lat":45.15835,"lng":-84.57563,"zip":"49795","miles_from_dt":27.97},{"city":"South Branch","state_name":"Michigan","lat":44.51129,"lng":-83.89658,"zip":"48761","miles_from_dt":28},{"city":"Lachine","state_name":"Michigan","lat":45.01566,"lng":-83.77644,"zip":"49753","miles_from_dt":28.05},{"city":"Grayling","state_name":"Michigan","lat":44.62184,"lng":-84.78478,"zip":"49739","miles_from_dt":28.49}],"targetCityZipCode":"49756","targetCityState":"Michigan"},"__N_SSG":true}