{"pageProps":{"stateName":"Michigan","cityName":"marenisco","nearbyCities":[{"city":"Bergland","state_name":"Michigan","lat":46.61815,"lng":-89.54308,"zip":"49910","miles_from_dt":13.61},{"city":"Ewen","state_name":"Michigan","lat":46.55088,"lng":-89.37681,"zip":"49925","miles_from_dt":13.91},{"city":"Wakefield","state_name":"Michigan","lat":46.50199,"lng":-89.88314,"zip":"49968","miles_from_dt":14.26},{"city":"Presque Isle","state_name":"Wisconsin","lat":46.22178,"lng":-89.75453,"zip":"54557","miles_from_dt":15.8},{"city":"Ramsay","state_name":"Michigan","lat":46.46987,"lng":-89.99803,"zip":"49959","miles_from_dt":18.99},{"city":"White Pine","state_name":"Michigan","lat":46.71043,"lng":-89.62866,"zip":"49971","miles_from_dt":19.69},{"city":"Bruce Crossing","state_name":"Michigan","lat":46.49393,"lng":-89.20017,"zip":"49912","miles_from_dt":19.9},{"city":"Land O'Lakes","state_name":"Wisconsin","lat":46.15505,"lng":-89.38216,"zip":"54540","miles_from_dt":21.54},{"city":"Bessemer","state_name":"Michigan","lat":46.49247,"lng":-90.05235,"zip":"49911","miles_from_dt":21.83},{"city":"Watersmeet","state_name":"Michigan","lat":46.24608,"lng":-89.21431,"zip":"49969","miles_from_dt":22.46},{"city":"Boulder Junction","state_name":"Wisconsin","lat":46.0957,"lng":-89.66748,"zip":"54512","miles_from_dt":23},{"city":"Manitowish Waters","state_name":"Wisconsin","lat":46.1326,"lng":-89.85208,"zip":"54545","miles_from_dt":23.45},{"city":"Star Lake","state_name":"Wisconsin","lat":46.07102,"lng":-89.46451,"zip":"54561","miles_from_dt":25.42},{"city":"Ironwood","state_name":"Michigan","lat":46.51493,"lng":-90.13264,"zip":"49938","miles_from_dt":25.9},{"city":"Rockland","state_name":"Michigan","lat":46.71139,"lng":-89.25085,"zip":"49960","miles_from_dt":25.96},{"city":"Ontonagon","state_name":"Michigan","lat":46.79328,"lng":-89.42477,"zip":"49953","miles_from_dt":26.79},{"city":"Mercer","state_name":"Wisconsin","lat":46.18951,"lng":-90.0994,"zip":"54547","miles_from_dt":28.74},{"city":"Sayner","state_name":"Wisconsin","lat":46.00997,"lng":-89.54365,"zip":"54560","miles_from_dt":28.88},{"city":"Gile","state_name":"Wisconsin","lat":46.4335,"lng":-90.22603,"zip":"54525","miles_from_dt":29.65}],"targetCityZipCode":"49947","targetCityState":"Michigan"},"__N_SSG":true}