{"pageProps":{"stateName":"Michigan","cityName":"merrill","nearbyCities":[{"city":"Wheeler","state_name":"Michigan","lat":43.40217,"lng":-84.40961,"zip":"48662","miles_from_dt":3.79},{"city":"Hemlock","state_name":"Michigan","lat":43.4218,"lng":-84.22686,"zip":"48626","miles_from_dt":5.54},{"city":"Breckenridge","state_name":"Michigan","lat":43.42671,"lng":-84.47326,"zip":"48615","miles_from_dt":6.93},{"city":"Midland","state_name":"Michigan","lat":43.57818,"lng":-84.35821,"zip":"48641","miles_from_dt":11.32},{"city":"Brant","state_name":"Michigan","lat":43.25084,"lng":-84.30147,"zip":"48614","miles_from_dt":11.47},{"city":"Midland","state_name":"Michigan","lat":43.58394,"lng":-84.33648,"zip":"48640","miles_from_dt":11.66},{"city":"Saint Louis","state_name":"Michigan","lat":43.458,"lng":-84.57135,"zip":"48880","miles_from_dt":12.18},{"city":"Saint Charles","state_name":"Michigan","lat":43.29171,"lng":-84.15743,"zip":"48655","miles_from_dt":12.4},{"city":"Freeland","state_name":"Michigan","lat":43.5198,"lng":-84.13523,"zip":"48623","miles_from_dt":12.44},{"city":"Saginaw","state_name":"Michigan","lat":43.3878,"lng":-84.08786,"zip":"48609","miles_from_dt":12.65},{"city":"Midland","state_name":"Michigan","lat":43.61046,"lng":-84.23736,"zip":"48667","miles_from_dt":14.38},{"city":"Midland","state_name":"Michigan","lat":43.60135,"lng":-84.20676,"zip":"48686","miles_from_dt":14.42},{"city":"Saginaw","state_name":"Michigan","lat":43.45908,"lng":-84.05217,"zip":"48605","miles_from_dt":14.62},{"city":"Saginaw","state_name":"Michigan","lat":43.43967,"lng":-84.02945,"zip":"48608","miles_from_dt":15.54},{"city":"North Star","state_name":"Michigan","lat":43.24987,"lng":-84.54847,"zip":"48862","miles_from_dt":15.62},{"city":"Ithaca","state_name":"Michigan","lat":43.2714,"lng":-84.5776,"zip":"48847","miles_from_dt":15.68},{"city":"Saginaw","state_name":"Michigan","lat":43.46332,"lng":-84.03115,"zip":"48603","miles_from_dt":15.72},{"city":"Midland","state_name":"Michigan","lat":43.63697,"lng":-84.25606,"zip":"48670","miles_from_dt":15.85},{"city":"Saginaw","state_name":"Michigan","lat":43.41681,"lng":-84.01958,"zip":"48638","miles_from_dt":15.95},{"city":"Alma","state_name":"Michigan","lat":43.37871,"lng":-84.67667,"zip":"48801","miles_from_dt":17.31},{"city":"Ashley","state_name":"Michigan","lat":43.18568,"lng":-84.49675,"zip":"48806","miles_from_dt":17.77},{"city":"Saginaw","state_name":"Michigan","lat":43.41971,"lng":-83.97469,"zip":"48602","miles_from_dt":18.21},{"city":"Bannister","state_name":"Michigan","lat":43.15277,"lng":-84.40671,"zip":"48807","miles_from_dt":18.45},{"city":"Oakley","state_name":"Michigan","lat":43.15695,"lng":-84.21709,"zip":"48649","miles_from_dt":18.8},{"city":"Shepherd","state_name":"Michigan","lat":43.54336,"lng":-84.66771,"zip":"48883","miles_from_dt":18.86},{"city":"Chesaning","state_name":"Michigan","lat":43.19336,"lng":-84.11311,"zip":"48616","miles_from_dt":19},{"city":"Auburn","state_name":"Michigan","lat":43.63187,"lng":-84.0936,"zip":"48611","miles_from_dt":19.31},{"city":"Saginaw","state_name":"Michigan","lat":43.41937,"lng":-83.94781,"zip":"48663","miles_from_dt":19.56},{"city":"Saginaw","state_name":"Michigan","lat":43.49749,"lng":-83.95887,"zip":"48604","miles_from_dt":19.82},{"city":"University Center","state_name":"Michigan","lat":43.55649,"lng":-83.98781,"zip":"48710","miles_from_dt":20.06},{"city":"Saginaw","state_name":"Michigan","lat":43.43156,"lng":-83.93624,"zip":"48606","miles_from_dt":20.17},{"city":"Saginaw","state_name":"Michigan","lat":43.43136,"lng":-83.93409,"zip":"48607","miles_from_dt":20.28},{"city":"Midland","state_name":"Michigan","lat":43.69945,"lng":-84.22849,"zip":"48642","miles_from_dt":20.37},{"city":"Pompeii","state_name":"Michigan","lat":43.18644,"lng":-84.59498,"zip":"48874","miles_from_dt":20.47},{"city":"Sanford","state_name":"Michigan","lat":43.70945,"lng":-84.4213,"zip":"48657","miles_from_dt":20.77},{"city":"Carrollton","state_name":"Michigan","lat":43.4569,"lng":-83.92709,"zip":"48724","miles_from_dt":20.8},{"city":"Midland","state_name":"Michigan","lat":43.70746,"lng":-84.22867,"zip":"48674","miles_from_dt":20.9},{"city":"Henderson","state_name":"Michigan","lat":43.11372,"lng":-84.2392,"zip":"48841","miles_from_dt":21.37},{"city":"Elsie","state_name":"Michigan","lat":43.10253,"lng":-84.3744,"zip":"48831","miles_from_dt":21.65},{"city":"Mount Pleasant","state_name":"Michigan","lat":43.60609,"lng":-84.68855,"zip":"48804","miles_from_dt":22.07},{"city":"Elwell","state_name":"Michigan","lat":43.41212,"lng":-84.77767,"zip":"48832","miles_from_dt":22.21},{"city":"Saginaw","state_name":"Michigan","lat":43.40096,"lng":-83.8952,"zip":"48601","miles_from_dt":22.23},{"city":"Burt","state_name":"Michigan","lat":43.25998,"lng":-83.93686,"zip":"48417","miles_from_dt":22.8},{"city":"Bay City","state_name":"Michigan","lat":43.59937,"lng":-83.95623,"zip":"48706","miles_from_dt":22.96},{"city":"Eureka","state_name":"Michigan","lat":43.10332,"lng":-84.50721,"zip":"48833","miles_from_dt":23.18},{"city":"Sumner","state_name":"Michigan","lat":43.29133,"lng":-84.79701,"zip":"48889","miles_from_dt":24.72},{"city":"Coleman","state_name":"Michigan","lat":43.73602,"lng":-84.5584,"zip":"48618","miles_from_dt":24.8},{"city":"Perrinton","state_name":"Michigan","lat":43.15476,"lng":-84.67874,"zip":"48871","miles_from_dt":24.91},{"city":"Mount Pleasant","state_name":"Michigan","lat":43.58632,"lng":-84.77341,"zip":"48859","miles_from_dt":24.94},{"city":"Middleton","state_name":"Michigan","lat":43.19994,"lng":-84.7372,"zip":"48856","miles_from_dt":25.07},{"city":"Kawkawlin","state_name":"Michigan","lat":43.6849,"lng":-84.00155,"zip":"48631","miles_from_dt":25.1},{"city":"Elm Hall","state_name":"Michigan","lat":43.3626,"lng":-84.83406,"zip":"48830","miles_from_dt":25.31},{"city":"Hope","state_name":"Michigan","lat":43.78166,"lng":-84.32856,"zip":"48628","miles_from_dt":25.32},{"city":"Bridgeport","state_name":"Michigan","lat":43.34554,"lng":-83.83961,"zip":"48722","miles_from_dt":25.47},{"city":"Riverdale","state_name":"Michigan","lat":43.40068,"lng":-84.84316,"zip":"48877","miles_from_dt":25.52},{"city":"Bay City","state_name":"Michigan","lat":43.52942,"lng":-83.84119,"zip":"48707","miles_from_dt":26.12},{"city":"Bay City","state_name":"Michigan","lat":43.55653,"lng":-83.84853,"zip":"48708","miles_from_dt":26.4},{"city":"New Lothrop","state_name":"Michigan","lat":43.12734,"lng":-83.98586,"zip":"48460","miles_from_dt":26.59},{"city":"Mount Pleasant","state_name":"Michigan","lat":43.61483,"lng":-84.79576,"zip":"48858","miles_from_dt":26.89},{"city":"Montrose","state_name":"Michigan","lat":43.19018,"lng":-83.89306,"zip":"48457","miles_from_dt":27.21},{"city":"Edenville","state_name":"Michigan","lat":43.80865,"lng":-84.37805,"zip":"48620","miles_from_dt":27.26},{"city":"Linwood","state_name":"Michigan","lat":43.75405,"lng":-84.05414,"zip":"48634","miles_from_dt":27.36},{"city":"Maple Rapids","state_name":"Michigan","lat":43.10371,"lng":-84.68999,"zip":"48853","miles_from_dt":27.93},{"city":"Birch Run","state_name":"Michigan","lat":43.27165,"lng":-83.80111,"zip":"48415","miles_from_dt":28.73},{"city":"Vestaburg","state_name":"Michigan","lat":43.39676,"lng":-84.91469,"zip":"48891","miles_from_dt":29.13},{"city":"Ovid","state_name":"Michigan","lat":42.99303,"lng":-84.37219,"zip":"48866","miles_from_dt":29.18},{"city":"Owosso","state_name":"Michigan","lat":43.00537,"lng":-84.18766,"zip":"48867","miles_from_dt":29.26},{"city":"Winn","state_name":"Michigan","lat":43.52127,"lng":-84.90101,"zip":"48896","miles_from_dt":29.32},{"city":"Crystal","state_name":"Michigan","lat":43.2759,"lng":-84.89661,"zip":"48818","miles_from_dt":29.81},{"city":"Munger","state_name":"Michigan","lat":43.52119,"lng":-83.76085,"zip":"48747","miles_from_dt":29.86}],"targetCityZipCode":"48637","targetCityState":"Michigan"},"__N_SSG":true}