{"pageProps":{"stateName":"Michigan","cityName":"norvell","nearbyCities":[{"city":"Napoleon","state_name":"Michigan","lat":42.16174,"lng":-84.2472,"zip":"49261","miles_from_dt":3.34},{"city":"Brooklyn","state_name":"Michigan","lat":42.09701,"lng":-84.22266,"zip":"49230","miles_from_dt":4.7},{"city":"Manchester","state_name":"Michigan","lat":42.15564,"lng":-84.03031,"zip":"48158","miles_from_dt":7.8},{"city":"Grass Lake","state_name":"Michigan","lat":42.27821,"lng":-84.18027,"zip":"49240","miles_from_dt":8.29},{"city":"Michigan Center","state_name":"Michigan","lat":42.2268,"lng":-84.32165,"zip":"49254","miles_from_dt":8.58},{"city":"Clarklake","state_name":"Michigan","lat":42.12114,"lng":-84.3673,"zip":"49234","miles_from_dt":9.84},{"city":"Onsted","state_name":"Michigan","lat":42.01022,"lng":-84.17432,"zip":"49265","miles_from_dt":10.22},{"city":"Tipton","state_name":"Michigan","lat":42.02177,"lng":-84.08263,"zip":"49287","miles_from_dt":10.72},{"city":"Cement City","state_name":"Michigan","lat":42.0644,"lng":-84.36512,"zip":"49233","miles_from_dt":11.41},{"city":"Jackson","state_name":"Michigan","lat":42.22096,"lng":-84.40347,"zip":"49203","miles_from_dt":12.15},{"city":"Jackson","state_name":"Michigan","lat":42.25213,"lng":-84.38301,"zip":"49201","miles_from_dt":12.17},{"city":"Somerset","state_name":"Michigan","lat":42.05193,"lng":-84.38291,"zip":"49281","miles_from_dt":12.65},{"city":"Chelsea","state_name":"Michigan","lat":42.31151,"lng":-84.03835,"zip":"48118","miles_from_dt":12.9},{"city":"Clinton","state_name":"Michigan","lat":42.07792,"lng":-83.95035,"zip":"49236","miles_from_dt":13.14},{"city":"Bridgewater","state_name":"Michigan","lat":42.16051,"lng":-83.92133,"zip":"48115","miles_from_dt":13.4},{"city":"Addison","state_name":"Michigan","lat":41.99511,"lng":-84.34108,"zip":"49220","miles_from_dt":13.91},{"city":"Jackson","state_name":"Michigan","lat":42.26737,"lng":-84.4107,"zip":"49202","miles_from_dt":13.94},{"city":"Manitou Beach","state_name":"Michigan","lat":41.96443,"lng":-84.2697,"zip":"49253","miles_from_dt":14.11},{"city":"Somerset Center","state_name":"Michigan","lat":42.03496,"lng":-84.40518,"zip":"49282","miles_from_dt":14.27},{"city":"Munith","state_name":"Michigan","lat":42.38099,"lng":-84.25763,"zip":"49259","miles_from_dt":15.86},{"city":"Tecumseh","state_name":"Michigan","lat":42.01443,"lng":-83.93447,"zip":"49286","miles_from_dt":16.15},{"city":"Horton","state_name":"Michigan","lat":42.12268,"lng":-84.50366,"zip":"49246","miles_from_dt":16.69},{"city":"Jerome","state_name":"Michigan","lat":42.02275,"lng":-84.45575,"zip":"49249","miles_from_dt":16.88},{"city":"Pleasant Lake","state_name":"Michigan","lat":42.39299,"lng":-84.34974,"zip":"49272","miles_from_dt":18.34},{"city":"Moscow","state_name":"Michigan","lat":42.05108,"lng":-84.50897,"zip":"49257","miles_from_dt":18.35},{"city":"Adrian","state_name":"Michigan","lat":41.90343,"lng":-84.06372,"zip":"49221","miles_from_dt":18.61},{"city":"Ann Arbor","state_name":"Michigan","lat":42.2581,"lng":-83.84333,"zip":"48103","miles_from_dt":18.71},{"city":"Saline","state_name":"Michigan","lat":42.15067,"lng":-83.81477,"zip":"48176","miles_from_dt":18.88},{"city":"Spring Arbor","state_name":"Michigan","lat":42.20486,"lng":-84.55478,"zip":"49283","miles_from_dt":19.39},{"city":"Dexter","state_name":"Michigan","lat":42.3547,"lng":-83.90272,"zip":"48130","miles_from_dt":19.73},{"city":"North Adams","state_name":"Michigan","lat":41.96162,"lng":-84.4673,"zip":"49262","miles_from_dt":19.97},{"city":"Clayton","state_name":"Michigan","lat":41.86348,"lng":-84.21348,"zip":"49235","miles_from_dt":20.4},{"city":"Jackson","state_name":"Michigan","lat":42.33007,"lng":-84.51521,"zip":"49204","miles_from_dt":20.79},{"city":"Stockbridge","state_name":"Michigan","lat":42.46855,"lng":-84.20752,"zip":"49285","miles_from_dt":21.46},{"city":"Rives Junction","state_name":"Michigan","lat":42.38871,"lng":-84.46679,"zip":"49277","miles_from_dt":21.59},{"city":"Britton","state_name":"Michigan","lat":41.99005,"lng":-83.82655,"zip":"49229","miles_from_dt":21.66},{"city":"Gregory","state_name":"Michigan","lat":42.46191,"lng":-84.07367,"zip":"48137","miles_from_dt":21.69},{"city":"Hanover","state_name":"Michigan","lat":42.10121,"lng":-84.60149,"zip":"49241","miles_from_dt":21.89},{"city":"Parma","state_name":"Michigan","lat":42.29307,"lng":-84.586,"zip":"49269","miles_from_dt":22.71},{"city":"Hudson","state_name":"Michigan","lat":41.84712,"lng":-84.34189,"zip":"49247","miles_from_dt":22.99},{"city":"Ann Arbor","state_name":"Michigan","lat":42.22795,"lng":-83.73885,"zip":"48106","miles_from_dt":23.26},{"city":"Ann Arbor","state_name":"Michigan","lat":42.22206,"lng":-83.7317,"zip":"48108","miles_from_dt":23.54},{"city":"Palmyra","state_name":"Michigan","lat":41.87156,"lng":-83.92565,"zip":"49268","miles_from_dt":23.78},{"city":"Concord","state_name":"Michigan","lat":42.1731,"lng":-84.64906,"zip":"49237","miles_from_dt":23.99},{"city":"Leslie","state_name":"Michigan","lat":42.46561,"lng":-84.40916,"zip":"49251","miles_from_dt":24.2},{"city":"Pinckney","state_name":"Michigan","lat":42.46348,"lng":-83.94955,"zip":"48169","miles_from_dt":24.21},{"city":"Ann Arbor","state_name":"Michigan","lat":42.27423,"lng":-83.73095,"zip":"48113","miles_from_dt":24.5},{"city":"Jonesville","state_name":"Michigan","lat":42.01875,"lng":-84.62168,"zip":"49250","miles_from_dt":24.55},{"city":"Ann Arbor","state_name":"Michigan","lat":42.26343,"lng":-83.71748,"zip":"48104","miles_from_dt":24.93},{"city":"Ann Arbor","state_name":"Michigan","lat":42.28408,"lng":-83.72531,"zip":"48109","miles_from_dt":25},{"city":"Mosherville","state_name":"Michigan","lat":42.06,"lng":-84.65833,"zip":"49258","miles_from_dt":25.39},{"city":"Pittsford","state_name":"Michigan","lat":41.83813,"lng":-84.45382,"zip":"49271","miles_from_dt":26.14},{"city":"Milan","state_name":"Michigan","lat":42.08256,"lng":-83.67978,"zip":"48160","miles_from_dt":26.34},{"city":"Sand Creek","state_name":"Michigan","lat":41.77965,"lng":-84.10409,"zip":"49279","miles_from_dt":26.43},{"city":"Ann Arbor","state_name":"Michigan","lat":42.25641,"lng":-83.68054,"zip":"48107","miles_from_dt":26.62},{"city":"Deerfield","state_name":"Michigan","lat":41.90593,"lng":-83.78809,"zip":"49238","miles_from_dt":26.73},{"city":"Whitmore Lake","state_name":"Michigan","lat":42.41137,"lng":-83.78306,"zip":"48189","miles_from_dt":26.91},{"city":"Lakeland","state_name":"Michigan","lat":42.45877,"lng":-83.84701,"zip":"48143","miles_from_dt":26.93},{"city":"Weston","state_name":"Michigan","lat":41.77144,"lng":-84.10702,"zip":"49289","miles_from_dt":26.97},{"city":"Onondaga","state_name":"Michigan","lat":42.44118,"lng":-84.55122,"zip":"49264","miles_from_dt":27.18},{"city":"Ann Arbor","state_name":"Michigan","lat":42.33117,"lng":-83.70587,"zip":"48105","miles_from_dt":27.19},{"city":"Dansville","state_name":"Michigan","lat":42.54721,"lng":-84.28521,"zip":"48819","miles_from_dt":27.36},{"city":"Hamburg","state_name":"Michigan","lat":42.45298,"lng":-83.80796,"zip":"48139","miles_from_dt":27.96},{"city":"Azalia","state_name":"Michigan","lat":42.01547,"lng":-83.66884,"zip":"48110","miles_from_dt":28.17},{"city":"Morenci","state_name":"Michigan","lat":41.74989,"lng":-84.22122,"zip":"49256","miles_from_dt":28.25},{"city":"Ypsilanti","state_name":"Michigan","lat":42.1973,"lng":-83.62903,"zip":"48197","miles_from_dt":28.53},{"city":"Osseo","state_name":"Michigan","lat":41.84247,"lng":-84.54641,"zip":"49266","miles_from_dt":28.74},{"city":"Blissfield","state_name":"Michigan","lat":41.8039,"lng":-83.88247,"zip":"49228","miles_from_dt":28.92},{"city":"Jasper","state_name":"Michigan","lat":41.75651,"lng":-84.01137,"zip":"49248","miles_from_dt":29.09},{"city":"Hillsdale","state_name":"Michigan","lat":41.88434,"lng":-84.61581,"zip":"49242","miles_from_dt":29.24},{"city":"Dundee","state_name":"Michigan","lat":41.96553,"lng":-83.67268,"zip":"48131","miles_from_dt":29.39},{"city":"Whittaker","state_name":"Michigan","lat":42.13162,"lng":-83.60327,"zip":"48190","miles_from_dt":29.8}],"targetCityZipCode":"49263","targetCityState":"Michigan"},"__N_SSG":true}