{"pageProps":{"stateName":"Michigan","cityName":"otter-lake","nearbyCities":[{"city":"Fostoria","state_name":"Michigan","lat":43.24863,"lng":-83.3598,"zip":"48435","miles_from_dt":3.75},{"city":"Columbiaville","state_name":"Michigan","lat":43.15321,"lng":-83.39262,"zip":"48421","miles_from_dt":4.51},{"city":"Otisville","state_name":"Michigan","lat":43.16418,"lng":-83.52202,"zip":"48463","miles_from_dt":6.31},{"city":"Millington","state_name":"Michigan","lat":43.26397,"lng":-83.54155,"zip":"48746","miles_from_dt":7.04},{"city":"Mayville","state_name":"Michigan","lat":43.34797,"lng":-83.36051,"zip":"48744","miles_from_dt":9.6},{"city":"North Branch","state_name":"Michigan","lat":43.2024,"lng":-83.20669,"zip":"48461","miles_from_dt":10.75},{"city":"Silverwood","state_name":"Michigan","lat":43.32095,"lng":-83.25595,"zip":"48760","miles_from_dt":10.97},{"city":"Lapeer","state_name":"Michigan","lat":43.05259,"lng":-83.33745,"zip":"48446","miles_from_dt":11.98},{"city":"Genesee","state_name":"Michigan","lat":43.11248,"lng":-83.61893,"zip":"48437","miles_from_dt":12.37},{"city":"Davison","state_name":"Michigan","lat":43.03982,"lng":-83.51404,"zip":"48423","miles_from_dt":13.06},{"city":"Vassar","state_name":"Michigan","lat":43.37077,"lng":-83.57661,"zip":"48768","miles_from_dt":13.34},{"city":"Clifford","state_name":"Michigan","lat":43.30695,"lng":-83.17935,"zip":"48727","miles_from_dt":13.63},{"city":"Flint","state_name":"Michigan","lat":43.06775,"lng":-83.62253,"zip":"48506","miles_from_dt":14.5},{"city":"Flint","state_name":"Michigan","lat":43.06486,"lng":-83.62639,"zip":"48556","miles_from_dt":14.78},{"city":"Mount Morris","state_name":"Michigan","lat":43.1209,"lng":-83.68308,"zip":"48458","miles_from_dt":14.87},{"city":"Clio","state_name":"Michigan","lat":43.17968,"lng":-83.71176,"zip":"48420","miles_from_dt":15},{"city":"Burton","state_name":"Michigan","lat":43.02635,"lng":-83.60527,"zip":"48509","miles_from_dt":16.11},{"city":"Attica","state_name":"Michigan","lat":43.06484,"lng":-83.16932,"zip":"48412","miles_from_dt":16.35},{"city":"Flint","state_name":"Michigan","lat":43.06948,"lng":-83.69079,"zip":"48505","miles_from_dt":17.05},{"city":"Flint","state_name":"Michigan","lat":43.06574,"lng":-83.6881,"zip":"48550","miles_from_dt":17.1},{"city":"Kingston","state_name":"Michigan","lat":43.40487,"lng":-83.18121,"zip":"48741","miles_from_dt":17.73},{"city":"Hadley","state_name":"Michigan","lat":42.95567,"lng":-83.40785,"zip":"48440","miles_from_dt":17.95},{"city":"Frankenmuth","state_name":"Michigan","lat":43.33156,"lng":-83.74178,"zip":"48787","miles_from_dt":18.15},{"city":"Burton","state_name":"Michigan","lat":42.98772,"lng":-83.60701,"zip":"48519","miles_from_dt":18.39},{"city":"Richville","state_name":"Michigan","lat":43.40661,"lng":-83.67325,"zip":"48758","miles_from_dt":18.39},{"city":"Caro","state_name":"Michigan","lat":43.4861,"lng":-83.38499,"zip":"48723","miles_from_dt":18.75},{"city":"Frankenmuth","state_name":"Michigan","lat":43.35519,"lng":-83.74321,"zip":"48734","miles_from_dt":18.99},{"city":"Flint","state_name":"Michigan","lat":43.01429,"lng":-83.68866,"zip":"48502","miles_from_dt":19.48},{"city":"Flint","state_name":"Michigan","lat":43.01139,"lng":-83.68901,"zip":"48503","miles_from_dt":19.63},{"city":"Flint","state_name":"Michigan","lat":43.05912,"lng":-83.74424,"zip":"48555","miles_from_dt":19.68},{"city":"Birch Run","state_name":"Michigan","lat":43.27165,"lng":-83.80111,"zip":"48415","miles_from_dt":19.68},{"city":"Flint","state_name":"Michigan","lat":43.05632,"lng":-83.74948,"zip":"48504","miles_from_dt":20.01},{"city":"Metamora","state_name":"Michigan","lat":42.94028,"lng":-83.29131,"zip":"48455","miles_from_dt":20.07},{"city":"Flint","state_name":"Michigan","lat":43.05508,"lng":-83.75037,"zip":"48531","miles_from_dt":20.09},{"city":"Atlas","state_name":"Michigan","lat":42.93577,"lng":-83.53202,"zip":"48411","miles_from_dt":20.15},{"city":"Flint","state_name":"Michigan","lat":42.98712,"lng":-83.6793,"zip":"48557","miles_from_dt":20.55},{"city":"Burton","state_name":"Michigan","lat":42.97237,"lng":-83.66221,"zip":"48529","miles_from_dt":20.82},{"city":"Imlay City","state_name":"Michigan","lat":43.06455,"lng":-83.05471,"zip":"48444","miles_from_dt":21.16},{"city":"Goodrich","state_name":"Michigan","lat":42.91142,"lng":-83.47819,"zip":"48438","miles_from_dt":21.21},{"city":"Marlette","state_name":"Michigan","lat":43.34374,"lng":-83.03493,"zip":"48453","miles_from_dt":21.29},{"city":"Flint","state_name":"Michigan","lat":42.99091,"lng":-83.71141,"zip":"48552","miles_from_dt":21.44},{"city":"Flint","state_name":"Michigan","lat":42.98726,"lng":-83.71196,"zip":"48551","miles_from_dt":21.64},{"city":"Reese","state_name":"Michigan","lat":43.46748,"lng":-83.679,"zip":"48757","miles_from_dt":21.77},{"city":"Brown City","state_name":"Michigan","lat":43.21791,"lng":-82.98476,"zip":"48416","miles_from_dt":21.92},{"city":"Flint","state_name":"Michigan","lat":42.97433,"lng":-83.71617,"zip":"48553","miles_from_dt":22.44},{"city":"Grand Blanc","state_name":"Michigan","lat":42.92595,"lng":-83.6348,"zip":"48480","miles_from_dt":22.79},{"city":"Deford","state_name":"Michigan","lat":43.49621,"lng":-83.17828,"zip":"48729","miles_from_dt":22.85},{"city":"Flint","state_name":"Michigan","lat":42.96498,"lng":-83.71687,"zip":"48507","miles_from_dt":22.95},{"city":"Bridgeport","state_name":"Michigan","lat":43.34554,"lng":-83.83961,"zip":"48722","miles_from_dt":23.04},{"city":"Grand Blanc","state_name":"Michigan","lat":42.91733,"lng":-83.63018,"zip":"48439","miles_from_dt":23.2},{"city":"Fairgrove","state_name":"Michigan","lat":43.53306,"lng":-83.59029,"zip":"48733","miles_from_dt":23.55},{"city":"Dryden","state_name":"Michigan","lat":42.93752,"lng":-83.14756,"zip":"48428","miles_from_dt":23.6},{"city":"Flint","state_name":"Michigan","lat":43.01203,"lng":-83.79429,"zip":"48532","miles_from_dt":23.62},{"city":"Montrose","state_name":"Michigan","lat":43.19018,"lng":-83.89306,"zip":"48457","miles_from_dt":24.01},{"city":"Flushing","state_name":"Michigan","lat":43.07632,"lng":-83.8661,"zip":"48433","miles_from_dt":24.57},{"city":"Flint","state_name":"Michigan","lat":42.96617,"lng":-83.77784,"zip":"48501","miles_from_dt":25.03},{"city":"Ortonville","state_name":"Michigan","lat":42.84733,"lng":-83.42576,"zip":"48462","miles_from_dt":25.43},{"city":"Burt","state_name":"Michigan","lat":43.25998,"lng":-83.93686,"zip":"48417","miles_from_dt":26.32},{"city":"Oxford","state_name":"Michigan","lat":42.84544,"lng":-83.28785,"zip":"48371","miles_from_dt":26.4},{"city":"Akron","state_name":"Michigan","lat":43.5879,"lng":-83.54649,"zip":"48701","miles_from_dt":26.49},{"city":"Decker","state_name":"Michigan","lat":43.50856,"lng":-83.06025,"zip":"48426","miles_from_dt":27.11},{"city":"Saginaw","state_name":"Michigan","lat":43.40096,"lng":-83.8952,"zip":"48601","miles_from_dt":27.21},{"city":"Munger","state_name":"Michigan","lat":43.52119,"lng":-83.76085,"zip":"48747","miles_from_dt":27.23},{"city":"Almont","state_name":"Michigan","lat":42.93228,"lng":-83.04088,"zip":"48003","miles_from_dt":27.36},{"city":"Capac","state_name":"Michigan","lat":43.02466,"lng":-82.93115,"zip":"48014","miles_from_dt":27.96},{"city":"Swartz Creek","state_name":"Michigan","lat":42.94012,"lng":-83.8274,"zip":"48473","miles_from_dt":28.09},{"city":"Flint","state_name":"Michigan","lat":42.93686,"lng":-83.82382,"zip":"48554","miles_from_dt":28.11},{"city":"Oxford","state_name":"Michigan","lat":42.83797,"lng":-83.19981,"zip":"48370","miles_from_dt":28.33},{"city":"New Lothrop","state_name":"Michigan","lat":43.12734,"lng":-83.98586,"zip":"48460","miles_from_dt":29.29},{"city":"Leonard","state_name":"Michigan","lat":42.84282,"lng":-83.14143,"zip":"48367","miles_from_dt":29.32},{"city":"Unionville","state_name":"Michigan","lat":43.64172,"lng":-83.45541,"zip":"48767","miles_from_dt":29.47},{"city":"Cass City","state_name":"Michigan","lat":43.60776,"lng":-83.16833,"zip":"48726","miles_from_dt":29.86},{"city":"Saginaw","state_name":"Michigan","lat":43.43136,"lng":-83.93409,"zip":"48607","miles_from_dt":29.94}],"targetCityZipCode":"48464","targetCityState":"Michigan"},"__N_SSG":true}