{"pageProps":{"stateName":"Michigan","cityName":"pelkie","nearbyCities":[{"city":"Baraga","state_name":"Michigan","lat":46.75276,"lng":-88.57034,"zip":"49908","miles_from_dt":6.67},{"city":"Nisula","state_name":"Michigan","lat":46.68309,"lng":-88.78408,"zip":"49952","miles_from_dt":10.55},{"city":"Chassell","state_name":"Michigan","lat":46.97891,"lng":-88.59519,"zip":"49916","miles_from_dt":11.85},{"city":"Toivola","state_name":"Michigan","lat":46.94752,"lng":-88.85878,"zip":"49965","miles_from_dt":12.53},{"city":"Painesdale","state_name":"Michigan","lat":47.00788,"lng":-88.69373,"zip":"49955","miles_from_dt":13.25},{"city":"Mass City","state_name":"Michigan","lat":46.74567,"lng":-88.99919,"zip":"49948","miles_from_dt":16.1},{"city":"South Range","state_name":"Michigan","lat":47.04897,"lng":-88.64002,"zip":"49963","miles_from_dt":16.15},{"city":"Lanse","state_name":"Michigan","lat":46.7189,"lng":-88.33725,"zip":"49946","miles_from_dt":17.43},{"city":"Dodgeville","state_name":"Michigan","lat":47.09084,"lng":-88.5818,"zip":"49921","miles_from_dt":19.47},{"city":"Watton","state_name":"Michigan","lat":46.53555,"lng":-88.59783,"zip":"49970","miles_from_dt":19.76},{"city":"Greenland","state_name":"Michigan","lat":46.79874,"lng":-89.09567,"zip":"49929","miles_from_dt":19.94},{"city":"Atlantic Mine","state_name":"Michigan","lat":47.10694,"lng":-88.71395,"zip":"49905","miles_from_dt":20.14},{"city":"Sidnaw","state_name":"Michigan","lat":46.50667,"lng":-88.74358,"zip":"49961","miles_from_dt":21.64},{"city":"Houghton","state_name":"Michigan","lat":47.13652,"lng":-88.6063,"zip":"49931","miles_from_dt":22.35},{"city":"Dollar Bay","state_name":"Michigan","lat":47.12369,"lng":-88.49522,"zip":"49922","miles_from_dt":22.88},{"city":"Covington","state_name":"Michigan","lat":46.50995,"lng":-88.43518,"zip":"49919","miles_from_dt":24.07},{"city":"Hancock","state_name":"Michigan","lat":47.15577,"lng":-88.53542,"zip":"49930","miles_from_dt":24.36},{"city":"Skanee","state_name":"Michigan","lat":46.82142,"lng":-88.1409,"zip":"49962","miles_from_dt":25.37},{"city":"Trout Creek","state_name":"Michigan","lat":46.49377,"lng":-88.95551,"zip":"49967","miles_from_dt":25.96},{"city":"Hubbell","state_name":"Michigan","lat":47.16539,"lng":-88.43967,"zip":"49934","miles_from_dt":26.56},{"city":"Rockland","state_name":"Michigan","lat":46.71139,"lng":-89.25085,"zip":"49960","miles_from_dt":28.24},{"city":"Michigamme","state_name":"Michigan","lat":46.57639,"lng":-88.16043,"zip":"49861","miles_from_dt":29.59},{"city":"Lake Linden","state_name":"Michigan","lat":47.16956,"lng":-88.30752,"zip":"49945","miles_from_dt":29.97}],"targetCityZipCode":"49958","targetCityState":"Michigan"},"__N_SSG":true}