{"pageProps":{"stateName":"Michigan","cityName":"ralph","nearbyCities":[{"city":"Felch","state_name":"Michigan","lat":46.05777,"lng":-87.7356,"zip":"49831","miles_from_dt":6.83},{"city":"Channing","state_name":"Michigan","lat":46.18465,"lng":-87.95967,"zip":"49815","miles_from_dt":10.6},{"city":"Foster City","state_name":"Michigan","lat":45.96829,"lng":-87.70292,"zip":"49834","miles_from_dt":13.14},{"city":"Arnold","state_name":"Michigan","lat":46.04989,"lng":-87.49297,"zip":"49819","miles_from_dt":14.07},{"city":"Gwinn","state_name":"Michigan","lat":46.27145,"lng":-87.49873,"zip":"49841","miles_from_dt":14.13},{"city":"Sagola","state_name":"Michigan","lat":46.07852,"lng":-88.03259,"zip":"49881","miles_from_dt":14.94},{"city":"Ishpeming","state_name":"Michigan","lat":46.423,"lng":-87.76797,"zip":"49849","miles_from_dt":18.45},{"city":"Republic","state_name":"Michigan","lat":46.3437,"lng":-88.08432,"zip":"49879","miles_from_dt":20.87},{"city":"Norway","state_name":"Michigan","lat":45.87315,"lng":-87.89964,"zip":"49870","miles_from_dt":20.98},{"city":"National Mine","state_name":"Michigan","lat":46.45768,"lng":-87.68183,"zip":"49865","miles_from_dt":21},{"city":"Palmer","state_name":"Michigan","lat":46.42433,"lng":-87.53282,"zip":"49871","miles_from_dt":21.05},{"city":"Iron Mountain","state_name":"Michigan","lat":45.9191,"lng":-88.01795,"zip":"49801","miles_from_dt":21.08},{"city":"Perronville","state_name":"Michigan","lat":45.876,"lng":-87.51824,"zip":"49873","miles_from_dt":22.18},{"city":"Cornell","state_name":"Michigan","lat":45.98223,"lng":-87.34745,"zip":"49818","miles_from_dt":22.48},{"city":"Little Lake","state_name":"Michigan","lat":46.27504,"lng":-87.29142,"zip":"49833","miles_from_dt":23.13},{"city":"Rock","state_name":"Michigan","lat":46.11693,"lng":-87.22515,"zip":"49880","miles_from_dt":24.99},{"city":"Loretto","state_name":"Michigan","lat":45.78399,"lng":-87.81807,"zip":"49852","miles_from_dt":25.98},{"city":"Vulcan","state_name":"Michigan","lat":45.77547,"lng":-87.77243,"zip":"49892","miles_from_dt":26.36},{"city":"Crystal Falls","state_name":"Michigan","lat":46.14087,"lng":-88.30079,"zip":"49920","miles_from_dt":26.82},{"city":"Quinnesec","state_name":"Michigan","lat":45.80211,"lng":-87.97729,"zip":"49876","miles_from_dt":26.96},{"city":"Negaunee","state_name":"Michigan","lat":46.54989,"lng":-87.66246,"zip":"49866","miles_from_dt":27.44},{"city":"Champion","state_name":"Michigan","lat":46.54459,"lng":-87.94395,"zip":"49814","miles_from_dt":28.48},{"city":"Kingsford","state_name":"Michigan","lat":45.80053,"lng":-88.07718,"zip":"49802","miles_from_dt":29.4},{"city":"Skandia","state_name":"Michigan","lat":46.34658,"lng":-87.19238,"zip":"49885","miles_from_dt":29.45}],"targetCityZipCode":"49877","targetCityState":"Michigan"},"__N_SSG":true}