{"pageProps":{"stateName":"Michigan","cityName":"rives-junction","nearbyCities":[{"city":"Jackson","state_name":"Michigan","lat":42.33007,"lng":-84.51521,"zip":"49204","miles_from_dt":4.75},{"city":"Onondaga","state_name":"Michigan","lat":42.44118,"lng":-84.55122,"zip":"49264","miles_from_dt":5.64},{"city":"Pleasant Lake","state_name":"Michigan","lat":42.39299,"lng":-84.34974,"zip":"49272","miles_from_dt":6},{"city":"Leslie","state_name":"Michigan","lat":42.46561,"lng":-84.40916,"zip":"49251","miles_from_dt":6.07},{"city":"Jackson","state_name":"Michigan","lat":42.26737,"lng":-84.4107,"zip":"49202","miles_from_dt":8.85},{"city":"Parma","state_name":"Michigan","lat":42.29307,"lng":-84.586,"zip":"49269","miles_from_dt":8.99},{"city":"Jackson","state_name":"Michigan","lat":42.25213,"lng":-84.38301,"zip":"49201","miles_from_dt":10.36},{"city":"Munith","state_name":"Michigan","lat":42.38099,"lng":-84.25763,"zip":"49259","miles_from_dt":10.72},{"city":"Springport","state_name":"Michigan","lat":42.38507,"lng":-84.69128,"zip":"49284","miles_from_dt":11.49},{"city":"Jackson","state_name":"Michigan","lat":42.22096,"lng":-84.40347,"zip":"49203","miles_from_dt":12.02},{"city":"Eaton Rapids","state_name":"Michigan","lat":42.509,"lng":-84.65971,"zip":"48827","miles_from_dt":12.89},{"city":"Mason","state_name":"Michigan","lat":42.58199,"lng":-84.45182,"zip":"48854","miles_from_dt":13.36},{"city":"Michigan Center","state_name":"Michigan","lat":42.2268,"lng":-84.32165,"zip":"49254","miles_from_dt":13.42},{"city":"Spring Arbor","state_name":"Michigan","lat":42.20486,"lng":-84.55478,"zip":"49283","miles_from_dt":13.47},{"city":"Dansville","state_name":"Michigan","lat":42.54721,"lng":-84.28521,"zip":"48819","miles_from_dt":14.35},{"city":"Stockbridge","state_name":"Michigan","lat":42.46855,"lng":-84.20752,"zip":"49285","miles_from_dt":14.36},{"city":"Albion","state_name":"Michigan","lat":42.27982,"lng":-84.74852,"zip":"49224","miles_from_dt":16.27},{"city":"Grass Lake","state_name":"Michigan","lat":42.27821,"lng":-84.18027,"zip":"49240","miles_from_dt":16.54},{"city":"Holt","state_name":"Michigan","lat":42.63469,"lng":-84.53931,"zip":"48842","miles_from_dt":17.38},{"city":"Concord","state_name":"Michigan","lat":42.1731,"lng":-84.64906,"zip":"49237","miles_from_dt":17.57},{"city":"Horton","state_name":"Michigan","lat":42.12268,"lng":-84.50366,"zip":"49246","miles_from_dt":18.46},{"city":"Clarklake","state_name":"Michigan","lat":42.12114,"lng":-84.3673,"zip":"49234","miles_from_dt":19.16},{"city":"Napoleon","state_name":"Michigan","lat":42.16174,"lng":-84.2472,"zip":"49261","miles_from_dt":19.29},{"city":"Dimondale","state_name":"Michigan","lat":42.63873,"lng":-84.64958,"zip":"48821","miles_from_dt":19.62},{"city":"Lansing","state_name":"Michigan","lat":42.67108,"lng":-84.57349,"zip":"48916","miles_from_dt":20.24},{"city":"Lansing","state_name":"Michigan","lat":42.67351,"lng":-84.57285,"zip":"48911","miles_from_dt":20.39},{"city":"Gregory","state_name":"Michigan","lat":42.46191,"lng":-84.07367,"zip":"48137","miles_from_dt":20.73},{"city":"Hanover","state_name":"Michigan","lat":42.10121,"lng":-84.60149,"zip":"49241","miles_from_dt":21.01},{"city":"Lansing","state_name":"Michigan","lat":42.6969,"lng":-84.52541,"zip":"48910","miles_from_dt":21.48},{"city":"Norvell","state_name":"Michigan","lat":42.15817,"lng":-84.18225,"zip":"49263","miles_from_dt":21.59},{"city":"Olivet","state_name":"Michigan","lat":42.4309,"lng":-84.88657,"zip":"49076","miles_from_dt":21.67},{"city":"Lansing","state_name":"Michigan","lat":42.6997,"lng":-84.52709,"zip":"48924","miles_from_dt":21.69},{"city":"Okemos","state_name":"Michigan","lat":42.70215,"lng":-84.40902,"zip":"48864","miles_from_dt":21.83},{"city":"Okemos","state_name":"Michigan","lat":42.70751,"lng":-84.41501,"zip":"48805","miles_from_dt":22.16},{"city":"Lansing","state_name":"Michigan","lat":42.67182,"lng":-84.67547,"zip":"48980","miles_from_dt":22.26},{"city":"Lansing","state_name":"Michigan","lat":42.67749,"lng":-84.66585,"zip":"48913","miles_from_dt":22.37},{"city":"Lansing","state_name":"Michigan","lat":42.67483,"lng":-84.67844,"zip":"48918","miles_from_dt":22.51},{"city":"Potterville","state_name":"Michigan","lat":42.64757,"lng":-84.73631,"zip":"48876","miles_from_dt":22.55},{"city":"Chelsea","state_name":"Michigan","lat":42.31151,"lng":-84.03835,"zip":"48118","miles_from_dt":22.57},{"city":"Webberville","state_name":"Michigan","lat":42.63662,"lng":-84.17477,"zip":"48892","miles_from_dt":22.7},{"city":"Williamston","state_name":"Michigan","lat":42.68946,"lng":-84.28061,"zip":"48895","miles_from_dt":22.83},{"city":"East Lansing","state_name":"Michigan","lat":42.72129,"lng":-84.47607,"zip":"48824","miles_from_dt":22.96},{"city":"Cement City","state_name":"Michigan","lat":42.0644,"lng":-84.36512,"zip":"49233","miles_from_dt":22.98},{"city":"Charlotte","state_name":"Michigan","lat":42.57862,"lng":-84.84524,"zip":"48813","miles_from_dt":23.36},{"city":"Moscow","state_name":"Michigan","lat":42.05108,"lng":-84.50897,"zip":"49257","miles_from_dt":23.4},{"city":"East Lansing","state_name":"Michigan","lat":42.72844,"lng":-84.48067,"zip":"48825","miles_from_dt":23.46},{"city":"Somerset","state_name":"Michigan","lat":42.05193,"lng":-84.38291,"zip":"49281","miles_from_dt":23.64},{"city":"Brooklyn","state_name":"Michigan","lat":42.09701,"lng":-84.22266,"zip":"49230","miles_from_dt":23.71},{"city":"Lansing","state_name":"Michigan","lat":42.72956,"lng":-84.55595,"zip":"48933","miles_from_dt":23.96},{"city":"Lansing","state_name":"Michigan","lat":42.73068,"lng":-84.5529,"zip":"48919","miles_from_dt":24.01},{"city":"Lansing","state_name":"Michigan","lat":42.73,"lng":-84.56219,"zip":"48951","miles_from_dt":24.06},{"city":"Lansing","state_name":"Michigan","lat":42.73231,"lng":-84.55326,"zip":"48901","miles_from_dt":24.12},{"city":"Lansing","state_name":"Michigan","lat":42.73335,"lng":-84.54958,"zip":"48909","miles_from_dt":24.16},{"city":"Lansing","state_name":"Michigan","lat":42.73481,"lng":-84.55669,"zip":"48956","miles_from_dt":24.33},{"city":"Lansing","state_name":"Michigan","lat":42.73486,"lng":-84.55688,"zip":"48929","miles_from_dt":24.33},{"city":"Lansing","state_name":"Michigan","lat":42.73896,"lng":-84.52319,"zip":"48912","miles_from_dt":24.35},{"city":"Lansing","state_name":"Michigan","lat":42.73493,"lng":-84.55937,"zip":"48930","miles_from_dt":24.36},{"city":"Lansing","state_name":"Michigan","lat":42.73507,"lng":-84.55812,"zip":"48922","miles_from_dt":24.36},{"city":"East Lansing","state_name":"Michigan","lat":42.74419,"lng":-84.4841,"zip":"48826","miles_from_dt":24.55},{"city":"Somerset Center","state_name":"Michigan","lat":42.03496,"lng":-84.40518,"zip":"49282","miles_from_dt":24.62},{"city":"Mosherville","state_name":"Michigan","lat":42.06,"lng":-84.65833,"zip":"49258","miles_from_dt":24.72},{"city":"Lansing","state_name":"Michigan","lat":42.73885,"lng":-84.57076,"zip":"48915","miles_from_dt":24.74},{"city":"Lansing","state_name":"Michigan","lat":42.72509,"lng":-84.63897,"zip":"48917","miles_from_dt":24.83},{"city":"Homer","state_name":"Michigan","lat":42.14085,"lng":-84.81797,"zip":"49245","miles_from_dt":24.84},{"city":"Jerome","state_name":"Michigan","lat":42.02275,"lng":-84.45575,"zip":"49249","miles_from_dt":25.26},{"city":"Lansing","state_name":"Michigan","lat":42.73105,"lng":-84.64587,"zip":"48908","miles_from_dt":25.34},{"city":"Marshall","state_name":"Michigan","lat":42.2765,"lng":-84.94063,"zip":"49068","miles_from_dt":25.47},{"city":"East Lansing","state_name":"Michigan","lat":42.76225,"lng":-84.45407,"zip":"48823","miles_from_dt":25.79},{"city":"Haslett","state_name":"Michigan","lat":42.76685,"lng":-84.37071,"zip":"48840","miles_from_dt":26.56},{"city":"Jonesville","state_name":"Michigan","lat":42.01875,"lng":-84.62168,"zip":"49250","miles_from_dt":26.74},{"city":"Pinckney","state_name":"Michigan","lat":42.46348,"lng":-83.94955,"zip":"48169","miles_from_dt":26.95},{"city":"Manchester","state_name":"Michigan","lat":42.15564,"lng":-84.03031,"zip":"48158","miles_from_dt":27.56},{"city":"Lansing","state_name":"Michigan","lat":42.78329,"lng":-84.5713,"zip":"48937","miles_from_dt":27.75},{"city":"Fowlerville","state_name":"Michigan","lat":42.66899,"lng":-84.07421,"zip":"48836","miles_from_dt":27.86},{"city":"Addison","state_name":"Michigan","lat":41.99511,"lng":-84.34108,"zip":"49220","miles_from_dt":27.92},{"city":"Lansing","state_name":"Michigan","lat":42.78489,"lng":-84.58886,"zip":"48906","miles_from_dt":28.05},{"city":"Litchfield","state_name":"Michigan","lat":42.03853,"lng":-84.76683,"zip":"49252","miles_from_dt":28.66},{"city":"Dexter","state_name":"Michigan","lat":42.3547,"lng":-83.90272,"zip":"48130","miles_from_dt":28.96},{"city":"Grand Ledge","state_name":"Michigan","lat":42.7453,"lng":-84.76701,"zip":"48837","miles_from_dt":28.99},{"city":"North Adams","state_name":"Michigan","lat":41.96162,"lng":-84.4673,"zip":"49262","miles_from_dt":29.48}],"targetCityZipCode":"49277","targetCityState":"Michigan"},"__N_SSG":true}