{"pageProps":{"stateName":"Michigan","cityName":"rudyard","nearbyCities":[{"city":"Kincheloe","state_name":"Michigan","lat":46.26667,"lng":-84.48333,"zip":"49786","miles_from_dt":10.47},{"city":"Kincheloe","state_name":"Michigan","lat":46.26418,"lng":-84.46779,"zip":"49788","miles_from_dt":11.1},{"city":"Kincheloe","state_name":"Michigan","lat":46.2577,"lng":-84.45483,"zip":"49784","miles_from_dt":11.55},{"city":"Kinross","state_name":"Michigan","lat":46.27629,"lng":-84.46091,"zip":"49752","miles_from_dt":11.72},{"city":"Kincheloe","state_name":"Michigan","lat":46.26458,"lng":-84.44927,"zip":"49785","miles_from_dt":11.95},{"city":"Brimley","state_name":"Michigan","lat":46.3923,"lng":-84.69493,"zip":"49715","miles_from_dt":12.66},{"city":"Hessel","state_name":"Michigan","lat":46.05065,"lng":-84.519,"zip":"49745","miles_from_dt":13.55},{"city":"Moran","state_name":"Michigan","lat":46.05715,"lng":-84.88881,"zip":"49760","miles_from_dt":14.34},{"city":"Dafter","state_name":"Michigan","lat":46.32744,"lng":-84.3884,"zip":"49724","miles_from_dt":16.41},{"city":"Pickford","state_name":"Michigan","lat":46.16081,"lng":-84.33798,"zip":"49774","miles_from_dt":17},{"city":"Trout Lake","state_name":"Michigan","lat":46.21221,"lng":-85.04417,"zip":"49793","miles_from_dt":17.2},{"city":"Saint Ignace","state_name":"Michigan","lat":45.95272,"lng":-84.77652,"zip":"49781","miles_from_dt":18.24},{"city":"Eckerman","state_name":"Michigan","lat":46.3702,"lng":-84.99387,"zip":"49728","miles_from_dt":18.49},{"city":"Cedarville","state_name":"Michigan","lat":46.0073,"lng":-84.29304,"zip":"49719","miles_from_dt":23.44},{"city":"Sault Sainte Marie","state_name":"Michigan","lat":46.41495,"lng":-84.28006,"zip":"49783","miles_from_dt":24.05},{"city":"Mackinac Island","state_name":"Michigan","lat":45.85933,"lng":-84.62533,"zip":"49757","miles_from_dt":24.33},{"city":"Barbeau","state_name":"Michigan","lat":46.27717,"lng":-84.18478,"zip":"49710","miles_from_dt":24.45},{"city":"Hulbert","state_name":"Michigan","lat":46.37491,"lng":-85.18039,"zip":"49748","miles_from_dt":26.32},{"city":"Naubinway","state_name":"Michigan","lat":46.13126,"lng":-85.24115,"zip":"49762","miles_from_dt":27.2},{"city":"Goetzville","state_name":"Michigan","lat":46.07877,"lng":-84.14573,"zip":"49736","miles_from_dt":27.43}],"targetCityZipCode":"49780","targetCityState":"Michigan"},"__N_SSG":true}