{"pageProps":{"stateName":"Michigan","cityName":"tekonsha","nearbyCities":[{"city":"Burlington","state_name":"Michigan","lat":42.1423,"lng":-85.09107,"zip":"49029","miles_from_dt":6.77},{"city":"Union City","state_name":"Michigan","lat":42.04696,"lng":-85.11752,"zip":"49094","miles_from_dt":8.21},{"city":"Homer","state_name":"Michigan","lat":42.14085,"lng":-84.81797,"zip":"49245","miles_from_dt":8.51},{"city":"Ceresco","state_name":"Michigan","lat":42.22654,"lng":-85.09193,"zip":"49033","miles_from_dt":10.75},{"city":"Litchfield","state_name":"Michigan","lat":42.03853,"lng":-84.76683,"zip":"49252","miles_from_dt":11.39},{"city":"Quincy","state_name":"Michigan","lat":41.94257,"lng":-84.876,"zip":"49082","miles_from_dt":11.85},{"city":"Marshall","state_name":"Michigan","lat":42.2765,"lng":-84.94063,"zip":"49068","miles_from_dt":12.42},{"city":"Athens","state_name":"Michigan","lat":42.10288,"lng":-85.22285,"zip":"49011","miles_from_dt":12.83},{"city":"Coldwater","state_name":"Michigan","lat":41.90565,"lng":-85.02391,"zip":"49036","miles_from_dt":13.54},{"city":"Allen","state_name":"Michigan","lat":41.9498,"lng":-84.77036,"zip":"49227","miles_from_dt":14.63},{"city":"East Leroy","state_name":"Michigan","lat":42.18207,"lng":-85.23803,"zip":"49051","miles_from_dt":14.78},{"city":"Sherwood","state_name":"Michigan","lat":42.00181,"lng":-85.23113,"zip":"49089","miles_from_dt":14.84},{"city":"Battle Creek","state_name":"Michigan","lat":42.30996,"lng":-85.10711,"zip":"49014","miles_from_dt":16.15},{"city":"Mosherville","state_name":"Michigan","lat":42.06,"lng":-84.65833,"zip":"49258","miles_from_dt":16.41},{"city":"Albion","state_name":"Michigan","lat":42.27982,"lng":-84.74852,"zip":"49224","miles_from_dt":17.04},{"city":"Concord","state_name":"Michigan","lat":42.1731,"lng":-84.64906,"zip":"49237","miles_from_dt":17.44},{"city":"Battle Creek","state_name":"Michigan","lat":42.30587,"lng":-85.1721,"zip":"49016","miles_from_dt":17.59},{"city":"Fulton","state_name":"Michigan","lat":42.11538,"lng":-85.31936,"zip":"49052","miles_from_dt":17.82},{"city":"Battle Creek","state_name":"Michigan","lat":42.27467,"lng":-85.23115,"zip":"49015","miles_from_dt":17.98},{"city":"Jonesville","state_name":"Michigan","lat":42.01875,"lng":-84.62168,"zip":"49250","miles_from_dt":18.9},{"city":"Hanover","state_name":"Michigan","lat":42.10121,"lng":-84.60149,"zip":"49241","miles_from_dt":19.11},{"city":"Leonidas","state_name":"Michigan","lat":42.03319,"lng":-85.35007,"zip":"49066","miles_from_dt":19.89},{"city":"Colon","state_name":"Michigan","lat":41.96847,"lng":-85.32398,"zip":"49040","miles_from_dt":20.14},{"city":"Bronson","state_name":"Michigan","lat":41.84438,"lng":-85.1837,"zip":"49028","miles_from_dt":20.6},{"city":"Climax","state_name":"Michigan","lat":42.23178,"lng":-85.33403,"zip":"49034","miles_from_dt":20.69},{"city":"Reading","state_name":"Michigan","lat":41.83689,"lng":-84.76419,"zip":"49274","miles_from_dt":21.01},{"city":"Battle Creek","state_name":"Michigan","lat":42.33448,"lng":-85.24706,"zip":"49037","miles_from_dt":21.52},{"city":"Spring Arbor","state_name":"Michigan","lat":42.20486,"lng":-84.55478,"zip":"49283","miles_from_dt":22.72},{"city":"Montgomery","state_name":"Michigan","lat":41.77152,"lng":-84.85499,"zip":"49255","miles_from_dt":23.36},{"city":"Olivet","state_name":"Michigan","lat":42.4309,"lng":-84.88657,"zip":"49076","miles_from_dt":23.39},{"city":"Hillsdale","state_name":"Michigan","lat":41.88434,"lng":-84.61581,"zip":"49242","miles_from_dt":23.6},{"city":"Scotts","state_name":"Michigan","lat":42.18602,"lng":-85.42503,"zip":"49088","miles_from_dt":23.98},{"city":"Parma","state_name":"Michigan","lat":42.29307,"lng":-84.586,"zip":"49269","miles_from_dt":24},{"city":"Battle Creek","state_name":"Michigan","lat":42.3979,"lng":-85.2111,"zip":"49017","miles_from_dt":24.01},{"city":"Moscow","state_name":"Michigan","lat":42.05108,"lng":-84.50897,"zip":"49257","miles_from_dt":24.1},{"city":"Horton","state_name":"Michigan","lat":42.12268,"lng":-84.50366,"zip":"49246","miles_from_dt":24.2},{"city":"Battle Creek","state_name":"Michigan","lat":42.39748,"lng":-85.21971,"zip":"49018","miles_from_dt":24.21},{"city":"Bedford","state_name":"Michigan","lat":42.39545,"lng":-85.23307,"zip":"49020","miles_from_dt":24.46},{"city":"Springport","state_name":"Michigan","lat":42.38507,"lng":-84.69128,"zip":"49284","miles_from_dt":24.52},{"city":"Burr Oak","state_name":"Michigan","lat":41.85529,"lng":-85.33129,"zip":"49030","miles_from_dt":24.92},{"city":"Bellevue","state_name":"Michigan","lat":42.4588,"lng":-85.06435,"zip":"49021","miles_from_dt":25.32},{"city":"Augusta","state_name":"Michigan","lat":42.34626,"lng":-85.34116,"zip":"49012","miles_from_dt":25.48},{"city":"Mendon","state_name":"Michigan","lat":42.01295,"lng":-85.45825,"zip":"49072","miles_from_dt":25.63},{"city":"Fremont","state_name":"Indiana","lat":41.72209,"lng":-84.92233,"zip":"46737","miles_from_dt":26.09},{"city":"Galesburg","state_name":"Michigan","lat":42.28877,"lng":-85.41722,"zip":"49053","miles_from_dt":26.31},{"city":"Vicksburg","state_name":"Michigan","lat":42.11491,"lng":-85.48985,"zip":"49097","miles_from_dt":26.57},{"city":"Jerome","state_name":"Michigan","lat":42.02275,"lng":-84.45575,"zip":"49249","miles_from_dt":27.13},{"city":"Orland","state_name":"Indiana","lat":41.72793,"lng":-85.16878,"zip":"46776","miles_from_dt":27.47},{"city":"Nottawa","state_name":"Michigan","lat":41.91783,"lng":-85.44899,"zip":"49075","miles_from_dt":27.47},{"city":"Frontier","state_name":"Michigan","lat":41.79389,"lng":-84.62312,"zip":"49239","miles_from_dt":27.69},{"city":"North Adams","state_name":"Michigan","lat":41.96162,"lng":-84.4673,"zip":"49262","miles_from_dt":27.69},{"city":"Osseo","state_name":"Michigan","lat":41.84247,"lng":-84.54641,"zip":"49266","miles_from_dt":28.2},{"city":"Jackson","state_name":"Michigan","lat":42.33007,"lng":-84.51521,"zip":"49204","miles_from_dt":28.44},{"city":"Camden","state_name":"Michigan","lat":41.74049,"lng":-84.66858,"zip":"49232","miles_from_dt":29.26},{"city":"Kalamazoo","state_name":"Michigan","lat":42.27202,"lng":-85.49893,"zip":"49048","miles_from_dt":29.53},{"city":"Somerset Center","state_name":"Michigan","lat":42.03496,"lng":-84.40518,"zip":"49282","miles_from_dt":29.54}],"targetCityZipCode":"49092","targetCityState":"Michigan"},"__N_SSG":true}