{"pageProps":{"stateName":"Michigan","cityName":"tower","nearbyCities":[{"city":"Onaway","state_name":"Michigan","lat":45.33379,"lng":-84.25229,"zip":"49765","miles_from_dt":3.48},{"city":"Afton","state_name":"Michigan","lat":45.34826,"lng":-84.45824,"zip":"49705","miles_from_dt":7.52},{"city":"Millersburg","state_name":"Michigan","lat":45.40545,"lng":-84.10055,"zip":"49759","miles_from_dt":10.35},{"city":"Indian River","state_name":"Michigan","lat":45.41634,"lng":-84.57891,"zip":"49749","miles_from_dt":13.7},{"city":"Wolverine","state_name":"Michigan","lat":45.26597,"lng":-84.58177,"zip":"49799","miles_from_dt":15.13},{"city":"Cheboygan","state_name":"Michigan","lat":45.57181,"lng":-84.45711,"zip":"49721","miles_from_dt":15.93},{"city":"Topinabee","state_name":"Michigan","lat":45.48093,"lng":-84.59945,"zip":"49791","miles_from_dt":16.29},{"city":"Mullett Lake","state_name":"Michigan","lat":45.56083,"lng":-84.52385,"zip":"49761","miles_from_dt":17.06},{"city":"Vanderbilt","state_name":"Michigan","lat":45.15835,"lng":-84.57563,"zip":"49795","miles_from_dt":19.5},{"city":"Burt Lake","state_name":"Michigan","lat":45.43671,"lng":-84.69796,"zip":"49717","miles_from_dt":19.66},{"city":"Hawks","state_name":"Michigan","lat":45.27124,"lng":-83.89394,"zip":"49743","miles_from_dt":21.14},{"city":"Rogers City","state_name":"Michigan","lat":45.39651,"lng":-83.87153,"zip":"49779","miles_from_dt":21.25},{"city":"Alanson","state_name":"Michigan","lat":45.44129,"lng":-84.77915,"zip":"49706","miles_from_dt":23.58},{"city":"Brutus","state_name":"Michigan","lat":45.50975,"lng":-84.75104,"zip":"49716","miles_from_dt":23.77},{"city":"Atlanta","state_name":"Michigan","lat":45.03102,"lng":-84.17094,"zip":"49709","miles_from_dt":24.12},{"city":"Oden","state_name":"Michigan","lat":45.42356,"lng":-84.82824,"zip":"49764","miles_from_dt":25.7},{"city":"Johannesburg","state_name":"Michigan","lat":44.99496,"lng":-84.41309,"zip":"49751","miles_from_dt":26.22},{"city":"Hillman","state_name":"Michigan","lat":45.06437,"lng":-83.95239,"zip":"49746","miles_from_dt":27.11},{"city":"Conway","state_name":"Michigan","lat":45.42135,"lng":-84.86459,"zip":"49722","miles_from_dt":27.43},{"city":"Petoskey","state_name":"Michigan","lat":45.34396,"lng":-84.88903,"zip":"49770","miles_from_dt":28.42},{"city":"Boyne Falls","state_name":"Michigan","lat":45.21602,"lng":-84.85185,"zip":"49713","miles_from_dt":28.57},{"city":"Pointe Aux Pins","state_name":"Michigan","lat":45.76941,"lng":-84.46333,"zip":"49775","miles_from_dt":28.82},{"city":"Gaylord","state_name":"Michigan","lat":45.02607,"lng":-84.67301,"zip":"49734","miles_from_dt":29.58}],"targetCityZipCode":"49792","targetCityState":"Michigan"},"__N_SSG":true}