{"pageProps":{"stateName":"Idaho","cityName":"bonners-ferry","nearbyCities":[{"city":"Porthill","state_name":"Idaho","lat":48.97657,"lng":-116.47827,"zip":"83853","miles_from_dt":10.01},{"city":"Naples","state_name":"Idaho","lat":48.57699,"lng":-116.43207,"zip":"83847","miles_from_dt":17.84},{"city":"Moyie Springs","state_name":"Idaho","lat":48.74854,"lng":-116.11302,"zip":"83845","miles_from_dt":18.26},{"city":"Eastport","state_name":"Idaho","lat":48.98382,"lng":-116.15188,"zip":"83826","miles_from_dt":18.73},{"city":"Nordman","state_name":"Idaho","lat":48.7067,"lng":-116.92766,"zip":"83848","miles_from_dt":21.68},{"city":"Coolin","state_name":"Idaho","lat":48.59365,"lng":-116.8367,"zip":"83821","miles_from_dt":22.78},{"city":"Sandpoint","state_name":"Idaho","lat":48.43432,"lng":-116.50559,"zip":"83864","miles_from_dt":27.49},{"city":"Colburn","state_name":"Idaho","lat":48.39961,"lng":-116.53755,"zip":"83865","miles_from_dt":29.95}],"targetCityZipCode":"83805","targetCityState":"Idaho"},"__N_SSG":true}