{"pageProps":{"stateName":"Idaho","cityName":"clifton","nearbyCities":[{"city":"Dayton","state_name":"Idaho","lat":42.13341,"lng":-111.97245,"zip":"83232","miles_from_dt":5.37},{"city":"Swanlake","state_name":"Idaho","lat":42.31044,"lng":-111.95953,"zip":"83281","miles_from_dt":8.9},{"city":"Weston","state_name":"Idaho","lat":42.0533,"lng":-112.0148,"zip":"83286","miles_from_dt":9.84},{"city":"Preston","state_name":"Idaho","lat":42.17757,"lng":-111.76101,"zip":"83263","miles_from_dt":14.2},{"city":"Downey","state_name":"Idaho","lat":42.41661,"lng":-112.09482,"zip":"83234","miles_from_dt":15.59},{"city":"Cornish","state_name":"Utah","lat":41.9656,"lng":-111.96681,"zip":"84308","miles_from_dt":16.23},{"city":"Clarkston","state_name":"Utah","lat":41.94388,"lng":-112.05804,"zip":"84305","miles_from_dt":17.36},{"city":"Franklin","state_name":"Idaho","lat":42.02737,"lng":-111.77626,"zip":"83237","miles_from_dt":17.69},{"city":"Malad City","state_name":"Idaho","lat":42.18979,"lng":-112.38411,"zip":"83252","miles_from_dt":17.84},{"city":"Lewiston","state_name":"Utah","lat":41.96011,"lng":-111.85252,"zip":"84320","miles_from_dt":18.77},{"city":"Trenton","state_name":"Utah","lat":41.91133,"lng":-111.93527,"zip":"84338","miles_from_dt":20.26},{"city":"Plymouth","state_name":"Utah","lat":41.9063,"lng":-112.17019,"zip":"84330","miles_from_dt":21.08},{"city":"Thatcher","state_name":"Idaho","lat":42.35709,"lng":-111.66445,"zip":"83283","miles_from_dt":22.11},{"city":"Newton","state_name":"Utah","lat":41.86555,"lng":-111.99512,"zip":"84327","miles_from_dt":22.84},{"city":"Richmond","state_name":"Utah","lat":41.91008,"lng":-111.79882,"zip":"84333","miles_from_dt":23.16},{"city":"Portage","state_name":"Utah","lat":41.94354,"lng":-112.35869,"zip":"84331","miles_from_dt":23.99},{"city":"Cache Junction","state_name":"Utah","lat":41.82722,"lng":-111.99867,"zip":"84304","miles_from_dt":25.46},{"city":"Fielding","state_name":"Utah","lat":41.82012,"lng":-112.1106,"zip":"84311","miles_from_dt":26.15},{"city":"Grace","state_name":"Idaho","lat":42.51527,"lng":-111.76214,"zip":"83241","miles_from_dt":26.19},{"city":"Smithfield","state_name":"Utah","lat":41.82907,"lng":-111.88074,"zip":"84335","miles_from_dt":26.5},{"city":"Arimo","state_name":"Idaho","lat":42.54495,"lng":-112.29362,"zip":"83214","miles_from_dt":27.51},{"city":"Lava Hot Springs","state_name":"Idaho","lat":42.60616,"lng":-112.03051,"zip":"83246","miles_from_dt":28.38},{"city":"Collinston","state_name":"Utah","lat":41.78272,"lng":-112.06323,"zip":"84306","miles_from_dt":28.48},{"city":"Riverside","state_name":"Utah","lat":41.78955,"lng":-112.15189,"zip":"84334","miles_from_dt":28.6},{"city":"Garland","state_name":"Utah","lat":41.77976,"lng":-112.15681,"zip":"84312","miles_from_dt":29.32},{"city":"Hyde Park","state_name":"Utah","lat":41.80167,"lng":-111.80422,"zip":"84318","miles_from_dt":29.66}],"targetCityZipCode":"83228","targetCityState":"Idaho"},"__N_SSG":true}