{"pageProps":{"stateName":"Idaho","cityName":"princeton","nearbyCities":[{"city":"Potlatch","state_name":"Idaho","lat":46.97188,"lng":-116.92464,"zip":"83855","miles_from_dt":8.27},{"city":"Harvard","state_name":"Idaho","lat":46.97566,"lng":-116.67484,"zip":"83834","miles_from_dt":8.32},{"city":"Viola","state_name":"Idaho","lat":46.85772,"lng":-116.97251,"zip":"83872","miles_from_dt":8.56},{"city":"Troy","state_name":"Idaho","lat":46.74589,"lng":-116.73865,"zip":"83871","miles_from_dt":10.31},{"city":"Moscow","state_name":"Idaho","lat":46.72257,"lng":-116.94132,"zip":"83843","miles_from_dt":13.39},{"city":"Deary","state_name":"Idaho","lat":46.80554,"lng":-116.51934,"zip":"83823","miles_from_dt":14.41},{"city":"Moscow","state_name":"Idaho","lat":46.72823,"lng":-117.01946,"zip":"83844","miles_from_dt":15.32},{"city":"Palouse","state_name":"Washington","lat":46.89496,"lng":-117.13169,"zip":"99161","miles_from_dt":15.82},{"city":"Desmet","state_name":"Idaho","lat":47.10638,"lng":-116.93901,"zip":"83824","miles_from_dt":16.4},{"city":"Tensed","state_name":"Idaho","lat":47.13862,"lng":-116.85372,"zip":"83870","miles_from_dt":17.41},{"city":"Garfield","state_name":"Washington","lat":46.99917,"lng":-117.18556,"zip":"99130","miles_from_dt":19.85},{"city":"Farmington","state_name":"Washington","lat":47.10045,"lng":-117.08523,"zip":"99128","miles_from_dt":19.92},{"city":"Bovill","state_name":"Idaho","lat":46.88243,"lng":-116.37038,"zip":"83806","miles_from_dt":20.25},{"city":"Pullman","state_name":"Washington","lat":46.72889,"lng":-117.15574,"zip":"99164","miles_from_dt":20.28},{"city":"Belmont","state_name":"Washington","lat":47.08531,"lng":-117.16111,"zip":"99104","miles_from_dt":21.86},{"city":"Kendrick","state_name":"Idaho","lat":46.62877,"lng":-116.52348,"zip":"83537","miles_from_dt":22.22},{"city":"Albion","state_name":"Washington","lat":46.79218,"lng":-117.25029,"zip":"99102","miles_from_dt":22.48},{"city":"Pullman","state_name":"Washington","lat":46.72798,"lng":-117.21654,"zip":"99163","miles_from_dt":22.78},{"city":"Genesee","state_name":"Idaho","lat":46.55223,"lng":-116.90666,"zip":"83832","miles_from_dt":23.86},{"city":"Santa","state_name":"Idaho","lat":47.14286,"lng":-116.43995,"zip":"83866","miles_from_dt":24.33},{"city":"Juliaetta","state_name":"Idaho","lat":46.54011,"lng":-116.72599,"zip":"83535","miles_from_dt":24.37},{"city":"Fernwood","state_name":"Idaho","lat":47.07651,"lng":-116.35272,"zip":"83830","miles_from_dt":24.69},{"city":"Clarkia","state_name":"Idaho","lat":47.00311,"lng":-116.28295,"zip":"83812","miles_from_dt":25.59},{"city":"Oakesdale","state_name":"Washington","lat":47.13305,"lng":-117.24008,"zip":"99158","miles_from_dt":26.83},{"city":"Saint Maries","state_name":"Idaho","lat":47.2488,"lng":-116.57821,"zip":"83861","miles_from_dt":26.9},{"city":"Tekoa","state_name":"Washington","lat":47.23061,"lng":-117.09782,"zip":"99033","miles_from_dt":27.49},{"city":"Steptoe","state_name":"Washington","lat":47.00719,"lng":-117.35682,"zip":"99174","miles_from_dt":27.67},{"city":"Colton","state_name":"Washington","lat":46.58628,"lng":-117.1935,"zip":"99113","miles_from_dt":28.14},{"city":"Plummer","state_name":"Idaho","lat":47.29899,"lng":-116.90513,"zip":"83851","miles_from_dt":28.74}],"targetCityZipCode":"83857","targetCityState":"Idaho"},"__N_SSG":true}