{"pageProps":{"stateName":"New-jersey","cityName":"barnegat-light","nearbyCities":[{"city":"Seaside Park","state_name":"New Jersey","lat":39.85233,"lng":-74.0963,"zip":"08752","miles_from_dt":6.89},{"city":"Manahawkin","state_name":"New Jersey","lat":39.70291,"lng":-74.24576,"zip":"08050","miles_from_dt":8.04},{"city":"Waretown","state_name":"New Jersey","lat":39.79529,"lng":-74.25296,"zip":"08758","miles_from_dt":8.17},{"city":"Lanoka Harbor","state_name":"New Jersey","lat":39.86331,"lng":-74.16608,"zip":"08734","miles_from_dt":8.18},{"city":"Barnegat","state_name":"New Jersey","lat":39.75503,"lng":-74.30626,"zip":"08005","miles_from_dt":10.48},{"city":"Beach Haven","state_name":"New Jersey","lat":39.62188,"lng":-74.22421,"zip":"08008","miles_from_dt":10.92},{"city":"Bayville","state_name":"New Jersey","lat":39.9071,"lng":-74.1846,"zip":"08721","miles_from_dt":11.36},{"city":"West Creek","state_name":"New Jersey","lat":39.65438,"lng":-74.28428,"zip":"08092","miles_from_dt":11.53},{"city":"Forked River","state_name":"New Jersey","lat":39.85946,"lng":-74.29363,"zip":"08731","miles_from_dt":12.24},{"city":"Ocean Gate","state_name":"New Jersey","lat":39.93006,"lng":-74.12811,"zip":"08740","miles_from_dt":12.26},{"city":"Pine Beach","state_name":"New Jersey","lat":39.93632,"lng":-74.16779,"zip":"08741","miles_from_dt":13.02},{"city":"Beachwood","state_name":"New Jersey","lat":39.92863,"lng":-74.20224,"zip":"08722","miles_from_dt":13.08},{"city":"Island Heights","state_name":"New Jersey","lat":39.94177,"lng":-74.14497,"zip":"08732","miles_from_dt":13.16},{"city":"Seaside Heights","state_name":"New Jersey","lat":39.95012,"lng":-74.08147,"zip":"08751","miles_from_dt":13.68},{"city":"Toms River","state_name":"New Jersey","lat":39.94625,"lng":-74.25247,"zip":"08756","miles_from_dt":15.35},{"city":"Baptistown","state_name":"New Jersey","lat":39.94625,"lng":-74.25247,"zip":"08803","miles_from_dt":15.35},{"city":"Toms River","state_name":"New Jersey","lat":39.98091,"lng":-74.15055,"zip":"08753","miles_from_dt":15.88},{"city":"Lavallette","state_name":"New Jersey","lat":39.98288,"lng":-74.08121,"zip":"08735","miles_from_dt":15.93},{"city":"Toms River","state_name":"New Jersey","lat":39.98198,"lng":-74.15887,"zip":"08754","miles_from_dt":16.01},{"city":"Toms River","state_name":"New Jersey","lat":39.96061,"lng":-74.25884,"zip":"08757","miles_from_dt":16.38},{"city":"Normandy Beach","state_name":"New Jersey","lat":39.99975,"lng":-74.06422,"zip":"08739","miles_from_dt":17.19},{"city":"Tuckerton","state_name":"New Jersey","lat":39.60751,"lng":-74.37994,"zip":"08087","miles_from_dt":17.56},{"city":"Mantoloking","state_name":"New Jersey","lat":40.02101,"lng":-74.06282,"zip":"08738","miles_from_dt":18.66},{"city":"Toms River","state_name":"New Jersey","lat":40.00968,"lng":-74.22457,"zip":"08755","miles_from_dt":18.74},{"city":"Manchester Township","state_name":"New Jersey","lat":39.96239,"lng":-74.35902,"zip":"08759","miles_from_dt":19.61},{"city":"Brick","state_name":"New Jersey","lat":40.03896,"lng":-74.11091,"zip":"08723","miles_from_dt":19.73},{"city":"New Gretna","state_name":"New Jersey","lat":39.59548,"lng":-74.46352,"zip":"08224","miles_from_dt":21.78},{"city":"Chatsworth","state_name":"New Jersey","lat":39.76733,"lng":-74.52781,"zip":"08019","miles_from_dt":22.29},{"city":"Point Pleasant Beach","state_name":"New Jersey","lat":40.08076,"lng":-74.06213,"zip":"08742","miles_from_dt":22.75},{"city":"Lakewood","state_name":"New Jersey","lat":40.07635,"lng":-74.20311,"zip":"08701","miles_from_dt":22.86},{"city":"Brick","state_name":"New Jersey","lat":40.09034,"lng":-74.115,"zip":"08724","miles_from_dt":23.28},{"city":"Lakehurst","state_name":"New Jersey","lat":40.0262,"lng":-74.3713,"zip":"08733","miles_from_dt":23.43},{"city":"Brielle","state_name":"New Jersey","lat":40.10483,"lng":-74.06366,"zip":"08730","miles_from_dt":24.4},{"city":"Leeds Point","state_name":"New Jersey","lat":39.49915,"lng":-74.43253,"zip":"08220","miles_from_dt":24.57},{"city":"Port Republic","state_name":"New Jersey","lat":39.53278,"lng":-74.48523,"zip":"08241","miles_from_dt":25.15},{"city":"Manasquan","state_name":"New Jersey","lat":40.12028,"lng":-74.06862,"zip":"08736","miles_from_dt":25.43},{"city":"Browns Mills","state_name":"New Jersey","lat":39.92981,"lng":-74.53966,"zip":"08015","miles_from_dt":25.93},{"city":"New Egypt","state_name":"New Jersey","lat":40.01293,"lng":-74.47138,"zip":"08533","miles_from_dt":26.3},{"city":"Sea Girt","state_name":"New Jersey","lat":40.13389,"lng":-74.0444,"zip":"08750","miles_from_dt":26.51},{"city":"Absecon","state_name":"New Jersey","lat":39.47455,"lng":-74.45698,"zip":"08205","miles_from_dt":26.7},{"city":"Allenwood","state_name":"New Jersey","lat":40.14073,"lng":-74.11431,"zip":"08720","miles_from_dt":26.75},{"city":"Oceanville","state_name":"New Jersey","lat":39.4648,"lng":-74.46038,"zip":"08231","miles_from_dt":27.31},{"city":"Jackson","state_name":"New Jersey","lat":40.10478,"lng":-74.35035,"zip":"08527","miles_from_dt":27.44},{"city":"Brigantine","state_name":"New Jersey","lat":39.41281,"lng":-74.38006,"zip":"08203","miles_from_dt":27.56},{"city":"Howell","state_name":"New Jersey","lat":40.15014,"lng":-74.20316,"zip":"07731","miles_from_dt":27.85},{"city":"Egg Harbor City","state_name":"New Jersey","lat":39.58962,"lng":-74.58716,"zip":"08215","miles_from_dt":27.85},{"city":"Spring Lake","state_name":"New Jersey","lat":40.15294,"lng":-74.0359,"zip":"07762","miles_from_dt":27.87},{"city":"Belmar","state_name":"New Jersey","lat":40.16864,"lng":-74.07271,"zip":"07719","miles_from_dt":28.74},{"city":"Pomona","state_name":"New Jersey","lat":39.48676,"lng":-74.53633,"zip":"08240","miles_from_dt":29.26},{"city":"New Lisbon","state_name":"New Jersey","lat":39.93657,"lng":-74.61095,"zip":"08064","miles_from_dt":29.52},{"city":"Belmar","state_name":"New Jersey","lat":40.18188,"lng":-74.0229,"zip":"07715","miles_from_dt":29.95}],"targetCityZipCode":"08006","targetCityState":"New Jersey"},"__N_SSG":true}