{"pageProps":{"stateName":"New-jersey","cityName":"butler","nearbyCities":[{"city":"Bloomingdale","state_name":"New Jersey","lat":41.02059,"lng":-74.33239,"zip":"07403","miles_from_dt":3.54},{"city":"Riverdale","state_name":"New Jersey","lat":40.99212,"lng":-74.3125,"zip":"07457","miles_from_dt":3.71},{"city":"Pompton Plains","state_name":"New Jersey","lat":40.96782,"lng":-74.30724,"zip":"07444","miles_from_dt":4.17},{"city":"Boonton","state_name":"New Jersey","lat":40.92738,"lng":-74.41706,"zip":"07005","miles_from_dt":4.45},{"city":"Towaco","state_name":"New Jersey","lat":40.92643,"lng":-74.34524,"zip":"07082","miles_from_dt":4.59},{"city":"Newfoundland","state_name":"New Jersey","lat":41.0425,"lng":-74.44159,"zip":"07435","miles_from_dt":4.93},{"city":"Haskell","state_name":"New Jersey","lat":41.02926,"lng":-74.30281,"zip":"07420","miles_from_dt":5.13},{"city":"Pompton Lakes","state_name":"New Jersey","lat":41.0024,"lng":-74.28589,"zip":"07442","miles_from_dt":5.2},{"city":"Pequannock","state_name":"New Jersey","lat":40.94668,"lng":-74.29421,"zip":"07440","miles_from_dt":5.4},{"city":"Montville","state_name":"New Jersey","lat":40.90736,"lng":-74.3671,"zip":"07045","miles_from_dt":5.52},{"city":"Rockaway","state_name":"New Jersey","lat":40.9531,"lng":-74.48639,"zip":"07866","miles_from_dt":5.88},{"city":"Lincoln Park","state_name":"New Jersey","lat":40.925,"lng":-74.30462,"zip":"07035","miles_from_dt":5.9},{"city":"Wanaque","state_name":"New Jersey","lat":41.05015,"lng":-74.29849,"zip":"07465","miles_from_dt":6.23},{"city":"Hibernia","state_name":"New Jersey","lat":40.94477,"lng":-74.50065,"zip":"07842","miles_from_dt":6.79},{"city":"West Milford","state_name":"New Jersey","lat":41.08713,"lng":-74.3779,"zip":"07480","miles_from_dt":6.95},{"city":"Mountain Lakes","state_name":"New Jersey","lat":40.89067,"lng":-74.44072,"zip":"07046","miles_from_dt":7.27},{"city":"Lake Hiawatha","state_name":"New Jersey","lat":40.87953,"lng":-74.37965,"zip":"07034","miles_from_dt":7.38},{"city":"Wayne","state_name":"New Jersey","lat":40.94936,"lng":-74.24745,"zip":"07474","miles_from_dt":7.54},{"city":"Wayne","state_name":"New Jersey","lat":40.94805,"lng":-74.24504,"zip":"07470","miles_from_dt":7.69},{"city":"Oak Ridge","state_name":"New Jersey","lat":41.0287,"lng":-74.52038,"zip":"07438","miles_from_dt":7.75},{"city":"Oakland","state_name":"New Jersey","lat":41.03135,"lng":-74.24081,"zip":"07436","miles_from_dt":8.05},{"city":"Fairfield","state_name":"New Jersey","lat":40.88282,"lng":-74.30413,"zip":"07004","miles_from_dt":8.26},{"city":"Pine Brook","state_name":"New Jersey","lat":40.86701,"lng":-74.34283,"zip":"07058","miles_from_dt":8.51},{"city":"Denville","state_name":"New Jersey","lat":40.88752,"lng":-74.48689,"zip":"07834","miles_from_dt":8.73},{"city":"Parsippany","state_name":"New Jersey","lat":40.85527,"lng":-74.40239,"zip":"07054","miles_from_dt":9.11},{"city":"Franklin Lakes","state_name":"New Jersey","lat":41.00859,"lng":-74.20836,"zip":"07417","miles_from_dt":9.26},{"city":"Dover","state_name":"New Jersey","lat":40.93167,"lng":-74.54643,"zip":"07801","miles_from_dt":9.35},{"city":"Mount Tabor","state_name":"New Jersey","lat":40.87152,"lng":-74.47826,"zip":"07878","miles_from_dt":9.37},{"city":"Picatinny Arsenal","state_name":"New Jersey","lat":40.93939,"lng":-74.55845,"zip":"07806","miles_from_dt":9.73},{"city":"Ringwood","state_name":"New Jersey","lat":41.10647,"lng":-74.27487,"zip":"07456","miles_from_dt":10.03},{"city":"Totowa","state_name":"New Jersey","lat":40.90385,"lng":-74.22118,"zip":"07512","miles_from_dt":10.21},{"city":"Totowa","state_name":"New Jersey","lat":40.90243,"lng":-74.22109,"zip":"07511","miles_from_dt":10.27},{"city":"Stockholm","state_name":"New Jersey","lat":41.11341,"lng":-74.49006,"zip":"07460","miles_from_dt":10.39},{"city":"Haledon","state_name":"New Jersey","lat":40.95448,"lng":-74.18423,"zip":"07508","miles_from_dt":10.63},{"city":"Caldwell","state_name":"New Jersey","lat":40.85221,"lng":-74.2817,"zip":"07006","miles_from_dt":10.67},{"city":"Haledon","state_name":"New Jersey","lat":40.9366,"lng":-74.18961,"zip":"07538","miles_from_dt":10.69},{"city":"Wharton","state_name":"New Jersey","lat":40.93172,"lng":-74.57688,"zip":"07885","miles_from_dt":10.82},{"city":"Caldwell","state_name":"New Jersey","lat":40.84083,"lng":-74.30222,"zip":"07007","miles_from_dt":10.9},{"city":"Paterson","state_name":"New Jersey","lat":40.91903,"lng":-74.19461,"zip":"07502","miles_from_dt":10.9},{"city":"Morris Plains","state_name":"New Jersey","lat":40.84569,"lng":-74.48271,"zip":"07950","miles_from_dt":11.03},{"city":"Wyckoff","state_name":"New Jersey","lat":40.99891,"lng":-74.16757,"zip":"07481","miles_from_dt":11.3},{"city":"Whippany","state_name":"New Jersey","lat":40.82375,"lng":-74.42029,"zip":"07981","miles_from_dt":11.4},{"city":"Paterson","state_name":"New Jersey","lat":40.92413,"lng":-74.17928,"zip":"07522","miles_from_dt":11.49},{"city":"East Hanover","state_name":"New Jersey","lat":40.81918,"lng":-74.36382,"zip":"07936","miles_from_dt":11.59},{"city":"Little Falls","state_name":"New Jersey","lat":40.88361,"lng":-74.2059,"zip":"07424","miles_from_dt":11.67},{"city":"Whippany","state_name":"New Jersey","lat":40.8214,"lng":-74.43954,"zip":"07999","miles_from_dt":11.77},{"city":"Hawthorne","state_name":"New Jersey","lat":40.95794,"lng":-74.15815,"zip":"07506","miles_from_dt":11.92},{"city":"Lake Hopatcong","state_name":"New Jersey","lat":40.96861,"lng":-74.61066,"zip":"07849","miles_from_dt":11.97},{"city":"Paterson","state_name":"New Jersey","lat":40.91694,"lng":-74.17222,"zip":"07505","miles_from_dt":12.03},{"city":"Cedar Knolls","state_name":"New Jersey","lat":40.82085,"lng":-74.45479,"zip":"07927","miles_from_dt":12.03},{"city":"Hawthorne","state_name":"New Jersey","lat":40.91667,"lng":-74.17222,"zip":"07507","miles_from_dt":12.03},{"city":"Cedar Grove","state_name":"New Jersey","lat":40.85651,"lng":-74.22871,"zip":"07009","miles_from_dt":12.07},{"city":"Roseland","state_name":"New Jersey","lat":40.82077,"lng":-74.30862,"zip":"07068","miles_from_dt":12.08},{"city":"Mahwah","state_name":"New Jersey","lat":41.08113,"lng":-74.18666,"zip":"07495","miles_from_dt":12.16},{"city":"Paterson","state_name":"New Jersey","lat":40.91199,"lng":-74.17223,"zip":"07509","miles_from_dt":12.17},{"city":"Paterson","state_name":"New Jersey","lat":40.91085,"lng":-74.17217,"zip":"07510","miles_from_dt":12.2},{"city":"Paterson","state_name":"New Jersey","lat":40.9125,"lng":-74.17099,"zip":"07501","miles_from_dt":12.21},{"city":"Hewitt","state_name":"New Jersey","lat":41.1624,"lng":-74.35586,"zip":"07421","miles_from_dt":12.22},{"city":"Mahwah","state_name":"New Jersey","lat":41.08157,"lng":-74.18562,"zip":"07430","miles_from_dt":12.23},{"city":"Essex Fells","state_name":"New Jersey","lat":40.82708,"lng":-74.27981,"zip":"07021","miles_from_dt":12.25},{"city":"Paterson","state_name":"New Jersey","lat":40.93226,"lng":-74.15674,"zip":"07524","miles_from_dt":12.41},{"city":"Paterson","state_name":"New Jersey","lat":40.93042,"lng":-74.1575,"zip":"07544","miles_from_dt":12.42},{"city":"Midland Park","state_name":"New Jersey","lat":40.99516,"lng":-74.14109,"zip":"07432","miles_from_dt":12.66},{"city":"Ogdensburg","state_name":"New Jersey","lat":41.0769,"lng":-74.59734,"zip":"07439","miles_from_dt":12.82},{"city":"Verona","state_name":"New Jersey","lat":40.83228,"lng":-74.24308,"zip":"07044","miles_from_dt":12.92},{"city":"Paterson","state_name":"New Jersey","lat":40.92596,"lng":-74.14452,"zip":"07514","miles_from_dt":13.16},{"city":"Glasser","state_name":"New Jersey","lat":40.97232,"lng":-74.63688,"zip":"07837","miles_from_dt":13.31},{"city":"Ramsey","state_name":"New Jersey","lat":41.05944,"lng":-74.14532,"zip":"07446","miles_from_dt":13.4},{"city":"Paterson","state_name":"New Jersey","lat":40.89787,"lng":-74.15427,"zip":"07533","miles_from_dt":13.44},{"city":"Allendale","state_name":"New Jersey","lat":41.03321,"lng":-74.13328,"zip":"07401","miles_from_dt":13.45},{"city":"Sparta","state_name":"New Jersey","lat":41.04666,"lng":-74.62793,"zip":"07871","miles_from_dt":13.46},{"city":"Paterson","state_name":"New Jersey","lat":40.90565,"lng":-74.14869,"zip":"07513","miles_from_dt":13.47},{"city":"Paterson","state_name":"New Jersey","lat":40.89768,"lng":-74.15353,"zip":"07503","miles_from_dt":13.48},{"city":"Paterson","state_name":"New Jersey","lat":40.905,"lng":-74.1487,"zip":"07543","miles_from_dt":13.49},{"city":"Dover","state_name":"New Jersey","lat":40.85424,"lng":-74.57469,"zip":"07802","miles_from_dt":13.56},{"city":"Waldwick","state_name":"New Jersey","lat":41.01334,"lng":-74.12585,"zip":"07463","miles_from_dt":13.57},{"city":"Mine Hill","state_name":"New Jersey","lat":40.87819,"lng":-74.60003,"zip":"07803","miles_from_dt":13.59},{"city":"Glen Rock","state_name":"New Jersey","lat":40.96008,"lng":-74.12498,"zip":"07452","miles_from_dt":13.62},{"city":"Paterson","state_name":"New Jersey","lat":40.912,"lng":-74.14121,"zip":"07504","miles_from_dt":13.65},{"city":"Clifton","state_name":"New Jersey","lat":40.86935,"lng":-74.17267,"zip":"07013","miles_from_dt":13.66},{"city":"Franklin","state_name":"New Jersey","lat":41.10892,"lng":-74.58891,"zip":"07416","miles_from_dt":13.68},{"city":"Highland Lakes","state_name":"New Jersey","lat":41.17984,"lng":-74.44177,"zip":"07422","miles_from_dt":13.69},{"city":"Montclair","state_name":"New Jersey","lat":40.84411,"lng":-74.20041,"zip":"07043","miles_from_dt":13.71},{"city":"Ridgewood","state_name":"New Jersey","lat":40.98055,"lng":-74.11935,"zip":"07451","miles_from_dt":13.79},{"city":"Morristown","state_name":"New Jersey","lat":40.8064,"lng":-74.50061,"zip":"07962","miles_from_dt":13.87},{"city":"Mount Arlington","state_name":"New Jersey","lat":40.9189,"lng":-74.6336,"zip":"07856","miles_from_dt":13.91},{"city":"Sterling Forest","state_name":"New York","lat":41.18237,"lng":-74.31877,"zip":"10979","miles_from_dt":13.93},{"city":"Morristown","state_name":"New Jersey","lat":40.79547,"lng":-74.47775,"zip":"07963","miles_from_dt":14.08},{"city":"Ridgewood","state_name":"New Jersey","lat":40.98219,"lng":-74.11275,"zip":"07450","miles_from_dt":14.14},{"city":"Livingston","state_name":"New Jersey","lat":40.78554,"lng":-74.32909,"zip":"07039","miles_from_dt":14.15},{"city":"Randolph","state_name":"New Jersey","lat":40.84528,"lng":-74.5807,"zip":"07869","miles_from_dt":14.21},{"city":"Fair Lawn","state_name":"New Jersey","lat":40.93587,"lng":-74.11771,"zip":"07410","miles_from_dt":14.31},{"city":"Kenvil","state_name":"New Jersey","lat":40.8856,"lng":-74.6237,"zip":"07847","miles_from_dt":14.39},{"city":"Convent Station","state_name":"New Jersey","lat":40.78105,"lng":-74.43517,"zip":"07961","miles_from_dt":14.43},{"city":"Florham Park","state_name":"New Jersey","lat":40.77717,"lng":-74.39246,"zip":"07932","miles_from_dt":14.45},{"city":"Clifton","state_name":"New Jersey","lat":40.8801,"lng":-74.14449,"zip":"07011","miles_from_dt":14.48},{"city":"Clifton","state_name":"New Jersey","lat":40.89195,"lng":-74.13127,"zip":"07015","miles_from_dt":14.7},{"city":"Montclair","state_name":"New Jersey","lat":40.81382,"lng":-74.21775,"zip":"07042","miles_from_dt":14.72},{"city":"Hillburn","state_name":"New York","lat":41.12769,"lng":-74.17012,"zip":"10931","miles_from_dt":14.79},{"city":"Hopatcong","state_name":"New Jersey","lat":40.93989,"lng":-74.65928,"zip":"07843","miles_from_dt":14.8},{"city":"Elmwood Park","state_name":"New Jersey","lat":40.90493,"lng":-74.12007,"zip":"07407","miles_from_dt":14.86},{"city":"Ho Ho Kus","state_name":"New Jersey","lat":41.00007,"lng":-74.09718,"zip":"07423","miles_from_dt":14.97},{"city":"West Orange","state_name":"New Jersey","lat":40.78928,"lng":-74.26281,"zip":"07052","miles_from_dt":14.99},{"city":"Clifton","state_name":"New Jersey","lat":40.84694,"lng":-74.1596,"zip":"07012","miles_from_dt":15.15},{"city":"Hamburg","state_name":"New Jersey","lat":41.15394,"lng":-74.57106,"zip":"07419","miles_from_dt":15.17},{"city":"Morristown","state_name":"New Jersey","lat":40.78452,"lng":-74.49813,"zip":"07960","miles_from_dt":15.18},{"city":"Greenwood Lake","state_name":"New York","lat":41.20076,"lng":-74.29535,"zip":"10925","miles_from_dt":15.48},{"city":"Saddle River","state_name":"New Jersey","lat":41.04583,"lng":-74.0971,"zip":"07458","miles_from_dt":15.5},{"city":"Sloatsburg","state_name":"New York","lat":41.15826,"lng":-74.18993,"zip":"10974","miles_from_dt":15.56},{"city":"Landing","state_name":"New Jersey","lat":40.90716,"lng":-74.66158,"zip":"07850","miles_from_dt":15.57},{"city":"Vernon","state_name":"New Jersey","lat":41.19873,"lng":-74.48911,"zip":"07462","miles_from_dt":15.66},{"city":"Glen Ridge","state_name":"New Jersey","lat":40.80421,"lng":-74.20428,"zip":"07028","miles_from_dt":15.68},{"city":"Madison","state_name":"New Jersey","lat":40.76006,"lng":-74.41889,"zip":"07940","miles_from_dt":15.74},{"city":"Mount Freedom","state_name":"New Jersey","lat":40.80831,"lng":-74.5727,"zip":"07970","miles_from_dt":15.8},{"city":"Bloomfield","state_name":"New Jersey","lat":40.80976,"lng":-74.18683,"zip":"07003","miles_from_dt":15.94},{"city":"Passaic","state_name":"New Jersey","lat":40.85746,"lng":-74.12821,"zip":"07055","miles_from_dt":16.03},{"city":"Saddle Brook","state_name":"New Jersey","lat":40.90328,"lng":-74.09545,"zip":"07663","miles_from_dt":16.1},{"city":"Brookside","state_name":"New Jersey","lat":40.80029,"lng":-74.56879,"zip":"07926","miles_from_dt":16.11},{"city":"Garfield","state_name":"New Jersey","lat":40.87914,"lng":-74.1085,"zip":"07026","miles_from_dt":16.16},{"city":"McAfee","state_name":"New Jersey","lat":41.18538,"lng":-74.55155,"zip":"07428","miles_from_dt":16.3},{"city":"Ledgewood","state_name":"New Jersey","lat":40.88374,"lng":-74.66531,"zip":"07852","miles_from_dt":16.38},{"city":"Nutley","state_name":"New Jersey","lat":40.81926,"lng":-74.15715,"zip":"07110","miles_from_dt":16.52},{"city":"Paramus","state_name":"New Jersey","lat":40.94723,"lng":-74.07123,"zip":"07653","miles_from_dt":16.53},{"city":"Paramus","state_name":"New Jersey","lat":40.94553,"lng":-74.07122,"zip":"07652","miles_from_dt":16.55},{"city":"Orange","state_name":"New Jersey","lat":40.77059,"lng":-74.23915,"zip":"07051","miles_from_dt":16.69},{"city":"Township Of Washington","state_name":"New Jersey","lat":40.98843,"lng":-74.06359,"zip":"07676","miles_from_dt":16.7},{"city":"Ironia","state_name":"New Jersey","lat":40.83013,"lng":-74.62683,"zip":"07845","miles_from_dt":16.71},{"city":"Clifton","state_name":"New Jersey","lat":40.83162,"lng":-74.13532,"zip":"07014","miles_from_dt":16.8},{"city":"Rochelle Park","state_name":"New Jersey","lat":40.90698,"lng":-74.07911,"zip":"07662","miles_from_dt":16.82},{"city":"Orange","state_name":"New Jersey","lat":40.76817,"lng":-74.2348,"zip":"07050","miles_from_dt":16.95},{"city":"Succasunna","state_name":"New Jersey","lat":40.85302,"lng":-74.65627,"zip":"07876","miles_from_dt":17.01},{"city":"Tallman","state_name":"New York","lat":41.10654,"lng":-74.09865,"zip":"10982","miles_from_dt":17.01},{"city":"Woodcliff Lake","state_name":"New Jersey","lat":41.0253,"lng":-74.06038,"zip":"07677","miles_from_dt":17.08},{"city":"Wallington","state_name":"New Jersey","lat":40.85355,"lng":-74.10691,"zip":"07057","miles_from_dt":17.12},{"city":"Short Hills","state_name":"New Jersey","lat":40.74196,"lng":-74.3277,"zip":"07078","miles_from_dt":17.12},{"city":"New Milford","state_name":"New York","lat":41.23454,"lng":-74.41307,"zip":"10959","miles_from_dt":17.19},{"city":"Suffern","state_name":"New York","lat":41.14554,"lng":-74.12504,"zip":"10901","miles_from_dt":17.38},{"city":"Tuxedo Park","state_name":"New York","lat":41.20737,"lng":-74.22284,"zip":"10987","miles_from_dt":17.39},{"city":"East Orange","state_name":"New Jersey","lat":40.77192,"lng":-74.20712,"zip":"07017","miles_from_dt":17.44},{"city":"Newark","state_name":"New Jersey","lat":40.79751,"lng":-74.16181,"zip":"07189","miles_from_dt":17.44},{"city":"Lodi","state_name":"New Jersey","lat":40.87836,"lng":-74.08145,"zip":"07644","miles_from_dt":17.46},{"city":"Stanhope","state_name":"New Jersey","lat":40.9285,"lng":-74.70994,"zip":"07874","miles_from_dt":17.56},{"city":"Belleville","state_name":"New Jersey","lat":40.79502,"lng":-74.16161,"zip":"07109","miles_from_dt":17.58},{"city":"Green Village","state_name":"New Jersey","lat":40.7371,"lng":-74.45296,"zip":"07935","miles_from_dt":17.59},{"city":"South Orange","state_name":"New Jersey","lat":40.74908,"lng":-74.26022,"zip":"07079","miles_from_dt":17.6},{"city":"Lafayette","state_name":"New Jersey","lat":41.10339,"lng":-74.68312,"zip":"07848","miles_from_dt":17.63},{"city":"Netcong","state_name":"New Jersey","lat":40.89733,"lng":-74.69998,"zip":"07857","miles_from_dt":17.69},{"city":"Maywood","state_name":"New Jersey","lat":40.90249,"lng":-74.06337,"zip":"07607","miles_from_dt":17.7},{"city":"Hillsdale","state_name":"New Jersey","lat":41.00742,"lng":-74.04402,"zip":"07642","miles_from_dt":17.78},{"city":"Montvale","state_name":"New Jersey","lat":41.05293,"lng":-74.04985,"zip":"07645","miles_from_dt":18.01},{"city":"Chatham","state_name":"New Jersey","lat":40.7262,"lng":-74.41381,"zip":"07928","miles_from_dt":18.03},{"city":"Wood Ridge","state_name":"New Jersey","lat":40.85076,"lng":-74.08779,"zip":"07075","miles_from_dt":18.07},{"city":"Park Ridge","state_name":"New Jersey","lat":41.03524,"lng":-74.04232,"zip":"07656","miles_from_dt":18.12},{"city":"Monsey","state_name":"New York","lat":41.11385,"lng":-74.07975,"zip":"10952","miles_from_dt":18.12},{"city":"East Orange","state_name":"New Jersey","lat":40.75572,"lng":-74.21793,"zip":"07018","miles_from_dt":18.12},{"city":"East Orange","state_name":"New Jersey","lat":40.75994,"lng":-74.20793,"zip":"07019","miles_from_dt":18.12},{"city":"Mendham","state_name":"New Jersey","lat":40.78065,"lng":-74.59928,"zip":"07945","miles_from_dt":18.16},{"city":"Glenwood","state_name":"New Jersey","lat":41.2387,"lng":-74.4873,"zip":"07418","miles_from_dt":18.24},{"city":"Hasbrouck Heights","state_name":"New Jersey","lat":40.86166,"lng":-74.07413,"zip":"07604","miles_from_dt":18.32},{"city":"Maplewood","state_name":"New Jersey","lat":40.73302,"lng":-74.27117,"zip":"07040","miles_from_dt":18.44},{"city":"River Edge","state_name":"New Jersey","lat":40.92697,"lng":-74.03874,"zip":"07661","miles_from_dt":18.47},{"city":"Bellvale","state_name":"New York","lat":41.24733,"lng":-74.30386,"zip":"10912","miles_from_dt":18.47},{"city":"Rutherford","state_name":"New Jersey","lat":40.82034,"lng":-74.10574,"zip":"07070","miles_from_dt":18.5},{"city":"Oradell","state_name":"New Jersey","lat":40.95622,"lng":-74.03141,"zip":"07649","miles_from_dt":18.51},{"city":"New Vernon","state_name":"New Jersey","lat":40.72747,"lng":-74.47704,"zip":"07976","miles_from_dt":18.54},{"city":"Newark","state_name":"New Jersey","lat":40.76181,"lng":-74.18653,"zip":"07107","miles_from_dt":18.61},{"city":"Newark","state_name":"New Jersey","lat":40.74177,"lng":-74.23047,"zip":"07106","miles_from_dt":18.68},{"city":"Millburn","state_name":"New Jersey","lat":40.72301,"lng":-74.30065,"zip":"07041","miles_from_dt":18.68},{"city":"Hackensack","state_name":"New Jersey","lat":40.89044,"lng":-74.04781,"zip":"07602","miles_from_dt":18.75},{"city":"Teterboro","state_name":"New Jersey","lat":40.85337,"lng":-74.07048,"zip":"07699","miles_from_dt":18.76},{"city":"Summit","state_name":"New Jersey","lat":40.71462,"lng":-74.36604,"zip":"07901","miles_from_dt":18.78},{"city":"Emerson","state_name":"New Jersey","lat":40.97484,"lng":-74.024,"zip":"07630","miles_from_dt":18.79},{"city":"Summit","state_name":"New Jersey","lat":40.71414,"lng":-74.36589,"zip":"07902","miles_from_dt":18.81},{"city":"Newark","state_name":"New Jersey","lat":40.76735,"lng":-74.16831,"zip":"07104","miles_from_dt":18.84},{"city":"Hackensack","state_name":"New Jersey","lat":40.8891,"lng":-74.04614,"zip":"07601","miles_from_dt":18.87},{"city":"Andover","state_name":"New Jersey","lat":40.96461,"lng":-74.74807,"zip":"07821","miles_from_dt":19.15},{"city":"North Arlington","state_name":"New Jersey","lat":40.78745,"lng":-74.12731,"zip":"07031","miles_from_dt":19.18},{"city":"Vauxhall","state_name":"New Jersey","lat":40.71832,"lng":-74.28375,"zip":"07088","miles_from_dt":19.22},{"city":"Teterboro","state_name":"New Jersey","lat":40.85297,"lng":-74.06045,"zip":"07608","miles_from_dt":19.23},{"city":"Flanders","state_name":"New Jersey","lat":40.84767,"lng":-74.70163,"zip":"07836","miles_from_dt":19.23},{"city":"Warwick","state_name":"New York","lat":41.2651,"lng":-74.3663,"zip":"10990","miles_from_dt":19.25},{"city":"New Milford","state_name":"New Jersey","lat":40.93368,"lng":-74.01956,"zip":"07646","miles_from_dt":19.36},{"city":"Lyndhurst","state_name":"New Jersey","lat":40.79646,"lng":-74.1099,"zip":"07071","miles_from_dt":19.4},{"city":"East Rutherford","state_name":"New Jersey","lat":40.81792,"lng":-74.08539,"zip":"07073","miles_from_dt":19.44},{"city":"South Hackensack","state_name":"New Jersey","lat":40.85783,"lng":-74.05177,"zip":"07606","miles_from_dt":19.48},{"city":"Spring Valley","state_name":"New York","lat":41.11749,"lng":-74.04825,"zip":"10977","miles_from_dt":19.69},{"city":"Newark","state_name":"New Jersey","lat":40.73886,"lng":-74.19529,"zip":"07103","miles_from_dt":19.71},{"city":"Irvington","state_name":"New Jersey","lat":40.72426,"lng":-74.23173,"zip":"07111","miles_from_dt":19.75},{"city":"Augusta","state_name":"New Jersey","lat":41.1409,"lng":-74.70373,"zip":"07822","miles_from_dt":19.85},{"city":"Westwood","state_name":"New Jersey","lat":41.00918,"lng":-74.00428,"zip":"07675","miles_from_dt":19.86},{"city":"Moonachie","state_name":"New Jersey","lat":40.83877,"lng":-74.05705,"zip":"07074","miles_from_dt":19.88},{"city":"Newark","state_name":"New Jersey","lat":40.72559,"lng":-74.21849,"zip":"07184","miles_from_dt":19.96},{"city":"New Providence","state_name":"New Jersey","lat":40.69732,"lng":-74.40321,"zip":"07974","miles_from_dt":19.98},{"city":"Pearl River","state_name":"New York","lat":41.06176,"lng":-74.01286,"zip":"10965","miles_from_dt":20.03},{"city":"Springfield","state_name":"New Jersey","lat":40.69949,"lng":-74.32542,"zip":"07081","miles_from_dt":20.03},{"city":"Bogota","state_name":"New Jersey","lat":40.87507,"lng":-74.02934,"zip":"07603","miles_from_dt":20.04},{"city":"Westfield","state_name":"New Jersey","lat":40.6938,"lng":-74.38262,"zip":"07091","miles_from_dt":20.19},{"city":"Carlstadt","state_name":"New Jersey","lat":40.82472,"lng":-74.06126,"zip":"07072","miles_from_dt":20.21},{"city":"Haworth","state_name":"New Jersey","lat":40.96224,"lng":-73.9976,"zip":"07641","miles_from_dt":20.23},{"city":"Little Ferry","state_name":"New Jersey","lat":40.84635,"lng":-74.03879,"zip":"07643","miles_from_dt":20.45},{"city":"Newark","state_name":"New Jersey","lat":40.73576,"lng":-74.17343,"zip":"07102","miles_from_dt":20.49},{"city":"Budd Lake","state_name":"New Jersey","lat":40.88559,"lng":-74.75237,"zip":"07828","miles_from_dt":20.54},{"city":"Newark","state_name":"New Jersey","lat":40.72306,"lng":-74.20039,"zip":"07108","miles_from_dt":20.54},{"city":"Newark","state_name":"New Jersey","lat":40.73566,"lng":-74.1714,"zip":"07175","miles_from_dt":20.55},{"city":"Bergenfield","state_name":"New Jersey","lat":40.92357,"lng":-73.99824,"zip":"07621","miles_from_dt":20.59},{"city":"Teaneck","state_name":"New Jersey","lat":40.88998,"lng":-74.01067,"zip":"07666","miles_from_dt":20.59},{"city":"Harrison","state_name":"New Jersey","lat":40.74377,"lng":-74.15389,"zip":"07029","miles_from_dt":20.6},{"city":"Dumont","state_name":"New Jersey","lat":40.94524,"lng":-73.99227,"zip":"07628","miles_from_dt":20.64},{"city":"Newark","state_name":"New Jersey","lat":40.73095,"lng":-74.17544,"zip":"07188","miles_from_dt":20.72},{"city":"Newark","state_name":"New Jersey","lat":40.73005,"lng":-74.17657,"zip":"07192","miles_from_dt":20.74},{"city":"Newark","state_name":"New Jersey","lat":40.72934,"lng":-74.17695,"zip":"07193","miles_from_dt":20.77},{"city":"Newark","state_name":"New Jersey","lat":40.72982,"lng":-74.17537,"zip":"07195","miles_from_dt":20.78},{"city":"Gillette","state_name":"New Jersey","lat":40.69198,"lng":-74.46658,"zip":"07933","miles_from_dt":20.79},{"city":"Nanuet","state_name":"New York","lat":41.09969,"lng":-74.01269,"zip":"10954","miles_from_dt":20.87},{"city":"Bernardsville","state_name":"New Jersey","lat":40.727,"lng":-74.58941,"zip":"07924","miles_from_dt":20.92},{"city":"Newark","state_name":"New Jersey","lat":40.71137,"lng":-74.21164,"zip":"07112","miles_from_dt":21},{"city":"Union","state_name":"New Jersey","lat":40.69443,"lng":-74.2692,"zip":"07083","miles_from_dt":21.02},{"city":"Newark","state_name":"New Jersey","lat":40.72707,"lng":-74.17207,"zip":"07199","miles_from_dt":21.04},{"city":"Harrington Park","state_name":"New Jersey","lat":40.9899,"lng":-73.98037,"zip":"07640","miles_from_dt":21.06},{"city":"Ridgefield Park","state_name":"New Jersey","lat":40.85434,"lng":-74.02013,"zip":"07660","miles_from_dt":21.07},{"city":"Mountainside","state_name":"New Jersey","lat":40.68106,"lng":-74.36038,"zip":"07092","miles_from_dt":21.11},{"city":"Newark","state_name":"New Jersey","lat":40.72576,"lng":-74.17222,"zip":"07101","miles_from_dt":21.11},{"city":"Kearny","state_name":"New Jersey","lat":40.75385,"lng":-74.11996,"zip":"07099","miles_from_dt":21.15},{"city":"Sussex","state_name":"New Jersey","lat":41.24213,"lng":-74.60648,"zip":"07461","miles_from_dt":21.15},{"city":"Kearny","state_name":"New Jersey","lat":40.75281,"lng":-74.12016,"zip":"07032","miles_from_dt":21.2},{"city":"Chester","state_name":"New Jersey","lat":40.78222,"lng":-74.68642,"zip":"07930","miles_from_dt":21.24},{"city":"Newark","state_name":"New Jersey","lat":40.73588,"lng":-74.14386,"zip":"07198","miles_from_dt":21.35},{"city":"Pomona","state_name":"New York","lat":41.1852,"lng":-74.06568,"zip":"10970","miles_from_dt":21.51},{"city":"Berkeley Heights","state_name":"New Jersey","lat":40.67525,"lng":-74.42806,"zip":"07922","miles_from_dt":21.6},{"city":"Hillside","state_name":"New Jersey","lat":40.69612,"lng":-74.22857,"zip":"07205","miles_from_dt":21.61},{"city":"Pine Island","state_name":"New York","lat":41.292,"lng":-74.48879,"zip":"10969","miles_from_dt":21.79},{"city":"Secaucus","state_name":"New Jersey","lat":40.78109,"lng":-74.06588,"zip":"07094","miles_from_dt":21.83},{"city":"Kenilworth","state_name":"New Jersey","lat":40.67812,"lng":-74.28898,"zip":"07033","miles_from_dt":21.84},{"city":"Southfields","state_name":"New York","lat":41.25951,"lng":-74.17042,"zip":"10975","miles_from_dt":21.87},{"city":"Secaucus","state_name":"New Jersey","lat":40.78124,"lng":-74.06458,"zip":"07096","miles_from_dt":21.88},{"city":"Ridgefield","state_name":"New Jersey","lat":40.83127,"lng":-74.01471,"zip":"07657","miles_from_dt":22.06},{"city":"Closter","state_name":"New Jersey","lat":40.97329,"lng":-73.96044,"zip":"07624","miles_from_dt":22.12},{"city":"Branchville","state_name":"New Jersey","lat":41.14489,"lng":-74.75209,"zip":"07890","miles_from_dt":22.16},{"city":"Stirling","state_name":"New Jersey","lat":40.6765,"lng":-74.49465,"zip":"07980","miles_from_dt":22.17},{"city":"Leonia","state_name":"New Jersey","lat":40.86362,"lng":-73.9899,"zip":"07605","miles_from_dt":22.25},{"city":"Newark","state_name":"New Jersey","lat":40.72266,"lng":-74.13874,"zip":"07105","miles_from_dt":22.25},{"city":"Tranquility","state_name":"New Jersey","lat":40.95713,"lng":-74.8072,"zip":"07879","miles_from_dt":22.28},{"city":"Allamuchy","state_name":"New Jersey","lat":40.93104,"lng":-74.80424,"zip":"07820","miles_from_dt":22.36},{"city":"Cresskill","state_name":"New Jersey","lat":40.94054,"lng":-73.9596,"zip":"07626","miles_from_dt":22.37},{"city":"Palisades Park","state_name":"New Jersey","lat":40.84716,"lng":-73.99664,"zip":"07650","miles_from_dt":22.39},{"city":"Millington","state_name":"New Jersey","lat":40.67698,"lng":-74.51143,"zip":"07946","miles_from_dt":22.39},{"city":"Demarest","state_name":"New Jersey","lat":40.95504,"lng":-73.95678,"zip":"07627","miles_from_dt":22.4},{"city":"Englewood","state_name":"New Jersey","lat":40.89161,"lng":-73.97368,"zip":"07631","miles_from_dt":22.4},{"city":"Orangeburg","state_name":"New York","lat":41.04857,"lng":-73.96057,"zip":"10962","miles_from_dt":22.49},{"city":"Newark","state_name":"New Jersey","lat":40.70298,"lng":-74.16875,"zip":"07191","miles_from_dt":22.55},{"city":"Norwood","state_name":"New Jersey","lat":40.99335,"lng":-73.95103,"zip":"07648","miles_from_dt":22.59},{"city":"West Nyack","state_name":"New York","lat":41.09702,"lng":-73.97322,"zip":"10994","miles_from_dt":22.73},{"city":"Basking Ridge","state_name":"New Jersey","lat":40.68374,"lng":-74.55444,"zip":"07920","miles_from_dt":22.74},{"city":"Newark","state_name":"New Jersey","lat":40.70018,"lng":-74.16618,"zip":"07114","miles_from_dt":22.79},{"city":"Tappan","state_name":"New York","lat":41.02747,"lng":-73.94826,"zip":"10983","miles_from_dt":22.9},{"city":"Greendell","state_name":"New Jersey","lat":40.97469,"lng":-74.82071,"zip":"07839","miles_from_dt":22.9},{"city":"Harriman","state_name":"New York","lat":41.25856,"lng":-74.1307,"zip":"10926","miles_from_dt":22.93},{"city":"Newton","state_name":"New Jersey","lat":41.0595,"lng":-74.81159,"zip":"07860","miles_from_dt":22.96},{"city":"Roselle Park","state_name":"New Jersey","lat":40.66532,"lng":-74.2666,"zip":"07204","miles_from_dt":22.98},{"city":"Tenafly","state_name":"New Jersey","lat":40.91758,"lng":-73.95323,"zip":"07670","miles_from_dt":22.98},{"city":"North Bergen","state_name":"New Jersey","lat":40.79376,"lng":-74.02416,"zip":"07047","miles_from_dt":23.02},{"city":"Blauvelt","state_name":"New York","lat":41.06845,"lng":-73.95574,"zip":"10913","miles_from_dt":23.03},{"city":"Fairview","state_name":"New Jersey","lat":40.81821,"lng":-74.0022,"zip":"07022","miles_from_dt":23.07},{"city":"Northvale","state_name":"New Jersey","lat":41.00674,"lng":-73.94255,"zip":"07647","miles_from_dt":23.07},{"city":"Elizabeth","state_name":"New Jersey","lat":40.67434,"lng":-74.22498,"zip":"07208","miles_from_dt":23.08},{"city":"Cranford","state_name":"New Jersey","lat":40.65678,"lng":-74.30354,"zip":"07016","miles_from_dt":23.13},{"city":"Westfield","state_name":"New Jersey","lat":40.65172,"lng":-74.34328,"zip":"07090","miles_from_dt":23.19},{"city":"Garwood","state_name":"New Jersey","lat":40.65132,"lng":-74.32313,"zip":"07027","miles_from_dt":23.34},{"city":"New City","state_name":"New York","lat":41.15562,"lng":-73.99314,"zip":"10956","miles_from_dt":23.47},{"city":"Fort Lee","state_name":"New Jersey","lat":40.85088,"lng":-73.97128,"zip":"07024","miles_from_dt":23.49},{"city":"Elizabeth","state_name":"New Jersey","lat":40.66966,"lng":-74.21793,"zip":"07207","miles_from_dt":23.51},{"city":"Cliffside Park","state_name":"New Jersey","lat":40.82217,"lng":-73.98792,"zip":"07010","miles_from_dt":23.59},{"city":"Peapack","state_name":"New Jersey","lat":40.70969,"lng":-74.64786,"zip":"07977","miles_from_dt":23.61},{"city":"Jersey City","state_name":"New Jersey","lat":40.75192,"lng":-74.05429,"zip":"07307","miles_from_dt":23.63},{"city":"Unionville","state_name":"New York","lat":41.30133,"lng":-74.56218,"zip":"10988","miles_from_dt":23.65},{"city":"Florida","state_name":"New York","lat":41.3292,"lng":-74.3651,"zip":"10921","miles_from_dt":23.67},{"city":"Jersey City","state_name":"New Jersey","lat":40.73,"lng":-74.08219,"zip":"07395","miles_from_dt":23.7},{"city":"Lyons","state_name":"New Jersey","lat":40.66723,"lng":-74.55215,"zip":"07939","miles_from_dt":23.74},{"city":"Jersey City","state_name":"New Jersey","lat":40.73674,"lng":-74.07132,"zip":"07306","miles_from_dt":23.74},{"city":"Sugar Loaf","state_name":"New York","lat":41.32301,"lng":-74.28559,"zip":"10981","miles_from_dt":23.77},{"city":"Jersey City","state_name":"New Jersey","lat":40.75143,"lng":-74.0509,"zip":"07097","miles_from_dt":23.78},{"city":"Fanwood","state_name":"New Jersey","lat":40.64171,"lng":-74.38575,"zip":"07023","miles_from_dt":23.79},{"city":"Union City","state_name":"New Jersey","lat":40.76723,"lng":-74.03243,"zip":"07087","miles_from_dt":23.79},{"city":"Arden","state_name":"New York","lat":41.2773,"lng":-74.13625,"zip":"10910","miles_from_dt":23.84},{"city":"Roselle","state_name":"New Jersey","lat":40.65269,"lng":-74.2599,"zip":"07203","miles_from_dt":23.92},{"city":"Watchung","state_name":"New Jersey","lat":40.64249,"lng":-74.4396,"zip":"07069","miles_from_dt":23.92},{"city":"Jersey City","state_name":"New Jersey","lat":40.72784,"lng":-74.07843,"zip":"07399","miles_from_dt":23.94},{"city":"Englewood Cliffs","state_name":"New Jersey","lat":40.88227,"lng":-73.94672,"zip":"07632","miles_from_dt":23.94},{"city":"West New York","state_name":"New Jersey","lat":40.78675,"lng":-74.00871,"zip":"07093","miles_from_dt":23.96},{"city":"Stony Point","state_name":"New York","lat":41.23157,"lng":-74.05709,"zip":"10980","miles_from_dt":23.99},{"city":"Far Hills","state_name":"New Jersey","lat":40.70791,"lng":-74.65732,"zip":"07931","miles_from_dt":24},{"city":"Sparkill","state_name":"New York","lat":41.02871,"lng":-73.92594,"zip":"10976","miles_from_dt":24.07},{"city":"Gladstone","state_name":"New Jersey","lat":40.72044,"lng":-74.68159,"zip":"07934","miles_from_dt":24.12},{"city":"Edgewater","state_name":"New Jersey","lat":40.82374,"lng":-73.97401,"zip":"07020","miles_from_dt":24.18},{"city":"Elizabeth","state_name":"New Jersey","lat":40.67237,"lng":-74.17643,"zip":"07201","miles_from_dt":24.23},{"city":"Alpine","state_name":"New Jersey","lat":40.96165,"lng":-73.91983,"zip":"07620","miles_from_dt":24.29},{"city":"Swartswood","state_name":"New Jersey","lat":41.08723,"lng":-74.829,"zip":"07877","miles_from_dt":24.32},{"city":"Jersey City","state_name":"New Jersey","lat":40.73152,"lng":-74.06175,"zip":"07308","miles_from_dt":24.35},{"city":"Scotch Plains","state_name":"New Jersey","lat":40.63308,"lng":-74.37387,"zip":"07076","miles_from_dt":24.39},{"city":"Thiells","state_name":"New York","lat":41.20928,"lng":-74.02008,"zip":"10984","miles_from_dt":24.4},{"city":"Weehawken","state_name":"New Jersey","lat":40.76761,"lng":-74.01693,"zip":"07086","miles_from_dt":24.41},{"city":"Liberty Corner","state_name":"New Jersey","lat":40.6647,"lng":-74.57772,"zip":"07938","miles_from_dt":24.44},{"city":"Plainfield","state_name":"New Jersey","lat":40.63174,"lng":-74.40391,"zip":"07062","miles_from_dt":24.5},{"city":"Jersey City","state_name":"New Jersey","lat":40.71741,"lng":-74.07637,"zip":"07304","miles_from_dt":24.55},{"city":"Piermont","state_name":"New York","lat":41.03976,"lng":-73.91804,"zip":"10968","miles_from_dt":24.58},{"city":"Palisades","state_name":"New York","lat":41.01642,"lng":-73.91431,"zip":"10964","miles_from_dt":24.59},{"city":"Elizabeth","state_name":"New Jersey","lat":40.6531,"lng":-74.21677,"zip":"07202","miles_from_dt":24.6},{"city":"Nyack","state_name":"New York","lat":41.08892,"lng":-73.92642,"zip":"10960","miles_from_dt":24.88},{"city":"Monroe","state_name":"New York","lat":41.31919,"lng":-74.19825,"zip":"10950","miles_from_dt":24.9},{"city":"Garnerville","state_name":"New York","lat":41.20265,"lng":-74.00031,"zip":"10923","miles_from_dt":24.93},{"city":"Hoboken","state_name":"New Jersey","lat":40.7451,"lng":-74.02815,"zip":"07030","miles_from_dt":24.96},{"city":"Branchville","state_name":"New Jersey","lat":41.17633,"lng":-74.79042,"zip":"07826","miles_from_dt":24.98},{"city":"Long Valley","state_name":"New Jersey","lat":40.78785,"lng":-74.78315,"zip":"07853","miles_from_dt":25.04},{"city":"Hackettstown","state_name":"New Jersey","lat":40.86034,"lng":-74.83192,"zip":"07840","miles_from_dt":25.06},{"city":"New York","state_name":"New York","lat":40.81085,"lng":-73.96374,"zip":"10115","miles_from_dt":25.08},{"city":"Westtown","state_name":"New York","lat":41.33118,"lng":-74.53989,"zip":"10998","miles_from_dt":25.16},{"city":"New York","state_name":"New York","lat":40.76063,"lng":-74.00545,"zip":"10272","miles_from_dt":25.18},{"city":"New York","state_name":"New York","lat":40.77752,"lng":-73.98875,"zip":"10069","miles_from_dt":25.18},{"city":"New York","state_name":"New York","lat":40.78529,"lng":-73.98154,"zip":"10132","miles_from_dt":25.19},{"city":"New York","state_name":"New York","lat":40.839,"lng":-73.94282,"zip":"10032","miles_from_dt":25.19},{"city":"Valley Cottage","state_name":"New York","lat":41.12479,"lng":-73.93632,"zip":"10989","miles_from_dt":25.21},{"city":"New York","state_name":"New York","lat":40.82485,"lng":-73.95023,"zip":"10031","miles_from_dt":25.25},{"city":"New York","state_name":"New York","lat":40.79825,"lng":-73.96831,"zip":"10025","miles_from_dt":25.3},{"city":"Elizabethport","state_name":"New Jersey","lat":40.65238,"lng":-74.18385,"zip":"07206","miles_from_dt":25.31},{"city":"New York","state_name":"New York","lat":40.84744,"lng":-73.93549,"zip":"10033","miles_from_dt":25.31},{"city":"New York","state_name":"New York","lat":40.85807,"lng":-73.9296,"zip":"10040","miles_from_dt":25.33},{"city":"Jersey City","state_name":"New Jersey","lat":40.69839,"lng":-74.08158,"zip":"07305","miles_from_dt":25.39},{"city":"New York","state_name":"New York","lat":40.86749,"lng":-73.92358,"zip":"10034","miles_from_dt":25.41},{"city":"Warren","state_name":"New Jersey","lat":40.63199,"lng":-74.51463,"zip":"07059","miles_from_dt":25.41},{"city":"Yonkers","state_name":"New York","lat":40.93258,"lng":-73.90225,"zip":"10702","miles_from_dt":25.42},{"city":"New York","state_name":"New York","lat":40.77699,"lng":-73.98352,"zip":"10133","miles_from_dt":25.43},{"city":"New York","state_name":"New York","lat":40.81187,"lng":-73.95459,"zip":"10027","miles_from_dt":25.46},{"city":"New York","state_name":"New York","lat":40.81426,"lng":-73.95256,"zip":"10116","miles_from_dt":25.48},{"city":"New York","state_name":"New York","lat":40.75489,"lng":-74.00397,"zip":"10130","miles_from_dt":25.49},{"city":"Jersey City","state_name":"New Jersey","lat":40.72893,"lng":-74.03391,"zip":"07310","miles_from_dt":25.5},{"city":"Middleville","state_name":"New Jersey","lat":41.05443,"lng":-74.86272,"zip":"07855","miles_from_dt":25.51},{"city":"Clark","state_name":"New Jersey","lat":40.62061,"lng":-74.31335,"zip":"07066","miles_from_dt":25.51},{"city":"New York","state_name":"New York","lat":40.76671,"lng":-73.99052,"zip":"10101","miles_from_dt":25.55},{"city":"New York","state_name":"New York","lat":40.76822,"lng":-73.98795,"zip":"10107","miles_from_dt":25.59},{"city":"Jersey City","state_name":"New Jersey","lat":40.71894,"lng":-74.04462,"zip":"07302","miles_from_dt":25.6},{"city":"Bronx","state_name":"New York","lat":40.90002,"lng":-73.9067,"zip":"10471","miles_from_dt":25.63},{"city":"New York","state_name":"New York","lat":40.78534,"lng":-73.97138,"zip":"10024","miles_from_dt":25.64},{"city":"Jersey City","state_name":"New Jersey","lat":40.71765,"lng":-74.0453,"zip":"07303","miles_from_dt":25.64},{"city":"Plainfield","state_name":"New Jersey","lat":40.61606,"lng":-74.42164,"zip":"07060","miles_from_dt":25.64},{"city":"Plainfield","state_name":"New Jersey","lat":40.61505,"lng":-74.41449,"zip":"07061","miles_from_dt":25.68},{"city":"New York","state_name":"New York","lat":40.75319,"lng":-74.00088,"zip":"10125","miles_from_dt":25.69},{"city":"Monroe","state_name":"New York","lat":41.33,"lng":-74.19219,"zip":"10949","miles_from_dt":25.71},{"city":"New York","state_name":"New York","lat":40.77464,"lng":-73.97836,"zip":"10023","miles_from_dt":25.74},{"city":"Chester","state_name":"New York","lat":41.34816,"lng":-74.25828,"zip":"10918","miles_from_dt":25.79},{"city":"New York","state_name":"New York","lat":40.75876,"lng":-73.99262,"zip":"10108","miles_from_dt":25.79},{"city":"New York","state_name":"New York","lat":40.81826,"lng":-73.94283,"zip":"10030","miles_from_dt":25.8},{"city":"New York","state_name":"New York","lat":40.76586,"lng":-73.9853,"zip":"10019","miles_from_dt":25.8},{"city":"New York","state_name":"New York","lat":40.82631,"lng":-73.93752,"zip":"10039","miles_from_dt":25.81},{"city":"New York","state_name":"New York","lat":40.80302,"lng":-73.95348,"zip":"10026","miles_from_dt":25.81},{"city":"New York","state_name":"New York","lat":40.75016,"lng":-74.00084,"zip":"10123","miles_from_dt":25.82},{"city":"New York","state_name":"New York","lat":40.75976,"lng":-73.99064,"zip":"10036","miles_from_dt":25.83},{"city":"New York","state_name":"New York","lat":40.76652,"lng":-73.98378,"zip":"10106","miles_from_dt":25.84},{"city":"New York","state_name":"New York","lat":40.76071,"lng":-73.98937,"zip":"10109","miles_from_dt":25.84},{"city":"Johnsonburg","state_name":"New Jersey","lat":40.96694,"lng":-74.87671,"zip":"07846","miles_from_dt":25.85},{"city":"New York","state_name":"New York","lat":40.75482,"lng":-73.99445,"zip":"10090","miles_from_dt":25.88},{"city":"New York","state_name":"New York","lat":40.75748,"lng":-73.99137,"zip":"10185","miles_from_dt":25.89},{"city":"New York","state_name":"New York","lat":40.7501,"lng":-73.99887,"zip":"10121","miles_from_dt":25.9},{"city":"New York","state_name":"New York","lat":40.75138,"lng":-73.99715,"zip":"10199","miles_from_dt":25.92},{"city":"Congers","state_name":"New York","lat":41.15477,"lng":-73.9393,"zip":"10920","miles_from_dt":25.92},{"city":"New York","state_name":"New York","lat":40.75536,"lng":-73.99265,"zip":"10018","miles_from_dt":25.93},{"city":"New York","state_name":"New York","lat":40.76496,"lng":-73.98293,"zip":"10102","miles_from_dt":25.94},{"city":"New York","state_name":"New York","lat":40.75064,"lng":-73.99728,"zip":"10001","miles_from_dt":25.94},{"city":"Haverstraw","state_name":"New York","lat":41.19263,"lng":-73.96735,"zip":"10927","miles_from_dt":25.95},{"city":"New York","state_name":"New York","lat":40.75229,"lng":-73.99508,"zip":"10117","miles_from_dt":25.96},{"city":"New York","state_name":"New York","lat":40.75015,"lng":-73.99706,"zip":"10122","miles_from_dt":25.97},{"city":"New York","state_name":"New York","lat":40.74896,"lng":-73.99785,"zip":"10120","miles_from_dt":25.99},{"city":"New York","state_name":"New York","lat":40.74875,"lng":-73.99796,"zip":"10060","miles_from_dt":26},{"city":"New York","state_name":"New York","lat":40.75562,"lng":-73.99045,"zip":"10129","miles_from_dt":26.01},{"city":"New York","state_name":"New York","lat":40.75608,"lng":-73.98919,"zip":"10138","miles_from_dt":26.04},{"city":"Linden","state_name":"New Jersey","lat":40.62526,"lng":-74.23917,"zip":"07036","miles_from_dt":26.04},{"city":"New York","state_name":"New York","lat":40.74883,"lng":-73.99635,"zip":"10118","miles_from_dt":26.06},{"city":"Pottersville","state_name":"New Jersey","lat":40.71225,"lng":-74.72581,"zip":"07979","miles_from_dt":26.09},{"city":"New York","state_name":"New York","lat":40.75064,"lng":-73.99273,"zip":"10119","miles_from_dt":26.13},{"city":"Bayonne","state_name":"New Jersey","lat":40.66681,"lng":-74.11582,"zip":"07002","miles_from_dt":26.13},{"city":"New York","state_name":"New York","lat":40.74306,"lng":-74.00031,"zip":"10114","miles_from_dt":26.15},{"city":"Bronx","state_name":"New York","lat":40.8378,"lng":-73.92333,"zip":"10452","miles_from_dt":26.16},{"city":"Jersey City","state_name":"New Jersey","lat":40.71878,"lng":-74.02933,"zip":"07311","miles_from_dt":26.16},{"city":"Stillwater","state_name":"New Jersey","lat":41.03594,"lng":-74.87994,"zip":"07875","miles_from_dt":26.2},{"city":"Schooleys Mountain","state_name":"New Jersey","lat":40.80535,"lng":-74.82303,"zip":"07870","miles_from_dt":26.21},{"city":"New York","state_name":"New York","lat":40.74173,"lng":-74.00037,"zip":"10011","miles_from_dt":26.21},{"city":"New York","state_name":"New York","lat":40.81302,"lng":-73.93776,"zip":"10037","miles_from_dt":26.21},{"city":"New York","state_name":"New York","lat":40.74267,"lng":-73.99942,"zip":"10113","miles_from_dt":26.21},{"city":"Bronx","state_name":"New York","lat":40.88841,"lng":-73.89905,"zip":"10463","miles_from_dt":26.21},{"city":"New York","state_name":"New York","lat":40.76436,"lng":-73.97649,"zip":"10151","miles_from_dt":26.23},{"city":"Yonkers","state_name":"New York","lat":40.91929,"lng":-73.88928,"zip":"10705","miles_from_dt":26.24},{"city":"New York","state_name":"New York","lat":40.75917,"lng":-73.98071,"zip":"10020","miles_from_dt":26.27},{"city":"Bronx","state_name":"New York","lat":40.85248,"lng":-73.9133,"zip":"10453","miles_from_dt":26.27},{"city":"West Haverstraw","state_name":"New York","lat":41.21011,"lng":-73.97565,"zip":"10993","miles_from_dt":26.28},{"city":"New York","state_name":"New York","lat":40.76115,"lng":-73.97755,"zip":"10104","miles_from_dt":26.32},{"city":"Yonkers","state_name":"New York","lat":40.95765,"lng":-73.88114,"zip":"10703","miles_from_dt":26.32},{"city":"New York","state_name":"New York","lat":40.73407,"lng":-74.00601,"zip":"10014","miles_from_dt":26.33},{"city":"New York","state_name":"New York","lat":40.76078,"lng":-73.97767,"zip":"10103","miles_from_dt":26.33},{"city":"New York","state_name":"New York","lat":40.75953,"lng":-73.97858,"zip":"10111","miles_from_dt":26.34},{"city":"New York","state_name":"New York","lat":40.75891,"lng":-73.97904,"zip":"10112","miles_from_dt":26.35},{"city":"New York","state_name":"New York","lat":40.75425,"lng":-73.98316,"zip":"10175","miles_from_dt":26.37},{"city":"New York","state_name":"New York","lat":40.76223,"lng":-73.97517,"zip":"10105","miles_from_dt":26.38},{"city":"New York","state_name":"New York","lat":40.7545,"lng":-73.98226,"zip":"10110","miles_from_dt":26.4},{"city":"New York","state_name":"New York","lat":40.79265,"lng":-73.94788,"zip":"10029","miles_from_dt":26.42},{"city":"Yonkers","state_name":"New York","lat":40.94702,"lng":-73.88034,"zip":"10701","miles_from_dt":26.43},{"city":"New York","state_name":"New York","lat":40.76362,"lng":-73.97244,"zip":"10153","miles_from_dt":26.44},{"city":"New York","state_name":"New York","lat":40.75261,"lng":-73.9817,"zip":"10176","miles_from_dt":26.5},{"city":"Plainfield","state_name":"New Jersey","lat":40.60524,"lng":-74.44615,"zip":"07063","miles_from_dt":26.51},{"city":"New York","state_name":"New York","lat":40.75379,"lng":-73.97961,"zip":"10173","miles_from_dt":26.54},{"city":"Bronx","state_name":"New York","lat":40.8681,"lng":-73.89985,"zip":"10468","miles_from_dt":26.57},{"city":"New York","state_name":"New York","lat":40.75947,"lng":-73.97339,"zip":"10043","miles_from_dt":26.57},{"city":"New York","state_name":"New York","lat":40.78562,"lng":-73.94982,"zip":"10131","miles_from_dt":26.58},{"city":"New York","state_name":"New York","lat":40.75481,"lng":-73.97715,"zip":"10166","miles_from_dt":26.6},{"city":"Bronx","state_name":"New York","lat":40.82097,"lng":-73.92383,"zip":"10451","miles_from_dt":26.62},{"city":"New York","state_name":"New York","lat":40.75288,"lng":-73.97856,"zip":"10178","miles_from_dt":26.62},{"city":"New York","state_name":"New York","lat":40.75467,"lng":-73.97643,"zip":"10169","miles_from_dt":26.63},{"city":"New York","state_name":"New York","lat":40.76073,"lng":-73.97053,"zip":"10126","miles_from_dt":26.64},{"city":"New York","state_name":"New York","lat":40.75498,"lng":-73.97589,"zip":"10177","miles_from_dt":26.64},{"city":"New York","state_name":"New York","lat":40.75452,"lng":-73.97631,"zip":"10179","miles_from_dt":26.65},{"city":"New York","state_name":"New York","lat":40.75213,"lng":-73.97872,"zip":"10165","miles_from_dt":26.65},{"city":"New York","state_name":"New York","lat":40.75872,"lng":-73.9718,"zip":"10152","miles_from_dt":26.66},{"city":"New York","state_name":"New York","lat":40.75756,"lng":-73.97293,"zip":"10150","miles_from_dt":26.66},{"city":"New York","state_name":"New York","lat":40.75778,"lng":-73.97249,"zip":"10154","miles_from_dt":26.67},{"city":"Ardsley On Hudson","state_name":"New York","lat":41.02654,"lng":-73.8753,"zip":"10503","miles_from_dt":26.68},{"city":"Rahway","state_name":"New Jersey","lat":40.60765,"lng":-74.28066,"zip":"07065","miles_from_dt":26.68},{"city":"New York","state_name":"New York","lat":40.7559,"lng":-73.97386,"zip":"10171","miles_from_dt":26.69},{"city":"New York","state_name":"New York","lat":40.71843,"lng":-74.01551,"zip":"10277","miles_from_dt":26.7},{"city":"New York","state_name":"New York","lat":40.75527,"lng":-73.97431,"zip":"10172","miles_from_dt":26.7},{"city":"New York","state_name":"New York","lat":40.75465,"lng":-73.97477,"zip":"10167","miles_from_dt":26.71},{"city":"New York","state_name":"New York","lat":40.78151,"lng":-73.95018,"zip":"10128","miles_from_dt":26.72},{"city":"New York","state_name":"New York","lat":40.75584,"lng":-73.97322,"zip":"10087","miles_from_dt":26.72},{"city":"New York","state_name":"New York","lat":40.75152,"lng":-73.97727,"zip":"10164","miles_from_dt":26.73},{"city":"New York","state_name":"New York","lat":40.75263,"lng":-73.97588,"zip":"10170","miles_from_dt":26.74},{"city":"New York","state_name":"New York","lat":40.75145,"lng":-73.9771,"zip":"10168","miles_from_dt":26.74},{"city":"New York","state_name":"New York","lat":40.77342,"lng":-73.95642,"zip":"10075","miles_from_dt":26.75},{"city":"New York","state_name":"New York","lat":40.75966,"lng":-73.96858,"zip":"10055","miles_from_dt":26.76},{"city":"New York","state_name":"New York","lat":40.77643,"lng":-73.95339,"zip":"10028","miles_from_dt":26.76},{"city":"New York","state_name":"New York","lat":40.76472,"lng":-73.96332,"zip":"10065","miles_from_dt":26.78},{"city":"New York","state_name":"New York","lat":40.76963,"lng":-73.95899,"zip":"10021","miles_from_dt":26.78},{"city":"New York","state_name":"New York","lat":40.75417,"lng":-73.97344,"zip":"10259","miles_from_dt":26.78},{"city":"New York","state_name":"New York","lat":40.75705,"lng":-73.97034,"zip":"10124","miles_from_dt":26.79},{"city":"New York","state_name":"New York","lat":40.74624,"lng":-73.98092,"zip":"10156","miles_from_dt":26.8},{"city":"New York","state_name":"New York","lat":40.71655,"lng":-74.01495,"zip":"10282","miles_from_dt":26.81},{"city":"New York","state_name":"New York","lat":40.75144,"lng":-73.975,"zip":"10174","miles_from_dt":26.83},{"city":"New York","state_name":"New York","lat":40.76076,"lng":-73.96574,"zip":"10155","miles_from_dt":26.84},{"city":"New York","state_name":"New York","lat":40.75856,"lng":-73.96787,"zip":"10022","miles_from_dt":26.84},{"city":"Hastings On Hudson","state_name":"New York","lat":40.99047,"lng":-73.86951,"zip":"10706","miles_from_dt":26.85},{"city":"New York","state_name":"New York","lat":40.75034,"lng":-73.97534,"zip":"10261","miles_from_dt":26.86},{"city":"New York","state_name":"New York","lat":40.71309,"lng":-74.01788,"zip":"10080","miles_from_dt":26.87},{"city":"New York","state_name":"New York","lat":40.71668,"lng":-74.01293,"zip":"10281","miles_from_dt":26.88},{"city":"New York","state_name":"New York","lat":40.75235,"lng":-73.9726,"zip":"10017","miles_from_dt":26.89},{"city":"Staten Island","state_name":"New York","lat":40.63223,"lng":-74.16903,"zip":"10303","miles_from_dt":26.89},{"city":"Central Valley","state_name":"New York","lat":41.31851,"lng":-74.11094,"zip":"10917","miles_from_dt":26.95},{"city":"New York","state_name":"New York","lat":40.74515,"lng":-73.97807,"zip":"10016","miles_from_dt":26.97},{"city":"Johnson","state_name":"New York","lat":41.36527,"lng":-74.51106,"zip":"10933","miles_from_dt":26.98},{"city":"New York","state_name":"New York","lat":40.75501,"lng":-73.96779,"zip":"10163","miles_from_dt":26.98},{"city":"New York","state_name":"New York","lat":40.73911,"lng":-73.98386,"zip":"10160","miles_from_dt":26.99},{"city":"New York","state_name":"New York","lat":40.73856,"lng":-73.98433,"zip":"10159","miles_from_dt":27},{"city":"New Hampton","state_name":"New York","lat":41.3764,"lng":-74.42881,"zip":"10958","miles_from_dt":27.01},{"city":"New York","state_name":"New York","lat":40.75522,"lng":-73.96696,"zip":"10158","miles_from_dt":27.01},{"city":"New York","state_name":"New York","lat":40.73395,"lng":-73.98919,"zip":"10276","miles_from_dt":27.01},{"city":"New York","state_name":"New York","lat":40.72001,"lng":-74.00472,"zip":"10013","miles_from_dt":27.04},{"city":"New York","state_name":"New York","lat":40.7256,"lng":-73.99794,"zip":"10012","miles_from_dt":27.04},{"city":"New York","state_name":"New York","lat":40.71844,"lng":-74.00634,"zip":"10213","miles_from_dt":27.05},{"city":"New York","state_name":"New York","lat":40.73899,"lng":-73.98243,"zip":"10010","miles_from_dt":27.06},{"city":"New York","state_name":"New York","lat":40.74396,"lng":-73.97719,"zip":"10157","miles_from_dt":27.06},{"city":"New York","state_name":"New York","lat":40.73177,"lng":-73.98995,"zip":"10211","miles_from_dt":27.07},{"city":"New York","state_name":"New York","lat":40.71518,"lng":-74.00947,"zip":"10242","miles_from_dt":27.08},{"city":"New York","state_name":"New York","lat":40.71081,"lng":-74.01524,"zip":"10285","miles_from_dt":27.08},{"city":"Pluckemin","state_name":"New Jersey","lat":40.64409,"lng":-74.63553,"zip":"07978","miles_from_dt":27.08},{"city":"New York","state_name":"New York","lat":40.70985,"lng":-74.01651,"zip":"10280","miles_from_dt":27.08},{"city":"Bronx","state_name":"New York","lat":40.83064,"lng":-73.90812,"zip":"10456","miles_from_dt":27.09},{"city":"New York","state_name":"New York","lat":40.73184,"lng":-73.98915,"zip":"10003","miles_from_dt":27.1},{"city":"Goshen","state_name":"New York","lat":41.3788,"lng":-74.3512,"zip":"10924","miles_from_dt":27.13},{"city":"New York","state_name":"New York","lat":40.71473,"lng":-74.00856,"zip":"10249","miles_from_dt":27.14},{"city":"New York","state_name":"New York","lat":40.71193,"lng":-74.01181,"zip":"10203","miles_from_dt":27.15},{"city":"Dunellen","state_name":"New Jersey","lat":40.5999,"lng":-74.47979,"zip":"08812","miles_from_dt":27.15},{"city":"Dobbs Ferry","state_name":"New York","lat":41.01221,"lng":-73.8646,"zip":"10522","miles_from_dt":27.16},{"city":"New York","state_name":"New York","lat":40.71313,"lng":-74.01013,"zip":"10212","miles_from_dt":27.16},{"city":"New York","state_name":"New York","lat":40.79538,"lng":-73.92965,"zip":"10035","miles_from_dt":27.16},{"city":"Bronx","state_name":"New York","lat":40.84571,"lng":-73.89794,"zip":"10457","miles_from_dt":27.19},{"city":"New York","state_name":"New York","lat":40.76936,"lng":-73.94986,"zip":"10162","miles_from_dt":27.19},{"city":"New York","state_name":"New York","lat":40.71387,"lng":-74.00792,"zip":"10007","miles_from_dt":27.2},{"city":"New York","state_name":"New York","lat":40.70949,"lng":-74.01306,"zip":"10006","miles_from_dt":27.22},{"city":"New York","state_name":"New York","lat":40.71372,"lng":-74.00756,"zip":"10258","miles_from_dt":27.23},{"city":"New York","state_name":"New York","lat":40.71263,"lng":-74.00867,"zip":"10279","miles_from_dt":27.24},{"city":"New York","state_name":"New York","lat":40.70764,"lng":-74.01352,"zip":"10041","miles_from_dt":27.3},{"city":"New York","state_name":"New York","lat":40.71513,"lng":-74.00373,"zip":"10278","miles_from_dt":27.3},{"city":"New York","state_name":"New York","lat":40.71222,"lng":-74.00697,"zip":"10008","miles_from_dt":27.32},{"city":"Bronx","state_name":"New York","lat":40.86249,"lng":-73.88643,"zip":"10458","miles_from_dt":27.36},{"city":"New York","state_name":"New York","lat":40.70844,"lng":-74.01033,"zip":"10271","miles_from_dt":27.38},{"city":"Vienna","state_name":"New Jersey","lat":40.874,"lng":-74.88503,"zip":"07880","miles_from_dt":27.39},{"city":"New York","state_name":"New York","lat":40.70694,"lng":-74.01157,"zip":"10268","miles_from_dt":27.4},{"city":"Bronx","state_name":"New York","lat":40.8056,"lng":-73.91664,"zip":"10454","miles_from_dt":27.42},{"city":"Colonia","state_name":"New Jersey","lat":40.59255,"lng":-74.31479,"zip":"07067","miles_from_dt":27.42},{"city":"New York","state_name":"New York","lat":40.70592,"lng":-74.01239,"zip":"10274","miles_from_dt":27.42},{"city":"New York","state_name":"New York","lat":40.71042,"lng":-74.00616,"zip":"10081","miles_from_dt":27.44},{"city":"New York","state_name":"New York","lat":40.70623,"lng":-74.0109,"zip":"10256","miles_from_dt":27.46},{"city":"New York","state_name":"New York","lat":40.76209,"lng":-73.94981,"zip":"10044","miles_from_dt":27.47},{"city":"New York","state_name":"New York","lat":40.71105,"lng":-74.00335,"zip":"10273","miles_from_dt":27.51},{"city":"New York","state_name":"New York","lat":40.70311,"lng":-74.01332,"zip":"10265","miles_from_dt":27.52},{"city":"Bronx","state_name":"New York","lat":40.8148,"lng":-73.90862,"zip":"10455","miles_from_dt":27.52},{"city":"Bedminster","state_name":"New Jersey","lat":40.65599,"lng":-74.6771,"zip":"07921","miles_from_dt":27.53},{"city":"New York","state_name":"New York","lat":40.70314,"lng":-74.01279,"zip":"10260","miles_from_dt":27.54},{"city":"New York","state_name":"New York","lat":40.70614,"lng":-74.00862,"zip":"10005","miles_from_dt":27.55},{"city":"New York","state_name":"New York","lat":40.70188,"lng":-74.01397,"zip":"10275","miles_from_dt":27.56},{"city":"New York","state_name":"New York","lat":40.7057,"lng":-74.00797,"zip":"10286","miles_from_dt":27.6},{"city":"New York","state_name":"New York","lat":40.70914,"lng":-74.00298,"zip":"10038","miles_from_dt":27.62},{"city":"Yonkers","state_name":"New York","lat":40.91911,"lng":-73.86187,"zip":"10704","miles_from_dt":27.66},{"city":"Bronx","state_name":"New York","lat":40.89598,"lng":-73.86805,"zip":"10470","miles_from_dt":27.66},{"city":"New York","state_name":"New York","lat":40.70187,"lng":-74.01018,"zip":"10269","miles_from_dt":27.7},{"city":"Staten Island","state_name":"New York","lat":40.63055,"lng":-74.13776,"zip":"10302","miles_from_dt":27.72},{"city":"New York","state_name":"New York","lat":40.70336,"lng":-74.00749,"zip":"10270","miles_from_dt":27.73},{"city":"New York","state_name":"New York","lat":40.72639,"lng":-73.97865,"zip":"10009","miles_from_dt":27.76},{"city":"New York","state_name":"New York","lat":40.69431,"lng":-74.01835,"zip":"10004","miles_from_dt":27.78},{"city":"Long Island City","state_name":"New York","lat":40.7463,"lng":-73.95699,"zip":"11109","miles_from_dt":27.8},{"city":"Irvington","state_name":"New York","lat":41.03826,"lng":-73.8556,"zip":"10533","miles_from_dt":27.8},{"city":"Bronx","state_name":"New York","lat":40.87522,"lng":-73.872,"zip":"10467","miles_from_dt":27.82},{"city":"Slate Hill","state_name":"New York","lat":41.38442,"lng":-74.47566,"zip":"10973","miles_from_dt":27.88},{"city":"New York","state_name":"New York","lat":40.71597,"lng":-73.98692,"zip":"10002","miles_from_dt":27.91},{"city":"Bronx","state_name":"New York","lat":40.82572,"lng":-73.89295,"zip":"10459","miles_from_dt":27.95},{"city":"Yonkers","state_name":"New York","lat":40.96732,"lng":-73.84739,"zip":"10710","miles_from_dt":28.04},{"city":"Long Island City","state_name":"New York","lat":40.74724,"lng":-73.94935,"zip":"11120","miles_from_dt":28.08},{"city":"Montague","state_name":"New Jersey","lat":41.28918,"lng":-74.74351,"zip":"07827","miles_from_dt":28.11},{"city":"Staten Island","state_name":"New York","lat":40.63243,"lng":-74.11653,"zip":"10310","miles_from_dt":28.14},{"city":"Astoria","state_name":"New York","lat":40.77161,"lng":-73.92619,"zip":"11102","miles_from_dt":28.15},{"city":"New York","state_name":"New York","lat":40.69086,"lng":-74.0119,"zip":"10045","miles_from_dt":28.18},{"city":"Bronx","state_name":"New York","lat":40.84273,"lng":-73.87891,"zip":"10460","miles_from_dt":28.19},{"city":"Oldwick","state_name":"New Jersey","lat":40.67903,"lng":-74.73748,"zip":"08858","miles_from_dt":28.2},{"city":"Edison","state_name":"New Jersey","lat":40.57725,"lng":-74.36599,"zip":"08820","miles_from_dt":28.25},{"city":"Astoria","state_name":"New York","lat":40.76191,"lng":-73.93169,"zip":"11106","miles_from_dt":28.27},{"city":"Martinsville","state_name":"New Jersey","lat":40.59705,"lng":-74.55446,"zip":"08836","miles_from_dt":28.33},{"city":"Ardsley","state_name":"New York","lat":41.01126,"lng":-73.8409,"zip":"10502","miles_from_dt":28.39},{"city":"Staten Island","state_name":"New York","lat":40.60523,"lng":-74.17956,"zip":"10311","miles_from_dt":28.39},{"city":"Great Meadows","state_name":"New Jersey","lat":40.88925,"lng":-74.91042,"zip":"07838","miles_from_dt":28.4},{"city":"Avenel","state_name":"New Jersey","lat":40.58342,"lng":-74.26992,"zip":"07001","miles_from_dt":28.44},{"city":"South Plainfield","state_name":"New Jersey","lat":40.57483,"lng":-74.41542,"zip":"07080","miles_from_dt":28.45},{"city":"Califon","state_name":"New Jersey","lat":40.72099,"lng":-74.80033,"zip":"07830","miles_from_dt":28.52},{"city":"Long Island City","state_name":"New York","lat":40.74679,"lng":-73.93916,"zip":"11101","miles_from_dt":28.53},{"city":"Brooklyn","state_name":"New York","lat":40.69663,"lng":-73.99385,"zip":"11241","miles_from_dt":28.56},{"city":"Tomkins Cove","state_name":"New York","lat":41.27917,"lng":-73.99445,"zip":"10986","miles_from_dt":28.62},{"city":"Astoria","state_name":"New York","lat":40.779,"lng":-73.90652,"zip":"11105","miles_from_dt":28.77},{"city":"Bronx","state_name":"New York","lat":40.81061,"lng":-73.8846,"zip":"10474","miles_from_dt":28.78},{"city":"Brooklyn","state_name":"New York","lat":40.69477,"lng":-73.99031,"zip":"11201","miles_from_dt":28.79},{"city":"Tarrytown","state_name":"New York","lat":41.08436,"lng":-73.84653,"zip":"10591","miles_from_dt":28.83},{"city":"Bronx","state_name":"New York","lat":40.89104,"lng":-73.8461,"zip":"10466","miles_from_dt":28.86},{"city":"Layton","state_name":"New Jersey","lat":41.19883,"lng":-74.85923,"zip":"07851","miles_from_dt":28.86},{"city":"Brooklyn","state_name":"New York","lat":40.6924,"lng":-73.99116,"zip":"11202","miles_from_dt":28.87},{"city":"Carteret","state_name":"New Jersey","lat":40.58489,"lng":-74.2284,"zip":"07008","miles_from_dt":28.87},{"city":"Verplanck","state_name":"New York","lat":41.25552,"lng":-73.95854,"zip":"10596","miles_from_dt":28.9},{"city":"Brooklyn","state_name":"New York","lat":40.72862,"lng":-73.94764,"zip":"11222","miles_from_dt":28.93},{"city":"Staten Island","state_name":"New York","lat":40.62803,"lng":-74.09564,"zip":"10301","miles_from_dt":28.96},{"city":"Brooklyn","state_name":"New York","lat":40.69209,"lng":-73.98882,"zip":"11242","miles_from_dt":28.97},{"city":"Iselin","state_name":"New Jersey","lat":40.56964,"lng":-74.31719,"zip":"08830","miles_from_dt":28.97},{"city":"Bronx","state_name":"New York","lat":40.82968,"lng":-73.86942,"zip":"10472","miles_from_dt":28.98},{"city":"Staten Island","state_name":"New York","lat":40.60086,"lng":-74.16306,"zip":"10314","miles_from_dt":29},{"city":"Staten Island","state_name":"New York","lat":40.61483,"lng":-74.12436,"zip":"10313","miles_from_dt":29.01},{"city":"Brooklyn","state_name":"New York","lat":40.69315,"lng":-73.98587,"zip":"11245","miles_from_dt":29.03},{"city":"Bronxville","state_name":"New York","lat":40.9379,"lng":-73.83167,"zip":"10708","miles_from_dt":29.03},{"city":"Astoria","state_name":"New York","lat":40.76261,"lng":-73.91334,"zip":"11103","miles_from_dt":29.05},{"city":"Brooklyn","state_name":"New York","lat":40.71121,"lng":-73.96318,"zip":"11249","miles_from_dt":29.06},{"city":"Middlesex","state_name":"New Jersey","lat":40.57439,"lng":-74.5011,"zip":"08846","miles_from_dt":29.1},{"city":"Brooklyn","state_name":"New York","lat":40.67603,"lng":-74.00644,"zip":"11231","miles_from_dt":29.13},{"city":"Bronx","state_name":"New York","lat":40.84297,"lng":-73.85873,"zip":"10462","miles_from_dt":29.18},{"city":"Mount Vernon","state_name":"New York","lat":40.90627,"lng":-73.8351,"zip":"10550","miles_from_dt":29.2},{"city":"Bronx","state_name":"New York","lat":40.86851,"lng":-73.84666,"zip":"10469","miles_from_dt":29.23},{"city":"Brooklyn","state_name":"New York","lat":40.70243,"lng":-73.96741,"zip":"11251","miles_from_dt":29.3},{"city":"Tuckahoe","state_name":"New York","lat":40.95961,"lng":-73.82291,"zip":"10707","miles_from_dt":29.35},{"city":"Montrose","state_name":"New York","lat":41.24599,"lng":-73.93643,"zip":"10548","miles_from_dt":29.39},{"city":"Sunnyside","state_name":"New York","lat":40.74484,"lng":-73.92049,"zip":"11104","miles_from_dt":29.41},{"city":"Croton On Hudson","state_name":"New York","lat":41.23452,"lng":-73.92434,"zip":"10521","miles_from_dt":29.43},{"city":"Mount Vernon","state_name":"New York","lat":40.92376,"lng":-73.82497,"zip":"10552","miles_from_dt":29.51},{"city":"Brooklyn","state_name":"New York","lat":40.69654,"lng":-73.96807,"zip":"11205","miles_from_dt":29.55},{"city":"Port Jervis","state_name":"New York","lat":41.37394,"lng":-74.62429,"zip":"12771","miles_from_dt":29.55},{"city":"Brooklyn","state_name":"New York","lat":40.71428,"lng":-73.94602,"zip":"11211","miles_from_dt":29.61},{"city":"Port Reading","state_name":"New Jersey","lat":40.56865,"lng":-74.2464,"zip":"07064","miles_from_dt":29.71},{"city":"East Elmhurst","state_name":"New York","lat":40.77554,"lng":-73.88766,"zip":"11370","miles_from_dt":29.75},{"city":"Bound Brook","state_name":"New Jersey","lat":40.57165,"lng":-74.53783,"zip":"08805","miles_from_dt":29.75},{"city":"Brooklyn","state_name":"New York","lat":40.68242,"lng":-73.97943,"zip":"11217","miles_from_dt":29.79},{"city":"Bronx","state_name":"New York","lat":40.81817,"lng":-73.85889,"zip":"10473","miles_from_dt":29.8},{"city":"Buchanan","state_name":"New York","lat":41.26302,"lng":-73.94391,"zip":"10511","miles_from_dt":29.82},{"city":"Mount Vernon","state_name":"New York","lat":40.90173,"lng":-73.82394,"zip":"10551","miles_from_dt":29.83},{"city":"Highland Mills","state_name":"New York","lat":41.3667,"lng":-74.11035,"zip":"10930","miles_from_dt":29.84},{"city":"Brooklyn","state_name":"New York","lat":40.67997,"lng":-73.98143,"zip":"11243","miles_from_dt":29.84},{"city":"Mount Vernon","state_name":"New York","lat":40.90858,"lng":-73.82161,"zip":"10553","miles_from_dt":29.86},{"city":"Bridgewater","state_name":"New Jersey","lat":40.59241,"lng":-74.6202,"zip":"08807","miles_from_dt":29.9},{"city":"White Plains","state_name":"New York","lat":41.02248,"lng":-73.81261,"zip":"10610","miles_from_dt":29.92},{"city":"Elmsford","state_name":"New York","lat":41.06005,"lng":-73.81859,"zip":"10523","miles_from_dt":29.93},{"city":"Bronx","state_name":"New York","lat":40.84671,"lng":-73.84079,"zip":"10461","miles_from_dt":29.98}],"targetCityZipCode":"07405","targetCityState":"New Jersey"},"__N_SSG":true}