{"pageProps":{"stateName":"New-jersey","cityName":"deerfield-street","nearbyCities":[{"city":"Elmer","state_name":"New Jersey","lat":39.55657,"lng":-75.17776,"zip":"08318","miles_from_dt":3.36},{"city":"Shiloh","state_name":"New Jersey","lat":39.45954,"lng":-75.29695,"zip":"08353","miles_from_dt":6.04},{"city":"Bridgeton","state_name":"New Jersey","lat":39.4397,"lng":-75.2616,"zip":"08302","miles_from_dt":6.48},{"city":"Rosenhayn","state_name":"New Jersey","lat":39.47545,"lng":-75.12724,"zip":"08352","miles_from_dt":6.73},{"city":"Alloway","state_name":"New Jersey","lat":39.55423,"lng":-75.35683,"zip":"08001","miles_from_dt":6.91},{"city":"Norma","state_name":"New Jersey","lat":39.49378,"lng":-75.08778,"zip":"08347","miles_from_dt":8.07},{"city":"Monroeville","state_name":"New Jersey","lat":39.64057,"lng":-75.1699,"zip":"08343","miles_from_dt":8.26},{"city":"Woodstown","state_name":"New Jersey","lat":39.63934,"lng":-75.3316,"zip":"08098","miles_from_dt":9.22},{"city":"Malaga","state_name":"New Jersey","lat":39.5797,"lng":-75.06015,"zip":"08328","miles_from_dt":9.73},{"city":"Quinton","state_name":"New Jersey","lat":39.54495,"lng":-75.41258,"zip":"08072","miles_from_dt":9.75},{"city":"Fairton","state_name":"New Jersey","lat":39.3851,"lng":-75.16059,"zip":"08320","miles_from_dt":10.72},{"city":"Salem","state_name":"New Jersey","lat":39.54284,"lng":-75.43184,"zip":"08079","miles_from_dt":10.76},{"city":"Harrisonville","state_name":"New Jersey","lat":39.68662,"lng":-75.27661,"zip":"08039","miles_from_dt":11.03},{"city":"Greenwich","state_name":"New Jersey","lat":39.39557,"lng":-75.36605,"zip":"08323","miles_from_dt":11.79},{"city":"Ewan","state_name":"New Jersey","lat":39.69757,"lng":-75.18274,"zip":"08025","miles_from_dt":11.8},{"city":"Clayton","state_name":"New Jersey","lat":39.66143,"lng":-75.08375,"zip":"08312","miles_from_dt":11.97},{"city":"Franklinville","state_name":"New Jersey","lat":39.61463,"lng":-75.03385,"zip":"08322","miles_from_dt":12.02},{"city":"Vineland","state_name":"New Jersey","lat":39.49374,"lng":-75.00352,"zip":"08360","miles_from_dt":12.42},{"city":"Glassboro","state_name":"New Jersey","lat":39.69336,"lng":-75.11949,"zip":"08028","miles_from_dt":12.7},{"city":"Mullica Hill","state_name":"New Jersey","lat":39.71465,"lng":-75.22124,"zip":"08062","miles_from_dt":12.7},{"city":"Newfield","state_name":"New Jersey","lat":39.56707,"lng":-74.99185,"zip":"08344","miles_from_dt":13.02},{"city":"Richwood","state_name":"New Jersey","lat":39.71289,"lng":-75.16379,"zip":"08074","miles_from_dt":13.07},{"city":"Vineland","state_name":"New Jersey","lat":39.46556,"lng":-74.9992,"zip":"08362","miles_from_dt":13.18},{"city":"Cedarville","state_name":"New Jersey","lat":39.32685,"lng":-75.20804,"zip":"08311","miles_from_dt":14.11},{"city":"Hancocks Bridge","state_name":"New Jersey","lat":39.47391,"lng":-75.48852,"zip":"08038","miles_from_dt":14.31},{"city":"Pitman","state_name":"New Jersey","lat":39.73227,"lng":-75.13457,"zip":"08071","miles_from_dt":14.83},{"city":"Minotola","state_name":"New Jersey","lat":39.52002,"lng":-74.9524,"zip":"08341","miles_from_dt":14.9},{"city":"Millville","state_name":"New Jersey","lat":39.3705,"lng":-75.0293,"zip":"08332","miles_from_dt":15.44},{"city":"Vineland","state_name":"New Jersey","lat":39.44843,"lng":-74.95943,"zip":"08361","miles_from_dt":15.59},{"city":"Pennsville","state_name":"New Jersey","lat":39.62494,"lng":-75.50902,"zip":"08070","miles_from_dt":16.2},{"city":"Landisville","state_name":"New Jersey","lat":39.53847,"lng":-74.92761,"zip":"08326","miles_from_dt":16.22},{"city":"Swedesboro","state_name":"New Jersey","lat":39.75579,"lng":-75.33017,"zip":"08085","miles_from_dt":16.41},{"city":"Williamstown","state_name":"New Jersey","lat":39.65096,"lng":-74.96529,"zip":"08094","miles_from_dt":16.43},{"city":"Penns Grove","state_name":"New Jersey","lat":39.70209,"lng":-75.4501,"zip":"08069","miles_from_dt":16.63},{"city":"Sewell","state_name":"New Jersey","lat":39.75714,"lng":-75.11801,"zip":"08080","miles_from_dt":16.75},{"city":"Pedricktown","state_name":"New Jersey","lat":39.7388,"lng":-75.41281,"zip":"08067","miles_from_dt":17.33},{"city":"Newport","state_name":"New Jersey","lat":39.28816,"lng":-75.14668,"zip":"08345","miles_from_dt":17.33},{"city":"Mickleton","state_name":"New Jersey","lat":39.78355,"lng":-75.25155,"zip":"08056","miles_from_dt":17.48},{"city":"Buena","state_name":"New Jersey","lat":39.52723,"lng":-74.89769,"zip":"08310","miles_from_dt":17.81},{"city":"Mantua","state_name":"New Jersey","lat":39.78583,"lng":-75.17903,"zip":"08051","miles_from_dt":17.82},{"city":"Deepwater","state_name":"New Jersey","lat":39.68825,"lng":-75.49761,"zip":"08023","miles_from_dt":17.91},{"city":"Clarksboro","state_name":"New Jersey","lat":39.79674,"lng":-75.22271,"zip":"08020","miles_from_dt":18.36},{"city":"Mount Royal","state_name":"New Jersey","lat":39.80459,"lng":-75.207,"zip":"08061","miles_from_dt":18.94},{"city":"Wenonah","state_name":"New Jersey","lat":39.79777,"lng":-75.14849,"zip":"08090","miles_from_dt":18.95},{"city":"Dividing Creek","state_name":"New Jersey","lat":39.26969,"lng":-75.10486,"zip":"08315","miles_from_dt":19.23},{"city":"Richland","state_name":"New Jersey","lat":39.49134,"lng":-74.87413,"zip":"08350","miles_from_dt":19.26},{"city":"Delaware City","state_name":"Delaware","lat":39.5715,"lng":-75.5905,"zip":"19706","miles_from_dt":19.41},{"city":"Grenloch","state_name":"New Jersey","lat":39.78048,"lng":-75.05952,"zip":"08032","miles_from_dt":19.51},{"city":"Port Penn","state_name":"Delaware","lat":39.5102,"lng":-75.59616,"zip":"19731","miles_from_dt":19.56},{"city":"Sicklerville","state_name":"New Jersey","lat":39.73421,"lng":-74.97564,"zip":"08081","miles_from_dt":19.57},{"city":"Blackwood","state_name":"New Jersey","lat":39.78409,"lng":-75.05586,"zip":"08012","miles_from_dt":19.82},{"city":"Newtonville","state_name":"New Jersey","lat":39.56926,"lng":-74.85827,"zip":"08346","miles_from_dt":20.08},{"city":"Woodbury Heights","state_name":"New Jersey","lat":39.81571,"lng":-75.15117,"zip":"08097","miles_from_dt":20.12},{"city":"New Castle","state_name":"Delaware","lat":39.66366,"lng":-75.5682,"zip":"19721","miles_from_dt":20.2},{"city":"Port Norris","state_name":"New Jersey","lat":39.266,"lng":-75.06337,"zip":"08349","miles_from_dt":20.34},{"city":"Milmay","state_name":"New Jersey","lat":39.40087,"lng":-74.88407,"zip":"08340","miles_from_dt":20.6},{"city":"Port Elizabeth","state_name":"New Jersey","lat":39.31381,"lng":-74.96594,"zip":"08348","miles_from_dt":20.61},{"city":"Bridgeport","state_name":"New Jersey","lat":39.81186,"lng":-75.36286,"zip":"08014","miles_from_dt":20.63},{"city":"Mauricetown","state_name":"New Jersey","lat":39.2857,"lng":-75.00338,"zip":"08329","miles_from_dt":20.83},{"city":"Gibbstown","state_name":"New Jersey","lat":39.82883,"lng":-75.29345,"zip":"08027","miles_from_dt":20.84},{"city":"Paulsboro","state_name":"New Jersey","lat":39.83475,"lng":-75.23017,"zip":"08066","miles_from_dt":20.98},{"city":"Wilmington","state_name":"Delaware","lat":39.72894,"lng":-75.53734,"zip":"19850","miles_from_dt":21.31},{"city":"Woodbury","state_name":"New Jersey","lat":39.82921,"lng":-75.12871,"zip":"08096","miles_from_dt":21.31},{"city":"Wilmington","state_name":"Delaware","lat":39.75801,"lng":-75.50218,"zip":"19809","miles_from_dt":21.34},{"city":"Mizpah","state_name":"New Jersey","lat":39.48808,"lng":-74.83431,"zip":"08342","miles_from_dt":21.4},{"city":"Wilmington","state_name":"Delaware","lat":39.73018,"lng":-75.53862,"zip":"19880","miles_from_dt":21.42},{"city":"Winslow","state_name":"New Jersey","lat":39.64514,"lng":-74.85576,"zip":"08095","miles_from_dt":21.53},{"city":"Cedar Brook","state_name":"New Jersey","lat":39.71074,"lng":-74.9013,"zip":"08018","miles_from_dt":21.54},{"city":"New Castle","state_name":"Delaware","lat":39.645,"lng":-75.60678,"zip":"19720","miles_from_dt":21.55},{"city":"Wilmington","state_name":"Delaware","lat":39.72782,"lng":-75.54615,"zip":"19801","miles_from_dt":21.63},{"city":"Fortescue","state_name":"New Jersey","lat":39.21961,"lng":-75.14107,"zip":"08321","miles_from_dt":21.99},{"city":"Wilmington","state_name":"Delaware","lat":39.73563,"lng":-75.54766,"zip":"19899","miles_from_dt":22.03},{"city":"Wilmington","state_name":"Delaware","lat":39.73822,"lng":-75.55029,"zip":"19890","miles_from_dt":22.25},{"city":"Thorofare","state_name":"New Jersey","lat":39.85136,"lng":-75.18582,"zip":"08086","miles_from_dt":22.26},{"city":"Wilmington","state_name":"Delaware","lat":39.75715,"lng":-75.52873,"zip":"19802","miles_from_dt":22.28},{"city":"Wilmington","state_name":"Delaware","lat":39.74325,"lng":-75.54538,"zip":"19884","miles_from_dt":22.28},{"city":"Wilmington","state_name":"Delaware","lat":39.75842,"lng":-75.52771,"zip":"19896","miles_from_dt":22.3},{"city":"Wilmington","state_name":"Delaware","lat":39.74328,"lng":-75.54713,"zip":"19885","miles_from_dt":22.35},{"city":"Wilmington","state_name":"Delaware","lat":39.74245,"lng":-75.54941,"zip":"19898","miles_from_dt":22.4},{"city":"Claymont","state_name":"Delaware","lat":39.8043,"lng":-75.45794,"zip":"19703","miles_from_dt":22.42},{"city":"Wilmington","state_name":"Delaware","lat":39.74384,"lng":-75.54947,"zip":"19895","miles_from_dt":22.47},{"city":"Wilmington","state_name":"Delaware","lat":39.74852,"lng":-75.54409,"zip":"19894","miles_from_dt":22.47},{"city":"Berlin","state_name":"New Jersey","lat":39.76154,"lng":-74.93279,"zip":"08009","miles_from_dt":22.51},{"city":"Wilmington","state_name":"Delaware","lat":39.74827,"lng":-75.54565,"zip":"19886","miles_from_dt":22.52},{"city":"Saint Georges","state_name":"Delaware","lat":39.55928,"lng":-75.65143,"zip":"19733","miles_from_dt":22.54},{"city":"Clementon","state_name":"New Jersey","lat":39.80604,"lng":-75.00025,"zip":"08021","miles_from_dt":22.63},{"city":"Chester","state_name":"Pennsylvania","lat":39.84699,"lng":-75.36099,"zip":"19016","miles_from_dt":22.9},{"city":"Wilmington","state_name":"Delaware","lat":39.6836,"lng":-75.61307,"zip":"19892","miles_from_dt":22.96},{"city":"Wilmington","state_name":"Delaware","lat":39.74769,"lng":-75.55791,"zip":"19893","miles_from_dt":22.98},{"city":"Chester","state_name":"Pennsylvania","lat":39.84529,"lng":-75.37474,"zip":"19013","miles_from_dt":23.02},{"city":"Marcus Hook","state_name":"Pennsylvania","lat":39.82741,"lng":-75.432,"zip":"19061","miles_from_dt":23.11},{"city":"Glendora","state_name":"New Jersey","lat":39.84097,"lng":-75.06717,"zip":"08029","miles_from_dt":23.12},{"city":"Essington","state_name":"Pennsylvania","lat":39.86345,"lng":-75.29271,"zip":"19029","miles_from_dt":23.19},{"city":"Crum Lynne","state_name":"Pennsylvania","lat":39.85862,"lng":-75.33507,"zip":"19022","miles_from_dt":23.3},{"city":"Dorothy","state_name":"New Jersey","lat":39.40398,"lng":-74.82696,"zip":"08317","miles_from_dt":23.31},{"city":"Philadelphia","state_name":"Pennsylvania","lat":39.86679,"lng":-75.27911,"zip":"19113","miles_from_dt":23.33},{"city":"National Park","state_name":"New Jersey","lat":39.86758,"lng":-75.18509,"zip":"08063","miles_from_dt":23.37},{"city":"Westville","state_name":"New Jersey","lat":39.86098,"lng":-75.13265,"zip":"08093","miles_from_dt":23.38},{"city":"Smyrna","state_name":"Delaware","lat":39.29653,"lng":-75.55132,"zip":"19977","miles_from_dt":23.55},{"city":"Dorchester","state_name":"New Jersey","lat":39.28009,"lng":-74.93186,"zip":"08316","miles_from_dt":23.56},{"city":"Odessa","state_name":"Delaware","lat":39.45443,"lng":-75.66077,"zip":"19730","miles_from_dt":23.57},{"city":"Stratford","state_name":"New Jersey","lat":39.82905,"lng":-75.01557,"zip":"08084","miles_from_dt":23.57},{"city":"Runnemede","state_name":"New Jersey","lat":39.85202,"lng":-75.07542,"zip":"08078","miles_from_dt":23.67},{"city":"Wilmington","state_name":"Delaware","lat":39.762,"lng":-75.56336,"zip":"19806","miles_from_dt":23.85},{"city":"Somerdale","state_name":"New Jersey","lat":39.84138,"lng":-75.02867,"zip":"08083","miles_from_dt":24},{"city":"Ridley Park","state_name":"Pennsylvania","lat":39.87328,"lng":-75.32159,"zip":"19078","miles_from_dt":24.13},{"city":"Bellmawr","state_name":"New Jersey","lat":39.86655,"lng":-75.09408,"zip":"08031","miles_from_dt":24.3},{"city":"Middletown","state_name":"Delaware","lat":39.48923,"lng":-75.68314,"zip":"19709","miles_from_dt":24.33},{"city":"Kirkwood","state_name":"Delaware","lat":39.49842,"lng":-75.68489,"zip":"19708","miles_from_dt":24.35},{"city":"Wilmington","state_name":"Delaware","lat":39.74523,"lng":-75.59373,"zip":"19805","miles_from_dt":24.36},{"city":"Philadelphia","state_name":"Pennsylvania","lat":39.88391,"lng":-75.2343,"zip":"19153","miles_from_dt":24.37},{"city":"Leesburg","state_name":"New Jersey","lat":39.25458,"lng":-74.94657,"zip":"08327","miles_from_dt":24.38},{"city":"Wilmington","state_name":"Delaware","lat":39.7166,"lng":-75.62094,"zip":"19804","miles_from_dt":24.44},{"city":"Bellmawr","state_name":"New Jersey","lat":39.86876,"lng":-75.09225,"zip":"08099","miles_from_dt":24.47},{"city":"Woodlyn","state_name":"Pennsylvania","lat":39.87499,"lng":-75.3467,"zip":"19094","miles_from_dt":24.54},{"city":"Magnolia","state_name":"New Jersey","lat":39.85463,"lng":-75.03816,"zip":"08049","miles_from_dt":24.6},{"city":"Townsend","state_name":"Delaware","lat":39.38377,"lng":-75.65026,"zip":"19734","miles_from_dt":24.6},{"city":"Wilmington","state_name":"Delaware","lat":39.81855,"lng":-75.50628,"zip":"19810","miles_from_dt":24.7},{"city":"Norwood","state_name":"Pennsylvania","lat":39.88642,"lng":-75.29643,"zip":"19074","miles_from_dt":24.79},{"city":"Brookhaven","state_name":"Pennsylvania","lat":39.86811,"lng":-75.39164,"zip":"19015","miles_from_dt":24.81},{"city":"Heislerville","state_name":"New Jersey","lat":39.21859,"lng":-74.99999,"zip":"08324","miles_from_dt":24.83},{"city":"Prospect Park","state_name":"Pennsylvania","lat":39.88586,"lng":-75.30763,"zip":"19076","miles_from_dt":24.84},{"city":"Folcroft","state_name":"Pennsylvania","lat":39.88907,"lng":-75.277,"zip":"19032","miles_from_dt":24.85},{"city":"Wilmington","state_name":"Delaware","lat":39.79912,"lng":-75.5422,"zip":"19803","miles_from_dt":24.87},{"city":"Estell Manor","state_name":"New Jersey","lat":39.3645,"lng":-74.81753,"zip":"08319","miles_from_dt":24.91},{"city":"Barrington","state_name":"New Jersey","lat":39.86509,"lng":-75.05379,"zip":"08007","miles_from_dt":24.93},{"city":"Wilmington","state_name":"Delaware","lat":39.79805,"lng":-75.54565,"zip":"19897","miles_from_dt":24.94},{"city":"West Berlin","state_name":"New Jersey","lat":39.80545,"lng":-74.92558,"zip":"08091","miles_from_dt":24.99},{"city":"Philadelphia","state_name":"Pennsylvania","lat":39.88999,"lng":-75.16985,"zip":"19112","miles_from_dt":25},{"city":"Waterford Works","state_name":"New Jersey","lat":39.71591,"lng":-74.82686,"zip":"08089","miles_from_dt":25.07},{"city":"Philadelphia","state_name":"Pennsylvania","lat":39.89154,"lng":-75.16942,"zip":"19185","miles_from_dt":25.11},{"city":"Gibbsboro","state_name":"New Jersey","lat":39.83329,"lng":-74.9657,"zip":"08026","miles_from_dt":25.22},{"city":"Bear","state_name":"Delaware","lat":39.58427,"lng":-75.69914,"zip":"19701","miles_from_dt":25.27},{"city":"Aston","state_name":"Pennsylvania","lat":39.8637,"lng":-75.4338,"zip":"19014","miles_from_dt":25.39},{"city":"Folsom","state_name":"Pennsylvania","lat":39.89077,"lng":-75.32892,"zip":"19033","miles_from_dt":25.39},{"city":"Hammonton","state_name":"New Jersey","lat":39.63272,"lng":-74.77226,"zip":"08037","miles_from_dt":25.48},{"city":"Mount Ephraim","state_name":"New Jersey","lat":39.88462,"lng":-75.09309,"zip":"08059","miles_from_dt":25.5},{"city":"Gloucester City","state_name":"New Jersey","lat":39.89023,"lng":-75.1178,"zip":"08030","miles_from_dt":25.53},{"city":"Lawnside","state_name":"New Jersey","lat":39.86722,"lng":-75.02912,"zip":"08045","miles_from_dt":25.59},{"city":"Haddon Heights","state_name":"New Jersey","lat":39.87914,"lng":-75.06435,"zip":"08035","miles_from_dt":25.63},{"city":"Philadelphia","state_name":"Pennsylvania","lat":39.90264,"lng":-75.24032,"zip":"19176","miles_from_dt":25.67},{"city":"Sharon Hill","state_name":"Pennsylvania","lat":39.90238,"lng":-75.26591,"zip":"19079","miles_from_dt":25.71},{"city":"Holmes","state_name":"Pennsylvania","lat":39.90042,"lng":-75.30891,"zip":"19043","miles_from_dt":25.85},{"city":"Wallingford","state_name":"Pennsylvania","lat":39.89094,"lng":-75.37014,"zip":"19086","miles_from_dt":25.94},{"city":"Glenolden","state_name":"Pennsylvania","lat":39.90368,"lng":-75.29323,"zip":"19036","miles_from_dt":25.95},{"city":"Montchanin","state_name":"Delaware","lat":39.78964,"lng":-75.58458,"zip":"19710","miles_from_dt":25.98},{"city":"Garnet Valley","state_name":"Pennsylvania","lat":39.85048,"lng":-75.4921,"zip":"19060","miles_from_dt":26.09},{"city":"Rockland","state_name":"Delaware","lat":39.80033,"lng":-75.57455,"zip":"19732","miles_from_dt":26.11},{"city":"Holmes","state_name":"Pennsylvania","lat":39.90438,"lng":-75.30854,"zip":"19098","miles_from_dt":26.11},{"city":"Swarthmore","state_name":"Pennsylvania","lat":39.89864,"lng":-75.34751,"zip":"19081","miles_from_dt":26.14},{"city":"Voorhees","state_name":"New Jersey","lat":39.84502,"lng":-74.95492,"zip":"08043","miles_from_dt":26.21},{"city":"Audubon","state_name":"New Jersey","lat":39.89119,"lng":-75.07388,"zip":"08106","miles_from_dt":26.25},{"city":"Morton","state_name":"Pennsylvania","lat":39.90628,"lng":-75.32452,"zip":"19070","miles_from_dt":26.39},{"city":"Atco","state_name":"New Jersey","lat":39.75494,"lng":-74.83007,"zip":"08004","miles_from_dt":26.4},{"city":"Philadelphia","state_name":"Pennsylvania","lat":39.91469,"lng":-75.19194,"zip":"19145","miles_from_dt":26.58},{"city":"Philadelphia","state_name":"Pennsylvania","lat":39.91175,"lng":-75.1514,"zip":"19148","miles_from_dt":26.63},{"city":"Delmont","state_name":"New Jersey","lat":39.21683,"lng":-74.94113,"zip":"08314","miles_from_dt":26.64},{"city":"Darby","state_name":"Pennsylvania","lat":39.91724,"lng":-75.26708,"zip":"19023","miles_from_dt":26.74},{"city":"Wilmington","state_name":"Delaware","lat":39.68227,"lng":-75.69312,"zip":"19891","miles_from_dt":26.79},{"city":"Mays Landing","state_name":"New Jersey","lat":39.4566,"lng":-74.73814,"zip":"08330","miles_from_dt":26.84},{"city":"Philadelphia","state_name":"Pennsylvania","lat":39.92278,"lng":-75.23375,"zip":"19142","miles_from_dt":27.05},{"city":"Haddonfield","state_name":"New Jersey","lat":39.89332,"lng":-75.03723,"zip":"08033","miles_from_dt":27.07},{"city":"Newark","state_name":"Delaware","lat":39.6665,"lng":-75.70752,"zip":"19718","miles_from_dt":27.1},{"city":"Media","state_name":"Pennsylvania","lat":39.90495,"lng":-75.38863,"zip":"19065","miles_from_dt":27.15},{"city":"Oaklyn","state_name":"New Jersey","lat":39.90767,"lng":-75.08344,"zip":"08107","miles_from_dt":27.17},{"city":"Glen Riddle Lima","state_name":"Pennsylvania","lat":39.90513,"lng":-75.38884,"zip":"19037","miles_from_dt":27.17},{"city":"Wilmington","state_name":"Delaware","lat":39.73777,"lng":-75.66596,"zip":"19808","miles_from_dt":27.25},{"city":"Newark","state_name":"Delaware","lat":39.62199,"lng":-75.72803,"zip":"19702","miles_from_dt":27.27},{"city":"Winterthur","state_name":"Delaware","lat":39.80666,"lng":-75.5973,"zip":"19735","miles_from_dt":27.28},{"city":"Clifton Heights","state_name":"Pennsylvania","lat":39.92312,"lng":-75.29834,"zip":"19018","miles_from_dt":27.31},{"city":"Newark","state_name":"Delaware","lat":39.67097,"lng":-75.70972,"zip":"19713","miles_from_dt":27.32},{"city":"Camden","state_name":"New Jersey","lat":39.91672,"lng":-75.11203,"zip":"08104","miles_from_dt":27.38},{"city":"Wilmington","state_name":"Delaware","lat":39.79767,"lng":-75.61284,"zip":"19807","miles_from_dt":27.46},{"city":"Elwood","state_name":"New Jersey","lat":39.57702,"lng":-74.71879,"zip":"08217","miles_from_dt":27.54},{"city":"Chester Heights","state_name":"Pennsylvania","lat":39.89078,"lng":-75.46295,"zip":"19017","miles_from_dt":27.75},{"city":"Lenni","state_name":"Pennsylvania","lat":39.89721,"lng":-75.44532,"zip":"19052","miles_from_dt":27.75},{"city":"Little Creek","state_name":"Delaware","lat":39.16489,"lng":-75.45205,"zip":"19961","miles_from_dt":27.87},{"city":"Yorklyn","state_name":"Delaware","lat":39.78031,"lng":-75.64274,"zip":"19736","miles_from_dt":27.91},{"city":"Dover","state_name":"Delaware","lat":39.17335,"lng":-75.47758,"zip":"19901","miles_from_dt":27.96},{"city":"Collingswood","state_name":"New Jersey","lat":39.91453,"lng":-75.06192,"zip":"08108","miles_from_dt":27.97},{"city":"Cherry Hill","state_name":"New Jersey","lat":39.88334,"lng":-74.97191,"zip":"08003","miles_from_dt":27.98},{"city":"Media","state_name":"Pennsylvania","lat":39.91905,"lng":-75.38738,"zip":"19091","miles_from_dt":28.06},{"city":"Newark","state_name":"Delaware","lat":39.68293,"lng":-75.71918,"zip":"19712","miles_from_dt":28.09},{"city":"Lansdowne","state_name":"Pennsylvania","lat":39.93764,"lng":-75.26355,"zip":"19050","miles_from_dt":28.13},{"city":"Springfield","state_name":"Pennsylvania","lat":39.93214,"lng":-75.33873,"zip":"19064","miles_from_dt":28.29},{"city":"Philadelphia","state_name":"Pennsylvania","lat":39.93645,"lng":-75.15468,"zip":"19147","miles_from_dt":28.29},{"city":"Philadelphia","state_name":"Pennsylvania","lat":39.93917,"lng":-75.18398,"zip":"19146","miles_from_dt":28.3},{"city":"Philadelphia","state_name":"Pennsylvania","lat":39.94315,"lng":-75.22664,"zip":"19143","miles_from_dt":28.46},{"city":"Camden","state_name":"New Jersey","lat":39.93533,"lng":-75.11275,"zip":"08103","miles_from_dt":28.62},{"city":"Dover","state_name":"Delaware","lat":39.20946,"lng":-75.57012,"zip":"19903","miles_from_dt":28.65},{"city":"Cherry Hill","state_name":"New Jersey","lat":39.90593,"lng":-74.99935,"zip":"08034","miles_from_dt":28.68},{"city":"Cheswold","state_name":"Delaware","lat":39.21846,"lng":-75.58498,"zip":"19936","miles_from_dt":28.69},{"city":"Media","state_name":"Pennsylvania","lat":39.92248,"lng":-75.41419,"zip":"19063","miles_from_dt":28.74},{"city":"Camden","state_name":"New Jersey","lat":39.9409,"lng":-75.12616,"zip":"08101","miles_from_dt":28.85},{"city":"Philadelphia","state_name":"Pennsylvania","lat":39.94534,"lng":-75.15108,"zip":"19172","miles_from_dt":28.92},{"city":"New Castle","state_name":"Delaware","lat":39.68458,"lng":-75.73524,"zip":"19726","miles_from_dt":28.93},{"city":"Concordville","state_name":"Pennsylvania","lat":39.88672,"lng":-75.51889,"zip":"19340","miles_from_dt":28.96},{"city":"Marlton","state_name":"New Jersey","lat":39.86051,"lng":-74.89469,"zip":"08053","miles_from_dt":28.97},{"city":"Philadelphia","state_name":"Pennsylvania","lat":39.94589,"lng":-75.14224,"zip":"19106","miles_from_dt":29.04},{"city":"Philadelphia","state_name":"Pennsylvania","lat":39.95,"lng":-75.18219,"zip":"19194","miles_from_dt":29.05},{"city":"Newark","state_name":"Delaware","lat":39.68567,"lng":-75.73728,"zip":"19725","miles_from_dt":29.06},{"city":"Newark","state_name":"Delaware","lat":39.66779,"lng":-75.74595,"zip":"19716","miles_from_dt":29.07},{"city":"Philadelphia","state_name":"Pennsylvania","lat":39.94958,"lng":-75.16387,"zip":"19109","miles_from_dt":29.12},{"city":"Woodbine","state_name":"New Jersey","lat":39.26437,"lng":-74.80861,"zip":"08270","miles_from_dt":29.13},{"city":"Philadelphia","state_name":"Pennsylvania","lat":39.95,"lng":-75.16219,"zip":"19190","miles_from_dt":29.16},{"city":"Philadelphia","state_name":"Pennsylvania","lat":39.95,"lng":-75.16219,"zip":"19195","miles_from_dt":29.16},{"city":"Philadelphia","state_name":"Pennsylvania","lat":39.95201,"lng":-75.18332,"zip":"19170","miles_from_dt":29.18},{"city":"Philadelphia","state_name":"Pennsylvania","lat":39.95,"lng":-75.1601,"zip":"19182","miles_from_dt":29.18},{"city":"Concordville","state_name":"Pennsylvania","lat":39.89003,"lng":-75.52008,"zip":"19331","miles_from_dt":29.19},{"city":"Philadelphia","state_name":"Pennsylvania","lat":39.94999,"lng":-75.15464,"zip":"19175","miles_from_dt":29.22},{"city":"Drexel Hill","state_name":"Pennsylvania","lat":39.95035,"lng":-75.304,"zip":"19026","miles_from_dt":29.22},{"city":"Philadelphia","state_name":"Pennsylvania","lat":39.95258,"lng":-75.18178,"zip":"19092","miles_from_dt":29.23},{"city":"Philadelphia","state_name":"Pennsylvania","lat":39.9516,"lng":-75.169,"zip":"19183","miles_from_dt":29.23},{"city":"Philadelphia","state_name":"Pennsylvania","lat":39.95173,"lng":-75.16796,"zip":"19192","miles_from_dt":29.24},{"city":"Philadelphia","state_name":"Pennsylvania","lat":39.95126,"lng":-75.1631,"zip":"19255","miles_from_dt":29.24},{"city":"Philadelphia","state_name":"Pennsylvania","lat":39.95309,"lng":-75.18496,"zip":"19178","miles_from_dt":29.25},{"city":"Philadelphia","state_name":"Pennsylvania","lat":39.9532,"lng":-75.1839,"zip":"19184","miles_from_dt":29.26},{"city":"Concordville","state_name":"Pennsylvania","lat":39.89912,"lng":-75.5042,"zip":"19339","miles_from_dt":29.29},{"city":"Philadelphia","state_name":"Pennsylvania","lat":39.95228,"lng":-75.16597,"zip":"19191","miles_from_dt":29.29},{"city":"Philadelphia","state_name":"Pennsylvania","lat":39.95303,"lng":-75.17386,"zip":"19103","miles_from_dt":29.3},{"city":"Philadelphia","state_name":"Pennsylvania","lat":39.95193,"lng":-75.16046,"zip":"19105","miles_from_dt":29.31},{"city":"Philadelphia","state_name":"Pennsylvania","lat":39.9518,"lng":-75.15864,"zip":"19107","miles_from_dt":29.31},{"city":"Philadelphia","state_name":"Pennsylvania","lat":39.951,"lng":-75.14975,"zip":"19177","miles_from_dt":29.32},{"city":"Philadelphia","state_name":"Pennsylvania","lat":39.95253,"lng":-75.1628,"zip":"19101","miles_from_dt":29.33},{"city":"Philadelphia","state_name":"Pennsylvania","lat":39.95144,"lng":-75.15151,"zip":"19244","miles_from_dt":29.34},{"city":"Philadelphia","state_name":"Pennsylvania","lat":39.95301,"lng":-75.16544,"zip":"19102","miles_from_dt":29.35},{"city":"Philadelphia","state_name":"Pennsylvania","lat":39.95145,"lng":-75.14702,"zip":"19181","miles_from_dt":29.37},{"city":"Philadelphia","state_name":"Pennsylvania","lat":39.95356,"lng":-75.16602,"zip":"19110","miles_from_dt":29.38},{"city":"Philadelphia","state_name":"Pennsylvania","lat":39.95307,"lng":-75.16103,"zip":"19099","miles_from_dt":29.38},{"city":"Philadelphia","state_name":"Pennsylvania","lat":39.9547,"lng":-75.17878,"zip":"19197","miles_from_dt":29.39},{"city":"Philadelphia","state_name":"Pennsylvania","lat":39.95568,"lng":-75.18406,"zip":"19193","miles_from_dt":29.43},{"city":"Philadelphia","state_name":"Pennsylvania","lat":39.95473,"lng":-75.16986,"zip":"19173","miles_from_dt":29.44},{"city":"Philadelphia","state_name":"Pennsylvania","lat":39.95591,"lng":-75.18238,"zip":"19093","miles_from_dt":29.45},{"city":"Philadelphia","state_name":"Pennsylvania","lat":39.9557,"lng":-75.18101,"zip":"19162","miles_from_dt":29.45},{"city":"Philadelphia","state_name":"Pennsylvania","lat":39.95477,"lng":-75.16769,"zip":"19187","miles_from_dt":29.45},{"city":"Philadelphia","state_name":"Pennsylvania","lat":39.95744,"lng":-75.18426,"zip":"19196","miles_from_dt":29.55},{"city":"Glen Mills","state_name":"Pennsylvania","lat":39.90458,"lng":-75.50243,"zip":"19342","miles_from_dt":29.57},{"city":"Philadelphia","state_name":"Pennsylvania","lat":39.95563,"lng":-75.15526,"zip":"19171","miles_from_dt":29.6},{"city":"Philadelphia","state_name":"Pennsylvania","lat":39.95891,"lng":-75.19836,"zip":"19104","miles_from_dt":29.6},{"city":"Camden","state_name":"New Jersey","lat":39.95203,"lng":-75.12134,"zip":"08102","miles_from_dt":29.65},{"city":"Philadelphia","state_name":"Pennsylvania","lat":39.96144,"lng":-75.22964,"zip":"19139","miles_from_dt":29.72},{"city":"Upper Darby","state_name":"Pennsylvania","lat":39.96043,"lng":-75.27032,"zip":"19082","miles_from_dt":29.72},{"city":"Cherry Hill","state_name":"New Jersey","lat":39.93142,"lng":-75.02515,"zip":"08002","miles_from_dt":29.74},{"city":"Hockessin","state_name":"Delaware","lat":39.78512,"lng":-75.68147,"zip":"19707","miles_from_dt":29.75},{"city":"Newark","state_name":"Delaware","lat":39.68121,"lng":-75.75343,"zip":"19717","miles_from_dt":29.75},{"city":"Newark","state_name":"Delaware","lat":39.71404,"lng":-75.73776,"zip":"19715","miles_from_dt":29.85},{"city":"Philadelphia","state_name":"Pennsylvania","lat":39.95987,"lng":-75.16083,"zip":"19108","miles_from_dt":29.85},{"city":"Dover","state_name":"Delaware","lat":39.15899,"lng":-75.52043,"zip":"19905","miles_from_dt":29.96},{"city":"Newark","state_name":"Delaware","lat":39.71379,"lng":-75.74033,"zip":"19711","miles_from_dt":29.97},{"city":"Chadds Ford","state_name":"Pennsylvania","lat":39.85722,"lng":-75.60244,"zip":"19317","miles_from_dt":29.99},{"city":"Camden","state_name":"New Jersey","lat":39.95174,"lng":-75.09107,"zip":"08105","miles_from_dt":29.99}],"targetCityZipCode":"08313","targetCityState":"New Jersey"},"__N_SSG":true}