{"pageProps":{"stateName":"New-jersey","cityName":"trenton","nearbyCities":[{"city":"Trenton","state_name":"New Jersey","lat":40.2196,"lng":-74.76437,"zip":"08604","miles_from_dt":0.04},{"city":"Trenton","state_name":"New Jersey","lat":40.22051,"lng":-74.76526,"zip":"08603","miles_from_dt":0.09},{"city":"Trenton","state_name":"New Jersey","lat":40.22086,"lng":-74.76486,"zip":"08695","miles_from_dt":0.09},{"city":"Trenton","state_name":"New Jersey","lat":40.21927,"lng":-74.76518,"zip":"08605","miles_from_dt":0.09},{"city":"Trenton","state_name":"New Jersey","lat":40.21789,"lng":-74.76342,"zip":"08646","miles_from_dt":0.14},{"city":"Trenton","state_name":"New Jersey","lat":40.21947,"lng":-74.76693,"zip":"08608","miles_from_dt":0.17},{"city":"Trenton","state_name":"New Jersey","lat":40.21857,"lng":-74.76894,"zip":"08647","miles_from_dt":0.29},{"city":"Trenton","state_name":"New Jersey","lat":40.21954,"lng":-74.76969,"zip":"08666","miles_from_dt":0.32},{"city":"Trenton","state_name":"New Jersey","lat":40.22185,"lng":-74.76973,"zip":"08607","miles_from_dt":0.34},{"city":"Trenton","state_name":"New Jersey","lat":40.21719,"lng":-74.76963,"zip":"08645","miles_from_dt":0.36},{"city":"Trenton","state_name":"New Jersey","lat":40.2059,"lng":-74.75706,"zip":"08625","miles_from_dt":1.03},{"city":"Trenton","state_name":"New Jersey","lat":40.22594,"lng":-74.74109,"zip":"08609","miles_from_dt":1.27},{"city":"Trenton","state_name":"New Jersey","lat":40.22066,"lng":-74.73127,"zip":"08629","miles_from_dt":1.72},{"city":"Trenton","state_name":"New Jersey","lat":40.19107,"lng":-74.74299,"zip":"08611","miles_from_dt":2.27},{"city":"Trenton","state_name":"New Jersey","lat":40.24878,"lng":-74.78734,"zip":"08618","miles_from_dt":2.35},{"city":"Trenton","state_name":"New Jersey","lat":40.25531,"lng":-74.76222,"zip":"08638","miles_from_dt":2.44},{"city":"Morrisville","state_name":"Pennsylvania","lat":40.19595,"lng":-74.80976,"zip":"19067","miles_from_dt":2.94},{"city":"Trenton","state_name":"New Jersey","lat":40.19377,"lng":-74.71565,"zip":"08610","miles_from_dt":3.12},{"city":"Trenton","state_name":"New Jersey","lat":40.2414,"lng":-74.69669,"zip":"08619","miles_from_dt":3.84},{"city":"Trenton","state_name":"New Jersey","lat":40.26705,"lng":-74.82235,"zip":"08628","miles_from_dt":4.49},{"city":"Fairless Hills","state_name":"Pennsylvania","lat":40.1812,"lng":-74.83269,"zip":"19030","miles_from_dt":4.52},{"city":"Levittown","state_name":"Pennsylvania","lat":40.17055,"lng":-74.82016,"zip":"19054","miles_from_dt":4.53},{"city":"Lawrence Township","state_name":"New Jersey","lat":40.28488,"lng":-74.72201,"zip":"08648","miles_from_dt":5},{"city":"Trenton","state_name":"New Jersey","lat":40.22512,"lng":-74.66081,"zip":"08690","miles_from_dt":5.46},{"city":"Levittown","state_name":"Pennsylvania","lat":40.14984,"lng":-74.83881,"zip":"19055","miles_from_dt":6.26},{"city":"Levittown","state_name":"Pennsylvania","lat":40.155,"lng":-74.85441,"zip":"19058","miles_from_dt":6.56},{"city":"Trenton","state_name":"New Jersey","lat":40.16825,"lng":-74.64956,"zip":"08620","miles_from_dt":7.01},{"city":"Roebling","state_name":"New Jersey","lat":40.11556,"lng":-74.77966,"zip":"08554","miles_from_dt":7.25},{"city":"Levittown","state_name":"Pennsylvania","lat":40.14013,"lng":-74.85718,"zip":"19057","miles_from_dt":7.4},{"city":"Florence","state_name":"New Jersey","lat":40.11541,"lng":-74.80357,"zip":"08518","miles_from_dt":7.51},{"city":"Washington Crossing","state_name":"Pennsylvania","lat":40.28655,"lng":-74.87865,"zip":"18977","miles_from_dt":7.62},{"city":"Pennington","state_name":"New Jersey","lat":40.33026,"lng":-74.79422,"zip":"08534","miles_from_dt":7.78},{"city":"Levittown","state_name":"Pennsylvania","lat":40.15044,"lng":-74.88534,"zip":"19056","miles_from_dt":8.02},{"city":"Bordentown","state_name":"New Jersey","lat":40.10413,"lng":-74.73959,"zip":"08505","miles_from_dt":8.09},{"city":"Langhorne","state_name":"Pennsylvania","lat":40.18207,"lng":-74.91062,"zip":"19047","miles_from_dt":8.2},{"city":"Titusville","state_name":"New Jersey","lat":40.31453,"lng":-74.85946,"zip":"08560","miles_from_dt":8.26},{"city":"Princeton","state_name":"New Jersey","lat":40.31117,"lng":-74.65163,"zip":"08543","miles_from_dt":8.65},{"city":"Bristol","state_name":"Pennsylvania","lat":40.11483,"lng":-74.85474,"zip":"19007","miles_from_dt":8.7},{"city":"Princeton Junction","state_name":"New Jersey","lat":40.28125,"lng":-74.61926,"zip":"08550","miles_from_dt":8.73},{"city":"Robbinsville","state_name":"New Jersey","lat":40.20953,"lng":-74.59919,"zip":"08691","miles_from_dt":8.73},{"city":"Fort Washington","state_name":"Pennsylvania","lat":40.17527,"lng":-74.91979,"zip":"19049","miles_from_dt":8.81},{"city":"Fort Washington","state_name":"Pennsylvania","lat":40.17607,"lng":-74.92482,"zip":"19048","miles_from_dt":9.04},{"city":"Trenton","state_name":"New Jersey","lat":40.13783,"lng":-74.62782,"zip":"08650","miles_from_dt":9.15},{"city":"Chesterfield","state_name":"New Jersey","lat":40.1163,"lng":-74.64568,"zip":"08515","miles_from_dt":9.49},{"city":"Windsor","state_name":"New Jersey","lat":40.24659,"lng":-74.58138,"zip":"08561","miles_from_dt":9.82},{"city":"Trenton","state_name":"New Jersey","lat":40.21804,"lng":-74.57625,"zip":"08602","miles_from_dt":9.92},{"city":"Trenton","state_name":"New Jersey","lat":40.22019,"lng":-74.57602,"zip":"08606","miles_from_dt":9.93},{"city":"Newtown","state_name":"Pennsylvania","lat":40.26349,"lng":-74.9483,"zip":"18940","miles_from_dt":10.21},{"city":"Princeton","state_name":"New Jersey","lat":40.34641,"lng":-74.65787,"zip":"08544","miles_from_dt":10.37},{"city":"Princeton","state_name":"New Jersey","lat":40.34838,"lng":-74.65902,"zip":"08541","miles_from_dt":10.45},{"city":"Princeton","state_name":"New Jersey","lat":40.35452,"lng":-74.66064,"zip":"08542","miles_from_dt":10.77},{"city":"Burlington","state_name":"New Jersey","lat":40.06926,"lng":-74.83198,"zip":"08016","miles_from_dt":11},{"city":"Columbus","state_name":"New Jersey","lat":40.06516,"lng":-74.70905,"zip":"08022","miles_from_dt":11.06},{"city":"Croydon","state_name":"Pennsylvania","lat":40.08874,"lng":-74.89385,"zip":"19021","miles_from_dt":11.37},{"city":"Princeton","state_name":"New Jersey","lat":40.36423,"lng":-74.65661,"zip":"08540","miles_from_dt":11.45},{"city":"Allentown","state_name":"New Jersey","lat":40.16022,"lng":-74.55237,"zip":"08501","miles_from_dt":11.92},{"city":"Bensalem","state_name":"Pennsylvania","lat":40.10453,"lng":-74.93853,"zip":"19020","miles_from_dt":12.21},{"city":"Hopewell","state_name":"New Jersey","lat":40.39641,"lng":-74.78185,"zip":"08525","miles_from_dt":12.22},{"city":"Feasterville Trevose","state_name":"Pennsylvania","lat":40.15475,"lng":-74.97918,"zip":"19053","miles_from_dt":12.25},{"city":"Plainsboro","state_name":"New Jersey","lat":40.33392,"lng":-74.58488,"zip":"08536","miles_from_dt":12.3},{"city":"Hightstown","state_name":"New Jersey","lat":40.25555,"lng":-74.53269,"zip":"08520","miles_from_dt":12.46},{"city":"Richboro","state_name":"Pennsylvania","lat":40.2224,"lng":-75.00032,"zip":"18954","miles_from_dt":12.51},{"city":"Lambertville","state_name":"New Jersey","lat":40.37288,"lng":-74.89747,"zip":"08530","miles_from_dt":12.7},{"city":"Blawenburg","state_name":"New Jersey","lat":40.40104,"lng":-74.70474,"zip":"08504","miles_from_dt":12.88},{"city":"Southampton","state_name":"Pennsylvania","lat":40.1879,"lng":-75.00557,"zip":"18966","miles_from_dt":12.98},{"city":"Penns Park","state_name":"Pennsylvania","lat":40.28283,"lng":-74.9954,"zip":"18943","miles_from_dt":12.99},{"city":"Jobstown","state_name":"New Jersey","lat":40.03852,"lng":-74.68263,"zip":"08041","miles_from_dt":13.23},{"city":"Wycombe","state_name":"Pennsylvania","lat":40.27276,"lng":-75.01105,"zip":"18980","miles_from_dt":13.57},{"city":"Skillman","state_name":"New Jersey","lat":40.41382,"lng":-74.70236,"zip":"08558","miles_from_dt":13.77},{"city":"Wrightstown","state_name":"New Jersey","lat":40.06812,"lng":-74.59401,"zip":"08562","miles_from_dt":13.8},{"city":"Pineville","state_name":"Pennsylvania","lat":40.28923,"lng":-75.01009,"zip":"18946","miles_from_dt":13.87},{"city":"Beverly","state_name":"New Jersey","lat":40.05484,"lng":-74.91407,"zip":"08010","miles_from_dt":13.89},{"city":"Kingston","state_name":"New Jersey","lat":40.38791,"lng":-74.61744,"zip":"08528","miles_from_dt":13.93},{"city":"Rocky Hill","state_name":"New Jersey","lat":40.40011,"lng":-74.64051,"zip":"08553","miles_from_dt":14.03},{"city":"Rushland","state_name":"Pennsylvania","lat":40.26162,"lng":-75.02725,"zip":"18956","miles_from_dt":14.23},{"city":"Philadelphia","state_name":"Pennsylvania","lat":40.0951,"lng":-74.98159,"zip":"19154","miles_from_dt":14.39},{"city":"Cranbury","state_name":"New Jersey","lat":40.32166,"lng":-74.52586,"zip":"08512","miles_from_dt":14.4},{"city":"Philadelphia","state_name":"Pennsylvania","lat":40.09002,"lng":-74.98002,"zip":"19155","miles_from_dt":14.54},{"city":"Mount Holly","state_name":"New Jersey","lat":40.00983,"lng":-74.79105,"zip":"08060","miles_from_dt":14.57},{"city":"Imlaystown","state_name":"New Jersey","lat":40.1649,"lng":-74.49606,"zip":"08526","miles_from_dt":14.66},{"city":"Willingboro","state_name":"New Jersey","lat":40.02787,"lng":-74.88709,"zip":"08046","miles_from_dt":14.77},{"city":"Philadelphia","state_name":"Pennsylvania","lat":40.1176,"lng":-75.01451,"zip":"19019","miles_from_dt":15.03},{"city":"Philadelphia","state_name":"Pennsylvania","lat":40.11655,"lng":-75.01399,"zip":"19116","miles_from_dt":15.04},{"city":"Juliustown","state_name":"New Jersey","lat":40.01363,"lng":-74.662,"zip":"08042","miles_from_dt":15.22},{"city":"Cream Ridge","state_name":"New Jersey","lat":40.13269,"lng":-74.49811,"zip":"08514","miles_from_dt":15.29},{"city":"New Hope","state_name":"Pennsylvania","lat":40.35126,"lng":-74.99779,"zip":"18938","miles_from_dt":15.33},{"city":"Roosevelt","state_name":"New Jersey","lat":40.22116,"lng":-74.473,"zip":"08555","miles_from_dt":15.38},{"city":"Rancocas","state_name":"New Jersey","lat":40.00952,"lng":-74.86698,"zip":"08073","miles_from_dt":15.51},{"city":"Ringoes","state_name":"New Jersey","lat":40.44425,"lng":-74.83907,"zip":"08551","miles_from_dt":15.98},{"city":"Joint Base Mdl","state_name":"New Jersey","lat":40.02819,"lng":-74.58715,"zip":"08641","miles_from_dt":16.2},{"city":"Furlong","state_name":"Pennsylvania","lat":40.2851,"lng":-75.05934,"zip":"18925","miles_from_dt":16.26},{"city":"Warminster","state_name":"Pennsylvania","lat":40.21675,"lng":-75.07321,"zip":"18974","miles_from_dt":16.37},{"city":"Cookstown","state_name":"New Jersey","lat":40.04441,"lng":-74.55384,"zip":"08511","miles_from_dt":16.44},{"city":"Riverside","state_name":"New Jersey","lat":40.02937,"lng":-74.94999,"zip":"08075","miles_from_dt":16.44},{"city":"Forest Grove","state_name":"Pennsylvania","lat":40.29883,"lng":-75.05717,"zip":"18922","miles_from_dt":16.44},{"city":"Monmouth Junction","state_name":"New Jersey","lat":40.38978,"lng":-74.54461,"zip":"08852","miles_from_dt":16.47},{"city":"Philadelphia","state_name":"Pennsylvania","lat":40.06743,"lng":-75.00361,"zip":"19114","miles_from_dt":16.49},{"city":"Warminster","state_name":"Pennsylvania","lat":40.21869,"lng":-75.07568,"zip":"18991","miles_from_dt":16.5},{"city":"Lahaska","state_name":"Pennsylvania","lat":40.34779,"lng":-75.0315,"zip":"18931","miles_from_dt":16.67},{"city":"Belle Mead","state_name":"New Jersey","lat":40.44815,"lng":-74.65763,"zip":"08502","miles_from_dt":16.72},{"city":"Bryn Athyn","state_name":"Pennsylvania","lat":40.13775,"lng":-75.06308,"zip":"19009","miles_from_dt":16.83},{"city":"Jamison","state_name":"Pennsylvania","lat":40.25674,"lng":-75.07885,"zip":"18929","miles_from_dt":16.85},{"city":"Huntingdon Valley","state_name":"Pennsylvania","lat":40.13323,"lng":-75.06222,"zip":"19006","miles_from_dt":16.89},{"city":"Solebury","state_name":"Pennsylvania","lat":40.38068,"lng":-75.00825,"zip":"18963","miles_from_dt":17.03},{"city":"Holicong","state_name":"Pennsylvania","lat":40.33594,"lng":-75.04855,"zip":"18928","miles_from_dt":17.05},{"city":"Buckingham","state_name":"Pennsylvania","lat":40.32134,"lng":-75.05852,"zip":"18912","miles_from_dt":17.08},{"city":"Birmingham","state_name":"New Jersey","lat":39.97504,"lng":-74.71371,"zip":"08011","miles_from_dt":17.1},{"city":"Hainesport","state_name":"New Jersey","lat":39.97669,"lng":-74.83708,"zip":"08036","miles_from_dt":17.22},{"city":"Millstone Township","state_name":"New Jersey","lat":40.23506,"lng":-74.437,"zip":"08535","miles_from_dt":17.31},{"city":"Joint Base Mdl","state_name":"New Jersey","lat":40.0093,"lng":-74.58424,"zip":"08640","miles_from_dt":17.37},{"city":"Philadelphia","state_name":"Pennsylvania","lat":40.09094,"lng":-75.04595,"zip":"19115","miles_from_dt":17.39},{"city":"Dayton","state_name":"New Jersey","lat":40.37073,"lng":-74.49641,"zip":"08810","miles_from_dt":17.54},{"city":"Kendall Park","state_name":"New Jersey","lat":40.42058,"lng":-74.5538,"zip":"08824","miles_from_dt":17.74},{"city":"Millstone Township","state_name":"New Jersey","lat":40.18798,"lng":-74.42351,"zip":"08510","miles_from_dt":18.13},{"city":"Sergeantsville","state_name":"New Jersey","lat":40.44541,"lng":-74.94305,"zip":"08557","miles_from_dt":18.21},{"city":"Lumberton","state_name":"New Jersey","lat":39.95644,"lng":-74.80627,"zip":"08048","miles_from_dt":18.32},{"city":"Hatboro","state_name":"Pennsylvania","lat":40.17732,"lng":-75.10624,"zip":"19040","miles_from_dt":18.36},{"city":"Philadelphia","state_name":"Pennsylvania","lat":40.03973,"lng":-75.01932,"zip":"19136","miles_from_dt":18.38},{"city":"Mechanicsville","state_name":"Pennsylvania","lat":40.34663,"lng":-75.07211,"zip":"18934","miles_from_dt":18.49},{"city":"Rosemont","state_name":"New Jersey","lat":40.42097,"lng":-74.9951,"zip":"08556","miles_from_dt":18.49},{"city":"Philadelphia","state_name":"Pennsylvania","lat":40.06158,"lng":-75.04663,"zip":"19152","miles_from_dt":18.54},{"city":"Pemberton","state_name":"New Jersey","lat":39.9617,"lng":-74.667,"zip":"08068","miles_from_dt":18.54},{"city":"Franklin Park","state_name":"New Jersey","lat":40.44218,"lng":-74.56318,"zip":"08823","miles_from_dt":18.64},{"city":"Stockton","state_name":"New Jersey","lat":40.4387,"lng":-74.9716,"zip":"08559","miles_from_dt":18.67},{"city":"Carversville","state_name":"Pennsylvania","lat":40.37727,"lng":-75.0545,"zip":"18913","miles_from_dt":18.81},{"city":"Moorestown","state_name":"New Jersey","lat":39.97948,"lng":-74.94105,"zip":"08057","miles_from_dt":19.06},{"city":"Monroe Township","state_name":"New Jersey","lat":40.32908,"lng":-74.43066,"zip":"08831","miles_from_dt":19.15},{"city":"Lumberville","state_name":"Pennsylvania","lat":40.40265,"lng":-75.042,"zip":"18933","miles_from_dt":19.37},{"city":"Riverton","state_name":"New Jersey","lat":40.00193,"lng":-74.99515,"zip":"08077","miles_from_dt":19.4},{"city":"Riverton","state_name":"New Jersey","lat":40.01068,"lng":-75.01553,"zip":"08076","miles_from_dt":19.65},{"city":"Willow Grove","state_name":"Pennsylvania","lat":40.1484,"lng":-75.12378,"zip":"19090","miles_from_dt":19.68},{"city":"Hillsborough","state_name":"New Jersey","lat":40.49858,"lng":-74.67274,"zip":"08844","miles_from_dt":19.82},{"city":"Jenkintown","state_name":"Pennsylvania","lat":40.10133,"lng":-75.10558,"zip":"19046","miles_from_dt":19.86},{"city":"Philadelphia","state_name":"Pennsylvania","lat":40.06546,"lng":-75.0807,"zip":"19161","miles_from_dt":19.88},{"city":"Doylestown","state_name":"Pennsylvania","lat":40.35474,"lng":-75.09855,"zip":"18902","miles_from_dt":19.99},{"city":"Philadelphia","state_name":"Pennsylvania","lat":40.06065,"lng":-75.08019,"zip":"19111","miles_from_dt":20.04},{"city":"Warrington","state_name":"Pennsylvania","lat":40.24676,"lng":-75.14321,"zip":"18976","miles_from_dt":20.15},{"city":"Mount Laurel","state_name":"New Jersey","lat":39.94835,"lng":-74.90472,"zip":"08054","miles_from_dt":20.17},{"city":"Abington","state_name":"Pennsylvania","lat":40.12624,"lng":-75.12652,"zip":"19001","miles_from_dt":20.26},{"city":"Philadelphia","state_name":"Pennsylvania","lat":40.03781,"lng":-75.06544,"zip":"19149","miles_from_dt":20.33},{"city":"Philadelphia","state_name":"Pennsylvania","lat":40.02192,"lng":-75.04966,"zip":"19135","miles_from_dt":20.39},{"city":"Horsham","state_name":"Pennsylvania","lat":40.18901,"lng":-75.15253,"zip":"19044","miles_from_dt":20.68},{"city":"Palmyra","state_name":"New Jersey","lat":40.00234,"lng":-75.03589,"zip":"08065","miles_from_dt":20.81},{"city":"Three Bridges","state_name":"New Jersey","lat":40.52219,"lng":-74.79428,"zip":"08887","miles_from_dt":20.92},{"city":"Helmetta","state_name":"New Jersey","lat":40.37767,"lng":-74.42383,"zip":"08828","miles_from_dt":21},{"city":"New Egypt","state_name":"New Jersey","lat":40.01293,"lng":-74.47138,"zip":"08533","miles_from_dt":21.07},{"city":"Flagtown","state_name":"New Jersey","lat":40.52074,"lng":-74.68835,"zip":"08821","miles_from_dt":21.14},{"city":"New Lisbon","state_name":"New Jersey","lat":39.93657,"lng":-74.61095,"zip":"08064","miles_from_dt":21.16},{"city":"Cheltenham","state_name":"Pennsylvania","lat":40.05966,"lng":-75.10586,"zip":"19012","miles_from_dt":21.22},{"city":"North Brunswick","state_name":"New Jersey","lat":40.44236,"lng":-74.48579,"zip":"08902","miles_from_dt":21.24},{"city":"Doylestown","state_name":"Pennsylvania","lat":40.30529,"lng":-75.15026,"zip":"18901","miles_from_dt":21.26},{"city":"Neshanic Station","state_name":"New Jersey","lat":40.52879,"lng":-74.74246,"zip":"08853","miles_from_dt":21.34},{"city":"Flemington","state_name":"New Jersey","lat":40.52281,"lng":-74.86576,"zip":"08822","miles_from_dt":21.58},{"city":"Elkins Park","state_name":"Pennsylvania","lat":40.07347,"lng":-75.12453,"zip":"19027","miles_from_dt":21.61},{"city":"Danboro","state_name":"Pennsylvania","lat":40.355,"lng":-75.13268,"zip":"18916","miles_from_dt":21.61},{"city":"Dresher","state_name":"Pennsylvania","lat":40.14556,"lng":-75.1632,"zip":"19025","miles_from_dt":21.75},{"city":"Maple Shade","state_name":"New Jersey","lat":39.952,"lng":-74.99502,"zip":"08052","miles_from_dt":22.18},{"city":"Point Pleasant","state_name":"Pennsylvania","lat":40.44709,"lng":-75.06544,"zip":"18950","miles_from_dt":22.35},{"city":"Philadelphia","state_name":"Pennsylvania","lat":40.01728,"lng":-75.09387,"zip":"19124","miles_from_dt":22.39},{"city":"Wyncote","state_name":"Pennsylvania","lat":40.08588,"lng":-75.15137,"zip":"19095","miles_from_dt":22.51},{"city":"Philadelphia","state_name":"Pennsylvania","lat":39.99455,"lng":-75.074,"zip":"19137","miles_from_dt":22.63},{"city":"Englishtown","state_name":"New Jersey","lat":40.28318,"lng":-74.34232,"zip":"07726","miles_from_dt":22.7},{"city":"Somerset","state_name":"New Jersey","lat":40.49865,"lng":-74.53284,"zip":"08873","miles_from_dt":22.77},{"city":"Philadelphia","state_name":"Pennsylvania","lat":40.03417,"lng":-75.11986,"zip":"19120","miles_from_dt":22.8},{"city":"Philadelphia","state_name":"Pennsylvania","lat":40.05516,"lng":-75.13728,"zip":"19126","miles_from_dt":22.81},{"city":"Tennent","state_name":"New Jersey","lat":40.27534,"lng":-74.33709,"zip":"07763","miles_from_dt":22.88},{"city":"Spotswood","state_name":"New Jersey","lat":40.39493,"lng":-74.39196,"zip":"08884","miles_from_dt":23.05},{"city":"Glenside","state_name":"Pennsylvania","lat":40.10197,"lng":-75.17214,"zip":"19038","miles_from_dt":23.1},{"city":"Plumsteadville","state_name":"Pennsylvania","lat":40.38488,"lng":-75.14631,"zip":"18949","miles_from_dt":23.2},{"city":"Pennsauken","state_name":"New Jersey","lat":39.97243,"lng":-75.06021,"zip":"08110","miles_from_dt":23.2},{"city":"Milltown","state_name":"New Jersey","lat":40.44826,"lng":-74.43994,"zip":"08850","miles_from_dt":23.25},{"city":"Fountainville","state_name":"Pennsylvania","lat":40.3532,"lng":-75.16798,"zip":"18923","miles_from_dt":23.26},{"city":"Browns Mills","state_name":"New Jersey","lat":39.92981,"lng":-74.53966,"zip":"08015","miles_from_dt":23.27},{"city":"Jackson","state_name":"New Jersey","lat":40.10478,"lng":-74.35035,"zip":"08527","miles_from_dt":23.28},{"city":"Pipersville","state_name":"Pennsylvania","lat":40.42677,"lng":-75.1138,"zip":"18947","miles_from_dt":23.36},{"city":"East Brunswick","state_name":"New Jersey","lat":40.42943,"lng":-74.41602,"zip":"08816","miles_from_dt":23.37},{"city":"Oreland","state_name":"Pennsylvania","lat":40.1136,"lng":-75.18852,"zip":"19075","miles_from_dt":23.65},{"city":"Ambler","state_name":"Pennsylvania","lat":40.18386,"lng":-75.21104,"zip":"19002","miles_from_dt":23.79},{"city":"Philadelphia","state_name":"Pennsylvania","lat":40.03788,"lng":-75.14541,"zip":"19141","miles_from_dt":23.8},{"city":"Philadelphia","state_name":"Pennsylvania","lat":40.05594,"lng":-75.15947,"zip":"19138","miles_from_dt":23.81},{"city":"Philadelphia","state_name":"Pennsylvania","lat":40.07251,"lng":-75.17165,"zip":"19150","miles_from_dt":23.87},{"city":"Readington","state_name":"New Jersey","lat":40.56649,"lng":-74.73994,"zip":"08870","miles_from_dt":23.95},{"city":"Manville","state_name":"New Jersey","lat":40.54147,"lng":-74.58876,"zip":"08835","miles_from_dt":24.03},{"city":"Merchantville","state_name":"New Jersey","lat":39.95006,"lng":-75.05094,"zip":"08109","miles_from_dt":24.05},{"city":"Chalfont","state_name":"Pennsylvania","lat":40.28908,"lng":-75.21046,"zip":"18914","miles_from_dt":24.09},{"city":"Zarephath","state_name":"New Jersey","lat":40.53877,"lng":-74.57531,"zip":"08890","miles_from_dt":24.14},{"city":"Somerset","state_name":"New Jersey","lat":40.486,"lng":-74.465,"zip":"08875","miles_from_dt":24.2},{"city":"Philadelphia","state_name":"Pennsylvania","lat":39.98953,"lng":-75.10838,"zip":"19134","miles_from_dt":24.21},{"city":"Cherry Hill","state_name":"New Jersey","lat":39.93142,"lng":-75.02515,"zip":"08002","miles_from_dt":24.25},{"city":"Fort Washington","state_name":"Pennsylvania","lat":40.13353,"lng":-75.20953,"zip":"19034","miles_from_dt":24.33},{"city":"Frenchtown","state_name":"New Jersey","lat":40.51353,"lng":-75.02341,"zip":"08825","miles_from_dt":24.46},{"city":"Lakehurst","state_name":"New Jersey","lat":40.0262,"lng":-74.3713,"zip":"08733","miles_from_dt":24.71},{"city":"Montgomeryville","state_name":"Pennsylvania","lat":40.22993,"lng":-75.23154,"zip":"18936","miles_from_dt":24.75},{"city":"Stanton","state_name":"New Jersey","lat":40.57427,"lng":-74.83818,"zip":"08885","miles_from_dt":24.76},{"city":"Philadelphia","state_name":"Pennsylvania","lat":40.01224,"lng":-75.14512,"zip":"19140","miles_from_dt":24.77},{"city":"Medford","state_name":"New Jersey","lat":39.86373,"lng":-74.82249,"zip":"08055","miles_from_dt":24.77},{"city":"New Brunswick","state_name":"New Jersey","lat":40.4843,"lng":-74.44468,"zip":"08906","miles_from_dt":24.83},{"city":"New Brunswick","state_name":"New Jersey","lat":40.48426,"lng":-74.44275,"zip":"08901","miles_from_dt":24.9},{"city":"New Brunswick","state_name":"New Jersey","lat":40.48638,"lng":-74.44521,"zip":"08933","miles_from_dt":24.92},{"city":"Cherry Hill","state_name":"New Jersey","lat":39.90593,"lng":-74.99935,"zip":"08034","miles_from_dt":25.01},{"city":"Philadelphia","state_name":"Pennsylvania","lat":40.01,"lng":-75.15001,"zip":"19160","miles_from_dt":25.07},{"city":"Spring House","state_name":"Pennsylvania","lat":40.18447,"lng":-75.23583,"zip":"19477","miles_from_dt":25.09},{"city":"Raritan","state_name":"New Jersey","lat":40.57316,"lng":-74.64305,"zip":"08869","miles_from_dt":25.19},{"city":"Flourtown","state_name":"Pennsylvania","lat":40.1083,"lng":-75.21747,"zip":"19031","miles_from_dt":25.22},{"city":"Philadelphia","state_name":"Pennsylvania","lat":40.03278,"lng":-75.17523,"zip":"19144","miles_from_dt":25.33},{"city":"Freehold","state_name":"New Jersey","lat":40.22522,"lng":-74.28447,"zip":"07728","miles_from_dt":25.35},{"city":"Camden","state_name":"New Jersey","lat":39.95174,"lng":-75.09107,"zip":"08105","miles_from_dt":25.36},{"city":"North Wales","state_name":"Pennsylvania","lat":40.22303,"lng":-75.24365,"zip":"19454","miles_from_dt":25.38},{"city":"Dublin","state_name":"Pennsylvania","lat":40.37088,"lng":-75.202,"zip":"18917","miles_from_dt":25.39},{"city":"Philadelphia","state_name":"Pennsylvania","lat":39.99238,"lng":-75.14149,"zip":"19133","miles_from_dt":25.43},{"city":"Philadelphia","state_name":"Pennsylvania","lat":40.05303,"lng":-75.19223,"zip":"19119","miles_from_dt":25.44},{"city":"Philadelphia","state_name":"Pennsylvania","lat":40.03206,"lng":-75.17755,"zip":"19179","miles_from_dt":25.46},{"city":"Philadelphia","state_name":"Pennsylvania","lat":39.97611,"lng":-75.12472,"zip":"19125","miles_from_dt":25.47},{"city":"Erwinna","state_name":"Pennsylvania","lat":40.49264,"lng":-75.09067,"zip":"18920","miles_from_dt":25.53},{"city":"South River","state_name":"New Jersey","lat":40.44556,"lng":-74.37842,"zip":"08882","miles_from_dt":25.62},{"city":"Gwynedd","state_name":"Pennsylvania","lat":40.20253,"lng":-75.24842,"zip":"19436","miles_from_dt":25.67},{"city":"Quakertown","state_name":"New Jersey","lat":40.56607,"lng":-74.94355,"zip":"08868","miles_from_dt":25.7},{"city":"Cherry Hill","state_name":"New Jersey","lat":39.88334,"lng":-74.97191,"zip":"08003","miles_from_dt":25.71},{"city":"Marlton","state_name":"New Jersey","lat":39.86051,"lng":-74.89469,"zip":"08053","miles_from_dt":25.75},{"city":"Old Bridge","state_name":"New Jersey","lat":40.39188,"lng":-74.33059,"zip":"08857","miles_from_dt":25.77},{"city":"Somerville","state_name":"New Jersey","lat":40.58925,"lng":-74.68871,"zip":"08876","miles_from_dt":25.79},{"city":"Philadelphia","state_name":"Pennsylvania","lat":40.07233,"lng":-75.21247,"zip":"19118","miles_from_dt":25.85},{"city":"Gwynedd Valley","state_name":"Pennsylvania","lat":40.18706,"lng":-75.25274,"zip":"19437","miles_from_dt":25.97},{"city":"New Brunswick","state_name":"New Jersey","lat":40.50987,"lng":-74.44546,"zip":"08903","miles_from_dt":26.12},{"city":"Bedminster","state_name":"Pennsylvania","lat":40.42639,"lng":-75.17937,"zip":"18910","miles_from_dt":26.17},{"city":"South Bound Brook","state_name":"New Jersey","lat":40.55354,"lng":-74.52771,"zip":"08880","miles_from_dt":26.17},{"city":"Highland Park","state_name":"New Jersey","lat":40.50057,"lng":-74.42832,"zip":"08904","miles_from_dt":26.24},{"city":"Philadelphia","state_name":"Pennsylvania","lat":39.97767,"lng":-75.14571,"zip":"19122","miles_from_dt":26.25},{"city":"Colmar","state_name":"Pennsylvania","lat":40.27255,"lng":-75.25628,"zip":"18915","miles_from_dt":26.29},{"city":"Collingswood","state_name":"New Jersey","lat":39.91453,"lng":-75.06192,"zip":"08108","miles_from_dt":26.34},{"city":"Hilltown","state_name":"Pennsylvania","lat":40.31952,"lng":-75.24514,"zip":"18927","miles_from_dt":26.35},{"city":"Vincentown","state_name":"New Jersey","lat":39.84196,"lng":-74.69075,"zip":"08088","miles_from_dt":26.36},{"city":"Philadelphia","state_name":"Pennsylvania","lat":40.01338,"lng":-75.18454,"zip":"19129","miles_from_dt":26.46},{"city":"Camden","state_name":"New Jersey","lat":39.95203,"lng":-75.12134,"zip":"08102","miles_from_dt":26.47},{"city":"Line Lexington","state_name":"Pennsylvania","lat":40.29457,"lng":-75.25581,"zip":"18932","miles_from_dt":26.52},{"city":"Philadelphia","state_name":"Pennsylvania","lat":39.99649,"lng":-75.17102,"zip":"19132","miles_from_dt":26.52},{"city":"Adelphia","state_name":"New Jersey","lat":40.2141,"lng":-74.26225,"zip":"07710","miles_from_dt":26.53},{"city":"Blooming Glen","state_name":"Pennsylvania","lat":40.35987,"lng":-75.23369,"zip":"18911","miles_from_dt":26.64},{"city":"Whitehouse Station","state_name":"New Jersey","lat":40.60744,"lng":-74.75936,"zip":"08889","miles_from_dt":26.74},{"city":"Pittstown","state_name":"New Jersey","lat":40.57513,"lng":-74.96777,"zip":"08867","miles_from_dt":26.77},{"city":"Haddonfield","state_name":"New Jersey","lat":39.89332,"lng":-75.03723,"zip":"08033","miles_from_dt":26.79},{"city":"Bridgewater","state_name":"New Jersey","lat":40.59241,"lng":-74.6202,"zip":"08807","miles_from_dt":26.79},{"city":"Philadelphia","state_name":"Pennsylvania","lat":39.96399,"lng":-75.14568,"zip":"19123","miles_from_dt":26.86},{"city":"Camden","state_name":"New Jersey","lat":39.93533,"lng":-75.11275,"zip":"08103","miles_from_dt":26.98},{"city":"Bound Brook","state_name":"New Jersey","lat":40.57165,"lng":-74.53783,"zip":"08805","miles_from_dt":27.04},{"city":"Blue Bell","state_name":"Pennsylvania","lat":40.14862,"lng":-75.26616,"zip":"19424","miles_from_dt":27.04},{"city":"Camden","state_name":"New Jersey","lat":39.9409,"lng":-75.12616,"zip":"08101","miles_from_dt":27.19},{"city":"North Wales","state_name":"Pennsylvania","lat":40.21106,"lng":-75.2779,"zip":"19455","miles_from_dt":27.2},{"city":"Piscataway","state_name":"New Jersey","lat":40.50025,"lng":-74.39998,"zip":"08855","miles_from_dt":27.25},{"city":"Ottsville","state_name":"Pennsylvania","lat":40.47167,"lng":-75.16261,"zip":"18942","miles_from_dt":27.3},{"city":"Philadelphia","state_name":"Pennsylvania","lat":40.05003,"lng":-75.23003,"zip":"19128","miles_from_dt":27.33},{"city":"Oaklyn","state_name":"New Jersey","lat":39.90767,"lng":-75.08344,"zip":"08107","miles_from_dt":27.41},{"city":"Philadelphia","state_name":"Pennsylvania","lat":39.96334,"lng":-75.15953,"zip":"19188","miles_from_dt":27.44},{"city":"Philadelphia","state_name":"Pennsylvania","lat":39.98231,"lng":-75.17995,"zip":"19121","miles_from_dt":27.48},{"city":"Philadelphia","state_name":"Pennsylvania","lat":39.95145,"lng":-75.14702,"zip":"19181","miles_from_dt":27.49},{"city":"Lafayette Hill","state_name":"Pennsylvania","lat":40.08686,"lng":-75.25427,"zip":"19444","miles_from_dt":27.54},{"city":"Perkasie","state_name":"Pennsylvania","lat":40.39252,"lng":-75.23381,"zip":"18944","miles_from_dt":27.54},{"city":"Piscataway","state_name":"New Jersey","lat":40.54648,"lng":-74.46342,"zip":"08854","miles_from_dt":27.55},{"city":"Philadelphia","state_name":"Pennsylvania","lat":39.94589,"lng":-75.14224,"zip":"19106","miles_from_dt":27.56},{"city":"Blue Bell","state_name":"Pennsylvania","lat":40.15835,"lng":-75.27858,"zip":"19422","miles_from_dt":27.57},{"city":"Philadelphia","state_name":"Pennsylvania","lat":39.951,"lng":-75.14975,"zip":"19177","miles_from_dt":27.62},{"city":"Philadelphia","state_name":"Pennsylvania","lat":39.95563,"lng":-75.15526,"zip":"19171","miles_from_dt":27.62},{"city":"Philadelphia","state_name":"Pennsylvania","lat":39.95987,"lng":-75.16083,"zip":"19108","miles_from_dt":27.65},{"city":"Philadelphia","state_name":"Pennsylvania","lat":39.95144,"lng":-75.15151,"zip":"19244","miles_from_dt":27.67},{"city":"New Brunswick","state_name":"New Jersey","lat":40.51942,"lng":-74.41458,"zip":"08989","miles_from_dt":27.69},{"city":"Voorhees","state_name":"New Jersey","lat":39.84502,"lng":-74.95492,"zip":"08043","miles_from_dt":27.78},{"city":"Manchester Township","state_name":"New Jersey","lat":39.96239,"lng":-74.35902,"zip":"08759","miles_from_dt":27.85},{"city":"Philadelphia","state_name":"Pennsylvania","lat":39.94999,"lng":-75.15464,"zip":"19175","miles_from_dt":27.86},{"city":"Philadelphia","state_name":"Pennsylvania","lat":40.02854,"lng":-75.22746,"zip":"19127","miles_from_dt":27.88},{"city":"Philadelphia","state_name":"Pennsylvania","lat":39.9676,"lng":-75.17495,"zip":"19130","miles_from_dt":27.89},{"city":"Camden","state_name":"New Jersey","lat":39.91672,"lng":-75.11203,"zip":"08104","miles_from_dt":27.9},{"city":"Philadelphia","state_name":"Pennsylvania","lat":39.9518,"lng":-75.15864,"zip":"19107","miles_from_dt":27.93},{"city":"Philadelphia","state_name":"Pennsylvania","lat":39.94534,"lng":-75.15108,"zip":"19172","miles_from_dt":27.93},{"city":"Marlboro","state_name":"New Jersey","lat":40.31675,"lng":-74.25029,"zip":"07746","miles_from_dt":27.95},{"city":"Philadelphia","state_name":"Pennsylvania","lat":39.95307,"lng":-75.16103,"zip":"19099","miles_from_dt":27.97},{"city":"Whitehouse","state_name":"New Jersey","lat":40.625,"lng":-74.74164,"zip":"08888","miles_from_dt":27.98},{"city":"Edison","state_name":"New Jersey","lat":40.51366,"lng":-74.39799,"zip":"08818","miles_from_dt":27.99},{"city":"Philadelphia","state_name":"Pennsylvania","lat":39.95193,"lng":-75.16046,"zip":"19105","miles_from_dt":28},{"city":"Audubon","state_name":"New Jersey","lat":39.89119,"lng":-75.07388,"zip":"08106","miles_from_dt":28.01},{"city":"Sayreville","state_name":"New Jersey","lat":40.46482,"lng":-74.34002,"zip":"08872","miles_from_dt":28.04},{"city":"Philadelphia","state_name":"Pennsylvania","lat":39.95253,"lng":-75.1628,"zip":"19101","miles_from_dt":28.06},{"city":"Philadelphia","state_name":"Pennsylvania","lat":39.95,"lng":-75.1601,"zip":"19182","miles_from_dt":28.07},{"city":"Lawnside","state_name":"New Jersey","lat":39.86722,"lng":-75.02912,"zip":"08045","miles_from_dt":28.11},{"city":"Middlesex","state_name":"New Jersey","lat":40.57439,"lng":-74.5011,"zip":"08846","miles_from_dt":28.11},{"city":"Silverdale","state_name":"Pennsylvania","lat":40.34462,"lng":-75.27033,"zip":"18962","miles_from_dt":28.12},{"city":"Philadelphia","state_name":"Pennsylvania","lat":39.95126,"lng":-75.1631,"zip":"19255","miles_from_dt":28.13},{"city":"Philadelphia","state_name":"Pennsylvania","lat":39.95,"lng":-75.16219,"zip":"19195","miles_from_dt":28.15},{"city":"Philadelphia","state_name":"Pennsylvania","lat":39.95,"lng":-75.16219,"zip":"19190","miles_from_dt":28.15},{"city":"Philadelphia","state_name":"Pennsylvania","lat":39.95301,"lng":-75.16544,"zip":"19102","miles_from_dt":28.15},{"city":"Philadelphia","state_name":"Pennsylvania","lat":39.95356,"lng":-75.16602,"zip":"19110","miles_from_dt":28.15},{"city":"Philadelphia","state_name":"Pennsylvania","lat":39.95477,"lng":-75.16769,"zip":"19187","miles_from_dt":28.16},{"city":"Philadelphia","state_name":"Pennsylvania","lat":39.95228,"lng":-75.16597,"zip":"19191","miles_from_dt":28.2},{"city":"Edison","state_name":"New Jersey","lat":40.51879,"lng":-74.39861,"zip":"08899","miles_from_dt":28.22},{"city":"Edison","state_name":"New Jersey","lat":40.51559,"lng":-74.3939,"zip":"08817","miles_from_dt":28.23},{"city":"Hatfield","state_name":"Pennsylvania","lat":40.285,"lng":-75.29102,"zip":"19440","miles_from_dt":28.23},{"city":"Philadelphia","state_name":"Pennsylvania","lat":39.94958,"lng":-75.16387,"zip":"19109","miles_from_dt":28.24},{"city":"Philadelphia","state_name":"Pennsylvania","lat":39.95473,"lng":-75.16986,"zip":"19173","miles_from_dt":28.25},{"city":"Martinsville","state_name":"New Jersey","lat":40.59705,"lng":-74.55446,"zip":"08836","miles_from_dt":28.27},{"city":"West Point","state_name":"Pennsylvania","lat":40.20665,"lng":-75.2985,"zip":"19486","miles_from_dt":28.3},{"city":"Philadelphia","state_name":"Pennsylvania","lat":39.95173,"lng":-75.16796,"zip":"19192","miles_from_dt":28.31},{"city":"Philadelphia","state_name":"Pennsylvania","lat":39.9516,"lng":-75.169,"zip":"19183","miles_from_dt":28.35},{"city":"Haddon Heights","state_name":"New Jersey","lat":39.87914,"lng":-75.06435,"zip":"08035","miles_from_dt":28.4},{"city":"Morganville","state_name":"New Jersey","lat":40.36191,"lng":-74.25821,"zip":"07751","miles_from_dt":28.45},{"city":"Philadelphia","state_name":"Pennsylvania","lat":39.95303,"lng":-75.17386,"zip":"19103","miles_from_dt":28.48},{"city":"Plymouth Meeting","state_name":"Pennsylvania","lat":40.11542,"lng":-75.28453,"zip":"19462","miles_from_dt":28.49},{"city":"Philadelphia","state_name":"Pennsylvania","lat":39.93645,"lng":-75.15468,"zip":"19147","miles_from_dt":28.49},{"city":"Bala Cynwyd","state_name":"Pennsylvania","lat":40.01362,"lng":-75.22979,"zip":"19004","miles_from_dt":28.5},{"city":"Lansdale","state_name":"Pennsylvania","lat":40.23068,"lng":-75.30369,"zip":"19446","miles_from_dt":28.57},{"city":"Philadelphia","state_name":"Pennsylvania","lat":39.9547,"lng":-75.17878,"zip":"19197","miles_from_dt":28.61},{"city":"Philadelphia","state_name":"Pennsylvania","lat":39.9557,"lng":-75.18101,"zip":"19162","miles_from_dt":28.66},{"city":"Upper Black Eddy","state_name":"Pennsylvania","lat":40.53395,"lng":-75.11997,"zip":"18972","miles_from_dt":28.69},{"city":"Philadelphia","state_name":"Pennsylvania","lat":39.95591,"lng":-75.18238,"zip":"19093","miles_from_dt":28.7},{"city":"Wickatunk","state_name":"New Jersey","lat":40.35028,"lng":-74.24803,"zip":"07765","miles_from_dt":28.7},{"city":"Philadelphia","state_name":"Pennsylvania","lat":39.95744,"lng":-75.18426,"zip":"19196","miles_from_dt":28.71},{"city":"Gibbsboro","state_name":"New Jersey","lat":39.83329,"lng":-74.9657,"zip":"08026","miles_from_dt":28.74},{"city":"Sayreville","state_name":"New Jersey","lat":40.46587,"lng":-74.3236,"zip":"08871","miles_from_dt":28.77},{"city":"Philadelphia","state_name":"Pennsylvania","lat":39.95568,"lng":-75.18406,"zip":"19193","miles_from_dt":28.78},{"city":"Philadelphia","state_name":"Pennsylvania","lat":39.95258,"lng":-75.18178,"zip":"19092","miles_from_dt":28.83},{"city":"Annandale","state_name":"New Jersey","lat":40.62774,"lng":-74.88655,"zip":"08801","miles_from_dt":28.88},{"city":"Philadelphia","state_name":"Pennsylvania","lat":39.98865,"lng":-75.21835,"zip":"19131","miles_from_dt":28.89},{"city":"Philadelphia","state_name":"Pennsylvania","lat":39.9532,"lng":-75.1839,"zip":"19184","miles_from_dt":28.89},{"city":"Barrington","state_name":"New Jersey","lat":39.86509,"lng":-75.05379,"zip":"08007","miles_from_dt":28.91},{"city":"Philadelphia","state_name":"Pennsylvania","lat":39.95201,"lng":-75.18332,"zip":"19170","miles_from_dt":28.91},{"city":"Philadelphia","state_name":"Pennsylvania","lat":39.95309,"lng":-75.18496,"zip":"19178","miles_from_dt":28.93},{"city":"Philadelphia","state_name":"Pennsylvania","lat":39.95,"lng":-75.18219,"zip":"19194","miles_from_dt":28.96},{"city":"Mount Ephraim","state_name":"New Jersey","lat":39.88462,"lng":-75.09309,"zip":"08059","miles_from_dt":28.98},{"city":"Magnolia","state_name":"New Jersey","lat":39.85463,"lng":-75.03816,"zip":"08049","miles_from_dt":29.1},{"city":"Philadelphia","state_name":"Pennsylvania","lat":39.95891,"lng":-75.19836,"zip":"19104","miles_from_dt":29.24},{"city":"Parlin","state_name":"New Jersey","lat":40.45897,"lng":-74.30401,"zip":"08859","miles_from_dt":29.35},{"city":"Narberth","state_name":"Pennsylvania","lat":40.02419,"lng":-75.25697,"zip":"19072","miles_from_dt":29.41},{"city":"Lebanon","state_name":"New Jersey","lat":40.645,"lng":-74.81989,"zip":"08833","miles_from_dt":29.48},{"city":"Gloucester City","state_name":"New Jersey","lat":39.89023,"lng":-75.1178,"zip":"08030","miles_from_dt":29.49},{"city":"Philadelphia","state_name":"Pennsylvania","lat":39.93917,"lng":-75.18398,"zip":"19146","miles_from_dt":29.52},{"city":"Philadelphia","state_name":"Pennsylvania","lat":39.91175,"lng":-75.1514,"zip":"19148","miles_from_dt":29.57},{"city":"Somerdale","state_name":"New Jersey","lat":39.84138,"lng":-75.02867,"zip":"08083","miles_from_dt":29.66},{"city":"Revere","state_name":"Pennsylvania","lat":40.52487,"lng":-75.16262,"zip":"18953","miles_from_dt":29.76},{"city":"Merion Station","state_name":"Pennsylvania","lat":40.0022,"lng":-75.2489,"zip":"19066","miles_from_dt":29.77},{"city":"Bellmawr","state_name":"New Jersey","lat":39.86876,"lng":-75.09225,"zip":"08099","miles_from_dt":29.84},{"city":"Gladwyne","state_name":"Pennsylvania","lat":40.04851,"lng":-75.28126,"zip":"19035","miles_from_dt":29.85},{"city":"West Berlin","state_name":"New Jersey","lat":39.80545,"lng":-74.92558,"zip":"08091","miles_from_dt":29.86},{"city":"Conshohocken","state_name":"Pennsylvania","lat":40.08051,"lng":-75.30008,"zip":"19429","miles_from_dt":29.98}],"targetCityZipCode":"08601","targetCityState":"New Jersey"},"__N_SSG":true}