{"pageProps":{"stateName":"New-jersey","cityName":"vincentown","nearbyCities":[{"city":"Medford","state_name":"New Jersey","lat":39.86373,"lng":-74.82249,"zip":"08055","miles_from_dt":7.16},{"city":"New Lisbon","state_name":"New Jersey","lat":39.93657,"lng":-74.61095,"zip":"08064","miles_from_dt":7.78},{"city":"Pemberton","state_name":"New Jersey","lat":39.9617,"lng":-74.667,"zip":"08068","miles_from_dt":8.36},{"city":"Birmingham","state_name":"New Jersey","lat":39.97504,"lng":-74.71371,"zip":"08011","miles_from_dt":9.26},{"city":"Atco","state_name":"New Jersey","lat":39.75494,"lng":-74.83007,"zip":"08004","miles_from_dt":9.54},{"city":"Lumberton","state_name":"New Jersey","lat":39.95644,"lng":-74.80627,"zip":"08048","miles_from_dt":10},{"city":"Browns Mills","state_name":"New Jersey","lat":39.92981,"lng":-74.53966,"zip":"08015","miles_from_dt":10.06},{"city":"Chatsworth","state_name":"New Jersey","lat":39.76733,"lng":-74.52781,"zip":"08019","miles_from_dt":10.08},{"city":"Marlton","state_name":"New Jersey","lat":39.86051,"lng":-74.89469,"zip":"08053","miles_from_dt":10.92},{"city":"Waterford Works","state_name":"New Jersey","lat":39.71591,"lng":-74.82686,"zip":"08089","miles_from_dt":11.32},{"city":"Juliustown","state_name":"New Jersey","lat":40.01363,"lng":-74.662,"zip":"08042","miles_from_dt":11.94},{"city":"Hainesport","state_name":"New Jersey","lat":39.97669,"lng":-74.83708,"zip":"08036","miles_from_dt":12.12},{"city":"West Berlin","state_name":"New Jersey","lat":39.80545,"lng":-74.92558,"zip":"08091","miles_from_dt":12.74},{"city":"Mount Holly","state_name":"New Jersey","lat":40.00983,"lng":-74.79105,"zip":"08060","miles_from_dt":12.75},{"city":"Joint Base Mdl","state_name":"New Jersey","lat":40.0093,"lng":-74.58424,"zip":"08640","miles_from_dt":12.86},{"city":"Mount Laurel","state_name":"New Jersey","lat":39.94835,"lng":-74.90472,"zip":"08054","miles_from_dt":13.53},{"city":"Jobstown","state_name":"New Jersey","lat":40.03852,"lng":-74.68263,"zip":"08041","miles_from_dt":13.57},{"city":"Joint Base Mdl","state_name":"New Jersey","lat":40.02819,"lng":-74.58715,"zip":"08641","miles_from_dt":13.98},{"city":"Berlin","state_name":"New Jersey","lat":39.76154,"lng":-74.93279,"zip":"08009","miles_from_dt":14.02},{"city":"Voorhees","state_name":"New Jersey","lat":39.84502,"lng":-74.95492,"zip":"08043","miles_from_dt":14.05},{"city":"Cedar Brook","state_name":"New Jersey","lat":39.71074,"lng":-74.9013,"zip":"08018","miles_from_dt":14.41},{"city":"Gibbsboro","state_name":"New Jersey","lat":39.83329,"lng":-74.9657,"zip":"08026","miles_from_dt":14.64},{"city":"Rancocas","state_name":"New Jersey","lat":40.00952,"lng":-74.86698,"zip":"08073","miles_from_dt":14.88},{"city":"Hammonton","state_name":"New Jersey","lat":39.63272,"lng":-74.77226,"zip":"08037","miles_from_dt":15.07},{"city":"Cherry Hill","state_name":"New Jersey","lat":39.88334,"lng":-74.97191,"zip":"08003","miles_from_dt":15.22},{"city":"Columbus","state_name":"New Jersey","lat":40.06516,"lng":-74.70905,"zip":"08022","miles_from_dt":15.43},{"city":"Cookstown","state_name":"New Jersey","lat":40.04441,"lng":-74.55384,"zip":"08511","miles_from_dt":15.75},{"city":"Winslow","state_name":"New Jersey","lat":39.64514,"lng":-74.85576,"zip":"08095","miles_from_dt":16.17},{"city":"Moorestown","state_name":"New Jersey","lat":39.97948,"lng":-74.94105,"zip":"08057","miles_from_dt":16.34},{"city":"Wrightstown","state_name":"New Jersey","lat":40.06812,"lng":-74.59401,"zip":"08562","miles_from_dt":16.43},{"city":"Willingboro","state_name":"New Jersey","lat":40.02787,"lng":-74.88709,"zip":"08046","miles_from_dt":16.53},{"city":"New Egypt","state_name":"New Jersey","lat":40.01293,"lng":-74.47138,"zip":"08533","miles_from_dt":16.58},{"city":"Clementon","state_name":"New Jersey","lat":39.80604,"lng":-75.00025,"zip":"08021","miles_from_dt":16.65},{"city":"Sicklerville","state_name":"New Jersey","lat":39.73421,"lng":-74.97564,"zip":"08081","miles_from_dt":16.89},{"city":"Cherry Hill","state_name":"New Jersey","lat":39.90593,"lng":-74.99935,"zip":"08034","miles_from_dt":16.99},{"city":"Stratford","state_name":"New Jersey","lat":39.82905,"lng":-75.01557,"zip":"08084","miles_from_dt":17.3},{"city":"Burlington","state_name":"New Jersey","lat":40.06926,"lng":-74.83198,"zip":"08016","miles_from_dt":17.38},{"city":"Maple Shade","state_name":"New Jersey","lat":39.952,"lng":-74.99502,"zip":"08052","miles_from_dt":17.86},{"city":"Somerdale","state_name":"New Jersey","lat":39.84138,"lng":-75.02867,"zip":"08083","miles_from_dt":17.97},{"city":"Lawnside","state_name":"New Jersey","lat":39.86722,"lng":-75.02912,"zip":"08045","miles_from_dt":18.08},{"city":"Egg Harbor City","state_name":"New Jersey","lat":39.58962,"lng":-74.58716,"zip":"08215","miles_from_dt":18.26},{"city":"Bordentown","state_name":"New Jersey","lat":40.10413,"lng":-74.73959,"zip":"08505","miles_from_dt":18.27},{"city":"Elwood","state_name":"New Jersey","lat":39.57702,"lng":-74.71879,"zip":"08217","miles_from_dt":18.34},{"city":"Magnolia","state_name":"New Jersey","lat":39.85463,"lng":-75.03816,"zip":"08049","miles_from_dt":18.5},{"city":"Haddonfield","state_name":"New Jersey","lat":39.89332,"lng":-75.03723,"zip":"08033","miles_from_dt":18.76},{"city":"Cherry Hill","state_name":"New Jersey","lat":39.93142,"lng":-75.02515,"zip":"08002","miles_from_dt":18.81},{"city":"Beverly","state_name":"New Jersey","lat":40.05484,"lng":-74.91407,"zip":"08010","miles_from_dt":18.88},{"city":"Riverside","state_name":"New Jersey","lat":40.02937,"lng":-74.94999,"zip":"08075","miles_from_dt":18.89},{"city":"Chesterfield","state_name":"New Jersey","lat":40.1163,"lng":-74.64568,"zip":"08515","miles_from_dt":19.08},{"city":"Barrington","state_name":"New Jersey","lat":39.86509,"lng":-75.05379,"zip":"08007","miles_from_dt":19.37},{"city":"Roebling","state_name":"New Jersey","lat":40.11556,"lng":-74.77966,"zip":"08554","miles_from_dt":19.46},{"city":"Manchester Township","state_name":"New Jersey","lat":39.96239,"lng":-74.35902,"zip":"08759","miles_from_dt":19.49},{"city":"Riverton","state_name":"New Jersey","lat":40.00193,"lng":-74.99515,"zip":"08077","miles_from_dt":19.58},{"city":"Williamstown","state_name":"New Jersey","lat":39.65096,"lng":-74.96529,"zip":"08094","miles_from_dt":19.68},{"city":"Florence","state_name":"New Jersey","lat":40.11541,"lng":-74.80357,"zip":"08518","miles_from_dt":19.79},{"city":"Blackwood","state_name":"New Jersey","lat":39.78409,"lng":-75.05586,"zip":"08012","miles_from_dt":19.83},{"city":"Glendora","state_name":"New Jersey","lat":39.84097,"lng":-75.06717,"zip":"08029","miles_from_dt":20.02},{"city":"Haddon Heights","state_name":"New Jersey","lat":39.87914,"lng":-75.06435,"zip":"08035","miles_from_dt":20.03},{"city":"Grenloch","state_name":"New Jersey","lat":39.78048,"lng":-75.05952,"zip":"08032","miles_from_dt":20.07},{"city":"Croydon","state_name":"Pennsylvania","lat":40.08874,"lng":-74.89385,"zip":"19021","miles_from_dt":20.15},{"city":"Collingswood","state_name":"New Jersey","lat":39.91453,"lng":-75.06192,"zip":"08108","miles_from_dt":20.36},{"city":"Runnemede","state_name":"New Jersey","lat":39.85202,"lng":-75.07542,"zip":"08078","miles_from_dt":20.47},{"city":"Merchantville","state_name":"New Jersey","lat":39.95006,"lng":-75.05094,"zip":"08109","miles_from_dt":20.54},{"city":"Audubon","state_name":"New Jersey","lat":39.89119,"lng":-75.07388,"zip":"08106","miles_from_dt":20.65},{"city":"Trenton","state_name":"New Jersey","lat":40.13783,"lng":-74.62782,"zip":"08650","miles_from_dt":20.68},{"city":"Bristol","state_name":"Pennsylvania","lat":40.11483,"lng":-74.85474,"zip":"19007","miles_from_dt":20.74},{"city":"Riverton","state_name":"New Jersey","lat":40.01068,"lng":-75.01553,"zip":"08076","miles_from_dt":20.81},{"city":"Newtonville","state_name":"New Jersey","lat":39.56926,"lng":-74.85827,"zip":"08346","miles_from_dt":20.82},{"city":"New Gretna","state_name":"New Jersey","lat":39.59548,"lng":-74.46352,"zip":"08224","miles_from_dt":20.87},{"city":"Forked River","state_name":"New Jersey","lat":39.85946,"lng":-74.29363,"zip":"08731","miles_from_dt":21.15},{"city":"Lakehurst","state_name":"New Jersey","lat":40.0262,"lng":-74.3713,"zip":"08733","miles_from_dt":21.2},{"city":"Barnegat","state_name":"New Jersey","lat":39.75503,"lng":-74.30626,"zip":"08005","miles_from_dt":21.32},{"city":"Oaklyn","state_name":"New Jersey","lat":39.90767,"lng":-75.08344,"zip":"08107","miles_from_dt":21.36},{"city":"Palmyra","state_name":"New Jersey","lat":40.00234,"lng":-75.03589,"zip":"08065","miles_from_dt":21.41},{"city":"Bellmawr","state_name":"New Jersey","lat":39.86876,"lng":-75.09225,"zip":"08099","miles_from_dt":21.43},{"city":"Bellmawr","state_name":"New Jersey","lat":39.86655,"lng":-75.09408,"zip":"08031","miles_from_dt":21.51},{"city":"Mount Ephraim","state_name":"New Jersey","lat":39.88462,"lng":-75.09309,"zip":"08059","miles_from_dt":21.59},{"city":"Pennsauken","state_name":"New Jersey","lat":39.97243,"lng":-75.06021,"zip":"08110","miles_from_dt":21.6},{"city":"Philadelphia","state_name":"Pennsylvania","lat":40.03973,"lng":-75.01932,"zip":"19136","miles_from_dt":22.15},{"city":"Bensalem","state_name":"Pennsylvania","lat":40.10453,"lng":-74.93853,"zip":"19020","miles_from_dt":22.39},{"city":"Levittown","state_name":"Pennsylvania","lat":40.14013,"lng":-74.85718,"zip":"19057","miles_from_dt":22.39},{"city":"Cream Ridge","state_name":"New Jersey","lat":40.13269,"lng":-74.49811,"zip":"08514","miles_from_dt":22.51},{"city":"Camden","state_name":"New Jersey","lat":39.95174,"lng":-75.09107,"zip":"08105","miles_from_dt":22.58},{"city":"Trenton","state_name":"New Jersey","lat":40.16825,"lng":-74.64956,"zip":"08620","miles_from_dt":22.62},{"city":"Levittown","state_name":"Pennsylvania","lat":40.14984,"lng":-74.83881,"zip":"19055","miles_from_dt":22.65},{"city":"Philadelphia","state_name":"Pennsylvania","lat":40.02192,"lng":-75.04966,"zip":"19135","miles_from_dt":22.75},{"city":"Philadelphia","state_name":"Pennsylvania","lat":40.06743,"lng":-75.00361,"zip":"19114","miles_from_dt":22.76},{"city":"Philadelphia","state_name":"Pennsylvania","lat":39.99455,"lng":-75.074,"zip":"19137","miles_from_dt":22.92},{"city":"Gloucester City","state_name":"New Jersey","lat":39.89023,"lng":-75.1178,"zip":"08030","miles_from_dt":22.95},{"city":"Camden","state_name":"New Jersey","lat":39.91672,"lng":-75.11203,"zip":"08104","miles_from_dt":22.98},{"city":"Philadelphia","state_name":"Pennsylvania","lat":40.09002,"lng":-74.98002,"zip":"19155","miles_from_dt":22.99},{"city":"Allentown","state_name":"New Jersey","lat":40.16022,"lng":-74.55237,"zip":"08501","miles_from_dt":23.15},{"city":"Tuckerton","state_name":"New Jersey","lat":39.60751,"lng":-74.37994,"zip":"08087","miles_from_dt":23.15},{"city":"Levittown","state_name":"Pennsylvania","lat":40.155,"lng":-74.85441,"zip":"19058","miles_from_dt":23.28},{"city":"Woodbury","state_name":"New Jersey","lat":39.82921,"lng":-75.12871,"zip":"08096","miles_from_dt":23.31},{"city":"Philadelphia","state_name":"Pennsylvania","lat":40.0951,"lng":-74.98159,"zip":"19154","miles_from_dt":23.31},{"city":"Camden","state_name":"New Jersey","lat":39.93533,"lng":-75.11275,"zip":"08103","miles_from_dt":23.33},{"city":"Sewell","state_name":"New Jersey","lat":39.75714,"lng":-75.11801,"zip":"08080","miles_from_dt":23.48},{"city":"Waretown","state_name":"New Jersey","lat":39.79529,"lng":-74.25296,"zip":"08758","miles_from_dt":23.51},{"city":"Westville","state_name":"New Jersey","lat":39.86098,"lng":-75.13265,"zip":"08093","miles_from_dt":23.54},{"city":"Levittown","state_name":"Pennsylvania","lat":40.15044,"lng":-74.88534,"zip":"19056","miles_from_dt":23.66},{"city":"Levittown","state_name":"Pennsylvania","lat":40.17055,"lng":-74.82016,"zip":"19054","miles_from_dt":23.69},{"city":"Port Republic","state_name":"New Jersey","lat":39.53278,"lng":-74.48523,"zip":"08241","miles_from_dt":23.98},{"city":"Cologne","state_name":"New Jersey","lat":39.49921,"lng":-74.60825,"zip":"08213","miles_from_dt":24.05},{"city":"Philadelphia","state_name":"Pennsylvania","lat":40.03781,"lng":-75.06544,"zip":"19149","miles_from_dt":24.05},{"city":"Franklinville","state_name":"New Jersey","lat":39.61463,"lng":-75.03385,"zip":"08322","miles_from_dt":24.08},{"city":"Camden","state_name":"New Jersey","lat":39.95203,"lng":-75.12134,"zip":"08102","miles_from_dt":24.11},{"city":"Camden","state_name":"New Jersey","lat":39.9409,"lng":-75.12616,"zip":"08101","miles_from_dt":24.13},{"city":"Philadelphia","state_name":"Pennsylvania","lat":40.06158,"lng":-75.04663,"zip":"19152","miles_from_dt":24.22},{"city":"Trenton","state_name":"New Jersey","lat":40.19107,"lng":-74.74299,"zip":"08611","miles_from_dt":24.25},{"city":"Trenton","state_name":"New Jersey","lat":40.19377,"lng":-74.71565,"zip":"08610","miles_from_dt":24.31},{"city":"Clayton","state_name":"New Jersey","lat":39.66143,"lng":-75.08375,"zip":"08312","miles_from_dt":24.35},{"city":"Buena","state_name":"New Jersey","lat":39.52723,"lng":-74.89769,"zip":"08310","miles_from_dt":24.35},{"city":"Toms River","state_name":"New Jersey","lat":39.96061,"lng":-74.25884,"zip":"08757","miles_from_dt":24.37},{"city":"Baptistown","state_name":"New Jersey","lat":39.94625,"lng":-74.25247,"zip":"08803","miles_from_dt":24.38},{"city":"Toms River","state_name":"New Jersey","lat":39.94625,"lng":-74.25247,"zip":"08756","miles_from_dt":24.38},{"city":"Philadelphia","state_name":"Pennsylvania","lat":39.98953,"lng":-75.10838,"zip":"19134","miles_from_dt":24.41},{"city":"Landisville","state_name":"New Jersey","lat":39.53847,"lng":-74.92761,"zip":"08326","miles_from_dt":24.45},{"city":"Wenonah","state_name":"New Jersey","lat":39.79777,"lng":-75.14849,"zip":"08090","miles_from_dt":24.54},{"city":"Imlaystown","state_name":"New Jersey","lat":40.1649,"lng":-74.49606,"zip":"08526","miles_from_dt":24.56},{"city":"Woodbury Heights","state_name":"New Jersey","lat":39.81571,"lng":-75.15117,"zip":"08097","miles_from_dt":24.56},{"city":"Philadelphia","state_name":"Pennsylvania","lat":40.01728,"lng":-75.09387,"zip":"19124","miles_from_dt":24.59},{"city":"Fairless Hills","state_name":"Pennsylvania","lat":40.1812,"lng":-74.83269,"zip":"19030","miles_from_dt":24.59},{"city":"Pitman","state_name":"New Jersey","lat":39.73227,"lng":-75.13457,"zip":"08071","miles_from_dt":24.81},{"city":"Newfield","state_name":"New Jersey","lat":39.56707,"lng":-74.99185,"zip":"08344","miles_from_dt":24.84},{"city":"Philadelphia","state_name":"Pennsylvania","lat":39.97611,"lng":-75.12472,"zip":"19125","miles_from_dt":24.85},{"city":"Philadelphia","state_name":"Pennsylvania","lat":39.91175,"lng":-75.1514,"zip":"19148","miles_from_dt":24.96},{"city":"Glassboro","state_name":"New Jersey","lat":39.69336,"lng":-75.11949,"zip":"08028","miles_from_dt":25.02},{"city":"Philadelphia","state_name":"Pennsylvania","lat":39.94589,"lng":-75.14224,"zip":"19106","miles_from_dt":25.04},{"city":"West Creek","state_name":"New Jersey","lat":39.65438,"lng":-74.28428,"zip":"08092","miles_from_dt":25.22},{"city":"Morrisville","state_name":"Pennsylvania","lat":40.19595,"lng":-74.80976,"zip":"19067","miles_from_dt":25.23},{"city":"Trenton","state_name":"New Jersey","lat":40.2059,"lng":-74.75706,"zip":"08625","miles_from_dt":25.35},{"city":"Philadelphia","state_name":"Pennsylvania","lat":39.95145,"lng":-75.14702,"zip":"19181","miles_from_dt":25.4},{"city":"Philadelphia","state_name":"Pennsylvania","lat":39.94534,"lng":-75.15108,"zip":"19172","miles_from_dt":25.48},{"city":"Philadelphia","state_name":"Pennsylvania","lat":39.93645,"lng":-75.15468,"zip":"19147","miles_from_dt":25.5},{"city":"Philadelphia","state_name":"Pennsylvania","lat":40.09094,"lng":-75.04595,"zip":"19115","miles_from_dt":25.51},{"city":"Philadelphia","state_name":"Pennsylvania","lat":39.951,"lng":-75.14975,"zip":"19177","miles_from_dt":25.53},{"city":"Philadelphia","state_name":"Pennsylvania","lat":40.11655,"lng":-75.01399,"zip":"19116","miles_from_dt":25.56},{"city":"Manahawkin","state_name":"New Jersey","lat":39.70291,"lng":-74.24576,"zip":"08050","miles_from_dt":25.56},{"city":"Mizpah","state_name":"New Jersey","lat":39.48808,"lng":-74.83431,"zip":"08342","miles_from_dt":25.59},{"city":"Philadelphia","state_name":"Pennsylvania","lat":39.96399,"lng":-75.14568,"zip":"19123","miles_from_dt":25.6},{"city":"Jackson","state_name":"New Jersey","lat":40.10478,"lng":-74.35035,"zip":"08527","miles_from_dt":25.6},{"city":"Philadelphia","state_name":"Pennsylvania","lat":40.06065,"lng":-75.08019,"zip":"19111","miles_from_dt":25.6},{"city":"Philadelphia","state_name":"Pennsylvania","lat":39.95144,"lng":-75.15151,"zip":"19244","miles_from_dt":25.62},{"city":"Philadelphia","state_name":"Pennsylvania","lat":40.1176,"lng":-75.01451,"zip":"19019","miles_from_dt":25.63},{"city":"Philadelphia","state_name":"Pennsylvania","lat":39.89154,"lng":-75.16942,"zip":"19185","miles_from_dt":25.68},{"city":"Philadelphia","state_name":"Pennsylvania","lat":39.88999,"lng":-75.16985,"zip":"19112","miles_from_dt":25.69},{"city":"Philadelphia","state_name":"Pennsylvania","lat":39.94999,"lng":-75.15464,"zip":"19175","miles_from_dt":25.75},{"city":"Philadelphia","state_name":"Pennsylvania","lat":40.06546,"lng":-75.0807,"zip":"19161","miles_from_dt":25.82},{"city":"Robbinsville","state_name":"New Jersey","lat":40.20953,"lng":-74.59919,"zip":"08691","miles_from_dt":25.82},{"city":"Pomona","state_name":"New Jersey","lat":39.48676,"lng":-74.53633,"zip":"08240","miles_from_dt":25.85},{"city":"Philadelphia","state_name":"Pennsylvania","lat":39.95563,"lng":-75.15526,"zip":"19171","miles_from_dt":25.9},{"city":"Philadelphia","state_name":"Pennsylvania","lat":39.97767,"lng":-75.14571,"zip":"19122","miles_from_dt":25.92},{"city":"Philadelphia","state_name":"Pennsylvania","lat":39.9518,"lng":-75.15864,"zip":"19107","miles_from_dt":25.99},{"city":"Fort Washington","state_name":"Pennsylvania","lat":40.17527,"lng":-74.91979,"zip":"19049","miles_from_dt":26.01},{"city":"Philadelphia","state_name":"Pennsylvania","lat":39.95,"lng":-75.1601,"zip":"19182","miles_from_dt":26.03},{"city":"Philadelphia","state_name":"Pennsylvania","lat":39.95193,"lng":-75.16046,"zip":"19105","miles_from_dt":26.09},{"city":"Richland","state_name":"New Jersey","lat":39.49134,"lng":-74.87413,"zip":"08350","miles_from_dt":26.09},{"city":"Philadelphia","state_name":"Pennsylvania","lat":39.99238,"lng":-75.14149,"zip":"19133","miles_from_dt":26.1},{"city":"Philadelphia","state_name":"Pennsylvania","lat":39.95,"lng":-75.16219,"zip":"19190","miles_from_dt":26.14},{"city":"Philadelphia","state_name":"Pennsylvania","lat":39.95,"lng":-75.16219,"zip":"19195","miles_from_dt":26.14},{"city":"Philadelphia","state_name":"Pennsylvania","lat":39.95307,"lng":-75.16103,"zip":"19099","miles_from_dt":26.14},{"city":"Fort Washington","state_name":"Pennsylvania","lat":40.17607,"lng":-74.92482,"zip":"19048","miles_from_dt":26.18},{"city":"Langhorne","state_name":"Pennsylvania","lat":40.18207,"lng":-74.91062,"zip":"19047","miles_from_dt":26.2},{"city":"Philadelphia","state_name":"Pennsylvania","lat":39.95126,"lng":-75.1631,"zip":"19255","miles_from_dt":26.21},{"city":"Philadelphia","state_name":"Pennsylvania","lat":39.95253,"lng":-75.1628,"zip":"19101","miles_from_dt":26.22},{"city":"Trenton","state_name":"New Jersey","lat":40.22066,"lng":-74.73127,"zip":"08629","miles_from_dt":26.22},{"city":"Philadelphia","state_name":"Pennsylvania","lat":39.94958,"lng":-75.16387,"zip":"19109","miles_from_dt":26.22},{"city":"Trenton","state_name":"New Jersey","lat":40.21719,"lng":-74.76963,"zip":"08645","miles_from_dt":26.22},{"city":"Trenton","state_name":"New Jersey","lat":40.21789,"lng":-74.76342,"zip":"08646","miles_from_dt":26.22},{"city":"Minotola","state_name":"New Jersey","lat":39.52002,"lng":-74.9524,"zip":"08341","miles_from_dt":26.23},{"city":"Mantua","state_name":"New Jersey","lat":39.78583,"lng":-75.17903,"zip":"08051","miles_from_dt":26.27},{"city":"Philadelphia","state_name":"Pennsylvania","lat":39.95987,"lng":-75.16083,"zip":"19108","miles_from_dt":26.27},{"city":"Philadelphia","state_name":"Pennsylvania","lat":39.96334,"lng":-75.15953,"zip":"19188","miles_from_dt":26.28},{"city":"Trenton","state_name":"New Jersey","lat":40.21857,"lng":-74.76894,"zip":"08647","miles_from_dt":26.31},{"city":"Trenton","state_name":"New Jersey","lat":40.21927,"lng":-74.76518,"zip":"08605","miles_from_dt":26.33},{"city":"Thorofare","state_name":"New Jersey","lat":39.85136,"lng":-75.18582,"zip":"08086","miles_from_dt":26.34},{"city":"Trenton","state_name":"New Jersey","lat":40.2196,"lng":-74.76437,"zip":"08604","miles_from_dt":26.35},{"city":"National Park","state_name":"New Jersey","lat":39.86758,"lng":-75.18509,"zip":"08063","miles_from_dt":26.35},{"city":"Philadelphia","state_name":"Pennsylvania","lat":39.95301,"lng":-75.16544,"zip":"19102","miles_from_dt":26.36},{"city":"Trenton","state_name":"New Jersey","lat":40.21947,"lng":-74.76693,"zip":"08608","miles_from_dt":26.36},{"city":"Trenton","state_name":"New Jersey","lat":40.2199,"lng":-74.76374,"zip":"08601","miles_from_dt":26.36},{"city":"Philadelphia","state_name":"Pennsylvania","lat":40.03417,"lng":-75.11986,"zip":"19120","miles_from_dt":26.37},{"city":"Philadelphia","state_name":"Pennsylvania","lat":39.95228,"lng":-75.16597,"zip":"19191","miles_from_dt":26.38},{"city":"Trenton","state_name":"New Jersey","lat":40.21954,"lng":-74.76969,"zip":"08666","miles_from_dt":26.39},{"city":"Philadelphia","state_name":"Pennsylvania","lat":39.95356,"lng":-75.16602,"zip":"19110","miles_from_dt":26.4},{"city":"Trenton","state_name":"New Jersey","lat":40.22051,"lng":-74.76526,"zip":"08603","miles_from_dt":26.41},{"city":"Trenton","state_name":"New Jersey","lat":40.22086,"lng":-74.76486,"zip":"08695","miles_from_dt":26.44},{"city":"Feasterville Trevose","state_name":"Pennsylvania","lat":40.15475,"lng":-74.97918,"zip":"19053","miles_from_dt":26.46},{"city":"Philadelphia","state_name":"Pennsylvania","lat":39.95173,"lng":-75.16796,"zip":"19192","miles_from_dt":26.47},{"city":"Trenton","state_name":"New Jersey","lat":40.22512,"lng":-74.66081,"zip":"08690","miles_from_dt":26.48},{"city":"Philadelphia","state_name":"Pennsylvania","lat":39.95477,"lng":-75.16769,"zip":"19187","miles_from_dt":26.51},{"city":"Philadelphia","state_name":"Pennsylvania","lat":39.9516,"lng":-75.169,"zip":"19183","miles_from_dt":26.52},{"city":"Trenton","state_name":"New Jersey","lat":40.22185,"lng":-74.76973,"zip":"08607","miles_from_dt":26.54},{"city":"Philadelphia","state_name":"Pennsylvania","lat":39.95473,"lng":-75.16986,"zip":"19173","miles_from_dt":26.62},{"city":"Trenton","state_name":"New Jersey","lat":40.22594,"lng":-74.74109,"zip":"08609","miles_from_dt":26.63},{"city":"Beachwood","state_name":"New Jersey","lat":39.92863,"lng":-74.20224,"zip":"08722","miles_from_dt":26.64},{"city":"Trenton","state_name":"New Jersey","lat":40.21804,"lng":-74.57625,"zip":"08602","miles_from_dt":26.65},{"city":"Cheltenham","state_name":"Pennsylvania","lat":40.05966,"lng":-75.10586,"zip":"19012","miles_from_dt":26.67},{"city":"Mays Landing","state_name":"New Jersey","lat":39.4566,"lng":-74.73814,"zip":"08330","miles_from_dt":26.71},{"city":"Richwood","state_name":"New Jersey","lat":39.71289,"lng":-75.16379,"zip":"08074","miles_from_dt":26.71},{"city":"Malaga","state_name":"New Jersey","lat":39.5797,"lng":-75.06015,"zip":"08328","miles_from_dt":26.74},{"city":"Philadelphia","state_name":"Pennsylvania","lat":39.95303,"lng":-75.17386,"zip":"19103","miles_from_dt":26.79},{"city":"Trenton","state_name":"New Jersey","lat":40.22019,"lng":-74.57602,"zip":"08606","miles_from_dt":26.8},{"city":"Philadelphia","state_name":"Pennsylvania","lat":40.01224,"lng":-75.14512,"zip":"19140","miles_from_dt":26.84},{"city":"Philadelphia","state_name":"Pennsylvania","lat":40.01,"lng":-75.15001,"zip":"19160","miles_from_dt":27.01},{"city":"Philadelphia","state_name":"Pennsylvania","lat":39.93917,"lng":-75.18398,"zip":"19146","miles_from_dt":27.06},{"city":"Philadelphia","state_name":"Pennsylvania","lat":39.9547,"lng":-75.17878,"zip":"19197","miles_from_dt":27.08},{"city":"Philadelphia","state_name":"Pennsylvania","lat":39.91469,"lng":-75.19194,"zip":"19145","miles_from_dt":27.11},{"city":"Philadelphia","state_name":"Pennsylvania","lat":39.9676,"lng":-75.17495,"zip":"19130","miles_from_dt":27.15},{"city":"Philadelphia","state_name":"Pennsylvania","lat":39.95,"lng":-75.18219,"zip":"19194","miles_from_dt":27.16},{"city":"Philadelphia","state_name":"Pennsylvania","lat":39.95258,"lng":-75.18178,"zip":"19092","miles_from_dt":27.19},{"city":"Philadelphia","state_name":"Pennsylvania","lat":39.9557,"lng":-75.18101,"zip":"19162","miles_from_dt":27.21},{"city":"Philadelphia","state_name":"Pennsylvania","lat":39.95201,"lng":-75.18332,"zip":"19170","miles_from_dt":27.25},{"city":"Philadelphia","state_name":"Pennsylvania","lat":39.95591,"lng":-75.18238,"zip":"19093","miles_from_dt":27.28},{"city":"Bayville","state_name":"New Jersey","lat":39.9071,"lng":-74.1846,"zip":"08721","miles_from_dt":27.28},{"city":"Philadelphia","state_name":"Pennsylvania","lat":39.9532,"lng":-75.1839,"zip":"19184","miles_from_dt":27.31},{"city":"Toms River","state_name":"New Jersey","lat":40.00968,"lng":-74.22457,"zip":"08755","miles_from_dt":27.33},{"city":"Philadelphia","state_name":"Pennsylvania","lat":39.95568,"lng":-75.18406,"zip":"19193","miles_from_dt":27.36},{"city":"Philadelphia","state_name":"Pennsylvania","lat":39.95309,"lng":-75.18496,"zip":"19178","miles_from_dt":27.36},{"city":"Leeds Point","state_name":"New Jersey","lat":39.49915,"lng":-74.43253,"zip":"08220","miles_from_dt":27.37},{"city":"Philadelphia","state_name":"Pennsylvania","lat":39.95744,"lng":-75.18426,"zip":"19196","miles_from_dt":27.41},{"city":"Trenton","state_name":"New Jersey","lat":40.2414,"lng":-74.69669,"zip":"08619","miles_from_dt":27.56},{"city":"Mount Royal","state_name":"New Jersey","lat":39.80459,"lng":-75.207,"zip":"08061","miles_from_dt":27.58},{"city":"Philadelphia","state_name":"Pennsylvania","lat":39.99649,"lng":-75.17102,"zip":"19132","miles_from_dt":27.65},{"city":"Philadelphia","state_name":"Pennsylvania","lat":40.03788,"lng":-75.14541,"zip":"19141","miles_from_dt":27.67},{"city":"Philadelphia","state_name":"Pennsylvania","lat":39.98231,"lng":-75.17995,"zip":"19121","miles_from_dt":27.74},{"city":"Millstone Township","state_name":"New Jersey","lat":40.18798,"lng":-74.42351,"zip":"08510","miles_from_dt":27.77},{"city":"Philadelphia","state_name":"Pennsylvania","lat":40.05516,"lng":-75.13728,"zip":"19126","miles_from_dt":27.9},{"city":"Lanoka Harbor","state_name":"New Jersey","lat":39.86331,"lng":-74.16608,"zip":"08734","miles_from_dt":27.94},{"city":"Ewan","state_name":"New Jersey","lat":39.69757,"lng":-75.18274,"zip":"08025","miles_from_dt":28.02},{"city":"Elkins Park","state_name":"Pennsylvania","lat":40.07347,"lng":-75.12453,"zip":"19027","miles_from_dt":28.03},{"city":"Huntingdon Valley","state_name":"Pennsylvania","lat":40.13323,"lng":-75.06222,"zip":"19006","miles_from_dt":28.15},{"city":"Philadelphia","state_name":"Pennsylvania","lat":39.95891,"lng":-75.19836,"zip":"19104","miles_from_dt":28.15},{"city":"Absecon","state_name":"New Jersey","lat":39.47455,"lng":-74.45698,"zip":"08205","miles_from_dt":28.25},{"city":"Jenkintown","state_name":"Pennsylvania","lat":40.10133,"lng":-75.10558,"zip":"19046","miles_from_dt":28.37},{"city":"Bryn Athyn","state_name":"Pennsylvania","lat":40.13775,"lng":-75.06308,"zip":"19009","miles_from_dt":28.41},{"city":"Clarksboro","state_name":"New Jersey","lat":39.79674,"lng":-75.22271,"zip":"08020","miles_from_dt":28.47},{"city":"Windsor","state_name":"New Jersey","lat":40.24659,"lng":-74.58138,"zip":"08561","miles_from_dt":28.51},{"city":"Trenton","state_name":"New Jersey","lat":40.24878,"lng":-74.78734,"zip":"08618","miles_from_dt":28.53},{"city":"Pine Beach","state_name":"New Jersey","lat":39.93632,"lng":-74.16779,"zip":"08741","miles_from_dt":28.55},{"city":"Roosevelt","state_name":"New Jersey","lat":40.22116,"lng":-74.473,"zip":"08555","miles_from_dt":28.6},{"city":"Paulsboro","state_name":"New Jersey","lat":39.83475,"lng":-75.23017,"zip":"08066","miles_from_dt":28.69},{"city":"Philadelphia","state_name":"Pennsylvania","lat":40.01338,"lng":-75.18454,"zip":"19129","miles_from_dt":28.77},{"city":"Oceanville","state_name":"New Jersey","lat":39.4648,"lng":-74.46038,"zip":"08231","miles_from_dt":28.77},{"city":"Trenton","state_name":"New Jersey","lat":40.25531,"lng":-74.76222,"zip":"08638","miles_from_dt":28.77},{"city":"Philadelphia","state_name":"Pennsylvania","lat":40.03278,"lng":-75.17523,"zip":"19144","miles_from_dt":28.9},{"city":"Philadelphia","state_name":"Pennsylvania","lat":40.05594,"lng":-75.15947,"zip":"19138","miles_from_dt":28.94},{"city":"Philadelphia","state_name":"Pennsylvania","lat":40.03206,"lng":-75.17755,"zip":"19179","miles_from_dt":28.99},{"city":"Philadelphia","state_name":"Pennsylvania","lat":39.88391,"lng":-75.2343,"zip":"19153","miles_from_dt":29.04},{"city":"Monroeville","state_name":"New Jersey","lat":39.64057,"lng":-75.1699,"zip":"08343","miles_from_dt":29.06},{"city":"Beach Haven","state_name":"New Jersey","lat":39.62188,"lng":-74.22421,"zip":"08008","miles_from_dt":29.12},{"city":"Southampton","state_name":"Pennsylvania","lat":40.1879,"lng":-75.00557,"zip":"18966","miles_from_dt":29.13},{"city":"Vineland","state_name":"New Jersey","lat":39.49374,"lng":-75.00352,"zip":"08360","miles_from_dt":29.24},{"city":"Philadelphia","state_name":"Pennsylvania","lat":39.94315,"lng":-75.22664,"zip":"19143","miles_from_dt":29.32},{"city":"Philadelphia","state_name":"Pennsylvania","lat":39.92278,"lng":-75.23375,"zip":"19142","miles_from_dt":29.4},{"city":"Philadelphia","state_name":"Pennsylvania","lat":39.90264,"lng":-75.24032,"zip":"19176","miles_from_dt":29.51},{"city":"Mullica Hill","state_name":"New Jersey","lat":39.71465,"lng":-75.22124,"zip":"08062","miles_from_dt":29.57},{"city":"Wyncote","state_name":"Pennsylvania","lat":40.08588,"lng":-75.15137,"zip":"19095","miles_from_dt":29.69},{"city":"Hightstown","state_name":"New Jersey","lat":40.25555,"lng":-74.53269,"zip":"08520","miles_from_dt":29.74},{"city":"Philadelphia","state_name":"Pennsylvania","lat":39.96144,"lng":-75.22964,"zip":"19139","miles_from_dt":29.8},{"city":"Philadelphia","state_name":"Pennsylvania","lat":39.98865,"lng":-75.21835,"zip":"19131","miles_from_dt":29.8},{"city":"Island Heights","state_name":"New Jersey","lat":39.94177,"lng":-74.14497,"zip":"08732","miles_from_dt":29.81},{"city":"Toms River","state_name":"New Jersey","lat":39.98198,"lng":-74.15887,"zip":"08754","miles_from_dt":29.86}],"targetCityZipCode":"08088","targetCityState":"New Jersey"},"__N_SSG":true}