{"pageProps":{"stateName":"Rhode-island","cityName":"foster","nearbyCities":[{"city":"Clayville","state_name":"Rhode Island","lat":41.77723,"lng":-71.66177,"zip":"02815","miles_from_dt":3.33},{"city":"North Scituate","state_name":"Rhode Island","lat":41.82705,"lng":-71.63083,"zip":"02857","miles_from_dt":5.81},{"city":"Greene","state_name":"Rhode Island","lat":41.69792,"lng":-71.73847,"zip":"02827","miles_from_dt":5.85},{"city":"Sterling","state_name":"Connecticut","lat":41.72708,"lng":-71.81679,"zip":"06377","miles_from_dt":6.04},{"city":"East Killingly","state_name":"Connecticut","lat":41.84743,"lng":-71.80701,"zip":"06243","miles_from_dt":6.15},{"city":"Danielson","state_name":"Connecticut","lat":41.79116,"lng":-71.85711,"zip":"06239","miles_from_dt":6.8},{"city":"Oneco","state_name":"Connecticut","lat":41.68394,"lng":-71.79881,"zip":"06373","miles_from_dt":7.75},{"city":"Hope","state_name":"Rhode Island","lat":41.74461,"lng":-71.58442,"zip":"02831","miles_from_dt":7.76},{"city":"Dayville","state_name":"Connecticut","lat":41.85635,"lng":-71.84904,"zip":"06241","miles_from_dt":8.16},{"city":"Chepachet","state_name":"Rhode Island","lat":41.89959,"lng":-71.69888,"zip":"02814","miles_from_dt":8.23},{"city":"Coventry","state_name":"Rhode Island","lat":41.69035,"lng":-71.61954,"zip":"02816","miles_from_dt":8.39},{"city":"Moosup","state_name":"Connecticut","lat":41.69836,"lng":-71.85016,"zip":"06354","miles_from_dt":8.64},{"city":"Ballouville","state_name":"Connecticut","lat":41.87311,"lng":-71.8635,"zip":"06233","miles_from_dt":9.48},{"city":"Wauregan","state_name":"Connecticut","lat":41.74418,"lng":-71.90981,"zip":"06387","miles_from_dt":9.85},{"city":"Fiskeville","state_name":"Rhode Island","lat":41.73328,"lng":-71.54479,"zip":"02823","miles_from_dt":9.95},{"city":"Rogers","state_name":"Connecticut","lat":41.83738,"lng":-71.90444,"zip":"06263","miles_from_dt":9.97},{"city":"Central Village","state_name":"Connecticut","lat":41.72845,"lng":-71.91008,"zip":"06332","miles_from_dt":10.21},{"city":"Harmony","state_name":"Rhode Island","lat":41.89377,"lng":-71.59129,"zip":"02829","miles_from_dt":10.38},{"city":"Greenville","state_name":"Rhode Island","lat":41.87672,"lng":-71.56065,"zip":"02828","miles_from_dt":10.74},{"city":"Cranston","state_name":"Rhode Island","lat":41.76292,"lng":-71.51571,"zip":"02921","miles_from_dt":10.94},{"city":"West Greenwich","state_name":"Rhode Island","lat":41.6291,"lng":-71.66711,"zip":"02817","miles_from_dt":10.99},{"city":"Johnston","state_name":"Rhode Island","lat":41.82733,"lng":-71.52002,"zip":"02919","miles_from_dt":11.08},{"city":"Putnam","state_name":"Connecticut","lat":41.90898,"lng":-71.87181,"zip":"06260","miles_from_dt":11.55},{"city":"Brooklyn","state_name":"Connecticut","lat":41.78938,"lng":-71.95266,"zip":"06234","miles_from_dt":11.72},{"city":"Mapleville","state_name":"Rhode Island","lat":41.9433,"lng":-71.64581,"zip":"02839","miles_from_dt":11.87},{"city":"Plainfield","state_name":"Connecticut","lat":41.6798,"lng":-71.91441,"zip":"06374","miles_from_dt":12.03},{"city":"West Warwick","state_name":"Rhode Island","lat":41.69856,"lng":-71.51566,"zip":"02893","miles_from_dt":12.31},{"city":"Pascoag","state_name":"Rhode Island","lat":41.9665,"lng":-71.7464,"zip":"02859","miles_from_dt":12.77},{"city":"Oakland","state_name":"Rhode Island","lat":41.96354,"lng":-71.64893,"zip":"02858","miles_from_dt":13.14},{"city":"Cranston","state_name":"Rhode Island","lat":41.76719,"lng":-71.4655,"zip":"02920","miles_from_dt":13.5},{"city":"Smithfield","state_name":"Rhode Island","lat":41.90615,"lng":-71.52365,"zip":"02917","miles_from_dt":13.5},{"city":"North Providence","state_name":"Rhode Island","lat":41.85467,"lng":-71.47325,"zip":"02911","miles_from_dt":13.97},{"city":"Thompson","state_name":"Connecticut","lat":41.96895,"lng":-71.83927,"zip":"06277","miles_from_dt":14.16},{"city":"Pomfret","state_name":"Connecticut","lat":41.88554,"lng":-71.96353,"zip":"06258","miles_from_dt":14.19},{"city":"Harrisville","state_name":"Rhode Island","lat":41.98016,"lng":-71.6484,"zip":"02830","miles_from_dt":14.24},{"city":"Providence","state_name":"Rhode Island","lat":41.81825,"lng":-71.45078,"zip":"02909","miles_from_dt":14.43},{"city":"Glendale","state_name":"Rhode Island","lat":41.98248,"lng":-71.64539,"zip":"02826","miles_from_dt":14.44},{"city":"Warwick","state_name":"Rhode Island","lat":41.70493,"lng":-71.45892,"zip":"02886","miles_from_dt":14.79},{"city":"Voluntown","state_name":"Connecticut","lat":41.58188,"lng":-71.83139,"zip":"06384","miles_from_dt":14.86},{"city":"Cranston","state_name":"Rhode Island","lat":41.77552,"lng":-71.43564,"zip":"02910","miles_from_dt":15},{"city":"Pomfret Center","state_name":"Connecticut","lat":41.8703,"lng":-71.99248,"zip":"06259","miles_from_dt":15.04},{"city":"Providence","state_name":"Rhode Island","lat":41.83877,"lng":-71.43926,"zip":"02908","miles_from_dt":15.31},{"city":"Canterbury","state_name":"Connecticut","lat":41.69717,"lng":-72.00109,"zip":"06331","miles_from_dt":15.38},{"city":"East Greenwich","state_name":"Rhode Island","lat":41.64214,"lng":-71.49307,"zip":"02818","miles_from_dt":15.44},{"city":"Abington","state_name":"Connecticut","lat":41.84652,"lng":-72.01367,"zip":"06230","miles_from_dt":15.51},{"city":"Providence","state_name":"Rhode Island","lat":41.79867,"lng":-71.42581,"zip":"02907","miles_from_dt":15.54},{"city":"Exeter","state_name":"Rhode Island","lat":41.56736,"lng":-71.63348,"zip":"02822","miles_from_dt":15.57},{"city":"Grosvenor Dale","state_name":"Connecticut","lat":41.96956,"lng":-71.8943,"zip":"06246","miles_from_dt":15.58},{"city":"Providence","state_name":"Rhode Island","lat":41.84386,"lng":-71.43499,"zip":"02918","miles_from_dt":15.62},{"city":"South Woodstock","state_name":"Connecticut","lat":41.9302,"lng":-71.95897,"zip":"06267","miles_from_dt":15.78},{"city":"Providence","state_name":"Rhode Island","lat":41.86058,"lng":-71.43539,"zip":"02904","miles_from_dt":15.95},{"city":"North Smithfield","state_name":"Rhode Island","lat":41.97285,"lng":-71.55027,"zip":"02896","miles_from_dt":15.98},{"city":"Providence","state_name":"Rhode Island","lat":41.82272,"lng":-71.42064,"zip":"02940","miles_from_dt":16.01},{"city":"Warwick","state_name":"Rhode Island","lat":41.74909,"lng":-71.41123,"zip":"02888","miles_from_dt":16.42},{"city":"Providence","state_name":"Rhode Island","lat":41.81902,"lng":-71.41003,"zip":"02903","miles_from_dt":16.51},{"city":"Providence","state_name":"Rhode Island","lat":41.82468,"lng":-71.41079,"zip":"02902","miles_from_dt":16.54},{"city":"Warwick","state_name":"Rhode Island","lat":41.70268,"lng":-71.42316,"zip":"02887","miles_from_dt":16.58},{"city":"Slatersville","state_name":"Rhode Island","lat":41.99801,"lng":-71.58301,"zip":"02876","miles_from_dt":16.62},{"city":"Providence","state_name":"Rhode Island","lat":41.82682,"lng":-71.408,"zip":"02901","miles_from_dt":16.71},{"city":"North Grosvenordale","state_name":"Connecticut","lat":41.98791,"lng":-71.90299,"zip":"06255","miles_from_dt":16.88},{"city":"Providence","state_name":"Rhode Island","lat":41.78769,"lng":-71.39886,"zip":"02905","miles_from_dt":16.9},{"city":"Lincoln","state_name":"Rhode Island","lat":41.91251,"lng":-71.44822,"zip":"02865","miles_from_dt":16.92},{"city":"Providence","state_name":"Rhode Island","lat":41.82783,"lng":-71.39959,"zip":"02912","miles_from_dt":17.15},{"city":"Forestdale","state_name":"Rhode Island","lat":41.99934,"lng":-71.56322,"zip":"02824","miles_from_dt":17.18},{"city":"Hampton","state_name":"Connecticut","lat":41.76829,"lng":-72.06548,"zip":"06247","miles_from_dt":17.57},{"city":"Jewett City","state_name":"Connecticut","lat":41.58873,"lng":-71.94854,"zip":"06351","miles_from_dt":17.63},{"city":"Providence","state_name":"Rhode Island","lat":41.83964,"lng":-71.38963,"zip":"02906","miles_from_dt":17.81},{"city":"Rockville","state_name":"Rhode Island","lat":41.5257,"lng":-71.77734,"zip":"02873","miles_from_dt":17.9},{"city":"Manville","state_name":"Rhode Island","lat":41.96552,"lng":-71.47628,"zip":"02838","miles_from_dt":18.06},{"city":"Warwick","state_name":"Rhode Island","lat":41.70602,"lng":-71.39106,"zip":"02889","miles_from_dt":18.09},{"city":"Wyoming","state_name":"Rhode Island","lat":41.52184,"lng":-71.67166,"zip":"02898","miles_from_dt":18.18},{"city":"Albion","state_name":"Rhode Island","lat":41.95221,"lng":-71.4559,"zip":"02802","miles_from_dt":18.22},{"city":"Pawtucket","state_name":"Rhode Island","lat":41.87036,"lng":-71.38855,"zip":"02860","miles_from_dt":18.45},{"city":"Central Falls","state_name":"Rhode Island","lat":41.89005,"lng":-71.39336,"zip":"02863","miles_from_dt":18.71},{"city":"East Providence","state_name":"Rhode Island","lat":41.81326,"lng":-71.36608,"zip":"02914","miles_from_dt":18.71},{"city":"Douglas","state_name":"Massachusetts","lat":42.0528,"lng":-71.75106,"zip":"01516","miles_from_dt":18.73},{"city":"East Woodstock","state_name":"Connecticut","lat":41.98632,"lng":-71.97448,"zip":"06244","miles_from_dt":19.05},{"city":"Woonsocket","state_name":"Rhode Island","lat":42.00103,"lng":-71.49923,"zip":"02895","miles_from_dt":19.1},{"city":"Pawtucket","state_name":"Rhode Island","lat":41.87112,"lng":-71.37567,"zip":"02862","miles_from_dt":19.1},{"city":"Hope Valley","state_name":"Rhode Island","lat":41.50469,"lng":-71.72807,"zip":"02832","miles_from_dt":19.15},{"city":"North Kingstown","state_name":"Rhode Island","lat":41.58809,"lng":-71.46094,"zip":"02852","miles_from_dt":19.16},{"city":"Millville","state_name":"Massachusetts","lat":42.03906,"lng":-71.57767,"zip":"01529","miles_from_dt":19.31},{"city":"Fabyan","state_name":"Connecticut","lat":42.01424,"lng":-71.93716,"zip":"06245","miles_from_dt":19.37},{"city":"Riverside","state_name":"Rhode Island","lat":41.77725,"lng":-71.34906,"zip":"02915","miles_from_dt":19.47},{"city":"Uxbridge","state_name":"Massachusetts","lat":42.05895,"lng":-71.63741,"zip":"01569","miles_from_dt":19.64},{"city":"Webster","state_name":"Massachusetts","lat":42.05206,"lng":-71.8485,"zip":"01570","miles_from_dt":19.67},{"city":"Rumford","state_name":"Rhode Island","lat":41.84438,"lng":-71.35258,"zip":"02916","miles_from_dt":19.75},{"city":"Slocum","state_name":"Rhode Island","lat":41.53651,"lng":-71.52724,"zip":"02877","miles_from_dt":19.83},{"city":"Woodstock","state_name":"Connecticut","lat":41.97253,"lng":-72.01458,"zip":"06281","miles_from_dt":19.86},{"city":"Quinebaug","state_name":"Connecticut","lat":42.01871,"lng":-71.94959,"zip":"06262","miles_from_dt":19.99},{"city":"Hanover","state_name":"Connecticut","lat":41.64829,"lng":-72.0693,"zip":"06350","miles_from_dt":20.01},{"city":"West Kingston","state_name":"Rhode Island","lat":41.50226,"lng":-71.60174,"zip":"02892","miles_from_dt":20.36},{"city":"Scotland","state_name":"Connecticut","lat":41.69869,"lng":-72.10487,"zip":"06264","miles_from_dt":20.41},{"city":"Pawtucket","state_name":"Rhode Island","lat":41.87863,"lng":-71.35228,"zip":"02861","miles_from_dt":20.41},{"city":"Blackstone","state_name":"Massachusetts","lat":42.0399,"lng":-71.53125,"zip":"01504","miles_from_dt":20.43},{"city":"Cumberland","state_name":"Rhode Island","lat":41.97025,"lng":-71.41978,"zip":"02864","miles_from_dt":20.45},{"city":"Baltic","state_name":"Connecticut","lat":41.64199,"lng":-72.07541,"zip":"06330","miles_from_dt":20.5},{"city":"Eastford","state_name":"Connecticut","lat":41.89326,"lng":-72.09706,"zip":"06242","miles_from_dt":20.63},{"city":"Versailles","state_name":"Connecticut","lat":41.60059,"lng":-72.04304,"zip":"06383","miles_from_dt":20.64},{"city":"Chaplin","state_name":"Connecticut","lat":41.79292,"lng":-72.1275,"zip":"06235","miles_from_dt":20.75},{"city":"Hopkinton","state_name":"Rhode Island","lat":41.48117,"lng":-71.77787,"zip":"02833","miles_from_dt":20.94},{"city":"Manchaug","state_name":"Massachusetts","lat":42.08955,"lng":-71.74667,"zip":"01526","miles_from_dt":21.24},{"city":"Carolina","state_name":"Rhode Island","lat":41.47625,"lng":-71.66094,"zip":"02812","miles_from_dt":21.38},{"city":"Barrington","state_name":"Rhode Island","lat":41.7443,"lng":-71.31453,"zip":"02806","miles_from_dt":21.42},{"city":"Woodstock Valley","state_name":"Connecticut","lat":41.94556,"lng":-72.07928,"zip":"06282","miles_from_dt":21.44},{"city":"Seekonk","state_name":"Massachusetts","lat":41.83787,"lng":-71.31736,"zip":"02771","miles_from_dt":21.45},{"city":"Dudley","state_name":"Massachusetts","lat":42.05501,"lng":-71.93519,"zip":"01571","miles_from_dt":21.7},{"city":"North Uxbridge","state_name":"Massachusetts","lat":42.09026,"lng":-71.63989,"zip":"01538","miles_from_dt":21.72},{"city":"Windham","state_name":"Connecticut","lat":41.69237,"lng":-72.13829,"zip":"06280","miles_from_dt":22.2},{"city":"Linwood","state_name":"Massachusetts","lat":42.09899,"lng":-71.64296,"zip":"01525","miles_from_dt":22.28},{"city":"North Windham","state_name":"Connecticut","lat":41.73699,"lng":-72.15723,"zip":"06256","miles_from_dt":22.5},{"city":"Taftville","state_name":"Connecticut","lat":41.56533,"lng":-72.05308,"zip":"06380","miles_from_dt":22.59},{"city":"Shannock","state_name":"Rhode Island","lat":41.46052,"lng":-71.63848,"zip":"02875","miles_from_dt":22.65},{"city":"Saunderstown","state_name":"Rhode Island","lat":41.51543,"lng":-71.46985,"zip":"02874","miles_from_dt":22.68},{"city":"Preston","state_name":"Connecticut","lat":41.52281,"lng":-72.00072,"zip":"06365","miles_from_dt":22.86},{"city":"North Stonington","state_name":"Connecticut","lat":41.46966,"lng":-71.87546,"zip":"06359","miles_from_dt":22.91},{"city":"Kingston","state_name":"Rhode Island","lat":41.4825,"lng":-71.52694,"zip":"02881","miles_from_dt":23.1},{"city":"Wood River Junction","state_name":"Rhode Island","lat":41.44761,"lng":-71.69759,"zip":"02894","miles_from_dt":23.13},{"city":"Mendon","state_name":"Massachusetts","lat":42.09301,"lng":-71.55146,"zip":"01756","miles_from_dt":23.26},{"city":"Whitinsville","state_name":"Massachusetts","lat":42.11837,"lng":-71.66836,"zip":"01588","miles_from_dt":23.4},{"city":"Kenyon","state_name":"Rhode Island","lat":41.45145,"lng":-71.62027,"zip":"02836","miles_from_dt":23.47},{"city":"Prudence Island","state_name":"Rhode Island","lat":41.61718,"lng":-71.32886,"zip":"02872","miles_from_dt":23.48},{"city":"North Attleboro","state_name":"Massachusetts","lat":41.97004,"lng":-71.33586,"zip":"02760","miles_from_dt":23.94},{"city":"Ashaway","state_name":"Rhode Island","lat":41.43546,"lng":-71.77196,"zip":"02804","miles_from_dt":24.04},{"city":"Oxford","state_name":"Massachusetts","lat":42.11649,"lng":-71.85819,"zip":"01540","miles_from_dt":24.06},{"city":"West Millbury","state_name":"Massachusetts","lat":42.12631,"lng":-71.64613,"zip":"01586","miles_from_dt":24.11},{"city":"Ashford","state_name":"Connecticut","lat":41.89126,"lng":-72.17003,"zip":"06278","miles_from_dt":24.13},{"city":"Bellingham","state_name":"Massachusetts","lat":42.0777,"lng":-71.47407,"zip":"02019","miles_from_dt":24.18},{"city":"Warren","state_name":"Rhode Island","lat":41.72821,"lng":-71.26287,"zip":"02885","miles_from_dt":24.22},{"city":"South Windham","state_name":"Connecticut","lat":41.67136,"lng":-72.17048,"zip":"06266","miles_from_dt":24.22},{"city":"Sutton","state_name":"Massachusetts","lat":42.13387,"lng":-71.75179,"zip":"01590","miles_from_dt":24.31},{"city":"Mansfield Center","state_name":"Connecticut","lat":41.77434,"lng":-72.19669,"zip":"06250","miles_from_dt":24.32},{"city":"North Franklin","state_name":"Connecticut","lat":41.61585,"lng":-72.14313,"zip":"06254","miles_from_dt":24.44},{"city":"North Attleboro","state_name":"Massachusetts","lat":41.9793,"lng":-71.33143,"zip":"02761","miles_from_dt":24.48},{"city":"Attleboro","state_name":"Massachusetts","lat":41.93108,"lng":-71.29499,"zip":"02703","miles_from_dt":24.5},{"city":"Bristol","state_name":"Rhode Island","lat":41.68266,"lng":-71.26938,"zip":"02809","miles_from_dt":24.58},{"city":"Sheldonville","state_name":"Massachusetts","lat":42.0348,"lng":-71.386,"zip":"02070","miles_from_dt":24.72},{"city":"Norwich","state_name":"Connecticut","lat":41.54883,"lng":-72.08914,"zip":"06360","miles_from_dt":24.75},{"city":"Southbridge","state_name":"Massachusetts","lat":42.06039,"lng":-72.03377,"zip":"01550","miles_from_dt":24.91},{"city":"Northbridge","state_name":"Massachusetts","lat":42.13991,"lng":-71.64433,"zip":"01534","miles_from_dt":25.05},{"city":"Attleboro Falls","state_name":"Massachusetts","lat":41.96666,"lng":-71.30743,"zip":"02763","miles_from_dt":25.07},{"city":"Rehoboth","state_name":"Massachusetts","lat":41.84394,"lng":-71.24559,"zip":"02769","miles_from_dt":25.17},{"city":"Mashantucket","state_name":"Connecticut","lat":41.46473,"lng":-71.97281,"zip":"06338","miles_from_dt":25.36},{"city":"Willimantic","state_name":"Connecticut","lat":41.70816,"lng":-72.20731,"zip":"06226","miles_from_dt":25.4},{"city":"Peace Dale","state_name":"Rhode Island","lat":41.45165,"lng":-71.50128,"zip":"02883","miles_from_dt":25.6},{"city":"Hopedale","state_name":"Massachusetts","lat":42.12477,"lng":-71.535,"zip":"01747","miles_from_dt":25.61},{"city":"Yantic","state_name":"Connecticut","lat":41.56036,"lng":-72.12338,"zip":"06389","miles_from_dt":25.63},{"city":"Plainville","state_name":"Massachusetts","lat":42.01409,"lng":-71.33642,"zip":"02762","miles_from_dt":25.69},{"city":"Jamestown","state_name":"Rhode Island","lat":41.51479,"lng":-71.37742,"zip":"02835","miles_from_dt":25.8},{"city":"Bradford","state_name":"Rhode Island","lat":41.40606,"lng":-71.74802,"zip":"02808","miles_from_dt":25.98},{"city":"Wakefield","state_name":"Rhode Island","lat":41.42865,"lng":-71.53837,"zip":"02879","miles_from_dt":26.26},{"city":"Franklin","state_name":"Massachusetts","lat":42.08622,"lng":-71.41126,"zip":"02038","miles_from_dt":26.52},{"city":"Swansea","state_name":"Massachusetts","lat":41.75699,"lng":-71.21208,"zip":"02777","miles_from_dt":26.61},{"city":"Wrentham","state_name":"Massachusetts","lat":42.05129,"lng":-71.35522,"zip":"02093","miles_from_dt":26.65},{"city":"Charlestown","state_name":"Rhode Island","lat":41.3971,"lng":-71.67003,"zip":"02813","miles_from_dt":26.73},{"city":"Storrs Mansfield","state_name":"Connecticut","lat":41.79852,"lng":-72.24843,"zip":"06268","miles_from_dt":27.01},{"city":"South Grafton","state_name":"Massachusetts","lat":42.17496,"lng":-71.67762,"zip":"01560","miles_from_dt":27.23},{"city":"Ledyard","state_name":"Connecticut","lat":41.44408,"lng":-71.99851,"zip":"06339","miles_from_dt":27.27},{"city":"Storrs Mansfield","state_name":"Connecticut","lat":41.80998,"lng":-72.25283,"zip":"06269","miles_from_dt":27.28},{"city":"Charlton","state_name":"Massachusetts","lat":42.13509,"lng":-71.96803,"zip":"01507","miles_from_dt":27.37},{"city":"North Oxford","state_name":"Massachusetts","lat":42.16177,"lng":-71.89217,"zip":"01537","miles_from_dt":27.57},{"city":"Wakefield","state_name":"Rhode Island","lat":41.42333,"lng":-71.48416,"zip":"02880","miles_from_dt":27.75},{"city":"Newport","state_name":"Rhode Island","lat":41.51261,"lng":-71.32522,"zip":"02841","miles_from_dt":27.86},{"city":"Portsmouth","state_name":"Rhode Island","lat":41.58384,"lng":-71.2564,"zip":"02871","miles_from_dt":27.88},{"city":"Upton","state_name":"Massachusetts","lat":42.17694,"lng":-71.60516,"zip":"01568","miles_from_dt":27.95},{"city":"Milford","state_name":"Massachusetts","lat":42.15723,"lng":-71.51978,"zip":"01757","miles_from_dt":27.98},{"city":"Narragansett","state_name":"Rhode Island","lat":41.4253,"lng":-71.46816,"zip":"02882","miles_from_dt":28.01},{"city":"Gilman","state_name":"Connecticut","lat":41.57934,"lng":-72.19505,"zip":"06336","miles_from_dt":28.02},{"city":"Chartley","state_name":"Massachusetts","lat":41.96733,"lng":-71.24163,"zip":"02712","miles_from_dt":28.06},{"city":"Somerset","state_name":"Massachusetts","lat":41.71253,"lng":-71.18426,"zip":"02725","miles_from_dt":28.41},{"city":"Millbury","state_name":"Massachusetts","lat":42.19228,"lng":-71.77397,"zip":"01527","miles_from_dt":28.42},{"city":"Bozrah","state_name":"Connecticut","lat":41.54431,"lng":-72.17424,"zip":"06334","miles_from_dt":28.42},{"city":"Willington","state_name":"Connecticut","lat":41.88959,"lng":-72.25933,"zip":"06279","miles_from_dt":28.51},{"city":"Lebanon","state_name":"Connecticut","lat":41.63128,"lng":-72.24019,"zip":"06249","miles_from_dt":28.56},{"city":"Sturbridge","state_name":"Massachusetts","lat":42.1047,"lng":-72.07745,"zip":"01566","miles_from_dt":28.7},{"city":"Charlton City","state_name":"Massachusetts","lat":42.15139,"lng":-71.9896,"zip":"01508","miles_from_dt":28.88},{"city":"Grafton","state_name":"Massachusetts","lat":42.20077,"lng":-71.67892,"zip":"01519","miles_from_dt":29},{"city":"Mansfield Depot","state_name":"Connecticut","lat":41.81589,"lng":-72.286,"zip":"06251","miles_from_dt":29.02},{"city":"Fall River","state_name":"Massachusetts","lat":41.68372,"lng":-71.17949,"zip":"02724","miles_from_dt":29.05},{"city":"Auburn","state_name":"Massachusetts","lat":42.19689,"lng":-71.84549,"zip":"01501","miles_from_dt":29.28},{"city":"Westerly","state_name":"Rhode Island","lat":41.36043,"lng":-71.79429,"zip":"02891","miles_from_dt":29.32},{"city":"Stonington","state_name":"Connecticut","lat":41.38039,"lng":-71.91376,"zip":"06378","miles_from_dt":29.38},{"city":"Pawcatuck","state_name":"Connecticut","lat":41.36685,"lng":-71.85826,"zip":"06379","miles_from_dt":29.47},{"city":"Middletown","state_name":"Rhode Island","lat":41.51739,"lng":-71.27667,"zip":"02842","miles_from_dt":29.57},{"city":"North Dighton","state_name":"Massachusetts","lat":41.8562,"lng":-71.16022,"zip":"02764","miles_from_dt":29.65},{"city":"Old Mystic","state_name":"Connecticut","lat":41.39059,"lng":-71.96288,"zip":"06372","miles_from_dt":29.68},{"city":"Newport","state_name":"Rhode Island","lat":41.47838,"lng":-71.31993,"zip":"02840","miles_from_dt":29.69},{"city":"Holland","state_name":"Massachusetts","lat":42.06012,"lng":-72.16592,"zip":"01521","miles_from_dt":29.71},{"city":"Dighton","state_name":"Massachusetts","lat":41.81681,"lng":-71.15064,"zip":"02715","miles_from_dt":29.81},{"city":"Medway","state_name":"Massachusetts","lat":42.15352,"lng":-71.42906,"zip":"02053","miles_from_dt":29.85},{"city":"Charlton Depot","state_name":"Massachusetts","lat":42.173,"lng":-71.97562,"zip":"01509","miles_from_dt":29.88},{"city":"Gales Ferry","state_name":"Connecticut","lat":41.42943,"lng":-72.06247,"zip":"06335","miles_from_dt":29.94}],"targetCityZipCode":"02825","targetCityState":"Rhode Island"},"__N_SSG":true}